[{"Location":"FOX SPORTS NETWORK","Address":"1 Any Street","City":"Any Street","State":"CA","Zip":"119"},{"Location":"FOX DIGITAL%2FEXEC MONITOR 3","Address":"1 Any Street","City":"Any Town","State":"CA","Zip":"119"},{"Location":"FOX SPORTS - EXECUTIVES","Address":"1 Any Street","City":"Any Town","State":"CA","Zip":"119"},{"Location":"FOX SPORTS NET #2","Address":"1 Any Street","City":"Any Town","State":"CA","Zip":"119"},{"Location":"FOX TAPE-NEW WORLD BLDG","Address":"1 Any Street","City":"Any Town","State":"CA","Zip":"119"},{"Location":"GILBERT-KRUPIN","Address":"1 Any Street","City":"Any Town","State":"CA","Zip":"119"},{"Location":"LOS ANGELES LAKERS","Address":"1 Any Street","City":"Any Town","State":"CA","Zip":"119"},{"Location":"SPORTS USA RADIO","Address":"1 Any Street","City":"Any Town","State":"CA","Zip":"119"},{"Location":"WABASH VALLEY BCAST %2F PRTRK-LA","Address":"1 Any Street","City":"Any Town","State":"CA","Zip":"119"},{"Location":"STAPLES CENTER - SUITES STA","Address":"1 Any Street","City":"Anycity","State":"CA","Zip":"119"},{"Location":"STAPLES CENTER 2 - SUITES STA","Address":"1 Any Street","City":"Anycity","State":"CA","Zip":"119"},{"Location":"STAPLES CENTER 3 - SUITES STA","Address":"1 Any Street","City":"Anycity","State":"CA","Zip":"119"},{"Location":"EDISON FIELD%2FANAHEIM STADIUM","Address":"1 Any Street","City":"Anytown","State":"CA","Zip":"119"},{"Location":"FOX DIGITAL%2FEXECUTIVE MONITOR","Address":"1 Any Street","City":"Anytown","State":"CA","Zip":"119"},{"Location":"FOX DIGITAL%2FEXECUTIVE-MONITOR","Address":"1 Any Street","City":"Anytown","State":"CA","Zip":"119"},{"Location":"FOX SPORTS 2","Address":"1 Any Street","City":"Anytown","State":"CA","Zip":"119"},{"Location":"FOX SPORTS 3","Address":"1 Any Street","City":"Anytown","State":"CA","Zip":"119"},{"Location":"FOX SPORTS NET","Address":"1 Any Street 0","City":"Anytown","State":"CA","Zip":"119"},{"Location":"FOX SPORTS NET #1","Address":"1 Anystreet","City":"Anytown","State":"CA","Zip":"119"},{"Location":"FOX DIGITAL%2FEXEC MONITOR 2","Address":"1 Any Street","City":"Los Angelas","State":"CA","Zip":"119"},{"Location":"FOX DIGITAL STUDIO","Address":"1 Any Street","City":"Los Angeles","State":"CA","Zip":"119"},{"Location":"FOX SPORTS - PRODUCTIONS","Address":"1 Any Street","City":"Los Angeles","State":"CA","Zip":"119"}]