[{"Location":"27 AVE BAR AND GRILL","Address":"2038 N 27th Ave","City":"Phoenix","State":"AZ","Zip":"85009"},{"Location":"ABSS MANFACTURING","Address":"3935 W Adams St","City":"Phoenix","State":"AZ","Zip":"85009"},{"Location":"AIRE FILTER PRODUCTS","Address":"1340 N 29th Dr","City":"Phoenix","State":"AZ","Zip":"85009"},{"Location":"ANGEL COTA","Address":"1446 N 27th Ave","City":"Phoenix","State":"AZ","Zip":"85009"},{"Location":"ANTIOCH MISSIONARY","Address":"1622 N 39th Ave","City":"Phoenix","State":"AZ","Zip":"85009"},{"Location":"ARIZONA BARBER STYLING","Address":"2842 W Van Buren St","City":"Phoenix","State":"AZ","Zip":"85009"},{"Location":"ARIZONA DEPT OF PUBLIC SAFETY","Address":"2102 W Encanto Blvd","City":"Phoenix","State":"AZ","Zip":"85009"},{"Location":"ARIZONA DEPT OF TRANSPORTATION","Address":"2302 W Durango St","City":"Phoenix","State":"AZ","Zip":"85009"},{"Location":"AZ DENTAL","Address":"515 N 35th Ave 122","City":"Phoenix","State":"AZ","Zip":"85009"},{"Location":"BIG E 'S TIRES","Address":"3333 W Buckeye Rd","City":"Phoenix","State":"AZ","Zip":"85009"},{"Location":"CAMPOS AUTO SALES","Address":"3001 W Van Buren St B","City":"Phoenix","State":"AZ","Zip":"85009"},{"Location":"CAMS AUTO","Address":"4032 W Buckeye Rd","City":"Phoenix","State":"AZ","Zip":"85009"},{"Location":"CHICAS CABARET","Address":"2802 N 35th Ave","City":"Phoenix","State":"AZ","Zip":"85009"},{"Location":"CHRIS BAKER","Address":"2741 W Palm Ln","City":"Phoenix","State":"AZ","Zip":"85009"},{"Location":"COMFORT ZONE","Address":"2327 W Palm Ln","City":"Phoenix","State":"AZ","Zip":"85009"},{"Location":"CULLEN SHARP","Address":"2339 N 34th Dr","City":"Phoenix","State":"AZ","Zip":"85009"},{"Location":"DISGO CUSTOMES","Address":"2130 W Monte Vista Rd","City":"Phoenix","State":"AZ","Zip":"85009"},{"Location":"DISTRICT66","Address":"1820 S 31st Ave","City":"Phoenix","State":"AZ","Zip":"85009"},{"Location":"EL NUEVO TAQUITO","Address":"3245 W Van Buren St","City":"Phoenix","State":"AZ","Zip":"85009"},{"Location":"EMPIRE POWER SYSTEMS","Address":"840 N 43rd Ave","City":"Phoenix","State":"AZ","Zip":"85009"},{"Location":"ERNESTO MENDOZA","Address":"2930 W Buckeye Rd","City":"Phoenix","State":"AZ","Zip":"85009"},{"Location":"EXPRESS TITLE","Address":"147 N 27th Ave","City":"Phoenix","State":"AZ","Zip":"85009"},{"Location":"FACILITY SERVICE GROUP","Address":"2720 W Pierce St","City":"Phoenix","State":"AZ","Zip":"85009"},{"Location":"FREDS GROCERIES","Address":"2738 W Van Buren St","City":"Phoenix","State":"AZ","Zip":"85009"},{"Location":"FREEWAY MOTEL","Address":"2425 W Buckeye Rd","City":"Phoenix","State":"AZ","Zip":"85009"},{"Location":"KARLAS KITCHEN","Address":"2448 Grand Ave","City":"Phoenix","State":"AZ","Zip":"85009"},{"Location":"LAS NENAS","Address":"3520 W Mcdowell Rd","City":"Phoenix","State":"AZ","Zip":"85009"},{"Location":"LOS PORTALES RESTAURANT","Address":"2814 N 35th Ave","City":"Phoenix","State":"AZ","Zip":"85009"},{"Location":"LUBRICATION EQUIPMENT COMPANY","Address":"835 N 43rd Ave 114","City":"Phoenix","State":"AZ","Zip":"85009"},{"Location":"MARISCOS LAS ISLITAS DE","Address":"2119 N 35th Ave","City":"Phoenix","State":"AZ","Zip":"85009"},{"Location":"MC LANE FOOD SERVICE","Address":"1825 S 43rd Ave","City":"Phoenix","State":"AZ","Zip":"85009"},{"Location":"MCDONALDS PHOENIX","Address":"220 N 35th Ave","City":"Phoenix","State":"AZ","Zip":"85009"},{"Location":"MD 1260 C OP COMM","Address":"2102 W Encanto Blvd","City":"Phoenix","State":"AZ","Zip":"85009"},{"Location":"MD 1340 EOC","Address":"2010 W Encanto Blvd","City":"Phoenix","State":"AZ","Zip":"85009"},{"Location":"OK TIRE COMPANY COMPANY","Address":"3020 W Buckeye Rd","City":"Phoenix","State":"AZ","Zip":"85009"},{"Location":"OLDCASTLE GLASS INC","Address":"3404 W Papago St","City":"Phoenix","State":"AZ","Zip":"85009"},{"Location":"PIZZA HUT#26975","Address":"1520 N 43rd Ave","City":"Phoenix","State":"AZ","Zip":"85009"},{"Location":"PRO PETROLEUM INC 2","Address":"408 S 43rd Ave","City":"Phoenix","State":"AZ","Zip":"85009"},{"Location":"PROCTER & GAMBLE MFG","Address":"2050 S 35th Ave","City":"Phoenix","State":"AZ","Zip":"85009"},{"Location":"PROGRESSIVE SERVICES INC","Address":"23 N 35th Ave","City":"Phoenix","State":"AZ","Zip":"85009"},{"Location":"RITAS MEXICAN FOOD","Address":"1402 N 35th Ave","City":"Phoenix","State":"AZ","Zip":"85009"},{"Location":"RUSH AUTO RECYCLERS","Address":"2240 S 35th Ave","City":"Phoenix","State":"AZ","Zip":"85009"},{"Location":"S P RICHARDS COMPANY","Address":"1429 S 40th Ave","City":"Phoenix","State":"AZ","Zip":"85009"},{"Location":"SADDLEHORN SALOON","Address":"2338 W Buckeye Rd","City":"Phoenix","State":"AZ","Zip":"85009"},{"Location":"SCOTT MITCHELL","Address":"2726 W Mcdowell Rd","City":"Phoenix","State":"AZ","Zip":"85009"},{"Location":"SHAMROCK FARM","Address":"2702 W Encanto Blvd","City":"Phoenix","State":"AZ","Zip":"85009"},{"Location":"SHAMROCK FOODS","Address":"2540 N 29th Ave","City":"Phoenix","State":"AZ","Zip":"85009"},{"Location":"SKYLINE WINDOW CLEANING","Address":"1501 Nth 29th Ave","City":"Phoenix","State":"AZ","Zip":"85009"},{"Location":"SPORTS BAR","Address":"2831 N 35th Ave","City":"Phoenix","State":"AZ","Zip":"85009"},{"Location":"SUN STAR","Address":"3420 W Vanburen St","City":"Phoenix","State":"AZ","Zip":"85009"},{"Location":"SUSHI SONORA1","Address":"3555 W Mcdowell Rd","City":"Phoenix","State":"AZ","Zip":"85009"},{"Location":"SW WATERWORKS CONTRACTORS INC","Address":"2205 W Grant St","City":"Phoenix","State":"AZ","Zip":"85009"},{"Location":"THERMO KING WEST INC","Address":"2239 N Black Canyon Hwy","City":"Phoenix","State":"AZ","Zip":"85009"},{"Location":"TORTAS PAQUIME","Address":"3024 W Van Buren St","City":"Phoenix","State":"AZ","Zip":"85009"},{"Location":"TP ACOUSTICS","Address":"2515 N 34th Dr","City":"Phoenix","State":"AZ","Zip":"85009"},{"Location":"TRANSPORTE EXPRESS","Address":"131 N 28th Ave","City":"Phoenix","State":"AZ","Zip":"85009"},{"Location":"TRINITY PRAYERS HOUSE","Address":"3137 W Virginia Ave 10","City":"Phoenix","State":"AZ","Zip":"85009"},{"Location":"TRINY'S BEAUTY SALON","Address":"2744 W Mcdowell Rd","City":"Phoenix","State":"AZ","Zip":"85009"},{"Location":"TRUE DELIVERANCE CHURCH","Address":"2445 W Washington St","City":"Phoenix","State":"AZ","Zip":"85009"},{"Location":"TUFESA USA LLC","Address":"1614 N 27th Ave","City":"Phoenix","State":"AZ","Zip":"85009"},{"Location":"UHAUL PHOENIX REPAIR","Address":"2211 W Mcdowell Rd","City":"Phoenix","State":"AZ","Zip":"85009"},{"Location":"VANGUARD TRUCK CENTER","Address":"2402 S 19th Ave","City":"Phoenix","State":"AZ","Zip":"85009"},{"Location":"WW WILLIAMS SOUTHWEST","Address":"2602 S 19th Ave","City":"Phoenix","State":"AZ","Zip":"85009"},{"Location":"XPEDX","Address":"4141 W Van Buren St","City":"Phoenix","State":"AZ","Zip":"85009"},{"Location":"YERBERIA BOTANICA 1","Address":"3750 W Mcdowell Rd 4","City":"Phoenix","State":"AZ","Zip":"85009"}]