[{"Location":"AFFILIATED CARDIOLOGIST","Address":"1331 N 7th St 400","City":"Phoenix","State":"AZ","Zip":"85006"},{"Location":"ARIZONA HEART   INSTITUTE","Address":"2632 N 20th St","City":"Phoenix","State":"AZ","Zip":"85006"},{"Location":"BANDAIDS SHOW CLUB","Address":"2548 N 7th St","City":"Phoenix","State":"AZ","Zip":"85006"},{"Location":"BGSMC FACILITY SERVICES","Address":"1021 E Willetta St","City":"Phoenix","State":"AZ","Zip":"85006"},{"Location":"BRUCE A SPIGNER DBS","Address":"926 E Mcdowell Rd 120","City":"Phoenix","State":"AZ","Zip":"85006"},{"Location":"CHAMBERLIN ASSOCIATE LLC","Address":"2712 N 7th St","City":"Phoenix","State":"AZ","Zip":"85006"},{"Location":"CNG RANCH #503","Address":"1602 E Roosevelt St","City":"Phoenix","State":"AZ","Zip":"85006"},{"Location":"EL CHULLO PERUVIAN REST","Address":"2605 N 7th St","City":"Phoenix","State":"AZ","Zip":"85006"},{"Location":"FILIBERTOS","Address":"1601 E Mcdowell Rd","City":"Phoenix","State":"AZ","Zip":"85006"},{"Location":"GUERO'S BARBER SHOP","Address":"1413 North 16th Street","City":"Phoenix","State":"AZ","Zip":"85006"},{"Location":"LA COCINA","Address":"1550 N 16th St","City":"Phoenix","State":"AZ","Zip":"85006"},{"Location":"MADISON STREET VA ASSOC","Address":"755 E Willetta St","City":"Phoenix","State":"AZ","Zip":"85006"},{"Location":"MEDINAS AUTOMOTIVE INC","Address":"1910 E Mcdowell Rd","City":"Phoenix","State":"AZ","Zip":"85006"},{"Location":"MIRAGE GLASS AND MIRROR","Address":"2245 N 7th St","City":"Phoenix","State":"AZ","Zip":"85006"},{"Location":"MR J'S MARKET","Address":"3202 Mcdowell Avnenue","City":"Phoenix","State":"AZ","Zip":"85006"},{"Location":"NIGHT CLUB EL CAPRI","Address":"2135 E Van Buren St","City":"Phoenix","State":"AZ","Zip":"85006"},{"Location":"PHOENIX BARBER PARLOR","Address":"1532 E Mcdowell Rd","City":"Phoenix","State":"AZ","Zip":"85006"},{"Location":"QUICK & EASY LEGAL SERVI","Address":"1901 N 16th St","City":"Phoenix","State":"AZ","Zip":"85006"},{"Location":"RICE PAPER","Address":"2221 N 7th St","City":"Phoenix","State":"AZ","Zip":"85006"},{"Location":"ROOMING INC","Address":"2201 E Roosevelt St 1","City":"Phoenix","State":"AZ","Zip":"85006"},{"Location":"ROSITAS PLACE","Address":"2310 E Mcdowell Rd","City":"Phoenix","State":"AZ","Zip":"85006"},{"Location":"SILVERADO BILLARES","Address":"1612 E Mcdowell Rd","City":"Phoenix","State":"AZ","Zip":"85006"},{"Location":"THE BERKE LAW FIRM PLLC","Address":"1601 N 7th St 360","City":"Phoenix","State":"AZ","Zip":"85006"},{"Location":"THE LIVING ROOM","Address":"2333 N 7th St","City":"Phoenix","State":"AZ","Zip":"85006"},{"Location":"THE MAIN INGREDIENT","Address":"2337 N 7th St","City":"Phoenix","State":"AZ","Zip":"85006"},{"Location":"URBAN VINE","Address":"2201 N 7th St","City":"Phoenix","State":"AZ","Zip":"85006"},{"Location":"VINTAGESALONBYRALPHEL","Address":"1517est Thomas Rd","City":"Phoenix","State":"AZ","Zip":"85006"},{"Location":"WENDYS 606","Address":"2346 E Mcdowell Rd","City":"Phoenix","State":"AZ","Zip":"85006"},{"Location":"YOUTH DEVELOPMENT","Address":"1830 E Roosevelt St","City":"Phoenix","State":"AZ","Zip":"85006"},{"Location":"YOUTH DEVELOPMENT INST","Address":"1830 E Roosevelt St","City":"Phoenix","State":"AZ","Zip":"85006"}]