[{"Location":"ARIZONA DEPARTMENT OF TRANSPOR","Address":"206 S 17th Ave 121a","City":"Phoenix","State":"AZ","Zip":"85007"},{"Location":"ARIZONA DEPT OF HEALTH SERVICE","Address":"150 N 18th Ave 150","City":"Phoenix","State":"AZ","Zip":"85007"},{"Location":"ARIZONA IRON FURNITURE 1","Address":"1209 Grand Ave","City":"Phoenix","State":"AZ","Zip":"85007"},{"Location":"ARIZONA STATE CREDIT UNION #2","Address":"1812 W Monroe St","City":"Phoenix","State":"AZ","Zip":"85007"},{"Location":"ARTHURS HAIR DESIGN","Address":"802 S 15th Ave","City":"Phoenix","State":"AZ","Zip":"85007"},{"Location":"AUCTION SYSTEMS","Address":"951 W Watkins St","City":"Phoenix","State":"AZ","Zip":"85007"},{"Location":"AZ SUPREME COURT","Address":"1501 W Washington St 221","City":"Phoenix","State":"AZ","Zip":"85007"},{"Location":"BLACK &  GRAY CONSTRUCTION","Address":"1527 N 18th Ave","City":"Phoenix","State":"AZ","Zip":"85007"},{"Location":"CRETE CARRIER CORP","Address":"2346 S 16th Ave","City":"Phoenix","State":"AZ","Zip":"85007"},{"Location":"EB LANE","Address":"733 W Mcdowell Rd","City":"Phoenix","State":"AZ","Zip":"85007"},{"Location":"ELKS LODGE","Address":"1007 S 7th Ave","City":"Phoenix","State":"AZ","Zip":"85007"},{"Location":"EVANS OVERHEAD DOOR","Address":"1202 W Hilton Ave","City":"Phoenix","State":"AZ","Zip":"85007"},{"Location":"FMC 62340000","Address":"1021 S 77th Ave","City":"Phoenix","State":"AZ","Zip":"85007"},{"Location":"INTEGRATED SUPPLY NETWORK INC","Address":"2115 S 11th Ave 100","City":"Phoenix","State":"AZ","Zip":"85007"},{"Location":"IRMAS KITCHEN","Address":"906 N 15th Ave","City":"Phoenix","State":"AZ","Zip":"85007"},{"Location":"JAMROCK CAFE & GRILL","Address":"1718 W Van Buren St","City":"Phoenix","State":"AZ","Zip":"85007"},{"Location":"JH WELDING","Address":"711 W Magnolia St","City":"Phoenix","State":"AZ","Zip":"85007"},{"Location":"JP MCGURKEES","Address":"2822 N 15th Ave","City":"Phoenix","State":"AZ","Zip":"85007"},{"Location":"LA CANASTA CAPITOLIO","Address":"1733 W Van Buren St","City":"Phoenix","State":"AZ","Zip":"85007"},{"Location":"LA CANASTA RESTAURANT","Address":"723 S 7th Ave","City":"Phoenix","State":"AZ","Zip":"85007"},{"Location":"MARICOPA INTEGRATED HEALTH SYS","Address":"1401 S 7th Ave","City":"Phoenix","State":"AZ","Zip":"85007"},{"Location":"ORIGINAL HAMBURGER WORKS","Address":"2801 N 15th Ave","City":"Phoenix","State":"AZ","Zip":"85007"},{"Location":"OTTOWAY INVESTMENTS LLC","Address":"2120 S 7th Ave 140","City":"Phoenix","State":"AZ","Zip":"85007"},{"Location":"ROYAL PAPER CONVERTING","Address":"711 N 17th Ave","City":"Phoenix","State":"AZ","Zip":"85007"},{"Location":"SARA  LEE BAKERY","Address":"738 W Van Buren St","City":"Phoenix","State":"AZ","Zip":"85007"},{"Location":"SCHUFF STEEL","Address":"1841 W Buchanan St","City":"Phoenix","State":"AZ","Zip":"85007"},{"Location":"SIDEBAR","Address":"1514 N 7th Ave","City":"Phoenix","State":"AZ","Zip":"85007"},{"Location":"THE BIKINI LOUNGE","Address":"1502 Grand Ave","City":"Phoenix","State":"AZ","Zip":"85007"},{"Location":"THIRD SPACE","Address":"1028 Grand Ave","City":"Phoenix","State":"AZ","Zip":"85007"},{"Location":"UNIVERSAL BARBER COLLEGE","Address":"1202 S 7th Ave","City":"Phoenix","State":"AZ","Zip":"85007"},{"Location":"VALLEY SUBS ARIZONA 9013","Address":"1515 N 7th Ave 140","City":"Phoenix","State":"AZ","Zip":"85007"},{"Location":"WY MARKET%2CWALEED SAYYCD%2C","Address":"1819 W Buckeye Rd","City":"Phoenix","State":"AZ","Zip":"85007"},{"Location":"ZOYO NEIGHBORHOOD SHOP II","Address":"1515 N 7th Ave 130","City":"Phoenix","State":"AZ","Zip":"85007"}]