[{"Location":"A P S","Address":"502 S 2nd Ave","City":"Phoenix","State":"AZ","Zip":"85003"},{"Location":"BAGDAD OPERATION INC","Address":"333 W Lincoln St","City":"Phoenix","State":"AZ","Zip":"85003"},{"Location":"CIBO","Address":"603 N 5th Ave","City":"Phoenix","State":"AZ","Zip":"85003"},{"Location":"CITYSCAPE COMEDY LLC","Address":"50 W Jefferson St 200","City":"Phoenix","State":"AZ","Zip":"85003"},{"Location":"COMERICA","Address":"400 W Washington St","City":"Phoenix","State":"AZ","Zip":"85003"},{"Location":"CRESENT BALLROOM","Address":"308 N 2nd Ave","City":"Phoenix","State":"AZ","Zip":"85003"},{"Location":"DHS%2FNPPD%2FFEDERAL PROTECT","Address":"230 N 1st Ave 403","City":"Phoenix","State":"AZ","Zip":"85003"},{"Location":"FIRESTONE #013226","Address":"302 W Van Buren St","City":"Phoenix","State":"AZ","Zip":"85003"},{"Location":"GENTLEMAN JOES BARBER SHOP","Address":"12 W Adams St","City":"Phoenix","State":"AZ","Zip":"85003"},{"Location":"INTERNAL REVENUE SERVICE","Address":"230 N 1st Ave 103","City":"Phoenix","State":"AZ","Zip":"85003"},{"Location":"KSAZ-TV","Address":"511 W Adams St","City":"Phoenix","State":"AZ","Zip":"85003"},{"Location":"LUCKY STRIKES PHOENIX","Address":"50 W Jefferson St 240","City":"Phoenix","State":"AZ","Zip":"85003"},{"Location":"MARICOPA COUNTY SHERIFS OFFICE","Address":"100 W Washington St 19th","City":"Phoenix","State":"AZ","Zip":"85003"},{"Location":"MCSO","Address":"550 W Jackson St","City":"Phoenix","State":"AZ","Zip":"85003"},{"Location":"MICHAEL  E ZITON P.C","Address":"45 W Jefferson St 403","City":"Phoenix","State":"AZ","Zip":"85003"},{"Location":"NYPD PIZZA WARNER","Address":"556 West Mc Dowell Rd","City":"Phoenix","State":"AZ","Zip":"85003"},{"Location":"OAKVILLE GROCERY","Address":"50 W Jefferson St 100","City":"Phoenix","State":"AZ","Zip":"85003"},{"Location":"PHOENIX POLICE DEPT MEDIA TRCK","Address":"620 W Washington St 123","City":"Phoenix","State":"AZ","Zip":"85003"},{"Location":"PINKYS BARBERSHOP","Address":"133 W Mcdowell Rd","City":"Phoenix","State":"AZ","Zip":"85003"},{"Location":"PINNACLE WEST CAPITAL CO","Address":"502 S 2nd Ave","City":"Phoenix","State":"AZ","Zip":"85003"},{"Location":"PITA JUNGLE","Address":"1001 N 3rd Ave 3","City":"Phoenix","State":"AZ","Zip":"85003"},{"Location":"PIZZA POWER  LLC.","Address":"301 W Roosevelt St","City":"Phoenix","State":"AZ","Zip":"85003"},{"Location":"ROYAL EXCHANGE LLC","Address":"301 W Roosevelt St","City":"Phoenix","State":"AZ","Zip":"85003"},{"Location":"SCOTTSDALES PEDICABS","Address":"345 N 6th Ave","City":"Phoenix","State":"AZ","Zip":"85003"},{"Location":"SEAMUS MICAFFREY'S","Address":"18 W Monroe St","City":"Phoenix","State":"AZ","Zip":"85003"},{"Location":"SING HIGH","Address":"27 W Madison St","City":"Phoenix","State":"AZ","Zip":"85003"},{"Location":"SOMBRERO MEXICAN FOOD","Address":"2401 S 4th Ave","City":"Phoenix","State":"AZ","Zip":"85003"},{"Location":"SUPERPAWN SHOP 1375","Address":"300 W Mcdowell Rd","City":"Phoenix","State":"AZ","Zip":"85003"},{"Location":"THE PRESS ROOM","Address":"441 W Madison St","City":"Phoenix","State":"AZ","Zip":"85003"},{"Location":"TONYS BARBER SHOP","Address":"10 W Madison St","City":"Phoenix","State":"AZ","Zip":"85003"},{"Location":"TRUE STORY FILMS","Address":"815 N 1st Ave","City":"Phoenix","State":"AZ","Zip":"85003"},{"Location":"A P S","Address":"502 S 2nd Ave","City":"Phoenix","State":"AZ","Zip":"85003"},{"Location":"BAGDAD OPERATION INC","Address":"333 W Lincoln St","City":"Phoenix","State":"AZ","Zip":"85003"},{"Location":"CIBO","Address":"603 N 5th Ave","City":"Phoenix","State":"AZ","Zip":"85003"},{"Location":"CITYSCAPE COMEDY LLC","Address":"50 W Jefferson St 200","City":"Phoenix","State":"AZ","Zip":"85003"},{"Location":"COMERICA","Address":"400 W Washington St","City":"Phoenix","State":"AZ","Zip":"85003"},{"Location":"CRESENT BALLROOM","Address":"308 N 2nd Ave","City":"Phoenix","State":"AZ","Zip":"85003"},{"Location":"DHS%2FNPPD%2FFEDERAL PROTECT","Address":"230 N 1st Ave 403","City":"Phoenix","State":"AZ","Zip":"85003"},{"Location":"FIRESTONE #013226","Address":"302 W Van Buren St","City":"Phoenix","State":"AZ","Zip":"85003"},{"Location":"GENTLEMAN JOES BARBER SHOP","Address":"12 W Adams St","City":"Phoenix","State":"AZ","Zip":"85003"},{"Location":"INTERNAL REVENUE SERVICE","Address":"230 N 1st Ave 103","City":"Phoenix","State":"AZ","Zip":"85003"},{"Location":"KSAZ-TV","Address":"511 W Adams St","City":"Phoenix","State":"AZ","Zip":"85003"},{"Location":"LUCKY STRIKES PHOENIX","Address":"50 W Jefferson St 240","City":"Phoenix","State":"AZ","Zip":"85003"},{"Location":"MARICOPA COUNTY SHERIFS OFFICE","Address":"100 W Washington St 19th","City":"Phoenix","State":"AZ","Zip":"85003"},{"Location":"MCGOVERN LAW OFFICES","Address":"650 N 3rd Ave","City":"Phoenix","State":"AZ","Zip":"85003"},{"Location":"MCSO","Address":"550 W Jackson St","City":"Phoenix","State":"AZ","Zip":"85003"},{"Location":"MICHAEL  E ZITON P.C","Address":"45 W Jefferson St 403","City":"Phoenix","State":"AZ","Zip":"85003"},{"Location":"NYPD PIZZA WARNER","Address":"556 West Mc Dowell Rd","City":"Phoenix","State":"AZ","Zip":"85003"},{"Location":"OAKVILLE GROCERY","Address":"50 W Jefferson St 100","City":"Phoenix","State":"AZ","Zip":"85003"},{"Location":"PHOENIX POLICE DEPT MEDIA TRCK","Address":"620 W Washington St 123","City":"Phoenix","State":"AZ","Zip":"85003"},{"Location":"PINKYS BARBERSHOP","Address":"133 W Mcdowell Rd","City":"Phoenix","State":"AZ","Zip":"85003"},{"Location":"PINNACLE WEST CAPITAL CO","Address":"502 S 2nd Ave","City":"Phoenix","State":"AZ","Zip":"85003"},{"Location":"PITA JUNGLE","Address":"1001 N 3rd Ave 3","City":"Phoenix","State":"AZ","Zip":"85003"},{"Location":"PIZZA POWER  LLC.","Address":"301 W Roosevelt St","City":"Phoenix","State":"AZ","Zip":"85003"},{"Location":"ROYAL EXCHANGE LLC","Address":"301 W Roosevelt St","City":"Phoenix","State":"AZ","Zip":"85003"},{"Location":"SCOTTSDALES PEDICABS","Address":"345 N 6th Ave","City":"Phoenix","State":"AZ","Zip":"85003"},{"Location":"SEAMUS MICAFFREY'S","Address":"18 W Monroe St","City":"Phoenix","State":"AZ","Zip":"85003"},{"Location":"SING HIGH","Address":"27 W Madison St","City":"Phoenix","State":"AZ","Zip":"85003"},{"Location":"SOMBRERO MEXICAN FOOD","Address":"2401 S 4th Ave","City":"Phoenix","State":"AZ","Zip":"85003"},{"Location":"SUPERPAWN SHOP 1375","Address":"300 W Mcdowell Rd","City":"Phoenix","State":"AZ","Zip":"85003"},{"Location":"THE PRESS ROOM","Address":"441 W Madison St","City":"Phoenix","State":"AZ","Zip":"85003"},{"Location":"TONYS BARBER SHOP","Address":"10 W Madison St","City":"Phoenix","State":"AZ","Zip":"85003"},{"Location":"TRUE STORY FILMS","Address":"815 N 1st Ave","City":"Phoenix","State":"AZ","Zip":"85003"}]