[{"Location":"91ST CIVIL SUPPORT TEAM","Address":"5636 E Mcdowell Rd 70","City":"Phoenix","State":"AZ","Zip":"85008"},{"Location":"A1 LIQUOR WHEEL","Address":"3445 E Mcdowell Rd","City":"Phoenix","State":"AZ","Zip":"85008"},{"Location":"APPLEBEE'S #508 44TH & THOMAS","Address":"2547 N 44th St","City":"Phoenix","State":"AZ","Zip":"85008"},{"Location":"ASPEN DENTAL #1151","Address":"2641 N 44th St 101","City":"Phoenix","State":"AZ","Zip":"85008"},{"Location":"BROWN WHOLESALE ELECTRIC","Address":"3425 E Van Buren St 140","City":"Phoenix","State":"AZ","Zip":"85008"},{"Location":"BUFFALO WINGS AND THINGS","Address":"4220 E Mcdowell Rd","City":"Phoenix","State":"AZ","Zip":"85008"},{"Location":"CAST AWAYS","Address":"5110 E Mcdowell Rd","City":"Phoenix","State":"AZ","Zip":"85008"},{"Location":"CEMEX","Address":"5555 E Van Buren St","City":"Phoenix","State":"AZ","Zip":"85008"},{"Location":"CLOUDY BAY CONSTRUCTION","Address":"1048 N 44th St 207","City":"Phoenix","State":"AZ","Zip":"85008"},{"Location":"CUBEX LLC","Address":"1048 N 44th St 100","City":"Phoenix","State":"AZ","Zip":"85008"},{"Location":"D J LAND AND CATTLE COMPANY","Address":"3810 E Van Buren St","City":"Phoenix","State":"AZ","Zip":"85008"},{"Location":"DIRTY DRUMMER","Address":"2303 N 44th St","City":"Phoenix","State":"AZ","Zip":"85008"},{"Location":"DOUBLETREE GUEST SUITES","Address":"320 N 44th St","City":"Phoenix","State":"AZ","Zip":"85008"},{"Location":"EL ZARIBAH SHRINE","Address":"552 N 40th St","City":"Phoenix","State":"AZ","Zip":"85008"},{"Location":"FACILITEC","Address":"4501 E Mcdowell Rd","City":"Phoenix","State":"AZ","Zip":"85008"},{"Location":"FAMS 3PHX","Address":"4646 E Van Buren St","City":"Phoenix","State":"AZ","Zip":"85008"},{"Location":"FMC 62310000","Address":"2702 N 44th St","City":"Phoenix","State":"AZ","Zip":"85008"},{"Location":"GOODMAN GROUP HOLDINGS","Address":"3138 E Mcdowell Rd 100","City":"Phoenix","State":"AZ","Zip":"85008"},{"Location":"GYPSYS ROADHOUSE","Address":"5122 E Mcdowell Rd","City":"Phoenix","State":"AZ","Zip":"85008"},{"Location":"HANSON AGGREGATES","Address":"4127 E Van Buren St 205","City":"Phoenix","State":"AZ","Zip":"85008"},{"Location":"HEALTH CHOICE (GATEWAY 3)","Address":"410 N 44th St","City":"Phoenix","State":"AZ","Zip":"85008"},{"Location":"HEFAR GROUP","Address":"1048 N 44th St","City":"Phoenix","State":"AZ","Zip":"85008"},{"Location":"HOLIDAY INN (0009150)","Address":"1515 N 44th St","City":"Phoenix","State":"AZ","Zip":"85008"},{"Location":"HONEY BEARS BBQ","Address":"5012 E Van Buren St","City":"Phoenix","State":"AZ","Zip":"85008"},{"Location":"IBEW LOCAL UNION","Address":"1650 N 36th St","City":"Phoenix","State":"AZ","Zip":"85008"},{"Location":"IO  PHOENIX ONE LLC","Address":"615 N 48th St","City":"Phoenix","State":"AZ","Zip":"85008"},{"Location":"JACKS AUTOMOTIVE","Address":"2623 E Mcdowell Rd","City":"Phoenix","State":"AZ","Zip":"85008"},{"Location":"KEEP IT SHARP","Address":"1419 N 24th St","City":"Phoenix","State":"AZ","Zip":"85008"},{"Location":"KITTY'S","Address":"2836 N 36th St","City":"Phoenix","State":"AZ","Zip":"85008"},{"Location":"KNXV-TV-15","Address":"515 N 44th St","City":"Phoenix","State":"AZ","Zip":"85008"},{"Location":"LERMA TAX SERVICE","Address":"3139 E Roosevelt St","City":"Phoenix","State":"AZ","Zip":"85008"},{"Location":"LGE CORPORATION","Address":"740 N 52nd St 200","City":"Phoenix","State":"AZ","Zip":"85008"},{"Location":"LOGISTICARE","Address":"4832 E Mcdowell Rd","City":"Phoenix","State":"AZ","Zip":"85008"},{"Location":"MARICOPA INTEGRATED HEAL","Address":"2601 E Roosevelt St","City":"Phoenix","State":"AZ","Zip":"85008"},{"Location":"MARICOPA INTEGRATED HEALTH","Address":"2619 E Pierce St","City":"Phoenix","State":"AZ","Zip":"85008"},{"Location":"MARICOPA INTEGRATED HEALTH SYS","Address":"2611 E Pierce St","City":"Phoenix","State":"AZ","Zip":"85008"},{"Location":"MENUDERIA GUANAJUATO","Address":"2709 East Mcdowell Road","City":"Phoenix","State":"AZ","Zip":"85008"},{"Location":"MESA AIR GROUP","Address":"410 N 44th St 700","City":"Phoenix","State":"AZ","Zip":"85008"},{"Location":"METR0 NETWORKS","Address":"4686 E Van Buren St 300","City":"Phoenix","State":"AZ","Zip":"85008"},{"Location":"MI RANCHITO","Address":"2401 N 32nd St","City":"Phoenix","State":"AZ","Zip":"85008"},{"Location":"MOBILE MINI","Address":"4646 E Van Buren St 400","City":"Phoenix","State":"AZ","Zip":"85008"},{"Location":"MR J S MARKET","Address":"3202 E Mcdowell Rd","City":"Phoenix","State":"AZ","Zip":"85008"},{"Location":"NEX TALENT USA","Address":"440 N 32nd St","City":"Phoenix","State":"AZ","Zip":"85008"},{"Location":"NU TOWNE SALOON","Address":"5002 E Van Buren St","City":"Phoenix","State":"AZ","Zip":"85008"},{"Location":"PACIFICA EAST GATEWAY","Address":"4646 E Van Buren St 101","City":"Phoenix","State":"AZ","Zip":"85008"},{"Location":"PANINI BREAD AND GRILL","Address":"4129 E Van Buren St 105","City":"Phoenix","State":"AZ","Zip":"85008"},{"Location":"PERFECT CIRCLE PERFORMAN","Address":"4202 E Mcdowell Rd","City":"Phoenix","State":"AZ","Zip":"85008"},{"Location":"PHI MEDICAL - TALLEY","Address":"2800 N 44th St 800","City":"Phoenix","State":"AZ","Zip":"85008"},{"Location":"PHOENIX AIRPORT MARRIOTT","Address":"1101 N 44th St","City":"Phoenix","State":"AZ","Zip":"85008"},{"Location":"PHOENIX GRAND AVE PARTNERS","Address":"410 N 44th St 170","City":"Phoenix","State":"AZ","Zip":"85008"},{"Location":"PINK RHINO","Address":"3613 E Van Buren St","City":"Phoenix","State":"AZ","Zip":"85008"},{"Location":"PROTIVITI INC","Address":"4127 E Van Buren St 210","City":"Phoenix","State":"AZ","Zip":"85008"},{"Location":"PULASKI CLUB","Address":"4331 E Mcdowell Rd","City":"Phoenix","State":"AZ","Zip":"85008"},{"Location":"ROSEN INVESTMENT ADVISOR","Address":"4646 E Van Buren St 190","City":"Phoenix","State":"AZ","Zip":"85008"},{"Location":"SABANS ENTERPRISES","Address":"2934 E Mcdowell Rd","City":"Phoenix","State":"AZ","Zip":"85008"},{"Location":"SAILES BEAUTY SALON","Address":"818 N 32 Nd St","City":"Phoenix","State":"AZ","Zip":"85008"},{"Location":"SARA  LEE BAKERY","Address":"3425 E Van Buren St","City":"Phoenix","State":"AZ","Zip":"85008"},{"Location":"SET FREE BAPTIST FELLOWSHIP","Address":"1034 N 24th St","City":"Phoenix","State":"AZ","Zip":"85008"},{"Location":"SMART HEALTH","Address":"3145 E Mcdowell Rd","City":"Phoenix","State":"AZ","Zip":"85008"},{"Location":"SMART PRACTICE","Address":"3333 E Mcdowell Rd","City":"Phoenix","State":"AZ","Zip":"85008"},{"Location":"THE ARIZONA BURN CENTER","Address":"2601 E Roosevelt St","City":"Phoenix","State":"AZ","Zip":"85008"},{"Location":"THE BREAK ROOM BAR & GRILL","Address":"4729 E Mcdowell Rd","City":"Phoenix","State":"AZ","Zip":"85008"},{"Location":"TRILLIUM PAPAGO","Address":"4950 E Van Buren St","City":"Phoenix","State":"AZ","Zip":"85008"},{"Location":"TS69282020000000XXAOXXPHXXSVSX","Address":"4127 E Van Buren St","City":"Phoenix","State":"AZ","Zip":"85008"},{"Location":"TWISTED PEACOCK","Address":"3108 E Mcdowell Rd","City":"Phoenix","State":"AZ","Zip":"85008"},{"Location":"UPCHURCH CANDY CO","Address":"914 N 24th St","City":"Phoenix","State":"AZ","Zip":"85008"},{"Location":"US ARMY","Address":"6201 E Oak St","City":"Phoenix","State":"AZ","Zip":"85008"},{"Location":"WANDER IN","Address":"4140 E Mcdowell Rd","City":"Phoenix","State":"AZ","Zip":"85008"}]