[{"Location":"ABART PROPERTIES 5555 LLC","Address":"555 E Van Buren St","City":"Phoenix","State":"AZ","Zip":"85004"},{"Location":"ALICE COOPERSTOWN","Address":"101 E Jackson St","City":"Phoenix","State":"AZ","Zip":"85004"},{"Location":"ANGELS TRUMPET","Address":"810 N 2nd St","City":"Phoenix","State":"AZ","Zip":"85004"},{"Location":"ARIZONA ALLERGY ASSOC","Address":"348 E Virginia Ave","City":"Phoenix","State":"AZ","Zip":"85004"},{"Location":"ARIZONA HAND SURGERY","Address":"370 E Virginia Ave","City":"Phoenix","State":"AZ","Zip":"85004"},{"Location":"ASU OFFICE OF PUBLIC AFF","Address":"502 E Monroe St C100","City":"Phoenix","State":"AZ","Zip":"85004"},{"Location":"AZ HOSPITAL & HEALTH ASC","Address":"2800 N Central Ave 1450","City":"Phoenix","State":"AZ","Zip":"85004"},{"Location":"AZPB LIMITED PARTNERSHIP","Address":"401 E Jefferson St","City":"Phoenix","State":"AZ","Zip":"85004"},{"Location":"BANK OF AMERICA AZ1-200-23-03","Address":"201 E Washington St","City":"Phoenix","State":"AZ","Zip":"85004"},{"Location":"BRIC RESTURANT","Address":"455 N 3rd St 154","City":"Phoenix","State":"AZ","Zip":"85004"},{"Location":"CAPITOL VIEW ASSOCIATES","Address":"1427 N 3rd St","City":"Phoenix","State":"AZ","Zip":"85004"},{"Location":"CHICOS GRILL","Address":"530 E Mcdowell Rd 103","City":"Phoenix","State":"AZ","Zip":"85004"},{"Location":"CIGNA HEALTH -DOWNTOWN","Address":"102 N Central Ave","City":"Phoenix","State":"AZ","Zip":"85004"},{"Location":"COACHS CORNER GRILL","Address":"333 E Jefferson St 110","City":"Phoenix","State":"AZ","Zip":"85004"},{"Location":"COMEDOR GUADALAJARA","Address":"1830 S Central Ave","City":"Phoenix","State":"AZ","Zip":"85004"},{"Location":"COMERICA BANK","Address":"1 N Central Ave 1000","City":"Phoenix","State":"AZ","Zip":"85004"},{"Location":"COMERICA BANK","Address":"1 N Central Ave 110","City":"Phoenix","State":"AZ","Zip":"85004"},{"Location":"CONGRESSMAN ED PASTOR","Address":"411 N Central Ave 150","City":"Phoenix","State":"AZ","Zip":"85004"},{"Location":"CRONKITE SCHOOL","Address":"555 N Central Ave 302","City":"Phoenix","State":"AZ","Zip":"85004"},{"Location":"DEPT OF DEFENSE IG","Address":"1 N Central Ave 1020","City":"Phoenix","State":"AZ","Zip":"85004"},{"Location":"DIGITAL REALTY TRUST","Address":"120 E Van Buren St","City":"Phoenix","State":"AZ","Zip":"85004"},{"Location":"DOWNTOWN PIZZA LOUNGE","Address":"144 E Washington St","City":"Phoenix","State":"AZ","Zip":"85004"},{"Location":"DUDLEY VENTURES","Address":"22 E Jackson St","City":"Phoenix","State":"AZ","Zip":"85004"},{"Location":"ERNST & YOUNG%2C LLP.","Address":"2 N Central Ave 2300","City":"Phoenix","State":"AZ","Zip":"85004"},{"Location":"FERGUSON #1001","Address":"111 E Buckeye Rd 2","City":"Phoenix","State":"AZ","Zip":"85004"},{"Location":"FERGUSON #3083","Address":"111 E Buckeye Rd","City":"Phoenix","State":"AZ","Zip":"85004"},{"Location":"FILMBAR","Address":"815 N 2nd St","City":"Phoenix","State":"AZ","Zip":"85004"},{"Location":"FINANCIAL HAWK","Address":"2323 N 3rd St 202","City":"Phoenix","State":"AZ","Zip":"85004"},{"Location":"FLAG WORLD CORP","Address":"455 N 3rd St 1205","City":"Phoenix","State":"AZ","Zip":"85004"},{"Location":"FOX SPORTS","Address":"455 N 3rd St 290","City":"Phoenix","State":"AZ","Zip":"85004"},{"Location":"FREEMANXP - BUD POD","Address":"26 E Monte Vista Rd","City":"Phoenix","State":"AZ","Zip":"85004"},{"Location":"FREEPORT MCMORAN CEO","Address":"333 N Central Ave","City":"Phoenix","State":"AZ","Zip":"85004"},{"Location":"FREEPORT MCMORAN-LOBBY","Address":"333 N Central Ave","City":"Phoenix","State":"AZ","Zip":"85004"},{"Location":"GUST ROSENFELD P.L.C.","Address":"1 E Washington St 1600","City":"Phoenix","State":"AZ","Zip":"85004"},{"Location":"HARD ROCK CAFE","Address":"3 S 2nd St","City":"Phoenix","State":"AZ","Zip":"85004"},{"Location":"HINES ONE RENAISSANNCE SQUARE","Address":"2 N Central Ave","City":"Phoenix","State":"AZ","Zip":"85004"},{"Location":"HINES TWO RENAISSANCE SQUARE","Address":"2 N Central Ave 150","City":"Phoenix","State":"AZ","Zip":"85004"},{"Location":"HONEY BEARS BBQ ON CENTRAL","Address":"2824 N Central Ave","City":"Phoenix","State":"AZ","Zip":"85004"},{"Location":"HOOTERS 3RD STREET","Address":"455 N 3rd St 190","City":"Phoenix","State":"AZ","Zip":"85004"},{"Location":"HOTEL PALOMAR PHOENIX(0070897)","Address":"1 E Washington St","City":"Phoenix","State":"AZ","Zip":"85004"},{"Location":"HYATT REGENCY PHOENIX","Address":"122 N 2nd St","City":"Phoenix","State":"AZ","Zip":"85004"},{"Location":"INFINITY BROADCASTING","Address":"840 N Central Ave","City":"Phoenix","State":"AZ","Zip":"85004"},{"Location":"INFLOW INC","Address":"120 E Van Buren St 202","City":"Phoenix","State":"AZ","Zip":"85004"},{"Location":"JP MORGAN CHASE","Address":"201 N Central Ave 1351","City":"Phoenix","State":"AZ","Zip":"85004"},{"Location":"JP MORGAN CHASE BRANCH","Address":"201 N Central Ave 21","City":"Phoenix","State":"AZ","Zip":"85004"},{"Location":"KINCAIDS-PHOENIX","Address":"2 S 3rd St","City":"Phoenix","State":"AZ","Zip":"85004"},{"Location":"KPNX-TV","Address":"200 E Van Buren St","City":"Phoenix","State":"AZ","Zip":"85004"},{"Location":"LANE AWARD MANUFACTURING","Address":"1118 S Central Ave","City":"Phoenix","State":"AZ","Zip":"85004"},{"Location":"LEVECKE & CO","Address":"201 E Jefferson St","City":"Phoenix","State":"AZ","Zip":"85004"},{"Location":"LIFE START","Address":"2 N Central Ave","City":"Phoenix","State":"AZ","Zip":"85004"},{"Location":"LOLOS CHICKEN AND WAFFLES","Address":"1220 S Central Ave","City":"Phoenix","State":"AZ","Zip":"85004"},{"Location":"MAJERLE'S SPORTS GRILL","Address":"24 N 2nd St","City":"Phoenix","State":"AZ","Zip":"85004"},{"Location":"MARKETPLACE ONE LLC","Address":"1 N 1st St 700","City":"Phoenix","State":"AZ","Zip":"85004"},{"Location":"MATTS BIG BREAKFAST","Address":"825 N 1st St","City":"Phoenix","State":"AZ","Zip":"85004"},{"Location":"MERCHANTS INFO SOLUTIONS","Address":"301 E Virginia Ave 4000","City":"Phoenix","State":"AZ","Zip":"85004"},{"Location":"MIHS - MCDOWELL CLINIC","Address":"1101 N Central Ave 204","City":"Phoenix","State":"AZ","Zip":"85004"},{"Location":"MOD","Address":"2828 N Central Ave 100","City":"Phoenix","State":"AZ","Zip":"85004"},{"Location":"NAPA AUTO PARTS","Address":"424 E Buckeye Rd","City":"Phoenix","State":"AZ","Zip":"85004"},{"Location":"ODYSSEY CAPITAL GROUP","Address":"2 N Central Ave 720","City":"Phoenix","State":"AZ","Zip":"85004"},{"Location":"PHOENIX JOB CORPS","Address":"518 S 3rd St","City":"Phoenix","State":"AZ","Zip":"85004"},{"Location":"PHOENIX JOB CORPS DORM","Address":"202 E Buchanan St","City":"Phoenix","State":"AZ","Zip":"85004"},{"Location":"PHOENIX SUNS","Address":"201 E Jefferson St","City":"Phoenix","State":"AZ","Zip":"85004"},{"Location":"PHOENIX SUNS BASKETBALL-LOCKER","Address":"201 E Jefferson St","City":"Phoenix","State":"AZ","Zip":"85004"},{"Location":"PHOENIX SUNS EXECUTIVE OFFICES","Address":"201 E Jefferson St","City":"Phoenix","State":"AZ","Zip":"85004"},{"Location":"PHX PUBLIC MARKET CAFE","Address":"14 E Pierce St","City":"Phoenix","State":"AZ","Zip":"85004"},{"Location":"PIZZA HUT","Address":"702 N 1st St","City":"Phoenix","State":"AZ","Zip":"85004"},{"Location":"POOLMAN","Address":"319 E Watkins St","City":"Phoenix","State":"AZ","Zip":"85004"},{"Location":"PRIME TIME ENTERPRISES","Address":"1017 N Central Ave","City":"Phoenix","State":"AZ","Zip":"85004"},{"Location":"PROMISE ARIZONA","Address":"701 S 1st St A","City":"Phoenix","State":"AZ","Zip":"85004"},{"Location":"QUARLES & BRADY","Address":"2 N Central Ave","City":"Phoenix","State":"AZ","Zip":"85004"},{"Location":"REGUS","Address":"40 N Central Ave 1400","City":"Phoenix","State":"AZ","Zip":"85004"},{"Location":"RENAUD COOK & DRURY","Address":"1 N Central Ave 900","City":"Phoenix","State":"AZ","Zip":"85004"},{"Location":"RICE PAPER","Address":"202 N Central Ave","City":"Phoenix","State":"AZ","Zip":"85004"},{"Location":"RYLEY%2C CARLOCK","Address":"1 N Central Ave 1200","City":"Phoenix","State":"AZ","Zip":"85004"},{"Location":"SALVATION ARMY ARC","Address":"15 E Pima St","City":"Phoenix","State":"AZ","Zip":"85004"},{"Location":"SEALCO COMMERCIAL VEHICLE","Address":"215 E Watkins St","City":"Phoenix","State":"AZ","Zip":"85004"},{"Location":"SHERATON PHOENIX CON CEN","Address":"340 N 3rd St","City":"Phoenix","State":"AZ","Zip":"85004"},{"Location":"SMALL BUSINESS ADMINISTATION","Address":"2828 N Central Ave 800","City":"Phoenix","State":"AZ","Zip":"85004"},{"Location":"SOCHU HOUSE","Address":"2801 N Central Ave","City":"Phoenix","State":"AZ","Zip":"85004"},{"Location":"SOCIAL WHIRLED1","Address":"817 N Central Ave","City":"Phoenix","State":"AZ","Zip":"85004"},{"Location":"SQUID INK SUSHI BAR","Address":"2 E Jefferson St 108","City":"Phoenix","State":"AZ","Zip":"85004"},{"Location":"STYLE LOUNGE","Address":"132 E Washington St","City":"Phoenix","State":"AZ","Zip":"85004"},{"Location":"TEE PEE II","Address":"602 E Lincoln St","City":"Phoenix","State":"AZ","Zip":"85004"},{"Location":"TGIF DIAMONDBACKS","Address":"401 E Jefferson St 2","City":"Phoenix","State":"AZ","Zip":"85004"},{"Location":"THE ARROGANT BUTCHER","Address":"2 East Jefferson 150","City":"Phoenix","State":"AZ","Zip":"85004"},{"Location":"THE ASSOCIATED PRESS","Address":"1850 N Central Ave 640","City":"Phoenix","State":"AZ","Zip":"85004"},{"Location":"THE CAVANAGH LAW FIRM","Address":"1850 N Central Ave 2400","City":"Phoenix","State":"AZ","Zip":"85004"},{"Location":"THE DUCE","Address":"525 S Central Ave","City":"Phoenix","State":"AZ","Zip":"85004"},{"Location":"THE PHOENIX JOB CORPS MAIN","Address":"518 S 3rd St","City":"Phoenix","State":"AZ","Zip":"85004"},{"Location":"THE RAW HAIR SALON CO","Address":"2831 N Central Ave","City":"Phoenix","State":"AZ","Zip":"85004"},{"Location":"THE ROSE AND CROWN","Address":"628 E Adams St","City":"Phoenix","State":"AZ","Zip":"85004"},{"Location":"THE STRAND URBAN ITALIAN","Address":"2 E Jefferson St 113","City":"Phoenix","State":"AZ","Zip":"85004"},{"Location":"THE VIG FILLMORE","Address":"606 N 4th St","City":"Phoenix","State":"AZ","Zip":"85004"},{"Location":"THE WILD THAIGER RESTAURANT","Address":"2631 N Central Ave","City":"Phoenix","State":"AZ","Zip":"85004"},{"Location":"TILTED KILT PUB & EATERY","Address":"2 E Jefferson St 22-21","City":"Phoenix","State":"AZ","Zip":"85004"},{"Location":"TOMS TAVERN","Address":"2 N Central Ave 102","City":"Phoenix","State":"AZ","Zip":"85004"},{"Location":"TURF ACCOUNTANT","Address":"705 N 1st St 100","City":"Phoenix","State":"AZ","Zip":"85004"},{"Location":"U-HAUL INTERNATIONAL","Address":"2727 N Central Ave 8n","City":"Phoenix","State":"AZ","Zip":"85004"},{"Location":"UFCW LOCAL 99","Address":"19 E Ashland Ave","City":"Phoenix","State":"AZ","Zip":"85004"},{"Location":"UHG CITY SCAPE","Address":"1 E Washington St 700w","City":"Phoenix","State":"AZ","Zip":"85004"},{"Location":"UNITED FREIGHT SERVICE INC","Address":"641 E Watkins St","City":"Phoenix","State":"AZ","Zip":"85004"},{"Location":"UNIV OF ARIZONA BIO MED","Address":"425 N 5th St","City":"Phoenix","State":"AZ","Zip":"85004"},{"Location":"US COAST GUARD","Address":"826 N Central Ave","City":"Phoenix","State":"AZ","Zip":"85004"},{"Location":"WYNDHAM PHOENIX","Address":"50 E Adams St","City":"Phoenix","State":"AZ","Zip":"85004"}]