[{"Location":"BEATRIZ MARTINEZ","Address":"2636 W Campbell Ave","City":"Phoenix","State":"AZ","Zip":"85017"},{"Location":"BETHANY AUTO SPA","Address":"3450 W Bethany Home Rd","City":"Phoenix","State":"AZ","Zip":"85017"},{"Location":"BULLOCK COUNTRY ATTITUDES","Address":"2601 W Bethany Home Rd","City":"Phoenix","State":"AZ","Zip":"85017"},{"Location":"CAMINO NUEVO","Address":"3305 W Catalina Dr","City":"Phoenix","State":"AZ","Zip":"85017"},{"Location":"CILVERADO CANTA BAR","Address":"4809 N 27th Ave","City":"Phoenix","State":"AZ","Zip":"85017"},{"Location":"CNG RANCH #505","Address":"3223 W Indian School Rd","City":"Phoenix","State":"AZ","Zip":"85017"},{"Location":"CONSOLIDATED ELECTRICAL","Address":"2800 W Osborn Rd","City":"Phoenix","State":"AZ","Zip":"85017"},{"Location":"COSTCO","Address":"3801 N 33rd Ave","City":"Phoenix","State":"AZ","Zip":"85017"},{"Location":"DENNYS RESTAURANT","Address":"3456 W Bethany Home Rd","City":"Phoenix","State":"AZ","Zip":"85017"},{"Location":"E SPECIALIDADES DENTALES","Address":"4008 N 33rd Ave","City":"Phoenix","State":"AZ","Zip":"85017"},{"Location":"EL PATRON NIGHT CLUB","Address":"4319 N 27th Ave","City":"Phoenix","State":"AZ","Zip":"85017"},{"Location":"EL TACO TOTE","Address":"3464 W Camelback Rd","City":"Phoenix","State":"AZ","Zip":"85017"},{"Location":"FA-SHO CUTS","Address":"4122 N 27th Ave","City":"Phoenix","State":"AZ","Zip":"85017"},{"Location":"FIRESTONE #013412","Address":"3424 W Bethany Home Rd","City":"Phoenix","State":"AZ","Zip":"85017"},{"Location":"GIOVANNY ESTRADA","Address":"6135 N 35th Ave 183","City":"Phoenix","State":"AZ","Zip":"85017"},{"Location":"HELPING HEARTS","Address":"3302 W College Dr","City":"Phoenix","State":"AZ","Zip":"85017"},{"Location":"HERCULES INDUSTRIES","Address":"3898 N 28th Ave","City":"Phoenix","State":"AZ","Zip":"85017"},{"Location":"IMPORT LIFE","Address":"6040 N Black Canyon Hwy","City":"Phoenix","State":"AZ","Zip":"85017"},{"Location":"JIFFY LUBE #2087","Address":"2702 W Bethany Home Rd","City":"Phoenix","State":"AZ","Zip":"85017"},{"Location":"M AND P CONTRACTING INC","Address":"3425 N 29th Ave","City":"Phoenix","State":"AZ","Zip":"85017"},{"Location":"MARISCOS ENSENADA","Address":"4130 N 27th Ave","City":"Phoenix","State":"AZ","Zip":"85017"},{"Location":"MAXIT PAWN & RETAIL SHOP 1663","Address":"3460 Grand Ave","City":"Phoenix","State":"AZ","Zip":"85017"},{"Location":"NANA SOUL KITCHEN","Address":"6712 N 30th Dr","City":"Phoenix","State":"AZ","Zip":"85017"},{"Location":"NAPA AUTO PARTS","Address":"2811 W Thomas Rd","City":"Phoenix","State":"AZ","Zip":"85017"},{"Location":"NEW CHINA","Address":"2624 W Bethany Home Rd","City":"Phoenix","State":"AZ","Zip":"85017"},{"Location":"ORNATE CREATIONS BY DESI","Address":"4507 N 26th Dr","City":"Phoenix","State":"AZ","Zip":"85017"},{"Location":"PAQUERIA EL VAPORSITO","Address":"2775 W Thomas Rd","City":"Phoenix","State":"AZ","Zip":"85017"},{"Location":"PIMA PREVENTION PARTNERSHIP","Address":"3161 N 33rd Ave","City":"Phoenix","State":"AZ","Zip":"85017"},{"Location":"PRECISION DRIVELINE","Address":"3225 W Osborn Rd","City":"Phoenix","State":"AZ","Zip":"85017"},{"Location":"R ROBIN & TAX SERVICES","Address":"6221 N 35th Ave 8","City":"Phoenix","State":"AZ","Zip":"85017"},{"Location":"REDDI SERVICES","Address":"3025 W Weldon Ave","City":"Phoenix","State":"AZ","Zip":"85017"},{"Location":"SHARKO CATERING","Address":"4522 N 26th Dr","City":"Phoenix","State":"AZ","Zip":"85017"},{"Location":"SPARKLEAN LAUNDRY","Address":"3301 W Indian School Rd","City":"Phoenix","State":"AZ","Zip":"85017"},{"Location":"SUN DEVIL HEATING AND COOLING","Address":"3033 N 35th Ave","City":"Phoenix","State":"AZ","Zip":"85017"},{"Location":"TEASERS OF PHOENIX","Address":"3308 Grand Ave","City":"Phoenix","State":"AZ","Zip":"85017"},{"Location":"THE GREAT ALASKAN BUSH CO","Address":"2980 Grand Ave","City":"Phoenix","State":"AZ","Zip":"85017"},{"Location":"TURISMO SILVEYAR INTERNA","Address":"3302 W Thomas Rd 11","City":"Phoenix","State":"AZ","Zip":"85017"},{"Location":"US VETS INC","Address":"3400 Grand Ave","City":"Phoenix","State":"AZ","Zip":"85017"},{"Location":"WILD BILLS SALOON","Address":"6842 N 27th Ave","City":"Phoenix","State":"AZ","Zip":"85017"},{"Location":"YOU FIT BETHANY TOWNE CE","Address":"6135 N 35th Ave","City":"Phoenix","State":"AZ","Zip":"85017"}]