[{"Location":"ACE DELI FOOD MART","Address":"4202 W Camelback Rd 1","City":"Phoenix","State":"AZ","Zip":"85019"},{"Location":"BAB1 LLC","Address":"3790 Grand Ave","City":"Phoenix","State":"AZ","Zip":"85019"},{"Location":"BACA BARBERSHOP","Address":"4278 W Thomas Rd","City":"Phoenix","State":"AZ","Zip":"85019"},{"Location":"CONCENTRA WEST","Address":"3532 W Thomas Rd 5","City":"Phoenix","State":"AZ","Zip":"85019"},{"Location":"DESCOTECA SANDOVAL","Address":"3633 W Camelback Rd 2","City":"Phoenix","State":"AZ","Zip":"85019"},{"Location":"FUNNY FARM LOUNGE","Address":"4270 W Thomas Rd","City":"Phoenix","State":"AZ","Zip":"85019"},{"Location":"KIDDIE COUNTRY CLUB","Address":"3645 W Bethany Home Rd","City":"Phoenix","State":"AZ","Zip":"85019"},{"Location":"LARTHAN MERRIWEATHER III","Address":"4202 W Camelback Rd 5","City":"Phoenix","State":"AZ","Zip":"85019"},{"Location":"MBI INDUSTRIAL MEDICINE","Address":"3501 W Osborn Rd","City":"Phoenix","State":"AZ","Zip":"85019"},{"Location":"MIGUEL RONDAN","Address":"3871 W Indian School Rd","City":"Phoenix","State":"AZ","Zip":"85019"},{"Location":"MVP SPORTS BAR","Address":"6001 N 43rd Ave","City":"Phoenix","State":"AZ","Zip":"85019"},{"Location":"PANTERA SHOW CLUB","Address":"4139 W Indian School Rd","City":"Phoenix","State":"AZ","Zip":"85019"},{"Location":"PHOENIX SPORTS CENTRE","Address":"3839 W Indian School Rd","City":"Phoenix","State":"AZ","Zip":"85019"},{"Location":"SCOTT ROOFING  COMPANY","Address":"3601 N 36th Ave","City":"Phoenix","State":"AZ","Zip":"85019"},{"Location":"SUNVALCO ATHELTIC SUPPLY","Address":"3811 W Indian School Rd","City":"Phoenix","State":"AZ","Zip":"85019"},{"Location":"SUPERPAWN SHOP 1373","Address":"3850 W Indian School Rd","City":"Phoenix","State":"AZ","Zip":"85019"},{"Location":"SUPERPAWN SHOP 1374","Address":"4121 W Indian School Rd","City":"Phoenix","State":"AZ","Zip":"85019"},{"Location":"SW COLLISION","Address":"4324 N 42nd Ave","City":"Phoenix","State":"AZ","Zip":"85019"},{"Location":"TACOS Y MARISCOS EL KORA","Address":"4234 W Indian School Rd","City":"Phoenix","State":"AZ","Zip":"85019"},{"Location":"US LASER HAIR REMOVAL LLC","Address":"3602 W Thomas Rd 9","City":"Phoenix","State":"AZ","Zip":"85019"}]