[{"Location":"ACE OF FADES BARBERSHOP","Address":"3201 N 16th St 3","City":"Phoenix","State":"AZ","Zip":"85016"},{"Location":"AFSCME LOCAL 2960","Address":"3909 N 16th St","City":"Phoenix","State":"AZ","Zip":"85016"},{"Location":"APACC%2FUA LOCAL 469","Address":"3109 N 24th St","City":"Phoenix","State":"AZ","Zip":"85016"},{"Location":"APOLLO GROUP","Address":"2 Biltmore Est 105","City":"Phoenix","State":"AZ","Zip":"85016"},{"Location":"ARADA ETHIOPIA MARKET","Address":"3015 E Thomas Rd 615","City":"Phoenix","State":"AZ","Zip":"85016"},{"Location":"ARIE PM BARBER AND BEAUT","Address":"3405 N 24th St A","City":"Phoenix","State":"AZ","Zip":"85016"},{"Location":"ARIZONA BANK & TRUST","Address":"2036 E Camelback Rd","City":"Phoenix","State":"AZ","Zip":"85016"},{"Location":"ARIZONA HEART FOUNDATION","Address":"1910 E Thomas Rd 220","City":"Phoenix","State":"AZ","Zip":"85016"},{"Location":"AUDIO EXPRESS","Address":"2246 E Indian School Rd","City":"Phoenix","State":"AZ","Zip":"85016"},{"Location":"AUTO EUROPA","Address":"1901 E Indian School Rd","City":"Phoenix","State":"AZ","Zip":"85016"},{"Location":"BABBO ITALIAN EATERY","Address":"6855 N 16th St","City":"Phoenix","State":"AZ","Zip":"85016"},{"Location":"BARNET DULANEY PERKINS EYE CTR","Address":"4800 N 22nd St","City":"Phoenix","State":"AZ","Zip":"85016"},{"Location":"BERTHAS CAFE","Address":"3134 E Indian School Rd","City":"Phoenix","State":"AZ","Zip":"85016"},{"Location":"BEST WESTERN INTERNATIONAL INC","Address":"6201 N 24th Pkwy","City":"Phoenix","State":"AZ","Zip":"85016"},{"Location":"BH CAPS LLC","Address":"6025 N 16th St","City":"Phoenix","State":"AZ","Zip":"85016"},{"Location":"BLANCO TACOS & TEQUILA","Address":"2502 E Camelback Rd 122","City":"Phoenix","State":"AZ","Zip":"85016"},{"Location":"BLUE WATER GRILL","Address":"1720 E Camelback Rd","City":"Phoenix","State":"AZ","Zip":"85016"},{"Location":"BOURBON ST CIRCUS","Address":"2901 E Thomas Rd","City":"Phoenix","State":"AZ","Zip":"85016"},{"Location":"BRODEUR WORLDWIDE","Address":"2355 E Camelback Rd 515","City":"Phoenix","State":"AZ","Zip":"85016"},{"Location":"BUTLER BURGHER","Address":"2930 E Camelback Rd 120","City":"Phoenix","State":"AZ","Zip":"85016"},{"Location":"CAFFE DANIEL","Address":"3115 E Lincoln Dr","City":"Phoenix","State":"AZ","Zip":"85016"},{"Location":"CALIFORNIA PIZZA KITCHEN #55","Address":"2400 E Camelback Rd 112","City":"Phoenix","State":"AZ","Zip":"85016"},{"Location":"CAMELBACK BARBERSHOP","Address":"1925 E Camelback Rd D136","City":"Phoenix","State":"AZ","Zip":"85016"},{"Location":"CANNON & WENDT ELECTRIC CO INC","Address":"4020 N 16th St","City":"Phoenix","State":"AZ","Zip":"85016"},{"Location":"CASEY UPPERMAN","Address":"2201 E Camelback Rd 400","City":"Phoenix","State":"AZ","Zip":"85016"},{"Location":"CENTRAL BISTRO","Address":"3160 E Camelback Rd","City":"Phoenix","State":"AZ","Zip":"85016"},{"Location":"CENTRAL NAIL","Address":"3031 E Indian School Rd","City":"Phoenix","State":"AZ","Zip":"85016"},{"Location":"CENTRAL WINE LLC","Address":"1942 E San Miguel Ave","City":"Phoenix","State":"AZ","Zip":"85016"},{"Location":"CENTREX HOLDINGS  LLC","Address":"3131 E Camelback Rd 315","City":"Phoenix","State":"AZ","Zip":"85016"},{"Location":"CHARLES SCHWAB & COMPANY #700","Address":"2423 E Lincoln Dr","City":"Phoenix","State":"AZ","Zip":"85016"},{"Location":"CHARLES SCHWAB CC338","Address":"2555 E Camelback Rd","City":"Phoenix","State":"AZ","Zip":"85016"},{"Location":"CHOICES HAIR NAIL SALON","Address":"2316 E Indian School Rd","City":"Phoenix","State":"AZ","Zip":"85016"},{"Location":"CHOPPER JOHN","Address":"2547 E Indian School Rd","City":"Phoenix","State":"AZ","Zip":"85016"},{"Location":"CITY MARKET AND DELI PHOENIX","Address":"2201 E Camelback Rd 130b","City":"Phoenix","State":"AZ","Zip":"85016"},{"Location":"CLEAR TITLE AGENCY OF AZ","Address":"2910 E Camelback Rd 100","City":"Phoenix","State":"AZ","Zip":"85016"},{"Location":"COMPASS BROKERAGE","Address":"2850 E Camelback Rd 195","City":"Phoenix","State":"AZ","Zip":"85016"},{"Location":"CORE RESOURCE","Address":"3131 E Camelback Rd 215","City":"Phoenix","State":"AZ","Zip":"85016"},{"Location":"CORLEONES PHX","Address":"1640 E Camelback Rd 140","City":"Phoenix","State":"AZ","Zip":"85016"},{"Location":"CULINAIRE INTL DBA OMAHA STEA","Address":"2630 E Camelback Rd","City":"Phoenix","State":"AZ","Zip":"85016"},{"Location":"CUSHMAN & WAKEFIELD OF A","Address":"2111 E Highland Ave 100","City":"Phoenix","State":"AZ","Zip":"85016"},{"Location":"CV RESTAURANT CORP","Address":"2710 E Indian School Rd","City":"Phoenix","State":"AZ","Zip":"85016"},{"Location":"DAILY DOSE 2","Address":"1928 E Highland Ave F107","City":"Phoenix","State":"AZ","Zip":"85016"},{"Location":"DEFERO","Address":"3131 E Camelback Rd 360","City":"Phoenix","State":"AZ","Zip":"85016"},{"Location":"DELUX","Address":"3146 E Camelback Rd","City":"Phoenix","State":"AZ","Zip":"85016"},{"Location":"DESTINATION XL 9716","Address":"1701 E Camelback Rd","City":"Phoenix","State":"AZ","Zip":"85016"},{"Location":"DEVONSHIRE SENIOR CENTER","Address":"2802 E Devonshire Ave","City":"Phoenix","State":"AZ","Zip":"85016"},{"Location":"DIVERSIFIED HUMAN RESOURCES","Address":"3020 E Camelback Rd 213","City":"Phoenix","State":"AZ","Zip":"85016"},{"Location":"DONE DEAL INVESTMENTS","Address":"3131 E Camelback Rd 410","City":"Phoenix","State":"AZ","Zip":"85016"},{"Location":"DONOVANS STEAK AND CHOP HOUSE","Address":"3101 E Camelback Rd","City":"Phoenix","State":"AZ","Zip":"85016"},{"Location":"DR ZAMORA","Address":"3104 E Indian School Rd 100","City":"Phoenix","State":"AZ","Zip":"85016"},{"Location":"DUNKIN DONUTS 350872","Address":"2131 E Camelback Rd 100","City":"Phoenix","State":"AZ","Zip":"85016"},{"Location":"EMBASSY SUITES (0012064)","Address":"2630 E Camelback Rd","City":"Phoenix","State":"AZ","Zip":"85016"},{"Location":"EMBASSY SUITES (0050783)","Address":"2333 E Thomas Rd","City":"Phoenix","State":"AZ","Zip":"85016"},{"Location":"ESPLANADE PLACE CONDOMINIUM","Address":"2402 E Esplanade Ln","City":"Phoenix","State":"AZ","Zip":"85016"},{"Location":"EXODUS HAIR STUDIO","Address":"2449 E Indian School Rd","City":"Phoenix","State":"AZ","Zip":"85016"},{"Location":"FERGUSON #1266","Address":"1845 E Indian School Rd","City":"Phoenix","State":"AZ","Zip":"85016"},{"Location":"FFSI","Address":"4425 N 24th St 200","City":"Phoenix","State":"AZ","Zip":"85016"},{"Location":"FIRST SCOTTSDALE BANK","Address":"2710 E Camelback Rd 100","City":"Phoenix","State":"AZ","Zip":"85016"},{"Location":"FIT N LEAN XERCISE","Address":"6522 N 16th St 10","City":"Phoenix","State":"AZ","Zip":"85016"},{"Location":"FLAMINGO II","Address":"3051 E Thomas Rd","City":"Phoenix","State":"AZ","Zip":"85016"},{"Location":"FLW BALLROOM","Address":"2400 E Missouri Ave Flw","City":"Phoenix","State":"AZ","Zip":"85016"},{"Location":"FORGE PIZZA PHOENIX","Address":"2502 E Camelback Rd 148","City":"Phoenix","State":"AZ","Zip":"85016"},{"Location":"FRANK & ALBERTS","Address":"2400 E Missouri Ave","City":"Phoenix","State":"AZ","Zip":"85016"},{"Location":"GAINTNER BANDLER ETC","Address":"2355 E Camelback Rd 500","City":"Phoenix","State":"AZ","Zip":"85016"},{"Location":"GRANT THORNTON LLP","Address":"2398 E Camelback Rd 600","City":"Phoenix","State":"AZ","Zip":"85016"},{"Location":"GROOM ROOM BARBER SHOP","Address":"2502 E Camelback Rd 100c","City":"Phoenix","State":"AZ","Zip":"85016"},{"Location":"HALF MOON 3","Address":"2121 E Highland Ave","City":"Phoenix","State":"AZ","Zip":"85016"},{"Location":"HARDISON DOWNEY CONSTRUCTION","Address":"6150 N 16th St A","City":"Phoenix","State":"AZ","Zip":"85016"},{"Location":"HARVEYS WINEBURGER","Address":"4812 N 16th St","City":"Phoenix","State":"AZ","Zip":"85016"},{"Location":"HILLSTONE","Address":"2650 E Camelback Rd","City":"Phoenix","State":"AZ","Zip":"85016"},{"Location":"HILTON WORLDWIDE BILTMORE","Address":"2400 E Missouri Ave","City":"Phoenix","State":"AZ","Zip":"85016"},{"Location":"HOBEMEATS","Address":"6044 N 16th St","City":"Phoenix","State":"AZ","Zip":"85016"},{"Location":"HUMANA 02015 021","Address":"2231 E Camelback Rd 40","City":"Phoenix","State":"AZ","Zip":"85016"},{"Location":"INTESOURCE INC","Address":"2111 E Highland Ave B375","City":"Phoenix","State":"AZ","Zip":"85016"},{"Location":"JIFFY LUBE #2269","Address":"2702 E Indian School Rd","City":"Phoenix","State":"AZ","Zip":"85016"},{"Location":"JOHN BONELL %2F JONES LANG","Address":"3131 E Camelback Rd 400","City":"Phoenix","State":"AZ","Zip":"85016"},{"Location":"JOHNSON BANK","Address":"3131 E Camelback Rd 100","City":"Phoenix","State":"AZ","Zip":"85016"},{"Location":"JONES LANG LA-SALLE","Address":"3131 E Camelback Rd","City":"Phoenix","State":"AZ","Zip":"85016"},{"Location":"JULIA BAKER CONFECTIONS","Address":"2502 E Camelback Rd 130","City":"Phoenix","State":"AZ","Zip":"85016"},{"Location":"KAHALA REST LLC%2C TACO SHOP","Address":"1615 E Camelback Rd 102","City":"Phoenix","State":"AZ","Zip":"85016"},{"Location":"KEEGAN'S","Address":"3114 E Camelback Rd","City":"Phoenix","State":"AZ","Zip":"85016"},{"Location":"KHYBER HALAL RESTRAUNT","Address":"4034 N 24th St","City":"Phoenix","State":"AZ","Zip":"85016"},{"Location":"L'AMORE","Address":"3159 E Lincoln Dr","City":"Phoenix","State":"AZ","Zip":"85016"},{"Location":"LA FITNESS #120","Address":"2077 E Camelback Rd","City":"Phoenix","State":"AZ","Zip":"85016"},{"Location":"LESLIES POOLMART INC","Address":"2005 E Indian School Rd","City":"Phoenix","State":"AZ","Zip":"85016"},{"Location":"LINDSTROM FAM AUTO WASH","Address":"3003 E Indian School Rd","City":"Phoenix","State":"AZ","Zip":"85016"},{"Location":"LINGER LONGER LOUNGE","Address":"6522 N 16th St","City":"Phoenix","State":"AZ","Zip":"85016"},{"Location":"LOANSTAR HOME LENDING","Address":"2198 E Camelback Rd Suit3","City":"Phoenix","State":"AZ","Zip":"85016"},{"Location":"LONESTAR STEAKHOUSE #2801","Address":"1743 E Camelback Rd","City":"Phoenix","State":"AZ","Zip":"85016"},{"Location":"LORI'S PET GROOMING","Address":"3031 E Indian School Rd 8","City":"Phoenix","State":"AZ","Zip":"85016"},{"Location":"LYTHAM PARTNERS","Address":"2355 E Camelback Rd 425","City":"Phoenix","State":"AZ","Zip":"85016"},{"Location":"M2M SPECTRUM NETWORK","Address":"3131 E Camelback Rd 450","City":"Phoenix","State":"AZ","Zip":"85016"},{"Location":"MACY'S WEST 451","Address":"2410 E Camelback Rd","City":"Phoenix","State":"AZ","Zip":"85016"},{"Location":"MACY'S WEST 451 BR","Address":"2410 E Camelback Rd","City":"Phoenix","State":"AZ","Zip":"85016"},{"Location":"MANUEL'S RESTAURANT # 3","Address":"2820 E Indian School Rd","City":"Phoenix","State":"AZ","Zip":"85016"},{"Location":"MCDONALDS","Address":"3323 N 24th St","City":"Phoenix","State":"AZ","Zip":"85016"},{"Location":"MCDONALDS 22352","Address":"1635 E Camelback Rd","City":"Phoenix","State":"AZ","Zip":"85016"},{"Location":"MED PRO","Address":"2929 E Thomas Rd","City":"Phoenix","State":"AZ","Zip":"85016"},{"Location":"MEJICO MEXICAN GRILL","Address":"2333 E Osborn Rd","City":"Phoenix","State":"AZ","Zip":"85016"},{"Location":"MEN'S WEARHOUSE #2503","Address":"1945 E Camelback Rd","City":"Phoenix","State":"AZ","Zip":"85016"},{"Location":"MEXX 32","Address":"3154 E Camelback Rd","City":"Phoenix","State":"AZ","Zip":"85016"},{"Location":"MGA HEALTH CARE","Address":"3131 E Camelback Rd 300","City":"Phoenix","State":"AZ","Zip":"85016"},{"Location":"MODA GEORGIO STORE","Address":"3168 E Camelback Rd","City":"Phoenix","State":"AZ","Zip":"85016"},{"Location":"NEWMARK GRUBB KNIGHT FRA","Address":"2398 E Camelback Rd 950","City":"Phoenix","State":"AZ","Zip":"85016"},{"Location":"NORDSTROM LASTCHANCE","Address":"1919 E Camelback Rd 100","City":"Phoenix","State":"AZ","Zip":"85016"},{"Location":"NORDSTROM RACK - TOWN &","Address":"2073 E Camelback Rd","City":"Phoenix","State":"AZ","Zip":"85016"},{"Location":"NORTH WESTERN MUTUAL FINANCIAL","Address":"2201 E Camelback Rd 400","City":"Phoenix","State":"AZ","Zip":"85016"},{"Location":"NORTHERN TRUST BANK","Address":"2398 E Camelback Rd 1100","City":"Phoenix","State":"AZ","Zip":"85016"},{"Location":"NYPD PIZZA LLC #1","Address":"1949 E Camelback Rd","City":"Phoenix","State":"AZ","Zip":"85016"},{"Location":"OREILLY AUTO PARTS","Address":"5343 N 16th St 400","City":"Phoenix","State":"AZ","Zip":"85016"},{"Location":"PACWEST ENERGY LLC","Address":"1954 E Highland Ave","City":"Phoenix","State":"AZ","Zip":"85016"},{"Location":"PHOENIX ATTIS INVESTMENTS LLC","Address":"3020 E Camelback Rd 399","City":"Phoenix","State":"AZ","Zip":"85016"},{"Location":"PHOENIX COMMERCIAL","Address":"3131 E Camelback Rd 340","City":"Phoenix","State":"AZ","Zip":"85016"},{"Location":"PHOENIX INDIAN MEDICAL CENTER","Address":"4212 N 16th St","City":"Phoenix","State":"AZ","Zip":"85016"},{"Location":"PINNACLE BANK","Address":"2200 E Camelback Rd 108","City":"Phoenix","State":"AZ","Zip":"85016"},{"Location":"PLI","Address":"3131 E Camelback Rd 135","City":"Phoenix","State":"AZ","Zip":"85016"},{"Location":"PRINCIPAL FINANCIAL GROUP","Address":"2355 E Camelback Rd 600","City":"Phoenix","State":"AZ","Zip":"85016"},{"Location":"REBECCAS CORNER","Address":"4131 N 24th St","City":"Phoenix","State":"AZ","Zip":"85016"},{"Location":"REGUS BUSINESS CENTRE","Address":"2375 E Camelback Rd 600","City":"Phoenix","State":"AZ","Zip":"85016"},{"Location":"REVO BURRITO","Address":"3154 E Camelback Rd","City":"Phoenix","State":"AZ","Zip":"85016"},{"Location":"RIGHI HERNANDEZ LAW FIRM","Address":"2111 E Highland Ave B440","City":"Phoenix","State":"AZ","Zip":"85016"},{"Location":"RITZ-CARLTON PHOENIX (0011846)","Address":"2401 E Camelback Rd","City":"Phoenix","State":"AZ","Zip":"85016"},{"Location":"SAFEWAY 2042","Address":"3132 E Camelback Rd","City":"Phoenix","State":"AZ","Zip":"85016"},{"Location":"SCOTTRADE 02A","Address":"1615 E Camelback Rd 101","City":"Phoenix","State":"AZ","Zip":"85016"},{"Location":"SEASONS 52 #4517","Address":"2502 E Camelback Rd","City":"Phoenix","State":"AZ","Zip":"85016"},{"Location":"SERENITY HOUSE","Address":"4122 N 17th St","City":"Phoenix","State":"AZ","Zip":"85016"},{"Location":"SOLO TRATTORIA","Address":"2501 E Camelback Rd 24","City":"Phoenix","State":"AZ","Zip":"85016"},{"Location":"SPIKE","Address":"6845 N 16th St","City":"Phoenix","State":"AZ","Zip":"85016"},{"Location":"SPORTS AUTHORITY 689","Address":"1625 E Camelback Rd","City":"Phoenix","State":"AZ","Zip":"85016"},{"Location":"SQUAW PEAK ANIMAL HOSPITAL","Address":"3165 E Lincoln Dr","City":"Phoenix","State":"AZ","Zip":"85016"},{"Location":"SRS REAL ESTATE PARTNERS","Address":"3131 E Camelback Rd 110","City":"Phoenix","State":"AZ","Zip":"85016"},{"Location":"STEWART CAR WASH","Address":"4824 N 16th St","City":"Phoenix","State":"AZ","Zip":"85016"},{"Location":"STEWART TITLE","Address":"2930 E Camelback Rd 210","City":"Phoenix","State":"AZ","Zip":"85016"},{"Location":"STINGRAY BILTMORE LLC","Address":"2502 E Camelback Rd 156","City":"Phoenix","State":"AZ","Zip":"85016"},{"Location":"SUNNYSIDE MARKET AND SMOKE SHOP","Address":"2314 East Indian School Road","City":"Phoenix","State":"AZ","Zip":"85016"},{"Location":"SUPERPAWN SHOP 1378","Address":"1602 E Indian School Rd","City":"Phoenix","State":"AZ","Zip":"85016"},{"Location":"SWIZZLE INN","Address":"5835 N 16th St","City":"Phoenix","State":"AZ","Zip":"85016"},{"Location":"TAGER OPTICAL","Address":"3126 E Camelback Rd","City":"Phoenix","State":"AZ","Zip":"85016"},{"Location":"TALLEY'S PUB","Address":"6022 N 16th St","City":"Phoenix","State":"AZ","Zip":"85016"},{"Location":"TEXAZ GRILL","Address":"6003 N 16th St","City":"Phoenix","State":"AZ","Zip":"85016"},{"Location":"TFO PHOENIX","Address":"2400 E Arizona Biltmore Cir 1","City":"Phoenix","State":"AZ","Zip":"85016"},{"Location":"THE ARIZONA AFL CIO","Address":"3117 N 16th St","City":"Phoenix","State":"AZ","Zip":"85016"},{"Location":"THE ARMADILLO GRILL","Address":"1904 E Camelback Rd","City":"Phoenix","State":"AZ","Zip":"85016"},{"Location":"THE BARCLAY GROUP","Address":"2390 E Camelback Rd 200","City":"Phoenix","State":"AZ","Zip":"85016"},{"Location":"THE CAPITAL GRILLE #8017","Address":"2502 E Camelback Rd","City":"Phoenix","State":"AZ","Zip":"85016"},{"Location":"THE CHEESECAKE FACTORY 0042","Address":"2402 E Camelback Rd 101","City":"Phoenix","State":"AZ","Zip":"85016"},{"Location":"THE CLOTHERIE","Address":"2502 E Camelback Rd 169","City":"Phoenix","State":"AZ","Zip":"85016"},{"Location":"THE GLADLY LLC","Address":"2201 E Camelback Rd 106","City":"Phoenix","State":"AZ","Zip":"85016"},{"Location":"THE MINIMALLY INVASIVE S","Address":"3135a E Lincoln Dr","City":"Phoenix","State":"AZ","Zip":"85016"},{"Location":"THE PARLOR PIZZERIA","Address":"1916 E Camelback Rd","City":"Phoenix","State":"AZ","Zip":"85016"},{"Location":"THE RITZ CARLTON PHOENIX","Address":"2401 E Camelback Rd","City":"Phoenix","State":"AZ","Zip":"85016"},{"Location":"THE VIG UPTOWN","Address":"6015 N 16th St","City":"Phoenix","State":"AZ","Zip":"85016"},{"Location":"TIAA-CREF","Address":"2355 E Camelback Rd 440","City":"Phoenix","State":"AZ","Zip":"85016"},{"Location":"TR CAMELBACK CORP","Address":"3131 E Camelback Rd 325","City":"Phoenix","State":"AZ","Zip":"85016"},{"Location":"TR CAMELBACK CORP %2F CBRE","Address":"3133 E Camelback Rd","City":"Phoenix","State":"AZ","Zip":"85016"},{"Location":"TREASURE TROVE THRIFT SHOP INC","Address":"3335 N 24th St","City":"Phoenix","State":"AZ","Zip":"85016"},{"Location":"TRUCK MASTERS","Address":"2020 E Indian School Rd","City":"Phoenix","State":"AZ","Zip":"85016"},{"Location":"TRUE FOOD KITCHEN","Address":"2502 E Camelback Rd 135","City":"Phoenix","State":"AZ","Zip":"85016"},{"Location":"TWIN PEAKS","Address":"2135 E Camelback Rd","City":"Phoenix","State":"AZ","Zip":"85016"},{"Location":"UNO LOUNGE","Address":"3702 N 16th St","City":"Phoenix","State":"AZ","Zip":"85016"},{"Location":"VACO PHOENIX","Address":"3131 E Camelback Rd 212","City":"Phoenix","State":"AZ","Zip":"85016"},{"Location":"VALLEY SUBS OF ARIZONA","Address":"1743 E Camelback Rd A2","City":"Phoenix","State":"AZ","Zip":"85016"},{"Location":"VERMILION IDG","Address":"3131 E Camelback Rd 210","City":"Phoenix","State":"AZ","Zip":"85016"},{"Location":"VINTAGE PARTNERS","Address":"2502 E Camelback Rd 214","City":"Phoenix","State":"AZ","Zip":"85016"},{"Location":"VIP BARBER SHOP","Address":"2824 E Indian School Rd 13","City":"Phoenix","State":"AZ","Zip":"85016"},{"Location":"WESTERN SOLUTIONS AZ","Address":"4207 N 27th St 11","City":"Phoenix","State":"AZ","Zip":"85016"},{"Location":"WHOLE FOODS MARKET","Address":"4701 N 20th St","City":"Phoenix","State":"AZ","Zip":"85016"},{"Location":"WILD GAME GRILL","Address":"2445 E Thomas Rd","City":"Phoenix","State":"AZ","Zip":"85016"},{"Location":"WOLTERS KLUWER","Address":"2390 E Camelback Rd","City":"Phoenix","State":"AZ","Zip":"85016"},{"Location":"WRIGHT BAR","Address":"2400 E Missouri Ave 2a","City":"Phoenix","State":"AZ","Zip":"85016"},{"Location":"YOSHIS","Address":"4102 N 24th St 2","City":"Phoenix","State":"AZ","Zip":"85016"},{"Location":"ZINBURGER","Address":"2502 E Camelback Rd 127","City":"Phoenix","State":"AZ","Zip":"85016"},{"Location":"EXODUS HAIR SALON","Address":"2449 Indian School Road # A","City":"Phoeniz","State":"AZ","Zip":"85016"}]