[{"Location":"NATIVE NEW YORKER","Address":"4972 S Power Rd 106","City":"Gilbert","State":"AZ","Zip":"85012"},{"Location":"3200 NORTH CENTRAL VENTURE LLC","Address":"3200 N Central Ave 1100","City":"Phoenix","State":"AZ","Zip":"85012"},{"Location":"AIG","Address":"2929 N Central Ave 10flr","City":"Phoenix","State":"AZ","Zip":"85012"},{"Location":"ALEXIS GRILL","Address":"3550 N Central Ave","City":"Phoenix","State":"AZ","Zip":"85012"},{"Location":"ALLIANCE BANK OF ARIZONA","Address":"2901 N Central Ave 100","City":"Phoenix","State":"AZ","Zip":"85012"},{"Location":"APPLEBEE'S #509 UPTOWN PLAZA","Address":"2 E Camelback Rd","City":"Phoenix","State":"AZ","Zip":"85012"},{"Location":"ARIZONA FOOD REVOLUTION","Address":"4236 N Central Ave 100","City":"Phoenix","State":"AZ","Zip":"85012"},{"Location":"ARIZONA OPHTHALMIC OUTPAT SUR","Address":"300 E Osborn Rd 202","City":"Phoenix","State":"AZ","Zip":"85012"},{"Location":"ARIZONA STATE RETIREMENT SYS.","Address":"3300 N Central Ave S1400","City":"Phoenix","State":"AZ","Zip":"85012"},{"Location":"ARIZONA STATE RETIREMENT SYST","Address":"3300 N Central Ave 960","City":"Phoenix","State":"AZ","Zip":"85012"},{"Location":"ATRIUM LOUNGE","Address":"10 E Thomas Rd","City":"Phoenix","State":"AZ","Zip":"85012"},{"Location":"AVESIS","Address":"3724 N 3rd St 300","City":"Phoenix","State":"AZ","Zip":"85012"},{"Location":"BARROW NEUROSURGICAL ASSOCIATE","Address":"3090 N 3rd St","City":"Phoenix","State":"AZ","Zip":"85012"},{"Location":"BESTIT","Address":"3724 N 3rd St","City":"Phoenix","State":"AZ","Zip":"85012"},{"Location":"BIOSCREEN CLINICAL SERVICES","Address":"3305 N 2nd St","City":"Phoenix","State":"AZ","Zip":"85012"},{"Location":"BOWMAN AND BROOKE LLP","Address":"2901 N Central Ave 1600","City":"Phoenix","State":"AZ","Zip":"85012"},{"Location":"BREWERS DEN LLC","Address":"322 E Camelback Rd","City":"Phoenix","State":"AZ","Zip":"85012"},{"Location":"CHURCH FOR THE NATIONS","Address":"6225 N Central Ave","City":"Phoenix","State":"AZ","Zip":"85012"},{"Location":"CLIFTON GUNDERSON LLP","Address":"20 E Thomas Rd 2300","City":"Phoenix","State":"AZ","Zip":"85012"},{"Location":"CMD AT CENTURYLINK LLC","Address":"20 E Thomas Rd 150","City":"Phoenix","State":"AZ","Zip":"85012"},{"Location":"CMI GOLD AND SILVER","Address":"3800 N Central Ave 1100","City":"Phoenix","State":"AZ","Zip":"85012"},{"Location":"COMERICA BANK","Address":"3200 N Central Ave 1","City":"Phoenix","State":"AZ","Zip":"85012"},{"Location":"DELOITTE SERVICES LP","Address":"2901 N Central Ave 1200","City":"Phoenix","State":"AZ","Zip":"85012"},{"Location":"DHS%2FICE","Address":"3010 N 2nd St 201","City":"Phoenix","State":"AZ","Zip":"85012"},{"Location":"DIGNITY HEALTH","Address":"3200 N Central Ave 4thfl","City":"Phoenix","State":"AZ","Zip":"85012"},{"Location":"DONS CIGARD","Address":"5036 N Central Ave","City":"Phoenix","State":"AZ","Zip":"85012"},{"Location":"DRUG ENFORCEMENT AGENCY","Address":"3010 N 2nd St S100","City":"Phoenix","State":"AZ","Zip":"85012"},{"Location":"EEOC","Address":"3300 N Central Ave 690","City":"Phoenix","State":"AZ","Zip":"85012"},{"Location":"ESQUIRE DEPOSTION SERVIC","Address":"3800 N Central Ave 1700","City":"Phoenix","State":"AZ","Zip":"85012"},{"Location":"FAITHFUL AND GOULD","Address":"3200 N Central Ave 2400","City":"Phoenix","State":"AZ","Zip":"85012"},{"Location":"FBI - PHOENIX","Address":"201 E Indianola Ave","City":"Phoenix","State":"AZ","Zip":"85012"},{"Location":"FDA OFFICE OF CRIMINAL INVEST","Address":"3010 N 2nd St 110","City":"Phoenix","State":"AZ","Zip":"85012"},{"Location":"FEDERAL PIZZA","Address":"5210 N Central Ave","City":"Phoenix","State":"AZ","Zip":"85012"},{"Location":"FENNEMORE CRAIG","Address":"3003 N Central Ave 2600","City":"Phoenix","State":"AZ","Zip":"85012"},{"Location":"FRANCES PLACE","Address":"111 E Camelback Rd","City":"Phoenix","State":"AZ","Zip":"85012"},{"Location":"IRS MEDIA RELATIONS","Address":"4041 N Central Ave 1321","City":"Phoenix","State":"AZ","Zip":"85012"},{"Location":"IRS%2FCI","Address":"4041 N Central Ave 18","City":"Phoenix","State":"AZ","Zip":"85012"},{"Location":"ISS PHOENIX DOWNTOWN","Address":"4041 N Central Ave 4thfl","City":"Phoenix","State":"AZ","Zip":"85012"},{"Location":"JABURG & WILK P.C.","Address":"3200 N Central Ave","City":"Phoenix","State":"AZ","Zip":"85012"},{"Location":"KNCH LAW   LLP","Address":"3200 N Central Ave","City":"Phoenix","State":"AZ","Zip":"85012"},{"Location":"KOBALT","Address":"3110 N Central Ave 125","City":"Phoenix","State":"AZ","Zip":"85012"},{"Location":"LUX CENTRAL","Address":"4402 N Central Ave","City":"Phoenix","State":"AZ","Zip":"85012"},{"Location":"M&I BANK","Address":"1 E Camelback Rd 10-11","City":"Phoenix","State":"AZ","Zip":"85012"},{"Location":"MAIZIES CAFE BISTRO","Address":"4750 N Central Ave","City":"Phoenix","State":"AZ","Zip":"85012"},{"Location":"MARICOPA COUNTY DEPARTMENT OF","Address":"4041 N Central Ave 600","City":"Phoenix","State":"AZ","Zip":"85012"},{"Location":"MCKINSTRY","Address":"4010 N 3rd St","City":"Phoenix","State":"AZ","Zip":"85012"},{"Location":"MEDISTAR HEALTHCARE CONNECTION","Address":"3300 N Central Ave 2300","City":"Phoenix","State":"AZ","Zip":"85012"},{"Location":"PARK CENTRAL DELI","Address":"3110 N Central Ave 175","City":"Phoenix","State":"AZ","Zip":"85012"},{"Location":"PHOENIX SKIN","Address":"5056 N Central Ave","City":"Phoenix","State":"AZ","Zip":"85012"},{"Location":"PLAZA CAFE","Address":"4041 N Central Ave","City":"Phoenix","State":"AZ","Zip":"85012"},{"Location":"PORT OF SUBS INC 172","Address":"635 E Indian School Rd 102","City":"Phoenix","State":"AZ","Zip":"85012"},{"Location":"POSTINO CENTRAL","Address":"5144 N Central Ave","City":"Phoenix","State":"AZ","Zip":"85012"},{"Location":"PRICE KONG AND COMPANY","Address":"5300 N Central Ave 200","City":"Phoenix","State":"AZ","Zip":"85012"},{"Location":"RAYMOND GREER SASSAMON","Address":"3636 N Central Ave 1070","City":"Phoenix","State":"AZ","Zip":"85012"},{"Location":"REGUS","Address":"20 E Thomas Rd 2200","City":"Phoenix","State":"AZ","Zip":"85012"},{"Location":"ROBERT LANE","Address":"4001 N 3rd St","City":"Phoenix","State":"AZ","Zip":"85012"},{"Location":"SANDERS AND PARKS","Address":"3030 N 3rd St 1300","City":"Phoenix","State":"AZ","Zip":"85012"},{"Location":"SCF ARIZONA","Address":"3030 N 3rd St 1400","City":"Phoenix","State":"AZ","Zip":"85012"},{"Location":"SDQ GROUP LLC","Address":"537 E Camelback Rd","City":"Phoenix","State":"AZ","Zip":"85012"},{"Location":"SHERPA PUBLIC AFFAIRS","Address":"330 E Thomas Rd","City":"Phoenix","State":"AZ","Zip":"85012"},{"Location":"SPORTS CLUB AT CITY SQ CE99-1","Address":"4000 N Central Ave 110","City":"Phoenix","State":"AZ","Zip":"85012"},{"Location":"STATE FARM","Address":"314 E Thomas Rd","City":"Phoenix","State":"AZ","Zip":"85012"},{"Location":"STUDIO KB","Address":"616 E Oregon Ave","City":"Phoenix","State":"AZ","Zip":"85012"},{"Location":"SUPERPAWN SHOP 1377","Address":"4420 N Central Ave","City":"Phoenix","State":"AZ","Zip":"85012"},{"Location":"THE PHOENIX PLAZA FITNESS CTR","Address":"2909 N Central Ave 300","City":"Phoenix","State":"AZ","Zip":"85012"},{"Location":"THE WINDSOR","Address":"5223 N Central Ave","City":"Phoenix","State":"AZ","Zip":"85012"},{"Location":"TOWERS WATSON","Address":"2901 N Central Ave 1100","City":"Phoenix","State":"AZ","Zip":"85012"},{"Location":"VA REGIONAL OFFICE","Address":"3333 N Central Ave 3026","City":"Phoenix","State":"AZ","Zip":"85012"},{"Location":"VALLEY SUBS OF ARIZONA","Address":"18 E Camelback Rd 16","City":"Phoenix","State":"AZ","Zip":"85012"},{"Location":"WIMBERLEY INVESTMENTS","Address":"4240 N Central Ave","City":"Phoenix","State":"AZ","Zip":"85012"},{"Location":"Z TEJAS- OSBOURNE","Address":"546 E Osborn Rd","City":"Phoenix","State":"AZ","Zip":"85012"},{"Location":"ZOOKZ ENTERPRISES","Address":"4750 N Cent Ave","City":"Phoenix","State":"AZ","Zip":"85012"},{"Location":"NATIVE NEW YORKER","Address":"4972 S Power Rd 106","City":"Gilbert","State":"AZ","Zip":"85012"},{"Location":"3200 NORTH CENTRAL VENTURE LLC","Address":"3200 N Central Ave 1100","City":"Phoenix","State":"AZ","Zip":"85012"},{"Location":"AIG","Address":"2929 N Central Ave 10flr","City":"Phoenix","State":"AZ","Zip":"85012"},{"Location":"ALEXIS GRILL","Address":"3550 N Central Ave","City":"Phoenix","State":"AZ","Zip":"85012"},{"Location":"ALLIANCE BANK OF ARIZONA","Address":"2901 N Central Ave 100","City":"Phoenix","State":"AZ","Zip":"85012"},{"Location":"APPLEBEE'S #509 UPTOWN PLAZA","Address":"2 E Camelback Rd","City":"Phoenix","State":"AZ","Zip":"85012"},{"Location":"ARIZONA FOOD REVOLUTION","Address":"4236 N Central Ave 100","City":"Phoenix","State":"AZ","Zip":"85012"},{"Location":"ARIZONA OPHTHALMIC OUTPAT SUR","Address":"300 E Osborn Rd 202","City":"Phoenix","State":"AZ","Zip":"85012"},{"Location":"ARIZONA STATE RETIREMENT SYS.","Address":"3300 N Central Ave S1400","City":"Phoenix","State":"AZ","Zip":"85012"},{"Location":"ARIZONA STATE RETIREMENT SYST","Address":"3300 N Central Ave 960","City":"Phoenix","State":"AZ","Zip":"85012"},{"Location":"ATRIUM LOUNGE","Address":"10 E Thomas Rd","City":"Phoenix","State":"AZ","Zip":"85012"},{"Location":"AVESIS","Address":"3724 N 3rd St 300","City":"Phoenix","State":"AZ","Zip":"85012"},{"Location":"BARROW NEUROSURGICAL ASSOCIATE","Address":"3090 N 3rd St","City":"Phoenix","State":"AZ","Zip":"85012"},{"Location":"BESTIT","Address":"3724 N 3rd St","City":"Phoenix","State":"AZ","Zip":"85012"},{"Location":"BIOSCREEN CLINICAL SERVICES","Address":"3305 N 2nd St","City":"Phoenix","State":"AZ","Zip":"85012"},{"Location":"BOWMAN AND BROOKE LLP","Address":"2901 N Central Ave 1600","City":"Phoenix","State":"AZ","Zip":"85012"},{"Location":"BREWERS DEN LLC","Address":"322 E Camelback Rd","City":"Phoenix","State":"AZ","Zip":"85012"},{"Location":"CHURCH FOR THE NATIONS","Address":"6225 N Central Ave","City":"Phoenix","State":"AZ","Zip":"85012"},{"Location":"CLIFTON GUNDERSON LLP","Address":"20 E Thomas Rd 2300","City":"Phoenix","State":"AZ","Zip":"85012"},{"Location":"CMD AT CENTURYLINK LLC","Address":"20 E Thomas Rd 150","City":"Phoenix","State":"AZ","Zip":"85012"},{"Location":"CMI GOLD AND SILVER","Address":"3800 N Central Ave 1100","City":"Phoenix","State":"AZ","Zip":"85012"},{"Location":"COMERICA BANK","Address":"3200 N Central Ave 1","City":"Phoenix","State":"AZ","Zip":"85012"},{"Location":"DELOITTE SERVICES LP","Address":"2901 N Central Ave 1200","City":"Phoenix","State":"AZ","Zip":"85012"},{"Location":"DHS%2FICE","Address":"3010 N 2nd St 201","City":"Phoenix","State":"AZ","Zip":"85012"},{"Location":"DIGNITY HEALTH","Address":"3200 N Central Ave 4thfl","City":"Phoenix","State":"AZ","Zip":"85012"},{"Location":"DONS CIGARD","Address":"5036 N Central Ave","City":"Phoenix","State":"AZ","Zip":"85012"},{"Location":"DRUG ENFORCEMENT AGENCY","Address":"3010 N 2nd St S100","City":"Phoenix","State":"AZ","Zip":"85012"},{"Location":"EEOC","Address":"3300 N Central Ave 690","City":"Phoenix","State":"AZ","Zip":"85012"},{"Location":"ESQUIRE DEPOSTION SERVIC","Address":"3800 N Central Ave 1700","City":"Phoenix","State":"AZ","Zip":"85012"},{"Location":"FAITHFUL AND GOULD","Address":"3200 N Central Ave 2400","City":"Phoenix","State":"AZ","Zip":"85012"},{"Location":"FBI - PHOENIX","Address":"201 E Indianola Ave","City":"Phoenix","State":"AZ","Zip":"85012"},{"Location":"FDA OFFICE OF CRIMINAL INVEST","Address":"3010 N 2nd St 110","City":"Phoenix","State":"AZ","Zip":"85012"},{"Location":"FEDERAL PIZZA","Address":"5210 N Central Ave","City":"Phoenix","State":"AZ","Zip":"85012"},{"Location":"FENNEMORE CRAIG","Address":"3003 N Central Ave 2600","City":"Phoenix","State":"AZ","Zip":"85012"},{"Location":"FRANCES PLACE","Address":"111 E Camelback Rd","City":"Phoenix","State":"AZ","Zip":"85012"},{"Location":"IRS MEDIA RELATIONS","Address":"4041 N Central Ave 1321","City":"Phoenix","State":"AZ","Zip":"85012"},{"Location":"IRS%2FCI","Address":"4041 N Central Ave 18","City":"Phoenix","State":"AZ","Zip":"85012"},{"Location":"ISS PHOENIX DOWNTOWN","Address":"4041 N Central Ave 4thfl","City":"Phoenix","State":"AZ","Zip":"85012"},{"Location":"JABURG & WILK P.C.","Address":"3200 N Central Ave","City":"Phoenix","State":"AZ","Zip":"85012"},{"Location":"KNCH LAW   LLP","Address":"3200 N Central Ave","City":"Phoenix","State":"AZ","Zip":"85012"},{"Location":"KOBALT","Address":"3110 N Central Ave 125","City":"Phoenix","State":"AZ","Zip":"85012"},{"Location":"LUX CENTRAL","Address":"4402 N Central Ave","City":"Phoenix","State":"AZ","Zip":"85012"},{"Location":"M&I BANK","Address":"1 E Camelback Rd 10-11","City":"Phoenix","State":"AZ","Zip":"85012"},{"Location":"MAIZIES CAFE BISTRO","Address":"4750 N Central Ave","City":"Phoenix","State":"AZ","Zip":"85012"},{"Location":"MARICOPA COUNTY DEPARTMENT OF","Address":"4041 N Central Ave 600","City":"Phoenix","State":"AZ","Zip":"85012"},{"Location":"MCKINSTRY","Address":"4010 N 3rd St","City":"Phoenix","State":"AZ","Zip":"85012"},{"Location":"MEDISTAR HEALTHCARE CONNECTION","Address":"3300 N Central Ave 2300","City":"Phoenix","State":"AZ","Zip":"85012"},{"Location":"PARK CENTRAL DELI","Address":"3110 N Central Ave 175","City":"Phoenix","State":"AZ","Zip":"85012"},{"Location":"PHOENIX SKIN","Address":"5056 N Central Ave","City":"Phoenix","State":"AZ","Zip":"85012"},{"Location":"PLAZA CAFE","Address":"4041 N Central Ave","City":"Phoenix","State":"AZ","Zip":"85012"},{"Location":"PORT OF SUBS INC 172","Address":"635 E Indian School Rd 102","City":"Phoenix","State":"AZ","Zip":"85012"},{"Location":"POSTINO CENTRAL","Address":"5144 N Central Ave","City":"Phoenix","State":"AZ","Zip":"85012"},{"Location":"PRICE KONG AND COMPANY","Address":"5300 N Central Ave 200","City":"Phoenix","State":"AZ","Zip":"85012"},{"Location":"RAYMOND GREER SASSAMON","Address":"3636 N Central Ave 1070","City":"Phoenix","State":"AZ","Zip":"85012"},{"Location":"REGUS","Address":"20 E Thomas Rd 2200","City":"Phoenix","State":"AZ","Zip":"85012"},{"Location":"ROBERT LANE","Address":"4001 N 3rd St","City":"Phoenix","State":"AZ","Zip":"85012"},{"Location":"SANDERS AND PARKS","Address":"3030 N 3rd St 1300","City":"Phoenix","State":"AZ","Zip":"85012"},{"Location":"SCF ARIZONA","Address":"3030 N 3rd St 1400","City":"Phoenix","State":"AZ","Zip":"85012"},{"Location":"SDQ GROUP LLC","Address":"537 E Camelback Rd","City":"Phoenix","State":"AZ","Zip":"85012"},{"Location":"SHERPA PUBLIC AFFAIRS","Address":"330 E Thomas Rd","City":"Phoenix","State":"AZ","Zip":"85012"},{"Location":"SPORTS CLUB AT CITY SQ CE99-1","Address":"4000 N Central Ave 110","City":"Phoenix","State":"AZ","Zip":"85012"},{"Location":"STATE FARM","Address":"314 E Thomas Rd","City":"Phoenix","State":"AZ","Zip":"85012"},{"Location":"STUDIO KB","Address":"616 E Oregon Ave","City":"Phoenix","State":"AZ","Zip":"85012"},{"Location":"SUPERPAWN SHOP 1377","Address":"4420 N Central Ave","City":"Phoenix","State":"AZ","Zip":"85012"},{"Location":"THE PHOENIX PLAZA FITNESS CTR","Address":"2909 N Central Ave 300","City":"Phoenix","State":"AZ","Zip":"85012"},{"Location":"THE WINDSOR","Address":"5223 N Central Ave","City":"Phoenix","State":"AZ","Zip":"85012"},{"Location":"TOWERS WATSON","Address":"2901 N Central Ave 1100","City":"Phoenix","State":"AZ","Zip":"85012"},{"Location":"VA REGIONAL OFFICE","Address":"3333 N Central Ave 3026","City":"Phoenix","State":"AZ","Zip":"85012"},{"Location":"VALLEY SUBS OF ARIZONA","Address":"18 E Camelback Rd 16","City":"Phoenix","State":"AZ","Zip":"85012"},{"Location":"WIMBERLEY INVESTMENTS","Address":"4240 N Central Ave","City":"Phoenix","State":"AZ","Zip":"85012"},{"Location":"Z TEJAS- OSBOURNE","Address":"546 E Osborn Rd","City":"Phoenix","State":"AZ","Zip":"85012"},{"Location":"ZOOKZ ENTERPRISES","Address":"4750 N Cent Ave","City":"Phoenix","State":"AZ","Zip":"85012"}]