[{"Location":"180 DEGREES AUTOMOTIVE","Address":"545 W Mariposa St","City":"Phoenix","State":"AZ","Zip":"85013"},{"Location":"ARIZONA HEALTHCARE","Address":"110 W Camelback Rd 200a","City":"Phoenix","State":"AZ","Zip":"85013"},{"Location":"AZTEC RADIOLOGY","Address":"444 W Osborn Rd 105","City":"Phoenix","State":"AZ","Zip":"85013"},{"Location":"BK DESIGN INC","Address":"3100 N 3rd Ave 100","City":"Phoenix","State":"AZ","Zip":"85013"},{"Location":"CHARLEYS PHOENIX","Address":"727 W Camelback Rd","City":"Phoenix","State":"AZ","Zip":"85013"},{"Location":"DISTRICT MEDICAL GROUP","Address":"3141 N 3rd Ave","City":"Phoenix","State":"AZ","Zip":"85013"},{"Location":"EDWARD JONES","Address":"6868 N 7th Ave 103","City":"Phoenix","State":"AZ","Zip":"85013"},{"Location":"FIRESTONE #029602","Address":"241 W Osborn Rd","City":"Phoenix","State":"AZ","Zip":"85013"},{"Location":"FIRST WATCH ARIZONA","Address":"61 W Thomas Rd","City":"Phoenix","State":"AZ","Zip":"85013"},{"Location":"FOREX CARGO","Address":"4970 N 7th Ave","City":"Phoenix","State":"AZ","Zip":"85013"},{"Location":"FOUNDATION FOR SR LIVING","Address":"3620 N 4th Ave","City":"Phoenix","State":"AZ","Zip":"85013"},{"Location":"HOSPICE OF THE VALLEY RYAN","Address":"110 W Merrell St","City":"Phoenix","State":"AZ","Zip":"85013"},{"Location":"JIM WATSON","Address":"664 W Camelback Rd","City":"Phoenix","State":"AZ","Zip":"85013"},{"Location":"LOW COUNTRY FOODS LLC","Address":"300 W Camelback Rd 2","City":"Phoenix","State":"AZ","Zip":"85013"},{"Location":"MARKS THE SPOT","Address":"24 W Camelback Rd L","City":"Phoenix","State":"AZ","Zip":"85013"},{"Location":"MCDONALD S","Address":"750 W Camelback Rd","City":"Phoenix","State":"AZ","Zip":"85013"},{"Location":"MCDONALDS 36396","Address":"711 W Indian School Rd","City":"Phoenix","State":"AZ","Zip":"85013"},{"Location":"MEDINAS AUTOMOTIVE","Address":"4508 N 7th Ave","City":"Phoenix","State":"AZ","Zip":"85013"},{"Location":"MI PATIO","Address":"3347 N 7th Ave","City":"Phoenix","State":"AZ","Zip":"85013"},{"Location":"MICHAELS CAFE","Address":"5025 N 7th Ave B2","City":"Phoenix","State":"AZ","Zip":"85013"},{"Location":"MUNICH MOTOR COMPANY","Address":"4805 N 7th Ave","City":"Phoenix","State":"AZ","Zip":"85013"},{"Location":"OFF CHUTE","Address":"4111 N 7th Ave","City":"Phoenix","State":"AZ","Zip":"85013"},{"Location":"ONE STOP NUTRITION","Address":"702 W Camelback Rd 6","City":"Phoenix","State":"AZ","Zip":"85013"},{"Location":"PETER  PIPER  PIZZA # 097","Address":"3403 N 7th Ave","City":"Phoenix","State":"AZ","Zip":"85013"},{"Location":"STAFFING SPECIALISTS","Address":"4205 N 7th Ave 204","City":"Phoenix","State":"AZ","Zip":"85013"},{"Location":"STEWART TITLE & TRUST OF PHOEN","Address":"244 W Osborn Rd","City":"Phoenix","State":"AZ","Zip":"85013"},{"Location":"SYLVIA'S LA CANASTA","Address":"5502 N 7th Ave","City":"Phoenix","State":"AZ","Zip":"85013"},{"Location":"THAI ESAN","Address":"616 W Indian School Rd","City":"Phoenix","State":"AZ","Zip":"85013"},{"Location":"THE ROCK","Address":"4129 N 7th Ave","City":"Phoenix","State":"AZ","Zip":"85013"},{"Location":"THURMAN CUSTOM TATTOOS","Address":"1413 W Indian School Rd","City":"Phoenix","State":"AZ","Zip":"85013"},{"Location":"VALLEY PRODUCE","Address":"6868 N 7th Ave 101","City":"Phoenix","State":"AZ","Zip":"85013"},{"Location":"WEST STREET LLC","Address":"607 W Osborn Rd","City":"Phoenix","State":"AZ","Zip":"85013"},{"Location":"Z GIRL CLUB","Address":"4301 N 7th Ave","City":"Phoenix","State":"AZ","Zip":"85013"}]