[{"Location":"A1 LEGAL SERVICES","Address":"5119 N 19th Ave Stek","City":"Phoenix","State":"AZ","Zip":"85015"},{"Location":"AMF #423 CHRISTOWN LANES","Address":"1919 W Bethany Home Rd","City":"Phoenix","State":"AZ","Zip":"85015"},{"Location":"BILL LUKE CHRYSLER JEEP DODGE","Address":"2425 W Camelback Rd","City":"Phoenix","State":"AZ","Zip":"85015"},{"Location":"BLAST FITNESS CAMELBACK","Address":"1625 W Camelback Rd","City":"Phoenix","State":"AZ","Zip":"85015"},{"Location":"CASA DE AMIGAS","Address":"1648 W Colter St","City":"Phoenix","State":"AZ","Zip":"85015"},{"Location":"CATALINA SPORTS BAR & GRILL","Address":"2939 N 16th Streett","City":"Phoenix","State":"AZ","Zip":"85015"},{"Location":"CHAMBERLAIN AND ASSOC","Address":"2025 W Indian School Rd","City":"Phoenix","State":"AZ","Zip":"85015"},{"Location":"COCINA OAXA","Address":"1818 W Bethany Home Rd","City":"Phoenix","State":"AZ","Zip":"85015"},{"Location":"DAYS INN - PHOENIX","Address":"2420 W Thomas Rd","City":"Phoenix","State":"AZ","Zip":"85015"},{"Location":"DUNKIN DONUTS","Address":"2345 W Thomas Rd","City":"Phoenix","State":"AZ","Zip":"85015"},{"Location":"DUNKIN DONUTS","Address":"2420 W Bethany Home Rd","City":"Phoenix","State":"AZ","Zip":"85015"},{"Location":"EPN - STEVE HECHT","Address":"1990 W Camelback Rd 408","City":"Phoenix","State":"AZ","Zip":"85015"},{"Location":"EXECUTIVE BARBERSHOP","Address":"1703 W Bethany Barbershop D004","City":"Phoenix","State":"AZ","Zip":"85015"},{"Location":"FIRST CLASS BARBER & BEAUTY","Address":"6028 N 23rd Ave","City":"Phoenix","State":"AZ","Zip":"85015"},{"Location":"LA FITNESS #04150","Address":"1710 W Camelback Rd","City":"Phoenix","State":"AZ","Zip":"85015"},{"Location":"LA PINATA","Address":"3330 N 19th Ave","City":"Phoenix","State":"AZ","Zip":"85015"},{"Location":"LUKES DINER","Address":"2425 W Camelback Rd","City":"Phoenix","State":"AZ","Zip":"85015"},{"Location":"MARTINEZ GROUP SERVICES","Address":"1600 W Camelback Rd","City":"Phoenix","State":"AZ","Zip":"85015"},{"Location":"MCDONALDS 1158","Address":"2305 W Bethany Home Rd","City":"Phoenix","State":"AZ","Zip":"85015"},{"Location":"NAILS U LUV","Address":"1703 W Bethany Home Rd L3","City":"Phoenix","State":"AZ","Zip":"85015"},{"Location":"P INC PHOENIX","Address":"2030 W Indian School Rd 173","City":"Phoenix","State":"AZ","Zip":"85015"},{"Location":"PACHANGA DISCO BAR","Address":"4434 N 19th Ave","City":"Phoenix","State":"AZ","Zip":"85015"},{"Location":"PAPA JOESS FISH N QUE","Address":"2019 W Bethany Home Rd","City":"Phoenix","State":"AZ","Zip":"85015"},{"Location":"PARADISE CAR SPA","Address":"6001 N 19th Ave","City":"Phoenix","State":"AZ","Zip":"85015"},{"Location":"PBH MEDICAL STAFF OFFICE","Address":"2000 W Bethany Home Rd","City":"Phoenix","State":"AZ","Zip":"85015"},{"Location":"PHO THAN RESTAURANT","Address":"1702 W Camelback Rd 14","City":"Phoenix","State":"AZ","Zip":"85015"},{"Location":"PHOENIX ASSOC OF THE DEAF","Address":"1545 W Osborn Rd","City":"Phoenix","State":"AZ","Zip":"85015"},{"Location":"PIZZA A METRO INC","Address":"2336 W Thomas Rd","City":"Phoenix","State":"AZ","Zip":"85015"},{"Location":"REMA  BARBER SHOP","Address":"4138 N 19th Ave","City":"Phoenix","State":"AZ","Zip":"85015"},{"Location":"ROXY SHOWGIRLS","Address":"4516 N 19th Ave","City":"Phoenix","State":"AZ","Zip":"85015"},{"Location":"SPOONER PHYSICAL THERAPY","Address":"1907 W Camelback Rd","City":"Phoenix","State":"AZ","Zip":"85015"},{"Location":"TARGET","Address":"5715 N 19th Ave","City":"Phoenix","State":"AZ","Zip":"85015"},{"Location":"THE ORIGINAL WINEBURGER","Address":"6027 N 19th Ave","City":"Phoenix","State":"AZ","Zip":"85015"},{"Location":"THE POTTERS HOUSE SUBSTANCE A","Address":"4220 N 20th Ave 100","City":"Phoenix","State":"AZ","Zip":"85015"},{"Location":"TRIPLE N LLC%2FCARAVAN","Address":"4835 N 15th Ave","City":"Phoenix","State":"AZ","Zip":"85015"},{"Location":"WASHINGTON ACTIVITY CTR","Address":"2240 W Citrus Way","City":"Phoenix","State":"AZ","Zip":"85015"},{"Location":"WINGSTOP","Address":"1703 W Bethany Home Rd E3","City":"Phoenix","State":"AZ","Zip":"85015"}]