[{"Location":"ACIES LLC","Address":"5050 N 40th St","City":"Phoenix","State":"AZ","Zip":"85018"},{"Location":"APOLLO LAWN SERVICE","Address":"4824 N 35th St","City":"Phoenix","State":"AZ","Zip":"85018"},{"Location":"ARCADIA BARBER SHOP","Address":"3635 E Indian School Rd","City":"Phoenix","State":"AZ","Zip":"85018"},{"Location":"ARCADIA CANAL ASSOCIATES","Address":"4148 N Arcadia Dr","City":"Phoenix","State":"AZ","Zip":"85018"},{"Location":"ARCADIA D&DLLC","Address":"4115 N 44th St","City":"Phoenix","State":"AZ","Zip":"85018"},{"Location":"ARCADIA MODERN DENTISTRY #204","Address":"4310 E Indian School Rd","City":"Phoenix","State":"AZ","Zip":"85018"},{"Location":"ARCADIA PREMIUM","Address":"5618 E Thomas Rd 100","City":"Phoenix","State":"AZ","Zip":"85018"},{"Location":"ARCADIA SMILES DENTISTRY","Address":"4203 E Indian School Rd 220","City":"Phoenix","State":"AZ","Zip":"85018"},{"Location":"ARCADIA TAVERN","Address":"4801 E Indian School Rd","City":"Phoenix","State":"AZ","Zip":"85018"},{"Location":"ARIZONA COUNTRY CLUB","Address":"5668 E Orange Blossom Ln","City":"Phoenix","State":"AZ","Zip":"85018"},{"Location":"ATHLETICUTS","Address":"4280 E Indian School Rd 105","City":"Phoenix","State":"AZ","Zip":"85018"},{"Location":"AZ1 SMOKE SHOP","Address":"4617 E Thomas Rd","City":"Phoenix","State":"AZ","Zip":"85018"},{"Location":"BD & ASSOCIATES%2C LLC","Address":"5050 N 40th St 205","City":"Phoenix","State":"AZ","Zip":"85018"},{"Location":"BEYOND TRUST","Address":"5090 N 40th St 4thfl","City":"Phoenix","State":"AZ","Zip":"85018"},{"Location":"BILTMORE SHORES","Address":"5420 N 32nd St","City":"Phoenix","State":"AZ","Zip":"85018"},{"Location":"BLDG 5090","Address":"5090 N 40th St","City":"Phoenix","State":"AZ","Zip":"85018"},{"Location":"BRASS RAIL","Address":"3738 E Thomas Rd","City":"Phoenix","State":"AZ","Zip":"85018"},{"Location":"CAMELBACK MTN SPORTS MED AND R","Address":"4455 E Camelback Rd D155","City":"Phoenix","State":"AZ","Zip":"85018"},{"Location":"CAMELHEAD SQUARE","Address":"3033 N 44th St","City":"Phoenix","State":"AZ","Zip":"85018"},{"Location":"CHELSEA'S KITCHEN","Address":"5040 N 40th St","City":"Phoenix","State":"AZ","Zip":"85018"},{"Location":"CHICAGO HAMBURGER","Address":"3749 E Indian School Rd","City":"Phoenix","State":"AZ","Zip":"85018"},{"Location":"CHURCHILLS FINE CIGARS","Address":"5041 N 44th St","City":"Phoenix","State":"AZ","Zip":"85018"},{"Location":"CUTTIN UP LLC","Address":"4041 E Thomas Rd 104","City":"Phoenix","State":"AZ","Zip":"85018"},{"Location":"DAVITA #657-1C PAPAGO","Address":"5115 E Thomas Rd","City":"Phoenix","State":"AZ","Zip":"85018"},{"Location":"DEVELOPMENT SERVCS OF AMERICA","Address":"5110 N 40th St 236b","City":"Phoenix","State":"AZ","Zip":"85018"},{"Location":"ENDURANCE REHAB","Address":"4440 N 36th St 240","City":"Phoenix","State":"AZ","Zip":"85018"},{"Location":"ENGELMAN HEALTH INSTITUT","Address":"4400 N 32nd St 150","City":"Phoenix","State":"AZ","Zip":"85018"},{"Location":"EURO CLEANERS LLC","Address":"3912 E Camelback Rd","City":"Phoenix","State":"AZ","Zip":"85018"},{"Location":"FAMILY PRACTICE SPECIALIST","Address":"4350 E Camelback Rd","City":"Phoenix","State":"AZ","Zip":"85018"},{"Location":"FIESTA THOMAS RD LLC","Address":"4601 E Thomas Rd","City":"Phoenix","State":"AZ","Zip":"85018"},{"Location":"FIRESTONE #013315","Address":"3638 E Thomas Rd","City":"Phoenix","State":"AZ","Zip":"85018"},{"Location":"FIT TO FLY LLC","Address":"3921 E Indian School Rd","City":"Phoenix","State":"AZ","Zip":"85018"},{"Location":"FOX RESTAURANT  CONCEPTS","Address":"4455 E Camelback Rd B","City":"Phoenix","State":"AZ","Zip":"85018"},{"Location":"FRC 40TH","Address":"4925 N 40th St","City":"Phoenix","State":"AZ","Zip":"85018"},{"Location":"FUSION WEALTH MANAGEMENT","Address":"4040 E Camelback Rd 215","City":"Phoenix","State":"AZ","Zip":"85018"},{"Location":"GLASS FINANCIAL","Address":"4455 E Camelback Rd 260d","City":"Phoenix","State":"AZ","Zip":"85018"},{"Location":"GRAYHAWK CAPITOL","Address":"5050 N 40th St 380","City":"Phoenix","State":"AZ","Zip":"85018"},{"Location":"GRIND ARCADIA","Address":"3961 E Camelback Rd","City":"Phoenix","State":"AZ","Zip":"85018"},{"Location":"HATTON CONSULTING","Address":"5090 N 40th St 160","City":"Phoenix","State":"AZ","Zip":"85018"},{"Location":"HAZELWOOD'S 1ST PLACE","Address":"3626 E Indian School Rd","City":"Phoenix","State":"AZ","Zip":"85018"},{"Location":"HIDEAWAY LOUNGE","Address":"3215 E Thomas Rd","City":"Phoenix","State":"AZ","Zip":"85018"},{"Location":"HIGHLAND  CAPITAL","Address":"4645 N 32nd St 100a","City":"Phoenix","State":"AZ","Zip":"85018"},{"Location":"IMC KITCHEN LLC","Address":"4247 E Indian School Rd 2","City":"Phoenix","State":"AZ","Zip":"85018"},{"Location":"JEG-FIT 40TH & THOMAS LLC","Address":"3975 E Thomas Rd","City":"Phoenix","State":"AZ","Zip":"85018"},{"Location":"JIFFY LUBE #2085","Address":"2921 N 32nd St","City":"Phoenix","State":"AZ","Zip":"85018"},{"Location":"JOHN DRISCOLL & CO","Address":"5080 N 40th St","City":"Phoenix","State":"AZ","Zip":"85018"},{"Location":"JT'S BAR & GRILL","Address":"4829 E Indian School Rd","City":"Phoenix","State":"AZ","Zip":"85018"},{"Location":"KITCHEN 56","Address":"3433 N 56th St","City":"Phoenix","State":"AZ","Zip":"85018"},{"Location":"LA GRANDE ORANGE GROCERY","Address":"4410 N 40th St","City":"Phoenix","State":"AZ","Zip":"85018"},{"Location":"LEE & ASSOCIATES AZ","Address":"3200 E Camelback Rd 100","City":"Phoenix","State":"AZ","Zip":"85018"},{"Location":"LEE HECHT HARRISON","Address":"4343 E Camelback Rd 100","City":"Phoenix","State":"AZ","Zip":"85018"},{"Location":"LITTLE SHANGHAI CHINESE","Address":"4017 E Indian School Rd","City":"Phoenix","State":"AZ","Zip":"85018"},{"Location":"M 3 COMPANIES","Address":"4222 E Camelback Rd 100h","City":"Phoenix","State":"AZ","Zip":"85018"},{"Location":"MILAGRO GRILL","Address":"4280 E Indian School Rd 101","City":"Phoenix","State":"AZ","Zip":"85018"},{"Location":"MILLER RUSSELL & ASSOC","Address":"3200 E Camelback Rd 300","City":"Phoenix","State":"AZ","Zip":"85018"},{"Location":"NEWTONS FITNESS","Address":"3243 E Indian School Rd 101","City":"Phoenix","State":"AZ","Zip":"85018"},{"Location":"NORTH STAR  RESOURCE  GROUP","Address":"4645 N 32nd St 200","City":"Phoenix","State":"AZ","Zip":"85018"},{"Location":"ONE SOURCE EMPLOYER SERV","Address":"3033 N 44th St 360","City":"Phoenix","State":"AZ","Zip":"85018"},{"Location":"PALMAIRE FOODS LLC","Address":"3717 E Indian School Rd","City":"Phoenix","State":"AZ","Zip":"85018"},{"Location":"PAULENE NAILS","Address":"3637 E Indian School Rd","City":"Phoenix","State":"AZ","Zip":"85018"},{"Location":"PERFORMANCE CAPITAL LLC","Address":"3801 E Indian School Rd","City":"Phoenix","State":"AZ","Zip":"85018"},{"Location":"PETER PIPPER PIZZA #006","Address":"3945 E Thomas Rd","City":"Phoenix","State":"AZ","Zip":"85018"},{"Location":"PHOENIX NEUROLOGICAL CENTER","Address":"5090 N 40th St","City":"Phoenix","State":"AZ","Zip":"85018"},{"Location":"PIZZA HUT","Address":"3602 E Thomas Rd","City":"Phoenix","State":"AZ","Zip":"85018"},{"Location":"POSTINO ARCADIA","Address":"3939 E Campbell Ave","City":"Phoenix","State":"AZ","Zip":"85018"},{"Location":"REGENCY HOUSE","Address":"3200 E Glenrosa Ave","City":"Phoenix","State":"AZ","Zip":"85018"},{"Location":"RESOURCE ARIZONA","Address":"4140 N 44th St","City":"Phoenix","State":"AZ","Zip":"85018"},{"Location":"RESTAURANT COLLECTION LLC","Address":"3205 E Camelback Rd","City":"Phoenix","State":"AZ","Zip":"85018"},{"Location":"ROMULUS RESTAURANTS","Address":"4131 N 36th St","City":"Phoenix","State":"AZ","Zip":"85018"},{"Location":"SA BI MODERN THAI","Address":"4121 E Thomas Rd","City":"Phoenix","State":"AZ","Zip":"85018"},{"Location":"SAFEWAY 2716","Address":"4750 E Indian School Rd","City":"Phoenix","State":"AZ","Zip":"85018"},{"Location":"SCHMITT JEWELERS","Address":"4402 E Camelback Rd","City":"Phoenix","State":"AZ","Zip":"85018"},{"Location":"SLICE OF SICILY","Address":"3724 E. Indian School Rd.","City":"Phoenix","State":"AZ","Zip":"85018"},{"Location":"SLICE OF SICILY","Address":"3724 E Indian School Rd","City":"Phoenix","State":"AZ","Zip":"85018"},{"Location":"SPENGLER MANOR CONDOS","Address":"5525 E Thomas Rd","City":"Phoenix","State":"AZ","Zip":"85018"},{"Location":"SPERRY VAN NESS","Address":"3200 E Camelback Rd 280","City":"Phoenix","State":"AZ","Zip":"85018"},{"Location":"STAND'S EDGE","Address":"3912 E Camelback Rd","City":"Phoenix","State":"AZ","Zip":"85018"},{"Location":"STEAK 44","Address":"5101 N 44th St","City":"Phoenix","State":"AZ","Zip":"85018"},{"Location":"STREETS OF NEW YORK #9","Address":"5031 N 44th St","City":"Phoenix","State":"AZ","Zip":"85018"},{"Location":"STRENGTH TRAINING INC","Address":"4840 E Indian School Rd 103","City":"Phoenix","State":"AZ","Zip":"85018"},{"Location":"SUGAR 44 CABERET","Address":"4420 E Thomas Rd","City":"Phoenix","State":"AZ","Zip":"85018"},{"Location":"SUMMIT BUILDERS","Address":"3333 E Camelback Rd 122","City":"Phoenix","State":"AZ","Zip":"85018"},{"Location":"TARBELL'S RESTAURANT","Address":"3213 E Camelback Rd","City":"Phoenix","State":"AZ","Zip":"85018"},{"Location":"TEAM SELECT HOME CARE","Address":"2999 N 44th St 100","City":"Phoenix","State":"AZ","Zip":"85018"},{"Location":"TEE PEE","Address":"4144 E Indian School Rd","City":"Phoenix","State":"AZ","Zip":"85018"},{"Location":"THE HENRY","Address":"4455 E Camelback Rd B","City":"Phoenix","State":"AZ","Zip":"85018"},{"Location":"THE LITTLE WOODY","Address":"4228 E Indian School Rd","City":"Phoenix","State":"AZ","Zip":"85018"},{"Location":"THE VIG","Address":"4041 N 40th St","City":"Phoenix","State":"AZ","Zip":"85018"},{"Location":"TULLY HOLLAND- INT DBA","Address":"4140 N 44th St 103","City":"Phoenix","State":"AZ","Zip":"85018"},{"Location":"V'S BARBER SHOP","Address":"4801 E Indian School Rd 3","City":"Phoenix","State":"AZ","Zip":"85018"},{"Location":"VERDE INVESTMENTS INC","Address":"4020 E Indian School Rd A","City":"Phoenix","State":"AZ","Zip":"85018"},{"Location":"WADDELL & REED","Address":"4417 N 40th St 200","City":"Phoenix","State":"AZ","Zip":"85018"},{"Location":"WAGON MANAGEMENT LLC","Address":"5060 N 40th St 200","City":"Phoenix","State":"AZ","Zip":"85018"},{"Location":"WALLYS AMERICAN PUB N","Address":"5029 N 44th St","City":"Phoenix","State":"AZ","Zip":"85018"},{"Location":"WINGSTOP","Address":"4041 E Thomas Rd 115a","City":"Phoenix","State":"AZ","Zip":"85018"},{"Location":"WR WILLIAMS FINE JEWELRY","Address":"4730 E Indian School Rd 115","City":"Phoenix","State":"AZ","Zip":"85018"},{"Location":"ZIPPS SPORT GRILL","Address":"3647 E Indian School Rd","City":"Phoenix","State":"AZ","Zip":"85018"},{"Location":"ACIES LLC","Address":"5050 N 40th St","City":"Phoenix","State":"AZ","Zip":"85018"},{"Location":"APOLLO LAWN SERVICE","Address":"4824 N 35th St","City":"Phoenix","State":"AZ","Zip":"85018"},{"Location":"ARCADIA BARBER SHOP","Address":"3635 E Indian School Rd","City":"Phoenix","State":"AZ","Zip":"85018"},{"Location":"ARCADIA CANAL ASSOCIATES","Address":"4148 N Arcadia Dr","City":"Phoenix","State":"AZ","Zip":"85018"},{"Location":"ARCADIA D&DLLC","Address":"4115 N 44th St","City":"Phoenix","State":"AZ","Zip":"85018"},{"Location":"ARCADIA MODERN DENTISTRY #204","Address":"4310 E Indian School Rd","City":"Phoenix","State":"AZ","Zip":"85018"},{"Location":"ARCADIA PREMIUM","Address":"5618 E Thomas Rd 100","City":"Phoenix","State":"AZ","Zip":"85018"},{"Location":"ARCADIA SMILES DENTISTRY","Address":"4203 E Indian School Rd 220","City":"Phoenix","State":"AZ","Zip":"85018"},{"Location":"ARCADIA TAVERN","Address":"4801 E Indian School Rd","City":"Phoenix","State":"AZ","Zip":"85018"},{"Location":"ARIZONA COUNTRY CLUB","Address":"5668 E Orange Blossom Ln","City":"Phoenix","State":"AZ","Zip":"85018"},{"Location":"ATHLETICUTS","Address":"4280 E Indian School Rd 105","City":"Phoenix","State":"AZ","Zip":"85018"},{"Location":"AZ1 SMOKE SHOP","Address":"4617 E Thomas Rd","City":"Phoenix","State":"AZ","Zip":"85018"},{"Location":"BD & ASSOCIATES%2C LLC","Address":"5050 N 40th St 205","City":"Phoenix","State":"AZ","Zip":"85018"},{"Location":"BEYOND TRUST","Address":"5090 N 40th St 4thfl","City":"Phoenix","State":"AZ","Zip":"85018"},{"Location":"BILTMORE SHORES","Address":"5420 N 32nd St","City":"Phoenix","State":"AZ","Zip":"85018"},{"Location":"BLDG 5090","Address":"5090 N 40th St","City":"Phoenix","State":"AZ","Zip":"85018"},{"Location":"BRASS RAIL","Address":"3738 E Thomas Rd","City":"Phoenix","State":"AZ","Zip":"85018"},{"Location":"CAMELBACK MTN SPORTS MED AND R","Address":"4455 E Camelback Rd D155","City":"Phoenix","State":"AZ","Zip":"85018"},{"Location":"CAMELHEAD SQUARE","Address":"3033 N 44th St","City":"Phoenix","State":"AZ","Zip":"85018"},{"Location":"CHELSEA'S KITCHEN","Address":"5040 N 40th St","City":"Phoenix","State":"AZ","Zip":"85018"},{"Location":"CHICAGO HAMBURGER","Address":"3749 E Indian School Rd","City":"Phoenix","State":"AZ","Zip":"85018"},{"Location":"CHURCHILLS FINE CIGARS","Address":"5041 N 44th St","City":"Phoenix","State":"AZ","Zip":"85018"},{"Location":"CUTTIN UP LLC","Address":"4041 E Thomas Rd 104","City":"Phoenix","State":"AZ","Zip":"85018"},{"Location":"DAVITA #657-1C PAPAGO","Address":"5115 E Thomas Rd","City":"Phoenix","State":"AZ","Zip":"85018"},{"Location":"DEVELOPMENT SERVCS OF AMERICA","Address":"5110 N 40th St 236b","City":"Phoenix","State":"AZ","Zip":"85018"},{"Location":"ENDURANCE REHAB","Address":"4440 N 36th St 240","City":"Phoenix","State":"AZ","Zip":"85018"},{"Location":"ENGELMAN HEALTH INSTITUT","Address":"4400 N 32nd St 150","City":"Phoenix","State":"AZ","Zip":"85018"},{"Location":"EURO CLEANERS LLC","Address":"3912 E Camelback Rd","City":"Phoenix","State":"AZ","Zip":"85018"},{"Location":"FAMILY PRACTICE SPECIALIST","Address":"4350 E Camelback Rd","City":"Phoenix","State":"AZ","Zip":"85018"},{"Location":"FIESTA THOMAS RD LLC","Address":"4601 E Thomas Rd","City":"Phoenix","State":"AZ","Zip":"85018"},{"Location":"FIRESTONE #013315","Address":"3638 E Thomas Rd","City":"Phoenix","State":"AZ","Zip":"85018"},{"Location":"FIT TO FLY LLC","Address":"3921 E Indian School Rd","City":"Phoenix","State":"AZ","Zip":"85018"},{"Location":"FOX RESTAURANT  CONCEPTS","Address":"4455 E Camelback Rd B","City":"Phoenix","State":"AZ","Zip":"85018"},{"Location":"FRC 40TH","Address":"4925 N 40th St","City":"Phoenix","State":"AZ","Zip":"85018"},{"Location":"FUSION WEALTH MANAGEMENT","Address":"4040 E Camelback Rd 215","City":"Phoenix","State":"AZ","Zip":"85018"},{"Location":"GLASS FINANCIAL","Address":"4455 E Camelback Rd 260d","City":"Phoenix","State":"AZ","Zip":"85018"},{"Location":"GRAYHAWK CAPITOL","Address":"5050 N 40th St 380","City":"Phoenix","State":"AZ","Zip":"85018"},{"Location":"GRIND ARCADIA","Address":"3961 E Camelback Rd","City":"Phoenix","State":"AZ","Zip":"85018"},{"Location":"HATTON CONSULTING","Address":"5090 N 40th St 160","City":"Phoenix","State":"AZ","Zip":"85018"},{"Location":"HAZELWOOD'S 1ST PLACE","Address":"3626 E Indian School Rd","City":"Phoenix","State":"AZ","Zip":"85018"},{"Location":"HIDEAWAY LOUNGE","Address":"3215 E Thomas Rd","City":"Phoenix","State":"AZ","Zip":"85018"},{"Location":"HIGHLAND  CAPITAL","Address":"4645 N 32nd St 100a","City":"Phoenix","State":"AZ","Zip":"85018"},{"Location":"IMC KITCHEN LLC","Address":"4247 E Indian School Rd 2","City":"Phoenix","State":"AZ","Zip":"85018"},{"Location":"JEG-FIT 40TH & THOMAS LLC","Address":"3975 E Thomas Rd","City":"Phoenix","State":"AZ","Zip":"85018"},{"Location":"JIFFY LUBE #2085","Address":"2921 N 32nd St","City":"Phoenix","State":"AZ","Zip":"85018"},{"Location":"JOHN DRISCOLL & CO","Address":"5080 N 40th St","City":"Phoenix","State":"AZ","Zip":"85018"},{"Location":"JT'S BAR & GRILL","Address":"4829 E Indian School Rd","City":"Phoenix","State":"AZ","Zip":"85018"},{"Location":"KITCHEN 56","Address":"3433 N 56th St","City":"Phoenix","State":"AZ","Zip":"85018"},{"Location":"LA GRANDE ORANGE GROCERY","Address":"4410 N 40th St","City":"Phoenix","State":"AZ","Zip":"85018"},{"Location":"LEE & ASSOCIATES AZ","Address":"3200 E Camelback Rd 100","City":"Phoenix","State":"AZ","Zip":"85018"},{"Location":"LEE HECHT HARRISON","Address":"4343 E Camelback Rd 100","City":"Phoenix","State":"AZ","Zip":"85018"},{"Location":"LITTLE SHANGHAI CHINESE","Address":"4017 E Indian School Rd","City":"Phoenix","State":"AZ","Zip":"85018"},{"Location":"M 3 COMPANIES","Address":"4222 E Camelback Rd 100h","City":"Phoenix","State":"AZ","Zip":"85018"},{"Location":"MILAGRO GRILL","Address":"4280 E Indian School Rd 101","City":"Phoenix","State":"AZ","Zip":"85018"},{"Location":"MILLER RUSSELL & ASSOC","Address":"3200 E Camelback Rd 300","City":"Phoenix","State":"AZ","Zip":"85018"},{"Location":"NEWTONS FITNESS","Address":"3243 E Indian School Rd 101","City":"Phoenix","State":"AZ","Zip":"85018"},{"Location":"NORTH STAR  RESOURCE  GROUP","Address":"4645 N 32nd St 200","City":"Phoenix","State":"AZ","Zip":"85018"},{"Location":"ONE SOURCE EMPLOYER SERV","Address":"3033 N 44th St 360","City":"Phoenix","State":"AZ","Zip":"85018"},{"Location":"PALMAIRE FOODS LLC","Address":"3717 E Indian School Rd","City":"Phoenix","State":"AZ","Zip":"85018"},{"Location":"PAULENE NAILS","Address":"3637 E Indian School Rd","City":"Phoenix","State":"AZ","Zip":"85018"},{"Location":"PERFORMANCE CAPITAL LLC","Address":"3801 E Indian School Rd","City":"Phoenix","State":"AZ","Zip":"85018"},{"Location":"PETER PIPPER PIZZA #006","Address":"3945 E Thomas Rd","City":"Phoenix","State":"AZ","Zip":"85018"},{"Location":"PHOENIX NEUROLOGICAL CENTER","Address":"5090 N 40th St","City":"Phoenix","State":"AZ","Zip":"85018"},{"Location":"PIZZA HUT","Address":"3602 E Thomas Rd","City":"Phoenix","State":"AZ","Zip":"85018"},{"Location":"POSTINO ARCADIA","Address":"3939 E Campbell Ave","City":"Phoenix","State":"AZ","Zip":"85018"},{"Location":"REGENCY HOUSE","Address":"3200 E Glenrosa Ave","City":"Phoenix","State":"AZ","Zip":"85018"},{"Location":"RESOURCE ARIZONA","Address":"4140 N 44th St","City":"Phoenix","State":"AZ","Zip":"85018"},{"Location":"RESTAURANT COLLECTION LLC","Address":"3205 E Camelback Rd","City":"Phoenix","State":"AZ","Zip":"85018"},{"Location":"ROMULUS RESTAURANTS","Address":"4131 N 36th St","City":"Phoenix","State":"AZ","Zip":"85018"},{"Location":"SA BI MODERN THAI","Address":"4121 E Thomas Rd","City":"Phoenix","State":"AZ","Zip":"85018"},{"Location":"SAFEWAY 2716","Address":"4750 E Indian School Rd","City":"Phoenix","State":"AZ","Zip":"85018"},{"Location":"SCHMITT JEWELERS","Address":"4402 E Camelback Rd","City":"Phoenix","State":"AZ","Zip":"85018"},{"Location":"SLICE OF SICILY","Address":"3724 E Indian School Rd","City":"Phoenix","State":"AZ","Zip":"85018"},{"Location":"SPENGLER MANOR CONDOS","Address":"5525 E Thomas Rd","City":"Phoenix","State":"AZ","Zip":"85018"},{"Location":"SPERRY VAN NESS","Address":"3200 E Camelback Rd 280","City":"Phoenix","State":"AZ","Zip":"85018"},{"Location":"STAND'S EDGE","Address":"3912 E Camelback Rd","City":"Phoenix","State":"AZ","Zip":"85018"},{"Location":"STEAK 44","Address":"5101 N 44th St","City":"Phoenix","State":"AZ","Zip":"85018"},{"Location":"STREETS OF NEW YORK #9","Address":"5031 N 44th St","City":"Phoenix","State":"AZ","Zip":"85018"},{"Location":"STRENGTH TRAINING INC","Address":"4840 E Indian School Rd 103","City":"Phoenix","State":"AZ","Zip":"85018"},{"Location":"SUGAR 44 CABERET","Address":"4420 E Thomas Rd","City":"Phoenix","State":"AZ","Zip":"85018"},{"Location":"SUMMIT BUILDERS","Address":"3333 E Camelback Rd 122","City":"Phoenix","State":"AZ","Zip":"85018"},{"Location":"TARBELL'S RESTAURANT","Address":"3213 E Camelback Rd","City":"Phoenix","State":"AZ","Zip":"85018"},{"Location":"TEAM SELECT HOME CARE","Address":"2999 N 44th St 100","City":"Phoenix","State":"AZ","Zip":"85018"},{"Location":"TEE PEE","Address":"4144 E Indian School Rd","City":"Phoenix","State":"AZ","Zip":"85018"},{"Location":"THE HENRY","Address":"4455 E Camelback Rd B","City":"Phoenix","State":"AZ","Zip":"85018"},{"Location":"THE LITTLE WOODY","Address":"4228 E Indian School Rd","City":"Phoenix","State":"AZ","Zip":"85018"},{"Location":"THE VIG","Address":"4041 N 40th St","City":"Phoenix","State":"AZ","Zip":"85018"},{"Location":"TULLY HOLLAND- INT DBA","Address":"4140 N 44th St 103","City":"Phoenix","State":"AZ","Zip":"85018"},{"Location":"V'S BARBER SHOP","Address":"4801 E Indian School Rd 3","City":"Phoenix","State":"AZ","Zip":"85018"},{"Location":"VERDE INVESTMENTS INC","Address":"4020 E Indian School Rd A","City":"Phoenix","State":"AZ","Zip":"85018"},{"Location":"WADDELL & REED","Address":"4417 N 40th St 200","City":"Phoenix","State":"AZ","Zip":"85018"},{"Location":"WAGON MANAGEMENT LLC","Address":"5060 N 40th St 200","City":"Phoenix","State":"AZ","Zip":"85018"},{"Location":"WALLYS AMERICAN PUB N","Address":"5029 N 44th St","City":"Phoenix","State":"AZ","Zip":"85018"},{"Location":"WINGSTOP","Address":"4041 E Thomas Rd 115a","City":"Phoenix","State":"AZ","Zip":"85018"},{"Location":"WR WILLIAMS FINE JEWELRY","Address":"4730 E Indian School Rd 115","City":"Phoenix","State":"AZ","Zip":"85018"},{"Location":"ZIPPS SPORT GRILL","Address":"3647 E Indian School Rd","City":"Phoenix","State":"AZ","Zip":"85018"}]