[{"Location":"A & D BARBER SHOP","Address":"914 E Camelback Rd","City":"Phoenix","State":"AZ","Zip":"85014"},{"Location":"ABC NISSAN","Address":"1300 E Camelback Rd","City":"Phoenix","State":"AZ","Zip":"85014"},{"Location":"AGRANDAR  ASSOC","Address":"4323 N 12th St 103","City":"Phoenix","State":"AZ","Zip":"85014"},{"Location":"ALLIANCE INSURANCE","Address":"4611 N 12th St","City":"Phoenix","State":"AZ","Zip":"85014"},{"Location":"ANTHONYS CIGAR PHX","Address":"5565 N 7th St 130","City":"Phoenix","State":"AZ","Zip":"85014"},{"Location":"APOLLOS LOUNGE","Address":"5749 N 7th St","City":"Phoenix","State":"AZ","Zip":"85014"},{"Location":"BILTMORE BARBER SHOP","Address":"1027 E Camelback Rd","City":"Phoenix","State":"AZ","Zip":"85014"},{"Location":"CAMELBACK BMW","Address":"830 East Camelnack Road","City":"Phoenix","State":"AZ","Zip":"85014"},{"Location":"CAMELBACK COLLISION CENTER","Address":"4635 N 7th St","City":"Phoenix","State":"AZ","Zip":"85014"},{"Location":"CAMELBACK FORD LINCOLN","Address":"1330 E Camelback Rd","City":"Phoenix","State":"AZ","Zip":"85014"},{"Location":"CAMELBACK HYUNDAI","Address":"1500 E Camelback Rd","City":"Phoenix","State":"AZ","Zip":"85014"},{"Location":"CAMELBACK KIA","Address":"1450 E Camelback Rd","City":"Phoenix","State":"AZ","Zip":"85014"},{"Location":"CAMELBACK VOLKSWAGEN","Address":"1499 E Camelback Rd","City":"Phoenix","State":"AZ","Zip":"85014"},{"Location":"CAMELBACK VW SUBURU MAZD","Address":"1499 E Camelback Rd","City":"Phoenix","State":"AZ","Zip":"85014"},{"Location":"CHEETAHS GENTLEMENS CLUB","Address":"4125 N 7th St","City":"Phoenix","State":"AZ","Zip":"85014"},{"Location":"CHRISTO'S RISTORANTE","Address":"6327 N 7th St","City":"Phoenix","State":"AZ","Zip":"85014"},{"Location":"CHUTE","Address":"1440 E Indian School Rd","City":"Phoenix","State":"AZ","Zip":"85014"},{"Location":"CITY 15 APARTMENTS","Address":"4728 N 15th St","City":"Phoenix","State":"AZ","Zip":"85014"},{"Location":"CLYDE HARDWARE COMPANY%2C INC","Address":"4808 N 15th St","City":"Phoenix","State":"AZ","Zip":"85014"},{"Location":"COULTER CADILLAC","Address":"1188 E Camelback Rd","City":"Phoenix","State":"AZ","Zip":"85014"},{"Location":"CULINARY DROPOUT","Address":"5632 N 7th St 150","City":"Phoenix","State":"AZ","Zip":"85014"},{"Location":"DENNYS RESTAURANT","Address":"5002 N 7th St","City":"Phoenix","State":"AZ","Zip":"85014"},{"Location":"DESER VIEW PEDIATRICS","Address":"727 E Bethany Home Rd A101","City":"Phoenix","State":"AZ","Zip":"85014"},{"Location":"DESERT SW ANNUAL CONFERENCE","Address":"1550 E Meadowbrook Ave","City":"Phoenix","State":"AZ","Zip":"85014"},{"Location":"EDGE DEVELOPMENT","Address":"4408 N 12th St S200","City":"Phoenix","State":"AZ","Zip":"85014"},{"Location":"ELLEIS NAILS AND SPA","Address":"5515 N 7th St","City":"Phoenix","State":"AZ","Zip":"85014"},{"Location":"FACTS BEHAVIORAL HEALTH","Address":"1001 E Fairmount Ave","City":"Phoenix","State":"AZ","Zip":"85014"},{"Location":"FEENEYS RESTAURANT","Address":"6314 N 12th St","City":"Phoenix","State":"AZ","Zip":"85014"},{"Location":"FIVE SAC SELF STORAGE","Address":"1250 E Missouri Ave","City":"Phoenix","State":"AZ","Zip":"85014"},{"Location":"FLIP DUNK SPORTS","Address":"1515 E Bethany Home Rd 160","City":"Phoenix","State":"AZ","Zip":"85014"},{"Location":"FSL OFFICE","Address":"1201 E Thomas Rd","City":"Phoenix","State":"AZ","Zip":"85014"},{"Location":"GADZOOKS ENCHILADAS","Address":"719 E Osborn Rd","City":"Phoenix","State":"AZ","Zip":"85014"},{"Location":"GARAGE WINE & TAP","Address":"1534 E Bethany Home Rd","City":"Phoenix","State":"AZ","Zip":"85014"},{"Location":"GLASGOW M'CAFFREY'S IRISH PUB","Address":"906 E Camelback Rd","City":"Phoenix","State":"AZ","Zip":"85014"},{"Location":"GORILLA CAPITAL","Address":"4517 N 12th St","City":"Phoenix","State":"AZ","Zip":"85014"},{"Location":"HI LITER","Address":"4716 N 12th St","City":"Phoenix","State":"AZ","Zip":"85014"},{"Location":"INFINITY ON CAMELBACK","Address":"1550 E Camelback Rd","City":"Phoenix","State":"AZ","Zip":"85014"},{"Location":"INNER HEALTH CHIRO","Address":"1095 E Indian School Rd 500","City":"Phoenix","State":"AZ","Zip":"85014"},{"Location":"INTEGRATED WEB STRATEGIES","Address":"5330 N 12th St","City":"Phoenix","State":"AZ","Zip":"85014"},{"Location":"JIFFY LUBE #2098","Address":"5040 N 7th St","City":"Phoenix","State":"AZ","Zip":"85014"},{"Location":"JIFFY LUBE #3226","Address":"710 E Indian School Rd","City":"Phoenix","State":"AZ","Zip":"85014"},{"Location":"JOHN TAVERNARO CLU LLC","Address":"4132 N 12th St 1","City":"Phoenix","State":"AZ","Zip":"85014"},{"Location":"JOHNS DELIVERY LLC","Address":"926 E Amelia Ave","City":"Phoenix","State":"AZ","Zip":"85014"},{"Location":"JORDONS MEXICAN FOOD","Address":"6247 N 7th St","City":"Phoenix","State":"AZ","Zip":"85014"},{"Location":"KKFR FM","Address":"4745 N 7th St 410","City":"Phoenix","State":"AZ","Zip":"85014"},{"Location":"LAW OFFICE OF NANCY GREE","Address":"821 E Fern Drive","City":"Phoenix","State":"AZ","Zip":"85014"},{"Location":"LEIBOWITZ SOLO","Address":"5330 N 12th St 200","City":"Phoenix","State":"AZ","Zip":"85014"},{"Location":"LOLAS COFFEE","Address":"5632 N 7th St","City":"Phoenix","State":"AZ","Zip":"85014"},{"Location":"LOOKSMART LIMITED","Address":"3830 N 7th St","City":"Phoenix","State":"AZ","Zip":"85014"},{"Location":"LOS DOS MOLINOS","Address":"1044 E Camelback Rd","City":"Phoenix","State":"AZ","Zip":"85014"},{"Location":"MEB MANAGEMENT SERVICES INC","Address":"1215 E Missouri Ave","City":"Phoenix","State":"AZ","Zip":"85014"},{"Location":"OREILLY AUTO PARTS","Address":"702 E Bethany Home Rd","City":"Phoenix","State":"AZ","Zip":"85014"},{"Location":"PARAGON MORTGAGE","Address":"1130 E Missouri Ave 204","City":"Phoenix","State":"AZ","Zip":"85014"},{"Location":"PHAT CAT HONEY STYLE","Address":"5024 N 7th St","City":"Phoenix","State":"AZ","Zip":"85014"},{"Location":"PHOENIX COUNTRY CLUB ONE","Address":"2901 N 7th St","City":"Phoenix","State":"AZ","Zip":"85014"},{"Location":"PHOENIX PEDIATRICS","Address":"4434 N 12th St","City":"Phoenix","State":"AZ","Zip":"85014"},{"Location":"PLAZMA","Address":"1560 E Osborn Rd","City":"Phoenix","State":"AZ","Zip":"85014"},{"Location":"POMEROY & POMEROY","Address":"3134 N 7th St","City":"Phoenix","State":"AZ","Zip":"85014"},{"Location":"POMEROY'S","Address":"5555 N 7th St 100","City":"Phoenix","State":"AZ","Zip":"85014"},{"Location":"RIVERA LAW GROUP","Address":"1440 E Missouri Ave 115","City":"Phoenix","State":"AZ","Zip":"85014"},{"Location":"ROSCOES ON 7TH CORP.","Address":"4531 N 7th St","City":"Phoenix","State":"AZ","Zip":"85014"},{"Location":"SCOTT'S GENERATIONS DELICATESS","Address":"5555 N 7th St","City":"Phoenix","State":"AZ","Zip":"85014"},{"Location":"SHOWCASE HONDA","Address":"1333 E Camelback Rd","City":"Phoenix","State":"AZ","Zip":"85014"},{"Location":"SIERRA BONITA RESTAURANT","Address":"6933 N 7th St","City":"Phoenix","State":"AZ","Zip":"85014"},{"Location":"SMS FINANCIAL LLC","Address":"6829 N 12th St","City":"Phoenix","State":"AZ","Zip":"85014"},{"Location":"SPINATOS","Address":"5509 N 7th St","City":"Phoenix","State":"AZ","Zip":"85014"},{"Location":"TICOZ","Address":"5114 N 7th St","City":"Phoenix","State":"AZ","Zip":"85014"},{"Location":"TOYOTA CAMELBACK","Address":"1550 E Camelback Rd","City":"Phoenix","State":"AZ","Zip":"85014"},{"Location":"TRUCKING","Address":"5145 N 7th St 227","City":"Phoenix","State":"AZ","Zip":"85014"},{"Location":"UPTOWN SQUARE","Address":"1335 E Thomas Rd","City":"Phoenix","State":"AZ","Zip":"85014"},{"Location":"VENTRAPACIC DEVELOP","Address":"3770 N 7th St 200","City":"Phoenix","State":"AZ","Zip":"85014"},{"Location":"YOU FIT HEALTH-BETHANY","Address":"1515 E Bethany Home Rd 150","City":"Phoenix","State":"AZ","Zip":"85014"},{"Location":"ZIPPS","Address":"1515 E Bethany Home Rd 100","City":"Phoenix","State":"AZ","Zip":"85014"},{"Location":"ZTEJAS- PHOENIX","Address":"1525 E Bethany Home Rd","City":"Phoenix","State":"AZ","Zip":"85014"}]