[{"Location":"ARIZONA PUBLIC SERVICE","Address":"2124 W Cheryl Dr","City":"Phoenix","State":"AZ","Zip":"85021"},{"Location":"ARIZONA PUBLIC SERVICE COMPANY","Address":"2122 W Cheryl Dr","City":"Phoenix","State":"AZ","Zip":"85021"},{"Location":"B'S BARBERSHOP","Address":"7821 N 19th Ave","City":"Phoenix","State":"AZ","Zip":"85021"},{"Location":"BRISKIT'S BBQ","Address":"1961 Dunlap St","City":"Phoenix","State":"AZ","Zip":"85021"},{"Location":"BWC LLC","Address":"1945 W Dunlap Ave Suit","City":"Phoenix","State":"AZ","Zip":"85021"},{"Location":"CARLAND AUTO SALES","Address":"9650 N 19th Ave","City":"Phoenix","State":"AZ","Zip":"85021"},{"Location":"COMFORT STE METRO CNTR","Address":"10210 N 26th Dr","City":"Phoenix","State":"AZ","Zip":"85021"},{"Location":"CONCORDE CAFE","Address":"2222 W Dunlap Ave","City":"Phoenix","State":"AZ","Zip":"85021"},{"Location":"D A V DEPT OF ARIZONA","Address":"34 W Dunlap Ave","City":"Phoenix","State":"AZ","Zip":"85021"},{"Location":"DAVES ON NORTHERN","Address":"2344 W Northern Ave","City":"Phoenix","State":"AZ","Zip":"85021"},{"Location":"DUNKIN DONUTS","Address":"1931 W Northern Ave","City":"Phoenix","State":"AZ","Zip":"85021"},{"Location":"EAGLES","Address":"633 W Hatcher Rd","City":"Phoenix","State":"AZ","Zip":"85021"},{"Location":"EMERGENCY ANIMAL CLINIC","Address":"2260 W Glendale Ave","City":"Phoenix","State":"AZ","Zip":"85021"},{"Location":"FILIBERTOS MEXICAN FOOD1","Address":"1727 W Glendale Ave","City":"Phoenix","State":"AZ","Zip":"85021"},{"Location":"FIRST WATCH","Address":"9645 N Black Canyon Hwy","City":"Phoenix","State":"AZ","Zip":"85021"},{"Location":"FLETCHERS TIRE AND AUTO","Address":"1839 W Dunlap Ave","City":"Phoenix","State":"AZ","Zip":"85021"},{"Location":"FUDDRUCKERS #3023","Address":"8941 N Black Canyon Hwy","City":"Phoenix","State":"AZ","Zip":"85021"},{"Location":"GIANT MANHATTAN PIZZERIA","Address":"10431 N 19th Ave","City":"Phoenix","State":"AZ","Zip":"85021"},{"Location":"GYROS HOUSE","Address":"1810 W Northern Ave","City":"Phoenix","State":"AZ","Zip":"85021"},{"Location":"I P C","Address":"2510 W Dunlap Ave 290","City":"Phoenix","State":"AZ","Zip":"85021"},{"Location":"ITT TECH","Address":"10220 N 25th Ave","City":"Phoenix","State":"AZ","Zip":"85021"},{"Location":"JIFFY LUBE #3354","Address":"91131 N 91st Avenue 85021","City":"Phoenix","State":"AZ","Zip":"85021"},{"Location":"JOES PHILLY STEAK LLC","Address":"8018 N 19th Ave","City":"Phoenix","State":"AZ","Zip":"85021"},{"Location":"LA FITNESS #148","Address":"2200 W Northern Ave","City":"Phoenix","State":"AZ","Zip":"85021"},{"Location":"LAS JICARAS MEXICAN GRILL","Address":"722 W Hatcher Rd","City":"Phoenix","State":"AZ","Zip":"85021"},{"Location":"LIYA BARBERSHOP","Address":"8012 N 19th Ave","City":"Phoenix","State":"AZ","Zip":"85021"},{"Location":"M CELL LLC","Address":"10171 N 19th Ave 9","City":"Phoenix","State":"AZ","Zip":"85021"},{"Location":"MARICOPA INTEGRATED HEALTH SYS","Address":"934 W Hatcher Rd","City":"Phoenix","State":"AZ","Zip":"85021"},{"Location":"MAVERICK SALOON%2CINC.","Address":"9605 N 19th Ave","City":"Phoenix","State":"AZ","Zip":"85021"},{"Location":"MCDONALDS","Address":"1905 W Northern Ave","City":"Phoenix","State":"AZ","Zip":"85021"},{"Location":"MURRAYS COCKTAIL BAR","Address":"1111 W Hatcher Rd","City":"Phoenix","State":"AZ","Zip":"85021"},{"Location":"NATIVE NEW YORKER METRO","Address":"10004 N 26th Dr","City":"Phoenix","State":"AZ","Zip":"85021"},{"Location":"NEXT CARE URGENT CARE","Address":"8101 N 19th Ave A","City":"Phoenix","State":"AZ","Zip":"85021"},{"Location":"O'CONNOR'S PUB","Address":"2601 W Dunlap Ave 7","City":"Phoenix","State":"AZ","Zip":"85021"},{"Location":"OASIS RECOVERY HOUSE","Address":"9645 N 11th Ave 102","City":"Phoenix","State":"AZ","Zip":"85021"},{"Location":"OUTBACK STEAKHOUSE #0324","Address":"9801 N Black Canyon Hwy","City":"Phoenix","State":"AZ","Zip":"85021"},{"Location":"PINNACLE WEST CAPITAL CO 1","Address":"2043 W Cheryl Dr L","City":"Phoenix","State":"AZ","Zip":"85021"},{"Location":"PULICE CONSTRUCTION","Address":"2033 W Mountain View Rd","City":"Phoenix","State":"AZ","Zip":"85021"},{"Location":"QUINT ENTERPRISE","Address":"1939 W Cheryl Dr","City":"Phoenix","State":"AZ","Zip":"85021"},{"Location":"RAFFAELE PIZZA","Address":"7019 N 19th Ave","City":"Phoenix","State":"AZ","Zip":"85021"},{"Location":"SHERATON CRESCENT HOTEL","Address":"2620 W Dunlap Ave","City":"Phoenix","State":"AZ","Zip":"85021"},{"Location":"SONORAN SKY COMMUNITY SERVICES","Address":"9601 N Black Canyon Hwy","City":"Phoenix","State":"AZ","Zip":"85021"},{"Location":"SPRINGHILL SUITES PHOENIX","Address":"9425 N Black Canyon Hwy","City":"Phoenix","State":"AZ","Zip":"85021"},{"Location":"THE HARTFORD","Address":"10010 N 25th Ave","City":"Phoenix","State":"AZ","Zip":"85021"},{"Location":"TP HERITAGE INN OF PHOENIX INC","Address":"9425 N Black Canyon Hwy","City":"Phoenix","State":"AZ","Zip":"85021"},{"Location":"TRADITIONS TRANS LIV","Address":"2429 W Vista Ave","City":"Phoenix","State":"AZ","Zip":"85021"},{"Location":"TROPICAL MASSAGE","Address":"1917 W Glendale Ave 7","City":"Phoenix","State":"AZ","Zip":"85021"},{"Location":"UNCLE TONY'S NEW YORK PIZZA","Address":"7830 N 19th Ave","City":"Phoenix","State":"AZ","Zip":"85021"},{"Location":"UNITED HEALTH CARE","Address":"2222 W Dunlap Ave","City":"Phoenix","State":"AZ","Zip":"85021"},{"Location":"VA THUNDERBIRD CLINIC","Address":"9424 N 25th Ave","City":"Phoenix","State":"AZ","Zip":"85021"},{"Location":"VANGENT","Address":"8900 N 22nd Ave","City":"Phoenix","State":"AZ","Zip":"85021"},{"Location":"VSS SECURITY SERVICES","Address":"1717 W Northern Ave 200","City":"Phoenix","State":"AZ","Zip":"85021"},{"Location":"WESTWOOD TAP & GRILL","Address":"1818 W Glendale Ave","City":"Phoenix","State":"AZ","Zip":"85021"},{"Location":"WORLDWIDE CORPORATE HOUSING LP","Address":"8804 N 23rd Ave","City":"Phoenix","State":"AZ","Zip":"85021"},{"Location":"YOKUS BODY SHOP","Address":"9232 N 9th Ave","City":"Phoenix","State":"AZ","Zip":"85021"}]