[{"Location":"ABOREUESSIS","Address":"3241 E Shea Blvd","City":"Phoenix","State":"AZ","Zip":"85028"},{"Location":"AMBASSADOR INC","Address":"10810 N Tatum Blvd 140","City":"Phoenix","State":"AZ","Zip":"85028"},{"Location":"ASHLEY NAILS & SPA","Address":"10810 N Tatum Blvd 132","City":"Phoenix","State":"AZ","Zip":"85028"},{"Location":"AZ SPRINGS ADULT CARE","Address":"10411 N 42nd St","City":"Phoenix","State":"AZ","Zip":"85028"},{"Location":"BOOTLEGGERS","Address":"3375 E Shea Blvd G","City":"Phoenix","State":"AZ","Zip":"85028"},{"Location":"CORLEONES PART 2","Address":"10637 N Tatum Blvd","City":"Phoenix","State":"AZ","Zip":"85028"},{"Location":"CORPORATE OFFICE CENTERS","Address":"3420 E Shea Blvd 200","City":"Phoenix","State":"AZ","Zip":"85028"},{"Location":"DAVID C GRIEB DDS","Address":"4611 E Shea Blvd","City":"Phoenix","State":"AZ","Zip":"85028"},{"Location":"GYRO HOUSE","Address":"10652 N 32nd St","City":"Phoenix","State":"AZ","Zip":"85028"},{"Location":"HARA","Address":"10842 N 32nd St","City":"Phoenix","State":"AZ","Zip":"85028"},{"Location":"IRON CHEF","Address":"10810 N Tatum Blvd 106","City":"Phoenix","State":"AZ","Zip":"85028"},{"Location":"LA FITNESS #115","Address":"11630 N Tatum Blvd","City":"Phoenix","State":"AZ","Zip":"85028"},{"Location":"LUXXI SALON","Address":"10855 N Tatum Blvd 150","City":"Phoenix","State":"AZ","Zip":"85028"},{"Location":"MCDONALD'S #2531","Address":"10230 N 32nd St","City":"Phoenix","State":"AZ","Zip":"85028"},{"Location":"MEN'S WEARHOUSE #2501","Address":"10810 N Tatum Blvd","City":"Phoenix","State":"AZ","Zip":"85028"},{"Location":"MY BIG FAT GREEK RESTAUR","Address":"10625 N Tatum Blvd","City":"Phoenix","State":"AZ","Zip":"85028"},{"Location":"MY BIG FAT GREEK RESTAURANT 1","Address":"10625 N Tatum Blvd","City":"Phoenix","State":"AZ","Zip":"85028"},{"Location":"MY NAIL SALON","Address":"10855 N Tatum Blvd 120","City":"Phoenix","State":"AZ","Zip":"85028"},{"Location":"PACWEST ENERGY LLC","Address":"12020 N Tatum Blvd","City":"Phoenix","State":"AZ","Zip":"85028"},{"Location":"PAM'S HAIR MECHANIX","Address":"3222 E Shea Blvd 114","City":"Phoenix","State":"AZ","Zip":"85028"},{"Location":"PARADISE VALLEY RETR CLUBHOUSE","Address":"11645 N 25th Pl","City":"Phoenix","State":"AZ","Zip":"85028"},{"Location":"PARADISE VLLY NUTRI SHOP","Address":"10625 N Tatum Blvd D101","City":"Phoenix","State":"AZ","Zip":"85028"},{"Location":"PLAYA BAR II","Address":"3217 E Shea Blvd","City":"Phoenix","State":"AZ","Zip":"85028"},{"Location":"R.C. ACOSTA & ASSOC. CPA","Address":"10930 N Tatum Blvd C-101","City":"Phoenix","State":"AZ","Zip":"85028"},{"Location":"RUSCONI AMERICAN KITCHEN","Address":"10637 N Tatum Blvd 101b","City":"Phoenix","State":"AZ","Zip":"85028"},{"Location":"SALA THAI RESTAURANT","Address":"10880 N 32nd St","City":"Phoenix","State":"AZ","Zip":"85028"},{"Location":"SQUEAKY CLEAN CAR WASH 1","Address":"3240 E Shea Blvd","City":"Phoenix","State":"AZ","Zip":"85028"},{"Location":"ST JOSEPH CATHOLIC CHURCH","Address":"11050 N 38th St","City":"Phoenix","State":"AZ","Zip":"85028"},{"Location":"STEVE BABERSHOP","Address":"12020 N 32nd St","City":"Phoenix","State":"AZ","Zip":"85028"},{"Location":"TRACY B DESIGN","Address":"10832 N 32nd St","City":"Phoenix","State":"AZ","Zip":"85028"},{"Location":"TUMBLEWEED JCG INC","Address":"12014 N 32nd St","City":"Phoenix","State":"AZ","Zip":"85028"},{"Location":"UNCLE SAMS #1","Address":"3217 E Shea Blvd","City":"Phoenix","State":"AZ","Zip":"85028"},{"Location":"VALLEY VIBE LLC","Address":"10810 N Tatum Blvd","City":"Phoenix","State":"AZ","Zip":"85028"},{"Location":"WHOLE FOODS MARKET #22","Address":"10810 N Tatum Blvd","City":"Phoenix","State":"AZ","Zip":"85028"},{"Location":"WINE BAR FRYS 612","Address":"4707 E Shea Blvd","City":"Phoenix","State":"AZ","Zip":"85028"},{"Location":"YOU FIT SHEA","Address":"10630 N 32nd St","City":"Phoenix","State":"AZ","Zip":"85028"},{"Location":"Z'TEJAS","Address":"10625 N Tatum Blvd","City":"Phoenix","State":"AZ","Zip":"85028"},{"Location":"ZOYO NEIGHBORHOOD YOGURT","Address":"4740 E Shea Blvd 106b","City":"Phoenix","State":"AZ","Zip":"85028"},{"Location":"ABOREUESSIS","Address":"3241 E Shea Blvd","City":"Phoenix","State":"AZ","Zip":"85028"},{"Location":"AMBASSADOR INC","Address":"10810 N Tatum Blvd 140","City":"Phoenix","State":"AZ","Zip":"85028"},{"Location":"ASHLEY NAILS & SPA","Address":"10810 N Tatum Blvd 132","City":"Phoenix","State":"AZ","Zip":"85028"},{"Location":"AZ SPRINGS ADULT CARE","Address":"10411 N 42nd St","City":"Phoenix","State":"AZ","Zip":"85028"},{"Location":"BOOTLEGGERS","Address":"3375 E Shea Blvd G","City":"Phoenix","State":"AZ","Zip":"85028"},{"Location":"CORLEONES PART 2","Address":"10637 N Tatum Blvd","City":"Phoenix","State":"AZ","Zip":"85028"},{"Location":"CORPORATE OFFICE CENTERS","Address":"3420 E Shea Blvd 200","City":"Phoenix","State":"AZ","Zip":"85028"},{"Location":"DAVID C GRIEB DDS","Address":"4611 E Shea Blvd","City":"Phoenix","State":"AZ","Zip":"85028"},{"Location":"GYRO HOUSE","Address":"10652 N 32nd St","City":"Phoenix","State":"AZ","Zip":"85028"},{"Location":"HARA","Address":"10842 N 32nd St","City":"Phoenix","State":"AZ","Zip":"85028"},{"Location":"IRON CHEF","Address":"10810 N Tatum Blvd 106","City":"Phoenix","State":"AZ","Zip":"85028"},{"Location":"LA FITNESS #115","Address":"11630 N Tatum Blvd","City":"Phoenix","State":"AZ","Zip":"85028"},{"Location":"LUXXI SALON","Address":"10855 N Tatum Blvd 150","City":"Phoenix","State":"AZ","Zip":"85028"},{"Location":"MCDONALD'S #2531","Address":"10230 N 32nd St","City":"Phoenix","State":"AZ","Zip":"85028"},{"Location":"MEN'S WEARHOUSE #2501","Address":"10810 N Tatum Blvd","City":"Phoenix","State":"AZ","Zip":"85028"},{"Location":"MY BIG FAT GREEK RESTAUR","Address":"10625 N Tatum Blvd","City":"Phoenix","State":"AZ","Zip":"85028"},{"Location":"MY BIG FAT GREEK RESTAURANT 1","Address":"10625 N Tatum Blvd","City":"Phoenix","State":"AZ","Zip":"85028"},{"Location":"MY NAIL SALON","Address":"10855 N Tatum Blvd 120","City":"Phoenix","State":"AZ","Zip":"85028"},{"Location":"PACWEST ENERGY LLC","Address":"12020 N Tatum Blvd","City":"Phoenix","State":"AZ","Zip":"85028"},{"Location":"PAM'S HAIR MECHANIX","Address":"3222 E Shea Blvd 114","City":"Phoenix","State":"AZ","Zip":"85028"},{"Location":"PARADISE VALLEY RETR CLUBHOUSE","Address":"11645 N 25th Pl","City":"Phoenix","State":"AZ","Zip":"85028"},{"Location":"PARADISE VLLY NUTRI SHOP","Address":"10625 N Tatum Blvd D101","City":"Phoenix","State":"AZ","Zip":"85028"},{"Location":"PLAYA BAR II","Address":"3217 E Shea Blvd","City":"Phoenix","State":"AZ","Zip":"85028"},{"Location":"R.C. ACOSTA & ASSOC. CPA","Address":"10930 N Tatum Blvd C-101","City":"Phoenix","State":"AZ","Zip":"85028"},{"Location":"RUSCONI AMERICAN KITCHEN","Address":"10637 N Tatum Blvd 101b","City":"Phoenix","State":"AZ","Zip":"85028"},{"Location":"SALA THAI RESTAURANT","Address":"10880 N 32nd St","City":"Phoenix","State":"AZ","Zip":"85028"},{"Location":"SQUEAKY CLEAN CAR WASH 1","Address":"3240 E Shea Blvd","City":"Phoenix","State":"AZ","Zip":"85028"},{"Location":"ST JOSEPH CATHOLIC CHURCH","Address":"11050 N 38th St","City":"Phoenix","State":"AZ","Zip":"85028"},{"Location":"STEVE BABERSHOP","Address":"12020 N 32nd St","City":"Phoenix","State":"AZ","Zip":"85028"},{"Location":"TRACY B DESIGN","Address":"10832 N 32nd St","City":"Phoenix","State":"AZ","Zip":"85028"},{"Location":"TUMBLEWEED JCG INC","Address":"12014 N 32nd St","City":"Phoenix","State":"AZ","Zip":"85028"},{"Location":"UNCLE SAMS #1","Address":"3217 E Shea Blvd","City":"Phoenix","State":"AZ","Zip":"85028"},{"Location":"VALLEY VIBE LLC","Address":"10810 N Tatum Blvd","City":"Phoenix","State":"AZ","Zip":"85028"},{"Location":"WHOLE FOODS MARKET #22","Address":"10810 N Tatum Blvd","City":"Phoenix","State":"AZ","Zip":"85028"},{"Location":"WINE BAR FRYS 612","Address":"4707 E Shea Blvd","City":"Phoenix","State":"AZ","Zip":"85028"},{"Location":"YOU FIT SHEA","Address":"10630 N 32nd St","City":"Phoenix","State":"AZ","Zip":"85028"},{"Location":"Z'TEJAS","Address":"10625 N Tatum Blvd","City":"Phoenix","State":"AZ","Zip":"85028"},{"Location":"ZOYO NEIGHBORHOOD YOGURT","Address":"4740 E Shea Blvd 106b","City":"Phoenix","State":"AZ","Zip":"85028"}]