[{"Location":"ACE BEST CARE HOME","Address":"2902 W Cactus Rd","City":"Phoenix","State":"AZ","Zip":"85029"},{"Location":"ALL STATE INSURANCE","Address":"12801 N 28th Dr 11","City":"Phoenix","State":"AZ","Zip":"85029"},{"Location":"ANZIOS ITALIAN RESTAURANT","Address":"12418 N 28th Dr","City":"Phoenix","State":"AZ","Zip":"85029"},{"Location":"ASPEN DENTAL #9087","Address":"2827 W Peoria Ave 101","City":"Phoenix","State":"AZ","Zip":"85029"},{"Location":"BEYERS INC","Address":"3313 W Desert Cove Ave","City":"Phoenix","State":"AZ","Zip":"85029"},{"Location":"BROADWAY TOWERS","Address":"12815 N 28th Dr","City":"Phoenix","State":"AZ","Zip":"85029"},{"Location":"BULL SHOOTERS","Address":"3337 W Peoria Ave","City":"Phoenix","State":"AZ","Zip":"85029"},{"Location":"BURGER KING 09","Address":"13635 N 35th Ave","City":"Phoenix","State":"AZ","Zip":"85029"},{"Location":"BURNS INC","Address":"12450 N 35th Ave","City":"Phoenix","State":"AZ","Zip":"85029"},{"Location":"CHRIS HAYES","Address":"11459 N 28th Dr G2045","City":"Phoenix","State":"AZ","Zip":"85029"},{"Location":"CIGARETTE FOR YOU","Address":"4212 W Cactus Rd 1113","City":"Phoenix","State":"AZ","Zip":"85029"},{"Location":"CONCENTRA MEDICAL","Address":"12808 N Black Canyon Hwy","City":"Phoenix","State":"AZ","Zip":"85029"},{"Location":"CROWN HOLDINGS LLC","Address":"2532 W Peoria Ave","City":"Phoenix","State":"AZ","Zip":"85029"},{"Location":"CROWNE PLAZA (0006440)","Address":"2532 W Peoria Ave","City":"Phoenix","State":"AZ","Zip":"85029"},{"Location":"DESSERT   VALLEY   RADIOLOGY","Address":"2225 W Peoria Ave 150","City":"Phoenix","State":"AZ","Zip":"85029"},{"Location":"F O P 2","Address":"12851 N 19th Ave","City":"Phoenix","State":"AZ","Zip":"85029"},{"Location":"FIRESTONE #020389","Address":"2858 W Peoria Ave","City":"Phoenix","State":"AZ","Zip":"85029"},{"Location":"GARCIA'S #1102","Address":"3301 W Peoria Ave","City":"Phoenix","State":"AZ","Zip":"85029"},{"Location":"GAS AND FOODMART","Address":"1902 W Cactus Rd","City":"Phoenix","State":"AZ","Zip":"85029"},{"Location":"GRAND CANYON UNIVERSITY","Address":"2411 W Peoria Ave","City":"Phoenix","State":"AZ","Zip":"85029"},{"Location":"GREAT WALL BUFFET","Address":"10605 N 43rd Ave","City":"Phoenix","State":"AZ","Zip":"85029"},{"Location":"GREATER HOPE CHRISTIAN CHURCH1","Address":"13002 N 33rd Ave","City":"Phoenix","State":"AZ","Zip":"85029"},{"Location":"HACKER ACCOUNTING","Address":"13201 N 35th Ave 3b","City":"Phoenix","State":"AZ","Zip":"85029"},{"Location":"HEITZ","Address":"13615 N 35th Ave 9","City":"Phoenix","State":"AZ","Zip":"85029"},{"Location":"HOMESITE INSURANCE","Address":"10851 N Black Canyon Hwy 3rdfl","City":"Phoenix","State":"AZ","Zip":"85029"},{"Location":"INSURERS ADMINISTRATIVE CORP","Address":"2101 W Peoria Ave 100","City":"Phoenix","State":"AZ","Zip":"85029"},{"Location":"JEG-FIT 35TH AVE & PEORI","Address":"3331 W Peoria Ave 101","City":"Phoenix","State":"AZ","Zip":"85029"},{"Location":"JEWISH VOICE","Address":"10850 N 24th Ave","City":"Phoenix","State":"AZ","Zip":"85029"},{"Location":"JIFFY LUBE #2100","Address":"2745 W Peoria Ave","City":"Phoenix","State":"AZ","Zip":"85029"},{"Location":"MARICOPA WINGS #885","Address":"2815 W Peoria Ave 118","City":"Phoenix","State":"AZ","Zip":"85029"},{"Location":"MASSMUTUAL","Address":"11001 N Black Canyon Hwy","City":"Phoenix","State":"AZ","Zip":"85029"},{"Location":"MATRIX ABSENCE MANAGEMEN","Address":"2421 W Peoria Ave","City":"Phoenix","State":"AZ","Zip":"85029"},{"Location":"MDIG  LTD","Address":"10835 N 25th Ave 240","City":"Phoenix","State":"AZ","Zip":"85029"},{"Location":"ORION HOMES","Address":"12427 N 39th Dr","City":"Phoenix","State":"AZ","Zip":"85029"},{"Location":"ORION HOMES 1","Address":"3902 W Columbine Dr","City":"Phoenix","State":"AZ","Zip":"85029"},{"Location":"PAPPADEAUX SEAFOOD KITCHEN #24","Address":"11051 N Black Canyon Hwy","City":"Phoenix","State":"AZ","Zip":"85029"},{"Location":"PAPPYS SPORTS BAR","Address":"11801 N 19th Ave 1","City":"Phoenix","State":"AZ","Zip":"85029"},{"Location":"PING INC","Address":"2201 W Desert Cv","City":"Phoenix","State":"AZ","Zip":"85029"},{"Location":"PIZZA DIVINO","Address":"3550 W Cactus Rd","City":"Phoenix","State":"AZ","Zip":"85029"},{"Location":"PIZZA HUT","Address":"13624 N 35th Ave","City":"Phoenix","State":"AZ","Zip":"85029"},{"Location":"ROYAL BARBER SHOP","Address":"11837 N 19th Ave","City":"Phoenix","State":"AZ","Zip":"85029"},{"Location":"SILVER CITY RESTORATION","Address":"2255 W Desert Code  #c C","City":"Phoenix","State":"AZ","Zip":"85029"},{"Location":"STACKER","Address":"2855 W Cactus Rd","City":"Phoenix","State":"AZ","Zip":"85029"},{"Location":"WALKERS LIQUORS","Address":"11009 N 19th Ave","City":"Phoenix","State":"AZ","Zip":"85029"}]