[{"Location":"AMERICAN LEGION POST 107","Address":"20001 N Cave Creek Rd","City":"Phoenix","State":"AZ","Zip":"85024"},{"Location":"ANOTHER TIME USED CARS","Address":"2333 E Union Hills Dr","City":"Phoenix","State":"AZ","Zip":"85024"},{"Location":"BBVA 7TH & UNION HILLS","Address":"702 E Union Hills Dr","City":"Phoenix","State":"AZ","Zip":"85024"},{"Location":"BONAVENTURE  MHP","Address":"1941 N 7th St #264","City":"Phoenix","State":"AZ","Zip":"85024"},{"Location":"CANDY STORE","Address":"18613 N Cave Creek Rd","City":"Phoenix","State":"AZ","Zip":"85024"},{"Location":"CLONE CAR CENTER","Address":"1720 E Deer Valley Rd 102","City":"Phoenix","State":"AZ","Zip":"85024"},{"Location":"DALES BODY WORKS LLC","Address":"1727 E Deer Valley Rd","City":"Phoenix","State":"AZ","Zip":"85024"},{"Location":"DOLPHIN POOLS","Address":"20635 N Cave Creek Rd A3","City":"Phoenix","State":"AZ","Zip":"85024"},{"Location":"ELEMENTS OF HAIR LLC","Address":"2103 N Cave Creek Rd 2","City":"Phoenix","State":"AZ","Zip":"85024"},{"Location":"FAMILY PIZZA","Address":"19401 N Cave Creek Rd","City":"Phoenix","State":"AZ","Zip":"85024"},{"Location":"FERGUSON #1144","Address":"22200 N 7th St","City":"Phoenix","State":"AZ","Zip":"85024"},{"Location":"FIRESTONE #012874","Address":"731 E Union Hills Dr 9","City":"Phoenix","State":"AZ","Zip":"85024"},{"Location":"GALLAGER'S","Address":"751 E Union Hills Dr","City":"Phoenix","State":"AZ","Zip":"85024"},{"Location":"MARICOPA COUNTY SHERIFF","Address":"23636 N 7th St","City":"Phoenix","State":"AZ","Zip":"85024"},{"Location":"MODULAR TECHNOLOGY INC","Address":"22425 N 16th St","City":"Phoenix","State":"AZ","Zip":"85024"},{"Location":"MONTAGE ON CAVE CREEK%2C LLC","Address":"20050 N Cave Creek Rd","City":"Phoenix","State":"AZ","Zip":"85024"},{"Location":"ONSITE TEMP HOUSING","Address":"2525 E Misty Willow Ln","City":"Phoenix","State":"AZ","Zip":"85024"},{"Location":"REPUBLIC SERVICES","Address":"1855 E Deer Valley Rd","City":"Phoenix","State":"AZ","Zip":"85024"},{"Location":"RUSTIC CAFE","Address":"20811 N Cave Creek Rd 101","City":"Phoenix","State":"AZ","Zip":"85024"},{"Location":"THE CIGAR LOUNGE","Address":"731 E Union Hills Dr B10","City":"Phoenix","State":"AZ","Zip":"85024"},{"Location":"THE WEDDING ACCESSORIE","Address":"21043 N Cave Creek Rd 8","City":"Phoenix","State":"AZ","Zip":"85024"},{"Location":"TIMES SQUARE","Address":"718 E Union Hills Dr","City":"Phoenix","State":"AZ","Zip":"85024"},{"Location":"TRILLIUM DEER VALLEY","Address":"20425 N 7th St","City":"Phoenix","State":"AZ","Zip":"85024"},{"Location":"TRILLIUM NORTH","Address":"20435 N 7th St","City":"Phoenix","State":"AZ","Zip":"85024"},{"Location":"UPPER CRUST PIZZA","Address":"20235 N Cave Creek Rd","City":"Phoenix","State":"AZ","Zip":"85024"},{"Location":"VIET KITCHEN","Address":"20235 N Cave Creek Rd 108","City":"Phoenix","State":"AZ","Zip":"85024"},{"Location":"WHISPERING PALMS","Address":"19225 N Cave Creek Rd","City":"Phoenix","State":"AZ","Zip":"85024"},{"Location":"AMERICAN LEGION POST 107","Address":"20001 N Cave Creek Rd","City":"Phoenix","State":"AZ","Zip":"85024"},{"Location":"ANOTHER TIME USED CARS","Address":"2333 E Union Hills Dr","City":"Phoenix","State":"AZ","Zip":"85024"},{"Location":"BBVA 7TH & UNION HILLS","Address":"702 E Union Hills Dr","City":"Phoenix","State":"AZ","Zip":"85024"},{"Location":"BONAVENTURE  MHP","Address":"1941 N 7th St #264","City":"Phoenix","State":"AZ","Zip":"85024"},{"Location":"CANDY STORE","Address":"18613 N Cave Creek Rd","City":"Phoenix","State":"AZ","Zip":"85024"},{"Location":"CLONE CAR CENTER","Address":"1720 E Deer Valley Rd 102","City":"Phoenix","State":"AZ","Zip":"85024"},{"Location":"DALES BODY WORKS LLC","Address":"1727 E Deer Valley Rd","City":"Phoenix","State":"AZ","Zip":"85024"},{"Location":"DOLPHIN POOLS","Address":"20635 N Cave Creek Rd A3","City":"Phoenix","State":"AZ","Zip":"85024"},{"Location":"ELEMENTS OF HAIR LLC","Address":"2103 N Cave Creek Rd 2","City":"Phoenix","State":"AZ","Zip":"85024"},{"Location":"FAMILY PIZZA","Address":"19401 N Cave Creek Rd","City":"Phoenix","State":"AZ","Zip":"85024"},{"Location":"FERGUSON #1144","Address":"22200 N 7th St","City":"Phoenix","State":"AZ","Zip":"85024"},{"Location":"FIRESTONE #012874","Address":"731 E Union Hills Dr 9","City":"Phoenix","State":"AZ","Zip":"85024"},{"Location":"GALLAGER'S","Address":"751 E Union Hills Dr","City":"Phoenix","State":"AZ","Zip":"85024"},{"Location":"MARICOPA COUNTY SHERIFF","Address":"23636 N 7th St","City":"Phoenix","State":"AZ","Zip":"85024"},{"Location":"MODULAR TECHNOLOGY INC","Address":"22425 N 16th St","City":"Phoenix","State":"AZ","Zip":"85024"},{"Location":"MONTAGE ON CAVE CREEK%2C LLC","Address":"20050 N Cave Creek Rd","City":"Phoenix","State":"AZ","Zip":"85024"},{"Location":"ONSITE TEMP HOUSING","Address":"2525 E Misty Willow Ln","City":"Phoenix","State":"AZ","Zip":"85024"},{"Location":"REPUBLIC SERVICES","Address":"1855 E Deer Valley Rd","City":"Phoenix","State":"AZ","Zip":"85024"},{"Location":"RUSTIC CAFE","Address":"20811 N Cave Creek Rd 101","City":"Phoenix","State":"AZ","Zip":"85024"},{"Location":"THE CIGAR LOUNGE","Address":"731 E Union Hills Dr B10","City":"Phoenix","State":"AZ","Zip":"85024"},{"Location":"THE WEDDING ACCESSORIE","Address":"21043 N Cave Creek Rd 8","City":"Phoenix","State":"AZ","Zip":"85024"},{"Location":"TIMES SQUARE","Address":"718 E Union Hills Dr","City":"Phoenix","State":"AZ","Zip":"85024"},{"Location":"TRILLIUM DEER VALLEY","Address":"20425 N 7th St","City":"Phoenix","State":"AZ","Zip":"85024"},{"Location":"TRILLIUM NORTH","Address":"20435 N 7th St","City":"Phoenix","State":"AZ","Zip":"85024"},{"Location":"UPPER CRUST PIZZA","Address":"20235 N Cave Creek Rd","City":"Phoenix","State":"AZ","Zip":"85024"},{"Location":"VIET KITCHEN","Address":"20235 N Cave Creek Rd 108","City":"Phoenix","State":"AZ","Zip":"85024"},{"Location":"WHISPERING PALMS","Address":"19225 N Cave Creek Rd","City":"Phoenix","State":"AZ","Zip":"85024"}]