[{"Location":"","Address":"7720 N 16th St 200","City":"Phoenix","State":"AZ","Zip":"85020"},{"Location":"7TH ST SPORTS BAR LLC","Address":"9521 N 7th St","City":"Phoenix","State":"AZ","Zip":"85020"},{"Location":"AMERICAN LEGION POST 75","Address":"10625 N Cave Creek Rd","City":"Phoenix","State":"AZ","Zip":"85020"},{"Location":"AMERICAN VALET","Address":"8902 N Central Ave","City":"Phoenix","State":"AZ","Zip":"85020"},{"Location":"ARIZONA AMERICAN ITALIAN CLUB","Address":"7509 N 12th St","City":"Phoenix","State":"AZ","Zip":"85020"},{"Location":"ASSOCIATED RETINA CONSUL","Address":"1750 E Glendale Ave","City":"Phoenix","State":"AZ","Zip":"85020"},{"Location":"ATHLETICUTS","Address":"742 N Glendale 124","City":"Phoenix","State":"AZ","Zip":"85020"},{"Location":"AUNT CHILADA'S","Address":"7330 N Dreamy Draw Dr","City":"Phoenix","State":"AZ","Zip":"85020"},{"Location":"AZ MEDICAL WEIGHT CONTROL","Address":"8333 N 7th St","City":"Phoenix","State":"AZ","Zip":"85020"},{"Location":"BEYERS INC-DREAMY DRAW","Address":"7320 N Dreamy Draw Dr 150","City":"Phoenix","State":"AZ","Zip":"85020"},{"Location":"BIG DADDY'S","Address":"10618 N Cave Creck Rd","City":"Phoenix","State":"AZ","Zip":"85020"},{"Location":"BLUE MOON SPORTS GRILL","Address":"7811 N 12th St","City":"Phoenix","State":"AZ","Zip":"85020"},{"Location":"BOBBY D'S","Address":"10604 N Cave Creek Rd","City":"Phoenix","State":"AZ","Zip":"85020"},{"Location":"BOBS HAIR SHOP","Address":"8905 N 7th St","City":"Phoenix","State":"AZ","Zip":"85020"},{"Location":"CARDINAL PIZZA","Address":"9226 N 7th St","City":"Phoenix","State":"AZ","Zip":"85020"},{"Location":"CASA LATINA MAMALOLA","Address":"9226 N 7th St B","City":"Phoenix","State":"AZ","Zip":"85020"},{"Location":"CASCADES CAFE","Address":"11111 N 7th St","City":"Phoenix","State":"AZ","Zip":"85020"},{"Location":"CATALINA TERRACES OPASSO","Address":"7878 N 16th St","City":"Phoenix","State":"AZ","Zip":"85020"},{"Location":"CENTRAL CAR CARE","Address":"301 E Dunlap Ave","City":"Phoenix","State":"AZ","Zip":"85020"},{"Location":"CONEXCION CHIAPANECA","Address":"9241 N 6th St 3","City":"Phoenix","State":"AZ","Zip":"85020"},{"Location":"DE LA TORRE","Address":"9230 N 7th St","City":"Phoenix","State":"AZ","Zip":"85020"},{"Location":"DESERT INSTITUTE FOR SPINE CAR","Address":"1635 E Myrtle Ave","City":"Phoenix","State":"AZ","Zip":"85020"},{"Location":"DIFFERENT POINTE OF VIEW","Address":"11111 N 7th St","City":"Phoenix","State":"AZ","Zip":"85020"},{"Location":"DODEY'S","Address":"7051 N 7th St","City":"Phoenix","State":"AZ","Zip":"85020"},{"Location":"EQUITY LIFESTYLE PROP.","Address":"7310 N 16th St 300","City":"Phoenix","State":"AZ","Zip":"85020"},{"Location":"ERIC EISWERTH","Address":"9241 N 6th St","City":"Phoenix","State":"AZ","Zip":"85020"},{"Location":"FOOTHILLS SPORT MED","Address":"539 East Glendal Ave","City":"Phoenix","State":"AZ","Zip":"85020"},{"Location":"GALLAGHER'S BAR-Q","Address":"7575 N 16th St","City":"Phoenix","State":"AZ","Zip":"85020"},{"Location":"GREEKTOWN","Address":"8519 N 7th St","City":"Phoenix","State":"AZ","Zip":"85020"},{"Location":"HILTON WORLDWIDE POINTE HILTON","Address":"11111 N 7th St","City":"Phoenix","State":"AZ","Zip":"85020"},{"Location":"JIFFY LUBE #2088","Address":"1202 E Northern Ave","City":"Phoenix","State":"AZ","Zip":"85020"},{"Location":"JOHN LEO MARTY ESTATE","Address":"1142 E Desert Cove Ave","City":"Phoenix","State":"AZ","Zip":"85020"},{"Location":"JOINT EFFORT SPINE REHAB","Address":"9225 N 3rd St 102","City":"Phoenix","State":"AZ","Zip":"85020"},{"Location":"JONATHAN HOTT MD","Address":"9225 N 3rd St 100","City":"Phoenix","State":"AZ","Zip":"85020"},{"Location":"KNOBBYS LOUNGE","Address":"10812 N Cave Creek Rd","City":"Phoenix","State":"AZ","Zip":"85020"},{"Location":"LA CONTINA POINTE TOPATIO","Address":"11111 N 7th St","City":"Phoenix","State":"AZ","Zip":"85020"},{"Location":"LARRY BETTS CPA","Address":"7220 N 16th St F","City":"Phoenix","State":"AZ","Zip":"85020"},{"Location":"LOBBY BAR %40POINTE TAPATIO","Address":"11111 N 7th St","City":"Phoenix","State":"AZ","Zip":"85020"},{"Location":"MORNING STAR SANCTIFED CHURCH","Address":"9237 N 5th St","City":"Phoenix","State":"AZ","Zip":"85020"},{"Location":"MOTORCYCLE RADIO GARAGE","Address":"10846 N Cave Creek Rd","City":"Phoenix","State":"AZ","Zip":"85020"},{"Location":"MULTI SYSTEMS INC","Address":"7600 N 15th St 250","City":"Phoenix","State":"AZ","Zip":"85020"},{"Location":"NORTH CENTRAL SPORTS BAR","Address":"1170 E Northern Ave","City":"Phoenix","State":"AZ","Zip":"85020"},{"Location":"NORTH MOUNTAIN BREWING","Address":"522 E Dunlap Ave","City":"Phoenix","State":"AZ","Zip":"85020"},{"Location":"OM RADIATOR","Address":"10045 N 12th St","City":"Phoenix","State":"AZ","Zip":"85020"},{"Location":"OPZ","Address":"1608 E Butler Dr","City":"Phoenix","State":"AZ","Zip":"85020"},{"Location":"PARIENTES AUTO BODY","Address":"9880 N Cave Creek Rd","City":"Phoenix","State":"AZ","Zip":"85020"},{"Location":"PHOENIX PARKS DEPT REC CTR","Address":"802 E Vogel Ave","City":"Phoenix","State":"AZ","Zip":"85020"},{"Location":"PIZZA RE","Address":"8925 N 12th St","City":"Phoenix","State":"AZ","Zip":"85020"},{"Location":"POINTE HILTON (0053371)","Address":"7677 N 16th St","City":"Phoenix","State":"AZ","Zip":"85020"},{"Location":"POINTE IN TYME","Address":"11111 N 7th St","City":"Phoenix","State":"AZ","Zip":"85020"},{"Location":"PUFF PUFF SMOKE SHOP","Address":"8518 N 7th St","City":"Phoenix","State":"AZ","Zip":"85020"},{"Location":"RED THAI","Address":"7822 N 12th St","City":"Phoenix","State":"AZ","Zip":"85020"},{"Location":"REIGH OF THAI","Address":"12032 N Cave Creek Rd","City":"Phoenix","State":"AZ","Zip":"85020"},{"Location":"RICCO'S RESTAURANT AND BAR","Address":"7677 N 16th St","City":"Phoenix","State":"AZ","Zip":"85020"},{"Location":"RUM RUNNER'S BAR","Address":"8355 N 7th St","City":"Phoenix","State":"AZ","Zip":"85020"},{"Location":"SALVADORENO #3","Address":"8911 N Central Ave 101","City":"Phoenix","State":"AZ","Zip":"85020"},{"Location":"SANTOS LUCHA LIBRE TACO","Address":"9822 N 7th St 7","City":"Phoenix","State":"AZ","Zip":"85020"},{"Location":"SAUCE PIZZA AND WINE","Address":"742 E Glendale Ave 2126","City":"Phoenix","State":"AZ","Zip":"85020"},{"Location":"SUNSET BOWL","Address":"8925 N 12th St","City":"Phoenix","State":"AZ","Zip":"85020"},{"Location":"THE SPOKE & WHEEL","Address":"8525 N Central Ave","City":"Phoenix","State":"AZ","Zip":"85020"},{"Location":"VIA DELOS SANTOS","Address":"9120 N Central Ave","City":"Phoenix","State":"AZ","Zip":"85020"},{"Location":"ZOYO NEIGHBORHOOD YOGURT","Address":"1139 E Glendale Ave","City":"Phoenix","State":"AZ","Zip":"85020"},{"Location":"","Address":"7720 N 16th St 200","City":"Phoenix","State":"AZ","Zip":"85020"},{"Location":"7TH ST SPORTS BAR LLC","Address":"9521 N 7th St","City":"Phoenix","State":"AZ","Zip":"85020"},{"Location":"AMERICAN LEGION POST 75","Address":"10625 N Cave Creek Rd","City":"Phoenix","State":"AZ","Zip":"85020"},{"Location":"AMERICAN VALET","Address":"8902 N Central Ave","City":"Phoenix","State":"AZ","Zip":"85020"},{"Location":"ARIZONA AMERICAN ITALIAN CLUB","Address":"7509 N 12th St","City":"Phoenix","State":"AZ","Zip":"85020"},{"Location":"ASSOCIATED RETINA CONSUL","Address":"1750 E Glendale Ave","City":"Phoenix","State":"AZ","Zip":"85020"},{"Location":"ATHLETICUTS","Address":"742 N Glendale 124","City":"Phoenix","State":"AZ","Zip":"85020"},{"Location":"AUNT CHILADA'S","Address":"7330 N Dreamy Draw Dr","City":"Phoenix","State":"AZ","Zip":"85020"},{"Location":"AZ MEDICAL WEIGHT CONTROL","Address":"8333 N 7th St","City":"Phoenix","State":"AZ","Zip":"85020"},{"Location":"BEYERS INC-DREAMY DRAW","Address":"7320 N Dreamy Draw Dr 150","City":"Phoenix","State":"AZ","Zip":"85020"},{"Location":"BIG DADDY'S","Address":"10618 N Cave Creck Rd","City":"Phoenix","State":"AZ","Zip":"85020"},{"Location":"BLUE MOON SPORTS GRILL","Address":"7811 N 12th St","City":"Phoenix","State":"AZ","Zip":"85020"},{"Location":"BOBBY D'S","Address":"10604 N Cave Creek Rd","City":"Phoenix","State":"AZ","Zip":"85020"},{"Location":"BOBS HAIR SHOP","Address":"8905 N 7th St","City":"Phoenix","State":"AZ","Zip":"85020"},{"Location":"CARDINAL PIZZA","Address":"9226 N 7th St","City":"Phoenix","State":"AZ","Zip":"85020"},{"Location":"CASA LATINA MAMALOLA","Address":"9226 N 7th St B","City":"Phoenix","State":"AZ","Zip":"85020"},{"Location":"CASCADES CAFE","Address":"11111 N 7th St","City":"Phoenix","State":"AZ","Zip":"85020"},{"Location":"CATALINA TERRACES OPASSO","Address":"7878 N 16th St","City":"Phoenix","State":"AZ","Zip":"85020"},{"Location":"CENTRAL CAR CARE","Address":"301 E Dunlap Ave","City":"Phoenix","State":"AZ","Zip":"85020"},{"Location":"CONEXCION CHIAPANECA","Address":"9241 N 6th St 3","City":"Phoenix","State":"AZ","Zip":"85020"},{"Location":"DE LA TORRE","Address":"9230 N 7th St","City":"Phoenix","State":"AZ","Zip":"85020"},{"Location":"DESERT INSTITUTE FOR SPINE CAR","Address":"1635 E Myrtle Ave","City":"Phoenix","State":"AZ","Zip":"85020"},{"Location":"DIFFERENT POINTE OF VIEW","Address":"11111 N 7th St","City":"Phoenix","State":"AZ","Zip":"85020"},{"Location":"DODEY'S","Address":"7051 N 7th St","City":"Phoenix","State":"AZ","Zip":"85020"},{"Location":"EQUITY LIFESTYLE PROP.","Address":"7310 N 16th St 300","City":"Phoenix","State":"AZ","Zip":"85020"},{"Location":"ERIC EISWERTH","Address":"9241 N 6th St","City":"Phoenix","State":"AZ","Zip":"85020"},{"Location":"FOOTHILLS SPORT MED","Address":"539 East Glendal Ave","City":"Phoenix","State":"AZ","Zip":"85020"},{"Location":"GALLAGHER'S BAR-Q","Address":"7575 N 16th St","City":"Phoenix","State":"AZ","Zip":"85020"},{"Location":"GREEKTOWN","Address":"8519 N 7th St","City":"Phoenix","State":"AZ","Zip":"85020"},{"Location":"HILTON WORLDWIDE POINTE HILTON","Address":"11111 N 7th St","City":"Phoenix","State":"AZ","Zip":"85020"},{"Location":"JIFFY LUBE #2088","Address":"1202 E Northern Ave","City":"Phoenix","State":"AZ","Zip":"85020"},{"Location":"JOHN LEO MARTY ESTATE","Address":"1142 E Desert Cove Ave","City":"Phoenix","State":"AZ","Zip":"85020"},{"Location":"JOINT EFFORT SPINE REHAB","Address":"9225 N 3rd St 102","City":"Phoenix","State":"AZ","Zip":"85020"},{"Location":"JONATHAN HOTT MD","Address":"9225 N 3rd St 100","City":"Phoenix","State":"AZ","Zip":"85020"},{"Location":"KNOBBYS LOUNGE","Address":"10812 N Cave Creek Rd","City":"Phoenix","State":"AZ","Zip":"85020"},{"Location":"LA CONTINA POINTE TOPATIO","Address":"11111 N 7th St","City":"Phoenix","State":"AZ","Zip":"85020"},{"Location":"LARRY BETTS CPA","Address":"7220 N 16th St F","City":"Phoenix","State":"AZ","Zip":"85020"},{"Location":"LOBBY BAR %40POINTE TAPATIO","Address":"11111 N 7th St","City":"Phoenix","State":"AZ","Zip":"85020"},{"Location":"MORNING STAR SANCTIFED CHURCH","Address":"9237 N 5th St","City":"Phoenix","State":"AZ","Zip":"85020"},{"Location":"MOTORCYCLE RADIO GARAGE","Address":"10846 N Cave Creek Rd","City":"Phoenix","State":"AZ","Zip":"85020"},{"Location":"MULTI SYSTEMS INC","Address":"7600 N 15th St 250","City":"Phoenix","State":"AZ","Zip":"85020"},{"Location":"NORTH CENTRAL SPORTS BAR","Address":"1170 E Northern Ave","City":"Phoenix","State":"AZ","Zip":"85020"},{"Location":"NORTH MOUNTAIN BREWING","Address":"522 E Dunlap Ave","City":"Phoenix","State":"AZ","Zip":"85020"},{"Location":"OM RADIATOR","Address":"10045 N 12th St","City":"Phoenix","State":"AZ","Zip":"85020"},{"Location":"OPZ","Address":"1608 E Butler Dr","City":"Phoenix","State":"AZ","Zip":"85020"},{"Location":"PARIENTES AUTO BODY","Address":"9880 N Cave Creek Rd","City":"Phoenix","State":"AZ","Zip":"85020"},{"Location":"PHOENIX PARKS DEPT REC CTR","Address":"802 E Vogel Ave","City":"Phoenix","State":"AZ","Zip":"85020"},{"Location":"PIZZA RE","Address":"8925 N 12th St","City":"Phoenix","State":"AZ","Zip":"85020"},{"Location":"POINTE HILTON (0053371)","Address":"7677 N 16th St","City":"Phoenix","State":"AZ","Zip":"85020"},{"Location":"POINTE IN TYME","Address":"11111 N 7th St","City":"Phoenix","State":"AZ","Zip":"85020"},{"Location":"PUFF PUFF SMOKE SHOP","Address":"8518 N 7th St","City":"Phoenix","State":"AZ","Zip":"85020"},{"Location":"RED THAI","Address":"7822 N 12th St","City":"Phoenix","State":"AZ","Zip":"85020"},{"Location":"REIGH OF THAI","Address":"12032 N Cave Creek Rd","City":"Phoenix","State":"AZ","Zip":"85020"},{"Location":"RICCO'S RESTAURANT AND BAR","Address":"7677 N 16th St","City":"Phoenix","State":"AZ","Zip":"85020"},{"Location":"RUM RUNNER'S BAR","Address":"8355 N 7th St","City":"Phoenix","State":"AZ","Zip":"85020"},{"Location":"SALVADORENO #3","Address":"8911 N Central Ave 101","City":"Phoenix","State":"AZ","Zip":"85020"},{"Location":"SANTOS LUCHA LIBRE TACO","Address":"9822 N 7th St 7","City":"Phoenix","State":"AZ","Zip":"85020"},{"Location":"SAUCE PIZZA AND WINE","Address":"742 E Glendale Ave 2126","City":"Phoenix","State":"AZ","Zip":"85020"},{"Location":"SUNSET BOWL","Address":"8925 N 12th St","City":"Phoenix","State":"AZ","Zip":"85020"},{"Location":"THE SPOKE & WHEEL","Address":"8525 N Central Ave","City":"Phoenix","State":"AZ","Zip":"85020"},{"Location":"VIA DELOS SANTOS","Address":"9120 N Central Ave","City":"Phoenix","State":"AZ","Zip":"85020"},{"Location":"ZOYO NEIGHBORHOOD YOGURT","Address":"1139 E Glendale Ave","City":"Phoenix","State":"AZ","Zip":"85020"}]