[{"Location":"2ND HOME PET RESORT","Address":"747 E Thunderbird Rd","City":"Phoenix","State":"AZ","Zip":"85022"},{"Location":"6023588784","Address":"18440 N 7th St","City":"Phoenix","State":"AZ","Zip":"85022"},{"Location":"AIELLO SALUNERIA","Address":"777 E Thunderbird Rd 100","City":"Phoenix","State":"AZ","Zip":"85022"},{"Location":"BALAZS","Address":"13256 N 13th St","City":"Phoenix","State":"AZ","Zip":"85022"},{"Location":"BARROS PIZZA #3","Address":"15440 N 7th St 13","City":"Phoenix","State":"AZ","Zip":"85022"},{"Location":"BPL PLASMA INC PHOENIX","Address":"2320 E Bell Rd","City":"Phoenix","State":"AZ","Zip":"85022"},{"Location":"BROIL LLC","Address":"777 E Thunderbird Rd 107","City":"Phoenix","State":"AZ","Zip":"85022"},{"Location":"CAMBELLS CARWASH","Address":"2150 E Sweetwater Ave","City":"Phoenix","State":"AZ","Zip":"85022"},{"Location":"CAREMORE HEALTHPLAN OF ARIZONA","Address":"750 E Thunderbird Rd","City":"Phoenix","State":"AZ","Zip":"85022"},{"Location":"CCS MESQUITE BOILER","Address":"12235 N Cave Creek Rd","City":"Phoenix","State":"AZ","Zip":"85022"},{"Location":"CHILI'S #0088","Address":"513 E Bell Rd","City":"Phoenix","State":"AZ","Zip":"85022"},{"Location":"CLA TODAY","Address":"12601 N Cave Creek Rd 107","City":"Phoenix","State":"AZ","Zip":"85022"},{"Location":"CLASSIC CRUST PIZZA%2C LLC","Address":"12231 N Cave Creek Rd 120","City":"Phoenix","State":"AZ","Zip":"85022"},{"Location":"COW BOY LOOKOUT GRILL LLC","Address":"1606 E Bell Rd 101","City":"Phoenix","State":"AZ","Zip":"85022"},{"Location":"DAN DI","Address":"13470 N 7th St","City":"Phoenix","State":"AZ","Zip":"85022"},{"Location":"DEALER TRADE INC","Address":"2141 E Bell Rd","City":"Phoenix","State":"AZ","Zip":"85022"},{"Location":"DESERT HILLS ANIMAL HOSP","Address":"13811 N 7th St","City":"Phoenix","State":"AZ","Zip":"85022"},{"Location":"DESERT NAIL SPA","Address":"777 E Thunderbird Rd 103","City":"Phoenix","State":"AZ","Zip":"85022"},{"Location":"DICKEYS BBQ","Address":"402 E Greenway Pkwy Suit2","City":"Phoenix","State":"AZ","Zip":"85022"},{"Location":"DUNKIN DONUTS THUNDERBIRD","Address":"678 E Thunderbird Rd","City":"Phoenix","State":"AZ","Zip":"85022"},{"Location":"FILIBERTOS MEXICAN FOOD","Address":"2010 E Thunderbird Rd","City":"Phoenix","State":"AZ","Zip":"85022"},{"Location":"FIRESTONE #011894","Address":"12433 N Cave Creek Rd","City":"Phoenix","State":"AZ","Zip":"85022"},{"Location":"FLETCHERS TIRE AND AUTO","Address":"1411 E Bell Rd","City":"Phoenix","State":"AZ","Zip":"85022"},{"Location":"FSL%2FSWEETWATER GARDENS","Address":"2035 E Sweetwater Ave","City":"Phoenix","State":"AZ","Zip":"85022"},{"Location":"GREENWAY DESERT CARWASH","Address":"720 E Greenway Pkwy","City":"Phoenix","State":"AZ","Zip":"85022"},{"Location":"HALF MOON SPORTS GRILL","Address":"288 E Greenway Pkwy 103","City":"Phoenix","State":"AZ","Zip":"85022"},{"Location":"HYPERBARIC OXYGEN","Address":"12802 N Cave Creek Rd","City":"Phoenix","State":"AZ","Zip":"85022"},{"Location":"ITM TRADING INC","Address":"14231 N 7th St B7","City":"Phoenix","State":"AZ","Zip":"85022"},{"Location":"JAKES","Address":"2017 E Cactus Rd","City":"Phoenix","State":"AZ","Zip":"85022"},{"Location":"JAKES SPORTS BAR","Address":"2017 E Cactus Rd","City":"Phoenix","State":"AZ","Zip":"85022"},{"Location":"JEG-FIT PLANNET FITNESS","Address":"320 E Bell Rd","City":"Phoenix","State":"AZ","Zip":"85022"},{"Location":"JERSEY MIKES SUBS #9015","Address":"245 E Bell Rd 9","City":"Phoenix","State":"AZ","Zip":"85022"},{"Location":"JIFFY LUBE #1664","Address":"2005 E Cactus Rd","City":"Phoenix","State":"AZ","Zip":"85022"},{"Location":"JOEYS CALIFORNIA BISTRO","Address":"610 E Bell Rd","City":"Phoenix","State":"AZ","Zip":"85022"},{"Location":"LA FITNESS #109","Address":"244 E Greenway Pkwy","City":"Phoenix","State":"AZ","Zip":"85022"},{"Location":"MARK MITSUBISHI","Address":"1901 E Bell Rd","City":"Phoenix","State":"AZ","Zip":"85022"},{"Location":"MAXIT PAWN & RETAIL SHOP 1664","Address":"2320 E Bell Rd B","City":"Phoenix","State":"AZ","Zip":"85022"},{"Location":"MOON VALLEY CAFE  LLC","Address":"502 E Thunderbird Rd","City":"Phoenix","State":"AZ","Zip":"85022"},{"Location":"MOON VALLEY GRILL","Address":"15414 N 7th St","City":"Phoenix","State":"AZ","Zip":"85022"},{"Location":"NAILS AND SPA","Address":"13448 N 7th St","City":"Phoenix","State":"AZ","Zip":"85022"},{"Location":"NY HAIR SALON SPA&BARBOR SHOP","Address":"1618 E Bell Rd 104","City":"Phoenix","State":"AZ","Zip":"85022"},{"Location":"ORION HOMES","Address":"142 E Joan D Arc Ave","City":"Phoenix","State":"AZ","Zip":"85022"},{"Location":"PACIFIC DENTAL #293","Address":"267 E Bell Rd 3","City":"Phoenix","State":"AZ","Zip":"85022"},{"Location":"PETER PIPER PIZZA # 082","Address":"245 E Bell Rd","City":"Phoenix","State":"AZ","Zip":"85022"},{"Location":"PHOENIX FIRST ASSEMBLY OF GOD","Address":"13613 N Cave Creek Rd","City":"Phoenix","State":"AZ","Zip":"85022"},{"Location":"PHOENIX NORTH MOBILE PAR","Address":"17825 N 7th St","City":"Phoenix","State":"AZ","Zip":"85022"},{"Location":"SOUTH WEST OUTDOOR COOLI","Address":"13815 N 7th St 1","City":"Phoenix","State":"AZ","Zip":"85022"},{"Location":"SPINATO'S PIZZA","Address":"1614 E Bell Rd 104","City":"Phoenix","State":"AZ","Zip":"85022"},{"Location":"SPORT CLIPS AZ118","Address":"610 E Bell Rd","City":"Phoenix","State":"AZ","Zip":"85022"},{"Location":"SUSHI STYLE","Address":"401 E Bell Rd 16","City":"Phoenix","State":"AZ","Zip":"85022"},{"Location":"TARGET","Address":"16806 N 7th St","City":"Phoenix","State":"AZ","Zip":"85022"},{"Location":"TOTAL SPORTS THERAPY","Address":"245 E Bell Rd","City":"Phoenix","State":"AZ","Zip":"85022"},{"Location":"TRANSMISSION FOR LESS","Address":"13402 N Cave Creek Rd 1","City":"Phoenix","State":"AZ","Zip":"85022"},{"Location":"VALLEY INTEGRATIVE PHYSICIANS","Address":"14231 N 7th St A2","City":"Phoenix","State":"AZ","Zip":"85022"},{"Location":"VILLAGE INN 110833","Address":"310 E Bell Rd","City":"Phoenix","State":"AZ","Zip":"85022"},{"Location":"WENDYS 1812","Address":"602 E Greenway Pkwy","City":"Phoenix","State":"AZ","Zip":"85022"},{"Location":"WILD TUNAS","Address":"805 E Thunderbird Rd","City":"Phoenix","State":"AZ","Zip":"85022"},{"Location":"2ND HOME PET RESORT","Address":"747 E Thunderbird Rd","City":"Phoenix","State":"AZ","Zip":"85022"},{"Location":"6023588784","Address":"18440 N 7th St","City":"Phoenix","State":"AZ","Zip":"85022"},{"Location":"AIELLO SALUNERIA","Address":"777 E Thunderbird Rd 100","City":"Phoenix","State":"AZ","Zip":"85022"},{"Location":"BALAZS","Address":"13256 N 13th St","City":"Phoenix","State":"AZ","Zip":"85022"},{"Location":"BARROS PIZZA #3","Address":"15440 N 7th St 13","City":"Phoenix","State":"AZ","Zip":"85022"},{"Location":"BPL PLASMA INC PHOENIX","Address":"2320 E Bell Rd","City":"Phoenix","State":"AZ","Zip":"85022"},{"Location":"BROIL LLC","Address":"777 E Thunderbird Rd 107","City":"Phoenix","State":"AZ","Zip":"85022"},{"Location":"CAMBELLS CARWASH","Address":"2150 E Sweetwater Ave","City":"Phoenix","State":"AZ","Zip":"85022"},{"Location":"CAREMORE HEALTHPLAN OF ARIZONA","Address":"750 E Thunderbird Rd","City":"Phoenix","State":"AZ","Zip":"85022"},{"Location":"CCS MESQUITE BOILER","Address":"12235 N Cave Creek Rd","City":"Phoenix","State":"AZ","Zip":"85022"},{"Location":"CHILI'S #0088","Address":"513 E Bell Rd","City":"Phoenix","State":"AZ","Zip":"85022"},{"Location":"CLA TODAY","Address":"12601 N Cave Creek Rd 107","City":"Phoenix","State":"AZ","Zip":"85022"},{"Location":"CLASSIC CRUST PIZZA%2C LLC","Address":"12231 N Cave Creek Rd 120","City":"Phoenix","State":"AZ","Zip":"85022"},{"Location":"COW BOY LOOKOUT GRILL LLC","Address":"1606 E Bell Rd 101","City":"Phoenix","State":"AZ","Zip":"85022"},{"Location":"DAN DI","Address":"13470 N 7th St","City":"Phoenix","State":"AZ","Zip":"85022"},{"Location":"DEALER TRADE INC","Address":"2141 E Bell Rd","City":"Phoenix","State":"AZ","Zip":"85022"},{"Location":"DESERT HILLS ANIMAL HOSP","Address":"13811 N 7th St","City":"Phoenix","State":"AZ","Zip":"85022"},{"Location":"DESERT NAIL SPA","Address":"777 E Thunderbird Rd 103","City":"Phoenix","State":"AZ","Zip":"85022"},{"Location":"DICKEYS BBQ","Address":"402 E Greenway Pkwy Suit2","City":"Phoenix","State":"AZ","Zip":"85022"},{"Location":"DUNKIN DONUTS THUNDERBIRD","Address":"678 E Thunderbird Rd","City":"Phoenix","State":"AZ","Zip":"85022"},{"Location":"FILIBERTOS MEXICAN FOOD","Address":"2010 E Thunderbird Rd","City":"Phoenix","State":"AZ","Zip":"85022"},{"Location":"FIRESTONE #011894","Address":"12433 N Cave Creek Rd","City":"Phoenix","State":"AZ","Zip":"85022"},{"Location":"FLETCHERS TIRE AND AUTO","Address":"1411 E Bell Rd","City":"Phoenix","State":"AZ","Zip":"85022"},{"Location":"FSL%2FSWEETWATER GARDENS","Address":"2035 E Sweetwater Ave","City":"Phoenix","State":"AZ","Zip":"85022"},{"Location":"GREENWAY DESERT CARWASH","Address":"720 E Greenway Pkwy","City":"Phoenix","State":"AZ","Zip":"85022"},{"Location":"HALF MOON SPORTS GRILL","Address":"288 E Greenway Pkwy 103","City":"Phoenix","State":"AZ","Zip":"85022"},{"Location":"HYPERBARIC OXYGEN","Address":"12802 N Cave Creek Rd","City":"Phoenix","State":"AZ","Zip":"85022"},{"Location":"ITM TRADING INC","Address":"14231 N 7th St B7","City":"Phoenix","State":"AZ","Zip":"85022"},{"Location":"JAKES","Address":"2017 E Cactus Rd","City":"Phoenix","State":"AZ","Zip":"85022"},{"Location":"JAKES SPORTS BAR","Address":"2017 E Cactus Rd","City":"Phoenix","State":"AZ","Zip":"85022"},{"Location":"JEG-FIT PLANNET FITNESS","Address":"320 E Bell Rd","City":"Phoenix","State":"AZ","Zip":"85022"},{"Location":"JERSEY MIKES SUBS #9015","Address":"245 E Bell Rd 9","City":"Phoenix","State":"AZ","Zip":"85022"},{"Location":"JIFFY LUBE #1664","Address":"2005 E Cactus Rd","City":"Phoenix","State":"AZ","Zip":"85022"},{"Location":"JOEYS CALIFORNIA BISTRO","Address":"610 E Bell Rd","City":"Phoenix","State":"AZ","Zip":"85022"},{"Location":"LA FITNESS #109","Address":"244 E Greenway Pkwy","City":"Phoenix","State":"AZ","Zip":"85022"},{"Location":"MARK MITSUBISHI","Address":"1901 E Bell Rd","City":"Phoenix","State":"AZ","Zip":"85022"},{"Location":"MAXIT PAWN & RETAIL SHOP 1664","Address":"2320 E Bell Rd B","City":"Phoenix","State":"AZ","Zip":"85022"},{"Location":"MOON VALLEY CAFE  LLC","Address":"502 E Thunderbird Rd","City":"Phoenix","State":"AZ","Zip":"85022"},{"Location":"MOON VALLEY GRILL","Address":"15414 N 7th St","City":"Phoenix","State":"AZ","Zip":"85022"},{"Location":"NAILS AND SPA","Address":"13448 N 7th St","City":"Phoenix","State":"AZ","Zip":"85022"},{"Location":"NY HAIR SALON SPA&BARBOR SHOP","Address":"1618 E Bell Rd 104","City":"Phoenix","State":"AZ","Zip":"85022"},{"Location":"ORION HOMES","Address":"142 E Joan D Arc Ave","City":"Phoenix","State":"AZ","Zip":"85022"},{"Location":"PACIFIC DENTAL #293","Address":"267 E Bell Rd 3","City":"Phoenix","State":"AZ","Zip":"85022"},{"Location":"PETER PIPER PIZZA # 082","Address":"245 E Bell Rd","City":"Phoenix","State":"AZ","Zip":"85022"},{"Location":"PHOENIX FIRST ASSEMBLY OF GOD","Address":"13613 N Cave Creek Rd","City":"Phoenix","State":"AZ","Zip":"85022"},{"Location":"PHOENIX NORTH MOBILE PAR","Address":"17825 N 7th St","City":"Phoenix","State":"AZ","Zip":"85022"},{"Location":"SOUTH WEST OUTDOOR COOLI","Address":"13815 N 7th St 1","City":"Phoenix","State":"AZ","Zip":"85022"},{"Location":"SPINATO'S PIZZA","Address":"1614 E Bell Rd 104","City":"Phoenix","State":"AZ","Zip":"85022"},{"Location":"SPORT CLIPS AZ118","Address":"610 E Bell Rd","City":"Phoenix","State":"AZ","Zip":"85022"},{"Location":"SUSHI STYLE","Address":"401 E Bell Rd 16","City":"Phoenix","State":"AZ","Zip":"85022"},{"Location":"TARGET","Address":"16806 N 7th St","City":"Phoenix","State":"AZ","Zip":"85022"},{"Location":"TOTAL SPORTS THERAPY","Address":"245 E Bell Rd","City":"Phoenix","State":"AZ","Zip":"85022"},{"Location":"TRANSMISSION FOR LESS","Address":"13402 N Cave Creek Rd 1","City":"Phoenix","State":"AZ","Zip":"85022"},{"Location":"VALLEY INTEGRATIVE PHYSICIANS","Address":"14231 N 7th St A2","City":"Phoenix","State":"AZ","Zip":"85022"},{"Location":"VILLAGE INN 110833","Address":"310 E Bell Rd","City":"Phoenix","State":"AZ","Zip":"85022"},{"Location":"WENDYS 1812","Address":"602 E Greenway Pkwy","City":"Phoenix","State":"AZ","Zip":"85022"},{"Location":"WILD TUNAS","Address":"805 E Thunderbird Rd","City":"Phoenix","State":"AZ","Zip":"85022"}]