[{"Location":"ANDERSON SECURITY","Address":"2555 W Morningside Dr","City":"Phoenix","State":"AZ","Zip":"85023"},{"Location":"AUTONATION DODGE-CE99-1","Address":"16406 N 26th Ave","City":"Phoenix","State":"AZ","Zip":"85023"},{"Location":"BAHNMI BISTRO","Address":"2340 W Bell Rd 110","City":"Phoenix","State":"AZ","Zip":"85023"},{"Location":"BARRO'S PIZZA #5","Address":"2510 W Thunderbird Rd 6","City":"Phoenix","State":"AZ","Zip":"85023"},{"Location":"BELL FORD","Address":"2401 W Bell Rd","City":"Phoenix","State":"AZ","Zip":"85023"},{"Location":"BELL HONDA","Address":"701 W Bell Rd","City":"Phoenix","State":"AZ","Zip":"85023"},{"Location":"BELL HONDA","Address":"16809 N 7th Ave","City":"Phoenix","State":"AZ","Zip":"85023"},{"Location":"CARAMBA MEXICAN RESTAURANT 3","Address":"2340 W Bell Rd","City":"Phoenix","State":"AZ","Zip":"85023"},{"Location":"CHAPMAN BELL ROAD IMPORT","Address":"1234 W Bell Rd","City":"Phoenix","State":"AZ","Zip":"85023"},{"Location":"ECONO LUBE N TUNE","Address":"1730 W Bell Rd","City":"Phoenix","State":"AZ","Zip":"85023"},{"Location":"EMBASSY SUITES PHOENIX NORTH","Address":"2577 W Greenway Rd","City":"Phoenix","State":"AZ","Zip":"85023"},{"Location":"FIBERTOS MEXICAN FOOD","Address":"17224 N 19th Ave","City":"Phoenix","State":"AZ","Zip":"85023"},{"Location":"FINISH LINE BAR & BILLIA","Address":"1724 W Bell Rd","City":"Phoenix","State":"AZ","Zip":"85023"},{"Location":"FUTON FACTORY OUTLET","Address":"1818 W Bell Rd 130","City":"Phoenix","State":"AZ","Zip":"85023"},{"Location":"HAPPY HAIR","Address":"17220 N 19th Ave 6","City":"Phoenix","State":"AZ","Zip":"85023"},{"Location":"JIFFY LUBE #1807","Address":"2630 W Thunderbird Rd","City":"Phoenix","State":"AZ","Zip":"85023"},{"Location":"JIFFY LUBE #2095","Address":"1414 W Bell Rd","City":"Phoenix","State":"AZ","Zip":"85023"},{"Location":"MACAYO MEXICAN RESTAURANT","Address":"1909 W Thunderbird Rd","City":"Phoenix","State":"AZ","Zip":"85023"},{"Location":"MEL MARTIN AUTO MUSEUM","Address":"17641 N Black Canyon Hwy","City":"Phoenix","State":"AZ","Zip":"85023"},{"Location":"MIDWAY CHEVROLET","Address":"2323 W Bell Rd","City":"Phoenix","State":"AZ","Zip":"85023"},{"Location":"MOON VALLEY CLUB","Address":"151 W Moon Valley Dr","City":"Phoenix","State":"AZ","Zip":"85023"},{"Location":"PAC DETAILING","Address":"2402 W Phelps Rd","City":"Phoenix","State":"AZ","Zip":"85023"},{"Location":"PACIFIC MED TECHS","Address":"1001 W Danbury Rd","City":"Phoenix","State":"AZ","Zip":"85023"},{"Location":"PACWEST ENERGY LLC","Address":"315 W Bell Rd","City":"Phoenix","State":"AZ","Zip":"85023"},{"Location":"SANDERSON LINCOLN MERCURY","Address":"2121 N Bell Rd","City":"Phoenix","State":"AZ","Zip":"85023"},{"Location":"SHENANIGANS","Address":"2244 W Bell Rd","City":"Phoenix","State":"AZ","Zip":"85023"},{"Location":"SNAPPY AUTO SPA","Address":"14001 N Coral Gables Dr","City":"Phoenix","State":"AZ","Zip":"85023"},{"Location":"SOUTHWEST DININGS CONCEPTS","Address":"1111 W Bell Rd","City":"Phoenix","State":"AZ","Zip":"85023"},{"Location":"STEEL HORSE SALOON","Address":"1818 W Bell Rd 100","City":"Phoenix","State":"AZ","Zip":"85023"},{"Location":"TURF PARADISE INC","Address":"1501 W Bell Rd","City":"Phoenix","State":"AZ","Zip":"85023"},{"Location":"UNION HILL BARBER SHOP","Address":"18400 N 19th Ave B","City":"Phoenix","State":"AZ","Zip":"85023"},{"Location":"WASTE MANAGEMENT","Address":"2625 W Grandview Rd 150","City":"Phoenix","State":"AZ","Zip":"85023"},{"Location":"WASTE MANAGEMENT 2","Address":"2501 W Grandview Rd","City":"Phoenix","State":"AZ","Zip":"85023"},{"Location":"WENDYS 2168","Address":"2640 W Thunderbird Rd","City":"Phoenix","State":"AZ","Zip":"85023"}]