[{"Location":"ALARCON'S","Address":"5911 W Cheery Lynn Rd","City":"Phoenix","State":"AZ","Zip":"85033"},{"Location":"ALIANZA LATINA","Address":"6544 W Thomas Rd 45","City":"Phoenix","State":"AZ","Zip":"85033"},{"Location":"ARIZONA TRANSMISSON","Address":"7740 W Indian School Rd 4","City":"Phoenix","State":"AZ","Zip":"85033"},{"Location":"BRUNSWICK #867","Address":"7241 W Indian School Rd","City":"Phoenix","State":"AZ","Zip":"85033"},{"Location":"CMLBCK 83RD SELF STORAGE","Address":"4860 N 83rd Ave","City":"Phoenix","State":"AZ","Zip":"85033"},{"Location":"EL DORADO SPORTS BAR","Address":"4134 N 67th Ave","City":"Phoenix","State":"AZ","Zip":"85033"},{"Location":"EL GRAN SALON LLC","Address":"7445 W Indian School Rd","City":"Phoenix","State":"AZ","Zip":"85033"},{"Location":"EL RINCON SINALOENSE","Address":"7540 W Indian School Rd 7","City":"Phoenix","State":"AZ","Zip":"85033"},{"Location":"FAMILY ROLLER SKATING","Address":"7318 W Indian School Rd","City":"Phoenix","State":"AZ","Zip":"85033"},{"Location":"FEDERICOS","Address":"6645 W Thomas Rd","City":"Phoenix","State":"AZ","Zip":"85033"},{"Location":"GRANDPAS PIZZA","Address":"7333 W Thomas Rd","City":"Phoenix","State":"AZ","Zip":"85033"},{"Location":"GUSS NEW YORK PIZZA","Address":"7611 W Thomas Rd 104","City":"Phoenix","State":"AZ","Zip":"85033"},{"Location":"JUST SPORTS DESERT SKY","Address":"7611 W Thomas Rd C034","City":"Phoenix","State":"AZ","Zip":"85033"},{"Location":"LA CURACAO2","Address":"7815 W Thomas Rd","City":"Phoenix","State":"AZ","Zip":"85033"},{"Location":"LA FITNESS #114","Address":"7640 W Thomas Rd","City":"Phoenix","State":"AZ","Zip":"85033"},{"Location":"LE DENTAL","Address":"6544 W Thomas Rd 8","City":"Phoenix","State":"AZ","Zip":"85033"},{"Location":"LONG WING'S","Address":"7415 W Thomas Rd","City":"Phoenix","State":"AZ","Zip":"85033"},{"Location":"MACAYO'S DESERT SKY","Address":"7829 W Thomas Rd","City":"Phoenix","State":"AZ","Zip":"85033"},{"Location":"MARYS BARBERSHOP","Address":"4838 N 59th Ave","City":"Phoenix","State":"AZ","Zip":"85033"},{"Location":"PETER PIPER PIZZA # 162","Address":"4024 N 67th Ave","City":"Phoenix","State":"AZ","Zip":"85033"},{"Location":"PLANET FITNESS","Address":"7333 W Thomas Rd 78","City":"Phoenix","State":"AZ","Zip":"85033"},{"Location":"POPO'S FIESTA DEL SOL","Address":"6542 W Indian School Rd","City":"Phoenix","State":"AZ","Zip":"85033"},{"Location":"PRIMERO DENTAL SERVICES","Address":"4017 N 75th Ave","City":"Phoenix","State":"AZ","Zip":"85033"},{"Location":"RIB SHOP","Address":"4131 N 83rd Ave","City":"Phoenix","State":"AZ","Zip":"85033"},{"Location":"SAMMYS AUTO SERVICE","Address":"4030 N 75th Ave","City":"Phoenix","State":"AZ","Zip":"85033"},{"Location":"SANTIS PET CLINIC","Address":"6003 W Thomas Rd","City":"Phoenix","State":"AZ","Zip":"85033"},{"Location":"SHOE DEPT ENCORE #1513","Address":"7611 W Thomas Rd B002","City":"Phoenix","State":"AZ","Zip":"85033"},{"Location":"SMILE DENTAL GROUP","Address":"7102 W Thomas Rd","City":"Phoenix","State":"AZ","Zip":"85033"},{"Location":"SUPERPAWN SHOP 1371","Address":"6540 W Indian School Rd","City":"Phoenix","State":"AZ","Zip":"85033"},{"Location":"THE NUGGET","Address":"4130 N 83rd Ave 11","City":"Phoenix","State":"AZ","Zip":"85033"},{"Location":"TRANSMISSION CENTER","Address":"4020 N 75th Ave","City":"Phoenix","State":"AZ","Zip":"85033"},{"Location":"WORD OF ABUNDANT LIFE","Address":"6849 W Indian School Rd","City":"Phoenix","State":"AZ","Zip":"85033"},{"Location":"ALARCON'S","Address":"5911 W Cheery Lynn Rd","City":"Phoenix","State":"AZ","Zip":"85033"},{"Location":"ALIANZA LATINA","Address":"6544 W Thomas Rd 45","City":"Phoenix","State":"AZ","Zip":"85033"},{"Location":"ARIZONA TRANSMISSON","Address":"7740 W Indian School Rd 4","City":"Phoenix","State":"AZ","Zip":"85033"},{"Location":"BRUNSWICK #867","Address":"7241 W Indian School Rd","City":"Phoenix","State":"AZ","Zip":"85033"},{"Location":"CMLBCK 83RD SELF STORAGE","Address":"4860 N 83rd Ave","City":"Phoenix","State":"AZ","Zip":"85033"},{"Location":"EL DORADO SPORTS BAR","Address":"4134 N 67th Ave","City":"Phoenix","State":"AZ","Zip":"85033"},{"Location":"EL GRAN SALON LLC","Address":"7445 W Indian School Rd","City":"Phoenix","State":"AZ","Zip":"85033"},{"Location":"EL RINCON SINALOENSE","Address":"7540 W Indian School Rd 7","City":"Phoenix","State":"AZ","Zip":"85033"},{"Location":"FAMILY ROLLER SKATING","Address":"7318 W Indian School Rd","City":"Phoenix","State":"AZ","Zip":"85033"},{"Location":"FEDERICOS","Address":"6645 W Thomas Rd","City":"Phoenix","State":"AZ","Zip":"85033"},{"Location":"GRANDPAS PIZZA","Address":"7333 W Thomas Rd","City":"Phoenix","State":"AZ","Zip":"85033"},{"Location":"GUSS NEW YORK PIZZA","Address":"7611 W Thomas Rd 104","City":"Phoenix","State":"AZ","Zip":"85033"},{"Location":"JUST SPORTS DESERT SKY","Address":"7611 W Thomas Rd C034","City":"Phoenix","State":"AZ","Zip":"85033"},{"Location":"LA CURACAO2","Address":"7815 W Thomas Rd","City":"Phoenix","State":"AZ","Zip":"85033"},{"Location":"LA FITNESS #114","Address":"7640 W Thomas Rd","City":"Phoenix","State":"AZ","Zip":"85033"},{"Location":"LE DENTAL","Address":"6544 W Thomas Rd 8","City":"Phoenix","State":"AZ","Zip":"85033"},{"Location":"LONG WING'S","Address":"7415 W Thomas Rd","City":"Phoenix","State":"AZ","Zip":"85033"},{"Location":"MACAYO'S DESERT SKY","Address":"7829 W Thomas Rd","City":"Phoenix","State":"AZ","Zip":"85033"},{"Location":"MARYS BARBERSHOP","Address":"4838 N 59th Ave","City":"Phoenix","State":"AZ","Zip":"85033"},{"Location":"PETER PIPER PIZZA # 162","Address":"4024 N 67th Ave","City":"Phoenix","State":"AZ","Zip":"85033"},{"Location":"PLANET FITNESS","Address":"7333 W Thomas Rd 78","City":"Phoenix","State":"AZ","Zip":"85033"},{"Location":"POPO'S FIESTA DEL SOL","Address":"6542 W Indian School Rd","City":"Phoenix","State":"AZ","Zip":"85033"},{"Location":"PRIMERO DENTAL SERVICES","Address":"4017 N 75th Ave","City":"Phoenix","State":"AZ","Zip":"85033"},{"Location":"RIB SHOP","Address":"4131 N 83rd Ave","City":"Phoenix","State":"AZ","Zip":"85033"},{"Location":"SAMMYS AUTO SERVICE","Address":"4030 N 75th Ave","City":"Phoenix","State":"AZ","Zip":"85033"},{"Location":"SANTIS PET CLINIC","Address":"6003 W Thomas Rd","City":"Phoenix","State":"AZ","Zip":"85033"},{"Location":"SHOE DEPT ENCORE #1513","Address":"7611 W Thomas Rd B002","City":"Phoenix","State":"AZ","Zip":"85033"},{"Location":"SMILE DENTAL GROUP","Address":"7102 W Thomas Rd","City":"Phoenix","State":"AZ","Zip":"85033"},{"Location":"SUPERPAWN SHOP 1371","Address":"6540 W Indian School Rd","City":"Phoenix","State":"AZ","Zip":"85033"},{"Location":"THE NUGGET","Address":"4130 N 83rd Ave 11","City":"Phoenix","State":"AZ","Zip":"85033"},{"Location":"TRANSMISSION CENTER","Address":"4020 N 75th Ave","City":"Phoenix","State":"AZ","Zip":"85033"},{"Location":"WORD OF ABUNDANT LIFE","Address":"6849 W Indian School Rd","City":"Phoenix","State":"AZ","Zip":"85033"}]