[{"Location":"BARNETT MANAGEMENT CO","Address":"1610 N 83rd Ave","City":"Phoenix","State":"AZ","Zip":"85035"},{"Location":"BIG O TIRES","Address":"2510 N 75th Ave","City":"Phoenix","State":"AZ","Zip":"85035"},{"Location":"CAREMORE HEALTHPLAN OF ARIZONA","Address":"2330 N 75th Ave 113","City":"Phoenix","State":"AZ","Zip":"85035"},{"Location":"CIGNA HEALTHCARE","Address":"2302 N 75th Ave","City":"Phoenix","State":"AZ","Zip":"85035"},{"Location":"CRICKET PAVILION","Address":"2121 N 83rd Ave","City":"Phoenix","State":"AZ","Zip":"85035"},{"Location":"DAVITA #4364 MARYVALE","Address":"4845 W Mcdowell Rd 10","City":"Phoenix","State":"AZ","Zip":"85035"},{"Location":"FILIBERTOS ON MCDOWELL","Address":"4326 W Mcdowell Rd","City":"Phoenix","State":"AZ","Zip":"85035"},{"Location":"HOOTERS WEST PHOENIX","Address":"2820 N 75th Ave","City":"Phoenix","State":"AZ","Zip":"85035"},{"Location":"HUMANA 02197 044","Address":"8990 West Glendale Ave","City":"Phoenix","State":"AZ","Zip":"85035"},{"Location":"JIFFY LUBE #2102","Address":"1645 N 51st Ave","City":"Phoenix","State":"AZ","Zip":"85035"},{"Location":"LONGHORN STEAKHOUSE #5499","Address":"2475 N 75th Ave","City":"Phoenix","State":"AZ","Zip":"85035"},{"Location":"LOS ARMONDOS INC","Address":"5820 W Mcdowell Rd","City":"Phoenix","State":"AZ","Zip":"85035"},{"Location":"NEXTCARE URGENT CARE","Address":"5920 W Mcdowell Rd","City":"Phoenix","State":"AZ","Zip":"85035"},{"Location":"NORTH POINT","Address":"5259 W Mcdowell Rd","City":"Phoenix","State":"AZ","Zip":"85035"},{"Location":"NORTH POINT FITNESS","Address":"5259 W Mcdowell Rd","City":"Phoenix","State":"AZ","Zip":"85035"},{"Location":"OLIVE GARDEN #1718","Address":"2626 N 75th Ave","City":"Phoenix","State":"AZ","Zip":"85035"},{"Location":"PRIDE RESTAURANT GROUP 4081","Address":"5102 W Mcdowell Rd","City":"Phoenix","State":"AZ","Zip":"85035"},{"Location":"RED LOBSTER #6218","Address":"2810 N 75th Ave","City":"Phoenix","State":"AZ","Zip":"85035"},{"Location":"SOUTHWEST REGIONAL COUNCIL","Address":"4547 W Mc Dowell Rd","City":"Phoenix","State":"AZ","Zip":"85035"},{"Location":"SUPER STAR CAR WASH","Address":"1625 N 75th Ave","City":"Phoenix","State":"AZ","Zip":"85035"},{"Location":"SUPERPAWN SHOP 1372","Address":"4301 W Mcdowell Rd","City":"Phoenix","State":"AZ","Zip":"85035"},{"Location":"TEXAS ROADHOUSE #2110","Address":"1616 N 75th Ave","City":"Phoenix","State":"AZ","Zip":"85035"},{"Location":"TORTAS EL TRI","Address":"2837 N 75th Ave F6","City":"Phoenix","State":"AZ","Zip":"85035"},{"Location":"US SURPLUS CORPORATION","Address":"6736 W Mcdowell Rd","City":"Phoenix","State":"AZ","Zip":"85035"},{"Location":"WENDYS 1673","Address":"2550 N 75th Ave","City":"Phoenix","State":"AZ","Zip":"85035"},{"Location":"WINGSTOP","Address":"1610 N 75th Ave 110","City":"Phoenix","State":"AZ","Zip":"85035"}]