[{"Location":"A Z SPORTS CARDS","Address":"10045 W Camelback Rd 104","City":"Phoenix","State":"AZ","Zip":"85037"},{"Location":"ARA ESTRELLA","Address":"9250 W Thomas Rd 120","City":"Phoenix","State":"AZ","Zip":"85037"},{"Location":"BEMC PHYS LOUNGE","Address":"9201 W Thomas Rd","City":"Phoenix","State":"AZ","Zip":"85037"},{"Location":"BRIDGE PARTNERS","Address":"4220 N 103rd Ave","City":"Phoenix","State":"AZ","Zip":"85037"},{"Location":"BROTHERS PIZZA INC","Address":"10720 W Indian School Rd","City":"Phoenix","State":"AZ","Zip":"85037"},{"Location":"CB - 91ST & THOMAS","Address":"8911 W Thomas Rd","City":"Phoenix","State":"AZ","Zip":"85037"},{"Location":"DA BARBERHSHOP LLC","Address":"9014 W Thomas Rd 102","City":"Phoenix","State":"AZ","Zip":"85037"},{"Location":"DAVITA #1936 ESTRELLA","Address":"8410 W Thomas Rd 100","City":"Phoenix","State":"AZ","Zip":"85037"},{"Location":"DESSERT   VALLEY RADIOLOGY","Address":"9150 W Indian School Rd 136","City":"Phoenix","State":"AZ","Zip":"85037"},{"Location":"DUNKIN DONUTS","Address":"9140 W Thomas Rd","City":"Phoenix","State":"AZ","Zip":"85037"},{"Location":"FILIBERTO'S MEXICAN FOOD","Address":"2955 N 91st Ave","City":"Phoenix","State":"AZ","Zip":"85037"},{"Location":"FIRESTONE #022071","Address":"8301 W Indian School Rd","City":"Phoenix","State":"AZ","Zip":"85037"},{"Location":"FRAM LLC","Address":"2755 N 91st Ave","City":"Phoenix","State":"AZ","Zip":"85037"},{"Location":"GARDEN LAKES BARBER SHOP","Address":"10720 W Indian School Rd","City":"Phoenix","State":"AZ","Zip":"85037"},{"Location":"GS FOOD","Address":"10328 10328 W Indian Schl Rd 5","City":"Phoenix","State":"AZ","Zip":"85037"},{"Location":"ITT TECHNICAL INSTITUTE","Address":"1840 N 95th Ave 132","City":"Phoenix","State":"AZ","Zip":"85037"},{"Location":"JIFFY LUBE #3191","Address":"9010 W Thomas Rd","City":"Phoenix","State":"AZ","Zip":"85037"},{"Location":"JJS GRILL PHX","Address":"9611 W Camelback Rd 101","City":"Phoenix","State":"AZ","Zip":"85037"},{"Location":"MCDONALDS","Address":"2915 South 99th Ave","City":"Phoenix","State":"AZ","Zip":"85037"},{"Location":"MERIDIAN BANK","Address":"1675 North 95th Ln","City":"Phoenix","State":"AZ","Zip":"85037"},{"Location":"NEEDLE AND THREAD","Address":"1805 N 91st Ave 104","City":"Phoenix","State":"AZ","Zip":"85037"},{"Location":"PALERMOS PIZZA","Address":"9024 W Thomas Rd 103","City":"Phoenix","State":"AZ","Zip":"85037"},{"Location":"SALON DE BELLEZA NUEVA1","Address":"9024 W Thomas Rd","City":"Phoenix","State":"AZ","Zip":"85037"},{"Location":"STRENGTH TRAINING","Address":"9150 W Indian School Rd 117","City":"Phoenix","State":"AZ","Zip":"85037"},{"Location":"SUPER STAR CAR WASH","Address":"1615 N 99th Ave","City":"Phoenix","State":"AZ","Zip":"85037"},{"Location":"WEST VALLEY WELLNESS","Address":"9150 W Indian School Rd 138","City":"Phoenix","State":"AZ","Zip":"85037"},{"Location":"WONG S RESTAURANT","Address":"10540 W Indian School Rd Suite","City":"Phoenix","State":"AZ","Zip":"85037"},{"Location":"A Z SPORTS CARDS","Address":"10045 W Camelback Rd 104","City":"Phoenix","State":"AZ","Zip":"85037"},{"Location":"ARA ESTRELLA","Address":"9250 W Thomas Rd 120","City":"Phoenix","State":"AZ","Zip":"85037"},{"Location":"BEMC PHYS LOUNGE","Address":"9201 W Thomas Rd","City":"Phoenix","State":"AZ","Zip":"85037"},{"Location":"BRIDGE PARTNERS","Address":"4220 N 103rd Ave","City":"Phoenix","State":"AZ","Zip":"85037"},{"Location":"BROTHERS PIZZA INC","Address":"10720 W Indian School Rd","City":"Phoenix","State":"AZ","Zip":"85037"},{"Location":"CB - 91ST & THOMAS","Address":"8911 W Thomas Rd","City":"Phoenix","State":"AZ","Zip":"85037"},{"Location":"DA BARBERHSHOP LLC","Address":"9014 W Thomas Rd 102","City":"Phoenix","State":"AZ","Zip":"85037"},{"Location":"DAVITA #1936 ESTRELLA","Address":"8410 W Thomas Rd 100","City":"Phoenix","State":"AZ","Zip":"85037"},{"Location":"DESSERT   VALLEY RADIOLOGY","Address":"9150 W Indian School Rd 136","City":"Phoenix","State":"AZ","Zip":"85037"},{"Location":"DUNKIN DONUTS","Address":"9140 W Thomas Rd","City":"Phoenix","State":"AZ","Zip":"85037"},{"Location":"FILIBERTO'S MEXICAN FOOD","Address":"2955 N 91st Ave","City":"Phoenix","State":"AZ","Zip":"85037"},{"Location":"FIRESTONE #022071","Address":"8301 W Indian School Rd","City":"Phoenix","State":"AZ","Zip":"85037"},{"Location":"FRAM LLC","Address":"2755 N 91st Ave","City":"Phoenix","State":"AZ","Zip":"85037"},{"Location":"GARDEN LAKES BARBER SHOP","Address":"10720 W Indian School Rd","City":"Phoenix","State":"AZ","Zip":"85037"},{"Location":"GS FOOD","Address":"10328 10328 W Indian Schl Rd 5","City":"Phoenix","State":"AZ","Zip":"85037"},{"Location":"ITT TECHNICAL INSTITUTE","Address":"1840 N 95th Ave 132","City":"Phoenix","State":"AZ","Zip":"85037"},{"Location":"JIFFY LUBE #3191","Address":"9010 W Thomas Rd","City":"Phoenix","State":"AZ","Zip":"85037"},{"Location":"JJS GRILL PHX","Address":"9611 W Camelback Rd 101","City":"Phoenix","State":"AZ","Zip":"85037"},{"Location":"MCDONALDS","Address":"2915 South 99th Ave","City":"Phoenix","State":"AZ","Zip":"85037"},{"Location":"MERIDIAN BANK","Address":"1675 North 95th Ln","City":"Phoenix","State":"AZ","Zip":"85037"},{"Location":"NEEDLE AND THREAD","Address":"1805 N 91st Ave 104","City":"Phoenix","State":"AZ","Zip":"85037"},{"Location":"PALERMOS PIZZA","Address":"9024 W Thomas Rd 103","City":"Phoenix","State":"AZ","Zip":"85037"},{"Location":"SALON DE BELLEZA NUEVA1","Address":"9024 W Thomas Rd","City":"Phoenix","State":"AZ","Zip":"85037"},{"Location":"STRENGTH TRAINING","Address":"9150 W Indian School Rd 117","City":"Phoenix","State":"AZ","Zip":"85037"},{"Location":"SUPER STAR CAR WASH","Address":"1615 N 99th Ave","City":"Phoenix","State":"AZ","Zip":"85037"},{"Location":"WEST VALLEY WELLNESS","Address":"9150 W Indian School Rd 138","City":"Phoenix","State":"AZ","Zip":"85037"},{"Location":"WONG S RESTAURANT","Address":"10540 W Indian School Rd Suite","City":"Phoenix","State":"AZ","Zip":"85037"}]