[{"Location":"24 HOUR FITNESS #374","Address":"3301 E Bell Rd","City":"Phoenix","State":"AZ","Zip":"85032"},{"Location":"5 & DINER","Address":"12802 N Tatum Blvd","City":"Phoenix","State":"AZ","Zip":"85032"},{"Location":"AMF #425 DESERT HILL LANES","Address":"2959 E Bell Rd","City":"Phoenix","State":"AZ","Zip":"85032"},{"Location":"AMLEGION PAT TILLMAN 117","Address":"16428 N 32nd St 101","City":"Phoenix","State":"AZ","Zip":"85032"},{"Location":"AUDIO EXPRESS E CACTUS","Address":"4509 E Cactus Rd","City":"Phoenix","State":"AZ","Zip":"85032"},{"Location":"BABIC INVESTMENTS LLC","Address":"16635 N Cave Creek Rd 234","City":"Phoenix","State":"AZ","Zip":"85032"},{"Location":"BARRO'S PIZZA","Address":"4030 E Greenway Rd","City":"Phoenix","State":"AZ","Zip":"85032"},{"Location":"BEAUTY SALON CARDINE","Address":"3305 E Greenway Rd 9","City":"Phoenix","State":"AZ","Zip":"85032"},{"Location":"BECERRA","Address":"3202 E Greenway Rd","City":"Phoenix","State":"AZ","Zip":"85032"},{"Location":"BILL DAFNIS PC","Address":"3815 E Bell Rd 3100","City":"Phoenix","State":"AZ","Zip":"85032"},{"Location":"BONEFISH GRILL #6304","Address":"12811 N Tatum Blvd","City":"Phoenix","State":"AZ","Zip":"85032"},{"Location":"BOSS INVESTMENTS LLC","Address":"12621 N Paradise Village Pkwy W","City":"Phoenix","State":"AZ","Zip":"85032"},{"Location":"BPO ELK'S #335-PHX","Address":"14424 N 32nd St","City":"Phoenix","State":"AZ","Zip":"85032"},{"Location":"BRENNAN'S PUB-N-GRUB","Address":"3510 E Bell Rd","City":"Phoenix","State":"AZ","Zip":"85032"},{"Location":"BRIGETT'S LAST LAUGH","Address":"17222 N Cave Creek Rd","City":"Phoenix","State":"AZ","Zip":"85032"},{"Location":"CARD FLIP","Address":"3143 E Greenway Rd 802","City":"Phoenix","State":"AZ","Zip":"85032"},{"Location":"CASEY JONES GRILL","Address":"2848 E Bell Rd 112","City":"Phoenix","State":"AZ","Zip":"85032"},{"Location":"CAVE CREEK INVESTMENT PROP","Address":"2530 E Bell Rd","City":"Phoenix","State":"AZ","Zip":"85032"},{"Location":"CHANDHRA THAI LLC","Address":"3510 E Bell Rd","City":"Phoenix","State":"AZ","Zip":"85032"},{"Location":"CHILI'S #0219","Address":"12660 N Tatum Blvd","City":"Phoenix","State":"AZ","Zip":"85032"},{"Location":"CHOICE HOTELS INT'L","Address":"4225 E Windrose Dr","City":"Phoenix","State":"AZ","Zip":"85032"},{"Location":"CHOMPIE'S RESTAURANT","Address":"4550 E Cactus Rd","City":"Phoenix","State":"AZ","Zip":"85032"},{"Location":"CIGNA HEALTHCARE - PV","Address":"3805 E Bell Rd 2100","City":"Phoenix","State":"AZ","Zip":"85032"},{"Location":"COBBLESTONE AUTO SPA -","Address":"3739 E Bell Rd","City":"Phoenix","State":"AZ","Zip":"85032"},{"Location":"COFFEE MUGS OF ARIZONA","Address":"4568 E Cactus Rd Space","City":"Phoenix","State":"AZ","Zip":"85032"},{"Location":"CONSERVATORY OF DANCE","Address":"13637 N Tatum Blvd","City":"Phoenix","State":"AZ","Zip":"85032"},{"Location":"CORNEA CONSULTANTS","Address":"3815 E Bell Rd 2500","City":"Phoenix","State":"AZ","Zip":"85032"},{"Location":"CRUST PIZZERIA AND RISTO","Address":"4727 E Bell Rd 59","City":"Phoenix","State":"AZ","Zip":"85032"},{"Location":"DE COLORES BEAUTY SALON","Address":"2601 E Bell Rd 7","City":"Phoenix","State":"AZ","Zip":"85032"},{"Location":"DESERT CTR FOR ALLERGY","Address":"3815 E Bell Rd 4400","City":"Phoenix","State":"AZ","Zip":"85032"},{"Location":"DESERT VALLEY RADIOLOGY","Address":"4045 E Bell Rd 143","City":"Phoenix","State":"AZ","Zip":"85032"},{"Location":"DODEY'S BAR","Address":"3114 E Cactus Rd","City":"Phoenix","State":"AZ","Zip":"85032"},{"Location":"DR JOHN DOVGAN DDS PC #2","Address":"3841 E Thunderbird Rd 101","City":"Phoenix","State":"AZ","Zip":"85032"},{"Location":"DUBLINER IRISH PUB","Address":"3841 E Thunderbird Rd","City":"Phoenix","State":"AZ","Zip":"85032"},{"Location":"DUNKIN DONUTS","Address":"3137 E Cactus Rd","City":"Phoenix","State":"AZ","Zip":"85032"},{"Location":"DUNKIN DOUGHNUTS","Address":"15530 N Tatum Blvd 100","City":"Phoenix","State":"AZ","Zip":"85032"},{"Location":"E CIGARETTES LLC","Address":"15813 N Cave Creek Rd 110","City":"Phoenix","State":"AZ","Zip":"85032"},{"Location":"EDDIE'S TAVERN","Address":"12302 N 32nd St","City":"Phoenix","State":"AZ","Zip":"85032"},{"Location":"ENCORE SENIOR VILLAGE","Address":"16621 N 38th St","City":"Phoenix","State":"AZ","Zip":"85032"},{"Location":"ENRIQUES AUTO REPAIR","Address":"16121 N Cave Creek Rd","City":"Phoenix","State":"AZ","Zip":"85032"},{"Location":"ESTELAS STORE","Address":"16428 N 32nd St 112","City":"Phoenix","State":"AZ","Zip":"85032"},{"Location":"FATSO'S PIZZA","Address":"3131 E Thunderbird Rd 55","City":"Phoenix","State":"AZ","Zip":"85032"},{"Location":"FIREHOUSE SUBS","Address":"15530 N Tatum Blvd 130","City":"Phoenix","State":"AZ","Zip":"85032"},{"Location":"FLETERS TIRE AND AUTO","Address":"4719 E Cactus Rd","City":"Phoenix","State":"AZ","Zip":"85032"},{"Location":"FMC 62500000","Address":"15846 N Cave Creek Rd","City":"Phoenix","State":"AZ","Zip":"85032"},{"Location":"FOOTHILLS SPORTS MED","Address":"4550 E Bell Rd 270","City":"Phoenix","State":"AZ","Zip":"85032"},{"Location":"FUSION REHAB LLC","Address":"2418 E Danbury Rd","City":"Phoenix","State":"AZ","Zip":"85032"},{"Location":"GENERAL DENTISTRY 4 KIDS","Address":"3202 E Greenway Rd 1287","City":"Phoenix","State":"AZ","Zip":"85032"},{"Location":"GOOD GUYS BARBERSHOP","Address":"13636 N Tatum Blvd 9","City":"Phoenix","State":"AZ","Zip":"85032"},{"Location":"GREENWAY CHIROPRACTIC CENTER","Address":"3202 E Greenway Rd 1619","City":"Phoenix","State":"AZ","Zip":"85032"},{"Location":"GREENWAY VILLAGE COCKTAIL","Address":"3143 E Greenway Rd 805","City":"Phoenix","State":"AZ","Zip":"85032"},{"Location":"HERBAL NAIL LLC","Address":"15530 N Tatum Blvd 120","City":"Phoenix","State":"AZ","Zip":"85032"},{"Location":"HONEST 1 AUTO CARE","Address":"12621 N Paradise Village Pkwy W","City":"Phoenix","State":"AZ","Zip":"85032"},{"Location":"IL PRIMO PIZZA & WINGS","Address":"16880 N Cave Creek Rd","City":"Phoenix","State":"AZ","Zip":"85032"},{"Location":"ISAS PIZZA","Address":"4001 E Bell Rd 112","City":"Phoenix","State":"AZ","Zip":"85032"},{"Location":"JERSEY MIKES","Address":"4603 E Cactus Rd 2a01","City":"Phoenix","State":"AZ","Zip":"85032"},{"Location":"JERSEY MIKES SUBS  #9003","Address":"4550 E Bell Rd 194","City":"Phoenix","State":"AZ","Zip":"85032"},{"Location":"JIFFY LUBE #2093","Address":"13801 N 32nd St","City":"Phoenix","State":"AZ","Zip":"85032"},{"Location":"JULIO G'S","Address":"12631 N Tatum Blvd","City":"Phoenix","State":"AZ","Zip":"85032"},{"Location":"JUST SPORTS","Address":"4550 E Cactus Rd 4","City":"Phoenix","State":"AZ","Zip":"85032"},{"Location":"LIQUID EQUITIES","Address":"4727 E Bell Rd 65","City":"Phoenix","State":"AZ","Zip":"85032"},{"Location":"LOFT AGAIN","Address":"15015 N Cave Creek Rd","City":"Phoenix","State":"AZ","Zip":"85032"},{"Location":"LONGHORN STEAKHOUSE #5461","Address":"4585 E Cactus Rd","City":"Phoenix","State":"AZ","Zip":"85032"},{"Location":"LOREDO","Address":"16602 N 32nd St","City":"Phoenix","State":"AZ","Zip":"85032"},{"Location":"M AND M FITNESS LLC","Address":"13637 N Tatum Blvd 9","City":"Phoenix","State":"AZ","Zip":"85032"},{"Location":"MACY'S WEST 454","Address":"4500 E Cactus Rd","City":"Phoenix","State":"AZ","Zip":"85032"},{"Location":"MARKS BARBERSHOP","Address":"15212 N Cave Creek Rd","City":"Phoenix","State":"AZ","Zip":"85032"},{"Location":"MB BBQ  LLC","Address":"3128 E Cactus Rd","City":"Phoenix","State":"AZ","Zip":"85032"},{"Location":"MCALLISTERS DELI","Address":"12847 N Tatum Blvd E01","City":"Phoenix","State":"AZ","Zip":"85032"},{"Location":"MCDONALDS 4699","Address":"4505 E Cactus Rd","City":"Phoenix","State":"AZ","Zip":"85032"},{"Location":"MODERN GROVE","Address":"15530 N Tatum Blvd A7","City":"Phoenix","State":"AZ","Zip":"85032"},{"Location":"MOR FURNITUR FOR LESS","Address":"4712 E Thunderbird Rd","City":"Phoenix","State":"AZ","Zip":"85032"},{"Location":"MY PIE AT TATUM AND CACTUS","Address":"12601 N Tatum Blvd","City":"Phoenix","State":"AZ","Zip":"85032"},{"Location":"NAILS SPA 101","Address":"4326 E Cactus Rd","City":"Phoenix","State":"AZ","Zip":"85032"},{"Location":"NEILS NAILS","Address":"3240 E Bell Rd","City":"Phoenix","State":"AZ","Zip":"85032"},{"Location":"NICE CUTSE","Address":"3329 E Bell Rd","City":"Phoenix","State":"AZ","Zip":"85032"},{"Location":"OUTBACK STEAKHOUSE #0313","Address":"4715 E Cactus Rd","City":"Phoenix","State":"AZ","Zip":"85032"},{"Location":"PARADISE LOUNGE","Address":"4541 E Cactus Rd","City":"Phoenix","State":"AZ","Zip":"85032"},{"Location":"PARADISE VALLEY COM CENT","Address":"17402 N 40th St","City":"Phoenix","State":"AZ","Zip":"85032"},{"Location":"PARADISE VALLEY HOSPIAL","Address":"3929 E Bell Rd","City":"Phoenix","State":"AZ","Zip":"85032"},{"Location":"PARADISE VALLEY HOSPITAL","Address":"3929 E Bell Rd","City":"Phoenix","State":"AZ","Zip":"85032"},{"Location":"PHOENIX MOUNTAIN NURSING CTR","Address":"13232 N Tatum Blvd","City":"Phoenix","State":"AZ","Zip":"85032"},{"Location":"PIZZA BUFFET","Address":"3208 E Bell Rd","City":"Phoenix","State":"AZ","Zip":"85032"},{"Location":"PIZZA HUT","Address":"2436 E Bell Rd","City":"Phoenix","State":"AZ","Zip":"85032"},{"Location":"PUT A CORK IN IT EVENTS LLC","Address":"3143 E Greenway Rd 901","City":"Phoenix","State":"AZ","Zip":"85032"},{"Location":"PV BARBERS","Address":"3202 E Greenway Rd 1603","City":"Phoenix","State":"AZ","Zip":"85032"},{"Location":"PVCC FITNESS CENTER","Address":"18401 N 32nd St","City":"Phoenix","State":"AZ","Zip":"85032"},{"Location":"QUEENS NAILS 2","Address":"4639 E Cactus Rd","City":"Phoenix","State":"AZ","Zip":"85032"},{"Location":"RAINBOW","Address":"15615 N Cave Creek Rd","City":"Phoenix","State":"AZ","Zip":"85032"},{"Location":"RE CHURCH  FINANCAL INC.","Address":"13832 N 32nd St 224","City":"Phoenix","State":"AZ","Zip":"85032"},{"Location":"ROMA GARDEN RESTUARANT","Address":"3923 E Thunderbird Rd 113","City":"Phoenix","State":"AZ","Zip":"85032"},{"Location":"ROSATIS'S PIZZA","Address":"4010 E Bell Rd","City":"Phoenix","State":"AZ","Zip":"85032"},{"Location":"SABAS MED CUISINE","Address":"4747 E Bell Rd","City":"Phoenix","State":"AZ","Zip":"85032"},{"Location":"SARDELLA'S PIZZA AND WINGS INC","Address":"3143 E Greenway Rd","City":"Phoenix","State":"AZ","Zip":"85032"},{"Location":"SCOTTSDALE HEALTH CARE","Address":"13843 N Tatum Blvd 1","City":"Phoenix","State":"AZ","Zip":"85032"},{"Location":"SHOE DEPT ENCORE #1490","Address":"4550 E Cactus Rd 214","City":"Phoenix","State":"AZ","Zip":"85032"},{"Location":"SHOGUN RESTAURANT","Address":"12615 N Tatum Blvd","City":"Phoenix","State":"AZ","Zip":"85032"},{"Location":"SOCCER MALL AZ COMPLEX","Address":"4727 E Bell Rd 15","City":"Phoenix","State":"AZ","Zip":"85032"},{"Location":"SOLA SALON","Address":"4727 E Cactus Rd","City":"Phoenix","State":"AZ","Zip":"85032"},{"Location":"SOUTH WEST VEIN AND LASER INST","Address":"16601 N 40th St 226","City":"Phoenix","State":"AZ","Zip":"85032"},{"Location":"SPORT CLIPS AZ134","Address":"4655 E Cactus Rd","City":"Phoenix","State":"AZ","Zip":"85032"},{"Location":"STRATEGIC FITNESS SOLUTIONS","Address":"3202 E Greenway Rd 1233","City":"Phoenix","State":"AZ","Zip":"85032"},{"Location":"TARGET","Address":"12602 N Paradise Village Pkwy W","City":"Phoenix","State":"AZ","Zip":"85032"},{"Location":"TATUM DENTAL CARE","Address":"18404 N Tatum Blvd 203","City":"Phoenix","State":"AZ","Zip":"85032"},{"Location":"THAI BASIL SIGNATURE","Address":"4550 E Cactus Rd","City":"Phoenix","State":"AZ","Zip":"85032"},{"Location":"THE CAGES","Address":"2511 E Bell Rd","City":"Phoenix","State":"AZ","Zip":"85032"},{"Location":"THE COMPANION PET","Address":"3129 E Cactus Rd","City":"Phoenix","State":"AZ","Zip":"85032"},{"Location":"THE HAT  BAR","Address":"4550 E Cactus Rd 242","City":"Phoenix","State":"AZ","Zip":"85032"},{"Location":"TIFFANY NAILS  2014","Address":"3111 E Cactus Rd","City":"Phoenix","State":"AZ","Zip":"85032"},{"Location":"TILTED KILT","Address":"4731 E Cactus Rd","City":"Phoenix","State":"AZ","Zip":"85032"},{"Location":"TRUCK MASTERS","Address":"3152 E Bell Rd","City":"Phoenix","State":"AZ","Zip":"85032"},{"Location":"VALLE LUNA MEXICAN FOOD","Address":"16048 N Cave Creek Rd","City":"Phoenix","State":"AZ","Zip":"85032"},{"Location":"VALLEY RADIOLOGISTS","Address":"16641 N 40th St","City":"Phoenix","State":"AZ","Zip":"85032"},{"Location":"VALLEY UROLOGIC ASSOCIATES PHX","Address":"3815 E Bell Rd","City":"Phoenix","State":"AZ","Zip":"85032"},{"Location":"VERA LAUNDROMAT","Address":"15420 N 32nd St 6","City":"Phoenix","State":"AZ","Zip":"85032"},{"Location":"VILLAGE INN 110800","Address":"4040 E Bell Rd","City":"Phoenix","State":"AZ","Zip":"85032"},{"Location":"WENDYS 624","Address":"12630 N Tatum Blvd","City":"Phoenix","State":"AZ","Zip":"85032"},{"Location":"WIRELISS TOYZ 279","Address":"16878 N Cave Creek Rd","City":"Phoenix","State":"AZ","Zip":"85032"},{"Location":"YASU SUHI BISTRO","Address":"4316 E Cactus Rd B4","City":"Phoenix","State":"AZ","Zip":"85032"},{"Location":"YERBERIA D GABERIAL","Address":"2420 E Greenway Rd","City":"Phoenix","State":"AZ","Zip":"85032"}]