[{"Location":"A1 LEASING INC","Address":"2217 E Washington St","City":"Phoenix","State":"AZ","Zip":"85034"},{"Location":"AGING BUT INDEPENDENT","Address":"3922 E University Dr E5","City":"Phoenix","State":"AZ","Zip":"85034"},{"Location":"ALLIED GROUP SALES","Address":"201 S 28th St","City":"Phoenix","State":"AZ","Zip":"85034"},{"Location":"AMERICAN CLEANING SYSTEMS","Address":"1745 E Jackson St","City":"Phoenix","State":"AZ","Zip":"85034"},{"Location":"ARIZONA PEACE OFFICER","Address":"2643 E University Dr","City":"Phoenix","State":"AZ","Zip":"85034"},{"Location":"ARROW ELECTRONICS","Address":"1955 E Sky Harbor Cir N","City":"Phoenix","State":"AZ","Zip":"85034"},{"Location":"AZ PUBLIC AUTO","Address":"4002 E Madison St","City":"Phoenix","State":"AZ","Zip":"85034"},{"Location":"AZCENTRAL.COM","Address":"3500 E Sky Harbor Blvd","City":"Phoenix","State":"AZ","Zip":"85034"},{"Location":"BANK OF AMERICA AZ9-501-01-32","Address":"1825 E Buckeye Rd","City":"Phoenix","State":"AZ","Zip":"85034"},{"Location":"BLUE HAT PARTNERS%2C LLC","Address":"5055 E Washington St","City":"Phoenix","State":"AZ","Zip":"85034"},{"Location":"BOMBARDIER TRANSPORT","Address":"1111 S 44th St","City":"Phoenix","State":"AZ","Zip":"85034"},{"Location":"BOOTZ MANUFACTURING","Address":"25 S 41st St","City":"Phoenix","State":"AZ","Zip":"85034"},{"Location":"BORDER STATES ELECTRIC SUPPLY","Address":"5519 E Washington St","City":"Phoenix","State":"AZ","Zip":"85034"},{"Location":"BROENING OBERG WOOD & WIL #2","Address":"1122 E Jefferson St","City":"Phoenix","State":"AZ","Zip":"85034"},{"Location":"BROENING OBERG WOODS & WILSON","Address":"1144 E Jefferson St","City":"Phoenix","State":"AZ","Zip":"85034"},{"Location":"CED CONSOLIDATED ELECTRICAL D","Address":"4220 E University Dr","City":"Phoenix","State":"AZ","Zip":"85034"},{"Location":"CHASE","Address":"1820 E Sky Harbor Cir S Flr2","City":"Phoenix","State":"AZ","Zip":"85034"},{"Location":"CHICANOS POR LA CAUSA","Address":"1112 E Buckeye Rd","City":"Phoenix","State":"AZ","Zip":"85034"},{"Location":"CITY OF PHOENIX","Address":"3400 E Sky Harbor Blvd","City":"Phoenix","State":"AZ","Zip":"85034"},{"Location":"COC 4600 WASHINGTON LLC","Address":"4600 E Washington St 300","City":"Phoenix","State":"AZ","Zip":"85034"},{"Location":"COMTRANS","Address":"2336 E Magnolia St","City":"Phoenix","State":"AZ","Zip":"85034"},{"Location":"CONCENTRA MEDICAL CENTER","Address":"1818 E Sky Harbor Cir N 150","City":"Phoenix","State":"AZ","Zip":"85034"},{"Location":"COPPER PLATE 2","Address":"3200 E Sky Harbor Blvd F2","City":"Phoenix","State":"AZ","Zip":"85034"},{"Location":"COURTYARD MARRIOT- PHOENIX","Address":"2621 S 47th St","City":"Phoenix","State":"AZ","Zip":"85034"},{"Location":"COWLEY  COMPANIES","Address":"1242 E Jackson St","City":"Phoenix","State":"AZ","Zip":"85034"},{"Location":"CROWN PRESS","Address":"2450 S 24th St","City":"Phoenix","State":"AZ","Zip":"85034"},{"Location":"CSB INDUSTRIES","Address":"1030 E University Dr","City":"Phoenix","State":"AZ","Zip":"85034"},{"Location":"CUTTER AVIATION INC.","Address":"2802 E Old Tower Rd","City":"Phoenix","State":"AZ","Zip":"85034"},{"Location":"DAVIS SALVAGE","Address":"3322 E Washington St","City":"Phoenix","State":"AZ","Zip":"85034"},{"Location":"DAVIS SALVAGE(SCALEHOUSE)","Address":"3322 E Washington St","City":"Phoenix","State":"AZ","Zip":"85034"},{"Location":"DELTA","Address":"3400 E Sky Harbor Blvd","City":"Phoenix","State":"AZ","Zip":"85034"},{"Location":"DESERT NEWS & BOOKS","Address":"3400 E Sky Harbor Blvd 3","City":"Phoenix","State":"AZ","Zip":"85034"},{"Location":"DESERT SCHOOLS FEDERAL CREDIT","Address":"148 N 48th St","City":"Phoenix","State":"AZ","Zip":"85034"},{"Location":"DIAMOND PLATE","Address":"1820 S 7th St","City":"Phoenix","State":"AZ","Zip":"85034"},{"Location":"DPR CONSTRUCTION","Address":"222 N 44th St","City":"Phoenix","State":"AZ","Zip":"85034"},{"Location":"EAST LAKE COMMUNITY CENT","Address":"1549 E Jefferson St","City":"Phoenix","State":"AZ","Zip":"85034"},{"Location":"EMCOR SERVICES ARIZONA","Address":"4125 E Madison St","City":"Phoenix","State":"AZ","Zip":"85034"},{"Location":"EPIQ SYSTEMS INC","Address":"3255 E Elwood St 110","City":"Phoenix","State":"AZ","Zip":"85034"},{"Location":"EXCUTIVE SHOW CLUB","Address":"3845 E University Dr","City":"Phoenix","State":"AZ","Zip":"85034"},{"Location":"EXPRESS MESSENGER","Address":"3401 E Harbour Dr","City":"Phoenix","State":"AZ","Zip":"85034"},{"Location":"FED EX","Address":"3002 E Old Tower Rd","City":"Phoenix","State":"AZ","Zip":"85034"},{"Location":"FEDEX","Address":"4632 E Hammond Ln","City":"Phoenix","State":"AZ","Zip":"85034"},{"Location":"FIRE STATION 19","Address":"3547 E Sky Harbor Blvd","City":"Phoenix","State":"AZ","Zip":"85034"},{"Location":"GOLDEN RULE CAFE","Address":"808 E Jefferson St","City":"Phoenix","State":"AZ","Zip":"85034"},{"Location":"GREY HOUND LINES","Address":"2115 E Buckeye Rd","City":"Phoenix","State":"AZ","Zip":"85034"},{"Location":"HEILIND ELECTRONICS","Address":"5055 E Washington St","City":"Phoenix","State":"AZ","Zip":"85034"},{"Location":"HILTON PHOENIX AIRPORT 0000670","Address":"2435 S 47th St","City":"Phoenix","State":"AZ","Zip":"85034"},{"Location":"HMS HOST  PHXBCE01","Address":"3800 E Sky Harbor Blvd","City":"Phoenix","State":"AZ","Zip":"85034"},{"Location":"HMS HOST LANDMARK","Address":"3400 E Sky Harbor Blvd","City":"Phoenix","State":"AZ","Zip":"85034"},{"Location":"HMS HOST PHXBIA01","Address":"3400 E Sky Harbor Blvd","City":"Phoenix","State":"AZ","Zip":"85034"},{"Location":"HMS HOST PHXCCA01","Address":"3800 E Sky Harbor Blvd","City":"Phoenix","State":"AZ","Zip":"85034"},{"Location":"HMS HOST PHXCKE01","Address":"3800 E Sky Harbor Blvd","City":"Phoenix","State":"AZ","Zip":"85034"},{"Location":"HMS HOST PHXJCT03","Address":"3400 E Sky Harbor Blvd","City":"Phoenix","State":"AZ","Zip":"85034"},{"Location":"HMS HOST PHXOIY01","Address":"3800 E Sky Harbor Blvd","City":"Phoenix","State":"AZ","Zip":"85034"},{"Location":"HMS HOST PHXSAU04","Address":"3400 E Sky Harbor Blvd","City":"Phoenix","State":"AZ","Zip":"85034"},{"Location":"HOLIDAY INN EXPRESS PHOE","Address":"3401 E University Dr I10","City":"Phoenix","State":"AZ","Zip":"85034"},{"Location":"HOMELAND SECURITY","Address":"1330 S 16th St","City":"Phoenix","State":"AZ","Zip":"85034"},{"Location":"HONEYWELL - PHOENIX #3","Address":"1944 E Sky Harbor Cir N","City":"Phoenix","State":"AZ","Zip":"85034"},{"Location":"HONEYWELL INTERNATIONAL","Address":"1944 E Sky Harbor Cir N","City":"Phoenix","State":"AZ","Zip":"85034"},{"Location":"HONEYWELL WELLNESS CENTER","Address":"3301 E Air Ln 142","City":"Phoenix","State":"AZ","Zip":"85034"},{"Location":"HUMBLE PIE","Address":"3800 E Sky Harbor Blvd 4342","City":"Phoenix","State":"AZ","Zip":"85034"},{"Location":"IN AND OUT  BURGER","Address":"1750 E Riverview Dr","City":"Phoenix","State":"AZ","Zip":"85034"},{"Location":"INNOVATIVE DEBT RECOVERY","Address":"2532 E University Dr E350","City":"Phoenix","State":"AZ","Zip":"85034"},{"Location":"INTEGRA - HONEYWELL","Address":"1944 E Sky Harbor Cir N 2102","City":"Phoenix","State":"AZ","Zip":"85034"},{"Location":"INTEGRA-HONEYWELL","Address":"1944 E Sky Harbor Cir N","City":"Phoenix","State":"AZ","Zip":"85034"},{"Location":"ISS BUCKEYE","Address":"1402 E Buckeye Rd","City":"Phoenix","State":"AZ","Zip":"85034"},{"Location":"JPM CHASE BANK","Address":"1820 E Sky Harbor Cir S","City":"Phoenix","State":"AZ","Zip":"85034"},{"Location":"K1 SPEED PHOENIX","Address":"2425 S 21st St 4","City":"Phoenix","State":"AZ","Zip":"85034"},{"Location":"KARBER MECHANICAL INSULATION","Address":"2113 E Adams St","City":"Phoenix","State":"AZ","Zip":"85034"},{"Location":"KELLER ELECTRICAL","Address":"1881 E University Dr","City":"Phoenix","State":"AZ","Zip":"85034"},{"Location":"L & W SUPPLY","Address":"202 S 30th St","City":"Phoenix","State":"AZ","Zip":"85034"},{"Location":"LEO'S BARBER SHOP","Address":"1602 East Jefferson Street","City":"Phoenix","State":"AZ","Zip":"85034"},{"Location":"LIBERTY MUTUAL","Address":"1717 E Grant St 150","City":"Phoenix","State":"AZ","Zip":"85034"},{"Location":"LSG SKY CHEFS","Address":"1449 S 23rd St","City":"Phoenix","State":"AZ","Zip":"85034"},{"Location":"MIDSTATE MECHANICAL","Address":"1850 E Riverview Dr","City":"Phoenix","State":"AZ","Zip":"85034"},{"Location":"MJL MAIN PROPERTIES","Address":"1201 E Jefferson St Suite","City":"Phoenix","State":"AZ","Zip":"85034"},{"Location":"NATURAL IMPRESSION BARBER SHOP","Address":"1418 E Washington St","City":"Phoenix","State":"AZ","Zip":"85034"},{"Location":"NEN'S SHUTTLE","Address":"3520 West Mcdowell Avenue","City":"Phoenix","State":"AZ","Zip":"85034"},{"Location":"NEW HOPE CHRISTIAN CHURC","Address":"2323 E Magnolia St 103","City":"Phoenix","State":"AZ","Zip":"85034"},{"Location":"NYPD","Address":"3200 E Sky Harbor Blvd F1","City":"Phoenix","State":"AZ","Zip":"85034"},{"Location":"PACIFIC INTERNATIONAL MARKETIN","Address":"101 N 7th St","City":"Phoenix","State":"AZ","Zip":"85034"},{"Location":"PERINI BUILDING COMPANY","Address":"5055 E Washington St 210","City":"Phoenix","State":"AZ","Zip":"85034"},{"Location":"PHI MEDICAL AE1 AIR EVAC","Address":"2710 E Old Tower Rd A","City":"Phoenix","State":"AZ","Zip":"85034"},{"Location":"PHOENIX ALE BREWERY","Address":"3002 E Washington St","City":"Phoenix","State":"AZ","Zip":"85034"},{"Location":"PHOENIX NAP","Address":"3402 E University Dr","City":"Phoenix","State":"AZ","Zip":"85034"},{"Location":"PHOENIX PARK AND SWAP","Address":"3801 E Washington St","City":"Phoenix","State":"AZ","Zip":"85034"},{"Location":"PITIC RESTAURANT","Address":"1580 E Pima St","City":"Phoenix","State":"AZ","Zip":"85034"},{"Location":"POWER ONE","Address":"2626 S 7th St","City":"Phoenix","State":"AZ","Zip":"85034"},{"Location":"POWER ONE","Address":"3201 E Harbour Dr","City":"Phoenix","State":"AZ","Zip":"85034"},{"Location":"PROFESSIONAL HOSPITAL SUPPLY","Address":"2601 S 37th St","City":"Phoenix","State":"AZ","Zip":"85034"},{"Location":"PROFESSIONAL PLANT","Address":"2118 S 16th St","City":"Phoenix","State":"AZ","Zip":"85034"},{"Location":"QUALITY STAFFING SERVICES LLC","Address":"1112 E Washington St","City":"Phoenix","State":"AZ","Zip":"85034"},{"Location":"RELIANCE METAL CENTER","Address":"301 S 26th St","City":"Phoenix","State":"AZ","Zip":"85034"},{"Location":"RODEHOUSE RESTAURANT","Address":"2425 S 24th St","City":"Phoenix","State":"AZ","Zip":"85034"},{"Location":"RUBY TUESDAY #5421","Address":"4415 E Monroe St","City":"Phoenix","State":"AZ","Zip":"85034"},{"Location":"S4-F49 ZINC","Address":"3400 E Sky Harbor Blvd S4f49","City":"Phoenix","State":"AZ","Zip":"85034"},{"Location":"SALT RIVER PROJECT","Address":"2727 E Washington St","City":"Phoenix","State":"AZ","Zip":"85034"},{"Location":"SIR VEZAS 3","Address":"3800 E Sky Harbor Blvd S4f51","City":"Phoenix","State":"AZ","Zip":"85034"},{"Location":"SOUTHWEST    STORAGE","Address":"902 S 7th St","City":"Phoenix","State":"AZ","Zip":"85034"},{"Location":"SOUTHWEST AIRLINES","Address":"1251 S 25th Pl 16","City":"Phoenix","State":"AZ","Zip":"85034"},{"Location":"SOUTHWEST AIRLINES FLIGHT OPS","Address":"3800 E Sky Harbor Blvd","City":"Phoenix","State":"AZ","Zip":"85034"},{"Location":"SOUTHWEST AIRWAYS","Address":"3800 E Sky Harbor Blvd","City":"Phoenix","State":"AZ","Zip":"85034"},{"Location":"SPECTRUM LABS","Address":"2801 S 35th St","City":"Phoenix","State":"AZ","Zip":"85034"},{"Location":"SSP AMERICA 1","Address":"3800 E Sky Harbor Blvd 4342","City":"Phoenix","State":"AZ","Zip":"85034"},{"Location":"SSP AMERICA 2","Address":"3800 E Sky Harbor Blvd 4342","City":"Phoenix","State":"AZ","Zip":"85034"},{"Location":"SSP AMERICA CHEUVRONT","Address":"3400 E Sky Harbor Blvd T4f33","City":"Phoenix","State":"AZ","Zip":"85034"},{"Location":"SSP AMERICA FOOD COURT","Address":"3800 E Sky Harbor Blvd 4342","City":"Phoenix","State":"AZ","Zip":"85034"},{"Location":"SUN STATE EQUIPMENT","Address":"5425 E Washington St","City":"Phoenix","State":"AZ","Zip":"85034"},{"Location":"SUN STATE EQUIPMENT 2","Address":"5425 E Washington St","City":"Phoenix","State":"AZ","Zip":"85034"},{"Location":"SUNSTATE EQUIPMENT CO","Address":"5552 E Washington St","City":"Phoenix","State":"AZ","Zip":"85034"},{"Location":"SWIFT AVIATION SERVICES INC","Address":"2710 E Old Tower Rd","City":"Phoenix","State":"AZ","Zip":"85034"},{"Location":"T & T AUTOMOTIVES","Address":"4545 E University Dr","City":"Phoenix","State":"AZ","Zip":"85034"},{"Location":"THE CLEANER PART OF DIRTY","Address":"1008 E Buckeye Rd","City":"Phoenix","State":"AZ","Zip":"85034"},{"Location":"THE CLUB AT PHX","Address":"3800 E Sky Harbor Blvd T4","City":"Phoenix","State":"AZ","Zip":"85034"},{"Location":"THE PARADIES SHOP  CNBC NEWS","Address":"3400 E Sky Harbor Blvd","City":"Phoenix","State":"AZ","Zip":"85034"},{"Location":"THE SPA AT PILGRIM","Address":"1401 E Jefferson St","City":"Phoenix","State":"AZ","Zip":"85034"},{"Location":"TLB CONSULTING LLC","Address":"3400 E Sky Harbor Blvd Acnt2","City":"Phoenix","State":"AZ","Zip":"85034"},{"Location":"TRANSDEV SERVICES","Address":"2425 E Buckeye Rd","City":"Phoenix","State":"AZ","Zip":"85034"},{"Location":"U.S AIRWAY","Address":"4000 E Sky Harbor Blvd","City":"Phoenix","State":"AZ","Zip":"85034"},{"Location":"UNICORN MEDIA LLC","Address":"3402 E University Dr","City":"Phoenix","State":"AZ","Zip":"85034"},{"Location":"UNIFIRST","Address":"104 N 14th St","City":"Phoenix","State":"AZ","Zip":"85034"},{"Location":"UNITED AIRLINES","Address":"3200 E Sky Harbor Blvd Mbr","City":"Phoenix","State":"AZ","Zip":"85034"},{"Location":"UNITED AIRLINES II","Address":"3200 E Sky Harbor Blvd Stec","City":"Phoenix","State":"AZ","Zip":"85034"},{"Location":"UNITED PARCEL SERVICE","Address":"3002 E Old Tower Rd 500","City":"Phoenix","State":"AZ","Zip":"85034"},{"Location":"UNITED RENTALS","Address":"3266 E Washington St","City":"Phoenix","State":"AZ","Zip":"85034"},{"Location":"US AIRWAYS","Address":"4000 E Sky Harbor Blvd","City":"Phoenix","State":"AZ","Zip":"85034"},{"Location":"US AIRWAYS 00","Address":"4000 E Sky Harbor Blvd","City":"Phoenix","State":"AZ","Zip":"85034"},{"Location":"US AIRWAYS C%2FO HINES","Address":"1950 E Buckeye Rd","City":"Phoenix","State":"AZ","Zip":"85034"},{"Location":"US AIRWAYS TERM 3 PARKING","Address":"4000 E Sky Harbor Blvd T4pad","City":"Phoenix","State":"AZ","Zip":"85034"},{"Location":"US AIRWAYS WEST CARGO BASE #C","Address":"4000 E Sky Harbor Blvd T4pad","City":"Phoenix","State":"AZ","Zip":"85034"},{"Location":"US XPRESS","Address":"1250 E Hadley St L1","City":"Phoenix","State":"AZ","Zip":"85034"},{"Location":"USD INC","Address":"1315 E Gibson Ln","City":"Phoenix","State":"AZ","Zip":"85034"},{"Location":"USO ARIZONA AT SKY HARBOR","Address":"3800 E Sky Harbor Blvd 2","City":"Phoenix","State":"AZ","Zip":"85034"},{"Location":"VALLEY METRO","Address":"4600 E Washington St 410","City":"Phoenix","State":"AZ","Zip":"85034"},{"Location":"VFW POST 1710","Address":"1629 E Jackson St","City":"Phoenix","State":"AZ","Zip":"85034"},{"Location":"VILLAGE VOICE HOLDINGS L","Address":"1201 E Jefferson St","City":"Phoenix","State":"AZ","Zip":"85034"},{"Location":"VISTAR","Address":"2434 S 10th St","City":"Phoenix","State":"AZ","Zip":"85034"},{"Location":"WDE INVESTMENTS","Address":"5444 E Washington St","City":"Phoenix","State":"AZ","Zip":"85034"},{"Location":"WHITE ELECTRONIC DESIGNS CORP","Address":"3601 E University Dr","City":"Phoenix","State":"AZ","Zip":"85034"},{"Location":"WILDFLOWERS BREADCOMPANY","Address":"3400 E Sky Harbor Blvd N2-f3","City":"Phoenix","State":"AZ","Zip":"85034"},{"Location":"WINBERRY STERN & OREILLY","Address":"3922 E University Dr E5","City":"Phoenix","State":"AZ","Zip":"85034"},{"Location":"A1 LEASING INC","Address":"2217 E Washington St","City":"Phoenix","State":"AZ","Zip":"85034"},{"Location":"AGING BUT INDEPENDENT","Address":"3922 E University Dr E5","City":"Phoenix","State":"AZ","Zip":"85034"},{"Location":"ALLIED GROUP SALES","Address":"201 S 28th St","City":"Phoenix","State":"AZ","Zip":"85034"},{"Location":"AMERICAN CLEANING SYSTEMS","Address":"1745 E Jackson St","City":"Phoenix","State":"AZ","Zip":"85034"},{"Location":"ARIZONA PEACE OFFICER","Address":"2643 E University Dr","City":"Phoenix","State":"AZ","Zip":"85034"},{"Location":"ARROW ELECTRONICS","Address":"1955 E Sky Harbor Cir N","City":"Phoenix","State":"AZ","Zip":"85034"},{"Location":"AZ PUBLIC AUTO","Address":"4002 E Madison St","City":"Phoenix","State":"AZ","Zip":"85034"},{"Location":"AZCENTRAL.COM","Address":"3500 E Sky Harbor Blvd","City":"Phoenix","State":"AZ","Zip":"85034"},{"Location":"BANK OF AMERICA AZ9-501-01-32","Address":"1825 E Buckeye Rd","City":"Phoenix","State":"AZ","Zip":"85034"},{"Location":"BLUE HAT PARTNERS%2C LLC","Address":"5055 E Washington St","City":"Phoenix","State":"AZ","Zip":"85034"},{"Location":"BOMBARDIER TRANSPORT","Address":"1111 S 44th St","City":"Phoenix","State":"AZ","Zip":"85034"},{"Location":"BOOTZ MANUFACTURING","Address":"25 S 41st St","City":"Phoenix","State":"AZ","Zip":"85034"},{"Location":"BORDER STATES ELECTRIC SUPPLY","Address":"5519 E Washington St","City":"Phoenix","State":"AZ","Zip":"85034"},{"Location":"BROENING OBERG WOOD & WIL #2","Address":"1122 E Jefferson St","City":"Phoenix","State":"AZ","Zip":"85034"},{"Location":"BROENING OBERG WOODS & WILSON","Address":"1144 E Jefferson St","City":"Phoenix","State":"AZ","Zip":"85034"},{"Location":"CED CONSOLIDATED ELECTRICAL D","Address":"4220 E University Dr","City":"Phoenix","State":"AZ","Zip":"85034"},{"Location":"CHASE","Address":"1820 E Sky Harbor Cir S Flr2","City":"Phoenix","State":"AZ","Zip":"85034"},{"Location":"CHICANOS POR LA CAUSA","Address":"1112 E Buckeye Rd","City":"Phoenix","State":"AZ","Zip":"85034"},{"Location":"CITY OF PHOENIX","Address":"3400 E Sky Harbor Blvd","City":"Phoenix","State":"AZ","Zip":"85034"},{"Location":"COC 4600 WASHINGTON LLC","Address":"4600 E Washington St 300","City":"Phoenix","State":"AZ","Zip":"85034"},{"Location":"COMTRANS","Address":"2336 E Magnolia St","City":"Phoenix","State":"AZ","Zip":"85034"},{"Location":"CONCENTRA MEDICAL CENTER","Address":"1818 E Sky Harbor Cir N 150","City":"Phoenix","State":"AZ","Zip":"85034"},{"Location":"COPPER PLATE 2","Address":"3200 E Sky Harbor Blvd F2","City":"Phoenix","State":"AZ","Zip":"85034"},{"Location":"COURTYARD MARRIOT- PHOENIX","Address":"2621 S 47th St","City":"Phoenix","State":"AZ","Zip":"85034"},{"Location":"COWLEY  COMPANIES","Address":"1242 E Jackson St","City":"Phoenix","State":"AZ","Zip":"85034"},{"Location":"CROWN PRESS","Address":"2450 S 24th St","City":"Phoenix","State":"AZ","Zip":"85034"},{"Location":"CSB INDUSTRIES","Address":"1030 E University Dr","City":"Phoenix","State":"AZ","Zip":"85034"},{"Location":"CUTTER AVIATION INC.","Address":"2802 E Old Tower Rd","City":"Phoenix","State":"AZ","Zip":"85034"},{"Location":"DAVIS SALVAGE","Address":"3322 E Washington St","City":"Phoenix","State":"AZ","Zip":"85034"},{"Location":"DAVIS SALVAGE(SCALEHOUSE)","Address":"3322 E Washington St","City":"Phoenix","State":"AZ","Zip":"85034"},{"Location":"DELTA","Address":"3400 E Sky Harbor Blvd","City":"Phoenix","State":"AZ","Zip":"85034"},{"Location":"DESERT NEWS & BOOKS","Address":"3400 E Sky Harbor Blvd 3","City":"Phoenix","State":"AZ","Zip":"85034"},{"Location":"DESERT SCHOOLS FEDERAL CREDIT","Address":"148 N 48th St","City":"Phoenix","State":"AZ","Zip":"85034"},{"Location":"DIAMOND PLATE","Address":"1820 S 7th St","City":"Phoenix","State":"AZ","Zip":"85034"},{"Location":"DPR CONSTRUCTION","Address":"222 N 44th St","City":"Phoenix","State":"AZ","Zip":"85034"},{"Location":"EAST LAKE COMMUNITY CENT","Address":"1549 E Jefferson St","City":"Phoenix","State":"AZ","Zip":"85034"},{"Location":"EMCOR SERVICES ARIZONA","Address":"4125 E Madison St","City":"Phoenix","State":"AZ","Zip":"85034"},{"Location":"EPIQ SYSTEMS INC","Address":"3255 E Elwood St 110","City":"Phoenix","State":"AZ","Zip":"85034"},{"Location":"EXCUTIVE SHOW CLUB","Address":"3845 E University Dr","City":"Phoenix","State":"AZ","Zip":"85034"},{"Location":"EXPRESS MESSENGER","Address":"3401 E Harbour Dr","City":"Phoenix","State":"AZ","Zip":"85034"},{"Location":"FED EX","Address":"3002 E Old Tower Rd","City":"Phoenix","State":"AZ","Zip":"85034"},{"Location":"FEDEX","Address":"4632 E Hammond Ln","City":"Phoenix","State":"AZ","Zip":"85034"},{"Location":"FIRE STATION 19","Address":"3547 E Sky Harbor Blvd","City":"Phoenix","State":"AZ","Zip":"85034"},{"Location":"GOLDEN RULE CAFE","Address":"808 E Jefferson St","City":"Phoenix","State":"AZ","Zip":"85034"},{"Location":"GREY HOUND LINES","Address":"2115 E Buckeye Rd","City":"Phoenix","State":"AZ","Zip":"85034"},{"Location":"HEILIND ELECTRONICS","Address":"5055 E Washington St","City":"Phoenix","State":"AZ","Zip":"85034"},{"Location":"HILTON PHOENIX AIRPORT 0000670","Address":"2435 S 47th St","City":"Phoenix","State":"AZ","Zip":"85034"},{"Location":"HMS HOST  PHXBCE01","Address":"3800 E Sky Harbor Blvd","City":"Phoenix","State":"AZ","Zip":"85034"},{"Location":"HMS HOST LANDMARK","Address":"3400 E Sky Harbor Blvd","City":"Phoenix","State":"AZ","Zip":"85034"},{"Location":"HMS HOST PHXBIA01","Address":"3400 E Sky Harbor Blvd","City":"Phoenix","State":"AZ","Zip":"85034"},{"Location":"HMS HOST PHXCCA01","Address":"3800 E Sky Harbor Blvd","City":"Phoenix","State":"AZ","Zip":"85034"},{"Location":"HMS HOST PHXCKE01","Address":"3800 E Sky Harbor Blvd","City":"Phoenix","State":"AZ","Zip":"85034"},{"Location":"HMS HOST PHXJCT03","Address":"3400 E Sky Harbor Blvd","City":"Phoenix","State":"AZ","Zip":"85034"},{"Location":"HMS HOST PHXOIY01","Address":"3800 E Sky Harbor Blvd","City":"Phoenix","State":"AZ","Zip":"85034"},{"Location":"HMS HOST PHXSAU04","Address":"3400 E Sky Harbor Blvd","City":"Phoenix","State":"AZ","Zip":"85034"},{"Location":"HOLIDAY INN EXPRESS PHOE","Address":"3401 E University Dr I10","City":"Phoenix","State":"AZ","Zip":"85034"},{"Location":"HOMELAND SECURITY","Address":"1330 S 16th St","City":"Phoenix","State":"AZ","Zip":"85034"},{"Location":"HONEYWELL - PHOENIX #3","Address":"1944 E Sky Harbor Cir N","City":"Phoenix","State":"AZ","Zip":"85034"},{"Location":"HONEYWELL INTERNATIONAL","Address":"1944 E Sky Harbor Cir N","City":"Phoenix","State":"AZ","Zip":"85034"},{"Location":"HONEYWELL WELLNESS CENTER","Address":"3301 E Air Ln 142","City":"Phoenix","State":"AZ","Zip":"85034"},{"Location":"HUMBLE PIE","Address":"3800 E Sky Harbor Blvd 4342","City":"Phoenix","State":"AZ","Zip":"85034"},{"Location":"IN AND OUT  BURGER","Address":"1750 E Riverview Dr","City":"Phoenix","State":"AZ","Zip":"85034"},{"Location":"INNOVATIVE DEBT RECOVERY","Address":"2532 E University Dr E350","City":"Phoenix","State":"AZ","Zip":"85034"},{"Location":"INTEGRA - HONEYWELL","Address":"1944 E Sky Harbor Cir N 2102","City":"Phoenix","State":"AZ","Zip":"85034"},{"Location":"INTEGRA-HONEYWELL","Address":"1944 E Sky Harbor Cir N","City":"Phoenix","State":"AZ","Zip":"85034"},{"Location":"ISS BUCKEYE","Address":"1402 E Buckeye Rd","City":"Phoenix","State":"AZ","Zip":"85034"},{"Location":"JPM CHASE BANK","Address":"1820 E Sky Harbor Cir S","City":"Phoenix","State":"AZ","Zip":"85034"},{"Location":"K1 SPEED PHOENIX","Address":"2425 S 21st St 4","City":"Phoenix","State":"AZ","Zip":"85034"},{"Location":"KARBER MECHANICAL INSULATION","Address":"2113 E Adams St","City":"Phoenix","State":"AZ","Zip":"85034"},{"Location":"KELLER ELECTRICAL","Address":"1881 E University Dr","City":"Phoenix","State":"AZ","Zip":"85034"},{"Location":"L & W SUPPLY","Address":"202 S 30th St","City":"Phoenix","State":"AZ","Zip":"85034"},{"Location":"LEO'S BARBER SHOP","Address":"1602 East Jefferson Street","City":"Phoenix","State":"AZ","Zip":"85034"},{"Location":"LIBERTY MUTUAL","Address":"1717 E Grant St 150","City":"Phoenix","State":"AZ","Zip":"85034"},{"Location":"LSG SKY CHEFS","Address":"1449 S 23rd St","City":"Phoenix","State":"AZ","Zip":"85034"},{"Location":"MIDSTATE MECHANICAL","Address":"1850 E Riverview Dr","City":"Phoenix","State":"AZ","Zip":"85034"},{"Location":"MJL MAIN PROPERTIES","Address":"1201 E Jefferson St Suite","City":"Phoenix","State":"AZ","Zip":"85034"},{"Location":"NATURAL IMPRESSION BARBER SHOP","Address":"1418 E Washington St","City":"Phoenix","State":"AZ","Zip":"85034"},{"Location":"NEN'S SHUTTLE","Address":"3520 West Mcdowell Avenue","City":"Phoenix","State":"AZ","Zip":"85034"},{"Location":"NEW HOPE CHRISTIAN CHURC","Address":"2323 E Magnolia St 103","City":"Phoenix","State":"AZ","Zip":"85034"},{"Location":"NYPD","Address":"3200 E Sky Harbor Blvd F1","City":"Phoenix","State":"AZ","Zip":"85034"},{"Location":"PACIFIC INTERNATIONAL MARKETIN","Address":"101 N 7th St","City":"Phoenix","State":"AZ","Zip":"85034"},{"Location":"PERINI BUILDING COMPANY","Address":"5055 E Washington St 210","City":"Phoenix","State":"AZ","Zip":"85034"},{"Location":"PHI MEDICAL AE1 AIR EVAC","Address":"2710 E Old Tower Rd A","City":"Phoenix","State":"AZ","Zip":"85034"},{"Location":"PHOENIX ALE BREWERY","Address":"3002 E Washington St","City":"Phoenix","State":"AZ","Zip":"85034"},{"Location":"PHOENIX NAP","Address":"3402 E University Dr","City":"Phoenix","State":"AZ","Zip":"85034"},{"Location":"PHOENIX PARK AND SWAP","Address":"3801 E Washington St","City":"Phoenix","State":"AZ","Zip":"85034"},{"Location":"PITIC RESTAURANT","Address":"1580 E Pima St","City":"Phoenix","State":"AZ","Zip":"85034"},{"Location":"POWER ONE","Address":"3201 E Harbour Dr","City":"Phoenix","State":"AZ","Zip":"85034"},{"Location":"POWER ONE","Address":"2626 S 7th St","City":"Phoenix","State":"AZ","Zip":"85034"},{"Location":"PROFESSIONAL HOSPITAL SUPPLY","Address":"2601 S 37th St","City":"Phoenix","State":"AZ","Zip":"85034"},{"Location":"PROFESSIONAL PLANT","Address":"2118 S 16th St","City":"Phoenix","State":"AZ","Zip":"85034"},{"Location":"QUALITY STAFFING SERVICES LLC","Address":"1112 E Washington St","City":"Phoenix","State":"AZ","Zip":"85034"},{"Location":"RELIANCE METAL CENTER","Address":"301 S 26th St","City":"Phoenix","State":"AZ","Zip":"85034"},{"Location":"RODEHOUSE RESTAURANT","Address":"2425 S 24th St","City":"Phoenix","State":"AZ","Zip":"85034"},{"Location":"RUBY TUESDAY #5421","Address":"4415 E Monroe St","City":"Phoenix","State":"AZ","Zip":"85034"},{"Location":"S4-F49 ZINC","Address":"3400 E Sky Harbor Blvd S4f49","City":"Phoenix","State":"AZ","Zip":"85034"},{"Location":"SALT RIVER PROJECT","Address":"2727 E Washington St","City":"Phoenix","State":"AZ","Zip":"85034"},{"Location":"SIR VEZAS 3","Address":"3800 E Sky Harbor Blvd S4f51","City":"Phoenix","State":"AZ","Zip":"85034"},{"Location":"SOUTHWEST    STORAGE","Address":"902 S 7th St","City":"Phoenix","State":"AZ","Zip":"85034"},{"Location":"SOUTHWEST AIRLINES","Address":"1251 S 25th Pl 16","City":"Phoenix","State":"AZ","Zip":"85034"},{"Location":"SOUTHWEST AIRLINES FLIGHT OPS","Address":"3800 E Sky Harbor Blvd","City":"Phoenix","State":"AZ","Zip":"85034"},{"Location":"SOUTHWEST AIRWAYS","Address":"3800 E Sky Harbor Blvd","City":"Phoenix","State":"AZ","Zip":"85034"},{"Location":"SPECTRUM LABS","Address":"2801 S 35th St","City":"Phoenix","State":"AZ","Zip":"85034"},{"Location":"SSP AMERICA 1","Address":"3800 E Sky Harbor Blvd 4342","City":"Phoenix","State":"AZ","Zip":"85034"},{"Location":"SSP AMERICA 2","Address":"3800 E Sky Harbor Blvd 4342","City":"Phoenix","State":"AZ","Zip":"85034"},{"Location":"SSP AMERICA CHEUVRONT","Address":"3400 E Sky Harbor Blvd T4f33","City":"Phoenix","State":"AZ","Zip":"85034"},{"Location":"SSP AMERICA FOOD COURT","Address":"3800 E Sky Harbor Blvd 4342","City":"Phoenix","State":"AZ","Zip":"85034"},{"Location":"SUN STATE EQUIPMENT","Address":"5425 E Washington St","City":"Phoenix","State":"AZ","Zip":"85034"},{"Location":"SUN STATE EQUIPMENT 2","Address":"5425 E Washington St","City":"Phoenix","State":"AZ","Zip":"85034"},{"Location":"SUNSTATE EQUIPMENT CO","Address":"5552 E Washington St","City":"Phoenix","State":"AZ","Zip":"85034"},{"Location":"SWIFT AVIATION SERVICES INC","Address":"2710 E Old Tower Rd","City":"Phoenix","State":"AZ","Zip":"85034"},{"Location":"T & T AUTOMOTIVES","Address":"4545 E University Dr","City":"Phoenix","State":"AZ","Zip":"85034"},{"Location":"THE CLEANER PART OF DIRTY","Address":"1008 E Buckeye Rd","City":"Phoenix","State":"AZ","Zip":"85034"},{"Location":"THE CLUB AT PHX","Address":"3800 E Sky Harbor Blvd T4","City":"Phoenix","State":"AZ","Zip":"85034"},{"Location":"THE PARADIES SHOP  CNBC NEWS","Address":"3400 E Sky Harbor Blvd","City":"Phoenix","State":"AZ","Zip":"85034"},{"Location":"THE SPA AT PILGRIM","Address":"1401 E Jefferson St","City":"Phoenix","State":"AZ","Zip":"85034"},{"Location":"TLB CONSULTING LLC","Address":"3400 E Sky Harbor Blvd Acnt2","City":"Phoenix","State":"AZ","Zip":"85034"},{"Location":"TRANSDEV SERVICES","Address":"2425 E Buckeye Rd","City":"Phoenix","State":"AZ","Zip":"85034"},{"Location":"U.S AIRWAY","Address":"4000 E Sky Harbor Blvd","City":"Phoenix","State":"AZ","Zip":"85034"},{"Location":"UNICORN MEDIA LLC","Address":"3402 E University Dr","City":"Phoenix","State":"AZ","Zip":"85034"},{"Location":"UNIFIRST","Address":"104 N 14th St","City":"Phoenix","State":"AZ","Zip":"85034"},{"Location":"UNITED AIRLINES","Address":"3200 E Sky Harbor Blvd Mbr","City":"Phoenix","State":"AZ","Zip":"85034"},{"Location":"UNITED AIRLINES II","Address":"3200 E Sky Harbor Blvd Stec","City":"Phoenix","State":"AZ","Zip":"85034"},{"Location":"UNITED PARCEL SERVICE","Address":"3002 E Old Tower Rd 500","City":"Phoenix","State":"AZ","Zip":"85034"},{"Location":"UNITED RENTALS","Address":"3266 E Washington St","City":"Phoenix","State":"AZ","Zip":"85034"},{"Location":"US AIRWAYS","Address":"4000 E Sky Harbor Blvd","City":"Phoenix","State":"AZ","Zip":"85034"},{"Location":"US AIRWAYS 00","Address":"4000 E Sky Harbor Blvd","City":"Phoenix","State":"AZ","Zip":"85034"},{"Location":"US AIRWAYS C%2FO HINES","Address":"1950 E Buckeye Rd","City":"Phoenix","State":"AZ","Zip":"85034"},{"Location":"US AIRWAYS TERM 3 PARKING","Address":"4000 E Sky Harbor Blvd T4pad","City":"Phoenix","State":"AZ","Zip":"85034"},{"Location":"US AIRWAYS WEST CARGO BASE #C","Address":"4000 E Sky Harbor Blvd T4pad","City":"Phoenix","State":"AZ","Zip":"85034"},{"Location":"US XPRESS","Address":"1250 E Hadley St L1","City":"Phoenix","State":"AZ","Zip":"85034"},{"Location":"USD INC","Address":"1315 E Gibson Ln","City":"Phoenix","State":"AZ","Zip":"85034"},{"Location":"USO ARIZONA AT SKY HARBOR","Address":"3800 E Sky Harbor Blvd 2","City":"Phoenix","State":"AZ","Zip":"85034"},{"Location":"VALLEY METRO","Address":"4600 E Washington St 410","City":"Phoenix","State":"AZ","Zip":"85034"},{"Location":"VFW POST 1710","Address":"1629 E Jackson St","City":"Phoenix","State":"AZ","Zip":"85034"},{"Location":"VILLAGE VOICE HOLDINGS L","Address":"1201 E Jefferson St","City":"Phoenix","State":"AZ","Zip":"85034"},{"Location":"VISTAR","Address":"2434 S 10th St","City":"Phoenix","State":"AZ","Zip":"85034"},{"Location":"WDE INVESTMENTS","Address":"5444 E Washington St","City":"Phoenix","State":"AZ","Zip":"85034"},{"Location":"WHITE ELECTRONIC DESIGNS CORP","Address":"3601 E University Dr","City":"Phoenix","State":"AZ","Zip":"85034"},{"Location":"WILDFLOWERS BREADCOMPANY","Address":"3400 E Sky Harbor Blvd N2-f3","City":"Phoenix","State":"AZ","Zip":"85034"},{"Location":"WINBERRY STERN & OREILLY","Address":"3922 E University Dr E5","City":"Phoenix","State":"AZ","Zip":"85034"}]