[{"Location":"THE NEW KAHLUAS","Address":"5106 N Camelback Rd","City":"Glendale","State":"AZ","Zip":"85031"},{"Location":"ANHEUSER-BUSCH WHLSLR #10261A","Address":"4201 N 45th Ave","City":"Phoenix","State":"AZ","Zip":"85031"},{"Location":"BELAIR MECHANICAL INC","Address":"4201 N 47th Ave","City":"Phoenix","State":"AZ","Zip":"85031"},{"Location":"CHINA CITY SUPER BUFFET","Address":"5301 W Indian School Rd","City":"Phoenix","State":"AZ","Zip":"85031"},{"Location":"CNG RANCH #502","Address":"5802 W Thomas Rd","City":"Phoenix","State":"AZ","Zip":"85031"},{"Location":"DE MI TIERRA","Address":"4344 W Indian School Rd 29","City":"Phoenix","State":"AZ","Zip":"85031"},{"Location":"DELEON ENTERPRISES LLC","Address":"4333 W Camelback Rd","City":"Phoenix","State":"AZ","Zip":"85031"},{"Location":"DISCOUNT CAR WASH","Address":"5025 W Indian School Rd","City":"Phoenix","State":"AZ","Zip":"85031"},{"Location":"FEDERICOS MEX FOOD","Address":"4014 N 43rd Ave","City":"Phoenix","State":"AZ","Zip":"85031"},{"Location":"FEDEX","Address":"4475 N 43rd Ave","City":"Phoenix","State":"AZ","Zip":"85031"},{"Location":"FIRESTONE #013307","Address":"5045 W Indian School Rd","City":"Phoenix","State":"AZ","Zip":"85031"},{"Location":"FMC 62790000","Address":"45002 W Indian School Rd","City":"Phoenix","State":"AZ","Zip":"85031"},{"Location":"HAJOCA PLUMBING","Address":"4330 N 43rd Ave","City":"Phoenix","State":"AZ","Zip":"85031"},{"Location":"IGLESIA CRISTIANA LINAJE","Address":"3101 N 43rd Ave","City":"Phoenix","State":"AZ","Zip":"85031"},{"Location":"JJ SEAFOOD RESTAURANT","Address":"4347 W Indian School Rd","City":"Phoenix","State":"AZ","Zip":"85031"},{"Location":"MARCUS AND LANE INC","Address":"4105 N 51st Ave","City":"Phoenix","State":"AZ","Zip":"85031"},{"Location":"MARICOPA INTEGRATED HEALTH","Address":"4011 N 51st Ave","City":"Phoenix","State":"AZ","Zip":"85031"},{"Location":"MARISCOS ALTATA","Address":"5828 W Indian School Rd","City":"Phoenix","State":"AZ","Zip":"85031"},{"Location":"MILWAUKEE BREWERS MINORS","Address":"3805 N 53rd Ave","City":"Phoenix","State":"AZ","Zip":"85031"},{"Location":"PADILLA","Address":"4333 W Thomas Rd","City":"Phoenix","State":"AZ","Zip":"85031"},{"Location":"PETER  PIIPER PIZZA # 013","Address":"4105 N 51st Ave","City":"Phoenix","State":"AZ","Zip":"85031"},{"Location":"SUPERPAWN SHOP #1379","Address":"5120 W Indian School Rd","City":"Phoenix","State":"AZ","Zip":"85031"},{"Location":"SUSHI MEX","Address":"4324 W Indian School Rd","City":"Phoenix","State":"AZ","Zip":"85031"},{"Location":"THE MILWAUKEE BREWERS","Address":"3600 N 51st Ave","City":"Phoenix","State":"AZ","Zip":"85031"},{"Location":"THE OFFICE PUB","Address":"3501 N 43rd Ave","City":"Phoenix","State":"AZ","Zip":"85031"},{"Location":"THE SIZZLER1","Address":"5060 W Indian School Rd","City":"Phoenix","State":"AZ","Zip":"85031"},{"Location":"TODAYS STYLE NAILS","Address":"4105 N 51st Ave 113","City":"Phoenix","State":"AZ","Zip":"85031"},{"Location":"TORTAS PAQUIME","Address":"4344 W Indian School Rd 1","City":"Phoenix","State":"AZ","Zip":"85031"},{"Location":"WENDYS 622","Address":"5225 W Indian School Rd","City":"Phoenix","State":"AZ","Zip":"85031"},{"Location":"WINGSTOP #637","Address":"5215 W Indian School Rd","City":"Phoenix","State":"AZ","Zip":"85031"}]