[{"Location":"ANYTIME FITNESS 1","Address":"3220 E Baseline Rd 126","City":"Phoenix","State":"AZ","Zip":"85042"},{"Location":"APPLEBEE'S #520 24TH & BASELNE","Address":"2180 E Baseline Rd","City":"Phoenix","State":"AZ","Zip":"85042"},{"Location":"BEST MEDICAL GROUP 2","Address":"325 E Baseline Rd","City":"Phoenix","State":"AZ","Zip":"85042"},{"Location":"CIGNA HEALTH CARE S.M.","Address":"7236 S Central Ave","City":"Phoenix","State":"AZ","Zip":"85042"},{"Location":"FMC 62330000","Address":"26 E Baseline Rd","City":"Phoenix","State":"AZ","Zip":"85042"},{"Location":"FRANKS BARBER SHOP","Address":"702 E Baseline Rd 1","City":"Phoenix","State":"AZ","Zip":"85042"},{"Location":"GALLAGHER'S","Address":"3220 E Baseline Rd","City":"Phoenix","State":"AZ","Zip":"85042"},{"Location":"GARCIA'S BARBER SHOP","Address":"26 E Baseline Rd 128","City":"Phoenix","State":"AZ","Zip":"85042"},{"Location":"GEORGE GERVIN YOUTH CENT","Address":"3838 E Carter Dr","City":"Phoenix","State":"AZ","Zip":"85042"},{"Location":"GREEN GARDENER ASSISTED LIVING","Address":"1730 E Alta Vista Rd","City":"Phoenix","State":"AZ","Zip":"85042"},{"Location":"HOUSE OF HELPS","Address":"2102 E Alta Vista Rd","City":"Phoenix","State":"AZ","Zip":"85042"},{"Location":"INDEPENDENT ELECTRIC SUPPLY","Address":"4707 E Baseline Rd 150","City":"Phoenix","State":"AZ","Zip":"85042"},{"Location":"J D A H LLC","Address":"7520 S 30th Ter","City":"Phoenix","State":"AZ","Zip":"85042"},{"Location":"KTVW TV 33","Address":"6006 S 30th St","City":"Phoenix","State":"AZ","Zip":"85042"},{"Location":"LA FITNESS #4152","Address":"2325 E Baseline Rd","City":"Phoenix","State":"AZ","Zip":"85042"},{"Location":"MARICOPA WINGS #779","Address":"2320 E Baseline Rd 152","City":"Phoenix","State":"AZ","Zip":"85042"},{"Location":"PETER PIPER PIZZA","Address":"6040 S Central Ave","City":"Phoenix","State":"AZ","Zip":"85042"},{"Location":"PLAYAS","Address":"6845 S Central Ave","City":"Phoenix","State":"AZ","Zip":"85042"},{"Location":"PONCHOS MEXICAN FOOD","Address":"7202 S Central Ave Rear","City":"Phoenix","State":"AZ","Zip":"85042"},{"Location":"RASBERRY GOLF MANAGEMENT","Address":"6808 S 32nd St","City":"Phoenix","State":"AZ","Zip":"85042"},{"Location":"RAVEN PHOENIX GOLF CLUB","Address":"3636 E Baseline Rd","City":"Phoenix","State":"AZ","Zip":"85042"},{"Location":"VALLEY SUBS OF ARIZONA","Address":"2415 E Baseline Rd 117","City":"Phoenix","State":"AZ","Zip":"85042"},{"Location":"WORD OF GOD FELLOWSHIP INC.","Address":"10919 S Central Ave 8","City":"Phoenix","State":"AZ","Zip":"85042"},{"Location":"ZOYO NEIGBORHOOD YOGURT","Address":"2415 2415 E Baseline Rd","City":"Phoenix","State":"AZ","Zip":"85042"}]