[{"Location":"AHWATUKEE BARBERS","Address":"12020 S Warner Elliot Loop 118","City":"Phoenix","State":"AZ","Zip":"85044"},{"Location":"AHWATUKEE BOARD OF MNGMT","Address":"4700 E Warner Rd","City":"Phoenix","State":"AZ","Zip":"85044"},{"Location":"AHWATUKEE COUNTRY CLUB","Address":"12432 S 48th St","City":"Phoenix","State":"AZ","Zip":"85044"},{"Location":"ALL STAR SPORTS BAR&GRILL LLC","Address":"4855 E Warner Rd A31","City":"Phoenix","State":"AZ","Zip":"85044"},{"Location":"ARIZONA GRAND RESORT","Address":"8000 S Arizona Grand Grill","City":"Phoenix","State":"AZ","Zip":"85044"},{"Location":"AT HOME FITNESS","Address":"14647 S 50th St B110","City":"Phoenix","State":"AZ","Zip":"85044"},{"Location":"AZ TECH RADIOLOGY OPEN MRI3","Address":"4530 E Ray Rd","City":"Phoenix","State":"AZ","Zip":"85044"},{"Location":"BEAUCHAMP LAW OFFICE","Address":"4425 E Agave Rd 110","City":"Phoenix","State":"AZ","Zip":"85044"},{"Location":"BLEACHERS SPORTS GRILL","Address":"15410 S Mountain Pkwy 109","City":"Phoenix","State":"AZ","Zip":"85044"},{"Location":"BRAD'S PLACE","Address":"4747 E Elliot Rd 23-24","City":"Phoenix","State":"AZ","Zip":"85044"},{"Location":"BREYER LAW OFFICES","Address":"3840 E Ray Rd","City":"Phoenix","State":"AZ","Zip":"85044"},{"Location":"BRUCE BARRO","Address":"4625 E Ray Rd D1","City":"Phoenix","State":"AZ","Zip":"85044"},{"Location":"CACTUS JACK'S BAR & GRILL","Address":"4747 E Elliot Rd 1","City":"Phoenix","State":"AZ","Zip":"85044"},{"Location":"CAFFE BOA","Address":"5063 E Elliot Rd","City":"Phoenix","State":"AZ","Zip":"85044"},{"Location":"CGI TECHNOLOGIES & SOLUTIONS","Address":"10007 S 51st St","City":"Phoenix","State":"AZ","Zip":"85044"},{"Location":"CHARLES SCHWAB & COMPANY #K27","Address":"4701 E Francisco Dr","City":"Phoenix","State":"AZ","Zip":"85044"},{"Location":"CHECK FREE","Address":"4801 E Thistle Landing Dr","City":"Phoenix","State":"AZ","Zip":"85044"},{"Location":"CHOYA WINES LLC","Address":"5030 E Warner Rd","City":"Phoenix","State":"AZ","Zip":"85044"},{"Location":"CHURCHILLS FINE CIGARS 3","Address":"4940 E Ray Rd","City":"Phoenix","State":"AZ","Zip":"85044"},{"Location":"CURBSIDE CYCLERY","Address":"4855 E Warner Rd B10","City":"Phoenix","State":"AZ","Zip":"85044"},{"Location":"CYRACOM","Address":"14415 S 50th St 100","City":"Phoenix","State":"AZ","Zip":"85044"},{"Location":"FLORENCIA PIZZA BISTRO","Address":"3646 E Ray Rd 20","City":"Phoenix","State":"AZ","Zip":"85044"},{"Location":"FOOTHILLS CARWASH","Address":"5010 E Ray Rd","City":"Phoenix","State":"AZ","Zip":"85044"},{"Location":"FOOTHILLS SPORTS MEDICIN","Address":"15410 S Mountain Pkwy 112","City":"Phoenix","State":"AZ","Zip":"85044"},{"Location":"FREEWAY EXECUTIVE SUITE","Address":"10429 S 51st St","City":"Phoenix","State":"AZ","Zip":"85044"},{"Location":"GENTLEMAN JOES BARBER SH","Address":"4940 E Ray Rd B71","City":"Phoenix","State":"AZ","Zip":"85044"},{"Location":"HALO ELECTRONIC LLC","Address":"14647 S 50th St 168","City":"Phoenix","State":"AZ","Zip":"85044"},{"Location":"IMAGINE DENTAL","Address":"4802 E Ray Rd","City":"Phoenix","State":"AZ","Zip":"85044"},{"Location":"JEFF JIRELE INSURANCE AG","Address":"4729 E Ray Rd B3","City":"Phoenix","State":"AZ","Zip":"85044"},{"Location":"JIFFY LUBE #1668","Address":"4848 E Warner Rd","City":"Phoenix","State":"AZ","Zip":"85044"},{"Location":"KEEGAN'S GRILL & TAPROOM-2FHW1","Address":"4723 E Ray Rd","City":"Phoenix","State":"AZ","Zip":"85044"},{"Location":"LA BOXING1","Address":"4825 E Warner Rd 13","City":"Phoenix","State":"AZ","Zip":"85044"},{"Location":"LIBERTY MUTUAL","Address":"14415 S 50th St","City":"Phoenix","State":"AZ","Zip":"85044"},{"Location":"LOS TAQUITOS","Address":"4747 E Elliot Rd 17","City":"Phoenix","State":"AZ","Zip":"85044"},{"Location":"MAGIC DUST LLC","Address":"9633 S 48th St 185","City":"Phoenix","State":"AZ","Zip":"85044"},{"Location":"MELLOW MUSHROOM","Address":"14205 S 50th St","City":"Phoenix","State":"AZ","Zip":"85044"},{"Location":"MEN'S WEARHOUSE #2506","Address":"4933 E Ray Rd 101","City":"Phoenix","State":"AZ","Zip":"85044"},{"Location":"NATIVE NEW YORKER","Address":"5030 E Ray Rd 5","City":"Phoenix","State":"AZ","Zip":"85044"},{"Location":"OASIS HEALTH SYSTEMS","Address":"10827 S 51st St 206","City":"Phoenix","State":"AZ","Zip":"85044"},{"Location":"ON THE BORDER #0031","Address":"5005 E Ray Rd","City":"Phoenix","State":"AZ","Zip":"85044"},{"Location":"ONE STOP NUTRITION","Address":"15425 S 48th St","City":"Phoenix","State":"AZ","Zip":"85044"},{"Location":"OPTICAL  LLC.","Address":"4855 E Warner Rd","City":"Phoenix","State":"AZ","Zip":"85044"},{"Location":"PETER PIPER PIZZA # 053","Address":"4940 E Ray Rd","City":"Phoenix","State":"AZ","Zip":"85044"},{"Location":"RA SUSHI #3003 AHWATUKEE","Address":"4921 E Ray Rd B-1","City":"Phoenix","State":"AZ","Zip":"85044"},{"Location":"RED MOUNTAIN MED SPA","Address":"4722 E Ray Rd 2","City":"Phoenix","State":"AZ","Zip":"85044"},{"Location":"RUFFINO  ITALIAN RESTAURANT","Address":"4902 E Warner Rd","City":"Phoenix","State":"AZ","Zip":"85044"},{"Location":"RUSTLER'S ROOSTE","Address":"8383 S 48th St","City":"Phoenix","State":"AZ","Zip":"85044"},{"Location":"SAFEWAY 0752","Address":"4747 E Elliot Rd","City":"Phoenix","State":"AZ","Zip":"85044"},{"Location":"SPORTS AUTHORITY 795","Address":"4820 E Ray Rd","City":"Phoenix","State":"AZ","Zip":"85044"},{"Location":"SUSHI I BAR AND GRILL","Address":"4855 E Warner Rd A29","City":"Phoenix","State":"AZ","Zip":"85044"},{"Location":"SWAN LOGISTICS","Address":"4980 E Beverly Rd","City":"Phoenix","State":"AZ","Zip":"85044"},{"Location":"SXC HEALTH SOLUTIONS","Address":"4805 E Thistle Landing Dr","City":"Phoenix","State":"AZ","Zip":"85044"},{"Location":"TARGET","Address":"4734 E Ray Rd","City":"Phoenix","State":"AZ","Zip":"85044"},{"Location":"TODAYS DENTAL","Address":"10850 S 48th St","City":"Phoenix","State":"AZ","Zip":"85044"},{"Location":"TRI ZETTO","Address":"14647 S 50th St 150","City":"Phoenix","State":"AZ","Zip":"85044"},{"Location":"UNCLEBEARSBREWHOUSE&GRIL","Address":"4921 E Ray Rd","City":"Phoenix","State":"AZ","Zip":"85044"},{"Location":"UNITED PARCEL SERVICE","Address":"9801 S 51st St 102","City":"Phoenix","State":"AZ","Zip":"85044"},{"Location":"WENDYS 1677","Address":"4902 E Ray Rd","City":"Phoenix","State":"AZ","Zip":"85044"},{"Location":"WOOLAVOR ORTHODONTICS","Address":"4425 E Agave Rd 126","City":"Phoenix","State":"AZ","Zip":"85044"},{"Location":"ZIPPS SPORTS GRILL","Address":"4710 E Warner Rd 2","City":"Phoenix","State":"AZ","Zip":"85044"},{"Location":"ZZEEKS PIZZA","Address":"4825 E Warner Rd D1","City":"Phoenix","State":"AZ","Zip":"85044"}]