[{"Location":"AIR SUPPORT INC","Address":"4010 S 21st St","City":"Phoenix","State":"AZ","Zip":"85040"},{"Location":"ALL COVERED KMBS","Address":"4415 E Cotton Center Blvd 150","City":"Phoenix","State":"AZ","Zip":"85040"},{"Location":"ALLIED TOOL & DYE","Address":"3807 S 7th St","City":"Phoenix","State":"AZ","Zip":"85040"},{"Location":"AMERICAN LEGION #65","Address":"1624 E Broadway Rd","City":"Phoenix","State":"AZ","Zip":"85040"},{"Location":"ANIXTER 1","Address":"4535 E Elwood St 105","City":"Phoenix","State":"AZ","Zip":"85040"},{"Location":"APOLLO GROUP INC","Address":"4025 S Riverpoint Pkwy","City":"Phoenix","State":"AZ","Zip":"85040"},{"Location":"APRIA PHOENIX","Address":"4310 E Cotton Center Blvd 110","City":"Phoenix","State":"AZ","Zip":"85040"},{"Location":"AUTOM","Address":"5226 S 31st Pl","City":"Phoenix","State":"AZ","Zip":"85040"},{"Location":"BAHIA DE GUAYMAS","Address":"4220 S 16th St","City":"Phoenix","State":"AZ","Zip":"85040"},{"Location":"BORDER PRODUCTS CORP","Address":"3880 E Broadway Rd","City":"Phoenix","State":"AZ","Zip":"85040"},{"Location":"CARIS DIAGNOSISTIC","Address":"4610 S 44th Pl","City":"Phoenix","State":"AZ","Zip":"85040"},{"Location":"CARIS DIAGNOSTICS","Address":"4207 E Cotton Center Blvd","City":"Phoenix","State":"AZ","Zip":"85040"},{"Location":"CARIS LIFE SCIENCES","Address":"4750 S 44th Pl","City":"Phoenix","State":"AZ","Zip":"85040"},{"Location":"CENTRAL SOUNDS","Address":"3906 S Central Ave","City":"Phoenix","State":"AZ","Zip":"85040"},{"Location":"CHURCH OF THE LIVING GOD","Address":"1248 E Roeser Rd","City":"Phoenix","State":"AZ","Zip":"85040"},{"Location":"CITY OF PHOENIX","Address":"3443 S Central Ave","City":"Phoenix","State":"AZ","Zip":"85040"},{"Location":"CITY OF PHOENIX POLICE DEPART","Address":"3443 S Central Ave","City":"Phoenix","State":"AZ","Zip":"85040"},{"Location":"CNG RANCH #501","Address":"5833 S Central Ave","City":"Phoenix","State":"AZ","Zip":"85040"},{"Location":"CONSTRUCTION PRODUCT","Address":"3815 E Grove St 4","City":"Phoenix","State":"AZ","Zip":"85040"},{"Location":"COVENTRY HEALTH CARE","Address":"4025 E Cotton Center Blvd 300","City":"Phoenix","State":"AZ","Zip":"85040"},{"Location":"CULVARY PORTFOILIO","Address":"4050 E Cotton Center Blvd","City":"Phoenix","State":"AZ","Zip":"85040"},{"Location":"CVS CAREMARK","Address":"4121 E Cotton Center Blvd","City":"Phoenix","State":"AZ","Zip":"85040"},{"Location":"DALTILE","Address":"3511 E Broadway Rd","City":"Phoenix","State":"AZ","Zip":"85040"},{"Location":"DP AIR CORPORATION","Address":"5216 S 40th St","City":"Phoenix","State":"AZ","Zip":"85040"},{"Location":"DSI PHOENIX SOUTH","Address":"4621 S Central Ave","City":"Phoenix","State":"AZ","Zip":"85040"},{"Location":"DSI SOUTH PHOENIX","Address":"4621 S Central Ave","City":"Phoenix","State":"AZ","Zip":"85040"},{"Location":"FADE TITE BARBERSHOP","Address":"1930 E Broadway Rd","City":"Phoenix","State":"AZ","Zip":"85040"},{"Location":"FEDERICOS BAR AND POOL HALL","Address":"821 E Broadway Rd","City":"Phoenix","State":"AZ","Zip":"85040"},{"Location":"FIRESTONE #013587","Address":"5449 S Central Ave","City":"Phoenix","State":"AZ","Zip":"85040"},{"Location":"FOREVER BEAUTIFUL SALON","Address":"5233 S Central Ave 5","City":"Phoenix","State":"AZ","Zip":"85040"},{"Location":"FRANKS BARBERSHOP","Address":"5841 S Central Ave","City":"Phoenix","State":"AZ","Zip":"85040"},{"Location":"FREEPORT MCMORAN","Address":"4435 E Cotton Center Blvd","City":"Phoenix","State":"AZ","Zip":"85040"},{"Location":"FREEPORT MCMORAN CC4","Address":"4310 E Cotton Center Blvd","City":"Phoenix","State":"AZ","Zip":"85040"},{"Location":"GOODRICH CORPORATION","Address":"3420 S 7th St","City":"Phoenix","State":"AZ","Zip":"85040"},{"Location":"HARLAND CLARKE PO# 3500036706","Address":"4303 E Cotton Center Blvd","City":"Phoenix","State":"AZ","Zip":"85040"},{"Location":"HONEYWELL INTERNATIONAL","Address":"4607 S 35th St","City":"Phoenix","State":"AZ","Zip":"85040"},{"Location":"HONEYWELL-INTEGRA SYSTEM","Address":"4607 S 35th St 6","City":"Phoenix","State":"AZ","Zip":"85040"},{"Location":"HOSE POWER USA CORPORATE","Address":"2937 E Broadway Rd 400","City":"Phoenix","State":"AZ","Zip":"85040"},{"Location":"INDEPENDENT BATTERIES","Address":"1014 E Southern Ave","City":"Phoenix","State":"AZ","Zip":"85040"},{"Location":"INDUSTRIAL METAL SUPPLY CO","Address":"5150 S 48th St","City":"Phoenix","State":"AZ","Zip":"85040"},{"Location":"KENNEDY HYDRAULICS","Address":"4830 S 33rd St","City":"Phoenix","State":"AZ","Zip":"85040"},{"Location":"KIEWIT","Address":"3888 E Broadway Rd","City":"Phoenix","State":"AZ","Zip":"85040"},{"Location":"KTAZ 39%2FLTB","Address":"4625 S 33rd Pl","City":"Phoenix","State":"AZ","Zip":"85040"},{"Location":"LA CANASTA BURRITO SHOPPE","Address":"3202 S 40th St","City":"Phoenix","State":"AZ","Zip":"85040"},{"Location":"LUBRICATION EQUIPMENT CO","Address":"3534 E Broadway Rd","City":"Phoenix","State":"AZ","Zip":"85040"},{"Location":"LUBRICATION EQUIPMENT COMPANY","Address":"3518 E Broadway Rd","City":"Phoenix","State":"AZ","Zip":"85040"},{"Location":"MARISCAL","Address":"5220 S Central Ave","City":"Phoenix","State":"AZ","Zip":"85040"},{"Location":"MARISCOS TRES GENERACION","Address":"220 E Southern Ave 1","City":"Phoenix","State":"AZ","Zip":"85040"},{"Location":"MBI INDUSTRIAL MED 2","Address":"4100 E Broadway Rd","City":"Phoenix","State":"AZ","Zip":"85040"},{"Location":"MCDONALDS 26394","Address":"3130 E Broadway Rd","City":"Phoenix","State":"AZ","Zip":"85040"},{"Location":"MIDLAND CREDIT MNG LLC","Address":"4405 E Cotton Center Blvd","City":"Phoenix","State":"AZ","Zip":"85040"},{"Location":"MUTUAL OF OMAHA BANK","Address":"4950 S 48th St","City":"Phoenix","State":"AZ","Zip":"85040"},{"Location":"NAPA AUTO PARTS","Address":"3707 E Broadway Rd 5","City":"Phoenix","State":"AZ","Zip":"85040"},{"Location":"NEW SUN STAR SUPER BUFFET","Address":"5819 S Central Ave","City":"Phoenix","State":"AZ","Zip":"85040"},{"Location":"OFFICE INTERIORS","Address":"4001 E Broadway Rd B8","City":"Phoenix","State":"AZ","Zip":"85040"},{"Location":"OK BARBERS","Address":"5825 S 16th St","City":"Phoenix","State":"AZ","Zip":"85040"},{"Location":"P2 MANAGEMENT SOLUTIONS LLC","Address":"5730 S 32nd St","City":"Phoenix","State":"AZ","Zip":"85040"},{"Location":"PHOENIX POLICE DEPT","Address":"3945 E Broadway Rd","City":"Phoenix","State":"AZ","Zip":"85040"},{"Location":"PHOENIX RESERVATION CENTER PHX","Address":"2320 E Jones Ave","City":"Phoenix","State":"AZ","Zip":"85040"},{"Location":"PHYSICIAN SALES AND SERV INC","Address":"3103 E Broadway Rd 100","City":"Phoenix","State":"AZ","Zip":"85040"},{"Location":"POOLMAN","Address":"3242 S Central Ave","City":"Phoenix","State":"AZ","Zip":"85040"},{"Location":"PRECISION AUTO PARTS","Address":"1421 E Elwood St","City":"Phoenix","State":"AZ","Zip":"85040"},{"Location":"PRECISUION HOUSING DISTRIBUTER","Address":"3420 S Central Ave","City":"Phoenix","State":"AZ","Zip":"85040"},{"Location":"PROGRESSIVE INSURANCE","Address":"4550 S 44th Pl","City":"Phoenix","State":"AZ","Zip":"85040"},{"Location":"PROJECT EXPLORATION INC","Address":"1701 E Elwood St","City":"Phoenix","State":"AZ","Zip":"85040"},{"Location":"REDBULL DISTRIBUTION CENTER","Address":"4200 E Broadway Rd","City":"Phoenix","State":"AZ","Zip":"85040"},{"Location":"S AND M MOVING SYSTEMS III","Address":"3637 E Miami Ave","City":"Phoenix","State":"AZ","Zip":"85040"},{"Location":"SAFELITE AUTOGLASS","Address":"4440 E Elwood St","City":"Phoenix","State":"AZ","Zip":"85040"},{"Location":"SECURITY GENERAL INTERNATIONAL","Address":"3638 E Southern Ave","City":"Phoenix","State":"AZ","Zip":"85040"},{"Location":"SOUTH MOUNTAIN AUTO SPA","Address":"1523 E Southern Ave","City":"Phoenix","State":"AZ","Zip":"85040"},{"Location":"SOUTHWEST AIRLINES CREDIT UNIO","Address":"2330 E Jones Ave 6","City":"Phoenix","State":"AZ","Zip":"85040"},{"Location":"SPEE-D-TEES","Address":"4002 E Elwood St","City":"Phoenix","State":"AZ","Zip":"85040"},{"Location":"SSF IMPORTED AUTO PARTS","Address":"3906 E Broadway Rd 101","City":"Phoenix","State":"AZ","Zip":"85040"},{"Location":"STATE SEAL COMPANY","Address":"4135 E Wood St","City":"Phoenix","State":"AZ","Zip":"85040"},{"Location":"SUMMIT CONSULTING GROUP","Address":"3230 E Broadway Rd C260","City":"Phoenix","State":"AZ","Zip":"85040"},{"Location":"SUPERPAWN SHOP 1370","Address":"3501 S Central Ave","City":"Phoenix","State":"AZ","Zip":"85040"},{"Location":"SUPIMA","Address":"4141 E Broadway Rd","City":"Phoenix","State":"AZ","Zip":"85040"},{"Location":"SYNCHRONY FINANCIAL%2C PHOENIX","Address":"3150 S 48th St 300","City":"Phoenix","State":"AZ","Zip":"85040"},{"Location":"TEXAS BBQ HOUSE","Address":"5037 S 24th St 3","City":"Phoenix","State":"AZ","Zip":"85040"},{"Location":"THE BBQ CO","Address":"4636 S 36th St","City":"Phoenix","State":"AZ","Zip":"85040"},{"Location":"TRISTAR","Address":"3740 E La Salle St","City":"Phoenix","State":"AZ","Zip":"85040"},{"Location":"TROXELL COMMUNICATIONS","Address":"4830 S 38th St","City":"Phoenix","State":"AZ","Zip":"85040"},{"Location":"UHG COTTON CENTER","Address":"4425 E Cotton Center Blvd","City":"Phoenix","State":"AZ","Zip":"85040"},{"Location":"VANTAGE MOBILITY","Address":"5202 S 28th Pl","City":"Phoenix","State":"AZ","Zip":"85040"},{"Location":"VASQUEZ CATERING","Address":"1110 E Chipman Rd","City":"Phoenix","State":"AZ","Zip":"85040"},{"Location":"VOLVO RENTS","Address":"3820 E Winslow Ave","City":"Phoenix","State":"AZ","Zip":"85040"},{"Location":"WESTERN TREE COMPANY","Address":"3401 E Southern Ave","City":"Phoenix","State":"AZ","Zip":"85040"},{"Location":"WILLOW GROVE BAPTIST CHU","Address":"4401 S 7th Pl","City":"Phoenix","State":"AZ","Zip":"85040"}]