[{"Location":"AGEEZ HAIR CENTER","Address":"542 W Southern Ave","City":"Phoenix","State":"AZ","Zip":"85041"},{"Location":"AMERICAN LEGION POST 5","Address":"3927 W Southern Ave","City":"Phoenix","State":"AZ","Zip":"85041"},{"Location":"CANYON PROVISION","Address":"10037 S 19th Ave","City":"Phoenix","State":"AZ","Zip":"85041"},{"Location":"FRANKS BARBER SHOP","Address":"3424 W Southern Ave 178","City":"Phoenix","State":"AZ","Zip":"85041"},{"Location":"INSPIRATION GROUP HOMES","Address":"6914 S 14th Dr","City":"Phoenix","State":"AZ","Zip":"85041"},{"Location":"INSPIRATIONS GROUP HOME LLC","Address":"2118 W Alta Vista Rd","City":"Phoenix","State":"AZ","Zip":"85041"},{"Location":"INSPIRATIONS GROUP HOME LLC","Address":"2134 W Alta Vista Rd","City":"Phoenix","State":"AZ","Zip":"85041"},{"Location":"JAMES BAKER LLC","Address":"6260 S 35th Ave 178","City":"Phoenix","State":"AZ","Zip":"85041"},{"Location":"MARICOPA INTEGRATED HEALTH SY","Address":"33 W Tamarisk St","City":"Phoenix","State":"AZ","Zip":"85041"},{"Location":"MR CHICKEN LLC","Address":"1717 W Southern Ave 100","City":"Phoenix","State":"AZ","Zip":"85041"},{"Location":"TACO FELIZ","Address":"925 W Dobbins Rd","City":"Phoenix","State":"AZ","Zip":"85041"},{"Location":"THE SILVER PONY","Address":"620 W Dobbins Rd","City":"Phoenix","State":"AZ","Zip":"85041"},{"Location":"UPSCALE BARBER SALON","Address":"3515 W Southern Ave","City":"Phoenix","State":"AZ","Zip":"85041"},{"Location":"YOU NEED NAILS","Address":"3424 W Southern Ave 175","City":"Phoenix","State":"AZ","Zip":"85041"},{"Location":"AGEEZ HAIR CENTER","Address":"542 W Southern Ave","City":"Phoenix","State":"AZ","Zip":"85041"},{"Location":"AMERICAN LEGION POST 5","Address":"3927 W Southern Ave","City":"Phoenix","State":"AZ","Zip":"85041"},{"Location":"CANYON PROVISION","Address":"10037 S 19th Ave","City":"Phoenix","State":"AZ","Zip":"85041"},{"Location":"FRANKS BARBER SHOP","Address":"3424 W Southern Ave 178","City":"Phoenix","State":"AZ","Zip":"85041"},{"Location":"INSPIRATION GROUP HOMES","Address":"6914 S 14th Dr","City":"Phoenix","State":"AZ","Zip":"85041"},{"Location":"INSPIRATIONS GROUP HOME LLC","Address":"2134 W Alta Vista Rd","City":"Phoenix","State":"AZ","Zip":"85041"},{"Location":"INSPIRATIONS GROUP HOME LLC","Address":"2118 W Alta Vista Rd","City":"Phoenix","State":"AZ","Zip":"85041"},{"Location":"JAMES BAKER LLC","Address":"6260 S 35th Ave 178","City":"Phoenix","State":"AZ","Zip":"85041"},{"Location":"MARICOPA INTEGRATED HEALTH SY","Address":"33 W Tamarisk St","City":"Phoenix","State":"AZ","Zip":"85041"},{"Location":"MR CHICKEN LLC","Address":"1717 W Southern Ave 100","City":"Phoenix","State":"AZ","Zip":"85041"},{"Location":"TACO FELIZ","Address":"925 W Dobbins Rd","City":"Phoenix","State":"AZ","Zip":"85041"},{"Location":"THE SILVER PONY","Address":"620 W Dobbins Rd","City":"Phoenix","State":"AZ","Zip":"85041"},{"Location":"UPSCALE BARBER SALON","Address":"3515 W Southern Ave","City":"Phoenix","State":"AZ","Zip":"85041"},{"Location":"YOU NEED NAILS","Address":"3424 W Southern Ave 175","City":"Phoenix","State":"AZ","Zip":"85041"}]