[{"Location":"4802845465","Address":"230 N 48th Ave","City":"Phoenix","State":"AZ","Zip":"85043"},{"Location":"ALEXA AGUILAR","Address":"7110 W Pueblo Ave","City":"Phoenix","State":"AZ","Zip":"85043"},{"Location":"ALIANCE BEVERAGE","Address":"1115 N 47th Ave","City":"Phoenix","State":"AZ","Zip":"85043"},{"Location":"ALLIANCE BEVERAGE1","Address":"1115 N 47th Ave","City":"Phoenix","State":"AZ","Zip":"85043"},{"Location":"ALUMA ART","Address":"4100 S 67th Ave","City":"Phoenix","State":"AZ","Zip":"85043"},{"Location":"AMAZON","Address":"4750 W Mohave St","City":"Phoenix","State":"AZ","Zip":"85043"},{"Location":"AMAZON","Address":"800 N 75th Ave","City":"Phoenix","State":"AZ","Zip":"85043"},{"Location":"AMAZON COM 1","Address":"6835 W Buckeye Rd","City":"Phoenix","State":"AZ","Zip":"85043"},{"Location":"AMAZON.COM","Address":"6835 W Buckeye Rd","City":"Phoenix","State":"AZ","Zip":"85043"},{"Location":"ARIZONA TRUCK ENGINE","Address":"5139 W Latham St","City":"Phoenix","State":"AZ","Zip":"85043"},{"Location":"BURGER KING #16208","Address":"350 N 67th Ave","City":"Phoenix","State":"AZ","Zip":"85043"},{"Location":"CAL JET","Address":"5601 W Van Buren St","City":"Phoenix","State":"AZ","Zip":"85043"},{"Location":"CAPITAL LUMBER","Address":"33 N 45th Ave","City":"Phoenix","State":"AZ","Zip":"85043"},{"Location":"CELGENE CORPORATION","Address":"620 N 51st Ave","City":"Phoenix","State":"AZ","Zip":"85043"},{"Location":"CINTAS CORP INC","Address":"5501 W Hadley St","City":"Phoenix","State":"AZ","Zip":"85043"},{"Location":"CJ S EXPRESS","Address":"4901 W Van Buren St 2","City":"Phoenix","State":"AZ","Zip":"85043"},{"Location":"CONCENTRA","Address":"5340 W Buckeye Rd 3","City":"Phoenix","State":"AZ","Zip":"85043"},{"Location":"DANNYS A BIG RIG RESORT","Address":"6741 W Latham St","City":"Phoenix","State":"AZ","Zip":"85043"},{"Location":"DANNYS FAMILY TRUCK WASH","Address":"5722 W Latham St","City":"Phoenix","State":"AZ","Zip":"85043"},{"Location":"DC LOGISTICS","Address":"405 N 75th Ave 106","City":"Phoenix","State":"AZ","Zip":"85043"},{"Location":"DENNYS","Address":"6700 W Latham St","City":"Phoenix","State":"AZ","Zip":"85043"},{"Location":"DIAMOND MANOR ADULT CARE","Address":"7330 W Getty Dr","City":"Phoenix","State":"AZ","Zip":"85043"},{"Location":"DISCOUNT TIRE","Address":"2300 S 51st Ave 140","City":"Phoenix","State":"AZ","Zip":"85043"},{"Location":"DOMINOS PIZZA DISTRIBUTION","Address":"5216 W Mohave St","City":"Phoenix","State":"AZ","Zip":"85043"},{"Location":"DRPT","Address":"831 S 59th Ave","City":"Phoenix","State":"AZ","Zip":"85043"},{"Location":"FMC 62760000","Address":"5546 W Roosevelt St 1","City":"Phoenix","State":"AZ","Zip":"85043"},{"Location":"G AND K SERVICES","Address":"4804 W Roosevelt St","City":"Phoenix","State":"AZ","Zip":"85043"},{"Location":"GNC","Address":"1002 S 63rd Ave","City":"Phoenix","State":"AZ","Zip":"85043"},{"Location":"GRECO AND SONS","Address":"402 S 63rd Ave","City":"Phoenix","State":"AZ","Zip":"85043"},{"Location":"HARDROCK CONCRETE PLACEM","Address":"4839 W Brill St","City":"Phoenix","State":"AZ","Zip":"85043"},{"Location":"HENDRIX SALVAGE","Address":"3125 S 51st Ave","City":"Phoenix","State":"AZ","Zip":"85043"},{"Location":"HOME DEPOT","Address":"300 S 55th Ave","City":"Phoenix","State":"AZ","Zip":"85043"},{"Location":"HUMANA 01834 044","Address":"4302 W Buckeye Rd","City":"Phoenix","State":"AZ","Zip":"85043"},{"Location":"IDS DENTAL SERVICES","Address":"2620 S 83rd Ave 104","City":"Phoenix","State":"AZ","Zip":"85043"},{"Location":"INLAND KENWORTH%2C INC.","Address":"1021 N 59th Ave","City":"Phoenix","State":"AZ","Zip":"85043"},{"Location":"JIFFY LUBE #3230","Address":"7836 W Lower Buckeye Rd","City":"Phoenix","State":"AZ","Zip":"85043"},{"Location":"LAGASSE","Address":"1002 S 63rd Ave 104","City":"Phoenix","State":"AZ","Zip":"85043"},{"Location":"LIBERTY FUEL","Address":"1201 N 59th Ave","City":"Phoenix","State":"AZ","Zip":"85043"},{"Location":"MARSHALLS DISTRIBUTION CENTER","Address":"3000 S 55th Ave","City":"Phoenix","State":"AZ","Zip":"85043"},{"Location":"MCDONALDS","Address":"1532 N 51st Ave","City":"Phoenix","State":"AZ","Zip":"85043"},{"Location":"MCDONALDS1","Address":"6650 W Van Buren St","City":"Phoenix","State":"AZ","Zip":"85043"},{"Location":"METRO AUTO AUCTION","Address":"2475 S 59th Ave","City":"Phoenix","State":"AZ","Zip":"85043"},{"Location":"MIKE AREFI LLC","Address":"4323 W Van Buren St","City":"Phoenix","State":"AZ","Zip":"85043"},{"Location":"MOR FURNITURE 4","Address":"6825 W Buckeye Rd 4","City":"Phoenix","State":"AZ","Zip":"85043"},{"Location":"NETWORK TRANSPORTATION","Address":"825 S 63rd Ave","City":"Phoenix","State":"AZ","Zip":"85043"},{"Location":"NIVEL PARTS","Address":"2300 S 51st Ave 120","City":"Phoenix","State":"AZ","Zip":"85043"},{"Location":"O'BRIEN CONCRETE PUMPING ARIZO","Address":"4715 W Buckeye Rd","City":"Phoenix","State":"AZ","Zip":"85043"},{"Location":"ONE SOURCE COMMERCIAL","Address":"7150 W Roosevelt St B-141","City":"Phoenix","State":"AZ","Zip":"85043"},{"Location":"PETS MART","Address":"7650 W Latham St","City":"Phoenix","State":"AZ","Zip":"85043"},{"Location":"PETSMART FISH DEPT","Address":"7650 W Latham St","City":"Phoenix","State":"AZ","Zip":"85043"},{"Location":"PHOENIX TIRE","Address":"4820 W Buckeye Rd","City":"Phoenix","State":"AZ","Zip":"85043"},{"Location":"PILKINGTON","Address":"7375 W Buckeye Rd 2","City":"Phoenix","State":"AZ","Zip":"85043"},{"Location":"PILOT FLYING J #61100","Address":"6700 W Latham St","City":"Phoenix","State":"AZ","Zip":"85043"},{"Location":"PIT STOP BAR","Address":"1500 N 51st Ave","City":"Phoenix","State":"AZ","Zip":"85043"},{"Location":"ROSS OUTDOORS","Address":"5825 W Van Buren St","City":"Phoenix","State":"AZ","Zip":"85043"},{"Location":"RWC LTD","Address":"600 N 75th Ave","City":"Phoenix","State":"AZ","Zip":"85043"},{"Location":"SAMURAI SAMS","Address":"5340 W Buckeye Rd","City":"Phoenix","State":"AZ","Zip":"85043"},{"Location":"SMOKIES SMOKE SHOP","Address":"8240 W Lower Buckeye Rd 104","City":"Phoenix","State":"AZ","Zip":"85043"},{"Location":"SOUTHERN WINE AND SPIRITS","Address":"2375 S 45th Ave","City":"Phoenix","State":"AZ","Zip":"85043"},{"Location":"STEWART TRANSPORT","Address":"5750 W Roosevelt St","City":"Phoenix","State":"AZ","Zip":"85043"},{"Location":"SUPER STAR CAR WASH","Address":"7830 W Lower Buckeye Rd","City":"Phoenix","State":"AZ","Zip":"85043"},{"Location":"SUPERPAWN SHOP 1369","Address":"1075 N 51st Ave","City":"Phoenix","State":"AZ","Zip":"85043"},{"Location":"SWIFT TRANSPORTATION CO","Address":"2200 S 75th Ave","City":"Phoenix","State":"AZ","Zip":"85043"},{"Location":"TAQUITOS & BEER","Address":"7710 W Lower Buckeye Rd 107","City":"Phoenix","State":"AZ","Zip":"85043"},{"Location":"TYCO FIRE PROTECTION","Address":"801 S 75th Ave 130","City":"Phoenix","State":"AZ","Zip":"85043"},{"Location":"UNITED PETROLEUM TRANSPORTS","Address":"6021 W Sherman St","City":"Phoenix","State":"AZ","Zip":"85043"},{"Location":"US FOOD SERVICE","Address":"4650 W Buckeye Rd","City":"Phoenix","State":"AZ","Zip":"85043"},{"Location":"4802845465","Address":"230 N 48th Ave","City":"Phoenix","State":"AZ","Zip":"85043"},{"Location":"ALEXA AGUILAR","Address":"7110 W Pueblo Ave","City":"Phoenix","State":"AZ","Zip":"85043"},{"Location":"ALIANCE BEVERAGE","Address":"1115 N 47th Ave","City":"Phoenix","State":"AZ","Zip":"85043"},{"Location":"ALLIANCE BEVERAGE1","Address":"1115 N 47th Ave","City":"Phoenix","State":"AZ","Zip":"85043"},{"Location":"ALUMA ART","Address":"4100 S 67th Ave","City":"Phoenix","State":"AZ","Zip":"85043"},{"Location":"AMAZON","Address":"800 N 75th Ave","City":"Phoenix","State":"AZ","Zip":"85043"},{"Location":"AMAZON","Address":"4750 W Mohave St","City":"Phoenix","State":"AZ","Zip":"85043"},{"Location":"AMAZON COM 1","Address":"6835 W Buckeye Rd","City":"Phoenix","State":"AZ","Zip":"85043"},{"Location":"AMAZON.COM","Address":"6835 W Buckeye Rd","City":"Phoenix","State":"AZ","Zip":"85043"},{"Location":"ARIZONA TRUCK ENGINE","Address":"5139 W Latham St","City":"Phoenix","State":"AZ","Zip":"85043"},{"Location":"BURGER KING #16208","Address":"350 N 67th Ave","City":"Phoenix","State":"AZ","Zip":"85043"},{"Location":"CAL JET","Address":"5601 W Van Buren St","City":"Phoenix","State":"AZ","Zip":"85043"},{"Location":"CAPITAL LUMBER","Address":"33 N 45th Ave","City":"Phoenix","State":"AZ","Zip":"85043"},{"Location":"CELGENE CORPORATION","Address":"620 N 51st Ave","City":"Phoenix","State":"AZ","Zip":"85043"},{"Location":"CINTAS CORP INC","Address":"5501 W Hadley St","City":"Phoenix","State":"AZ","Zip":"85043"},{"Location":"CJ S EXPRESS","Address":"4901 W Van Buren St 2","City":"Phoenix","State":"AZ","Zip":"85043"},{"Location":"CONCENTRA","Address":"5340 W Buckeye Rd 3","City":"Phoenix","State":"AZ","Zip":"85043"},{"Location":"DANNYS A BIG RIG RESORT","Address":"6741 W Latham St","City":"Phoenix","State":"AZ","Zip":"85043"},{"Location":"DANNYS FAMILY TRUCK WASH","Address":"5722 W Latham St","City":"Phoenix","State":"AZ","Zip":"85043"},{"Location":"DC LOGISTICS","Address":"405 N 75th Ave 106","City":"Phoenix","State":"AZ","Zip":"85043"},{"Location":"DENNYS","Address":"6700 W Latham St","City":"Phoenix","State":"AZ","Zip":"85043"},{"Location":"DIAMOND MANOR ADULT CARE","Address":"7330 W Getty Dr","City":"Phoenix","State":"AZ","Zip":"85043"},{"Location":"DISCOUNT TIRE","Address":"2300 S 51st Ave 140","City":"Phoenix","State":"AZ","Zip":"85043"},{"Location":"DOMINOS PIZZA DISTRIBUTION","Address":"5216 W Mohave St","City":"Phoenix","State":"AZ","Zip":"85043"},{"Location":"DRPT","Address":"831 S 59th Ave","City":"Phoenix","State":"AZ","Zip":"85043"},{"Location":"FMC 62760000","Address":"5546 W Roosevelt St 1","City":"Phoenix","State":"AZ","Zip":"85043"},{"Location":"G AND K SERVICES","Address":"4804 W Roosevelt St","City":"Phoenix","State":"AZ","Zip":"85043"},{"Location":"GNC","Address":"1002 S 63rd Ave","City":"Phoenix","State":"AZ","Zip":"85043"},{"Location":"GRECO AND SONS","Address":"402 S 63rd Ave","City":"Phoenix","State":"AZ","Zip":"85043"},{"Location":"HARDROCK CONCRETE PLACEM","Address":"4839 W Brill St","City":"Phoenix","State":"AZ","Zip":"85043"},{"Location":"HENDRIX SALVAGE","Address":"3125 S 51st Ave","City":"Phoenix","State":"AZ","Zip":"85043"},{"Location":"HOME DEPOT","Address":"300 S 55th Ave","City":"Phoenix","State":"AZ","Zip":"85043"},{"Location":"HUMANA 01834 044","Address":"4302 W Buckeye Rd","City":"Phoenix","State":"AZ","Zip":"85043"},{"Location":"IDS DENTAL SERVICES","Address":"2620 S 83rd Ave 104","City":"Phoenix","State":"AZ","Zip":"85043"},{"Location":"INLAND KENWORTH%2C INC.","Address":"1021 N 59th Ave","City":"Phoenix","State":"AZ","Zip":"85043"},{"Location":"JIFFY LUBE #3230","Address":"7836 W Lower Buckeye Rd","City":"Phoenix","State":"AZ","Zip":"85043"},{"Location":"LAGASSE","Address":"1002 S 63rd Ave 104","City":"Phoenix","State":"AZ","Zip":"85043"},{"Location":"LIBERTY FUEL","Address":"1201 N 59th Ave","City":"Phoenix","State":"AZ","Zip":"85043"},{"Location":"MARSHALLS DISTRIBUTION CENTER","Address":"3000 S 55th Ave","City":"Phoenix","State":"AZ","Zip":"85043"},{"Location":"MCDONALDS","Address":"1532 N 51st Ave","City":"Phoenix","State":"AZ","Zip":"85043"},{"Location":"MCDONALDS1","Address":"6650 W Van Buren St","City":"Phoenix","State":"AZ","Zip":"85043"},{"Location":"METRO AUTO AUCTION","Address":"2475 S 59th Ave","City":"Phoenix","State":"AZ","Zip":"85043"},{"Location":"MIKE AREFI LLC","Address":"4323 W Van Buren St","City":"Phoenix","State":"AZ","Zip":"85043"},{"Location":"MOR FURNITURE 4","Address":"6825 W Buckeye Rd 4","City":"Phoenix","State":"AZ","Zip":"85043"},{"Location":"NETWORK TRANSPORTATION","Address":"825 S 63rd Ave","City":"Phoenix","State":"AZ","Zip":"85043"},{"Location":"NIVEL PARTS","Address":"2300 S 51st Ave 120","City":"Phoenix","State":"AZ","Zip":"85043"},{"Location":"O'BRIEN CONCRETE PUMPING ARIZO","Address":"4715 W Buckeye Rd","City":"Phoenix","State":"AZ","Zip":"85043"},{"Location":"ONE SOURCE COMMERCIAL","Address":"7150 W Roosevelt St B-141","City":"Phoenix","State":"AZ","Zip":"85043"},{"Location":"PETS MART","Address":"7650 W Latham St","City":"Phoenix","State":"AZ","Zip":"85043"},{"Location":"PETSMART FISH DEPT","Address":"7650 W Latham St","City":"Phoenix","State":"AZ","Zip":"85043"},{"Location":"PHOENIX TIRE","Address":"4820 W Buckeye Rd","City":"Phoenix","State":"AZ","Zip":"85043"},{"Location":"PILKINGTON","Address":"7375 W Buckeye Rd 2","City":"Phoenix","State":"AZ","Zip":"85043"},{"Location":"PILOT FLYING J #61100","Address":"6700 W Latham St","City":"Phoenix","State":"AZ","Zip":"85043"},{"Location":"PIT STOP BAR","Address":"1500 N 51st Ave","City":"Phoenix","State":"AZ","Zip":"85043"},{"Location":"ROSS OUTDOORS","Address":"5825 W Van Buren St","City":"Phoenix","State":"AZ","Zip":"85043"},{"Location":"RWC LTD","Address":"600 N 75th Ave","City":"Phoenix","State":"AZ","Zip":"85043"},{"Location":"SAMURAI SAMS","Address":"5340 W Buckeye Rd","City":"Phoenix","State":"AZ","Zip":"85043"},{"Location":"SMOKIES SMOKE SHOP","Address":"8240 W Lower Buckeye Rd 104","City":"Phoenix","State":"AZ","Zip":"85043"},{"Location":"SOUTHERN WINE AND SPIRITS","Address":"2375 S 45th Ave","City":"Phoenix","State":"AZ","Zip":"85043"},{"Location":"STEWART TRANSPORT","Address":"5750 W Roosevelt St","City":"Phoenix","State":"AZ","Zip":"85043"},{"Location":"SUPER STAR CAR WASH","Address":"7830 W Lower Buckeye Rd","City":"Phoenix","State":"AZ","Zip":"85043"},{"Location":"SUPERPAWN SHOP 1369","Address":"1075 N 51st Ave","City":"Phoenix","State":"AZ","Zip":"85043"},{"Location":"SWIFT TRANSPORTATION CO","Address":"2200 S 75th Ave","City":"Phoenix","State":"AZ","Zip":"85043"},{"Location":"TAQUITOS & BEER","Address":"7710 W Lower Buckeye Rd 107","City":"Phoenix","State":"AZ","Zip":"85043"},{"Location":"TYCO FIRE PROTECTION","Address":"801 S 75th Ave 130","City":"Phoenix","State":"AZ","Zip":"85043"},{"Location":"UNITED PETROLEUM TRANSPORTS","Address":"6021 W Sherman St","City":"Phoenix","State":"AZ","Zip":"85043"},{"Location":"US FOOD SERVICE","Address":"4650 W Buckeye Rd","City":"Phoenix","State":"AZ","Zip":"85043"}]