[{"Location":"AHWATUKEE FOOTHILL HEALTH CENT","Address":"4545 E Chandler Blvd 101","City":"Phoenix","State":"AZ","Zip":"85048"},{"Location":"ARRIBA MEXICAN GRILL","Address":"4649 E Chandler Blvd","City":"Phoenix","State":"AZ","Zip":"85048"},{"Location":"BAMBOO NAILS & SPA","Address":"4645 E Chandler Blvd 108","City":"Phoenix","State":"AZ","Zip":"85048"},{"Location":"BELLA VISTA DENTAL CARE GROUP","Address":"15715 S 46th St 104","City":"Phoenix","State":"AZ","Zip":"85048"},{"Location":"CKS TAVERN & GRILL","Address":"4142 E Chandler Blvd","City":"Phoenix","State":"AZ","Zip":"85048"},{"Location":"DIRECT LINE HOSPITALTY","Address":"16725 S Desert Foothills Pkwy 102","City":"Phoenix","State":"AZ","Zip":"85048"},{"Location":"EXPRESS AUTOMOTIVE","Address":"15629 S Desert Foothills Pkwy","City":"Phoenix","State":"AZ","Zip":"85048"},{"Location":"FMC 62360000","Address":"4629 E Chandler Blvd","City":"Phoenix","State":"AZ","Zip":"85048"},{"Location":"FOOTHILL FITNESS 24%2F7 LLC","Address":"1420 E Chandler Blvd 104","City":"Phoenix","State":"AZ","Zip":"85048"},{"Location":"FOOTHILLS GOLF CLUB","Address":"2201 E Clubhouse Dr","City":"Phoenix","State":"AZ","Zip":"85048"},{"Location":"HONK KONG GOURMET","Address":"4909 E Chandler Blvd 500","City":"Phoenix","State":"AZ","Zip":"85048"},{"Location":"JERSEY MIKES SUBS #9006","Address":"4605 E Chandler Blvd A","City":"Phoenix","State":"AZ","Zip":"85048"},{"Location":"JIFFY LUBE #3386","Address":"15422 S Market Way Ne","City":"Phoenix","State":"AZ","Zip":"85048"},{"Location":"K-BELLA SALON & SPA","Address":"1339 E Chandler Blvd 102","City":"Phoenix","State":"AZ","Zip":"85048"},{"Location":"KACHINA FAMILY PRACTICE%2C P.A","Address":"16611 So 40th St S 120","City":"Phoenix","State":"AZ","Zip":"85048"},{"Location":"KELLAR WILLIAMS REALTY","Address":"4621 E Chandler Blvd 180","City":"Phoenix","State":"AZ","Zip":"85048"},{"Location":"KNOCK EM OUT BARBER","Address":"4142 E Chandler Blvd","City":"Phoenix","State":"AZ","Zip":"85048"},{"Location":"LA FITNESS #118","Address":"4836 E Chandler Blvd","City":"Phoenix","State":"AZ","Zip":"85048"},{"Location":"LEFTYS BARBER SHOP","Address":"4910 E Chandler Blvd 103","City":"Phoenix","State":"AZ","Zip":"85048"},{"Location":"LEGEND NAILS","Address":"4909 E Chandler Blvd 503","City":"Phoenix","State":"AZ","Zip":"85048"},{"Location":"LOCO PATRON","Address":"1327 E Chandler Blvd 108","City":"Phoenix","State":"AZ","Zip":"85048"},{"Location":"LYNN HENNESY INSURANCE","Address":"4645 E Chandler Blvd 110","City":"Phoenix","State":"AZ","Zip":"85048"},{"Location":"MOUNTAINSIDE FAMILY DENTAL","Address":"3961 E Chandler Blvd 104","City":"Phoenix","State":"AZ","Zip":"85048"},{"Location":"NATIVE NEW YORKER","Address":"1339 E Chandler Blvd 101","City":"Phoenix","State":"AZ","Zip":"85048"},{"Location":"SAFEWAY 1201","Address":"4005 E Chandler Blvd","City":"Phoenix","State":"AZ","Zip":"85048"},{"Location":"SAFEWAY 1980","Address":"1334 E Chandler Blvd","City":"Phoenix","State":"AZ","Zip":"85048"},{"Location":"SPINATOS PIZZA 3","Address":"4848 E Chandler Blvd","City":"Phoenix","State":"AZ","Zip":"85048"},{"Location":"SPORT CLIPS AZ106","Address":"4645 E Chandler Blvd","City":"Phoenix","State":"AZ","Zip":"85048"},{"Location":"SUSHI KEN JAPANESE RESTA","Address":"4206 E Chandler Blvd","City":"Phoenix","State":"AZ","Zip":"85048"},{"Location":"TINDER BOX #377","Address":"4611 E Chandler Blvd","City":"Phoenix","State":"AZ","Zip":"85048"},{"Location":"TUKEES SPORTS GRILL","Address":"4804 E Chandler Blvd 100","City":"Phoenix","State":"AZ","Zip":"85048"},{"Location":"UNWINED BAR & BISTRO","Address":"1334 E Chandler Blvd 11","City":"Phoenix","State":"AZ","Zip":"85048"},{"Location":"V ONE SALON","Address":"15725 S 46th St 108","City":"Phoenix","State":"AZ","Zip":"85048"},{"Location":"VABENE","Address":"4647 E Chandler Blvd","City":"Phoenix","State":"AZ","Zip":"85048"},{"Location":"WENDYS 8596","Address":"4915 E Chandler Blvd","City":"Phoenix","State":"AZ","Zip":"85048"},{"Location":"YOASIS","Address":"1304 E Chandler Blvd 104","City":"Phoenix","State":"AZ","Zip":"85048"},{"Location":"ZOYO","Address":"4923 E Chandler Blvd 301","City":"Phoenix","State":"AZ","Zip":"85048"}]