[{"Location":"ACS HOPE LODGE 3","Address":"5811 E Mayo Blvd","City":"Phoenix","State":"AZ","Zip":"85054"},{"Location":"ALLIANCE HOME LOANS","Address":"5410 E High St 200","City":"Phoenix","State":"AZ","Zip":"85054"},{"Location":"ALLIED WASTE INDUSTRIES","Address":"6969 E Mayo Blvd","City":"Phoenix","State":"AZ","Zip":"85054"},{"Location":"AMERICAN CANCER SOCIETY","Address":"5811 E Mayo Blvd","City":"Phoenix","State":"AZ","Zip":"85054"},{"Location":"BASSETT FURNITURE DIRECT","Address":"7000 E Mayo Blvd 25","City":"Phoenix","State":"AZ","Zip":"85054"},{"Location":"BHF RG CAPITAL","Address":"5415 E High St 265","City":"Phoenix","State":"AZ","Zip":"85054"},{"Location":"BLUE 32 PHOENIX","Address":"7000 E Mayo Blvd 1072","City":"Phoenix","State":"AZ","Zip":"85054"},{"Location":"BLUE AGAVE MEXICAN CANTINA","Address":"7000 E Mayo Blvd 1056","City":"Phoenix","State":"AZ","Zip":"85054"},{"Location":"BLUE MARTINIE PHOENIX","Address":"5455 E High St 101","City":"Phoenix","State":"AZ","Zip":"85054"},{"Location":"BOURBON JACKS-MAYO BLVD","Address":"7000 E Mayo Blvd Bldg5","City":"Phoenix","State":"AZ","Zip":"85054"},{"Location":"DESIGN SOURCE FURNITURE","Address":"7000 E Mayo Blvd 19","City":"Phoenix","State":"AZ","Zip":"85054"},{"Location":"DESTINATION MATERNITY","Address":"18560 N Scottsdale Rd","City":"Phoenix","State":"AZ","Zip":"85054"},{"Location":"DR DENTISTRY","Address":"5135 E High St 115","City":"Phoenix","State":"AZ","Zip":"85054"},{"Location":"FELTEN GROUP","Address":"18325 N Allied Way 200","City":"Phoenix","State":"AZ","Zip":"85054"},{"Location":"FOCAL POINT SALON","Address":"7025 E Mayo Blvd","City":"Phoenix","State":"AZ","Zip":"85054"},{"Location":"GLOBAL TRANZ","Address":"5415 E High St","City":"Phoenix","State":"AZ","Zip":"85054"},{"Location":"GORDON BIERSCH #4616","Address":"18545 North 70th St","City":"Phoenix","State":"AZ","Zip":"85054"},{"Location":"GUTTILLA MURPHY ANDERSON","Address":"5415 E High St 200","City":"Phoenix","State":"AZ","Zip":"85054"},{"Location":"HELP IN HEALING HOME FOUNDATIO","Address":"5811 E Mayo Blvd 7","City":"Phoenix","State":"AZ","Zip":"85054"},{"Location":"HOSPICE OF THE VALLEY","Address":"5777 E Mayo Blvd","City":"Phoenix","State":"AZ","Zip":"85054"},{"Location":"INVENTURE FOOD%2C INC","Address":"5415 E High St 350","City":"Phoenix","State":"AZ","Zip":"85054"},{"Location":"JW MARRIOTT DESERT RIDGE","Address":"5350 E Marriott Dr","City":"Phoenix","State":"AZ","Zip":"85054"},{"Location":"KONA GRILL #123","Address":"5310 E High St","City":"Phoenix","State":"AZ","Zip":"85054"},{"Location":"LIFETIME FITNESS","Address":"6850 E Chauncey Ln","City":"Phoenix","State":"AZ","Zip":"85054"},{"Location":"MAYO D&D LLC","Address":"7000 E Mayo Blvd","City":"Phoenix","State":"AZ","Zip":"85054"},{"Location":"MELLOW MUSHROOM","Address":"5350 E High St 115","City":"Phoenix","State":"AZ","Zip":"85054"},{"Location":"MENS CLUB BARBER","Address":"7000 E Mayo Blvd 1068","City":"Phoenix","State":"AZ","Zip":"85054"},{"Location":"MILLIMAN","Address":"5415 E High St 275","City":"Phoenix","State":"AZ","Zip":"85054"},{"Location":"MVCI CANYON VILLAS","Address":"5220 E Marriott Dr","City":"Phoenix","State":"AZ","Zip":"85054"},{"Location":"OCEAN PRIME PHOENIX","Address":"5455 E High St 115","City":"Phoenix","State":"AZ","Zip":"85054"},{"Location":"OUTBACK STEAKHOUSE #0327","Address":"7000 E Mayo Blvd 24","City":"Phoenix","State":"AZ","Zip":"85054"},{"Location":"PARAMOUNT EQUITY MORTGAGE","Address":"6970 E Chauncey Ln 100","City":"Phoenix","State":"AZ","Zip":"85054"},{"Location":"RED ROBIN #122","Address":"7000 E Mayo Blvd","City":"Phoenix","State":"AZ","Zip":"85054"},{"Location":"SAKURA SUSHI &STEAKHOUSE","Address":"7000 E Mayo Blvd 1090","City":"Phoenix","State":"AZ","Zip":"85054"},{"Location":"SCHUMACHER EUROPEAN","Address":"18530 N Scottsdale Rd","City":"Phoenix","State":"AZ","Zip":"85054"},{"Location":"SUMMIT PHARMACEUTICALS","Address":"2515 East Rose Arden Lane 1","City":"Phoenix","State":"AZ","Zip":"85054"},{"Location":"TEA LIGHT CAFE","Address":"7000 E Mayo Blvd 1084","City":"Phoenix","State":"AZ","Zip":"85054"},{"Location":"TOBY KEITHS I LOVE THIS BAR","Address":"5310 E High St 115","City":"Phoenix","State":"AZ","Zip":"85054"},{"Location":"TOSCANA AT DESERT RIDGE ASSOC","Address":"5450 E Deer Valley Dr","City":"Phoenix","State":"AZ","Zip":"85054"},{"Location":"TUSCANNY RESTAURANT","Address":"5350 E Marriott Dr","City":"Phoenix","State":"AZ","Zip":"85054"},{"Location":"VIAWEST PROPERTIES","Address":"6930 E Chauncey Ln","City":"Phoenix","State":"AZ","Zip":"85054"},{"Location":"WHOLE FOODS MARKET","Address":"7111 E Mayo Blvd","City":"Phoenix","State":"AZ","Zip":"85054"},{"Location":"SHONTO CHARTER SCH GD","Address":"E Hwy 160  Route 9b","City":"Shonto","State":"AZ","Zip":"85054"}]