[{"Location":"24 HOUR FITNESS #861","Address":"10046 N Metro Pkwy W","City":"Phoenix","State":"AZ","Zip":"85051"},{"Location":"AMBER INN","Address":"4236 W Dunlap Ave","City":"Phoenix","State":"AZ","Zip":"85051"},{"Location":"BHPH MOTOR LLC","Address":"4240 W Glendale Ave","City":"Phoenix","State":"AZ","Zip":"85051"},{"Location":"BLACK ANGUS","Address":"10021 N Metro Pkwy E","City":"Phoenix","State":"AZ","Zip":"85051"},{"Location":"BLUE PACIFIC","Address":"3507 W Dunlap Ave","City":"Phoenix","State":"AZ","Zip":"85051"},{"Location":"BOBBY Q","Address":"8501 N 27th Ave","City":"Phoenix","State":"AZ","Zip":"85051"},{"Location":"BRIGHTON COLLISION CENTER INC","Address":"7101 N 43rd Ave","City":"Phoenix","State":"AZ","Zip":"85051"},{"Location":"BUFFALO WILD WINGS #0375","Address":"2700 W North Ln","City":"Phoenix","State":"AZ","Zip":"85051"},{"Location":"CHILI'S #1476","Address":"10237 N Metro Pkwy W","City":"Phoenix","State":"AZ","Zip":"85051"},{"Location":"CNG RANCH #506","Address":"3415 W Glendale Ave","City":"Phoenix","State":"AZ","Zip":"85051"},{"Location":"CULVERS","Address":"10225 N 28th Dr","City":"Phoenix","State":"AZ","Zip":"85051"},{"Location":"DUNES LOUNGE","Address":"3611 W Dunlap Ave","City":"Phoenix","State":"AZ","Zip":"85051"},{"Location":"GINZA SPA","Address":"3439 W Northern Ave 1","City":"Phoenix","State":"AZ","Zip":"85051"},{"Location":"HARBOR HOUSE MASSAGE","Address":"3439 W Northern Ave 1","City":"Phoenix","State":"AZ","Zip":"85051"},{"Location":"HIBACHI GRILL BUFFET","Address":"10030 North Metro Pkwy","City":"Phoenix","State":"AZ","Zip":"85051"},{"Location":"HIDEAWAY WEST","Address":"3558 W Northern Ave A","City":"Phoenix","State":"AZ","Zip":"85051"},{"Location":"HOOKA JUNGLE","Address":"7802 N 27th Ave","City":"Phoenix","State":"AZ","Zip":"85051"},{"Location":"HOOTERS METRO CENTER","Address":"10223 N Metro Pkwy E","City":"Phoenix","State":"AZ","Zip":"85051"},{"Location":"JASON'S DELI - PHM","Address":"10217 N Metro Pkwy W 25","City":"Phoenix","State":"AZ","Zip":"85051"},{"Location":"KITCHEN HALO HALO","Address":"3553 W Dunlap Ave","City":"Phoenix","State":"AZ","Zip":"85051"},{"Location":"LONGHORN STEAKHOUSE #5513","Address":"10047 N Metro Pkwy","City":"Phoenix","State":"AZ","Zip":"85051"},{"Location":"METRO CENTER CHIROPRACTIC","Address":"10046 N Metro Pkwy W 115","City":"Phoenix","State":"AZ","Zip":"85051"},{"Location":"METRO SPORTZ BAR-BILLARDS","Address":"10402 N Black Canyon Hwy","City":"Phoenix","State":"AZ","Zip":"85051"},{"Location":"MT CEDAR PROPERTIES","Address":"10066 N Metro Pkwy W","City":"Phoenix","State":"AZ","Zip":"85051"},{"Location":"NET CLICKS BUSINESS CTR","Address":"3575 W Dunlap Ave","City":"Phoenix","State":"AZ","Zip":"85051"},{"Location":"O'BRIENS PUB","Address":"7829 N 35th Ave","City":"Phoenix","State":"AZ","Zip":"85051"},{"Location":"OLIVE GARDEN #4410","Address":"2710 W North Ln","City":"Phoenix","State":"AZ","Zip":"85051"},{"Location":"PETER PIPER PIZZA # 052","Address":"9620 N Metro Pkwy W","City":"Phoenix","State":"AZ","Zip":"85051"},{"Location":"PURPLE HAT MARKETING","Address":"10000 N 31st Ave","City":"Phoenix","State":"AZ","Zip":"85051"},{"Location":"RANCH PHARMACY","Address":"3415 W Glendale Ave 25","City":"Phoenix","State":"AZ","Zip":"85051"},{"Location":"RED LOBSTER #6223","Address":"10220 N 28th Dr","City":"Phoenix","State":"AZ","Zip":"85051"},{"Location":"RESTAURANT TAKAMATSU","Address":"4214 N Dunlap","City":"Phoenix","State":"AZ","Zip":"85051"},{"Location":"SHANES SHOP","Address":"10215 N 28th Dr F1","City":"Phoenix","State":"AZ","Zip":"85051"},{"Location":"SHOE DEPT ENCORE #1525","Address":"9617 N Metro Pkwy W 1022","City":"Phoenix","State":"AZ","Zip":"85051"},{"Location":"STAG TOBACCONISTS","Address":"9201 N 29th Ave 47","City":"Phoenix","State":"AZ","Zip":"85051"},{"Location":"STREETS OF NY #2","Address":"7805 N 35th Ave","City":"Phoenix","State":"AZ","Zip":"85051"},{"Location":"TEXAS ROADHOUSE #2360","Address":"10051 N Metro Pkwy E","City":"Phoenix","State":"AZ","Zip":"85051"},{"Location":"TIM FINNEGAN'S","Address":"9201 N 29th Ave 56","City":"Phoenix","State":"AZ","Zip":"85051"},{"Location":"TRADITIONS","Address":"2502 W Vista Ave","City":"Phoenix","State":"AZ","Zip":"85051"},{"Location":"VALID BARBER SHOP","Address":"8024 N 27th Ave","City":"Phoenix","State":"AZ","Zip":"85051"},{"Location":"WIRELESS EXPRESS LLC","Address":"8024 N 35th Ave","City":"Phoenix","State":"AZ","Zip":"85051"}]