[{"Location":"AZ GLAUCOMA","Address":"20940 N Tatum Blvd 250","City":"Phoenix","State":"AZ","Zip":"85050"},{"Location":"BJS RESTAURANT #447","Address":"21001 N Tatum Blvd","City":"Phoenix","State":"AZ","Zip":"85050"},{"Location":"CANYON RIDGE ENDODONTICS","Address":"20950 N Tatum Blvd 210","City":"Phoenix","State":"AZ","Zip":"85050"},{"Location":"CATCH 22 SPORTS GRILL","Address":"18725 N 32nd St","City":"Phoenix","State":"AZ","Zip":"85050"},{"Location":"COLEMAN HINES INC","Address":"20830 N Tatum Blvd 330","City":"Phoenix","State":"AZ","Zip":"85050"},{"Location":"DAVE AND BUSTER'S #43","Address":"21001 N Tatum Blvd","City":"Phoenix","State":"AZ","Zip":"85050"},{"Location":"DESERT RIDGE EYE CONSULT","Address":"20940 N Tatum Blvd 370","City":"Phoenix","State":"AZ","Zip":"85050"},{"Location":"DESERT RIDGE OUTPATIENT","Address":"20940 N Tatum Bldv 100","City":"Phoenix","State":"AZ","Zip":"85050"},{"Location":"G MICHAELIS INC..","Address":"20860 N Tatum Blvd 370","City":"Phoenix","State":"AZ","Zip":"85050"},{"Location":"HUMBLE PIE LLC","Address":"21050 N Tatum Blvd 101","City":"Phoenix","State":"AZ","Zip":"85050"},{"Location":"ISLANDS RESTAURANTS #035","Address":"21001 N Tatum Blvd","City":"Phoenix","State":"AZ","Zip":"85050"},{"Location":"KEG RESTAURANT","Address":"21001 N Tatum Blvd 2","City":"Phoenix","State":"AZ","Zip":"85050"},{"Location":"KOHL'S #615","Address":"21001 N Tatum Blvd","City":"Phoenix","State":"AZ","Zip":"85050"},{"Location":"LAVERNE CONDOMINUM ASSOCIATION","Address":"20660 N 40th St","City":"Phoenix","State":"AZ","Zip":"85050"},{"Location":"MACARONI GRILL #1233","Address":"21001 N Tatum Blvd Bld4","City":"Phoenix","State":"AZ","Zip":"85050"},{"Location":"MARCEL'S","Address":"3130 E Union Hills Dr 110","City":"Phoenix","State":"AZ","Zip":"85050"},{"Location":"MICHAEL CATERING","Address":"20645 N 28th St","City":"Phoenix","State":"AZ","Zip":"85050"},{"Location":"NORI SUSHI","Address":"21001 N Tatum Blvd 48-15","City":"Phoenix","State":"AZ","Zip":"85050"},{"Location":"PACWEST ENERGY LLC","Address":"21001 N Tatum Blvd 84","City":"Phoenix","State":"AZ","Zip":"85050"},{"Location":"PARADISE SHADOWS MOBILE","Address":"2701 E Utopia Rd","City":"Phoenix","State":"AZ","Zip":"85050"},{"Location":"PARADISE VALLEY GOLF COURSE","Address":"3505 E Union Hills Dr","City":"Phoenix","State":"AZ","Zip":"85050"},{"Location":"PHOENIX   PEDIATRICS","Address":"4735 E Union Hills Dr","City":"Phoenix","State":"AZ","Zip":"85050"},{"Location":"PITA JUNGLE","Address":"20910 N Tatum Blvd 140","City":"Phoenix","State":"AZ","Zip":"85050"},{"Location":"QUATTRO INVESTMENTS","Address":"2840 E Mohawk Ln 107","City":"Phoenix","State":"AZ","Zip":"85050"},{"Location":"SANDBAR","Address":"21001 N Tatum Blvd","City":"Phoenix","State":"AZ","Zip":"85050"},{"Location":"SANDBAR II","Address":"21001 N Tatum Blvd","City":"Phoenix","State":"AZ","Zip":"85050"},{"Location":"SCOTTRADE 02H","Address":"20910 N Tatum Blvd 110","City":"Phoenix","State":"AZ","Zip":"85050"},{"Location":"SERENO SOCCER CLUB","Address":"20634 N 28th St Suite","City":"Phoenix","State":"AZ","Zip":"85050"},{"Location":"SOCCER CLUB DEL SOL","Address":"18777 N 32nd St 100","City":"Phoenix","State":"AZ","Zip":"85050"},{"Location":"SPOOONER   PHYSICAL   THERAPY","Address":"20950 N Tatum Blvd","City":"Phoenix","State":"AZ","Zip":"85050"},{"Location":"SPORTS AUTHORITY 700","Address":"21001 N Tatum Blvd 26","City":"Phoenix","State":"AZ","Zip":"85050"},{"Location":"SUBWAY 52093","Address":"20910 N Tatum Blvd","City":"Phoenix","State":"AZ","Zip":"85050"},{"Location":"SUSHI STATION","Address":"20910 N Tatum Blvd 150","City":"Phoenix","State":"AZ","Zip":"85050"},{"Location":"THE PLAY FACTORY","Address":"21001 N Tatum Blvd","City":"Phoenix","State":"AZ","Zip":"85050"},{"Location":"THRIVENT FINANCIAL FOR LUTHERA","Address":"20830 N Tatum Blvd 200","City":"Phoenix","State":"AZ","Zip":"85050"},{"Location":"TRYST CAFE","Address":"21050 N Tatum Blvd 108","City":"Phoenix","State":"AZ","Zip":"85050"},{"Location":"TWO BROTHER'S BARBERSHOP LLC","Address":"3150 E Union Hills Dr","City":"Phoenix","State":"AZ","Zip":"85050"},{"Location":"UNDERGROUND FITNESS","Address":"20910 N Tatum Blvd 170","City":"Phoenix","State":"AZ","Zip":"85050"},{"Location":"VANTAGE RETIREMENT PLANS LLC","Address":"20860 N Tatum Blvd 240","City":"Phoenix","State":"AZ","Zip":"85050"},{"Location":"WOLFLEYS BAR","Address":"21001 N Tatum Blvd 96","City":"Phoenix","State":"AZ","Zip":"85050"},{"Location":"YARD HOUSE 8310","Address":"21001 N Tatum Blvd 48","City":"Phoenix","State":"AZ","Zip":"85050"},{"Location":"AZ GLAUCOMA","Address":"20940 N Tatum Blvd 250","City":"Phoenix","State":"AZ","Zip":"85050"},{"Location":"BJS RESTAURANT #447","Address":"21001 N Tatum Blvd","City":"Phoenix","State":"AZ","Zip":"85050"},{"Location":"CANYON RIDGE ENDODONTICS","Address":"20950 N Tatum Blvd 210","City":"Phoenix","State":"AZ","Zip":"85050"},{"Location":"CATCH 22 SPORTS GRILL","Address":"18725 N 32nd St","City":"Phoenix","State":"AZ","Zip":"85050"},{"Location":"COLEMAN HINES INC","Address":"20830 N Tatum Blvd 330","City":"Phoenix","State":"AZ","Zip":"85050"},{"Location":"DAVE AND BUSTER'S #43","Address":"21001 N Tatum Blvd","City":"Phoenix","State":"AZ","Zip":"85050"},{"Location":"DESERT RIDGE EYE CONSULT","Address":"20940 N Tatum Blvd 370","City":"Phoenix","State":"AZ","Zip":"85050"},{"Location":"DESERT RIDGE OUTPATIENT","Address":"20940 N Tatum Bldv 100","City":"Phoenix","State":"AZ","Zip":"85050"},{"Location":"G MICHAELIS INC..","Address":"20860 N Tatum Blvd 370","City":"Phoenix","State":"AZ","Zip":"85050"},{"Location":"HUMBLE PIE LLC","Address":"21050 N Tatum Blvd 101","City":"Phoenix","State":"AZ","Zip":"85050"},{"Location":"ISLANDS RESTAURANTS #035","Address":"21001 N Tatum Blvd","City":"Phoenix","State":"AZ","Zip":"85050"},{"Location":"KEG RESTAURANT","Address":"21001 N Tatum Blvd 2","City":"Phoenix","State":"AZ","Zip":"85050"},{"Location":"KOHL'S #615","Address":"21001 N Tatum Blvd","City":"Phoenix","State":"AZ","Zip":"85050"},{"Location":"LAVERNE CONDOMINUM ASSOCIATION","Address":"20660 N 40th St","City":"Phoenix","State":"AZ","Zip":"85050"},{"Location":"MACARONI GRILL #1233","Address":"21001 N Tatum Blvd Bld4","City":"Phoenix","State":"AZ","Zip":"85050"},{"Location":"MARCEL'S","Address":"3130 E Union Hills Dr 110","City":"Phoenix","State":"AZ","Zip":"85050"},{"Location":"MICHAEL CATERING","Address":"20645 N 28th St","City":"Phoenix","State":"AZ","Zip":"85050"},{"Location":"NORI SUSHI","Address":"21001 N Tatum Blvd 48-15","City":"Phoenix","State":"AZ","Zip":"85050"},{"Location":"PACWEST ENERGY LLC","Address":"21001 N Tatum Blvd 84","City":"Phoenix","State":"AZ","Zip":"85050"},{"Location":"PARADISE SHADOWS MOBILE","Address":"2701 E Utopia Rd","City":"Phoenix","State":"AZ","Zip":"85050"},{"Location":"PARADISE VALLEY GOLF COURSE","Address":"3505 E Union Hills Dr","City":"Phoenix","State":"AZ","Zip":"85050"},{"Location":"PHOENIX   PEDIATRICS","Address":"4735 E Union Hills Dr","City":"Phoenix","State":"AZ","Zip":"85050"},{"Location":"PITA JUNGLE","Address":"20910 N Tatum Blvd 140","City":"Phoenix","State":"AZ","Zip":"85050"},{"Location":"QUATTRO INVESTMENTS","Address":"2840 E Mohawk Ln 107","City":"Phoenix","State":"AZ","Zip":"85050"},{"Location":"SANDBAR","Address":"21001 N Tatum Blvd","City":"Phoenix","State":"AZ","Zip":"85050"},{"Location":"SANDBAR II","Address":"21001 N Tatum Blvd","City":"Phoenix","State":"AZ","Zip":"85050"},{"Location":"SCOTTRADE 02H","Address":"20910 N Tatum Blvd 110","City":"Phoenix","State":"AZ","Zip":"85050"},{"Location":"SERENO SOCCER CLUB","Address":"20634 N 28th St Suite","City":"Phoenix","State":"AZ","Zip":"85050"},{"Location":"SOCCER CLUB DEL SOL","Address":"18777 N 32nd St 100","City":"Phoenix","State":"AZ","Zip":"85050"},{"Location":"SPOOONER   PHYSICAL   THERAPY","Address":"20950 N Tatum Blvd","City":"Phoenix","State":"AZ","Zip":"85050"},{"Location":"SPORTS AUTHORITY 700","Address":"21001 N Tatum Blvd 26","City":"Phoenix","State":"AZ","Zip":"85050"},{"Location":"SUBWAY 52093","Address":"20910 N Tatum Blvd","City":"Phoenix","State":"AZ","Zip":"85050"},{"Location":"SUSHI STATION","Address":"20910 N Tatum Blvd 150","City":"Phoenix","State":"AZ","Zip":"85050"},{"Location":"THE PLAY FACTORY","Address":"21001 N Tatum Blvd","City":"Phoenix","State":"AZ","Zip":"85050"},{"Location":"THRIVENT FINANCIAL FOR LUTHERA","Address":"20830 N Tatum Blvd 200","City":"Phoenix","State":"AZ","Zip":"85050"},{"Location":"TRYST CAFE","Address":"21050 N Tatum Blvd 108","City":"Phoenix","State":"AZ","Zip":"85050"},{"Location":"TWO BROTHER'S BARBERSHOP LLC","Address":"3150 E Union Hills Dr","City":"Phoenix","State":"AZ","Zip":"85050"},{"Location":"UNDERGROUND FITNESS","Address":"20910 N Tatum Blvd 170","City":"Phoenix","State":"AZ","Zip":"85050"},{"Location":"VANTAGE RETIREMENT PLANS LLC","Address":"20860 N Tatum Blvd 240","City":"Phoenix","State":"AZ","Zip":"85050"},{"Location":"WOLFLEYS BAR","Address":"21001 N Tatum Blvd 96","City":"Phoenix","State":"AZ","Zip":"85050"},{"Location":"YARD HOUSE 8310","Address":"21001 N Tatum Blvd 48","City":"Phoenix","State":"AZ","Zip":"85050"}]