[{"Location":"ABACUS INN","Address":"3509 W Thunderbird Rd","City":"Phoenix","State":"AZ","Zip":"85053"},{"Location":"ALLIANCE UNITED INSURANCE","Address":"16402 N 28th Ave","City":"Phoenix","State":"AZ","Zip":"85053"},{"Location":"AMERICAN LEGION POST 105","Address":"3534 W Calavar Rd","City":"Phoenix","State":"AZ","Zip":"85053"},{"Location":"AMF DEER VALLEY LANES","Address":"2902 W Thunderbird Rd","City":"Phoenix","State":"AZ","Zip":"85053"},{"Location":"APPLEBEE'S #501 PHOENIX 1","Address":"2720 W Bell Rd","City":"Phoenix","State":"AZ","Zip":"85053"},{"Location":"C AND C SALON","Address":"13811 N 35th Dr","City":"Phoenix","State":"AZ","Zip":"85053"},{"Location":"CANYON CAFE & GRILL","Address":"16404 N Black Canyon Hwy 135","City":"Phoenix","State":"AZ","Zip":"85053"},{"Location":"CASA FILIPINA BAKESHOP","Address":"3531 W Thunderbird Rd","City":"Phoenix","State":"AZ","Zip":"85053"},{"Location":"CRISMAR MANSION ASSISTED","Address":"14010 N 33rd Dr","City":"Phoenix","State":"AZ","Zip":"85053"},{"Location":"CYBERLAND","Address":"4229 W Bell Rd","City":"Phoenix","State":"AZ","Zip":"85053"},{"Location":"DADDY-O'S GRILL","Address":"4163 W Thunderbird Rd","City":"Phoenix","State":"AZ","Zip":"85053"},{"Location":"DAVE'S PLACE","Address":"2710 W Bell Rd 1288","City":"Phoenix","State":"AZ","Zip":"85053"},{"Location":"DELI","Address":"15610 N 35th Ave 1","City":"Phoenix","State":"AZ","Zip":"85053"},{"Location":"DENNYS 1552","Address":"2717 W Bell Rd","City":"Phoenix","State":"AZ","Zip":"85053"},{"Location":"EDWARD CAUDILL","Address":"15602 N 35th Ave","City":"Phoenix","State":"AZ","Zip":"85053"},{"Location":"FILIPINO AMERICAN JOURNA","Address":"15610 N 35th Ave","City":"Phoenix","State":"AZ","Zip":"85053"},{"Location":"JOHN URAINE","Address":"3522 W Calavar Rd","City":"Phoenix","State":"AZ","Zip":"85053"},{"Location":"LA BOXING 6","Address":"3434 W Greenway Rd","City":"Phoenix","State":"AZ","Zip":"85053"},{"Location":"METRO NAILS AND SPA","Address":"2737 W Thunderbird Rd","City":"Phoenix","State":"AZ","Zip":"85053"},{"Location":"NATIVE NEW YORKER","Address":"2740 W Bell Rd","City":"Phoenix","State":"AZ","Zip":"85053"},{"Location":"NCC BUSINESS SERVICES","Address":"16605 N 28th Ave A106","City":"Phoenix","State":"AZ","Zip":"85053"},{"Location":"NORTH VALLEY ORAL SURGERY","Address":"4025 W Bell Rd 9","City":"Phoenix","State":"AZ","Zip":"85053"},{"Location":"ORANGEWOOD ASSISTED LOVI","Address":"3829 W Thunderbird Rd","City":"Phoenix","State":"AZ","Zip":"85053"},{"Location":"Q2 CAFE","Address":"3345 W Greenway Rd","City":"Phoenix","State":"AZ","Zip":"85053"},{"Location":"REVANA","Address":"16404 North Black Canyon Highwa 100","City":"Phoenix","State":"AZ","Zip":"85053"},{"Location":"SANTISI BROTHERS","Address":"2710 W Bell Rd 1115","City":"Phoenix","State":"AZ","Zip":"85053"},{"Location":"SMOKE IT","Address":"3426 W Bell Rd","City":"Phoenix","State":"AZ","Zip":"85053"},{"Location":"SQUEAKY CLEAN CAR WASH","Address":"2824 W Bell Rd","City":"Phoenix","State":"AZ","Zip":"85053"},{"Location":"STRENGTH TRAINING","Address":"17233 N Holmes Blvd","City":"Phoenix","State":"AZ","Zip":"85053"},{"Location":"SUNFLOWER ADULT DAYCARE","Address":"2814 W Bell Rd 1415","City":"Phoenix","State":"AZ","Zip":"85053"},{"Location":"TELETECH","Address":"16404 North Black Canyon Highwa","City":"Phoenix","State":"AZ","Zip":"85053"},{"Location":"THE REC ROOM","Address":"3549 W Thunderbird Rd","City":"Phoenix","State":"AZ","Zip":"85053"},{"Location":"TOP SHELF","Address":"3301 W Greenway Rd","City":"Phoenix","State":"AZ","Zip":"85053"},{"Location":"TOUCH OF THAI RESTAURANT","Address":"16816 N 35th Ave Suite","City":"Phoenix","State":"AZ","Zip":"85053"},{"Location":"TOUCHSTONE BEHAVIORAL HEALTH","Address":"15648 N 35th Ave","City":"Phoenix","State":"AZ","Zip":"85053"},{"Location":"TOUCHSTONE BH","Address":"3602 West Greenway Rd 102","City":"Phoenix","State":"AZ","Zip":"85053"},{"Location":"TRIWEST","Address":"15451 N 28th Ave","City":"Phoenix","State":"AZ","Zip":"85053"},{"Location":"TWINS  BARBER SHOP","Address":"3415 W Thunderbird Rd 5","City":"Phoenix","State":"AZ","Zip":"85053"},{"Location":"VALLE LUNA MEXICAN RESTAURANT","Address":"3336 W Bell Rd","City":"Phoenix","State":"AZ","Zip":"85053"},{"Location":"WENDYS 2045","Address":"3450 W Greenway Rd","City":"Phoenix","State":"AZ","Zip":"85053"},{"Location":"WEST VALLEY ENT","Address":"16841 N 31st Ave","City":"Phoenix","State":"AZ","Zip":"85053"}]