[{"Location":"ANTHEM GOLF AND COUNTRY CLUB","Address":"2531 W Anthem Club Dr","City":"Anthem","State":"AZ","Zip":"85086"},{"Location":"ANTHEM GOLF AND COUNTRY CLUB#2","Address":"2531 W Anthem Club Dr","City":"Anthem","State":"AZ","Zip":"85086"},{"Location":"CHOICE MEDICAL","Address":"3624 W Anthem Way C116","City":"Anthem","State":"AZ","Zip":"85086"},{"Location":"DAVI NAILS","Address":"4435 W Anthem Way","City":"Anthem","State":"AZ","Zip":"85086"},{"Location":"DESERT WEST OBGYN","Address":"41810 N Venture Dr","City":"Anthem","State":"AZ","Zip":"85086"},{"Location":"HAVANA CIGARS","Address":"4225 W Fortune Dr 110","City":"Anthem","State":"AZ","Zip":"85086"},{"Location":"LEGENDS BAR & GRILL","Address":"3655 W Anthem Way A1091","City":"Anthem","State":"AZ","Zip":"85086"},{"Location":"NIKE INC","Address":"4250 W Anthem Way 375","City":"Anthem","State":"AZ","Zip":"85086"},{"Location":"OSR PHYSICAL THPY","Address":"41125 N Daisy Mountain Dr 121","City":"Anthem","State":"AZ","Zip":"85086"},{"Location":"OTRIAD HOSPITALITY","Address":"3655 W Anthem Way D105","City":"Anthem","State":"AZ","Zip":"85086"},{"Location":"PIZZA HUT OF ANTHEM","Address":"3632 W Anthem Way","City":"Anthem","State":"AZ","Zip":"85086"},{"Location":"Q-TO-U-BBQ","Address":"3434 W Anthem Way 146","City":"Anthem","State":"AZ","Zip":"85086"},{"Location":"RAYS PIZZA","Address":"42211 N 41st Dr 129","City":"Anthem","State":"AZ","Zip":"85086"},{"Location":"ROOKIES","Address":"3668 W Anthem Way B132","City":"Anthem","State":"AZ","Zip":"85086"},{"Location":"ROSATIS PIZZA","Address":"3668 W Anthem Way","City":"Anthem","State":"AZ","Zip":"85086"},{"Location":"SAFEWAY 1726","Address":"3655 W Anthem Way","City":"Anthem","State":"AZ","Zip":"85086"},{"Location":"SHALIMAR SALON AND SPA B","Address":"3668 W Anthem Way","City":"Anthem","State":"AZ","Zip":"85086"},{"Location":"SHANG HAI CLUB","Address":"3434 W Anthem Way","City":"Anthem","State":"AZ","Zip":"85086"},{"Location":"SONIC DRIVE INN","Address":"41135 N Daisy Mountain Dr","City":"Anthem","State":"AZ","Zip":"85086"},{"Location":"SPOTS DRY CLEANING","Address":"3655 W Anthem Way Unitc","City":"Anthem","State":"AZ","Zip":"85086"},{"Location":"THE TENNESSEE GRILL","Address":"4220 W Summit Walk Ct 1202","City":"Anthem","State":"AZ","Zip":"85086"},{"Location":"YOTIS AND SONS INVESTMEN","Address":"3655 W Anthem Way","City":"Anthem","State":"AZ","Zip":"85086"},{"Location":"DEER VALLEY UNIFIED","Address":"35959 N 7th Ave 1013","City":"Desert Hills","State":"AZ","Zip":"85086"},{"Location":"ARIZONA GAME AND FISH","Address":"5000 W Carefree Hwy","City":"Phoenix","State":"AZ","Zip":"85086"},{"Location":"AZOOL GRILL","Address":"3134 W Carefree Hwy 3","City":"Phoenix","State":"AZ","Zip":"85086"},{"Location":"BATTLEGROUND FITNESS","Address":"34975 N North Valley Pkwy 119","City":"Phoenix","State":"AZ","Zip":"85086"},{"Location":"BIO DEX LABOROTRIES","Address":"4212 W Innovative Dr","City":"Phoenix","State":"AZ","Zip":"85086"},{"Location":"BRAKE MASTER OF PHOENIX #205","Address":"42415 N Vision Way","City":"Phoenix","State":"AZ","Zip":"85086"},{"Location":"C&R TIRE","Address":"42215 N Vision Way","City":"Phoenix","State":"AZ","Zip":"85086"},{"Location":"CAREFREE SALON","Address":"3120 W Carefree Hwy 1","City":"Phoenix","State":"AZ","Zip":"85086"},{"Location":"CAREFREE TAN","Address":"3120 W Carefree Hwy 15","City":"Phoenix","State":"AZ","Zip":"85086"},{"Location":"CENTERLINE MECHANICAL LLC","Address":"42210 N 10th St","City":"Phoenix","State":"AZ","Zip":"85086"},{"Location":"CHILI'S #1357","Address":"34710 N North Valley Pkwy","City":"Phoenix","State":"AZ","Zip":"85086"},{"Location":"D & M LAND  DEVELOPMENT INC","Address":"36320 N 31st Ave","City":"Phoenix","State":"AZ","Zip":"85086"},{"Location":"EBISU SUSHI BAR AND GRILL","Address":"39510 N Daisy Mountain Dr","City":"Phoenix","State":"AZ","Zip":"85086"},{"Location":"FASSELWHITNEY N ASSOICATES LLC","Address":"34975 N North Valley Pkwy 152","City":"Phoenix","State":"AZ","Zip":"85086"},{"Location":"FED CORRECTIONAL INSTITUTE BV2","Address":"37900 N 45th Ave 1680","City":"Phoenix","State":"AZ","Zip":"85086"},{"Location":"FED CORRECTIONAL INSTITUTE BV3","Address":"37900 N 45th Ave Bv3","City":"Phoenix","State":"AZ","Zip":"85086"},{"Location":"FEDERAL CORRECTIONAL INSTIT.","Address":"37900 N 45th Ave","City":"Phoenix","State":"AZ","Zip":"85086"},{"Location":"FEDERAL CORRECTIONAL INSTITUTE","Address":"37900 N 45th Ave 1680","City":"Phoenix","State":"AZ","Zip":"85086"},{"Location":"HONG KONG ASIAN CUISIAN","Address":"3170 W Carefree Hwy C10","City":"Phoenix","State":"AZ","Zip":"85086"},{"Location":"KOHL'S #1102","Address":"34830 N North Valley Pkwy","City":"Phoenix","State":"AZ","Zip":"85086"},{"Location":"PATRICIA ROBERTS LLC","Address":"41125 N Daisy Mountain Dr 109","City":"Phoenix","State":"AZ","Zip":"85086"},{"Location":"PIONEER ARIZONA FOUNDATIONS","Address":"3901 W Pioneer Rd","City":"Phoenix","State":"AZ","Zip":"85086"},{"Location":"PIZZA B'S #2","Address":"41111 N Daisy Mountain Dr","City":"Phoenix","State":"AZ","Zip":"85086"},{"Location":"PIZZA HUT 28596","Address":"34640 N North Valley Pkwy 108","City":"Phoenix","State":"AZ","Zip":"85086"},{"Location":"RAYS PIZZA","Address":"3134 W Carefree Hwy","City":"Phoenix","State":"AZ","Zip":"85086"},{"Location":"SPORT CLIPS AZ119","Address":"34640 N North Valley Pkwy 110","City":"Phoenix","State":"AZ","Zip":"85086"},{"Location":"STREETS OF NEW YORK ANTHEM #27","Address":"39508 N Daisy Mountain Dr","City":"Phoenix","State":"AZ","Zip":"85086"},{"Location":"TAYLOR TOURS INC","Address":"4210 W Opportunity Way","City":"Phoenix","State":"AZ","Zip":"85086"},{"Location":"WILD VINES BISTRO","Address":"41111 N Daisy Mountain Dr 117","City":"Phoenix","State":"AZ","Zip":"85086"},{"Location":"YOGURT GARDEN","Address":"39504 N Daisy Mountain Dr 104","City":"Phoenix","State":"AZ","Zip":"85086"},{"Location":"ANTHEM GOLF AND COUNTRY CLUB","Address":"2531 W Anthem Club Dr","City":"Anthem","State":"AZ","Zip":"85086"},{"Location":"ANTHEM GOLF AND COUNTRY CLUB#2","Address":"2531 W Anthem Club Dr","City":"Anthem","State":"AZ","Zip":"85086"},{"Location":"CHOICE MEDICAL","Address":"3624 W Anthem Way C116","City":"Anthem","State":"AZ","Zip":"85086"},{"Location":"DAVI NAILS","Address":"4435 W Anthem Way","City":"Anthem","State":"AZ","Zip":"85086"},{"Location":"DESERT WEST OBGYN","Address":"41810 N Venture Dr","City":"Anthem","State":"AZ","Zip":"85086"},{"Location":"HAVANA CIGARS","Address":"4225 W Fortune Dr 110","City":"Anthem","State":"AZ","Zip":"85086"},{"Location":"LEGENDS BAR & GRILL","Address":"3655 W Anthem Way A1091","City":"Anthem","State":"AZ","Zip":"85086"},{"Location":"NIKE INC","Address":"4250 W Anthem Way 375","City":"Anthem","State":"AZ","Zip":"85086"},{"Location":"OSR PHYSICAL THPY","Address":"41125 N Daisy Mountain Dr 121","City":"Anthem","State":"AZ","Zip":"85086"},{"Location":"OTRIAD HOSPITALITY","Address":"3655 W Anthem Way D105","City":"Anthem","State":"AZ","Zip":"85086"},{"Location":"PIZZA HUT OF ANTHEM","Address":"3632 W Anthem Way","City":"Anthem","State":"AZ","Zip":"85086"},{"Location":"Q-TO-U-BBQ","Address":"3434 W Anthem Way 146","City":"Anthem","State":"AZ","Zip":"85086"},{"Location":"RAYS PIZZA","Address":"42211 N 41st Dr 129","City":"Anthem","State":"AZ","Zip":"85086"},{"Location":"ROBERTO'S AUTHENTIC MEXICAN FOOD","Address":"39510 N Daisy Mountain Dr.%2C #d","City":"Anthem","State":"AZ","Zip":"85086"},{"Location":"ROOKIES","Address":"3668 W Anthem Way B132","City":"Anthem","State":"AZ","Zip":"85086"},{"Location":"ROSATIS PIZZA","Address":"3668 W Anthem Way","City":"Anthem","State":"AZ","Zip":"85086"},{"Location":"SAFEWAY 1726","Address":"3655 W Anthem Way","City":"Anthem","State":"AZ","Zip":"85086"},{"Location":"SHALIMAR SALON AND SPA B","Address":"3668 W Anthem Way","City":"Anthem","State":"AZ","Zip":"85086"},{"Location":"SHANG HAI CLUB","Address":"3434 W Anthem Way","City":"Anthem","State":"AZ","Zip":"85086"},{"Location":"SONIC DRIVE INN","Address":"41135 N Daisy Mountain Dr","City":"Anthem","State":"AZ","Zip":"85086"},{"Location":"SPOTS DRY CLEANING","Address":"3655 W Anthem Way Unitc","City":"Anthem","State":"AZ","Zip":"85086"},{"Location":"THE TENNESSEE GRILL","Address":"4220 W Summit Walk Ct 1202","City":"Anthem","State":"AZ","Zip":"85086"},{"Location":"YOTIS AND SONS INVESTMEN","Address":"3655 W Anthem Way","City":"Anthem","State":"AZ","Zip":"85086"},{"Location":"DEER VALLEY UNIFIED","Address":"35959 N 7th Ave 1013","City":"Desert Hills","State":"AZ","Zip":"85086"},{"Location":"ARIZONA GAME AND FISH","Address":"5000 W Carefree Hwy","City":"Phoenix","State":"AZ","Zip":"85086"},{"Location":"AZOOL GRILL","Address":"3134 W Carefree Hwy 3","City":"Phoenix","State":"AZ","Zip":"85086"},{"Location":"BATTLEGROUND FITNESS","Address":"34975 N North Valley Pkwy 119","City":"Phoenix","State":"AZ","Zip":"85086"},{"Location":"BIO DEX LABOROTRIES","Address":"4212 W Innovative Dr","City":"Phoenix","State":"AZ","Zip":"85086"},{"Location":"BRAKE MASTER OF PHOENIX #205","Address":"42415 N Vision Way","City":"Phoenix","State":"AZ","Zip":"85086"},{"Location":"C&R TIRE","Address":"42215 N Vision Way","City":"Phoenix","State":"AZ","Zip":"85086"},{"Location":"CAREFREE SALON","Address":"3120 W Carefree Hwy 1","City":"Phoenix","State":"AZ","Zip":"85086"},{"Location":"CAREFREE TAN","Address":"3120 W Carefree Hwy 15","City":"Phoenix","State":"AZ","Zip":"85086"},{"Location":"CENTERLINE MECHANICAL LLC","Address":"42210 N 10th St","City":"Phoenix","State":"AZ","Zip":"85086"},{"Location":"CHILI'S #1357","Address":"34710 N North Valley Pkwy","City":"Phoenix","State":"AZ","Zip":"85086"},{"Location":"D & M LAND  DEVELOPMENT INC","Address":"36320 N 31st Ave","City":"Phoenix","State":"AZ","Zip":"85086"},{"Location":"EBISU SUSHI BAR AND GRILL","Address":"39510 N Daisy Mountain Dr","City":"Phoenix","State":"AZ","Zip":"85086"},{"Location":"FASSELWHITNEY N ASSOICATES LLC","Address":"34975 N North Valley Pkwy 152","City":"Phoenix","State":"AZ","Zip":"85086"},{"Location":"FED CORRECTIONAL INSTITUTE BV2","Address":"37900 N 45th Ave 1680","City":"Phoenix","State":"AZ","Zip":"85086"},{"Location":"FED CORRECTIONAL INSTITUTE BV3","Address":"37900 N 45th Ave Bv3","City":"Phoenix","State":"AZ","Zip":"85086"},{"Location":"FEDERAL CORRECTIONAL INSTIT.","Address":"37900 N 45th Ave","City":"Phoenix","State":"AZ","Zip":"85086"},{"Location":"FEDERAL CORRECTIONAL INSTITUTE","Address":"37900 N 45th Ave 1680","City":"Phoenix","State":"AZ","Zip":"85086"},{"Location":"HONG KONG ASIAN CUISIAN","Address":"3170 W Carefree Hwy C10","City":"Phoenix","State":"AZ","Zip":"85086"},{"Location":"KOHL'S #1102","Address":"34830 N North Valley Pkwy","City":"Phoenix","State":"AZ","Zip":"85086"},{"Location":"PATRICIA ROBERTS LLC","Address":"41125 N Daisy Mountain Dr 109","City":"Phoenix","State":"AZ","Zip":"85086"},{"Location":"PIONEER ARIZONA FOUNDATIONS","Address":"3901 W Pioneer Rd","City":"Phoenix","State":"AZ","Zip":"85086"},{"Location":"PIZZA B'S #2","Address":"41111 N Daisy Mountain Dr","City":"Phoenix","State":"AZ","Zip":"85086"},{"Location":"PIZZA HUT 28596","Address":"34640 N North Valley Pkwy 108","City":"Phoenix","State":"AZ","Zip":"85086"},{"Location":"RAYS PIZZA","Address":"3134 W Carefree Hwy","City":"Phoenix","State":"AZ","Zip":"85086"},{"Location":"SPORT CLIPS AZ119","Address":"34640 N North Valley Pkwy 110","City":"Phoenix","State":"AZ","Zip":"85086"},{"Location":"STREETS OF NEW YORK ANTHEM #27","Address":"39508 N Daisy Mountain Dr","City":"Phoenix","State":"AZ","Zip":"85086"},{"Location":"TAYLOR TOURS INC","Address":"4210 W Opportunity Way","City":"Phoenix","State":"AZ","Zip":"85086"},{"Location":"WILD VINES BISTRO","Address":"41111 N Daisy Mountain Dr 117","City":"Phoenix","State":"AZ","Zip":"85086"},{"Location":"YOGURT GARDEN","Address":"39504 N Daisy Mountain Dr 104","City":"Phoenix","State":"AZ","Zip":"85086"}]