[{"Location":"AH SO SUSHI & STEAK","Address":"2450 W Happy Valley Rd 1141","City":"Phoenix","State":"AZ","Zip":"85085"},{"Location":"ANYTIME FITNESS","Address":"2310 W Happy Valley Rd 1019","City":"Phoenix","State":"AZ","Zip":"85085"},{"Location":"APPLEBEE'S #524 HAPPY VALLEY","Address":"2501 W Happy Valley Rd 48","City":"Phoenix","State":"AZ","Zip":"85085"},{"Location":"ARIZONA TAX PROS LLC","Address":"515 E Carefree Hwy Pb353","City":"Phoenix","State":"AZ","Zip":"85085"},{"Location":"BUFFALO WILD WINGS #0266","Address":"2510 W Happy Valley Rd","City":"Phoenix","State":"AZ","Zip":"85085"},{"Location":"CONNECTICUT GENERAL LIFE","Address":"25600 N Norterra Dr","City":"Phoenix","State":"AZ","Zip":"85085"},{"Location":"CONNECTICUT GENERAL LIFE","Address":"25500 N Norterra Dr","City":"Phoenix","State":"AZ","Zip":"85085"},{"Location":"CONNOLLY'S SPORTS GRILL","Address":"2605 W Carefree Hwy 140","City":"Phoenix","State":"AZ","Zip":"85085"},{"Location":"D AND S","Address":"23910 N 19th Ave 48","City":"Phoenix","State":"AZ","Zip":"85085"},{"Location":"DICK'S SPORTING GOODS #365","Address":"2350 West Happy Valley Rd","City":"Phoenix","State":"AZ","Zip":"85085"},{"Location":"DISCOUNT TIRE","Address":"24350 N 20th Dr","City":"Phoenix","State":"AZ","Zip":"85085"},{"Location":"DISCOUNT TIRE CO","Address":"2070 W Alameda Rd","City":"Phoenix","State":"AZ","Zip":"85085"},{"Location":"EL ENCANTO DOS","Address":"1112 E Carefree Hwy","City":"Phoenix","State":"AZ","Zip":"85085"},{"Location":"FAMOUS RAY'S PIZZA-HAPPY","Address":"2501 W Happy Valley Rd 1240","City":"Phoenix","State":"AZ","Zip":"85085"},{"Location":"FANS AND FASHIONISTAS","Address":"2470 W Happy Valley Rd 1191","City":"Phoenix","State":"AZ","Zip":"85085"},{"Location":"FIRESIDE AT NORTERRA COMMUNITY","Address":"28185 N Melvern Trl","City":"Phoenix","State":"AZ","Zip":"85085"},{"Location":"FLETCHER TIRE AND AUTO","Address":"2825 W Carefree Hwy","City":"Phoenix","State":"AZ","Zip":"85085"},{"Location":"GRACEFULL ADULT HOM","Address":"27505 N 23rd Dr","City":"Phoenix","State":"AZ","Zip":"85085"},{"Location":"HAPPY VALLEY PEDIATRIC DENTIST","Address":"2020 W Whispering Wind Dr","City":"Phoenix","State":"AZ","Zip":"85085"},{"Location":"HD STOR INC","Address":"23910 N 19th Ave 14","City":"Phoenix","State":"AZ","Zip":"85085"},{"Location":"IDEAL REHABILTATION","Address":"2005 W Happy Valley Rd 170","City":"Phoenix","State":"AZ","Zip":"85085"},{"Location":"J A FANCY NAILS","Address":"711 E Carefree Hwy 112","City":"Phoenix","State":"AZ","Zip":"85085"},{"Location":"JERSEY MIKES #9008","Address":"2501 W Happy Valley Rd 1270","City":"Phoenix","State":"AZ","Zip":"85085"},{"Location":"JOEYS CHICAGO","Address":"1985 W Happy Valley Rd 120","City":"Phoenix","State":"AZ","Zip":"85085"},{"Location":"KRAMER ENGINEERING","Address":"2050 W Whispering Wind Dr","City":"Phoenix","State":"AZ","Zip":"85085"},{"Location":"LOGAN'S ROADHOUSE #455","Address":"2501 W Happy Valley Rd Bld12","City":"Phoenix","State":"AZ","Zip":"85085"},{"Location":"MAX MUSCLE SPORTS NUTRITION","Address":"2633 W Carefree Hwy 11","City":"Phoenix","State":"AZ","Zip":"85085"},{"Location":"MAX MUSCLE SPORTS NUTRITION","Address":"2633 W. Carefree Hwy.%2C #114","City":"Phoenix","State":"AZ","Zip":"85085"},{"Location":"MELLOW MUSHROOM PIZZA BAKERS","Address":"2490 W Happy Valley Rd","City":"Phoenix","State":"AZ","Zip":"85085"},{"Location":"MEN'S WEARHOUSE #2509","Address":"2310 W Happy Valley Rd","City":"Phoenix","State":"AZ","Zip":"85085"},{"Location":"MINGUS MOUNTAIN","Address":"2430 W White Feather Ln","City":"Phoenix","State":"AZ","Zip":"85085"},{"Location":"MOUNTAINSIDE FITNESS #1","Address":"2655 W Carefree Hwy","City":"Phoenix","State":"AZ","Zip":"85085"},{"Location":"MYTEK","Address":"2225 W Whispering Wind Dr 100","City":"Phoenix","State":"AZ","Zip":"85085"},{"Location":"NORTH CANYON RIDGE ENDODONTICS","Address":"2525 W Carefree Hwy 9","City":"Phoenix","State":"AZ","Zip":"85085"},{"Location":"OLIVE GARDEN #1715","Address":"2501 W Happy Valley Rd","City":"Phoenix","State":"AZ","Zip":"85085"},{"Location":"PACWEST ENERGY  LLC","Address":"2501 W Happy Valley Rd 43","City":"Phoenix","State":"AZ","Zip":"85085"},{"Location":"PEAKS AND VALLEYS","Address":"711 E Carefree Hwy 160","City":"Phoenix","State":"AZ","Zip":"85085"},{"Location":"PESTIGE NAILS & SPA","Address":"2501 W Happy Valley Rd","City":"Phoenix","State":"AZ","Zip":"85085"},{"Location":"PETER PIPER PIZZA # 252","Address":"2611 W Carefree Hwy","City":"Phoenix","State":"AZ","Zip":"85085"},{"Location":"PF CHANG'S #9851","Address":"2420 W Happy Valley Rd","City":"Phoenix","State":"AZ","Zip":"85085"},{"Location":"PINNACLE PEAK","Address":"24250 N 23rd Ave","City":"Phoenix","State":"AZ","Zip":"85085"},{"Location":"PITA JUNGLE","Address":"2530 W Happy Valley Rd","City":"Phoenix","State":"AZ","Zip":"85085"},{"Location":"PLAZA BONITA","Address":"2815 W Carefree Hwy 101","City":"Phoenix","State":"AZ","Zip":"85085"},{"Location":"RED DEVELOPMENT","Address":"2460 W Happy Valley Rd 1172","City":"Phoenix","State":"AZ","Zip":"85085"},{"Location":"RED ROBIN #394","Address":"2501 W Happy Valley Rd","City":"Phoenix","State":"AZ","Zip":"85085"},{"Location":"SAM SCULL","Address":"33831 N 12th St","City":"Phoenix","State":"AZ","Zip":"85085"},{"Location":"SHANES RIB SHACK","Address":"2501 W Happy Valley Rd 50-12","City":"Phoenix","State":"AZ","Zip":"85085"},{"Location":"SHINJI BENTOBOX","Address":"2501 W Happy Valley Rd 50","City":"Phoenix","State":"AZ","Zip":"85085"},{"Location":"SONORAN FOOTHILLS ORAL SURGERY","Address":"34225 N 27th Dr 128","City":"Phoenix","State":"AZ","Zip":"85085"},{"Location":"STREETS OF NEW YORK #31","Address":"1985 W Happy Valley Rd","City":"Phoenix","State":"AZ","Zip":"85085"},{"Location":"TAO ASIAN KITCHEN 2","Address":"34455 N 27th Dr D162","City":"Phoenix","State":"AZ","Zip":"85085"},{"Location":"TGI FRIDAY'S #1755","Address":"2501 W Happy Valley Rd 14","City":"Phoenix","State":"AZ","Zip":"85085"},{"Location":"V'S BARBERSHOP","Address":"2370 W Happy Valley Rd 1079","City":"Phoenix","State":"AZ","Zip":"85085"}]