[{"Location":"AJS FAIRWAYS GRILLE","Address":"6900 E Us Highway 60 108","City":"Gold Canyon","State":"AZ","Zip":"85118"},{"Location":"CAL AM PROPERTIES 2","Address":"6601 E Us Highway 60","City":"Gold Canyon","State":"AZ","Zip":"85118"},{"Location":"CIBOLA CUSTOM HOMES","Address":"6268 S Kings Ranch Rd 1","City":"Gold Canyon","State":"AZ","Zip":"85118"},{"Location":"COMPANION PET CLINIC","Address":"5331 S Superstition Mountain D C1","City":"Gold Canyon","State":"AZ","Zip":"85118"},{"Location":"DE LA CRUZ MEXICAN GRILL","Address":"5301 S Superstition Mountain D D","City":"Gold Canyon","State":"AZ","Zip":"85118"},{"Location":"FAIRWAY VIEWS HOA","Address":"6318 S Kings Ranch Rd","City":"Gold Canyon","State":"AZ","Zip":"85118"},{"Location":"GOLD CANYON FAMILY MED","Address":"6788 S Kings Ranch Rd 1","City":"Gold Canyon","State":"AZ","Zip":"85118"},{"Location":"GOLD CANYON GOLF RESORT","Address":"6100 S Kings Ranch Rd","City":"Gold Canyon","State":"AZ","Zip":"85118"},{"Location":"GOLD CANYON URGENT CARE","Address":"6820 S Kings Ranch Rd","City":"Gold Canyon","State":"AZ","Zip":"85118"},{"Location":"HITCHING POST GOLD CANYON","Address":"6030 S Kings Ranch Rd","City":"Gold Canyon","State":"AZ","Zip":"85118"},{"Location":"LORI BLANK AND ASSOCIATES","Address":"6140 S Kings Ranch Rd","City":"Gold Canyon","State":"AZ","Zip":"85118"},{"Location":"MONTESA AT GOLD CANYON","Address":"7373 E Us Highway 60","City":"Gold Canyon","State":"AZ","Zip":"85118"},{"Location":"MONTESA AT GOLD CANYON OFFICE","Address":"7373 E Us Highway 60 461","City":"Gold Canyon","State":"AZ","Zip":"85118"},{"Location":"MOUNTAIN BROOK GOLF CLUB","Address":"5783 S Mountainbrook Dr","City":"Gold Canyon","State":"AZ","Zip":"85118"},{"Location":"MOUNTIANBROOK VILLAGE HOA","Address":"5674 S Marble Dr","City":"Gold Canyon","State":"AZ","Zip":"85118"},{"Location":"ROBERTSON","Address":"6900 E Us Highway 60 115","City":"Gold Canyon","State":"AZ","Zip":"85118"},{"Location":"RODEO LOUNGE","Address":"8333 E Sunrise Sky Dr","City":"Gold Canyon","State":"AZ","Zip":"85118"},{"Location":"QUEEN VALLEY COUNTRY CLUB","Address":"685 N Fairway Dr","City":"Queen Valley","State":"AZ","Zip":"85118"}]