[{"Location":"TREASURE CHEST GRANITE","Address":"5063 N Starr Rd","City":"Apache Jct","State":"AZ","Zip":"85119"},{"Location":"ARIZONA OPRY","Address":"2275 E Old West Hwy","City":"Apache Junction","State":"AZ","Zip":"85119"},{"Location":"CAX RANCHO MIRAGE LLC","Address":"2400 E Baseline Ave 309","City":"Apache Junction","State":"AZ","Zip":"85119"},{"Location":"CENTRAL ARIZONA COUNSEL","Address":"3687 S Royal Palm Rd","City":"Apache Junction","State":"AZ","Zip":"85119"},{"Location":"COUNTRYSIDE R V RESORT","Address":"2701 S Idaho Rd","City":"Apache Junction","State":"AZ","Zip":"85119"},{"Location":"COUNTRYSIDE RV RESORT","Address":"2701 S Idaho Rd 451","City":"Apache Junction","State":"AZ","Zip":"85119"},{"Location":"COUNTRYSIDE RV RESORT","Address":"2701 S Idaho Rd 330","City":"Apache Junction","State":"AZ","Zip":"85119"},{"Location":"COUNTRYSIDE RV RESORT","Address":"2701 S Idaho Rd Hall","City":"Apache Junction","State":"AZ","Zip":"85119"},{"Location":"COUNTRYSIDE RV RESORT","Address":"2701 S Idaho Rd 384","City":"Apache Junction","State":"AZ","Zip":"85119"},{"Location":"DOLCE VITA","Address":"3301 S Goldfield Rd 2050","City":"Apache Junction","State":"AZ","Zip":"85119"},{"Location":"DOLCE VITA GUARD HOUSE","Address":"3301 S Goldfield Rd","City":"Apache Junction","State":"AZ","Zip":"85119"},{"Location":"ELKS LODGE 2349","Address":"2455 E Hwy 88","City":"Apache Junction","State":"AZ","Zip":"85119"},{"Location":"FILLYS ROADHOUSE","Address":"1615 N Apache Trl","City":"Apache Junction","State":"AZ","Zip":"85119"},{"Location":"FIRST NATIONAL MANAGEMENT INC","Address":"3880 S De Niza Rd","City":"Apache Junction","State":"AZ","Zip":"85119"},{"Location":"HITCHING POST","Address":"2341 N Apache Trl","City":"Apache Junction","State":"AZ","Zip":"85119"},{"Location":"IDAHO PROPERTIES LLC","Address":"1075 S Idaho Rd 201","City":"Apache Junction","State":"AZ","Zip":"85119"},{"Location":"Mammoth Steak House","Address":"4650 N Mammoth Mine Rd","City":"Apache Junction","State":"AZ","Zip":"85119"},{"Location":"MOTOR BROWN SPORTS","Address":"1435 E Old West Hwy","City":"Apache Junction","State":"AZ","Zip":"85119"},{"Location":"RANCHO MIRAGE","Address":"2400 E Baseline Ave","City":"Apache Junction","State":"AZ","Zip":"85119"},{"Location":"ROADHAVEN RESORT","Address":"1000 S Idaho Rd","City":"Apache Junction","State":"AZ","Zip":"85119"},{"Location":"ROBERT HORNE FORD","Address":"3400 S Tomahawk Rd","City":"Apache Junction","State":"AZ","Zip":"85119"},{"Location":"RURAL METRO CORP #4","Address":"110 S Idaho Rd 150","City":"Apache Junction","State":"AZ","Zip":"85119"},{"Location":"SAGUARO RV AND MOBILE RESORT2","Address":"1823 S Hilton Rd","City":"Apache Junction","State":"AZ","Zip":"85119"},{"Location":"SKIES BAR AND GRILL","Address":"945 E Scenic St","City":"Apache Junction","State":"AZ","Zip":"85119"}]