[{"Location":"HOLLY TRAN","Address":"10633 E Apache Trl 108","City":"Apache Jct","State":"AZ","Zip":"85120"},{"Location":"1ST AUTO & MARINE","Address":"2162 W Apache Trl","City":"Apache Junction","State":"AZ","Zip":"85120"},{"Location":"AMERICAN LAND LEASE","Address":"10936 E Apache Trl","City":"Apache Junction","State":"AZ","Zip":"85120"},{"Location":"APACHE AUTO SALES","Address":"11260 E Apache Trl","City":"Apache Junction","State":"AZ","Zip":"85120"},{"Location":"APACHE GOLF COURSE","Address":"3401 S Ironwood Dr","City":"Apache Junction","State":"AZ","Zip":"85120"},{"Location":"APACHE GREYHOUND PARK","Address":"2551 W Apache Trl","City":"Apache Junction","State":"AZ","Zip":"85120"},{"Location":"APACHE HAIR STUDIO","Address":"3061 W Apache Trl","City":"Apache Junction","State":"AZ","Zip":"85120"},{"Location":"APACHE JUNCTION 2","Address":"1441 S Ironwood Dr","City":"Apache Junction","State":"AZ","Zip":"85120"},{"Location":"APACHE JUNCTION MOOSE #2039","Address":"350 W 16th Ave","City":"Apache Junction","State":"AZ","Zip":"85120"},{"Location":"APACHE POST 27","Address":"1018 S Meridian Rd","City":"Apache Junction","State":"AZ","Zip":"85120"},{"Location":"AZTECH RADIOLOGY4","Address":"1840 W Apache Trl","City":"Apache Junction","State":"AZ","Zip":"85120"},{"Location":"BENJAMIN","Address":"850 S Ironwood Dr","City":"Apache Junction","State":"AZ","Zip":"85120"},{"Location":"BROADWAY SAN MARCOS","Address":"900 W Broadway Ave 85","City":"Apache Junction","State":"AZ","Zip":"85120"},{"Location":"COBBS RESTAURANT","Address":"944 W Apache Trl","City":"Apache Junction","State":"AZ","Zip":"85120"},{"Location":"COUNTRY CABLE RV","Address":"310 S Signal Butte Rd","City":"Apache Junction","State":"AZ","Zip":"85120"},{"Location":"DESERT FLAME","Address":"11145 E Apache Trl","City":"Apache Junction","State":"AZ","Zip":"85120"},{"Location":"DESERT HARBOR","Address":"3700 S Ironwood Dr","City":"Apache Junction","State":"AZ","Zip":"85120"},{"Location":"DOG RUN SALOON","Address":"320 W Superstition Blvd 111","City":"Apache Junction","State":"AZ","Zip":"85120"},{"Location":"EAST END BARBER SHOP","Address":"100 W Apache Trl 6","City":"Apache Junction","State":"AZ","Zip":"85120"},{"Location":"ELVIRAS MEXICAN REST","Address":"1520 W Apache Trl","City":"Apache Junction","State":"AZ","Zip":"85120"},{"Location":"ERIC DERTOS MEXICAN FOOD","Address":"11550 E Apache Trl","City":"Apache Junction","State":"AZ","Zip":"85120"},{"Location":"Fatman'S Pizza & Grill","Address":"2430 W Apache Trl","City":"Apache Junction","State":"AZ","Zip":"85120"},{"Location":"FATMANS PIZZA","Address":"2430 W Apache Trl 2","City":"Apache Junction","State":"AZ","Zip":"85120"},{"Location":"FMC 62420000","Address":"11540 E University Dr","City":"Apache Junction","State":"AZ","Zip":"85120"},{"Location":"FRATERNAL ORDER OF EAGLES #2","Address":"2315 S Coconino Dr","City":"Apache Junction","State":"AZ","Zip":"85120"},{"Location":"GAJANAND INC","Address":"420 S Main Dr","City":"Apache Junction","State":"AZ","Zip":"85120"},{"Location":"GOLDEN SUN RV RESORT","Address":"999 W Broadway Ave","City":"Apache Junction","State":"AZ","Zip":"85120"},{"Location":"HACKER'S GRILL","Address":"310 N Plaza Dr","City":"Apache Junction","State":"AZ","Zip":"85120"},{"Location":"HANDLEBAR PUB & GRILL","Address":"650 W Apache Trl","City":"Apache Junction","State":"AZ","Zip":"85120"},{"Location":"IDEAL CARS","Address":"10207 E Apache Trl","City":"Apache Junction","State":"AZ","Zip":"85120"},{"Location":"JIFFY LUBE- APACHE JUNCTION","Address":"428 W Apache Trl","City":"Apache Junction","State":"AZ","Zip":"85120"},{"Location":"KING UP IN SMOKE SHOP","Address":"10250 E Apache Trl","City":"Apache Junction","State":"AZ","Zip":"85120"},{"Location":"LA CASA BLANCA","Address":"2208 W Baseline Ave","City":"Apache Junction","State":"AZ","Zip":"85120"},{"Location":"LA CASITA OF AJ","Address":"495 W Apache Trl","City":"Apache Junction","State":"AZ","Zip":"85120"},{"Location":"LAWRENCE GARRETT VFW POST 7968","Address":"250 S Phelps Dr","City":"Apache Junction","State":"AZ","Zip":"85120"},{"Location":"LOS GRINGOS LOCOS","Address":"280 S Phelps Dr","City":"Apache Junction","State":"AZ","Zip":"85120"},{"Location":"MIRAGE SPORTS GRILL","Address":"725 W Apache Trl 2a","City":"Apache Junction","State":"AZ","Zip":"85120"},{"Location":"NISSI MEXICAN FOOD","Address":"1985 W Apache Trl","City":"Apache Junction","State":"AZ","Zip":"85120"},{"Location":"PACIFIC MOBILE MANOR","Address":"10220 E Apache Trl","City":"Apache Junction","State":"AZ","Zip":"85120"},{"Location":"PERSONAL LANDSCAPER 4 U","Address":"364 W 17th Ave","City":"Apache Junction","State":"AZ","Zip":"85120"},{"Location":"PINAL COUNTY FEDERAL CU","Address":"290 S Phelps Dr","City":"Apache Junction","State":"AZ","Zip":"85120"},{"Location":"PIZZA HUT 028243","Address":"240 S Phelps Dr","City":"Apache Junction","State":"AZ","Zip":"85120"},{"Location":"PLEASANT ACRES TRAILER PARK","Address":"1930 W Apache Trl","City":"Apache Junction","State":"AZ","Zip":"85120"},{"Location":"PRIDE RESTAURANT GROUP","Address":"530 W Apache Trl","City":"Apache Junction","State":"AZ","Zip":"85120"},{"Location":"PUEBLO MANOR","Address":"834 S Meridian Rd","City":"Apache Junction","State":"AZ","Zip":"85120"},{"Location":"SAGUARO RV AND MOBILE RESORT","Address":"275 N Saguaro Dr","City":"Apache Junction","State":"AZ","Zip":"85120"},{"Location":"SAGUARO RV AND MOBILE RESORTT","Address":"275 N Saguaro Dr","City":"Apache Junction","State":"AZ","Zip":"85120"},{"Location":"SHIPROCK RV RESORT","Address":"1700 W Shiprock St","City":"Apache Junction","State":"AZ","Zip":"85120"},{"Location":"STOP N SHOP LLC","Address":"32 N 114th St","City":"Apache Junction","State":"AZ","Zip":"85120"},{"Location":"VFW","Address":"133 N Saguaro Dr","City":"Apache Junction","State":"AZ","Zip":"85120"},{"Location":"VILLAGE INN #110390","Address":"575 W Apache Trl","City":"Apache Junction","State":"AZ","Zip":"85120"}]