[{"Location":"ACO POLYMER PRODUCTS INC","Address":"825 W Beechcraft St","City":"Casa Grande","State":"AZ","Zip":"85122"},{"Location":"AGAINST ABUSE INC","Address":"995 N Arizola Rd A","City":"Casa Grande","State":"AZ","Zip":"85122"},{"Location":"AGAINST ABUSE INC","Address":"995 N Arizola Rd Bldgb","City":"Casa Grande","State":"AZ","Zip":"85122"},{"Location":"AIRPORT TAVERN","Address":"1801 N Pinal Ave","City":"Casa Grande","State":"AZ","Zip":"85122"},{"Location":"ANHEUSER-BUSCH WHLSLR #10257A","Address":"1000 N Jefferson Ave","City":"Casa Grande","State":"AZ","Zip":"85122"},{"Location":"ANIMAL MEDICAL CENTER","Address":"3151 N Piper Ave 107","City":"Casa Grande","State":"AZ","Zip":"85122"},{"Location":"ARIZONA  GRAIN","Address":"601 E Main Ave","City":"Casa Grande","State":"AZ","Zip":"85122"},{"Location":"ARIZONA PRIORITY CARE","Address":"1811 E Mcmurray Blvd","City":"Casa Grande","State":"AZ","Zip":"85122"},{"Location":"ASPEN DENTAL #1041","Address":"1775 E Florence Blvd 104","City":"Casa Grande","State":"AZ","Zip":"85122"},{"Location":"AUZA RANCHES","Address":"843 W Cottonwood Ln","City":"Casa Grande","State":"AZ","Zip":"85122"},{"Location":"BARRINGTON'S PUB","Address":"864 E Jimmie Kerr Blvd","City":"Casa Grande","State":"AZ","Zip":"85122"},{"Location":"BARROS PIZZA","Address":"2820 N Pinal Ave 1","City":"Casa Grande","State":"AZ","Zip":"85122"},{"Location":"BENEVOLENT AND PROTECTIVE","Address":"909 E Florence Blvd","City":"Casa Grande","State":"AZ","Zip":"85122"},{"Location":"BEVERAGE MART","Address":"930 E Florence Blvd","City":"Casa Grande","State":"AZ","Zip":"85122"},{"Location":"BIG BOY TIRES","Address":"1300 E Jimmie Kerr Blvd","City":"Casa Grande","State":"AZ","Zip":"85122"},{"Location":"BIG HOUSE BARBERSHOP","Address":"112 N Florence St","City":"Casa Grande","State":"AZ","Zip":"85122"},{"Location":"BIG HOUSE CAFE","Address":"104 E 4th St","City":"Casa Grande","State":"AZ","Zip":"85122"},{"Location":"BRAKE MASTERS OF PHOENIX #212","Address":"1649 E Florence Blvd","City":"Casa Grande","State":"AZ","Zip":"85122"},{"Location":"BRIGHTON COLLISION CENTER","Address":"3114 N Lear Ave","City":"Casa Grande","State":"AZ","Zip":"85122"},{"Location":"CABOS 1","Address":"777 N Pinal Ave","City":"Casa Grande","State":"AZ","Zip":"85122"},{"Location":"CANCER TREATMENT SERVICES AZ","Address":"1876 E Sabin Dr 10","City":"Casa Grande","State":"AZ","Zip":"85122"},{"Location":"CASA GRANDE DENTAL CARE","Address":"992 E Cottonwood Ln 106","City":"Casa Grande","State":"AZ","Zip":"85122"},{"Location":"CASA GRANDE FAMILY DENTISTRY 2","Address":"1355 E Florence Blvd 107","City":"Casa Grande","State":"AZ","Zip":"85122"},{"Location":"CASA GRANDE FITNESS","Address":"2080 N Trekell Rd","City":"Casa Grande","State":"AZ","Zip":"85122"},{"Location":"CASA GRANDE SURGERY SPECIALIST","Address":"1281 E Cottonwood Ln","City":"Casa Grande","State":"AZ","Zip":"85122"},{"Location":"CG COMMODITY","Address":"1495 North Vip Blvd","City":"Casa Grande","State":"AZ","Zip":"85122"},{"Location":"CHILI'S #0852","Address":"1532 E Florence Blvd","City":"Casa Grande","State":"AZ","Zip":"85122"},{"Location":"CITY OF CASA GRANDE","Address":"540 N Camino Mercado","City":"Casa Grande","State":"AZ","Zip":"85122"},{"Location":"CITY OF CASA GRANDE AIRPORT","Address":"3225 N Lear Ave","City":"Casa Grande","State":"AZ","Zip":"85122"},{"Location":"CORAZON","Address":"900 E Florence Blvd G","City":"Casa Grande","State":"AZ","Zip":"85122"},{"Location":"COTTON BOWL LANES","Address":"1740 N Pinal Ave","City":"Casa Grande","State":"AZ","Zip":"85122"},{"Location":"CREATIVE LABOR","Address":"1420 N Trekell Rd","City":"Casa Grande","State":"AZ","Zip":"85122"},{"Location":"CROSSROADS","Address":"314 W 11th St","City":"Casa Grande","State":"AZ","Zip":"85122"},{"Location":"CROSSROADS SELF STORAGE","Address":"819 N French St","City":"Casa Grande","State":"AZ","Zip":"85122"},{"Location":"DAVE WHITE MUNICIPAL GOLF","Address":"2121 N Thornton Rd","City":"Casa Grande","State":"AZ","Zip":"85122"},{"Location":"DELL'S PIZZA","Address":"1654 N Pinal Ave","City":"Casa Grande","State":"AZ","Zip":"85122"},{"Location":"DESERT CARE FAMILY","Address":"1968 N Peart Rd Sute3","City":"Casa Grande","State":"AZ","Zip":"85122"},{"Location":"DIVAS HAIR & NAILS","Address":"958 E Rodeo Rd 28","City":"Casa Grande","State":"AZ","Zip":"85122"},{"Location":"EVAS FINE MEX FOOD","Address":"2033 N Pinal Ave","City":"Casa Grande","State":"AZ","Zip":"85122"},{"Location":"FAMILY TYS ASSISTED LIVI","Address":"1745 N Palm Parke Blvd","City":"Casa Grande","State":"AZ","Zip":"85122"},{"Location":"FMC 62690000","Address":"1875 E Sabin Dr","City":"Casa Grande","State":"AZ","Zip":"85122"},{"Location":"FOOD FOR LIFE INC","Address":"1073 W Park Blvd","City":"Casa Grande","State":"AZ","Zip":"85122"},{"Location":"GRACE BUFFET","Address":"1677 E Florence Blvd 27","City":"Casa Grande","State":"AZ","Zip":"85122"},{"Location":"GREAT WESTERN BANK","Address":"1300 E Florence Blvd","City":"Casa Grande","State":"AZ","Zip":"85122"},{"Location":"GUIDOTTI INSURANCE","Address":"2028 N Trekell Rd 101","City":"Casa Grande","State":"AZ","Zip":"85122"},{"Location":"HOOVER WELL SERVICES","Address":"1203 N Schultz St","City":"Casa Grande","State":"AZ","Zip":"85122"},{"Location":"KELLY T NAIL& SPA LLC","Address":"973 E Cottonwood Ln 107","City":"Casa Grande","State":"AZ","Zip":"85122"},{"Location":"LA FITNESS 132","Address":"2024 E Florence Blvd","City":"Casa Grande","State":"AZ","Zip":"85122"},{"Location":"LEISURE VALLEY LLC","Address":"9985 N Pinal Ave","City":"Casa Grande","State":"AZ","Zip":"85122"},{"Location":"LONEDAS BEAUTY & NAILS","Address":"1756 N Pinal Ave 1","City":"Casa Grande","State":"AZ","Zip":"85122"},{"Location":"LOS CABALLEROSINC","Address":"665 N Pinal Ave","City":"Casa Grande","State":"AZ","Zip":"85122"},{"Location":"MACAYO CASA GRANDE","Address":"1564 E Florence Blvd","City":"Casa Grande","State":"AZ","Zip":"85122"},{"Location":"MCMASHERS SPORTS","Address":"1355 E Florence Blvd 139","City":"Casa Grande","State":"AZ","Zip":"85122"},{"Location":"NATIONAL VITAMIN CO","Address":"1145 W Gila Bend Hwy","City":"Casa Grande","State":"AZ","Zip":"85122"},{"Location":"NEW HORIZONS WOMENS CARE","Address":"1187 E Cottonwood Ln B","City":"Casa Grande","State":"AZ","Zip":"85122"},{"Location":"NEXTCARE URGENT CARE LLC","Address":"1683 E Florence Blvd 7","City":"Casa Grande","State":"AZ","Zip":"85122"},{"Location":"PANARIDUS","Address":"3151 Horth Cassna%2C Unit 112","City":"Casa Grande","State":"AZ","Zip":"85122"},{"Location":"PARC PLACE","Address":"1120 E 6th St","City":"Casa Grande","State":"AZ","Zip":"85122"},{"Location":"PARTY TREASURE","Address":"1355 E Florence Blvd 133","City":"Casa Grande","State":"AZ","Zip":"85122"},{"Location":"PEDIATRIC DENTAL","Address":"1968 N Peart Rd 19","City":"Casa Grande","State":"AZ","Zip":"85122"},{"Location":"PEETER PIPPER PIZZA # 016","Address":"1355 E Florence Blvd","City":"Casa Grande","State":"AZ","Zip":"85122"},{"Location":"PHI MEDICAL AE6 AIR EVAC","Address":"1829 E Mcmurray Blvd","City":"Casa Grande","State":"AZ","Zip":"85122"},{"Location":"PINAL COUNTY FED CREDIT UNION","Address":"1000 E Florence Blvd","City":"Casa Grande","State":"AZ","Zip":"85122"},{"Location":"PINAL HISPANIC COUNCIL","Address":"330 N Picacho St","City":"Casa Grande","State":"AZ","Zip":"85122"},{"Location":"PIZZA ITALIAN RESTAURANT","Address":"1609 E Florence Blvd","City":"Casa Grande","State":"AZ","Zip":"85122"},{"Location":"PREMIER CARDIOVASCULAR CENTER","Address":"803 N Salk Dr B","City":"Casa Grande","State":"AZ","Zip":"85122"},{"Location":"QUICK CLEAN LAUNDROMAT","Address":"950 E Florence Blvd","City":"Casa Grande","State":"AZ","Zip":"85122"},{"Location":"SENOR SUSHI","Address":"1601 E Florence Blvd","City":"Casa Grande","State":"AZ","Zip":"85122"},{"Location":"SLICK TOPS2","Address":"1319 N Pinal Ave","City":"Casa Grande","State":"AZ","Zip":"85122"},{"Location":"SNAP FITNESS","Address":"1667 N Trekell Rd 102","City":"Casa Grande","State":"AZ","Zip":"85122"},{"Location":"SOUTHWEST AMBULANCE 13","Address":"2250 N Pinal Ave 3","City":"Casa Grande","State":"AZ","Zip":"85122"},{"Location":"SPARKLE AUTO WASH","Address":"1635 E Florence Blvd","City":"Casa Grande","State":"AZ","Zip":"85122"},{"Location":"TOMMY S BISTRO","Address":"913 E 8th St","City":"Casa Grande","State":"AZ","Zip":"85122"},{"Location":"VALENZUELAS BOOTS WEST","Address":"611 E Florence Blvd A","City":"Casa Grande","State":"AZ","Zip":"85122"},{"Location":"WONDER BAR","Address":"310 W 2nd St","City":"Casa Grande","State":"AZ","Zip":"85122"}]