[{"Location":"AFFINITY PHYSICAL THERAP","Address":"1491 N Arizona Blvd","City":"Coolidge","State":"AZ","Zip":"85128"},{"Location":"AGRONOMY INOVATIONS LLC","Address":"1341 W Industrial Dr","City":"Coolidge","State":"AZ","Zip":"85128"},{"Location":"AMERICAN LEGION POST 54","Address":"408 N Main St","City":"Coolidge","State":"AZ","Zip":"85128"},{"Location":"BUDGET MEDICAL","Address":"1910 S Arizona Blvd","City":"Coolidge","State":"AZ","Zip":"85128"},{"Location":"CENTRAL ARIZONA COLLEGE","Address":"8470 N Overfield Rd","City":"Coolidge","State":"AZ","Zip":"85128"},{"Location":"DISTRICT 1 MULTIUSE BLDG","Address":"15747 N Shegoi Rd","City":"Coolidge","State":"AZ","Zip":"85128"},{"Location":"DREAM LINE LLC","Address":"295 S Arizona Blvd","City":"Coolidge","State":"AZ","Zip":"85128"},{"Location":"GALLOPIN GOOSE INC","Address":"1980 S Arizona Blvd","City":"Coolidge","State":"AZ","Zip":"85128"},{"Location":"NETWORK","Address":"1024 N Arizona Blvd","City":"Coolidge","State":"AZ","Zip":"85128"},{"Location":"PINAL COUNTY FEDERAL CREDIT UN","Address":"1491 N Arizona Blvd 101","City":"Coolidge","State":"AZ","Zip":"85128"},{"Location":"PINAL HARVESTING","Address":"12474 N Curry Rd","City":"Coolidge","State":"AZ","Zip":"85128"},{"Location":"PINAL HISPANIC COUNCIL3","Address":"556 S Arizona Blvd","City":"Coolidge","State":"AZ","Zip":"85128"},{"Location":"PIZZA HUT","Address":"109 N Arizona Blvd","City":"Coolidge","State":"AZ","Zip":"85128"},{"Location":"RURAL%2FMETRO CORP - COOLIDGE","Address":"775 N Arizona Blvd 9","City":"Coolidge","State":"AZ","Zip":"85128"},{"Location":"SHORTYS","Address":"145 W Central Ave","City":"Coolidge","State":"AZ","Zip":"85128"},{"Location":"SNAP FITNESS #1337","Address":"1491 N Arizona Blvd","City":"Coolidge","State":"AZ","Zip":"85128"},{"Location":"VINCE SMITH","Address":"800 N 9th St","City":"Coolidge","State":"AZ","Zip":"85128"}]