[{"Location":"AIR METHODS","Address":"325 Greenwich Rd","City":"Kearny","State":"AZ","Zip":"85137"},{"Location":"ARC VOCATIONAL TRNG","Address":"316 Alden Rd","City":"Kearny","State":"AZ","Zip":"85137"},{"Location":"GENERAL KEARNY INN MOTEL","Address":"301 Alden Rd","City":"Kearny","State":"AZ","Zip":"85137"},{"Location":"INFANT JESUS OF PRAGUE","Address":"501 W Victoria","City":"Kearny","State":"AZ","Zip":"85137"},{"Location":"NATIONAL COMMERCIAL","Address":"59270 E Dix Dr","City":"Kearny","State":"AZ","Zip":"85137"},{"Location":"ROSALIA S","Address":"301 Alden Rd","City":"Kearny","State":"AZ","Zip":"85137"},{"Location":"AIR METHODS","Address":"325 Greenwich Rd","City":"Kearny","State":"AZ","Zip":"85137"},{"Location":"ARC VOCATIONAL TRNG","Address":"316 Alden Rd","City":"Kearny","State":"AZ","Zip":"85137"},{"Location":"GENERAL KEARNY INN MOTEL","Address":"301 Alden Rd","City":"Kearny","State":"AZ","Zip":"85137"},{"Location":"INFANT JESUS OF PRAGUE","Address":"501 W Victoria","City":"Kearny","State":"AZ","Zip":"85137"},{"Location":"NATIONAL COMMERCIAL","Address":"59270 E Dix Dr","City":"Kearny","State":"AZ","Zip":"85137"},{"Location":"ROSALIA S","Address":"301 Alden Rd","City":"Kearny","State":"AZ","Zip":"85137"}]