[{"Location":"","Address":"10155 N Sidewinder Cir","City":"Florence","State":"AZ","Zip":"85132"},{"Location":"A&M PIZZZA","Address":"445 W Highway 287","City":"Florence","State":"AZ","Zip":"85132"},{"Location":"AFFINITY PHYSICAL THERAP","Address":"350 S Main St","City":"Florence","State":"AZ","Zip":"85132"},{"Location":"AIR METHOD","Address":"4545 N Hunt Hwy","City":"Florence","State":"AZ","Zip":"85132"},{"Location":"BIG QUICKS BBQ","Address":"727 E Gressinger St","City":"Florence","State":"AZ","Zip":"85132"},{"Location":"CURLEY MOES","Address":"31 W 20th St","City":"Florence","State":"AZ","Zip":"85132"},{"Location":"DAWGS 727","Address":"2501 Hwy 79","City":"Florence","State":"AZ","Zip":"85132"},{"Location":"DESERT GARDENS RV PARK","Address":"9668 N Highway 79","City":"Florence","State":"AZ","Zip":"85132"},{"Location":"FMC 62740000","Address":"300 W Highway 287","City":"Florence","State":"AZ","Zip":"85132"},{"Location":"INN AT RANCHO SONORA","Address":"9198 N Highway 79","City":"Florence","State":"AZ","Zip":"85132"},{"Location":"JALAPENOS RESTAURANT","Address":"981 S Main St","City":"Florence","State":"AZ","Zip":"85132"},{"Location":"KOKOPELLI MOON SALOON","Address":"255 N Main St","City":"Florence","State":"AZ","Zip":"85132"},{"Location":"MAIN STREET FAMILY PRACTICE","Address":"660 S Main St","City":"Florence","State":"AZ","Zip":"85132"},{"Location":"MERRILL RANCH DENTAL","Address":"3385 N Hunt Hwy","City":"Florence","State":"AZ","Zip":"85132"},{"Location":"MOUNT ATHOS  CAFE","Address":"444 N Pinal Pkwy","City":"Florence","State":"AZ","Zip":"85132"},{"Location":"SAFEWAY 2835","Address":"3325 N Hunt Hwy","City":"Florence","State":"AZ","Zip":"85132"},{"Location":"VALENTINOS EATERY LP","Address":"3385 N Hunt Hwy","City":"Florence","State":"AZ","Zip":"85132"},{"Location":"A&M PIZZZA","Address":"445 W Highway 287","City":"Florence","State":"AZ","Zip":"85132"},{"Location":"AFFINITY PHYSICAL THERAP","Address":"350 S Main St","City":"Florence","State":"AZ","Zip":"85132"},{"Location":"AIR METHOD","Address":"4545 N Hunt Hwy","City":"Florence","State":"AZ","Zip":"85132"},{"Location":"BIG QUICKS BBQ","Address":"727 E Gressinger St","City":"Florence","State":"AZ","Zip":"85132"},{"Location":"CURLEY MOES","Address":"31 W 20th St","City":"Florence","State":"AZ","Zip":"85132"},{"Location":"DAWGS 727","Address":"2501 Hwy 79","City":"Florence","State":"AZ","Zip":"85132"},{"Location":"DESERT GARDENS RV PARK","Address":"9668 N Highway 79","City":"Florence","State":"AZ","Zip":"85132"},{"Location":"FMC 62740000","Address":"300 W Highway 287","City":"Florence","State":"AZ","Zip":"85132"},{"Location":"INN AT RANCHO SONORA","Address":"9198 N Highway 79","City":"Florence","State":"AZ","Zip":"85132"},{"Location":"JALAPENOS RESTAURANT","Address":"981 S Main St","City":"Florence","State":"AZ","Zip":"85132"},{"Location":"KOKOPELLI MOON SALOON","Address":"255 N Main St","City":"Florence","State":"AZ","Zip":"85132"},{"Location":"MAIN STREET FAMILY PRACTICE","Address":"660 S Main St","City":"Florence","State":"AZ","Zip":"85132"},{"Location":"MERRILL RANCH DENTAL","Address":"3385 N Hunt Hwy","City":"Florence","State":"AZ","Zip":"85132"},{"Location":"MOUNT ATHOS  CAFE","Address":"444 N Pinal Pkwy","City":"Florence","State":"AZ","Zip":"85132"},{"Location":"SAFEWAY 2835","Address":"3325 N Hunt Hwy","City":"Florence","State":"AZ","Zip":"85132"},{"Location":"VALENTINOS EATERY LP","Address":"3385 N Hunt Hwy","City":"Florence","State":"AZ","Zip":"85132"}]