[{"Location":"CENTRAL AZ COLD STORAGE","Address":"390 E Alsdorf Rd","City":"Eloy","State":"AZ","Zip":"85131"},{"Location":"CORRECTIONS CORPORATION OF AME","Address":"5501 N La Palma Rd","City":"Eloy","State":"AZ","Zip":"85131"},{"Location":"ELOY POLICE DEPT","Address":"630 N Main St","City":"Eloy","State":"AZ","Zip":"85131"},{"Location":"LUMINARIA1","Address":"3477 E Batten Rd","City":"Eloy","State":"AZ","Zip":"85131"},{"Location":"PETRO 306 ELOY","Address":"5235 S Sunland Gin Rd","City":"Eloy","State":"AZ","Zip":"85131"},{"Location":"PILOT FLYING J #45800","Address":"619 S Sunshine Blvd","City":"Eloy","State":"AZ","Zip":"85131"},{"Location":"PILOT FLYING J #60900","Address":"1005 S Sunshine Blvd","City":"Eloy","State":"AZ","Zip":"85131"},{"Location":"PINAL HISPANIC COUNCIL 2","Address":"107 E 4th St","City":"Eloy","State":"AZ","Zip":"85131"},{"Location":"PIZZA HUT OF ARIZONA","Address":"3720 N Tohono Dr","City":"Eloy","State":"AZ","Zip":"85131"},{"Location":"ROBSON COMMUNITIES INC","Address":"5810 N Robson Blvd","City":"Eloy","State":"AZ","Zip":"85131"},{"Location":"ROBSON RANCH GRILL","Address":"5750 N Robson Blvd","City":"Eloy","State":"AZ","Zip":"85131"},{"Location":"SKYDIVE ARIZONA","Address":"4900 N Taylor St","City":"Eloy","State":"AZ","Zip":"85131"},{"Location":"TCA 007 ELOY","Address":"2949 S Toltec Rd","City":"Eloy","State":"AZ","Zip":"85131"},{"Location":"THE BRENT PROP SALOON","Address":"4828 N Taylor St","City":"Eloy","State":"AZ","Zip":"85131"},{"Location":"WESTERN AUTO","Address":"408 N Main St","City":"Eloy","State":"AZ","Zip":"85131"}]