[{"Location":"PENASCOS","Address":"20046 N John Wayne Pkwy","City":"Maricop","State":"AZ","Zip":"85139"},{"Location":"360 PHYSICAL THERAPY","Address":"21083 N John Wayne Pkwy C104","City":"Maricopa","State":"AZ","Zip":"85139"},{"Location":"AGAINST ABUSE 3 INC","Address":"45100 West Ed Green Lane","City":"Maricopa","State":"AZ","Zip":"85139"},{"Location":"AK CHIN INDIAN COMM DETENTION","Address":"45525 W Farrell Rd","City":"Maricopa","State":"AZ","Zip":"85139"},{"Location":"AK CHIN INDIAN COMM JUSTICE","Address":"45525 W Farrell Rd","City":"Maricopa","State":"AZ","Zip":"85139"},{"Location":"CREATIVE ENTERTAINMENT","Address":"160000 Maricopa Rd","City":"Maricopa","State":"AZ","Zip":"85139"},{"Location":"FIREHOUSE SUBS MARICOPA","Address":"21083 N John Wayne Pkwy C101","City":"Maricopa","State":"AZ","Zip":"85139"},{"Location":"FMC 62710000","Address":"16536 N Maricopa Rd","City":"Maricopa","State":"AZ","Zip":"85139"},{"Location":"HARRA'S AK CHIN CASINO","Address":"15406 N Maricopa Rd","City":"Maricopa","State":"AZ","Zip":"85139"},{"Location":"MARICOPA ASSOCIATES IN D","Address":"21300 N John Wayne Pkwy 128","City":"Maricopa","State":"AZ","Zip":"85139"},{"Location":"MARICOPA FIRE DEPT","Address":"36930 W Bowlin Rd","City":"Maricopa","State":"AZ","Zip":"85139"},{"Location":"NAILS 4 YOU","Address":"20546 N John Wayne Pkwy 106","City":"Maricopa","State":"AZ","Zip":"85139"},{"Location":"NATIVE NEW YORKER","Address":"21164 N John Wayne Pkwy","City":"Maricopa","State":"AZ","Zip":"85139"},{"Location":"NATIVE NEWYORKER 2","Address":"21164 N John Wayne Pkwy","City":"Maricopa","State":"AZ","Zip":"85139"},{"Location":"O'SHAYS PUB AND GRILL","Address":"20800 N John Wayne Pkwy 101","City":"Maricopa","State":"AZ","Zip":"85139"},{"Location":"PETERSEN PHYSICAL THER","Address":"21300 N John Wayne Pkwy 125","City":"Maricopa","State":"AZ","Zip":"85139"},{"Location":"PIZZA HUT-MARICOPA","Address":"21051 N John Wayne Pkwy","City":"Maricopa","State":"AZ","Zip":"85139"},{"Location":"PLAZA BONITA","Address":"21141 N John Wayne Pkwy","City":"Maricopa","State":"AZ","Zip":"85139"},{"Location":"RACEWAY BAR GRILL","Address":"49237 W Papago Rd","City":"Maricopa","State":"AZ","Zip":"85139"},{"Location":"SONIC AMERICAS DRIVE IN","Address":"21470 N John Wayne Pkwy","City":"Maricopa","State":"AZ","Zip":"85139"},{"Location":"SOUTHEAST DIRECTIONAL DRILLING","Address":"44779 W Horse Mesa Rd","City":"Maricopa","State":"AZ","Zip":"85139"},{"Location":"SOUTHERN DUNES","Address":"48456 W Highway 238","City":"Maricopa","State":"AZ","Zip":"85139"},{"Location":"SOUTHERN DUNES GOLF CLUB","Address":"48456 Arizona 238","City":"Maricopa","State":"AZ","Zip":"85139"},{"Location":"SPORTS AND CUTS BARBERSH","Address":"20924 N John Wayne Pkwy D2","City":"Maricopa","State":"AZ","Zip":"85139"},{"Location":"TACOS & MORE 2","Address":"21596 N John Wayne Pkwy","City":"Maricopa","State":"AZ","Zip":"85139"},{"Location":"TRYME BARBER SHOP","Address":"19395 N John Wayne Pkwy 3","City":"Maricopa","State":"AZ","Zip":"85139"},{"Location":"UNITED GOODYEAR FIRE FIGHTERS","Address":"42960 S 99th Ave","City":"Maricopa","State":"AZ","Zip":"85139"}]