[{"Location":"ANYTIME FITNESS QUEEN CREEK","Address":"287 E Hunt Hwy 101","City":"Queen Creek","State":"AZ","Zip":"85143"},{"Location":"CHEN CHINESE RESTAURANTS","Address":"530 E Hunt Hwy 125","City":"Queen Creek","State":"AZ","Zip":"85143"},{"Location":"FILIBERTOS","Address":"2510 E Hunt Hwy 20","City":"Queen Creek","State":"AZ","Zip":"85143"},{"Location":"GENOS PIZZA QUEEN CREEK","Address":"2510 E Hunt Hwy 15","City":"Queen Creek","State":"AZ","Zip":"85143"},{"Location":"JOHNSON RANCH TIRE AND AUTO","Address":"1360 West Hunt Hwy","City":"Queen Creek","State":"AZ","Zip":"85143"},{"Location":"MCDONALD'S","Address":"305 E Hunt Hwy","City":"Queen Creek","State":"AZ","Zip":"85143"},{"Location":"NATIVE NEW YORKER","Address":"1750 W Hunt Hwy","City":"Queen Creek","State":"AZ","Zip":"85143"},{"Location":"PACIFIC DENTAL","Address":"1714 W Hunt Hwy","City":"Queen Creek","State":"AZ","Zip":"85143"},{"Location":"PIZZA HUT-QUEEN CREEK","Address":"561 E Bella Vista Rd 100","City":"Queen Creek","State":"AZ","Zip":"85143"},{"Location":"ROSATIS PIZZA","Address":"287 E Hunt Hwy 108","City":"Queen Creek","State":"AZ","Zip":"85143"},{"Location":"THE GYN GRILL AND BAR","Address":"2510 E Hunt Hwy 1","City":"Queen Creek","State":"AZ","Zip":"85143"},{"Location":"BARROS PIZZA","Address":"2436 E Hunt Hwy","City":"San Tan Valley","State":"AZ","Zip":"85143"},{"Location":"COPPER DENTAL","Address":"2510 E Hunt Hwy 28","City":"San Tan Valley","State":"AZ","Zip":"85143"},{"Location":"CT NAILS","Address":"270 E Hunt Hwy 21","City":"San Tan Valley","State":"AZ","Zip":"85143"},{"Location":"DUNKIN DONUTS","Address":"1662 W Hunt Hwy","City":"San Tan Valley","State":"AZ","Zip":"85143"},{"Location":"EUNICE HAIR SALON","Address":"2510 E Hunt Hwy","City":"San Tan Valley","State":"AZ","Zip":"85143"},{"Location":"FIREHOUSE SUBS","Address":"1735 W Hunt Hwy 106","City":"San Tan Valley","State":"AZ","Zip":"85143"},{"Location":"JNJ LANDSCAPING LLC","Address":"27812 N Attaway Rd","City":"San Tan Valley","State":"AZ","Zip":"85143"},{"Location":"SAN TAN VALLEY NAILS & S","Address":"530 E Hunt Hwy 109","City":"San Tan Valley","State":"AZ","Zip":"85143"},{"Location":"SKYLINE PIZZA LLC","Address":"1409 E Poncho Ln","City":"San Tan Valley","State":"AZ","Zip":"85143"},{"Location":"SPORT CLIPS AZ120","Address":"1753 W Hunt Hwy 105","City":"San Tan Valley","State":"AZ","Zip":"85143"},{"Location":"YOBOBA TEA HOUSE","Address":"530 E Hunt Hwy 117","City":"San Tan Valley","State":"AZ","Zip":"85143"},{"Location":"SUBWAY","Address":"1741 W Hunt Hwy","City":"San Tan Vly","State":"AZ","Zip":"85143"},{"Location":"ANYTIME FITNESS QUEEN CREEK","Address":"287 E Hunt Hwy 101","City":"Queen Creek","State":"AZ","Zip":"85143"},{"Location":"CHEN CHINESE RESTAURANTS","Address":"530 E Hunt Hwy 125","City":"Queen Creek","State":"AZ","Zip":"85143"},{"Location":"FILIBERTOS","Address":"2510 E Hunt Hwy 20","City":"Queen Creek","State":"AZ","Zip":"85143"},{"Location":"GENOS PIZZA QUEEN CREEK","Address":"2510 E Hunt Hwy 15","City":"Queen Creek","State":"AZ","Zip":"85143"},{"Location":"JOHNSON RANCH TIRE AND AUTO","Address":"1360 West Hunt Hwy","City":"Queen Creek","State":"AZ","Zip":"85143"},{"Location":"MCDONALD'S","Address":"305 E Hunt Hwy","City":"Queen Creek","State":"AZ","Zip":"85143"},{"Location":"NATIVE NEW YORKER","Address":"1750 W Hunt Hwy","City":"Queen Creek","State":"AZ","Zip":"85143"},{"Location":"PACIFIC DENTAL","Address":"1714 W Hunt Hwy","City":"Queen Creek","State":"AZ","Zip":"85143"},{"Location":"PIZZA HUT-QUEEN CREEK","Address":"561 E Bella Vista Rd 100","City":"Queen Creek","State":"AZ","Zip":"85143"},{"Location":"ROSATIS PIZZA","Address":"287 E Hunt Hwy 108","City":"Queen Creek","State":"AZ","Zip":"85143"},{"Location":"THE GYN GRILL AND BAR","Address":"2510 E Hunt Hwy 1","City":"Queen Creek","State":"AZ","Zip":"85143"},{"Location":"BARROS PIZZA","Address":"2436 E Hunt Hwy","City":"San Tan Valley","State":"AZ","Zip":"85143"},{"Location":"COPPER DENTAL","Address":"2510 E Hunt Hwy 28","City":"San Tan Valley","State":"AZ","Zip":"85143"},{"Location":"CT NAILS","Address":"270 E Hunt Hwy 21","City":"San Tan Valley","State":"AZ","Zip":"85143"},{"Location":"DUNKIN DONUTS","Address":"1662 W Hunt Hwy","City":"San Tan Valley","State":"AZ","Zip":"85143"},{"Location":"EUNICE HAIR SALON","Address":"2510 E Hunt Hwy","City":"San Tan Valley","State":"AZ","Zip":"85143"},{"Location":"FIREHOUSE SUBS","Address":"1735 W Hunt Hwy 106","City":"San Tan Valley","State":"AZ","Zip":"85143"},{"Location":"JNJ LANDSCAPING LLC","Address":"27812 N Attaway Rd","City":"San Tan Valley","State":"AZ","Zip":"85143"},{"Location":"SAN TAN VALLEY NAILS & S","Address":"530 E Hunt Hwy 109","City":"San Tan Valley","State":"AZ","Zip":"85143"},{"Location":"SKYLINE PIZZA LLC","Address":"1409 E Poncho Ln","City":"San Tan Valley","State":"AZ","Zip":"85143"},{"Location":"SPORT CLIPS AZ120","Address":"1753 W Hunt Hwy 105","City":"San Tan Valley","State":"AZ","Zip":"85143"},{"Location":"YOBOBA TEA HOUSE","Address":"530 E Hunt Hwy 117","City":"San Tan Valley","State":"AZ","Zip":"85143"},{"Location":"SUBWAY","Address":"1741 W Hunt Hwy","City":"San Tan Vly","State":"AZ","Zip":"85143"}]