[{"Location":"BABBO ITALIAN EATERY","Address":"18521 E Queen Creek Rd 101","City":"Queen Creek","State":"AZ","Zip":"85142"},{"Location":"BARNEYS FAMILY SPORTS COMPLEX","Address":"22050 E Queen Creek Rd","City":"Queen Creek","State":"AZ","Zip":"85142"},{"Location":"BFG TIRES AND SERVICE","Address":"7385 S Power Rd","City":"Queen Creek","State":"AZ","Zip":"85142"},{"Location":"BUDDYZ CHICAGO PIZZERIA","Address":"18423 E San Tan Blvd 3","City":"Queen Creek","State":"AZ","Zip":"85142"},{"Location":"CANYON STATE ACADEMY","Address":"20061 E Rittenhouse Rd","City":"Queen Creek","State":"AZ","Zip":"85142"},{"Location":"CASA DEMINA","Address":"25728 S Power Rd","City":"Queen Creek","State":"AZ","Zip":"85142"},{"Location":"CHINA  GOLGEN","Address":"21805 S Ellsworth Rd A114","City":"Queen Creek","State":"AZ","Zip":"85142"},{"Location":"COSTA VIDA QUEEN CREEK","Address":"21152 E Rittenhouse Rd 102","City":"Queen Creek","State":"AZ","Zip":"85142"},{"Location":"DENTAL CENTER OF QUEEN CREEK","Address":"18610 East Rittenhouse Road","City":"Queen Creek","State":"AZ","Zip":"85142"},{"Location":"FIREHOUSE SUBS","Address":"20851 E Rittenhouse Rd 101","City":"Queen Creek","State":"AZ","Zip":"85142"},{"Location":"FLETCHERS TIRE AND AUTO","Address":"18467 E Queen Creek Rd","City":"Queen Creek","State":"AZ","Zip":"85142"},{"Location":"FMC 62730000","Address":"22715 S Ellsworth Rd O","City":"Queen Creek","State":"AZ","Zip":"85142"},{"Location":"FULL CIRCLE AUTO WASH","Address":"7365 S Power Rd","City":"Queen Creek","State":"AZ","Zip":"85142"},{"Location":"GENOS PIZZA","Address":"21172 S Ellsworth Loop Rd 112","City":"Queen Creek","State":"AZ","Zip":"85142"},{"Location":"GOLD MEDAL SWIM SCHOOL","Address":"21187 E Alyssa Rd","City":"Queen Creek","State":"AZ","Zip":"85142"},{"Location":"HARTES CONTRACTING","Address":"21950 E Pickett Ct","City":"Queen Creek","State":"AZ","Zip":"85142"},{"Location":"INTEGRA - HONEYWELL","Address":"2799 N Bob Bowden Blvd","City":"Queen Creek","State":"AZ","Zip":"85142"},{"Location":"KIETEK","Address":"22380 S Scotland Ct","City":"Queen Creek","State":"AZ","Zip":"85142"},{"Location":"KOHL'S #1207","Address":"21058 S Ellsworth Loop Rd","City":"Queen Creek","State":"AZ","Zip":"85142"},{"Location":"LA FITNESS #130","Address":"7225 S Power Rd Blg-a","City":"Queen Creek","State":"AZ","Zip":"85142"},{"Location":"NETWORK AUTOMOTIVE CENTER","Address":"20871 E Rittenhouse Rd","City":"Queen Creek","State":"AZ","Zip":"85142"},{"Location":"OLIVE GARDEN #1863","Address":"21422 S Ellsworth Loop Rd","City":"Queen Creek","State":"AZ","Zip":"85142"},{"Location":"PINAL COUNTY FEDERAL CREDIT UN","Address":"3125 W Hunt Hwy 105","City":"Queen Creek","State":"AZ","Zip":"85142"},{"Location":"QUEEN CREEK OLIVE MILL","Address":"25062 S Meridian Rd","City":"Queen Creek","State":"AZ","Zip":"85142"},{"Location":"RAMARK FARMS","Address":"22601 E Cloud Rd","City":"Queen Creek","State":"AZ","Zip":"85142"},{"Location":"REZA JAFARI DMD PLLC","Address":"18471 E Queen Creek Rd 106","City":"Queen Creek","State":"AZ","Zip":"85142"},{"Location":"RITE  OF  PASSAGE","Address":"20061 E Rittenhouse Rd H","City":"Queen Creek","State":"AZ","Zip":"85142"},{"Location":"RITE OF PASSAGE","Address":"20061 E Rittennesse Rd","City":"Queen Creek","State":"AZ","Zip":"85142"},{"Location":"RITE OF PASSAGE II","Address":"20061 E Rittenhouse Rd","City":"Queen Creek","State":"AZ","Zip":"85142"},{"Location":"ROLLINS PETERSEN ORTHO 2","Address":"18640 E Rittenhouse Rd A102","City":"Queen Creek","State":"AZ","Zip":"85142"},{"Location":"RUDYS RESTAURANT","Address":"21824 S Ellsworth Rd","City":"Queen Creek","State":"AZ","Zip":"85142"},{"Location":"S.E.L. INC","Address":"22002 S Ellsworth Rd","City":"Queen Creek","State":"AZ","Zip":"85142"},{"Location":"SAFEWAY 1819","Address":"18495 E Queen Creek Rd","City":"Queen Creek","State":"AZ","Zip":"85142"},{"Location":"SAN TAN FLATS","Address":"6185 W Hunt Hwy","City":"Queen Creek","State":"AZ","Zip":"85142"},{"Location":"SKIPPY'S GRILL AND CANTINA","Address":"23858 S Power Rd 101","City":"Queen Creek","State":"AZ","Zip":"85142"},{"Location":"STAMPS AUTO LLC","Address":"18705 E Business Park Dr","City":"Queen Creek","State":"AZ","Zip":"85142"},{"Location":"SUBWAY #52924","Address":"21172 S Ellsworth Loop Rd","City":"Queen Creek","State":"AZ","Zip":"85142"},{"Location":"SUSHI CREEK","Address":"21805 S Ellsworth Rd B103","City":"Queen Creek","State":"AZ","Zip":"85142"},{"Location":"TC'S PUB AND GRUB","Address":"7205 S Power Rd A104","City":"Queen Creek","State":"AZ","Zip":"85142"},{"Location":"TIP AND TOE NAIL SPA","Address":"21582 S Ellsworth Loop Rd 118","City":"Queen Creek","State":"AZ","Zip":"85142"},{"Location":"TROPHYS STEAKHOUSE","Address":"7215 S Power Rd","City":"Queen Creek","State":"AZ","Zip":"85142"},{"Location":"UNCLE BEAR'S GRILLE BAR","Address":"21151 E Rittenhouse Rd 101","City":"Queen Creek","State":"AZ","Zip":"85142"},{"Location":"YEPEZ BARBER SHOP","Address":"19035 E San Tan Blvd 107","City":"Queen Creek","State":"AZ","Zip":"85142"}]