[{"Location":"APACHE SUN GOLF RD","Address":"919 E Pima Rd","City":"Queen Creek","State":"AZ","Zip":"85140"},{"Location":"COUNTRY CERAMICS","Address":"40801 N Coyote Rd","City":"Queen Creek","State":"AZ","Zip":"85140"},{"Location":"INBALANCE PT LLC","Address":"36397 N Gantzel Rd","City":"Queen Creek","State":"AZ","Zip":"85140"},{"Location":"MORENOS MEXICAN GRILL","Address":"85 W Combs Rd","City":"Queen Creek","State":"AZ","Zip":"85140"},{"Location":"SKYLINE PIZZA","Address":"5452 E Skyline Dr","City":"Queen Creek","State":"AZ","Zip":"85140"},{"Location":"SWEETIE PEAZ","Address":"85 W Combs Rd 111","City":"Queen Creek","State":"AZ","Zip":"85140"},{"Location":"24 HOUR FITNESS","Address":"40601 N Ganzel Rd","City":"San Tan Valley","State":"AZ","Zip":"85140"},{"Location":"ACCENTS HAIR  SALON","Address":"40975 N Ironwood Dr","City":"San Tan Valley","State":"AZ","Zip":"85140"},{"Location":"AIR EVAC--SAN TAN","Address":"37000 North Ganzel","City":"San Tan Valley","State":"AZ","Zip":"85140"},{"Location":"CIGNA HEALTH SERVICE","Address":"36305 N Gantzel Rd 102","City":"San Tan Valley","State":"AZ","Zip":"85140"},{"Location":"JDGJ  LLC","Address":"40975 N Ironwood Dr 108","City":"San Tan Valley","State":"AZ","Zip":"85140"},{"Location":"MCDONALDS","Address":"40523 N Gantzel Rd","City":"San Tan Valley","State":"AZ","Zip":"85140"},{"Location":"OCOTILLO TRIALS","Address":"40815 N Ironwood Dr A102","City":"San Tan Valley","State":"AZ","Zip":"85140"},{"Location":"PLEASANT VALLEY","Address":"747 E Germann Rd 33","City":"San Tan Valley","State":"AZ","Zip":"85140"},{"Location":"RURAL METRO CORP","Address":"36251 N Gantzel Rd","City":"San Tan Valley","State":"AZ","Zip":"85140"},{"Location":"APACHE SUN GOLF RD","Address":"919 E Pima Rd","City":"Queen Creek","State":"AZ","Zip":"85140"},{"Location":"COUNTRY CERAMICS","Address":"40801 N Coyote Rd","City":"Queen Creek","State":"AZ","Zip":"85140"},{"Location":"INBALANCE PT LLC","Address":"36397 N Gantzel Rd","City":"Queen Creek","State":"AZ","Zip":"85140"},{"Location":"MORENOS MEXICAN GRILL","Address":"85 W Combs Rd","City":"Queen Creek","State":"AZ","Zip":"85140"},{"Location":"SKYLINE PIZZA","Address":"5452 E Skyline Dr","City":"Queen Creek","State":"AZ","Zip":"85140"},{"Location":"SWEETIE PEAZ","Address":"85 W Combs Rd 111","City":"Queen Creek","State":"AZ","Zip":"85140"},{"Location":"24 HOUR FITNESS","Address":"40601 N Ganzel Rd","City":"San Tan Valley","State":"AZ","Zip":"85140"},{"Location":"ACCENTS HAIR  SALON","Address":"40975 N Ironwood Dr","City":"San Tan Valley","State":"AZ","Zip":"85140"},{"Location":"AIR EVAC--SAN TAN","Address":"37000 North Ganzel","City":"San Tan Valley","State":"AZ","Zip":"85140"},{"Location":"CIGNA HEALTH SERVICE","Address":"36305 N Gantzel Rd 102","City":"San Tan Valley","State":"AZ","Zip":"85140"},{"Location":"JDGJ  LLC","Address":"40975 N Ironwood Dr 108","City":"San Tan Valley","State":"AZ","Zip":"85140"},{"Location":"MCDONALDS","Address":"40523 N Gantzel Rd","City":"San Tan Valley","State":"AZ","Zip":"85140"},{"Location":"OCOTILLO TRIALS","Address":"40815 N Ironwood Dr A102","City":"San Tan Valley","State":"AZ","Zip":"85140"},{"Location":"PLEASANT VALLEY","Address":"747 E Germann Rd 33","City":"San Tan Valley","State":"AZ","Zip":"85140"},{"Location":"RURAL METRO CORP","Address":"36251 N Gantzel Rd","City":"San Tan Valley","State":"AZ","Zip":"85140"}]