[{"Location":"ABBOTT LABS","Address":"1250 W Maricopa Hwy","City":"Casa Grande","State":"AZ","Zip":"85193"},{"Location":"CR ENGLAND","Address":"58 S Thornton Rd","City":"Casa Grande","State":"AZ","Zip":"85193"},{"Location":"DUKES BAR AT FRANCISCO GR","Address":"12684 W Gila Bend Hwy","City":"Casa Grande","State":"AZ","Zip":"85193"},{"Location":"GRAMHAM PACKAGING COMPANY","Address":"1172 W Lawrence St","City":"Casa Grande","State":"AZ","Zip":"85193"},{"Location":"GRANDE SPORTS WORLD","Address":"2612 A West Gila Bend Hwy","City":"Pinal","State":"AZ","Zip":"85193"},{"Location":"ABBOTT LABS","Address":"1250 W Maricopa Hwy","City":"Casa Grande","State":"AZ","Zip":"85193"},{"Location":"CR ENGLAND","Address":"58 S Thornton Rd","City":"Casa Grande","State":"AZ","Zip":"85193"},{"Location":"DUKES BAR AT FRANCISCO GR","Address":"12684 W Gila Bend Hwy","City":"Casa Grande","State":"AZ","Zip":"85193"},{"Location":"GRAMHAM PACKAGING COMPANY","Address":"1172 W Lawrence St","City":"Casa Grande","State":"AZ","Zip":"85193"},{"Location":"GRANDE SPORTS WORLD","Address":"2612 A West Gila Bend Hwy","City":"Pinal","State":"AZ","Zip":"85193"}]