[{"Location":"KOHL'S #1107","Address":"976 N Mission Pkwy","City":"Casa Grande","State":"AZ","Zip":"85194"},{"Location":"OLIVE GARDEN #1756","Address":"717 N Promenade Pkwy","City":"Casa Grande","State":"AZ","Zip":"85194"},{"Location":"REGIONAL FIRE AND RESCUE2","Address":"7951 W Mccartney Rd","City":"Casa Grande","State":"AZ","Zip":"85194"},{"Location":"SHOE DEPT ENCORE #1544","Address":"1004 N Promenade Pkwy 141","City":"Casa Grande","State":"AZ","Zip":"85194"},{"Location":"SPORTS AUTHORITY 697","Address":"1004 N Promenade Pkwy 156","City":"Casa Grande","State":"AZ","Zip":"85194"},{"Location":"KOHL'S #1107","Address":"976 N Mission Pkwy","City":"Casa Grande","State":"AZ","Zip":"85194"},{"Location":"OLIVE GARDEN #1756","Address":"717 N Promenade Pkwy","City":"Casa Grande","State":"AZ","Zip":"85194"},{"Location":"REGIONAL FIRE AND RESCUE2","Address":"7951 W Mccartney Rd","City":"Casa Grande","State":"AZ","Zip":"85194"},{"Location":"SHOE DEPT ENCORE #1544","Address":"1004 N Promenade Pkwy 141","City":"Casa Grande","State":"AZ","Zip":"85194"},{"Location":"SPORTS AUTHORITY 697","Address":"1004 N Promenade Pkwy 156","City":"Casa Grande","State":"AZ","Zip":"85194"}]