[{"Location":"ARIZONA SKIES HOMEOWNERS ASSOC","Address":"602 S 87th Way","City":"Mesa","State":"AZ","Zip":"85208"},{"Location":"BARROS PIZZA","Address":"1113 S Signal Butte Rd","City":"Mesa","State":"AZ","Zip":"85208"},{"Location":"DUNKIN DONUTS","Address":"1116 S Crismon Rd","City":"Mesa","State":"AZ","Zip":"85208"},{"Location":"EDEN ADULT CARE FACILITY","Address":"210 S 98th Way","City":"Mesa","State":"AZ","Zip":"85208"},{"Location":"EDEN ADULT CARE FACILITY","Address":"216 S 98th Way","City":"Mesa","State":"AZ","Zip":"85208"},{"Location":"HOLIDAY PALMS","Address":"9302 E Broadway Rd","City":"Mesa","State":"AZ","Zip":"85208"},{"Location":"ILA RESORT","Address":"1101 S Ellsworth Rd 1","City":"Mesa","State":"AZ","Zip":"85208"},{"Location":"ILA RESORT LLC","Address":"1101 S Ellsworth Rd","City":"Mesa","State":"AZ","Zip":"85208"},{"Location":"LAB MESA INC","Address":"439 S Ellsworth Rd 106","City":"Mesa","State":"AZ","Zip":"85208"},{"Location":"MESA EAST BOWL","Address":"9260 E Broadway Rd","City":"Mesa","State":"AZ","Zip":"85208"},{"Location":"SIERRA  ESTATE","Address":"9431 E Coralbell Ave","City":"Mesa","State":"AZ","Zip":"85208"}]