[{"Location":"ABC FOOD STORE","Address":"816 E University Dr","City":"Mesa","State":"AZ","Zip":"85203"},{"Location":"AMERICARE HOSPICE","Address":"1212 N Spencer","City":"Mesa","State":"AZ","Zip":"85203"},{"Location":"ARISTA IMAGING","Address":"1345 E Mckellips Rd 103","City":"Mesa","State":"AZ","Zip":"85203"},{"Location":"ARIZONA CAR SALES","Address":"1648 E Main St 1","City":"Mesa","State":"AZ","Zip":"85203"},{"Location":"BAJA JOES MEXICAN CANTINA","Address":"1927 N Gilbert Rd","City":"Mesa","State":"AZ","Zip":"85203"},{"Location":"BAJATACOS Y MARISCOS","Address":"1437 E Main St 115","City":"Mesa","State":"AZ","Zip":"85203"},{"Location":"BARROS PIZZA","Address":"1925 E Brown Rd","City":"Mesa","State":"AZ","Zip":"85203"},{"Location":"CAMPBELLS CARWASH","Address":"1220 N Horne","City":"Mesa","State":"AZ","Zip":"85203"},{"Location":"CAR CLEANERS DETAILING","Address":"328 N Gilbert Rd","City":"Mesa","State":"AZ","Zip":"85203"},{"Location":"CASA RAMOS","Address":"1526 E Main St","City":"Mesa","State":"AZ","Zip":"85203"},{"Location":"CB-STAPLEY & UNIVERSITY","Address":"515 N Stapley Dr 101","City":"Mesa","State":"AZ","Zip":"85203"},{"Location":"DAVITA #4355 CENTRAL MESA","Address":"1134 E University Dr","City":"Mesa","State":"AZ","Zip":"85203"},{"Location":"EG FITNESS","Address":"2028 N Gilbert Rd 108","City":"Mesa","State":"AZ","Zip":"85203"},{"Location":"FAMILY FUSIONS LLC","Address":"252 N Stapley Dr","City":"Mesa","State":"AZ","Zip":"85203"},{"Location":"FILIVERTOS MEXICAN FOOD","Address":"1480 E Main St","City":"Mesa","State":"AZ","Zip":"85203"},{"Location":"GARCIA'S #1104","Address":"1940 E University Dr","City":"Mesa","State":"AZ","Zip":"85203"},{"Location":"GILBERT ROAD DENTAL CARE","Address":"2158 N Gilbert Rd 123","City":"Mesa","State":"AZ","Zip":"85203"},{"Location":"HAMBONE","Address":"903 E Main St","City":"Mesa","State":"AZ","Zip":"85203"},{"Location":"HAVEN BURGERS","Address":"606 E Main St 101","City":"Mesa","State":"AZ","Zip":"85203"},{"Location":"JIFFY LUBE #2273","Address":"407 E University Dr","City":"Mesa","State":"AZ","Zip":"85203"},{"Location":"KWANS SAMPAN RESTURANT","Address":"1927 N Gilbert Rd 13","City":"Mesa","State":"AZ","Zip":"85203"},{"Location":"LA FITNESS #135","Address":"445 N Stapley Dr","City":"Mesa","State":"AZ","Zip":"85203"},{"Location":"MAX MART","Address":"735 E Mckellips Rd","City":"Mesa","State":"AZ","Zip":"85203"},{"Location":"MESA BAIL BONDS","Address":"648 E Main St","City":"Mesa","State":"AZ","Zip":"85203"},{"Location":"MODERN GROVE","Address":"1958 E Brown Rd","City":"Mesa","State":"AZ","Zip":"85203"},{"Location":"OUTBACK STEAKHOUSE #0326","Address":"1860 E Mckellips Rd","City":"Mesa","State":"AZ","Zip":"85203"},{"Location":"PIZZA MART","Address":"1329 E Main St","City":"Mesa","State":"AZ","Zip":"85203"},{"Location":"PRIMARY CARE HOLDINGS","Address":"1345 E Mckellips Rd 106","City":"Mesa","State":"AZ","Zip":"85203"},{"Location":"PRIMARY CARE HOLDINGS","Address":"220 N Stapley Dr","City":"Mesa","State":"AZ","Zip":"85203"},{"Location":"SALT RIVER PIMA MARICOPA","Address":"1231 E Oak St","City":"Mesa","State":"AZ","Zip":"85203"},{"Location":"SCOTTSDALE HEALTH CARE MESA","Address":"1124 E Mckellips Rd 110","City":"Mesa","State":"AZ","Zip":"85203"},{"Location":"SD CRANE BUILDERS","Address":"1901 E University Dr 330","City":"Mesa","State":"AZ","Zip":"85203"},{"Location":"SHAMROCK BAR LLC","Address":"420 E Main St C5","City":"Mesa","State":"AZ","Zip":"85203"},{"Location":"SST AUTO LLC","Address":"1859 E Main St","City":"Mesa","State":"AZ","Zip":"85203"},{"Location":"SUBWAY","Address":"1229 E Mckellips Rd 104","City":"Mesa","State":"AZ","Zip":"85203"},{"Location":"UNIQUE AUTO SOUND","Address":"910 E Main St","City":"Mesa","State":"AZ","Zip":"85203"},{"Location":"WINGS EXPRESS","Address":"1449 E Main St","City":"Mesa","State":"AZ","Zip":"85203"},{"Location":"ZOYO NEIGHBORHOOD YOGURT","Address":"1958 E Brown Rd","City":"Mesa","State":"AZ","Zip":"85203"},{"Location":"ABC FOOD STORE","Address":"816 E University Dr","City":"Mesa","State":"AZ","Zip":"85203"},{"Location":"AMERICARE HOSPICE","Address":"1212 N Spencer","City":"Mesa","State":"AZ","Zip":"85203"},{"Location":"ARISTA IMAGING","Address":"1345 E Mckellips Rd 103","City":"Mesa","State":"AZ","Zip":"85203"},{"Location":"ARIZONA CAR SALES","Address":"1648 E Main St 1","City":"Mesa","State":"AZ","Zip":"85203"},{"Location":"BAJA JOES MEXICAN CANTINA","Address":"1927 N Gilbert Rd","City":"Mesa","State":"AZ","Zip":"85203"},{"Location":"BAJATACOS Y MARISCOS","Address":"1437 E Main St 115","City":"Mesa","State":"AZ","Zip":"85203"},{"Location":"BARROS PIZZA","Address":"1925 E Brown Rd","City":"Mesa","State":"AZ","Zip":"85203"},{"Location":"CAMPBELLS CARWASH","Address":"1220 N Horne","City":"Mesa","State":"AZ","Zip":"85203"},{"Location":"CAR CLEANERS DETAILING","Address":"328 N Gilbert Rd","City":"Mesa","State":"AZ","Zip":"85203"},{"Location":"CASA RAMOS","Address":"1526 E Main St","City":"Mesa","State":"AZ","Zip":"85203"},{"Location":"CB-STAPLEY & UNIVERSITY","Address":"515 N Stapley Dr 101","City":"Mesa","State":"AZ","Zip":"85203"},{"Location":"DAVITA #4355 CENTRAL MESA","Address":"1134 E University Dr","City":"Mesa","State":"AZ","Zip":"85203"},{"Location":"EG FITNESS","Address":"2028 N Gilbert Rd 108","City":"Mesa","State":"AZ","Zip":"85203"},{"Location":"FAMILY FUSIONS LLC","Address":"252 N Stapley Dr","City":"Mesa","State":"AZ","Zip":"85203"},{"Location":"FILIVERTOS MEXICAN FOOD","Address":"1480 E Main St","City":"Mesa","State":"AZ","Zip":"85203"},{"Location":"GARCIA'S #1104","Address":"1940 E University Dr","City":"Mesa","State":"AZ","Zip":"85203"},{"Location":"GILBERT ROAD DENTAL CARE","Address":"2158 N Gilbert Rd 123","City":"Mesa","State":"AZ","Zip":"85203"},{"Location":"HAMBONE","Address":"903 E Main St","City":"Mesa","State":"AZ","Zip":"85203"},{"Location":"HAVEN BURGERS","Address":"606 E Main St 101","City":"Mesa","State":"AZ","Zip":"85203"},{"Location":"JIFFY LUBE #2273","Address":"407 E University Dr","City":"Mesa","State":"AZ","Zip":"85203"},{"Location":"KWANS SAMPAN RESTURANT","Address":"1927 N Gilbert Rd 13","City":"Mesa","State":"AZ","Zip":"85203"},{"Location":"LA FITNESS #135","Address":"445 N Stapley Dr","City":"Mesa","State":"AZ","Zip":"85203"},{"Location":"MAX MART","Address":"735 E Mckellips Rd","City":"Mesa","State":"AZ","Zip":"85203"},{"Location":"MESA BAIL BONDS","Address":"648 E Main St","City":"Mesa","State":"AZ","Zip":"85203"},{"Location":"MODERN GROVE","Address":"1958 E Brown Rd","City":"Mesa","State":"AZ","Zip":"85203"},{"Location":"OUTBACK STEAKHOUSE #0326","Address":"1860 E Mckellips Rd","City":"Mesa","State":"AZ","Zip":"85203"},{"Location":"PIZZA MART","Address":"1329 E Main St","City":"Mesa","State":"AZ","Zip":"85203"},{"Location":"PRIMARY CARE HOLDINGS","Address":"220 N Stapley Dr","City":"Mesa","State":"AZ","Zip":"85203"},{"Location":"PRIMARY CARE HOLDINGS","Address":"1345 E Mckellips Rd 106","City":"Mesa","State":"AZ","Zip":"85203"},{"Location":"SALT RIVER PIMA MARICOPA","Address":"1231 E Oak St","City":"Mesa","State":"AZ","Zip":"85203"},{"Location":"SCOTTSDALE HEALTH CARE MESA","Address":"1124 E Mckellips Rd 110","City":"Mesa","State":"AZ","Zip":"85203"},{"Location":"SD CRANE BUILDERS","Address":"1901 E University Dr 330","City":"Mesa","State":"AZ","Zip":"85203"},{"Location":"SHAMROCK BAR LLC","Address":"420 E Main St C5","City":"Mesa","State":"AZ","Zip":"85203"},{"Location":"SST AUTO LLC","Address":"1859 E Main St","City":"Mesa","State":"AZ","Zip":"85203"},{"Location":"SUBWAY","Address":"1229 E Mckellips Rd 104","City":"Mesa","State":"AZ","Zip":"85203"},{"Location":"UNIQUE AUTO SOUND","Address":"910 E Main St","City":"Mesa","State":"AZ","Zip":"85203"},{"Location":"WINGS EXPRESS","Address":"1449 E Main St","City":"Mesa","State":"AZ","Zip":"85203"},{"Location":"ZOYO NEIGHBORHOOD YOGURT","Address":"1958 E Brown Rd","City":"Mesa","State":"AZ","Zip":"85203"}]