[{"Location":"MEX. FOOD FILIBERTOS","Address":"6339 W Main St Rear","City":"La Mesa","State":"AZ","Zip":"85205"},{"Location":"24 HOUR FITNESS #857","Address":"1919 N Power Rd","City":"Mesa","State":"AZ","Zip":"85205"},{"Location":"ACCELERATED PHYSICAL THERAPY","Address":"6059 E Brown Rd","City":"Mesa","State":"AZ","Zip":"85205"},{"Location":"ACME LIFT COMPANY","Address":"4751 E Indigo St","City":"Mesa","State":"AZ","Zip":"85205"},{"Location":"ADVANCED HEALTH CARE OF MESA","Address":"5755 E Main St","City":"Mesa","State":"AZ","Zip":"85205"},{"Location":"ALBANY APARTMENTS","Address":"33 N 58th St","City":"Mesa","State":"AZ","Zip":"85205"},{"Location":"ALL SAINTS CATHOLIC CHURCH","Address":"1534 N Recker Rd","City":"Mesa","State":"AZ","Zip":"85205"},{"Location":"ALTA MESA COUNTRY CLUB","Address":"1460 N Alta Mesa Dr","City":"Mesa","State":"AZ","Zip":"85205"},{"Location":"AMERICAN BUSINESS SYSTEMS","Address":"4026 E Main St 103","City":"Mesa","State":"AZ","Zip":"85205"},{"Location":"APPLEBEE'S #515 BROWN & HIGLEY","Address":"1143 N Higley Rd","City":"Mesa","State":"AZ","Zip":"85205"},{"Location":"AVIATION RESOURCES INC","Address":"4521 E Jensen St 104","City":"Mesa","State":"AZ","Zip":"85205"},{"Location":"BAHAMA BUCKS","Address":"446 N Higley Rd","City":"Mesa","State":"AZ","Zip":"85205"},{"Location":"BELDA ROSE MEDICAL CENTE","Address":"5252 E Main St","City":"Mesa","State":"AZ","Zip":"85205"},{"Location":"BUCKHORN ELKS #2656","Address":"6718 E Avalon St","City":"Mesa","State":"AZ","Zip":"85205"},{"Location":"CACTUS RANCH HOUSE GRILL","Address":"4700 E Main St","City":"Mesa","State":"AZ","Zip":"85205"},{"Location":"CAVE MAN INVESMENT GROUP","Address":"4835 E Indigo St","City":"Mesa","State":"AZ","Zip":"85205"},{"Location":"DKLG LLC","Address":"3960 E University Dr 101","City":"Mesa","State":"AZ","Zip":"85205"},{"Location":"DR PEASE AND ASSOCIATES","Address":"4830 E Main St 23","City":"Mesa","State":"AZ","Zip":"85205"},{"Location":"EAST VALLEY CAFE","Address":"6102 E Main St","City":"Mesa","State":"AZ","Zip":"85205"},{"Location":"FARNSWORTH WHOLESALE COMPANY","Address":"4863 E Ingram St","City":"Mesa","State":"AZ","Zip":"85205"},{"Location":"FIRESTONE #026603","Address":"6707 E Main St","City":"Mesa","State":"AZ","Zip":"85205"},{"Location":"FITNESS EVOLUTION","Address":"1135 N Recker Rd","City":"Mesa","State":"AZ","Zip":"85205"},{"Location":"FLANCER'S","Address":"1902 N Higley Rd","City":"Mesa","State":"AZ","Zip":"85205"},{"Location":"G BAR G LOUNGE","Address":"5324 E Main St","City":"Mesa","State":"AZ","Zip":"85205"},{"Location":"GENOS GIANT SLICE","Address":"1152 N Power Rd 107","City":"Mesa","State":"AZ","Zip":"85205"},{"Location":"GYROS PLACE","Address":"1829 N Power Rd 102","City":"Mesa","State":"AZ","Zip":"85205"},{"Location":"ILMO MANAGEMENT LLC","Address":"1140 N Higley Rd 103","City":"Mesa","State":"AZ","Zip":"85205"},{"Location":"JIFFY LUBE #1842","Address":"6150 E Main St","City":"Mesa","State":"AZ","Zip":"85205"},{"Location":"JIFFY LUBE #2998","Address":"1951 N Higley Rd","City":"Mesa","State":"AZ","Zip":"85205"},{"Location":"JJ MADISONS ALL AMERICAN GRILL","Address":"430 N Power Rd","City":"Mesa","State":"AZ","Zip":"85205"},{"Location":"LINDA HOOSIER CAFE","Address":"5050 E University Dr B101","City":"Mesa","State":"AZ","Zip":"85205"},{"Location":"Los Betos","Address":"4353 E University Dr","City":"Mesa","State":"AZ","Zip":"85205"},{"Location":"LUCKY LOU`S","Address":"1929 N Power Rd 103","City":"Mesa","State":"AZ","Zip":"85205"},{"Location":"MESA REGAL RV RESORT","Address":"4700 E Main St Pay","City":"Mesa","State":"AZ","Zip":"85205"},{"Location":"MESA REGAL RV RESORT.","Address":"4700 E Main St","City":"Mesa","State":"AZ","Zip":"85205"},{"Location":"MICHAEL BROADBENT DDS","Address":"1058 N Higley Rd 212","City":"Mesa","State":"AZ","Zip":"85205"},{"Location":"MOUNTAINSIDE FITNESS CENTERS","Address":"1253 N Greenfield Rd","City":"Mesa","State":"AZ","Zip":"85205"},{"Location":"OBI NAIL SALON","Address":"1309 N Greenfield Rd 107","City":"Mesa","State":"AZ","Zip":"85205"},{"Location":"R N R STIX WC","Address":"6429 E Main St","City":"Mesa","State":"AZ","Zip":"85205"},{"Location":"ROOSTERS","Address":"3731 E Main St","City":"Mesa","State":"AZ","Zip":"85205"},{"Location":"SALSA CABANA MEXICAN GRILL","Address":"1309 N Greenfield Rd 106","City":"Mesa","State":"AZ","Zip":"85205"},{"Location":"THAI PATIO","Address":"1929 N Power Rd","City":"Mesa","State":"AZ","Zip":"85205"},{"Location":"THE DUCHESS","Address":"3929 E Main St 2","City":"Mesa","State":"AZ","Zip":"85205"},{"Location":"THE PALMS THEATRE","Address":"5247 E Brown Rd","City":"Mesa","State":"AZ","Zip":"85205"},{"Location":"TOWER POINT RESORT","Address":"4860 E Main St","City":"Mesa","State":"AZ","Zip":"85205"},{"Location":"TOYOKO BEAUTY SALON","Address":"6515 E Main St 115","City":"Mesa","State":"AZ","Zip":"85205"},{"Location":"TWIN MUFFLERS & TIRES LLC","Address":"250 N Power Rd","City":"Mesa","State":"AZ","Zip":"85205"},{"Location":"WALDO'S BBQ","Address":"4500 E Main St","City":"Mesa","State":"AZ","Zip":"85205"},{"Location":"WINDY CITY SMOKESHOP","Address":"4815 E Main St 14","City":"Mesa","State":"AZ","Zip":"85205"},{"Location":"WINKS SMOKESHOP","Address":"6740 E University Dr 103","City":"Mesa","State":"AZ","Zip":"85205"}]