[{"Location":"360 PHYSICAL THERAPY","Address":"4210 E Baseline Rd","City":"Mesa","State":"AZ","Zip":"85206"},{"Location":"A TO Z DERMATOLOGY","Address":"4540 E Baseline Rd","City":"Mesa","State":"AZ","Zip":"85206"},{"Location":"ACADEMY MORTGAGE","Address":"5304 E Southern Ave","City":"Mesa","State":"AZ","Zip":"85206"},{"Location":"APPLEBEE'S #502 SUPERSTITION","Address":"6259 E Southern Ave","City":"Mesa","State":"AZ","Zip":"85206"},{"Location":"ARIZONA SPINE & JOINT HOSP #1","Address":"4620 E Baseline Rd","City":"Mesa","State":"AZ","Zip":"85206"},{"Location":"ARIZONA SPINE & JOINT HOSP #2","Address":"4620 E Baseline Rd","City":"Mesa","State":"AZ","Zip":"85206"},{"Location":"ARNETT INSURANCE SERVICES","Address":"3850 E Baseline Rd 106","City":"Mesa","State":"AZ","Zip":"85206"},{"Location":"ASPEN DENTAL #480","Address":"1155 S Power Rd 112b","City":"Mesa","State":"AZ","Zip":"85206"},{"Location":"BACK FIT CHIROPRACTIC REHAB","Address":"5233 E Southern Ave 104","City":"Mesa","State":"AZ","Zip":"85206"},{"Location":"BARROS PIZZA","Address":"1545 S Power Rd","City":"Mesa","State":"AZ","Zip":"85206"},{"Location":"BERGE AUTO CARE","Address":"6459 E Southern Ave","City":"Mesa","State":"AZ","Zip":"85206"},{"Location":"BJS RESTAURANT #446","Address":"6622 E Superstition Springs Bl","City":"Mesa","State":"AZ","Zip":"85206"},{"Location":"BUFFALO WILD WINGS #0195","Address":"6560 E Superstition Springs Bl","City":"Mesa","State":"AZ","Zip":"85206"},{"Location":"CDMG LLC","Address":"4309 E Florian Ave","City":"Mesa","State":"AZ","Zip":"85206"},{"Location":"CHILI'S #0390","Address":"1435 S Power Rd","City":"Mesa","State":"AZ","Zip":"85206"},{"Location":"CLASSIC CAR SPA SOUTHERN","Address":"5245 E Southern Ave","City":"Mesa","State":"AZ","Zip":"85206"},{"Location":"COULTER INFINITI","Address":"6225 E Test Dr","City":"Mesa","State":"AZ","Zip":"85206"},{"Location":"COUSINS SUBS","Address":"1823 S Greenfield Rd 105","City":"Mesa","State":"AZ","Zip":"85206"},{"Location":"CULVERS","Address":"1841 S Greenfield Rd","City":"Mesa","State":"AZ","Zip":"85206"},{"Location":"DAVITA #5167 POWER RD","Address":"301 S Power Rd 104","City":"Mesa","State":"AZ","Zip":"85206"},{"Location":"DOS GRINGOS- GREENFIELD","Address":"1958 S Greenfield Rd","City":"Mesa","State":"AZ","Zip":"85206"},{"Location":"EARNHARDT TOYOTA%2FSCION","Address":"6136 E Auto Loop Ave","City":"Mesa","State":"AZ","Zip":"85206"},{"Location":"EAST MESA HEALTH CARE AZ","Address":"51 S 48th St","City":"Mesa","State":"AZ","Zip":"85206"},{"Location":"EAST VALLEY DIAGNOSTIC IMAGING","Address":"6424 E Broadway Rd 101","City":"Mesa","State":"AZ","Zip":"85206"},{"Location":"EBRAHIM","Address":"1423 S Higley Rd","City":"Mesa","State":"AZ","Zip":"85206"},{"Location":"ENDURANCE REHAB","Address":"6636 E Baseline Rd 200","City":"Mesa","State":"AZ","Zip":"85206"},{"Location":"FAT WILLYS GREENFIELD LLC","Address":"1762 S Greenfield Rd 111","City":"Mesa","State":"AZ","Zip":"85206"},{"Location":"FIRST CUP GREENFIELD BASELINE","Address":"1823 S Greenfield Rd 101","City":"Mesa","State":"AZ","Zip":"85206"},{"Location":"FMC 62380000","Address":"135 S Power Rd","City":"Mesa","State":"AZ","Zip":"85206"},{"Location":"FROST ORTHODONTICS","Address":"5058 E Southern Ave 101","City":"Mesa","State":"AZ","Zip":"85206"},{"Location":"FUDDRUCKERS #278","Address":"6455 E Southern Ave","City":"Mesa","State":"AZ","Zip":"85206"},{"Location":"HACIENDA DE VALENCIA","Address":"201 S Greenfield Rd","City":"Mesa","State":"AZ","Zip":"85206"},{"Location":"JIFFY LUBE #2279","Address":"265 S Power Rd","City":"Mesa","State":"AZ","Zip":"85206"},{"Location":"KEMPTON AND NELSON DIAGNOSTICS","Address":"4852 E Baseline Rd 109","City":"Mesa","State":"AZ","Zip":"85206"},{"Location":"LA FITNESS #125","Address":"1731 S Greenfield Rd","City":"Mesa","State":"AZ","Zip":"85206"},{"Location":"LINDSEY FAMILY  LLC","Address":"801 S Power Rd","City":"Mesa","State":"AZ","Zip":"85206"},{"Location":"MACY'S WEST 459 BR","Address":"6535 E Southern Ave","City":"Mesa","State":"AZ","Zip":"85206"},{"Location":"MCDONALDS","Address":"1350 S Power Rd","City":"Mesa","State":"AZ","Zip":"85206"},{"Location":"MEN'S WEARHOUSE #2511","Address":"6355 E Southern Ave","City":"Mesa","State":"AZ","Zip":"85206"},{"Location":"MOR FURNITURE FOR LESS","Address":"1515 S Power Rd","City":"Mesa","State":"AZ","Zip":"85206"},{"Location":"NUTRISHOP","Address":"1705 S Greenfield Rd 104","City":"Mesa","State":"AZ","Zip":"85206"},{"Location":"OLD TOWN VAL VISTA","Address":"3707 E Southern Ave","City":"Mesa","State":"AZ","Zip":"85206"},{"Location":"ON THE BORDER #0079","Address":"1710 S Power Rd","City":"Mesa","State":"AZ","Zip":"85206"},{"Location":"OSAKA","Address":"6730 E Superstition Springs Bl","City":"Mesa","State":"AZ","Zip":"85206"},{"Location":"OVER EASY MESA","Address":"6451 E Southern Ave","City":"Mesa","State":"AZ","Zip":"85206"},{"Location":"PARAMOUNT SURGERY CENTER","Address":"1114 S Higley Rd 101","City":"Mesa","State":"AZ","Zip":"85206"},{"Location":"PF CHANG'S #9986","Address":"6610 E Superstition Springs Bl","City":"Mesa","State":"AZ","Zip":"85206"},{"Location":"POWER CHEVEROLET","Address":"6330 E Superstition Springs Bl","City":"Mesa","State":"AZ","Zip":"85206"},{"Location":"PURCELL TIRE INC","Address":"3720 E Baseline Rd","City":"Mesa","State":"AZ","Zip":"85206"},{"Location":"RED LOBSTER #0667","Address":"6149 E Southern Ave","City":"Mesa","State":"AZ","Zip":"85206"},{"Location":"RED ROBIN #417","Address":"6632 E Superstition Springs Bl","City":"Mesa","State":"AZ","Zip":"85206"},{"Location":"ROCHESTER SPORTS BAR","Address":"721 S Rochester","City":"Mesa","State":"AZ","Zip":"85206"},{"Location":"ROLLINS  PETERSEN ORTHO","Address":"6755 E Superstition Springs Bl","City":"Mesa","State":"AZ","Zip":"85206"},{"Location":"RT O'SULLIVANS","Address":"6646 E Superstition Springs Bl","City":"Mesa","State":"AZ","Zip":"85206"},{"Location":"SAFEWAY 1637","Address":"3622 E Southern Ave","City":"Mesa","State":"AZ","Zip":"85206"},{"Location":"SCOOBY CORP","Address":"1229 S Power Rd 105","City":"Mesa","State":"AZ","Zip":"85206"},{"Location":"SERRANOS MEXICAN RESTAURANT","Address":"1021 S Power Rd","City":"Mesa","State":"AZ","Zip":"85206"},{"Location":"SHOE DEPT ENCORE #1531","Address":"6555 E Southern Ave 1402","City":"Mesa","State":"AZ","Zip":"85206"},{"Location":"SMILES ON SOUTHERN LLC","Address":"5432 E Southern Ave 108","City":"Mesa","State":"AZ","Zip":"85206"},{"Location":"SOUTHWEST KIDNEY INST.","Address":"301 S Power Rd 103","City":"Mesa","State":"AZ","Zip":"85206"},{"Location":"SPORT CLIPS AZ128","Address":"6736 E Baseline Rd 106","City":"Mesa","State":"AZ","Zip":"85206"},{"Location":"SUPERSTITION SPRINGS CHRYSLER","Address":"6130 E Auto Park Dr","City":"Mesa","State":"AZ","Zip":"85206"},{"Location":"SUPERSTITION SPRINGS LEXUS","Address":"6206 E Test Dr","City":"Mesa","State":"AZ","Zip":"85206"},{"Location":"SURGERY CENTER OF GILBER","Address":"6003 E Baseline Rd","City":"Mesa","State":"AZ","Zip":"85206"},{"Location":"SWAGEL WOOTTON EYE CENTER","Address":"220 S 63rd St","City":"Mesa","State":"AZ","Zip":"85206"},{"Location":"T D NAIL AND SPA","Address":"1246 S Greenfield Rd","City":"Mesa","State":"AZ","Zip":"85206"},{"Location":"TEHARU SUSHI","Address":"6638 E Superstition Springs Bl 101","City":"Mesa","State":"AZ","Zip":"85206"},{"Location":"THE CHEESECAKE FACTORY 0138","Address":"6613 E Southern Ave","City":"Mesa","State":"AZ","Zip":"85206"},{"Location":"THY NAILS","Address":"1914 S Power Rd 105","City":"Mesa","State":"AZ","Zip":"85206"},{"Location":"TONY'S REAL BARBERSHOP","Address":"1121 S Higley Rd 103","City":"Mesa","State":"AZ","Zip":"85206"},{"Location":"TRI CITY CARDIOLOGY","Address":"6402 E Superstition Springs Bl","City":"Mesa","State":"AZ","Zip":"85206"},{"Location":"U-TURN FOUNDATION","Address":"4005 E Edgewood Ave","City":"Mesa","State":"AZ","Zip":"85206"},{"Location":"UNITED AUTO CREDIT INC","Address":"5416 E Baseline Rd T12","City":"Mesa","State":"AZ","Zip":"85206"},{"Location":"VIPOND","Address":"5233 E Southern Ave 102","City":"Mesa","State":"AZ","Zip":"85206"},{"Location":"360 PHYSICAL THERAPY","Address":"4210 E Baseline Rd","City":"Mesa","State":"AZ","Zip":"85206"},{"Location":"A TO Z DERMATOLOGY","Address":"4540 E Baseline Rd","City":"Mesa","State":"AZ","Zip":"85206"},{"Location":"ACADEMY MORTGAGE","Address":"5304 E Southern Ave","City":"Mesa","State":"AZ","Zip":"85206"},{"Location":"APPLEBEE'S #502 SUPERSTITION","Address":"6259 E Southern Ave","City":"Mesa","State":"AZ","Zip":"85206"},{"Location":"ARIZONA SPINE & JOINT HOSP #1","Address":"4620 E Baseline Rd","City":"Mesa","State":"AZ","Zip":"85206"},{"Location":"ARIZONA SPINE & JOINT HOSP #2","Address":"4620 E Baseline Rd","City":"Mesa","State":"AZ","Zip":"85206"},{"Location":"ARNETT INSURANCE SERVICES","Address":"3850 E Baseline Rd 106","City":"Mesa","State":"AZ","Zip":"85206"},{"Location":"ASPEN DENTAL #480","Address":"1155 S Power Rd 112b","City":"Mesa","State":"AZ","Zip":"85206"},{"Location":"BACK FIT CHIROPRACTIC REHAB","Address":"5233 E Southern Ave 104","City":"Mesa","State":"AZ","Zip":"85206"},{"Location":"BARROS PIZZA","Address":"1545 S Power Rd","City":"Mesa","State":"AZ","Zip":"85206"},{"Location":"BERGE AUTO CARE","Address":"6459 E Southern Ave","City":"Mesa","State":"AZ","Zip":"85206"},{"Location":"BJS RESTAURANT #446","Address":"6622 E Superstition Springs Bl","City":"Mesa","State":"AZ","Zip":"85206"},{"Location":"BUFFALO WILD WINGS #0195","Address":"6560 E Superstition Springs Bl","City":"Mesa","State":"AZ","Zip":"85206"},{"Location":"CDMG LLC","Address":"4309 E Florian Ave","City":"Mesa","State":"AZ","Zip":"85206"},{"Location":"CHILI'S #0390","Address":"1435 S Power Rd","City":"Mesa","State":"AZ","Zip":"85206"},{"Location":"CLASSIC CAR SPA SOUTHERN","Address":"5245 E Southern Ave","City":"Mesa","State":"AZ","Zip":"85206"},{"Location":"COULTER INFINITI","Address":"6225 E Test Dr","City":"Mesa","State":"AZ","Zip":"85206"},{"Location":"COUSINS SUBS","Address":"1823 S Greenfield Rd 105","City":"Mesa","State":"AZ","Zip":"85206"},{"Location":"CULVERS","Address":"1841 S Greenfield Rd","City":"Mesa","State":"AZ","Zip":"85206"},{"Location":"DAVITA #5167 POWER RD","Address":"301 S Power Rd 104","City":"Mesa","State":"AZ","Zip":"85206"},{"Location":"DOS GRINGOS- GREENFIELD","Address":"1958 S Greenfield Rd","City":"Mesa","State":"AZ","Zip":"85206"},{"Location":"EARNHARDT TOYOTA%2FSCION","Address":"6136 E Auto Loop Ave","City":"Mesa","State":"AZ","Zip":"85206"},{"Location":"EAST MESA HEALTH CARE AZ","Address":"51 S 48th St","City":"Mesa","State":"AZ","Zip":"85206"},{"Location":"EAST VALLEY DIAGNOSTIC IMAGING","Address":"6424 E Broadway Rd 101","City":"Mesa","State":"AZ","Zip":"85206"},{"Location":"EBRAHIM","Address":"1423 S Higley Rd","City":"Mesa","State":"AZ","Zip":"85206"},{"Location":"ENDURANCE REHAB","Address":"6636 E Baseline Rd 200","City":"Mesa","State":"AZ","Zip":"85206"},{"Location":"FAT WILLYS GREENFIELD LLC","Address":"1762 S Greenfield Rd 111","City":"Mesa","State":"AZ","Zip":"85206"},{"Location":"FIRST CUP GREENFIELD BASELINE","Address":"1823 S Greenfield Rd 101","City":"Mesa","State":"AZ","Zip":"85206"},{"Location":"FMC 62380000","Address":"135 S Power Rd","City":"Mesa","State":"AZ","Zip":"85206"},{"Location":"FROST ORTHODONTICS","Address":"5058 E Southern Ave 101","City":"Mesa","State":"AZ","Zip":"85206"},{"Location":"FUDDRUCKERS #278","Address":"6455 E Southern Ave","City":"Mesa","State":"AZ","Zip":"85206"},{"Location":"HACIENDA DE VALENCIA","Address":"201 S Greenfield Rd","City":"Mesa","State":"AZ","Zip":"85206"},{"Location":"JIFFY LUBE #2279","Address":"265 S Power Rd","City":"Mesa","State":"AZ","Zip":"85206"},{"Location":"KEMPTON AND NELSON DIAGNOSTICS","Address":"4852 E Baseline Rd 109","City":"Mesa","State":"AZ","Zip":"85206"},{"Location":"LA FITNESS #125","Address":"1731 S Greenfield Rd","City":"Mesa","State":"AZ","Zip":"85206"},{"Location":"LINDSEY FAMILY  LLC","Address":"801 S Power Rd","City":"Mesa","State":"AZ","Zip":"85206"},{"Location":"MACY'S WEST 459 BR","Address":"6535 E Southern Ave","City":"Mesa","State":"AZ","Zip":"85206"},{"Location":"MCDONALDS","Address":"1350 S Power Rd","City":"Mesa","State":"AZ","Zip":"85206"},{"Location":"MEN'S WEARHOUSE #2511","Address":"6355 E Southern Ave","City":"Mesa","State":"AZ","Zip":"85206"},{"Location":"MOR FURNITURE FOR LESS","Address":"1515 S Power Rd","City":"Mesa","State":"AZ","Zip":"85206"},{"Location":"NUTRISHOP","Address":"1705 S Greenfield Rd 104","City":"Mesa","State":"AZ","Zip":"85206"},{"Location":"OLD TOWN VAL VISTA","Address":"3707 E Southern Ave","City":"Mesa","State":"AZ","Zip":"85206"},{"Location":"ON THE BORDER #0079","Address":"1710 S Power Rd","City":"Mesa","State":"AZ","Zip":"85206"},{"Location":"OSAKA","Address":"6730 E Superstition Springs Bl","City":"Mesa","State":"AZ","Zip":"85206"},{"Location":"OVER EASY MESA","Address":"6451 E Southern Ave","City":"Mesa","State":"AZ","Zip":"85206"},{"Location":"PARAMOUNT SURGERY CENTER","Address":"1114 S Higley Rd 101","City":"Mesa","State":"AZ","Zip":"85206"},{"Location":"PF CHANG'S #9986","Address":"6610 E Superstition Springs Bl","City":"Mesa","State":"AZ","Zip":"85206"},{"Location":"POWER CHEVEROLET","Address":"6330 E Superstition Springs Bl","City":"Mesa","State":"AZ","Zip":"85206"},{"Location":"PURCELL TIRE INC","Address":"3720 E Baseline Rd","City":"Mesa","State":"AZ","Zip":"85206"},{"Location":"RED LOBSTER #0667","Address":"6149 E Southern Ave","City":"Mesa","State":"AZ","Zip":"85206"},{"Location":"RED ROBIN #417","Address":"6632 E Superstition Springs Bl","City":"Mesa","State":"AZ","Zip":"85206"},{"Location":"ROCHESTER SPORTS BAR","Address":"721 S Rochester","City":"Mesa","State":"AZ","Zip":"85206"},{"Location":"ROLLINS  PETERSEN ORTHO","Address":"6755 E Superstition Springs Bl","City":"Mesa","State":"AZ","Zip":"85206"},{"Location":"RT O'SULLIVANS","Address":"6646 E Superstition Springs Bl","City":"Mesa","State":"AZ","Zip":"85206"},{"Location":"SAFEWAY 1637","Address":"3622 E Southern Ave","City":"Mesa","State":"AZ","Zip":"85206"},{"Location":"SCOOBY CORP","Address":"1229 S Power Rd 105","City":"Mesa","State":"AZ","Zip":"85206"},{"Location":"SERRANOS MEXICAN RESTAURANT","Address":"1021 S Power Rd","City":"Mesa","State":"AZ","Zip":"85206"},{"Location":"SHOE DEPT ENCORE #1531","Address":"6555 E Southern Ave 1402","City":"Mesa","State":"AZ","Zip":"85206"},{"Location":"SMILES ON SOUTHERN LLC","Address":"5432 E Southern Ave 108","City":"Mesa","State":"AZ","Zip":"85206"},{"Location":"SOUTHWEST KIDNEY INST.","Address":"301 S Power Rd 103","City":"Mesa","State":"AZ","Zip":"85206"},{"Location":"SPORT CLIPS AZ128","Address":"6736 E Baseline Rd 106","City":"Mesa","State":"AZ","Zip":"85206"},{"Location":"SUPERSTITION SPRINGS CHRYSLER","Address":"6130 E Auto Park Dr","City":"Mesa","State":"AZ","Zip":"85206"},{"Location":"SUPERSTITION SPRINGS LEXUS","Address":"6206 E Test Dr","City":"Mesa","State":"AZ","Zip":"85206"},{"Location":"SURGERY CENTER OF GILBER","Address":"6003 E Baseline Rd","City":"Mesa","State":"AZ","Zip":"85206"},{"Location":"SWAGEL WOOTTON EYE CENTER","Address":"220 S 63rd St","City":"Mesa","State":"AZ","Zip":"85206"},{"Location":"T D NAIL AND SPA","Address":"1246 S Greenfield Rd","City":"Mesa","State":"AZ","Zip":"85206"},{"Location":"TEHARU SUSHI","Address":"6638 E Superstition Springs Bl 101","City":"Mesa","State":"AZ","Zip":"85206"},{"Location":"THE CHEESECAKE FACTORY 0138","Address":"6613 E Southern Ave","City":"Mesa","State":"AZ","Zip":"85206"},{"Location":"THY NAILS","Address":"1914 S Power Rd 105","City":"Mesa","State":"AZ","Zip":"85206"},{"Location":"TONY'S REAL BARBERSHOP","Address":"1121 S Higley Rd 103","City":"Mesa","State":"AZ","Zip":"85206"},{"Location":"TRI CITY CARDIOLOGY","Address":"6402 E Superstition Springs Bl","City":"Mesa","State":"AZ","Zip":"85206"},{"Location":"U-TURN FOUNDATION","Address":"4005 E Edgewood Ave","City":"Mesa","State":"AZ","Zip":"85206"},{"Location":"UNITED AUTO CREDIT INC","Address":"5416 E Baseline Rd T12","City":"Mesa","State":"AZ","Zip":"85206"},{"Location":"VIPOND","Address":"5233 E Southern Ave 102","City":"Mesa","State":"AZ","Zip":"85206"}]