[{"Location":"24 HOUR FITNESS #869","Address":"1844 W Rio Salado Pkwy","City":"Mesa","State":"AZ","Zip":"85201"},{"Location":"6028108761","Address":"1933 W Main St 7","City":"Mesa","State":"AZ","Zip":"85201"},{"Location":"A&B TOBACCO","Address":"1955 W Main St Ste10","City":"Mesa","State":"AZ","Zip":"85201"},{"Location":"ARIZONA HAND SURGERY3","Address":"2111 W University Dr","City":"Mesa","State":"AZ","Zip":"85201"},{"Location":"BAD BURRITO","Address":"450 N Alma School Rd","City":"Mesa","State":"AZ","Zip":"85201"},{"Location":"BEER WORLD","Address":"1530 N Country Club Dr","City":"Mesa","State":"AZ","Zip":"85201"},{"Location":"BIG STICKS FINE CIGARS","Address":"1017 N Dobson Rd","City":"Mesa","State":"AZ","Zip":"85201"},{"Location":"BLUE ADOBE GRILL","Address":"144 N Country Club Dr","City":"Mesa","State":"AZ","Zip":"85201"},{"Location":"CACTUS MOON","Address":"1017 N Dobson Rd 108","City":"Mesa","State":"AZ","Zip":"85201"},{"Location":"CALM COOL COLLECTIVE","Address":"1620 W University Dr 15","City":"Mesa","State":"AZ","Zip":"85201"},{"Location":"CHICAGO CUBS BASEBALL CL","Address":"2330 W Rio Salado Pkwy","City":"Mesa","State":"AZ","Zip":"85201"},{"Location":"CHILI'S #1282","Address":"1025 N Dobson Rd","City":"Mesa","State":"AZ","Zip":"85201"},{"Location":"CINDY'S ARIZONA CAFE","Address":"124 E Mckellips Rd","City":"Mesa","State":"AZ","Zip":"85201"},{"Location":"COMMUNITY BRIDGES","Address":"118 E Ingram St B","City":"Mesa","State":"AZ","Zip":"85201"},{"Location":"COMMUNITY BRIDGES","Address":"108 E Ingram St","City":"Mesa","State":"AZ","Zip":"85201"},{"Location":"DESTINY CHRISTIAN CHURCH","Address":"19 N Robson 101","City":"Mesa","State":"AZ","Zip":"85201"},{"Location":"DIAMOND SPORTS BAR","Address":"161 N Centennial Way","City":"Mesa","State":"AZ","Zip":"85201"},{"Location":"DIRTY DRUMMER","Address":"1211 N Country Club Dr 9","City":"Mesa","State":"AZ","Zip":"85201"},{"Location":"DOLLAR KING","Address":"118 E Mckellips Rd","City":"Mesa","State":"AZ","Zip":"85201"},{"Location":"FAIRWAY MARKET","Address":"340 W Brown Rd","City":"Mesa","State":"AZ","Zip":"85201"},{"Location":"FAMOUS DAVES 317","Address":"1011 N Dobson Rd","City":"Mesa","State":"AZ","Zip":"85201"},{"Location":"GABBY'S","Address":"635 N Country Club Dr","City":"Mesa","State":"AZ","Zip":"85201"},{"Location":"GENTLEMAN JOES BARBER SHOP","Address":"1017 N Dobson Rd 107","City":"Mesa","State":"AZ","Zip":"85201"},{"Location":"GEORGES GYROS & CHICKEN","Address":"205 N Country Club Dr","City":"Mesa","State":"AZ","Zip":"85201"},{"Location":"GOOD DEAL FURNITURE","Address":"635 N Country Club Dr 15","City":"Mesa","State":"AZ","Zip":"85201"},{"Location":"GOODYEAR 8243","Address":"50 N Dobson Rd","City":"Mesa","State":"AZ","Zip":"85201"},{"Location":"GOSNEY AND COMPANY PC","Address":"9 W Pepper Pl","City":"Mesa","State":"AZ","Zip":"85201"},{"Location":"GROGGYS","Address":"2207 W Main St","City":"Mesa","State":"AZ","Zip":"85201"},{"Location":"HORIZON HUMAN SERVICES","Address":"453 W Sunset Cir","City":"Mesa","State":"AZ","Zip":"85201"},{"Location":"ISLAMORADA FISH CO","Address":"1133 N Dobson Rd","City":"Mesa","State":"AZ","Zip":"85201"},{"Location":"JIFFY LUBE #1914","Address":"1960 N Country Club Dr","City":"Mesa","State":"AZ","Zip":"85201"},{"Location":"LA PALMA","Address":"1747 N Alma School Rd 2","City":"Mesa","State":"AZ","Zip":"85201"},{"Location":"LA TIENDITA CAFE","Address":"456 W Main St A","City":"Mesa","State":"AZ","Zip":"85201"},{"Location":"LIVE X AUTO EXCHANGE","Address":"530 W Main St","City":"Mesa","State":"AZ","Zip":"85201"},{"Location":"LOGAN'S ROADHOUSE #465","Address":"945 N Dobson Rd","City":"Mesa","State":"AZ","Zip":"85201"},{"Location":"LR CONTRERAS","Address":"2110 N Country Club Dr","City":"Mesa","State":"AZ","Zip":"85201"},{"Location":"MAIN STREET AUTO SALES","Address":"310 E Main St","City":"Mesa","State":"AZ","Zip":"85201"},{"Location":"MAIN STREET BILLIARDS","Address":"1749 W Main St 11","City":"Mesa","State":"AZ","Zip":"85201"},{"Location":"MARGARITAS GRILLE","Address":"10 W Main St 101","City":"Mesa","State":"AZ","Zip":"85201"},{"Location":"MARICOPA INTERGRATED DESERT VI","Address":"570 W Brown Rd","City":"Mesa","State":"AZ","Zip":"85201"},{"Location":"MATTAS CANTINA","Address":"1033 N Dobson Rd 101","City":"Mesa","State":"AZ","Zip":"85201"},{"Location":"MAXIT PAWN & RETAIL SHOP 1661","Address":"221 W Main St","City":"Mesa","State":"AZ","Zip":"85201"},{"Location":"MAYA NEW YORK PIZZA","Address":"223 E Brown Rd","City":"Mesa","State":"AZ","Zip":"85201"},{"Location":"MCC MEN'S CARD ROOM","Address":"660 W Fairway Dr","City":"Mesa","State":"AZ","Zip":"85201"},{"Location":"MESA COMM FAMILY RESTAUR","Address":"535 N Country Club Dr","City":"Mesa","State":"AZ","Zip":"85201"},{"Location":"MESA POLICE DEPT","Address":"130 N Robson","City":"Mesa","State":"AZ","Zip":"85201"},{"Location":"MESA VISION PARTNERS","Address":"937 N Dobson Rd 102","City":"Mesa","State":"AZ","Zip":"85201"},{"Location":"MICKEYS DOWNTOWN BARBER","Address":"218 W Main St","City":"Mesa","State":"AZ","Zip":"85201"},{"Location":"MITEL NETWORKS","Address":"1146 N Alma School Rd","City":"Mesa","State":"AZ","Zip":"85201"},{"Location":"MMDC OUTPATIENT CLINIC","Address":"736 N Country Club Dr","City":"Mesa","State":"AZ","Zip":"85201"},{"Location":"NATIVE NEW YORKER","Address":"318 E Brown Rd","City":"Mesa","State":"AZ","Zip":"85201"},{"Location":"NEXTCARE URGENT CARE 2","Address":"1138 N Alma School Rd 102","City":"Mesa","State":"AZ","Zip":"85201"},{"Location":"PARADISE NIGHT CLUB","Address":"1749 W Main St","City":"Mesa","State":"AZ","Zip":"85201"},{"Location":"PARILLA LOS PICOS","Address":"1542 W University Dr","City":"Mesa","State":"AZ","Zip":"85201"},{"Location":"PETER PIPER PIZZA # 244","Address":"1906 W 8th St","City":"Mesa","State":"AZ","Zip":"85201"},{"Location":"PIER'D ORLEANS","Address":"61 E University Dr","City":"Mesa","State":"AZ","Zip":"85201"},{"Location":"REHAB ARIZONA","Address":"303 N Centennial Way","City":"Mesa","State":"AZ","Zip":"85201"},{"Location":"RIVERVIEW NISSAN","Address":"2025 W Riverview Auto Dr","City":"Mesa","State":"AZ","Zip":"85201"},{"Location":"RIVERVIEW TOYOTA","Address":"2020 Riverview Auto Dr","City":"Mesa","State":"AZ","Zip":"85201"},{"Location":"RV RENTAL OUTLET","Address":"256 E Main St","City":"Mesa","State":"AZ","Zip":"85201"},{"Location":"RV RENTAL OUTLET 2","Address":"256 E Main St","City":"Mesa","State":"AZ","Zip":"85201"},{"Location":"SCHMIDT WESTERGARD AND COMPANY","Address":"77 W University Dr","City":"Mesa","State":"AZ","Zip":"85201"},{"Location":"SEYENNA VISTA","Address":"625 W Mckellips Rd","City":"Mesa","State":"AZ","Zip":"85201"},{"Location":"SHARP FADES BARBER SHOP","Address":"456 W Main St N","City":"Mesa","State":"AZ","Zip":"85201"},{"Location":"SPORT CLIPS AT MESA RIVERVIEW","Address":"937 N Dobson Rd 103","City":"Mesa","State":"AZ","Zip":"85201"},{"Location":"SPORTS AUTHORITY 792","Address":"1812 W Rio Salado Pkwy","City":"Mesa","State":"AZ","Zip":"85201"},{"Location":"SUBWAY #12346","Address":"161 W Main St","City":"Mesa","State":"AZ","Zip":"85201"},{"Location":"SUBWAY #7016","Address":"322 E Brown Rd 105","City":"Mesa","State":"AZ","Zip":"85201"},{"Location":"THE BRAKE SHOP","Address":"536 N Country Club Dr 3","City":"Mesa","State":"AZ","Zip":"85201"},{"Location":"THE BRASS TAP","Address":"1033 N Dobson Rd","City":"Mesa","State":"AZ","Zip":"85201"},{"Location":"WINGSTOP","Address":"837 N Dobson Rd","City":"Mesa","State":"AZ","Zip":"85201"},{"Location":"WOODSHED II","Address":"430 N Dobson Rd","City":"Mesa","State":"AZ","Zip":"85201"},{"Location":"ZIOS PIZZA AND WINGS","Address":"1620 W University Dr","City":"Mesa","State":"AZ","Zip":"85201"},{"Location":"24 HOUR FITNESS #869","Address":"1844 W Rio Salado Pkwy","City":"Mesa","State":"AZ","Zip":"85201"},{"Location":"6028108761","Address":"1933 W Main St 7","City":"Mesa","State":"AZ","Zip":"85201"},{"Location":"A&B TOBACCO","Address":"1955 W Main St Ste10","City":"Mesa","State":"AZ","Zip":"85201"},{"Location":"ARIZONA HAND SURGERY3","Address":"2111 W University Dr","City":"Mesa","State":"AZ","Zip":"85201"},{"Location":"BAD BURRITO","Address":"450 N Alma School Rd","City":"Mesa","State":"AZ","Zip":"85201"},{"Location":"BEER WORLD","Address":"1530 N Country Club Dr","City":"Mesa","State":"AZ","Zip":"85201"},{"Location":"BIG STICKS FINE CIGARS","Address":"1017 N Dobson Rd","City":"Mesa","State":"AZ","Zip":"85201"},{"Location":"BLUE ADOBE GRILL","Address":"144 N Country Club Dr","City":"Mesa","State":"AZ","Zip":"85201"},{"Location":"CACTUS MOON","Address":"1017 N Dobson Rd 108","City":"Mesa","State":"AZ","Zip":"85201"},{"Location":"CALM COOL COLLECTIVE","Address":"1620 W University Dr 15","City":"Mesa","State":"AZ","Zip":"85201"},{"Location":"CHICAGO CUBS BASEBALL CL","Address":"2330 W Rio Salado Pkwy","City":"Mesa","State":"AZ","Zip":"85201"},{"Location":"CHILI'S #1282","Address":"1025 N Dobson Rd","City":"Mesa","State":"AZ","Zip":"85201"},{"Location":"CINDY'S ARIZONA CAFE","Address":"124 E Mckellips Rd","City":"Mesa","State":"AZ","Zip":"85201"},{"Location":"COMMUNITY BRIDGES","Address":"108 E Ingram St","City":"Mesa","State":"AZ","Zip":"85201"},{"Location":"COMMUNITY BRIDGES","Address":"118 E Ingram St B","City":"Mesa","State":"AZ","Zip":"85201"},{"Location":"DESTINY CHRISTIAN CHURCH","Address":"19 N Robson 101","City":"Mesa","State":"AZ","Zip":"85201"},{"Location":"DIAMOND SPORTS BAR","Address":"161 N Centennial Way","City":"Mesa","State":"AZ","Zip":"85201"},{"Location":"DIRTY DRUMMER","Address":"1211 N Country Club Dr 9","City":"Mesa","State":"AZ","Zip":"85201"},{"Location":"DOLLAR KING","Address":"118 E Mckellips Rd","City":"Mesa","State":"AZ","Zip":"85201"},{"Location":"FAIRWAY MARKET","Address":"340 W Brown Rd","City":"Mesa","State":"AZ","Zip":"85201"},{"Location":"FAMOUS DAVES 317","Address":"1011 N Dobson Rd","City":"Mesa","State":"AZ","Zip":"85201"},{"Location":"GABBY'S","Address":"635 N Country Club Dr","City":"Mesa","State":"AZ","Zip":"85201"},{"Location":"GENTLEMAN JOES BARBER SHOP","Address":"1017 N Dobson Rd 107","City":"Mesa","State":"AZ","Zip":"85201"},{"Location":"GEORGES GYROS & CHICKEN","Address":"205 N Country Club Dr","City":"Mesa","State":"AZ","Zip":"85201"},{"Location":"GOOD DEAL FURNITURE","Address":"635 N Country Club Dr 15","City":"Mesa","State":"AZ","Zip":"85201"},{"Location":"GOODYEAR 8243","Address":"50 N Dobson Rd","City":"Mesa","State":"AZ","Zip":"85201"},{"Location":"GOSNEY AND COMPANY PC","Address":"9 W Pepper Pl","City":"Mesa","State":"AZ","Zip":"85201"},{"Location":"GROGGYS","Address":"2207 W Main St","City":"Mesa","State":"AZ","Zip":"85201"},{"Location":"HORIZON HUMAN SERVICES","Address":"453 W Sunset Cir","City":"Mesa","State":"AZ","Zip":"85201"},{"Location":"ISLAMORADA FISH CO","Address":"1133 N Dobson Rd","City":"Mesa","State":"AZ","Zip":"85201"},{"Location":"JIFFY LUBE #1914","Address":"1960 N Country Club Dr","City":"Mesa","State":"AZ","Zip":"85201"},{"Location":"LA PALMA","Address":"1747 N Alma School Rd 2","City":"Mesa","State":"AZ","Zip":"85201"},{"Location":"LA TIENDITA CAFE","Address":"456 W Main St A","City":"Mesa","State":"AZ","Zip":"85201"},{"Location":"LIVE X AUTO EXCHANGE","Address":"530 W Main St","City":"Mesa","State":"AZ","Zip":"85201"},{"Location":"LOGAN'S ROADHOUSE #465","Address":"945 N Dobson Rd","City":"Mesa","State":"AZ","Zip":"85201"},{"Location":"LR CONTRERAS","Address":"2110 N Country Club Dr","City":"Mesa","State":"AZ","Zip":"85201"},{"Location":"MAIN STREET AUTO SALES","Address":"310 E Main St","City":"Mesa","State":"AZ","Zip":"85201"},{"Location":"MAIN STREET BILLIARDS","Address":"1749 W Main St 11","City":"Mesa","State":"AZ","Zip":"85201"},{"Location":"MARGARITAS GRILLE","Address":"10 W Main St 101","City":"Mesa","State":"AZ","Zip":"85201"},{"Location":"MARICOPA INTERGRATED DESERT VI","Address":"570 W Brown Rd","City":"Mesa","State":"AZ","Zip":"85201"},{"Location":"MATTAS CANTINA","Address":"1033 N Dobson Rd 101","City":"Mesa","State":"AZ","Zip":"85201"},{"Location":"MAXIT PAWN & RETAIL SHOP 1661","Address":"221 W Main St","City":"Mesa","State":"AZ","Zip":"85201"},{"Location":"MAYA NEW YORK PIZZA","Address":"223 E Brown Rd","City":"Mesa","State":"AZ","Zip":"85201"},{"Location":"MCC MEN'S CARD ROOM","Address":"660 W Fairway Dr","City":"Mesa","State":"AZ","Zip":"85201"},{"Location":"MESA COMM FAMILY RESTAUR","Address":"535 N Country Club Dr","City":"Mesa","State":"AZ","Zip":"85201"},{"Location":"MESA POLICE DEPT","Address":"130 N Robson","City":"Mesa","State":"AZ","Zip":"85201"},{"Location":"MESA VISION PARTNERS","Address":"937 N Dobson Rd 102","City":"Mesa","State":"AZ","Zip":"85201"},{"Location":"MICKEYS DOWNTOWN BARBER","Address":"218 W Main St","City":"Mesa","State":"AZ","Zip":"85201"},{"Location":"MITEL NETWORKS","Address":"1146 N Alma School Rd","City":"Mesa","State":"AZ","Zip":"85201"},{"Location":"MMDC OUTPATIENT CLINIC","Address":"736 N Country Club Dr","City":"Mesa","State":"AZ","Zip":"85201"},{"Location":"NATIVE NEW YORKER","Address":"318 E Brown Rd","City":"Mesa","State":"AZ","Zip":"85201"},{"Location":"NEXTCARE URGENT CARE 2","Address":"1138 N Alma School Rd 102","City":"Mesa","State":"AZ","Zip":"85201"},{"Location":"PARADISE NIGHT CLUB","Address":"1749 W Main St","City":"Mesa","State":"AZ","Zip":"85201"},{"Location":"PARILLA LOS PICOS","Address":"1542 W University Dr","City":"Mesa","State":"AZ","Zip":"85201"},{"Location":"PETER PIPER PIZZA # 244","Address":"1906 W 8th St","City":"Mesa","State":"AZ","Zip":"85201"},{"Location":"PIER'D ORLEANS","Address":"61 E University Dr","City":"Mesa","State":"AZ","Zip":"85201"},{"Location":"REHAB ARIZONA","Address":"303 N Centennial Way","City":"Mesa","State":"AZ","Zip":"85201"},{"Location":"RIVERVIEW NISSAN","Address":"2025 W Riverview Auto Dr","City":"Mesa","State":"AZ","Zip":"85201"},{"Location":"RIVERVIEW TOYOTA","Address":"2020 Riverview Auto Dr","City":"Mesa","State":"AZ","Zip":"85201"},{"Location":"RV RENTAL OUTLET","Address":"256 E Main St","City":"Mesa","State":"AZ","Zip":"85201"},{"Location":"RV RENTAL OUTLET 2","Address":"256 E Main St","City":"Mesa","State":"AZ","Zip":"85201"},{"Location":"SCHMIDT WESTERGARD AND COMPANY","Address":"77 W University Dr","City":"Mesa","State":"AZ","Zip":"85201"},{"Location":"SEYENNA VISTA","Address":"625 W Mckellips Rd","City":"Mesa","State":"AZ","Zip":"85201"},{"Location":"SHARP FADES BARBER SHOP","Address":"456 W Main St N","City":"Mesa","State":"AZ","Zip":"85201"},{"Location":"SPORT CLIPS AT MESA RIVERVIEW","Address":"937 N Dobson Rd 103","City":"Mesa","State":"AZ","Zip":"85201"},{"Location":"SPORTS AUTHORITY 792","Address":"1812 W Rio Salado Pkwy","City":"Mesa","State":"AZ","Zip":"85201"},{"Location":"SUBWAY #12346","Address":"161 W Main St","City":"Mesa","State":"AZ","Zip":"85201"},{"Location":"SUBWAY #7016","Address":"322 E Brown Rd 105","City":"Mesa","State":"AZ","Zip":"85201"},{"Location":"THE BRAKE SHOP","Address":"536 N Country Club Dr 3","City":"Mesa","State":"AZ","Zip":"85201"},{"Location":"THE BRASS TAP","Address":"1033 N Dobson Rd","City":"Mesa","State":"AZ","Zip":"85201"},{"Location":"WINGSTOP","Address":"837 N Dobson Rd","City":"Mesa","State":"AZ","Zip":"85201"},{"Location":"WOODSHED II","Address":"430 N Dobson Rd","City":"Mesa","State":"AZ","Zip":"85201"},{"Location":"ZIOS PIZZA AND WINGS","Address":"1620 W University Dr","City":"Mesa","State":"AZ","Zip":"85201"}]