[{"Location":"ALLIANCE BANK OF ARIZONA","Address":"1110 E Baseline Rd","City":"Mesa","State":"AZ","Zip":"85204"},{"Location":"AMAZING JAKES","Address":"1830 E Baseline Rd","City":"Mesa","State":"AZ","Zip":"85204"},{"Location":"APPLEBEE'S #504 BASELINE","Address":"2032 E Baseline Rd","City":"Mesa","State":"AZ","Zip":"85204"},{"Location":"ASIA","Address":"1236 E Baseline Rd 102","City":"Mesa","State":"AZ","Zip":"85204"},{"Location":"AUDIO EXPRESS","Address":"1235 S Gilbert Rd I11","City":"Mesa","State":"AZ","Zip":"85204"},{"Location":"BERG FORD","Address":"460 E Auto Center Dr","City":"Mesa","State":"AZ","Zip":"85204"},{"Location":"BERGE FORD","Address":"460 E Auto Center Dr","City":"Mesa","State":"AZ","Zip":"85204"},{"Location":"BLUE EGG LLC","Address":"1930 E Broadway Rd","City":"Mesa","State":"AZ","Zip":"85204"},{"Location":"BROKEN YOLE CAFE","Address":"2034 E Southern Ave","City":"Mesa","State":"AZ","Zip":"85204"},{"Location":"BS BARBERSHOP","Address":"1616 S Stapley Dr 104","City":"Mesa","State":"AZ","Zip":"85204"},{"Location":"BUCA DI BEPPO #303","Address":"1730 S Val Vista Dr","City":"Mesa","State":"AZ","Zip":"85204"},{"Location":"C S P","Address":"1911 S Lindsay Rd","City":"Mesa","State":"AZ","Zip":"85204"},{"Location":"CAMARGOS BARBER SHOP","Address":"761 E Broadway Rd","City":"Mesa","State":"AZ","Zip":"85204"},{"Location":"CAPRIOTTIS","Address":"3510 E Baseline Rd","City":"Mesa","State":"AZ","Zip":"85204"},{"Location":"CHARLESTON'S MESA","Address":"1623 S Stapley Dr","City":"Mesa","State":"AZ","Zip":"85204"},{"Location":"CHILI'S #0601","Address":"1637 S Stapley Dr","City":"Mesa","State":"AZ","Zip":"85204"},{"Location":"CICI'S PIZZA #690","Address":"1011 S Gilbert Rd A101","City":"Mesa","State":"AZ","Zip":"85204"},{"Location":"CIGNA HEALTH CARE OF ARIZONA","Address":"1840 S Stapley Dr 101","City":"Mesa","State":"AZ","Zip":"85204"},{"Location":"CIGNA MEDICAL  EAST VALL","Address":"1840 S Stapley Dr 119","City":"Mesa","State":"AZ","Zip":"85204"},{"Location":"CLIPPERS","Address":"1555 S Gilbert Rd","City":"Mesa","State":"AZ","Zip":"85204"},{"Location":"CNG RANCH #507","Address":"1118 E Southern Ave","City":"Mesa","State":"AZ","Zip":"85204"},{"Location":"COSTA VIDA","Address":"1744 S Val Vista Dr 106","City":"Mesa","State":"AZ","Zip":"85204"},{"Location":"CUMMINS ROCKY MOUNTAIN LLC","Address":"440 E Juanita Ave","City":"Mesa","State":"AZ","Zip":"85204"},{"Location":"DEL REY  CLEANERS","Address":"3550 E Southern Ave 101","City":"Mesa","State":"AZ","Zip":"85204"},{"Location":"DIRTY DIABLO","Address":"1241 E Broadway Rd 17","City":"Mesa","State":"AZ","Zip":"85204"},{"Location":"EL PELUQUERO BARBERSHOP","Address":"734 E Broadway Rd G","City":"Mesa","State":"AZ","Zip":"85204"},{"Location":"ESSCO EAST VALLEY INC","Address":"948 E Isabella Ave","City":"Mesa","State":"AZ","Zip":"85204"},{"Location":"EXTRA INNINGS EAST VALLEY","Address":"3530 E Southern Ave","City":"Mesa","State":"AZ","Zip":"85204"},{"Location":"FIRST CUP STAPLEY","Address":"1230 E Baseline Rd 104","City":"Mesa","State":"AZ","Zip":"85204"},{"Location":"FLAMING KABOB","Address":"2252 E Baseline Rd","City":"Mesa","State":"AZ","Zip":"85204"},{"Location":"FLAMINGO MESA","Address":"437 S Gilbert Rd 16","City":"Mesa","State":"AZ","Zip":"85204"},{"Location":"FLOW HAIR SOCIETY LLC","Address":"1660 S Val Vista Dr","City":"Mesa","State":"AZ","Zip":"85204"},{"Location":"FMC 62400000","Address":"1337 S Gilbert Rd 106","City":"Mesa","State":"AZ","Zip":"85204"},{"Location":"FULL CIRCLE # 23","Address":"1140 E Baseline Rd","City":"Mesa","State":"AZ","Zip":"85204"},{"Location":"HIDALGO MEXICAN FOOD LLC","Address":"801 E Broadway Rd","City":"Mesa","State":"AZ","Zip":"85204"},{"Location":"IMAGINE ARCHITECTURAL CONCRETE","Address":"1754 S Fraser Dr","City":"Mesa","State":"AZ","Zip":"85204"},{"Location":"IMPERIAL BROADMORE COMMUNITY L","Address":"2600 E Allred Ave","City":"Mesa","State":"AZ","Zip":"85204"},{"Location":"JEG-FIT","Address":"2643 E Broadway Rd","City":"Mesa","State":"AZ","Zip":"85204"},{"Location":"JERSEY MIKES SUBS 9016","Address":"1939 S Val Vista Dr","City":"Mesa","State":"AZ","Zip":"85204"},{"Location":"KYNDYS BEAUTY SALON","Address":"734 E Broadway Rd B","City":"Mesa","State":"AZ","Zip":"85204"},{"Location":"LA GUADALUPANA BAKERY","Address":"437 S Gilbert Rd 9","City":"Mesa","State":"AZ","Zip":"85204"},{"Location":"LINK","Address":"1910 S Stapley Dr 119","City":"Mesa","State":"AZ","Zip":"85204"},{"Location":"LONG WONGS","Address":"1455 S Stapley Dr St24","City":"Mesa","State":"AZ","Zip":"85204"},{"Location":"MAD DOG SALOON 2","Address":"1860 S Stapley Dr","City":"Mesa","State":"AZ","Zip":"85204"},{"Location":"MAD DOG SALOON I","Address":"1860 S Stapley Dr","City":"Mesa","State":"AZ","Zip":"85204"},{"Location":"MESA MUFFLER%2C INC","Address":"416 E Baseline Rd","City":"Mesa","State":"AZ","Zip":"85204"},{"Location":"MID MESA MEDICAL","Address":"3155 E Southern Ave","City":"Mesa","State":"AZ","Zip":"85204"},{"Location":"MID MESA MEDICAL 2","Address":"3155 E Southern Ave","City":"Mesa","State":"AZ","Zip":"85204"},{"Location":"MILLEROSE ENTERPRISE LLC","Address":"2547 E Emerald Ave","City":"Mesa","State":"AZ","Zip":"85204"},{"Location":"MT CALVARY BAPTIST CHURCH","Address":"1720 E Broadway Rd","City":"Mesa","State":"AZ","Zip":"85204"},{"Location":"MY FITNESS STUDIO","Address":"3130 E Baseline Rd 110","City":"Mesa","State":"AZ","Zip":"85204"},{"Location":"NATIVE NEW YORKER","Address":"1559 S Gilbert Rd","City":"Mesa","State":"AZ","Zip":"85204"},{"Location":"NEXTCARE URGENT CARE","Address":"3130 E Baseline Rd 105","City":"Mesa","State":"AZ","Zip":"85204"},{"Location":"NIELSEN'S FROZEN CUSTARD","Address":"1942 E Southern Ave","City":"Mesa","State":"AZ","Zip":"85204"},{"Location":"OPEN LANE","Address":"1620 S Stapley Dr 232","City":"Mesa","State":"AZ","Zip":"85204"},{"Location":"PETER PIPER PIZZA # 011","Address":"2122 E Baseline Rd","City":"Mesa","State":"AZ","Zip":"85204"},{"Location":"RA SUSHI #3016 MESA","Address":"1652 S Val Vista Dr 101","City":"Mesa","State":"AZ","Zip":"85204"},{"Location":"RED ROBIN #358","Address":"1636 S Stapley Dr","City":"Mesa","State":"AZ","Zip":"85204"},{"Location":"RENAL CARE GROUP","Address":"1337 S Gilbert Rd 109","City":"Mesa","State":"AZ","Zip":"85204"},{"Location":"RT OSULLIVANS-STAPLEY","Address":"1610 S Stapley Dr","City":"Mesa","State":"AZ","Zip":"85204"},{"Location":"SALVADORENO #1","Address":"330 S Gilbert Rd 20","City":"Mesa","State":"AZ","Zip":"85204"},{"Location":"SAUCE DANA PARK","Address":"3426 E Baseline Rd","City":"Mesa","State":"AZ","Zip":"85204"},{"Location":"SEAFOOD MARKET","Address":"3406 E Baseline Rd","City":"Mesa","State":"AZ","Zip":"85204"},{"Location":"SIMPLETON'S","Address":"2639 E Broadway C105","City":"Mesa","State":"AZ","Zip":"85204"},{"Location":"SPORT CLIPS","Address":"1940 S Val Vista Dr 103","City":"Mesa","State":"AZ","Zip":"85204"},{"Location":"STAPLEYCTR FIREHOUSE SUB","Address":"1616 S Stapley Dr 101","City":"Mesa","State":"AZ","Zip":"85204"},{"Location":"STEVE FROST","Address":"1056 S Val Vista Dr","City":"Mesa","State":"AZ","Zip":"85204"},{"Location":"TEXAS ROADHOUSE #2078","Address":"1605 S Stapley Dr","City":"Mesa","State":"AZ","Zip":"85204"},{"Location":"THE HARP THE PUB AND RESTAURAN","Address":"1744 S Val Vista Dr","City":"Mesa","State":"AZ","Zip":"85204"},{"Location":"THE LIBRE INTIATIVE","Address":"1818 E Southern Ave 2b","City":"Mesa","State":"AZ","Zip":"85204"},{"Location":"THE OFFICE SPORTS BAR","Address":"330 S Gilbert Rd 2","City":"Mesa","State":"AZ","Zip":"85204"},{"Location":"THE U TURN FOUNDATION","Address":"1820 S Los Alamos","City":"Mesa","State":"AZ","Zip":"85204"},{"Location":"TIJERAS LLC","Address":"3458 E Southern Ave 102","City":"Mesa","State":"AZ","Zip":"85204"},{"Location":"TQLA DANA PARK","Address":"1840 S Val Vista Dr","City":"Mesa","State":"AZ","Zip":"85204"},{"Location":"TRUE HOME MAINTENANCE","Address":"2323 E Juanita Ave","City":"Mesa","State":"AZ","Zip":"85204"},{"Location":"ULTIMATE AUTO DIAGNOSTIC","Address":"416 E Baseline Rd 5","City":"Mesa","State":"AZ","Zip":"85204"},{"Location":"UNIVERSITY OF PHOENIX-PHX CAMP","Address":"1620 S Stapley Dr 101","City":"Mesa","State":"AZ","Zip":"85204"},{"Location":"VILLAGE INN #110921","Address":"1859 S Stapley Dr","City":"Mesa","State":"AZ","Zip":"85204"},{"Location":"WINGSTOP #759","Address":"1616 S Stapley Dr 105","City":"Mesa","State":"AZ","Zip":"85204"},{"Location":"YERBERIA SAGITARIO","Address":"734 E Broadway Rd A","City":"Mesa","State":"AZ","Zip":"85204"},{"Location":"YOKOS","Address":"1235 S Gilbert Rd 1","City":"Mesa","State":"AZ","Zip":"85204"},{"Location":"ALLIANCE BANK OF ARIZONA","Address":"1110 E Baseline Rd","City":"Mesa","State":"AZ","Zip":"85204"},{"Location":"AMAZING JAKES","Address":"1830 E Baseline Rd","City":"Mesa","State":"AZ","Zip":"85204"},{"Location":"APPLEBEE'S #504 BASELINE","Address":"2032 E Baseline Rd","City":"Mesa","State":"AZ","Zip":"85204"},{"Location":"ASIA","Address":"1236 E Baseline Rd 102","City":"Mesa","State":"AZ","Zip":"85204"},{"Location":"AUDIO EXPRESS","Address":"1235 S Gilbert Rd I11","City":"Mesa","State":"AZ","Zip":"85204"},{"Location":"BERG FORD","Address":"460 E Auto Center Dr","City":"Mesa","State":"AZ","Zip":"85204"},{"Location":"BERGE FORD","Address":"460 E Auto Center Dr","City":"Mesa","State":"AZ","Zip":"85204"},{"Location":"BLUE EGG LLC","Address":"1930 E Broadway Rd","City":"Mesa","State":"AZ","Zip":"85204"},{"Location":"BROKEN YOLE CAFE","Address":"2034 E Southern Ave","City":"Mesa","State":"AZ","Zip":"85204"},{"Location":"BS BARBERSHOP","Address":"1616 S Stapley Dr 104","City":"Mesa","State":"AZ","Zip":"85204"},{"Location":"BUCA DI BEPPO #303","Address":"1730 S Val Vista Dr","City":"Mesa","State":"AZ","Zip":"85204"},{"Location":"C S P","Address":"1911 S Lindsay Rd","City":"Mesa","State":"AZ","Zip":"85204"},{"Location":"CAMARGOS BARBER SHOP","Address":"761 E Broadway Rd","City":"Mesa","State":"AZ","Zip":"85204"},{"Location":"CAPRIOTTIS","Address":"3510 E Baseline Rd","City":"Mesa","State":"AZ","Zip":"85204"},{"Location":"CHARLESTON'S MESA","Address":"1623 S Stapley Dr","City":"Mesa","State":"AZ","Zip":"85204"},{"Location":"CHILI'S #0601","Address":"1637 S Stapley Dr","City":"Mesa","State":"AZ","Zip":"85204"},{"Location":"CICI'S PIZZA #690","Address":"1011 S Gilbert Rd A101","City":"Mesa","State":"AZ","Zip":"85204"},{"Location":"CIGNA HEALTH CARE OF ARIZONA","Address":"1840 S Stapley Dr 101","City":"Mesa","State":"AZ","Zip":"85204"},{"Location":"CIGNA MEDICAL  EAST VALL","Address":"1840 S Stapley Dr 119","City":"Mesa","State":"AZ","Zip":"85204"},{"Location":"CLIPPERS","Address":"1555 S Gilbert Rd","City":"Mesa","State":"AZ","Zip":"85204"},{"Location":"CNG RANCH #507","Address":"1118 E Southern Ave","City":"Mesa","State":"AZ","Zip":"85204"},{"Location":"COSTA VIDA","Address":"1744 S Val Vista Dr 106","City":"Mesa","State":"AZ","Zip":"85204"},{"Location":"CUMMINS ROCKY MOUNTAIN LLC","Address":"440 E Juanita Ave","City":"Mesa","State":"AZ","Zip":"85204"},{"Location":"DEL REY  CLEANERS","Address":"3550 E Southern Ave 101","City":"Mesa","State":"AZ","Zip":"85204"},{"Location":"DIRTY DIABLO","Address":"1241 E Broadway Rd 17","City":"Mesa","State":"AZ","Zip":"85204"},{"Location":"EL PELUQUERO BARBERSHOP","Address":"734 E Broadway Rd G","City":"Mesa","State":"AZ","Zip":"85204"},{"Location":"ESSCO EAST VALLEY INC","Address":"948 E Isabella Ave","City":"Mesa","State":"AZ","Zip":"85204"},{"Location":"EXTRA INNINGS EAST VALLEY","Address":"3530 E Southern Ave","City":"Mesa","State":"AZ","Zip":"85204"},{"Location":"FIRST CUP STAPLEY","Address":"1230 E Baseline Rd 104","City":"Mesa","State":"AZ","Zip":"85204"},{"Location":"FLAMING KABOB","Address":"2252 E Baseline Rd","City":"Mesa","State":"AZ","Zip":"85204"},{"Location":"FLAMINGO MESA","Address":"437 S Gilbert Rd 16","City":"Mesa","State":"AZ","Zip":"85204"},{"Location":"FLOW HAIR SOCIETY LLC","Address":"1660 S Val Vista Dr","City":"Mesa","State":"AZ","Zip":"85204"},{"Location":"FMC 62400000","Address":"1337 S Gilbert Rd 106","City":"Mesa","State":"AZ","Zip":"85204"},{"Location":"FULL CIRCLE # 23","Address":"1140 E Baseline Rd","City":"Mesa","State":"AZ","Zip":"85204"},{"Location":"HIDALGO MEXICAN FOOD LLC","Address":"801 E Broadway Rd","City":"Mesa","State":"AZ","Zip":"85204"},{"Location":"IMAGINE ARCHITECTURAL CONCRETE","Address":"1754 S Fraser Dr","City":"Mesa","State":"AZ","Zip":"85204"},{"Location":"IMPERIAL BROADMORE COMMUNITY L","Address":"2600 E Allred Ave","City":"Mesa","State":"AZ","Zip":"85204"},{"Location":"JEG-FIT","Address":"2643 E Broadway Rd","City":"Mesa","State":"AZ","Zip":"85204"},{"Location":"JERSEY MIKES SUBS 9016","Address":"1939 S Val Vista Dr","City":"Mesa","State":"AZ","Zip":"85204"},{"Location":"KYNDYS BEAUTY SALON","Address":"734 E Broadway Rd B","City":"Mesa","State":"AZ","Zip":"85204"},{"Location":"LA GUADALUPANA BAKERY","Address":"437 S Gilbert Rd 9","City":"Mesa","State":"AZ","Zip":"85204"},{"Location":"LINK","Address":"1910 S Stapley Dr 119","City":"Mesa","State":"AZ","Zip":"85204"},{"Location":"LONG WONGS","Address":"1455 S Stapley Dr St24","City":"Mesa","State":"AZ","Zip":"85204"},{"Location":"MAD DOG OFFICE","Address":"1860 S Stapley Dr","City":"Mesa","State":"AZ","Zip":"85204"},{"Location":"MAD DOG SALOON 2","Address":"1860 S Stapley Dr","City":"Mesa","State":"AZ","Zip":"85204"},{"Location":"MAD DOG SALOON I","Address":"1860 S Stapley Dr","City":"Mesa","State":"AZ","Zip":"85204"},{"Location":"MESA MUFFLER%2C INC","Address":"416 E Baseline Rd","City":"Mesa","State":"AZ","Zip":"85204"},{"Location":"MID MESA MEDICAL","Address":"3155 E Southern Ave","City":"Mesa","State":"AZ","Zip":"85204"},{"Location":"MID MESA MEDICAL 2","Address":"3155 E Southern Ave","City":"Mesa","State":"AZ","Zip":"85204"},{"Location":"MILLEROSE ENTERPRISE LLC","Address":"2547 E Emerald Ave","City":"Mesa","State":"AZ","Zip":"85204"},{"Location":"MT CALVARY BAPTIST CHURCH","Address":"1720 E Broadway Rd","City":"Mesa","State":"AZ","Zip":"85204"},{"Location":"MY FITNESS STUDIO","Address":"3130 E Baseline Rd 110","City":"Mesa","State":"AZ","Zip":"85204"},{"Location":"NATIVE NEW YORKER","Address":"1559 S Gilbert Rd","City":"Mesa","State":"AZ","Zip":"85204"},{"Location":"NEXTCARE URGENT CARE","Address":"3130 E Baseline Rd 105","City":"Mesa","State":"AZ","Zip":"85204"},{"Location":"NIELSEN'S FROZEN CUSTARD","Address":"1942 E Southern Ave","City":"Mesa","State":"AZ","Zip":"85204"},{"Location":"OPEN LANE","Address":"1620 S Stapley Dr 232","City":"Mesa","State":"AZ","Zip":"85204"},{"Location":"PETER PIPER PIZZA # 011","Address":"2122 E Baseline Rd","City":"Mesa","State":"AZ","Zip":"85204"},{"Location":"RA SUSHI #3016 MESA","Address":"1652 S Val Vista Dr 101","City":"Mesa","State":"AZ","Zip":"85204"},{"Location":"RED ROBIN #358","Address":"1636 S Stapley Dr","City":"Mesa","State":"AZ","Zip":"85204"},{"Location":"RENAL CARE GROUP","Address":"1337 S Gilbert Rd 109","City":"Mesa","State":"AZ","Zip":"85204"},{"Location":"RT OSULLIVANS-STAPLEY","Address":"1610 S Stapley Dr","City":"Mesa","State":"AZ","Zip":"85204"},{"Location":"SALVADORENO #1","Address":"330 S Gilbert Rd 20","City":"Mesa","State":"AZ","Zip":"85204"},{"Location":"SAUCE DANA PARK","Address":"3426 E Baseline Rd","City":"Mesa","State":"AZ","Zip":"85204"},{"Location":"SEAFOOD MARKET","Address":"3406 E Baseline Rd","City":"Mesa","State":"AZ","Zip":"85204"},{"Location":"SIMPLETON'S","Address":"2639 E Broadway C105","City":"Mesa","State":"AZ","Zip":"85204"},{"Location":"SPORT CLIPS","Address":"1940 S Val Vista Dr 103","City":"Mesa","State":"AZ","Zip":"85204"},{"Location":"STAPLEYCTR FIREHOUSE SUB","Address":"1616 S Stapley Dr 101","City":"Mesa","State":"AZ","Zip":"85204"},{"Location":"STEVE FROST","Address":"1056 S Val Vista Dr","City":"Mesa","State":"AZ","Zip":"85204"},{"Location":"TEXAS ROADHOUSE #2078","Address":"1605 S Stapley Dr","City":"Mesa","State":"AZ","Zip":"85204"},{"Location":"THE HARP THE PUB AND RESTAURAN","Address":"1744 S Val Vista Dr","City":"Mesa","State":"AZ","Zip":"85204"},{"Location":"THE LIBRE INTIATIVE","Address":"1818 E Southern Ave 2b","City":"Mesa","State":"AZ","Zip":"85204"},{"Location":"THE OFFICE SPORTS BAR","Address":"330 S Gilbert Rd 2","City":"Mesa","State":"AZ","Zip":"85204"},{"Location":"THE U TURN FOUNDATION","Address":"1820 S Los Alamos","City":"Mesa","State":"AZ","Zip":"85204"},{"Location":"TIJERAS LLC","Address":"3458 E Southern Ave 102","City":"Mesa","State":"AZ","Zip":"85204"},{"Location":"TQLA DANA PARK","Address":"1840 S Val Vista Dr","City":"Mesa","State":"AZ","Zip":"85204"},{"Location":"TRUE HOME MAINTENANCE","Address":"2323 E Juanita Ave","City":"Mesa","State":"AZ","Zip":"85204"},{"Location":"ULTIMATE AUTO DIAGNOSTIC","Address":"416 E Baseline Rd 5","City":"Mesa","State":"AZ","Zip":"85204"},{"Location":"UNIVERSITY OF PHOENIX-PHX CAMP","Address":"1620 S Stapley Dr 101","City":"Mesa","State":"AZ","Zip":"85204"},{"Location":"VILLAGE INN #110921","Address":"1859 S Stapley Dr","City":"Mesa","State":"AZ","Zip":"85204"},{"Location":"WINGSTOP #759","Address":"1616 S Stapley Dr 105","City":"Mesa","State":"AZ","Zip":"85204"},{"Location":"YERBERIA SAGITARIO","Address":"734 E Broadway Rd A","City":"Mesa","State":"AZ","Zip":"85204"},{"Location":"YOKOS","Address":"1235 S Gilbert Rd 1","City":"Mesa","State":"AZ","Zip":"85204"}]