[{"Location":"ADVOCATE","Address":"1922 S Henkel Cir","City":"Mesa","State":"AZ","Zip":"85202"},{"Location":"ADVOCATE1","Address":"2358 S Patterson","City":"Mesa","State":"AZ","Zip":"85202"},{"Location":"ALL AUTOS DIRECT","Address":"1365 W Broadway Rd","City":"Mesa","State":"AZ","Zip":"85202"},{"Location":"ARIZONA BANK & TRUST","Address":"1331 W Southern Ave","City":"Mesa","State":"AZ","Zip":"85202"},{"Location":"ASIAN GALS","Address":"1941 W Guadalupe Rd 119","City":"Mesa","State":"AZ","Zip":"85202"},{"Location":"AZTECH RADIOLOGY","Address":"2653 W Guadalupe Rd","City":"Mesa","State":"AZ","Zip":"85202"},{"Location":"BAKERS SMOKE SHOP","Address":"1941 W Guagalupe Rd 104","City":"Mesa","State":"AZ","Zip":"85202"},{"Location":"BANNER DESERT & SLEEP CENTER","Address":"2225 W Southern Ave","City":"Mesa","State":"AZ","Zip":"85202"},{"Location":"BANNER DESERT OCCUPA. HOUSE","Address":"2225 W Southern Ave","City":"Mesa","State":"AZ","Zip":"85202"},{"Location":"BDMC NERO-ORTHO SPORTS REHAB","Address":"2225 W Southern Ave","City":"Mesa","State":"AZ","Zip":"85202"},{"Location":"BEST PHILLY & WINGS","Address":"1450 W Southern Ave 1","City":"Mesa","State":"AZ","Zip":"85202"},{"Location":"BRUNSWICK ZONE #826 MESA","Address":"1754 W Southern Ave","City":"Mesa","State":"AZ","Zip":"85202"},{"Location":"BUA THAI  LLC","Address":"66 S Dobson Rd 133","City":"Mesa","State":"AZ","Zip":"85202"},{"Location":"BUONO'S PIZZA","Address":"2023 W Guadalupe Rd","City":"Mesa","State":"AZ","Zip":"85202"},{"Location":"CALL IT NEW","Address":"2049 W Broadway Rd","City":"Mesa","State":"AZ","Zip":"85202"},{"Location":"CARDIAC AND PULMINARY REHAB","Address":"1520 S Dobson Rd 201","City":"Mesa","State":"AZ","Zip":"85202"},{"Location":"CHAMPMAN AUTOMOTIVE GROU","Address":"1208 W Broadway","City":"Mesa","State":"AZ","Zip":"85202"},{"Location":"DEER GRADEN","Address":"66 S Dobson Rd","City":"Mesa","State":"AZ","Zip":"85202"},{"Location":"DESERT BANNER AREA 1","Address":"1400 S Dobson Rd","City":"Mesa","State":"AZ","Zip":"85202"},{"Location":"DESERT ONCOLOGY","Address":"1432 S Dobson Rd 106","City":"Mesa","State":"AZ","Zip":"85202"},{"Location":"DICK'S SPORTING GOODS #725","Address":"1455 W Southern Ave","City":"Mesa","State":"AZ","Zip":"85202"},{"Location":"DOBSONS RESTAURANTS","Address":"2155 S Dobson Rd 3","City":"Mesa","State":"AZ","Zip":"85202"},{"Location":"DSI SW MESA","Address":"1457 W Southern Ave Sted1","City":"Mesa","State":"AZ","Zip":"85202"},{"Location":"FANTASTIC SAMS","Address":"1139 S Dobson Rd","City":"Mesa","State":"AZ","Zip":"85202"},{"Location":"FASHION NAILS & SPA","Address":"1445 W Southern Ave 2300","City":"Mesa","State":"AZ","Zip":"85202"},{"Location":"FIRESTONE #027022","Address":"1239 W Guadalupe Rd","City":"Mesa","State":"AZ","Zip":"85202"},{"Location":"HODORI KOREAN RESTAURANT","Address":"1116 S Dobson Rd 111","City":"Mesa","State":"AZ","Zip":"85202"},{"Location":"HOMEDGE'LLC","Address":"1301 W Broadway Rd","City":"Mesa","State":"AZ","Zip":"85202"},{"Location":"INFORMATION STRATEGY DESIGN","Address":"2515 W Broadway Rd 103","City":"Mesa","State":"AZ","Zip":"85202"},{"Location":"INTERSTATE BATTERIES","Address":"250 S Mulberry 105","City":"Mesa","State":"AZ","Zip":"85202"},{"Location":"JIFFY LUBE #2266","Address":"2062 W Guadalupe Rd","City":"Mesa","State":"AZ","Zip":"85202"},{"Location":"JIMMY AND JOES","Address":"1960 W Baseline Rd 4","City":"Mesa","State":"AZ","Zip":"85202"},{"Location":"JUPE'S LOUNGE","Address":"2655 W Guadalupe Rd 32","City":"Mesa","State":"AZ","Zip":"85202"},{"Location":"JUST SPORTS 2","Address":"1445 W Southern Ave 2286","City":"Mesa","State":"AZ","Zip":"85202"},{"Location":"MACAYO'S MESA","Address":"1920 S Dobson Rd","City":"Mesa","State":"AZ","Zip":"85202"},{"Location":"MANILA SUNRISE GOURMET","Address":"2121 W Guadalupe Rd 8","City":"Mesa","State":"AZ","Zip":"85202"},{"Location":"MARKET MECONG","Address":"66 S Dobson Rd","City":"Mesa","State":"AZ","Zip":"85202"},{"Location":"MEKONG SANDWICHES","Address":"66 S Dobson Rd 101","City":"Mesa","State":"AZ","Zip":"85202"},{"Location":"MR BS","Address":"2210 W Southern Ave D15","City":"Mesa","State":"AZ","Zip":"85202"},{"Location":"NATIVE NEW YORKER","Address":"1837 W Guadalupe Rd","City":"Mesa","State":"AZ","Zip":"85202"},{"Location":"O KELLEY'S SPORTS BAR","Address":"2120 W Guadalupe Rd","City":"Mesa","State":"AZ","Zip":"85202"},{"Location":"OK GARDEN SPA","Address":"1911 W Broadway Rd 17","City":"Mesa","State":"AZ","Zip":"85202"},{"Location":"OK TOBACCO","Address":"1720 W Southern Ave C2","City":"Mesa","State":"AZ","Zip":"85202"},{"Location":"OLIVE GARDEN #1661","Address":"1261 W Southern Ave","City":"Mesa","State":"AZ","Zip":"85202"},{"Location":"PHAN","Address":"502 S Dobson Rd 10","City":"Mesa","State":"AZ","Zip":"85202"},{"Location":"PHO NUMBER ONE","Address":"1955 W Baseline Rd","City":"Mesa","State":"AZ","Zip":"85202"},{"Location":"PIMA MEDICAL INSTITUTE","Address":"941 S Dobson Rd","City":"Mesa","State":"AZ","Zip":"85202"},{"Location":"PINK PEPPER RESTAUEANT","Address":"1941 W Guadalupe Rd 105","City":"Mesa","State":"AZ","Zip":"85202"},{"Location":"PITA LICIOUS","Address":"1245 W Guadalupe Rd B7","City":"Mesa","State":"AZ","Zip":"85202"},{"Location":"PIZZA PIT","Address":"1954 S Dobson Rd 5","City":"Mesa","State":"AZ","Zip":"85202"},{"Location":"QUEEN CREEK AUTO & TIRE","Address":"1345 W Broadway Rd","City":"Mesa","State":"AZ","Zip":"85202"},{"Location":"ROSITAS FINE MEXICAN FOO","Address":"2023 W Guadalupe Rd","City":"Mesa","State":"AZ","Zip":"85202"},{"Location":"SAFEWAY 0247","Address":"1225 W Guadalupe Rd","City":"Mesa","State":"AZ","Zip":"85202"},{"Location":"SAKETINI","Address":"1120 South Bobson  Road","City":"Mesa","State":"AZ","Zip":"85202"},{"Location":"SIMPLE CAR STORE","Address":"1701 W Broadway Rd","City":"Mesa","State":"AZ","Zip":"85202"},{"Location":"SPORT CLIPS AZ128","Address":"1960 W Baseline Rd 102","City":"Mesa","State":"AZ","Zip":"85202"},{"Location":"TWENTY TWO INC DBA","Address":"2051 S Dobson Rd","City":"Mesa","State":"AZ","Zip":"85202"},{"Location":"UNPHOGETABLE","Address":"66 S Dobson Rd 138","City":"Mesa","State":"AZ","Zip":"85202"},{"Location":"UPARK WE SELL","Address":"1411 W Broadway Rd","City":"Mesa","State":"AZ","Zip":"85202"},{"Location":"VILLAGE INN #110388","Address":"1155 S Dobson Rd","City":"Mesa","State":"AZ","Zip":"85202"},{"Location":"ADVOCATE","Address":"1922 S Henkel Cir","City":"Mesa","State":"AZ","Zip":"85202"},{"Location":"ADVOCATE1","Address":"2358 S Patterson","City":"Mesa","State":"AZ","Zip":"85202"},{"Location":"ALL AUTOS DIRECT","Address":"1365 W Broadway Rd","City":"Mesa","State":"AZ","Zip":"85202"},{"Location":"ARIZONA BANK & TRUST","Address":"1331 W Southern Ave","City":"Mesa","State":"AZ","Zip":"85202"},{"Location":"ASIAN GALS","Address":"1941 W Guadalupe Rd 119","City":"Mesa","State":"AZ","Zip":"85202"},{"Location":"AZTECH RADIOLOGY","Address":"2653 W Guadalupe Rd","City":"Mesa","State":"AZ","Zip":"85202"},{"Location":"BAKERS SMOKE SHOP","Address":"1941 W Guagalupe Rd 104","City":"Mesa","State":"AZ","Zip":"85202"},{"Location":"BANNER DESERT & SLEEP CENTER","Address":"2225 W Southern Ave","City":"Mesa","State":"AZ","Zip":"85202"},{"Location":"BANNER DESERT OCCUPA. HOUSE","Address":"2225 W Southern Ave","City":"Mesa","State":"AZ","Zip":"85202"},{"Location":"BDMC NERO-ORTHO SPORTS REHAB","Address":"2225 W Southern Ave","City":"Mesa","State":"AZ","Zip":"85202"},{"Location":"BEST PHILLY & WINGS","Address":"1450 W Southern Ave 1","City":"Mesa","State":"AZ","Zip":"85202"},{"Location":"BRUNSWICK ZONE #826 MESA","Address":"1754 W Southern Ave","City":"Mesa","State":"AZ","Zip":"85202"},{"Location":"BUA THAI  LLC","Address":"66 S Dobson Rd 133","City":"Mesa","State":"AZ","Zip":"85202"},{"Location":"BUONO'S PIZZA","Address":"2023 W Guadalupe Rd","City":"Mesa","State":"AZ","Zip":"85202"},{"Location":"CALL IT NEW","Address":"2049 W Broadway Rd","City":"Mesa","State":"AZ","Zip":"85202"},{"Location":"CARDIAC AND PULMINARY REHAB","Address":"1520 S Dobson Rd 201","City":"Mesa","State":"AZ","Zip":"85202"},{"Location":"CHAMPMAN AUTOMOTIVE GROU","Address":"1208 W Broadway","City":"Mesa","State":"AZ","Zip":"85202"},{"Location":"DEER GRADEN","Address":"66 S Dobson Rd","City":"Mesa","State":"AZ","Zip":"85202"},{"Location":"DESERT BANNER AREA 1","Address":"1400 S Dobson Rd","City":"Mesa","State":"AZ","Zip":"85202"},{"Location":"DESERT ONCOLOGY","Address":"1432 S Dobson Rd 106","City":"Mesa","State":"AZ","Zip":"85202"},{"Location":"DICK'S SPORTING GOODS #725","Address":"1455 W Southern Ave","City":"Mesa","State":"AZ","Zip":"85202"},{"Location":"DOBSONS RESTAURANTS","Address":"2155 S Dobson Rd 3","City":"Mesa","State":"AZ","Zip":"85202"},{"Location":"DSI SW MESA","Address":"1457 W Southern Ave Sted1","City":"Mesa","State":"AZ","Zip":"85202"},{"Location":"FANTASTIC SAMS","Address":"1139 S Dobson Rd","City":"Mesa","State":"AZ","Zip":"85202"},{"Location":"FASHION NAILS & SPA","Address":"1445 W Southern Ave 2300","City":"Mesa","State":"AZ","Zip":"85202"},{"Location":"FIRESTONE #027022","Address":"1239 W Guadalupe Rd","City":"Mesa","State":"AZ","Zip":"85202"},{"Location":"HODORI KOREAN RESTAURANT","Address":"1116 S Dobson Rd 111","City":"Mesa","State":"AZ","Zip":"85202"},{"Location":"HOMEDGE'LLC","Address":"1301 W Broadway Rd","City":"Mesa","State":"AZ","Zip":"85202"},{"Location":"INFORMATION STRATEGY DESIGN","Address":"2515 W Broadway Rd 103","City":"Mesa","State":"AZ","Zip":"85202"},{"Location":"INTERSTATE BATTERIES","Address":"250 S Mulberry 105","City":"Mesa","State":"AZ","Zip":"85202"},{"Location":"JIFFY LUBE #2266","Address":"2062 W Guadalupe Rd","City":"Mesa","State":"AZ","Zip":"85202"},{"Location":"JIMMY AND JOES","Address":"1960 W Baseline Rd 4","City":"Mesa","State":"AZ","Zip":"85202"},{"Location":"JUPE'S LOUNGE","Address":"2655 W Guadalupe Rd 32","City":"Mesa","State":"AZ","Zip":"85202"},{"Location":"JUST SPORTS 2","Address":"1445 W Southern Ave 2286","City":"Mesa","State":"AZ","Zip":"85202"},{"Location":"MACAYO'S MESA","Address":"1920 S Dobson Rd","City":"Mesa","State":"AZ","Zip":"85202"},{"Location":"MANILA SUNRISE GOURMET","Address":"2121 W Guadalupe Rd 8","City":"Mesa","State":"AZ","Zip":"85202"},{"Location":"MARKET MECONG","Address":"66 S Dobson Rd","City":"Mesa","State":"AZ","Zip":"85202"},{"Location":"MEKONG SANDWICHES","Address":"66 S Dobson Rd 101","City":"Mesa","State":"AZ","Zip":"85202"},{"Location":"MR BS","Address":"2210 W Southern Ave D15","City":"Mesa","State":"AZ","Zip":"85202"},{"Location":"NATIVE NEW YORKER","Address":"1837 W Guadalupe Rd","City":"Mesa","State":"AZ","Zip":"85202"},{"Location":"O KELLEY'S SPORTS BAR","Address":"2120 W Guadalupe Rd","City":"Mesa","State":"AZ","Zip":"85202"},{"Location":"OK GARDEN SPA","Address":"1911 W Broadway Rd 17","City":"Mesa","State":"AZ","Zip":"85202"},{"Location":"OK TOBACCO","Address":"1720 W Southern Ave C2","City":"Mesa","State":"AZ","Zip":"85202"},{"Location":"OLIVE GARDEN #1661","Address":"1261 W Southern Ave","City":"Mesa","State":"AZ","Zip":"85202"},{"Location":"PHAN","Address":"502 S Dobson Rd 10","City":"Mesa","State":"AZ","Zip":"85202"},{"Location":"PHO NUMBER ONE","Address":"1955 W Baseline Rd","City":"Mesa","State":"AZ","Zip":"85202"},{"Location":"PIMA MEDICAL INSTITUTE","Address":"941 S Dobson Rd","City":"Mesa","State":"AZ","Zip":"85202"},{"Location":"PINK PEPPER RESTAUEANT","Address":"1941 W Guadalupe Rd 105","City":"Mesa","State":"AZ","Zip":"85202"},{"Location":"PITA LICIOUS","Address":"1245 W Guadalupe Rd B7","City":"Mesa","State":"AZ","Zip":"85202"},{"Location":"PIZZA PIT","Address":"1954 S Dobson Rd 5","City":"Mesa","State":"AZ","Zip":"85202"},{"Location":"QUEEN CREEK AUTO & TIRE","Address":"1345 W Broadway Rd","City":"Mesa","State":"AZ","Zip":"85202"},{"Location":"ROSITAS FINE MEXICAN FOO","Address":"2023 W Guadalupe Rd","City":"Mesa","State":"AZ","Zip":"85202"},{"Location":"SAFEWAY 0247","Address":"1225 W Guadalupe Rd","City":"Mesa","State":"AZ","Zip":"85202"},{"Location":"SAKETINI","Address":"1120 South Bobson  Road","City":"Mesa","State":"AZ","Zip":"85202"},{"Location":"SIMPLE CAR STORE","Address":"1701 W Broadway Rd","City":"Mesa","State":"AZ","Zip":"85202"},{"Location":"SPORT CLIPS AZ128","Address":"1960 W Baseline Rd 102","City":"Mesa","State":"AZ","Zip":"85202"},{"Location":"TWENTY TWO INC DBA","Address":"2051 S Dobson Rd","City":"Mesa","State":"AZ","Zip":"85202"},{"Location":"UNPHOGETABLE","Address":"66 S Dobson Rd 138","City":"Mesa","State":"AZ","Zip":"85202"},{"Location":"UPARK WE SELL","Address":"1411 W Broadway Rd","City":"Mesa","State":"AZ","Zip":"85202"},{"Location":"VILLAGE INN #110388","Address":"1155 S Dobson Rd","City":"Mesa","State":"AZ","Zip":"85202"}]