[{"Location":"AGI ES MI TIERRA","Address":"9333 E Apache Trl","City":"Mesa","State":"AZ","Zip":"85207"},{"Location":"APACHE TRAIL SWAP MEET","Address":"9452 E Main St","City":"Mesa","State":"AZ","Zip":"85207"},{"Location":"BUG STOPPER  EXTERMINATING","Address":"8922 E Decatur Rd","City":"Mesa","State":"AZ","Zip":"85207"},{"Location":"CHAMPIONS GRILL","Address":"650 N Hawes Rd","City":"Mesa","State":"AZ","Zip":"85207"},{"Location":"DENIM & DIAMONDS","Address":"7336 E Main St 106","City":"Mesa","State":"AZ","Zip":"85207"},{"Location":"DJS SMOKE SHOP","Address":"7310 E Main St","City":"Mesa","State":"AZ","Zip":"85207"},{"Location":"DOCTOR'S CHOICE ASSISTED LIVIN","Address":"9101 E Brown Rd 107","City":"Mesa","State":"AZ","Zip":"85207"},{"Location":"DOLLBEER RANCH","Address":"8421 E Main St","City":"Mesa","State":"AZ","Zip":"85207"},{"Location":"FAMOUS NAILS","Address":"1035 N Ellsworth Rd 106","City":"Mesa","State":"AZ","Zip":"85207"},{"Location":"FILIBERTO MEXICAN RESTAURANT","Address":"10749 E Apache Trail","City":"Mesa","State":"AZ","Zip":"85207"},{"Location":"JBS RESTAURANT","Address":"6810 E Main St","City":"Mesa","State":"AZ","Zip":"85207"},{"Location":"KOCZWARA CONSTRUCTION COMPANY","Address":"8924 E Main St","City":"Mesa","State":"AZ","Zip":"85207"},{"Location":"LA FITNESS #126","Address":"1857 N Signal Butte Rd","City":"Mesa","State":"AZ","Zip":"85207"},{"Location":"LAS SENDAS GOLF CLUB","Address":"7555 E Eagle Crest Dr","City":"Mesa","State":"AZ","Zip":"85207"},{"Location":"LAS SENDAS PRO SHOP","Address":"7555 E Eagle Crest Dr","City":"Mesa","State":"AZ","Zip":"85207"},{"Location":"PAPA KELSEY PIZZA AND PU","Address":"9124 E Main St","City":"Mesa","State":"AZ","Zip":"85207"},{"Location":"PRIMARY CARE HOLDINGS","Address":"6820 E Brown Rd","City":"Mesa","State":"AZ","Zip":"85207"},{"Location":"RED MOUNTAIN MASSAGE","Address":"9124 E Main St 13","City":"Mesa","State":"AZ","Zip":"85207"},{"Location":"ROAD HOUSE GRILL","Address":"7000 E Main St","City":"Mesa","State":"AZ","Zip":"85207"},{"Location":"RURAL METRO FIRE DEPARTMENT","Address":"7631 E Main St","City":"Mesa","State":"AZ","Zip":"85207"},{"Location":"S.O.S PHYSICAL THERAPY","Address":"6840 E Brown Rd 104","City":"Mesa","State":"AZ","Zip":"85207"},{"Location":"SHOW OFF HAIR SALON","Address":"7303 E Main St 114","City":"Mesa","State":"AZ","Zip":"85207"},{"Location":"SILVER SPUR VILLAGE","Address":"9333 E University Dr","City":"Mesa","State":"AZ","Zip":"85207"},{"Location":"SOURDOUGH PIZZA RESTAURA","Address":"7440 E Main St 1","City":"Mesa","State":"AZ","Zip":"85207"},{"Location":"THE MEDICAL CLINIC","Address":"7436 E Main St","City":"Mesa","State":"AZ","Zip":"85207"},{"Location":"THE TROUGH LLC","Address":"9303 E Apache Trl","City":"Mesa","State":"AZ","Zip":"85207"},{"Location":"VILLAGE INN #110391","Address":"6813 E Main St","City":"Mesa","State":"AZ","Zip":"85207"},{"Location":"VISTAS AT LAS SENDAS","Address":"7555- 2 E Eagle Crest Dr","City":"Mesa","State":"AZ","Zip":"85207"},{"Location":"WESTERN VASCULAR INST","Address":"7165 E University Dr 183","City":"Mesa","State":"AZ","Zip":"85207"},{"Location":"WHAT THE HELL BAR & GRILL","Address":"7303 E Main St 115","City":"Mesa","State":"AZ","Zip":"85207"},{"Location":"WHATLEY DENTAL","Address":"7137 E Main St 2","City":"Mesa","State":"AZ","Zip":"85207"}]