[{"Location":"2260 E UNIVERSITY LLC","Address":"2260 E University Dr","City":"Mesa","State":"AZ","Zip":"85213"},{"Location":"ASIAN MASSAGE","Address":"2760 E Main St 103","City":"Mesa","State":"AZ","Zip":"85213"},{"Location":"AUTO BAHN TINT.COM","Address":"1707 N Ashbrook Cir","City":"Mesa","State":"AZ","Zip":"85213"},{"Location":"AZ AUTO CORRAL","Address":"3350 E Main St","City":"Mesa","State":"AZ","Zip":"85213"},{"Location":"CAL-AM INC","Address":"233 N Val Vista Dr","City":"Mesa","State":"AZ","Zip":"85213"},{"Location":"COMMUNITY BRIDGES","Address":"3122 E Cicero St","City":"Mesa","State":"AZ","Zip":"85213"},{"Location":"DESERAMA ESSENTIAL GROUP LLC","Address":"2434 E Main St","City":"Mesa","State":"AZ","Zip":"85213"},{"Location":"FAT WILLYS UNIVERSITY","Address":"2662 E University Dr 102","City":"Mesa","State":"AZ","Zip":"85213"},{"Location":"FILIDERTOS MEXICAN RESTUARANT","Address":"3041 E Mckellips Rd","City":"Mesa","State":"AZ","Zip":"85213"},{"Location":"FIREHOUSE SUBS","Address":"2727 E Mckellips Rd","City":"Mesa","State":"AZ","Zip":"85213"},{"Location":"FIRESTONE #349492 NC","Address":"1840 N Lindsay Rd","City":"Mesa","State":"AZ","Zip":"85213"},{"Location":"GOOD LIFE RV RESORT","Address":"3403 E Main St","City":"Mesa","State":"AZ","Zip":"85213"},{"Location":"GREEN LEAF VISTA","Address":"3443 E University Dr","City":"Mesa","State":"AZ","Zip":"85213"},{"Location":"INTEGRITY RV","Address":"2323 E Main St","City":"Mesa","State":"AZ","Zip":"85213"},{"Location":"MAXIT PAWN & RETAIL SHOP 1662","Address":"2860 E Main St","City":"Mesa","State":"AZ","Zip":"85213"},{"Location":"MCKAY AUTO REPAIR","Address":"3130 E Main St 1","City":"Mesa","State":"AZ","Zip":"85213"},{"Location":"ORANGEWOOD SHADOWS RV RESORT","Address":"3165 E University Dr","City":"Mesa","State":"AZ","Zip":"85213"},{"Location":"PGPC INC","Address":"2855 E Brown Rd 19","City":"Mesa","State":"AZ","Zip":"85213"},{"Location":"RED MOUNTAIN COLLISION","Address":"3145 E Main St","City":"Mesa","State":"AZ","Zip":"85213"},{"Location":"THE HIGHLANDS %40 BRENTWOOD","Address":"120 N Val Vista Dr","City":"Mesa","State":"AZ","Zip":"85213"},{"Location":"VITOS PIZZA & RISTORANTE","Address":"1947 N Lindsay Rd","City":"Mesa","State":"AZ","Zip":"85213"}]