[{"Location":"ALMA MEADOWS","Address":"535 S Alma School Rd","City":"Mesa","State":"AZ","Zip":"85210"},{"Location":"AMERICAN LEGION POST 26","Address":"505 W 2nd Ave","City":"Mesa","State":"AZ","Zip":"85210"},{"Location":"ANGRY CRAB SHACK","Address":"2740 S Alma School Rd 13","City":"Mesa","State":"AZ","Zip":"85210"},{"Location":"APPLEBEE'S #503 MESA","Address":"2053 S Alma School Rd","City":"Mesa","State":"AZ","Zip":"85210"},{"Location":"ARIZONA CAR WASH CO","Address":"2828 S Country Club Dr","City":"Mesa","State":"AZ","Zip":"85210"},{"Location":"ATRIUM BAR %40 THE HILTON","Address":"1011 W Holmes Ave","City":"Mesa","State":"AZ","Zip":"85210"},{"Location":"AUER PRECISION COMPANY","Address":"1050 W Birchwood Ave","City":"Mesa","State":"AZ","Zip":"85210"},{"Location":"AZ LIFTS 4 LESS","Address":"535 W Iron Ave","City":"Mesa","State":"AZ","Zip":"85210"},{"Location":"BASELINE PUB & GRUB","Address":"2815 S Alma School Rd 101","City":"Mesa","State":"AZ","Zip":"85210"},{"Location":"BLAST FITNESS POCA FIEST","Address":"1038 W Southern Ave","City":"Mesa","State":"AZ","Zip":"85210"},{"Location":"BOULDERS ON SOUTHERN","Address":"1010 W Southern Ave 1","City":"Mesa","State":"AZ","Zip":"85210"},{"Location":"CHESTERS HARLEY DAVIDSON","Address":"922 S Country Club Dr","City":"Mesa","State":"AZ","Zip":"85210"},{"Location":"CHESTERS HARLEY DAVIDSON 2","Address":"922 S Country Club Dr","City":"Mesa","State":"AZ","Zip":"85210"},{"Location":"COUNTRY CLUB SMILES","Address":"500 W Southern Ave 1","City":"Mesa","State":"AZ","Zip":"85210"},{"Location":"COUNTRY ROSE%2C INC","Address":"1909 S Country Club Dr","City":"Mesa","State":"AZ","Zip":"85210"},{"Location":"CRUISE AMERICA","Address":"11 W Hampton Ave","City":"Mesa","State":"AZ","Zip":"85210"},{"Location":"DAVE LATUNSKI GARAGE","Address":"240 E Coury Ave 116","City":"Mesa","State":"AZ","Zip":"85210"},{"Location":"DENNYS","Address":"1150 S Country Club Dr","City":"Mesa","State":"AZ","Zip":"85210"},{"Location":"DESERT VIEW AUTOMOTIVE INC.","Address":"545 S Robson 3","City":"Mesa","State":"AZ","Zip":"85210"},{"Location":"EAST VALLEY NEUROSURGERY","Address":"2045 S Vineyard 142","City":"Mesa","State":"AZ","Zip":"85210"},{"Location":"EB CHESTER","Address":"944 S Country Club Dr","City":"Mesa","State":"AZ","Zip":"85210"},{"Location":"FARNSWORTH WHOLESALE COMPANY","Address":"1265 S Pima","City":"Mesa","State":"AZ","Zip":"85210"},{"Location":"FOAM EXPERTS ROOFING INC","Address":"1107 S Wilbur","City":"Mesa","State":"AZ","Zip":"85210"},{"Location":"GOOD CAR COMPANY INC","Address":"953 S Country Club Dr","City":"Mesa","State":"AZ","Zip":"85210"},{"Location":"GREASE MONKEY GARAGE LLC","Address":"110 E Southern Ave","City":"Mesa","State":"AZ","Zip":"85210"},{"Location":"HAWKINS DESIGN GROUP INC","Address":"2152 S Vineyard 107","City":"Mesa","State":"AZ","Zip":"85210"},{"Location":"HIBACHI SUPER BUFFET","Address":"1164 W Southern Ave","City":"Mesa","State":"AZ","Zip":"85210"},{"Location":"HILTON CONCIERGE LOUNGE","Address":"1011 W Holmet Ave","City":"Mesa","State":"AZ","Zip":"85210"},{"Location":"HILTON PHOENIX E MESA","Address":"1011 W Holmes Ave","City":"Mesa","State":"AZ","Zip":"85210"},{"Location":"HILTON PHOENIX EAST 0039804","Address":"1011 W Holmes Ave","City":"Mesa","State":"AZ","Zip":"85210"},{"Location":"HOMELIFE LLC","Address":"55 W Hoover Ave 7","City":"Mesa","State":"AZ","Zip":"85210"},{"Location":"HOOTERS MESA","Address":"1665 S Alma School Rd","City":"Mesa","State":"AZ","Zip":"85210"},{"Location":"INTERNATIONAL RECTIFIER","Address":"550 W Juanita Ave","City":"Mesa","State":"AZ","Zip":"85210"},{"Location":"JIFFY LUBE #1029","Address":"828 W Baseline Rd","City":"Mesa","State":"AZ","Zip":"85210"},{"Location":"JIFFY LUBE #2086","Address":"1945 S Country Club Dr","City":"Mesa","State":"AZ","Zip":"85210"},{"Location":"KAYS PLACE","Address":"315 S Alma School Rd","City":"Mesa","State":"AZ","Zip":"85210"},{"Location":"KNOWLES LAW FIRM","Address":"1201 S Alma School Rd 12750","City":"Mesa","State":"AZ","Zip":"85210"},{"Location":"LIZ NAILS OF THE WORLD","Address":"550 W Baseline Rd","City":"Mesa","State":"AZ","Zip":"85210"},{"Location":"LONGHORN STEAKHOUSE #5448","Address":"1434 S Alma School Rd","City":"Mesa","State":"AZ","Zip":"85210"},{"Location":"LOOSE CANNONS","Address":"20 W Baseline Rd 5","City":"Mesa","State":"AZ","Zip":"85210"},{"Location":"MARICOPA INTEGRATED HEALTH SYS","Address":"59 S Hibbert","City":"Mesa","State":"AZ","Zip":"85210"},{"Location":"MARK A KIRKORSKY  P.C","Address":"1119 W Southern Ave","City":"Mesa","State":"AZ","Zip":"85210"},{"Location":"MAXIT PAWN & RETAIL SHOP 1660","Address":"303 E Southern Ave 109","City":"Mesa","State":"AZ","Zip":"85210"},{"Location":"MCDONALDS","Address":"146 W Baseline Rd","City":"Mesa","State":"AZ","Zip":"85210"},{"Location":"MESA CHIROPRACTIC","Address":"613 S Mesa Dr","City":"Mesa","State":"AZ","Zip":"85210"},{"Location":"MESA GOLFLAND","Address":"155 W Hampton Ave","City":"Mesa","State":"AZ","Zip":"85210"},{"Location":"MESA PRECISION","Address":"31 E Vine Ave","City":"Mesa","State":"AZ","Zip":"85210"},{"Location":"MORE 4 LESS FURNITURE","Address":"1120 S Country Club Dr 108","City":"Mesa","State":"AZ","Zip":"85210"},{"Location":"MORE SUN LLC","Address":"213 E 5th Ave","City":"Mesa","State":"AZ","Zip":"85210"},{"Location":"NAILS NELLY SPA","Address":"832 W Baseline Rd 9","City":"Mesa","State":"AZ","Zip":"85210"},{"Location":"NEX GEN ECIGS AND VAPOR","Address":"1855 S Country Club Dr 105","City":"Mesa","State":"AZ","Zip":"85210"},{"Location":"OLD CHICAGO #7005","Address":"1656 S Alma School Rd","City":"Mesa","State":"AZ","Zip":"85210"},{"Location":"POLLACK INVESTMENTS","Address":"1136 W Baseline Rd","City":"Mesa","State":"AZ","Zip":"85210"},{"Location":"RED LOBSTER #6219","Address":"1403 S Alma School Rd","City":"Mesa","State":"AZ","Zip":"85210"},{"Location":"REPUBLICA EMPANADA LLC","Address":"204 E 1st Ave","City":"Mesa","State":"AZ","Zip":"85210"},{"Location":"RESIDENCE INN (0057161)","Address":"941 W Grove Ave","City":"Mesa","State":"AZ","Zip":"85210"},{"Location":"RESTAURANT SINALOA","Address":"45 W Broadway Rd","City":"Mesa","State":"AZ","Zip":"85210"},{"Location":"RETINAL CONSULTANTS OF AZ","Address":"2152 S Vineyard 139","City":"Mesa","State":"AZ","Zip":"85210"},{"Location":"ROYAL SUPERVISORY CARE","Address":"108 E 2nd Ave","City":"Mesa","State":"AZ","Zip":"85210"},{"Location":"SAFE CITY INC","Address":"240 E Coury Ave 103","City":"Mesa","State":"AZ","Zip":"85210"},{"Location":"SALVADORENO RESTAURANT","Address":"303 E Southern Ave 113","City":"Mesa","State":"AZ","Zip":"85210"},{"Location":"SEPTEMBERS","Address":"500 W Southern Ave 12","City":"Mesa","State":"AZ","Zip":"85210"},{"Location":"SIZZLER","Address":"1050 S Country Club Dr","City":"Mesa","State":"AZ","Zip":"85210"},{"Location":"SNAP FITNESS #213","Address":"2025 S Alma School Rd","City":"Mesa","State":"AZ","Zip":"85210"},{"Location":"SOUTHWEST JUDO ACADEMY","Address":"145 W Broadway Rd 8","City":"Mesa","State":"AZ","Zip":"85210"},{"Location":"SPORTS EXCHANGE","Address":"1120 S Country Club Dr 104","City":"Mesa","State":"AZ","Zip":"85210"},{"Location":"STUF RAGEOUS","Address":"1036 W Southern Ave","City":"Mesa","State":"AZ","Zip":"85210"},{"Location":"SWAN NAIL","Address":"848 S Alma School Rd","City":"Mesa","State":"AZ","Zip":"85210"},{"Location":"TGF PLATICS","Address":"255 S Sirrine","City":"Mesa","State":"AZ","Zip":"85210"},{"Location":"THE ARIZONA CAR WASH","Address":"2828 S Country Club Dr","City":"Mesa","State":"AZ","Zip":"85210"},{"Location":"THE DRAFT SPORTS GRILL","Address":"1130 W Grove Ave 106","City":"Mesa","State":"AZ","Zip":"85210"},{"Location":"TOUCHSTONE BH","Address":"2150 S Country Club Dr 35","City":"Mesa","State":"AZ","Zip":"85210"},{"Location":"TOWN AND COUNTRY MOTORS","Address":"1411 S Country Club Dr","City":"Mesa","State":"AZ","Zip":"85210"},{"Location":"TRANSMISSION CENTER II","Address":"510 W Broadway Rd","City":"Mesa","State":"AZ","Zip":"85210"},{"Location":"TRUNKS AND IMPORTS","Address":"1001 S Country Club Dr","City":"Mesa","State":"AZ","Zip":"85210"},{"Location":"VFW DODE MORRIS POST 1760","Address":"65 S Macdonald","City":"Mesa","State":"AZ","Zip":"85210"},{"Location":"WINGS EXPRESS","Address":"761 S Alma School Rd","City":"Mesa","State":"AZ","Zip":"85210"}]