[{"Location":"ATK","Address":"3309 N Reseda","City":"Mesa","State":"AZ","Zip":"85215"},{"Location":"ATK MEDIUM CALIBER SYSTEMS","Address":"4242 E Palm St","City":"Mesa","State":"AZ","Zip":"85215"},{"Location":"BIG O TIRES","Address":"6702 E Mckellips Rd","City":"Mesa","State":"AZ","Zip":"85215"},{"Location":"BIPAR ASSOCIATES INC","Address":"4545 E Mckellips Rd 103","City":"Mesa","State":"AZ","Zip":"85215"},{"Location":"BOEING COMPANY","Address":"5000 E Mcdowell Rd","City":"Mesa","State":"AZ","Zip":"85215"},{"Location":"BOEING COMPANY HELICOPTER","Address":"5000 E Mcdowell Rd","City":"Mesa","State":"AZ","Zip":"85215"},{"Location":"BRUCE BARRO","Address":"6663 E Mcdowell Rd 105","City":"Mesa","State":"AZ","Zip":"85215"},{"Location":"CAE GLOBAL ACADEMY PHOENIX","Address":"5010 E Falcon Dr","City":"Mesa","State":"AZ","Zip":"85215"},{"Location":"CALDWELL BANKER T & P","Address":"2913 N Power Rd 101","City":"Mesa","State":"AZ","Zip":"85215"},{"Location":"CANYON LANDS INSURANCE","Address":"3654 N Power Rd 146","City":"Mesa","State":"AZ","Zip":"85215"},{"Location":"CHILI'S #0739","Address":"6648 E Mckellips Rd","City":"Mesa","State":"AZ","Zip":"85215"},{"Location":"COMPTON PLUMBING INC","Address":"2902 N Norfolk","City":"Mesa","State":"AZ","Zip":"85215"},{"Location":"CURAFLO SERVICE LLC","Address":"4035 E Oasis St","City":"Mesa","State":"AZ","Zip":"85215"},{"Location":"DR THOMAS  GRECO","Address":"5901 E Mckellips Rd 109","City":"Mesa","State":"AZ","Zip":"85215"},{"Location":"DVINE BIESTRO","Address":"2837 N Power Rd 101","City":"Mesa","State":"AZ","Zip":"85215"},{"Location":"EMPIRE SOUTH LLC","Address":"4616 E Fighter Aces Dr","City":"Mesa","State":"AZ","Zip":"85215"},{"Location":"FALCON EXECUTIVE AVIATION","Address":"4766 E Falcon Dr","City":"Mesa","State":"AZ","Zip":"85215"},{"Location":"FLEXPRINT INC","Address":"2845 N Omaha St","City":"Mesa","State":"AZ","Zip":"85215"},{"Location":"FOUR PEAKS PIZZA & GRILL","Address":"5943 E Mckellips Rd C-102","City":"Mesa","State":"AZ","Zip":"85215"},{"Location":"GENTRY REALTY","Address":"2812 N Norwalk 103","City":"Mesa","State":"AZ","Zip":"85215"},{"Location":"GUS NY PIZZA & BAR","Address":"2015 N Power Rd 106","City":"Mesa","State":"AZ","Zip":"85215"},{"Location":"HELIPONENTS","Address":"4930 E Falcon Dr","City":"Mesa","State":"AZ","Zip":"85215"},{"Location":"HUMANA 02107 043","Address":"5943 E Mckellips Rd 106","City":"Mesa","State":"AZ","Zip":"85215"},{"Location":"LA FITNESS #04154","Address":"2605 N Power Rd","City":"Mesa","State":"AZ","Zip":"85215"},{"Location":"LAWLOR INSURANCE SVCS","Address":"4710 E Falcon Dr 111","City":"Mesa","State":"AZ","Zip":"85215"},{"Location":"LEHI VALLEY TRADING CO","Address":"4955 E Mckellips Rd","City":"Mesa","State":"AZ","Zip":"85215"},{"Location":"LONGBOW GOLF CLUB","Address":"5601 E Longbow Pkwy","City":"Mesa","State":"AZ","Zip":"85215"},{"Location":"LONGBOW GOLF CLUB - 2","Address":"5601 E Longbow Pkwy Mant","City":"Mesa","State":"AZ","Zip":"85215"},{"Location":"MBO EXECUTIVE SUITES","Address":"4801 E Mckellips Rd 103","City":"Mesa","State":"AZ","Zip":"85215"},{"Location":"MIKES BARBERSHOP","Address":"5057 E Mckellips Rd 103","City":"Mesa","State":"AZ","Zip":"85215"},{"Location":"MIX","Address":"4405 E Mckellips Rd 106","City":"Mesa","State":"AZ","Zip":"85215"},{"Location":"NANDOS MESA","Address":"6715 E Mcdowell Rd","City":"Mesa","State":"AZ","Zip":"85215"},{"Location":"NEXTCARE ARIZONA LLC","Address":"2550 N Thunderbird Cir 303","City":"Mesa","State":"AZ","Zip":"85215"},{"Location":"ONE STOP NUTRITION","Address":"6747 E Mcdowell Rd 103","City":"Mesa","State":"AZ","Zip":"85215"},{"Location":"ONEILLS PLACE","Address":"2855 N Power Rd 101","City":"Mesa","State":"AZ","Zip":"85215"},{"Location":"OTTO TRUCKING","Address":"4025 E Presidio St","City":"Mesa","State":"AZ","Zip":"85215"},{"Location":"PACHINOS","Address":"2831 N Power Rd 104","City":"Mesa","State":"AZ","Zip":"85215"},{"Location":"PAINTED MOUNTAIN GOLF RE","Address":"6210 E Mckellips Rd","City":"Mesa","State":"AZ","Zip":"85215"},{"Location":"PET PLANET USA INC","Address":"3654 N Power Rd 3","City":"Mesa","State":"AZ","Zip":"85215"},{"Location":"RED MOUNTAIN","Address":"5735 E Mckellips Rd B101","City":"Mesa","State":"AZ","Zip":"85215"},{"Location":"RED WHITE AND BREW","Address":"6740 102 E Mcdowell Rd","City":"Mesa","State":"AZ","Zip":"85215"},{"Location":"ROOSEVELT WATER","Address":"3815 E Sargent Dr","City":"Mesa","State":"AZ","Zip":"85215"},{"Location":"SOOTHING OPTIONS","Address":"3321 N Reseda 61","City":"Mesa","State":"AZ","Zip":"85215"},{"Location":"SOUTH WEST AMBULANCE","Address":"2725 N Power Rd 102","City":"Mesa","State":"AZ","Zip":"85215"},{"Location":"SPORT CLIPS","Address":"6606 E Mckellips Rd 103","City":"Mesa","State":"AZ","Zip":"85215"},{"Location":"STEVE KERUTIS","Address":"5852 E Mckellips Rd 107","City":"Mesa","State":"AZ","Zip":"85215"},{"Location":"SUNNYSIDE BREAKFAST LOUNGE","Address":"2823 N Power Rd 101","City":"Mesa","State":"AZ","Zip":"85215"},{"Location":"SURGERY CENTER SERVICES","Address":"2921 N Power Rd Bldb","City":"Mesa","State":"AZ","Zip":"85215"},{"Location":"THE MONASTERY","Address":"4810 E Mckellips Rd","City":"Mesa","State":"AZ","Zip":"85215"},{"Location":"TITAN ARCHITECTURAL PROD","Address":"4502 E Virginia St","City":"Mesa","State":"AZ","Zip":"85215"},{"Location":"TOMS BBQ","Address":"5005 E Mckellips Rd","City":"Mesa","State":"AZ","Zip":"85215"},{"Location":"VENEZIA S PIZZERIA","Address":"5057 E Mckellips Rd 106","City":"Mesa","State":"AZ","Zip":"85215"},{"Location":"VILLAGE INN #110864","Address":"5961 E Mckellips Rd","City":"Mesa","State":"AZ","Zip":"85215"},{"Location":"WAXIE SANITARY SUPPLY","Address":"4136 E Mcdowell Rd","City":"Mesa","State":"AZ","Zip":"85215"}]