[{"Location":"A V HOMES INC","Address":"5620 South Encore","City":"Mesa","State":"AZ","Zip":"85212"},{"Location":"ANYTIME FITNESS LLC","Address":"8257 E Guadalupe Rd","City":"Mesa","State":"AZ","Zip":"85212"},{"Location":"APPRECI8N CONCEPTS LLC","Address":"4984 S Power Rd","City":"Mesa","State":"AZ","Zip":"85212"},{"Location":"ASU EAST MORRISON SCHOOL OF BU","Address":"7001 E Williams Field Rd 80","City":"Mesa","State":"AZ","Zip":"85212"},{"Location":"BACI BISTRO","Address":"8830 E German Rd","City":"Mesa","State":"AZ","Zip":"85212"},{"Location":"BELL WEATHER CORP","Address":"7408 S Atwood 102","City":"Mesa","State":"AZ","Zip":"85212"},{"Location":"BIG WINGS II","Address":"5221 S Power Rd 107","City":"Mesa","State":"AZ","Zip":"85212"},{"Location":"BLUE SKY NAILS AND SPA","Address":"5229 S Power Rd 102","City":"Mesa","State":"AZ","Zip":"85212"},{"Location":"BREAST CANCER SOCIETY","Address":"6859 E Rembrandt Ave","City":"Mesa","State":"AZ","Zip":"85212"},{"Location":"C.A. SEYMORE BUILDERS","Address":"6926 E Parkway Norte D9","City":"Mesa","State":"AZ","Zip":"85212"},{"Location":"CANYON STATE AUTO BROKER","Address":"5647 S Power Rd","City":"Mesa","State":"AZ","Zip":"85212"},{"Location":"CESSNA AIRCRAFT","Address":"5533 S Sossaman Rd","City":"Mesa","State":"AZ","Zip":"85212"},{"Location":"CHECKS RESTORATION LLC","Address":"7408 S Atwood","City":"Mesa","State":"AZ","Zip":"85212"},{"Location":"CITY OF MESA","Address":"6353 S Downwind","City":"Mesa","State":"AZ","Zip":"85212"},{"Location":"CITY OF MESA FIRESTATION 215","Address":"6353 S Downwind","City":"Mesa","State":"AZ","Zip":"85212"},{"Location":"CLUB DANCE","Address":"8743 E Pecos Rd 105","City":"Mesa","State":"AZ","Zip":"85212"},{"Location":"DIGITAL MEDIA MONITORING","Address":"4743 S Camine Cir","City":"Mesa","State":"AZ","Zip":"85212"},{"Location":"EMBLEM HOLDING","Address":"6859 E Rembrandt Ave 120","City":"Mesa","State":"AZ","Zip":"85212"},{"Location":"HB AEROSPACE","Address":"7665 E Velocity Way 105","City":"Mesa","State":"AZ","Zip":"85212"},{"Location":"HEALTH FOR LIFE INC","Address":"7343 S 89th Pl","City":"Mesa","State":"AZ","Zip":"85212"},{"Location":"INTERNATIONAL AIR RESPONSE","Address":"6250 S Taxiway Cir","City":"Mesa","State":"AZ","Zip":"85212"},{"Location":"JIFFY LUBE #3231","Address":"9257 E Guadalupe Rd","City":"Mesa","State":"AZ","Zip":"85212"},{"Location":"MBO EXECUTIVE SUITES","Address":"4135 S Power Rd 127","City":"Mesa","State":"AZ","Zip":"85212"},{"Location":"MPC MACHINES","Address":"8743 E Pecos Rd Suite","City":"Mesa","State":"AZ","Zip":"85212"},{"Location":"PHOENIX INTERAGENCY FIRE CENTE","Address":"6335 S Downwind 101","City":"Mesa","State":"AZ","Zip":"85212"},{"Location":"PHOENIX-MESA GATEWAY AIRPORT","Address":"6033 S Sossaman Rd","City":"Mesa","State":"AZ","Zip":"85212"},{"Location":"ROBERTS TIRE SALES INC","Address":"4747 S Power Rd","City":"Mesa","State":"AZ","Zip":"85212"},{"Location":"SALK TRADING","Address":"7931 E Pecos Rd 116","City":"Mesa","State":"AZ","Zip":"85212"},{"Location":"SAN TAN CARDIOVASCULAR CENTER","Address":"6859 E Rembrandt Ave 117","City":"Mesa","State":"AZ","Zip":"85212"},{"Location":"TEXAS ROADHOUSE #2319","Address":"5086 S Power Rd","City":"Mesa","State":"AZ","Zip":"85212"},{"Location":"TSA MESA GATEWAY AIRPORT","Address":"5950 S Sossaman Rd","City":"Mesa","State":"AZ","Zip":"85212"},{"Location":"VILLAGE INN #110851","Address":"5012 S Power Rd","City":"Mesa","State":"AZ","Zip":"85212"},{"Location":"WILLIAMS GATEWAY AIRPORT","Address":"5803 S Sossaman Rd 116","City":"Mesa","State":"AZ","Zip":"85212"},{"Location":"A V HOMES INC","Address":"5620 South Encore","City":"Mesa","State":"AZ","Zip":"85212"},{"Location":"ANYTIME FITNESS LLC","Address":"8257 E Guadalupe Rd","City":"Mesa","State":"AZ","Zip":"85212"},{"Location":"APPRECI8N CONCEPTS LLC","Address":"4984 S Power Rd","City":"Mesa","State":"AZ","Zip":"85212"},{"Location":"ASU EAST MORRISON SCHOOL OF BU","Address":"7001 E Williams Field Rd 80","City":"Mesa","State":"AZ","Zip":"85212"},{"Location":"BACI BISTRO","Address":"8830 E German Rd","City":"Mesa","State":"AZ","Zip":"85212"},{"Location":"BELL WEATHER CORP","Address":"7408 S Atwood 102","City":"Mesa","State":"AZ","Zip":"85212"},{"Location":"BIG WINGS II","Address":"5221 S Power Rd 107","City":"Mesa","State":"AZ","Zip":"85212"},{"Location":"BLUE SKY NAILS AND SPA","Address":"5229 S Power Rd 102","City":"Mesa","State":"AZ","Zip":"85212"},{"Location":"BREAST CANCER SOCIETY","Address":"6859 E Rembrandt Ave","City":"Mesa","State":"AZ","Zip":"85212"},{"Location":"C.A. SEYMORE BUILDERS","Address":"6926 E Parkway Norte D9","City":"Mesa","State":"AZ","Zip":"85212"},{"Location":"CANYON STATE AUTO BROKER","Address":"5647 S Power Rd","City":"Mesa","State":"AZ","Zip":"85212"},{"Location":"CESSNA AIRCRAFT","Address":"5533 S Sossaman Rd","City":"Mesa","State":"AZ","Zip":"85212"},{"Location":"CHECKS RESTORATION LLC","Address":"7408 S Atwood","City":"Mesa","State":"AZ","Zip":"85212"},{"Location":"CITY OF MESA","Address":"6353 S Downwind","City":"Mesa","State":"AZ","Zip":"85212"},{"Location":"CITY OF MESA FIRESTATION 215","Address":"6353 S Downwind","City":"Mesa","State":"AZ","Zip":"85212"},{"Location":"CLUB DANCE","Address":"8743 E Pecos Rd 105","City":"Mesa","State":"AZ","Zip":"85212"},{"Location":"DIGITAL MEDIA MONITORING","Address":"4743 S Camine Cir","City":"Mesa","State":"AZ","Zip":"85212"},{"Location":"EMBLEM HOLDING","Address":"6859 E Rembrandt Ave 120","City":"Mesa","State":"AZ","Zip":"85212"},{"Location":"HB AEROSPACE","Address":"7665 E Velocity Way 105","City":"Mesa","State":"AZ","Zip":"85212"},{"Location":"HEALTH FOR LIFE INC","Address":"7343 S 89th Pl","City":"Mesa","State":"AZ","Zip":"85212"},{"Location":"INTERNATIONAL AIR RESPONSE","Address":"6250 S Taxiway Cir","City":"Mesa","State":"AZ","Zip":"85212"},{"Location":"JIFFY LUBE #3231","Address":"9257 E Guadalupe Rd","City":"Mesa","State":"AZ","Zip":"85212"},{"Location":"MBO EXECUTIVE SUITES","Address":"4135 S Power Rd 127","City":"Mesa","State":"AZ","Zip":"85212"},{"Location":"MPC MACHINES","Address":"8743 E Pecos Rd Suite","City":"Mesa","State":"AZ","Zip":"85212"},{"Location":"PHOENIX INTERAGENCY FIRE CENTE","Address":"6335 S Downwind 101","City":"Mesa","State":"AZ","Zip":"85212"},{"Location":"PHOENIX-MESA GATEWAY AIRPORT","Address":"6033 S Sossaman Rd","City":"Mesa","State":"AZ","Zip":"85212"},{"Location":"ROBERTS TIRE SALES INC","Address":"4747 S Power Rd","City":"Mesa","State":"AZ","Zip":"85212"},{"Location":"SALK TRADING","Address":"7931 E Pecos Rd 116","City":"Mesa","State":"AZ","Zip":"85212"},{"Location":"SAN TAN CARDIOVASCULAR CENTER","Address":"6859 E Rembrandt Ave 117","City":"Mesa","State":"AZ","Zip":"85212"},{"Location":"TEXAS ROADHOUSE #2319","Address":"5086 S Power Rd","City":"Mesa","State":"AZ","Zip":"85212"},{"Location":"TSA MESA GATEWAY AIRPORT","Address":"5950 S Sossaman Rd","City":"Mesa","State":"AZ","Zip":"85212"},{"Location":"VILLAGE INN #110851","Address":"5012 S Power Rd","City":"Mesa","State":"AZ","Zip":"85212"},{"Location":"WILLIAMS GATEWAY AIRPORT","Address":"5803 S Sossaman Rd 116","City":"Mesa","State":"AZ","Zip":"85212"}]