[{"Location":"480 BAR","Address":"480 N Arizona Ave","City":"Chandler","State":"AZ","Zip":"85225"},{"Location":"AGEEZ HAIR CENTER 1","Address":"1368 N Arizona Ave 110","City":"Chandler","State":"AZ","Zip":"85225"},{"Location":"ALLARD  COLLISION","Address":"230 E Highland St","City":"Chandler","State":"AZ","Zip":"85225"},{"Location":"ALOHA MOTEL COMMON AREA","Address":"445 N Arizona Ave","City":"Chandler","State":"AZ","Zip":"85225"},{"Location":"AMF CHANDLER #354","Address":"1900 N Arizona Ave","City":"Chandler","State":"AZ","Zip":"85225"},{"Location":"ANHEUSER-BUSCH WHLSLR #10275","Address":"2555 N Nevada St","City":"Chandler","State":"AZ","Zip":"85225"},{"Location":"ARIZONA BEST LLC","Address":"3245 N Arizona Ave E3","City":"Chandler","State":"AZ","Zip":"85225"},{"Location":"ARIZONA NUTRITIONAL","Address":"380 E Chilton Dr","City":"Chandler","State":"AZ","Zip":"85225"},{"Location":"AUTOMATED FINANCIAL","Address":"2105 N Nevada St","City":"Chandler","State":"AZ","Zip":"85225"},{"Location":"AZVN BIDA LLC","Address":"1368 N Arizona Ave 104","City":"Chandler","State":"AZ","Zip":"85225"},{"Location":"BETTYS BAIL BONDS","Address":"762 N Arizona Ave 2","City":"Chandler","State":"AZ","Zip":"85225"},{"Location":"BOURBON JACKS GRILL","Address":"11 W Boston St 1","City":"Chandler","State":"AZ","Zip":"85225"},{"Location":"BRIGHTON COLLISION CENTER","Address":"725 E Chandler Blvd","City":"Chandler","State":"AZ","Zip":"85225"},{"Location":"BURRITO EXPRESS","Address":"985 W Elliot Rd","City":"Chandler","State":"AZ","Zip":"85225"},{"Location":"CHANDLER FIRE DEPT. ADMI","Address":"576 W Pecos Rd","City":"Chandler","State":"AZ","Zip":"85225"},{"Location":"CHANDLER TIRE FACTORY","Address":"440 N Arizona Ave","City":"Chandler","State":"AZ","Zip":"85225"},{"Location":"COACH & WILLIES-CHANDLER","Address":"1 E Boston St","City":"Chandler","State":"AZ","Zip":"85225"},{"Location":"COUNTRY CLIPPER","Address":"52 S San Marcos Pl","City":"Chandler","State":"AZ","Zip":"85225"},{"Location":"CRYSTAL CLEAR PLUMBING","Address":"3215 N Arizona Ave 3","City":"Chandler","State":"AZ","Zip":"85225"},{"Location":"CUT FOR PUPS","Address":"393 W Warner Rd 120","City":"Chandler","State":"AZ","Zip":"85225"},{"Location":"DOUGLAS BARBERSHOP","Address":"698 E Chandler Blvd","City":"Chandler","State":"AZ","Zip":"85225"},{"Location":"DOWNTOWN CHANDLER","Address":"98 S San Marcos Pl","City":"Chandler","State":"AZ","Zip":"85225"},{"Location":"DRAFT HOUSE ON THE REEF","Address":"393 W Warner Rd 121","City":"Chandler","State":"AZ","Zip":"85225"},{"Location":"DUKES GRILLE","Address":"980 E Pecos Rd","City":"Chandler","State":"AZ","Zip":"85225"},{"Location":"DUNKIN DONUTS","Address":"2001 N Arizona Ave 1","City":"Chandler","State":"AZ","Zip":"85225"},{"Location":"EASEWIND","Address":"58 W Buffalo St","City":"Chandler","State":"AZ","Zip":"85225"},{"Location":"ECHELON HAIR STUDIO","Address":"950 E Pecos Rd 11","City":"Chandler","State":"AZ","Zip":"85225"},{"Location":"EL COYOTE SPORTS BAR","Address":"481 N Arizona Ave","City":"Chandler","State":"AZ","Zip":"85225"},{"Location":"EL SOL","Address":"760 N Arizona Ave","City":"Chandler","State":"AZ","Zip":"85225"},{"Location":"EL ZOCALO MEXICAN GRILL","Address":"28 S San Marcos Pl","City":"Chandler","State":"AZ","Zip":"85225"},{"Location":"EXTREME AIR JUMPING N SKATE","Address":"910 E Pecos Rd","City":"Chandler","State":"AZ","Zip":"85225"},{"Location":"FAMILY AUTO CARE","Address":"290 S Arizona Ave","City":"Chandler","State":"AZ","Zip":"85225"},{"Location":"FERGUSON #1002","Address":"3205 N Arizona Ave 6","City":"Chandler","State":"AZ","Zip":"85225"},{"Location":"FILBERTO MEXICAN RESTAURANT","Address":"930 E Pecos Rd 101","City":"Chandler","State":"AZ","Zip":"85225"},{"Location":"FLOR DE MICHOACAN","Address":"582 N Arizona Ave 2","City":"Chandler","State":"AZ","Zip":"85225"},{"Location":"FMC 62390000","Address":"912 W Chandler Blvd A","City":"Chandler","State":"AZ","Zip":"85225"},{"Location":"HA EUN%2C INC. DBA TAKA SUSHI","Address":"3002 N Arizona Ave 18-19","City":"Chandler","State":"AZ","Zip":"85225"},{"Location":"HOLCOMB INVESTMENT","Address":"200 E Knox Rd","City":"Chandler","State":"AZ","Zip":"85225"},{"Location":"HOT POT CARIBBEAN CUISINE","Address":"2081 N Arizona Ave 132","City":"Chandler","State":"AZ","Zip":"85225"},{"Location":"HOTROD TATTOO INC","Address":"801 N Arizona Ave","City":"Chandler","State":"AZ","Zip":"85225"},{"Location":"INFINITY TRADING SOLUTIONS LLC","Address":"450 E Elliot Rd","City":"Chandler","State":"AZ","Zip":"85225"},{"Location":"JASON MCNUTT","Address":"320 S Arizona Ave 101","City":"Chandler","State":"AZ","Zip":"85225"},{"Location":"JIFFY LUBE #2092","Address":"399 N Arizona Ave","City":"Chandler","State":"AZ","Zip":"85225"},{"Location":"JOLIES PLACE","Address":"140 W Warner Rd","City":"Chandler","State":"AZ","Zip":"85225"},{"Location":"KVLK ENTERPISES LLC","Address":"2100 N Mcqueen Rd","City":"Chandler","State":"AZ","Zip":"85225"},{"Location":"LIBERTY DISTRIBUTION COMP","Address":"290 E El Prado Ct","City":"Chandler","State":"AZ","Zip":"85225"},{"Location":"LONG WONGS","Address":"1272 N Arizona Ave","City":"Chandler","State":"AZ","Zip":"85225"},{"Location":"MARICOPA INTEGRATED HEALTH SYS","Address":"811 S Hamilton St","City":"Chandler","State":"AZ","Zip":"85225"},{"Location":"MASA SUSHI","Address":"941 W Elliot Rd","City":"Chandler","State":"AZ","Zip":"85225"},{"Location":"MAXIT PAWN & RETAIL SHOP 1668","Address":"3080 N Arizona Ave","City":"Chandler","State":"AZ","Zip":"85225"},{"Location":"MIMITAS CUBAN CAFE","Address":"1950 N Arizona Ave","City":"Chandler","State":"AZ","Zip":"85225"},{"Location":"MURPHY'S LAW 58","Address":"58 S San Marcos Pl","City":"Chandler","State":"AZ","Zip":"85225"},{"Location":"NATIONAL CREDIT ADJUSTERS","Address":"555 W Chandler Blvd 102","City":"Chandler","State":"AZ","Zip":"85225"},{"Location":"PARAMOUNT LEISURE IND","Address":"295 E Corporate Pl","City":"Chandler","State":"AZ","Zip":"85225"},{"Location":"PRECISION AIR AND HEATING","Address":"3045 N Colorado St","City":"Chandler","State":"AZ","Zip":"85225"},{"Location":"PRINCIPAL TAX SERVICE","Address":"1049 N Arizona Ave","City":"Chandler","State":"AZ","Zip":"85225"},{"Location":"RICHS AUTOMOTIVE","Address":"450 E Frye Rd","City":"Chandler","State":"AZ","Zip":"85225"},{"Location":"RIDE NOW POWER SPORTS","Address":"3333 N Arizona Ave","City":"Chandler","State":"AZ","Zip":"85225"},{"Location":"ROSATIS OF OCOTILLO","Address":"1050 E Ray Rd 2","City":"Chandler","State":"AZ","Zip":"85225"},{"Location":"SAFEWAY 1605","Address":"1060 E Ray Rd","City":"Chandler","State":"AZ","Zip":"85225"},{"Location":"SAN MARCOS GOLF RESORT1","Address":"100 N Dakota St","City":"Chandler","State":"AZ","Zip":"85225"},{"Location":"SAN TAN BREWING COMPANY LLC","Address":"8 S San Marcos Pl","City":"Chandler","State":"AZ","Zip":"85225"},{"Location":"SKY HARBOR CAB","Address":"926 W Marlboro Cir","City":"Chandler","State":"AZ","Zip":"85225"},{"Location":"SUBWAY #50157","Address":"611 N Arizona Ave","City":"Chandler","State":"AZ","Zip":"85225"},{"Location":"T.W.H.S","Address":"604 W Warner Rd C3","City":"Chandler","State":"AZ","Zip":"85225"},{"Location":"THE BREZO GROUP","Address":"255 W Warner Rd","City":"Chandler","State":"AZ","Zip":"85225"},{"Location":"THE DOORMILL","Address":"1601 N Delaware St","City":"Chandler","State":"AZ","Zip":"85225"},{"Location":"THE PERCH","Address":"232 S Wall St","City":"Chandler","State":"AZ","Zip":"85225"},{"Location":"THELADYLLC","Address":"629 E Chandler Blvd 9","City":"Chandler","State":"AZ","Zip":"85225"},{"Location":"THOROBRED CHEVROLT","Address":"2121 N Arizona Ave","City":"Chandler","State":"AZ","Zip":"85225"},{"Location":"TOM RYANS BAR","Address":"70 W Warner Rd 105","City":"Chandler","State":"AZ","Zip":"85225"},{"Location":"TUMI FINE PERUVIAN","Address":"961 W Ray Rd 3","City":"Chandler","State":"AZ","Zip":"85225"},{"Location":"VFW POST 7401","Address":"751 S Arizona Ave","City":"Chandler","State":"AZ","Zip":"85225"},{"Location":"WENDYS 1691","Address":"816 W Warner Rd","City":"Chandler","State":"AZ","Zip":"85225"},{"Location":"COMPLETE PARACHUTE SOLUTIONS","Address":"6300 North Coolidge Airport Rd","City":"Coolidge","State":"AZ","Zip":"85225"},{"Location":"480 BAR","Address":"480 N Arizona Ave","City":"Chandler","State":"AZ","Zip":"85225"},{"Location":"AGEEZ HAIR CENTER 1","Address":"1368 N Arizona Ave 110","City":"Chandler","State":"AZ","Zip":"85225"},{"Location":"ALLARD  COLLISION","Address":"230 E Highland St","City":"Chandler","State":"AZ","Zip":"85225"},{"Location":"ALOHA MOTEL COMMON AREA","Address":"445 N Arizona Ave","City":"Chandler","State":"AZ","Zip":"85225"},{"Location":"AMF CHANDLER #354","Address":"1900 N Arizona Ave","City":"Chandler","State":"AZ","Zip":"85225"},{"Location":"ANHEUSER-BUSCH WHLSLR #10275","Address":"2555 N Nevada St","City":"Chandler","State":"AZ","Zip":"85225"},{"Location":"ARIZONA BEST LLC","Address":"3245 N Arizona Ave E3","City":"Chandler","State":"AZ","Zip":"85225"},{"Location":"ARIZONA NUTRITIONAL","Address":"380 E Chilton Dr","City":"Chandler","State":"AZ","Zip":"85225"},{"Location":"AUTOMATED FINANCIAL","Address":"2105 N Nevada St","City":"Chandler","State":"AZ","Zip":"85225"},{"Location":"AZVN BIDA LLC","Address":"1368 N Arizona Ave 104","City":"Chandler","State":"AZ","Zip":"85225"},{"Location":"BETTYS BAIL BONDS","Address":"762 N Arizona Ave 2","City":"Chandler","State":"AZ","Zip":"85225"},{"Location":"BOURBON JACKS GRILL","Address":"11 W Boston St 1","City":"Chandler","State":"AZ","Zip":"85225"},{"Location":"BRIGHTON COLLISION CENTER","Address":"725 E Chandler Blvd","City":"Chandler","State":"AZ","Zip":"85225"},{"Location":"BURRITO EXPRESS","Address":"985 W Elliot Rd","City":"Chandler","State":"AZ","Zip":"85225"},{"Location":"CHANDLER FIRE DEPT. ADMI","Address":"576 W Pecos Rd","City":"Chandler","State":"AZ","Zip":"85225"},{"Location":"CHANDLER TIRE FACTORY","Address":"440 N Arizona Ave","City":"Chandler","State":"AZ","Zip":"85225"},{"Location":"COACH & WILLIES-CHANDLER","Address":"1 E Boston St","City":"Chandler","State":"AZ","Zip":"85225"},{"Location":"COUNTRY CLIPPER","Address":"52 S San Marcos Pl","City":"Chandler","State":"AZ","Zip":"85225"},{"Location":"CRYSTAL CLEAR PLUMBING","Address":"3215 N Arizona Ave 3","City":"Chandler","State":"AZ","Zip":"85225"},{"Location":"CUT FOR PUPS","Address":"393 W Warner Rd 120","City":"Chandler","State":"AZ","Zip":"85225"},{"Location":"DOUGLAS BARBERSHOP","Address":"698 E Chandler Blvd","City":"Chandler","State":"AZ","Zip":"85225"},{"Location":"DOWNTOWN CHANDLER","Address":"98 S San Marcos Pl","City":"Chandler","State":"AZ","Zip":"85225"},{"Location":"DRAFT HOUSE ON THE REEF","Address":"393 W Warner Rd 121","City":"Chandler","State":"AZ","Zip":"85225"},{"Location":"DUKES GRILLE","Address":"980 E Pecos Rd","City":"Chandler","State":"AZ","Zip":"85225"},{"Location":"DUNKIN DONUTS","Address":"2001 N Arizona Ave 1","City":"Chandler","State":"AZ","Zip":"85225"},{"Location":"EASEWIND","Address":"58 W Buffalo St","City":"Chandler","State":"AZ","Zip":"85225"},{"Location":"ECHELON HAIR STUDIO","Address":"950 E Pecos Rd 11","City":"Chandler","State":"AZ","Zip":"85225"},{"Location":"EL COYOTE SPORTS BAR","Address":"481 N Arizona Ave","City":"Chandler","State":"AZ","Zip":"85225"},{"Location":"EL SOL","Address":"760 N Arizona Ave","City":"Chandler","State":"AZ","Zip":"85225"},{"Location":"EL ZOCALO MEXICAN GRILL","Address":"28 S San Marcos Pl","City":"Chandler","State":"AZ","Zip":"85225"},{"Location":"EXTREME AIR JUMPING N SKATE","Address":"910 E Pecos Rd","City":"Chandler","State":"AZ","Zip":"85225"},{"Location":"FAMILY AUTO CARE","Address":"290 S Arizona Ave","City":"Chandler","State":"AZ","Zip":"85225"},{"Location":"FERGUSON #1002","Address":"3205 N Arizona Ave 6","City":"Chandler","State":"AZ","Zip":"85225"},{"Location":"FILBERTO MEXICAN RESTAURANT","Address":"930 E Pecos Rd 101","City":"Chandler","State":"AZ","Zip":"85225"},{"Location":"FLOR DE MICHOACAN","Address":"582 N Arizona Ave 2","City":"Chandler","State":"AZ","Zip":"85225"},{"Location":"FMC 62390000","Address":"912 W Chandler Blvd A","City":"Chandler","State":"AZ","Zip":"85225"},{"Location":"HA EUN%2C INC. DBA TAKA SUSHI","Address":"3002 N Arizona Ave 18-19","City":"Chandler","State":"AZ","Zip":"85225"},{"Location":"HOLCOMB INVESTMENT","Address":"200 E Knox Rd","City":"Chandler","State":"AZ","Zip":"85225"},{"Location":"HOT POT CARIBBEAN CUISINE","Address":"2081 N Arizona Ave 132","City":"Chandler","State":"AZ","Zip":"85225"},{"Location":"HOTROD TATTOO INC","Address":"801 N Arizona Ave","City":"Chandler","State":"AZ","Zip":"85225"},{"Location":"INFINITY TRADING SOLUTIONS LLC","Address":"450 E Elliot Rd","City":"Chandler","State":"AZ","Zip":"85225"},{"Location":"JASON MCNUTT","Address":"320 S Arizona Ave 101","City":"Chandler","State":"AZ","Zip":"85225"},{"Location":"JIFFY LUBE #2092","Address":"399 N Arizona Ave","City":"Chandler","State":"AZ","Zip":"85225"},{"Location":"JOLIES PLACE","Address":"140 W Warner Rd","City":"Chandler","State":"AZ","Zip":"85225"},{"Location":"KVLK ENTERPISES LLC","Address":"2100 N Mcqueen Rd","City":"Chandler","State":"AZ","Zip":"85225"},{"Location":"LIBERTY DISTRIBUTION COMP","Address":"290 E El Prado Ct","City":"Chandler","State":"AZ","Zip":"85225"},{"Location":"LONG WONGS","Address":"1272 N Arizona Ave","City":"Chandler","State":"AZ","Zip":"85225"},{"Location":"MARICOPA INTEGRATED HEALTH SYS","Address":"811 S Hamilton St","City":"Chandler","State":"AZ","Zip":"85225"},{"Location":"MASA SUSHI","Address":"941 W Elliot Rd","City":"Chandler","State":"AZ","Zip":"85225"},{"Location":"MAXIT PAWN & RETAIL SHOP 1668","Address":"3080 N Arizona Ave","City":"Chandler","State":"AZ","Zip":"85225"},{"Location":"MIMITAS CUBAN CAFE","Address":"1950 N Arizona Ave","City":"Chandler","State":"AZ","Zip":"85225"},{"Location":"MURPHY'S LAW 58","Address":"58 S San Marcos Pl","City":"Chandler","State":"AZ","Zip":"85225"},{"Location":"NATIONAL CREDIT ADJUSTERS","Address":"555 W Chandler Blvd 102","City":"Chandler","State":"AZ","Zip":"85225"},{"Location":"PARAMOUNT LEISURE IND","Address":"295 E Corporate Pl","City":"Chandler","State":"AZ","Zip":"85225"},{"Location":"PRECISION AIR AND HEATING","Address":"3045 N Colorado St","City":"Chandler","State":"AZ","Zip":"85225"},{"Location":"PRINCIPAL TAX SERVICE","Address":"1049 N Arizona Ave","City":"Chandler","State":"AZ","Zip":"85225"},{"Location":"RICHS AUTOMOTIVE","Address":"450 E Frye Rd","City":"Chandler","State":"AZ","Zip":"85225"},{"Location":"RIDE NOW POWER SPORTS","Address":"3333 N Arizona Ave","City":"Chandler","State":"AZ","Zip":"85225"},{"Location":"ROSATIS OF OCOTILLO","Address":"1050 E Ray Rd 2","City":"Chandler","State":"AZ","Zip":"85225"},{"Location":"SAFEWAY 1605","Address":"1060 E Ray Rd","City":"Chandler","State":"AZ","Zip":"85225"},{"Location":"SAN MARCOS GOLF RESORT1","Address":"100 N Dakota St","City":"Chandler","State":"AZ","Zip":"85225"},{"Location":"SAN TAN BREWING COMPANY LLC","Address":"8 S San Marcos Pl","City":"Chandler","State":"AZ","Zip":"85225"},{"Location":"SKY HARBOR CAB","Address":"926 W Marlboro Cir","City":"Chandler","State":"AZ","Zip":"85225"},{"Location":"SUBWAY #50157","Address":"611 N Arizona Ave","City":"Chandler","State":"AZ","Zip":"85225"},{"Location":"T.W.H.S","Address":"604 W Warner Rd C3","City":"Chandler","State":"AZ","Zip":"85225"},{"Location":"THE BREZO GROUP","Address":"255 W Warner Rd","City":"Chandler","State":"AZ","Zip":"85225"},{"Location":"THE DOORMILL","Address":"1601 N Delaware St","City":"Chandler","State":"AZ","Zip":"85225"},{"Location":"THE PERCH","Address":"232 S Wall St","City":"Chandler","State":"AZ","Zip":"85225"},{"Location":"THELADYLLC","Address":"629 E Chandler Blvd 9","City":"Chandler","State":"AZ","Zip":"85225"},{"Location":"THOROBRED CHEVROLT","Address":"2121 N Arizona Ave","City":"Chandler","State":"AZ","Zip":"85225"},{"Location":"TOM RYANS BAR","Address":"70 W Warner Rd 105","City":"Chandler","State":"AZ","Zip":"85225"},{"Location":"TUMI FINE PERUVIAN","Address":"961 W Ray Rd 3","City":"Chandler","State":"AZ","Zip":"85225"},{"Location":"VFW POST 7401","Address":"751 S Arizona Ave","City":"Chandler","State":"AZ","Zip":"85225"},{"Location":"WENDYS 1691","Address":"816 W Warner Rd","City":"Chandler","State":"AZ","Zip":"85225"},{"Location":"COMPLETE PARACHUTE SOLUTIONS","Address":"6300 North Coolidge Airport Rd","City":"Coolidge","State":"AZ","Zip":"85225"}]