[{"Location":"360 PHYICAL THEROPY","Address":"1076 W Chandler Blvd 103","City":"Chandler","State":"AZ","Zip":"85224"},{"Location":"ALL AMERICAN POOL AND PATIO 2","Address":"2860 W Chandler Blvd 13-15","City":"Chandler","State":"AZ","Zip":"85224"},{"Location":"AMERICAN LEGION POST 35","Address":"2240 West Channel Blvd","City":"Chandler","State":"AZ","Zip":"85224"},{"Location":"AMERICAN LEGION POST 91","Address":"922 N Alma School Rd","City":"Chandler","State":"AZ","Zip":"85224"},{"Location":"ANYTIME FITNESS","Address":"1072 W Chandler Blvd","City":"Chandler","State":"AZ","Zip":"85224"},{"Location":"ASML","Address":"2650 W Geronimo Pl","City":"Chandler","State":"AZ","Zip":"85224"},{"Location":"ATRIA CHANDLER VILLAS","Address":"101 S Yucca St","City":"Chandler","State":"AZ","Zip":"85224"},{"Location":"AZ PAIN SPECIALISTS","Address":"655 S Dobson Rd A205","City":"Chandler","State":"AZ","Zip":"85224"},{"Location":"AZ TECH RADIOLOGY OPEN MRI LLC","Address":"600 S Dobson Rd","City":"Chandler","State":"AZ","Zip":"85224"},{"Location":"BANK OF AMERICA AZ1-800-01-17","Address":"2565 W Chandler Blvd","City":"Chandler","State":"AZ","Zip":"85224"},{"Location":"BARROW NEUROSURGICAL ASC","Address":"485 S Dobson Rd 101","City":"Chandler","State":"AZ","Zip":"85224"},{"Location":"BOBA TEA HOUSE","Address":"2055 N Dobson Rd","City":"Chandler","State":"AZ","Zip":"85224"},{"Location":"C-FU GOURMET","Address":"2051 W Warner Rd","City":"Chandler","State":"AZ","Zip":"85224"},{"Location":"CHANDLER ELKS LODGE","Address":"1775 W Chandler Blvd","City":"Chandler","State":"AZ","Zip":"85224"},{"Location":"CHANDLER HEALTH CARE","Address":"2121 W Elgin St 18b","City":"Chandler","State":"AZ","Zip":"85224"},{"Location":"CHASE'S DINER","Address":"2040 N Alma School Rd","City":"Chandler","State":"AZ","Zip":"85224"},{"Location":"CHEDDARS CHANDLER AZ","Address":"2530 W Chandler Blvd","City":"Chandler","State":"AZ","Zip":"85224"},{"Location":"DANNYS TRANSMISSIONS","Address":"95 N Dobson Rd Bldg","City":"Chandler","State":"AZ","Zip":"85224"},{"Location":"DE JE VU SPA","Address":"1960 W Ray Rd 1","City":"Chandler","State":"AZ","Zip":"85224"},{"Location":"DESERT VASCULAR SPECIALIST","Address":"1940 N Alma School Rd","City":"Chandler","State":"AZ","Zip":"85224"},{"Location":"DESTINATION XL 9778","Address":"2830 W Chandler Blvd","City":"Chandler","State":"AZ","Zip":"85224"},{"Location":"DOS GRINGOS ALMA SCHOOL","Address":"1361 N Alma School Rd","City":"Chandler","State":"AZ","Zip":"85224"},{"Location":"EAST VALLEY GASTROENTEROLOGY","Address":"600 S Dobson Rd A","City":"Chandler","State":"AZ","Zip":"85224"},{"Location":"F&J LLC DBA NANAYS","Address":"2390 N Alma School Rd 103","City":"Chandler","State":"AZ","Zip":"85224"},{"Location":"FIBBER MAGEES","Address":"1989 W Elliot Rd","City":"Chandler","State":"AZ","Zip":"85224"},{"Location":"FLORIDINOS","Address":"590 N Alma School Rd 34","City":"Chandler","State":"AZ","Zip":"85224"},{"Location":"FLOYD'S 99 BARBERSHOP","Address":"2885 W Ray Rd 2","City":"Chandler","State":"AZ","Zip":"85224"},{"Location":"FREESCALE - FIT CTR MDCH350","Address":"1300 N Alma School Rd","City":"Chandler","State":"AZ","Zip":"85224"},{"Location":"FREESCALE - SECURITY","Address":"1300 N Alma School Rd G","City":"Chandler","State":"AZ","Zip":"85224"},{"Location":"FREESCALE SEMICONDUCTOR","Address":"1300 N Alma School Rd","City":"Chandler","State":"AZ","Zip":"85224"},{"Location":"FRINGOS KITCHEN","Address":"2160 N Alma School Rd","City":"Chandler","State":"AZ","Zip":"85224"},{"Location":"FULL CIRCLE AUTOWASH #24","Address":"2755 W Chandler Blvd","City":"Chandler","State":"AZ","Zip":"85224"},{"Location":"GYRO EXPRESS","Address":"1900 W Chandler Blvd 21","City":"Chandler","State":"AZ","Zip":"85224"},{"Location":"HILTON WORLDWIDE CHANDLER","Address":"2929 W Frye Rd","City":"Chandler","State":"AZ","Zip":"85224"},{"Location":"HOSPICE OF THE VALLEY","Address":"1188 N Dobson Rd","City":"Chandler","State":"AZ","Zip":"85224"},{"Location":"HUFFS AUTOMOTIVE","Address":"95 N Dobson Rd B2","City":"Chandler","State":"AZ","Zip":"85224"},{"Location":"IGUANA MACKS","Address":"1371 N Alma School Rd","City":"Chandler","State":"AZ","Zip":"85224"},{"Location":"INHALE HOOKAH","Address":"1175 W Ray Rd 5","City":"Chandler","State":"AZ","Zip":"85224"},{"Location":"ISOLA","Address":"165 S Price Rd","City":"Chandler","State":"AZ","Zip":"85224"},{"Location":"JERSEY MIKES SUB   #9005","Address":"2780 W Chandler Blvd 3","City":"Chandler","State":"AZ","Zip":"85224"},{"Location":"JIFFY LUBE #2649","Address":"1075 W Parklane Blvd","City":"Chandler","State":"AZ","Zip":"85224"},{"Location":"JUAN JAIMES TACOS & TEQU","Address":"2510 W Chandler Blvd","City":"Chandler","State":"AZ","Zip":"85224"},{"Location":"KEITH MANAGEMENT","Address":"1835 W Chandler Blvd 100","City":"Chandler","State":"AZ","Zip":"85224"},{"Location":"KINGS OF KUTS","Address":"940 N Alma School Rd 110","City":"Chandler","State":"AZ","Zip":"85224"},{"Location":"LA FITNESS #117","Address":"2100 N Dobson Rd","City":"Chandler","State":"AZ","Zip":"85224"},{"Location":"MICROCHIP TECHNOLOGIES","Address":"2355 W Chandler Blvd","City":"Chandler","State":"AZ","Zip":"85224"},{"Location":"NATES THIRD BASE","Address":"1949 W Ray Rd 11","City":"Chandler","State":"AZ","Zip":"85224"},{"Location":"NEW HORIZONS WOMEN'S CARE #1","Address":"1950 W Frye Rd B","City":"Chandler","State":"AZ","Zip":"85224"},{"Location":"NEW HORIZONS WOMEN'S CARE #2","Address":"1950 W Frye Rd B","City":"Chandler","State":"AZ","Zip":"85224"},{"Location":"NEW YORK ARIZONA STYLES","Address":"1256 W Chandler Blvd 8","City":"Chandler","State":"AZ","Zip":"85224"},{"Location":"NEXTCARE URGENT CARE","Address":"600 S Dobson Rd C26","City":"Chandler","State":"AZ","Zip":"85224"},{"Location":"NORDSTROM RACK","Address":"2620 W Chandler Blvd","City":"Chandler","State":"AZ","Zip":"85224"},{"Location":"NYPD PIZZA CHANDLER","Address":"2580 W Chandler Blvd 1","City":"Chandler","State":"AZ","Zip":"85224"},{"Location":"OUTBACK STEAKHOUSE #0322","Address":"2520 W Chandler Blvd","City":"Chandler","State":"AZ","Zip":"85224"},{"Location":"PACIFIC DENTAL PDS 478","Address":"2875 W Ray Rd 16","City":"Chandler","State":"AZ","Zip":"85224"},{"Location":"PECOS NURSING & REHAB CENTER","Address":"1980 W Pecos Rd","City":"Chandler","State":"AZ","Zip":"85224"},{"Location":"PESTO'S PIZZA & CALZONE","Address":"1960 W Ray Rd 4","City":"Chandler","State":"AZ","Zip":"85224"},{"Location":"PETER PIPER PIZZA # 216","Address":"1880 W Chandler Blvd","City":"Chandler","State":"AZ","Zip":"85224"},{"Location":"PHO VAN","Address":"2095 N Dobson Rd","City":"Chandler","State":"AZ","Zip":"85224"},{"Location":"PHYSIO THERAPY ASSOCIATE","Address":"655 S Dobson Rd B111","City":"Chandler","State":"AZ","Zip":"85224"},{"Location":"PLATNUM PRINTING REPRO GRAPHIC","Address":"1940 W Chandler Blvd","City":"Chandler","State":"AZ","Zip":"85224"},{"Location":"PREMIER CARDIOVASCULAR CENTER","Address":"77 S Dobson Rd","City":"Chandler","State":"AZ","Zip":"85224"},{"Location":"PRIMARY CARE HOLDINGS","Address":"595 N Dobson Rd","City":"Chandler","State":"AZ","Zip":"85224"},{"Location":"Q B E INC","Address":"2700 W Frye Rd","City":"Chandler","State":"AZ","Zip":"85224"},{"Location":"SAFELITE","Address":"2080 W Chandler Blvd","City":"Chandler","State":"AZ","Zip":"85224"},{"Location":"SEKSUN SUSHI","Address":"1175 W Ray Rd","City":"Chandler","State":"AZ","Zip":"85224"},{"Location":"SI SENOR","Address":"600 N Alma School Rd","City":"Chandler","State":"AZ","Zip":"85224"},{"Location":"SIRONA INFUSION","Address":"460 S Benson Ln 12","City":"Chandler","State":"AZ","Zip":"85224"},{"Location":"SOZO COFFEE","Address":"1982 N Alma School Rd","City":"Chandler","State":"AZ","Zip":"85224"},{"Location":"SPORT CLIPS AZ115","Address":"2875 W Ray Rd 17","City":"Chandler","State":"AZ","Zip":"85224"},{"Location":"STADIUM CLUB","Address":"940 N Alma School Rd 109","City":"Chandler","State":"AZ","Zip":"85224"},{"Location":"TAURIAN BA%2C LLC #1128","Address":"2770 W Chandler Blvd","City":"Chandler","State":"AZ","Zip":"85224"},{"Location":"THE HUNGRY MONK","Address":"1760 W Chandler Blvd 2","City":"Chandler","State":"AZ","Zip":"85224"},{"Location":"THE YARD CIGAR BAR","Address":"1981 W Elliot Rd","City":"Chandler","State":"AZ","Zip":"85224"},{"Location":"TOKYO HOUSE","Address":"2050 N Alma School Rd Studi","City":"Chandler","State":"AZ","Zip":"85224"},{"Location":"VALLE LUNA MEXICAN RESTAURANT","Address":"1949 W Ray Rd","City":"Chandler","State":"AZ","Zip":"85224"},{"Location":"VILLA PALAVICINI","Address":"635 S Ellis St","City":"Chandler","State":"AZ","Zip":"85224"},{"Location":"VON HANSONS MEATS","Address":"2390 N Alma School Rd","City":"Chandler","State":"AZ","Zip":"85224"},{"Location":"WENDYS 2232","Address":"1175 W Chandler Blvd","City":"Chandler","State":"AZ","Zip":"85224"},{"Location":"WHOLE FOODS MARKET","Address":"2955 W Ray Rd","City":"Chandler","State":"AZ","Zip":"85224"}]