[{"Location":"18 DEGREE EXPRESS","Address":"7225 W Harrison St","City":"Chandler","State":"AZ","Zip":"85226"},{"Location":"9 PARTY NAILS","Address":"3875 W Ray Rd 14","City":"Chandler","State":"AZ","Zip":"85226"},{"Location":"ACHEN GARDNER CONSTRUCTION","Address":"550 S 79th St","City":"Chandler","State":"AZ","Zip":"85226"},{"Location":"ADESA PHOENIX","Address":"400 N Beck Ave","City":"Chandler","State":"AZ","Zip":"85226"},{"Location":"AIRWORX","Address":"4960 W Ray Rd","City":"Chandler","State":"AZ","Zip":"85226"},{"Location":"AMERICAS TACO SHOP","Address":"3235 W Ray Rd 1","City":"Chandler","State":"AZ","Zip":"85226"},{"Location":"AMF MCRAY PLAZA LANES","Address":"3828 W Ray Rd","City":"Chandler","State":"AZ","Zip":"85226"},{"Location":"ARBY'S #528%2FLOVE'S #328","Address":"7001 W Allison Rd","City":"Chandler","State":"AZ","Zip":"85226"},{"Location":"ARIZONA BANK & TRUST","Address":"1000 N 54th St","City":"Chandler","State":"AZ","Zip":"85226"},{"Location":"ARIZONA BANK AND TRUST","Address":"3471 W Frye Rd","City":"Chandler","State":"AZ","Zip":"85226"},{"Location":"ARIZONA NUTRITIONAL","Address":"6850 W Morelos Pl","City":"Chandler","State":"AZ","Zip":"85226"},{"Location":"ARIZONA NUTRITIONAL SUPPLEMENT","Address":"210 S Beck Ave","City":"Chandler","State":"AZ","Zip":"85226"},{"Location":"AUDIO EXPRESS AE22N","Address":"7200 W Chandler Blvd 10","City":"Chandler","State":"AZ","Zip":"85226"},{"Location":"AV AIR","Address":"33 S 56th St 2","City":"Chandler","State":"AZ","Zip":"85226"},{"Location":"AWT FIREARMS AND MFG","Address":"6532 W Flint St","City":"Chandler","State":"AZ","Zip":"85226"},{"Location":"BANNER HEALTH","Address":"7300 W Detroit St","City":"Chandler","State":"AZ","Zip":"85226"},{"Location":"BEEF O BRADYS2","Address":"6045 W Chandler Blvd 7","City":"Chandler","State":"AZ","Zip":"85226"},{"Location":"BENIHANA #1057 CHANDLER","Address":"3025 W Chandler Blvd","City":"Chandler","State":"AZ","Zip":"85226"},{"Location":"BIG LEAGUE DUGOUT 2","Address":"5865 W Ray Rd 7","City":"Chandler","State":"AZ","Zip":"85226"},{"Location":"BILTMORE LOAN & JEWELRY","Address":"670 N 54th St 2","City":"Chandler","State":"AZ","Zip":"85226"},{"Location":"BJS RESTAURANT #422","Address":"3155 W Chandler Blvd 1","City":"Chandler","State":"AZ","Zip":"85226"},{"Location":"BRUNSWICK #865 KYRENE","Address":"6225 W Chandler Blvd","City":"Chandler","State":"AZ","Zip":"85226"},{"Location":"BUCA DI BEPPO #302","Address":"7111 W Ray Rd","City":"Chandler","State":"AZ","Zip":"85226"},{"Location":"BUFFALO WILD WINGS #0247","Address":"3163 W Chandler Blvd V120","City":"Chandler","State":"AZ","Zip":"85226"},{"Location":"CALIFORNIA POOLS","Address":"4320 W Chandler Blvd","City":"Chandler","State":"AZ","Zip":"85226"},{"Location":"CANAM IMPORTS","Address":"6948 W Chadler Blv Siut1","City":"Chandler","State":"AZ","Zip":"85226"},{"Location":"CANT STOP SMOKIN BBQ","Address":"7250 W Chandler Blvd","City":"Chandler","State":"AZ","Zip":"85226"},{"Location":"CARRABBA'S ITALIAN GRILL #5303","Address":"1060 N 54th St","City":"Chandler","State":"AZ","Zip":"85226"},{"Location":"CHANDLER FAMILY","Address":"6245 W Chandler Blvd 4","City":"Chandler","State":"AZ","Zip":"85226"},{"Location":"CHANDLER HARLEY DAVIDSON","Address":"6895 W Chandler Blvd","City":"Chandler","State":"AZ","Zip":"85226"},{"Location":"CHANDLER WEST AUTO REPAI","Address":"6615 W Chandler Blvd 6","City":"Chandler","State":"AZ","Zip":"85226"},{"Location":"CHAPMAN BMW I-10","Address":"7455 W Orchid Ln","City":"Chandler","State":"AZ","Zip":"85226"},{"Location":"CHARLESTON'S CHANDLER","Address":"1040 N 54th St","City":"Chandler","State":"AZ","Zip":"85226"},{"Location":"CHILI'S #0879","Address":"3015 W Chandler Blvd","City":"Chandler","State":"AZ","Zip":"85226"},{"Location":"CHOMPIES-CHANDLER","Address":"3481 W Frye Rd","City":"Chandler","State":"AZ","Zip":"85226"},{"Location":"COMFORT INN (0011364)","Address":"7400 W Boston St","City":"Chandler","State":"AZ","Zip":"85226"},{"Location":"COMPASS BANK","Address":"3075 W Chandler Blvd","City":"Chandler","State":"AZ","Zip":"85226"},{"Location":"CORT FURNITURE RENTAL","Address":"Ray Rd","City":"Chandler","State":"AZ","Zip":"85226"},{"Location":"COURTLAND HOMES","Address":"4160 W Kitty Hawk","City":"Chandler","State":"AZ","Zip":"85226"},{"Location":"CROWN  CASTLE","Address":"5350 N 48th St 305","City":"Chandler","State":"AZ","Zip":"85226"},{"Location":"DBSI INC","Address":"6950 W Morelos Pl","City":"Chandler","State":"AZ","Zip":"85226"},{"Location":"DECORS OF ARIZONA PLC","Address":"5147 W Boston Way","City":"Chandler","State":"AZ","Zip":"85226"},{"Location":"DIRTY BLONDE TAVERN","Address":"4929 W Chandler Blvd","City":"Chandler","State":"AZ","Zip":"85226"},{"Location":"DUKES TAVERN LLC","Address":"4910 W Ray Rd","City":"Chandler","State":"AZ","Zip":"85226"},{"Location":"E-VAPOR ZONE","Address":"4939 W Ray Rd 20","City":"Chandler","State":"AZ","Zip":"85226"},{"Location":"EATON","Address":"560 N 54th St","City":"Chandler","State":"AZ","Zip":"85226"},{"Location":"EL RANCHERO MEXICAN GRIL","Address":"7200 W Chandler Blvd","City":"Chandler","State":"AZ","Zip":"85226"},{"Location":"ELEPHANT BAR CHANDLER","Address":"3405 W Chandler Blvd","City":"Chandler","State":"AZ","Zip":"85226"},{"Location":"ELITE SPORT FITNESS","Address":"4320 W Chandler Blvd 9","City":"Chandler","State":"AZ","Zip":"85226"},{"Location":"FAMOUS DAVES","Address":"3250 W Frye Rd","City":"Chandler","State":"AZ","Zip":"85226"},{"Location":"FAST AND FURIOUS MOTORSPORTS","Address":"4043 W Kitty Hawk","City":"Chandler","State":"AZ","Zip":"85226"},{"Location":"FIDELITY INVESTMENTS 227","Address":"7001 W Ray Rd","City":"Chandler","State":"AZ","Zip":"85226"},{"Location":"FINANCIAL CONCEPTS INC","Address":"3195 W Ray Rd 9","City":"Chandler","State":"AZ","Zip":"85226"},{"Location":"FIREBIRD ROCKY MOUNTAIN GRILL","Address":"3455 W Chandler Blvd","City":"Chandler","State":"AZ","Zip":"85226"},{"Location":"FIRED UP GRILL","Address":"7131 W Ray Rd 45","City":"Chandler","State":"AZ","Zip":"85226"},{"Location":"FIRESTONE #317134","Address":"6944 W Chandler Blvd","City":"Chandler","State":"AZ","Zip":"85226"},{"Location":"FIRST CUP DOBSON","Address":"1970 W Elliot Rd","City":"Chandler","State":"AZ","Zip":"85226"},{"Location":"FLEMING'S #1302","Address":"905 N 54th St","City":"Chandler","State":"AZ","Zip":"85226"},{"Location":"FOOD CONCEPTS INTERNATIONAL%2CLP","Address":"3440 W Chandler Blvd","City":"Chandler","State":"AZ","Zip":"85226"},{"Location":"FREIGHTLINER OF ARIZONA","Address":"1230 S Akimel Dr","City":"Chandler","State":"AZ","Zip":"85226"},{"Location":"FULLERS BAR AND GRILL 2","Address":"4929 W Ray Rd 2","City":"Chandler","State":"AZ","Zip":"85226"},{"Location":"FW ARIZONA FAST FOOD","Address":"4976 Premium Outlets Way 432","City":"Chandler","State":"AZ","Zip":"85226"},{"Location":"GEMSETTER & COMPANY","Address":"3305 W Chandler Blvd 7","City":"Chandler","State":"AZ","Zip":"85226"},{"Location":"GILA RIVER CASINO EAST","Address":"5550 W Wildhorse Pass Blvd","City":"Chandler","State":"AZ","Zip":"85226"},{"Location":"GILA RIVER CASINOS","Address":"1077 S Kyrene Rd","City":"Chandler","State":"AZ","Zip":"85226"},{"Location":"GILA RIVER EMS- 429","Address":"5002 N Maricopa Rd","City":"Chandler","State":"AZ","Zip":"85226"},{"Location":"GILA RIVER INDIAN COMMUNITY","Address":"6636 W Sundust Rd","City":"Chandler","State":"AZ","Zip":"85226"},{"Location":"GOLFSMITH #026","Address":"880 N 54th St","City":"Chandler","State":"AZ","Zip":"85226"},{"Location":"GRIC - OEM","Address":"1576 S Nelson Dr","City":"Chandler","State":"AZ","Zip":"85226"},{"Location":"GRIMALDIS","Address":"7131 N Ray Rd 23","City":"Chandler","State":"AZ","Zip":"85226"},{"Location":"HAMPTON INN (0053363)","Address":"7333 W Detroit St","City":"Chandler","State":"AZ","Zip":"85226"},{"Location":"HIGH MAINTAINANCE SMOKE","Address":"4980 W Ray Rd 13","City":"Chandler","State":"AZ","Zip":"85226"},{"Location":"HOB NOB SPORTS GRILL","Address":"7200 W Chandler Blvd 14","City":"Chandler","State":"AZ","Zip":"85226"},{"Location":"HOMEWOOD SUITES (0053362)","Address":"7373 W Detroit St","City":"Chandler","State":"AZ","Zip":"85226"},{"Location":"HURRICANE GRILL & WINGS","Address":"7450 W Chandler Blvd","City":"Chandler","State":"AZ","Zip":"85226"},{"Location":"HYATT PLACE FITNESS CTR","Address":"3535 W Chandler Blvd","City":"Chandler","State":"AZ","Zip":"85226"},{"Location":"I SUSHI","Address":"4939 W Ray Rd 2","City":"Chandler","State":"AZ","Zip":"85226"},{"Location":"INTEL","Address":"5000 W Chandler Blvd C2-2","City":"Chandler","State":"AZ","Zip":"85226"},{"Location":"INTEL  CH11","Address":"6505 6505 West Chandler Blvd","City":"Chandler","State":"AZ","Zip":"85226"},{"Location":"INTEL  CORP.","Address":"5000 W Chandler Blvd C7-4t","City":"Chandler","State":"AZ","Zip":"85226"},{"Location":"INTEL - CH8","Address":"5000 W Chandler Blvd","City":"Chandler","State":"AZ","Zip":"85226"},{"Location":"INTEL CORPORATION","Address":"5000 W Chandler Blvd","City":"Chandler","State":"AZ","Zip":"85226"},{"Location":"INTEL CORPORATION","Address":"5000 W Chandler Blvd C4","City":"Chandler","State":"AZ","Zip":"85226"},{"Location":"INTEL GYM OF THE FUTURE","Address":"5000 W Chandler Blvd","City":"Chandler","State":"AZ","Zip":"85226"},{"Location":"INVISION AUTO BODY","Address":"7021 W Oakland St","City":"Chandler","State":"AZ","Zip":"85226"},{"Location":"JASON'S DELI","Address":"7230 W Ray Rd","City":"Chandler","State":"AZ","Zip":"85226"},{"Location":"JASON'S DELI-PHC","Address":"3491 W Frye Rd 102","City":"Chandler","State":"AZ","Zip":"85226"},{"Location":"JEG-FIT AHWATUKEE","Address":"1020 N 54th St","City":"Chandler","State":"AZ","Zip":"85226"},{"Location":"JERSEY'S TAVERN & GRILL","Address":"5945 W Ray Rd 13","City":"Chandler","State":"AZ","Zip":"85226"},{"Location":"JIFFY LUBE #3327","Address":"7160 W Chandler Blvd","City":"Chandler","State":"AZ","Zip":"85226"},{"Location":"JIMMY & JOE'S PIZZRIA","Address":"3950 W Ray Rd","City":"Chandler","State":"AZ","Zip":"85226"},{"Location":"JUST SPORTS CHANDLER","Address":"3111 W Chandler Blvd","City":"Chandler","State":"AZ","Zip":"85226"},{"Location":"KONA GRILL #102","Address":"3111 W Chandler Blvd","City":"Chandler","State":"AZ","Zip":"85226"},{"Location":"KRN AVIATION SERVICES","Address":"450 N Mcclintock Dr 101","City":"Chandler","State":"AZ","Zip":"85226"},{"Location":"LEXUS OF CHANDLER","Address":"7430 W Orchard Lane","City":"Chandler","State":"AZ","Zip":"85226"},{"Location":"LITTLE HAVANNA CIGAR COMPANY","Address":"6125 W Chandler Blvd 7","City":"Chandler","State":"AZ","Zip":"85226"},{"Location":"LONE BUTTE CASINO","Address":"1200 S 56th St","City":"Chandler","State":"AZ","Zip":"85226"},{"Location":"LONE BUTTE TRADE CENTER","Address":"1188 S 56th St","City":"Chandler","State":"AZ","Zip":"85226"},{"Location":"LONE BUTTE TRADE CENTER 2","Address":"1280 S Kyrene Rd","City":"Chandler","State":"AZ","Zip":"85226"},{"Location":"LONGHORN STEAKHOUSE #5455","Address":"980 N 54th St","City":"Chandler","State":"AZ","Zip":"85226"},{"Location":"LUCKY LOU'S AMERICAN GRILL","Address":"3245 W Ray Rd 7","City":"Chandler","State":"AZ","Zip":"85226"},{"Location":"MACY'S WEST 453","Address":"3107 W Chandler Blvd","City":"Chandler","State":"AZ","Zip":"85226"},{"Location":"MACY'S WEST 453 BR","Address":"3107 W Chandler Blvd","City":"Chandler","State":"AZ","Zip":"85226"},{"Location":"MAJERLES SPORTS GRILL","Address":"3095 W Chandler Blvd","City":"Chandler","State":"AZ","Zip":"85226"},{"Location":"MEN'S WEARHOUSE #2512","Address":"3400 W Chandler Blvd 1","City":"Chandler","State":"AZ","Zip":"85226"},{"Location":"MIDO SUSHI","Address":"5965 W Ray Rd 18","City":"Chandler","State":"AZ","Zip":"85226"},{"Location":"NABERS MUSIC BAR & EATS","Address":"825 N 54th St","City":"Chandler","State":"AZ","Zip":"85226"},{"Location":"NAILS U LUV","Address":"4050 W Ray Rd 16","City":"Chandler","State":"AZ","Zip":"85226"},{"Location":"NEW HEIGHTS CHURCH","Address":"6150 W Chandler Blvd 7","City":"Chandler","State":"AZ","Zip":"85226"},{"Location":"NEWGAARD MECHANICAL","Address":"1 N Roosevelt Ave","City":"Chandler","State":"AZ","Zip":"85226"},{"Location":"NIKE INC","Address":"4976 Premium Outlet Way","City":"Chandler","State":"AZ","Zip":"85226"},{"Location":"NXP SEMICONDUCTORS","Address":"5670 W Chandler Blvd","City":"Chandler","State":"AZ","Zip":"85226"},{"Location":"OCEAN BLUE CARIBBEAN","Address":"6140 W Chandler Blvd 3","City":"Chandler","State":"AZ","Zip":"85226"},{"Location":"OLIVE GARDEN #1561","Address":"3430 W Chandler Blvd","City":"Chandler","State":"AZ","Zip":"85226"},{"Location":"OUTBACK STEAKHOUSE #0316","Address":"1080 N 54th St","City":"Chandler","State":"AZ","Zip":"85226"},{"Location":"PF CHANG'S #9800","Address":"3255 W Chandler Blvd","City":"Chandler","State":"AZ","Zip":"85226"},{"Location":"PINK POLISH MANI-PEDISPA","Address":"5055 W Ray Rd 15","City":"Chandler","State":"AZ","Zip":"85226"},{"Location":"PRYGOCKI","Address":"4910 W Ray Rd Suite","City":"Chandler","State":"AZ","Zip":"85226"},{"Location":"RAWHIDE AT WILD HORSE PASS","Address":"5700 W North Loop Rd","City":"Chandler","State":"AZ","Zip":"85226"},{"Location":"RAWLINGS SPORTING","Address":"4976 Premium Outlets Way 830","City":"Chandler","State":"AZ","Zip":"85226"},{"Location":"RED LOBSTER #6230","Address":"7240 W Ray Rd","City":"Chandler","State":"AZ","Zip":"85226"},{"Location":"RED ROBIN #84","Address":"3420 W Chandler Blvd","City":"Chandler","State":"AZ","Zip":"85226"},{"Location":"RED ROCK DENTAL LAB","Address":"1300 N Mcclintock Dr Se-14","City":"Chandler","State":"AZ","Zip":"85226"},{"Location":"REDLINE ATHLETICS","Address":"6150 W Chandler Blvd 17","City":"Chandler","State":"AZ","Zip":"85226"},{"Location":"ROLLING PLAINS CONST","Address":"5 S Roosevelt Ave","City":"Chandler","State":"AZ","Zip":"85226"},{"Location":"ROY'S RESTAURANT #2303","Address":"7151 W Ray Rd","City":"Chandler","State":"AZ","Zip":"85226"},{"Location":"SAFTETY KLEEN","Address":"6625 W Frye Rd","City":"Chandler","State":"AZ","Zip":"85226"},{"Location":"SAN TAN FORD","Address":"20000 S Maricopa Rd","City":"Chandler","State":"AZ","Zip":"85226"},{"Location":"SAN TAN PARK%2C LLC","Address":"3205 W Ray Rd 1","City":"Chandler","State":"AZ","Zip":"85226"},{"Location":"SAND BAR","Address":"7200 W Ray Rd","City":"Chandler","State":"AZ","Zip":"85226"},{"Location":"SCOTTRADE 02B","Address":"3245 W Ray Rd","City":"Chandler","State":"AZ","Zip":"85226"},{"Location":"SHARP DRYWALL INC","Address":"445 N Austin Dr","City":"Chandler","State":"AZ","Zip":"85226"},{"Location":"SHERATON WILD HORSE RESORT AND","Address":"5594 W Wildhorse Pass Blvd","City":"Chandler","State":"AZ","Zip":"85226"},{"Location":"SIR VEZAS","Address":"3111 W Chandler Blvd 2146","City":"Chandler","State":"AZ","Zip":"85226"},{"Location":"SOUTH BAY CIRCUITS INC","Address":"99 N Mckemy Ave","City":"Chandler","State":"AZ","Zip":"85226"},{"Location":"SOUTHWEST SERVICES","Address":"6150 W Chandler Blvd","City":"Chandler","State":"AZ","Zip":"85226"},{"Location":"SPICES MEDITERRANEAN KIT","Address":"4040 W Ray Rd","City":"Chandler","State":"AZ","Zip":"85226"},{"Location":"SPIRAL INC","Address":"6909 W Ray Rd 21","City":"Chandler","State":"AZ","Zip":"85226"},{"Location":"SPIRAL VOLLEYBALL","Address":"4144 W Saturn Way","City":"Chandler","State":"AZ","Zip":"85226"},{"Location":"SPORT CLIPS AZ105","Address":"800m N 54th St","City":"Chandler","State":"AZ","Zip":"85226"},{"Location":"SPORTS AUTHORITY 695","Address":"3455 W Frye Rd","City":"Chandler","State":"AZ","Zip":"85226"},{"Location":"SPORTS CUTTERS HAIR CARE","Address":"4929 W Chandler Blvd","City":"Chandler","State":"AZ","Zip":"85226"},{"Location":"STINGRAY SUSHI","Address":"900 N 54th St","City":"Chandler","State":"AZ","Zip":"85226"},{"Location":"SUN EAGLE CORPORATION","Address":"461 N Dean Ave","City":"Chandler","State":"AZ","Zip":"85226"},{"Location":"TEAKRAY","Address":"5965 W Ray Rd","City":"Chandler","State":"AZ","Zip":"85226"},{"Location":"THAI BASIL","Address":"4929 W Chandler Blvd","City":"Chandler","State":"AZ","Zip":"85226"},{"Location":"THAILICIOUS","Address":"5865 W Ray Rd 6","City":"Chandler","State":"AZ","Zip":"85226"},{"Location":"THE CHEESECAKE FACTORY 0049","Address":"3111 W Chandler Blvd 2100","City":"Chandler","State":"AZ","Zip":"85226"},{"Location":"THE KEG STEAKHOUSE & BAR CHAN","Address":"3065 W Chandler Blvd","City":"Chandler","State":"AZ","Zip":"85226"},{"Location":"THE MUTUAL FUND STORE","Address":"3355 W Chandler Blvd 2","City":"Chandler","State":"AZ","Zip":"85226"},{"Location":"THE OLD SPAGHETTI FACTORY","Address":"3155 W Chandler Blvd 9","City":"Chandler","State":"AZ","Zip":"85226"},{"Location":"TONSORIAL","Address":"3111 W Chandler Blvd 2176","City":"Chandler","State":"AZ","Zip":"85226"},{"Location":"TURBO RESOURCES INC","Address":"5780 W Oakland St","City":"Chandler","State":"AZ","Zip":"85226"},{"Location":"V'S BARBER SHOP","Address":"940 N 54th St 104","City":"Chandler","State":"AZ","Zip":"85226"},{"Location":"VEDANTAM","Address":"6919 W Ray Rd","City":"Chandler","State":"AZ","Zip":"85226"},{"Location":"VERIZON","Address":"7155 W Detroit St","City":"Chandler","State":"AZ","Zip":"85226"},{"Location":"VERIZON WIRELESS","Address":"6955 W Morelos Pl","City":"Chandler","State":"AZ","Zip":"85226"},{"Location":"WANGS DELIGHT CHINESE","Address":"3855 W Ray Rd 6","City":"Chandler","State":"AZ","Zip":"85226"},{"Location":"WELLNESS CENTER %40 VERIZON","Address":"6955 W Morelos Pl","City":"Chandler","State":"AZ","Zip":"85226"},{"Location":"WENDOMING","Address":"5939 W Chandler Blvd","City":"Chandler","State":"AZ","Zip":"85226"},{"Location":"WHICH WICH SUPERIOR SANDWICHES","Address":"3401 W Frye Rd 13","City":"Chandler","State":"AZ","Zip":"85226"},{"Location":"WHIRLWIND GOLF CLUB","Address":"5692 W North Loop Rd","City":"Chandler","State":"AZ","Zip":"85226"},{"Location":"WINGSTOP","Address":"5904 W Chandler Blvd","City":"Chandler","State":"AZ","Zip":"85226"},{"Location":"Z TEJAS","Address":"7221 W Ray Rd","City":"Chandler","State":"AZ","Zip":"85226"},{"Location":"ZIPPS SPORTS GRILL CHANDLER","Address":"3950 W Ray Rd 5","City":"Chandler","State":"AZ","Zip":"85226"},{"Location":"ZOYO NEIGHBORHOOD SHOP","Address":"5055 W Ray Rd","City":"Chandler","State":"AZ","Zip":"85226"}]