[{"Location":"ALEXON DESIGN GROUP","Address":"3323 E Baseline Rd","City":"Gilbert","State":"AZ","Zip":"85234"},{"Location":"AMERICAN LEGION","Address":"206 N Gilbert Rd","City":"Gilbert","State":"AZ","Zip":"85234"},{"Location":"ARIZONA SCHOOL OF REAL ESTATE","Address":"665 N Gilbert Rd","City":"Gilbert","State":"AZ","Zip":"85234"},{"Location":"AZTECH RADIOLOGY","Address":"4915 E Baseline Rd 116","City":"Gilbert","State":"AZ","Zip":"85234"},{"Location":"BBVA HIGLEY & BASELINE","Address":"5115 E Baseline Rd","City":"Gilbert","State":"AZ","Zip":"85234"},{"Location":"BIG LEAGUE DREAMS GILBERT","Address":"4536 E Elliot Rd","City":"Gilbert","State":"AZ","Zip":"85234"},{"Location":"BLUE LEMON","Address":"4341 E Baseline Rd 108","City":"Gilbert","State":"AZ","Zip":"85234"},{"Location":"BRUCE L HERR JR","Address":"875 N Greenfield Rd 114","City":"Gilbert","State":"AZ","Zip":"85234"},{"Location":"CANDANCE STUDIO","Address":"4024 E Guadalupe Rd 103","City":"Gilbert","State":"AZ","Zip":"85234"},{"Location":"CASANOVA BROTHERS PIZZA","Address":"929 N Val Vista Dr 101","City":"Gilbert","State":"AZ","Zip":"85234"},{"Location":"CHAMPIONS","Address":"211 N Gilbert Rd","City":"Gilbert","State":"AZ","Zip":"85234"},{"Location":"CIGNA HEALTHCARE","Address":"4001 E Baseline Rd 107","City":"Gilbert","State":"AZ","Zip":"85234"},{"Location":"COBBLESTONE AUTO SPA 12","Address":"1536 N Val Vista Dr","City":"Gilbert","State":"AZ","Zip":"85234"},{"Location":"CRABBY DON'S","Address":"3861 E Baseline Rd","City":"Gilbert","State":"AZ","Zip":"85234"},{"Location":"CSL PLASMA","Address":"711 N Gilbert Rd","City":"Gilbert","State":"AZ","Zip":"85234"},{"Location":"DANIEL MONTEZ REAL ESTAT","Address":"33 N Lindsay Rd","City":"Gilbert","State":"AZ","Zip":"85234"},{"Location":"DAVITA #1937 GILBERT","Address":"5222 E Baseline Rd 104","City":"Gilbert","State":"AZ","Zip":"85234"},{"Location":"DBS SPORTS GRILL","Address":"1686 N Higley Rd","City":"Gilbert","State":"AZ","Zip":"85234"},{"Location":"DESERT TITLE","Address":"2915 E Baseline Rd 122","City":"Gilbert","State":"AZ","Zip":"85234"},{"Location":"EDWARDS JONES","Address":"1515 N Gilbert Rd 107","City":"Gilbert","State":"AZ","Zip":"85234"},{"Location":"EMBELISH NAIL  SPA","Address":"3244 E Gutelupe Rd","City":"Gilbert","State":"AZ","Zip":"85234"},{"Location":"EPN - MARK ROLLS","Address":"3303 E Baseline Rd 114","City":"Gilbert","State":"AZ","Zip":"85234"},{"Location":"FIRESTONE #289566","Address":"70 E Guadalupe Rd","City":"Gilbert","State":"AZ","Zip":"85234"},{"Location":"FIRST INTL  BANK","Address":"1628 N Higley Rd","City":"Gilbert","State":"AZ","Zip":"85234"},{"Location":"FLAIR SALON","Address":"1140 N Gilbert Rd 101","City":"Gilbert","State":"AZ","Zip":"85234"},{"Location":"FLANCER'S CAFE","Address":"610 N Gilbert Rd","City":"Gilbert","State":"AZ","Zip":"85234"},{"Location":"FLORENTINOS","Address":"50 E Guadalupe Rd 107","City":"Gilbert","State":"AZ","Zip":"85234"},{"Location":"FMC 62300000","Address":"1525 N Gilbert Rd 121","City":"Gilbert","State":"AZ","Zip":"85234"},{"Location":"GECKO GRILL","Address":"4341 E Baseline Rd","City":"Gilbert","State":"AZ","Zip":"85234"},{"Location":"GENOS GIANT SLICE","Address":"1458 N Higley Rd 101","City":"Gilbert","State":"AZ","Zip":"85234"},{"Location":"GILBERT COSMETIC","Address":"3611 E Baseline Rd 104","City":"Gilbert","State":"AZ","Zip":"85234"},{"Location":"GILBERT DOGS LLC","Address":"868 N Gilbert Rd","City":"Gilbert","State":"AZ","Zip":"85234"},{"Location":"GILBERT URGENT CARE","Address":"1501 N Gilbert Rd","City":"Gilbert","State":"AZ","Zip":"85234"},{"Location":"HUMBERTO'S MEXICAN FOOD LLC","Address":"53 N Val Vista Dr 101","City":"Gilbert","State":"AZ","Zip":"85234"},{"Location":"JESTERS BILLIARDS","Address":"1515 N Gilbert Rd 115","City":"Gilbert","State":"AZ","Zip":"85234"},{"Location":"JIFFY LUBE #1662","Address":"459 N Gilbert Rd","City":"Gilbert","State":"AZ","Zip":"85234"},{"Location":"JIFFY LUBE #1729","Address":"3345 E Baseline Rd","City":"Gilbert","State":"AZ","Zip":"85234"},{"Location":"JOEY SMOKE SHOP","Address":"1111 N Gilbert Rd 110","City":"Gilbert","State":"AZ","Zip":"85234"},{"Location":"JOHNSON AND LARSEN DENTAL","Address":"726 N Greenfield Rd 126","City":"Gilbert","State":"AZ","Zip":"85234"},{"Location":"JOYRIDE TACO HOUSE","Address":"302 N Gilbert Rd 101","City":"Gilbert","State":"AZ","Zip":"85234"},{"Location":"KNOCKOUT FITNESS","Address":"1551 E Elliot Rd","City":"Gilbert","State":"AZ","Zip":"85234"},{"Location":"LOLOS","Address":"366 N Gilbert Rd 101","City":"Gilbert","State":"AZ","Zip":"85234"},{"Location":"MASA SUSHI","Address":"865 N Gilbert Rd","City":"Gilbert","State":"AZ","Zip":"85234"},{"Location":"MCDONALDS","Address":"821 N Val Vista Dr","City":"Gilbert","State":"AZ","Zip":"85234"},{"Location":"MCNUTT ENTERPRISES LLC","Address":"1436 N Higley Rd","City":"Gilbert","State":"AZ","Zip":"85234"},{"Location":"MERIDIAN  BANK","Address":"845 N Gilbert Rd","City":"Gilbert","State":"AZ","Zip":"85234"},{"Location":"NANDOS MEXICAN BASELINE","Address":"3519 E Baseline Rd","City":"Gilbert","State":"AZ","Zip":"85234"},{"Location":"NORWOOD FURNITURE","Address":"216 N Gilbert Rd","City":"Gilbert","State":"AZ","Zip":"85234"},{"Location":"POWER MMA FITNESS","Address":"855 N Gilbert Rd","City":"Gilbert","State":"AZ","Zip":"85234"},{"Location":"PRIMA PIZZA","Address":"3611 E Baseline Rd P102","City":"Gilbert","State":"AZ","Zip":"85234"},{"Location":"PRIMARY CARE HOLINGS","Address":"3331 E Baseline Rd","City":"Gilbert","State":"AZ","Zip":"85234"},{"Location":"RIO RICO MEXICAN GRILL LLC","Address":"747 N Val Vista Dr 110","City":"Gilbert","State":"AZ","Zip":"85234"},{"Location":"SAFEWAY 1748A","Address":"5137 E Baseline Rd","City":"Gilbert","State":"AZ","Zip":"85234"},{"Location":"SERRANO'S MEXICAN RESTAURANT","Address":"959 N Valdista Dr","City":"Gilbert","State":"AZ","Zip":"85234"},{"Location":"STARBOARD FINANCIAL","Address":"4145 E Baseline Rd","City":"Gilbert","State":"AZ","Zip":"85234"},{"Location":"STRETCH INTERNET LLC","Address":"726 N Greenfield Rd 121","City":"Gilbert","State":"AZ","Zip":"85234"},{"Location":"TACOS","Address":"219 N Gilbert Rd","City":"Gilbert","State":"AZ","Zip":"85234"},{"Location":"TERRYS WASH N CLEAN","Address":"1111 N Gilbert Rd 118","City":"Gilbert","State":"AZ","Zip":"85234"},{"Location":"WATERSTONE MORTGAGE","Address":"3489 E Baseline Rd","City":"Gilbert","State":"AZ","Zip":"85234"},{"Location":"WENDYS 2087","Address":"2125 E Baseline Rd","City":"Gilbert","State":"AZ","Zip":"85234"},{"Location":"ZINBURGER-GILBERT","Address":"344 N Gilbert Rd","City":"Gilbert","State":"AZ","Zip":"85234"},{"Location":"ALEXON DESIGN GROUP","Address":"3323 E Baseline Rd","City":"Gilbert","State":"AZ","Zip":"85234"},{"Location":"AMERICAN LEGION","Address":"206 N Gilbert Rd","City":"Gilbert","State":"AZ","Zip":"85234"},{"Location":"ARIZONA SCHOOL OF REAL ESTATE","Address":"665 N Gilbert Rd","City":"Gilbert","State":"AZ","Zip":"85234"},{"Location":"AZTECH RADIOLOGY","Address":"4915 E Baseline Rd 116","City":"Gilbert","State":"AZ","Zip":"85234"},{"Location":"BBVA HIGLEY & BASELINE","Address":"5115 E Baseline Rd","City":"Gilbert","State":"AZ","Zip":"85234"},{"Location":"BIG LEAGUE DREAMS GILBERT","Address":"4536 E Elliot Rd","City":"Gilbert","State":"AZ","Zip":"85234"},{"Location":"BLUE LEMON","Address":"4341 E Baseline Rd 108","City":"Gilbert","State":"AZ","Zip":"85234"},{"Location":"BRUCE L HERR JR","Address":"875 N Greenfield Rd 114","City":"Gilbert","State":"AZ","Zip":"85234"},{"Location":"CANDANCE STUDIO","Address":"4024 E Guadalupe Rd 103","City":"Gilbert","State":"AZ","Zip":"85234"},{"Location":"CASANOVA BROTHERS PIZZA","Address":"929 N Val Vista Dr 101","City":"Gilbert","State":"AZ","Zip":"85234"},{"Location":"CHAMPIONS","Address":"211 N Gilbert Rd","City":"Gilbert","State":"AZ","Zip":"85234"},{"Location":"CIGNA HEALTHCARE","Address":"4001 E Baseline Rd 107","City":"Gilbert","State":"AZ","Zip":"85234"},{"Location":"COBBLESTONE AUTO SPA 12","Address":"1536 N Val Vista Dr","City":"Gilbert","State":"AZ","Zip":"85234"},{"Location":"CRABBY DON'S","Address":"3861 E Baseline Rd","City":"Gilbert","State":"AZ","Zip":"85234"},{"Location":"CSL PLASMA","Address":"711 N Gilbert Rd","City":"Gilbert","State":"AZ","Zip":"85234"},{"Location":"DANIEL MONTEZ REAL ESTAT","Address":"33 N Lindsay Rd","City":"Gilbert","State":"AZ","Zip":"85234"},{"Location":"DARLING DONUTS","Address":"1515 N Gilbert Rd 105","City":"Gilbert","State":"AZ","Zip":"85234"},{"Location":"DAVITA #1937 GILBERT","Address":"5222 E Baseline Rd 104","City":"Gilbert","State":"AZ","Zip":"85234"},{"Location":"DBS SPORTS GRILL","Address":"1686 N Higley Rd","City":"Gilbert","State":"AZ","Zip":"85234"},{"Location":"DESERT TITLE","Address":"2915 E Baseline Rd 122","City":"Gilbert","State":"AZ","Zip":"85234"},{"Location":"EDWARDS JONES","Address":"1515 N Gilbert Rd 107","City":"Gilbert","State":"AZ","Zip":"85234"},{"Location":"EMBELISH NAIL  SPA","Address":"3244 E Gutelupe Rd","City":"Gilbert","State":"AZ","Zip":"85234"},{"Location":"EPN - MARK ROLLS","Address":"3303 E Baseline Rd 114","City":"Gilbert","State":"AZ","Zip":"85234"},{"Location":"FIRESTONE #289566","Address":"70 E Guadalupe Rd","City":"Gilbert","State":"AZ","Zip":"85234"},{"Location":"FIRST INTL  BANK","Address":"1628 N Higley Rd","City":"Gilbert","State":"AZ","Zip":"85234"},{"Location":"FLAIR SALON","Address":"1140 N Gilbert Rd 101","City":"Gilbert","State":"AZ","Zip":"85234"},{"Location":"FLANCER'S CAFE","Address":"610 N Gilbert Rd","City":"Gilbert","State":"AZ","Zip":"85234"},{"Location":"FLORENTINOS","Address":"50 E Guadalupe Rd 107","City":"Gilbert","State":"AZ","Zip":"85234"},{"Location":"FMC 62300000","Address":"1525 N Gilbert Rd 121","City":"Gilbert","State":"AZ","Zip":"85234"},{"Location":"GECKO GRILL","Address":"4341 E Baseline Rd","City":"Gilbert","State":"AZ","Zip":"85234"},{"Location":"GENOS GIANT SLICE","Address":"1458 N Higley Rd 101","City":"Gilbert","State":"AZ","Zip":"85234"},{"Location":"GILBERT COSMETIC","Address":"3611 E Baseline Rd 104","City":"Gilbert","State":"AZ","Zip":"85234"},{"Location":"GILBERT DOGS LLC","Address":"868 N Gilbert Rd","City":"Gilbert","State":"AZ","Zip":"85234"},{"Location":"GILBERT URGENT CARE","Address":"1501 N Gilbert Rd","City":"Gilbert","State":"AZ","Zip":"85234"},{"Location":"HUMBERTO'S MEXICAN FOOD LLC","Address":"53 N Val Vista Dr 101","City":"Gilbert","State":"AZ","Zip":"85234"},{"Location":"JESTERS BILLIARDS","Address":"1515 N Gilbert Rd 115","City":"Gilbert","State":"AZ","Zip":"85234"},{"Location":"JIFFY LUBE #1662","Address":"459 N Gilbert Rd","City":"Gilbert","State":"AZ","Zip":"85234"},{"Location":"JIFFY LUBE #1729","Address":"3345 E Baseline Rd","City":"Gilbert","State":"AZ","Zip":"85234"},{"Location":"JOEY SMOKE SHOP","Address":"1111 N Gilbert Rd 110","City":"Gilbert","State":"AZ","Zip":"85234"},{"Location":"JOHNSON AND LARSEN DENTAL","Address":"726 N Greenfield Rd 126","City":"Gilbert","State":"AZ","Zip":"85234"},{"Location":"JOYRIDE TACO HOUSE","Address":"302 N Gilbert Rd 101","City":"Gilbert","State":"AZ","Zip":"85234"},{"Location":"KNOCKOUT FITNESS","Address":"1551 E Elliot Rd","City":"Gilbert","State":"AZ","Zip":"85234"},{"Location":"LOLOS","Address":"366 N Gilbert Rd 101","City":"Gilbert","State":"AZ","Zip":"85234"},{"Location":"MASA SUSHI","Address":"865 N Gilbert Rd","City":"Gilbert","State":"AZ","Zip":"85234"},{"Location":"MCDONALDS","Address":"821 N Val Vista Dr","City":"Gilbert","State":"AZ","Zip":"85234"},{"Location":"MCNUTT ENTERPRISES LLC","Address":"1436 N Higley Rd","City":"Gilbert","State":"AZ","Zip":"85234"},{"Location":"MERIDIAN  BANK","Address":"845 N Gilbert Rd","City":"Gilbert","State":"AZ","Zip":"85234"},{"Location":"NANDOS MEXICAN BASELINE","Address":"3519 E Baseline Rd","City":"Gilbert","State":"AZ","Zip":"85234"},{"Location":"NORWOOD FURNITURE","Address":"216 N Gilbert Rd","City":"Gilbert","State":"AZ","Zip":"85234"},{"Location":"POWER MMA FITNESS","Address":"855 N Gilbert Rd","City":"Gilbert","State":"AZ","Zip":"85234"},{"Location":"PRIMA PIZZA","Address":"3611 E Baseline Rd P102","City":"Gilbert","State":"AZ","Zip":"85234"},{"Location":"PRIMARY CARE HOLINGS","Address":"3331 E Baseline Rd","City":"Gilbert","State":"AZ","Zip":"85234"},{"Location":"RIO RICO MEXICAN GRILL LLC","Address":"747 N Val Vista Dr 110","City":"Gilbert","State":"AZ","Zip":"85234"},{"Location":"SAFEWAY 1748A","Address":"5137 E Baseline Rd","City":"Gilbert","State":"AZ","Zip":"85234"},{"Location":"SERRANO'S MEXICAN RESTAURANT","Address":"959 N Valdista Dr","City":"Gilbert","State":"AZ","Zip":"85234"},{"Location":"STARBOARD FINANCIAL","Address":"4145 E Baseline Rd","City":"Gilbert","State":"AZ","Zip":"85234"},{"Location":"STRETCH INTERNET LLC","Address":"726 N Greenfield Rd 121","City":"Gilbert","State":"AZ","Zip":"85234"},{"Location":"TACOS","Address":"219 N Gilbert Rd","City":"Gilbert","State":"AZ","Zip":"85234"},{"Location":"TERRYS WASH N CLEAN","Address":"1111 N Gilbert Rd 118","City":"Gilbert","State":"AZ","Zip":"85234"},{"Location":"WATERSTONE MORTGAGE","Address":"3489 E Baseline Rd","City":"Gilbert","State":"AZ","Zip":"85234"},{"Location":"WENDYS 2087","Address":"2125 E Baseline Rd","City":"Gilbert","State":"AZ","Zip":"85234"},{"Location":"ZINBURGER-GILBERT","Address":"344 N Gilbert Rd","City":"Gilbert","State":"AZ","Zip":"85234"}]