[{"Location":"AIR GUNS OF AZ","Address":"1970 W Elliot Rd 109","City":"Gilbert","State":"AZ","Zip":"85233"},{"Location":"AMERICAN AUTO LUBE","Address":"797 W Guadalupe Rd","City":"Gilbert","State":"AZ","Zip":"85233"},{"Location":"ARIZIONA WILDERNESS BREWING","Address":"721 N Arizona Ave 103","City":"Gilbert","State":"AZ","Zip":"85233"},{"Location":"ARIZONA PRIORITY CARE PL","Address":"706 N Mcqueen Rd 109","City":"Gilbert","State":"AZ","Zip":"85233"},{"Location":"ARIZONA STATE CREDIT UNION #6","Address":"2277 W Guadalupe Rd","City":"Gilbert","State":"AZ","Zip":"85233"},{"Location":"AUTOMOTIVE PERFOMANCE","Address":"1025 N Mcqueen Rd","City":"Gilbert","State":"AZ","Zip":"85233"},{"Location":"BARROS PIZZA","Address":"1939 E Baseline Rd","City":"Gilbert","State":"AZ","Zip":"85233"},{"Location":"BATTLE FOAM LLC","Address":"240 N Sunway Dr","City":"Gilbert","State":"AZ","Zip":"85233"},{"Location":"BBVA BASELINE & COOPER","Address":"1085 E Baseline Rd","City":"Gilbert","State":"AZ","Zip":"85233"},{"Location":"BENSON SYSTEMS","Address":"2065 W Obispo Ave 101","City":"Gilbert","State":"AZ","Zip":"85233"},{"Location":"BERGE MAZDA","Address":"385 W Baseline Rd","City":"Gilbert","State":"AZ","Zip":"85233"},{"Location":"BERGE VOLKSWAGEN","Address":"385 West Baseline Rd","City":"Gilbert","State":"AZ","Zip":"85233"},{"Location":"BUSINESS PROS COLLISION","Address":"1508 W Scott Ave","City":"Gilbert","State":"AZ","Zip":"85233"},{"Location":"CALIBER COLLISION GILBER","Address":"876 N Abalone Dr","City":"Gilbert","State":"AZ","Zip":"85233"},{"Location":"CANYON TAXI","Address":"510 S Bay Shore Blvd","City":"Gilbert","State":"AZ","Zip":"85233"},{"Location":"CANYON TAXI","Address":"1225 W Cove Dr","City":"Gilbert","State":"AZ","Zip":"85233"},{"Location":"CIRC STLLER","Address":"1478 N Tech Blvd","City":"Gilbert","State":"AZ","Zip":"85233"},{"Location":"CRAWFORD MECHANICAL SERV LLC","Address":"408 S Hamilton Ct","City":"Gilbert","State":"AZ","Zip":"85233"},{"Location":"CUISINE AND WINE BISTRO","Address":"1422 W Warner Rd","City":"Gilbert","State":"AZ","Zip":"85233"},{"Location":"DAVES HOMEMADE FURNITURE","Address":"660 N Neely St 2","City":"Gilbert","State":"AZ","Zip":"85233"},{"Location":"DELFI COMMUNICATIONS","Address":"278 S Hamilton Pl","City":"Gilbert","State":"AZ","Zip":"85233"},{"Location":"DESERT CAR CARE","Address":"1655 W Guadalupe Rd 101","City":"Gilbert","State":"AZ","Zip":"85233"},{"Location":"FAMOUS SAM'S #23","Address":"720 W Ray Rd","City":"Gilbert","State":"AZ","Zip":"85233"},{"Location":"FIERRO SPORT TRAINER ACCELERAT","Address":"690 S Cooper Rd 101","City":"Gilbert","State":"AZ","Zip":"85233"},{"Location":"FIRSTIMPRESSIONSECURITYDOORS","Address":"1250 W Boxwood Ave","City":"Gilbert","State":"AZ","Zip":"85233"},{"Location":"GENOS PIZZA AND CHEESEST","Address":"734 N Mcqueen Rd 101","City":"Gilbert","State":"AZ","Zip":"85233"},{"Location":"GOODYEAR 8236","Address":"680 W Ray Rd","City":"Gilbert","State":"AZ","Zip":"85233"},{"Location":"HORNE KIA","Address":"1025 N Arizona Ave","City":"Gilbert","State":"AZ","Zip":"85233"},{"Location":"HOUSE OF BREWS","Address":"825 S Cooper Rd B5","City":"Gilbert","State":"AZ","Zip":"85233"},{"Location":"HOUSE OF CIGARS","Address":"833 N Cooper Rd 106","City":"Gilbert","State":"AZ","Zip":"85233"},{"Location":"INVICTUS RECORDS 1","Address":"463 S Hamilton Ct","City":"Gilbert","State":"AZ","Zip":"85233"},{"Location":"INVICTUS RECORDS 2","Address":"463 S Hamilton Ct","City":"Gilbert","State":"AZ","Zip":"85233"},{"Location":"ISS GILBERT","Address":"2299 W Obispo Ave","City":"Gilbert","State":"AZ","Zip":"85233"},{"Location":"J&M COMMERCIAL LLC","Address":"1520 W Guadalupe Rd 101","City":"Gilbert","State":"AZ","Zip":"85233"},{"Location":"JASON'S DELI PUB","Address":"1065 E Baseline Rd 101","City":"Gilbert","State":"AZ","Zip":"85233"},{"Location":"JERSEY MIKES SUBS 9011","Address":"891 E Baseline Rd","City":"Gilbert","State":"AZ","Zip":"85233"},{"Location":"JIFFY LUBE #2679","Address":"670 W Ray Rd","City":"Gilbert","State":"AZ","Zip":"85233"},{"Location":"JTR INDUSTRIES","Address":"64 S Hamilton Pl","City":"Gilbert","State":"AZ","Zip":"85233"},{"Location":"MCDONALD'S","Address":"1945 E Baseline Rd","City":"Gilbert","State":"AZ","Zip":"85233"},{"Location":"MEN'S ULTIMATE GROOMING","Address":"734 N Mcqueen Rd 103","City":"Gilbert","State":"AZ","Zip":"85233"},{"Location":"MESQUITE GRILL","Address":"75 W Baseline Rd 12","City":"Gilbert","State":"AZ","Zip":"85233"},{"Location":"MONTERREY TILE COMPANY","Address":"225 W Baseline Rd","City":"Gilbert","State":"AZ","Zip":"85233"},{"Location":"ON Q FINANCIAL%2FPHOENIX","Address":"890 W Elliot Rd 109","City":"Gilbert","State":"AZ","Zip":"85233"},{"Location":"ORBITAL","Address":"1405 N Fiesta Blvd","City":"Gilbert","State":"AZ","Zip":"85233"},{"Location":"PAPA JOHN","Address":"2075 W Obispo Ave 101","City":"Gilbert","State":"AZ","Zip":"85233"},{"Location":"PARADISE VAPE LOUNGE","Address":"825 S Cooper Rd B7","City":"Gilbert","State":"AZ","Zip":"85233"},{"Location":"PINNACLE CONSULTING","Address":"1426 N Marvin St 101","City":"Gilbert","State":"AZ","Zip":"85233"},{"Location":"PRESIDENTIAL POOLS","Address":"525 E Baseline Rd","City":"Gilbert","State":"AZ","Zip":"85233"},{"Location":"READY AUTO TRANSPORT","Address":"1030 N Colorado St","City":"Gilbert","State":"AZ","Zip":"85233"},{"Location":"RIGID INDUSTRIES","Address":"779 N Colorado St","City":"Gilbert","State":"AZ","Zip":"85233"},{"Location":"SIDEWINDER SUBS","Address":"1455 W Elliot Rd","City":"Gilbert","State":"AZ","Zip":"85233"},{"Location":"SYNERGY","Address":"1757 E Baseline Rd 122","City":"Gilbert","State":"AZ","Zip":"85233"},{"Location":"TRINTY PRODUCTIONS","Address":"130 N Sunway Dr 2","City":"Gilbert","State":"AZ","Zip":"85233"},{"Location":"VENEZIAS PIZZA","Address":"744 W Ray Rd 101","City":"Gilbert","State":"AZ","Zip":"85233"},{"Location":"VIASAT ADVANCED MICROWAVE","Address":"1388 N Tech Blvd 1","City":"Gilbert","State":"AZ","Zip":"85233"},{"Location":"VILLA SIENA","Address":"890 W Elliot Rd","City":"Gilbert","State":"AZ","Zip":"85233"},{"Location":"WOK UP","Address":"1275 E Baseline Rd 106","City":"Gilbert","State":"AZ","Zip":"85233"},{"Location":"YOU FIT ETHAN","Address":"706 N Mcqueen Rd","City":"Gilbert","State":"AZ","Zip":"85233"}]