[{"Location":"GIA RIVER HEALTH CARE CORP #2","Address":"483 West Seed Farm Road","City":"Sacaton","State":"AZ","Zip":"85247"},{"Location":"GILA RIVER EMS","Address":"850 West Seedfarm Road","City":"Sacaton","State":"AZ","Zip":"85247"},{"Location":"GILA RIVER HEALTH CARE  # 3","Address":"483 West Seed Farm Road","City":"Sacaton","State":"AZ","Zip":"85247"},{"Location":"GILA RIVER HEALTH CARE CORP","Address":"483 West Seed Farm Rd","City":"Sacaton","State":"AZ","Zip":"85247"},{"Location":"GILA RIVER INDIAN COMM","Address":"94 N Church St","City":"Sacaton","State":"AZ","Zip":"85247"},{"Location":"INDIAN HEALTH SERVICE DESERT","Address":"198 S Skill Center Rd","City":"Sacaton","State":"AZ","Zip":"85247"},{"Location":"GILA RIVER EMS","Address":"119a N Sacaton Rd","City":"Scacton","State":"AZ","Zip":"85247"},{"Location":"GIA RIVER HEALTH CARE CORP #2","Address":"483 West Seed Farm Road","City":"Sacaton","State":"AZ","Zip":"85247"},{"Location":"GILA RIVER EMS","Address":"850 West Seedfarm Road","City":"Sacaton","State":"AZ","Zip":"85247"},{"Location":"GILA RIVER HEALTH CARE  # 3","Address":"483 West Seed Farm Road","City":"Sacaton","State":"AZ","Zip":"85247"},{"Location":"GILA RIVER HEALTH CARE CORP","Address":"483 West Seed Farm Rd","City":"Sacaton","State":"AZ","Zip":"85247"},{"Location":"GILA RIVER INDIAN COMM","Address":"94 N Church St","City":"Sacaton","State":"AZ","Zip":"85247"},{"Location":"INDIAN HEALTH SERVICE DESERT","Address":"198 S Skill Center Rd","City":"Sacaton","State":"AZ","Zip":"85247"},{"Location":"GILA RIVER EMS","Address":"119a N Sacaton Rd","City":"Scacton","State":"AZ","Zip":"85247"}]