[{"Location":"ASPEN ORTHODONTICS","Address":"3980 E Riggs Rd","City":"Chandler","State":"AZ","Zip":"85249"},{"Location":"BARROS PIZZA -RIGGS RD","Address":"950 E Riggs Rd 11","City":"Chandler","State":"AZ","Zip":"85249"},{"Location":"BEAR CREEK GOLF COURSE","Address":"500 E Riggs Rd","City":"Chandler","State":"AZ","Zip":"85249"},{"Location":"CHANDLER OCOTILLO","Address":"291 E Ocotillo Rd","City":"Chandler","State":"AZ","Zip":"85249"},{"Location":"CHENS CHINESE BISTRO","Address":"990 E Riggs Rd","City":"Chandler","State":"AZ","Zip":"85249"},{"Location":"CREOLE CAJUN BISTRO","Address":"5070 S Gilbert Rd 400","City":"Chandler","State":"AZ","Zip":"85249"},{"Location":"ELITE MARKETING CONCEPTS","Address":"3950 E Riggs Rd 3","City":"Chandler","State":"AZ","Zip":"85249"},{"Location":"FAT WILLYS GILBERT","Address":"4850 S Gilbert Rd 4","City":"Chandler","State":"AZ","Zip":"85249"},{"Location":"IMPRESSION DENTAL","Address":"5970 S Cooper Rd 1","City":"Chandler","State":"AZ","Zip":"85249"},{"Location":"LA CASA BLANCA RESTAURANT","Address":"24605 S Mcqueen Rd","City":"Chandler","State":"AZ","Zip":"85249"},{"Location":"OLIVE GARDEN #1747","Address":"2930 E. Garden Road","City":"Chandler","State":"AZ","Zip":"85249"},{"Location":"ORANGE THEORY FITNESS","Address":"4850 S Gilbert Rd 7","City":"Chandler","State":"AZ","Zip":"85249"},{"Location":"RUSH STREET","Address":"2925 E Riggs Rd 7","City":"Chandler","State":"AZ","Zip":"85249"},{"Location":"SMILES ON RIGGS","Address":"975 E Riggs Rd 8","City":"Chandler","State":"AZ","Zip":"85249"},{"Location":"SNAP FITNESS #1154","Address":"990 E Riggs Rd 4","City":"Chandler","State":"AZ","Zip":"85249"},{"Location":"TONY SACCOS CHANDLER","Address":"4960 S Gilbert Rd 10","City":"Chandler","State":"AZ","Zip":"85249"}]