[{"Location":"AMALFI","Address":"4991 S Alma School Rd 12","City":"Chandler","State":"AZ","Zip":"85248"},{"Location":"BASHAS' INC","Address":"22402 S Basha Rd","City":"Chandler","State":"AZ","Zip":"85248"},{"Location":"BUTCHER BLOCK MEATS LLC","Address":"4015 S Arizona Ave 11","City":"Chandler","State":"AZ","Zip":"85248"},{"Location":"CORK","Address":"4991 S Alma School Rd 101","City":"Chandler","State":"AZ","Zip":"85248"},{"Location":"CYPRUS GRILL","Address":"1065 W Queen Creek Rd Ste 2","City":"Chandler","State":"AZ","Zip":"85248"},{"Location":"D'VINE BESTRO","Address":"3990 S Alma School Rd 3","City":"Chandler","State":"AZ","Zip":"85248"},{"Location":"DESERT VALLEY URGENT CARE","Address":"250 W Chandler Heights Rd","City":"Chandler","State":"AZ","Zip":"85248"},{"Location":"FIESTA MEXICANA 13","Address":"4949 S Alma School Rd","City":"Chandler","State":"AZ","Zip":"85248"},{"Location":"FIREHOUSE SUBS 982","Address":"3731 S Arizona Ave 5","City":"Chandler","State":"AZ","Zip":"85248"},{"Location":"GARCIA'S #1115","Address":"4210 S Arizona Ave","City":"Chandler","State":"AZ","Zip":"85248"},{"Location":"GOLD CANYON CANDLE CO","Address":"6205 S Arizona Ave","City":"Chandler","State":"AZ","Zip":"85248"},{"Location":"INTEL - OC2","Address":"4500 S Dobson Rd Oc2","City":"Chandler","State":"AZ","Zip":"85248"},{"Location":"INTEL 0C8 - 3RD FL","Address":"4500 S Dobson Rd 3rdfl","City":"Chandler","State":"AZ","Zip":"85248"},{"Location":"INTEL CORPORATION","Address":"4500 S Dobson Rd","City":"Chandler","State":"AZ","Zip":"85248"},{"Location":"INTELL CORPORATION","Address":"4500 S Dobson Rd Co4","City":"Chandler","State":"AZ","Zip":"85248"},{"Location":"JIFFY LUBE #3323","Address":"245 W Ocotillo Rd","City":"Chandler","State":"AZ","Zip":"85248"},{"Location":"KARMACRYSTAL","Address":"24053 S Arizona Ave","City":"Chandler","State":"AZ","Zip":"85248"},{"Location":"KEEGAN'S GRILL & TAPROOM","Address":"1095 W Queen Creek Rd A","City":"Chandler","State":"AZ","Zip":"85248"},{"Location":"KOKOMO FROZEN YOGURT","Address":"3125 S Alma School Rd 7","City":"Chandler","State":"AZ","Zip":"85248"},{"Location":"LA FITNESS #04155","Address":"3985 S. Arizona Avenue","City":"Chandler","State":"AZ","Zip":"85248"},{"Location":"LAKE NAILS AND SPA","Address":"4991 S Alma School Rd 7","City":"Chandler","State":"AZ","Zip":"85248"},{"Location":"LIV  AVENIDA - 1019","Address":"3250 S Arizona Ave 1019","City":"Chandler","State":"AZ","Zip":"85248"},{"Location":"LIV AVENIDA-3083","Address":"3250 S Arizona Ave 3083","City":"Chandler","State":"AZ","Zip":"85248"},{"Location":"MCDONALD'S #26170","Address":"4930 S Alma School Rd","City":"Chandler","State":"AZ","Zip":"85248"},{"Location":"MEDUROS FINE CIGARS","Address":"4991 S Alma School Rd","City":"Chandler","State":"AZ","Zip":"85248"},{"Location":"MOSIAC DENTISTRY","Address":"290 W Chandler Heights Rd 3","City":"Chandler","State":"AZ","Zip":"85248"},{"Location":"NATIVE NEW YORKER","Address":"4960      S Alma School R B24","City":"Chandler","State":"AZ","Zip":"85248"},{"Location":"ORBITAL SCIENCE","Address":"3377 S Price Rd","City":"Chandler","State":"AZ","Zip":"85248"},{"Location":"ORBITAL SCIENCES","Address":"3380 S Price Rd","City":"Chandler","State":"AZ","Zip":"85248"},{"Location":"PREMIER COMMUNITY MANAGEMENT","Address":"3930 S Alma School Rd 10","City":"Chandler","State":"AZ","Zip":"85248"},{"Location":"SAFEWAY 1566","Address":"4970 S Alma School Rd","City":"Chandler","State":"AZ","Zip":"85248"},{"Location":"SPORT CLIPS AZ114","Address":"4245 S Arizona Ave 2","City":"Chandler","State":"AZ","Zip":"85248"},{"Location":"STONE VINE CHANDLER","Address":"1035 W Queen Creek Rd 103","City":"Chandler","State":"AZ","Zip":"85248"},{"Location":"SUBWAY","Address":"4200 S Arizona Ave 4","City":"Chandler","State":"AZ","Zip":"85248"},{"Location":"SUNLAKES HOA","Address":"550 W Champagne Dr","City":"Chandler","State":"AZ","Zip":"85248"},{"Location":"SWAGEL WOOTON EYECENTER","Address":"3940 S Alma School Rd 2","City":"Chandler","State":"AZ","Zip":"85248"},{"Location":"V'S BARBER SHOP","Address":"4991 S Alma School Rd 3","City":"Chandler","State":"AZ","Zip":"85248"},{"Location":"VALLEY SUBS OF ARIZONA","Address":"1085 W Queen Creek Rd","City":"Chandler","State":"AZ","Zip":"85248"},{"Location":"WENDYS 11191","Address":"3893 S Arizona Ave","City":"Chandler","State":"AZ","Zip":"85248"},{"Location":"WEST USA REALTY REVOLATIONN","Address":"4050 S Arizona Ave","City":"Chandler","State":"AZ","Zip":"85248"},{"Location":"WHISKEY ROSE","Address":"135 W Ocotillo Rd","City":"Chandler","State":"AZ","Zip":"85248"},{"Location":"YOGIS GRILL 11","Address":"4015 S Arizona Ave 5","City":"Chandler","State":"AZ","Zip":"85248"},{"Location":"YOU FIT FULTON RANCH INC","Address":"4975 S Alma School Rd","City":"Chandler","State":"AZ","Zip":"85248"},{"Location":"ZIPPS SPORTS GRILL","Address":"4060 S Arizona Ave","City":"Chandler","State":"AZ","Zip":"85248"},{"Location":"IRONOAKS COUNTRY CLUB","Address":"24218 S Oakwood Blvd","City":"Sun Lakes","State":"AZ","Zip":"85248"},{"Location":"MCDONALD'S #24901","Address":"11125 E Riggs Rd","City":"Sun Lakes","State":"AZ","Zip":"85248"},{"Location":"NETZEL FINANCIAL","Address":"10450 E Riggs Rd 102","City":"Sun Lakes","State":"AZ","Zip":"85248"},{"Location":"POOLSIDE CAFE AND BAR","Address":"24211 S Oakwood Blvd","City":"Sun Lakes","State":"AZ","Zip":"85248"},{"Location":"RAMIROS TACO SHOP","Address":"9666 E Riggs Rd 110","City":"Sun Lakes","State":"AZ","Zip":"85248"}]