[{"Location":"19627 NORTH 101 STREET LLC","Address":"19627 N 101st St","City":"Scottsdale","State":"AZ","Zip":"85255"},{"Location":"ADKINS DENTAL MEDICAL","Address":"7231 E Princess Blvd 207","City":"Scottsdale","State":"AZ","Zip":"85255"},{"Location":"ADMIRE PLASTIC SURGERY","Address":"7231 E Prinsess Blvd 211","City":"Scottsdale","State":"AZ","Zip":"85255"},{"Location":"ADVANTAGE OFF SUITES PRINCESS","Address":"17470 N Pacesetter Way","City":"Scottsdale","State":"AZ","Zip":"85255"},{"Location":"AMENZONE","Address":"17060 N Thompson Peak Pkwy","City":"Scottsdale","State":"AZ","Zip":"85255"},{"Location":"AMES CONSTRUCTION","Address":"8333 E Hartford Dr","City":"Scottsdale","State":"AZ","Zip":"85255"},{"Location":"ASPEN MARKETING SERVICES","Address":"7231 E Princess Blvd 202","City":"Scottsdale","State":"AZ","Zip":"85255"},{"Location":"BANKERS CONSULTING CORPORATION","Address":"17550 N Perimeter Dr 180","City":"Scottsdale","State":"AZ","Zip":"85255"},{"Location":"BARRO'S PIZZA","Address":"20701 N Scottsdale Rd 101","City":"Scottsdale","State":"AZ","Zip":"85255"},{"Location":"BELL LEXUS","Address":"18555 N Scottsdale Rd","City":"Scottsdale","State":"AZ","Zip":"85255"},{"Location":"BLUE SUSHI","Address":"23233 N Pima Rd 101","City":"Scottsdale","State":"AZ","Zip":"85255"},{"Location":"C & J DENTAL GROUP","Address":"18261 N Pima Rd E130","City":"Scottsdale","State":"AZ","Zip":"85255"},{"Location":"CARE FREE ADULT CARE HOME","Address":"8038 E Happy Valley Rd","City":"Scottsdale","State":"AZ","Zip":"85255"},{"Location":"CARINA HEARTS","Address":"17967 N 100th Way","City":"Scottsdale","State":"AZ","Zip":"85255"},{"Location":"CARRABBA'S ITALIAN GRILL #5304","Address":"17007 N Scottsdale Rd","City":"Scottsdale","State":"AZ","Zip":"85255"},{"Location":"CCS-SCOTTSDALE","Address":"17350 N Hartford Dr","City":"Scottsdale","State":"AZ","Zip":"85255"},{"Location":"CITY OF SCOTTSDALE","Address":"20363 N Pima Rd","City":"Scottsdale","State":"AZ","Zip":"85255"},{"Location":"COLD BEER & CHEESE BURG.","Address":"20831 N Scottsdale Rd A117","City":"Scottsdale","State":"AZ","Zip":"85255"},{"Location":"COUNTRY CLUB AT DC RANCH","Address":"9290 E Thompson Peak Pkwy","City":"Scottsdale","State":"AZ","Zip":"85255"},{"Location":"COURTYARD SCOTT","Address":"17010 N Scottsdale Rd","City":"Scottsdale","State":"AZ","Zip":"85255"},{"Location":"CREATIVE NAILS AND SPA","Address":"17060 N Thompson Peak Pkwy 110","City":"Scottsdale","State":"AZ","Zip":"85255"},{"Location":"DANE HOLDINGS INC","Address":"23415 N Scottsdale Rd 104","City":"Scottsdale","State":"AZ","Zip":"85255"},{"Location":"DC RANCH COMM CENTER","Address":"9260 E Desert Camp Dr","City":"Scottsdale","State":"AZ","Zip":"85255"},{"Location":"DESERT HIGHLANDS-GOLF COURSE","Address":"10040 E Happy Valley Rd","City":"Scottsdale","State":"AZ","Zip":"85255"},{"Location":"DESERT TROON  COMPANY","Address":"17207 N Perimeter Dr 200","City":"Scottsdale","State":"AZ","Zip":"85255"},{"Location":"DIAMOND K BRASS","Address":"7363 E Adobe Dr 101","City":"Scottsdale","State":"AZ","Zip":"85255"},{"Location":"DISCOUNT TIRE COMPANY","Address":"20225 N Scottsdale Rd","City":"Scottsdale","State":"AZ","Zip":"85255"},{"Location":"DR MARK POGUE","Address":"8535 E Hartford Dr 100","City":"Scottsdale","State":"AZ","Zip":"85255"},{"Location":"EDGE AT GRAYHAWK","Address":"20100 N 78th Pl","City":"Scottsdale","State":"AZ","Zip":"85255"},{"Location":"EECPA PLC","Address":"7231 E Princess Blvd 212","City":"Scottsdale","State":"AZ","Zip":"85255"},{"Location":"EST EST INC","Address":"17770 N Pacesetter Way","City":"Scottsdale","State":"AZ","Zip":"85255"},{"Location":"FAIRMONT SCOTTSDALE PRINCESS R","Address":"7575 E Princess Dr","City":"Scottsdale","State":"AZ","Zip":"85255"},{"Location":"FENDER MUSICAL INSTRUMEN","Address":"17600 N Perimeter Dr 100","City":"Scottsdale","State":"AZ","Zip":"85255"},{"Location":"FLEMING'S STEAKHOUSE #1303","Address":"20753 N Pima Rd","City":"Scottsdale","State":"AZ","Zip":"85255"},{"Location":"FOI","Address":"7970 E Thompson Peak Pkwy 104a","City":"Scottsdale","State":"AZ","Zip":"85255"},{"Location":"FRYS FOOD STORE 673","Address":"20427 N Hayden Rd","City":"Scottsdale","State":"AZ","Zip":"85255"},{"Location":"FTN FINANCIAL","Address":"17015 N Scottsdale Rd 220","City":"Scottsdale","State":"AZ","Zip":"85255"},{"Location":"GENERAL ELECTRIC COMPANY","Address":"8377 E Hartford Dr","City":"Scottsdale","State":"AZ","Zip":"85255"},{"Location":"GRIMALDIS PIZZERIA","Address":"20715 N Pima Rd 115","City":"Scottsdale","State":"AZ","Zip":"85255"},{"Location":"HEALTHY SMILES DENTISTRY","Address":"8700 E Pinnacle Peak Rd 226","City":"Scottsdale","State":"AZ","Zip":"85255"},{"Location":"HENKEL CORPORATION","Address":"19001 N Scottsdale Rd","City":"Scottsdale","State":"AZ","Zip":"85255"},{"Location":"HORNACEK GOLF STORE","Address":"23587 N Scottsdale Rd","City":"Scottsdale","State":"AZ","Zip":"85255"},{"Location":"HPCG","Address":"21020 N Pima Rd","City":"Scottsdale","State":"AZ","Zip":"85255"},{"Location":"INSOMNIA AND SLEEP CENTER AZ","Address":"8330 E Hartford Dr 100","City":"Scottsdale","State":"AZ","Zip":"85255"},{"Location":"IO CAPITAL PRINCESS","Address":"8521 E Princess Dr","City":"Scottsdale","State":"AZ","Zip":"85255"},{"Location":"IRONWOOD WEALTH","Address":"17015 N Scottsdale Rd 235","City":"Scottsdale","State":"AZ","Zip":"85255"},{"Location":"ISABELLAS KITCHEN","Address":"8623 E Thompson Peak Pkwy","City":"Scottsdale","State":"AZ","Zip":"85255"},{"Location":"JADE PALACE","Address":"8876 E Pinnacle Peak Rd","City":"Scottsdale","State":"AZ","Zip":"85255"},{"Location":"JALAPENO INFERNO MS","Address":"20825 N Pima Rd H110","City":"Scottsdale","State":"AZ","Zip":"85255"},{"Location":"JUAN JAIME'S TACOS","Address":"20343 N Hayden Rd","City":"Scottsdale","State":"AZ","Zip":"85255"},{"Location":"KOCH INDUSTRIES INC.","Address":"18867 N Thompson Peak Pkwy 250","City":"Scottsdale","State":"AZ","Zip":"85255"},{"Location":"LOCAL BISTRO","Address":"20581 N Hayden Rd","City":"Scottsdale","State":"AZ","Zip":"85255"},{"Location":"LUSH BURGER","Address":"18251 N Pima Rd","City":"Scottsdale","State":"AZ","Zip":"85255"},{"Location":"MANDARICH STUDIOS","Address":"17255 N 82nd St 135","City":"Scottsdale","State":"AZ","Zip":"85255"},{"Location":"MARAVILLA SCOTTSDALE","Address":"7325 E Princess Blvd","City":"Scottsdale","State":"AZ","Zip":"85255"},{"Location":"MARKET STREET KITCHEN","Address":"20825 N Pina Rd  #100","City":"Scottsdale","State":"AZ","Zip":"85255"},{"Location":"MASTRO'S STEAKHOUSE","Address":"8852 E Pinnacle Peak Rd","City":"Scottsdale","State":"AZ","Zip":"85255"},{"Location":"MCDONOUGH CORP.","Address":"21050 N Pima Rd 100","City":"Scottsdale","State":"AZ","Zip":"85255"},{"Location":"MCDOWELL MOUNTAIN GOLF","Address":"10690 E Sheena Dr","City":"Scottsdale","State":"AZ","Zip":"85255"},{"Location":"MIDLAND GROUP","Address":"20645 North Pina Rd  #n Ste","City":"Scottsdale","State":"AZ","Zip":"85255"},{"Location":"MODA FORTE BOTIQUE & SAL","Address":"17050 N Thompson Peak Pkwy 115","City":"Scottsdale","State":"AZ","Zip":"85255"},{"Location":"MOORS AND CABOT INC","Address":"20707 N Pima Rd 135","City":"Scottsdale","State":"AZ","Zip":"85255"},{"Location":"NATURAL PARTNERS","Address":"8445 E Hartford Dr","City":"Scottsdale","State":"AZ","Zip":"85255"},{"Location":"NICKS AT PINNACLE PEAK","Address":"23417 N Pima Rd 169","City":"Scottsdale","State":"AZ","Zip":"85255"},{"Location":"NORTH CENTRAL UNIVERSITY","Address":"8667 E Hartford Dr","City":"Scottsdale","State":"AZ","Zip":"85255"},{"Location":"NORTH SCOTSDALE NURSERY","Address":"25601 N Scottsdale Rd","City":"Scottsdale","State":"AZ","Zip":"85255"},{"Location":"PAIN CENTER OF ARIZONA","Address":"8322 E Hartford Dr 200","City":"Scottsdale","State":"AZ","Zip":"85255"},{"Location":"PF CHANG'S CORPORATE OFFICE","Address":"7676 E Pinnacle Peak Rd","City":"Scottsdale","State":"AZ","Zip":"85255"},{"Location":"PINNACLE PEAK COUNTRY CLUB","Address":"8701 E Pinnacle Peak Rd","City":"Scottsdale","State":"AZ","Zip":"85255"},{"Location":"PINNACLE PEAK ENDODONTICS","Address":"7500 E Pinnacle Peak Rd A100","City":"Scottsdale","State":"AZ","Zip":"85255"},{"Location":"PINNACLE PEAK FAMILY DENTISTRY","Address":"10465 E Pinnacle Peak Pkwy 101","City":"Scottsdale","State":"AZ","Zip":"85255"},{"Location":"PINNACLE PUBLIC FINANCE","Address":"8377 E Hartford Dr 115","City":"Scottsdale","State":"AZ","Zip":"85255"},{"Location":"PITA CAFE","Address":"23535 N Scottsdale Rd 102","City":"Scottsdale","State":"AZ","Zip":"85255"},{"Location":"POSTALMAX OF PINNACLE PEAK","Address":"23233 N Pima Rd 113","City":"Scottsdale","State":"AZ","Zip":"85255"},{"Location":"PRESTIGE NAILS & SPA","Address":"20701 N Scottsdale Rd 109","City":"Scottsdale","State":"AZ","Zip":"85255"},{"Location":"PRIMARY RESIDENTIAL","Address":"8665 E Hartford Dr 105","City":"Scottsdale","State":"AZ","Zip":"85255"},{"Location":"PROSPORT MANAGEMENT","Address":"8355 E Hartford Dr 105","City":"Scottsdale","State":"AZ","Zip":"85255"},{"Location":"PURE SUSHI BAR","Address":"20567 N Hayden Rd","City":"Scottsdale","State":"AZ","Zip":"85255"},{"Location":"REMAX FINE PROPERTIES","Address":"21000 N Pima Rd 100","City":"Scottsdale","State":"AZ","Zip":"85255"},{"Location":"RESIDENCE INN-SCOTTSDAL(54550)","Address":"17011 N Scottsdale Rd","City":"Scottsdale","State":"AZ","Zip":"85255"},{"Location":"RHYTHM & WINE","Address":"7605 E Pinnacle Peak Rd D1","City":"Scottsdale","State":"AZ","Zip":"85255"},{"Location":"ROCK & VINCE BAR AND GRILL","Address":"8900 E Pinnacle Peak Rd B1","City":"Scottsdale","State":"AZ","Zip":"85255"},{"Location":"ROD W GORE DDS","Address":"8535 E Hartford Dr 208","City":"Scottsdale","State":"AZ","Zip":"85255"},{"Location":"ROMA BARBERSHOP","Address":"8912 E Pinnacle Peak Rd","City":"Scottsdale","State":"AZ","Zip":"85255"},{"Location":"ROSATIS SCOTTSDALE","Address":"18221 N Pima Rd 140","City":"Scottsdale","State":"AZ","Zip":"85255"},{"Location":"SAFEWAY 1663","Address":"20901 N Pima Rd","City":"Scottsdale","State":"AZ","Zip":"85255"},{"Location":"SCOTTRADE 101Z","Address":"8501 E Princess Dr 220","City":"Scottsdale","State":"AZ","Zip":"85255"},{"Location":"SCOTTSDALE CHARLESTONS","Address":"17001 N Scottsdale Rd","City":"Scottsdale","State":"AZ","Zip":"85255"},{"Location":"SCOTTSDALE F D 611","Address":"20355 N Pima Rd","City":"Scottsdale","State":"AZ","Zip":"85255"},{"Location":"SCOTTSDALE VET CARE","Address":"17477 N 82nd St","City":"Scottsdale","State":"AZ","Zip":"85255"},{"Location":"SELECT CHOICE LLC","Address":"9606 E Ziamontoya","City":"Scottsdale","State":"AZ","Zip":"85255"},{"Location":"SILVER LEAF OFFICE PARTNERS","Address":"21090 N Pima Rd","City":"Scottsdale","State":"AZ","Zip":"85255"},{"Location":"SONORAN HOSPITALITY GROU","Address":"23587 N Scottsdale Rd","City":"Scottsdale","State":"AZ","Zip":"85255"},{"Location":"SOUL CAFE","Address":"7615 E Pinnacle Peak Rd","City":"Scottsdale","State":"AZ","Zip":"85255"},{"Location":"SPIGA","Address":"7500 E Pinnacle Peak Rd","City":"Scottsdale","State":"AZ","Zip":"85255"},{"Location":"ST JUDE MEDICAL","Address":"8300 E Pacesetter Way","City":"Scottsdale","State":"AZ","Zip":"85255"},{"Location":"STAG TOBACCONISTI SCOTTSDALE","Address":"23535 N Scottsdale Rd","City":"Scottsdale","State":"AZ","Zip":"85255"},{"Location":"STONE ROSE","Address":"7575 E Princess Dr","City":"Scottsdale","State":"AZ","Zip":"85255"},{"Location":"SUMMIT HEALTH","Address":"17301 N Perimeter Dr 130","City":"Scottsdale","State":"AZ","Zip":"85255"},{"Location":"SURGECENTER OF GREATER PHEONIX","Address":"7231 E Princess Blvd 100","City":"Scottsdale","State":"AZ","Zip":"85255"},{"Location":"TASER INTL","Address":"17800 N 85th St","City":"Scottsdale","State":"AZ","Zip":"85255"},{"Location":"TAVERN AMERICANA","Address":"20469 N Hayden Rd","City":"Scottsdale","State":"AZ","Zip":"85255"},{"Location":"TEMPLE BAR SPORTS GRILL","Address":"17050 N Thompson Peak Pkwy B125","City":"Scottsdale","State":"AZ","Zip":"85255"},{"Location":"TERRY INSURANCE GROUP LLC","Address":"10411 E Mcdowell Mountain Ranch","City":"Scottsdale","State":"AZ","Zip":"85255"},{"Location":"THAI BASIL SCOTTSDALE","Address":"7605 E Pinnacle Peak Rd 2","City":"Scottsdale","State":"AZ","Zip":"85255"},{"Location":"THE DOLLARHIDE FINANCIAL GROUP","Address":"17550 N Perimeter Dr 450","City":"Scottsdale","State":"AZ","Zip":"85255"},{"Location":"THE HERB BOX","Address":"20707 N Pima Rd","City":"Scottsdale","State":"AZ","Zip":"85255"},{"Location":"THE SILVERLEAF CLUB","Address":"18701 N Silverleaf Dr","City":"Scottsdale","State":"AZ","Zip":"85255"},{"Location":"THE SILVERLEAF CLUB-2","Address":"18701 N Silverleaf Dr","City":"Scottsdale","State":"AZ","Zip":"85255"},{"Location":"THE VENU AT GRAYHAWK","Address":"19777 N 76th St 1351","City":"Scottsdale","State":"AZ","Zip":"85255"},{"Location":"TORO AT TPC SCOTTSDALE","Address":"17020 N Hayden Rd","City":"Scottsdale","State":"AZ","Zip":"85255"},{"Location":"TOYAMA JAPANESSE RESTRUANT","Address":"23415 N Scottsdale Rd","City":"Scottsdale","State":"AZ","Zip":"85255"},{"Location":"TROON COUNTRY CLUB","Address":"25000 N Windy Walk Dr","City":"Scottsdale","State":"AZ","Zip":"85255"},{"Location":"TWISTED LIZARD","Address":"10401 E Mcdowell Mountain Ranch A1","City":"Scottsdale","State":"AZ","Zip":"85255"},{"Location":"UPPER IMAGE SERVICES","Address":"7291 E Adobe Dr 115","City":"Scottsdale","State":"AZ","Zip":"85255"},{"Location":"US BANK HOME MORTGAGE","Address":"17851 N 85th St 150","City":"Scottsdale","State":"AZ","Zip":"85255"},{"Location":"VC DYNAMICS","Address":"17767 N Perimeter Dr B101","City":"Scottsdale","State":"AZ","Zip":"85255"},{"Location":"VC SOLUTIONS%2C LLC","Address":"17767 N Perimeter Dr B101","City":"Scottsdale","State":"AZ","Zip":"85255"},{"Location":"VI AT SILVER STONE","Address":"23005 N 74th St","City":"Scottsdale","State":"AZ","Zip":"85255"},{"Location":"VILLAGE INN #110779","Address":"17030 N Scottsdale Rd","City":"Scottsdale","State":"AZ","Zip":"85255"},{"Location":"WHICH WICH SUPERIOR","Address":"20851 N Scottsdale Rd D102","City":"Scottsdale","State":"AZ","Zip":"85255"},{"Location":"ZOLTAN'S","Address":"20821 N Scottsdale Rd","City":"Scottsdale","State":"AZ","Zip":"85255"}]