[{"Location":"4TH FLOOR GRILL","Address":"5001 N Scottsdale Rd","City":"Scottsdale","State":"AZ","Zip":"85250"},{"Location":"A.MISAKI IRA LLC","Address":"6333 N Scottsdale Rd 27","City":"Scottsdale","State":"AZ","Zip":"85250"},{"Location":"BARROS PIZZA","Address":"8940 E Indian Bend Rd 7","City":"Scottsdale","State":"AZ","Zip":"85250"},{"Location":"BIG LEAGUE DUGOUT 2","Address":"9180 E Indian Bend Rd F10","City":"Scottsdale","State":"AZ","Zip":"85250"},{"Location":"BINKS ON SCOTTSDALE","Address":"6107 N Scottsdale Rd 110","City":"Scottsdale","State":"AZ","Zip":"85250"},{"Location":"BRANDON MUELLER","Address":"6149 N Scottsdale Rd","City":"Scottsdale","State":"AZ","Zip":"85250"},{"Location":"BUFFALO WILD WINGS #0453","Address":"8870 E Indian Bend Rd","City":"Scottsdale","State":"AZ","Zip":"85250"},{"Location":"CAREMORE","Address":"5225 N Scottsdale Rd","City":"Scottsdale","State":"AZ","Zip":"85250"},{"Location":"CASINO ARIZONA","Address":"8900 E Chaparral Rd","City":"Scottsdale","State":"AZ","Zip":"85250"},{"Location":"CHIZONAS","Address":"8418 E Mcdonald Dr","City":"Scottsdale","State":"AZ","Zip":"85250"},{"Location":"CRUST","Address":"6989 N Hayden Rd A9","City":"Scottsdale","State":"AZ","Zip":"85250"},{"Location":"DAVITA #11237 SCOTTSDALE","Address":"5705 N Scottsdale Rd","City":"Scottsdale","State":"AZ","Zip":"85250"},{"Location":"DECO MULTIFAMILY HOLDINGS","Address":"8135 E Indian Bend Rd","City":"Scottsdale","State":"AZ","Zip":"85250"},{"Location":"DRAKE CEMENT","Address":"5745 N Scottsdale Rd B130","City":"Scottsdale","State":"AZ","Zip":"85250"},{"Location":"EDGENUITY","Address":"8860 E Chaparral Rd 100","City":"Scottsdale","State":"AZ","Zip":"85250"},{"Location":"ELEGANT BARBERSHOP","Address":"5913 N Granite Reef Rd","City":"Scottsdale","State":"AZ","Zip":"85250"},{"Location":"EQUIANT FINANCIAL SERVICES","Address":"5401 N Pima Rd 150","City":"Scottsdale","State":"AZ","Zip":"85250"},{"Location":"FILIBERTO MEXICAN","Address":"9150 E Indian Bend Rd","City":"Scottsdale","State":"AZ","Zip":"85250"},{"Location":"FLEMING'S STEAKHOUSE #1301","Address":"6333 N Scottsdale Rd","City":"Scottsdale","State":"AZ","Zip":"85250"},{"Location":"HOOTERS SCOTTSDALE","Address":"8909 E Indian Bend Rd","City":"Scottsdale","State":"AZ","Zip":"85250"},{"Location":"HOTEL SCOTTSDALE","Address":"5101 N Scottsdale Rd","City":"Scottsdale","State":"AZ","Zip":"85250"},{"Location":"HOUSTON'S RESTAURANT","Address":"6113 N Scottsdale Rd","City":"Scottsdale","State":"AZ","Zip":"85250"},{"Location":"HUMBLE PIE","Address":"6149 N Scottsdale Rd 101","City":"Scottsdale","State":"AZ","Zip":"85250"},{"Location":"INSIGHT LAND","Address":"7400 E Mcdonald Dr 121","City":"Scottsdale","State":"AZ","Zip":"85250"},{"Location":"LARRY SMITH  & PARTNERS","Address":"6619 N Scottsdale Rd","City":"Scottsdale","State":"AZ","Zip":"85250"},{"Location":"LAX LOCKER","Address":"9180 E Indian Bend Rd F9","City":"Scottsdale","State":"AZ","Zip":"85250"},{"Location":"LOGGIA BAR","Address":"5401 N Scottsdale Rd","City":"Scottsdale","State":"AZ","Zip":"85250"},{"Location":"MCDONALD EAST APARTMENTS","Address":"8310 E Mcdonald Dr","City":"Scottsdale","State":"AZ","Zip":"85250"},{"Location":"MCDONALD EAST APARTMENTS2","Address":"8310 E Mcdonald Dr","City":"Scottsdale","State":"AZ","Zip":"85250"},{"Location":"MEN'S WEARHOUSE #2504","Address":"9019 E Indian Bend Rd","City":"Scottsdale","State":"AZ","Zip":"85250"},{"Location":"MOUNTAINSIDE FITNESS","Address":"8929 E Indian Bend Rd","City":"Scottsdale","State":"AZ","Zip":"85250"},{"Location":"OCTANE RACEWAY","Address":"9119 E Indian Bend Rd","City":"Scottsdale","State":"AZ","Zip":"85250"},{"Location":"OWL EAR SMOKE SHOP","Address":"8920 E Indian Bend Rd A1","City":"Scottsdale","State":"AZ","Zip":"85250"},{"Location":"PAVILIONS AUTO WASH","Address":"8850 E Indian Bend Rd","City":"Scottsdale","State":"AZ","Zip":"85250"},{"Location":"PESCATORE COOPER TLC","Address":"5705 N Scottsdale Rd","City":"Scottsdale","State":"AZ","Zip":"85250"},{"Location":"RANDY'S RESTAURANT & ICE","Address":"7904 E Chaparral Rd A101","City":"Scottsdale","State":"AZ","Zip":"85250"},{"Location":"RED ROBIN #526","Address":"8990 E Indian Bend Rd","City":"Scottsdale","State":"AZ","Zip":"85250"},{"Location":"REGENESIS BIOMEDICAL","Address":"5301 N Pima Rd 150","City":"Scottsdale","State":"AZ","Zip":"85250"},{"Location":"SAFEWAY 1491","Address":"7920 E Chaparral Rd","City":"Scottsdale","State":"AZ","Zip":"85250"},{"Location":"SALT RIVER MATERIALS GROUP","Address":"8800 E Chaparral Rd 155","City":"Scottsdale","State":"AZ","Zip":"85250"},{"Location":"SCOTTSDALE ATHLETIC CLUB","Address":"8225 E Indian Bend Rd","City":"Scottsdale","State":"AZ","Zip":"85250"},{"Location":"SCOTTSDALE HILTON","Address":"6333 N Scottsdale Rd","City":"Scottsdale","State":"AZ","Zip":"85250"},{"Location":"SECURE ASSET PRESERVATIO","Address":"8475 E Mcdonald Dr","City":"Scottsdale","State":"AZ","Zip":"85250"},{"Location":"SILVERADO GOLF CLUB","Address":"7605 E Indian Bend Rd","City":"Scottsdale","State":"AZ","Zip":"85250"},{"Location":"SPORTS AUTHORITY 794","Address":"9009 E Indian Bend Rd","City":"Scottsdale","State":"AZ","Zip":"85250"},{"Location":"STAYSHONS ENTERPRISES","Address":"8823 E Chaparral Rd","City":"Scottsdale","State":"AZ","Zip":"85250"},{"Location":"TALLY HO COCKTAILS","Address":"8479 E Mcdonald Dr","City":"Scottsdale","State":"AZ","Zip":"85250"},{"Location":"TAPHOUSE KITCHEN","Address":"6137 N Scottsdale Rd","City":"Scottsdale","State":"AZ","Zip":"85250"},{"Location":"THE LAMAR DAY SPA","Address":"5115 N Scottsdale Rd","City":"Scottsdale","State":"AZ","Zip":"85250"},{"Location":"TRANS CITY INSURANCE","Address":"7500 E Mcdonald Dr 700","City":"Scottsdale","State":"AZ","Zip":"85250"},{"Location":"UNITED WEB","Address":"8800 E Chaparral Rd","City":"Scottsdale","State":"AZ","Zip":"85250"},{"Location":"WEST VALLEY NATIONAL  BANK","Address":"5635 N Scottsdale Rd 150","City":"Scottsdale","State":"AZ","Zip":"85250"}]