[{"Location":"V'S BARBER SHOP","Address":"7012 East Greenway Park Way 120","City":"Scottdale","State":"AZ","Zip":"85254"},{"Location":"360 PHYSICAL THERAPY","Address":"14202 N Scottsdale Rd 169","City":"Scottsdale","State":"AZ","Zip":"85254"},{"Location":"AFFILIATED PEADIATRIC DENTISTR","Address":"6868 E Becker Ln","City":"Scottsdale","State":"AZ","Zip":"85254"},{"Location":"ALL IN MEDIA HOUSE","Address":"7077 E Marilyn Rd 1","City":"Scottsdale","State":"AZ","Zip":"85254"},{"Location":"ALLIANCE FINANCIAL","Address":"14635 N Kierland Blvd 120","City":"Scottsdale","State":"AZ","Zip":"85254"},{"Location":"ALLIED ENERGY","Address":"7047 E Greenway Pkwy","City":"Scottsdale","State":"AZ","Zip":"85254"},{"Location":"ALLURE NAILS AND WAX","Address":"16255 N Scottsdale Rd C6","City":"Scottsdale","State":"AZ","Zip":"85254"},{"Location":"ARENA SPORTS GRILL","Address":"6245 E Bell Rd","City":"Scottsdale","State":"AZ","Zip":"85254"},{"Location":"ARIZONA STATE CREDIT UNION #7","Address":"6501 E Greenway Pkwy 133","City":"Scottsdale","State":"AZ","Zip":"85254"},{"Location":"BANK OF AMERICA AZ3-588-02-15","Address":"14648 N Scottsdale Rd 250","City":"Scottsdale","State":"AZ","Zip":"85254"},{"Location":"BEGINNERS EDGE SPORTS","Address":"7000 E Shea Blvd 1840","City":"Scottsdale","State":"AZ","Zip":"85254"},{"Location":"BENIHANA #1049 SCOTTSDALE","Address":"16403 N Scottsdale Rd","City":"Scottsdale","State":"AZ","Zip":"85254"},{"Location":"BRAVO SALON","Address":"10614 N 71st Pl","City":"Scottsdale","State":"AZ","Zip":"85254"},{"Location":"BRICK HOUSE CARDIO","Address":"7000 E Shea Blvd 1390","City":"Scottsdale","State":"AZ","Zip":"85254"},{"Location":"BRIO SCOTTSDALE QUARTER #83","Address":"15301 N Scottsdale Rd","City":"Scottsdale","State":"AZ","Zip":"85254"},{"Location":"CACHE CABINETRY","Address":"13802 N Scottsdale Rd 139","City":"Scottsdale","State":"AZ","Zip":"85254"},{"Location":"CAPITAL GROUP COMPANIES","Address":"14636 N Scottsdale Rd","City":"Scottsdale","State":"AZ","Zip":"85254"},{"Location":"CIGNA HEALTH CARE OF ARIZONA","Address":"10900 N Scottsdale Rd 606","City":"Scottsdale","State":"AZ","Zip":"85254"},{"Location":"CRACKER JAX FAMILY FUN CENTER","Address":"16001 N Scottsdale Rd","City":"Scottsdale","State":"AZ","Zip":"85254"},{"Location":"DAVIS HOME FURNISHIN LLC","Address":"15600 N Scottsdale Rd","City":"Scottsdale","State":"AZ","Zip":"85254"},{"Location":"DISCOUNT TIRE COMPANY","Address":"5310 E Shea Blvd","City":"Scottsdale","State":"AZ","Zip":"85254"},{"Location":"DISCOVER THE WORLD","Address":"7020 E Acoma Dr Ste10","City":"Scottsdale","State":"AZ","Zip":"85254"},{"Location":"DUNKIN DONUTS","Address":"10629 N Scottsdale Rd","City":"Scottsdale","State":"AZ","Zip":"85254"},{"Location":"E AND F CIGAR INC","Address":"6501 E Greenway Pkwy 122bl","City":"Scottsdale","State":"AZ","Zip":"85254"},{"Location":"EDDIE VS #8510","Address":"15323 N Scottsdale Rd","City":"Scottsdale","State":"AZ","Zip":"85254"},{"Location":"ELI'S AMERICAN GRILLE","Address":"7000 E Shea Blvd 140","City":"Scottsdale","State":"AZ","Zip":"85254"},{"Location":"FIDELITY INVESTMENTS 134","Address":"15445 N Scottsdale Rd","City":"Scottsdale","State":"AZ","Zip":"85254"},{"Location":"FIRESTONE #011959","Address":"13802 N Scottsdale Rd","City":"Scottsdale","State":"AZ","Zip":"85254"},{"Location":"GENERAL MILLS","Address":"14648 N Scottsdale Rd 300","City":"Scottsdale","State":"AZ","Zip":"85254"},{"Location":"GOLD SCISSORS BARBERSHOP","Address":"13802 N Scottsdale Rd 107","City":"Scottsdale","State":"AZ","Zip":"85254"},{"Location":"GOVERNMENT LIQUIDATION","Address":"15051 N Kierland Blvd","City":"Scottsdale","State":"AZ","Zip":"85254"},{"Location":"GRIMALDIS PIZZERIA","Address":"15147 N Scottsdale Rd H135","City":"Scottsdale","State":"AZ","Zip":"85254"},{"Location":"GUIDO'S CHICAGO MEAT & DELI","Address":"10893 N Scottsdale Rd 121","City":"Scottsdale","State":"AZ","Zip":"85254"},{"Location":"GUSS NEW YORK PIZZA","Address":"6245 E Bell Rd","City":"Scottsdale","State":"AZ","Zip":"85254"},{"Location":"HANDLEBAR J","Address":"7116 E Becker Ln","City":"Scottsdale","State":"AZ","Zip":"85254"},{"Location":"HEALTHCARE TRUST OF AMER","Address":"16435 N Scottsdale Rd 320","City":"Scottsdale","State":"AZ","Zip":"85254"},{"Location":"HOPDODDY SCOTTSDALE","Address":"11055 N Scottsdale Rd","City":"Scottsdale","State":"AZ","Zip":"85254"},{"Location":"HOUSE OF YANG","Address":"13802 N Scottsdale Rd 138","City":"Scottsdale","State":"AZ","Zip":"85254"},{"Location":"HUMBLE PIE KIERLAND","Address":"6501 E Greenway Pkwy","City":"Scottsdale","State":"AZ","Zip":"85254"},{"Location":"I MORTGAGE","Address":"16435 N Scottsdale Rd 200","City":"Scottsdale","State":"AZ","Zip":"85254"},{"Location":"IL BOSCO PIZZA","Address":"7120 E Becker Ln","City":"Scottsdale","State":"AZ","Zip":"85254"},{"Location":"JACKSON'S FOOD STORES #805","Address":"16610 N Scottsdale Rd","City":"Scottsdale","State":"AZ","Zip":"85254"},{"Location":"JASMINE TOKYO","Address":"7000 E Shea Blvd","City":"Scottsdale","State":"AZ","Zip":"85254"},{"Location":"JASON'S DELI","Address":"10605 N Scottsdale Rd 101","City":"Scottsdale","State":"AZ","Zip":"85254"},{"Location":"JIFFY LUBE #1728","Address":"7065 E Shea Blvd","City":"Scottsdale","State":"AZ","Zip":"85254"},{"Location":"JIFFY LUBE #1882","Address":"4944 E Bell Rd","City":"Scottsdale","State":"AZ","Zip":"85254"},{"Location":"KEIRLAND GOLF CLUB","Address":"15636 N Clubgate Dr","City":"Scottsdale","State":"AZ","Zip":"85254"},{"Location":"KIERLAND DENTAL ARTS","Address":"6501 E Greenway Pkwy 101","City":"Scottsdale","State":"AZ","Zip":"85254"},{"Location":"KIERLAND'S EXPRESS","Address":"6347 E Greenway Rd","City":"Scottsdale","State":"AZ","Zip":"85254"},{"Location":"L AND M HOME CENTER","Address":"15507 N Scottsdale Rd 135","City":"Scottsdale","State":"AZ","Zip":"85254"},{"Location":"LADLOWS FINE FURNITURE","Address":"16000 N Scottsdale Rd","City":"Scottsdale","State":"AZ","Zip":"85254"},{"Location":"LERNOR FAMILY DENTAL","Address":"4910 E Greenway Rd 6","City":"Scottsdale","State":"AZ","Zip":"85254"},{"Location":"MAGGIANO'S #0182","Address":"16405 N Scottsdale Rd","City":"Scottsdale","State":"AZ","Zip":"85254"},{"Location":"MASTRO'S OCEAN CLUB","Address":"15045 N Kierland Blvd","City":"Scottsdale","State":"AZ","Zip":"85254"},{"Location":"MEN'S WEARHOUSE #2510","Address":"16495 N Scottsdale Rd","City":"Scottsdale","State":"AZ","Zip":"85254"},{"Location":"MORGAN STANLEY 100250","Address":"14850 N Scottsdale Rd 600","City":"Scottsdale","State":"AZ","Zip":"85254"},{"Location":"MORTON'S SCOTTSDALE","Address":"15233 N Kierland Blvd","City":"Scottsdale","State":"AZ","Zip":"85254"},{"Location":"NAILS BY BOBBIE","Address":"10824 N 71st Pl","City":"Scottsdale","State":"AZ","Zip":"85254"},{"Location":"NORDSTROMS RACK","Address":"16245 N Scottsdale Rd","City":"Scottsdale","State":"AZ","Zip":"85254"},{"Location":"NORTHERN TRUST NA","Address":"14624 N Scottsdale Rd","City":"Scottsdale","State":"AZ","Zip":"85254"},{"Location":"OGGIES CIGAR","Address":"13610 N Scottsdale Rd 27","City":"Scottsdale","State":"AZ","Zip":"85254"},{"Location":"OLIVE GARDEN #1234","Address":"4868 E Cactus Rd 1234","City":"Scottsdale","State":"AZ","Zip":"85254"},{"Location":"ORANGE TREE GOLF CLUB","Address":"10601 N 56th St","City":"Scottsdale","State":"AZ","Zip":"85254"},{"Location":"PACWEST ENERGY LLC","Address":"15515 N Scottsdale Rd","City":"Scottsdale","State":"AZ","Zip":"85254"},{"Location":"PARADISE ANIMAL HOSPITAL","Address":"6969 E Shea Blvd 150","City":"Scottsdale","State":"AZ","Zip":"85254"},{"Location":"PETE MELLAS DMD","Address":"4910 E Greenway Rd 2","City":"Scottsdale","State":"AZ","Zip":"85254"},{"Location":"PF CHANG'S #5300","Address":"7132 E Greenway Pkwy","City":"Scottsdale","State":"AZ","Zip":"85254"},{"Location":"PIZZA HUT 28179","Address":"6501 E Greenway Pkwy","City":"Scottsdale","State":"AZ","Zip":"85254"},{"Location":"PRUDENTIAL RELOCATION","Address":"16260 N 71st St 272","City":"Scottsdale","State":"AZ","Zip":"85254"},{"Location":"RED LOBSTER #0354","Address":"4802 E Cactus Rd","City":"Scottsdale","State":"AZ","Zip":"85254"},{"Location":"RINALDIS","Address":"16211 N Scottsdale Rd Suite","City":"Scottsdale","State":"AZ","Zip":"85254"},{"Location":"RW BAIRD","Address":"14648 N Scottsdale Rd 175","City":"Scottsdale","State":"AZ","Zip":"85254"},{"Location":"SAFEWAY 2032","Address":"10773 N Scottsdale Rd","City":"Scottsdale","State":"AZ","Zip":"85254"},{"Location":"SALTY SOW","Address":"4801 E Cactus Rd","City":"Scottsdale","State":"AZ","Zip":"85254"},{"Location":"SCOTTSDALE GOLD AND SILVER","Address":"7033 E Greenway Pkwy 230","City":"Scottsdale","State":"AZ","Zip":"85254"},{"Location":"SCOTTSDALE NAILS","Address":"13610 N Scottsdale Rd 26","City":"Scottsdale","State":"AZ","Zip":"85254"},{"Location":"SPORT CLIPS AZ107","Address":"10893 N Scottsdale Rd 117","City":"Scottsdale","State":"AZ","Zip":"85254"},{"Location":"SPORT CLIPS AZ125","Address":"6501 E Greenway Pkwy","City":"Scottsdale","State":"AZ","Zip":"85254"},{"Location":"SUPERIOR HOMES","Address":"15279 N Scottsdale Rd 400","City":"Scottsdale","State":"AZ","Zip":"85254"},{"Location":"SWING REALESTATE AND DEV","Address":"15169 N Scottsdale Rd 450","City":"Scottsdale","State":"AZ","Zip":"85254"},{"Location":"TANZY","Address":"15257 N Scottsdale Rd F-220","City":"Scottsdale","State":"AZ","Zip":"85254"},{"Location":"TD AMERITRADE #03006","Address":"7030 E Greenway Pkwy 190","City":"Scottsdale","State":"AZ","Zip":"85254"},{"Location":"THE CAPITAL GRILLE #8024","Address":"16489 N Scottsdale Rd","City":"Scottsdale","State":"AZ","Zip":"85254"},{"Location":"THE CHEESECAKE FACTORY 0036","Address":"15230 N Scottsdale Rd","City":"Scottsdale","State":"AZ","Zip":"85254"},{"Location":"THE HANGAR","Address":"13610 N Scottsdale Rd 30","City":"Scottsdale","State":"AZ","Zip":"85254"},{"Location":"THE WESTIN KIERLAND RESORT","Address":"6902 E Greenway Pkwy","City":"Scottsdale","State":"AZ","Zip":"85254"},{"Location":"TILTED KILT","Address":"7077 E Bell Rd 110","City":"Scottsdale","State":"AZ","Zip":"85254"},{"Location":"TJS PIZZA AND WINGS1","Address":"5555 E Bell Rd 14","City":"Scottsdale","State":"AZ","Zip":"85254"},{"Location":"TRUE FOOD KITCHEN","Address":"15191 N Scottsdale Rd","City":"Scottsdale","State":"AZ","Zip":"85254"},{"Location":"TUTTI SANTI II LLC","Address":"6339 E Greenway Rd 108","City":"Scottsdale","State":"AZ","Zip":"85254"},{"Location":"URBAN GARAGE GYM LLC","Address":"7000 E Shea Blvd 1340","City":"Scottsdale","State":"AZ","Zip":"85254"},{"Location":"VISION OFFICES","Address":"15849 N 71st St","City":"Scottsdale","State":"AZ","Zip":"85254"},{"Location":"WALLICK AND VOLK","Address":"7033 E Greenway Pakway 290","City":"Scottsdale","State":"AZ","Zip":"85254"},{"Location":"WELLS FARGO BANK","Address":"10921 N Scottsdale Rd","City":"Scottsdale","State":"AZ","Zip":"85254"},{"Location":"YOGIS GRILL","Address":"10629 N Scottsdale Rd 105","City":"Scottsdale","State":"AZ","Zip":"85254"},{"Location":"YOU FIT HANCOCK","Address":"4827 E Greenway Rd","City":"Scottsdale","State":"AZ","Zip":"85254"},{"Location":"YOUGURTOLOGY","Address":"6501 E Greenway Pkwy","City":"Scottsdale","State":"AZ","Zip":"85254"},{"Location":"ZIPPS","Address":"6501 E Greenway Pkwy","City":"Scottsdale","State":"AZ","Zip":"85254"}]