[{"Location":"ADVANCED HEALTHCARE SCOTTSDALE","Address":"9846 N 95th St","City":"Scottsdale","State":"AZ","Zip":"85258"},{"Location":"AKITA SUSHI","Address":"9011 E Via Linda","City":"Scottsdale","State":"AZ","Zip":"85258"},{"Location":"APOTHECARY SHOP","Address":"9777 N 91st St 102","City":"Scottsdale","State":"AZ","Zip":"85258"},{"Location":"ARCHSOL","Address":"8901 E Pima Center Pkwy","City":"Scottsdale","State":"AZ","Zip":"85258"},{"Location":"ARIZONA DIAMONDBACKS SPRING TR","Address":"7555 N Pima Rd","City":"Scottsdale","State":"AZ","Zip":"85258"},{"Location":"ATHENA MARIE STATE FARM AGENCY","Address":"8170 N 86th Pl 105","City":"Scottsdale","State":"AZ","Zip":"85258"},{"Location":"AZ ONCOLOGY","Address":"10460 N 92nd St 400","City":"Scottsdale","State":"AZ","Zip":"85258"},{"Location":"BANK OF AMERICA AZ3-174-01-01","Address":"10075 E Via Linda","City":"Scottsdale","State":"AZ","Zip":"85258"},{"Location":"BORDUR COACH LEASING III","Address":"9393 N 90th St 135","City":"Scottsdale","State":"AZ","Zip":"85258"},{"Location":"BORDUR COACH LEASING IV","Address":"9393 N 90th St 135","City":"Scottsdale","State":"AZ","Zip":"85258"},{"Location":"BORDUR COACH LEASING IV.","Address":"9393 N 90th St 135","City":"Scottsdale","State":"AZ","Zip":"85258"},{"Location":"BORDUR COACH LEASING.","Address":"9393 N 90th St 135","City":"Scottsdale","State":"AZ","Zip":"85258"},{"Location":"BORDUR COACH LEASINGLLC","Address":"9393 N 90th St 135","City":"Scottsdale","State":"AZ","Zip":"85258"},{"Location":"BORDUR COACH LEASINGLLC.","Address":"9393 N 90th St 135","City":"Scottsdale","State":"AZ","Zip":"85258"},{"Location":"BOYS AND GIRLS CLUB","Address":"10533 E Lakeview Dr","City":"Scottsdale","State":"AZ","Zip":"85258"},{"Location":"BRUNSWICK #865","Address":"9027 E Via Linda","City":"Scottsdale","State":"AZ","Zip":"85258"},{"Location":"CAMELLO VISTA HOA","Address":"7225 E Via Camello","City":"Scottsdale","State":"AZ","Zip":"85258"},{"Location":"CANTON DRAGON","Address":"10190 N 90th St","City":"Scottsdale","State":"AZ","Zip":"85258"},{"Location":"CCMC","Address":"8360 E Via De Ventura L100","City":"Scottsdale","State":"AZ","Zip":"85258"},{"Location":"CEREUS PROPERTIES  LLC","Address":"8901 E Pima Center Pkwy 145","City":"Scottsdale","State":"AZ","Zip":"85258"},{"Location":"CHART HOUSE","Address":"7255 E Mccormick Pkwy","City":"Scottsdale","State":"AZ","Zip":"85258"},{"Location":"COLD STONE CREAMERY","Address":"9311 E Via De Ventura","City":"Scottsdale","State":"AZ","Zip":"85258"},{"Location":"COLONY AMERICAN HOMES","Address":"9305 E Via De Ventura 201","City":"Scottsdale","State":"AZ","Zip":"85258"},{"Location":"COMSTOCK MORTGAGE","Address":"9150 E Del Camino Dr 111","City":"Scottsdale","State":"AZ","Zip":"85258"},{"Location":"COUNTRY HORI ZONS","Address":"8731 E San Vicente Dr","City":"Scottsdale","State":"AZ","Zip":"85258"},{"Location":"COUNTRY HORIZONS","Address":"8731 E San Vicente Dr","City":"Scottsdale","State":"AZ","Zip":"85258"},{"Location":"DR BRUCE SCHWARTZ","Address":"8989 E Via Linda 216","City":"Scottsdale","State":"AZ","Zip":"85258"},{"Location":"EBAY%2C INC","Address":"9999 N 90th St","City":"Scottsdale","State":"AZ","Zip":"85258"},{"Location":"ESTATE PRESERVATION ADVISORS","Address":"8160 N Hayden Rd J-110","City":"Scottsdale","State":"AZ","Zip":"85258"},{"Location":"FIRST AMERICAN TITLE","Address":"9000 E Pima Center Pkwy","City":"Scottsdale","State":"AZ","Zip":"85258"},{"Location":"FIRST BANK OF ARIZONA","Address":"8922 E Via Linda","City":"Scottsdale","State":"AZ","Zip":"85258"},{"Location":"FLETCHERS TIRE AND AUTO","Address":"9396 N 90th St","City":"Scottsdale","State":"AZ","Zip":"85258"},{"Location":"FOREVER LIVING PRODUCTS INTL","Address":"7501 E Mccormick Pkwy","City":"Scottsdale","State":"AZ","Zip":"85258"},{"Location":"FRYS FOOD STORE 125","Address":"10450 N 90th St","City":"Scottsdale","State":"AZ","Zip":"85258"},{"Location":"GAINEY RANCH GOLF CLUB","Address":"7600 E Gainey Club Dr","City":"Scottsdale","State":"AZ","Zip":"85258"},{"Location":"GINNY'S STYLING STALL","Address":"9689 N Hayden Rd 41","City":"Scottsdale","State":"AZ","Zip":"85258"},{"Location":"GOLDIE'S","Address":"10135 E Via Linda E123","City":"Scottsdale","State":"AZ","Zip":"85258"},{"Location":"HEAD FARMER LLC","Address":"9237 E Via De Ventura 115","City":"Scottsdale","State":"AZ","Zip":"85258"},{"Location":"HEALTHCARE REALTY","Address":"8415 N Pima Rd 200","City":"Scottsdale","State":"AZ","Zip":"85258"},{"Location":"HEALTHCARE REALTY 1","Address":"8415 N Pima Rd 200","City":"Scottsdale","State":"AZ","Zip":"85258"},{"Location":"HYATT REGENCY - SCOTTSDALE","Address":"7500 E Doubletree Ranch Rd","City":"Scottsdale","State":"AZ","Zip":"85258"},{"Location":"HYATT REGENCY -LOBBY BAR","Address":"7500 E Doubletree Ranch Rd","City":"Scottsdale","State":"AZ","Zip":"85258"},{"Location":"HYATT REGENCY SCOTTSDALE-CASET","Address":"7500 E Doubletree Ranch Rd","City":"Scottsdale","State":"AZ","Zip":"85258"},{"Location":"IMPORT GENIUS","Address":"8901 E Pima Center Pkwy 105","City":"Scottsdale","State":"AZ","Zip":"85258"},{"Location":"JD'S AUTOMOTIVE","Address":"9550 N 90th St C104","City":"Scottsdale","State":"AZ","Zip":"85258"},{"Location":"JIFFY LUBE CORP OFFICE","Address":"9319 N 94th Way","City":"Scottsdale","State":"AZ","Zip":"85258"},{"Location":"LA FITNESS #127","Address":"7357 N Via Paseo Del Sur","City":"Scottsdale","State":"AZ","Zip":"85258"},{"Location":"LA PRIMA DONA","Address":"7704 E Doubletree Ranch Rd","City":"Scottsdale","State":"AZ","Zip":"85258"},{"Location":"LAPRE SCALI AND CO","Address":"8201 N Hayden Rd","City":"Scottsdale","State":"AZ","Zip":"85258"},{"Location":"LAS BRISAS","Address":"10201 N 100th St","City":"Scottsdale","State":"AZ","Zip":"85258"},{"Location":"LEROY JENKINS EVANG ASSOC","Address":"8130 Via Ve Negocio","City":"Scottsdale","State":"AZ","Zip":"85258"},{"Location":"MACARONI GRILL #1042","Address":"7245 E Gold Dust Ave","City":"Scottsdale","State":"AZ","Zip":"85258"},{"Location":"MCCORMICK D&D LLC","Address":"7353 N Via Paseo Del Sur","City":"Scottsdale","State":"AZ","Zip":"85258"},{"Location":"MCCORMICK RANCH","Address":"8250 N Via Paseo Del Norte","City":"Scottsdale","State":"AZ","Zip":"85258"},{"Location":"MONARCH WELLNESS CENTER","Address":"8729 E Manzanita Dr","City":"Scottsdale","State":"AZ","Zip":"85258"},{"Location":"MUTUAL OF OMAHA BANK","Address":"9200 E Pima Center Pkwy 260","City":"Scottsdale","State":"AZ","Zip":"85258"},{"Location":"NORTH AMERICAN LUBRICANTS","Address":"7337 E Doubletree Ranch Rd","City":"Scottsdale","State":"AZ","Zip":"85258"},{"Location":"PACIFIC DENTAL #268","Address":"10260 N 90th St 268","City":"Scottsdale","State":"AZ","Zip":"85258"},{"Location":"PINNACLE ONCOLOGY","Address":"9055 E Del Camino Dr","City":"Scottsdale","State":"AZ","Zip":"85258"},{"Location":"PINNACLE PEAK LENDING","Address":"8655 E Via De Ventura G151","City":"Scottsdale","State":"AZ","Zip":"85258"},{"Location":"PRO SPORT PERFORMANCE RE","Address":"8630 E Via De Ventura 101","City":"Scottsdale","State":"AZ","Zip":"85258"},{"Location":"PROFESSIONAL BARBER SHOP","Address":"9699 N Hayden Rd 101","City":"Scottsdale","State":"AZ","Zip":"85258"},{"Location":"QWIK CHINESE","Address":"7353 N Via Paseo Del Sur 490","City":"Scottsdale","State":"AZ","Zip":"85258"},{"Location":"QWIK CHINESE BISTRO","Address":"9030 E Via Linda","City":"Scottsdale","State":"AZ","Zip":"85258"},{"Location":"RAIN DANCE","Address":"9525 E Doubletree Ranch Rd 104","City":"Scottsdale","State":"AZ","Zip":"85258"},{"Location":"RUDOLPH AND HAMMOND LLC","Address":"8689 E San Alberto Dr","City":"Scottsdale","State":"AZ","Zip":"85258"},{"Location":"SABINO SALON","Address":"9689 N Hayden Rd","City":"Scottsdale","State":"AZ","Zip":"85258"},{"Location":"SAFEGUARD","Address":"8454 N 90th St","City":"Scottsdale","State":"AZ","Zip":"85258"},{"Location":"SALT RIVER FIELDS %40 TALKING","Address":"7555 N Pima Rd","City":"Scottsdale","State":"AZ","Zip":"85258"},{"Location":"SBS ENTERPRISES","Address":"9619 N Hayden Rd","City":"Scottsdale","State":"AZ","Zip":"85258"},{"Location":"SCOTTSDALE HEALTH CARE CARDIAC","Address":"9201 E E Mountain View Rd Ste 1","City":"Scottsdale","State":"AZ","Zip":"85258"},{"Location":"SCOTTSDALE RANCH COMMUNITY","Address":"10585 N 100th St","City":"Scottsdale","State":"AZ","Zip":"85258"},{"Location":"SCOTTSDALE RESORT & CONF CTR","Address":"7700 E Mccormick Pkwy","City":"Scottsdale","State":"AZ","Zip":"85258"},{"Location":"SIGNATURE CONSULTANTS","Address":"7975 N Hayden Rd 215","City":"Scottsdale","State":"AZ","Zip":"85258"},{"Location":"SPINE INSTITUTE OF ARIZONA","Address":"9735 N 90th Pl","City":"Scottsdale","State":"AZ","Zip":"85258"},{"Location":"STEVEN E WEISMAN MD PC","Address":"9445 E Ironwood Square Dr 100","City":"Scottsdale","State":"AZ","Zip":"85258"},{"Location":"STRYKER ORTHOPAEDICS","Address":"8901 E Pima Center Pkwy 240","City":"Scottsdale","State":"AZ","Zip":"85258"},{"Location":"STRYKER ORTHOPEDICS","Address":"9015 E Pima Center Pkwy 3","City":"Scottsdale","State":"AZ","Zip":"85258"},{"Location":"SUPER CLEANER","Address":"9030 E Via Linda","City":"Scottsdale","State":"AZ","Zip":"85258"},{"Location":"TAYLOR MORRISON","Address":"9000 E Pima Center Pkwy 350","City":"Scottsdale","State":"AZ","Zip":"85258"},{"Location":"TEAKWOODS SCOTTSDALE #1","Address":"8880 E Via Linda 106","City":"Scottsdale","State":"AZ","Zip":"85258"},{"Location":"TELESPHERE NETWORKS LTD","Address":"9237 E Via De Ventura 250","City":"Scottsdale","State":"AZ","Zip":"85258"},{"Location":"THE VIG SCOTTSDALE","Address":"7345 N Via Paseo Del Sur","City":"Scottsdale","State":"AZ","Zip":"85258"},{"Location":"VENTURA CLUBHOUSE GRILL","Address":"9261 E Via De Ventura 107","City":"Scottsdale","State":"AZ","Zip":"85258"},{"Location":"VENTURA MARKET LLC","Address":"9211 E Via De Ventura","City":"Scottsdale","State":"AZ","Zip":"85258"},{"Location":"VERTEX","Address":"9237 E Via De Ventura 205","City":"Scottsdale","State":"AZ","Zip":"85258"},{"Location":"WJ BRADLEY MORTGAGE CAPITAL","Address":"9237 E Via De Ventura","City":"Scottsdale","State":"AZ","Zip":"85258"},{"Location":"ZIPPS SPORTS GRILL","Address":"8380 E Via De Ventura G","City":"Scottsdale","State":"AZ","Zip":"85258"}]