[{"Location":"CONVENIENT CORNER MARKET 2","Address":"10810 East Vialinda","City":"Scottdale","State":"AZ","Zip":"85259"},{"Location":"AMERICAN WEALTH MANAGEME","Address":"11291 E Via Linda","City":"Scottsdale","State":"AZ","Zip":"85259"},{"Location":"ANCALA COUNTRY CLUB","Address":"11700 E Via Linda","City":"Scottsdale","State":"AZ","Zip":"85259"},{"Location":"BLUE ADOBE GRILLE","Address":"10885 N Frank Lloyd Wright Blvd","City":"Scottsdale","State":"AZ","Zip":"85259"},{"Location":"CASA MIA","Address":"11485 N 136th St 109","City":"Scottsdale","State":"AZ","Zip":"85259"},{"Location":"DR RICHARD FELDHAKE","Address":"10565 N 114th St","City":"Scottsdale","State":"AZ","Zip":"85259"},{"Location":"FENIX FINANCIAL FORENSIC LLC","Address":"10565 N 114th St 100","City":"Scottsdale","State":"AZ","Zip":"85259"},{"Location":"GEORGE & SON'S ASIAN CUISINE","Address":"11291 E Via Linda","City":"Scottsdale","State":"AZ","Zip":"85259"},{"Location":"GREAT AMERICA","Address":"10643 N Frank Lloyd Wright Blvd","City":"Scottsdale","State":"AZ","Zip":"85259"},{"Location":"JIFFY LUBE #1667","Address":"11243 E Via Linda","City":"Scottsdale","State":"AZ","Zip":"85259"},{"Location":"LYNNS NAILS AND SPA","Address":"11108 N Frank Lloyd Wright Blvd","City":"Scottsdale","State":"AZ","Zip":"85259"},{"Location":"MOUNTAINSIDE FITNESS CENTER","Address":"11611 E Sahuaro Dr","City":"Scottsdale","State":"AZ","Zip":"85259"},{"Location":"OVERLOOK AT SCOTTSDALE","Address":"13450 E Via Linda","City":"Scottsdale","State":"AZ","Zip":"85259"},{"Location":"SAFEWAY 1126","Address":"11275 E Via Linda","City":"Scottsdale","State":"AZ","Zip":"85259"},{"Location":"SHEA MEDICAL","Address":"12002 E Shea Blvd W4","City":"Scottsdale","State":"AZ","Zip":"85259"},{"Location":"SOUTHWEST DIRECT MORTGAGE","Address":"11672 E Shea Blvd","City":"Scottsdale","State":"AZ","Zip":"85259"},{"Location":"SPINATO'S PIZZA","Address":"11108 N Frank Lloyd Wright Blvd","City":"Scottsdale","State":"AZ","Zip":"85259"},{"Location":"ST BERNARD CLAIRVAUX","Address":"10755 N 124th St","City":"Scottsdale","State":"AZ","Zip":"85259"},{"Location":"VILLA LA PAWS UNLEASHED","Address":"11485 N 136th St","City":"Scottsdale","State":"AZ","Zip":"85259"},{"Location":"VITOS PIZZA AND ITALIAN","Address":"10999 N Frank Lloyd Wright Blvd","City":"Scottsdale","State":"AZ","Zip":"85259"},{"Location":"CONVENIENT CORNER MARKET 2","Address":"10810 East Vialinda","City":"Scottdale","State":"AZ","Zip":"85259"},{"Location":"AMERICAN WEALTH MANAGEME","Address":"11291 E Via Linda","City":"Scottsdale","State":"AZ","Zip":"85259"},{"Location":"ANCALA COUNTRY CLUB","Address":"11700 E Via Linda","City":"Scottsdale","State":"AZ","Zip":"85259"},{"Location":"BLUE ADOBE GRILLE","Address":"10885 N Frank Lloyd Wright Blvd","City":"Scottsdale","State":"AZ","Zip":"85259"},{"Location":"CASA MIA","Address":"11485 N 136th St 109","City":"Scottsdale","State":"AZ","Zip":"85259"},{"Location":"DR RICHARD FELDHAKE","Address":"10565 N 114th St","City":"Scottsdale","State":"AZ","Zip":"85259"},{"Location":"FENIX FINANCIAL FORENSIC LLC","Address":"10565 N 114th St 100","City":"Scottsdale","State":"AZ","Zip":"85259"},{"Location":"GEORGE & SON'S ASIAN CUISINE","Address":"11291 E Via Linda","City":"Scottsdale","State":"AZ","Zip":"85259"},{"Location":"GREAT AMERICA","Address":"10643 N Frank Lloyd Wright Blvd","City":"Scottsdale","State":"AZ","Zip":"85259"},{"Location":"JIFFY LUBE #1667","Address":"11243 E Via Linda","City":"Scottsdale","State":"AZ","Zip":"85259"},{"Location":"LYNNS NAILS AND SPA","Address":"11108 N Frank Lloyd Wright Blvd","City":"Scottsdale","State":"AZ","Zip":"85259"},{"Location":"MOUNTAINSIDE FITNESS CENTER","Address":"11611 E Sahuaro Dr","City":"Scottsdale","State":"AZ","Zip":"85259"},{"Location":"OVERLOOK AT SCOTTSDALE","Address":"13450 E Via Linda","City":"Scottsdale","State":"AZ","Zip":"85259"},{"Location":"SAFEWAY 1126","Address":"11275 E Via Linda","City":"Scottsdale","State":"AZ","Zip":"85259"},{"Location":"SHEA MEDICAL","Address":"12002 E Shea Blvd W4","City":"Scottsdale","State":"AZ","Zip":"85259"},{"Location":"SOUTHWEST DIRECT MORTGAGE","Address":"11672 E Shea Blvd","City":"Scottsdale","State":"AZ","Zip":"85259"},{"Location":"SPINATO'S PIZZA","Address":"11108 N Frank Lloyd Wright Blvd","City":"Scottsdale","State":"AZ","Zip":"85259"},{"Location":"ST BERNARD CLAIRVAUX","Address":"10755 N 124th St","City":"Scottsdale","State":"AZ","Zip":"85259"},{"Location":"VILLA LA PAWS UNLEASHED","Address":"11485 N 136th St","City":"Scottsdale","State":"AZ","Zip":"85259"},{"Location":"VITOS PIZZA AND ITALIAN","Address":"10999 N Frank Lloyd Wright Blvd","City":"Scottsdale","State":"AZ","Zip":"85259"}]