[{"Location":"AMERICAN CHIROPRACTIC CENTER","Address":"8417 E Mcdowell Rd","City":"Scottsdale","State":"AZ","Zip":"85257"},{"Location":"AMERICAN IRON FURNTURE2","Address":"1915 N Scottsdale Rd","City":"Scottsdale","State":"AZ","Zip":"85257"},{"Location":"BEI SUSHI BAR ASIAN CUIS","Address":"2200 N Scottsdale Rd","City":"Scottsdale","State":"AZ","Zip":"85257"},{"Location":"BLOOD SYSTEMS INC","Address":"6210 E Oak St","City":"Scottsdale","State":"AZ","Zip":"85257"},{"Location":"BRAKE MASTER","Address":"1901 N Scottsdale Rd","City":"Scottsdale","State":"AZ","Zip":"85257"},{"Location":"CERTIFIED AUTOMOTIVE AND","Address":"7224 E Mcdowell Rd","City":"Scottsdale","State":"AZ","Zip":"85257"},{"Location":"CERTIFIED BENZ AND BEEME","Address":"6725 E Mcdowell Rd","City":"Scottsdale","State":"AZ","Zip":"85257"},{"Location":"CERTIFIED BENZ AND BEEMER","Address":"6725 E Mcdowell Rd","City":"Scottsdale","State":"AZ","Zip":"85257"},{"Location":"CHAPMAN FORD","Address":"7100 E Mcdowell Rd","City":"Scottsdale","State":"AZ","Zip":"85257"},{"Location":"CSB","Address":"1395 N Hayden Rd","City":"Scottsdale","State":"AZ","Zip":"85257"},{"Location":"DISABLED AMERICAN VET","Address":"1510 N 79th St","City":"Scottsdale","State":"AZ","Zip":"85257"},{"Location":"DUKE'S BAR & GRILL","Address":"7607 E Mcdowell Rd 110","City":"Scottsdale","State":"AZ","Zip":"85257"},{"Location":"EDWARD JONES INV LEE HALL","Address":"2825 N Scottsdale Rd 152","City":"Scottsdale","State":"AZ","Zip":"85257"},{"Location":"EL DORADO BAR & GRILL","Address":"8708 E Mcdowell Rd","City":"Scottsdale","State":"AZ","Zip":"85257"},{"Location":"FED EX","Address":"1375 N Hayden Rd","City":"Scottsdale","State":"AZ","Zip":"85257"},{"Location":"FIRST CLASS AUTO SERVICE","Address":"2305 N Scottsdale Rd","City":"Scottsdale","State":"AZ","Zip":"85257"},{"Location":"FLICKA'S BAR & GRILL","Address":"2003 N Scottsdale Rd","City":"Scottsdale","State":"AZ","Zip":"85257"},{"Location":"FMC 62550000","Address":"1495 N Hayden Rd","City":"Scottsdale","State":"AZ","Zip":"85257"},{"Location":"FRASHERS RESTAURANT","Address":"2122 N Scottsdale Rd","City":"Scottsdale","State":"AZ","Zip":"85257"},{"Location":"G COLLECTION","Address":"602 N Hayden Rd","City":"Scottsdale","State":"AZ","Zip":"85257"},{"Location":"GENERAL DYNAMICS AIS","Address":"8201 E Mcdowell Rd 1235a","City":"Scottsdale","State":"AZ","Zip":"85257"},{"Location":"GENERAL DYNAMICS C4 SYSTEMS","Address":"8201 E Mcdowell Rd","City":"Scottsdale","State":"AZ","Zip":"85257"},{"Location":"GENERAL DYNAMICS DECISION SYS","Address":"8220 E Roosevelt St","City":"Scottsdale","State":"AZ","Zip":"85257"},{"Location":"GENERAL DYNAMICS SYSTEMS","Address":"8220 E Roosevelt St","City":"Scottsdale","State":"AZ","Zip":"85257"},{"Location":"GENERAL DYNAMICS SYSTEMS 1","Address":"8201 E Mcdowell Rd","City":"Scottsdale","State":"AZ","Zip":"85257"},{"Location":"GO GREEN BODY AND PAINT","Address":"7224 E Mcdowell Rd","City":"Scottsdale","State":"AZ","Zip":"85257"},{"Location":"GOLDBUG HOLDINGS","Address":"8040 E Mcdowell Rd A","City":"Scottsdale","State":"AZ","Zip":"85257"},{"Location":"JAXSONS","Address":"409 N Scottsdale Rd","City":"Scottsdale","State":"AZ","Zip":"85257"},{"Location":"JBYC CHINA GATE INC","Address":"7730 E Mcdowell Rd","City":"Scottsdale","State":"AZ","Zip":"85257"},{"Location":"JIFFY LUBE #1860","Address":"2727 N Scottsdale Rd","City":"Scottsdale","State":"AZ","Zip":"85257"},{"Location":"JIFFY LUBE #2094","Address":"7610 E Mcdowell Rd","City":"Scottsdale","State":"AZ","Zip":"85257"},{"Location":"LA FITNESS #122","Address":"1900 N Scottsdale Rd","City":"Scottsdale","State":"AZ","Zip":"85257"},{"Location":"LEVELS FITNESS AND NUTRICIAN","Address":"7607 E Mcdowell Rd 107","City":"Scottsdale","State":"AZ","Zip":"85257"},{"Location":"LIGHTNING LUBE","Address":"1025 N Scottsdale Rd","City":"Scottsdale","State":"AZ","Zip":"85257"},{"Location":"LIVE X AUTO  EXCHANGE","Address":"1723 N Scottsdale Rd","City":"Scottsdale","State":"AZ","Zip":"85257"},{"Location":"LOS SOMBREROS CAFE AND CANTINA","Address":"2534 N Scottsdale Rd","City":"Scottsdale","State":"AZ","Zip":"85257"},{"Location":"ON THE ROCKS","Address":"2515 N Scottsdale Rd","City":"Scottsdale","State":"AZ","Zip":"85257"},{"Location":"ONAUKMOR TRADING CENTER","Address":"8001 E Mckellips Rd","City":"Scottsdale","State":"AZ","Zip":"85257"},{"Location":"PAPAGO BREWING","Address":"7107 E Mcdowell Rd","City":"Scottsdale","State":"AZ","Zip":"85257"},{"Location":"PAPAGO PLAZA BARBER SHOP","Address":"1340 N Scottsdale Rd","City":"Scottsdale","State":"AZ","Zip":"85257"},{"Location":"PHO CAO RESTAURANT","Address":"7436 E Mcdowell Rd","City":"Scottsdale","State":"AZ","Zip":"85257"},{"Location":"PIZZA HUT 28604","Address":"7790 E Mcdowell Rd 102","City":"Scottsdale","State":"AZ","Zip":"85257"},{"Location":"PLAZA HEALTH CARE","Address":"1475 N Granite Reef Rd","City":"Scottsdale","State":"AZ","Zip":"85257"},{"Location":"POWER PAWS ASSISTANCE","Address":"1201 N 85th Pl 102","City":"Scottsdale","State":"AZ","Zip":"85257"},{"Location":"PUB ROCK","Address":"8005 E Roosevelt St","City":"Scottsdale","State":"AZ","Zip":"85257"},{"Location":"SAKURA","Address":"7101 E Mcdowell Rd","City":"Scottsdale","State":"AZ","Zip":"85257"},{"Location":"SCOTTSDALE PAINT AND BODY","Address":"350 N Hayden Rd","City":"Scottsdale","State":"AZ","Zip":"85257"},{"Location":"SCOTTSDL V.S. KIVA BLD","Address":"2620 N 68th St","City":"Scottsdale","State":"AZ","Zip":"85257"},{"Location":"SCOTTSDL V.S. VISTA WST","Address":"2620 N 68th St","City":"Scottsdale","State":"AZ","Zip":"85257"},{"Location":"SONIC DRIVE IN","Address":"2870 N Hayden Rd","City":"Scottsdale","State":"AZ","Zip":"85257"},{"Location":"SPORT CLIPS","Address":"7730 E Mcdowell Rd 106","City":"Scottsdale","State":"AZ","Zip":"85257"},{"Location":"TEMPTATIONS CAFE","Address":"8322 E Mcdowell Rd 107","City":"Scottsdale","State":"AZ","Zip":"85257"},{"Location":"THE BACK ALLEY BARBERSHOP","Address":"1623 N Granite Reef Rd","City":"Scottsdale","State":"AZ","Zip":"85257"},{"Location":"THE BRITISH OPEN PUB AND GRILL","Address":"1334 N Scottsdale Rd","City":"Scottsdale","State":"AZ","Zip":"85257"},{"Location":"THE PLAYA BAR","Address":"1615 N Granite Reef Rd","City":"Scottsdale","State":"AZ","Zip":"85257"},{"Location":"THE SALT CELLAR","Address":"550 N Hayden Rd","City":"Scottsdale","State":"AZ","Zip":"85257"},{"Location":"THE WELL BAR & LOUNGE","Address":"2623 N Scottsdale Rd","City":"Scottsdale","State":"AZ","Zip":"85257"},{"Location":"TICKET MASTER","Address":"1375 N Scottsdale Rd 200","City":"Scottsdale","State":"AZ","Zip":"85257"},{"Location":"VFW","Address":"7220 E Wilshire Dr","City":"Scottsdale","State":"AZ","Zip":"85257"},{"Location":"WESTERN HONDA","Address":"6717 E Mcdowell Rd","City":"Scottsdale","State":"AZ","Zip":"85257"},{"Location":"YF SCOTTSDALE","Address":"2845 N Scottsdale Rd","City":"Scottsdale","State":"AZ","Zip":"85257"},{"Location":"YUMMY YUMMY CHINESE FOOD","Address":"2765 N Scottsdale Rd 105","City":"Scottsdale","State":"AZ","Zip":"85257"},{"Location":"AMERICAN CHIROPRACTIC CENTER","Address":"8417 E Mcdowell Rd","City":"Scottsdale","State":"AZ","Zip":"85257"},{"Location":"AMERICAN IRON FURNTURE2","Address":"1915 N Scottsdale Rd","City":"Scottsdale","State":"AZ","Zip":"85257"},{"Location":"BEI SUSHI BAR ASIAN CUIS","Address":"2200 N Scottsdale Rd","City":"Scottsdale","State":"AZ","Zip":"85257"},{"Location":"BLOOD SYSTEMS INC","Address":"6210 E Oak St","City":"Scottsdale","State":"AZ","Zip":"85257"},{"Location":"BRAKE MASTER","Address":"1901 N Scottsdale Rd","City":"Scottsdale","State":"AZ","Zip":"85257"},{"Location":"CERTIFIED AUTOMOTIVE AND","Address":"7224 E Mcdowell Rd","City":"Scottsdale","State":"AZ","Zip":"85257"},{"Location":"CERTIFIED BENZ AND BEEME","Address":"6725 E Mcdowell Rd","City":"Scottsdale","State":"AZ","Zip":"85257"},{"Location":"CERTIFIED BENZ AND BEEMER","Address":"6725 E Mcdowell Rd","City":"Scottsdale","State":"AZ","Zip":"85257"},{"Location":"CHAPMAN FORD","Address":"7100 E Mcdowell Rd","City":"Scottsdale","State":"AZ","Zip":"85257"},{"Location":"CSB","Address":"1395 N Hayden Rd","City":"Scottsdale","State":"AZ","Zip":"85257"},{"Location":"DISABLED AMERICAN VET","Address":"1510 N 79th St","City":"Scottsdale","State":"AZ","Zip":"85257"},{"Location":"DUKE'S BAR & GRILL","Address":"7607 E Mcdowell Rd 110","City":"Scottsdale","State":"AZ","Zip":"85257"},{"Location":"EDWARD JONES INV LEE HALL","Address":"2825 N Scottsdale Rd 152","City":"Scottsdale","State":"AZ","Zip":"85257"},{"Location":"EL DORADO BAR & GRILL","Address":"8708 E Mcdowell Rd","City":"Scottsdale","State":"AZ","Zip":"85257"},{"Location":"FED EX","Address":"1375 N Hayden Rd","City":"Scottsdale","State":"AZ","Zip":"85257"},{"Location":"FIRST CLASS AUTO SERVICE","Address":"2305 N Scottsdale Rd","City":"Scottsdale","State":"AZ","Zip":"85257"},{"Location":"FLICKA'S BAR & GRILL","Address":"2003 N Scottsdale Rd","City":"Scottsdale","State":"AZ","Zip":"85257"},{"Location":"FMC 62550000","Address":"1495 N Hayden Rd","City":"Scottsdale","State":"AZ","Zip":"85257"},{"Location":"FRASHERS RESTAURANT","Address":"2122 N Scottsdale Rd","City":"Scottsdale","State":"AZ","Zip":"85257"},{"Location":"G COLLECTION","Address":"602 N Hayden Rd","City":"Scottsdale","State":"AZ","Zip":"85257"},{"Location":"GENERAL DYNAMICS AIS","Address":"8201 E Mcdowell Rd 1235a","City":"Scottsdale","State":"AZ","Zip":"85257"},{"Location":"GENERAL DYNAMICS C4 SYSTEMS","Address":"8201 E Mcdowell Rd","City":"Scottsdale","State":"AZ","Zip":"85257"},{"Location":"GENERAL DYNAMICS DECISION SYS","Address":"8220 E Roosevelt St","City":"Scottsdale","State":"AZ","Zip":"85257"},{"Location":"GENERAL DYNAMICS SYSTEMS","Address":"8220 E Roosevelt St","City":"Scottsdale","State":"AZ","Zip":"85257"},{"Location":"GENERAL DYNAMICS SYSTEMS 1","Address":"8201 E Mcdowell Rd","City":"Scottsdale","State":"AZ","Zip":"85257"},{"Location":"GO GREEN BODY AND PAINT","Address":"7224 E Mcdowell Rd","City":"Scottsdale","State":"AZ","Zip":"85257"},{"Location":"GOLDBUG HOLDINGS","Address":"8040 E Mcdowell Rd A","City":"Scottsdale","State":"AZ","Zip":"85257"},{"Location":"JAXSONS","Address":"409 N Scottsdale Rd","City":"Scottsdale","State":"AZ","Zip":"85257"},{"Location":"JBYC CHINA GATE INC","Address":"7730 E Mcdowell Rd","City":"Scottsdale","State":"AZ","Zip":"85257"},{"Location":"JIFFY LUBE #1860","Address":"2727 N Scottsdale Rd","City":"Scottsdale","State":"AZ","Zip":"85257"},{"Location":"JIFFY LUBE #2094","Address":"7610 E Mcdowell Rd","City":"Scottsdale","State":"AZ","Zip":"85257"},{"Location":"LA FITNESS #122","Address":"1900 N Scottsdale Rd","City":"Scottsdale","State":"AZ","Zip":"85257"},{"Location":"LEVELS FITNESS AND NUTRICIAN","Address":"7607 E Mcdowell Rd 107","City":"Scottsdale","State":"AZ","Zip":"85257"},{"Location":"LIGHTNING LUBE","Address":"1025 N Scottsdale Rd","City":"Scottsdale","State":"AZ","Zip":"85257"},{"Location":"LIVE X AUTO  EXCHANGE","Address":"1723 N Scottsdale Rd","City":"Scottsdale","State":"AZ","Zip":"85257"},{"Location":"LOS SOMBREROS CAFE AND CANTINA","Address":"2534 N Scottsdale Rd","City":"Scottsdale","State":"AZ","Zip":"85257"},{"Location":"ON THE ROCKS","Address":"2515 N Scottsdale Rd","City":"Scottsdale","State":"AZ","Zip":"85257"},{"Location":"ONAUKMOR TRADING CENTER","Address":"8001 E Mckellips Rd","City":"Scottsdale","State":"AZ","Zip":"85257"},{"Location":"PAPAGO BREWING","Address":"7107 E Mcdowell Rd","City":"Scottsdale","State":"AZ","Zip":"85257"},{"Location":"PAPAGO PLAZA BARBER SHOP","Address":"1340 N Scottsdale Rd","City":"Scottsdale","State":"AZ","Zip":"85257"},{"Location":"PHO CAO RESTAURANT","Address":"7436 E Mcdowell Rd","City":"Scottsdale","State":"AZ","Zip":"85257"},{"Location":"PIZZA HUT 28604","Address":"7790 E Mcdowell Rd 102","City":"Scottsdale","State":"AZ","Zip":"85257"},{"Location":"PLAZA HEALTH CARE","Address":"1475 N Granite Reef Rd","City":"Scottsdale","State":"AZ","Zip":"85257"},{"Location":"POWER PAWS ASSISTANCE","Address":"1201 N 85th Pl 102","City":"Scottsdale","State":"AZ","Zip":"85257"},{"Location":"PUB ROCK","Address":"8005 E Roosevelt St","City":"Scottsdale","State":"AZ","Zip":"85257"},{"Location":"SAKURA","Address":"7101 E Mcdowell Rd","City":"Scottsdale","State":"AZ","Zip":"85257"},{"Location":"SCOTTSDALE PAINT AND BODY","Address":"350 N Hayden Rd","City":"Scottsdale","State":"AZ","Zip":"85257"},{"Location":"SCOTTSDL V.S. KIVA BLD","Address":"2620 N 68th St","City":"Scottsdale","State":"AZ","Zip":"85257"},{"Location":"SCOTTSDL V.S. VISTA WST","Address":"2620 N 68th St","City":"Scottsdale","State":"AZ","Zip":"85257"},{"Location":"SONIC DRIVE IN","Address":"2870 N Hayden Rd","City":"Scottsdale","State":"AZ","Zip":"85257"},{"Location":"SPORT CLIPS","Address":"7730 E Mcdowell Rd 106","City":"Scottsdale","State":"AZ","Zip":"85257"},{"Location":"TEMPTATIONS CAFE","Address":"8322 E Mcdowell Rd 107","City":"Scottsdale","State":"AZ","Zip":"85257"},{"Location":"THE BACK ALLEY BARBERSHOP","Address":"1623 N Granite Reef Rd","City":"Scottsdale","State":"AZ","Zip":"85257"},{"Location":"THE BRITISH OPEN PUB AND GRILL","Address":"1334 N Scottsdale Rd","City":"Scottsdale","State":"AZ","Zip":"85257"},{"Location":"THE PLAYA BAR","Address":"1615 N Granite Reef Rd","City":"Scottsdale","State":"AZ","Zip":"85257"},{"Location":"THE SALT CELLAR","Address":"550 N Hayden Rd","City":"Scottsdale","State":"AZ","Zip":"85257"},{"Location":"THE WELL BAR & LOUNGE","Address":"2623 N Scottsdale Rd","City":"Scottsdale","State":"AZ","Zip":"85257"},{"Location":"TICKET MASTER","Address":"1375 N Scottsdale Rd 200","City":"Scottsdale","State":"AZ","Zip":"85257"},{"Location":"VFW","Address":"7220 E Wilshire Dr","City":"Scottsdale","State":"AZ","Zip":"85257"},{"Location":"WESTERN HONDA","Address":"6717 E Mcdowell Rd","City":"Scottsdale","State":"AZ","Zip":"85257"},{"Location":"YF SCOTTSDALE","Address":"2845 N Scottsdale Rd","City":"Scottsdale","State":"AZ","Zip":"85257"},{"Location":"YUMMY YUMMY CHINESE FOOD","Address":"2765 N Scottsdale Rd 105","City":"Scottsdale","State":"AZ","Zip":"85257"}]