[{"Location":"BOYS & GIRLS CLUB (SCOTTSDALE)","Address":"11889 E Glenrosa Dr","City":"Scottsdale","State":"AZ","Zip":"85256"},{"Location":"BOYS & GIRLS CLUB RED MOUNTAIN","Address":"10000 E Mcdowell Rd","City":"Scottsdale","State":"AZ","Zip":"85256"},{"Location":"BUTTERFLY WONDERLAND","Address":"9500 E Via De Ventura","City":"Scottsdale","State":"AZ","Zip":"85256"},{"Location":"CASINO ARIZONA AT SALT RIVER","Address":"524 N 92nd St","City":"Scottsdale","State":"AZ","Zip":"85256"},{"Location":"FMC 62350000","Address":"10301 E Osborn Rd","City":"Scottsdale","State":"AZ","Zip":"85256"},{"Location":"HCW SCOTTSDALE LLC","Address":"9550 E Indian Bend Rd","City":"Scottsdale","State":"AZ","Zip":"85256"},{"Location":"IDENTITY THEFT 911 LLC","Address":"7580 N Dobson Rd 201","City":"Scottsdale","State":"AZ","Zip":"85256"},{"Location":"ON AUK MOR","Address":"10115 E Mcdowell Rd","City":"Scottsdale","State":"AZ","Zip":"85256"},{"Location":"SALT RIVER PIMA MARICOPA","Address":"10005 E Osborn Rd","City":"Scottsdale","State":"AZ","Zip":"85256"},{"Location":"SR DOC - 0000107681","Address":"3213 N Longmore Rd","City":"Scottsdale","State":"AZ","Zip":"85256"},{"Location":"TALKING STICK","Address":"9998 E Indian Bend Rd","City":"Scottsdale","State":"AZ","Zip":"85256"},{"Location":"TALKING STICK RESORT & C","Address":"9800 E Indian Bend Rd","City":"Scottsdale","State":"AZ","Zip":"85256"},{"Location":"TALKING STICK RESORT & CASINO","Address":"9800 E Indian Bend Rd","City":"Scottsdale","State":"AZ","Zip":"85256"},{"Location":"TOP GOLF RIVERWALK","Address":"9500 E Indian Bend Rd","City":"Scottsdale","State":"AZ","Zip":"85256"},{"Location":"BOYS & GIRLS CLUB (SCOTTSDALE)","Address":"11889 E Glenrosa Dr","City":"Scottsdale","State":"AZ","Zip":"85256"},{"Location":"BOYS & GIRLS CLUB RED MOUNTAIN","Address":"10000 E Mcdowell Rd","City":"Scottsdale","State":"AZ","Zip":"85256"},{"Location":"BUTTERFLY WONDERLAND","Address":"9500 E Via De Ventura","City":"Scottsdale","State":"AZ","Zip":"85256"},{"Location":"CASINO ARIZONA AT SALT RIVER","Address":"524 N 92nd St","City":"Scottsdale","State":"AZ","Zip":"85256"},{"Location":"FMC 62350000","Address":"10301 E Osborn Rd","City":"Scottsdale","State":"AZ","Zip":"85256"},{"Location":"HCW SCOTTSDALE LLC","Address":"9550 E Indian Bend Rd","City":"Scottsdale","State":"AZ","Zip":"85256"},{"Location":"IDENTITY THEFT 911 LLC","Address":"7580 N Dobson Rd 201","City":"Scottsdale","State":"AZ","Zip":"85256"},{"Location":"ON AUK MOR","Address":"10115 E Mcdowell Rd","City":"Scottsdale","State":"AZ","Zip":"85256"},{"Location":"SALT RIVER PIMA MARICOPA","Address":"10005 E Osborn Rd","City":"Scottsdale","State":"AZ","Zip":"85256"},{"Location":"SR DOC - 0000107681","Address":"3213 N Longmore Rd","City":"Scottsdale","State":"AZ","Zip":"85256"},{"Location":"TALKING STICK","Address":"9998 E Indian Bend Rd","City":"Scottsdale","State":"AZ","Zip":"85256"},{"Location":"TALKING STICK RESORT & C","Address":"9800 E Indian Bend Rd","City":"Scottsdale","State":"AZ","Zip":"85256"},{"Location":"TALKING STICK RESORT & CASINO","Address":"9800 E Indian Bend Rd","City":"Scottsdale","State":"AZ","Zip":"85256"},{"Location":"TOP GOLF RIVERWALK","Address":"9500 E Indian Bend Rd","City":"Scottsdale","State":"AZ","Zip":"85256"}]