[{"Location":"BLANCO TACOS & TEQUFLA","Address":"6166 N Scottsdale Rd","City":"Paradise Valley","State":"AZ","Zip":"85253"},{"Location":"BLUE32 SCOTTSDALE","Address":"7293 N Scottsdale Rd 107","City":"Paradise Valley","State":"AZ","Zip":"85253"},{"Location":"CAMEL BACK INN","Address":"5402 E Lincoln Dr","City":"Paradise Valley","State":"AZ","Zip":"85253"},{"Location":"CAMELBACK INN MAIN LODGE","Address":"5402 E Lincoln Dr","City":"Paradise Valley","State":"AZ","Zip":"85253"},{"Location":"CHURCHILLS FINE CIGARS 2","Address":"10300 N Scottsdale Rd","City":"Paradise Valley","State":"AZ","Zip":"85253"},{"Location":"DA VINCI COUTURE","Address":"7001 N Scottsdale Rd 176","City":"Paradise Valley","State":"AZ","Zip":"85253"},{"Location":"EL CHORRO LODGE","Address":"5550 E Lincoln Dr","City":"Paradise Valley","State":"AZ","Zip":"85253"},{"Location":"EXETER FINANCIAL","Address":"7001 N Scottsdale Rd 1055","City":"Paradise Valley","State":"AZ","Zip":"85253"},{"Location":"FOGO DE CHAO","Address":"6300 N Scottsdale Rd","City":"Paradise Valley","State":"AZ","Zip":"85253"},{"Location":"HOMEWOOD SUITES(0011132)","Address":"9880 N Scottsdale Rd","City":"Paradise Valley","State":"AZ","Zip":"85253"},{"Location":"HOPPIN JACKS","Address":"5402 E Lincoln Dr","City":"Paradise Valley","State":"AZ","Zip":"85253"},{"Location":"IMH FINANCIAL CORP","Address":"7001 N Scottsdale Rd 2050","City":"Paradise Valley","State":"AZ","Zip":"85253"},{"Location":"INTERIM HOLDINGS LLC","Address":"4434 E Clearwater Pkwy","City":"Paradise Valley","State":"AZ","Zip":"85253"},{"Location":"MARJONI WEALTH MANAGEMENT","Address":"9244 N Invergordon Rd","City":"Paradise Valley","State":"AZ","Zip":"85253"},{"Location":"MILLENNIUM RESORT","Address":"7401 N Scottsdale Rd","City":"Paradise Valley","State":"AZ","Zip":"85253"},{"Location":"MONTELUCIA RESORT","Address":"4949 E Lincoln Dr","City":"Paradise Valley","State":"AZ","Zip":"85253"},{"Location":"OFF THE GRID FITNESS","Address":"10050 N Scottsdale Rd 111","City":"Paradise Valley","State":"AZ","Zip":"85253"},{"Location":"OLYMPIA MANAGEMENT","Address":"7001 N Scottsdale Rd 1040","City":"Paradise Valley","State":"AZ","Zip":"85253"},{"Location":"PARADISE VALLEY-TENNIS CLUB","Address":"7101 N Tatum Blvd","City":"Paradise Valley","State":"AZ","Zip":"85253"},{"Location":"PERFECT 10 NAIL SALON","Address":"10247 N Scottsdale Rd","City":"Paradise Valley","State":"AZ","Zip":"85253"},{"Location":"PIZZA HUT 29721","Address":"8912 E Pinnacle Peak Road F1","City":"Paradise Valley","State":"AZ","Zip":"85253"},{"Location":"PURE ENERGY TELECOM LLC","Address":"6163 N 61st Pl","City":"Paradise Valley","State":"AZ","Zip":"85253"},{"Location":"QUAYLE ASSOC","Address":"7001 N Scottsdale Rd 2055","City":"Paradise Valley","State":"AZ","Zip":"85253"},{"Location":"SALON STUDIOS","Address":"10201 N Scottsdale Rd","City":"Paradise Valley","State":"AZ","Zip":"85253"},{"Location":"SCOTTSDALE PLAZA RESORT","Address":"7200 N Scottsdale Rd","City":"Paradise Valley","State":"AZ","Zip":"85253"},{"Location":"SOI 4 BANKOK EATERY","Address":"8787 N Scottsdale Rd 104","City":"Paradise Valley","State":"AZ","Zip":"85253"},{"Location":"SPA CAMELBACK INN","Address":"5402 E Lincoln Dr","City":"Paradise Valley","State":"AZ","Zip":"85253"},{"Location":"SPERANZA GROUP","Address":"7001 N Scottsdale Rd 2016","City":"Paradise Valley","State":"AZ","Zip":"85253"},{"Location":"SSO 8TH LLC","Address":"4928 E Cottontail Run Rd","City":"Paradise Valley","State":"AZ","Zip":"85253"},{"Location":"THE COVE TRATTORIA","Address":"7001 N Scottsdale Rd","City":"Paradise Valley","State":"AZ","Zip":"85253"},{"Location":"THE DIRTY DOGG SALOON","Address":"10409 N Scottsdale Rd","City":"Paradise Valley","State":"AZ","Zip":"85253"},{"Location":"TOTTIE'S ASIAN FUSION","Address":"6204 N Scottsdale Rd 106","City":"Paradise Valley","State":"AZ","Zip":"85253"},{"Location":"VANDYKE LASER AND SKIN","Address":"5206 N Scottsdale Rd","City":"Paradise Valley","State":"AZ","Zip":"85253"},{"Location":"YOURPEOPLE INC","Address":"7500 N Mockingbird Ln","City":"Paradise Valley","State":"AZ","Zip":"85253"},{"Location":"ANGELONE BLDS CHAPARRAL","Address":"6935 E Gold Dust Ave F","City":"Scottsdale","State":"AZ","Zip":"85253"},{"Location":"BEACH CLUB LLC","Address":"7333 N Scottsdale Rd 201","City":"Scottsdale","State":"AZ","Zip":"85253"},{"Location":"BURGERS N FRIES","Address":"10392 N Scottsdale Rd 107","City":"Scottsdale","State":"AZ","Zip":"85253"},{"Location":"COMMERCE HOME MORTGAGE","Address":"7373 N Scottsdale Rd D115","City":"Scottsdale","State":"AZ","Zip":"85253"},{"Location":"ERNIE'S","Address":"10443 N Scottsdale Rd","City":"Scottsdale","State":"AZ","Zip":"85253"},{"Location":"EVENTPRO STRATEGIES","Address":"7373 N Scottsdale Rd B120","City":"Scottsdale","State":"AZ","Zip":"85253"},{"Location":"FIRST FINANCIAL EQUITY","Address":"7373 N Scottsdale Rd","City":"Scottsdale","State":"AZ","Zip":"85253"},{"Location":"JERSEY MIKES SUBS #9004","Address":"10392 N Scottsdale Rd 104","City":"Scottsdale","State":"AZ","Zip":"85253"},{"Location":"MEXKOR RESTAURANT GROUP","Address":"6560 N Scottsdale Rd","City":"Scottsdale","State":"AZ","Zip":"85253"},{"Location":"NAYA MEDITERRANEAN","Address":"8877 N Scottsdale Rd 402","City":"Scottsdale","State":"AZ","Zip":"85253"},{"Location":"NOTORIOUS BURGERS","Address":"8777 N Scottsdale Rd 308","City":"Scottsdale","State":"AZ","Zip":"85253"},{"Location":"NYPD PIZZA SHEA","Address":"10433 N Scottsdale Rd","City":"Scottsdale","State":"AZ","Zip":"85253"},{"Location":"PAUL MARTINS","Address":"6186 N Scottsdale Rd","City":"Scottsdale","State":"AZ","Zip":"85253"},{"Location":"RANCHO PINOT GRILL","Address":"6208 N Scottsdale Rd","City":"Scottsdale","State":"AZ","Zip":"85253"},{"Location":"ROKA RESTAURANTS LLC","Address":"7299 N Scottsdale Rd","City":"Scottsdale","State":"AZ","Zip":"85253"},{"Location":"SCOTTRADE 02C","Address":"7001 N Scottsdale Rd 140","City":"Scottsdale","State":"AZ","Zip":"85253"},{"Location":"SCOTTSDALE GOURMET ORIEN","Address":"10425 N Scottsdale Rd","City":"Scottsdale","State":"AZ","Zip":"85253"},{"Location":"TERROIR WINE BAR","Address":"7001 N Scottsdale Rd 157","City":"Scottsdale","State":"AZ","Zip":"85253"},{"Location":"THE DOWNSIDE RISK","Address":"8989 N Scottsdale Rd 608","City":"Scottsdale","State":"AZ","Zip":"85253"},{"Location":"TWO HEARTS LLC","Address":"8787 N Scottsdale Rd","City":"Scottsdale","State":"AZ","Zip":"85253"},{"Location":"WEED GROWTH FUND INC","Address":"7170 E Mcdonald Dr 3","City":"Scottsdale","State":"AZ","Zip":"85253"}]