[{"Location":"THE MODERNE","Address":"4848 N Goldwater Blvd","City":"Scottdale","State":"AZ","Zip":"85251"},{"Location":"1ST BANK 1","Address":"7602 E Indian School Rd","City":"Scottsdale","State":"AZ","Zip":"85251"},{"Location":"ABELS BARBER SHOP","Address":"3215 N Hayden Rd","City":"Scottsdale","State":"AZ","Zip":"85251"},{"Location":"AMERICAN LEGION","Address":"7145 E 2nd St","City":"Scottsdale","State":"AZ","Zip":"85251"},{"Location":"AMERISLEEP","Address":"7169 E Rancho Vista Dr","City":"Scottsdale","State":"AZ","Zip":"85251"},{"Location":"AMF SCOTTSDALE LANES","Address":"7300 E Thomas Rd","City":"Scottsdale","State":"AZ","Zip":"85251"},{"Location":"ANYTIME FITNESS #3160","Address":"7178 E Main St","City":"Scottsdale","State":"AZ","Zip":"85251"},{"Location":"ARIZONA COLLISION SPECIALIST","Address":"3034 N Scottsdale Rd","City":"Scottsdale","State":"AZ","Zip":"85251"},{"Location":"ARIZONA TASTE","Address":"6736 E Avalon Dr","City":"Scottsdale","State":"AZ","Zip":"85251"},{"Location":"BAD WATER BREWING LLC","Address":"4216 N Brown Ave","City":"Scottsdale","State":"AZ","Zip":"85251"},{"Location":"BARNEYS BOATHOUSE SCOTTS","Address":"7341 E 6th Ave","City":"Scottsdale","State":"AZ","Zip":"85251"},{"Location":"BARNEYS NEW YORK","Address":"4500 N Scottsdale Rd","City":"Scottsdale","State":"AZ","Zip":"85251"},{"Location":"BASIC TRAINNING","Address":"4390 N Miller Rd","City":"Scottsdale","State":"AZ","Zip":"85251"},{"Location":"BICYCLE HAUS","Address":"7113 E 1st Ave","City":"Scottsdale","State":"AZ","Zip":"85251"},{"Location":"BIG FISH","Address":"7000 E 1st Ave","City":"Scottsdale","State":"AZ","Zip":"85251"},{"Location":"BLACKBIRD NATURALS LLC","Address":"6836 E Camelback Rd B103","City":"Scottsdale","State":"AZ","Zip":"85251"},{"Location":"BOOTLEGGERS%3A MODERN AMERICAN S","Address":"7217 E 1st St","City":"Scottsdale","State":"AZ","Zip":"85251"},{"Location":"BOTTLED BLONDE","Address":"7340 E Indian Plz","City":"Scottsdale","State":"AZ","Zip":"85251"},{"Location":"BRACKINS BAR","Address":"7320 E Scottsdale Mall","City":"Scottsdale","State":"AZ","Zip":"85251"},{"Location":"BRAVO BISTRO","Address":"4327 N Scottsdale Rd","City":"Scottsdale","State":"AZ","Zip":"85251"},{"Location":"BREAKFAST CLUB","Address":"4400 N Scottsdale Rd","City":"Scottsdale","State":"AZ","Zip":"85251"},{"Location":"BUCA DI BEPPO #301","Address":"3828 N Scottsdale Rd","City":"Scottsdale","State":"AZ","Zip":"85251"},{"Location":"CAFE BESPOKE","Address":"3701 N Marshall Way","City":"Scottsdale","State":"AZ","Zip":"85251"},{"Location":"CAMELBACK MEDICAL CENTERS","Address":"4432 N Miller Rd 102","City":"Scottsdale","State":"AZ","Zip":"85251"},{"Location":"CANAL PARTNERS%2CLLC","Address":"7114 E Stetson Dr 350","City":"Scottsdale","State":"AZ","Zip":"85251"},{"Location":"CAPITAL WEST INSURANCE","Address":"7328 E Stetson Dr","City":"Scottsdale","State":"AZ","Zip":"85251"},{"Location":"CARLSBAD TAVERN","Address":"3313 N Hayden Rd","City":"Scottsdale","State":"AZ","Zip":"85251"},{"Location":"CASA BLANCA LOUNGE","Address":"7134 E Stetson Dr 400","City":"Scottsdale","State":"AZ","Zip":"85251"},{"Location":"CHANCES ON 6TH LLC","Address":"7570 E 6th Ave","City":"Scottsdale","State":"AZ","Zip":"85251"},{"Location":"CIEN AGAVES","Address":"7228 E 1st Ave","City":"Scottsdale","State":"AZ","Zip":"85251"},{"Location":"CIGNA HEALTH CARE OF ARIZONA","Address":"7287 E Earll Dr","City":"Scottsdale","State":"AZ","Zip":"85251"},{"Location":"CITIZEN CONCEPT LLC","Address":"7111 E 5th Ave","City":"Scottsdale","State":"AZ","Zip":"85251"},{"Location":"CITY MARKET DELI","Address":"4800 N Scottsdale Rd 1175","City":"Scottsdale","State":"AZ","Zip":"85251"},{"Location":"CLANCY'S","Address":"4432 N Miller Rd 107","City":"Scottsdale","State":"AZ","Zip":"85251"},{"Location":"CLAYTON ON THE PARK","Address":"7343 E Scottsdale Mall 1000","City":"Scottsdale","State":"AZ","Zip":"85251"},{"Location":"CLOSING SOON SALOON","Address":"3056 N 68th St","City":"Scottsdale","State":"AZ","Zip":"85251"},{"Location":"COACH HOUSE","Address":"7011 E Indian School Rd","City":"Scottsdale","State":"AZ","Zip":"85251"},{"Location":"COLD BEERS & CHEESBURGER","Address":"4222 N Scottsdale Rd","City":"Scottsdale","State":"AZ","Zip":"85251"},{"Location":"COPPER LEAF","Address":"4225 N Craftsman Ct","City":"Scottsdale","State":"AZ","Zip":"85251"},{"Location":"COWBOY CIAO","Address":"7133 E Stetson Dr","City":"Scottsdale","State":"AZ","Zip":"85251"},{"Location":"COZ INVESTMENTS","Address":"6896 E Camelback Rd","City":"Scottsdale","State":"AZ","Zip":"85251"},{"Location":"CRAFT 64 RESTAURANT","Address":"6922 E Main St","City":"Scottsdale","State":"AZ","Zip":"85251"},{"Location":"CULINARY DROPOUT","Address":"7135 E Camelback Rd 125","City":"Scottsdale","State":"AZ","Zip":"85251"},{"Location":"D.J.S OF SCOTTSDALE","Address":"7320 E Stetson Dr","City":"Scottsdale","State":"AZ","Zip":"85251"},{"Location":"DAILY DOSE","Address":"4020 N Scottsdale Rd 101","City":"Scottsdale","State":"AZ","Zip":"85251"},{"Location":"DENNYS","Address":"3315 N Scottsdale Rd","City":"Scottsdale","State":"AZ","Zip":"85251"},{"Location":"DERBY PUBLIC HOUSE","Address":"4420 N Saddlebag Trl 100","City":"Scottsdale","State":"AZ","Zip":"85251"},{"Location":"DERBY PUBLIC HOUSE 1","Address":"4420 N Saddlebag Trl","City":"Scottsdale","State":"AZ","Zip":"85251"},{"Location":"DICKEYS SCOTTSDALE 515","Address":"7919 E Thomas Rd 111","City":"Scottsdale","State":"AZ","Zip":"85251"},{"Location":"DIEGO POPS","Address":"4338 N Scottsdale Rd","City":"Scottsdale","State":"AZ","Zip":"85251"},{"Location":"DME III LLC","Address":"7125 E 5th Ave","City":"Scottsdale","State":"AZ","Zip":"85251"},{"Location":"DON AND CHARLIES","Address":"7501 E Camelback Rd","City":"Scottsdale","State":"AZ","Zip":"85251"},{"Location":"DOS GRINGOS","Address":"4209 N Craftsman Ct","City":"Scottsdale","State":"AZ","Zip":"85251"},{"Location":"DR.BRIAN DOLBERG","Address":"4390 N Miller Rd 106","City":"Scottsdale","State":"AZ","Zip":"85251"},{"Location":"DREAM BODY MEDICAL","Address":"3271 N Civic Center Plz 6","City":"Scottsdale","State":"AZ","Zip":"85251"},{"Location":"DS CAPS LLC","Address":"4017 N Scottsdale Rd 101","City":"Scottsdale","State":"AZ","Zip":"85251"},{"Location":"E TRADE FINANCIAL","Address":"7150 E Camelback Rd 120","City":"Scottsdale","State":"AZ","Zip":"85251"},{"Location":"EL CALDERO","Address":"7112 E Thomas Rd","City":"Scottsdale","State":"AZ","Zip":"85251"},{"Location":"EL HEFE","Address":"4425 N Saddlebag Trl","City":"Scottsdale","State":"AZ","Zip":"85251"},{"Location":"EQUITABLE    MORTGAGE","Address":"6831 E 5th Ave","City":"Scottsdale","State":"AZ","Zip":"85251"},{"Location":"EVO","Address":"4175 N Goldwater Blvd 6","City":"Scottsdale","State":"AZ","Zip":"85251"},{"Location":"FAMOUS SAM'S #29","Address":"7134 E Thomas Rd","City":"Scottsdale","State":"AZ","Zip":"85251"},{"Location":"FIRESKY REPORT & SPA(0040068)","Address":"4925 N Scottsdale Rd","City":"Scottsdale","State":"AZ","Zip":"85251"},{"Location":"FIRESTONE #024929","Address":"7531 E Camelback Rd","City":"Scottsdale","State":"AZ","Zip":"85251"},{"Location":"FIT REPUBLIC","Address":"7135 E Camelback Rd 235","City":"Scottsdale","State":"AZ","Zip":"85251"},{"Location":"FLAG WORLD CORP 2","Address":"4260 N Scottsdale Rd","City":"Scottsdale","State":"AZ","Zip":"85251"},{"Location":"FOOTHILLS REHAB","Address":"3225 N Civic Center Plz 10","City":"Scottsdale","State":"AZ","Zip":"85251"},{"Location":"FORUM PROPERTY SERVICES","Address":"4800 N Scottsdale Rd 1200","City":"Scottsdale","State":"AZ","Zip":"85251"},{"Location":"GELATO SPOT%2FSECOND STORY","Address":"4166 N Scottsdale Rd","City":"Scottsdale","State":"AZ","Zip":"85251"},{"Location":"GILIGIN'S","Address":"4251 N Winfield Scott Plz","City":"Scottsdale","State":"AZ","Zip":"85251"},{"Location":"GOLDWATER BANK","Address":"7150 E Camelback Rd","City":"Scottsdale","State":"AZ","Zip":"85251"},{"Location":"GRIMALDIS PIZZERIA","Address":"400 N Scottsdale Road 105","City":"Scottsdale","State":"AZ","Zip":"85251"},{"Location":"GUS'S NEW YORK PIZZA","Address":"7333 E Shoeman Ln","City":"Scottsdale","State":"AZ","Zip":"85251"},{"Location":"HAIR ON 5TH AVENUE","Address":"7121 E 5th Ave 24","City":"Scottsdale","State":"AZ","Zip":"85251"},{"Location":"HI-FI 1","Address":"4420 N Saddlebag Trl 110","City":"Scottsdale","State":"AZ","Zip":"85251"},{"Location":"HILTON GARDEN INN (0052002)","Address":"7324 E Indian Plz","City":"Scottsdale","State":"AZ","Zip":"85251"},{"Location":"HOTEL INDIGO","Address":"4415 N Civic Center Plz","City":"Scottsdale","State":"AZ","Zip":"85251"},{"Location":"IMORTGAGE","Address":"4800 N Scottsdale Rd 3800","City":"Scottsdale","State":"AZ","Zip":"85251"},{"Location":"INTEGRATE.COM","Address":"4900 N Scottsdale Rd 4000","City":"Scottsdale","State":"AZ","Zip":"85251"},{"Location":"INTEGRATED WEALTH MGT","Address":"4800 N Scottsdale Rd 1500","City":"Scottsdale","State":"AZ","Zip":"85251"},{"Location":"ITALIAN GROTTO","Address":"3915 N Scottsdale Rd","City":"Scottsdale","State":"AZ","Zip":"85251"},{"Location":"J & G STEAK HOUSE","Address":"6000 E Camelback Rd","City":"Scottsdale","State":"AZ","Zip":"85251"},{"Location":"JERSEY MIKES","Address":"7919 E Thomas Rd","City":"Scottsdale","State":"AZ","Zip":"85251"},{"Location":"JUST SPORTS","Address":"7014 E Camelback Rd","City":"Scottsdale","State":"AZ","Zip":"85251"},{"Location":"KALIBRE","Address":"7101 E Stetson Dr","City":"Scottsdale","State":"AZ","Zip":"85251"},{"Location":"KARSEN'S GRILL","Address":"7246 E 1st St 101","City":"Scottsdale","State":"AZ","Zip":"85251"},{"Location":"KELLYS AT SOUTH BRIDGE","Address":"7117 E 6th Ave","City":"Scottsdale","State":"AZ","Zip":"85251"},{"Location":"KONA GRILL #101","Address":"7014 E Camelback Rd 559","City":"Scottsdale","State":"AZ","Zip":"85251"},{"Location":"LAND ADVISORS ORGANIZATI","Address":"4900 N Scottsdale Rd 3000","City":"Scottsdale","State":"AZ","Zip":"85251"},{"Location":"LIBERTY TAX","Address":"2960 N Hayden Rd","City":"Scottsdale","State":"AZ","Zip":"85251"},{"Location":"LIVEWIRE ARIZONA LLC","Address":"7320 E Indian Plz","City":"Scottsdale","State":"AZ","Zip":"85251"},{"Location":"LOCO PATRON","Address":"4228 N Scottsdale Rd","City":"Scottsdale","State":"AZ","Zip":"85251"},{"Location":"LOLOS","Address":"3133 N Scottsdale Rd","City":"Scottsdale","State":"AZ","Zip":"85251"},{"Location":"LONG WONG","Address":"7124 E Thomas Rd","City":"Scottsdale","State":"AZ","Zip":"85251"},{"Location":"LOS OLIVOS","Address":"7328 E 2nd St","City":"Scottsdale","State":"AZ","Zip":"85251"},{"Location":"LTB CONCEPTS","Address":"4422 N 75th St","City":"Scottsdale","State":"AZ","Zip":"85251"},{"Location":"MACY'S WEST 450","Address":"7014 E Camelback Rd","City":"Scottsdale","State":"AZ","Zip":"85251"},{"Location":"MAGELLAN HEALTH  INC","Address":"4800 N Scottsdale Rd 4400","City":"Scottsdale","State":"AZ","Zip":"85251"},{"Location":"MAJERLES SPORTS GRILL SC","Address":"4425 N Saddlebag Trl","City":"Scottsdale","State":"AZ","Zip":"85251"},{"Location":"MASTRO'S CITY HALL STEAKHOUSE","Address":"6991 E Camelback Rd","City":"Scottsdale","State":"AZ","Zip":"85251"},{"Location":"MAURAN","Address":"4017 N Scottsdale Rd 102","City":"Scottsdale","State":"AZ","Zip":"85251"},{"Location":"METROPOLIS CAFE & BAR","Address":"7137 E Rancho Vista Dr B33","City":"Scottsdale","State":"AZ","Zip":"85251"},{"Location":"MICROSOFT - SCOTTSDALE","Address":"7014 E Camelback Rd 1288","City":"Scottsdale","State":"AZ","Zip":"85251"},{"Location":"MILLER BARBER SHOP","Address":"3940 N Miller Rd","City":"Scottsdale","State":"AZ","Zip":"85251"},{"Location":"MOMENTUM DEVELOPMENT","Address":"7120 E Indian School Rd","City":"Scottsdale","State":"AZ","Zip":"85251"},{"Location":"NATIONAL PEO","Address":"4800 N Scottsdale Rd 2000","City":"Scottsdale","State":"AZ","Zip":"85251"},{"Location":"NATIONAL WESTERN CAPITAL","Address":"7134 E Stetson Dr 400","City":"Scottsdale","State":"AZ","Zip":"85251"},{"Location":"NEANY INC","Address":"4800 N Scottsdale Rd 1275","City":"Scottsdale","State":"AZ","Zip":"85251"},{"Location":"NEIMAN MARCUS 1029","Address":"6900 E Camelback Rd","City":"Scottsdale","State":"AZ","Zip":"85251"},{"Location":"NORDSTROM SCOTTSDALE FASHION","Address":"7055 E Camelback Rd","City":"Scottsdale","State":"AZ","Zip":"85251"},{"Location":"NORTH AMERICAN CATTLE","Address":"6902 E 1st St 201","City":"Scottsdale","State":"AZ","Zip":"85251"},{"Location":"OLIVE GARDEN #1454","Address":"3380 N Scottsdale Rd 1454","City":"Scottsdale","State":"AZ","Zip":"85251"},{"Location":"ON Q FINANCIAL","Address":"4800 N Scottsdale Rd 4400","City":"Scottsdale","State":"AZ","Zip":"85251"},{"Location":"OPTIMA SONORAN","Address":"6895 E Camelback Rd","City":"Scottsdale","State":"AZ","Zip":"85251"},{"Location":"ORION INVESTMENT REAL ESTATE","Address":"7135 E Camelback Rd 202","City":"Scottsdale","State":"AZ","Zip":"85251"},{"Location":"OSIO 1","Address":"6961 E 1st St","City":"Scottsdale","State":"AZ","Zip":"85251"},{"Location":"PALO CRISTI INVESTMENTS","Address":"6750 E Camelback Rd 101","City":"Scottsdale","State":"AZ","Zip":"85251"},{"Location":"PASTA BRIONI","Address":"4416 N Miller Rd","City":"Scottsdale","State":"AZ","Zip":"85251"},{"Location":"PATTIES 1ST AVE LOUNGE","Address":"7220 E 1st Ave","City":"Scottsdale","State":"AZ","Zip":"85251"},{"Location":"PAWS SALON","Address":"6830 E 5th Ave","City":"Scottsdale","State":"AZ","Zip":"85251"},{"Location":"PEARL SUSHI","Address":"4252 N Drinkwater Blvd","City":"Scottsdale","State":"AZ","Zip":"85251"},{"Location":"PEPIN LLC","Address":"7363 E Scottsdale Mall","City":"Scottsdale","State":"AZ","Zip":"85251"},{"Location":"PF CHANG'S #9978","Address":"7135 E Camelback Rd 101","City":"Scottsdale","State":"AZ","Zip":"85251"},{"Location":"PHOENICIAN PRESIDENTIAL","Address":"6000 E Camelback Rd","City":"Scottsdale","State":"AZ","Zip":"85251"},{"Location":"PHOENICIAN RESORT","Address":"6000 E Camelback Rd","City":"Scottsdale","State":"AZ","Zip":"85251"},{"Location":"PHYSICS OF SCOTTSDALE","Address":"7144 E 5th Ave","City":"Scottsdale","State":"AZ","Zip":"85251"},{"Location":"PIG & PICKLE","Address":"2922 N Hayden Rd","City":"Scottsdale","State":"AZ","Zip":"85251"},{"Location":"PINK PONY","Address":"3831 N Scottsdale Rd","City":"Scottsdale","State":"AZ","Zip":"85251"},{"Location":"PLATINUM ASSET MANAGEMENT","Address":"6390 E Thomas Rd 118","City":"Scottsdale","State":"AZ","Zip":"85251"},{"Location":"POSA.INC","Address":"7229 E 1st Ave 203","City":"Scottsdale","State":"AZ","Zip":"85251"},{"Location":"PRANKSTERS TOO","Address":"7919 E Thomas Rd 101","City":"Scottsdale","State":"AZ","Zip":"85251"},{"Location":"PREMIER STRATEGY GROUP","Address":"4800 N Scottsdale Rd 2200","City":"Scottsdale","State":"AZ","Zip":"85251"},{"Location":"PURVER ULTIMATE BEV","Address":"3632 N Bishop Ln","City":"Scottsdale","State":"AZ","Zip":"85251"},{"Location":"QUEENS NAILS","Address":"4400 N Scottsdale Rd 8","City":"Scottsdale","State":"AZ","Zip":"85251"},{"Location":"R & B BABERSHOP","Address":"2910 N Hayden Rd 3","City":"Scottsdale","State":"AZ","Zip":"85251"},{"Location":"R N R","Address":"3737 N Scottsdale Rd","City":"Scottsdale","State":"AZ","Zip":"85251"},{"Location":"RC GORMAN NAVAJO","Address":"4251 N Marshall Way","City":"Scottsdale","State":"AZ","Zip":"85251"},{"Location":"REC MANAGEMENT INC","Address":"7525 E Camelback Rd 106","City":"Scottsdale","State":"AZ","Zip":"85251"},{"Location":"RED LOBSTER #0846","Address":"3360 N Scottsdale Rd","City":"Scottsdale","State":"AZ","Zip":"85251"},{"Location":"REHAB BURGER THERAPY","Address":"7210 E 2nd St","City":"Scottsdale","State":"AZ","Zip":"85251"},{"Location":"RELISH BURGER BISTRO","Address":"6000 E Camelback Rd","City":"Scottsdale","State":"AZ","Zip":"85251"},{"Location":"RICKYS TACOS AND BEER","Address":"7323 E Shoeman Ln","City":"Scottsdale","State":"AZ","Zip":"85251"},{"Location":"RIMA FINE ART","Address":"7130 E Main St","City":"Scottsdale","State":"AZ","Zip":"85251"},{"Location":"RIOT HOSPITALLITY GROUP","Address":"7525 E Camelback Rd 100","City":"Scottsdale","State":"AZ","Zip":"85251"},{"Location":"ROARING FORK","Address":"4800 N Scottsdale Rd 1700","City":"Scottsdale","State":"AZ","Zip":"85251"},{"Location":"ROC SOCIAL HOUSE","Address":"7419 E Indian Plz","City":"Scottsdale","State":"AZ","Zip":"85251"},{"Location":"ROCKBAR INC","Address":"4245 N Craftsman Ct","City":"Scottsdale","State":"AZ","Zip":"85251"},{"Location":"ROSE AND ALLYN RELATIONS","Address":"7144 E Stetson Dr 400","City":"Scottsdale","State":"AZ","Zip":"85251"},{"Location":"ROXANNES COUTURE","Address":"7079 E 5th Ave","City":"Scottsdale","State":"AZ","Zip":"85251"},{"Location":"RSVP SOCIAL CLUB","Address":"4301 N Civic Center Plz","City":"Scottsdale","State":"AZ","Zip":"85251"},{"Location":"RUYO","Address":"6900 E 2nd St","City":"Scottsdale","State":"AZ","Zip":"85251"},{"Location":"SAAHP","Address":"4800 N Scottsdale Rd 1250","City":"Scottsdale","State":"AZ","Zip":"85251"},{"Location":"SAINTS AND SCISSORS SALON","Address":"6934 E 5th Ave","City":"Scottsdale","State":"AZ","Zip":"85251"},{"Location":"SALON MODAFINA","Address":"4431 N 75th St","City":"Scottsdale","State":"AZ","Zip":"85251"},{"Location":"SALT RIVER PROJECT","Address":"6504 E Thomas Rd","City":"Scottsdale","State":"AZ","Zip":"85251"},{"Location":"SALTY SENORITA","Address":"3748 N Scottsdale Rd","City":"Scottsdale","State":"AZ","Zip":"85251"},{"Location":"SAN FRANCISCO GIANTS","Address":"8045 E Camelback Rd","City":"Scottsdale","State":"AZ","Zip":"85251"},{"Location":"SANTORINI SALON","Address":"7046 E Main St 108","City":"Scottsdale","State":"AZ","Zip":"85251"},{"Location":"SB4 LEASING LLC","Address":"7114 E Stetson Dr 400","City":"Scottsdale","State":"AZ","Zip":"85251"},{"Location":"SCOTT GRADEN LLC","Address":"8020 E Thomas Rd 317","City":"Scottsdale","State":"AZ","Zip":"85251"},{"Location":"SCOTTDALES BOONDOCKS","Address":"4341 N 75th St","City":"Scottsdale","State":"AZ","Zip":"85251"},{"Location":"SCOTTSDALE HEALTHCARE OSBORN","Address":"7400 E Osborn Rd","City":"Scottsdale","State":"AZ","Zip":"85251"},{"Location":"SCOTTSDALE POLICE DEPARTMENT","Address":"8401 E Indian School Rd","City":"Scottsdale","State":"AZ","Zip":"85251"},{"Location":"SCOTTSDALE PRIMARY CARE PC","Address":"7534 E 2nd St","City":"Scottsdale","State":"AZ","Zip":"85251"},{"Location":"SCOTTSDALE WATERFRONT","Address":"7181 E Camelback Rd 100","City":"Scottsdale","State":"AZ","Zip":"85251"},{"Location":"SCOTTSDALE WATERFRONT RESIDENC","Address":"7175 E Camelback Rd 100","City":"Scottsdale","State":"AZ","Zip":"85251"},{"Location":"SEMI PACK","Address":"8440 E Coolridge St","City":"Scottsdale","State":"AZ","Zip":"85251"},{"Location":"SERENE VALLEY ASSISTED","Address":"8704 E Amelia Ave","City":"Scottsdale","State":"AZ","Zip":"85251"},{"Location":"SHOTGUN BETTYS","Address":"7330 E Stetson Dr","City":"Scottsdale","State":"AZ","Zip":"85251"},{"Location":"SIMPLY DENTISTRY","Address":"7552 E Camelback Rd","City":"Scottsdale","State":"AZ","Zip":"85251"},{"Location":"SPIRITUAL GANGSTER","Address":"7119 E 1st Ave","City":"Scottsdale","State":"AZ","Zip":"85251"},{"Location":"SUSHI J","Address":"4320 N Miller Rd","City":"Scottsdale","State":"AZ","Zip":"85251"},{"Location":"SUSHI ROKU","Address":"7277 E Camelback Rd","City":"Scottsdale","State":"AZ","Zip":"85251"},{"Location":"SWRG PROPERTY SERVICE LL","Address":"7527 E 1st St","City":"Scottsdale","State":"AZ","Zip":"85251"},{"Location":"THE AGENCY LLC","Address":"6840 E Indian School Rd","City":"Scottsdale","State":"AZ","Zip":"85251"},{"Location":"THE AKARD FITNESS GROUP","Address":"3014 N Hayden Rd 102","City":"Scottsdale","State":"AZ","Zip":"85251"},{"Location":"THE BLIND PIG","Address":"3360 N Hayden Rd 116s","City":"Scottsdale","State":"AZ","Zip":"85251"},{"Location":"THE BLUE MOOSE","Address":"7373 E Scottsdale Mall","City":"Scottsdale","State":"AZ","Zip":"85251"},{"Location":"THE GARAGE SHOP","Address":"7144 E Stetson Dr C110","City":"Scottsdale","State":"AZ","Zip":"85251"},{"Location":"THE HERB BOX","Address":"7134 E Stetson Dr 200","City":"Scottsdale","State":"AZ","Zip":"85251"},{"Location":"THE MINT","Address":"7373 E Camelback Rd","City":"Scottsdale","State":"AZ","Zip":"85251"},{"Location":"THE MONTAUK","Address":"4360 N Scottsdale Rd","City":"Scottsdale","State":"AZ","Zip":"85251"},{"Location":"THE ORIGINAL BOOTLEGGER","Address":"7295 E Stetson Dr","City":"Scottsdale","State":"AZ","Zip":"85251"},{"Location":"THE PARK PLACE LLC","Address":"7373 E Scottsdale Mall 106","City":"Scottsdale","State":"AZ","Zip":"85251"},{"Location":"THE ROADRUNNER LOUNGE","Address":"3219 N Hayden Rd","City":"Scottsdale","State":"AZ","Zip":"85251"},{"Location":"THE RUSTY SPUR SALOON","Address":"7245 E Main St","City":"Scottsdale","State":"AZ","Zip":"85251"},{"Location":"THE SIDE DOOR","Address":"3370 N Hayden Rd 126","City":"Scottsdale","State":"AZ","Zip":"85251"},{"Location":"THE UNION BARRELHOUSE","Address":"3636 N Scottsdale Rd","City":"Scottsdale","State":"AZ","Zip":"85251"},{"Location":"THE UPTON","Address":"7216 E Shoeman Ln","City":"Scottsdale","State":"AZ","Zip":"85251"},{"Location":"THE WESTERN","Address":"6830 E 5th Ave","City":"Scottsdale","State":"AZ","Zip":"85251"},{"Location":"THIRSTY LION SCOTTSDALE","Address":"7014 E Camelback Rd","City":"Scottsdale","State":"AZ","Zip":"85251"},{"Location":"TITLA & PARSI PLLC","Address":"4800 N Scottsdale Rd 2900","City":"Scottsdale","State":"AZ","Zip":"85251"},{"Location":"TOMMY V","Address":"7303 E Indian School Rd","City":"Scottsdale","State":"AZ","Zip":"85251"},{"Location":"TOTTIES ASIAN FUSION","Address":"7901 E Thomas Rd","City":"Scottsdale","State":"AZ","Zip":"85251"},{"Location":"TRAVEL BY MAX","Address":"7525 E 6th Ave","City":"Scottsdale","State":"AZ","Zip":"85251"},{"Location":"TRIBE MULTISPORT","Address":"7624 E Indian School Rd 101","City":"Scottsdale","State":"AZ","Zip":"85251"},{"Location":"TRIYAR MANAGEMENT OF ARIZONA","Address":"4501 N Scottsdale Rd 201","City":"Scottsdale","State":"AZ","Zip":"85251"},{"Location":"TWO MEN AND A TRUCK","Address":"7039 E 6th St 101","City":"Scottsdale","State":"AZ","Zip":"85251"},{"Location":"TYC LLC","Address":"7301 E Indian Plz","City":"Scottsdale","State":"AZ","Zip":"85251"},{"Location":"UBS FINANCIAL SERVICES","Address":"4800 N Scottsdale Rd 4500","City":"Scottsdale","State":"AZ","Zip":"85251"},{"Location":"UNCLE SALSS","Address":"3370 N Hayden Rd","City":"Scottsdale","State":"AZ","Zip":"85251"},{"Location":"V I P MORTGAGE INC","Address":"4900 N Scottsdale Rd 6000","City":"Scottsdale","State":"AZ","Zip":"85251"},{"Location":"VALLEY ENT","Address":"3501 N Scottsdale Rd 160","City":"Scottsdale","State":"AZ","Zip":"85251"},{"Location":"VENUE OF SCOTTSDALE INC","Address":"7117 E 3rd Ave","City":"Scottsdale","State":"AZ","Zip":"85251"},{"Location":"W SCOTTSDALE HOTEL","Address":"7277 E Camelback Rd","City":"Scottsdale","State":"AZ","Zip":"85251"},{"Location":"WEEBLY SCOTTSDALE","Address":"4301 N Scottsdale Rd","City":"Scottsdale","State":"AZ","Zip":"85251"},{"Location":"WENDYS 608","Address":"3014 N Scottsdale Rd","City":"Scottsdale","State":"AZ","Zip":"85251"},{"Location":"WHISKEY ROW","Address":"4420 N Saddlebag Trl 105","City":"Scottsdale","State":"AZ","Zip":"85251"},{"Location":"WILDFISH SEAFOOD #8504","Address":"7135 E Camelback Rd 130","City":"Scottsdale","State":"AZ","Zip":"85251"},{"Location":"YARD HOUSE 8312","Address":"7014 E Camelback Rd 612","City":"Scottsdale","State":"AZ","Zip":"85251"},{"Location":"YOUTH RENEW FACE & BODY","Address":"4434 N Civic Center Plz 102","City":"Scottsdale","State":"AZ","Zip":"85251"},{"Location":"ZIPPS","Address":"7551 E Camelback Rd","City":"Scottsdale","State":"AZ","Zip":"85251"}]