[{"Location":"ALBERTSON'S #979","Address":"34442 N Scottsdale Rd","City":"Scottsdale","State":"AZ","Zip":"85266"},{"Location":"ANYTIME FITNESS","Address":"32409 N Scottsdale Rd 105","City":"Scottsdale","State":"AZ","Zip":"85266"},{"Location":"BLU BURGER","Address":"32409 N Scottsdale Rd 109","City":"Scottsdale","State":"AZ","Zip":"85266"},{"Location":"BRUGOS PIZZA COMPANY","Address":"34505 N Scottsdale Rd","City":"Scottsdale","State":"AZ","Zip":"85266"},{"Location":"CAREFREE COVERINGS","Address":"27250 N 64th St 4","City":"Scottsdale","State":"AZ","Zip":"85266"},{"Location":"CHERRY ON TOP","Address":"32421 N Scottsdale Rd 115","City":"Scottsdale","State":"AZ","Zip":"85266"},{"Location":"CIBO E VINO","Address":"34522 N Scottsdale Rd","City":"Scottsdale","State":"AZ","Zip":"85266"},{"Location":"HACIENDAS MEXICAN GRILL","Address":"32527 N Scottsdale Rd","City":"Scottsdale","State":"AZ","Zip":"85266"},{"Location":"NAILS FASHION BY HENRY","Address":"34522 N Scottsdale Rd 150","City":"Scottsdale","State":"AZ","Zip":"85266"},{"Location":"SCOTTSDALE FIRE STATION 615","Address":"31802 N Pima Rd","City":"Scottsdale","State":"AZ","Zip":"85266"},{"Location":"SPOTTED DONKEY","Address":"34505 N Scottsdale Rd G2","City":"Scottsdale","State":"AZ","Zip":"85266"},{"Location":"SUMMIT DINER","Address":"32531 N Scottsdale Rd","City":"Scottsdale","State":"AZ","Zip":"85266"},{"Location":"TARGET","Address":"32351 N Scottsdale Rd","City":"Scottsdale","State":"AZ","Zip":"85266"},{"Location":"WHISPER ROCK ESTATES","Address":"7999 E Whisper Rock Trl","City":"Scottsdale","State":"AZ","Zip":"85266"},{"Location":"WHISPER ROCK GOLF","Address":"32000 N Old Bridge Rd","City":"Scottsdale","State":"AZ","Zip":"85266"},{"Location":"ALBERTSON'S #979","Address":"34442 N Scottsdale Rd","City":"Scottsdale","State":"AZ","Zip":"85266"},{"Location":"ANYTIME FITNESS","Address":"32409 N Scottsdale Rd 105","City":"Scottsdale","State":"AZ","Zip":"85266"},{"Location":"BLU BURGER","Address":"32409 N Scottsdale Rd 109","City":"Scottsdale","State":"AZ","Zip":"85266"},{"Location":"BRUGOS PIZZA COMPANY","Address":"34505 N Scottsdale Rd","City":"Scottsdale","State":"AZ","Zip":"85266"},{"Location":"CAREFREE COVERINGS","Address":"27250 N 64th St 4","City":"Scottsdale","State":"AZ","Zip":"85266"},{"Location":"CHERRY ON TOP","Address":"32421 N Scottsdale Rd 115","City":"Scottsdale","State":"AZ","Zip":"85266"},{"Location":"CIBO E VINO","Address":"34522 N Scottsdale Rd","City":"Scottsdale","State":"AZ","Zip":"85266"},{"Location":"HACIENDAS MEXICAN GRILL","Address":"32527 N Scottsdale Rd","City":"Scottsdale","State":"AZ","Zip":"85266"},{"Location":"NAILS FASHION BY HENRY","Address":"34522 N Scottsdale Rd 150","City":"Scottsdale","State":"AZ","Zip":"85266"},{"Location":"SCOTTSDALE FIRE STATION 615","Address":"31802 N Pima Rd","City":"Scottsdale","State":"AZ","Zip":"85266"},{"Location":"SPOTTED DONKEY","Address":"34505 N Scottsdale Rd G2","City":"Scottsdale","State":"AZ","Zip":"85266"},{"Location":"SUMMIT DINER","Address":"32531 N Scottsdale Rd","City":"Scottsdale","State":"AZ","Zip":"85266"},{"Location":"TARGET","Address":"32351 N Scottsdale Rd","City":"Scottsdale","State":"AZ","Zip":"85266"},{"Location":"WHISPER ROCK ESTATES","Address":"7999 E Whisper Rock Trl","City":"Scottsdale","State":"AZ","Zip":"85266"},{"Location":"WHISPER ROCK GOLF","Address":"32000 N Old Bridge Rd","City":"Scottsdale","State":"AZ","Zip":"85266"}]