[{"Location":"QUIKEN LOANS-PHONEIX CALL CNTR","Address":"16425 North Pine Rd 200","City":"Scottdale","State":"AZ","Zip":"85260"},{"Location":"18 DEGREE NEIGHBORHOOD GRILL","Address":"9375 E Bell Rd","City":"Scottsdale","State":"AZ","Zip":"85260"},{"Location":"24 HOUR FITNESS #854","Address":"14150 N 100th St","City":"Scottsdale","State":"AZ","Zip":"85260"},{"Location":"7327 TIERREO BUENA LLC","Address":"7327 E Tierra Buena Ln","City":"Scottsdale","State":"AZ","Zip":"85260"},{"Location":"911 COLLISION CENTERS","Address":"15450 N 84th St","City":"Scottsdale","State":"AZ","Zip":"85260"},{"Location":"92ND ST CAFE","Address":"9160 E Shea Blvd","City":"Scottsdale","State":"AZ","Zip":"85260"},{"Location":"A BETTER TODAY","Address":"10609 N Hayden Rd","City":"Scottsdale","State":"AZ","Zip":"85260"},{"Location":"ABL WEALTH MANAGEMENT","Address":"8350 E Raintree Dr 250","City":"Scottsdale","State":"AZ","Zip":"85260"},{"Location":"ABOVE PARS PUBS LLC","Address":"14700 N Frank Lloyd Wright Blvd 159","City":"Scottsdale","State":"AZ","Zip":"85260"},{"Location":"ACADEMY MORTGAGE","Address":"15333 N Pima Rd","City":"Scottsdale","State":"AZ","Zip":"85260"},{"Location":"ACCREDITED APPLIANCE%2C INC.","Address":"8321 E Evans Rd 104","City":"Scottsdale","State":"AZ","Zip":"85260"},{"Location":"ADMINISTRATIVE SERVICES","Address":"7631 E Greenway Rd B2","City":"Scottsdale","State":"AZ","Zip":"85260"},{"Location":"AIRPARK TINT","Address":"14201 N Hayden Rd B3","City":"Scottsdale","State":"AZ","Zip":"85260"},{"Location":"ALKALINE 84 LLC","Address":"7730 E Greenway Rd","City":"Scottsdale","State":"AZ","Zip":"85260"},{"Location":"ALKALINE 88 LLC","Address":"14301 N 87th St 301","City":"Scottsdale","State":"AZ","Zip":"85260"},{"Location":"ALLIANCE DEFENDING FREED","Address":"15100 N 90th St","City":"Scottsdale","State":"AZ","Zip":"85260"},{"Location":"ALLOY ARTS","Address":"7720 E Redfield Rd 5","City":"Scottsdale","State":"AZ","Zip":"85260"},{"Location":"ALPINE 4","Address":"15589 N 77th St","City":"Scottsdale","State":"AZ","Zip":"85260"},{"Location":"AMERICAN CENTER FOR BIO MEDICI","Address":"9312 E Raintree Dr","City":"Scottsdale","State":"AZ","Zip":"85260"},{"Location":"AMERIFIRST FINANCIAL","Address":"1511 N Pima Rd","City":"Scottsdale","State":"AZ","Zip":"85260"},{"Location":"AMERPRISE","Address":"14274 N Northsight Blvd 100","City":"Scottsdale","State":"AZ","Zip":"85260"},{"Location":"ANNEXUS MANAGEMENT COMPANY","Address":"14287 N 87th St 220","City":"Scottsdale","State":"AZ","Zip":"85260"},{"Location":"ARIZONA BANK & TRUST","Address":"7555 E Redfield Rd","City":"Scottsdale","State":"AZ","Zip":"85260"},{"Location":"ARIZONA BANK AND TRUST","Address":"16767 N Perimeter Dr 105","City":"Scottsdale","State":"AZ","Zip":"85260"},{"Location":"ARIZONA CARS","Address":"14425 N 79th St A","City":"Scottsdale","State":"AZ","Zip":"85260"},{"Location":"ARIZONA COLLISION SPECIALIST","Address":"8295 E Raintree Dr","City":"Scottsdale","State":"AZ","Zip":"85260"},{"Location":"ARIZONA MANUAL THERAPY","Address":"16700 N Thompson Peak Pkwy 22","City":"Scottsdale","State":"AZ","Zip":"85260"},{"Location":"ARROW ELECTRIC%2C INC.","Address":"7707 E Acoma Dr 103","City":"Scottsdale","State":"AZ","Zip":"85260"},{"Location":"ARTHREX INC","Address":"9377 E Bell Rd 119","City":"Scottsdale","State":"AZ","Zip":"85260"},{"Location":"ARTISTIC DESIGN FAM DEN.","Address":"9377 E Bell Rd 347","City":"Scottsdale","State":"AZ","Zip":"85260"},{"Location":"ARTISTIC MASTER PEICES","Address":"15330 N Hayden Rd 101","City":"Scottsdale","State":"AZ","Zip":"85260"},{"Location":"AUDIO EXPRESS","Address":"15115 N Hayden Rd","City":"Scottsdale","State":"AZ","Zip":"85260"},{"Location":"AUDIO EXPRESS N HAYDEN","Address":"15115 N Hayden Rd","City":"Scottsdale","State":"AZ","Zip":"85260"},{"Location":"AZ CENTER FOR FERTILITY","Address":"8997 E Desert Cove Dr 2ndfl","City":"Scottsdale","State":"AZ","Zip":"85260"},{"Location":"AZCAL CONSTRUCTION","Address":"7740 E Redfield Rd 102","City":"Scottsdale","State":"AZ","Zip":"85260"},{"Location":"BAKERS BAY","Address":"14605 N 7 3rd St","City":"Scottsdale","State":"AZ","Zip":"85260"},{"Location":"BAMBOO CLUB ASIAN BISTRO","Address":"8624 E Shea Blvd","City":"Scottsdale","State":"AZ","Zip":"85260"},{"Location":"BANK OF AMERICA AZ3-917-01-01","Address":"14850 N Frank Lloyd Wright Blvd","City":"Scottsdale","State":"AZ","Zip":"85260"},{"Location":"BARBER SHOP EUROPEAN","Address":"14144 N 100th St 120","City":"Scottsdale","State":"AZ","Zip":"85260"},{"Location":"BARROS PIZZA","Address":"14850 N Frank Lloyd Wright Blvd","City":"Scottsdale","State":"AZ","Zip":"85260"},{"Location":"BASIL & GARLIC BISTRO","Address":"9330 E Poinsettia Dr","City":"Scottsdale","State":"AZ","Zip":"85260"},{"Location":"BE STITCHED NEEDLEPOINT","Address":"8658 E Shea Blvd 1","City":"Scottsdale","State":"AZ","Zip":"85260"},{"Location":"BELMONT VILLAGE SCOTTSDA","Address":"13850 N Frank Lloyd Wright Blvd","City":"Scottsdale","State":"AZ","Zip":"85260"},{"Location":"BIG CITY BAGELS","Address":"15680 N Pima Rd","City":"Scottsdale","State":"AZ","Zip":"85260"},{"Location":"BIG EYE SUSHI","Address":"14144 N 100th St B-130","City":"Scottsdale","State":"AZ","Zip":"85260"},{"Location":"BLACK AND BLEU","Address":"9343 E Shea Blvd 135","City":"Scottsdale","State":"AZ","Zip":"85260"},{"Location":"BLOOD SYSTEMS INC","Address":"15170 N Hayden Rd 6","City":"Scottsdale","State":"AZ","Zip":"85260"},{"Location":"BROUGHTON","Address":"8765 E Bell Rd 204","City":"Scottsdale","State":"AZ","Zip":"85260"},{"Location":"BUFFALO WILD WINGS #0489","Address":"7401 E Frank Lloyd Wright Blvd","City":"Scottsdale","State":"AZ","Zip":"85260"},{"Location":"BULLSEYE CYCLE","Address":"8361 E Evans Rd Unit1","City":"Scottsdale","State":"AZ","Zip":"85260"},{"Location":"BUR OF ALCOHOL TOBACCO & FIRE","Address":"16009 N 81st St 100","City":"Scottsdale","State":"AZ","Zip":"85260"},{"Location":"C C PARTNERS","Address":"14080 N Northsight Blvd","City":"Scottsdale","State":"AZ","Zip":"85260"},{"Location":"CABLE SHOPPING NETWORK","Address":"15945 N 76th St","City":"Scottsdale","State":"AZ","Zip":"85260"},{"Location":"CACTUS MAILING CO","Address":"16121 N 78th St 103","City":"Scottsdale","State":"AZ","Zip":"85260"},{"Location":"CALIBER COMMERCIAL GROUP","Address":"16700 N Thompson Peak Pkwy 14","City":"Scottsdale","State":"AZ","Zip":"85260"},{"Location":"CALIBER COMPANIES","Address":"16074 N 78th St B104","City":"Scottsdale","State":"AZ","Zip":"85260"},{"Location":"CAMELOT FARMS INC 1","Address":"12051 N 96th St","City":"Scottsdale","State":"AZ","Zip":"85260"},{"Location":"CANTINA LAREDO","Address":"7361 E Frank Lloyd Wright Blvd","City":"Scottsdale","State":"AZ","Zip":"85260"},{"Location":"CAPRIOTTIS SANDWICH SHOP","Address":"15227 N 87th St 107","City":"Scottsdale","State":"AZ","Zip":"85260"},{"Location":"CARD FLIP","Address":"7721 E Gray Rd 202","City":"Scottsdale","State":"AZ","Zip":"85260"},{"Location":"CARDINAL FLOOR COVERING","Address":"14255 N 79th St 4","City":"Scottsdale","State":"AZ","Zip":"85260"},{"Location":"CASTLE GATE","Address":"15979 N 76th St A","City":"Scottsdale","State":"AZ","Zip":"85260"},{"Location":"CB RICHARDS ELLIS","Address":"14500 N Northsight Blvd","City":"Scottsdale","State":"AZ","Zip":"85260"},{"Location":"CED","Address":"14855 N 78th Way","City":"Scottsdale","State":"AZ","Zip":"85260"},{"Location":"CED 2","Address":"14980 N 78th Way 205","City":"Scottsdale","State":"AZ","Zip":"85260"},{"Location":"CENTRESTAGEDANCE","Address":"7399 E Tierra Buena Ln","City":"Scottsdale","State":"AZ","Zip":"85260"},{"Location":"CF6%2CLLC","Address":"14891 N Northsight Blvd 121","City":"Scottsdale","State":"AZ","Zip":"85260"},{"Location":"CHAMPION FIELD","Address":"8763 E Bell Rd","City":"Scottsdale","State":"AZ","Zip":"85260"},{"Location":"CHICAGO TITLE","Address":"14200 N Northsight Blvd Ste 1","City":"Scottsdale","State":"AZ","Zip":"85260"},{"Location":"CHILI'S #0305","Address":"8612 E Shea Blvd","City":"Scottsdale","State":"AZ","Zip":"85260"},{"Location":"CHIRO MED CENTER","Address":"14269 N 87th St 101","City":"Scottsdale","State":"AZ","Zip":"85260"},{"Location":"CHOMPIES-SCOTTSDALE","Address":"9301 E Shea Blvd 129","City":"Scottsdale","State":"AZ","Zip":"85260"},{"Location":"CIGAR KING","Address":"7830 E Gelding Dr","City":"Scottsdale","State":"AZ","Zip":"85260"},{"Location":"CLARK WAYLAND","Address":"15170 N Hayden Rd 2","City":"Scottsdale","State":"AZ","Zip":"85260"},{"Location":"COAL BRICK OVEN PIZZERIA","Address":"15005 N Northsight Blvd","City":"Scottsdale","State":"AZ","Zip":"85260"},{"Location":"COBBLESTONE AUTO SPA","Address":"15816 N Pima Rd","City":"Scottsdale","State":"AZ","Zip":"85260"},{"Location":"COLE WEALTH MANAGEMENT","Address":"14301 N 87th St 307","City":"Scottsdale","State":"AZ","Zip":"85260"},{"Location":"COMPAK ASSET MANAGEMENT","Address":"8865 E Bell Rd 201","City":"Scottsdale","State":"AZ","Zip":"85260"},{"Location":"CONVENIENT CORNER MARKET","Address":"9330 E Poinsettia Dr 108","City":"Scottsdale","State":"AZ","Zip":"85260"},{"Location":"CORLEONES SCOTTSDALE","Address":"15040 N Northsight Blvd","City":"Scottsdale","State":"AZ","Zip":"85260"},{"Location":"CORSO AND RHUDE","Address":"14500 N Northsight Blvd 116","City":"Scottsdale","State":"AZ","Zip":"85260"},{"Location":"COUNTRY FINANCIAL","Address":"14301 N 87th St 304","City":"Scottsdale","State":"AZ","Zip":"85260"},{"Location":"CRC BROADCASTING","Address":"8145 E Evans Rd 8","City":"Scottsdale","State":"AZ","Zip":"85260"},{"Location":"CREATIVE DENTAL LAB","Address":"14201 N 87th St A105","City":"Scottsdale","State":"AZ","Zip":"85260"},{"Location":"CULVERS OF SCOTTSDALE","Address":"8668 E Shea Blvd","City":"Scottsdale","State":"AZ","Zip":"85260"},{"Location":"CUSTOM HOLIDAY LIGHTS","Address":"15855 N Greenway Hayden Loop 130","City":"Scottsdale","State":"AZ","Zip":"85260"},{"Location":"CVS CAREMARK","Address":"9501 E Shea Blvd","City":"Scottsdale","State":"AZ","Zip":"85260"},{"Location":"DCDN PROPERTYS LLC","Address":"7498 E Monte Cristo Ave","City":"Scottsdale","State":"AZ","Zip":"85260"},{"Location":"DELTA VIDEO PRODUCTIONS","Address":"7600 E Redfield Rd 175","City":"Scottsdale","State":"AZ","Zip":"85260"},{"Location":"DICKEYS BBQ","Address":"7337 E Shea Blvd","City":"Scottsdale","State":"AZ","Zip":"85260"},{"Location":"DILLON AERO","Address":"8009 E Dillons Way","City":"Scottsdale","State":"AZ","Zip":"85260"},{"Location":"DR WILLIAM LEIGHTON","Address":"7425 East Shey Blvd Ste 103","City":"Scottsdale","State":"AZ","Zip":"85260"},{"Location":"DUBUQUE BANK AND TRUST","Address":"16767 N Perimeter Dr 105","City":"Scottsdale","State":"AZ","Zip":"85260"},{"Location":"EGAN","Address":"16700 N Thompson Peak Pkwy 170","City":"Scottsdale","State":"AZ","Zip":"85260"},{"Location":"EPIC WATCH & JEWELRY","Address":"7641 E Gray Rd B1","City":"Scottsdale","State":"AZ","Zip":"85260"},{"Location":"FATE BREWING COMPANY LLC1","Address":"7337 E Shea Blvd 105","City":"Scottsdale","State":"AZ","Zip":"85260"},{"Location":"FEDERICOS MEXICAN FOOD","Address":"14144 N 100th St B100","City":"Scottsdale","State":"AZ","Zip":"85260"},{"Location":"FIESTA FURNISHINGS","Address":"15320 N Hayden Rd","City":"Scottsdale","State":"AZ","Zip":"85260"},{"Location":"FIRST CUP FLW AND 87 LLC","Address":"15223 N 87th St 125","City":"Scottsdale","State":"AZ","Zip":"85260"},{"Location":"FIRST INTERNATIONAL BANK","Address":"7900 E Raintree Dr","City":"Scottsdale","State":"AZ","Zip":"85260"},{"Location":"FIRST SCOTTSDALE","Address":"15190 N Hayden Rd","City":"Scottsdale","State":"AZ","Zip":"85260"},{"Location":"FMC 62510000","Address":"16101 N 82nd St","City":"Scottsdale","State":"AZ","Zip":"85260"},{"Location":"GAYLORD SPORTS MANAGEMENTS","Address":"13845 N Northsight Blvd 200","City":"Scottsdale","State":"AZ","Zip":"85260"},{"Location":"GERBER COLLISION AND  GLASS","Address":"8150 E Raintree Dr","City":"Scottsdale","State":"AZ","Zip":"85260"},{"Location":"GLOBAL CYNERGIES","Address":"8080 E Gelding Dr 110d","City":"Scottsdale","State":"AZ","Zip":"85260"},{"Location":"GLOBAL DUPLICATION","Address":"15820 N 84th St","City":"Scottsdale","State":"AZ","Zip":"85260"},{"Location":"GLOW PUTT MINI GOLF","Address":"9160 E Shea Blvd","City":"Scottsdale","State":"AZ","Zip":"85260"},{"Location":"GO AZ MOTORCYCLES","Address":"15750 N Northsight Blvd","City":"Scottsdale","State":"AZ","Zip":"85260"},{"Location":"GOLF LOGIX","Address":"15685 N Greenway Hayden Loop","City":"Scottsdale","State":"AZ","Zip":"85260"},{"Location":"GOLFSMITH #050","Address":"15452 N Pima Rd","City":"Scottsdale","State":"AZ","Zip":"85260"},{"Location":"GOODFELLAS BARBERSHOP","Address":"14884 N Pima Rd 104","City":"Scottsdale","State":"AZ","Zip":"85260"},{"Location":"GYROS EXPRESS","Address":"9301 E Shea Blvd 109","City":"Scottsdale","State":"AZ","Zip":"85260"},{"Location":"HARLEY DAVIDSON ON SCOTTSDALE","Address":"15600 N Hayden Rd","City":"Scottsdale","State":"AZ","Zip":"85260"},{"Location":"HEAD 2 HEAD SPORTS","Address":"8145 E Evans Rd 3","City":"Scottsdale","State":"AZ","Zip":"85260"},{"Location":"HOT STIX GOLF","Address":"15444 N 76th St 110","City":"Scottsdale","State":"AZ","Zip":"85260"},{"Location":"HPN GLOBAL LLC","Address":"13825 N Northsight Blvd 201","City":"Scottsdale","State":"AZ","Zip":"85260"},{"Location":"HSL FINANCIAL GROUP","Address":"15454 N Frank Lloyd Wright Blvd","City":"Scottsdale","State":"AZ","Zip":"85260"},{"Location":"I.C.E.","Address":"15501 N Dial Blvd","City":"Scottsdale","State":"AZ","Zip":"85260"},{"Location":"ILCAPO PIZZERIA","Address":"7366 E Shea Blvd","City":"Scottsdale","State":"AZ","Zip":"85260"},{"Location":"IMAGINE BACKYARD","Address":"15551 N Greenway Hayden Loop 100","City":"Scottsdale","State":"AZ","Zip":"85260"},{"Location":"INGRAM MICRO","Address":"15880 N Greenway Hayden L 150","City":"Scottsdale","State":"AZ","Zip":"85260"},{"Location":"INTERNATIONAL COLOR SERVICES","Address":"15550 N 84th St 105","City":"Scottsdale","State":"AZ","Zip":"85260"},{"Location":"ISS SCOTTSDALE 209","Address":"14455 N Hayden Rd 209","City":"Scottsdale","State":"AZ","Zip":"85260"},{"Location":"ISS SCOTTSDALE 226","Address":"14455 N Hayden Rd 226","City":"Scottsdale","State":"AZ","Zip":"85260"},{"Location":"ISS SCOTTSDALE D","Address":"14455 N Hayden Rd D","City":"Scottsdale","State":"AZ","Zip":"85260"},{"Location":"ISS SCOTTSDALE EXEC","Address":"14455 N Hayden Rd","City":"Scottsdale","State":"AZ","Zip":"85260"},{"Location":"J D SAMUELSON GROUP","Address":"15720 N Greenway Hayden Loop 7","City":"Scottsdale","State":"AZ","Zip":"85260"},{"Location":"JADE PALACE","Address":"9160 East Shay Blvd","City":"Scottsdale","State":"AZ","Zip":"85260"},{"Location":"JAWA LLC","Address":"9363 E Bahia Dr","City":"Scottsdale","State":"AZ","Zip":"85260"},{"Location":"JERSEY MIKES SUBS #9009","Address":"15807 E Frank Lloyd Wright","City":"Scottsdale","State":"AZ","Zip":"85260"},{"Location":"JIFFY LUBE #1931","Address":"14707 N Frank Lloyd Wright Blvd","City":"Scottsdale","State":"AZ","Zip":"85260"},{"Location":"JONES","Address":"15547 N 77th St","City":"Scottsdale","State":"AZ","Zip":"85260"},{"Location":"JR CARLSON COMP","Address":"16700 N Thompson Peak Pkwy 230","City":"Scottsdale","State":"AZ","Zip":"85260"},{"Location":"JSC MOTORCARS","Address":"7863 E Mcclain Dr 2","City":"Scottsdale","State":"AZ","Zip":"85260"},{"Location":"JULIA BAKER CONFECTIONS","Address":"7440 E Karen Dr 500","City":"Scottsdale","State":"AZ","Zip":"85260"},{"Location":"K O'DONNELLS","Address":"14850 N Northsight Blvd","City":"Scottsdale","State":"AZ","Zip":"85260"},{"Location":"KATHYS NAIL STUDIOS","Address":"7337 E Shea Blvd 6","City":"Scottsdale","State":"AZ","Zip":"85260"},{"Location":"KEVIN B CEBRYNSKI DDS PC","Address":"9097 E Desert Cove Dr 240","City":"Scottsdale","State":"AZ","Zip":"85260"},{"Location":"LA FITNESS 01137","Address":"7330 E Shea Blvd","City":"Scottsdale","State":"AZ","Zip":"85260"},{"Location":"LA FONDA DEL SOL INC","Address":"7223 E Shea Blvd","City":"Scottsdale","State":"AZ","Zip":"85260"},{"Location":"LANDMARK PHYSICAL THERAPY","Address":"9364 E Raintree Dr 103","City":"Scottsdale","State":"AZ","Zip":"85260"},{"Location":"LASER SPINE INSTITUTE","Address":"8888 E Raintree Dr","City":"Scottsdale","State":"AZ","Zip":"85260"},{"Location":"LIFE TIME FITNESS","Address":"8642 E Shea Blvd","City":"Scottsdale","State":"AZ","Zip":"85260"},{"Location":"LING & LOIUES","Address":"9397 E Shea Blvd 125","City":"Scottsdale","State":"AZ","Zip":"85260"},{"Location":"LIQUOR VAULT","Address":"9301 E Shea Blvd 133","City":"Scottsdale","State":"AZ","Zip":"85260"},{"Location":"LOAN DEPOT 7","Address":"14000 N Pima Rd 150","City":"Scottsdale","State":"AZ","Zip":"85260"},{"Location":"LOS AMBRELOS","Address":"14795 N Northsight Blvd","City":"Scottsdale","State":"AZ","Zip":"85260"},{"Location":"LOS OLIVOS NORTE","Address":"15544 N Pima Rd","City":"Scottsdale","State":"AZ","Zip":"85260"},{"Location":"LOU GRUBB FORD","Address":"8555 E Frank Lloyd Wright Blvd","City":"Scottsdale","State":"AZ","Zip":"85260"},{"Location":"MAGELLAN HEALTH INC","Address":"15950 N 76th St 200","City":"Scottsdale","State":"AZ","Zip":"85260"},{"Location":"MARCOLIN USA","Address":"7543 E Tierra Buena Ln","City":"Scottsdale","State":"AZ","Zip":"85260"},{"Location":"MASS MUTUAL","Address":"14362 N Frank Lloyd Wright Blvd 2600","City":"Scottsdale","State":"AZ","Zip":"85260"},{"Location":"MCCLARREN OF SCOTTSDALE 2","Address":"8355 E Raintree Dr","City":"Scottsdale","State":"AZ","Zip":"85260"},{"Location":"MERCER MORGAN","Address":"8350 E Raintree Dr 140","City":"Scottsdale","State":"AZ","Zip":"85260"},{"Location":"MERCURY TRADING CO","Address":"15757 N 78th St C103","City":"Scottsdale","State":"AZ","Zip":"85260"},{"Location":"MERITAGE HOMES 2","Address":"8800 E Raintree Dr 300","City":"Scottsdale","State":"AZ","Zip":"85260"},{"Location":"METHOD ATHLETE","Address":"15444 N 76th St","City":"Scottsdale","State":"AZ","Zip":"85260"},{"Location":"MINT CONDITION LLC","Address":"9170 E Bahia Dr 109","City":"Scottsdale","State":"AZ","Zip":"85260"},{"Location":"MITCHELL ASSET GROUP","Address":"9375 E Shea Blvd 175","City":"Scottsdale","State":"AZ","Zip":"85260"},{"Location":"MONEY WISE","Address":"14301 N 87th St 117","City":"Scottsdale","State":"AZ","Zip":"85260"},{"Location":"MOORE INVESTMENT TEAM LL","Address":"14350 N Frank Lloyd Wright Blvd 1","City":"Scottsdale","State":"AZ","Zip":"85260"},{"Location":"MSI WEST","Address":"15270 N 83rd Pl 200","City":"Scottsdale","State":"AZ","Zip":"85260"},{"Location":"N&J  SOTTSDALE","Address":"14400 N 87th St","City":"Scottsdale","State":"AZ","Zip":"85260"},{"Location":"NORIS SUSHI","Address":"10115 E Bell Rd 109","City":"Scottsdale","State":"AZ","Zip":"85260"},{"Location":"NORTH SCOTTSDALE CHILDRENS DEN","Address":"9360 E Raintree Dr 107","City":"Scottsdale","State":"AZ","Zip":"85260"},{"Location":"NORTHSIGHT D&DLLC","Address":"14747 N Northsight Blvd","City":"Scottsdale","State":"AZ","Zip":"85260"},{"Location":"NYPD PIZZA RAINTREE","Address":"14884 N Pima Rd 107","City":"Scottsdale","State":"AZ","Zip":"85260"},{"Location":"OHSO EATERY & DISTILLERY","Address":"15681 N Hayden Rd","City":"Scottsdale","State":"AZ","Zip":"85260"},{"Location":"ON Q FINANCIAL%2C INC.","Address":"14275 N 87th St 210","City":"Scottsdale","State":"AZ","Zip":"85260"},{"Location":"ONE STOP NUTRITION","Address":"7366 E Shea Blvd 107","City":"Scottsdale","State":"AZ","Zip":"85260"},{"Location":"ONLINE BUISNESS SERVICES","Address":"15333 N Pima Rd 260","City":"Scottsdale","State":"AZ","Zip":"85260"},{"Location":"ONLINE TRADING ACADEMY","Address":"15150 N Hayden Rd 200","City":"Scottsdale","State":"AZ","Zip":"85260"},{"Location":"ONO HAWAIIAN BBQ","Address":"15560 N Frank Lloyd Wright Blvd B10","City":"Scottsdale","State":"AZ","Zip":"85260"},{"Location":"ORBAN","Address":"8350 E Evans Rd C4","City":"Scottsdale","State":"AZ","Zip":"85260"},{"Location":"OX TWO","Address":"7317 E Greenway Rd","City":"Scottsdale","State":"AZ","Zip":"85260"},{"Location":"PACWEST ENERGY LLC","Address":"14717 N Northsight Blvd","City":"Scottsdale","State":"AZ","Zip":"85260"},{"Location":"PACWEST ENERGY LLC","Address":"15880 N Greenway Hayden Loop","City":"Scottsdale","State":"AZ","Zip":"85260"},{"Location":"PAINTED ROCK ASSET MGMT","Address":"14301 N 87th St 120","City":"Scottsdale","State":"AZ","Zip":"85260"},{"Location":"PATRIOT BONDING","Address":"14300 N Northsight Blvd 230","City":"Scottsdale","State":"AZ","Zip":"85260"},{"Location":"PEOPLES MORTGAGE COMPANY","Address":"14500 N Northsight Blvd 300","City":"Scottsdale","State":"AZ","Zip":"85260"},{"Location":"PETER PIPER PIZZA # 208","Address":"15720 N Pima Rd","City":"Scottsdale","State":"AZ","Zip":"85260"},{"Location":"PINNACLE BANK","Address":"14287 N 87th St 123","City":"Scottsdale","State":"AZ","Zip":"85260"},{"Location":"POLISHED THE DENTAL SPA","Address":"15811 N Frank Lloyd Wright Blvd 130","City":"Scottsdale","State":"AZ","Zip":"85260"},{"Location":"PUEBLO FAMILY PHYSICIANS","Address":"15425 N Greenway Hayden Loop 8300","City":"Scottsdale","State":"AZ","Zip":"85260"},{"Location":"QUICK MACHINERY SALES","Address":"14770 N 78th Way B","City":"Scottsdale","State":"AZ","Zip":"85260"},{"Location":"R.H.E.R.","Address":"14238 N Northsight Blvd","City":"Scottsdale","State":"AZ","Zip":"85260"},{"Location":"RAYMOND      JOBST","Address":"9725 E Cholla St","City":"Scottsdale","State":"AZ","Zip":"85260"},{"Location":"RAYS PIZZA","Address":"15577 N Hayden Rd A2","City":"Scottsdale","State":"AZ","Zip":"85260"},{"Location":"RED ROBIN #115","Address":"8970 E Shea Blvd","City":"Scottsdale","State":"AZ","Zip":"85260"},{"Location":"RELIANCE MANAGEMENT","Address":"15150 N Hayden Rd","City":"Scottsdale","State":"AZ","Zip":"85260"},{"Location":"REMAX EXCALIBUR","Address":"8510 E Shea Blvd 100","City":"Scottsdale","State":"AZ","Zip":"85260"},{"Location":"RENT TO OWN LLC","Address":"13453 N 101st Way","City":"Scottsdale","State":"AZ","Zip":"85260"},{"Location":"RESILIENT SYNERGY LLC","Address":"15015 N 74th St 125","City":"Scottsdale","State":"AZ","Zip":"85260"},{"Location":"RICHTERLAWPLLC","Address":"8889 E Bell Rd 205","City":"Scottsdale","State":"AZ","Zip":"85260"},{"Location":"ROBERTS RESORT","Address":"8350 E Raintree Dr 220","City":"Scottsdale","State":"AZ","Zip":"85260"},{"Location":"RORY SANDSTROMS AIRPARK","Address":"14850 N 83rd Pl C","City":"Scottsdale","State":"AZ","Zip":"85260"},{"Location":"RYAN COMPANIES","Address":"14000 N Pima Rd","City":"Scottsdale","State":"AZ","Zip":"85260"},{"Location":"SAFE COMMUNICATIONS","Address":"7740 E Evans Rd","City":"Scottsdale","State":"AZ","Zip":"85260"},{"Location":"SALT AND LIME","Address":"9397 E Shea Blvd D115","City":"Scottsdale","State":"AZ","Zip":"85260"},{"Location":"SCOTTSDALE   FIRESTATION 610","Address":"16701 N 100th St 2","City":"Scottsdale","State":"AZ","Zip":"85260"},{"Location":"SCOTTSDALE AIRCENTER","Address":"15290 N 78th Way","City":"Scottsdale","State":"AZ","Zip":"85260"},{"Location":"SCOTTSDALE BEER COMPANY","Address":"8608 E Shea Blvd","City":"Scottsdale","State":"AZ","Zip":"85260"},{"Location":"SCOTTSDALE CIGAR","Address":"14525 N 79th St H","City":"Scottsdale","State":"AZ","Zip":"85260"},{"Location":"SCOTTSDALE CIGAR","Address":"15231 N 87th St","City":"Scottsdale","State":"AZ","Zip":"85260"},{"Location":"SCOTTSDALE GUN CLUB","Address":"14860 N Northsight Blvd","City":"Scottsdale","State":"AZ","Zip":"85260"},{"Location":"SCOTTSDALE HANGAR ONE","Address":"15220 N 78th Way","City":"Scottsdale","State":"AZ","Zip":"85260"},{"Location":"SCOTTSDALE MARRIOTT AT MCDWLL","Address":"16770 N Perimeter Dr","City":"Scottsdale","State":"AZ","Zip":"85260"},{"Location":"SCOTTSDALE SCHOOL OF FITNESS","Address":"7399 E Tierra Buena Ln 103","City":"Scottsdale","State":"AZ","Zip":"85260"},{"Location":"SCOTTSDALE VOLLEYBALL ACADEMY","Address":"9171 E Bell Rd","City":"Scottsdale","State":"AZ","Zip":"85260"},{"Location":"SEARCH TOPPERS","Address":"13825 N Northsight Blvd","City":"Scottsdale","State":"AZ","Zip":"85260"},{"Location":"SECURED FINANCIAL SOLUTI","Address":"14301 N 87th St 216","City":"Scottsdale","State":"AZ","Zip":"85260"},{"Location":"SENIOR ADVISORY GROUP","Address":"13825 N Northsight Blvd 101","City":"Scottsdale","State":"AZ","Zip":"85260"},{"Location":"SHIP SHAPE FITNESS CENTER","Address":"14321 N Northsight Blvd","City":"Scottsdale","State":"AZ","Zip":"85260"},{"Location":"SKEPTICAL CHYMIST","Address":"15688 N Pima Rd","City":"Scottsdale","State":"AZ","Zip":"85260"},{"Location":"SKY MED INTERNATIONAL","Address":"13840 N Northsight Blvd","City":"Scottsdale","State":"AZ","Zip":"85260"},{"Location":"SKYVIEW NETWORKS","Address":"14605 N Airport Dr 365","City":"Scottsdale","State":"AZ","Zip":"85260"},{"Location":"SOLUTIONS BY DR FITNESS","Address":"8888 E Raintree Dr 150","City":"Scottsdale","State":"AZ","Zip":"85260"},{"Location":"SONORAN DESERT DENTISTRY","Address":"9220 E Raintree Dr 102","City":"Scottsdale","State":"AZ","Zip":"85260"},{"Location":"SPIRIT REALTY CAPITAL","Address":"16767 N Perimeter Dr 210","City":"Scottsdale","State":"AZ","Zip":"85260"},{"Location":"SPOONER PHYSICAL THERAPY","Address":"9097 E Desert Cove 110","City":"Scottsdale","State":"AZ","Zip":"85260"},{"Location":"SPORT CLIPS AZ126","Address":"15560 N Frank Lloyd Wright Blvd","City":"Scottsdale","State":"AZ","Zip":"85260"},{"Location":"SQUID INK SCOTTSDALE","Address":"7318 E Shea Blvd 101","City":"Scottsdale","State":"AZ","Zip":"85260"},{"Location":"STATESMAN GROUP","Address":"9300 E Raintree Dr 100","City":"Scottsdale","State":"AZ","Zip":"85260"},{"Location":"STEVE LEVINE ENTERTAIN.","Address":"7819 E Paradise Ln","City":"Scottsdale","State":"AZ","Zip":"85260"},{"Location":"STONE HEDGE MGMT","Address":"15953 N Greenway Hayden Loop G","City":"Scottsdale","State":"AZ","Zip":"85260"},{"Location":"STONE VINE","Address":"9343 E Shea Blvd 100","City":"Scottsdale","State":"AZ","Zip":"85260"},{"Location":"STREETS OF NEW YORK #8","Address":"9301 E Shea Blvd","City":"Scottsdale","State":"AZ","Zip":"85260"},{"Location":"STUDIO MOVIE GRILL","Address":"15515 N Hayden Rd","City":"Scottsdale","State":"AZ","Zip":"85260"},{"Location":"SUNGARD AVAILABILITY SERVICES","Address":"7499 E Paradise Ln 108","City":"Scottsdale","State":"AZ","Zip":"85260"},{"Location":"SUNSET MGT GROUP","Address":"14891 N Northsight Blvd 119","City":"Scottsdale","State":"AZ","Zip":"85260"},{"Location":"SUPER CUTS","Address":"15801 N Frank Lloyd Wright Blvd","City":"Scottsdale","State":"AZ","Zip":"85260"},{"Location":"SUPER PAULENS NAILS","Address":"14651 N Northsight Blvd 104","City":"Scottsdale","State":"AZ","Zip":"85260"},{"Location":"SUPER SHUTTLE INTERNATIONAL","Address":"14500 N Northsight Blvd 329","City":"Scottsdale","State":"AZ","Zip":"85260"},{"Location":"TEHARU SUSHI","Address":"15801 N Frank Lloyd Wright Blvd","City":"Scottsdale","State":"AZ","Zip":"85260"},{"Location":"THE BURG GROUP","Address":"15695 N 83rd Way","City":"Scottsdale","State":"AZ","Zip":"85260"},{"Location":"THE JOINT CORP","Address":"16767 N Perimeter Dr 240","City":"Scottsdale","State":"AZ","Zip":"85260"},{"Location":"THE MUTUAL FUND STORE","Address":"8752 E Shea Blvd","City":"Scottsdale","State":"AZ","Zip":"85260"},{"Location":"THE VANGUARD GROUP","Address":"14321 N Northsight Blvd","City":"Scottsdale","State":"AZ","Zip":"85260"},{"Location":"TITAN PAINTINGS","Address":"15001 N 74th St A","City":"Scottsdale","State":"AZ","Zip":"85260"},{"Location":"TOCA  (231)","Address":"9377 E Bell Rd","City":"Scottsdale","State":"AZ","Zip":"85260"},{"Location":"TOCA (349)","Address":"9377 E Bell Rd","City":"Scottsdale","State":"AZ","Zip":"85260"},{"Location":"TODD BRECTO INSURANCE","Address":"15689 N Hayden Rd 128","City":"Scottsdale","State":"AZ","Zip":"85260"},{"Location":"TOMS THUMB FRESH MARKET","Address":"9393 E Bell Rd","City":"Scottsdale","State":"AZ","Zip":"85260"},{"Location":"TWIN PEAKS SCOTTSDALE","Address":"8787 E Frank Lloyd Wright Blvd","City":"Scottsdale","State":"AZ","Zip":"85260"},{"Location":"UNIFORM MANUFACTURING INC","Address":"7575 E Redfield Rd 131","City":"Scottsdale","State":"AZ","Zip":"85260"},{"Location":"UNITED AUTOMOBILE INSURANCE CO","Address":"8800 E Raintree Dr 150","City":"Scottsdale","State":"AZ","Zip":"85260"},{"Location":"VAN CHEVROLET","Address":"8585 E Frank Lloyd Wright Blvd","City":"Scottsdale","State":"AZ","Zip":"85260"},{"Location":"VANGUARD","Address":"14321 N Northsight Blvd Bldd","City":"Scottsdale","State":"AZ","Zip":"85260"},{"Location":"VANGUARD","Address":"15111 N Pima Rd","City":"Scottsdale","State":"AZ","Zip":"85260"},{"Location":"VAPOR PLUS","Address":"9330 E Poinsettia Dr 100","City":"Scottsdale","State":"AZ","Zip":"85260"},{"Location":"VIA INTERNATIONAL","Address":"16559 N 92nd St 115","City":"Scottsdale","State":"AZ","Zip":"85260"},{"Location":"VIRAY PATEL","Address":"13910 N Frank Lloyd Wright Blvd 3","City":"Scottsdale","State":"AZ","Zip":"85260"},{"Location":"VISIONS OFFICES","Address":"14362 N Frank Lloyd Wright Blvd","City":"Scottsdale","State":"AZ","Zip":"85260"},{"Location":"VOLCANIC RED COFFEES","Address":"7756 E Greenway Rd 200","City":"Scottsdale","State":"AZ","Zip":"85260"},{"Location":"WALKER FINANCIAL GROUP","Address":"9907 E Bell Rd","City":"Scottsdale","State":"AZ","Zip":"85260"},{"Location":"WESTYE GROUP SOUTHWEST","Address":"15570 N 83rd Way","City":"Scottsdale","State":"AZ","Zip":"85260"},{"Location":"WHAREHOUSE","Address":"7835 E Gelding Dr C","City":"Scottsdale","State":"AZ","Zip":"85260"},{"Location":"WHICH WICH","Address":"15033 N Thompson Peak Pkwy D1","City":"Scottsdale","State":"AZ","Zip":"85260"},{"Location":"WILLIAM K PERRY FARMS","Address":"14301 N 87th St 315","City":"Scottsdale","State":"AZ","Zip":"85260"},{"Location":"WINGATE INN SCOTTDALE","Address":"14255 N 87th St","City":"Scottsdale","State":"AZ","Zip":"85260"},{"Location":"WINTERHOLLER DENTISTRY","Address":"14884 N Pima Rd 106","City":"Scottsdale","State":"AZ","Zip":"85260"},{"Location":"WOK BOX","Address":"15807 N Frank Lloyd Wright Blvd 105","City":"Scottsdale","State":"AZ","Zip":"85260"},{"Location":"WOLF SPRINGS RANCH MAIN HOUSE","Address":"12435 N 93rd St","City":"Scottsdale","State":"AZ","Zip":"85260"},{"Location":"WOODTRUST BANK","Address":"8980 E Raintree Dr 100","City":"Scottsdale","State":"AZ","Zip":"85260"},{"Location":"YAM MANAGEMENT LLC","Address":"15475 N 84th St","City":"Scottsdale","State":"AZ","Zip":"85260"},{"Location":"ZIPPS SPORTS GRILL","Address":"14148 N 100th St 103","City":"Scottsdale","State":"AZ","Zip":"85260"},{"Location":"ZONE ATHLETIC PERFORMANCE","Address":"15820 N 84th St 100","City":"Scottsdale","State":"AZ","Zip":"85260"},{"Location":"V'S BARBERSHOP","Address":"9397 E Shade Blvd #120 100","City":"Scpttsdale","State":"AZ","Zip":"85260"}]