[{"Location":"16740IC MOON CHINESE","Address":"16740 E Palisades Blvd 107","City":"Fountain Hills","State":"AZ","Zip":"85268"},{"Location":"ALAMO SALOON","Address":"11807 N Saguaro Blvd","City":"Fountain Hills","State":"AZ","Zip":"85268"},{"Location":"AMERICAN LEGION POST # 58","Address":"16837 E Parkview Ave","City":"Fountain Hills","State":"AZ","Zip":"85268"},{"Location":"AMVETS POST 7","Address":"17030 E Enterprise Dr","City":"Fountain Hills","State":"AZ","Zip":"85268"},{"Location":"ARRVEDERCI RESTAURANT","Address":"12645 N Saguaro Blvd","City":"Fountain Hills","State":"AZ","Zip":"85268"},{"Location":"AUTO WHISPERER","Address":"11827 N Panorama Dr","City":"Fountain Hills","State":"AZ","Zip":"85268"},{"Location":"BOYS AND GIRLS CLUB","Address":"14605 N Del Cambre Ave","City":"Fountain Hills","State":"AZ","Zip":"85268"},{"Location":"BRUNOS SPORTS BAR","Address":"16737 E Parkview Ave","City":"Fountain Hills","State":"AZ","Zip":"85268"},{"Location":"CIGARS N SUCH","Address":"16747 E Parkview Ave","City":"Fountain Hills","State":"AZ","Zip":"85268"},{"Location":"CINDY & DANNYS NAILS","Address":"16810 E Ave Of Fntns 102","City":"Fountain Hills","State":"AZ","Zip":"85268"},{"Location":"COUP & ASSOC","Address":"17100 E Shea Blvd 100","City":"Fountain Hills","State":"AZ","Zip":"85268"},{"Location":"DANA A WEINREICH DDS","Address":"11050 N Saguaro Blvd 101","City":"Fountain Hills","State":"AZ","Zip":"85268"},{"Location":"DESERT DAVES","Address":"13407 N La Montana Dr","City":"Fountain Hills","State":"AZ","Zip":"85268"},{"Location":"DESERT DAWG AUTO REPAIR","Address":"9521 N Technology Dr C2","City":"Fountain Hills","State":"AZ","Zip":"85268"},{"Location":"DJ'S BAGEL CAFE","Address":"13693 N Fountain Hills Blvd","City":"Fountain Hills","State":"AZ","Zip":"85268"},{"Location":"DOGGIE STYLE","Address":"12035 N Saguaro Blvd","City":"Fountain Hills","State":"AZ","Zip":"85268"},{"Location":"EAGLE MOUNTAIN GOLF CLUB","Address":"14915 E Eagle Mountain Pkwy","City":"Fountain Hills","State":"AZ","Zip":"85268"},{"Location":"EURO PIZZA CAFE","Address":"12645 N Saguaro Blvd","City":"Fountain Hills","State":"AZ","Zip":"85268"},{"Location":"EUROPEAN NAIL AND SPA","Address":"16815 E Shea Blvd","City":"Fountain Hills","State":"AZ","Zip":"85268"},{"Location":"FIREROCK COUNTRY CLUB","Address":"16407 E Shea Blvd","City":"Fountain Hills","State":"AZ","Zip":"85268"},{"Location":"FIREROCK COUNTRY CLUB","Address":"16000 Fire Rock","City":"Fountain Hills","State":"AZ","Zip":"85268"},{"Location":"FIREROCK INDUSTRIAL PARK","Address":"16524 E Laser Dr 10","City":"Fountain Hills","State":"AZ","Zip":"85268"},{"Location":"FLOWER AND GIFT SHOPPE","Address":"16715 E Palisades Blvd","City":"Fountain Hills","State":"AZ","Zip":"85268"},{"Location":"FONTANA HAIR INC","Address":"12605 N Saguaro Blvd 5","City":"Fountain Hills","State":"AZ","Zip":"85268"},{"Location":"FOUNTAIN CAR WASH","Address":"17115 E Shea Blvd","City":"Fountain Hills","State":"AZ","Zip":"85268"},{"Location":"FOUNTAIN HILL NAILS","Address":"12645 N Saguaro Blvd 15","City":"Fountain Hills","State":"AZ","Zip":"85268"},{"Location":"FOUNTAIN HILLS PEDIATRIC","Address":"13620 N Saguaro Blvd 100","City":"Fountain Hills","State":"AZ","Zip":"85268"},{"Location":"FOUNTAIN HILLS SHERIFFS","Address":"16833 N Saguaro Blvd","City":"Fountain Hills","State":"AZ","Zip":"85268"},{"Location":"GRAPEABLES","Address":"12645 N Saguaro Blvd 9","City":"Fountain Hills","State":"AZ","Zip":"85268"},{"Location":"GREAGER CUSTOM HOMES INC","Address":"12028 N Falcon Dr","City":"Fountain Hills","State":"AZ","Zip":"85268"},{"Location":"GREULICHS AUTOMOTIVE","Address":"17150 E Shea Blvd","City":"Fountain Hills","State":"AZ","Zip":"85268"},{"Location":"HAO RESTAURANT","Address":"11849 N Saguaro Blvd","City":"Fountain Hills","State":"AZ","Zip":"85268"},{"Location":"J M WINTER INVESTMENT","Address":"16719 E Palisades Blvd 204","City":"Fountain Hills","State":"AZ","Zip":"85268"},{"Location":"JIFFY LUBE #1990","Address":"16758 E Parkview Ave","City":"Fountain Hills","State":"AZ","Zip":"85268"},{"Location":"JIFFY LUBE #3273","Address":"16741 E Shea Blvd","City":"Fountain Hills","State":"AZ","Zip":"85268"},{"Location":"JIM MCLEAN GOLF SCHOOL","Address":"13100 N Sunridge Dr","City":"Fountain Hills","State":"AZ","Zip":"85268"},{"Location":"JOHN PARK","Address":"16425 E Palisades Blvd","City":"Fountain Hills","State":"AZ","Zip":"85268"},{"Location":"KEVIN A RAUTER","Address":"16921 E Palisades Blvd","City":"Fountain Hills","State":"AZ","Zip":"85268"},{"Location":"LAURA'S PLACE","Address":"16758 E Glenbrook Blvd","City":"Fountain Hills","State":"AZ","Zip":"85268"},{"Location":"LEGACY ASSET MGMT INC","Address":"16807 E Palisades Blvd 103","City":"Fountain Hills","State":"AZ","Zip":"85268"},{"Location":"LEIGH ENTERPRISES INC","Address":"13725 N Fountain Hills Blvd","City":"Fountain Hills","State":"AZ","Zip":"85268"},{"Location":"MERIDIAN   BANK","Address":"13404 N La Montana Dr","City":"Fountain Hills","State":"AZ","Zip":"85268"},{"Location":"ML CAPITAL GROUP INC","Address":"16810 E Avenue Of The Fountains 104","City":"Fountain Hills","State":"AZ","Zip":"85268"},{"Location":"MOJO'S PIZZA","Address":"16726 E El Pueblo Blvd B","City":"Fountain Hills","State":"AZ","Zip":"85268"},{"Location":"NOMA JEANS LLC","Address":"13014 N Saguaro Blvd","City":"Fountain Hills","State":"AZ","Zip":"85268"},{"Location":"PALISADES VETERINARY HOSPITAL","Address":"16813 E Palisades Blvd","City":"Fountain Hills","State":"AZ","Zip":"85268"},{"Location":"PARKVIEW TAP HOUSE","Address":"16828 E Parkview Ave","City":"Fountain Hills","State":"AZ","Zip":"85268"},{"Location":"PETE DELLIOS DDS","Address":"16425 E Palisades Blvd","City":"Fountain Hills","State":"AZ","Zip":"85268"},{"Location":"PHILS FILLING STATION GRILL","Address":"16852 E Parkview Ave","City":"Fountain Hills","State":"AZ","Zip":"85268"},{"Location":"QUE BUENO","Address":"13207 N La Montana Dr","City":"Fountain Hills","State":"AZ","Zip":"85268"},{"Location":"SADDLE BRONC GRILL","Address":"11056 N Saguaro Blvd","City":"Fountain Hills","State":"AZ","Zip":"85268"},{"Location":"SAFEWAY 1291","Address":"13733 N Fountain Hills Blvd","City":"Fountain Hills","State":"AZ","Zip":"85268"},{"Location":"SAM THE BUGMAN","Address":"15225 N Fountain Hills Blvd 105","City":"Fountain Hills","State":"AZ","Zip":"85268"},{"Location":"SOUTHWEST AMBULANCE AP","Address":"14825 E Shea Blvd 107","City":"Fountain Hills","State":"AZ","Zip":"85268"},{"Location":"SPORTS GOURMET LLC","Address":"16872 E Avenue Of The Fountains 104","City":"Fountain Hills","State":"AZ","Zip":"85268"},{"Location":"SUN DEVIL AUTO","Address":"13226 N La Montana Dr","City":"Fountain Hills","State":"AZ","Zip":"85268"},{"Location":"UNIQUE NAIL","Address":"16225 E Palisades Blvd","City":"Fountain Hills","State":"AZ","Zip":"85268"},{"Location":"VU","Address":"14815 E Shea Blvd","City":"Fountain Hills","State":"AZ","Zip":"85268"},{"Location":"WICKED SIX BAR & GRILL","Address":"13100 N Sunridge Dr","City":"Fountain Hills","State":"AZ","Zip":"85268"},{"Location":"16740IC MOON CHINESE","Address":"16740 E Palisades Blvd 107","City":"Fountain Hills","State":"AZ","Zip":"85268"},{"Location":"ALAMO SALOON","Address":"11807 N Saguaro Blvd","City":"Fountain Hills","State":"AZ","Zip":"85268"},{"Location":"AMERICAN LEGION POST # 58","Address":"16837 E Parkview Ave","City":"Fountain Hills","State":"AZ","Zip":"85268"},{"Location":"AMVETS POST 7","Address":"17030 E Enterprise Dr","City":"Fountain Hills","State":"AZ","Zip":"85268"},{"Location":"ARRVEDERCI RESTAURANT","Address":"12645 N Saguaro Blvd","City":"Fountain Hills","State":"AZ","Zip":"85268"},{"Location":"AUTO WHISPERER","Address":"11827 N Panorama Dr","City":"Fountain Hills","State":"AZ","Zip":"85268"},{"Location":"BOYS AND GIRLS CLUB","Address":"14605 N Del Cambre Ave","City":"Fountain Hills","State":"AZ","Zip":"85268"},{"Location":"BRUNOS SPORTS BAR","Address":"16737 E Parkview Ave","City":"Fountain Hills","State":"AZ","Zip":"85268"},{"Location":"CIGARS N SUCH","Address":"16747 E Parkview Ave","City":"Fountain Hills","State":"AZ","Zip":"85268"},{"Location":"CINDY & DANNYS NAILS","Address":"16810 E Ave Of Fntns 102","City":"Fountain Hills","State":"AZ","Zip":"85268"},{"Location":"COUP & ASSOC","Address":"17100 E Shea Blvd 100","City":"Fountain Hills","State":"AZ","Zip":"85268"},{"Location":"DANA A WEINREICH DDS","Address":"11050 N Saguaro Blvd 101","City":"Fountain Hills","State":"AZ","Zip":"85268"},{"Location":"DESERT DAVES","Address":"13407 N La Montana Dr","City":"Fountain Hills","State":"AZ","Zip":"85268"},{"Location":"DESERT DAWG AUTO REPAIR","Address":"9521 N Technology Dr C2","City":"Fountain Hills","State":"AZ","Zip":"85268"},{"Location":"DJ'S BAGEL CAFE","Address":"13693 N Fountain Hills Blvd","City":"Fountain Hills","State":"AZ","Zip":"85268"},{"Location":"DOGGIE STYLE","Address":"12035 N Saguaro Blvd","City":"Fountain Hills","State":"AZ","Zip":"85268"},{"Location":"EAGLE MOUNTAIN GOLF CLUB","Address":"14915 E Eagle Mountain Pkwy","City":"Fountain Hills","State":"AZ","Zip":"85268"},{"Location":"EURO PIZZA CAFE","Address":"12645 N Saguaro Blvd","City":"Fountain Hills","State":"AZ","Zip":"85268"},{"Location":"EUROPEAN NAIL AND SPA","Address":"16815 E Shea Blvd","City":"Fountain Hills","State":"AZ","Zip":"85268"},{"Location":"FIREROCK COUNTRY CLUB","Address":"16000 Fire Rock","City":"Fountain Hills","State":"AZ","Zip":"85268"},{"Location":"FIREROCK COUNTRY CLUB","Address":"16407 E Shea Blvd","City":"Fountain Hills","State":"AZ","Zip":"85268"},{"Location":"FIREROCK INDUSTRIAL PARK","Address":"16524 E Laser Dr 10","City":"Fountain Hills","State":"AZ","Zip":"85268"},{"Location":"FLOWER AND GIFT SHOPPE","Address":"16715 E Palisades Blvd","City":"Fountain Hills","State":"AZ","Zip":"85268"},{"Location":"FONTANA HAIR INC","Address":"12605 N Saguaro Blvd 5","City":"Fountain Hills","State":"AZ","Zip":"85268"},{"Location":"FOUNTAIN CAR WASH","Address":"17115 E Shea Blvd","City":"Fountain Hills","State":"AZ","Zip":"85268"},{"Location":"FOUNTAIN HILL NAILS","Address":"12645 N Saguaro Blvd 15","City":"Fountain Hills","State":"AZ","Zip":"85268"},{"Location":"FOUNTAIN HILLS PEDIATRIC","Address":"13620 N Saguaro Blvd 100","City":"Fountain Hills","State":"AZ","Zip":"85268"},{"Location":"FOUNTAIN HILLS SHERIFFS","Address":"16833 N Saguaro Blvd","City":"Fountain Hills","State":"AZ","Zip":"85268"},{"Location":"GRAPEABLES","Address":"12645 N Saguaro Blvd 9","City":"Fountain Hills","State":"AZ","Zip":"85268"},{"Location":"GREAGER CUSTOM HOMES INC","Address":"12028 N Falcon Dr","City":"Fountain Hills","State":"AZ","Zip":"85268"},{"Location":"GREULICHS AUTOMOTIVE","Address":"17150 E Shea Blvd","City":"Fountain Hills","State":"AZ","Zip":"85268"},{"Location":"HAO RESTAURANT","Address":"11849 N Saguaro Blvd","City":"Fountain Hills","State":"AZ","Zip":"85268"},{"Location":"J M WINTER INVESTMENT","Address":"16719 E Palisades Blvd 204","City":"Fountain Hills","State":"AZ","Zip":"85268"},{"Location":"JIFFY LUBE #1990","Address":"16758 E Parkview Ave","City":"Fountain Hills","State":"AZ","Zip":"85268"},{"Location":"JIFFY LUBE #3273","Address":"16741 E Shea Blvd","City":"Fountain Hills","State":"AZ","Zip":"85268"},{"Location":"JIM MCLEAN GOLF SCHOOL","Address":"13100 N Sunridge Dr","City":"Fountain Hills","State":"AZ","Zip":"85268"},{"Location":"JOHN PARK","Address":"16425 E Palisades Blvd","City":"Fountain Hills","State":"AZ","Zip":"85268"},{"Location":"KEVIN A RAUTER","Address":"16921 E Palisades Blvd","City":"Fountain Hills","State":"AZ","Zip":"85268"},{"Location":"LAURA'S PLACE","Address":"16758 E Glenbrook Blvd","City":"Fountain Hills","State":"AZ","Zip":"85268"},{"Location":"LEGACY ASSET MGMT INC","Address":"16807 E Palisades Blvd 103","City":"Fountain Hills","State":"AZ","Zip":"85268"},{"Location":"LEIGH ENTERPRISES INC","Address":"13725 N Fountain Hills Blvd","City":"Fountain Hills","State":"AZ","Zip":"85268"},{"Location":"MERIDIAN   BANK","Address":"13404 N La Montana Dr","City":"Fountain Hills","State":"AZ","Zip":"85268"},{"Location":"ML CAPITAL GROUP INC","Address":"16810 E Avenue Of The Fountains 104","City":"Fountain Hills","State":"AZ","Zip":"85268"},{"Location":"MOJO'S PIZZA","Address":"16726 E El Pueblo Blvd B","City":"Fountain Hills","State":"AZ","Zip":"85268"},{"Location":"NOMA JEANS LLC","Address":"13014 N Saguaro Blvd","City":"Fountain Hills","State":"AZ","Zip":"85268"},{"Location":"PALISADES VETERINARY HOSPITAL","Address":"16813 E Palisades Blvd","City":"Fountain Hills","State":"AZ","Zip":"85268"},{"Location":"PARKVIEW TAP HOUSE","Address":"16828 E Parkview Ave","City":"Fountain Hills","State":"AZ","Zip":"85268"},{"Location":"PETE DELLIOS DDS","Address":"16425 E Palisades Blvd","City":"Fountain Hills","State":"AZ","Zip":"85268"},{"Location":"PHILS FILLING STATION GRILL","Address":"16852 E Parkview Ave","City":"Fountain Hills","State":"AZ","Zip":"85268"},{"Location":"QUE BUENO","Address":"13207 N La Montana Dr","City":"Fountain Hills","State":"AZ","Zip":"85268"},{"Location":"SADDLE BRONC GRILL","Address":"11056 N Saguaro Blvd","City":"Fountain Hills","State":"AZ","Zip":"85268"},{"Location":"SAFEWAY 1291","Address":"13733 N Fountain Hills Blvd","City":"Fountain Hills","State":"AZ","Zip":"85268"},{"Location":"SAM THE BUGMAN","Address":"15225 N Fountain Hills Blvd 105","City":"Fountain Hills","State":"AZ","Zip":"85268"},{"Location":"SOUTHWEST AMBULANCE AP","Address":"14825 E Shea Blvd 107","City":"Fountain Hills","State":"AZ","Zip":"85268"},{"Location":"SPORTS GOURMET LLC","Address":"16872 E Avenue Of The Fountains 104","City":"Fountain Hills","State":"AZ","Zip":"85268"},{"Location":"SUN DEVIL AUTO","Address":"13226 N La Montana Dr","City":"Fountain Hills","State":"AZ","Zip":"85268"},{"Location":"UNIQUE NAIL","Address":"16225 E Palisades Blvd","City":"Fountain Hills","State":"AZ","Zip":"85268"},{"Location":"VU","Address":"14815 E Shea Blvd","City":"Fountain Hills","State":"AZ","Zip":"85268"},{"Location":"WICKED SIX BAR & GRILL","Address":"13100 N Sunridge Dr","City":"Fountain Hills","State":"AZ","Zip":"85268"}]