[{"Location":"ARIZONA LEASURE","Address":"10730 E Monument Dr","City":"Scottsdale","State":"AZ","Zip":"85262"},{"Location":"DESERT MOUNTAIN CLUB INC","Address":"42429 N Saguaro Forest Dr","City":"Scottsdale","State":"AZ","Zip":"85262"},{"Location":"DESERT MOUNTAIN CLUB INC","Address":"10225 E Desert Hills Dr","City":"Scottsdale","State":"AZ","Zip":"85262"},{"Location":"DESERT MOUNTAIN CLUB INC","Address":"38580 N Desert Mountain Pkwy","City":"Scottsdale","State":"AZ","Zip":"85262"},{"Location":"DESERT MOUNTAIN CLUB INC","Address":"10333 E Rockaway Hills Dr","City":"Scottsdale","State":"AZ","Zip":"85262"},{"Location":"DESERT MOUNTAIN MASTER ASSOC","Address":"10550 E Desert Hills Dr","City":"Scottsdale","State":"AZ","Zip":"85262"},{"Location":"DESERT MOUNTAIN PROPERTIES","Address":"10550 E Desert Hills Dr","City":"Scottsdale","State":"AZ","Zip":"85262"},{"Location":"DESERT MOUNTAIN PROPERTIES","Address":"11124 E Prospect Point Dr","City":"Scottsdale","State":"AZ","Zip":"85262"},{"Location":"ESTANCIA CLUB","Address":"27998 N 99th Pl","City":"Scottsdale","State":"AZ","Zip":"85262"},{"Location":"FOUR SEASONS RESORT","Address":"10600 E Crescent Moon Dr","City":"Scottsdale","State":"AZ","Zip":"85262"},{"Location":"FOUR SEASONS RESORT SCOT","Address":"10600 E Crescent Moon Dr","City":"Scottsdale","State":"AZ","Zip":"85262"},{"Location":"FOUR SEASONS RESORT SCOTTSDALE","Address":"10600 E Crescent Moon Dr","City":"Scottsdale","State":"AZ","Zip":"85262"},{"Location":"MIRABEL GOLF CLUB 2","Address":"37100 N Mirabel Club Dr","City":"Scottsdale","State":"AZ","Zip":"85262"},{"Location":"MIRABEL GOLF CLUB1","Address":"37100 N Mirabel Club Dr","City":"Scottsdale","State":"AZ","Zip":"85262"},{"Location":"OUT WEST STALLION STATION","Address":"15419 E Rio Verde Dr","City":"Scottsdale","State":"AZ","Zip":"85262"},{"Location":"OUTLAW CLUBHOUSE","Address":"41045 N Cave Creek Rd","City":"Scottsdale","State":"AZ","Zip":"85262"},{"Location":"RENEGADE HIDEOUT","Address":"38580 N Desert Mountain Pkwy","City":"Scottsdale","State":"AZ","Zip":"85262"},{"Location":"RESORT CLUB SCOTTSDALE","Address":"10650 E Crescent Moon Dr","City":"Scottsdale","State":"AZ","Zip":"85262"},{"Location":"ROCKS AT PINNACLE PEAK","Address":"27440 N Alma School Pkwy","City":"Scottsdale","State":"AZ","Zip":"85262"},{"Location":"ROSATIS PIZZA","Address":"10989 E Dynamite Blvd 102","City":"Scottsdale","State":"AZ","Zip":"85262"},{"Location":"RURAL METRO CORPORATION","Address":"16309 E Rio Verde Dr","City":"Scottsdale","State":"AZ","Zip":"85262"},{"Location":"SCOTTSDALE FIRE STATION 616","Address":"9320 E Cave Creek Road","City":"Scottsdale","State":"AZ","Zip":"85262"},{"Location":"SCOTTSDALE NATIONAL","Address":"29001 N 122nd St","City":"Scottsdale","State":"AZ","Zip":"85262"},{"Location":"SCOTTSDALE NATIONAL RESEARCH","Address":"12156 E Dale Ln","City":"Scottsdale","State":"AZ","Zip":"85262"},{"Location":"SILVER SPURS EQUINE1","Address":"14445 E Quail Track Rd","City":"Scottsdale","State":"AZ","Zip":"85262"},{"Location":"SILVER SPURS EQUINE2","Address":"14445 E Quail Track Rd","City":"Scottsdale","State":"AZ","Zip":"85262"},{"Location":"SKY ISLAND SHIPPING","Address":"35512 N 142nd Pl","City":"Scottsdale","State":"AZ","Zip":"85262"},{"Location":"SOUTHWEST RESTAURANTS","Address":"10426 E Jomax Rd","City":"Scottsdale","State":"AZ","Zip":"85262"},{"Location":"TROON EYE CARE","Address":"10025 E Dynamite Blvd 115","City":"Scottsdale","State":"AZ","Zip":"85262"},{"Location":"ARIZONA LEASURE","Address":"10730 E Monument Dr","City":"Scottsdale","State":"AZ","Zip":"85262"},{"Location":"DESERT MOUNTAIN CLUB INC","Address":"10225 E Desert Hills Dr","City":"Scottsdale","State":"AZ","Zip":"85262"},{"Location":"DESERT MOUNTAIN CLUB INC","Address":"38580 N Desert Mountain Pkwy","City":"Scottsdale","State":"AZ","Zip":"85262"},{"Location":"DESERT MOUNTAIN CLUB INC","Address":"42429 N Saguaro Forest Dr","City":"Scottsdale","State":"AZ","Zip":"85262"},{"Location":"DESERT MOUNTAIN CLUB INC","Address":"10333 E Rockaway Hills Dr","City":"Scottsdale","State":"AZ","Zip":"85262"},{"Location":"DESERT MOUNTAIN MASTER ASSOC","Address":"10550 E Desert Hills Dr","City":"Scottsdale","State":"AZ","Zip":"85262"},{"Location":"DESERT MOUNTAIN PROPERTIES","Address":"11124 E Prospect Point Dr","City":"Scottsdale","State":"AZ","Zip":"85262"},{"Location":"DESERT MOUNTAIN PROPERTIES","Address":"10550 E Desert Hills Dr","City":"Scottsdale","State":"AZ","Zip":"85262"},{"Location":"ESTANCIA CLUB","Address":"27998 N 99th Pl","City":"Scottsdale","State":"AZ","Zip":"85262"},{"Location":"FOUR SEASONS RESORT","Address":"10600 E Crescent Moon Dr","City":"Scottsdale","State":"AZ","Zip":"85262"},{"Location":"FOUR SEASONS RESORT SCOT","Address":"10600 E Crescent Moon Dr","City":"Scottsdale","State":"AZ","Zip":"85262"},{"Location":"FOUR SEASONS RESORT SCOTTSDALE","Address":"10600 E Crescent Moon Dr","City":"Scottsdale","State":"AZ","Zip":"85262"},{"Location":"MIRABEL GOLF CLUB 2","Address":"37100 N Mirabel Club Dr","City":"Scottsdale","State":"AZ","Zip":"85262"},{"Location":"MIRABEL GOLF CLUB1","Address":"37100 N Mirabel Club Dr","City":"Scottsdale","State":"AZ","Zip":"85262"},{"Location":"OUT WEST STALLION STATION","Address":"15419 E Rio Verde Dr","City":"Scottsdale","State":"AZ","Zip":"85262"},{"Location":"OUTLAW CLUBHOUSE","Address":"41045 N Cave Creek Rd","City":"Scottsdale","State":"AZ","Zip":"85262"},{"Location":"RENEGADE HIDEOUT","Address":"38580 N Desert Mountain Pkwy","City":"Scottsdale","State":"AZ","Zip":"85262"},{"Location":"RESORT CLUB SCOTTSDALE","Address":"10650 E Crescent Moon Dr","City":"Scottsdale","State":"AZ","Zip":"85262"},{"Location":"ROCKS AT PINNACLE PEAK","Address":"27440 N Alma School Pkwy","City":"Scottsdale","State":"AZ","Zip":"85262"},{"Location":"ROSATIS PIZZA","Address":"10989 E Dynamite Blvd 102","City":"Scottsdale","State":"AZ","Zip":"85262"},{"Location":"RURAL METRO CORPORATION","Address":"16309 E Rio Verde Dr","City":"Scottsdale","State":"AZ","Zip":"85262"},{"Location":"SCOTTSDALE FIRE STATION 616","Address":"9320 E Cave Creek Road","City":"Scottsdale","State":"AZ","Zip":"85262"},{"Location":"SCOTTSDALE NATIONAL","Address":"29001 N 122nd St","City":"Scottsdale","State":"AZ","Zip":"85262"},{"Location":"SCOTTSDALE NATIONAL RESEARCH","Address":"12156 E Dale Ln","City":"Scottsdale","State":"AZ","Zip":"85262"},{"Location":"SILVER SPURS EQUINE1","Address":"14445 E Quail Track Rd","City":"Scottsdale","State":"AZ","Zip":"85262"},{"Location":"SILVER SPURS EQUINE2","Address":"14445 E Quail Track Rd","City":"Scottsdale","State":"AZ","Zip":"85262"},{"Location":"SKY ISLAND SHIPPING","Address":"35512 N 142nd Pl","City":"Scottsdale","State":"AZ","Zip":"85262"},{"Location":"SOUTHWEST RESTAURANTS","Address":"10426 E Jomax Rd","City":"Scottsdale","State":"AZ","Zip":"85262"},{"Location":"TROON EYE CARE","Address":"10025 E Dynamite Blvd 115","City":"Scottsdale","State":"AZ","Zip":"85262"}]