[{"Location":"FORT MCDOWELL FIRE DEPARTMENT","Address":"10755 N Fort Mcdowell Rd","City":"Fort Mcdowell","State":"AZ","Zip":"85264"},{"Location":"FORT MCDOWELL PARKS & RECREATI","Address":"16402 N Fort Mcdowell Rd","City":"Fort Mcdowell","State":"AZ","Zip":"85264"},{"Location":"FORT MCDOWELL YAVAPAI NATION","Address":"16708 N Ft Mcdowell Rd","City":"Fort Mcdowell","State":"AZ","Zip":"85264"},{"Location":"FORT MCDOWELL YAVAPAI NATION","Address":"17662 E Yavapai Rd","City":"Fort Mcdowell","State":"AZ","Zip":"85264"},{"Location":"LUCKY 7 SALOON","Address":"10424 N Fort Mcdowell Rd","City":"Fort Mcdowell","State":"AZ","Zip":"85264"},{"Location":"WASSAJA MEMORIAL HEALTH CENTER","Address":"16420 N Ft Mcdowell Rd","City":"Fort Mcdowell","State":"AZ","Zip":"85264"},{"Location":"WEKOPA GOLF CLUB","Address":"18200 E Toh Vee Cir","City":"Fort Mcdowell","State":"AZ","Zip":"85264"},{"Location":"FORT MCDOWELL SENIOR CENTER","Address":"18751 East Von Hun Na St","City":"Ft Mcdowell","State":"AZ","Zip":"85264"},{"Location":"WEKOPA RESORT","Address":"10438 N Fort Mcdowell Rd","City":"Scottsdale","State":"AZ","Zip":"85264"},{"Location":"FORT MCDOWELL FIRE DEPARTMENT","Address":"10755 N Fort Mcdowell Rd","City":"Fort Mcdowell","State":"AZ","Zip":"85264"},{"Location":"FORT MCDOWELL PARKS & RECREATI","Address":"16402 N Fort Mcdowell Rd","City":"Fort Mcdowell","State":"AZ","Zip":"85264"},{"Location":"FORT MCDOWELL YAVAPAI NATION","Address":"16708 N Ft Mcdowell Rd","City":"Fort Mcdowell","State":"AZ","Zip":"85264"},{"Location":"FORT MCDOWELL YAVAPAI NATION","Address":"17662 E Yavapai Rd","City":"Fort Mcdowell","State":"AZ","Zip":"85264"},{"Location":"LUCKY 7 SALOON","Address":"10424 N Fort Mcdowell Rd","City":"Fort Mcdowell","State":"AZ","Zip":"85264"},{"Location":"WASSAJA MEMORIAL HEALTH CENTER","Address":"16420 N Ft Mcdowell Rd","City":"Fort Mcdowell","State":"AZ","Zip":"85264"},{"Location":"WEKOPA GOLF CLUB","Address":"18200 E Toh Vee Cir","City":"Fort Mcdowell","State":"AZ","Zip":"85264"},{"Location":"FORT MCDOWELL SENIOR CENTER","Address":"18751 East Von Hun Na St","City":"Ft Mcdowell","State":"AZ","Zip":"85264"},{"Location":"WEKOPA RESORT","Address":"10438 N Fort Mcdowell Rd","City":"Scottsdale","State":"AZ","Zip":"85264"}]