[{"Location":"MARICOPA INTEGRATED HEALTH SYS","Address":"5825 E Calle Guadalupe","City":"Guadalupe","State":"AZ","Zip":"85283"},{"Location":"ARIZONA BANK AND TRUST","Address":"980 E Baseline Rd","City":"Tempe","State":"AZ","Zip":"85283"},{"Location":"BARROS PIZZA TEMPE","Address":"950 E Baseline Rd 101","City":"Tempe","State":"AZ","Zip":"85283"},{"Location":"BASELINE PUB","Address":"1825 E Baseline Rd","City":"Tempe","State":"AZ","Zip":"85283"},{"Location":"BASELINE SPORTS BAR","Address":"201 E Baseline Rd","City":"Tempe","State":"AZ","Zip":"85283"},{"Location":"BEGAN CLASSIC ITALIAN","Address":"6434 S Mcclintock Dr","City":"Tempe","State":"AZ","Zip":"85283"},{"Location":"BOGEY'S GRILL","Address":"6463 S Rural Rd","City":"Tempe","State":"AZ","Zip":"85283"},{"Location":"BOSA DONUTS","Address":"37 W Baseline Rd 37","City":"Tempe","State":"AZ","Zip":"85283"},{"Location":"CARRIBEAN SPICE","Address":"219 E Baseline Rd H1","City":"Tempe","State":"AZ","Zip":"85283"},{"Location":"CELERION INC","Address":"2420 W Baseline Rd","City":"Tempe","State":"AZ","Zip":"85283"},{"Location":"CHAPMAN AUTO BODY","Address":"5301 S Kyrene Rd","City":"Tempe","State":"AZ","Zip":"85283"},{"Location":"CHAPMAN CHEV AND ISUZU","Address":"1717 E Baseline Rd","City":"Tempe","State":"AZ","Zip":"85283"},{"Location":"CHAPMAN CHEV AND ISUZU TWO","Address":"1717 E Baseline Rd","City":"Tempe","State":"AZ","Zip":"85283"},{"Location":"CHAPMAN CHEVELOT","Address":"1717 E Baseline Rd 2","City":"Tempe","State":"AZ","Zip":"85283"},{"Location":"CHINA BUFFET","Address":"1813 E Baseline Rd","City":"Tempe","State":"AZ","Zip":"85283"},{"Location":"CLAIM JUMPER #25","Address":"1530 W Baseline Rd","City":"Tempe","State":"AZ","Zip":"85283"},{"Location":"CLOCKWORK PIZZA","Address":"7520 S Rural Rd","City":"Tempe","State":"AZ","Zip":"85283"},{"Location":"COBBLESTONE AUTO SPA","Address":"616 W Baseline Rd","City":"Tempe","State":"AZ","Zip":"85283"},{"Location":"COX REELS","Address":"5865 S Ash Ave","City":"Tempe","State":"AZ","Zip":"85283"},{"Location":"DESERT ENDOSCOPY CENTER","Address":"610 E Baseline Rd","City":"Tempe","State":"AZ","Zip":"85283"},{"Location":"DESIGN SOURCE FURNITURE","Address":"7200 S Priest Dr","City":"Tempe","State":"AZ","Zip":"85283"},{"Location":"DM ANALYTICS","Address":"401 W Baseline Rd 109","City":"Tempe","State":"AZ","Zip":"85283"},{"Location":"DOM' S BARBERSHOP","Address":"1827 E Valencia Dr","City":"Tempe","State":"AZ","Zip":"85283"},{"Location":"FIRESTONE #020516","Address":"930 E Baseline Rd","City":"Tempe","State":"AZ","Zip":"85283"},{"Location":"FLOOR AND DECOR","Address":"7500 S Priest Dr","City":"Tempe","State":"AZ","Zip":"85283"},{"Location":"FONZI FOOD LLC","Address":"5394 S Lakeshore Dr","City":"Tempe","State":"AZ","Zip":"85283"},{"Location":"FUDDRUCKER'S #3235","Address":"7470 S Priest Dr","City":"Tempe","State":"AZ","Zip":"85283"},{"Location":"HUMANA 02021 044","Address":"7333 S Hardy Dr 102","City":"Tempe","State":"AZ","Zip":"85283"},{"Location":"HUSS BREWING COMPANY","Address":"1520 W Mineral Rd 102","City":"Tempe","State":"AZ","Zip":"85283"},{"Location":"IRONHORSE BICYCLES LLC","Address":"1843 E Baseline Rd","City":"Tempe","State":"AZ","Zip":"85283"},{"Location":"J&S MOXIE INC%2FGEICO","Address":"815 E Baseline Rd 105","City":"Tempe","State":"AZ","Zip":"85283"},{"Location":"JAB FITNESS","Address":"7305 S Kyrene Rd 112","City":"Tempe","State":"AZ","Zip":"85283"},{"Location":"JCS #0669 - TEMPE-BASELINE","Address":"1606 W Baseline Rd","City":"Tempe","State":"AZ","Zip":"85283"},{"Location":"JERRIK INC","Address":"102 W Julie Dr","City":"Tempe","State":"AZ","Zip":"85283"},{"Location":"JIFFY LUBE #1658","Address":"250 W Guadalupe Rd","City":"Tempe","State":"AZ","Zip":"85283"},{"Location":"K MANAGEMENT SERVICES","Address":"730 E Guadalupe Rd 100","City":"Tempe","State":"AZ","Zip":"85283"},{"Location":"K T KEEP IN TOUCH NAILS","Address":"1712 E Guadalupe Rd 104","City":"Tempe","State":"AZ","Zip":"85283"},{"Location":"KIDNEY PUNCHER LLC","Address":"227 E Baseline Rd","City":"Tempe","State":"AZ","Zip":"85283"},{"Location":"KITCH ENT. LLC DBA SCULLY'S","Address":"1807 E Baseline Rd 101","City":"Tempe","State":"AZ","Zip":"85283"},{"Location":"LA FONDA MEXICAN","Address":"1831 E Baseline Rd","City":"Tempe","State":"AZ","Zip":"85283"},{"Location":"MAC'S BROILER & TAP","Address":"6430 S Mcclintock Dr","City":"Tempe","State":"AZ","Zip":"85283"},{"Location":"MIELE'S ITALIAN BISTRO","Address":"1835 E Guadalupe Rd D111","City":"Tempe","State":"AZ","Zip":"85283"},{"Location":"MISCO","Address":"1820 W Drake Dr 105","City":"Tempe","State":"AZ","Zip":"85283"},{"Location":"MISSION FOODS","Address":"5860 S Ash Ave","City":"Tempe","State":"AZ","Zip":"85283"},{"Location":"NACHO MAMAS","Address":"5235 S Kyrene Rd 104","City":"Tempe","State":"AZ","Zip":"85283"},{"Location":"OPTIONS A SALON","Address":"963 E Guadalupe Rd","City":"Tempe","State":"AZ","Zip":"85283"},{"Location":"ORTHODONIC SPECIALISTS LTD","Address":"6200 S Mcclintock Dr Ste11","City":"Tempe","State":"AZ","Zip":"85283"},{"Location":"PETER PIPER PIZZA # 172","Address":"1805 E Baseline Rd","City":"Tempe","State":"AZ","Zip":"85283"},{"Location":"ROMAN ROOFING","Address":"1849 E Baseline Rd 1857","City":"Tempe","State":"AZ","Zip":"85283"},{"Location":"SERRANOS MEXICAN RESTURANT","Address":"6440 S Rural Rd","City":"Tempe","State":"AZ","Zip":"85283"},{"Location":"SOUTH POINT ANIMAL CLINIC","Address":"2700 W Baseline Rd 107","City":"Tempe","State":"AZ","Zip":"85283"},{"Location":"SPECTRA CONTRACT FLOORING","Address":"5325 S Kyrene Rd 101","City":"Tempe","State":"AZ","Zip":"85283"},{"Location":"SPORT CLIPS AZ121","Address":"815 E Baseline Rd","City":"Tempe","State":"AZ","Zip":"85283"},{"Location":"SUBWAY #51449","Address":"1849 E Quadalupe Pad #c101","City":"Tempe","State":"AZ","Zip":"85283"},{"Location":"SUBWAY #7254","Address":"815 E Baseline Rd 109","City":"Tempe","State":"AZ","Zip":"85283"},{"Location":"TEMPE DENTAL CARE","Address":"5801 S Mcclintock Dr","City":"Tempe","State":"AZ","Zip":"85283"},{"Location":"TEMPE SMILE DESIGN","Address":"1712 E Guadalupe Rd 109","City":"Tempe","State":"AZ","Zip":"85283"},{"Location":"THE WATERSHED","Address":"5350 S Lakeshore Dr","City":"Tempe","State":"AZ","Zip":"85283"},{"Location":"TZIKII PITA GRILL","Address":"7510 S Priest Dr 105","City":"Tempe","State":"AZ","Zip":"85283"},{"Location":"UNITED RECOVERY SYSTEMS","Address":"7340 S Kyrene Rd 111","City":"Tempe","State":"AZ","Zip":"85283"},{"Location":"UP IN SMOKE","Address":"27 W Baseline Rd","City":"Tempe","State":"AZ","Zip":"85283"},{"Location":"WIGGLES AND WAGS LLC","Address":"1811 E Baseline Rd","City":"Tempe","State":"AZ","Zip":"85283"},{"Location":"WOODSHED I","Address":"19 W Baseline Rd","City":"Tempe","State":"AZ","Zip":"85283"},{"Location":"ZOYO NEIGHBORHOOD YOGURT","Address":"6350 S Mcclintock Dr","City":"Tempe","State":"AZ","Zip":"85283"},{"Location":"MARICOPA INTEGRATED HEALTH SYS","Address":"5825 E Calle Guadalupe","City":"Guadalupe","State":"AZ","Zip":"85283"},{"Location":"ARIZONA BANK AND TRUST","Address":"980 E Baseline Rd","City":"Tempe","State":"AZ","Zip":"85283"},{"Location":"BARROS PIZZA TEMPE","Address":"950 E Baseline Rd 101","City":"Tempe","State":"AZ","Zip":"85283"},{"Location":"BASELINE PUB","Address":"1825 E Baseline Rd","City":"Tempe","State":"AZ","Zip":"85283"},{"Location":"BASELINE SPORTS BAR","Address":"201 E Baseline Rd","City":"Tempe","State":"AZ","Zip":"85283"},{"Location":"BEGAN CLASSIC ITALIAN","Address":"6434 S Mcclintock Dr","City":"Tempe","State":"AZ","Zip":"85283"},{"Location":"BOGEY'S GRILL","Address":"6463 S Rural Rd","City":"Tempe","State":"AZ","Zip":"85283"},{"Location":"BOSA DONUTS","Address":"37 W Baseline Rd 37","City":"Tempe","State":"AZ","Zip":"85283"},{"Location":"CARRIBEAN SPICE","Address":"219 E Baseline Rd H1","City":"Tempe","State":"AZ","Zip":"85283"},{"Location":"CELERION INC","Address":"2420 W Baseline Rd","City":"Tempe","State":"AZ","Zip":"85283"},{"Location":"CHAPMAN AUTO BODY","Address":"5301 S Kyrene Rd","City":"Tempe","State":"AZ","Zip":"85283"},{"Location":"CHAPMAN CHEV AND ISUZU","Address":"1717 E Baseline Rd","City":"Tempe","State":"AZ","Zip":"85283"},{"Location":"CHAPMAN CHEV AND ISUZU TWO","Address":"1717 E Baseline Rd","City":"Tempe","State":"AZ","Zip":"85283"},{"Location":"CHAPMAN CHEVELOT","Address":"1717 E Baseline Rd 2","City":"Tempe","State":"AZ","Zip":"85283"},{"Location":"CHINA BUFFET","Address":"1813 E Baseline Rd","City":"Tempe","State":"AZ","Zip":"85283"},{"Location":"CLAIM JUMPER #25","Address":"1530 W Baseline Rd","City":"Tempe","State":"AZ","Zip":"85283"},{"Location":"CLOCKWORK PIZZA","Address":"7520 S Rural Rd","City":"Tempe","State":"AZ","Zip":"85283"},{"Location":"COBBLESTONE AUTO SPA","Address":"616 W Baseline Rd","City":"Tempe","State":"AZ","Zip":"85283"},{"Location":"COX REELS","Address":"5865 S Ash Ave","City":"Tempe","State":"AZ","Zip":"85283"},{"Location":"DESERT ENDOSCOPY CENTER","Address":"610 E Baseline Rd","City":"Tempe","State":"AZ","Zip":"85283"},{"Location":"DESIGN SOURCE FURNITURE","Address":"7200 S Priest Dr","City":"Tempe","State":"AZ","Zip":"85283"},{"Location":"DM ANALYTICS","Address":"401 W Baseline Rd 109","City":"Tempe","State":"AZ","Zip":"85283"},{"Location":"DOM' S BARBERSHOP","Address":"1827 E Valencia Dr","City":"Tempe","State":"AZ","Zip":"85283"},{"Location":"FIRESTONE #020516","Address":"930 E Baseline Rd","City":"Tempe","State":"AZ","Zip":"85283"},{"Location":"FLOOR AND DECOR","Address":"7500 S Priest Dr","City":"Tempe","State":"AZ","Zip":"85283"},{"Location":"FONZI FOOD LLC","Address":"5394 S Lakeshore Dr","City":"Tempe","State":"AZ","Zip":"85283"},{"Location":"FUDDRUCKER'S #3235","Address":"7470 S Priest Dr","City":"Tempe","State":"AZ","Zip":"85283"},{"Location":"HUMANA 02021 044","Address":"7333 S Hardy Dr 102","City":"Tempe","State":"AZ","Zip":"85283"},{"Location":"HUSS BREWING COMPANY","Address":"1520 W Mineral Rd 102","City":"Tempe","State":"AZ","Zip":"85283"},{"Location":"IRONHORSE BICYCLES LLC","Address":"1843 E Baseline Rd","City":"Tempe","State":"AZ","Zip":"85283"},{"Location":"J&S MOXIE INC%2FGEICO","Address":"815 E Baseline Rd 105","City":"Tempe","State":"AZ","Zip":"85283"},{"Location":"JAB FITNESS","Address":"7305 S Kyrene Rd 112","City":"Tempe","State":"AZ","Zip":"85283"},{"Location":"JCS #0669 - TEMPE-BASELINE","Address":"1606 W Baseline Rd","City":"Tempe","State":"AZ","Zip":"85283"},{"Location":"JERRIK INC","Address":"102 W Julie Dr","City":"Tempe","State":"AZ","Zip":"85283"},{"Location":"JIFFY LUBE #1658","Address":"250 W Guadalupe Rd","City":"Tempe","State":"AZ","Zip":"85283"},{"Location":"K MANAGEMENT SERVICES","Address":"730 E Guadalupe Rd 100","City":"Tempe","State":"AZ","Zip":"85283"},{"Location":"K T KEEP IN TOUCH NAILS","Address":"1712 E Guadalupe Rd 104","City":"Tempe","State":"AZ","Zip":"85283"},{"Location":"KIDNEY PUNCHER LLC","Address":"227 E Baseline Rd","City":"Tempe","State":"AZ","Zip":"85283"},{"Location":"KITCH ENT. LLC DBA SCULLY'S","Address":"1807 E Baseline Rd 101","City":"Tempe","State":"AZ","Zip":"85283"},{"Location":"LA FONDA MEXICAN","Address":"1831 E Baseline Rd","City":"Tempe","State":"AZ","Zip":"85283"},{"Location":"MAC'S BROILER & TAP","Address":"6430 S Mcclintock Dr","City":"Tempe","State":"AZ","Zip":"85283"},{"Location":"MIELE'S ITALIAN BISTRO","Address":"1835 E Guadalupe Rd D111","City":"Tempe","State":"AZ","Zip":"85283"},{"Location":"MISCO","Address":"1820 W Drake Dr 105","City":"Tempe","State":"AZ","Zip":"85283"},{"Location":"MISSION FOODS","Address":"5860 S Ash Ave","City":"Tempe","State":"AZ","Zip":"85283"},{"Location":"NACHO MAMAS","Address":"5235 S Kyrene Rd 104","City":"Tempe","State":"AZ","Zip":"85283"},{"Location":"OPTIONS A SALON","Address":"963 E Guadalupe Rd","City":"Tempe","State":"AZ","Zip":"85283"},{"Location":"ORTHODONIC SPECIALISTS LTD","Address":"6200 S Mcclintock Dr Ste11","City":"Tempe","State":"AZ","Zip":"85283"},{"Location":"PETER PIPER PIZZA # 172","Address":"1805 E Baseline Rd","City":"Tempe","State":"AZ","Zip":"85283"},{"Location":"ROMAN ROOFING","Address":"1849 E Baseline Rd 1857","City":"Tempe","State":"AZ","Zip":"85283"},{"Location":"SERRANOS MEXICAN RESTURANT","Address":"6440 S Rural Rd","City":"Tempe","State":"AZ","Zip":"85283"},{"Location":"SOUTH POINT ANIMAL CLINIC","Address":"2700 W Baseline Rd 107","City":"Tempe","State":"AZ","Zip":"85283"},{"Location":"SPECTRA CONTRACT FLOORING","Address":"5325 S Kyrene Rd 101","City":"Tempe","State":"AZ","Zip":"85283"},{"Location":"SPORT CLIPS AZ121","Address":"815 E Baseline Rd","City":"Tempe","State":"AZ","Zip":"85283"},{"Location":"SUBWAY #51449","Address":"1849 E Quadalupe Pad #c101","City":"Tempe","State":"AZ","Zip":"85283"},{"Location":"SUBWAY #7254","Address":"815 E Baseline Rd 109","City":"Tempe","State":"AZ","Zip":"85283"},{"Location":"TEMPE DENTAL CARE","Address":"5801 S Mcclintock Dr","City":"Tempe","State":"AZ","Zip":"85283"},{"Location":"TEMPE SMILE DESIGN","Address":"1712 E Guadalupe Rd 109","City":"Tempe","State":"AZ","Zip":"85283"},{"Location":"THE WATERSHED","Address":"5350 S Lakeshore Dr","City":"Tempe","State":"AZ","Zip":"85283"},{"Location":"TZIKII PITA GRILL","Address":"7510 S Priest Dr 105","City":"Tempe","State":"AZ","Zip":"85283"},{"Location":"UNITED RECOVERY SYSTEMS","Address":"7340 S Kyrene Rd 111","City":"Tempe","State":"AZ","Zip":"85283"},{"Location":"UP IN SMOKE","Address":"27 W Baseline Rd","City":"Tempe","State":"AZ","Zip":"85283"},{"Location":"WIGGLES AND WAGS LLC","Address":"1811 E Baseline Rd","City":"Tempe","State":"AZ","Zip":"85283"},{"Location":"WOODSHED I","Address":"19 W Baseline Rd","City":"Tempe","State":"AZ","Zip":"85283"},{"Location":"ZOYO NEIGHBORHOOD YOGURT","Address":"6350 S Mcclintock Dr","City":"Tempe","State":"AZ","Zip":"85283"}]