[{"Location":"1OVITT & TOUCHE INC","Address":"1050 E Washington","City":"Tempe","State":"AZ","Zip":"85281"},{"Location":"360 PHYICAL THERAPY","Address":"1805 N Scottsdale Rd","City":"Tempe","State":"AZ","Zip":"85281"},{"Location":"4ONE4 PUB & PIZZA","Address":"414 S Mill Ave 118","City":"Tempe","State":"AZ","Zip":"85281"},{"Location":"910 LIVE","Address":"910 N Mcclintock Dr","City":"Tempe","State":"AZ","Zip":"85281"},{"Location":"A & N SUN VALLEY DENTAL","Address":"960 W University Dr 115","City":"Tempe","State":"AZ","Zip":"85281"},{"Location":"ALOFT TEMPE","Address":"951 East Plaza Del Norte Dr","City":"Tempe","State":"AZ","Zip":"85281"},{"Location":"ALPH GRAPHICS","Address":"815 W University Dr 101","City":"Tempe","State":"AZ","Zip":"85281"},{"Location":"AMERISURE MUTUAL INSURAN","Address":"1230 W Washington St 207","City":"Tempe","State":"AZ","Zip":"85281"},{"Location":"AMPLIFIED HOSPITALITY","Address":"501 S Mill Ave B101","City":"Tempe","State":"AZ","Zip":"85281"},{"Location":"ANTHONY ROBINSON","Address":"921 E Curry Rd","City":"Tempe","State":"AZ","Zip":"85281"},{"Location":"ARIZADO INC","Address":"1255 W Rio Salado Pkwy 207","City":"Tempe","State":"AZ","Zip":"85281"},{"Location":"ARIZONA HOME CARE","Address":"1626 S Edward Dr","City":"Tempe","State":"AZ","Zip":"85281"},{"Location":"ARIZONA REGIONAL MULTIPL","Address":"130 S Priest Dr 101","City":"Tempe","State":"AZ","Zip":"85281"},{"Location":"ARIZONA STATE UNIV ENGINEERING","Address":"699 S Mill Ave","City":"Tempe","State":"AZ","Zip":"85281"},{"Location":"ARIZONA STATE UNIVERSITY","Address":"1551 S Rural Rd","City":"Tempe","State":"AZ","Zip":"85281"},{"Location":"ARIZONA STATE UNIVERSITY-MEMOR","Address":"1290      S Normal Ave Mu","City":"Tempe","State":"AZ","Zip":"85281"},{"Location":"ASU CAMPUS RECREATION","Address":"400 E Apache Blvd","City":"Tempe","State":"AZ","Zip":"85281"},{"Location":"ASU HEALTH SERVICES","Address":"451 E University Dr","City":"Tempe","State":"AZ","Zip":"85281"},{"Location":"ASU SUN DEVIL PERFORMANCE CENT","Address":"650 S Athletes Pl","City":"Tempe","State":"AZ","Zip":"85281"},{"Location":"ASU WOMEN'S BASKETBALL","Address":"521 S Rural Rd","City":"Tempe","State":"AZ","Zip":"85281"},{"Location":"AUDIO EXPRESS","Address":"550 N Scottsdale Rd","City":"Tempe","State":"AZ","Zip":"85281"},{"Location":"AUTOMATED CONTROL TECHNOLOGY","Address":"2414 W 14th St","City":"Tempe","State":"AZ","Zip":"85281"},{"Location":"AZ TIP & TOES NAILS","Address":"851 W University Dr","City":"Tempe","State":"AZ","Zip":"85281"},{"Location":"BAER'S","Address":"925 E Apache Blvd","City":"Tempe","State":"AZ","Zip":"85281"},{"Location":"BANK OF AMERICA AZ1-807-01-05","Address":"1515 W 14th St","City":"Tempe","State":"AZ","Zip":"85281"},{"Location":"BEER HOP","Address":"1324 W University Dr","City":"Tempe","State":"AZ","Zip":"85281"},{"Location":"BELLA NAIL & SPA","Address":"904 N Scottsdale Rd 105","City":"Tempe","State":"AZ","Zip":"85281"},{"Location":"BIG FAT GREEK RESTAURANT","Address":"525 S Mill Ave","City":"Tempe","State":"AZ","Zip":"85281"},{"Location":"BL RESTAURANTS 1207","Address":"2000 E Rio Salado Pkwy 1220","City":"Tempe","State":"AZ","Zip":"85281"},{"Location":"BLASTED BARLEY","Address":"404 S Mill Ave 101","City":"Tempe","State":"AZ","Zip":"85281"},{"Location":"BLUFISH DESIGN STUDIO","Address":"110 E 7th St","City":"Tempe","State":"AZ","Zip":"85281"},{"Location":"BROCK SUPPLY COMPANY","Address":"2150 E Rio Salado Pkwy","City":"Tempe","State":"AZ","Zip":"85281"},{"Location":"BUFFALO WILD WINGS #0271","Address":"705 S Rural Rd 104","City":"Tempe","State":"AZ","Zip":"85281"},{"Location":"CACTUS SPORTS","Address":"514 S Mill Ave","City":"Tempe","State":"AZ","Zip":"85281"},{"Location":"CAFE BOA","Address":"398 S Mill Ave","City":"Tempe","State":"AZ","Zip":"85281"},{"Location":"CAFE ROMA PIZZERIA","Address":"1158 W Washington St 104","City":"Tempe","State":"AZ","Zip":"85281"},{"Location":"CALIBER COLLISION TEMPE","Address":"2025 E Rio Salado Pkwy","City":"Tempe","State":"AZ","Zip":"85281"},{"Location":"CALIBRUS","Address":"1225 W Washington St 213","City":"Tempe","State":"AZ","Zip":"85281"},{"Location":"CALIFORNIA PIZZA KITCHEN #232","Address":"2000 E Rio Salado Pkwy","City":"Tempe","State":"AZ","Zip":"85281"},{"Location":"CARD FLIP 11","Address":"1730 E Apache Blvd 107","City":"Tempe","State":"AZ","Zip":"85281"},{"Location":"CASA SUN BAR","Address":"15 E 6th St","City":"Tempe","State":"AZ","Zip":"85281"},{"Location":"CASEY MOORES","Address":"850 S Ash Ave","City":"Tempe","State":"AZ","Zip":"85281"},{"Location":"CHASE","Address":"100 W University Dr","City":"Tempe","State":"AZ","Zip":"85281"},{"Location":"CHASE MANHATTAN BANK","Address":"100 W University Dr","City":"Tempe","State":"AZ","Zip":"85281"},{"Location":"CHOICE AUTO REPAIR","Address":"851 S Dorsey Ln","City":"Tempe","State":"AZ","Zip":"85281"},{"Location":"CHOMPIES-TEMPE","Address":"1160 E University Dr","City":"Tempe","State":"AZ","Zip":"85281"},{"Location":"CHURCHILLS FINE CIGARS 4","Address":"640 S Mill Ave","City":"Tempe","State":"AZ","Zip":"85281"},{"Location":"CITRIX ON LINE","Address":"60 E Rio Salado Pkwy 200","City":"Tempe","State":"AZ","Zip":"85281"},{"Location":"COSTA VIDA GOODYEAR","Address":"1324 S Rural Rd","City":"Tempe","State":"AZ","Zip":"85281"},{"Location":"CULINARY DROPOUT TEMPE","Address":"149 S Farmer Ave 103","City":"Tempe","State":"AZ","Zip":"85281"},{"Location":"DAVE AND BUSTER'S #52","Address":"2000 E Rio Salado Pkwy 1100","City":"Tempe","State":"AZ","Zip":"85281"},{"Location":"DAVITA #1373 LIFELINE","Address":"1100 E University Dr 102","City":"Tempe","State":"AZ","Zip":"85281"},{"Location":"DEVIL'S ADVOCATE","Address":"955 E University Dr","City":"Tempe","State":"AZ","Zip":"85281"},{"Location":"DHL EXPRESS","Address":"1144 W Washington St","City":"Tempe","State":"AZ","Zip":"85281"},{"Location":"DHL GLOBAL FORWARDING","Address":"1155 W Rio Salado Pkwy","City":"Tempe","State":"AZ","Zip":"85281"},{"Location":"DIGGS LOGO PRODUCTS INC","Address":"1403 W 10th Pl 107","City":"Tempe","State":"AZ","Zip":"85281"},{"Location":"DRAVENS BARBERSHOP","Address":"1336 E Apache Blvd","City":"Tempe","State":"AZ","Zip":"85281"},{"Location":"EL HEFE TEMPE","Address":"640 S Mill Ave","City":"Tempe","State":"AZ","Zip":"85281"},{"Location":"ENDURANCE INTERNATIONAL","Address":"1500 N Priest Dr","City":"Tempe","State":"AZ","Zip":"85281"},{"Location":"EPN - CLINTON BOOTH","Address":"1625 W University Dr 117","City":"Tempe","State":"AZ","Zip":"85281"},{"Location":"EVV VAPOR LOUNGE","Address":"827 S Rural Rd","City":"Tempe","State":"AZ","Zip":"85281"},{"Location":"EYE SITE SURVEILLANCE","Address":"2343 W University Dr 106","City":"Tempe","State":"AZ","Zip":"85281"},{"Location":"FAST GOOD FOOD LLC","Address":"560 S College Ave 101","City":"Tempe","State":"AZ","Zip":"85281"},{"Location":"FATEMA MARKET LLC","Address":"1035 E Lemon St","City":"Tempe","State":"AZ","Zip":"85281"},{"Location":"FDIC","Address":"350 W Washington St 213","City":"Tempe","State":"AZ","Zip":"85281"},{"Location":"FERGUSON #0628","Address":"1720 S Los Feliz Dr","City":"Tempe","State":"AZ","Zip":"85281"},{"Location":"FIDELITY NATIONAL TITLE","Address":"1721 W Rio Salado Pkwy","City":"Tempe","State":"AZ","Zip":"85281"},{"Location":"FIRST CALL","Address":"1401 S 52nd St 115","City":"Tempe","State":"AZ","Zip":"85281"},{"Location":"FIT ZONE","Address":"1301 E University Dr 125","City":"Tempe","State":"AZ","Zip":"85281"},{"Location":"FLAMING KABOB","Address":"921 E University Dr","City":"Tempe","State":"AZ","Zip":"85281"},{"Location":"FOUR PEAKS BREWING CO.","Address":"1340 E 8th St 104","City":"Tempe","State":"AZ","Zip":"85281"},{"Location":"FOUR PEAKS GRILL TAP","Address":"Po Box 7399","City":"Tempe","State":"AZ","Zip":"85281"},{"Location":"FUZZYS TACO SHOP","Address":"414 S Mill Ave 115","City":"Tempe","State":"AZ","Zip":"85281"},{"Location":"GENGHIS GRILL","Address":"2000 E Rio Salado Pkwy 1115","City":"Tempe","State":"AZ","Zip":"85281"},{"Location":"GORDON BIERSCH #4607","Address":"420 S Mill Ave","City":"Tempe","State":"AZ","Zip":"85281"},{"Location":"GRINGO STAR STREET BAR","Address":"501 S Mill Ave 101","City":"Tempe","State":"AZ","Zip":"85281"},{"Location":"GUS PIZZA","Address":"829 S Rural Rd","City":"Tempe","State":"AZ","Zip":"85281"},{"Location":"HAMPTON INN TEMPE COM","Address":"1415 N Scottsdale Rd","City":"Tempe","State":"AZ","Zip":"85281"},{"Location":"HARDISON DOWNEY CONST","Address":"1120 E Apache Blvd","City":"Tempe","State":"AZ","Zip":"85281"},{"Location":"HARRY'S PLACE","Address":"60 E 5th St","City":"Tempe","State":"AZ","Zip":"85281"},{"Location":"HEALTHE SYSTEMS","Address":"1295 W Washington St 115","City":"Tempe","State":"AZ","Zip":"85281"},{"Location":"HIGH MAINTANENCE","Address":"24 W 5th St","City":"Tempe","State":"AZ","Zip":"85281"},{"Location":"HOOTERS TEMPE","Address":"501 S Mill Ave 201","City":"Tempe","State":"AZ","Zip":"85281"},{"Location":"JE DUNN CONSTRUCTION","Address":"2000 W University Dr","City":"Tempe","State":"AZ","Zip":"85281"},{"Location":"JERRYS LIQUORS","Address":"1217 S Rural Rd","City":"Tempe","State":"AZ","Zip":"85281"},{"Location":"JERSEY MIKES SUBS  #9002","Address":"555 N Scottsdale Rd 103","City":"Tempe","State":"AZ","Zip":"85281"},{"Location":"JIFFY LUBE #1783","Address":"1355 S Mcclintock Dr","City":"Tempe","State":"AZ","Zip":"85281"},{"Location":"JK COMMUNICATIONS","Address":"110 S Priest Dr 101","City":"Tempe","State":"AZ","Zip":"85281"},{"Location":"JR INCOME TAX","Address":"1438 N Scottsdale Rd 1438","City":"Tempe","State":"AZ","Zip":"85281"},{"Location":"JSL ENTERPRISES INC","Address":"1769 W University Dr 182","City":"Tempe","State":"AZ","Zip":"85281"},{"Location":"KABUKI","Address":"2000 E Rio Salado Pkwy","City":"Tempe","State":"AZ","Zip":"85281"},{"Location":"KHAI HOAN","Address":"1537 E Apache Blvd","City":"Tempe","State":"AZ","Zip":"85281"},{"Location":"KING'S FISH HOUSE TEMPE","Address":"35 S Mcclintock Dr","City":"Tempe","State":"AZ","Zip":"85281"},{"Location":"LA CASCIO RESTAURANT","Address":"2210 N Scottsdale Rd","City":"Tempe","State":"AZ","Zip":"85281"},{"Location":"LAKE AND COBB PLC","Address":"1095 W Rio Salado Pkwy 206","City":"Tempe","State":"AZ","Zip":"85281"},{"Location":"LAPAZ","Address":"114 S River Dr 102","City":"Tempe","State":"AZ","Zip":"85281"},{"Location":"LIMELIGHT NETWORKS INC","Address":"2220 W 14th St","City":"Tempe","State":"AZ","Zip":"85281"},{"Location":"LIQUOR EXPRESS","Address":"1605 E Apache Blvd","City":"Tempe","State":"AZ","Zip":"85281"},{"Location":"LOCO PATRON TEMPE","Address":"222 S Mill Ave 115","City":"Tempe","State":"AZ","Zip":"85281"},{"Location":"LUCILLE'S #25","Address":"2030 E Rio Salado Pkwy","City":"Tempe","State":"AZ","Zip":"85281"},{"Location":"LUX INTERIOR CONTRACTORS","Address":"1711 W University Dr 155","City":"Tempe","State":"AZ","Zip":"85281"},{"Location":"LVA URBAN DESIGN","Address":"120 S Ash Ave","City":"Tempe","State":"AZ","Zip":"85281"},{"Location":"MACAYO MEXICAN RESTAURANT","Address":"300 S Ash Ave","City":"Tempe","State":"AZ","Zip":"85281"},{"Location":"MACYS CREDIT AND CUSTOMER SVCS","Address":"1345 S 52nd St","City":"Tempe","State":"AZ","Zip":"85281"},{"Location":"MAD HATTER BREW PUB","Address":"502 S College Ave 103","City":"Tempe","State":"AZ","Zip":"85281"},{"Location":"MAKIN DOUGH DBA SLICES","Address":"2000 E Rio Salado Pkwy","City":"Tempe","State":"AZ","Zip":"85281"},{"Location":"MANCHESTER ALLIANCE GRP","Address":"808 N Scottsdale Rd","City":"Tempe","State":"AZ","Zip":"85281"},{"Location":"MDI","Address":"1275 W Washington St","City":"Tempe","State":"AZ","Zip":"85281"},{"Location":"MEDFRESH GRILL","Address":"414 S Mill Ave 117","City":"Tempe","State":"AZ","Zip":"85281"},{"Location":"MEDSPACE INC","Address":"1250 W Washington St 442","City":"Tempe","State":"AZ","Zip":"85281"},{"Location":"MELLOW MUSHROOM MILL AVE","Address":"740 S Mill Ave D100","City":"Tempe","State":"AZ","Zip":"85281"},{"Location":"MEN'S WEARHOUSE #2502","Address":"2010 E Rio Salado Pkwy 105","City":"Tempe","State":"AZ","Zip":"85281"},{"Location":"MICROCHIP TECHNOLOGIES INC","Address":"1200 S 52nd St","City":"Tempe","State":"AZ","Zip":"85281"},{"Location":"MICROSOFT CORPORATION","Address":"60 East Iro Salado Parkway 12flo","City":"Tempe","State":"AZ","Zip":"85281"},{"Location":"MISSION AT MINDER BINDER","Address":"715 S Mcclintock Dr","City":"Tempe","State":"AZ","Zip":"85281"},{"Location":"MODERNA ARCHITECTS","Address":"738 S Perry Ln 11","City":"Tempe","State":"AZ","Zip":"85281"},{"Location":"MOONSHINE GROUP LLC","Address":"410 S Mill Ave 101","City":"Tempe","State":"AZ","Zip":"85281"},{"Location":"MOQUINOS BODY AND PAINT","Address":"800 N Miller Rd Blda","City":"Tempe","State":"AZ","Zip":"85281"},{"Location":"MOUNTAIN SIDE FITNESS","Address":"1230 W Washington St 111","City":"Tempe","State":"AZ","Zip":"85281"},{"Location":"NATL CREDIT UNION ADMIN","Address":"1230 W Washington St 301","City":"Tempe","State":"AZ","Zip":"85281"},{"Location":"NET TRANSCRIPTS INC","Address":"425 S 48th St 101","City":"Tempe","State":"AZ","Zip":"85281"},{"Location":"NEXTCARE URGENT CARE","Address":"914 N Scottsdale Rd 104","City":"Tempe","State":"AZ","Zip":"85281"},{"Location":"NOA PHOENIX","Address":"1521 N Project Dr","City":"Tempe","State":"AZ","Zip":"85281"},{"Location":"NORDSTROM RACK - TEMPE","Address":"1900 E Rio Salado Pkwy 130","City":"Tempe","State":"AZ","Zip":"85281"},{"Location":"OCEANSIDE ICE ARENEA","Address":"1520 N Mcclintock Dr","City":"Tempe","State":"AZ","Zip":"85281"},{"Location":"OCTOBLU INC","Address":"401 S Mill Ave 201","City":"Tempe","State":"AZ","Zip":"85281"},{"Location":"OKLAND CONSTRUCTION INC","Address":"1700 N Mcclintock Dr","City":"Tempe","State":"AZ","Zip":"85281"},{"Location":"ORANGE TABLE G ENTERTAIN","Address":"203 E 7th St","City":"Tempe","State":"AZ","Zip":"85281"},{"Location":"PACWEST ENERGY  LLC","Address":"2090 E Rio Salado Pkwy","City":"Tempe","State":"AZ","Zip":"85281"},{"Location":"PAPAGO BUTTES CORP LLC","Address":"1500 N Priest Dr 132","City":"Tempe","State":"AZ","Zip":"85281"},{"Location":"PERA CLUB","Address":"1 E Continental Dr","City":"Tempe","State":"AZ","Zip":"85281"},{"Location":"PF CHANG'S #2800","Address":"740 S Mill Ave 140","City":"Tempe","State":"AZ","Zip":"85281"},{"Location":"PHILLY'S","Address":"1826 N Scottsdale Rd","City":"Tempe","State":"AZ","Zip":"85281"},{"Location":"PHILLYS SPORTS GRILL","Address":"1402 S Priest Dr","City":"Tempe","State":"AZ","Zip":"85281"},{"Location":"PHOENICIA CAFE","Address":"616 S Forest Ave","City":"Tempe","State":"AZ","Zip":"85281"},{"Location":"PLANET FITNESS","Address":"1301 E University Dr 125","City":"Tempe","State":"AZ","Zip":"85281"},{"Location":"PORT OF SUBS","Address":"1158 W Washington St 107","City":"Tempe","State":"AZ","Zip":"85281"},{"Location":"PRO COPY","Address":"1917 E 5th St","City":"Tempe","State":"AZ","Zip":"85281"},{"Location":"PROGRESSIVE INSURANCE","Address":"600 E Curry Rd","City":"Tempe","State":"AZ","Zip":"85281"},{"Location":"PULTE HOMES INC","Address":"1230 W Washington St 600","City":"Tempe","State":"AZ","Zip":"85281"},{"Location":"RA SUSHI #3002 TEMPE","Address":"411 S Mill Ave","City":"Tempe","State":"AZ","Zip":"85281"},{"Location":"RED ROBIN #523","Address":"19 S Mcclintock Dr","City":"Tempe","State":"AZ","Zip":"85281"},{"Location":"REPUBLIC RAMEN","Address":"1301 E University Dr 114","City":"Tempe","State":"AZ","Zip":"85281"},{"Location":"REVO PIZZABAR","Address":"200 E 5th St 1","City":"Tempe","State":"AZ","Zip":"85281"},{"Location":"REVOLUTION","Address":"1505 E Weber Dr 116","City":"Tempe","State":"AZ","Zip":"85281"},{"Location":"RIVERSIDE C 2 LLC","Address":"1215 W Rio Salado Pkwy 200","City":"Tempe","State":"AZ","Zip":"85281"},{"Location":"ROLLING HILLS GOLF COURSE","Address":"1405 N Mill Ave","City":"Tempe","State":"AZ","Zip":"85281"},{"Location":"ROMANCING THE BEAN","Address":"80 E Rio Parkway 120","City":"Tempe","State":"AZ","Zip":"85281"},{"Location":"ROSITAS FINE MEXICAN","Address":"960 W University Dr","City":"Tempe","State":"AZ","Zip":"85281"},{"Location":"RRS COMPANY","Address":"21 E 6th St 706","City":"Tempe","State":"AZ","Zip":"85281"},{"Location":"RT3 ARMORY","Address":"425 S Mcclintock Dr 5","City":"Tempe","State":"AZ","Zip":"85281"},{"Location":"RUBY TUESDAY #5422","Address":"27 S Mcclintock Dr Lot15","City":"Tempe","State":"AZ","Zip":"85281"},{"Location":"SALT RIVER PROJECT","Address":"1521 N Project Dr","City":"Tempe","State":"AZ","Zip":"85281"},{"Location":"SALT RIVER PROJECT","Address":"1600 N Priest Dr","City":"Tempe","State":"AZ","Zip":"85281"},{"Location":"SALUT KITCHEN BAR","Address":"1435 E University Dr","City":"Tempe","State":"AZ","Zip":"85281"},{"Location":"SALVATION ARMY CALIFORNIA CORP","Address":"40 E University Dr","City":"Tempe","State":"AZ","Zip":"85281"},{"Location":"SAMIS GYROS","Address":"1158 W Washington St","City":"Tempe","State":"AZ","Zip":"85281"},{"Location":"SAUCE HOCKEY","Address":"526 S Mill Ave 201","City":"Tempe","State":"AZ","Zip":"85281"},{"Location":"SCOTTSDALE MUFFLER & AUTO","Address":"1710 E Curry Rd","City":"Tempe","State":"AZ","Zip":"85281"},{"Location":"SHC PRIMARY CARE ENCLAVE","Address":"1626 S Priest Dr 104","City":"Tempe","State":"AZ","Zip":"85281"},{"Location":"SHERATON PHOENIX AIRPORT HOTEL","Address":"1600 S 52nd St","City":"Tempe","State":"AZ","Zip":"85281"},{"Location":"SILICON VALLEY BANK","Address":"80 E Rio Salado Pkwy","City":"Tempe","State":"AZ","Zip":"85281"},{"Location":"SLEEPY DOG SALOON AND BREWERY","Address":"1920 E University Dr 104","City":"Tempe","State":"AZ","Zip":"85281"},{"Location":"SMITH BARNEY 100765","Address":"80 E Rio Salado Pkwy 810","City":"Tempe","State":"AZ","Zip":"85281"},{"Location":"SNOW NAILS","Address":"1825 N Scottsdale Rd","City":"Tempe","State":"AZ","Zip":"85281"},{"Location":"SPORTIQE","Address":"1515 W University Dr","City":"Tempe","State":"AZ","Zip":"85281"},{"Location":"SRP MEDIA SERVICES (A)","Address":"1521 N Project Dr","City":"Tempe","State":"AZ","Zip":"85281"},{"Location":"ST LUKES HOSPITAL TEMPE","Address":"1500 S Mill Ave","City":"Tempe","State":"AZ","Zip":"85281"},{"Location":"STATE FARM","Address":"1230 W Washington St","City":"Tempe","State":"AZ","Zip":"85281"},{"Location":"STATE FARM INSURANCE","Address":"1500 N Priest Dr 300","City":"Tempe","State":"AZ","Zip":"85281"},{"Location":"SUNNY'S DINER","Address":"1825 E University Dr","City":"Tempe","State":"AZ","Zip":"85281"},{"Location":"SUNNYS DINER","Address":"1825 E University Dr","City":"Tempe","State":"AZ","Zip":"85281"},{"Location":"TASTY KABOB","Address":"1250 E Apache Blvd 116","City":"Tempe","State":"AZ","Zip":"85281"},{"Location":"TEMPE TAVERN","Address":"1810 E Apache Blvd","City":"Tempe","State":"AZ","Zip":"85281"},{"Location":"THAI BASIL","Address":"1111 S Rural Rd","City":"Tempe","State":"AZ","Zip":"85281"},{"Location":"THAI ELEPHANT TEMPE LLC","Address":"815 W University Dr 108","City":"Tempe","State":"AZ","Zip":"85281"},{"Location":"THE HANDLEBAR TEMPE","Address":"680 S Mill Ave 119","City":"Tempe","State":"AZ","Zip":"85281"},{"Location":"THE KEG STEAKHOUSE & BAR","Address":"23 S Mcclintock Dr","City":"Tempe","State":"AZ","Zip":"85281"},{"Location":"THE ROC BAR & GRILL","Address":"1400 S Mcclintock Dr 15","City":"Tempe","State":"AZ","Zip":"85281"},{"Location":"THE THIRSTY DOG","Address":"15 W 5th St","City":"Tempe","State":"AZ","Zip":"85281"},{"Location":"THIRSTY LION TEMPE","Address":"2000 E Rio Salado Pkwy 1041","City":"Tempe","State":"AZ","Zip":"85281"},{"Location":"THREE","Address":"1333 S Rural Rd","City":"Tempe","State":"AZ","Zip":"85281"},{"Location":"TINY PRINTS","Address":"914 S 52nd St","City":"Tempe","State":"AZ","Zip":"85281"},{"Location":"TIP & TOES NAILS","Address":"1526 N Scottsdale Rd","City":"Tempe","State":"AZ","Zip":"85281"},{"Location":"TOPS LIQUOR","Address":"403 W University Dr","City":"Tempe","State":"AZ","Zip":"85281"},{"Location":"TRUWEST CREDIT UNION","Address":"1667 N Priest Dr","City":"Tempe","State":"AZ","Zip":"85281"},{"Location":"TUBE SPECIALTIES INC","Address":"1721 W 10th St","City":"Tempe","State":"AZ","Zip":"85281"},{"Location":"UNICORN MEDIA","Address":"230 W 5th St","City":"Tempe","State":"AZ","Zip":"85281"},{"Location":"UNION BANCK","Address":"1225 W Washington St 400","City":"Tempe","State":"AZ","Zip":"85281"},{"Location":"US AIRWAYS","Address":"1821 W Rio Salado Pkwy","City":"Tempe","State":"AZ","Zip":"85281"},{"Location":"VERICORE","Address":"1900 W University Dr 212","City":"Tempe","State":"AZ","Zip":"85281"},{"Location":"VINE TAVERN","Address":"801 E Apache Blvd","City":"Tempe","State":"AZ","Zip":"85281"},{"Location":"WAGEWORKS","Address":"1850 West Rio Saladl Pkwy","City":"Tempe","State":"AZ","Zip":"85281"},{"Location":"WASTE MANAGEMENT","Address":"222 S Mill Ave 333","City":"Tempe","State":"AZ","Zip":"85281"},{"Location":"WELLS FARGO ARENA LOCKER ROOM","Address":"600 E Veterans Way","City":"Tempe","State":"AZ","Zip":"85281"},{"Location":"WELLS FARGO HOME MORTGAGE","Address":"1150 W Washington St","City":"Tempe","State":"AZ","Zip":"85281"},{"Location":"WESTERN REFINING","Address":"1250 W Washington St 101","City":"Tempe","State":"AZ","Zip":"85281"},{"Location":"WHEEL SPECIALISTS INC","Address":"701 S Perry Ln","City":"Tempe","State":"AZ","Zip":"85281"},{"Location":"WHICH WICH  SUPERIOR SAN","Address":"222 S Mill Ave","City":"Tempe","State":"AZ","Zip":"85281"},{"Location":"WINGSTOP #615","Address":"555 N Scottsdale Rd 102","City":"Tempe","State":"AZ","Zip":"85281"},{"Location":"WORLD OF BEER TEMPE","Address":"526 S Mill Ave 101","City":"Tempe","State":"AZ","Zip":"85281"},{"Location":"XHALE VAPOR LOUNGE","Address":"1207 N Scottsdale Rd","City":"Tempe","State":"AZ","Zip":"85281"},{"Location":"Z'TEJAS GRILL","Address":"20 W 6th St","City":"Tempe","State":"AZ","Zip":"85281"},{"Location":"ZIPPS SPORTS GRILL MILL","Address":"690 S Mill Ave","City":"Tempe","State":"AZ","Zip":"85281"},{"Location":"ZUMA GRILL","Address":"605 S Mill Ave","City":"Tempe","State":"AZ","Zip":"85281"},{"Location":"1OVITT & TOUCHE INC","Address":"1050 E Washington","City":"Tempe","State":"AZ","Zip":"85281"},{"Location":"360 PHYICAL THERAPY","Address":"1805 N Scottsdale Rd","City":"Tempe","State":"AZ","Zip":"85281"},{"Location":"4ONE4 PUB & PIZZA","Address":"414 S Mill Ave 118","City":"Tempe","State":"AZ","Zip":"85281"},{"Location":"910 LIVE","Address":"910 N Mcclintock Dr","City":"Tempe","State":"AZ","Zip":"85281"},{"Location":"A & N SUN VALLEY DENTAL","Address":"960 W University Dr 115","City":"Tempe","State":"AZ","Zip":"85281"},{"Location":"ALOFT TEMPE","Address":"951 East Plaza Del Norte Dr","City":"Tempe","State":"AZ","Zip":"85281"},{"Location":"ALPH GRAPHICS","Address":"815 W University Dr 101","City":"Tempe","State":"AZ","Zip":"85281"},{"Location":"AMERISURE MUTUAL INSURAN","Address":"1230 W Washington St 207","City":"Tempe","State":"AZ","Zip":"85281"},{"Location":"AMPLIFIED HOSPITALITY","Address":"501 S Mill Ave B101","City":"Tempe","State":"AZ","Zip":"85281"},{"Location":"ANTHONY ROBINSON","Address":"921 E Curry Rd","City":"Tempe","State":"AZ","Zip":"85281"},{"Location":"ARIZADO INC","Address":"1255 W Rio Salado Pkwy 207","City":"Tempe","State":"AZ","Zip":"85281"},{"Location":"ARIZONA HOME CARE","Address":"1626 S Edward Dr","City":"Tempe","State":"AZ","Zip":"85281"},{"Location":"ARIZONA REGIONAL MULTIPL","Address":"130 S Priest Dr 101","City":"Tempe","State":"AZ","Zip":"85281"},{"Location":"ARIZONA STATE UNIV ENGINEERING","Address":"699 S Mill Ave","City":"Tempe","State":"AZ","Zip":"85281"},{"Location":"ARIZONA STATE UNIVERSITY","Address":"1551 S Rural Rd","City":"Tempe","State":"AZ","Zip":"85281"},{"Location":"ARIZONA STATE UNIVERSITY-MEMOR","Address":"1290      S Normal Ave Mu","City":"Tempe","State":"AZ","Zip":"85281"},{"Location":"ASU CAMPUS RECREATION","Address":"400 E Apache Blvd","City":"Tempe","State":"AZ","Zip":"85281"},{"Location":"ASU HEALTH SERVICES","Address":"451 E University Dr","City":"Tempe","State":"AZ","Zip":"85281"},{"Location":"ASU SUN DEVIL PERFORMANCE CENT","Address":"650 S Athletes Pl","City":"Tempe","State":"AZ","Zip":"85281"},{"Location":"ASU WOMEN'S BASKETBALL","Address":"521 S Rural Rd","City":"Tempe","State":"AZ","Zip":"85281"},{"Location":"AUDIO EXPRESS","Address":"550 N Scottsdale Rd","City":"Tempe","State":"AZ","Zip":"85281"},{"Location":"AUTOMATED CONTROL TECHNOLOGY","Address":"2414 W 14th St","City":"Tempe","State":"AZ","Zip":"85281"},{"Location":"AZ TIP & TOES NAILS","Address":"851 W University Dr","City":"Tempe","State":"AZ","Zip":"85281"},{"Location":"BAER'S","Address":"925 E Apache Blvd","City":"Tempe","State":"AZ","Zip":"85281"},{"Location":"BANK OF AMERICA AZ1-807-01-05","Address":"1515 W 14th St","City":"Tempe","State":"AZ","Zip":"85281"},{"Location":"BEER HOP","Address":"1324 W University Dr","City":"Tempe","State":"AZ","Zip":"85281"},{"Location":"BELLA NAIL & SPA","Address":"904 N Scottsdale Rd 105","City":"Tempe","State":"AZ","Zip":"85281"},{"Location":"BIG FAT GREEK RESTAURANT","Address":"525 S Mill Ave","City":"Tempe","State":"AZ","Zip":"85281"},{"Location":"BL RESTAURANTS 1207","Address":"2000 E Rio Salado Pkwy 1220","City":"Tempe","State":"AZ","Zip":"85281"},{"Location":"BLASTED BARLEY","Address":"404 S Mill Ave 101","City":"Tempe","State":"AZ","Zip":"85281"},{"Location":"BLUFISH DESIGN STUDIO","Address":"110 E 7th St","City":"Tempe","State":"AZ","Zip":"85281"},{"Location":"BROCK SUPPLY COMPANY","Address":"2150 E Rio Salado Pkwy","City":"Tempe","State":"AZ","Zip":"85281"},{"Location":"BUFFALO WILD WINGS #0271","Address":"705 S Rural Rd 104","City":"Tempe","State":"AZ","Zip":"85281"},{"Location":"CAFE BOA","Address":"398 S Mill Ave","City":"Tempe","State":"AZ","Zip":"85281"},{"Location":"CAFE ROMA PIZZERIA","Address":"1158 W Washington St 104","City":"Tempe","State":"AZ","Zip":"85281"},{"Location":"CALIBER COLLISION TEMPE","Address":"2025 E Rio Salado Pkwy","City":"Tempe","State":"AZ","Zip":"85281"},{"Location":"CALIBRUS","Address":"1225 W Washington St 213","City":"Tempe","State":"AZ","Zip":"85281"},{"Location":"CALIFORNIA PIZZA KITCHEN #232","Address":"2000 E Rio Salado Pkwy","City":"Tempe","State":"AZ","Zip":"85281"},{"Location":"CARD FLIP 11","Address":"1730 E Apache Blvd 107","City":"Tempe","State":"AZ","Zip":"85281"},{"Location":"CASA SUN BAR","Address":"15 E 6th St","City":"Tempe","State":"AZ","Zip":"85281"},{"Location":"CASEY MOORES","Address":"850 S Ash Ave","City":"Tempe","State":"AZ","Zip":"85281"},{"Location":"CHASE","Address":"100 W University Dr","City":"Tempe","State":"AZ","Zip":"85281"},{"Location":"CHASE MANHATTAN BANK","Address":"100 W University Dr","City":"Tempe","State":"AZ","Zip":"85281"},{"Location":"CHOICE AUTO REPAIR","Address":"851 S Dorsey Ln","City":"Tempe","State":"AZ","Zip":"85281"},{"Location":"CHOMPIES-TEMPE","Address":"1160 E University Dr","City":"Tempe","State":"AZ","Zip":"85281"},{"Location":"CHURCHILLS FINE CIGARS 4","Address":"640 S Mill Ave","City":"Tempe","State":"AZ","Zip":"85281"},{"Location":"CITRIX ON LINE","Address":"60 E Rio Salado Pkwy 200","City":"Tempe","State":"AZ","Zip":"85281"},{"Location":"COSTA VIDA GOODYEAR","Address":"1324 S Rural Rd","City":"Tempe","State":"AZ","Zip":"85281"},{"Location":"CULINARY DROPOUT TEMPE","Address":"149 S Farmer Ave 103","City":"Tempe","State":"AZ","Zip":"85281"},{"Location":"DAVE AND BUSTER'S #52","Address":"2000 E Rio Salado Pkwy 1100","City":"Tempe","State":"AZ","Zip":"85281"},{"Location":"DAVITA #1373 LIFELINE","Address":"1100 E University Dr 102","City":"Tempe","State":"AZ","Zip":"85281"},{"Location":"DEVIL'S ADVOCATE","Address":"955 E University Dr","City":"Tempe","State":"AZ","Zip":"85281"},{"Location":"DHL EXPRESS","Address":"1144 W Washington St","City":"Tempe","State":"AZ","Zip":"85281"},{"Location":"DHL GLOBAL FORWARDING","Address":"1155 W Rio Salado Pkwy","City":"Tempe","State":"AZ","Zip":"85281"},{"Location":"DIGGS LOGO PRODUCTS INC","Address":"1403 W 10th Pl 107","City":"Tempe","State":"AZ","Zip":"85281"},{"Location":"DRAVENS BARBERSHOP","Address":"1336 E Apache Blvd","City":"Tempe","State":"AZ","Zip":"85281"},{"Location":"EL HEFE TEMPE","Address":"640 S Mill Ave","City":"Tempe","State":"AZ","Zip":"85281"},{"Location":"ENDURANCE INTERNATIONAL","Address":"1500 N Priest Dr","City":"Tempe","State":"AZ","Zip":"85281"},{"Location":"EPN - CLINTON BOOTH","Address":"1625 W University Dr 117","City":"Tempe","State":"AZ","Zip":"85281"},{"Location":"EVV VAPOR LOUNGE","Address":"827 S Rural Rd","City":"Tempe","State":"AZ","Zip":"85281"},{"Location":"EYE SITE SURVEILLANCE","Address":"2343 W University Dr 106","City":"Tempe","State":"AZ","Zip":"85281"},{"Location":"FAST GOOD FOOD LLC","Address":"560 S College Ave 101","City":"Tempe","State":"AZ","Zip":"85281"},{"Location":"FATEMA MARKET LLC","Address":"1035 E Lemon St","City":"Tempe","State":"AZ","Zip":"85281"},{"Location":"FDIC","Address":"350 W Washington St 213","City":"Tempe","State":"AZ","Zip":"85281"},{"Location":"FERGUSON #0628","Address":"1720 S Los Feliz Dr","City":"Tempe","State":"AZ","Zip":"85281"},{"Location":"FIDELITY NATIONAL TITLE","Address":"1721 W Rio Salado Pkwy","City":"Tempe","State":"AZ","Zip":"85281"},{"Location":"FIRST CALL","Address":"1401 S 52nd St 115","City":"Tempe","State":"AZ","Zip":"85281"},{"Location":"FIT ZONE","Address":"1301 E University Dr 125","City":"Tempe","State":"AZ","Zip":"85281"},{"Location":"FLAMING KABOB","Address":"921 E University Dr","City":"Tempe","State":"AZ","Zip":"85281"},{"Location":"FOUR PEAKS BREWING CO.","Address":"1340 E 8th St 104","City":"Tempe","State":"AZ","Zip":"85281"},{"Location":"FOUR PEAKS GRILL TAP","Address":"Po Box 7399","City":"Tempe","State":"AZ","Zip":"85281"},{"Location":"FUZZYS TACO SHOP","Address":"414 S Mill Ave 115","City":"Tempe","State":"AZ","Zip":"85281"},{"Location":"GENGHIS GRILL","Address":"2000 E Rio Salado Pkwy 1115","City":"Tempe","State":"AZ","Zip":"85281"},{"Location":"GORDON BIERSCH #4607","Address":"420 S Mill Ave","City":"Tempe","State":"AZ","Zip":"85281"},{"Location":"GRINGO STAR STREET BAR","Address":"501 S Mill Ave 101","City":"Tempe","State":"AZ","Zip":"85281"},{"Location":"GUS PIZZA","Address":"829 S Rural Rd","City":"Tempe","State":"AZ","Zip":"85281"},{"Location":"HAMPTON INN TEMPE COM","Address":"1415 N Scottsdale Rd","City":"Tempe","State":"AZ","Zip":"85281"},{"Location":"HARDISON DOWNEY CONST","Address":"1120 E Apache Blvd","City":"Tempe","State":"AZ","Zip":"85281"},{"Location":"HARRY'S PLACE","Address":"60 E 5th St","City":"Tempe","State":"AZ","Zip":"85281"},{"Location":"HEALTHE SYSTEMS","Address":"1295 W Washington St 115","City":"Tempe","State":"AZ","Zip":"85281"},{"Location":"HIGH MAINTANENCE","Address":"24 W 5th St","City":"Tempe","State":"AZ","Zip":"85281"},{"Location":"HOOTERS TEMPE","Address":"501 S Mill Ave 201","City":"Tempe","State":"AZ","Zip":"85281"},{"Location":"JE DUNN CONSTRUCTION","Address":"2000 W University Dr","City":"Tempe","State":"AZ","Zip":"85281"},{"Location":"JERRYS LIQUORS","Address":"1217 S Rural Rd","City":"Tempe","State":"AZ","Zip":"85281"},{"Location":"JERSEY MIKES SUBS  #9002","Address":"555 N Scottsdale Rd 103","City":"Tempe","State":"AZ","Zip":"85281"},{"Location":"JIFFY LUBE #1783","Address":"1355 S Mcclintock Dr","City":"Tempe","State":"AZ","Zip":"85281"},{"Location":"JK COMMUNICATIONS","Address":"110 S Priest Dr 101","City":"Tempe","State":"AZ","Zip":"85281"},{"Location":"JR INCOME TAX","Address":"1438 N Scottsdale Rd 1438","City":"Tempe","State":"AZ","Zip":"85281"},{"Location":"JSL ENTERPRISES INC","Address":"1769 W University Dr 182","City":"Tempe","State":"AZ","Zip":"85281"},{"Location":"KABUKI","Address":"2000 E Rio Salado Pkwy","City":"Tempe","State":"AZ","Zip":"85281"},{"Location":"KHAI HOAN","Address":"1537 E Apache Blvd","City":"Tempe","State":"AZ","Zip":"85281"},{"Location":"KING'S FISH HOUSE TEMPE","Address":"35 S Mcclintock Dr","City":"Tempe","State":"AZ","Zip":"85281"},{"Location":"LA CASCIO RESTAURANT","Address":"2210 N Scottsdale Rd","City":"Tempe","State":"AZ","Zip":"85281"},{"Location":"LAKE AND COBB PLC","Address":"1095 W Rio Salado Pkwy 206","City":"Tempe","State":"AZ","Zip":"85281"},{"Location":"LAPAZ","Address":"114 S River Dr 102","City":"Tempe","State":"AZ","Zip":"85281"},{"Location":"LIMELIGHT NETWORKS INC","Address":"2220 W 14th St","City":"Tempe","State":"AZ","Zip":"85281"},{"Location":"LIQUOR EXPRESS","Address":"1605 E Apache Blvd","City":"Tempe","State":"AZ","Zip":"85281"},{"Location":"LOCO PATRON TEMPE","Address":"222 S Mill Ave 115","City":"Tempe","State":"AZ","Zip":"85281"},{"Location":"LUCILLE'S #25","Address":"2030 E Rio Salado Pkwy","City":"Tempe","State":"AZ","Zip":"85281"},{"Location":"LUX INTERIOR CONTRACTORS","Address":"1711 W University Dr 155","City":"Tempe","State":"AZ","Zip":"85281"},{"Location":"LVA URBAN DESIGN","Address":"120 S Ash Ave","City":"Tempe","State":"AZ","Zip":"85281"},{"Location":"MACAYO MEXICAN RESTAURANT","Address":"300 S Ash Ave","City":"Tempe","State":"AZ","Zip":"85281"},{"Location":"MACYS CREDIT AND CUSTOMER SVCS","Address":"1345 S 52nd St","City":"Tempe","State":"AZ","Zip":"85281"},{"Location":"MAD HATTER BREW PUB","Address":"502 S College Ave 103","City":"Tempe","State":"AZ","Zip":"85281"},{"Location":"MAKIN DOUGH DBA SLICES","Address":"2000 E Rio Salado Pkwy","City":"Tempe","State":"AZ","Zip":"85281"},{"Location":"MANCHESTER ALLIANCE GRP","Address":"808 N Scottsdale Rd","City":"Tempe","State":"AZ","Zip":"85281"},{"Location":"MDI","Address":"1275 W Washington St","City":"Tempe","State":"AZ","Zip":"85281"},{"Location":"MEDFRESH GRILL","Address":"414 S Mill Ave 117","City":"Tempe","State":"AZ","Zip":"85281"},{"Location":"MEDSPACE INC","Address":"1250 W Washington St 442","City":"Tempe","State":"AZ","Zip":"85281"},{"Location":"MELLOW MUSHROOM MILL AVE","Address":"740 S Mill Ave D100","City":"Tempe","State":"AZ","Zip":"85281"},{"Location":"MEN'S WEARHOUSE #2502","Address":"2010 E Rio Salado Pkwy 105","City":"Tempe","State":"AZ","Zip":"85281"},{"Location":"MICROCHIP TECHNOLOGIES INC","Address":"1200 S 52nd St","City":"Tempe","State":"AZ","Zip":"85281"},{"Location":"MICROSOFT CORPORATION","Address":"60 East Iro Salado Parkway 12flo","City":"Tempe","State":"AZ","Zip":"85281"},{"Location":"MISSION AT MINDER BINDER","Address":"715 S Mcclintock Dr","City":"Tempe","State":"AZ","Zip":"85281"},{"Location":"MODERNA ARCHITECTS","Address":"738 S Perry Ln 11","City":"Tempe","State":"AZ","Zip":"85281"},{"Location":"MOONSHINE GROUP LLC","Address":"410 S Mill Ave 101","City":"Tempe","State":"AZ","Zip":"85281"},{"Location":"MOQUINOS BODY AND PAINT","Address":"800 N Miller Rd Blda","City":"Tempe","State":"AZ","Zip":"85281"},{"Location":"MOUNTAIN SIDE FITNESS","Address":"1230 W Washington St 111","City":"Tempe","State":"AZ","Zip":"85281"},{"Location":"NATL CREDIT UNION ADMIN","Address":"1230 W Washington St 301","City":"Tempe","State":"AZ","Zip":"85281"},{"Location":"NET TRANSCRIPTS INC","Address":"425 S 48th St 101","City":"Tempe","State":"AZ","Zip":"85281"},{"Location":"NEXTCARE URGENT CARE","Address":"914 N Scottsdale Rd 104","City":"Tempe","State":"AZ","Zip":"85281"},{"Location":"NOA PHOENIX","Address":"1521 N Project Dr","City":"Tempe","State":"AZ","Zip":"85281"},{"Location":"NORDSTROM RACK - TEMPE","Address":"1900 E Rio Salado Pkwy 130","City":"Tempe","State":"AZ","Zip":"85281"},{"Location":"OCTOBLU INC","Address":"401 S Mill Ave 201","City":"Tempe","State":"AZ","Zip":"85281"},{"Location":"OKLAND CONSTRUCTION INC","Address":"1700 N Mcclintock Dr","City":"Tempe","State":"AZ","Zip":"85281"},{"Location":"ORANGE TABLE G ENTERTAIN","Address":"203 E 7th St","City":"Tempe","State":"AZ","Zip":"85281"},{"Location":"PACWEST ENERGY  LLC","Address":"2090 E Rio Salado Pkwy","City":"Tempe","State":"AZ","Zip":"85281"},{"Location":"PAPAGO BUTTES CORP LLC","Address":"1500 N Priest Dr 132","City":"Tempe","State":"AZ","Zip":"85281"},{"Location":"PERA CLUB","Address":"1 E Continental Dr","City":"Tempe","State":"AZ","Zip":"85281"},{"Location":"PF CHANG'S #2800","Address":"740 S Mill Ave 140","City":"Tempe","State":"AZ","Zip":"85281"},{"Location":"PHILLY'S","Address":"1826 N Scottsdale Rd","City":"Tempe","State":"AZ","Zip":"85281"},{"Location":"PHILLYS SPORTS GRILL","Address":"1402 S Priest Dr","City":"Tempe","State":"AZ","Zip":"85281"},{"Location":"PHOENICIA CAFE","Address":"616 S Forest Ave","City":"Tempe","State":"AZ","Zip":"85281"},{"Location":"PLANET FITNESS","Address":"1301 E University Dr 125","City":"Tempe","State":"AZ","Zip":"85281"},{"Location":"PORT OF SUBS","Address":"1158 W Washington St 107","City":"Tempe","State":"AZ","Zip":"85281"},{"Location":"PRO COPY","Address":"1917 E 5th St","City":"Tempe","State":"AZ","Zip":"85281"},{"Location":"PROGRESSIVE INSURANCE","Address":"600 E Curry Rd","City":"Tempe","State":"AZ","Zip":"85281"},{"Location":"PULTE HOMES INC","Address":"1230 W Washington St 600","City":"Tempe","State":"AZ","Zip":"85281"},{"Location":"RA SUSHI #3002 TEMPE","Address":"411 S Mill Ave","City":"Tempe","State":"AZ","Zip":"85281"},{"Location":"RED ROBIN #523","Address":"19 S Mcclintock Dr","City":"Tempe","State":"AZ","Zip":"85281"},{"Location":"REPUBLIC RAMEN","Address":"1301 E University Dr 114","City":"Tempe","State":"AZ","Zip":"85281"},{"Location":"REVO PIZZABAR","Address":"200 E 5th St 1","City":"Tempe","State":"AZ","Zip":"85281"},{"Location":"REVOLUTION","Address":"1505 E Weber Dr 116","City":"Tempe","State":"AZ","Zip":"85281"},{"Location":"RIVERSIDE C 2 LLC","Address":"1215 W Rio Salado Pkwy 200","City":"Tempe","State":"AZ","Zip":"85281"},{"Location":"ROLLING HILLS GOLF COURSE","Address":"1405 N Mill Ave","City":"Tempe","State":"AZ","Zip":"85281"},{"Location":"ROMANCING THE BEAN","Address":"80 E Rio Parkway 120","City":"Tempe","State":"AZ","Zip":"85281"},{"Location":"ROSITAS FINE MEXICAN","Address":"960 W University Dr","City":"Tempe","State":"AZ","Zip":"85281"},{"Location":"RRS COMPANY","Address":"21 E 6th St 706","City":"Tempe","State":"AZ","Zip":"85281"},{"Location":"RT3 ARMORY","Address":"425 S Mcclintock Dr 5","City":"Tempe","State":"AZ","Zip":"85281"},{"Location":"RUBY TUESDAY #5422","Address":"27 S Mcclintock Dr Lot15","City":"Tempe","State":"AZ","Zip":"85281"},{"Location":"SALT RIVER PROJECT","Address":"1600 N Priest Dr","City":"Tempe","State":"AZ","Zip":"85281"},{"Location":"SALT RIVER PROJECT","Address":"1521 N Project Dr","City":"Tempe","State":"AZ","Zip":"85281"},{"Location":"SALUT KITCHEN BAR","Address":"1435 E University Dr","City":"Tempe","State":"AZ","Zip":"85281"},{"Location":"SALVATION ARMY CALIFORNIA CORP","Address":"40 E University Dr","City":"Tempe","State":"AZ","Zip":"85281"},{"Location":"SAMIS GYROS","Address":"1158 W Washington St","City":"Tempe","State":"AZ","Zip":"85281"},{"Location":"SAUCE HOCKEY","Address":"526 S Mill Ave 201","City":"Tempe","State":"AZ","Zip":"85281"},{"Location":"SCOTTSDALE MUFFLER & AUTO","Address":"1710 E Curry Rd","City":"Tempe","State":"AZ","Zip":"85281"},{"Location":"SHC PRIMARY CARE ENCLAVE","Address":"1626 S Priest Dr 104","City":"Tempe","State":"AZ","Zip":"85281"},{"Location":"SHERATON PHOENIX AIRPORT HOTEL","Address":"1600 S 52nd St","City":"Tempe","State":"AZ","Zip":"85281"},{"Location":"SILICON VALLEY BANK","Address":"80 E Rio Salado Pkwy","City":"Tempe","State":"AZ","Zip":"85281"},{"Location":"SLEEPY DOG SALOON AND BREWERY","Address":"1920 E University Dr 104","City":"Tempe","State":"AZ","Zip":"85281"},{"Location":"SMITH BARNEY 100765","Address":"80 E Rio Salado Pkwy 810","City":"Tempe","State":"AZ","Zip":"85281"},{"Location":"SNOW NAILS","Address":"1825 N Scottsdale Rd","City":"Tempe","State":"AZ","Zip":"85281"},{"Location":"SPORTIQE","Address":"1515 W University Dr","City":"Tempe","State":"AZ","Zip":"85281"},{"Location":"SRP MEDIA SERVICES (A)","Address":"1521 N Project Dr","City":"Tempe","State":"AZ","Zip":"85281"},{"Location":"ST LUKES HOSPITAL TEMPE","Address":"1500 S Mill Ave","City":"Tempe","State":"AZ","Zip":"85281"},{"Location":"STATE FARM","Address":"1230 W Washington St","City":"Tempe","State":"AZ","Zip":"85281"},{"Location":"STATE FARM INSURANCE","Address":"1500 N Priest Dr 300","City":"Tempe","State":"AZ","Zip":"85281"},{"Location":"SUNNY'S DINER","Address":"1825 E University Dr","City":"Tempe","State":"AZ","Zip":"85281"},{"Location":"SUNNYS DINER","Address":"1825 E University Dr","City":"Tempe","State":"AZ","Zip":"85281"},{"Location":"TASTY KABOB","Address":"1250 E Apache Blvd 116","City":"Tempe","State":"AZ","Zip":"85281"},{"Location":"TEMPE MISSION PALMS HOTE","Address":"60 E 5th St","City":"Tempe","State":"AZ","Zip":"85281"},{"Location":"TEMPE TAVERN","Address":"1810 E Apache Blvd","City":"Tempe","State":"AZ","Zip":"85281"},{"Location":"THAI BASIL","Address":"1111 S Rural Rd","City":"Tempe","State":"AZ","Zip":"85281"},{"Location":"THAI ELEPHANT TEMPE LLC","Address":"815 W University Dr 108","City":"Tempe","State":"AZ","Zip":"85281"},{"Location":"THE HANDLEBAR TEMPE","Address":"680 S Mill Ave 119","City":"Tempe","State":"AZ","Zip":"85281"},{"Location":"THE KEG STEAKHOUSE & BAR","Address":"23 S Mcclintock Dr","City":"Tempe","State":"AZ","Zip":"85281"},{"Location":"THE ROC BAR & GRILL","Address":"1400 S Mcclintock Dr 15","City":"Tempe","State":"AZ","Zip":"85281"},{"Location":"THE THIRSTY DOG","Address":"15 W 5th St","City":"Tempe","State":"AZ","Zip":"85281"},{"Location":"THIRSTY LION TEMPE","Address":"2000 E Rio Salado Pkwy 1041","City":"Tempe","State":"AZ","Zip":"85281"},{"Location":"THREE","Address":"1333 S Rural Rd","City":"Tempe","State":"AZ","Zip":"85281"},{"Location":"TINY PRINTS","Address":"914 S 52nd St","City":"Tempe","State":"AZ","Zip":"85281"},{"Location":"TIP & TOES NAILS","Address":"1526 N Scottsdale Rd","City":"Tempe","State":"AZ","Zip":"85281"},{"Location":"TOPS LIQUOR","Address":"403 W University Dr","City":"Tempe","State":"AZ","Zip":"85281"},{"Location":"TRUWEST CREDIT UNION","Address":"1667 N Priest Dr","City":"Tempe","State":"AZ","Zip":"85281"},{"Location":"TUBE SPECIALTIES INC","Address":"1721 W 10th St","City":"Tempe","State":"AZ","Zip":"85281"},{"Location":"UNICORN MEDIA","Address":"230 W 5th St","City":"Tempe","State":"AZ","Zip":"85281"},{"Location":"UNION BANCK","Address":"1225 W Washington St 400","City":"Tempe","State":"AZ","Zip":"85281"},{"Location":"US AIRWAYS","Address":"1821 W Rio Salado Pkwy","City":"Tempe","State":"AZ","Zip":"85281"},{"Location":"VERICORE","Address":"1900 W University Dr 212","City":"Tempe","State":"AZ","Zip":"85281"},{"Location":"VINE TAVERN","Address":"801 E Apache Blvd","City":"Tempe","State":"AZ","Zip":"85281"},{"Location":"WAGEWORKS","Address":"1850 West Rio Saladl Pkwy","City":"Tempe","State":"AZ","Zip":"85281"},{"Location":"WASTE MANAGEMENT","Address":"222 S Mill Ave 333","City":"Tempe","State":"AZ","Zip":"85281"},{"Location":"WELLS FARGO ARENA LOCKER ROOM","Address":"600 E Veterans Way","City":"Tempe","State":"AZ","Zip":"85281"},{"Location":"WELLS FARGO HOME MORTGAGE","Address":"1150 W Washington St","City":"Tempe","State":"AZ","Zip":"85281"},{"Location":"WESTERN REFINING","Address":"1250 W Washington St 101","City":"Tempe","State":"AZ","Zip":"85281"},{"Location":"WHEEL SPECIALISTS INC","Address":"701 S Perry Ln","City":"Tempe","State":"AZ","Zip":"85281"},{"Location":"WHICH WICH  SUPERIOR SAN","Address":"222 S Mill Ave","City":"Tempe","State":"AZ","Zip":"85281"},{"Location":"WINGSTOP #615","Address":"555 N Scottsdale Rd 102","City":"Tempe","State":"AZ","Zip":"85281"},{"Location":"WORLD OF BEER TEMPE","Address":"526 S Mill Ave 101","City":"Tempe","State":"AZ","Zip":"85281"},{"Location":"XHALE VAPOR LOUNGE","Address":"1207 N Scottsdale Rd","City":"Tempe","State":"AZ","Zip":"85281"},{"Location":"Z'TEJAS GRILL","Address":"20 W 6th St","City":"Tempe","State":"AZ","Zip":"85281"},{"Location":"ZIPPS SPORTS GRILL MILL","Address":"690 S Mill Ave","City":"Tempe","State":"AZ","Zip":"85281"},{"Location":"ZUMA GRILL","Address":"605 S Mill Ave","City":"Tempe","State":"AZ","Zip":"85281"}]