[{"Location":"21ST CENTURY HEALTHCARE","Address":"2115 S Wilson St","City":"Tempe","State":"AZ","Zip":"85282"},{"Location":"ADVANCE FAMILY MEDICINE","Address":"2074 E Southern Ave","City":"Tempe","State":"AZ","Zip":"85282"},{"Location":"AMERICAN LEGION","Address":"107 E Broadway Rd","City":"Tempe","State":"AZ","Zip":"85282"},{"Location":"APPLEBEE'S #513 RURAL & BRDWAY","Address":"909 E Broadway Rd","City":"Tempe","State":"AZ","Zip":"85282"},{"Location":"AZ TECH RADIOLOGY OPEN MRI2","Address":"2501 East Southren Ave  #8","City":"Tempe","State":"AZ","Zip":"85282"},{"Location":"AZSTCU 21","Address":"840 E Southern Ave","City":"Tempe","State":"AZ","Zip":"85282"},{"Location":"BITE ME SUBS","Address":"528 W Broadway Rd","City":"Tempe","State":"AZ","Zip":"85282"},{"Location":"BLABLA HOLDINGS LLC","Address":"1120 W Alameda Dr 2","City":"Tempe","State":"AZ","Zip":"85282"},{"Location":"BOULDERS ON BROADWAY","Address":"530 W Broadway Rd","City":"Tempe","State":"AZ","Zip":"85282"},{"Location":"BOXSMART","Address":"1120 W Fairmont Dr 3","City":"Tempe","State":"AZ","Zip":"85282"},{"Location":"BURGER RUSH","Address":"790 W Broadway Rd","City":"Tempe","State":"AZ","Zip":"85282"},{"Location":"CAPITAL TAX SERVICES","Address":"3141 S Mcclintock Dr Suite","City":"Tempe","State":"AZ","Zip":"85282"},{"Location":"CASA REYNOSO","Address":"3138 S Mill Ave","City":"Tempe","State":"AZ","Zip":"85282"},{"Location":"CBBCS","Address":"4535 S Lakeshore Dr 6","City":"Tempe","State":"AZ","Zip":"85282"},{"Location":"CERVANTES","Address":"3318 S Mill Ave","City":"Tempe","State":"AZ","Zip":"85282"},{"Location":"CIADELLA INTERIORS","Address":"3116 S 52nd St","City":"Tempe","State":"AZ","Zip":"85282"},{"Location":"CIGNA","Address":"433 W Broadway Rd","City":"Tempe","State":"AZ","Zip":"85282"},{"Location":"CLEAN D WINDOWS","Address":"5020 S Ash Ave 105","City":"Tempe","State":"AZ","Zip":"85282"},{"Location":"COMPREHENSIVE RECRUITING","Address":"1208 E Broadway Rd 218","City":"Tempe","State":"AZ","Zip":"85282"},{"Location":"CONCENTRA  TEMPE","Address":"950 W Southern Ave","City":"Tempe","State":"AZ","Zip":"85282"},{"Location":"COSMOTOLOGY BOARD OF ARIZ","Address":"1721 E Broadway Rd","City":"Tempe","State":"AZ","Zip":"85282"},{"Location":"COURTYARD CAFE AND GRILL","Address":"2900 S Diablo Way","City":"Tempe","State":"AZ","Zip":"85282"},{"Location":"COUSIN SUBS","Address":"3118 S Mill Ave","City":"Tempe","State":"AZ","Zip":"85282"},{"Location":"DOC & EDDY'S","Address":"909 E Minton Dr","City":"Tempe","State":"AZ","Zip":"85282"},{"Location":"DR. REEFERALZ","Address":"930 W Broadway Rd 3","City":"Tempe","State":"AZ","Zip":"85282"},{"Location":"DRAVENS BARBERSHOP 2","Address":"25 E Broadway Rd","City":"Tempe","State":"AZ","Zip":"85282"},{"Location":"DUNKIN DONUTS 349308","Address":"1740 E Broadway Rd 101","City":"Tempe","State":"AZ","Zip":"85282"},{"Location":"DYNAMIC WORLDWIDE TRAINING","Address":"4500 S Lakeshore Dr 695","City":"Tempe","State":"AZ","Zip":"85282"},{"Location":"EXPRESS SCRIPTS(CALL CENTER)","Address":"3001 S Priest Dr","City":"Tempe","State":"AZ","Zip":"85282"},{"Location":"FIELDS GOOD BEAUTY AND BARBER","Address":"4325 S 48th St","City":"Tempe","State":"AZ","Zip":"85282"},{"Location":"FIESTA RESORT-CONFERENCE CENTE","Address":"2100 S Priest Dr","City":"Tempe","State":"AZ","Zip":"85282"},{"Location":"FINAL ROUND","Address":"5030 S Mill Ave D20","City":"Tempe","State":"AZ","Zip":"85282"},{"Location":"FMC 62410000","Address":"1449 W Southern Ave","City":"Tempe","State":"AZ","Zip":"85282"},{"Location":"FOUR PEAKS WILSON","Address":"2401 S Wilson St","City":"Tempe","State":"AZ","Zip":"85282"},{"Location":"FRANKS BARBERS","Address":"5000 S Arizona Mills Cir 686","City":"Tempe","State":"AZ","Zip":"85282"},{"Location":"FRIENDSHIP VILLAGE OF TEMPE","Address":"2645 E Southern Ave","City":"Tempe","State":"AZ","Zip":"85282"},{"Location":"FUNCTIONAL PERFORMANCE CENTER","Address":"2065 S Cottonwood Dr 1","City":"Tempe","State":"AZ","Zip":"85282"},{"Location":"GAMEWORKS","Address":"5000 S Arizona Mills Cir 669","City":"Tempe","State":"AZ","Zip":"85282"},{"Location":"GARCIA'S #1114","Address":"5000 S Arizona Mills Cir 567","City":"Tempe","State":"AZ","Zip":"85282"},{"Location":"GARCIAS","Address":"4400 S Rural Rd","City":"Tempe","State":"AZ","Zip":"85282"},{"Location":"GOLDEN EGG ROLL","Address":"3320 S Priest Dr Suit4","City":"Tempe","State":"AZ","Zip":"85282"},{"Location":"GOLDEN NAIL SALON","Address":"1815 E Southern Ave","City":"Tempe","State":"AZ","Zip":"85282"},{"Location":"HAMMOND ABD TOBLER PC","Address":"1400 E Southern Ave 935","City":"Tempe","State":"AZ","Zip":"85282"},{"Location":"HENRYS TAIWAN","Address":"119 E Southern Ave","City":"Tempe","State":"AZ","Zip":"85282"},{"Location":"HILS","Address":"2522 W Carson Rd","City":"Tempe","State":"AZ","Zip":"85282"},{"Location":"IES COMMERICAL","Address":"2810 S Roosevelt St","City":"Tempe","State":"AZ","Zip":"85282"},{"Location":"INFINCOM","Address":"2720 S Hardy Dr 1","City":"Tempe","State":"AZ","Zip":"85282"},{"Location":"IRON HORSE SHADOW","Address":"1220 W Alameda Dr 118","City":"Tempe","State":"AZ","Zip":"85282"},{"Location":"JCS #0613 - TEMPE","Address":"1604 E Southern Ave","City":"Tempe","State":"AZ","Zip":"85282"},{"Location":"JEGFIT MCKLINTOCK","Address":"3114 S Mcclintock Dr B","City":"Tempe","State":"AZ","Zip":"85282"},{"Location":"JIFFY LUBE #1665","Address":"2014 S Rural Rd","City":"Tempe","State":"AZ","Zip":"85282"},{"Location":"JUST SPORTS ARIZ MILLS","Address":"5000 S Arizona Mills Cir 105","City":"Tempe","State":"AZ","Zip":"85282"},{"Location":"KICKS FROZEN YOGURT","Address":"3141 S Mcclintock Dr 10","City":"Tempe","State":"AZ","Zip":"85282"},{"Location":"KNIGHT TACTICAL","Address":"1220 W Alameda Dr 111","City":"Tempe","State":"AZ","Zip":"85282"},{"Location":"LA FITNESS #104","Address":"63 E Southern Ave","City":"Tempe","State":"AZ","Zip":"85282"},{"Location":"LEMON THAI CAFE","Address":"818 W Broadway Rd 108","City":"Tempe","State":"AZ","Zip":"85282"},{"Location":"LOBBYS BEEF","Address":"3141 S Mcclintock Dr 13","City":"Tempe","State":"AZ","Zip":"85282"},{"Location":"LOCKER ROOM BY LIDS","Address":"5000 S Arizona Mills Cir 150","City":"Tempe","State":"AZ","Zip":"85282"},{"Location":"LOS ANGELES ANGEL-MINORS","Address":"2225 W Westcourt Way","City":"Tempe","State":"AZ","Zip":"85282"},{"Location":"MANUELS MEXICAN RESTAURANT","Address":"2350 E Southern Ave","City":"Tempe","State":"AZ","Zip":"85282"},{"Location":"MAXIT PAWN & RETAIL SHOP 1666","Address":"2707 W Southern Ave 101","City":"Tempe","State":"AZ","Zip":"85282"},{"Location":"MAXIT PAWN & RETAIL SHOP 1667","Address":"1845 E Broadway Rd 108","City":"Tempe","State":"AZ","Zip":"85282"},{"Location":"MAYA NY PIZZA BAR & GRIL","Address":"2107 S Rural Rd","City":"Tempe","State":"AZ","Zip":"85282"},{"Location":"MINER 1","Address":"1156 W Southern Ave 101","City":"Tempe","State":"AZ","Zip":"85282"},{"Location":"MONKEY PANTS BAR & GRILL","Address":"3223 S Mill Ave","City":"Tempe","State":"AZ","Zip":"85282"},{"Location":"NATIVE NEW YORKER","Address":"1301 E Broadway Rd","City":"Tempe","State":"AZ","Zip":"85282"},{"Location":"NEIMAN MARCUS 2056","Address":"5000 S Arizona Mills Cir","City":"Tempe","State":"AZ","Zip":"85282"},{"Location":"NELLOS PIZZA","Address":"1806 E Southern Ave","City":"Tempe","State":"AZ","Zip":"85282"},{"Location":"NEUHEISEL LAW FIRM","Address":"1501 W Fountainhead Pkwy 130","City":"Tempe","State":"AZ","Zip":"85282"},{"Location":"NICE NAILS","Address":"818 W Broadway Rd 105","City":"Tempe","State":"AZ","Zip":"85282"},{"Location":"NIKE INC","Address":"5000 S Arizona Mills Cir 240","City":"Tempe","State":"AZ","Zip":"85282"},{"Location":"NUTRISHOP","Address":"101 E Southern Ave","City":"Tempe","State":"AZ","Zip":"85282"},{"Location":"OFFICE OF BILL DUNLAP","Address":"2727 W Southern Ave 4","City":"Tempe","State":"AZ","Zip":"85282"},{"Location":"ONENECK IT SERVICES","Address":"2710 S Roosevelt St","City":"Tempe","State":"AZ","Zip":"85282"},{"Location":"OUTBACK STEAKHOUSE #0310","Address":"1734 E Southern Ave","City":"Tempe","State":"AZ","Zip":"85282"},{"Location":"PALO VERDE LOUNGE","Address":"1015 W Broadway Rd","City":"Tempe","State":"AZ","Zip":"85282"},{"Location":"PHYSIOTHERAPY","Address":"1025 E Broadway Rd 101","City":"Tempe","State":"AZ","Zip":"85282"},{"Location":"POPULUS GROUP 3","Address":"1620 W Fountainhead Pkwy 306","City":"Tempe","State":"AZ","Zip":"85282"},{"Location":"PRANKSTERS - RS","Address":"1024 E Broadway Rd","City":"Tempe","State":"AZ","Zip":"85282"},{"Location":"PROPHET NETWORK INTERGRATION","Address":"4625 S Ash Ave J-5","City":"Tempe","State":"AZ","Zip":"85282"},{"Location":"Q AND BREW","Address":"3400 S Mill Ave","City":"Tempe","State":"AZ","Zip":"85282"},{"Location":"RAINFOREST CAFE #0459","Address":"5000 S Arizona Mills Cir","City":"Tempe","State":"AZ","Zip":"85282"},{"Location":"SAFEWAY 1487","Address":"926 E Broadway Rd","City":"Tempe","State":"AZ","Zip":"85282"},{"Location":"SAFEWAY FOOD AND DRUG","Address":"1115 W Alameda Dr","City":"Tempe","State":"AZ","Zip":"85282"},{"Location":"SAKE BOMBER","Address":"1705 E Broadway Rd","City":"Tempe","State":"AZ","Zip":"85282"},{"Location":"SELFQUEST","Address":"4525 S Lakeshore Dr 102","City":"Tempe","State":"AZ","Zip":"85282"},{"Location":"SONIC WALL","Address":"3011 S 52nd St 101","City":"Tempe","State":"AZ","Zip":"85282"},{"Location":"SPOKES ON SOUTHERN","Address":"1470 E Southern Ave","City":"Tempe","State":"AZ","Zip":"85282"},{"Location":"STARWEST ASSOCIATES","Address":"1501 W Fountainhead Pkwy 501","City":"Tempe","State":"AZ","Zip":"85282"},{"Location":"STATE FARM INSURANCE","Address":"2700 S Sunland Dr","City":"Tempe","State":"AZ","Zip":"85282"},{"Location":"SUBWAY #2255","Address":"3141 S Mcclintock Dr","City":"Tempe","State":"AZ","Zip":"85282"},{"Location":"SUNDT CONSTRUCTION","Address":"2620 S 55th St","City":"Tempe","State":"AZ","Zip":"85282"},{"Location":"TAILGATE SPORTS BAR & GRILL","Address":"930 W Broadway Rd 17","City":"Tempe","State":"AZ","Zip":"85282"},{"Location":"TEMPE CONTEMPO","Address":"2609 W Southern Ave","City":"Tempe","State":"AZ","Zip":"85282"},{"Location":"TEMPE DIABLO","Address":"2200 W Alameda Dr","City":"Tempe","State":"AZ","Zip":"85282"},{"Location":"TEMPE VET HOSP","Address":"329 W Southern Ave","City":"Tempe","State":"AZ","Zip":"85282"},{"Location":"THE ADVERTISING CHECKING","Address":"1919 W Fairmont Dr 7","City":"Tempe","State":"AZ","Zip":"85282"},{"Location":"THE AMERICAN LEGION POST  2","Address":"2125 S Industrial Park Ave","City":"Tempe","State":"AZ","Zip":"85282"},{"Location":"THE MEADOWS","Address":"2401 W Southern Ave","City":"Tempe","State":"AZ","Zip":"85282"},{"Location":"THE MULLER COMPANY","Address":"2900 S Diablo Way 155","City":"Tempe","State":"AZ","Zip":"85282"},{"Location":"THE YUCCA TAP ROOM","Address":"29 W Southern Ave","City":"Tempe","State":"AZ","Zip":"85282"},{"Location":"TRIAD CHRIOPRACTIC","Address":"4515 S Mcclintock Dr 120","City":"Tempe","State":"AZ","Zip":"85282"},{"Location":"VENEZIAS PIZZA","Address":"33 E Southern Ave","City":"Tempe","State":"AZ","Zip":"85282"},{"Location":"VILLA ENTERPRISES","Address":"5000 S Arizona Mills Cir 665","City":"Tempe","State":"AZ","Zip":"85282"},{"Location":"WEIGHT LOSS INST OF ARIZONA","Address":"1855 E Southern Ave","City":"Tempe","State":"AZ","Zip":"85282"},{"Location":"WELLS FARGO BANK","Address":"1300 W Alameda Dr","City":"Tempe","State":"AZ","Zip":"85282"},{"Location":"WELLS FARGO BANK","Address":"1305 W 22nd St","City":"Tempe","State":"AZ","Zip":"85282"},{"Location":"WELLS FARGO BANK","Address":"64 E Broadway Rd Rod","City":"Tempe","State":"AZ","Zip":"85282"},{"Location":"WELLS FARGO OPERATIONS CENTER","Address":"1305 West 22nd Street","City":"Tempe","State":"AZ","Zip":"85282"},{"Location":"WHOLE FOODS MARKET","Address":"5120 S Rural Rd","City":"Tempe","State":"AZ","Zip":"85282"},{"Location":"WILKINSON FLOOR COVERING","Address":"3125 S 52nd St","City":"Tempe","State":"AZ","Zip":"85282"},{"Location":"WILSHIRE ENTERPRISES INC","Address":"4515 S Mcclintock Dr","City":"Tempe","State":"AZ","Zip":"85282"},{"Location":"WYNDHAM BUTTES RESORT","Address":"2000 W Westcourt Way","City":"Tempe","State":"AZ","Zip":"85282"},{"Location":"ZEUS NESTORA LLC","Address":"3109 S Mill Ave 106","City":"Tempe","State":"AZ","Zip":"85282"},{"Location":"ZZEEKS PIZZA","Address":"3139 S Mill Ave","City":"Tempe","State":"AZ","Zip":"85282"},{"Location":"SILICON VALLEY BANK","Address":"215 E Broadway Rd 117","City":"Temple","State":"AZ","Zip":"85282"}]