[{"Location":"A WAY TO WAG","Address":"1730 E Elliot Rd 3","City":"Tempe","State":"AZ","Zip":"85284"},{"Location":"AIR PRODUCTS AND CHEMICALS","Address":"8555 S River Pkwy","City":"Tempe","State":"AZ","Zip":"85284"},{"Location":"ALL  COPY PRODUCTS","Address":"1407 W Drivers Way","City":"Tempe","State":"AZ","Zip":"85284"},{"Location":"AMERICAN DENTAL CARE PC","Address":"1320 W Elliot Rd 106","City":"Tempe","State":"AZ","Zip":"85284"},{"Location":"APPLEBEE'S #506 56TH & ELLIOT","Address":"1655 W Elliot Rd","City":"Tempe","State":"AZ","Zip":"85284"},{"Location":"ARIZONA CARDINALS","Address":"8701 S Hardy Dr","City":"Tempe","State":"AZ","Zip":"85284"},{"Location":"ARIZONA COMMUNITY CHURCH","Address":"9325 S Rural Rd","City":"Tempe","State":"AZ","Zip":"85284"},{"Location":"ARIZONA MORTGAGE SPECIALIST","Address":"8747 S Priest Dr 101","City":"Tempe","State":"AZ","Zip":"85284"},{"Location":"ARIZONA WORLD OF BASEBALL","Address":"1730 E Elliot Rd","City":"Tempe","State":"AZ","Zip":"85284"},{"Location":"AUTONATION HYUNDAI TEMEPLE","Address":"8050 S Autoplex Loop","City":"Tempe","State":"AZ","Zip":"85284"},{"Location":"AZ INDIA MEDIA","Address":"1825 E Elliot Rd","City":"Tempe","State":"AZ","Zip":"85284"},{"Location":"BABBOS ITALIAN EATERY","Address":"9920 S Rurral Rd 105","City":"Tempe","State":"AZ","Zip":"85284"},{"Location":"BACK IN SHAPE","Address":"9875 S Priest Dr","City":"Tempe","State":"AZ","Zip":"85284"},{"Location":"BARROS PIZZA KYRENE","Address":"8830 S Kyrene Rd 107","City":"Tempe","State":"AZ","Zip":"85284"},{"Location":"BILL LUKE SUZUKI","Address":"7799 S Autoplex Loop","City":"Tempe","State":"AZ","Zip":"85284"},{"Location":"BLUE MEDIA","Address":"8920 S Mckemy St","City":"Tempe","State":"AZ","Zip":"85284"},{"Location":"BOSTON'S BAR & GRILLE","Address":"1730 E Elliot Rd 11","City":"Tempe","State":"AZ","Zip":"85284"},{"Location":"BUSINESS INTEGRATION GROUP INC","Address":"1131 W Warner Rd 102","City":"Tempe","State":"AZ","Zip":"85284"},{"Location":"CIRCLE K STORES","Address":"1130 W Warner Rd B","City":"Tempe","State":"AZ","Zip":"85284"},{"Location":"COBBLESTONE AUTO SPA 10","Address":"7700 S Autoplex Loop","City":"Tempe","State":"AZ","Zip":"85284"},{"Location":"COCA COLA","Address":"1850 W Elliot Rd","City":"Tempe","State":"AZ","Zip":"85284"},{"Location":"COUTER TEMPE","Address":"7780 S Autoplex Loop","City":"Tempe","State":"AZ","Zip":"85284"},{"Location":"CREATIVE ENVIRONMENTS","Address":"8920 S Hardy Dr","City":"Tempe","State":"AZ","Zip":"85284"},{"Location":"CREATIVE ONE","Address":"7855 S River Pkwy 114a","City":"Tempe","State":"AZ","Zip":"85284"},{"Location":"DAVITA #1938 SOUTHWEST TEMPE","Address":"2149 E Warner Rd 110","City":"Tempe","State":"AZ","Zip":"85284"},{"Location":"DESSERT VALLEY RADIOLOGY","Address":"8380 S Kyrene Rd 105","City":"Tempe","State":"AZ","Zip":"85284"},{"Location":"DICK'S SPORTING GOODS #362","Address":"8550 S Emerald Dr","City":"Tempe","State":"AZ","Zip":"85284"},{"Location":"DIRECT  ALLIANCE CORP","Address":"8123 S Hardy Dr","City":"Tempe","State":"AZ","Zip":"85284"},{"Location":"DIRECT ALLIANCE CORP","Address":"910 W Carver Rd","City":"Tempe","State":"AZ","Zip":"85284"},{"Location":"DOS GRINGOS MEXIGRILLE","Address":"8000 S Priest Dr","City":"Tempe","State":"AZ","Zip":"85284"},{"Location":"DOZO IZAKAYA","Address":"440 W Warner Rd 104","City":"Tempe","State":"AZ","Zip":"85284"},{"Location":"DSI  TEMPE","Address":"8820 S Kyrene Rd","City":"Tempe","State":"AZ","Zip":"85284"},{"Location":"DSI TEMPE","Address":"8820 S Kyrene Rd","City":"Tempe","State":"AZ","Zip":"85284"},{"Location":"DUNKIN DONUTS","Address":"1830 E Warner Rd","City":"Tempe","State":"AZ","Zip":"85284"},{"Location":"ED MARSHALL JEWLERS","Address":"1840 E Warner Rd 104","City":"Tempe","State":"AZ","Zip":"85284"},{"Location":"EDWARD JONES","Address":"8640 S River Pkwy","City":"Tempe","State":"AZ","Zip":"85284"},{"Location":"FEDEX MSCA","Address":"8210 S Hardy Dr","City":"Tempe","State":"AZ","Zip":"85284"},{"Location":"FISHER  SAND N GRAVAL","Address":"1302 W Drivers Way","City":"Tempe","State":"AZ","Zip":"85284"},{"Location":"FLANNYS","Address":"1805 E Elliot Rd 105","City":"Tempe","State":"AZ","Zip":"85284"},{"Location":"FOOTHILLS SPORTS MEDICINE","Address":"325 W Elliot Rd 104","City":"Tempe","State":"AZ","Zip":"85284"},{"Location":"GARCIAS 1117","Address":"1706 E Warner Rd 3","City":"Tempe","State":"AZ","Zip":"85284"},{"Location":"GLOBAL SPORTS HOLDINGS","Address":"9100 S Mckemy St","City":"Tempe","State":"AZ","Zip":"85284"},{"Location":"GYROS EXPRESS","Address":"1342 W Warner Rd B106","City":"Tempe","State":"AZ","Zip":"85284"},{"Location":"HONEYWELL TEMPE HAWC","Address":"1300 W Warner Rd 1201","City":"Tempe","State":"AZ","Zip":"85284"},{"Location":"INTEGRA - HONEYWELL","Address":"1300 W Warner Rd","City":"Tempe","State":"AZ","Zip":"85284"},{"Location":"INTEGRATED MANAGEMENT RESOURCE","Address":"51 W Elliot Rd","City":"Tempe","State":"AZ","Zip":"85284"},{"Location":"IRIDIUM SATELLITE LLC","Address":"8440 S River Pkwy","City":"Tempe","State":"AZ","Zip":"85284"},{"Location":"ISS TEMPE 1","Address":"2150 E Warner Rd","City":"Tempe","State":"AZ","Zip":"85284"},{"Location":"ISS TEMPE 2","Address":"2150 E Warner Rd","City":"Tempe","State":"AZ","Zip":"85284"},{"Location":"ITS CRAZY BUFFET","Address":"7720 S Priest Dr","City":"Tempe","State":"AZ","Zip":"85284"},{"Location":"JIFFY LUBE #2099","Address":"9950 S Rural Rd","City":"Tempe","State":"AZ","Zip":"85284"},{"Location":"KNOWLEDGENET","Address":"309 W Elliot Rd 113","City":"Tempe","State":"AZ","Zip":"85284"},{"Location":"KOBE JAPANESE STEAK HOUSE","Address":"1125 W El Liot Rd","City":"Tempe","State":"AZ","Zip":"85284"},{"Location":"L & JC PROPERTIES","Address":"8725 S Kyrene Rd 104","City":"Tempe","State":"AZ","Zip":"85284"},{"Location":"L AND M HOME ENTER","Address":"1231 W Warner Rd","City":"Tempe","State":"AZ","Zip":"85284"},{"Location":"LA FITNESS #105","Address":"7810 S Priest Dr D","City":"Tempe","State":"AZ","Zip":"85284"},{"Location":"LIFETIME FITNESS","Address":"1616 W Ruby Dr","City":"Tempe","State":"AZ","Zip":"85284"},{"Location":"MAIN EVENT","Address":"8545 South Emerald Drive","City":"Tempe","State":"AZ","Zip":"85284"},{"Location":"MTD","Address":"9235 S Mckemy St","City":"Tempe","State":"AZ","Zip":"85284"},{"Location":"NEW IMAGE AUTO GLASS","Address":"8270 S Kyrene Rd 103","City":"Tempe","State":"AZ","Zip":"85284"},{"Location":"OLIVE GARDEN #1488","Address":"1010 W Elliot Rd","City":"Tempe","State":"AZ","Zip":"85284"},{"Location":"PARAGON MICRO INC","Address":"1711 W Greentree Dr 125","City":"Tempe","State":"AZ","Zip":"85284"},{"Location":"PASSAGE TO INDIA","Address":"909 E Elliot Rd","City":"Tempe","State":"AZ","Zip":"85284"},{"Location":"PLAY IT AGAIN SPORTS 3","Address":"1840 E Warner Rd 126","City":"Tempe","State":"AZ","Zip":"85284"},{"Location":"POWER NISSAN  #601","Address":"7755 S Autoplex Loop","City":"Tempe","State":"AZ","Zip":"85284"},{"Location":"POWER NISSAN NEW CAR DIV","Address":"7755 S Autoplex Loop","City":"Tempe","State":"AZ","Zip":"85284"},{"Location":"POWER TOYOTA","Address":"7970 S Autoplex Loop","City":"Tempe","State":"AZ","Zip":"85284"},{"Location":"PRIDE FITNESS LLC","Address":"9875 S Priest Dr 104","City":"Tempe","State":"AZ","Zip":"85284"},{"Location":"RAVANA HARDY BLDG","Address":"8123 S Hardy Dr","City":"Tempe","State":"AZ","Zip":"85284"},{"Location":"ROMA FOOD OF ARIZONA","Address":"9310 S Mckemy St","City":"Tempe","State":"AZ","Zip":"85284"},{"Location":"ROMANO ENTERPRISES LLC","Address":"1701 E Warner Rd","City":"Tempe","State":"AZ","Zip":"85284"},{"Location":"RTS GROUP LLC","Address":"780 W Elliot Rd","City":"Tempe","State":"AZ","Zip":"85284"},{"Location":"SAFEWAY 1535","Address":"1515 E Elliot Rd","City":"Tempe","State":"AZ","Zip":"85284"},{"Location":"SCANSOURCE%2FCATALYST","Address":"1241 W Warner Rd 108","City":"Tempe","State":"AZ","Zip":"85284"},{"Location":"SEARS CUSTOMER CARE NETWORK","Address":"8440 S Hardy Dr 100","City":"Tempe","State":"AZ","Zip":"85284"},{"Location":"SKIP %2B JANS SPORTS BAR","Address":"7700 S Priest Dr","City":"Tempe","State":"AZ","Zip":"85284"},{"Location":"SPECIALIZED SERVICES","Address":"9025 S Dateland Dr","City":"Tempe","State":"AZ","Zip":"85284"},{"Location":"STATE FARM","Address":"2118 E Elliot Rd","City":"Tempe","State":"AZ","Zip":"85284"},{"Location":"STATE FARM INSURANCE CO","Address":"2104 E Elliot Rd","City":"Tempe","State":"AZ","Zip":"85284"},{"Location":"SWANK AUDIO VISUAL","Address":"840 W Carver Rd","City":"Tempe","State":"AZ","Zip":"85284"},{"Location":"TARGET TEMPE","Address":"8550 S Priest Dr","City":"Tempe","State":"AZ","Zip":"85284"},{"Location":"TEHARU SUSHI","Address":"9845 S Priest Dr 106","City":"Tempe","State":"AZ","Zip":"85284"},{"Location":"TEMPE AUTOPLEX","Address":"7800 S Autoplex Loop","City":"Tempe","State":"AZ","Zip":"85284"},{"Location":"TEMPE CAMPUS SPV  LLC","Address":"2010 E Elliot Rd 104","City":"Tempe","State":"AZ","Zip":"85284"},{"Location":"TEMPE DODGE","Address":"7975 S Autoplex Loop","City":"Tempe","State":"AZ","Zip":"85284"},{"Location":"TEMPE HONDA","Address":"8030 S Autoplex Loop","City":"Tempe","State":"AZ","Zip":"85284"},{"Location":"TEMPE KIA","Address":"7975 S Autoplex Loop","City":"Tempe","State":"AZ","Zip":"85284"},{"Location":"TILTED KILT FRANCHISE","Address":"664 W Warner Rd","City":"Tempe","State":"AZ","Zip":"85284"},{"Location":"TILTED KILT TEMPE","Address":"660 W Warner Rd","City":"Tempe","State":"AZ","Zip":"85284"},{"Location":"TW LEWIS COMPANY","Address":"850 W Elliot Rd 101","City":"Tempe","State":"AZ","Zip":"85284"},{"Location":"TYLER TECH","Address":"8950 S 52nd St","City":"Tempe","State":"AZ","Zip":"85284"},{"Location":"U HAUL","Address":"11298 S Priest Dr","City":"Tempe","State":"AZ","Zip":"85284"},{"Location":"UHAUL TECH CENTER REPAIR SHOP","Address":"11298 S Priest Dr","City":"Tempe","State":"AZ","Zip":"85284"},{"Location":"US FOODS","Address":"8075 S River Pkwy","City":"Tempe","State":"AZ","Zip":"85284"},{"Location":"VINE TAVERN TEMPE","Address":"975 E Elliot Rd A1","City":"Tempe","State":"AZ","Zip":"85284"},{"Location":"VINSON REALTY","Address":"9865 S Priest Dr 101","City":"Tempe","State":"AZ","Zip":"85284"},{"Location":"VISTOSO PARTNERS","Address":"1121 W Warner Rd","City":"Tempe","State":"AZ","Zip":"85284"},{"Location":"VITAL PROCESSING SERVICES","Address":"8320 S Hardy Dr","City":"Tempe","State":"AZ","Zip":"85284"},{"Location":"VOLVO OF TEMPE","Address":"8060 S Autoplex Loop","City":"Tempe","State":"AZ","Zip":"85284"},{"Location":"WARNER VILLAGE COSMETIC FAMILY","Address":"8675 S Priest Dr","City":"Tempe","State":"AZ","Zip":"85284"},{"Location":"WENDYS 1809","Address":"1810 W Elliot Rd","City":"Tempe","State":"AZ","Zip":"85284"},{"Location":"A WAY TO WAG","Address":"1730 E Elliot Rd 3","City":"Tempe","State":"AZ","Zip":"85284"},{"Location":"AIR PRODUCTS AND CHEMICALS","Address":"8555 S River Pkwy","City":"Tempe","State":"AZ","Zip":"85284"},{"Location":"ALL  COPY PRODUCTS","Address":"1407 W Drivers Way","City":"Tempe","State":"AZ","Zip":"85284"},{"Location":"AMERICAN DENTAL CARE PC","Address":"1320 W Elliot Rd 106","City":"Tempe","State":"AZ","Zip":"85284"},{"Location":"APPLEBEE'S #506 56TH & ELLIOT","Address":"1655 W Elliot Rd","City":"Tempe","State":"AZ","Zip":"85284"},{"Location":"ARIZONA CARDINALS","Address":"8701 S Hardy Dr","City":"Tempe","State":"AZ","Zip":"85284"},{"Location":"ARIZONA COMMUNITY CHURCH","Address":"9325 S Rural Rd","City":"Tempe","State":"AZ","Zip":"85284"},{"Location":"ARIZONA MORTGAGE SPECIALIST","Address":"8747 S Priest Dr 101","City":"Tempe","State":"AZ","Zip":"85284"},{"Location":"ARIZONA WORLD OF BASEBALL","Address":"1730 E Elliot Rd","City":"Tempe","State":"AZ","Zip":"85284"},{"Location":"AUTONATION HYUNDAI TEMEPLE","Address":"8050 S Autoplex Loop","City":"Tempe","State":"AZ","Zip":"85284"},{"Location":"AZ INDIA MEDIA","Address":"1825 E Elliot Rd","City":"Tempe","State":"AZ","Zip":"85284"},{"Location":"BABBOS ITALIAN EATERY","Address":"9920 S Rurral Rd 105","City":"Tempe","State":"AZ","Zip":"85284"},{"Location":"BACK IN SHAPE","Address":"9875 S Priest Dr","City":"Tempe","State":"AZ","Zip":"85284"},{"Location":"BARROS PIZZA KYRENE","Address":"8830 S Kyrene Rd 107","City":"Tempe","State":"AZ","Zip":"85284"},{"Location":"BILL LUKE SUZUKI","Address":"7799 S Autoplex Loop","City":"Tempe","State":"AZ","Zip":"85284"},{"Location":"BLUE MEDIA","Address":"8920 S Mckemy St","City":"Tempe","State":"AZ","Zip":"85284"},{"Location":"BOSTON'S BAR & GRILLE","Address":"1730 E Elliot Rd 11","City":"Tempe","State":"AZ","Zip":"85284"},{"Location":"BUSINESS INTEGRATION GROUP INC","Address":"1131 W Warner Rd 102","City":"Tempe","State":"AZ","Zip":"85284"},{"Location":"CIRCLE K STORES","Address":"1130 W Warner Rd B","City":"Tempe","State":"AZ","Zip":"85284"},{"Location":"COBBLESTONE AUTO SPA 10","Address":"7700 S Autoplex Loop","City":"Tempe","State":"AZ","Zip":"85284"},{"Location":"COCA COLA","Address":"1850 W Elliot Rd","City":"Tempe","State":"AZ","Zip":"85284"},{"Location":"COUTER TEMPE","Address":"7780 S Autoplex Loop","City":"Tempe","State":"AZ","Zip":"85284"},{"Location":"CREATIVE ENVIRONMENTS","Address":"8920 S Hardy Dr","City":"Tempe","State":"AZ","Zip":"85284"},{"Location":"CREATIVE ONE","Address":"7855 S River Pkwy 114a","City":"Tempe","State":"AZ","Zip":"85284"},{"Location":"DAVITA #1938 SOUTHWEST TEMPE","Address":"2149 E Warner Rd 110","City":"Tempe","State":"AZ","Zip":"85284"},{"Location":"DESSERT VALLEY RADIOLOGY","Address":"8380 S Kyrene Rd 105","City":"Tempe","State":"AZ","Zip":"85284"},{"Location":"DICK'S SPORTING GOODS #362","Address":"8550 S Emerald Dr","City":"Tempe","State":"AZ","Zip":"85284"},{"Location":"DIRECT  ALLIANCE CORP","Address":"8123 S Hardy Dr","City":"Tempe","State":"AZ","Zip":"85284"},{"Location":"DIRECT ALLIANCE CORP","Address":"910 W Carver Rd","City":"Tempe","State":"AZ","Zip":"85284"},{"Location":"DOS GRINGOS MEXIGRILLE","Address":"8000 S Priest Dr","City":"Tempe","State":"AZ","Zip":"85284"},{"Location":"DOZO IZAKAYA","Address":"440 W Warner Rd 104","City":"Tempe","State":"AZ","Zip":"85284"},{"Location":"DSI  TEMPE","Address":"8820 S Kyrene Rd","City":"Tempe","State":"AZ","Zip":"85284"},{"Location":"DSI TEMPE","Address":"8820 S Kyrene Rd","City":"Tempe","State":"AZ","Zip":"85284"},{"Location":"DUNKIN DONUTS","Address":"1830 E Warner Rd","City":"Tempe","State":"AZ","Zip":"85284"},{"Location":"ED MARSHALL JEWLERS","Address":"1840 E Warner Rd 104","City":"Tempe","State":"AZ","Zip":"85284"},{"Location":"EDWARD JONES","Address":"8640 S River Pkwy","City":"Tempe","State":"AZ","Zip":"85284"},{"Location":"FEDEX MSCA","Address":"8210 S Hardy Dr","City":"Tempe","State":"AZ","Zip":"85284"},{"Location":"FISHER  SAND N GRAVAL","Address":"1302 W Drivers Way","City":"Tempe","State":"AZ","Zip":"85284"},{"Location":"FLANNYS","Address":"1805 E Elliot Rd 105","City":"Tempe","State":"AZ","Zip":"85284"},{"Location":"FOOTHILLS SPORTS MEDICINE","Address":"325 W Elliot Rd 104","City":"Tempe","State":"AZ","Zip":"85284"},{"Location":"GARCIAS 1117","Address":"1706 E Warner Rd 3","City":"Tempe","State":"AZ","Zip":"85284"},{"Location":"GLOBAL SPORTS HOLDINGS","Address":"9100 S Mckemy St","City":"Tempe","State":"AZ","Zip":"85284"},{"Location":"GYROS EXPRESS","Address":"1342 W Warner Rd B106","City":"Tempe","State":"AZ","Zip":"85284"},{"Location":"HONEYWELL TEMPE HAWC","Address":"1300 W Warner Rd 1201","City":"Tempe","State":"AZ","Zip":"85284"},{"Location":"INTEGRA - HONEYWELL","Address":"1300 W Warner Rd","City":"Tempe","State":"AZ","Zip":"85284"},{"Location":"INTEGRATED MANAGEMENT RESOURCE","Address":"51 W Elliot Rd","City":"Tempe","State":"AZ","Zip":"85284"},{"Location":"IRIDIUM SATELLITE LLC","Address":"8440 S River Pkwy","City":"Tempe","State":"AZ","Zip":"85284"},{"Location":"ISS TEMPE 1","Address":"2150 E Warner Rd","City":"Tempe","State":"AZ","Zip":"85284"},{"Location":"ISS TEMPE 2","Address":"2150 E Warner Rd","City":"Tempe","State":"AZ","Zip":"85284"},{"Location":"ITS CRAZY BUFFET","Address":"7720 S Priest Dr","City":"Tempe","State":"AZ","Zip":"85284"},{"Location":"JIFFY LUBE #2099","Address":"9950 S Rural Rd","City":"Tempe","State":"AZ","Zip":"85284"},{"Location":"KNOWLEDGENET","Address":"309 W Elliot Rd 113","City":"Tempe","State":"AZ","Zip":"85284"},{"Location":"KOBE JAPANESE STEAK HOUSE","Address":"1125 W El Liot Rd","City":"Tempe","State":"AZ","Zip":"85284"},{"Location":"L & JC PROPERTIES","Address":"8725 S Kyrene Rd 104","City":"Tempe","State":"AZ","Zip":"85284"},{"Location":"L AND M HOME ENTER","Address":"1231 W Warner Rd","City":"Tempe","State":"AZ","Zip":"85284"},{"Location":"LA FITNESS #105","Address":"7810 S Priest Dr D","City":"Tempe","State":"AZ","Zip":"85284"},{"Location":"LIFETIME FITNESS","Address":"1616 W Ruby Dr","City":"Tempe","State":"AZ","Zip":"85284"},{"Location":"MAIN EVENT","Address":"8545 South Emerald Drive","City":"Tempe","State":"AZ","Zip":"85284"},{"Location":"MTD","Address":"9235 S Mckemy St","City":"Tempe","State":"AZ","Zip":"85284"},{"Location":"NEW IMAGE AUTO GLASS","Address":"8270 S Kyrene Rd 103","City":"Tempe","State":"AZ","Zip":"85284"},{"Location":"OLIVE GARDEN #1488","Address":"1010 W Elliot Rd","City":"Tempe","State":"AZ","Zip":"85284"},{"Location":"PARAGON MICRO INC","Address":"1711 W Greentree Dr 125","City":"Tempe","State":"AZ","Zip":"85284"},{"Location":"PASSAGE TO INDIA","Address":"909 E Elliot Rd","City":"Tempe","State":"AZ","Zip":"85284"},{"Location":"PLAY IT AGAIN SPORTS 3","Address":"1840 E Warner Rd 126","City":"Tempe","State":"AZ","Zip":"85284"},{"Location":"POWER NISSAN  #601","Address":"7755 S Autoplex Loop","City":"Tempe","State":"AZ","Zip":"85284"},{"Location":"POWER NISSAN NEW CAR DIV","Address":"7755 S Autoplex Loop","City":"Tempe","State":"AZ","Zip":"85284"},{"Location":"POWER TOYOTA","Address":"7970 S Autoplex Loop","City":"Tempe","State":"AZ","Zip":"85284"},{"Location":"PRIDE FITNESS LLC","Address":"9875 S Priest Dr 104","City":"Tempe","State":"AZ","Zip":"85284"},{"Location":"RAVANA HARDY BLDG","Address":"8123 S Hardy Dr","City":"Tempe","State":"AZ","Zip":"85284"},{"Location":"ROMA FOOD OF ARIZONA","Address":"9310 S Mckemy St","City":"Tempe","State":"AZ","Zip":"85284"},{"Location":"ROMANO ENTERPRISES LLC","Address":"1701 E Warner Rd","City":"Tempe","State":"AZ","Zip":"85284"},{"Location":"RTS GROUP LLC","Address":"780 W Elliot Rd","City":"Tempe","State":"AZ","Zip":"85284"},{"Location":"SAFEWAY 1535","Address":"1515 E Elliot Rd","City":"Tempe","State":"AZ","Zip":"85284"},{"Location":"SCANSOURCE%2FCATALYST","Address":"1241 W Warner Rd 108","City":"Tempe","State":"AZ","Zip":"85284"},{"Location":"SEARS CUSTOMER CARE NETWORK","Address":"8440 S Hardy Dr 100","City":"Tempe","State":"AZ","Zip":"85284"},{"Location":"SKIP %2B JANS SPORTS BAR","Address":"7700 S Priest Dr","City":"Tempe","State":"AZ","Zip":"85284"},{"Location":"SPECIALIZED SERVICES","Address":"9025 S Dateland Dr","City":"Tempe","State":"AZ","Zip":"85284"},{"Location":"STATE FARM","Address":"2118 E Elliot Rd","City":"Tempe","State":"AZ","Zip":"85284"},{"Location":"STATE FARM INSURANCE CO","Address":"2104 E Elliot Rd","City":"Tempe","State":"AZ","Zip":"85284"},{"Location":"SWANK AUDIO VISUAL","Address":"840 W Carver Rd","City":"Tempe","State":"AZ","Zip":"85284"},{"Location":"TARGET TEMPE","Address":"8550 S Priest Dr","City":"Tempe","State":"AZ","Zip":"85284"},{"Location":"TEHARU SUSHI","Address":"9845 S Priest Dr 106","City":"Tempe","State":"AZ","Zip":"85284"},{"Location":"TEMPE AUTOPLEX","Address":"7800 S Autoplex Loop","City":"Tempe","State":"AZ","Zip":"85284"},{"Location":"TEMPE CAMPUS SPV  LLC","Address":"2010 E Elliot Rd 104","City":"Tempe","State":"AZ","Zip":"85284"},{"Location":"TEMPE DODGE","Address":"7975 S Autoplex Loop","City":"Tempe","State":"AZ","Zip":"85284"},{"Location":"TEMPE HONDA","Address":"8030 S Autoplex Loop","City":"Tempe","State":"AZ","Zip":"85284"},{"Location":"TEMPE KIA","Address":"7975 S Autoplex Loop","City":"Tempe","State":"AZ","Zip":"85284"},{"Location":"TILTED KILT FRANCHISE","Address":"664 W Warner Rd","City":"Tempe","State":"AZ","Zip":"85284"},{"Location":"TILTED KILT TEMPE","Address":"660 W Warner Rd","City":"Tempe","State":"AZ","Zip":"85284"},{"Location":"TW LEWIS COMPANY","Address":"850 W Elliot Rd 101","City":"Tempe","State":"AZ","Zip":"85284"},{"Location":"TYLER TECH","Address":"8950 S 52nd St","City":"Tempe","State":"AZ","Zip":"85284"},{"Location":"U HAUL","Address":"11298 S Priest Dr","City":"Tempe","State":"AZ","Zip":"85284"},{"Location":"UHAUL TECH CENTER REPAIR SHOP","Address":"11298 S Priest Dr","City":"Tempe","State":"AZ","Zip":"85284"},{"Location":"US FOODS","Address":"8075 S River Pkwy","City":"Tempe","State":"AZ","Zip":"85284"},{"Location":"VINE TAVERN TEMPE","Address":"975 E Elliot Rd A1","City":"Tempe","State":"AZ","Zip":"85284"},{"Location":"VINSON REALTY","Address":"9865 S Priest Dr 101","City":"Tempe","State":"AZ","Zip":"85284"},{"Location":"VISTOSO PARTNERS","Address":"1121 W Warner Rd","City":"Tempe","State":"AZ","Zip":"85284"},{"Location":"VITAL PROCESSING SERVICES","Address":"8320 S Hardy Dr","City":"Tempe","State":"AZ","Zip":"85284"},{"Location":"VOLVO OF TEMPE","Address":"8060 S Autoplex Loop","City":"Tempe","State":"AZ","Zip":"85284"},{"Location":"WARNER VILLAGE COSMETIC FAMILY","Address":"8675 S Priest Dr","City":"Tempe","State":"AZ","Zip":"85284"},{"Location":"WENDYS 1809","Address":"1810 W Elliot Rd","City":"Tempe","State":"AZ","Zip":"85284"}]