[{"Location":"#1 O.B.I. NAILS & SPA%2C LLC","Address":"3020 S Gilbert Rd 7","City":"Chandler","State":"AZ","Zip":"85286"},{"Location":"24 HOUR FITNESS #852","Address":"1085 S Arizona Ave","City":"Chandler","State":"AZ","Zip":"85286"},{"Location":"ACADEMY MORTGAGE","Address":"1750 E Northrop Blvd 230","City":"Chandler","State":"AZ","Zip":"85286"},{"Location":"ACADEMY MORTGAGE 2","Address":"1750 E Northrop Blvd 230","City":"Chandler","State":"AZ","Zip":"85286"},{"Location":"ADVANCED FUNCTIONAL","Address":"1965 S Alma School Rd 3","City":"Chandler","State":"AZ","Zip":"85286"},{"Location":"ALLENS AZ BODY SCULPTURI","Address":"2915 S Alma School Rd 8","City":"Chandler","State":"AZ","Zip":"85286"},{"Location":"ASSESSMENT TECHNOLOGIES","Address":"1750 E Northrop Blvd 200","City":"Chandler","State":"AZ","Zip":"85286"},{"Location":"ASSOCIATED DENTAL CARE PROVIDE","Address":"1860 S Alma School Rd 5","City":"Chandler","State":"AZ","Zip":"85286"},{"Location":"AUTONATION CHANDLER","Address":"1350 S Gilbert Rd 2","City":"Chandler","State":"AZ","Zip":"85286"},{"Location":"AUTONATION HONDA CHANDLER","Address":"1150 S Gilbert Rd","City":"Chandler","State":"AZ","Zip":"85286"},{"Location":"BIG OL TIRES","Address":"2550 E Germann Rd","City":"Chandler","State":"AZ","Zip":"85286"},{"Location":"BRAKE MASTERS # 209","Address":"2600 E Germann Rd","City":"Chandler","State":"AZ","Zip":"85286"},{"Location":"CARDINAL HEALTH","Address":"2222 S Stearman Dr","City":"Chandler","State":"AZ","Zip":"85286"},{"Location":"CDW","Address":"1850 E Northrop Blvd","City":"Chandler","State":"AZ","Zip":"85286"},{"Location":"CHANDLER AIR SERVICES","Address":"1675 E Ryan Rd","City":"Chandler","State":"AZ","Zip":"85286"},{"Location":"CHAO","Address":"1890 W Germann Rd Ste1","City":"Chandler","State":"AZ","Zip":"85286"},{"Location":"CHARLES SCHWAB CCN68","Address":"2121 S Price Rd","City":"Chandler","State":"AZ","Zip":"85286"},{"Location":"COBBLESTONE AUTO SPA & MARKET","Address":"2021 S Alma School Rd","City":"Chandler","State":"AZ","Zip":"85286"},{"Location":"COLDBEER AND CHEESEBURGER","Address":"1980 W Germann Rd","City":"Chandler","State":"AZ","Zip":"85286"},{"Location":"CYRUSONE","Address":"2335 S Ellis St","City":"Chandler","State":"AZ","Zip":"85286"},{"Location":"DESERT HOTTUBS","Address":"1400 S Arizona Ave 9","City":"Chandler","State":"AZ","Zip":"85286"},{"Location":"DIGITAL REALTY TRUST CHA","Address":"2121 S Price Rd","City":"Chandler","State":"AZ","Zip":"85286"},{"Location":"EAST VALLEY MUSIC CENTER","Address":"2100 S Gilbert Rd 20","City":"Chandler","State":"AZ","Zip":"85286"},{"Location":"EBAY","Address":"1240 S Price Rd","City":"Chandler","State":"AZ","Zip":"85286"},{"Location":"EFDS LLC","Address":"1380 S Price Rd","City":"Chandler","State":"AZ","Zip":"85286"},{"Location":"EL PALACIO RESTAURANT & CANTIN","Address":"2950 E Germann Rd","City":"Chandler","State":"AZ","Zip":"85286"},{"Location":"EXPEDIA%2C INC","Address":"2121 S Price Rd","City":"Chandler","State":"AZ","Zip":"85286"},{"Location":"FIREHOUSE SUBS","Address":"2100 S Gilbert Rd 11","City":"Chandler","State":"AZ","Zip":"85286"},{"Location":"FIRST BANK","Address":"2020 S Alma School Rd","City":"Chandler","State":"AZ","Zip":"85286"},{"Location":"GENERAL MOTORS FINANCIAL","Address":"1975 S Price Rd","City":"Chandler","State":"AZ","Zip":"85286"},{"Location":"GREEN MANGO","Address":"2440 E Germann Rd","City":"Chandler","State":"AZ","Zip":"85286"},{"Location":"HEALTH SOURCE","Address":"1445 S Arizona Ave 12","City":"Chandler","State":"AZ","Zip":"85286"},{"Location":"HEALTHWAYS","Address":"1445 S Spectrum Blvd","City":"Chandler","State":"AZ","Zip":"85286"},{"Location":"HOMACHI JAPANESE RESTAURANT","Address":"2975 S Alma School Rd","City":"Chandler","State":"AZ","Zip":"85286"},{"Location":"INFUSIONSOFT","Address":"1260 S Spectrum Blvd","City":"Chandler","State":"AZ","Zip":"85286"},{"Location":"KEMPTON AND NELSON","Address":"2745 S Alma School Rd 3","City":"Chandler","State":"AZ","Zip":"85286"},{"Location":"KIDS INCORPORATED","Address":"2350 S Gilbert Rd","City":"Chandler","State":"AZ","Zip":"85286"},{"Location":"MCDONALD 32096","Address":"2951 E Germann Rd","City":"Chandler","State":"AZ","Zip":"85286"},{"Location":"MORENO MEXICAN GRILL","Address":"2100 S Gilbert Rd 13","City":"Chandler","State":"AZ","Zip":"85286"},{"Location":"MOUNTAINSIDE FITNESS CENTER","Address":"1920 S Alma School Rd 103","City":"Chandler","State":"AZ","Zip":"85286"},{"Location":"MVP ZONE","Address":"2460 E Germann Rd 12","City":"Chandler","State":"AZ","Zip":"85286"},{"Location":"NANDOS OF CHANDLER","Address":"1890 W Germann Rd 2","City":"Chandler","State":"AZ","Zip":"85286"},{"Location":"NATIVE NEW YORKER & GILBERT","Address":"2110 S Gilbert Rd 112","City":"Chandler","State":"AZ","Zip":"85286"},{"Location":"NOAHS OF CHANDLER","Address":"2100 E Yeager","City":"Chandler","State":"AZ","Zip":"85286"},{"Location":"PAYPAL","Address":"3000 W Payment Way","City":"Chandler","State":"AZ","Zip":"85286"},{"Location":"PERFECT TAN","Address":"1860 S Alma School Rd 3","City":"Chandler","State":"AZ","Zip":"85286"},{"Location":"PETER PIPER PIZZA # 237","Address":"2965 S Alma School Rd","City":"Chandler","State":"AZ","Zip":"85286"},{"Location":"PLANET FITNESS","Address":"1420 S Arizona Ave","City":"Chandler","State":"AZ","Zip":"85286"},{"Location":"PORKOPOLIS","Address":"1445 S Arizona Ave 6","City":"Chandler","State":"AZ","Zip":"85286"},{"Location":"POWER NISSAN CHANDLER","Address":"1350 S Gilbert Rd","City":"Chandler","State":"AZ","Zip":"85286"},{"Location":"SAVAGE SMILES","Address":"1960 W Germann Rd","City":"Chandler","State":"AZ","Zip":"85286"},{"Location":"SHOPPERS SUPPLY CORP","Address":"2880 S Alma School Rd","City":"Chandler","State":"AZ","Zip":"85286"},{"Location":"SIDELINES GRILL & TAVERN","Address":"2980 S Alma School Rd 2","City":"Chandler","State":"AZ","Zip":"85286"},{"Location":"SONNY'S BAR","Address":"19011 S Arizona Ave","City":"Chandler","State":"AZ","Zip":"85286"},{"Location":"SPORT CLIPS AZ122","Address":"2990 E Germann Rd","City":"Chandler","State":"AZ","Zip":"85286"},{"Location":"STANLEY STEAMER","Address":"2440 E Germann Rd","City":"Chandler","State":"AZ","Zip":"85286"},{"Location":"STRIKE ZONE AZ LLC","Address":"1315 S Arizona Ave","City":"Chandler","State":"AZ","Zip":"85286"},{"Location":"SUBARU SUPER STORE","Address":"1050 S Gilbert Rd","City":"Chandler","State":"AZ","Zip":"85286"},{"Location":"SUNSHINE VALLEY","Address":"1650 S Arizona Ave","City":"Chandler","State":"AZ","Zip":"85286"},{"Location":"TAMMY PRONAILS AND SPA","Address":"1900 W Germann Rd","City":"Chandler","State":"AZ","Zip":"85286"},{"Location":"THE DANCE LOFT","Address":"2450 E Germann Rd 1","City":"Chandler","State":"AZ","Zip":"85286"},{"Location":"TOM BBQ INC","Address":"2802 S Alma School Rd 6","City":"Chandler","State":"AZ","Zip":"85286"},{"Location":"TOPLINE MANAGEMENT","Address":"3170 S Gilbert Rd 1","City":"Chandler","State":"AZ","Zip":"85286"},{"Location":"TUMBLEWEED RECREATION CTR #1","Address":"745 E Germann Rd","City":"Chandler","State":"AZ","Zip":"85286"},{"Location":"TUMBLEWEED RECREATION CTR #2","Address":"745 E Germann Rd","City":"Chandler","State":"AZ","Zip":"85286"},{"Location":"UNISOURCE","Address":"2460 E Germann Rd","City":"Chandler","State":"AZ","Zip":"85286"},{"Location":"VILLAGE INN","Address":"2780 E Germann Rd","City":"Chandler","State":"AZ","Zip":"85286"},{"Location":"VILLAGE INN","Address":"2935 S Alma School Rd","City":"Chandler","State":"AZ","Zip":"85286"},{"Location":"WONG RESTAURANT SERVICES","Address":"2430 S Gilbert Rd 5","City":"Chandler","State":"AZ","Zip":"85286"}]