[{"Location":"1ST BANK","Address":"6440 S Higley Rd","City":"Gilbert","State":"AZ","Zip":"85298"},{"Location":"1ST CUP CHNDLR HTS HGLY","Address":"3140 E Chandler Heights Rd","City":"Gilbert","State":"AZ","Zip":"85298"},{"Location":"BLUE 32 OF SEVILLE","Address":"6348 S Higley Rd Suite","City":"Gilbert","State":"AZ","Zip":"85298"},{"Location":"CJ SANZ LLC","Address":"6324 S Higley Rd","City":"Gilbert","State":"AZ","Zip":"85298"},{"Location":"COGBURNS","Address":"4902 S Val Vista Dr 112","City":"Gilbert","State":"AZ","Zip":"85298"},{"Location":"FIRST BANK","Address":"4828 S Val Vista Dr","City":"Gilbert","State":"AZ","Zip":"85298"},{"Location":"FLIPSIDE","Address":"4874 S Val Vista Dr","City":"Gilbert","State":"AZ","Zip":"85298"},{"Location":"GS CONSULTING GROUP","Address":"4902 S Val Vista Dr B101","City":"Gilbert","State":"AZ","Zip":"85298"},{"Location":"LOCAL EATS","Address":"6348 S Higley Rd 106","City":"Gilbert","State":"AZ","Zip":"85298"},{"Location":"PACIFIC DENTAL #267","Address":"6466 S Higley Rd 101","City":"Gilbert","State":"AZ","Zip":"85298"},{"Location":"PALACE NAILS AND SPA","Address":"6466 S Higley Rd 106","City":"Gilbert","State":"AZ","Zip":"85298"},{"Location":"R AND K FARRIER","Address":"4902 S Val Vista Dr 104","City":"Gilbert","State":"AZ","Zip":"85298"},{"Location":"SEVILLE GOLF & COUNRY CLUB","Address":"6683 S Clubhouse Dr","City":"Gilbert","State":"AZ","Zip":"85298"},{"Location":"TRILOGY GOLF CLUB AT POWER RAN","Address":"4415 E Village Pkwy","City":"Gilbert","State":"AZ","Zip":"85298"}]