[{"Location":"ANYTIME FITNESS","Address":"4720 E Queen Creek Rd 101","City":"Gilbert","State":"AZ","Zip":"85297"},{"Location":"ARIZONA BANK & TRUST - GILBERT","Address":"4117 S Gilbert Rd","City":"Gilbert","State":"AZ","Zip":"85297"},{"Location":"ARIZONA CANCER SPEACIALI","Address":"3645 S Rome St 116","City":"Gilbert","State":"AZ","Zip":"85297"},{"Location":"AUTONATION CHEVROLETE GILBERT","Address":"3215 S Auto Way","City":"Gilbert","State":"AZ","Zip":"85297"},{"Location":"BANNER HOME CARE","Address":"275 E Germann Rd 110","City":"Gilbert","State":"AZ","Zip":"85297"},{"Location":"BARROS PIZZA-HIGLEY","Address":"4636 S Higley Rd","City":"Gilbert","State":"AZ","Zip":"85297"},{"Location":"CARMAX #7662","Address":"1480 E Motorplex Loop","City":"Gilbert","State":"AZ","Zip":"85297"},{"Location":"CHILI'S #1079","Address":"3917 S Gilbert Rd","City":"Gilbert","State":"AZ","Zip":"85297"},{"Location":"CIGNA HEALTH CARE OF ARIZONA","Address":"3530 S Val Vista Dr","City":"Gilbert","State":"AZ","Zip":"85297"},{"Location":"CVAM","Address":"3513 S Mercy Rd","City":"Gilbert","State":"AZ","Zip":"85297"},{"Location":"DEL REY CLEANERS","Address":"143 E Germann Rd 109","City":"Gilbert","State":"AZ","Zip":"85297"},{"Location":"FMC 69340000","Address":"3511 S Mercy Rd","City":"Gilbert","State":"AZ","Zip":"85297"},{"Location":"FRANCISCO PIZZA AND PITA","Address":"3765 S Gilbert Rd 103","City":"Gilbert","State":"AZ","Zip":"85297"},{"Location":"HENRY BROWM BPG%2CVICKI WILLIS%2C","Address":"1550 E Drivers Way","City":"Gilbert","State":"AZ","Zip":"85297"},{"Location":"HOSPICE OF THE VALLEY","Address":"1982 E Woodside Court","City":"Gilbert","State":"AZ","Zip":"85297"},{"Location":"KENNETH BRAILSFORD","Address":"2619 E Lovebird Ln","City":"Gilbert","State":"AZ","Zip":"85297"},{"Location":"LITTLE TYKES PEDI DENTIST","Address":"3592 S Atherton Blvd 107","City":"Gilbert","State":"AZ","Zip":"85297"},{"Location":"MCDONALD'S","Address":"4740 E Queen Creek Rd","City":"Gilbert","State":"AZ","Zip":"85297"},{"Location":"MCDONALD'S","Address":"20735 East Maya Road","City":"Gilbert","State":"AZ","Zip":"85297"},{"Location":"MOUNTAINSIDE GILBERT COMMONS","Address":"3345 S Val Vista Dr 110","City":"Gilbert","State":"AZ","Zip":"85297"},{"Location":"PACWEST ENTERGY LLC","Address":"4027 S Gilbert Rd","City":"Gilbert","State":"AZ","Zip":"85297"},{"Location":"PLATIMUM SOL TANNING LOFT 1","Address":"3345 S Val Vista Dr 102","City":"Gilbert","State":"AZ","Zip":"85297"},{"Location":"PROCTORU","Address":"335 E Germann Rd 370","City":"Gilbert","State":"AZ","Zip":"85297"},{"Location":"RED LOBSTER #6320","Address":"3845 S Gilbert Rd","City":"Gilbert","State":"AZ","Zip":"85297"},{"Location":"SAN TAN FORD","Address":"1429 E Mortorplex Loop","City":"Gilbert","State":"AZ","Zip":"85297"},{"Location":"SANTAN HYUNDAI","Address":"3252 S Auto Way","City":"Gilbert","State":"AZ","Zip":"85297"},{"Location":"SCOTTRADE 02J","Address":"143 E Germann Rd 110","City":"Gilbert","State":"AZ","Zip":"85297"},{"Location":"SOMERSET FAMILY DENTAL","Address":"8490 S Power Rd 106","City":"Gilbert","State":"AZ","Zip":"85297"},{"Location":"SOUTHWEST AMBULANCE","Address":"7529 S Power Road #102","City":"Gilbert","State":"AZ","Zip":"85297"},{"Location":"SOUTHWEST STAGE FUNDING","Address":"3345 S Val Vista Dr 300","City":"Gilbert","State":"AZ","Zip":"85297"},{"Location":"SPORT CLIPS AZ123","Address":"4622 S Higley Rd 102","City":"Gilbert","State":"AZ","Zip":"85297"},{"Location":"TABCON INC","Address":"618 E Germann Rd","City":"Gilbert","State":"AZ","Zip":"85297"},{"Location":"TACOS & MORE","Address":"4622 S Higley Rd","City":"Gilbert","State":"AZ","Zip":"85297"},{"Location":"TAILGATERS GRILL","Address":"4604 S Higley Rd 103","City":"Gilbert","State":"AZ","Zip":"85297"},{"Location":"TEXAS ROADHOUSE #2244","Address":"3961 S Gilbert Rd","City":"Gilbert","State":"AZ","Zip":"85297"},{"Location":"THE TANNING TAXI LLC","Address":"3297 E Warbler Rd","City":"Gilbert","State":"AZ","Zip":"85297"},{"Location":"TOTAL ARM REHAB","Address":"3530 S Val Vista Dr 102","City":"Gilbert","State":"AZ","Zip":"85297"},{"Location":"WELLSPRINGS THERAPY CNTR","Address":"3319 S Mercy Rd","City":"Gilbert","State":"AZ","Zip":"85297"},{"Location":"WENDYS GILBERT","Address":"84 E Germann Rd","City":"Gilbert","State":"AZ","Zip":"85297"},{"Location":"WINGSTOP #711","Address":"3757 S Gilbert Rd 104","City":"Gilbert","State":"AZ","Zip":"85297"}]