[{"Location":"","Address":"67 S Higley Rd 103","City":"Gilbert","State":"AZ","Zip":"85296"},{"Location":"1ST CUP RAY AND HIGLEY LLC","Address":"1633 S Higley Rd  #103","City":"Gilbert","State":"AZ","Zip":"85296"},{"Location":"AHI REVOLVING SUSHI","Address":"940 S Gilbert Rd","City":"Gilbert","State":"AZ","Zip":"85296"},{"Location":"APPLEBEE'S #522 GILBERT GTWY","Address":"4712 E Ray Rd","City":"Gilbert","State":"AZ","Zip":"85296"},{"Location":"BBVA ELLIOT & VISTA","Address":"77 S Val Vista Dr","City":"Gilbert","State":"AZ","Zip":"85296"},{"Location":"BBVA WARNER & GILBERT","Address":"630 S Gilbert Rd","City":"Gilbert","State":"AZ","Zip":"85296"},{"Location":"BROOKLYN V'S PIZZA","Address":"894 E Warner Rd","City":"Gilbert","State":"AZ","Zip":"85296"},{"Location":"BRUNSWICK ZONE XL #806 GILBERT","Address":"1160 S Gilbert Rd","City":"Gilbert","State":"AZ","Zip":"85296"},{"Location":"BUFFALO WILD WINGS #3184","Address":"970 S Gilbert Rd","City":"Gilbert","State":"AZ","Zip":"85296"},{"Location":"CHANCE CONSTRUCTION CO%2C INC.","Address":"323 S Gilbert Rd 215","City":"Gilbert","State":"AZ","Zip":"85296"},{"Location":"CRYSTAL CLEAR PLUMBING","Address":"3838 East Gasper Drive","City":"Gilbert","State":"AZ","Zip":"85296"},{"Location":"DUNKIN DONUTS","Address":"857 E Warner Rd","City":"Gilbert","State":"AZ","Zip":"85296"},{"Location":"FIRESTONE #599255","Address":"922 S Val Vista Dr","City":"Gilbert","State":"AZ","Zip":"85296"},{"Location":"FITNESS BY WILL","Address":"1530 S Val Vista Dr 103","City":"Gilbert","State":"AZ","Zip":"85296"},{"Location":"GEOF GLOVSKY DMD PC - GILBERT","Address":"754 S Val Vista Dr 107","City":"Gilbert","State":"AZ","Zip":"85296"},{"Location":"GILBERT PIZZA","Address":"1150 S Gilbert Rd","City":"Gilbert","State":"AZ","Zip":"85296"},{"Location":"JIFFY LUBE #2706","Address":"931 S Val Vista Dr","City":"Gilbert","State":"AZ","Zip":"85296"},{"Location":"KERR ENDODONTICS","Address":"1355 S Higley Rd 116","City":"Gilbert","State":"AZ","Zip":"85296"},{"Location":"LA RISTRA","Address":"638 E Warner Rd 101","City":"Gilbert","State":"AZ","Zip":"85296"},{"Location":"LIFETIME FITNESS","Address":"381 E Warner Rd","City":"Gilbert","State":"AZ","Zip":"85296"},{"Location":"ONE STOP NUTRTITION","Address":"263 E Warner Rd 101","City":"Gilbert","State":"AZ","Zip":"85296"},{"Location":"OVER EASY GILBERT","Address":"211 E Warner Rd","City":"Gilbert","State":"AZ","Zip":"85296"},{"Location":"PENNINGTON LOCKSMITH CO","Address":"235 E Warner Rd 103","City":"Gilbert","State":"AZ","Zip":"85296"},{"Location":"PIZZA A METRO","Address":"832 S Greenfield Rd","City":"Gilbert","State":"AZ","Zip":"85296"},{"Location":"PRECISION CUT","Address":"2944 E Morrison Ranch Pkwy","City":"Gilbert","State":"AZ","Zip":"85296"},{"Location":"RESTART WESTERN SKIES LP","Address":"1166 E Warner Rd 101","City":"Gilbert","State":"AZ","Zip":"85296"},{"Location":"RICKS","Address":"7 E Palo Verde St 11","City":"Gilbert","State":"AZ","Zip":"85296"},{"Location":"SANFRETELLOS","Address":"857 E Warner Rd","City":"Gilbert","State":"AZ","Zip":"85296"},{"Location":"SOUTHWEST AMBULANCE","Address":"67 S Higley Rd","City":"Gilbert","State":"AZ","Zip":"85296"},{"Location":"SPORT CLIPS AZ101","Address":"1084 S Gilbert Rd 102","City":"Gilbert","State":"AZ","Zip":"85296"},{"Location":"STONEBRIDGE FAMILY CARE","Address":"13639 E Ray Rd","City":"Gilbert","State":"AZ","Zip":"85296"},{"Location":"WESTERN SKIES GOLF","Address":"1245 E Warner Rd","City":"Gilbert","State":"AZ","Zip":"85296"},{"Location":"ZIPPS SPORTS GRILL","Address":"211 E Warner Rd","City":"Gilbert","State":"AZ","Zip":"85296"},{"Location":"","Address":"67 S Higley Rd 103","City":"Gilbert","State":"AZ","Zip":"85296"},{"Location":"1ST CUP RAY AND HIGLEY LLC","Address":"1633 S Higley Rd  #103","City":"Gilbert","State":"AZ","Zip":"85296"},{"Location":"AHI REVOLVING SUSHI","Address":"940 S Gilbert Rd","City":"Gilbert","State":"AZ","Zip":"85296"},{"Location":"APPLEBEE'S #522 GILBERT GTWY","Address":"4712 E Ray Rd","City":"Gilbert","State":"AZ","Zip":"85296"},{"Location":"BBVA ELLIOT & VISTA","Address":"77 S Val Vista Dr","City":"Gilbert","State":"AZ","Zip":"85296"},{"Location":"BBVA WARNER & GILBERT","Address":"630 S Gilbert Rd","City":"Gilbert","State":"AZ","Zip":"85296"},{"Location":"BROOKLYN V'S PIZZA","Address":"894 E Warner Rd","City":"Gilbert","State":"AZ","Zip":"85296"},{"Location":"BRUNSWICK ZONE XL #806 GILBERT","Address":"1160 S Gilbert Rd","City":"Gilbert","State":"AZ","Zip":"85296"},{"Location":"BUFFALO WILD WINGS #3184","Address":"970 S Gilbert Rd","City":"Gilbert","State":"AZ","Zip":"85296"},{"Location":"CHANCE CONSTRUCTION CO%2C INC.","Address":"323 S Gilbert Rd 215","City":"Gilbert","State":"AZ","Zip":"85296"},{"Location":"CRYSTAL CLEAR PLUMBING","Address":"3838 East Gasper Drive","City":"Gilbert","State":"AZ","Zip":"85296"},{"Location":"DUNKIN DONUTS","Address":"857 E Warner Rd","City":"Gilbert","State":"AZ","Zip":"85296"},{"Location":"FIRESTONE #599255","Address":"922 S Val Vista Dr","City":"Gilbert","State":"AZ","Zip":"85296"},{"Location":"FITNESS BY WILL","Address":"1530 S Val Vista Dr 103","City":"Gilbert","State":"AZ","Zip":"85296"},{"Location":"GEOF GLOVSKY DMD PC - GILBERT","Address":"754 S Val Vista Dr 107","City":"Gilbert","State":"AZ","Zip":"85296"},{"Location":"GILBERT PIZZA","Address":"1150 S Gilbert Rd","City":"Gilbert","State":"AZ","Zip":"85296"},{"Location":"JIFFY LUBE #2706","Address":"931 S Val Vista Dr","City":"Gilbert","State":"AZ","Zip":"85296"},{"Location":"KERR ENDODONTICS","Address":"1355 S Higley Rd 116","City":"Gilbert","State":"AZ","Zip":"85296"},{"Location":"LA RISTRA","Address":"638 E Warner Rd 101","City":"Gilbert","State":"AZ","Zip":"85296"},{"Location":"LIFETIME FITNESS","Address":"381 E Warner Rd","City":"Gilbert","State":"AZ","Zip":"85296"},{"Location":"ONE STOP NUTRTITION","Address":"263 E Warner Rd 101","City":"Gilbert","State":"AZ","Zip":"85296"},{"Location":"OVER EASY GILBERT","Address":"211 E Warner Rd","City":"Gilbert","State":"AZ","Zip":"85296"},{"Location":"PENNINGTON LOCKSMITH CO","Address":"235 E Warner Rd 103","City":"Gilbert","State":"AZ","Zip":"85296"},{"Location":"PIZZA A METRO","Address":"832 S Greenfield Rd","City":"Gilbert","State":"AZ","Zip":"85296"},{"Location":"PRECISION CUT","Address":"2944 E Morrison Ranch Pkwy","City":"Gilbert","State":"AZ","Zip":"85296"},{"Location":"RESTART WESTERN SKIES LP","Address":"1166 E Warner Rd 101","City":"Gilbert","State":"AZ","Zip":"85296"},{"Location":"RICKS","Address":"7 E Palo Verde St 11","City":"Gilbert","State":"AZ","Zip":"85296"},{"Location":"SANFRETELLOS","Address":"857 E Warner Rd","City":"Gilbert","State":"AZ","Zip":"85296"},{"Location":"SOUTHWEST AMBULANCE","Address":"67 S Higley Rd","City":"Gilbert","State":"AZ","Zip":"85296"},{"Location":"SPORT CLIPS AZ101","Address":"1084 S Gilbert Rd 102","City":"Gilbert","State":"AZ","Zip":"85296"},{"Location":"STONEBRIDGE FAMILY CARE","Address":"13639 E Ray Rd","City":"Gilbert","State":"AZ","Zip":"85296"},{"Location":"WESTERN SKIES GOLF","Address":"1245 E Warner Rd","City":"Gilbert","State":"AZ","Zip":"85296"},{"Location":"ZIPPS SPORTS GRILL","Address":"211 E Warner Rd","City":"Gilbert","State":"AZ","Zip":"85296"}]