[{"Location":"NATIVE AIR","Address":"5656 S Tower Rd","City":"Dilbert","State":"AZ","Zip":"85295"},{"Location":"1ST BANK","Address":"2425 S Gilbert Rd","City":"Gilbert","State":"AZ","Zip":"85295"},{"Location":"AB STAFFING","Address":"2680 S Val Vista Dr 152","City":"Gilbert","State":"AZ","Zip":"85295"},{"Location":"ALL SEASONS NAIL SPA","Address":"3107 S Gilbert Rd 102","City":"Gilbert","State":"AZ","Zip":"85295"},{"Location":"ARIZONA FOOT AND ANKLE SURGERY","Address":"2730 S Val Vista Dr 175","City":"Gilbert","State":"AZ","Zip":"85295"},{"Location":"ARIZONA STATE CREDIT UNION #4","Address":"2721 S San Tan Village Pkwy 104","City":"Gilbert","State":"AZ","Zip":"85295"},{"Location":"ARRIBA MEXICAN GRILL","Address":"2855 S Market St","City":"Gilbert","State":"AZ","Zip":"85295"},{"Location":"BARROS PIZZA","Address":"1431 E Williams Field Rd 104","City":"Gilbert","State":"AZ","Zip":"85295"},{"Location":"BLUE 32 SPORT GRILL","Address":"1524 E Williams Field Rd 105","City":"Gilbert","State":"AZ","Zip":"85295"},{"Location":"BLUE WASABI","Address":"2080 E Williams Field Rd","City":"Gilbert","State":"AZ","Zip":"85295"},{"Location":"BRIO SAN TAN #72","Address":"2150 E Williams Field Rd 118","City":"Gilbert","State":"AZ","Zip":"85295"},{"Location":"BURRITO EXPRESS","Address":"1605 S Gilbert Rd","City":"Gilbert","State":"AZ","Zip":"85295"},{"Location":"CABRALES ENT LLC","Address":"2341 S Val Vista Dr","City":"Gilbert","State":"AZ","Zip":"85295"},{"Location":"CANTINA LAREDO #309","Address":"2150 E Williams Field Rd","City":"Gilbert","State":"AZ","Zip":"85295"},{"Location":"CARRABBA'S ITALIAN GRILL #5310","Address":"2709 S Market St","City":"Gilbert","State":"AZ","Zip":"85295"},{"Location":"CHENS CHINESE BISTRO","Address":"2743 S Market St 111","City":"Gilbert","State":"AZ","Zip":"85295"},{"Location":"D2SQUARE LLC","Address":"3133 S Lindsay Rd 103","City":"Gilbert","State":"AZ","Zip":"85295"},{"Location":"DICK'S SPORTING GOODS #363","Address":"2269 S San Tan Village Pkwy","City":"Gilbert","State":"AZ","Zip":"85295"},{"Location":"FAMOUS DAVE'S GILBERT","Address":"2206 E Williams Field Rd","City":"Gilbert","State":"AZ","Zip":"85295"},{"Location":"FILIBERTO MEXICAN RESTAURANT","Address":"1397 E Williams Field Rd 101","City":"Gilbert","State":"AZ","Zip":"85295"},{"Location":"FIREHOUSE SUBS","Address":"2894 Santan Village Pa #101","City":"Gilbert","State":"AZ","Zip":"85295"},{"Location":"FOX CIGAR BAR","Address":"1464 E Williams Field Rd 105","City":"Gilbert","State":"AZ","Zip":"85295"},{"Location":"GENOS CHEESESTEAKS & DEL","Address":"1464 E Williams Field Rd 108","City":"Gilbert","State":"AZ","Zip":"85295"},{"Location":"GILBERT JIMMY OF CHICAGO","Address":"884 E Williams Field Rd 102","City":"Gilbert","State":"AZ","Zip":"85295"},{"Location":"GILBERT SMILES","Address":"1661 S Val Vista Dr C101","City":"Gilbert","State":"AZ","Zip":"85295"},{"Location":"GORDON BIERSCH #4617","Address":"2218 E Williams Field Rd","City":"Gilbert","State":"AZ","Zip":"85295"},{"Location":"GREAT WALL CHINESE RESTAURAT","Address":"2473 S Higley Rd 106","City":"Gilbert","State":"AZ","Zip":"85295"},{"Location":"GRIMALDIS PIZZERIA","Address":"2168 E Williams Field Rd 502","City":"Gilbert","State":"AZ","Zip":"85295"},{"Location":"HARVEY AMERICAN PUBLIC H","Address":"1524 E Williams Field Rd 101","City":"Gilbert","State":"AZ","Zip":"85295"},{"Location":"HIGH TIDE SEAFOOD","Address":"2540 S Val Vista Dr","City":"Gilbert","State":"AZ","Zip":"85295"},{"Location":"HYADOC MEDICAL","Address":"2730 S Valzista Dr 8n143","City":"Gilbert","State":"AZ","Zip":"85295"},{"Location":"ISABELS AMOR","Address":"1490 E Williams Field Rd","City":"Gilbert","State":"AZ","Zip":"85295"},{"Location":"JUST SPORTS GILBERT SAN TAN","Address":"2174 E Williams Field Rd","City":"Gilbert","State":"AZ","Zip":"85295"},{"Location":"KONA GRILL #120","Address":"2224 E Williams Field Rd","City":"Gilbert","State":"AZ","Zip":"85295"},{"Location":"LOGAN'S ROADHOUSE #466","Address":"2649 S Market St","City":"Gilbert","State":"AZ","Zip":"85295"},{"Location":"LOS RUBIOS","Address":"2473 S Higley Rd 103","City":"Gilbert","State":"AZ","Zip":"85295"},{"Location":"LOVE 2 RUN LLC","Address":"3107 S Gilbert Rd 103","City":"Gilbert","State":"AZ","Zip":"85295"},{"Location":"MACY'S WEST 465","Address":"2190 E Williams Field Rd","City":"Gilbert","State":"AZ","Zip":"85295"},{"Location":"MACY'S WEST 465 BR","Address":"2190 E Williams Field Rd","City":"Gilbert","State":"AZ","Zip":"85295"},{"Location":"MARY LYNNS MASASAGE","Address":"139 E Williams Field Rd 110","City":"Gilbert","State":"AZ","Zip":"85295"},{"Location":"MED POST URGENT CARE","Address":"2487 S Gilbert Rd 108","City":"Gilbert","State":"AZ","Zip":"85295"},{"Location":"MEN'S WEARHOUSE #2513","Address":"2703 S Market St","City":"Gilbert","State":"AZ","Zip":"85295"},{"Location":"MOONSHINE GRILL","Address":"2531 S Gilbert Rd 101","City":"Gilbert","State":"AZ","Zip":"85295"},{"Location":"NEW MEXICAN GRILL","Address":"3107 S Lindsay Rd 101","City":"Gilbert","State":"AZ","Zip":"85295"},{"Location":"NYPD PIZZA SANTAN","Address":"2743 S Market St 101","City":"Gilbert","State":"AZ","Zip":"85295"},{"Location":"OUTBACK STEAKHOUSE #0328","Address":"2687 S Market St","City":"Gilbert","State":"AZ","Zip":"85295"},{"Location":"PACWEST ENERGY LLC","Address":"2870 S Market St","City":"Gilbert","State":"AZ","Zip":"85295"},{"Location":"PETER PIPER PIZZA # 225","Address":"127 E Williams Field Rd","City":"Gilbert","State":"AZ","Zip":"85295"},{"Location":"REAL SUSHI","Address":"2512 S Val Vista Dr","City":"Gilbert","State":"AZ","Zip":"85295"},{"Location":"RED ROBIN #524","Address":"2235 S San Tan Village Pkwy","City":"Gilbert","State":"AZ","Zip":"85295"},{"Location":"RUBY TUESDAY #5411","Address":"2571 S Market St","City":"Gilbert","State":"AZ","Zip":"85295"},{"Location":"SPECTRUM TOWN CENTER","Address":"1433 E Williams Field Rd","City":"Gilbert","State":"AZ","Zip":"85295"},{"Location":"SWIRL IT FROZEN YOGURT","Address":"1397 E Williams Field Rd 104","City":"Gilbert","State":"AZ","Zip":"85295"},{"Location":"TEAKWILLIAM","Address":"151 E Williams Field Rd 112","City":"Gilbert","State":"AZ","Zip":"85295"},{"Location":"THE KEG STEAKHOUSE AND BAR","Address":"2240 E Williams Field Rd","City":"Gilbert","State":"AZ","Zip":"85295"},{"Location":"TOPGOLF GILBERT AZ","Address":"1689 South Santan Village Pkwy","City":"Gilbert","State":"AZ","Zip":"85295"},{"Location":"TRI-CITY CARDIOLOGY","Address":"2680 S Val Vista Dr 15","City":"Gilbert","State":"AZ","Zip":"85295"},{"Location":"VAPE LLC","Address":"18256 E Williams Field Rd A3","City":"Gilbert","State":"AZ","Zip":"85295"},{"Location":"WEIDER GLOBAL NUTRITION","Address":"2212 E Williams Field Rd 230","City":"Gilbert","State":"AZ","Zip":"85295"},{"Location":"WENDY'S #11065","Address":"2867 S San Tan Pkwy","City":"Gilbert","State":"AZ","Zip":"85295"},{"Location":"WHICH WICH SUPERIOR SANDWICHES","Address":"2795 S Market St 110","City":"Gilbert","State":"AZ","Zip":"85295"},{"Location":"WORLD OF BEER","Address":"2224 E Williams Field Rd 208","City":"Gilbert","State":"AZ","Zip":"85295"},{"Location":"YAO CHINESE RESTAURANT","Address":"2487 S Gilbert Rd 102","City":"Gilbert","State":"AZ","Zip":"85295"},{"Location":"YF GILBERT","Address":"870 E Williams Field Rd","City":"Gilbert","State":"AZ","Zip":"85295"}]