[{"Location":"ARMY AIR FORCE EXCHANGE SERV","Address":"7071 N 138th Ave 1540","City":"Glendale","State":"AZ","Zip":"85307"},{"Location":"COCA COLA REFRESHMENTS","Address":"7845 N 106th Ave","City":"Glendale","State":"AZ","Zip":"85307"},{"Location":"COPPER STATE TURBINE ENGINE CO","Address":"6841 N Glen Harbor Blvd","City":"Glendale","State":"AZ","Zip":"85307"},{"Location":"EXPLICIT SHOW CLUB","Address":"11701 W Glendale Ave","City":"Glendale","State":"AZ","Zip":"85307"},{"Location":"FERNANDO MUNIZ","Address":"7225 N 110th Ave 9","City":"Glendale","State":"AZ","Zip":"85307"},{"Location":"FIRESTONE #328305","Address":"1124 Thunderbird","City":"Glendale","State":"AZ","Zip":"85307"},{"Location":"HERMANS CACTUS CLEANERS","Address":"13730 W Glendale Ave","City":"Glendale","State":"AZ","Zip":"85307"},{"Location":"LUCIES SAGE & SAND LLC","Address":"13831 W Glendale Ave C","City":"Glendale","State":"AZ","Zip":"85307"},{"Location":"MONSTER PAINT FX","Address":"7115 N 110th Ave","City":"Glendale","State":"AZ","Zip":"85307"},{"Location":"PHI MEDICAL - HALO 151","Address":"6791 N Glen Harbor Blvd","City":"Glendale","State":"AZ","Zip":"85307"},{"Location":"PIZZA HUT 26989","Address":"13105 W Glendale Ave","City":"Glendale","State":"AZ","Zip":"85307"},{"Location":"SERTA MATTRESS CO","Address":"10950 W Northview Ave","City":"Glendale","State":"AZ","Zip":"85307"},{"Location":"TAKAMATSU ON LUKE INC","Address":"7019 N Litchfield Rd","City":"Glendale","State":"AZ","Zip":"85307"},{"Location":"USAF 56TH SECURITY FORCES","Address":"7011 N El Mirage Rd","City":"Glendale","State":"AZ","Zip":"85307"},{"Location":"WEST MEC AVIATION CENTER","Address":"6997 N Glen Harbor Blvd","City":"Glendale","State":"AZ","Zip":"85307"},{"Location":"COYOTE CABARET","Address":"13724 W Glendale Ave","City":"Luke Afb","State":"AZ","Zip":"85307"},{"Location":"VIDOR TACTICAL LLC","Address":"2227 Apache","City":"Luke Afb","State":"AZ","Zip":"85307"}]