[{"Location":"007 PUB","Address":"4330 W Union Hills Dr","City":"Glendale","State":"AZ","Zip":"85308"},{"Location":"1ST CHOICE BARBER SHOP","Address":"20165 N 67th Ave 131a","City":"Glendale","State":"AZ","Zip":"85308"},{"Location":"24 HOUR FITNESS #856","Address":"4316 W Bell Rd","City":"Glendale","State":"AZ","Zip":"85308"},{"Location":"ABABA FOODS INC%2C LLC","Address":"8285 W Union Hills Dr 107","City":"Glendale","State":"AZ","Zip":"85308"},{"Location":"AFFILIATED CHILDRENS DENTAL SP","Address":"6320a W Union Hills Dr 280","City":"Glendale","State":"AZ","Zip":"85308"},{"Location":"AH SO SUSHI & STEAK","Address":"6033 W Bell Rd A","City":"Glendale","State":"AZ","Zip":"85308"},{"Location":"AJO ALS MEXICAN CAFE","Address":"7458 W Bell Rd","City":"Glendale","State":"AZ","Zip":"85308"},{"Location":"ALL AMERICAN POOL AND PATIO","Address":"5940 W Bell Rd","City":"Glendale","State":"AZ","Zip":"85308"},{"Location":"AMERICAN IRON FURNTURE #3","Address":"6384 W Bell Rd","City":"Glendale","State":"AZ","Zip":"85308"},{"Location":"ARIS PHYSICAL THERAPY","Address":"17100 N 67th Ave 100","City":"Glendale","State":"AZ","Zip":"85308"},{"Location":"ARIZONA ONCOLOGY","Address":"7200 W Bell Rd","City":"Glendale","State":"AZ","Zip":"85308"},{"Location":"ARIZONA STATE CREDIT UNION #3","Address":"8285 W Union Hills Dr","City":"Glendale","State":"AZ","Zip":"85308"},{"Location":"ARROWHEAD COUNTRY CLUB","Address":"19888 N 73rd Ave","City":"Glendale","State":"AZ","Zip":"85308"},{"Location":"ARROWHEAD DENTAL ARTS","Address":"17235 N 75th Ave C135","City":"Glendale","State":"AZ","Zip":"85308"},{"Location":"ARROWHEAD GRILL","Address":"8280 W Union Hills Dr 110","City":"Glendale","State":"AZ","Zip":"85308"},{"Location":"ARROWHEAD HOSPITAL","Address":"18701 N 67th St","City":"Glendale","State":"AZ","Zip":"85308"},{"Location":"ARROWHEAD TOWN CENTER","Address":"7700 W Arrowhead Towne Ctr","City":"Glendale","State":"AZ","Zip":"85308"},{"Location":"ASHLEY FURNITURE HOME STORES","Address":"6910 W Bell Rd","City":"Glendale","State":"AZ","Zip":"85308"},{"Location":"ASPEN DENTAL #9118","Address":"7708 W Bell Rd 103","City":"Glendale","State":"AZ","Zip":"85308"},{"Location":"AUDIO EXPRESS AE04","Address":"4961 W Bell Rd 1","City":"Glendale","State":"AZ","Zip":"85308"},{"Location":"AUTUMN NAIL SPA","Address":"21610 N 35th Ave 166","City":"Glendale","State":"AZ","Zip":"85308"},{"Location":"AZ PIZZA COMPANY","Address":"8110 W Union Hills Dr","City":"Glendale","State":"AZ","Zip":"85308"},{"Location":"BABBO ITALIAN EATERY","Address":"20211 N 67th Ave","City":"Glendale","State":"AZ","Zip":"85308"},{"Location":"BANK OF AMERICA AZ3-905-01-01","Address":"20241 N 67th Ave","City":"Glendale","State":"AZ","Zip":"85308"},{"Location":"BARBERSHOP","Address":"18255 N 83rd Ave","City":"Glendale","State":"AZ","Zip":"85308"},{"Location":"BARRO'S PIZZA #4","Address":"20165 N 67th Ave","City":"Glendale","State":"AZ","Zip":"85308"},{"Location":"BBVA 59TH & BELL","Address":"5740 W Bell Rd","City":"Glendale","State":"AZ","Zip":"85308"},{"Location":"BEDS AMERICA","Address":"6680 W Bell Rd D","City":"Glendale","State":"AZ","Zip":"85308"},{"Location":"BETTYS NOSH","Address":"6685 W Beardsley Rd","City":"Glendale","State":"AZ","Zip":"85308"},{"Location":"BLACK BEAR DINER","Address":"6039 W Bell Rd","City":"Glendale","State":"AZ","Zip":"85308"},{"Location":"BLOOMING NAILS LLC","Address":"7260 W Bell Rd 1","City":"Glendale","State":"AZ","Zip":"85308"},{"Location":"BRUNSWICK ZONE #825","Address":"17210 N 59th Ave","City":"Glendale","State":"AZ","Zip":"85308"},{"Location":"CARAMBA MEXICAN RESTAURANT","Address":"6661 W Bell Rd 104","City":"Glendale","State":"AZ","Zip":"85308"},{"Location":"CARRABBA'S ITALIAN GRILL #5302","Address":"5646 W Bell Rd","City":"Glendale","State":"AZ","Zip":"85308"},{"Location":"CHEERS TAVERN","Address":"5915 W Bell Rd","City":"Glendale","State":"AZ","Zip":"85308"},{"Location":"CHILLY BOMBERS","Address":"4917 W Bell Rd","City":"Glendale","State":"AZ","Zip":"85308"},{"Location":"CHURCHILLS FINE CIGARS 5","Address":"6685 W Beardsley Rd","City":"Glendale","State":"AZ","Zip":"85308"},{"Location":"CLEATS INC","Address":"20221 N 67th Ave E5","City":"Glendale","State":"AZ","Zip":"85308"},{"Location":"CM GLENDALE ARROWHEAD","Address":"17505 N 79th Ave 204","City":"Glendale","State":"AZ","Zip":"85308"},{"Location":"CREEKSIDE CORPORATE CENTER","Address":"4344 W Bell Rd 102","City":"Glendale","State":"AZ","Zip":"85308"},{"Location":"CSAA INSURANCE EXCHANGE","Address":"5353 W Bell Rd","City":"Glendale","State":"AZ","Zip":"85308"},{"Location":"CUCINA TAGLIANI","Address":"17045 N 59th Ave 101","City":"Glendale","State":"AZ","Zip":"85308"},{"Location":"DC SALON SUITES","Address":"8160 W Union Hills Dr","City":"Glendale","State":"AZ","Zip":"85308"},{"Location":"DEER VALLEY MEDICAL","Address":"6206 W Bell Rd 3","City":"Glendale","State":"AZ","Zip":"85308"},{"Location":"DESIGNS SOURCE FURNITURE","Address":"7291 W Bell Rd","City":"Glendale","State":"AZ","Zip":"85308"},{"Location":"DESTINATION XL 9849","Address":"7530 W Bell Rd 103","City":"Glendale","State":"AZ","Zip":"85308"},{"Location":"DICK'S SPORTING GOODS #364","Address":"7700 W Bell Rd","City":"Glendale","State":"AZ","Zip":"85308"},{"Location":"DILLON'S RESTAURANT","Address":"20585 N 59th Ave","City":"Glendale","State":"AZ","Zip":"85308"},{"Location":"DONALD L WILCOX DDS","Address":"18275 N 59th Ave C114","City":"Glendale","State":"AZ","Zip":"85308"},{"Location":"DUBINA BREWING","Address":"17035 N 67th Ave 6","City":"Glendale","State":"AZ","Zip":"85308"},{"Location":"DUNKIN DONUTS","Address":"20229 N 67th Ave","City":"Glendale","State":"AZ","Zip":"85308"},{"Location":"DURDA","Address":"7260 W Bell Rd 105","City":"Glendale","State":"AZ","Zip":"85308"},{"Location":"EAGLE CREST APARTMENTS CLUBHOU","Address":"6451 W Bell Rd","City":"Glendale","State":"AZ","Zip":"85308"},{"Location":"EASTWIND GLENDALE RESTAURANT","Address":"18555 N 59th Ave 124","City":"Glendale","State":"AZ","Zip":"85308"},{"Location":"EDWARD JONES","Address":"6020 W Bell Rd E107","City":"Glendale","State":"AZ","Zip":"85308"},{"Location":"FIDELITY INVESTMENTS 215","Address":"17550 N 75th St Ave","City":"Glendale","State":"AZ","Zip":"85308"},{"Location":"FIREHOUSE SUBS 522","Address":"20165 N 67th Ave 122b","City":"Glendale","State":"AZ","Zip":"85308"},{"Location":"FIRESTONE #011940","Address":"3540 W Bell Rd","City":"Glendale","State":"AZ","Zip":"85308"},{"Location":"FITNESS INSTITUTE ARROWH","Address":"20329 N 59th Ave A6","City":"Glendale","State":"AZ","Zip":"85308"},{"Location":"FLOOR AND DECOR","Address":"5880 W Bell Rd","City":"Glendale","State":"AZ","Zip":"85308"},{"Location":"FOOTHILLS RECREATION AQUATIC","Address":"5600 W Union Hills Dr","City":"Glendale","State":"AZ","Zip":"85308"},{"Location":"FRATERNAL ORDER OF EAGLES 3871","Address":"3600 W Rose Garden Ln","City":"Glendale","State":"AZ","Zip":"85308"},{"Location":"FUDDRUCKERS #3256","Address":"7704 W Bell Rd","City":"Glendale","State":"AZ","Zip":"85308"},{"Location":"GENGHIS GRILL","Address":"7350 W Bell Rd 201","City":"Glendale","State":"AZ","Zip":"85308"},{"Location":"GOOD NAILS & SPA LLC","Address":"6645 W Bell Rd A104","City":"Glendale","State":"AZ","Zip":"85308"},{"Location":"GOODYEAR 8234","Address":"3515 W Union Hills Dr","City":"Glendale","State":"AZ","Zip":"85308"},{"Location":"HONEYWELL-LOWER COLLAB","Address":"19019 N 59th Ave 2lowe","City":"Glendale","State":"AZ","Zip":"85308"},{"Location":"HONEYWELL-SPACE OPER GRP","Address":"19019 N 59th Ave 2","City":"Glendale","State":"AZ","Zip":"85308"},{"Location":"HOOT OWL COCKTAIL","Address":"4361 W Bell Rd","City":"Glendale","State":"AZ","Zip":"85308"},{"Location":"ICA FINANCIAL SERVICES","Address":"17505 N 79th Ave 403","City":"Glendale","State":"AZ","Zip":"85308"},{"Location":"IL PRIMO PIZZA & WINGS","Address":"6661 W Bell Rd 101b","City":"Glendale","State":"AZ","Zip":"85308"},{"Location":"IRON WORKS","Address":"17233 N 45th Ave","City":"Glendale","State":"AZ","Zip":"85308"},{"Location":"JASON'S DELI PHA","Address":"17275 N 79th Ave","City":"Glendale","State":"AZ","Zip":"85308"},{"Location":"JERSEY MIKES  #9007","Address":"7410 W Bell Rd 310-2","City":"Glendale","State":"AZ","Zip":"85308"},{"Location":"JIFFY LUBE #1949","Address":"6841 W Bell Rd","City":"Glendale","State":"AZ","Zip":"85308"},{"Location":"JIFFY LUBE #2270","Address":"6111 W Bell Rd","City":"Glendale","State":"AZ","Zip":"85308"},{"Location":"JUST WILLYS LLC","Address":"6322 W Bell Rd","City":"Glendale","State":"AZ","Zip":"85308"},{"Location":"KIKU SUSHI E","Address":"8190 W Union Hills Dr","City":"Glendale","State":"AZ","Zip":"85308"},{"Location":"KOHL'S #652","Address":"5408 W Bell Rd","City":"Glendale","State":"AZ","Zip":"85308"},{"Location":"LA FITNESS #107","Address":"5536 W Bell Rd","City":"Glendale","State":"AZ","Zip":"85308"},{"Location":"LA FITNESS #123","Address":"18295 N 83rd Ave","City":"Glendale","State":"AZ","Zip":"85308"},{"Location":"LAPRE SCALI AND CO","Address":"17100 N 67th Ave","City":"Glendale","State":"AZ","Zip":"85308"},{"Location":"LEGACY DENTAL GROUP","Address":"18205 N 51st Ave 1","City":"Glendale","State":"AZ","Zip":"85308"},{"Location":"LIN SEAFOODS","Address":"4961 W Bell Rd 3","City":"Glendale","State":"AZ","Zip":"85308"},{"Location":"LUKE ATKINS STATE FARM","Address":"21610 N 35th Ave 164","City":"Glendale","State":"AZ","Zip":"85308"},{"Location":"LUND MORTGAGE TEAM","Address":"7170 W Camino San Xavier","City":"Glendale","State":"AZ","Zip":"85308"},{"Location":"MACAYO'S BELL","Address":"6012 W Bell Rd","City":"Glendale","State":"AZ","Zip":"85308"},{"Location":"MACY'S WEST 452","Address":"7600 W Arrowhead Towne Ctr","City":"Glendale","State":"AZ","Zip":"85308"},{"Location":"MACY'S WEST 452 BR","Address":"7600 W Arrowhead Towne Ctr","City":"Glendale","State":"AZ","Zip":"85308"},{"Location":"MBRR HOLDINGS LLC","Address":"20325 N 51st Ave 134","City":"Glendale","State":"AZ","Zip":"85308"},{"Location":"MIDWESTERN UNIVERSITY","Address":"19555 N 59th Ave","City":"Glendale","State":"AZ","Zip":"85308"},{"Location":"NATIVE NEW YORKER","Address":"7322 W Bell Rd","City":"Glendale","State":"AZ","Zip":"85308"},{"Location":"NORTHWEST FAMILY CLINIC","Address":"17100 N 67th Ave 502","City":"Glendale","State":"AZ","Zip":"85308"},{"Location":"NOW URGENT CARE","Address":"8251 W Union Hills Dr 140","City":"Glendale","State":"AZ","Zip":"85308"},{"Location":"NYPD PIZZA UNION HILLS","Address":"8280 W Union Hills Dr","City":"Glendale","State":"AZ","Zip":"85308"},{"Location":"OGGI'S PIZZA & BREWING - GLEN","Address":"6681 Beardsley Rd","City":"Glendale","State":"AZ","Zip":"85308"},{"Location":"OLD CHICAGO #7007","Address":"5695 W Bell Rd","City":"Glendale","State":"AZ","Zip":"85308"},{"Location":"ONE STOP NUTRITION","Address":"18255 N 83rd Ave","City":"Glendale","State":"AZ","Zip":"85308"},{"Location":"ORION    HOMES","Address":"7301 W Union Hills Dr","City":"Glendale","State":"AZ","Zip":"85308"},{"Location":"OSCARS PIER 83","Address":"18589 N 59th Ave 111","City":"Glendale","State":"AZ","Zip":"85308"},{"Location":"OUTBACK STEAKHOUSE #0311","Address":"5605 W Bell Rd","City":"Glendale","State":"AZ","Zip":"85308"},{"Location":"OWNER 2 INSPIRE","Address":"6120 E Behrend Dr 147","City":"Glendale","State":"AZ","Zip":"85308"},{"Location":"PADRE MURPHY'S -","Address":"4338 W Bell Rd","City":"Glendale","State":"AZ","Zip":"85308"},{"Location":"PAUL ANGELCHIK MD","Address":"18275 N 59th Ave L170","City":"Glendale","State":"AZ","Zip":"85308"},{"Location":"PIZZA B'S #3","Address":"18425 N 51st Ave","City":"Glendale","State":"AZ","Zip":"85308"},{"Location":"PIZZA HUT","Address":"5825 W Bell Rd","City":"Glendale","State":"AZ","Zip":"85308"},{"Location":"POMO GLENDALE","Address":"19420 N 59th Ave C117","City":"Glendale","State":"AZ","Zip":"85308"},{"Location":"POPOS FIESTA DEL SOL ON","Address":"17037 N 59th Ave","City":"Glendale","State":"AZ","Zip":"85308"},{"Location":"POWER ZONE","Address":"17224 N 43rd Ave 103","City":"Glendale","State":"AZ","Zip":"85308"},{"Location":"RED DEVIL ITALIAN REST","Address":"18185 N 83rd Ave 113","City":"Glendale","State":"AZ","Zip":"85308"},{"Location":"ROCK BOTTOM #1088","Address":"7640 W Bell Rd","City":"Glendale","State":"AZ","Zip":"85308"},{"Location":"SLT","Address":"17235 N 75th Ave D175","City":"Glendale","State":"AZ","Zip":"85308"},{"Location":"SMOKERS CITY LLC","Address":"20280 N 59th Ave 113","City":"Glendale","State":"AZ","Zip":"85308"},{"Location":"SPECIALTS","Address":"20325 N 51st Ave 168","City":"Glendale","State":"AZ","Zip":"85308"},{"Location":"SPORT CLIPS AZ111","Address":"8251 W Union Hills Dr","City":"Glendale","State":"AZ","Zip":"85308"},{"Location":"SPORTS AUTHORITY 797","Address":"7360 W Bell Rd","City":"Glendale","State":"AZ","Zip":"85308"},{"Location":"STELLA ROSSA 59","Address":"5940 W Union Hills Dr E100","City":"Glendale","State":"AZ","Zip":"85308"},{"Location":"STEVIES PIZZA","Address":"20210 N 59th Ave","City":"Glendale","State":"AZ","Zip":"85308"},{"Location":"SUSHI CATCHER LLC","Address":"6334 W Bell Rd","City":"Glendale","State":"AZ","Zip":"85308"},{"Location":"TAILGATERS SPORTS BAR & GRILL","Address":"6070 W Bell Rd","City":"Glendale","State":"AZ","Zip":"85308"},{"Location":"TAURIAN BA LLC #1099","Address":"7606 W Bell Rd","City":"Glendale","State":"AZ","Zip":"85308"},{"Location":"TAX PLANNING SERVICE","Address":"18275 N 59th Ave B112","City":"Glendale","State":"AZ","Zip":"85308"},{"Location":"THE GREENHOUSE","Address":"8160 W Union Hills Dr A106","City":"Glendale","State":"AZ","Zip":"85308"},{"Location":"THE ORTHOPEDIC CLINIC ASS #2","Address":"6320 W Union Hills Dr","City":"Glendale","State":"AZ","Zip":"85308"},{"Location":"TOYKO LOBBY","Address":"5795 W Bell Rd 1","City":"Glendale","State":"AZ","Zip":"85308"},{"Location":"VALLEY UROLOGIC ASSOCIATES 2","Address":"18699 N 67th Ave 230","City":"Glendale","State":"AZ","Zip":"85308"},{"Location":"VITA BELLA","Address":"5940 W Union Hills Dr A140","City":"Glendale","State":"AZ","Zip":"85308"},{"Location":"WINNING SMILE","Address":"20165 N 67th Ave 103","City":"Glendale","State":"AZ","Zip":"85308"},{"Location":"YELLOW TAIL SUSHI","Address":"18255 N 83rd Ave","City":"Glendale","State":"AZ","Zip":"85308"},{"Location":"YEN SUSHI AND SAKE BAR","Address":"17037 N 43rd Ave A233","City":"Glendale","State":"AZ","Zip":"85308"},{"Location":"ZIPPS-CITADELLE","Address":"19420 N 59th Ave","City":"Glendale","State":"AZ","Zip":"85308"},{"Location":"SALSA BLANCA","Address":"20221 Vvn 67th","City":"Pheonix","State":"AZ","Zip":"85308"}]