[{"Location":"5030 SUNRISE LLC","Address":"5030 W Peoria Ave","City":"Glendale","State":"AZ","Zip":"85302"},{"Location":"AL'S BARBERSHOP","Address":"5126 W Peoria Ave","City":"Glendale","State":"AZ","Zip":"85302"},{"Location":"APPLEBEE'S #512 59TH & PEORIA","Address":"5880 W Peoria Ave","City":"Glendale","State":"AZ","Zip":"85302"},{"Location":"ASSC FAMILY DENTISTRY","Address":"9160 N 43rd Ave","City":"Glendale","State":"AZ","Zip":"85302"},{"Location":"BEBES SOUTHERN COOKING","Address":"5925 W Olive Ave 9","City":"Glendale","State":"AZ","Zip":"85302"},{"Location":"BENCH WARMER","Address":"4725 W Olive Ave","City":"Glendale","State":"AZ","Zip":"85302"},{"Location":"BRICKROW LLC","Address":"5030 W Peoria Ave","City":"Glendale","State":"AZ","Zip":"85302"},{"Location":"CACTUS VILLAGE COCKTAILS","Address":"4404 W Peoria Ave","City":"Glendale","State":"AZ","Zip":"85302"},{"Location":"CAFE GA HYANG","Address":"4362 W Olive Ave","City":"Glendale","State":"AZ","Zip":"85302"},{"Location":"CRAIG B HAIR SALON","Address":"5028 W Olive Ave","City":"Glendale","State":"AZ","Zip":"85302"},{"Location":"CREATIVE ORTHOTIC LABS","Address":"8608 N 59th Ave","City":"Glendale","State":"AZ","Zip":"85302"},{"Location":"DISABLED AMERICAN VET","Address":"8447 N 61st Ave","City":"Glendale","State":"AZ","Zip":"85302"},{"Location":"DUNKIN DONUTS 1","Address":"5143 W Olive Ave 160","City":"Glendale","State":"AZ","Zip":"85302"},{"Location":"ESTHER JAMAICAN FOOD TO","Address":"5025 W Olive Ave","City":"Glendale","State":"AZ","Zip":"85302"},{"Location":"FEDERICOS 13","Address":"4490 W Peoria Ave","City":"Glendale","State":"AZ","Zip":"85302"},{"Location":"FEDERICOS MEXICAN FOOD","Address":"6680 W Peoria Ave","City":"Glendale","State":"AZ","Zip":"85302"},{"Location":"GLASS HOUSE","Address":"5160 W Nothern Ave","City":"Glendale","State":"AZ","Zip":"85302"},{"Location":"GLENCOFT RETIREMENT","Address":"8611 N 67th Ave","City":"Glendale","State":"AZ","Zip":"85302"},{"Location":"GOOD SHEPARD WEST","Address":"6251 W Royal Palm Rd","City":"Glendale","State":"AZ","Zip":"85302"},{"Location":"JET AWAY DAVE'S BAR LLC","Address":"9250 N 43rd Ave 17","City":"Glendale","State":"AZ","Zip":"85302"},{"Location":"JUS COUNTRY","Address":"4346 W Olive Ave","City":"Glendale","State":"AZ","Zip":"85302"},{"Location":"K SUSHI BAR & GRILL","Address":"4372 W Olive Ave","City":"Glendale","State":"AZ","Zip":"85302"},{"Location":"KNIGHTS OF COLUMBUS","Address":"8066 N 49th Ave","City":"Glendale","State":"AZ","Zip":"85302"},{"Location":"KORYO SUSHI AND BBQ1","Address":"10040 N 43rd Ave 1k","City":"Glendale","State":"AZ","Zip":"85302"},{"Location":"KYC INVESTMENTS LLC","Address":"5925 W Olive Ave 7","City":"Glendale","State":"AZ","Zip":"85302"},{"Location":"LA FITNESS #116","Address":"10160 N 67th Ave","City":"Glendale","State":"AZ","Zip":"85302"},{"Location":"MARC'S SPORTS GRILL","Address":"4494 W Peoria Ave","City":"Glendale","State":"AZ","Zip":"85302"},{"Location":"MARINO'S","Address":"6666 W Peoria Ave 104","City":"Glendale","State":"AZ","Zip":"85302"},{"Location":"OLLIES DINER","Address":"5166 W Olive Ave","City":"Glendale","State":"AZ","Zip":"85302"},{"Location":"PACIFIC DENTAL 292","Address":"5143 W Olive Ave 140","City":"Glendale","State":"AZ","Zip":"85302"},{"Location":"PIZZA HUT","Address":"8860 N 43rd Ave","City":"Glendale","State":"AZ","Zip":"85302"},{"Location":"PRIIDE RESTURANT GRUOP","Address":"5090 W Olive Ave","City":"Glendale","State":"AZ","Zip":"85302"},{"Location":"RMENS SHARP SCISSOR","Address":"4718 W Olive Ave","City":"Glendale","State":"AZ","Zip":"85302"},{"Location":"SMOKEYS SMOKE SHOP","Address":"4711 W Olive Ave","City":"Glendale","State":"AZ","Zip":"85302"},{"Location":"STINGERS SPORTS BAR","Address":"10040 N 43rd Ave H","City":"Glendale","State":"AZ","Zip":"85302"},{"Location":"SWIZZLE STICK","Address":"5152 W Olive Ave","City":"Glendale","State":"AZ","Zip":"85302"},{"Location":"TERROS INC","Address":"4425 W Olive Ave 200","City":"Glendale","State":"AZ","Zip":"85302"},{"Location":"TOCI PIZZA","Address":"5044 W Peoria Ave","City":"Glendale","State":"AZ","Zip":"85302"},{"Location":"WEST OLIVE DENTISTRY","Address":"5144 W Olive Ave","City":"Glendale","State":"AZ","Zip":"85302"},{"Location":"WESTSIDE LES TOO","Address":"6616 W Olive Ave","City":"Glendale","State":"AZ","Zip":"85302"},{"Location":"WOOTENS BARBER SHOP","Address":"5037 W Olive Ave","City":"Glendale","State":"AZ","Zip":"85302"}]