[{"Location":"LUKE  AIRFORCE BASE","Address":"14708 W Super Sabre 103","City":"Gbafaf","State":"AZ","Zip":"85309"},{"Location":"302ND FIGHTER SQUADRON","Address":"14708 W Super Sabre","City":"Glendale","State":"AZ","Zip":"85309"},{"Location":"56 CES%2FCEX \"READINESS FLIGHT\"","Address":"13970 Gillespie St","City":"Glendale","State":"AZ","Zip":"85309"},{"Location":"944 MXG","Address":"14708 W Super Sabre","City":"Glendale","State":"AZ","Zip":"85309"},{"Location":"US AIR FORCE","Address":"6795 N 146th Drive 995","City":"Glendale","State":"AZ","Zip":"85309"},{"Location":"US AIR FORCE%2F607 ACS","Address":"14793 W Corsair St","City":"Glendale Luke Afb","State":"AZ","Zip":"85309"},{"Location":"CLUB FIVE SIX","Address":"14000 Eagle St 161","City":"Luke","State":"AZ","Zip":"85309"},{"Location":"56TH CES CED","Address":"6604 North 146 Drive Blgd 986","City":"Luke Afb","State":"AZ","Zip":"85309"},{"Location":"US AIR  FORCE","Address":"56trs 14325 W Spad St Bld 2","City":"Luke Afb","State":"AZ","Zip":"85309"},{"Location":"US AIR FORCE","Address":"56trs 14325 W Spad St","City":"Luke Afb","State":"AZ","Zip":"85309"},{"Location":"US DEPARTMENT OF NAVY","Address":"14160 Marauder St 300","City":"Luke Afb","State":"AZ","Zip":"85309"},{"Location":"308 FS LUKE AFB","Address":"14353 W Spad St 1","City":"Luke Air Force Base","State":"AZ","Zip":"85309"},{"Location":"61 FIRE SQUAD","Address":"7046 N Fighter Country Ave 471","City":"Luke Air Force Base","State":"AZ","Zip":"85309"},{"Location":"944TH FIGHTER WING HQ","Address":"14708 W Super Sabre 98","City":"Luke Air Force Base","State":"AZ","Zip":"85309"},{"Location":"WILD DUCK TOP 4%2F 309 AMU","Address":"14550 W Spad St","City":"Luke Air Force Base","State":"AZ","Zip":"85309"},{"Location":"LUKE  AIRFORCE BASE","Address":"14708 W Super Sabre 103","City":"Gbafaf","State":"AZ","Zip":"85309"},{"Location":"302ND FIGHTER SQUADRON","Address":"14708 W Super Sabre","City":"Glendale","State":"AZ","Zip":"85309"},{"Location":"56 CES%2FCEX \"READINESS FLIGHT\"","Address":"13970 Gillespie St","City":"Glendale","State":"AZ","Zip":"85309"},{"Location":"944 MXG","Address":"14708 W Super Sabre","City":"Glendale","State":"AZ","Zip":"85309"},{"Location":"US AIR FORCE","Address":"6795 N 146th Drive 995","City":"Glendale","State":"AZ","Zip":"85309"},{"Location":"US AIR FORCE%2F607 ACS","Address":"14793 W Corsair St","City":"Glendale Luke Afb","State":"AZ","Zip":"85309"},{"Location":"CLUB FIVE SIX","Address":"14000 Eagle St 161","City":"Luke","State":"AZ","Zip":"85309"},{"Location":"56TH CES CED","Address":"6604 North 146 Drive Blgd 986","City":"Luke Afb","State":"AZ","Zip":"85309"},{"Location":"US AIR  FORCE","Address":"56trs 14325 W Spad St Bld 2","City":"Luke Afb","State":"AZ","Zip":"85309"},{"Location":"US AIR FORCE","Address":"56trs 14325 W Spad St","City":"Luke Afb","State":"AZ","Zip":"85309"},{"Location":"US DEPARTMENT OF NAVY","Address":"14160 Marauder St 300","City":"Luke Afb","State":"AZ","Zip":"85309"},{"Location":"308 FS LUKE AFB","Address":"14353 W Spad St 1","City":"Luke Air Force Base","State":"AZ","Zip":"85309"},{"Location":"61 FIRE SQUAD","Address":"7046 N Fighter Country Ave 471","City":"Luke Air Force Base","State":"AZ","Zip":"85309"},{"Location":"944TH FIGHTER WING HQ","Address":"14708 W Super Sabre 98","City":"Luke Air Force Base","State":"AZ","Zip":"85309"},{"Location":"WILD DUCK TOP 4%2F 309 AMU","Address":"14550 W Spad St","City":"Luke Air Force Base","State":"AZ","Zip":"85309"}]