[{"Location":"ARIZONA STATE CREDIT UNION #5","Address":"4701 W Thunderbird Rd","City":"Glendale","State":"AZ","Zip":"85306"},{"Location":"BANNER THUNDERBIRD HOSP.","Address":"5555 W Thunderbird Rd","City":"Glendale","State":"AZ","Zip":"85306"},{"Location":"BARROS LAKE PLEASANT","Address":"13971 N 59th Ave","City":"Glendale","State":"AZ","Zip":"85306"},{"Location":"BRADY GROUP","Address":"4920 W Thunderbird Rd 102","City":"Glendale","State":"AZ","Zip":"85306"},{"Location":"CHARLEY'S PLACE","Address":"4324 W Thunderbird Rd","City":"Glendale","State":"AZ","Zip":"85306"},{"Location":"CITY CUTS","Address":"4920 W Thunderbird Rd 103","City":"Glendale","State":"AZ","Zip":"85306"},{"Location":"CITY OF GLENDALE POLICE DEPT","Address":"16801 N 53rd Ave","City":"Glendale","State":"AZ","Zip":"85306"},{"Location":"CONSULTANTS IN INTERNAL","Address":"5701 W Talavi Blvd","City":"Glendale","State":"AZ","Zip":"85306"},{"Location":"COPPER DOOR","Address":"13818 N 51st Ave","City":"Glendale","State":"AZ","Zip":"85306"},{"Location":"CREDIT UNION WEST","Address":"5811 W Talavi Blvd","City":"Glendale","State":"AZ","Zip":"85306"},{"Location":"DUNKIN DONUTS","Address":"13887 N 59th Ave","City":"Glendale","State":"AZ","Zip":"85306"},{"Location":"FMC 62430000","Address":"16844 N 59th Ave","City":"Glendale","State":"AZ","Zip":"85306"},{"Location":"FMC 62480000","Address":"5750 W Thunderbird Rd G750","City":"Glendale","State":"AZ","Zip":"85306"},{"Location":"HONEST 1 AUTO CARE","Address":"15420 N 59th Ave","City":"Glendale","State":"AZ","Zip":"85306"},{"Location":"IN STYLE NAILS","Address":"13814 N 51st Ave","City":"Glendale","State":"AZ","Zip":"85306"},{"Location":"INSIGHT IMAGING  D TWO","Address":"6591 W Thunderbird Rd D2","City":"Glendale","State":"AZ","Zip":"85306"},{"Location":"KIMMYZ ON GREENWAY","Address":"5930 W Greenway Rd","City":"Glendale","State":"AZ","Zip":"85306"},{"Location":"LITOS SIZZLING PLACE","Address":"15224 N 59th Ave 1","City":"Glendale","State":"AZ","Zip":"85306"},{"Location":"MATRIX DENTISTRY","Address":"5750 W Thunderbird Rd F600","City":"Glendale","State":"AZ","Zip":"85306"},{"Location":"NEXTCARE URGENT CARE","Address":"5410 W Thunderbird Rd 101","City":"Glendale","State":"AZ","Zip":"85306"},{"Location":"OHYA KOREAN KITCHEN&BAR","Address":"4920 W Thunderbird Rd 117","City":"Glendale","State":"AZ","Zip":"85306"},{"Location":"OUCH & URGENT CARE%2FMBI","Address":"15236 N 59th Ave","City":"Glendale","State":"AZ","Zip":"85306"},{"Location":"PASEO RACQUET CENTER","Address":"6268 W Thunderbird Rd","City":"Glendale","State":"AZ","Zip":"85306"},{"Location":"PHO AVINA","Address":"4920 W Thunderbird Rd 110","City":"Glendale","State":"AZ","Zip":"85306"},{"Location":"PHOENIX HEART","Address":"5859 W Talavi Blvd","City":"Glendale","State":"AZ","Zip":"85306"},{"Location":"PUBS AT THUNDERBIRD","Address":"1 Global Pl","City":"Glendale","State":"AZ","Zip":"85306"},{"Location":"PULLANOS PIZZA%2C INC.","Address":"13848 N 51st Ave","City":"Glendale","State":"AZ","Zip":"85306"},{"Location":"SPORT CLIPS","Address":"5830 W Thunderbird Rd B7","City":"Glendale","State":"AZ","Zip":"85306"},{"Location":"SPORTS AND FITNESS EXCHANGE","Address":"5137 W Thunderbird Rd","City":"Glendale","State":"AZ","Zip":"85306"},{"Location":"STREETS OF NY TWENTY FOUR","Address":"5843 W Thunderbird Rd","City":"Glendale","State":"AZ","Zip":"85306"},{"Location":"TONY COCTAIL","Address":"5930 W Greenway Rd","City":"Glendale","State":"AZ","Zip":"85306"},{"Location":"VALLEY RADIOLOGISTS","Address":"5757 W Thunderbird Rd","City":"Glendale","State":"AZ","Zip":"85306"},{"Location":"VILLAGE INN #110329","Address":"5959 W Thunderbird Rd","City":"Glendale","State":"AZ","Zip":"85306"},{"Location":"WALLICK AND VOLK INC","Address":"5859 W Talavi Blvd 160","City":"Glendale","State":"AZ","Zip":"85306"},{"Location":"WINGSTOP GLENDALE","Address":"5833 W Thunderbird Rd","City":"Glendale","State":"AZ","Zip":"85306"}]