[{"Location":"A TO Z DENTAL","Address":"6749 W Bethany Home Rd 102","City":"Glendale","State":"AZ","Zip":"85303"},{"Location":"ALL PRO BARBER SHOP","Address":"6006 N 83rd Ave 106","City":"Glendale","State":"AZ","Zip":"85303"},{"Location":"AUDIO EXPRESS W CAMELBAC","Address":"6710 W Camelback Rd","City":"Glendale","State":"AZ","Zip":"85303"},{"Location":"BRIANS BARBER SHOP","Address":"6749 W Bethany Home Rd 105","City":"Glendale","State":"AZ","Zip":"85303"},{"Location":"BURGER KING RESTAURANT","Address":"7490 W Glendale Ave","City":"Glendale","State":"AZ","Zip":"85303"},{"Location":"CNG RANCH #504","Address":"6730 W Camelback Rd","City":"Glendale","State":"AZ","Zip":"85303"},{"Location":"DRIVE LINE SERVICE LLC","Address":"7614 N 73rd Dr 1","City":"Glendale","State":"AZ","Zip":"85303"},{"Location":"ENCHANTED CARE CENTER INC","Address":"7920 W Glendale Ave 101","City":"Glendale","State":"AZ","Zip":"85303"},{"Location":"GLENDALE FAMILY DENTISTRY","Address":"7448 W Glendale Ave 126","City":"Glendale","State":"AZ","Zip":"85303"},{"Location":"HOOKA LOUNGE POOL","Address":"7025 N 75th Ave","City":"Glendale","State":"AZ","Zip":"85303"},{"Location":"PALERMOS PIZZA AND WINGS","Address":"6756 W Camelback Rd","City":"Glendale","State":"AZ","Zip":"85303"},{"Location":"PFISTER'S PFAUCET","Address":"8290 W Camelback Rd 100","City":"Glendale","State":"AZ","Zip":"85303"},{"Location":"RING","Address":"7591 N 74th Ave","City":"Glendale","State":"AZ","Zip":"85303"},{"Location":"RITUAL ADDICITIONS","Address":"6766 W Glendale Ave","City":"Glendale","State":"AZ","Zip":"85303"},{"Location":"WSP INC","Address":"7777 N 70th Ave","City":"Glendale","State":"AZ","Zip":"85303"}]