[{"Location":"APPLEBEE'S #521 91ST & NRTHRN","Address":"9330 W Northern Ave","City":"Glendale","State":"AZ","Zip":"85305"},{"Location":"BUFFALO WILD WINGS #0463","Address":"9404 W Westgate Blvd C107","City":"Glendale","State":"AZ","Zip":"85305"},{"Location":"BURGER KING #14749","Address":"9680 W Camelback Rd","City":"Glendale","State":"AZ","Zip":"85305"},{"Location":"CALICO JACKS","Address":"6770 N Sunrise Blvd","City":"Glendale","State":"AZ","Zip":"85305"},{"Location":"CARLS JR","Address":"6706 N 95th Ave","City":"Glendale","State":"AZ","Zip":"85305"},{"Location":"CRAVE BELGIAN WAFFLE","Address":"9380 W Westgate Blvd D103","City":"Glendale","State":"AZ","Zip":"85305"},{"Location":"DESERT MIRAGE GOLF COURS","Address":"8710 W Maryland Ave","City":"Glendale","State":"AZ","Zip":"85305"},{"Location":"DESIGN A DOUGHNUT WESTGATE LLC","Address":"9390 W Harnna Lane #b101","City":"Glendale","State":"AZ","Zip":"85305"},{"Location":"EL TATAKI SUSHI AND MEXI","Address":"6922 N 95th Ave","City":"Glendale","State":"AZ","Zip":"85305"},{"Location":"GILA RIVER ARENA","Address":"9400 W Maryland Ave","City":"Glendale","State":"AZ","Zip":"85305"},{"Location":"GORDON BIERSCH GLENDALE #4613","Address":"6915 N 95th Ave","City":"Glendale","State":"AZ","Zip":"85305"},{"Location":"HELLS HALF ACRE","Address":"6751 N Sunset Blvd E113","City":"Glendale","State":"AZ","Zip":"85305"},{"Location":"HOT N JUICY CRAWFISH","Address":"6751 N Sunset Blvd E101","City":"Glendale","State":"AZ","Zip":"85305"},{"Location":"JUST SPORTS-WESTGATE","Address":"9410 W Hanna Dr A102","City":"Glendale","State":"AZ","Zip":"85305"},{"Location":"KABUKI RESTAURANT","Address":"6770 N Sunrise Blvd G11","City":"Glendale","State":"AZ","Zip":"85305"},{"Location":"KOHL'S #10653 S PEORIA","Address":"9220 W Nothern Ave","City":"Glendale","State":"AZ","Zip":"85305"},{"Location":"MAMA GINAS PIZZERIA","Address":"9380 W Westgate Blvd D101","City":"Glendale","State":"AZ","Zip":"85305"},{"Location":"MCFADDEN'S GLENDALE LLC","Address":"9425 W Coyotes Blvd","City":"Glendale","State":"AZ","Zip":"85305"},{"Location":"MCFADDENS DESERT RIDGE LLC","Address":"6751 N Sunset Blvd E109","City":"Glendale","State":"AZ","Zip":"85305"},{"Location":"MESSY MOUTH LLC","Address":"9404 W Westgate Blvd","City":"Glendale","State":"AZ","Zip":"85305"},{"Location":"NIKE INC","Address":"6800 N 95th Ave 590","City":"Glendale","State":"AZ","Zip":"85305"},{"Location":"ON YOUR WAY MANAGEMENT%2C LLC","Address":"9130 W Northern Ave","City":"Glendale","State":"AZ","Zip":"85305"},{"Location":"ROJO HOSPITALITY GROUP","Address":"1 Cardinals Dr","City":"Glendale","State":"AZ","Zip":"85305"},{"Location":"SADDLE RANCH CHOP HOUSE","Address":"9375 W Coyotes Blvd","City":"Glendale","State":"AZ","Zip":"85305"},{"Location":"STREETS OF NEW YORK #32","Address":"9240 W Northern Ave","City":"Glendale","State":"AZ","Zip":"85305"},{"Location":"THE NEST","Address":"5134 N 95th Ave","City":"Glendale","State":"AZ","Zip":"85305"},{"Location":"THE SHOUT HOUSE GLENDALE","Address":"6770 N Sunrise Blvd 207","City":"Glendale","State":"AZ","Zip":"85305"},{"Location":"VILLAGE INN 110850","Address":"9490 W Northern Ave","City":"Glendale","State":"AZ","Zip":"85305"},{"Location":"VITAMIN WORLD","Address":"6800 N 95th Ave","City":"Glendale","State":"AZ","Zip":"85305"},{"Location":"WEST MEC","Address":"5487 99 Th Avenue","City":"Glendale","State":"AZ","Zip":"85305"},{"Location":"WHICH WHICH SUPERIOR SANDWICH","Address":"9404 W Westgate Blvd 102","City":"Glendale","State":"AZ","Zip":"85305"},{"Location":"WRS WEST GATE LLC","Address":"6751 N Sunset Blvd E110","City":"Glendale","State":"AZ","Zip":"85305"},{"Location":"YARD HOUSE 8315","Address":"9401 W Westgate Blvd F","City":"Glendale","State":"AZ","Zip":"85305"}]