[{"Location":"CASA DEL SOL EAST","Address":"10960 N 67th Ave","City":"Glendale","State":"AZ","Zip":"85304"},{"Location":"JESSE JAMES COMICS","Address":"10620 N 43rd Ave 17","City":"Glendale","State":"AZ","Zip":"85304"},{"Location":"JIMBOS SPORTS BAR","Address":"12224 N 51st Ave","City":"Glendale","State":"AZ","Zip":"85304"},{"Location":"KIRK'S KORNER","Address":"10634 N 51st Ave","City":"Glendale","State":"AZ","Zip":"85304"},{"Location":"LIFE CARE CENTER OF NORTH GLEN","Address":"13620 North 5th Ave","City":"Glendale","State":"AZ","Zip":"85304"},{"Location":"ORION HOMES","Address":"4509 W Columbine Dr","City":"Glendale","State":"AZ","Zip":"85304"},{"Location":"ORION HOMES","Address":"4635 W Aster Dr","City":"Glendale","State":"AZ","Zip":"85304"},{"Location":"SBZ INC","Address":"4316 W Sierra St","City":"Glendale","State":"AZ","Zip":"85304"},{"Location":"SILVER Q ENTERPRISE LLC","Address":"6670 W Cactus Rd 108","City":"Glendale","State":"AZ","Zip":"85304"},{"Location":"SO RESTAURANT","Address":"10630 N 59th Ave","City":"Glendale","State":"AZ","Zip":"85304"},{"Location":"VALLEY RADIOLOGIST PHASE I","Address":"5601 W Eugie Ave","City":"Glendale","State":"AZ","Zip":"85304"},{"Location":"VALLEY RADIOLOGISTS","Address":"5605 W Eugie Ave","City":"Glendale","State":"AZ","Zip":"85304"},{"Location":"VANITY VAPOR","Address":"6670 W Cactus Rd A109","City":"Glendale","State":"AZ","Zip":"85304"},{"Location":"YOU FIT CACTUS VILLAGE","Address":"4414 W Cactus Rd","City":"Glendale","State":"AZ","Zip":"85304"},{"Location":"CASA DEL SOL EAST","Address":"10960 N 67th Ave","City":"Glendale","State":"AZ","Zip":"85304"},{"Location":"JESSE JAMES COMICS","Address":"10620 N 43rd Ave 17","City":"Glendale","State":"AZ","Zip":"85304"},{"Location":"JIMBOS SPORTS BAR","Address":"12224 N 51st Ave","City":"Glendale","State":"AZ","Zip":"85304"},{"Location":"KIRK'S KORNER","Address":"10634 N 51st Ave","City":"Glendale","State":"AZ","Zip":"85304"},{"Location":"LIFE CARE CENTER OF NORTH GLEN","Address":"13620 North 5th Ave","City":"Glendale","State":"AZ","Zip":"85304"},{"Location":"ORION HOMES","Address":"4509 W Columbine Dr","City":"Glendale","State":"AZ","Zip":"85304"},{"Location":"ORION HOMES","Address":"4635 W Aster Dr","City":"Glendale","State":"AZ","Zip":"85304"},{"Location":"SBZ INC","Address":"4316 W Sierra St","City":"Glendale","State":"AZ","Zip":"85304"},{"Location":"SILVER Q ENTERPRISE LLC","Address":"6670 W Cactus Rd 108","City":"Glendale","State":"AZ","Zip":"85304"},{"Location":"SO RESTAURANT","Address":"10630 N 59th Ave","City":"Glendale","State":"AZ","Zip":"85304"},{"Location":"VALLEY RADIOLOGIST PHASE I","Address":"5601 W Eugie Ave","City":"Glendale","State":"AZ","Zip":"85304"},{"Location":"VALLEY RADIOLOGISTS","Address":"5605 W Eugie Ave","City":"Glendale","State":"AZ","Zip":"85304"},{"Location":"VANITY VAPOR","Address":"6670 W Cactus Rd A109","City":"Glendale","State":"AZ","Zip":"85304"},{"Location":"YOU FIT CACTUS VILLAGE","Address":"4414 W Cactus Rd","City":"Glendale","State":"AZ","Zip":"85304"}]