[{"Location":"","Address":"6244 N 43rd Ave","City":"Glendale","State":"AZ","Zip":"85301"},{"Location":"43RD AND INDIAN SCHOOL R","Address":"6550 W Glendale Ave","City":"Glendale","State":"AZ","Zip":"85301"},{"Location":"ADVANCED RV SERVICE","Address":"6615 W State Ave","City":"Glendale","State":"AZ","Zip":"85301"},{"Location":"AMERICAN LEGION POST 29","Address":"6822 N 57th Dr","City":"Glendale","State":"AZ","Zip":"85301"},{"Location":"AMERICAN PARK N SWAP","Address":"6112 N 56th Ave","City":"Glendale","State":"AZ","Zip":"85301"},{"Location":"BALLARD AC AND HEATING","Address":"6075 N 57th Dr","City":"Glendale","State":"AZ","Zip":"85301"},{"Location":"BIOMAT USA","Address":"5242 W Camelback Rd","City":"Glendale","State":"AZ","Zip":"85301"},{"Location":"CHAING MAI MASSAGE","Address":"5008 W Northern Ave 4","City":"Glendale","State":"AZ","Zip":"85301"},{"Location":"CITY OF GLENDALE POLICE DEPT.","Address":"6835 N 57th Dr","City":"Glendale","State":"AZ","Zip":"85301"},{"Location":"CORSICANA BEDDINGS INC","Address":"4932 W Colter St","City":"Glendale","State":"AZ","Zip":"85301"},{"Location":"CUFF KITCHEN","Address":"5819 W Glendale Ave","City":"Glendale","State":"AZ","Zip":"85301"},{"Location":"CUSTOM AUTO AND TRUCK SHOP","Address":"5101 W Maryland Ave","City":"Glendale","State":"AZ","Zip":"85301"},{"Location":"DESERT SKY HEALTH & REHABILITA","Address":"5125 N 58th Ave","City":"Glendale","State":"AZ","Zip":"85301"},{"Location":"DIAMOND KUTZ BARBERSHOP","Address":"6009 N 61st Ave B","City":"Glendale","State":"AZ","Zip":"85301"},{"Location":"EAGLE POST 2843","Address":"7575 N 67th Ave","City":"Glendale","State":"AZ","Zip":"85301"},{"Location":"ELITE BARBER SHOP","Address":"7408 N 51st Ave","City":"Glendale","State":"AZ","Zip":"85301"},{"Location":"FEDERICOS MEXICAN FOOD","Address":"6631 N 59th Ave","City":"Glendale","State":"AZ","Zip":"85301"},{"Location":"FIBCO FAMILY SERVICES INC","Address":"6113 N 60th Ave","City":"Glendale","State":"AZ","Zip":"85301"},{"Location":"FILIBERTOS MEXICAN FOOD","Address":"5512 W Glendale Ave","City":"Glendale","State":"AZ","Zip":"85301"},{"Location":"FLASH MINI MARKET","Address":"5954 W Bethany Home Rd","City":"Glendale","State":"AZ","Zip":"85301"},{"Location":"GAS LIGHT INN","Address":"5747 W Glendale Ave","City":"Glendale","State":"AZ","Zip":"85301"},{"Location":"GAS LIGHT INN 2","Address":"5747 W Glendale Ave","City":"Glendale","State":"AZ","Zip":"85301"},{"Location":"GLENDALE II","Address":"5136 W Glenn Dr","City":"Glendale","State":"AZ","Zip":"85301"},{"Location":"GLENDALE III","Address":"5136 W Glenn Dr","City":"Glendale","State":"AZ","Zip":"85301"},{"Location":"GOOD SHEPARD WEST","Address":"7160 N 48th Ln","City":"Glendale","State":"AZ","Zip":"85301"},{"Location":"HAUS MURPHY'S","Address":"5739 W Glendale Ave","City":"Glendale","State":"AZ","Zip":"85301"},{"Location":"HOOPER'S","Address":"5114 W Northern Ave","City":"Glendale","State":"AZ","Zip":"85301"},{"Location":"J & B BRAND PROPERTIES","Address":"6411 N 59th Ave","City":"Glendale","State":"AZ","Zip":"85301"},{"Location":"JEG-FIT 51ST & GLENDALE","Address":"5121 W Glendale Ave","City":"Glendale","State":"AZ","Zip":"85301"},{"Location":"JOANS AUTO & TIRE SERVIC","Address":"5142 W Glendale Ave","City":"Glendale","State":"AZ","Zip":"85301"},{"Location":"KIMMIES BAR","Address":"5944 W Bethany Home Rd","City":"Glendale","State":"AZ","Zip":"85301"},{"Location":"LAPERLA CAFE","Address":"5912 W Glendale Ave","City":"Glendale","State":"AZ","Zip":"85301"},{"Location":"LEGEND DISTRIBUTING","Address":"5032 W Colter St","City":"Glendale","State":"AZ","Zip":"85301"},{"Location":"LIFE STYLES OF GLENDALE","Address":"7971 N 53rd Ave","City":"Glendale","State":"AZ","Zip":"85301"},{"Location":"LITTLE SAIGON RESTAURANT","Address":"7016 N 57th Ave","City":"Glendale","State":"AZ","Zip":"85301"},{"Location":"LIVE X AUTO EXCHANGE1","Address":"4700 W Glendale Ave","City":"Glendale","State":"AZ","Zip":"85301"},{"Location":"MARICOPA INTEGRATED HEALTH SY","Address":"5141 W Lamar Rd","City":"Glendale","State":"AZ","Zip":"85301"},{"Location":"MARISCOS","Address":"5630 W Camelback Rd","City":"Glendale","State":"AZ","Zip":"85301"},{"Location":"MAX'S","Address":"6727 N 47th Ave","City":"Glendale","State":"AZ","Zip":"85301"},{"Location":"MCDONALDS 1440","Address":"4401 W Glendale Ave","City":"Glendale","State":"AZ","Zip":"85301"},{"Location":"MILLAS BEAUTY","Address":"5816 N 43rd Ave","City":"Glendale","State":"AZ","Zip":"85301"},{"Location":"NATIVE NEW YORKER","Address":"7273 N 45th Ave","City":"Glendale","State":"AZ","Zip":"85301"},{"Location":"OLDETOWNE GLENDALE WINE BEER","Address":"5745 W Glendale Ave","City":"Glendale","State":"AZ","Zip":"85301"},{"Location":"OVERTIME LOUNGE","Address":"5304 N 59th Ave","City":"Glendale","State":"AZ","Zip":"85301"},{"Location":"PALM  SHADOWS","Address":"7300 N 51st Ave A","City":"Glendale","State":"AZ","Zip":"85301"},{"Location":"PANORAMIC WINDOW","Address":"5750 W San Miguel Ave C3","City":"Glendale","State":"AZ","Zip":"85301"},{"Location":"PETER PIPER PIZZA # 001","Address":"4315 W Glendale Ave","City":"Glendale","State":"AZ","Zip":"85301"},{"Location":"PINKYS BARBERSHOP","Address":"5409 W Glendale Ave","City":"Glendale","State":"AZ","Zip":"85301"},{"Location":"RESTAURANT DEL PUEBLO","Address":"6222 N 43rd Ave","City":"Glendale","State":"AZ","Zip":"85301"},{"Location":"ROMAN TAX SERVICE","Address":"6130 N 43rd Ave","City":"Glendale","State":"AZ","Zip":"85301"},{"Location":"RSI ENTERPRISES","Address":"5440 W Northern Ave","City":"Glendale","State":"AZ","Zip":"85301"},{"Location":"SANDERSON FORD 1","Address":"5121 W Maryland Ave","City":"Glendale","State":"AZ","Zip":"85301"},{"Location":"SANDERSON FORD 2","Address":"5121 W Maryland Ave","City":"Glendale","State":"AZ","Zip":"85301"},{"Location":"SANDERSON FORD MUSEUM","Address":"6400 N 51st Ave","City":"Glendale","State":"AZ","Zip":"85301"},{"Location":"SANDS   CHEVROLET","Address":"5321 W Maryland Ave","City":"Glendale","State":"AZ","Zip":"85301"},{"Location":"SANDS AUTOMOTIVE GROUP","Address":"5418 Nw Grand Ave","City":"Glendale","State":"AZ","Zip":"85301"},{"Location":"SKIPPER'S LOUNGE","Address":"6124 N 43rd Ave","City":"Glendale","State":"AZ","Zip":"85301"},{"Location":"SOUTHWEST AMBULANCE","Address":"7980 N 51st Ave 106","City":"Glendale","State":"AZ","Zip":"85301"},{"Location":"SOUTHWEST METALS","Address":"4708 W Pasadena Ave","City":"Glendale","State":"AZ","Zip":"85301"},{"Location":"SPROUTS FARMERS MARKET","Address":"5455 W Missouri Ave","City":"Glendale","State":"AZ","Zip":"85301"},{"Location":"STARSHIP BEAUTY & BARBER","Address":"6363 N 59th Ave","City":"Glendale","State":"AZ","Zip":"85301"},{"Location":"SUBMARINOS","Address":"7910 N 43rd Ave 6","City":"Glendale","State":"AZ","Zip":"85301"},{"Location":"TOKYO MASSAGE","Address":"6445 N 51st Ave","City":"Glendale","State":"AZ","Zip":"85301"},{"Location":"TOTAL MEDICAL CARE LLC","Address":"5048 W Northern Ave 106","City":"Glendale","State":"AZ","Zip":"85301"},{"Location":"TRUSS FAB","Address":"7831 N 67th Ave","City":"Glendale","State":"AZ","Zip":"85301"},{"Location":"UNION TAX SOLUTIONA","Address":"6034 W Bethany Home Rd","City":"Glendale","State":"AZ","Zip":"85301"},{"Location":"VFW","Address":"7618 N 63rd Ave","City":"Glendale","State":"AZ","Zip":"85301"},{"Location":"VMAC MOBILE PIT STOP","Address":"5090 W Bethany Home Rd","City":"Glendale","State":"AZ","Zip":"85301"},{"Location":"WESTERN STUCKO PRODUCTS","Address":"6101 N 53rd Dr","City":"Glendale","State":"AZ","Zip":"85301"},{"Location":"WESTSIDE LOUNGE","Address":"5114 W Camelback Rd","City":"Glendale","State":"AZ","Zip":"85301"},{"Location":"WF FINANCIAL","Address":"4908 W Glendale Ave","City":"Glendale","State":"AZ","Zip":"85301"},{"Location":"WHITE GLOVE DELIVERIES","Address":"5365 N 51st Ave","City":"Glendale","State":"AZ","Zip":"85301"},{"Location":"WHITE MOUNTAIN BAIT AND TACKLE","Address":"6082 N 57th Ave","City":"Glendale","State":"AZ","Zip":"85301"},{"Location":"ZUCHIKI ACCUPRESSURE LLC","Address":"7927 N 51st Ave","City":"Glendale","State":"AZ","Zip":"85301"}]