[{"Location":"AMMOS MEDITERRANEAN GRIL","Address":"6530 W Happy Valley Rd 114","City":"Glendale","State":"AZ","Zip":"85310"},{"Location":"BAMBINO'S SPORTS GRILL","Address":"3860 W Happy Valley Rd","City":"Glendale","State":"AZ","Zip":"85310"},{"Location":"BROTHERS PIZZA INC","Address":"6635 W Happy Valley Rd","City":"Glendale","State":"AZ","Zip":"85310"},{"Location":"BURGER KING 17086","Address":"3840 W Happy Valley Rd","City":"Glendale","State":"AZ","Zip":"85310"},{"Location":"CABIN COFFEE CAFE","Address":"6525 W Happy Valley Rd","City":"Glendale","State":"AZ","Zip":"85310"},{"Location":"DIRTY PELICAN","Address":"6718 W Deer Valley Rd 101","City":"Glendale","State":"AZ","Zip":"85310"},{"Location":"FEDERICOS 15","Address":"3730 W Happy Valley Rd 109","City":"Glendale","State":"AZ","Zip":"85310"},{"Location":"FLETCHERS TIRE AND AUTO","Address":"6515 W Happy Valley Rd","City":"Glendale","State":"AZ","Zip":"85310"},{"Location":"HOT BAGELS AND DELI","Address":"6520 W Happy Valley Rd 10","City":"Glendale","State":"AZ","Zip":"85310"},{"Location":"HUMBLE PIE STETSON","Address":"3890 W Happy Valley Rd","City":"Glendale","State":"AZ","Zip":"85310"},{"Location":"JO JOS PIZZA","Address":"23425 N 39th Dr 110","City":"Glendale","State":"AZ","Zip":"85310"},{"Location":"KAWAII SUSHI CUISINE","Address":"6530 W Happy Valley Rd 112","City":"Glendale","State":"AZ","Zip":"85310"},{"Location":"ROOKIES ASC","Address":"355 West Pinnacle Peak Road","City":"Glendale","State":"AZ","Zip":"85310"},{"Location":"TIMES 3 BAR & GRILL","Address":"6525 W Happy Valley Rd 109","City":"Glendale","State":"AZ","Zip":"85310"},{"Location":"VICTORY LANE SPORTS COMP","Address":"22603 N 43rd Ave","City":"Glendale","State":"AZ","Zip":"85310"},{"Location":"WET 'N' WILD","Address":"4243 W Pinnacle Peak Rd","City":"Glendale","State":"AZ","Zip":"85310"},{"Location":"AMMOS MEDITERRANEAN GRIL","Address":"6530 W Happy Valley Rd 114","City":"Glendale","State":"AZ","Zip":"85310"},{"Location":"BAMBINO'S SPORTS GRILL","Address":"3860 W Happy Valley Rd","City":"Glendale","State":"AZ","Zip":"85310"},{"Location":"BROTHERS PIZZA INC","Address":"6635 W Happy Valley Rd","City":"Glendale","State":"AZ","Zip":"85310"},{"Location":"BURGER KING 17086","Address":"3840 W Happy Valley Rd","City":"Glendale","State":"AZ","Zip":"85310"},{"Location":"CABIN COFFEE CAFE","Address":"6525 W Happy Valley Rd","City":"Glendale","State":"AZ","Zip":"85310"},{"Location":"DIRTY PELICAN","Address":"6718 W Deer Valley Rd 101","City":"Glendale","State":"AZ","Zip":"85310"},{"Location":"FEDERICOS 15","Address":"3730 W Happy Valley Rd 109","City":"Glendale","State":"AZ","Zip":"85310"},{"Location":"FLETCHERS TIRE AND AUTO","Address":"6515 W Happy Valley Rd","City":"Glendale","State":"AZ","Zip":"85310"},{"Location":"HOT BAGELS AND DELI","Address":"6520 W Happy Valley Rd 10","City":"Glendale","State":"AZ","Zip":"85310"},{"Location":"HUMBLE PIE STETSON","Address":"3890 W Happy Valley Rd","City":"Glendale","State":"AZ","Zip":"85310"},{"Location":"JO JOS PIZZA","Address":"23425 N 39th Dr 110","City":"Glendale","State":"AZ","Zip":"85310"},{"Location":"KAWAII SUSHI CUISINE","Address":"6530 W Happy Valley Rd 112","City":"Glendale","State":"AZ","Zip":"85310"},{"Location":"ROOKIES ASC","Address":"355 West Pinnacle Peak Road","City":"Glendale","State":"AZ","Zip":"85310"},{"Location":"TIMES 3 BAR & GRILL","Address":"6525 W Happy Valley Rd 109","City":"Glendale","State":"AZ","Zip":"85310"},{"Location":"VICTORY LANE SPORTS COMP","Address":"22603 N 43rd Ave","City":"Glendale","State":"AZ","Zip":"85310"},{"Location":"WET 'N' WILD","Address":"4243 W Pinnacle Peak Rd","City":"Glendale","State":"AZ","Zip":"85310"}]