[{"Location":"2 DI 4 GOURMET","Address":"506 E Western Ave 101","City":"Avondale","State":"AZ","Zip":"85323"},{"Location":"99 PUB AND GRILL","Address":"965 E Van Buren St 12412","City":"Avondale","State":"AZ","Zip":"85323"},{"Location":"A&C CLOTHING","Address":"11964 W Pima St","City":"Avondale","State":"AZ","Zip":"85323"},{"Location":"AGUILAS HIDAWAY","Address":"1235 N 8th St","City":"Avondale","State":"AZ","Zip":"85323"},{"Location":"AMERICAN LATINO ASSOC","Address":"1050 N Eliseo Felix Jr Way 105","City":"Avondale","State":"AZ","Zip":"85323"},{"Location":"AMERICAN LEGION POST 61","Address":"35 N Dysart Rd","City":"Avondale","State":"AZ","Zip":"85323"},{"Location":"AVONDALE MAZDA A","Address":"10675 W Papago Fwy","City":"Avondale","State":"AZ","Zip":"85323"},{"Location":"BRUNSWICK #864 TRI CITY","Address":"1425 N Central Ave","City":"Avondale","State":"AZ","Zip":"85323"},{"Location":"CARLOS O'BRIENS MEXICAN REST","Address":"775  North 114th Ave","City":"Avondale","State":"AZ","Zip":"85323"},{"Location":"CENTER","Address":"501 W Van Buren St T","City":"Avondale","State":"AZ","Zip":"85323"},{"Location":"CITY BARBERSHOP","Address":"1435 N Eliseo Felix Jr Way A1","City":"Avondale","State":"AZ","Zip":"85323"},{"Location":"COLDWATER GOLF CLUB","Address":"100 N Clubhouse Dr","City":"Avondale","State":"AZ","Zip":"85323"},{"Location":"CUMMINS ROCKY MOUNTAIN LLC","Address":"651 N 101st Ave","City":"Avondale","State":"AZ","Zip":"85323"},{"Location":"DA BARBERSHOP","Address":"10740 W Lower Buckeye Rd 110","City":"Avondale","State":"AZ","Zip":"85323"},{"Location":"DANNYS FAMILY TRUCK WASH","Address":"925 N 101 Ave","City":"Avondale","State":"AZ","Zip":"85323"},{"Location":"FILIBERTOS MEXICAN FOOD","Address":"1440 N Dysart Rd","City":"Avondale","State":"AZ","Zip":"85323"},{"Location":"GERBER COLLISION AND GLASS","Address":"775 N Dysart Rd","City":"Avondale","State":"AZ","Zip":"85323"},{"Location":"JIFFY LUBE #3385","Address":"115 E Van Buren St","City":"Avondale","State":"AZ","Zip":"85323"},{"Location":"LA FITNESS #124","Address":"13035 W Rancho Canta Fe Blvd","City":"Avondale","State":"AZ","Zip":"85323"},{"Location":"LARRY MILLER VOLKSWAGEN","Address":"10205 W Papago Fwy","City":"Avondale","State":"AZ","Zip":"85323"},{"Location":"LHM CORP ADR","Address":"10101 W Papago Fwy","City":"Avondale","State":"AZ","Zip":"85323"},{"Location":"MARICOPA INTEGRATED HEALTH SYS","Address":"950 E Van Buren St","City":"Avondale","State":"AZ","Zip":"85323"},{"Location":"PETTER PIPER PIZZA # 227","Address":"1463 N Dysart Rd","City":"Avondale","State":"AZ","Zip":"85323"},{"Location":"PHOENIX INTERNATIONAL RACEWAY","Address":"125 S Avondale Blvd 200","City":"Avondale","State":"AZ","Zip":"85323"},{"Location":"PHX INTERNATIONL RACEWAY","Address":"125 S Avondale Blvd 200","City":"Avondale","State":"AZ","Zip":"85323"},{"Location":"PIZZA HUT 30991","Address":"1450 N Dysart Rd A10","City":"Avondale","State":"AZ","Zip":"85323"},{"Location":"RACEWAY ELK LODGE","Address":"215 W Van Buren St","City":"Avondale","State":"AZ","Zip":"85323"},{"Location":"RAUL & THERESA'S RESTAURANT","Address":"519 W Main St","City":"Avondale","State":"AZ","Zip":"85323"},{"Location":"RUBY TUESDAY #5418","Address":"1035 N Avondale Blvd","City":"Avondale","State":"AZ","Zip":"85323"},{"Location":"SMOKE N STYLE","Address":"210 N Central Ave","City":"Avondale","State":"AZ","Zip":"85323"},{"Location":"THE LEAGUE BARBER SHOP","Address":"965 E Van Buren St 126","City":"Avondale","State":"AZ","Zip":"85323"},{"Location":"TROPICANA","Address":"513 W Western Ave","City":"Avondale","State":"AZ","Zip":"85323"},{"Location":"UTI - AVONDALE","Address":"10695 W Pierce St","City":"Avondale","State":"AZ","Zip":"85323"}]