[{"Location":"BC WELLNESS CARE","Address":"34550 S Old Black Canyon Hwy","City":"Black Canyon City","State":"AZ","Zip":"85324"},{"Location":"CHIHUAHUAS CHILL GRILL LLC","Address":"34170 S Old Black Canyon Hwy","City":"Black Canyon City","State":"AZ","Zip":"85324"},{"Location":"DAL MEDIA SOLUTIONS","Address":"21070 E Tara Springs Rd","City":"Black Canyon City","State":"AZ","Zip":"85324"},{"Location":"JAVALINA CROSSING SALOON","Address":"3441 Old Black Canyon Hwy","City":"Black Canyon City","State":"AZ","Zip":"85324"},{"Location":"MOUNTAIN BREEZE","Address":"34500 South Ols Back Canyon Hwy","City":"Black Canyon City","State":"AZ","Zip":"85324"},{"Location":"NORA JEANS KOFFEE AND KI","Address":"18850 E School House Rd 1","City":"Black Canyon City","State":"AZ","Zip":"85324"},{"Location":"ROCK SPRINGS GAS DEPOT","Address":"34900 S Old","City":"Black Canyon City","State":"AZ","Zip":"85324"},{"Location":"VFW POST 1796","Address":"34801 S Velda Rose Rd","City":"Black Canyon City","State":"AZ","Zip":"85324"},{"Location":"ROCK SPRINGS OPERATING","Address":"35769 S Old Black Canyon Hwy","City":"Rock Springs","State":"AZ","Zip":"85324"},{"Location":"BC WELLNESS CARE","Address":"34550 S Old Black Canyon Hwy","City":"Black Canyon City","State":"AZ","Zip":"85324"},{"Location":"CHIHUAHUAS CHILL GRILL LLC","Address":"34170 S Old Black Canyon Hwy","City":"Black Canyon City","State":"AZ","Zip":"85324"},{"Location":"DAL MEDIA SOLUTIONS","Address":"21070 E Tara Springs Rd","City":"Black Canyon City","State":"AZ","Zip":"85324"},{"Location":"JAVALINA CROSSING SALOON","Address":"3441 Old Black Canyon Hwy","City":"Black Canyon City","State":"AZ","Zip":"85324"},{"Location":"MOUNTAIN BREEZE","Address":"34500 South Ols Back Canyon Hwy","City":"Black Canyon City","State":"AZ","Zip":"85324"},{"Location":"NORA JEANS KOFFEE AND KI","Address":"18850 E School House Rd 1","City":"Black Canyon City","State":"AZ","Zip":"85324"},{"Location":"ROCK SPRINGS GAS DEPOT","Address":"34900 S Old","City":"Black Canyon City","State":"AZ","Zip":"85324"},{"Location":"VFW POST 1796","Address":"34801 S Velda Rose Rd","City":"Black Canyon City","State":"AZ","Zip":"85324"},{"Location":"ROCK SPRINGS OPERATING","Address":"35769 S Old Black Canyon Hwy","City":"Rock Springs","State":"AZ","Zip":"85324"}]