[{"Location":"AJO AMBULANCE","Address":"Hickiwan Trails Rv Park","City":"Ajo","State":"AZ","Zip":"85321"},{"Location":"COPPER CROWN REALTY II","Address":"203 W Rocalla Ave","City":"Ajo","State":"AZ","Zip":"85321"},{"Location":"DOUGLAS R & JANIE BRADER","Address":"553 W Esperanza Ave","City":"Ajo","State":"AZ","Zip":"85321"},{"Location":"GUEST HOUSE INN","Address":"700 W Guest House Rd","City":"Ajo","State":"AZ","Zip":"85321"},{"Location":"HIKIWAN DISTRICT","Address":"Highway 86 Route 34","City":"Ajo","State":"AZ","Zip":"85321"},{"Location":"OASIS CAFE","Address":"28 N Plaza St","City":"Ajo","State":"AZ","Zip":"85321"},{"Location":"ORGAN PIPE CACTUS NAT'L MONM'T","Address":"37 Organ Pipe Dr","City":"Ajo","State":"AZ","Zip":"85321"},{"Location":"ORGAN PIPE CACTUS NATL MONMT 1","Address":"23 Organ Pipe Dr","City":"Ajo","State":"AZ","Zip":"85321"},{"Location":"PIZZA HUT #16","Address":"627 N 2nd Ave","City":"Ajo","State":"AZ","Zip":"85321"},{"Location":"WHY BORDER PATROL","Address":"850 N Highway 85","City":"Ajo","State":"AZ","Zip":"85321"},{"Location":"AJO AMBULANCE","Address":"Hickiwan Trails Rv Park","City":"Ajo","State":"AZ","Zip":"85321"},{"Location":"COPPER CROWN REALTY II","Address":"203 W Rocalla Ave","City":"Ajo","State":"AZ","Zip":"85321"},{"Location":"DOUGLAS R & JANIE BRADER","Address":"553 W Esperanza Ave","City":"Ajo","State":"AZ","Zip":"85321"},{"Location":"GUEST HOUSE INN","Address":"700 W Guest House Rd","City":"Ajo","State":"AZ","Zip":"85321"},{"Location":"HIKIWAN DISTRICT","Address":"Highway 86 Route 34","City":"Ajo","State":"AZ","Zip":"85321"},{"Location":"OASIS CAFE","Address":"28 N Plaza St","City":"Ajo","State":"AZ","Zip":"85321"},{"Location":"ORGAN PIPE CACTUS NAT'L MONM'T","Address":"37 Organ Pipe Dr","City":"Ajo","State":"AZ","Zip":"85321"},{"Location":"ORGAN PIPE CACTUS NATL MONMT 1","Address":"23 Organ Pipe Dr","City":"Ajo","State":"AZ","Zip":"85321"},{"Location":"PIZZA HUT #16","Address":"627 N 2nd Ave","City":"Ajo","State":"AZ","Zip":"85321"},{"Location":"WHY BORDER PATROL","Address":"850 N Highway 85","City":"Ajo","State":"AZ","Zip":"85321"}]