[{"Location":"ANHEUSER-BUSCH WHLSLR #10256","Address":"26815 W Baseline Rd","City":"Buckeye","State":"AZ","Zip":"85326"},{"Location":"ANYTIME FITNESS","Address":"1280 S Watson Rd 103","City":"Buckeye","State":"AZ","Zip":"85326"},{"Location":"ARGENTOS PIZZA AND WINGS","Address":"805 E Monroe Ave","City":"Buckeye","State":"AZ","Zip":"85326"},{"Location":"ARIZONA GIN SUPPLY","Address":"204 204 Butler Ave","City":"Buckeye","State":"AZ","Zip":"85326"},{"Location":"AZ CONVEYANCE INC","Address":"23003 W Durango St","City":"Buckeye","State":"AZ","Zip":"85326"},{"Location":"AZ DEPT OF CORRECTIONS","Address":"26701 S Us Highway 85","City":"Buckeye","State":"AZ","Zip":"85326"},{"Location":"BOOTYS WINGS BURGERS AND BEER","Address":"1300 S Watson Rd 109","City":"Buckeye","State":"AZ","Zip":"85326"},{"Location":"BUCKEYE SENIOR APARTMENTS","Address":"605 S 4th St","City":"Buckeye","State":"AZ","Zip":"85326"},{"Location":"BUCKEYE SENIOR APTS","Address":"605 S 4th St","City":"Buckeye","State":"AZ","Zip":"85326"},{"Location":"BURGER KING #9984","Address":"1552 S Miller Rd","City":"Buckeye","State":"AZ","Zip":"85326"},{"Location":"CMH MANUFACTURING","Address":"231 N Apache Rd","City":"Buckeye","State":"AZ","Zip":"85326"},{"Location":"COME UNTO ME BEHAVIORAL HEALTH","Address":"25660 W Elwood St","City":"Buckeye","State":"AZ","Zip":"85326"},{"Location":"DUNKIN DONUTS","Address":"675 S Watson Rd","City":"Buckeye","State":"AZ","Zip":"85326"},{"Location":"DUNKLIN EXPRESS","Address":"1047 S 240th Dr","City":"Buckeye","State":"AZ","Zip":"85326"},{"Location":"FARM AG ENTERPRISES","Address":"8603 S Us Highway 85","City":"Buckeye","State":"AZ","Zip":"85326"},{"Location":"FEDERICOS CHANDLER","Address":"485 S Watson Rd 101","City":"Buckeye","State":"AZ","Zip":"85326"},{"Location":"FIESTA HAIR EXTENSION","Address":"7707 Sw Us Highway 85 12","City":"Buckeye","State":"AZ","Zip":"85326"},{"Location":"FILIBERTOS","Address":"4370 S Miller Rd","City":"Buckeye","State":"AZ","Zip":"85326"},{"Location":"FIREHOUSE SUBS","Address":"485 S Watson Rd 107","City":"Buckeye","State":"AZ","Zip":"85326"},{"Location":"HAZELTON BUTLER POST 53","Address":"402 E Narramore Ave","City":"Buckeye","State":"AZ","Zip":"85326"},{"Location":"HICKMAN EGG RANCH","Address":"6515 S Jackrabbit Trl","City":"Buckeye","State":"AZ","Zip":"85326"},{"Location":"HOME AND OFFICE REPAIR H","Address":"2500 S 198th Ave","City":"Buckeye","State":"AZ","Zip":"85326"},{"Location":"LA FIESTA MARKET","Address":"7707 Sw Us Highway 85 B","City":"Buckeye","State":"AZ","Zip":"85326"},{"Location":"LEAF VERDE","Address":"1500 S Apache Rd","City":"Buckeye","State":"AZ","Zip":"85326"},{"Location":"MOUNTAIN SHADOWS FAMILY DENTAL","Address":"21765 W Yuma Rd","City":"Buckeye","State":"AZ","Zip":"85326"},{"Location":"MYIA NORTHRIDGE LLC","Address":"10300 S Miller Rd","City":"Buckeye","State":"AZ","Zip":"85326"},{"Location":"NATIVE NEW YORKER-WATSON","Address":"457 S Watson Rd","City":"Buckeye","State":"AZ","Zip":"85326"},{"Location":"PETER PIPER PIZZA # 239","Address":"764 Swatson Rd","City":"Buckeye","State":"AZ","Zip":"85326"},{"Location":"PHI MEDICAL AE5 AIR EVAC","Address":"25177 W Park Ave","City":"Buckeye","State":"AZ","Zip":"85326"},{"Location":"PIZZA FACTORY","Address":"21699 W Yuma Rd 109","City":"Buckeye","State":"AZ","Zip":"85326"},{"Location":"PIZZA HUT","Address":"1217 W Hwy 85","City":"Buckeye","State":"AZ","Zip":"85326"},{"Location":"PIZZA HUT 28839","Address":"1300 S Watson Rd A105","City":"Buckeye","State":"AZ","Zip":"85326"},{"Location":"PVNGS","Address":"600 N Airport Rd Bld A","City":"Buckeye","State":"AZ","Zip":"85326"},{"Location":"RANCHEROS LLC","Address":"416 E Monroe Ave","City":"Buckeye","State":"AZ","Zip":"85326"},{"Location":"REXS SALOON","Address":"24202 Hwy 85","City":"Buckeye","State":"AZ","Zip":"85326"},{"Location":"SAMS","Address":"23701 W Southern Ave","City":"Buckeye","State":"AZ","Zip":"85326"},{"Location":"SHARON AST","Address":"2007 S Jackrabbit Trl","City":"Buckeye","State":"AZ","Zip":"85326"},{"Location":"SNAP FITNESS #1460","Address":"802 E Monroe Ave","City":"Buckeye","State":"AZ","Zip":"85326"},{"Location":"SOUTHWEST FAMILY PRACTICE","Address":"1209 N Miller Rd","City":"Buckeye","State":"AZ","Zip":"85326"},{"Location":"SPORT CLIPS","Address":"944 S Watson Rd 104","City":"Buckeye","State":"AZ","Zip":"85326"},{"Location":"SUNDANCE BARBERSHOP","Address":"485 S Watson Rd 104","City":"Buckeye","State":"AZ","Zip":"85326"},{"Location":"SUNDANCE GOLF CLUB","Address":"900 S Sundance Pkwy","City":"Buckeye","State":"AZ","Zip":"85326"},{"Location":"TACK ROOM","Address":"10300 S Miller Rd","City":"Buckeye","State":"AZ","Zip":"85326"},{"Location":"THE PUMP COMP","Address":"327 N 1st St","City":"Buckeye","State":"AZ","Zip":"85326"},{"Location":"UNITED WEST ALLEY FIREFIGHTERS","Address":"19937 W Arlington Rd","City":"Buckeye","State":"AZ","Zip":"85326"},{"Location":"WALMART DC6031","Address":"23701 W Southern Ave","City":"Buckeye","State":"AZ","Zip":"85326"},{"Location":"WALMART TRANSPORTATION","Address":"23701 1%2F2 W Southern Ave","City":"Buckeye","State":"AZ","Zip":"85326"},{"Location":"WALMART TRANSPORTATION OFFICE","Address":"23701 W Southern Ave","City":"Buckeye","State":"AZ","Zip":"85326"},{"Location":"WEST VALLEY EMERGENCY","Address":"525 S Watson Rd","City":"Buckeye","State":"AZ","Zip":"85326"},{"Location":"ANHEUSER-BUSCH WHLSLR #10256","Address":"26815 W Baseline Rd","City":"Buckeye","State":"AZ","Zip":"85326"},{"Location":"ANYTIME FITNESS","Address":"1280 S Watson Rd 103","City":"Buckeye","State":"AZ","Zip":"85326"},{"Location":"ARGENTOS PIZZA AND WINGS","Address":"805 E Monroe Ave","City":"Buckeye","State":"AZ","Zip":"85326"},{"Location":"ARIZONA GIN SUPPLY","Address":"204 204 Butler Ave","City":"Buckeye","State":"AZ","Zip":"85326"},{"Location":"AZ CONVEYANCE INC","Address":"23003 W Durango St","City":"Buckeye","State":"AZ","Zip":"85326"},{"Location":"AZ DEPT OF CORRECTIONS","Address":"26701 S Us Highway 85","City":"Buckeye","State":"AZ","Zip":"85326"},{"Location":"BOOTYS WINGS BURGERS AND BEER","Address":"1300 S Watson Rd 109","City":"Buckeye","State":"AZ","Zip":"85326"},{"Location":"BUCKEYE SENIOR APARTMENTS","Address":"605 S 4th St","City":"Buckeye","State":"AZ","Zip":"85326"},{"Location":"BUCKEYE SENIOR APTS","Address":"605 S 4th St","City":"Buckeye","State":"AZ","Zip":"85326"},{"Location":"BURGER KING #9984","Address":"1552 S Miller Rd","City":"Buckeye","State":"AZ","Zip":"85326"},{"Location":"CMH MANUFACTURING","Address":"231 N Apache Rd","City":"Buckeye","State":"AZ","Zip":"85326"},{"Location":"COME UNTO ME BEHAVIORAL HEALTH","Address":"25660 W Elwood St","City":"Buckeye","State":"AZ","Zip":"85326"},{"Location":"DUNKIN DONUTS","Address":"675 S Watson Rd","City":"Buckeye","State":"AZ","Zip":"85326"},{"Location":"DUNKLIN EXPRESS","Address":"1047 S 240th Dr","City":"Buckeye","State":"AZ","Zip":"85326"},{"Location":"FARM AG ENTERPRISES","Address":"8603 S Us Highway 85","City":"Buckeye","State":"AZ","Zip":"85326"},{"Location":"FEDERICOS CHANDLER","Address":"485 S Watson Rd 101","City":"Buckeye","State":"AZ","Zip":"85326"},{"Location":"FIESTA HAIR EXTENSION","Address":"7707 Sw Us Highway 85 12","City":"Buckeye","State":"AZ","Zip":"85326"},{"Location":"FILIBERTOS","Address":"4370 S Miller Rd","City":"Buckeye","State":"AZ","Zip":"85326"},{"Location":"FIREHOUSE SUBS","Address":"485 S Watson Rd 107","City":"Buckeye","State":"AZ","Zip":"85326"},{"Location":"HAZELTON BUTLER POST 53","Address":"402 E Narramore Ave","City":"Buckeye","State":"AZ","Zip":"85326"},{"Location":"HICKMAN EGG RANCH","Address":"6515 S Jackrabbit Trl","City":"Buckeye","State":"AZ","Zip":"85326"},{"Location":"HOME AND OFFICE REPAIR H","Address":"2500 S 198th Ave","City":"Buckeye","State":"AZ","Zip":"85326"},{"Location":"LA FIESTA MARKET","Address":"7707 Sw Us Highway 85 B","City":"Buckeye","State":"AZ","Zip":"85326"},{"Location":"LEAF VERDE","Address":"1500 S Apache Rd","City":"Buckeye","State":"AZ","Zip":"85326"},{"Location":"MOUNTAIN SHADOWS FAMILY DENTAL","Address":"21765 W Yuma Rd","City":"Buckeye","State":"AZ","Zip":"85326"},{"Location":"MYIA NORTHRIDGE LLC","Address":"10300 S Miller Rd","City":"Buckeye","State":"AZ","Zip":"85326"},{"Location":"NATIVE NEW YORKER-WATSON","Address":"457 S Watson Rd","City":"Buckeye","State":"AZ","Zip":"85326"},{"Location":"PETER PIPER PIZZA # 239","Address":"764 Swatson Rd","City":"Buckeye","State":"AZ","Zip":"85326"},{"Location":"PHI MEDICAL AE5 AIR EVAC","Address":"25177 W Park Ave","City":"Buckeye","State":"AZ","Zip":"85326"},{"Location":"PIZZA FACTORY","Address":"21699 W Yuma Rd 109","City":"Buckeye","State":"AZ","Zip":"85326"},{"Location":"PIZZA HUT","Address":"1217 W Hwy 85","City":"Buckeye","State":"AZ","Zip":"85326"},{"Location":"PIZZA HUT 28839","Address":"1300 S Watson Rd A105","City":"Buckeye","State":"AZ","Zip":"85326"},{"Location":"PVNGS","Address":"600 N Airport Rd Bld A","City":"Buckeye","State":"AZ","Zip":"85326"},{"Location":"RANCHEROS LLC","Address":"416 E Monroe Ave","City":"Buckeye","State":"AZ","Zip":"85326"},{"Location":"REXS SALOON","Address":"24202 Hwy 85","City":"Buckeye","State":"AZ","Zip":"85326"},{"Location":"SAMS","Address":"23701 W Southern Ave","City":"Buckeye","State":"AZ","Zip":"85326"},{"Location":"SHARON AST","Address":"2007 S Jackrabbit Trl","City":"Buckeye","State":"AZ","Zip":"85326"},{"Location":"SNAP FITNESS #1460","Address":"802 E Monroe Ave","City":"Buckeye","State":"AZ","Zip":"85326"},{"Location":"SOUTHWEST FAMILY PRACTICE","Address":"1209 N Miller Rd","City":"Buckeye","State":"AZ","Zip":"85326"},{"Location":"SPORT CLIPS","Address":"944 S Watson Rd 104","City":"Buckeye","State":"AZ","Zip":"85326"},{"Location":"SUNDANCE BARBERSHOP","Address":"485 S Watson Rd 104","City":"Buckeye","State":"AZ","Zip":"85326"},{"Location":"SUNDANCE GOLF CLUB","Address":"900 S Sundance Pkwy","City":"Buckeye","State":"AZ","Zip":"85326"},{"Location":"TACK ROOM","Address":"10300 S Miller Rd","City":"Buckeye","State":"AZ","Zip":"85326"},{"Location":"THE PUMP COMP","Address":"327 N 1st St","City":"Buckeye","State":"AZ","Zip":"85326"},{"Location":"UNITED WEST ALLEY FIREFIGHTERS","Address":"19937 W Arlington Rd","City":"Buckeye","State":"AZ","Zip":"85326"},{"Location":"WALMART DC6031","Address":"23701 W Southern Ave","City":"Buckeye","State":"AZ","Zip":"85326"},{"Location":"WALMART TRANSPORTATION","Address":"23701 1%2F2 W Southern Ave","City":"Buckeye","State":"AZ","Zip":"85326"},{"Location":"WALMART TRANSPORTATION OFFICE","Address":"23701 W Southern Ave","City":"Buckeye","State":"AZ","Zip":"85326"},{"Location":"WEST VALLEY EMERGENCY","Address":"525 S Watson Rd","City":"Buckeye","State":"AZ","Zip":"85326"}]