[{"Location":"ANGEL NAILS","Address":"5130 W Baseline Rd 116","City":"Laveen","State":"AZ","Zip":"85339"},{"Location":"APPLEBEE'S #526 51ST & BSLNE","Address":"5210 W Baseline Rd","City":"Laveen","State":"AZ","Zip":"85339"},{"Location":"BARROS LAVEEN","Address":"5240 W Baseline Rd 110","City":"Laveen","State":"AZ","Zip":"85339"},{"Location":"BOYS & GIRLS GILA REVER","Address":"5047 West Pecos Road","City":"Laveen","State":"AZ","Zip":"85339"},{"Location":"DAZZLE","Address":"7226 S 48th Gln","City":"Laveen","State":"AZ","Zip":"85339"},{"Location":"DESSERT GARDEN SENIOR LI","Address":"4606 W Corral Rd","City":"Laveen","State":"AZ","Zip":"85339"},{"Location":"DRAGON AZ TRAILOR","Address":"8202 S 56th Ave","City":"Laveen","State":"AZ","Zip":"85339"},{"Location":"FEDERICOS  16","Address":"7410 S 35th Ave","City":"Laveen","State":"AZ","Zip":"85339"},{"Location":"FIRESTONE #321260","Address":"5125 W Southern Ave","City":"Laveen","State":"AZ","Zip":"85339"},{"Location":"FLETCHERS TIRE AND AUTO","Address":"5015 W Baseline Rd","City":"Laveen","State":"AZ","Zip":"85339"},{"Location":"GILA RIVER EMS - ST 426","Address":"9851 West Pacos Road","City":"Laveen","State":"AZ","Zip":"85339"},{"Location":"GILA RIVER EMS KOMATKE","Address":"17487 S Healthcare Dr","City":"Laveen","State":"AZ","Zip":"85339"},{"Location":"GILA RIVER HEALTH CARE #2","Address":"9721 W Pecos Rd","City":"Laveen","State":"AZ","Zip":"85339"},{"Location":"JERSEY MIKES","Address":"5130 W Baseline Rd 104","City":"Laveen","State":"AZ","Zip":"85339"},{"Location":"KOMATKE HEALTH CENTER 1","Address":"17487 Health Center Dr","City":"Laveen","State":"AZ","Zip":"85339"},{"Location":"KOMATKE HEALTH CENTER 2","Address":"17487 Health Center Dr","City":"Laveen","State":"AZ","Zip":"85339"},{"Location":"LA FITNESS #133","Address":"5175 W Baseline Rd","City":"Laveen","State":"AZ","Zip":"85339"},{"Location":"LAVEEN TOTAL EYECARE","Address":"5030 W Baseline Rd 135","City":"Laveen","State":"AZ","Zip":"85339"},{"Location":"MCDONALDS 31293","Address":"5120 W Baseline Rd","City":"Laveen","State":"AZ","Zip":"85339"},{"Location":"NAILS OF THE WORLD","Address":"5045 W Baseline Rd 100","City":"Laveen","State":"AZ","Zip":"85339"},{"Location":"NATIVE NEW YORKER","Address":"5020 W Baseline Rd 123","City":"Laveen","State":"AZ","Zip":"85339"},{"Location":"OSA","Address":"6170 S 51st Ave","City":"Laveen","State":"AZ","Zip":"85339"},{"Location":"PALM VALLEY WOMANS CARE","Address":"4920 W Baseline Rd C103","City":"Laveen","State":"AZ","Zip":"85339"},{"Location":"RED RIVER CATTLE 3","Address":"5601 W Elliot Rd","City":"Laveen","State":"AZ","Zip":"85339"},{"Location":"SAFEWAY 2709","Address":"5035 W Baseline Rd","City":"Laveen","State":"AZ","Zip":"85339"},{"Location":"SOUTHERN RIDGE GOLF CLUB","Address":"5740 W Baseline Rd","City":"Laveen","State":"AZ","Zip":"85339"},{"Location":"THE SPURR LOUNGE","Address":"5535 W Baseline Rd","City":"Laveen","State":"AZ","Zip":"85339"},{"Location":"TRIAD TRANSPORTATION","Address":"6212 S 75th Ave 4","City":"Laveen","State":"AZ","Zip":"85339"},{"Location":"VEE QUIVA CASINO","Address":"15091 S Komaike Lane","City":"Laveen","State":"AZ","Zip":"85339"},{"Location":"WENDYS 11430","Address":"3520 W Baseline Rd","City":"Laveen","State":"AZ","Zip":"85339"},{"Location":"WINGSTOP #678","Address":"5130 W Baseline Rd 106","City":"Laveen","State":"AZ","Zip":"85339"},{"Location":"Z Q BARBERSHOP","Address":"4920 W Baseline Rd 107","City":"Laveen","State":"AZ","Zip":"85339"}]