[{"Location":"KEOGH ENGINEERING INC","Address":"14150 W Mc Dowell Rd","City":"Good Year","State":"AZ","Zip":"85338"},{"Location":"ANDYS BARBER SHOP","Address":"650 N Estrella Pkwy 2","City":"Goodyear","State":"AZ","Zip":"85338"},{"Location":"ASPEN DENTAL #0190","Address":"15530 W Roosevelt St E106","City":"Goodyear","State":"AZ","Zip":"85338"},{"Location":"AUGIES SPORTS GRILL","Address":"15605 W Roosevelt Pkwy 101","City":"Goodyear","State":"AZ","Zip":"85338"},{"Location":"AUSTINS RESTAURANT AND BAR","Address":"530 N Estrella Pkwy","City":"Goodyear","State":"AZ","Zip":"85338"},{"Location":"BEST WESTERN GOODYEAR","Address":"55 N Litchfield Rd","City":"Goodyear","State":"AZ","Zip":"85338"},{"Location":"BURGER KING #6249","Address":"394 N Litchfield Rd","City":"Goodyear","State":"AZ","Zip":"85338"},{"Location":"CANTAMIA %40ESTRELLA","Address":"17700 W Star Point Dr Sr","City":"Goodyear","State":"AZ","Zip":"85338"},{"Location":"CINCINNATI REDS","Address":"3125 South Wood Blvd","City":"Goodyear","State":"AZ","Zip":"85338"},{"Location":"CLEVELAND INDIANS BASEBALL CO","Address":"2601 S Wood Blvd","City":"Goodyear","State":"AZ","Zip":"85338"},{"Location":"COTTON LANE RV PARK","Address":"17506 W Van Buren St","City":"Goodyear","State":"AZ","Zip":"85338"},{"Location":"CROSSROADS LOUNGE","Address":"950 N Dysart Rd","City":"Goodyear","State":"AZ","Zip":"85338"},{"Location":"DBRT GOODYEAR","Address":"1658 S Litchfield Rd Ext","City":"Goodyear","State":"AZ","Zip":"85338"},{"Location":"DIAMOND IN THE ROUGH","Address":"13735 W Auto Dr 108","City":"Goodyear","State":"AZ","Zip":"85338"},{"Location":"DINE AMBARI","Address":"17750 W Elliot Rd","City":"Goodyear","State":"AZ","Zip":"85338"},{"Location":"DOLLAR DEALS","Address":"15671 W Roosevelt St","City":"Goodyear","State":"AZ","Zip":"85338"},{"Location":"ESTRELLA CHIROPRACTIC","Address":"530 N Estrella Pkwy C1","City":"Goodyear","State":"AZ","Zip":"85338"},{"Location":"ESTRELLA ORTHODONTIC","Address":"530 N Estrella Pkwy C2","City":"Goodyear","State":"AZ","Zip":"85338"},{"Location":"FMC 62800000","Address":"500 N Bullard Ave","City":"Goodyear","State":"AZ","Zip":"85338"},{"Location":"GOOD YEAR GOLD BUYERS","Address":"1170 N Estrella Pkwy A104","City":"Goodyear","State":"AZ","Zip":"85338"},{"Location":"GOODYEAR 8232","Address":"101 E Western Ave","City":"Goodyear","State":"AZ","Zip":"85338"},{"Location":"GOODYEAR EOC","Address":"14455 W Van Buren St Feoc","City":"Goodyear","State":"AZ","Zip":"85338"},{"Location":"GOODYEAR POLICE ADMIN","Address":"14455 W Van Buren St E101","City":"Goodyear","State":"AZ","Zip":"85338"},{"Location":"GOODYEAR POLICE COMMUNIC","Address":"14455 W Van Buren St F101","City":"Goodyear","State":"AZ","Zip":"85338"},{"Location":"GOODYEAR STADIUM","Address":"1933 S Ballpark Way","City":"Goodyear","State":"AZ","Zip":"85338"},{"Location":"HAPPY FRIENDS CHILDCARE","Address":"448 S 165th Ln","City":"Goodyear","State":"AZ","Zip":"85338"},{"Location":"LA FITNESS #134","Address":"1382 S Cotton Lane","City":"Goodyear","State":"AZ","Zip":"85338"},{"Location":"LAND CARE UNLIMITED LLC","Address":"14575 W La Estrella","City":"Goodyear","State":"AZ","Zip":"85338"},{"Location":"LOCKHEED MARTIN","Address":"1300 S Litchfield Rd 8","City":"Goodyear","State":"AZ","Zip":"85338"},{"Location":"Macayo Restaurant","Address":"1474 N Litchfield Rd","City":"Goodyear","State":"AZ","Zip":"85338"},{"Location":"MACYS LOGISTICS 122","Address":"16575 W Commerce Dr","City":"Goodyear","State":"AZ","Zip":"85338"},{"Location":"MARISCOS CAMARON PELAO","Address":"350 N Dysart Rd","City":"Goodyear","State":"AZ","Zip":"85338"},{"Location":"MOOSE LOUNGE #2078","Address":"1572 South Cotton Lane","City":"Goodyear","State":"AZ","Zip":"85338"},{"Location":"NAIL ELEGANT","Address":"500 N Estrella Pkwy B9","City":"Goodyear","State":"AZ","Zip":"85338"},{"Location":"PEP BOYS 1049","Address":"660 N Dysart Rd","City":"Goodyear","State":"AZ","Zip":"85338"},{"Location":"PITA PALMS","Address":"15605 W Roosevelt St 106","City":"Goodyear","State":"AZ","Zip":"85338"},{"Location":"RIDE NOW GOODYEAR","Address":"13690 Test Ave","City":"Goodyear","State":"AZ","Zip":"85338"},{"Location":"ROMANS OASIS","Address":"16825 W Yuma Rd","City":"Goodyear","State":"AZ","Zip":"85338"},{"Location":"SAFEWAY 2618","Address":"440 N Estrella Pkwy","City":"Goodyear","State":"AZ","Zip":"85338"},{"Location":"SOUTHWEST AMBULANCE","Address":"17650 W Elliot Rd","City":"Goodyear","State":"AZ","Zip":"85338"},{"Location":"SOUTHWEST AMBULANCE","Address":"560 N Estrella Pkwy","City":"Goodyear","State":"AZ","Zip":"85338"},{"Location":"SPARKLE NAILS","Address":"960 S Sarival Ave 106","City":"Goodyear","State":"AZ","Zip":"85338"},{"Location":"STADIUM LOCKER ROOM","Address":"1933 S Ballpark Way","City":"Goodyear","State":"AZ","Zip":"85338"},{"Location":"STADIUM TICKET BOOTH","Address":"1933 S Ballpark Way","City":"Goodyear","State":"AZ","Zip":"85338"},{"Location":"STADIUM WEIGHT ROOM","Address":"1933 S Ballpark Way","City":"Goodyear","State":"AZ","Zip":"85338"},{"Location":"STATE FARM","Address":"781 S Cotton Ln 115","City":"Goodyear","State":"AZ","Zip":"85338"},{"Location":"SUPER STAR CAR WASH","Address":"490 N Dysart Rd","City":"Goodyear","State":"AZ","Zip":"85338"},{"Location":"SUPER TOUCH NAILS","Address":"1170 N Estrella Pkwy","City":"Goodyear","State":"AZ","Zip":"85338"},{"Location":"SUSIE CONSTRUCTION RENTALS","Address":"3558 S Bullard Ave","City":"Goodyear","State":"AZ","Zip":"85338"},{"Location":"TASTE OF ITALY","Address":"3810 S Estrella Pkwy","City":"Goodyear","State":"AZ","Zip":"85338"},{"Location":"TOWNE PLACE SUITES (69106)","Address":"13971 W Fillmore St","City":"Goodyear","State":"AZ","Zip":"85338"},{"Location":"TRES RIOS","Address":"15205 W Vineyard","City":"Goodyear","State":"AZ","Zip":"85338"},{"Location":"VANITY VAPOR","Address":"15557 W Roosevelt St 105","City":"Goodyear","State":"AZ","Zip":"85338"},{"Location":"WOK WEI","Address":"15560 W Roosevelt St","City":"Goodyear","State":"AZ","Zip":"85338"}]