[{"Location":"ANYTIME FITNESS EL MIRAGE","Address":"13915 N Dysart Rd Stea4","City":"El Mirage","State":"AZ","Zip":"85335"},{"Location":"BURGER KING #16506","Address":"12280 W Olive Ave","City":"El Mirage","State":"AZ","Zip":"85335"},{"Location":"COCO ROADSIDE SERVICE","Address":"8625 N 125th Ave","City":"El Mirage","State":"AZ","Zip":"85335"},{"Location":"DONNA NAILS AND SPA","Address":"13915 N Dysart Rd B5","City":"El Mirage","State":"AZ","Zip":"85335"},{"Location":"EL MIRAGE SPORTS BAR AND GRILL","Address":"11201 N El Mirage Rd","City":"El Mirage","State":"AZ","Zip":"85335"},{"Location":"FAST TRAXS TIRE COMPANY","Address":"8552 N Dysart Rd C200","City":"El Mirage","State":"AZ","Zip":"85335"},{"Location":"HARKDRILLINGINC","Address":"12225 W Peoria Ave A","City":"El Mirage","State":"AZ","Zip":"85335"},{"Location":"LUPITAS MEXICAN RESTAURANT","Address":"12420 W Thunderbird Rd","City":"El Mirage","State":"AZ","Zip":"85335"},{"Location":"MARICOPA INTEGRATED HEALTH","Address":"12428 W Thunderbird Rd","City":"El Mirage","State":"AZ","Zip":"85335"},{"Location":"MARIOS PIZZA","Address":"13915 N Dysarp Rd C3","City":"El Mirage","State":"AZ","Zip":"85335"},{"Location":"PERFORMANCE TRANSMISSION","Address":"11725 Nw Grand Ave","City":"El Mirage","State":"AZ","Zip":"85335"},{"Location":"PRECISION STEEL ERECTORS","Address":"13152 W Butler Dr","City":"El Mirage","State":"AZ","Zip":"85335"},{"Location":"PREMIER COACHWORKS","Address":"8030 N Elmirage Rd","City":"El Mirage","State":"AZ","Zip":"85335"},{"Location":"RURAL METRO SOUTHWEST","Address":"10111 N El Mirage Rd 3","City":"El Mirage","State":"AZ","Zip":"85335"},{"Location":"STEADY EDDIES BARBERSHOP","Address":"12550 W Thunderbird Rd","City":"El Mirage","State":"AZ","Zip":"85335"},{"Location":"THE PALMS OF EL MIRAGE","Address":"16101 N El Mirage Rd","City":"El Mirage","State":"AZ","Zip":"85335"}]