[{"Location":"","Address":"5485 E Cahava Ranch Rd","City":"Cave Creek","State":"AZ","Zip":"85331"},{"Location":"AMARO PIZZERIA & VINO","Address":"28234 N Tatum Blvd","City":"Cave Creek","State":"AZ","Zip":"85331"},{"Location":"AMERICAN LEGION POST 34","Address":"6272 E Cave Creek Rd","City":"Cave Creek","State":"AZ","Zip":"85331"},{"Location":"ARI SUSHI AND GRILL","Address":"29605 N Cave Creek Rd 101","City":"Cave Creek","State":"AZ","Zip":"85331"},{"Location":"ARIZONA CREATIONS CORP","Address":"6333 E Cave Creek Rd","City":"Cave Creek","State":"AZ","Zip":"85331"},{"Location":"BABBO   ITALIAN EATERY","Address":"29455 N Cave Creek Rd","City":"Cave Creek","State":"AZ","Zip":"85331"},{"Location":"BARRO'S PIZZA #2","Address":"28260 N Tatum Blvd A7","City":"Cave Creek","State":"AZ","Zip":"85331"},{"Location":"BRAKE MASTERS OF PHOENIX #207","Address":"4603 E Carefree Hwy","City":"Cave Creek","State":"AZ","Zip":"85331"},{"Location":"BRIDLE & BIT NEWSPAPER","Address":"28407 N 63rd St","City":"Cave Creek","State":"AZ","Zip":"85331"},{"Location":"BRISAM'S","Address":"4730 E Lone Mountain Rd","City":"Cave Creek","State":"AZ","Zip":"85331"},{"Location":"BUFFALO CHIP","Address":"6811 E Cave Creek Rd","City":"Cave Creek","State":"AZ","Zip":"85331"},{"Location":"CARTWRIGHTS","Address":"6710 E Cave Creek Rd","City":"Cave Creek","State":"AZ","Zip":"85331"},{"Location":"CAVE CREEK BARBER SHOP","Address":"37611 N Cave Creek Rd A","City":"Cave Creek","State":"AZ","Zip":"85331"},{"Location":"CAVE CREEK SMOKEHOUSE","Address":"6245 E Cave Creek Rd","City":"Cave Creek","State":"AZ","Zip":"85331"},{"Location":"CAVE CREEK TAP HAUS","Address":"6900 E Cave Creek Rd","City":"Cave Creek","State":"AZ","Zip":"85331"},{"Location":"CENTER 4 ATHLETIC PERFORMANCE","Address":"30845 N Cave Creek Rd 101","City":"Cave Creek","State":"AZ","Zip":"85331"},{"Location":"CHAPARRAL VET","Address":"N Cave St Rd","City":"Cave Creek","State":"AZ","Zip":"85331"},{"Location":"COBBLE STONE 14","Address":"29650 N Tatum Blvd","City":"Cave Creek","State":"AZ","Zip":"85331"},{"Location":"COCOMO JOE'S","Address":"28244 N Tatum Blvd","City":"Cave Creek","State":"AZ","Zip":"85331"},{"Location":"DESERT FOOTHILL COOKOUTS","Address":"6510 E Barwick Dr","City":"Cave Creek","State":"AZ","Zip":"85331"},{"Location":"DESERT FOOTHILLS ATHLETIC CLUB","Address":"30845 N Cave Creek Rd","City":"Cave Creek","State":"AZ","Zip":"85331"},{"Location":"DESERT FOOTHILLS LIBRARY","Address":"38443 N School House Rd","City":"Cave Creek","State":"AZ","Zip":"85331"},{"Location":"E F CHARLES INC","Address":"7202 E Cave Creek Rd","City":"Cave Creek","State":"AZ","Zip":"85331"},{"Location":"FLETCHERS  TIRE  AND  AUTO","Address":"4915 E Carefree Hwy","City":"Cave Creek","State":"AZ","Zip":"85331"},{"Location":"FULL CIRCLE RANCH","Address":"40205 N 26th St","City":"Cave Creek","State":"AZ","Zip":"85331"},{"Location":"GALLAGHERS INC","Address":"34406 N Black Mountain Pkwy","City":"Cave Creek","State":"AZ","Zip":"85331"},{"Location":"GOLF COURSE","Address":"33244 N Black Mountain Pkwy","City":"Cave Creek","State":"AZ","Zip":"85331"},{"Location":"HAROLD'S CORRAL","Address":"6895 E Cave Creek Rd","City":"Cave Creek","State":"AZ","Zip":"85331"},{"Location":"HEART AND SOUL CAFE 1","Address":"4705 E Carefree Hwy","City":"Cave Creek","State":"AZ","Zip":"85331"},{"Location":"HOGS AND HORSES","Address":"6705 E Cave Creek Rd","City":"Cave Creek","State":"AZ","Zip":"85331"},{"Location":"INDIGO CROW","Address":"7100 E Cave Creek Rd","City":"Cave Creek","State":"AZ","Zip":"85331"},{"Location":"J CHEN RESTAURANT","Address":"29850 N Tatum Blvd 107","City":"Cave Creek","State":"AZ","Zip":"85331"},{"Location":"JOEYS OF CHICAGO 2","Address":"4705 E Carefree Hwy 101","City":"Cave Creek","State":"AZ","Zip":"85331"},{"Location":"KEIFER BROTHERS LLC","Address":"28325 N Tatum Blvd 7","City":"Cave Creek","State":"AZ","Zip":"85331"},{"Location":"KMA WINES LLC","Address":"7171 E Cave Creek Rd","City":"Cave Creek","State":"AZ","Zip":"85331"},{"Location":"LE SANS SOUCI RESTAURANT","Address":"7030 E Bella Vista Dr","City":"Cave Creek","State":"AZ","Zip":"85331"},{"Location":"NEW NAILS","Address":"4730 E Lone Mountain Rd 108","City":"Cave Creek","State":"AZ","Zip":"85331"},{"Location":"OREGANOS PIZZA BISTRO","Address":"37645 N Cave Creek Rd","City":"Cave Creek","State":"AZ","Zip":"85331"},{"Location":"PACIFIC DENTAL #294","Address":"34317 N Cave Creek Rd 103","City":"Cave Creek","State":"AZ","Zip":"85331"},{"Location":"QUICK N CLEAN 08","Address":"6925 E Cave Creek Rd","City":"Cave Creek","State":"AZ","Zip":"85331"},{"Location":"RANCHO MADERA","Address":"6231 E Mark Way","City":"Cave Creek","State":"AZ","Zip":"85331"},{"Location":"RAYS PIZZA","Address":"4705 E Carefree Hwy","City":"Cave Creek","State":"AZ","Zip":"85331"},{"Location":"RURAL METRO CORP","Address":"37402 N Cave Creek Rd","City":"Cave Creek","State":"AZ","Zip":"85331"},{"Location":"SAFEWAY 1543","Address":"29834 N Cave Creek Rd","City":"Cave Creek","State":"AZ","Zip":"85331"},{"Location":"SAM MATATOV","Address":"7100 E Cave Creek Rd","City":"Cave Creek","State":"AZ","Zip":"85331"},{"Location":"SHDES CREEK ARMORY","Address":"6812 E Cave Creek Rd 6","City":"Cave Creek","State":"AZ","Zip":"85331"},{"Location":"SMOKE AND JOE","Address":"29850 N Tatum Blvd 115","City":"Cave Creek","State":"AZ","Zip":"85331"},{"Location":"TATUM RANCH  BARBER SHOP","Address":"29850 N Tatum Blvd 104","City":"Cave Creek","State":"AZ","Zip":"85331"},{"Location":"TATUM RANCH GOLF CLUB","Address":"29888 N Tatum Ranch Dr","City":"Cave Creek","State":"AZ","Zip":"85331"},{"Location":"THE HORNY TOAD RESTAURANT","Address":"6738 E Cave Creek Rd","City":"Cave Creek","State":"AZ","Zip":"85331"},{"Location":"TKRK ENTERPRISE","Address":"4745 E Amber Sun Dr","City":"Cave Creek","State":"AZ","Zip":"85331"},{"Location":"TOB ENTERPRISES","Address":"6812 E Cave Creek Rd","City":"Cave Creek","State":"AZ","Zip":"85331"},{"Location":"TONTO BAR AND GRILL","Address":"5736 E Rancho Manana Blvd","City":"Cave Creek","State":"AZ","Zip":"85331"},{"Location":"TOTAL SPORTS THERAPY","Address":"4730 E Lone Mountain Rd 114","City":"Cave Creek","State":"AZ","Zip":"85331"},{"Location":"TREE RELOCATORS INC","Address":"31605 N 40th St","City":"Cave Creek","State":"AZ","Zip":"85331"},{"Location":"US TRADES LLC","Address":"7100 E Cave Creeek 118","City":"Cave Creek","State":"AZ","Zip":"85331"}]