[{"Location":"CITY OF SAN LUIS YOUTH C","Address":"973 N Park Ave","City":"San Luis","State":"AZ","Zip":"85349"},{"Location":"PATIO SUSHI AND MORE","Address":"616 4th Ave","City":"San Luis","State":"AZ","Zip":"85349"},{"Location":"PIZZA HUT #10463","Address":"624 San Luis Plaza Drive","City":"San Luis","State":"AZ","Zip":"85349"},{"Location":"RUSSJENN MANAGEMENT","Address":"390 N Ceasar Chavez","City":"San Luis","State":"AZ","Zip":"85349"},{"Location":"SAN LUIS DETENTION & SUPPORT C","Address":"406 N Ave D","City":"San Luis","State":"AZ","Zip":"85349"},{"Location":"SAN LUIS SPORTS BAR & GR","Address":"1914 E Juan Sanchez Blvd 7","City":"San Luis","State":"AZ","Zip":"85349"},{"Location":"SAN LUIS STATION","Address":"1165 N Mccain Avenue","City":"San Luis","State":"AZ","Zip":"85349"},{"Location":"US CUSTOM BORDER PRTCTN","Address":"431 N Main St","City":"San Luis","State":"AZ","Zip":"85349"},{"Location":"US CUSTOM BORDER PRTCTN2","Address":"1375 S Ave E","City":"San Luis","State":"AZ","Zip":"85349"}]