[{"Location":"BLUE SUSHI","Address":"118 N Old Litchfield Rd","City":"Litchfield Park","State":"AZ","Zip":"85340"},{"Location":"DILLONS KC STYLE BBQ","Address":"16501 W Northern Ave","City":"Litchfield Park","State":"AZ","Zip":"85340"},{"Location":"FALCON GOLF CLUB","Address":"15152 W Camelback Rd","City":"Litchfield Park","State":"AZ","Zip":"85340"},{"Location":"FAMOUS JOHNNY B'S PIZZERIA","Address":"13000 W Indian School Rd A6","City":"Litchfield Park","State":"AZ","Zip":"85340"},{"Location":"FEDERICO'S MEXICAN FOOD","Address":"13132 W Camelback Rd","City":"Litchfield Park","State":"AZ","Zip":"85340"},{"Location":"FIT BODY BOOTCAMP","Address":"4850 N Litchfield Rd 106","City":"Litchfield Park","State":"AZ","Zip":"85340"},{"Location":"GLAMOR NAILS SPA","Address":"4830 N Litchfield Rd 103","City":"Litchfield Park","State":"AZ","Zip":"85340"},{"Location":"GOODYEAR 8238","Address":"12902 W Indian School Rd","City":"Litchfield Park","State":"AZ","Zip":"85340"},{"Location":"GROUND CONTROL","Address":"4860 N Litchfield Rd","City":"Litchfield Park","State":"AZ","Zip":"85340"},{"Location":"JAMES KAIN","Address":"13321 W Indian School Rd 104","City":"Litchfield Park","State":"AZ","Zip":"85340"},{"Location":"LITCHFIELD TAPROOM","Address":"107 W Honeysuckle St","City":"Litchfield Park","State":"AZ","Zip":"85340"},{"Location":"MIYU NAILS AND SPA","Address":"5115 N Dysart Rd 208","City":"Litchfield Park","State":"AZ","Zip":"85340"},{"Location":"OLD PUEBLO CAFE","Address":"102 N Old Litchfield Rd","City":"Litchfield Park","State":"AZ","Zip":"85340"},{"Location":"PALM VALLEY CLASSIC CAR SPA","Address":"14031 W Indian School Rd","City":"Litchfield Park","State":"AZ","Zip":"85340"},{"Location":"PIZZA B'S #1","Address":"5135 N Dysart Rd","City":"Litchfield Park","State":"AZ","Zip":"85340"},{"Location":"SUN WEST NAILS & SPA","Address":"13000 W Indian School Rd A10","City":"Litchfield Park","State":"AZ","Zip":"85340"},{"Location":"TAILGATERS & IL PRIMO","Address":"5110 N Dysart Rd 124","City":"Litchfield Park","State":"AZ","Zip":"85340"},{"Location":"THE GRILL AT THE WIGWAM","Address":"451 Old Litchfield Road","City":"Litchfield Park","State":"AZ","Zip":"85340"},{"Location":"UNITED WEST ALLEY FF B","Address":"4715 N 189th Ave","City":"Litchfield Park","State":"AZ","Zip":"85340"},{"Location":"WIGWAM GOLF","Address":"451 N Old Litchfield Rd","City":"Litchfield Park","State":"AZ","Zip":"85340"},{"Location":"WIGWAM GOLF PRO SHOP","Address":"451 N Old Litchfield Rd","City":"Litchfield Park","State":"AZ","Zip":"85340"},{"Location":"WIGWAM RESORT(0013140)","Address":"300 E Wigwam Blvd","City":"Litchfield Park","State":"AZ","Zip":"85340"}]