[{"Location":"ADAMS MFG & ENGR","Address":"8641 N 79th Ave","City":"Peoria","State":"AZ","Zip":"85345"},{"Location":"ALL ABOUT YOU HAIR DESIG","Address":"10590 N 90th Ave 3","City":"Peoria","State":"AZ","Zip":"85345"},{"Location":"AMF PEORIA LANES 427","Address":"8475 W Olive Ave","City":"Peoria","State":"AZ","Zip":"85345"},{"Location":"ANTI HERO CYCLES LLC","Address":"7612 W Vogel Ave 1","City":"Peoria","State":"AZ","Zip":"85345"},{"Location":"BBS","Address":"9864 W Peoria Ave","City":"Peoria","State":"AZ","Zip":"85345"},{"Location":"BIG O TIRES","Address":"9864 N 91st Ave","City":"Peoria","State":"AZ","Zip":"85345"},{"Location":"BJ'S RESTAURANT #473","Address":"9748 W Northern Ave","City":"Peoria","State":"AZ","Zip":"85345"},{"Location":"BLUE BURGER GRILLE","Address":"9828 W Northern Ave 1705","City":"Peoria","State":"AZ","Zip":"85345"},{"Location":"BRUNOS","Address":"6750 W Olive Ave","City":"Peoria","State":"AZ","Zip":"85345"},{"Location":"BURGER KING 2","Address":"9119 W Peoria Ave","City":"Peoria","State":"AZ","Zip":"85345"},{"Location":"CABIN WHISKEY & GRILL","Address":"9868 W Northern Ave","City":"Peoria","State":"AZ","Zip":"85345"},{"Location":"CARE HEARING","Address":"9720 W Peoria Ave 115","City":"Peoria","State":"AZ","Zip":"85345"},{"Location":"CHAMPS BARBER SHOP","Address":"8520 W Peoria Ave","City":"Peoria","State":"AZ","Zip":"85345"},{"Location":"CLEARWATER CUSTOM SERVICE","Address":"9299 W Olive Ave 510","City":"Peoria","State":"AZ","Zip":"85345"},{"Location":"COOP'S BAR AND GRILL","Address":"8455 W Peoria Ave","City":"Peoria","State":"AZ","Zip":"85345"},{"Location":"DARIAN LUXURY NAILS SPA","Address":"8877 N 107th Ave 306","City":"Peoria","State":"AZ","Zip":"85345"},{"Location":"DNC CSL PLASMA","Address":"9770 W Peoria Ave","City":"Peoria","State":"AZ","Zip":"85345"},{"Location":"EMERGENCY ANIMAL CLINIC","Address":"9875 W Peoria Ave","City":"Peoria","State":"AZ","Zip":"85345"},{"Location":"ENOCH'S SPORTS LOUNGE","Address":"6750 W Peoria Ave 145","City":"Peoria","State":"AZ","Zip":"85345"},{"Location":"EQUITY LIFE STYLE PROPERTIES","Address":"11411 N 91st Ave","City":"Peoria","State":"AZ","Zip":"85345"},{"Location":"EQUITY LIFE STYLE PROPERTIES","Address":"10701 N 99th Ave","City":"Peoria","State":"AZ","Zip":"85345"},{"Location":"FAIR OAKS CIGARS","Address":"9780 W Northern Ave 1105","City":"Peoria","State":"AZ","Zip":"85345"},{"Location":"FARNSWORTH WHOLESALE CO","Address":"8051 W Olive Ave","City":"Peoria","State":"AZ","Zip":"85345"},{"Location":"FERGUSON #1188","Address":"9700 N 91st Ave","City":"Peoria","State":"AZ","Zip":"85345"},{"Location":"FIRESTONE #011932","Address":"10661 N 84th Ave","City":"Peoria","State":"AZ","Zip":"85345"},{"Location":"FLEMING'S #1304 PEORIA","Address":"9712 W Northern Ave","City":"Peoria","State":"AZ","Zip":"85345"},{"Location":"GALLAGHER'S PEORIA-RS","Address":"6750 W Peoria Ave 100","City":"Peoria","State":"AZ","Zip":"85345"},{"Location":"GRIMALDIS PIZZERIA","Address":"9788 W Northern Ave 1440","City":"Peoria","State":"AZ","Zip":"85345"},{"Location":"JIFFY LUBE #0659","Address":"6715 W Peoria Ave","City":"Peoria","State":"AZ","Zip":"85345"},{"Location":"KEN GANDARA","Address":"6750 W Peoria Ave","City":"Peoria","State":"AZ","Zip":"85345"},{"Location":"LA FITNESS #138","Address":"8160 N 91st Ave","City":"Peoria","State":"AZ","Zip":"85345"},{"Location":"LADY GRACE BEAUTY AND BARBER","Address":"9516 W Peoria Ave 2","City":"Peoria","State":"AZ","Zip":"85345"},{"Location":"LEGAL CREDIT SOLUTIONS","Address":"7547 W Cinnabar Ave","City":"Peoria","State":"AZ","Zip":"85345"},{"Location":"MAXIT PAWN & RETAIL SHOP 1669","Address":"6720 W Olive Ave","City":"Peoria","State":"AZ","Zip":"85345"},{"Location":"MPH BUILDERS","Address":"9828 W Northern Ave","City":"Peoria","State":"AZ","Zip":"85345"},{"Location":"MYSTIC NAIL & SPA","Address":"9744 W Northern Ave","City":"Peoria","State":"AZ","Zip":"85345"},{"Location":"NEIGHBORS","Address":"7530 W Peoria Ave","City":"Peoria","State":"AZ","Zip":"85345"},{"Location":"NEXTCARE URGENT CARE","Address":"9494 W Northern Ave 101","City":"Peoria","State":"AZ","Zip":"85345"},{"Location":"NINO'S PIZZERIA","Address":"9008 N 99th Ave 1","City":"Peoria","State":"AZ","Zip":"85345"},{"Location":"PEORIA ESTATES","Address":"6942 W Olive Ave","City":"Peoria","State":"AZ","Zip":"85345"},{"Location":"PEORIA PINES GOLF CLUB","Address":"8411 N 107th Ave","City":"Peoria","State":"AZ","Zip":"85345"},{"Location":"PEORIA SUN CITY SPORT'S BAR","Address":"9635 W Peoria Ave 101","City":"Peoria","State":"AZ","Zip":"85345"},{"Location":"PEORIA VILLAS","Address":"10847 W Olive Ave","City":"Peoria","State":"AZ","Zip":"85345"},{"Location":"PETER PIPER PIZZA # 217","Address":"10006 N 91st Ave","City":"Peoria","State":"AZ","Zip":"85345"},{"Location":"PETER PIPER PIZZA # 218","Address":"6821 W Peoria Ave","City":"Peoria","State":"AZ","Zip":"85345"},{"Location":"PIZZA HUT 29881","Address":"3103 E Cactus Road","City":"Peoria","State":"AZ","Zip":"85345"},{"Location":"PIZZA HUT 30433","Address":"9151 W Peoria Ave","City":"Peoria","State":"AZ","Zip":"85345"},{"Location":"QUE SABOR","Address":"8520 W Peoria Ave 106","City":"Peoria","State":"AZ","Zip":"85345"},{"Location":"SAFEWAY 1662","Address":"10641 W Olive Ave","City":"Peoria","State":"AZ","Zip":"85345"},{"Location":"SIDELINES BARBER&BEAUTY SALON","Address":"6750 W Olive Ave 103","City":"Peoria","State":"AZ","Zip":"85345"},{"Location":"SILVERADO AUTO","Address":"9449 W Grand Ave","City":"Peoria","State":"AZ","Zip":"85345"},{"Location":"SPECIALTY ROOFING%2C INC.","Address":"8200 N 75th Ave","City":"Peoria","State":"AZ","Zip":"85345"},{"Location":"SPORTSMAGIC","Address":"9824 W Northern Ave 1830","City":"Peoria","State":"AZ","Zip":"85345"},{"Location":"THE LAUNDRY CENTER","Address":"7530 W Peoria Ave","City":"Peoria","State":"AZ","Zip":"85345"},{"Location":"THE Q BAR & GRILL","Address":"6750 W Olive Ave 102","City":"Peoria","State":"AZ","Zip":"85345"},{"Location":"TIRE KINGDOM B-4613","Address":"9864 N 91st Ave","City":"Peoria","State":"AZ","Zip":"85345"},{"Location":"TOBY KEITH'S I LOVE THIS BAR","Address":"9824 W Northern Ave N","City":"Peoria","State":"AZ","Zip":"85345"},{"Location":"TOUCHDOWN SPORTSWEAR","Address":"8701 W Grand Ave","City":"Peoria","State":"AZ","Zip":"85345"},{"Location":"PACWEST ENERGY LLCC","Address":"18736 N 83rd","City":"Scottsdale","State":"AZ","Zip":"85345"},{"Location":"ADAMS MFG & ENGR","Address":"8641 N 79th Ave","City":"Peoria","State":"AZ","Zip":"85345"},{"Location":"ALL ABOUT YOU HAIR DESIG","Address":"10590 N 90th Ave 3","City":"Peoria","State":"AZ","Zip":"85345"},{"Location":"AMF PEORIA LANES 427","Address":"8475 W Olive Ave","City":"Peoria","State":"AZ","Zip":"85345"},{"Location":"ANTI HERO CYCLES LLC","Address":"7612 W Vogel Ave 1","City":"Peoria","State":"AZ","Zip":"85345"},{"Location":"BBS","Address":"9864 W Peoria Ave","City":"Peoria","State":"AZ","Zip":"85345"},{"Location":"BIG O TIRES","Address":"9864 N 91st Ave","City":"Peoria","State":"AZ","Zip":"85345"},{"Location":"BJ'S RESTAURANT #473","Address":"9748 W Northern Ave","City":"Peoria","State":"AZ","Zip":"85345"},{"Location":"BLUE BURGER GRILLE","Address":"9828 W Northern Ave 1705","City":"Peoria","State":"AZ","Zip":"85345"},{"Location":"BRUNOS","Address":"6750 W Olive Ave","City":"Peoria","State":"AZ","Zip":"85345"},{"Location":"BURGER KING 2","Address":"9119 W Peoria Ave","City":"Peoria","State":"AZ","Zip":"85345"},{"Location":"CABIN WHISKEY & GRILL","Address":"9868 W Northern Ave","City":"Peoria","State":"AZ","Zip":"85345"},{"Location":"CARE HEARING","Address":"9720 W Peoria Ave 115","City":"Peoria","State":"AZ","Zip":"85345"},{"Location":"CHAMPS BARBER SHOP","Address":"8520 W Peoria Ave","City":"Peoria","State":"AZ","Zip":"85345"},{"Location":"CLEARWATER CUSTOM SERVICE","Address":"9299 W Olive Ave 510","City":"Peoria","State":"AZ","Zip":"85345"},{"Location":"COOP'S BAR AND GRILL","Address":"8455 W Peoria Ave","City":"Peoria","State":"AZ","Zip":"85345"},{"Location":"DARIAN LUXURY NAILS SPA","Address":"8877 N 107th Ave 306","City":"Peoria","State":"AZ","Zip":"85345"},{"Location":"DNC CSL PLASMA","Address":"9770 W Peoria Ave","City":"Peoria","State":"AZ","Zip":"85345"},{"Location":"EMERGENCY ANIMAL CLINIC","Address":"9875 W Peoria Ave","City":"Peoria","State":"AZ","Zip":"85345"},{"Location":"ENOCH'S SPORTS LOUNGE","Address":"6750 W Peoria Ave 145","City":"Peoria","State":"AZ","Zip":"85345"},{"Location":"EQUITY LIFE STYLE PROPERTIES","Address":"11411 N 91st Ave","City":"Peoria","State":"AZ","Zip":"85345"},{"Location":"EQUITY LIFE STYLE PROPERTIES","Address":"10701 N 99th Ave","City":"Peoria","State":"AZ","Zip":"85345"},{"Location":"FAIR OAKS CIGARS","Address":"9780 W Northern Ave 1105","City":"Peoria","State":"AZ","Zip":"85345"},{"Location":"FARNSWORTH WHOLESALE CO","Address":"8051 W Olive Ave","City":"Peoria","State":"AZ","Zip":"85345"},{"Location":"FERGUSON #1188","Address":"9700 N 91st Ave","City":"Peoria","State":"AZ","Zip":"85345"},{"Location":"FIRESTONE #011932","Address":"10661 N 84th Ave","City":"Peoria","State":"AZ","Zip":"85345"},{"Location":"FLEMING'S #1304 PEORIA","Address":"9712 W Northern Ave","City":"Peoria","State":"AZ","Zip":"85345"},{"Location":"GALLAGHER'S PEORIA-RS","Address":"6750 W Peoria Ave 100","City":"Peoria","State":"AZ","Zip":"85345"},{"Location":"GRIMALDIS PIZZERIA","Address":"9788 W Northern Ave 1440","City":"Peoria","State":"AZ","Zip":"85345"},{"Location":"JIFFY LUBE #0659","Address":"6715 W Peoria Ave","City":"Peoria","State":"AZ","Zip":"85345"},{"Location":"KEN GANDARA","Address":"6750 W Peoria Ave","City":"Peoria","State":"AZ","Zip":"85345"},{"Location":"LA FITNESS #138","Address":"8160 N 91st Ave","City":"Peoria","State":"AZ","Zip":"85345"},{"Location":"LADY GRACE BEAUTY AND BARBER","Address":"9516 W Peoria Ave 2","City":"Peoria","State":"AZ","Zip":"85345"},{"Location":"LEGAL CREDIT SOLUTIONS","Address":"7547 W Cinnabar Ave","City":"Peoria","State":"AZ","Zip":"85345"},{"Location":"MAXIT PAWN & RETAIL SHOP 1669","Address":"6720 W Olive Ave","City":"Peoria","State":"AZ","Zip":"85345"},{"Location":"MPH BUILDERS","Address":"9828 W Northern Ave","City":"Peoria","State":"AZ","Zip":"85345"},{"Location":"MYSTIC NAIL & SPA","Address":"9744 W Northern Ave","City":"Peoria","State":"AZ","Zip":"85345"},{"Location":"NEIGHBORS","Address":"7530 W Peoria Ave","City":"Peoria","State":"AZ","Zip":"85345"},{"Location":"NEXTCARE URGENT CARE","Address":"9494 W Northern Ave 101","City":"Peoria","State":"AZ","Zip":"85345"},{"Location":"NINO'S PIZZERIA","Address":"9008 N 99th Ave 1","City":"Peoria","State":"AZ","Zip":"85345"},{"Location":"PEORIA ESTATES","Address":"6942 W Olive Ave","City":"Peoria","State":"AZ","Zip":"85345"},{"Location":"PEORIA PINES GOLF CLUB","Address":"8411 N 107th Ave","City":"Peoria","State":"AZ","Zip":"85345"},{"Location":"PEORIA SUN CITY SPORT'S BAR","Address":"9635 W Peoria Ave 101","City":"Peoria","State":"AZ","Zip":"85345"},{"Location":"PEORIA VILLAS","Address":"10847 W Olive Ave","City":"Peoria","State":"AZ","Zip":"85345"},{"Location":"PETER PIPER PIZZA # 217","Address":"10006 N 91st Ave","City":"Peoria","State":"AZ","Zip":"85345"},{"Location":"PETER PIPER PIZZA # 218","Address":"6821 W Peoria Ave","City":"Peoria","State":"AZ","Zip":"85345"},{"Location":"PIZZA HUT 29881","Address":"3103 E Cactus Road","City":"Peoria","State":"AZ","Zip":"85345"},{"Location":"PIZZA HUT 30433","Address":"9151 W Peoria Ave","City":"Peoria","State":"AZ","Zip":"85345"},{"Location":"QUE SABOR","Address":"8520 W Peoria Ave 106","City":"Peoria","State":"AZ","Zip":"85345"},{"Location":"SAFEWAY 1662","Address":"10641 W Olive Ave","City":"Peoria","State":"AZ","Zip":"85345"},{"Location":"SIDELINES BARBER&BEAUTY SALON","Address":"6750 W Olive Ave 103","City":"Peoria","State":"AZ","Zip":"85345"},{"Location":"SILVERADO AUTO","Address":"9449 W Grand Ave","City":"Peoria","State":"AZ","Zip":"85345"},{"Location":"SONNYS PAINTING","Address":"10875 N 85th Ave 4","City":"Peoria","State":"AZ","Zip":"85345"},{"Location":"SPECIALTY ROOFING%2C INC.","Address":"8200 N 75th Ave","City":"Peoria","State":"AZ","Zip":"85345"},{"Location":"SPORTSMAGIC","Address":"9824 W Northern Ave 1830","City":"Peoria","State":"AZ","Zip":"85345"},{"Location":"THE LAUNDRY CENTER","Address":"7530 W Peoria Ave","City":"Peoria","State":"AZ","Zip":"85345"},{"Location":"THE Q BAR & GRILL","Address":"6750 W Olive Ave 102","City":"Peoria","State":"AZ","Zip":"85345"},{"Location":"TIRE KINGDOM B-4613","Address":"9864 N 91st Ave","City":"Peoria","State":"AZ","Zip":"85345"},{"Location":"TOBY KEITH'S I LOVE THIS BAR","Address":"9824 W Northern Ave N","City":"Peoria","State":"AZ","Zip":"85345"},{"Location":"TOUCHDOWN SPORTSWEAR","Address":"8701 W Grand Ave","City":"Peoria","State":"AZ","Zip":"85345"},{"Location":"PACWEST ENERGY LLCC","Address":"18736 N 83rd","City":"Scottsdale","State":"AZ","Zip":"85345"}]