[{"Location":"BLUE BAR II","Address":"3365 N Highway 95","City":"Parker","State":"AZ","Zip":"85344"},{"Location":"BLUEWATER RESORT & CASINO","Address":"11300 Resort Dr","City":"Parker","State":"AZ","Zip":"85344"},{"Location":"BURGER KING","Address":"701 W Riverside Dr","City":"Parker","State":"AZ","Zip":"85344"},{"Location":"CHILDREN'S RESIDENTIAL CENTER","Address":"12001 Agency Rd","City":"Parker","State":"AZ","Zip":"85344"},{"Location":"COFFEE ERNS","Address":"1720 S California Ave","City":"Parker","State":"AZ","Zip":"85344"},{"Location":"COLORADO RIVER INDIAN TRIBE","Address":"26600 Mohave Rd","City":"Parker","State":"AZ","Zip":"85344"},{"Location":"COLORADO RIVER INDIAN TRIBES","Address":"26600 Mohave Rd","City":"Parker","State":"AZ","Zip":"85344"},{"Location":"COLORADO RIVER INDIAN WOMEN","Address":"26600 Mohave Rd","City":"Parker","State":"AZ","Zip":"85344"},{"Location":"CRIT FARM","Address":"25980 15th Ave","City":"Parker","State":"AZ","Zip":"85344"},{"Location":"EARLY BIRD CAFE","Address":"904 S California Ave","City":"Parker","State":"AZ","Zip":"85344"},{"Location":"FLAME ON INDIAN SMOKE SHOP","Address":"117 W Riverside Dr","City":"Parker","State":"AZ","Zip":"85344"},{"Location":"FMC 62630000","Address":"Rr 1","City":"Parker","State":"AZ","Zip":"85344"},{"Location":"FOXS RV RESORT","Address":"6350 Riverside Dr","City":"Parker","State":"AZ","Zip":"85344"},{"Location":"FRATERNAL ORDER OF EAGLES","Address":"1300 W Arizona Ave","City":"Parker","State":"AZ","Zip":"85344"},{"Location":"HAVASU SPRINGS RESORT","Address":"Rr 2 Box 624","City":"Parker","State":"AZ","Zip":"85344"},{"Location":"J AND S OPERATION CORPORATION","Address":"7000 Riverside Dr","City":"Parker","State":"AZ","Zip":"85344"},{"Location":"LA PAZ COUNT PUBLIC WORKS","Address":"21943 Hills Side Dr","City":"Parker","State":"AZ","Zip":"85344"},{"Location":"LAKESIDE ORTHOPEDIC INST","Address":"1016 S Joshua Ave","City":"Parker","State":"AZ","Zip":"85344"},{"Location":"MAYA SPORTS BAR AND GRILL","Address":"621 W Riverside Dr","City":"Parker","State":"AZ","Zip":"85344"},{"Location":"MI BURRITO","Address":"3234 N Parker Dam Rd","City":"Parker","State":"AZ","Zip":"85344"},{"Location":"PIRATES DEN RESORT","Address":"7350 Riverside Dr A","City":"Parker","State":"AZ","Zip":"85344"},{"Location":"SAFEWAY STORE 2075","Address":"121 W Riverside Dr","City":"Parker","State":"AZ","Zip":"85344"},{"Location":"STROKES BAR AND GRILL","Address":"8010 Riverside Dr","City":"Parker","State":"AZ","Zip":"85344"},{"Location":"SUNDANCE RESORT","Address":"5920 Riverside Dr","City":"Parker","State":"AZ","Zip":"85344"},{"Location":"THE BAR","Address":"10172 Riverside Dr","City":"Parker","State":"AZ","Zip":"85344"},{"Location":"TRIPLE E SCREW PRODUCTS","Address":"1703 S Kofa Ave","City":"Parker","State":"AZ","Zip":"85344"},{"Location":"US FISH AND WILDLIFE","Address":"60911 N Highway 95","City":"Parker","State":"AZ","Zip":"85344"},{"Location":"WALMART 4543","Address":"100 W Riverside Dr","City":"Parker","State":"AZ","Zip":"85344"}]