[{"Location":"FONDOMONTE ARIZONA LLC UNIT 7","Address":"44376 Vicksburg Rd","City":"Saloma","State":"AZ","Zip":"85348"},{"Location":"ALEXA COX","Address":"67600 East Hwy 60","City":"Salome","State":"AZ","Zip":"85348"},{"Location":"BLACK ROCK RV VILLAGE","Address":"46751 Highway 60","City":"Salome","State":"AZ","Zip":"85348"},{"Location":"DESERT VISTA RV RESORT","Address":"64812 Harcuvar Dr","City":"Salome","State":"AZ","Zip":"85348"},{"Location":"FONDOMONTE ARIZONA LLC 13","Address":"44376 Vicksburg Road #13","City":"Salome","State":"AZ","Zip":"85348"},{"Location":"FONDOMONTE ARIZONA LLC UNIT 1","Address":"44376 Vicksburg Rd","City":"Salome","State":"AZ","Zip":"85348"},{"Location":"FONDOMONTE ARIZONA LLC UNIT 12","Address":"44376 Vicksburg Road #12","City":"Salome","State":"AZ","Zip":"85348"},{"Location":"FONDOMONTE ARIZONA LLC UNIT 2","Address":"44376 Vicksburg Rd 2","City":"Salome","State":"AZ","Zip":"85348"},{"Location":"FONDOMONTE ARIZONA LLC UNIT 4","Address":"44376 Vicksburg Rd","City":"Salome","State":"AZ","Zip":"85348"},{"Location":"FONDOMONTE LABOR CAMP CANTEEN","Address":"44376 Vicksburg Rd","City":"Salome","State":"AZ","Zip":"85348"},{"Location":"MOONLIGHT FARM","Address":"68877 Moonlight Lane","City":"Salome","State":"AZ","Zip":"85348"},{"Location":"PRIDE TRAVEL CENTER #3","Address":"48710 Vicksburg Rd","City":"Salome","State":"AZ","Zip":"85348"},{"Location":"WESTWARD MOTEL","Address":"66915 Ave C","City":"Salome","State":"AZ","Zip":"85348"},{"Location":"ZIP TRAVEL CENTER","Address":"48286 Vicksburg Rd","City":"Salome","State":"AZ","Zip":"85348"}]