[{"Location":"COCO PAH RIO COLORADO GOLF","Address":"220 N Marshall Loop Rd","City":"Somerton","State":"AZ","Zip":"85350"},{"Location":"COCOPAH CASINO","Address":"15136 S Avenue B","City":"Somerton","State":"AZ","Zip":"85350"},{"Location":"COCOPAH INDIAN TRIBE","Address":"9803 W Steamboat St","City":"Somerton","State":"AZ","Zip":"85350"},{"Location":"COCOPAH INDIAN TRIBE","Address":"14515 S Veterans Dr","City":"Somerton","State":"AZ","Zip":"85350"},{"Location":"COCOPAH YOUTH HOME","Address":"County 15 Avenue G","City":"Somerton","State":"AZ","Zip":"85350"},{"Location":"RURAL METRO CORP STATION #8","Address":"15875 S Avenue A","City":"Somerton","State":"AZ","Zip":"85350"},{"Location":"SAGUARO FOUNDATION","Address":"726 Jackson St","City":"Somerton","State":"AZ","Zip":"85350"},{"Location":"SAGUARO FOUNDATION","Address":"636 N Jackson","City":"Somerton","State":"AZ","Zip":"85350"},{"Location":"SAGUARO FOUNDATION","Address":"274 N Avenue B","City":"Somerton","State":"AZ","Zip":"85350"},{"Location":"SOMERTON","Address":"445 E Main Street","City":"Somerton","State":"AZ","Zip":"85350"},{"Location":"SOMERTON MAIN STREET CAFE INC","Address":"214 W Main St","City":"Somerton","State":"AZ","Zip":"85350"},{"Location":"TRI ROTOR","Address":"18679 S Avenue D","City":"Somerton","State":"AZ","Zip":"85350"},{"Location":"WILD RIVER FAMILY ENT CTR","Address":"15136 S Avenue B","City":"Somerton","State":"AZ","Zip":"85350"}]