[{"Location":"COACH STOP RV PARK","Address":"30333 E Wellton Mohawk Dr","City":"Wellton","State":"AZ","Zip":"85356"},{"Location":"COYOTE WASH","Address":"11902 Williams St","City":"Wellton","State":"AZ","Zip":"85356"},{"Location":"DUSTY ROSE","Address":"10602 Williams St","City":"Wellton","State":"AZ","Zip":"85356"},{"Location":"ED WHITEHEAD TIRE","Address":"29889 E Los Angeles Ave","City":"Wellton","State":"AZ","Zip":"85356"},{"Location":"GERONIMOS RESTUARANT","Address":"28627 Los Angeles Ave","City":"Wellton","State":"AZ","Zip":"85356"},{"Location":"JBS FIVE RIVERS CATTLE FEEDING","Address":"34673 E County 9th St","City":"Wellton","State":"AZ","Zip":"85356"},{"Location":"RDO EQUIPMENT","Address":"30101 E Hwy 80","City":"Wellton","State":"AZ","Zip":"85356"},{"Location":"TIER DROP RV PARK","Address":"28320 E County 11th St","City":"Wellton","State":"AZ","Zip":"85356"},{"Location":"US BORDER CONTROL 2","Address":"10888 S Avenue 31 E","City":"Wellton","State":"AZ","Zip":"85356"},{"Location":"US BORDER PATROL","Address":"10888 S Avenue 31 E","City":"Wellton","State":"AZ","Zip":"85356"},{"Location":"VFW POST 6790","Address":"29389 Oakland Ave","City":"Wellton","State":"AZ","Zip":"85356"}]