[{"Location":"ARIZONA DISTRIBUTION CTR","Address":"8313 W Latham St","City":"Tolleson","State":"AZ","Zip":"85353"},{"Location":"ATLAS LOGISTICS GROUP SVSC LLC","Address":"500 S 99th Ave B","City":"Tolleson","State":"AZ","Zip":"85353"},{"Location":"AUTO ZONE","Address":"7502 W Washington St","City":"Tolleson","State":"AZ","Zip":"85353"},{"Location":"BARNOLI AND SONS CONCRETE","Address":"7507 W Washington St","City":"Tolleson","State":"AZ","Zip":"85353"},{"Location":"BOMBOBA","Address":"9897 W Mcdowell Rd 220","City":"Tolleson","State":"AZ","Zip":"85353"},{"Location":"CARDINAL HEALTH INC","Address":"600 N 83rd Ave","City":"Tolleson","State":"AZ","Zip":"85353"},{"Location":"CARMAX #7274","Address":"1041 N 99th Ave","City":"Tolleson","State":"AZ","Zip":"85353"},{"Location":"DUTCH VIEW DAIRY","Address":"8459 W Broadway Rd","City":"Tolleson","State":"AZ","Zip":"85353"},{"Location":"FILIBERTOS MEXICAN RESTA","Address":"9616 W Van Buren St 110","City":"Tolleson","State":"AZ","Zip":"85353"},{"Location":"FIRESTONE #314640","Address":"9970 W Lower Buckeye Rd","City":"Tolleson","State":"AZ","Zip":"85353"},{"Location":"FRIEGHTLINER STERLING","Address":"9899 W Roosevelt St","City":"Tolleson","State":"AZ","Zip":"85353"},{"Location":"FRIEGHTLINER WESTERN STAR","Address":"9899 W Roosevelt St","City":"Tolleson","State":"AZ","Zip":"85353"},{"Location":"FUEGO BAR AND GRILL","Address":"9118 W Van Buren St","City":"Tolleson","State":"AZ","Zip":"85353"},{"Location":"HOME DEPOT","Address":"9081 W Washington St","City":"Tolleson","State":"AZ","Zip":"85353"},{"Location":"KOHL'S #1240","Address":"3000 S 99th Ave","City":"Tolleson","State":"AZ","Zip":"85353"},{"Location":"KROGER TOLLESON DAIRY","Address":"500 S 99th Ave","City":"Tolleson","State":"AZ","Zip":"85353"},{"Location":"LA FAMILIA PINA SPORTS BAR","Address":"9101 W Fillmore St","City":"Tolleson","State":"AZ","Zip":"85353"},{"Location":"LA FITNESS #4151","Address":"9880 W Lower Buckeye Rd","City":"Tolleson","State":"AZ","Zip":"85353"},{"Location":"LONG BRANCH SALLOON","Address":"10600 W Buckeye Rd","City":"Tolleson","State":"AZ","Zip":"85353"},{"Location":"MANHATTAN PIZZA","Address":"9870 W Lower Buckeye Rd","City":"Tolleson","State":"AZ","Zip":"85353"},{"Location":"MANHEIM PHOENIX","Address":"201 N 83rd Ave","City":"Tolleson","State":"AZ","Zip":"85353"},{"Location":"MCKESSON","Address":"495 S 107th Ave","City":"Tolleson","State":"AZ","Zip":"85353"},{"Location":"NAVAJO EXPRESS","Address":"8224 W Sherman St","City":"Tolleson","State":"AZ","Zip":"85353"},{"Location":"OWENS AND MINOR","Address":"8313 W Pierce St","City":"Tolleson","State":"AZ","Zip":"85353"},{"Location":"PAPA JOHNS SALADS & PROD","Address":"859 S 86th Ave","City":"Tolleson","State":"AZ","Zip":"85353"},{"Location":"PRETTY PINK","Address":"8633 W Jocelyn Ter","City":"Tolleson","State":"AZ","Zip":"85353"},{"Location":"PROMED BILLING SOLUTIONS","Address":"8541 W Sonora St","City":"Tolleson","State":"AZ","Zip":"85353"},{"Location":"QUIK'N TASTY","Address":"8501 W Latham St","City":"Tolleson","State":"AZ","Zip":"85353"},{"Location":"RUSH ENTERPRISES","Address":"9600 W Roosevelt St","City":"Tolleson","State":"AZ","Zip":"85353"},{"Location":"RUSSELL SIGLER INC","Address":"9702 West Tonto St","City":"Tolleson","State":"AZ","Zip":"85353"},{"Location":"SAFEWAY INC","Address":"7602 S Avondale Blvd","City":"Tolleson","State":"AZ","Zip":"85353"},{"Location":"SIMMONS COMPANY","Address":"101 N 104th Ave A","City":"Tolleson","State":"AZ","Zip":"85353"},{"Location":"STAPLES","Address":"8602 W Buckeye Rd","City":"Tolleson","State":"AZ","Zip":"85353"},{"Location":"SYSCO FOOD SERVICE OF ARIZONA","Address":"611 S 80th Ave","City":"Tolleson","State":"AZ","Zip":"85353"},{"Location":"THE ANDERSON HOME","Address":"9805 W Horse Thief Pass","City":"Tolleson","State":"AZ","Zip":"85353"},{"Location":"YF WEST VALLEY","Address":"9897 W Mcdowell Rd","City":"Tolleson","State":"AZ","Zip":"85353"}]