[{"Location":"ALICIA K GUICE MD","Address":"10503 W Thunderbird Blvd 112","City":"Sun City","State":"AZ","Zip":"85351"},{"Location":"ARETE","Address":"13203 N 103rd Ave","City":"Sun City","State":"AZ","Zip":"85351"},{"Location":"BANNER BOSWELL PHYS DINING","Address":"10401 W Thunderbird Blvd","City":"Sun City","State":"AZ","Zip":"85351"},{"Location":"BANNER BOSWELL WOUND HEALING","Address":"13203 N 103rd Ave 1","City":"Sun City","State":"AZ","Zip":"85351"},{"Location":"BELL LANES","Address":"16810 N 99th Ave","City":"Sun City","State":"AZ","Zip":"85351"},{"Location":"BENNYS BURGER SHOP","Address":"10001 W Bell Rd Suit1","City":"Sun City","State":"AZ","Zip":"85351"},{"Location":"BLOOMFIELD STORAGE","Address":"9835 W Cedar Dr","City":"Sun City","State":"AZ","Zip":"85351"},{"Location":"BOBBIES CAFE","Address":"15472 N 99th Ave 5","City":"Sun City","State":"AZ","Zip":"85351"},{"Location":"DAILY NEWS SUN","Address":"10102 W Santa Fe Dr","City":"Sun City","State":"AZ","Zip":"85351"},{"Location":"DANIEL GROMAN","Address":"10002 W Santa Fe Dr","City":"Sun City","State":"AZ","Zip":"85351"},{"Location":"DAVITA #5657 DESERT","Address":"13000 N 103rd Ave","City":"Sun City","State":"AZ","Zip":"85351"},{"Location":"DON JOSE MEXICAN RESTAURANT","Address":"9881 W Bell Rd","City":"Sun City","State":"AZ","Zip":"85351"},{"Location":"EYE INSTITUTE AT BOSWELL 1","Address":"10541 W Thunderbird Blvd","City":"Sun City","State":"AZ","Zip":"85351"},{"Location":"FILIBERTOS MEXICAN FOOD","Address":"10777 Grand Ave","City":"Sun City","State":"AZ","Zip":"85351"},{"Location":"GRAND AVE BARBERSHOP","Address":"10759 Grand Ave","City":"Sun City","State":"AZ","Zip":"85351"},{"Location":"GRAND DENTAL CARE","Address":"10615 W Thunderbird Blvd B500","City":"Sun City","State":"AZ","Zip":"85351"},{"Location":"JUST RELAX","Address":"10336 W Coggins Dr B","City":"Sun City","State":"AZ","Zip":"85351"},{"Location":"LAKEVIEW LANES","Address":"10502 W Thunderbird Blvd","City":"Sun City","State":"AZ","Zip":"85351"},{"Location":"LITTLE BITE OF ITALY","Address":"15456 N 99th Ave","City":"Sun City","State":"AZ","Zip":"85351"},{"Location":"MR Z 19 HOLE","Address":"9433 N 107th Ave","City":"Sun City","State":"AZ","Zip":"85351"},{"Location":"NEIGHBORHOOD BIBLE CHURCH","Address":"10615 W Peoria Ave","City":"Sun City","State":"AZ","Zip":"85351"},{"Location":"PALM BROOK COUNTRY CLUB","Address":"9350 W Greenway Rd","City":"Sun City","State":"AZ","Zip":"85351"},{"Location":"ROYAL CAFE","Address":"10793 Grand Ave 26","City":"Sun City","State":"AZ","Zip":"85351"},{"Location":"SCOTTRADE 02E","Address":"10001 W Bell Rd 128","City":"Sun City","State":"AZ","Zip":"85351"},{"Location":"ST JOACHIM CATHOLIC","Address":"11625 N 111th Ave","City":"Sun City","State":"AZ","Zip":"85351"},{"Location":"SUNDIAL MENS CLUB","Address":"14801 N 103rd Ave","City":"Sun City","State":"AZ","Zip":"85351"},{"Location":"UPDEGRAFF CLINIC","Address":"13000 N 103rd Ave 60","City":"Sun City","State":"AZ","Zip":"85351"},{"Location":"WELLS FARGO PRIVATE CLIENT SVC","Address":"9928 W Bell Rd","City":"Sun City","State":"AZ","Zip":"85351"}]