[{"Location":"ALOHA AZ LLC","Address":"11125 W Alabama Ave","City":"Youngtown","State":"AZ","Zip":"85363"},{"Location":"AMERA SUN CITY PEST CONTROL","Address":"11201 W Michigian Ave","City":"Youngtown","State":"AZ","Zip":"85363"},{"Location":"GENERAL EXTERMINATING","Address":"12040 N 111th Ave","City":"Youngtown","State":"AZ","Zip":"85363"},{"Location":"LIFESTREAM COMPLETE SENI","Address":"11315 W Peoria Ave","City":"Youngtown","State":"AZ","Zip":"85363"},{"Location":"NEW BEGINNINGS CHURCH","Address":"12207 N 112th Ave","City":"Youngtown","State":"AZ","Zip":"85363"},{"Location":"SPEAKEASY BAR","Address":"11115 Grand Ave 7","City":"Youngtown","State":"AZ","Zip":"85363"},{"Location":"SUNFLOWER MASSAGE AND SK","Address":"11115 Grand Ave 6","City":"Youngtown","State":"AZ","Zip":"85363"},{"Location":"ALOHA AZ LLC","Address":"11125 W Alabama Ave","City":"Youngtown","State":"AZ","Zip":"85363"},{"Location":"AMERA SUN CITY PEST CONTROL","Address":"11201 W Michigian Ave","City":"Youngtown","State":"AZ","Zip":"85363"},{"Location":"GENERAL EXTERMINATING","Address":"12040 N 111th Ave","City":"Youngtown","State":"AZ","Zip":"85363"},{"Location":"LIFESTREAM COMPLETE SENI","Address":"11315 W Peoria Ave","City":"Youngtown","State":"AZ","Zip":"85363"},{"Location":"NEW BEGINNINGS CHURCH","Address":"12207 N 112th Ave","City":"Youngtown","State":"AZ","Zip":"85363"},{"Location":"SPEAKEASY BAR","Address":"11115 Grand Ave 7","City":"Youngtown","State":"AZ","Zip":"85363"},{"Location":"SUNFLOWER MASSAGE AND SK","Address":"11115 Grand Ave 6","City":"Youngtown","State":"AZ","Zip":"85363"}]