[{"Location":"MICHAELS MILITARY HOUSIN","Address":"1397 Schwark Drive%2C Build 1397","City":"Ypgus Army Proving Grounds","State":"AZ","Zip":"85365"},{"Location":"","Address":"2525 County 14th Street","City":"Yuma","State":"AZ","Zip":"85365"},{"Location":"8 E LAUNDRY","Address":"3325 S Avenue 8 E","City":"Yuma","State":"AZ","Zip":"85365"},{"Location":"AGRI TREND","Address":"3337 E 33rd Pl","City":"Yuma","State":"AZ","Zip":"85365"},{"Location":"ALLSTATE INSURANCE YUMA EXPRES","Address":"720 S Rio Vista Dr","City":"Yuma","State":"AZ","Zip":"85365"},{"Location":"AMIGO FARMS INC","Address":"4245 E Us Highway 80","City":"Yuma","State":"AZ","Zip":"85365"},{"Location":"ANHEUSER-BUSCH WHLSLR #30295","Address":"598 E 20th St","City":"Yuma","State":"AZ","Zip":"85365"},{"Location":"APPLEBEE'S YUMA #9610","Address":"1100 E 16th St","City":"Yuma","State":"AZ","Zip":"85365"},{"Location":"BARKLEY SEED INC","Address":"1818 S Letvin Ave","City":"Yuma","State":"AZ","Zip":"85365"},{"Location":"BDT AND ASSOCIATES INC","Address":"2615 E 24th St 2","City":"Yuma","State":"AZ","Zip":"85365"},{"Location":"BORDER PRECAST INC","Address":"3311 E 24th St","City":"Yuma","State":"AZ","Zip":"85365"},{"Location":"BOS MOVING","Address":"2241 E 15th St","City":"Yuma","State":"AZ","Zip":"85365"},{"Location":"BUFFALO WILD WINGS #3236","Address":"1317 S Yuma Palms Pkwy","City":"Yuma","State":"AZ","Zip":"85365"},{"Location":"CBI-COMMUNITY BRIDGES","Address":"3250 E 40th St B","City":"Yuma","State":"AZ","Zip":"85365"},{"Location":"CHILI'S #1083","Address":"1331 S Yuma Palms Pkwy","City":"Yuma","State":"AZ","Zip":"85365"},{"Location":"CHRETINS","Address":"505 E 16th St","City":"Yuma","State":"AZ","Zip":"85365"},{"Location":"COUNTY RV REPAIR","Address":"6821 E Gila Ridge Rd","City":"Yuma","State":"AZ","Zip":"85365"},{"Location":"DANIELS FAMILY BARBERSHO","Address":"3939 S Avenue 3 E 112","City":"Yuma","State":"AZ","Zip":"85365"},{"Location":"DAVITA #3050 SOUTH YUMA","Address":"7179 E 31st Pl","City":"Yuma","State":"AZ","Zip":"85365"},{"Location":"DAYBREAKERS CAFE","Address":"10800 N Frontage Rd","City":"Yuma","State":"AZ","Zip":"85365"},{"Location":"DELIAS ALTERATIONS","Address":"3939 S Avenue 3 E 114","City":"Yuma","State":"AZ","Zip":"85365"},{"Location":"DOMINGOS FARM","Address":"6162 E Bruce Church Loop","City":"Yuma","State":"AZ","Zip":"85365"},{"Location":"FERGUSON #1925","Address":"3267 E 33rd Pl","City":"Yuma","State":"AZ","Zip":"85365"},{"Location":"FISHER CHEVROLET","Address":"3365 S Chevy Ln","City":"Yuma","State":"AZ","Zip":"85365"},{"Location":"FISHER CHEVROLET 2","Address":"3201 E Chevy Lane","City":"Yuma","State":"AZ","Zip":"85365"},{"Location":"FISHER HYUNDAI","Address":"1125 E 32nd St","City":"Yuma","State":"AZ","Zip":"85365"},{"Location":"GONZALEZ RENTAL AND SALES","Address":"3089 E 33rd Pl","City":"Yuma","State":"AZ","Zip":"85365"},{"Location":"HIDDEN SHORES","Address":"10300 Imperial Dam Rd","City":"Yuma","State":"AZ","Zip":"85365"},{"Location":"HOLIDAY SEED COMPANY","Address":"740 E 22nd St","City":"Yuma","State":"AZ","Zip":"85365"},{"Location":"HOSE POWER USA","Address":"10578 E 39th Ln","City":"Yuma","State":"AZ","Zip":"85365"},{"Location":"HOWARD BLITZ","Address":"2750 S Pacific Ave B","City":"Yuma","State":"AZ","Zip":"85365"},{"Location":"ICE%2FERO IMMIGRATION DEPT","Address":"7431 E 30th St","City":"Yuma","State":"AZ","Zip":"85365"},{"Location":"JIFFY LUBE","Address":"790 E 32nd St","City":"Yuma","State":"AZ","Zip":"85365"},{"Location":"KOHL'S #34","Address":"1350 S Castle Dome Ave","City":"Yuma","State":"AZ","Zip":"85365"},{"Location":"LOGAN'S ROADHOUSE #453","Address":"1519 S Yuma Palms Pkwy","City":"Yuma","State":"AZ","Zip":"85365"},{"Location":"LOVE #349","Address":"2931 E Gila Ridge Rd","City":"Yuma","State":"AZ","Zip":"85365"},{"Location":"LZ BAR AND GRILL","Address":"2175 S Harley Dr","City":"Yuma","State":"AZ","Zip":"85365"},{"Location":"MARTINEZ LAKE RESORT","Address":"10430 N Martinez Lake Rd","City":"Yuma","State":"AZ","Zip":"85365"},{"Location":"MCCS LAKE MARTINEZ","Address":"10489 Egret Rd","City":"Yuma","State":"AZ","Zip":"85365"},{"Location":"MCDONALDS","Address":"1195 E 16th St","City":"Yuma","State":"AZ","Zip":"85365"},{"Location":"MILITARY FREE FALL SCHL","Address":"Bldg 712 B St","City":"Yuma","State":"AZ","Zip":"85365"},{"Location":"MILITARY FREEFALL SCHOOL","Address":"Bco 21 Swtg","City":"Yuma","State":"AZ","Zip":"85365"},{"Location":"MILITARY FREEFALL SCHOOL","Address":"B Co 2 1 Swtg","City":"Yuma","State":"AZ","Zip":"85365"},{"Location":"MILITARY FREEFALL SCHOOL","Address":"Bldg 2802","City":"Yuma","State":"AZ","Zip":"85365"},{"Location":"MOTHER AND DAUGHTER EMBROIDERY","Address":"2615 E 24th St","City":"Yuma","State":"AZ","Zip":"85365"},{"Location":"MWR","Address":"301 C St 2105","City":"Yuma","State":"AZ","Zip":"85365"},{"Location":"NCISRA MARINE CORPS AIR STATIO","Address":"Bldg 916","City":"Yuma","State":"AZ","Zip":"85365"},{"Location":"NEANY INC","Address":"7488 S Hwy 95","City":"Yuma","State":"AZ","Zip":"85365"},{"Location":"NO 1 NAILS","Address":"2850 S Pacific Ave H","City":"Yuma","State":"AZ","Zip":"85365"},{"Location":"NORTH GILA STORE","Address":"7112 S Laguna Dam Rd A","City":"Yuma","State":"AZ","Zip":"85365"},{"Location":"OLIVE GARDEN #1671","Address":"1720 E 16th St","City":"Yuma","State":"AZ","Zip":"85365"},{"Location":"PACIFIC AVENUE DENTAL","Address":"1630 S Pacific Ave 104","City":"Yuma","State":"AZ","Zip":"85365"},{"Location":"PIZZA HUT-32ND ST","Address":"580 E 32nd St","City":"Yuma","State":"AZ","Zip":"85365"},{"Location":"PLATINUM CABARET","Address":"822 E 21st St","City":"Yuma","State":"AZ","Zip":"85365"},{"Location":"PRO-TECH AUTO","Address":"985 E 20th St","City":"Yuma","State":"AZ","Zip":"85365"},{"Location":"RAM PIPE AND SUPPLY","Address":"3231 S Joanie Ave","City":"Yuma","State":"AZ","Zip":"85365"},{"Location":"REICHMAN AG","Address":"2947 S Kish Ave B","City":"Yuma","State":"AZ","Zip":"85365"},{"Location":"ROAD RUNNER CAFE","Address":"301 C St 3507","City":"Yuma","State":"AZ","Zip":"85365"},{"Location":"RTC YUMA","Address":"3382 E Gila Ridge Rd","City":"Yuma","State":"AZ","Zip":"85365"},{"Location":"SNAP FITNESS #322","Address":"1200 S Castle Dome Ave D","City":"Yuma","State":"AZ","Zip":"85365"},{"Location":"SONORA NISSAN","Address":"3160 S Pacific Ave","City":"Yuma","State":"AZ","Zip":"85365"},{"Location":"SOTACC","Address":"Bldg 6003 Castle Dome Annex","City":"Yuma","State":"AZ","Zip":"85365"},{"Location":"SPORT CLIPS AZ301","Address":"1630 S Pacific Ave 103","City":"Yuma","State":"AZ","Zip":"85365"},{"Location":"SPORTS AUTHORITY 698","Address":"1448 S Yuma Palms Pkwy","City":"Yuma","State":"AZ","Zip":"85365"},{"Location":"SUNTERRA     PRODUCE TRADING","Address":"3031 E 42nd St","City":"Yuma","State":"AZ","Zip":"85365"},{"Location":"TARGET","Address":"1450 S Yuma Palms Pkwy","City":"Yuma","State":"AZ","Zip":"85365"},{"Location":"TERESA HARRINGTON 1","Address":"10511 Martinez Lake Road","City":"Yuma","State":"AZ","Zip":"85365"},{"Location":"THE FOOT HILLS BANK","Address":"6024 E 32nd St","City":"Yuma","State":"AZ","Zip":"85365"},{"Location":"THE MINE SHAFT","Address":"3905 S 4th Ave","City":"Yuma","State":"AZ","Zip":"85365"},{"Location":"TOMCAT","Address":"2681 E. County 14 St.","City":"Yuma","State":"AZ","Zip":"85365"},{"Location":"TS69282020000000XXAOXXYUMXTVXX","Address":"2191 E 32nd St","City":"Yuma","State":"AZ","Zip":"85365"},{"Location":"US ARMY YUMA PROVING GROUND","Address":"301 C St 208","City":"Yuma","State":"AZ","Zip":"85365"},{"Location":"US ARMY YUMA PROVING GROUNDS","Address":"Ypg Build 2670","City":"Yuma","State":"AZ","Zip":"85365"},{"Location":"US ARMY YUMA PROVING GROUNDS","Address":"Build 2105 Rm125","City":"Yuma","State":"AZ","Zip":"85365"},{"Location":"UYFFA STATION 2","Address":"3284 S Avenue A","City":"Yuma","State":"AZ","Zip":"85365"},{"Location":"UYFFA STATION 3","Address":"508 E 25th St","City":"Yuma","State":"AZ","Zip":"85365"},{"Location":"UYFFA STATION 5","Address":"6490 E 26th St","City":"Yuma","State":"AZ","Zip":"85365"},{"Location":"VFW POST 1763","Address":"2485 E 14th St","City":"Yuma","State":"AZ","Zip":"85365"},{"Location":"WHISKEY ROAD SALOON","Address":"3780 S 4th Ave E","City":"Yuma","State":"AZ","Zip":"85365"},{"Location":"WINDHAVEN RV PARK","Address":"6580 E Us Hwy 80","City":"Yuma","State":"AZ","Zip":"85365"},{"Location":"YUMA BORDER PATROL 2","Address":"4035 S Avenue A 175","City":"Yuma","State":"AZ","Zip":"85365"},{"Location":"YUMA EQUIPMENT SERVICES","Address":"2825 E 14th St A","City":"Yuma","State":"AZ","Zip":"85365"},{"Location":"YUMA SECTOR BORDER PATRO","Address":"4035 S Avenue A","City":"Yuma","State":"AZ","Zip":"85365"},{"Location":"Z FUN FACTORY","Address":"4446 E County 10th St","City":"Yuma","State":"AZ","Zip":"85365"},{"Location":"YPG COMMUNITY CENTER","Address":"1120 Cutter Avenue","City":"Yuma Proving Ground","State":"AZ","Zip":"85365"}]