[{"Location":"MARINE CORPS AIR STATION","Address":"Bldg 328","City":"Phoenix","State":"AZ","Zip":"85369"},{"Location":"ARFF MARINE CORE","Address":"149 Oneal St   #bldg","City":"Yuma","State":"AZ","Zip":"85369"},{"Location":"MARINE CORPS COMMUNITY SERVICE","Address":"Macs Building 153","City":"Yuma","State":"AZ","Zip":"85369"},{"Location":"MARINE CORPS EXCHANGE","Address":"Mcas Bldg 965","City":"Yuma","State":"AZ","Zip":"85369"},{"Location":"MCAS MARINE CORPS COMMUNITY SE","Address":"Building 673 Narr Ave","City":"Yuma","State":"AZ","Zip":"85369"},{"Location":"SMP RECREATION CENTER MCAS","Address":"Marine Corps Air Station","City":"Yuma","State":"AZ","Zip":"85369"},{"Location":"SONORAN PUEBLO CONSOLIDATED","Address":"Mcas 1200","City":"Yuma","State":"AZ","Zip":"85369"},{"Location":"MARINE CORPS AIR STATION","Address":"Bldg 328","City":"Phoenix","State":"AZ","Zip":"85369"},{"Location":"ARFF MARINE CORE","Address":"149 Oneal St   #bldg","City":"Yuma","State":"AZ","Zip":"85369"},{"Location":"MARINE CORPS AIR STATION","Address":"Quilter St Build 545","City":"Yuma","State":"AZ","Zip":"85369"},{"Location":"MARINE CORPS COMMUNITY SERVICE","Address":"Macs Building 153","City":"Yuma","State":"AZ","Zip":"85369"},{"Location":"MARINE CORPS EXCHANGE","Address":"Mcas Bldg 965","City":"Yuma","State":"AZ","Zip":"85369"},{"Location":"MCAS MARINE CORPS COMMUNITY SE","Address":"Building 673 Narr Ave","City":"Yuma","State":"AZ","Zip":"85369"},{"Location":"SMP RECREATION CENTER MCAS","Address":"Marine Corps Air Station","City":"Yuma","State":"AZ","Zip":"85369"},{"Location":"SONORAN PUEBLO CONSOLIDATED","Address":"Mcas 1200","City":"Yuma","State":"AZ","Zip":"85369"}]