[{"Location":"","Address":"12354 E Paseo Verano","City":"Yuma","State":"AZ","Zip":"85367"},{"Location":"1 NAIL EXPERT AND SPA","Address":"11411 S Fortuna Rd 205","City":"Yuma","State":"AZ","Zip":"85367"},{"Location":"A TO B TRUCK & CAR AUTO","Address":"11350 S Fortuna Rd","City":"Yuma","State":"AZ","Zip":"85367"},{"Location":"APPLEBEE'S #9943","Address":"11274 S Fortuna Rd","City":"Yuma","State":"AZ","Zip":"85367"},{"Location":"CRAZY EARLS COCKTAILS LLC","Address":"11274 S Fortuna Rd 12","City":"Yuma","State":"AZ","Zip":"85367"},{"Location":"DA BOYZ PIZZA & PASTA","Address":"11274 S Fortuna Rd C9","City":"Yuma","State":"AZ","Zip":"85367"},{"Location":"FIREHOUSE SUBS","Address":"11259 E South Frontage Rd 106","City":"Yuma","State":"AZ","Zip":"85367"},{"Location":"FIRST CUP I 8 AND FORTUNA LLC","Address":"11181 East South Frontage Road","City":"Yuma","State":"AZ","Zip":"85367"},{"Location":"FOOTHILLS DENTAL LLC","Address":"11259 East South Frontage Rd","City":"Yuma","State":"AZ","Zip":"85367"},{"Location":"FORTUNA DE ORO","Address":"13650 N Frontage Rd","City":"Yuma","State":"AZ","Zip":"85367"},{"Location":"FORTUNA DE ORO RV","Address":"13650 N Frontage Rd","City":"Yuma","State":"AZ","Zip":"85367"},{"Location":"MESA DEL SOL GOLF CLUB","Address":"12213 Calle De Cid","City":"Yuma","State":"AZ","Zip":"85367"},{"Location":"MESA DEL SOL GOLF COURSE","Address":"12213 E Calle Del Cid","City":"Yuma","State":"AZ","Zip":"85367"},{"Location":"MICKEY BS INC","Address":"12635 E South Frontage Rd","City":"Yuma","State":"AZ","Zip":"85367"},{"Location":"MIFAGITA RESTURANT","Address":"11375 S Foothills Blvd","City":"Yuma","State":"AZ","Zip":"85367"},{"Location":"PARRISH BAR GRILL","Address":"11732 S Fortuna Rd","City":"Yuma","State":"AZ","Zip":"85367"},{"Location":"PIZZA HUT#39","Address":"10611 S Fortuna Rd","City":"Yuma","State":"AZ","Zip":"85367"},{"Location":"ROSSYS MEXICAN FOOD","Address":"12479 S Frontage Rd","City":"Yuma","State":"AZ","Zip":"85367"},{"Location":"RURAL METRO CORP STA#2","Address":"10820 S Hensley Blvd","City":"Yuma","State":"AZ","Zip":"85367"},{"Location":"SNAP FITNESS #763","Address":"11274 S Fortuna Rd C4","City":"Yuma","State":"AZ","Zip":"85367"},{"Location":"YUMA TENNIS ASSOC","Address":"12457 Via Hermosa Anx","City":"Yuma","State":"AZ","Zip":"85367"},{"Location":"","Address":"12354 E Paseo Verano","City":"Yuma","State":"AZ","Zip":"85367"},{"Location":"1 NAIL EXPERT AND SPA","Address":"11411 S Fortuna Rd 205","City":"Yuma","State":"AZ","Zip":"85367"},{"Location":"A TO B TRUCK & CAR AUTO","Address":"11350 S Fortuna Rd","City":"Yuma","State":"AZ","Zip":"85367"},{"Location":"APPLEBEE'S #9943","Address":"11274 S Fortuna Rd","City":"Yuma","State":"AZ","Zip":"85367"},{"Location":"CRAZY EARLS COCKTAILS LLC","Address":"11274 S Fortuna Rd 12","City":"Yuma","State":"AZ","Zip":"85367"},{"Location":"DA BOYZ PIZZA & PASTA","Address":"11274 S Fortuna Rd C9","City":"Yuma","State":"AZ","Zip":"85367"},{"Location":"FIREHOUSE SUBS","Address":"11259 E South Frontage Rd 106","City":"Yuma","State":"AZ","Zip":"85367"},{"Location":"FIRST CUP I 8 AND FORTUNA LLC","Address":"11181 East South Frontage Road","City":"Yuma","State":"AZ","Zip":"85367"},{"Location":"FOOTHILLS DENTAL LLC","Address":"11259 East South Frontage Rd","City":"Yuma","State":"AZ","Zip":"85367"},{"Location":"FORTUNA DE ORO","Address":"13650 N Frontage Rd","City":"Yuma","State":"AZ","Zip":"85367"},{"Location":"FORTUNA DE ORO RV","Address":"13650 N Frontage Rd","City":"Yuma","State":"AZ","Zip":"85367"},{"Location":"MESA DEL SOL GOLF CLUB","Address":"12213 Calle De Cid","City":"Yuma","State":"AZ","Zip":"85367"},{"Location":"MESA DEL SOL GOLF COURSE","Address":"12213 E Calle Del Cid","City":"Yuma","State":"AZ","Zip":"85367"},{"Location":"MICKEY BS INC","Address":"12635 E South Frontage Rd","City":"Yuma","State":"AZ","Zip":"85367"},{"Location":"MIFAGITA RESTURANT","Address":"11375 S Foothills Blvd","City":"Yuma","State":"AZ","Zip":"85367"},{"Location":"PARRISH BAR GRILL","Address":"11732 S Fortuna Rd","City":"Yuma","State":"AZ","Zip":"85367"},{"Location":"PIZZA HUT#39","Address":"10611 S Fortuna Rd","City":"Yuma","State":"AZ","Zip":"85367"},{"Location":"ROSSYS MEXICAN FOOD","Address":"12479 S Frontage Rd","City":"Yuma","State":"AZ","Zip":"85367"},{"Location":"RURAL METRO CORP STA#2","Address":"10820 S Hensley Blvd","City":"Yuma","State":"AZ","Zip":"85367"},{"Location":"SNAP FITNESS #763","Address":"11274 S Fortuna Rd C4","City":"Yuma","State":"AZ","Zip":"85367"},{"Location":"YUMA TENNIS ASSOC","Address":"12457 Via Hermosa Anx","City":"Yuma","State":"AZ","Zip":"85367"}]