[{"Location":"8TH STREET COIN LAUNDRY","Address":"1207 W 8th St","City":"Yuma","State":"AZ","Zip":"85364"},{"Location":"A R GRILL","Address":"712 S 4th Ave","City":"Yuma","State":"AZ","Zip":"85364"},{"Location":"AML FLOYD JEFFERSON","Address":"1490 W 3rd St","City":"Yuma","State":"AZ","Zip":"85364"},{"Location":"APPLEBEE'S #9131","Address":"3101 S 4th Ave","City":"Yuma","State":"AZ","Zip":"85364"},{"Location":"ARIZONA MEDICAL CENTER","Address":"2095 W 24th St A","City":"Yuma","State":"AZ","Zip":"85364"},{"Location":"ASIAN STAR RESTAURANT","Address":"276 W 32nd St 1","City":"Yuma","State":"AZ","Zip":"85364"},{"Location":"ATHRITIS CENTER OF YUMA","Address":"2095 W 24th St C","City":"Yuma","State":"AZ","Zip":"85364"},{"Location":"BASEM MERI D.O.","Address":"2851 S Avenue B 3000","City":"Yuma","State":"AZ","Zip":"85364"},{"Location":"BLUE FIN SUSHI & GRILL","Address":"2905 S 4th Ave","City":"Yuma","State":"AZ","Zip":"85364"},{"Location":"BONITA PACKING COMPANY","Address":"3063 S 47th Ave","City":"Yuma","State":"AZ","Zip":"85364"},{"Location":"BPO ELKS 476","Address":"1917 W 32nd St","City":"Yuma","State":"AZ","Zip":"85364"},{"Location":"BREWERS RESTAURANT AND SPORTS","Address":"2331 S Avenue B 101","City":"Yuma","State":"AZ","Zip":"85364"},{"Location":"BURGERS AND BEER","Address":"321 W 20th St","City":"Yuma","State":"AZ","Zip":"85364"},{"Location":"C&C AUTOBODY INC","Address":"850 S Arena Dr","City":"Yuma","State":"AZ","Zip":"85364"},{"Location":"CATHLENE MCDONALD DND","Address":"2244 S Avenue A","City":"Yuma","State":"AZ","Zip":"85364"},{"Location":"CHILE PEPPER","Address":"1030 W 24th St D","City":"Yuma","State":"AZ","Zip":"85364"},{"Location":"CHILI PEPPER","Address":"1030 W 24th St C","City":"Yuma","State":"AZ","Zip":"85364"},{"Location":"DA BOYZ","Address":"284 S Main St","City":"Yuma","State":"AZ","Zip":"85364"},{"Location":"DAVITA #2508 YUMA","Address":"2130 W 24th St","City":"Yuma","State":"AZ","Zip":"85364"},{"Location":"DAVITA #5463 YUMA III","Address":"1197 Redondo Dr","City":"Yuma","State":"AZ","Zip":"85364"},{"Location":"DERAILED SALOON","Address":"179 E 1st St","City":"Yuma","State":"AZ","Zip":"85364"},{"Location":"DIAMOND NAILS","Address":"2241 S Avenue A 13","City":"Yuma","State":"AZ","Zip":"85364"},{"Location":"DINAMIS BEAUTY SALON","Address":"356 W 24th St","City":"Yuma","State":"AZ","Zip":"85364"},{"Location":"DONOVAN LAW","Address":"212 S 2nd Ave","City":"Yuma","State":"AZ","Zip":"85364"},{"Location":"DR LYNN MORRISON","Address":"2025 S Arizona Ave","City":"Yuma","State":"AZ","Zip":"85364"},{"Location":"EL ZARAPE","Address":"1905 W 8th St","City":"Yuma","State":"AZ","Zip":"85364"},{"Location":"ESTRELLITA  RESTAURANT","Address":"2100 S 4th Ave 3","City":"Yuma","State":"AZ","Zip":"85364"},{"Location":"FARM HOUSE","Address":"2855 S 4th Ave 101","City":"Yuma","State":"AZ","Zip":"85364"},{"Location":"FAT HARVEY'S","Address":"303 W 26th St","City":"Yuma","State":"AZ","Zip":"85364"},{"Location":"FIREHOUSE SUBS","Address":"2886 S 4th Ave","City":"Yuma","State":"AZ","Zip":"85364"},{"Location":"FRANK AND SONS","Address":"1981 S Ave B","City":"Yuma","State":"AZ","Zip":"85364"},{"Location":"FRATERNAL ORDER OF EAGLE","Address":"225 S 1st Ave","City":"Yuma","State":"AZ","Zip":"85364"},{"Location":"FRIENDLY TAVERN","Address":"1949 S Arizona Ave","City":"Yuma","State":"AZ","Zip":"85364"},{"Location":"GARIBAY S TAX SOLUTIONS LLC","Address":"127 S Madison Ave","City":"Yuma","State":"AZ","Zip":"85364"},{"Location":"GET IT IN GEAR","Address":"2473 W 16th St","City":"Yuma","State":"AZ","Zip":"85364"},{"Location":"GONZALES MEDICAL CLINIC","Address":"2851 S Ave B","City":"Yuma","State":"AZ","Zip":"85364"},{"Location":"INCA LANES","Address":"1250 W 16th St","City":"Yuma","State":"AZ","Zip":"85364"},{"Location":"JIFFY LUBE","Address":"900 S 4th Ave","City":"Yuma","State":"AZ","Zip":"85364"},{"Location":"JIMMIE DEES","Address":"38 W 2nd St","City":"Yuma","State":"AZ","Zip":"85364"},{"Location":"KOOL SMILES YUMA","Address":"2383 W 24th St 120","City":"Yuma","State":"AZ","Zip":"85364"},{"Location":"LA FLOR RESTAURANT","Address":"1085 W 3rd St","City":"Yuma","State":"AZ","Zip":"85364"},{"Location":"LUCKY NAILS AND SPA","Address":"3970 W 24th St 110","City":"Yuma","State":"AZ","Zip":"85364"},{"Location":"MARIAS HAIRCUTTERS II","Address":"2742 W 16th St","City":"Yuma","State":"AZ","Zip":"85364"},{"Location":"MARTINDALE","Address":"1651 S Arizona Ave","City":"Yuma","State":"AZ","Zip":"85364"},{"Location":"MAVERICK INN","Address":"1460 S 4th Ave","City":"Yuma","State":"AZ","Zip":"85364"},{"Location":"MI RANCHO RESTAURANT","Address":"2701 S 4th Ave","City":"Yuma","State":"AZ","Zip":"85364"},{"Location":"MS OS LOOK SHARP BARBER","Address":"2500 S 4th Ave","City":"Yuma","State":"AZ","Zip":"85364"},{"Location":"OFF THE TOP","Address":"640 W Catalina Dr","City":"Yuma","State":"AZ","Zip":"85364"},{"Location":"P G NAILS","Address":"2574 W 16th St","City":"Yuma","State":"AZ","Zip":"85364"},{"Location":"PARTS FIT AUTO BODY PART","Address":"1041 S 4th Ave","City":"Yuma","State":"AZ","Zip":"85364"},{"Location":"PEDIATRIC DENTISTRY OF YUMA","Address":"2359 S 22nd Dr","City":"Yuma","State":"AZ","Zip":"85364"},{"Location":"PEPPBOYS","Address":"155 E 32nd St","City":"Yuma","State":"AZ","Zip":"85364"},{"Location":"PIZZA HUT-4TH AVE","Address":"1843 S 4th Ave","City":"Yuma","State":"AZ","Zip":"85364"},{"Location":"POP A TOP SALOON","Address":"2241 S Ave A","City":"Yuma","State":"AZ","Zip":"85364"},{"Location":"PRISON HILL BREWING CO","Address":"278 S Main St","City":"Yuma","State":"AZ","Zip":"85364"},{"Location":"RICKYS OTHER PLACE","Address":"3950 W 24th St","City":"Yuma","State":"AZ","Zip":"85364"},{"Location":"RISE INC","Address":"3619 W 12th Pl","City":"Yuma","State":"AZ","Zip":"85364"},{"Location":"ROCKYS PIZZA","Address":"2601 S 4th Ave","City":"Yuma","State":"AZ","Zip":"85364"},{"Location":"SAGE & SAND","Address":"2500 S 4th Ave 1","City":"Yuma","State":"AZ","Zip":"85364"},{"Location":"SNAP FITNESS #1169","Address":"3840 W 24th St","City":"Yuma","State":"AZ","Zip":"85364"},{"Location":"SPRAGUE SPORTS","Address":"345 W 32nd St","City":"Yuma","State":"AZ","Zip":"85364"},{"Location":"STAR NAILS & SPA","Address":"2375 S 4th Ave 1","City":"Yuma","State":"AZ","Zip":"85364"},{"Location":"SUPER SUDS LAUNDROMAT","Address":"1701 S Avebye V 105","City":"Yuma","State":"AZ","Zip":"85364"},{"Location":"THE PINT HOUSE BAR AND GRILL","Address":"265 S Main St A","City":"Yuma","State":"AZ","Zip":"85364"},{"Location":"UNDERHILL HOSPITALITY GROUP LL","Address":"284 S Main St","City":"Yuma","State":"AZ","Zip":"85364"},{"Location":"UYFFA STATION 1","Address":"353 S 3rd Ave","City":"Yuma","State":"AZ","Zip":"85364"},{"Location":"UYFFA STATION 4","Address":"2850 W 16th St","City":"Yuma","State":"AZ","Zip":"85364"},{"Location":"UYFFA STATION 6","Address":"3151 S Pinto Way","City":"Yuma","State":"AZ","Zip":"85364"},{"Location":"VILLAGE PIZZA","Address":"41 E 16th St","City":"Yuma","State":"AZ","Zip":"85364"},{"Location":"WENDYS1","Address":"351 E 16th St","City":"Yuma","State":"AZ","Zip":"85364"},{"Location":"WINGSTOP #857","Address":"290 W 32nd St","City":"Yuma","State":"AZ","Zip":"85364"},{"Location":"WOMEN'S HEALTH SPECIALIST","Address":"2911 S 8th Ave","City":"Yuma","State":"AZ","Zip":"85364"},{"Location":"YMCA","Address":"1917 E 32nd St","City":"Yuma","State":"AZ","Zip":"85364"},{"Location":"YUMA AUTO AND TRANS","Address":"841 S 20th Ave","City":"Yuma","State":"AZ","Zip":"85364"},{"Location":"YUMA DENSTRY 4 KIDS","Address":"2816 S Forth Ave  #c","City":"Yuma","State":"AZ","Zip":"85364"},{"Location":"YUMA DESAULT PLANT","Address":"7300 S Calle Agua Salada","City":"Yuma","State":"AZ","Zip":"85364"},{"Location":"YUMA LANDING CO","Address":"195 S 4th Ave","City":"Yuma","State":"AZ","Zip":"85364"},{"Location":"YUMA NEPHROLOGY","Address":"1220 W 24th St 1","City":"Yuma","State":"AZ","Zip":"85364"},{"Location":"YUMA PALACE LLC","Address":"350 E 32nd St","City":"Yuma","State":"AZ","Zip":"85364"}]