[{"Location":"ANTONIO UVAS PLLC","Address":"14300 W Granite Valley Dr B7","City":"Sun City","State":"AZ","Zip":"85375"},{"Location":"BANNER HEALTH CLINIC - SUN CIT","Address":"14420 W Meeker Blvd 200","City":"Sun City West","State":"AZ","Zip":"85375"},{"Location":"BDWMC PHYS LOUNGE","Address":"14502 W Meeker Blvd","City":"Sun City West","State":"AZ","Zip":"85375"},{"Location":"BEATRICE KELLER CLINIC","Address":"14506 W Granite Valley Dr 206","City":"Sun City West","State":"AZ","Zip":"85375"},{"Location":"BRADFORD  ENDODONTICS","Address":"13802 W Camino Del Sol 103","City":"Sun City West","State":"AZ","Zip":"85375"},{"Location":"CLASSIC AUTO WASH","Address":"13847 W Camino Del Sol","City":"Sun City West","State":"AZ","Zip":"85375"},{"Location":"DANA HOLDINGS","Address":"13529 W Camino Del Sol","City":"Sun City West","State":"AZ","Zip":"85375"},{"Location":"FMC 62540000","Address":"14510 W Shumway Dr 100","City":"Sun City West","State":"AZ","Zip":"85375"},{"Location":"HOLE IN ONE","Address":"13573 W Camino Del Sol","City":"Sun City West","State":"AZ","Zip":"85375"},{"Location":"KUENTZ AQUATICS","Address":"14401 W R H Johnson Blvd","City":"Sun City West","State":"AZ","Zip":"85375"},{"Location":"MARINER FINANCIAL","Address":"13843 W Meeker Blvd 101","City":"Sun City West","State":"AZ","Zip":"85375"},{"Location":"MUTUAL OF OMAHA BANK","Address":"19432 Rh Johnson Boulavavard","City":"Sun City West","State":"AZ","Zip":"85375"},{"Location":"NEW DAWN MEMORY CARE","Address":"12820 W Beardsley Rd","City":"Sun City West","State":"AZ","Zip":"85375"},{"Location":"PRIME WEALTH ADVISORS LLC%2C","Address":"13843 W Meeker Blvd 105","City":"Sun City West","State":"AZ","Zip":"85375"},{"Location":"RECREATION CENTERS OF SUN CITY","Address":"19803 N R H Johnson Blvd","City":"Sun City West","State":"AZ","Zip":"85375"},{"Location":"RECREATION CTRS OF SCW HEALTH","Address":"19803 N R H Johnson Blvd","City":"Sun City West","State":"AZ","Zip":"85375"},{"Location":"SAFEWAY 2054","Address":"13503 W Camino Del Sol","City":"Sun City West","State":"AZ","Zip":"85375"},{"Location":"SUN CITY WEST FITNESS PALM RID","Address":"13800 S Deer Valley Rd","City":"Sun City West","State":"AZ","Zip":"85375"},{"Location":"SUN WEST CHOICE HEALTH #2","Address":"14002 W Meeker Blvd","City":"Sun City West","State":"AZ","Zip":"85375"},{"Location":"SUN WEST CHOICE HEALTH CARE","Address":"14002 W Meeker Blvd","City":"Sun City West","State":"AZ","Zip":"85375"},{"Location":"SUN WEST CHOICE HEALTH CARE #3","Address":"14002 W Meeker Blvd","City":"Sun City West","State":"AZ","Zip":"85375"},{"Location":"THE CROOKED PUTTER","Address":"14260 W Meeker Blvd","City":"Sun City West","State":"AZ","Zip":"85375"},{"Location":"ANTONIO UVAS PLLC","Address":"14300 W Granite Valley Dr B7","City":"Sun City","State":"AZ","Zip":"85375"},{"Location":"BANNER HEALTH CLINIC - SUN CIT","Address":"14420 W Meeker Blvd 200","City":"Sun City West","State":"AZ","Zip":"85375"},{"Location":"BDWMC PHYS LOUNGE","Address":"14502 W Meeker Blvd","City":"Sun City West","State":"AZ","Zip":"85375"},{"Location":"BEATRICE KELLER CLINIC","Address":"14506 W Granite Valley Dr 206","City":"Sun City West","State":"AZ","Zip":"85375"},{"Location":"BRADFORD  ENDODONTICS","Address":"13802 W Camino Del Sol 103","City":"Sun City West","State":"AZ","Zip":"85375"},{"Location":"CLASSIC AUTO WASH","Address":"13847 W Camino Del Sol","City":"Sun City West","State":"AZ","Zip":"85375"},{"Location":"DANA HOLDINGS","Address":"13529 W Camino Del Sol","City":"Sun City West","State":"AZ","Zip":"85375"},{"Location":"FMC 62540000","Address":"14510 W Shumway Dr 100","City":"Sun City West","State":"AZ","Zip":"85375"},{"Location":"HOLE IN ONE","Address":"13573 W Camino Del Sol","City":"Sun City West","State":"AZ","Zip":"85375"},{"Location":"KUENTZ AQUATICS","Address":"14401 W R H Johnson Blvd","City":"Sun City West","State":"AZ","Zip":"85375"},{"Location":"MARINER FINANCIAL","Address":"13843 W Meeker Blvd 101","City":"Sun City West","State":"AZ","Zip":"85375"},{"Location":"MUTUAL OF OMAHA BANK","Address":"19432 Rh Johnson Boulavavard","City":"Sun City West","State":"AZ","Zip":"85375"},{"Location":"NEW DAWN MEMORY CARE","Address":"12820 W Beardsley Rd","City":"Sun City West","State":"AZ","Zip":"85375"},{"Location":"PRIME WEALTH ADVISORS LLC%2C","Address":"13843 W Meeker Blvd 105","City":"Sun City West","State":"AZ","Zip":"85375"},{"Location":"RECREATION CENTERS OF SUN CITY","Address":"19803 N R H Johnson Blvd","City":"Sun City West","State":"AZ","Zip":"85375"},{"Location":"RECREATION CTRS OF SCW HEALTH","Address":"19803 N R H Johnson Blvd","City":"Sun City West","State":"AZ","Zip":"85375"},{"Location":"SAFEWAY 2054","Address":"13503 W Camino Del Sol","City":"Sun City West","State":"AZ","Zip":"85375"},{"Location":"SUN CITY WEST FITNESS PALM RID","Address":"13800 S Deer Valley Rd","City":"Sun City West","State":"AZ","Zip":"85375"},{"Location":"SUN WEST CHOICE HEALTH #2","Address":"14002 W Meeker Blvd","City":"Sun City West","State":"AZ","Zip":"85375"},{"Location":"SUN WEST CHOICE HEALTH CARE","Address":"14002 W Meeker Blvd","City":"Sun City West","State":"AZ","Zip":"85375"},{"Location":"SUN WEST CHOICE HEALTH CARE #3","Address":"14002 W Meeker Blvd","City":"Sun City West","State":"AZ","Zip":"85375"},{"Location":"THE CROOKED PUTTER","Address":"14260 W Meeker Blvd","City":"Sun City West","State":"AZ","Zip":"85375"}]