[{"Location":"A. CLARK RUTTINGER  D.O","Address":"14961 W Bell Rd 125","City":"Surprise","State":"AZ","Zip":"85374"},{"Location":"ALL STYLEZ BARBERSHOP","Address":"15170 W Bell Rd 102","City":"Surprise","State":"AZ","Zip":"85374"},{"Location":"AMERICAN FAMILY INSURANCE","Address":"15170 W Bell Rd 106","City":"Surprise","State":"AZ","Zip":"85374"},{"Location":"ANGEL NAILS & SPA","Address":"16581 W Bell Rd 104","City":"Surprise","State":"AZ","Zip":"85374"},{"Location":"ANTONIO YU JR MD","Address":"13945 W Grand Ave 102","City":"Surprise","State":"AZ","Zip":"85374"},{"Location":"APPLEBEE'S #517 GRAND & BELL","Address":"13756 W Bell Rd","City":"Surprise","State":"AZ","Zip":"85374"},{"Location":"ARCHIES DELI","Address":"15332 W Bell Rd 101","City":"Surprise","State":"AZ","Zip":"85374"},{"Location":"ARIZONA TRADITION  HOA","Address":"17221 N Citrus Rd","City":"Surprise","State":"AZ","Zip":"85374"},{"Location":"BABBO ITALIAN EATERY","Address":"15609 W Bell Rd","City":"Surprise","State":"AZ","Zip":"85374"},{"Location":"BAILEY ORTHODONTICS","Address":"14997 W Bell Rd 150","City":"Surprise","State":"AZ","Zip":"85374"},{"Location":"BARNET DULANEY PERKINS EYE CTR","Address":"14239 W Bell Rd 216","City":"Surprise","State":"AZ","Zip":"85374"},{"Location":"BARROS PIZZA","Address":"15403 W Greenway Rd","City":"Surprise","State":"AZ","Zip":"85374"},{"Location":"BBVA BELL & GRAND","Address":"13735 W Bell Rd","City":"Surprise","State":"AZ","Zip":"85374"},{"Location":"BOOTYS","Address":"15557 W Bell Rd 405","City":"Surprise","State":"AZ","Zip":"85374"},{"Location":"BROOKSIDE II","Address":"15170 W Bell Rd 115","City":"Surprise","State":"AZ","Zip":"85374"},{"Location":"BUFFALO WILD WINGS #0460","Address":"13864 W Bell Rd","City":"Surprise","State":"AZ","Zip":"85374"},{"Location":"BURGER KING","Address":"14535 W Grand Ave","City":"Surprise","State":"AZ","Zip":"85374"},{"Location":"CARAMBA FRESH MEXICAN GRILL","Address":"17239 N Litchfield Rd","City":"Surprise","State":"AZ","Zip":"85374"},{"Location":"CARRABBA'S ITALIAN GRILL #5306","Address":"14043 W Bell Rd","City":"Surprise","State":"AZ","Zip":"85374"},{"Location":"CARTRIDGE WORLD2","Address":"17173 N Litchfield Rd 39","City":"Surprise","State":"AZ","Zip":"85374"},{"Location":"CHILI'S #1153","Address":"13765 W Bell Rd","City":"Surprise","State":"AZ","Zip":"85374"},{"Location":"CIGNA HEALTH CARE","Address":"13991 W Grand Ave","City":"Surprise","State":"AZ","Zip":"85374"},{"Location":"CITY OF SURPRISE TENNIS CENTER","Address":"14469 W Paradise Ln","City":"Surprise","State":"AZ","Zip":"85374"},{"Location":"CITY OF SURPRISES EOC","Address":"14250 W Statler Plz 101","City":"Surprise","State":"AZ","Zip":"85374"},{"Location":"COBBLESTONE AUTO SPA","Address":"13811 W Bell Rd","City":"Surprise","State":"AZ","Zip":"85374"},{"Location":"COCOS  SURPRISE","Address":"15955 W Clearview Blvd","City":"Surprise","State":"AZ","Zip":"85374"},{"Location":"DENNYS","Address":"14799 W Grand Ave","City":"Surprise","State":"AZ","Zip":"85374"},{"Location":"DENO'S PIZZA","Address":"14515 W Grand Ave","City":"Surprise","State":"AZ","Zip":"85374"},{"Location":"DUNKIN DONUTS","Address":"17031 W Bell Rd","City":"Surprise","State":"AZ","Zip":"85374"},{"Location":"E AND V INVESTMENTS","Address":"13985 W Grand Ave","City":"Surprise","State":"AZ","Zip":"85374"},{"Location":"ELLE NAILS","Address":"14455 W Grand Ave 101","City":"Surprise","State":"AZ","Zip":"85374"},{"Location":"EXECUTIVE CUTS","Address":"15557 W Bell Rd 401","City":"Surprise","State":"AZ","Zip":"85374"},{"Location":"FIRESTONE 301702","Address":"17038 W Bell Rd","City":"Surprise","State":"AZ","Zip":"85374"},{"Location":"FLETCHERS TIRE AND AUTO","Address":"18625 N Reems Rd","City":"Surprise","State":"AZ","Zip":"85374"},{"Location":"FRESH WASABI","Address":"13732 W Bell Rd 2","City":"Surprise","State":"AZ","Zip":"85374"},{"Location":"FUZZYS SW BAR AND GRILL","Address":"18795 N Reems Rd 109","City":"Surprise","State":"AZ","Zip":"85374"},{"Location":"GARRETT FAMILY DENTISTRY","Address":"15009 W Bell Rd","City":"Surprise","State":"AZ","Zip":"85374"},{"Location":"GREAT EAGLE GOLF CLUB","Address":"17200 W Bell Rd","City":"Surprise","State":"AZ","Zip":"85374"},{"Location":"HATTEN HOLDING","Address":"15455 W Bell Rd","City":"Surprise","State":"AZ","Zip":"85374"},{"Location":"HAYASHI HIBACHI","Address":"13823 W Bell Rd","City":"Surprise","State":"AZ","Zip":"85374"},{"Location":"IRISH WOLFHOUND RESTAURANT","Address":"16811 N Litchfield Rd 102","City":"Surprise","State":"AZ","Zip":"85374"},{"Location":"JERSEY MIKES SUBS 9020","Address":"14071 W Bell Rd 104","City":"Surprise","State":"AZ","Zip":"85374"},{"Location":"JIFFY LUBE #3224","Address":"16875 N Reems Rd","City":"Surprise","State":"AZ","Zip":"85374"},{"Location":"KOHL'S 10622","Address":"14020 W Bell Rd","City":"Surprise","State":"AZ","Zip":"85374"},{"Location":"LINKS NEIGHBORHOOD GRILLE","Address":"17300 N Sun Village Pkwy V","City":"Surprise","State":"AZ","Zip":"85374"},{"Location":"LONGHORN STEAKHOUSE #5477","Address":"14127 W Bell Rd","City":"Surprise","State":"AZ","Zip":"85374"},{"Location":"LUCKYS PIZZA","Address":"15508 W Bell Rd","City":"Surprise","State":"AZ","Zip":"85374"},{"Location":"MACAYO RESTAURANT  LLC","Address":"15565 W Bell Rd","City":"Surprise","State":"AZ","Zip":"85374"},{"Location":"MARLEYS RESTAURANT","Address":"15226 W Bell Rd 100","City":"Surprise","State":"AZ","Zip":"85374"},{"Location":"NATURAL TOUCH NAIL","Address":"13761 W Bell Rd","City":"Surprise","State":"AZ","Zip":"85374"},{"Location":"NEW YORK FLAVOR 1","Address":"15170 W Bell Rd","City":"Surprise","State":"AZ","Zip":"85374"},{"Location":"NEXTCARE URGENT CARE","Address":"14800 W Mountain View Blvd 190","City":"Surprise","State":"AZ","Zip":"85374"},{"Location":"NICKS DINER","Address":"15693 N Reems Rd 113","City":"Surprise","State":"AZ","Zip":"85374"},{"Location":"NYPD PIZZA LLC","Address":"13980 W Bell Rd 2","City":"Surprise","State":"AZ","Zip":"85374"},{"Location":"OLIVE GARDEN #1627","Address":"13379 W Grand Ave","City":"Surprise","State":"AZ","Zip":"85374"},{"Location":"OUTBACK STEAKHOUSE #0323","Address":"14225 W Grand Ave","City":"Surprise","State":"AZ","Zip":"85374"},{"Location":"PERFORMANCE PHYSICAL THERAPY","Address":"13933 W Grand Ave 301","City":"Surprise","State":"AZ","Zip":"85374"},{"Location":"RADIANT CHURCH","Address":"15522 W Paradise Ln","City":"Surprise","State":"AZ","Zip":"85374"},{"Location":"RED LOBSTER #6288","Address":"13709 W Bell Rd","City":"Surprise","State":"AZ","Zip":"85374"},{"Location":"RED ROBIN #422","Address":"14015 W Bell Rd","City":"Surprise","State":"AZ","Zip":"85374"},{"Location":"RIO MIRAGE CAFE","Address":"13863 W Bell Rd","City":"Surprise","State":"AZ","Zip":"85374"},{"Location":"RITO NORTE MEXICAN FOOD","Address":"15643 N Reems Rd 106","City":"Surprise","State":"AZ","Zip":"85374"},{"Location":"RUMORS SPORTS BAR","Address":"16846 W Bell Rd","City":"Surprise","State":"AZ","Zip":"85374"},{"Location":"SAFEWAY 1997","Address":"17049 W Bell Rd","City":"Surprise","State":"AZ","Zip":"85374"},{"Location":"SAIGON KITCHEN","Address":"14071 W Bell Rd 101","City":"Surprise","State":"AZ","Zip":"85374"},{"Location":"SALON","Address":"15643 N Reems Rd","City":"Surprise","State":"AZ","Zip":"85374"},{"Location":"SAMS CLUB","Address":"16573 W Bell Rd","City":"Surprise","State":"AZ","Zip":"85374"},{"Location":"SCOTTRADE 02L","Address":"13869 W Bell Rd 105","City":"Surprise","State":"AZ","Zip":"85374"},{"Location":"SPORT CLIPS","Address":"16581 W Bell Rd 102","City":"Surprise","State":"AZ","Zip":"85374"},{"Location":"SURPRISE NAILS","Address":"15609 W Bell Rd 110","City":"Surprise","State":"AZ","Zip":"85374"},{"Location":"TAILGATERS & IL PRIMO","Address":"15529 W Bell Rd","City":"Surprise","State":"AZ","Zip":"85374"},{"Location":"TEXAS RANGERS","Address":"15754 N Bullard Ave","City":"Surprise","State":"AZ","Zip":"85374"},{"Location":"UNI SUSHI AND STEAK","Address":"17191 N Litchfield Rd","City":"Surprise","State":"AZ","Zip":"85374"},{"Location":"US PIZZA 2","Address":"15459 W Bell Rd","City":"Surprise","State":"AZ","Zip":"85374"},{"Location":"VILLAGE INN 110835","Address":"14539 W Grand Ave","City":"Surprise","State":"AZ","Zip":"85374"},{"Location":"WEST END BAR AND GRILL","Address":"14051 W Grand Ave","City":"Surprise","State":"AZ","Zip":"85374"},{"Location":"WILD NAIL","Address":"15643 N Reems Rd 104","City":"Surprise","State":"AZ","Zip":"85374"}]