[{"Location":"EDWARD JONES","Address":"10451 W Palmeras Dr 102e","City":"Sun City","State":"AZ","Zip":"85373"},{"Location":"ELKS 2559 SUN CITY","Address":"10760 W Union Hills Dr","City":"Sun City","State":"AZ","Zip":"85373"},{"Location":"PARADISE R V RESORT","Address":"10950 W Union Hills Dr","City":"Sun City","State":"AZ","Zip":"85373"},{"Location":"SUN CITY FIRE DEPARTMENT ADMIN","Address":"18602 N 99th Ave","City":"Sun City","State":"AZ","Zip":"85373"},{"Location":"TREE RINGS LLC","Address":"17220 N Boswell Blvd 212-w","City":"Sun City","State":"AZ","Zip":"85373"},{"Location":"EDWARD JONES","Address":"10451 W Palmeras Dr 102e","City":"Sun City","State":"AZ","Zip":"85373"},{"Location":"ELKS 2559 SUN CITY","Address":"10760 W Union Hills Dr","City":"Sun City","State":"AZ","Zip":"85373"},{"Location":"PARADISE R V RESORT","Address":"10950 W Union Hills Dr","City":"Sun City","State":"AZ","Zip":"85373"},{"Location":"SUN CITY FIRE DEPARTMENT ADMIN","Address":"18602 N 99th Ave","City":"Sun City","State":"AZ","Zip":"85373"},{"Location":"TREE RINGS LLC","Address":"17220 N Boswell Blvd 212-w","City":"Sun City","State":"AZ","Zip":"85373"}]