[{"Location":"ABSOLUTELY CASUAL","Address":"12751 W Bell Rd 16","City":"Surprise","State":"AZ","Zip":"85378"},{"Location":"ANNS ASIAN BISTRO","Address":"11340 W Bell Rd","City":"Surprise","State":"AZ","Zip":"85378"},{"Location":"FIRESTONE #011908","Address":"11541 W Bell Rd","City":"Surprise","State":"AZ","Zip":"85378"},{"Location":"GOODYEAR 8235","Address":"12875 W Bell Rd","City":"Surprise","State":"AZ","Zip":"85378"},{"Location":"HURRICANE GRILL & WINGS","Address":"11340 W Bell Rd 114","City":"Surprise","State":"AZ","Zip":"85378"},{"Location":"JONES TRB INVESTMENTS","Address":"12845 W Bell Rd","City":"Surprise","State":"AZ","Zip":"85378"},{"Location":"KD CYCLES","Address":"13128 W Foxfire Dr 109","City":"Surprise","State":"AZ","Zip":"85378"},{"Location":"LOU'S TIVOLI GARDENS","Address":"12555 W Bell Rd","City":"Surprise","State":"AZ","Zip":"85378"},{"Location":"MAX AUTOMOTIVE","Address":"13431 W Westgate Dr","City":"Surprise","State":"AZ","Zip":"85378"},{"Location":"MI CASA MOBILE HOME-RV","Address":"16050 N Church St 1","City":"Surprise","State":"AZ","Zip":"85378"},{"Location":"NORTH BAY HOLDING CO","Address":"11503 W Bell Rd","City":"Surprise","State":"AZ","Zip":"85378"},{"Location":"PETER PIPER PIZZA # 139","Address":"12851 W Bell Rd 20","City":"Surprise","State":"AZ","Zip":"85378"},{"Location":"PHOENIX COMMUNICATION","Address":"13260 W Foxfire Dr","City":"Surprise","State":"AZ","Zip":"85378"},{"Location":"QUILCEDA 4","Address":"12350 W Bola Dr","City":"Surprise","State":"AZ","Zip":"85378"},{"Location":"QUILCEDA I","Address":"12350 W Bola Dr","City":"Surprise","State":"AZ","Zip":"85378"},{"Location":"QUILCEDA III","Address":"12350 W Bola Dr","City":"Surprise","State":"AZ","Zip":"85378"},{"Location":"REAL LIFE MINISTRIES","Address":"13174 W Foxfire Dr","City":"Surprise","State":"AZ","Zip":"85378"},{"Location":"RUNNERS SPORTS BAR","Address":"12751 W Bell Rd 117","City":"Surprise","State":"AZ","Zip":"85378"},{"Location":"SHAMROCK BUSINESS","Address":"12129 W Bell Rd","City":"Surprise","State":"AZ","Zip":"85378"},{"Location":"SUPRISE ARIZONA AERIE 4534 FOE","Address":"13410 W Foxfire Dr 102","City":"Surprise","State":"AZ","Zip":"85378"},{"Location":"SURPRISE HOOKAH LOUNGE","Address":"12751 W Bell Rd 11","City":"Surprise","State":"AZ","Zip":"85378"},{"Location":"TAX N VESTORS INC","Address":"12213 W Bell Rd 115","City":"Surprise","State":"AZ","Zip":"85378"},{"Location":"TNT CAR WASH","Address":"17070 N 134th Dr","City":"Surprise","State":"AZ","Zip":"85378"}]