[{"Location":"ACE SALES AND MARKETING","Address":"14584 W Acapulco Ln","City":"Surprise","State":"AZ","Zip":"85379"},{"Location":"BARBER ES SHOP","Address":"14763 W Cactus Rd 119","City":"Surprise","State":"AZ","Zip":"85379"},{"Location":"CSM NATURALS","Address":"16203 W Winchcomb Dr","City":"Surprise","State":"AZ","Zip":"85379"},{"Location":"GABRIELA MINI STORAGE","Address":"10812 N Bullard Ave","City":"Surprise","State":"AZ","Zip":"85379"},{"Location":"JOEYS OF CHICAGO","Address":"13761 N Litchfield Rd 103","City":"Surprise","State":"AZ","Zip":"85379"},{"Location":"KOHL'S #1231","Address":"15357 W Cactus Rd","City":"Surprise","State":"AZ","Zip":"85379"},{"Location":"LAS FUENTES MEXICAN GRILL& BAR","Address":"13621 N Litchfield Rd","City":"Surprise","State":"AZ","Zip":"85379"},{"Location":"LE NAILS WORK","Address":"13794 W Waddell Rd B200","City":"Surprise","State":"AZ","Zip":"85379"},{"Location":"MY NAIL SPA","Address":"15423 W Waddell Rd","City":"Surprise","State":"AZ","Zip":"85379"},{"Location":"NAIL TOUCH BY KIM INC","Address":"13954 W Waddell Rd 102","City":"Surprise","State":"AZ","Zip":"85379"},{"Location":"NATIVE NEW YORKER","Address":"13929 W Waddell Rd","City":"Surprise","State":"AZ","Zip":"85379"},{"Location":"OFFICE CONNECTION","Address":"15411 W Waddell Rd 102","City":"Surprise","State":"AZ","Zip":"85379"},{"Location":"SAFEWAY 2699","Address":"13828 W Waddell Rd","City":"Surprise","State":"AZ","Zip":"85379"},{"Location":"SPORT CLIPS AZ112","Address":"13755 N Litchfield Rd 107","City":"Surprise","State":"AZ","Zip":"85379"},{"Location":"UPTOWN ALLEY SURPRISE AZ","Address":"13525 N Litchfield Rd","City":"Surprise","State":"AZ","Zip":"85379"},{"Location":"VOGUE BISTRO","Address":"15411 W Waddell Rd 108","City":"Surprise","State":"AZ","Zip":"85379"}]