[{"Location":"WALKER LAWN AND HOME SER","Address":"37417 N Tomdarlington Dr","City":"Cafren","State":"AZ","Zip":"85377"},{"Location":"GARCIEAS","Address":"7212 E Ho Rd","City":"Care Free","State":"AZ","Zip":"85377"},{"Location":"AMERICAN FEDERAL","Address":"500 Easy St","City":"Carefree","State":"AZ","Zip":"85377"},{"Location":"BARTLETT LAKE MARINA","Address":"20808 Bartlett Dam Rd","City":"Carefree","State":"AZ","Zip":"85377"},{"Location":"BUTTERCUP INTERIOR","Address":"7840 E. Carefree Drive","City":"Carefree","State":"AZ","Zip":"85377"},{"Location":"CAREFREE MAL","Address":"7886 E Breathless Dr","City":"Carefree","State":"AZ","Zip":"85377"},{"Location":"CLARKE ADVISORS LLC PRIVAT","Address":"7275 East Easy St #107","City":"Carefree","State":"AZ","Zip":"85377"},{"Location":"HELLENS HAIR DESIGNS","Address":"7275 East Easy St","City":"Carefree","State":"AZ","Zip":"85377"},{"Location":"HOLMES CONSTRUCTION","Address":"11 Sundial Cir 16","City":"Carefree","State":"AZ","Zip":"85377"},{"Location":"M AND B ENTERPRISES","Address":"7202 E Carefree Dr 2b","City":"Carefree","State":"AZ","Zip":"85377"},{"Location":"MARKS VILLAGE SQ BARBER SHOP","Address":"7202      E Ho-rd #a-3 A-3","City":"Carefree","State":"AZ","Zip":"85377"},{"Location":"SUNDIAL CAFE","Address":"7 Sundial Circle","City":"Carefree","State":"AZ","Zip":"85377"},{"Location":"THE BOULDERS RESORT","Address":"34631 N Tom Darlington","City":"Carfree","State":"AZ","Zip":"85377"},{"Location":"WALKER LAWN AND HOME SER","Address":"37417 N Tomdarlington Dr","City":"Cafren","State":"AZ","Zip":"85377"},{"Location":"GARCIEAS","Address":"7212 E Ho Rd","City":"Care Free","State":"AZ","Zip":"85377"},{"Location":"AMERICAN FEDERAL","Address":"500 Easy St","City":"Carefree","State":"AZ","Zip":"85377"},{"Location":"BARTLETT LAKE MARINA","Address":"20808 Bartlett Dam Rd","City":"Carefree","State":"AZ","Zip":"85377"},{"Location":"BUTTERCUP INTERIOR","Address":"7840 E. Carefree Drive","City":"Carefree","State":"AZ","Zip":"85377"},{"Location":"CAREFREE MAL","Address":"7886 E Breathless Dr","City":"Carefree","State":"AZ","Zip":"85377"},{"Location":"CLARKE ADVISORS LLC PRIVAT","Address":"7275 East Easy St #107","City":"Carefree","State":"AZ","Zip":"85377"},{"Location":"HELLENS HAIR DESIGNS","Address":"7275 East Easy St","City":"Carefree","State":"AZ","Zip":"85377"},{"Location":"HOLMES CONSTRUCTION","Address":"11 Sundial Cir 16","City":"Carefree","State":"AZ","Zip":"85377"},{"Location":"M AND B ENTERPRISES","Address":"7202 E Carefree Dr 2b","City":"Carefree","State":"AZ","Zip":"85377"},{"Location":"MARKS VILLAGE SQ BARBER SHOP","Address":"7202      E Ho-rd #a-3 A-3","City":"Carefree","State":"AZ","Zip":"85377"},{"Location":"SUNDIAL CAFE","Address":"7 Sundial Circle","City":"Carefree","State":"AZ","Zip":"85377"},{"Location":"VENUES CAFE","Address":"34 Easy St 2000","City":"Carefree","State":"AZ","Zip":"85377"},{"Location":"THE BOULDERS RESORT","Address":"34631 N Tom Darlington","City":"Carfree","State":"AZ","Zip":"85377"}]