[{"Location":"BARROS LAKE PLEASANT","Address":"24762 N Lake Pleasant Pkwy 107","City":"Peoria","State":"AZ","Zip":"85383"},{"Location":"BLACKSTONE COUNTRY CLUB","Address":"12101 W Blackstone Dr","City":"Peoria","State":"AZ","Zip":"85383"},{"Location":"BURTON PEST CONTROL","Address":"25903 N 83rd Dr","City":"Peoria","State":"AZ","Zip":"85383"},{"Location":"CHILI'S #1307","Address":"10040 W Happy Valley Rd","City":"Peoria","State":"AZ","Zip":"85383"},{"Location":"CHRIST'S CHURCH OF THE VALLEY","Address":"7007 W Happy Valley Rd 700","City":"Peoria","State":"AZ","Zip":"85383"},{"Location":"CRSI","Address":"10004 W Mariposa Grande","City":"Peoria","State":"AZ","Zip":"85383"},{"Location":"DUNKIN DONUTS","Address":"9940 W Happy Valley Rd","City":"Peoria","State":"AZ","Zip":"85383"},{"Location":"HAYMAKER","Address":"24762 N Lake Pleasant Pkwy","City":"Peoria","State":"AZ","Zip":"85383"},{"Location":"HERBAL NAIL BAR","Address":"9785 W Happy Valley Rd","City":"Peoria","State":"AZ","Zip":"85383"},{"Location":"KNOCKOUT FITNESS","Address":"10006 W Happy Valley Rd 1201","City":"Peoria","State":"AZ","Zip":"85383"},{"Location":"KOHL'S #1084","Address":"10072 W Happy Valley Rd","City":"Peoria","State":"AZ","Zip":"85383"},{"Location":"LAKE PLEASANT ORTHODONTIC","Address":"10006 W Happy Valley Rd 1220","City":"Peoria","State":"AZ","Zip":"85383"},{"Location":"LAKESIDE BAR & GRILL","Address":"9980 W Happy Valley Rd 1101","City":"Peoria","State":"AZ","Zip":"85383"},{"Location":"LORI ANDRUS","Address":"8468 W Maya Dr","City":"Peoria","State":"AZ","Zip":"85383"},{"Location":"LWS HID A WAY LLC","Address":"9098 W Pinnacle Peak Rd","City":"Peoria","State":"AZ","Zip":"85383"},{"Location":"MCDONALDS","Address":"24710 N Lake Pleasant Pkwy","City":"Peoria","State":"AZ","Zip":"85383"},{"Location":"MOUNTAIN SIDE FITNESS PEORIA","Address":"9745 W Happy Valley Rd","City":"Peoria","State":"AZ","Zip":"85383"},{"Location":"ORION  HOMES","Address":"6786 W Remuda Dr","City":"Peoria","State":"AZ","Zip":"85383"},{"Location":"OSR PHYSICAL THERAPY","Address":"9784 W Yearling Rd B1520","City":"Peoria","State":"AZ","Zip":"85383"},{"Location":"PEORIA FIRE STATION 199","Address":"40202 N 87th Ave","City":"Peoria","State":"AZ","Zip":"85383"},{"Location":"PLEASANT HARBOR MARINA","Address":"40202 N 87th Ave","City":"Peoria","State":"AZ","Zip":"85383"},{"Location":"PLEASANT HARBOR RV RESORT","Address":"8708 W Harbor Blvd","City":"Peoria","State":"AZ","Zip":"85383"},{"Location":"QUINTERO GOLF & COUNTRY","Address":"16752 W State Route 74","City":"Peoria","State":"AZ","Zip":"85383"},{"Location":"SAFEWAY 2799","Address":"28455 N Vistancia Blvd","City":"Peoria","State":"AZ","Zip":"85383"},{"Location":"SQUID INC","Address":"9947 W Happy Valley Rd","City":"Peoria","State":"AZ","Zip":"85383"},{"Location":"SUSHI DORAKU","Address":"9940 W Happy Valley Rd 1060","City":"Peoria","State":"AZ","Zip":"85383"},{"Location":"TOP SHELF","Address":"21910 N 83rd Ave","City":"Peoria","State":"AZ","Zip":"85383"},{"Location":"TRILOGY %40 VISTANCIA","Address":"27980 N Trilogy Blvd 101","City":"Peoria","State":"AZ","Zip":"85383"},{"Location":"TRILOGY AT VISTANCIA ASSOC","Address":"27980 N Trilogy Blvd 102","City":"Peoria","State":"AZ","Zip":"85383"},{"Location":"TWISTED ITALIAN","Address":"9940 W Happy Valley Rd","City":"Peoria","State":"AZ","Zip":"85383"}]