[{"Location":"83RD AVE & THUNDERBIRD","Address":"14155 N 83rd Ave 101","City":"Peoria","State":"AZ","Zip":"85381"},{"Location":"ALLIANCE GLASS LLC","Address":"9132 W Cactus Rd R","City":"Peoria","State":"AZ","Zip":"85381"},{"Location":"AM PM AIR CONDITIONING","Address":"8708 W Thunderbird Rd 2","City":"Peoria","State":"AZ","Zip":"85381"},{"Location":"ASSOCIATED RETINA CONSUL","Address":"15353 N 91st Ave","City":"Peoria","State":"AZ","Zip":"85381"},{"Location":"BARRO'S PIZZA #6","Address":"8390 W Cactus Rd","City":"Peoria","State":"AZ","Zip":"85381"},{"Location":"BBVA 75TH & THUNDERBIRD","Address":"13950 N 75th Dr","City":"Peoria","State":"AZ","Zip":"85381"},{"Location":"BOM BOBA","Address":"7521 W Cactus Rd 101","City":"Peoria","State":"AZ","Zip":"85381"},{"Location":"BURGER KING #13920","Address":"8425 W Thunderbird Rd","City":"Peoria","State":"AZ","Zip":"85381"},{"Location":"CAPITAL MONEY MGT","Address":"13460 N 94th Dr H1b","City":"Peoria","State":"AZ","Zip":"85381"},{"Location":"CITY OF PEORIA","Address":"8866 W Thunderbird Rd","City":"Peoria","State":"AZ","Zip":"85381"},{"Location":"CONCENTRA","Address":"14155 N 83rd Ave 148","City":"Peoria","State":"AZ","Zip":"85381"},{"Location":"D BAT","Address":"8716 W Ludlow Dr 17","City":"Peoria","State":"AZ","Zip":"85381"},{"Location":"DAVITA #5181 SWEETWATER RIDGE","Address":"7362 W Thunderbird Rd 104","City":"Peoria","State":"AZ","Zip":"85381"},{"Location":"DILLON'S RESTAURANT","Address":"8706 W Thunderbird Rd","City":"Peoria","State":"AZ","Zip":"85381"},{"Location":"DUNKIN DONUTS","Address":"8386 W Thunderbird Rd","City":"Peoria","State":"AZ","Zip":"85381"},{"Location":"FILIBERTO MEXICAN FOOD","Address":"13972 N 83rd Ave","City":"Peoria","State":"AZ","Zip":"85381"},{"Location":"FMC 62440000","Address":"13090 N 94th Dr","City":"Peoria","State":"AZ","Zip":"85381"},{"Location":"FUNUGYZ SPORTS GRILL","Address":"8378 W Thunderbird Rd B101","City":"Peoria","State":"AZ","Zip":"85381"},{"Location":"GRAND AVENUE PRODUCE CO","Address":"8990 W Windsor Dr","City":"Peoria","State":"AZ","Zip":"85381"},{"Location":"HANDWERKER - WINBURNE%2C INC","Address":"8925 W Larkspur Dr 110","City":"Peoria","State":"AZ","Zip":"85381"},{"Location":"HOSPICE A","Address":"12760 Plaza Del Reo Blvd","City":"Peoria","State":"AZ","Zip":"85381"},{"Location":"INTO THE WOODS LLC","Address":"7557 W Greenway Rd 103","City":"Peoria","State":"AZ","Zip":"85381"},{"Location":"JIFFY LUBE #1730","Address":"7475 W Cactus Rd","City":"Peoria","State":"AZ","Zip":"85381"},{"Location":"KABUKI SUSHI & GRILL","Address":"8378 W Thunderbird Rd B107","City":"Peoria","State":"AZ","Zip":"85381"},{"Location":"MOCK AND ASSOCIATES","Address":"8263 W Thunderbird Rd 120","City":"Peoria","State":"AZ","Zip":"85381"},{"Location":"N VALLEY SPORTS CARD","Address":"8877b W Thunderbird Rd","City":"Peoria","State":"AZ","Zip":"85381"},{"Location":"NUMBER 1 BROTHERS PIZZA","Address":"7440 W Cactus Rd A15","City":"Peoria","State":"AZ","Zip":"85381"},{"Location":"PEORIA HEALTHY SMILES","Address":"13660 N 94th Dr E3","City":"Peoria","State":"AZ","Zip":"85381"},{"Location":"PRO NAIL BY ANDY","Address":"13875 N 83rd Ave","City":"Peoria","State":"AZ","Zip":"85381"},{"Location":"QUALITY BUMPER","Address":"8736 W Thunderbird Rd St1","City":"Peoria","State":"AZ","Zip":"85381"},{"Location":"SILVERADO PEORIA","Address":"13391 N 94th Dr","City":"Peoria","State":"AZ","Zip":"85381"},{"Location":"SKY ZONE","Address":"9040 W Larkspur Dr","City":"Peoria","State":"AZ","Zip":"85381"},{"Location":"STEVEN CRAZY NAILS","Address":"7549 W Cactus Rd 100","City":"Peoria","State":"AZ","Zip":"85381"},{"Location":"SUN CITY MODERN DENTISTR","Address":"13360 N 94th Dr B1","City":"Peoria","State":"AZ","Zip":"85381"},{"Location":"SW KIDNEY INSTITUTE","Address":"7362 W Thunderbird Rd 101","City":"Peoria","State":"AZ","Zip":"85381"},{"Location":"XINXIN LLC","Address":"7518 W Thunderbird Rd 3","City":"Peoria","State":"AZ","Zip":"85381"}]