[{"Location":"7707 DEER VALLEY%2C LLC.","Address":"7707 W Deer Valley Rd 115","City":"Peoria","State":"AZ","Zip":"85382"},{"Location":"ABUELO'S MEXICAN FOOD EMBASSY","Address":"16092 N Arrowhead Fountains Ctr","City":"Peoria","State":"AZ","Zip":"85382"},{"Location":"AH SO SUSHI & STEAK","Address":"16610 N 75th Ave 104","City":"Peoria","State":"AZ","Zip":"85382"},{"Location":"AMBASSADOR FINE","Address":"16610 N 75th Ave 101","City":"Peoria","State":"AZ","Zip":"85382"},{"Location":"APPLEBEE'S #505 83RD & BELL","Address":"8001 W Bell Rd","City":"Peoria","State":"AZ","Zip":"85382"},{"Location":"ARROWHEAD CADILLAC","Address":"8310 W Bell Rd","City":"Peoria","State":"AZ","Zip":"85382"},{"Location":"ARROWHEAD HONDA","Address":"8380 W Bell Rd","City":"Peoria","State":"AZ","Zip":"85382"},{"Location":"ARROWHEAD LEXUS","Address":"9238 W Bell Rd","City":"Peoria","State":"AZ","Zip":"85382"},{"Location":"AUDI PEORIA","Address":"16900 N 88th Drive","City":"Peoria","State":"AZ","Zip":"85382"},{"Location":"BARREL GRILL & MODERN","Address":"15703 N 83rd Ave 110","City":"Peoria","State":"AZ","Zip":"85382"},{"Location":"BBVA LAKE PLEASANT","Address":"20263 N Lake Pleasant Rd","City":"Peoria","State":"AZ","Zip":"85382"},{"Location":"BEEBE PLUMBING INC","Address":"19155 N 83rd Ave","City":"Peoria","State":"AZ","Zip":"85382"},{"Location":"BRADY GROUP1","Address":"8940 W Bell Rd B107","City":"Peoria","State":"AZ","Zip":"85382"},{"Location":"BUCA DI BEPPO #304","Address":"16091 N Arrwhd Ftns Dr","City":"Peoria","State":"AZ","Zip":"85382"},{"Location":"BURGER KING","Address":"21551 N Lake Pleasant Pkwy","City":"Peoria","State":"AZ","Zip":"85382"},{"Location":"CARDINALEWAY MAZDA AT PEORIA","Address":"8424 W Bell Rd","City":"Peoria","State":"AZ","Zip":"85382"},{"Location":"CHEEZHEADZ WINNING PIZZA","Address":"20283 N Lake Pleasant Rd 110","City":"Peoria","State":"AZ","Zip":"85382"},{"Location":"CHILI'S #0350","Address":"7717 W Bell Rd","City":"Peoria","State":"AZ","Zip":"85382"},{"Location":"CHOIS TAEKWONDO ACADEMY","Address":"9001 W Union Hills Dr 1","City":"Peoria","State":"AZ","Zip":"85382"},{"Location":"CIGNA HEALTH-ARROWHEAD","Address":"21731 N 77th Ave 1300","City":"Peoria","State":"AZ","Zip":"85382"},{"Location":"COCK DIESEL","Address":"15814 N 83rd Ave","City":"Peoria","State":"AZ","Zip":"85382"},{"Location":"COUSIN VINNYS PIZZA","Address":"8267 W Lake Pleasant Pkwy","City":"Peoria","State":"AZ","Zip":"85382"},{"Location":"CWF FINANCIAL","Address":"9200 W Union Hills Dr 102","City":"Peoria","State":"AZ","Zip":"85382"},{"Location":"DEMARCO%2FHALL LLC","Address":"8877 W Union Hills Dr","City":"Peoria","State":"AZ","Zip":"85382"},{"Location":"DESERT WEST OBGYN","Address":"7787 W Deer Valley Rd 296","City":"Peoria","State":"AZ","Zip":"85382"},{"Location":"EL CAMINERO MEX REST","Address":"8248 W Deer Valley Rd 102","City":"Peoria","State":"AZ","Zip":"85382"},{"Location":"ELEPHANT BAR PEORIA","Address":"16160 N 83rd Ave","City":"Peoria","State":"AZ","Zip":"85382"},{"Location":"FAMOUS DAVES","Address":"16148 N 83rd Ave","City":"Peoria","State":"AZ","Zip":"85382"},{"Location":"FAMOUS RAYS PIZZA","Address":"8385 W Deer Valley Rd","City":"Peoria","State":"AZ","Zip":"85382"},{"Location":"FIREBIRDS","Address":"16067 N Arrowhead Fountains Ctr Dr","City":"Peoria","State":"AZ","Zip":"85382"},{"Location":"FITNESS ONE-91ST AVE","Address":"9028 W Union Hills Dr 1","City":"Peoria","State":"AZ","Zip":"85382"},{"Location":"FREDERICOS","Address":"20429 N Lake Pleasant Rd","City":"Peoria","State":"AZ","Zip":"85382"},{"Location":"GOLFSMITH 0009","Address":"7765 W Bell Rd","City":"Peoria","State":"AZ","Zip":"85382"},{"Location":"GOODWRENCH AUTO BODY CENTER","Address":"17311 N 91st Ave","City":"Peoria","State":"AZ","Zip":"85382"},{"Location":"HARLEY DAVIDSON OF ARROWHEAD","Address":"16130 N Arrowhead Fountains Ctr","City":"Peoria","State":"AZ","Zip":"85382"},{"Location":"HILLER ENTERPRISES","Address":"8615 W Kelton Ln 304","City":"Peoria","State":"AZ","Zip":"85382"},{"Location":"HOOTERS PEORIA","Address":"16550 N 83rd Ave","City":"Peoria","State":"AZ","Zip":"85382"},{"Location":"HUMBLE PIE 83","Address":"15703 N 83rd Ave 100","City":"Peoria","State":"AZ","Zip":"85382"},{"Location":"JAVA GROUNDS COFFE HOUSE","Address":"8385 W Deer Valley Rd 111","City":"Peoria","State":"AZ","Zip":"85382"},{"Location":"JIFFY LUBE #3192","Address":"8941 W Union Hills Dr","City":"Peoria","State":"AZ","Zip":"85382"},{"Location":"JOEY AND GINAS","Address":"16041 N Arrwhd Ftns Dr","City":"Peoria","State":"AZ","Zip":"85382"},{"Location":"LARRY H MILLER DODGE","Address":"8665 W Bell Rd","City":"Peoria","State":"AZ","Zip":"85382"},{"Location":"LARRY MILLER HYUNDAI","Address":"8425 W Bell Rd","City":"Peoria","State":"AZ","Zip":"85382"},{"Location":"LARRY MILLER TOYOTA","Address":"8633 W Bell Rd","City":"Peoria","State":"AZ","Zip":"85382"},{"Location":"LIBERTY BUICK","Address":"8737 W Bell Rd","City":"Peoria","State":"AZ","Zip":"85382"},{"Location":"LISH NAIL SALON","Address":"7665 W Bell Rd 102","City":"Peoria","State":"AZ","Zip":"85382"},{"Location":"LUCKY SMOKES","Address":"20429 N Lake Pleasant Rd 103","City":"Peoria","State":"AZ","Zip":"85382"},{"Location":"MARICOPA WATER DISTRICT","Address":"9710 West Hwy 74","City":"Peoria","State":"AZ","Zip":"85382"},{"Location":"MC ALISTERS DELI","Address":"8215 W Bell Rd 125","City":"Peoria","State":"AZ","Zip":"85382"},{"Location":"MEN'S WEARHOUSE #2505","Address":"16840 N 77th Ave 400","City":"Peoria","State":"AZ","Zip":"85382"},{"Location":"MKCK VENTURES LLC","Address":"7445 W Bell Rd 101","City":"Peoria","State":"AZ","Zip":"85382"},{"Location":"MOON SALOON","Address":"16554 N 83rd Ave","City":"Peoria","State":"AZ","Zip":"85382"},{"Location":"MOORE JEEP","Address":"8600 W Bell Rd","City":"Peoria","State":"AZ","Zip":"85382"},{"Location":"MORGAN STANLEY 100205","Address":"16155 N 83rd Ave","City":"Peoria","State":"AZ","Zip":"85382"},{"Location":"NAIL HAVEN","Address":"18969 N 83rd Ave","City":"Peoria","State":"AZ","Zip":"85382"},{"Location":"NAILS AND SPA 101","Address":"8085 W Bell Rd 110","City":"Peoria","State":"AZ","Zip":"85382"},{"Location":"NEXTCARE URGENT CARE","Address":"20470 N Lake Pleasant Rd 102","City":"Peoria","State":"AZ","Zip":"85382"},{"Location":"NORDSTROM RACK ARROWHEAD","Address":"7535 W Bell Rd","City":"Peoria","State":"AZ","Zip":"85382"},{"Location":"ON THE BORDER #0078","Address":"7873 W Bell Rd","City":"Peoria","State":"AZ","Zip":"85382"},{"Location":"ORION HOMES","Address":"8615 W Kelton Ln 309","City":"Peoria","State":"AZ","Zip":"85382"},{"Location":"OSAKA STEAKHOUSE INC","Address":"16049 N Arrwhd Ftns Dr 102b","City":"Peoria","State":"AZ","Zip":"85382"},{"Location":"PACWEST ENERGY  LLC","Address":"8369 W Bell Rd","City":"Peoria","State":"AZ","Zip":"85382"},{"Location":"PALACE NAILS AND SPA","Address":"8385 W Deer Valley Rd 112","City":"Peoria","State":"AZ","Zip":"85382"},{"Location":"PEORIA FORD","Address":"9130 W Bell Rd","City":"Peoria","State":"AZ","Zip":"85382"},{"Location":"PEORIA FORD2","Address":"17338 N 92nd Ave","City":"Peoria","State":"AZ","Zip":"85382"},{"Location":"PEORIA KIA","Address":"17431 N 91 St","City":"Peoria","State":"AZ","Zip":"85382"},{"Location":"PEORIA PONTIAC GMC","Address":"8660 W Bell Rd","City":"Peoria","State":"AZ","Zip":"85382"},{"Location":"PEORIA SUBARU","Address":"8590 W Bell Rd","City":"Peoria","State":"AZ","Zip":"85382"},{"Location":"PEORIAORTHODONTIST","Address":"7545 W Bell Rd","City":"Peoria","State":"AZ","Zip":"85382"},{"Location":"PETER PIPER PIZZA # 190","Address":"7525 W Bell Rd","City":"Peoria","State":"AZ","Zip":"85382"},{"Location":"PF CHANG'S #9926","Address":"16170 N 83rd Ave","City":"Peoria","State":"AZ","Zip":"85382"},{"Location":"PIZZA HUT 28436","Address":"21391 N Lake Pleasant Pkwy 1840","City":"Peoria","State":"AZ","Zip":"85382"},{"Location":"POTTERS HOUSE APOTHECARY","Address":"21753 N 77th Ave 1100","City":"Peoria","State":"AZ","Zip":"85382"},{"Location":"RED LOBSTER #0867","Address":"7921 W Bell Rd","City":"Peoria","State":"AZ","Zip":"85382"},{"Location":"RED ROBIN #80","Address":"16233 N 83rd Ave","City":"Peoria","State":"AZ","Zip":"85382"},{"Location":"SALTY SENORITA","Address":"8011 W Paradise Ln","City":"Peoria","State":"AZ","Zip":"85382"},{"Location":"SD PADRES PEORIA 1","Address":"8131 W Paradise Ln 123a","City":"Peoria","State":"AZ","Zip":"85382"},{"Location":"SD PADRES PEORIA 2","Address":"8131 W Paradise Ln 123b","City":"Peoria","State":"AZ","Zip":"85382"},{"Location":"SOCCOR POST OF ARROWHEAD","Address":"7439 W Bell Rd 3","City":"Peoria","State":"AZ","Zip":"85382"},{"Location":"SPECIALIZE FLOORING","Address":"9163 W Union Hills Dr 118","City":"Peoria","State":"AZ","Zip":"85382"},{"Location":"SUPER STAR CAR WASH #4","Address":"21695 N Lake Pleasant Pkwy","City":"Peoria","State":"AZ","Zip":"85382"},{"Location":"TAGLIANI-PEORIA","Address":"8349 W Bell Rd","City":"Peoria","State":"AZ","Zip":"85382"},{"Location":"TAO ASIAN KITCHEN","Address":"8385 W Deer Valley Rd 114","City":"Peoria","State":"AZ","Zip":"85382"},{"Location":"TEXAS ROADHOUSE #2087","Address":"16079 N Arrwhd Ftns Dr","City":"Peoria","State":"AZ","Zip":"85382"},{"Location":"THE CHEESECAKE FACTORY 0076","Address":"16134 N 83rd Ave","City":"Peoria","State":"AZ","Zip":"85382"},{"Location":"THE HEIGHTS","Address":"20783 N 83rd Ave 112","City":"Peoria","State":"AZ","Zip":"85382"},{"Location":"TILTED KILT PUB","Address":"16840 N 83rd Ave","City":"Peoria","State":"AZ","Zip":"85382"},{"Location":"TRANSMISSION CENTER","Address":"8882 W Bell Rd","City":"Peoria","State":"AZ","Zip":"85382"},{"Location":"UNCLE SAMS #3","Address":"18913 N 83rd Ave","City":"Peoria","State":"AZ","Zip":"85382"},{"Location":"VINCENT NAIL AND SPA #1","Address":"20403 N Lake Pleasant Rd 115","City":"Peoria","State":"AZ","Zip":"85382"},{"Location":"WHICH WICH SUPERIOR SANDWICHES","Address":"7635 W Bell Rd","City":"Peoria","State":"AZ","Zip":"85382"}]