[{"Location":"ANITAS COCINA","Address":"57 N Valentine St","City":"Wickenburg","State":"AZ","Zip":"85390"},{"Location":"CARYS PIZZA","Address":"170 W Wickenburg Way","City":"Wickenburg","State":"AZ","Zip":"85390"},{"Location":"DAVITA WICKENBURG DIAL #5179","Address":"811 N Tegner St","City":"Wickenburg","State":"AZ","Zip":"85390"},{"Location":"ELKS LODGE","Address":"122 N Frontier St","City":"Wickenburg","State":"AZ","Zip":"85390"},{"Location":"FILIBERTOS MMEXICAN FOOD","Address":"530 E Wickenburg Way","City":"Wickenburg","State":"AZ","Zip":"85390"},{"Location":"FOUNDATION FOR SR LIVING","Address":"460 S West Rd","City":"Wickenburg","State":"AZ","Zip":"85390"},{"Location":"IKE'S COOK SHACK","Address":"442 E Wickenburg Way","City":"Wickenburg","State":"AZ","Zip":"85390"},{"Location":"IKE%3FS COOK SHACK","Address":"442 E Wickenburg Way","City":"Wickenburg","State":"AZ","Zip":"85390"},{"Location":"IKES GOLD NUGGET","Address":"222 E Wickenburg Way","City":"Wickenburg","State":"AZ","Zip":"85390"},{"Location":"JONES FORD AUTO SALES","Address":"555 E Wickenburg Way","City":"Wickenburg","State":"AZ","Zip":"85390"},{"Location":"K-9 CLIPPS LLC","Address":"913 E Wickenburg Way","City":"Wickenburg","State":"AZ","Zip":"85390"},{"Location":"LOS CABALLEROS GOLF CLUB","Address":"1551 S Vulture Mine Rd","City":"Wickenburg","State":"AZ","Zip":"85390"},{"Location":"PIZZA HUT 29859","Address":"528 E Wickenburg Way","City":"Wickenburg","State":"AZ","Zip":"85390"},{"Location":"QORRIS RESTAURANT","Address":"651 W Wickenburg Way","City":"Wickenburg","State":"AZ","Zip":"85390"},{"Location":"RANCHER BAR","Address":"910 W Wickenburg Way","City":"Wickenburg","State":"AZ","Zip":"85390"},{"Location":"RANCHO DE LOS CABALLEROS","Address":"1551 S Vulture Mine Rd","City":"Wickenburg","State":"AZ","Zip":"85390"},{"Location":"RESET DESIGN INC","Address":"274 E Wickenburg Way","City":"Wickenburg","State":"AZ","Zip":"85390"},{"Location":"ROSE WOOD RANCH BLDG TWO","Address":"36075 S Rincon Rd 2","City":"Wickenburg","State":"AZ","Zip":"85390"},{"Location":"ROSEWOOD CENTER FOR EATING DIS","Address":"36075 S Rincon Rd","City":"Wickenburg","State":"AZ","Zip":"85390"},{"Location":"SIMPSON RANCH","Address":"605 S Tegner St","City":"Wickenburg","State":"AZ","Zip":"85390"},{"Location":"THE WICKENBIRD FEED CO","Address":"107 Ec Wickenbird Way","City":"Wickenburg","State":"AZ","Zip":"85390"},{"Location":"WEST PLAZA LAUNDRY","Address":"2013 W Wickenburg Way","City":"Wickenburg","State":"AZ","Zip":"85390"},{"Location":"WICKENBURG PAINT SUPPLY","Address":"703 W Wickenburg Way","City":"Wickenburg","State":"AZ","Zip":"85390"}]