[{"Location":"9TH WORLD VAPOR","Address":"13048 W Rancho Santa Fe Blvd","City":"Avondale","State":"AZ","Zip":"85392"},{"Location":"AJK CHINESE CUISINE","Address":"1535 N Dysart Rd A3","City":"Avondale","State":"AZ","Zip":"85392"},{"Location":"AMERICAN HAIRCUT","Address":"13048 W Rancho Santa Fe Blvd 116","City":"Avondale","State":"AZ","Zip":"85392"},{"Location":"AMERICAN MINI STORAGE VIII","Address":"10400 W Mcdowell Rd","City":"Avondale","State":"AZ","Zip":"85392"},{"Location":"AVONDALE HEALTH CENTER","Address":"12409 W Indian School Rd B210","City":"Avondale","State":"AZ","Zip":"85392"},{"Location":"BELLA ROUGE","Address":"12725 W Indian School Rd","City":"Avondale","State":"AZ","Zip":"85392"},{"Location":"BRAKES PLUS","Address":"13065 W Rancho Santa Fe Blvd","City":"Avondale","State":"AZ","Zip":"85392"},{"Location":"CARRABBA'S ITALIAN GRILL #5305","Address":"9920 W Mcdowell Rd","City":"Avondale","State":"AZ","Zip":"85392"},{"Location":"CHRISTINAS RESTAURANT","Address":"10665 W Indian School Rd","City":"Avondale","State":"AZ","Zip":"85392"},{"Location":"CLAIM JUMPER #41","Address":"10125 W Mcdowell Rd","City":"Avondale","State":"AZ","Zip":"85392"},{"Location":"CRISTINA'S SALVADORIAN FOOD","Address":"10665 W Indian School Rd","City":"Avondale","State":"AZ","Zip":"85392"},{"Location":"CRISTINA%3FS RESTAURANT","Address":"10665 W Indian School Rd","City":"Avondale","State":"AZ","Zip":"85392"},{"Location":"DANCE GALLERIE","Address":"12409 W Indian School Rd","City":"Avondale","State":"AZ","Zip":"85392"},{"Location":"DSI- AVONDALE","Address":"13055 W Mcdowell Rd","City":"Avondale","State":"AZ","Zip":"85392"},{"Location":"DYSART & MCDOWELL","Address":"1607 N Dysart Rd","City":"Avondale","State":"AZ","Zip":"85392"},{"Location":"EAST ASIAN BISTRO","Address":"3145 N Dysart Rd","City":"Avondale","State":"AZ","Zip":"85392"},{"Location":"ED MARSHALL JEWELERS","Address":"1721 N Dysart Rd A103","City":"Avondale","State":"AZ","Zip":"85392"},{"Location":"EMERGENCY ANIMAL CLINIC","Address":"13034 W Rancho Santa Fe Blvd","City":"Avondale","State":"AZ","Zip":"85392"},{"Location":"ESTRELLA MOUNTAIN CC","Address":"3000 N Dysart Rd","City":"Avondale","State":"AZ","Zip":"85392"},{"Location":"EVERYBODYS NIGHBORHOD GR","Address":"12725 W Indian School Rd 102","City":"Avondale","State":"AZ","Zip":"85392"},{"Location":"FIESTA MEXICANA 7","Address":"1733 N Dysart Rd","City":"Avondale","State":"AZ","Zip":"85392"},{"Location":"FIGUEROA PHYSICAL THERAPY ASSC","Address":"10320 W Mcdowell Rd N1447","City":"Avondale","State":"AZ","Zip":"85392"},{"Location":"FREE AGENTS SPORTS GRILL","Address":"1729 N Dysart Rd B108","City":"Avondale","State":"AZ","Zip":"85392"},{"Location":"GOLD'S GYM","Address":"3005 N Dysart Rd","City":"Avondale","State":"AZ","Zip":"85392"},{"Location":"HIEP KEN NAIL AND SPA","Address":"3025 N Dysart Rd","City":"Avondale","State":"AZ","Zip":"85392"},{"Location":"ISLANDS RESTAURANT #061","Address":"10055 W Mcdowell Rd","City":"Avondale","State":"AZ","Zip":"85392"},{"Location":"JIFFY LUBE #1702","Address":"3290 N 107th Ave","City":"Avondale","State":"AZ","Zip":"85392"},{"Location":"JT BOBA HOUSE","Address":"10160 W Mc Dowell Rd 130","City":"Avondale","State":"AZ","Zip":"85392"},{"Location":"KIDSCOPEINC","Address":"13055 W Mcdowell Rd G112","City":"Avondale","State":"AZ","Zip":"85392"},{"Location":"LIGHTHOUSE SPORTS BAR","Address":"12351 W Indian School Rd","City":"Avondale","State":"AZ","Zip":"85392"},{"Location":"MANNY'S RESTAURANT","Address":"12345 W Indian School Rd","City":"Avondale","State":"AZ","Zip":"85392"},{"Location":"MEN'S WEARHOUSE #2515","Address":"1005 W. Mcdowell Rd","City":"Avondale","State":"AZ","Zip":"85392"},{"Location":"NARGELAH LLC","Address":"13025 W Rancho Santa Fe Blvd","City":"Avondale","State":"AZ","Zip":"85392"},{"Location":"NATIVE NEW YORKER","Address":"10220 W Mcdowell Rd","City":"Avondale","State":"AZ","Zip":"85392"},{"Location":"NT NAILS AND SPA 1","Address":"10005 W Mcdowell Rd 102","City":"Avondale","State":"AZ","Zip":"85392"},{"Location":"NYPD PIZZA DYSART","Address":"1619 N Dysart Rd 101","City":"Avondale","State":"AZ","Zip":"85392"},{"Location":"PETE & MAC'S","Address":"13034 West Rancho Fe","City":"Avondale","State":"AZ","Zip":"85392"},{"Location":"PETER PIPER PIZZA # 232","Address":"10170 W Mcdowell Rd","City":"Avondale","State":"AZ","Zip":"85392"},{"Location":"RED ROBIN #125","Address":"10240 W Mcdowell Rd","City":"Avondale","State":"AZ","Zip":"85392"},{"Location":"SCOTTRADE 02I","Address":"10120 W Mcdowell Rd 150","City":"Avondale","State":"AZ","Zip":"85392"},{"Location":"SOCCER MALL WEST","Address":"1573 N Dysart Rd B2","City":"Avondale","State":"AZ","Zip":"85392"},{"Location":"SPORT CLIPS AZ116","Address":"1809 N Dysart Rd C103","City":"Avondale","State":"AZ","Zip":"85392"},{"Location":"THE NAIL SALON","Address":"1579 N Dysart Rd","City":"Avondale","State":"AZ","Zip":"85392"},{"Location":"TREK BICYCLE STROE","Address":"13085 W Mcdowell Rd","City":"Avondale","State":"AZ","Zip":"85392"},{"Location":"VILLAGE INN  110840","Address":"10010 W Mcdowell Rd","City":"Avondale","State":"AZ","Zip":"85392"},{"Location":"ZETAS GRILL","Address":"2935 N Dysart Rd","City":"Avondale","State":"AZ","Zip":"85392"},{"Location":"9TH WORLD VAPOR","Address":"13048 W Rancho Santa Fe Blvd","City":"Avondale","State":"AZ","Zip":"85392"},{"Location":"AJK CHINESE CUISINE","Address":"1535 N Dysart Rd A3","City":"Avondale","State":"AZ","Zip":"85392"},{"Location":"AMERICAN HAIRCUT","Address":"13048 W Rancho Santa Fe Blvd 116","City":"Avondale","State":"AZ","Zip":"85392"},{"Location":"AMERICAN MINI STORAGE VIII","Address":"10400 W Mcdowell Rd","City":"Avondale","State":"AZ","Zip":"85392"},{"Location":"AVONDALE HEALTH CENTER","Address":"12409 W Indian School Rd B210","City":"Avondale","State":"AZ","Zip":"85392"},{"Location":"BELLA ROUGE","Address":"12725 W Indian School Rd","City":"Avondale","State":"AZ","Zip":"85392"},{"Location":"BRAKES PLUS","Address":"13065 W Rancho Santa Fe Blvd","City":"Avondale","State":"AZ","Zip":"85392"},{"Location":"CARRABBA'S ITALIAN GRILL #5305","Address":"9920 W Mcdowell Rd","City":"Avondale","State":"AZ","Zip":"85392"},{"Location":"CHRISTINAS RESTAURANT","Address":"10665 W Indian School Rd","City":"Avondale","State":"AZ","Zip":"85392"},{"Location":"CLAIM JUMPER #41","Address":"10125 W Mcdowell Rd","City":"Avondale","State":"AZ","Zip":"85392"},{"Location":"CRISTINA'S SALVADORIAN FOOD","Address":"10665 W Indian School Rd","City":"Avondale","State":"AZ","Zip":"85392"},{"Location":"CRISTINA%3FS RESTAURANT","Address":"10665 W Indian School Rd","City":"Avondale","State":"AZ","Zip":"85392"},{"Location":"DANCE GALLERIE","Address":"12409 W Indian School Rd","City":"Avondale","State":"AZ","Zip":"85392"},{"Location":"DSI- AVONDALE","Address":"13055 W Mcdowell Rd","City":"Avondale","State":"AZ","Zip":"85392"},{"Location":"DYSART & MCDOWELL","Address":"1607 N Dysart Rd","City":"Avondale","State":"AZ","Zip":"85392"},{"Location":"EAST ASIAN BISTRO","Address":"3145 N Dysart Rd","City":"Avondale","State":"AZ","Zip":"85392"},{"Location":"ED MARSHALL JEWELERS","Address":"1721 N Dysart Rd A103","City":"Avondale","State":"AZ","Zip":"85392"},{"Location":"EMERGENCY ANIMAL CLINIC","Address":"13034 W Rancho Santa Fe Blvd","City":"Avondale","State":"AZ","Zip":"85392"},{"Location":"ESTRELLA MOUNTAIN CC","Address":"3000 N Dysart Rd","City":"Avondale","State":"AZ","Zip":"85392"},{"Location":"EVERYBODYS NIGHBORHOD GR","Address":"12725 W Indian School Rd 102","City":"Avondale","State":"AZ","Zip":"85392"},{"Location":"FIESTA MEXICANA 7","Address":"1733 N Dysart Rd","City":"Avondale","State":"AZ","Zip":"85392"},{"Location":"FIGUEROA PHYSICAL THERAPY ASSC","Address":"10320 W Mcdowell Rd N1447","City":"Avondale","State":"AZ","Zip":"85392"},{"Location":"FREE AGENTS SPORTS GRILL","Address":"1729 N Dysart Rd B108","City":"Avondale","State":"AZ","Zip":"85392"},{"Location":"GOLD'S GYM","Address":"3005 N Dysart Rd","City":"Avondale","State":"AZ","Zip":"85392"},{"Location":"HIEP KEN NAIL AND SPA","Address":"3025 N Dysart Rd","City":"Avondale","State":"AZ","Zip":"85392"},{"Location":"ISLANDS RESTAURANT #061","Address":"10055 W Mcdowell Rd","City":"Avondale","State":"AZ","Zip":"85392"},{"Location":"JIFFY LUBE #1702","Address":"3290 N 107th Ave","City":"Avondale","State":"AZ","Zip":"85392"},{"Location":"JT BOBA HOUSE","Address":"10160 W Mc Dowell Rd 130","City":"Avondale","State":"AZ","Zip":"85392"},{"Location":"KIDSCOPEINC","Address":"13055 W Mcdowell Rd G112","City":"Avondale","State":"AZ","Zip":"85392"},{"Location":"LIGHTHOUSE SPORTS BAR","Address":"12351 W Indian School Rd","City":"Avondale","State":"AZ","Zip":"85392"},{"Location":"MANNY'S RESTAURANT","Address":"12345 W Indian School Rd","City":"Avondale","State":"AZ","Zip":"85392"},{"Location":"MEN'S WEARHOUSE #2515","Address":"1005 W. Mcdowell Rd","City":"Avondale","State":"AZ","Zip":"85392"},{"Location":"NARGELAH LLC","Address":"13025 W Rancho Santa Fe Blvd","City":"Avondale","State":"AZ","Zip":"85392"},{"Location":"NATIVE NEW YORKER","Address":"10220 W Mcdowell Rd","City":"Avondale","State":"AZ","Zip":"85392"},{"Location":"NT NAILS AND SPA 1","Address":"10005 W Mcdowell Rd 102","City":"Avondale","State":"AZ","Zip":"85392"},{"Location":"NYPD PIZZA DYSART","Address":"1619 N Dysart Rd 101","City":"Avondale","State":"AZ","Zip":"85392"},{"Location":"PETE & MAC'S","Address":"13034 West Rancho Fe","City":"Avondale","State":"AZ","Zip":"85392"},{"Location":"PETER PIPER PIZZA # 232","Address":"10170 W Mcdowell Rd","City":"Avondale","State":"AZ","Zip":"85392"},{"Location":"RED ROBIN #125","Address":"10240 W Mcdowell Rd","City":"Avondale","State":"AZ","Zip":"85392"},{"Location":"SCOTTRADE 02I","Address":"10120 W Mcdowell Rd 150","City":"Avondale","State":"AZ","Zip":"85392"},{"Location":"SOCCER MALL WEST","Address":"1573 N Dysart Rd B2","City":"Avondale","State":"AZ","Zip":"85392"},{"Location":"SPORT CLIPS AZ116","Address":"1809 N Dysart Rd C103","City":"Avondale","State":"AZ","Zip":"85392"},{"Location":"THE NAIL SALON","Address":"1579 N Dysart Rd","City":"Avondale","State":"AZ","Zip":"85392"},{"Location":"TREK BICYCLE STROE","Address":"13085 W Mcdowell Rd","City":"Avondale","State":"AZ","Zip":"85392"},{"Location":"VILLAGE INN  110840","Address":"10010 W Mcdowell Rd","City":"Avondale","State":"AZ","Zip":"85392"},{"Location":"ZETAS GRILL","Address":"2935 N Dysart Rd","City":"Avondale","State":"AZ","Zip":"85392"}]