[{"Location":"AH SO SUSHI","Address":"15475 W Mcdowell Rd","City":"Goodyear","State":"AZ","Zip":"85395"},{"Location":"APPLEBEE'S #516 LITCHFIELD","Address":"13832 W Mcdowell Rd","City":"Goodyear","State":"AZ","Zip":"85395"},{"Location":"ARRIBA RESTAURANT","Address":"15370 W Mcdowell Rd","City":"Goodyear","State":"AZ","Zip":"85395"},{"Location":"BARRO'S PIZZA","Address":"15475 W Mcdowell Rd 103","City":"Goodyear","State":"AZ","Zip":"85395"},{"Location":"BELLA LUNA","Address":"14175 W Indian School Rd","City":"Goodyear","State":"AZ","Zip":"85395"},{"Location":"BRUNOS PIZZA","Address":"14130 W Indian School Rd","City":"Goodyear","State":"AZ","Zip":"85395"},{"Location":"BUFFALO WILD WINGS #0396","Address":"13311 W Mcdowell Rd","City":"Goodyear","State":"AZ","Zip":"85395"},{"Location":"BURGER KING #16060","Address":"3490 N Litchfield Rd","City":"Goodyear","State":"AZ","Zip":"85395"},{"Location":"CHEF BEN","Address":"13824 W Mcdowell Rd","City":"Goodyear","State":"AZ","Zip":"85395"},{"Location":"CHILI'S #0608","Address":"1371 N Litchfield Rd","City":"Goodyear","State":"AZ","Zip":"85395"},{"Location":"CIGNA HEALTH CARE","Address":"14445 W Mcdowell Rd","City":"Goodyear","State":"AZ","Zip":"85395"},{"Location":"CUTTING EDGEBAR AND GRIL","Address":"1188 N Dysart Rd","City":"Goodyear","State":"AZ","Zip":"85395"},{"Location":"DICK'S SPORTING GOODS #640","Address":"4651 N Cotton Ln","City":"Goodyear","State":"AZ","Zip":"85395"},{"Location":"DINOS GREEK & ITALIAN GR","Address":"1550 N Dysart Rd B8","City":"Goodyear","State":"AZ","Zip":"85395"},{"Location":"FIRESTONE #330295","Address":"1820 N Pebble Creek Parkway","City":"Goodyear","State":"AZ","Zip":"85395"},{"Location":"FMC 62770000","Address":"13657 W Mcdowell Rd 106","City":"Goodyear","State":"AZ","Zip":"85395"},{"Location":"GUS'S NEW YORK PIZZA","Address":"13824 W Mcdowell Rd","City":"Goodyear","State":"AZ","Zip":"85395"},{"Location":"HAYMAKERS 2","Address":"1800 N Litchfield Rd","City":"Goodyear","State":"AZ","Zip":"85395"},{"Location":"JERSEY MIKES SUBS 9025","Address":"1550 N Dysart Rd B7","City":"Goodyear","State":"AZ","Zip":"85395"},{"Location":"JOO JOO LLC","Address":"1480 N Litchfield Rd","City":"Goodyear","State":"AZ","Zip":"85395"},{"Location":"KNOCKOUT FITNESS","Address":"13215 W Mcdowell Rd D1","City":"Goodyear","State":"AZ","Zip":"85395"},{"Location":"KZ HOLDINGS LLC DBA CLUB","Address":"14175 W Indian School Rd","City":"Goodyear","State":"AZ","Zip":"85395"},{"Location":"LIFETIME FITNESS","Address":"14540 W Mcdowell Rd","City":"Goodyear","State":"AZ","Zip":"85395"},{"Location":"MACARONI GRILL #1246","Address":"1828 N Litchfield Rd","City":"Goodyear","State":"AZ","Zip":"85395"},{"Location":"MACAYO'S GOODYEAR","Address":"1474 N Litchfield Rd","City":"Goodyear","State":"AZ","Zip":"85395"},{"Location":"MAJERLES SPORTS GRILL","Address":"13375 W Mcdowell Rd","City":"Goodyear","State":"AZ","Zip":"85395"},{"Location":"MANUELS MEXICAN FOOD 1","Address":"13319 W Mcdowell Rd","City":"Goodyear","State":"AZ","Zip":"85395"},{"Location":"MCDOWELL DENTISTRY LLC","Address":"14122 W Mcdowell Rd 200","City":"Goodyear","State":"AZ","Zip":"85395"},{"Location":"MCLANE SUNWEST","Address":"14149 W Mcdowell Rd","City":"Goodyear","State":"AZ","Zip":"85395"},{"Location":"NAKAMA SUSHI RESTAURANT","Address":"13215 W Mcdowell Rd","City":"Goodyear","State":"AZ","Zip":"85395"},{"Location":"NATIVE NEW YORKER","Address":"15375 W Mcdowell Rd","City":"Goodyear","State":"AZ","Zip":"85395"},{"Location":"NEW WORLD NAIL","Address":"14130 W Indian School Rd A3","City":"Goodyear","State":"AZ","Zip":"85395"},{"Location":"OLIVE GARDEN #1773","Address":"15411 W Mcdowell Rd","City":"Goodyear","State":"AZ","Zip":"85395"},{"Location":"PALM VALLEY GOLF COURSE","Address":"2211 N Litchfield Rd","City":"Goodyear","State":"AZ","Zip":"85395"},{"Location":"PF CHANG'S #9852","Address":"14681 W Mcdowell Rd","City":"Goodyear","State":"AZ","Zip":"85395"},{"Location":"Pt Noodles","Address":"1375 N Litchfield Rd","City":"Goodyear","State":"AZ","Zip":"85395"},{"Location":"RAUL AND TERESAS","Address":"1363 N Litchfield Rd","City":"Goodyear","State":"AZ","Zip":"85395"},{"Location":"RED LOBSTER #6342","Address":"15311 W Mcdowell Rd","City":"Goodyear","State":"AZ","Zip":"85395"},{"Location":"RED ROBIN #525","Address":"14551 W Mcdowell Rd","City":"Goodyear","State":"AZ","Zip":"85395"},{"Location":"SAFEWAY 1511","Address":"14175 W Indian School Rd","City":"Goodyear","State":"AZ","Zip":"85395"},{"Location":"SALS TUSCAN GRILL","Address":"13291 W Mcdowell Rd E7","City":"Goodyear","State":"AZ","Zip":"85395"},{"Location":"SENIORS BARBER SHOP LLC","Address":"13375 W Mcdowell Rd","City":"Goodyear","State":"AZ","Zip":"85395"},{"Location":"SUPER STAR CAR WASH #3","Address":"14425 W Mcdowell Rd F108","City":"Goodyear","State":"AZ","Zip":"85395"},{"Location":"TAURIAN BA%2C LLC #1124","Address":"13766 W Mcdowell Rd","City":"Goodyear","State":"AZ","Zip":"85395"},{"Location":"TEXAS ROADHOUSE #2468","Address":"15255 W Mcdowell Rd","City":"Goodyear","State":"AZ","Zip":"85395"},{"Location":"TOMO","Address":"1550 N Dysart Rd A7","City":"Goodyear","State":"AZ","Zip":"85395"},{"Location":"TOSCANA'S GRILL","Address":"16262 Clubhouse Dr","City":"Goodyear","State":"AZ","Zip":"85395"},{"Location":"VALLEY UROLOGIC ASSOCIATES","Address":"13555 W Mcdowell Rd","City":"Goodyear","State":"AZ","Zip":"85395"},{"Location":"VILLAGE INN","Address":"2700 N Litchfield Rd","City":"Goodyear","State":"AZ","Zip":"85395"},{"Location":"WELCOME HOME REALITY","Address":"2920 N Litchfield Rd 100","City":"Goodyear","State":"AZ","Zip":"85395"},{"Location":"WENDYS 2170","Address":"1178 N Litchfield Rd","City":"Goodyear","State":"AZ","Zip":"85395"}]