[{"Location":"2 LANE SALOON","Address":"1605 E Ash St","City":"Globe","State":"AZ","Zip":"85501"},{"Location":"ABEL LIQUER","Address":"1001 N Broad St","City":"Globe","State":"AZ","Zip":"85501"},{"Location":"AIRMETHODS","Address":"294 E Truck Dr","City":"Globe","State":"AZ","Zip":"85501"},{"Location":"ANHEUSER-BUSCH WHLSLR #10257B","Address":"550 S Broad St","City":"Globe","State":"AZ","Zip":"85501"},{"Location":"EL RANCHITO","Address":"686 N Broad St","City":"Globe","State":"AZ","Zip":"85501"},{"Location":"J AND R  FINE MEXICAN FOODS","Address":"1901 E Ash St","City":"Globe","State":"AZ","Zip":"85501"},{"Location":"JAMMERZ","Address":"598 N Broad St","City":"Globe","State":"AZ","Zip":"85501"},{"Location":"MOTEL 6 COMMON AREA","Address":"1699 E Ash St","City":"Globe","State":"AZ","Zip":"85501"},{"Location":"PIZZA HUT 028240","Address":"1497 E Ash St","City":"Globe","State":"AZ","Zip":"85501"},{"Location":"RODRIGUEZ CONTRUCTION","Address":"547 S East St","City":"Globe","State":"AZ","Zip":"85501"},{"Location":"STEVE M TITLA ATTY","Address":"245 S Hill St","City":"Globe","State":"AZ","Zip":"85501"},{"Location":"THE DRIFT IN SALOON","Address":"636 N Broad St","City":"Globe","State":"AZ","Zip":"85501"},{"Location":"THE HUDDLE","Address":"392 N Broad St","City":"Globe","State":"AZ","Zip":"85501"},{"Location":"THE TAP ROOM","Address":"850 W Ash St","City":"Globe","State":"AZ","Zip":"85501"}]