[{"Location":"CHAPARRALL","Address":"500 Se Old West Hwy","City":"Duncan","State":"AZ","Zip":"85534"},{"Location":"OL JOE'S","Address":"536 North Ave","City":"Duncan","State":"AZ","Zip":"85534"},{"Location":"OLD JOES CAFE","Address":"536 North Ave","City":"Duncan","State":"AZ","Zip":"85534"},{"Location":"THE BONNIE HEATHER INN","Address":"103 Main St","City":"Duncan","State":"AZ","Zip":"85534"},{"Location":"THE RIVER FRONT LOUNGE","Address":"101 North East","City":"Duncan","State":"AZ","Zip":"85534"},{"Location":"CHAPARRALL","Address":"500 Se Old West Hwy","City":"Duncan","State":"AZ","Zip":"85534"},{"Location":"OL JOE'S","Address":"536 North Ave","City":"Duncan","State":"AZ","Zip":"85534"},{"Location":"OLD JOES CAFE","Address":"536 North Ave","City":"Duncan","State":"AZ","Zip":"85534"},{"Location":"THE BONNIE HEATHER INN","Address":"103 Main St","City":"Duncan","State":"AZ","Zip":"85534"},{"Location":"THE RIVER FRONT LOUNGE","Address":"101 North East","City":"Duncan","State":"AZ","Zip":"85534"}]