[{"Location":"ANYTIME FITNESS","Address":"101 E Az Hwy 260","City":"Payson","State":"AZ","Zip":"85541"},{"Location":"ARIZONA STATE CREDIT UNION #20","Address":"104 E Hwy 260","City":"Payson","State":"AZ","Zip":"85541"},{"Location":"B LINE BOWL","Address":"1109 N Beeline Hwy","City":"Payson","State":"AZ","Zip":"85541"},{"Location":"BANNER HEALTH","Address":"117 E Main St A100","City":"Payson","State":"AZ","Zip":"85541"},{"Location":"BIG C TIRE AND AUTO","Address":"35 Loop Street%2C Building18","City":"Payson","State":"AZ","Zip":"85541"},{"Location":"CARDOS ITALIAN RESTAURANT","Address":"203 Highway 206","City":"Payson","State":"AZ","Zip":"85541"},{"Location":"CHILI'S #0848","Address":"900 S Beeline Hwy","City":"Payson","State":"AZ","Zip":"85541"},{"Location":"DAVITA #2399 PAYSON","Address":"809 W Longhorn Rd","City":"Payson","State":"AZ","Zip":"85541"},{"Location":"EL RANCHO RESTAURANT","Address":"200 S Beeline Hwy","City":"Payson","State":"AZ","Zip":"85541"},{"Location":"ERA YOUNG REALTY & INVESTMENT","Address":"424 S Beeline Hwy","City":"Payson","State":"AZ","Zip":"85541"},{"Location":"FARGOS STEAKHOUSE","Address":"620 East Hwy 260","City":"Payson","State":"AZ","Zip":"85541"},{"Location":"GRANDCANYON COUNSEL BSA","Address":"19887 E Az Highway 260","City":"Payson","State":"AZ","Zip":"85541"},{"Location":"JAKES CORNER BAR","Address":"57564 N Hwy 188","City":"Payson","State":"AZ","Zip":"85541"},{"Location":"KAIBAB  INDUSTRIES INC","Address":"113 W Main St B","City":"Payson","State":"AZ","Zip":"85541"},{"Location":"LA SIERRA MEXICAN RESTAU","Address":"800 N Beeline Hwy","City":"Payson","State":"AZ","Zip":"85541"},{"Location":"LANDMARK AT THE CREEK","Address":"1177 E Christopher Creek Loop","City":"Payson","State":"AZ","Zip":"85541"},{"Location":"MATATZAL HOTEL & CASINO","Address":"Hwy 87 Mp251","City":"Payson","State":"AZ","Zip":"85541"},{"Location":"MOOSE LODGE 852","Address":"4211 E Az Highway 260","City":"Payson","State":"AZ","Zip":"85541"},{"Location":"NATIVE AIR 7 (N827NA)","Address":"302 E Aero Dr","City":"Payson","State":"AZ","Zip":"85541"},{"Location":"NATIVE GRILL AND WINGS","Address":"210 E State Highway 260","City":"Payson","State":"AZ","Zip":"85541"},{"Location":"PAYSON SENIOR CNTR INC","Address":"514 W Main St","City":"Payson","State":"AZ","Zip":"85541"},{"Location":"PIZZA HUT  028238","Address":"113 S Beeline Hwy","City":"Payson","State":"AZ","Zip":"85541"},{"Location":"SOUTHWEST TRANSMISSION","Address":"214 W Aero Dr","City":"Payson","State":"AZ","Zip":"85541"},{"Location":"THE RIM GOLF CLUB","Address":"300 S Club House","City":"Payson","State":"AZ","Zip":"85541"},{"Location":"WYE CREEK STORAGE","Address":"16558 N Hwy 87","City":"Payson","State":"AZ","Zip":"85541"},{"Location":"ANYTIME FITNESS","Address":"101 E Az Hwy 260","City":"Payson","State":"AZ","Zip":"85541"},{"Location":"ARIZONA STATE CREDIT UNION #20","Address":"104 E Hwy 260","City":"Payson","State":"AZ","Zip":"85541"},{"Location":"B LINE BOWL","Address":"1109 N Beeline Hwy","City":"Payson","State":"AZ","Zip":"85541"},{"Location":"BANNER HEALTH","Address":"117 E Main St A100","City":"Payson","State":"AZ","Zip":"85541"},{"Location":"BIG C TIRE AND AUTO","Address":"35 Loop Street%2C Building18","City":"Payson","State":"AZ","Zip":"85541"},{"Location":"CARDOS ITALIAN RESTAURANT","Address":"203 Highway 206","City":"Payson","State":"AZ","Zip":"85541"},{"Location":"CHILI'S #0848","Address":"900 S Beeline Hwy","City":"Payson","State":"AZ","Zip":"85541"},{"Location":"DAVITA #2399 PAYSON","Address":"809 W Longhorn Rd","City":"Payson","State":"AZ","Zip":"85541"},{"Location":"EL RANCHO RESTAURANT","Address":"200 S Beeline Hwy","City":"Payson","State":"AZ","Zip":"85541"},{"Location":"ERA YOUNG REALTY & INVESTMENT","Address":"424 S Beeline Hwy","City":"Payson","State":"AZ","Zip":"85541"},{"Location":"FARGOS STEAKHOUSE","Address":"620 East Hwy 260","City":"Payson","State":"AZ","Zip":"85541"},{"Location":"GRANDCANYON COUNSEL BSA","Address":"19887 E Az Highway 260","City":"Payson","State":"AZ","Zip":"85541"},{"Location":"JAKES CORNER BAR","Address":"57564 N Hwy 188","City":"Payson","State":"AZ","Zip":"85541"},{"Location":"KAIBAB  INDUSTRIES INC","Address":"113 W Main St B","City":"Payson","State":"AZ","Zip":"85541"},{"Location":"LA SIERRA MEXICAN RESTAU","Address":"800 N Beeline Hwy","City":"Payson","State":"AZ","Zip":"85541"},{"Location":"LANDMARK AT THE CREEK","Address":"1177 E Christopher Creek Loop","City":"Payson","State":"AZ","Zip":"85541"},{"Location":"MATATZAL HOTEL & CASINO","Address":"Hwy 87 Mp251","City":"Payson","State":"AZ","Zip":"85541"},{"Location":"MOOSE LODGE 852","Address":"4211 E Az Highway 260","City":"Payson","State":"AZ","Zip":"85541"},{"Location":"NATIVE AIR 7 (N827NA)","Address":"302 E Aero Dr","City":"Payson","State":"AZ","Zip":"85541"},{"Location":"NATIVE GRILL AND WINGS","Address":"210 E State Highway 260","City":"Payson","State":"AZ","Zip":"85541"},{"Location":"PAYSON SENIOR CNTR INC","Address":"514 W Main St","City":"Payson","State":"AZ","Zip":"85541"},{"Location":"PIZZA HUT  028238","Address":"113 S Beeline Hwy","City":"Payson","State":"AZ","Zip":"85541"},{"Location":"SOUTHWEST TRANSMISSION","Address":"214 W Aero Dr","City":"Payson","State":"AZ","Zip":"85541"},{"Location":"THE RIM GOLF CLUB","Address":"300 S Club House","City":"Payson","State":"AZ","Zip":"85541"},{"Location":"WYE CREEK STORAGE","Address":"16558 N Hwy 87","City":"Payson","State":"AZ","Zip":"85541"}]