[{"Location":"AMERICAN LEGION POST","Address":"531 S 11th Ave","City":"Safford","State":"AZ","Zip":"85546"},{"Location":"ANHEUSER-BUSCH WHLSLR# 20282","Address":"812 S 11th Ave","City":"Safford","State":"AZ","Zip":"85546"},{"Location":"ARIZONA STATE CREDIT UNION #11","Address":"280 W Main St","City":"Safford","State":"AZ","Zip":"85546"},{"Location":"AUSTINS AUTO ADVANTAGE","Address":"801 W Thatcher Blvd","City":"Safford","State":"AZ","Zip":"85546"},{"Location":"BRICKS","Address":"4367 S Us Highway 191","City":"Safford","State":"AZ","Zip":"85546"},{"Location":"BULL AND ASSOCIATES","Address":"1517 S 20th Ave","City":"Safford","State":"AZ","Zip":"85546"},{"Location":"COLORADO AZ TRACTOR","Address":"3967 S Us Highway 191","City":"Safford","State":"AZ","Zip":"85546"},{"Location":"COPPER STEER STEAKHOUSE","Address":"1206 E Us Highway 70","City":"Safford","State":"AZ","Zip":"85546"},{"Location":"FMC 62590000","Address":"1250 S 20th Ave","City":"Safford","State":"AZ","Zip":"85546"},{"Location":"HIDE AWAY LOUNGE","Address":"8038 S Us Highway 191","City":"Safford","State":"AZ","Zip":"85546"},{"Location":"MT GRAHAM GOLF COURSE","Address":"4520 Golf Course Rd","City":"Safford","State":"AZ","Zip":"85546"},{"Location":"PHI MEDICAL AE21 AIR EVA","Address":"4275 East Avlallon Way","City":"Safford","State":"AZ","Zip":"85546"},{"Location":"PIZZA HUT-SAFFORD","Address":"1305 W Thatcher Blvd","City":"Safford","State":"AZ","Zip":"85546"},{"Location":"REAL LIFE COMMUNITY CHURCH","Address":"106 S 8th Ave","City":"Safford","State":"AZ","Zip":"85546"},{"Location":"RENATE ELY","Address":"900 E Hollywood Rd","City":"Safford","State":"AZ","Zip":"85546"},{"Location":"ROCKN HORSE SALOON","Address":"415 E Us Highway 70","City":"Safford","State":"AZ","Zip":"85546"},{"Location":"TUTTIES AMERICAN CLUB","Address":"503 W Main St","City":"Safford","State":"AZ","Zip":"85546"},{"Location":"VIENNA ENTERPRISES","Address":"912 W Thatcher Blvd","City":"Safford","State":"AZ","Zip":"85546"},{"Location":"AMERICAN LEGION POST","Address":"531 S 11th Ave","City":"Safford","State":"AZ","Zip":"85546"},{"Location":"ANHEUSER-BUSCH WHLSLR# 20282","Address":"812 S 11th Ave","City":"Safford","State":"AZ","Zip":"85546"},{"Location":"ARIZONA STATE CREDIT UNION #11","Address":"280 W Main St","City":"Safford","State":"AZ","Zip":"85546"},{"Location":"AUSTINS AUTO ADVANTAGE","Address":"801 W Thatcher Blvd","City":"Safford","State":"AZ","Zip":"85546"},{"Location":"BRICKS","Address":"4367 S Us Highway 191","City":"Safford","State":"AZ","Zip":"85546"},{"Location":"BULL AND ASSOCIATES","Address":"1517 S 20th Ave","City":"Safford","State":"AZ","Zip":"85546"},{"Location":"COLORADO AZ TRACTOR","Address":"3967 S Us Highway 191","City":"Safford","State":"AZ","Zip":"85546"},{"Location":"COPPER STEER STEAKHOUSE","Address":"1206 E Us Highway 70","City":"Safford","State":"AZ","Zip":"85546"},{"Location":"FMC 62590000","Address":"1250 S 20th Ave","City":"Safford","State":"AZ","Zip":"85546"},{"Location":"HIDE AWAY LOUNGE","Address":"8038 S Us Highway 191","City":"Safford","State":"AZ","Zip":"85546"},{"Location":"MT GRAHAM GOLF COURSE","Address":"4520 Golf Course Rd","City":"Safford","State":"AZ","Zip":"85546"},{"Location":"PHI MEDICAL AE21 AIR EVA","Address":"4275 East Avlallon Way","City":"Safford","State":"AZ","Zip":"85546"},{"Location":"PIZZA HUT-SAFFORD","Address":"1305 W Thatcher Blvd","City":"Safford","State":"AZ","Zip":"85546"},{"Location":"REAL LIFE COMMUNITY CHURCH","Address":"106 S 8th Ave","City":"Safford","State":"AZ","Zip":"85546"},{"Location":"RENATE ELY","Address":"900 E Hollywood Rd","City":"Safford","State":"AZ","Zip":"85546"},{"Location":"ROCKN HORSE SALOON","Address":"415 E Us Highway 70","City":"Safford","State":"AZ","Zip":"85546"},{"Location":"TUTTIES AMERICAN CLUB","Address":"503 W Main St","City":"Safford","State":"AZ","Zip":"85546"},{"Location":"VIENNA ENTERPRISES","Address":"912 W Thatcher Blvd","City":"Safford","State":"AZ","Zip":"85546"}]