[{"Location":"APACHE GOLD BEST WESTERN","Address":"Hwy 70 5 Miles East Of Globe","City":"San Carlos","State":"AZ","Zip":"85550"},{"Location":"APACHE GOLD CASINO","Address":"70 Highway 70","City":"San Carlos","State":"AZ","Zip":"85550"},{"Location":"APACHE GOLD CASINO 3","Address":"Highway 70 5 Miles East","City":"San Carlos","State":"AZ","Zip":"85550"},{"Location":"APACHE GOLD PRO SHOP","Address":"5 Miles E Of Globe Hwy 7","City":"San Carlos","State":"AZ","Zip":"85550"},{"Location":"BEST WESTERN APACHE GOLD MOTEL","Address":"Hwy 70 5 Miles E Of Globe","City":"San Carlos","State":"AZ","Zip":"85550"},{"Location":"BLACKRIVER PUMPING STATION","Address":"Route 1560","City":"San Carlos","State":"AZ","Zip":"85550"},{"Location":"SANCARLOS MARKET PLACE","Address":"1 Coyotero St","City":"San Carlos","State":"AZ","Zip":"85550"},{"Location":"APACHE GOLD BEST WESTERN","Address":"Hwy 70 5 Miles East Of Globe","City":"San Carlos","State":"AZ","Zip":"85550"},{"Location":"APACHE GOLD CASINO","Address":"70 Highway 70","City":"San Carlos","State":"AZ","Zip":"85550"},{"Location":"APACHE GOLD CASINO 3","Address":"Highway 70 5 Miles East","City":"San Carlos","State":"AZ","Zip":"85550"},{"Location":"APACHE GOLD PRO SHOP","Address":"5 Miles E Of Globe Hwy 7","City":"San Carlos","State":"AZ","Zip":"85550"},{"Location":"BEST WESTERN APACHE GOLD MOTEL","Address":"Hwy 70 5 Miles E Of Globe","City":"San Carlos","State":"AZ","Zip":"85550"},{"Location":"BLACKRIVER PUMPING STATION","Address":"Route 1560","City":"San Carlos","State":"AZ","Zip":"85550"},{"Location":"SANCARLOS MARKET PLACE","Address":"1 Coyotero St","City":"San Carlos","State":"AZ","Zip":"85550"}]