[{"Location":"ADVANCED CALL CENTER","Address":"1701 E 10th St","City":"Douglas","State":"AZ","Zip":"85607"},{"Location":"BOB FERNANDEZ AND SONS INC","Address":"801 N Douglas Ave","City":"Douglas","State":"AZ","Zip":"85607"},{"Location":"BUREAU OF IMMIGRATION AND CUST","Address":"2334 E Highway 80","City":"Douglas","State":"AZ","Zip":"85607"},{"Location":"BURGER KING","Address":"99 E 5th St","City":"Douglas","State":"AZ","Zip":"85607"},{"Location":"CITY OF DOUGLAS MUNICIPLE GOLF","Address":"1370 E Fairway Dr","City":"Douglas","State":"AZ","Zip":"85607"},{"Location":"CORAZON DOUGLAS","Address":"936 F Ave B","City":"Douglas","State":"AZ","Zip":"85607"},{"Location":"CUSTOMS AND BORDER PROTECTION","Address":"1608 South Kings Highway","City":"Douglas","State":"AZ","Zip":"85607"},{"Location":"DOUGLAS ELKS LODGE 955","Address":"650 E 10th St","City":"Douglas","State":"AZ","Zip":"85607"},{"Location":"GAYTANS STORE","Address":"1 N Pan American Ave","City":"Douglas","State":"AZ","Zip":"85607"},{"Location":"KANDYS KAFE","Address":"401 N G Ave","City":"Douglas","State":"AZ","Zip":"85607"},{"Location":"LA FRONTERA BAR","Address":"1061 E 18th St","City":"Douglas","State":"AZ","Zip":"85607"},{"Location":"MAXWELL","Address":"1608 S Kings Hwy","City":"Douglas","State":"AZ","Zip":"85607"},{"Location":"MCDONALDS","Address":"104 W 5th St","City":"Douglas","State":"AZ","Zip":"85607"},{"Location":"MEDTRANS CORPORATION1","Address":"2174 W Oak Ave","City":"Douglas","State":"AZ","Zip":"85607"},{"Location":"PEOPLES CHOICE HOSPITAL","Address":"2901 Cortez Dr","City":"Douglas","State":"AZ","Zip":"85607"},{"Location":"RANCHO LA PERILLA APTS","Address":"1201 E Fairway Dr","City":"Douglas","State":"AZ","Zip":"85607"},{"Location":"SADDLE & SPUR TAVERN","Address":"1046 N G Ave","City":"Douglas","State":"AZ","Zip":"85607"},{"Location":"SEABHS 9050","Address":"1901 E 11th St","City":"Douglas","State":"AZ","Zip":"85607"},{"Location":"SOUTHEAST ARIZONA MEDICAL CENT","Address":"2174 W Oak Ave","City":"Douglas","State":"AZ","Zip":"85607"},{"Location":"SOUTHEAST ARIZONA MEDICAL CTR","Address":"2174 W Oak Ave","City":"Douglas","State":"AZ","Zip":"85607"},{"Location":"SUAREZ BROKERAGE","Address":"217 E 3rd St","City":"Douglas","State":"AZ","Zip":"85607"},{"Location":"THE DOUBLE DUECE","Address":"500 E 7th St","City":"Douglas","State":"AZ","Zip":"85607"},{"Location":"THOMAS HOME FURNISHING","Address":"101 E 11th St","City":"Douglas","State":"AZ","Zip":"85607"},{"Location":"US CUSTOMS & BORDER PROTECTION","Address":"First And Pan American St","City":"Douglas","State":"AZ","Zip":"85607"}]