[{"Location":"ARENA BAR","Address":"250 N Prickly Pear Ave","City":"Benson","State":"AZ","Zip":"85602"},{"Location":"BENSON I","Address":"750 W Union St","City":"Benson","State":"AZ","Zip":"85602"},{"Location":"BENSON II","Address":"750 W Union St","City":"Benson","State":"AZ","Zip":"85602"},{"Location":"BUGWISER EXTERMINATING","Address":"652 E 7th St","City":"Benson","State":"AZ","Zip":"85602"},{"Location":"C G","Address":"757 W 4th St A","City":"Benson","State":"AZ","Zip":"85602"},{"Location":"C G 712","Address":"757 W 4th St B","City":"Benson","State":"AZ","Zip":"85602"},{"Location":"CARING CONNECTIONS","Address":"505 E 5th St","City":"Benson","State":"AZ","Zip":"85602"},{"Location":"FERTERNAL ORDER OF EAGLE","Address":"750 E 4th St","City":"Benson","State":"AZ","Zip":"85602"},{"Location":"FRONTIER FITNESS CLUB LLC","Address":"496 N Ocotillo Rd","City":"Benson","State":"AZ","Zip":"85602"},{"Location":"G & F PIZZA PALACE","Address":"114 E 5th St","City":"Benson","State":"AZ","Zip":"85602"},{"Location":"GSS- QUIBURI","Address":"850 S Highway 80","City":"Benson","State":"AZ","Zip":"85602"},{"Location":"MESCAL BAR AND GRILL","Address":"70 N Cherokee Trl","City":"Benson","State":"AZ","Zip":"85602"},{"Location":"PABLOS STEAKS AND MORE","Address":"687 W 4th St","City":"Benson","State":"AZ","Zip":"85602"},{"Location":"SAFEWAY 1275","Address":"599 W 4th St","City":"Benson","State":"AZ","Zip":"85602"},{"Location":"SAGUARO PARK CLUBHOUSE","Address":"600 E Saguaro Dr","City":"Benson","State":"AZ","Zip":"85602"},{"Location":"SAN PEDO GOLF COURSE","Address":"926 N Madison Ave","City":"Benson","State":"AZ","Zip":"85602"},{"Location":"SEABHS 4015","Address":"1193 N Basyl Ln","City":"Benson","State":"AZ","Zip":"85602"},{"Location":"VFW POST 6271","Address":"233 E 5th St","City":"Benson","State":"AZ","Zip":"85602"}]