[{"Location":"ANHEUSER-BUSCH WHLSLR# 20288B","Address":"20 Cochise Row","City":"Bisbee","State":"AZ","Zip":"85603"},{"Location":"BISBEE INN%2FHOTEL LA MORE","Address":"45 Ok Street","City":"Bisbee","State":"AZ","Zip":"85603"},{"Location":"COCHISE COUNTY SHERIFFS DEPT","Address":"205 N Judd Dr","City":"Bisbee","State":"AZ","Zip":"85603"},{"Location":"CONTESSAS CANTINA","Address":"202 Tombstone Canyon","City":"Bisbee","State":"AZ","Zip":"85603"},{"Location":"CQCH HEALTH MATTERS","Address":"850 W Hwy 92","City":"Bisbee","State":"AZ","Zip":"85603"},{"Location":"CUSTOMS AND BORDER PROTECTION","Address":"2136 S Naco Hwy","City":"Bisbee","State":"AZ","Zip":"85603"},{"Location":"DOUBLE P ROADHOUSE","Address":"600 Romero St","City":"Bisbee","State":"AZ","Zip":"85603"},{"Location":"LUMINARIA","Address":"17 Douglas Rd A","City":"Bisbee","State":"AZ","Zip":"85603"},{"Location":"OLD BISBEE BREWING COMPANY","Address":"200 Review Aly","City":"Bisbee","State":"AZ","Zip":"85603"},{"Location":"THE BISBEE GRILLE","Address":"2 Copper Green Plaza","City":"Bisbee","State":"AZ","Zip":"85603"},{"Location":"THE INN AT CASTLE ROCK","Address":"112 Tombstone Canyon Rd","City":"Bisbee","State":"AZ","Zip":"85603"},{"Location":"ANHEUSER-BUSCH WHLSLR# 20288B","Address":"20 Cochise Row","City":"Bisbee","State":"AZ","Zip":"85603"},{"Location":"BISBEE INN%2FHOTEL LA MORE","Address":"45 Ok Street","City":"Bisbee","State":"AZ","Zip":"85603"},{"Location":"COCHISE COUNTY SHERIFFS DEPT","Address":"205 N Judd Dr","City":"Bisbee","State":"AZ","Zip":"85603"},{"Location":"CONTESSAS CANTINA","Address":"202 Tombstone Canyon","City":"Bisbee","State":"AZ","Zip":"85603"},{"Location":"CQCH HEALTH MATTERS","Address":"850 W Hwy 92","City":"Bisbee","State":"AZ","Zip":"85603"},{"Location":"CUSTOMS AND BORDER PROTECTION","Address":"2136 S Naco Hwy","City":"Bisbee","State":"AZ","Zip":"85603"},{"Location":"DOUBLE P ROADHOUSE","Address":"600 Romero St","City":"Bisbee","State":"AZ","Zip":"85603"},{"Location":"LUMINARIA","Address":"17 Douglas Rd A","City":"Bisbee","State":"AZ","Zip":"85603"},{"Location":"OLD BISBEE BREWING COMPANY","Address":"200 Review Aly","City":"Bisbee","State":"AZ","Zip":"85603"},{"Location":"THE BISBEE GRILLE","Address":"2 Copper Green Plaza","City":"Bisbee","State":"AZ","Zip":"85603"},{"Location":"THE INN AT CASTLE ROCK","Address":"112 Tombstone Canyon Rd","City":"Bisbee","State":"AZ","Zip":"85603"}]