[{"Location":"DOD SPORTS AND REC BARNES","Address":"61701 Hatville","City":"Coll","State":"AZ","Zip":"85613"},{"Location":"111TH MI BDE","Address":"Bldg 90507","City":"Fort Huachuca","State":"AZ","Zip":"85613"},{"Location":"111TH MI BDE","Address":"Bldg 51005","City":"Fort Huachuca","State":"AZ","Zip":"85613"},{"Location":"AAFES","Address":"Bldg 82301 #82301","City":"Fort Huachuca","State":"AZ","Zip":"85613"},{"Location":"BURGER KING","Address":"Bld 51004 Smith Avenue","City":"Fort Huachuca","State":"AZ","Zip":"85613"},{"Location":"CECOM FMX","Address":"82502 Stein St","City":"Fort Huachuca","State":"AZ","Zip":"85613"},{"Location":"DIRECTORY OF EMERGENCY SERVICE","Address":"242 Christy Ave","City":"Fort Huachuca","State":"AZ","Zip":"85613"},{"Location":"DOD SPORTS AND REC EFILER","Address":"61701 Hatville","City":"Fort Huachuca","State":"AZ","Zip":"85613"},{"Location":"FORT HUACHUCA CHILD & YOUTH","Address":"Bldg49013 Cushing St","City":"Fort Huachuca","State":"AZ","Zip":"85613"},{"Location":"MOUNTAIN VIEW GOLF COURSE","Address":"15479 Building 15479","City":"Fort Huachuca","State":"AZ","Zip":"85613"},{"Location":"MURR COMMUNITY CENTER","Address":"51301 Cushing St","City":"Fort Huachuca","State":"AZ","Zip":"85613"},{"Location":"MURR COMMUNITY CENTER1","Address":"51301 Cushing St","City":"Fort Huachuca","State":"AZ","Zip":"85613"}]