[{"Location":"AMERICAN LEGION POST 66","Address":"1560 W Duval Mine Rd","City":"Green Valley","State":"AZ","Zip":"85614"},{"Location":"AMIGOS CANTINA","Address":"121 W Duval Rd","City":"Green Valley","State":"AZ","Zip":"85614"},{"Location":"AUDREY MEHLHAFF","Address":"388 E Mariposa","City":"Green Valley","State":"AZ","Zip":"85614"},{"Location":"BEE HIVE OF GREEN VALLEY","Address":"3161 S Prosperous Pl A","City":"Green Valley","State":"AZ","Zip":"85614"},{"Location":"BURGER KING","Address":"19110 S I 19 Frontage Rd","City":"Green Valley","State":"AZ","Zip":"85614"},{"Location":"CAREMORE HEALTH PLAN","Address":"191 W Esperanza Blvd","City":"Green Valley","State":"AZ","Zip":"85614"},{"Location":"CATERPILLAR","Address":"5000 W Caterpillar Trl","City":"Green Valley","State":"AZ","Zip":"85614"},{"Location":"COACH'S ALL AMERICAN BAR","Address":"368 S Paseo Chico","City":"Green Valley","State":"AZ","Zip":"85614"},{"Location":"DELTA INSURANCE AGENCY","Address":"101 W Duval Rd 107","City":"Green Valley","State":"AZ","Zip":"85614"},{"Location":"DUVAL MINE ROAD UGENTCA","Address":"1295 W Duval Mine Rd 131","City":"Green Valley","State":"AZ","Zip":"85614"},{"Location":"EASY STREET LOUNGE","Address":"80 W Esperanza Blvd","City":"Green Valley","State":"AZ","Zip":"85614"},{"Location":"EXPERT NAIL","Address":"18690 S Nogales Hwy 112","City":"Green Valley","State":"AZ","Zip":"85614"},{"Location":"FLETCHERS TIRE AUTO SERVICE","Address":"710 W Calle Arroyo Sur","City":"Green Valley","State":"AZ","Zip":"85614"},{"Location":"FLORENTINOS","Address":"100 W Duval Mine Rd","City":"Green Valley","State":"AZ","Zip":"85614"},{"Location":"JIM CLICK HYUNDAI","Address":"1030 W Duval Rd","City":"Green Valley","State":"AZ","Zip":"85614"},{"Location":"LA PLACITA","Address":"99 W Esperanza Blvd","City":"Green Valley","State":"AZ","Zip":"85614"},{"Location":"LE GRAND SALON LLC","Address":"512 E Whitehouse Canyon Rd 100","City":"Green Valley","State":"AZ","Zip":"85614"},{"Location":"MM&J PROPERTIES","Address":"3161 S Prosperous Pl","City":"Green Valley","State":"AZ","Zip":"85614"},{"Location":"OOLALA NAILS","Address":"140 W Duval Mine Rd 130","City":"Green Valley","State":"AZ","Zip":"85614"},{"Location":"QUAIL CREEK POA","Address":"2055 E Quail Crossing Blvd","City":"Green Valley","State":"AZ","Zip":"85614"},{"Location":"RETINA ASSOCIATES","Address":"1055 N La Canada Dr","City":"Green Valley","State":"AZ","Zip":"85614"},{"Location":"ROBIN'S NEST STYLING SALON","Address":"18745 S I 19 Front Age Rd A111","City":"Green Valley","State":"AZ","Zip":"85614"},{"Location":"SANDSTONE RIDGE APARTMENTS LLC","Address":"19190 S Alpha Ave","City":"Green Valley","State":"AZ","Zip":"85614"},{"Location":"THE 19TH HOLE BAR AND GRILL","Address":"111 S La Canada Dr","City":"Green Valley","State":"AZ","Zip":"85614"},{"Location":"THE GRILL AT QUAIL CREEK","Address":"1490 N Quail Range Loop","City":"Green Valley","State":"AZ","Zip":"85614"},{"Location":"TORRES BLANCAS GOLF CLUB","Address":"3233 S Abrego Dr","City":"Green Valley","State":"AZ","Zip":"85614"},{"Location":"TRIPLE PLAY","Address":"1570 W Duval Mine Rd","City":"Green Valley","State":"AZ","Zip":"85614"},{"Location":"VALLEY INTERNAL MEDICINE","Address":"1055 N La Canada Dr","City":"Green Valley","State":"AZ","Zip":"85614"},{"Location":"JERRY BOBS REST","Address":"1325 W Duval Mine Rd","City":"Sahuarita","State":"AZ","Zip":"85614"}]