[{"Location":"ARIZONA ONCOLOGY","Address":"1315 S La Canada Dr","City":"Green Valley","State":"AZ","Zip":"85622"},{"Location":"CANOA RANCH CLUBHOUSE","Address":"5800 S Camino Del Sol","City":"Green Valley","State":"AZ","Zip":"85622"},{"Location":"DESERT HILLS GOLF CLUB","Address":"2500 S Circulo De Las Lomas","City":"Green Valley","State":"AZ","Zip":"85622"},{"Location":"GEORGE OPHOFF","Address":"180 W Continental Rd 178","City":"Green Valley","State":"AZ","Zip":"85622"},{"Location":"LOS AGAVES RESTURAUNT S","Address":"1451 S La Canada Dr","City":"Green Valley","State":"AZ","Zip":"85622"},{"Location":"MR     AUTOMOTIVE LLC","Address":"171 W Continental Rd","City":"Green Valley","State":"AZ","Zip":"85622"},{"Location":"ARIZONA ONCOLOGY","Address":"1315 S La Canada Dr","City":"Green Valley","State":"AZ","Zip":"85622"},{"Location":"CANOA RANCH CLUBHOUSE","Address":"5800 S Camino Del Sol","City":"Green Valley","State":"AZ","Zip":"85622"},{"Location":"DESERT HILLS GOLF CLUB","Address":"2500 S Circulo De Las Lomas","City":"Green Valley","State":"AZ","Zip":"85622"},{"Location":"GEORGE OPHOFF","Address":"180 W Continental Rd 178","City":"Green Valley","State":"AZ","Zip":"85622"},{"Location":"LOS AGAVES RESTURAUNT S","Address":"1451 S La Canada Dr","City":"Green Valley","State":"AZ","Zip":"85622"},{"Location":"MR     AUTOMOTIVE LLC","Address":"171 W Continental Rd","City":"Green Valley","State":"AZ","Zip":"85622"}]