[{"Location":"","Address":"17 Bravo Ln","City":"Nogales","State":"AZ","Zip":"85621"},{"Location":"5202812438","Address":"1831 N Grand Ave","City":"Nogales","State":"AZ","Zip":"85621"},{"Location":"AMADO TRUCKING","Address":"1430 N Mariposa Rd","City":"Nogales","State":"AZ","Zip":"85621"},{"Location":"ARIZONA LIFE LINE","Address":"1171 W Target Range Rd","City":"Nogales","State":"AZ","Zip":"85621"},{"Location":"BERNARDI AND ASSOCIATES","Address":"8 Marten Rd","City":"Nogales","State":"AZ","Zip":"85621"},{"Location":"CAB PRODUCE COMPANY","Address":"2527 N Grand Ave A","City":"Nogales","State":"AZ","Zip":"85621"},{"Location":"CARONDELET HCH REHAB","Address":"857 W Bell Rd 4","City":"Nogales","State":"AZ","Zip":"85621"},{"Location":"CHINA BUFFET NOGALES","Address":"251 W White Park Dr","City":"Nogales","State":"AZ","Zip":"85621"},{"Location":"COOGAN AND MARTIN PC","Address":"825 N Grand Ave 200","City":"Nogales","State":"AZ","Zip":"85621"},{"Location":"CORAZON NOGALES","Address":"1891 N Mastick Way A","City":"Nogales","State":"AZ","Zip":"85621"},{"Location":"CORNUCOPIA SALES LLC","Address":"150 E Terminal Produce Dr 2","City":"Nogales","State":"AZ","Zip":"85621"},{"Location":"CORREO FEDERAL","Address":"441 N Grand Ave 7","City":"Nogales","State":"AZ","Zip":"85621"},{"Location":"CR & ASSOC","Address":"3257 N Calle La Paz 49","City":"Nogales","State":"AZ","Zip":"85621"},{"Location":"CUSTOMS AND BORDER PATROL","Address":"1500 W La Quinta Rd","City":"Nogales","State":"AZ","Zip":"85621"},{"Location":"DAVITA #3030-1C NOGALES","Address":"1605 N Industrial Park Dr H","City":"Nogales","State":"AZ","Zip":"85621"},{"Location":"DELIGHTFUL QUALITY PRODUCES","Address":"2380 N Frank Reed Rd Ste 1","City":"Nogales","State":"AZ","Zip":"85621"},{"Location":"DELTA FRESH","Address":"2050 N Smokey Ln","City":"Nogales","State":"AZ","Zip":"85621"},{"Location":"DELTA FRESH SALES","Address":"513 W Valle Verde Pl 2","City":"Nogales","State":"AZ","Zip":"85621"},{"Location":"DRAGON RESTAURANT","Address":"272 W Mariposa Rd","City":"Nogales","State":"AZ","Zip":"85621"},{"Location":"DSEASARS PRODUCE","Address":"2685 N Donna Ave 1","City":"Nogales","State":"AZ","Zip":"85621"},{"Location":"E FOODS DISTRIBUTING","Address":"513 W Valle Vedre Pl #7","City":"Nogales","State":"AZ","Zip":"85621"},{"Location":"G&DI LUCA RISTORANTE","Address":"2690 N Country Club Dr","City":"Nogales","State":"AZ","Zip":"85621"},{"Location":"HILDAS SPORTS BAR TOO1","Address":"547 W Mariposa Rd","City":"Nogales","State":"AZ","Zip":"85621"},{"Location":"HOLIDAY INN EXPRESS (0059364)","Address":"850 W Shell Dr","City":"Nogales","State":"AZ","Zip":"85621"},{"Location":"JC PENNYS 1052","Address":"220 W Mariposa Rd","City":"Nogales","State":"AZ","Zip":"85621"},{"Location":"JEONG LIZARDI PC","Address":"825 N Grand Ave 204","City":"Nogales","State":"AZ","Zip":"85621"},{"Location":"KALIROY FRESH LLC","Address":"772 W.  Frontage Rd","City":"Nogales","State":"AZ","Zip":"85621"},{"Location":"KGV DISTRIBUTION LLC","Address":"2577 N Grand Ave 5","City":"Nogales","State":"AZ","Zip":"85621"},{"Location":"LAS VIGAS INC","Address":"180 W Loma St","City":"Nogales","State":"AZ","Zip":"85621"},{"Location":"LIMIT BREAK","Address":"8 Marten Rd","City":"Nogales","State":"AZ","Zip":"85621"},{"Location":"LOMA I","Address":"1790 N Loma Mariposa Rd","City":"Nogales","State":"AZ","Zip":"85621"},{"Location":"LOMA II","Address":"1790 N Loma Mariposa Rd","City":"Nogales","State":"AZ","Zip":"85621"},{"Location":"LOMA IV","Address":"1790 N Loma Mariposa Rd","City":"Nogales","State":"AZ","Zip":"85621"},{"Location":"LOMA IX","Address":"1790 N Loma Mariposa Rd","City":"Nogales","State":"AZ","Zip":"85621"},{"Location":"LOMA VI","Address":"1830 N Loma Mariposa Rd 157","City":"Nogales","State":"AZ","Zip":"85621"},{"Location":"LOMA X","Address":"1790 N Loma Mariposa Rd","City":"Nogales","State":"AZ","Zip":"85621"},{"Location":"LOMA XII","Address":"1790 N Loma Mariposa Rd","City":"Nogales","State":"AZ","Zip":"85621"},{"Location":"LOMA XV","Address":"1790 N Loma Mariposa Rd","City":"Nogales","State":"AZ","Zip":"85621"},{"Location":"LOMA XVI","Address":"1790 N Loma Mariposa Rd","City":"Nogales","State":"AZ","Zip":"85621"},{"Location":"LOMA XVII","Address":"1790 N Loma Mariposa Rd","City":"Nogales","State":"AZ","Zip":"85621"},{"Location":"M AND D WELDING SUPPLIES","Address":"2507 N Grand Ave C","City":"Nogales","State":"AZ","Zip":"85621"},{"Location":"MARINOS WAREHOUSE","Address":"871 W Mariposa Rd 1","City":"Nogales","State":"AZ","Zip":"85621"},{"Location":"MARIPOSA COMMUNITY  HEALTH CNT","Address":"1852 N Mastick Way","City":"Nogales","State":"AZ","Zip":"85621"},{"Location":"MARIPOSA COMMUNITY HEALTH CNT","Address":"Sierra Sierra Bldg  1852 N Mast","City":"Nogales","State":"AZ","Zip":"85621"},{"Location":"MARISCOS CHIHUAHUA MEXICAN","Address":"557 N Grand Ave C","City":"Nogales","State":"AZ","Zip":"85621"},{"Location":"MARTINEZ HOME CARE","Address":"2429 N Grand Ave","City":"Nogales","State":"AZ","Zip":"85621"},{"Location":"MAYER WAREHOUSE","Address":"161 E Mayra Dr","City":"Nogales","State":"AZ","Zip":"85621"},{"Location":"MITCHELL THEATRES OASIS 9","Address":"240 W Roper Rd","City":"Nogales","State":"AZ","Zip":"85621"},{"Location":"OPERADORA DE AUTOBUSES","Address":"621 N Grand Ave D","City":"Nogales","State":"AZ","Zip":"85621"},{"Location":"OTNIP USA LLC","Address":"1080 N Royal Rd","City":"Nogales","State":"AZ","Zip":"85621"},{"Location":"PACO & SONS HOME FURNITU","Address":"1213 N Grand Ave","City":"Nogales","State":"AZ","Zip":"85621"},{"Location":"PERFECT HARVEST INC","Address":"825 N Grand Ave 202","City":"Nogales","State":"AZ","Zip":"85621"},{"Location":"PETER PIPER PIZZA # 231","Address":"466 N Grand Court Plz","City":"Nogales","State":"AZ","Zip":"85621"},{"Location":"PIN SAPO RESTAURANT","Address":"2081 N Grand Ave","City":"Nogales","State":"AZ","Zip":"85621"},{"Location":"R GARCIA INTERNATIONAL","Address":"1860 N State Dr 1","City":"Nogales","State":"AZ","Zip":"85621"},{"Location":"RAM LODGINGLLC BW SONORA","Address":"750 W Shell Dr","City":"Nogales","State":"AZ","Zip":"85621"},{"Location":"RANCHO GRANDE LLC","Address":"270 N Grand Court Plz","City":"Nogales","State":"AZ","Zip":"85621"},{"Location":"ROOSTER WINGS AND SPORTS BAR","Address":"800 W Shell Dr","City":"Nogales","State":"AZ","Zip":"85621"},{"Location":"SALAS TRUCKING","Address":"175 Old Tucson Rd","City":"Nogales","State":"AZ","Zip":"85621"},{"Location":"SALON ROJO   BARBER SHOP","Address":"473 N Grand Ave B","City":"Nogales","State":"AZ","Zip":"85621"},{"Location":"SANTA CRUZ COUNTY ATTORNEY","Address":"2150 N Congress Dr 201","City":"Nogales","State":"AZ","Zip":"85621"},{"Location":"SATELLITE WORLD","Address":"2747 N Grand Ave","City":"Nogales","State":"AZ","Zip":"85621"},{"Location":"SCOTTYS","Address":"2947 N Grand Ave","City":"Nogales","State":"AZ","Zip":"85621"},{"Location":"SEABHS 9010","Address":"230 E Thelma St","City":"Nogales","State":"AZ","Zip":"85621"},{"Location":"SIERRA SEED COMPANY","Address":"2329 N Grand Ave","City":"Nogales","State":"AZ","Zip":"85621"},{"Location":"SONNYS MINI MART LLC","Address":"2595 N Grand Ave A","City":"Nogales","State":"AZ","Zip":"85621"},{"Location":"STAR PRODUCE","Address":"672 W Frontage Rd","City":"Nogales","State":"AZ","Zip":"85621"},{"Location":"STYLE HOUSE STUDIO","Address":"2921 N Grand Ave 3","City":"Nogales","State":"AZ","Zip":"85621"},{"Location":"TJAM ENTERPRISES LLC%2FMRC'S","Address":"282 W View Point Dr","City":"Nogales","State":"AZ","Zip":"85621"},{"Location":"TOSCANOS RESTAURANT","Address":"1855 N Grand Ave","City":"Nogales","State":"AZ","Zip":"85621"},{"Location":"US CONSULATE HERMOSILLO","Address":"1370 N Industrial Park B","City":"Nogales","State":"AZ","Zip":"85621"},{"Location":"US CUSTOMS & BORDER PROTECTION","Address":"200 N Mariposa Rd","City":"Nogales","State":"AZ","Zip":"85621"},{"Location":"US CUSTOMS AND BOARDER","Address":"9 N Grand Ave","City":"Nogales","State":"AZ","Zip":"85621"},{"Location":"VFW 2066","Address":"653 N Grand Ave","City":"Nogales","State":"AZ","Zip":"85621"},{"Location":"WAGON WHEEL SALON","Address":"400 W. Naugle Ave","City":"Nogales","State":"AZ","Zip":"85621"},{"Location":"YUYOS BARBER SHOP","Address":"1012 N Grand Ave 20","City":"Nogales","State":"AZ","Zip":"85621"}]