[{"Location":"AGIS COMMUNICATIONS GROUP INC","Address":"4251 Enterprise Way","City":"Sierra Vista","State":"AZ","Zip":"85635"},{"Location":"AMERICAN LEIGON POST FIFTYTWO","Address":"12 Theater Dr","City":"Sierra Vista","State":"AZ","Zip":"85635"},{"Location":"ANA TOKYO","Address":"1633 S Highway 92","City":"Sierra Vista","State":"AZ","Zip":"85635"},{"Location":"APPLEBEE'S #605 SIERRA VISTA","Address":"3899 El Mercado Loop","City":"Sierra Vista","State":"AZ","Zip":"85635"},{"Location":"ARISE","Address":"632 Suffolk Dr","City":"Sierra Vista","State":"AZ","Zip":"85635"},{"Location":"ARIZONA NAILS BY TONY INC","Address":"2200 Ele Mercado Loop 1176","City":"Sierra Vista","State":"AZ","Zip":"85635"},{"Location":"ARIZONA TRADING LLC","Address":"101 N 6th St","City":"Sierra Vista","State":"AZ","Zip":"85635"},{"Location":"ATF SIERRA VISTA","Address":"4670 Industry Dr 8","City":"Sierra Vista","State":"AZ","Zip":"85635"},{"Location":"BUFFALO WILD WINGS #0528","Address":"205 S Highway 92","City":"Sierra Vista","State":"AZ","Zip":"85635"},{"Location":"CASTILLO AUTO REPAIR","Address":"710 Bartow Dr","City":"Sierra Vista","State":"AZ","Zip":"85635"},{"Location":"CATHOLIC COMMUNITY SERVICES","Address":"100 Kayetan Dr","City":"Sierra Vista","State":"AZ","Zip":"85635"},{"Location":"CHILI'S #0756","Address":"4001 E Highway 90","City":"Sierra Vista","State":"AZ","Zip":"85635"},{"Location":"COLUMBIAN ASSOCIATION","Address":"156 W Kayetan Dr","City":"Sierra Vista","State":"AZ","Zip":"85635"},{"Location":"DANIELS JEWELRS","Address":"480 N Highway 90 Byp A4","City":"Sierra Vista","State":"AZ","Zip":"85635"},{"Location":"DAVITA #3047 SIERRA VISTA","Address":"629 N Highway 90 Byp","City":"Sierra Vista","State":"AZ","Zip":"85635"},{"Location":"DOWN HOME BBQ","Address":"149 S Carmichael Ave","City":"Sierra Vista","State":"AZ","Zip":"85635"},{"Location":"FAMOUS SAMS","Address":"2239 E Fry Blvd","City":"Sierra Vista","State":"AZ","Zip":"85635"},{"Location":"FEE THREE","Address":"4225 Avenida Cochise","City":"Sierra Vista","State":"AZ","Zip":"85635"},{"Location":"FERGUSON #0914","Address":"4244 Industry Dr","City":"Sierra Vista","State":"AZ","Zip":"85635"},{"Location":"FIRST CHRISTIAN CHURCH","Address":"55 Kings Way","City":"Sierra Vista","State":"AZ","Zip":"85635"},{"Location":"FREEDOM AUTO SALES","Address":"297 E Fry Blvd","City":"Sierra Vista","State":"AZ","Zip":"85635"},{"Location":"GENERAL DENTAL","Address":"1729 Pasaio","City":"Sierra Vista","State":"AZ","Zip":"85635"},{"Location":"GOLDEN PHOENIX RESTAURANT","Address":"1173 E Fry Blvd","City":"Sierra Vista","State":"AZ","Zip":"85635"},{"Location":"INTERCEPT SPEECH & LANGU","Address":"2700 E Fry Blvd A5","City":"Sierra Vista","State":"AZ","Zip":"85635"},{"Location":"INTERNATIONAL KAROAKE%2CCHONG%2C","Address":"325 W Fry Blvd","City":"Sierra Vista","State":"AZ","Zip":"85635"},{"Location":"JUANS BARBER SHOP","Address":"11 E Wilcox Dr B","City":"Sierra Vista","State":"AZ","Zip":"85635"},{"Location":"KING NAILS BY ANH","Address":"440 N Highway 90 Byp B7","City":"Sierra Vista","State":"AZ","Zip":"85635"},{"Location":"LINDA LOUNGE","Address":"211 Bartow Dr","City":"Sierra Vista","State":"AZ","Zip":"85635"},{"Location":"LONG REALTY  SIERRA VISTA","Address":"2363 E Fry Blvd","City":"Sierra Vista","State":"AZ","Zip":"85635"},{"Location":"MAINE BEAUTY BOUTIQUE","Address":"999 E Fry Blvd","City":"Sierra Vista","State":"AZ","Zip":"85635"},{"Location":"NORTHROP GRUMMAN","Address":"4067 Enterprise Way","City":"Sierra Vista","State":"AZ","Zip":"85635"},{"Location":"OLIVE GARDEN #1871","Address":"380 N Highway 90","City":"Sierra Vista","State":"AZ","Zip":"85635"},{"Location":"OUTBACK STEAKHOUSE #0325","Address":"99 S Highway 92","City":"Sierra Vista","State":"AZ","Zip":"85635"},{"Location":"PAUL'S PUB","Address":"1805 Paseo San Luis","City":"Sierra Vista","State":"AZ","Zip":"85635"},{"Location":"PC'S LOUNGE","Address":"4700 E Hwy 90","City":"Sierra Vista","State":"AZ","Zip":"85635"},{"Location":"PETER PIPER PIZZA # 250","Address":"155 S Hwy 92","City":"Sierra Vista","State":"AZ","Zip":"85635"},{"Location":"PHI MEDICAL AE22 AIR EVA","Address":"1800 Airport Ave","City":"Sierra Vista","State":"AZ","Zip":"85635"},{"Location":"PHI MEDICAL SIERRA VISTA","Address":"2800 E Wilcox Dr","City":"Sierra Vista","State":"AZ","Zip":"85635"},{"Location":"PIZZA HUT","Address":"900 E Fry Blvd","City":"Sierra Vista","State":"AZ","Zip":"85635"},{"Location":"PIZZA HUT 26","Address":"3680 E Fry Blvd","City":"Sierra Vista","State":"AZ","Zip":"85635"},{"Location":"RENDEZVOUS BAR","Address":"40 Avenida Essuela","City":"Sierra Vista","State":"AZ","Zip":"85635"},{"Location":"SAFE LITE","Address":"4148 Industry Dr 1104","City":"Sierra Vista","State":"AZ","Zip":"85635"},{"Location":"SCHOLOTZSKYS","Address":"3900 E Fry Blbvd","City":"Sierra Vista","State":"AZ","Zip":"85635"},{"Location":"SIERRA COURT APARTMENTS","Address":"270 Tacoma","City":"Sierra Vista","State":"AZ","Zip":"85635"},{"Location":"SIERRA VISTA ELKS 2065","Address":"1 Elks Ln","City":"Sierra Vista","State":"AZ","Zip":"85635"},{"Location":"SIERRA VISTA I","Address":"4600 Charleston Rd","City":"Sierra Vista","State":"AZ","Zip":"85635"},{"Location":"SIERRA VISTA II","Address":"4600 Charleston Rd","City":"Sierra Vista","State":"AZ","Zip":"85635"},{"Location":"SIERRA VISTA III","Address":"4600 Charleston Rd","City":"Sierra Vista","State":"AZ","Zip":"85635"},{"Location":"SIERRA VISTA V","Address":"4600 Charleston Rd","City":"Sierra Vista","State":"AZ","Zip":"85635"},{"Location":"SIERRA VISTA VI","Address":"4600 Charleston Rd","City":"Sierra Vista","State":"AZ","Zip":"85635"},{"Location":"SLICKS SHUTTLE SERVICE","Address":"4750 E Highway 90","City":"Sierra Vista","State":"AZ","Zip":"85635"},{"Location":"SUBWAY 29223","Address":"443 N Hwy 90 Byp","City":"Sierra Vista","State":"AZ","Zip":"85635"},{"Location":"SUBWAY2054","Address":"329 W Fry Blvd","City":"Sierra Vista","State":"AZ","Zip":"85635"},{"Location":"SUNNAS KOREAN RESTAURANT","Address":"260 W Fry Blvd B","City":"Sierra Vista","State":"AZ","Zip":"85635"},{"Location":"SUNNI SUNSHINE STYLE","Address":"1100 S Highway 92","City":"Sierra Vista","State":"AZ","Zip":"85635"},{"Location":"SUPER BUFFET","Address":"465 N Highway 90 Byp","City":"Sierra Vista","State":"AZ","Zip":"85635"},{"Location":"SV HARLEY DAVIDSON","Address":"176 W Fry Blvd","City":"Sierra Vista","State":"AZ","Zip":"85635"},{"Location":"TACO GIRO MEXICAN GRILL","Address":"2097 E Fry Blvd","City":"Sierra Vista","State":"AZ","Zip":"85635"},{"Location":"TDY123","Address":"1730 Via Riata A","City":"Sierra Vista","State":"AZ","Zip":"85635"},{"Location":"THUNDERBIRD MOBILE PARK AND RV","Address":"3300 E Fry Blvd 19","City":"Sierra Vista","State":"AZ","Zip":"85635"},{"Location":"TRANSPORTATION EXPRESS","Address":"104 N 7th St A","City":"Sierra Vista","State":"AZ","Zip":"85635"},{"Location":"VISTA QUEEN","Address":"629 N Hwy 90 Byp 78","City":"Sierra Vista","State":"AZ","Zip":"85635"},{"Location":"WINDEMERE HOTEL COMM","Address":"2047 S State Highway 92","City":"Sierra Vista","State":"AZ","Zip":"85635"},{"Location":"AGIS COMMUNICATIONS GROUP INC","Address":"4251 Enterprise Way","City":"Sierra Vista","State":"AZ","Zip":"85635"},{"Location":"AMERICAN LEIGON POST FIFTYTWO","Address":"12 Theater Dr","City":"Sierra Vista","State":"AZ","Zip":"85635"},{"Location":"ANA TOKYO","Address":"1633 S Highway 92","City":"Sierra Vista","State":"AZ","Zip":"85635"},{"Location":"APPLEBEE'S #605 SIERRA VISTA","Address":"3899 El Mercado Loop","City":"Sierra Vista","State":"AZ","Zip":"85635"},{"Location":"ARISE","Address":"632 Suffolk Dr","City":"Sierra Vista","State":"AZ","Zip":"85635"},{"Location":"ARIZONA NAILS BY TONY INC","Address":"2200 Ele Mercado Loop 1176","City":"Sierra Vista","State":"AZ","Zip":"85635"},{"Location":"ARIZONA TRADING LLC","Address":"101 N 6th St","City":"Sierra Vista","State":"AZ","Zip":"85635"},{"Location":"ATF SIERRA VISTA","Address":"4670 Industry Dr 8","City":"Sierra Vista","State":"AZ","Zip":"85635"},{"Location":"BUFFALO WILD WINGS #0528","Address":"205 S Highway 92","City":"Sierra Vista","State":"AZ","Zip":"85635"},{"Location":"CASTILLO AUTO REPAIR","Address":"710 Bartow Dr","City":"Sierra Vista","State":"AZ","Zip":"85635"},{"Location":"CATHOLIC COMMUNITY SERVICES","Address":"100 Kayetan Dr","City":"Sierra Vista","State":"AZ","Zip":"85635"},{"Location":"CHILI'S #0756","Address":"4001 E Highway 90","City":"Sierra Vista","State":"AZ","Zip":"85635"},{"Location":"COLUMBIAN ASSOCIATION","Address":"156 W Kayetan Dr","City":"Sierra Vista","State":"AZ","Zip":"85635"},{"Location":"DANIELS JEWELRS","Address":"480 N Highway 90 Byp A4","City":"Sierra Vista","State":"AZ","Zip":"85635"},{"Location":"DAVITA #3047 SIERRA VISTA","Address":"629 N Highway 90 Byp","City":"Sierra Vista","State":"AZ","Zip":"85635"},{"Location":"DOWN HOME BBQ","Address":"149 S Carmichael Ave","City":"Sierra Vista","State":"AZ","Zip":"85635"},{"Location":"FAMOUS SAMS","Address":"2239 E Fry Blvd","City":"Sierra Vista","State":"AZ","Zip":"85635"},{"Location":"FEE THREE","Address":"4225 Avenida Cochise","City":"Sierra Vista","State":"AZ","Zip":"85635"},{"Location":"FERGUSON #0914","Address":"4244 Industry Dr","City":"Sierra Vista","State":"AZ","Zip":"85635"},{"Location":"FIRST CHRISTIAN CHURCH","Address":"55 Kings Way","City":"Sierra Vista","State":"AZ","Zip":"85635"},{"Location":"FREEDOM AUTO SALES","Address":"297 E Fry Blvd","City":"Sierra Vista","State":"AZ","Zip":"85635"},{"Location":"GENERAL DENTAL","Address":"1729 Pasaio","City":"Sierra Vista","State":"AZ","Zip":"85635"},{"Location":"GOLDEN PHOENIX RESTAURANT","Address":"1173 E Fry Blvd","City":"Sierra Vista","State":"AZ","Zip":"85635"},{"Location":"HOMETOWN HOSPITALITY GROUP","Address":"632 S Highway 92","City":"Sierra Vista","State":"AZ","Zip":"85635"},{"Location":"INTERCEPT SPEECH & LANGU","Address":"2700 E Fry Blvd A5","City":"Sierra Vista","State":"AZ","Zip":"85635"},{"Location":"INTERNATIONAL KAROAKE%2CCHONG%2C","Address":"325 W Fry Blvd","City":"Sierra Vista","State":"AZ","Zip":"85635"},{"Location":"JUANS BARBER SHOP","Address":"11 E Wilcox Dr B","City":"Sierra Vista","State":"AZ","Zip":"85635"},{"Location":"KING NAILS BY ANH","Address":"440 N Highway 90 Byp B7","City":"Sierra Vista","State":"AZ","Zip":"85635"},{"Location":"LINDA LOUNGE","Address":"211 Bartow Dr","City":"Sierra Vista","State":"AZ","Zip":"85635"},{"Location":"LONG REALTY  SIERRA VISTA","Address":"2363 E Fry Blvd","City":"Sierra Vista","State":"AZ","Zip":"85635"},{"Location":"MAINE BEAUTY BOUTIQUE","Address":"999 E Fry Blvd","City":"Sierra Vista","State":"AZ","Zip":"85635"},{"Location":"NORTHROP GRUMMAN","Address":"4067 Enterprise Way","City":"Sierra Vista","State":"AZ","Zip":"85635"},{"Location":"OLIVE GARDEN #1871","Address":"380 N Highway 90","City":"Sierra Vista","State":"AZ","Zip":"85635"},{"Location":"OUTBACK STEAKHOUSE #0325","Address":"99 S Highway 92","City":"Sierra Vista","State":"AZ","Zip":"85635"},{"Location":"PAUL'S PUB","Address":"1805 Paseo San Luis","City":"Sierra Vista","State":"AZ","Zip":"85635"},{"Location":"PC'S LOUNGE","Address":"4700 E Hwy 90","City":"Sierra Vista","State":"AZ","Zip":"85635"},{"Location":"PETER PIPER PIZZA # 250","Address":"155 S Hwy 92","City":"Sierra Vista","State":"AZ","Zip":"85635"},{"Location":"PHI MEDICAL AE22 AIR EVA","Address":"1800 Airport Ave","City":"Sierra Vista","State":"AZ","Zip":"85635"},{"Location":"PHI MEDICAL SIERRA VISTA","Address":"2800 E Wilcox Dr","City":"Sierra Vista","State":"AZ","Zip":"85635"},{"Location":"PIZZA HUT","Address":"900 E Fry Blvd","City":"Sierra Vista","State":"AZ","Zip":"85635"},{"Location":"PIZZA HUT 26","Address":"3680 E Fry Blvd","City":"Sierra Vista","State":"AZ","Zip":"85635"},{"Location":"RENDEZVOUS BAR","Address":"40 Avenida Essuela","City":"Sierra Vista","State":"AZ","Zip":"85635"},{"Location":"SAFE LITE","Address":"4148 Industry Dr 1104","City":"Sierra Vista","State":"AZ","Zip":"85635"},{"Location":"SCHOLOTZSKYS","Address":"3900 E Fry Blbvd","City":"Sierra Vista","State":"AZ","Zip":"85635"},{"Location":"SIERRA COURT APARTMENTS","Address":"270 Tacoma","City":"Sierra Vista","State":"AZ","Zip":"85635"},{"Location":"SIERRA VISTA ELKS 2065","Address":"1 Elks Ln","City":"Sierra Vista","State":"AZ","Zip":"85635"},{"Location":"SIERRA VISTA I","Address":"4600 Charleston Rd","City":"Sierra Vista","State":"AZ","Zip":"85635"},{"Location":"SIERRA VISTA II","Address":"4600 Charleston Rd","City":"Sierra Vista","State":"AZ","Zip":"85635"},{"Location":"SIERRA VISTA III","Address":"4600 Charleston Rd","City":"Sierra Vista","State":"AZ","Zip":"85635"},{"Location":"SIERRA VISTA V","Address":"4600 Charleston Rd","City":"Sierra Vista","State":"AZ","Zip":"85635"},{"Location":"SIERRA VISTA VI","Address":"4600 Charleston Rd","City":"Sierra Vista","State":"AZ","Zip":"85635"},{"Location":"SLICKS SHUTTLE SERVICE","Address":"4750 E Highway 90","City":"Sierra Vista","State":"AZ","Zip":"85635"},{"Location":"SUBWAY 29223","Address":"443 N Hwy 90 Byp","City":"Sierra Vista","State":"AZ","Zip":"85635"},{"Location":"SUBWAY2054","Address":"329 W Fry Blvd","City":"Sierra Vista","State":"AZ","Zip":"85635"},{"Location":"SUNNAS KOREAN RESTAURANT","Address":"260 W Fry Blvd B","City":"Sierra Vista","State":"AZ","Zip":"85635"},{"Location":"SUNNI SUNSHINE STYLE","Address":"1100 S Highway 92","City":"Sierra Vista","State":"AZ","Zip":"85635"},{"Location":"SUPER BUFFET","Address":"465 N Highway 90 Byp","City":"Sierra Vista","State":"AZ","Zip":"85635"},{"Location":"SV HARLEY DAVIDSON","Address":"176 W Fry Blvd","City":"Sierra Vista","State":"AZ","Zip":"85635"},{"Location":"TACO GIRO MEXICAN GRILL","Address":"2097 E Fry Blvd","City":"Sierra Vista","State":"AZ","Zip":"85635"},{"Location":"TDY123","Address":"1730 Via Riata A","City":"Sierra Vista","State":"AZ","Zip":"85635"},{"Location":"THUNDERBIRD MOBILE PARK AND RV","Address":"3300 E Fry Blvd 19","City":"Sierra Vista","State":"AZ","Zip":"85635"},{"Location":"TRANSPORTATION EXPRESS","Address":"104 N 7th St A","City":"Sierra Vista","State":"AZ","Zip":"85635"},{"Location":"VISTA QUEEN","Address":"629 N Hwy 90 Byp 78","City":"Sierra Vista","State":"AZ","Zip":"85635"},{"Location":"WINDEMERE HOTEL COMM","Address":"2047 S State Highway 92","City":"Sierra Vista","State":"AZ","Zip":"85635"}]