[{"Location":"BIG NOSE KATES SALOON","Address":"417 E Allen St","City":"Tombstone","State":"AZ","Zip":"85638"},{"Location":"CRYSTAL PALACE","Address":"436 E Allen St","City":"Tombstone","State":"AZ","Zip":"85638"},{"Location":"DOC HOLLIDAY%3FS SALOON","Address":"517 E Allen St","City":"Tombstone","State":"AZ","Zip":"85638"},{"Location":"DOC HOLLIDAYS SALOON","Address":"517 E Allen St","City":"Tombstone","State":"AZ","Zip":"85638"},{"Location":"FOUR DEUCES SALOON  GRILL","Address":"101 S 3 St","City":"Tombstone","State":"AZ","Zip":"85638"},{"Location":"IKES MINI MARKET","Address":"117 East Fremont St","City":"Tombstone","State":"AZ","Zip":"85638"},{"Location":"RUSTIC REALTY INC","Address":"4 Safford St","City":"Tombstone","State":"AZ","Zip":"85638"},{"Location":"SIERRA VISTA REGIONAL","Address":"7 N San Diego St","City":"Tombstone","State":"AZ","Zip":"85638"},{"Location":"SMOKE SIGNALS","Address":"409 E Allen St","City":"Tombstone","State":"AZ","Zip":"85638"},{"Location":"VANTAGE WEST CREDIT UNION","Address":"218 S Sumner","City":"Tombstone","State":"AZ","Zip":"85638"}]