[{"Location":"SAN SIMON HEALTH CENTER","Address":"West Hwy 86","City":"Sella","State":"AZ","Zip":"85634"},{"Location":"AJO AMBULANCE","Address":"San Si San Simon Highschool Hou","City":"Sells","State":"AZ","Zip":"85634"},{"Location":"AJO AMBULANCE","Address":"Hwy 86 At Mile Post 91","City":"Sells","State":"AZ","Zip":"85634"},{"Location":"AJO AMBULANCE","Address":"Hwy 15  Post Mm34.1","City":"Sells","State":"AZ","Zip":"85634"},{"Location":"CMS - SELL INDIAN HOSPITAL","Address":"State Hwy 86","City":"Sells","State":"AZ","Zip":"85634"},{"Location":"HEALTHY ODHAM PROMOTION PROG","Address":"Hw Hwy 86 Sells Business Lo","City":"Sells","State":"AZ","Zip":"85634"},{"Location":"SELLS HOSPITAL","Address":"Hwy 86 And Topowa Rd","City":"Sells","State":"AZ","Zip":"85634"},{"Location":"SELLS INDIAN HOSPITAL","Address":"Po Box 548","City":"Sells","State":"AZ","Zip":"85634"},{"Location":"SELLS INDIAN HOSPITAL 3","Address":"Arizona 86","City":"Sells","State":"AZ","Zip":"85634"},{"Location":"TOCC","Address":"125 Milepost","City":"Sells","State":"AZ","Zip":"85634"},{"Location":"TOHONO O'ODHAM NATION JUSTICE","Address":"Hwy 86 Pd & Main Rd","City":"Sells","State":"AZ","Zip":"85634"},{"Location":"TOHONO O'ODHAM NATION OEM","Address":"Po Box 837","City":"Sells","State":"AZ","Zip":"85634"},{"Location":"TOHONO O'ODHAM POLICE DEPT.","Address":"Police Dept Rd & Hwy 86","City":"Sells","State":"AZ","Zip":"85634"},{"Location":"TOHONO OODHAM","Address":"42 Bia Compound 42","City":"Sells","State":"AZ","Zip":"85634"},{"Location":"TOHONO OODHAM COLLEGE","Address":"126 Highway 86 N","City":"Sells","State":"AZ","Zip":"85634"}]