[{"Location":"DAVITA #3046 SELLS","Address":"Hwy 86 New Dialysis Ctr","City":"Sells","State":"AZ","Zip":"85643"},{"Location":"CATTLE REST BAR","Address":"933 S Haskell Ave","City":"Willcox","State":"AZ","Zip":"85643"},{"Location":"CHARLES W LEIGHTON HOSPICE INC","Address":"242 S Biddle Ave","City":"Willcox","State":"AZ","Zip":"85643"},{"Location":"INDE MOTORSPORTS RANCH","Address":"9301 W Airport Rd","City":"Willcox","State":"AZ","Zip":"85643"},{"Location":"INDY MOTORSPORTS 2","Address":"9301 W Airport Rd","City":"Willcox","State":"AZ","Zip":"85643"},{"Location":"PIZZA HUT-WILLCOX","Address":"1001 W Rex Allen Dr","City":"Willcox","State":"AZ","Zip":"85643"},{"Location":"RIXS TAVERN","Address":"176 S Haskell Ave","City":"Willcox","State":"AZ","Zip":"85643"},{"Location":"STUMBLEWEEDS","Address":"115 S Haskell","City":"Willcox","State":"AZ","Zip":"85643"},{"Location":"STUMBLEWEEDS","Address":"115 S Haskell Ave","City":"Willcox","State":"AZ","Zip":"85643"},{"Location":"TCA 226 WILCOX","Address":"1501 Fort Grant Rd","City":"Willcox","State":"AZ","Zip":"85643"},{"Location":"UNITED STATES BORDER PATROL","Address":"3293 East Kimsey Rd #2","City":"Willcox","State":"AZ","Zip":"85643"},{"Location":"UNITED STATES BORDER PATROL CU","Address":"200 S Rex Allen Jr Rd","City":"Willcox","State":"AZ","Zip":"85643"},{"Location":"US BORDER HORSE PATROL","Address":"3293 E Kimsey Rd","City":"Willcox","State":"AZ","Zip":"85643"},{"Location":"US BORDER PATROL","Address":"3293 E Kimsey Rd #3","City":"Willcox","State":"AZ","Zip":"85643"}]