[{"Location":"AQUA SPA","Address":"24 Burrel St","City":"Tubac","State":"AZ","Zip":"85646"},{"Location":"BRASHER REAL ESTATE","Address":"30 Avenida Goya D","City":"Tubac","State":"AZ","Zip":"85646"},{"Location":"CATTLEMEX LLC","Address":"2234 Calle Palo Parado","City":"Tubac","State":"AZ","Zip":"85646"},{"Location":"ELVIRAS RESTAURANT","Address":"2201 E Frontage Rd","City":"Tubac","State":"AZ","Zip":"85646"},{"Location":"HOMELAND SECURITY- MOBILE PRO","Address":"Uspb I19 Checkpoint","City":"Tubac","State":"AZ","Zip":"85646"},{"Location":"KRIS TOTAL FITNESS","Address":"26 East Tubac Rd","City":"Tubac","State":"AZ","Zip":"85646"},{"Location":"LONG REALTY","Address":"40 Avenida Goya","City":"Tubac","State":"AZ","Zip":"85646"},{"Location":"SILVERLEAF ACQUISITION","Address":"84 Clark Crossing Rd","City":"Tubac","State":"AZ","Zip":"85646"},{"Location":"SOTOS PK OUTPOST","Address":"12 14 Camino Otero","City":"Tubac","State":"AZ","Zip":"85646"},{"Location":"TUBAC ART GIFTS","Address":"31 Tubac Rd","City":"Tubac","State":"AZ","Zip":"85646"},{"Location":"TUBAC FIRE DISTRICT","Address":"2227 E Frontage Rd","City":"Tubac","State":"AZ","Zip":"85646"},{"Location":"AQUA SPA","Address":"24 Burrel St","City":"Tubac","State":"AZ","Zip":"85646"},{"Location":"BRASHER REAL ESTATE","Address":"30 Avenida Goya D","City":"Tubac","State":"AZ","Zip":"85646"},{"Location":"CATTLEMEX LLC","Address":"2234 Calle Palo Parado","City":"Tubac","State":"AZ","Zip":"85646"},{"Location":"ELVIRAS RESTAURANT","Address":"2201 E Frontage Rd","City":"Tubac","State":"AZ","Zip":"85646"},{"Location":"HOMELAND SECURITY- MOBILE PRO","Address":"Uspb I19 Checkpoint","City":"Tubac","State":"AZ","Zip":"85646"},{"Location":"KRIS TOTAL FITNESS","Address":"26 East Tubac Rd","City":"Tubac","State":"AZ","Zip":"85646"},{"Location":"LONG REALTY","Address":"40 Avenida Goya","City":"Tubac","State":"AZ","Zip":"85646"},{"Location":"SILVERLEAF ACQUISITION","Address":"84 Clark Crossing Rd","City":"Tubac","State":"AZ","Zip":"85646"},{"Location":"SOTOS PK OUTPOST","Address":"12 14 Camino Otero","City":"Tubac","State":"AZ","Zip":"85646"},{"Location":"TUBAC ART GIFTS","Address":"31 Tubac Rd","City":"Tubac","State":"AZ","Zip":"85646"},{"Location":"TUBAC FIRE DISTRICT","Address":"2227 E Frontage Rd","City":"Tubac","State":"AZ","Zip":"85646"}]