[{"Location":"AMERICAN LEGION POST 109","Address":"15921 S Houghton Rd","City":"Vail","State":"AZ","Zip":"85641"},{"Location":"ARGENZIANOS","Address":"16251 S Houghton Rd","City":"Vail","State":"AZ","Zip":"85641"},{"Location":"MONTGOMERY'S GRILL & SALOON","Address":"13190 E Colossal Cave Rd 190","City":"Vail","State":"AZ","Zip":"85641"},{"Location":"VAIL FAMILY DENTISTRY","Address":"13190 E Colossal Cave Rd 150","City":"Vail","State":"AZ","Zip":"85641"},{"Location":"VAIL INTERNAL MEDICINE","Address":"13180 E Colossal Cave Rd","City":"Vail","State":"AZ","Zip":"85641"},{"Location":"VAIL STEAKHOUSE CAFE AND DINER","Address":"13005 E Benson Hwy","City":"Vail","State":"AZ","Zip":"85641"},{"Location":"AMERICAN LEGION POST 109","Address":"15921 S Houghton Rd","City":"Vail","State":"AZ","Zip":"85641"},{"Location":"ARGENZIANOS","Address":"16251 S Houghton Rd","City":"Vail","State":"AZ","Zip":"85641"},{"Location":"MONTGOMERY'S GRILL & SALOON","Address":"13190 E Colossal Cave Rd 190","City":"Vail","State":"AZ","Zip":"85641"},{"Location":"VAIL FAMILY DENTISTRY","Address":"13190 E Colossal Cave Rd 150","City":"Vail","State":"AZ","Zip":"85641"},{"Location":"VAIL INTERNAL MEDICINE","Address":"13180 E Colossal Cave Rd","City":"Vail","State":"AZ","Zip":"85641"},{"Location":"VAIL STEAKHOUSE CAFE AND DINER","Address":"13005 E Benson Hwy","City":"Vail","State":"AZ","Zip":"85641"}]