[{"Location":"AIR METHODS CORP","Address":"333 Camino Josefina","City":"Rio Rico","State":"AZ","Zip":"85648"},{"Location":"ALV FARMS LLC","Address":"983 E Frontage Rd","City":"Rio Rico","State":"AZ","Zip":"85648"},{"Location":"BJ BROTHERS PRODUCE","Address":"21 Calle Cristina","City":"Rio Rico","State":"AZ","Zip":"85648"},{"Location":"CALIXTRO DISTRIBUTING CO.","Address":"50 Kipper St","City":"Rio Rico","State":"AZ","Zip":"85648"},{"Location":"FRESH DIRECT","Address":"57 Kipper St","City":"Rio Rico","State":"AZ","Zip":"85648"},{"Location":"FRESH DIRECT INC","Address":"989 E Frontage Rd","City":"Rio Rico","State":"AZ","Zip":"85648"},{"Location":"GOLDEN DESERT PRODUCE","Address":"861 E Frontage Rd","City":"Rio Rico","State":"AZ","Zip":"85648"},{"Location":"GROWERS PRIDE LLC","Address":"845 E Frontage Rd","City":"Rio Rico","State":"AZ","Zip":"85648"},{"Location":"HAIR BY ELMA","Address":"1149 W Frontage Rd 1","City":"Rio Rico","State":"AZ","Zip":"85648"},{"Location":"HENRY COLE ENTERPRISES INC","Address":"933 E Frontage Rd 2","City":"Rio Rico","State":"AZ","Zip":"85648"},{"Location":"HSI%2FICE NOGALES","Address":"41 Paseo De Yucatan","City":"Rio Rico","State":"AZ","Zip":"85648"},{"Location":"HUA MEI","Address":"1060 Yavapai Dr","City":"Rio Rico","State":"AZ","Zip":"85648"},{"Location":"HUA MEI","Address":"1060 Yavapai Dr 3","City":"Rio Rico","State":"AZ","Zip":"85648"},{"Location":"INTERNATIONAL CLUB","Address":"1120 Circulo Mercado","City":"Rio Rico","State":"AZ","Zip":"85648"},{"Location":"IPR FRESH","Address":"983 E Frontage Rd 5","City":"Rio Rico","State":"AZ","Zip":"85648"},{"Location":"L J TRANSPORTATION LLC","Address":"960 Avenida Palomas","City":"Rio Rico","State":"AZ","Zip":"85648"},{"Location":"LAS TRANKAS RESTAURANT I","Address":"1139 W Frontage Rd 1","City":"Rio Rico","State":"AZ","Zip":"85648"},{"Location":"MACC PRODUCE LLC","Address":"5 Avenida Acaponeta","City":"Rio Rico","State":"AZ","Zip":"85648"},{"Location":"MANUAL WORK TRUCKING","Address":"21 Kipper St","City":"Rio Rico","State":"AZ","Zip":"85648"},{"Location":"MARIPOSA COMMUNITY 2","Address":"1103 Circulo Mercado De","City":"Rio Rico","State":"AZ","Zip":"85648"},{"Location":"MAS MELONES GRAPES","Address":"41 Kipper St","City":"Rio Rico","State":"AZ","Zip":"85648"},{"Location":"MOST HOLY NATIVITY","Address":"384 Cancun Ct","City":"Rio Rico","State":"AZ","Zip":"85648"},{"Location":"OMEGA PRODUCE COMPANY","Address":"891 E Frontage Rd","City":"Rio Rico","State":"AZ","Zip":"85648"},{"Location":"PILOT FLYING J #27900","Address":"769 E Frontage Rd","City":"Rio Rico","State":"AZ","Zip":"85648"},{"Location":"PRIME SALES INC","Address":"883 E Frontage Rd","City":"Rio Rico","State":"AZ","Zip":"85648"},{"Location":"PRODUCE CONNECTION","Address":"941 E Frontage Rd 4","City":"Rio Rico","State":"AZ","Zip":"85648"},{"Location":"RIO RICO COMMUNITY CENTE","Address":"391 Avenida Coatimundi","City":"Rio Rico","State":"AZ","Zip":"85648"},{"Location":"SPLENDOR RESORT","Address":"1069 Camino Caralante","City":"Rio Rico","State":"AZ","Zip":"85648"},{"Location":"SUNFED","Address":"51 Kipper St","City":"Rio Rico","State":"AZ","Zip":"85648"},{"Location":"TUBAC      FIRE DISTRICT","Address":"1360 W Frontage Rd","City":"Rio Rico","State":"AZ","Zip":"85648"},{"Location":"TUBAC FIRE DISTRICT","Address":"333 Camino Josefina","City":"Rio Rico","State":"AZ","Zip":"85648"},{"Location":"TUBAC FIRE DISTRICT #4","Address":"149 Ruta Camaron","City":"Rio Rico","State":"AZ","Zip":"85648"},{"Location":"TURN KEY DEVELOPMENT","Address":"1115 Circulo Mercado","City":"Rio Rico","State":"AZ","Zip":"85648"},{"Location":"VINE RIPE","Address":"993 E Frontage Rd","City":"Rio Rico","State":"AZ","Zip":"85648"},{"Location":"VPC FREIGHTSOLUTIONS LLC","Address":"12 Calle Cristina","City":"Rio Rico","State":"AZ","Zip":"85648"},{"Location":"YALL COME BACK SALOON","Address":"1105 Circulo Mercado","City":"Rio Rico","State":"AZ","Zip":"85648"}]