[{"Location":"ANYTIME FITNESS","Address":"12040 N Thornydale Rd","City":"Marana","State":"AZ","Zip":"85658"},{"Location":"DOVE MOUNTAIN GRILL","Address":"12130 N Dove Mountain Blvd 194","City":"Marana","State":"AZ","Zip":"85658"},{"Location":"DR HORTON","Address":"14218 N Maize Farm Ave","City":"Marana","State":"AZ","Zip":"85658"},{"Location":"FLETCHERS TIRE AND AUTO","Address":"3650 W Tangerine Rd","City":"Marana","State":"AZ","Zip":"85658"},{"Location":"GALLERY GOLF CLUB","Address":"14000 N Dove Mountain Blvd","City":"Marana","State":"AZ","Zip":"85658"},{"Location":"RITZ CARLTON DOVE MOUNTAIN","Address":"15000 N Secret Springs Dr","City":"Marana","State":"AZ","Zip":"85658"},{"Location":"RITZ CARLTON TUCSON BAR","Address":"15000 N Secret Springs Dr","City":"Marana","State":"AZ","Zip":"85658"},{"Location":"TO-GO COFFEE RITZ 2","Address":"15000 N Secret Springs Dr","City":"Marana","State":"AZ","Zip":"85658"},{"Location":"ANYTIME FITNESS","Address":"12040 N Thornydale Rd","City":"Marana","State":"AZ","Zip":"85658"},{"Location":"DOVE MOUNTAIN GRILL","Address":"12130 N Dove Mountain Blvd 194","City":"Marana","State":"AZ","Zip":"85658"},{"Location":"DR HORTON","Address":"14218 N Maize Farm Ave","City":"Marana","State":"AZ","Zip":"85658"},{"Location":"FLETCHERS TIRE AND AUTO","Address":"3650 W Tangerine Rd","City":"Marana","State":"AZ","Zip":"85658"},{"Location":"GALLERY GOLF CLUB","Address":"14000 N Dove Mountain Blvd","City":"Marana","State":"AZ","Zip":"85658"},{"Location":"RITZ CARLTON DOVE MOUNTAIN","Address":"15000 N Secret Springs Dr","City":"Marana","State":"AZ","Zip":"85658"},{"Location":"RITZ CARLTON TUCSON BAR","Address":"15000 N Secret Springs Dr","City":"Marana","State":"AZ","Zip":"85658"},{"Location":"TO-GO COFFEE RITZ 2","Address":"15000 N Secret Springs Dr","City":"Marana","State":"AZ","Zip":"85658"}]