[{"Location":"BOSTONS THE GOURMET PIZZA","Address":"5825 W Arizona Pauilions Dr","City":"Marana","State":"AZ","Zip":"85653"},{"Location":"CIRCLE S BAR AND GRILL","Address":"16021 W El Tiro Rd","City":"Marana","State":"AZ","Zip":"85653"},{"Location":"EVERGREEN MAINTENANCE CENTER","Address":"24641 E Pinal Air Park Rd","City":"Marana","State":"AZ","Zip":"85653"},{"Location":"EVERGREEN MAINTENANCE CTR #2","Address":"24641 E Pinal Air Park Rd","City":"Marana","State":"AZ","Zip":"85653"},{"Location":"LIFENET","Address":"11700 W Avra Valley Rd 85","City":"Marana","State":"AZ","Zip":"85653"},{"Location":"MARANA COMMUNITY CORRECTIONAL","Address":"12610 W Silverbell Rd","City":"Marana","State":"AZ","Zip":"85653"},{"Location":"NPT PARTNERS 1 LLC 3","Address":"13934 N Sandario Rd","City":"Marana","State":"AZ","Zip":"85653"},{"Location":"PARACHUTE TRAINING & TEST FACI","Address":"21514 E Kodiak Dr","City":"Marana","State":"AZ","Zip":"85653"},{"Location":"PARICO BRYANT","Address":"16300 W Via Monica","City":"Marana","State":"AZ","Zip":"85653"},{"Location":"PIMA AVATION INC","Address":"11700 W Avra Valley Rd","City":"Marana","State":"AZ","Zip":"85653"}]