[{"Location":"AMIGOS BURGERS & BEER","Address":"6372 S Nogales Hwy","City":"Tucson","State":"AZ","Zip":"85706"},{"Location":"BRANDIND IRON","Address":"5442 S 12th Ave","City":"Tucson","State":"AZ","Zip":"85706"},{"Location":"BUGGY WHEEL BAR AND GRILL","Address":"3156 E Drexel Rd","City":"Tucson","State":"AZ","Zip":"85706"},{"Location":"CAFFENATION","Address":"3191 E Valencia Rd","City":"Tucson","State":"AZ","Zip":"85706"},{"Location":"CATTLETOWN STEAKHOUSE","Address":"3141 E Drexel Rd","City":"Tucson","State":"AZ","Zip":"85706"},{"Location":"CHAMBERLAIN GROUP","Address":"6020 S Country Club Rd","City":"Tucson","State":"AZ","Zip":"85706"},{"Location":"COAST MARKETING COMPANY","Address":"6221 S Campbell Ave","City":"Tucson","State":"AZ","Zip":"85706"},{"Location":"DAVIS SELECTED ADVISERS","Address":"3601 E Britannia Dr","City":"Tucson","State":"AZ","Zip":"85706"},{"Location":"ELITE BARBERSHOP","Address":"2680 E Valencia Rd 168","City":"Tucson","State":"AZ","Zip":"85706"},{"Location":"FREEDOM SMOKE USA 4 INC","Address":"665 W Valencia Rd","City":"Tucson","State":"AZ","Zip":"85706"},{"Location":"GENERAL DENTISTRY FOR KIDS","Address":"295 W Valencia Rd C","City":"Tucson","State":"AZ","Zip":"85706"},{"Location":"HANA TOYKO","Address":"5435 S Calle Santa Cruz 185","City":"Tucson","State":"AZ","Zip":"85706"},{"Location":"JPS SEAFOOD","Address":"5550 S 12th Ave 100","City":"Tucson","State":"AZ","Zip":"85706"},{"Location":"KOA","Address":"5151 S Country Club Rd","City":"Tucson","State":"AZ","Zip":"85706"},{"Location":"LA FITNESS #137","Address":"5325 S Calle Santa Cruz","City":"Tucson","State":"AZ","Zip":"85706"},{"Location":"LA PRINCESA","Address":"5550 S 12th Ave 107","City":"Tucson","State":"AZ","Zip":"85706"},{"Location":"LAZY DAYS LOBBY","Address":"3200 W Irvington Rd","City":"Tucson","State":"AZ","Zip":"85706"},{"Location":"LAZY DAYS LOUNGE","Address":"3200 W Irvinton Rd","City":"Tucson","State":"AZ","Zip":"85706"},{"Location":"LAZYDAYS- COLLISION CENT","Address":"5970 S Palo Verde Rd","City":"Tucson","State":"AZ","Zip":"85706"},{"Location":"MCDONALD'S","Address":"3105 E Valencia Rd","City":"Tucson","State":"AZ","Zip":"85706"},{"Location":"MODULAR MINING SYSTEM","Address":"3289 E Hemisphere Loop","City":"Tucson","State":"AZ","Zip":"85706"},{"Location":"MODULAR MINING SYSTEMS INC","Address":"3285 E Hemisphere Loop","City":"Tucson","State":"AZ","Zip":"85706"},{"Location":"NEXTCARE URGENT CARE 2","Address":"5369 S Calle Santa Cruz 145","City":"Tucson","State":"AZ","Zip":"85706"},{"Location":"PACIFIC DENTAL #466","Address":"5369 S Calle Santa Cruz","City":"Tucson","State":"AZ","Zip":"85706"},{"Location":"PEPSI BEVERAGES CO","Address":"3131 E Transcon Way","City":"Tucson","State":"AZ","Zip":"85706"},{"Location":"PETER PIPER PIZZA","Address":"432 W Valencia Rd","City":"Tucson","State":"AZ","Zip":"85706"},{"Location":"PIMA FEDERAL CREDIT UNION","Address":"2455 E Valencia Rd","City":"Tucson","State":"AZ","Zip":"85706"},{"Location":"RAYTHEON INC","Address":"3350 E Hemisphere Loop","City":"Tucson","State":"AZ","Zip":"85706"},{"Location":"RDO EQUIPMENT CO","Address":"5051 S Outlet Center Dr","City":"Tucson","State":"AZ","Zip":"85706"},{"Location":"RED LOBSTER #6354","Address":"5315 S Calle Santa Cruz","City":"Tucson","State":"AZ","Zip":"85706"},{"Location":"SACHIKO","Address":"3210 E Valencia Rd","City":"Tucson","State":"AZ","Zip":"85706"},{"Location":"SCHOLSKYS DELI","Address":"3270 E Valencia Rd","City":"Tucson","State":"AZ","Zip":"85706"},{"Location":"SENSINTEL INC","Address":"3292 E Hemisphere Loop","City":"Tucson","State":"AZ","Zip":"85706"},{"Location":"SHARED SERVICES CENTER","Address":"6223 S Palo Verde Rd","City":"Tucson","State":"AZ","Zip":"85706"},{"Location":"SJS RENATL PROPERTIES LL","Address":"2602 E Walnut St","City":"Tucson","State":"AZ","Zip":"85706"},{"Location":"SPORTS AUTHORITY 777","Address":"5185 S Calle Santa Cruz","City":"Tucson","State":"AZ","Zip":"85706"},{"Location":"SW SMOKELESS 5  LLC","Address":"6445 S 12th Ave 151","City":"Tucson","State":"AZ","Zip":"85706"},{"Location":"SYNERGY INSTALLATION SOLUTIONS","Address":"6000 S Country Club Rd 124","City":"Tucson","State":"AZ","Zip":"85706"},{"Location":"THE CORONODO NATIONAL FOREST","Address":"2646 E Commerce Center Pl","City":"Tucson","State":"AZ","Zip":"85706"},{"Location":"TUSESA USA LLC","Address":"5550 S 12th Ave","City":"Tucson","State":"AZ","Zip":"85706"},{"Location":"VINNYS NAIL SALON","Address":"629 W Valencia Rd","City":"Tucson","State":"AZ","Zip":"85706"},{"Location":"WELLS FARGO BANK","Address":"6424 S Tucson Blvd","City":"Tucson","State":"AZ","Zip":"85706"},{"Location":"AMIGOS BURGERS & BEER","Address":"6372 S Nogales Hwy","City":"Tucson","State":"AZ","Zip":"85706"},{"Location":"BRANDIND IRON","Address":"5442 S 12th Ave","City":"Tucson","State":"AZ","Zip":"85706"},{"Location":"BUGGY WHEEL BAR AND GRILL","Address":"3156 E Drexel Rd","City":"Tucson","State":"AZ","Zip":"85706"},{"Location":"CAFFENATION","Address":"3191 E Valencia Rd","City":"Tucson","State":"AZ","Zip":"85706"},{"Location":"CATTLETOWN STEAKHOUSE","Address":"3141 E Drexel Rd","City":"Tucson","State":"AZ","Zip":"85706"},{"Location":"CHAMBERLAIN GROUP","Address":"6020 S Country Club Rd","City":"Tucson","State":"AZ","Zip":"85706"},{"Location":"COAST MARKETING COMPANY","Address":"6221 S Campbell Ave","City":"Tucson","State":"AZ","Zip":"85706"},{"Location":"DAVIS SELECTED ADVISERS","Address":"3601 E Britannia Dr","City":"Tucson","State":"AZ","Zip":"85706"},{"Location":"ELITE BARBERSHOP","Address":"2680 E Valencia Rd 168","City":"Tucson","State":"AZ","Zip":"85706"},{"Location":"FREEDOM SMOKE USA 4 INC","Address":"665 W Valencia Rd","City":"Tucson","State":"AZ","Zip":"85706"},{"Location":"GENERAL DENTISTRY FOR KIDS","Address":"295 W Valencia Rd C","City":"Tucson","State":"AZ","Zip":"85706"},{"Location":"HANA TOYKO","Address":"5435 S Calle Santa Cruz 185","City":"Tucson","State":"AZ","Zip":"85706"},{"Location":"JPS SEAFOOD","Address":"5550 S 12th Ave 100","City":"Tucson","State":"AZ","Zip":"85706"},{"Location":"KOA","Address":"5151 S Country Club Rd","City":"Tucson","State":"AZ","Zip":"85706"},{"Location":"LA FITNESS #137","Address":"5325 S Calle Santa Cruz","City":"Tucson","State":"AZ","Zip":"85706"},{"Location":"LA PRINCESA","Address":"5550 S 12th Ave 107","City":"Tucson","State":"AZ","Zip":"85706"},{"Location":"LAZY DAYS LOBBY","Address":"3200 W Irvington Rd","City":"Tucson","State":"AZ","Zip":"85706"},{"Location":"LAZY DAYS LOUNGE","Address":"3200 W Irvinton Rd","City":"Tucson","State":"AZ","Zip":"85706"},{"Location":"LAZYDAYS- COLLISION CENT","Address":"5970 S Palo Verde Rd","City":"Tucson","State":"AZ","Zip":"85706"},{"Location":"MCDONALD'S","Address":"3105 E Valencia Rd","City":"Tucson","State":"AZ","Zip":"85706"},{"Location":"MODULAR MINING SYSTEM","Address":"3289 E Hemisphere Loop","City":"Tucson","State":"AZ","Zip":"85706"},{"Location":"MODULAR MINING SYSTEMS INC","Address":"3285 E Hemisphere Loop","City":"Tucson","State":"AZ","Zip":"85706"},{"Location":"NEXTCARE URGENT CARE 2","Address":"5369 S Calle Santa Cruz 145","City":"Tucson","State":"AZ","Zip":"85706"},{"Location":"PACIFIC DENTAL #466","Address":"5369 S Calle Santa Cruz","City":"Tucson","State":"AZ","Zip":"85706"},{"Location":"PEPSI BEVERAGES CO","Address":"3131 E Transcon Way","City":"Tucson","State":"AZ","Zip":"85706"},{"Location":"PETER PIPER PIZZA","Address":"432 W Valencia Rd","City":"Tucson","State":"AZ","Zip":"85706"},{"Location":"PIMA FEDERAL CREDIT UNION","Address":"2455 E Valencia Rd","City":"Tucson","State":"AZ","Zip":"85706"},{"Location":"RAYTHEON INC","Address":"3350 E Hemisphere Loop","City":"Tucson","State":"AZ","Zip":"85706"},{"Location":"RDO EQUIPMENT CO","Address":"5051 S Outlet Center Dr","City":"Tucson","State":"AZ","Zip":"85706"},{"Location":"RED LOBSTER #6354","Address":"5315 S Calle Santa Cruz","City":"Tucson","State":"AZ","Zip":"85706"},{"Location":"SACHIKO","Address":"3210 E Valencia Rd","City":"Tucson","State":"AZ","Zip":"85706"},{"Location":"SCHOLSKYS DELI","Address":"3270 E Valencia Rd","City":"Tucson","State":"AZ","Zip":"85706"},{"Location":"SENSINTEL INC","Address":"3292 E Hemisphere Loop","City":"Tucson","State":"AZ","Zip":"85706"},{"Location":"SHARED SERVICES CENTER","Address":"6223 S Palo Verde Rd","City":"Tucson","State":"AZ","Zip":"85706"},{"Location":"SJS RENATL PROPERTIES LL","Address":"2602 E Walnut St","City":"Tucson","State":"AZ","Zip":"85706"},{"Location":"SPORTS AUTHORITY 777","Address":"5185 S Calle Santa Cruz","City":"Tucson","State":"AZ","Zip":"85706"},{"Location":"SW SMOKELESS 5  LLC","Address":"6445 S 12th Ave 151","City":"Tucson","State":"AZ","Zip":"85706"},{"Location":"SYNERGY INSTALLATION SOLUTIONS","Address":"6000 S Country Club Rd 124","City":"Tucson","State":"AZ","Zip":"85706"},{"Location":"THE CORONODO NATIONAL FOREST","Address":"2646 E Commerce Center Pl","City":"Tucson","State":"AZ","Zip":"85706"},{"Location":"TUSESA USA LLC","Address":"5550 S 12th Ave","City":"Tucson","State":"AZ","Zip":"85706"},{"Location":"VINNYS NAIL SALON","Address":"629 W Valencia Rd","City":"Tucson","State":"AZ","Zip":"85706"},{"Location":"WELLS FARGO BANK","Address":"6424 S Tucson Blvd","City":"Tucson","State":"AZ","Zip":"85706"}]