[{"Location":"943 MSF%2FSC","Address":"6250 E Oro St 404","City":"Davis Monthan Afb","State":"AZ","Zip":"85707"},{"Location":"DMAFB 12 AF%2FA3H","Address":"2915 S Twelfth Af Dr 145","City":"Davis Monthan Afb","State":"AZ","Zip":"85707"},{"Location":"DMAFB 12AF%2FA2X","Address":"2915 S Twelth Af Dr 116","City":"Davis Monthan Afb","State":"AZ","Zip":"85707"},{"Location":"43RD ELECTRONIC COMBAT SQUAD","Address":"6120 E Rivet Fire Rd","City":"Davis Monthan Air Force B","State":"AZ","Zip":"85707"},{"Location":"55 ELECTRONIC COMBAT GROUP","Address":"5340 South Herkey Blvd Bldg220","City":"Davis Mothan Afb","State":"AZ","Zip":"85707"},{"Location":"162ND FW%2FDET","Address":"5145 S Herky Blvd","City":"Tucson","State":"AZ","Zip":"85707"},{"Location":"214TH RECON GROUP","Address":"5262 E Gafford Way 78","City":"Tucson","State":"AZ","Zip":"85707"},{"Location":"357 FIGHTER SQUADRON","Address":"4000 S Phoenix St 5600","City":"Tucson","State":"AZ","Zip":"85707"},{"Location":"47 FIGHTER SQUADRON","Address":"3740 S First St 5247","City":"Tucson","State":"AZ","Zip":"85707"},{"Location":"563 RESCUE GROUP","Address":"4575 E Phoenix St","City":"Tucson","State":"AZ","Zip":"85707"},{"Location":"755 AMXS","Address":"6160 E Rivet Fire Rd","City":"Tucson","State":"AZ","Zip":"85707"},{"Location":"AIR FORCE BASE TUCSON AZ","Address":"4500 S Phoenix St","City":"Tucson","State":"AZ","Zip":"85707"},{"Location":"AMARG AIRCRAFT MAINT. RE","Address":"4890 S Wickenberg Ave","City":"Tucson","State":"AZ","Zip":"85707"},{"Location":"BLANCHARD GOLF COURSE","Address":"3965 S Craycroft Rd 4459","City":"Tucson","State":"AZ","Zip":"85707"},{"Location":"DAVIS MONTHAN ENLISTED","Address":"3885 S Craycroft Rd 4455","City":"Tucson","State":"AZ","Zip":"85707"},{"Location":"DAVIS MONTHAN MAIN STORE","Address":"5355 E Granite St","City":"Tucson","State":"AZ","Zip":"85707"},{"Location":"DAVIS-MONTHAN AFB","Address":"5210 S Herky Blvd 130","City":"Tucson","State":"AZ","Zip":"85707"},{"Location":"DMAFB 12AF%2FA2S","Address":"5340 E Gafford Way 70","City":"Tucson","State":"AZ","Zip":"85707"},{"Location":"DMAFB 612 AOC CAOC","Address":"5280 E Gafford Way 74","City":"Tucson","State":"AZ","Zip":"85707"},{"Location":"DMAFB ACCC","Address":"5370 E Gafford Way 72","City":"Tucson","State":"AZ","Zip":"85707"},{"Location":"DMAFB AFOSI OL-B","Address":"5255 E Gafford Way 63","City":"Tucson","State":"AZ","Zip":"85707"},{"Location":"DMAFB AFSOUTH-FM","Address":"2915 S Twelfth Af Dr 12","City":"Tucson","State":"AZ","Zip":"85707"},{"Location":"DMAFB BCD %2F132","Address":"5340 E Gafford Way 70","City":"Tucson","State":"AZ","Zip":"85707"},{"Location":"DMAFB FAM CAMP","Address":"6170 E Quijota Blvd 6015","City":"Tucson","State":"AZ","Zip":"85707"},{"Location":"FIRE DEPARTMENT","Address":"5150 E Arizola St 1713","City":"Tucson","State":"AZ","Zip":"85707"},{"Location":"FIRESTONE #344700","Address":"3360 S Craycroft Rd","City":"Tucson","State":"AZ","Zip":"85707"},{"Location":"PHOENIX AIR FORCE BASE","Address":"4190 S Phoenix St","City":"Tucson","State":"AZ","Zip":"85707"},{"Location":"US AIR FORCE","Address":"4655 S Flightline Rd","City":"Tucson","State":"AZ","Zip":"85707"},{"Location":"US AIR FORCE","Address":"4420 S Phoenix St","City":"Tucson","State":"AZ","Zip":"85707"},{"Location":"USSTRATCOM","Address":"5260 E Gafford Way 75","City":"Tucson","State":"AZ","Zip":"85707"},{"Location":"AIR FORCE AZ 41ST ECS","Address":"6190 E Rivet Fire Road","City":"Tuscon","State":"AZ","Zip":"85707"},{"Location":"55TH RESCUE SQUADRON","Address":"5055 E Comanche St 1610","City":"Tuson","State":"AZ","Zip":"85707"}]