[{"Location":"CHUYS MESQUITE BROILER","Address":"8195 N Oracle Rd 105","City":"Oro Valley","State":"AZ","Zip":"85704"},{"Location":"KOHL'S #1028","Address":"7785 N Oracle Rd","City":"Oro Valley","State":"AZ","Zip":"85704"},{"Location":"LA FITNESS #04153","Address":"8850 N Oracle Rd","City":"Oro Valley","State":"AZ","Zip":"85704"},{"Location":"MUTUAL OF OMAHA","Address":"8580 N Oracle Rd 100","City":"Oro Valley","State":"AZ","Zip":"85704"},{"Location":"PERSONAL TRAINING INST.","Address":"7625 N Oracle Rd 145","City":"Oro Valley","State":"AZ","Zip":"85704"},{"Location":"PETER PIPER PIZZA","Address":"7621 N Oracle Rd","City":"Oro Valley","State":"AZ","Zip":"85704"},{"Location":"ANTHONYS CIGAR EMPORIUM","Address":"7866 N Oracle Rd","City":"Tucson","State":"AZ","Zip":"85704"},{"Location":"ANYTIME FITNESS","Address":"7937 N Oracle Rd","City":"Tucson","State":"AZ","Zip":"85704"},{"Location":"ARIZONA INSTITUTE OF UROLOGY P","Address":"5670 N Professional Park Dr","City":"Tucson","State":"AZ","Zip":"85704"},{"Location":"ARIZONA STATE CREDIT UNION #10","Address":"6464 N Oracle Rd","City":"Tucson","State":"AZ","Zip":"85704"},{"Location":"AUDIO EXPRESS N ORACLE","Address":"5004 N Oracle Rd","City":"Tucson","State":"AZ","Zip":"85704"},{"Location":"BANK OF TUCSON","Address":"6400 N Oracle Rd","City":"Tucson","State":"AZ","Zip":"85704"},{"Location":"BLUEFIN SEAFOOD BISTRO","Address":"7053 N Oracle Rd","City":"Tucson","State":"AZ","Zip":"85704"},{"Location":"BRAKEMAX 9","Address":"7613 N Oracle Rd","City":"Tucson","State":"AZ","Zip":"85704"},{"Location":"C H ROBINSON","Address":"7445 N Oracle Rd 255","City":"Tucson","State":"AZ","Zip":"85704"},{"Location":"CANYON DEL ORO BARBERSHO","Address":"7864 N Oracle Rd","City":"Tucson","State":"AZ","Zip":"85704"},{"Location":"CAREMORE MEDICAL","Address":"4821 N Stone Ave","City":"Tucson","State":"AZ","Zip":"85704"},{"Location":"CARRABBA'S #5307","Address":"7635 N Oracle Rd","City":"Tucson","State":"AZ","Zip":"85704"},{"Location":"CVR HOLDINGS LLC","Address":"6060 N Oracle Rd","City":"Tucson","State":"AZ","Zip":"85704"},{"Location":"EL TACO TOTE","Address":"4811 N Stone Ave","City":"Tucson","State":"AZ","Zip":"85704"},{"Location":"FAMOUS SAM'S","Address":"8058 N Oracle Rd","City":"Tucson","State":"AZ","Zip":"85704"},{"Location":"FLETCHER'S TIRE &AUTO SERVICE","Address":"7980 N Oracle Rd","City":"Tucson","State":"AZ","Zip":"85704"},{"Location":"FROST GELATO","Address":"7131 N Oracle Rd 101","City":"Tucson","State":"AZ","Zip":"85704"},{"Location":"GOLD'S GYM","Address":"7315 N Oracle Rd","City":"Tucson","State":"AZ","Zip":"85704"},{"Location":"GOLDEN DRAGON","Address":"6433 N Oracle Rd","City":"Tucson","State":"AZ","Zip":"85704"},{"Location":"HIFALUTIN","Address":"6780 N Oracle Rd","City":"Tucson","State":"AZ","Zip":"85704"},{"Location":"KAMPAI SUSHI","Address":"6486 N Oracle Rd","City":"Tucson","State":"AZ","Zip":"85704"},{"Location":"LA POSADA LODGE","Address":"5900 N Oracle Rd","City":"Tucson","State":"AZ","Zip":"85704"},{"Location":"LILLY MARKETING INC","Address":"4707 N Geronimo Ave","City":"Tucson","State":"AZ","Zip":"85704"},{"Location":"MAUISUN COMPUTER SYSTEMS","Address":"7493 N Oracle Rd 231a","City":"Tucson","State":"AZ","Zip":"85704"},{"Location":"MGA HOME HEALTH CARE","Address":"2015 W River Rd","City":"Tucson","State":"AZ","Zip":"85704"},{"Location":"MIGUELS AT LA POSADA","Address":"5900 N Oracle Rd","City":"Tucson","State":"AZ","Zip":"85704"},{"Location":"MORGAN STANLEY 100221","Address":"6840 N Oracle Rd","City":"Tucson","State":"AZ","Zip":"85704"},{"Location":"MR. ANS","Address":"6091 N Oracle Rd","City":"Tucson","State":"AZ","Zip":"85704"},{"Location":"PIMA FEDERAL CREDIT UNION 4","Address":"6850 N Oracle Rd","City":"Tucson","State":"AZ","Zip":"85704"},{"Location":"PITA JUNGLE","Address":"7090 N Oracle Rd","City":"Tucson","State":"AZ","Zip":"85704"},{"Location":"PJS AT BEST WESTERN","Address":"6201 N Oracle Rd","City":"Tucson","State":"AZ","Zip":"85704"},{"Location":"PRIVATE OFFICE","Address":"6812 N Oracle Rd 120","City":"Tucson","State":"AZ","Zip":"85704"},{"Location":"PUTNEY'S SPORTS SALOON","Address":"6090 N Oracle Rd","City":"Tucson","State":"AZ","Zip":"85704"},{"Location":"R CRISANTES","Address":"4663 N Belgravia Rd","City":"Tucson","State":"AZ","Zip":"85704"},{"Location":"RED LOBSTER #0369","Address":"5061 N Oracle Rd","City":"Tucson","State":"AZ","Zip":"85704"},{"Location":"REFLECTIONS AT THE BUTTE","Address":"9800 N Oracle Rd","City":"Tucson","State":"AZ","Zip":"85704"},{"Location":"RIGOS RESTAURANT","Address":"5851 N Oracle Rd","City":"Tucson","State":"AZ","Zip":"85704"},{"Location":"SAFFRON INDIAN BISTRO","Address":"7607 N Oracle Rd 101","City":"Tucson","State":"AZ","Zip":"85704"},{"Location":"SCOTTRADE 02D","Address":"7805 N Oracle Rd","City":"Tucson","State":"AZ","Zip":"85704"},{"Location":"SM3 LLC","Address":"7090 N Oracle Rd 198","City":"Tucson","State":"AZ","Zip":"85704"},{"Location":"SNAP FITNESS 24-7","Address":"5095 N La Canada Dr 105","City":"Tucson","State":"AZ","Zip":"85704"},{"Location":"SOUTHWEST SMOKELESS","Address":"5044 N Oracle Rd","City":"Tucson","State":"AZ","Zip":"85704"},{"Location":"SUNDT CONSTRUCTION TUCSON","Address":"2015 W River Rd 101","City":"Tucson","State":"AZ","Zip":"85704"},{"Location":"TUCSON SUBARU","Address":"4901 N Oracle Rd","City":"Tucson","State":"AZ","Zip":"85704"},{"Location":"U-LIKE ORIENTAL BUF","Address":"5101 N Oracle Rd","City":"Tucson","State":"AZ","Zip":"85704"},{"Location":"VILLAGE INN 110324","Address":"6251 N Oracle Rd","City":"Tucson","State":"AZ","Zip":"85704"},{"Location":"WESTWARD LOOK RESORT","Address":"245 E Ina Rd","City":"Tucson","State":"AZ","Zip":"85704"},{"Location":"WHOLE FOODS MARKET","Address":"7133 N Oracle Rd","City":"Tucson","State":"AZ","Zip":"85704"},{"Location":"Y CROSS MANAGEMENT","Address":"8375 N Oracle Rd 150","City":"Tucson","State":"AZ","Zip":"85704"}]