[{"Location":"PALOMAS FITNESS","Address":"625 Hayden Ave","City":"Hayden","State":"AZ","Zip":"85705"},{"Location":"ADAMS AUTO BODY SUPPLY","Address":"3544 N Romero Rd 136","City":"Tucson","State":"AZ","Zip":"85705"},{"Location":"ALPHA UNDERGROUND CONSTRUCTION","Address":"4301 N Plum Ave","City":"Tucson","State":"AZ","Zip":"85705"},{"Location":"AN HONDA TUCSON AUTO MALL","Address":"835 W Auto Mall Dr","City":"Tucson","State":"AZ","Zip":"85705"},{"Location":"ANARCHY MOTOR SPORTS","Address":"3544 N Romero Rd 112","City":"Tucson","State":"AZ","Zip":"85705"},{"Location":"APPLEBEE'S #601 TUCSON","Address":"565 E Wetmore Rd","City":"Tucson","State":"AZ","Zip":"85705"},{"Location":"ASPEN DENTAL #2094","Address":"4356 N Oracle Rd 140","City":"Tucson","State":"AZ","Zip":"85705"},{"Location":"BEAU BRUMMEL","Address":"1148 N Main Ave","City":"Tucson","State":"AZ","Zip":"85705"},{"Location":"BEST WESTERN ROYAL SUN","Address":"1015 N Stone Ave","City":"Tucson","State":"AZ","Zip":"85705"},{"Location":"BIG SKY MOTORCYCLES","Address":"313 W Sahuaro St","City":"Tucson","State":"AZ","Zip":"85705"},{"Location":"BJS RESTAURANT #445","Address":"4270 N Oracle Rd","City":"Tucson","State":"AZ","Zip":"85705"},{"Location":"BMW TUSCON EIGHTSIXTY","Address":"860 W Auto Mall Dr","City":"Tucson","State":"AZ","Zip":"85705"},{"Location":"BOTTOMS UP","Address":"3710 N Oracle Rd","City":"Tucson","State":"AZ","Zip":"85705"},{"Location":"BUFFALO WILD WINGS #0382","Address":"4329 N Oracle Rd","City":"Tucson","State":"AZ","Zip":"85705"},{"Location":"CADDEN COMMUNITY MANAGEM","Address":"1870 W Prince Rd 47","City":"Tucson","State":"AZ","Zip":"85705"},{"Location":"CARMAX #7249","Address":"4755 N Oracle Rd","City":"Tucson","State":"AZ","Zip":"85705"},{"Location":"CBP AAMD","Address":"4760 N Oracle Rd 100","City":"Tucson","State":"AZ","Zip":"85705"},{"Location":"CC AUTOMOTIVE REPAIR","Address":"3101 N Stone Ave","City":"Tucson","State":"AZ","Zip":"85705"},{"Location":"CHARIOT PIZZA 85705","Address":"3930 N Flowing Wells Rd","City":"Tucson","State":"AZ","Zip":"85705"},{"Location":"CHES LOUNGE","Address":"350 N 4th Ave","City":"Tucson","State":"AZ","Zip":"85705"},{"Location":"CHUZE FITNESS","Address":"4329 N Oracle Rd","City":"Tucson","State":"AZ","Zip":"85705"},{"Location":"COMPLETE LANDSCAPING","Address":"2474 N Flowing Wells Rd","City":"Tucson","State":"AZ","Zip":"85705"},{"Location":"CURVES","Address":"2130 N Oracle Rd","City":"Tucson","State":"AZ","Zip":"85705"},{"Location":"CUSTOM RIMS AND MORE","Address":"512 N 6th Ave","City":"Tucson","State":"AZ","Zip":"85705"},{"Location":"DESTINATION XL 9739","Address":"4055 N Oracle Rd","City":"Tucson","State":"AZ","Zip":"85705"},{"Location":"DOBBS HONDA","Address":"810 W Wetmore Rd","City":"Tucson","State":"AZ","Zip":"85705"},{"Location":"DRUG FREE WORKS","Address":"4006 N Romero Rd","City":"Tucson","State":"AZ","Zip":"85705"},{"Location":"ELKS LODGE","Address":"4684 N Highway Dr","City":"Tucson","State":"AZ","Zip":"85705"},{"Location":"FAMOUS SAM'S #3","Address":"2480 W Ruthrauff Rd","City":"Tucson","State":"AZ","Zip":"85705"},{"Location":"FAST LANE TATTOOTWO","Address":"3801 N Oracle Rd","City":"Tucson","State":"AZ","Zip":"85705"},{"Location":"FIREHOUSE SUBS","Address":"475 W Wetmore Rd","City":"Tucson","State":"AZ","Zip":"85705"},{"Location":"FIRESTONE #025259","Address":"290 W Wetmore Rd","City":"Tucson","State":"AZ","Zip":"85705"},{"Location":"FMC 61210000","Address":"100 W Grant Rd","City":"Tucson","State":"AZ","Zip":"85705"},{"Location":"FRITO LAY PEPSI CO","Address":"3134 N Freeway Industrial Loop","City":"Tucson","State":"AZ","Zip":"85705"},{"Location":"GC SERVICES","Address":"3870 N Oracle Rd 100","City":"Tucson","State":"AZ","Zip":"85705"},{"Location":"GENERATION COOL","Address":"404 N 4th Ave","City":"Tucson","State":"AZ","Zip":"85705"},{"Location":"GOLFSMITH #072","Address":"4439 N Oracle Rd","City":"Tucson","State":"AZ","Zip":"85705"},{"Location":"GRANITE PLUS","Address":"4854 N Shamrock Pl 110","City":"Tucson","State":"AZ","Zip":"85705"},{"Location":"H AND H SMALL ENGINE","Address":"107 W Fort Lowell Rd","City":"Tucson","State":"AZ","Zip":"85705"},{"Location":"HERMAN CONTRACTING","Address":"930 W Glenn St B","City":"Tucson","State":"AZ","Zip":"85705"},{"Location":"HILLS SALOON INC","Address":"3700 N Oracle Rd","City":"Tucson","State":"AZ","Zip":"85705"},{"Location":"HOLMES TUTTLE FORD","Address":"780 W Competition Rd","City":"Tucson","State":"AZ","Zip":"85705"},{"Location":"HUGHES FEDERAL CREDIT UNION","Address":"971 W Wetmore Rd","City":"Tucson","State":"AZ","Zip":"85705"},{"Location":"IBT'S","Address":"616 N 4th Ave","City":"Tucson","State":"AZ","Zip":"85705"},{"Location":"INFINITI OF TUCSON","Address":"625 W Auto Mall Dr","City":"Tucson","State":"AZ","Zip":"85705"},{"Location":"INLAND KENWORTH US INC","Address":"3737 N I10 Frontage Rd","City":"Tucson","State":"AZ","Zip":"85705"},{"Location":"JACKIES BODY WORK","Address":"4500 N Oracle Rd 214","City":"Tucson","State":"AZ","Zip":"85705"},{"Location":"JASON'S DELI","Address":"4545 N Oracle Rd 121","City":"Tucson","State":"AZ","Zip":"85705"},{"Location":"JASONS MEXICAN FOOD","Address":"4230 N Oracle Rd","City":"Tucson","State":"AZ","Zip":"85705"},{"Location":"JIM CLICK CPJE","Address":"701 W Auto Mall Dr","City":"Tucson","State":"AZ","Zip":"85705"},{"Location":"JIM CLICK KIA","Address":"775 W Wetmore Rd","City":"Tucson","State":"AZ","Zip":"85705"},{"Location":"JT AUTO","Address":"550 E Fort Lowell Rd","City":"Tucson","State":"AZ","Zip":"85705"},{"Location":"JUST SPORTS","Address":"4500 N Oracle Rd 143","City":"Tucson","State":"AZ","Zip":"85705"},{"Location":"KOEDYKER & KENYON","Address":"901 W Calle Progreso","City":"Tucson","State":"AZ","Zip":"85705"},{"Location":"KVOA-TV COMMUNICATIONS","Address":"209 W Elm St","City":"Tucson","State":"AZ","Zip":"85705"},{"Location":"LA NAILS","Address":"4280 N Oracle Rd","City":"Tucson","State":"AZ","Zip":"85705"},{"Location":"LARRY H MILLER FIAT TUCSON","Address":"1000 W Wetmore Rd","City":"Tucson","State":"AZ","Zip":"85705"},{"Location":"LARRY H MILLER VOLKSWAGEN TUCS","Address":"900 W Auto Mall Dr","City":"Tucson","State":"AZ","Zip":"85705"},{"Location":"LEXUS OF TUCSON AT AUTOMALL","Address":"4670 N Circuit Rd","City":"Tucson","State":"AZ","Zip":"85705"},{"Location":"M AND M CUSTOMS","Address":"3046 N Stone Ave","City":"Tucson","State":"AZ","Zip":"85705"},{"Location":"MACY'S WEST 457","Address":"4470 N Oracle Rd","City":"Tucson","State":"AZ","Zip":"85705"},{"Location":"MALONEY'S","Address":"213 N 4th Ave","City":"Tucson","State":"AZ","Zip":"85705"},{"Location":"MCGUIRE JEWELERS","Address":"230 E Wetmore Rd","City":"Tucson","State":"AZ","Zip":"85705"},{"Location":"MEN'S WEARHOUSE #2507","Address":"475 W Wetmore Rd 101","City":"Tucson","State":"AZ","Zip":"85705"},{"Location":"MONTYS AUTOMOTIVE","Address":"450 W Prince Rd","City":"Tucson","State":"AZ","Zip":"85705"},{"Location":"N & A BARBER STYLING","Address":"1475 W Prince Rd","City":"Tucson","State":"AZ","Zip":"85705"},{"Location":"NATIONAL AUTO GLASS","Address":"2418 N Stone Ave","City":"Tucson","State":"AZ","Zip":"85705"},{"Location":"NEW MOON LOUNGE","Address":"915 W Prince Rd","City":"Tucson","State":"AZ","Zip":"85705"},{"Location":"NEXTCARE URGENT CARE-1","Address":"4280 N Oracle Rd A","City":"Tucson","State":"AZ","Zip":"85705"},{"Location":"NORDSTROM RACK - THE COR","Address":"4320 N Oracle Rd","City":"Tucson","State":"AZ","Zip":"85705"},{"Location":"O'MALLEY'S ON FOURTH","Address":"247 N 4th Ave","City":"Tucson","State":"AZ","Zip":"85705"},{"Location":"OLIVE GARDEN #1095","Address":"300 W Wetmore Rd","City":"Tucson","State":"AZ","Zip":"85705"},{"Location":"OUTLAW SALOON","Address":"1302 W Roger Rd","City":"Tucson","State":"AZ","Zip":"85705"},{"Location":"PACIFIC DENTAL 277","Address":"4386 N Oracle Rd 198","City":"Tucson","State":"AZ","Zip":"85705"},{"Location":"PARSONS STEEL","Address":"4580 N Highway Dr","City":"Tucson","State":"AZ","Zip":"85705"},{"Location":"PIMA  FEDERAL  CREDIT  UNION","Address":"3730 N Stone Ave","City":"Tucson","State":"AZ","Zip":"85705"},{"Location":"PIZZA HUT #23","Address":"3894 N Oracle Rd","City":"Tucson","State":"AZ","Zip":"85705"},{"Location":"POLLO FELIZ","Address":"4001 N Oracle Rd","City":"Tucson","State":"AZ","Zip":"85705"},{"Location":"POLY PRINT INC","Address":"2300 W Wetmore Rd","City":"Tucson","State":"AZ","Zip":"85705"},{"Location":"PRECISION TOYOTA OF TUCSON","Address":"700 W Wetmore Rd","City":"Tucson","State":"AZ","Zip":"85705"},{"Location":"R&G FOOD SERVICES INC.","Address":"24 E Flores St","City":"Tucson","State":"AZ","Zip":"85705"},{"Location":"REP TUC LLC","Address":"402 N 4th Ave","City":"Tucson","State":"AZ","Zip":"85705"},{"Location":"RIO ANTIGUA APARTMENTS","Address":"4111 N Flowing Wells Rd","City":"Tucson","State":"AZ","Zip":"85705"},{"Location":"RUSTY NAIL TAVREN","Address":"4415 N Flowing Wells Rd","City":"Tucson","State":"AZ","Zip":"85705"},{"Location":"SAM LEVITZ FURNITURE INC #2","Address":"2020 W Prince Rd","City":"Tucson","State":"AZ","Zip":"85705"},{"Location":"SAMS","Address":"3438 N Romero Rd 142","City":"Tucson","State":"AZ","Zip":"85705"},{"Location":"SINALOA RESTAURANT","Address":"1020 W Prince Rd","City":"Tucson","State":"AZ","Zip":"85705"},{"Location":"SIR VEZAS TACO GARAGE","Address":"220 W Wetmore Rd","City":"Tucson","State":"AZ","Zip":"85705"},{"Location":"SKY BAR","Address":"536 N 4th Ave","City":"Tucson","State":"AZ","Zip":"85705"},{"Location":"SPORT CLIPS AZ203","Address":"4230 N Oracle Rd 120","City":"Tucson","State":"AZ","Zip":"85705"},{"Location":"SPORTS AUTHORITY 796","Address":"4225 N Oracle Rd","City":"Tucson","State":"AZ","Zip":"85705"},{"Location":"STUTT GARD AUTO HAUS","Address":"614 E Glenn St","City":"Tucson","State":"AZ","Zip":"85705"},{"Location":"SUNBELT COATINGS","Address":"3809 N Runway Dr","City":"Tucson","State":"AZ","Zip":"85705"},{"Location":"SUNPOINTE GARDENS","Address":"2727 N Oracle Rd D","City":"Tucson","State":"AZ","Zip":"85705"},{"Location":"SUNPOINTE GARDENS","Address":"2727 N Oracle Rd C","City":"Tucson","State":"AZ","Zip":"85705"},{"Location":"SUNPOINTE GARDENS CH","Address":"2727 N Oracle Rd Ch","City":"Tucson","State":"AZ","Zip":"85705"},{"Location":"SUNPOINTE GARDENS E","Address":"2727 N Oracle Rd E","City":"Tucson","State":"AZ","Zip":"85705"},{"Location":"SUNPOINTE GARDENS F","Address":"2727 N Oracle Rd F","City":"Tucson","State":"AZ","Zip":"85705"},{"Location":"SUNPOINTE GARDENS G","Address":"2727 N Oracle Rd G","City":"Tucson","State":"AZ","Zip":"85705"},{"Location":"SUSHI HAMA","Address":"3971 N Oracle Rd","City":"Tucson","State":"AZ","Zip":"85705"},{"Location":"SWADE BARBERSHOP","Address":"2005 W Ruthrauff Rd","City":"Tucson","State":"AZ","Zip":"85705"},{"Location":"TAQUERIA JUANITOS","Address":"708 W Grant Rd","City":"Tucson","State":"AZ","Zip":"85705"},{"Location":"THE CHEESECAKE FACTORY 0150","Address":"60 W Wetmore Rd","City":"Tucson","State":"AZ","Zip":"85705"},{"Location":"THE JD RUSSELL COMPANY","Address":"4075 N Highway Dr","City":"Tucson","State":"AZ","Zip":"85705"},{"Location":"TIOS MASTER CUTS","Address":"3232 N Stone Ave","City":"Tucson","State":"AZ","Zip":"85705"},{"Location":"TRINITY KITCHEN AND BATH","Address":"151 W Ventura St","City":"Tucson","State":"AZ","Zip":"85705"},{"Location":"TUCSON ENDODONTICS","Address":"1426 W Prince Rd","City":"Tucson","State":"AZ","Zip":"85705"},{"Location":"TUCSON I","Address":"2150 N 4th Ave","City":"Tucson","State":"AZ","Zip":"85705"},{"Location":"UNIVERSITY OF ARIZONA MALL STO","Address":"4500 N Oracle Rd","City":"Tucson","State":"AZ","Zip":"85705"},{"Location":"US CUSTOMS & BORDER PROTECTION","Address":"4740 N Oracle Rd 310","City":"Tucson","State":"AZ","Zip":"85705"},{"Location":"VANS GOLF SHOP","Address":"4230 N Oracle Rd 180","City":"Tucson","State":"AZ","Zip":"85705"},{"Location":"WATSON CHEVROLET","Address":"625 W Auto Mall Dr","City":"Tucson","State":"AZ","Zip":"85705"},{"Location":"WILDCAT CAFE","Address":"305 N 4th Ave","City":"Tucson","State":"AZ","Zip":"85705"}]