[{"Location":"ANDREW SUMMERS","Address":"63 E Congress St 109","City":"Tucson","State":"AZ","Zip":"85701"},{"Location":"BERNARDOS TACO SHOP","Address":"17 N Stone Ave","City":"Tucson","State":"AZ","Zip":"85701"},{"Location":"BLACK BUTTE LIVESTOCK CO","Address":"338 N Granada Ave","City":"Tucson","State":"AZ","Zip":"85701"},{"Location":"CONGRESS PLAZA LIMITED","Address":"407 W Congress St 103","City":"Tucson","State":"AZ","Zip":"85701"},{"Location":"CYRACOM1","Address":"1 E Congress St","City":"Tucson","State":"AZ","Zip":"85701"},{"Location":"DIABLO BURGER","Address":"312 E Congress St","City":"Tucson","State":"AZ","Zip":"85701"},{"Location":"ELLIOTTS ON CONGRESS","Address":"135 E Congress St","City":"Tucson","State":"AZ","Zip":"85701"},{"Location":"GOLD'S GYM #695","Address":"110 S Church Ave 5030","City":"Tucson","State":"AZ","Zip":"85701"},{"Location":"GRAND CINEMAS 02","Address":"127 E Congress St","City":"Tucson","State":"AZ","Zip":"85701"},{"Location":"GREYHOUND BUS LINES","Address":"471 W Congress St","City":"Tucson","State":"AZ","Zip":"85701"},{"Location":"HI FI KITCHEN & COCKTAIL","Address":"345 W Congress St","City":"Tucson","State":"AZ","Zip":"85701"},{"Location":"HI FI TUCSON 2","Address":"345 W Congress St","City":"Tucson","State":"AZ","Zip":"85701"},{"Location":"HOTEL CONGRESS","Address":"311 E Congress St","City":"Tucson","State":"AZ","Zip":"85701"},{"Location":"HUB RESTAURANT","Address":"266 E Congress St","City":"Tucson","State":"AZ","Zip":"85701"},{"Location":"LA COCINA","Address":"201 N Court Ave","City":"Tucson","State":"AZ","Zip":"85701"},{"Location":"NORTH SCOTT BARBER SALON","Address":"27 N Scott Ave","City":"Tucson","State":"AZ","Zip":"85701"},{"Location":"REILLY CRAFT PIZZA","Address":"101 E Pennington St","City":"Tucson","State":"AZ","Zip":"85701"},{"Location":"SOUTH FINANCIAL SERVICES","Address":"259 N Meyer Ave","City":"Tucson","State":"AZ","Zip":"85701"},{"Location":"STREET TACO AND BEER CO","Address":"58 W Congress St","City":"Tucson","State":"AZ","Zip":"85701"},{"Location":"STUBBS AND SCHUBART PC","Address":"340 N Main Ave","City":"Tucson","State":"AZ","Zip":"85701"},{"Location":"THE 3000 CLUB","Address":"250 S Toole Ave","City":"Tucson","State":"AZ","Zip":"85701"},{"Location":"THE PLAYGROUND","Address":"278 E Congress St","City":"Tucson","State":"AZ","Zip":"85701"},{"Location":"WORLD OF BEER TUCSON","Address":"350 E Congress St A","City":"Tucson","State":"AZ","Zip":"85701"},{"Location":"ZEN ROCK","Address":"61 E Congress St","City":"Tucson","State":"AZ","Zip":"85701"}]