[{"Location":"ADVANCED MAGNETIC RESEARCH INS","Address":"310 N Wilmot Rd","City":"Tucson","State":"AZ","Zip":"85711"},{"Location":"AFNI  INC","Address":"5451 E Williams Blvd","City":"Tucson","State":"AZ","Zip":"85711"},{"Location":"ANTHONYS CIGAR EMPORIUM","Address":"5350 E Broadway Blvd 124","City":"Tucson","State":"AZ","Zip":"85711"},{"Location":"APOLLO GROUP - TUCSON","Address":"300 S Craycroft Rd","City":"Tucson","State":"AZ","Zip":"85711"},{"Location":"APPLEBEE'S #602 PARK MALL","Address":"5870 E Broadway Blvd","City":"Tucson","State":"AZ","Zip":"85711"},{"Location":"ARIZONA PIZZA COMPANY","Address":"5855 E Broadway Blvd 114","City":"Tucson","State":"AZ","Zip":"85711"},{"Location":"ARIZONA STATE CREDIT UNION #9","Address":"777 S Alvernon Way","City":"Tucson","State":"AZ","Zip":"85711"},{"Location":"AUDIO EXPRESS E BROADWAY","Address":"4501 E Broadway Blvd","City":"Tucson","State":"AZ","Zip":"85711"},{"Location":"AUDIOEYE INC","Address":"5210 E Williams Cir 500","City":"Tucson","State":"AZ","Zip":"85711"},{"Location":"BANANAS BAR AND GRILL","Address":"1310 S Alvernon Way","City":"Tucson","State":"AZ","Zip":"85711"},{"Location":"BJ'S RESTAURANT #501","Address":"5510 E Broadway Blvd","City":"Tucson","State":"AZ","Zip":"85711"},{"Location":"BROADWAY ACE HARDWARE 1","Address":"4722 E Broadway Blvd","City":"Tucson","State":"AZ","Zip":"85711"},{"Location":"BROADWAY HOTEL CORPORATION","Address":"4855 E Broadway Blvd","City":"Tucson","State":"AZ","Zip":"85711"},{"Location":"CARPET AND FLOORING NET","Address":"3925 E 29th St Unit4","City":"Tucson","State":"AZ","Zip":"85711"},{"Location":"CARREON","Address":"3910 E 29th St","City":"Tucson","State":"AZ","Zip":"85711"},{"Location":"CB%2FWILLIAMS CTR","Address":"5255 E Williams Cir","City":"Tucson","State":"AZ","Zip":"85711"},{"Location":"CHARIOT PIZZA","Address":"1835 S Alvernon Way","City":"Tucson","State":"AZ","Zip":"85711"},{"Location":"CHILI'S #0563","Address":"5150 E Broadway Blvd","City":"Tucson","State":"AZ","Zip":"85711"},{"Location":"CLIFTON GUNDERSON LLP","Address":"335 N Wilmot Rd 300","City":"Tucson","State":"AZ","Zip":"85711"},{"Location":"CREST INSURANCE GROUP LLC","Address":"5285 E Williams Cir 4500","City":"Tucson","State":"AZ","Zip":"85711"},{"Location":"DRIFTWOOD BAR AND LOUNGE","Address":"2001 S Craycroft Rd","City":"Tucson","State":"AZ","Zip":"85711"},{"Location":"EL MOLINITO","Address":"5380 E 22nd St","City":"Tucson","State":"AZ","Zip":"85711"},{"Location":"EMBASSY SUITES (0010406)","Address":"5335 E Broadway Blvd","City":"Tucson","State":"AZ","Zip":"85711"},{"Location":"FIDELITY INVESTMENTS 235","Address":"5330 E Broadway Blvd","City":"Tucson","State":"AZ","Zip":"85711"},{"Location":"FMC 68350000","Address":"5555 E 5th St 155","City":"Tucson","State":"AZ","Zip":"85711"},{"Location":"HOME PLATE SPORTS PUB","Address":"4880 E 22nd St","City":"Tucson","State":"AZ","Zip":"85711"},{"Location":"INTERNATIONAL CORP LLC","Address":"4575 E Broadway Blvd","City":"Tucson","State":"AZ","Zip":"85711"},{"Location":"INVESTORS","Address":"4380 E Broadway Blvd","City":"Tucson","State":"AZ","Zip":"85711"},{"Location":"JAMES A WEAVER DDS","Address":"5747 E 5th St","City":"Tucson","State":"AZ","Zip":"85711"},{"Location":"JASON'S DELI TAB","Address":"6061 E Broadway Blvd","City":"Tucson","State":"AZ","Zip":"85711"},{"Location":"JCS #0044 - TUCSON","Address":"410 N Wilmot Rd","City":"Tucson","State":"AZ","Zip":"85711"},{"Location":"JIM CLICK FORD","Address":"6244 E 22nd St","City":"Tucson","State":"AZ","Zip":"85711"},{"Location":"JUST SPORTS PARK MALL","Address":"5870 E Broadway Blvd 507","City":"Tucson","State":"AZ","Zip":"85711"},{"Location":"KON TIKI","Address":"4625 E Broadway Blvd","City":"Tucson","State":"AZ","Zip":"85711"},{"Location":"KOOL SMILES 507","Address":"5504 E 22nd St","City":"Tucson","State":"AZ","Zip":"85711"},{"Location":"LA FITNESS #121","Address":"240 Wilmot Ave","City":"Tucson","State":"AZ","Zip":"85711"},{"Location":"LA QUINTA INN & SUITES","Address":"102 N Alvernon Way","City":"Tucson","State":"AZ","Zip":"85711"},{"Location":"LONGHORN STEAKHOUSE #5529","Address":"5725 E Broadway Blvd","City":"Tucson","State":"AZ","Zip":"85711"},{"Location":"MACARONI GRILL #1163","Address":"5100 E Broadway Blvd","City":"Tucson","State":"AZ","Zip":"85711"},{"Location":"MACY'S WEST 458 BR","Address":"5850 E Broadway Blvd","City":"Tucson","State":"AZ","Zip":"85711"},{"Location":"MARISCO MI MAZATLAN","Address":"5601 E 22nd St","City":"Tucson","State":"AZ","Zip":"85711"},{"Location":"MATCH POINT TENNIS","Address":"100 S Alvernon Way","City":"Tucson","State":"AZ","Zip":"85711"},{"Location":"MCDONALD'S","Address":"2525 S Craycroft Rd","City":"Tucson","State":"AZ","Zip":"85711"},{"Location":"MEN'S WEARHOUSE #2508","Address":"5628 E Broadway Blvd","City":"Tucson","State":"AZ","Zip":"85711"},{"Location":"MINI COOPER OF TUCSON","Address":"4635 E 22nd St","City":"Tucson","State":"AZ","Zip":"85711"},{"Location":"MISYS","Address":"250 S Williams Blvd","City":"Tucson","State":"AZ","Zip":"85711"},{"Location":"MONKEY BURGER","Address":"5350 E Broadway Blvd 128","City":"Tucson","State":"AZ","Zip":"85711"},{"Location":"OLIVE GARDEN #1219","Address":"5410 E Broadway Blvd","City":"Tucson","State":"AZ","Zip":"85711"},{"Location":"ON THE BORDER #0126","Address":"5205 E Broadway Blvd","City":"Tucson","State":"AZ","Zip":"85711"},{"Location":"ORIELLY CHEVROLET","Address":"6160 E Broadway Blvd","City":"Tucson","State":"AZ","Zip":"85711"},{"Location":"PACIFIC DENTAL #279","Address":"5545 E Broadway Blvd 107","City":"Tucson","State":"AZ","Zip":"85711"},{"Location":"PARK PLACE MANAGEMENT","Address":"5870 E Broadway Blvd","City":"Tucson","State":"AZ","Zip":"85711"},{"Location":"PEARSONS PUB","Address":"1120 S Wilmot Rd","City":"Tucson","State":"AZ","Zip":"85711"},{"Location":"PROFESSIONAL COLLECTION SVCS","Address":"350 S Williams Blvd 200","City":"Tucson","State":"AZ","Zip":"85711"},{"Location":"PROGRESSIVE INSURANCE","Address":"1305 S Alvernon Way","City":"Tucson","State":"AZ","Zip":"85711"},{"Location":"RED LOBSTER #0869","Address":"5870 E Broadway Blvd","City":"Tucson","State":"AZ","Zip":"85711"},{"Location":"RUNWAY BAR & GRILL","Address":"2101 S Alvernon Way","City":"Tucson","State":"AZ","Zip":"85711"},{"Location":"SALTY DAWG II","Address":"6121 E Broadway Blvd","City":"Tucson","State":"AZ","Zip":"85711"},{"Location":"SCOTTRADE 02G","Address":"5460 E Broadway Blvd 380","City":"Tucson","State":"AZ","Zip":"85711"},{"Location":"SOUTHERN ARIZONA ANESTHESIA","Address":"350 N Wilmot Cob Call Room","City":"Tucson","State":"AZ","Zip":"85711"},{"Location":"SPORT CLIPS AZ 206","Address":"5608 E Broadway Blvd","City":"Tucson","State":"AZ","Zip":"85711"},{"Location":"TEXAS ROADHOUSE #2222","Address":"170 S Wilmot Rd","City":"Tucson","State":"AZ","Zip":"85711"},{"Location":"THE CHATTERBOX","Address":"1601 S Alvernon Way","City":"Tucson","State":"AZ","Zip":"85711"},{"Location":"TILTED KILT","Address":"250 N Craycroft Rd","City":"Tucson","State":"AZ","Zip":"85711"},{"Location":"TUCSON CITY GOLF","Address":"600 S Alvernon Way","City":"Tucson","State":"AZ","Zip":"85711"},{"Location":"UBS FINANCIAL SERVICES INC.","Address":"5285 E Williams Cir 5500","City":"Tucson","State":"AZ","Zip":"85711"},{"Location":"UFCW LOCAL","Address":"877 S Alvernon Way","City":"Tucson","State":"AZ","Zip":"85711"},{"Location":"ULIKE BUFFET","Address":"330 S Wilmot Rd","City":"Tucson","State":"AZ","Zip":"85711"},{"Location":"UNIVERSITY OF ARIZONA MALL","Address":"5870 E Broadway Blvd","City":"Tucson","State":"AZ","Zip":"85711"},{"Location":"US BORDER      PATROL","Address":"2430 S Swan Rd","City":"Tucson","State":"AZ","Zip":"85711"},{"Location":"US BORDER PATROL","Address":"2430 S Swan Rd","City":"Tucson","State":"AZ","Zip":"85711"},{"Location":"VITAMIN WORLD 4710","Address":"5870 E Broadway Blvd","City":"Tucson","State":"AZ","Zip":"85711"},{"Location":"WELLS FARGO INVESTMENTS","Address":"555 N Wilmot Rd 201","City":"Tucson","State":"AZ","Zip":"85711"},{"Location":"WILLIAMS CENTRE COURTYARD BY M","Address":"201 S Williams Blvd","City":"Tucson","State":"AZ","Zip":"85711"},{"Location":"WILMOT CORPORATE EXECUTIVE SUI","Address":"333 N Wilmot Rd 340","City":"Tucson","State":"AZ","Zip":"85711"},{"Location":"WINGS OVER BROADWAY","Address":"5004 E Broadway Blvd","City":"Tucson","State":"AZ","Zip":"85711"},{"Location":"YARD HOUSE #8356","Address":"5870 E Broadway Blvd","City":"Tucson","State":"AZ","Zip":"85711"}]