[{"Location":"AMERICAN LEGION","Address":"4724 S 12th Ave","City":"Tucson","State":"AZ","Zip":"85714"},{"Location":"ARIZONA EQ RENTALS","Address":"4221 S Station Master Dr","City":"Tucson","State":"AZ","Zip":"85714"},{"Location":"BROOKLYN'S BEER AND BURGER","Address":"3790 E Irvington Rd","City":"Tucson","State":"AZ","Zip":"85714"},{"Location":"CCS","Address":"3633 E Irvington Rd","City":"Tucson","State":"AZ","Zip":"85714"},{"Location":"CINTAS CORPORATION","Address":"4755 S Coach Dr","City":"Tucson","State":"AZ","Zip":"85714"},{"Location":"DULCERIA BET-EL","Address":"3912 S 6th Ave","City":"Tucson","State":"AZ","Zip":"85714"},{"Location":"ESSCO WHOLESALE ELECTRIC","Address":"1135 E Palmdale St","City":"Tucson","State":"AZ","Zip":"85714"},{"Location":"FAMOUS SAM'S #28","Address":"2048 E Irvington Rd","City":"Tucson","State":"AZ","Zip":"85714"},{"Location":"FEDEX CORP","Address":"3601 E Columbia St","City":"Tucson","State":"AZ","Zip":"85714"},{"Location":"GENARO BARCELO","Address":"702 W Irvington Rd","City":"Tucson","State":"AZ","Zip":"85714"},{"Location":"HUMPHREYS BARBER SHOP 1","Address":"918 W Irvington Rd 138","City":"Tucson","State":"AZ","Zip":"85714"},{"Location":"INDUSTRIAL METAL SUPPLY","Address":"3757 E Columbia St","City":"Tucson","State":"AZ","Zip":"85714"},{"Location":"LAS PALMAS BAR","Address":"332 W Irvington Rd","City":"Tucson","State":"AZ","Zip":"85714"},{"Location":"LITTLE MEXICO RESTAURANT","Address":"698 W Irvington Rd 3","City":"Tucson","State":"AZ","Zip":"85714"},{"Location":"LOS BETOS","Address":"4855 S Park Ave","City":"Tucson","State":"AZ","Zip":"85714"},{"Location":"MARISCOS CHIHUAHUA","Address":"435 W Irvington Rd","City":"Tucson","State":"AZ","Zip":"85714"},{"Location":"MCDONALD'S","Address":"1187 W Irvington Rd","City":"Tucson","State":"AZ","Zip":"85714"},{"Location":"OLIVE GARDEN #1622","Address":"1213 W Irvington Rd","City":"Tucson","State":"AZ","Zip":"85714"},{"Location":"OPERADORA DE AUTOBUSES","Address":"910 W Irvington Rd 110","City":"Tucson","State":"AZ","Zip":"85714"},{"Location":"PIMA COUNTY SHERIFFS DEP","Address":"1650 E Benson Hwy","City":"Tucson","State":"AZ","Zip":"85714"},{"Location":"PIZZA HUT OF AZ #8","Address":"2175 E Irvington Rd","City":"Tucson","State":"AZ","Zip":"85714"},{"Location":"PSYCHIATRIC HEALTH FACILITY","Address":"1601 E Apache Park Pl","City":"Tucson","State":"AZ","Zip":"85714"},{"Location":"R&R PRODUCTS  INC.","Address":"3334 E Milber St","City":"Tucson","State":"AZ","Zip":"85714"},{"Location":"RESTAURANTE MARISCO","Address":"4749 S 12th Ave","City":"Tucson","State":"AZ","Zip":"85714"},{"Location":"SOUTHWEST GAS CORPORATION","Address":"3401 E Gas Rd","City":"Tucson","State":"AZ","Zip":"85714"},{"Location":"SUSHI LOUNGE","Address":"4802 S 6th Ave","City":"Tucson","State":"AZ","Zip":"85714"},{"Location":"TANQUE VERDE SWAPMEET","Address":"4100 S Palo Verde Rd","City":"Tucson","State":"AZ","Zip":"85714"},{"Location":"TEXAS ROADHOUSE #2371","Address":"968 W Irvington Rd","City":"Tucson","State":"AZ","Zip":"85714"},{"Location":"TORTILLERIA JALISCO","Address":"425 W Irvington Rd","City":"Tucson","State":"AZ","Zip":"85714"},{"Location":"TUCSON ELECTRIC POWER","Address":"3950 E Irvington Rd","City":"Tucson","State":"AZ","Zip":"85714"},{"Location":"WENDYS 8422","Address":"3545 E Irvington Rd","City":"Tucson","State":"AZ","Zip":"85714"}]