[{"Location":"ADVANCED HEMORRHOID CARE","Address":"1828 N Craycroft Rd","City":"Tucson","State":"AZ","Zip":"85712"},{"Location":"AMOR NAILS INC","Address":"5559 E Grant Rd","City":"Tucson","State":"AZ","Zip":"85712"},{"Location":"ANTHONYS CIGAR EMPORIUM","Address":"4811 E Grant Rd 153","City":"Tucson","State":"AZ","Zip":"85712"},{"Location":"APPLEBEE'S #604 GRANT & SWAN","Address":"4625 E Grant Rd","City":"Tucson","State":"AZ","Zip":"85712"},{"Location":"AUTOMOTIVE PARTNERS FUND","Address":"3933 E Pima St","City":"Tucson","State":"AZ","Zip":"85712"},{"Location":"AZ ONCOLOGY 0680-1000","Address":"2625 N Craycroft Rd 200","City":"Tucson","State":"AZ","Zip":"85712"},{"Location":"BERWICK INS GROUP","Address":"4576 E Camp Lowell Dr","City":"Tucson","State":"AZ","Zip":"85712"},{"Location":"BRAKEMAX 8","Address":"3245 N Swan Rd","City":"Tucson","State":"AZ","Zip":"85712"},{"Location":"CAFFENATION","Address":"4951 E Grant Rd 119","City":"Tucson","State":"AZ","Zip":"85712"},{"Location":"CARLSON EARS NOSE AND THROAT","Address":"3172 N Swan Rd","City":"Tucson","State":"AZ","Zip":"85712"},{"Location":"CASA MOLINA CENTRAL","Address":"4240 E Grant Rd","City":"Tucson","State":"AZ","Zip":"85712"},{"Location":"CATHEYS VAC AND SEW","Address":"5701 E Speedway Blvd","City":"Tucson","State":"AZ","Zip":"85712"},{"Location":"CEE DEE JAMAICAN KITCHEN","Address":"5305 E Speedway Blvd","City":"Tucson","State":"AZ","Zip":"85712"},{"Location":"CHARLIES LIQUORS","Address":"5451 E Pima St","City":"Tucson","State":"AZ","Zip":"85712"},{"Location":"CHUZE FITNESS","Address":"4730 E Grant Rd","City":"Tucson","State":"AZ","Zip":"85712"},{"Location":"DOMINO'S PIZZA 7625","Address":"5460 E Speedway Blvd 101","City":"Tucson","State":"AZ","Zip":"85712"},{"Location":"FAMOUS SAM'S #6","Address":"3933 E Pima St","City":"Tucson","State":"AZ","Zip":"85712"},{"Location":"FILIBERTOS MEXICAN FOOD 1","Address":"4011 E Grant Rd","City":"Tucson","State":"AZ","Zip":"85712"},{"Location":"FIML","Address":"4444 E Grant Rd","City":"Tucson","State":"AZ","Zip":"85712"},{"Location":"FOOTHILLS REHAB CENTER LLC","Address":"2250 N Craycroft Rd","City":"Tucson","State":"AZ","Zip":"85712"},{"Location":"FUDDRUCKERS #3103","Address":"6118 E Speedway Blvd","City":"Tucson","State":"AZ","Zip":"85712"},{"Location":"GEES GARDEN RESTURANT","Address":"1145 N Alvernon Way","City":"Tucson","State":"AZ","Zip":"85712"},{"Location":"GROVES ASSISTANT LIVING7","Address":"4110 E Spring St 2","City":"Tucson","State":"AZ","Zip":"85712"},{"Location":"GROVES ASSISTED LIVING","Address":"4110 E Spring%2C House3","City":"Tucson","State":"AZ","Zip":"85712"},{"Location":"GROVES ASSISTED LIVING H","Address":"4024 E Pima St","City":"Tucson","State":"AZ","Zip":"85712"},{"Location":"GROVES ASSISTED LIVING H","Address":"4052 E Glenn St","City":"Tucson","State":"AZ","Zip":"85712"},{"Location":"GROVES ASSISTED LIVING H","Address":"4034 E Pima St","City":"Tucson","State":"AZ","Zip":"85712"},{"Location":"GROVES ASSISTED LIVING H","Address":"4110 E Spring%2C House1","City":"Tucson","State":"AZ","Zip":"85712"},{"Location":"HIBACHI SUPER BUFFET","Address":"4629 E Speedway Blvd","City":"Tucson","State":"AZ","Zip":"85712"},{"Location":"HOGIE HOUSE","Address":"5138 E Speedway Blvd","City":"Tucson","State":"AZ","Zip":"85712"},{"Location":"JACKSON TAVERN","Address":"2900 N Swan Rd","City":"Tucson","State":"AZ","Zip":"85712"},{"Location":"JENNIFER SPERA DDS PPLC","Address":"5190 E Farness Dr 102","City":"Tucson","State":"AZ","Zip":"85712"},{"Location":"KAPPYS BAR AND SANDWICH","Address":"2190 N Wilmot Rd","City":"Tucson","State":"AZ","Zip":"85712"},{"Location":"KAZOKU SUSHI","Address":"4210 E Speedway Blvd","City":"Tucson","State":"AZ","Zip":"85712"},{"Location":"KOREA HOUSE","Address":"4030 E Speedway Blvd","City":"Tucson","State":"AZ","Zip":"85712"},{"Location":"LA HACIENDA 10","Address":"3225 N Swan Rd A103","City":"Tucson","State":"AZ","Zip":"85712"},{"Location":"LEVIN FINANCIAL SERVICES II","Address":"6011 E Grant Rd","City":"Tucson","State":"AZ","Zip":"85712"},{"Location":"LORRAINE ENTERPRISES LLC","Address":"5954 E Speedway Blvd","City":"Tucson","State":"AZ","Zip":"85712"},{"Location":"LOTUS GARDEN","Address":"5975 E Speedway Blvd","City":"Tucson","State":"AZ","Zip":"85712"},{"Location":"LUDWIG%2CKLEWER & CO","Address":"4783 E Camp Lowell Dr","City":"Tucson","State":"AZ","Zip":"85712"},{"Location":"MC SPORTS","Address":"5769 E Speedway Blvd","City":"Tucson","State":"AZ","Zip":"85712"},{"Location":"MEDNAX","Address":"5301 E Grant Rd Winga","City":"Tucson","State":"AZ","Zip":"85712"},{"Location":"MID TOWN BAR & GRILL","Address":"4915 E Speedway Blvd","City":"Tucson","State":"AZ","Zip":"85712"},{"Location":"MIRABIEN PLLC","Address":"1615 N Swan Rd","City":"Tucson","State":"AZ","Zip":"85712"},{"Location":"MOLINA MIDWAY RESTAURANT","Address":"1138 N Belvedere Ave","City":"Tucson","State":"AZ","Zip":"85712"},{"Location":"MUTUAL OF OMAHA BANK-TUCSON","Address":"6298 E Grant Rd 140","City":"Tucson","State":"AZ","Zip":"85712"},{"Location":"OUTBACK STEAKHOUSE #0312","Address":"4871 E Grant Rd","City":"Tucson","State":"AZ","Zip":"85712"},{"Location":"PACOS MEXICAN FOOD","Address":"5563 E Grant Rd","City":"Tucson","State":"AZ","Zip":"85712"},{"Location":"PALO VERDE BEHAVIORAL HEALTH","Address":"2695 N Craycroft Rd","City":"Tucson","State":"AZ","Zip":"85712"},{"Location":"PARKER AUTOMOTIVE","Address":"5101 E Speedway Blvd","City":"Tucson","State":"AZ","Zip":"85712"},{"Location":"PATTY MARK LLC","Address":"2000 N Madelyn Ave","City":"Tucson","State":"AZ","Zip":"85712"},{"Location":"PERFOMANCE FITNESS","Address":"2951 N Swan Rd 101","City":"Tucson","State":"AZ","Zip":"85712"},{"Location":"PIZZA HUT #2","Address":"4710 E Speedway Blvd","City":"Tucson","State":"AZ","Zip":"85712"},{"Location":"Q AND A FINANCIAL GROUP","Address":"5205 E Pima St","City":"Tucson","State":"AZ","Zip":"85712"},{"Location":"RAINEYS LUGGAGE","Address":"6172 E Speedway Blvd","City":"Tucson","State":"AZ","Zip":"85712"},{"Location":"RELISH KITCHEN","Address":"4660 E Camp Lowell Dr","City":"Tucson","State":"AZ","Zip":"85712"},{"Location":"ROADHOUSE CINEMAS","Address":"4811 E Grant Rd","City":"Tucson","State":"AZ","Zip":"85712"},{"Location":"ROYAL AUTOMOTIVE GROUP","Address":"4333 E Speedway Blvd","City":"Tucson","State":"AZ","Zip":"85712"},{"Location":"ROYALEX LIMITED","Address":"4373 E Speedway Blvd","City":"Tucson","State":"AZ","Zip":"85712"},{"Location":"S AND J AMERICA","Address":"5460 E Speedway Blvd","City":"Tucson","State":"AZ","Zip":"85712"},{"Location":"SAGEPOINT FINANCIAL","Address":"1661 N Swan Rd 240","City":"Tucson","State":"AZ","Zip":"85712"},{"Location":"SCHUMER DENTAL","Address":"1221 N Wilmot Rd","City":"Tucson","State":"AZ","Zip":"85712"},{"Location":"SEOUL KITCHEN","Address":"4951 E Grant Rd 115","City":"Tucson","State":"AZ","Zip":"85712"},{"Location":"SERIAL GRILLERS","Address":"5737 E Speedway Blvd","City":"Tucson","State":"AZ","Zip":"85712"},{"Location":"SIERRA TILE INC","Address":"4155 E Speedway Blvd","City":"Tucson","State":"AZ","Zip":"85712"},{"Location":"SIR VEZA'S TACO GARAGE","Address":"4699 E Speedway Blvd","City":"Tucson","State":"AZ","Zip":"85712"},{"Location":"SUPER NAILS","Address":"3940 E Grant Rd","City":"Tucson","State":"AZ","Zip":"85712"},{"Location":"SUPERPAWN SHOP 6023","Address":"4055 E Speedway Blvd","City":"Tucson","State":"AZ","Zip":"85712"},{"Location":"SUSHI-TEN","Address":"4500 E Speedway Blvd 1","City":"Tucson","State":"AZ","Zip":"85712"},{"Location":"TDS EAST SHOWCLUB","Address":"5839 E Speedway Blvd","City":"Tucson","State":"AZ","Zip":"85712"},{"Location":"TENS SHOW CLUB","Address":"5120 E Speedway Blvd","City":"Tucson","State":"AZ","Zip":"85712"},{"Location":"THE ART INSTITUTE","Address":"5099 E Grant Rd","City":"Tucson","State":"AZ","Zip":"85712"},{"Location":"THE EAST LAWNS PALM","Address":"5801 E Grant Rd","City":"Tucson","State":"AZ","Zip":"85712"},{"Location":"TMC","Address":"2100 N Rosemont Blvd 110","City":"Tucson","State":"AZ","Zip":"85712"},{"Location":"TMC HOLDINGS INC","Address":"5335 E Erickson Dr","City":"Tucson","State":"AZ","Zip":"85712"},{"Location":"TROPHIES BAR","Address":"5151 E Grant Rd","City":"Tucson","State":"AZ","Zip":"85712"},{"Location":"TUCSON APPLIANCE CO%2C LLC","Address":"4229 E Speedway Blvd","City":"Tucson","State":"AZ","Zip":"85712"},{"Location":"TUCSON ORTHOPAEDIC INSTITUTE","Address":"2424 N Wyatt Dr","City":"Tucson","State":"AZ","Zip":"85712"},{"Location":"TUSCON ORTHOPEDIC INSTITUTE","Address":"5301 E Grant Rd","City":"Tucson","State":"AZ","Zip":"85712"},{"Location":"U LIKE ASIAN BUFFET","Address":"1160 N Wilmot Rd","City":"Tucson","State":"AZ","Zip":"85712"},{"Location":"VILLAGE INN 110040","Address":"4245 E Speedway Blvd","City":"Tucson","State":"AZ","Zip":"85712"},{"Location":"VISION QUEST","Address":"1156 N Bryant Ave","City":"Tucson","State":"AZ","Zip":"85712"},{"Location":"VISION QUEST N.BRYANT","Address":"1530 N Bryant Ave","City":"Tucson","State":"AZ","Zip":"85712"},{"Location":"WEEKS","Address":"4014 E Pima St","City":"Tucson","State":"AZ","Zip":"85712"}]