[{"Location":"ANDES TAX & ACCOUNTING INC","Address":"8765 E Broadway Blvd","City":"Tucson","State":"AZ","Zip":"85710"},{"Location":"ARIZONA PET GROOMING","Address":"1120 S Pantano Rd","City":"Tucson","State":"AZ","Zip":"85710"},{"Location":"BE AEROSPACE","Address":"1851 S Pantano Rd","City":"Tucson","State":"AZ","Zip":"85710"},{"Location":"BE AEROSPACE2","Address":"1671 S Research Loop 100","City":"Tucson","State":"AZ","Zip":"85710"},{"Location":"BPO ELKS LODGE #2532","Address":"615 S Pantano Rd","City":"Tucson","State":"AZ","Zip":"85710"},{"Location":"BRAKEMAX 2","Address":"991 N Pantano Rd","City":"Tucson","State":"AZ","Zip":"85710"},{"Location":"BROADWAY CARPET","Address":"6996 E Broadway Blvd","City":"Tucson","State":"AZ","Zip":"85710"},{"Location":"BRUNSWICK #868","Address":"114 S Camino Seco","City":"Tucson","State":"AZ","Zip":"85710"},{"Location":"BRUSHFIRE BBQ CO 2","Address":"7080 E 22nd St","City":"Tucson","State":"AZ","Zip":"85710"},{"Location":"BZ'S PIZZA COMPANY","Address":"8838 E Broadway Blvd","City":"Tucson","State":"AZ","Zip":"85710"},{"Location":"CALIBER BODY WORKS OF ARIZONA","Address":"8120 E Research Ct","City":"Tucson","State":"AZ","Zip":"85710"},{"Location":"CARE  MORE","Address":"7091 E Speedway Blvd","City":"Tucson","State":"AZ","Zip":"85710"},{"Location":"CGI FEDERAL","Address":"7333 E Rosewood St","City":"Tucson","State":"AZ","Zip":"85710"},{"Location":"CHUY'S MESQUITE BROILER","Address":"7101 E 22nd St","City":"Tucson","State":"AZ","Zip":"85710"},{"Location":"CHUZE FITNESS","Address":"7145 E 22nd St","City":"Tucson","State":"AZ","Zip":"85710"},{"Location":"COBROS III LLC","Address":"9232 E Chirco Pl","City":"Tucson","State":"AZ","Zip":"85710"},{"Location":"COYOTE WASH","Address":"7441 E 22nd St Stq","City":"Tucson","State":"AZ","Zip":"85710"},{"Location":"D AND D AUTOMOTIVE","Address":"8150 E 22nd St 160","City":"Tucson","State":"AZ","Zip":"85710"},{"Location":"DESERT ATRIUM APARTMENTS 1","Address":"8750 E Cooper St","City":"Tucson","State":"AZ","Zip":"85710"},{"Location":"DESERT HORIZON COMM.","Address":"7336 E 28th Plt","City":"Tucson","State":"AZ","Zip":"85710"},{"Location":"DESERT TOYOTA OF TUCSON","Address":"7150 E 22nd St","City":"Tucson","State":"AZ","Zip":"85710"},{"Location":"DRY RIVER COMPANY","Address":"800 N Kolb Rd","City":"Tucson","State":"AZ","Zip":"85710"},{"Location":"EDDIE'S","Address":"8150 E 22nd St 100","City":"Tucson","State":"AZ","Zip":"85710"},{"Location":"EXPERT WIGS","Address":"6508 E 22nd St","City":"Tucson","State":"AZ","Zip":"85710"},{"Location":"EZ MONEY PAWN","Address":"7075 E 22nd St","City":"Tucson","State":"AZ","Zip":"85710"},{"Location":"FAMOUS SAM'S #8","Address":"7930 E Speedway Blvd 170","City":"Tucson","State":"AZ","Zip":"85710"},{"Location":"FERGUSON #1189","Address":"7310 E Broadway Blvd","City":"Tucson","State":"AZ","Zip":"85710"},{"Location":"FIRESTONE #019852","Address":"7950e E Speedway Blvd","City":"Tucson","State":"AZ","Zip":"85710"},{"Location":"FLETCHERS TIRE AND AUTO TUCSON","Address":"7060 E Speedway Blvd","City":"Tucson","State":"AZ","Zip":"85710"},{"Location":"GENERAL DENTISTRY 4 KIDS 1","Address":"1057 N Kolb Rd","City":"Tucson","State":"AZ","Zip":"85710"},{"Location":"GOODYEAR 8267","Address":"8280 E 22nd St","City":"Tucson","State":"AZ","Zip":"85710"},{"Location":"HH SW HOSPITALITY INC","Address":"40 S Broadway Pl","City":"Tucson","State":"AZ","Zip":"85710"},{"Location":"HIDEOUT SALOON","Address":"1110 S Sherwood Village Dr","City":"Tucson","State":"AZ","Zip":"85710"},{"Location":"IQOR US INC","Address":"7820 E Broadway Blvd","City":"Tucson","State":"AZ","Zip":"85710"},{"Location":"JEFF'S PUB","Address":"112 S Camino Seco","City":"Tucson","State":"AZ","Zip":"85710"},{"Location":"KOHL'S #688","Address":"199 N Pantano Rd","City":"Tucson","State":"AZ","Zip":"85710"},{"Location":"KOLB ROAD LOUNGE","Address":"1180 S Kolb Rd","City":"Tucson","State":"AZ","Zip":"85710"},{"Location":"LARRY H MILLER CHRYSLER JEEP","Address":"7800 E 22nd St A","City":"Tucson","State":"AZ","Zip":"85710"},{"Location":"LARRY H MILLER CHRYSLER JEEP 2","Address":"7800 E 22nd St B","City":"Tucson","State":"AZ","Zip":"85710"},{"Location":"LAUNDRY ON PANTANO","Address":"150 N Pantano Rd 112","City":"Tucson","State":"AZ","Zip":"85710"},{"Location":"LIQUOR BARREL SALOON","Address":"6925 E Broadway Blvd","City":"Tucson","State":"AZ","Zip":"85710"},{"Location":"MEDICAL TECHNIQUE","Address":"8060 E Research Ct","City":"Tucson","State":"AZ","Zip":"85710"},{"Location":"MS FIT HEALTH CLUB","Address":"7788 E Speedway Blvd","City":"Tucson","State":"AZ","Zip":"85710"},{"Location":"PHYSICAL THERAPY VERTEX","Address":"9250 E 27th St","City":"Tucson","State":"AZ","Zip":"85710"},{"Location":"PIMA FEDERAL CREDIT UNION","Address":"231 N Pantano Rd","City":"Tucson","State":"AZ","Zip":"85710"},{"Location":"PIZZA HUT","Address":"6305 E 22nd St","City":"Tucson","State":"AZ","Zip":"85710"},{"Location":"R&R FAMILY KITCHEN","Address":"7230 E 22nd St","City":"Tucson","State":"AZ","Zip":"85710"},{"Location":"RATTLESNAKE ESPRESSO","Address":"8407 E Broadway Blvd 101","City":"Tucson","State":"AZ","Zip":"85710"},{"Location":"REALISTIC HAIR & NAIL SALON","Address":"8509 E 22nd St","City":"Tucson","State":"AZ","Zip":"85710"},{"Location":"RETINA ASSOCIATES","Address":"6561 E Carondelet Dr 100","City":"Tucson","State":"AZ","Zip":"85710"},{"Location":"RETRO HAIR STUDIO","Address":"8490 E Broadway Blvd","City":"Tucson","State":"AZ","Zip":"85710"},{"Location":"RIDE NOW POWER SPORTS","Address":"7501 E 22nd St","City":"Tucson","State":"AZ","Zip":"85710"},{"Location":"ROHS AUDIO AND VIDEO","Address":"1634 S Research Loop 150","City":"Tucson","State":"AZ","Zip":"85710"},{"Location":"SAFE LITE AUTO GLASS","Address":"1402 S Kolb Rd","City":"Tucson","State":"AZ","Zip":"85710"},{"Location":"SCOTISH TAVERN","Address":"8060 E 22nd St 118","City":"Tucson","State":"AZ","Zip":"85710"},{"Location":"SKATE COUNTRY","Address":"7980 E 22nd St","City":"Tucson","State":"AZ","Zip":"85710"},{"Location":"STEAMY CONCEPTS","Address":"1551 S Eastside Loop 181","City":"Tucson","State":"AZ","Zip":"85710"},{"Location":"SUSHI NARA","Address":"8650 E Speedway Blvd","City":"Tucson","State":"AZ","Zip":"85710"},{"Location":"TENDER LOVING AND CARE HOME","Address":"7232 E Montecito Dr","City":"Tucson","State":"AZ","Zip":"85710"},{"Location":"THE BOWL ASIAN KITCHEN","Address":"210 N Pantano Rd","City":"Tucson","State":"AZ","Zip":"85710"},{"Location":"THE GUADALAJARA GRILL","Address":"750 N Kolb Rd","City":"Tucson","State":"AZ","Zip":"85710"},{"Location":"TUCSON HILTON EAST BAR","Address":"7600 E Broadway Blvd","City":"Tucson","State":"AZ","Zip":"85710"},{"Location":"US DEPT OF STATE GSA","Address":"7373 E Rosewood St","City":"Tucson","State":"AZ","Zip":"85710"},{"Location":"WHISKEY TANGO","Address":"140 S Kolb Rd","City":"Tucson","State":"AZ","Zip":"85710"},{"Location":"WINGSTOP #971","Address":"7940 E Broadway Blvd 102","City":"Tucson","State":"AZ","Zip":"85710"},{"Location":"ANDES TAX & ACCOUNTING INC","Address":"8765 E Broadway Blvd","City":"Tucson","State":"AZ","Zip":"85710"},{"Location":"ARIZONA PET GROOMING","Address":"1120 S Pantano Rd","City":"Tucson","State":"AZ","Zip":"85710"},{"Location":"BE AEROSPACE","Address":"1851 S Pantano Rd","City":"Tucson","State":"AZ","Zip":"85710"},{"Location":"BE AEROSPACE2","Address":"1671 S Research Loop 100","City":"Tucson","State":"AZ","Zip":"85710"},{"Location":"BPO ELKS LODGE #2532","Address":"615 S Pantano Rd","City":"Tucson","State":"AZ","Zip":"85710"},{"Location":"BRAKEMAX 2","Address":"991 N Pantano Rd","City":"Tucson","State":"AZ","Zip":"85710"},{"Location":"BROADWAY CARPET","Address":"6996 E Broadway Blvd","City":"Tucson","State":"AZ","Zip":"85710"},{"Location":"BRUNSWICK #868","Address":"114 S Camino Seco","City":"Tucson","State":"AZ","Zip":"85710"},{"Location":"BRUSHFIRE BBQ CO 2","Address":"7080 E 22nd St","City":"Tucson","State":"AZ","Zip":"85710"},{"Location":"BZ'S PIZZA COMPANY","Address":"8838 E Broadway Blvd","City":"Tucson","State":"AZ","Zip":"85710"},{"Location":"CALIBER BODY WORKS OF ARIZONA","Address":"8120 E Research Ct","City":"Tucson","State":"AZ","Zip":"85710"},{"Location":"CARE  MORE","Address":"7091 E Speedway Blvd","City":"Tucson","State":"AZ","Zip":"85710"},{"Location":"CGI FEDERAL","Address":"7333 E Rosewood St","City":"Tucson","State":"AZ","Zip":"85710"},{"Location":"CHUY'S MESQUITE BROILER","Address":"7101 E 22nd St","City":"Tucson","State":"AZ","Zip":"85710"},{"Location":"CHUZE FITNESS","Address":"7145 E 22nd St","City":"Tucson","State":"AZ","Zip":"85710"},{"Location":"COBROS III LLC","Address":"9232 E Chirco Pl","City":"Tucson","State":"AZ","Zip":"85710"},{"Location":"COYOTE WASH","Address":"7441 E 22nd St Stq","City":"Tucson","State":"AZ","Zip":"85710"},{"Location":"D AND D AUTOMOTIVE","Address":"8150 E 22nd St 160","City":"Tucson","State":"AZ","Zip":"85710"},{"Location":"DESERT ATRIUM APARTMENTS 1","Address":"8750 E Cooper St","City":"Tucson","State":"AZ","Zip":"85710"},{"Location":"DESERT HORIZON COMM.","Address":"7336 E 28th Plt","City":"Tucson","State":"AZ","Zip":"85710"},{"Location":"DESERT TOYOTA OF TUCSON","Address":"7150 E 22nd St","City":"Tucson","State":"AZ","Zip":"85710"},{"Location":"DRY RIVER COMPANY","Address":"800 N Kolb Rd","City":"Tucson","State":"AZ","Zip":"85710"},{"Location":"EDDIE'S","Address":"8150 E 22nd St 100","City":"Tucson","State":"AZ","Zip":"85710"},{"Location":"EXPERT WIGS","Address":"6508 E 22nd St","City":"Tucson","State":"AZ","Zip":"85710"},{"Location":"EZ MONEY PAWN","Address":"7075 E 22nd St","City":"Tucson","State":"AZ","Zip":"85710"},{"Location":"FAMOUS SAM'S #8","Address":"7930 E Speedway Blvd 170","City":"Tucson","State":"AZ","Zip":"85710"},{"Location":"FERGUSON #1189","Address":"7310 E Broadway Blvd","City":"Tucson","State":"AZ","Zip":"85710"},{"Location":"FIRESTONE #019852","Address":"7950e E Speedway Blvd","City":"Tucson","State":"AZ","Zip":"85710"},{"Location":"FLETCHERS TIRE AND AUTO TUCSON","Address":"7060 E Speedway Blvd","City":"Tucson","State":"AZ","Zip":"85710"},{"Location":"GENERAL DENTISTRY 4 KIDS 1","Address":"1057 N Kolb Rd","City":"Tucson","State":"AZ","Zip":"85710"},{"Location":"GOODYEAR 8267","Address":"8280 E 22nd St","City":"Tucson","State":"AZ","Zip":"85710"},{"Location":"HH SW HOSPITALITY INC","Address":"40 S Broadway Pl","City":"Tucson","State":"AZ","Zip":"85710"},{"Location":"HIDEOUT SALOON","Address":"1110 S Sherwood Village Dr","City":"Tucson","State":"AZ","Zip":"85710"},{"Location":"IQOR US INC","Address":"7820 E Broadway Blvd","City":"Tucson","State":"AZ","Zip":"85710"},{"Location":"JEFF'S PUB","Address":"112 S Camino Seco","City":"Tucson","State":"AZ","Zip":"85710"},{"Location":"KOHL'S #688","Address":"199 N Pantano Rd","City":"Tucson","State":"AZ","Zip":"85710"},{"Location":"KOLB ROAD LOUNGE","Address":"1180 S Kolb Rd","City":"Tucson","State":"AZ","Zip":"85710"},{"Location":"LARRY H MILLER CHRYSLER JEEP","Address":"7800 E 22nd St A","City":"Tucson","State":"AZ","Zip":"85710"},{"Location":"LARRY H MILLER CHRYSLER JEEP 2","Address":"7800 E 22nd St B","City":"Tucson","State":"AZ","Zip":"85710"},{"Location":"LAUNDRY ON PANTANO","Address":"150 N Pantano Rd 112","City":"Tucson","State":"AZ","Zip":"85710"},{"Location":"LIQUOR BARREL SALOON","Address":"6925 E Broadway Blvd","City":"Tucson","State":"AZ","Zip":"85710"},{"Location":"MEDICAL TECHNIQUE","Address":"8060 E Research Ct","City":"Tucson","State":"AZ","Zip":"85710"},{"Location":"MS FIT HEALTH CLUB","Address":"7788 E Speedway Blvd","City":"Tucson","State":"AZ","Zip":"85710"},{"Location":"PHYSICAL THERAPY VERTEX","Address":"9250 E 27th St","City":"Tucson","State":"AZ","Zip":"85710"},{"Location":"PIMA FEDERAL CREDIT UNION","Address":"231 N Pantano Rd","City":"Tucson","State":"AZ","Zip":"85710"},{"Location":"PIZZA HUT","Address":"6305 E 22nd St","City":"Tucson","State":"AZ","Zip":"85710"},{"Location":"R&R FAMILY KITCHEN","Address":"7230 E 22nd St","City":"Tucson","State":"AZ","Zip":"85710"},{"Location":"RATTLESNAKE ESPRESSO","Address":"8407 E Broadway Blvd 101","City":"Tucson","State":"AZ","Zip":"85710"},{"Location":"REALISTIC HAIR & NAIL SALON","Address":"8509 E 22nd St","City":"Tucson","State":"AZ","Zip":"85710"},{"Location":"RETINA ASSOCIATES","Address":"6561 E Carondelet Dr 100","City":"Tucson","State":"AZ","Zip":"85710"},{"Location":"RETRO HAIR STUDIO","Address":"8490 E Broadway Blvd","City":"Tucson","State":"AZ","Zip":"85710"},{"Location":"RIDE NOW POWER SPORTS","Address":"7501 E 22nd St","City":"Tucson","State":"AZ","Zip":"85710"},{"Location":"ROHS AUDIO AND VIDEO","Address":"1634 S Research Loop 150","City":"Tucson","State":"AZ","Zip":"85710"},{"Location":"SAFE LITE AUTO GLASS","Address":"1402 S Kolb Rd","City":"Tucson","State":"AZ","Zip":"85710"},{"Location":"SCOTISH TAVERN","Address":"8060 E 22nd St 118","City":"Tucson","State":"AZ","Zip":"85710"},{"Location":"SKATE COUNTRY","Address":"7980 E 22nd St","City":"Tucson","State":"AZ","Zip":"85710"},{"Location":"STEAMY CONCEPTS","Address":"1551 S Eastside Loop 181","City":"Tucson","State":"AZ","Zip":"85710"},{"Location":"SUSHI NARA","Address":"8650 E Speedway Blvd","City":"Tucson","State":"AZ","Zip":"85710"},{"Location":"TENDER LOVING AND CARE HOME","Address":"7232 E Montecito Dr","City":"Tucson","State":"AZ","Zip":"85710"},{"Location":"THE BOWL ASIAN KITCHEN","Address":"210 N Pantano Rd","City":"Tucson","State":"AZ","Zip":"85710"},{"Location":"THE GUADALAJARA GRILL","Address":"750 N Kolb Rd","City":"Tucson","State":"AZ","Zip":"85710"},{"Location":"TUCSON HILTON EAST BAR","Address":"7600 E Broadway Blvd","City":"Tucson","State":"AZ","Zip":"85710"},{"Location":"US DEPT OF STATE GSA","Address":"7373 E Rosewood St","City":"Tucson","State":"AZ","Zip":"85710"},{"Location":"WHISKEY TANGO","Address":"140 S Kolb Rd","City":"Tucson","State":"AZ","Zip":"85710"},{"Location":"WINGSTOP #971","Address":"7940 E Broadway Blvd 102","City":"Tucson","State":"AZ","Zip":"85710"}]