[{"Location":"1702 PIZZA AND BEER","Address":"1702 E Speedway Blvd","City":"Tucson","State":"AZ","Zip":"85719"},{"Location":"3 GORILLAS MOVING 1","Address":"843 E 18th St","City":"Tucson","State":"AZ","Zip":"85719"},{"Location":"ACCURATE ENTRANCE","Address":"245 S Plumer Ave 23","City":"Tucson","State":"AZ","Zip":"85719"},{"Location":"AFFORDABLE RENT TO OWN","Address":"815 E Grant Rd","City":"Tucson","State":"AZ","Zip":"85719"},{"Location":"AFRICAN CAFE","Address":"1012 E 6th St","City":"Tucson","State":"AZ","Zip":"85719"},{"Location":"ALPHA EPSILON PHI","Address":"1071 N Mountain Ave","City":"Tucson","State":"AZ","Zip":"85719"},{"Location":"ALPHA PHI INC","Address":"1339 E 1st St","City":"Tucson","State":"AZ","Zip":"85719"},{"Location":"ARIZONA ALPHA HOUSE CORP","Address":"1035 N Mountain Ave","City":"Tucson","State":"AZ","Zip":"85719"},{"Location":"ARIZONA STATE CREDIT UNION #8","Address":"1001 N Park Ave","City":"Tucson","State":"AZ","Zip":"85719"},{"Location":"ARIZONA STUDENT RECREATI","Address":"1400      East 6th Street 107","City":"Tucson","State":"AZ","Zip":"85719"},{"Location":"ARIZONA STUDENT UNION","Address":"1303 E University Blvd","City":"Tucson","State":"AZ","Zip":"85719"},{"Location":"ARIZONA STUDENT UNIONS","Address":"1303 E University Blvd","City":"Tucson","State":"AZ","Zip":"85719"},{"Location":"AZTEC FLOORING","Address":"1215 E Warehouse Ave","City":"Tucson","State":"AZ","Zip":"85719"},{"Location":"BRUSHFIRE BBQ CO 1","Address":"2745 N Campbell Ave","City":"Tucson","State":"AZ","Zip":"85719"},{"Location":"CALIBAR COLLISIONS","Address":"140 S Euclid Ave","City":"Tucson","State":"AZ","Zip":"85719"},{"Location":"CAMPBELL NAIL SPA","Address":"2517 N Campbell Ave","City":"Tucson","State":"AZ","Zip":"85719"},{"Location":"CED HUSSAR ELECTRIC SUPPLY","Address":"2050 E Eastland St","City":"Tucson","State":"AZ","Zip":"85719"},{"Location":"CLICKS BILLIARDS","Address":"3325 N 1st Ave","City":"Tucson","State":"AZ","Zip":"85719"},{"Location":"COLLEGE TOWN TUCSON","Address":"1300 E Fort Lowell Rd","City":"Tucson","State":"AZ","Zip":"85719"},{"Location":"DIRTBAGS","Address":"1800 E Speedway Blvd","City":"Tucson","State":"AZ","Zip":"85719"},{"Location":"DR. REEFERALZ TUCSON","Address":"2239 E Broadway Blvd","City":"Tucson","State":"AZ","Zip":"85719"},{"Location":"EAST COAST SUPER SUBS","Address":"187 N Park Ave","City":"Tucson","State":"AZ","Zip":"85719"},{"Location":"ECLIPSE SPORTS BAR","Address":"1830 E Broadway Blvd 106","City":"Tucson","State":"AZ","Zip":"85719"},{"Location":"EPSTEIN CONSTRUCTION LLC","Address":"990 E 17th St 106","City":"Tucson","State":"AZ","Zip":"85719"},{"Location":"FERGUSON #0624","Address":"1101 E 18th St","City":"Tucson","State":"AZ","Zip":"85719"},{"Location":"FIRESTONE #013374","Address":"2430 N 1st Ave","City":"Tucson","State":"AZ","Zip":"85719"},{"Location":"FIRST AVENUE BEVERAGE","Address":"3149 N 1st Ave","City":"Tucson","State":"AZ","Zip":"85719"},{"Location":"FRANKIE'S CHEESESTEAKS","Address":"2574 N Campbell Ave","City":"Tucson","State":"AZ","Zip":"85719"},{"Location":"FRED G ACOSTA JOB COR 2","Address":"901 S Campbell Ave","City":"Tucson","State":"AZ","Zip":"85719"},{"Location":"FRED G ACOSTA JOB CORP 3","Address":"901 S Campbell Ave","City":"Tucson","State":"AZ","Zip":"85719"},{"Location":"FRED G. ACOSTA JOB COR 1","Address":"901 S Campbell Ave","City":"Tucson","State":"AZ","Zip":"85719"},{"Location":"FROG AND FIRKIN","Address":"874 E University Blvd","City":"Tucson","State":"AZ","Zip":"85719"},{"Location":"GAMMA ZETA BLDG ASSOC","Address":"1435 E 2nd St","City":"Tucson","State":"AZ","Zip":"85719"},{"Location":"GOODYEAR 8261","Address":"3225 N Campbell Ave","City":"Tucson","State":"AZ","Zip":"85719"},{"Location":"GUADALAJARA RESTURANT","Address":"1220 E Prince Rd","City":"Tucson","State":"AZ","Zip":"85719"},{"Location":"GUGLIELMO & ASSOC","Address":"3040 N Campbell Ave 100","City":"Tucson","State":"AZ","Zip":"85719"},{"Location":"HEALTH HEART AND FITNESS","Address":"3681 N Campbell Ave","City":"Tucson","State":"AZ","Zip":"85719"},{"Location":"HEDRICK HOUSE","Address":"1632 E Hedrick Dr","City":"Tucson","State":"AZ","Zip":"85719"},{"Location":"IN BALANCE TRANSITIONAL LIVING","Address":"2646 N Martin Ave","City":"Tucson","State":"AZ","Zip":"85719"},{"Location":"IN BALANCE TRANSITIONAL LIVING","Address":"2644 N Martin Ave","City":"Tucson","State":"AZ","Zip":"85719"},{"Location":"KAPPA SIGMA","Address":"1423 E 1st St","City":"Tucson","State":"AZ","Zip":"85719"},{"Location":"LA FITNESS #129","Address":"4240 N 1st Ave","City":"Tucson","State":"AZ","Zip":"85719"},{"Location":"MAMAS HAWAIAN BBQ","Address":"850 E Speedway Blvd","City":"Tucson","State":"AZ","Zip":"85719"},{"Location":"NEXTCARE ARIZONA  LLC","Address":"501 N Park Ave 110","City":"Tucson","State":"AZ","Zip":"85719"},{"Location":"NO ANCHOVIES","Address":"870 E University Blvd","City":"Tucson","State":"AZ","Zip":"85719"},{"Location":"OLD CHICAGO #39","Address":"2960 N Campbell Ave","City":"Tucson","State":"AZ","Zip":"85719"},{"Location":"OYVEY CAFE","Address":"1245 E 2nd St","City":"Tucson","State":"AZ","Zip":"85719"},{"Location":"PHI DELTA THETA","Address":"1745 E 2nd St","City":"Tucson","State":"AZ","Zip":"85719"},{"Location":"PIONIC PIZZA","Address":"2643 N Campbell Ave 101","City":"Tucson","State":"AZ","Zip":"85719"},{"Location":"PIZZA HUT OF ARIZONA","Address":"2943 N Campbell Ave","City":"Tucson","State":"AZ","Zip":"85719"},{"Location":"PLANETARY SCIENCE INST","Address":"1650 E Fort Lowell Rd","City":"Tucson","State":"AZ","Zip":"85719"},{"Location":"QUALITY THIN SECTIONS","Address":"940 S Warren Ave 163","City":"Tucson","State":"AZ","Zip":"85719"},{"Location":"SAFEWAY 1684","Address":"1940 E Broadway Blvd","City":"Tucson","State":"AZ","Zip":"85719"},{"Location":"SAHUARO DENTAL LAB LLC","Address":"3250 N Campbell Ave 144","City":"Tucson","State":"AZ","Zip":"85719"},{"Location":"SALPOINTE CATHOLIC HIGH SCHOOL","Address":"1545 E Copper St","City":"Tucson","State":"AZ","Zip":"85719"},{"Location":"SCHRIERS SPORTS GRILL","Address":"1118 E 6th St","City":"Tucson","State":"AZ","Zip":"85719"},{"Location":"SHAMROCK FOODS","Address":"1922 E 18th St","City":"Tucson","State":"AZ","Zip":"85719"},{"Location":"SIGMA CHI BLDG COMPANY","Address":"1511 E 1st St","City":"Tucson","State":"AZ","Zip":"85719"},{"Location":"SILVER ROOM","Address":"673 South Plumber","City":"Tucson","State":"AZ","Zip":"85719"},{"Location":"SOCIAL HOUSE","Address":"446 N Campbell Ave 255","City":"Tucson","State":"AZ","Zip":"85719"},{"Location":"SOCIAL HOUSE (SOHO)","Address":"446 N. Campbell Avenue","City":"Tucson","State":"AZ","Zip":"85719"},{"Location":"ST PHILIP'S CORNER","Address":"3993 N Campbell Ave","City":"Tucson","State":"AZ","Zip":"85719"},{"Location":"SUBWAY","Address":"1927 E Speedway Blvd 111","City":"Tucson","State":"AZ","Zip":"85719"},{"Location":"SULTAN LLC","Address":"3699 N Campbell Ave","City":"Tucson","State":"AZ","Zip":"85719"},{"Location":"THE AULD DUBLINER","Address":"800 E University Blvd","City":"Tucson","State":"AZ","Zip":"85719"},{"Location":"THROWBACKS SPORTS BAR","Address":"3620 N 1st Ave","City":"Tucson","State":"AZ","Zip":"85719"},{"Location":"TRIDENT SALOON","Address":"2033 E Speedway Blvd 101","City":"Tucson","State":"AZ","Zip":"85719"},{"Location":"U OF A JOURNALISM","Address":"845 N Park Ave","City":"Tucson","State":"AZ","Zip":"85719"},{"Location":"U OF A ORTHOPEDIC SURGER","Address":"1609 N Warren Ave 127","City":"Tucson","State":"AZ","Zip":"85719"},{"Location":"UNIV. OF AZ-CAMPUS REC 1","Address":"1400 E 6th St","City":"Tucson","State":"AZ","Zip":"85719"},{"Location":"UNIV. OF AZ-CAMPUS REC 2","Address":"1400 E 6th St","City":"Tucson","State":"AZ","Zip":"85719"},{"Location":"UNIVERSITY OF ARIZONA","Address":"615 N Park Ave","City":"Tucson","State":"AZ","Zip":"85719"},{"Location":"UNIVERSITY OF ARIZONA RES LIFE","Address":"1801 E 1st St","City":"Tucson","State":"AZ","Zip":"85719"},{"Location":"UNIVERSITY OF AZ BOOKSTORE","Address":"1303 E University Blvd","City":"Tucson","State":"AZ","Zip":"85719"},{"Location":"UNIVERSTIY OF ARIZONA INTERNAT","Address":"915 N Tyndall Ave","City":"Tucson","State":"AZ","Zip":"85719"},{"Location":"VISION QUEST 7TH STREET","Address":"931 E 7th St","City":"Tucson","State":"AZ","Zip":"85719"},{"Location":"VISIONQUEST 2","Address":"1304 E Copper St","City":"Tucson","State":"AZ","Zip":"85719"},{"Location":"VIVAS BAR & GRILL","Address":"1929 E Grant Rd","City":"Tucson","State":"AZ","Zip":"85719"},{"Location":"WILD GARLIC GRILL","Address":"2530 N 1st Ave","City":"Tucson","State":"AZ","Zip":"85719"},{"Location":"WINGSTOP #973","Address":"3122 N Campbell Ave 130","City":"Tucson","State":"AZ","Zip":"85719"},{"Location":"1702 PIZZA AND BEER","Address":"1702 E Speedway Blvd","City":"Tucson","State":"AZ","Zip":"85719"},{"Location":"3 GORILLAS MOVING 1","Address":"843 E 18th St","City":"Tucson","State":"AZ","Zip":"85719"},{"Location":"ACCURATE ENTRANCE","Address":"245 S Plumer Ave 23","City":"Tucson","State":"AZ","Zip":"85719"},{"Location":"AFFORDABLE RENT TO OWN","Address":"815 E Grant Rd","City":"Tucson","State":"AZ","Zip":"85719"},{"Location":"AFRICAN CAFE","Address":"1012 E 6th St","City":"Tucson","State":"AZ","Zip":"85719"},{"Location":"ALPHA EPSILON PHI","Address":"1071 N Mountain Ave","City":"Tucson","State":"AZ","Zip":"85719"},{"Location":"ALPHA PHI INC","Address":"1339 E 1st St","City":"Tucson","State":"AZ","Zip":"85719"},{"Location":"ARIZONA ALPHA HOUSE CORP","Address":"1035 N Mountain Ave","City":"Tucson","State":"AZ","Zip":"85719"},{"Location":"ARIZONA STATE CREDIT UNION #8","Address":"1001 N Park Ave","City":"Tucson","State":"AZ","Zip":"85719"},{"Location":"ARIZONA STUDENT RECREATI","Address":"1400      East 6th Street 107","City":"Tucson","State":"AZ","Zip":"85719"},{"Location":"ARIZONA STUDENT UNION","Address":"1303 E University Blvd","City":"Tucson","State":"AZ","Zip":"85719"},{"Location":"ARIZONA STUDENT UNIONS","Address":"1303 E University Blvd","City":"Tucson","State":"AZ","Zip":"85719"},{"Location":"AZTEC FLOORING","Address":"1215 E Warehouse Ave","City":"Tucson","State":"AZ","Zip":"85719"},{"Location":"BRUSHFIRE BBQ CO 1","Address":"2745 N Campbell Ave","City":"Tucson","State":"AZ","Zip":"85719"},{"Location":"CALIBAR COLLISIONS","Address":"140 S Euclid Ave","City":"Tucson","State":"AZ","Zip":"85719"},{"Location":"CAMPBELL NAIL SPA","Address":"2517 N Campbell Ave","City":"Tucson","State":"AZ","Zip":"85719"},{"Location":"CED HUSSAR ELECTRIC SUPPLY","Address":"2050 E Eastland St","City":"Tucson","State":"AZ","Zip":"85719"},{"Location":"CLICKS BILLIARDS","Address":"3325 N 1st Ave","City":"Tucson","State":"AZ","Zip":"85719"},{"Location":"COLLEGE TOWN TUCSON","Address":"1300 E Fort Lowell Rd","City":"Tucson","State":"AZ","Zip":"85719"},{"Location":"DIRTBAGS","Address":"1800 E Speedway Blvd","City":"Tucson","State":"AZ","Zip":"85719"},{"Location":"DR. REEFERALZ TUCSON","Address":"2239 E Broadway Blvd","City":"Tucson","State":"AZ","Zip":"85719"},{"Location":"EAST COAST SUPER SUBS","Address":"187 N Park Ave","City":"Tucson","State":"AZ","Zip":"85719"},{"Location":"ECLIPSE SPORTS BAR","Address":"1830 E Broadway Blvd 106","City":"Tucson","State":"AZ","Zip":"85719"},{"Location":"EPSTEIN CONSTRUCTION LLC","Address":"990 E 17th St 106","City":"Tucson","State":"AZ","Zip":"85719"},{"Location":"FERGUSON #0624","Address":"1101 E 18th St","City":"Tucson","State":"AZ","Zip":"85719"},{"Location":"FIRESTONE #013374","Address":"2430 N 1st Ave","City":"Tucson","State":"AZ","Zip":"85719"},{"Location":"FIRST AVENUE BEVERAGE","Address":"3149 N 1st Ave","City":"Tucson","State":"AZ","Zip":"85719"},{"Location":"FRANKIE'S CHEESESTEAKS","Address":"2574 N Campbell Ave","City":"Tucson","State":"AZ","Zip":"85719"},{"Location":"FRED G ACOSTA JOB COR 2","Address":"901 S Campbell Ave","City":"Tucson","State":"AZ","Zip":"85719"},{"Location":"FRED G ACOSTA JOB CORP 3","Address":"901 S Campbell Ave","City":"Tucson","State":"AZ","Zip":"85719"},{"Location":"FRED G. ACOSTA JOB COR 1","Address":"901 S Campbell Ave","City":"Tucson","State":"AZ","Zip":"85719"},{"Location":"FROG AND FIRKIN","Address":"874 E University Blvd","City":"Tucson","State":"AZ","Zip":"85719"},{"Location":"GAMMA ZETA BLDG ASSOC","Address":"1435 E 2nd St","City":"Tucson","State":"AZ","Zip":"85719"},{"Location":"GHINIS FRENCH CAFE","Address":"1803 E. Prince Rd","City":"Tucson","State":"AZ","Zip":"85719"},{"Location":"GOODYEAR 8261","Address":"3225 N Campbell Ave","City":"Tucson","State":"AZ","Zip":"85719"},{"Location":"GUADALAJARA RESTURANT","Address":"1220 E Prince Rd","City":"Tucson","State":"AZ","Zip":"85719"},{"Location":"GUGLIELMO & ASSOC","Address":"3040 N Campbell Ave 100","City":"Tucson","State":"AZ","Zip":"85719"},{"Location":"HEALTH HEART AND FITNESS","Address":"3681 N Campbell Ave","City":"Tucson","State":"AZ","Zip":"85719"},{"Location":"HEDRICK HOUSE","Address":"1632 E Hedrick Dr","City":"Tucson","State":"AZ","Zip":"85719"},{"Location":"IN BALANCE TRANSITIONAL LIVING","Address":"2644 N Martin Ave","City":"Tucson","State":"AZ","Zip":"85719"},{"Location":"IN BALANCE TRANSITIONAL LIVING","Address":"2646 N Martin Ave","City":"Tucson","State":"AZ","Zip":"85719"},{"Location":"KAPPA SIGMA","Address":"1423 E 1st St","City":"Tucson","State":"AZ","Zip":"85719"},{"Location":"LA FITNESS #129","Address":"4240 N 1st Ave","City":"Tucson","State":"AZ","Zip":"85719"},{"Location":"MAMAS HAWAIAN BBQ","Address":"850 E Speedway Blvd","City":"Tucson","State":"AZ","Zip":"85719"},{"Location":"NEXTCARE ARIZONA  LLC","Address":"501 N Park Ave 110","City":"Tucson","State":"AZ","Zip":"85719"},{"Location":"NO ANCHOVIES","Address":"870 E University Blvd","City":"Tucson","State":"AZ","Zip":"85719"},{"Location":"OLD CHICAGO #39","Address":"2960 N Campbell Ave","City":"Tucson","State":"AZ","Zip":"85719"},{"Location":"OYVEY CAFE","Address":"1245 E 2nd St","City":"Tucson","State":"AZ","Zip":"85719"},{"Location":"PHI DELTA THETA","Address":"1745 E 2nd St","City":"Tucson","State":"AZ","Zip":"85719"},{"Location":"PIONIC PIZZA","Address":"2643 N Campbell Ave 101","City":"Tucson","State":"AZ","Zip":"85719"},{"Location":"PIZZA HUT OF ARIZONA","Address":"2943 N Campbell Ave","City":"Tucson","State":"AZ","Zip":"85719"},{"Location":"PLANETARY SCIENCE INST","Address":"1650 E Fort Lowell Rd","City":"Tucson","State":"AZ","Zip":"85719"},{"Location":"QUALITY THIN SECTIONS","Address":"940 S Warren Ave 163","City":"Tucson","State":"AZ","Zip":"85719"},{"Location":"SAFEWAY 1684","Address":"1940 E Broadway Blvd","City":"Tucson","State":"AZ","Zip":"85719"},{"Location":"SAHUARO DENTAL LAB LLC","Address":"3250 N Campbell Ave 144","City":"Tucson","State":"AZ","Zip":"85719"},{"Location":"SALPOINTE CATHOLIC HIGH SCHOOL","Address":"1545 E Copper St","City":"Tucson","State":"AZ","Zip":"85719"},{"Location":"SCHRIERS SPORTS GRILL","Address":"1118 E 6th St","City":"Tucson","State":"AZ","Zip":"85719"},{"Location":"SHAMROCK FOODS","Address":"1922 E 18th St","City":"Tucson","State":"AZ","Zip":"85719"},{"Location":"SIGMA CHI BLDG COMPANY","Address":"1511 E 1st St","City":"Tucson","State":"AZ","Zip":"85719"},{"Location":"SILVER ROOM","Address":"673 South Plumber","City":"Tucson","State":"AZ","Zip":"85719"},{"Location":"SOCIAL HOUSE","Address":"446 N Campbell Ave 255","City":"Tucson","State":"AZ","Zip":"85719"},{"Location":"ST PHILIP'S CORNER","Address":"3993 N Campbell Ave","City":"Tucson","State":"AZ","Zip":"85719"},{"Location":"SUBWAY","Address":"1927 E Speedway Blvd 111","City":"Tucson","State":"AZ","Zip":"85719"},{"Location":"SULTAN LLC","Address":"3699 N Campbell Ave","City":"Tucson","State":"AZ","Zip":"85719"},{"Location":"THE AULD DUBLINER","Address":"800 E University Blvd","City":"Tucson","State":"AZ","Zip":"85719"},{"Location":"THROWBACKS SPORTS BAR","Address":"3620 N 1st Ave","City":"Tucson","State":"AZ","Zip":"85719"},{"Location":"TRIDENT SALOON","Address":"2033 E Speedway Blvd 101","City":"Tucson","State":"AZ","Zip":"85719"},{"Location":"U OF A JOURNALISM","Address":"845 N Park Ave","City":"Tucson","State":"AZ","Zip":"85719"},{"Location":"U OF A ORTHOPEDIC SURGER","Address":"1609 N Warren Ave 127","City":"Tucson","State":"AZ","Zip":"85719"},{"Location":"UNIV. OF AZ-CAMPUS REC 1","Address":"1400 E 6th St","City":"Tucson","State":"AZ","Zip":"85719"},{"Location":"UNIV. OF AZ-CAMPUS REC 2","Address":"1400 E 6th St","City":"Tucson","State":"AZ","Zip":"85719"},{"Location":"UNIVERSITY OF ARIZONA","Address":"615 N Park Ave","City":"Tucson","State":"AZ","Zip":"85719"},{"Location":"UNIVERSITY OF ARIZONA RES LIFE","Address":"1801 E 1st St","City":"Tucson","State":"AZ","Zip":"85719"},{"Location":"UNIVERSITY OF AZ BOOKSTORE","Address":"1303 E University Blvd","City":"Tucson","State":"AZ","Zip":"85719"},{"Location":"UNIVERSTIY OF ARIZONA INTERNAT","Address":"915 N Tyndall Ave","City":"Tucson","State":"AZ","Zip":"85719"},{"Location":"VISION QUEST 7TH STREET","Address":"931 E 7th St","City":"Tucson","State":"AZ","Zip":"85719"},{"Location":"VISIONQUEST 2","Address":"1304 E Copper St","City":"Tucson","State":"AZ","Zip":"85719"},{"Location":"VIVAS BAR & GRILL","Address":"1929 E Grant Rd","City":"Tucson","State":"AZ","Zip":"85719"},{"Location":"WILD GARLIC GRILL","Address":"2530 N 1st Ave","City":"Tucson","State":"AZ","Zip":"85719"},{"Location":"WINGSTOP #973","Address":"3122 N Campbell Ave 130","City":"Tucson","State":"AZ","Zip":"85719"}]