[{"Location":"ADRIANS BARBER SHOP","Address":"1716 W Ajo Way","City":"Tucson","State":"AZ","Zip":"85713"},{"Location":"ANHEUSER-BUSCH WHLSLR #20285","Address":"705 E Ajo Way","City":"Tucson","State":"AZ","Zip":"85713"},{"Location":"AZTECA INK","Address":"2113 S 6th Ave","City":"Tucson","State":"AZ","Zip":"85713"},{"Location":"BAMBOO TERRACE RESTAURANT","Address":"1754 W Ajo Way","City":"Tucson","State":"AZ","Zip":"85713"},{"Location":"BULLETS BARBERSHOP","Address":"2628 E 22nd St","City":"Tucson","State":"AZ","Zip":"85713"},{"Location":"CUTTING EDGE REFINISHING","Address":"2626 S 4th Ave","City":"Tucson","State":"AZ","Zip":"85713"},{"Location":"EVA P. GIBLIN","Address":"3504 S 6th Ave 110","City":"Tucson","State":"AZ","Zip":"85713"},{"Location":"FMC 61800000","Address":"2802 S 6th Ave","City":"Tucson","State":"AZ","Zip":"85713"},{"Location":"GOODYEAR 8262","Address":"719 W Ajo Way","City":"Tucson","State":"AZ","Zip":"85713"},{"Location":"HERCULES INDUSTRIES","Address":"3195 E 36th St","City":"Tucson","State":"AZ","Zip":"85713"},{"Location":"JONATHAN SCOTT LEWIS","Address":"3838 E 38th St","City":"Tucson","State":"AZ","Zip":"85713"},{"Location":"KINO SPORTS COMPLEX","Address":"2500 E Ajo Way","City":"Tucson","State":"AZ","Zip":"85713"},{"Location":"KOLSRUD FAST FOOD","Address":"3070 S Campbell Ave","City":"Tucson","State":"AZ","Zip":"85713"},{"Location":"KOOL SMILES 503","Address":"2990 S 6th Ave","City":"Tucson","State":"AZ","Zip":"85713"},{"Location":"LA CURACAO1","Address":"3390 S 6th Ave","City":"Tucson","State":"AZ","Zip":"85713"},{"Location":"LATIN AMERICAN SOCIAL","Address":"437 E 26th St","City":"Tucson","State":"AZ","Zip":"85713"},{"Location":"LOS BETOS MEXICAN FOOD","Address":"3640 S 6th Ave","City":"Tucson","State":"AZ","Zip":"85713"},{"Location":"LOS PORTALES RESTAURANT","Address":"2615 S 6th Ave","City":"Tucson","State":"AZ","Zip":"85713"},{"Location":"LUCKY M MARKET","Address":"1353 S 4th Ave","City":"Tucson","State":"AZ","Zip":"85713"},{"Location":"MARTINEZ FUNERAL CHAPELS","Address":"2580 S 6th Ave","City":"Tucson","State":"AZ","Zip":"85713"},{"Location":"MCDONALDS","Address":"1795 W Ajo Way","City":"Tucson","State":"AZ","Zip":"85713"},{"Location":"MCDONALDS #1034","Address":"3310 E 22nd St","City":"Tucson","State":"AZ","Zip":"85713"},{"Location":"MI NI DITO","Address":"1813 S 4th Ave","City":"Tucson","State":"AZ","Zip":"85713"},{"Location":"MOONLIGHT NAIL","Address":"3740 S 16th Ave","City":"Tucson","State":"AZ","Zip":"85713"},{"Location":"NAILS AQUI","Address":"1718 W Ajo Way","City":"Tucson","State":"AZ","Zip":"85713"},{"Location":"NIMBUS BREWING CO","Address":"3850 E 44th St 138","City":"Tucson","State":"AZ","Zip":"85713"},{"Location":"OFFICE OF JOHN DELAPLANE","Address":"3831 E 40th St","City":"Tucson","State":"AZ","Zip":"85713"},{"Location":"PIMA COUNTY SHERIFF","Address":"1250 W Silverlake Rd","City":"Tucson","State":"AZ","Zip":"85713"},{"Location":"PIMA FEDERAL CREDIT UNION","Address":"1177 W Silverlake Rd","City":"Tucson","State":"AZ","Zip":"85713"},{"Location":"PREMIER BUILDING GROUP","Address":"3193 E 44th St","City":"Tucson","State":"AZ","Zip":"85713"},{"Location":"PURCELL TIRE COMPANY INC","Address":"1515 E Ajo Way","City":"Tucson","State":"AZ","Zip":"85713"},{"Location":"RED IRON","Address":"3255 E 36th St","City":"Tucson","State":"AZ","Zip":"85713"},{"Location":"ROOFING SUPPLY GROUP TUC","Address":"3655 E Refinery Way","City":"Tucson","State":"AZ","Zip":"85713"},{"Location":"RUSH TRUCK CENTER","Address":"755 E 44th St","City":"Tucson","State":"AZ","Zip":"85713"},{"Location":"SERVICE MANS CLUB","Address":"2308 S Park Ave","City":"Tucson","State":"AZ","Zip":"85713"},{"Location":"SIMMONS ENTERPRISES INC.","Address":"3743 S Country Club Rd","City":"Tucson","State":"AZ","Zip":"85713"},{"Location":"SPORT CLIPS AZ205","Address":"1065 E Tucson Marketplace Blv 107","City":"Tucson","State":"AZ","Zip":"85713"},{"Location":"SUPERIORS CLEANERS","Address":"1712 W Ajo Way","City":"Tucson","State":"AZ","Zip":"85713"},{"Location":"THE HIDE OUT BAR AND GRILL","Address":"3000 S Mission Rd","City":"Tucson","State":"AZ","Zip":"85713"},{"Location":"THE WOODEN NICKEL TAVERN","Address":"1908 S Country Club Rd","City":"Tucson","State":"AZ","Zip":"85713"},{"Location":"THRIFTY WASH","Address":"3063 S Kinney Rd","City":"Tucson","State":"AZ","Zip":"85713"},{"Location":"TRIPLE PANE SYSTEM","Address":"3825 E 37th St","City":"Tucson","State":"AZ","Zip":"85713"},{"Location":"TUCSON DETACHMENT MARINE","Address":"216 E 29th St","City":"Tucson","State":"AZ","Zip":"85713"},{"Location":"TUCSON URBAN LEAGUE","Address":"2305 S Park Ave","City":"Tucson","State":"AZ","Zip":"85713"},{"Location":"TUSCON CLINIC MEDICAL CENTER","Address":"3770 S 16th Ave","City":"Tucson","State":"AZ","Zip":"85713"},{"Location":"UPH KINO HOSPITAL","Address":"2800 E Ajo Way","City":"Tucson","State":"AZ","Zip":"85713"},{"Location":"UPH SPORT MEDICINE","Address":"2800 E Ajo Way 200","City":"Tucson","State":"AZ","Zip":"85713"},{"Location":"US BORDER PATROL","Address":"1970 W Ajo Way 8","City":"Tucson","State":"AZ","Zip":"85713"},{"Location":"VALENCIA FOOD SERVICES LLC","Address":"3485 E Ajo Way","City":"Tucson","State":"AZ","Zip":"85713"},{"Location":"VANGUARD TRUCK CENTER","Address":"1111 E Benson Hwy","City":"Tucson","State":"AZ","Zip":"85713"},{"Location":"WESCO DISTRIBUTION","Address":"1665 E 22nd St","City":"Tucson","State":"AZ","Zip":"85713"},{"Location":"MCDONALDS","Address":"1059 E Tuscon Marketplace Blvd","City":"Tuscon","State":"AZ","Zip":"85713"}]