[{"Location":"5 PALMS","Address":"3500 E Sunrise Dr","City":"Tucson","State":"AZ","Zip":"85718"},{"Location":"ANTHONYS CIGAR EMPORIUM","Address":"4419 N Campbell Ave","City":"Tucson","State":"AZ","Zip":"85718"},{"Location":"ANYTIME FITNESS","Address":"4784 E Sunrise Dr","City":"Tucson","State":"AZ","Zip":"85718"},{"Location":"APOLLO DESIGNS LLC 1","Address":"3573 E Sunrise Dr","City":"Tucson","State":"AZ","Zip":"85718"},{"Location":"ARMITAGE WINE LOUNGE","Address":"2905 E Skyline Dr 168","City":"Tucson","State":"AZ","Zip":"85718"},{"Location":"BANK OF AMERICA AZ5-501-02-01","Address":"6401 - 02 N Campbell Ave","City":"Tucson","State":"AZ","Zip":"85718"},{"Location":"BBVA SKYLINE & CAMPBELL","Address":"2825 E Skyline Dr","City":"Tucson","State":"AZ","Zip":"85718"},{"Location":"BGR FINANCIAL GROUP%2C LLC","Address":"3561 E Sunrise Dr 247","City":"Tucson","State":"AZ","Zip":"85718"},{"Location":"BRAKEMAX 1","Address":"4545 N 1st Ave","City":"Tucson","State":"AZ","Zip":"85718"},{"Location":"CAFE JASPER","Address":"6370 N Campbell Ave","City":"Tucson","State":"AZ","Zip":"85718"},{"Location":"CATALINA INVESTMENTS","Address":"1660 E River Rd 180","City":"Tucson","State":"AZ","Zip":"85718"},{"Location":"CULVERS OF TUSCON","Address":"4810 N 1st Ave","City":"Tucson","State":"AZ","Zip":"85718"},{"Location":"CYRACOM","Address":"5780 N Swan Rd","City":"Tucson","State":"AZ","Zip":"85718"},{"Location":"DENTAL MARKETING & MANAGEMENT","Address":"942 E Gibbon River Way","City":"Tucson","State":"AZ","Zip":"85718"},{"Location":"DURHAM SCHOOL SERVICES","Address":"4510 N Camino Escuela","City":"Tucson","State":"AZ","Zip":"85718"},{"Location":"E DENTAL SOLUTIONS","Address":"2504 E River Rd","City":"Tucson","State":"AZ","Zip":"85718"},{"Location":"EL CORRAL  STEAKHOUSE","Address":"2201 E River Rd","City":"Tucson","State":"AZ","Zip":"85718"},{"Location":"FINIS LANDING","Address":"5689 N Swan Rd","City":"Tucson","State":"AZ","Zip":"85718"},{"Location":"FLEMING'S #1350","Address":"6360 N Campbell Ave","City":"Tucson","State":"AZ","Zip":"85718"},{"Location":"FLETCHERS TIRES AND AUTO","Address":"4800 E Sunrise Dr","City":"Tucson","State":"AZ","Zip":"85718"},{"Location":"FROST GELATO","Address":"2905 E Skyline Dr 286","City":"Tucson","State":"AZ","Zip":"85718"},{"Location":"GOLDEN DRAGON REST LLC","Address":"4704 E Sunrise Dr","City":"Tucson","State":"AZ","Zip":"85718"},{"Location":"GOLDSTEIN & SCOPELLITE PC","Address":"1980 E River Rd 100","City":"Tucson","State":"AZ","Zip":"85718"},{"Location":"HILTON WORLDWIDE TUCSON PALOMA","Address":"3110 E Skyline Dr","City":"Tucson","State":"AZ","Zip":"85718"},{"Location":"JANET ALTSHCULER PC","Address":"4711 N 1st Ave","City":"Tucson","State":"AZ","Zip":"85718"},{"Location":"JEFF BREI  P.C.","Address":"4574 N 1st Ave","City":"Tucson","State":"AZ","Zip":"85718"},{"Location":"MCB FINANCE","Address":"3576 E Sunrise Dr","City":"Tucson","State":"AZ","Zip":"85718"},{"Location":"MORGAN STANLEY 100257","Address":"2840 E Skyline Dr 200","City":"Tucson","State":"AZ","Zip":"85718"},{"Location":"NORTHERN TRUST  NA","Address":"3450 E Sunrise Dr 100","City":"Tucson","State":"AZ","Zip":"85718"},{"Location":"NOVA HOME LOANS","Address":"1650 E River Rd","City":"Tucson","State":"AZ","Zip":"85718"},{"Location":"NOVA IAN BRANNON","Address":"1650 E River Rd 104","City":"Tucson","State":"AZ","Zip":"85718"},{"Location":"RA SUSHI #3005","Address":"2905 E Skyline Dr 289","City":"Tucson","State":"AZ","Zip":"85718"},{"Location":"SAFEWAY STORE 250","Address":"4752 E Sunrise Dr","City":"Tucson","State":"AZ","Zip":"85718"},{"Location":"SD MILANO INC","Address":"7648 N Viale Di Buona Fortuna","City":"Tucson","State":"AZ","Zip":"85718"},{"Location":"SKYLINE COUNTRY CLUB","Address":"6500 N Swan Rd","City":"Tucson","State":"AZ","Zip":"85718"},{"Location":"UBS FINANCIAL SERVICES","Address":"1725 E Skyline Dr 101","City":"Tucson","State":"AZ","Zip":"85718"},{"Location":"UNION LLC","Address":"4340 N Campbell Ave 103","City":"Tucson","State":"AZ","Zip":"85718"},{"Location":"US FRIED TUCSON LP","Address":"4949 N Campbell Ave","City":"Tucson","State":"AZ","Zip":"85718"},{"Location":"VISION QUEST 3501","Address":"3501 E River Rd","City":"Tucson","State":"AZ","Zip":"85718"},{"Location":"VISION QUEST 3571","Address":"3571 E River Rd","City":"Tucson","State":"AZ","Zip":"85718"},{"Location":"VISION QUEST 5813 BELLEV","Address":"3501 E River Rd","City":"Tucson","State":"AZ","Zip":"85718"},{"Location":"WEALTH MANAGEMENT PARTNE","Address":"1980 E River Rd","City":"Tucson","State":"AZ","Zip":"85718"},{"Location":"WELLS FARGO","Address":"2195 E River Rd 105","City":"Tucson","State":"AZ","Zip":"85718"},{"Location":"WELLS FARGO ADVISORS","Address":"4051 E Sunrise Dr 200","City":"Tucson","State":"AZ","Zip":"85718"}]