[{"Location":"ANTHEM EQUITY GROUP","Address":"1600 N Kolb Rd 118","City":"Tucson","State":"AZ","Zip":"85715"},{"Location":"APRIA TUCSON","Address":"6375 E Tanque Verde Rd 50","City":"Tucson","State":"AZ","Zip":"85715"},{"Location":"COWPONY","Address":"6510 E Tanque Verde Rd","City":"Tucson","State":"AZ","Zip":"85715"},{"Location":"CRESCENT TOBACCO SHOP","Address":"7037 E Tanque Verde Rd","City":"Tucson","State":"AZ","Zip":"85715"},{"Location":"EDMUND OPTICS","Address":"6464 E Grant Rd 100","City":"Tucson","State":"AZ","Zip":"85715"},{"Location":"EL DORADO PROSTATE CENTE","Address":"1100 N El Dorado Pl","City":"Tucson","State":"AZ","Zip":"85715"},{"Location":"EL MOLINITO PANTANO","Address":"2323 N Pantano Rd","City":"Tucson","State":"AZ","Zip":"85715"},{"Location":"FIRKIN & FRIAR","Address":"6958 E Tanque Verde Rd","City":"Tucson","State":"AZ","Zip":"85715"},{"Location":"FROST GELATO TWO","Address":"7301 E Tanque Verde Rd","City":"Tucson","State":"AZ","Zip":"85715"},{"Location":"GOODYEAR 8266","Address":"2131 N Kolb Rd","City":"Tucson","State":"AZ","Zip":"85715"},{"Location":"HOOTERS TUCSON","Address":"6335 E Tanque Verde Rd","City":"Tucson","State":"AZ","Zip":"85715"},{"Location":"JERSEY MIKES 9024","Address":"6501 E Grant Rd 111","City":"Tucson","State":"AZ","Zip":"85715"},{"Location":"MERCEDES BENZ OF TUCSON","Address":"6350 E Grant Rd","City":"Tucson","State":"AZ","Zip":"85715"},{"Location":"MONSOON AUTOMOTIVE LLC","Address":"1170 N Pantano Rd","City":"Tucson","State":"AZ","Zip":"85715"},{"Location":"POCO AND MOMS 2","Address":"7000 E Tanque Verde Rd","City":"Tucson","State":"AZ","Zip":"85715"},{"Location":"PROVIDENCE SERVICE","Address":"1161 N El Dorado Pl 103","City":"Tucson","State":"AZ","Zip":"85715"},{"Location":"REAYS RANCH INVESTORS","Address":"2100 N Kolb Rd","City":"Tucson","State":"AZ","Zip":"85715"},{"Location":"RONALD D MERCALDO LTD","Address":"1853 N Kolb Rd","City":"Tucson","State":"AZ","Zip":"85715"},{"Location":"SADDLEHORN SALOON","Address":"6300 E Tanque Verde Rd","City":"Tucson","State":"AZ","Zip":"85715"},{"Location":"SAKURA TEPPAN STEAK & SEAFOOD","Address":"6534 E Tanque Verde Rd","City":"Tucson","State":"AZ","Zip":"85715"},{"Location":"SIEGLER ENTERPRISES","Address":"6761 E Tanque Verde Rd 2","City":"Tucson","State":"AZ","Zip":"85715"},{"Location":"SPORT CLIPS AZ207","Address":"6501 E Grant Rd 131","City":"Tucson","State":"AZ","Zip":"85715"},{"Location":"TARGET TUCSON NE","Address":"6500 E Grant Rd","City":"Tucson","State":"AZ","Zip":"85715"},{"Location":"THE HOG PIT SMOKE HOUSE","Address":"6910 E Tanque Verde Rd","City":"Tucson","State":"AZ","Zip":"85715"},{"Location":"THIRSTY NEIGHBORHOOD","Address":"2422 N Pantano Rd","City":"Tucson","State":"AZ","Zip":"85715"},{"Location":"TITLE SECURITY AGENCY","Address":"6390 E Tanque Verde Rd","City":"Tucson","State":"AZ","Zip":"85715"},{"Location":"TITLE SECURITY OF ARIZONA","Address":"6390 E Tanque Verde Rd","City":"Tucson","State":"AZ","Zip":"85715"},{"Location":"TUCSON COUNTRY CLUB","Address":"2950 N Camino Principal","City":"Tucson","State":"AZ","Zip":"85715"},{"Location":"TUCSON COUNTRY CLUB GCM","Address":"2950 N Camino Principal Gcm","City":"Tucson","State":"AZ","Zip":"85715"},{"Location":"TUTTLE CLICK AUTOMOTIVE GROUP","Address":"6725 E Camino Principal","City":"Tucson","State":"AZ","Zip":"85715"},{"Location":"ANTHEM EQUITY GROUP","Address":"1600 N Kolb Rd 118","City":"Tucson","State":"AZ","Zip":"85715"},{"Location":"APRIA TUCSON","Address":"6375 E Tanque Verde Rd 50","City":"Tucson","State":"AZ","Zip":"85715"},{"Location":"COWPONY","Address":"6510 E Tanque Verde Rd","City":"Tucson","State":"AZ","Zip":"85715"},{"Location":"CRESCENT TOBACCO SHOP","Address":"7037 E Tanque Verde Rd","City":"Tucson","State":"AZ","Zip":"85715"},{"Location":"EDMUND OPTICS","Address":"6464 E Grant Rd 100","City":"Tucson","State":"AZ","Zip":"85715"},{"Location":"EL DORADO PROSTATE CENTE","Address":"1100 N El Dorado Pl","City":"Tucson","State":"AZ","Zip":"85715"},{"Location":"EL MOLINITO PANTANO","Address":"2323 N Pantano Rd","City":"Tucson","State":"AZ","Zip":"85715"},{"Location":"FIRKIN & FRIAR","Address":"6958 E Tanque Verde Rd","City":"Tucson","State":"AZ","Zip":"85715"},{"Location":"FROST GELATO TWO","Address":"7301 E Tanque Verde Rd","City":"Tucson","State":"AZ","Zip":"85715"},{"Location":"GOODYEAR 8266","Address":"2131 N Kolb Rd","City":"Tucson","State":"AZ","Zip":"85715"},{"Location":"HOOTERS TUCSON","Address":"6335 E Tanque Verde Rd","City":"Tucson","State":"AZ","Zip":"85715"},{"Location":"JERSEY MIKES 9024","Address":"6501 E Grant Rd 111","City":"Tucson","State":"AZ","Zip":"85715"},{"Location":"MERCEDES BENZ OF TUCSON","Address":"6350 E Grant Rd","City":"Tucson","State":"AZ","Zip":"85715"},{"Location":"MONSOON AUTOMOTIVE LLC","Address":"1170 N Pantano Rd","City":"Tucson","State":"AZ","Zip":"85715"},{"Location":"POCO AND MOMS 2","Address":"7000 E Tanque Verde Rd","City":"Tucson","State":"AZ","Zip":"85715"},{"Location":"PROVIDENCE SERVICE","Address":"1161 N El Dorado Pl 103","City":"Tucson","State":"AZ","Zip":"85715"},{"Location":"REAYS RANCH INVESTORS","Address":"2100 N Kolb Rd","City":"Tucson","State":"AZ","Zip":"85715"},{"Location":"RONALD D MERCALDO LTD","Address":"1853 N Kolb Rd","City":"Tucson","State":"AZ","Zip":"85715"},{"Location":"SADDLEHORN SALOON","Address":"6300 E Tanque Verde Rd","City":"Tucson","State":"AZ","Zip":"85715"},{"Location":"SAKURA TEPPAN STEAK & SEAFOOD","Address":"6534 E Tanque Verde Rd","City":"Tucson","State":"AZ","Zip":"85715"},{"Location":"SIEGLER ENTERPRISES","Address":"6761 E Tanque Verde Rd 2","City":"Tucson","State":"AZ","Zip":"85715"},{"Location":"SPORT CLIPS AZ207","Address":"6501 E Grant Rd 131","City":"Tucson","State":"AZ","Zip":"85715"},{"Location":"TARGET TUCSON NE","Address":"6500 E Grant Rd","City":"Tucson","State":"AZ","Zip":"85715"},{"Location":"THE HOG PIT SMOKE HOUSE","Address":"6910 E Tanque Verde Rd","City":"Tucson","State":"AZ","Zip":"85715"},{"Location":"THIRSTY NEIGHBORHOOD","Address":"2422 N Pantano Rd","City":"Tucson","State":"AZ","Zip":"85715"},{"Location":"TITLE SECURITY AGENCY","Address":"6390 E Tanque Verde Rd","City":"Tucson","State":"AZ","Zip":"85715"},{"Location":"TITLE SECURITY OF ARIZONA","Address":"6390 E Tanque Verde Rd","City":"Tucson","State":"AZ","Zip":"85715"},{"Location":"TUCSON COUNTRY CLUB","Address":"2950 N Camino Principal","City":"Tucson","State":"AZ","Zip":"85715"},{"Location":"TUCSON COUNTRY CLUB GCM","Address":"2950 N Camino Principal Gcm","City":"Tucson","State":"AZ","Zip":"85715"},{"Location":"TUTTLE CLICK AUTOMOTIVE GROUP","Address":"6725 E Camino Principal","City":"Tucson","State":"AZ","Zip":"85715"}]