[{"Location":"OPTIMUM CONCRETE","Address":"3731 E Hardy Tucson","City":"Az","State":"AZ","Zip":"85716"},{"Location":"1ST CHOICE TAX SVC INC","Address":"2101 N Country Club Rd 105","City":"Tucson","State":"AZ","Zip":"85716"},{"Location":"AMADORI TASTE OF CHICAGO","Address":"2645 E Speedway Blvd","City":"Tucson","State":"AZ","Zip":"85716"},{"Location":"BAY HORSE TAVERN","Address":"2802 E Grant Rd","City":"Tucson","State":"AZ","Zip":"85716"},{"Location":"BOB DOBBS BAR & GRILL","Address":"2501 E 6th St","City":"Tucson","State":"AZ","Zip":"85716"},{"Location":"CAPITAL ALARM","Address":"2900 E Broadway Blvd 113","City":"Tucson","State":"AZ","Zip":"85716"},{"Location":"CHEDDARS TUCSON","Address":"3450 E Broadway Blvd","City":"Tucson","State":"AZ","Zip":"85716"},{"Location":"CLAIM JUMPER #35","Address":"3761 E Broadway Blvd","City":"Tucson","State":"AZ","Zip":"85716"},{"Location":"CLASSIC CAR SPA GRANT","Address":"2505 E Grant Rd","City":"Tucson","State":"AZ","Zip":"85716"},{"Location":"DANNYS LOUNGE","Address":"2910 E Fort Lowell Rd","City":"Tucson","State":"AZ","Zip":"85716"},{"Location":"DANTES FIRE","Address":"2526 E Grant Rd","City":"Tucson","State":"AZ","Zip":"85716"},{"Location":"DON MACKEY MANAGEMENT","Address":"2766 N Country Club Rd","City":"Tucson","State":"AZ","Zip":"85716"},{"Location":"DS ISLAND GRILL J A","Address":"3156 E Fort Lowell Rd","City":"Tucson","State":"AZ","Zip":"85716"},{"Location":"EDEN CABARETAND CAFE","Address":"3650 E Speedway Blvd","City":"Tucson","State":"AZ","Zip":"85716"},{"Location":"FIRESTONE #029629","Address":"3501 E Broadway Blvd","City":"Tucson","State":"AZ","Zip":"85716"},{"Location":"FORT LOWELL DEPOT","Address":"3501 E Fort Lowell Rd","City":"Tucson","State":"AZ","Zip":"85716"},{"Location":"GENERAL DENTISTRY FOR KI","Address":"21202 N Country Club Rd A","City":"Tucson","State":"AZ","Zip":"85716"},{"Location":"GENTLEMENS CHOICE BARBER SHOP","Address":"2528 E 6th St","City":"Tucson","State":"AZ","Zip":"85716"},{"Location":"HIEND TIGHT BARBER SUPPLY","Address":"2926 E Broadway Blvd","City":"Tucson","State":"AZ","Zip":"85716"},{"Location":"IMAGINATION CHILDCARE","Address":"3738 E Grant Rd","City":"Tucson","State":"AZ","Zip":"85716"},{"Location":"JP INDUSTRIES INC","Address":"2851 N Country Club Rd","City":"Tucson","State":"AZ","Zip":"85716"},{"Location":"LETTUCE TURNIPS BEETS LL","Address":"2945 E Speedway Blvd","City":"Tucson","State":"AZ","Zip":"85716"},{"Location":"LONG BRANCH SALOON","Address":"3686 E Speedway Blvd","City":"Tucson","State":"AZ","Zip":"85716"},{"Location":"MINERALS INC","Address":"3401 N Dodge Blvd","City":"Tucson","State":"AZ","Zip":"85716"},{"Location":"NATIVE NEW YORKER","Address":"3100 E Speedway Blvd","City":"Tucson","State":"AZ","Zip":"85716"},{"Location":"PJ SUBS T6 FILLING STATION","Address":"2500 E 6th St","City":"Tucson","State":"AZ","Zip":"85716"},{"Location":"R PLACE BAR AND GRILL","Address":"3412 N Dodge Blvd","City":"Tucson","State":"AZ","Zip":"85716"},{"Location":"RED GARTER SALOON","Address":"3143 E Speedway Blvd","City":"Tucson","State":"AZ","Zip":"85716"},{"Location":"RESTAURANTE 5 DE MAYO","Address":"3535 E Fort Lowell Rd","City":"Tucson","State":"AZ","Zip":"85716"},{"Location":"RICH NAILS","Address":"3140 E Fort Lowell Rd","City":"Tucson","State":"AZ","Zip":"85716"},{"Location":"SABBAR SHRINERS","Address":"450 S Tucson Blvd","City":"Tucson","State":"AZ","Zip":"85716"},{"Location":"SOUTHERN AZ ASSOC FOR VISUALLY","Address":"3767 E Grant Rd","City":"Tucson","State":"AZ","Zip":"85716"},{"Location":"SUSHI GARDEN","Address":"3048 E Broadway Blvd","City":"Tucson","State":"AZ","Zip":"85716"},{"Location":"TARGET 1439","Address":"3699 E Broadway Blvd","City":"Tucson","State":"AZ","Zip":"85716"},{"Location":"THE ART CENTER DESIGN COLLEGE","Address":"2525 N Country Club Rd","City":"Tucson","State":"AZ","Zip":"85716"},{"Location":"THE VILLAGE SALON","Address":"120 S Country Club Rd","City":"Tucson","State":"AZ","Zip":"85716"},{"Location":"TORKS CAFE","Address":"3502 E Grant Rd","City":"Tucson","State":"AZ","Zip":"85716"},{"Location":"TUCSON FEDERAL CREDIT UNION","Address":"1160 N Winstel Blvd","City":"Tucson","State":"AZ","Zip":"85716"},{"Location":"TUCSON METROPOLITAN FOP INC","Address":"3445 N Dodge Blvd","City":"Tucson","State":"AZ","Zip":"85716"},{"Location":"VANTE","Address":"100 N Tucson Blvd","City":"Tucson","State":"AZ","Zip":"85716"},{"Location":"VISION QUEST 1416","Address":"1416 N Richey Blvd","City":"Tucson","State":"AZ","Zip":"85716"},{"Location":"VISION QUEST 3249","Address":"3249 N Palo Verde Ave","City":"Tucson","State":"AZ","Zip":"85716"},{"Location":"VISION QUEST 3617","Address":"3617 E Monte Vista Dr","City":"Tucson","State":"AZ","Zip":"85716"},{"Location":"VISION QUEST 3619","Address":"3619 E Monte Vista Dr","City":"Tucson","State":"AZ","Zip":"85716"},{"Location":"VISION QUEST 620 PALO VE","Address":"620 N Palo Verde Blvd","City":"Tucson","State":"AZ","Zip":"85716"},{"Location":"WHOLE FOODS","Address":"3360 E Speedway Blvd","City":"Tucson","State":"AZ","Zip":"85716"},{"Location":"OPTIMUM CONCRETE","Address":"3731 E Hardy Tucson","City":"Az","State":"AZ","Zip":"85716"},{"Location":"1ST CHOICE TAX SVC INC","Address":"2101 N Country Club Rd 105","City":"Tucson","State":"AZ","Zip":"85716"},{"Location":"AMADORI TASTE OF CHICAGO","Address":"2645 E Speedway Blvd","City":"Tucson","State":"AZ","Zip":"85716"},{"Location":"BAY HORSE TAVERN","Address":"2802 E Grant Rd","City":"Tucson","State":"AZ","Zip":"85716"},{"Location":"BOB DOBBS BAR & GRILL","Address":"2501 E 6th St","City":"Tucson","State":"AZ","Zip":"85716"},{"Location":"CAPITAL ALARM","Address":"2900 E Broadway Blvd 113","City":"Tucson","State":"AZ","Zip":"85716"},{"Location":"CHEDDARS TUCSON","Address":"3450 E Broadway Blvd","City":"Tucson","State":"AZ","Zip":"85716"},{"Location":"CLAIM JUMPER #35","Address":"3761 E Broadway Blvd","City":"Tucson","State":"AZ","Zip":"85716"},{"Location":"CLASSIC CAR SPA GRANT","Address":"2505 E Grant Rd","City":"Tucson","State":"AZ","Zip":"85716"},{"Location":"DANNYS LOUNGE","Address":"2910 E Fort Lowell Rd","City":"Tucson","State":"AZ","Zip":"85716"},{"Location":"DANTES FIRE","Address":"2526 E Grant Rd","City":"Tucson","State":"AZ","Zip":"85716"},{"Location":"DON MACKEY MANAGEMENT","Address":"2766 N Country Club Rd","City":"Tucson","State":"AZ","Zip":"85716"},{"Location":"DS ISLAND GRILL J A","Address":"3156 E Fort Lowell Rd","City":"Tucson","State":"AZ","Zip":"85716"},{"Location":"EDEN CABARETAND CAFE","Address":"3650 E Speedway Blvd","City":"Tucson","State":"AZ","Zip":"85716"},{"Location":"FIRESTONE #029629","Address":"3501 E Broadway Blvd","City":"Tucson","State":"AZ","Zip":"85716"},{"Location":"FORT LOWELL DEPOT","Address":"3501 E Fort Lowell Rd","City":"Tucson","State":"AZ","Zip":"85716"},{"Location":"GENERAL DENTISTRY FOR KI","Address":"21202 N Country Club Rd A","City":"Tucson","State":"AZ","Zip":"85716"},{"Location":"GENTLEMENS CHOICE BARBER SHOP","Address":"2528 E 6th St","City":"Tucson","State":"AZ","Zip":"85716"},{"Location":"HIEND TIGHT BARBER SUPPLY","Address":"2926 E Broadway Blvd","City":"Tucson","State":"AZ","Zip":"85716"},{"Location":"IMAGINATION CHILDCARE","Address":"3738 E Grant Rd","City":"Tucson","State":"AZ","Zip":"85716"},{"Location":"JP INDUSTRIES INC","Address":"2851 N Country Club Rd","City":"Tucson","State":"AZ","Zip":"85716"},{"Location":"LETTUCE TURNIPS BEETS LL","Address":"2945 E Speedway Blvd","City":"Tucson","State":"AZ","Zip":"85716"},{"Location":"LONG BRANCH SALOON","Address":"3686 E Speedway Blvd","City":"Tucson","State":"AZ","Zip":"85716"},{"Location":"MINERALS INC","Address":"3401 N Dodge Blvd","City":"Tucson","State":"AZ","Zip":"85716"},{"Location":"NATIVE NEW YORKER","Address":"3100 E Speedway Blvd","City":"Tucson","State":"AZ","Zip":"85716"},{"Location":"PJ SUBS T6 FILLING STATION","Address":"2500 E 6th St","City":"Tucson","State":"AZ","Zip":"85716"},{"Location":"R PLACE BAR AND GRILL","Address":"3412 N Dodge Blvd","City":"Tucson","State":"AZ","Zip":"85716"},{"Location":"RED GARTER SALOON","Address":"3143 E Speedway Blvd","City":"Tucson","State":"AZ","Zip":"85716"},{"Location":"RESTAURANTE 5 DE MAYO","Address":"3535 E Fort Lowell Rd","City":"Tucson","State":"AZ","Zip":"85716"},{"Location":"RICH NAILS","Address":"3140 E Fort Lowell Rd","City":"Tucson","State":"AZ","Zip":"85716"},{"Location":"SABBAR SHRINERS","Address":"450 S Tucson Blvd","City":"Tucson","State":"AZ","Zip":"85716"},{"Location":"SOUTHERN AZ ASSOC FOR VISUALLY","Address":"3767 E Grant Rd","City":"Tucson","State":"AZ","Zip":"85716"},{"Location":"SUSHI GARDEN","Address":"3048 E Broadway Blvd","City":"Tucson","State":"AZ","Zip":"85716"},{"Location":"TARGET 1439","Address":"3699 E Broadway Blvd","City":"Tucson","State":"AZ","Zip":"85716"},{"Location":"THE ART CENTER DESIGN COLLEGE","Address":"2525 N Country Club Rd","City":"Tucson","State":"AZ","Zip":"85716"},{"Location":"THE VILLAGE SALON","Address":"120 S Country Club Rd","City":"Tucson","State":"AZ","Zip":"85716"},{"Location":"TORKS CAFE","Address":"3502 E Grant Rd","City":"Tucson","State":"AZ","Zip":"85716"},{"Location":"TUCSON FEDERAL CREDIT UNION","Address":"1160 N Winstel Blvd","City":"Tucson","State":"AZ","Zip":"85716"},{"Location":"TUCSON METROPOLITAN FOP INC","Address":"3445 N Dodge Blvd","City":"Tucson","State":"AZ","Zip":"85716"},{"Location":"VANTE","Address":"100 N Tucson Blvd","City":"Tucson","State":"AZ","Zip":"85716"},{"Location":"VISION QUEST 1416","Address":"1416 N Richey Blvd","City":"Tucson","State":"AZ","Zip":"85716"},{"Location":"VISION QUEST 3249","Address":"3249 N Palo Verde Ave","City":"Tucson","State":"AZ","Zip":"85716"},{"Location":"VISION QUEST 3617","Address":"3617 E Monte Vista Dr","City":"Tucson","State":"AZ","Zip":"85716"},{"Location":"VISION QUEST 3619","Address":"3619 E Monte Vista Dr","City":"Tucson","State":"AZ","Zip":"85716"},{"Location":"VISION QUEST 620 PALO VE","Address":"620 N Palo Verde Blvd","City":"Tucson","State":"AZ","Zip":"85716"},{"Location":"WHOLE FOODS","Address":"3360 E Speedway Blvd","City":"Tucson","State":"AZ","Zip":"85716"}]