[{"Location":"DISABILITY RESOURCE CENTER","Address":"1224 E Lowell St","City":"Tucson","State":"AZ","Zip":"85721"},{"Location":"THE UNIVERSITY OF ARIZONA","Address":"1201 E Speedway Blvd","City":"Tucson","State":"AZ","Zip":"85721"},{"Location":"UA VIDEO DEPARTMENT #1","Address":"1 Natl Championship 225","City":"Tucson","State":"AZ","Zip":"85721"},{"Location":"UNIV OF ARIZ VIDEO DEPT","Address":"1 Natl Championship Dr","City":"Tucson","State":"AZ","Zip":"85721"},{"Location":"UNIVERSITY OF ARIZONA","Address":"1610 N Vine Ave 106","City":"Tucson","State":"AZ","Zip":"85721"},{"Location":"DISABILITY RESOURCE CENTER","Address":"1224 E Lowell St","City":"Tucson","State":"AZ","Zip":"85721"},{"Location":"THE UNIVERSITY OF ARIZONA","Address":"1201 E Speedway Blvd","City":"Tucson","State":"AZ","Zip":"85721"},{"Location":"UA VIDEO DEPARTMENT #1","Address":"1 Natl Championship 225","City":"Tucson","State":"AZ","Zip":"85721"},{"Location":"UNIV OF ARIZ VIDEO DEPT","Address":"1 Natl Championship Dr","City":"Tucson","State":"AZ","Zip":"85721"},{"Location":"UNIVERSITY OF ARIZONA","Address":"1610 N Vine Ave 106","City":"Tucson","State":"AZ","Zip":"85721"}]