[{"Location":"ELK LODGE OF CATALINA","Address":"16045 N Oracle Rd","City":"Catalina","State":"AZ","Zip":"85739"},{"Location":"ALA BUZZ CAFE","Address":"12985 N Oracle Rd 165","City":"Tucson","State":"AZ","Zip":"85739"},{"Location":"BUBB'S GRUB","Address":"16010 N Oracle Rd","City":"Tucson","State":"AZ","Zip":"85739"},{"Location":"CROSSROADS COACHING AND","Address":"16730 N Forecastle Ave","City":"Tucson","State":"AZ","Zip":"85739"},{"Location":"FREEDOM SMOKE USA 6","Address":"16701 N Oracle Rd 171","City":"Tucson","State":"AZ","Zip":"85739"},{"Location":"LUPES","Address":"35530 N Highway 7779","City":"Tucson","State":"AZ","Zip":"85739"},{"Location":"OKVAL LLC","Address":"5000 E Via Estancia Miraval 12","City":"Tucson","State":"AZ","Zip":"85739"},{"Location":"PLAYER'S PUB","Address":"16024 N Oracle Rd","City":"Tucson","State":"AZ","Zip":"85739"},{"Location":"ROBERT LONGLEY LLC","Address":"63701 E Saddlebrooke Bvld  #d","City":"Tucson","State":"AZ","Zip":"85739"},{"Location":"SADDLEBROOK TENNIS CLUB","Address":"64335 E Saddlebrook Blvd","City":"Tucson","State":"AZ","Zip":"85739"},{"Location":"SADDLEBROOKE 2","Address":"38735 S Mountain View Blvd","City":"Tucson","State":"AZ","Zip":"85739"},{"Location":"STRANDZ SALON AND SPA","Address":"63701 E Saddlebrooke Blvd I","City":"Tucson","State":"AZ","Zip":"85739"},{"Location":"TRINITY INSURANCE AGENCY","Address":"15318 N Oracle Rd A160","City":"Tucson","State":"AZ","Zip":"85739"},{"Location":"W AND W PHYSICAL THERAPY","Address":"63675 E Saddlebrooke Blvd R","City":"Tucson","State":"AZ","Zip":"85739"},{"Location":"ELK LODGE OF CATALINA","Address":"16045 N Oracle Rd","City":"Catalina","State":"AZ","Zip":"85739"},{"Location":"ALA BUZZ CAFE","Address":"12985 N Oracle Rd 165","City":"Tucson","State":"AZ","Zip":"85739"},{"Location":"BUBB'S GRUB","Address":"16010 N Oracle Rd","City":"Tucson","State":"AZ","Zip":"85739"},{"Location":"CROSSROADS COACHING AND","Address":"16730 N Forecastle Ave","City":"Tucson","State":"AZ","Zip":"85739"},{"Location":"FREEDOM SMOKE USA 6","Address":"16701 N Oracle Rd 171","City":"Tucson","State":"AZ","Zip":"85739"},{"Location":"LUPES","Address":"35530 N Highway 7779","City":"Tucson","State":"AZ","Zip":"85739"},{"Location":"OKVAL LLC","Address":"5000 E Via Estancia Miraval 12","City":"Tucson","State":"AZ","Zip":"85739"},{"Location":"PLAYER'S PUB","Address":"16024 N Oracle Rd","City":"Tucson","State":"AZ","Zip":"85739"},{"Location":"ROBERT LONGLEY LLC","Address":"63701 E Saddlebrooke Bvld  #d","City":"Tucson","State":"AZ","Zip":"85739"},{"Location":"SADDLEBROOK TENNIS CLUB","Address":"64335 E Saddlebrook Blvd","City":"Tucson","State":"AZ","Zip":"85739"},{"Location":"SADDLEBROOKE 2","Address":"38735 S Mountain View Blvd","City":"Tucson","State":"AZ","Zip":"85739"},{"Location":"STRANDZ SALON AND SPA","Address":"63701 E Saddlebrooke Blvd I","City":"Tucson","State":"AZ","Zip":"85739"},{"Location":"TRINITY INSURANCE AGENCY","Address":"15318 N Oracle Rd A160","City":"Tucson","State":"AZ","Zip":"85739"},{"Location":"W AND W PHYSICAL THERAPY","Address":"63675 E Saddlebrooke Blvd R","City":"Tucson","State":"AZ","Zip":"85739"}]