[{"Location":"CHILI'S #1212","Address":"11065 N Oracle Rd","City":"Oro Valley","State":"AZ","Zip":"85737"},{"Location":"ELEGANT NAILS","Address":"11165 N La Canada Dr 125","City":"Oro Valley","State":"AZ","Zip":"85737"},{"Location":"GOODYEAR #8259","Address":"10885 N Oracle Rd","City":"Oro Valley","State":"AZ","Zip":"85737"},{"Location":"OLIVE GARDEN #1754","Address":"11905 N Oracle Rd","City":"Oro Valley","State":"AZ","Zip":"85737"},{"Location":"RED LOBSTER #6350","Address":"11695 N Oracle Rd","City":"Oro Valley","State":"AZ","Zip":"85737"},{"Location":"STUDIO DENTAL PLLC","Address":"10550 N La Canada Dr 106","City":"Oro Valley","State":"AZ","Zip":"85737"},{"Location":"TARGET","Address":"10555 N Oracle Rd","City":"Oro Valley","State":"AZ","Zip":"85737"},{"Location":"BRAKEMAX 3","Address":"10529 N Oracle Rd","City":"Tucson","State":"AZ","Zip":"85737"},{"Location":"DICK'S SPORTING GOODS #726","Address":"11935 N Oracle Rd","City":"Tucson","State":"AZ","Zip":"85737"},{"Location":"FITNESS AT ROONEY RANCH","Address":"4848 N Oracle Rd","City":"Tucson","State":"AZ","Zip":"85737"},{"Location":"HARVEST MOON","Address":"12125 N Oracle Rd 105","City":"Tucson","State":"AZ","Zip":"85737"},{"Location":"HONEYWELL INTERNATIONAL","Address":"11100 N Oracle Rd","City":"Tucson","State":"AZ","Zip":"85737"},{"Location":"LA HACIENDA 10","Address":"11931 N 1st Ave 104","City":"Tucson","State":"AZ","Zip":"85737"},{"Location":"MCDONALDS","Address":"10795 N Oracle Rd","City":"Tucson","State":"AZ","Zip":"85737"},{"Location":"PIZZA HUT #42","Address":"10605 N Oracle Rd","City":"Tucson","State":"AZ","Zip":"85737"},{"Location":"RUSTY ADAMS INVESTMENTS","Address":"10960 N Stallard Pl","City":"Tucson","State":"AZ","Zip":"85737"},{"Location":"SAN CARLOS GRILL","Address":"12125 N Oracle Rd 169","City":"Tucson","State":"AZ","Zip":"85737"},{"Location":"SUSHI VALLEY","Address":"10509 N Oracle Rd 131","City":"Tucson","State":"AZ","Zip":"85737"},{"Location":"ZPIZZA","Address":"11165 N La Cholla Dr 130","City":"Tucson","State":"AZ","Zip":"85737"},{"Location":"GOLDER RANCH FIRE DISTRICT","Address":"10475 N Lawcanada","City":"Tuscon","State":"AZ","Zip":"85737"}]