[{"Location":"","Address":"7810 E Escalante Rd","City":"Tucson","State":"AZ","Zip":"85730"},{"Location":"DISABLED AM VETERANS","Address":"3455 S Wilmot Rd A","City":"Tucson","State":"AZ","Zip":"85730"},{"Location":"FAMOUS SAM'S #18","Address":"7129 E Golf Links Rd","City":"Tucson","State":"AZ","Zip":"85730"},{"Location":"GOLFLINK NAILS","Address":"7233 E Golf Links Rd","City":"Tucson","State":"AZ","Zip":"85730"},{"Location":"LA FITNESS INT LLC #149","Address":"9350 E Golf Links Rd","City":"Tucson","State":"AZ","Zip":"85730"},{"Location":"MCGRAWS CANTINA","Address":"4110 S Houghton Rd","City":"Tucson","State":"AZ","Zip":"85730"},{"Location":"MULLIGAN'S SPORTS GRILL","Address":"9403 E Golf Links Rd","City":"Tucson","State":"AZ","Zip":"85730"},{"Location":"NAVAL MARINE CORP RESERVE CENT","Address":"3655 S Wilmot Rd %2Fnosc","City":"Tucson","State":"AZ","Zip":"85730"},{"Location":"PIZZA HUT","Address":"9564 E Golf Links Rd","City":"Tucson","State":"AZ","Zip":"85730"},{"Location":"PLATINUM FITNESS","Address":"9770 E Golf Links Rd","City":"Tucson","State":"AZ","Zip":"85730"},{"Location":"RAIDERS REEF","Address":"6475 E Golf Links Rd","City":"Tucson","State":"AZ","Zip":"85730"},{"Location":"SAGUARO CORNERS","Address":"3750 S Old Spanish Trl","City":"Tucson","State":"AZ","Zip":"85730"}]