[{"Location":"BOTANICA DE JESUS","Address":"2610 W Valencia Rd","City":"Tucson","State":"AZ","Zip":"85746"},{"Location":"BRAKEMAX 12","Address":"1698 W Valencia Rd","City":"Tucson","State":"AZ","Zip":"85746"},{"Location":"BUFFALO WILD WINGS #0527","Address":"1390 W Irvington Rd","City":"Tucson","State":"AZ","Zip":"85746"},{"Location":"CHILI'S #1095","Address":"1640 W Valencia Rd","City":"Tucson","State":"AZ","Zip":"85746"},{"Location":"CHINA OLIVE","Address":"1354 W Irvington Rd","City":"Tucson","State":"AZ","Zip":"85746"},{"Location":"CMS - TUSCON AREA OFFICE","Address":"7900 S J Stock Rd","City":"Tucson","State":"AZ","Zip":"85746"},{"Location":"FAMOUS SAM'S #11","Address":"3010 W Valencia Rd","City":"Tucson","State":"AZ","Zip":"85746"},{"Location":"FARNSWORTH WHOLESALE COMPANY 3","Address":"6701 South Midville Park Road","City":"Tucson","State":"AZ","Zip":"85746"},{"Location":"FMC 61310000","Address":"1430 W Valencia Rd","City":"Tucson","State":"AZ","Zip":"85746"},{"Location":"GRAND","Address":"1690 W Valencia Rd","City":"Tucson","State":"AZ","Zip":"85746"},{"Location":"LAZY V SALOON","Address":"2812 W Alvaro Rd","City":"Tucson","State":"AZ","Zip":"85746"},{"Location":"LITTLE MEXICO STEAK HOUSE","Address":"2851 W Valencia Rd","City":"Tucson","State":"AZ","Zip":"85746"},{"Location":"MIDVALE CHRISTIAN CENTER","Address":"6670 S Indian Agency Rd","City":"Tucson","State":"AZ","Zip":"85746"},{"Location":"OAKRIDGE AT MIDVALE","Address":"5650 S Oak Ridge Dr","City":"Tucson","State":"AZ","Zip":"85746"},{"Location":"PASCUA YAQUI ADMIN","Address":"7474 S Camino De Oeste","City":"Tucson","State":"AZ","Zip":"85746"},{"Location":"PIZZA HUT #38","Address":"1865 W Valencia Rd","City":"Tucson","State":"AZ","Zip":"85746"},{"Location":"WINGSTOP #975","Address":"1710 W Valencia Rd 140","City":"Tucson","State":"AZ","Zip":"85746"},{"Location":"BOTANICA DE JESUS","Address":"2610 W Valencia Rd","City":"Tucson","State":"AZ","Zip":"85746"},{"Location":"BRAKEMAX 12","Address":"1698 W Valencia Rd","City":"Tucson","State":"AZ","Zip":"85746"},{"Location":"BUFFALO WILD WINGS #0527","Address":"1390 W Irvington Rd","City":"Tucson","State":"AZ","Zip":"85746"},{"Location":"CHILI'S #1095","Address":"1640 W Valencia Rd","City":"Tucson","State":"AZ","Zip":"85746"},{"Location":"CHINA OLIVE","Address":"1354 W Irvington Rd","City":"Tucson","State":"AZ","Zip":"85746"},{"Location":"CMS - TUSCON AREA OFFICE","Address":"7900 S J Stock Rd","City":"Tucson","State":"AZ","Zip":"85746"},{"Location":"FAMOUS SAM'S #11","Address":"3010 W Valencia Rd","City":"Tucson","State":"AZ","Zip":"85746"},{"Location":"FARNSWORTH WHOLESALE COMPANY 3","Address":"6701 South Midville Park Road","City":"Tucson","State":"AZ","Zip":"85746"},{"Location":"FMC 61310000","Address":"1430 W Valencia Rd","City":"Tucson","State":"AZ","Zip":"85746"},{"Location":"GRAND","Address":"1690 W Valencia Rd","City":"Tucson","State":"AZ","Zip":"85746"},{"Location":"LAZY V SALOON","Address":"2812 W Alvaro Rd","City":"Tucson","State":"AZ","Zip":"85746"},{"Location":"LITTLE MEXICO STEAK HOUSE","Address":"2851 W Valencia Rd","City":"Tucson","State":"AZ","Zip":"85746"},{"Location":"MIDVALE CHRISTIAN CENTER","Address":"6670 S Indian Agency Rd","City":"Tucson","State":"AZ","Zip":"85746"},{"Location":"OAKRIDGE AT MIDVALE","Address":"5650 S Oak Ridge Dr","City":"Tucson","State":"AZ","Zip":"85746"},{"Location":"PASCUA YAQUI ADMIN","Address":"7474 S Camino De Oeste","City":"Tucson","State":"AZ","Zip":"85746"},{"Location":"PIZZA HUT #38","Address":"1865 W Valencia Rd","City":"Tucson","State":"AZ","Zip":"85746"},{"Location":"WINGSTOP #975","Address":"1710 W Valencia Rd 140","City":"Tucson","State":"AZ","Zip":"85746"}]