[{"Location":"ADOBE VETERINARY CENTER","Address":"8300 E Tanque Verde Rd","City":"Tucson","State":"AZ","Zip":"85749"},{"Location":"AMITY FOUNDATION","Address":"10500 E Tanque Verde Rd","City":"Tucson","State":"AZ","Zip":"85749"},{"Location":"ARIZONA NATIONAL GOLF","Address":"9777 E Sabino Greens Dr","City":"Tucson","State":"AZ","Zip":"85749"},{"Location":"DEERLAND CHEMICAL CORPORATION","Address":"5341 N Avenida De La Colina","City":"Tucson","State":"AZ","Zip":"85749"},{"Location":"INNERMOUNTAIN CENTERS","Address":"8551 E Tanque Verde Rd","City":"Tucson","State":"AZ","Zip":"85749"},{"Location":"KODIAK MECHANICAL","Address":"3850 N Soldier Trl","City":"Tucson","State":"AZ","Zip":"85749"},{"Location":"LA MARIPOSA","Address":"1501 N Houghton Rd","City":"Tucson","State":"AZ","Zip":"85749"},{"Location":"LA MARIPOSA2","Address":"1501 N Houghton Rd","City":"Tucson","State":"AZ","Zip":"85749"},{"Location":"PIZZA HUT #25","Address":"8906 E Tanque Verde Rd","City":"Tucson","State":"AZ","Zip":"85749"},{"Location":"RANCHO RUSTICO","Address":"9165 E Tanque Verde Rd","City":"Tucson","State":"AZ","Zip":"85749"},{"Location":"RISKY BUSINESS III","Address":"8848 E Tanque Verde Rd","City":"Tucson","State":"AZ","Zip":"85749"},{"Location":"STILLHOUSE GRILL & BAR","Address":"9155 E Tanque Verde Rd 177","City":"Tucson","State":"AZ","Zip":"85749"},{"Location":"WHITE STALLION RANCH 2","Address":"13230 E Placita Las Avenas","City":"Tucson","State":"AZ","Zip":"85749"}]