[{"Location":"AFNI INCS","Address":"5320 N La Cholla Blvd","City":"Tucson","State":"AZ","Zip":"85741"},{"Location":"APPLEBEE'S #603 FOOTHILLS MALL","Address":"2230 W Ina Rd","City":"Tucson","State":"AZ","Zip":"85741"},{"Location":"ARIZONA MENTOR","Address":"3800 W Orangewood Dr","City":"Tucson","State":"AZ","Zip":"85741"},{"Location":"AZ AIR TIME","Address":"3931 W Costco Dr","City":"Tucson","State":"AZ","Zip":"85741"},{"Location":"BIG O TIRES","Address":"6627 N Thornydale Rd","City":"Tucson","State":"AZ","Zip":"85741"},{"Location":"BUREAU","Address":"2255 W Ina Rd","City":"Tucson","State":"AZ","Zip":"85741"},{"Location":"CARONDELET FOOTHILLS SURGERY","Address":"2220 W Orange Grove Rd","City":"Tucson","State":"AZ","Zip":"85741"},{"Location":"CASAS ADOBES FAMILY PRACTICE","Address":"5880 N La Cholla Blvd 150","City":"Tucson","State":"AZ","Zip":"85741"},{"Location":"CHUY'S MESQUITE BROILER","Address":"4499 W Ina Rd","City":"Tucson","State":"AZ","Zip":"85741"},{"Location":"CLASSIC CAR SPA INA","Address":"4300 W Ina Rd","City":"Tucson","State":"AZ","Zip":"85741"},{"Location":"COLTS TASTE OF TEXAS","Address":"8310 N Thornydale Rd","City":"Tucson","State":"AZ","Zip":"85741"},{"Location":"CPES GROUP HOME","Address":"2524 W Cezanne Cir","City":"Tucson","State":"AZ","Zip":"85741"},{"Location":"CSL PLASMA 1","Address":"3757 W Ina Rd 100","City":"Tucson","State":"AZ","Zip":"85741"},{"Location":"CULVERS","Address":"6905 N Thornydale Rd","City":"Tucson","State":"AZ","Zip":"85741"},{"Location":"DESERT CARDIOLOGY","Address":"6080 North Lacholla Blvd","City":"Tucson","State":"AZ","Zip":"85741"},{"Location":"DESERT PODIATRIC MEDICAL","Address":"2163 W Orange Grove Rd","City":"Tucson","State":"AZ","Zip":"85741"},{"Location":"DETTLOFF","Address":"3805 W River Rd 101","City":"Tucson","State":"AZ","Zip":"85741"},{"Location":"DHS - OFFICE OF INSP GEN","Address":"2120 W Ina Rd 201","City":"Tucson","State":"AZ","Zip":"85741"},{"Location":"DOMINICKS REAL ITALIAN","Address":"8330 N Thornydale Rd","City":"Tucson","State":"AZ","Zip":"85741"},{"Location":"DOUG JOHNSON BBC ENT","Address":"4385 W Ina Rd","City":"Tucson","State":"AZ","Zip":"85741"},{"Location":"FIRESTONE #022691","Address":"3710 W Ina Rd","City":"Tucson","State":"AZ","Zip":"85741"},{"Location":"FOOTHILLS BARBERS","Address":"2912 W Ina Rd 120","City":"Tucson","State":"AZ","Zip":"85741"},{"Location":"FOOTHILLS SKI LODGE LLC","Address":"7265 N La Cholla Blvd","City":"Tucson","State":"AZ","Zip":"85741"},{"Location":"FOX & HOUND TUCSON #65057","Address":"7625 N La Cholla Blvd","City":"Tucson","State":"AZ","Zip":"85741"},{"Location":"GAP MINISTRIES","Address":"3806 W Orangewood Dr","City":"Tucson","State":"AZ","Zip":"85741"},{"Location":"GAP MINISTRIES 8","Address":"2571 W Calle Senor Manuel","City":"Tucson","State":"AZ","Zip":"85741"},{"Location":"GOODYEAR 8265","Address":"4219 W Ina Rd","City":"Tucson","State":"AZ","Zip":"85741"},{"Location":"GORGEOLIS NAIL SPA","Address":"3682 W Orange Grove Rd 104","City":"Tucson","State":"AZ","Zip":"85741"},{"Location":"HOOTERS MARANA","Address":"4385 W Ina Rd","City":"Tucson","State":"AZ","Zip":"85741"},{"Location":"INTERNAL AFFAIRS","Address":"2120 W Ina Rd 202","City":"Tucson","State":"AZ","Zip":"85741"},{"Location":"JIM CLICK USED CARS NW","Address":"3821 W Costco Dr 121","City":"Tucson","State":"AZ","Zip":"85741"},{"Location":"JUST SPORTS","Address":"7401 N La Cholla Blvd 131","City":"Tucson","State":"AZ","Zip":"85741"},{"Location":"LA FITNESS #119","Address":"2950 W Ina Rd","City":"Tucson","State":"AZ","Zip":"85741"},{"Location":"LA MOLINITA","Address":"3675 W Ina Rd","City":"Tucson","State":"AZ","Zip":"85741"},{"Location":"LA PARRILLA","Address":"4250 W Ina Rd","City":"Tucson","State":"AZ","Zip":"85741"},{"Location":"MACARONI GRILL #1301","Address":"2265 W Ina Rd","City":"Tucson","State":"AZ","Zip":"85741"},{"Location":"MAMAS HAWAIIAN BBQ","Address":"8300 N Thornydale Rd 120","City":"Tucson","State":"AZ","Zip":"85741"},{"Location":"MENTOR NETWORK","Address":"2412 W Rousseau St","City":"Tucson","State":"AZ","Zip":"85741"},{"Location":"MONSOONS TAP & GRILL","Address":"6781 N Thornydale Rd","City":"Tucson","State":"AZ","Zip":"85741"},{"Location":"NAIL RAP","Address":"2972 W Ina Rd","City":"Tucson","State":"AZ","Zip":"85741"},{"Location":"NEW BEGINNINGS TREATMENT CENTE","Address":"7474 N La Cholla Blvd","City":"Tucson","State":"AZ","Zip":"85741"},{"Location":"NIKE INC","Address":"7401 N La Cholla Blvd 121","City":"Tucson","State":"AZ","Zip":"85741"},{"Location":"NNS CLINICAL RESEARCH LLC","Address":"5910 N La Cholla Blvd","City":"Tucson","State":"AZ","Zip":"85741"},{"Location":"NORTH STAR HYPERBARIC","Address":"7598 N Lacholla Blvd","City":"Tucson","State":"AZ","Zip":"85741"},{"Location":"NORTHWEST MEDICAL CENTER","Address":"6200 North Lacholla Blvd","City":"Tucson","State":"AZ","Zip":"85741"},{"Location":"NORTHWEST NEURO SPECIALISTS","Address":"5860 N La Cholla Blvd","City":"Tucson","State":"AZ","Zip":"85741"},{"Location":"NPT PARTNERS I%2C LLC","Address":"2130 W River Rd","City":"Tucson","State":"AZ","Zip":"85741"},{"Location":"NW CHILDRENS DENTISTRY","Address":"7610 N La Cholla Blvd","City":"Tucson","State":"AZ","Zip":"85741"},{"Location":"NW MEDICAL CENTER","Address":"6200 North Lacholla Blvd","City":"Tucson","State":"AZ","Zip":"85741"},{"Location":"OUTBACK STEAKHOUSE #0315","Address":"2240 W Ina Rd","City":"Tucson","State":"AZ","Zip":"85741"},{"Location":"PAPPOULIES INC","Address":"7457 N La Cholla Blvd","City":"Tucson","State":"AZ","Zip":"85741"},{"Location":"PIMA FEDERAL CREDIT UNION","Address":"6510 N Thornydale Rd","City":"Tucson","State":"AZ","Zip":"85741"},{"Location":"PIZZA HUT OF ARIZONA","Address":"7665 N La Cholla Blvd","City":"Tucson","State":"AZ","Zip":"85741"},{"Location":"RUDY ARIATE CPA","Address":"7382 N La Cholla Blvd","City":"Tucson","State":"AZ","Zip":"85741"},{"Location":"SAFELITE AUTO GLASS","Address":"3571 W Ina Rd 151","City":"Tucson","State":"AZ","Zip":"85741"},{"Location":"STADIUM GRILL","Address":"3682 W Orange Grove Rd","City":"Tucson","State":"AZ","Zip":"85741"},{"Location":"VILLA MEXICAN FOOD","Address":"2840 W Ina Rd 104","City":"Tucson","State":"AZ","Zip":"85741"},{"Location":"WENDYS 4215","Address":"3780 W Orange Grove Rd","City":"Tucson","State":"AZ","Zip":"85741"},{"Location":"WINGSTOP #974","Address":"3662 W Ina Rd 110","City":"Tucson","State":"AZ","Zip":"85741"},{"Location":"WOK & ROLL","Address":"3000 W Ina Rd","City":"Tucson","State":"AZ","Zip":"85741"},{"Location":"AFNI INCS","Address":"5320 N La Cholla Blvd","City":"Tucson","State":"AZ","Zip":"85741"},{"Location":"APPLEBEE'S #603 FOOTHILLS MALL","Address":"2230 W Ina Rd","City":"Tucson","State":"AZ","Zip":"85741"},{"Location":"ARIZONA MENTOR","Address":"3800 W Orangewood Dr","City":"Tucson","State":"AZ","Zip":"85741"},{"Location":"AZ AIR TIME","Address":"3931 W Costco Dr","City":"Tucson","State":"AZ","Zip":"85741"},{"Location":"BIG O TIRES","Address":"6627 N Thornydale Rd","City":"Tucson","State":"AZ","Zip":"85741"},{"Location":"BUREAU","Address":"2255 W Ina Rd","City":"Tucson","State":"AZ","Zip":"85741"},{"Location":"CARONDELET FOOTHILLS SURGERY","Address":"2220 W Orange Grove Rd","City":"Tucson","State":"AZ","Zip":"85741"},{"Location":"CASAS ADOBES FAMILY PRACTICE","Address":"5880 N La Cholla Blvd 150","City":"Tucson","State":"AZ","Zip":"85741"},{"Location":"CHUY'S MESQUITE BROILER","Address":"4499 W Ina Rd","City":"Tucson","State":"AZ","Zip":"85741"},{"Location":"CLASSIC CAR SPA INA","Address":"4300 W Ina Rd","City":"Tucson","State":"AZ","Zip":"85741"},{"Location":"COLTS TASTE OF TEXAS","Address":"8310 N Thornydale Rd","City":"Tucson","State":"AZ","Zip":"85741"},{"Location":"CPES GROUP HOME","Address":"2524 W Cezanne Cir","City":"Tucson","State":"AZ","Zip":"85741"},{"Location":"CSL PLASMA 1","Address":"3757 W Ina Rd 100","City":"Tucson","State":"AZ","Zip":"85741"},{"Location":"CULVERS","Address":"6905 N Thornydale Rd","City":"Tucson","State":"AZ","Zip":"85741"},{"Location":"DESERT CARDIOLOGY","Address":"6080 North Lacholla Blvd","City":"Tucson","State":"AZ","Zip":"85741"},{"Location":"DESERT PODIATRIC MEDICAL","Address":"2163 W Orange Grove Rd","City":"Tucson","State":"AZ","Zip":"85741"},{"Location":"DETTLOFF","Address":"3805 W River Rd 101","City":"Tucson","State":"AZ","Zip":"85741"},{"Location":"DHS - OFFICE OF INSP GEN","Address":"2120 W Ina Rd 201","City":"Tucson","State":"AZ","Zip":"85741"},{"Location":"DOMINICKS REAL ITALIAN","Address":"8330 N Thornydale Rd","City":"Tucson","State":"AZ","Zip":"85741"},{"Location":"DOUG JOHNSON BBC ENT","Address":"4385 W Ina Rd","City":"Tucson","State":"AZ","Zip":"85741"},{"Location":"FIRESTONE #022691","Address":"3710 W Ina Rd","City":"Tucson","State":"AZ","Zip":"85741"},{"Location":"FOOTHILLS BARBERS","Address":"2912 W Ina Rd 120","City":"Tucson","State":"AZ","Zip":"85741"},{"Location":"FOOTHILLS SKI LODGE LLC","Address":"7265 N La Cholla Blvd","City":"Tucson","State":"AZ","Zip":"85741"},{"Location":"FOX & HOUND TUCSON #65057","Address":"7625 N La Cholla Blvd","City":"Tucson","State":"AZ","Zip":"85741"},{"Location":"GAP MINISTRIES","Address":"3806 W Orangewood Dr","City":"Tucson","State":"AZ","Zip":"85741"},{"Location":"GAP MINISTRIES 8","Address":"2571 W Calle Senor Manuel","City":"Tucson","State":"AZ","Zip":"85741"},{"Location":"GOODYEAR 8265","Address":"4219 W Ina Rd","City":"Tucson","State":"AZ","Zip":"85741"},{"Location":"GORGEOLIS NAIL SPA","Address":"3682 W Orange Grove Rd 104","City":"Tucson","State":"AZ","Zip":"85741"},{"Location":"HOOTERS MARANA","Address":"4385 W Ina Rd","City":"Tucson","State":"AZ","Zip":"85741"},{"Location":"INTERNAL AFFAIRS","Address":"2120 W Ina Rd 202","City":"Tucson","State":"AZ","Zip":"85741"},{"Location":"JIM CLICK USED CARS NW","Address":"3821 W Costco Dr 121","City":"Tucson","State":"AZ","Zip":"85741"},{"Location":"JUST SPORTS","Address":"7401 N La Cholla Blvd 131","City":"Tucson","State":"AZ","Zip":"85741"},{"Location":"LA FITNESS #119","Address":"2950 W Ina Rd","City":"Tucson","State":"AZ","Zip":"85741"},{"Location":"LA MOLINITA","Address":"3675 W Ina Rd","City":"Tucson","State":"AZ","Zip":"85741"},{"Location":"LA PARRILLA","Address":"4250 W Ina Rd","City":"Tucson","State":"AZ","Zip":"85741"},{"Location":"MACARONI GRILL #1301","Address":"2265 W Ina Rd","City":"Tucson","State":"AZ","Zip":"85741"},{"Location":"MAMAS HAWAIIAN BBQ","Address":"8300 N Thornydale Rd 120","City":"Tucson","State":"AZ","Zip":"85741"},{"Location":"MENTOR NETWORK","Address":"2412 W Rousseau St","City":"Tucson","State":"AZ","Zip":"85741"},{"Location":"MONSOONS TAP & GRILL","Address":"6781 N Thornydale Rd","City":"Tucson","State":"AZ","Zip":"85741"},{"Location":"NAIL RAP","Address":"2972 W Ina Rd","City":"Tucson","State":"AZ","Zip":"85741"},{"Location":"NEW BEGINNINGS TREATMENT CENTE","Address":"7474 N La Cholla Blvd","City":"Tucson","State":"AZ","Zip":"85741"},{"Location":"NIKE INC","Address":"7401 N La Cholla Blvd 121","City":"Tucson","State":"AZ","Zip":"85741"},{"Location":"NNS CLINICAL RESEARCH LLC","Address":"5910 N La Cholla Blvd","City":"Tucson","State":"AZ","Zip":"85741"},{"Location":"NORTH STAR HYPERBARIC","Address":"7598 N Lacholla Blvd","City":"Tucson","State":"AZ","Zip":"85741"},{"Location":"NORTHWEST MEDICAL CENTER","Address":"6200 North Lacholla Blvd","City":"Tucson","State":"AZ","Zip":"85741"},{"Location":"NORTHWEST NEURO SPECIALISTS","Address":"5860 N La Cholla Blvd","City":"Tucson","State":"AZ","Zip":"85741"},{"Location":"NPT PARTNERS I%2C LLC","Address":"2130 W River Rd","City":"Tucson","State":"AZ","Zip":"85741"},{"Location":"NW CHILDRENS DENTISTRY","Address":"7610 N La Cholla Blvd","City":"Tucson","State":"AZ","Zip":"85741"},{"Location":"NW MEDICAL CENTER","Address":"6200 North Lacholla Blvd","City":"Tucson","State":"AZ","Zip":"85741"},{"Location":"OUTBACK STEAKHOUSE #0315","Address":"2240 W Ina Rd","City":"Tucson","State":"AZ","Zip":"85741"},{"Location":"PAPPOULIES INC","Address":"7457 N La Cholla Blvd","City":"Tucson","State":"AZ","Zip":"85741"},{"Location":"PIMA FEDERAL CREDIT UNION","Address":"6510 N Thornydale Rd","City":"Tucson","State":"AZ","Zip":"85741"},{"Location":"PIZZA HUT OF ARIZONA","Address":"7665 N La Cholla Blvd","City":"Tucson","State":"AZ","Zip":"85741"},{"Location":"RUDY ARIATE CPA","Address":"7382 N La Cholla Blvd","City":"Tucson","State":"AZ","Zip":"85741"},{"Location":"SAFELITE AUTO GLASS","Address":"3571 W Ina Rd 151","City":"Tucson","State":"AZ","Zip":"85741"},{"Location":"STADIUM GRILL","Address":"3682 W Orange Grove Rd","City":"Tucson","State":"AZ","Zip":"85741"},{"Location":"VILLA MEXICAN FOOD","Address":"2840 W Ina Rd 104","City":"Tucson","State":"AZ","Zip":"85741"},{"Location":"WENDYS 4215","Address":"3780 W Orange Grove Rd","City":"Tucson","State":"AZ","Zip":"85741"},{"Location":"WINGSTOP #974","Address":"3662 W Ina Rd 110","City":"Tucson","State":"AZ","Zip":"85741"},{"Location":"WOK & ROLL","Address":"3000 W Ina Rd","City":"Tucson","State":"AZ","Zip":"85741"}]