[{"Location":"A-AERIAL TUCSON","Address":"5135 N Casa Grande Hwy","City":"Tucson","State":"AZ","Zip":"85743"},{"Location":"CHILI'S #1216","Address":"5975 W Arizona Pavilions Dr","City":"Tucson","State":"AZ","Zip":"85743"},{"Location":"FLETCHER'S TIRE & AUTO SERVICE","Address":"7875 N Leilani Ln","City":"Tucson","State":"AZ","Zip":"85743"},{"Location":"FLSMIDTH KREBS","Address":"5505 W Gillette Rd","City":"Tucson","State":"AZ","Zip":"85743"},{"Location":"HARLEY DAVIDSON OF TUSCON","Address":"7355 N I 10 E Bound Frontage","City":"Tucson","State":"AZ","Zip":"85743"},{"Location":"JUST SPORTS 1","Address":"8260 N Cortaro Rd","City":"Tucson","State":"AZ","Zip":"85743"},{"Location":"LA FITNESS #136","Address":"5885 W Arizona Pavilions Dr","City":"Tucson","State":"AZ","Zip":"85743"},{"Location":"LIL ABNERS STEAKHOUSE","Address":"8500 N Silverbell Rd","City":"Tucson","State":"AZ","Zip":"85743"},{"Location":"MIRA VISTA RESORT","Address":"7501 N Wade Rd","City":"Tucson","State":"AZ","Zip":"85743"},{"Location":"MIRA VISTA RESORT BAR","Address":"7501 N Wade Rd","City":"Tucson","State":"AZ","Zip":"85743"},{"Location":"NATIVE NEW YORKER","Address":"8225 N Courtney Page Way","City":"Tucson","State":"AZ","Zip":"85743"},{"Location":"PACIFIC DENTAL #256","Address":"8250 N Cortaro Rd","City":"Tucson","State":"AZ","Zip":"85743"},{"Location":"PIZZA HUT-TUCSON","Address":"8245 N Silverbell Rd 101","City":"Tucson","State":"AZ","Zip":"85743"},{"Location":"REDEMPTORIST RENEWAL CEN","Address":"7101 E Picture Rocks Rd","City":"Tucson","State":"AZ","Zip":"85743"},{"Location":"SARGENT AEROSPACE","Address":"5675 W Burlingame Rd","City":"Tucson","State":"AZ","Zip":"85743"},{"Location":"SGS NORTH AMERICA","Address":"7701 N Business Park Dr","City":"Tucson","State":"AZ","Zip":"85743"},{"Location":"SPORT CLIPS AZ204","Address":"5920 W Arizona Pavilions Dr 105","City":"Tucson","State":"AZ","Zip":"85743"},{"Location":"THE STATION","Address":"8235 N Silverbell Rd 105","City":"Tucson","State":"AZ","Zip":"85743"},{"Location":"VILLAGE INN 110920","Address":"5955 W Arizona Pavilions Dr","City":"Tucson","State":"AZ","Zip":"85743"},{"Location":"VILLAS DE BELLA","Address":"6008 N Panorama Dr","City":"Tucson","State":"AZ","Zip":"85743"},{"Location":"VISIONQUEST","Address":"7700 N Lydia Ave","City":"Tucson","State":"AZ","Zip":"85743"},{"Location":"WAGON WHEEL POST BAR","Address":"6803 N Sandario Rd","City":"Tucson","State":"AZ","Zip":"85743"},{"Location":"WELLS FARGO SILVERBELL","Address":"7820 N Silverbell Rd","City":"Tucson","State":"AZ","Zip":"85743"},{"Location":"WHITE STALLION RANCH","Address":"9251 W Twin Peaks Rd","City":"Tucson","State":"AZ","Zip":"85743"},{"Location":"WILD HORSE RANCH","Address":"6801 N Camino Verde","City":"Tucson","State":"AZ","Zip":"85743"}]