[{"Location":"AIR LIQUIDE LP","Address":"8700 E Old Vail Rd","City":"Tucson","State":"AZ","Zip":"85747"},{"Location":"ARIZONA CANNINGS","Address":"8755 S Rita Rd","City":"Tucson","State":"AZ","Zip":"85747"},{"Location":"BRAKEMAX 11","Address":"7525 S Houghton Rd","City":"Tucson","State":"AZ","Zip":"85747"},{"Location":"CHUYS MESQUITE BROILER","Address":"7585 S Houghton Rd","City":"Tucson","State":"AZ","Zip":"85747"},{"Location":"DIVERSIFIED MEDIA GROUP LLC","Address":"9060 S Rita Rd","City":"Tucson","State":"AZ","Zip":"85747"},{"Location":"HOT RODS OLD VAIL","Address":"10500 E Old Vail Rd","City":"Tucson","State":"AZ","Zip":"85747"},{"Location":"NAILS","Address":"9040 E Valencia Rd 166","City":"Tucson","State":"AZ","Zip":"85747"},{"Location":"OFFSHORE INTERNATIONAL","Address":"8350 E Old Vail Rd","City":"Tucson","State":"AZ","Zip":"85747"},{"Location":"PIZZA HUT","Address":"8140 S Houghton Rd 180","City":"Tucson","State":"AZ","Zip":"85747"},{"Location":"PLAZA BONITA","Address":"8270 S Houghton Rd 140","City":"Tucson","State":"AZ","Zip":"85747"},{"Location":"RITA RANCH AUTO AND TIRE","Address":"7441 S Houghton Rd","City":"Tucson","State":"AZ","Zip":"85747"},{"Location":"RITA RANCH MARKET","Address":"8201 S Rita Rd","City":"Tucson","State":"AZ","Zip":"85747"},{"Location":"SAFEWAY 1986","Address":"9050 E Valencia Rd","City":"Tucson","State":"AZ","Zip":"85747"},{"Location":"SOUTH WEST SMOKELESS","Address":"7545 S Houghton Rd 149","City":"Tucson","State":"AZ","Zip":"85747"},{"Location":"SOUTHWESTERN FAIR COMM","Address":"11300 S Houghton Rd","City":"Tucson","State":"AZ","Zip":"85747"},{"Location":"SPORTS BUZZ HAIR CUT","Address":"10180 E Rita Rd 180","City":"Tucson","State":"AZ","Zip":"85747"},{"Location":"AIR LIQUIDE LP","Address":"8700 E Old Vail Rd","City":"Tucson","State":"AZ","Zip":"85747"},{"Location":"ARIZONA CANNINGS","Address":"8755 S Rita Rd","City":"Tucson","State":"AZ","Zip":"85747"},{"Location":"BRAKEMAX 11","Address":"7525 S Houghton Rd","City":"Tucson","State":"AZ","Zip":"85747"},{"Location":"CHUYS MESQUITE BROILER","Address":"7585 S Houghton Rd","City":"Tucson","State":"AZ","Zip":"85747"},{"Location":"DIVERSIFIED MEDIA GROUP LLC","Address":"9060 S Rita Rd","City":"Tucson","State":"AZ","Zip":"85747"},{"Location":"HOT RODS OLD VAIL","Address":"10500 E Old Vail Rd","City":"Tucson","State":"AZ","Zip":"85747"},{"Location":"NAILS","Address":"9040 E Valencia Rd 166","City":"Tucson","State":"AZ","Zip":"85747"},{"Location":"OFFSHORE INTERNATIONAL","Address":"8350 E Old Vail Rd","City":"Tucson","State":"AZ","Zip":"85747"},{"Location":"PIZZA HUT","Address":"8140 S Houghton Rd 180","City":"Tucson","State":"AZ","Zip":"85747"},{"Location":"PLAZA BONITA","Address":"8270 S Houghton Rd 140","City":"Tucson","State":"AZ","Zip":"85747"},{"Location":"RITA RANCH AUTO AND TIRE","Address":"7441 S Houghton Rd","City":"Tucson","State":"AZ","Zip":"85747"},{"Location":"RITA RANCH MARKET","Address":"8201 S Rita Rd","City":"Tucson","State":"AZ","Zip":"85747"},{"Location":"SAFEWAY 1986","Address":"9050 E Valencia Rd","City":"Tucson","State":"AZ","Zip":"85747"},{"Location":"SOUTH WEST SMOKELESS","Address":"7545 S Houghton Rd 149","City":"Tucson","State":"AZ","Zip":"85747"},{"Location":"SOUTHWESTERN FAIR COMM","Address":"11300 S Houghton Rd","City":"Tucson","State":"AZ","Zip":"85747"},{"Location":"SPORTS BUZZ HAIR CUT","Address":"10180 E Rita Rd 180","City":"Tucson","State":"AZ","Zip":"85747"}]