[{"Location":"BUFFALO WILD WINGS #0526","Address":"68 N Harrison Rd","City":"Tucson","State":"AZ","Zip":"85748"},{"Location":"COBROS","Address":"959 N Via Zahara Del Sol","City":"Tucson","State":"AZ","Zip":"85748"},{"Location":"EDWARD JONES","Address":"9525 E Old Spanish Trl 111","City":"Tucson","State":"AZ","Zip":"85748"},{"Location":"MOOSE LODGE","Address":"2442 S Harrison Rd","City":"Tucson","State":"AZ","Zip":"85748"},{"Location":"NEXTCARE URGENT CARE","Address":"9525 E Old Spanish Trl 101","City":"Tucson","State":"AZ","Zip":"85748"},{"Location":"PACIFIC DENTAL 128","Address":"9660 E 22nd St 160","City":"Tucson","State":"AZ","Zip":"85748"},{"Location":"TANQUE VERDE","Address":"14301 E Speedway Blvd","City":"Tucson","State":"AZ","Zip":"85748"},{"Location":"TUCSON WILDLIFE CENTER","Address":"13275 E Speedway Blvd","City":"Tucson","State":"AZ","Zip":"85748"},{"Location":"TUSCON RESIDENTS FOUNDATION","Address":"980 N Avenida Venado","City":"Tucson","State":"AZ","Zip":"85748"},{"Location":"VERONA ITALIAN RESTAURANT","Address":"120 S Houghton Rd 174","City":"Tucson","State":"AZ","Zip":"85748"},{"Location":"VILLAGE INN #110892","Address":"9560 E 22nd St","City":"Tucson","State":"AZ","Zip":"85748"}]