[{"Location":"PICO DE ORO","Address":"12871 N Rusty Iron Trl","City":"Oro Valley","State":"AZ","Zip":"85742"},{"Location":"TUCSON DANCE ACADEMY","Address":"2850 W Ina Rd 100","City":"Pima","State":"AZ","Zip":"85742"},{"Location":"DAKS PIZZA AND GAMES","Address":"9725 N Thornydale Rd 14","City":"Tucson","State":"AZ","Zip":"85742"},{"Location":"LA FRONTERA","Address":"10845 N Thornydale Rd","City":"Tucson","State":"AZ","Zip":"85742"},{"Location":"LEGENDS BAR & GRILL","Address":"2727 W Club Dr","City":"Tucson","State":"AZ","Zip":"85742"},{"Location":"LEO GARCIA","Address":"9725 N Thornydale Rd 149","City":"Tucson","State":"AZ","Zip":"85742"},{"Location":"NICOS MEXICAN FOOD","Address":"9665 N Thornydale Rd","City":"Tucson","State":"AZ","Zip":"85742"},{"Location":"SAGNA LLC","Address":"5260 W Greenock Dr","City":"Tucson","State":"AZ","Zip":"85742"},{"Location":"PICO DE ORO","Address":"12871 N Rusty Iron Trl","City":"Oro Valley","State":"AZ","Zip":"85742"},{"Location":"TUCSON DANCE ACADEMY","Address":"2850 W Ina Rd 100","City":"Pima","State":"AZ","Zip":"85742"},{"Location":"DAKS PIZZA AND GAMES","Address":"9725 N Thornydale Rd 14","City":"Tucson","State":"AZ","Zip":"85742"},{"Location":"LA FRONTERA","Address":"10845 N Thornydale Rd","City":"Tucson","State":"AZ","Zip":"85742"},{"Location":"LEGENDS BAR & GRILL","Address":"2727 W Club Dr","City":"Tucson","State":"AZ","Zip":"85742"},{"Location":"LEO GARCIA","Address":"9725 N Thornydale Rd 149","City":"Tucson","State":"AZ","Zip":"85742"},{"Location":"NICOS MEXICAN FOOD","Address":"9665 N Thornydale Rd","City":"Tucson","State":"AZ","Zip":"85742"},{"Location":"SAGNA LLC","Address":"5260 W Greenock Dr","City":"Tucson","State":"AZ","Zip":"85742"}]