[{"Location":"ARIZONA STATE SCHOOLS","Address":"1200 W Speedway Blvd","City":"Tucson","State":"AZ","Zip":"85745"},{"Location":"ARIZONA STATE SCHOOLS II","Address":"1200 W Speedway Blvd","City":"Tucson","State":"AZ","Zip":"85745"},{"Location":"AZ ONCOLOGY 0682 1000","Address":"1620 W Saint Marys Rd","City":"Tucson","State":"AZ","Zip":"85745"},{"Location":"BIANCHIS ITALIAN","Address":"1110 N Silverbell Rd","City":"Tucson","State":"AZ","Zip":"85745"},{"Location":"BIG O TIRES","Address":"2445 N Silverbell Rd","City":"Tucson","State":"AZ","Zip":"85745"},{"Location":"BLUE COYOTE PAINTING LLC","Address":"2251 N Dragoon St","City":"Tucson","State":"AZ","Zip":"85745"},{"Location":"BRAKEMAX 5","Address":"2240 N Silverbell Rd","City":"Tucson","State":"AZ","Zip":"85745"},{"Location":"CATALINA BARBECUE COMPANY","Address":"3645 W Starr Pass Blvd","City":"Tucson","State":"AZ","Zip":"85745"},{"Location":"CODAC BEHAVIORAL HEALTH SERV","Address":"502 N Silverbell Rd","City":"Tucson","State":"AZ","Zip":"85745"},{"Location":"CROSSFIT NOW","Address":"1861 W Grant Rd 107","City":"Tucson","State":"AZ","Zip":"85745"},{"Location":"DRAGON VIEW ASIAN CUISINE","Address":"400 N Bonita Ave","City":"Tucson","State":"AZ","Zip":"85745"},{"Location":"EL RIO BARBER STYLIST","Address":"1299 W Speedway Blvd","City":"Tucson","State":"AZ","Zip":"85745"},{"Location":"FAMOUS SAM'S #10","Address":"2320 N Silverbell Rd","City":"Tucson","State":"AZ","Zip":"85745"},{"Location":"JW MARRIOTT STARR PASS RESORT","Address":"3800 W Starr Pass Blvd","City":"Tucson","State":"AZ","Zip":"85745"},{"Location":"LA FRONTERA CASA DE VIDA","Address":"1900 W Speedway Blvd","City":"Tucson","State":"AZ","Zip":"85745"},{"Location":"LOS CUATES MEXICAN FOOD","Address":"1501 W Saint Marys Rd","City":"Tucson","State":"AZ","Zip":"85745"},{"Location":"MED-TRANS CORPORATION","Address":"1601 W Saint Marys Rd 4810","City":"Tucson","State":"AZ","Zip":"85745"},{"Location":"MR BAJA FISH","Address":"1905 W Grant Rd","City":"Tucson","State":"AZ","Zip":"85745"},{"Location":"NORTHWEST FIREFIGHTERS 3572","Address":"4151 W El Camino Del Cerro","City":"Tucson","State":"AZ","Zip":"85745"},{"Location":"NORTHWEST FIREFIGHTERS LOCAL","Address":"3220 N Camino De Oeste","City":"Tucson","State":"AZ","Zip":"85745"},{"Location":"NW MEDICAL CENTER2","Address":"1370 N Silverbell Rd","City":"Tucson","State":"AZ","Zip":"85745"},{"Location":"PRECISION MACHINING","Address":"2250 N Forbes Blvd","City":"Tucson","State":"AZ","Zip":"85745"},{"Location":"RIVERPARK INN","Address":"350 S Freeway","City":"Tucson","State":"AZ","Zip":"85745"},{"Location":"RUSTY'S","Address":"2075 W Grant Rd","City":"Tucson","State":"AZ","Zip":"85745"},{"Location":"SALVATION ARMY","Address":"2922 W Ironwood Hills Dr","City":"Tucson","State":"AZ","Zip":"85745"},{"Location":"SOUTHWEST HAZARD CONTROL","Address":"1953 W Grant Rd","City":"Tucson","State":"AZ","Zip":"85745"},{"Location":"STARR PASS MARRIOTT RESORT AND","Address":"3800 W Starr Pass Blvd","City":"Tucson","State":"AZ","Zip":"85745"},{"Location":"TACO GIRO","Address":"610 N Grande Ave","City":"Tucson","State":"AZ","Zip":"85745"},{"Location":"TERESAS MOSAIC CAFE","Address":"2456 N Silver Mosaic Dr","City":"Tucson","State":"AZ","Zip":"85745"},{"Location":"WINGSTOP #972","Address":"2400 N Silverbell Rd 140","City":"Tucson","State":"AZ","Zip":"85745"},{"Location":"ARIZONA STATE SCHOOLS","Address":"1200 W Speedway Blvd","City":"Tucson","State":"AZ","Zip":"85745"},{"Location":"ARIZONA STATE SCHOOLS II","Address":"1200 W Speedway Blvd","City":"Tucson","State":"AZ","Zip":"85745"},{"Location":"AZ ONCOLOGY 0682 1000","Address":"1620 W Saint Marys Rd","City":"Tucson","State":"AZ","Zip":"85745"},{"Location":"BIANCHIS ITALIAN","Address":"1110 N Silverbell Rd","City":"Tucson","State":"AZ","Zip":"85745"},{"Location":"BIG O TIRES","Address":"2445 N Silverbell Rd","City":"Tucson","State":"AZ","Zip":"85745"},{"Location":"BLUE COYOTE PAINTING LLC","Address":"2251 N Dragoon St","City":"Tucson","State":"AZ","Zip":"85745"},{"Location":"BRAKEMAX 5","Address":"2240 N Silverbell Rd","City":"Tucson","State":"AZ","Zip":"85745"},{"Location":"CATALINA BARBECUE COMPANY","Address":"3645 W Starr Pass Blvd","City":"Tucson","State":"AZ","Zip":"85745"},{"Location":"CODAC BEHAVIORAL HEALTH SERV","Address":"502 N Silverbell Rd","City":"Tucson","State":"AZ","Zip":"85745"},{"Location":"CROSSFIT NOW","Address":"1861 W Grant Rd 107","City":"Tucson","State":"AZ","Zip":"85745"},{"Location":"DRAGON VIEW ASIAN CUISINE","Address":"400 N Bonita Ave","City":"Tucson","State":"AZ","Zip":"85745"},{"Location":"EL RIO BARBER STYLIST","Address":"1299 W Speedway Blvd","City":"Tucson","State":"AZ","Zip":"85745"},{"Location":"FAMOUS SAM'S #10","Address":"2320 N Silverbell Rd","City":"Tucson","State":"AZ","Zip":"85745"},{"Location":"JW MARRIOTT STARR PASS RESORT","Address":"3800 W Starr Pass Blvd","City":"Tucson","State":"AZ","Zip":"85745"},{"Location":"LA FRONTERA CASA DE VIDA","Address":"1900 W Speedway Blvd","City":"Tucson","State":"AZ","Zip":"85745"},{"Location":"LOS CUATES MEXICAN FOOD","Address":"1501 W Saint Marys Rd","City":"Tucson","State":"AZ","Zip":"85745"},{"Location":"MED-TRANS CORPORATION","Address":"1601 W Saint Marys Rd 4810","City":"Tucson","State":"AZ","Zip":"85745"},{"Location":"MR BAJA FISH","Address":"1905 W Grant Rd","City":"Tucson","State":"AZ","Zip":"85745"},{"Location":"NORTHWEST FIREFIGHTERS 3572","Address":"4151 W El Camino Del Cerro","City":"Tucson","State":"AZ","Zip":"85745"},{"Location":"NORTHWEST FIREFIGHTERS LOCAL","Address":"3220 N Camino De Oeste","City":"Tucson","State":"AZ","Zip":"85745"},{"Location":"NW MEDICAL CENTER2","Address":"1370 N Silverbell Rd","City":"Tucson","State":"AZ","Zip":"85745"},{"Location":"PRECISION MACHINING","Address":"2250 N Forbes Blvd","City":"Tucson","State":"AZ","Zip":"85745"},{"Location":"RIVERPARK INN","Address":"350 S Freeway","City":"Tucson","State":"AZ","Zip":"85745"},{"Location":"RUSTY'S","Address":"2075 W Grant Rd","City":"Tucson","State":"AZ","Zip":"85745"},{"Location":"SALVATION ARMY","Address":"2922 W Ironwood Hills Dr","City":"Tucson","State":"AZ","Zip":"85745"},{"Location":"SOUTHWEST HAZARD CONTROL","Address":"1953 W Grant Rd","City":"Tucson","State":"AZ","Zip":"85745"},{"Location":"STARR PASS MARRIOTT RESORT AND","Address":"3800 W Starr Pass Blvd","City":"Tucson","State":"AZ","Zip":"85745"},{"Location":"TACO GIRO","Address":"610 N Grande Ave","City":"Tucson","State":"AZ","Zip":"85745"},{"Location":"TERESAS MOSAIC CAFE","Address":"2456 N Silver Mosaic Dr","City":"Tucson","State":"AZ","Zip":"85745"},{"Location":"WINGSTOP #972","Address":"2400 N Silverbell Rd 140","City":"Tucson","State":"AZ","Zip":"85745"}]