[{"Location":"DRAGON  VILLAGE  RESTAUR","Address":"12152 N Rancho Vistoso Blvd","City":"Oro Valley","State":"AZ","Zip":"85755"},{"Location":"O.V.P.D. TANGERINE SUB","Address":"1920 W Tangerine Rd","City":"Oro Valley","State":"AZ","Zip":"85755"},{"Location":"SAFEWAY STORE 1521","Address":"12122 N Rancho Vistoso Blvd","City":"Oro Valley","State":"AZ","Zip":"85755"},{"Location":"SAHAURO CAFE","Address":"12142 N Rancho Vistoso Blvd 120","City":"Oro Valley","State":"AZ","Zip":"85755"},{"Location":"SPORT CLIPS AZ202","Address":"1880 E Tangerine Rd 180","City":"Oro Valley","State":"AZ","Zip":"85755"},{"Location":"STONE CANYON BUFFALO GOLF%2CLLC","Address":"14200 N Hohokam Village Pl","City":"Oro Valley","State":"AZ","Zip":"85755"},{"Location":"TUCSON GOLF VACATIONS","Address":"12450 N Rancho Vistoso Blvd 120","City":"Oro Valley","State":"AZ","Zip":"85755"},{"Location":"VENTANA MEDICAL SYSTEMS","Address":"1910 E Innovation Park Dr","City":"Oro Valley","State":"AZ","Zip":"85755"},{"Location":"GAP MINISTERIES SKYHAWK","Address":"14265 N Skyhawk Dr","City":"Tucson","State":"AZ","Zip":"85755"},{"Location":"GAP MINISTERY II","Address":"1692 W Sunkiss Rd","City":"Tucson","State":"AZ","Zip":"85755"},{"Location":"GAP MINISTRIES","Address":"1698 W Sunkist Rd","City":"Tucson","State":"AZ","Zip":"85755"},{"Location":"GAP MINISTRIES","Address":"14215 N Skyhawk Dr","City":"Tucson","State":"AZ","Zip":"85755"},{"Location":"GAP MINISTRIES SPLASH 9","Address":"1970 W Lemonwood Rd","City":"Tucson","State":"AZ","Zip":"85755"},{"Location":"DRAGON  VILLAGE  RESTAUR","Address":"12152 N Rancho Vistoso Blvd","City":"Oro Valley","State":"AZ","Zip":"85755"},{"Location":"O.V.P.D. TANGERINE SUB","Address":"1920 W Tangerine Rd","City":"Oro Valley","State":"AZ","Zip":"85755"},{"Location":"SAFEWAY STORE 1521","Address":"12122 N Rancho Vistoso Blvd","City":"Oro Valley","State":"AZ","Zip":"85755"},{"Location":"SAHAURO CAFE","Address":"12142 N Rancho Vistoso Blvd 120","City":"Oro Valley","State":"AZ","Zip":"85755"},{"Location":"SPORT CLIPS AZ202","Address":"1880 E Tangerine Rd 180","City":"Oro Valley","State":"AZ","Zip":"85755"},{"Location":"STONE CANYON BUFFALO GOLF%2CLLC","Address":"14200 N Hohokam Village Pl","City":"Oro Valley","State":"AZ","Zip":"85755"},{"Location":"TUCSON GOLF VACATIONS","Address":"12450 N Rancho Vistoso Blvd 120","City":"Oro Valley","State":"AZ","Zip":"85755"},{"Location":"VENTANA MEDICAL SYSTEMS","Address":"1910 E Innovation Park Dr","City":"Oro Valley","State":"AZ","Zip":"85755"},{"Location":"GAP MINISTERIES SKYHAWK","Address":"14265 N Skyhawk Dr","City":"Tucson","State":"AZ","Zip":"85755"},{"Location":"GAP MINISTERY II","Address":"1692 W Sunkiss Rd","City":"Tucson","State":"AZ","Zip":"85755"},{"Location":"GAP MINISTRIES","Address":"14215 N Skyhawk Dr","City":"Tucson","State":"AZ","Zip":"85755"},{"Location":"GAP MINISTRIES","Address":"1698 W Sunkist Rd","City":"Tucson","State":"AZ","Zip":"85755"},{"Location":"GAP MINISTRIES SPLASH 9","Address":"1970 W Lemonwood Rd","City":"Tucson","State":"AZ","Zip":"85755"}]