[{"Location":"ARIZONA PIZZA COMPANY","Address":"4955 N Sabino Canyon Rd","City":"Tucson","State":"AZ","Zip":"85750"},{"Location":"CANYON RANCH","Address":"8600 E Rockcliff Rd 172","City":"Tucson","State":"AZ","Zip":"85750"},{"Location":"CANYON RANCH 2","Address":"8600 E Rockcliff Rd","City":"Tucson","State":"AZ","Zip":"85750"},{"Location":"CANYON RANCH ED EWING","Address":"8602 E Glenview Dr 537","City":"Tucson","State":"AZ","Zip":"85750"},{"Location":"CONNECTIONS COFFEE","Address":"4960 N Fabino Canyon Rd # 160","City":"Tucson","State":"AZ","Zip":"85750"},{"Location":"INCAS PERUVIAN CUSINE","Address":"6878 E Sunrise Dr 130","City":"Tucson","State":"AZ","Zip":"85750"},{"Location":"NAIL TRIX","Address":"5425 N Kolb Rd","City":"Tucson","State":"AZ","Zip":"85750"},{"Location":"RISKY BUSINESS","Address":"6866 E Sunrise Dr","City":"Tucson","State":"AZ","Zip":"85750"},{"Location":"SABINO CANYON TOURS","Address":"5900 N Sabino Canyon Rd","City":"Tucson","State":"AZ","Zip":"85750"},{"Location":"SKYBOX RESTAURANT & BAR","Address":"5605 E River Rd 201","City":"Tucson","State":"AZ","Zip":"85750"},{"Location":"SUSHI YUKARI","Address":"5655 E River Rd 151","City":"Tucson","State":"AZ","Zip":"85750"},{"Location":"THE GREENS 2","Address":"5800 N Kolb Rd","City":"Tucson","State":"AZ","Zip":"85750"},{"Location":"WHOLEFOODS MARKET","Address":"5555 E River Rd","City":"Tucson","State":"AZ","Zip":"85750"}]