[{"Location":"CASINO DEL SOL #1","Address":"5655 W Valencia Rd","City":"Tucson","State":"AZ","Zip":"85757"},{"Location":"CASINO DEL SOL #2","Address":"5655 W Valencia Rd","City":"Tucson","State":"AZ","Zip":"85757"},{"Location":"NPT PARTNERS I LLC","Address":"4960 W Ajo Hwy","City":"Tucson","State":"AZ","Zip":"85757"},{"Location":"PYJC ATTORNEY GENERAL","Address":"7777 S Camino Huivism C","City":"Tucson","State":"AZ","Zip":"85757"},{"Location":"PYJC MOBILE","Address":"7777 S Camino Huivism%2C Mobile","City":"Tucson","State":"AZ","Zip":"85757"},{"Location":"PYJC POLICE DEPARTMENT","Address":"7777 S Camino Huivism A","City":"Tucson","State":"AZ","Zip":"85757"},{"Location":"PYJC PROSECUTOR OFFICE","Address":"7777 S Camino Huivism A2","City":"Tucson","State":"AZ","Zip":"85757"},{"Location":"TINYS","Address":"4900 W Ajo Way","City":"Tucson","State":"AZ","Zip":"85757"},{"Location":"CASINO DEL SOL #1","Address":"5655 W Valencia Rd","City":"Tucson","State":"AZ","Zip":"85757"},{"Location":"CASINO DEL SOL #2","Address":"5655 W Valencia Rd","City":"Tucson","State":"AZ","Zip":"85757"},{"Location":"NPT PARTNERS I LLC","Address":"4960 W Ajo Hwy","City":"Tucson","State":"AZ","Zip":"85757"},{"Location":"PYJC ATTORNEY GENERAL","Address":"7777 S Camino Huivism C","City":"Tucson","State":"AZ","Zip":"85757"},{"Location":"PYJC MOBILE","Address":"7777 S Camino Huivism%2C Mobile","City":"Tucson","State":"AZ","Zip":"85757"},{"Location":"PYJC POLICE DEPARTMENT","Address":"7777 S Camino Huivism A","City":"Tucson","State":"AZ","Zip":"85757"},{"Location":"PYJC PROSECUTOR OFFICE","Address":"7777 S Camino Huivism A2","City":"Tucson","State":"AZ","Zip":"85757"},{"Location":"TINYS","Address":"4900 W Ajo Way","City":"Tucson","State":"AZ","Zip":"85757"}]