[{"Location":"AMERICAN AIRLINES","Address":"7250 S Tucson Blvd","City":"Tucson","State":"AZ","Zip":"85756"},{"Location":"ARIZONA HIDTA CENTER","Address":"6868 S Plumer Ave","City":"Tucson","State":"AZ","Zip":"85756"},{"Location":"ATLANTIC AVIATION TUS","Address":"1921 E Flightline Dr","City":"Tucson","State":"AZ","Zip":"85756"},{"Location":"BOMBARDIER BUSINESS AVIATION","Address":"1255 E Aero Park Blvd S","City":"Tucson","State":"AZ","Zip":"85756"},{"Location":"BORDER INTERNATIONAL1","Address":"6450 E Valencia Rd","City":"Tucson","State":"AZ","Zip":"85756"},{"Location":"CYRACOM ELVIRA RD","Address":"2801 E Elvira Rd","City":"Tucson","State":"AZ","Zip":"85756"},{"Location":"D&K INC","Address":"6251 S Wilmot Rd","City":"Tucson","State":"AZ","Zip":"85756"},{"Location":"DELTA AIRLINES","Address":"7250 S Tucson Blvd 208","City":"Tucson","State":"AZ","Zip":"85756"},{"Location":"DELTA GLOBAL SERVICES","Address":"7250 S Tucson Blvd","City":"Tucson","State":"AZ","Zip":"85756"},{"Location":"DESERT DIAMOND CASINO","Address":"7350 S Nogales Hwy","City":"Tucson","State":"AZ","Zip":"85756"},{"Location":"DOUBLE EAGLE AVIATION","Address":"6961 S Apron Dr","City":"Tucson","State":"AZ","Zip":"85756"},{"Location":"DRUG ENFORCEMENT AD","Address":"6970 S Palo Verde Rd","City":"Tucson","State":"AZ","Zip":"85756"},{"Location":"FEDERAL CORRECTIONAL INST #1","Address":"8901 S Wilmot Rd","City":"Tucson","State":"AZ","Zip":"85756"},{"Location":"FEDERAL CORRECTIONAL INST #2","Address":"8901 S Wilmot Rd","City":"Tucson","State":"AZ","Zip":"85756"},{"Location":"FEDERAL CORRECTIONAL INST #3","Address":"8901 S Wilmot Rd","City":"Tucson","State":"AZ","Zip":"85756"},{"Location":"FEDERAL CORRECTIONAL INST #5","Address":"8901 S Wilmot Rd","City":"Tucson","State":"AZ","Zip":"85756"},{"Location":"FEDERAL CORRECTIONAL INST#4","Address":"8901 S Wilmot Rd","City":"Tucson","State":"AZ","Zip":"85756"},{"Location":"FOUR POINTS SHERATON","Address":"7060 S Tucson Blvd","City":"Tucson","State":"AZ","Zip":"85756"},{"Location":"HILTON GARDEN INN (0060966)","Address":"6575 S Country Club Rd","City":"Tucson","State":"AZ","Zip":"85756"},{"Location":"MANHEIM TUSCON","Address":"7090 S Craycroft Rd","City":"Tucson","State":"AZ","Zip":"85756"},{"Location":"MISSION VIEW CLUB ESTATES","Address":"31 W Los Reales Rd 159","City":"Tucson","State":"AZ","Zip":"85756"},{"Location":"NAFRI USDA FS","Address":"3265 E Universal Way","City":"Tucson","State":"AZ","Zip":"85756"},{"Location":"OTG TUCSON AZ SPORT'S GRILL","Address":"7250 S Tucson Blvd","City":"Tucson","State":"AZ","Zip":"85756"},{"Location":"OTG TUCSON FLYBAR","Address":"7250 S Tucson Blvd 224","City":"Tucson","State":"AZ","Zip":"85756"},{"Location":"OTG TUCSON JET ROCK BAR%2FGRILL","Address":"7250 S Tucson Blvd","City":"Tucson","State":"AZ","Zip":"85756"},{"Location":"PGA TOURS","Address":"7250 S Tucson Blvd","City":"Tucson","State":"AZ","Zip":"85756"},{"Location":"PILOT FLYING J #59300","Address":"5570 E Travel Plaza Way","City":"Tucson","State":"AZ","Zip":"85756"},{"Location":"RATLIFF AVIATION","Address":"6720 S Plumer Ave","City":"Tucson","State":"AZ","Zip":"85756"},{"Location":"RAYCHEON","Address":"1151 E Hermans Rd","City":"Tucson","State":"AZ","Zip":"85756"},{"Location":"RAYTHEON","Address":"1151 E Hermans Rd 845","City":"Tucson","State":"AZ","Zip":"85756"},{"Location":"RAYTHEON","Address":"1151 E Hermans Rd","City":"Tucson","State":"AZ","Zip":"85756"},{"Location":"RAYTHEON FIRE SECURITY STATION","Address":"1151 E Hermans Rd 828-3","City":"Tucson","State":"AZ","Zip":"85756"},{"Location":"RAYTHEON MISSILE SYSTEMS","Address":"1151 E Hermans Rd","City":"Tucson","State":"AZ","Zip":"85756"},{"Location":"RAYTHEON SECURITY","Address":"1151 E Hermans Rd M05","City":"Tucson","State":"AZ","Zip":"85756"},{"Location":"RAYTHEON SYSTEMS","Address":"1151 E Hermans Rd","City":"Tucson","State":"AZ","Zip":"85756"},{"Location":"RAYTHEON WELLNESS CENTER","Address":"1151 E Hermans Rd","City":"Tucson","State":"AZ","Zip":"85756"},{"Location":"SAFE LITE AUTO","Address":"6855 S Lisa Frank Ave A","City":"Tucson","State":"AZ","Zip":"85756"},{"Location":"SIERRA MINING AND CRUSHING","Address":"8665 S Alvernon Way","City":"Tucson","State":"AZ","Zip":"85756"},{"Location":"SONORA DESERT OFF ROAD CENTER","Address":"8500 S Old Nogales Hwy","City":"Tucson","State":"AZ","Zip":"85756"},{"Location":"SOUTHWEST AIR LINES","Address":"7250 S Tucson Blvd","City":"Tucson","State":"AZ","Zip":"85756"},{"Location":"TS69282020000000XXAOXXTUSXTVXX","Address":"7250 S Tucson Blvd","City":"Tucson","State":"AZ","Zip":"85756"},{"Location":"TSA","Address":"7250 S Tucson Blvd","City":"Tucson","State":"AZ","Zip":"85756"},{"Location":"TUCSON AIRPORT","Address":"2821 E Airport Dr","City":"Tucson","State":"AZ","Zip":"85756"},{"Location":"TUCSON AIRPORT AUTHORITY","Address":"7250 S Tucson Blvd","City":"Tucson","State":"AZ","Zip":"85756"},{"Location":"TUCSON AP CY BAR","Address":"2505 E Executive Dr","City":"Tucson","State":"AZ","Zip":"85756"},{"Location":"TUCSON AP CY LOBBY","Address":"2505 E Executive Dr","City":"Tucson","State":"AZ","Zip":"85756"},{"Location":"US CUSTOMS & BORDER PROTECTION","Address":"7150 S Tucson Blvd","City":"Tucson","State":"AZ","Zip":"85756"},{"Location":"VENTANA MEDICAL SYSTEMS","Address":"2201 E Medina Rd","City":"Tucson","State":"AZ","Zip":"85756"},{"Location":"VOYAGER BAR AND GRILL","Address":"8701 S Kolb Rd","City":"Tucson","State":"AZ","Zip":"85756"},{"Location":"ZUCARMEX USA","Address":"6908 E Century Park Dr 100","City":"Tucson","State":"AZ","Zip":"85756"}]