[{"Location":"ALIBERTOS MEXICAN FOOD","Address":"5647 S White Mountain Rd","City":"Show Low","State":"AZ","Zip":"85901"},{"Location":"ANHEUSER-BUSCH WHLSLR #10256B","Address":"4000 E Industrial Loop","City":"Show Low","State":"AZ","Zip":"85901"},{"Location":"ARROWHEAD MOBILE HEALTH CARE","Address":"1000 E Mills","City":"Show Low","State":"AZ","Zip":"85901"},{"Location":"CATTLEMENS STEAKHOUSE","Address":"1261 E Deuce Of Clubs","City":"Show Low","State":"AZ","Zip":"85901"},{"Location":"CINDER MOUNTAIN KENNELS","Address":"1568 Bourdon Ranch Rd","City":"Show Low","State":"AZ","Zip":"85901"},{"Location":"CUSTOM UPHOLSTERY BY JOSE","Address":"145 N White Mountain Rd","City":"Show Low","State":"AZ","Zip":"85901"},{"Location":"DEVINE NAIL AND SPA","Address":"161 E Deuce Of Clubs","City":"Show Low","State":"AZ","Zip":"85901"},{"Location":"ELLIFAM LLC","Address":"4701 Stone Crop Ln","City":"Show Low","State":"AZ","Zip":"85901"},{"Location":"FMC 62600000","Address":"1500 S White Mountain Rd 204","City":"Show Low","State":"AZ","Zip":"85901"},{"Location":"GUARDIAN AIR","Address":"3301 E Airport Loop","City":"Show Low","State":"AZ","Zip":"85901"},{"Location":"NATIVE AIR 9 (N3831)","Address":"2200 East Show Lake Road","City":"Show Low","State":"AZ","Zip":"85901"},{"Location":"NATIVE AIR LG2","Address":"3103 E Airport Loop","City":"Show Low","State":"AZ","Zip":"85901"},{"Location":"NATIVE NEW YORKER #12","Address":"391 W Deuce Of Clubs","City":"Show Low","State":"AZ","Zip":"85901"},{"Location":"NAVAJO COUNTY JAIL SHOW LOW","Address":"251 N Penrod Rd","City":"Show Low","State":"AZ","Zip":"85901"},{"Location":"PAPA JOHNS","Address":"5171 Cub Lake Rd A130","City":"Show Low","State":"AZ","Zip":"85901"},{"Location":"PIZZA FACTORY","Address":"100 N White Mountain Rd","City":"Show Low","State":"AZ","Zip":"85901"},{"Location":"PIZZA HUT 028244","Address":"4460 S White Mountain Rd","City":"Show Low","State":"AZ","Zip":"85901"},{"Location":"ROBERT J BROWNSBERGER MD","Address":"2451 S White Mountain Rd","City":"Show Low","State":"AZ","Zip":"85901"},{"Location":"RTS BLACK BULL","Address":"4481 S White Mountain Rd 2","City":"Show Low","State":"AZ","Zip":"85901"},{"Location":"SHOW LOW REGIONAL AIRPORT","Address":"3150 E Airport Loop Main","City":"Show Low","State":"AZ","Zip":"85901"},{"Location":"TATES BUICK GMC 2","Address":"1151 Automall Parkway","City":"Show Low","State":"AZ","Zip":"85901"},{"Location":"TATES NISSAN","Address":"1251 N Auto Mall Pkwy","City":"Show Low","State":"AZ","Zip":"85901"},{"Location":"TSA SHOW LOW REGIONAL AIRPORT","Address":"3150 E Airport Loop 100","City":"Show Low","State":"AZ","Zip":"85901"},{"Location":"VFW POST 9907","Address":"381 N Central Ave","City":"Show Low","State":"AZ","Zip":"85901"},{"Location":"WHITE MOUNTAIN MOOSE LODGE","Address":"145 N White Mountain Rd E","City":"Show Low","State":"AZ","Zip":"85901"},{"Location":"TORREON GOLF CLUB","Address":"2400 Buckthorn Lane","City":"Showlow","State":"AZ","Zip":"85901"},{"Location":"ALIBERTOS MEXICAN FOOD","Address":"5647 S White Mountain Rd","City":"Show Low","State":"AZ","Zip":"85901"},{"Location":"ANHEUSER-BUSCH WHLSLR #10256B","Address":"4000 E Industrial Loop","City":"Show Low","State":"AZ","Zip":"85901"},{"Location":"ARROWHEAD MOBILE HEALTH CARE","Address":"1000 E Mills","City":"Show Low","State":"AZ","Zip":"85901"},{"Location":"CATTLEMENS STEAKHOUSE","Address":"1261 E Deuce Of Clubs","City":"Show Low","State":"AZ","Zip":"85901"},{"Location":"CINDER MOUNTAIN KENNELS","Address":"1568 Bourdon Ranch Rd","City":"Show Low","State":"AZ","Zip":"85901"},{"Location":"CUSTOM UPHOLSTERY BY JOSE","Address":"145 N White Mountain Rd","City":"Show Low","State":"AZ","Zip":"85901"},{"Location":"DEVINE NAIL AND SPA","Address":"161 E Deuce Of Clubs","City":"Show Low","State":"AZ","Zip":"85901"},{"Location":"ELLIFAM LLC","Address":"4701 Stone Crop Ln","City":"Show Low","State":"AZ","Zip":"85901"},{"Location":"FMC 62600000","Address":"1500 S White Mountain Rd 204","City":"Show Low","State":"AZ","Zip":"85901"},{"Location":"GUARDIAN AIR","Address":"3301 E Airport Loop","City":"Show Low","State":"AZ","Zip":"85901"},{"Location":"NATIVE AIR 9 (N3831)","Address":"2200 East Show Lake Road","City":"Show Low","State":"AZ","Zip":"85901"},{"Location":"NATIVE AIR LG2","Address":"3103 E Airport Loop","City":"Show Low","State":"AZ","Zip":"85901"},{"Location":"NATIVE NEW YORKER #12","Address":"391 W Deuce Of Clubs","City":"Show Low","State":"AZ","Zip":"85901"},{"Location":"NAVAJO COUNTY JAIL SHOW LOW","Address":"251 N Penrod Rd","City":"Show Low","State":"AZ","Zip":"85901"},{"Location":"PAPA JOHNS","Address":"5171 Cub Lake Rd A130","City":"Show Low","State":"AZ","Zip":"85901"},{"Location":"PIZZA FACTORY","Address":"100 N White Mountain Rd","City":"Show Low","State":"AZ","Zip":"85901"},{"Location":"PIZZA HUT 028244","Address":"4460 S White Mountain Rd","City":"Show Low","State":"AZ","Zip":"85901"},{"Location":"ROBERT J BROWNSBERGER MD","Address":"2451 S White Mountain Rd","City":"Show Low","State":"AZ","Zip":"85901"},{"Location":"RTS BLACK BULL","Address":"4481 S White Mountain Rd 2","City":"Show Low","State":"AZ","Zip":"85901"},{"Location":"SHOW LOW REGIONAL AIRPORT","Address":"3150 E Airport Loop Main","City":"Show Low","State":"AZ","Zip":"85901"},{"Location":"TATES BUICK GMC 2","Address":"1151 Automall Parkway","City":"Show Low","State":"AZ","Zip":"85901"},{"Location":"TATES NISSAN","Address":"1251 N Auto Mall Pkwy","City":"Show Low","State":"AZ","Zip":"85901"},{"Location":"TSA SHOW LOW REGIONAL AIRPORT","Address":"3150 E Airport Loop 100","City":"Show Low","State":"AZ","Zip":"85901"},{"Location":"VFW POST 9907","Address":"381 N Central Ave","City":"Show Low","State":"AZ","Zip":"85901"},{"Location":"WHITE MOUNTAIN MOOSE LODGE","Address":"145 N White Mountain Rd E","City":"Show Low","State":"AZ","Zip":"85901"},{"Location":"TORREON GOLF CLUB","Address":"2400 Buckthorn Lane","City":"Showlow","State":"AZ","Zip":"85901"}]