[{"Location":"SPORTSTMANS","Address":"42627 Us Hwy 180","City":"Alpine","State":"AZ","Zip":"85920"},{"Location":"TALWIWI","Address":"40 County Rd 2220","City":"Alpine","State":"AZ","Zip":"85920"},{"Location":"THE TACKLE SHOP","Address":"25373 Highway 191","City":"Alpine","State":"AZ","Zip":"85920"},{"Location":"ALPINE GRILL","Address":"42649 Highway 180","City":"Alpine Grill","State":"AZ","Zip":"85920"},{"Location":"SPORTSTMANS","Address":"42627 Us Hwy 180","City":"Alpine","State":"AZ","Zip":"85920"},{"Location":"TAL  WI WI","Address":"40 County Rd 2220 #5","City":"Alpine","State":"AZ","Zip":"85920"},{"Location":"TAL WI WI","Address":"40 County Rd 2220 #c","City":"Alpine","State":"AZ","Zip":"85920"},{"Location":"TAL WI WI LODGE","Address":"40 County Rd 2220 #d","City":"Alpine","State":"AZ","Zip":"85920"},{"Location":"TALWIWI","Address":"40 County Rd 2220","City":"Alpine","State":"AZ","Zip":"85920"},{"Location":"TALWIWI","Address":"40 County Rd 2220 #b","City":"Alpine","State":"AZ","Zip":"85920"},{"Location":"TALWIWI LODGE","Address":"40 County Rd 2220","City":"Alpine","State":"AZ","Zip":"85920"},{"Location":"THE TACKLE SHOP","Address":"25373 Highway 191","City":"Alpine","State":"AZ","Zip":"85920"},{"Location":"ALPINE GRILL","Address":"42649 Highway 180","City":"Alpine Grill","State":"AZ","Zip":"85920"}]