[{"Location":"THE RANCH AT SOUTH FORK","Address":"93 And Country Rd 4124","City":"Eager","State":"AZ","Zip":"85927"},{"Location":"EAST FORK CABINS","Address":"63 East Fork Rd","City":"Greer","State":"AZ","Zip":"85927"},{"Location":"GREER LODGE","Address":"28 Main St","City":"Greer","State":"AZ","Zip":"85927"},{"Location":"GREER LODGE 1","Address":"80 Main St","City":"Greer","State":"AZ","Zip":"85927"},{"Location":"GREER LODGE 2","Address":"80 Main St","City":"Greer","State":"AZ","Zip":"85927"},{"Location":"GREER LODGE 3","Address":"82 Main St","City":"Greer","State":"AZ","Zip":"85927"},{"Location":"GREER LODGE 4","Address":"44 Main St","City":"Greer","State":"AZ","Zip":"85927"},{"Location":"GREER LODGE 6","Address":"28 Main St  #90","City":"Greer","State":"AZ","Zip":"85927"},{"Location":"SOUTH FORK PROPERTIES","Address":"Cr4214 Cr4036","City":"Greer","State":"AZ","Zip":"85927"},{"Location":"THE ASPEN CABINS LLC","Address":"56 Wiltbank","City":"Greer","State":"AZ","Zip":"85927"},{"Location":"THE RANCH AT SOUTH FORK","Address":"93 And Country Rd 4124","City":"Eager","State":"AZ","Zip":"85927"},{"Location":"EAST FORK CABINS","Address":"63 East Fork Rd","City":"Greer","State":"AZ","Zip":"85927"},{"Location":"GREER LODGE","Address":"28 Main St","City":"Greer","State":"AZ","Zip":"85927"},{"Location":"GREER LODGE 1","Address":"80 Main St","City":"Greer","State":"AZ","Zip":"85927"},{"Location":"GREER LODGE 2","Address":"80 Main St","City":"Greer","State":"AZ","Zip":"85927"},{"Location":"GREER LODGE 3","Address":"82 Main St","City":"Greer","State":"AZ","Zip":"85927"},{"Location":"GREER LODGE 4","Address":"44 Main St","City":"Greer","State":"AZ","Zip":"85927"},{"Location":"GREER LODGE 6","Address":"28 Main St  #90","City":"Greer","State":"AZ","Zip":"85927"},{"Location":"SOUTH FORK PROPERTIES","Address":"Cr4214 Cr4036","City":"Greer","State":"AZ","Zip":"85927"},{"Location":"THE ASPEN CABINS LLC","Address":"56 Wiltbank","City":"Greer","State":"AZ","Zip":"85927"}]