[{"Location":"AL AND DIANES RED ONION LOUNGE","Address":"1931 Hwy 260","City":"Overgaard","State":"AZ","Zip":"85933"},{"Location":"AMERICAN LEGION 86","Address":"2068 Lumber Valley Rd","City":"Overgaard","State":"AZ","Zip":"85933"},{"Location":"PINE MEADOWS COUNTRY CLUB","Address":"2209 Country Club Dr","City":"Overgaard","State":"AZ","Zip":"85933"},{"Location":"SUES PIZZA TIME","Address":"2767 Hwy 260","City":"Overgaard","State":"AZ","Zip":"85933"},{"Location":"TOP OF THE RIM EAGLE","Address":"2023 N State Highway 277","City":"Overgaard","State":"AZ","Zip":"85933"},{"Location":"BEAR COUNTRY RANCH LLC","Address":"2745 State Highway 260","City":"Overguard","State":"AZ","Zip":"85933"},{"Location":"AL AND DIANES RED ONION LOUNGE","Address":"1931 Hwy 260","City":"Overgaard","State":"AZ","Zip":"85933"},{"Location":"AMERICAN LEGION 86","Address":"2068 Lumber Valley Rd","City":"Overgaard","State":"AZ","Zip":"85933"},{"Location":"PINE MEADOWS COUNTRY CLUB","Address":"2209 Country Club Dr","City":"Overgaard","State":"AZ","Zip":"85933"},{"Location":"SUES PIZZA TIME","Address":"2767 Hwy 260","City":"Overgaard","State":"AZ","Zip":"85933"},{"Location":"TOP OF THE RIM EAGLE","Address":"2023 N State Highway 277","City":"Overgaard","State":"AZ","Zip":"85933"},{"Location":"BEAR COUNTRY RANCH LLC","Address":"2745 State Highway 260","City":"Overguard","State":"AZ","Zip":"85933"}]