[{"Location":"AMERICAN LEGION","Address":"825 E Main St","City":"Springerville","State":"AZ","Zip":"85938"},{"Location":"AVERYS","Address":"262 W Main St","City":"Springerville","State":"AZ","Zip":"85938"},{"Location":"BILTMORE PROPRIETIES INC","Address":"360 S Papago St","City":"Springerville","State":"AZ","Zip":"85938"},{"Location":"CASA MALPAIS","Address":"272 W Main St","City":"Springerville","State":"AZ","Zip":"85938"},{"Location":"CORRAL MOTEL","Address":"433 E Main St","City":"Springerville","State":"AZ","Zip":"85938"},{"Location":"GOOBS PIZZA","Address":"211 S Mountain Ave","City":"Springerville","State":"AZ","Zip":"85938"},{"Location":"HENRYS BARBER SHOP","Address":"11 E Main St","City":"Springerville","State":"AZ","Zip":"85938"},{"Location":"LOS DOS MOLINOS","Address":"900 E Main St","City":"Springerville","State":"AZ","Zip":"85938"},{"Location":"RUSTYS MEAT SHOP 1","Address":"19 S Mountain Ave","City":"Springerville","State":"AZ","Zip":"85938"},{"Location":"SPRINGERVILLE PARTNER","Address":"1203 E Main St","City":"Springerville","State":"AZ","Zip":"85938"},{"Location":"XA SALOON & DANCE","Address":"18 W Main St","City":"Springerville","State":"AZ","Zip":"85938"}]