[{"Location":"THE GROVE AT FLAGGSTAFF-OFFICE","Address":"1000 E Sawmill Rd","City":"Flaggstaff","State":"AZ","Zip":"86001"},{"Location":"2ND CHANZS","Address":"1214 E Jen Dr","City":"Flagstaff","State":"AZ","Zip":"86001"},{"Location":"AGAVE","Address":"1580 E Route 66","City":"Flagstaff","State":"AZ","Zip":"86001"},{"Location":"ALLIANCE BANK OF ARIZONA","Address":"501 E Butler Ave","City":"Flagstaff","State":"AZ","Zip":"86001"},{"Location":"AMTRACK","Address":"1 E Route 66","City":"Flagstaff","State":"AZ","Zip":"86001"},{"Location":"ANHEUSER-BUSCH WHLSLR #10216","Address":"1850 E Butler Ave","City":"Flagstaff","State":"AZ","Zip":"86001"},{"Location":"ARIZONA DAILY SUN","Address":"1751 S Thompson St","City":"Flagstaff","State":"AZ","Zip":"86001"},{"Location":"ARIZONA SNOWBOWL RESORT","Address":"Hwy 180 At Snowbowl","City":"Flagstaff","State":"AZ","Zip":"86001"},{"Location":"ARIZONA STATE CREDIT UNION #16","Address":"321 S Beaver St","City":"Flagstaff","State":"AZ","Zip":"86001"},{"Location":"ATF","Address":"345 S River Run Rd 210","City":"Flagstaff","State":"AZ","Zip":"86001"},{"Location":"BEAVER STREET BREWERY","Address":"11 S Beaver St","City":"Flagstaff","State":"AZ","Zip":"86001"},{"Location":"BUFFALO WILD WINGS #3176","Address":"2700 S Woodlands Village Blvd 550","City":"Flagstaff","State":"AZ","Zip":"86001"},{"Location":"BUN HUGGERS","Address":"901 S Milton Rd A","City":"Flagstaff","State":"AZ","Zip":"86001"},{"Location":"BURGER KING 2","Address":"1651 S Milton Rd","City":"Flagstaff","State":"AZ","Zip":"86001"},{"Location":"BUSTERS","Address":"1800 S Milton Rd","City":"Flagstaff","State":"AZ","Zip":"86001"},{"Location":"CHARLIES PUB AND GRILL","Address":"23 N Leroux St","City":"Flagstaff","State":"AZ","Zip":"86001"},{"Location":"CHEBA HUT","Address":"1411 S Milton Rd","City":"Flagstaff","State":"AZ","Zip":"86001"},{"Location":"CHILI'S #0416","Address":"1500 S Milton Rd","City":"Flagstaff","State":"AZ","Zip":"86001"},{"Location":"COCONINO NATIONAL FOREST","Address":"1824 S Thompson St","City":"Flagstaff","State":"AZ","Zip":"86001"},{"Location":"COLLINS IRISH PUB & EATERY","Address":"2 N Leroux St","City":"Flagstaff","State":"AZ","Zip":"86001"},{"Location":"COUNTRY HOST RESTAURANT","Address":"2700 S Woodlands Village Blvd 620","City":"Flagstaff","State":"AZ","Zip":"86001"},{"Location":"CUVEE 928","Address":"6 E Aspen Ave 110","City":"Flagstaff","State":"AZ","Zip":"86001"},{"Location":"DIABLO BURGER","Address":"120 N Leroux St 111s","City":"Flagstaff","State":"AZ","Zip":"86001"},{"Location":"DORADOS","Address":"103 N Leroux St","City":"Flagstaff","State":"AZ","Zip":"86001"},{"Location":"ECONO LODGE MILTON","Address":"914 S Milton Rd","City":"Flagstaff","State":"AZ","Zip":"86001"},{"Location":"EL CAPITAN FRESH MEXICAN GRILL","Address":"1800 S Milton Rd","City":"Flagstaff","State":"AZ","Zip":"86001"},{"Location":"FIELD HOUSE","Address":"2500 S Woolland Village Blvd","City":"Flagstaff","State":"AZ","Zip":"86001"},{"Location":"FIELD RESTAURANT","Address":"2420 S Woodlands Village Blvd","City":"Flagstaff","State":"AZ","Zip":"86001"},{"Location":"FLAGSTAFF BUICK GMC","Address":"361 N Switzer Canyon Dr","City":"Flagstaff","State":"AZ","Zip":"86001"},{"Location":"FLAGSTAFF KINLANI BORDERTOWN","Address":"901 N Kinlani Dr","City":"Flagstaff","State":"AZ","Zip":"86001"},{"Location":"FLAGSTAFF MASONIC LODGE","Address":"107 E Birch Ave","City":"Flagstaff","State":"AZ","Zip":"86001"},{"Location":"FLAGSTAFF SPORTSMAN","Address":"1000 N Humphreys St 98","City":"Flagstaff","State":"AZ","Zip":"86001"},{"Location":"FLAGSTAFF SURGICAL","Address":"77 W Forest Ave 201","City":"Flagstaff","State":"AZ","Zip":"86001"},{"Location":"FOREST HIGHLANDS","Address":"1001 Len Huck","City":"Flagstaff","State":"AZ","Zip":"86001"},{"Location":"FRATELLI PIZZA","Address":"119 W Phoenix Ave","City":"Flagstaff","State":"AZ","Zip":"86001"},{"Location":"FRONT DOOR REALTY","Address":"914 N San Francisco St Suita","City":"Flagstaff","State":"AZ","Zip":"86001"},{"Location":"GRANNY'S CLOSET","Address":"218 S Milton Rd","City":"Flagstaff","State":"AZ","Zip":"86001"},{"Location":"HICKORYS","Address":"1435 S Milton Rd","City":"Flagstaff","State":"AZ","Zip":"86001"},{"Location":"HIGHER GROUNDS COFFEE HO","Address":"2 S Beaver St 170","City":"Flagstaff","State":"AZ","Zip":"86001"},{"Location":"HILLSIDE STRONE LLC","Address":"7494 W Private Pine Mountain R","City":"Flagstaff","State":"AZ","Zip":"86001"},{"Location":"HILTON WORLDWIDE FLAGSTAFF","Address":"1175 W Route 66","City":"Flagstaff","State":"AZ","Zip":"86001"},{"Location":"HIMALAYAN GRILL","Address":"801 S Milton Ave","City":"Flagstaff","State":"AZ","Zip":"86001"},{"Location":"HOPS ON BIRCH","Address":"22 E Birch Ave 2","City":"Flagstaff","State":"AZ","Zip":"86001"},{"Location":"HOT WOK","Address":"1451 S Milton Rd","City":"Flagstaff","State":"AZ","Zip":"86001"},{"Location":"HOWARD JOHNSON INN","Address":"801 W Route 66","City":"Flagstaff","State":"AZ","Zip":"86001"},{"Location":"HSI","Address":"1801 W Route 66 125","City":"Flagstaff","State":"AZ","Zip":"86001"},{"Location":"INTERNATIONAL INSURANCE","Address":"214 E Birch Ave","City":"Flagstaff","State":"AZ","Zip":"86001"},{"Location":"KOHLS 10659","Address":"500 W Forest Meadows St","City":"Flagstaff","State":"AZ","Zip":"86001"},{"Location":"LITTLE THAI KITCHEN","Address":"1051 S Milton Rd D","City":"Flagstaff","State":"AZ","Zip":"86001"},{"Location":"LOUIES CHICKEN SHACK","Address":"1501 S Milton Rd","City":"Flagstaff","State":"AZ","Zip":"86001"},{"Location":"LUMBERYARD BREWING COMPANY","Address":"5 S San Francisco St","City":"Flagstaff","State":"AZ","Zip":"86001"},{"Location":"LUPO'S HORSEMEN LODGE & RESTAURANT","Address":"8500 N Highway 89","City":"Flagstaff","State":"AZ","Zip":"86001"},{"Location":"LUPO%3FS HORSEMEN LODGE & RESTAURANT","Address":"8500 N Highway 89","City":"Flagstaff","State":"AZ","Zip":"86001"},{"Location":"MAJERLES","Address":"102 E Route 66","City":"Flagstaff","State":"AZ","Zip":"86001"},{"Location":"MALONEY'S TAVERN","Address":"101 N Leroux St","City":"Flagstaff","State":"AZ","Zip":"86001"},{"Location":"MD 1260 N OP COMM","Address":"1100 W Kaibab Ln","City":"Flagstaff","State":"AZ","Zip":"86001"},{"Location":"MIRAMONTE HOLDINGS  LLC","Address":"102 S Mikes Pike","City":"Flagstaff","State":"AZ","Zip":"86001"},{"Location":"MONSOON BISTRO","Address":"6 E Aspen Ave 100","City":"Flagstaff","State":"AZ","Zip":"86001"},{"Location":"MOUNTAINS HEART","Address":"2000 S Thompson St","City":"Flagstaff","State":"AZ","Zip":"86001"},{"Location":"NATIVE NEW YORKER","Address":"1900 S Milton Rd","City":"Flagstaff","State":"AZ","Zip":"86001"},{"Location":"NI MARCOS PIZZA","Address":"1800 S Milton Rd","City":"Flagstaff","State":"AZ","Zip":"86001"},{"Location":"NIMARCOS PIZZA","Address":"101 S Beaver St","City":"Flagstaff","State":"AZ","Zip":"86001"},{"Location":"NORTH ARIZONA SURGERY CENTER","Address":"1020 N N San Francisco St Ste 1","City":"Flagstaff","State":"AZ","Zip":"86001"},{"Location":"NORTHERN ARIZONA GASTROE","Address":"77 W Forest Ave 210","City":"Flagstaff","State":"AZ","Zip":"86001"},{"Location":"NORTHERN AZ RADIOLOGY IMAGING","Address":"77 W Forest Ave 101","City":"Flagstaff","State":"AZ","Zip":"86001"},{"Location":"OXENDALE HYUNDAI","Address":"1160 W Route 66","City":"Flagstaff","State":"AZ","Zip":"86001"},{"Location":"OXENDALE KIA","Address":"1050 W Route 66","City":"Flagstaff","State":"AZ","Zip":"86001"},{"Location":"PAY N TAKE LLC","Address":"12 W Aspen Ave","City":"Flagstaff","State":"AZ","Zip":"86001"},{"Location":"PETER PIPER PIZZA # 249","Address":"1550 S Riodan Ranch","City":"Flagstaff","State":"AZ","Zip":"86001"},{"Location":"PIZZA HUT #7","Address":"1860 S Milton Rd","City":"Flagstaff","State":"AZ","Zip":"86001"},{"Location":"RALBERTO MEXICAN FOOD","Address":"1051 S Milton Rd","City":"Flagstaff","State":"AZ","Zip":"86001"},{"Location":"RED LOBSTER #0845","Address":"2500 S Beulah Blvd","City":"Flagstaff","State":"AZ","Zip":"86001"},{"Location":"ROBERT MAHANTI MD","Address":"900 N San Francisco St","City":"Flagstaff","State":"AZ","Zip":"86001"},{"Location":"SAM'S CLUB","Address":"1851 E Butler Ave","City":"Flagstaff","State":"AZ","Zip":"86001"},{"Location":"SHARKEYS HAIR IT IS","Address":"2500 S Woodlands Village Blvd","City":"Flagstaff","State":"AZ","Zip":"86001"},{"Location":"SIZZLER 2105","Address":"2105 S Milton Rd","City":"Flagstaff","State":"AZ","Zip":"86001"},{"Location":"SKI LIFT LODGE RESTAURANT","Address":"6355 West Hwy 180","City":"Flagstaff","State":"AZ","Zip":"86001"},{"Location":"SUBWAY 62014","Address":"1304 S Plaza Way 19","City":"Flagstaff","State":"AZ","Zip":"86001"},{"Location":"SUNSHINE RESCUE MISSION","Address":"3 E Cottage Ave","City":"Flagstaff","State":"AZ","Zip":"86001"},{"Location":"SWAEDEE THAI","Address":"115 E Aspen Ave","City":"Flagstaff","State":"AZ","Zip":"86001"},{"Location":"TACOS LOS ALTOS","Address":"2500 S Woodlands Village Blvd 1","City":"Flagstaff","State":"AZ","Zip":"86001"},{"Location":"TANNING TIME SALON & BARBER","Address":"1800 S Milton Rd 17","City":"Flagstaff","State":"AZ","Zip":"86001"},{"Location":"THE GREEN ROOM","Address":"15 N Agassiz St","City":"Flagstaff","State":"AZ","Zip":"86001"},{"Location":"THE MCMILLAN","Address":"2 W Route 66","City":"Flagstaff","State":"AZ","Zip":"86001"},{"Location":"VFW POST 1709","Address":"409 W Santa Fe Ave","City":"Flagstaff","State":"AZ","Zip":"86001"}]