[{"Location":"FBI","Address":"5900 S Pulliam Dr","City":"Flagstaff","State":"AZ","Zip":"86005"},{"Location":"FLAGSTAFF  RANCH GOLFCLUB","Address":"3850 S Lariat Loop","City":"Flagstaff","State":"AZ","Zip":"86005"},{"Location":"FOREST HIGHLANDS","Address":"2425 William Palmer","City":"Flagstaff","State":"AZ","Zip":"86005"},{"Location":"FOREST RIDGE APARTMENT","Address":"3720 S Yaqui Dr","City":"Flagstaff","State":"AZ","Zip":"86005"},{"Location":"GUARDIAN AIR","Address":"6639 S Piper Ln","City":"Flagstaff","State":"AZ","Zip":"86005"},{"Location":"HAYDON BUILDING CORP","Address":"813 W Coy Dr","City":"Flagstaff","State":"AZ","Zip":"86005"},{"Location":"PINE CANYON CLUB","Address":"3000 S Clubhouse Cir","City":"Flagstaff","State":"AZ","Zip":"86005"},{"Location":"PINE CANYON CLUB #2","Address":"3000 S Clubhouse Cir","City":"Flagstaff","State":"AZ","Zip":"86005"},{"Location":"PINE CANYON MANAGEMENT LLC","Address":"2618 S Bluebird Ct","City":"Flagstaff","State":"AZ","Zip":"86005"},{"Location":"PINE CANYON REALTY","Address":"1201 E John Wesley Powell Blv","City":"Flagstaff","State":"AZ","Zip":"86005"},{"Location":"TS7054202000000XXAOXXFLGXTVXX","Address":"6200 S Pulliam Dr 112","City":"Flagstaff","State":"AZ","Zip":"86005"},{"Location":"FBI","Address":"5900 S Pulliam Dr","City":"Flagstaff","State":"AZ","Zip":"86005"},{"Location":"FLAGSTAFF  RANCH GOLFCLUB","Address":"3850 S Lariat Loop","City":"Flagstaff","State":"AZ","Zip":"86005"},{"Location":"FOREST HIGHLANDS","Address":"2425 William Palmer","City":"Flagstaff","State":"AZ","Zip":"86005"},{"Location":"FOREST RIDGE APARTMENT","Address":"3720 S Yaqui Dr","City":"Flagstaff","State":"AZ","Zip":"86005"},{"Location":"GUARDIAN AIR","Address":"6639 S Piper Ln","City":"Flagstaff","State":"AZ","Zip":"86005"},{"Location":"HAYDON BUILDING CORP","Address":"813 W Coy Dr","City":"Flagstaff","State":"AZ","Zip":"86005"},{"Location":"PINE CANYON CLUB","Address":"3000 S Clubhouse Cir","City":"Flagstaff","State":"AZ","Zip":"86005"},{"Location":"PINE CANYON CLUB #2","Address":"3000 S Clubhouse Cir","City":"Flagstaff","State":"AZ","Zip":"86005"},{"Location":"PINE CANYON MANAGEMENT LLC","Address":"2618 S Bluebird Ct","City":"Flagstaff","State":"AZ","Zip":"86005"},{"Location":"PINE CANYON REALTY","Address":"1201 E John Wesley Powell Blv","City":"Flagstaff","State":"AZ","Zip":"86005"},{"Location":"TS7054202000000XXAOXXFLGXTVXX","Address":"6200 S Pulliam Dr 112","City":"Flagstaff","State":"AZ","Zip":"86005"}]