[{"Location":"ABSOLUTE TRANSMISSIONS","Address":"7720 E Gemini Dr","City":"Flagstaff","State":"AZ","Zip":"86004"},{"Location":"ARIZONA STATE CREDIT UNION #17","Address":"5200 North Highway 89","City":"Flagstaff","State":"AZ","Zip":"86004"},{"Location":"ARROW HEAD LODGE","Address":"2010 E Route 66","City":"Flagstaff","State":"AZ","Zip":"86004"},{"Location":"ASPEN VALLEY","Address":"1855 N Continental Dr","City":"Flagstaff","State":"AZ","Zip":"86004"},{"Location":"COMPETITION AUTO SUPERCENTER","Address":"3775 E Huntington Dr","City":"Flagstaff","State":"AZ","Zip":"86004"},{"Location":"CONTINENTAL COUNTRY CLUB","Address":"2380 N Oakmont Dr","City":"Flagstaff","State":"AZ","Zip":"86004"},{"Location":"CUTIE NAIL SPA","Address":"3502 E Route 66 101","City":"Flagstaff","State":"AZ","Zip":"86004"},{"Location":"DEPENDABLE PROPERTY MANAGEMENT","Address":"2049 N Country Club Dr","City":"Flagstaff","State":"AZ","Zip":"86004"},{"Location":"EAGLE MTN. CONST. CO.%2C INC.","Address":"3100 N Caden Ct","City":"Flagstaff","State":"AZ","Zip":"86004"},{"Location":"ESTRELLA LAUNDRY","Address":"1800 N Main St","City":"Flagstaff","State":"AZ","Zip":"86004"},{"Location":"EXPRESS INVESTMENTS LLC","Address":"2050 South River Valley Drive","City":"Flagstaff","State":"AZ","Zip":"86004"},{"Location":"FLAG TRUCK CENTER","Address":"4200 E Route 66","City":"Flagstaff","State":"AZ","Zip":"86004"},{"Location":"FLAGGSTAFF KOA CAMPGROUND","Address":"5803 N Us Highway 89","City":"Flagstaff","State":"AZ","Zip":"86004"},{"Location":"FLAGSTAFF MOTORS","Address":"5199 N Test Dr Ut","City":"Flagstaff","State":"AZ","Zip":"86004"},{"Location":"FOR FUN AND FOR FREE","Address":"3801 N Fanning Dr","City":"Flagstaff","State":"AZ","Zip":"86004"},{"Location":"FRATELLI PIZZA","Address":"2120 N 4th St","City":"Flagstaff","State":"AZ","Zip":"86004"},{"Location":"GOLDEN DRAGON","Address":"2730 E Lakin Dr","City":"Flagstaff","State":"AZ","Zip":"86004"},{"Location":"HERCULES INDUSTRIES","Address":"1925 E Huntington Dr","City":"Flagstaff","State":"AZ","Zip":"86004"},{"Location":"HORSEMANS LODGE","Address":"8500 N Highway 89","City":"Flagstaff","State":"AZ","Zip":"86004"},{"Location":"KINGSMARKS KENNELS","Address":"7155 Kavanagh Way","City":"Flagstaff","State":"AZ","Zip":"86004"},{"Location":"KUTTZ BARBERSHOP","Address":"1905 E 6th Ave","City":"Flagstaff","State":"AZ","Zip":"86004"},{"Location":"LA FONDA","Address":"1900 N 2nd St","City":"Flagstaff","State":"AZ","Zip":"86004"},{"Location":"LIBERTY DIALYSIS FLAGSTA","Address":"2268 N Walgreens St","City":"Flagstaff","State":"AZ","Zip":"86004"},{"Location":"LITTLE AMERICA FLAGSTAFF","Address":"2515 E Butler Ave","City":"Flagstaff","State":"AZ","Zip":"86004"},{"Location":"NIELSEN MEDIA","Address":"1602 N East St","City":"Flagstaff","State":"AZ","Zip":"86004"},{"Location":"NORTHLAND  BEVERAGE","Address":"3825 E Huntington Dr","City":"Flagstaff","State":"AZ","Zip":"86004"},{"Location":"OUTBACK STEAKHOUSE #0317","Address":"2600 E Lucky Ln","City":"Flagstaff","State":"AZ","Zip":"86004"},{"Location":"P AND M TRAILER SALES","Address":"7899 N Us Highway 89","City":"Flagstaff","State":"AZ","Zip":"86004"},{"Location":"PIZZA HUT #22","Address":"4429 North Highway 89","City":"Flagstaff","State":"AZ","Zip":"86004"},{"Location":"PORKYS PUB","Address":"2285 E Butler Ave","City":"Flagstaff","State":"AZ","Zip":"86004"},{"Location":"RODEWAY INN","Address":"2285 E Butler Ave","City":"Flagstaff","State":"AZ","Zip":"86004"},{"Location":"RUSH TRUCK CENTER","Address":"2620 E Huntington Dr","City":"Flagstaff","State":"AZ","Zip":"86004"},{"Location":"SAFELITE AUTOGLASS","Address":"2421 N 4th St 10046","City":"Flagstaff","State":"AZ","Zip":"86004"},{"Location":"SAFEWAY 0270","Address":"4910 N Us Highway 89","City":"Flagstaff","State":"AZ","Zip":"86004"},{"Location":"SAFEWAY 1225","Address":"1500 E Cedar Ave","City":"Flagstaff","State":"AZ","Zip":"86004"},{"Location":"SIZZLER 792","Address":"3540 E Route 66","City":"Flagstaff","State":"AZ","Zip":"86004"},{"Location":"STARLITE HOLDINGS","Address":"3406 E Route 66","City":"Flagstaff","State":"AZ","Zip":"86004"},{"Location":"STRING WESTERN STAR","Address":"4201 E Huntington Dr","City":"Flagstaff","State":"AZ","Zip":"86004"},{"Location":"SUBWAY #15332","Address":"1500 E Cedar Ave 48","City":"Flagstaff","State":"AZ","Zip":"86004"},{"Location":"SUMMIT FIRE DISRICT THIRTY TWO","Address":"8905 Koch Field Rd","City":"Flagstaff","State":"AZ","Zip":"86004"},{"Location":"THE GUIDANCE CENTER","Address":"2187 N Vickey St","City":"Flagstaff","State":"AZ","Zip":"86004"},{"Location":"THE PLACE MIKE AND RHOND","Address":"3518 E Route 66 107","City":"Flagstaff","State":"AZ","Zip":"86004"},{"Location":"TIMBERLINE TAVERN","Address":"9001 N Us Highway 89","City":"Flagstaff","State":"AZ","Zip":"86004"},{"Location":"TWIN ARROWS CASINO","Address":"22181 Resort Blvd Exit 219","City":"Flagstaff","State":"AZ","Zip":"86004"},{"Location":"TWIN ARROWS FIRE DEPT","Address":"22181 Resort Blvd","City":"Flagstaff","State":"AZ","Zip":"86004"},{"Location":"VILLAGE INN 110138","Address":"3715 N Kasper Ave","City":"Flagstaff","State":"AZ","Zip":"86004"},{"Location":"WALGREENS ARIZONA DRUG CO","Address":"2400 N Walgreens St","City":"Flagstaff","State":"AZ","Zip":"86004"},{"Location":"ARIZONA STATE CREDIT UNION #17","Address":"5200 North Highway 89","City":"Flagstaff","State":"AZ","Zip":"86004"},{"Location":"ARROW HEAD LODGE","Address":"2010 E Route 66","City":"Flagstaff","State":"AZ","Zip":"86004"},{"Location":"ASPEN VALLEY","Address":"1855 N Continental Dr","City":"Flagstaff","State":"AZ","Zip":"86004"},{"Location":"COMPETITION AUTO SUPERCENTER","Address":"3775 E Huntington Dr","City":"Flagstaff","State":"AZ","Zip":"86004"},{"Location":"CONTINENTAL COUNTRY CLUB","Address":"2380 N Oakmont Dr","City":"Flagstaff","State":"AZ","Zip":"86004"},{"Location":"CUTIE NAIL SPA","Address":"3502 E Route 66 101","City":"Flagstaff","State":"AZ","Zip":"86004"},{"Location":"DEPENDABLE PROPERTY MANAGEMENT","Address":"2049 N Country Club Dr","City":"Flagstaff","State":"AZ","Zip":"86004"},{"Location":"EAGLE MTN. CONST. CO.%2C INC.","Address":"3100 N Caden Ct","City":"Flagstaff","State":"AZ","Zip":"86004"},{"Location":"ESTRELLA LAUNDRY","Address":"1800 N Main St","City":"Flagstaff","State":"AZ","Zip":"86004"},{"Location":"EXPRESS INVESTMENTS LLC","Address":"2050 South River Valley Drive","City":"Flagstaff","State":"AZ","Zip":"86004"},{"Location":"FLAG TRUCK CENTER","Address":"4200 E Route 66","City":"Flagstaff","State":"AZ","Zip":"86004"},{"Location":"FLAGGSTAFF KOA CAMPGROUND","Address":"5803 N Us Highway 89","City":"Flagstaff","State":"AZ","Zip":"86004"},{"Location":"FLAGSTAFF MOTORS","Address":"5199 N Test Dr Ut","City":"Flagstaff","State":"AZ","Zip":"86004"},{"Location":"FOR FUN AND FOR FREE","Address":"3801 N Fanning Dr","City":"Flagstaff","State":"AZ","Zip":"86004"},{"Location":"FRATELLI PIZZA","Address":"2120 N 4th St","City":"Flagstaff","State":"AZ","Zip":"86004"},{"Location":"GOLDEN DRAGON","Address":"2730 E Lakin Dr","City":"Flagstaff","State":"AZ","Zip":"86004"},{"Location":"HERCULES INDUSTRIES","Address":"1925 E Huntington Dr","City":"Flagstaff","State":"AZ","Zip":"86004"},{"Location":"HORSEMANS LODGE","Address":"8500 N Highway 89","City":"Flagstaff","State":"AZ","Zip":"86004"},{"Location":"KINGSMARKS KENNELS","Address":"7155 Kavanagh Way","City":"Flagstaff","State":"AZ","Zip":"86004"},{"Location":"KUTTZ BARBERSHOP","Address":"1905 E 6th Ave","City":"Flagstaff","State":"AZ","Zip":"86004"},{"Location":"LA FONDA","Address":"1900 N 2nd St","City":"Flagstaff","State":"AZ","Zip":"86004"},{"Location":"LIBERTY DIALYSIS FLAGSTA","Address":"2268 N Walgreens St","City":"Flagstaff","State":"AZ","Zip":"86004"},{"Location":"LITTLE AMERICA FLAGSTAFF","Address":"2515 E Butler Ave","City":"Flagstaff","State":"AZ","Zip":"86004"},{"Location":"NIELSEN MEDIA","Address":"1602 N East St","City":"Flagstaff","State":"AZ","Zip":"86004"},{"Location":"NORTHLAND  BEVERAGE","Address":"3825 E Huntington Dr","City":"Flagstaff","State":"AZ","Zip":"86004"},{"Location":"OUTBACK STEAKHOUSE #0317","Address":"2600 E Lucky Ln","City":"Flagstaff","State":"AZ","Zip":"86004"},{"Location":"P AND M TRAILER SALES","Address":"7899 N Us Highway 89","City":"Flagstaff","State":"AZ","Zip":"86004"},{"Location":"PIZZA HUT #22","Address":"4429 North Highway 89","City":"Flagstaff","State":"AZ","Zip":"86004"},{"Location":"PORKYS PUB","Address":"2285 E Butler Ave","City":"Flagstaff","State":"AZ","Zip":"86004"},{"Location":"RODEWAY INN","Address":"2285 E Butler Ave","City":"Flagstaff","State":"AZ","Zip":"86004"},{"Location":"RUSH TRUCK CENTER","Address":"2620 E Huntington Dr","City":"Flagstaff","State":"AZ","Zip":"86004"},{"Location":"SAFELITE AUTOGLASS","Address":"2421 N 4th St 10046","City":"Flagstaff","State":"AZ","Zip":"86004"},{"Location":"SAFEWAY 0270","Address":"4910 N Us Highway 89","City":"Flagstaff","State":"AZ","Zip":"86004"},{"Location":"SAFEWAY 1225","Address":"1500 E Cedar Ave","City":"Flagstaff","State":"AZ","Zip":"86004"},{"Location":"SIZZLER 792","Address":"3540 E Route 66","City":"Flagstaff","State":"AZ","Zip":"86004"},{"Location":"STARLITE HOLDINGS","Address":"3406 E Route 66","City":"Flagstaff","State":"AZ","Zip":"86004"},{"Location":"STRING WESTERN STAR","Address":"4201 E Huntington Dr","City":"Flagstaff","State":"AZ","Zip":"86004"},{"Location":"SUBWAY #15332","Address":"1500 E Cedar Ave 48","City":"Flagstaff","State":"AZ","Zip":"86004"},{"Location":"SUMMIT FIRE DISRICT THIRTY TWO","Address":"8905 Koch Field Rd","City":"Flagstaff","State":"AZ","Zip":"86004"},{"Location":"THE GUIDANCE CENTER","Address":"2187 N Vickey St","City":"Flagstaff","State":"AZ","Zip":"86004"},{"Location":"THE PLACE MIKE AND RHOND","Address":"3518 E Route 66 107","City":"Flagstaff","State":"AZ","Zip":"86004"},{"Location":"TIMBERLINE TAVERN","Address":"9001 N Us Highway 89","City":"Flagstaff","State":"AZ","Zip":"86004"},{"Location":"TWIN ARROWS CASINO","Address":"22181 Resort Blvd Exit 219","City":"Flagstaff","State":"AZ","Zip":"86004"},{"Location":"TWIN ARROWS FIRE DEPT","Address":"22181 Resort Blvd","City":"Flagstaff","State":"AZ","Zip":"86004"},{"Location":"VILLAGE INN 110138","Address":"3715 N Kasper Ave","City":"Flagstaff","State":"AZ","Zip":"86004"},{"Location":"WALGREENS ARIZONA DRUG CO","Address":"2400 N Walgreens St","City":"Flagstaff","State":"AZ","Zip":"86004"}]