[{"Location":"CAMP NAVAJO","Address":"1 Hughes Ave 2","City":"Bellemont","State":"AZ","Zip":"86015"},{"Location":"CAMP NAVAJO ARMY DEPOT","Address":"1 Hughes Ave 58","City":"Bellemont","State":"AZ","Zip":"86015"},{"Location":"CAMP NAVAJO ARMY DEPOT 2","Address":"1 Hughes Ave 9","City":"Bellemont","State":"AZ","Zip":"86015"},{"Location":"CAMP NAVAJO TRANSIENT HO","Address":"1 Hughes Ave","City":"Bellemont","State":"AZ","Zip":"86015"},{"Location":"NATIONAL WEATHER SERVICE","Address":"Building 49 Hughes Ave","City":"Bellemont","State":"AZ","Zip":"86015"},{"Location":"PONDEROSA FIRE DISTRICT","Address":"11851 Shadow Mountain Dr","City":"Bellemont","State":"AZ","Zip":"86015"},{"Location":"ROUTE 66 ROAD HOUSE","Address":"11840 W Rt 66","City":"Bellemont","State":"AZ","Zip":"86015"},{"Location":"CAMP NAVAJO","Address":"1 Hughes Ave 2","City":"Bellemont","State":"AZ","Zip":"86015"},{"Location":"CAMP NAVAJO ARMY DEPOT","Address":"1 Hughes Ave 58","City":"Bellemont","State":"AZ","Zip":"86015"},{"Location":"CAMP NAVAJO ARMY DEPOT 2","Address":"1 Hughes Ave 9","City":"Bellemont","State":"AZ","Zip":"86015"},{"Location":"CAMP NAVAJO TRANSIENT HO","Address":"1 Hughes Ave","City":"Bellemont","State":"AZ","Zip":"86015"},{"Location":"NATIONAL WEATHER SERVICE","Address":"Building 49 Hughes Ave","City":"Bellemont","State":"AZ","Zip":"86015"},{"Location":"PONDEROSA FIRE DISTRICT","Address":"11851 Shadow Mountain Dr","City":"Bellemont","State":"AZ","Zip":"86015"},{"Location":"ROUTE 66 ROAD HOUSE","Address":"11840 W Rt 66","City":"Bellemont","State":"AZ","Zip":"86015"}]