[{"Location":"CANYON STAR SALOON","Address":"Highway 64","City":"Grand Canyon","State":"AZ","Zip":"86023"},{"Location":"DELAWARE NORTH","Address":"1 Mather Business Center","City":"Grand Canyon","State":"AZ","Zip":"86023"},{"Location":"GRAND CANYON AIRPORT","Address":"Hwy 64 Grand Canyan Air","City":"Grand Canyon","State":"AZ","Zip":"86023"},{"Location":"GRAND CANYON NATIONAL PARK","Address":"1 Shuttle Bus Road","City":"Grand Canyon","State":"AZ","Zip":"86023"},{"Location":"GRAND CANYON NATIONAL PARK","Address":"1 Village Loop","City":"Grand Canyon","State":"AZ","Zip":"86023"},{"Location":"GRAND CANYON SQUIRE INN","Address":"100 Hwy 64","City":"Grand Canyon","State":"AZ","Zip":"86023"},{"Location":"GRAND TRACS","Address":"Highway 64 Bldg 119","City":"Grand Canyon","State":"AZ","Zip":"86023"},{"Location":"MCDONALD #5077","Address":"Hwy 64","City":"Grand Canyon","State":"AZ","Zip":"86023"},{"Location":"PAPILLON GCH","Address":"3563 Hummingbird Dr","City":"Grand Canyon","State":"AZ","Zip":"86023"},{"Location":"PAPILLON GRAND CANYON","Address":"3568  Airport Rd","City":"Grand Canyon","State":"AZ","Zip":"86023"},{"Location":"SAGUARO SPORTS BAR","Address":"74 Hwy 64","City":"Grand Canyon","State":"AZ","Zip":"86023"},{"Location":"TUSAYAN FIRE DEPARTMENT","Address":"408 Hwy 64","City":"Grand Canyon","State":"AZ","Zip":"86023"},{"Location":"TUSAYAN RANGER DISTRICT #3","Address":"176 Lincoln Log Loop 3","City":"Grand Canyon","State":"AZ","Zip":"86023"},{"Location":"WILD WEST RESTURANT","Address":"Building 395 Rt 64","City":"Grand Canyon","State":"AZ","Zip":"86023"},{"Location":"ARCEO","Address":"352 Highway 64","City":"Grand Conyon","State":"AZ","Zip":"86023"},{"Location":"WEST WIND AIR SERVICE LLC","Address":"275 Grand Canyon Airport Circ","City":"Tusayan","State":"AZ","Zip":"86023"}]