[{"Location":"ALIBERTO%3FS MEXICAN FOOD","Address":"1440 Navajo Blvd","City":"Holbrook","State":"AZ","Zip":"86025"},{"Location":"BEST WESTERN ARIZONIAN","Address":"2508 Navajo Blvd","City":"Holbrook","State":"AZ","Zip":"86025"},{"Location":"COMMUNITY BRIDGES","Address":"993 Hermosa Dr","City":"Holbrook","State":"AZ","Zip":"86025"},{"Location":"COUNTY HEALTH DEPT","Address":"117 E Buffalo St","City":"Holbrook","State":"AZ","Zip":"86025"},{"Location":"DAY STAR TELEVISION NETWORK","Address":"222 Navajo Blvd","City":"Holbrook","State":"AZ","Zip":"86025"},{"Location":"EMPTY POCKET INC","Address":"2210 Navajo Blvd","City":"Holbrook","State":"AZ","Zip":"86025"},{"Location":"HOPI TRAVEL CENTER","Address":"1845 North Highway 77","City":"Holbrook","State":"AZ","Zip":"86025"},{"Location":"JALAPENO POPPERS","Address":"2600 Navajo Blvd","City":"Holbrook","State":"AZ","Zip":"86025"},{"Location":"MESA GRILLE SPORTS BAR","Address":"2318 Navajo Blvd","City":"Holbrook","State":"AZ","Zip":"86025"},{"Location":"PIZZA HUT 028242","Address":"2001 Navajo Blvd","City":"Holbrook","State":"AZ","Zip":"86025"},{"Location":"TATES AUTO CENTER","Address":"1001 Navajo Blvd","City":"Holbrook","State":"AZ","Zip":"86025"},{"Location":"TCA 246 HOLBROOK","Address":"3747 Express Dr","City":"Holbrook","State":"AZ","Zip":"86025"},{"Location":"WINNER CIRCLE BAR LLC 1","Address":"466 Navajo Blvd","City":"Holbrook","State":"AZ","Zip":"86025"}]