[{"Location":"ARTSCO INC","Address":"163 Mv Tribal Park Hwy","City":"Kayenta","State":"AZ","Zip":"86033"},{"Location":"BURGER KING","Address":"Hwy 160","City":"Kayenta","State":"AZ","Zip":"86033"},{"Location":"DAVITA #655 KAYENTA","Address":"Us Hwy 163 N","City":"Kayenta","State":"AZ","Zip":"86033"},{"Location":"EMPIRE SOUTHWEST KAYENTA ONE","Address":"Navajo 41 Navajo Rte 41 Off Hwy 160","City":"Kayenta","State":"AZ","Zip":"86033"},{"Location":"EMPIRE SOUTHWEST KAYENTA TWO","Address":"Navajo 41 Navajo Rte 41 Off 160","City":"Kayenta","State":"AZ","Zip":"86033"},{"Location":"KAYENTA TOWNSHIP","Address":"1 12 Mile N Hwy 163","City":"Kayenta","State":"AZ","Zip":"86033"},{"Location":"PEABODY ENERGY","Address":"8 Miles South Of 160 Rou","City":"Kayenta","State":"AZ","Zip":"86033"},{"Location":"TOHDENASSHAI SHELTER HOME","Address":"Kayenta Moblie Home","City":"Kayenta","State":"AZ","Zip":"86033"},{"Location":"TSR CONTRACTING","Address":"Ihs Housing Ka 5110","City":"Kayenta","State":"AZ","Zip":"86033"},{"Location":"ARTSCO INC","Address":"163 Mv Tribal Park Hwy","City":"Kayenta","State":"AZ","Zip":"86033"},{"Location":"BURGER KING","Address":"Hwy 160","City":"Kayenta","State":"AZ","Zip":"86033"},{"Location":"DAVITA #655 KAYENTA","Address":"Us Hwy 163 N","City":"Kayenta","State":"AZ","Zip":"86033"},{"Location":"EMPIRE SOUTHWEST KAYENTA ONE","Address":"Navajo 41 Navajo Rte 41 Off Hwy 160","City":"Kayenta","State":"AZ","Zip":"86033"},{"Location":"EMPIRE SOUTHWEST KAYENTA TWO","Address":"Navajo 41 Navajo Rte 41 Off 160","City":"Kayenta","State":"AZ","Zip":"86033"},{"Location":"KAYENTA TOWNSHIP","Address":"1 12 Mile N Hwy 163","City":"Kayenta","State":"AZ","Zip":"86033"},{"Location":"PEABODY ENERGY","Address":"8 Miles South Of 160 Rou","City":"Kayenta","State":"AZ","Zip":"86033"},{"Location":"TOHDENASSHAI SHELTER HOME","Address":"Kayenta Moblie Home","City":"Kayenta","State":"AZ","Zip":"86033"},{"Location":"TSR CONTRACTING","Address":"Ihs Housing Ka 5110","City":"Kayenta","State":"AZ","Zip":"86033"}]