[{"Location":"CMS - TUBA CITY INDIAN MED CTR","Address":"Corner Main St & Elm Ave","City":"Tuba","State":"AZ","Zip":"86045"},{"Location":"DAVITA #626 TUBA CITY","Address":"500 Edge Water Dr","City":"Tuba City","State":"AZ","Zip":"86045"},{"Location":"GUARDIAN AIR","Address":"475 E Elm Circle","City":"Tuba City","State":"AZ","Zip":"86045"},{"Location":"GUARDIAN AIR PILOT","Address":"455 E Elm Circle","City":"Tuba City","State":"AZ","Zip":"86045"},{"Location":"LUCINO VEGA","Address":"720 Main St","City":"Tuba City","State":"AZ","Zip":"86045"},{"Location":"MCDONALD'S","Address":"195 South Main St","City":"Tuba City","State":"AZ","Zip":"86045"},{"Location":"TUBA CITY REGIONAL HEALT","Address":"167 North Main Street","City":"Tuba City","State":"AZ","Zip":"86045"},{"Location":"TUBA CITY REGIONAL HEALTHCARE","Address":"167 N Main St","City":"Tuba City","State":"AZ","Zip":"86045"},{"Location":"CMS - TUBA CITY INDIAN MED CTR","Address":"Corner Main St & Elm Ave","City":"Tuba","State":"AZ","Zip":"86045"},{"Location":"DAVITA #626 TUBA CITY","Address":"500 Edge Water Dr","City":"Tuba City","State":"AZ","Zip":"86045"},{"Location":"GUARDIAN AIR","Address":"475 E Elm Circle","City":"Tuba City","State":"AZ","Zip":"86045"},{"Location":"GUARDIAN AIR PILOT","Address":"455 E Elm Circle","City":"Tuba City","State":"AZ","Zip":"86045"},{"Location":"LUCINO VEGA","Address":"720 Main St","City":"Tuba City","State":"AZ","Zip":"86045"},{"Location":"MCDONALD'S","Address":"195 South Main St","City":"Tuba City","State":"AZ","Zip":"86045"},{"Location":"TUBA CITY REGIONAL HEALT","Address":"167 North Main Street","City":"Tuba City","State":"AZ","Zip":"86045"},{"Location":"TUBA CITY REGIONAL HEALTHCARE","Address":"167 N Main St","City":"Tuba City","State":"AZ","Zip":"86045"}]