[{"Location":"AEROCARE MEDICAL TRANSPORT","Address":"722 W Mahoney St D","City":"Winslow","State":"AZ","Zip":"86047"},{"Location":"AEROCARE MEDICAL TRANSPORT","Address":"722 W Mahoney St B","City":"Winslow","State":"AZ","Zip":"86047"},{"Location":"ALFONSOS","Address":"1501 N Park Dr","City":"Winslow","State":"AZ","Zip":"86047"},{"Location":"AMERICAN LEGION","Address":"1015 N Kinsley Ave","City":"Winslow","State":"AZ","Zip":"86047"},{"Location":"CAPTAIN TONYS PIZZA","Address":"2217 N Park Dr","City":"Winslow","State":"AZ","Zip":"86047"},{"Location":"DELTA MOTEL","Address":"2141 W Third St","City":"Winslow","State":"AZ","Zip":"86047"},{"Location":"DILCON COMMUNITY SCHOOL","Address":"Hc 63 Box G","City":"Winslow","State":"AZ","Zip":"86047"},{"Location":"DJS RESTAURANT AND LOUNGE","Address":"1701 N Park Dr","City":"Winslow","State":"AZ","Zip":"86047"},{"Location":"DOMINIQUES HALLMARK SHOP","Address":"100 E Second St","City":"Winslow","State":"AZ","Zip":"86047"},{"Location":"DRAGOO MILFORD LLC PTS","Address":"1500 E Third St","City":"Winslow","State":"AZ","Zip":"86047"},{"Location":"E & O KITCHEN","Address":"1600 W Third St","City":"Winslow","State":"AZ","Zip":"86047"},{"Location":"ELK LODGE 536","Address":"315 W Third St","City":"Winslow","State":"AZ","Zip":"86047"},{"Location":"FMC 62560000","Address":"721 Mikes Pike St","City":"Winslow","State":"AZ","Zip":"86047"},{"Location":"GUARDIAN AIR","Address":"518 Airport Rd","City":"Winslow","State":"AZ","Zip":"86047"},{"Location":"HOUSE OF TINT","Address":"700 E Third St","City":"Winslow","State":"AZ","Zip":"86047"},{"Location":"LEISURE LANDRYS","Address":"2221 N Park Dr","City":"Winslow","State":"AZ","Zip":"86047"},{"Location":"M & K SMOKE SHOP","Address":"401 W Second St","City":"Winslow","State":"AZ","Zip":"86047"},{"Location":"NATIVE CARE MEDICAL TRAN","Address":"1214 W Second St","City":"Winslow","State":"AZ","Zip":"86047"},{"Location":"PAINTED DESERT FINANCE","Address":"101 W Third St","City":"Winslow","State":"AZ","Zip":"86047"},{"Location":"PILOT FLYING J #61200","Address":"400 Transcon Ln","City":"Winslow","State":"AZ","Zip":"86047"},{"Location":"PIZZA HUT 025241","Address":"600 Mikes Pike St","City":"Winslow","State":"AZ","Zip":"86047"},{"Location":"RILBERTO MEXICAN FOOD","Address":"510 W Desmond St","City":"Winslow","State":"AZ","Zip":"86047"},{"Location":"SNAP FITNESS","Address":"1535 North Park Plaza Drive 1520","City":"Winslow","State":"AZ","Zip":"86047"},{"Location":"STEEL SLED SHOP LLC","Address":"1216 W Third St","City":"Winslow","State":"AZ","Zip":"86047"},{"Location":"WESTERN HOME AND AUTO","Address":"722 E Second St","City":"Winslow","State":"AZ","Zip":"86047"},{"Location":"WINSLOW FORD","Address":"840 Mikes Pike Blvd","City":"Winslow","State":"AZ","Zip":"86047"},{"Location":"WINSLOW MOVIE THEATER","Address":"115 Kingsley Ave","City":"Winslow","State":"AZ","Zip":"86047"},{"Location":"WINSLOW NAIL AND SPA","Address":"1519 N Park Dr","City":"Winslow","State":"AZ","Zip":"86047"},{"Location":"WINSLOW THEATER LLC","Address":"115 N Kinsley Ave","City":"Winslow","State":"AZ","Zip":"86047"},{"Location":"AEROCARE MEDICAL TRANSPORT","Address":"722 W Mahoney St D","City":"Winslow","State":"AZ","Zip":"86047"},{"Location":"AEROCARE MEDICAL TRANSPORT","Address":"722 W Mahoney St B","City":"Winslow","State":"AZ","Zip":"86047"},{"Location":"ALFONSOS","Address":"1501 N Park Dr","City":"Winslow","State":"AZ","Zip":"86047"},{"Location":"AMERICAN LEGION","Address":"1015 N Kinsley Ave","City":"Winslow","State":"AZ","Zip":"86047"},{"Location":"CAPTAIN TONYS PIZZA","Address":"2217 N Park Dr","City":"Winslow","State":"AZ","Zip":"86047"},{"Location":"DELTA MOTEL","Address":"2141 W Third St","City":"Winslow","State":"AZ","Zip":"86047"},{"Location":"DILCON COMMUNITY SCHOOL","Address":"Hc 63 Box G","City":"Winslow","State":"AZ","Zip":"86047"},{"Location":"DJS RESTAURANT AND LOUNGE","Address":"1701 N Park Dr","City":"Winslow","State":"AZ","Zip":"86047"},{"Location":"DOMINIQUES HALLMARK SHOP","Address":"100 E Second St","City":"Winslow","State":"AZ","Zip":"86047"},{"Location":"DRAGOO MILFORD LLC PTS","Address":"1500 E Third St","City":"Winslow","State":"AZ","Zip":"86047"},{"Location":"E & O KITCHEN","Address":"1600 W Third St","City":"Winslow","State":"AZ","Zip":"86047"},{"Location":"ELK LODGE 536","Address":"315 W Third St","City":"Winslow","State":"AZ","Zip":"86047"},{"Location":"FMC 62560000","Address":"721 Mikes Pike St","City":"Winslow","State":"AZ","Zip":"86047"},{"Location":"GUARDIAN AIR","Address":"518 Airport Rd","City":"Winslow","State":"AZ","Zip":"86047"},{"Location":"HOUSE OF TINT","Address":"700 E Third St","City":"Winslow","State":"AZ","Zip":"86047"},{"Location":"LEISURE LANDRYS","Address":"2221 N Park Dr","City":"Winslow","State":"AZ","Zip":"86047"},{"Location":"M & K SMOKE SHOP","Address":"401 W Second St","City":"Winslow","State":"AZ","Zip":"86047"},{"Location":"NATIVE CARE MEDICAL TRAN","Address":"1214 W Second St","City":"Winslow","State":"AZ","Zip":"86047"},{"Location":"PAINTED DESERT FINANCE","Address":"101 W Third St","City":"Winslow","State":"AZ","Zip":"86047"},{"Location":"PILOT FLYING J #61200","Address":"400 Transcon Ln","City":"Winslow","State":"AZ","Zip":"86047"},{"Location":"PIZZA HUT 025241","Address":"600 Mikes Pike St","City":"Winslow","State":"AZ","Zip":"86047"},{"Location":"RILBERTO MEXICAN FOOD","Address":"510 W Desmond St","City":"Winslow","State":"AZ","Zip":"86047"},{"Location":"SNAP FITNESS","Address":"1535 North Park Plaza Drive 1520","City":"Winslow","State":"AZ","Zip":"86047"},{"Location":"STEEL SLED SHOP LLC","Address":"1216 W Third St","City":"Winslow","State":"AZ","Zip":"86047"},{"Location":"WESTERN HOME AND AUTO","Address":"722 E Second St","City":"Winslow","State":"AZ","Zip":"86047"},{"Location":"WINSLOW FORD","Address":"840 Mikes Pike Blvd","City":"Winslow","State":"AZ","Zip":"86047"},{"Location":"WINSLOW MOVIE THEATER","Address":"115 Kingsley Ave","City":"Winslow","State":"AZ","Zip":"86047"},{"Location":"WINSLOW NAIL AND SPA","Address":"1519 N Park Dr","City":"Winslow","State":"AZ","Zip":"86047"},{"Location":"WINSLOW THEATER LLC","Address":"115 N Kinsley Ave","City":"Winslow","State":"AZ","Zip":"86047"}]