[{"Location":"ARIZONA 9 MOTOR MOTEL","Address":"315 W Route 66","City":"Williams","State":"AZ","Zip":"86046"},{"Location":"BUDGET HOST INN","Address":"620 W Route 66","City":"Williams","State":"AZ","Zip":"86046"},{"Location":"CANYON GATEWAY RV PARK","Address":"1060 N Grand Canyon Blvd","City":"Williams","State":"AZ","Zip":"86046"},{"Location":"EL RANCHO MOTEL - SMV","Address":"617 E Route 66","City":"Williams","State":"AZ","Zip":"86046"},{"Location":"ELEPHANT ROCKS GOLF COURSE","Address":"2200 Country Club Dr","City":"Williams","State":"AZ","Zip":"86046"},{"Location":"G AND M TIRES","Address":"132 E Railroad Ave","City":"Williams","State":"AZ","Zip":"86046"},{"Location":"GRAND CANYON BREWING","Address":"233 W Route 66","City":"Williams","State":"AZ","Zip":"86046"},{"Location":"GRAND CANYON HOTEL","Address":"111 S 2nd St","City":"Williams","State":"AZ","Zip":"86046"},{"Location":"GRAND CANYON INN","Address":"317 S State Route 64","City":"Williams","State":"AZ","Zip":"86046"},{"Location":"HIGH COUNTRY FIRE RESCUE","Address":"6539 N High Country Ln","City":"Williams","State":"AZ","Zip":"86046"},{"Location":"HIGHLANDER MOTEL LLC","Address":"533 W Route 66","City":"Williams","State":"AZ","Zip":"86046"},{"Location":"HOWARD JOHNSONS COMM","Address":"511 N Grand Canyon Blvd","City":"Williams","State":"AZ","Zip":"86046"},{"Location":"KICKS ON ROUTE 66","Address":"2550 W Route 66","City":"Williams","State":"AZ","Zip":"86046"},{"Location":"LSR PROPERTIES DBA GRAND MOTEL","Address":"234 E Route 66","City":"Williams","State":"AZ","Zip":"86046"},{"Location":"NA","Address":"950 N Grand Canyon Blvd","City":"Williams","State":"AZ","Zip":"86046"},{"Location":"PANCHO MCGILLICUDDY'S MEXICAN","Address":"141 W Railroad Ave","City":"Williams","State":"AZ","Zip":"86046"},{"Location":"PIZZA FACTORY","Address":"214 W Route 66","City":"Williams","State":"AZ","Zip":"86046"},{"Location":"PIZZA HUT","Address":"888 N Grand Canyon Blvd","City":"Williams","State":"AZ","Zip":"86046"},{"Location":"SAFEWAY STORE 1639","Address":"637 W Route 66","City":"Williams","State":"AZ","Zip":"86046"},{"Location":"SOUTH RIMS WINE & BEER","Address":"514 E Route 66","City":"Williams","State":"AZ","Zip":"86046"},{"Location":"SPENSER'S PUB","Address":"235 N Grand Canyon Blvd","City":"Williams","State":"AZ","Zip":"86046"},{"Location":"THE CANYON CLUB","Address":"132 W Route 66","City":"Williams","State":"AZ","Zip":"86046"},{"Location":"TIMBERLINE DENTAL GROUP","Address":"401 W Railroad Ave","City":"Williams","State":"AZ","Zip":"86046"},{"Location":"TWISTERS","Address":"417 E Route 66","City":"Williams","State":"AZ","Zip":"86046"},{"Location":"WILD WEST JUNCTION 2","Address":"321 E Route 66","City":"Williams","State":"AZ","Zip":"86046"},{"Location":"WORLD FAMOUS SULTANA BAR","Address":"301 W Route 66","City":"Williams","State":"AZ","Zip":"86046"}]