[{"Location":"EMBARCADERO II","Address":"1000 Tower Butte  Greenehaven","City":"Greenehaven","State":"AZ","Zip":"86040"},{"Location":"ANTELOPE POINT HOLDING LLC #2","Address":"Mile Marker 4 Hwy N 22b","City":"Page","State":"AZ","Zip":"86040"},{"Location":"ANTELOPE POINT HOLDINGS #5","Address":"Mile Marker 4 Bia Hwy N22","City":"Page","State":"AZ","Zip":"86040"},{"Location":"ANTELOPE POINT HOLDINGS LLC","Address":"Mile Marker 4 Hwy N 22 B","City":"Page","State":"AZ","Zip":"86040"},{"Location":"ANTELOPE POINT HOLDINGS LLC","Address":"Mile Marker 4 Bia Hwy N22b","City":"Page","State":"AZ","Zip":"86040"},{"Location":"ANTELOPE POINT HOLDINGS LLC #6","Address":"Mile Marker Bia Hwy N22b","City":"Page","State":"AZ","Zip":"86040"},{"Location":"ANTELOPE POINT HOLDINGS%2C LLC","Address":"Mile Marker 4 Bia Hwy N22","City":"Page","State":"AZ","Zip":"86040"},{"Location":"BEANS GOURMET HOUSE","Address":"800 Elm St","City":"Page","State":"AZ","Zip":"86040"},{"Location":"CLASSIC LIFEGUARD","Address":"230 10th Ave","City":"Page","State":"AZ","Zip":"86040"},{"Location":"COCONINO COUNTY SHERIFFS OFF.","Address":"713 Tunnel Road","City":"Page","State":"AZ","Zip":"86040"},{"Location":"DAM BAR AND GRILL","Address":"644 N Navajo Dr","City":"Page","State":"AZ","Zip":"86040"},{"Location":"DARATHI EXPRESS","Address":"636 Elm St","City":"Page","State":"AZ","Zip":"86040"},{"Location":"FIESTA MEXICANA","Address":"125 S Lake Powell Blvd","City":"Page","State":"AZ","Zip":"86040"},{"Location":"FRIENDSHIP FINANCE AUTO","Address":"412 Haul Rd","City":"Page","State":"AZ","Zip":"86040"},{"Location":"GLEN CANYON STEAKHOUSE","Address":"201 N Lake Powell Blvd","City":"Page","State":"AZ","Zip":"86040"},{"Location":"GUARDIAN AIR","Address":"1200 Glen Canyon Drive  #38","City":"Page","State":"AZ","Zip":"86040"},{"Location":"GUARDIAN AIR PILOT HOUSE","Address":"814 Village Drive","City":"Page","State":"AZ","Zip":"86040"},{"Location":"JAMES TIMPSON","Address":"856 Heron Drive","City":"Page","State":"AZ","Zip":"86040"},{"Location":"JOES BAR AND GRILL","Address":"614 Navajo Dr","City":"Page","State":"AZ","Zip":"86040"},{"Location":"LAKE POWELL MARINE RESTA","Address":"100 Lakeshore Dr","City":"Page","State":"AZ","Zip":"86040"},{"Location":"LAKE POWELL RESORT","Address":"100 Lakeshore Dr","City":"Page","State":"AZ","Zip":"86040"},{"Location":"LAKE POWELL RESORT INC","Address":"Po Box 1926","City":"Page","State":"AZ","Zip":"86040"},{"Location":"LAKE POWELL RESORTS","Address":"100 Lake Shore Drive","City":"Page","State":"AZ","Zip":"86040"},{"Location":"LITTLE CARRIBEAN LLC","Address":"661 Haul Rd","City":"Page","State":"AZ","Zip":"86040"},{"Location":"LOCATION POWELL LLC","Address":"661 Haul Rd L","City":"Page","State":"AZ","Zip":"86040"},{"Location":"MISS GUIDED HOLDINGS LLC","Address":"533 S Marina Dr  #3418","City":"Page","State":"AZ","Zip":"86040"},{"Location":"MV WIRTHLIN","Address":"G9 Slip 100 Lake Shore Drive","City":"Page","State":"AZ","Zip":"86040"},{"Location":"NATIONAL PARK SERVICE GLEN CAN","Address":"691 Scenic Viewdr","City":"Page","State":"AZ","Zip":"86040"},{"Location":"SLACKERS","Address":"635 Elm Street","City":"Page","State":"AZ","Zip":"86040"},{"Location":"THE SAND BAR","Address":"Navajoe Rt 22 B","City":"Page","State":"AZ","Zip":"86040"},{"Location":"TS69282020000000XXAQXXPGAXTVXX","Address":"238 10th Ave","City":"Page","State":"AZ","Zip":"86040"},{"Location":"ANTELOPE POINT HOLDING #3","Address":"2010 Industrial Dr","City":"Pages","State":"AZ","Zip":"86040"},{"Location":"EMBARCADERO II","Address":"1000 Tower Butte  Greenehaven","City":"Greenehaven","State":"AZ","Zip":"86040"},{"Location":"ANTELOPE POINT HOLDING LLC #2","Address":"Mile Marker 4 Hwy N 22b","City":"Page","State":"AZ","Zip":"86040"},{"Location":"ANTELOPE POINT HOLDINGS #5","Address":"Mile Marker 4 Bia Hwy N22","City":"Page","State":"AZ","Zip":"86040"},{"Location":"ANTELOPE POINT HOLDINGS LLC","Address":"Mile Marker 4 Hwy N 22 B","City":"Page","State":"AZ","Zip":"86040"},{"Location":"ANTELOPE POINT HOLDINGS LLC","Address":"Mile Marker 4 Bia Hwy N22b","City":"Page","State":"AZ","Zip":"86040"},{"Location":"ANTELOPE POINT HOLDINGS LLC #6","Address":"Mile Marker Bia Hwy N22b","City":"Page","State":"AZ","Zip":"86040"},{"Location":"ANTELOPE POINT HOLDINGS%2C LLC","Address":"Mile Marker 4 Bia Hwy N22","City":"Page","State":"AZ","Zip":"86040"},{"Location":"BEANS GOURMET HOUSE","Address":"800 Elm St","City":"Page","State":"AZ","Zip":"86040"},{"Location":"CLASSIC LIFEGUARD","Address":"230 10th Ave","City":"Page","State":"AZ","Zip":"86040"},{"Location":"COCONINO COUNTY SHERIFFS OFF.","Address":"713 Tunnel Road","City":"Page","State":"AZ","Zip":"86040"},{"Location":"DAM BAR AND GRILL","Address":"644 N Navajo Dr","City":"Page","State":"AZ","Zip":"86040"},{"Location":"DARATHI EXPRESS","Address":"636 Elm St","City":"Page","State":"AZ","Zip":"86040"},{"Location":"FIESTA MEXICANA","Address":"125 S Lake Powell Blvd","City":"Page","State":"AZ","Zip":"86040"},{"Location":"FRIENDSHIP FINANCE AUTO","Address":"412 Haul Rd","City":"Page","State":"AZ","Zip":"86040"},{"Location":"GLEN CANYON STEAKHOUSE","Address":"201 N Lake Powell Blvd","City":"Page","State":"AZ","Zip":"86040"},{"Location":"GREENHAVEN FIRE DISTRICT","Address":"62 N Wahweap Dr","City":"Page","State":"AZ","Zip":"86040"},{"Location":"GUARDIAN AIR","Address":"1200 Glen Canyon Drive  #38","City":"Page","State":"AZ","Zip":"86040"},{"Location":"GUARDIAN AIR PILOT HOUSE","Address":"814 Village Drive","City":"Page","State":"AZ","Zip":"86040"},{"Location":"JAMES TIMPSON","Address":"856 Heron Drive","City":"Page","State":"AZ","Zip":"86040"},{"Location":"JOES BAR AND GRILL","Address":"614 Navajo Dr","City":"Page","State":"AZ","Zip":"86040"},{"Location":"LAKE POWELL RESORT","Address":"100 Lakeshore Dr","City":"Page","State":"AZ","Zip":"86040"},{"Location":"LAKE POWELL RESORT INC","Address":"Po Box 1926","City":"Page","State":"AZ","Zip":"86040"},{"Location":"LAKE POWELL RESORTS","Address":"100 Lake Shore Drive","City":"Page","State":"AZ","Zip":"86040"},{"Location":"LITTLE CARRIBEAN LLC","Address":"661 Haul Rd","City":"Page","State":"AZ","Zip":"86040"},{"Location":"LOCATION POWELL LLC","Address":"661 Haul Rd L","City":"Page","State":"AZ","Zip":"86040"},{"Location":"MISS GUIDED HOLDINGS LLC","Address":"533 S Marina Dr  #3418","City":"Page","State":"AZ","Zip":"86040"},{"Location":"MV WIRTHLIN","Address":"G9 Slip 100 Lake Shore Drive","City":"Page","State":"AZ","Zip":"86040"},{"Location":"NATIONAL PARK SERVICE GLEN CAN","Address":"691 Scenic Viewdr","City":"Page","State":"AZ","Zip":"86040"},{"Location":"SLACKERS","Address":"635 Elm Street","City":"Page","State":"AZ","Zip":"86040"},{"Location":"THE SAND BAR","Address":"Navajoe Rt 22 B","City":"Page","State":"AZ","Zip":"86040"},{"Location":"TS69282020000000XXAQXXPGAXTVXX","Address":"238 10th Ave","City":"Page","State":"AZ","Zip":"86040"},{"Location":"ANTELOPE POINT HOLDING #3","Address":"2010 Industrial Dr","City":"Pages","State":"AZ","Zip":"86040"}]