[{"Location":"AMERICAN RANCH COMMUNITY ASSOC","Address":"9500 N American Ranch Rd","City":"Prescott","State":"AZ","Zip":"86305"},{"Location":"ARIZONA STATE CREDIT UNION #12","Address":"1335 Gail Gardner Way","City":"Prescott","State":"AZ","Zip":"86305"},{"Location":"DAVES AUTO REPAIR","Address":"1101 W Iron Springs Rd B","City":"Prescott","State":"AZ","Zip":"86305"},{"Location":"KAZT 7%2FLTB","Address":"3211 Tower Rd","City":"Prescott","State":"AZ","Zip":"86305"},{"Location":"PERFECT MASSAGE","Address":"1201 W Iron Springs Rd 4","City":"Prescott","State":"AZ","Zip":"86305"},{"Location":"PRESCOTT TIRE","Address":"1635 W Iron Springs Rd B","City":"Prescott","State":"AZ","Zip":"86305"},{"Location":"SCORES BAR & GRILL","Address":"1011 Commerce Dr A","City":"Prescott","State":"AZ","Zip":"86305"},{"Location":"TALKING ROCK GOLF","Address":"15075 N Talking Rock Ranch Rd","City":"Prescott","State":"AZ","Zip":"86305"},{"Location":"TALKING ROCK GOLF-CLUBHOUSE","Address":"15075 N Talking Rock Ranch Rd","City":"Prescott","State":"AZ","Zip":"86305"},{"Location":"THE WINDSOCK","Address":"1365 W Iron Springs Rd A6","City":"Prescott","State":"AZ","Zip":"86305"},{"Location":"AMERICAN RANCH COMMUNITY ASSOC","Address":"9500 N American Ranch Rd","City":"Prescott","State":"AZ","Zip":"86305"},{"Location":"ARIZONA STATE CREDIT UNION #12","Address":"1335 Gail Gardner Way","City":"Prescott","State":"AZ","Zip":"86305"},{"Location":"DAVES AUTO REPAIR","Address":"1101 W Iron Springs Rd B","City":"Prescott","State":"AZ","Zip":"86305"},{"Location":"KAZT 7%2FLTB","Address":"3211 Tower Rd","City":"Prescott","State":"AZ","Zip":"86305"},{"Location":"PERFECT MASSAGE","Address":"1201 W Iron Springs Rd 4","City":"Prescott","State":"AZ","Zip":"86305"},{"Location":"PRESCOTT TIRE","Address":"1635 W Iron Springs Rd B","City":"Prescott","State":"AZ","Zip":"86305"},{"Location":"SCORES BAR & GRILL","Address":"1011 Commerce Dr A","City":"Prescott","State":"AZ","Zip":"86305"},{"Location":"TALKING ROCK GOLF","Address":"15075 N Talking Rock Ranch Rd","City":"Prescott","State":"AZ","Zip":"86305"},{"Location":"TALKING ROCK GOLF-CLUBHOUSE","Address":"15075 N Talking Rock Ranch Rd","City":"Prescott","State":"AZ","Zip":"86305"},{"Location":"THE WINDSOCK","Address":"1365 W Iron Springs Rd A6","City":"Prescott","State":"AZ","Zip":"86305"}]