[{"Location":"BLUE PRINTS FOR RECOVERY","Address":"114 S Virginia St","City":"Prescott","State":"AZ","Zip":"86303"},{"Location":"COYOTE JOES","Address":"214 S Montezuma St","City":"Prescott","State":"AZ","Zip":"86303"},{"Location":"FMC 62650000","Address":"3605 Ranch Dr","City":"Prescott","State":"AZ","Zip":"86303"},{"Location":"HAMADA WEALTH MANAGEMENT","Address":"141 S Mccormick St 106","City":"Prescott","State":"AZ","Zip":"86303"},{"Location":"HAMPTON INN & SUITES PRESCOTT","Address":"3453 Ranch Dr","City":"Prescott","State":"AZ","Zip":"86303"},{"Location":"HIE PRESCOTT","Address":"3454 Ranch Dr","City":"Prescott","State":"AZ","Zip":"86303"},{"Location":"JUST SPORTS","Address":"3250 Gateway Blvd","City":"Prescott","State":"AZ","Zip":"86303"},{"Location":"MORGAN STANLEY 100278","Address":"118 E Carleton St","City":"Prescott","State":"AZ","Zip":"86303"},{"Location":"MOUNTAIN SPIRIT GALLERY","Address":"140 S Montezuma St","City":"Prescott","State":"AZ","Zip":"86303"},{"Location":"PARK PLAZA LIQUOR AND DELI","Address":"402 W Goodwin St","City":"Prescott","State":"AZ","Zip":"86303"},{"Location":"PLAZA BOWL","Address":"127 Plaza Dr","City":"Prescott","State":"AZ","Zip":"86303"},{"Location":"RED ROBIN #67","Address":"3055 Gateway Blvd","City":"Prescott","State":"AZ","Zip":"86303"},{"Location":"SAM HILLS COMPANY","Address":"202 S Montezuma St","City":"Prescott","State":"AZ","Zip":"86303"},{"Location":"TARA","Address":"115 S Cortez St","City":"Prescott","State":"AZ","Zip":"86303"},{"Location":"TARA THAI 2 CUISINE","Address":"115 Cortez","City":"Prescott","State":"AZ","Zip":"86303"},{"Location":"TASTEBUDS PIZZA","Address":"334 S Montezuma St","City":"Prescott","State":"AZ","Zip":"86303"}]