[{"Location":"A SOBER WAY HOME INC","Address":"129 N Alarcon St","City":"Prescott","State":"AZ","Zip":"86301"},{"Location":"ANTELOPE HILLS GOLF CLUB #1","Address":"1 Perkins Dr","City":"Prescott","State":"AZ","Zip":"86301"},{"Location":"APPLEBEE'S #511 PRESCOTT","Address":"1881 E State Route 69","City":"Prescott","State":"AZ","Zip":"86301"},{"Location":"ARIZONA STATE CREDIT UNION #14","Address":"550 E Gurley St","City":"Prescott","State":"AZ","Zip":"86301"},{"Location":"AUGIE'S","Address":"1721 E State Route 69","City":"Prescott","State":"AZ","Zip":"86301"},{"Location":"AZ DRUM AND MUSIC LLC","Address":"223 Grove Ave","City":"Prescott","State":"AZ","Zip":"86301"},{"Location":"BARBUDOS CANTINA","Address":"1042 Willow Creek Rd","City":"Prescott","State":"AZ","Zip":"86301"},{"Location":"BIKE SMITH CYCLERY","Address":"723 N Montezuma St","City":"Prescott","State":"AZ","Zip":"86301"},{"Location":"CANTINA MANANA","Address":"118 N Montezuma St","City":"Prescott","State":"AZ","Zip":"86301"},{"Location":"CLEAN ADVENTURES","Address":"534 Madison Ave","City":"Prescott","State":"AZ","Zip":"86301"},{"Location":"COBHAM AERO SPACE","Address":"6400 Wilkinson Dr","City":"Prescott","State":"AZ","Zip":"86301"},{"Location":"DAVIDSONS","Address":"6100 Wilkinson Dr","City":"Prescott","State":"AZ","Zip":"86301"},{"Location":"DAVIDSONS 1","Address":"2625 Stearman Rd","City":"Prescott","State":"AZ","Zip":"86301"},{"Location":"EMBRY RIDDLE AERONAUTICAL UNIV","Address":"3700 Willow Creek Rd","City":"Prescott","State":"AZ","Zip":"86301"},{"Location":"EMBRY RIDDLE UNIVERSITY","Address":"3700 Willow Creek Rd 7b","City":"Prescott","State":"AZ","Zip":"86301"},{"Location":"ERIC BAUMANN MD PC","Address":"2100 Centerpointe West Dr","City":"Prescott","State":"AZ","Zip":"86301"},{"Location":"FAST","Address":"2208 Melville Rd E","City":"Prescott","State":"AZ","Zip":"86301"},{"Location":"FORK IN THE ROAD GURLEY","Address":"230 W Gurley St","City":"Prescott","State":"AZ","Zip":"86301"},{"Location":"FORK IN THE ROAD MURPHYS","Address":"201 N Cortez St","City":"Prescott","State":"AZ","Zip":"86301"},{"Location":"FORK IN THE ROAD OFFICE","Address":"128 N Cortez St","City":"Prescott","State":"AZ","Zip":"86301"},{"Location":"GRANITE MOUNTAIN","Address":"2202 Melville Rd","City":"Prescott","State":"AZ","Zip":"86301"},{"Location":"GURLEY STREET SPORTS PUB","Address":"801 E Gurley St","City":"Prescott","State":"AZ","Zip":"86301"},{"Location":"HASSAYAMPA CANINE RESORT","Address":"2891 Venture Dr","City":"Prescott","State":"AZ","Zip":"86301"},{"Location":"INMOTION SIMULATION LLC","Address":"6724 Corsair Ave 3","City":"Prescott","State":"AZ","Zip":"86301"},{"Location":"LA QUINTA INN AND SUITES","Address":"4499 E State Route 69","City":"Prescott","State":"AZ","Zip":"86301"},{"Location":"LYZZARDS","Address":"120 N Cortez St","City":"Prescott","State":"AZ","Zip":"86301"},{"Location":"MCDONALDS","Address":"3171 Willow Creek Rd","City":"Prescott","State":"AZ","Zip":"86301"},{"Location":"NATIVE AIR 4 (N5230J) (N3866)","Address":"1002 Division St","City":"Prescott","State":"AZ","Zip":"86301"},{"Location":"NAZ REALTY GROUP","Address":"914 E Gurley St","City":"Prescott","State":"AZ","Zip":"86301"},{"Location":"NEXTCARE URGENT CARE","Address":"2062 Willow Creek Rd","City":"Prescott","State":"AZ","Zip":"86301"},{"Location":"NICK N WILLYS PIZZA","Address":"3196 Willow Creek Rd","City":"Prescott","State":"AZ","Zip":"86301"},{"Location":"OLIVE GARDEN #1645","Address":"3060 Highway 69","City":"Prescott","State":"AZ","Zip":"86301"},{"Location":"PETER PIPER PIZZA # 035","Address":"1911 E Hwy 69","City":"Prescott","State":"AZ","Zip":"86301"},{"Location":"PRESCOTT FIRE CENTER","Address":"2400 Melville Rd","City":"Prescott","State":"AZ","Zip":"86301"},{"Location":"PRESCOTT STATION","Address":"200 E Gurley St","City":"Prescott","State":"AZ","Zip":"86301"},{"Location":"PUDGE & ASTIS","Address":"721 6th St","City":"Prescott","State":"AZ","Zip":"86301"},{"Location":"RED LOBSTER #0623","Address":"1821 East Highway 69","City":"Prescott","State":"AZ","Zip":"86301"},{"Location":"RODRIGUEZ","Address":"1297 E Gurley St","City":"Prescott","State":"AZ","Zip":"86301"},{"Location":"ROGERS MODERN BARBER SHOP","Address":"715 N Montezuma St","City":"Prescott","State":"AZ","Zip":"86301"},{"Location":"SPEEDY TAXI","Address":"505 E Z St","City":"Prescott","State":"AZ","Zip":"86301"},{"Location":"STREETS OF NEW YORK #17","Address":"150 E Sheldon St","City":"Prescott","State":"AZ","Zip":"86301"},{"Location":"THE DRUNKEN LASS","Address":"218 W Gurley St","City":"Prescott","State":"AZ","Zip":"86301"},{"Location":"THE POINT BAR AND LOUNGE","Address":"114 N Montezuma St","City":"Prescott","State":"AZ","Zip":"86301"},{"Location":"TOP 4 NAILS","Address":"1781 E Highway 69 64","City":"Prescott","State":"AZ","Zip":"86301"},{"Location":"TRI CITY SURGERY CENTER","Address":"5430 Distinction Way","City":"Prescott","State":"AZ","Zip":"86301"},{"Location":"TS69282020000000XXAQXXPRCXTVXX","Address":"6500 Mc Cindy Dr","City":"Prescott","State":"AZ","Zip":"86301"},{"Location":"UNISORT ENERGY SERVICES","Address":"6405 Wilkinson Dr","City":"Prescott","State":"AZ","Zip":"86301"},{"Location":"YAVAPAI GA-BUCKYS CASINO","Address":"1500 E Highway 69","City":"Prescott","State":"AZ","Zip":"86301"},{"Location":"YAVAPAI GAMING AGENCY","Address":"1505 E Highway 69","City":"Prescott","State":"AZ","Zip":"86301"},{"Location":"YOGARTZ1","Address":"150 E Sheldon St 110","City":"Prescott","State":"AZ","Zip":"86301"}]