[{"Location":"ANHEUSER-BUSCH WHLSLR #10261B","Address":"10201 E Valley Rd","City":"Prescott Valley","State":"AZ","Zip":"86314"},{"Location":"ARIZONA STATE CREDIT UNION #13","Address":"7111 Pav Way","City":"Prescott Valley","State":"AZ","Zip":"86314"},{"Location":"BACKBURNER FAMILY RESTAURANT","Address":"8400 E Long Mesa Dr B","City":"Prescott Valley","State":"AZ","Zip":"86314"},{"Location":"BIG O TIRES","Address":"7690 East Highway 69","City":"Prescott Valley","State":"AZ","Zip":"86314"},{"Location":"BUFFALO WILD WINGS #3248","Address":"2985 N Centre Ct L","City":"Prescott Valley","State":"AZ","Zip":"86314"},{"Location":"CHILI'S #1154","Address":"7281 Pav Way","City":"Prescott Valley","State":"AZ","Zip":"86314"},{"Location":"DICK'S SPORTING GOODS #1131","Address":"5715 E State Route 69","City":"Prescott Valley","State":"AZ","Zip":"86314"},{"Location":"EARNHARDT LIBERTY KIA","Address":"5600 Market St","City":"Prescott Valley","State":"AZ","Zip":"86314"},{"Location":"ENCANTO GRILL","Address":"8400 E Long Mesa Dr","City":"Prescott Valley","State":"AZ","Zip":"86314"},{"Location":"FLETCHERS TIRE AND AUTO","Address":"5514 E State Route 69","City":"Prescott Valley","State":"AZ","Zip":"86314"},{"Location":"GREAT CLIPS","Address":"3298 N Glassford Hill Rd 106","City":"Prescott Valley","State":"AZ","Zip":"86314"},{"Location":"JACKASS BAR AND GRILL","Address":"8156 E Valley Rd","City":"Prescott Valley","State":"AZ","Zip":"86314"},{"Location":"JOSIES JUICE BAR","Address":"3050 N Windsong Dr","City":"Prescott Valley","State":"AZ","Zip":"86314"},{"Location":"KOHL'S #1089","Address":"3280 N Glassford Hill Rd","City":"Prescott Valley","State":"AZ","Zip":"86314"},{"Location":"LIYNN NAILS N SPA","Address":"7025 E Florentine Rd 103","City":"Prescott Valley","State":"AZ","Zip":"86314"},{"Location":"LOCKHEED MARTIN","Address":"9807 E Valley Rd","City":"Prescott Valley","State":"AZ","Zip":"86314"},{"Location":"MOCERI KILLE","Address":"7550 E Addis Ave","City":"Prescott Valley","State":"AZ","Zip":"86314"},{"Location":"NATIVE AIR SERV INC N14","Address":"3190 N Victor Rd","City":"Prescott Valley","State":"AZ","Zip":"86314"},{"Location":"NEXTCARE URGENT CARE","Address":"3051 N Windsong Dr","City":"Prescott Valley","State":"AZ","Zip":"86314"},{"Location":"OLIVAS MARKET","Address":"8370 E State Route","City":"Prescott Valley","State":"AZ","Zip":"86314"},{"Location":"OUTPOST SALOON","Address":"8172 E Long Mesa Dr B","City":"Prescott Valley","State":"AZ","Zip":"86314"},{"Location":"PACIFIC DENTAL 184","Address":"3264 N Glassford Hill Rd A","City":"Prescott Valley","State":"AZ","Zip":"86314"},{"Location":"PAWNBROKER INC","Address":"6594 E 2nd St C","City":"Prescott Valley","State":"AZ","Zip":"86314"},{"Location":"PRESCOTT VALLEY MOTEL OF","Address":"8390 E State Route 69 Offic","City":"Prescott Valley","State":"AZ","Zip":"86314"},{"Location":"PRESCOTT VALLEY PAWN","Address":"6380 E Highway 69","City":"Prescott Valley","State":"AZ","Zip":"86314"},{"Location":"PRESCOTT VALLEY POLICE","Address":"7601 E Civic Cir","City":"Prescott Valley","State":"AZ","Zip":"86314"},{"Location":"QUAILWOOD COMMUNITY ASSOCIATIO","Address":"12725 East Bradshaw Mountain Rd","City":"Prescott Valley","State":"AZ","Zip":"86314"},{"Location":"RUSTYS GOURMET SUBS","Address":"7801 E Florentine Rd","City":"Prescott Valley","State":"AZ","Zip":"86314"},{"Location":"SAMS  CLUB","Address":"5757 E State Route 69","City":"Prescott Valley","State":"AZ","Zip":"86314"},{"Location":"SSCK LLC","Address":"7025 E Florentine Rd","City":"Prescott Valley","State":"AZ","Zip":"86314"},{"Location":"STONERIDGE GOLF COURSE","Address":"1601 N Bluff Top Dr","City":"Prescott Valley","State":"AZ","Zip":"86314"},{"Location":"TAILGATERS SPORTS GRILL","Address":"7160 Pav Way","City":"Prescott Valley","State":"AZ","Zip":"86314"},{"Location":"THE PIZZA PLACE","Address":"6450 N Viewpoint Dr","City":"Prescott Valley","State":"AZ","Zip":"86314"},{"Location":"TONYS PLACE","Address":"8624 E Valley Rd","City":"Prescott Valley","State":"AZ","Zip":"86314"},{"Location":"WENDYS","Address":"3020 N Glassford Hill Rd","City":"Prescott Valley","State":"AZ","Zip":"86314"}]