[{"Location":"ALVEREZ TIRE","Address":"1574 S State Route 89","City":"Chino Valley","State":"AZ","Zip":"86323"},{"Location":"ARIZONA STATE CREDIT UNION #24","Address":"1021 N Highway 89 A106","City":"Chino Valley","State":"AZ","Zip":"86323"},{"Location":"AROMA PIZZA","Address":"854 Hwy 89","City":"Chino Valley","State":"AZ","Zip":"86323"},{"Location":"BONNFIRE","Address":"1667 S Hwy 89","City":"Chino Valley","State":"AZ","Zip":"86323"},{"Location":"GOLDEN NAILS","Address":"1021 N Highway 89 110","City":"Chino Valley","State":"AZ","Zip":"86323"},{"Location":"LAS VEGAS INSIDER","Address":"823 W Road 1 S","City":"Chino Valley","State":"AZ","Zip":"86323"},{"Location":"RISLEY","Address":"150 S Hwy 89","City":"Chino Valley","State":"AZ","Zip":"86323"},{"Location":"SAFEWAY 1747","Address":"1031 N Hwy 89","City":"Chino Valley","State":"AZ","Zip":"86323"},{"Location":"SERGIOS TIRE","Address":"1376 N State Route 89","City":"Chino Valley","State":"AZ","Zip":"86323"},{"Location":"ALVEREZ TIRE","Address":"1574 S State Route 89","City":"Chino Valley","State":"AZ","Zip":"86323"},{"Location":"ARIZONA STATE CREDIT UNION #24","Address":"1021 N Highway 89 A106","City":"Chino Valley","State":"AZ","Zip":"86323"},{"Location":"AROMA PIZZA","Address":"854 Hwy 89","City":"Chino Valley","State":"AZ","Zip":"86323"},{"Location":"BONNFIRE","Address":"1667 S Hwy 89","City":"Chino Valley","State":"AZ","Zip":"86323"},{"Location":"GOLDEN NAILS","Address":"1021 N Highway 89 110","City":"Chino Valley","State":"AZ","Zip":"86323"},{"Location":"LAS VEGAS INSIDER","Address":"823 W Road 1 S","City":"Chino Valley","State":"AZ","Zip":"86323"},{"Location":"RISLEY","Address":"150 S Hwy 89","City":"Chino Valley","State":"AZ","Zip":"86323"},{"Location":"SAFEWAY 1747","Address":"1031 N Hwy 89","City":"Chino Valley","State":"AZ","Zip":"86323"},{"Location":"SERGIOS TIRE","Address":"1376 N State Route 89","City":"Chino Valley","State":"AZ","Zip":"86323"}]