[{"Location":"CIRCLE BAR STEAKHOUSE","Address":"901 N Lindahl St","City":"Bagdad","State":"AZ","Zip":"86321"},{"Location":"COY LANDSCAPING MAINTENANCE","Address":"130 Bringle Loop","City":"Bagdad","State":"AZ","Zip":"86321"},{"Location":"COY LANDSCAPING MAINTENANCE","Address":"121 Sycamore Creek","City":"Bagdad","State":"AZ","Zip":"86321"},{"Location":"EMPIRE SOUTHWEST1","Address":"160 Sycamore Blvd","City":"Bagdad","State":"AZ","Zip":"86321"},{"Location":"FMI BAGDAD  INC.","Address":"35 Sycamore Dr A","City":"Bagdad","State":"AZ","Zip":"86321"},{"Location":"FMI BAGDAD  INC.","Address":"35 Sycamre Dr B","City":"Bagdad","State":"AZ","Zip":"86321"},{"Location":"FMI BAGDAD INC","Address":"306 Cottonwood","City":"Bagdad","State":"AZ","Zip":"86321"},{"Location":"FMI BAGDAD INC","Address":"162 Sycamore Dr D","City":"Bagdad","State":"AZ","Zip":"86321"},{"Location":"FMI BAGDAD INC","Address":"162 Sycamore Dr C","City":"Bagdad","State":"AZ","Zip":"86321"},{"Location":"FMI BAGDAD OPERATIONS","Address":"Po Box 202","City":"Bagdad","State":"AZ","Zip":"86321"},{"Location":"FMI BAGDAD OPERATIONS","Address":"2 Phillips","City":"Bagdad","State":"AZ","Zip":"86321"},{"Location":"FREEORT MCMORAN","Address":"55 Copper","City":"Bagdad","State":"AZ","Zip":"86321"},{"Location":"FREEPOER-MCMORAN","Address":"97 Sycamore","City":"Bagdad","State":"AZ","Zip":"86321"},{"Location":"FREEPORT MCMORAN","Address":"700 Palo Verde St","City":"Bagdad","State":"AZ","Zip":"86321"},{"Location":"FREEPORT MCMORAN","Address":"31 Sycamore Drive","City":"Bagdad","State":"AZ","Zip":"86321"},{"Location":"FREEPORT MCMORAN","Address":"211 S Lindahl","City":"Bagdad","State":"AZ","Zip":"86321"},{"Location":"FREEPORT MCMORAN","Address":"104 Walnut","City":"Bagdad","State":"AZ","Zip":"86321"},{"Location":"FREEPORT MCMORAN","Address":"106 Baker","City":"Bagdad","State":"AZ","Zip":"86321"},{"Location":"FREEPORT MCMORAN","Address":"15  Cyprus","City":"Bagdad","State":"AZ","Zip":"86321"},{"Location":"FREEPORT-MCMORAN","Address":"302 Palo Verde","City":"Bagdad","State":"AZ","Zip":"86321"},{"Location":"FREEPORT-MCMORAN","Address":"103 Walnut","City":"Bagdad","State":"AZ","Zip":"86321"},{"Location":"FREEPORT-MCMORAN","Address":"401 Palo Verde","City":"Bagdad","State":"AZ","Zip":"86321"},{"Location":"FREEPORT-MCMORAN","Address":"106 Sycamore","City":"Bagdad","State":"AZ","Zip":"86321"},{"Location":"HOFFMAN SOUTHWEST","Address":"106 Bringle Loop","City":"Bagdad","State":"AZ","Zip":"86321"},{"Location":"CIRCLE BAR STEAKHOUSE","Address":"901 N Lindahl St","City":"Bagdad","State":"AZ","Zip":"86321"},{"Location":"COY LANDSCAPING MAINTENANCE","Address":"121 Sycamore Creek","City":"Bagdad","State":"AZ","Zip":"86321"},{"Location":"COY LANDSCAPING MAINTENANCE","Address":"130 Bringle Loop","City":"Bagdad","State":"AZ","Zip":"86321"},{"Location":"EMPIRE SOUTHWEST1","Address":"160 Sycamore Blvd","City":"Bagdad","State":"AZ","Zip":"86321"},{"Location":"FMI BAGDAD  INC.","Address":"35 Sycamre Dr B","City":"Bagdad","State":"AZ","Zip":"86321"},{"Location":"FMI BAGDAD  INC.","Address":"35 Sycamore Dr A","City":"Bagdad","State":"AZ","Zip":"86321"},{"Location":"FMI BAGDAD INC","Address":"306 Cottonwood","City":"Bagdad","State":"AZ","Zip":"86321"},{"Location":"FMI BAGDAD INC","Address":"162 Sycamore Dr D","City":"Bagdad","State":"AZ","Zip":"86321"},{"Location":"FMI BAGDAD INC","Address":"162 Sycamore Dr C","City":"Bagdad","State":"AZ","Zip":"86321"},{"Location":"FMI BAGDAD OPERATIONS","Address":"2 Phillips","City":"Bagdad","State":"AZ","Zip":"86321"},{"Location":"FMI BAGDAD OPERATIONS","Address":"Po Box 202","City":"Bagdad","State":"AZ","Zip":"86321"},{"Location":"FREEORT MCMORAN","Address":"55 Copper","City":"Bagdad","State":"AZ","Zip":"86321"},{"Location":"FREEPOER-MCMORAN","Address":"97 Sycamore","City":"Bagdad","State":"AZ","Zip":"86321"},{"Location":"FREEPORT MCMORAN","Address":"31 Sycamore Drive","City":"Bagdad","State":"AZ","Zip":"86321"},{"Location":"FREEPORT MCMORAN","Address":"106 Baker","City":"Bagdad","State":"AZ","Zip":"86321"},{"Location":"FREEPORT MCMORAN","Address":"211 S Lindahl","City":"Bagdad","State":"AZ","Zip":"86321"},{"Location":"FREEPORT MCMORAN","Address":"700 Palo Verde St","City":"Bagdad","State":"AZ","Zip":"86321"},{"Location":"FREEPORT MCMORAN","Address":"15  Cyprus","City":"Bagdad","State":"AZ","Zip":"86321"},{"Location":"FREEPORT MCMORAN","Address":"104 Walnut","City":"Bagdad","State":"AZ","Zip":"86321"},{"Location":"FREEPORT-MCMORAN","Address":"401 Palo Verde","City":"Bagdad","State":"AZ","Zip":"86321"},{"Location":"FREEPORT-MCMORAN","Address":"103 Walnut","City":"Bagdad","State":"AZ","Zip":"86321"},{"Location":"FREEPORT-MCMORAN","Address":"302 Palo Verde","City":"Bagdad","State":"AZ","Zip":"86321"},{"Location":"FREEPORT-MCMORAN","Address":"106 Sycamore","City":"Bagdad","State":"AZ","Zip":"86321"},{"Location":"HOFFMAN SOUTHWEST","Address":"106 Bringle Loop","City":"Bagdad","State":"AZ","Zip":"86321"}]