[{"Location":"ABREEZE FIRE PROTECTION","Address":"11398 E Circle Dr","City":"Cornville","State":"AZ","Zip":"86325"},{"Location":"JAVELINA LEAP VINERY  LLC","Address":"1565 N Page Springs Rd","City":"Cornville","State":"AZ","Zip":"86325"},{"Location":"OAK CREEK RANCH SCHOOL","Address":"1165 E Willow Point Rd","City":"Cornville","State":"AZ","Zip":"86325"},{"Location":"PAGE SPRINGS LIVING","Address":"995 S Page Springs Rd","City":"Cornville","State":"AZ","Zip":"86325"},{"Location":"RED RIVER","Address":"1901 N Dancing Apache Ranch Rd","City":"Cornville","State":"AZ","Zip":"86325"},{"Location":"RED RIVER BLD S","Address":"1901 N Dancing Apache Ranch Rd","City":"Cornville","State":"AZ","Zip":"86325"},{"Location":"RED RIVER CAT","Address":"1901 N Dancing Apache Ranch Rd","City":"Cornville","State":"AZ","Zip":"86325"},{"Location":"RED RIVER CATTLE","Address":"1901 N Dancing Apache Ranch Rd","City":"Cornville","State":"AZ","Zip":"86325"},{"Location":"THE OLD CORRAL","Address":"11375 Cornville Rd","City":"Cornville","State":"AZ","Zip":"86325"},{"Location":"VERDE SANTA FE CLUB HOUSE","Address":"635 S Verde Santa Fe Pkwy","City":"Cornville","State":"AZ","Zip":"86325"},{"Location":"VERDE SANTA FE INC","Address":"645 S Verde Santa Fe Pkwy","City":"Cornville","State":"AZ","Zip":"86325"}]