[{"Location":"BABES ROUND UP","Address":"90 S Montezuma Castle Hwy","City":"Camp Verde","State":"AZ","Zip":"86322"},{"Location":"CASA DE LAS MARGARITAS","Address":"77 General Crook Trail","City":"Camp Verde","State":"AZ","Zip":"86322"},{"Location":"CLIFF CASTLE CASINO","Address":"555 W Middle Verde Rd","City":"Camp Verde","State":"AZ","Zip":"86322"},{"Location":"COPPER STAR INDOOR RANGE","Address":"3535 W Sharp Shooter Way","City":"Camp Verde","State":"AZ","Zip":"86322"},{"Location":"DRAGONFLY LOUNGE","Address":"555 W Middle Verde Rd B2","City":"Camp Verde","State":"AZ","Zip":"86322"},{"Location":"KEITHS SPORTS CAFE","Address":"522 W Finnie Flat Rd G2","City":"Camp Verde","State":"AZ","Zip":"86322"},{"Location":"RAINBOW ACRES A","Address":"2120 W Reservation Loop Rd","City":"Camp Verde","State":"AZ","Zip":"86322"},{"Location":"SNAP FITNESS #1009","Address":"400 W Finnie Flat Rd 104","City":"Camp Verde","State":"AZ","Zip":"86322"},{"Location":"ST FRANCES CABRINI CATHOLIC","Address":"781 S Cliffs Pkwy","City":"Camp Verde","State":"AZ","Zip":"86322"},{"Location":"VERDE PORTAL","Address":"325 S Main St","City":"Camp Verde","State":"AZ","Zip":"86322"},{"Location":"VETERANS OF FOREIGN WARS","Address":"377 W State Route 260","City":"Camp Verde","State":"AZ","Zip":"86322"},{"Location":"YAVAPAI APACHE NATION","Address":"2400 W Datsi St","City":"Camp Verde","State":"AZ","Zip":"86322"},{"Location":"POWDER LIVESTOCK EQUIPME","Address":"675 S Main St","City":"Campe Verde","State":"AZ","Zip":"86322"}]