[{"Location":"","Address":"2014 S Arroya Vista Dr","City":"Cottonwood","State":"AZ","Zip":"86326"},{"Location":"A NEW SPIN LAUNDRY","Address":"1675 E Cottonwood St G","City":"Cottonwood","State":"AZ","Zip":"86326"},{"Location":"ABC BODY SHOP","Address":"1269 E Cherry St","City":"Cottonwood","State":"AZ","Zip":"86326"},{"Location":"ARIZONA STATE CREDIT UNION #19","Address":"601 W Hwy 89a","City":"Cottonwood","State":"AZ","Zip":"86326"},{"Location":"CASA BONITA","Address":"991 S Main St","City":"Cottonwood","State":"AZ","Zip":"86326"},{"Location":"COTTONWOOD HOTEL","Address":"930 N Main St","City":"Cottonwood","State":"AZ","Zip":"86326"},{"Location":"COURTESY AUTO SALES","Address":"1516 E Hwy 89a","City":"Cottonwood","State":"AZ","Zip":"86326"},{"Location":"DAVITA #6805-1C COTTONWOOD","Address":"1699 E Cottonwood St A200","City":"Cottonwood","State":"AZ","Zip":"86326"},{"Location":"EL PATIO BAR AND GRILL","Address":"1695 E Cottonwood St J","City":"Cottonwood","State":"AZ","Zip":"86326"},{"Location":"EL RIO DE ORO MHP","Address":"325 W State Route 89a","City":"Cottonwood","State":"AZ","Zip":"86326"},{"Location":"EMD MEDICAL SERVICES","Address":"203 S Candy Ln 5b","City":"Cottonwood","State":"AZ","Zip":"86326"},{"Location":"EMMANUEL FELLOWSHIP","Address":"1580 E Fir St","City":"Cottonwood","State":"AZ","Zip":"86326"},{"Location":"FMC 92190000","Address":"455 S Calvary Way","City":"Cottonwood","State":"AZ","Zip":"86326"},{"Location":"GREEK CAFE","Address":"468 S Main St B","City":"Cottonwood","State":"AZ","Zip":"86326"},{"Location":"GUARDIAN AIR","Address":"269 S Candy Ln","City":"Cottonwood","State":"AZ","Zip":"86326"},{"Location":"HACIENDA INN LLC","Address":"1330 E State Route 89a","City":"Cottonwood","State":"AZ","Zip":"86326"},{"Location":"HOLMS","Address":"2516 S Village Dr","City":"Cottonwood","State":"AZ","Zip":"86326"},{"Location":"KACTUS KATES","Address":"929 N Main St","City":"Cottonwood","State":"AZ","Zip":"86326"},{"Location":"MORAGAS AUTHENTIC MEX","Address":"1124 N Main St","City":"Cottonwood","State":"AZ","Zip":"86326"},{"Location":"MY DOBRO%2C LLC","Address":"1100 S Highway 260 21","City":"Cottonwood","State":"AZ","Zip":"86326"},{"Location":"NAZCARE","Address":"1229 E Cherry St","City":"Cottonwood","State":"AZ","Zip":"86326"},{"Location":"NEXTCARE","Address":"450 S Willard St 120","City":"Cottonwood","State":"AZ","Zip":"86326"},{"Location":"NORTHERN ARIZONA REHABIL","Address":"480 S Willard St","City":"Cottonwood","State":"AZ","Zip":"86326"},{"Location":"NORTHERN ARIZONA SPINE","Address":"55 S 6th St","City":"Cottonwood","State":"AZ","Zip":"86326"},{"Location":"ON THE GREENS","Address":"969 W On The Greens Blvd","City":"Cottonwood","State":"AZ","Zip":"86326"},{"Location":"P AND L INDUSTRIES","Address":"30 N Alamos Dr","City":"Cottonwood","State":"AZ","Zip":"86326"},{"Location":"PACIFIC DENTAL #217","Address":"1061 S Highway 260","City":"Cottonwood","State":"AZ","Zip":"86326"},{"Location":"PINE SHADOWS GOLF COURSE","Address":"1480 W Groseta Ranch Rd","City":"Cottonwood","State":"AZ","Zip":"86326"},{"Location":"PIZZA HUT-COTTONWOOD","Address":"472 S Main St","City":"Cottonwood","State":"AZ","Zip":"86326"},{"Location":"RED ROCK","Address":"800 Cove Pkwy","City":"Cottonwood","State":"AZ","Zip":"86326"},{"Location":"REGAL NAILS","Address":"2003 E Rodeo Dr 1299","City":"Cottonwood","State":"AZ","Zip":"86326"},{"Location":"RIOT IN OLD TOWN","Address":"777 N Main St","City":"Cottonwood","State":"AZ","Zip":"86326"},{"Location":"SALON CONCEPTS","Address":"1645 E Cottonwood St G","City":"Cottonwood","State":"AZ","Zip":"86326"},{"Location":"SPINDRIFT VAPEHOUSE","Address":"280 S Main St H","City":"Cottonwood","State":"AZ","Zip":"86326"},{"Location":"STROMBOLLI'S REST & PIZZERIA","Address":"321 S Main St","City":"Cottonwood","State":"AZ","Zip":"86326"},{"Location":"THE BARBER SHOP","Address":"1632 E Cottonwood St","City":"Cottonwood","State":"AZ","Zip":"86326"},{"Location":"THE TAVERN GRILLE","Address":"914 N Main St","City":"Cottonwood","State":"AZ","Zip":"86326"},{"Location":"VERDE VALLEY AMBULANCE CO INC","Address":"839 W Mingus Ave","City":"Cottonwood","State":"AZ","Zip":"86326"},{"Location":"VERDE VALLEY MEDICAL CEN","Address":"1945 S Quail Run","City":"Cottonwood","State":"AZ","Zip":"86326"},{"Location":"","Address":"2014 S Arroya Vista Dr","City":"Cottonwood","State":"AZ","Zip":"86326"},{"Location":"A NEW SPIN LAUNDRY","Address":"1675 E Cottonwood St G","City":"Cottonwood","State":"AZ","Zip":"86326"},{"Location":"ABC BODY SHOP","Address":"1269 E Cherry St","City":"Cottonwood","State":"AZ","Zip":"86326"},{"Location":"ARIZONA STATE CREDIT UNION #19","Address":"601 W Hwy 89a","City":"Cottonwood","State":"AZ","Zip":"86326"},{"Location":"CASA BONITA","Address":"991 S Main St","City":"Cottonwood","State":"AZ","Zip":"86326"},{"Location":"COTTONWOOD HOTEL","Address":"930 N Main St","City":"Cottonwood","State":"AZ","Zip":"86326"},{"Location":"COURTESY AUTO SALES","Address":"1516 E Hwy 89a","City":"Cottonwood","State":"AZ","Zip":"86326"},{"Location":"DAVITA #6805-1C COTTONWOOD","Address":"1699 E Cottonwood St A200","City":"Cottonwood","State":"AZ","Zip":"86326"},{"Location":"EL PATIO BAR AND GRILL","Address":"1695 E Cottonwood St J","City":"Cottonwood","State":"AZ","Zip":"86326"},{"Location":"EL RIO DE ORO MHP","Address":"325 W State Route 89a","City":"Cottonwood","State":"AZ","Zip":"86326"},{"Location":"EMD MEDICAL SERVICES","Address":"203 S Candy Ln 5b","City":"Cottonwood","State":"AZ","Zip":"86326"},{"Location":"EMMANUEL FELLOWSHIP","Address":"1580 E Fir St","City":"Cottonwood","State":"AZ","Zip":"86326"},{"Location":"FMC 92190000","Address":"455 S Calvary Way","City":"Cottonwood","State":"AZ","Zip":"86326"},{"Location":"GREEK CAFE","Address":"468 S Main St B","City":"Cottonwood","State":"AZ","Zip":"86326"},{"Location":"GUARDIAN AIR","Address":"269 S Candy Ln","City":"Cottonwood","State":"AZ","Zip":"86326"},{"Location":"HACIENDA INN LLC","Address":"1330 E State Route 89a","City":"Cottonwood","State":"AZ","Zip":"86326"},{"Location":"HOLMS","Address":"2516 S Village Dr","City":"Cottonwood","State":"AZ","Zip":"86326"},{"Location":"KACTUS KATES","Address":"929 N Main St","City":"Cottonwood","State":"AZ","Zip":"86326"},{"Location":"MORAGAS AUTHENTIC MEX","Address":"1124 N Main St","City":"Cottonwood","State":"AZ","Zip":"86326"},{"Location":"MY DOBRO%2C LLC","Address":"1100 S Highway 260 21","City":"Cottonwood","State":"AZ","Zip":"86326"},{"Location":"NAZCARE","Address":"1229 E Cherry St","City":"Cottonwood","State":"AZ","Zip":"86326"},{"Location":"NEXTCARE","Address":"450 S Willard St 120","City":"Cottonwood","State":"AZ","Zip":"86326"},{"Location":"NORTHERN ARIZONA REHABIL","Address":"480 S Willard St","City":"Cottonwood","State":"AZ","Zip":"86326"},{"Location":"NORTHERN ARIZONA SPINE","Address":"55 S 6th St","City":"Cottonwood","State":"AZ","Zip":"86326"},{"Location":"ON THE GREENS","Address":"969 W On The Greens Blvd","City":"Cottonwood","State":"AZ","Zip":"86326"},{"Location":"P AND L INDUSTRIES","Address":"30 N Alamos Dr","City":"Cottonwood","State":"AZ","Zip":"86326"},{"Location":"PACIFIC DENTAL #217","Address":"1061 S Highway 260","City":"Cottonwood","State":"AZ","Zip":"86326"},{"Location":"PINE SHADOWS GOLF COURSE","Address":"1480 W Groseta Ranch Rd","City":"Cottonwood","State":"AZ","Zip":"86326"},{"Location":"PIZZA HUT-COTTONWOOD","Address":"472 S Main St","City":"Cottonwood","State":"AZ","Zip":"86326"},{"Location":"RED ROCK","Address":"800 Cove Pkwy","City":"Cottonwood","State":"AZ","Zip":"86326"},{"Location":"REGAL NAILS","Address":"2003 E Rodeo Dr 1299","City":"Cottonwood","State":"AZ","Zip":"86326"},{"Location":"RIOT IN OLD TOWN","Address":"777 N Main St","City":"Cottonwood","State":"AZ","Zip":"86326"},{"Location":"SALON CONCEPTS","Address":"1645 E Cottonwood St G","City":"Cottonwood","State":"AZ","Zip":"86326"},{"Location":"SPINDRIFT VAPEHOUSE","Address":"280 S Main St H","City":"Cottonwood","State":"AZ","Zip":"86326"},{"Location":"STROMBOLLI'S REST & PIZZERIA","Address":"321 S Main St","City":"Cottonwood","State":"AZ","Zip":"86326"},{"Location":"THE BARBER SHOP","Address":"1632 E Cottonwood St","City":"Cottonwood","State":"AZ","Zip":"86326"},{"Location":"THE TAVERN GRILLE","Address":"914 N Main St","City":"Cottonwood","State":"AZ","Zip":"86326"},{"Location":"VERDE VALLEY AMBULANCE CO INC","Address":"839 W Mingus Ave","City":"Cottonwood","State":"AZ","Zip":"86326"},{"Location":"VERDE VALLEY MEDICAL CEN","Address":"1945 S Quail Run","City":"Cottonwood","State":"AZ","Zip":"86326"}]