[{"Location":"","Address":"3230 Calle Del Montana","City":"Sedona","State":"AZ","Zip":"86336"},{"Location":"ALTERNATIVE TO MEDS CENTER LLC","Address":"2595 Red Rock Loop Rd","City":"Sedona","State":"AZ","Zip":"86336"},{"Location":"ALTERNATIVE TO MEDS CENTER LLC","Address":"185 Roadrunner Dr","City":"Sedona","State":"AZ","Zip":"86336"},{"Location":"CAFE JOSE LLC","Address":"2370 W Highway 89a","City":"Sedona","State":"AZ","Zip":"86336"},{"Location":"CANYON BREEZE SEDONA","Address":"300 N Highway 89a","City":"Sedona","State":"AZ","Zip":"86336"},{"Location":"CHARLES STARR CORPORATION","Address":"2575 W State Route 89a","City":"Sedona","State":"AZ","Zip":"86336"},{"Location":"CK NAILS","Address":"150 Hwy 179 7","City":"Sedona","State":"AZ","Zip":"86336"},{"Location":"DAWSON & ROSENTHAL  P.C.","Address":"25 Schnebly Hill Rd","City":"Sedona","State":"AZ","Zip":"86336"},{"Location":"FAMOUS PIZZA","Address":"3190 Arizona 89a","City":"Sedona","State":"AZ","Zip":"86336"},{"Location":"GOLDEN GOOSE CAFE & BISTRO","Address":"2545 W Highway 89a","City":"Sedona","State":"AZ","Zip":"86336"},{"Location":"GONE SOUTH","Address":"2920 W 89 A","City":"Sedona","State":"AZ","Zip":"86336"},{"Location":"HAMPTON INN (0053054)","Address":"1800 W Highway 89a","City":"Sedona","State":"AZ","Zip":"86336"},{"Location":"HEART LINE CAFE","Address":"1610 W State Route 89a","City":"Sedona","State":"AZ","Zip":"86336"},{"Location":"JAVALEINA CANTINA","Address":"671 State Route 179","City":"Sedona","State":"AZ","Zip":"86336"},{"Location":"JUNIPINE CAFE","Address":"8351 N State Route 89a","City":"Sedona","State":"AZ","Zip":"86336"},{"Location":"KENS CREEKSIDE","Address":"251 Hwy 179","City":"Sedona","State":"AZ","Zip":"86336"},{"Location":"MESA GRILL","Address":"1185 Airport Rd","City":"Sedona","State":"AZ","Zip":"86336"},{"Location":"MOONEYS IRISH PUB","Address":"671 State Route 179","City":"Sedona","State":"AZ","Zip":"86336"},{"Location":"NEXTCARE","Address":"2530 W State Route 89a A","City":"Sedona","State":"AZ","Zip":"86336"},{"Location":"OAK CREEK BREWERY & GRILL","Address":"336 Highway 179 D201","City":"Sedona","State":"AZ","Zip":"86336"},{"Location":"OAK CREEK BREWING CO","Address":"2050 Yavapai Dr 2c","City":"Sedona","State":"AZ","Zip":"86336"},{"Location":"OLDE SEDONA BAR AND GRILL","Address":"1405 W State Route 89a","City":"Sedona","State":"AZ","Zip":"86336"},{"Location":"OPEN RANGE GRILL & TAVER","Address":"320 N Sr 89a 16","City":"Sedona","State":"AZ","Zip":"86336"},{"Location":"ORCHIDS BAR AND GRILL","Address":"254 N Hwy 89a","City":"Sedona","State":"AZ","Zip":"86336"},{"Location":"PISA LISA","Address":"2245 W State Route 89a","City":"Sedona","State":"AZ","Zip":"86336"},{"Location":"PLAZA BONITA","Address":"164 Coffee Pot Dr H","City":"Sedona","State":"AZ","Zip":"86336"},{"Location":"POCO DIABLO RESORT","Address":"1752 Hwy 179","City":"Sedona","State":"AZ","Zip":"86336"},{"Location":"RED ROCK BBQ","Address":"150 State Route 179 1","City":"Sedona","State":"AZ","Zip":"86336"},{"Location":"RED ROCK DENTISTRY","Address":"1120 W Hwy 89a A3","City":"Sedona","State":"AZ","Zip":"86336"},{"Location":"RJS BUSINESS VENTURES","Address":"1655 W Highway 89a","City":"Sedona","State":"AZ","Zip":"86336"},{"Location":"SEDONA ELKS LODGE2291","Address":"110 Airport Rd","City":"Sedona","State":"AZ","Zip":"86336"},{"Location":"SEDONA PIZZA COMPANY","Address":"320 N State Rroute 89 A  #c","City":"Sedona","State":"AZ","Zip":"86336"},{"Location":"SOUND BITES GRILL","Address":"101 N Highway 89a F29","City":"Sedona","State":"AZ","Zip":"86336"},{"Location":"SPOKE AND WHEEL","Address":"160 Portal Ln","City":"Sedona","State":"AZ","Zip":"86336"},{"Location":"SZECHUAN RESTAURANT","Address":"1350 W Highway 89a 21","City":"Sedona","State":"AZ","Zip":"86336"},{"Location":"TAKASHI JAPANESE RESTAURANT","Address":"465 Jordan","City":"Sedona","State":"AZ","Zip":"86336"},{"Location":"TAO FELLOWSHIP","Address":"3500 Bill Grey Rd","City":"Sedona","State":"AZ","Zip":"86336"},{"Location":"THE BUTTERFLY GARDEN  LL","Address":"9440 N Highway 89a","City":"Sedona","State":"AZ","Zip":"86336"},{"Location":"THE SUN DOWNER","Address":"37 Navajo Trl","City":"Sedona","State":"AZ","Zip":"86336"},{"Location":"VERANDAH BAR","Address":"301 Lauberge Ln","City":"Sedona","State":"AZ","Zip":"86336"},{"Location":"VERANDAS APARTMENTS LLC","Address":"8067 N State Route 89a","City":"Sedona","State":"AZ","Zip":"86336"},{"Location":"WAYNE B LIGHT SEDONA JEW","Address":"40 Soldiers Pass Rd 1","City":"Sedona","State":"AZ","Zip":"86336"}]