[{"Location":"BACKSEAT BAR","Address":"19780 E Hitching Post Way","City":"Mayer","State":"AZ","Zip":"86333"},{"Location":"BUMBLE BEE RANCH ADVENTURE","Address":"Hc 34 Box 5075","City":"Mayer","State":"AZ","Zip":"86333"},{"Location":"CORDES JUNCTION MOTEL","Address":"19780 E Hitching Post Way","City":"Mayer","State":"AZ","Zip":"86333"},{"Location":"G & S GRAVEL ONC","Address":"11500 E Finley Rd","City":"Mayer","State":"AZ","Zip":"86333"},{"Location":"G&S GRAVEL INC","Address":"11500 Finley Rd","City":"Mayer","State":"AZ","Zip":"86333"},{"Location":"THE HAIR HUT","Address":"17301 E Spring Valley Rd 6","City":"Mayer","State":"AZ","Zip":"86333"},{"Location":"WD EXTREME DBA CLEAR BAR1","Address":"13025 E Crown King Rd","City":"Mayer","State":"AZ","Zip":"86333"},{"Location":"BACKSEAT BAR","Address":"19780 E Hitching Post Way","City":"Mayer","State":"AZ","Zip":"86333"},{"Location":"BUMBLE BEE RANCH ADVENTURE","Address":"Hc 34 Box 5075","City":"Mayer","State":"AZ","Zip":"86333"},{"Location":"CORDES JUNCTION MOTEL","Address":"19780 E Hitching Post Way","City":"Mayer","State":"AZ","Zip":"86333"},{"Location":"G & S GRAVEL ONC","Address":"11500 E Finley Rd","City":"Mayer","State":"AZ","Zip":"86333"},{"Location":"G&S GRAVEL INC","Address":"11500 Finley Rd","City":"Mayer","State":"AZ","Zip":"86333"},{"Location":"THE HAIR HUT","Address":"17301 E Spring Valley Rd 6","City":"Mayer","State":"AZ","Zip":"86333"},{"Location":"WD EXTREME DBA CLEAR BAR1","Address":"13025 E Crown King Rd","City":"Mayer","State":"AZ","Zip":"86333"}]