[{"Location":"A TASTE OF MARRAKESCH","Address":"25 Bell Rock Plz C","City":"Sedona","State":"AZ","Zip":"86351"},{"Location":"ACCOUTING TAX FINANCE","Address":"6486 State Route 179 107","City":"Sedona","State":"AZ","Zip":"86351"},{"Location":"AMERICAN BUILDING COMPANY","Address":"35 Slide Rock Rd","City":"Sedona","State":"AZ","Zip":"86351"},{"Location":"AZ ATV ADVENTURES","Address":"195 Devils Kitchen Dr","City":"Sedona","State":"AZ","Zip":"86351"},{"Location":"BLUE MOON CAFE","Address":"6101 St Rt 179 B","City":"Sedona","State":"AZ","Zip":"86351"},{"Location":"FULL MOON SALOON","Address":"7000 Highway 179 G100","City":"Sedona","State":"AZ","Zip":"86351"},{"Location":"HILTON SEDONA RESORT","Address":"90 Ridge Trail Dr","City":"Sedona","State":"AZ","Zip":"86351"},{"Location":"KINCAID FINANCIAL ADVISORS","Address":"6486 Highway 179","City":"Sedona","State":"AZ","Zip":"86351"},{"Location":"MARIA'S RESTAURANT & CANTINA","Address":"6446 Hwy 179 212","City":"Sedona","State":"AZ","Zip":"86351"},{"Location":"MARKETPLACE CAFE","Address":"6645 Highway 179 C7","City":"Sedona","State":"AZ","Zip":"86351"},{"Location":"MILEYS CAFE LLC","Address":"7000 Hwy 179 A108","City":"Sedona","State":"AZ","Zip":"86351"},{"Location":"MONGOS BAR AND GRILL","Address":"7000 Sr 179 C106","City":"Sedona","State":"AZ","Zip":"86351"},{"Location":"NJAJ CONSULTING INC","Address":"165 Concho Cir","City":"Sedona","State":"AZ","Zip":"86351"},{"Location":"OAK CREEK COUNTRY CLUB","Address":"690 Bell Rock Blvd","City":"Sedona","State":"AZ","Zip":"86351"},{"Location":"PJS VILLAGE PUB","Address":"40 W Cortez Dr 7","City":"Sedona","State":"AZ","Zip":"86351"},{"Location":"REDSTONE GRILL & PATIO","Address":"690 Bell Rock Blvd","City":"Sedona","State":"AZ","Zip":"86351"},{"Location":"SEDONA GOLF RESORT","Address":"35 Ridge Trail Dr","City":"Sedona","State":"AZ","Zip":"86351"},{"Location":"STAMP RENTAL HOMES","Address":"45 N Canyon Diablo Rd J","City":"Sedona","State":"AZ","Zip":"86351"}]