[{"Location":"A & P PAWN","Address":"307 E Beale St","City":"Kingman","State":"AZ","Zip":"86401"},{"Location":"ANHEUSER-BUSCH WHLSLR #10202","Address":"2908 E Andy Devine Ave","City":"Kingman","State":"AZ","Zip":"86401"},{"Location":"BEST TIRE LLC","Address":"1210 W Beale St","City":"Kingman","State":"AZ","Zip":"86401"},{"Location":"CAROL NEWMYER MD","Address":"1815 N Stockton Hill Rd","City":"Kingman","State":"AZ","Zip":"86401"},{"Location":"COZY CORNER RV PARK","Address":"9855 E Route 66","City":"Kingman","State":"AZ","Zip":"86401"},{"Location":"DAMBAR & STEAKHOUSE","Address":"1960 E Andy Devine Ave","City":"Kingman","State":"AZ","Zip":"86401"},{"Location":"DENNYS","Address":"3300 E Andy Devine Ave","City":"Kingman","State":"AZ","Zip":"86401"},{"Location":"DILLON TRANSPORTATION","Address":"4445 N Interstate Way","City":"Kingman","State":"AZ","Zip":"86401"},{"Location":"EDWARD JONES","Address":"2116 N Stockton Hill Rd A","City":"Kingman","State":"AZ","Zip":"86401"},{"Location":"EL PALACIO","Address":"401 E Andy Devine Ave","City":"Kingman","State":"AZ","Zip":"86401"},{"Location":"ELKS LODGE","Address":"900 Gates Ave","City":"Kingman","State":"AZ","Zip":"86401"},{"Location":"FIRESIDE BAR AND LOUNGE","Address":"1716 Hoover St","City":"Kingman","State":"AZ","Zip":"86401"},{"Location":"GUARDIAN AIR","Address":"7010 Flightline Dr","City":"Kingman","State":"AZ","Zip":"86401"},{"Location":"HMR","Address":"4525 Hualapai Mountain Rd","City":"Kingman","State":"AZ","Zip":"86401"},{"Location":"INTEGRA - HONEYWELL","Address":"4805 E Mohave Airport Dr","City":"Kingman","State":"AZ","Zip":"86401"},{"Location":"KIDS LITTLE SMILES","Address":"2202 Hualapai Mountain Rd","City":"Kingman","State":"AZ","Zip":"86401"},{"Location":"MA & PA'S HOT ROD CAFE","Address":"2215 Hualapai Mountain Rd","City":"Kingman","State":"AZ","Zip":"86401"},{"Location":"MOHAVE CTY JUVENILE DETENTION","Address":"300 W Andy Devine Ave","City":"Kingman","State":"AZ","Zip":"86401"},{"Location":"MONICA J BUSCH INVESTMEN","Address":"1916 Lucille Ave C","City":"Kingman","State":"AZ","Zip":"86401"},{"Location":"PETRO 315 KINGMAN","Address":"970 S Blake Ranch Rd","City":"Kingman","State":"AZ","Zip":"86401"},{"Location":"PILOT FLYING J #61000","Address":"3300 E Andy Devine Ave","City":"Kingman","State":"AZ","Zip":"86401"},{"Location":"TCA 094 KINGMAN","Address":"946 W Beale St","City":"Kingman","State":"AZ","Zip":"86401"},{"Location":"TERIS AVON STORE","Address":"3020 Pasadena Ave","City":"Kingman","State":"AZ","Zip":"86401"},{"Location":"TIME OUT TAVERN","Address":"2601 N Stockton Hill Rd G","City":"Kingman","State":"AZ","Zip":"86401"},{"Location":"TRISTATE CAREFLIGHT","Address":"5880 Flightline Dr","City":"Kingman","State":"AZ","Zip":"86401"},{"Location":"TRUE VALUE COMPANY","Address":"4005 E Mohave Airport Dr","City":"Kingman","State":"AZ","Zip":"86401"},{"Location":"TS69282020000000XXAQXXIGMXTVXX","Address":"6000 Flightline Dr","City":"Kingman","State":"AZ","Zip":"86401"},{"Location":"US TELECOM SERVICES","Address":"2331 Hualapai Mountain Rd","City":"Kingman","State":"AZ","Zip":"86401"},{"Location":"PHS INDIAN HEALTH CENTER","Address":"940 Hualapai Way","City":"Peach Springs","State":"AZ","Zip":"86401"},{"Location":"A & P PAWN","Address":"307 E Beale St","City":"Kingman","State":"AZ","Zip":"86401"},{"Location":"ANHEUSER-BUSCH WHLSLR #10202","Address":"2908 E Andy Devine Ave","City":"Kingman","State":"AZ","Zip":"86401"},{"Location":"BEST TIRE LLC","Address":"1210 W Beale St","City":"Kingman","State":"AZ","Zip":"86401"},{"Location":"CAROL NEWMYER MD","Address":"1815 N Stockton Hill Rd","City":"Kingman","State":"AZ","Zip":"86401"},{"Location":"COZY CORNER RV PARK","Address":"9855 E Route 66","City":"Kingman","State":"AZ","Zip":"86401"},{"Location":"DAMBAR & STEAKHOUSE","Address":"1960 E Andy Devine Ave","City":"Kingman","State":"AZ","Zip":"86401"},{"Location":"DENNYS","Address":"3300 E Andy Devine Ave","City":"Kingman","State":"AZ","Zip":"86401"},{"Location":"DILLON TRANSPORTATION","Address":"4445 N Interstate Way","City":"Kingman","State":"AZ","Zip":"86401"},{"Location":"EDWARD JONES","Address":"2116 N Stockton Hill Rd A","City":"Kingman","State":"AZ","Zip":"86401"},{"Location":"EL PALACIO","Address":"401 E Andy Devine Ave","City":"Kingman","State":"AZ","Zip":"86401"},{"Location":"ELKS LODGE","Address":"900 Gates Ave","City":"Kingman","State":"AZ","Zip":"86401"},{"Location":"FIRESIDE BAR AND LOUNGE","Address":"1716 Hoover St","City":"Kingman","State":"AZ","Zip":"86401"},{"Location":"GUARDIAN AIR","Address":"7010 Flightline Dr","City":"Kingman","State":"AZ","Zip":"86401"},{"Location":"HMR","Address":"4525 Hualapai Mountain Rd","City":"Kingman","State":"AZ","Zip":"86401"},{"Location":"INTEGRA - HONEYWELL","Address":"4805 E Mohave Airport Dr","City":"Kingman","State":"AZ","Zip":"86401"},{"Location":"KIDS LITTLE SMILES","Address":"2202 Hualapai Mountain Rd","City":"Kingman","State":"AZ","Zip":"86401"},{"Location":"MA & PA'S HOT ROD CAFE","Address":"2215 Hualapai Mountain Rd","City":"Kingman","State":"AZ","Zip":"86401"},{"Location":"MOHAVE CTY JUVENILE DETENTION","Address":"300 W Andy Devine Ave","City":"Kingman","State":"AZ","Zip":"86401"},{"Location":"MONICA J BUSCH INVESTMEN","Address":"1916 Lucille Ave C","City":"Kingman","State":"AZ","Zip":"86401"},{"Location":"PETRO 315 KINGMAN","Address":"970 S Blake Ranch Rd","City":"Kingman","State":"AZ","Zip":"86401"},{"Location":"PILOT FLYING J #61000","Address":"3300 E Andy Devine Ave","City":"Kingman","State":"AZ","Zip":"86401"},{"Location":"TCA 094 KINGMAN","Address":"946 W Beale St","City":"Kingman","State":"AZ","Zip":"86401"},{"Location":"TERIS AVON STORE","Address":"3020 Pasadena Ave","City":"Kingman","State":"AZ","Zip":"86401"},{"Location":"TIME OUT TAVERN","Address":"2601 N Stockton Hill Rd G","City":"Kingman","State":"AZ","Zip":"86401"},{"Location":"TRISTATE CAREFLIGHT","Address":"5880 Flightline Dr","City":"Kingman","State":"AZ","Zip":"86401"},{"Location":"TRUE VALUE COMPANY","Address":"4005 E Mohave Airport Dr","City":"Kingman","State":"AZ","Zip":"86401"},{"Location":"TS69282020000000XXAQXXIGMXTVXX","Address":"6000 Flightline Dr","City":"Kingman","State":"AZ","Zip":"86401"},{"Location":"US TELECOM SERVICES","Address":"2331 Hualapai Mountain Rd","City":"Kingman","State":"AZ","Zip":"86401"},{"Location":"PHS INDIAN HEALTH CENTER","Address":"940 Hualapai Way","City":"Peach Springs","State":"AZ","Zip":"86401"}]