[{"Location":"CERBAT LANES","Address":"3631 N Stockton Hill Rd","City":"Kingman","State":"AZ","Zip":"86409"},{"Location":"CHAMPS PUB AND GRILL","Address":"2215 E Butler Ave","City":"Kingman","State":"AZ","Zip":"86409"},{"Location":"CHILI'S #1046","Address":"3840 N Stockton Hill Rd","City":"Kingman","State":"AZ","Zip":"86409"},{"Location":"COLORADO RIVER FORD","Address":"3601 Stockton Hill Rd","City":"Kingman","State":"AZ","Zip":"86409"},{"Location":"DESERT DE ORO FOODS","Address":"3845 Stockton Hill Rd","City":"Kingman","State":"AZ","Zip":"86409"},{"Location":"DT SERVICES","Address":"1841 E Morrow Ave","City":"Kingman","State":"AZ","Zip":"86409"},{"Location":"EMPIER MACHINERY","Address":"3255 Rutherford St","City":"Kingman","State":"AZ","Zip":"86409"},{"Location":"FMC 64450000","Address":"1721 Airway Ave","City":"Kingman","State":"AZ","Zip":"86409"},{"Location":"KINGMAN       HONDA","Address":"3800 Stockton Hill Rd","City":"Kingman","State":"AZ","Zip":"86409"},{"Location":"KINGMAN CHOPHOUSE","Address":"1851 Kino Ave","City":"Kingman","State":"AZ","Zip":"86409"},{"Location":"MIKES POWER TOW1","Address":"3895 Sunshine Dr","City":"Kingman","State":"AZ","Zip":"86409"},{"Location":"MOHAVE COUNTY PUBLIC WORKS","Address":"3250 Kino Ave","City":"Kingman","State":"AZ","Zip":"86409"},{"Location":"PLAZA BONITA","Address":"1969 E Beverly Ave","City":"Kingman","State":"AZ","Zip":"86409"},{"Location":"PRESTON INVESTMENTS","Address":"4345 Stockton Hill Rd","City":"Kingman","State":"AZ","Zip":"86409"},{"Location":"RIATA DENTAL","Address":"1101 Riata Valley Rd","City":"Kingman","State":"AZ","Zip":"86409"},{"Location":"SAFEWAY STORE 1887","Address":"3970 Stockton Hill Rd","City":"Kingman","State":"AZ","Zip":"86409"},{"Location":"SPORT CLIPS","Address":"3880 Stockton Hill Rd","City":"Kingman","State":"AZ","Zip":"86409"},{"Location":"WASH ME","Address":"3630 Stockton Hill Rd","City":"Kingman","State":"AZ","Zip":"86409"},{"Location":"ZUNI VILLAGE RV PARK","Address":"2840 Airway Ave","City":"Kingman","State":"AZ","Zip":"86409"},{"Location":"CERBAT LANES","Address":"3631 N Stockton Hill Rd","City":"Kingman","State":"AZ","Zip":"86409"},{"Location":"CHAMPS PUB AND GRILL","Address":"2215 E Butler Ave","City":"Kingman","State":"AZ","Zip":"86409"},{"Location":"CHILI'S #1046","Address":"3840 N Stockton Hill Rd","City":"Kingman","State":"AZ","Zip":"86409"},{"Location":"COLORADO RIVER FORD","Address":"3601 Stockton Hill Rd","City":"Kingman","State":"AZ","Zip":"86409"},{"Location":"DESERT DE ORO FOODS","Address":"3845 Stockton Hill Rd","City":"Kingman","State":"AZ","Zip":"86409"},{"Location":"DT SERVICES","Address":"1841 E Morrow Ave","City":"Kingman","State":"AZ","Zip":"86409"},{"Location":"EMPIER MACHINERY","Address":"3255 Rutherford St","City":"Kingman","State":"AZ","Zip":"86409"},{"Location":"FMC 64450000","Address":"1721 Airway Ave","City":"Kingman","State":"AZ","Zip":"86409"},{"Location":"KINGMAN       HONDA","Address":"3800 Stockton Hill Rd","City":"Kingman","State":"AZ","Zip":"86409"},{"Location":"KINGMAN CHOPHOUSE","Address":"1851 Kino Ave","City":"Kingman","State":"AZ","Zip":"86409"},{"Location":"MIKES POWER TOW1","Address":"3895 Sunshine Dr","City":"Kingman","State":"AZ","Zip":"86409"},{"Location":"MOHAVE COUNTY PUBLIC WORKS","Address":"3250 Kino Ave","City":"Kingman","State":"AZ","Zip":"86409"},{"Location":"PLAZA BONITA","Address":"1969 E Beverly Ave","City":"Kingman","State":"AZ","Zip":"86409"},{"Location":"PRESTON INVESTMENTS","Address":"4345 Stockton Hill Rd","City":"Kingman","State":"AZ","Zip":"86409"},{"Location":"RIATA DENTAL","Address":"1101 Riata Valley Rd","City":"Kingman","State":"AZ","Zip":"86409"},{"Location":"SAFEWAY STORE 1887","Address":"3970 Stockton Hill Rd","City":"Kingman","State":"AZ","Zip":"86409"},{"Location":"SPORT CLIPS","Address":"3880 Stockton Hill Rd","City":"Kingman","State":"AZ","Zip":"86409"},{"Location":"ZUNI VILLAGE RV PARK","Address":"2840 Airway Ave","City":"Kingman","State":"AZ","Zip":"86409"}]