[{"Location":"AREVALO ACADEMY","Address":"3612 Jamaica Blvd S","City":"Lake Havasu City","State":"AZ","Zip":"86406"},{"Location":"B GALLO LLC","Address":"3269 Bluegrass Dr","City":"Lake Havasu City","State":"AZ","Zip":"86406"},{"Location":"BBQ BILL'S BIG EASY BISTRO","Address":"3557 Maricopa Ave","City":"Lake Havasu City","State":"AZ","Zip":"86406"},{"Location":"BBQ BILLS","Address":"3557 Maricopa Ave","City":"Lake Havasu City","State":"AZ","Zip":"86406"},{"Location":"ELK LODGE #2399","Address":"3532 Mcculloch Blvd N","City":"Lake Havasu City","State":"AZ","Zip":"86406"},{"Location":"MARTIN","Address":"3715 Churchill Dr","City":"Lake Havasu City","State":"AZ","Zip":"86406"},{"Location":"MOOSELODGE 2269","Address":"3279 Maricopa Ave","City":"Lake Havasu City","State":"AZ","Zip":"86406"},{"Location":"MR LUCKY'S BILLIARDS","Address":"3313 Maricopa Ave","City":"Lake Havasu City","State":"AZ","Zip":"86406"},{"Location":"R-BAR AND GRILL","Address":"3185 Maricopa Ave","City":"Lake Havasu City","State":"AZ","Zip":"86406"},{"Location":"SOUTHSIDE LAUNDROMAT","Address":"2837 Maricopa Ave","City":"Lake Havasu City","State":"AZ","Zip":"86406"},{"Location":"TAVERN 95","Address":"3453 Maricopa Ave","City":"Lake Havasu City","State":"AZ","Zip":"86406"},{"Location":"THE KNIGHTS","Address":"3743 Mission Plz","City":"Lake Havasu City","State":"AZ","Zip":"86406"},{"Location":"THE SPOTS","Address":"3612 Jamaica Blvd S","City":"Lake Havasu City","State":"AZ","Zip":"86406"},{"Location":"UNS ENERGY CO","Address":"830 Acoma Blvd S","City":"Lake Havasu City","State":"AZ","Zip":"86406"},{"Location":"UNS ENERGY CO 3","Address":"2749 Maricopa Ave","City":"Lake Havasu City","State":"AZ","Zip":"86406"},{"Location":"WALETA","Address":"1801 Hwy 95 South","City":"Lake Havasu City","State":"AZ","Zip":"86406"},{"Location":"WINDSOR AUTO AND MARINE","Address":"2801 Maricopa Ave","City":"Lake Havasu City","State":"AZ","Zip":"86406"}]