[{"Location":"PAPA LEONES PIZZA","Address":"304 English J Village","City":"Lake Havaen","State":"AZ","Zip":"86403"},{"Location":"5 DIAMOND PAPE","Address":"2125 Mcculloch Blvd N","City":"Lake Havasu City","State":"AZ","Zip":"86403"},{"Location":"AAMCO TRAMISSIONS","Address":"669 Lake Havasu Ave N 104","City":"Lake Havasu City","State":"AZ","Zip":"86403"},{"Location":"AMERICAN LEGION","Address":"181 Paseo Del Sol","City":"Lake Havasu City","State":"AZ","Zip":"86403"},{"Location":"ANGELINAS","Address":"1530 El Camino Dr","City":"Lake Havasu City","State":"AZ","Zip":"86403"},{"Location":"BARLEY BROTHER BREWERY","Address":"1425 Mcculloch Blvd N","City":"Lake Havasu City","State":"AZ","Zip":"86403"},{"Location":"BLACKSHIRTS INC","Address":"55 Lake Havasu Ave S F111","City":"Lake Havasu City","State":"AZ","Zip":"86403"},{"Location":"BRADLEY CHEVROLET","Address":"711 Lake Havasu Ave N","City":"Lake Havasu City","State":"AZ","Zip":"86403"},{"Location":"BRIDGEWATER LINKS","Address":"1477 Queens Bay","City":"Lake Havasu City","State":"AZ","Zip":"86403"},{"Location":"BURGER KING","Address":"55 Lake Havasu Ave N","City":"Lake Havasu City","State":"AZ","Zip":"86403"},{"Location":"C LAWRENCE LLC","Address":"1803 Montana Vis","City":"Lake Havasu City","State":"AZ","Zip":"86403"},{"Location":"CASA SERRANO MEXICAN","Address":"150 Swanson Ave","City":"Lake Havasu City","State":"AZ","Zip":"86403"},{"Location":"CHA BONES","Address":"112 London Bridge Rd","City":"Lake Havasu City","State":"AZ","Zip":"86403"},{"Location":"CHICOS TACOS OF ARIZONA INC","Address":"1641 Mcculloch Blvd N 21","City":"Lake Havasu City","State":"AZ","Zip":"86403"},{"Location":"CHILI CHARLIES CANTINA","Address":"790 Lake Havasu Ave N 25","City":"Lake Havasu City","State":"AZ","Zip":"86403"},{"Location":"CHILI'S #1049","Address":"120 Swanson Ave","City":"Lake Havasu City","State":"AZ","Zip":"86403"},{"Location":"COLLEGE STREET BREWHOUSE","Address":"1940 College Dr","City":"Lake Havasu City","State":"AZ","Zip":"86403"},{"Location":"COPPER CANYON BREWING CO","Address":"1519 Queens Bay 101","City":"Lake Havasu City","State":"AZ","Zip":"86403"},{"Location":"DEBBIE 1 NAILS","Address":"1644 Mcculloch Blvd N","City":"Lake Havasu City","State":"AZ","Zip":"86403"},{"Location":"DESERT MARTINI","Address":"2120 Mcculloch Blvd N","City":"Lake Havasu City","State":"AZ","Zip":"86403"},{"Location":"DIAMOND CAR CARE","Address":"108 Lake Havasu Ave N","City":"Lake Havasu City","State":"AZ","Zip":"86403"},{"Location":"E R LOUNGE LLC","Address":"317 Lake Havasu Ave S S","City":"Lake Havasu City","State":"AZ","Zip":"86403"},{"Location":"EAGLES ERIE 4299","Address":"1561 Marlboro Dr","City":"Lake Havasu City","State":"AZ","Zip":"86403"},{"Location":"ESSCO WHOLESALE ELECTRIC","Address":"1811 Industrial Blvd","City":"Lake Havasu City","State":"AZ","Zip":"86403"},{"Location":"EYES OF ARI ZONA","Address":"40 Capri Blvd","City":"Lake Havasu City","State":"AZ","Zip":"86403"},{"Location":"FBI","Address":"94 Acoma Blvd S 202","City":"Lake Havasu City","State":"AZ","Zip":"86403"},{"Location":"FLYING X SALOON","Address":"2030 Mcculloch Blvd N","City":"Lake Havasu City","State":"AZ","Zip":"86403"},{"Location":"GEAR UP MOTOR SPORTS LLC","Address":"911 Lake Havasu Ave N","City":"Lake Havasu City","State":"AZ","Zip":"86403"},{"Location":"GOLDEN TOKYO INNCOPORATE","Address":"90 Swanson Ave","City":"Lake Havasu City","State":"AZ","Zip":"86403"},{"Location":"HAMPTON INN LAKE HAVASU","Address":"245 London Bridge Rd","City":"Lake Havasu City","State":"AZ","Zip":"86403"},{"Location":"HAVASU LANES","Address":"2128 Mcculloch Blvd N","City":"Lake Havasu City","State":"AZ","Zip":"86403"},{"Location":"HAVASU NEUROLOGICAL","Address":"297 Lake Havasu Ave S 106","City":"Lake Havasu City","State":"AZ","Zip":"86403"},{"Location":"HAVASU OLIVE & GARLIC COMPANY","Address":"2019 Mcculloch Blvd N","City":"Lake Havasu City","State":"AZ","Zip":"86403"},{"Location":"INOVATIVE HEALTH AND WELLNESS","Address":"297 Lake Havasu Ave S 200","City":"Lake Havasu City","State":"AZ","Zip":"86403"},{"Location":"ISLAND GOLF CLUB","Address":"1040 Mcculloch Blvd N","City":"Lake Havasu City","State":"AZ","Zip":"86403"},{"Location":"JACK GERDES","Address":"1968 Acoma Blvd W 101","City":"Lake Havasu City","State":"AZ","Zip":"86403"},{"Location":"JAVELINA CANTINA","Address":"1420 Mcculloch Blvd N 126","City":"Lake Havasu City","State":"AZ","Zip":"86403"},{"Location":"JEFFREY LYSDALE DDS","Address":"1930 Mesquite Ave 8","City":"Lake Havasu City","State":"AZ","Zip":"86403"},{"Location":"JERSEYS GRILL","Address":"401 English Vlg","City":"Lake Havasu City","State":"AZ","Zip":"86403"},{"Location":"JOES AUTO TV AND TRUCK","Address":"561 Lake Havasu Ave N","City":"Lake Havasu City","State":"AZ","Zip":"86403"},{"Location":"KRYSTALS","Address":"460 El Camino Way","City":"Lake Havasu City","State":"AZ","Zip":"86403"},{"Location":"LA VITA DOLCE","Address":"231 Swanson Ave","City":"Lake Havasu City","State":"AZ","Zip":"86403"},{"Location":"LAKE HAVASU CIGARS%2C LLC","Address":"2038 Mcculloch Blvd N","City":"Lake Havasu City","State":"AZ","Zip":"86403"},{"Location":"LAKE HAVASU OBGYN CARE","Address":"2130 Mesquite Ave 100","City":"Lake Havasu City","State":"AZ","Zip":"86403"},{"Location":"LAKESIDE HEART AND VASCULAR","Address":"2082 Mesquite Ave 100a","City":"Lake Havasu City","State":"AZ","Zip":"86403"},{"Location":"LAKESIDE ORTHOPEDIC INSTITUTE","Address":"25 Riviera Blvd","City":"Lake Havasu City","State":"AZ","Zip":"86403"},{"Location":"LONDON BRIDGE CHEVRON","Address":"1597 Mcculloch Blvd N","City":"Lake Havasu City","State":"AZ","Zip":"86403"},{"Location":"LONDON BRIGE RESORT","Address":"1477 Queens Bay","City":"Lake Havasu City","State":"AZ","Zip":"86403"},{"Location":"MAD DOGS BAR & GRILL - RS","Address":"2048 Mcculloch Blvd N","City":"Lake Havasu City","State":"AZ","Zip":"86403"},{"Location":"MCKEES PUB AND GRILL","Address":"2112 Mcculloch Blvd N","City":"Lake Havasu City","State":"AZ","Zip":"86403"},{"Location":"MICHAEL ALLEN","Address":"2010 Acoma Blvd W","City":"Lake Havasu City","State":"AZ","Zip":"86403"},{"Location":"MUDSHARK BREWING COMPANY","Address":"210 Swanson Ave","City":"Lake Havasu City","State":"AZ","Zip":"86403"},{"Location":"NO NAME PUBLIC HOUSE","Address":"2093 Mcculloch Blvd N","City":"Lake Havasu City","State":"AZ","Zip":"86403"},{"Location":"OFFICE COCKTAIL LOUNGE","Address":"2180 Acoma Blvd W","City":"Lake Havasu City","State":"AZ","Zip":"86403"},{"Location":"ORTHOPEDIC INNOVATION","Address":"297 Lake Havasu Ave S 100","City":"Lake Havasu City","State":"AZ","Zip":"86403"},{"Location":"PANACEA BRAIN AND SPINE","Address":"297 Lake Havasu Ave S 204","City":"Lake Havasu City","State":"AZ","Zip":"86403"},{"Location":"PARADISE MOTOR SPORTS","Address":"790 Lake Havasu Ave N","City":"Lake Havasu City","State":"AZ","Zip":"86403"},{"Location":"PENNINGTON'S PUB","Address":"29 Acoma Blvd S","City":"Lake Havasu City","State":"AZ","Zip":"86403"},{"Location":"PIZZA HUT 29613","Address":"230 Swanson Ave","City":"Lake Havasu City","State":"AZ","Zip":"86403"},{"Location":"PLAZA RESTAURANT","Address":"1621 Mcculloch Blvd N","City":"Lake Havasu City","State":"AZ","Zip":"86403"},{"Location":"QUALITY INN & SUITES LH","Address":"271 Lake Havasu Ave S","City":"Lake Havasu City","State":"AZ","Zip":"86403"},{"Location":"RED ROBIN #309","Address":"70 Swanson Ave","City":"Lake Havasu City","State":"AZ","Zip":"86403"},{"Location":"RO BAR INC","Address":"2005 Mcculloch Blvd N","City":"Lake Havasu City","State":"AZ","Zip":"86403"},{"Location":"SAFEWAY 216","Address":"1650 Mcculloch Ave","City":"Lake Havasu City","State":"AZ","Zip":"86403"},{"Location":"SHUGRUES","Address":"1425 Mcculloch Blvd N","City":"Lake Havasu City","State":"AZ","Zip":"86403"},{"Location":"SONORA TACOS Y MARISCOS","Address":"2690 Kiowa Blvd N","City":"Lake Havasu City","State":"AZ","Zip":"86403"},{"Location":"SPORT CLIPS","Address":"91 London Bridge Rd B105","City":"Lake Havasu City","State":"AZ","Zip":"86403"},{"Location":"THE NAUTICAL BEACHFRONT RESORT","Address":"1000 Mcculloch Blvd N","City":"Lake Havasu City","State":"AZ","Zip":"86403"},{"Location":"TRAVEL LODGE","Address":"2601 Cliffwood Dr","City":"Lake Havasu City","State":"AZ","Zip":"86403"},{"Location":"TRUE REHAB","Address":"297 Lake Havasu Ave S 102","City":"Lake Havasu City","State":"AZ","Zip":"86403"},{"Location":"UTOPIA ASSIST LIVING LLC","Address":"132 Wayfarer Ln","City":"Lake Havasu City","State":"AZ","Zip":"86403"},{"Location":"VINNIES PIZZERIA","Address":"2061 Swanson Ave","City":"Lake Havasu City","State":"AZ","Zip":"86403"},{"Location":"PAPA LEONES PIZZA","Address":"304 English J Village","City":"Lake Havaen","State":"AZ","Zip":"86403"},{"Location":"5 DIAMOND PAPE","Address":"2125 Mcculloch Blvd N","City":"Lake Havasu City","State":"AZ","Zip":"86403"},{"Location":"AAMCO TRAMISSIONS","Address":"669 Lake Havasu Ave N 104","City":"Lake Havasu City","State":"AZ","Zip":"86403"},{"Location":"AMERICAN LEGION","Address":"181 Paseo Del Sol","City":"Lake Havasu City","State":"AZ","Zip":"86403"},{"Location":"ANGELINAS","Address":"1530 El Camino Dr","City":"Lake Havasu City","State":"AZ","Zip":"86403"},{"Location":"BARLEY BROTHER BREWERY","Address":"1425 Mcculloch Blvd N","City":"Lake Havasu City","State":"AZ","Zip":"86403"},{"Location":"BLACKSHIRTS INC","Address":"55 Lake Havasu Ave S F111","City":"Lake Havasu City","State":"AZ","Zip":"86403"},{"Location":"BRADLEY CHEVROLET","Address":"711 Lake Havasu Ave N","City":"Lake Havasu City","State":"AZ","Zip":"86403"},{"Location":"BRIDGEWATER LINKS","Address":"1477 Queens Bay","City":"Lake Havasu City","State":"AZ","Zip":"86403"},{"Location":"BURGER KING","Address":"55 Lake Havasu Ave N","City":"Lake Havasu City","State":"AZ","Zip":"86403"},{"Location":"C LAWRENCE LLC","Address":"1803 Montana Vis","City":"Lake Havasu City","State":"AZ","Zip":"86403"},{"Location":"CASA SERRANO MEXICAN","Address":"150 Swanson Ave","City":"Lake Havasu City","State":"AZ","Zip":"86403"},{"Location":"CHA BONES","Address":"112 London Bridge Rd","City":"Lake Havasu City","State":"AZ","Zip":"86403"},{"Location":"CHICOS TACOS OF ARIZONA INC","Address":"1641 Mcculloch Blvd N 21","City":"Lake Havasu City","State":"AZ","Zip":"86403"},{"Location":"CHILI CHARLIES CANTINA","Address":"790 Lake Havasu Ave N 25","City":"Lake Havasu City","State":"AZ","Zip":"86403"},{"Location":"CHILI'S #1049","Address":"120 Swanson Ave","City":"Lake Havasu City","State":"AZ","Zip":"86403"},{"Location":"COLLEGE STREET BREWHOUSE","Address":"1940 College Dr","City":"Lake Havasu City","State":"AZ","Zip":"86403"},{"Location":"COPPER CANYON BREWING CO","Address":"1519 Queens Bay 101","City":"Lake Havasu City","State":"AZ","Zip":"86403"},{"Location":"DEBBIE 1 NAILS","Address":"1644 Mcculloch Blvd N","City":"Lake Havasu City","State":"AZ","Zip":"86403"},{"Location":"DESERT MARTINI","Address":"2120 Mcculloch Blvd N","City":"Lake Havasu City","State":"AZ","Zip":"86403"},{"Location":"DIAMOND CAR CARE","Address":"108 Lake Havasu Ave N","City":"Lake Havasu City","State":"AZ","Zip":"86403"},{"Location":"E R LOUNGE LLC","Address":"317 Lake Havasu Ave S S","City":"Lake Havasu City","State":"AZ","Zip":"86403"},{"Location":"EAGLES ERIE 4299","Address":"1561 Marlboro Dr","City":"Lake Havasu City","State":"AZ","Zip":"86403"},{"Location":"ESSCO WHOLESALE ELECTRIC","Address":"1811 Industrial Blvd","City":"Lake Havasu City","State":"AZ","Zip":"86403"},{"Location":"EYES OF ARI ZONA","Address":"40 Capri Blvd","City":"Lake Havasu City","State":"AZ","Zip":"86403"},{"Location":"FBI","Address":"94 Acoma Blvd S 202","City":"Lake Havasu City","State":"AZ","Zip":"86403"},{"Location":"FLYING X SALOON","Address":"2030 Mcculloch Blvd N","City":"Lake Havasu City","State":"AZ","Zip":"86403"},{"Location":"GEAR UP MOTOR SPORTS LLC","Address":"911 Lake Havasu Ave N","City":"Lake Havasu City","State":"AZ","Zip":"86403"},{"Location":"GOLDEN TOKYO INNCOPORATE","Address":"90 Swanson Ave","City":"Lake Havasu City","State":"AZ","Zip":"86403"},{"Location":"HAMPTON INN LAKE HAVASU","Address":"245 London Bridge Rd","City":"Lake Havasu City","State":"AZ","Zip":"86403"},{"Location":"HAVASU LANES","Address":"2128 Mcculloch Blvd N","City":"Lake Havasu City","State":"AZ","Zip":"86403"},{"Location":"HAVASU NEUROLOGICAL","Address":"297 Lake Havasu Ave S 106","City":"Lake Havasu City","State":"AZ","Zip":"86403"},{"Location":"HAVASU OLIVE & GARLIC COMPANY","Address":"2019 Mcculloch Blvd N","City":"Lake Havasu City","State":"AZ","Zip":"86403"},{"Location":"INOVATIVE HEALTH AND WELLNESS","Address":"297 Lake Havasu Ave S 200","City":"Lake Havasu City","State":"AZ","Zip":"86403"},{"Location":"ISLAND GOLF CLUB","Address":"1040 Mcculloch Blvd N","City":"Lake Havasu City","State":"AZ","Zip":"86403"},{"Location":"JACK GERDES","Address":"1968 Acoma Blvd W 101","City":"Lake Havasu City","State":"AZ","Zip":"86403"},{"Location":"JAVELINA CANTINA","Address":"1420 Mcculloch Blvd N 126","City":"Lake Havasu City","State":"AZ","Zip":"86403"},{"Location":"JEFFREY LYSDALE DDS","Address":"1930 Mesquite Ave 8","City":"Lake Havasu City","State":"AZ","Zip":"86403"},{"Location":"JOES AUTO TV AND TRUCK","Address":"561 Lake Havasu Ave N","City":"Lake Havasu City","State":"AZ","Zip":"86403"},{"Location":"KRYSTALS","Address":"460 El Camino Way","City":"Lake Havasu City","State":"AZ","Zip":"86403"},{"Location":"LA VITA DOLCE","Address":"231 Swanson Ave","City":"Lake Havasu City","State":"AZ","Zip":"86403"},{"Location":"LAKE HAVASU CIGARS%2C LLC","Address":"2038 Mcculloch Blvd N","City":"Lake Havasu City","State":"AZ","Zip":"86403"},{"Location":"LAKE HAVASU OBGYN CARE","Address":"2130 Mesquite Ave 100","City":"Lake Havasu City","State":"AZ","Zip":"86403"},{"Location":"LAKESIDE HEART AND VASCULAR","Address":"2082 Mesquite Ave 100a","City":"Lake Havasu City","State":"AZ","Zip":"86403"},{"Location":"LAKESIDE ORTHOPEDIC INSTITUTE","Address":"25 Riviera Blvd","City":"Lake Havasu City","State":"AZ","Zip":"86403"},{"Location":"LONDON BRIDGE CHEVRON","Address":"1597 Mcculloch Blvd N","City":"Lake Havasu City","State":"AZ","Zip":"86403"},{"Location":"LONDON BRIGE RESORT","Address":"1477 Queens Bay","City":"Lake Havasu City","State":"AZ","Zip":"86403"},{"Location":"MAD DOGS BAR & GRILL - RS","Address":"2048 Mcculloch Blvd N","City":"Lake Havasu City","State":"AZ","Zip":"86403"},{"Location":"MCKEES PUB AND GRILL","Address":"2112 Mcculloch Blvd N","City":"Lake Havasu City","State":"AZ","Zip":"86403"},{"Location":"MICHAEL ALLEN","Address":"2010 Acoma Blvd W","City":"Lake Havasu City","State":"AZ","Zip":"86403"},{"Location":"MUDSHARK BREWING COMPANY","Address":"210 Swanson Ave","City":"Lake Havasu City","State":"AZ","Zip":"86403"},{"Location":"NO NAME PUBLIC HOUSE","Address":"2093 Mcculloch Blvd N","City":"Lake Havasu City","State":"AZ","Zip":"86403"},{"Location":"OFFICE COCKTAIL LOUNGE","Address":"2180 Acoma Blvd W","City":"Lake Havasu City","State":"AZ","Zip":"86403"},{"Location":"ORTHOPEDIC INNOVATION","Address":"297 Lake Havasu Ave S 100","City":"Lake Havasu City","State":"AZ","Zip":"86403"},{"Location":"PANACEA BRAIN AND SPINE","Address":"297 Lake Havasu Ave S 204","City":"Lake Havasu City","State":"AZ","Zip":"86403"},{"Location":"PARADISE MOTOR SPORTS","Address":"790 Lake Havasu Ave N","City":"Lake Havasu City","State":"AZ","Zip":"86403"},{"Location":"PENNINGTON'S PUB","Address":"29 Acoma Blvd S","City":"Lake Havasu City","State":"AZ","Zip":"86403"},{"Location":"PIZZA HUT 29613","Address":"230 Swanson Ave","City":"Lake Havasu City","State":"AZ","Zip":"86403"},{"Location":"PLAZA RESTAURANT","Address":"1621 Mcculloch Blvd N","City":"Lake Havasu City","State":"AZ","Zip":"86403"},{"Location":"QUALITY INN & SUITES LH","Address":"271 Lake Havasu Ave S","City":"Lake Havasu City","State":"AZ","Zip":"86403"},{"Location":"RED ROBIN #309","Address":"70 Swanson Ave","City":"Lake Havasu City","State":"AZ","Zip":"86403"},{"Location":"RO BAR INC","Address":"2005 Mcculloch Blvd N","City":"Lake Havasu City","State":"AZ","Zip":"86403"},{"Location":"SAFEWAY 216","Address":"1650 Mcculloch Ave","City":"Lake Havasu City","State":"AZ","Zip":"86403"},{"Location":"SHUGRUES","Address":"1425 Mcculloch Blvd N","City":"Lake Havasu City","State":"AZ","Zip":"86403"},{"Location":"SONORA TACOS Y MARISCOS","Address":"2690 Kiowa Blvd N","City":"Lake Havasu City","State":"AZ","Zip":"86403"},{"Location":"SPORT CLIPS","Address":"91 London Bridge Rd B105","City":"Lake Havasu City","State":"AZ","Zip":"86403"},{"Location":"THE NAUTICAL BEACHFRONT RESORT","Address":"1000 Mcculloch Blvd N","City":"Lake Havasu City","State":"AZ","Zip":"86403"},{"Location":"TRAVEL LODGE","Address":"2601 Cliffwood Dr","City":"Lake Havasu City","State":"AZ","Zip":"86403"},{"Location":"TRUE REHAB","Address":"297 Lake Havasu Ave S 102","City":"Lake Havasu City","State":"AZ","Zip":"86403"},{"Location":"UTOPIA ASSIST LIVING LLC","Address":"132 Wayfarer Ln","City":"Lake Havasu City","State":"AZ","Zip":"86403"},{"Location":"VINNIES PIZZERIA","Address":"2061 Swanson Ave","City":"Lake Havasu City","State":"AZ","Zip":"86403"}]