[{"Location":"ANDERSON TOYOTA","Address":"6510 Showplace Ave","City":"Lake Havasu City","State":"AZ","Zip":"86404"},{"Location":"ANHEUSER BUSCH WHLSLR #30248","Address":"5040 Whelan Ctr","City":"Lake Havasu City","State":"AZ","Zip":"86404"},{"Location":"BELLA VACATIONS","Address":"3640 Vega Dr","City":"Lake Havasu City","State":"AZ","Zip":"86404"},{"Location":"BELLA VACATIONS 1","Address":"2760 Inverness Dr","City":"Lake Havasu City","State":"AZ","Zip":"86404"},{"Location":"BIRCH CREEK INVESTMENTS","Address":"3636 N Swilican Bridge Rd","City":"Lake Havasu City","State":"AZ","Zip":"86404"},{"Location":"BLONDIES BAR AND GRILL","Address":"3620 London Bridge Rd","City":"Lake Havasu City","State":"AZ","Zip":"86404"},{"Location":"FARRELLS GOLDEN HORSESHOE","Address":"4501 London Bridge Rd","City":"Lake Havasu City","State":"AZ","Zip":"86404"},{"Location":"KIDS LITTLE SMILES","Address":"5601 Highway 95 N A116","City":"Lake Havasu City","State":"AZ","Zip":"86404"},{"Location":"LOVE'S #386","Address":"14875 S Hwy 95","City":"Lake Havasu City","State":"AZ","Zip":"86404"},{"Location":"MOHAVE CTY MED EXAMINERS OFFIC","Address":"1145 Aviation Dr A","City":"Lake Havasu City","State":"AZ","Zip":"86404"},{"Location":"REFUGE GOLF & COUNTRY CLUB","Address":"3275 N Latrobe Dr","City":"Lake Havasu City","State":"AZ","Zip":"86404"},{"Location":"STAGGER LEES","Address":"3428 London Bridge Rd","City":"Lake Havasu City","State":"AZ","Zip":"86404"},{"Location":"WEENIE SHACK LLC","Address":"2900 Wolf Ln","City":"Lake Havasu City","State":"AZ","Zip":"86404"},{"Location":"WESTERN SPECIALTY SALES","Address":"1445 Tanqueray Dr","City":"Lake Havasu City","State":"AZ","Zip":"86404"},{"Location":"ANDERSON TOYOTA","Address":"6510 Showplace Ave","City":"Lake Havasu City","State":"AZ","Zip":"86404"},{"Location":"ANHEUSER BUSCH WHLSLR #30248","Address":"5040 Whelan Ctr","City":"Lake Havasu City","State":"AZ","Zip":"86404"},{"Location":"BELLA VACATIONS","Address":"3640 Vega Dr","City":"Lake Havasu City","State":"AZ","Zip":"86404"},{"Location":"BELLA VACATIONS 1","Address":"2760 Inverness Dr","City":"Lake Havasu City","State":"AZ","Zip":"86404"},{"Location":"BIRCH CREEK INVESTMENTS","Address":"3636 N Swilican Bridge Rd","City":"Lake Havasu City","State":"AZ","Zip":"86404"},{"Location":"BLONDIES BAR AND GRILL","Address":"3620 London Bridge Rd","City":"Lake Havasu City","State":"AZ","Zip":"86404"},{"Location":"FARRELLS GOLDEN HORSESHOE","Address":"4501 London Bridge Rd","City":"Lake Havasu City","State":"AZ","Zip":"86404"},{"Location":"KIDS LITTLE SMILES","Address":"5601 Highway 95 N A116","City":"Lake Havasu City","State":"AZ","Zip":"86404"},{"Location":"LOVE'S #386","Address":"14875 S Hwy 95","City":"Lake Havasu City","State":"AZ","Zip":"86404"},{"Location":"MOHAVE CTY MED EXAMINERS OFFIC","Address":"1145 Aviation Dr A","City":"Lake Havasu City","State":"AZ","Zip":"86404"},{"Location":"REFUGE GOLF & COUNTRY CLUB","Address":"3275 N Latrobe Dr","City":"Lake Havasu City","State":"AZ","Zip":"86404"},{"Location":"STAGGER LEES","Address":"3428 London Bridge Rd","City":"Lake Havasu City","State":"AZ","Zip":"86404"},{"Location":"WEENIE SHACK LLC","Address":"2900 Wolf Ln","City":"Lake Havasu City","State":"AZ","Zip":"86404"},{"Location":"WESTERN SPECIALTY SALES","Address":"1445 Tanqueray Dr","City":"Lake Havasu City","State":"AZ","Zip":"86404"}]