[{"Location":"AMERICAN LEGION POST 22","Address":"3435 N Verde Rd","City":"Golden Valley","State":"AZ","Zip":"86413"},{"Location":"CASTLEROCK BAR AND GRILL","Address":"3743 N Us Highway 93","City":"Golden Valley","State":"AZ","Zip":"86413"},{"Location":"GOLDEN VALLEY FIRE DISTRICT","Address":"3480 N Bacobi","City":"Golden Valley","State":"AZ","Zip":"86413"},{"Location":"GOLDEN VALLEY FIRE DISTRICT 2","Address":"749 S Egar Road","City":"Golden Valley","State":"AZ","Zip":"86413"},{"Location":"GOLDEN VALLEY FIRE DISTRICT 3","Address":"2790 Oatman Road","City":"Golden Valley","State":"AZ","Zip":"86413"},{"Location":"INDIANA WESTERN EXPRESS 1","Address":"3100 S Gatlin Dr","City":"Golden Valley","State":"AZ","Zip":"86413"},{"Location":"KINGMAN FARMS LLC","Address":"4528 W Dora Dr","City":"Golden Valley","State":"AZ","Zip":"86413"},{"Location":"RIVER MEDICAL","Address":"7525 Us Highway 68","City":"Golden Valley","State":"AZ","Zip":"86413"},{"Location":"RIVER MEDICAL","Address":"3327 N Hope Rd","City":"Golden Valley","State":"AZ","Zip":"86413"},{"Location":"THERMAL KING WEST INC","Address":"2651 W Oatman Rd","City":"Golden Valley","State":"AZ","Zip":"86413"}]