[{"Location":"AMERICAN VETERANS CLUB1","Address":"4310 S Highway 95 Abc","City":"Fort Mohave","State":"AZ","Zip":"86426"},{"Location":"BULLHEAD HEALTH CLUB","Address":"5401 S Highway 95","City":"Fort Mohave","State":"AZ","Zip":"86426"},{"Location":"COLORADO RIVER VAPOR","Address":"4400 S Highway 95 C","City":"Fort Mohave","State":"AZ","Zip":"86426"},{"Location":"ECHELON TILE AND STONE","Address":"5010 S Highway 95 14","City":"Fort Mohave","State":"AZ","Zip":"86426"},{"Location":"FORT MOHAVE FIRE DPT  #92","Address":"1920 Camp Mohave Rd","City":"Fort Mohave","State":"AZ","Zip":"86426"},{"Location":"FORT MOHAVE MESA FIRE","Address":"2230 E Joy Ln","City":"Fort Mohave","State":"AZ","Zip":"86426"},{"Location":"HOOCHES 95 BAR & GRILL","Address":"5575 S Highway 95","City":"Fort Mohave","State":"AZ","Zip":"86426"},{"Location":"NEIGHBORHOOD CARWASH","Address":"5075 S Highway 95","City":"Fort Mohave","State":"AZ","Zip":"86426"},{"Location":"RED DRAGON CHINESE CUISINE","Address":"4360 Hwy 95","City":"Fort Mohave","State":"AZ","Zip":"86426"},{"Location":"SAFEWAY 1474","Address":"4823 S Highway 95","City":"Fort Mohave","State":"AZ","Zip":"86426"},{"Location":"TRI STATE PAIN INSTITUTE","Address":"5263 S Highway 95 101","City":"Fort Mohave","State":"AZ","Zip":"86426"},{"Location":"AMERICAN VETERANS CLUB1","Address":"4310 S Highway 95 Abc","City":"Fort Mohave","State":"AZ","Zip":"86426"},{"Location":"BULLHEAD HEALTH CLUB","Address":"5401 S Highway 95","City":"Fort Mohave","State":"AZ","Zip":"86426"},{"Location":"COLORADO RIVER VAPOR","Address":"4400 S Highway 95 C","City":"Fort Mohave","State":"AZ","Zip":"86426"},{"Location":"ECHELON TILE AND STONE","Address":"5010 S Highway 95 14","City":"Fort Mohave","State":"AZ","Zip":"86426"},{"Location":"FORT MOHAVE FIRE DPT  #92","Address":"1920 Camp Mohave Rd","City":"Fort Mohave","State":"AZ","Zip":"86426"},{"Location":"FORT MOHAVE MESA FIRE","Address":"2230 E Joy Ln","City":"Fort Mohave","State":"AZ","Zip":"86426"},{"Location":"HOOCHES 95 BAR & GRILL","Address":"5575 S Highway 95","City":"Fort Mohave","State":"AZ","Zip":"86426"},{"Location":"NEIGHBORHOOD CARWASH","Address":"5075 S Highway 95","City":"Fort Mohave","State":"AZ","Zip":"86426"},{"Location":"RED DRAGON CHINESE CUISINE","Address":"4360 Hwy 95","City":"Fort Mohave","State":"AZ","Zip":"86426"},{"Location":"SAFEWAY 1474","Address":"4823 S Highway 95","City":"Fort Mohave","State":"AZ","Zip":"86426"},{"Location":"TRI STATE PAIN INSTITUTE","Address":"5263 S Highway 95 101","City":"Fort Mohave","State":"AZ","Zip":"86426"}]