[{"Location":"CHILI'S #1166","Address":"600 Highway 95 700","City":"Bullhead City","State":"AZ","Zip":"86429"},{"Location":"DAVES MOTORSPORTS","Address":"1168 Highway 95","City":"Bullhead City","State":"AZ","Zip":"86429"},{"Location":"ENCORE FBO","Address":"2550 Laughlin View Dr 112","City":"Bullhead City","State":"AZ","Zip":"86429"},{"Location":"KATHERINE'S BAR","Address":"2789 Katherine Spur Rd","City":"Bullhead City","State":"AZ","Zip":"86429"},{"Location":"MOHAVE COUNTY AIRPORT AU","Address":"999 Airpark Dr","City":"Bullhead City","State":"AZ","Zip":"86429"},{"Location":"MOHAVE COUNTY AIRPORT AUTHORIT","Address":"2550 Laughlin View Dr","City":"Bullhead City","State":"AZ","Zip":"86429"},{"Location":"OLEARYS PUB AND GRILL","Address":"1063 Highway 95","City":"Bullhead City","State":"AZ","Zip":"86429"},{"Location":"RIDGEVIEW RESORT","Address":"775 Bullhead Pkwy","City":"Bullhead City","State":"AZ","Zip":"86429"},{"Location":"SAMS CLUB","Address":"600 Highway 95","City":"Bullhead City","State":"AZ","Zip":"86429"},{"Location":"TOKYO GARDEN","Address":"1047 Highway 95 A1","City":"Bullhead City","State":"AZ","Zip":"86429"},{"Location":"TRI STATE CARE FLIGHT","Address":"2550 Laughlin View Dr","City":"Bullhead City","State":"AZ","Zip":"86429"}]