[{"Location":"BGC OF GREATER SCOTTSDALE","Address":"479 Diamond Creek Road","City":"Peach Springs","State":"AZ","Zip":"86434"},{"Location":"HUALAPAI ADULT DETENTION","Address":"924 Rodeo Way","City":"Peach Springs","State":"AZ","Zip":"86434"},{"Location":"HUALAPAI JUVENILE DETENTION","Address":"108 High View Street","City":"Peach Springs","State":"AZ","Zip":"86434"},{"Location":"HUALAPAI TRIBE DAY CARE","Address":"475 Hualapai Drive","City":"Peach Springs","State":"AZ","Zip":"86434"},{"Location":"PEACH SPRINGS HEALTH CENTER","Address":"943 Hualapai Way","City":"Peach Springs","State":"AZ","Zip":"86434"},{"Location":"THE HUALAPAI DIABETES PROGRAM","Address":"930 Rodeo Circle","City":"Peach Springs","State":"AZ","Zip":"86434"},{"Location":"VISITING DR AND NURSES","Address":"940 Hualapai Way 4","City":"Peach Springs","State":"AZ","Zip":"86434"},{"Location":"BGC OF GREATER SCOTTSDALE","Address":"479 Diamond Creek Road","City":"Peach Springs","State":"AZ","Zip":"86434"},{"Location":"HUALAPAI ADULT DETENTION","Address":"924 Rodeo Way","City":"Peach Springs","State":"AZ","Zip":"86434"},{"Location":"HUALAPAI JUVENILE DETENTION","Address":"108 High View Street","City":"Peach Springs","State":"AZ","Zip":"86434"},{"Location":"HUALAPAI TRIBE DAY CARE","Address":"475 Hualapai Drive","City":"Peach Springs","State":"AZ","Zip":"86434"},{"Location":"PEACH SPRINGS HEALTH CENTER","Address":"943 Hualapai Way","City":"Peach Springs","State":"AZ","Zip":"86434"},{"Location":"THE HUALAPAI DIABETES PROGRAM","Address":"930 Rodeo Circle","City":"Peach Springs","State":"AZ","Zip":"86434"},{"Location":"VISITING DR AND NURSES","Address":"940 Hualapai Way 4","City":"Peach Springs","State":"AZ","Zip":"86434"}]