[{"Location":"ABAN CARE CLINC","Address":"2182 Highway 95","City":"Bullhead City","State":"AZ","Zip":"86442"},{"Location":"AGAVES MEXICAN REST","Address":"865 Hancock Rd","City":"Bullhead City","State":"AZ","Zip":"86442"},{"Location":"ALANO CLUB BULLHEAD CITY","Address":"384 Marina Blvd","City":"Bullhead City","State":"AZ","Zip":"86442"},{"Location":"ALANO CLUB BULLHEAD CITY","Address":"401 Emery Dr","City":"Bullhead City","State":"AZ","Zip":"86442"},{"Location":"AVELAR MEXICAN FOOD","Address":"851 Hancock Rd","City":"Bullhead City","State":"AZ","Zip":"86442"},{"Location":"BHR ENTERTAINMENT LLC","Address":"2011 Commercial Way","City":"Bullhead City","State":"AZ","Zip":"86442"},{"Location":"BLACK BEAR","Address":"1751 Highway 95 25","City":"Bullhead City","State":"AZ","Zip":"86442"},{"Location":"BUFFALO WILD WINGS #3359","Address":"2040 Hway 95","City":"Bullhead City","State":"AZ","Zip":"86442"},{"Location":"BULLHEAD HEALTH CLUB","Address":"2350 Miracle Mile D370","City":"Bullhead City","State":"AZ","Zip":"86442"},{"Location":"CABLE VISION","Address":"2500 Tesota Way","City":"Bullhead City","State":"AZ","Zip":"86442"},{"Location":"CAREFLIGHT","Address":"2000 Highway 95 210","City":"Bullhead City","State":"AZ","Zip":"86442"},{"Location":"COCKTAILS","Address":"3935 Highway 95","City":"Bullhead City","State":"AZ","Zip":"86442"},{"Location":"COLORADO RIVER PREOWNED","Address":"2585 Hiway 95","City":"Bullhead City","State":"AZ","Zip":"86442"},{"Location":"DESERT ANGELS MEDICAL CLINIC","Address":"3003 Hiway 95 101","City":"Bullhead City","State":"AZ","Zip":"86442"},{"Location":"EL PALACIO MEXICAN RESTAURANT","Address":"1885 Highway 95","City":"Bullhead City","State":"AZ","Zip":"86442"},{"Location":"FMC 62620000","Address":"2650 Miracle Mile","City":"Bullhead City","State":"AZ","Zip":"86442"},{"Location":"HOMESTYLE LAUNDRY","Address":"1751 Highway 95 59","City":"Bullhead City","State":"AZ","Zip":"86442"},{"Location":"JESTERS SPORTS LOUNGE","Address":"877 Hancock Rd","City":"Bullhead City","State":"AZ","Zip":"86442"},{"Location":"KIDS LITTLE SMILES","Address":"2401 Miracle Mile","City":"Bullhead City","State":"AZ","Zip":"86442"},{"Location":"KOHL'S #1188","Address":"3699 Hway 95","City":"Bullhead City","State":"AZ","Zip":"86442"},{"Location":"LADIES & GENTS","Address":"2400 Highway 95 40","City":"Bullhead City","State":"AZ","Zip":"86442"},{"Location":"LEFTY'S BAR & GRILL","Address":"2200 Highway 95","City":"Bullhead City","State":"AZ","Zip":"86442"},{"Location":"MAD DOG FITNESS","Address":"2250 Highway 95 336","City":"Bullhead City","State":"AZ","Zip":"86442"},{"Location":"MAD DOGS BAR AND GRILL","Address":"2046 Highway 95","City":"Bullhead City","State":"AZ","Zip":"86442"},{"Location":"MAKI SUSHI","Address":"1970 Highway 95","City":"Bullhead City","State":"AZ","Zip":"86442"},{"Location":"MICHAEL HIXON","Address":"1730 Highway 95 A","City":"Bullhead City","State":"AZ","Zip":"86442"},{"Location":"MOHAVE STEAKHOUSE","Address":"2430 Highway 95 105","City":"Bullhead City","State":"AZ","Zip":"86442"},{"Location":"PACOS LEZAMY","Address":"742 Hancock Rd","City":"Bullhead City","State":"AZ","Zip":"86442"},{"Location":"PIZZA HUT 29614","Address":"1855 Highway 95","City":"Bullhead City","State":"AZ","Zip":"86442"},{"Location":"RILEY AUTOMOTIVE","Address":"630 Marina Blvd","City":"Bullhead City","State":"AZ","Zip":"86442"},{"Location":"RUDY G. BRUEHL%2C D.D.S.","Address":"2600 Silver Creek Rd","City":"Bullhead City","State":"AZ","Zip":"86442"},{"Location":"SAFEWAY 0248","Address":"1751 Hway 95","City":"Bullhead City","State":"AZ","Zip":"86442"},{"Location":"SAMURAI JAPANESE STEAK","Address":"2019 Hway 95","City":"Bullhead City","State":"AZ","Zip":"86442"},{"Location":"SUN MISSION LLC","Address":"3249 Felipe","City":"Bullhead City","State":"AZ","Zip":"86442"},{"Location":"TARGET-2368","Address":"3699 Highway 95","City":"Bullhead City","State":"AZ","Zip":"86442"},{"Location":"TOM MICKLO","Address":"2649 Hway 95 C","City":"Bullhead City","State":"AZ","Zip":"86442"},{"Location":"VISTA DEL SOL EXEC. OFFC","Address":"3249 Felipe Dr","City":"Bullhead City","State":"AZ","Zip":"86442"},{"Location":"VITOS PIZZA","Address":"3751 Hightway 95","City":"Bullhead City","State":"AZ","Zip":"86442"},{"Location":"WALMART 1370","Address":"2840 Highway 95","City":"Bullhead City","State":"AZ","Zip":"86442"},{"Location":"WASH ME","Address":"3727 Hiway 95","City":"Bullhead City","State":"AZ","Zip":"86442"}]