[{"Location":"AMERICAN LEGION POST 88","Address":"15940 Pierce Fairy Rd","City":"Dolan Springs","State":"AZ","Zip":"86441"},{"Location":"FIRST ASSMEBLY OF GOD","Address":"16741 North Pierce Ferry Rd","City":"Dolan Springs","State":"AZ","Zip":"86441"},{"Location":"TELAS HOME","Address":"16078 N Tom White Dr","City":"Dolan Springs","State":"AZ","Zip":"86441"},{"Location":"VFW POST 9833","Address":"15943 Pierce Ferry Rd","City":"Dolan Springs","State":"AZ","Zip":"86441"},{"Location":"WISHING WELL SALOON & DINER","Address":"16067 N Pierce Ferry Rd","City":"Dolan Springs","State":"AZ","Zip":"86441"},{"Location":"AMERICAN LEGION POST 88","Address":"15940 Pierce Fairy Rd","City":"Dolan Springs","State":"AZ","Zip":"86441"},{"Location":"FIRST ASSMEBLY OF GOD","Address":"16741 North Pierce Ferry Rd","City":"Dolan Springs","State":"AZ","Zip":"86441"},{"Location":"TELAS HOME","Address":"16078 N Tom White Dr","City":"Dolan Springs","State":"AZ","Zip":"86441"},{"Location":"VFW POST 9833","Address":"15943 Pierce Ferry Rd","City":"Dolan Springs","State":"AZ","Zip":"86441"},{"Location":"WISHING WELL SALOON & DINER","Address":"16067 N Pierce Ferry Rd","City":"Dolan Springs","State":"AZ","Zip":"86441"}]