[{"Location":"AHA MACAV POWER SERVICE","Address":"8780 S Highway 95","City":"Mohave Valley","State":"AZ","Zip":"86440"},{"Location":"CASA SERRANO MEXICAN REST","Address":"5230 Hwy 95","City":"Mohave Valley","State":"AZ","Zip":"86440"},{"Location":"FIESTA MEXICANA","Address":"10197 S Harbor Ave","City":"Mohave Valley","State":"AZ","Zip":"86440"},{"Location":"HUNTER'S GRILL","Address":"8496 Highway 95","City":"Mohave Valley","State":"AZ","Zip":"86440"},{"Location":"SPIRIT MOUNTAIN CASINO","Address":"8555 Highway 95","City":"Mohave Valley","State":"AZ","Zip":"86440"},{"Location":"THE TERRACE","Address":"1 Palso El Rio Dr","City":"Mohave Valley","State":"AZ","Zip":"86440"},{"Location":"VFW 404","Address":"10287 Barrackman Dr","City":"Mohave Valley","State":"AZ","Zip":"86440"},{"Location":"AHA MACAV POWER SERVICE","Address":"8780 S Highway 95","City":"Mohave Valley","State":"AZ","Zip":"86440"},{"Location":"CASA SERRANO MEXICAN REST","Address":"5230 Hwy 95","City":"Mohave Valley","State":"AZ","Zip":"86440"},{"Location":"FIESTA MEXICANA","Address":"10197 S Harbor Ave","City":"Mohave Valley","State":"AZ","Zip":"86440"},{"Location":"HUNTER'S GRILL","Address":"8496 Highway 95","City":"Mohave Valley","State":"AZ","Zip":"86440"},{"Location":"SPIRIT MOUNTAIN CASINO","Address":"8555 Highway 95","City":"Mohave Valley","State":"AZ","Zip":"86440"},{"Location":"THE TERRACE","Address":"1 Palso El Rio Dr","City":"Mohave Valley","State":"AZ","Zip":"86440"},{"Location":"VFW 404","Address":"10287 Barrackman Dr","City":"Mohave Valley","State":"AZ","Zip":"86440"}]