[{"Location":"AEROCARE MEDICAL TRANSPORT","Address":"1 Mile N Of Churches Chi","City":"Chinle","State":"AZ","Zip":"86503"},{"Location":"AEROCARE MEDICAL TRANSPORT","Address":"2 Miles N Of Trading Pos","City":"Chinle","State":"AZ","Zip":"86503"},{"Location":"APACHE COUNTY","Address":"Apache County Rd Departm","City":"Chinle","State":"AZ","Zip":"86503"},{"Location":"CHINLE NURSING HOME","Address":"191 W Hospital Rd","City":"Chinle","State":"AZ","Zip":"86503"},{"Location":"CHINLE NURSING HOME","Address":"North Hospital Rd Hwy 191","City":"Chinle","State":"AZ","Zip":"86503"},{"Location":"CHINLE VALLEY","Address":"Manuelito Blvd","City":"Chinle","State":"AZ","Zip":"86503"},{"Location":"DAVITA #638 CHINLE","Address":"Us Hwy 191","City":"Chinle","State":"AZ","Zip":"86503"},{"Location":"GANADO PAINTING AND WC INC","Address":"Highway 191 Navajo Route","City":"Chinle","State":"AZ","Zip":"86503"},{"Location":"JUNCTION RESTAURANT","Address":"100  Main Street Route 7","City":"Chinle","State":"AZ","Zip":"86503"},{"Location":"ROUGH ROCK COMMUNITY SCHOOL","Address":"Highway 59 Dorm 611","City":"Chinle","State":"AZ","Zip":"86503"},{"Location":"ROUGH ROCK COMMUNITY SCHOOL","Address":"Hc 61 Box 5050","City":"Chinle","State":"AZ","Zip":"86503"}]