[{"Location":"ACTION MEDICAL SERVICE","Address":"Ganado Plaza Trailer Park 1","City":"Ganado","State":"AZ","Zip":"86505"},{"Location":"ANNIE WAUNEKA LIFE CARE INC","Address":"Highway 264 Mile Post 44","City":"Ganado","State":"AZ","Zip":"86505"},{"Location":"JOE R MORA INC","Address":"S Se Corner Highway 191 26","City":"Ganado","State":"AZ","Zip":"86505"},{"Location":"NAZLINI COMMUNITY SCHOOL","Address":"Hc 58 Box 35","City":"Ganado","State":"AZ","Zip":"86505"},{"Location":"SAGE MEMORIAL HOSPITAL #3","Address":"Highway 264","City":"Ganado","State":"AZ","Zip":"86505"},{"Location":"ACTION MEDICAL SERVICE","Address":"Ganado Plaza Trailer Park 1","City":"Ganado","State":"AZ","Zip":"86505"},{"Location":"ANNIE WAUNEKA LIFE CARE INC","Address":"Highway 264 Mile Post 44","City":"Ganado","State":"AZ","Zip":"86505"},{"Location":"JOE R MORA INC","Address":"S Se Corner Highway 191 26","City":"Ganado","State":"AZ","Zip":"86505"},{"Location":"NAZLINI COMMUNITY SCHOOL","Address":"Hc 58 Box 35","City":"Ganado","State":"AZ","Zip":"86505"},{"Location":"SAGE MEMORIAL HOSPITAL #3","Address":"Highway 264","City":"Ganado","State":"AZ","Zip":"86505"}]