[{"Location":"ALVIN MINIMARKET","Address":"5805 S Main St","City":"Los Angeles","State":"CA","Zip":"90003"},{"Location":"BOTANICA ANGELES","Address":"315 1%2F2 E Florence Ave","City":"Los Angeles","State":"CA","Zip":"90003"},{"Location":"BROTHERS JOHNS HAIR","Address":"7021 S San Pedro St","City":"Los Angeles","State":"CA","Zip":"90003"},{"Location":"BURGER PALACE","Address":"100 E Manchester Ave","City":"Los Angeles","State":"CA","Zip":"90003"},{"Location":"CHOP IT UP","Address":"8622 S Figueroa St","City":"Los Angeles","State":"CA","Zip":"90003"},{"Location":"CHRISTAN COMMUNITY CENTER","Address":"8725 S Broadway","City":"Los Angeles","State":"CA","Zip":"90003"},{"Location":"CIRCLE CITY","Address":"7125 S San Pedro St","City":"Los Angeles","State":"CA","Zip":"90003"},{"Location":"COMEX MAIN COIN LOUNDRAY","Address":"6101 S Main St","City":"Los Angeles","State":"CA","Zip":"90003"},{"Location":"COMMUNITY MINDED BUSINESS","Address":"8200 S Figueroa St","City":"Los Angeles","State":"CA","Zip":"90003"},{"Location":"CRYSTAL COIN LAUNDRY","Address":"9522 S Figueroa St","City":"Los Angeles","State":"CA","Zip":"90003"},{"Location":"DIVIDED TIME MC","Address":"8904 S Broadway","City":"Los Angeles","State":"CA","Zip":"90003"},{"Location":"DON KELLER COLLISION","Address":"7314 Avalon Blvd","City":"Los Angeles","State":"CA","Zip":"90003"},{"Location":"DON LENCHO","Address":"5974 S Broadway","City":"Los Angeles","State":"CA","Zip":"90003"},{"Location":"E L COMPANIES HARDWARE","Address":"5836 S Los Angeles St","City":"Los Angeles","State":"CA","Zip":"90003"},{"Location":"EAST 105TH ST CHRISTIAN CHURCH","Address":"10500 Avalon Blvd","City":"Los Angeles","State":"CA","Zip":"90003"},{"Location":"EL COMPADRE","Address":"233 E Florence Ave","City":"Los Angeles","State":"CA","Zip":"90003"},{"Location":"EL POTRILLO AUTO SALES","Address":"123 E Manchester Ave","City":"Los Angeles","State":"CA","Zip":"90003"},{"Location":"EXTRAVAGANT HAIR AND GIFT","Address":"234 W 78th St","City":"Los Angeles","State":"CA","Zip":"90003"},{"Location":"FAITH IN CHRIST","Address":"10224 S Figueroa St","City":"Los Angeles","State":"CA","Zip":"90003"},{"Location":"FLORES TIRES","Address":"6224 S Figueroa St","City":"Los Angeles","State":"CA","Zip":"90003"},{"Location":"G & E CLEANERS","Address":"255 E Century Blvd","City":"Los Angeles","State":"CA","Zip":"90003"},{"Location":"GOLEN OX","Address":"108 E Florence Ave","City":"Los Angeles","State":"CA","Zip":"90003"},{"Location":"GRACE CHURCH","Address":"8401 S Broadway","City":"Los Angeles","State":"CA","Zip":"90003"},{"Location":"GUANAJUATO","Address":"5929 S Main St","City":"Los Angeles","State":"CA","Zip":"90003"},{"Location":"HECTOR BARBER SHOP","Address":"8109 S Broadway","City":"Los Angeles","State":"CA","Zip":"90003"},{"Location":"HOUSE UHURU","Address":"8005 S Figueroa St","City":"Los Angeles","State":"CA","Zip":"90003"},{"Location":"HP ICE CREAM SNACK SHOP","Address":"10628 S San Pedro St","City":"Los Angeles","State":"CA","Zip":"90003"},{"Location":"HP MEAT MARKET","Address":"9305 S Broadway","City":"Los Angeles","State":"CA","Zip":"90003"},{"Location":"JEMISON","Address":"211 W 60th St","City":"Los Angeles","State":"CA","Zip":"90003"},{"Location":"JOES R MOTORS","Address":"6124 S Figueroa St","City":"Los Angeles","State":"CA","Zip":"90003"},{"Location":"JOHNS 3 16 AUTO SOUNDS","Address":"232 E Manchester Ave","City":"Los Angeles","State":"CA","Zip":"90003"},{"Location":"JOSEPH RUDISON","Address":"9014 S Broadway","City":"Los Angeles","State":"CA","Zip":"90003"},{"Location":"KS MARKET","Address":"8004 Avalon Blvd","City":"Los Angeles","State":"CA","Zip":"90003"},{"Location":"LA BAIL BOND","Address":"7700 S Broadway A","City":"Los Angeles","State":"CA","Zip":"90003"},{"Location":"LA BAIL BONDS","Address":"7700 S Broadway","City":"Los Angeles","State":"CA","Zip":"90003"},{"Location":"LA FIESTA MARKET","Address":"5957 S San Pedro St","City":"Los Angeles","State":"CA","Zip":"90003"},{"Location":"LAS GUANAQUITAS","Address":"6220 S Main St","City":"Los Angeles","State":"CA","Zip":"90003"},{"Location":"LAUNDROMAT","Address":"7801 S San Pedro St","City":"Los Angeles","State":"CA","Zip":"90003"},{"Location":"LEON GTO MINI MARKET","Address":"8730 S Main St","City":"Los Angeles","State":"CA","Zip":"90003"},{"Location":"LOS ANGELES PATIENTS GROUPS","Address":"8812 S Figueroa St","City":"Los Angeles","State":"CA","Zip":"90003"},{"Location":"MANUELS BURGERS","Address":"254 E Manchester Ave","City":"Los Angeles","State":"CA","Zip":"90003"},{"Location":"MARISCOS NAYARIT","Address":"10024 S Figueroa St","City":"Los Angeles","State":"CA","Zip":"90003"},{"Location":"MARISCOS OSUNA","Address":"109 W 107th St","City":"Los Angeles","State":"CA","Zip":"90003"},{"Location":"MATRESS WAREHOUSE","Address":"223 E Florence Ave","City":"Los Angeles","State":"CA","Zip":"90003"},{"Location":"MEAT MARKET","Address":"9701 Avalon Blvd","City":"Los Angeles","State":"CA","Zip":"90003"},{"Location":"MMC","Address":"9200 S Broadway","City":"Los Angeles","State":"CA","Zip":"90003"},{"Location":"NEIGHBORHOOD MARKET","Address":"10227 S Broadway","City":"Los Angeles","State":"CA","Zip":"90003"},{"Location":"PAKOS AUTO ELECTRIC","Address":"8440 S Broadway","City":"Los Angeles","State":"CA","Zip":"90003"},{"Location":"PERSONAL INVOLVEMENT CEN","Address":"8220 S San Pedro St","City":"Los Angeles","State":"CA","Zip":"90003"},{"Location":"PHILIPPIAN BAPTIST CHURCH","Address":"8804 S Main St","City":"Los Angeles","State":"CA","Zip":"90003"},{"Location":"POLARIS MOTEL","Address":"9141 S Figueroa St","City":"Los Angeles","State":"CA","Zip":"90003"},{"Location":"RAY INSTITUTE","Address":"163 W 83rd St","City":"Los Angeles","State":"CA","Zip":"90003"},{"Location":"RAY INSTITUTE INC","Address":"161 W  83er St","City":"Los Angeles","State":"CA","Zip":"90003"},{"Location":"REYES BARBER SHOP","Address":"333 E Florence Ave","City":"Los Angeles","State":"CA","Zip":"90003"},{"Location":"ROYS MARKET","Address":"6127 S Main St","City":"Los Angeles","State":"CA","Zip":"90003"},{"Location":"SONIAS BRIDAL & BOUTIQUE","Address":"7314 Avalon Blvd B","City":"Los Angeles","State":"CA","Zip":"90003"},{"Location":"TALK AND TEXT","Address":"8631 S Figueroa St","City":"Los Angeles","State":"CA","Zip":"90003"},{"Location":"TALK AND TEXT PLUS","Address":"8626 S Figueroa St","City":"Los Angeles","State":"CA","Zip":"90003"},{"Location":"TRUE KINGSMAN LODGE","Address":"6818 S San Pedro St","City":"Los Angeles","State":"CA","Zip":"90003"},{"Location":"UNITED PRODUCE","Address":"222 E Manchester Ave","City":"Los Angeles","State":"CA","Zip":"90003"},{"Location":"VISTA HILL ENT SERVICES","Address":"123 W 75th St","City":"Los Angeles","State":"CA","Zip":"90003"},{"Location":"YANILETH MINI STORE","Address":"7518 S Main St","City":"Los Angeles","State":"CA","Zip":"90003"}]