[{"Location":"ACCPUNTURE","Address":"2211 Firestone Blvd","City":"Los Angeles","State":"CA","Zip":"90002"},{"Location":"ALVARADO","Address":"1869 E 97th St","City":"Los Angeles","State":"CA","Zip":"90002"},{"Location":"ANTIOCH BAPTIST CHURCH I","Address":"8725 S Central Ave","City":"Los Angeles","State":"CA","Zip":"90002"},{"Location":"BOSS WINDOW TINT","Address":"9303 S Alameda St","City":"Los Angeles","State":"CA","Zip":"90002"},{"Location":"BRANCH CHURCH","Address":"2318 E 103rd St","City":"Los Angeles","State":"CA","Zip":"90002"},{"Location":"EXCHANGE LOGISTICS INC","Address":"9109 Miner St","City":"Los Angeles","State":"CA","Zip":"90002"},{"Location":"INTERNATIONAL TOWING","Address":"2225 E 89th St","City":"Los Angeles","State":"CA","Zip":"90002"},{"Location":"REGGIES LIQUOR","Address":"10004 S Central Ave","City":"Los Angeles","State":"CA","Zip":"90002"},{"Location":"SUPREME BEAUTY SUPPLY","Address":"10505 Wilmington Ave","City":"Los Angeles","State":"CA","Zip":"90002"},{"Location":"YADI AUTO SALES","Address":"8901 S Alameda St","City":"Los Angeles","State":"CA","Zip":"90002"},{"Location":"ACCPUNTURE","Address":"2211 Firestone Blvd","City":"Los Angeles","State":"CA","Zip":"90002"},{"Location":"ALVARADO","Address":"1869 E 97th St","City":"Los Angeles","State":"CA","Zip":"90002"},{"Location":"ANTIOCH BAPTIST CHURCH I","Address":"8725 S Central Ave","City":"Los Angeles","State":"CA","Zip":"90002"},{"Location":"BOSS WINDOW TINT","Address":"9303 S Alameda St","City":"Los Angeles","State":"CA","Zip":"90002"},{"Location":"BRANCH CHURCH","Address":"2318 E 103rd St","City":"Los Angeles","State":"CA","Zip":"90002"},{"Location":"EXCHANGE LOGISTICS INC","Address":"9109 Miner St","City":"Los Angeles","State":"CA","Zip":"90002"},{"Location":"INTERNATIONAL TOWING","Address":"2225 E 89th St","City":"Los Angeles","State":"CA","Zip":"90002"},{"Location":"REGGIES LIQUOR","Address":"10004 S Central Ave","City":"Los Angeles","State":"CA","Zip":"90002"},{"Location":"SUPREME BEAUTY SUPPLY","Address":"10505 Wilmington Ave","City":"Los Angeles","State":"CA","Zip":"90002"},{"Location":"YADI AUTO SALES","Address":"8901 S Alameda St","City":"Los Angeles","State":"CA","Zip":"90002"}]