[{"Location":"DADA","Address":"3791 Santa Rosalia Dr","City":"Baldwin Hills","State":"CA","Zip":"90008"},{"Location":"AM FINANCIAL SERVICES","Address":"3870 Crenshaw Blvd","City":"Los Angeles","State":"CA","Zip":"90008"},{"Location":"ANGELUS FUNERAL HOME","Address":"3827 Roxton Ave","City":"Los Angeles","State":"CA","Zip":"90008"},{"Location":"AT YOUR SERVICE LIMOUSINE","Address":"3965 Roxton Ave","City":"Los Angeles","State":"CA","Zip":"90008"},{"Location":"BLACK ACES","Address":"3870 Crenshaw Blvd 231","City":"Los Angeles","State":"CA","Zip":"90008"},{"Location":"BRIMBERRY BARBER AND SALON","Address":"3401 W 43rd Pl B","City":"Los Angeles","State":"CA","Zip":"90008"},{"Location":"BUFFALO WILD WINGS #3546","Address":"3939 Crenshaw Blvd E","City":"Los Angeles","State":"CA","Zip":"90008"},{"Location":"CAL BANK & TRUST - LA","Address":"3810 Crenshaw Blvd","City":"Los Angeles","State":"CA","Zip":"90008"},{"Location":"CALL THE TAX DOCTOR","Address":"3860 Crenshaw Blvd 217","City":"Los Angeles","State":"CA","Zip":"90008"},{"Location":"CASTLE DENTAL","Address":"4251 Crenshaw Blvd","City":"Los Angeles","State":"CA","Zip":"90008"},{"Location":"CHIEF ECONOMY BARBER SHOP","Address":"3417 W 43rd St","City":"Los Angeles","State":"CA","Zip":"90008"},{"Location":"CONSOLIDATED BOARD OF REALATOR","Address":"3725 Don Felipe Dr","City":"Los Angeles","State":"CA","Zip":"90008"},{"Location":"CRENSHAW CHURCH OF CHRIST","Address":"2719 W Martin Luther King Jr B","City":"Los Angeles","State":"CA","Zip":"90008"},{"Location":"CRENSHAW LIVE","Address":"3888 Crenshaw Blvd","City":"Los Angeles","State":"CA","Zip":"90008"},{"Location":"DELICOUS SOUTHERN CUISINE","Address":"4371 Crenshaw Blvd","City":"Los Angeles","State":"CA","Zip":"90008"},{"Location":"E W H AND R BLOCK","Address":"3001 W Vernon Ave 200","City":"Los Angeles","State":"CA","Zip":"90008"},{"Location":"FASHION NAILS SPA","Address":"3650 W Martin Luther King Jr B 239","City":"Los Angeles","State":"CA","Zip":"90008"},{"Location":"FRALIN COMMERCIAL","Address":"3701 Stocker St 410","City":"Los Angeles","State":"CA","Zip":"90008"},{"Location":"GOLDEN LIFE SUPPORTED LV","Address":"3860 Crenshaw Blvd 219","City":"Los Angeles","State":"CA","Zip":"90008"},{"Location":"GREENHOUSE CONSTRUCTION","Address":"2413 W Martin Luther King Jr B","City":"Los Angeles","State":"CA","Zip":"90008"},{"Location":"INTEGRATED TREATMENT SERVICES","Address":"3741 Stocker St 105","City":"Los Angeles","State":"CA","Zip":"90008"},{"Location":"JC VIP BARBERSHOP","Address":"3450 W 43rd St 110","City":"Los Angeles","State":"CA","Zip":"90008"},{"Location":"JONES","Address":"2528 W Martin Luther King Jr B","City":"Los Angeles","State":"CA","Zip":"90008"},{"Location":"JT LA BAIL BONDS","Address":"4118 Crenshaw Blvd 200","City":"Los Angeles","State":"CA","Zip":"90008"},{"Location":"KIMS RESTRAUNT","Address":"3860 Crenshaw Blvd","City":"Los Angeles","State":"CA","Zip":"90008"},{"Location":"LIFE WALK SERVICES","Address":"3870 Crenshaw Blvd 230","City":"Los Angeles","State":"CA","Zip":"90008"},{"Location":"LOS ANGELES SENTINEL INC","Address":"3800 Crenshaw Blvd","City":"Los Angeles","State":"CA","Zip":"90008"},{"Location":"MACY'S WEST 520 BR","Address":"4005 Crenshaw Blvd","City":"Los Angeles","State":"CA","Zip":"90008"},{"Location":"MAGNIFICENT BROTHER NO 1 BARBE","Address":"4267 Crenshaw Blvd","City":"Los Angeles","State":"CA","Zip":"90008"},{"Location":"MAVERICKS FLAT LLC","Address":"4225 Crenshaw Blvd","City":"Los Angeles","State":"CA","Zip":"90008"},{"Location":"MELANIE CLARKE","Address":"3710 W Martin Luther King Jr B B","City":"Los Angeles","State":"CA","Zip":"90008"},{"Location":"MORE'S HAIR SALON","Address":"4222 3rd Ave 11","City":"Los Angeles","State":"CA","Zip":"90008"},{"Location":"NO LIMIT BAIL BONDS","Address":"4068 Crenshaw Blvd","City":"Los Angeles","State":"CA","Zip":"90008"},{"Location":"PELO DE ROSE","Address":"3401 W 43rd Pl","City":"Los Angeles","State":"CA","Zip":"90008"},{"Location":"POST AND BEAM RESTAURANT","Address":"3767 Santa Rosalia Dr","City":"Los Angeles","State":"CA","Zip":"90008"},{"Location":"PUBLIC SECURITY INC.","Address":"3860 Crenshaw Blvd 223","City":"Los Angeles","State":"CA","Zip":"90008"},{"Location":"RIGHT CHOICE MARKET","Address":"4233 Crenshaw Blvd","City":"Los Angeles","State":"CA","Zip":"90008"},{"Location":"SANTA CLARA DENTAL INC","Address":"4126 Crenshaw Blvd","City":"Los Angeles","State":"CA","Zip":"90008"},{"Location":"THE LIQUOR BANK","Address":"3600 Stocker St","City":"Los Angeles","State":"CA","Zip":"90008"},{"Location":"THE SHOP HAIR LOUNGE 1","Address":"4312 Crenshaw Blvd","City":"Los Angeles","State":"CA","Zip":"90008"},{"Location":"UNIVERSAL COLLEGE OF BEAUTY","Address":"3419 W 43rd Pl","City":"Los Angeles","State":"CA","Zip":"90008"},{"Location":"VIEWPARK  CONVALESCENT H","Address":"3737 Don Felipe Dr","City":"Los Angeles","State":"CA","Zip":"90008"},{"Location":"WESTHOUT AND ASSOCIATES","Address":"4197 Marlton Ave 2","City":"Los Angeles","State":"CA","Zip":"90008"},{"Location":"WINGSTOP","Address":"3825 Crenshaw Blvd","City":"Los Angeles","State":"CA","Zip":"90008"}]