[{"Location":"401 SOUTH HOOVER PROPERTY INC","Address":"3206 W 8th St 100","City":"Los Angeles","State":"CA","Zip":"90005"},{"Location":"AAGLA","Address":"621 S Westmoreland Ave A","City":"Los Angeles","State":"CA","Zip":"90005"},{"Location":"ADMORE CONDO INC","Address":"825 S Ardmore Ave 4","City":"Los Angeles","State":"CA","Zip":"90005"},{"Location":"ADRENALINE321LLC","Address":"3331 W 8th St","City":"Los Angeles","State":"CA","Zip":"90005"},{"Location":"ALEX LOCK & KEY SERVICE","Address":"728 S Hoover St","City":"Los Angeles","State":"CA","Zip":"90005"},{"Location":"ANGEL JUICE","Address":"833 S Western Ave","City":"Los Angeles","State":"CA","Zip":"90005"},{"Location":"BARRA LATINA","Address":"739 1%2F2 S Western Ave","City":"Los Angeles","State":"CA","Zip":"90005"},{"Location":"BOOK SEA TONG","Address":"755 S Vermont Ave","City":"Los Angeles","State":"CA","Zip":"90005"},{"Location":"BRAIN MAPPING MEDICAL RESEARCH","Address":"660       Charles Young D","City":"Los Angeles","State":"CA","Zip":"90005"},{"Location":"BUDNAMU BBQ","Address":"809 S Ardmore Ave","City":"Los Angeles","State":"CA","Zip":"90005"},{"Location":"CAFE MAK","Address":"612 Shatto Pl","City":"Los Angeles","State":"CA","Zip":"90005"},{"Location":"CASSELLS RESTERAURANT","Address":"605 S Normandie Ave","City":"Los Angeles","State":"CA","Zip":"90005"},{"Location":"CATALINA LIQUOR","Address":"3130 W 8th St","City":"Los Angeles","State":"CA","Zip":"90005"},{"Location":"CIRCLE CITY","Address":"2976 Francis Ave","City":"Los Angeles","State":"CA","Zip":"90005"},{"Location":"D AND S KIM INC","Address":"851 1%2F2 S Western Ave","City":"Los Angeles","State":"CA","Zip":"90005"},{"Location":"DEAHANMINGOOK INC","Address":"3498 W 8th St 101","City":"Los Angeles","State":"CA","Zip":"90005"},{"Location":"DISCOTECA LATINA","Address":"768 S Vermont Ave","City":"Los Angeles","State":"CA","Zip":"90005"},{"Location":"DOWNEY YMCA TREDMILL HD","Address":"625  S  New Hamsher Avenue","City":"Los Angeles","State":"CA","Zip":"90005"},{"Location":"EBS AMERICA","Address":"680 Wilshire Pl 317","City":"Los Angeles","State":"CA","Zip":"90005"},{"Location":"EIGHTH STREET SOONDAE","Address":"2703 W 8th St","City":"Los Angeles","State":"CA","Zip":"90005"},{"Location":"EL ANANECER SALVAZORENO","Address":"3059 W 8th St","City":"Los Angeles","State":"CA","Zip":"90005"},{"Location":"EXCELLENT 32 DENTISTRY","Address":"866 S Westmoreland Ave 102","City":"Los Angeles","State":"CA","Zip":"90005"},{"Location":"FITNESS M","Address":"621 S Western Ave 203","City":"Los Angeles","State":"CA","Zip":"90005"},{"Location":"GARDEN SUITES BAR","Address":"681 S Western Ave","City":"Los Angeles","State":"CA","Zip":"90005"},{"Location":"GATEWAY FCTP","Address":"621 S Virgil Ave 300","City":"Los Angeles","State":"CA","Zip":"90005"},{"Location":"HALMAE RESTAURANT","Address":"3122 W 8th St","City":"Los Angeles","State":"CA","Zip":"90005"},{"Location":"HAPPY RICE CAKE","Address":"855 S Western Ave","City":"Los Angeles","State":"CA","Zip":"90005"},{"Location":"JBC BROADCASTING","Address":"690 Wilshire Pl Fl2","City":"Los Angeles","State":"CA","Zip":"90005"},{"Location":"JONG GA JIP","Address":"3524 W 8th St","City":"Los Angeles","State":"CA","Zip":"90005"},{"Location":"JSP VENTURE INC","Address":"601 S Ardmore Ave 150","City":"Los Angeles","State":"CA","Zip":"90005"},{"Location":"KBS AMERICA","Address":"625 S Kingsley Dr 4fl","City":"Los Angeles","State":"CA","Zip":"90005"},{"Location":"KOREAN BBQ SOOWON","Address":"856 S Vermont Ave B","City":"Los Angeles","State":"CA","Zip":"90005"},{"Location":"KOREAN CHICKEN PLACE","Address":"618 S Serrano Ave","City":"Los Angeles","State":"CA","Zip":"90005"},{"Location":"LAS COMALES CAFE","Address":"3329 W 8th St","City":"Los Angeles","State":"CA","Zip":"90005"},{"Location":"LIU HENGY","Address":"700 S Western Ave 201","City":"Los Angeles","State":"CA","Zip":"90005"},{"Location":"LOS ANGELES COUNTY DPH ODT","Address":"600 S Commonwealth Ave","City":"Los Angeles","State":"CA","Zip":"90005"},{"Location":"MAN SOO KOREAN BAR-B-Q","Address":"3423 W 8th St","City":"Los Angeles","State":"CA","Zip":"90005"},{"Location":"OFICINA DE MANTENIMIENTO","Address":"711 S Vermont Ave 105","City":"Los Angeles","State":"CA","Zip":"90005"},{"Location":"OH COMMUNICATION","Address":"827 S Berendo St 306","City":"Los Angeles","State":"CA","Zip":"90005"},{"Location":"OHMANI RESTAURANT","Address":"807 S Ardmore Ave","City":"Los Angeles","State":"CA","Zip":"90005"},{"Location":"ONDAL","Address":"3160 W 8th St","City":"Los Angeles","State":"CA","Zip":"90005"},{"Location":"OO KOOK","Address":"3385 W 8th St","City":"Los Angeles","State":"CA","Zip":"90005"},{"Location":"PALGA GRAND HOTEL","Address":"3160 W 8th St","City":"Los Angeles","State":"CA","Zip":"90005"},{"Location":"PANEDERIA SANTO DOMINGO","Address":"3418 W 8th St","City":"Los Angeles","State":"CA","Zip":"90005"},{"Location":"PIZZERIA NAPOLI","Address":"3525 W 8th St 208","City":"Los Angeles","State":"CA","Zip":"90005"},{"Location":"PULGARCITO QUERIDO","Address":"841 S Vermont Ave","City":"Los Angeles","State":"CA","Zip":"90005"},{"Location":"PULGARCITO QUERIDO 2","Address":"841 S Vermont Ave","City":"Los Angeles","State":"CA","Zip":"90005"},{"Location":"RADIOK1230-WOORI","Address":"690 Wilshire Pl 3","City":"Los Angeles","State":"CA","Zip":"90005"},{"Location":"SABORES","Address":"3337 W 8th St","City":"Los Angeles","State":"CA","Zip":"90005"},{"Location":"SAM BEAUTY SALON","Address":"739 S Western Ave","City":"Los Angeles","State":"CA","Zip":"90005"},{"Location":"SCHOOL FOOD","Address":"621 S Western Ave 301","City":"Los Angeles","State":"CA","Zip":"90005"},{"Location":"SIZZLER 214","Address":"710 S Western Ave","City":"Los Angeles","State":"CA","Zip":"90005"},{"Location":"SKY MARTIAL ART CENTER","Address":"4027 Leeward Ave","City":"Los Angeles","State":"CA","Zip":"90005"},{"Location":"SO KONG DONG","Address":"808 S Western Ave 207","City":"Los Angeles","State":"CA","Zip":"90005"},{"Location":"TAYLORS STEAKHOUSE","Address":"3361 W 8th St","City":"Los Angeles","State":"CA","Zip":"90005"},{"Location":"TEUM","Address":"3526 W 8th St","City":"Los Angeles","State":"CA","Zip":"90005"},{"Location":"THE BRASS MONKEY","Address":"659 S Mariposa Ave","City":"Los Angeles","State":"CA","Zip":"90005"},{"Location":"THE KOREA DAILY","Address":"690 Witshire Pl","City":"Los Angeles","State":"CA","Zip":"90005"},{"Location":"TORRES","Address":"3422 W 8th St","City":"Los Angeles","State":"CA","Zip":"90005"},{"Location":"UFCW LOCAL 770","Address":"630 Shatto Pl 3rdfl","City":"Los Angeles","State":"CA","Zip":"90005"},{"Location":"WILSHIRE STATE BANK","Address":"841 S Western Ave","City":"Los Angeles","State":"CA","Zip":"90005"},{"Location":"WONDERLAND STUDIOS","Address":"729 S Western Ave","City":"Los Angeles","State":"CA","Zip":"90005"},{"Location":"YOKINO HANA","Address":"3100 W 8th St 103","City":"Los Angeles","State":"CA","Zip":"90005"},{"Location":"ZWOONNY KITCHEN INC","Address":"857 S Western Ave","City":"Los Angeles","State":"CA","Zip":"90005"}]