[{"Location":"MONG KOREAN BBQ","Address":"100 W Western Ave","City":"La","State":"CA","Zip":"90004"},{"Location":"99 CENTS AND GIFT SHOP","Address":"500 N Hoover St","City":"Los Angeles","State":"CA","Zip":"90004"},{"Location":"ATLACATL RESTAURANT","Address":"301 N Berendo St","City":"Los Angeles","State":"CA","Zip":"90004"},{"Location":"BACK KUNG2","Address":"233 S Vermont Ave","City":"Los Angeles","State":"CA","Zip":"90004"},{"Location":"BBCN BANK","Address":"253 H Western Ave","City":"Los Angeles","State":"CA","Zip":"90004"},{"Location":"BEVERLY HOT SPRINGS","Address":"308 N Oxford Ave","City":"Los Angeles","State":"CA","Zip":"90004"},{"Location":"BIERGARTEN","Address":"206 N Western Ave","City":"Los Angeles","State":"CA","Zip":"90004"},{"Location":"BREESEE FOUNDATION","Address":"184 Bimini Pl","City":"Los Angeles","State":"CA","Zip":"90004"},{"Location":"BURGER KING","Address":"181 S Vermont Ave","City":"Los Angeles","State":"CA","Zip":"90004"},{"Location":"CENTRO DE PAGOS SJT DISC","Address":"4157 Beverly Blvd","City":"Los Angeles","State":"CA","Zip":"90004"},{"Location":"CHAPINES EXPRESS","Address":"4060 Beverly Blvd","City":"Los Angeles","State":"CA","Zip":"90004"},{"Location":"CINDY K RESTAURANT","Address":"4273 Beverly Blvd","City":"Los Angeles","State":"CA","Zip":"90004"},{"Location":"COMPLETE COPY SYSTEMS GP INC","Address":"3300 Beverly Blvd","City":"Los Angeles","State":"CA","Zip":"90004"},{"Location":"COUNTRY CLUB MANOR","Address":"316 N Rossmore Ave","City":"Los Angeles","State":"CA","Zip":"90004"},{"Location":"CRYSTAL HOUSE","Address":"236 N Catalina St","City":"Los Angeles","State":"CA","Zip":"90004"},{"Location":"DELANCEY - F3","Address":"400 N Vermont Ave","City":"Los Angeles","State":"CA","Zip":"90004"},{"Location":"DELANCEY F4","Address":"400 N Vermont Ave","City":"Los Angeles","State":"CA","Zip":"90004"},{"Location":"DELANCY - MGMT","Address":"400 N Vermont Ave","City":"Los Angeles","State":"CA","Zip":"90004"},{"Location":"DELANCY - PRESIDENT","Address":"400 N Vermont Ave","City":"Los Angeles","State":"CA","Zip":"90004"},{"Location":"DENTISTRY FOR CHILDREN","Address":"411 N Larchmont Blvd","City":"Los Angeles","State":"CA","Zip":"90004"},{"Location":"DJ BIBINGKAHAN","Address":"188 S Vermont Ave","City":"Los Angeles","State":"CA","Zip":"90004"},{"Location":"EL CHIPILIN","Address":"4170 Beverly Blvd","City":"Los Angeles","State":"CA","Zip":"90004"},{"Location":"EL SHADDAI MINISTRY","Address":"176 N Edgemont St","City":"Los Angeles","State":"CA","Zip":"90004"},{"Location":"FONCECHA MEDICAL","Address":"159 S Vermont Ave","City":"Los Angeles","State":"CA","Zip":"90004"},{"Location":"GAME CLOUD LOUNGE","Address":"251 N Vermont Ave","City":"Los Angeles","State":"CA","Zip":"90004"},{"Location":"HAEDAMI","Address":"238 Westmoreland","City":"Los Angeles","State":"CA","Zip":"90004"},{"Location":"HEALTHY LIFE ADULT DAY C","Address":"137 N Virgil Ave","City":"Los Angeles","State":"CA","Zip":"90004"},{"Location":"HOLLYWOOD FORD","Address":"200 N Vermont Ave","City":"Los Angeles","State":"CA","Zip":"90004"},{"Location":"HOLLYWOOD FORD","Address":"3718 Beverly Blvd","City":"Los Angeles","State":"CA","Zip":"90004"},{"Location":"JARAGUA RESTAURANT","Address":"4493 Beverly Blvd","City":"Los Angeles","State":"CA","Zip":"90004"},{"Location":"JOHNNY AIR CARGO","Address":"153 S Vermont Ave","City":"Los Angeles","State":"CA","Zip":"90004"},{"Location":"KARMA LOUNGE","Address":"3954 Beverly Blvd","City":"Los Angeles","State":"CA","Zip":"90004"},{"Location":"KIM BARBER SHOP","Address":"4558 Beverly Blvd","City":"Los Angeles","State":"CA","Zip":"90004"},{"Location":"KOREA SAH BUDDHIST TEMPL","Address":"500 N Western Ave","City":"Los Angeles","State":"CA","Zip":"90004"},{"Location":"LA BLANCA LAVANDERIA","Address":"3944 Beverly Blvd","City":"Los Angeles","State":"CA","Zip":"90004"},{"Location":"LA HAIRCUTS","Address":"3615 Beverly Blvd","City":"Los Angeles","State":"CA","Zip":"90004"},{"Location":"LA NUEVA FLOR BLANCA RES","Address":"4271 Beverly Blvd","City":"Los Angeles","State":"CA","Zip":"90004"},{"Location":"LARCHMONT BARBER SHOP","Address":"142 1%2F2 N Larchmont Blvd","City":"Los Angeles","State":"CA","Zip":"90004"},{"Location":"LARCHMONT EXECUTIVE SUITE","Address":"200 N Larchmont Blvd","City":"Los Angeles","State":"CA","Zip":"90004"},{"Location":"LARCHMONTBEAUTY","Address":"208 N Larchmont Blvd","City":"Los Angeles","State":"CA","Zip":"90004"},{"Location":"LEGEND NOODLE & GRILL","Address":"209 S Vermont Ave","City":"Los Angeles","State":"CA","Zip":"90004"},{"Location":"LOS ANGELES TENNIS CLUB","Address":"5851 Clinton St","City":"Los Angeles","State":"CA","Zip":"90004"},{"Location":"MARISCO CABOS INC","Address":"4162 Beverly Blvd","City":"Los Angeles","State":"CA","Zip":"90004"},{"Location":"MARISSA LAGUSE TEMPLO DDS","Address":"3940 12  Beverly Blvd","City":"Los Angeles","State":"CA","Zip":"90004"},{"Location":"MART NARA","Address":"4653 1%2F2 Beverly Blvd","City":"Los Angeles","State":"CA","Zip":"90004"},{"Location":"MARY WASHINGTON","Address":"155 Bimini Pl","City":"Los Angeles","State":"CA","Zip":"90004"},{"Location":"MEXICAN VILLAGE REST","Address":"3668 Beverly Blvd","City":"Los Angeles","State":"CA","Zip":"90004"},{"Location":"NATURES GARDENS","Address":"143 N Western Ave","City":"Los Angeles","State":"CA","Zip":"90004"},{"Location":"PIPER'S BAR","Address":"222 N Western Ave","City":"Los Angeles","State":"CA","Zip":"90004"},{"Location":"RCE MULTISERVICES","Address":"628 N Vermont Ave 10","City":"Los Angeles","State":"CA","Zip":"90004"},{"Location":"ROYAL THAI CONSULATE GENERAL","Address":"611 W Larchmont Blvd","City":"Los Angeles","State":"CA","Zip":"90004"},{"Location":"SHIN MRI LLC","Address":"266 S Harvard Blvd 220","City":"Los Angeles","State":"CA","Zip":"90004"},{"Location":"STEPHANIE CLOTHING","Address":"4134 Beverly Blvd","City":"Los Angeles","State":"CA","Zip":"90004"},{"Location":"THE BUN SHOP","Address":"151 N Western Ave","City":"Los Angeles","State":"CA","Zip":"90004"},{"Location":"THE CHADWICK APARTMENT HOMES","Address":"209 S Westmoreland Ave","City":"Los Angeles","State":"CA","Zip":"90004"},{"Location":"THE ROSSMORE","Address":"585 N Rossmore Ave","City":"Los Angeles","State":"CA","Zip":"90004"},{"Location":"UNITED BOOKEEPERS","Address":"244 S Oxford Ave 19","City":"Los Angeles","State":"CA","Zip":"90004"},{"Location":"UNO OJO JACK","Address":"3977 Beverly Blvd","City":"Los Angeles","State":"CA","Zip":"90004"},{"Location":"WAGON WHEEL NURSERY SCHOOL","Address":"653 N Cahuenga Blvd","City":"Los Angeles","State":"CA","Zip":"90004"},{"Location":"WILSHIRE COUNTRY CLUB","Address":"301 N Rossmore Ave","City":"Los Angeles","State":"CA","Zip":"90004"},{"Location":"YOUNG BILLIARD","Address":"132 S Vermont Ave 205","City":"Los Angeles","State":"CA","Zip":"90004"},{"Location":"MONG KOREAN BBQ","Address":"100 W Western Ave","City":"La","State":"CA","Zip":"90004"},{"Location":"99 CENTS AND GIFT SHOP","Address":"500 N Hoover St","City":"Los Angeles","State":"CA","Zip":"90004"},{"Location":"ATLACATL RESTAURANT","Address":"301 N Berendo St","City":"Los Angeles","State":"CA","Zip":"90004"},{"Location":"BACK KUNG2","Address":"233 S Vermont Ave","City":"Los Angeles","State":"CA","Zip":"90004"},{"Location":"BBCN BANK","Address":"253 H Western Ave","City":"Los Angeles","State":"CA","Zip":"90004"},{"Location":"BEVERLY HOT SPRINGS","Address":"308 N Oxford Ave","City":"Los Angeles","State":"CA","Zip":"90004"},{"Location":"BIERGARTEN","Address":"206 N Western Ave","City":"Los Angeles","State":"CA","Zip":"90004"},{"Location":"BREESEE FOUNDATION","Address":"184 Bimini Pl","City":"Los Angeles","State":"CA","Zip":"90004"},{"Location":"BURGER KING","Address":"181 S Vermont Ave","City":"Los Angeles","State":"CA","Zip":"90004"},{"Location":"CENTRO DE PAGOS SJT DISC","Address":"4157 Beverly Blvd","City":"Los Angeles","State":"CA","Zip":"90004"},{"Location":"CHAPINES EXPRESS","Address":"4060 Beverly Blvd","City":"Los Angeles","State":"CA","Zip":"90004"},{"Location":"CINDY K RESTAURANT","Address":"4273 Beverly Blvd","City":"Los Angeles","State":"CA","Zip":"90004"},{"Location":"COMPLETE COPY SYSTEMS GP INC","Address":"3300 Beverly Blvd","City":"Los Angeles","State":"CA","Zip":"90004"},{"Location":"COUNTRY CLUB MANOR","Address":"316 N Rossmore Ave","City":"Los Angeles","State":"CA","Zip":"90004"},{"Location":"CRYSTAL HOUSE","Address":"236 N Catalina St","City":"Los Angeles","State":"CA","Zip":"90004"},{"Location":"DELANCEY - F3","Address":"400 N Vermont Ave","City":"Los Angeles","State":"CA","Zip":"90004"},{"Location":"DELANCEY F4","Address":"400 N Vermont Ave","City":"Los Angeles","State":"CA","Zip":"90004"},{"Location":"DELANCY - MGMT","Address":"400 N Vermont Ave","City":"Los Angeles","State":"CA","Zip":"90004"},{"Location":"DELANCY - PRESIDENT","Address":"400 N Vermont Ave","City":"Los Angeles","State":"CA","Zip":"90004"},{"Location":"DENTISTRY FOR CHILDREN","Address":"411 N Larchmont Blvd","City":"Los Angeles","State":"CA","Zip":"90004"},{"Location":"DJ BIBINGKAHAN","Address":"188 S Vermont Ave","City":"Los Angeles","State":"CA","Zip":"90004"},{"Location":"EL CHIPILIN","Address":"4170 Beverly Blvd","City":"Los Angeles","State":"CA","Zip":"90004"},{"Location":"EL SHADDAI MINISTRY","Address":"176 N Edgemont St","City":"Los Angeles","State":"CA","Zip":"90004"},{"Location":"FONCECHA MEDICAL","Address":"159 S Vermont Ave","City":"Los Angeles","State":"CA","Zip":"90004"},{"Location":"GAME CLOUD LOUNGE","Address":"251 N Vermont Ave","City":"Los Angeles","State":"CA","Zip":"90004"},{"Location":"HAEDAMI","Address":"238 Westmoreland","City":"Los Angeles","State":"CA","Zip":"90004"},{"Location":"HEALTHY LIFE ADULT DAY C","Address":"137 N Virgil Ave","City":"Los Angeles","State":"CA","Zip":"90004"},{"Location":"HOLLYWOOD FORD","Address":"200 N Vermont Ave","City":"Los Angeles","State":"CA","Zip":"90004"},{"Location":"HOLLYWOOD FORD","Address":"3718 Beverly Blvd","City":"Los Angeles","State":"CA","Zip":"90004"},{"Location":"JARAGUA RESTAURANT","Address":"4493 Beverly Blvd","City":"Los Angeles","State":"CA","Zip":"90004"},{"Location":"JOHNNY AIR CARGO","Address":"153 S Vermont Ave","City":"Los Angeles","State":"CA","Zip":"90004"},{"Location":"KARMA LOUNGE","Address":"3954 Beverly Blvd","City":"Los Angeles","State":"CA","Zip":"90004"},{"Location":"KIM BARBER SHOP","Address":"4558 Beverly Blvd","City":"Los Angeles","State":"CA","Zip":"90004"},{"Location":"KOREA SAH BUDDHIST TEMPL","Address":"500 N Western Ave","City":"Los Angeles","State":"CA","Zip":"90004"},{"Location":"LA BLANCA LAVANDERIA","Address":"3944 Beverly Blvd","City":"Los Angeles","State":"CA","Zip":"90004"},{"Location":"LA HAIRCUTS","Address":"3615 Beverly Blvd","City":"Los Angeles","State":"CA","Zip":"90004"},{"Location":"LA NUEVA FLOR BLANCA RES","Address":"4271 Beverly Blvd","City":"Los Angeles","State":"CA","Zip":"90004"},{"Location":"LARCHMONT BARBER SHOP","Address":"142 1%2F2 N Larchmont Blvd","City":"Los Angeles","State":"CA","Zip":"90004"},{"Location":"LARCHMONT EXECUTIVE SUITE","Address":"200 N Larchmont Blvd","City":"Los Angeles","State":"CA","Zip":"90004"},{"Location":"LARCHMONTBEAUTY","Address":"208 N Larchmont Blvd","City":"Los Angeles","State":"CA","Zip":"90004"},{"Location":"LEGEND NOODLE & GRILL","Address":"209 S Vermont Ave","City":"Los Angeles","State":"CA","Zip":"90004"},{"Location":"LOS ANGELES TENNIS CLUB","Address":"5851 Clinton St","City":"Los Angeles","State":"CA","Zip":"90004"},{"Location":"MARISCO CABOS INC","Address":"4162 Beverly Blvd","City":"Los Angeles","State":"CA","Zip":"90004"},{"Location":"MARISSA LAGUSE TEMPLO DDS","Address":"3940 12  Beverly Blvd","City":"Los Angeles","State":"CA","Zip":"90004"},{"Location":"MART NARA","Address":"4653 1%2F2 Beverly Blvd","City":"Los Angeles","State":"CA","Zip":"90004"},{"Location":"MARY WASHINGTON","Address":"155 Bimini Pl","City":"Los Angeles","State":"CA","Zip":"90004"},{"Location":"MEXICAN VILLAGE REST","Address":"3668 Beverly Blvd","City":"Los Angeles","State":"CA","Zip":"90004"},{"Location":"NATURES GARDENS","Address":"143 N Western Ave","City":"Los Angeles","State":"CA","Zip":"90004"},{"Location":"PIPER'S BAR","Address":"222 N Western Ave","City":"Los Angeles","State":"CA","Zip":"90004"},{"Location":"RCE MULTISERVICES","Address":"628 N Vermont Ave 10","City":"Los Angeles","State":"CA","Zip":"90004"},{"Location":"RITZ DRY CLEANERS","Address":"306 N Larchmont Blvd","City":"Los Angeles","State":"CA","Zip":"90004"},{"Location":"ROYAL THAI CONSULATE GENERAL","Address":"611 W Larchmont Blvd","City":"Los Angeles","State":"CA","Zip":"90004"},{"Location":"SHIN MRI LLC","Address":"266 S Harvard Blvd 220","City":"Los Angeles","State":"CA","Zip":"90004"},{"Location":"STEPHANIE CLOTHING","Address":"4134 Beverly Blvd","City":"Los Angeles","State":"CA","Zip":"90004"},{"Location":"THE BUN SHOP","Address":"151 N Western Ave","City":"Los Angeles","State":"CA","Zip":"90004"},{"Location":"THE CHADWICK APARTMENT HOMES","Address":"209 S Westmoreland Ave","City":"Los Angeles","State":"CA","Zip":"90004"},{"Location":"THE ROSSMORE","Address":"585 N Rossmore Ave","City":"Los Angeles","State":"CA","Zip":"90004"},{"Location":"UNITED BOOKEEPERS","Address":"244 S Oxford Ave 19","City":"Los Angeles","State":"CA","Zip":"90004"},{"Location":"UNO OJO JACK","Address":"3977 Beverly Blvd","City":"Los Angeles","State":"CA","Zip":"90004"},{"Location":"WAGON WHEEL NURSERY SCHOOL","Address":"653 N Cahuenga Blvd","City":"Los Angeles","State":"CA","Zip":"90004"},{"Location":"WILSHIRE COUNTRY CLUB","Address":"301 N Rossmore Ave","City":"Los Angeles","State":"CA","Zip":"90004"},{"Location":"YOUNG BILLIARD","Address":"132 S Vermont Ave 205","City":"Los Angeles","State":"CA","Zip":"90004"}]