[{"Location":"ALIANZA LATINA","Address":"1436 S Vermont Ave","City":"Los Angeles","State":"CA","Zip":"90006"},{"Location":"BBCN BANK","Address":"2222 W Olympic Blvd","City":"Los Angeles","State":"CA","Zip":"90006"},{"Location":"BIGAN CORP","Address":"1001 S Vermont Ave 103","City":"Los Angeles","State":"CA","Zip":"90006"},{"Location":"BJS COMPUTERS","Address":"1819 W Pico Blvd","City":"Los Angeles","State":"CA","Zip":"90006"},{"Location":"C AND J HEALTH","Address":"2717 W Olympic Blvd 103","City":"Los Angeles","State":"CA","Zip":"90006"},{"Location":"CAFE SKAI","Address":"1159 S Vermont Ave","City":"Los Angeles","State":"CA","Zip":"90006"},{"Location":"CHO MAN WON","Address":"2881 W Olympic Blvd","City":"Los Angeles","State":"CA","Zip":"90006"},{"Location":"CONCHITAS RESTAURANT INC","Address":"2580 W Pico Blvd","City":"Los Angeles","State":"CA","Zip":"90006"},{"Location":"DAE BOK","Address":"2010 James M Wood Blvd","City":"Los Angeles","State":"CA","Zip":"90006"},{"Location":"DENYS BARBER SHOP","Address":"1308 S Vermont Ave","City":"Los Angeles","State":"CA","Zip":"90006"},{"Location":"DON DAE GAM","Address":"1145 S Western Ave","City":"Los Angeles","State":"CA","Zip":"90006"},{"Location":"DR CHUNG'S DDS","Address":"1144 S Western Ave 210","City":"Los Angeles","State":"CA","Zip":"90006"},{"Location":"EL ASADOR LLC","Address":"1215 Venice Blvd","City":"Los Angeles","State":"CA","Zip":"90006"},{"Location":"EL BARON","Address":"2757 W Pico Blvd","City":"Los Angeles","State":"CA","Zip":"90006"},{"Location":"EL CHOLO RESTAURANT","Address":"1121 S Western Ave","City":"Los Angeles","State":"CA","Zip":"90006"},{"Location":"EL COLMAO","Address":"2328 W Pico Blvd","City":"Los Angeles","State":"CA","Zip":"90006"},{"Location":"EL FAROLITO","Address":"2737 W Pico Blvd","City":"Los Angeles","State":"CA","Zip":"90006"},{"Location":"EL MUNDO TRAVEL AND TOURS","Address":"1547 Venice Blvd B","City":"Los Angeles","State":"CA","Zip":"90006"},{"Location":"EL NAZARENO RESTAURANT","Address":"2411 W Olympic Blvd 5","City":"Los Angeles","State":"CA","Zip":"90006"},{"Location":"EL NUEVO MIRADOR","Address":"2705 W Pico Blvd","City":"Los Angeles","State":"CA","Zip":"90006"},{"Location":"EMERALD TERRACE CONV HOSPITAL","Address":"1154 S Alvarado St","City":"Los Angeles","State":"CA","Zip":"90006"},{"Location":"FIRESTATION THIRTEEN","Address":"2401 W Pico Blvd","City":"Los Angeles","State":"CA","Zip":"90006"},{"Location":"FOUR STAR BARBERS","Address":"1249 S Catalina St","City":"Los Angeles","State":"CA","Zip":"90006"},{"Location":"GALLARIA CAFE","Address":"3250 W Olympic Blvd 352","City":"Los Angeles","State":"CA","Zip":"90006"},{"Location":"GLEN-DONALD APARTMENTS","Address":"2121 James M Wood Blvd Basm","City":"Los Angeles","State":"CA","Zip":"90006"},{"Location":"GOLD CANVAZ INC","Address":"1420 S Vermont Ave","City":"Los Angeles","State":"CA","Zip":"90006"},{"Location":"HODORI RESTAURANT","Address":"1001 S Vermont Ave 101","City":"Los Angeles","State":"CA","Zip":"90006"},{"Location":"HONG GALBI RESTAURANT","Address":"3132 W Olympic Blvd","City":"Los Angeles","State":"CA","Zip":"90006"},{"Location":"HOON YEE INC","Address":"2800 W Olympic Blvd F","City":"Los Angeles","State":"CA","Zip":"90006"},{"Location":"INCOME TAX SPECIALIST","Address":"2690 W Pico Blvd","City":"Los Angeles","State":"CA","Zip":"90006"},{"Location":"J BBQ","Address":"901 S Vermont Ave","City":"Los Angeles","State":"CA","Zip":"90006"},{"Location":"J.M S 3","Address":"2228 W 11th St","City":"Los Angeles","State":"CA","Zip":"90006"},{"Location":"JIN HEUNG GHAK","Address":"3250 W Olympic Blvd 317","City":"Los Angeles","State":"CA","Zip":"90006"},{"Location":"JJ LEE INC","Address":"2716 W Olympic Blvd 101","City":"Los Angeles","State":"CA","Zip":"90006"},{"Location":"KLG CENTER","Address":"2938 W Pico Blvd","City":"Los Angeles","State":"CA","Zip":"90006"},{"Location":"KLG SPA","Address":"932 S Vermont Ave","City":"Los Angeles","State":"CA","Zip":"90006"},{"Location":"KOREAN BBQ INC","Address":"2897 W Olympic Blvd","City":"Los Angeles","State":"CA","Zip":"90006"},{"Location":"LA   LAUNDRY MAT","Address":"1451 Venice Blvd","City":"Los Angeles","State":"CA","Zip":"90006"},{"Location":"LA 27","Address":"1830      W Pico Blvd","City":"Los Angeles","State":"CA","Zip":"90006"},{"Location":"LABOR UNION","Address":"920 S Alvarado St","City":"Los Angeles","State":"CA","Zip":"90006"},{"Location":"LABREA CHICKEN","Address":"1570 S Western Ave 106","City":"Los Angeles","State":"CA","Zip":"90006"},{"Location":"LAS SIETE REGIONES","Address":"2648 W Pico Blvd","City":"Los Angeles","State":"CA","Zip":"90006"},{"Location":"LHS FM","Address":"1508 S Berendo St","City":"Los Angeles","State":"CA","Zip":"90006"},{"Location":"LHS JESUIT COMMUNITY","Address":"1901 Venice Blvd","City":"Los Angeles","State":"CA","Zip":"90006"},{"Location":"LINA SALON","Address":"1124 S Oxford Ave","City":"Los Angeles","State":"CA","Zip":"90006"},{"Location":"LOYOLA HIGH SCHOOL #2","Address":"1901 Venice Blvd","City":"Los Angeles","State":"CA","Zip":"90006"},{"Location":"M AND S OIL CORP","Address":"1303 S Western Ave","City":"Los Angeles","State":"CA","Zip":"90006"},{"Location":"MAX LIFE USA","Address":"3224 W Olympic Blvd 207","City":"Los Angeles","State":"CA","Zip":"90006"},{"Location":"MAYAS MINI MARKET","Address":"1563 Venice Blvd","City":"Los Angeles","State":"CA","Zip":"90006"},{"Location":"MAYAZ TECH","Address":"955 S Alvarado St","City":"Los Angeles","State":"CA","Zip":"90006"},{"Location":"MIQUERIDO","Address":"2500 W Pico Blvd","City":"Los Angeles","State":"CA","Zip":"90006"},{"Location":"MISS KOREA","Address":"1101 S Vermont Ave","City":"Los Angeles","State":"CA","Zip":"90006"},{"Location":"MOOBONGRI","Address":"2949 W Olympic Blvd","City":"Los Angeles","State":"CA","Zip":"90006"},{"Location":"NAIL STORY","Address":"2917 W Olympic Blvd","City":"Los Angeles","State":"CA","Zip":"90006"},{"Location":"NEIGHBORS LOCAL 300","Address":"2005 W Pico Blvd","City":"Los Angeles","State":"CA","Zip":"90006"},{"Location":"NEW IMAGINE SALON","Address":"2805 W Pico Blvd","City":"Los Angeles","State":"CA","Zip":"90006"},{"Location":"NEW LINE CUTS","Address":"1570 S Western Ave 210","City":"Los Angeles","State":"CA","Zip":"90006"},{"Location":"NUEVO SANTANECO","Address":"3068 W Pico Blvd","City":"Los Angeles","State":"CA","Zip":"90006"},{"Location":"NUNOS MARKET","Address":"1605 S Hoover St","City":"Los Angeles","State":"CA","Zip":"90006"},{"Location":"OBBA BEAUTY SALON","Address":"1570 S Western Ave 108","City":"Los Angeles","State":"CA","Zip":"90006"},{"Location":"OH DE SAN INC","Address":"2889 W Olympic Blvd","City":"Los Angeles","State":"CA","Zip":"90006"},{"Location":"ORIENTAL","Address":"2528 W Olympic Blvd 205","City":"Los Angeles","State":"CA","Zip":"90006"},{"Location":"OXFORD DENTAL","Address":"3224 W Olympic Blvd 201","City":"Los Angeles","State":"CA","Zip":"90006"},{"Location":"P ESPORT","Address":"1815 S Vermont Ave","City":"Los Angeles","State":"CA","Zip":"90006"},{"Location":"PALETERIA BETTY","Address":"1834 James M Wood Blvd","City":"Los Angeles","State":"CA","Zip":"90006"},{"Location":"PANERIA GUERRERO","Address":"2411 W Olympic Blvd 1","City":"Los Angeles","State":"CA","Zip":"90006"},{"Location":"PARK BBQ","Address":"955 S Vermont Ave G","City":"Los Angeles","State":"CA","Zip":"90006"},{"Location":"PAUL H KIM MD","Address":"2727 W Olympic Blvd 307","City":"Los Angeles","State":"CA","Zip":"90006"},{"Location":"PEREIRA AUTO REPAIR","Address":"1835 S Bonnie Brae St","City":"Los Angeles","State":"CA","Zip":"90006"},{"Location":"PICO LAUNDROMAT","Address":"2669 W Pico Blvd","City":"Los Angeles","State":"CA","Zip":"90006"},{"Location":"PIZZA HUT 26143","Address":"1555 S Western Ave","City":"Los Angeles","State":"CA","Zip":"90006"},{"Location":"PULGARCITO SPORT BAR","Address":"1311 S Vermont Ave","City":"Los Angeles","State":"CA","Zip":"90006"},{"Location":"RAUL GRILL","Address":"1011 S Alvarado St","City":"Los Angeles","State":"CA","Zip":"90006"},{"Location":"RESTAURANTE EL VENADO","Address":"1007 S Alvarado St","City":"Los Angeles","State":"CA","Zip":"90006"},{"Location":"ROTEX WESTERN","Address":"921 S Western Ave","City":"Los Angeles","State":"CA","Zip":"90006"},{"Location":"SAARITGOL","Address":"1144 S Western Ave","City":"Los Angeles","State":"CA","Zip":"90006"},{"Location":"SAMKWANG CONSTRUCTION","Address":"1240 S Normandie Ave","City":"Los Angeles","State":"CA","Zip":"90006"},{"Location":"SAN SALVADOR","Address":"1828 S Vermont Ave","City":"Los Angeles","State":"CA","Zip":"90006"},{"Location":"SARAI BEAUTY SALON","Address":"2331 W 11th St","City":"Los Angeles","State":"CA","Zip":"90006"},{"Location":"SECRET GARDEN","Address":"1925 W Olympic Blvd","City":"Los Angeles","State":"CA","Zip":"90006"},{"Location":"SHINDONGWON MEDICAL CLINIC","Address":"3030 W Olympic Blvd 206","City":"Los Angeles","State":"CA","Zip":"90006"},{"Location":"STAPLES CENTER INN","Address":"946 S Bonnie Brae St","City":"Los Angeles","State":"CA","Zip":"90006"},{"Location":"SUNGSEE INC%2FHANKOOK SAUNA","Address":"3121 W Olympic Blvd","City":"Los Angeles","State":"CA","Zip":"90006"},{"Location":"TEXIS RESTAURANT","Address":"3087 W Pico Blvd 4","City":"Los Angeles","State":"CA","Zip":"90006"},{"Location":"TEXIS RESTAURANT","Address":"2813 W Pico Blvd","City":"Los Angeles","State":"CA","Zip":"90006"},{"Location":"THE SALVADORIAN VILLAGE","Address":"2046 W Pico Blvd","City":"Los Angeles","State":"CA","Zip":"90006"},{"Location":"THIS IS JUST A TEST 2 E","Address":"1200 Venice Blvd","City":"Los Angeles","State":"CA","Zip":"90006"},{"Location":"TOP IMPLANT CENTER","Address":"2707 W Olympic Blvd","City":"Los Angeles","State":"CA","Zip":"90006"},{"Location":"VINU","Address":"966 S Vermont Ave","City":"Los Angeles","State":"CA","Zip":"90006"},{"Location":"WILSHIRE STATE BANK","Address":"2140 W Olympic Blvd","City":"Los Angeles","State":"CA","Zip":"90006"},{"Location":"YONG CHUN CHOE DDS","Address":"2675 W Olympic Blvd 300","City":"Los Angeles","State":"CA","Zip":"90006"},{"Location":"YU CHUN RESTAURANT","Address":"3185 W Olympic Blvd","City":"Los Angeles","State":"CA","Zip":"90006"},{"Location":"ALIANZA LATINA","Address":"1436 S Vermont Ave","City":"Los Angeles","State":"CA","Zip":"90006"},{"Location":"BBCN BANK","Address":"2222 W Olympic Blvd","City":"Los Angeles","State":"CA","Zip":"90006"},{"Location":"BIGAN CORP","Address":"1001 S Vermont Ave 103","City":"Los Angeles","State":"CA","Zip":"90006"},{"Location":"BJS COMPUTERS","Address":"1819 W Pico Blvd","City":"Los Angeles","State":"CA","Zip":"90006"},{"Location":"C AND J HEALTH","Address":"2717 W Olympic Blvd 103","City":"Los Angeles","State":"CA","Zip":"90006"},{"Location":"CAFE SKAI","Address":"1159 S Vermont Ave","City":"Los Angeles","State":"CA","Zip":"90006"},{"Location":"CHO MAN WON","Address":"2881 W Olympic Blvd","City":"Los Angeles","State":"CA","Zip":"90006"},{"Location":"CONCHITAS RESTAURANT INC","Address":"2580 W Pico Blvd","City":"Los Angeles","State":"CA","Zip":"90006"},{"Location":"DAE BOK","Address":"2010 James M Wood Blvd","City":"Los Angeles","State":"CA","Zip":"90006"},{"Location":"DENYS BARBER SHOP","Address":"1308 S Vermont Ave","City":"Los Angeles","State":"CA","Zip":"90006"},{"Location":"DON DAE GAM","Address":"1145 S Western Ave","City":"Los Angeles","State":"CA","Zip":"90006"},{"Location":"DR CHUNG'S DDS","Address":"1144 S Western Ave 210","City":"Los Angeles","State":"CA","Zip":"90006"},{"Location":"EL ASADOR LLC","Address":"1215 Venice Blvd","City":"Los Angeles","State":"CA","Zip":"90006"},{"Location":"EL BARON","Address":"2757 W Pico Blvd","City":"Los Angeles","State":"CA","Zip":"90006"},{"Location":"EL CHOLO RESTAURANT","Address":"1121 S Western Ave","City":"Los Angeles","State":"CA","Zip":"90006"},{"Location":"EL COLMAO","Address":"2328 W Pico Blvd","City":"Los Angeles","State":"CA","Zip":"90006"},{"Location":"EL FAROLITO","Address":"2737 W Pico Blvd","City":"Los Angeles","State":"CA","Zip":"90006"},{"Location":"EL MUNDO TRAVEL AND TOURS","Address":"1547 Venice Blvd B","City":"Los Angeles","State":"CA","Zip":"90006"},{"Location":"EL NAZARENO RESTAURANT","Address":"2411 W Olympic Blvd 5","City":"Los Angeles","State":"CA","Zip":"90006"},{"Location":"EL NUEVO MIRADOR","Address":"2705 W Pico Blvd","City":"Los Angeles","State":"CA","Zip":"90006"},{"Location":"EMERALD TERRACE CONV HOSPITAL","Address":"1154 S Alvarado St","City":"Los Angeles","State":"CA","Zip":"90006"},{"Location":"FIRESTATION THIRTEEN","Address":"2401 W Pico Blvd","City":"Los Angeles","State":"CA","Zip":"90006"},{"Location":"FOUR STAR BARBERS","Address":"1249 S Catalina St","City":"Los Angeles","State":"CA","Zip":"90006"},{"Location":"GALLARIA CAFE","Address":"3250 W Olympic Blvd 352","City":"Los Angeles","State":"CA","Zip":"90006"},{"Location":"GLEN-DONALD APARTMENTS","Address":"2121 James M Wood Blvd Basm","City":"Los Angeles","State":"CA","Zip":"90006"},{"Location":"GOLD CANVAZ INC","Address":"1420 S Vermont Ave","City":"Los Angeles","State":"CA","Zip":"90006"},{"Location":"GREEN HEALTH RESEARCH CT","Address":"2846 W Pico Blvd","City":"Los Angeles","State":"CA","Zip":"90006"},{"Location":"HODORI RESTAURANT","Address":"1001 S Vermont Ave 101","City":"Los Angeles","State":"CA","Zip":"90006"},{"Location":"HONG GALBI RESTAURANT","Address":"3132 W Olympic Blvd","City":"Los Angeles","State":"CA","Zip":"90006"},{"Location":"HOON YEE INC","Address":"2800 W Olympic Blvd F","City":"Los Angeles","State":"CA","Zip":"90006"},{"Location":"INCOME TAX SPECIALIST","Address":"2690 W Pico Blvd","City":"Los Angeles","State":"CA","Zip":"90006"},{"Location":"J BBQ","Address":"901 S Vermont Ave","City":"Los Angeles","State":"CA","Zip":"90006"},{"Location":"J.M S 3","Address":"2228 W 11th St","City":"Los Angeles","State":"CA","Zip":"90006"},{"Location":"JIN HEUNG GHAK","Address":"3250 W Olympic Blvd 317","City":"Los Angeles","State":"CA","Zip":"90006"},{"Location":"JJ LEE INC","Address":"2716 W Olympic Blvd 101","City":"Los Angeles","State":"CA","Zip":"90006"},{"Location":"KLG CENTER","Address":"2938 W Pico Blvd","City":"Los Angeles","State":"CA","Zip":"90006"},{"Location":"KLG SPA","Address":"932 S Vermont Ave","City":"Los Angeles","State":"CA","Zip":"90006"},{"Location":"KOREAN BBQ INC","Address":"2897 W Olympic Blvd","City":"Los Angeles","State":"CA","Zip":"90006"},{"Location":"LA   LAUNDRY MAT","Address":"1451 Venice Blvd","City":"Los Angeles","State":"CA","Zip":"90006"},{"Location":"LA 27","Address":"1830      W Pico Blvd","City":"Los Angeles","State":"CA","Zip":"90006"},{"Location":"LABOR UNION","Address":"920 S Alvarado St","City":"Los Angeles","State":"CA","Zip":"90006"},{"Location":"LABREA CHICKEN","Address":"1570 S Western Ave 106","City":"Los Angeles","State":"CA","Zip":"90006"},{"Location":"LAS SIETE REGIONES","Address":"2648 W Pico Blvd","City":"Los Angeles","State":"CA","Zip":"90006"},{"Location":"LHS FM","Address":"1508 S Berendo St","City":"Los Angeles","State":"CA","Zip":"90006"},{"Location":"LHS JESUIT COMMUNITY","Address":"1901 Venice Blvd","City":"Los Angeles","State":"CA","Zip":"90006"},{"Location":"LINA SALON","Address":"1124 S Oxford Ave","City":"Los Angeles","State":"CA","Zip":"90006"},{"Location":"LOYOLA HIGH SCHOOL #2","Address":"1901 Venice Blvd","City":"Los Angeles","State":"CA","Zip":"90006"},{"Location":"M AND S OIL CORP","Address":"1303 S Western Ave","City":"Los Angeles","State":"CA","Zip":"90006"},{"Location":"MAX LIFE USA","Address":"3224 W Olympic Blvd 207","City":"Los Angeles","State":"CA","Zip":"90006"},{"Location":"MAYAS MINI MARKET","Address":"1563 Venice Blvd","City":"Los Angeles","State":"CA","Zip":"90006"},{"Location":"MAYAZ TECH","Address":"955 S Alvarado St","City":"Los Angeles","State":"CA","Zip":"90006"},{"Location":"MIQUERIDO","Address":"2500 W Pico Blvd","City":"Los Angeles","State":"CA","Zip":"90006"},{"Location":"MISS KOREA","Address":"1101 S Vermont Ave","City":"Los Angeles","State":"CA","Zip":"90006"},{"Location":"MOOBONGRI","Address":"2949 W Olympic Blvd","City":"Los Angeles","State":"CA","Zip":"90006"},{"Location":"NAIL STORY","Address":"2917 W Olympic Blvd","City":"Los Angeles","State":"CA","Zip":"90006"},{"Location":"NEIGHBORS LOCAL 300","Address":"2005 W Pico Blvd","City":"Los Angeles","State":"CA","Zip":"90006"},{"Location":"NEW IMAGINE SALON","Address":"2805 W Pico Blvd","City":"Los Angeles","State":"CA","Zip":"90006"},{"Location":"NEW LINE CUTS","Address":"1570 S Western Ave 210","City":"Los Angeles","State":"CA","Zip":"90006"},{"Location":"NUEVO SANTANECO","Address":"3068 W Pico Blvd","City":"Los Angeles","State":"CA","Zip":"90006"},{"Location":"NUNOS MARKET","Address":"1605 S Hoover St","City":"Los Angeles","State":"CA","Zip":"90006"},{"Location":"OBBA BEAUTY SALON","Address":"1570 S Western Ave 108","City":"Los Angeles","State":"CA","Zip":"90006"},{"Location":"OH DE SAN INC","Address":"2889 W Olympic Blvd","City":"Los Angeles","State":"CA","Zip":"90006"},{"Location":"ORIENTAL","Address":"2528 W Olympic Blvd 205","City":"Los Angeles","State":"CA","Zip":"90006"},{"Location":"OXFORD DENTAL","Address":"3224 W Olympic Blvd 201","City":"Los Angeles","State":"CA","Zip":"90006"},{"Location":"P ESPORT","Address":"1815 S Vermont Ave","City":"Los Angeles","State":"CA","Zip":"90006"},{"Location":"PALETERIA BETTY","Address":"1834 James M Wood Blvd","City":"Los Angeles","State":"CA","Zip":"90006"},{"Location":"PANERIA GUERRERO","Address":"2411 W Olympic Blvd 1","City":"Los Angeles","State":"CA","Zip":"90006"},{"Location":"PARK BBQ","Address":"955 S Vermont Ave G","City":"Los Angeles","State":"CA","Zip":"90006"},{"Location":"PAUL H KIM MD","Address":"2727 W Olympic Blvd 307","City":"Los Angeles","State":"CA","Zip":"90006"},{"Location":"PEREIRA AUTO REPAIR","Address":"1835 S Bonnie Brae St","City":"Los Angeles","State":"CA","Zip":"90006"},{"Location":"PICO LAUNDROMAT","Address":"2669 W Pico Blvd","City":"Los Angeles","State":"CA","Zip":"90006"},{"Location":"PIZZA HUT 26143","Address":"1555 S Western Ave","City":"Los Angeles","State":"CA","Zip":"90006"},{"Location":"PULGARCITO SPORT BAR","Address":"1311 S Vermont Ave","City":"Los Angeles","State":"CA","Zip":"90006"},{"Location":"RAUL GRILL","Address":"1011 S Alvarado St","City":"Los Angeles","State":"CA","Zip":"90006"},{"Location":"RESTAURANTE EL VENADO","Address":"1007 S Alvarado St","City":"Los Angeles","State":"CA","Zip":"90006"},{"Location":"ROTEX WESTERN","Address":"921 S Western Ave","City":"Los Angeles","State":"CA","Zip":"90006"},{"Location":"SAARITGOL","Address":"1144 S Western Ave","City":"Los Angeles","State":"CA","Zip":"90006"},{"Location":"SAMKWANG CONSTRUCTION","Address":"1240 S Normandie Ave","City":"Los Angeles","State":"CA","Zip":"90006"},{"Location":"SAN SALVADOR","Address":"1828 S Vermont Ave","City":"Los Angeles","State":"CA","Zip":"90006"},{"Location":"SARAI BEAUTY SALON","Address":"2331 W 11th St","City":"Los Angeles","State":"CA","Zip":"90006"},{"Location":"SECRET GARDEN","Address":"1925 W Olympic Blvd","City":"Los Angeles","State":"CA","Zip":"90006"},{"Location":"SHINDONGWON MEDICAL CLINIC","Address":"3030 W Olympic Blvd 206","City":"Los Angeles","State":"CA","Zip":"90006"},{"Location":"STAPLES CENTER INN","Address":"946 S Bonnie Brae St","City":"Los Angeles","State":"CA","Zip":"90006"},{"Location":"SUNGSEE INC%2FHANKOOK SAUNA","Address":"3121 W Olympic Blvd","City":"Los Angeles","State":"CA","Zip":"90006"},{"Location":"TEXIS RESTAURANT","Address":"3087 W Pico Blvd 4","City":"Los Angeles","State":"CA","Zip":"90006"},{"Location":"TEXIS RESTAURANT","Address":"2813 W Pico Blvd","City":"Los Angeles","State":"CA","Zip":"90006"},{"Location":"THE SALVADORIAN VILLAGE","Address":"2046 W Pico Blvd","City":"Los Angeles","State":"CA","Zip":"90006"},{"Location":"THIS IS JUST A TEST 2 E","Address":"1200 Venice Blvd","City":"Los Angeles","State":"CA","Zip":"90006"},{"Location":"TOP IMPLANT CENTER","Address":"2707 W Olympic Blvd","City":"Los Angeles","State":"CA","Zip":"90006"},{"Location":"VERMONT SOONDEA","Address":"923 S Vermont Ave 101","City":"Los Angeles","State":"CA","Zip":"90006"},{"Location":"VINU","Address":"966 S Vermont Ave","City":"Los Angeles","State":"CA","Zip":"90006"},{"Location":"WILSHIRE STATE BANK","Address":"2140 W Olympic Blvd","City":"Los Angeles","State":"CA","Zip":"90006"},{"Location":"YONG CHUN CHOE DDS","Address":"2675 W Olympic Blvd 300","City":"Los Angeles","State":"CA","Zip":"90006"},{"Location":"YU CHUN RESTAURANT","Address":"3185 W Olympic Blvd","City":"Los Angeles","State":"CA","Zip":"90006"}]