[{"Location":"ARMY-HOPE HARBOR","Address":"3107 S Grand Ave","City":"Dockweiler","State":"CA","Zip":"90007"},{"Location":"TRIPLE SEVEN SIGN","Address":"1842 W Washington Blvd","City":"Dockweiler","State":"CA","Zip":"90007"},{"Location":"37TH APARTMENTS LLC","Address":"1287 W 37th Pl","City":"Los Angeles","State":"CA","Zip":"90007"},{"Location":"37TH PL. APARTMENTS LLC","Address":"1216 W 37th Pl","City":"Los Angeles","State":"CA","Zip":"90007"},{"Location":"37TH PLACE APART. LLC","Address":"1222 W 37th Pl","City":"Los Angeles","State":"CA","Zip":"90007"},{"Location":"37TH PLACE APARTMENTS","Address":"1229 W 37th Pl","City":"Los Angeles","State":"CA","Zip":"90007"},{"Location":"37TH PLACE LLC","Address":"1234 W 37th Pl","City":"Los Angeles","State":"CA","Zip":"90007"},{"Location":"AAA TRAFFIC MANAGEMENT","Address":"3208 Royal St","City":"Los Angeles","State":"CA","Zip":"90007"},{"Location":"ABC SEWING MACHINE INC.","Address":"2100 S Main St","City":"Los Angeles","State":"CA","Zip":"90007"},{"Location":"ADAMS LAUDROMAT","Address":"1670 W Adams Blvd 1674","City":"Los Angeles","State":"CA","Zip":"90007"},{"Location":"AL MALAIKAH SHRINERS","Address":"665 W Jefferson Blvd","City":"Los Angeles","State":"CA","Zip":"90007"},{"Location":"ALPHA EPSILON PI USC","Address":"904 W 28th St","City":"Los Angeles","State":"CA","Zip":"90007"},{"Location":"ALPHA TAU OMEGA FRATERNITY #1","Address":"707 W 28th St","City":"Los Angeles","State":"CA","Zip":"90007"},{"Location":"AMITY FOUNDATION","Address":"3745 S Grand Ave","City":"Los Angeles","State":"CA","Zip":"90007"},{"Location":"ARIRANG HOUSING INC","Address":"3460 S Broadway","City":"Los Angeles","State":"CA","Zip":"90007"},{"Location":"AUTOMOBILE CLUB OF SOUTHERN CA","Address":"2601 S Figueroa St","City":"Los Angeles","State":"CA","Zip":"90007"},{"Location":"AZTECA AUTO REPAIR INC","Address":"3707 S Main St","City":"Los Angeles","State":"CA","Zip":"90007"},{"Location":"BACRO LA","Address":"2308 S Union Ave","City":"Los Angeles","State":"CA","Zip":"90007"},{"Location":"BEUDACKIS HOTDOG","Address":"3782 South Sigueroa Street","City":"Los Angeles","State":"CA","Zip":"90007"},{"Location":"BRANDY'S BAR","Address":"3540 S Figueroa St","City":"Los Angeles","State":"CA","Zip":"90007"},{"Location":"BRENDAS BEAUTY SALON","Address":"241 W Adams Blvd 12","City":"Los Angeles","State":"CA","Zip":"90007"},{"Location":"CARLS JR THREE TWENT ONE","Address":"2912 S Figueroa St","City":"Los Angeles","State":"CA","Zip":"90007"},{"Location":"CELAYA BAKERY","Address":"2704 1%2F2 S Vermont Ave","City":"Los Angeles","State":"CA","Zip":"90007"},{"Location":"CLASSICS BARBER SHOP","Address":"2317 S Hoover St","City":"Los Angeles","State":"CA","Zip":"90007"},{"Location":"CONSENSUS PLANNING GROUP","Address":"1933 S Broadway","City":"Los Angeles","State":"CA","Zip":"90007"},{"Location":"COUNTER BURGER","Address":"3584 S Figueroa St","City":"Los Angeles","State":"CA","Zip":"90007"},{"Location":"DAVITA #4056 LA DOWNTOWN","Address":"2021 S Flower St","City":"Los Angeles","State":"CA","Zip":"90007"},{"Location":"DEVILI BEAUTY SALON","Address":"2726 S Vermont Ave B","City":"Los Angeles","State":"CA","Zip":"90007"},{"Location":"DIAMOND SUPPLY CO","Address":"1710 Cordova St","City":"Los Angeles","State":"CA","Zip":"90007"},{"Location":"DIRT DOG","Address":"2528 S Figueroa St","City":"Los Angeles","State":"CA","Zip":"90007"},{"Location":"DOPE VAPE INC","Address":"3018 S Figueroa St","City":"Los Angeles","State":"CA","Zip":"90007"},{"Location":"EL RANCHON RESTAURANTE","Address":"3564 S Normandie Ave","City":"Los Angeles","State":"CA","Zip":"90007"},{"Location":"EL RINCON","Address":"1668 W Adams Blvd","City":"Los Angeles","State":"CA","Zip":"90007"},{"Location":"EL RINCON HONDURENO","Address":"1654 W Adams Blvd","City":"Los Angeles","State":"CA","Zip":"90007"},{"Location":"EL TIGRE TIRES","Address":"2245 S Vermont Ave","City":"Los Angeles","State":"CA","Zip":"90007"},{"Location":"ENVISION","Address":"1933 S Broadway 1250","City":"Los Angeles","State":"CA","Zip":"90007"},{"Location":"FEDEX","Address":"3333 S Grand Ave","City":"Los Angeles","State":"CA","Zip":"90007"},{"Location":"FLOR BLANCA RESTAURANT","Address":"1279 W. Jefferson Blvd","City":"Los Angeles","State":"CA","Zip":"90007"},{"Location":"FLOWER SMOG TEST","Address":"2811 S Flower St","City":"Los Angeles","State":"CA","Zip":"90007"},{"Location":"GAMMA ETA FOUNDATION","Address":"700 W 28th St","City":"Los Angeles","State":"CA","Zip":"90007"},{"Location":"HOPE STREET BAKERY","Address":"2280 S Figueroa St","City":"Los Angeles","State":"CA","Zip":"90007"},{"Location":"JACKS N JOE","Address":"2498 S Figueroa St","City":"Los Angeles","State":"CA","Zip":"90007"},{"Location":"JJ CORP","Address":"1611 Cordova St G","City":"Los Angeles","State":"CA","Zip":"90007"},{"Location":"KAPPA SIGMA FRATERNITY","Address":"928 W 28th St","City":"Los Angeles","State":"CA","Zip":"90007"},{"Location":"KIA OF DOWNTOWN","Address":"1945 S Flower St","City":"Los Angeles","State":"CA","Zip":"90007"},{"Location":"KIA OF DOWNTOWN","Address":"1945 S Figueroa St","City":"Los Angeles","State":"CA","Zip":"90007"},{"Location":"KLOVER CANDLES","Address":"2404 S Grand Ave S","City":"Los Angeles","State":"CA","Zip":"90007"},{"Location":"L A MART","Address":"1933 S Broadway 409","City":"Los Angeles","State":"CA","Zip":"90007"},{"Location":"LA BARCA RESTAURANT","Address":"2308 S Union Ave","City":"Los Angeles","State":"CA","Zip":"90007"},{"Location":"LA TAQUIZA","Address":"3009 S Figueroa St","City":"Los Angeles","State":"CA","Zip":"90007"},{"Location":"LAMBDA CHI ALPHA FRA","Address":"720 W 28th St","City":"Los Angeles","State":"CA","Zip":"90007"},{"Location":"LEBA","Address":"2800 S Vermont Ave","City":"Los Angeles","State":"CA","Zip":"90007"},{"Location":"MARIAS 2","Address":"2215 S Vermont Ave 104","City":"Los Angeles","State":"CA","Zip":"90007"},{"Location":"MCS BARBERSHOP","Address":"2932 S Vermont Ave","City":"Los Angeles","State":"CA","Zip":"90007"},{"Location":"MENDELSON AND ASSOCIATES","Address":"2615 S Hill St","City":"Los Angeles","State":"CA","Zip":"90007"},{"Location":"MI QUERIEO PULGARCITO","Address":"1608 W Washington Blvd","City":"Los Angeles","State":"CA","Zip":"90007"},{"Location":"MICHELS FURNITURE","Address":"1890 W Washington Blvd","City":"Los Angeles","State":"CA","Zip":"90007"},{"Location":"MIDWAY CAR RENTAL","Address":"2001 S Figueroa St","City":"Los Angeles","State":"CA","Zip":"90007"},{"Location":"MOTOR VILLAGE LA","Address":"2025 S Figueroa St","City":"Los Angeles","State":"CA","Zip":"90007"},{"Location":"MOUNT SAINT MARY'S COLLEGE","Address":"10 Chester Pl","City":"Los Angeles","State":"CA","Zip":"90007"},{"Location":"N&D","Address":"2802 S Main St","City":"Los Angeles","State":"CA","Zip":"90007"},{"Location":"NEW ENGLAND RECYCLING","Address":"1911 New England St","City":"Los Angeles","State":"CA","Zip":"90007"},{"Location":"NINE O ONE","Address":"2902 S Figueroa St","City":"Los Angeles","State":"CA","Zip":"90007"},{"Location":"PHI KAPPA PSI","Address":"642 W 28th St","City":"Los Angeles","State":"CA","Zip":"90007"},{"Location":"PLANNED PARENTHOOD LA","Address":"400 W 30th St","City":"Los Angeles","State":"CA","Zip":"90007"},{"Location":"POBLANOS","Address":"1433 W Jefferson Blvd","City":"Los Angeles","State":"CA","Zip":"90007"},{"Location":"PRO CUBE INC","Address":"2120 S Main St","City":"Los Angeles","State":"CA","Zip":"90007"},{"Location":"ROHAN GUPTA","Address":"1204 W 24th St","City":"Los Angeles","State":"CA","Zip":"90007"},{"Location":"SAE AT USC","Address":"833 W 28th St","City":"Los Angeles","State":"CA","Zip":"90007"},{"Location":"SHELTONS BARBERSHOP","Address":"2604 S Vermont Ave 101a","City":"Los Angeles","State":"CA","Zip":"90007"},{"Location":"SMOKEY JOES BBQ","Address":"1436 W Jefferson Blvd","City":"Los Angeles","State":"CA","Zip":"90007"},{"Location":"SOY ROLL & KATSU","Address":"3335 S Figueroa St L","City":"Los Angeles","State":"CA","Zip":"90007"},{"Location":"STOCKTON","Address":"2405 S Vermont Ave","City":"Los Angeles","State":"CA","Zip":"90007"},{"Location":"STORQUEST","Address":"3707 S Hill St","City":"Los Angeles","State":"CA","Zip":"90007"},{"Location":"SUBWAY #27103","Address":"1625 W Washington Blvd","City":"Los Angeles","State":"CA","Zip":"90007"},{"Location":"SUBWAY 15915","Address":"3335 S Figueroa St Ugy7","City":"Los Angeles","State":"CA","Zip":"90007"},{"Location":"THE FLAME BROILER","Address":"2526 S Figueroa St","City":"Los Angeles","State":"CA","Zip":"90007"},{"Location":"THE LORENZO","Address":"325 W Adams Blvd","City":"Los Angeles","State":"CA","Zip":"90007"},{"Location":"THE LORENZO - HD","Address":"325 W Adams Blvd","City":"Los Angeles","State":"CA","Zip":"90007"},{"Location":"THE SHOP","Address":"150 W 25th St","City":"Los Angeles","State":"CA","Zip":"90007"},{"Location":"TI KAPPA PHI DELTA RHO","Address":"742 W 28th St","City":"Los Angeles","State":"CA","Zip":"90007"},{"Location":"TIRE KINGDOM M-1869","Address":"2424 S Figueroa St","City":"Los Angeles","State":"CA","Zip":"90007"},{"Location":"UNIVERSITY OF SOUTHERN CALIFOR","Address":"3450      S Vermont","City":"Los Angeles","State":"CA","Zip":"90007"},{"Location":"UPS STORE","Address":"2202 S Figueroa St","City":"Los Angeles","State":"CA","Zip":"90007"},{"Location":"URBAN MARKET CAFE USC","Address":"3434 S Grand Ave","City":"Los Angeles","State":"CA","Zip":"90007"},{"Location":"USC BOOKSTORE DC","Address":"3401 S Grand Ave","City":"Los Angeles","State":"CA","Zip":"90007"},{"Location":"USC CREDIT UNION","Address":"3720 S Flower St","City":"Los Angeles","State":"CA","Zip":"90007"},{"Location":"USC HILLEL FOUNDATION","Address":"3300 S Hoover St","City":"Los Angeles","State":"CA","Zip":"90007"},{"Location":"USC TRANSPORTATION","Address":"335        West 35th Stre","City":"Los Angeles","State":"CA","Zip":"90007"},{"Location":"USC- JMC OFFICES","Address":"940       W 35th St","City":"Los Angeles","State":"CA","Zip":"90007"},{"Location":"USC-JMC TEAM","Address":"940       W 35th St","City":"Los Angeles","State":"CA","Zip":"90007"},{"Location":"VALENTINA GRILL","Address":"2719 S Vermont Ave","City":"Los Angeles","State":"CA","Zip":"90007"},{"Location":"VERMONT SPORTS CLUB","Address":"2707 S Vermont Ave","City":"Los Angeles","State":"CA","Zip":"90007"},{"Location":"VIZTANGO CAFE","Address":"3017 S Figueroa St","City":"Los Angeles","State":"CA","Zip":"90007"},{"Location":"VW AUDI PORSHA DOWNTOWN LA","Address":"1900 S Figueroa St","City":"Los Angeles","State":"CA","Zip":"90007"},{"Location":"WARD AME CHURCH","Address":"1177 W 25th","City":"Los Angeles","State":"CA","Zip":"90007"},{"Location":"WHICH WICH","Address":"3584 S Figueroa St 201","City":"Los Angeles","State":"CA","Zip":"90007"}]