[{"Location":"","Address":"738 E 84th St 3","City":"Los Angeles","State":"CA","Zip":"90001"},{"Location":"24 COIN LAUNDRY ONE","Address":"7801 S Central Ave","City":"Los Angeles","State":"CA","Zip":"90001"},{"Location":"A-NOOHI","Address":"6820 Wilson Ave","City":"Los Angeles","State":"CA","Zip":"90001"},{"Location":"ACAJUTLA","Address":"608 E 59th St","City":"Los Angeles","State":"CA","Zip":"90001"},{"Location":"AMERICA CENTRAL AUTO SAL","Address":"7026 S Central Ave","City":"Los Angeles","State":"CA","Zip":"90001"},{"Location":"AMOR STORE","Address":"6375 S Alameda St","City":"Los Angeles","State":"CA","Zip":"90001"},{"Location":"ARTUROS PRINTING","Address":"634 E Florence Ave","City":"Los Angeles","State":"CA","Zip":"90001"},{"Location":"BOTANICA AMAZONAS","Address":"1803 E Florence Ave","City":"Los Angeles","State":"CA","Zip":"90001"},{"Location":"CAROLINS KITCHEN","Address":"853 E Manchester Ave","City":"Los Angeles","State":"CA","Zip":"90001"},{"Location":"CARPETS","Address":"6602 Compton Ave","City":"Los Angeles","State":"CA","Zip":"90001"},{"Location":"COCOTEROS RESTAURANT%2C INC.","Address":"6606 S Central Ave","City":"Los Angeles","State":"CA","Zip":"90001"},{"Location":"CPACK SEAFOOD","Address":"742 E 61st St","City":"Los Angeles","State":"CA","Zip":"90001"},{"Location":"DIGITAL UNLIMITED","Address":"2040 E Florence Ave","City":"Los Angeles","State":"CA","Zip":"90001"},{"Location":"DYNA-MITE MOTEL","Address":"800 E Manchester Ave","City":"Los Angeles","State":"CA","Zip":"90001"},{"Location":"EL CAMINO REAL RESTERAUNT","Address":"6400 S Central Ave","City":"Los Angeles","State":"CA","Zip":"90001"},{"Location":"EL COLIMA BAR","Address":"1748 E Florence Ave","City":"Los Angeles","State":"CA","Zip":"90001"},{"Location":"EL RINCONCITO BAR","Address":"1633 E Florence Ave","City":"Los Angeles","State":"CA","Zip":"90001"},{"Location":"ELIAS PET SHOP","Address":"1808 E Florence Ave","City":"Los Angeles","State":"CA","Zip":"90001"},{"Location":"EMYS BURGERS","Address":"7315 Compton Ave","City":"Los Angeles","State":"CA","Zip":"90001"},{"Location":"EVELYNS BEAUTY SALOON","Address":"7657 Compton Ave","City":"Los Angeles","State":"CA","Zip":"90001"},{"Location":"FANTASTIC NAILS","Address":"1911 E Gage Ave Suite","City":"Los Angeles","State":"CA","Zip":"90001"},{"Location":"FAST WHEELS & TIRES","Address":"1201 Firestone Blvd","City":"Los Angeles","State":"CA","Zip":"90001"},{"Location":"FIRESTONE CARWASH","Address":"1950 Firestone Blvd","City":"Los Angeles","State":"CA","Zip":"90001"},{"Location":"FIRESTONE MINI SNACK BAR","Address":"1300 Firestone Blvd","City":"Los Angeles","State":"CA","Zip":"90001"},{"Location":"FLORENCE COMPTON DENTAL","Address":"7110 Compton Ave","City":"Los Angeles","State":"CA","Zip":"90001"},{"Location":"FMC METALS","Address":"800 E 62nd St","City":"Los Angeles","State":"CA","Zip":"90001"},{"Location":"GENERAL WELDING","Address":"1920 Randolph St","City":"Los Angeles","State":"CA","Zip":"90001"},{"Location":"JOHNNY BARBERSHOP","Address":"1872 Nadeau St","City":"Los Angeles","State":"CA","Zip":"90001"},{"Location":"JOSE DURAM LLC","Address":"1165 E Florence Ave","City":"Los Angeles","State":"CA","Zip":"90001"},{"Location":"JQ BARBERSHOP","Address":"1240 E Florence Ave","City":"Los Angeles","State":"CA","Zip":"90001"},{"Location":"L A NAILS AND SPA","Address":"1407 E Gage Ave","City":"Los Angeles","State":"CA","Zip":"90001"},{"Location":"LA BEAUTY SUPPLY","Address":"1437 E Gage Ave","City":"Los Angeles","State":"CA","Zip":"90001"},{"Location":"LA PUERTA RESTURANT","Address":"1720 E Florence Ave","City":"Los Angeles","State":"CA","Zip":"90001"},{"Location":"LABEL TEX MILLS","Address":"6100 Wilmington Ave","City":"Los Angeles","State":"CA","Zip":"90001"},{"Location":"LATINA MARKET","Address":"1503 E 66th St","City":"Los Angeles","State":"CA","Zip":"90001"},{"Location":"LOS COCOS RESTAURANT","Address":"654 E Gage Ave","City":"Los Angeles","State":"CA","Zip":"90001"},{"Location":"M E M CUTTING","Address":"655 E Gage Ave","City":"Los Angeles","State":"CA","Zip":"90001"},{"Location":"MC WOODWARD","Address":"747 E 60th St","City":"Los Angeles","State":"CA","Zip":"90001"},{"Location":"MI LINDO","Address":"8000 S Central Ave","City":"Los Angeles","State":"CA","Zip":"90001"},{"Location":"MUNOZ TIRES","Address":"1624 Firestone Blvd","City":"Los Angeles","State":"CA","Zip":"90001"},{"Location":"NEIGHBORHOOD MEDICAL CLINIC","Address":"723 E Manchester Ave","City":"Los Angeles","State":"CA","Zip":"90001"},{"Location":"NEW WORLD BUFFET","Address":"1419 E Gage Ave","City":"Los Angeles","State":"CA","Zip":"90001"},{"Location":"PINK HORSES LLC","Address":"1922 E 64th St","City":"Los Angeles","State":"CA","Zip":"90001"},{"Location":"PUPUSERIA LA FAVORITA","Address":"1132 Firestone Blvd","City":"Los Angeles","State":"CA","Zip":"90001"},{"Location":"QUEEN NAILS","Address":"608 E Manchester Ave 624","City":"Los Angeles","State":"CA","Zip":"90001"},{"Location":"RAMIREZ AUTO SALES INC","Address":"1226 Nadeau St","City":"Los Angeles","State":"CA","Zip":"90001"},{"Location":"RANCHINTO 1","Address":"6260 Wilmington Ave","City":"Los Angeles","State":"CA","Zip":"90001"},{"Location":"RESTAURANT CARNITAS BECE","Address":"8436 Compton Ave","City":"Los Angeles","State":"CA","Zip":"90001"},{"Location":"RIGOS TACOS #4","Address":"1816 Firestone Blvd","City":"Los Angeles","State":"CA","Zip":"90001"},{"Location":"SAMSONS AUTO SALVAGE","Address":"8103 S Alameda St","City":"Los Angeles","State":"CA","Zip":"90001"},{"Location":"SPORTS  BAR","Address":"5865 Compton Ave","City":"Los Angeles","State":"CA","Zip":"90001"},{"Location":"STAR SMOG","Address":"644 E Florence Ave","City":"Los Angeles","State":"CA","Zip":"90001"},{"Location":"SUPER LAUNDROMAT","Address":"6505 Compton Ave","City":"Los Angeles","State":"CA","Zip":"90001"},{"Location":"SUPERIOR COIN LAUNDRY","Address":"7106 Compton Ave","City":"Los Angeles","State":"CA","Zip":"90001"},{"Location":"TACO DE BIERRIA ESTILO MICH","Address":"6365 S Alameda St","City":"Los Angeles","State":"CA","Zip":"90001"},{"Location":"TAX LIDER CORP","Address":"1605 E Florence Ave","City":"Los Angeles","State":"CA","Zip":"90001"},{"Location":"TESSIE CLEVELAND CSC","Address":"8019 Compton Ave","City":"Los Angeles","State":"CA","Zip":"90001"},{"Location":"THE REAL DEAL WIRELESS","Address":"1787 Firestone Blvd","City":"Los Angeles","State":"CA","Zip":"90001"},{"Location":"VALLARTA TIRES","Address":"7219 S Alameda St D","City":"Los Angeles","State":"CA","Zip":"90001"},{"Location":"VANITY  BOX","Address":"8465 S Central Ave","City":"Los Angeles","State":"CA","Zip":"90001"},{"Location":"WESTERN COLLOID SC INC","Address":"654 E 60th St","City":"Los Angeles","State":"CA","Zip":"90001"},{"Location":"WINGSTOP","Address":"5857 S Central Ave 170","City":"Los Angeles","State":"CA","Zip":"90001"},{"Location":"ZACOALCO MEDICAL GROUP","Address":"7313 Compton Ave","City":"Los Angeles","State":"CA","Zip":"90001"}]