[{"Location":"(NSD1) NORMAN SILVERMAN D. INC","Address":"606 S Olive St N450","City":"Los Angeles","State":"CA","Zip":"90014"},{"Location":"A-LINE","Address":"527 W 7th St","City":"Los Angeles","State":"CA","Zip":"90014"},{"Location":"AMERICAN BUSINESS BANK","Address":"523 W 6th St","City":"Los Angeles","State":"CA","Zip":"90014"},{"Location":"APM","Address":"640 S Hill St 743","City":"Los Angeles","State":"CA","Zip":"90014"},{"Location":"ASSOCIATES PURCHASING","Address":"523 W 6th St 430","City":"Los Angeles","State":"CA","Zip":"90014"},{"Location":"B&Y GLOBAL SOURCING","Address":"527 W 7th St 1000","City":"Los Angeles","State":"CA","Zip":"90014"},{"Location":"BARREL DOWN","Address":"525 W 7th St","City":"Los Angeles","State":"CA","Zip":"90014"},{"Location":"BIDING UNLIMITED INC","Address":"639 S Broadway Fl8","City":"Los Angeles","State":"CA","Zip":"90014"},{"Location":"BOND SERVICES OF CA","Address":"523 W 6th St","City":"Los Angeles","State":"CA","Zip":"90014"},{"Location":"BROADWAY BAR","Address":"830 S Broadway","City":"Los Angeles","State":"CA","Zip":"90014"},{"Location":"BUCK DESIGN","Address":"515 W 7th St","City":"Los Angeles","State":"CA","Zip":"90014"},{"Location":"CAFE HILL","Address":"632 S Hill St","City":"Los Angeles","State":"CA","Zip":"90014"},{"Location":"CARL K GUMPERT INC","Address":"606 S Olive St 2400","City":"Los Angeles","State":"CA","Zip":"90014"},{"Location":"CECI HOTEL OPERATING COMPANY","Address":"640 S Main St","City":"Los Angeles","State":"CA","Zip":"90014"},{"Location":"CHARLES GARNIER","Address":"606 S Olive St 2150","City":"Los Angeles","State":"CA","Zip":"90014"},{"Location":"COLES","Address":"118 E 6th St","City":"Los Angeles","State":"CA","Zip":"90014"},{"Location":"CRANES","Address":"810 S Spring St B1","City":"Los Angeles","State":"CA","Zip":"90014"},{"Location":"CUMMING","Address":"523 W 6th St 1001","City":"Los Angeles","State":"CA","Zip":"90014"},{"Location":"DEPT. OF HOMELAND SECURI","Address":"606 S Olive St 1900","City":"Los Angeles","State":"CA","Zip":"90014"},{"Location":"DOREENS TROPICAL FRUIT","Address":"102 W 7th St","City":"Los Angeles","State":"CA","Zip":"90014"},{"Location":"DOWNTOWN PEKING TAVERN","Address":"806 S Spring St","City":"Los Angeles","State":"CA","Zip":"90014"},{"Location":"DR JOON Y LEE","Address":"104 W 7th St","City":"Los Angeles","State":"CA","Zip":"90014"},{"Location":"DUKE'S SPORTS BAR & GRILL","Address":"431 W 7th St","City":"Los Angeles","State":"CA","Zip":"90014"},{"Location":"EPOCH JEAN INC","Address":"120 E 8th St 907","City":"Los Angeles","State":"CA","Zip":"90014"},{"Location":"FIRST LEGAL DEPOSITIONS","Address":"523 W 6th St 219","City":"Los Angeles","State":"CA","Zip":"90014"},{"Location":"FIVE ZERO FOUR","Address":"840 S Spring St","City":"Los Angeles","State":"CA","Zip":"90014"},{"Location":"GARO'S DELI","Address":"639 S Broadway","City":"Los Angeles","State":"CA","Zip":"90014"},{"Location":"GAROS DELI","Address":"659 S Broadway Gl106","City":"Los Angeles","State":"CA","Zip":"90014"},{"Location":"GIBSON TRANSPORTATION CONSULTI","Address":"523 W 6th St 1234","City":"Los Angeles","State":"CA","Zip":"90014"},{"Location":"GIFTS.COM","Address":"523 W 6th St 534","City":"Los Angeles","State":"CA","Zip":"90014"},{"Location":"GOLD JEWELRY DESIGN","Address":"404 W 7th St 811","City":"Los Angeles","State":"CA","Zip":"90014"},{"Location":"GRADY G TAYLOR JEWELRY","Address":"631 S Olive St 700","City":"Los Angeles","State":"CA","Zip":"90014"},{"Location":"GUEROS COCINA MEXICANA INC","Address":"737 S Los Angeles St","City":"Los Angeles","State":"CA","Zip":"90014"},{"Location":"J AND J KING OF WIRELESS","Address":"617 S Broadway","City":"Los Angeles","State":"CA","Zip":"90014"},{"Location":"JJ'S SANDWICH SHOP","Address":"119 E 6th St","City":"Los Angeles","State":"CA","Zip":"90014"},{"Location":"JUAN PASTUAL LLC","Address":"818 Wall St","City":"Los Angeles","State":"CA","Zip":"90014"},{"Location":"JUANITAS","Address":"717 S Broadway","City":"Los Angeles","State":"CA","Zip":"90014"},{"Location":"KARKOUR FINE JEWELRY INC","Address":"628 S Hill St","City":"Los Angeles","State":"CA","Zip":"90014"},{"Location":"LA BREWING CO LLC","Address":"752 S Broadway","City":"Los Angeles","State":"CA","Zip":"90014"},{"Location":"LA CDI","Address":"606 S Olive St 620","City":"Los Angeles","State":"CA","Zip":"90014"},{"Location":"LA NUEVA CONCORD EXPRESS","Address":"717 S Main St","City":"Los Angeles","State":"CA","Zip":"90014"},{"Location":"LAW OFFICES OF LISA MAKI","Address":"523 W 6th St 450","City":"Los Angeles","State":"CA","Zip":"90014"},{"Location":"LOS PAISANOS AUTO BUSES","Address":"612 Wall St A","City":"Los Angeles","State":"CA","Zip":"90014"},{"Location":"LOS PAISANOS AUTO BUSES INC","Address":"612 Wall St","City":"Los Angeles","State":"CA","Zip":"90014"},{"Location":"LRN INVESTMENTS","Address":"808 S Olive St","City":"Los Angeles","State":"CA","Zip":"90014"},{"Location":"MARGARITAS","Address":"103 E 7th St","City":"Los Angeles","State":"CA","Zip":"90014"},{"Location":"MARISSAS BRIDAL","Address":"625 S Broadway","City":"Los Angeles","State":"CA","Zip":"90014"},{"Location":"MID LA","Address":"606 S Olive St 1000","City":"Los Angeles","State":"CA","Zip":"90014"},{"Location":"NANDINO","Address":"655 Maple Ave","City":"Los Angeles","State":"CA","Zip":"90014"},{"Location":"NARFRA SPORTS","Address":"126 W 7th St","City":"Los Angeles","State":"CA","Zip":"90014"},{"Location":"NORTH HIGHLAND","Address":"523 W 6th St 1000","City":"Los Angeles","State":"CA","Zip":"90014"},{"Location":"PEGASUS METALS LLC","Address":"640 S Hill St 643","City":"Los Angeles","State":"CA","Zip":"90014"},{"Location":"R&J SASSOON LLC","Address":"640 S Hill St 358","City":"Los Angeles","State":"CA","Zip":"90014"},{"Location":"RAINBOW APARTMENTS","Address":"643 S San Pedro St","City":"Los Angeles","State":"CA","Zip":"90014"},{"Location":"RESTAURANTE LA COSTEQUIT","Address":"805 S Broadway","City":"Los Angeles","State":"CA","Zip":"90014"},{"Location":"RHINESTONES","Address":"803 Maple Ave A","City":"Los Angeles","State":"CA","Zip":"90014"},{"Location":"RISING REALTY PARTNERS","Address":"523 W 6th St","City":"Los Angeles","State":"CA","Zip":"90014"},{"Location":"SAN PEDRO HOUSE","Address":"647 S San Pedro St","City":"Los Angeles","State":"CA","Zip":"90014"},{"Location":"SEVEN GRAND WHISKEY BAR","Address":"515 W 7th St 2","City":"Los Angeles","State":"CA","Zip":"90014"},{"Location":"SEVEN RESTAURANT BAR","Address":"555 W 7th St","City":"Los Angeles","State":"CA","Zip":"90014"},{"Location":"SIERA","Address":"650 S Hill St","City":"Los Angeles","State":"CA","Zip":"90014"},{"Location":"TC2-DOWNTOWN LA%2C LLC","Address":"802 S Spring St","City":"Los Angeles","State":"CA","Zip":"90014"},{"Location":"THE ABBY APARTMENTS","Address":"625 S San Pedro St","City":"Los Angeles","State":"CA","Zip":"90014"},{"Location":"THE ASSOCIATION","Address":"110 E 6th St","City":"Los Angeles","State":"CA","Zip":"90014"},{"Location":"THE BLACK SHEEP","Address":"126 E 6th St","City":"Los Angeles","State":"CA","Zip":"90014"},{"Location":"THE SANDWICH SHOP","Address":"531 W 6th St 1stfl","City":"Los Angeles","State":"CA","Zip":"90014"},{"Location":"THUNDERBIRD PRECIOUS METALS","Address":"640 S Hill St 860","City":"Los Angeles","State":"CA","Zip":"90014"},{"Location":"TUCK RESTAURANT","Address":"640 S Main St","City":"Los Angeles","State":"CA","Zip":"90014"},{"Location":"TULIP CAFE","Address":"628 St Vincent Ct","City":"Los Angeles","State":"CA","Zip":"90014"},{"Location":"UMAMI BURGER","Address":"852 S Broadway","City":"Los Angeles","State":"CA","Zip":"90014"},{"Location":"VAPE SUPPLY CO DTLA","Address":"129 E 6th St","City":"Los Angeles","State":"CA","Zip":"90014"},{"Location":"VOALA SAN JULIAN","Address":"628 San Julian St","City":"Los Angeles","State":"CA","Zip":"90014"}]