[{"Location":"ADDIS ETHIOPIAN RESTAURANT","Address":"1025 S Fairfax Ave","City":"Los Angeles","State":"CA","Zip":"90019"},{"Location":"AUTOBAHN MOTORS","Address":"4333 W Pico Blvd","City":"Los Angeles","State":"CA","Zip":"90019"},{"Location":"BARUN DENTAL","Address":"903 Crenshaw Blvd 303","City":"Los Angeles","State":"CA","Zip":"90019"},{"Location":"BASEBALL CENTRAL","Address":"5746 Venice Blvd","City":"Los Angeles","State":"CA","Zip":"90019"},{"Location":"BELIZEAN PARADISE","Address":"1271 S La Brea Ave","City":"Los Angeles","State":"CA","Zip":"90019"},{"Location":"BOTANICA SANTIMON","Address":"3420 W Pico Blvd","City":"Los Angeles","State":"CA","Zip":"90019"},{"Location":"BRIDGE SOBER LIVING","Address":"1102 S Cochran Ave","City":"Los Angeles","State":"CA","Zip":"90019"},{"Location":"BROWNSTONE BISTRO","Address":"5047 W Pico Blvd","City":"Los Angeles","State":"CA","Zip":"90019"},{"Location":"BRUCEL INC","Address":"1070 S Wilton Pl","City":"Los Angeles","State":"CA","Zip":"90019"},{"Location":"BUNA ETHIOPIAN MARKET","Address":"1034 S Fairfax Ave","City":"Los Angeles","State":"CA","Zip":"90019"},{"Location":"CASA CHOCOLATE","Address":"3319 W Pico Blvd","City":"Los Angeles","State":"CA","Zip":"90019"},{"Location":"CASA DE COIN LAUNDRY","Address":"3337 W Pico Blvd","City":"Los Angeles","State":"CA","Zip":"90019"},{"Location":"CD MANAGEMENT CO LLC","Address":"1309 S Mansfield Ave","City":"Los Angeles","State":"CA","Zip":"90019"},{"Location":"CHAPIN EL TREBO","Address":"3731 W Pico Blvd","City":"Los Angeles","State":"CA","Zip":"90019"},{"Location":"CITY SPA","Address":"5325 W Pico Blvd","City":"Los Angeles","State":"CA","Zip":"90019"},{"Location":"CON SABOR A PERU","Address":"5163 Venice Blvd","City":"Los Angeles","State":"CA","Zip":"90019"},{"Location":"CON SABOR REST 1","Address":"5105 Venice Blvd","City":"Los Angeles","State":"CA","Zip":"90019"},{"Location":"DA JEONG RESTAURANT","Address":"3901 W Olympic Blvd","City":"Los Angeles","State":"CA","Zip":"90019"},{"Location":"DAVID KORDANSKY GALLERY","Address":"5130 Edgewood Pl","City":"Los Angeles","State":"CA","Zip":"90019"},{"Location":"DESIGN PRINTING","Address":"5364 Venice Blvd","City":"Los Angeles","State":"CA","Zip":"90019"},{"Location":"DUBS BARBARSHOP","Address":"1277 S La Brea Ave","City":"Los Angeles","State":"CA","Zip":"90019"},{"Location":"EDWIN BARBERSHOP","Address":"4506 W Pico Blvd","City":"Los Angeles","State":"CA","Zip":"90019"},{"Location":"EL BARON RESTAURANT","Address":"4212 W Pico Blvd","City":"Los Angeles","State":"CA","Zip":"90019"},{"Location":"ELEGANT CLEANERS","Address":"5532 W Pico Blvd","City":"Los Angeles","State":"CA","Zip":"90019"},{"Location":"ESTIESSION OASAQUENA","Address":"3301 W Pico Blvd","City":"Los Angeles","State":"CA","Zip":"90019"},{"Location":"FABUNIQUE","Address":"4469 W Pico Blvd","City":"Los Angeles","State":"CA","Zip":"90019"},{"Location":"FADEZONE INFAMOUS BARBER","Address":"5509 W Pico Blvd","City":"Los Angeles","State":"CA","Zip":"90019"},{"Location":"FAIRCHILD TAX SERVICE","Address":"5352 W Pico Blvd","City":"Los Angeles","State":"CA","Zip":"90019"},{"Location":"FARRELL","Address":"5059 W Pico Blvd","City":"Los Angeles","State":"CA","Zip":"90019"},{"Location":"FENGMAO","Address":"3901 W Olympic Blvd","City":"Los Angeles","State":"CA","Zip":"90019"},{"Location":"FIT NATION INC","Address":"5113 W Pico Blvd","City":"Los Angeles","State":"CA","Zip":"90019"},{"Location":"HAN MI JUNG","Address":"4100 W Pico Blvd 12","City":"Los Angeles","State":"CA","Zip":"90019"},{"Location":"HAPPY HOUSE","Address":"1618 Crenshaw Blvd","City":"Los Angeles","State":"CA","Zip":"90019"},{"Location":"HARAKATI STUDIOS","Address":"5084 W Pico Blvd","City":"Los Angeles","State":"CA","Zip":"90019"},{"Location":"HINDEN BERLASKI LAW","Address":"4661 W Pico Blvd","City":"Los Angeles","State":"CA","Zip":"90019"},{"Location":"HUMBLE TV","Address":"1265 S Cochran Ave","City":"Los Angeles","State":"CA","Zip":"90019"},{"Location":"JERSEY MIKES SUBS","Address":"4700 W Pico Blvd D","City":"Los Angeles","State":"CA","Zip":"90019"},{"Location":"JIFFY LUBE 2816","Address":"4777 W Pico Blvd","City":"Los Angeles","State":"CA","Zip":"90019"},{"Location":"KOSOYEN USA INC","Address":"3544 W Olympic Blvd 212","City":"Los Angeles","State":"CA","Zip":"90019"},{"Location":"LUCYS DRIVE IN","Address":"1373 S La Brea Ave","City":"Los Angeles","State":"CA","Zip":"90019"},{"Location":"MERKATO INC.","Address":"10361%2F2 S Fairfax Ave","City":"Los Angeles","State":"CA","Zip":"90019"},{"Location":"MERUELO TELEVISION","Address":"4975 W Pico Blvd","City":"Los Angeles","State":"CA","Zip":"90019"},{"Location":"MOUNT SINAI RESIDENTIAL HOME","Address":"1642 6th Ave","City":"Los Angeles","State":"CA","Zip":"90019"},{"Location":"MUNDER STUDIOS INC","Address":"1103 S La Brea Ave","City":"Los Angeles","State":"CA","Zip":"90019"},{"Location":"NYALA ETHIOPIAN CUISINE","Address":"1076 S Fairfax Ave","City":"Los Angeles","State":"CA","Zip":"90019"},{"Location":"PANADERIA OAXACA","Address":"3180 W Pico Blvd","City":"Los Angeles","State":"CA","Zip":"90019"},{"Location":"PIPS ON A LABREA","Address":"1356 S Labrea Ave","City":"Los Angeles","State":"CA","Zip":"90019"},{"Location":"PLANET FITNESS","Address":"4645 Venice Blvd","City":"Los Angeles","State":"CA","Zip":"90019"},{"Location":"PUGET SOUND INC","Address":"5036 W Pico Blvd","City":"Los Angeles","State":"CA","Zip":"90019"},{"Location":"ROSALINDS","Address":"1044 S Fairfax Ave","City":"Los Angeles","State":"CA","Zip":"90019"},{"Location":"SALON BAR","Address":"5882 W Pico Blvd","City":"Los Angeles","State":"CA","Zip":"90019"},{"Location":"SEXY CIGAR LOUNGE 1 LLC","Address":"1111 South Labrea Ave","City":"Los Angeles","State":"CA","Zip":"90019"},{"Location":"SINULANG ALL KELANG","Address":"1032 Crenshaw Blvd B","City":"Los Angeles","State":"CA","Zip":"90019"},{"Location":"SISTER OF ST JOSEPH CARONDELET","Address":"1119 Westchester Pl","City":"Los Angeles","State":"CA","Zip":"90019"},{"Location":"SOBAN","Address":"4001 W Olympic Blvd","City":"Los Angeles","State":"CA","Zip":"90019"},{"Location":"SOJOURNER TRUTH INDUSTRI","Address":"1807 Crenshaw Blvd","City":"Los Angeles","State":"CA","Zip":"90019"},{"Location":"STEVE SHAW PHOTOGRAPHY","Address":"1221 S La Brea Ave","City":"Los Angeles","State":"CA","Zip":"90019"},{"Location":"THE GOLDEN HORIZON","Address":"2632 W 16th Pl","City":"Los Angeles","State":"CA","Zip":"90019"},{"Location":"THE HEADMASTER NUMBER 1","Address":"5610 W Pico Blvd","City":"Los Angeles","State":"CA","Zip":"90019"},{"Location":"THE WEAVE SCENE","Address":"5872 W Pico Blvd Suitc","City":"Los Angeles","State":"CA","Zip":"90019"},{"Location":"TOMS NUMBER 5","Address":"4497 W Pico Blvd","City":"Los Angeles","State":"CA","Zip":"90019"},{"Location":"TONYS BAR","Address":"4310 W Pico Blvd","City":"Los Angeles","State":"CA","Zip":"90019"},{"Location":"TRELL HAIR","Address":"5593 W Pico Blvd","City":"Los Angeles","State":"CA","Zip":"90019"},{"Location":"TRINA'S BEAUTY SALON","Address":"4854 W Pico Blvd","City":"Los Angeles","State":"CA","Zip":"90019"},{"Location":"VENICE BLVD HAIR SALON","Address":"5812 Venice Blvd","City":"Los Angeles","State":"CA","Zip":"90019"},{"Location":"VICTORIA HOUSE","Address":"1023 S Victoria Ave","City":"Los Angeles","State":"CA","Zip":"90019"},{"Location":"WINDSOR GARDENS OF LA","Address":"915 Crenshaw Blvd","City":"Los Angeles","State":"CA","Zip":"90019"},{"Location":"WINGSTOP","Address":"4725 Venice Blvd","City":"Los Angeles","State":"CA","Zip":"90019"},{"Location":"WOORI BANK","Address":"3360 W Olympic Blvd 300","City":"Los Angeles","State":"CA","Zip":"90019"},{"Location":"YNOT FOUNDATION","Address":"1822 Crenshaw Blvd","City":"Los Angeles","State":"CA","Zip":"90019"}]