[{"Location":"ARDOMI MEDIA GROUP LLC","Address":"448 S Hill St 612","City":"Los Angeles","State":"CA","Zip":"90013"},{"Location":"AUDIO VIDEO PLAZA INC","Address":"534 S Broadway","City":"Los Angeles","State":"CA","Zip":"90013"},{"Location":"BANK LEUMI USA","Address":"555 W 5th St","City":"Los Angeles","State":"CA","Zip":"90013"},{"Location":"BAR 107","Address":"107 W 4th St","City":"Los Angeles","State":"CA","Zip":"90013"},{"Location":"BOLT BARBERS","Address":"460 S Spring St","City":"Los Angeles","State":"CA","Zip":"90013"},{"Location":"BOYD HOTEL","Address":"224 Boyd St","City":"Los Angeles","State":"CA","Zip":"90013"},{"Location":"CALIFORNIA GEOLOGICAL SURVEY","Address":"320 W 4th St 850","City":"Los Angeles","State":"CA","Zip":"90013"},{"Location":"CERVETECA DT","Address":"923 E 3rd St 109","City":"Los Angeles","State":"CA","Zip":"90013"},{"Location":"CITY COMPASSIONATE CAREGIVERS","Address":"606 E 4th St","City":"Los Angeles","State":"CA","Zip":"90013"},{"Location":"CLUB FANTASY","Address":"307 W 4th St","City":"Los Angeles","State":"CA","Zip":"90013"},{"Location":"CORONADOS MEXICAN RESTAU","Address":"212 W 5th St","City":"Los Angeles","State":"CA","Zip":"90013"},{"Location":"CROCKER CLUB COMPANY","Address":"453 S Spring St","City":"Los Angeles","State":"CA","Zip":"90013"},{"Location":"D & S CLASSIC COACH","Address":"204 E 3rd St","City":"Los Angeles","State":"CA","Zip":"90013"},{"Location":"DISCOUNT ELECTRONICS","Address":"556 S Broadway","City":"Los Angeles","State":"CA","Zip":"90013"},{"Location":"DOWN AND OUT","Address":"501 S Spring St","City":"Los Angeles","State":"CA","Zip":"90013"},{"Location":"DOWNTOWN NATURAL CAREGIVER","Address":"312 Wall St","City":"Los Angeles","State":"CA","Zip":"90013"},{"Location":"EIGHTY TWO","Address":"707 E 4th Pl","City":"Los Angeles","State":"CA","Zip":"90013"},{"Location":"FOODCOURT","Address":"327 S Broadway","City":"Los Angeles","State":"CA","Zip":"90013"},{"Location":"GO YOO","Address":"333 S Alameda St","City":"Los Angeles","State":"CA","Zip":"90013"},{"Location":"HUB CONNECTIVE LLC","Address":"830 Traction Ave 3","City":"Los Angeles","State":"CA","Zip":"90013"},{"Location":"JENY SHOES","Address":"417 Wall St","City":"Los Angeles","State":"CA","Zip":"90013"},{"Location":"JOHN JHIN","Address":"333 S Alameda St","City":"Los Angeles","State":"CA","Zip":"90013"},{"Location":"KASHEFI CONSTRUCTION MNG","Address":"533 S Los Angeles St","City":"Los Angeles","State":"CA","Zip":"90013"},{"Location":"KING EDDY SALOON","Address":"131 E 5th St","City":"Los Angeles","State":"CA","Zip":"90013"},{"Location":"KUBLER FINANCIAL","Address":"448 S Hill St 801","City":"Los Angeles","State":"CA","Zip":"90013"},{"Location":"LA CENTER FOR DRUG & ALCOHOL","Address":"470 E 3rd St A","City":"Los Angeles","State":"CA","Zip":"90013"},{"Location":"LA GRAND INVESTMENT LLC","Address":"510 S Broadway","City":"Los Angeles","State":"CA","Zip":"90013"},{"Location":"LACITA","Address":"336 S Hill St","City":"Los Angeles","State":"CA","Zip":"90013"},{"Location":"LATHAM AND WATKINS","Address":"555 W 5th St","City":"Los Angeles","State":"CA","Zip":"90013"},{"Location":"LITTLE TOKYO HOME MART","Address":"333 S Alameda St 200","City":"Los Angeles","State":"CA","Zip":"90013"},{"Location":"LOS ANGELES COLD STORAGE","Address":"400 S Central Ave","City":"Los Angeles","State":"CA","Zip":"90013"},{"Location":"LOS ANGELES MISSION","Address":"303 E 5th St","City":"Los Angeles","State":"CA","Zip":"90013"},{"Location":"LUMINANT MEDIA INC","Address":"453 S Spring St 1216","City":"Los Angeles","State":"CA","Zip":"90013"},{"Location":"MKBR INC","Address":"333 S Alameda St 305","City":"Los Angeles","State":"CA","Zip":"90013"},{"Location":"MUTUAL WHOLESALE LIQUOR","Address":"830 E 5th St","City":"Los Angeles","State":"CA","Zip":"90013"},{"Location":"NATIONBUILDER","Address":"448 S Hill St 200","City":"Los Angeles","State":"CA","Zip":"90013"},{"Location":"ONYX","Address":"118 W 5th St","City":"Los Angeles","State":"CA","Zip":"90013"},{"Location":"ORLEANS AND YORK","Address":"333 S Spring St E9","City":"Los Angeles","State":"CA","Zip":"90013"},{"Location":"PARADISE","Address":"113 W 3rd St","City":"Los Angeles","State":"CA","Zip":"90013"},{"Location":"PLATINUM TOURS LLC","Address":"205 E 4th St","City":"Los Angeles","State":"CA","Zip":"90013"},{"Location":"RAYMUNDO SOCCER INC","Address":"306 Boyd St","City":"Los Angeles","State":"CA","Zip":"90013"},{"Location":"SANBORN HOTEL","Address":"526 S Main St","City":"Los Angeles","State":"CA","Zip":"90013"},{"Location":"SOKONGDONG TOFU HOUSE","Address":"333 S Alameda St 308","City":"Los Angeles","State":"CA","Zip":"90013"},{"Location":"SOUND ON SOUND","Address":"1100 E 5th St","City":"Los Angeles","State":"CA","Zip":"90013"},{"Location":"SOUTHERN CALIFORNIA GAS COMPAN","Address":"555 W 5th St","City":"Los Angeles","State":"CA","Zip":"90013"},{"Location":"STRATEGIC COUNSEL","Address":"448 S Hill St 1008","City":"Los Angeles","State":"CA","Zip":"90013"},{"Location":"SUPER STAR CELLULAR","Address":"528 S Broadway","City":"Los Angeles","State":"CA","Zip":"90013"},{"Location":"TECH VERB","Address":"448 S Hill St 1015","City":"Los Angeles","State":"CA","Zip":"90013"},{"Location":"THE ESCONDITE","Address":"410 Boyd St","City":"Los Angeles","State":"CA","Zip":"90013"},{"Location":"THE GAS COMPANY","Address":"555 W 5th St","City":"Los Angeles","State":"CA","Zip":"90013"},{"Location":"THE INSTITUTE","Address":"448 S Hill St 506","City":"Los Angeles","State":"CA","Zip":"90013"},{"Location":"THE MARSHALL GROUP","Address":"814828 Traction Ave","City":"Los Angeles","State":"CA","Zip":"90013"},{"Location":"THE REVOLUTION GROUP","Address":"560 S Alameda St","City":"Los Angeles","State":"CA","Zip":"90013"},{"Location":"UMAMI ARTS DISTRICT","Address":"738 E 3rd St","City":"Los Angeles","State":"CA","Zip":"90013"},{"Location":"UNION RESCUE MISSION","Address":"545 S San Pedro St","City":"Los Angeles","State":"CA","Zip":"90013"},{"Location":"VOLUNTEERS OF AMERICA-ROTARY H","Address":"543 Crocker St","City":"Los Angeles","State":"CA","Zip":"90013"},{"Location":"WESTWARD CONCEPTS INC","Address":"547 Seaton St","City":"Los Angeles","State":"CA","Zip":"90013"},{"Location":"XLANES","Address":"333 S Alameda St 300","City":"Los Angeles","State":"CA","Zip":"90013"}]