[{"Location":"30TH STREET MARKET","Address":"2924 Maple Ave","City":"Los Angeles","State":"CA","Zip":"90011"},{"Location":"AA SMOG INK","Address":"2330 S San Pedro St","City":"Los Angeles","State":"CA","Zip":"90011"},{"Location":"AMERICAN LEGION","Address":"5115 1%2F2 S Central Ave","City":"Los Angeles","State":"CA","Zip":"90011"},{"Location":"AMERICAN SUPPLY","Address":"1621 E 27th St","City":"Los Angeles","State":"CA","Zip":"90011"},{"Location":"ANAIS BEAUTY SALON","Address":"2615 Hooper Ave","City":"Los Angeles","State":"CA","Zip":"90011"},{"Location":"ANTONIO'S MINI MARKET","Address":"5600 S San Pedro St","City":"Los Angeles","State":"CA","Zip":"90011"},{"Location":"ARMENIA SONSONATE REST","Address":"2529 S San Pedro St","City":"Los Angeles","State":"CA","Zip":"90011"},{"Location":"AVALON CARVERT COMMUNITY CENTE","Address":"4920 Avalon Blvd","City":"Los Angeles","State":"CA","Zip":"90011"},{"Location":"BEST LAUNDRY","Address":"2616 S San Pedro St","City":"Los Angeles","State":"CA","Zip":"90011"},{"Location":"BETHLEHEM TEMPLE","Address":"958 E 52nd St","City":"Los Angeles","State":"CA","Zip":"90011"},{"Location":"BIRRIERIA BALDOMERO 2","Address":"3104 Maple Ave","City":"Los Angeles","State":"CA","Zip":"90011"},{"Location":"BOTANICA & PERFUMERIA","Address":"4052 S Central Ave","City":"Los Angeles","State":"CA","Zip":"90011"},{"Location":"BOTANICA SAN JUDAS","Address":"2414 S San Pedro St","City":"Los Angeles","State":"CA","Zip":"90011"},{"Location":"C&F WIRELESS","Address":"307 E Jefferson Blvd 101","City":"Los Angeles","State":"CA","Zip":"90011"},{"Location":"CALEOS MEAT MARKET","Address":"4400 Avalon Blvd","City":"Los Angeles","State":"CA","Zip":"90011"},{"Location":"CARNICERIA EL TORITO","Address":"272 E Vernon Ave","City":"Los Angeles","State":"CA","Zip":"90011"},{"Location":"CNHF","Address":"2707 S Central Ave","City":"Los Angeles","State":"CA","Zip":"90011"},{"Location":"COIN LAUNDRY 5","Address":"401 E Adams Blvd","City":"Los Angeles","State":"CA","Zip":"90011"},{"Location":"COSTA DEL SOL","Address":"2201 S San Pedro St","City":"Los Angeles","State":"CA","Zip":"90011"},{"Location":"DAVITA #5465 AVALON","Address":"5807 Avalon Blvd","City":"Los Angeles","State":"CA","Zip":"90011"},{"Location":"DAYLIGHT TRANSPORT","Address":"3200 Hooper Ave","City":"Los Angeles","State":"CA","Zip":"90011"},{"Location":"EL ARTE BARBERSHOP","Address":"2305 Maple Ave","City":"Los Angeles","State":"CA","Zip":"90011"},{"Location":"EL GALLO GIRO INC","Address":"701 E Jefferson Blvd","City":"Los Angeles","State":"CA","Zip":"90011"},{"Location":"EL PRINCIPIO CARNICERIA 1","Address":"2630 Maple Ave","City":"Los Angeles","State":"CA","Zip":"90011"},{"Location":"EL PRINCIPIO MARKET","Address":"2301 Maple Ave","City":"Los Angeles","State":"CA","Zip":"90011"},{"Location":"EL TARASCO CAFE","Address":"2130 S San Pedro St","City":"Los Angeles","State":"CA","Zip":"90011"},{"Location":"FMJ INCOME TAX SERVICE","Address":"4426 Avalon Blvd","City":"Los Angeles","State":"CA","Zip":"90011"},{"Location":"FRANCIS BEAUTY SALON","Address":"3607 S San Pedro St","City":"Los Angeles","State":"CA","Zip":"90011"},{"Location":"GIL MARKET","Address":"4523 Avalon Blvd","City":"Los Angeles","State":"CA","Zip":"90011"},{"Location":"GONZALEZ PHONES","Address":"3802 Avalon Blvd","City":"Los Angeles","State":"CA","Zip":"90011"},{"Location":"GREATER NEW ST MATTHEWS","Address":"346 E 36th St","City":"Los Angeles","State":"CA","Zip":"90011"},{"Location":"GREENHOUSE CONSTRUCTION","Address":"5113 S Central Ave","City":"Los Angeles","State":"CA","Zip":"90011"},{"Location":"GUS JR","Address":"4001 S San Pedro St","City":"Los Angeles","State":"CA","Zip":"90011"},{"Location":"IGLESIA DE LA SANTA","Address":"2729 S Central Ave","City":"Los Angeles","State":"CA","Zip":"90011"},{"Location":"ISRAEL MISSIONARY BAPTIST","Address":"4501 Compton Ave","City":"Los Angeles","State":"CA","Zip":"90011"},{"Location":"JIT JITS CORP","Address":"2524 S Central Ave","City":"Los Angeles","State":"CA","Zip":"90011"},{"Location":"JORDANA COSMETICS","Address":"235 E 49th St","City":"Los Angeles","State":"CA","Zip":"90011"},{"Location":"JOSE FURNITURE","Address":"5633 S Central Ave","City":"Los Angeles","State":"CA","Zip":"90011"},{"Location":"KEDREN ACUTE PSYCHIATRIC HOSPI","Address":"4211 Avalon Blvd","City":"Los Angeles","State":"CA","Zip":"90011"},{"Location":"LAEA FURNITURE","Address":"4505 Avalon Blvd","City":"Los Angeles","State":"CA","Zip":"90011"},{"Location":"LAW OFFICE OF YVONNE DSAA","Address":"2202 S San Pedro St","City":"Los Angeles","State":"CA","Zip":"90011"},{"Location":"LIZA BEAUTY SALON","Address":"272 E Martin Luther King Jr B","City":"Los Angeles","State":"CA","Zip":"90011"},{"Location":"LMTB LLC","Address":"5200 S Central Ave","City":"Los Angeles","State":"CA","Zip":"90011"},{"Location":"LUCHIS","Address":"5131 Avalon Blvd","City":"Los Angeles","State":"CA","Zip":"90011"},{"Location":"MAGNETIC ENTERPRISE INC","Address":"5100 Avalon Blvd","City":"Los Angeles","State":"CA","Zip":"90011"},{"Location":"MARISCO SAN MIGUEL","Address":"2614 Maple Ave","City":"Los Angeles","State":"CA","Zip":"90011"},{"Location":"MARISCOS LA CORITA","Address":"4504 Avalon Blvd","City":"Los Angeles","State":"CA","Zip":"90011"},{"Location":"MARQUEZ MEATS CO","Address":"2201 S San Pedro St F","City":"Los Angeles","State":"CA","Zip":"90011"},{"Location":"MARTINEZ MINI MARKET","Address":"5117 Avalon Blvd","City":"Los Angeles","State":"CA","Zip":"90011"},{"Location":"MC UNLIMITED INC","Address":"2014 Maple Ave","City":"Los Angeles","State":"CA","Zip":"90011"},{"Location":"MCDONALDS","Address":"1118 E Slauson Ave","City":"Los Angeles","State":"CA","Zip":"90011"},{"Location":"MEXICO CHECK CASHING","Address":"4007 S San Pedro St","City":"Los Angeles","State":"CA","Zip":"90011"},{"Location":"MEXICO TIRE JR","Address":"2409 Maple Ave","City":"Los Angeles","State":"CA","Zip":"90011"},{"Location":"MP TIRE SERVICE","Address":"5502 Avalon Blvd","City":"Los Angeles","State":"CA","Zip":"90011"},{"Location":"MT ZION","Address":"1300-08 E 50th St","City":"Los Angeles","State":"CA","Zip":"90011"},{"Location":"NORTHGATE GONZALEZ LLC","Address":"944 E Slauson Ave","City":"Los Angeles","State":"CA","Zip":"90011"},{"Location":"OMARS DISCOUNT","Address":"5112 S Central Ave","City":"Los Angeles","State":"CA","Zip":"90011"},{"Location":"POLLOS EL GUERO","Address":"274 E Slauson Ave","City":"Los Angeles","State":"CA","Zip":"90011"},{"Location":"RAMOS BEAUTY SALON 2","Address":"2102 S Central Ave","City":"Los Angeles","State":"CA","Zip":"90011"},{"Location":"RAQUELITOS MINI MARKET","Address":"5710 S Central Ave","City":"Los Angeles","State":"CA","Zip":"90011"},{"Location":"RUBENS BARBER SHOP","Address":"4973 S Central Ave","City":"Los Angeles","State":"CA","Zip":"90011"},{"Location":"SANTEE EDUCATION COMPLEX","Address":"1921 Maple Ave B","City":"Los Angeles","State":"CA","Zip":"90011"},{"Location":"SHELZYS BEAUTY SALON","Address":"1127 E Vernon Ave","City":"Los Angeles","State":"CA","Zip":"90011"},{"Location":"SIMPLY TOBACCO SHOP","Address":"3224 S Central Ave","City":"Los Angeles","State":"CA","Zip":"90011"},{"Location":"SONSONITE GRILL 2","Address":"4350 Avalon Blvd","City":"Los Angeles","State":"CA","Zip":"90011"},{"Location":"ST MARK MISSIONARY BAPTIST CHU","Address":"5017 Compton Ave","City":"Los Angeles","State":"CA","Zip":"90011"},{"Location":"SUPER CLEAN COIN LAUNDAR","Address":"2815 S San Pedro St","City":"Los Angeles","State":"CA","Zip":"90011"},{"Location":"SUSYS BARBER SHOP","Address":"3814 Avalon Blvd","City":"Los Angeles","State":"CA","Zip":"90011"},{"Location":"SUSYS BEAUTY SALON","Address":"4723a Avalon Blvd","City":"Los Angeles","State":"CA","Zip":"90011"},{"Location":"TACOS EL GABILAN","Address":"1900 S Central Ave","City":"Los Angeles","State":"CA","Zip":"90011"},{"Location":"TACOS EL GORDO","Address":"2424 S San Pedro St","City":"Los Angeles","State":"CA","Zip":"90011"},{"Location":"TAMS BURGER","Address":"2801 S Central Ave","City":"Los Angeles","State":"CA","Zip":"90011"},{"Location":"TGC INC.","Address":"4426 1%2F2 Avalon Blvd","City":"Los Angeles","State":"CA","Zip":"90011"},{"Location":"TRUJILLO FAMILY","Address":"4052 S Central Ave","City":"Los Angeles","State":"CA","Zip":"90011"},{"Location":"UNITED JEAN","Address":"1202 E 58th St","City":"Los Angeles","State":"CA","Zip":"90011"},{"Location":"VISTA HILL ENT SERVICES 2","Address":"490 E 42nd Pl","City":"Los Angeles","State":"CA","Zip":"90011"},{"Location":"WALLYS MARKET","Address":"1955 S San Pedro St","City":"Los Angeles","State":"CA","Zip":"90011"},{"Location":"WASH TIME","Address":"5300 S Central Ave","City":"Los Angeles","State":"CA","Zip":"90011"},{"Location":"XPRESS MOBILE","Address":"5414 Compton Ave","City":"Los Angeles","State":"CA","Zip":"90011"}]