[{"Location":"ADK","Address":"3137 S La Cienega Blvd","City":"Los Angeles","State":"CA","Zip":"90016"},{"Location":"ALBITAS GRILL RESTAURANT","Address":"2851 Crenshaw Blvd","City":"Los Angeles","State":"CA","Zip":"90016"},{"Location":"APLA HEALTH AND WELLNESS","Address":"3743 S La Brea Ave","City":"Los Angeles","State":"CA","Zip":"90016"},{"Location":"BALDWIN HILLS DIALYSIS CTR","Address":"3705 S Labrea Ave","City":"Los Angeles","State":"CA","Zip":"90016"},{"Location":"BEVERLY HILLS CAB COMPANY","Address":"5741 W Adams Blvd","City":"Los Angeles","State":"CA","Zip":"90016"},{"Location":"BOB GAIL ENTERPRISES","Address":"3321 La Cienega Pl","City":"Los Angeles","State":"CA","Zip":"90016"},{"Location":"CELS ENTERPRISES","Address":"3485 S La Cienega Blvd","City":"Los Angeles","State":"CA","Zip":"90016"},{"Location":"CLAUDIAS BEAUTY SALON","Address":"2126 S La Brea Ave 103","City":"Los Angeles","State":"CA","Zip":"90016"},{"Location":"CRENSHAW NURSING HOME","Address":"1900 S Longwood Ave","City":"Los Angeles","State":"CA","Zip":"90016"},{"Location":"CRENSHAW PROFESSIONAL DENTAL","Address":"3015 Crenshaw Blvd","City":"Los Angeles","State":"CA","Zip":"90016"},{"Location":"DALTILE INC","Address":"3633 Lenawee Ave","City":"Los Angeles","State":"CA","Zip":"90016"},{"Location":"DAVES TATTOO SHOP","Address":"2841 1%2F2 Crenshaw Blvd","City":"Los Angeles","State":"CA","Zip":"90016"},{"Location":"DENTAL PLAYGROUND","Address":"3651 Crenshaw Blvd","City":"Los Angeles","State":"CA","Zip":"90016"},{"Location":"DONAHUE PRINTING","Address":"5716 W Jefferson Blvd","City":"Los Angeles","State":"CA","Zip":"90016"},{"Location":"DORSEY FOOTBALL BOOSTER","Address":"3537 Farmdale Ave","City":"Los Angeles","State":"CA","Zip":"90016"},{"Location":"E-S CON SABOR","Address":"5239 W Adams Blvd","City":"Los Angeles","State":"CA","Zip":"90016"},{"Location":"FAMILY RESTUARANT LLC","Address":"2116 South Labrea Ave","City":"Los Angeles","State":"CA","Zip":"90016"},{"Location":"HAIR CONNECTION PLUS","Address":"5774 Rodeo Rd","City":"Los Angeles","State":"CA","Zip":"90016"},{"Location":"HERMAN  MILLER","Address":"3641 Holdrege Ave","City":"Los Angeles","State":"CA","Zip":"90016"},{"Location":"HSG INC","Address":"4845 Exposition Blvd","City":"Los Angeles","State":"CA","Zip":"90016"},{"Location":"IGLESIA RESTAURACION","Address":"4409 W Adams Blvd","City":"Los Angeles","State":"CA","Zip":"90016"},{"Location":"JUMP LA","Address":"3123 S La Cienega Blvd","City":"Los Angeles","State":"CA","Zip":"90016"},{"Location":"KABC-AM RADIO%2C INC.","Address":"3321 S La Cienega Blvd","City":"Los Angeles","State":"CA","Zip":"90016"},{"Location":"LAS RANAS CAFE RESTAURANT","Address":"5237 W Adams Blvd","City":"Los Angeles","State":"CA","Zip":"90016"},{"Location":"LAVA BEAR","Address":"3201b S La Cienega Blvd","City":"Los Angeles","State":"CA","Zip":"90016"},{"Location":"LONGWOOD MANOR","Address":"4853 W Washington Blvd","City":"Los Angeles","State":"CA","Zip":"90016"},{"Location":"MARISCOS MARIAS INC","Address":"5640 W Adams Blvd","City":"Los Angeles","State":"CA","Zip":"90016"},{"Location":"MELODY MOTEL","Address":"5062 W Washington Blvd","City":"Los Angeles","State":"CA","Zip":"90016"},{"Location":"MODERN PROPS","Address":"5500 W Jefferson Blvd","City":"Los Angeles","State":"CA","Zip":"90016"},{"Location":"MOXIE PICTURES","Address":"5890 W Jefferson Blvd J","City":"Los Angeles","State":"CA","Zip":"90016"},{"Location":"MY MAILBOX","Address":"3651 S La Brea Ave","City":"Los Angeles","State":"CA","Zip":"90016"},{"Location":"NANAY GLORIAS RESTAURANT FASTF","Address":"3756 West Blvd L","City":"Los Angeles","State":"CA","Zip":"90016"},{"Location":"PACIFIC VIEW COMPANY","Address":"4825 W Jefferson Blvd","City":"Los Angeles","State":"CA","Zip":"90016"},{"Location":"PARKLANE CLEANERS","Address":"3651 Crenshaw Blvd","City":"Los Angeles","State":"CA","Zip":"90016"},{"Location":"PEAK PERFORMANCE TRANSPORT","Address":"5768 W Adams Blvd","City":"Los Angeles","State":"CA","Zip":"90016"},{"Location":"PLANNED PARENTHOOD","Address":"3637 S La Brea Ave","City":"Los Angeles","State":"CA","Zip":"90016"},{"Location":"QUIXOTE BLACK LINE","Address":"3190 S La Cienega Blvd","City":"Los Angeles","State":"CA","Zip":"90016"},{"Location":"QUIXOTE STUDIOS","Address":"3210 S La Cienega Blvd","City":"Los Angeles","State":"CA","Zip":"90016"},{"Location":"ROBERTOS AUTO BODY","Address":"4575 W Adams Blvd","City":"Los Angeles","State":"CA","Zip":"90016"},{"Location":"RUSSELL MCBRIDE","Address":"2803 Crenshaw Blvd","City":"Los Angeles","State":"CA","Zip":"90016"},{"Location":"SANDERS CHILD CARE","Address":"2715 S Mansfield Ave 4","City":"Los Angeles","State":"CA","Zip":"90016"},{"Location":"SANDERS CLARK INC","Address":"2838 Crenshaw Blvd","City":"Los Angeles","State":"CA","Zip":"90016"},{"Location":"SCHEMATIC INC","Address":"3457 S La Cienega Blvd","City":"Los Angeles","State":"CA","Zip":"90016"},{"Location":"SOUTHERN MISSIONARY BAPTIST","Address":"4678 W Adams Blvd","City":"Los Angeles","State":"CA","Zip":"90016"},{"Location":"SPIN MASTER","Address":"5880 W Jefferson Blvd A","City":"Los Angeles","State":"CA","Zip":"90016"},{"Location":"SPORTSMAN FAMILY BILLIARD","Address":"3617 Crenshaw Blvd","City":"Los Angeles","State":"CA","Zip":"90016"},{"Location":"STAKELYS BARBER SALON 2","Address":"3669 Crenshaw Blvd","City":"Los Angeles","State":"CA","Zip":"90016"},{"Location":"SUPREME CUTS","Address":"4869 W Washington Blvd","City":"Los Angeles","State":"CA","Zip":"90016"},{"Location":"SWANNEY & MC DONALD","Address":"4833 Exposition Blvd","City":"Los Angeles","State":"CA","Zip":"90016"},{"Location":"TAQUERIA LOS ANAYA","Address":"4651 W Adams Blvd","City":"Los Angeles","State":"CA","Zip":"90016"},{"Location":"TAQUERIA LOS ANAYA 1","Address":"4651 W Adams Blvd","City":"Los Angeles","State":"CA","Zip":"90016"},{"Location":"TARGET 1306","Address":"3535 S La Cienega Blvd","City":"Los Angeles","State":"CA","Zip":"90016"},{"Location":"THE LIVING ROOM","Address":"2636 Crenshaw Blvd","City":"Los Angeles","State":"CA","Zip":"90016"},{"Location":"THE MILL","Address":"3233 South Li Cienega Blv","City":"Los Angeles","State":"CA","Zip":"90016"},{"Location":"TOKI DOKI","Address":"5655 W Adams Blvd","City":"Los Angeles","State":"CA","Zip":"90016"},{"Location":"TRINI CORP LLC","Address":"4771 W Adams Blvd","City":"Los Angeles","State":"CA","Zip":"90016"},{"Location":"VAGRANT RECORDS","Address":"5566 W Washington Blvd","City":"Los Angeles","State":"CA","Zip":"90016"},{"Location":"W MOTORS AUTO REPAIR","Address":"2219 S La Brea Ave","City":"Los Angeles","State":"CA","Zip":"90016"},{"Location":"WEST ANGELES CHURCH","Address":"3010 Crenshaw Blvd","City":"Los Angeles","State":"CA","Zip":"90016"},{"Location":"WEST ANGELES CHURCH","Address":"3600 Crenshaw Blvd","City":"Los Angeles","State":"CA","Zip":"90016"},{"Location":"WEST ANGELES CHURCH YOUTH","Address":"3045 Crenshaw Blvd","City":"Los Angeles","State":"CA","Zip":"90016"},{"Location":"WESTERN AMERICAN SPECIAL","Address":"4731 W Jefferson Blvd","City":"Los Angeles","State":"CA","Zip":"90016"},{"Location":"WESTVIEW COIN LAUNDRY INC","Address":"4820 W Washington Blvd","City":"Los Angeles","State":"CA","Zip":"90016"},{"Location":"XTREME CELLULAR","Address":"5212 W Adams Blvd","City":"Los Angeles","State":"CA","Zip":"90016"},{"Location":"ADK","Address":"3137 S La Cienega Blvd","City":"Los Angeles","State":"CA","Zip":"90016"},{"Location":"ALBITAS GRILL RESTAURANT","Address":"2851 Crenshaw Blvd","City":"Los Angeles","State":"CA","Zip":"90016"},{"Location":"APLA HEALTH AND WELLNESS","Address":"3743 S La Brea Ave","City":"Los Angeles","State":"CA","Zip":"90016"},{"Location":"BALDWIN HILLS DIALYSIS CTR","Address":"3705 S Labrea Ave","City":"Los Angeles","State":"CA","Zip":"90016"},{"Location":"BEVERLY HILLS CAB COMPANY","Address":"5741 W Adams Blvd","City":"Los Angeles","State":"CA","Zip":"90016"},{"Location":"BOB GAIL ENTERPRISES","Address":"3321 La Cienega Pl","City":"Los Angeles","State":"CA","Zip":"90016"},{"Location":"CELS ENTERPRISES","Address":"3485 S La Cienega Blvd","City":"Los Angeles","State":"CA","Zip":"90016"},{"Location":"CLAUDIAS BEAUTY SALON","Address":"2126 S La Brea Ave 103","City":"Los Angeles","State":"CA","Zip":"90016"},{"Location":"CRENSHAW NURSING HOME","Address":"1900 S Longwood Ave","City":"Los Angeles","State":"CA","Zip":"90016"},{"Location":"CRENSHAW PROFESSIONAL DENTAL","Address":"3015 Crenshaw Blvd","City":"Los Angeles","State":"CA","Zip":"90016"},{"Location":"DALTILE INC","Address":"3633 Lenawee Ave","City":"Los Angeles","State":"CA","Zip":"90016"},{"Location":"DAVES TATTOO SHOP","Address":"2841 1%2F2 Crenshaw Blvd","City":"Los Angeles","State":"CA","Zip":"90016"},{"Location":"DENTAL PLAYGROUND","Address":"3651 Crenshaw Blvd","City":"Los Angeles","State":"CA","Zip":"90016"},{"Location":"DONAHUE PRINTING","Address":"5716 W Jefferson Blvd","City":"Los Angeles","State":"CA","Zip":"90016"},{"Location":"DORSEY FOOTBALL BOOSTER","Address":"3537 Farmdale Ave","City":"Los Angeles","State":"CA","Zip":"90016"},{"Location":"E-S CON SABOR","Address":"5239 W Adams Blvd","City":"Los Angeles","State":"CA","Zip":"90016"},{"Location":"FAMILY RESTUARANT LLC","Address":"2116 South Labrea Ave","City":"Los Angeles","State":"CA","Zip":"90016"},{"Location":"HAIR CONNECTION PLUS","Address":"5774 Rodeo Rd","City":"Los Angeles","State":"CA","Zip":"90016"},{"Location":"HERMAN  MILLER","Address":"3641 Holdrege Ave","City":"Los Angeles","State":"CA","Zip":"90016"},{"Location":"HSG INC","Address":"4845 Exposition Blvd","City":"Los Angeles","State":"CA","Zip":"90016"},{"Location":"IGLESIA RESTAURACION","Address":"4409 W Adams Blvd","City":"Los Angeles","State":"CA","Zip":"90016"},{"Location":"JUMP LA","Address":"3123 S La Cienega Blvd","City":"Los Angeles","State":"CA","Zip":"90016"},{"Location":"KABC-AM RADIO%2C INC.","Address":"3321 S La Cienega Blvd","City":"Los Angeles","State":"CA","Zip":"90016"},{"Location":"LAS RANAS CAFE RESTAURANT","Address":"5237 W Adams Blvd","City":"Los Angeles","State":"CA","Zip":"90016"},{"Location":"LAVA BEAR","Address":"3201b S La Cienega Blvd","City":"Los Angeles","State":"CA","Zip":"90016"},{"Location":"LONGWOOD MANOR","Address":"4853 W Washington Blvd","City":"Los Angeles","State":"CA","Zip":"90016"},{"Location":"MARISCOS MARIAS INC","Address":"5640 W Adams Blvd","City":"Los Angeles","State":"CA","Zip":"90016"},{"Location":"MELODY MOTEL","Address":"5062 W Washington Blvd","City":"Los Angeles","State":"CA","Zip":"90016"},{"Location":"MODERN PROPS","Address":"5500 W Jefferson Blvd","City":"Los Angeles","State":"CA","Zip":"90016"},{"Location":"MOXIE PICTURES","Address":"5890 W Jefferson Blvd J","City":"Los Angeles","State":"CA","Zip":"90016"},{"Location":"MY MAILBOX","Address":"3651 S La Brea Ave","City":"Los Angeles","State":"CA","Zip":"90016"},{"Location":"NANAY GLORIAS RESTAURANT FASTF","Address":"3756 West Blvd L","City":"Los Angeles","State":"CA","Zip":"90016"},{"Location":"OSKARS BARBERSHOP","Address":"2218 S La Brea Ave","City":"Los Angeles","State":"CA","Zip":"90016"},{"Location":"PACIFIC VIEW COMPANY","Address":"4825 W Jefferson Blvd","City":"Los Angeles","State":"CA","Zip":"90016"},{"Location":"PARKLANE CLEANERS","Address":"3651 Crenshaw Blvd","City":"Los Angeles","State":"CA","Zip":"90016"},{"Location":"PEAK PERFORMANCE TRANSPORT","Address":"5768 W Adams Blvd","City":"Los Angeles","State":"CA","Zip":"90016"},{"Location":"PIT CRAFT AND SUPPLY","Address":"2620 Crenshaw Blvd","City":"Los Angeles","State":"CA","Zip":"90016"},{"Location":"PLANNED PARENTHOOD","Address":"3637 S La Brea Ave","City":"Los Angeles","State":"CA","Zip":"90016"},{"Location":"QUIXOTE BLACK LINE","Address":"3190 S La Cienega Blvd","City":"Los Angeles","State":"CA","Zip":"90016"},{"Location":"QUIXOTE STUDIOS","Address":"3210 S La Cienega Blvd","City":"Los Angeles","State":"CA","Zip":"90016"},{"Location":"ROBERTOS AUTO BODY","Address":"4575 W Adams Blvd","City":"Los Angeles","State":"CA","Zip":"90016"},{"Location":"RUSSELL MCBRIDE","Address":"2803 Crenshaw Blvd","City":"Los Angeles","State":"CA","Zip":"90016"},{"Location":"SANDERS CHILD CARE","Address":"2715 S Mansfield Ave 4","City":"Los Angeles","State":"CA","Zip":"90016"},{"Location":"SANDERS CLARK INC","Address":"2838 Crenshaw Blvd","City":"Los Angeles","State":"CA","Zip":"90016"},{"Location":"SCHEMATIC INC","Address":"3457 S La Cienega Blvd","City":"Los Angeles","State":"CA","Zip":"90016"},{"Location":"SOUTHERN MISSIONARY BAPTIST","Address":"4678 W Adams Blvd","City":"Los Angeles","State":"CA","Zip":"90016"},{"Location":"SPIN MASTER","Address":"5880 W Jefferson Blvd A","City":"Los Angeles","State":"CA","Zip":"90016"},{"Location":"SPORTSMAN FAMILY BILLIARD","Address":"3617 Crenshaw Blvd","City":"Los Angeles","State":"CA","Zip":"90016"},{"Location":"STAKELYS BARBER SALON 2","Address":"3669 Crenshaw Blvd","City":"Los Angeles","State":"CA","Zip":"90016"},{"Location":"SUPREME CUTS","Address":"4869 W Washington Blvd","City":"Los Angeles","State":"CA","Zip":"90016"},{"Location":"SWANNEY & MC DONALD","Address":"4833 Exposition Blvd","City":"Los Angeles","State":"CA","Zip":"90016"},{"Location":"Taqueria Los Anaya","Address":"4651 W Adams Blvd","City":"Los Angeles","State":"CA","Zip":"90016"},{"Location":"TAQUERIA LOS ANAYA 1","Address":"4651 W Adams Blvd","City":"Los Angeles","State":"CA","Zip":"90016"},{"Location":"TARGET 1306","Address":"3535 S La Cienega Blvd","City":"Los Angeles","State":"CA","Zip":"90016"},{"Location":"THE LIVING ROOM","Address":"2636 Crenshaw Blvd","City":"Los Angeles","State":"CA","Zip":"90016"},{"Location":"THE MILL","Address":"3233 South Li Cienega Blv","City":"Los Angeles","State":"CA","Zip":"90016"},{"Location":"TOKI DOKI","Address":"5655 W Adams Blvd","City":"Los Angeles","State":"CA","Zip":"90016"},{"Location":"TRINI CORP LLC","Address":"4771 W Adams Blvd","City":"Los Angeles","State":"CA","Zip":"90016"},{"Location":"VAGRANT RECORDS","Address":"5566 W Washington Blvd","City":"Los Angeles","State":"CA","Zip":"90016"},{"Location":"W MOTORS AUTO REPAIR","Address":"2219 S La Brea Ave","City":"Los Angeles","State":"CA","Zip":"90016"},{"Location":"WEST ANGELES CHURCH","Address":"3600 Crenshaw Blvd","City":"Los Angeles","State":"CA","Zip":"90016"},{"Location":"WEST ANGELES CHURCH","Address":"3010 Crenshaw Blvd","City":"Los Angeles","State":"CA","Zip":"90016"},{"Location":"WEST ANGELES CHURCH YOUTH","Address":"3045 Crenshaw Blvd","City":"Los Angeles","State":"CA","Zip":"90016"},{"Location":"WESTERN AMERICAN SPECIAL","Address":"4731 W Jefferson Blvd","City":"Los Angeles","State":"CA","Zip":"90016"},{"Location":"WESTVIEW COIN LAUNDRY INC","Address":"4820 W Washington Blvd","City":"Los Angeles","State":"CA","Zip":"90016"},{"Location":"XTREME CELLULAR","Address":"5212 W Adams Blvd","City":"Los Angeles","State":"CA","Zip":"90016"}]