[{"Location":"A.T.I.","Address":"4401 Wilshire Blvd 4thf","City":"Los Angeles","State":"CA","Zip":"90010"},{"Location":"AAAZA","Address":"3250 Wilshire Blvd 1901","City":"Los Angeles","State":"CA","Zip":"90010"},{"Location":"ABLON%2C LEWIS%2C BASS & GALE LLP","Address":"3435 Wilshire Blvd 2000","City":"Los Angeles","State":"CA","Zip":"90010"},{"Location":"ALCOHOLICS ANONYMOUS LOS ANGEL","Address":"4311 Wilshire Blvd 104","City":"Los Angeles","State":"CA","Zip":"90010"},{"Location":"AMERICAN CAPITAL REVITAL","Address":"3250 Wilshire Blvd 1912","City":"Los Angeles","State":"CA","Zip":"90010"},{"Location":"AMERIEL MORTGAGE","Address":"3435 Wilshire Blvd 2600","City":"Los Angeles","State":"CA","Zip":"90010"},{"Location":"ANDAMAN THAI","Address":"3446 Wilshire Blvd","City":"Los Angeles","State":"CA","Zip":"90010"},{"Location":"APIIS FINANCIAL%2CINC.","Address":"3435 Wilshire Blvd 930","City":"Los Angeles","State":"CA","Zip":"90010"},{"Location":"ARADO","Address":"4001 Wilshire Blvd A","City":"Los Angeles","State":"CA","Zip":"90010"},{"Location":"ARANG LLC","Address":"3680 Wilshire Blvd B02","City":"Los Angeles","State":"CA","Zip":"90010"},{"Location":"ASSOCIATE TELEVISION","Address":"4401 Wilshire Blvd","City":"Los Angeles","State":"CA","Zip":"90010"},{"Location":"ATIS CAPITAL","Address":"3435 Wilshire Blvd 1850","City":"Los Angeles","State":"CA","Zip":"90010"},{"Location":"AXA ADVISORS LLC","Address":"3435 Wilshire Blvd 2500","City":"Los Angeles","State":"CA","Zip":"90010"},{"Location":"BBCN BANK","Address":"3435 Wilshire Blvd 150","City":"Los Angeles","State":"CA","Zip":"90010"},{"Location":"BULGOGI HUT","Address":"3600 Wilshire Blvd C","City":"Los Angeles","State":"CA","Zip":"90010"},{"Location":"CASTELBLANCO LAW GROUP%2C APLC","Address":"3701 Wilshire Blvd 535","City":"Los Angeles","State":"CA","Zip":"90010"},{"Location":"CCRS","Address":"4160 Wilshire Blvd","City":"Los Angeles","State":"CA","Zip":"90010"},{"Location":"CF","Address":"3000 Wilshire Blvd","City":"Los Angeles","State":"CA","Zip":"90010"},{"Location":"CIM GROUP LP","Address":"4700 Wilshire Blvd","City":"Los Angeles","State":"CA","Zip":"90010"},{"Location":"CONGRESS MEM KAREN BASS","Address":"4929 Wilshire Blvd 650","City":"Los Angeles","State":"CA","Zip":"90010"},{"Location":"CONSULATE GENERAL PERU","Address":"3450 Wilshire Blvd 800","City":"Los Angeles","State":"CA","Zip":"90010"},{"Location":"CREDENCE FINANCIAL GROUP","Address":"3435 Wilshire Blvd","City":"Los Angeles","State":"CA","Zip":"90010"},{"Location":"DAHO KOREAN BBQ","Address":"3986 Wilshire Blvd","City":"Los Angeles","State":"CA","Zip":"90010"},{"Location":"DAVID GOULD COMPANY","Address":"3700 Wilshire Blvd 1050b","City":"Los Angeles","State":"CA","Zip":"90010"},{"Location":"DIAZ MEDICAL BILLING","Address":"3699 Wilshire Blvd 1140","City":"Los Angeles","State":"CA","Zip":"90010"},{"Location":"DLD ACCOONTNCY LLP","Address":"4250 Wilshire Blvd","City":"Los Angeles","State":"CA","Zip":"90010"},{"Location":"DONG KIM","Address":"3020 Wilshire Blvd","City":"Los Angeles","State":"CA","Zip":"90010"},{"Location":"FARMERS INSURANCE","Address":"4680 Wilshire Blvd","City":"Los Angeles","State":"CA","Zip":"90010"},{"Location":"FEATURE STORY NEWS","Address":"3435 Wilshire Blvd 1980","City":"Los Angeles","State":"CA","Zip":"90010"},{"Location":"FEYK","Address":"3839 Wilshire Blvd A","City":"Los Angeles","State":"CA","Zip":"90010"},{"Location":"FLM ENTERPRISES","Address":"4601 Wilshire Blvd 205","City":"Los Angeles","State":"CA","Zip":"90010"},{"Location":"FMC 28690000","Address":"3545 Wilshire Blvd 103","City":"Los Angeles","State":"CA","Zip":"90010"},{"Location":"FORCE ONE GROUP","Address":"3450 Wilshire Blvd 1010","City":"Los Angeles","State":"CA","Zip":"90010"},{"Location":"GENGAMA","Address":"3020 Wilshire Blvd 119","City":"Los Angeles","State":"CA","Zip":"90010"},{"Location":"GHD INC- GLOBAL HOUSING","Address":"3470 Wilshire Blvd 1030","City":"Los Angeles","State":"CA","Zip":"90010"},{"Location":"GORDON EDELSTEIN KREPACK","Address":"3580 Wilshire Blvd 1800","City":"Los Angeles","State":"CA","Zip":"90010"},{"Location":"GRAVILLIS INC","Address":"4250 Wilshire Blvd","City":"Los Angeles","State":"CA","Zip":"90010"},{"Location":"GYB LA LLC","Address":"3435 Wilshire Blvd 123","City":"Los Angeles","State":"CA","Zip":"90010"},{"Location":"HANIL DEVELOPMENT INC","Address":"3680 Wilshire Blvd 301","City":"Los Angeles","State":"CA","Zip":"90010"},{"Location":"HANMI BANK","Address":"3660 Wilshire Blvd Pha","City":"Los Angeles","State":"CA","Zip":"90010"},{"Location":"HAYFORD & FELCHLIN LLP","Address":"3055 Wilshire Blvd 750","City":"Los Angeles","State":"CA","Zip":"90010"},{"Location":"HITE KWANG JANG","Address":"3839 Wilshire Blvd E","City":"Los Angeles","State":"CA","Zip":"90010"},{"Location":"HOLY CRAB","Address":"3250 Wilshire Blvd 103","City":"Los Angeles","State":"CA","Zip":"90010"},{"Location":"HONG DAE IP GU","Address":"3871 Wilshire Blvd","City":"Los Angeles","State":"CA","Zip":"90010"},{"Location":"HSBC BANK #819827","Address":"3785 Wilshire Blvd 8","City":"Los Angeles","State":"CA","Zip":"90010"},{"Location":"INDONESIAN CONSULATE GENERAL","Address":"3457 Wilshire Blvd 4fl","City":"Los Angeles","State":"CA","Zip":"90010"},{"Location":"JEWISH JOURNAL","Address":"3250 Wilshire Blvd 1250","City":"Los Angeles","State":"CA","Zip":"90010"},{"Location":"KANDEE","Address":"3435 Wilshire Blvd 2120","City":"Los Angeles","State":"CA","Zip":"90010"},{"Location":"KCBN","Address":"3240 Wilshire Blvd 230","City":"Los Angeles","State":"CA","Zip":"90010"},{"Location":"KEP TAX & ACCOUNTING SER","Address":"3580 Wilshire Blvd 1610","City":"Los Angeles","State":"CA","Zip":"90010"},{"Location":"KONY WILSHIRE INC","Address":"3281 Wilshire Blvd","City":"Los Angeles","State":"CA","Zip":"90010"},{"Location":"KOREAN       CONSULATE","Address":"3243 Wilshire Blvd","City":"Los Angeles","State":"CA","Zip":"90010"},{"Location":"KOTRA LOS ANGELES","Address":"4801 Wilshire Blvd 104","City":"Los Angeles","State":"CA","Zip":"90010"},{"Location":"L O OF CARL D BARNES","Address":"3550 Wilshire Blvd 1640","City":"Los Angeles","State":"CA","Zip":"90010"},{"Location":"LAW OFFICE OF LEE C ARTE","Address":"3550 Wilshire Blvd 1280","City":"Los Angeles","State":"CA","Zip":"90010"},{"Location":"LAW OFFICES OF CHOI & ASSOCIAT","Address":"3435 Wilshire Blvd 2410","City":"Los Angeles","State":"CA","Zip":"90010"},{"Location":"LAW OFFICES OF RAMIN R Y","Address":"3435 Wilshire Blvd 2200","City":"Los Angeles","State":"CA","Zip":"90010"},{"Location":"LEVONS HAIR BOUTIQUE","Address":"3460 Wilshire Blvd 105","City":"Los Angeles","State":"CA","Zip":"90010"},{"Location":"LONGWOOD MANOR","Address":"4032 Wilshire Blvd 600","City":"Los Angeles","State":"CA","Zip":"90010"},{"Location":"LUIS A DELGADO","Address":"3250 Wilshire Blvd 1110","City":"Los Angeles","State":"CA","Zip":"90010"},{"Location":"LUXOR PROPERTIES","Address":"4751 Wilshire Blvd 203","City":"Los Angeles","State":"CA","Zip":"90010"},{"Location":"M GRILL","Address":"3832 Wilshire Blvd","City":"Los Angeles","State":"CA","Zip":"90010"},{"Location":"MAINSTREAM CAPITAL GROUP","Address":"3435 Wilshire Blvd 1100","City":"Los Angeles","State":"CA","Zip":"90010"},{"Location":"MERCURY GENERAL CO","Address":"4484 Wilshire Blvd","City":"Los Angeles","State":"CA","Zip":"90010"},{"Location":"MERCURY INS - LOS ANGELES","Address":"4484 Wilshire Blvd","City":"Los Angeles","State":"CA","Zip":"90010"},{"Location":"MIDWAY CAR RENTAL","Address":"2950 Wilshire Blvd","City":"Los Angeles","State":"CA","Zip":"90010"},{"Location":"MR.PIZZA WESTERN INC","Address":"3881 Wilshire Blvd","City":"Los Angeles","State":"CA","Zip":"90010"},{"Location":"MYUNG DONG KYOJA","Address":"3630 Wilshire Blvd","City":"Los Angeles","State":"CA","Zip":"90010"},{"Location":"NATURA SPORTS HEALTH CLB","Address":"3240 Wilshire Blvd B","City":"Los Angeles","State":"CA","Zip":"90010"},{"Location":"NEW ZULU USA","Address":"4401 Wilshire Blvd","City":"Los Angeles","State":"CA","Zip":"90010"},{"Location":"NOVEL CAFE","Address":"3760 Wilshire Blvd","City":"Los Angeles","State":"CA","Zip":"90010"},{"Location":"NOWCOM CORPORATION","Address":"4751 Wilshire Blvd 115","City":"Los Angeles","State":"CA","Zip":"90010"},{"Location":"NUMERO UNO PIZZA","Address":"3432 Wilshire Blvd","City":"Los Angeles","State":"CA","Zip":"90010"},{"Location":"OK BILLARD","Address":"3959 Wilshire Blvd A27","City":"Los Angeles","State":"CA","Zip":"90010"},{"Location":"PALM TREE LA","Address":"3240 Wilshire Blvd","City":"Los Angeles","State":"CA","Zip":"90010"},{"Location":"PHILIPPINE TOURISM OFFICE","Address":"3660 Wilshire Blvd 216","City":"Los Angeles","State":"CA","Zip":"90010"},{"Location":"PIPELLINEN & ASSOCIATE","Address":"3550 Wilshire Blvd 1930","City":"Los Angeles","State":"CA","Zip":"90010"},{"Location":"PLANET HOLLYWOOD INTL.","Address":"4401 Wilshire Blvd 4thf","City":"Los Angeles","State":"CA","Zip":"90010"},{"Location":"PREMIER INNOVATIONS","Address":"3250 Wilshire Blvd","City":"Los Angeles","State":"CA","Zip":"90010"},{"Location":"PRO SEARCH STRATEGIES","Address":"3250 Wilshire Blvd 310","City":"Los Angeles","State":"CA","Zip":"90010"},{"Location":"QUALIFIED BILLING","Address":"4601 Wilshire Blvd 3","City":"Los Angeles","State":"CA","Zip":"90010"},{"Location":"RADIO KOREA","Address":"3700 Wilshire Blvd 600","City":"Los Angeles","State":"CA","Zip":"90010"},{"Location":"RADIO KOREA 2","Address":"3700 Wilshire Blvd 1020","City":"Los Angeles","State":"CA","Zip":"90010"},{"Location":"RADLEY  LLC","Address":"3780 Wilshire Blvd 11","City":"Los Angeles","State":"CA","Zip":"90010"},{"Location":"REED & DAVIDSON%2CLLP","Address":"3699 Wilshire Blvd 1290","City":"Los Angeles","State":"CA","Zip":"90010"},{"Location":"REYES BARSOUM","Address":"3055 Wilshire Blvd 670","City":"Los Angeles","State":"CA","Zip":"90010"},{"Location":"SAN JUDAS MEDICAL GROUP","Address":"3377 Wilshire Blvd","City":"Los Angeles","State":"CA","Zip":"90010"},{"Location":"SBS INTERNATIONAL","Address":"3530 Wilshire Blvd 1000","City":"Los Angeles","State":"CA","Zip":"90010"},{"Location":"SEIRAC MEDICAL GROUP","Address":"3700 Wilshire Blvd 408","City":"Los Angeles","State":"CA","Zip":"90010"},{"Location":"SHABUHYANG","Address":"3807 Wilshire Blvd","City":"Los Angeles","State":"CA","Zip":"90010"},{"Location":"SOME","Address":"3869 Wilshire Blvd","City":"Los Angeles","State":"CA","Zip":"90010"},{"Location":"SOUTHWESTERN UNIVERSITY","Address":"3050 Wilshire Blvd","City":"Los Angeles","State":"CA","Zip":"90010"},{"Location":"STOCKWELL HARRIS","Address":"3580 Wilshire Blvd 15th","City":"Los Angeles","State":"CA","Zip":"90010"},{"Location":"SULRUNGTANG","Address":"3828 Wilshire Blvd","City":"Los Angeles","State":"CA","Zip":"90010"},{"Location":"SURETY INVESTMENT SERVICES","Address":"4520 Wilshire Blvd 201","City":"Los Angeles","State":"CA","Zip":"90010"},{"Location":"SUSHI KO","Address":"3680 Wilshire Blvd 201","City":"Los Angeles","State":"CA","Zip":"90010"},{"Location":"TEAMSTER LOCAL 896","Address":"33030 Wilshire Blvd 300","City":"Los Angeles","State":"CA","Zip":"90010"},{"Location":"THE BOILING CRAB K TOWN","Address":"3377 Wilshire Blvd","City":"Los Angeles","State":"CA","Zip":"90010"},{"Location":"THE COCHRAN FIRM -","Address":"4929 Wilshire Blvd 1010","City":"Los Angeles","State":"CA","Zip":"90010"},{"Location":"THE KOREA FOUNDATION","Address":"3600 Wilshire Blvd 2040","City":"Los Angeles","State":"CA","Zip":"90010"},{"Location":"THE KOREA TIMES","Address":"4525 Wilshire Blvd","City":"Los Angeles","State":"CA","Zip":"90010"},{"Location":"THE PARK GROUP","Address":"3550 Wilshire Blvd","City":"Los Angeles","State":"CA","Zip":"90010"},{"Location":"THE VAPE SOURCE","Address":"3832 Wilshire Blvd 101","City":"Los Angeles","State":"CA","Zip":"90010"},{"Location":"UNITED CENTRAL BANK","Address":"2975 Wilshire Blvd 110","City":"Los Angeles","State":"CA","Zip":"90010"},{"Location":"UNITED TEACHERS LOS ANGELES","Address":"3303 Wilshire Blvd","City":"Los Angeles","State":"CA","Zip":"90010"},{"Location":"WAKO DONKASU","Address":"3377 Wilshire Blvd","City":"Los Angeles","State":"CA","Zip":"90010"},{"Location":"WESTWOOD","Address":"3250 Wilshire Blvd 400","City":"Los Angeles","State":"CA","Zip":"90010"},{"Location":"WILFIT SPORTS CLUB","Address":"3470 Wilshire Blvd 100","City":"Los Angeles","State":"CA","Zip":"90010"},{"Location":"WILHELMINA","Address":"3250 Wilshire Blvd 1","City":"Los Angeles","State":"CA","Zip":"90010"},{"Location":"WILLIAM TAX AND FINANCIAL GROU","Address":"4311 Wilshire Blvd 315","City":"Los Angeles","State":"CA","Zip":"90010"},{"Location":"WILSHIRE FINANCIAL","Address":"4601 Wilshire Blvd 212","City":"Los Angeles","State":"CA","Zip":"90010"},{"Location":"WILSHIRER SPA","Address":"3442 Wilshire Blvd 100","City":"Los Angeles","State":"CA","Zip":"90010"},{"Location":"WILTERN THEATER","Address":"3790 Wilshire Blvd","City":"Los Angeles","State":"CA","Zip":"90010"},{"Location":"YTN US","Address":"3600 Wilshire Blvd 2000","City":"Los Angeles","State":"CA","Zip":"90010"}]