[{"Location":"","Address":"2226 12 West 29 Th Place","City":"Los Angeles","State":"CA","Zip":"90018"},{"Location":"2 FOR 1 PIZZA","Address":"1905 S Western Ave 3","City":"Los Angeles","State":"CA","Zip":"90018"},{"Location":"ADAMS EAVES LLC","Address":"1835 W Adams Blvd","City":"Los Angeles","State":"CA","Zip":"90018"},{"Location":"ALPINE RESTAURANT EQUIPM","Address":"2378 W Washington Blvd","City":"Los Angeles","State":"CA","Zip":"90018"},{"Location":"BURGER FACTORY","Address":"2066 W Washington Blvd","City":"Los Angeles","State":"CA","Zip":"90018"},{"Location":"CIRCLE CITY 5","Address":"2100 W Washington Blvd","City":"Los Angeles","State":"CA","Zip":"90018"},{"Location":"CRAZY CUT BARBERSHOP","Address":"1927 S Western Ave 2","City":"Los Angeles","State":"CA","Zip":"90018"},{"Location":"CROWN & GLORY HAIR DESIG","Address":"2825 S Western Ave","City":"Los Angeles","State":"CA","Zip":"90018"},{"Location":"CUSTOM CRAFT APPOSTERERS","Address":"3401 W Washington Blvd","City":"Los Angeles","State":"CA","Zip":"90018"},{"Location":"DION ALLEN","Address":"2489 W Washington Blvd","City":"Los Angeles","State":"CA","Zip":"90018"},{"Location":"EL SONSONATECO","Address":"2171 W Washington Blvd","City":"Los Angeles","State":"CA","Zip":"90018"},{"Location":"ELITE MESSENGER SVC","Address":"3307 W Washington Blvd C","City":"Los Angeles","State":"CA","Zip":"90018"},{"Location":"ELLAS FOUNDATION","Address":"2218 8th Ave","City":"Los Angeles","State":"CA","Zip":"90018"},{"Location":"ELLAS FOUNDATION 1","Address":"2216 8th Ave T","City":"Los Angeles","State":"CA","Zip":"90018"},{"Location":"GOOS HOUSE OF GLAM","Address":"2516 1%2F2 5th Ave","City":"Los Angeles","State":"CA","Zip":"90018"},{"Location":"HERMANO CENTRO AMERICANO","Address":"1905 8th Ave","City":"Los Angeles","State":"CA","Zip":"90018"},{"Location":"HH CORP","Address":"1938 W Adams Blvd","City":"Los Angeles","State":"CA","Zip":"90018"},{"Location":"HOUSE OF DIMES","Address":"1815 W Jefferson Blvd","City":"Los Angeles","State":"CA","Zip":"90018"},{"Location":"JOAN & SISTERS BELIZIAN","Address":"3709 S Western Ave","City":"Los Angeles","State":"CA","Zip":"90018"},{"Location":"KEDREN COMMUNITY MENTAL HEALTH","Address":"2160 W Adams Blvd","City":"Los Angeles","State":"CA","Zip":"90018"},{"Location":"KIM BORDENAVE PRIESTLEY","Address":"3028 S Norton Ave","City":"Los Angeles","State":"CA","Zip":"90018"},{"Location":"LEGAUX HOLDINGS","Address":"2920 W Jefferson Blvd","City":"Los Angeles","State":"CA","Zip":"90018"},{"Location":"MID CITY AUTO SALES","Address":"1950 W Washington Blvd","City":"Los Angeles","State":"CA","Zip":"90018"},{"Location":"MILESTONES BEHAVIOR TREATMENT","Address":"3115 W Jefferson Blvd","City":"Los Angeles","State":"CA","Zip":"90018"},{"Location":"MONAS FLOWERS","Address":"1927 S Western Ave Ste7","City":"Los Angeles","State":"CA","Zip":"90018"},{"Location":"NEROS DAYCARE","Address":"1933 W 35th St","City":"Los Angeles","State":"CA","Zip":"90018"},{"Location":"PRAISE BEAUTY SALON","Address":"3218 12 Jefferson Blvd","City":"Los Angeles","State":"CA","Zip":"90018"},{"Location":"SABOR HONDURAS RESTAURANT INC","Address":"1927 S Western Ave 1","City":"Los Angeles","State":"CA","Zip":"90018"},{"Location":"SIR GRAHAM BARBER SHOP","Address":"1909 10th Ave","City":"Los Angeles","State":"CA","Zip":"90018"},{"Location":"SUNNYVIEW","Address":"2000 W Washington Blvd","City":"Los Angeles","State":"CA","Zip":"90018"},{"Location":"T LANES BARBER SHOP","Address":"3678 S Western Ave","City":"Los Angeles","State":"CA","Zip":"90018"},{"Location":"THE DECORATORS PLACE III","Address":"1824 W Jefferson Blvd","City":"Los Angeles","State":"CA","Zip":"90018"},{"Location":"US FLOOR DESIGNS","Address":"2945 S Western Ave","City":"Los Angeles","State":"CA","Zip":"90018"},{"Location":"VINTAGE HOLLYWOOD","Address":"4000 W Washington Blvd","City":"Los Angeles","State":"CA","Zip":"90018"}]