[{"Location":"10 E LLC","Address":"811 W 7th St","City":"Los Angeles","State":"CA","Zip":"90017"},{"Location":"1111 WILSHIRE","Address":"1111 Wilshire Blvd","City":"Los Angeles","State":"CA","Zip":"90017"},{"Location":"800 DEGREE PIZZERIA","Address":"800 Wilshire Blvd 102","City":"Los Angeles","State":"CA","Zip":"90017"},{"Location":"ACLU FOUNDATION OF SOUTH CAL","Address":"1313 W 8th St","City":"Los Angeles","State":"CA","Zip":"90017"},{"Location":"AEG - 8TH FL.","Address":"865 S Figueroa St 800","City":"Los Angeles","State":"CA","Zip":"90017"},{"Location":"AEG - IT","Address":"865 S Figueroa St 2300","City":"Los Angeles","State":"CA","Zip":"90017"},{"Location":"AG 800 WILSHIRE OWNER LP","Address":"800 Wilshire Blvd 310","City":"Los Angeles","State":"CA","Zip":"90017"},{"Location":"AIG","Address":"777 S Figueroa St 30","City":"Los Angeles","State":"CA","Zip":"90017"},{"Location":"AIG GLOBAL REAL ESTATE","Address":"777 S Figueroa St Fl16","City":"Los Angeles","State":"CA","Zip":"90017"},{"Location":"AL BROOKS TICKETS","Address":"801 S Flower St 5th","City":"Los Angeles","State":"CA","Zip":"90017"},{"Location":"AMERICA VOICE%2C LLC","Address":"600 Wilshire Blvd 1620","City":"Los Angeles","State":"CA","Zip":"90017"},{"Location":"AMERICAN EXPRESS","Address":"888 S Figueroa St 1770","City":"Los Angeles","State":"CA","Zip":"90017"},{"Location":"ANGELS NURSING CENTER","Address":"415 S Union Ave","City":"Los Angeles","State":"CA","Zip":"90017"},{"Location":"APPLIED FACTS","Address":"700 Wilshire Blvd 520","City":"Los Angeles","State":"CA","Zip":"90017"},{"Location":"ARNOLD PORTER","Address":"777 S Figueroa St 4400","City":"Los Angeles","State":"CA","Zip":"90017"},{"Location":"ATF","Address":"888 S Figueroa St 1750","City":"Los Angeles","State":"CA","Zip":"90017"},{"Location":"ATHENA PARKING","Address":"818 W 7th St 860","City":"Los Angeles","State":"CA","Zip":"90017"},{"Location":"ATITLAN EXPRESS","Address":"1624 W 6th St","City":"Los Angeles","State":"CA","Zip":"90017"},{"Location":"BAR AND LONGE SABOR","Address":"847 S Union Ave","City":"Los Angeles","State":"CA","Zip":"90017"},{"Location":"BARKER PACIFIC GROUP","Address":"626 Wilshire Blvd 900","City":"Los Angeles","State":"CA","Zip":"90017"},{"Location":"BAUTE & TIDUS  LLP","Address":"777 S Figueroa St 49","City":"Los Angeles","State":"CA","Zip":"90017"},{"Location":"BBVA LA LPO","Address":"801 S Figueroa St 11thf","City":"Los Angeles","State":"CA","Zip":"90017"},{"Location":"BEAZLEY GROUP","Address":"725 S Figueroa St","City":"Los Angeles","State":"CA","Zip":"90017"},{"Location":"BERKLEY CUSTOM INS. SVC","Address":"725 S Figueroa St 2200","City":"Los Angeles","State":"CA","Zip":"90017"},{"Location":"BEVERLY MANAGEMENT GROUP INC","Address":"888 S Figueroa St 1900","City":"Los Angeles","State":"CA","Zip":"90017"},{"Location":"BIG MAMA'S AND PAPA'S PIZZERIA","Address":"657 S Flower St","City":"Los Angeles","State":"CA","Zip":"90017"},{"Location":"BIG WANGS","Address":"801 S Grand Ave","City":"Los Angeles","State":"CA","Zip":"90017"},{"Location":"BLACK DIAMOND FOOD GROUP","Address":"888 S Figueroa St 120","City":"Los Angeles","State":"CA","Zip":"90017"},{"Location":"BOND LOGISTIX LLC","Address":"777 S Figueroa St 8","City":"Los Angeles","State":"CA","Zip":"90017"},{"Location":"BROWN AND RIDING","Address":"777 S Figueroa St 2550","City":"Los Angeles","State":"CA","Zip":"90017"},{"Location":"BUCHALTER NEMER","Address":"1000 Wilshire Blvd 1500","City":"Los Angeles","State":"CA","Zip":"90017"},{"Location":"BURO HAPPOLD","Address":"800 Wilshire Blvd 16","City":"Los Angeles","State":"CA","Zip":"90017"},{"Location":"CALDWELL LESLIE &PROCTER","Address":"725 S Figueroa St 31","City":"Los Angeles","State":"CA","Zip":"90017"},{"Location":"CALIFORNIA PIZZA KITCHEN #121","Address":"735 S Figueroa St 305","City":"Los Angeles","State":"CA","Zip":"90017"},{"Location":"CALIFORNIA STATE CONTROL","Address":"777 S Figueroa St 48","City":"Los Angeles","State":"CA","Zip":"90017"},{"Location":"CALIFORNIA UNITED BANK","Address":"818 W 7th St 220","City":"Los Angeles","State":"CA","Zip":"90017"},{"Location":"CARA ECHOVA UBS","Address":"777 S Figueroa St 5100","City":"Los Angeles","State":"CA","Zip":"90017"},{"Location":"CARA ECHOVA UBS","Address":"777 S Figueroa St 52","City":"Los Angeles","State":"CA","Zip":"90017"},{"Location":"CARA ECHOVA UBS","Address":"777 S Figueroa St 5200","City":"Los Angeles","State":"CA","Zip":"90017"},{"Location":"CAREMORE","Address":"303 S Union Ave","City":"Los Angeles","State":"CA","Zip":"90017"},{"Location":"CASEY'S BAR AND GRILL","Address":"613 S Grand Ave","City":"Los Angeles","State":"CA","Zip":"90017"},{"Location":"CBRE%2FCAPITALONE","Address":"888 W 6th St 15","City":"Los Angeles","State":"CA","Zip":"90017"},{"Location":"CHICAGO TITLE COMPANY","Address":"725 S Figueroa St 200","City":"Los Angeles","State":"CA","Zip":"90017"},{"Location":"CITY ATHLETIX","Address":"626 Wilshire Blvd","City":"Los Angeles","State":"CA","Zip":"90017"},{"Location":"CITY TAVERN DOWNTOWN LA","Address":"735 S Figueroa St","City":"Los Angeles","State":"CA","Zip":"90017"},{"Location":"CLARK & TREVITHICK","Address":"800 Wilshire Blvd 12","City":"Los Angeles","State":"CA","Zip":"90017"},{"Location":"CLIFTON LARSON ALLEN LLP","Address":"915 Wilshire Blvd 2250","City":"Los Angeles","State":"CA","Zip":"90017"},{"Location":"CMB%2FGBM HSBC","Address":"660 S Figueroa St 800","City":"Los Angeles","State":"CA","Zip":"90017"},{"Location":"COIN WASH","Address":"1472 W 3rd St","City":"Los Angeles","State":"CA","Zip":"90017"},{"Location":"COLLIERS INTERNATIONAL","Address":"865 S Figueroa St 35flr","City":"Los Angeles","State":"CA","Zip":"90017"},{"Location":"COMMUNITY ADVOCATES INC","Address":"865 S Figueroa St 3335","City":"Los Angeles","State":"CA","Zip":"90017"},{"Location":"CPF 801 TOWER LLC","Address":"801 S Figueroa St 1000","City":"Los Angeles","State":"CA","Zip":"90017"},{"Location":"CRT%2FTANAKA","Address":"617 W 7th St","City":"Los Angeles","State":"CA","Zip":"90017"},{"Location":"CRUMP LIFE INSURANCE","Address":"626 Wilshire Blvd 320","City":"Los Angeles","State":"CA","Zip":"90017"},{"Location":"CV STARR & CO","Address":"1000 Wilshire Blvd Flr22","City":"Los Angeles","State":"CA","Zip":"90017"},{"Location":"CYBERVERSE","Address":"600 W 7th St 140","City":"Los Angeles","State":"CA","Zip":"90017"},{"Location":"DAILY GRILL","Address":"612 S Flower St","City":"Los Angeles","State":"CA","Zip":"90017"},{"Location":"DAVIS WRIGHT TREMAINE","Address":"865 S Agueroa St","City":"Los Angeles","State":"CA","Zip":"90017"},{"Location":"DAVITA #661 WILSHIRE","Address":"1212 Wilshire Blvd","City":"Los Angeles","State":"CA","Zip":"90017"},{"Location":"DBA LAW","Address":"1055 Wilshire Blvd 1966","City":"Los Angeles","State":"CA","Zip":"90017"},{"Location":"DBS BANK LTD  LA AGENCY","Address":"725 S Figueroa St 2000","City":"Los Angeles","State":"CA","Zip":"90017"},{"Location":"DEA - 2","Address":"1340 W 6th St","City":"Los Angeles","State":"CA","Zip":"90017"},{"Location":"DEALER WEB","Address":"865 S Figueroa St","City":"Los Angeles","State":"CA","Zip":"90017"},{"Location":"DERBY CURTIS","Address":"800 Wilshire Blvd 1450","City":"Los Angeles","State":"CA","Zip":"90017"},{"Location":"DISCOVERY DT","Address":"725 S Figueroa St 1505","City":"Los Angeles","State":"CA","Zip":"90017"},{"Location":"DIVERSIFIED EDUCATION CO","Address":"1670 Wilshire Blvd","City":"Los Angeles","State":"CA","Zip":"90017"},{"Location":"DONG YOON INC","Address":"1523 Cambria St","City":"Los Angeles","State":"CA","Zip":"90017"},{"Location":"DOWNTOWN CENTER STUDIOS","Address":"461 S Boylston St","City":"Los Angeles","State":"CA","Zip":"90017"},{"Location":"DOWNTOWN CENTER STUDIOS","Address":"1201 W 5th St","City":"Los Angeles","State":"CA","Zip":"90017"},{"Location":"DRUG ENFORCEMENT SCDTF%2FHIDTA","Address":"1340 W 6th St","City":"Los Angeles","State":"CA","Zip":"90017"},{"Location":"DUANE MORRIS","Address":"865 S Figueroa St 3100","City":"Los Angeles","State":"CA","Zip":"90017"},{"Location":"DUBLINS IRISH WHISKEY PUB","Address":"815 W 7th St","City":"Los Angeles","State":"CA","Zip":"90017"},{"Location":"EDWIN M ASHLEY MD INC","Address":"1127 Wilshire Blvd","City":"Los Angeles","State":"CA","Zip":"90017"},{"Location":"EL BARON RESTAURANT AND BAKERY","Address":"1520 W 7th St","City":"Los Angeles","State":"CA","Zip":"90017"},{"Location":"ELECTRONIC TRANSACTION CLEARIN","Address":"660 S Figueroa St 1450","City":"Los Angeles","State":"CA","Zip":"90017"},{"Location":"ENDURANCE  INSURANCE","Address":"725 S Figueroa St 2100","City":"Los Angeles","State":"CA","Zip":"90017"},{"Location":"ENGINE CO 28","Address":"644 S Figueroa St","City":"Los Angeles","State":"CA","Zip":"90017"},{"Location":"ENGINE CO. 28","Address":"644 S Figueroa St","City":"Los Angeles","State":"CA","Zip":"90017"},{"Location":"ERNST & YOUNG LLP","Address":"725 S Figueroa St 200","City":"Los Angeles","State":"CA","Zip":"90017"},{"Location":"EVERETT HARRIS & CO","Address":"888 W 6th St","City":"Los Angeles","State":"CA","Zip":"90017"},{"Location":"FINEMAN WEST & CO LLP","Address":"801 S Figueroa St 1000","City":"Los Angeles","State":"CA","Zip":"90017"},{"Location":"FIRST AMERICAN TITLE","Address":"777 S Figueroa St 400","City":"Los Angeles","State":"CA","Zip":"90017"},{"Location":"FIRST REPUBLIC","Address":"888 S Figueroa St 100","City":"Los Angeles","State":"CA","Zip":"90017"},{"Location":"FOGO DE CHAO","Address":"800 S Figueroa St","City":"Los Angeles","State":"CA","Zip":"90017"},{"Location":"GARTENBERG GELFAND WASSON","Address":"801 S Figueroa St 2170","City":"Los Angeles","State":"CA","Zip":"90017"},{"Location":"GOLD'S GYM DOWNTOWN LA","Address":"735 S Figueroa St 100","City":"Los Angeles","State":"CA","Zip":"90017"},{"Location":"GOLDEN BOY ENTERPRISES LLC","Address":"626 Wilshire Blvd 350","City":"Los Angeles","State":"CA","Zip":"90017"},{"Location":"GREAT AMERICAN CUSTOM","Address":"725 S Figueroa St 3400","City":"Los Angeles","State":"CA","Zip":"90017"},{"Location":"GREAT STEAK  SURF CITY","Address":"1070 Wilshire Blvd","City":"Los Angeles","State":"CA","Zip":"90017"},{"Location":"GREEN DOT AMERICA","Address":"626 Wilshire Blvd 330","City":"Los Angeles","State":"CA","Zip":"90017"},{"Location":"GREEN HUT CAFE LLC","Address":"808 W 7th St","City":"Los Angeles","State":"CA","Zip":"90017"},{"Location":"GSA","Address":"725 S Figueroa St 1300","City":"Los Angeles","State":"CA","Zip":"90017"},{"Location":"GUATEMALA RESTAURANT","Address":"743 S Union Ave","City":"Los Angeles","State":"CA","Zip":"90017"},{"Location":"GUILD NEW AMERICAN BISTRO","Address":"611 W 7th St","City":"Los Angeles","State":"CA","Zip":"90017"},{"Location":"GVA DAUM","Address":"801 S Figueroa St 600","City":"Los Angeles","State":"CA","Zip":"90017"},{"Location":"HANA FINANCIAL INC","Address":"1000 Wilshire Blvd 20fl","City":"Los Angeles","State":"CA","Zip":"90017"},{"Location":"HANK'S BAR","Address":"840 S Grand Ave","City":"Los Angeles","State":"CA","Zip":"90017"},{"Location":"HCMC LEGAL","Address":"800 Wilshire Blvd","City":"Los Angeles","State":"CA","Zip":"90017"},{"Location":"HENNIGAN%2C BENNETT & DORMAN","Address":"865 S Figueroa St 2900","City":"Los Angeles","State":"CA","Zip":"90017"},{"Location":"HITACHI CONSULTING","Address":"888 S Figueroa St 1700","City":"Los Angeles","State":"CA","Zip":"90017"},{"Location":"HJB MANAGEMENT","Address":"801 S Figueroa St 1050","City":"Los Angeles","State":"CA","Zip":"90017"},{"Location":"HOTCHKIS AND WILEY","Address":"725 S Figueroa St 39fl","City":"Los Angeles","State":"CA","Zip":"90017"},{"Location":"HSBC BANK #607019","Address":"660 S Figueroa St","City":"Los Angeles","State":"CA","Zip":"90017"},{"Location":"HSBC BANK #819269","Address":"660 S Figueroa St","City":"Los Angeles","State":"CA","Zip":"90017"},{"Location":"HYPOTHESIS","Address":"811 W 7th St 600","City":"Los Angeles","State":"CA","Zip":"90017"},{"Location":"IDB BANK","Address":"888 S Figueroa St 550","City":"Los Angeles","State":"CA","Zip":"90017"},{"Location":"IRONSHORE HOLDING US INC","Address":"600 Wilshire Blvd 1600","City":"Los Angeles","State":"CA","Zip":"90017"},{"Location":"ISRAEL DISCOUNT BANK","Address":"888 S Figueroa St 550","City":"Los Angeles","State":"CA","Zip":"90017"},{"Location":"IX2 CENTER","Address":"609 W 7th St","City":"Los Angeles","State":"CA","Zip":"90017"},{"Location":"JACKSON LEWIS LLP","Address":"725 S Figueroa St 2500","City":"Los Angeles","State":"CA","Zip":"90017"},{"Location":"JACOBS ENGINEERING GROUP","Address":"600 Wilshire Blvd 1000","City":"Los Angeles","State":"CA","Zip":"90017"},{"Location":"JAMPOL ZIMET LLP","Address":"800 Wilshire Blvd 1400","City":"Los Angeles","State":"CA","Zip":"90017"},{"Location":"JOHN PEREZ FOR CONTROLLE","Address":"777 S Figueroa St 4050","City":"Los Angeles","State":"CA","Zip":"90017"},{"Location":"KACHI DELI CAFE","Address":"1055 Wilshire Blvd Gnd1","City":"Los Angeles","State":"CA","Zip":"90017"},{"Location":"KAUFMAN LEGAL GROUP  APC","Address":"777 S Figueroa St 4050","City":"Los Angeles","State":"CA","Zip":"90017"},{"Location":"KEGEL TOBIN & TRUCE APC","Address":"800 Wilshire Blvd 1100","City":"Los Angeles","State":"CA","Zip":"90017"},{"Location":"KLINEDINST PC","Address":"777 S Figueroa St 28","City":"Los Angeles","State":"CA","Zip":"90017"},{"Location":"KNEAFSEY & FRIEND LLP","Address":"800 Wilshire Blvd 710","City":"Los Angeles","State":"CA","Zip":"90017"},{"Location":"KONNECT PUBLIC RELATIONS","Address":"888 S Figueroa St 1000","City":"Los Angeles","State":"CA","Zip":"90017"},{"Location":"L A CENTER STUDIOS #2","Address":"1201 W 5th St T100","City":"Los Angeles","State":"CA","Zip":"90017"},{"Location":"L.A. CARE HEALTH PLAN","Address":"1055 W 7th St","City":"Los Angeles","State":"CA","Zip":"90017"},{"Location":"LA CARE HEALTPLAN","Address":"1200 W 7th St","City":"Los Angeles","State":"CA","Zip":"90017"},{"Location":"LA MYUNG PUM","Address":"760 Valencia St","City":"Los Angeles","State":"CA","Zip":"90017"},{"Location":"LA UNIVERSAL PRESCHOOL","Address":"888 S Figueroa St 800","City":"Los Angeles","State":"CA","Zip":"90017"},{"Location":"LAGRANT COMMUNICATIONS","Address":"600 Wilshire Blvd 1520","City":"Los Angeles","State":"CA","Zip":"90017"},{"Location":"LAPARRILLA","Address":"1300 Wilshire Blvd","City":"Los Angeles","State":"CA","Zip":"90017"},{"Location":"LAWYERS TITLE","Address":"888 S Figueroa St 2100","City":"Los Angeles","State":"CA","Zip":"90017"},{"Location":"LECLAIR-RYAN","Address":"725 S Figueroa St","City":"Los Angeles","State":"CA","Zip":"90017"},{"Location":"LEGAL MANAGEMENT","Address":"1055 Wilshire Blvd 1800","City":"Los Angeles","State":"CA","Zip":"90017"},{"Location":"LENOX ADVISORS INC","Address":"865 S Figueroa St 2690","City":"Los Angeles","State":"CA","Zip":"90017"},{"Location":"LIGHTFOOT STEINGARD","Address":"800 Wilshire Blvd 1050","City":"Los Angeles","State":"CA","Zip":"90017"},{"Location":"LJDF&A","Address":"865 S Figueroa St 3200","City":"Los Angeles","State":"CA","Zip":"90017"},{"Location":"LOS AMIGOS RESTAURANT","Address":"1447 W 3rd St","City":"Los Angeles","State":"CA","Zip":"90017"},{"Location":"LOS AMIGOS-REST TAQUERIA","Address":"1445 W 3rd St","City":"Los Angeles","State":"CA","Zip":"90017"},{"Location":"LOS ANGELES CENTER STUDIOS","Address":"1201 W 5th St T110","City":"Los Angeles","State":"CA","Zip":"90017"},{"Location":"LOS ANGELES CLIPPERS","Address":"865 S Figueroa St 3300","City":"Los Angeles","State":"CA","Zip":"90017"},{"Location":"LOS ANGELES COUNTY ASSOCIATION","Address":"1055 W 7th St 2700","City":"Los Angeles","State":"CA","Zip":"90017"},{"Location":"LOS ANGELES POLICE PROTEC","Address":"1308 W 8th St","City":"Los Angeles","State":"CA","Zip":"90017"},{"Location":"LOTERIA GRILL","Address":"735 S Figueroa St","City":"Los Angeles","State":"CA","Zip":"90017"},{"Location":"LYNBERG & WATKINS","Address":"888 S Figueroa St 16","City":"Los Angeles","State":"CA","Zip":"90017"},{"Location":"MACY'S WEST 487","Address":"750 W 7th St","City":"Los Angeles","State":"CA","Zip":"90017"},{"Location":"MACY'S WEST 487 BR","Address":"920 W 7th St","City":"Los Angeles","State":"CA","Zip":"90017"},{"Location":"MANNING & MARDER","Address":"801 S Figueroa St 15","City":"Los Angeles","State":"CA","Zip":"90017"},{"Location":"MANULIFE FINANCIAL","Address":"865 S Figueroa St 3320","City":"Los Angeles","State":"CA","Zip":"90017"},{"Location":"MARGARITAS MEXICAN RESTURANT","Address":"607 S Union Ave","City":"Los Angeles","State":"CA","Zip":"90017"},{"Location":"MARSH N MCLENNAN CO","Address":"777 S Figueroa St 2200","City":"Los Angeles","State":"CA","Zip":"90017"},{"Location":"MARSHALL & SWIFT%2FBOECKH","Address":"777 S Figueroa St 1200","City":"Los Angeles","State":"CA","Zip":"90017"},{"Location":"MGO","Address":"777 S Figueroa St 2500","City":"Los Angeles","State":"CA","Zip":"90017"},{"Location":"MIL SALES COMPANY","Address":"1215 W 6th St","City":"Los Angeles","State":"CA","Zip":"90017"},{"Location":"MITSUI SUMITOMO","Address":"777 S Figueroa St 36","City":"Los Angeles","State":"CA","Zip":"90017"},{"Location":"MIZRAHI TEFAHOT BANK","Address":"800 Wilshire Blvd 1410","City":"Los Angeles","State":"CA","Zip":"90017"},{"Location":"MONTELEONE&MCCROY LLP","Address":"725 S Figueroa St 3200","City":"Los Angeles","State":"CA","Zip":"90017"},{"Location":"MORTON'S STEAKHOUSE","Address":"735 S Figueroa St 207","City":"Los Angeles","State":"CA","Zip":"90017"},{"Location":"NOSSAMAN LLP","Address":"777 S Figueroa St 34","City":"Los Angeles","State":"CA","Zip":"90017"},{"Location":"OAKMONT CORP","Address":"865 S Figueroa St 700","City":"Los Angeles","State":"CA","Zip":"90017"},{"Location":"OCTOPUS JAPANESE RESTAUR","Address":"729 W 7th St","City":"Los Angeles","State":"CA","Zip":"90017"},{"Location":"ONNI BUILDING","Address":"600 Wilshire Blvd 960","City":"Los Angeles","State":"CA","Zip":"90017"},{"Location":"ORRICK","Address":"777 S Figueroa St 3200","City":"Los Angeles","State":"CA","Zip":"90017"},{"Location":"PACIFIC DINING CAR","Address":"1310 W 6th St","City":"Los Angeles","State":"CA","Zip":"90017"},{"Location":"PARIS BARBERSHOP","Address":"752 S Union Ave","City":"Los Angeles","State":"CA","Zip":"90017"},{"Location":"PATRICK CLERK DDS","Address":"1200 Wilshire Blvd 205","City":"Los Angeles","State":"CA","Zip":"90017"},{"Location":"PEACE   OVER  VIOLENCE","Address":"1015 Wilshire Blvd","City":"Los Angeles","State":"CA","Zip":"90017"},{"Location":"PERSHING LLC","Address":"777 S Figueroa St","City":"Los Angeles","State":"CA","Zip":"90017"},{"Location":"PILLSBURY WITHROP SHAW PITTMAN","Address":"725 S Figueroa St 2800","City":"Los Angeles","State":"CA","Zip":"90017"},{"Location":"PIZZA ST PAUL INC","Address":"888 Wilshire Blvd","City":"Los Angeles","State":"CA","Zip":"90017"},{"Location":"PLAN CHECK DOWNTOWN II","Address":"1111 Wilshire Blvd 103","City":"Los Angeles","State":"CA","Zip":"90017"},{"Location":"PLANET PIZZA","Address":"1411 W 3rd St","City":"Los Angeles","State":"CA","Zip":"90017"},{"Location":"PROAMERICA BANK","Address":"888 W 6th St Fl2","City":"Los Angeles","State":"CA","Zip":"90017"},{"Location":"PROPERTY ID","Address":"1001 Wilshire Blvd","City":"Los Angeles","State":"CA","Zip":"90017"},{"Location":"QUINN EMANUEL","Address":"865 S Figueroa St","City":"Los Angeles","State":"CA","Zip":"90017"},{"Location":"RALPH M PARSONS FOUNDATI","Address":"888 W 6th St 7","City":"Los Angeles","State":"CA","Zip":"90017"},{"Location":"RBC CAPITAL MARKETS","Address":"777 S Figueroa St 850","City":"Los Angeles","State":"CA","Zip":"90017"},{"Location":"REELZCHANNEL - LOS ANGELES","Address":"1201 W 5th St M345","City":"Los Angeles","State":"CA","Zip":"90017"},{"Location":"REGENCY CENTERS","Address":"915 Wilshire Blvd 2200","City":"Los Angeles","State":"CA","Zip":"90017"},{"Location":"RESOURCES GLOBAL- RGP","Address":"1000 Wilshire Blvd 1600","City":"Los Angeles","State":"CA","Zip":"90017"},{"Location":"REST. LAS GUADALUPANAS","Address":"1422 1%2F2 W 6th St","City":"Los Angeles","State":"CA","Zip":"90017"},{"Location":"ROBINSON DI LANDO%2C APLC","Address":"800 Wilshire Blvd 750","City":"Los Angeles","State":"CA","Zip":"90017"},{"Location":"RODRIGUEZ HORII CHOI LLP","Address":"777 S Figueroa St 34","City":"Los Angeles","State":"CA","Zip":"90017"},{"Location":"SAN JOSE ARMY SUPPLY","Address":"1413 W 3rd St","City":"Los Angeles","State":"CA","Zip":"90017"},{"Location":"SECURITAS SECURITY SERVICES","Address":"1055 Wilshire Blvd 1600","City":"Los Angeles","State":"CA","Zip":"90017"},{"Location":"SEDGWICK DETERI MORAN & ARNOLD","Address":"801 S Figueroa St","City":"Los Angeles","State":"CA","Zip":"90017"},{"Location":"SENSIS AGENCY","Address":"811 Wilshire Blvd 2050","City":"Los Angeles","State":"CA","Zip":"90017"},{"Location":"SIC WEST 7TH LLC","Address":"617 W 7th St","City":"Los Angeles","State":"CA","Zip":"90017"},{"Location":"SOLETO","Address":"801 S Figueroa St","City":"Los Angeles","State":"CA","Zip":"90017"},{"Location":"SPA PALACE","Address":"620 S Union Ave","City":"Los Angeles","State":"CA","Zip":"90017"},{"Location":"STANDARD PARKING CORPORATION","Address":"1055 W 7th St 1500","City":"Los Angeles","State":"CA","Zip":"90017"},{"Location":"STUDLEY","Address":"777 S Figueroa St 30","City":"Los Angeles","State":"CA","Zip":"90017"},{"Location":"TAX GROUP PARTNERS","Address":"777 S Figueroa St 28","City":"Los Angeles","State":"CA","Zip":"90017"},{"Location":"TAYLOR BLESSEY LLP","Address":"1000 Wilshire Blvd 600","City":"Los Angeles","State":"CA","Zip":"90017"},{"Location":"THE ANGELOFF COMPANY","Address":"626 Wilshire Blvd 727","City":"Los Angeles","State":"CA","Zip":"90017"},{"Location":"THE BANK OF TOKYO","Address":"777 S Figueroa St 600","City":"Los Angeles","State":"CA","Zip":"90017"},{"Location":"THE CHICAGO SCHOOL OF LOS ANG","Address":"617 W 7th St 8thfl","City":"Los Angeles","State":"CA","Zip":"90017"},{"Location":"THE COUNTER DOWNTOWN","Address":"725 W 7th St","City":"Los Angeles","State":"CA","Zip":"90017"},{"Location":"THOMAS PROPERTIES GROUP","Address":"800 S Hope St","City":"Los Angeles","State":"CA","Zip":"90017"},{"Location":"TJX COMPANIES","Address":"888 S Figueroa St","City":"Los Angeles","State":"CA","Zip":"90017"},{"Location":"TRINCENTRO","Address":"1602 W 6th St","City":"Los Angeles","State":"CA","Zip":"90017"},{"Location":"TRUMAN & ELLIOTT LLP","Address":"626 Wilshire Blvd 550","City":"Los Angeles","State":"CA","Zip":"90017"},{"Location":"TRUST COMPANY OF THE WEST","Address":"865 S Figueroa St 2100","City":"Los Angeles","State":"CA","Zip":"90017"},{"Location":"TURCIOS INCOME TAX","Address":"1513 W 6th St","City":"Los Angeles","State":"CA","Zip":"90017"},{"Location":"UBS","Address":"777 S Figueroa St 50","City":"Los Angeles","State":"CA","Zip":"90017"},{"Location":"UBS FINANCIAL SERVICES","Address":"725 S Figueroa St 4100","City":"Los Angeles","State":"CA","Zip":"90017"},{"Location":"UFG INSURANCE","Address":"725 S Figueroa St 1870","City":"Los Angeles","State":"CA","Zip":"90017"},{"Location":"UNIHEALTH FOUNDATION","Address":"800 Wilshire Blvd 1300","City":"Los Angeles","State":"CA","Zip":"90017"},{"Location":"UNITED AMERICAN INDIAN","Address":"1125 W 6th St 103","City":"Los Angeles","State":"CA","Zip":"90017"},{"Location":"US ARMY CORPS OF ENGINEERS","Address":"915 Wilshire Blvd","City":"Los Angeles","State":"CA","Zip":"90017"},{"Location":"US DEPARTMENT OF HUD","Address":"611 W 6th St","City":"Los Angeles","State":"CA","Zip":"90017"},{"Location":"US DEPT OF HUD OIG","Address":"611 W 6th St","City":"Los Angeles","State":"CA","Zip":"90017"},{"Location":"US HEALTH WORKS","Address":"1313 W 8th St 100","City":"Los Angeles","State":"CA","Zip":"90017"},{"Location":"USDOJ%2FCRS","Address":"888 S Figueroa St 1880","City":"Los Angeles","State":"CA","Zip":"90017"},{"Location":"VANIR CONSTRUCTION MANAG","Address":"600 Wilshire Blvd 870","City":"Los Angeles","State":"CA","Zip":"90017"},{"Location":"VASQUEZ & CO LLP","Address":"801 S Grand Ave 400","City":"Los Angeles","State":"CA","Zip":"90017"},{"Location":"WEDBUSH MORGAN","Address":"1000 Wilshire Blvd","City":"Los Angeles","State":"CA","Zip":"90017"},{"Location":"WEINGART FOUNDATION","Address":"1055 W 7th St 3200","City":"Los Angeles","State":"CA","Zip":"90017"},{"Location":"WESIERSKI & ZUREK","Address":"1000 Wilshire Blvd 1750","City":"Los Angeles","State":"CA","Zip":"90017"},{"Location":"WEST MONROE PARTNERS","Address":"1000 Wilshire Blvd","City":"Los Angeles","State":"CA","Zip":"90017"},{"Location":"WILLIAMS & COMPANY  CPAS","Address":"1000 Wilshire Blvd","City":"Los Angeles","State":"CA","Zip":"90017"},{"Location":"WILLIS INSURANCE SERVICE OF CA","Address":"801 S Figueroa St 700","City":"Los Angeles","State":"CA","Zip":"90017"},{"Location":"WOKCANO","Address":"800 W 7th St","City":"Los Angeles","State":"CA","Zip":"90017"},{"Location":"WORLD OF WONDERZ LLC","Address":"1200 Wilshire Blvd 2400","City":"Los Angeles","State":"CA","Zip":"90017"},{"Location":"ZUBER LAWLER & DEL DUCA LLP","Address":"777 S Figueroa St 37th","City":"Los Angeles","State":"CA","Zip":"90017"},{"Location":"ZURICH","Address":"777 S Figueroa St 3900","City":"Los Angeles","State":"CA","Zip":"90017"},{"Location":"10 E LLC","Address":"811 W 7th St","City":"Los Angeles","State":"CA","Zip":"90017"},{"Location":"1111 WILSHIRE","Address":"1111 Wilshire Blvd","City":"Los Angeles","State":"CA","Zip":"90017"},{"Location":"800 DEGREE PIZZERIA","Address":"800 Wilshire Blvd 102","City":"Los Angeles","State":"CA","Zip":"90017"},{"Location":"ACLU FOUNDATION OF SOUTH CAL","Address":"1313 W 8th St","City":"Los Angeles","State":"CA","Zip":"90017"},{"Location":"AEG - 8TH FL.","Address":"865 S Figueroa St 800","City":"Los Angeles","State":"CA","Zip":"90017"},{"Location":"AEG - IT","Address":"865 S Figueroa St 2300","City":"Los Angeles","State":"CA","Zip":"90017"},{"Location":"AG 800 WILSHIRE OWNER LP","Address":"800 Wilshire Blvd 310","City":"Los Angeles","State":"CA","Zip":"90017"},{"Location":"AIG","Address":"777 S Figueroa St 30","City":"Los Angeles","State":"CA","Zip":"90017"},{"Location":"AIG GLOBAL REAL ESTATE","Address":"777 S Figueroa St Fl16","City":"Los Angeles","State":"CA","Zip":"90017"},{"Location":"AL BROOKS TICKETS","Address":"801 S Flower St 5th","City":"Los Angeles","State":"CA","Zip":"90017"},{"Location":"AMERICA VOICE%2C LLC","Address":"600 Wilshire Blvd 1620","City":"Los Angeles","State":"CA","Zip":"90017"},{"Location":"AMERICAN EXPRESS","Address":"888 S Figueroa St 1770","City":"Los Angeles","State":"CA","Zip":"90017"},{"Location":"ANGELS NURSING CENTER","Address":"415 S Union Ave","City":"Los Angeles","State":"CA","Zip":"90017"},{"Location":"APPLIED FACTS","Address":"700 Wilshire Blvd 520","City":"Los Angeles","State":"CA","Zip":"90017"},{"Location":"ARNOLD PORTER","Address":"777 S Figueroa St 4400","City":"Los Angeles","State":"CA","Zip":"90017"},{"Location":"ATF","Address":"888 S Figueroa St 1750","City":"Los Angeles","State":"CA","Zip":"90017"},{"Location":"ATHENA PARKING","Address":"818 W 7th St 860","City":"Los Angeles","State":"CA","Zip":"90017"},{"Location":"ATITLAN EXPRESS","Address":"1624 W 6th St","City":"Los Angeles","State":"CA","Zip":"90017"},{"Location":"BAR AND LONGE SABOR","Address":"847 S Union Ave","City":"Los Angeles","State":"CA","Zip":"90017"},{"Location":"BARKER PACIFIC GROUP","Address":"626 Wilshire Blvd 900","City":"Los Angeles","State":"CA","Zip":"90017"},{"Location":"BAUTE & TIDUS  LLP","Address":"777 S Figueroa St 49","City":"Los Angeles","State":"CA","Zip":"90017"},{"Location":"BBVA LA LPO","Address":"801 S Figueroa St 11thf","City":"Los Angeles","State":"CA","Zip":"90017"},{"Location":"BERKLEY CUSTOM INS. SVC","Address":"725 S Figueroa St 2200","City":"Los Angeles","State":"CA","Zip":"90017"},{"Location":"BEVERLY MANAGEMENT GROUP INC","Address":"888 S Figueroa St 1900","City":"Los Angeles","State":"CA","Zip":"90017"},{"Location":"BIG MAMA'S AND PAPA'S PIZZERIA","Address":"657 S Flower St","City":"Los Angeles","State":"CA","Zip":"90017"},{"Location":"BIG WANGS","Address":"801 S Grand Ave","City":"Los Angeles","State":"CA","Zip":"90017"},{"Location":"BLACK DIAMOND FOOD GROUP","Address":"888 S Figueroa St 120","City":"Los Angeles","State":"CA","Zip":"90017"},{"Location":"BOND LOGISTIX LLC","Address":"777 S Figueroa St 8","City":"Los Angeles","State":"CA","Zip":"90017"},{"Location":"BROWN AND RIDING","Address":"777 S Figueroa St 2550","City":"Los Angeles","State":"CA","Zip":"90017"},{"Location":"BUCHALTER NEMER","Address":"1000 Wilshire Blvd 1500","City":"Los Angeles","State":"CA","Zip":"90017"},{"Location":"BURO HAPPOLD","Address":"800 Wilshire Blvd 16","City":"Los Angeles","State":"CA","Zip":"90017"},{"Location":"CALDWELL LESLIE &PROCTER","Address":"725 S Figueroa St 31","City":"Los Angeles","State":"CA","Zip":"90017"},{"Location":"CALIFORNIA PIZZA KITCHEN #121","Address":"735 S Figueroa St 305","City":"Los Angeles","State":"CA","Zip":"90017"},{"Location":"CALIFORNIA STATE CONTROL","Address":"777 S Figueroa St 48","City":"Los Angeles","State":"CA","Zip":"90017"},{"Location":"CALIFORNIA UNITED BANK","Address":"818 W 7th St 220","City":"Los Angeles","State":"CA","Zip":"90017"},{"Location":"CARA ECHOVA UBS","Address":"777 S Figueroa St 5200","City":"Los Angeles","State":"CA","Zip":"90017"},{"Location":"CARA ECHOVA UBS","Address":"777 S Figueroa St 52","City":"Los Angeles","State":"CA","Zip":"90017"},{"Location":"CARA ECHOVA UBS","Address":"777 S Figueroa St 5100","City":"Los Angeles","State":"CA","Zip":"90017"},{"Location":"CAREMORE","Address":"303 S Union Ave","City":"Los Angeles","State":"CA","Zip":"90017"},{"Location":"CASEY'S BAR AND GRILL","Address":"613 S Grand Ave","City":"Los Angeles","State":"CA","Zip":"90017"},{"Location":"CBRE%2FCAPITALONE","Address":"888 W 6th St 15","City":"Los Angeles","State":"CA","Zip":"90017"},{"Location":"CHICAGO TITLE COMPANY","Address":"725 S Figueroa St 200","City":"Los Angeles","State":"CA","Zip":"90017"},{"Location":"CITY ATHLETIX","Address":"626 Wilshire Blvd","City":"Los Angeles","State":"CA","Zip":"90017"},{"Location":"CITY TAVERN DOWNTOWN LA","Address":"735 S Figueroa St","City":"Los Angeles","State":"CA","Zip":"90017"},{"Location":"CLARK & TREVITHICK","Address":"800 Wilshire Blvd 12","City":"Los Angeles","State":"CA","Zip":"90017"},{"Location":"CLIFTON LARSON ALLEN LLP","Address":"915 Wilshire Blvd 2250","City":"Los Angeles","State":"CA","Zip":"90017"},{"Location":"CMB%2FGBM HSBC","Address":"660 S Figueroa St 800","City":"Los Angeles","State":"CA","Zip":"90017"},{"Location":"COIN WASH","Address":"1472 W 3rd St","City":"Los Angeles","State":"CA","Zip":"90017"},{"Location":"COLLIERS INTERNATIONAL","Address":"865 S Figueroa St 35flr","City":"Los Angeles","State":"CA","Zip":"90017"},{"Location":"COMMUNITY ADVOCATES INC","Address":"865 S Figueroa St 3335","City":"Los Angeles","State":"CA","Zip":"90017"},{"Location":"CPF 801 TOWER LLC","Address":"801 S Figueroa St 1000","City":"Los Angeles","State":"CA","Zip":"90017"},{"Location":"CRT%2FTANAKA","Address":"617 W 7th St","City":"Los Angeles","State":"CA","Zip":"90017"},{"Location":"CRUMP LIFE INSURANCE","Address":"626 Wilshire Blvd 320","City":"Los Angeles","State":"CA","Zip":"90017"},{"Location":"CV STARR & CO","Address":"1000 Wilshire Blvd Flr22","City":"Los Angeles","State":"CA","Zip":"90017"},{"Location":"CYBERVERSE","Address":"600 W 7th St 140","City":"Los Angeles","State":"CA","Zip":"90017"},{"Location":"DAILY GRILL","Address":"612 S Flower St","City":"Los Angeles","State":"CA","Zip":"90017"},{"Location":"DAVIS WRIGHT TREMAINE","Address":"865 S Agueroa St","City":"Los Angeles","State":"CA","Zip":"90017"},{"Location":"DAVITA #661 WILSHIRE","Address":"1212 Wilshire Blvd","City":"Los Angeles","State":"CA","Zip":"90017"},{"Location":"DBA LAW","Address":"1055 Wilshire Blvd 1966","City":"Los Angeles","State":"CA","Zip":"90017"},{"Location":"DBS BANK LTD  LA AGENCY","Address":"725 S Figueroa St 2000","City":"Los Angeles","State":"CA","Zip":"90017"},{"Location":"DEA - 2","Address":"1340 W 6th St","City":"Los Angeles","State":"CA","Zip":"90017"},{"Location":"DEALER WEB","Address":"865 S Figueroa St","City":"Los Angeles","State":"CA","Zip":"90017"},{"Location":"DERBY CURTIS","Address":"800 Wilshire Blvd 1450","City":"Los Angeles","State":"CA","Zip":"90017"},{"Location":"DISCOVERY DT","Address":"725 S Figueroa St 1505","City":"Los Angeles","State":"CA","Zip":"90017"},{"Location":"DIVERSIFIED EDUCATION CO","Address":"1670 Wilshire Blvd","City":"Los Angeles","State":"CA","Zip":"90017"},{"Location":"DONG YOON INC","Address":"1523 Cambria St","City":"Los Angeles","State":"CA","Zip":"90017"},{"Location":"DOWNTOWN CENTER STUDIOS","Address":"461 S Boylston St","City":"Los Angeles","State":"CA","Zip":"90017"},{"Location":"DOWNTOWN CENTER STUDIOS","Address":"1201 W 5th St","City":"Los Angeles","State":"CA","Zip":"90017"},{"Location":"DRUG ENFORCEMENT SCDTF%2FHIDTA","Address":"1340 W 6th St","City":"Los Angeles","State":"CA","Zip":"90017"},{"Location":"DUANE MORRIS","Address":"865 S Figueroa St 3100","City":"Los Angeles","State":"CA","Zip":"90017"},{"Location":"DUBLINS IRISH WHISKEY PUB","Address":"815 W 7th St","City":"Los Angeles","State":"CA","Zip":"90017"},{"Location":"EDWIN M ASHLEY MD INC","Address":"1127 Wilshire Blvd","City":"Los Angeles","State":"CA","Zip":"90017"},{"Location":"EL BARON RESTAURANT AND BAKERY","Address":"1520 W 7th St","City":"Los Angeles","State":"CA","Zip":"90017"},{"Location":"ELECTRONIC TRANSACTION CLEARIN","Address":"660 S Figueroa St 1450","City":"Los Angeles","State":"CA","Zip":"90017"},{"Location":"ENDURANCE  INSURANCE","Address":"725 S Figueroa St 2100","City":"Los Angeles","State":"CA","Zip":"90017"},{"Location":"ENGINE CO 28","Address":"644 S Figueroa St","City":"Los Angeles","State":"CA","Zip":"90017"},{"Location":"ENGINE CO. 28","Address":"644 S Figueroa St","City":"Los Angeles","State":"CA","Zip":"90017"},{"Location":"ERNST & YOUNG LLP","Address":"725 S Figueroa St 200","City":"Los Angeles","State":"CA","Zip":"90017"},{"Location":"EVERETT HARRIS & CO","Address":"888 W 6th St","City":"Los Angeles","State":"CA","Zip":"90017"},{"Location":"FINEMAN WEST & CO LLP","Address":"801 S Figueroa St 1000","City":"Los Angeles","State":"CA","Zip":"90017"},{"Location":"FIRST AMERICAN TITLE","Address":"777 S Figueroa St 400","City":"Los Angeles","State":"CA","Zip":"90017"},{"Location":"FIRST REPUBLIC","Address":"888 S Figueroa St 100","City":"Los Angeles","State":"CA","Zip":"90017"},{"Location":"FOGO DE CHAO","Address":"800 S Figueroa St","City":"Los Angeles","State":"CA","Zip":"90017"},{"Location":"GARTENBERG GELFAND WASSON","Address":"801 S Figueroa St 2170","City":"Los Angeles","State":"CA","Zip":"90017"},{"Location":"GOLD'S GYM DOWNTOWN LA","Address":"735 S Figueroa St 100","City":"Los Angeles","State":"CA","Zip":"90017"},{"Location":"GOLDEN BOY ENTERPRISES LLC","Address":"626 Wilshire Blvd 350","City":"Los Angeles","State":"CA","Zip":"90017"},{"Location":"GREAT AMERICAN CUSTOM","Address":"725 S Figueroa St 3400","City":"Los Angeles","State":"CA","Zip":"90017"},{"Location":"GREAT STEAK  SURF CITY","Address":"1070 Wilshire Blvd","City":"Los Angeles","State":"CA","Zip":"90017"},{"Location":"GREEN DOT AMERICA","Address":"626 Wilshire Blvd 330","City":"Los Angeles","State":"CA","Zip":"90017"},{"Location":"GREEN HUT CAFE LLC","Address":"808 W 7th St","City":"Los Angeles","State":"CA","Zip":"90017"},{"Location":"GSA","Address":"725 S Figueroa St 1300","City":"Los Angeles","State":"CA","Zip":"90017"},{"Location":"GUATEMALA RESTAURANT","Address":"743 S Union Ave","City":"Los Angeles","State":"CA","Zip":"90017"},{"Location":"GUILD NEW AMERICAN BISTRO","Address":"611 W 7th St","City":"Los Angeles","State":"CA","Zip":"90017"},{"Location":"GVA DAUM","Address":"801 S Figueroa St 600","City":"Los Angeles","State":"CA","Zip":"90017"},{"Location":"HANA FINANCIAL INC","Address":"1000 Wilshire Blvd 20fl","City":"Los Angeles","State":"CA","Zip":"90017"},{"Location":"HANK'S BAR","Address":"840 S Grand Ave","City":"Los Angeles","State":"CA","Zip":"90017"},{"Location":"HCMC LEGAL","Address":"800 Wilshire Blvd","City":"Los Angeles","State":"CA","Zip":"90017"},{"Location":"HENNIGAN%2C BENNETT & DORMAN","Address":"865 S Figueroa St 2900","City":"Los Angeles","State":"CA","Zip":"90017"},{"Location":"HITACHI CONSULTING","Address":"888 S Figueroa St 1700","City":"Los Angeles","State":"CA","Zip":"90017"},{"Location":"HJB MANAGEMENT","Address":"801 S Figueroa St 1050","City":"Los Angeles","State":"CA","Zip":"90017"},{"Location":"HOTCHKIS AND WILEY","Address":"725 S Figueroa St 39fl","City":"Los Angeles","State":"CA","Zip":"90017"},{"Location":"HSBC BANK #607019","Address":"660 S Figueroa St","City":"Los Angeles","State":"CA","Zip":"90017"},{"Location":"HSBC BANK #819269","Address":"660 S Figueroa St","City":"Los Angeles","State":"CA","Zip":"90017"},{"Location":"HYPOTHESIS","Address":"811 W 7th St 600","City":"Los Angeles","State":"CA","Zip":"90017"},{"Location":"IDB BANK","Address":"888 S Figueroa St 550","City":"Los Angeles","State":"CA","Zip":"90017"},{"Location":"INFRACONSULT LLC","Address":"800 Wilshire Blvd 700","City":"Los Angeles","State":"CA","Zip":"90017"},{"Location":"IRONSHORE HOLDING US INC","Address":"600 Wilshire Blvd 1600","City":"Los Angeles","State":"CA","Zip":"90017"},{"Location":"ISRAEL DISCOUNT BANK","Address":"888 S Figueroa St 550","City":"Los Angeles","State":"CA","Zip":"90017"},{"Location":"IX2 CENTER","Address":"609 W 7th St","City":"Los Angeles","State":"CA","Zip":"90017"},{"Location":"JACKSON LEWIS LLP","Address":"725 S Figueroa St 2500","City":"Los Angeles","State":"CA","Zip":"90017"},{"Location":"JACOBS ENGINEERING GROUP","Address":"600 Wilshire Blvd 1000","City":"Los Angeles","State":"CA","Zip":"90017"},{"Location":"JAMPOL ZIMET LLP","Address":"800 Wilshire Blvd 1400","City":"Los Angeles","State":"CA","Zip":"90017"},{"Location":"JOHN PEREZ FOR CONTROLLE","Address":"777 S Figueroa St 4050","City":"Los Angeles","State":"CA","Zip":"90017"},{"Location":"KACHI DELI CAFE","Address":"1055 Wilshire Blvd Gnd1","City":"Los Angeles","State":"CA","Zip":"90017"},{"Location":"KAUFMAN LEGAL GROUP  APC","Address":"777 S Figueroa St 4050","City":"Los Angeles","State":"CA","Zip":"90017"},{"Location":"KEGEL TOBIN & TRUCE APC","Address":"800 Wilshire Blvd 1100","City":"Los Angeles","State":"CA","Zip":"90017"},{"Location":"KLINEDINST PC","Address":"777 S Figueroa St 28","City":"Los Angeles","State":"CA","Zip":"90017"},{"Location":"KNEAFSEY & FRIEND LLP","Address":"800 Wilshire Blvd 710","City":"Los Angeles","State":"CA","Zip":"90017"},{"Location":"KONNECT PUBLIC RELATIONS","Address":"888 S Figueroa St 1000","City":"Los Angeles","State":"CA","Zip":"90017"},{"Location":"L A CENTER STUDIOS #2","Address":"1201 W 5th St T100","City":"Los Angeles","State":"CA","Zip":"90017"},{"Location":"L.A. CARE HEALTH PLAN","Address":"1055 W 7th St","City":"Los Angeles","State":"CA","Zip":"90017"},{"Location":"LA CARE HEALTPLAN","Address":"1200 W 7th St","City":"Los Angeles","State":"CA","Zip":"90017"},{"Location":"LA MYUNG PUM","Address":"760 Valencia St","City":"Los Angeles","State":"CA","Zip":"90017"},{"Location":"LA UNIVERSAL PRESCHOOL","Address":"888 S Figueroa St 800","City":"Los Angeles","State":"CA","Zip":"90017"},{"Location":"LAGRANT COMMUNICATIONS","Address":"600 Wilshire Blvd 1520","City":"Los Angeles","State":"CA","Zip":"90017"},{"Location":"LAPARRILLA","Address":"1300 Wilshire Blvd","City":"Los Angeles","State":"CA","Zip":"90017"},{"Location":"LAWYERS TITLE","Address":"888 S Figueroa St 2100","City":"Los Angeles","State":"CA","Zip":"90017"},{"Location":"LECLAIR-RYAN","Address":"725 S Figueroa St","City":"Los Angeles","State":"CA","Zip":"90017"},{"Location":"LEGAL MANAGEMENT","Address":"1055 Wilshire Blvd 1800","City":"Los Angeles","State":"CA","Zip":"90017"},{"Location":"LENOX ADVISORS INC","Address":"865 S Figueroa St 2690","City":"Los Angeles","State":"CA","Zip":"90017"},{"Location":"LIGHTFOOT STEINGARD","Address":"800 Wilshire Blvd 1050","City":"Los Angeles","State":"CA","Zip":"90017"},{"Location":"LJDF&A","Address":"865 S Figueroa St 3200","City":"Los Angeles","State":"CA","Zip":"90017"},{"Location":"LOS AMIGOS RESTAURANT","Address":"1447 W 3rd St","City":"Los Angeles","State":"CA","Zip":"90017"},{"Location":"LOS AMIGOS-REST TAQUERIA","Address":"1445 W 3rd St","City":"Los Angeles","State":"CA","Zip":"90017"},{"Location":"LOS ANGELES CENTER STUDIOS","Address":"1201 W 5th St T110","City":"Los Angeles","State":"CA","Zip":"90017"},{"Location":"LOS ANGELES CLIPPERS","Address":"865 S Figueroa St 3300","City":"Los Angeles","State":"CA","Zip":"90017"},{"Location":"LOS ANGELES COUNTY ASSOCIATION","Address":"1055 W 7th St 2700","City":"Los Angeles","State":"CA","Zip":"90017"},{"Location":"LOS ANGELES POLICE PROTEC","Address":"1308 W 8th St","City":"Los Angeles","State":"CA","Zip":"90017"},{"Location":"LOTERIA GRILL","Address":"735 S Figueroa St","City":"Los Angeles","State":"CA","Zip":"90017"},{"Location":"LYNBERG & WATKINS","Address":"888 S Figueroa St 16","City":"Los Angeles","State":"CA","Zip":"90017"},{"Location":"MACY'S WEST 487","Address":"750 W 7th St","City":"Los Angeles","State":"CA","Zip":"90017"},{"Location":"MACY'S WEST 487 BR","Address":"920 W 7th St","City":"Los Angeles","State":"CA","Zip":"90017"},{"Location":"MANNING & MARDER","Address":"801 S Figueroa St 15","City":"Los Angeles","State":"CA","Zip":"90017"},{"Location":"MANULIFE FINANCIAL","Address":"865 S Figueroa St 3320","City":"Los Angeles","State":"CA","Zip":"90017"},{"Location":"MARGARITAS MEXICAN RESTURANT","Address":"607 S Union Ave","City":"Los Angeles","State":"CA","Zip":"90017"},{"Location":"MARSH N MCLENNAN CO","Address":"777 S Figueroa St 2200","City":"Los Angeles","State":"CA","Zip":"90017"},{"Location":"MARSHALL & SWIFT%2FBOECKH","Address":"777 S Figueroa St 1200","City":"Los Angeles","State":"CA","Zip":"90017"},{"Location":"MGO","Address":"777 S Figueroa St 2500","City":"Los Angeles","State":"CA","Zip":"90017"},{"Location":"MIL SALES COMPANY","Address":"1215 W 6th St","City":"Los Angeles","State":"CA","Zip":"90017"},{"Location":"MITSUI SUMITOMO","Address":"777 S Figueroa St 36","City":"Los Angeles","State":"CA","Zip":"90017"},{"Location":"MIZRAHI TEFAHOT BANK","Address":"800 Wilshire Blvd 1410","City":"Los Angeles","State":"CA","Zip":"90017"},{"Location":"MONTELEONE&MCCROY LLP","Address":"725 S Figueroa St 3200","City":"Los Angeles","State":"CA","Zip":"90017"},{"Location":"MORTON'S STEAKHOUSE","Address":"735 S Figueroa St 207","City":"Los Angeles","State":"CA","Zip":"90017"},{"Location":"NOSSAMAN LLP","Address":"777 S Figueroa St 34","City":"Los Angeles","State":"CA","Zip":"90017"},{"Location":"OAKMONT CORP","Address":"865 S Figueroa St 700","City":"Los Angeles","State":"CA","Zip":"90017"},{"Location":"OCTOPUS JAPANESE RESTAUR","Address":"729 W 7th St","City":"Los Angeles","State":"CA","Zip":"90017"},{"Location":"ORRICK","Address":"777 S Figueroa St 3200","City":"Los Angeles","State":"CA","Zip":"90017"},{"Location":"PACIFIC DINING CAR","Address":"1310 W 6th St","City":"Los Angeles","State":"CA","Zip":"90017"},{"Location":"PARIS BARBERSHOP","Address":"752 S Union Ave","City":"Los Angeles","State":"CA","Zip":"90017"},{"Location":"PATRICK CLERK DDS","Address":"1200 Wilshire Blvd 205","City":"Los Angeles","State":"CA","Zip":"90017"},{"Location":"PEACE   OVER  VIOLENCE","Address":"1015 Wilshire Blvd","City":"Los Angeles","State":"CA","Zip":"90017"},{"Location":"PERSHING LLC","Address":"777 S Figueroa St","City":"Los Angeles","State":"CA","Zip":"90017"},{"Location":"PILLSBURY WITHROP SHAW PITTMAN","Address":"725 S Figueroa St 2800","City":"Los Angeles","State":"CA","Zip":"90017"},{"Location":"PIZZA ST PAUL INC","Address":"888 Wilshire Blvd","City":"Los Angeles","State":"CA","Zip":"90017"},{"Location":"PLAN CHECK DOWNTOWN II","Address":"1111 Wilshire Blvd 103","City":"Los Angeles","State":"CA","Zip":"90017"},{"Location":"PLANET PIZZA","Address":"1411 W 3rd St","City":"Los Angeles","State":"CA","Zip":"90017"},{"Location":"PROAMERICA BANK","Address":"888 W 6th St Fl2","City":"Los Angeles","State":"CA","Zip":"90017"},{"Location":"PROPERTY ID","Address":"1001 Wilshire Blvd","City":"Los Angeles","State":"CA","Zip":"90017"},{"Location":"QUINN EMANUEL","Address":"865 S Figueroa St","City":"Los Angeles","State":"CA","Zip":"90017"},{"Location":"RALPH M PARSONS FOUNDATI","Address":"888 W 6th St 7","City":"Los Angeles","State":"CA","Zip":"90017"},{"Location":"RBC CAPITAL MARKETS","Address":"777 S Figueroa St 850","City":"Los Angeles","State":"CA","Zip":"90017"},{"Location":"REELZCHANNEL - LOS ANGELES","Address":"1201 W 5th St M345","City":"Los Angeles","State":"CA","Zip":"90017"},{"Location":"REGENCY CENTERS","Address":"915 Wilshire Blvd 2200","City":"Los Angeles","State":"CA","Zip":"90017"},{"Location":"RESOURCES GLOBAL- RGP","Address":"1000 Wilshire Blvd 1600","City":"Los Angeles","State":"CA","Zip":"90017"},{"Location":"REST. LAS GUADALUPANAS","Address":"1422 1%2F2 W 6th St","City":"Los Angeles","State":"CA","Zip":"90017"},{"Location":"ROBINSON DI LANDO%2C APLC","Address":"800 Wilshire Blvd 750","City":"Los Angeles","State":"CA","Zip":"90017"},{"Location":"RODRIGUEZ HORII CHOI LLP","Address":"777 S Figueroa St 34","City":"Los Angeles","State":"CA","Zip":"90017"},{"Location":"SAN JOSE ARMY SUPPLY","Address":"1413 W 3rd St","City":"Los Angeles","State":"CA","Zip":"90017"},{"Location":"SECURITAS SECURITY SERVICES","Address":"1055 Wilshire Blvd 1600","City":"Los Angeles","State":"CA","Zip":"90017"},{"Location":"SEDGWICK DETERI MORAN & ARNOLD","Address":"801 S Figueroa St","City":"Los Angeles","State":"CA","Zip":"90017"},{"Location":"SENSIS AGENCY","Address":"811 Wilshire Blvd 2050","City":"Los Angeles","State":"CA","Zip":"90017"},{"Location":"SIC WEST 7TH LLC","Address":"617 W 7th St","City":"Los Angeles","State":"CA","Zip":"90017"},{"Location":"SOLETO","Address":"801 S Figueroa St","City":"Los Angeles","State":"CA","Zip":"90017"},{"Location":"SPA PALACE","Address":"620 S Union Ave","City":"Los Angeles","State":"CA","Zip":"90017"},{"Location":"STANDARD PARKING CORPORATION","Address":"1055 W 7th St 1500","City":"Los Angeles","State":"CA","Zip":"90017"},{"Location":"STUDLEY","Address":"777 S Figueroa St 30","City":"Los Angeles","State":"CA","Zip":"90017"},{"Location":"TAX GROUP PARTNERS","Address":"777 S Figueroa St 28","City":"Los Angeles","State":"CA","Zip":"90017"},{"Location":"TAYLOR BLESSEY LLP","Address":"1000 Wilshire Blvd 600","City":"Los Angeles","State":"CA","Zip":"90017"},{"Location":"THE ANGELOFF COMPANY","Address":"626 Wilshire Blvd 727","City":"Los Angeles","State":"CA","Zip":"90017"},{"Location":"THE BANK OF TOKYO","Address":"777 S Figueroa St 600","City":"Los Angeles","State":"CA","Zip":"90017"},{"Location":"THE CHICAGO SCHOOL OF LOS ANG","Address":"617 W 7th St 8thfl","City":"Los Angeles","State":"CA","Zip":"90017"},{"Location":"THE COUNTER DOWNTOWN","Address":"725 W 7th St","City":"Los Angeles","State":"CA","Zip":"90017"},{"Location":"THOMAS PROPERTIES GROUP","Address":"800 S Hope St","City":"Los Angeles","State":"CA","Zip":"90017"},{"Location":"TJX COMPANIES","Address":"888 S Figueroa St","City":"Los Angeles","State":"CA","Zip":"90017"},{"Location":"TRINCENTRO","Address":"1602 W 6th St","City":"Los Angeles","State":"CA","Zip":"90017"},{"Location":"TRUMAN & ELLIOTT LLP","Address":"626 Wilshire Blvd 550","City":"Los Angeles","State":"CA","Zip":"90017"},{"Location":"TRUST COMPANY OF THE WEST","Address":"865 S Figueroa St 2100","City":"Los Angeles","State":"CA","Zip":"90017"},{"Location":"TURCIOS INCOME TAX","Address":"1513 W 6th St","City":"Los Angeles","State":"CA","Zip":"90017"},{"Location":"UBS","Address":"777 S Figueroa St 50","City":"Los Angeles","State":"CA","Zip":"90017"},{"Location":"UBS FINANCIAL SERVICES","Address":"725 S Figueroa St 4100","City":"Los Angeles","State":"CA","Zip":"90017"},{"Location":"UFG INSURANCE","Address":"725 S Figueroa St 1870","City":"Los Angeles","State":"CA","Zip":"90017"},{"Location":"UNIHEALTH FOUNDATION","Address":"800 Wilshire Blvd 1300","City":"Los Angeles","State":"CA","Zip":"90017"},{"Location":"UNITED AMERICAN INDIAN","Address":"1125 W 6th St 103","City":"Los Angeles","State":"CA","Zip":"90017"},{"Location":"US ARMY CORPS OF ENGINEERS","Address":"915 Wilshire Blvd","City":"Los Angeles","State":"CA","Zip":"90017"},{"Location":"US DEPARTMENT OF HUD","Address":"611 W 6th St","City":"Los Angeles","State":"CA","Zip":"90017"},{"Location":"US DEPT OF HUD OIG","Address":"611 W 6th St","City":"Los Angeles","State":"CA","Zip":"90017"},{"Location":"US HEALTH WORKS","Address":"1313 W 8th St 100","City":"Los Angeles","State":"CA","Zip":"90017"},{"Location":"USDOJ%2FCRS","Address":"888 S Figueroa St 1880","City":"Los Angeles","State":"CA","Zip":"90017"},{"Location":"VANIR CONSTRUCTION MANAG","Address":"600 Wilshire Blvd 870","City":"Los Angeles","State":"CA","Zip":"90017"},{"Location":"VASQUEZ & CO LLP","Address":"801 S Grand Ave 400","City":"Los Angeles","State":"CA","Zip":"90017"},{"Location":"WEDBUSH MORGAN","Address":"1000 Wilshire Blvd","City":"Los Angeles","State":"CA","Zip":"90017"},{"Location":"WEINGART FOUNDATION","Address":"1055 W 7th St 3200","City":"Los Angeles","State":"CA","Zip":"90017"},{"Location":"WESIERSKI & ZUREK","Address":"1000 Wilshire Blvd 1750","City":"Los Angeles","State":"CA","Zip":"90017"},{"Location":"WEST MONROE PARTNERS","Address":"1000 Wilshire Blvd","City":"Los Angeles","State":"CA","Zip":"90017"},{"Location":"WILLIAMS & COMPANY  CPAS","Address":"1000 Wilshire Blvd","City":"Los Angeles","State":"CA","Zip":"90017"},{"Location":"WILLIS INSURANCE SERVICE OF CA","Address":"801 S Figueroa St 700","City":"Los Angeles","State":"CA","Zip":"90017"},{"Location":"WOKCANO","Address":"800 W 7th St","City":"Los Angeles","State":"CA","Zip":"90017"},{"Location":"WORLD OF WONDERZ LLC","Address":"1200 Wilshire Blvd 2400","City":"Los Angeles","State":"CA","Zip":"90017"},{"Location":"ZUBER & TAILLIEU","Address":"777 S Figueroa St 37th","City":"Los Angeles","State":"CA","Zip":"90017"},{"Location":"ZURICH","Address":"777 S Figueroa St 3900","City":"Los Angeles","State":"CA","Zip":"90017"}]