[{"Location":"2ND ST CIGAR & GALLARY I","Address":"124 W 2nd St","City":"Los Angeles","State":"CA","Zip":"90012"},{"Location":"30SIXTY","Address":"800 N Alameda St 200","City":"Los Angeles","State":"CA","Zip":"90012"},{"Location":"A AND F DISTRIBUTING CORP","Address":"1457 N Main St","City":"Los Angeles","State":"CA","Zip":"90012"},{"Location":"ACEBSA","Address":"201 N Los Angeles St 15","City":"Los Angeles","State":"CA","Zip":"90012"},{"Location":"AID & ABET BAIL BONDS","Address":"234 E 1st St","City":"Los Angeles","State":"CA","Zip":"90012"},{"Location":"ALL AMERICAN TICKETS","Address":"340 E 2nd St 305","City":"Los Angeles","State":"CA","Zip":"90012"},{"Location":"ALTAMED","Address":"701 W Cesar E Chavez Ave 201","City":"Los Angeles","State":"CA","Zip":"90012"},{"Location":"AMTRAK","Address":"810 N Alameda St","City":"Los Angeles","State":"CA","Zip":"90012"},{"Location":"AMTRAK POLICE","Address":"800 N Alameda St","City":"Los Angeles","State":"CA","Zip":"90012"},{"Location":"ASSOCIATED PRESS","Address":"221 S Figueroa St 300","City":"Los Angeles","State":"CA","Zip":"90012"},{"Location":"AXIS PT","Address":"708 W 1st St","City":"Los Angeles","State":"CA","Zip":"90012"},{"Location":"BIO MEDITECH INC","Address":"136 S Central Ave","City":"Los Angeles","State":"CA","Zip":"90012"},{"Location":"CI RESTAURANTS LA","Address":"11 Olvera St","City":"Los Angeles","State":"CA","Zip":"90012"},{"Location":"CINEMA PROPERTIES GROUP","Address":"251 S Main St","City":"Los Angeles","State":"CA","Zip":"90012"},{"Location":"CITY EMPLOYEES CLUB","Address":"120 W 2nd St","City":"Los Angeles","State":"CA","Zip":"90012"},{"Location":"CITY OF LOS ANGELES","Address":"555 Ramirez St 220","City":"Los Angeles","State":"CA","Zip":"90012"},{"Location":"CITY OF LOS ANGELES","Address":"200 N Main St 1500","City":"Los Angeles","State":"CA","Zip":"90012"},{"Location":"CITY OF LOS ANGLES","Address":"500 E Temple St","City":"Los Angeles","State":"CA","Zip":"90012"},{"Location":"CONQUEST ENTERTAINMENT","Address":"800 N Alameda St","City":"Los Angeles","State":"CA","Zip":"90012"},{"Location":"CORESITE","Address":"900 N Alameda St","City":"Los Angeles","State":"CA","Zip":"90012"},{"Location":"CUTIE PIE CAFETERIA","Address":"316 W 2nd St B2","City":"Los Angeles","State":"CA","Zip":"90012"},{"Location":"DANIEL FLYNN","Address":"608 E 1st St","City":"Los Angeles","State":"CA","Zip":"90012"},{"Location":"DE JA VU","Address":"710 E Commercial St","City":"Los Angeles","State":"CA","Zip":"90012"},{"Location":"DEA","Address":"255 E Temple St 17fl","City":"Los Angeles","State":"CA","Zip":"90012"},{"Location":"DEPT OF HOMELAND SECURITY CIS","Address":"300 N Los Angeles St 8064","City":"Los Angeles","State":"CA","Zip":"90012"},{"Location":"DEPT OF REGIONAL PLANNING","Address":"320 W Temple St 1361","City":"Los Angeles","State":"CA","Zip":"90012"},{"Location":"DEPT. HOMELAND SECURITY","Address":"300 N Los Angeles St 8064","City":"Los Angeles","State":"CA","Zip":"90012"},{"Location":"DHS-CIS-INFO-SERV","Address":"300 N Los Angeles St 8064","City":"Los Angeles","State":"CA","Zip":"90012"},{"Location":"DHS%2FICE%2FOFFICE OF INVESTIGATIO","Address":"300 N Los Angeles St 6124","City":"Los Angeles","State":"CA","Zip":"90012"},{"Location":"DJAELIN JOAILLIERS","Address":"836 N Broadway","City":"Los Angeles","State":"CA","Zip":"90012"},{"Location":"DOWN TOWN FITNESS CENTER","Address":"300 N Los Angeles St 8531","City":"Los Angeles","State":"CA","Zip":"90012"},{"Location":"EASTSIDE MARKET","Address":"1013 Alpine St","City":"Los Angeles","State":"CA","Zip":"90012"},{"Location":"EK FOOD SERVICES","Address":"456 E 2nd St D","City":"Los Angeles","State":"CA","Zip":"90012"},{"Location":"ENVIRONMENTAL CONTRACTING CORP","Address":"880 E 1st St","City":"Los Angeles","State":"CA","Zip":"90012"},{"Location":"EXPRESS LOTTO","Address":"201 N Los Angeles St 14b","City":"Los Angeles","State":"CA","Zip":"90012"},{"Location":"FAR EAST CAFE 110","Address":"347 E 1st St","City":"Los Angeles","State":"CA","Zip":"90012"},{"Location":"FAR EAST NATIONAL BANK","Address":"977 N Broadway","City":"Los Angeles","State":"CA","Zip":"90012"},{"Location":"FEDERAL HOUSING FINANCE","Address":"300 N Los Angeles St 2335","City":"Los Angeles","State":"CA","Zip":"90012"},{"Location":"FIRE STATION #3","Address":"108 N Fremont Ave","City":"Los Angeles","State":"CA","Zip":"90012"},{"Location":"FIRST CITY CREDIT UNION","Address":"717 W Temple St","City":"Los Angeles","State":"CA","Zip":"90012"},{"Location":"FIRST CLASS LOUNGE","Address":"810 N Alameda St","City":"Los Angeles","State":"CA","Zip":"90012"},{"Location":"FIVE STAR","Address":"267 S Main St","City":"Los Angeles","State":"CA","Zip":"90012"},{"Location":"HASHI","Address":"442 E 2nd St","City":"Los Angeles","State":"CA","Zip":"90012"},{"Location":"HOMEBOY INDUSTRIES","Address":"130 Bruno St","City":"Los Angeles","State":"CA","Zip":"90012"},{"Location":"IMMIGRATION & CUSTOMS ENFORCEM","Address":"300 N Los Angeles St 7631a","City":"Los Angeles","State":"CA","Zip":"90012"},{"Location":"IMMIGRATION SERVICE","Address":"300 N Los Angeles St B-18","City":"Los Angeles","State":"CA","Zip":"90012"},{"Location":"INTIRAYMI RESTAURANT","Address":"633 N Spring St","City":"Los Angeles","State":"CA","Zip":"90012"},{"Location":"IRS-CRIMINAL INVESTIGATION","Address":"300 N Los Angeles St","City":"Los Angeles","State":"CA","Zip":"90012"},{"Location":"JALISCO INN","Address":"245 Main","City":"Los Angeles","State":"CA","Zip":"90012"},{"Location":"JUSTICE RESTAURANT","Address":"120 S Los Angeles St","City":"Los Angeles","State":"CA","Zip":"90012"},{"Location":"KYOTO GRAND HOTEL","Address":"120 S Los Angeles St","City":"Los Angeles","State":"CA","Zip":"90012"},{"Location":"LA COUNTY SHERIFFS","Address":"320 W Temple St B10","City":"Los Angeles","State":"CA","Zip":"90012"},{"Location":"LA COUNTY SHERIFFS DEPT","Address":"320 W Temple St B61","City":"Los Angeles","State":"CA","Zip":"90012"},{"Location":"LA CTY SHRFS TRANS BUR","Address":"441 Bauchet St","City":"Los Angeles","State":"CA","Zip":"90012"},{"Location":"LA DEPT OF PUBLIC HEALTH","Address":"313 N Figueroa St 212","City":"Los Angeles","State":"CA","Zip":"90012"},{"Location":"LA FIRE DEPT TACTICAL TRAINING","Address":"1700 Stadium Way B2","City":"Los Angeles","State":"CA","Zip":"90012"},{"Location":"LA GOLODRINA CAFE","Address":"17 Olvera St","City":"Los Angeles","State":"CA","Zip":"90012"},{"Location":"LA POLICE MEMORIAL FOUNDATION","Address":"1880 Academy Dr","City":"Los Angeles","State":"CA","Zip":"90012"},{"Location":"LA TIMES","Address":"130 S Broadway","City":"Los Angeles","State":"CA","Zip":"90012"},{"Location":"LA USD","Address":"125 Beaudry Ave","City":"Los Angeles","State":"CA","Zip":"90012"},{"Location":"LADWP","Address":"1141 W 2nd St","City":"Los Angeles","State":"CA","Zip":"90012"},{"Location":"LADWP C%2FO BREONIA LINDSEY","Address":"433 E Temple St 2","City":"Los Angeles","State":"CA","Zip":"90012"},{"Location":"LAPD","Address":"555 Ramirez St 220","City":"Los Angeles","State":"CA","Zip":"90012"},{"Location":"LAPD","Address":"150 N Los Angeles St 626","City":"Los Angeles","State":"CA","Zip":"90012"},{"Location":"LAPD 911 DISPATCH","Address":"100 N Los Angeles St","City":"Los Angeles","State":"CA","Zip":"90012"},{"Location":"LOS ANGELES COUNTY HEALTH SVC","Address":"313 N Figueroa St 707","City":"Los Angeles","State":"CA","Zip":"90012"},{"Location":"LOS ANGELES COUNTY OODT","Address":"241 N Figueroa St","City":"Los Angeles","State":"CA","Zip":"90012"},{"Location":"LOS ANGELES COUNTY SHERIFF","Address":"450 Baushet St E819","City":"Los Angeles","State":"CA","Zip":"90012"},{"Location":"LOS ANGELES DEPT OF WATER","Address":"111 N Hope St 1039","City":"Los Angeles","State":"CA","Zip":"90012"},{"Location":"LOS ANGELES POLICE ATHLETIC","Address":"1855 Academy Dr","City":"Los Angeles","State":"CA","Zip":"90012"},{"Location":"LOS ANGELES TIMES","Address":"130 S Broadway","City":"Los Angeles","State":"CA","Zip":"90012"},{"Location":"LOS ANGELES TIMES SPORTS DESK","Address":"130 S Broadway","City":"Los Angeles","State":"CA","Zip":"90012"},{"Location":"METROPOLITAN DETENTION","Address":"535 N Alameda St","City":"Los Angeles","State":"CA","Zip":"90012"},{"Location":"METROPOLITAN DETENTION CTR","Address":"535 N Alameda St","City":"Los Angeles","State":"CA","Zip":"90012"},{"Location":"METROPOLITAN WATER DIST SO CA","Address":"700 N Alameda St","City":"Los Angeles","State":"CA","Zip":"90012"},{"Location":"MICHAEL JS PIZZERIA","Address":"643 N Spring St","City":"Los Angeles","State":"CA","Zip":"90012"},{"Location":"MITSURUS GRILL","Address":"316 E 1st St","City":"Los Angeles","State":"CA","Zip":"90012"},{"Location":"MIYAKO INN & SPA","Address":"328 E 1st St","City":"Los Angeles","State":"CA","Zip":"90012"},{"Location":"MONTANA BAIL BONDS","Address":"965 N Vignes St 9","City":"Los Angeles","State":"CA","Zip":"90012"},{"Location":"MR PIZZA LITTLE TOKYO","Address":"350 E 1st St","City":"Los Angeles","State":"CA","Zip":"90012"},{"Location":"OCD","Address":"500 E Temple St","City":"Los Angeles","State":"CA","Zip":"90012"},{"Location":"OIWAKE RESTAURANT","Address":"122 Japanese Village Plaza Ma","City":"Los Angeles","State":"CA","Zip":"90012"},{"Location":"OLVERITAS INC","Address":"648 N Main St","City":"Los Angeles","State":"CA","Zip":"90012"},{"Location":"OMNI LOS ANGELES (0005320)","Address":"251 S Olive St","City":"Los Angeles","State":"CA","Zip":"90012"},{"Location":"PACIFIC ALLIANCE MEDICAL CTR","Address":"711 W College St 201","City":"Los Angeles","State":"CA","Zip":"90012"},{"Location":"PACIFIC ALLIANCE MEDICAL CTR","Address":"531 W College St","City":"Los Angeles","State":"CA","Zip":"90012"},{"Location":"PHILIPPE THE ORIGINAL","Address":"1001 N Alameda St","City":"Los Angeles","State":"CA","Zip":"90012"},{"Location":"PHO 87","Address":"1019 N Broadway","City":"Los Angeles","State":"CA","Zip":"90012"},{"Location":"RESTAURANT PLACITA","Address":"711 N Main St","City":"Los Angeles","State":"CA","Zip":"90012"},{"Location":"SERVICE NAILS 1","Address":"244 E 1st St","City":"Los Angeles","State":"CA","Zip":"90012"},{"Location":"STAR DIRECTION","Address":"917 W Sunset Blvd 215","City":"Los Angeles","State":"CA","Zip":"90012"},{"Location":"STUBHUB LA","Address":"261 S Figueroa St 280","City":"Los Angeles","State":"CA","Zip":"90012"},{"Location":"SUSHI AND TERIYAKI FAST FOOD","Address":"116 Japanese Village Plaza Ma","City":"Los Angeles","State":"CA","Zip":"90012"},{"Location":"TAJ MANAGEMENT INC","Address":"201 N Los Angeles St","City":"Los Angeles","State":"CA","Zip":"90012"},{"Location":"TANGERINE CHINESE RESTAURANT 1","Address":"123 Astronaut E S Onizuka St","City":"Los Angeles","State":"CA","Zip":"90012"},{"Location":"TENNO JAPANESES RESTAURA","Address":"209 S Central Ave","City":"Los Angeles","State":"CA","Zip":"90012"},{"Location":"THE BLUE CUBE","Address":"206 S Spring St","City":"Los Angeles","State":"CA","Zip":"90012"},{"Location":"THE CALIFORNIA ENDOWMENT","Address":"1000 N Alameda St","City":"Los Angeles","State":"CA","Zip":"90012"},{"Location":"THE LA MARATHON","Address":"871 Figueroa Ter","City":"Los Angeles","State":"CA","Zip":"90012"},{"Location":"THE REDWOOD BAR","Address":"316 W 2nd St 202","City":"Los Angeles","State":"CA","Zip":"90012"},{"Location":"TRAXX RESTAURANT","Address":"800 N Alameda St","City":"Los Angeles","State":"CA","Zip":"90012"},{"Location":"TRITON MANAGEMENT SERV LLC","Address":"900 Avila St 2ndfl","City":"Los Angeles","State":"CA","Zip":"90012"},{"Location":"U S MARSHALS SERVICE JSD","Address":"300 N Los Angeles St","City":"Los Angeles","State":"CA","Zip":"90012"},{"Location":"UNITED STATES MARSHALS SERVICE","Address":"312 N Spring St G23","City":"Los Angeles","State":"CA","Zip":"90012"},{"Location":"US DEPT OF JUSTICE (COURT HSE)","Address":"312 N Spring St","City":"Los Angeles","State":"CA","Zip":"90012"},{"Location":"US DEPT OF JUSTICE (FED BLDG)","Address":"300 N Los Angeles St","City":"Los Angeles","State":"CA","Zip":"90012"},{"Location":"US DISTRICT COURT","Address":"312 N Spring St 446d","City":"Los Angeles","State":"CA","Zip":"90012"},{"Location":"US MARSHALL SERVICE","Address":"300 N Los Angeles St 2001","City":"Los Angeles","State":"CA","Zip":"90012"},{"Location":"US MARSHALS","Address":"255 E Temple St","City":"Los Angeles","State":"CA","Zip":"90012"},{"Location":"US SENATOR BARBARA BOXER","Address":"312 N Spring St 1748","City":"Los Angeles","State":"CA","Zip":"90012"},{"Location":"VEOLIA TRANSPORTATION","Address":"1611 Naud St A","City":"Los Angeles","State":"CA","Zip":"90012"},{"Location":"XLIXE PIZZERIA","Address":"432 E 2nd St","City":"Los Angeles","State":"CA","Zip":"90012"},{"Location":"YING ON ASSOC","Address":"426 Bernard St","City":"Los Angeles","State":"CA","Zip":"90012"},{"Location":"ZEN CU SUSHI & GRILL","Address":"319 E 2nd St 206","City":"Los Angeles","State":"CA","Zip":"90012"}]