[{"Location":"TAX SERVICES","Address":"1429 West Tico Blvd","City":"Los Angelas","State":"CA","Zip":"90015"},{"Location":"1038 INC","Address":"1038 S Hill St","City":"Los Angeles","State":"CA","Zip":"90015"},{"Location":"AEG - HUMAN RESOURCES","Address":"714 W Olympic Blvd 301","City":"Los Angeles","State":"CA","Zip":"90015"},{"Location":"AEG CORPORATE OFFICE","Address":"800 W Olympic Blvd 305","City":"Los Angeles","State":"CA","Zip":"90015"},{"Location":"AEG WORLD WIDE","Address":"777 Chick Hearn Ct 1","City":"Los Angeles","State":"CA","Zip":"90015"},{"Location":"ALPHA BRIGHT","Address":"151 W 17th St","City":"Los Angeles","State":"CA","Zip":"90015"},{"Location":"AMANTE PIZZA","Address":"123 E 9th St","City":"Los Angeles","State":"CA","Zip":"90015"},{"Location":"AMPCO SYSTEM PARKING","Address":"1150 S Olive St 190","City":"Los Angeles","State":"CA","Zip":"90015"},{"Location":"ANA B BOUTIQUE","Address":"936 Maple Ave 3","City":"Los Angeles","State":"CA","Zip":"90015"},{"Location":"ATM SELECT","Address":"1111 Santee St 1","City":"Los Angeles","State":"CA","Zip":"90015"},{"Location":"ATRIA CLOTHING","Address":"1045 Santee St 5th","City":"Los Angeles","State":"CA","Zip":"90015"},{"Location":"AXS TV","Address":"800 W Olympic Blvd 307","City":"Los Angeles","State":"CA","Zip":"90015"},{"Location":"B AND R BROTHERS CORP","Address":"952 S Broadway","City":"Los Angeles","State":"CA","Zip":"90015"},{"Location":"B SIDE GROUP LLC","Address":"911 S Hill St A","City":"Los Angeles","State":"CA","Zip":"90015"},{"Location":"BABY LOBSTER BAR AND GR","Address":"1001 Maple Ave","City":"Los Angeles","State":"CA","Zip":"90015"},{"Location":"BAMBOO EXPRESS","Address":"1548 W Pico Blvd","City":"Los Angeles","State":"CA","Zip":"90015"},{"Location":"BEADSHINES","Address":"305 E 9th St 105b","City":"Los Angeles","State":"CA","Zip":"90015"},{"Location":"BEST BUDS","Address":"1363 S Olive St","City":"Los Angeles","State":"CA","Zip":"90015"},{"Location":"BISTRO MIZU","Address":"1543 W Olympic Blvd 108","City":"Los Angeles","State":"CA","Zip":"90015"},{"Location":"BLUE MOON HOOKAH INC","Address":"1053 S Hill St","City":"Los Angeles","State":"CA","Zip":"90015"},{"Location":"BRAVO LOCK & KEY","Address":"1152 Venice Blvd A","City":"Los Angeles","State":"CA","Zip":"90015"},{"Location":"BREALTV","Address":"516 E 15th St","City":"Los Angeles","State":"CA","Zip":"90015"},{"Location":"CA HOSP MED CTR MED STAFF","Address":"1401 S Grand Ave","City":"Los Angeles","State":"CA","Zip":"90015"},{"Location":"CAFE CALI","Address":"1015 Wall St 123","City":"Los Angeles","State":"CA","Zip":"90015"},{"Location":"CAFE ESQUNITA","Address":"401 E Pico Blvd","City":"Los Angeles","State":"CA","Zip":"90015"},{"Location":"CALIF OCCUPATIONAL CLIN","Address":"1400 S Grand Ave 611","City":"Los Angeles","State":"CA","Zip":"90015"},{"Location":"CALIFORNIA HIGHWAY PATROL","Address":"777 W Washington Blvd","City":"Los Angeles","State":"CA","Zip":"90015"},{"Location":"CASANOSTRA DOWNTOWN","Address":"825 W 9th St","City":"Los Angeles","State":"CA","Zip":"90015"},{"Location":"CITY CENTER (0041762)","Address":"1020 S Figueroa St","City":"Los Angeles","State":"CA","Zip":"90015"},{"Location":"CITY OF ANGELS FPS INC","Address":"1358 S Hill St","City":"Los Angeles","State":"CA","Zip":"90015"},{"Location":"D.K DONUTS","Address":"1515 Maple Ave","City":"Los Angeles","State":"CA","Zip":"90015"},{"Location":"DAVITA #439 WASHINGTON PLAZA","Address":"516 E Washington Blvd S","City":"Los Angeles","State":"CA","Zip":"90015"},{"Location":"Deli-Licious","Address":"1625 W Olympic Blvd","City":"Los Angeles","State":"CA","Zip":"90015"},{"Location":"DON CHENTE BAR GRILL AND","Address":"1248 S Figueroa St Secon","City":"Los Angeles","State":"CA","Zip":"90015"},{"Location":"DOWN TOWN NISSAN","Address":"635 W Washington Blvd","City":"Los Angeles","State":"CA","Zip":"90015"},{"Location":"DOWNTOWN LA MOTORS","Address":"1801 S Figueroa St","City":"Los Angeles","State":"CA","Zip":"90015"},{"Location":"DOWNTOWN LA MOTORS 2","Address":"1801 S Figueroa St","City":"Los Angeles","State":"CA","Zip":"90015"},{"Location":"DOWNTOWN LA MOTORS 3","Address":"1801 S Figueroa St","City":"Los Angeles","State":"CA","Zip":"90015"},{"Location":"EL CHOLO - DOWNTOWN","Address":"1037 S Flower St","City":"Los Angeles","State":"CA","Zip":"90015"},{"Location":"EL MEXICANO RESTURANT","Address":"414 E 12th St","City":"Los Angeles","State":"CA","Zip":"90015"},{"Location":"EL PARIAN","Address":"1528 W Pico Blvd","City":"Los Angeles","State":"CA","Zip":"90015"},{"Location":"EL SALVADOR CAFE","Address":"575 Pico","City":"Los Angeles","State":"CA","Zip":"90015"},{"Location":"EL TRONQITO MARKET","Address":"1524 S Flower St","City":"Los Angeles","State":"CA","Zip":"90015"},{"Location":"EMERIK HOTEL LLC","Address":"1020 S Figueroa St","City":"Los Angeles","State":"CA","Zip":"90015"},{"Location":"ESPN","Address":"800 W Olympic Blvd 215","City":"Los Angeles","State":"CA","Zip":"90015"},{"Location":"ESPN LA .COM","Address":"800 W Olympic Blvd 215","City":"Los Angeles","State":"CA","Zip":"90015"},{"Location":"ESPN LOS ANGELES PC","Address":"1011 S Figueroa St","City":"Los Angeles","State":"CA","Zip":"90015"},{"Location":"EVERLASTING ENTERPRISE I","Address":"1425 S Flower St","City":"Los Angeles","State":"CA","Zip":"90015"},{"Location":"FAITH AND FLOWER  DBA","Address":"717 W 9th St Lt1","City":"Los Angeles","State":"CA","Zip":"90015"},{"Location":"FEDERAL RESERVE BANK","Address":"950 S Grand Ave","City":"Los Angeles","State":"CA","Zip":"90015"},{"Location":"FEDERAL RESERVE BANK II","Address":"950 S Grand Ave","City":"Los Angeles","State":"CA","Zip":"90015"},{"Location":"FERNANDOS","Address":"815 W Olympic Blvd","City":"Los Angeles","State":"CA","Zip":"90015"},{"Location":"FIDM","Address":"919 S Grand Ave","City":"Los Angeles","State":"CA","Zip":"90015"},{"Location":"FLEMING'S STEAK HOUSE #1509","Address":"800 W Olympic Blvd","City":"Los Angeles","State":"CA","Zip":"90015"},{"Location":"FLOWER HOLDINGS LLC","Address":"800 W Olympic Blvd","City":"Los Angeles","State":"CA","Zip":"90015"},{"Location":"FORTISS","Address":"1100 S Flower St 3100","City":"Los Angeles","State":"CA","Zip":"90015"},{"Location":"FORWARD FASHION","Address":"116 E Pico Blvd","City":"Los Angeles","State":"CA","Zip":"90015"},{"Location":"FOX SPORTS WEST #1","Address":"1150 S Olive St 200","City":"Los Angeles","State":"CA","Zip":"90015"},{"Location":"FOX SPORTS WEST #2","Address":"1150 S Olive St 200","City":"Los Angeles","State":"CA","Zip":"90015"},{"Location":"GATEWAY HOSPITAL AND MHS","Address":"1355 S Hill St","City":"Los Angeles","State":"CA","Zip":"90015"},{"Location":"GERRY BUILDING PROPERTIE","Address":"910 S Los Angeles St 602","City":"Los Angeles","State":"CA","Zip":"90015"},{"Location":"GOODYEAR AFFILIATE","Address":"1013 W Olympic Blvd","City":"Los Angeles","State":"CA","Zip":"90015"},{"Location":"GRAND AVENUE IMAGING INC","Address":"1400 S Grand Ave","City":"Los Angeles","State":"CA","Zip":"90015"},{"Location":"HANMI BANK","Address":"950 S Los Angeles St","City":"Los Angeles","State":"CA","Zip":"90015"},{"Location":"HAUTELOOK","Address":"1212 S Flower St 300","City":"Los Angeles","State":"CA","Zip":"90015"},{"Location":"HD NET LLC","Address":"800 W Olympic Blvd 1","City":"Los Angeles","State":"CA","Zip":"90015"},{"Location":"HERBAL LIFE #3","Address":"800 W Olympic Blvd 406","City":"Los Angeles","State":"CA","Zip":"90015"},{"Location":"HERBALIFE #1","Address":"800 W Olympic Blvd 406","City":"Los Angeles","State":"CA","Zip":"90015"},{"Location":"HERBALIFE #2","Address":"800 W Olympic Blvd 408","City":"Los Angeles","State":"CA","Zip":"90015"},{"Location":"HOLIC DIVA JEANS","Address":"1139 S Los Angeles St","City":"Los Angeles","State":"CA","Zip":"90015"},{"Location":"HOOTERS DOWNTOWN LA","Address":"1248 S Figueroa St","City":"Los Angeles","State":"CA","Zip":"90015"},{"Location":"IMAGE LOCATIONS LA","Address":"1150 S Olive St 3000","City":"Los Angeles","State":"CA","Zip":"90015"},{"Location":"J&H LIQUOR","Address":"1154 Venice Blvd","City":"Los Angeles","State":"CA","Zip":"90015"},{"Location":"JOES LA MARKET AND DELI","Address":"600 W Pico Blvd","City":"Los Angeles","State":"CA","Zip":"90015"},{"Location":"JOSEPH GUTIERREZ","Address":"714 W Olympic Blvd 450","City":"Los Angeles","State":"CA","Zip":"90015"},{"Location":"KAUFFMAN SPORTS MGMT","Address":"714 W Olympic Blvd 1010","City":"Los Angeles","State":"CA","Zip":"90015"},{"Location":"KEYSTONE FURNITURE","Address":"1212 Albany St","City":"Los Angeles","State":"CA","Zip":"90015"},{"Location":"KSPN RADIO 710","Address":"800 W Olympic Blvd 200","City":"Los Angeles","State":"CA","Zip":"90015"},{"Location":"KUSHMART","Address":"1343 S Hill St","City":"Los Angeles","State":"CA","Zip":"90015"},{"Location":"L A MOTORS NISSAN","Address":"635 W Washington Blvd","City":"Los Angeles","State":"CA","Zip":"90015"},{"Location":"L.A. LIVE","Address":"800 W Olympic Blvd 220","City":"Los Angeles","State":"CA","Zip":"90015"},{"Location":"LA   CURACAO","Address":"1605 W Olympic Blvd 600","City":"Los Angeles","State":"CA","Zip":"90015"},{"Location":"LA GRAND CLUB","Address":"1040 S Grand Ave","City":"Los Angeles","State":"CA","Zip":"90015"},{"Location":"LA GREEN HOUSE","Address":"1045 S Union Ave","City":"Los Angeles","State":"CA","Zip":"90015"},{"Location":"LA JOB CORPS CENTER","Address":"221 11th St","City":"Los Angeles","State":"CA","Zip":"90015"},{"Location":"LA KINGS HOCKEY CLUB","Address":"1111 S Figueroa St","City":"Los Angeles","State":"CA","Zip":"90015"},{"Location":"LA TECLENA","Address":"1443 W 11th St","City":"Los Angeles","State":"CA","Zip":"90015"},{"Location":"LA TRADE TECH CLGE SHRFS STTN2","Address":"400 W Washington Blvd","City":"Los Angeles","State":"CA","Zip":"90015"},{"Location":"LAWRYS  RESTAURANT","Address":"1011 S Figueroa St B115","City":"Los Angeles","State":"CA","Zip":"90015"},{"Location":"LBA REALTY-SBC","Address":"1150 S Olive St H300","City":"Los Angeles","State":"CA","Zip":"90015"},{"Location":"LOS ANGELES JOB CORPS","Address":"1020 S Olive St","City":"Los Angeles","State":"CA","Zip":"90015"},{"Location":"LOS ANGELES LAKERS INC","Address":"1111 S Figueroa St","City":"Los Angeles","State":"CA","Zip":"90015"},{"Location":"LOS ANGELES TRADE TECHNICAL CO","Address":"400 W Washington Blvd N","City":"Los Angeles","State":"CA","Zip":"90015"},{"Location":"LOS GUERITOS III","Address":"1217 Wall St 6","City":"Los Angeles","State":"CA","Zip":"90015"},{"Location":"LOYOLA LAW SCHOOL","Address":"919 Albany St","City":"Los Angeles","State":"CA","Zip":"90015"},{"Location":"LUCKY STRIKE LOS ANGELES LLC","Address":"800 W Olympic Blvd 202","City":"Los Angeles","State":"CA","Zip":"90015"},{"Location":"LUXE CITY CENTER","Address":"1020 S Figueroa St","City":"Los Angeles","State":"CA","Zip":"90015"},{"Location":"MACK URBAN LLC","Address":"1150 S Olive St 2250","City":"Los Angeles","State":"CA","Zip":"90015"},{"Location":"MAGARITAS","Address":"429 E 11th St","City":"Los Angeles","State":"CA","Zip":"90015"},{"Location":"MEHRAN TABAN MD INC","Address":"1414 S Grand Ave 440","City":"Los Angeles","State":"CA","Zip":"90015"},{"Location":"MM CARGO","Address":"1036 Maple Ave","City":"Los Angeles","State":"CA","Zip":"90015"},{"Location":"MODA DIVINE INC","Address":"1017 Santee St D","City":"Los Angeles","State":"CA","Zip":"90015"},{"Location":"NALEO EDUCATION FUND","Address":"1122 W Washington Blvd","City":"Los Angeles","State":"CA","Zip":"90015"},{"Location":"NAZCO EQUITIES LLC","Address":"308 E 9th St 301","City":"Los Angeles","State":"CA","Zip":"90015"},{"Location":"NEW ERA CARE GIVERS","Address":"1238 S Flower St","City":"Los Angeles","State":"CA","Zip":"90015"},{"Location":"NEW MIKADO","Address":"1001 S Broadway A","City":"Los Angeles","State":"CA","Zip":"90015"},{"Location":"NOKIA THEATER","Address":"777 Chick Hearn Ct 1","City":"Los Angeles","State":"CA","Zip":"90015"},{"Location":"NOKIA THEATER LA LIVE","Address":"777 Chick Hearn Ct","City":"Los Angeles","State":"CA","Zip":"90015"},{"Location":"OPC","Address":"1403 S Hill St","City":"Los Angeles","State":"CA","Zip":"90015"},{"Location":"OPTIMIST INC","Address":"1111 S Figueroa St 1","City":"Los Angeles","State":"CA","Zip":"90015"},{"Location":"PALM RESTAURANT","Address":"1100 S Flower St","City":"Los Angeles","State":"CA","Zip":"90015"},{"Location":"PANADERIA CUSCATLECA","Address":"1566 W Pico Blvd","City":"Los Angeles","State":"CA","Zip":"90015"},{"Location":"PARTNERS AGREED TRUST","Address":"900a W Olympic Blvd 42d","City":"Los Angeles","State":"CA","Zip":"90015"},{"Location":"PRO COURIER","Address":"1706 S Figueroa St","City":"Los Angeles","State":"CA","Zip":"90015"},{"Location":"RALPHS GROCERY COMPANY","Address":"645 W 9th St 703","City":"Los Angeles","State":"CA","Zip":"90015"},{"Location":"REBEL 8","Address":"1729 Wall St","City":"Los Angeles","State":"CA","Zip":"90015"},{"Location":"REMY LEATHER FASHIONS","Address":"1020 S Los Angeles St 2fl","City":"Los Angeles","State":"CA","Zip":"90015"},{"Location":"RENAISSANCE TOWER","Address":"501 W Olympic Blvd","City":"Los Angeles","State":"CA","Zip":"90015"},{"Location":"RESIDENCES AT LA LIVE 28","Address":"900 W Olympic Blvd","City":"Los Angeles","State":"CA","Zip":"90015"},{"Location":"RESIDENCES AT LA LIVE BR","Address":"900 W Olympic Blvd","City":"Los Angeles","State":"CA","Zip":"90015"},{"Location":"RESIDENCES AT LA LIVE FITNESS","Address":"900 W Olympic Blvd","City":"Los Angeles","State":"CA","Zip":"90015"},{"Location":"RESIDENCES AT LA LIVE MR","Address":"900 W Olympic Blvd","City":"Los Angeles","State":"CA","Zip":"90015"},{"Location":"REST Y MARISCO GUERRERO","Address":"1359 S Main St","City":"Los Angeles","State":"CA","Zip":"90015"},{"Location":"ROCKIN FISH LA LIVE","Address":"800 W Olympic Blvd A160","City":"Los Angeles","State":"CA","Zip":"90015"},{"Location":"ROGELIOS BARBER SHOP","Address":"1152 Venice Blvd","City":"Los Angeles","State":"CA","Zip":"90015"},{"Location":"ROSA MEXICANO","Address":"800 W Olympic Blvd","City":"Los Angeles","State":"CA","Zip":"90015"},{"Location":"SAV-MOR LEATHER","Address":"1626 Wall St","City":"Los Angeles","State":"CA","Zip":"90015"},{"Location":"SBE","Address":"800 W Olympic Blvd","City":"Los Angeles","State":"CA","Zip":"90015"},{"Location":"SEIU LOCAL 1877","Address":"828 W Washington Blvd","City":"Los Angeles","State":"CA","Zip":"90015"},{"Location":"Shayan Express","Address":"945 S Wall St","City":"Los Angeles","State":"CA","Zip":"90015"},{"Location":"SMASH BURGER","Address":"1011 S Figueroa St","City":"Los Angeles","State":"CA","Zip":"90015"},{"Location":"SMIFC OF THE PACIFIC INC","Address":"1248 S Figueroa St","City":"Los Angeles","State":"CA","Zip":"90015"},{"Location":"SOUTH OF MAIN LA","Address":"1800 S Main St","City":"Los Angeles","State":"CA","Zip":"90015"},{"Location":"STAPLES CENTER 5","Address":"1111 S Figueroa St Suite","City":"Los Angeles","State":"CA","Zip":"90015"},{"Location":"STAPLES CENTER 6","Address":"1111 S Figueroa St 3100","City":"Los Angeles","State":"CA","Zip":"90015"},{"Location":"STAPLES CENTER 7","Address":"1111 S Figueroa St 3100","City":"Los Angeles","State":"CA","Zip":"90015"},{"Location":"STAPLES CENTER 8","Address":"1111 S Figueroa St 3100","City":"Los Angeles","State":"CA","Zip":"90015"},{"Location":"STEELCASE LOS ANGELES","Address":"1150 S Olive St 3200","City":"Los Angeles","State":"CA","Zip":"90015"},{"Location":"STUBHUB","Address":"800 W Olympic Blvd A181","City":"Los Angeles","State":"CA","Zip":"90015"},{"Location":"SUBWAY","Address":"1400 W Pico Blvd","City":"Los Angeles","State":"CA","Zip":"90015"},{"Location":"TACO BRAVO","Address":"1400 W Pico Blvd D","City":"Los Angeles","State":"CA","Zip":"90015"},{"Location":"THE CONGA ROOM","Address":"800 W Olympic Blvdsuite A260","City":"Los Angeles","State":"CA","Zip":"90015"},{"Location":"THE FARM OF BEVERLY HILLS","Address":"800 W Olympic Blvd A150","City":"Los Angeles","State":"CA","Zip":"90015"},{"Location":"THE GRAMMY MUSEUM","Address":"800 W Olympic Blvd 1","City":"Los Angeles","State":"CA","Zip":"90015"},{"Location":"THE INFINITE GROUP LLC","Address":"714 W Olympic Blvd 1006","City":"Los Angeles","State":"CA","Zip":"90015"},{"Location":"TOM URBAN LIVE BASIL","Address":"1011 S Figueroa St B","City":"Los Angeles","State":"CA","Zip":"90015"},{"Location":"TOMS URBAN","Address":"1011 S Figueroa St B","City":"Los Angeles","State":"CA","Zip":"90015"},{"Location":"TOYOTA OF DOWNTOWN LA","Address":"1600 S Figueroa St","City":"Los Angeles","State":"CA","Zip":"90015"},{"Location":"TRANSAMERICA","Address":"1150 S Olive St T27","City":"Los Angeles","State":"CA","Zip":"90015"},{"Location":"TRANSAMERICA","Address":"1150 S Olive St 26-06","City":"Los Angeles","State":"CA","Zip":"90015"},{"Location":"TRANSAMERICA RETIREMENT SERV","Address":"1150 S Olive St T0905","City":"Los Angeles","State":"CA","Zip":"90015"},{"Location":"TROPICAL CLUB","Address":"1721 S Flower St","City":"Los Angeles","State":"CA","Zip":"90015"},{"Location":"UNITED PARCEL SERVICE","Address":"1201 W Olympic Blvd","City":"Los Angeles","State":"CA","Zip":"90015"},{"Location":"URBAN MED","Address":"408 W 11th St","City":"Los Angeles","State":"CA","Zip":"90015"},{"Location":"USC BOOKSTORE","Address":"1150 S Hope St","City":"Los Angeles","State":"CA","Zip":"90015"},{"Location":"USC INVESTMENT OFFICES","Address":"1150 S Olive St 2300","City":"Los Angeles","State":"CA","Zip":"90015"},{"Location":"USC OBGYN 2","Address":"1400 S Grand Ave 805","City":"Los Angeles","State":"CA","Zip":"90015"},{"Location":"VALET PARKING SERVICES","Address":"1335 S Flower St","City":"Los Angeles","State":"CA","Zip":"90015"},{"Location":"VAMOS UNIDOS","Address":"501 W Pico Blvd","City":"Los Angeles","State":"CA","Zip":"90015"},{"Location":"VELOCITY MOTORS LLC","Address":"1540 S Figueroa St","City":"Los Angeles","State":"CA","Zip":"90015"},{"Location":"VENERABLE CAT TRUST","Address":"645 W 9th St 110-3","City":"Los Angeles","State":"CA","Zip":"90015"},{"Location":"VENTURA","Address":"1051 Venice Blvd","City":"Los Angeles","State":"CA","Zip":"90015"},{"Location":"VERSAILLES HOME TEXTILE","Address":"1248 S Flower St","City":"Los Angeles","State":"CA","Zip":"90015"},{"Location":"VICEROY HOTEL GROUP","Address":"1212 S Flower St 100","City":"Los Angeles","State":"CA","Zip":"90015"},{"Location":"VINTAGE 1050","Address":"1050 S Hill St","City":"Los Angeles","State":"CA","Zip":"90015"},{"Location":"VIP TICKET","Address":"951 S Figueroa St","City":"Los Angeles","State":"CA","Zip":"90015"},{"Location":"WOLFGANG PUCK BAR & GRIL","Address":"800 W Olympic Blvd A180","City":"Los Angeles","State":"CA","Zip":"90015"},{"Location":"WORKMEN'S AUTO INSURANCE","Address":"714 W Olympic Blvd","City":"Los Angeles","State":"CA","Zip":"90015"},{"Location":"YARD HOUSE #8321","Address":"800 W Olympic Blvd A115","City":"Los Angeles","State":"CA","Zip":"90015"},{"Location":"YWCA CAMPUS DEVELOPMENT","Address":"1020 S Olive St 7fl","City":"Los Angeles","State":"CA","Zip":"90015"}]