[{"Location":"BOUTIQUE ITALLIAN","Address":"6801 Hollywood Blvd 219","City":"Hollywood","State":"CA","Zip":"90028"},{"Location":"CALIFORNIA WINGS CAFE","Address":"1649 N Cahuenga Blvd","City":"Hollywood","State":"CA","Zip":"90028"},{"Location":"DAFT ARTS INC","Address":"1416 N La Brea Ave","City":"Hollywood","State":"CA","Zip":"90028"},{"Location":"HARD ROCK CAFE","Address":"6801 Hollywood Blvd 105","City":"Hollywood","State":"CA","Zip":"90028"},{"Location":"HOLLYWOOD HOOKAH LOUNGE","Address":"6512 Hollywood Blvd","City":"Hollywood","State":"CA","Zip":"90028"},{"Location":"HOLLYWOOD PROPERTY OWNER","Address":"1680 Vine St 4","City":"Hollywood","State":"CA","Zip":"90028"},{"Location":"HOLLYWOOD YMCA","Address":"1553 Schrader Blvd","City":"Hollywood","State":"CA","Zip":"90028"},{"Location":"L.B LOCKSMITH","Address":"1525 1%2F2 N La Brea Ave","City":"Hollywood","State":"CA","Zip":"90028"},{"Location":"LIGHT IRON DIGITAL","Address":"6381 De Longpre Ave","City":"Hollywood","State":"CA","Zip":"90028"},{"Location":"MADAME TUSSAUDS HOLLYWOOD","Address":"6933 Hollywood Blvd","City":"Hollywood","State":"CA","Zip":"90028"},{"Location":"NAPA HOLLYWOOD","Address":"5801 W Sunset Blvd","City":"Hollywood","State":"CA","Zip":"90028"},{"Location":"NASH ENTERTAINMENT","Address":"1438 N Gower St 161","City":"Hollywood","State":"CA","Zip":"90028"},{"Location":"NETTWERK MANAGEMENT","Address":"6525 W Sunset Blvd","City":"Hollywood","State":"CA","Zip":"90028"},{"Location":"OASIS OF HOLLYWOOD","Address":"1725 Ivar Ave","City":"Hollywood","State":"CA","Zip":"90028"},{"Location":"ONE SEVEN","Address":"6801 Hollywood Blvd 433","City":"Hollywood","State":"CA","Zip":"90028"},{"Location":"PIG N WISTLE","Address":"6714 Hollywood Blvd","City":"Hollywood","State":"CA","Zip":"90028"},{"Location":"SIREN STUDIOS","Address":"6063 W Sunset Blvd","City":"Hollywood","State":"CA","Zip":"90028"},{"Location":"TACOS CALLE","Address":"6506 Hollywood Blvd","City":"Hollywood","State":"CA","Zip":"90028"},{"Location":"TEKILLA","Address":"6541 Hollywood Blvd","City":"Hollywood","State":"CA","Zip":"90028"},{"Location":"THE CABO CANTINA","Address":"6669 Hollywood Blvd","City":"Hollywood","State":"CA","Zip":"90028"},{"Location":"THE FONDA THEATRE","Address":"6126 Hollywood Blvd","City":"Hollywood","State":"CA","Zip":"90028"},{"Location":"TWENTY FIVE DEGREES","Address":"7000 Hollywood Blvd","City":"Hollywood","State":"CA","Zip":"90028"},{"Location":"VILLAGE PIZZERIA","Address":"6363 Yucca St","City":"Hollywood","State":"CA","Zip":"90028"},{"Location":"YMCA","Address":"1553 Schrader Blvd","City":"Hollywood","State":"CA","Zip":"90028"},{"Location":"24 HOUR FITNESS #88","Address":"6380 W Sunset Blvd","City":"Los Angeles","State":"CA","Zip":"90028"},{"Location":"33 TAPS","Address":"6263 Hollywood Blvd A","City":"Los Angeles","State":"CA","Zip":"90028"},{"Location":"6356 SECOND FLOOR LLC","Address":"6356 Hollywood Blvd 2","City":"Los Angeles","State":"CA","Zip":"90028"},{"Location":"ACADEMY ARCHIVE FOUNDATION","Address":"1313 Vine St","City":"Los Angeles","State":"CA","Zip":"90028"},{"Location":"AIDS HEALTHCARE FOUNDATION","Address":"6500 W Sunset Blvd","City":"Los Angeles","State":"CA","Zip":"90028"},{"Location":"ANAR INDIAN RESTAURANT","Address":"1807 N Cahuenga Blvd","City":"Los Angeles","State":"CA","Zip":"90028"},{"Location":"ASA MEZA","Address":"1718 Vine St","City":"Los Angeles","State":"CA","Zip":"90028"},{"Location":"ASIA IMPORT","Address":"6628 Hollywood Blvd A","City":"Los Angeles","State":"CA","Zip":"90028"},{"Location":"AUTHOR SERVICES INC","Address":"7051 Hollywood Blvd","City":"Los Angeles","State":"CA","Zip":"90028"},{"Location":"AVENTINE","Address":"1607 N Cahuenga Blvd","City":"Los Angeles","State":"CA","Zip":"90028"},{"Location":"AY-DO-NO  INC","Address":"5911 Hollywood Blvd","City":"Los Angeles","State":"CA","Zip":"90028"},{"Location":"AYAA LLC","Address":"6541 Hollywood Blvd 104","City":"Los Angeles","State":"CA","Zip":"90028"},{"Location":"BAJA FRESH ORANGE","Address":"6922 Hollywood Blvd 106","City":"Los Angeles","State":"CA","Zip":"90028"},{"Location":"BALL AND CHAIN","Address":"1643 N Cahuenga Blvd","City":"Los Angeles","State":"CA","Zip":"90028"},{"Location":"BBC  NEWS LA OFFICE","Address":"6255 W Sunset Blvd 1500","City":"Los Angeles","State":"CA","Zip":"90028"},{"Location":"BESO HOLLYWOOD","Address":"6350 Hollywood Blvd","City":"Los Angeles","State":"CA","Zip":"90028"},{"Location":"BIG WANGS","Address":"1562 N Cahuenga Blvd","City":"Los Angeles","State":"CA","Zip":"90028"},{"Location":"BIRDS CAFE","Address":"5925 Franklin Ave","City":"Los Angeles","State":"CA","Zip":"90028"},{"Location":"BITE SIZE TV","Address":"6250 Hollywood Blvd 300","City":"Los Angeles","State":"CA","Zip":"90028"},{"Location":"BLUE C SUSHI THE DOME","Address":"6374 W Sunset Blvd B","City":"Los Angeles","State":"CA","Zip":"90028"},{"Location":"BLUE PALMS BREW HOUSE","Address":"6124 Hollywood Blvd","City":"Los Angeles","State":"CA","Zip":"90028"},{"Location":"BOWERY","Address":"6268 W Sunset Blvd","City":"Los Angeles","State":"CA","Zip":"90028"},{"Location":"BROGAN LANE DESIGN","Address":"6087 Harold Way","City":"Los Angeles","State":"CA","Zip":"90028"},{"Location":"BRU HOLLYWOOD LLC","Address":"6708 Hollywood Blvd","City":"Los Angeles","State":"CA","Zip":"90028"},{"Location":"BUFFALO WILD WINGS #0349","Address":"7060 Hollywood Blvd","City":"Los Angeles","State":"CA","Zip":"90028"},{"Location":"BUZZFEED","Address":"6322 De Longpre Ave","City":"Los Angeles","State":"CA","Zip":"90028"},{"Location":"CABO WABO","Address":"6801 Hollywood Blvd 411","City":"Los Angeles","State":"CA","Zip":"90028"},{"Location":"CAPITAL RECORDS #3","Address":"1750 Vine St","City":"Los Angeles","State":"CA","Zip":"90028"},{"Location":"CAPITAL RECORDS INC #4","Address":"1750 Vine St","City":"Los Angeles","State":"CA","Zip":"90028"},{"Location":"CAPITAL RECORDS LATIN","Address":"1750 Vine St","City":"Los Angeles","State":"CA","Zip":"90028"},{"Location":"CAPITAL ROCK","Address":"6739 Hollywood Blvd","City":"Los Angeles","State":"CA","Zip":"90028"},{"Location":"CAPITOL RECORDS","Address":"1750 Vine St","City":"Los Angeles","State":"CA","Zip":"90028"},{"Location":"CAPITOL RECORDS INC","Address":"1770 Vine St","City":"Los Angeles","State":"CA","Zip":"90028"},{"Location":"CAPITOL STUDIOS","Address":"1750 Vine St","City":"Los Angeles","State":"CA","Zip":"90028"},{"Location":"CAR PARK INC","Address":"6541 Hollywood Blvd 203","City":"Los Angeles","State":"CA","Zip":"90028"},{"Location":"CAVIAR LOS ANGELES","Address":"6320 W Sunset Blvd","City":"Los Angeles","State":"CA","Zip":"90028"},{"Location":"CCHR INT","Address":"6616 W Sunset Blvd","City":"Los Angeles","State":"CA","Zip":"90028"},{"Location":"CENTRAL JAIL BAIL BONDS","Address":"1345 Wilcox Ave","City":"Los Angeles","State":"CA","Zip":"90028"},{"Location":"CHO OISHI","Address":"6801 Hollywood Blvd 400","City":"Los Angeles","State":"CA","Zip":"90028"},{"Location":"CHURCH OF SCIENTOLOGY INTERNAT","Address":"6331 Hollywood Blvd 800","City":"Los Angeles","State":"CA","Zip":"90028"},{"Location":"CNN LOS ANGELES","Address":"6430 W Sunset Blvd 300","City":"Los Angeles","State":"CA","Zip":"90028"},{"Location":"COLLIER SIMON","Address":"1642 Wilcox Ave","City":"Los Angeles","State":"CA","Zip":"90028"},{"Location":"COMPREHENSIVE FIN SRVS","Address":"6255 W Sunset Blvd 1150","City":"Los Angeles","State":"CA","Zip":"90028"},{"Location":"DAVE AND BUSTERS #78","Address":"6801 Hollywood Blvd","City":"Los Angeles","State":"CA","Zip":"90028"},{"Location":"DIAMOND NAILS","Address":"7095 Hollywood Blvd 205","City":"Los Angeles","State":"CA","Zip":"90028"},{"Location":"DIVA LIMO","Address":"1670 N Sycamore Ave","City":"Los Angeles","State":"CA","Zip":"90028"},{"Location":"DOLBY THEATRE","Address":"6801 Hollywood Blvd 180","City":"Los Angeles","State":"CA","Zip":"90028"},{"Location":"DON MISCHER PRODUCTIONS","Address":"6255 W Sunset Blvd 820","City":"Los Angeles","State":"CA","Zip":"90028"},{"Location":"DOS BURRITOS","Address":"6328 Hollywood Blvd","City":"Los Angeles","State":"CA","Zip":"90028"},{"Location":"DR VICK KARGODORIAN","Address":"7080 Hollywood Blvd 806","City":"Los Angeles","State":"CA","Zip":"90028"},{"Location":"E A SALON","Address":"1607 N La Brea Ave","City":"Los Angeles","State":"CA","Zip":"90028"},{"Location":"EAST WEST STUDIOS","Address":"6000 W Sunset Blvd","City":"Los Angeles","State":"CA","Zip":"90028"},{"Location":"EASTOWN  FITNESS CTR","Address":"6201 Hollywood Blvd 132","City":"Los Angeles","State":"CA","Zip":"90028"},{"Location":"FAMILY DENTISTRY","Address":"7063 W Sunset Blvd","City":"Los Angeles","State":"CA","Zip":"90028"},{"Location":"FAT SALS HOLLWOOD","Address":"1300 N Highland Ave","City":"Los Angeles","State":"CA","Zip":"90028"},{"Location":"FIRE STATION 27","Address":"1327 Cole Ave","City":"Los Angeles","State":"CA","Zip":"90028"},{"Location":"FIRESTONE #011657","Address":"1410 N Highland Ave","City":"Los Angeles","State":"CA","Zip":"90028"},{"Location":"FIRST SOUTHERN BAPTIST CHURCH","Address":"1528 N Wilton Pl","City":"Los Angeles","State":"CA","Zip":"90028"},{"Location":"FIVE O FOUR","Address":"6541 Hollywood Blvd 102","City":"Los Angeles","State":"CA","Zip":"90028"},{"Location":"FLAUNT MAGAZINE","Address":"1422 N Highland Ave","City":"Los Angeles","State":"CA","Zip":"90028"},{"Location":"FLORENTINE GARDENS","Address":"5951 Hollywood Blvd","City":"Los Angeles","State":"CA","Zip":"90028"},{"Location":"FLOYDS BARBERSHOP","Address":"1555 N Cahuenga Blvd","City":"Los Angeles","State":"CA","Zip":"90028"},{"Location":"FOTOKEM","Address":"6255 W Sunset Blvd","City":"Los Angeles","State":"CA","Zip":"90028"},{"Location":"FOX NEWCO COMEDY LLC","Address":"1635 N Cahuenga Blvd 4fl","City":"Los Angeles","State":"CA","Zip":"90028"},{"Location":"FRANKLIN AND CO TAVERN","Address":"5923 Franklin Ave","City":"Los Angeles","State":"CA","Zip":"90028"},{"Location":"FRIENDS NIGHT","Address":"6526 W Sunset Blvd","City":"Los Angeles","State":"CA","Zip":"90028"},{"Location":"FROLIC","Address":"6245 Hollywood Blvd","City":"Los Angeles","State":"CA","Zip":"90028"},{"Location":"GALPIN STUDIO RENTALS","Address":"1763 Ivar Ave","City":"Los Angeles","State":"CA","Zip":"90028"},{"Location":"GRANDPA JOHNSONS LOUNGE","Address":"1638 N Cahuenga Blvd","City":"Los Angeles","State":"CA","Zip":"90028"},{"Location":"GREENLEAF HOLLYWOOD","Address":"6201 Hollywood Blvd 120","City":"Los Angeles","State":"CA","Zip":"90028"},{"Location":"HANDSOME DEVILS BARBER","Address":"1523 N La Brea Ave","City":"Los Angeles","State":"CA","Zip":"90028"},{"Location":"HELLO & CO","Address":"1641 Ivar Ave","City":"Los Angeles","State":"CA","Zip":"90028"},{"Location":"HENSON RECORDING STUDIO","Address":"1416 N La Brea Ave","City":"Los Angeles","State":"CA","Zip":"90028"},{"Location":"HOLLYWOOD & HIGHLAND","Address":"6801 Hollywood Blvd 170","City":"Los Angeles","State":"CA","Zip":"90028"},{"Location":"HOLLYWOOD BEAUTY SALON","Address":"7067 W Sunset Blvd","City":"Los Angeles","State":"CA","Zip":"90028"},{"Location":"HOLLYWOOD BRICKYARD LLC","Address":"1810 Wilcox Ave","City":"Los Angeles","State":"CA","Zip":"90028"},{"Location":"HOLLYWOOD GYM AND FITNESS","Address":"1551 N La Brea Ave","City":"Los Angeles","State":"CA","Zip":"90028"},{"Location":"HOLLYWOOD HIGHLAND HOTEL","Address":"7038 1%2F2 Hollywood Blvd","City":"Los Angeles","State":"CA","Zip":"90028"},{"Location":"HOLLYWOOD HOLSTIC HEALER","Address":"1607 N El Centro Ave 1","City":"Los Angeles","State":"CA","Zip":"90028"},{"Location":"HOLLYWOOD IRC LLC","Address":"1605 N Cahuenga Blvd","City":"Los Angeles","State":"CA","Zip":"90028"},{"Location":"HOLLYWOOD PALLADIUM","Address":"6215 W Sunset Blvd","City":"Los Angeles","State":"CA","Zip":"90028"},{"Location":"HOOTERS HOLLYWOOD HWD202","Address":"6922 Hollywood Blvd","City":"Los Angeles","State":"CA","Zip":"90028"},{"Location":"HORNBURG JAGUAR AND LAND ROVER","Address":"1520 Wilcox Ave","City":"Los Angeles","State":"CA","Zip":"90028"},{"Location":"HOTEL HOLLYWOOD (068816)","Address":"6250 Hollywood Blvd","City":"Los Angeles","State":"CA","Zip":"90028"},{"Location":"HOUSE OF CHAN DARAE INC","Address":"1511 N Cahuenga Blvd","City":"Los Angeles","State":"CA","Zip":"90028"},{"Location":"HOYKA","Address":"5908 W Sunset Blvd","City":"Los Angeles","State":"CA","Zip":"90028"},{"Location":"IO WEST THEATRE","Address":"6366 Hollywood Blvd","City":"Los Angeles","State":"CA","Zip":"90028"},{"Location":"J&J PROPERTY CO LLC","Address":"1638 N Las Palmas Ave","City":"Los Angeles","State":"CA","Zip":"90028"},{"Location":"JACKSON SPORTS ADVISORS LLC","Address":"6565 W Sunset Blvd 425","City":"Los Angeles","State":"CA","Zip":"90028"},{"Location":"JAMESONS IRISH PUB","Address":"6683 Hollywood Blvd","City":"Los Angeles","State":"CA","Zip":"90028"},{"Location":"JIMMY KIMMEL LIVE","Address":"6834 Hollywood Blvd 504","City":"Los Angeles","State":"CA","Zip":"90028"},{"Location":"JIMMY KIMMEL LIVE #2","Address":"6834 Hollywood Blvd 504","City":"Los Angeles","State":"CA","Zip":"90028"},{"Location":"JIMMY KIMMEL LIVE #3","Address":"6834 Hollywood Blvd 504","City":"Los Angeles","State":"CA","Zip":"90028"},{"Location":"JIMMY KIMMEL LIVE #4","Address":"6834 Hollywood Blvd 504","City":"Los Angeles","State":"CA","Zip":"90028"},{"Location":"JIMMY KIMMEL LIVE #5","Address":"6834 Hollywood Blvd","City":"Los Angeles","State":"CA","Zip":"90028"},{"Location":"JIMMY KIMMEL LIVE #6","Address":"6834 Hollywood Blvd 500","City":"Los Angeles","State":"CA","Zip":"90028"},{"Location":"KABUKI JAPANESE RESTAURANT","Address":"1545 Vine St","City":"Los Angeles","State":"CA","Zip":"90028"},{"Location":"KILROY REALTY","Address":"6255 W Sunset Blvd 2210","City":"Los Angeles","State":"CA","Zip":"90028"},{"Location":"KIMS INC","Address":"1717 Garfield Pl 526","City":"Los Angeles","State":"CA","Zip":"90028"},{"Location":"KITCHEN 24 LLC","Address":"1608 N Cahuenga Blvd","City":"Los Angeles","State":"CA","Zip":"90028"},{"Location":"KRAUT LAW GROUP","Address":"6255 W Sunset Blvd 1480","City":"Los Angeles","State":"CA","Zip":"90028"},{"Location":"KTLA CREATIVE","Address":"5800 W Sunset Blvd","City":"Los Angeles","State":"CA","Zip":"90028"},{"Location":"KTLA NEWS","Address":"5800 W Sunset Blvd","City":"Los Angeles","State":"CA","Zip":"90028"},{"Location":"LA CITY STATION 82","Address":"5769 Hollywood Blvd","City":"Los Angeles","State":"CA","Zip":"90028"},{"Location":"LA FITNESS #06104","Address":"1628 N El Centro Ave","City":"Los Angeles","State":"CA","Zip":"90028"},{"Location":"LA FITNESS #72","Address":"7021 Hollywood Blvd","City":"Los Angeles","State":"CA","Zip":"90028"},{"Location":"LA POUBELLE","Address":"5907 Franklin Ave","City":"Los Angeles","State":"CA","Zip":"90028"},{"Location":"LIVE NATION","Address":"1800 N Highland Ave","City":"Los Angeles","State":"CA","Zip":"90028"},{"Location":"LOADED","Address":"6377 Hollywood Blvd","City":"Los Angeles","State":"CA","Zip":"90028"},{"Location":"LOEWS HOLLYWOOD HOTEL  0064803","Address":"1755 N Highland Ave","City":"Los Angeles","State":"CA","Zip":"90028"},{"Location":"LOS ANGELES GAY & LESBIAN CENT","Address":"1625 Schrader Blvd","City":"Los Angeles","State":"CA","Zip":"90028"},{"Location":"LOTERIA GRILL HOLLYWOOD","Address":"6627 Hollywood Blvd","City":"Los Angeles","State":"CA","Zip":"90028"},{"Location":"LOVE DEACONS OF SOUL","Address":"1416 N La Brea Ave","City":"Los Angeles","State":"CA","Zip":"90028"},{"Location":"LUCKY DEVILS","Address":"6613 Hollywood Blvd","City":"Los Angeles","State":"CA","Zip":"90028"},{"Location":"LUCKY STRIKE LANES","Address":"6801 Hollywood Blvd","City":"Los Angeles","State":"CA","Zip":"90028"},{"Location":"MAGNOLIA","Address":"6266 1%2F2 W Sunset Blvd","City":"Los Angeles","State":"CA","Zip":"90028"},{"Location":"MANOR HOTEL","Address":"5930 Franklin Ave","City":"Los Angeles","State":"CA","Zip":"90028"},{"Location":"MANOR HOTEL #2","Address":"5930 Franklin Ave","City":"Los Angeles","State":"CA","Zip":"90028"},{"Location":"MANTRA ENTERTAINMENT LLC","Address":"6363 Selma Ave","City":"Los Angeles","State":"CA","Zip":"90028"},{"Location":"MARVINS ROOM","Address":"6553 W Sunset Blvd","City":"Los Angeles","State":"CA","Zip":"90028"},{"Location":"MAYTAG HIGHLANDER","Address":"6425 Yucca St","City":"Los Angeles","State":"CA","Zip":"90028"},{"Location":"MCDONALDS","Address":"1413 Vine St","City":"Los Angeles","State":"CA","Zip":"90028"},{"Location":"MISSION CANTINA","Address":"5946 W Sunset Blvd","City":"Los Angeles","State":"CA","Zip":"90028"},{"Location":"MISSION CANTINA%2FDELANCY VILLAG","Address":"5936-5946 W Sunset Blvd","City":"Los Angeles","State":"CA","Zip":"90028"},{"Location":"MOUNAI COFFE","Address":"6603 Hollywood Blvd","City":"Los Angeles","State":"CA","Zip":"90028"},{"Location":"MUANG PHET THAI FOOD","Address":"5907 Hollywood Blvd","City":"Los Angeles","State":"CA","Zip":"90028"},{"Location":"MWW","Address":"6255 W Sunset Blvd 1806","City":"Los Angeles","State":"CA","Zip":"90028"},{"Location":"NARIYA THAI","Address":"6099 W Sunset Blvd","City":"Los Angeles","State":"CA","Zip":"90028"},{"Location":"NCLUSIVE","Address":"1800 N Highland Ave 3rdfl","City":"Los Angeles","State":"CA","Zip":"90028"},{"Location":"NED PANTAGES","Address":"6233 Hollywood Blvd","City":"Los Angeles","State":"CA","Zip":"90028"},{"Location":"NED PANTAGES I","Address":"6233 Hollywood Blvd","City":"Los Angeles","State":"CA","Zip":"90028"},{"Location":"NUMBER 13 LLC","Address":"5620 Hollywood Blvd","City":"Los Angeles","State":"CA","Zip":"90028"},{"Location":"NYGEL LYTHGOE PRODUCTION","Address":"1741 Ivar Aveneue","City":"Los Angeles","State":"CA","Zip":"90028"},{"Location":"OPTIMAL FUSION","Address":"1635 N Cahuenga Blvd 550","City":"Los Angeles","State":"CA","Zip":"90028"},{"Location":"OUR STORIES FILMS","Address":"1635 N Cahuenga Blvd 5thf","City":"Los Angeles","State":"CA","Zip":"90028"},{"Location":"OUTPOST RESTAURANT","Address":"1624 N Cahuenga Blvd","City":"Los Angeles","State":"CA","Zip":"90028"},{"Location":"PALM'S THAI","Address":"5900 Hollywood Blvd B","City":"Los Angeles","State":"CA","Zip":"90028"},{"Location":"PARTIZAN","Address":"1545 Wilcox Ave 401","City":"Los Angeles","State":"CA","Zip":"90028"},{"Location":"PATRICK GARNEY","Address":"6230 W Sunset Blvd","City":"Los Angeles","State":"CA","Zip":"90028"},{"Location":"PETE FLOWERS","Address":"6260 W Sunset Blvd","City":"Los Angeles","State":"CA","Zip":"90028"},{"Location":"PIANO BAR","Address":"6429 Selma Ave","City":"Los Angeles","State":"CA","Zip":"90028"},{"Location":"POWERHOUSE","Address":"1714 N Highland Ave","City":"Los Angeles","State":"CA","Zip":"90028"},{"Location":"PRECISE AUTO BODY","Address":"5610 Hollywood Blvd","City":"Los Angeles","State":"CA","Zip":"90028"},{"Location":"PRESTIGE JEWELRY","Address":"6552 Hollywood Blvd","City":"Los Angeles","State":"CA","Zip":"90028"},{"Location":"REALSONGS","Address":"6363 W Sunset Blvd Flr 8","City":"Los Angeles","State":"CA","Zip":"90028"},{"Location":"ROCART INC","Address":"6230 W Sunset Blvd","City":"Los Angeles","State":"CA","Zip":"90028"},{"Location":"RUSTY MULLET","Address":"1708 N Las Palmas Ave","City":"Los Angeles","State":"CA","Zip":"90028"},{"Location":"SAINT FELIX","Address":"1602 N Cahuenga Blvd","City":"Los Angeles","State":"CA","Zip":"90028"},{"Location":"SAYERS","Address":"1645 Wilcox Ave","City":"Los Angeles","State":"CA","Zip":"90028"},{"Location":"SHINE AMERICA","Address":"1741 Ivar Ave","City":"Los Angeles","State":"CA","Zip":"90028"},{"Location":"SIREN STUDIOS","Address":"6087 W Sunset Blvd","City":"Los Angeles","State":"CA","Zip":"90028"},{"Location":"SIREN STUDIOS SUNSET","Address":"6069 W Sunset Blvd","City":"Los Angeles","State":"CA","Zip":"90028"},{"Location":"SIZZLER 213","Address":"1323 N Highland Ave","City":"Los Angeles","State":"CA","Zip":"90028"},{"Location":"SJWS ENTERPRISES INC","Address":"1600 Vine St","City":"Los Angeles","State":"CA","Zip":"90028"},{"Location":"SNOW WHITE CAFE","Address":"6769 Hollywood Blvd","City":"Los Angeles","State":"CA","Zip":"90028"},{"Location":"SOCAL-PIZZA HUT-26228","Address":"6660 W Sunset Blvd","City":"Los Angeles","State":"CA","Zip":"90028"},{"Location":"SOI 56","Address":"1556 N Cahuenga Blvd","City":"Los Angeles","State":"CA","Zip":"90028"},{"Location":"SORRY WERE OPEN","Address":"1433 N Highland Ave","City":"Los Angeles","State":"CA","Zip":"90028"},{"Location":"SPARE ROOM","Address":"7000 Hollywood Blvd","City":"Los Angeles","State":"CA","Zip":"90028"},{"Location":"SPORT CENTER","Address":"6640 Hollywood Blvd","City":"Los Angeles","State":"CA","Zip":"90028"},{"Location":"STANDARD TRANSPORTATION","Address":"1401 N La Brea Ave","City":"Los Angeles","State":"CA","Zip":"90028"},{"Location":"STAR HOOKAH LOUNGE","Address":"6430 Hollywood Blvd","City":"Los Angeles","State":"CA","Zip":"90028"},{"Location":"STARR BOSS","Address":"6363 Hollywood Blvd 1","City":"Los Angeles","State":"CA","Zip":"90028"},{"Location":"STELLA BARRA","Address":"6372 W Sunset Blvd","City":"Los Angeles","State":"CA","Zip":"90028"},{"Location":"STOUT","Address":"1544 N Cahuenga Blvd","City":"Los Angeles","State":"CA","Zip":"90028"},{"Location":"SUNSET BRONSON SERVICES","Address":"5800 W Sunset Blvd","City":"Los Angeles","State":"CA","Zip":"90028"},{"Location":"SUNSET BRONSON SERVICES LLC #2","Address":"5800 W Sunset Blvd","City":"Los Angeles","State":"CA","Zip":"90028"},{"Location":"SUNSET SOUND","Address":"6650 W Sunset Blvd","City":"Los Angeles","State":"CA","Zip":"90028"},{"Location":"SUNSET VINE TOWER","Address":"1480 Vine St","City":"Los Angeles","State":"CA","Zip":"90028"},{"Location":"TECHNICOLOR HOLLYWOOD","Address":"6040 W Sunset Blvd","City":"Los Angeles","State":"CA","Zip":"90028"},{"Location":"TECHNICOLOR HOLLYWOOD #2","Address":"6040 W Sunset Blvd","City":"Los Angeles","State":"CA","Zip":"90028"},{"Location":"THE COSMO","Address":"6364 Hollywood Blvd","City":"Los Angeles","State":"CA","Zip":"90028"},{"Location":"THE FADE INN BARBER SHOP","Address":"5633 1%2F2 Hollywood Blvd","City":"Los Angeles","State":"CA","Zip":"90028"},{"Location":"THE GRILL ON HOLLYWOOD","Address":"6801 Hollywood Blvd 407","City":"Los Angeles","State":"CA","Zip":"90028"},{"Location":"THE HAPPY ENDING BAR","Address":"7038 W Sunset Blvd","City":"Los Angeles","State":"CA","Zip":"90028"},{"Location":"THE LOS ANGELES FILM SCHOOL","Address":"6690 W Sunset Blvd","City":"Los Angeles","State":"CA","Zip":"90028"},{"Location":"TIN HORNS FLATS SALOON","Address":"1724 N Highland Ave","City":"Los Angeles","State":"CA","Zip":"90028"},{"Location":"TRAILER PARK","Address":"6922 Hollywood Blvd","City":"Los Angeles","State":"CA","Zip":"90028"},{"Location":"TRAILER PARK INC","Address":"6922 Hollywood Blvd 12","City":"Los Angeles","State":"CA","Zip":"90028"},{"Location":"TRU HOSPITALITY GROUP","Address":"1600 Argyle Ave","City":"Los Angeles","State":"CA","Zip":"90028"},{"Location":"TRUE PUBLIC RELATIONS","Address":"6725 W Sunset Blvd 470","City":"Los Angeles","State":"CA","Zip":"90028"},{"Location":"TV GUIDE NETWORKS INC #12 6801","Address":"6801 Hollywood Blvd","City":"Los Angeles","State":"CA","Zip":"90028"},{"Location":"TWO GUYS FROM ITALY","Address":"6705 Hollywood Blvd","City":"Los Angeles","State":"CA","Zip":"90028"},{"Location":"UMAMI HOLLYWOOD","Address":"1520 N Cahuenga Blvd","City":"Los Angeles","State":"CA","Zip":"90028"},{"Location":"UNITED SUPPLY DISTRIBUTERS","Address":"1540 N Highland Ave 105","City":"Los Angeles","State":"CA","Zip":"90028"},{"Location":"VAPING APE","Address":"1770 N Highland Ave J","City":"Los Angeles","State":"CA","Zip":"90028"},{"Location":"VEGAS  SEAFOOD BUFFET","Address":"7021 Hollywood Blvd 110","City":"Los Angeles","State":"CA","Zip":"90028"},{"Location":"VILLA DELLE STELLE","Address":"1557 La Baig Ave","City":"Los Angeles","State":"CA","Zip":"90028"},{"Location":"WORLD OF WONDER","Address":"6650 Hollywood Blvd 400","City":"Los Angeles","State":"CA","Zip":"90028"},{"Location":"ZAP2IT.COM","Address":"5800 W Sunset Blvd","City":"Los Angeles","State":"CA","Zip":"90028"},{"Location":"ZOLONZ LAW OFFICE","Address":"1680 N Vine Blvd 315","City":"Los Angeles","State":"CA","Zip":"90028"}]