[{"Location":"CLEANSOURCE","Address":"5635 Union Pacific Ave","City":"Commerce","State":"CA","Zip":"90022"},{"Location":"EL GALLO GIRO INC","Address":"5686 Whittier Blvd","City":"Commerce","State":"CA","Zip":"90022"},{"Location":"EPARTMENT OF PUBLIC HEALTH","Address":"5555 Ferguson Dr","City":"Commerce","State":"CA","Zip":"90022"},{"Location":"FAIRWAY TRADING","Address":"5717 Ferguson Dr","City":"Commerce","State":"CA","Zip":"90022"},{"Location":"FMC 71720000","Address":"5714 E Olympic Blvd","City":"Commerce","State":"CA","Zip":"90022"},{"Location":"LA COUNTY DEPT PUBLIC HEALTH","Address":"5555 Ferguson Dr 3036","City":"Commerce","State":"CA","Zip":"90022"},{"Location":"LOAS JEWELERY","Address":"5618 Whittier Blvd","City":"Commerce","State":"CA","Zip":"90022"},{"Location":"PAUL BLANCOS GOOD CAR COMPANY","Address":"5100 Triggs St","City":"Commerce","State":"CA","Zip":"90022"},{"Location":"RASPADO XPRESS","Address":"5540 Whittier Blvd","City":"Commerce","State":"CA","Zip":"90022"},{"Location":"RICKS DRIVE IN & OUT","Address":"5750 Whittier Blvd","City":"Commerce","State":"CA","Zip":"90022"},{"Location":"SURISE PRODUCE COMPANY","Address":"1400 Goodrich Blvd","City":"Commerce","State":"CA","Zip":"90022"},{"Location":"TARGET STORE","Address":"5600 Whittier Blvd","City":"Commerce","State":"CA","Zip":"90022"},{"Location":"VALOR HEALTHCARE","Address":"5426 E Olympic Blvd 300","City":"Commerce","State":"CA","Zip":"90022"},{"Location":"WORLD WIDE FABRIC INC","Address":"4944 Triggs St","City":"Commerce","State":"CA","Zip":"90022"},{"Location":"XIOMARAS RESTAURANT","Address":"4828 Whittier Blvd","City":"East Los Angeles","State":"CA","Zip":"90022"},{"Location":"A & N ENGINE","Address":"4330 Cesar Chavez Ave","City":"Los Angeles","State":"CA","Zip":"90022"},{"Location":"AA SMOGZ","Address":"4354 E Cesar Chavez Ave","City":"Los Angeles","State":"CA","Zip":"90022"},{"Location":"AARON BROTHERS","Address":"1270 Goodrich Blvd","City":"Los Angeles","State":"CA","Zip":"90022"},{"Location":"ALEX BURGERS","Address":"4767 E Olympic Blvd","City":"Los Angeles","State":"CA","Zip":"90022"},{"Location":"ALVAREZ MARKET","Address":"4737 E Olympic Blvd","City":"Los Angeles","State":"CA","Zip":"90022"},{"Location":"AMERICA TRAVEL AGENCY","Address":"4936 Whittier Blvd","City":"Los Angeles","State":"CA","Zip":"90022"},{"Location":"AMERICAN LEGION","Address":"4615 Cesar Chavez Ave","City":"Los Angeles","State":"CA","Zip":"90022"},{"Location":"ATLANTIC BARBERS","Address":"427 1%2F2 S Atlantic Blvd Blvd","City":"Los Angeles","State":"CA","Zip":"90022"},{"Location":"ATLANTIC RESTAURANT","Address":"630 S Atlantic Blvd","City":"Los Angeles","State":"CA","Zip":"90022"},{"Location":"BARAY INVESTMENTS INC","Address":"4600 E 3rd St","City":"Los Angeles","State":"CA","Zip":"90022"},{"Location":"BLOOMS BEAUTY SALON","Address":"4543 Whittier Blvd","City":"Los Angeles","State":"CA","Zip":"90022"},{"Location":"CAL CAFE AND BILLIARDS","Address":"5128 Whittier Blvd","City":"Los Angeles","State":"CA","Zip":"90022"},{"Location":"CITIES RESTAURANT","Address":"4512 E Cesar Chavez Ave","City":"Los Angeles","State":"CA","Zip":"90022"},{"Location":"COSMOPOLITAN SALON","Address":"924 S Atlantic Blvd","City":"Los Angeles","State":"CA","Zip":"90022"},{"Location":"DAVID A ABRAMS  DMD","Address":"6451 Whittier Blvd","City":"Los Angeles","State":"CA","Zip":"90022"},{"Location":"DAVITA #334 DRS OF EAST LA","Address":"950 S Eastern Ave","City":"Los Angeles","State":"CA","Zip":"90022"},{"Location":"DR PATEL","Address":"4477 Whittier Blvd","City":"Los Angeles","State":"CA","Zip":"90022"},{"Location":"EAST LA ALCOHOLISM COUNC","Address":"916 S Atlantic Blvd","City":"Los Angeles","State":"CA","Zip":"90022"},{"Location":"EAST LA DIALYSIS CENTER","Address":"5830 East Woodier Blvd","City":"Los Angeles","State":"CA","Zip":"90022"},{"Location":"EAST LA PROBATION","Address":"4849 Civic Center Way","City":"Los Angeles","State":"CA","Zip":"90022"},{"Location":"EL GALLO GRILL","Address":"4533 Cesar Chavez Ave","City":"Los Angeles","State":"CA","Zip":"90022"},{"Location":"ERNYS BARBERSHOP","Address":"4580 Whittier Blvd","City":"Los Angeles","State":"CA","Zip":"90022"},{"Location":"FAMILY","Address":"4304 Floral Dr","City":"Los Angeles","State":"CA","Zip":"90022"},{"Location":"FIESTA SPORTS BAR","Address":"5309 E Beverly Blvd","City":"Los Angeles","State":"CA","Zip":"90022"},{"Location":"FMC 38200000","Address":"5220 Telford St","City":"Los Angeles","State":"CA","Zip":"90022"},{"Location":"GALINDO PAINT COMPANY","Address":"729 S Atlantic Blvd","City":"Los Angeles","State":"CA","Zip":"90022"},{"Location":"GUERRA GUITIERREZ MORTUARIES","Address":"5800 E Beverly Blvd","City":"Los Angeles","State":"CA","Zip":"90022"},{"Location":"JALISCO TIRE","Address":"1450 S Atlantic Blvd","City":"Los Angeles","State":"CA","Zip":"90022"},{"Location":"JENNYS AUTO","Address":"575 S Atlantic Blvd","City":"Los Angeles","State":"CA","Zip":"90022"},{"Location":"JESUS RAMIREZ MEDICAL CORP.","Address":"6128 Whittier Blvd","City":"Los Angeles","State":"CA","Zip":"90022"},{"Location":"JOE S CUSTOM FURNITURES FRAME","Address":"6402 Whittier Blvd","City":"Los Angeles","State":"CA","Zip":"90022"},{"Location":"JOHN LOPEZ","Address":"208 S Atlantic Blvd","City":"Los Angeles","State":"CA","Zip":"90022"},{"Location":"JOHNS BURGERS","Address":"6537 Whittier Blvd","City":"Los Angeles","State":"CA","Zip":"90022"},{"Location":"JUAN POLLO","Address":"223 S Mednick Avenue","City":"Los Angeles","State":"CA","Zip":"90022"},{"Location":"LA  COUNTY PROBATION","Address":"4549 Telegraph Rd","City":"Los Angeles","State":"CA","Zip":"90022"},{"Location":"LA BOULANGE DE LA BREA 2","Address":"359 S La Brea  Ave.","City":"Los Angeles","State":"CA","Zip":"90022"},{"Location":"LA CARRETA RESTAURANT","Address":"4538 1%2F2 E Cesar E Chavez Ave","City":"Los Angeles","State":"CA","Zip":"90022"},{"Location":"LA CASCADA","Address":"5825 Allston St","City":"Los Angeles","State":"CA","Zip":"90022"},{"Location":"LA FARFALA CAFE","Address":"346 N Ford Blvd","City":"Los Angeles","State":"CA","Zip":"90022"},{"Location":"LAS VEGAS SHUTTLES","Address":"1014 S Atlantic Blvd","City":"Los Angeles","State":"CA","Zip":"90022"},{"Location":"LAUR METALS","Address":"4627 Telegraph Rd","City":"Los Angeles","State":"CA","Zip":"90022"},{"Location":"LITTLE MEXICO INC","Address":"4937 Whittier Blvd","City":"Los Angeles","State":"CA","Zip":"90022"},{"Location":"LOS ARCOS RESTAURANT","Address":"5719 Whittier Blvd","City":"Los Angeles","State":"CA","Zip":"90022"},{"Location":"LOVE HATE ROCK BAR","Address":"5226 East Pomona Ave","City":"Los Angeles","State":"CA","Zip":"90022"},{"Location":"MAYWOOD PAWN SHOP","Address":"952 S Atlantic Blvd","City":"Los Angeles","State":"CA","Zip":"90022"},{"Location":"MINA LIQUOR AND MARKET","Address":"311 S Mcdonnell Ave","City":"Los Angeles","State":"CA","Zip":"90022"},{"Location":"MIRIAM BEAUTY SILHOUETTE","Address":"4838 Whittier Blvd","City":"Los Angeles","State":"CA","Zip":"90022"},{"Location":"OUR LADY OF SOLITUDE","Address":"4561 Ceasar Chavez Ave","City":"Los Angeles","State":"CA","Zip":"90022"},{"Location":"PITSTOPCHECKCASHINGLOAN","Address":"6016 Whittier Blvd","City":"Los Angeles","State":"CA","Zip":"90022"},{"Location":"PLAZA COIN LAUNDRY","Address":"514 S Atlantic Blvd","City":"Los Angeles","State":"CA","Zip":"90022"},{"Location":"PMD HOLDINGS INC","Address":"5629 E Beverly Blvd","City":"Los Angeles","State":"CA","Zip":"90022"},{"Location":"RBM CONSULTANTS INC DBA","Address":"5100 E Beverly Blvd","City":"Los Angeles","State":"CA","Zip":"90022"},{"Location":"RICHARDS STYLING","Address":"5413 E Beverly Blvd","City":"Los Angeles","State":"CA","Zip":"90022"},{"Location":"ROBERTS SCREEN PRINTING","Address":"5954 Whittier Blvd","City":"Los Angeles","State":"CA","Zip":"90022"},{"Location":"SCHAEFER AMBULANCE SERVICE INC","Address":"740 1%2F2 S Atlantic Blvd","City":"Los Angeles","State":"CA","Zip":"90022"},{"Location":"ST ALPHONSUS CHURCH","Address":"5223 Hastings St","City":"Los Angeles","State":"CA","Zip":"90022"},{"Location":"TACOS BAJA1","Address":"5385 Whittibr Blvd","City":"Los Angeles","State":"CA","Zip":"90022"},{"Location":"TAMAYO RESTAURANT","Address":"5300 E Olympic Blvd","City":"Los Angeles","State":"CA","Zip":"90022"},{"Location":"TEJUINOSRIVERA","Address":"4727 Whittier Blvd","City":"Los Angeles","State":"CA","Zip":"90022"},{"Location":"THE PENTHOUSE","Address":"1347 S Atlantic Blvd","City":"Los Angeles","State":"CA","Zip":"90022"},{"Location":"TONYS SUPER TUNE UPS","Address":"5931 E Olympic Blvd","City":"Los Angeles","State":"CA","Zip":"90022"},{"Location":"TORTAS AHOGADAS","Address":"4508 Whittier Blvd","City":"Los Angeles","State":"CA","Zip":"90022"},{"Location":"TRANSPORTES T NAJERA TREJO","Address":"6009 Whittier Blvd","City":"Los Angeles","State":"CA","Zip":"90022"},{"Location":"VALLARTA TIRES INC.","Address":"4346 Cesar Chavez Ave","City":"Los Angeles","State":"CA","Zip":"90022"},{"Location":"WINGSTOP","Address":"5049 Whittier Blvd","City":"Los Angeles","State":"CA","Zip":"90022"}]