[{"Location":"SUNSET WHEELS & TIRES","Address":"5280 W Sunset Blvd","City":"Hollywood","State":"CA","Zip":"90027"},{"Location":"(A) YE RUSTIC INN","Address":"1831 Hillhurst Ave","City":"Los Angeles","State":"CA","Zip":"90027"},{"Location":"1739 PUBLIC HOUSE","Address":"1739-45 N Vermont Ave","City":"Los Angeles","State":"CA","Zip":"90027"},{"Location":"ABC NEWS NETWORK BUREAU OF","Address":"4151 Prospect Ave","City":"Los Angeles","State":"CA","Zip":"90027"},{"Location":"ACAPULCO 0041","Address":"4444 W Sunset Blvd","City":"Los Angeles","State":"CA","Zip":"90027"},{"Location":"ALEXANDRIA  CARE CENTER","Address":"1515 N Alexandria Ave 34a","City":"Los Angeles","State":"CA","Zip":"90027"},{"Location":"ALEXS BARBERSHOP","Address":"5072 W Sunset Blvd","City":"Los Angeles","State":"CA","Zip":"90027"},{"Location":"ASUNCION G REYES DDS","Address":"1321 N Vermont Ave 3","City":"Los Angeles","State":"CA","Zip":"90027"},{"Location":"BARBARELLA BAR%2FLAGO D' ARGENTO","Address":"2609-2611 N Hyperion Ave","City":"Los Angeles","State":"CA","Zip":"90027"},{"Location":"BEAUTIFUL WHALE SPOUT PROD","Address":"2432 Hyperion Ave","City":"Los Angeles","State":"CA","Zip":"90027"},{"Location":"BIG MAMAS PAPAS PIZZERIA","Address":"5051 Hollywood Blvd","City":"Los Angeles","State":"CA","Zip":"90027"},{"Location":"BORAN THAI RESTAURANT","Address":"5401 Hollywood Blvd","City":"Los Angeles","State":"CA","Zip":"90027"},{"Location":"BRIER OAK  TERRACE","Address":"5154 W Sunset Blvd","City":"Los Angeles","State":"CA","Zip":"90027"},{"Location":"CASITA DEL CAMPO","Address":"1920 Hyperion Ave","City":"Los Angeles","State":"CA","Zip":"90027"},{"Location":"CHEETAHS","Address":"4600 Hollywood Blvd","City":"Los Angeles","State":"CA","Zip":"90027"},{"Location":"CHILDRENS HOSPITAL LA","Address":"4610 Maubert Ave","City":"Los Angeles","State":"CA","Zip":"90027"},{"Location":"CHURCH OF SCIENTOLOGY","Address":"1308 L Ron Hubbard Way","City":"Los Angeles","State":"CA","Zip":"90027"},{"Location":"CHURCH OF SCIENTOLOGY 1","Address":"1308 L Ron Hubbard Way","City":"Los Angeles","State":"CA","Zip":"90027"},{"Location":"COVENANT HOUSE CALIFORNIA","Address":"1325 N Western Ave","City":"Los Angeles","State":"CA","Zip":"90027"},{"Location":"DAVITA #694 HOLLYWOOD","Address":"5108 W Sunset Blvd","City":"Los Angeles","State":"CA","Zip":"90027"},{"Location":"DR CAGATAOS OFFICE","Address":"1321 N Vermont Ave 8","City":"Los Angeles","State":"CA","Zip":"90027"},{"Location":"DR LILIT BAGHDASARIAN DDS","Address":"5106 Hollywood Blvd 200","City":"Los Angeles","State":"CA","Zip":"90027"},{"Location":"EL CHAVO","Address":"4441 W Sunset Blvd","City":"Los Angeles","State":"CA","Zip":"90027"},{"Location":"EL TRES INN","Address":"4439 W Sunset Blvd","City":"Los Angeles","State":"CA","Zip":"90027"},{"Location":"EN SUSHI","Address":"1972 Hillhurst Ave","City":"Los Angeles","State":"CA","Zip":"90027"},{"Location":"GEORGE LIM DMD - VERMONT","Address":"1551 N Vermont Ave","City":"Los Angeles","State":"CA","Zip":"90027"},{"Location":"GREY'S ANATOMY","Address":"4151 Prospect Ave P2fl","City":"Los Angeles","State":"CA","Zip":"90027"},{"Location":"GRIFFITH OBSEVATORY","Address":"2800 E Observatory Ave","City":"Los Angeles","State":"CA","Zip":"90027"},{"Location":"HILLHURST MORTGAGE","Address":"1662 Hillhurst Ave","City":"Los Angeles","State":"CA","Zip":"90027"},{"Location":"HOLLYWOOD JEWELRY LOAN","Address":"1547 N Vermont Ave","City":"Los Angeles","State":"CA","Zip":"90027"},{"Location":"HOLLYWOOD PRESBYTERIAN MEDICAL","Address":"1300 N Vermont Ave","City":"Los Angeles","State":"CA","Zip":"90027"},{"Location":"HOUSE OF PIES","Address":"1869 N Vermont Ave","City":"Los Angeles","State":"CA","Zip":"90027"},{"Location":"HYPERION","Address":"2538 Hyperion Ave","City":"Los Angeles","State":"CA","Zip":"90027"},{"Location":"IANCU GALES LLC","Address":"5418 Carlton Way","City":"Los Angeles","State":"CA","Zip":"90027"},{"Location":"J & O TAXES BOOK KEEPING","Address":"4470 W Sunset Blvd 109","City":"Los Angeles","State":"CA","Zip":"90027"},{"Location":"JADE BEAUTY PARLOR","Address":"5123 W Sunset Blvd 210","City":"Los Angeles","State":"CA","Zip":"90027"},{"Location":"JB FOOD SERVICE","Address":"5273 Hollywood Blvd","City":"Los Angeles","State":"CA","Zip":"90027"},{"Location":"KETIKYAN","Address":"1540 N Harvard Blvd 5","City":"Los Angeles","State":"CA","Zip":"90027"},{"Location":"LAGO D'ARGENTO","Address":"2611 N. Hyperion Ave","City":"Los Angeles","State":"CA","Zip":"90027"},{"Location":"LEMPIRARESTAURANT","Address":"4848 Hollywood Blvd","City":"Los Angeles","State":"CA","Zip":"90027"},{"Location":"LITTLE ONGPIN","Address":"5050 W Sunset Blvd","City":"Los Angeles","State":"CA","Zip":"90027"},{"Location":"LOS BURRITOS","Address":"4929 W Sunset Blvd","City":"Los Angeles","State":"CA","Zip":"90027"},{"Location":"LOS BURRITOS OFFICES","Address":"4961 W Sunset Blvd","City":"Los Angeles","State":"CA","Zip":"90027"},{"Location":"MBMEDICALGROUP","Address":"2101 Hillhurst Ave","City":"Los Angeles","State":"CA","Zip":"90027"},{"Location":"PRESTIGE CAPITAL MANAGEMENT","Address":"4646 Los Feliz Blvd 302","City":"Los Angeles","State":"CA","Zip":"90027"},{"Location":"SHAKEY'S PIZZA RESTAURANT","Address":"5170 W Sunset Blvd","City":"Los Angeles","State":"CA","Zip":"90027"},{"Location":"SIDEWALK GRILL","Address":"1727 N Vermont Ave","City":"Los Angeles","State":"CA","Zip":"90027"},{"Location":"THE DRAWING ROOM","Address":"1800 Hillhurst Ave","City":"Los Angeles","State":"CA","Zip":"90027"},{"Location":"THE GREEK THEATRE","Address":"2700 N Vermont Ave","City":"Los Angeles","State":"CA","Zip":"90027"},{"Location":"THE RED CORNER","Address":"5267 Hollywood Blvd","City":"Los Angeles","State":"CA","Zip":"90027"},{"Location":"TIKI TI","Address":"4427 W Sunset Blvd","City":"Los Angeles","State":"CA","Zip":"90027"},{"Location":"TIM ARMSTRONG","Address":"2801 Hyperion Ave 102","City":"Los Angeles","State":"CA","Zip":"90027"},{"Location":"UMAMI BURGERS HOLLYWOOD","Address":"4655 Hollywood Blvd","City":"Los Angeles","State":"CA","Zip":"90027"},{"Location":"VIRGINIA COSTELO DDS","Address":"1321 N Vermont Ave 4","City":"Los Angeles","State":"CA","Zip":"90027"},{"Location":"VOLUNTEERS OF AMERICA","Address":"4969 W Sunset Blvd","City":"Los Angeles","State":"CA","Zip":"90027"},{"Location":"WALT DISNEY COMPANY #8","Address":"4151 Prospect Ave","City":"Los Angeles","State":"CA","Zip":"90027"},{"Location":"YEN SUSHI RESTAURANT","Address":"2081 Hillhurst Ave A","City":"Los Angeles","State":"CA","Zip":"90027"}]