[{"Location":"24 COIN LAUNDRY","Address":"3566 W 3rd St","City":"Los Angeles","State":"CA","Zip":"90020"},{"Location":"ANDERSON MUNGER YMCA","Address":"4301 W 3rd St","City":"Los Angeles","State":"CA","Zip":"90020"},{"Location":"BACKHOUSE","Address":"3500 W 6th St 301","City":"Los Angeles","State":"CA","Zip":"90020"},{"Location":"BEER BELLY","Address":"532 S Western Ave","City":"Los Angeles","State":"CA","Zip":"90020"},{"Location":"BOB HOUSE","Address":"3417 W 6th St","City":"Los Angeles","State":"CA","Zip":"90020"},{"Location":"CAFE BLEU","Address":"3470 W 6th St 8b","City":"Los Angeles","State":"CA","Zip":"90020"},{"Location":"CAFE LOFT","Address":"3882 W 6th St","City":"Los Angeles","State":"CA","Zip":"90020"},{"Location":"CAFE NANDARANG","Address":"3815 W 6th St B","City":"Los Angeles","State":"CA","Zip":"90020"},{"Location":"CATARINA LAVANDERIA","Address":"3658 W 3rd St","City":"Los Angeles","State":"CA","Zip":"90020"},{"Location":"CLA DMH ADMIN SUPPORT BUREAU","Address":"550 S Vermont Ave 2nd","City":"Los Angeles","State":"CA","Zip":"90020"},{"Location":"COFFEE MONSTER","Address":"300 S Hobart Blvd 101","City":"Los Angeles","State":"CA","Zip":"90020"},{"Location":"CRYSTAL SPA LLC","Address":"3500 W 6th St 321","City":"Los Angeles","State":"CA","Zip":"90020"},{"Location":"DAING KI BEAUTY SALON & SAUNA","Address":"4245 W 3rd St","City":"Los Angeles","State":"CA","Zip":"90020"},{"Location":"DOLGOOI","Address":"3821 W 6th St","City":"Los Angeles","State":"CA","Zip":"90020"},{"Location":"DON DAEGI","Address":"300 S Hobart Blvd 100","City":"Los Angeles","State":"CA","Zip":"90020"},{"Location":"DR JUNG MIN LEE","Address":"520 S Virgil Ave 105","City":"Los Angeles","State":"CA","Zip":"90020"},{"Location":"EDEN MOTOR","Address":"443 S Vermont Ave","City":"Los Angeles","State":"CA","Zip":"90020"},{"Location":"EL PALMAR REST","Address":"3555 W 3rd St","City":"Los Angeles","State":"CA","Zip":"90020"},{"Location":"EL RINCONCITO JUTIAPENSE","Address":"4010 W 3rd St","City":"Los Angeles","State":"CA","Zip":"90020"},{"Location":"EMC RESTAURANT GROUP LLC","Address":"3500 W 6th St 101","City":"Los Angeles","State":"CA","Zip":"90020"},{"Location":"ETUDE LOUNGE","Address":"3500 W 6th St","City":"Los Angeles","State":"CA","Zip":"90020"},{"Location":"EZ DIAGNOSIS CENTER","Address":"520 S Virgil Ave 104","City":"Los Angeles","State":"CA","Zip":"90020"},{"Location":"FENGMAO 2","Address":"414 S Western Ave E","City":"Los Angeles","State":"CA","Zip":"90020"},{"Location":"GOMEZ INSURANCE SERVICE","Address":"4254 W 3rd St","City":"Los Angeles","State":"CA","Zip":"90020"},{"Location":"GOODAH EXPRESS","Address":"3324 W 6th St A","City":"Los Angeles","State":"CA","Zip":"90020"},{"Location":"HAE ZY MYUN","Address":"3617 W 3rd St","City":"Los Angeles","State":"CA","Zip":"90020"},{"Location":"HAEUNDAE SEAFOOD RESTAUR","Address":"356 S Western Ave","City":"Los Angeles","State":"CA","Zip":"90020"},{"Location":"HEUNG RAE GAK","Address":"357 S Western Ave 102","City":"Los Angeles","State":"CA","Zip":"90020"},{"Location":"HIKARI","Address":"3465 W 6th St 150","City":"Los Angeles","State":"CA","Zip":"90020"},{"Location":"HK TOWN LLC.","Address":"440 S Vermont Ave","City":"Los Angeles","State":"CA","Zip":"90020"},{"Location":"HOON & K INC","Address":"4177 W 3rd St","City":"Los Angeles","State":"CA","Zip":"90020"},{"Location":"IMPERIOR CLEANERS","Address":"502 S Western Ave","City":"Los Angeles","State":"CA","Zip":"90020"},{"Location":"ITOCCO","Address":"324 S Western Ave A","City":"Los Angeles","State":"CA","Zip":"90020"},{"Location":"JEUNE SKIN CARE","Address":"4220 W 3rd St 105","City":"Los Angeles","State":"CA","Zip":"90020"},{"Location":"JJ INCOME TAX SERVICE","Address":"3620 W 3rd St","City":"Los Angeles","State":"CA","Zip":"90020"},{"Location":"K & C HAIR","Address":"3307 W 6th St","City":"Los Angeles","State":"CA","Zip":"90020"},{"Location":"KFOOD INC","Address":"3470 W 6th St 6","City":"Los Angeles","State":"CA","Zip":"90020"},{"Location":"KING OF NY PIZZERIA","Address":"301 S Western Ave 104","City":"Los Angeles","State":"CA","Zip":"90020"},{"Location":"KS OCEAN INC","Address":"3470 W 6th St 8a","City":"Los Angeles","State":"CA","Zip":"90020"},{"Location":"KYOCHON WEST%2C LLC","Address":"3833 W 6th St","City":"Los Angeles","State":"CA","Zip":"90020"},{"Location":"LA COMM SENIOR SERVICES","Address":"3175 W 6th St","City":"Los Angeles","State":"CA","Zip":"90020"},{"Location":"LEE","Address":"414 S Western Ave B","City":"Los Angeles","State":"CA","Zip":"90020"},{"Location":"LETS SEA 2 INC","Address":"301 S Wstrn Ave","City":"Los Angeles","State":"CA","Zip":"90020"},{"Location":"LIBRA HOTEL","Address":"3909 W 6th St","City":"Los Angeles","State":"CA","Zip":"90020"},{"Location":"MAN KANG","Address":"356 S Western Ave","City":"Los Angeles","State":"CA","Zip":"90020"},{"Location":"MARIELAS TACOS","Address":"3662 W 3rd St","City":"Los Angeles","State":"CA","Zip":"90020"},{"Location":"MARK SONG MD.PHD INC.","Address":"3663 W 6th St","City":"Los Angeles","State":"CA","Zip":"90020"},{"Location":"MATGOEUL","Address":"361 S Western Ave","City":"Los Angeles","State":"CA","Zip":"90020"},{"Location":"MBC BROADCASTING INC","Address":"3400 W 6th St 4","City":"Los Angeles","State":"CA","Zip":"90020"},{"Location":"MIJORI","Address":"4177 W 3rd St","City":"Los Angeles","State":"CA","Zip":"90020"},{"Location":"MINSOKMADANG","Address":"4083 W 3rd St","City":"Los Angeles","State":"CA","Zip":"90020"},{"Location":"MINYOUNG CHA  MD","Address":"520 S Virgil Ave","City":"Los Angeles","State":"CA","Zip":"90020"},{"Location":"MOON HOME COFFEE","Address":"401 S Hobart Blvd 310","City":"Los Angeles","State":"CA","Zip":"90020"},{"Location":"MOSS BAR","Address":"3981 W 6th St","City":"Los Angeles","State":"CA","Zip":"90020"},{"Location":"NAM BAE MOON","Address":"3470 W 6th St 2","City":"Los Angeles","State":"CA","Zip":"90020"},{"Location":"NAMSAN","Address":"3613 W 6th St B","City":"Los Angeles","State":"CA","Zip":"90020"},{"Location":"NOODLES","Address":"539 S Western Ave","City":"Los Angeles","State":"CA","Zip":"90020"},{"Location":"O JANG DONG","Address":"4031 W 3rd St","City":"Los Angeles","State":"CA","Zip":"90020"},{"Location":"PHAROS","Address":"2999 W 6th St 105","City":"Los Angeles","State":"CA","Zip":"90020"},{"Location":"PHO HANOI","Address":"3470 W 6th St 5","City":"Los Angeles","State":"CA","Zip":"90020"},{"Location":"PHO SAIGON","Address":"3831 W 6th St","City":"Los Angeles","State":"CA","Zip":"90020"},{"Location":"PHO24","Address":"3450 W 6th St 109b","City":"Los Angeles","State":"CA","Zip":"90020"},{"Location":"PICADIRI KOREAN BILLIARD","Address":"3324 W 6th St I","City":"Los Angeles","State":"CA","Zip":"90020"},{"Location":"PICCADILLY","Address":"3324 W 6th St G","City":"Los Angeles","State":"CA","Zip":"90020"},{"Location":"PLAYGROUND DENTAL","Address":"3631 W 3rd St","City":"Los Angeles","State":"CA","Zip":"90020"},{"Location":"QUARTER POUND","Address":"3465 W 6th St C130","City":"Los Angeles","State":"CA","Zip":"90020"},{"Location":"RED POLISH1","Address":"3324 W 6th St F","City":"Los Angeles","State":"CA","Zip":"90020"},{"Location":"SANG HOON AHN MD","Address":"500 S Virgil Ave 502","City":"Los Angeles","State":"CA","Zip":"90020"},{"Location":"SCG JUANITA BASE","Address":"3333 W 3rd St","City":"Los Angeles","State":"CA","Zip":"90020"},{"Location":"SHANG GO DONG","Address":"3807 W 3rd St","City":"Los Angeles","State":"CA","Zip":"90020"},{"Location":"SHATTO LANES","Address":"3255 W 4th St","City":"Los Angeles","State":"CA","Zip":"90020"},{"Location":"SHOUBU IZAKAYA","Address":"3429 W 6th St","City":"Los Angeles","State":"CA","Zip":"90020"},{"Location":"SIN JUNG","Address":"3450 W 6th St 101","City":"Los Angeles","State":"CA","Zip":"90020"},{"Location":"SIZZLER #628","Address":"400 S Vermont Ave","City":"Los Angeles","State":"CA","Zip":"90020"},{"Location":"SUN NONG DAN","Address":"3470 W 6th St 7","City":"Los Angeles","State":"CA","Zip":"90020"},{"Location":"TOE BANG","Address":"3465 W 6th St 110","City":"Los Angeles","State":"CA","Zip":"90020"},{"Location":"V-INVESTMENT","Address":"3456 W 6th St","City":"Los Angeles","State":"CA","Zip":"90020"},{"Location":"WESTERN SPA","Address":"356 S Western Ave","City":"Los Angeles","State":"CA","Zip":"90020"},{"Location":"WOOLEE INC","Address":"3451 W 6th St","City":"Los Angeles","State":"CA","Zip":"90020"},{"Location":"YANG SAN BAK","Address":"3601 W 6th St","City":"Los Angeles","State":"CA","Zip":"90020"},{"Location":"YANINAS FLOWER SHOP","Address":"3520 W 3rd St","City":"Los Angeles","State":"CA","Zip":"90020"},{"Location":"YD DANGGU","Address":"555 S Western Ave 203","City":"Los Angeles","State":"CA","Zip":"90020"}]