[{"Location":"99 CENT ONLY","Address":"4010 Union Pacific Ave","City":"Commerce","State":"CA","Zip":"90023"},{"Location":"99 CENT ONLY","Address":"4000 Union Pacific Ave","City":"Commerce","State":"CA","Zip":"90023"},{"Location":"99 CENTS ONLY STORE1","Address":"4000 Union Pacific Ave","City":"Commerce","State":"CA","Zip":"90023"},{"Location":"ABC  TRUCK PARTS","Address":"4442 E Washington Blvd","City":"Commerce","State":"CA","Zip":"90023"},{"Location":"DART WAREHOUSE CORPORATION","Address":"1430 S Eastman Ave","City":"Commerce","State":"CA","Zip":"90023"},{"Location":"INTERNATIONAL LUBE","Address":"4246 E Washington Blvd","City":"Commerce","State":"CA","Zip":"90023"},{"Location":"99 CENT ONLY","Address":"3785 Noakes St","City":"Los Angeles","State":"CA","Zip":"90023"},{"Location":"99 CENT ONLY","Address":"3050 E Washington Blvd","City":"Los Angeles","State":"CA","Zip":"90023"},{"Location":"ALFRED PAQUETTE","Address":"1201 Rio Vista Ave","City":"Los Angeles","State":"CA","Zip":"90023"},{"Location":"ALPERT AND ALPERT IRON","Address":"1815 S Soto St","City":"Los Angeles","State":"CA","Zip":"90023"},{"Location":"AMOR LINGERIE","Address":"2808 E Washington Blvd A","City":"Los Angeles","State":"CA","Zip":"90023"},{"Location":"ANTOJITOS DF","Address":"4003 E Olympic Blvd","City":"Los Angeles","State":"CA","Zip":"90023"},{"Location":"BARBER LOUNGE","Address":"3238 E 6th St","City":"Los Angeles","State":"CA","Zip":"90023"},{"Location":"BENS BARBER SHOP","Address":"4258 E Olympic Blvd","City":"Los Angeles","State":"CA","Zip":"90023"},{"Location":"BOTANICA NUVA VIDA","Address":"3918 E Olympic Blvd","City":"Los Angeles","State":"CA","Zip":"90023"},{"Location":"CASEY BEAUTY SALON","Address":"4085 Whittier Blvd","City":"Los Angeles","State":"CA","Zip":"90023"},{"Location":"CHICAGO MEAT MARKET","Address":"735 S Chicago","City":"Los Angeles","State":"CA","Zip":"90023"},{"Location":"CUA UHT EMOAC FOODS","Address":"2748 Whittier Blvd","City":"Los Angeles","State":"CA","Zip":"90023"},{"Location":"DAYAN INVESTMENTS LLC","Address":"2301 E 7th St D200","City":"Los Angeles","State":"CA","Zip":"90023"},{"Location":"DELICIAS DEL SALVADOR","Address":"3400 E 8th St","City":"Los Angeles","State":"CA","Zip":"90023"},{"Location":"DYRDEK ENTERPRISES INC","Address":"777 S Mission Rd","City":"Los Angeles","State":"CA","Zip":"90023"},{"Location":"E LA DOCTORS HOSPITAL","Address":"4060 Whittier Blvd","City":"Los Angeles","State":"CA","Zip":"90023"},{"Location":"ELLIS PAINT","Address":"3150 E Pico Blvd","City":"Los Angeles","State":"CA","Zip":"90023"},{"Location":"ESTHER GONZALEZ","Address":"3812 Whittier Blvd","City":"Los Angeles","State":"CA","Zip":"90023"},{"Location":"EXPRESSIONS BEAUTY","Address":"3739 Whittier Blvd","City":"Los Angeles","State":"CA","Zip":"90023"},{"Location":"FRANCISCAN SISTERS  MARY IMMAC","Address":"3346 Opal St","City":"Los Angeles","State":"CA","Zip":"90023"},{"Location":"GATEWAY PERCY VILLAGE","Address":"3455 Percy St","City":"Los Angeles","State":"CA","Zip":"90023"},{"Location":"GLOBAL FARMS ENTERPRISES","Address":"633 S Mission Rd","City":"Los Angeles","State":"CA","Zip":"90023"},{"Location":"GREAT ESCAPE MFG","Address":"1500 S Evergreen Ave","City":"Los Angeles","State":"CA","Zip":"90023"},{"Location":"GUADALAJARA MEDICAL CLINIC","Address":"2705 Whittier Blvd","City":"Los Angeles","State":"CA","Zip":"90023"},{"Location":"HSH INVESTMENT INC","Address":"1260 S Soto St 6","City":"Los Angeles","State":"CA","Zip":"90023"},{"Location":"JIMS BURGER","Address":"3900 E Olympic Blvd","City":"Los Angeles","State":"CA","Zip":"90023"},{"Location":"JIMS BURGERS","Address":"915 S Soto St","City":"Los Angeles","State":"CA","Zip":"90023"},{"Location":"JIMS BURGERS","Address":"3959 Whittier Blvd","City":"Los Angeles","State":"CA","Zip":"90023"},{"Location":"KING COLE PIZZA","Address":"612 S Lorena St","City":"Los Angeles","State":"CA","Zip":"90023"},{"Location":"KING TACO","Address":"3411 E Pico Blvd","City":"Los Angeles","State":"CA","Zip":"90023"},{"Location":"KING TACO","Address":"3421 E 14th St","City":"Los Angeles","State":"CA","Zip":"90023"},{"Location":"LA CITY FIRE 25","Address":"2927 Whittier Blvd","City":"Los Angeles","State":"CA","Zip":"90023"},{"Location":"LA INDIA BONITA SPORTS","Address":"1277 S Indiana St","City":"Los Angeles","State":"CA","Zip":"90023"},{"Location":"LAMAR ADVERTISING","Address":"1121 S Boyle Ave 201","City":"Los Angeles","State":"CA","Zip":"90023"},{"Location":"LOS ANGELES MEDICAL","Address":"3410 Whittier Blvd","City":"Los Angeles","State":"CA","Zip":"90023"},{"Location":"MARISCOS LINDA 2","Address":"3667 E Olympic Blvd","City":"Los Angeles","State":"CA","Zip":"90023"},{"Location":"MGM CUTTING SERVICES INC","Address":"3226 E Pico Blvd","City":"Los Angeles","State":"CA","Zip":"90023"},{"Location":"MIKES SANDWICK SHOP","Address":"1717 S Soto St","City":"Los Angeles","State":"CA","Zip":"90023"},{"Location":"NUESTRA CLINICA","Address":"3004 Whittier Blvd","City":"Los Angeles","State":"CA","Zip":"90023"},{"Location":"OLMOS BAR","Address":"3721 Whittier Blvd","City":"Los Angeles","State":"CA","Zip":"90023"},{"Location":"ON-POINT","Address":"685 S Clarence St","City":"Los Angeles","State":"CA","Zip":"90023"},{"Location":"PALOMINO MEAT MARKET BAKERY","Address":"2817 E 8th St","City":"Los Angeles","State":"CA","Zip":"90023"},{"Location":"PAOLA NAILS","Address":"1260 S Soto St","City":"Los Angeles","State":"CA","Zip":"90023"},{"Location":"PEPES TOW SERVICE","Address":"918 S Boyle Ave","City":"Los Angeles","State":"CA","Zip":"90023"},{"Location":"PLAYHOUSE DENTAL","Address":"3000 Whittier Blvd","City":"Los Angeles","State":"CA","Zip":"90023"},{"Location":"REFLECTION SUPPLY","Address":"2823 Whittier Blvd","City":"Los Angeles","State":"CA","Zip":"90023"},{"Location":"ROSE DUBB INC","Address":"3516 Whittier Blvd","City":"Los Angeles","State":"CA","Zip":"90023"},{"Location":"SALGADO AUTOMOTIVE REBUILDERS","Address":"3975 Whittier Blvd","City":"Los Angeles","State":"CA","Zip":"90023"},{"Location":"SANTA CRUZ MARKET","Address":"635 S Rowan Ave","City":"Los Angeles","State":"CA","Zip":"90023"},{"Location":"SOUTHERN CALIFORNIA GAS CO.","Address":"3494 E Pico Blvd","City":"Los Angeles","State":"CA","Zip":"90023"},{"Location":"STRAIGHT DESIGNS","Address":"3028 E 11th St","City":"Los Angeles","State":"CA","Zip":"90023"},{"Location":"THE BLVD CAFE & BAR","Address":"2631 Whittier Blvd","City":"Los Angeles","State":"CA","Zip":"90023"},{"Location":"TILAS KITCHEN","Address":"3909 Whittier Blvd","City":"Los Angeles","State":"CA","Zip":"90023"},{"Location":"TOTAL LIFE CLINIC","Address":"2705 Whittier Blvd 201","City":"Los Angeles","State":"CA","Zip":"90023"},{"Location":"UNIVERSAL LAUNDRY EQUIPMENT","Address":"3120 E Olympic Blvd","City":"Los Angeles","State":"CA","Zip":"90023"},{"Location":"VALLARTA SUPERMARKET TWENTYFIV","Address":"3425 Whittier Blvd","City":"Los Angeles","State":"CA","Zip":"90023"},{"Location":"VALMAS INC","Address":"1233 S Boyle Ave","City":"Los Angeles","State":"CA","Zip":"90023"},{"Location":"99 CENT ONLY","Address":"4000 Union Pacific Ave","City":"Commerce","State":"CA","Zip":"90023"},{"Location":"99 CENT ONLY","Address":"4010 Union Pacific Ave","City":"Commerce","State":"CA","Zip":"90023"},{"Location":"99 CENTS ONLY STORE1","Address":"4000 Union Pacific Ave","City":"Commerce","State":"CA","Zip":"90023"},{"Location":"ABC  TRUCK PARTS","Address":"4442 E Washington Blvd","City":"Commerce","State":"CA","Zip":"90023"},{"Location":"DART WAREHOUSE CORPORATION","Address":"1430 S Eastman Ave","City":"Commerce","State":"CA","Zip":"90023"},{"Location":"INTERNATIONAL LUBE","Address":"4246 E Washington Blvd","City":"Commerce","State":"CA","Zip":"90023"},{"Location":"99 CENT ONLY","Address":"3785 Noakes St","City":"Los Angeles","State":"CA","Zip":"90023"},{"Location":"99 CENT ONLY","Address":"3050 E Washington Blvd","City":"Los Angeles","State":"CA","Zip":"90023"},{"Location":"ALFRED PAQUETTE","Address":"1201 Rio Vista Ave","City":"Los Angeles","State":"CA","Zip":"90023"},{"Location":"ALPERT AND ALPERT IRON","Address":"1815 S Soto St","City":"Los Angeles","State":"CA","Zip":"90023"},{"Location":"AMOR LINGERIE","Address":"2808 E Washington Blvd A","City":"Los Angeles","State":"CA","Zip":"90023"},{"Location":"ANTOJITOS DF","Address":"4003 E Olympic Blvd","City":"Los Angeles","State":"CA","Zip":"90023"},{"Location":"BARBER LOUNGE","Address":"3238 E 6th St","City":"Los Angeles","State":"CA","Zip":"90023"},{"Location":"BENS BARBER SHOP","Address":"4258 E Olympic Blvd","City":"Los Angeles","State":"CA","Zip":"90023"},{"Location":"BOTANICA NUVA VIDA","Address":"3918 E Olympic Blvd","City":"Los Angeles","State":"CA","Zip":"90023"},{"Location":"CASEY BEAUTY SALON","Address":"4085 Whittier Blvd","City":"Los Angeles","State":"CA","Zip":"90023"},{"Location":"Chicago Meat Market","Address":"735 S Chicago","City":"Los Angeles","State":"CA","Zip":"90023"},{"Location":"CUA UHT EMOAC FOODS","Address":"2748 Whittier Blvd","City":"Los Angeles","State":"CA","Zip":"90023"},{"Location":"DAYAN INVESTMENTS LLC","Address":"2301 E 7th St D200","City":"Los Angeles","State":"CA","Zip":"90023"},{"Location":"DELICIAS DEL SALVADOR","Address":"3400 E 8th St","City":"Los Angeles","State":"CA","Zip":"90023"},{"Location":"DYRDEK ENTERPRISES INC","Address":"777 S Mission Rd","City":"Los Angeles","State":"CA","Zip":"90023"},{"Location":"E LA DOCTORS HOSPITAL","Address":"4060 Whittier Blvd","City":"Los Angeles","State":"CA","Zip":"90023"},{"Location":"ELLIS PAINT","Address":"3150 E Pico Blvd","City":"Los Angeles","State":"CA","Zip":"90023"},{"Location":"ESTHER GONZALEZ","Address":"3812 Whittier Blvd","City":"Los Angeles","State":"CA","Zip":"90023"},{"Location":"EXPRESSIONS BEAUTY","Address":"3739 Whittier Blvd","City":"Los Angeles","State":"CA","Zip":"90023"},{"Location":"FRANCISCAN SISTERS  MARY IMMAC","Address":"3346 Opal St","City":"Los Angeles","State":"CA","Zip":"90023"},{"Location":"GATEWAY PERCY VILLAGE","Address":"3455 Percy St","City":"Los Angeles","State":"CA","Zip":"90023"},{"Location":"GLOBAL FARMS ENTERPRISES","Address":"633 S Mission Rd","City":"Los Angeles","State":"CA","Zip":"90023"},{"Location":"GREAT ESCAPE MFG","Address":"1500 S Evergreen Ave","City":"Los Angeles","State":"CA","Zip":"90023"},{"Location":"GUADALAJARA MEDICAL CLINIC","Address":"2705 Whittier Blvd","City":"Los Angeles","State":"CA","Zip":"90023"},{"Location":"HSH INVESTMENT INC","Address":"1260 S Soto St 6","City":"Los Angeles","State":"CA","Zip":"90023"},{"Location":"JIMS BURGER","Address":"3900 E Olympic Blvd","City":"Los Angeles","State":"CA","Zip":"90023"},{"Location":"JIMS BURGERS","Address":"915 S Soto St","City":"Los Angeles","State":"CA","Zip":"90023"},{"Location":"JIMS BURGERS","Address":"3959 Whittier Blvd","City":"Los Angeles","State":"CA","Zip":"90023"},{"Location":"KING COLE PIZZA","Address":"612 S Lorena St","City":"Los Angeles","State":"CA","Zip":"90023"},{"Location":"KING TACO","Address":"3421 E 14th St","City":"Los Angeles","State":"CA","Zip":"90023"},{"Location":"KING TACO","Address":"3411 E Pico Blvd","City":"Los Angeles","State":"CA","Zip":"90023"},{"Location":"LA CITY FIRE 25","Address":"2927 Whittier Blvd","City":"Los Angeles","State":"CA","Zip":"90023"},{"Location":"LA INDIA BONITA SPORTS","Address":"1277 S Indiana St","City":"Los Angeles","State":"CA","Zip":"90023"},{"Location":"LAMAR ADVERTISING","Address":"1121 S Boyle Ave 201","City":"Los Angeles","State":"CA","Zip":"90023"},{"Location":"LOS ANGELES MEDICAL","Address":"3410 Whittier Blvd","City":"Los Angeles","State":"CA","Zip":"90023"},{"Location":"MARISCOS LINDA 2","Address":"3667 E Olympic Blvd","City":"Los Angeles","State":"CA","Zip":"90023"},{"Location":"MGM CUTTING SERVICES INC","Address":"3226 E Pico Blvd","City":"Los Angeles","State":"CA","Zip":"90023"},{"Location":"MIKES SANDWICK SHOP","Address":"1717 S Soto St","City":"Los Angeles","State":"CA","Zip":"90023"},{"Location":"NUESTRA CLINICA","Address":"3004 Whittier Blvd","City":"Los Angeles","State":"CA","Zip":"90023"},{"Location":"OLMOS BAR","Address":"3721 Whittier Blvd","City":"Los Angeles","State":"CA","Zip":"90023"},{"Location":"ON-POINT","Address":"685 S Clarence St","City":"Los Angeles","State":"CA","Zip":"90023"},{"Location":"PALOMINO MEAT MARKET BAKERY","Address":"2817 E 8th St","City":"Los Angeles","State":"CA","Zip":"90023"},{"Location":"PAOLA NAILS","Address":"1260 S Soto St","City":"Los Angeles","State":"CA","Zip":"90023"},{"Location":"PEPES TOW SERVICE","Address":"918 S Boyle Ave","City":"Los Angeles","State":"CA","Zip":"90023"},{"Location":"PLAYHOUSE DENTAL","Address":"3000 Whittier Blvd","City":"Los Angeles","State":"CA","Zip":"90023"},{"Location":"REFLECTION SUPPLY","Address":"2823 Whittier Blvd","City":"Los Angeles","State":"CA","Zip":"90023"},{"Location":"ROSE DUBB INC","Address":"3516 Whittier Blvd","City":"Los Angeles","State":"CA","Zip":"90023"},{"Location":"SALGADO AUTOMOTIVE REBUILDERS","Address":"3975 Whittier Blvd","City":"Los Angeles","State":"CA","Zip":"90023"},{"Location":"SANTA CRUZ MARKET","Address":"635 S Rowan Ave","City":"Los Angeles","State":"CA","Zip":"90023"},{"Location":"SOUTHERN CALIFORNIA GAS CO.","Address":"3494 E Pico Blvd","City":"Los Angeles","State":"CA","Zip":"90023"},{"Location":"STRAIGHT DESIGNS","Address":"3028 E 11th St","City":"Los Angeles","State":"CA","Zip":"90023"},{"Location":"THE BLVD CAFE & BAR","Address":"2631 Whittier Blvd","City":"Los Angeles","State":"CA","Zip":"90023"},{"Location":"TOTAL LIFE CLINIC","Address":"2705 Whittier Blvd 201","City":"Los Angeles","State":"CA","Zip":"90023"},{"Location":"UNIVERSAL LAUNDRY EQUIPMENT","Address":"3120 E Olympic Blvd","City":"Los Angeles","State":"CA","Zip":"90023"},{"Location":"VALLARTA SUPERMARKET TWENTYFIV","Address":"3425 Whittier Blvd","City":"Los Angeles","State":"CA","Zip":"90023"},{"Location":"VALMAS INC","Address":"1233 S Boyle Ave","City":"Los Angeles","State":"CA","Zip":"90023"}]