[{"Location":"ALISAM PROPERTIES LLC","Address":"10940 Wilshire Blvd 600","City":"Los Angeles","State":"CA","Zip":"90024"},{"Location":"ALPHA ZETA 2","Address":"629 Gayley Ave","City":"Los Angeles","State":"CA","Zip":"90024"},{"Location":"AMERIPRISE FINANCIAL","Address":"10880 Wilshire Blvd 10","City":"Los Angeles","State":"CA","Zip":"90024"},{"Location":"AMI JAPANESS RESTUARANT","Address":"1051 Broxton Ave","City":"Los Angeles","State":"CA","Zip":"90024"},{"Location":"ANDERSON MEDIA","Address":"1082 Glendon Ave 1","City":"Los Angeles","State":"CA","Zip":"90024"},{"Location":"ARAGON","Address":"10880 Wilshire Blvd 2090","City":"Los Angeles","State":"CA","Zip":"90024"},{"Location":"ATTARI SANDWICHES","Address":"1388 Westwood Blvd 103","City":"Los Angeles","State":"CA","Zip":"90024"},{"Location":"AVCO CENTER CORP.","Address":"10850 Wilshire Blvd 1050","City":"Los Angeles","State":"CA","Zip":"90024"},{"Location":"AVISON YOUNG","Address":"10940 Wilshire Blvd 2100","City":"Los Angeles","State":"CA","Zip":"90024"},{"Location":"BARBACOA","Address":"1030 Glendon Ave","City":"Los Angeles","State":"CA","Zip":"90024"},{"Location":"BARNEYS WESTWOOD","Address":"1037 Broxton Ave","City":"Los Angeles","State":"CA","Zip":"90024"},{"Location":"BERKADIA COMMERCIAL","Address":"10940 Wilshire Blvd 15","City":"Los Angeles","State":"CA","Zip":"90024"},{"Location":"BETA THETA PI-GAMMA NU","Address":"581 Gayley Ave","City":"Los Angeles","State":"CA","Zip":"90024"},{"Location":"BEVERLY HILLS PLAZA","Address":"10300 Wilshire Blvd","City":"Los Angeles","State":"CA","Zip":"90024"},{"Location":"BIBIGO","Address":"1091 Broxton Ave","City":"Los Angeles","State":"CA","Zip":"90024"},{"Location":"BISOU NAILS","Address":"1281 Westwood Blvd 100","City":"Los Angeles","State":"CA","Zip":"90024"},{"Location":"BJS RESTAURANT #411","Address":"939 Broxton Ave","City":"Los Angeles","State":"CA","Zip":"90024"},{"Location":"BLVD 16","Address":"10740 Wilshire Blvd","City":"Los Angeles","State":"CA","Zip":"90024"},{"Location":"BROXTON CAPITAL ADVISORS","Address":"1063 Gayley Ave","City":"Los Angeles","State":"CA","Zip":"90024"},{"Location":"C2K ENTERTAINMENT","Address":"1067 Gayley Ave","City":"Los Angeles","State":"CA","Zip":"90024"},{"Location":"CASA AZUL CONITINA","Address":"10853 Linbrook Dr","City":"Los Angeles","State":"CA","Zip":"90024"},{"Location":"CB RICHARD ELLIS INC #1","Address":"10889 Wilshire Blvd 455","City":"Los Angeles","State":"CA","Zip":"90024"},{"Location":"CB RICHARD ELLIS INC #2","Address":"10889 Wilshire Blvd 455","City":"Los Angeles","State":"CA","Zip":"90024"},{"Location":"CBE TOURING LLC","Address":"10960 Wilshire Blvd 5th","City":"Los Angeles","State":"CA","Zip":"90024"},{"Location":"CONNECTV","Address":"1100 Glendon Ave 17","City":"Los Angeles","State":"CA","Zip":"90024"},{"Location":"CYPRESS LAND COMPANY","Address":"10940 Wilshire Blvd 1900","City":"Los Angeles","State":"CA","Zip":"90024"},{"Location":"DEPT OF VETERANS AFFAIRS","Address":"11000 Wilshire Blvd","City":"Los Angeles","State":"CA","Zip":"90024"},{"Location":"E WIRELESS COMMUNICATIONS","Address":"1310 Westwood Blvd","City":"Los Angeles","State":"CA","Zip":"90024"},{"Location":"EFG CAPITAL ASSET MANAGEMENT","Address":"10940 Wilshire Blvd 19","City":"Los Angeles","State":"CA","Zip":"90024"},{"Location":"ELYSEE BAKERY","Address":"1099 Gayley Ave","City":"Los Angeles","State":"CA","Zip":"90024"},{"Location":"EMPORIUM THAI CUISINE","Address":"1275 Westwood Blvd","City":"Los Angeles","State":"CA","Zip":"90024"},{"Location":"ENZO'S PIZZERIA","Address":"10940 Weyburn Ave","City":"Los Angeles","State":"CA","Zip":"90024"},{"Location":"EQUITY OFFICE","Address":"10960 Wilshire Blvd Ll2","City":"Los Angeles","State":"CA","Zip":"90024"},{"Location":"FAT SALS WESTWOOD","Address":"972 Gayley Ave","City":"Los Angeles","State":"CA","Zip":"90024"},{"Location":"FATBURGER","Address":"10955 Kinross Ave","City":"Los Angeles","State":"CA","Zip":"90024"},{"Location":"FBI","Address":"11000 Wilshire Blvd 1700","City":"Los Angeles","State":"CA","Zip":"90024"},{"Location":"FBI HEADEND MAIN","Address":"11000 Wilshire Blvd 1700","City":"Los Angeles","State":"CA","Zip":"90024"},{"Location":"FBI-LOS ANGELES","Address":"11000 Wilshire Blvd","City":"Los Angeles","State":"CA","Zip":"90024"},{"Location":"FIRE STATION 37","Address":"1090 Veteran Ave","City":"Los Angeles","State":"CA","Zip":"90024"},{"Location":"FIRST FLOOR PARTNERS","Address":"1082 Glendon Ave 1","City":"Los Angeles","State":"CA","Zip":"90024"},{"Location":"FIRST FOUNDATION INC","Address":"10850 Wilshire Blvd 100","City":"Los Angeles","State":"CA","Zip":"90024"},{"Location":"FLAME PERSIAN CUISINE","Address":"1442 Westwood Blvd","City":"Los Angeles","State":"CA","Zip":"90024"},{"Location":"GARLOS PIES USA LLC","Address":"1010 Glendon Ave","City":"Los Angeles","State":"CA","Zip":"90024"},{"Location":"GENERAL SERVICES ADMIN","Address":"11000 Wilshire Blvd 2373","City":"Los Angeles","State":"CA","Zip":"90024"},{"Location":"GLENDON BAR AND KITCHEN","Address":"1071 Glendon Ave","City":"Los Angeles","State":"CA","Zip":"90024"},{"Location":"GLOBAL CULTRAL CONNECTIONS 1","Address":"1019 Gayley Ave","City":"Los Angeles","State":"CA","Zip":"90024"},{"Location":"GLOBAL ENTERTAINMENT","Address":"1100 Glendon Ave 2100","City":"Los Angeles","State":"CA","Zip":"90024"},{"Location":"GYPSY CAFE","Address":"940 Broxton Ave","City":"Los Angeles","State":"CA","Zip":"90024"},{"Location":"HAIR REVIVAL","Address":"1051 Glendon Ave 123","City":"Los Angeles","State":"CA","Zip":"90024"},{"Location":"HARMONY FINANCIAL","Address":"10940 Wilshire Blvd 1600","City":"Los Angeles","State":"CA","Zip":"90024"},{"Location":"HAWORTH  MARKETING AND M","Address":"10940 Wilshire Blvd 1","City":"Los Angeles","State":"CA","Zip":"90024"},{"Location":"HELENS CYCLES","Address":"1071 Gayley Ave","City":"Los Angeles","State":"CA","Zip":"90024"},{"Location":"HERO VENTURES","Address":"10940 Wilshire Blvd 1525","City":"Los Angeles","State":"CA","Zip":"90024"},{"Location":"IL FORNO LLC 1","Address":"1076 Gayley Ave","City":"Los Angeles","State":"CA","Zip":"90024"},{"Location":"ILA MANAGEMENT INC","Address":"1100 Glendon Ave 2000","City":"Los Angeles","State":"CA","Zip":"90024"},{"Location":"INDEPENDENT FILM & TELEVISION","Address":"10850 Wilshire Blvd","City":"Los Angeles","State":"CA","Zip":"90024"},{"Location":"INTERNATIONAL TACTIC","Address":"1762 Westwood Blvd 420","City":"Los Angeles","State":"CA","Zip":"90024"},{"Location":"IPIC WESTWOOD","Address":"10840 Wilshire Blvd","City":"Los Angeles","State":"CA","Zip":"90024"},{"Location":"JERSEY MIKES SUBS","Address":"1020 Glendon Ave","City":"Los Angeles","State":"CA","Zip":"90024"},{"Location":"JONES TRADING","Address":"10850 Wilshire Blvd 530","City":"Los Angeles","State":"CA","Zip":"90024"},{"Location":"JP CAPITAL","Address":"10940 Wilshire Blvd 1940","City":"Los Angeles","State":"CA","Zip":"90024"},{"Location":"LA FITNESS #32","Address":"10921 Wilshire Blvd","City":"Los Angeles","State":"CA","Zip":"90024"},{"Location":"LAMBDA CHI ALPHA","Address":"10918 Strathmore Dr","City":"Los Angeles","State":"CA","Zip":"90024"},{"Location":"LINDA CALL","Address":"1033 Gayley Ave 215","City":"Los Angeles","State":"CA","Zip":"90024"},{"Location":"LINER YANKE LEVITZ SUNSHINE","Address":"1100 Glendon Ave 14","City":"Los Angeles","State":"CA","Zip":"90024"},{"Location":"LOS ANGELES COUNTRY CLUB","Address":"1318 Club View Dr","City":"Los Angeles","State":"CA","Zip":"90024"},{"Location":"M AND A REAL ESTATE","Address":"10990 Wilshire Blvd 1220","City":"Los Angeles","State":"CA","Zip":"90024"},{"Location":"MALONEYS ON CAMPUS","Address":"1000 Gayley Ave","City":"Los Angeles","State":"CA","Zip":"90024"},{"Location":"MARY AND ROBBS  CAFE","Address":"1453 Westwood Blvd","City":"Los Angeles","State":"CA","Zip":"90024"},{"Location":"MEDIA STORM","Address":"10880 Wilshire Blvd 980","City":"Los Angeles","State":"CA","Zip":"90024"},{"Location":"METLIFE","Address":"10960 Wilshire Blvd 2100","City":"Los Angeles","State":"CA","Zip":"90024"},{"Location":"MR. NOODLE","Address":"936 Broxton Ave","City":"Los Angeles","State":"CA","Zip":"90024"},{"Location":"MSWM","Address":"10960 Wilshire Blvd 2000","City":"Los Angeles","State":"CA","Zip":"90024"},{"Location":"MUSIC BY APPOINTMENT","Address":"10940 Wilshire Blvd 1240","City":"Los Angeles","State":"CA","Zip":"90024"},{"Location":"NAHAI LAW GROUP","Address":"10850 Wilshire Blvd 1100","City":"Los Angeles","State":"CA","Zip":"90024"},{"Location":"NOODLE WORLD","Address":"1118 Westwood Blvd","City":"Los Angeles","State":"CA","Zip":"90024"},{"Location":"OLMSTEAD WILLIAMS COMM","Address":"10940 Wilshire Blvd 12","City":"Los Angeles","State":"CA","Zip":"90024"},{"Location":"PKS CORP 1","Address":"10938 Strathmore Dr 100","City":"Los Angeles","State":"CA","Zip":"90024"},{"Location":"PKS CORP 2","Address":"10938 Strathmore Dr 100","City":"Los Angeles","State":"CA","Zip":"90024"},{"Location":"PUBLIC AFFAIRS OFFICE","Address":"1591 E Temple Way","City":"Los Angeles","State":"CA","Zip":"90024"},{"Location":"RAMAYANI WESTWOOD","Address":"1777 Westwood Blvd","City":"Los Angeles","State":"CA","Zip":"90024"},{"Location":"RAY INVESTMENTS LLC","Address":"10889 Wilshire Blvd 900","City":"Los Angeles","State":"CA","Zip":"90024"},{"Location":"REDWOOD CAPITAL GROUP","Address":"1100 Glendon Ave 905","City":"Los Angeles","State":"CA","Zip":"90024"},{"Location":"REGUS","Address":"10880 Wilshire Blvd 11","City":"Los Angeles","State":"CA","Zip":"90024"},{"Location":"RELIANCE MAJESTIC","Address":"1100 Glendon Ave 700","City":"Los Angeles","State":"CA","Zip":"90024"},{"Location":"ROTHBART DEVELOPMENT","Address":"10990 Wilshire Blvd 1000","City":"Los Angeles","State":"CA","Zip":"90024"},{"Location":"RTTV AMERICA","Address":"10940 Wilshire Blvd 14","City":"Los Angeles","State":"CA","Zip":"90024"},{"Location":"SAVITSKY SATIN AND BACON","Address":"10880 Wilshire Blvd 21","City":"Los Angeles","State":"CA","Zip":"90024"},{"Location":"SEMLER BROSSY CONSULTING","Address":"10940 Wilshire Blvd 8","City":"Los Angeles","State":"CA","Zip":"90024"},{"Location":"SEPIS GIANT SUBMARINES","Address":"10968 Le Conte Ave","City":"Los Angeles","State":"CA","Zip":"90024"},{"Location":"SHAMMAIE DENTAL","Address":"1273 Westwood Blvd","City":"Los Angeles","State":"CA","Zip":"90024"},{"Location":"SHAMROCK CAPITAL ADVISORS","Address":"1100 Glendon Ave","City":"Los Angeles","State":"CA","Zip":"90024"},{"Location":"SHOWTIME","Address":"10880 Wilshire Blvd 16","City":"Los Angeles","State":"CA","Zip":"90024"},{"Location":"SHOWTIME NETWORKS","Address":"10880 Wilshire Blvd 16","City":"Los Angeles","State":"CA","Zip":"90024"},{"Location":"SIGMA ALPHA ESTILON OFFI","Address":"655 Gayley Ave","City":"Los Angeles","State":"CA","Zip":"90024"},{"Location":"SIGMA CHI","Address":"459 Gayley Ave 14","City":"Los Angeles","State":"CA","Zip":"90024"},{"Location":"SIGMA PHI EPSILON","Address":"522 Landfair Ave 5","City":"Los Angeles","State":"CA","Zip":"90024"},{"Location":"SIGMA PI","Address":"612 Landfair Ave","City":"Los Angeles","State":"CA","Zip":"90024"},{"Location":"SMAC ENTERTAINMENT","Address":"1100 Glendon Ave 12th","City":"Los Angeles","State":"CA","Zip":"90024"},{"Location":"SOLEIL","Address":"1386 Westwood Blvd","City":"Los Angeles","State":"CA","Zip":"90024"},{"Location":"STUDLEY  INC","Address":"10960 Wilshire Blvd","City":"Los Angeles","State":"CA","Zip":"90024"},{"Location":"SURGICAL CENTER","Address":"1090 Glendon Ave","City":"Los Angeles","State":"CA","Zip":"90024"},{"Location":"TARGET","Address":"10861 Weyburn Ave","City":"Los Angeles","State":"CA","Zip":"90024"},{"Location":"TDJ ENTERPRISES","Address":"10940 Wilshire Blvd 600","City":"Los Angeles","State":"CA","Zip":"90024"},{"Location":"THE BOILING CRAB","Address":"10875 Kinross Ave","City":"Los Angeles","State":"CA","Zip":"90024"},{"Location":"THE CREST","Address":"1262 Westwood Blvd","City":"Los Angeles","State":"CA","Zip":"90024"},{"Location":"THE LOS ANGELES COUNTRY CLUB","Address":"10101 Wilshire Blvd","City":"Los Angeles","State":"CA","Zip":"90024"},{"Location":"THETA DELTA CHI","Address":"547 Gayley Ave","City":"Los Angeles","State":"CA","Zip":"90024"},{"Location":"TISHMAN SPEYER","Address":"10900 Wilshire Blvd 1200","City":"Los Angeles","State":"CA","Zip":"90024"},{"Location":"TOMODACHI SUSHI","Address":"10975 Weyburn Ave","City":"Los Angeles","State":"CA","Zip":"90024"},{"Location":"UCHA","Address":"500 Landfair Ave","City":"Los Angeles","State":"CA","Zip":"90024"},{"Location":"UCLA FACULTY GROUP DENTAL","Address":"100       Ucla Medical Pl 350","City":"Los Angeles","State":"CA","Zip":"90024"},{"Location":"UCLA FEAST AT RIEBER","Address":"310 De Neve Dr","City":"Los Angeles","State":"CA","Zip":"90024"},{"Location":"UCLA PI KAPPA PHI","Address":"626 Landfair Ave","City":"Los Angeles","State":"CA","Zip":"90024"},{"Location":"UNION BANK","Address":"10900 Wilshire Blvd 101","City":"Los Angeles","State":"CA","Zip":"90024"},{"Location":"UNIVERSITY SLEEP INSTITUTE","Address":"10921 Wilshire Blvd 1110","City":"Los Angeles","State":"CA","Zip":"90024"},{"Location":"UWCS","Address":"10921 Wilshire Blvd 1114","City":"Los Angeles","State":"CA","Zip":"90024"},{"Location":"VILLAGE DENTAL","Address":"951 Westwood Blvd","City":"Los Angeles","State":"CA","Zip":"90024"},{"Location":"W HOTEL LOS ANGELES (0008560)","Address":"930 Hilgard Ave","City":"Los Angeles","State":"CA","Zip":"90024"},{"Location":"WASSERMAN MEDIA GROUP","Address":"10960 Wilshire Blvd 2200","City":"Los Angeles","State":"CA","Zip":"90024"},{"Location":"WESTWOOD %2F ROCKET FIZZ","Address":"1067 Broxton Ave","City":"Los Angeles","State":"CA","Zip":"90024"},{"Location":"WESTWOOD DENTAL CARE","Address":"10921 Wilshire Blvd 601","City":"Los Angeles","State":"CA","Zip":"90024"},{"Location":"WESTWOOD QUICK STOP","Address":"931 Westwood Blvd","City":"Los Angeles","State":"CA","Zip":"90024"},{"Location":"WESTWOOD REGENCY","Address":"10676 Wilkins Ave","City":"Los Angeles","State":"CA","Zip":"90024"},{"Location":"WESTWOOD SIGN SERVICE","Address":"1313 Westwood Blvd","City":"Los Angeles","State":"CA","Zip":"90024"},{"Location":"WESTWOOD VISION","Address":"1314 Westwood Blvd","City":"Los Angeles","State":"CA","Zip":"90024"},{"Location":"WG&S LLP","Address":"10990 Wilshire Blvd 8thf","City":"Los Angeles","State":"CA","Zip":"90024"},{"Location":"WHOLE FOOD MARKET # 27","Address":"1050 Gayley Ave","City":"Los Angeles","State":"CA","Zip":"90024"},{"Location":"WILSHIRE WEST EXECUTIVE CNTR","Address":"1762 Westwood Blvd 440","City":"Los Angeles","State":"CA","Zip":"90024"},{"Location":"WMSC","Address":"10921 Wilshire Blvd 1114","City":"Los Angeles","State":"CA","Zip":"90024"},{"Location":"YAMATO RESTAURANT","Address":"1099 Westwood Blvd","City":"Los Angeles","State":"CA","Zip":"90024"},{"Location":"ZETA BETA TAU","Address":"10924 Strathmore Dr","City":"Los Angeles","State":"CA","Zip":"90024"},{"Location":"ZEUS LLC.","Address":"10940 Wilshire Blvd 1600","City":"Los Angeles","State":"CA","Zip":"90024"}]