[{"Location":"","Address":"1621 Redcliff St","City":"Los Angeles","State":"CA","Zip":"90026"},{"Location":"ANDREAS HAIR STYLES","Address":"1398 W Sunset Blvd","City":"Los Angeles","State":"CA","Zip":"90026"},{"Location":"ANGELUS TEMPLE","Address":"1100 Glendale Blvd","City":"Los Angeles","State":"CA","Zip":"90026"},{"Location":"BAHAY AUBO RESTAURANT","Address":"2330 W Temple St","City":"Los Angeles","State":"CA","Zip":"90026"},{"Location":"BANGKOK PALACE","Address":"343 Glendale Blvd","City":"Los Angeles","State":"CA","Zip":"90026"},{"Location":"BEACH CITY CENTER SOLUTIONS 2","Address":"2815 W Sunset Blvd 201","City":"Los Angeles","State":"CA","Zip":"90026"},{"Location":"BEAUTY SALON","Address":"1618 W Sunset Blvd","City":"Los Angeles","State":"CA","Zip":"90026"},{"Location":"BELMONT HIGH SCHOOL","Address":"1575 W 2nd St","City":"Los Angeles","State":"CA","Zip":"90026"},{"Location":"CANOGA 68 TRUST","Address":"2538 W Temple St","City":"Los Angeles","State":"CA","Zip":"90026"},{"Location":"CASANOVAS BEUATY SALON","Address":"1214 La Beta Ter","City":"Los Angeles","State":"CA","Zip":"90026"},{"Location":"CESAR BELEZ MEDICAL OFFICE","Address":"1411 W Sunset Blvd","City":"Los Angeles","State":"CA","Zip":"90026"},{"Location":"COIN LAUNDRY","Address":"922 N Alvarado St E","City":"Los Angeles","State":"CA","Zip":"90026"},{"Location":"CUSCATLECA BAKERY","Address":"2501 W Sunset Blvd","City":"Los Angeles","State":"CA","Zip":"90026"},{"Location":"DAVITA #2180 SILVER LAKE","Address":"2723 W Temple St","City":"Los Angeles","State":"CA","Zip":"90026"},{"Location":"DIABLOTACO","Address":"3129 W Sunset Blvd","City":"Los Angeles","State":"CA","Zip":"90026"},{"Location":"DIGITAL VORTECHS","Address":"1513 W Temple St","City":"Los Angeles","State":"CA","Zip":"90026"},{"Location":"DUKYONG INC","Address":"204 Lucas Ave 104","City":"Los Angeles","State":"CA","Zip":"90026"},{"Location":"EDS BARBER SHOP","Address":"2513 W Temple St","City":"Los Angeles","State":"CA","Zip":"90026"},{"Location":"EL CASERIO SILVER LAKE","Address":"401 Silver Lake Blvd","City":"Los Angeles","State":"CA","Zip":"90026"},{"Location":"EL MAJAHUAL PUPUSEURANT","Address":"1925 W Temple St","City":"Los Angeles","State":"CA","Zip":"90026"},{"Location":"EPITAPH","Address":"2798 W Sunset Blvd","City":"Los Angeles","State":"CA","Zip":"90026"},{"Location":"ESCOBAR ENTERPRISES","Address":"701 N Alvarado St","City":"Los Angeles","State":"CA","Zip":"90026"},{"Location":"ESTETICA DOS MIL","Address":"1463 W Sunset Blvd","City":"Los Angeles","State":"CA","Zip":"90026"},{"Location":"F AND J HUBBARD REAL ESTATE","Address":"1357 W Temple St","City":"Los Angeles","State":"CA","Zip":"90026"},{"Location":"FAST DIE","Address":"160 Glendale Blvd","City":"Los Angeles","State":"CA","Zip":"90026"},{"Location":"FERNANDOS TIRES","Address":"1301 W Sunset Blvd","City":"Los Angeles","State":"CA","Zip":"90026"},{"Location":"FIESTA BKAPISTAH","Address":"1925 W Temple St 103","City":"Los Angeles","State":"CA","Zip":"90026"},{"Location":"FINISHING STUDIO","Address":"1264 W 2nd St","City":"Los Angeles","State":"CA","Zip":"90026"},{"Location":"FLORES RECYCLING CENTER","Address":"2517 W Sunset Blvd","City":"Los Angeles","State":"CA","Zip":"90026"},{"Location":"GEORGE LIM DMD - ECHO","Address":"1569 W Sunset Blvd","City":"Los Angeles","State":"CA","Zip":"90026"},{"Location":"GMV DENTAL CORP","Address":"1925 W Temple St 214","City":"Los Angeles","State":"CA","Zip":"90026"},{"Location":"GOLD ROOM","Address":"1558 W Sunset Blvd","City":"Los Angeles","State":"CA","Zip":"90026"},{"Location":"GOOD MICRO BREW AND GRILL","Address":"3725 W Sunset Blvd","City":"Los Angeles","State":"CA","Zip":"90026"},{"Location":"GUISADOS","Address":"1261 W Sunset Blvd","City":"Los Angeles","State":"CA","Zip":"90026"},{"Location":"ICFG FURLOUGH HOME","Address":"1627 Park Ave","City":"Los Angeles","State":"CA","Zip":"90026"},{"Location":"INTERNATIONAL","Address":"1530 W Sunset Blvd","City":"Los Angeles","State":"CA","Zip":"90026"},{"Location":"KODA SUSHI","Address":"3719 W Sunset Blvd","City":"Los Angeles","State":"CA","Zip":"90026"},{"Location":"LA CARIDAD RESTAURANT","Address":"2619 W Sunset Blvd","City":"Los Angeles","State":"CA","Zip":"90026"},{"Location":"LORRAINE DIEGO","Address":"1711 W Temple St 7643","City":"Los Angeles","State":"CA","Zip":"90026"},{"Location":"LOS LAVADEROS COIN LAUND","Address":"2625 W Sunset Blvd","City":"Los Angeles","State":"CA","Zip":"90026"},{"Location":"MAYAS TACOS","Address":"1600 N Alvarado St","City":"Los Angeles","State":"CA","Zip":"90026"},{"Location":"MOHAWK ALLEY ANIMAL HOSPITAL","Address":"2162 W Sunset Blvd","City":"Los Angeles","State":"CA","Zip":"90026"},{"Location":"MOHAWK BEND","Address":"2141 W Sunset Blvd","City":"Los Angeles","State":"CA","Zip":"90026"},{"Location":"MOON HEALTH","Address":"2128 W Temple St","City":"Los Angeles","State":"CA","Zip":"90026"},{"Location":"NANAY GLORIA BAKE SHOP","Address":"2432 W Temple St","City":"Los Angeles","State":"CA","Zip":"90026"},{"Location":"OUR LADY OF LORETTO","Address":"250 N Union Ave","City":"Los Angeles","State":"CA","Zip":"90026"},{"Location":"PUPUSERIA MENCHITA","Address":"1606 Beverly Blvd","City":"Los Angeles","State":"CA","Zip":"90026"},{"Location":"RAVEN INDUSTRIAL SUPPLY","Address":"249 N Reno St","City":"Los Angeles","State":"CA","Zip":"90026"},{"Location":"RESTAURANT COSTA ALEGRE","Address":"1901 W Sunset Blvd","City":"Los Angeles","State":"CA","Zip":"90026"},{"Location":"REYNOLDS","Address":"1800 W Sunset Blvd","City":"Los Angeles","State":"CA","Zip":"90026"},{"Location":"SAN JUAN MINI MARKET","Address":"1248 W Temple St","City":"Los Angeles","State":"CA","Zip":"90026"},{"Location":"SEAFOOD FIESTA RESTAURANT","Address":"2534 W Temple St","City":"Los Angeles","State":"CA","Zip":"90026"},{"Location":"SHAMPOOLIO COMPANY","Address":"665 N Benton Way","City":"Los Angeles","State":"CA","Zip":"90026"},{"Location":"SILVER LAKE LOUNGE","Address":"2906 W Sunset Blvd","City":"Los Angeles","State":"CA","Zip":"90026"},{"Location":"SUNSET AUTO SPA","Address":"2028 W Sunset Blvd","City":"Los Angeles","State":"CA","Zip":"90026"},{"Location":"TACOS MEXICO","Address":"1538 Glendale Blvd","City":"Los Angeles","State":"CA","Zip":"90026"},{"Location":"THE BILLETS","Address":"1801 Lake Shore Ave","City":"Los Angeles","State":"CA","Zip":"90026"},{"Location":"THE DREAM CENTER","Address":"2301 Bellevue Ave","City":"Los Angeles","State":"CA","Zip":"90026"},{"Location":"","Address":"1621 Redcliff St","City":"Los Angeles","State":"CA","Zip":"90026"},{"Location":"ANDREAS HAIR STYLES","Address":"1398 W Sunset Blvd","City":"Los Angeles","State":"CA","Zip":"90026"},{"Location":"ANGELUS TEMPLE","Address":"1100 Glendale Blvd","City":"Los Angeles","State":"CA","Zip":"90026"},{"Location":"BAHAY AUBO RESTAURANT","Address":"2330 W Temple St","City":"Los Angeles","State":"CA","Zip":"90026"},{"Location":"BANGKOK PALACE","Address":"343 Glendale Blvd","City":"Los Angeles","State":"CA","Zip":"90026"},{"Location":"BEACH CITY CENTER SOLUTIONS 2","Address":"2815 W Sunset Blvd 201","City":"Los Angeles","State":"CA","Zip":"90026"},{"Location":"BEAUTY SALON","Address":"1618 W Sunset Blvd","City":"Los Angeles","State":"CA","Zip":"90026"},{"Location":"BELMONT HIGH SCHOOL","Address":"1575 W 2nd St","City":"Los Angeles","State":"CA","Zip":"90026"},{"Location":"CANOGA 68 TRUST","Address":"2538 W Temple St","City":"Los Angeles","State":"CA","Zip":"90026"},{"Location":"CASANOVAS BEUATY SALON","Address":"1214 La Beta Ter","City":"Los Angeles","State":"CA","Zip":"90026"},{"Location":"CESAR BELEZ MEDICAL OFFICE","Address":"1411 W Sunset Blvd","City":"Los Angeles","State":"CA","Zip":"90026"},{"Location":"COIN LAUNDRY","Address":"922 N Alvarado St E","City":"Los Angeles","State":"CA","Zip":"90026"},{"Location":"CUSCATLECA BAKERY","Address":"2501 W Sunset Blvd","City":"Los Angeles","State":"CA","Zip":"90026"},{"Location":"DAVITA #2180 SILVER LAKE","Address":"2723 W Temple St","City":"Los Angeles","State":"CA","Zip":"90026"},{"Location":"DIABLOTACO","Address":"3129 W Sunset Blvd","City":"Los Angeles","State":"CA","Zip":"90026"},{"Location":"DIGITAL VORTECHS","Address":"1513 W Temple St","City":"Los Angeles","State":"CA","Zip":"90026"},{"Location":"DUKYONG INC","Address":"204 Lucas Ave 104","City":"Los Angeles","State":"CA","Zip":"90026"},{"Location":"EDS BARBER SHOP","Address":"2513 W Temple St","City":"Los Angeles","State":"CA","Zip":"90026"},{"Location":"EL CASERIO SILVER LAKE","Address":"401 Silver Lake Blvd","City":"Los Angeles","State":"CA","Zip":"90026"},{"Location":"EL MAJAHUAL PUPUSEURANT","Address":"1925 W Temple St","City":"Los Angeles","State":"CA","Zip":"90026"},{"Location":"EPITAPH","Address":"2798 W Sunset Blvd","City":"Los Angeles","State":"CA","Zip":"90026"},{"Location":"ESCOBAR ENTERPRISES","Address":"701 N Alvarado St","City":"Los Angeles","State":"CA","Zip":"90026"},{"Location":"ESTETICA DOS MIL","Address":"1463 W Sunset Blvd","City":"Los Angeles","State":"CA","Zip":"90026"},{"Location":"F AND J HUBBARD REAL ESTATE","Address":"1357 W Temple St","City":"Los Angeles","State":"CA","Zip":"90026"},{"Location":"FAST DIE","Address":"160 Glendale Blvd","City":"Los Angeles","State":"CA","Zip":"90026"},{"Location":"FERNANDOS TIRES","Address":"1301 W Sunset Blvd","City":"Los Angeles","State":"CA","Zip":"90026"},{"Location":"FIESTA BKAPISTAH","Address":"1925 W Temple St 103","City":"Los Angeles","State":"CA","Zip":"90026"},{"Location":"FINISHING STUDIO","Address":"1264 W 2nd St","City":"Los Angeles","State":"CA","Zip":"90026"},{"Location":"FLORES RECYCLING CENTER","Address":"2517 W Sunset Blvd","City":"Los Angeles","State":"CA","Zip":"90026"},{"Location":"GEORGE LIM DMD - ECHO","Address":"1569 W Sunset Blvd","City":"Los Angeles","State":"CA","Zip":"90026"},{"Location":"GMV DENTAL CORP","Address":"1925 W Temple St 214","City":"Los Angeles","State":"CA","Zip":"90026"},{"Location":"GOLD ROOM","Address":"1558 W Sunset Blvd","City":"Los Angeles","State":"CA","Zip":"90026"},{"Location":"GOOD MICRO BREW AND GRILL","Address":"3725 W Sunset Blvd","City":"Los Angeles","State":"CA","Zip":"90026"},{"Location":"GUISADOS","Address":"1261 W Sunset Blvd","City":"Los Angeles","State":"CA","Zip":"90026"},{"Location":"ICFG FURLOUGH HOME","Address":"1627 Park Ave","City":"Los Angeles","State":"CA","Zip":"90026"},{"Location":"INTERNATIONAL","Address":"1530 W Sunset Blvd","City":"Los Angeles","State":"CA","Zip":"90026"},{"Location":"KODA SUSHI","Address":"3719 W Sunset Blvd","City":"Los Angeles","State":"CA","Zip":"90026"},{"Location":"LA CARIDAD RESTAURANT","Address":"2619 W Sunset Blvd","City":"Los Angeles","State":"CA","Zip":"90026"},{"Location":"LOS LAVADEROS COIN LAUND","Address":"2625 W Sunset Blvd","City":"Los Angeles","State":"CA","Zip":"90026"},{"Location":"MAYAS TACOS","Address":"1600 N Alvarado St","City":"Los Angeles","State":"CA","Zip":"90026"},{"Location":"MOHAWK ALLEY ANIMAL HOSPITAL","Address":"2162 W Sunset Blvd","City":"Los Angeles","State":"CA","Zip":"90026"},{"Location":"MOHAWK BEND","Address":"2141 W Sunset Blvd","City":"Los Angeles","State":"CA","Zip":"90026"},{"Location":"MOON HEALTH","Address":"2128 W Temple St","City":"Los Angeles","State":"CA","Zip":"90026"},{"Location":"NANAY GLORIA BAKE SHOP","Address":"2432 W Temple St","City":"Los Angeles","State":"CA","Zip":"90026"},{"Location":"OUR LADY OF LORETTO","Address":"250 N Union Ave","City":"Los Angeles","State":"CA","Zip":"90026"},{"Location":"PUPUSERIA MENCHITA","Address":"1606 Beverly Blvd","City":"Los Angeles","State":"CA","Zip":"90026"},{"Location":"RAVEN INDUSTRIAL SUPPLY","Address":"249 N Reno St","City":"Los Angeles","State":"CA","Zip":"90026"},{"Location":"RESTAURANT COSTA ALEGRE","Address":"1901 W Sunset Blvd","City":"Los Angeles","State":"CA","Zip":"90026"},{"Location":"REYNOLDS","Address":"1800 W Sunset Blvd","City":"Los Angeles","State":"CA","Zip":"90026"},{"Location":"SAN JUAN MINI MARKET","Address":"1248 W Temple St","City":"Los Angeles","State":"CA","Zip":"90026"},{"Location":"SEAFOOD FIESTA RESTAURANT","Address":"2534 W Temple St","City":"Los Angeles","State":"CA","Zip":"90026"},{"Location":"SHAMPOOLIO COMPANY","Address":"665 N Benton Way","City":"Los Angeles","State":"CA","Zip":"90026"},{"Location":"SILVER LAKE LOUNGE","Address":"2906 W Sunset Blvd","City":"Los Angeles","State":"CA","Zip":"90026"},{"Location":"SUNSET AUTO SPA","Address":"2028 W Sunset Blvd","City":"Los Angeles","State":"CA","Zip":"90026"},{"Location":"TACOS MEXICO","Address":"1538 Glendale Blvd","City":"Los Angeles","State":"CA","Zip":"90026"},{"Location":"THE BILLETS","Address":"1801 Lake Shore Ave","City":"Los Angeles","State":"CA","Zip":"90026"},{"Location":"THE DREAM CENTER","Address":"2301 Bellevue Ave","City":"Los Angeles","State":"CA","Zip":"90026"}]