[{"Location":"4 SEASON LAUNDROMAT","Address":"5173 Santa Monica Blvd C","City":"Los Angeles","State":"CA","Zip":"90029"},{"Location":"A T C ACCOUNTING AND INSURANCE","Address":"5465 Santa Monica Blvd 204","City":"Los Angeles","State":"CA","Zip":"90029"},{"Location":"ADOBO GRILL","Address":"4716 Fountain Ave","City":"Los Angeles","State":"CA","Zip":"90029"},{"Location":"AMALIAS RESTAURANT","Address":"751 N Virgil Ave","City":"Los Angeles","State":"CA","Zip":"90029"},{"Location":"ANTEQUERA DE OAXACA MAR","Address":"5228 Fountain Ave","City":"Los Angeles","State":"CA","Zip":"90029"},{"Location":"ARCA SALVCION","Address":"4859 Fountain Ave","City":"Los Angeles","State":"CA","Zip":"90029"},{"Location":"ARMENIAN MUSIC","Address":"4900 Santa Monica Blvd","City":"Los Angeles","State":"CA","Zip":"90029"},{"Location":"ASAVA RESTAURANT","Address":"970 N Western Ave","City":"Los Angeles","State":"CA","Zip":"90029"},{"Location":"AUTO REPAIR SPECIALISTS","Address":"1037 N Heliotrope Dr","City":"Los Angeles","State":"CA","Zip":"90029"},{"Location":"BIG MAMA'S & PAPA'S PIZZERIA","Address":"812 N Vermont Ave","City":"Los Angeles","State":"CA","Zip":"90029"},{"Location":"BOOS PHILLY CHEESESTEAK","Address":"4501 Fountain Ave","City":"Los Angeles","State":"CA","Zip":"90029"},{"Location":"CAPSULE BARBER SHOP","Address":"4304 Melrose Ave","City":"Los Angeles","State":"CA","Zip":"90029"},{"Location":"CASTILLO EXPRESS","Address":"5406 Flemish Ln","City":"Los Angeles","State":"CA","Zip":"90029"},{"Location":"CHUYS BRAVO TAQUERIA","Address":"5421 Santa Monica Blvd C","City":"Los Angeles","State":"CA","Zip":"90029"},{"Location":"DANYS DELI","Address":"1144 N Vermont Ave","City":"Los Angeles","State":"CA","Zip":"90029"},{"Location":"DENISE VARIETY SHOP","Address":"1040 N Western Ave","City":"Los Angeles","State":"CA","Zip":"90029"},{"Location":"DENTAL PLAYGROUND","Address":"906 N Vermont Ave","City":"Los Angeles","State":"CA","Zip":"90029"},{"Location":"DESANO PIZZA BAKERY","Address":"4969 Santa Monica Blvd","City":"Los Angeles","State":"CA","Zip":"90029"},{"Location":"DORRIS BEAUTY SALON","Address":"1040 N Western Ave B","City":"Los Angeles","State":"CA","Zip":"90029"},{"Location":"EL CAFETAL RESTAURANT","Address":"4929 Santa Monica Blvd","City":"Los Angeles","State":"CA","Zip":"90029"},{"Location":"EL PAJONAL","Address":"1133 N Vermont Ave","City":"Los Angeles","State":"CA","Zip":"90029"},{"Location":"EMMANUELS BARBERSHOP","Address":"4561 Santa Monica Blvd","City":"Los Angeles","State":"CA","Zip":"90029"},{"Location":"FALEFAL ARAX","Address":"5101 Santa Monica Blvd 2","City":"Los Angeles","State":"CA","Zip":"90029"},{"Location":"FAULTLINE","Address":"4216 Melrose Ave","City":"Los Angeles","State":"CA","Zip":"90029"},{"Location":"FOUNTAIN BODY & REPAIR","Address":"4368 Fountain Ave","City":"Los Angeles","State":"CA","Zip":"90029"},{"Location":"HERNANDEZ ACCOUNTING SER","Address":"5452 Santa Monica Blvd","City":"Los Angeles","State":"CA","Zip":"90029"},{"Location":"HYE PHARMACY.INC","Address":"5236 Santa Monica Blvd","City":"Los Angeles","State":"CA","Zip":"90029"},{"Location":"JBEER 74 INC","Address":"4321 W Sunset Blvd","City":"Los Angeles","State":"CA","Zip":"90029"},{"Location":"JIFFY LUBE 706","Address":"4020 W Sunset Blvd","City":"Los Angeles","State":"CA","Zip":"90029"},{"Location":"JUN ENCARNACION BEAUTY S","Address":"4329 W Sunset Blvd","City":"Los Angeles","State":"CA","Zip":"90029"},{"Location":"KAVKAZ","Address":"5341 Santa Monica Blvd","City":"Los Angeles","State":"CA","Zip":"90029"},{"Location":"KINGSLEY MANOR","Address":"1055 N Kingsley Dr","City":"Los Angeles","State":"CA","Zip":"90029"},{"Location":"LA CITY COLL SHRF STATION1","Address":"855 N Vermont Ave 115","City":"Los Angeles","State":"CA","Zip":"90029"},{"Location":"LA LUNA BANQUET HALL","Address":"972 N Bermont Ave","City":"Los Angeles","State":"CA","Zip":"90029"},{"Location":"LEXTECH","Address":"4300 W Sunset Blvd","City":"Los Angeles","State":"CA","Zip":"90029"},{"Location":"LITTLE SAN SALVADOR","Address":"901 N Western Ave 3","City":"Los Angeles","State":"CA","Zip":"90029"},{"Location":"LOS 3 AMIGOS RESTAURANT","Address":"4869 Santa Monica Blvd","City":"Los Angeles","State":"CA","Zip":"90029"},{"Location":"LOS LAVADEROS COIN LAUND","Address":"954 N Virgil Ave","City":"Los Angeles","State":"CA","Zip":"90029"},{"Location":"LOTUS LOUNGE","Address":"1135 N Vermont Ave","City":"Los Angeles","State":"CA","Zip":"90029"},{"Location":"MELROSE HAIR DESIGN","Address":"4800 Melrose Ave","City":"Los Angeles","State":"CA","Zip":"90029"},{"Location":"MI GUATEALA STORE","Address":"958 N Western Ave","City":"Los Angeles","State":"CA","Zip":"90029"},{"Location":"NUEVO SAN SALVADOR RESTERAUNT","Address":"5230 Santa Monica Blvd","City":"Los Angeles","State":"CA","Zip":"90029"},{"Location":"ONE ROSE LIMO","Address":"5425 Santa Monica Blvd 303","City":"Los Angeles","State":"CA","Zip":"90029"},{"Location":"PAIN FREE SOCIETY OF CAL","Address":"4906 Melrose Ave","City":"Los Angeles","State":"CA","Zip":"90029"},{"Location":"PASHA HOUKAH LOUNGE","Address":"864 N Vermont Ave","City":"Los Angeles","State":"CA","Zip":"90029"},{"Location":"PIZZA PAULS","Address":"4330 Melrose Ave","City":"Los Angeles","State":"CA","Zip":"90029"},{"Location":"PLANNED   PARENTHOOD","Address":"1014 N Vermont Ave","City":"Los Angeles","State":"CA","Zip":"90029"},{"Location":"POINT POINT RESTAURANT","Address":"4627 Santa Monica Blvd A","City":"Los Angeles","State":"CA","Zip":"90029"},{"Location":"RED BIRD TATTOO PIERCING","Address":"4852 Santa Monica Blvd","City":"Los Angeles","State":"CA","Zip":"90029"},{"Location":"RINCON CHILENO","Address":"4354 Melrose Ave","City":"Los Angeles","State":"CA","Zip":"90029"},{"Location":"SABOR LATINO","Address":"4908 Fountain Ave","City":"Los Angeles","State":"CA","Zip":"90029"},{"Location":"SAMUEL LEONCIA ROXAS DMD","Address":"4852 Melrose Ave","City":"Los Angeles","State":"CA","Zip":"90029"},{"Location":"SAN JUDAS MEDICAL GROUP","Address":"1080 N Western Ave","City":"Los Angeles","State":"CA","Zip":"90029"},{"Location":"SERRANO NORTH CONVALESCED HOSP","Address":"5401 Fountain Ave","City":"Los Angeles","State":"CA","Zip":"90029"},{"Location":"STRANGE WEATHER FILMS","Address":"4205 Santa Monica Blvd","City":"Los Angeles","State":"CA","Zip":"90029"},{"Location":"SUN REAL ESTATE INVESTMENT","Address":"5250 Santa Monica Blvd","City":"Los Angeles","State":"CA","Zip":"90029"},{"Location":"TAQUERIA EK CHARRITO","Address":"811 N Virgil Ave","City":"Los Angeles","State":"CA","Zip":"90029"},{"Location":"THE COIN LAUNDRY LAVANDE","Address":"1183 N Vermont Ave","City":"Los Angeles","State":"CA","Zip":"90029"},{"Location":"THE EAGLE LA","Address":"4219 Santa Monica Blvd","City":"Los Angeles","State":"CA","Zip":"90029"},{"Location":"THE FACULTY","Address":"707 N Heliotrope Dr","City":"Los Angeles","State":"CA","Zip":"90029"},{"Location":"THE HOLLYWOOD HOTEL","Address":"1160 N Vermont Ave","City":"Los Angeles","State":"CA","Zip":"90029"},{"Location":"TOP LINE BARBERSHOP","Address":"4619 Santa Monica Blvd","City":"Los Angeles","State":"CA","Zip":"90029"},{"Location":"UKRAINIAN CULTURE CENTER","Address":"4315 Melrose Ave","City":"Los Angeles","State":"CA","Zip":"90029"},{"Location":"VILLA LOBOS MARKET 1","Address":"5244santa Monica Blvd","City":"Los Angeles","State":"CA","Zip":"90029"},{"Location":"VIVIAN C BANARIA DMD INC","Address":"5300 Santa Monica Blvd","City":"Los Angeles","State":"CA","Zip":"90029"},{"Location":"WESTERN AUTO CRAFTERS  I","Address":"811 N Western Ave","City":"Los Angeles","State":"CA","Zip":"90029"},{"Location":"WINGSTOP #705","Address":"1075 N Western Ave 107","City":"Los Angeles","State":"CA","Zip":"90029"}]