[{"Location":"ACTIVITION","Address":"11150 Santa Monica Blvd 4th","City":"Los Angeles","State":"CA","Zip":"90025"},{"Location":"AMERICAN BULLION%2C INC","Address":"12301 Wilshire Blvd 650","City":"Los Angeles","State":"CA","Zip":"90025"},{"Location":"ARDEN REALTY LIMITED PRTNRSHIP","Address":"11601 Wilshire Blvd 4thfl","City":"Los Angeles","State":"CA","Zip":"90025"},{"Location":"ARENA CAPITAL ADVISORS","Address":"12121 Wilshire Blvd 1010","City":"Los Angeles","State":"CA","Zip":"90025"},{"Location":"AUTHENTIC RECOVERY 1","Address":"1824 Overland Ave","City":"Los Angeles","State":"CA","Zip":"90025"},{"Location":"AUTHENTIC RECOVERY 3","Address":"1822 Overland Ave","City":"Los Angeles","State":"CA","Zip":"90025"},{"Location":"AUTHENTIC RECOVERY 5","Address":"2054 Midvale Ave","City":"Los Angeles","State":"CA","Zip":"90025"},{"Location":"AUTHENTIC RECOVERY 6 GUEST","Address":"2054 Midvale Ave","City":"Los Angeles","State":"CA","Zip":"90025"},{"Location":"AUTHENTIC RECOVERY CENTER","Address":"10780 Santa Monica Blvd 230","City":"Los Angeles","State":"CA","Zip":"90025"},{"Location":"B AND G AUTOMOTIVE","Address":"11717 Santa Monica Blvd","City":"Los Angeles","State":"CA","Zip":"90025"},{"Location":"B HEIGHTS","Address":"10327 Santa Monica Blvd","City":"Los Angeles","State":"CA","Zip":"90025"},{"Location":"BAR HAYAMA","Address":"1803 Sawtelle Blvd","City":"Los Angeles","State":"CA","Zip":"90025"},{"Location":"BARRISTER EXEC SUITES","Address":"11620 Wilshire Blvd 9thf","City":"Los Angeles","State":"CA","Zip":"90025"},{"Location":"BBC WORLD WIDE AMERICAS #7","Address":"10351 Santa Monica Blvd 250","City":"Los Angeles","State":"CA","Zip":"90025"},{"Location":"BET - LOS ANGELES","Address":"10635 Santa Monica Blvd","City":"Los Angeles","State":"CA","Zip":"90025"},{"Location":"BET NETWORKS","Address":"10619 Santa Monica Blvd","City":"Los Angeles","State":"CA","Zip":"90025"},{"Location":"BHP HOLDING PARTNERS LTD","Address":"10923 Santa Monica Blvd","City":"Los Angeles","State":"CA","Zip":"90025"},{"Location":"BIG CATCH BRENTWOOD LLC","Address":"12009 Wilshire Blvd","City":"Los Angeles","State":"CA","Zip":"90025"},{"Location":"BLOCKBUSTER PAVILION","Address":"11100 Santa Monica Blvd 700","City":"Los Angeles","State":"CA","Zip":"90025"},{"Location":"BOOTH LLP","Address":"1849 Sawtelle Blvd 500","City":"Los Angeles","State":"CA","Zip":"90025"},{"Location":"BREAKDOWN SERVICE LIMITED","Address":"2140 Cotner Ave 3","City":"Los Angeles","State":"CA","Zip":"90025"},{"Location":"BRU HAUS","Address":"11831 Wilshire Blvd","City":"Los Angeles","State":"CA","Zip":"90025"},{"Location":"C M E G","Address":"2050 S Bundy Dr","City":"Los Angeles","State":"CA","Zip":"90025"},{"Location":"CABO CANTINA","Address":"11829 Wilshire Blvd","City":"Los Angeles","State":"CA","Zip":"90025"},{"Location":"CALIFORNIA PITA BRENTWOOD","Address":"12001 Wilshire Blvd","City":"Los Angeles","State":"CA","Zip":"90025"},{"Location":"CAMERON TORABI DDS INC","Address":"12301 Wilshire Blvd 205","City":"Los Angeles","State":"CA","Zip":"90025"},{"Location":"CAPITAL ONE","Address":"11175 Santa Monica Blvd 1","City":"Los Angeles","State":"CA","Zip":"90025"},{"Location":"CARMINES","Address":"10463 Santa Monica Blvd","City":"Los Angeles","State":"CA","Zip":"90025"},{"Location":"CBIZ MHM LLC","Address":"10474 Santa Monica Blvd 200","City":"Los Angeles","State":"CA","Zip":"90025"},{"Location":"CHAPARAL INVESTMENTS","Address":"11601 Wilshire Blvd 1825","City":"Los Angeles","State":"CA","Zip":"90025"},{"Location":"COURTYARD BY MARRIOTT","Address":"11828 La Grange Ave Ca","City":"Los Angeles","State":"CA","Zip":"90025"},{"Location":"CRESCENT","Address":"11100 Santa Monica Blvd 1000","City":"Los Angeles","State":"CA","Zip":"90025"},{"Location":"CRESCENT","Address":"11100 Santa Monica Blvd 2000","City":"Los Angeles","State":"CA","Zip":"90025"},{"Location":"CROSS TRAINING CENTER","Address":"1849 Sawtelle Blvd 101","City":"Los Angeles","State":"CA","Zip":"90025"},{"Location":"DANNY WIMMER PRESENTS 3","Address":"10350 Santa Monica Blvd 350","City":"Los Angeles","State":"CA","Zip":"90025"},{"Location":"DAVITA #430 WESTWOOD UCLA","Address":"10630 Santa Monica Blvd","City":"Los Angeles","State":"CA","Zip":"90025"},{"Location":"DEMAREST LLC","Address":"11925 Wilshire Blvd","City":"Los Angeles","State":"CA","Zip":"90025"},{"Location":"DJS ALL ABOUT HAIR","Address":"10864 La Grange Ave","City":"Los Angeles","State":"CA","Zip":"90025"},{"Location":"DZ SOLUTION","Address":"12424 Wilshire Blvd 800","City":"Los Angeles","State":"CA","Zip":"90025"},{"Location":"ELITEBANKCARDCOM","Address":"2012 Stoner Ave","City":"Los Angeles","State":"CA","Zip":"90025"},{"Location":"FAT BURGER","Address":"12005 Wilshire Blvd","City":"Los Angeles","State":"CA","Zip":"90025"},{"Location":"FENBERG MINDEL BRANDT & KLEIN","Address":"12424 Wilshire Blvd 9thfl","City":"Los Angeles","State":"CA","Zip":"90025"},{"Location":"FIRESTONE #026093","Address":"10785 Santa Monica Blvd","City":"Los Angeles","State":"CA","Zip":"90025"},{"Location":"FIRST BAPTIST CHURCH WEST LA","Address":"1609 S Barrington Ave","City":"Los Angeles","State":"CA","Zip":"90025"},{"Location":"FORUM SMOKE SHOP","Address":"12019 Wilshire Blvd","City":"Los Angeles","State":"CA","Zip":"90025"},{"Location":"FOX CHANNELS GROUP","Address":"1440 S Sepulveda Blvd","City":"Los Angeles","State":"CA","Zip":"90025"},{"Location":"FOX INTERNATIONAL","Address":"1440 S Sepulveda Blvd","City":"Los Angeles","State":"CA","Zip":"90025"},{"Location":"FOX NEWS - LA SNV","Address":"2044 Armacost Ave","City":"Los Angeles","State":"CA","Zip":"90025"},{"Location":"FOX NEWS OF LOS ANGELES","Address":"2044 Armacost Ave","City":"Los Angeles","State":"CA","Zip":"90025"},{"Location":"FRANKIE AND JHONNIE PIZZA","Address":"11819 Wilshire Blvd 103","City":"Los Angeles","State":"CA","Zip":"90025"},{"Location":"FRASER COMMUNICATIONS","Address":"1631 Pontius Ave","City":"Los Angeles","State":"CA","Zip":"90025"},{"Location":"GERSHMAN PROPERTIES LLC","Address":"12300 Wilshire Blvd 310","City":"Los Angeles","State":"CA","Zip":"90025"},{"Location":"GESSHIN L.A.%2C INC EN SUSHI","Address":"11651 Santa Monica Blvd","City":"Los Angeles","State":"CA","Zip":"90025"},{"Location":"GRAHAM INSURANCE GROUP","Address":"11030 Santa Monica Blvd","City":"Los Angeles","State":"CA","Zip":"90025"},{"Location":"GRAYSON & ASSOCIATES","Address":"12100 Wilshire Blvd 1090","City":"Los Angeles","State":"CA","Zip":"90025"},{"Location":"GREENER BY NATURE","Address":"11919 Wilshire Blvd","City":"Los Angeles","State":"CA","Zip":"90025"},{"Location":"GULLIVER USA","Address":"11325 Santa Monica Blvd","City":"Los Angeles","State":"CA","Zip":"90025"},{"Location":"HAIR JADE","Address":"11953 Santa Monica Blvd","City":"Los Angeles","State":"CA","Zip":"90025"},{"Location":"HARVEY ALPERT AND COMPANY","Address":"2014 S Sepulveda Blvd","City":"Los Angeles","State":"CA","Zip":"90025"},{"Location":"HOMEBRIDGE","Address":"11111 Santa Monica Blvd 1700","City":"Los Angeles","State":"CA","Zip":"90025"},{"Location":"HOUSTON'S RESTAURANT","Address":"11700 Wilshire Blvd","City":"Los Angeles","State":"CA","Zip":"90025"},{"Location":"HOWARD CAPITAL","Address":"11601 Wilshire Blvd 2080","City":"Los Angeles","State":"CA","Zip":"90025"},{"Location":"HPP","Address":"11601 Wilshire Blvd 600","City":"Los Angeles","State":"CA","Zip":"90025"},{"Location":"ICG ADVISORS LLCW","Address":"11111 Santa Monica Blvd 2100","City":"Los Angeles","State":"CA","Zip":"90025"},{"Location":"IRVINE CO","Address":"11100 Santa Monica Blvd 100","City":"Los Angeles","State":"CA","Zip":"90025"},{"Location":"JALMAR PROPERTIES","Address":"12121 Wilshire Blvd 1120","City":"Los Angeles","State":"CA","Zip":"90025"},{"Location":"JERSEY MIKES SUBS","Address":"12003 Wilshire Blvd","City":"Los Angeles","State":"CA","Zip":"90025"},{"Location":"JIFFY LUBE 1935","Address":"11001 Santa Monica Blvd","City":"Los Angeles","State":"CA","Zip":"90025"},{"Location":"JIN JIANG RESTAURANT","Address":"11057 Santa Monica Blvd","City":"Los Angeles","State":"CA","Zip":"90025"},{"Location":"JOSEPH ELY","Address":"12041 Wilshire Blvd 28","City":"Los Angeles","State":"CA","Zip":"90025"},{"Location":"JUDICATE WEST","Address":"11601 Wilshire Blvd 2040","City":"Los Angeles","State":"CA","Zip":"90025"},{"Location":"KATHY SICA PSYCHOTHERAPY","Address":"12301 Wilshire Blvd 202","City":"Los Angeles","State":"CA","Zip":"90025"},{"Location":"KONSKER FINANCIAL GROUP","Address":"12304 Santa Monica Blvd 220a","City":"Los Angeles","State":"CA","Zip":"90025"},{"Location":"KSCI TV","Address":"1990 S Bundy Dr 850","City":"Los Angeles","State":"CA","Zip":"90025"},{"Location":"KTTV FOX TELEVISION","Address":"1999 S Bundy Dr","City":"Los Angeles","State":"CA","Zip":"90025"},{"Location":"L & S ADVISORS%2C INC.","Address":"12121 Wilshire Blvd","City":"Los Angeles","State":"CA","Zip":"90025"},{"Location":"LA FITNESS #06103","Address":"1914 S Bundy Dr","City":"Los Angeles","State":"CA","Zip":"90025"},{"Location":"LANDMARK IMAGING%2CLLC     GROUP","Address":"11620 Wilshire Blvd 100","City":"Los Angeles","State":"CA","Zip":"90025"},{"Location":"LAW OFFICES OF JAMES R ELIASER","Address":"12100 Wilshire Blvd 1940","City":"Los Angeles","State":"CA","Zip":"90025"},{"Location":"LAW OFFICES OF ZOMBER&PA","Address":"12424 Wilshire Blvd 720","City":"Los Angeles","State":"CA","Zip":"90025"},{"Location":"LEITH SHAWAF DDS","Address":"11859 Wilshire Blvd 555","City":"Los Angeles","State":"CA","Zip":"90025"},{"Location":"LIFE GYM LLC","Address":"12424 Wilshire Blvd 101","City":"Los Angeles","State":"CA","Zip":"90025"},{"Location":"LITERATI CAFE","Address":"12081 Wilshire Blvd","City":"Los Angeles","State":"CA","Zip":"90025"},{"Location":"LWC NUMBER 2","Address":"11950 Wilshire Blvd","City":"Los Angeles","State":"CA","Zip":"90025"},{"Location":"MADISON MARQUETTE","Address":"11111 Santa Monica Blvd 950","City":"Los Angeles","State":"CA","Zip":"90025"},{"Location":"MADISON PARTNERS","Address":"12121 Wilshire Blvd","City":"Los Angeles","State":"CA","Zip":"90025"},{"Location":"MAILBOXES%2CBOX AND SHIP","Address":"11041 Santa Monica Blvd","City":"Los Angeles","State":"CA","Zip":"90025"},{"Location":"MARK PHILLIPS PHILMS  TELEPHI","Address":"2100 Sawtelle Blvd 307","City":"Los Angeles","State":"CA","Zip":"90025"},{"Location":"MCDONALDS","Address":"10451 Santa Monica Blvd","City":"Los Angeles","State":"CA","Zip":"90025"},{"Location":"MEDIA DESIGN GROUP LLC","Address":"12300 Wilshire Blvd 200","City":"Los Angeles","State":"CA","Zip":"90025"},{"Location":"MG SKINNER & ASSOCIATES","Address":"11030 Santa Monica Blvd 207","City":"Los Angeles","State":"CA","Zip":"90025"},{"Location":"MIDWAY CAR RENTAL","Address":"1800 S Sepulveda Blvd","City":"Los Angeles","State":"CA","Zip":"90025"},{"Location":"MOMS BAR","Address":"12238 Santa Monica Blvd","City":"Los Angeles","State":"CA","Zip":"90025"},{"Location":"MORGAN CREEK PRODUCTIONS","Address":"10351 Santa Monica Blvd 200","City":"Los Angeles","State":"CA","Zip":"90025"},{"Location":"MUNDOFOX BROADCASTING","Address":"1440 S Sepulveda Blvd S3328","City":"Los Angeles","State":"CA","Zip":"90025"},{"Location":"NEW DIRECTIONS INC","Address":"11303 Wilshire Blvd 116","City":"Los Angeles","State":"CA","Zip":"90025"},{"Location":"NEW DIRECTIONS NORTH","Address":"11303 Wilshire Blvd 257","City":"Los Angeles","State":"CA","Zip":"90025"},{"Location":"NEW VISTA","Address":"1516 Sawtelle Blvd","City":"Los Angeles","State":"CA","Zip":"90025"},{"Location":"NINA'S","Address":"1651 Sawtelle Blvd","City":"Los Angeles","State":"CA","Zip":"90025"},{"Location":"NORTHWESTERN MUTUAL","Address":"11111 Santa Monica Blvd 300","City":"Los Angeles","State":"CA","Zip":"90025"},{"Location":"OPEN ROAD FILMS LLC","Address":"12301 Wilshire Blvd 600","City":"Los Angeles","State":"CA","Zip":"90025"},{"Location":"ORCHARD SUPPLY HARDWARE","Address":"2020 S Bundy Dr","City":"Los Angeles","State":"CA","Zip":"90025"},{"Location":"PAINLESS PRODUCTIONS","Address":"1410 S Centinela Ave","City":"Los Angeles","State":"CA","Zip":"90025"},{"Location":"PENSKE BUSINESS MEDIA LLC","Address":"11175 Santa Monica Blvd 900","City":"Los Angeles","State":"CA","Zip":"90025"},{"Location":"PHILLY WEST BAR & GRILL","Address":"1870 Westwood Blvd","City":"Los Angeles","State":"CA","Zip":"90025"},{"Location":"PITFIRE PIZZA WESTWOOD","Address":"2018 Westwood Blvd","City":"Los Angeles","State":"CA","Zip":"90025"},{"Location":"PLAN CHECK SAWTELLE","Address":"1800 Sawtelle Blvd","City":"Los Angeles","State":"CA","Zip":"90025"},{"Location":"PREMIER BUSINESS CENTER","Address":"11111 Santa Monica Blvd 1700","City":"Los Angeles","State":"CA","Zip":"90025"},{"Location":"PROTON CAPITAL%2FPROTON MNGMT","Address":"10436 Santa Monica Blvd Fl4","City":"Los Angeles","State":"CA","Zip":"90025"},{"Location":"Q'S BILLIARDS CLUB","Address":"11835 Wilshire Blvd","City":"Los Angeles","State":"CA","Zip":"90025"},{"Location":"RADNET INC","Address":"1510 Cotner Ave","City":"Los Angeles","State":"CA","Zip":"90025"},{"Location":"ROMAN UPHOLSTRY","Address":"2008 Cotner Ave","City":"Los Angeles","State":"CA","Zip":"90025"},{"Location":"RUSS AUGUST AND KABAT","Address":"12424 Wilshire Blvd 1200","City":"Los Angeles","State":"CA","Zip":"90025"},{"Location":"SALEM PARTNERS  LLC","Address":"11111 Santa Monica Blvd 2250","City":"Los Angeles","State":"CA","Zip":"90025"},{"Location":"SANTA MONICA KITCHEN AND CAFE","Address":"12340 Santa Monica Blvd A","City":"Los Angeles","State":"CA","Zip":"90025"},{"Location":"SASAYA RESTAURANT","Address":"11613 Santa Monica Blvd","City":"Los Angeles","State":"CA","Zip":"90025"},{"Location":"SERVIZIO ROSSO LLC","Address":"2036 S Westgate Ave","City":"Los Angeles","State":"CA","Zip":"90025"},{"Location":"SHOUT FACTORY","Address":"2034 Armacost Ave Ste 1","City":"Los Angeles","State":"CA","Zip":"90025"},{"Location":"SMITH HOUSE","Address":"10351 Santa Monica Blvd","City":"Los Angeles","State":"CA","Zip":"90025"},{"Location":"SONECA MARSHALL ARTS","Address":"11819     Wilshire Boulev","City":"Los Angeles","State":"CA","Zip":"90025"},{"Location":"SPC WIRELESS III","Address":"12036 Wilshire Blvd","City":"Los Angeles","State":"CA","Zip":"90025"},{"Location":"SPECKMANS MOBIL MART","Address":"1660 S Sepulveda Blvd","City":"Los Angeles","State":"CA","Zip":"90025"},{"Location":"SPIRIT OF AMERICA","Address":"12301 Wilshire Blvd 303","City":"Los Angeles","State":"CA","Zip":"90025"},{"Location":"STAR CHIROPRACTIC NUTRIT","Address":"12301 Wilshire Blvd 615","City":"Los Angeles","State":"CA","Zip":"90025"},{"Location":"STATS LLC","Address":"1440 S Sepulveda Blvd","City":"Los Angeles","State":"CA","Zip":"90025"},{"Location":"SUSHI ROOM","Address":"1884 Westwood Blvd","City":"Los Angeles","State":"CA","Zip":"90025"},{"Location":"TAKA BEAUTY SALON INC","Address":"1845 Westwood Blvd","City":"Los Angeles","State":"CA","Zip":"90025"},{"Location":"TESLA MOTORS","Address":"11163 Santa Monica Blvd","City":"Los Angeles","State":"CA","Zip":"90025"},{"Location":"THE MASSAGE THERAPY CENTER INC","Address":"2130 Sawgelle  #207","City":"Los Angeles","State":"CA","Zip":"90025"},{"Location":"THE SPORTS CLUB COMPANY","Address":"1803 Pontius Ave","City":"Los Angeles","State":"CA","Zip":"90025"},{"Location":"THE VILLAGE RECORDER","Address":"1616 Butler Ave","City":"Los Angeles","State":"CA","Zip":"90025"},{"Location":"THREE 10 REAL ESTATE ADVISORS","Address":"1539 Sawtelle Blvd 3","City":"Los Angeles","State":"CA","Zip":"90025"},{"Location":"TIMOTHY C REYNOLDS MD","Address":"11645 Wilshire Blvd","City":"Los Angeles","State":"CA","Zip":"90025"},{"Location":"TRANCAS INTERNATIONAL FILM","Address":"2021 Pontius Ave","City":"Los Angeles","State":"CA","Zip":"90025"},{"Location":"TRANSPORTATION RESOURCES","Address":"11901 Santa Monica Blvd 310","City":"Los Angeles","State":"CA","Zip":"90025"},{"Location":"TROPE AND DECAROLIS  LLP","Address":"12121 Wilshire Blvd 1325","City":"Los Angeles","State":"CA","Zip":"90025"},{"Location":"TRU AMERICA MULTIFAMILY","Address":"12100 Wilshire Blvd 250","City":"Los Angeles","State":"CA","Zip":"90025"},{"Location":"TS ARCHITECTS","Address":"2050 S Bundy Dr 225","City":"Los Angeles","State":"CA","Zip":"90025"},{"Location":"TV TRACKER.COM","Address":"11175 Santa Monica Blvd 900","City":"Los Angeles","State":"CA","Zip":"90025"},{"Location":"TYLER DEVELOPMENT CORPORATION","Address":"1932 Cotner Ave","City":"Los Angeles","State":"CA","Zip":"90025"},{"Location":"UNION BUFFET 2","Address":"11819 Wilshire Blvd 106a","City":"Los Angeles","State":"CA","Zip":"90025"},{"Location":"VCAWLA ANIMAL HOSPITAL1","Address":"1900 S Sepulveda Blvd","City":"Los Angeles","State":"CA","Zip":"90025"},{"Location":"VIACOM BET NETWORKS","Address":"10635 Santa Monica Blvd","City":"Los Angeles","State":"CA","Zip":"90025"},{"Location":"VINCENTBENJAMIN","Address":"11100 Santa Monica Blvd 725","City":"Los Angeles","State":"CA","Zip":"90025"},{"Location":"VIRGOSITY","Address":"2010 S Westgate Ave","City":"Los Angeles","State":"CA","Zip":"90025"},{"Location":"WALLYS WINE AND SPIRITS","Address":"2107 Westwood Blvd","City":"Los Angeles","State":"CA","Zip":"90025"},{"Location":"WEST WILSHIRE CAFE","Address":"11620 Wilshire Blvd","City":"Los Angeles","State":"CA","Zip":"90025"},{"Location":"WESTSIDE PHARMACY CORP","Address":"11504 Santa Monica Blvd","City":"Los Angeles","State":"CA","Zip":"90025"},{"Location":"WESTWOOD AUTO BODY.","Address":"2100 Westwood Blvd","City":"Los Angeles","State":"CA","Zip":"90025"},{"Location":"WILSHIRE PACIFIC","Address":"12301 Wilshire Blvd 311","City":"Los Angeles","State":"CA","Zip":"90025"},{"Location":"WING STOP","Address":"12241 Santa Monica Blvd","City":"Los Angeles","State":"CA","Zip":"90025"},{"Location":"WOLFF URBAN MNGT","Address":"11828 La Grange Ave","City":"Los Angeles","State":"CA","Zip":"90025"},{"Location":"WWE EXECUTIVE","Address":"12424 Wilshire Blvd 1400","City":"Los Angeles","State":"CA","Zip":"90025"},{"Location":"YEN SUSHI","Address":"11819 Wilshire Blvd","City":"Los Angeles","State":"CA","Zip":"90025"},{"Location":"ZU ROBATA","Address":"12217 Wilshire Blvd","City":"Los Angeles","State":"CA","Zip":"90025"},{"Location":"YEKTA RESTAURANT","Address":"11925 Santa Monica Blvd","City":"W Los Angeles","State":"CA","Zip":"90025"},{"Location":"ACTIVITION","Address":"11150 Santa Monica Blvd 4th","City":"Los Angeles","State":"CA","Zip":"90025"},{"Location":"AMERICAN BULLION%2C INC","Address":"12301 Wilshire Blvd 650","City":"Los Angeles","State":"CA","Zip":"90025"},{"Location":"ARDEN REALTY LIMITED PRTNRSHIP","Address":"11601 Wilshire Blvd 4thfl","City":"Los Angeles","State":"CA","Zip":"90025"},{"Location":"ARENA CAPITAL ADVISORS","Address":"12121 Wilshire Blvd 1010","City":"Los Angeles","State":"CA","Zip":"90025"},{"Location":"AUTHENTIC RECOVERY 1","Address":"1824 Overland Ave","City":"Los Angeles","State":"CA","Zip":"90025"},{"Location":"AUTHENTIC RECOVERY 3","Address":"1822 Overland Ave","City":"Los Angeles","State":"CA","Zip":"90025"},{"Location":"AUTHENTIC RECOVERY 5","Address":"2054 Midvale Ave","City":"Los Angeles","State":"CA","Zip":"90025"},{"Location":"AUTHENTIC RECOVERY 6 GUEST","Address":"2054 Midvale Ave","City":"Los Angeles","State":"CA","Zip":"90025"},{"Location":"AUTHENTIC RECOVERY CENTER","Address":"10780 Santa Monica Blvd 230","City":"Los Angeles","State":"CA","Zip":"90025"},{"Location":"B AND G AUTOMOTIVE","Address":"11717 Santa Monica Blvd","City":"Los Angeles","State":"CA","Zip":"90025"},{"Location":"B HEIGHTS","Address":"10327 Santa Monica Blvd","City":"Los Angeles","State":"CA","Zip":"90025"},{"Location":"BAR HAYAMA","Address":"1803 Sawtelle Blvd","City":"Los Angeles","State":"CA","Zip":"90025"},{"Location":"BARRISTER EXEC SUITES","Address":"11620 Wilshire Blvd 9thf","City":"Los Angeles","State":"CA","Zip":"90025"},{"Location":"BBC WORLD WIDE AMERICAS #7","Address":"10351 Santa Monica Blvd 250","City":"Los Angeles","State":"CA","Zip":"90025"},{"Location":"BET - LOS ANGELES","Address":"10635 Santa Monica Blvd","City":"Los Angeles","State":"CA","Zip":"90025"},{"Location":"BET NETWORKS","Address":"10619 Santa Monica Blvd","City":"Los Angeles","State":"CA","Zip":"90025"},{"Location":"BHP HOLDING PARTNERS LTD","Address":"10923 Santa Monica Blvd","City":"Los Angeles","State":"CA","Zip":"90025"},{"Location":"BIG CATCH BRENTWOOD LLC","Address":"12009 Wilshire Blvd","City":"Los Angeles","State":"CA","Zip":"90025"},{"Location":"BLOCKBUSTER PAVILION","Address":"11100 Santa Monica Blvd 700","City":"Los Angeles","State":"CA","Zip":"90025"},{"Location":"BOOTH LLP","Address":"1849 Sawtelle Blvd 500","City":"Los Angeles","State":"CA","Zip":"90025"},{"Location":"BREAKDOWN SERVICE LIMITED","Address":"2140 Cotner Ave 3","City":"Los Angeles","State":"CA","Zip":"90025"},{"Location":"BRU HAUS","Address":"11831 Wilshire Blvd","City":"Los Angeles","State":"CA","Zip":"90025"},{"Location":"C M E G","Address":"2050 S Bundy Dr","City":"Los Angeles","State":"CA","Zip":"90025"},{"Location":"CABO CANTINA","Address":"11829 Wilshire Blvd","City":"Los Angeles","State":"CA","Zip":"90025"},{"Location":"CALIFORNIA PITA BRENTWOOD","Address":"12001 Wilshire Blvd","City":"Los Angeles","State":"CA","Zip":"90025"},{"Location":"CAMERON TORABI DDS INC","Address":"12301 Wilshire Blvd 205","City":"Los Angeles","State":"CA","Zip":"90025"},{"Location":"CAPITAL ONE","Address":"11175 Santa Monica Blvd 1","City":"Los Angeles","State":"CA","Zip":"90025"},{"Location":"CARMINES","Address":"10463 Santa Monica Blvd","City":"Los Angeles","State":"CA","Zip":"90025"},{"Location":"CBIZ MHM LLC","Address":"10474 Santa Monica Blvd 200","City":"Los Angeles","State":"CA","Zip":"90025"},{"Location":"CHAPARAL INVESTMENTS","Address":"11601 Wilshire Blvd 1825","City":"Los Angeles","State":"CA","Zip":"90025"},{"Location":"COURTYARD BY MARRIOTT","Address":"11828 La Grange Ave Ca","City":"Los Angeles","State":"CA","Zip":"90025"},{"Location":"CRESCENT","Address":"11100 Santa Monica Blvd 1000","City":"Los Angeles","State":"CA","Zip":"90025"},{"Location":"CRESCENT","Address":"11100 Santa Monica Blvd 2000","City":"Los Angeles","State":"CA","Zip":"90025"},{"Location":"CROSS TRAINING CENTER","Address":"1849 Sawtelle Blvd 101","City":"Los Angeles","State":"CA","Zip":"90025"},{"Location":"DANNY WIMMER PRESENTS 3","Address":"10350 Santa Monica Blvd 350","City":"Los Angeles","State":"CA","Zip":"90025"},{"Location":"DAVITA #430 WESTWOOD UCLA","Address":"10630 Santa Monica Blvd","City":"Los Angeles","State":"CA","Zip":"90025"},{"Location":"DEMAREST LLC","Address":"11925 Wilshire Blvd","City":"Los Angeles","State":"CA","Zip":"90025"},{"Location":"DJS ALL ABOUT HAIR","Address":"10864 La Grange Ave","City":"Los Angeles","State":"CA","Zip":"90025"},{"Location":"DZ SOLUTION","Address":"12424 Wilshire Blvd 800","City":"Los Angeles","State":"CA","Zip":"90025"},{"Location":"ELITEBANKCARDCOM","Address":"2012 Stoner Ave","City":"Los Angeles","State":"CA","Zip":"90025"},{"Location":"FAT BURGER","Address":"12005 Wilshire Blvd","City":"Los Angeles","State":"CA","Zip":"90025"},{"Location":"FENBERG MINDEL BRANDT & KLEIN","Address":"12424 Wilshire Blvd 9thfl","City":"Los Angeles","State":"CA","Zip":"90025"},{"Location":"FIRESTONE #026093","Address":"10785 Santa Monica Blvd","City":"Los Angeles","State":"CA","Zip":"90025"},{"Location":"FIRST BAPTIST CHURCH WEST LA","Address":"1609 S Barrington Ave","City":"Los Angeles","State":"CA","Zip":"90025"},{"Location":"FORUM SMOKE SHOP","Address":"12019 Wilshire Blvd","City":"Los Angeles","State":"CA","Zip":"90025"},{"Location":"FOX CHANNELS GROUP","Address":"1440 S Sepulveda Blvd","City":"Los Angeles","State":"CA","Zip":"90025"},{"Location":"FOX INTERNATIONAL","Address":"1440 S Sepulveda Blvd","City":"Los Angeles","State":"CA","Zip":"90025"},{"Location":"FOX NEWS - LA SNV","Address":"2044 Armacost Ave","City":"Los Angeles","State":"CA","Zip":"90025"},{"Location":"FOX NEWS OF LOS ANGELES","Address":"2044 Armacost Ave","City":"Los Angeles","State":"CA","Zip":"90025"},{"Location":"FRANKIE AND JHONNIE PIZZA","Address":"11819 Wilshire Blvd 103","City":"Los Angeles","State":"CA","Zip":"90025"},{"Location":"FRASER COMMUNICATIONS","Address":"1631 Pontius Ave","City":"Los Angeles","State":"CA","Zip":"90025"},{"Location":"GERSHMAN PROPERTIES LLC","Address":"12300 Wilshire Blvd 310","City":"Los Angeles","State":"CA","Zip":"90025"},{"Location":"GESSHIN L.A.%2C INC EN SUSHI","Address":"11651 Santa Monica Blvd","City":"Los Angeles","State":"CA","Zip":"90025"},{"Location":"GRAHAM INSURANCE GROUP","Address":"11030 Santa Monica Blvd","City":"Los Angeles","State":"CA","Zip":"90025"},{"Location":"GRAYSON & ASSOCIATES","Address":"12100 Wilshire Blvd 1090","City":"Los Angeles","State":"CA","Zip":"90025"},{"Location":"GREENER BY NATURE","Address":"11919 Wilshire Blvd","City":"Los Angeles","State":"CA","Zip":"90025"},{"Location":"GULLIVER USA","Address":"11325 Santa Monica Blvd","City":"Los Angeles","State":"CA","Zip":"90025"},{"Location":"HAIR JADE","Address":"11953 Santa Monica Blvd","City":"Los Angeles","State":"CA","Zip":"90025"},{"Location":"HARVEY ALPERT AND COMPANY","Address":"2014 S Sepulveda Blvd","City":"Los Angeles","State":"CA","Zip":"90025"},{"Location":"HOMEBRIDGE","Address":"11111 Santa Monica Blvd 1700","City":"Los Angeles","State":"CA","Zip":"90025"},{"Location":"HOUSTON'S RESTAURANT","Address":"11700 Wilshire Blvd","City":"Los Angeles","State":"CA","Zip":"90025"},{"Location":"HOWARD CAPITAL","Address":"11601 Wilshire Blvd 2080","City":"Los Angeles","State":"CA","Zip":"90025"},{"Location":"HPP","Address":"11601 Wilshire Blvd 600","City":"Los Angeles","State":"CA","Zip":"90025"},{"Location":"ICG ADVISORS LLCW","Address":"11111 Santa Monica Blvd 2100","City":"Los Angeles","State":"CA","Zip":"90025"},{"Location":"IRVINE CO","Address":"11100 Santa Monica Blvd 100","City":"Los Angeles","State":"CA","Zip":"90025"},{"Location":"JALMAR PROPERTIES","Address":"12121 Wilshire Blvd 1120","City":"Los Angeles","State":"CA","Zip":"90025"},{"Location":"JERSEY MIKES SUBS","Address":"12003 Wilshire Blvd","City":"Los Angeles","State":"CA","Zip":"90025"},{"Location":"JIFFY LUBE 1935","Address":"11001 Santa Monica Blvd","City":"Los Angeles","State":"CA","Zip":"90025"},{"Location":"JIN JIANG RESTAURANT","Address":"11057 Santa Monica Blvd","City":"Los Angeles","State":"CA","Zip":"90025"},{"Location":"JOSEPH ELY","Address":"12041 Wilshire Blvd 28","City":"Los Angeles","State":"CA","Zip":"90025"},{"Location":"JUDICATE WEST","Address":"11601 Wilshire Blvd 2040","City":"Los Angeles","State":"CA","Zip":"90025"},{"Location":"KATHY SICA PSYCHOTHERAPY","Address":"12301 Wilshire Blvd 202","City":"Los Angeles","State":"CA","Zip":"90025"},{"Location":"KONSKER FINANCIAL GROUP","Address":"12304 Santa Monica Blvd 220a","City":"Los Angeles","State":"CA","Zip":"90025"},{"Location":"KSCI TV","Address":"1990 S Bundy Dr 850","City":"Los Angeles","State":"CA","Zip":"90025"},{"Location":"KTTV FOX TELEVISION","Address":"1999 S Bundy Dr","City":"Los Angeles","State":"CA","Zip":"90025"},{"Location":"L & S ADVISORS%2C INC.","Address":"12121 Wilshire Blvd","City":"Los Angeles","State":"CA","Zip":"90025"},{"Location":"LA FITNESS #06103","Address":"1914 S Bundy Dr","City":"Los Angeles","State":"CA","Zip":"90025"},{"Location":"LANDMARK IMAGING%2CLLC     GROUP","Address":"11620 Wilshire Blvd 100","City":"Los Angeles","State":"CA","Zip":"90025"},{"Location":"LAW OFFICES OF JAMES R ELIASER","Address":"12100 Wilshire Blvd 1940","City":"Los Angeles","State":"CA","Zip":"90025"},{"Location":"LAW OFFICES OF ZOMBER&PA","Address":"12424 Wilshire Blvd 720","City":"Los Angeles","State":"CA","Zip":"90025"},{"Location":"LEITH SHAWAF DDS","Address":"11859 Wilshire Blvd 555","City":"Los Angeles","State":"CA","Zip":"90025"},{"Location":"LIFE GYM LLC","Address":"12424 Wilshire Blvd 101","City":"Los Angeles","State":"CA","Zip":"90025"},{"Location":"LITERATI CAFE","Address":"12081 Wilshire Blvd","City":"Los Angeles","State":"CA","Zip":"90025"},{"Location":"LWC NUMBER 2","Address":"11950 Wilshire Blvd","City":"Los Angeles","State":"CA","Zip":"90025"},{"Location":"MADISON MARQUETTE","Address":"11111 Santa Monica Blvd 950","City":"Los Angeles","State":"CA","Zip":"90025"},{"Location":"MADISON PARTNERS","Address":"12121 Wilshire Blvd","City":"Los Angeles","State":"CA","Zip":"90025"},{"Location":"MAILBOXES%2CBOX AND SHIP","Address":"11041 Santa Monica Blvd","City":"Los Angeles","State":"CA","Zip":"90025"},{"Location":"MARK PHILLIPS PHILMS  TELEPHI","Address":"2100 Sawtelle Blvd 307","City":"Los Angeles","State":"CA","Zip":"90025"},{"Location":"MCDONALDS","Address":"10451 Santa Monica Blvd","City":"Los Angeles","State":"CA","Zip":"90025"},{"Location":"MEDIA DESIGN GROUP LLC","Address":"12300 Wilshire Blvd 200","City":"Los Angeles","State":"CA","Zip":"90025"},{"Location":"MG SKINNER & ASSOCIATES","Address":"11030 Santa Monica Blvd 207","City":"Los Angeles","State":"CA","Zip":"90025"},{"Location":"MIDWAY CAR RENTAL","Address":"1800 S Sepulveda Blvd","City":"Los Angeles","State":"CA","Zip":"90025"},{"Location":"MOMS BAR","Address":"12238 Santa Monica Blvd","City":"Los Angeles","State":"CA","Zip":"90025"},{"Location":"MORGAN CREEK PRODUCTIONS","Address":"10351 Santa Monica Blvd 200","City":"Los Angeles","State":"CA","Zip":"90025"},{"Location":"MUNDOFOX BROADCASTING","Address":"1440 S Sepulveda Blvd S3328","City":"Los Angeles","State":"CA","Zip":"90025"},{"Location":"NEW DIRECTIONS INC","Address":"11303 Wilshire Blvd 116","City":"Los Angeles","State":"CA","Zip":"90025"},{"Location":"NEW DIRECTIONS NORTH","Address":"11303 Wilshire Blvd 257","City":"Los Angeles","State":"CA","Zip":"90025"},{"Location":"NEW VISTA","Address":"1516 Sawtelle Blvd","City":"Los Angeles","State":"CA","Zip":"90025"},{"Location":"NINA'S","Address":"1651 Sawtelle Blvd","City":"Los Angeles","State":"CA","Zip":"90025"},{"Location":"NORTHWESTERN MUTUAL","Address":"11111 Santa Monica Blvd 300","City":"Los Angeles","State":"CA","Zip":"90025"},{"Location":"OPEN ROAD FILMS LLC","Address":"12301 Wilshire Blvd 600","City":"Los Angeles","State":"CA","Zip":"90025"},{"Location":"ORCHARD SUPPLY HARDWARE","Address":"2020 S Bundy Dr","City":"Los Angeles","State":"CA","Zip":"90025"},{"Location":"PAINLESS PRODUCTIONS","Address":"1410 S Centinela Ave","City":"Los Angeles","State":"CA","Zip":"90025"},{"Location":"PENSKE BUSINESS MEDIA LLC","Address":"11175 Santa Monica Blvd 900","City":"Los Angeles","State":"CA","Zip":"90025"},{"Location":"PHILLY WEST BAR & GRILL","Address":"1870 Westwood Blvd","City":"Los Angeles","State":"CA","Zip":"90025"},{"Location":"PITFIRE PIZZA WESTWOOD","Address":"2018 Westwood Blvd","City":"Los Angeles","State":"CA","Zip":"90025"},{"Location":"PLAN CHECK SAWTELLE","Address":"1800 Sawtelle Blvd","City":"Los Angeles","State":"CA","Zip":"90025"},{"Location":"PREMIER BUSINESS CENTER","Address":"11111 Santa Monica Blvd 1700","City":"Los Angeles","State":"CA","Zip":"90025"},{"Location":"PROTON CAPITAL%2FPROTON MNGMT","Address":"10436 Santa Monica Blvd Fl4","City":"Los Angeles","State":"CA","Zip":"90025"},{"Location":"Q'S BILLIARDS CLUB","Address":"11835 Wilshire Blvd","City":"Los Angeles","State":"CA","Zip":"90025"},{"Location":"RADNET INC","Address":"1510 Cotner Ave","City":"Los Angeles","State":"CA","Zip":"90025"},{"Location":"ROMAN UPHOLSTRY","Address":"2008 Cotner Ave","City":"Los Angeles","State":"CA","Zip":"90025"},{"Location":"RUSS AUGUST AND KABAT","Address":"12424 Wilshire Blvd 1200","City":"Los Angeles","State":"CA","Zip":"90025"},{"Location":"SALEM PARTNERS  LLC","Address":"11111 Santa Monica Blvd 2250","City":"Los Angeles","State":"CA","Zip":"90025"},{"Location":"SANTA MONICA KITCHEN AND CAFE","Address":"12340 Santa Monica Blvd A","City":"Los Angeles","State":"CA","Zip":"90025"},{"Location":"SASAYA RESTAURANT","Address":"11613 Santa Monica Blvd","City":"Los Angeles","State":"CA","Zip":"90025"},{"Location":"SERVIZIO ROSSO LLC","Address":"2036 S Westgate Ave","City":"Los Angeles","State":"CA","Zip":"90025"},{"Location":"SHOUT FACTORY","Address":"2034 Armacost Ave Ste 1","City":"Los Angeles","State":"CA","Zip":"90025"},{"Location":"SMITH HOUSE","Address":"10351 Santa Monica Blvd","City":"Los Angeles","State":"CA","Zip":"90025"},{"Location":"SONECA MARSHALL ARTS","Address":"11819     Wilshire Boulev","City":"Los Angeles","State":"CA","Zip":"90025"},{"Location":"SPC WIRELESS III","Address":"12036 Wilshire Blvd","City":"Los Angeles","State":"CA","Zip":"90025"},{"Location":"SPECKMANS MOBIL MART","Address":"1660 S Sepulveda Blvd","City":"Los Angeles","State":"CA","Zip":"90025"},{"Location":"SPIRIT OF AMERICA","Address":"12301 Wilshire Blvd 303","City":"Los Angeles","State":"CA","Zip":"90025"},{"Location":"STAR CHIROPRACTIC NUTRIT","Address":"12301 Wilshire Blvd 615","City":"Los Angeles","State":"CA","Zip":"90025"},{"Location":"STATS LLC","Address":"1440 S Sepulveda Blvd","City":"Los Angeles","State":"CA","Zip":"90025"},{"Location":"SUSHI ROOM","Address":"1884 Westwood Blvd","City":"Los Angeles","State":"CA","Zip":"90025"},{"Location":"TAKA BEAUTY SALON INC","Address":"1845 Westwood Blvd","City":"Los Angeles","State":"CA","Zip":"90025"},{"Location":"TESLA MOTORS","Address":"11163 Santa Monica Blvd","City":"Los Angeles","State":"CA","Zip":"90025"},{"Location":"THE MASSAGE THERAPY CENTER INC","Address":"2130 Sawgelle  #207","City":"Los Angeles","State":"CA","Zip":"90025"},{"Location":"THE SPORTS CLUB COMPANY","Address":"1803 Pontius Ave","City":"Los Angeles","State":"CA","Zip":"90025"},{"Location":"THE VILLAGE RECORDER","Address":"1616 Butler Ave","City":"Los Angeles","State":"CA","Zip":"90025"},{"Location":"THREE 10 REAL ESTATE ADVISORS","Address":"1539 Sawtelle Blvd 3","City":"Los Angeles","State":"CA","Zip":"90025"},{"Location":"TIMOTHY C REYNOLDS MD","Address":"11645 Wilshire Blvd","City":"Los Angeles","State":"CA","Zip":"90025"},{"Location":"TRANCAS INTERNATIONAL FILM","Address":"2021 Pontius Ave","City":"Los Angeles","State":"CA","Zip":"90025"},{"Location":"TRANSPORTATION RESOURCES","Address":"11901 Santa Monica Blvd 310","City":"Los Angeles","State":"CA","Zip":"90025"},{"Location":"TROPE AND DECAROLIS  LLP","Address":"12121 Wilshire Blvd 1325","City":"Los Angeles","State":"CA","Zip":"90025"},{"Location":"TRU AMERICA MULTIFAMILY","Address":"12100 Wilshire Blvd 250","City":"Los Angeles","State":"CA","Zip":"90025"},{"Location":"TS ARCHITECTS","Address":"2050 S Bundy Dr 225","City":"Los Angeles","State":"CA","Zip":"90025"},{"Location":"TV TRACKER.COM","Address":"11175 Santa Monica Blvd 900","City":"Los Angeles","State":"CA","Zip":"90025"},{"Location":"TYLER DEVELOPMENT CORPORATION","Address":"1932 Cotner Ave","City":"Los Angeles","State":"CA","Zip":"90025"},{"Location":"UNION BUFFET 2","Address":"11819 Wilshire Blvd 106a","City":"Los Angeles","State":"CA","Zip":"90025"},{"Location":"VCAWLA ANIMAL HOSPITAL1","Address":"1900 S Sepulveda Blvd","City":"Los Angeles","State":"CA","Zip":"90025"},{"Location":"VIACOM BET NETWORKS","Address":"10635 Santa Monica Blvd","City":"Los Angeles","State":"CA","Zip":"90025"},{"Location":"VINCENTBENJAMIN","Address":"11100 Santa Monica Blvd 725","City":"Los Angeles","State":"CA","Zip":"90025"},{"Location":"VIRGOSITY","Address":"2010 S Westgate Ave","City":"Los Angeles","State":"CA","Zip":"90025"},{"Location":"WALLYS WINE AND SPIRITS","Address":"2107 Westwood Blvd","City":"Los Angeles","State":"CA","Zip":"90025"},{"Location":"WEST WILSHIRE CAFE","Address":"11620 Wilshire Blvd","City":"Los Angeles","State":"CA","Zip":"90025"},{"Location":"WESTSIDE PHARMACY CORP","Address":"11504 Santa Monica Blvd","City":"Los Angeles","State":"CA","Zip":"90025"},{"Location":"WESTWOOD AUTO BODY.","Address":"2100 Westwood Blvd","City":"Los Angeles","State":"CA","Zip":"90025"},{"Location":"WILSHIRE PACIFIC","Address":"12301 Wilshire Blvd 311","City":"Los Angeles","State":"CA","Zip":"90025"},{"Location":"WING STOP","Address":"12241 Santa Monica Blvd","City":"Los Angeles","State":"CA","Zip":"90025"},{"Location":"WOLFF URBAN MNGT","Address":"11828 La Grange Ave","City":"Los Angeles","State":"CA","Zip":"90025"},{"Location":"WWE EXECUTIVE","Address":"12424 Wilshire Blvd 1400","City":"Los Angeles","State":"CA","Zip":"90025"},{"Location":"YEN SUSHI","Address":"11819 Wilshire Blvd","City":"Los Angeles","State":"CA","Zip":"90025"},{"Location":"ZU ROBATA","Address":"12217 Wilshire Blvd","City":"Los Angeles","State":"CA","Zip":"90025"},{"Location":"YEKTA RESTAURANT","Address":"11925 Santa Monica Blvd","City":"W Los Angeles","State":"CA","Zip":"90025"}]