[{"Location":"AAA DENTISTRY","Address":"1835 S La Cienega Blvd 200","City":"Los Angeles","State":"CA","Zip":"90035"},{"Location":"BE AND E CLEANERS","Address":"1410 Stearns Dr","City":"Los Angeles","State":"CA","Zip":"90035"},{"Location":"BEVERLY HILLS CLEANERS","Address":"9164 W Pico Blvd","City":"Los Angeles","State":"CA","Zip":"90035"},{"Location":"BEVERLY HILLS REGIONAL SURGERY","Address":"1125 S Beverly Dr 505","City":"Los Angeles","State":"CA","Zip":"90035"},{"Location":"BIBIS BAKERY 1","Address":"8928 W Pico Blvd","City":"Los Angeles","State":"CA","Zip":"90035"},{"Location":"BLACK ROSE TAVERN","Address":"8771 W Pico Blvd","City":"Los Angeles","State":"CA","Zip":"90035"},{"Location":"CHINA PALACE","Address":"8751 W Pico Blvd","City":"Los Angeles","State":"CA","Zip":"90035"},{"Location":"CLAUDE PEPPER COMM CENTER","Address":"1762 S La Cienega Blvd","City":"Los Angeles","State":"CA","Zip":"90035"},{"Location":"COHEN AND COHEN","Address":"1180 S Beverly Dr 510","City":"Los Angeles","State":"CA","Zip":"90035"},{"Location":"DITMAS","Address":"8731 W Pico Blvd","City":"Los Angeles","State":"CA","Zip":"90035"},{"Location":"FACTORS FAMOUS DELI","Address":"9420 W Pico Blvd","City":"Los Angeles","State":"CA","Zip":"90035"},{"Location":"FURST FILMS INC","Address":"8954 W Pico Blvd","City":"Los Angeles","State":"CA","Zip":"90035"},{"Location":"FX NETWORK","Address":"10201 W Pico Blvd Build 103 4th F","City":"Los Angeles","State":"CA","Zip":"90035"},{"Location":"IRANIAN JEWISH SENIOR CENTER","Address":"8764 W Olympic Blvd","City":"Los Angeles","State":"CA","Zip":"90035"},{"Location":"IRANIAN JEWISH SENIOR CTR OFF","Address":"8764 W Olympic Blvd","City":"Los Angeles","State":"CA","Zip":"90035"},{"Location":"JACK ROUSE  SON","Address":"1117 S Robertson Blvd","City":"Los Angeles","State":"CA","Zip":"90035"},{"Location":"KABBALAH CENTER","Address":"1100 S Robertson Blvd","City":"Los Angeles","State":"CA","Zip":"90035"},{"Location":"LA FITNESS #64","Address":"1833 S La Cienega Blvd C","City":"Los Angeles","State":"CA","Zip":"90035"},{"Location":"LEVINE MGMT GROUP","Address":"822 S Robertson Blvd 200","City":"Los Angeles","State":"CA","Zip":"90035"},{"Location":"MANE APPEARANCE","Address":"8628 W Pico Blvd","City":"Los Angeles","State":"CA","Zip":"90035"},{"Location":"MATRIX COLLISION REPAIR","Address":"1016 S La Cienega Blvd","City":"Los Angeles","State":"CA","Zip":"90035"},{"Location":"MESHUGA 4 SUSHI","Address":"8948 W Pico Blvd","City":"Los Angeles","State":"CA","Zip":"90035"},{"Location":"NATALEE THAI","Address":"998 S Robertson Blvd","City":"Los Angeles","State":"CA","Zip":"90035"},{"Location":"OLEGS BARBER AND BEAUTY SALON","Address":"8851 W Pico Blvd","City":"Los Angeles","State":"CA","Zip":"90035"},{"Location":"PC CALIFORNIA GRILL","Address":"9401 W Pico Blvd","City":"Los Angeles","State":"CA","Zip":"90035"},{"Location":"PICO ATHELTIC CLUB","Address":"8591 W Pico Blvd","City":"Los Angeles","State":"CA","Zip":"90035"},{"Location":"POINT DE VUE","Address":"5974 W Pico Blvd","City":"Los Angeles","State":"CA","Zip":"90035"},{"Location":"RESIDENCE INN (0065427)","Address":"1177 S Beverly Dr","City":"Los Angeles","State":"CA","Zip":"90035"},{"Location":"SALON 1462","Address":"1462 S Robertson Blvd","City":"Los Angeles","State":"CA","Zip":"90035"},{"Location":"SCC MOTORGROUP LLC","Address":"1862 S La Cienega Blvd","City":"Los Angeles","State":"CA","Zip":"90035"},{"Location":"SHERWIN DAVIDSON DDS","Address":"1125 S Beverly Dr 750","City":"Los Angeles","State":"CA","Zip":"90035"},{"Location":"SIMON WIESENTHAL CENTER","Address":"9786 W Pico Blvd","City":"Los Angeles","State":"CA","Zip":"90035"},{"Location":"SMOG IT","Address":"1506 S La Cienega Blvd","City":"Los Angeles","State":"CA","Zip":"90035"},{"Location":"SUNNY HILLS LLC","Address":"8717 W Olympic Blvd","City":"Los Angeles","State":"CA","Zip":"90035"},{"Location":"THE NESS COUNSELING CENTER INC","Address":"8512 Whitworth Dr","City":"Los Angeles","State":"CA","Zip":"90035"},{"Location":"VIEN CAFE","Address":"6118 W Pico Blvd","City":"Los Angeles","State":"CA","Zip":"90035"},{"Location":"WBCAPA","Address":"9228 W Pico Blvd","City":"Los Angeles","State":"CA","Zip":"90035"},{"Location":"X ISLE SPORTS","Address":"1118 S La Cienega Blvd","City":"Los Angeles","State":"CA","Zip":"90035"},{"Location":"YEN SUSHI","Address":"9618 W Pico Blvd 509","City":"Los Angeles","State":"CA","Zip":"90035"}]