[{"Location":"6 BROTHERS","Address":"5168 S Vermont Ave B","City":"Los Angeles","State":"CA","Zip":"90037"},{"Location":"ALL SEAS FISH MARKET","Address":"4320 S Vermont Ave","City":"Los Angeles","State":"CA","Zip":"90037"},{"Location":"AM PM LAUNDROMAT","Address":"5105 S Figueroa St","City":"Los Angeles","State":"CA","Zip":"90037"},{"Location":"AMW MULTISERVICES INSUR","Address":"4307 S Broadway","City":"Los Angeles","State":"CA","Zip":"90037"},{"Location":"ANGELS FINSHING INCS","Address":"5619 S Main St","City":"Los Angeles","State":"CA","Zip":"90037"},{"Location":"ASM REGGIE JONES-SAWYER","Address":"700 State Dr  #1stfl 1stfl","City":"Los Angeles","State":"CA","Zip":"90037"},{"Location":"AZTECA BARBER SHOP","Address":"5511 S Broadway","City":"Los Angeles","State":"CA","Zip":"90037"},{"Location":"AZTECA MARKET","Address":"4031 S Main St","City":"Los Angeles","State":"CA","Zip":"90037"},{"Location":"BROADWAY FEDERAL BANK","Address":"4001 S Figueroa St","City":"Los Angeles","State":"CA","Zip":"90037"},{"Location":"BROADWAY ICREAM WHOLESALE","Address":"4800 S Broadway","City":"Los Angeles","State":"CA","Zip":"90037"},{"Location":"CALLAH INC","Address":"4057 S Budlong Ave","City":"Los Angeles","State":"CA","Zip":"90037"},{"Location":"CENTRAL LATINO MARKET","Address":"4512 S Hoover St","City":"Los Angeles","State":"CA","Zip":"90037"},{"Location":"CHAUDRY","Address":"3833 S Grand Ave","City":"Los Angeles","State":"CA","Zip":"90037"},{"Location":"CIRCLE CITY 3","Address":"4802 S Vermont Ave","City":"Los Angeles","State":"CA","Zip":"90037"},{"Location":"COPACABANA INN","Address":"5304 S Figueroa St","City":"Los Angeles","State":"CA","Zip":"90037"},{"Location":"DAVITA #692 UNIVERSITY PARK","Address":"3986 S Figueroa St","City":"Los Angeles","State":"CA","Zip":"90037"},{"Location":"DENTAL PLAYGROUND","Address":"4425 S Main St","City":"Los Angeles","State":"CA","Zip":"90037"},{"Location":"EL CANDELARENO","Address":"4601 S Broadway","City":"Los Angeles","State":"CA","Zip":"90037"},{"Location":"EL SABOR KATRACHO","Address":"4181 S Figueroa St","City":"Los Angeles","State":"CA","Zip":"90037"},{"Location":"EQUIPMENT MANUFACTORING","Address":"4530 S Hoover St","City":"Los Angeles","State":"CA","Zip":"90037"},{"Location":"ERICK PEDRAZ","Address":"4825 S Vermont Ave","City":"Los Angeles","State":"CA","Zip":"90037"},{"Location":"ERIKAS MINI MARKET","Address":"800 W Vernon Ave","City":"Los Angeles","State":"CA","Zip":"90037"},{"Location":"EULAS HOUSE","Address":"220 W 49th St","City":"Los Angeles","State":"CA","Zip":"90037"},{"Location":"EXPO CENTER","Address":"3980 Menlo Ave","City":"Los Angeles","State":"CA","Zip":"90037"},{"Location":"EXPRESS COIN LAUNDRY","Address":"811 W Vernon Ave","City":"Los Angeles","State":"CA","Zip":"90037"},{"Location":"EXPRESSION BEAUTY SALON","Address":"5259 S May St","City":"Los Angeles","State":"CA","Zip":"90037"},{"Location":"FADES AND CUTS BARBERSHOP","Address":"4913 S Broadway","City":"Los Angeles","State":"CA","Zip":"90037"},{"Location":"FLOR BLANCA RESTAURANT","Address":"320 W Vernon Ave","City":"Los Angeles","State":"CA","Zip":"90037"},{"Location":"G COLISEUM BARBERSHOP","Address":"3937 S Vermont Ave","City":"Los Angeles","State":"CA","Zip":"90037"},{"Location":"GEORGE SC","Address":"4705 S Vermont Ave","City":"Los Angeles","State":"CA","Zip":"90037"},{"Location":"GLORIA SANCHEZ","Address":"4303 S Main St","City":"Los Angeles","State":"CA","Zip":"90037"},{"Location":"HECTORS MACHINE SHOP","Address":"5410 S Normandie Ave","City":"Los Angeles","State":"CA","Zip":"90037"},{"Location":"JULIO BARBER SHOP","Address":"4402 S Main St E","City":"Los Angeles","State":"CA","Zip":"90037"},{"Location":"KASANDRA RESTAURANT","Address":"5736 S Broadway","City":"Los Angeles","State":"CA","Zip":"90037"},{"Location":"LA ILAMADA CELLULAR","Address":"806 W Vernon Ave","City":"Los Angeles","State":"CA","Zip":"90037"},{"Location":"LA UNION BARBER SHOP","Address":"5634 S Broadway","City":"Los Angeles","State":"CA","Zip":"90037"},{"Location":"LASHANNS DAYCARE","Address":"700 W 41st St","City":"Los Angeles","State":"CA","Zip":"90037"},{"Location":"LAVANDERIA SALE BIEN","Address":"4905 S Figueroa St","City":"Los Angeles","State":"CA","Zip":"90037"},{"Location":"LIBERTY TAX SERVICE 16","Address":"4709 S Broadway","City":"Los Angeles","State":"CA","Zip":"90037"},{"Location":"LIZETH NUEVA IMAGEN","Address":"1175 W Vernon Ave","City":"Los Angeles","State":"CA","Zip":"90037"},{"Location":"LNS AUTO REPAIR","Address":"918 W 58th St","City":"Los Angeles","State":"CA","Zip":"90037"},{"Location":"LOPEZ AUTO REPAIR","Address":"5503 S Main St","City":"Los Angeles","State":"CA","Zip":"90037"},{"Location":"LOS ANGELES COUNTY","Address":"700 Exposition Park Dr","City":"Los Angeles","State":"CA","Zip":"90037"},{"Location":"MARCOS LEON","Address":"5024 S Vermont Ave","City":"Los Angeles","State":"CA","Zip":"90037"},{"Location":"MARTHA RAMIREZ MORCA","Address":"5400 S Main St A","City":"Los Angeles","State":"CA","Zip":"90037"},{"Location":"MI GUATAMALA BAKERY","Address":"4701 S Normandie Ave","City":"Los Angeles","State":"CA","Zip":"90037"},{"Location":"MOUNT MORIAH BAPTIST  CHURCH","Address":"4269 S Figueroa St","City":"Los Angeles","State":"CA","Zip":"90037"},{"Location":"NAVAS","Address":"5218 S Vermont Ave","City":"Los Angeles","State":"CA","Zip":"90037"},{"Location":"NETWORK AUTO BODY","Address":"3917 S Broadway","City":"Los Angeles","State":"CA","Zip":"90037"},{"Location":"NORTH CENTRAL AMERICAN Y","Address":"5261 S Broadway","City":"Los Angeles","State":"CA","Zip":"90037"},{"Location":"NOTEL MOTEL","Address":"4766 S Main St","City":"Los Angeles","State":"CA","Zip":"90037"},{"Location":"ORTIZ JR AUTO REPAIR","Address":"1277 W Vernon Ave","City":"Los Angeles","State":"CA","Zip":"90037"},{"Location":"PATHWAYS TO HOME VOA","Address":"3804 Broadway Pl","City":"Los Angeles","State":"CA","Zip":"90037"},{"Location":"PLATINUM NAIL SPA","Address":"1007 W Martin Luther King Jr B","City":"Los Angeles","State":"CA","Zip":"90037"},{"Location":"PROFESSIONAL BEAUTY SALO","Address":"5251 S Broadway","City":"Los Angeles","State":"CA","Zip":"90037"},{"Location":"PUPUSERIA JUTIAPA","Address":"5701 S Vermont Ave","City":"Los Angeles","State":"CA","Zip":"90037"},{"Location":"QUEEN NAILS & SALON","Address":"4170 S Broadway","City":"Los Angeles","State":"CA","Zip":"90037"},{"Location":"R&R MINI MARKET","Address":"4533 S Vermont Ave","City":"Los Angeles","State":"CA","Zip":"90037"},{"Location":"REGGIE'S LIQUORS","Address":"4426 S Figueroa St","City":"Los Angeles","State":"CA","Zip":"90037"},{"Location":"REYNAS PUPUSERIA","Address":"4300 S Vermont Ave","City":"Los Angeles","State":"CA","Zip":"90037"},{"Location":"SILVANAS MINI MARKET","Address":"5413 S Main St","City":"Los Angeles","State":"CA","Zip":"90037"},{"Location":"SIMPSONS FAMILY MORT","Address":"5138 S Broadway","City":"Los Angeles","State":"CA","Zip":"90037"},{"Location":"SOUNDS OF SUCCESS","Address":"5301 S Normandie Ave","City":"Los Angeles","State":"CA","Zip":"90037"},{"Location":"SUPER LAUNDRY","Address":"4610 S Vermont Ave","City":"Los Angeles","State":"CA","Zip":"90037"},{"Location":"TAMS 2","Address":"4301 S Figueroa St","City":"Los Angeles","State":"CA","Zip":"90037"},{"Location":"TOMS JR THREE","Address":"3996 S Figueroa St","City":"Los Angeles","State":"CA","Zip":"90037"},{"Location":"UNIQUE AUTOBODY","Address":"4809 S Main St","City":"Los Angeles","State":"CA","Zip":"90037"},{"Location":"UNIV. OF SOUTHERN CALIFORNIA","Address":"3939 S Figueroa St","City":"Los Angeles","State":"CA","Zip":"90037"},{"Location":"VARIEDADES KRYSTAL","Address":"4902 S Vermont Ave","City":"Los Angeles","State":"CA","Zip":"90037"},{"Location":"VERMONT COLLISION","Address":"4908 S Vermont Ave","City":"Los Angeles","State":"CA","Zip":"90037"},{"Location":"VERNON HEALTH CARE CENTE","Address":"1037 W Vernon Ave","City":"Los Angeles","State":"CA","Zip":"90037"},{"Location":"WEST STATE PROPERTIES","Address":"1048 W 55th St","City":"Los Angeles","State":"CA","Zip":"90037"}]