[{"Location":"LUDWIG BIER GARTEN","Address":"6333 W 3d 706","City":"Ca","State":"CA","Zip":"90036"},{"Location":"CARUSO-THE GROVE","Address":"101 Grove Av","City":"La","State":"CA","Zip":"90036"},{"Location":"54 RECKLESS","Address":"647 N Poinsettia Pl","City":"Los Angeles","State":"CA","Zip":"90036"},{"Location":"9492288278","Address":"142 S La Brea Ave","City":"Los Angeles","State":"CA","Zip":"90036"},{"Location":"AEG LIVE","Address":"5750 Wilshire Blvd 501","City":"Los Angeles","State":"CA","Zip":"90036"},{"Location":"AGMB","Address":"5900 Wilshire Blvd 2250","City":"Los Angeles","State":"CA","Zip":"90036"},{"Location":"AMALFI","Address":"143 N La Brea","City":"Los Angeles","State":"CA","Zip":"90036"},{"Location":"BAJA FRESH MIRACLE MILE","Address":"5757 Wilshire Blvd 103","City":"Los Angeles","State":"CA","Zip":"90036"},{"Location":"BERG MILL SUPPLY CO INC","Address":"5900 Wilshire Blvd 23","City":"Los Angeles","State":"CA","Zip":"90036"},{"Location":"BEVERLY LA BREA INC","Address":"7171 Beverly Blvd","City":"Los Angeles","State":"CA","Zip":"90036"},{"Location":"BIG PICTURE GROUP","Address":"110 S Fairfax Ave 355","City":"Los Angeles","State":"CA","Zip":"90036"},{"Location":"BLANKSPACES","Address":"5405 Wilshire Blvd","City":"Los Angeles","State":"CA","Zip":"90036"},{"Location":"BLUDSOS","Address":"609 N La Brea Ave","City":"Los Angeles","State":"CA","Zip":"90036"},{"Location":"BROADWAY FEDERAL BANK","Address":"5055 Wilshire Blvd 500","City":"Los Angeles","State":"CA","Zip":"90036"},{"Location":"BROADWAY FEDERAL BANK","Address":"5055 Wilshire Blvd 100","City":"Los Angeles","State":"CA","Zip":"90036"},{"Location":"BUZZFEED","Address":"7323 Beverly Blvd","City":"Los Angeles","State":"CA","Zip":"90036"},{"Location":"CABREA RESTAURANT INC","Address":"346 S La Brea Ave","City":"Los Angeles","State":"CA","Zip":"90036"},{"Location":"CAMPANARIO ENTERTAINMENT","Address":"110 S Fairfax Ave 310","City":"Los Angeles","State":"CA","Zip":"90036"},{"Location":"CARNEGIE HILL PROPERTY","Address":"5410 Wilshire Blvd","City":"Los Angeles","State":"CA","Zip":"90036"},{"Location":"CARUSO AFFILATED","Address":"101 The Grove Dr","City":"Los Angeles","State":"CA","Zip":"90036"},{"Location":"CBS","Address":"7800 Beverly Blvd 294","City":"Los Angeles","State":"CA","Zip":"90036"},{"Location":"CBS CORP PRODUCTION ACCT","Address":"7800 Beverly Blvd 294","City":"Los Angeles","State":"CA","Zip":"90036"},{"Location":"CBS INTERNATIONAL","Address":"7800 Beverly Blvd 345","City":"Los Angeles","State":"CA","Zip":"90036"},{"Location":"CBS TELEVISION CITY","Address":"7800 Beverly Blvd","City":"Los Angeles","State":"CA","Zip":"90036"},{"Location":"CBS%2C INC.","Address":"7800 Beverly Blvd 294","City":"Los Angeles","State":"CA","Zip":"90036"},{"Location":"CHURCHILL  MANAGEMENT GROUP","Address":"5900 Wilshire Blvd 400","City":"Los Angeles","State":"CA","Zip":"90036"},{"Location":"CJ E&M AMERICA INC","Address":"5700 Wilshire Blvd 550","City":"Los Angeles","State":"CA","Zip":"90036"},{"Location":"COMCAST ENTERTAINMENT GROUP","Address":"5750 Wilshire Blvd","City":"Los Angeles","State":"CA","Zip":"90036"},{"Location":"CROOKS AND CASTLES","Address":"416 1%2F2 N Ogden Dr","City":"Los Angeles","State":"CA","Zip":"90036"},{"Location":"DANCING WITH THE STARS","Address":"7800 Beverly Blvd B1","City":"Los Angeles","State":"CA","Zip":"90036"},{"Location":"DANIEL HOFF AGENCY  INC","Address":"5455 Wilshire Blvd 1100","City":"Los Angeles","State":"CA","Zip":"90036"},{"Location":"DEPENDABLE CARE AMBULANC","Address":"639 N Fairfax Ave","City":"Los Angeles","State":"CA","Zip":"90036"},{"Location":"DIAMOND SUPPLY COMPANY","Address":"451 N Fairfax Ave","City":"Los Angeles","State":"CA","Zip":"90036"},{"Location":"DIGITAL MANAGEMENT","Address":"5657 Wilshire Blvd 200","City":"Los Angeles","State":"CA","Zip":"90036"},{"Location":"DISCOVERY COMMUNICATIONS","Address":"5700 Wilshire Blvd 120","City":"Los Angeles","State":"CA","Zip":"90036"},{"Location":"E ENTERTAINMENT #1","Address":"5750 Wilshire Blvd","City":"Los Angeles","State":"CA","Zip":"90036"},{"Location":"E ENTERTAINMENT #2","Address":"5750 Wilshire Blvd","City":"Los Angeles","State":"CA","Zip":"90036"},{"Location":"E ENTERTAINMENT #5","Address":"5750 Wilshire Blvd","City":"Los Angeles","State":"CA","Zip":"90036"},{"Location":"EB'S BEER AND WINE","Address":"6333 West 3rd Street%2C # 408","City":"Los Angeles","State":"CA","Zip":"90036"},{"Location":"EL TORO CANTINA","Address":"5364 Wilshire Blvd","City":"Los Angeles","State":"CA","Zip":"90036"},{"Location":"ENTERTAINMENT ONE LA","Address":"5225 Wilshire Blvd 600","City":"Los Angeles","State":"CA","Zip":"90036"},{"Location":"FAIRFAX","Address":"432 N Fairfax Ave","City":"Los Angeles","State":"CA","Zip":"90036"},{"Location":"FAIRFAX FRUITS AND VEGETABLE","Address":"345 N Fairfax Ave","City":"Los Angeles","State":"CA","Zip":"90036"},{"Location":"FAIRFAX SHAKEYS 2","Address":"6052 W Olympic Blvd","City":"Los Angeles","State":"CA","Zip":"90036"},{"Location":"FIRST STEPS FOR YOUTH THPP","Address":"836 S Sycamore Ave","City":"Los Angeles","State":"CA","Zip":"90036"},{"Location":"GILLS OLD FASHION CREAM","Address":"6333 W 3rd St","City":"Los Angeles","State":"CA","Zip":"90036"},{"Location":"GILMORE FARMERS MARKET","Address":"6333 W 3rd St","City":"Los Angeles","State":"CA","Zip":"90036"},{"Location":"GLAAD #1","Address":"5455 Wilshire Blvd 1500","City":"Los Angeles","State":"CA","Zip":"90036"},{"Location":"GLASS HOOKAH LOUNGE LLC","Address":"646 N Martel Ave","City":"Los Angeles","State":"CA","Zip":"90036"},{"Location":"GLOBAL SECURITY CONCEPT","Address":"7250 Beverly Blvd 208","City":"Los Angeles","State":"CA","Zip":"90036"},{"Location":"GOLDSTAR HEALTHCARE","Address":"5670 Wilshire Blvd 1620","City":"Los Angeles","State":"CA","Zip":"90036"},{"Location":"GRANDMAS HOUSE ENTERTNMNT","Address":"5820 Wilshire Blvd 600","City":"Los Angeles","State":"CA","Zip":"90036"},{"Location":"HANCOCK PARK REHAB CENTER","Address":"505 N La Brea Ave","City":"Los Angeles","State":"CA","Zip":"90036"},{"Location":"IN TRAINING","Address":"7416 Beverly Blvd","City":"Los Angeles","State":"CA","Zip":"90036"},{"Location":"INTERSERV  LP","Address":"5900 Wilshire Blvd 2000","City":"Los Angeles","State":"CA","Zip":"90036"},{"Location":"J H SNYDER COMPANY","Address":"5757 Wilshire Blvd Ph30","City":"Los Angeles","State":"CA","Zip":"90036"},{"Location":"J HOWARD LLC","Address":"426 N Fairfax Ave","City":"Los Angeles","State":"CA","Zip":"90036"},{"Location":"JESS S. MORGAN & COMPANY","Address":"5900 Wilshire Blvd 2300","City":"Los Angeles","State":"CA","Zip":"90036"},{"Location":"KENNEDY CARE CENTER","Address":"619 N Fairfax Ave","City":"Los Angeles","State":"CA","Zip":"90036"},{"Location":"KMART","Address":"6310 W 3rd St","City":"Los Angeles","State":"CA","Zip":"90036"},{"Location":"KORN WASSER","Address":"5670 Wilshire Blvd 1250","City":"Los Angeles","State":"CA","Zip":"90036"},{"Location":"KSWD-FM","Address":"5900 Wilshire Blvd 1900","City":"Los Angeles","State":"CA","Zip":"90036"},{"Location":"L.A. FILM STUDIES CENTER","Address":"5455 Wilshire Blvd 1615","City":"Los Angeles","State":"CA","Zip":"90036"},{"Location":"LA COUNTY MUSEUM OF ART","Address":"5905 Wilshire Blvd","City":"Los Angeles","State":"CA","Zip":"90036"},{"Location":"LA FITNESS #33","Address":"5950 Wilshire Blvd","City":"Los Angeles","State":"CA","Zip":"90036"},{"Location":"LEO PARDO INC","Address":"7675 Beverly Blvd","City":"Los Angeles","State":"CA","Zip":"90036"},{"Location":"LEONARDO S NIGHT CLUB INC","Address":"831 S La Brea Ave","City":"Los Angeles","State":"CA","Zip":"90036"},{"Location":"LITTLE BAR","Address":"757 S La Brea Ave","City":"Los Angeles","State":"CA","Zip":"90036"},{"Location":"LITTLE SPAIN RESTAURANT","Address":"6333 W 3rd St","City":"Los Angeles","State":"CA","Zip":"90036"},{"Location":"MAGGIANO'S #0166","Address":"189 The Grove Dr Z80","City":"Los Angeles","State":"CA","Zip":"90036"},{"Location":"MARKED ENTERTAINMENT","Address":"5670 Wilshire Blvd 100","City":"Los Angeles","State":"CA","Zip":"90036"},{"Location":"MARMALADE  LLC","Address":"6333 W 3rd St E17","City":"Los Angeles","State":"CA","Zip":"90036"},{"Location":"MARTHON COMMUNICATIONS","Address":"5900 Wilshire Blvd 1550","City":"Los Angeles","State":"CA","Zip":"90036"},{"Location":"MAXIM RESTAURANT","Address":"531 N Fairfax Ave","City":"Los Angeles","State":"CA","Zip":"90036"},{"Location":"MAYA VINARSKY DDS","Address":"6055 San Vicente Blvd","City":"Los Angeles","State":"CA","Zip":"90036"},{"Location":"MIDVALE LIMITED II","Address":"101 The Grove Dr","City":"Los Angeles","State":"CA","Zip":"90036"},{"Location":"MILLENNIUM ENTERTAINMENT","Address":"5900 Wilshire Blvd 18","City":"Los Angeles","State":"CA","Zip":"90036"},{"Location":"MIRACLE MILE DENTAL","Address":"5455 Wilshire Blvd 850","City":"Los Angeles","State":"CA","Zip":"90036"},{"Location":"MOLLY MALONES'S IRISH PUB","Address":"575 S Fairfax Ave","City":"Los Angeles","State":"CA","Zip":"90036"},{"Location":"MORELS FRENCH STEAKHOUSE","Address":"189 The Grove Dr","City":"Los Angeles","State":"CA","Zip":"90036"},{"Location":"MOZZA LLC","Address":"641 N Highland Ave","City":"Los Angeles","State":"CA","Zip":"90036"},{"Location":"NBC UNIVERSAL","Address":"5750 Wilshire Blvd","City":"Los Angeles","State":"CA","Zip":"90036"},{"Location":"NEW CHYN KING","Address":"5770 W 3rd St","City":"Los Angeles","State":"CA","Zip":"90036"},{"Location":"NIKE INC","Address":"189 The Grove Dr","City":"Los Angeles","State":"CA","Zip":"90036"},{"Location":"NORDSTROM - THE GROVE","Address":"189 The Grove Dr P80","City":"Los Angeles","State":"CA","Zip":"90036"},{"Location":"NORDSTROM GROVE BARVERDE","Address":"189 The Grove Dr P80","City":"Los Angeles","State":"CA","Zip":"90036"},{"Location":"OMI SUSHI","Address":"5358 Wilshire Blvd","City":"Los Angeles","State":"CA","Zip":"90036"},{"Location":"OOPS DOUGHNUTS PRO.","Address":"6030 Wilshire Blvd 101","City":"Los Angeles","State":"CA","Zip":"90036"},{"Location":"OXYGEN MEDIA","Address":"5750 Wilshire Blvd","City":"Los Angeles","State":"CA","Zip":"90036"},{"Location":"PARK LA BREA FITNESS","Address":"5801 W 6th St","City":"Los Angeles","State":"CA","Zip":"90036"},{"Location":"PETERSEN AUTO MUSEUM","Address":"6060 Wilshire Blvd","City":"Los Angeles","State":"CA","Zip":"90036"},{"Location":"PETTY CASH TAQUERIA","Address":"7360 Beverly Blvd","City":"Los Angeles","State":"CA","Zip":"90036"},{"Location":"PHASE THREE PRODUCTIONS","Address":"5055 Wilshire Blvd 200","City":"Los Angeles","State":"CA","Zip":"90036"},{"Location":"PLAN CHECK","Address":"351 N Fairfax Ave","City":"Los Angeles","State":"CA","Zip":"90036"},{"Location":"PLANET DAILIES LA   LLC","Address":"6333 W 3rd St 175l","City":"Los Angeles","State":"CA","Zip":"90036"},{"Location":"PREMIERE DIGITAL SERVICE","Address":"5900 Wilshire Blvd 17thf","City":"Los Angeles","State":"CA","Zip":"90036"},{"Location":"RED HOUR FILMS","Address":"629 N La Brea Ave","City":"Los Angeles","State":"CA","Zip":"90036"},{"Location":"ROSEWOOD TAVERN","Address":"448 N Fairfax Ave","City":"Los Angeles","State":"CA","Zip":"90036"},{"Location":"SAFFORES SALON","Address":"7811 Beverly Blvd","City":"Los Angeles","State":"CA","Zip":"90036"},{"Location":"SAKE HOUSE MIRO","Address":"809 S La Brea","City":"Los Angeles","State":"CA","Zip":"90036"},{"Location":"SBE","Address":"5900 Wilshire Blvd 32","City":"Los Angeles","State":"CA","Zip":"90036"},{"Location":"SHINE NAILS","Address":"5668 W 3rd St","City":"Los Angeles","State":"CA","Zip":"90036"},{"Location":"SHORT ORDER","Address":"6333 W 3rd St 110","City":"Los Angeles","State":"CA","Zip":"90036"},{"Location":"STARWORKS LLC","Address":"440 N La Brea Ave","City":"Los Angeles","State":"CA","Zip":"90036"},{"Location":"STRATFORD HOSPITALITY","Address":"5900 Wilshire Blvd 404","City":"Los Angeles","State":"CA","Zip":"90036"},{"Location":"SUSHI EYAKI","Address":"5040 Wilshire Blvd","City":"Los Angeles","State":"CA","Zip":"90036"},{"Location":"SWING MEDIA","Address":"7421 Beverly Blvd 13","City":"Los Angeles","State":"CA","Zip":"90036"},{"Location":"THE ANT FARM","Address":"110 S Fairfax Ave 200","City":"Los Angeles","State":"CA","Zip":"90036"},{"Location":"THE CHEESECAKE FACTORY 0092","Address":"189 The Grove Dr K90","City":"Los Angeles","State":"CA","Zip":"90036"},{"Location":"THE COUNTER MIRACLE MILE","Address":"5779 Wilshire Blvd","City":"Los Angeles","State":"CA","Zip":"90036"},{"Location":"THE DIME","Address":"442 N Fairfax Ave","City":"Los Angeles","State":"CA","Zip":"90036"},{"Location":"THE STEINBERG GROUP INC","Address":"7381 Beverly Blvd 100","City":"Los Angeles","State":"CA","Zip":"90036"},{"Location":"TOM BERGIN'S","Address":"840 S Fairfax Ave A","City":"Los Angeles","State":"CA","Zip":"90036"},{"Location":"TOP SHOP","Address":"189 The Grove Dr","City":"Los Angeles","State":"CA","Zip":"90036"},{"Location":"TROIKA DESIGN GROUP","Address":"101 S La Brea Ave","City":"Los Angeles","State":"CA","Zip":"90036"},{"Location":"ULYSSES VOYAGE","Address":"6333 W 3rd St 750","City":"Los Angeles","State":"CA","Zip":"90036"},{"Location":"UNIVERSAL DANCE DESIGNS","Address":"6009 W Olympic Blvd","City":"Los Angeles","State":"CA","Zip":"90036"},{"Location":"WATER STREET","Address":"5225 Wilshire Blvd 615","City":"Los Angeles","State":"CA","Zip":"90036"},{"Location":"WESTSIDE HAIR STUDIOS","Address":"5850 W 3rd St","City":"Los Angeles","State":"CA","Zip":"90036"},{"Location":"WHISPER LOUNGE","Address":"189 The Grove Dr F90b","City":"Los Angeles","State":"CA","Zip":"90036"},{"Location":"WHOLE FOODS MARKET #26","Address":"6350 W 3rd St","City":"Los Angeles","State":"CA","Zip":"90036"},{"Location":"WIRTSHAUS","Address":"345 N La Brea Ave","City":"Los Angeles","State":"CA","Zip":"90036"},{"Location":"WOOD RANCH BARBECUE","Address":"189 The Grove Dr","City":"Los Angeles","State":"CA","Zip":"90036"},{"Location":"WORLD TV LAS ANGELES","Address":"5757 Wilshire Blvd 470","City":"Los Angeles","State":"CA","Zip":"90036"},{"Location":"LUDWIG BIER GARTEN","Address":"6333 W 3d 706","City":"Ca","State":"CA","Zip":"90036"},{"Location":"CARUSO-THE GROVE","Address":"101 Grove Av","City":"La","State":"CA","Zip":"90036"},{"Location":"54 RECKLESS","Address":"647 N Poinsettia Pl","City":"Los Angeles","State":"CA","Zip":"90036"},{"Location":"9492288278","Address":"142 S La Brea Ave","City":"Los Angeles","State":"CA","Zip":"90036"},{"Location":"AEG LIVE","Address":"5750 Wilshire Blvd 501","City":"Los Angeles","State":"CA","Zip":"90036"},{"Location":"AGMB","Address":"5900 Wilshire Blvd 2250","City":"Los Angeles","State":"CA","Zip":"90036"},{"Location":"AMALFI","Address":"143 N La Brea","City":"Los Angeles","State":"CA","Zip":"90036"},{"Location":"BAJA FRESH MIRACLE MILE","Address":"5757 Wilshire Blvd 103","City":"Los Angeles","State":"CA","Zip":"90036"},{"Location":"BERG MILL SUPPLY CO INC","Address":"5900 Wilshire Blvd 23","City":"Los Angeles","State":"CA","Zip":"90036"},{"Location":"BEVERLY LA BREA INC","Address":"7171 Beverly Blvd","City":"Los Angeles","State":"CA","Zip":"90036"},{"Location":"BIG PICTURE GROUP","Address":"110 S Fairfax Ave 355","City":"Los Angeles","State":"CA","Zip":"90036"},{"Location":"BLANKSPACES","Address":"5405 Wilshire Blvd","City":"Los Angeles","State":"CA","Zip":"90036"},{"Location":"BLUDSOS","Address":"609 N La Brea Ave","City":"Los Angeles","State":"CA","Zip":"90036"},{"Location":"BROADWAY FEDERAL BANK","Address":"5055 Wilshire Blvd 500","City":"Los Angeles","State":"CA","Zip":"90036"},{"Location":"BROADWAY FEDERAL BANK","Address":"5055 Wilshire Blvd 100","City":"Los Angeles","State":"CA","Zip":"90036"},{"Location":"BUZZFEED","Address":"7323 Beverly Blvd","City":"Los Angeles","State":"CA","Zip":"90036"},{"Location":"CABREA RESTAURANT INC","Address":"346 S La Brea Ave","City":"Los Angeles","State":"CA","Zip":"90036"},{"Location":"CAMPANARIO ENTERTAINMENT","Address":"110 S Fairfax Ave 310","City":"Los Angeles","State":"CA","Zip":"90036"},{"Location":"CARNEGIE HILL PROPERTY","Address":"5410 Wilshire Blvd","City":"Los Angeles","State":"CA","Zip":"90036"},{"Location":"CARUSO AFFILATED","Address":"101 The Grove Dr","City":"Los Angeles","State":"CA","Zip":"90036"},{"Location":"CBS","Address":"7800 Beverly Blvd 294","City":"Los Angeles","State":"CA","Zip":"90036"},{"Location":"CBS CORP PRODUCTION ACCT","Address":"7800 Beverly Blvd 294","City":"Los Angeles","State":"CA","Zip":"90036"},{"Location":"CBS INTERNATIONAL","Address":"7800 Beverly Blvd 345","City":"Los Angeles","State":"CA","Zip":"90036"},{"Location":"CBS TELEVISION CITY","Address":"7800 Beverly Blvd","City":"Los Angeles","State":"CA","Zip":"90036"},{"Location":"CBS%2C INC.","Address":"7800 Beverly Blvd 294","City":"Los Angeles","State":"CA","Zip":"90036"},{"Location":"CHURCHILL  MANAGEMENT GROUP","Address":"5900 Wilshire Blvd 400","City":"Los Angeles","State":"CA","Zip":"90036"},{"Location":"CJ E&M AMERICA INC","Address":"5700 Wilshire Blvd 550","City":"Los Angeles","State":"CA","Zip":"90036"},{"Location":"COMCAST ENTERTAINMENT GROUP","Address":"5750 Wilshire Blvd","City":"Los Angeles","State":"CA","Zip":"90036"},{"Location":"CROOKS AND CASTLES","Address":"416 1%2F2 N Ogden Dr","City":"Los Angeles","State":"CA","Zip":"90036"},{"Location":"DANCING WITH THE STARS","Address":"7800 Beverly Blvd B1","City":"Los Angeles","State":"CA","Zip":"90036"},{"Location":"DANIEL HOFF AGENCY  INC","Address":"5455 Wilshire Blvd 1100","City":"Los Angeles","State":"CA","Zip":"90036"},{"Location":"DEPENDABLE CARE AMBULANC","Address":"639 N Fairfax Ave","City":"Los Angeles","State":"CA","Zip":"90036"},{"Location":"DIAMOND SUPPLY COMPANY","Address":"451 N Fairfax Ave","City":"Los Angeles","State":"CA","Zip":"90036"},{"Location":"DIGITAL MANAGEMENT","Address":"5657 Wilshire Blvd 200","City":"Los Angeles","State":"CA","Zip":"90036"},{"Location":"DISCOVERY COMMUNICATIONS","Address":"5700 Wilshire Blvd 120","City":"Los Angeles","State":"CA","Zip":"90036"},{"Location":"E ENTERTAINMENT #1","Address":"5750 Wilshire Blvd","City":"Los Angeles","State":"CA","Zip":"90036"},{"Location":"E ENTERTAINMENT #2","Address":"5750 Wilshire Blvd","City":"Los Angeles","State":"CA","Zip":"90036"},{"Location":"E ENTERTAINMENT #5","Address":"5750 Wilshire Blvd","City":"Los Angeles","State":"CA","Zip":"90036"},{"Location":"Eb'S Beer And Wine","Address":"6333 West 3rd Street%2C # 408","City":"Los Angeles","State":"CA","Zip":"90036"},{"Location":"EL TORO CANTINA","Address":"5364 Wilshire Blvd","City":"Los Angeles","State":"CA","Zip":"90036"},{"Location":"ENTERTAINMENT ONE LA","Address":"5225 Wilshire Blvd 600","City":"Los Angeles","State":"CA","Zip":"90036"},{"Location":"FAIRFAX","Address":"432 N Fairfax Ave","City":"Los Angeles","State":"CA","Zip":"90036"},{"Location":"FAIRFAX FRUITS AND VEGETABLE","Address":"345 N Fairfax Ave","City":"Los Angeles","State":"CA","Zip":"90036"},{"Location":"FAIRFAX SHAKEYS 2","Address":"6052 W Olympic Blvd","City":"Los Angeles","State":"CA","Zip":"90036"},{"Location":"FIRST STEPS FOR YOUTH THPP","Address":"836 S Sycamore Ave","City":"Los Angeles","State":"CA","Zip":"90036"},{"Location":"GILLS OLD FASHION CREAM","Address":"6333 W 3rd St","City":"Los Angeles","State":"CA","Zip":"90036"},{"Location":"GILMORE FARMERS MARKET","Address":"6333 W 3rd St","City":"Los Angeles","State":"CA","Zip":"90036"},{"Location":"GLAAD #1","Address":"5455 Wilshire Blvd 1500","City":"Los Angeles","State":"CA","Zip":"90036"},{"Location":"GLASS HOOKAH LOUNGE LLC","Address":"646 N Martel Ave","City":"Los Angeles","State":"CA","Zip":"90036"},{"Location":"GLOBAL SECURITY CONCEPT","Address":"7250 Beverly Blvd 208","City":"Los Angeles","State":"CA","Zip":"90036"},{"Location":"GOLDSTAR HEALTHCARE","Address":"5670 Wilshire Blvd 1620","City":"Los Angeles","State":"CA","Zip":"90036"},{"Location":"GRANDMAS HOUSE ENTERTNMNT","Address":"5820 Wilshire Blvd 600","City":"Los Angeles","State":"CA","Zip":"90036"},{"Location":"HANCOCK PARK REHAB CENTER","Address":"505 N La Brea Ave","City":"Los Angeles","State":"CA","Zip":"90036"},{"Location":"IN TRAINING","Address":"7416 Beverly Blvd","City":"Los Angeles","State":"CA","Zip":"90036"},{"Location":"INTERSERV  LP","Address":"5900 Wilshire Blvd 2000","City":"Los Angeles","State":"CA","Zip":"90036"},{"Location":"J H SNYDER COMPANY","Address":"5757 Wilshire Blvd Ph30","City":"Los Angeles","State":"CA","Zip":"90036"},{"Location":"J HOWARD LLC","Address":"426 N Fairfax Ave","City":"Los Angeles","State":"CA","Zip":"90036"},{"Location":"JESS S. MORGAN & COMPANY","Address":"5900 Wilshire Blvd 2300","City":"Los Angeles","State":"CA","Zip":"90036"},{"Location":"KENNEDY CARE CENTER","Address":"619 N Fairfax Ave","City":"Los Angeles","State":"CA","Zip":"90036"},{"Location":"KMART","Address":"6310 W 3rd St","City":"Los Angeles","State":"CA","Zip":"90036"},{"Location":"KORN WASSER","Address":"5670 Wilshire Blvd 1250","City":"Los Angeles","State":"CA","Zip":"90036"},{"Location":"KSWD-FM","Address":"5900 Wilshire Blvd 1900","City":"Los Angeles","State":"CA","Zip":"90036"},{"Location":"L.A. FILM STUDIES CENTER","Address":"5455 Wilshire Blvd 1615","City":"Los Angeles","State":"CA","Zip":"90036"},{"Location":"LA COUNTY MUSEUM OF ART","Address":"5905 Wilshire Blvd","City":"Los Angeles","State":"CA","Zip":"90036"},{"Location":"LA FITNESS #33","Address":"5950 Wilshire Blvd","City":"Los Angeles","State":"CA","Zip":"90036"},{"Location":"LEO PARDO INC","Address":"7675 Beverly Blvd","City":"Los Angeles","State":"CA","Zip":"90036"},{"Location":"LEONARDO S NIGHT CLUB INC","Address":"831 S La Brea Ave","City":"Los Angeles","State":"CA","Zip":"90036"},{"Location":"LITTLE BAR","Address":"757 S La Brea Ave","City":"Los Angeles","State":"CA","Zip":"90036"},{"Location":"LITTLE SPAIN RESTAURANT","Address":"6333 W 3rd St","City":"Los Angeles","State":"CA","Zip":"90036"},{"Location":"MAGGIANO'S #0166","Address":"189 The Grove Dr Z80","City":"Los Angeles","State":"CA","Zip":"90036"},{"Location":"MARKED ENTERTAINMENT","Address":"5670 Wilshire Blvd 100","City":"Los Angeles","State":"CA","Zip":"90036"},{"Location":"MARMALADE  LLC","Address":"6333 W 3rd St E17","City":"Los Angeles","State":"CA","Zip":"90036"},{"Location":"MARTHON COMMUNICATIONS","Address":"5900 Wilshire Blvd 1550","City":"Los Angeles","State":"CA","Zip":"90036"},{"Location":"MAXIM RESTAURANT","Address":"531 N Fairfax Ave","City":"Los Angeles","State":"CA","Zip":"90036"},{"Location":"MAYA VINARSKY DDS","Address":"6055 San Vicente Blvd","City":"Los Angeles","State":"CA","Zip":"90036"},{"Location":"MIDVALE LIMITED II","Address":"101 The Grove Dr","City":"Los Angeles","State":"CA","Zip":"90036"},{"Location":"MILLENNIUM ENTERTAINMENT","Address":"5900 Wilshire Blvd 18","City":"Los Angeles","State":"CA","Zip":"90036"},{"Location":"MIRACLE MILE DENTAL","Address":"5455 Wilshire Blvd 850","City":"Los Angeles","State":"CA","Zip":"90036"},{"Location":"MOLLY MALONES'S IRISH PUB","Address":"575 S Fairfax Ave","City":"Los Angeles","State":"CA","Zip":"90036"},{"Location":"MORELS FRENCH STEAKHOUSE","Address":"189 The Grove Dr","City":"Los Angeles","State":"CA","Zip":"90036"},{"Location":"MOZZA LLC","Address":"641 N Highland Ave","City":"Los Angeles","State":"CA","Zip":"90036"},{"Location":"NBC UNIVERSAL","Address":"5750 Wilshire Blvd","City":"Los Angeles","State":"CA","Zip":"90036"},{"Location":"NEW CHYN KING","Address":"5770 W 3rd St","City":"Los Angeles","State":"CA","Zip":"90036"},{"Location":"NIKE INC","Address":"189 The Grove Dr","City":"Los Angeles","State":"CA","Zip":"90036"},{"Location":"NORDSTROM - THE GROVE","Address":"189 The Grove Dr P80","City":"Los Angeles","State":"CA","Zip":"90036"},{"Location":"NORDSTROM GROVE BARVERDE","Address":"189 The Grove Dr P80","City":"Los Angeles","State":"CA","Zip":"90036"},{"Location":"OMI SUSHI","Address":"5358 Wilshire Blvd","City":"Los Angeles","State":"CA","Zip":"90036"},{"Location":"OOPS DOUGHNUTS PRO.","Address":"6030 Wilshire Blvd 101","City":"Los Angeles","State":"CA","Zip":"90036"},{"Location":"OXYGEN MEDIA","Address":"5750 Wilshire Blvd","City":"Los Angeles","State":"CA","Zip":"90036"},{"Location":"PARK LA BREA FITNESS","Address":"5801 W 6th St","City":"Los Angeles","State":"CA","Zip":"90036"},{"Location":"PETERSEN AUTO MUSEUM","Address":"6060 Wilshire Blvd","City":"Los Angeles","State":"CA","Zip":"90036"},{"Location":"PETTY CASH TAQUERIA","Address":"7360 Beverly Blvd","City":"Los Angeles","State":"CA","Zip":"90036"},{"Location":"PHASE THREE PRODUCTIONS","Address":"5055 Wilshire Blvd 200","City":"Los Angeles","State":"CA","Zip":"90036"},{"Location":"PLAN CHECK","Address":"351 N Fairfax Ave","City":"Los Angeles","State":"CA","Zip":"90036"},{"Location":"PLANET DAILIES LA   LLC","Address":"6333 W 3rd St 175l","City":"Los Angeles","State":"CA","Zip":"90036"},{"Location":"PREMIERE DIGITAL SERVICE","Address":"5900 Wilshire Blvd 17thf","City":"Los Angeles","State":"CA","Zip":"90036"},{"Location":"RED HOUR FILMS","Address":"629 N La Brea Ave","City":"Los Angeles","State":"CA","Zip":"90036"},{"Location":"ROSEWOOD TAVERN","Address":"448 N Fairfax Ave","City":"Los Angeles","State":"CA","Zip":"90036"},{"Location":"SAFFORES SALON","Address":"7811 Beverly Blvd","City":"Los Angeles","State":"CA","Zip":"90036"},{"Location":"SAKE HOUSE MIRO","Address":"809 S La Brea","City":"Los Angeles","State":"CA","Zip":"90036"},{"Location":"SBE","Address":"5900 Wilshire Blvd 32","City":"Los Angeles","State":"CA","Zip":"90036"},{"Location":"SHINE NAILS","Address":"5668 W 3rd St","City":"Los Angeles","State":"CA","Zip":"90036"},{"Location":"SHORT ORDER","Address":"6333 W 3rd St 110","City":"Los Angeles","State":"CA","Zip":"90036"},{"Location":"STARWORKS LLC","Address":"440 N La Brea Ave","City":"Los Angeles","State":"CA","Zip":"90036"},{"Location":"STRATFORD HOSPITALITY","Address":"5900 Wilshire Blvd 404","City":"Los Angeles","State":"CA","Zip":"90036"},{"Location":"SUSHI EYAKI","Address":"5040 Wilshire Blvd","City":"Los Angeles","State":"CA","Zip":"90036"},{"Location":"SWING MEDIA","Address":"7421 Beverly Blvd 13","City":"Los Angeles","State":"CA","Zip":"90036"},{"Location":"TERRONI","Address":"7605 Beverly Blvd","City":"Los Angeles","State":"CA","Zip":"90036"},{"Location":"THE ANT FARM","Address":"110 S Fairfax Ave 200","City":"Los Angeles","State":"CA","Zip":"90036"},{"Location":"THE CHEESECAKE FACTORY 0092","Address":"189 The Grove Dr K90","City":"Los Angeles","State":"CA","Zip":"90036"},{"Location":"THE COUNTER MIRACLE MILE","Address":"5779 Wilshire Blvd","City":"Los Angeles","State":"CA","Zip":"90036"},{"Location":"THE DIME","Address":"442 N Fairfax Ave","City":"Los Angeles","State":"CA","Zip":"90036"},{"Location":"THE STEINBERG GROUP INC","Address":"7381 Beverly Blvd 100","City":"Los Angeles","State":"CA","Zip":"90036"},{"Location":"TOM BERGIN'S","Address":"840 S Fairfax Ave A","City":"Los Angeles","State":"CA","Zip":"90036"},{"Location":"TOP SHOP","Address":"189 The Grove Dr","City":"Los Angeles","State":"CA","Zip":"90036"},{"Location":"TROIKA DESIGN GROUP","Address":"101 S La Brea Ave","City":"Los Angeles","State":"CA","Zip":"90036"},{"Location":"ULYSSES VOYAGE","Address":"6333 W 3rd St 750","City":"Los Angeles","State":"CA","Zip":"90036"},{"Location":"UNIVERSAL DANCE DESIGNS","Address":"6009 W Olympic Blvd","City":"Los Angeles","State":"CA","Zip":"90036"},{"Location":"WATER STREET","Address":"5225 Wilshire Blvd 615","City":"Los Angeles","State":"CA","Zip":"90036"},{"Location":"WESTSIDE HAIR STUDIOS","Address":"5850 W 3rd St","City":"Los Angeles","State":"CA","Zip":"90036"},{"Location":"WHISPER LOUNGE","Address":"189 The Grove Dr F90b","City":"Los Angeles","State":"CA","Zip":"90036"},{"Location":"WHOLE FOODS MARKET #26","Address":"6350 W 3rd St","City":"Los Angeles","State":"CA","Zip":"90036"},{"Location":"WIRTSHAUS","Address":"345 N La Brea Ave","City":"Los Angeles","State":"CA","Zip":"90036"},{"Location":"WOOD RANCH BARBECUE","Address":"189 The Grove Dr","City":"Los Angeles","State":"CA","Zip":"90036"},{"Location":"WORLD TV LAS ANGELES","Address":"5757 Wilshire Blvd 470","City":"Los Angeles","State":"CA","Zip":"90036"}]