[{"Location":"AA SMOG INC.","Address":"10885 Venice Blvd","City":"Los Angeles","State":"CA","Zip":"90034"},{"Location":"ALMAZA MEDITERRANEAN","Address":"8905 Venice Blvd 112","City":"Los Angeles","State":"CA","Zip":"90034"},{"Location":"ANGELO SHOES REPAIR","Address":"9850 National Blvd","City":"Los Angeles","State":"CA","Zip":"90034"},{"Location":"ASIDE WORLDWIDE LLC","Address":"3381 Robertson Pl","City":"Los Angeles","State":"CA","Zip":"90034"},{"Location":"BAMBOO RESTAURANT","Address":"10835 Venice Blvd","City":"Los Angeles","State":"CA","Zip":"90034"},{"Location":"BASONOLA LLC","Address":"3387 Motor Ave","City":"Los Angeles","State":"CA","Zip":"90034"},{"Location":"BEITT TSHUVAH","Address":"8831 Venice Blvd","City":"Los Angeles","State":"CA","Zip":"90034"},{"Location":"BENDICION BARBERSHOP","Address":"10006 National Blvd","City":"Los Angeles","State":"CA","Zip":"90034"},{"Location":"BERSHON REALTY COM","Address":"3002 Midvale Ave 201","City":"Los Angeles","State":"CA","Zip":"90034"},{"Location":"BLUM & POE","Address":"2727 S La Cienega Blvd","City":"Los Angeles","State":"CA","Zip":"90034"},{"Location":"BOARDWALK 11","Address":"10433 National Blvd","City":"Los Angeles","State":"CA","Zip":"90034"},{"Location":"CAFE BRASIL #2","Address":"10831 Venice Blvd","City":"Los Angeles","State":"CA","Zip":"90034"},{"Location":"CAMPOS TACOS","Address":"2639 S Robertson Blvd","City":"Los Angeles","State":"CA","Zip":"90034"},{"Location":"CENTER SINAI ANIMAL HOSP","Address":"10737 Venice Blvd","City":"Los Angeles","State":"CA","Zip":"90034"},{"Location":"CIRCLE OF CONFUSION","Address":"8931 Ellis Ave","City":"Los Angeles","State":"CA","Zip":"90034"},{"Location":"EARL SCHEIB OF WEST LA","Address":"8953 Venice Blvd","City":"Los Angeles","State":"CA","Zip":"90034"},{"Location":"EL NOPAL MEXICAN RESTAURANT","Address":"10426 National Blvd","City":"Los Angeles","State":"CA","Zip":"90034"},{"Location":"FATHERS OFFICE II","Address":"3229 Helms Ave","City":"Los Angeles","State":"CA","Zip":"90034"},{"Location":"FIDELITY AUTO INC","Address":"9801 Venice Blvd","City":"Los Angeles","State":"CA","Zip":"90034"},{"Location":"FIRESTONE #356720","Address":"1975 S La Cienega Blvd","City":"Los Angeles","State":"CA","Zip":"90034"},{"Location":"FRANK WEBB ARCHITECTS","Address":"8607 Venice Blvd","City":"Los Angeles","State":"CA","Zip":"90034"},{"Location":"FRENCH UPOLSTERY","Address":"2625 S Robertson Blvd","City":"Los Angeles","State":"CA","Zip":"90034"},{"Location":"GABYS MEDITERRANEAN","Address":"10445 Venice Blvd","City":"Los Angeles","State":"CA","Zip":"90034"},{"Location":"GOOD CLEAN FUN LLC","Address":"3415 S Sepulveda Blvd 1200","City":"Los Angeles","State":"CA","Zip":"90034"},{"Location":"GRACENOTE INC","Address":"3415 S Sepulveda Blvd 200","City":"Los Angeles","State":"CA","Zip":"90034"},{"Location":"GV TAX ACCOUNTING","Address":"5951 Venice Blvd","City":"Los Angeles","State":"CA","Zip":"90034"},{"Location":"HAYDEN GYM","Address":"3390 Robertson Pl","City":"Los Angeles","State":"CA","Zip":"90034"},{"Location":"HERMAN","Address":"6074 Cadillac Ave","City":"Los Angeles","State":"CA","Zip":"90034"},{"Location":"HOT BOD ENTERPRISES","Address":"9907 Venice Blvd","City":"Los Angeles","State":"CA","Zip":"90034"},{"Location":"JIFFY LUBE 1803","Address":"3061 Overland Ave","City":"Los Angeles","State":"CA","Zip":"90034"},{"Location":"KINGS LODGE APTS","Address":"8614 Venice Blvd","City":"Los Angeles","State":"CA","Zip":"90034"},{"Location":"KINGS LODGE MOTEL 2","Address":"8618 Venice Blvd","City":"Los Angeles","State":"CA","Zip":"90034"},{"Location":"KLE INC","Address":"8956 Ellis Ave","City":"Los Angeles","State":"CA","Zip":"90034"},{"Location":"LIBERTY TIRES","Address":"10231 Venice Blvd","City":"Los Angeles","State":"CA","Zip":"90034"},{"Location":"MAMA'S ORIGINAL PIZZA & PASTA","Address":"3311 Motor Ave","City":"Los Angeles","State":"CA","Zip":"90034"},{"Location":"MARSHONI G","Address":"2801 S Robertson Blvd","City":"Los Angeles","State":"CA","Zip":"90034"},{"Location":"MODATIVE INC","Address":"3221 Hutchison Ave","City":"Los Angeles","State":"CA","Zip":"90034"},{"Location":"NATALEE THAI I","Address":"10101 Venice Blvd","City":"Los Angeles","State":"CA","Zip":"90034"},{"Location":"NATIONAL PROMOTIONS & ADVERST","Address":"3434 Overland Ave","City":"Los Angeles","State":"CA","Zip":"90034"},{"Location":"NATURAL COOPERATIVE","Address":"9021 Exposition Blvd","City":"Los Angeles","State":"CA","Zip":"90034"},{"Location":"OAXACA BARBER SHOP","Address":"1902 S La Cienega Blvd","City":"Los Angeles","State":"CA","Zip":"90034"},{"Location":"OSCAR DANIEL GRAY","Address":"10456 National Blvd","City":"Los Angeles","State":"CA","Zip":"90034"},{"Location":"OVERLAND CAFE","Address":"3601 Overland Ave","City":"Los Angeles","State":"CA","Zip":"90034"},{"Location":"PALMS CYCLE","Address":"3770 Motor Ave","City":"Los Angeles","State":"CA","Zip":"90034"},{"Location":"PALMS SUPER MARKET","Address":"3568 Motor Ave","City":"Los Angeles","State":"CA","Zip":"90034"},{"Location":"PCH FILMS","Address":"3380 Motor Ave","City":"Los Angeles","State":"CA","Zip":"90034"},{"Location":"PEOPLES CARE LOS ANGELES","Address":"2325 S Garth Ave","City":"Los Angeles","State":"CA","Zip":"90034"},{"Location":"PIZZA HUT-LOS ANGELES","Address":"11146 Palms Blvd","City":"Los Angeles","State":"CA","Zip":"90034"},{"Location":"RIO BARBER SHOP","Address":"10434 National Blvd","City":"Los Angeles","State":"CA","Zip":"90034"},{"Location":"ROAD STAR MOTOR SPORTS","Address":"8964 National Blvd","City":"Los Angeles","State":"CA","Zip":"90034"},{"Location":"RUBIOS CAFE","Address":"3380 S Robertson Blvd","City":"Los Angeles","State":"CA","Zip":"90034"},{"Location":"SABORES DE OAXACA","Address":"6136 Venice Blvd","City":"Los Angeles","State":"CA","Zip":"90034"},{"Location":"SALON REPUBLIC","Address":"9911 Pico Blvd%2C 200room39","City":"Los Angeles","State":"CA","Zip":"90034"},{"Location":"SUITE 420","Address":"8940 National Blvd B","City":"Los Angeles","State":"CA","Zip":"90034"},{"Location":"SUPER PHO N TERRIYAKI","Address":"10953 Venice Blvd","City":"Los Angeles","State":"CA","Zip":"90034"},{"Location":"TEAM PRIME TIME","Address":"3740 Overland Ave F","City":"Los Angeles","State":"CA","Zip":"90034"},{"Location":"THAI BOOM RESTAURANT INC","Address":"10863 Venice Blvd","City":"Los Angeles","State":"CA","Zip":"90034"},{"Location":"THE FACTORY","Address":"2020 S Robertson Blvd C","City":"Los Angeles","State":"CA","Zip":"90034"},{"Location":"THE FLORES GROUP","Address":"10227 Venice Blvd","City":"Los Angeles","State":"CA","Zip":"90034"},{"Location":"THE GUY ON MOTOR AT VENICE","Address":"3771 Motor Ave","City":"Los Angeles","State":"CA","Zip":"90034"},{"Location":"THE HOUSE OF VAPES LLC","Address":"3300 Overland Ave 103","City":"Los Angeles","State":"CA","Zip":"90034"},{"Location":"THE IRISH TIMES","Address":"3267 Motor Ave","City":"Los Angeles","State":"CA","Zip":"90034"},{"Location":"TOMLISON MASONRY","Address":"3634 Tuller Ave","City":"Los Angeles","State":"CA","Zip":"90034"},{"Location":"VALERO","Address":"3071 S Robertson Blvd","City":"Los Angeles","State":"CA","Zip":"90034"},{"Location":"VENICE BAKERY","Address":"10943 Venice Blvd","City":"Los Angeles","State":"CA","Zip":"90034"},{"Location":"VENICE BARBER SHOP","Address":"10829 Venice Blvd","City":"Los Angeles","State":"CA","Zip":"90034"},{"Location":"VERSAILLES RESTAURANT","Address":"10319 Venice Blvd","City":"Los Angeles","State":"CA","Zip":"90034"},{"Location":"VIP CLEANERS","Address":"3128 S Sepulveda Blvd","City":"Los Angeles","State":"CA","Zip":"90034"},{"Location":"WINDSOR GARDEN %40 CHEVIOT","Address":"3533 Motor Ave","City":"Los Angeles","State":"CA","Zip":"90034"},{"Location":"WINGSTOP #627","Address":"8985 Venice Blvd C1c","City":"Los Angeles","State":"CA","Zip":"90034"}]