[{"Location":"ABC STUDIOS REVENGE","Address":"5300 Melrose Ave 3","City":"Hollywood","State":"CA","Zip":"90038"},{"Location":"MCDONALD SELZNICK ASSOC","Address":"953 Cole Ave","City":"Hollywood","State":"CA","Zip":"90038"},{"Location":"SAM","Address":"722 Seward St","City":"Hollywood","State":"CA","Zip":"90038"},{"Location":"101 EXHIBIT","Address":"1107 N El Centro Ave","City":"Los Angeles","State":"CA","Zip":"90038"},{"Location":"5 DESIGN INC","Address":"1024 N Orange Dr 215","City":"Los Angeles","State":"CA","Zip":"90038"},{"Location":"82 MARKET","Address":"5204 Melrose Ave","City":"Los Angeles","State":"CA","Zip":"90038"},{"Location":"AAA1 COMMUNICATIONS","Address":"6350 Santa Monica Blvd","City":"Los Angeles","State":"CA","Zip":"90038"},{"Location":"ADVANCED  DIGITAL  SERVICES","Address":"948 N Cahuenga Blvd","City":"Los Angeles","State":"CA","Zip":"90038"},{"Location":"AFM","Address":"817 Vine St","City":"Los Angeles","State":"CA","Zip":"90038"},{"Location":"ALCHEMY ENTERTAINMENT","Address":"7024 Melrose Ave 420","City":"Los Angeles","State":"CA","Zip":"90038"},{"Location":"AUDREY SALON","Address":"726 Vine St","City":"Los Angeles","State":"CA","Zip":"90038"},{"Location":"BEACH BOUND DEVELOPMENT","Address":"1253 Vine St 1","City":"Los Angeles","State":"CA","Zip":"90038"},{"Location":"BEN KITAY STUDIOS STAGE 20","Address":"1054 Lillian Way","City":"Los Angeles","State":"CA","Zip":"90038"},{"Location":"BEST PRACTICES LABORATORY","Address":"5300 Melrose Ave C100","City":"Los Angeles","State":"CA","Zip":"90038"},{"Location":"BLACK LP","Address":"6202 Santa Monica Blvd","City":"Los Angeles","State":"CA","Zip":"90038"},{"Location":"BOND","Address":"6806 Lexington Ave","City":"Los Angeles","State":"CA","Zip":"90038"},{"Location":"BOOK CITY NEWS INC.","Address":"1120 N Las Palmas Ave","City":"Los Angeles","State":"CA","Zip":"90038"},{"Location":"BROADSTONE HP FITNESS CTR","Address":"738 Wilcox Ave","City":"Los Angeles","State":"CA","Zip":"90038"},{"Location":"CHAINSAW INC","Address":"940 N Orange Dr 2flr","City":"Los Angeles","State":"CA","Zip":"90038"},{"Location":"CHAINSAW SYCAMORE","Address":"1114 N Sycamore Ave","City":"Los Angeles","State":"CA","Zip":"90038"},{"Location":"CHALICE RECORDING STUDIO","Address":"845 N Highland Ave","City":"Los Angeles","State":"CA","Zip":"90038"},{"Location":"CHAZ DEAN STUDIO INC","Address":"6433 La Mirada Ave","City":"Los Angeles","State":"CA","Zip":"90038"},{"Location":"CHROME HEARTS","Address":"915 N Mansfield Ave","City":"Los Angeles","State":"CA","Zip":"90038"},{"Location":"CHROME HEARTS 2","Address":"915 N Mansfield Ave","City":"Los Angeles","State":"CA","Zip":"90038"},{"Location":"CINELICIOUS","Address":"5735 Melrose Ave","City":"Los Angeles","State":"CA","Zip":"90038"},{"Location":"CINEMANIC PRODUCTIONS INC","Address":"846 N Cahuenga Blvd K","City":"Los Angeles","State":"CA","Zip":"90038"},{"Location":"CNC CORP","Address":"744 N La Brea Ave","City":"Los Angeles","State":"CA","Zip":"90038"},{"Location":"COLBEE LIQUOR AND MARKET","Address":"6205 Willoughby Ave","City":"Los Angeles","State":"CA","Zip":"90038"},{"Location":"COMMUNITY INVESTMENT HOLDINGS","Address":"1037 N Sycamore Ave","City":"Los Angeles","State":"CA","Zip":"90038"},{"Location":"CONCEPTS NAILS","Address":"740 N Vine St","City":"Los Angeles","State":"CA","Zip":"90038"},{"Location":"CONWAY RECORDING STUDIOS","Address":"5100 Melrose Ave","City":"Los Angeles","State":"CA","Zip":"90038"},{"Location":"E FILM","Address":"1144 N Las Palmas Ave","City":"Los Angeles","State":"CA","Zip":"90038"},{"Location":"EAVS INC","Address":"6030 Santa Monica Blvd","City":"Los Angeles","State":"CA","Zip":"90038"},{"Location":"EMQ FAMILIESFIRST","Address":"815 N El Centro Ave","City":"Los Angeles","State":"CA","Zip":"90038"},{"Location":"EVOLUTION ENTERTAINMENT","Address":"901 N Highland Ave","City":"Los Angeles","State":"CA","Zip":"90038"},{"Location":"FLAME VENTURES LLC","Address":"1145 N Mccadden Pl","City":"Los Angeles","State":"CA","Zip":"90038"},{"Location":"FOTO KEM INDUSTRIES INC","Address":"6855 Santa Monica Blvd","City":"Los Angeles","State":"CA","Zip":"90038"},{"Location":"FOTOKEM","Address":"6721 Romaine St","City":"Los Angeles","State":"CA","Zip":"90038"},{"Location":"FRANCISCO ILEM DMD","Address":"1253 Vine St 18","City":"Los Angeles","State":"CA","Zip":"90038"},{"Location":"FROSCH ENTERTAINMENT","Address":"5300 Melrose Ave B200","City":"Los Angeles","State":"CA","Zip":"90038"},{"Location":"GARVIS AUTOBODY & PAINT","Address":"1065 N Gower St","City":"Los Angeles","State":"CA","Zip":"90038"},{"Location":"GNOMON SCHOOL OF VISUAL","Address":"1015 N Cahuenga Blvd 5430","City":"Los Angeles","State":"CA","Zip":"90038"},{"Location":"GOLD'S GYM HOLLYWOOD","Address":"1016 Cole Ave","City":"Los Angeles","State":"CA","Zip":"90038"},{"Location":"GT TRAVEL & SERVICES","Address":"5620 Santa Monica Blvd","City":"Los Angeles","State":"CA","Zip":"90038"},{"Location":"HAIR DOOZ PLUS","Address":"1253 Vine St 25","City":"Los Angeles","State":"CA","Zip":"90038"},{"Location":"HEALTH CARE FOUNDATION","Address":"6660 Santa Monica Blvd","City":"Los Angeles","State":"CA","Zip":"90038"},{"Location":"HOLLYWOOD CENTER STUDIOS","Address":"1040 N Las Palmas Ave","City":"Los Angeles","State":"CA","Zip":"90038"},{"Location":"HOLLYWOOD ENT","Address":"5542 Santa Monica Blvd","City":"Los Angeles","State":"CA","Zip":"90038"},{"Location":"HOLLYWOOD TOURS","Address":"5520 Santa Monica Blvd 2","City":"Los Angeles","State":"CA","Zip":"90038"},{"Location":"HOLLYWOOD TOW SERVICE","Address":"1015 N Mansfield Ave","City":"Los Angeles","State":"CA","Zip":"90038"},{"Location":"HPC 1 COMMUNICATION","Address":"1149 N Gower St","City":"Los Angeles","State":"CA","Zip":"90038"},{"Location":"HUTCH MEDIA","Address":"5300 Melrose Ave B250","City":"Los Angeles","State":"CA","Zip":"90038"},{"Location":"ILOBASQUENO RESTAURANT","Address":"5027 Melrose Ave","City":"Los Angeles","State":"CA","Zip":"90038"},{"Location":"INTERNATIONAL PERU VIAN","Address":"5870 Melrose Ave 5","City":"Los Angeles","State":"CA","Zip":"90038"},{"Location":"IRON MOUNTAIN RECORDS MNGMNT","Address":"1025 N Highland Ave","City":"Los Angeles","State":"CA","Zip":"90038"},{"Location":"IRWIN ENTERTAINMENT","Address":"710 Seward St","City":"Los Angeles","State":"CA","Zip":"90038"},{"Location":"ITS A LAUGH PRODUCTIONS INC","Address":"1040 N Las Palmas Ave","City":"Los Angeles","State":"CA","Zip":"90038"},{"Location":"JR UNIVERSAL CONSTRUCTION","Address":"1042 N Hudson Ave","City":"Los Angeles","State":"CA","Zip":"90038"},{"Location":"JUST TIRES #4859","Address":"800 N Highland Ave","City":"Los Angeles","State":"CA","Zip":"90038"},{"Location":"K AND F PRODUCTIONS","Address":"910 N Citrus Ave","City":"Los Angeles","State":"CA","Zip":"90038"},{"Location":"KHAOS DIGITAL","Address":"6007 Waring Ave","City":"Los Angeles","State":"CA","Zip":"90038"},{"Location":"KING BERK AUTO CENTER","Address":"6044 Santa Mpnica Blvd","City":"Los Angeles","State":"CA","Zip":"90038"},{"Location":"LA GAY LESBIAN CENTER","Address":"1220 N Highland Ave","City":"Los Angeles","State":"CA","Zip":"90038"},{"Location":"LA GAY LESBIAN CENTER-VILLAGE","Address":"1125 N Mccadden Pl","City":"Los Angeles","State":"CA","Zip":"90038"},{"Location":"LA PUPUSA LOCA","Address":"5716 Santa Monica Blvd","City":"Los Angeles","State":"CA","Zip":"90038"},{"Location":"LEVELS AUDIO","Address":"1026 N Highland Ave","City":"Los Angeles","State":"CA","Zip":"90038"},{"Location":"LINE 204 LLC","Address":"1034 Seward St","City":"Los Angeles","State":"CA","Zip":"90038"},{"Location":"LINE 204 LLC #3","Address":"1034 Seward St","City":"Los Angeles","State":"CA","Zip":"90038"},{"Location":"LUZ SPORTS","Address":"5523 Santa Monica Blvd","City":"Los Angeles","State":"CA","Zip":"90038"},{"Location":"MAJOR CRIMES","Address":"5300 Melrose Ave 203e","City":"Los Angeles","State":"CA","Zip":"90038"},{"Location":"MANDT BROS PRODUCTIONS","Address":"6910 Santa Monica Blvd","City":"Los Angeles","State":"CA","Zip":"90038"},{"Location":"MIDNIGHT INC","Address":"1040 N Las Palmas Ave 15","City":"Los Angeles","State":"CA","Zip":"90038"},{"Location":"MILK STUDIOS LLC","Address":"855 N Cahuenga Blvd","City":"Los Angeles","State":"CA","Zip":"90038"},{"Location":"MONOTONE INC.","Address":"820 Seward St","City":"Los Angeles","State":"CA","Zip":"90038"},{"Location":"NAIL BAR","Address":"7022 Melrose Ave","City":"Los Angeles","State":"CA","Zip":"90038"},{"Location":"NAILED IT","Address":"1123 Vine St 9","City":"Los Angeles","State":"CA","Zip":"90038"},{"Location":"NEXT DOOR LOUNGE","Address":"1154 N Highland Ave","City":"Los Angeles","State":"CA","Zip":"90038"},{"Location":"ORANGE NEW BLK","Address":"6565 Romaine St","City":"Los Angeles","State":"CA","Zip":"90038"},{"Location":"PARAMOUNT PICTURES PREMIUM 1","Address":"5555 Melrose Ave","City":"Los Angeles","State":"CA","Zip":"90038"},{"Location":"PARAMOUNT PICTURES PREMIUM 2","Address":"5555 Melrose Ave","City":"Los Angeles","State":"CA","Zip":"90038"},{"Location":"PARAMOUNT PICTURES STANDARD 1","Address":"5555 Melrose Ave","City":"Los Angeles","State":"CA","Zip":"90038"},{"Location":"PARAMOUNT PICTURES STANDARD 2","Address":"5555 Melrose Ave","City":"Los Angeles","State":"CA","Zip":"90038"},{"Location":"PARAMOUNT PICTURES STANDARD 3","Address":"5555 Melrose Ave","City":"Los Angeles","State":"CA","Zip":"90038"},{"Location":"PARAMOUNT PICTURES STANDARD 4","Address":"5555 Melrose Ave","City":"Los Angeles","State":"CA","Zip":"90038"},{"Location":"PARAMOUNT PICTURES STANDARD 5","Address":"5555 Melrose Ave","City":"Los Angeles","State":"CA","Zip":"90038"},{"Location":"PICROW INC","Address":"736 Seward St","City":"Los Angeles","State":"CA","Zip":"90038"},{"Location":"PICTURE HEAD","Address":"1132 Vine St","City":"Los Angeles","State":"CA","Zip":"90038"},{"Location":"PING PONG PRODUCTIONS","Address":"6600 Lexington Ave","City":"Los Angeles","State":"CA","Zip":"90038"},{"Location":"PIXOLOGIC","Address":"6410 Santa Monica Blvd","City":"Los Angeles","State":"CA","Zip":"90038"},{"Location":"POOCH HOTEL","Address":"960 N Highland Ave","City":"Los Angeles","State":"CA","Zip":"90038"},{"Location":"PRIME CONSTRUCTINO","Address":"1127 Lillian Way 5","City":"Los Angeles","State":"CA","Zip":"90038"},{"Location":"QUIXOTE SERVICES INC","Address":"1000 N Cahuenga Blvd","City":"Los Angeles","State":"CA","Zip":"90038"},{"Location":"QUIXOTE TRUCKS DIVISION","Address":"1000 N Cahuenga Blvd","City":"Los Angeles","State":"CA","Zip":"90038"},{"Location":"RALEIGH STUDIO%2FPOST PROD","Address":"5300 Melrose Ave Chapl","City":"Los Angeles","State":"CA","Zip":"90038"},{"Location":"RALEIGH STUDIOS","Address":"5254 Melrose Ave","City":"Los Angeles","State":"CA","Zip":"90038"},{"Location":"RALEIGH STUDIOS - LIZ MA","Address":"5300 Melrose Ave 3fle","City":"Los Angeles","State":"CA","Zip":"90038"},{"Location":"RALEIGH STUDIOS STORE","Address":"5300 Melrose Ave Prc","City":"Los Angeles","State":"CA","Zip":"90038"},{"Location":"RAOS","Address":"1006 Seward St","City":"Los Angeles","State":"CA","Zip":"90038"},{"Location":"RED STUDIOS HOLLYWOOD","Address":"846 N Cahuenga Blvd","City":"Los Angeles","State":"CA","Zip":"90038"},{"Location":"SIM VIDEO LOS ANGELES","Address":"738 N Cahuenga Blvd","City":"Los Angeles","State":"CA","Zip":"90038"},{"Location":"SIREN STUDIO","Address":"1050 N Orange Dr","City":"Los Angeles","State":"CA","Zip":"90038"},{"Location":"SIREN STUDIO TWO","Address":"1051 N Orange Dr","City":"Los Angeles","State":"CA","Zip":"90038"},{"Location":"SMUGGLER","Address":"823 Seward St","City":"Los Angeles","State":"CA","Zip":"90038"},{"Location":"SONIC POOL INC","Address":"6860 Lexington Ave","City":"Los Angeles","State":"CA","Zip":"90038"},{"Location":"SOUTHERN CALIF SOUND ADVICE","Address":"1023 Cole Ave","City":"Los Angeles","State":"CA","Zip":"90038"},{"Location":"STAMPEDE POST PRODUCTIONS","Address":"816 N Highland Ave","City":"Los Angeles","State":"CA","Zip":"90038"},{"Location":"STOP AND SHOP MARKET","Address":"1123 Vine St 13","City":"Los Angeles","State":"CA","Zip":"90038"},{"Location":"SUNSET EDIT INC","Address":"849 Seward St","City":"Los Angeles","State":"CA","Zip":"90038"},{"Location":"SUSAN FENIGERS STREET","Address":"742 N Highland Ave","City":"Los Angeles","State":"CA","Zip":"90038"},{"Location":"TECHNICOLOR","Address":"5555 Melrose Ave","City":"Los Angeles","State":"CA","Zip":"90038"},{"Location":"TERE'S","Address":"5870 Melrose Ave 1","City":"Los Angeles","State":"CA","Zip":"90038"},{"Location":"THE FARM LA","Address":"6902 Santa Monica Blvd","City":"Los Angeles","State":"CA","Zip":"90038"},{"Location":"THE FUTURE","Address":"809 N Cahuenga Blvd","City":"Los Angeles","State":"CA","Zip":"90038"},{"Location":"THE HOLLYWOOD CORNER","Address":"1156 N Highland Ave","City":"Los Angeles","State":"CA","Zip":"90038"},{"Location":"THE THREE CLUBS","Address":"1123 Vine St 1","City":"Los Angeles","State":"CA","Zip":"90038"},{"Location":"TIT MOUSE INC","Address":"1121 Seward St","City":"Los Angeles","State":"CA","Zip":"90038"},{"Location":"UBER CONTENT INC","Address":"1040 N Las Palmas Ave 7n","City":"Los Angeles","State":"CA","Zip":"90038"},{"Location":"WILD CARD BOXING INC","Address":"1123 Vine St","City":"Los Angeles","State":"CA","Zip":"90038"},{"Location":"WINDOWTINTSCOM","Address":"5901 Santa Monica Blvd","City":"Los Angeles","State":"CA","Zip":"90038"},{"Location":"WISER POST1","Address":"6121 Santa Monica Blvd 101","City":"Los Angeles","State":"CA","Zip":"90038"},{"Location":"ZERMENOS RESTAURANT","Address":"6115 Santa Monica Blvd","City":"Los Angeles","State":"CA","Zip":"90038"},{"Location":"ZYLOGIC MEDIA","Address":"6161 Santa Monica Blvd","City":"Los Angeles","State":"CA","Zip":"90038"},{"Location":"HOLLYWOOD SHAKEYS 1","Address":"7001 Santa Monica Blvd","City":"West Hollywood","State":"CA","Zip":"90038"},{"Location":"JUST ONE EYE","Address":"7000 Romaine St","City":"West Hollywood","State":"CA","Zip":"90038"},{"Location":"ORIGINAL MEDIA","Address":"933 N La Brea Ave 3","City":"West Hollywood","State":"CA","Zip":"90038"},{"Location":"REALITY LA","Address":"933 N La Brea Ave","City":"West Hollywood","State":"CA","Zip":"90038"},{"Location":"SPECIAL EVENT MANAGEMENT","Address":"1134 N La Brea Ave 101","City":"West Hollywood","State":"CA","Zip":"90038"}]