[{"Location":"E LA SHAKEYS 5","Address":"2023 E Cesar Chaves Ave","City":"E Los Angeles","State":"CA","Zip":"90033"},{"Location":"ANHEUSER-BUSCH WHLSLR #70436","Address":"401 S Anderson St","City":"Los Angeles","State":"CA","Zip":"90033"},{"Location":"BIRRIERIA DE DON BONI","Address":"1845 E 1st St","City":"Los Angeles","State":"CA","Zip":"90033"},{"Location":"CASA GRANDE EVENTS LLC","Address":"2706 E Caesar Chavez A","City":"Los Angeles","State":"CA","Zip":"90033"},{"Location":"CLINICA DEL DR CASTILLO","Address":"212 Bailey St 204","City":"Los Angeles","State":"CA","Zip":"90033"},{"Location":"CORTES AUTO GLASS","Address":"580 N Mission Rd","City":"Los Angeles","State":"CA","Zip":"90033"},{"Location":"COTTO MAINTENANCE","Address":"545 S Clarence St","City":"Los Angeles","State":"CA","Zip":"90033"},{"Location":"DAVITA #2541 E LA PLAZA","Address":"1700 E Ceasar Chavez St L001","City":"Los Angeles","State":"CA","Zip":"90033"},{"Location":"DAVITA #5211 BOYLE HEIGHTS","Address":"1936 E 1st St","City":"Los Angeles","State":"CA","Zip":"90033"},{"Location":"DAVITA #690 TRC%2FUSC DIALYSIS","Address":"2310 Alcazar St","City":"Los Angeles","State":"CA","Zip":"90033"},{"Location":"EL APETITO","Address":"2125 E Cesar E Chavez Ave","City":"Los Angeles","State":"CA","Zip":"90033"},{"Location":"EL FUERTE MARKET","Address":"2901 E 1st St","City":"Los Angeles","State":"CA","Zip":"90033"},{"Location":"EL RINCONCITO DELMAR","Address":"2908 E 1st St","City":"Los Angeles","State":"CA","Zip":"90033"},{"Location":"EL SINALOENSE RESTAURANT","Address":"2702 E Cesar E Chavez Ave","City":"Los Angeles","State":"CA","Zip":"90033"},{"Location":"EXODUS URGENT CARE CENTER","Address":"1920 Marengo St","City":"Los Angeles","State":"CA","Zip":"90033"},{"Location":"GTO AUTO GLASS","Address":"1001 N Mission Rd 2","City":"Los Angeles","State":"CA","Zip":"90033"},{"Location":"HOLLENBECK HOME #1","Address":"573 S Boyle Ave","City":"Los Angeles","State":"CA","Zip":"90033"},{"Location":"HOLLENBECK HOME #2","Address":"573 S Boyle Ave","City":"Los Angeles","State":"CA","Zip":"90033"},{"Location":"HYPCO","Address":"363 S Mission Rd","City":"Los Angeles","State":"CA","Zip":"90033"},{"Location":"J & J BARBERSHOP","Address":"2433 E Cesar E Chavez Ave","City":"Los Angeles","State":"CA","Zip":"90033"},{"Location":"JAPANESERESTAURANT TENNO","Address":"2321 E 1st St","City":"Los Angeles","State":"CA","Zip":"90033"},{"Location":"JESSE BARBERSHOP","Address":"2626 E Cesar E Chavez Ave","City":"Los Angeles","State":"CA","Zip":"90033"},{"Location":"KARLAS BAR 2","Address":"2327 E 1st St","City":"Los Angeles","State":"CA","Zip":"90033"},{"Location":"LA BAR BACHA","Address":"2510 E Cesar E Chavez Ave","City":"Los Angeles","State":"CA","Zip":"90033"},{"Location":"LA CABANA","Address":"2931 E 4th St","City":"Los Angeles","State":"CA","Zip":"90033"},{"Location":"LAS FLAUTAS RESTAURANT","Address":"2713 E Cesar E Chavez Ave","City":"Los Angeles","State":"CA","Zip":"90033"},{"Location":"LATINO TRAVEL","Address":"2012 E Cesar Chavez Ave","City":"Los Angeles","State":"CA","Zip":"90033"},{"Location":"MARETH BEAUTY SALON","Address":"2831 E 1st St","City":"Los Angeles","State":"CA","Zip":"90033"},{"Location":"MARK MCMAHON","Address":"2539 Wabash Ave","City":"Los Angeles","State":"CA","Zip":"90033"},{"Location":"MAYA BARBER","Address":"2306 E 1st St","City":"Los Angeles","State":"CA","Zip":"90033"},{"Location":"MEXICO AUTO GLASS","Address":"600 N Mission Rd","City":"Los Angeles","State":"CA","Zip":"90033"},{"Location":"MIKEN CLOTHING","Address":"539 S Mission Rd","City":"Los Angeles","State":"CA","Zip":"90033"},{"Location":"MISSION AUTO GLASS","Address":"748 N Mission Rd","City":"Los Angeles","State":"CA","Zip":"90033"},{"Location":"ORTHAPEDIC SURGERY","Address":"1520 San Pablo St 2000","City":"Los Angeles","State":"CA","Zip":"90033"},{"Location":"PACIFIC RIM EP","Address":"1700 E Cesar E Chavez Ave 2700","City":"Los Angeles","State":"CA","Zip":"90033"},{"Location":"PAUL T URREA MD MPH INC","Address":"1700 E Cesar E Chavez Ave L300","City":"Los Angeles","State":"CA","Zip":"90033"},{"Location":"RISSHO KOSEI-KAI INTERNATIONAL","Address":"2707 E 1st St","City":"Los Angeles","State":"CA","Zip":"90033"},{"Location":"SAN ANTONIO PRE SCHOOL","Address":"1500 Bridge St","City":"Los Angeles","State":"CA","Zip":"90033"},{"Location":"SAN LUIS AUTO GLASS","Address":"500 N Mission Rd","City":"Los Angeles","State":"CA","Zip":"90033"},{"Location":"SUPER BELLEZA","Address":"2120 Cesar Chavez Ave","City":"Los Angeles","State":"CA","Zip":"90033"},{"Location":"TRUCK BAR","Address":"2119 E Cesar E Chavez Ave","City":"Los Angeles","State":"CA","Zip":"90033"},{"Location":"UNIVERSAL BEAUTY SALON","Address":"2333 E 4th St","City":"Los Angeles","State":"CA","Zip":"90033"},{"Location":"US COIN LAUNDRY","Address":"2601 E 4th St","City":"Los Angeles","State":"CA","Zip":"90033"},{"Location":"WHITE MEMORIAL MEDICAL CENTER","Address":"1720 Cesar Chavez Ave","City":"Los Angeles","State":"CA","Zip":"90033"},{"Location":"ZACATECAS DENTAL","Address":"312 N Soto St","City":"Los Angeles","State":"CA","Zip":"90033"}]