[{"Location":"3 CS AUTO REPAIR","Address":"5479 Huntington Dr N","City":"Los Angeles","State":"CA","Zip":"90032"},{"Location":"C.T.'S","Address":"5769 Huntington Dr N","City":"Los Angeles","State":"CA","Zip":"90032"},{"Location":"CAL STATE LA POLICE","Address":"5151 State University Dr","City":"Los Angeles","State":"CA","Zip":"90032"},{"Location":"CHA CHA CHILI","Address":"4625 Valley Blvd","City":"Los Angeles","State":"CA","Zip":"90032"},{"Location":"CLIPS BEAUTY SALON","Address":"4973 Huntington Dr N","City":"Los Angeles","State":"CA","Zip":"90032"},{"Location":"CSULA","Address":"5151 State University Dr 815","City":"Los Angeles","State":"CA","Zip":"90032"},{"Location":"D AND J WINDOW TREATMENTS","Address":"4208 Huntington Dr S","City":"Los Angeles","State":"CA","Zip":"90032"},{"Location":"DMJ LAUNDRY","Address":"5751 Huntington Dr N","City":"Los Angeles","State":"CA","Zip":"90032"},{"Location":"JOHNNIE","Address":"2017 N Eastern Ave","City":"Los Angeles","State":"CA","Zip":"90032"},{"Location":"LINDAS MARKET","Address":"4117 N Mission Rd","City":"Los Angeles","State":"CA","Zip":"90032"},{"Location":"METROPOLITAN WATER DIST","Address":"2100 N Soto St","City":"Los Angeles","State":"CA","Zip":"90032"},{"Location":"PHO 97","Address":"7271 N Broadway St","City":"Los Angeles","State":"CA","Zip":"90032"},{"Location":"SBARRO RESTAURANT","Address":"5151 State University Dr","City":"Los Angeles","State":"CA","Zip":"90032"},{"Location":"SINALOA RESTAURANT","Address":"5373 Alhambra Ave","City":"Los Angeles","State":"CA","Zip":"90032"},{"Location":"THE OUTDOOR RECREATION GROUP","Address":"1919 Vineburn Ave","City":"Los Angeles","State":"CA","Zip":"90032"},{"Location":"TOHA TRADING  INC","Address":"3906 Collis Ave","City":"Los Angeles","State":"CA","Zip":"90032"},{"Location":"TONYS SUBS AND SALADS","Address":"4507 Valley Blvd 102","City":"Los Angeles","State":"CA","Zip":"90032"},{"Location":"UNIVERSITY AUXLIARY SERVICE","Address":"5151 State University Dr","City":"Los Angeles","State":"CA","Zip":"90032"},{"Location":"UNIVERSITY CLUB","Address":"5151 State University Dr","City":"Los Angeles","State":"CA","Zip":"90032"},{"Location":"UNIVERSITY STUDENT UNION INC","Address":"5154 State University Dr","City":"Los Angeles","State":"CA","Zip":"90032"},{"Location":"USC HEALTH SCIENCES","Address":"2001 N Soto St","City":"Los Angeles","State":"CA","Zip":"90032"}]