[{"Location":"ALS MEAT COMPANY","Address":"1915 N Broadway","City":"Los Angeles","State":"CA","Zip":"90031"},{"Location":"ANEKOR TIRE AUTO SERVICE","Address":"3754 N Mission Rd","City":"Los Angeles","State":"CA","Zip":"90031"},{"Location":"BARBARAS AT THE BREWERY","Address":"620 Moulton Ave 110","City":"Los Angeles","State":"CA","Zip":"90031"},{"Location":"CBS OUTDOOR","Address":"1731 Workman St","City":"Los Angeles","State":"CA","Zip":"90031"},{"Location":"CHANOS RESTAURANT","Address":"3309 N Mission Rd","City":"Los Angeles","State":"CA","Zip":"90031"},{"Location":"CHCADA","Address":"2309 Daly St","City":"Los Angeles","State":"CA","Zip":"90031"},{"Location":"DALY MARKET","Address":"2235 Daly St","City":"Los Angeles","State":"CA","Zip":"90031"},{"Location":"DANIELAS SHOES & CELL","Address":"2624 N Broadway","City":"Los Angeles","State":"CA","Zip":"90031"},{"Location":"DESIGNER DEPENDABLE DELIVERY","Address":"2429 Forney St","City":"Los Angeles","State":"CA","Zip":"90031"},{"Location":"EL LARCA INC","Address":"3839 Selig Pl","City":"Los Angeles","State":"CA","Zip":"90031"},{"Location":"EL TREVOR","Address":"2721 N Broadway","City":"Los Angeles","State":"CA","Zip":"90031"},{"Location":"FIRE STATION 1","Address":"2230 Pasadena Ave","City":"Los Angeles","State":"CA","Zip":"90031"},{"Location":"GOODWILL SO CAL","Address":"342 N San Fernando Rd","City":"Los Angeles","State":"CA","Zip":"90031"},{"Location":"LE BLANC BAR & GRILL","Address":"2834 N Broadway","City":"Los Angeles","State":"CA","Zip":"90031"},{"Location":"LOS ANGELES DEPARTMENT BOMB","Address":"2029 N Main St","City":"Los Angeles","State":"CA","Zip":"90031"},{"Location":"MARCELINOS INC","Address":"2205 N Broadway","City":"Los Angeles","State":"CA","Zip":"90031"},{"Location":"MARTITAS MEXICAN RESTAURANT","Address":"2657 Pasadena Ave","City":"Los Angeles","State":"CA","Zip":"90031"},{"Location":"PASEO ANGELES TRAVEL","Address":"2528 Daly St","City":"Los Angeles","State":"CA","Zip":"90031"},{"Location":"SAN ANTONIO WINERY","Address":"737 Lamar St","City":"Los Angeles","State":"CA","Zip":"90031"},{"Location":"SUPERMERCADO SAN CARLOS","Address":"2801 N Main St","City":"Los Angeles","State":"CA","Zip":"90031"},{"Location":"TAQUERIA LA NARANJA","Address":"2333 Daly St","City":"Los Angeles","State":"CA","Zip":"90031"},{"Location":"THE AMALGAMATED TRANSIT UNION","Address":"1744 N Main St","City":"Los Angeles","State":"CA","Zip":"90031"},{"Location":"THE OFFICES","Address":"2412 N Broadway","City":"Los Angeles","State":"CA","Zip":"90031"},{"Location":"WENDYS TORTAS","Address":"2603 N Main St","City":"Los Angeles","State":"CA","Zip":"90031"},{"Location":"WILLIAM APARICIO TAX PREP INC","Address":"3510 N Broadway","City":"Los Angeles","State":"CA","Zip":"90031"}]