[{"Location":"AI AUTOMOTIVE  SVC","Address":"2485 Fletcher Dr","City":"Los Angeles","State":"CA","Zip":"90039"},{"Location":"ANIMAL   SPECIALTY GROUP","Address":"4641 Colorado Blvd","City":"Los Angeles","State":"CA","Zip":"90039"},{"Location":"ASTRO FAMILY RESTAURANT","Address":"2300 Fletcher Dr","City":"Los Angeles","State":"CA","Zip":"90039"},{"Location":"ATWATER VILLAGE TAVERN","Address":"3216 Glendale Blvd","City":"Los Angeles","State":"CA","Zip":"90039"},{"Location":"BANDEL MFG INC","Address":"4463 Alger St","City":"Los Angeles","State":"CA","Zip":"90039"},{"Location":"BRIGHT AND WHITE DENTIST","Address":"3171 Glendale Blvd","City":"Los Angeles","State":"CA","Zip":"90039"},{"Location":"CINELEASE INC","Address":"5375 W San Fernando Rd","City":"Los Angeles","State":"CA","Zip":"90039"},{"Location":"COUNTRY VILLA LOS FELIZ","Address":"3002 Rowena Ave","City":"Los Angeles","State":"CA","Zip":"90039"},{"Location":"DICKERSON EMPLOYEE","Address":"1918 Riverside Dr","City":"Los Angeles","State":"CA","Zip":"90039"},{"Location":"EL BUEN GUSTO","Address":"2829 Fletcher Dr","City":"Los Angeles","State":"CA","Zip":"90039"},{"Location":"EL BUEN GUSTO RESTAURANT","Address":"3140 Glendale Blvd","City":"Los Angeles","State":"CA","Zip":"90039"},{"Location":"FIRE SATION 56","Address":"2759 Rowena Ave","City":"Los Angeles","State":"CA","Zip":"90039"},{"Location":"FURNITURE TOWN PLUS","Address":"4550 Cutter St","City":"Los Angeles","State":"CA","Zip":"90039"},{"Location":"GOLDEN ROAD PUB","Address":"5410 W San Fernando Rd","City":"Los Angeles","State":"CA","Zip":"90039"},{"Location":"GUSES BOX","Address":"2320 Fletcher Dr","City":"Los Angeles","State":"CA","Zip":"90039"},{"Location":"HOLY TRINITY CATHOLIC CHURCH","Address":"3722 Boyce Ave","City":"Los Angeles","State":"CA","Zip":"90039"},{"Location":"HOLY TRINITY CATHOLIC CHURCH2","Address":"3723 Brunswick Ave","City":"Los Angeles","State":"CA","Zip":"90039"},{"Location":"INDOCHINE VIEN","Address":"3110 Glendale Blvd","City":"Los Angeles","State":"CA","Zip":"90039"},{"Location":"JACKPOT AUTO DISMANTLING","Address":"2915 Denby Ave","City":"Los Angeles","State":"CA","Zip":"90039"},{"Location":"JM TOBACCO","Address":"3018 N Coolidge Ave","City":"Los Angeles","State":"CA","Zip":"90039"},{"Location":"L&R CONSTRUCTION","Address":"3061 Riverside Dr","City":"Los Angeles","State":"CA","Zip":"90039"},{"Location":"LA VILLA CAFE","Address":"4105 Chevy Chase Dr","City":"Los Angeles","State":"CA","Zip":"90039"},{"Location":"LINK N HOPS INC","Address":"3111 Glendale Blvd C","City":"Los Angeles","State":"CA","Zip":"90039"},{"Location":"METRO FITNESS INC","Address":"3610 Valleybrink Rd","City":"Los Angeles","State":"CA","Zip":"90039"},{"Location":"MK 1318 CORDOVA INVESTME","Address":"3218 Glendale Blvd","City":"Los Angeles","State":"CA","Zip":"90039"},{"Location":"MODERN EATS","Address":"2590 Glendale Blvd","City":"Los Angeles","State":"CA","Zip":"90039"},{"Location":"MUIR CHASE","Address":"4530 Brazil St","City":"Los Angeles","State":"CA","Zip":"90039"},{"Location":"NAAV INC HOME RESTAURANT","Address":"2500 Riverside Dr","City":"Los Angeles","State":"CA","Zip":"90039"},{"Location":"PRECISE AIR","Address":"5467 W San Fernando Rd","City":"Los Angeles","State":"CA","Zip":"90039"},{"Location":"QUIXOTE STUDIO","Address":"4565 Electronics Pl","City":"Los Angeles","State":"CA","Zip":"90039"},{"Location":"QUIXOTE STUDIOS LLC","Address":"4585 Electronics Pl","City":"Los Angeles","State":"CA","Zip":"90039"},{"Location":"RALPHS GROCERY CO","Address":"4901 W San Fernando Rd","City":"Los Angeles","State":"CA","Zip":"90039"},{"Location":"RED LION TAVERN","Address":"2366 Glendale Blvd","City":"Los Angeles","State":"CA","Zip":"90039"},{"Location":"RIPPLE STUDIOS","Address":"2413 Ripple St","City":"Los Angeles","State":"CA","Zip":"90039"},{"Location":"RIVERSIDE SERVICE STATION","Address":"3740 Dover Pl","City":"Los Angeles","State":"CA","Zip":"90039"},{"Location":"SIZZLER 226","Address":"2920 Los Feliz Blvd","City":"Los Angeles","State":"CA","Zip":"90039"},{"Location":"SKYLINE HEALTH CARE","Address":"3032 Rowena Ave","City":"Los Angeles","State":"CA","Zip":"90039"},{"Location":"SOUTHERN CALIFONIA GAS COMPANY","Address":"4560 Sperry St","City":"Los Angeles","State":"CA","Zip":"90039"},{"Location":"SUN   DAIRY","Address":"5471 W San Fernando Rd","City":"Los Angeles","State":"CA","Zip":"90039"},{"Location":"TARGET","Address":"4561 Colorado Blvd","City":"Los Angeles","State":"CA","Zip":"90039"},{"Location":"THE GRIFFIN","Address":"3000 Los Seliv Blvd","City":"Los Angeles","State":"CA","Zip":"90039"},{"Location":"THE MORRISON","Address":"3179 Los Feliz Blvd","City":"Los Angeles","State":"CA","Zip":"90039"},{"Location":"THE TAM O SHANTER","Address":"2980 Los Feliz Blvd","City":"Los Angeles","State":"CA","Zip":"90039"},{"Location":"TOUCHSTONE TV%2FABC STUDIO","Address":"4585 Electronics Pl 2ndfl","City":"Los Angeles","State":"CA","Zip":"90039"},{"Location":"TRUE SLEEP","Address":"1989 Riverside Dr","City":"Los Angeles","State":"CA","Zip":"90039"},{"Location":"WHY PAY MORE AUTO SERVICE","Address":"2672 Fletcher Dr","City":"Los Angeles","State":"CA","Zip":"90039"},{"Location":"YOLYS BEAUTY SALON","Address":"2326 Fletcher Dr","City":"Los Angeles","State":"CA","Zip":"90039"}]