[{"Location":"EXODUS RECOVERY 3","Address":"8511 12 Vermont St","City":"Los Angelas","State":"CA","Zip":"90044"},{"Location":"ALL APPLIANCES LLC","Address":"10108 S Vermont Ave","City":"Los Angeles","State":"CA","Zip":"90044"},{"Location":"BONITA LAUNDRY","Address":"7900 S Vermont Ave","City":"Los Angeles","State":"CA","Zip":"90044"},{"Location":"Brix Pizza","Address":"708 W Florence Ave","City":"Los Angeles","State":"CA","Zip":"90044"},{"Location":"BROWN AND PIPKINS","Address":"562 W 90th St","City":"Los Angeles","State":"CA","Zip":"90044"},{"Location":"BROWN AND PIPKINS INC","Address":"639 W Imperial Hwy","City":"Los Angeles","State":"CA","Zip":"90044"},{"Location":"BROWN BARBER SHOP","Address":"1255 W Manchester Ave","City":"Los Angeles","State":"CA","Zip":"90044"},{"Location":"CELLS PHONES AND ACCESSORIES","Address":"9603 S Vermont Ave","City":"Los Angeles","State":"CA","Zip":"90044"},{"Location":"COCY CORNER","Address":"5880 S Hoover St","City":"Los Angeles","State":"CA","Zip":"90044"},{"Location":"COLLETT REALTY INC","Address":"724 W Century Blvd","City":"Los Angeles","State":"CA","Zip":"90044"},{"Location":"CRENSHAW CHRISTIAN CENTER","Address":"7901 S Vermont Ave","City":"Los Angeles","State":"CA","Zip":"90044"},{"Location":"D & L","Address":"7515 S Vermont Ave","City":"Los Angeles","State":"CA","Zip":"90044"},{"Location":"DAVID JACOBS","Address":"10106 S Vermont Ave","City":"Los Angeles","State":"CA","Zip":"90044"},{"Location":"EL CONGO LUMBER","Address":"5970 S Vermont Ave","City":"Los Angeles","State":"CA","Zip":"90044"},{"Location":"EL GUANAQUITO","Address":"6706 S Normandie Ave","City":"Los Angeles","State":"CA","Zip":"90044"},{"Location":"FUENTE RESTAURANT","Address":"5916 S Vermont Ave","City":"Los Angeles","State":"CA","Zip":"90044"},{"Location":"GLORIA C LEE","Address":"8024 South Vermount","City":"Los Angeles","State":"CA","Zip":"90044"},{"Location":"GREAT MOUNT CARMEL MISSIONARY","Address":"6001 S Hoover St","City":"Los Angeles","State":"CA","Zip":"90044"},{"Location":"HERCULES MINI MARKET","Address":"726 W Slauson Ave","City":"Los Angeles","State":"CA","Zip":"90044"},{"Location":"HOUSE OF COSMOTOLOGY","Address":"733 W 124th St","City":"Los Angeles","State":"CA","Zip":"90044"},{"Location":"HOUSE OF WINSTON","Address":"9501 S Vermont Ave","City":"Los Angeles","State":"CA","Zip":"90044"},{"Location":"JAHI FAMILY SERVICES 2","Address":"9001 S Vermont Ave","City":"Los Angeles","State":"CA","Zip":"90044"},{"Location":"JIMS AUTO REPAIR SERVICE","Address":"6610 S Normandie Ave","City":"Los Angeles","State":"CA","Zip":"90044"},{"Location":"JOHNSONS COIN OP LAUNDRY","Address":"9132 S Vermont Ave","City":"Los Angeles","State":"CA","Zip":"90044"},{"Location":"La Casa Honduras Restaurant","Address":"9131 S Vermont Ave","City":"Los Angeles","State":"CA","Zip":"90044"},{"Location":"LA CITY FIRE DEPT","Address":"7800 S Vermont Ave","City":"Los Angeles","State":"CA","Zip":"90044"},{"Location":"LA COUNTY PROBATION OFFI","Address":"1330 W Imperial Hwy","City":"Los Angeles","State":"CA","Zip":"90044"},{"Location":"LA HAIR TRENSAS","Address":"5916 S Vermont Ave A","City":"Los Angeles","State":"CA","Zip":"90044"},{"Location":"LITTLE PEOPLES WORLD","Address":"9535 S Hoover St","City":"Los Angeles","State":"CA","Zip":"90044"},{"Location":"MIKES RADIATORS WAREHOUSE","Address":"809 W Florence Ave","City":"Los Angeles","State":"CA","Zip":"90044"},{"Location":"NAIL TRAP","Address":"8602 S Vermont Ave","City":"Los Angeles","State":"CA","Zip":"90044"},{"Location":"NTC 1","Address":"1034 W 97th St","City":"Los Angeles","State":"CA","Zip":"90044"},{"Location":"PRO AUTO REPAIR","Address":"1247 W Manchester Ave","City":"Los Angeles","State":"CA","Zip":"90044"},{"Location":"RPM LENDER","Address":"700 W Imperial Hwy 101","City":"Los Angeles","State":"CA","Zip":"90044"},{"Location":"SON AUTO PARTS","Address":"11957 S Vermont Ave","City":"Los Angeles","State":"CA","Zip":"90044"},{"Location":"SOUTH LA SHERRIF STATION","Address":"1310 W Imperial Hwy","City":"Los Angeles","State":"CA","Zip":"90044"},{"Location":"SOUTH LOS ANGELES SHRRIFF STA","Address":"1310 W Imperial Hwy","City":"Los Angeles","State":"CA","Zip":"90044"},{"Location":"START TODAY","Address":"636 W 85th St","City":"Los Angeles","State":"CA","Zip":"90044"},{"Location":"SUPERIOR HERBAL HEALTH","Address":"1011 W 84th Pl","City":"Los Angeles","State":"CA","Zip":"90044"},{"Location":"TONIS BEAUTY SALON","Address":"6067 S Vermont Ave","City":"Los Angeles","State":"CA","Zip":"90044"},{"Location":"WINGSTOP","Address":"8330 S Vermont Ave","City":"Los Angeles","State":"CA","Zip":"90044"}]