[{"Location":"SORTINO RESTAURANT","Address":"908 S Barrington Ave","City":"Barrington","State":"CA","Zip":"90049"},{"Location":"ETRADE FINANCIAL","Address":"11711 Gorham Ave","City":"Brentwood","State":"CA","Zip":"90049"},{"Location":"662 SEPULVEDA LLC","Address":"662 N Sepulveda Blvd 200","City":"Los Angeles","State":"CA","Zip":"90049"},{"Location":"A M G","Address":"641 N Sepulveda Blvd 200","City":"Los Angeles","State":"CA","Zip":"90049"},{"Location":"ACI INTERNATIONAL","Address":"844 Moraga Dr","City":"Los Angeles","State":"CA","Zip":"90049"},{"Location":"ALLISON AND PARTNERS","Address":"11611 San Vicente Blvd 910","City":"Los Angeles","State":"CA","Zip":"90049"},{"Location":"AMMADIS INC GAUCHO GRILL","Address":"11754 San Vicente Blvd","City":"Los Angeles","State":"CA","Zip":"90049"},{"Location":"ARMBRUSTER GOLDSMITH&DEL","Address":"11611 San Vicente Blvd 900","City":"Los Angeles","State":"CA","Zip":"90049"},{"Location":"BEL AIR BAR AND GRILL","Address":"662 N Sepulveda Blvd","City":"Los Angeles","State":"CA","Zip":"90049"},{"Location":"BELWOOD BAKERY","Address":"11625 Barrington Ct","City":"Los Angeles","State":"CA","Zip":"90049"},{"Location":"BRENTWOOD COUNTRY CLUB","Address":"590 S Burlingame Ave","City":"Los Angeles","State":"CA","Zip":"90049"},{"Location":"BRENTWOOD COUNTRY CLUB#2","Address":"590 S Burlingame Ave","City":"Los Angeles","State":"CA","Zip":"90049"},{"Location":"BRENTWOOD RESTAURANT","Address":"148 S Barrington Ave","City":"Los Angeles","State":"CA","Zip":"90049"},{"Location":"BUTER BUZARD FISHBEIN","Address":"11611 San Vicente Blvd 820","City":"Los Angeles","State":"CA","Zip":"90049"},{"Location":"DAVID GEFFEN COMPANY","Address":"12011 San Vicente Blvd 606","City":"Los Angeles","State":"CA","Zip":"90049"},{"Location":"DAVIS ENTERTAINMENT COMPANY","Address":"150 S Barrington Pl","City":"Los Angeles","State":"CA","Zip":"90049"},{"Location":"DR MICHEAL EILENBERG","Address":"11980 San Vicente Blvd 901","City":"Los Angeles","State":"CA","Zip":"90049"},{"Location":"DREAM NAILS SPA","Address":"11638 Barrington Ct","City":"Los Angeles","State":"CA","Zip":"90049"},{"Location":"FAZIO CLEANERS - CE2-1","Address":"11702 San Vnte Blvd","City":"Los Angeles","State":"CA","Zip":"90049"},{"Location":"FIRST REPUBLIC BANK","Address":"11770 San Vicente Blvd","City":"Los Angeles","State":"CA","Zip":"90049"},{"Location":"FRESH BROTHERS","Address":"11740 San Vicente Blvd 101","City":"Los Angeles","State":"CA","Zip":"90049"},{"Location":"GIBSON INTERNATIONAL","Address":"11538 San Vicente Blvd","City":"Los Angeles","State":"CA","Zip":"90049"},{"Location":"GO GRAPHICS","Address":"814 S Westgate Ave 117","City":"Los Angeles","State":"CA","Zip":"90049"},{"Location":"GORDON  MD MAUREEN F","Address":"11980 San Vicente Blvd 704","City":"Los Angeles","State":"CA","Zip":"90049"},{"Location":"JAMES M MEAD DMD","Address":"11980 San Vicente Blvd 813","City":"Los Angeles","State":"CA","Zip":"90049"},{"Location":"K C INVESTMENTS","Address":"11677 San Dicente  #206","City":"Los Angeles","State":"CA","Zip":"90049"},{"Location":"KALLMAN & COMPANY LLP","Address":"125 S Barrington Pl","City":"Los Angeles","State":"CA","Zip":"90049"},{"Location":"KELLER ASSOCIATES ARCHTS","Address":"11973 San Vicente Blvd","City":"Los Angeles","State":"CA","Zip":"90049"},{"Location":"KEVIN BARRETT DDS","Address":"11980 San Vicente Blvd","City":"Los Angeles","State":"CA","Zip":"90049"},{"Location":"LAVI","Address":"11611 San Vicente Blvd 505","City":"Los Angeles","State":"CA","Zip":"90049"},{"Location":"LEAR TRUST","Address":"1911 Westridge Rd","City":"Los Angeles","State":"CA","Zip":"90049"},{"Location":"LEVY AND SMALL AND LALLAS","Address":"815 Moraga Dr","City":"Los Angeles","State":"CA","Zip":"90049"},{"Location":"LIEBES","Address":"11727 Barrington Ct 202","City":"Los Angeles","State":"CA","Zip":"90049"},{"Location":"LUXE SUMMIT HOTEL BEL AIR","Address":"11461 W Sunset Blvd","City":"Los Angeles","State":"CA","Zip":"90049"},{"Location":"MANNY'S PIZZERIA","Address":"651 N. Sepulveda Blvd. #c","City":"Los Angeles","State":"CA","Zip":"90049"},{"Location":"MANNY'S PIZZERIA INC","Address":"651 N Sepulveda Blvd 1c","City":"Los Angeles","State":"CA","Zip":"90049"},{"Location":"MICHEAL A VOURAKIS","Address":"11980 San Vicente Blvd S606","City":"Los Angeles","State":"CA","Zip":"90049"},{"Location":"MIRMAN SCHOOL","Address":"16180 Mulholland Dr","City":"Los Angeles","State":"CA","Zip":"90049"},{"Location":"MOUNT SAINT MARYS COLLEGE","Address":"12001 Chalon Rd","City":"Los Angeles","State":"CA","Zip":"90049"},{"Location":"MOUNTAIN GATE COUNTRY CLUB","Address":"12445 Mountain Gate Dr","City":"Los Angeles","State":"CA","Zip":"90049"},{"Location":"MSMC","Address":"12001 Chalon Rd","City":"Los Angeles","State":"CA","Zip":"90049"},{"Location":"MT ST MARY'S COLLEGE","Address":"12002 Chalon Rd","City":"Los Angeles","State":"CA","Zip":"90049"},{"Location":"NELLYS INC","Address":"651 N Sepulveda Blvd 1a","City":"Los Angeles","State":"CA","Zip":"90049"},{"Location":"ORBACH HUFF AND SUAREZ","Address":"12134 W Sunset Blvd","City":"Los Angeles","State":"CA","Zip":"90049"},{"Location":"PEPPONE","Address":"11628 Barrington Ct","City":"Los Angeles","State":"CA","Zip":"90049"},{"Location":"REGENT PROPERTIES%2C INC.","Address":"11990 San Vicente Blvd 200","City":"Los Angeles","State":"CA","Zip":"90049"},{"Location":"SAN VICENTE FAMILY OFFIC","Address":"11611 San Vicente Blvd 500","City":"Los Angeles","State":"CA","Zip":"90049"},{"Location":"TAVERN","Address":"11648 San Vicente Blvd","City":"Los Angeles","State":"CA","Zip":"90049"},{"Location":"THE STORY FACTORY","Address":"141 S Barrington Ave E","City":"Los Angeles","State":"CA","Zip":"90049"},{"Location":"THE VIP GYM","Address":"651 N Sepulveda Blvd 1b","City":"Los Angeles","State":"CA","Zip":"90049"},{"Location":"TOP TOWN NAILS","Address":"641 N Sepulveda Blvd 102","City":"Los Angeles","State":"CA","Zip":"90049"},{"Location":"VINCENTI","Address":"11930 San Vicente Blvd","City":"Los Angeles","State":"CA","Zip":"90049"},{"Location":"WESTSIDE RETAIL","Address":"11847 Gorham Ave 120","City":"Los Angeles","State":"CA","Zip":"90049"},{"Location":"WIXEN REAL ESTATE INC.","Address":"11611 San Vicente Blvd 760","City":"Los Angeles","State":"CA","Zip":"90049"}]