[{"Location":"3RD AND LA CIENEGA LLC","Address":"8506 W 3rd St","City":"Los Angeles","State":"CA","Zip":"90048"},{"Location":"54 RECKLESS","Address":"6380 Wilshire Blvd 1106","City":"Los Angeles","State":"CA","Zip":"90048"},{"Location":"8384 GROUP LLC","Address":"8384 W 3rd St","City":"Los Angeles","State":"CA","Zip":"90048"},{"Location":"ACME TRAILER COMPANY","Address":"6330 San Vicente Blvd 400","City":"Los Angeles","State":"CA","Zip":"90048"},{"Location":"AMERICAN MEDIA INC","Address":"6420 Wilshire Blvd 15flr","City":"Los Angeles","State":"CA","Zip":"90048"},{"Location":"ARCH ANGEL MUSIC","Address":"8215 W 3rd St","City":"Los Angeles","State":"CA","Zip":"90048"},{"Location":"BACARO","Address":"8636 W 3rd St","City":"Los Angeles","State":"CA","Zip":"90048"},{"Location":"BARRINGTON COMMUNICATIONS","Address":"6210 Wilshire Blvd 300","City":"Los Angeles","State":"CA","Zip":"90048"},{"Location":"BARSTOW INVESTMENT LLC","Address":"6333 Wilshire Blvd 507","City":"Los Angeles","State":"CA","Zip":"90048"},{"Location":"BERKOWITZ COHEN","Address":"6420 Wilshire Blvd 1918","City":"Los Angeles","State":"CA","Zip":"90048"},{"Location":"BEVERLY CENTER","Address":"8500 Beverly Blvd 501","City":"Los Angeles","State":"CA","Zip":"90048"},{"Location":"BEVERLY HILLS SURGICAL","Address":"6221 Wilshire Blvd 416","City":"Los Angeles","State":"CA","Zip":"90048"},{"Location":"BEVERYLY NAIL","Address":"8103 Beverly Blvd","City":"Los Angeles","State":"CA","Zip":"90048"},{"Location":"BIO IONIC","Address":"6222 Wilshire Blvd 300","City":"Los Angeles","State":"CA","Zip":"90048"},{"Location":"BLUEPRINT HOSPITALITY","Address":"8022 W 3rd St","City":"Los Angeles","State":"CA","Zip":"90048"},{"Location":"BOULEVARD HEALTH CLUB","Address":"120 N Robertson Blvd","City":"Los Angeles","State":"CA","Zip":"90048"},{"Location":"BV BEVERLY ONE","Address":"8500 Beverly Blvd K604","City":"Los Angeles","State":"CA","Zip":"90048"},{"Location":"CANNELLA RESPONSE TV","Address":"6222 Wilshire Blvd 650","City":"Los Angeles","State":"CA","Zip":"90048"},{"Location":"CEDAR SINAI MEDICAL CENT","Address":"444 S San Vicente Blvd 101","City":"Los Angeles","State":"CA","Zip":"90048"},{"Location":"CEDAR-SINAI MEDICAL CENTER","Address":"444 S San Vicente Blvd 701","City":"Los Angeles","State":"CA","Zip":"90048"},{"Location":"CEDARS SINAI MED X-RAY","Address":"444 San Vincente Blvd 601","City":"Los Angeles","State":"CA","Zip":"90048"},{"Location":"CEDARS SINAI MEDICAL CENTER","Address":"8701 W 3rd St 190","City":"Los Angeles","State":"CA","Zip":"90048"},{"Location":"CLARK SWALL HOME OWNERS ASSOC","Address":"128 N Swall Dr","City":"Los Angeles","State":"CA","Zip":"90048"},{"Location":"CLIQUE MEDIA INC","Address":"360 N La Cienega Blvd 3b","City":"Los Angeles","State":"CA","Zip":"90048"},{"Location":"COOL LAVA ENTERTAINMENT","Address":"118 S Harper Ave","City":"Los Angeles","State":"CA","Zip":"90048"},{"Location":"DAMORES PIZZA","Address":"8369 W 3rd St","City":"Los Angeles","State":"CA","Zip":"90048"},{"Location":"DAVIS PARTNERS  LLC","Address":"6420 Wilshire Blvd","City":"Los Angeles","State":"CA","Zip":"90048"},{"Location":"DAVITA #337 CRESCENT HEIGHTS","Address":"8151 Beverly Blvd","City":"Los Angeles","State":"CA","Zip":"90048"},{"Location":"DAVITA #3565 3RD ST","Address":"8635 W 3rd St 560w","City":"Los Angeles","State":"CA","Zip":"90048"},{"Location":"DECRON PROPERTIES","Address":"6222 Wilshire Blvd 400","City":"Los Angeles","State":"CA","Zip":"90048"},{"Location":"DONATIENNE","Address":"8344 And A Half West Third Str","City":"Los Angeles","State":"CA","Zip":"90048"},{"Location":"DORFMAN & RUTT","Address":"6420 Wilshire Blvd 800","City":"Los Angeles","State":"CA","Zip":"90048"},{"Location":"EARLY SULLIVAN WRIGHT","Address":"6420 Wilshire Blvd 17fl","City":"Los Angeles","State":"CA","Zip":"90048"},{"Location":"EBISU SUSHI AND TERIYAKI","Address":"6234 Wilshire Blvd","City":"Los Angeles","State":"CA","Zip":"90048"},{"Location":"ERIC GOFNUNG  CHIROPRATIC CORP","Address":"6221 Wilshire Blvd 604","City":"Los Angeles","State":"CA","Zip":"90048"},{"Location":"ERMA BENITEZ M.D.","Address":"6221 Wilshire Blvd 220","City":"Los Angeles","State":"CA","Zip":"90048"},{"Location":"FABRIZIO PHYSICAL THERAP","Address":"6363 Wilshire Blvd 520","City":"Los Angeles","State":"CA","Zip":"90048"},{"Location":"FOUR SEASON HOTEL GYM","Address":"300 S Doheny Dr","City":"Los Angeles","State":"CA","Zip":"90048"},{"Location":"FOUR SEASONS","Address":"300 S Doheny Dr","City":"Los Angeles","State":"CA","Zip":"90048"},{"Location":"FOUR SEASONS HOTEL POOL","Address":"300 S Doheny Dr","City":"Los Angeles","State":"CA","Zip":"90048"},{"Location":"GEORGE SCHLATTER PROD","Address":"8300 Beverly Blvd","City":"Los Angeles","State":"CA","Zip":"90048"},{"Location":"GOAL SPORT CAFE","Address":"8334 W 3rd St","City":"Los Angeles","State":"CA","Zip":"90048"},{"Location":"GOODYEAR 8623","Address":"8425 Beverly Blvd","City":"Los Angeles","State":"CA","Zip":"90048"},{"Location":"GOURMET COURIER","Address":"8240 Beverly Blvd 7","City":"Los Angeles","State":"CA","Zip":"90048"},{"Location":"HANS THE TAILOR","Address":"8116 W 3rd St","City":"Los Angeles","State":"CA","Zip":"90048"},{"Location":"HEART HUSTLE","Address":"8305 Beverly Blvd 1","City":"Los Angeles","State":"CA","Zip":"90048"},{"Location":"HUNTING LANE FILMS","Address":"8322 Beverly Blvd 201","City":"Los Angeles","State":"CA","Zip":"90048"},{"Location":"IMARTIN BICYCLES","Address":"8330 Beverly Blvd","City":"Los Angeles","State":"CA","Zip":"90048"},{"Location":"IN SYNC ADVERTISING","Address":"6135 Wilshire Blvd 2nd","City":"Los Angeles","State":"CA","Zip":"90048"},{"Location":"INJETSUPERSTORE.COM","Address":"6380 Wilshire Blvd 1018","City":"Los Angeles","State":"CA","Zip":"90048"},{"Location":"JAMES BANKS & CO","Address":"6420 Wilshire Blvd 1000","City":"Los Angeles","State":"CA","Zip":"90048"},{"Location":"JERSEY MIKES SUBS 20107","Address":"6361 Wilshire Blvd","City":"Los Angeles","State":"CA","Zip":"90048"},{"Location":"JIAN BBQ","Address":"8256 Beverly Blvd","City":"Los Angeles","State":"CA","Zip":"90048"},{"Location":"KATHRYN SYKORA HOME AND DESIGN","Address":"7924 Beverly Blvd","City":"Los Angeles","State":"CA","Zip":"90048"},{"Location":"KFZ FOOD INC","Address":"6256 Wilshire Blvd","City":"Los Angeles","State":"CA","Zip":"90048"},{"Location":"KING RD CAFE","Address":"8361 Beverly Blvd","City":"Los Angeles","State":"CA","Zip":"90048"},{"Location":"KLEYNBERG MEDICAL CLINIC","Address":"6221 Wilshire Blvd","City":"Los Angeles","State":"CA","Zip":"90048"},{"Location":"KOUKUK CLINC","Address":"2291 W 205th  St 101","City":"Los Angeles","State":"CA","Zip":"90048"},{"Location":"LARGO","Address":"366 N La Cienega Blvd","City":"Los Angeles","State":"CA","Zip":"90048"},{"Location":"LAVOO","Address":"8108 W 3rd St","City":"Los Angeles","State":"CA","Zip":"90048"},{"Location":"LEXICON MARKETING LLC","Address":"6380 Wilshire Blvd","City":"Los Angeles","State":"CA","Zip":"90048"},{"Location":"LINCO IMPEX","Address":"6336 Wilshire Blvd A","City":"Los Angeles","State":"CA","Zip":"90048"},{"Location":"LINDENHURST LLC","Address":"6370 Lindenhurst Ave","City":"Los Angeles","State":"CA","Zip":"90048"},{"Location":"LONG BEACH FINEST","Address":"327 S Willaman Dr","City":"Los Angeles","State":"CA","Zip":"90048"},{"Location":"MACY'S WEST 512 BR","Address":"8500 Beverly Blvd","City":"Los Angeles","State":"CA","Zip":"90048"},{"Location":"MAMAS SECRET BAKERY","Address":"8314 W 3rd St","City":"Los Angeles","State":"CA","Zip":"90048"},{"Location":"MANDARETTE CHINESE CAFE","Address":"8386 Beverly Blvd","City":"Los Angeles","State":"CA","Zip":"90048"},{"Location":"MCM PROPERTY MANAGEMENT","Address":"6399 Wilshire Blvd 803","City":"Los Angeles","State":"CA","Zip":"90048"},{"Location":"MEN'S WEARHOUSE #2747","Address":"100 N La Cienega Blvd 122","City":"Los Angeles","State":"CA","Zip":"90048"},{"Location":"MERCADO","Address":"7910 W 3rd St","City":"Los Angeles","State":"CA","Zip":"90048"},{"Location":"MILLER PR","Address":"8455 Beverly Blvd 400","City":"Los Angeles","State":"CA","Zip":"90048"},{"Location":"MORGAN SAMUELS COMPANY","Address":"6420 Wilshire Blvd 1100","City":"Los Angeles","State":"CA","Zip":"90048"},{"Location":"MORTON'S BEVERLY HILLS","Address":"435 S La Cienega Blvd","City":"Los Angeles","State":"CA","Zip":"90048"},{"Location":"NEZI HAIR DESIGNER","Address":"8012 W 3rd St","City":"Los Angeles","State":"CA","Zip":"90048"},{"Location":"NORDSTROM RACK BEVERLY CONNECT","Address":"8480 Beverly Blvd","City":"Los Angeles","State":"CA","Zip":"90048"},{"Location":"NORTH END PIZZARIA","Address":"8514 W 3rd St","City":"Los Angeles","State":"CA","Zip":"90048"},{"Location":"NU  IMAGE  INC.","Address":"6423 Wilshire Blvd","City":"Los Angeles","State":"CA","Zip":"90048"},{"Location":"ORTHOPAEDIC CENTER","Address":"444 S San Vicente Blvd 603","City":"Los Angeles","State":"CA","Zip":"90048"},{"Location":"PAIN CENTER","Address":"444 S San Vincente Blvd","City":"Los Angeles","State":"CA","Zip":"90048"},{"Location":"PANINIS CAFE","Address":"8054 W 3rd St","City":"Los Angeles","State":"CA","Zip":"90048"},{"Location":"PIVOTAL PUBLIC RELATIONS","Address":"544 S San Vicente Blvd","City":"Los Angeles","State":"CA","Zip":"90048"},{"Location":"PLANCHA TACO","Address":"8250 W 3rd St","City":"Los Angeles","State":"CA","Zip":"90048"},{"Location":"PRINCIPAL COMMUNICATION GROUP","Address":"8075 W 3rd St 520","City":"Los Angeles","State":"CA","Zip":"90048"},{"Location":"PROJECT TACO","Address":"6325 Wilshire Blvd","City":"Los Angeles","State":"CA","Zip":"90048"},{"Location":"PSYCHIC READINGS","Address":"8320 W 3rd St","City":"Los Angeles","State":"CA","Zip":"90048"},{"Location":"RADAR ONLINE LLC","Address":"6420 Wilshire Blvd 15flr","City":"Los Angeles","State":"CA","Zip":"90048"},{"Location":"RELATIVITY MEDIA","Address":"147 S Doheny Dr","City":"Los Angeles","State":"CA","Zip":"90048"},{"Location":"RIVALRY SPORTS BAR & GRI","Address":"6311 Wilshire Blvd","City":"Los Angeles","State":"CA","Zip":"90048"},{"Location":"SCOOTER BRAUN PROJECTS","Address":"155 N La Peer Dr","City":"Los Angeles","State":"CA","Zip":"90048"},{"Location":"SILVERADO SENIOR LIVING","Address":"330 N Hayworth Ave","City":"Los Angeles","State":"CA","Zip":"90048"},{"Location":"SOFITEL LOS ANGELES","Address":"8555 Beverly Blvd","City":"Los Angeles","State":"CA","Zip":"90048"},{"Location":"SOUTH PARK GROUP INC","Address":"8322 Beverly Blvd 301","City":"Los Angeles","State":"CA","Zip":"90048"},{"Location":"SPINE CENTER #7","Address":"444 S San Vicente Blvd 704","City":"Los Angeles","State":"CA","Zip":"90048"},{"Location":"SPINE CENTER #8","Address":"444 S San Vicente Blvd 800","City":"Los Angeles","State":"CA","Zip":"90048"},{"Location":"STATION BAR & GRILL LLC","Address":"8486 W 3rd St","City":"Los Angeles","State":"CA","Zip":"90048"},{"Location":"SUSHI MON","Address":"8562 W 3rd St","City":"Los Angeles","State":"CA","Zip":"90048"},{"Location":"SUSHI TIME","Address":"8103 1%2F2 Beverly Blvd","City":"Los Angeles","State":"CA","Zip":"90048"},{"Location":"THE AUDIENCE","Address":"8275 Beverly Blvd","City":"Los Angeles","State":"CA","Zip":"90048"},{"Location":"THE JEWISH FEDERATION #2","Address":"6505 Wilshire Blvd","City":"Los Angeles","State":"CA","Zip":"90048"},{"Location":"TRIMANA GRILL","Address":"6246 Wilshire Blvd","City":"Los Angeles","State":"CA","Zip":"90048"},{"Location":"UVASUN","Address":"8242 W 3rd St 100","City":"Los Angeles","State":"CA","Zip":"90048"},{"Location":"VOX INC","Address":"6420 Wilshire Blvd 1080","City":"Los Angeles","State":"CA","Zip":"90048"},{"Location":"WESTSIDE DIALYSIS CENTER","Address":"300 S Robertson Blvd","City":"Los Angeles","State":"CA","Zip":"90048"},{"Location":"WHICH WICH BEV CON","Address":"8495 W 3rd St A","City":"Los Angeles","State":"CA","Zip":"90048"},{"Location":"WILDFIRE STUDIOS","Address":"640 S San Vicente Blvd","City":"Los Angeles","State":"CA","Zip":"90048"},{"Location":"WONDROS","Address":"8330 W 3rd St","City":"Los Angeles","State":"CA","Zip":"90048"},{"Location":"X STUDIOS","Address":"490 S San Vicente Blvd 5","City":"Los Angeles","State":"CA","Zip":"90048"},{"Location":"YOUR MONEY MATTERS","Address":"6399 Wilshire Blvd 1011","City":"Los Angeles","State":"CA","Zip":"90048"},{"Location":"510 DEVELOPMENT CORP","Address":"510 N Robertson Blvd","City":"West Hollywood","State":"CA","Zip":"90048"},{"Location":"CALEEL AGENCY","Address":"144 N Robertson Blvd A","City":"West Hollywood","State":"CA","Zip":"90048"},{"Location":"CEDAR SINAI MEDICAL TRANSPLANT","Address":"8900 Beverly Blvd","City":"West Hollywood","State":"CA","Zip":"90048"},{"Location":"CEDAR-SINAI SURGERY CENTER","Address":"310 N San Vicente Blvd","City":"West Hollywood","State":"CA","Zip":"90048"},{"Location":"CEDARS SINAI BREAST CENT","Address":"310 N San Vicente Blvd 3","City":"West Hollywood","State":"CA","Zip":"90048"},{"Location":"CEDERS SINAI MEDICAL CENTER","Address":"8750 Beverly Blvd A-202","City":"West Hollywood","State":"CA","Zip":"90048"},{"Location":"CHRIS SPIRITO","Address":"358 N Robertson Blvd","City":"West Hollywood","State":"CA","Zip":"90048"},{"Location":"CONTACTS & CONNECTIONS","Address":"425 N Robertson Blvd","City":"West Hollywood","State":"CA","Zip":"90048"},{"Location":"GLOCAL MONITORING","Address":"136 S Clark Dr","City":"West Hollywood","State":"CA","Zip":"90048"},{"Location":"LANDA STEVENS ARCHITECTS","Address":"540 N San Vicente Blvd","City":"West Hollywood","State":"CA","Zip":"90048"},{"Location":"SODA POP","Address":"349 N La Cienega Blvd","City":"West Hollywood","State":"CA","Zip":"90048"},{"Location":"THE CAPITAL GRILLE #8042","Address":"8614 Beverly Blvd","City":"West Hollywood","State":"CA","Zip":"90048"}]