[{"Location":"BULLOCK AUTO","Address":"6565 South Westen Ave","City":"La","State":"CA","Zip":"90047"},{"Location":"AL'S TOWING OPG","Address":"6180 S St Andrews Pl","City":"Los Angeles","State":"CA","Zip":"90047"},{"Location":"ANTOINE LITTLE ANGELS","Address":"11111 S Western Ave","City":"Los Angeles","State":"CA","Zip":"90047"},{"Location":"BARBER SHOP","Address":"1514 W Manchester Ave","City":"Los Angeles","State":"CA","Zip":"90047"},{"Location":"BERTHAS SOUL FOOD CAFE","Address":"1714 W Century Blvd","City":"Los Angeles","State":"CA","Zip":"90047"},{"Location":"BOTTOM LINE","Address":"2066 W Manchester Ave","City":"Los Angeles","State":"CA","Zip":"90047"},{"Location":"BRANDONS FOUCHE","Address":"5979 S St Andrews Pl","City":"Los Angeles","State":"CA","Zip":"90047"},{"Location":"BUCKNER EDUCATIONAL CHRISTIAN","Address":"7422 S Western Ave","City":"Los Angeles","State":"CA","Zip":"90047"},{"Location":"BUDHEAD CLOTHING","Address":"1731 W Florence Ave","City":"Los Angeles","State":"CA","Zip":"90047"},{"Location":"BURGER PALACE 2","Address":"7126 S Western Ave","City":"Los Angeles","State":"CA","Zip":"90047"},{"Location":"C W AND CHRIS FIST","Address":"6512 S Western Ave","City":"Los Angeles","State":"CA","Zip":"90047"},{"Location":"CHESTER WASHINGTON GOLF COURSE","Address":"1930 W 120th St","City":"Los Angeles","State":"CA","Zip":"90047"},{"Location":"CHILE VERDE","Address":"1810 W Slauson Ave","City":"Los Angeles","State":"CA","Zip":"90047"},{"Location":"DENTAL PLAYGROUND","Address":"1810 W Slauson Ave","City":"Los Angeles","State":"CA","Zip":"90047"},{"Location":"DESIREE","Address":"1648 W 79th St 6","City":"Los Angeles","State":"CA","Zip":"90047"},{"Location":"DREAMS AND THINGS SALON","Address":"7875 S Western Ave","City":"Los Angeles","State":"CA","Zip":"90047"},{"Location":"EL  NUEVO RENO","Address":"1439 W Florence Ave","City":"Los Angeles","State":"CA","Zip":"90047"},{"Location":"EL TIBURON NIGHT CLUB","Address":"1537 1%2F2 W Florence Ave","City":"Los Angeles","State":"CA","Zip":"90047"},{"Location":"EL TORIL","Address":"10208 S Western Ave","City":"Los Angeles","State":"CA","Zip":"90047"},{"Location":"FIRST STUDENT","Address":"5950 S St Andrews Pl","City":"Los Angeles","State":"CA","Zip":"90047"},{"Location":"FOUR SQUARE CHURCH MINISTRIES","Address":"1706 W Florence Ave","City":"Los Angeles","State":"CA","Zip":"90047"},{"Location":"GADWA","Address":"1936 W 62nd St A","City":"Los Angeles","State":"CA","Zip":"90047"},{"Location":"GRACE CARE CORP","Address":"2111 W Slauson Ave","City":"Los Angeles","State":"CA","Zip":"90047"},{"Location":"GRACE CARE CORP THREE","Address":"2121 W Slauson Ave","City":"Los Angeles","State":"CA","Zip":"90047"},{"Location":"GRACE CARE CORP TWO","Address":"2107 W Slauson Ave","City":"Los Angeles","State":"CA","Zip":"90047"},{"Location":"GRACE TEMPLE BAPTIST CHURCH","Address":"7017 S Gramercy Pl","City":"Los Angeles","State":"CA","Zip":"90047"},{"Location":"GREATER LOS ANGELES CLUB","Address":"5852 S Western Ave","City":"Los Angeles","State":"CA","Zip":"90047"},{"Location":"IZUCAR AUTO SALES","Address":"10314 S Western Ave","City":"Los Angeles","State":"CA","Zip":"90047"},{"Location":"JACKSONS","Address":"6800 S Western Ave","City":"Los Angeles","State":"CA","Zip":"90047"},{"Location":"JERUSALEM MISSIONARY BAPTIST","Address":"8025 S Western Ave","City":"Los Angeles","State":"CA","Zip":"90047"},{"Location":"JIFFY LUBE 611","Address":"2157 W Manchester Ave","City":"Los Angeles","State":"CA","Zip":"90047"},{"Location":"JIMMY BOOKKEEPING TAX SERVICE","Address":"1516 W Manchester Ave","City":"Los Angeles","State":"CA","Zip":"90047"},{"Location":"L AND J CLEANERS","Address":"1601 W Manchester Ave","City":"Los Angeles","State":"CA","Zip":"90047"},{"Location":"LANCE TOBIAS","Address":"6238 S Manhattan Pl","City":"Los Angeles","State":"CA","Zip":"90047"},{"Location":"LAUNDROMAT ON WESTERN","Address":"8811 S Western Ave","City":"Los Angeles","State":"CA","Zip":"90047"},{"Location":"LEONARDO'S","Address":"1735 W Manchester Ave","City":"Los Angeles","State":"CA","Zip":"90047"},{"Location":"LOVE AND FAITH CHRISTIAN CTR","Address":"8505 S Western Ave","City":"Los Angeles","State":"CA","Zip":"90047"},{"Location":"M&M ADULT ENTERPRISES","Address":"11000 Ruthelen St","City":"Los Angeles","State":"CA","Zip":"90047"},{"Location":"MARK A MOSES DDS","Address":"1839 W Imperial Hwy","City":"Los Angeles","State":"CA","Zip":"90047"},{"Location":"MOORES DAYCARE","Address":"1700 W 120th St","City":"Los Angeles","State":"CA","Zip":"90047"},{"Location":"MT TABOR MISSIONARY BAPTIST","Address":"6614 S Western Ave","City":"Los Angeles","State":"CA","Zip":"90047"},{"Location":"NO MORE KINKS BARBERSHOP","Address":"2105 12 W Century Blvd","City":"Los Angeles","State":"CA","Zip":"90047"},{"Location":"NPMHU","Address":"11139 S Western Ave","City":"Los Angeles","State":"CA","Zip":"90047"},{"Location":"PARK WINDSOR BAPTIST CHURCH","Address":"1842 W 108th St","City":"Los Angeles","State":"CA","Zip":"90047"},{"Location":"PREMIER DIAMOND LLC","Address":"10503 S Western Ave","City":"Los Angeles","State":"CA","Zip":"90047"},{"Location":"RICOS AUTO ELECTRIC CARS","Address":"6320 S Western Ave","City":"Los Angeles","State":"CA","Zip":"90047"},{"Location":"S'S BODY SHOP","Address":"1519 W Florence Ave","City":"Los Angeles","State":"CA","Zip":"90047"},{"Location":"SILVER DOLLAR LIQUOR","Address":"1650 W Manchester Ave","City":"Los Angeles","State":"CA","Zip":"90047"},{"Location":"ST EUGENE","Address":"9505 Haas Ave","City":"Los Angeles","State":"CA","Zip":"90047"},{"Location":"STONEGATE MARKET","Address":"8949 S Western Ave","City":"Los Angeles","State":"CA","Zip":"90047"},{"Location":"SW COLLEGE SHERIFFS STATION2","Address":"1600 W Imperial Hwy","City":"Los Angeles","State":"CA","Zip":"90047"},{"Location":"THE COIN LAUNDRY","Address":"9154 S Western Ave","City":"Los Angeles","State":"CA","Zip":"90047"},{"Location":"THE FOUNDATION","Address":"11633 S Western Ave","City":"Los Angeles","State":"CA","Zip":"90047"},{"Location":"THE RIGHT TRACK","Address":"1732 W Florence Ave","City":"Los Angeles","State":"CA","Zip":"90047"},{"Location":"TOTALY AWESOME","Address":"8915 S Western Ave","City":"Los Angeles","State":"CA","Zip":"90047"},{"Location":"TS CLOTHING","Address":"2108 Manchester Blvd","City":"Los Angeles","State":"CA","Zip":"90047"},{"Location":"VISIONS LLC","Address":"8916 S Western Ave","City":"Los Angeles","State":"CA","Zip":"90047"},{"Location":"WINGSTOP #W0443","Address":"1754 W Slauson Ave","City":"Los Angeles","State":"CA","Zip":"90047"},{"Location":"XZAVIERS PLACE TRANSITIONAL LI","Address":"1418 W 104th St","City":"Los Angeles","State":"CA","Zip":"90047"}]