[{"Location":"AADAP","Address":"5318 Crenshaw Blvd","City":"Los Angeles","State":"CA","Zip":"90043"},{"Location":"ALL SOULS CHRISTIAN CTR","Address":"5125 Crenshaw Blvd","City":"Los Angeles","State":"CA","Zip":"90043"},{"Location":"AMIRA MANAGENT & INVESTM","Address":"4944 Maymont Dr","City":"Los Angeles","State":"CA","Zip":"90043"},{"Location":"BETHESDA TEMPLE CHURCH","Address":"4936 Crenshaw Blvd","City":"Los Angeles","State":"CA","Zip":"90043"},{"Location":"BROKE BALLIN ENTERTNMT","Address":"2216 W 74th St","City":"Los Angeles","State":"CA","Zip":"90043"},{"Location":"BROTHERS BBQ RESTAURANT","Address":"7725 Crenshaw Blvd","City":"Los Angeles","State":"CA","Zip":"90043"},{"Location":"BUCKNER CHRISTIAN ACADEMY","Address":"2330 W Florence Ave","City":"Los Angeles","State":"CA","Zip":"90043"},{"Location":"BURKS","Address":"3739 W Slauson Ave B","City":"Los Angeles","State":"CA","Zip":"90043"},{"Location":"CANALES AUTO REPAIR","Address":"3000 W Slauson Ave","City":"Los Angeles","State":"CA","Zip":"90043"},{"Location":"CECIL M JACKSON","Address":"5917 1%2F2 West Blvd","City":"Los Angeles","State":"CA","Zip":"90043"},{"Location":"CHAMBERS SHOES","Address":"3923 W Slauson Ave","City":"Los Angeles","State":"CA","Zip":"90043"},{"Location":"CHARLIE LIVE ENT","Address":"3140 W Florence Ave","City":"Los Angeles","State":"CA","Zip":"90043"},{"Location":"CHELSEA HOME CARE INC","Address":"6122 S Victoria Ave","City":"Los Angeles","State":"CA","Zip":"90043"},{"Location":"CRENSHAW DOG & CAT HOSPI","Address":"6841 Crenshaw Blvd","City":"Los Angeles","State":"CA","Zip":"90043"},{"Location":"DELUXE BARBER","Address":"7859 Crenshaw Blvd","City":"Los Angeles","State":"CA","Zip":"90043"},{"Location":"EVERYTHING AND MORE TABACCO","Address":"4429 Crenshaw Blvd","City":"Los Angeles","State":"CA","Zip":"90043"},{"Location":"FARMERS INSURANCE","Address":"3819 W Slauson Ave F","City":"Los Angeles","State":"CA","Zip":"90043"},{"Location":"FIRST SECURITY INVESTMENT COMP","Address":"4602 Crenshaw Blvd","City":"Los Angeles","State":"CA","Zip":"90043"},{"Location":"G AND W LIQUOR","Address":"3504 W Slauson Ave","City":"Los Angeles","State":"CA","Zip":"90043"},{"Location":"G DECOHEN","Address":"3410 W 78th Pl","City":"Los Angeles","State":"CA","Zip":"90043"},{"Location":"GLOBAL BEAT ENTERPRISE LLC","Address":"3810 W Slauson Ave","City":"Los Angeles","State":"CA","Zip":"90043"},{"Location":"GOLD RETURN","Address":"5910 Crenshaw Blvd","City":"Los Angeles","State":"CA","Zip":"90043"},{"Location":"GOLDEN WORLD OF HERBS","Address":"7851 Crenshaw Blvd","City":"Los Angeles","State":"CA","Zip":"90043"},{"Location":"GRACE UNITED METHODIST CHURCH","Address":"4112 W Slauson Ave","City":"Los Angeles","State":"CA","Zip":"90043"},{"Location":"HIGHWAY MINISTRIES SOBER LIVIN","Address":"3430 W Slauson Ave","City":"Los Angeles","State":"CA","Zip":"90043"},{"Location":"HNJ INC","Address":"6530 Crenshaw Blvd","City":"Los Angeles","State":"CA","Zip":"90043"},{"Location":"IVY LEAGUE CHRISTIAN PRE","Address":"4827 Crenshaw Blvd","City":"Los Angeles","State":"CA","Zip":"90043"},{"Location":"JOHN SIMMS BARBER","Address":"3819 W Slauson Ave D","City":"Los Angeles","State":"CA","Zip":"90043"},{"Location":"JTS PLACE","Address":"2319 W 54th St","City":"Los Angeles","State":"CA","Zip":"90043"},{"Location":"LA LOUISIANA INC","Address":"5812 Overhill Dr","City":"Los Angeles","State":"CA","Zip":"90043"},{"Location":"LADY SCRAPE KAY CARPOOL","Address":"3123 W 60th St B","City":"Los Angeles","State":"CA","Zip":"90043"},{"Location":"LOTUS CARE CENTER","Address":"6011 West Blvd","City":"Los Angeles","State":"CA","Zip":"90043"},{"Location":"MARTIN ACCOUNTING","Address":"3500 W Slauson Ave","City":"Los Angeles","State":"CA","Zip":"90043"},{"Location":"MODERN VAPOR","Address":"6310 5th Ave","City":"Los Angeles","State":"CA","Zip":"90043"},{"Location":"MT SINAI MISSIONARY BAPTIST","Address":"3674 W 54th St","City":"Los Angeles","State":"CA","Zip":"90043"},{"Location":"NAPPY 2 HAPPY BARBERSHOP","Address":"3205 W Florence Ave","City":"Los Angeles","State":"CA","Zip":"90043"},{"Location":"NEVER TWO MUCH WIRELESS","Address":"4700 Crenshaw Blvd","City":"Los Angeles","State":"CA","Zip":"90043"},{"Location":"NEW JERICHO CHRISTIAN CHURCH","Address":"3010 W 48th St","City":"Los Angeles","State":"CA","Zip":"90043"},{"Location":"ORLEANS & YORK DELI","Address":"4454 W Slauson Ave","City":"Los Angeles","State":"CA","Zip":"90043"},{"Location":"OUR FUTURE LITTLE PEOPLE","Address":"6000 West Blvd","City":"Los Angeles","State":"CA","Zip":"90043"},{"Location":"PUERTO NUEVO","Address":"4445 W Slauson Ave","City":"Los Angeles","State":"CA","Zip":"90043"},{"Location":"RIVER OF LIFE","Address":"3002 W Florence Ave","City":"Los Angeles","State":"CA","Zip":"90043"},{"Location":"ROBERT PRIMM ACCOUNTANT","Address":"4423 W Slauson Ave","City":"Los Angeles","State":"CA","Zip":"90043"},{"Location":"SANTOS TEST ONLY","Address":"4800 Arlington Ave","City":"Los Angeles","State":"CA","Zip":"90043"},{"Location":"SHATTO BANQUET HALL","Address":"3744 W Slauson Ave","City":"Los Angeles","State":"CA","Zip":"90043"},{"Location":"SKIN ANDBEAUTY CARE BY  MARTHA","Address":"5838 Overhill Dr 1","City":"Los Angeles","State":"CA","Zip":"90043"},{"Location":"SLAUSON DONUT","Address":"3451 W Slauson Ave","City":"Los Angeles","State":"CA","Zip":"90043"},{"Location":"SUNSHINE LIQUOR","Address":"2619 W Florence Ave","City":"Los Angeles","State":"CA","Zip":"90043"},{"Location":"TALAWA FIN","Address":"4427 W Slauson Ave","City":"Los Angeles","State":"CA","Zip":"90043"},{"Location":"THE TAVIS SMILEY GROUP","Address":"4434 Crenshaw Blvd","City":"Los Angeles","State":"CA","Zip":"90043"},{"Location":"TISKET A TASKET CATERING","Address":"3850 W Slauson Ave","City":"Los Angeles","State":"CA","Zip":"90043"},{"Location":"TWO PLUS ONE","Address":"3148 W Florence Ave","City":"Los Angeles","State":"CA","Zip":"90043"},{"Location":"WLP FINANCIAL SERVICES","Address":"5349 Crenshaw Blvd St101","City":"Los Angeles","State":"CA","Zip":"90043"},{"Location":"YAD STYLE","Address":"3915 W Slauson Ave","City":"Los Angeles","State":"CA","Zip":"90043"}]