[{"Location":"9021 PHO","Address":"7950 W Sunset Blvd 105","City":"Los Angeles","State":"CA","Zip":"90046"},{"Location":"AIDS HEALTHCARE FOUNDATION","Address":"1710 N Labra Ave","City":"Los Angeles","State":"CA","Zip":"90046"},{"Location":"ANNA PURNA PICTURES","Address":"1 Electra Ct","City":"Los Angeles","State":"CA","Zip":"90046"},{"Location":"ANTONIOS","Address":"7470 Melrose Ave","City":"Los Angeles","State":"CA","Zip":"90046"},{"Location":"AV SQUAD INC","Address":"7750 W Sunset Blvd","City":"Los Angeles","State":"CA","Zip":"90046"},{"Location":"AV SQUAD INC 2","Address":"8000 W Sunset Blvd B330","City":"Los Angeles","State":"CA","Zip":"90046"},{"Location":"BEL AIR GUEST HOME","Address":"1440 N Stanley Ave","City":"Los Angeles","State":"CA","Zip":"90046"},{"Location":"BUGATTA","Address":"7174 Melrose Ave","City":"Los Angeles","State":"CA","Zip":"90046"},{"Location":"CHEEBO","Address":"7533 W Sunset Blvd","City":"Los Angeles","State":"CA","Zip":"90046"},{"Location":"EDUARD GUTGARTS D.D.S","Address":"1510 N Poinsettia Pl","City":"Los Angeles","State":"CA","Zip":"90046"},{"Location":"EVO KITCHEN","Address":"7950 W Sunset Blvd 104","City":"Los Angeles","State":"CA","Zip":"90046"},{"Location":"FAMILY THEATER PRODUCTION","Address":"7201 W Sunset Blvd","City":"Los Angeles","State":"CA","Zip":"90046"},{"Location":"FRANKIES NEW YORK ITALIAN","Address":"7228 Melrose Ave","City":"Los Angeles","State":"CA","Zip":"90046"},{"Location":"FRATELLI CAFE","Address":"7200 Melrose Ave","City":"Los Angeles","State":"CA","Zip":"90046"},{"Location":"GEN CHOS COHEN","Address":"740 N Fairfax Ave","City":"Los Angeles","State":"CA","Zip":"90046"},{"Location":"GOLDEN VIOLET LLC","Address":"2182 Beech Knoll Rd","City":"Los Angeles","State":"CA","Zip":"90046"},{"Location":"H2 MEDICAL SERVICES","Address":"2126 Labrea St 104","City":"Los Angeles","State":"CA","Zip":"90046"},{"Location":"HAMMER AND NAILS SALONS INC","Address":"8257 Melrose Ave","City":"Los Angeles","State":"CA","Zip":"90046"},{"Location":"HOYS WOK","Address":"7105 W Sunset Blvd","City":"Los Angeles","State":"CA","Zip":"90046"},{"Location":"IMPROV","Address":"8156 Melrose Ave","City":"Los Angeles","State":"CA","Zip":"90046"},{"Location":"INT'S CINEMATOGROPHERS GUILD","Address":"7755 W Sunset Blvd","City":"Los Angeles","State":"CA","Zip":"90046"},{"Location":"JIFFY LUBE 1470","Address":"700 N Labrea","City":"Los Angeles","State":"CA","Zip":"90046"},{"Location":"KOREATOWN COLLECTIVE","Address":"7382 Melrose Ave","City":"Los Angeles","State":"CA","Zip":"90046"},{"Location":"L'ASSIETTE STEAK FRITES","Address":"7166 Melrose Ave","City":"Los Angeles","State":"CA","Zip":"90046"},{"Location":"LA CONFIDENTIAL CARE","Address":"7263 Melrose Ave","City":"Los Angeles","State":"CA","Zip":"90046"},{"Location":"LA LAS","Address":"7229 Melrose Ave","City":"Los Angeles","State":"CA","Zip":"90046"},{"Location":"LYONS DEVELOPMENT","Address":"1894 N Stanley Ave","City":"Los Angeles","State":"CA","Zip":"90046"},{"Location":"MAC WORLDWIDE INC","Address":"7551 W Sunset Blvd","City":"Los Angeles","State":"CA","Zip":"90046"},{"Location":"MALIBU FISH GRILL 5","Address":"8000 W Sunset Blvd","City":"Los Angeles","State":"CA","Zip":"90046"},{"Location":"MOSAIC LA CHURCH","Address":"7107 Hollywood Blvd","City":"Los Angeles","State":"CA","Zip":"90046"},{"Location":"MULHOLAND TENNIS CLUB","Address":"2555 Crest View Dr","City":"Los Angeles","State":"CA","Zip":"90046"},{"Location":"NAHA LLC DBA BROOKLYN PROJECTS","Address":"7427 Melrose Ave","City":"Los Angeles","State":"CA","Zip":"90046"},{"Location":"NAIL CITY","Address":"7709 Melrose Ave","City":"Los Angeles","State":"CA","Zip":"90046"},{"Location":"NAZKOR LLC","Address":"8117 W Sunset Blvd","City":"Los Angeles","State":"CA","Zip":"90046"},{"Location":"NEW ERA","Address":"8001 Melrose Ave","City":"Los Angeles","State":"CA","Zip":"90046"},{"Location":"O WASABI SUSHI INC.","Address":"8162 W Sunset Blvd","City":"Los Angeles","State":"CA","Zip":"90046"},{"Location":"PAMPER HANDS NAIL SALON","Address":"7215 Melrose Ave","City":"Los Angeles","State":"CA","Zip":"90046"},{"Location":"PASHA TOBACCO LOUNGE","Address":"7982 W Sunset Blvd","City":"Los Angeles","State":"CA","Zip":"90046"},{"Location":"PISTOL AND STAMEN","Address":"7811 W Sunset Blvd","City":"Los Angeles","State":"CA","Zip":"90046"},{"Location":"PITFIRE PIZZA LLC","Address":"801 N Fairfax Ave","City":"Los Angeles","State":"CA","Zip":"90046"},{"Location":"RDBLA","Address":"7318 W Sunset Blvd","City":"Los Angeles","State":"CA","Zip":"90046"},{"Location":"RED O RESTAURANT","Address":"8155 Melrose Ave","City":"Los Angeles","State":"CA","Zip":"90046"},{"Location":"RODS AUTO","Address":"1451 N Sierra Bonita Ave","City":"Los Angeles","State":"CA","Zip":"90046"},{"Location":"SANDRO CORPORATION 1","Address":"2100 Laurel Canyon Blvd","City":"Los Angeles","State":"CA","Zip":"90046"},{"Location":"SEVEN MELROSE LLC","Address":"7302 Melrose Ave","City":"Los Angeles","State":"CA","Zip":"90046"},{"Location":"SSI-ADVANCED POST SERVICES","Address":"7165 W Sunset Blvd","City":"Los Angeles","State":"CA","Zip":"90046"},{"Location":"STEAK PIT","Address":"7529 Melrose Ave","City":"Los Angeles","State":"CA","Zip":"90046"},{"Location":"SUNSET CAR WASH","Address":"7955 W Sunset Blvd","City":"Los Angeles","State":"CA","Zip":"90046"},{"Location":"SUNSET HERBAL CORNER","Address":"7225 W Sunset Blvd","City":"Los Angeles","State":"CA","Zip":"90046"},{"Location":"SUNSET LAUNDRACLEAN","Address":"8201 Melrose Ave","City":"Los Angeles","State":"CA","Zip":"90046"},{"Location":"SUPER DONUT","Address":"7307 W Sunset Blvd A","City":"Los Angeles","State":"CA","Zip":"90046"},{"Location":"SUSHI DAN","Address":"8000 W Sunset Blvd A202","City":"Los Angeles","State":"CA","Zip":"90046"},{"Location":"TACO LOVE","Address":"7980 W Sunset Blvd","City":"Los Angeles","State":"CA","Zip":"90046"},{"Location":"THE CITY CHURCH LA","Address":"2950 Okean Pl","City":"Los Angeles","State":"CA","Zip":"90046"},{"Location":"THE COUNTER W HOLLYWOOD","Address":"7919 W Sunset Blvd","City":"Los Angeles","State":"CA","Zip":"90046"},{"Location":"THE FAT DOG","Address":"801 North Fairfax Street Nort","City":"Los Angeles","State":"CA","Zip":"90046"},{"Location":"THE GRIDDLE CAFE","Address":"7916 W Sunset Blvd","City":"Los Angeles","State":"CA","Zip":"90046"},{"Location":"THE HILLS TREAT CENTER LLC","Address":"8207 Mulholland Dr","City":"Los Angeles","State":"CA","Zip":"90046"},{"Location":"THE JOSHUA APARTMENTS","Address":"1353 N Martel Ave","City":"Los Angeles","State":"CA","Zip":"90046"},{"Location":"THE MOMENT HOTEL","Address":"7370 W Sunset Blvd","City":"Los Angeles","State":"CA","Zip":"90046"},{"Location":"THE PARLOR","Address":"7250 Melrose Ave 1-2","City":"Los Angeles","State":"CA","Zip":"90046"},{"Location":"TOI ON SUNSETS","Address":"7505 12 W Sunset Blvd","City":"Los Angeles","State":"CA","Zip":"90046"},{"Location":"TSHIRTS PLUS","Address":"7115 W Sunset Blvd","City":"Los Angeles","State":"CA","Zip":"90046"},{"Location":"TVI ENTERPRISES LLC","Address":"7383 Melrose Ave","City":"Los Angeles","State":"CA","Zip":"90046"},{"Location":"VIP SMOKE SHOP","Address":"7131 W Sunset Blvd A","City":"Los Angeles","State":"CA","Zip":"90046"},{"Location":"WORLD ENT. NEWS NETWORK","Address":"7551 Melrose Ave 10","City":"Los Angeles","State":"CA","Zip":"90046"},{"Location":"AND COMPANY LLC","Address":"8240 W Sunset Blvd","City":"West Hollywood","State":"CA","Zip":"90046"},{"Location":"ANIMA SOLA PRODUCTIONS","Address":"1041 N Formosa Ave 6","City":"West Hollywood","State":"CA","Zip":"90046"},{"Location":"AUDIO HEAD","Address":"1041 N Formosa Ave","City":"West Hollywood","State":"CA","Zip":"90046"},{"Location":"BAJA FRESH LA BREA","Address":"7100 Santa Monica Blvd 145","City":"West Hollywood","State":"CA","Zip":"90046"},{"Location":"BEACH NATION","Address":"8289 Santa Monica Blvd","City":"West Hollywood","State":"CA","Zip":"90046"},{"Location":"BLACK BICYCLE ENTERTAIN","Address":"1041 N Formosa%2C Writers10","City":"West Hollywood","State":"CA","Zip":"90046"},{"Location":"BLUE COLLAR PRODUCTIONS","Address":"1041 N Formosa Ave 210","City":"West Hollywood","State":"CA","Zip":"90046"},{"Location":"BRICK NATION","Address":"7811 Santa Monica Blvd","City":"West Hollywood","State":"CA","Zip":"90046"},{"Location":"CINETEL FILMS","Address":"8255 W Sunset Blvd","City":"West Hollywood","State":"CA","Zip":"90046"},{"Location":"CT NAILS","Address":"7868 Santa Monica Blvd","City":"West Hollywood","State":"CA","Zip":"90046"},{"Location":"ECHI SUSHI","Address":"8267 Santa Monica Blvd","City":"West Hollywood","State":"CA","Zip":"90046"},{"Location":"FINAL TOUCH COLLISION","Address":"7496 Santa Monica Blvd","City":"West Hollywood","State":"CA","Zip":"90046"},{"Location":"FLYNN PICTURE COMPANY","Address":"7255 Santa Monica Blvd 2nd","City":"West Hollywood","State":"CA","Zip":"90046"},{"Location":"FRENCH QUARTER RESTAURANT","Address":"7985 Santa Monica Blvd","City":"West Hollywood","State":"CA","Zip":"90046"},{"Location":"FUBAR","Address":"7994 Santa Monica Blvd","City":"West Hollywood","State":"CA","Zip":"90046"},{"Location":"FUNNY OR DIE","Address":"1041 N Formosa Ave","City":"West Hollywood","State":"CA","Zip":"90046"},{"Location":"GARY SANCHEZ PRODUCTIONS","Address":"1041 N Formosa Ave","City":"West Hollywood","State":"CA","Zip":"90046"},{"Location":"HAMBURGER MARYS","Address":"8288 Santa Monica Blvd","City":"West Hollywood","State":"CA","Zip":"90046"},{"Location":"HOT N JUICY CRAWFISH","Address":"7100 Santa Monica Blvd 150","City":"West Hollywood","State":"CA","Zip":"90046"},{"Location":"I TENNIS 2","Address":"1200 N Vista St","City":"West Hollywood","State":"CA","Zip":"90046"},{"Location":"IGLOW AND BACHRACH","Address":"1515 N Crescent Heights Blvd","City":"West Hollywood","State":"CA","Zip":"90046"},{"Location":"JERSEY MIKES","Address":"7100 Santa Monica Blvd 153","City":"West Hollywood","State":"CA","Zip":"90046"},{"Location":"KIMBLE HAIR STUDIO","Address":"8280 Santa Monica Blvd","City":"West Hollywood","State":"CA","Zip":"90046"},{"Location":"KUNG PAO BISTRO","Address":"7853 Santa Monica Blvd","City":"West Hollywood","State":"CA","Zip":"90046"},{"Location":"MARIAS FLUFF AND FOLD","Address":"7757 Santa Monica Blvd","City":"West Hollywood","State":"CA","Zip":"90046"},{"Location":"MISCELLANEOUS ENTERTAINMENT","Address":"8212 W Sunset Blvd","City":"West Hollywood","State":"CA","Zip":"90046"},{"Location":"MOCAFE INC","Address":"7900 Santa Monica Blvd","City":"West Hollywood","State":"CA","Zip":"90046"},{"Location":"MONEM CORPORATION","Address":"7772 Santa Monica Blvd","City":"West Hollywood","State":"CA","Zip":"90046"},{"Location":"MONICA WEST HAIR SALON","Address":"8236 Santa Monica Blvd","City":"West Hollywood","State":"CA","Zip":"90046"},{"Location":"NCOMPASS INTERNATIONAL INC","Address":"8223 Santa Monica Blvd","City":"West Hollywood","State":"CA","Zip":"90046"},{"Location":"NIKO NIKO LONG BEACH","Address":"7100 Santa Monica Blvd 158","City":"West Hollywood","State":"CA","Zip":"90046"},{"Location":"NOW BOARDING","Address":"7746 Santa Monica Blvd","City":"West Hollywood","State":"CA","Zip":"90046"},{"Location":"OMI SUSHI","Address":"8163 Santa Monica Blvd","City":"West Hollywood","State":"CA","Zip":"90046"},{"Location":"OPRAH WINFREY NETWORK","Address":"1041 N Formosa Ave Fsb","City":"West Hollywood","State":"CA","Zip":"90046"},{"Location":"OPRAH WINFREY NETWORK","Address":"1041 N Formosa Ave","City":"West Hollywood","State":"CA","Zip":"90046"},{"Location":"OPRAH WINFREY NETWORKS","Address":"1041 N Formosa Ave Fsb","City":"West Hollywood","State":"CA","Zip":"90046"},{"Location":"OWN","Address":"1041 N Formosa Ave Fsb","City":"West Hollywood","State":"CA","Zip":"90046"},{"Location":"OWN OPERA WINFREY NETWORK","Address":"1041 N Formosa Ave Fsb","City":"West Hollywood","State":"CA","Zip":"90046"},{"Location":"PINK TACO","Address":"8225 W Sunset Blvd","City":"West Hollywood","State":"CA","Zip":"90046"},{"Location":"PSYCHIC SHOP","Address":"7868 1%2F2 Santa Monica Blvd","City":"West Hollywood","State":"CA","Zip":"90046"},{"Location":"RAVENITE LLC","Address":"7710 Santa Monica Blvd","City":"West Hollywood","State":"CA","Zip":"90046"},{"Location":"SAMMYS THAI","Address":"8281 Santa Monica Blvd","City":"West Hollywood","State":"CA","Zip":"90046"},{"Location":"SC GAS COMPANY","Address":"7171 Romaine St","City":"West Hollywood","State":"CA","Zip":"90046"},{"Location":"SMASHBOX STUDIOS","Address":"1011 N Fuller Ave","City":"West Hollywood","State":"CA","Zip":"90046"},{"Location":"STUDIO LENDING GROUP","Address":"1041 N Formosa Ave","City":"West Hollywood","State":"CA","Zip":"90046"},{"Location":"STUDS THEATER","Address":"7734 Santa Monica Blvd","City":"West Hollywood","State":"CA","Zip":"90046"},{"Location":"SURLY GOAT","Address":"7929 Santa Monica Blvd","City":"West Hollywood","State":"CA","Zip":"90046"},{"Location":"TARGET","Address":"7100 Santa Monica Blvd","City":"West Hollywood","State":"CA","Zip":"90046"},{"Location":"THE DEN","Address":"8226 W Sunset Blvd","City":"West Hollywood","State":"CA","Zip":"90046"},{"Location":"THE HUDSON","Address":"1114 N Crscnt Hts Blvd","City":"West Hollywood","State":"CA","Zip":"90046"},{"Location":"THE INTEREST","Address":"8285 W Sunset Blvd 7","City":"West Hollywood","State":"CA","Zip":"90046"},{"Location":"THE PALADIN GROUP","Address":"1011 N Fuller Ave","City":"West Hollywood","State":"CA","Zip":"90046"},{"Location":"THE W SALON","Address":"8270 Santa Monica Blvd","City":"West Hollywood","State":"CA","Zip":"90046"},{"Location":"TINT O","Address":"7511 Santa Monica Blvd","City":"West Hollywood","State":"CA","Zip":"90046"},{"Location":"UNBREAKABLE PERFORMANCE","Address":"8225 W Sunset Blvd","City":"West Hollywood","State":"CA","Zip":"90046"},{"Location":"VODA SPA","Address":"7700 Santa Monica Blvd","City":"West Hollywood","State":"CA","Zip":"90046"},{"Location":"WHOLE FOODS MARKET #20","Address":"7871 Santa Monica Blvd","City":"West Hollywood","State":"CA","Zip":"90046"}]