[{"Location":"NICKYS NAILS TOO","Address":"1578 Colorado Blvd 11","City":"Eagle Rock","State":"CA","Zip":"90041"},{"Location":"QUEEN NAILS","Address":"1747 Colorado Blvd","City":"Eagle Rock","State":"CA","Zip":"90041"},{"Location":"XTREME TRAINING CENTER","Address":"2131 Colorado Blvd","City":"Eagle Rock","State":"CA","Zip":"90041"},{"Location":"16 COLORADO LLC","Address":"1630 Colorado Blvd","City":"Los Angeles","State":"CA","Zip":"90041"},{"Location":"5 LINE %40 BMPP  INC","Address":"2136 Colorado Blvd B","City":"Los Angeles","State":"CA","Zip":"90041"},{"Location":"ALL STAR LANES","Address":"4459 Eagle Rock Blvd","City":"Los Angeles","State":"CA","Zip":"90041"},{"Location":"BEDE","Address":"4633 Eagle Rock Blvd","City":"Los Angeles","State":"CA","Zip":"90041"},{"Location":"BUDGET PRO BYCLE","Address":"2750 Colorado Blvd 5","City":"Los Angeles","State":"CA","Zip":"90041"},{"Location":"CALI Z CARS","Address":"2101 Colorado Blvd","City":"Los Angeles","State":"CA","Zip":"90041"},{"Location":"CARTK COLLISION","Address":"4802 Eagle Rock Blvd","City":"Los Angeles","State":"CA","Zip":"90041"},{"Location":"CARTK COLLSION","Address":"4802 Eagle Rock Blvd","City":"Los Angeles","State":"CA","Zip":"90041"},{"Location":"COLLEGE VISTA  HOSPITAL","Address":"4681 Eagle Rock Blvd","City":"Los Angeles","State":"CA","Zip":"90041"},{"Location":"COLUMBOS ITALIAN STEAKHO","Address":"1833 Colorado Blvd","City":"Los Angeles","State":"CA","Zip":"90041"},{"Location":"CORNERSTONE RESEARCH INC","Address":"2551 Colorado Blvd","City":"Los Angeles","State":"CA","Zip":"90041"},{"Location":"DS WATERS OF AMERICA","Address":"4500 York Blvd C","City":"Los Angeles","State":"CA","Zip":"90041"},{"Location":"EPN - LYNN M JOHNSON","Address":"7470 N Figueroa St Fl3","City":"Los Angeles","State":"CA","Zip":"90041"},{"Location":"F.O.E 2188","Address":"1596 Yosemite Dr","City":"Los Angeles","State":"CA","Zip":"90041"},{"Location":"FIREFIGHTERS FIRST CREDIT UNIO","Address":"815 Colorado Blvd","City":"Los Angeles","State":"CA","Zip":"90041"},{"Location":"JONES AND MALHOTRA","Address":"825 Colorado Blvd","City":"Los Angeles","State":"CA","Zip":"90041"},{"Location":"LOS ANGELES FIREMENS RELIEF","Address":"815 Colorado Blvd","City":"Los Angeles","State":"CA","Zip":"90041"},{"Location":"LUBE MASTERS","Address":"2805 Colorado Blvd","City":"Los Angeles","State":"CA","Zip":"90041"},{"Location":"MACY'S WEST 509 BR","Address":"2828 Colorado Blvd","City":"Los Angeles","State":"CA","Zip":"90041"},{"Location":"METROPOLITAN WATER DISTRICT","Address":"7800 N Figueroa St","City":"Los Angeles","State":"CA","Zip":"90041"},{"Location":"MOUNTAIN VIEW TIRE","Address":"2621 Colorado Blvd","City":"Los Angeles","State":"CA","Zip":"90041"},{"Location":"NATIONS BANCORP","Address":"1576 Colorado Blvd","City":"Los Angeles","State":"CA","Zip":"90041"},{"Location":"NEW YORK CUTS","Address":"4581 York Blvd","City":"Los Angeles","State":"CA","Zip":"90041"},{"Location":"OCCIDENTAL COLLEGE","Address":"1600 Campus Rd","City":"Los Angeles","State":"CA","Zip":"90041"},{"Location":"OCCIDENTAL COLLEGE","Address":"1600 Campus Rd Bldg0","City":"Los Angeles","State":"CA","Zip":"90041"},{"Location":"OCCIDENTIAL COLLEGE","Address":"1600 Campus Rd","City":"Los Angeles","State":"CA","Zip":"90041"},{"Location":"OMA FELLOWSHIP","Address":"4576 Alumni Ave","City":"Los Angeles","State":"CA","Zip":"90041"},{"Location":"PHILUSE INC","Address":"2750 Colorado Blvd 2","City":"Los Angeles","State":"CA","Zip":"90041"},{"Location":"PINK PASSION NAIL STUDIO","Address":"4303 Eagle Rock Blvd","City":"Los Angeles","State":"CA","Zip":"90041"},{"Location":"PIPOES NAIL SALON","Address":"2902 Colorado Blvd","City":"Los Angeles","State":"CA","Zip":"90041"},{"Location":"REACH OUR COMMUNICTY KIDS","Address":"4808 Townsen Ave","City":"Los Angeles","State":"CA","Zip":"90041"},{"Location":"SIERRA PACIFIC DENTAL","Address":"2700 Colorado Blvd 263","City":"Los Angeles","State":"CA","Zip":"90041"},{"Location":"SIZZLER 110","Address":"2516 Colorado Blvd","City":"Los Angeles","State":"CA","Zip":"90041"},{"Location":"STATE FARM INS","Address":"850 Colorado Blvd 204","City":"Los Angeles","State":"CA","Zip":"90041"},{"Location":"THAI SPIRIT RESTARAUNT","Address":"2617 Colorado Blvd","City":"Los Angeles","State":"CA","Zip":"90041"},{"Location":"THE COFFEE TABLE","Address":"1958 Colorado Blvd","City":"Los Angeles","State":"CA","Zip":"90041"},{"Location":"WESTERN DOMINICAN PROVINCE","Address":"2002 Merton Ave","City":"Los Angeles","State":"CA","Zip":"90041"}]