[{"Location":"99 CENT ONLY STORE LLC 1","Address":"2601 S Malt Ave","City":"Commerce","State":"CA","Zip":"90040"},{"Location":"99 CENT ONLY STORE LLC 2","Address":"5804 E Slauson Ave B","City":"Commerce","State":"CA","Zip":"90040"},{"Location":"99 CENT ONLY STORES LLC","Address":"5804 E Slauson Ave","City":"Commerce","State":"CA","Zip":"90040"},{"Location":"A1 METAL PRODUCTS INC","Address":"2707 Supply Ave","City":"Commerce","State":"CA","Zip":"90040"},{"Location":"ALHC","Address":"5801 E Washington Blvd","City":"Commerce","State":"CA","Zip":"90040"},{"Location":"ALLAN COMPANY","Address":"5811 E 61st St","City":"Commerce","State":"CA","Zip":"90040"},{"Location":"ALLOY MACHINING","Address":"2808 Supply Ave","City":"Commerce","State":"CA","Zip":"90040"},{"Location":"ALTAMED HEALTH SERVICES","Address":"2040 Camfield Ave","City":"Commerce","State":"CA","Zip":"90040"},{"Location":"AQUI ES TAXCOCO","Address":"5850 S Eastern Ave","City":"Commerce","State":"CA","Zip":"90040"},{"Location":"ATT CREDIT & COLLECTIONS","Address":"2420 Yates Ave 200","City":"Commerce","State":"CA","Zip":"90040"},{"Location":"BIO HAZRD","Address":"2800 Supply Ave","City":"Commerce","State":"CA","Zip":"90040"},{"Location":"CALIFORNIA PRODUCE","Address":"6818 Watcher St","City":"Commerce","State":"CA","Zip":"90040"},{"Location":"CALIFORNIA WATER SERVICE","Address":"5243 Sheila St","City":"Commerce","State":"CA","Zip":"90040"},{"Location":"CALIFORNIA WATER SERVICES","Address":"2000 S Tubeway Ave","City":"Commerce","State":"CA","Zip":"90040"},{"Location":"CASINO","Address":"6131 Telegraph Rd","City":"Commerce","State":"CA","Zip":"90040"},{"Location":"CASSISEVAN INC","Address":"6444 Fleet St","City":"Commerce","State":"CA","Zip":"90040"},{"Location":"CENTRAL BASIN MUNICIPAL WATER","Address":"6252 Telegraph Rd","City":"Commerce","State":"CA","Zip":"90040"},{"Location":"CITY TRIANGLES","Address":"6015 Bandini Blvd","City":"Commerce","State":"CA","Zip":"90040"},{"Location":"CJ FOODVILLE USA INC","Address":"6834 E Slauson Ave","City":"Commerce","State":"CA","Zip":"90040"},{"Location":"CO LOS ANGELES FIRE DEPT","Address":"5801 S Eastern Ave 100","City":"Commerce","State":"CA","Zip":"90040"},{"Location":"COLLIERS INTERNATIONAL","Address":"5100 S Eastern Ave 100","City":"Commerce","State":"CA","Zip":"90040"},{"Location":"COLOR  IMAGE","Address":"6670 Flotilla St","City":"Commerce","State":"CA","Zip":"90040"},{"Location":"COLOR IMAGE APPAREL","Address":"6687 Flotilla St","City":"Commerce","State":"CA","Zip":"90040"},{"Location":"COMMERCE CASINO - OFFICE ACCT","Address":"6131 Telegraph Rd","City":"Commerce","State":"CA","Zip":"90040"},{"Location":"CROWNE PLAZA HOTEL","Address":"6121 Telegraph Rd","City":"Commerce","State":"CA","Zip":"90040"},{"Location":"DAVID TEXTILE INC","Address":"1920 S Tubeway Ave","City":"Commerce","State":"CA","Zip":"90040"},{"Location":"DELREY MARKETING","Address":"6055 E Washington Blvd 990","City":"Commerce","State":"CA","Zip":"90040"},{"Location":"ECO MODITYE LLC","Address":"6050 Rickenbacker Rd","City":"Commerce","State":"CA","Zip":"90040"},{"Location":"EL CAFE TALITO","Address":"5300 E Washington Blvd","City":"Commerce","State":"CA","Zip":"90040"},{"Location":"EL PUB TROQUERO","Address":"5446 E Washington Blvd","City":"Commerce","State":"CA","Zip":"90040"},{"Location":"ENRIQUEZ MATERIALS & QUILTING","Address":"6501 Flotilla St","City":"Commerce","State":"CA","Zip":"90040"},{"Location":"EVY OF CALIFORNIA","Address":"2042 Garfield Ave","City":"Commerce","State":"CA","Zip":"90040"},{"Location":"GALAXY ENTERPRISES","Address":"5964 E Slauson Ave","City":"Commerce","State":"CA","Zip":"90040"},{"Location":"GALLO      WINE","Address":"2700 S Eastern Ave","City":"Commerce","State":"CA","Zip":"90040"},{"Location":"GALLO WINE","Address":"2650 Commerce Way","City":"Commerce","State":"CA","Zip":"90040"},{"Location":"GIBSON OVERSEAS INC","Address":"2410 Yates Ave","City":"Commerce","State":"CA","Zip":"90040"},{"Location":"HEALTHWORKS COMMERCE","Address":"3430 Garfield Ave","City":"Commerce","State":"CA","Zip":"90040"},{"Location":"HEGER INDUSTRIAL","Address":"5701 S Eastern Ave 100","City":"Commerce","State":"CA","Zip":"90040"},{"Location":"HOWARD BASS AND ASSOCIAT","Address":"6040 Bandini Blvd","City":"Commerce","State":"CA","Zip":"90040"},{"Location":"IBEW LOCAL 11","Address":"6023 Garfield Ave","City":"Commerce","State":"CA","Zip":"90040"},{"Location":"INSUL THERM INTERNATIONAL INC","Address":"6651 E 26th St","City":"Commerce","State":"CA","Zip":"90040"},{"Location":"JOHN A BATCHELOR","Address":"5922 Triumph St","City":"Commerce","State":"CA","Zip":"90040"},{"Location":"KING TACO RESTAURANTS INC","Address":"6055 E Washington Blvd 700","City":"Commerce","State":"CA","Zip":"90040"},{"Location":"KOBERT","Address":"6131 Garfield Ave","City":"Commerce","State":"CA","Zip":"90040"},{"Location":"L A COUNTY DIST ATTORNEY OFC","Address":"5900 S Eastern Ave 126","City":"Commerce","State":"CA","Zip":"90040"},{"Location":"L.A. CLEARING HOUSE","Address":"5700 S Eastern Ave","City":"Commerce","State":"CA","Zip":"90040"},{"Location":"LA CLEAR","Address":"5801 E Slauson Ave","City":"Commerce","State":"CA","Zip":"90040"},{"Location":"LA CNTY DORTHY KIRBY 1","Address":"1500 S Mcdonnell Ave","City":"Commerce","State":"CA","Zip":"90040"},{"Location":"LA CNTY DORTHY KIRBY 2","Address":"1500 S Mcdonnell Ave","City":"Commerce","State":"CA","Zip":"90040"},{"Location":"LA CNTY DORTHY KIRBY 3","Address":"1500 S Mcdonnell Ave","City":"Commerce","State":"CA","Zip":"90040"},{"Location":"LA CO SHERIFF'S HOMICIDE INV","Address":"5747 Rickenbacker Rd","City":"Commerce","State":"CA","Zip":"90040"},{"Location":"LA COUNTY DPSS AOM HDQTERS","Address":"2700 Garfield Ave","City":"Commerce","State":"CA","Zip":"90040"},{"Location":"LA COUNTY FIRE DEPARTMENT","Address":"583 Rickenbacker Rd","City":"Commerce","State":"CA","Zip":"90040"},{"Location":"LA COUNTY FIRE DEPT","Address":"5825 Rickenbacker Rd","City":"Commerce","State":"CA","Zip":"90040"},{"Location":"LA IMPACT","Address":"5700 S Eastern Ave","City":"Commerce","State":"CA","Zip":"90040"},{"Location":"LOS ANGELES DISTRICT ATTORNEY","Address":"5300 Harbor St","City":"Commerce","State":"CA","Zip":"90040"},{"Location":"MAGUEY SPORTS BAR & GRILL","Address":"5280 E Washington Blvd","City":"Commerce","State":"CA","Zip":"90040"},{"Location":"MEDICLEAN INC","Address":"4500 Dunham St","City":"Commerce","State":"CA","Zip":"90040"},{"Location":"MERIDIAN TEXTILE","Address":"6415 Canning St","City":"Commerce","State":"CA","Zip":"90040"},{"Location":"MOBLIE TRAILER WORKS","Address":"2925 Vail Ave","City":"Commerce","State":"CA","Zip":"90040"},{"Location":"NEW CENTURY SNACKS INC","Address":"5560 E Slauson Ave","City":"Commerce","State":"CA","Zip":"90040"},{"Location":"NICSON AUTOMOTIVE  INC","Address":"5117 E Washington Blvd","City":"Commerce","State":"CA","Zip":"90040"},{"Location":"NIKE INC","Address":"100 Citadel Dr 561","City":"Commerce","State":"CA","Zip":"90040"},{"Location":"ONTRAC - COMMERCE","Address":"5959 Randolph St","City":"Commerce","State":"CA","Zip":"90040"},{"Location":"PORTOS FOOD PRODUCTS","Address":"2085 Garfield Ave","City":"Commerce","State":"CA","Zip":"90040"},{"Location":"ROBERT WAYNE FOOTWEAR","Address":"2638 Yates Ave","City":"Commerce","State":"CA","Zip":"90040"},{"Location":"ROBERT WAYNE FOOTWEAR","Address":"5303 E Washington Blvd","City":"Commerce","State":"CA","Zip":"90040"},{"Location":"SMART AND FINAL INC2","Address":"5500 Sheila St","City":"Commerce","State":"CA","Zip":"90040"},{"Location":"ST OF CA DEPT INSURANCE","Address":"5999 E Slauson Ave","City":"Commerce","State":"CA","Zip":"90040"},{"Location":"STEVENS STEAK & SEAFOOD HOUSE","Address":"5332 Stevens Pl","City":"Commerce","State":"CA","Zip":"90040"},{"Location":"SUPER A FOODS","Address":"7200 Dominion Cir","City":"Commerce","State":"CA","Zip":"90040"},{"Location":"SUPER CUTE'S BARBERSHOP","Address":"2333 S Atlantic Blvd","City":"Commerce","State":"CA","Zip":"90040"},{"Location":"SUPERIOR EQUIPMENT SOLUTIONS","Address":"7039 E Slauson Ave","City":"Commerce","State":"CA","Zip":"90040"},{"Location":"TACOS EL CHARRO","Address":"5900 E Washington Blvd","City":"Commerce","State":"CA","Zip":"90040"},{"Location":"THE SHREDDERS","Address":"6000 S Eastern Ave","City":"Commerce","State":"CA","Zip":"90040"},{"Location":"UNISERVE CORP INC","Address":"2363 S Atlantic Blvd","City":"Commerce","State":"CA","Zip":"90040"},{"Location":"UNISOURCE","Address":"2600 Commerce Way","City":"Commerce","State":"CA","Zip":"90040"},{"Location":"VIATECH PUBLISHING","Address":"5668 E 61st St","City":"Commerce","State":"CA","Zip":"90040"},{"Location":"ATT WIRELESS","Address":"6045 E Slauson Ave","City":"Los Angeles","State":"CA","Zip":"90040"},{"Location":"CAL -ROYAL PRODUCTS","Address":"6605 Flotilla St","City":"Los Angeles","State":"CA","Zip":"90040"},{"Location":"COLUMBIA ALUMINUM PRODUCTS","Address":"7020 E Slauson Ave","City":"Los Angeles","State":"CA","Zip":"90040"},{"Location":"ELKAY PLASTIC COMPANY INC","Address":"6000 Sheila St","City":"Los Angeles","State":"CA","Zip":"90040"},{"Location":"HALDEMAN INC","Address":"2937 Tanager Ave","City":"Los Angeles","State":"CA","Zip":"90040"},{"Location":"MGM TRANSFORMER","Address":"5701 Smithway St","City":"Los Angeles","State":"CA","Zip":"90040"},{"Location":"PROGRESSIVE PRODUCE CORP","Address":"5790 Peachtree St","City":"Los Angeles","State":"CA","Zip":"90040"},{"Location":"THE CHURCH OF SCIENTOLOGY","Address":"5999 Bandini Blvd","City":"Los Angeles","State":"CA","Zip":"90040"}]