[{"Location":"1800 DENTIST","Address":"6060 Center Dr 850","City":"Los Angeles","State":"CA","Zip":"90045"},{"Location":"24 HOUR FITNESS #122","Address":"5959 W Century Blvd","City":"Los Angeles","State":"CA","Zip":"90045"},{"Location":"A.T.S","Address":"9468 Alverstone Ave F","City":"Los Angeles","State":"CA","Zip":"90045"},{"Location":"AA (ADMIRALS CLUB)","Address":"6022 Avion Dr","City":"Los Angeles","State":"CA","Zip":"90045"},{"Location":"ACQUITY GROUP","Address":"6100 Center Dr 1080","City":"Los Angeles","State":"CA","Zip":"90045"},{"Location":"AIRPORT CENTER FAMILY DENTAL","Address":"5304 W Century Blvd","City":"Los Angeles","State":"CA","Zip":"90045"},{"Location":"ALASKA AIRLINES (LAX-OK)","Address":"600 World Way 6","City":"Los Angeles","State":"CA","Zip":"90045"},{"Location":"AMERICAN AIRLINES","Address":"400 World Way Term 4","City":"Los Angeles","State":"CA","Zip":"90045"},{"Location":"AMERICAN AIRLINES","Address":"400 World Way","City":"Los Angeles","State":"CA","Zip":"90045"},{"Location":"AMERICAN AIRLINES","Address":"7000 World Way W","City":"Los Angeles","State":"CA","Zip":"90045"},{"Location":"AMERICAN AIRLINES","Address":"7001 World Way W","City":"Los Angeles","State":"CA","Zip":"90045"},{"Location":"AMERICAN AIRLINES - OPS","Address":"400 World Way T4","City":"Los Angeles","State":"CA","Zip":"90045"},{"Location":"AMERICAN AIRLINES CARGO","Address":"5950 Avion Dr","City":"Los Angeles","State":"CA","Zip":"90045"},{"Location":"AMERICAN AIRLINES FLIGHT SVC","Address":"400 World Way T4","City":"Los Angeles","State":"CA","Zip":"90045"},{"Location":"AMERICAN AIRLINES PREMIIUM SVC","Address":"Lax 450 World Way Term 4","City":"Los Angeles","State":"CA","Zip":"90045"},{"Location":"AMERICAN AIRLINES PREMIUM SVCS","Address":"Lax 450 World Way Term 4","City":"Los Angeles","State":"CA","Zip":"90045"},{"Location":"AMERICAN EAGLE","Address":"7001 World Way W","City":"Los Angeles","State":"CA","Zip":"90045"},{"Location":"AMERICAN EAGLE AIRLINES","Address":"7000 World Way W","City":"Los Angeles","State":"CA","Zip":"90045"},{"Location":"AMERICAN GOLF CORP","Address":"6080 Center Dr 500","City":"Los Angeles","State":"CA","Zip":"90045"},{"Location":"AMF EL DORADO BOWL 263","Address":"8731 Lincoln Blvd","City":"Los Angeles","State":"CA","Zip":"90045"},{"Location":"AMP GLOBAL CLEARING","Address":"6060 Center Dr 125","City":"Los Angeles","State":"CA","Zip":"90045"},{"Location":"AQUARIUM WORLD","Address":"5310 W Century Blvd","City":"Los Angeles","State":"CA","Zip":"90045"},{"Location":"AREAS USA LAX ENGINE","Address":"1 World Way 8","City":"Los Angeles","State":"CA","Zip":"90045"},{"Location":"ARYZTA HOWARD HUGHES","Address":"6080 Center Dr 900","City":"Los Angeles","State":"CA","Zip":"90045"},{"Location":"ATLANTIC AVIATION LAX","Address":"6411 W Imperial Hwy","City":"Los Angeles","State":"CA","Zip":"90045"},{"Location":"AVALON RISK MANAGEMENT","Address":"5777 W Century Blvd 1400","City":"Los Angeles","State":"CA","Zip":"90045"},{"Location":"AVIS RENT A CAR","Address":"9217 Airport Blvd","City":"Los Angeles","State":"CA","Zip":"90045"},{"Location":"B GRILL","Address":"700 World Way","City":"Los Angeles","State":"CA","Zip":"90045"},{"Location":"BAR MELODY","Address":"9132 S Sepulveda Blvd","City":"Los Angeles","State":"CA","Zip":"90045"},{"Location":"BARRISTER EXECUTIVE INC","Address":"5757 W Century Blvd 700","City":"Los Angeles","State":"CA","Zip":"90045"},{"Location":"BERG ELECTRIC CORP","Address":"5650 W Centinela Ave","City":"Los Angeles","State":"CA","Zip":"90045"},{"Location":"BLUE ROOM EVENTS","Address":"5777 W Century Blvd 880","City":"Los Angeles","State":"CA","Zip":"90045"},{"Location":"BREAKWATER BISTRO","Address":"8119 Loyola Blvd","City":"Los Angeles","State":"CA","Zip":"90045"},{"Location":"BROOKLYN WATER BAGEL CO","Address":"8732 S Sepulveda Blvd A","City":"Los Angeles","State":"CA","Zip":"90045"},{"Location":"BUDGET RENT A CAR","Address":"9775 Airport Blvd","City":"Los Angeles","State":"CA","Zip":"90045"},{"Location":"BUFFALO WILD WINGS #0472","Address":"6081 Center Dr","City":"Los Angeles","State":"CA","Zip":"90045"},{"Location":"BURGER KING 903","Address":"5644 W Manchester Ave","City":"Los Angeles","State":"CA","Zip":"90045"},{"Location":"BURNETT THEODORE DDS","Address":"8540 S Sepulveda Blvd 918","City":"Los Angeles","State":"CA","Zip":"90045"},{"Location":"CBP LAX WELFARE & RECREATION","Address":"380 World Way","City":"Los Angeles","State":"CA","Zip":"90045"},{"Location":"CBP LAX WELFARE & RECREATION","Address":"11099 S La Cienega Blvd","City":"Los Angeles","State":"CA","Zip":"90045"},{"Location":"CBP LAX WELFARE & RECREATION","Address":"200 World Way","City":"Los Angeles","State":"CA","Zip":"90045"},{"Location":"CHALET EDELWEISS","Address":"8740 S Sepulveda Blvd","City":"Los Angeles","State":"CA","Zip":"90045"},{"Location":"CHILE VERDE","Address":"6913 La Tijera Blvd","City":"Los Angeles","State":"CA","Zip":"90045"},{"Location":"CHRISTINAS HAIR DESIGN","Address":"6509 S Sepulveda Blvd","City":"Los Angeles","State":"CA","Zip":"90045"},{"Location":"CILANTRO FRESH MEXICAN G","Address":"6308 W 89th St","City":"Los Angeles","State":"CA","Zip":"90045"},{"Location":"CINCO","Address":"7241 W Manchester Ave","City":"Los Angeles","State":"CA","Zip":"90045"},{"Location":"CINEMARK USA%2C INC.","Address":"6081 Center Dr","City":"Los Angeles","State":"CA","Zip":"90045"},{"Location":"CLASSIC GRILL","Address":"5569 W Manchester Ave","City":"Los Angeles","State":"CA","Zip":"90045"},{"Location":"CONTINENTAL AIRLINES","Address":"7300 World Way W","City":"Los Angeles","State":"CA","Zip":"90045"},{"Location":"CONTINENTAL AIRLINES CARGO","Address":"6041 W Imperial Hwy","City":"Los Angeles","State":"CA","Zip":"90045"},{"Location":"CORBIS","Address":"6060 Center Dr 900","City":"Los Angeles","State":"CA","Zip":"90045"},{"Location":"COURTYARD LAX (0007280)","Address":"6161 W Century Blvd","City":"Los Angeles","State":"CA","Zip":"90045"},{"Location":"CRAIGS BARBER AND BEAUTY SALON","Address":"9824 Glasgow Pl 6","City":"Los Angeles","State":"CA","Zip":"90045"},{"Location":"CUSTOM HOTEL","Address":"8639 Lincoln Blvd","City":"Los Angeles","State":"CA","Zip":"90045"},{"Location":"D'ANDREA GRAPHICS CORP","Address":"6341 Arizona Cir","City":"Los Angeles","State":"CA","Zip":"90045"},{"Location":"DAILY GRILL","Address":"5410 W Century Blvd","City":"Los Angeles","State":"CA","Zip":"90045"},{"Location":"DATAFACTION","Address":"5757 W Century Blvd","City":"Los Angeles","State":"CA","Zip":"90045"},{"Location":"DAVE AND BUSTER'S WESTCHESTER","Address":"6081 Center Dr","City":"Los Angeles","State":"CA","Zip":"90045"},{"Location":"DELTA AIR LINES","Address":"500 World Way","City":"Los Angeles","State":"CA","Zip":"90045"},{"Location":"DELTA AIR%2FROBERT HENRIE","Address":"6060 Avion Dr","City":"Los Angeles","State":"CA","Zip":"90045"},{"Location":"DELTA AIRLINES","Address":"200 World Way 5","City":"Los Angeles","State":"CA","Zip":"90045"},{"Location":"DELTA AIRLINES","Address":"500 World Way","City":"Los Angeles","State":"CA","Zip":"90045"},{"Location":"DELTA AIRLINES IN FLIGHT SERVI","Address":"500 World Way 5","City":"Los Angeles","State":"CA","Zip":"90045"},{"Location":"DEREKS JAMAICAN CUISINE","Address":"6806 La Tijera Blvd","City":"Los Angeles","State":"CA","Zip":"90045"},{"Location":"DHL EXPRESS","Address":"5791 W Imperial Hwy","City":"Los Angeles","State":"CA","Zip":"90045"},{"Location":"DIVERSIFIED EDUCATION COMPANY","Address":"11209 S La Cienega Blvd","City":"Los Angeles","State":"CA","Zip":"90045"},{"Location":"DOT CALIFORNIA","Address":"5360 W Imperial Hwy","City":"Los Angeles","State":"CA","Zip":"90045"},{"Location":"DREAM ONE INC","Address":"9100 S Sepulveda Blvd 212","City":"Los Angeles","State":"CA","Zip":"90045"},{"Location":"E NEWS","Address":"800 World Way 984","City":"Los Angeles","State":"CA","Zip":"90045"},{"Location":"EMBASSY SUITES (0004640)","Address":"9801 Airport Blvd","City":"Los Angeles","State":"CA","Zip":"90045"},{"Location":"EMBASSY SUITES LAX NORTH","Address":"9801 Airport Blvd","City":"Los Angeles","State":"CA","Zip":"90045"},{"Location":"ERIKA PUZIK & ASSOCIATES","Address":"6080 Center Dr 730","City":"Los Angeles","State":"CA","Zip":"90045"},{"Location":"ES RING CORPORATE","Address":"6601 Center Dr W 600","City":"Los Angeles","State":"CA","Zip":"90045"},{"Location":"EXPCARE MED CLINIC","Address":"8930 S Sepulveda Blvd 200","City":"Los Angeles","State":"CA","Zip":"90045"},{"Location":"FANTASTIC SAMS","Address":"8801 S Sepulveda Blvd D","City":"Los Angeles","State":"CA","Zip":"90045"},{"Location":"FARMERS MARKET","Address":"500 World Way","City":"Los Angeles","State":"CA","Zip":"90045"},{"Location":"FED EX","Address":"7401 World Way W","City":"Los Angeles","State":"CA","Zip":"90045"},{"Location":"FED EX AIRCRAFT STORES","Address":"7401 World Way W","City":"Los Angeles","State":"CA","Zip":"90045"},{"Location":"FEDERAL EXPRESSE","Address":"11221 Hindry Ave","City":"Los Angeles","State":"CA","Zip":"90045"},{"Location":"FEDEX","Address":"5927 W Imperial Hwy","City":"Los Angeles","State":"CA","Zip":"90045"},{"Location":"FEDEX%2FLAX LINE MAINTENAN","Address":"5927 W Imperial Hwy","City":"Los Angeles","State":"CA","Zip":"90045"},{"Location":"FIRESIDE","Address":"8522 Lincoln Blvd","City":"Los Angeles","State":"CA","Zip":"90045"},{"Location":"FIRESTONE #599611","Address":"6100 W Manchester Ave","City":"Los Angeles","State":"CA","Zip":"90045"},{"Location":"FIRST CLASS NAILS","Address":"6907b La Tijera Blvd","City":"Los Angeles","State":"CA","Zip":"90045"},{"Location":"FISCHER AND COMPANY","Address":"5230 Pacific Concourse Dr 140","City":"Los Angeles","State":"CA","Zip":"90045"},{"Location":"FLYING FOOD GROUP","Address":"5807 W 98th St","City":"Los Angeles","State":"CA","Zip":"90045"},{"Location":"FORD FILLING STATION","Address":"500 World Way","City":"Los Angeles","State":"CA","Zip":"90045"},{"Location":"FOUR POINTS SHERATON LAX","Address":"9750 Airport Blvd","City":"Los Angeles","State":"CA","Zip":"90045"},{"Location":"FRANCISCO BARBER  BEAUTY CARE","Address":"8901 Sepulveda Eastway","City":"Los Angeles","State":"CA","Zip":"90045"},{"Location":"GAME SPORTS BAR & GRILL","Address":"5630 W Manchester Ave","City":"Los Angeles","State":"CA","Zip":"90045"},{"Location":"GATE GOURMET","Address":"6701west Imperial Highway","City":"Los Angeles","State":"CA","Zip":"90045"},{"Location":"GATEWAY FRONTLINE SERVICES","Address":"5757 W Century Blvd 810","City":"Los Angeles","State":"CA","Zip":"90045"},{"Location":"HACIENDA DEL REY","Address":"8347 Lincoln Blvd","City":"Los Angeles","State":"CA","Zip":"90045"},{"Location":"HAIR SOLUTIONS","Address":"5710 W Manchester Ave Unit","City":"Los Angeles","State":"CA","Zip":"90045"},{"Location":"HAWAIIAN AIRLINES","Address":"200 World Way Box9","City":"Los Angeles","State":"CA","Zip":"90045"},{"Location":"HEAD TO TOE","Address":"6310 W 89th St A","City":"Los Angeles","State":"CA","Zip":"90045"},{"Location":"HEADS2THREADS INC","Address":"5531 W Manchester Ave","City":"Los Angeles","State":"CA","Zip":"90045"},{"Location":"HEAVY IRON STUDIOS","Address":"6601 Center Dr W 400","City":"Los Angeles","State":"CA","Zip":"90045"},{"Location":"HERTZ CORPORATION","Address":"9000 Airport Blvd","City":"Los Angeles","State":"CA","Zip":"90045"},{"Location":"HILTON LANDINGS","Address":"5711 W Century Blvd","City":"Los Angeles","State":"CA","Zip":"90045"},{"Location":"HILTON LOS ANGELES AIRPORT","Address":"5711 W Century Blvd","City":"Los Angeles","State":"CA","Zip":"90045"},{"Location":"HMS HOST LAXADM01","Address":"201 World Way Terminal # 6","City":"Los Angeles","State":"CA","Zip":"90045"},{"Location":"HMS HOST LAXCAM01","Address":"400 World Way","City":"Los Angeles","State":"CA","Zip":"90045"},{"Location":"HMS HOST LAXGLA01","Address":"201 World Way","City":"Los Angeles","State":"CA","Zip":"90045"},{"Location":"HMS HOST LAXHTS01","Address":"201 World Way","City":"Los Angeles","State":"CA","Zip":"90045"},{"Location":"HMS HOST LAXMIC06","Address":"100 World Way","City":"Los Angeles","State":"CA","Zip":"90045"},{"Location":"HMS HOST LAXNAL01","Address":"200 World Way","City":"Los Angeles","State":"CA","Zip":"90045"},{"Location":"HMS HOST PDXADM01","Address":"201 World Way","City":"Los Angeles","State":"CA","Zip":"90045"},{"Location":"HOLIDAY INN LA AIRPORT","Address":"9901 S La Cienega Blvd","City":"Los Angeles","State":"CA","Zip":"90045"},{"Location":"HYGIENE NAIL SPA","Address":"5494 W Centinela Ave","City":"Los Angeles","State":"CA","Zip":"90045"},{"Location":"IHOP #782","Address":"8600 S Sepulveda Blvd","City":"Los Angeles","State":"CA","Zip":"90045"},{"Location":"INCOGNITO BARBER SHOP","Address":"8707 La Tijera Blvd","City":"Los Angeles","State":"CA","Zip":"90045"},{"Location":"INTERPRET LLC","Address":"6701 Center Dr W","City":"Los Angeles","State":"CA","Zip":"90045"},{"Location":"ISLANDS RESTAURANT #032","Address":"6081 Center Dr 104","City":"Los Angeles","State":"CA","Zip":"90045"},{"Location":"JAGS BARBERSHOP","Address":"6233 W 87th St","City":"Los Angeles","State":"CA","Zip":"90045"},{"Location":"JET BLUE AIRWAYS","Address":"300 World Way","City":"Los Angeles","State":"CA","Zip":"90045"},{"Location":"KANPAI JAPANESE SUSHI BAR","Address":"8050 Lincoln Blvd","City":"Los Angeles","State":"CA","Zip":"90045"},{"Location":"KERKOURTH PROPERTIES LLC","Address":"6955 La Tijera Blvd D","City":"Los Angeles","State":"CA","Zip":"90045"},{"Location":"KLATCH","Address":"700 World Way","City":"Los Angeles","State":"CA","Zip":"90045"},{"Location":"L.A.T. INVESTMENT CORP","Address":"5777 W Century Blvd 950","City":"Los Angeles","State":"CA","Zip":"90045"},{"Location":"LA FIRESTATION 95","Address":"10010 International Rd","City":"Los Angeles","State":"CA","Zip":"90045"},{"Location":"LA FITNESS #6142","Address":"8601 Lincoln Blvd","City":"Los Angeles","State":"CA","Zip":"90045"},{"Location":"LANAI RESORTS LLC","Address":"6100 Center Dr 1250","City":"Los Angeles","State":"CA","Zip":"90045"},{"Location":"LAPFCU","Address":"5651 W Manchester Ave","City":"Los Angeles","State":"CA","Zip":"90045"},{"Location":"LAW OFFICE OF STEVEN LER","Address":"6033 W Century Blvd 740","City":"Los Angeles","State":"CA","Zip":"90045"},{"Location":"LAX","Address":"500 World Way","City":"Los Angeles","State":"CA","Zip":"90045"},{"Location":"LAX DA AIR","Address":"6101 W Imperial Hwy","City":"Los Angeles","State":"CA","Zip":"90045"},{"Location":"LAX MARRIOT (0064488)","Address":"5855 W Century Blvd","City":"Los Angeles","State":"CA","Zip":"90045"},{"Location":"LAX RENAISSANCE","Address":"9620 Airport Blvd","City":"Los Angeles","State":"CA","Zip":"90045"},{"Location":"LBA REALTY","Address":"5220 Pacific Concourse Dr","City":"Los Angeles","State":"CA","Zip":"90045"},{"Location":"LEMONADE","Address":"500 World Way Depar","City":"Los Angeles","State":"CA","Zip":"90045"},{"Location":"LENDING KEY INC","Address":"6820 La Tijera Blvd 119","City":"Los Angeles","State":"CA","Zip":"90045"},{"Location":"LMU ATHLETICS","Address":"1 Lmu Dr Ms150","City":"Los Angeles","State":"CA","Zip":"90045"},{"Location":"LMU ATHLETICS -LIONS CTR","Address":"1 Lmu Dr Ms850","City":"Los Angeles","State":"CA","Zip":"90045"},{"Location":"LMU SEAVER COLLEGE","Address":"1 Lmu Dr 100","City":"Los Angeles","State":"CA","Zip":"90045"},{"Location":"LOYALA MARYMOUNT UNIVERSITY #2","Address":"1 Lmu Dr M8235","City":"Los Angeles","State":"CA","Zip":"90045"},{"Location":"LOYOLA  MARYMOUNT UNIVERSITY","Address":"8001 Loyola Blvd","City":"Los Angeles","State":"CA","Zip":"90045"},{"Location":"LOYOLA MARY MOUNT UNIVERSITY","Address":"1 Lmu Dr","City":"Los Angeles","State":"CA","Zip":"90045"},{"Location":"LOYOLA MARYMOUNT UNIVERSITY","Address":"1 Lmu Dr","City":"Los Angeles","State":"CA","Zip":"90045"},{"Location":"LOYOLA MARYMOUNT UNIVERSITY","Address":"8000 Loyola Blvd","City":"Los Angeles","State":"CA","Zip":"90045"},{"Location":"LOYOLA MARYMOUNT UNIVERSITY #1","Address":"1 Lmu Dr 8235","City":"Los Angeles","State":"CA","Zip":"90045"},{"Location":"LUXURY HOMES AND DESIGN","Address":"6330 W 81st St","City":"Los Angeles","State":"CA","Zip":"90045"},{"Location":"LYNDON INTERNATIONAL","Address":"5235 W 104th St","City":"Los Angeles","State":"CA","Zip":"90045"},{"Location":"MAGIC JOHNSON SPORTS","Address":"500 World Way 988","City":"Los Angeles","State":"CA","Zip":"90045"},{"Location":"MAMA JOANS","Address":"5496 W Centinela Ave","City":"Los Angeles","State":"CA","Zip":"90045"},{"Location":"MAMA JOANS SOUL FOOD","Address":"5496 W Centinela Ave","City":"Los Angeles","State":"CA","Zip":"90045"},{"Location":"MAPLE LEAF LOUNGE AIR CANADA","Address":"200 World Way 413","City":"Los Angeles","State":"CA","Zip":"90045"},{"Location":"MARCH VISION CARE","Address":"6601 Center Drive West Secon","City":"Los Angeles","State":"CA","Zip":"90045"},{"Location":"MARIAS TORTILLAS","Address":"5606 W Manchester Ave","City":"Los Angeles","State":"CA","Zip":"90045"},{"Location":"MARRIOTT LAX%2FCHAMPIONS","Address":"5855 W Century Blvd","City":"Los Angeles","State":"CA","Zip":"90045"},{"Location":"MARTINIS","Address":"6503 S Sepulveda Blvd","City":"Los Angeles","State":"CA","Zip":"90045"},{"Location":"MAXWELL DENTAL CORP","Address":"6828 La Tijera Blvd","City":"Los Angeles","State":"CA","Zip":"90045"},{"Location":"MERCURY AIR CARGO","Address":"5908 Avion Dr","City":"Los Angeles","State":"CA","Zip":"90045"},{"Location":"MIDNITE EXPRESS","Address":"8801 Bellanca Ave","City":"Los Angeles","State":"CA","Zip":"90045"},{"Location":"MIDWAY CAR RENTAL","Address":"6151 W Century Blvd","City":"Los Angeles","State":"CA","Zip":"90045"},{"Location":"MURCURY AIR CARGO","Address":"6040 Avion Dr","City":"Los Angeles","State":"CA","Zip":"90045"},{"Location":"MUST HAVE HAIR STUDIO","Address":"6226 12 W Manchester Ave","City":"Los Angeles","State":"CA","Zip":"90045"},{"Location":"NATIONAL UNIVERSITY","Address":"5245 Pacific Concourse Dr 100","City":"Los Angeles","State":"CA","Zip":"90045"},{"Location":"NEW ATTITUDE HAIR SALON","Address":"6218 W 87th St","City":"Los Angeles","State":"CA","Zip":"90045"},{"Location":"NIKKO INFLIGHT CATERING CO","Address":"6751 W Imperial Hwy","City":"Los Angeles","State":"CA","Zip":"90045"},{"Location":"NITETRAIN COACH LEASING","Address":"6141 W Century Blvd","City":"Los Angeles","State":"CA","Zip":"90045"},{"Location":"NWA CARGO","Address":"11101 Aviation Blvd","City":"Los Angeles","State":"CA","Zip":"90045"},{"Location":"O MY HAIR BOUTIQE 2","Address":"8636 S Sepulveda Blvd","City":"Los Angeles","State":"CA","Zip":"90045"},{"Location":"OTIS ART INSTITUTE","Address":"9045 Lincoln Blvd","City":"Los Angeles","State":"CA","Zip":"90045"},{"Location":"PACOS CANTINA INC","Address":"6212 W Manchester Ave","City":"Los Angeles","State":"CA","Zip":"90045"},{"Location":"PARS","Address":"5844 W Manchester Ave","City":"Los Angeles","State":"CA","Zip":"90045"},{"Location":"PAYVIA","Address":"6601 Center Dr W 700","City":"Los Angeles","State":"CA","Zip":"90045"},{"Location":"PEOPLES CARE","Address":"8013 Ramsgate Ave","City":"Los Angeles","State":"CA","Zip":"90045"},{"Location":"PNF LAX INC","Address":"6351 W Century Blvd","City":"Los Angeles","State":"CA","Zip":"90045"},{"Location":"PORTFOLIO HOTELS AND RESORTS","Address":"6101 W Century Blvd","City":"Los Angeles","State":"CA","Zip":"90045"},{"Location":"PREMEIRE PARTY AND RENTS","Address":"5255 W 102nd St","City":"Los Angeles","State":"CA","Zip":"90045"},{"Location":"PRO ANGLE MEDIA","Address":"5757 W Century Blvd 800","City":"Los Angeles","State":"CA","Zip":"90045"},{"Location":"QANTAS AIRWAYS","Address":"380 World Way 4124","City":"Los Angeles","State":"CA","Zip":"90045"},{"Location":"RELIANT MEDICAL CENTER","Address":"9601 S Sepulveda Blvd","City":"Los Angeles","State":"CA","Zip":"90045"},{"Location":"RENAISSANCE (0041540)","Address":"9620 Airport Blvd","City":"Los Angeles","State":"CA","Zip":"90045"},{"Location":"RESIDENCE INN LAX (0215416)","Address":"5933 W Century Blvd","City":"Los Angeles","State":"CA","Zip":"90045"},{"Location":"ROCK & BREWS T5","Address":"500 World Way T5","City":"Los Angeles","State":"CA","Zip":"90045"},{"Location":"ROCK-IT CARGO USA INC","Address":"5438 W 104th St","City":"Los Angeles","State":"CA","Zip":"90045"},{"Location":"S AND H BAGGAGE","Address":"8622 Bellanca Ave M","City":"Los Angeles","State":"CA","Zip":"90045"},{"Location":"SHERATON GATEWAY (0004030)","Address":"6101 W Century Blvd","City":"Los Angeles","State":"CA","Zip":"90045"},{"Location":"SHIPCO TRANSPORT","Address":"5341 W 104th St","City":"Los Angeles","State":"CA","Zip":"90045"},{"Location":"SIZZLER 219","Address":"5856 W Manchester Ave","City":"Los Angeles","State":"CA","Zip":"90045"},{"Location":"SKEWERS","Address":"500 World Way","City":"Los Angeles","State":"CA","Zip":"90045"},{"Location":"SMO KING'S","Address":"6713 La Tijera Blvd","City":"Los Angeles","State":"CA","Zip":"90045"},{"Location":"SMOKERS DELIGHT","Address":"5710 W Manchester Ave","City":"Los Angeles","State":"CA","Zip":"90045"},{"Location":"SNAPY LIQUOR","Address":"5205 W Imperial Hwy","City":"Los Angeles","State":"CA","Zip":"90045"},{"Location":"SONOS 1","Address":"6300 Arizona Cir","City":"Los Angeles","State":"CA","Zip":"90045"},{"Location":"SOUTHWEST AIRLINES","Address":"100 World Way 328","City":"Los Angeles","State":"CA","Zip":"90045"},{"Location":"SOUTHWEST AIRLINES","Address":"7255 World Way W","City":"Los Angeles","State":"CA","Zip":"90045"},{"Location":"SOVEREIGN HEALTH OF CALI","Address":"5919 W 74th St","City":"Los Angeles","State":"CA","Zip":"90045"},{"Location":"SPECTRUM","Address":"6833 Park Ter","City":"Los Angeles","State":"CA","Zip":"90045"},{"Location":"SPRITE ANIMATION","Address":"6701 Center Dr W","City":"Los Angeles","State":"CA","Zip":"90045"},{"Location":"STANDARD AERO","Address":"6201 W Imperial Hwy","City":"Los Angeles","State":"CA","Zip":"90045"},{"Location":"STUDIO Z","Address":"5614 W Manchester Ave","City":"Los Angeles","State":"CA","Zip":"90045"},{"Location":"SUMMIT SKI & CYCLE","Address":"8419 Lincoln Blvd","City":"Los Angeles","State":"CA","Zip":"90045"},{"Location":"SUPER SPA","Address":"9138 S Sepulveda Blvd","City":"Los Angeles","State":"CA","Zip":"90045"},{"Location":"SUSHI KURA","Address":"5567 W Manchester Ave","City":"Los Angeles","State":"CA","Zip":"90045"},{"Location":"SYNERGY LINK CORP.","Address":"8330 Hindry Ave","City":"Los Angeles","State":"CA","Zip":"90045"},{"Location":"TARGET 2","Address":"8496 Osage Ave","City":"Los Angeles","State":"CA","Zip":"90045"},{"Location":"TEODORO DECOUD","Address":"9100 S Sepulveda Blvd 130","City":"Los Angeles","State":"CA","Zip":"90045"},{"Location":"TESLA MOTORS","Address":"5840 W Centinela Ave","City":"Los Angeles","State":"CA","Zip":"90045"},{"Location":"TGI FRIDAY'S #2498","Address":"6721 La Tijera Blvd","City":"Los Angeles","State":"CA","Zip":"90045"},{"Location":"THAI TALAY","Address":"8411 Lincoln Blvd","City":"Los Angeles","State":"CA","Zip":"90045"},{"Location":"THE CANDY BAR INC","Address":"6208 W 87th St","City":"Los Angeles","State":"CA","Zip":"90045"},{"Location":"THE COFFEE BEAN","Address":"500 World Way","City":"Los Angeles","State":"CA","Zip":"90045"},{"Location":"THE GEO GROUP","Address":"6100 Center Dr 825","City":"Los Angeles","State":"CA","Zip":"90045"},{"Location":"THE J SPOT","Address":"5581 W Manchester Ave","City":"Los Angeles","State":"CA","Zip":"90045"},{"Location":"THE PROMENADE CENTER","Address":"6081 Center Dr 202a","City":"Los Angeles","State":"CA","Zip":"90045"},{"Location":"THOMAS JOHNSON MD","Address":"9100 S Sepulveda Blvd 121","City":"Los Angeles","State":"CA","Zip":"90045"},{"Location":"THORNTON TOMASETTI","Address":"6080 Center Dr 260","City":"Los Angeles","State":"CA","Zip":"90045"},{"Location":"TOLL FREE FORWARDING","Address":"9841 Airport Blvd 900","City":"Los Angeles","State":"CA","Zip":"90045"},{"Location":"TOP KOTCH PROMOTIONS AND","Address":"8701 La Tijera Blvd","City":"Los Angeles","State":"CA","Zip":"90045"},{"Location":"TOWER PIZZA","Address":"8351 Lincoln Blvd","City":"Los Angeles","State":"CA","Zip":"90045"},{"Location":"TOWNHOUSE","Address":"6835 La Tijera Blvd","City":"Los Angeles","State":"CA","Zip":"90045"},{"Location":"TRACKSIDE LIVE PROD LLC","Address":"6701 Center Dr W 800","City":"Los Angeles","State":"CA","Zip":"90045"},{"Location":"TRITON MANAGEMENT SERV LLC","Address":"5250 W Century Blvd","City":"Los Angeles","State":"CA","Zip":"90045"},{"Location":"TRUXTONS","Address":"8611 Truxton Ave","City":"Los Angeles","State":"CA","Zip":"90045"},{"Location":"TS70542020000D00XXAOXXLAXXTVXX","Address":"5767 W Century Blvd 300","City":"Los Angeles","State":"CA","Zip":"90045"},{"Location":"TSA FAMS LAX","Address":"1 World Way","City":"Los Angeles","State":"CA","Zip":"90045"},{"Location":"TURTLE & HUGHES","Address":"5760 W 96th St","City":"Los Angeles","State":"CA","Zip":"90045"},{"Location":"TVG NETWORK","Address":"6701 Center Dr W 160","City":"Los Angeles","State":"CA","Zip":"90045"},{"Location":"UA- LAX- HANGAR 1","Address":"6018 Avion Dr 1","City":"Los Angeles","State":"CA","Zip":"90045"},{"Location":"UA- LAX- HANGAR 2","Address":"6018 Avion Dr 2","City":"Los Angeles","State":"CA","Zip":"90045"},{"Location":"UA- LAX- TERMINAL 7","Address":"6018 Avion Dr","City":"Los Angeles","State":"CA","Zip":"90045"},{"Location":"UA- LAX- TERMINAL 8","Address":"6018 Avion Dr","City":"Los Angeles","State":"CA","Zip":"90045"},{"Location":"UNION BANK NA","Address":"6719 La Tijera Blvd","City":"Los Angeles","State":"CA","Zip":"90045"},{"Location":"UNITED STATES COAST GUARD","Address":"7159 World Way W","City":"Los Angeles","State":"CA","Zip":"90045"},{"Location":"UNITED TRANSPORTATION SE","Address":"9100 S Sepulveda Blvd 109","City":"Los Angeles","State":"CA","Zip":"90045"},{"Location":"UNITED TRANSPORTATION SECURITY","Address":"9100 S Sepulveda Blvd 113","City":"Los Angeles","State":"CA","Zip":"90045"},{"Location":"UNIVISION COMMUNICATIONS INC","Address":"5999 Center Dr","City":"Los Angeles","State":"CA","Zip":"90045"},{"Location":"US CBP","Address":"380 World Way","City":"Los Angeles","State":"CA","Zip":"90045"},{"Location":"US CUSTOMS AND BORDER PROTECTI","Address":"11099 S La Cienega Blvd 2206","City":"Los Angeles","State":"CA","Zip":"90045"},{"Location":"USA TODAY","Address":"6060 Center Dr 900","City":"Los Angeles","State":"CA","Zip":"90045"},{"Location":"VERIZON WIRELESS","Address":"6382 Arizona Cir","City":"Los Angeles","State":"CA","Zip":"90045"},{"Location":"VIP SPA","Address":"5561 W Manchester Ave","City":"Los Angeles","State":"CA","Zip":"90045"},{"Location":"VIRGIN AMERICA","Address":"300 World Way","City":"Los Angeles","State":"CA","Zip":"90045"},{"Location":"VIRGIN AUSTRALIA INTERNATIONAL","Address":"300 World Way 3","City":"Los Angeles","State":"CA","Zip":"90045"},{"Location":"WACKY INC","Address":"8919 S Sepulveda Blvd","City":"Los Angeles","State":"CA","Zip":"90045"},{"Location":"WEST CHESTER CHURCH OF CHRIST","Address":"5925 W 79th St","City":"Los Angeles","State":"CA","Zip":"90045"},{"Location":"WEST GASTROENTEROLOGY MEDICAL","Address":"8110 Airport Blvd","City":"Los Angeles","State":"CA","Zip":"90045"},{"Location":"WESTCOAST CUSTOMS AUTOMOTIVE","Address":"6861 La Tijera Blvd","City":"Los Angeles","State":"CA","Zip":"90045"},{"Location":"WESTERN MOTOR WORKS INC","Address":"8332 Osage Ave","City":"Los Angeles","State":"CA","Zip":"90045"},{"Location":"WESTIN LOS ANGELES AIRPORT","Address":"5400 W Century Blvd","City":"Los Angeles","State":"CA","Zip":"90045"},{"Location":"WILSHIRE WEST DENTAL GROUP","Address":"8930 S Sepulveda Blvd 118","City":"Los Angeles","State":"CA","Zip":"90045"},{"Location":"WINGSTOP RESTAURANTS","Address":"6909 La Tijera Blvd","City":"Los Angeles","State":"CA","Zip":"90045"},{"Location":"WOLFGANG PUCK EXPRESS","Address":"700 World Way","City":"Los Angeles","State":"CA","Zip":"90045"},{"Location":"WORLD KARATE","Address":"8707 Truxton Ave","City":"Los Angeles","State":"CA","Zip":"90045"},{"Location":"ALL3MEDIAAMERICA","Address":"6060 Center Dr 4thf","City":"Los Angelese","State":"CA","Zip":"90045"},{"Location":"JIFFY LUBE 1597","Address":"8525 S Sepulveda Blvd","City":"Westchester","State":"CA","Zip":"90045"},{"Location":"KOHL'S #1385","Address":"8739 S Sepulveda Blvd","City":"Westchester","State":"CA","Zip":"90045"},{"Location":"MCL & ASSOCIATE INC","Address":"7701 El Manor Ave","City":"Westchester","State":"CA","Zip":"90045"},{"Location":"RUBEN MICHAEL SALON","Address":"8800 S Sepulveda Blvd 7","City":"Westchester","State":"CA","Zip":"90045"},{"Location":"1800 DENTIST","Address":"6060 Center Dr 850","City":"Los Angeles","State":"CA","Zip":"90045"},{"Location":"24 HOUR FITNESS #122","Address":"5959 W Century Blvd","City":"Los Angeles","State":"CA","Zip":"90045"},{"Location":"A.T.S","Address":"9468 Alverstone Ave F","City":"Los Angeles","State":"CA","Zip":"90045"},{"Location":"AA (ADMIRALS CLUB)","Address":"6022 Avion Dr","City":"Los Angeles","State":"CA","Zip":"90045"},{"Location":"ACQUITY GROUP","Address":"6100 Center Dr 1080","City":"Los Angeles","State":"CA","Zip":"90045"},{"Location":"AIRPORT CENTER FAMILY DENTAL","Address":"5304 W Century Blvd","City":"Los Angeles","State":"CA","Zip":"90045"},{"Location":"ALASKA AIRLINES (LAX-OK)","Address":"600 World Way 6","City":"Los Angeles","State":"CA","Zip":"90045"},{"Location":"AMERICAN AIRLINES","Address":"400 World Way Term 4","City":"Los Angeles","State":"CA","Zip":"90045"},{"Location":"AMERICAN AIRLINES","Address":"400 World Way","City":"Los Angeles","State":"CA","Zip":"90045"},{"Location":"AMERICAN AIRLINES","Address":"7000 World Way W","City":"Los Angeles","State":"CA","Zip":"90045"},{"Location":"AMERICAN AIRLINES","Address":"7001 World Way W","City":"Los Angeles","State":"CA","Zip":"90045"},{"Location":"AMERICAN AIRLINES - OPS","Address":"400 World Way T4","City":"Los Angeles","State":"CA","Zip":"90045"},{"Location":"AMERICAN AIRLINES CARGO","Address":"5950 Avion Dr","City":"Los Angeles","State":"CA","Zip":"90045"},{"Location":"AMERICAN AIRLINES FLIGHT SVC","Address":"400 World Way T4","City":"Los Angeles","State":"CA","Zip":"90045"},{"Location":"AMERICAN AIRLINES PREMIIUM SVC","Address":"Lax 450 World Way Term 4","City":"Los Angeles","State":"CA","Zip":"90045"},{"Location":"AMERICAN AIRLINES PREMIUM SVCS","Address":"Lax 450 World Way Term 4","City":"Los Angeles","State":"CA","Zip":"90045"},{"Location":"AMERICAN EAGLE","Address":"7001 World Way W","City":"Los Angeles","State":"CA","Zip":"90045"},{"Location":"AMERICAN EAGLE AIRLINES","Address":"7000 World Way W","City":"Los Angeles","State":"CA","Zip":"90045"},{"Location":"AMERICAN GOLF CORP","Address":"6080 Center Dr 500","City":"Los Angeles","State":"CA","Zip":"90045"},{"Location":"AMF EL DORADO BOWL 263","Address":"8731 Lincoln Blvd","City":"Los Angeles","State":"CA","Zip":"90045"},{"Location":"AMP GLOBAL CLEARING","Address":"6060 Center Dr 125","City":"Los Angeles","State":"CA","Zip":"90045"},{"Location":"AQUARIUM WORLD","Address":"5310 W Century Blvd","City":"Los Angeles","State":"CA","Zip":"90045"},{"Location":"AREAS USA LAX ENGINE","Address":"1 World Way 8","City":"Los Angeles","State":"CA","Zip":"90045"},{"Location":"ARYZTA HOWARD HUGHES","Address":"6080 Center Dr 900","City":"Los Angeles","State":"CA","Zip":"90045"},{"Location":"ATLANTIC AVIATION LAX","Address":"6411 W Imperial Hwy","City":"Los Angeles","State":"CA","Zip":"90045"},{"Location":"AVALON RISK MANAGEMENT","Address":"5777 W Century Blvd 1400","City":"Los Angeles","State":"CA","Zip":"90045"},{"Location":"AVIS RENT A CAR","Address":"9217 Airport Blvd","City":"Los Angeles","State":"CA","Zip":"90045"},{"Location":"B GRILL","Address":"700 World Way","City":"Los Angeles","State":"CA","Zip":"90045"},{"Location":"BAR MELODY","Address":"9132 S Sepulveda Blvd","City":"Los Angeles","State":"CA","Zip":"90045"},{"Location":"BARRISTER EXECUTIVE INC","Address":"5757 W Century Blvd 700","City":"Los Angeles","State":"CA","Zip":"90045"},{"Location":"BERG ELECTRIC CORP","Address":"5650 W Centinela Ave","City":"Los Angeles","State":"CA","Zip":"90045"},{"Location":"BLUE ROOM EVENTS","Address":"5777 W Century Blvd 880","City":"Los Angeles","State":"CA","Zip":"90045"},{"Location":"BREAKWATER BISTRO","Address":"8119 Loyola Blvd","City":"Los Angeles","State":"CA","Zip":"90045"},{"Location":"BROOKLYN WATER BAGEL CO","Address":"8732 S Sepulveda Blvd A","City":"Los Angeles","State":"CA","Zip":"90045"},{"Location":"BUDGET RENT A CAR","Address":"9775 Airport Blvd","City":"Los Angeles","State":"CA","Zip":"90045"},{"Location":"BUFFALO WILD WINGS #0472","Address":"6081 Center Dr","City":"Los Angeles","State":"CA","Zip":"90045"},{"Location":"BURGER KING 903","Address":"5644 W Manchester Ave","City":"Los Angeles","State":"CA","Zip":"90045"},{"Location":"BURNETT THEODORE DDS","Address":"8540 S Sepulveda Blvd 918","City":"Los Angeles","State":"CA","Zip":"90045"},{"Location":"CBP LAX WELFARE & RECREATION","Address":"200 World Way","City":"Los Angeles","State":"CA","Zip":"90045"},{"Location":"CBP LAX WELFARE & RECREATION","Address":"11099 S La Cienega Blvd","City":"Los Angeles","State":"CA","Zip":"90045"},{"Location":"CBP LAX WELFARE & RECREATION","Address":"380 World Way","City":"Los Angeles","State":"CA","Zip":"90045"},{"Location":"CHALET EDELWEISS","Address":"8740 S Sepulveda Blvd","City":"Los Angeles","State":"CA","Zip":"90045"},{"Location":"CHILE VERDE","Address":"6913 La Tijera Blvd","City":"Los Angeles","State":"CA","Zip":"90045"},{"Location":"CHRISTINAS HAIR DESIGN","Address":"6509 S Sepulveda Blvd","City":"Los Angeles","State":"CA","Zip":"90045"},{"Location":"CILANTRO FRESH MEXICAN G","Address":"6308 W 89th St","City":"Los Angeles","State":"CA","Zip":"90045"},{"Location":"CINCO","Address":"7241 W Manchester Ave","City":"Los Angeles","State":"CA","Zip":"90045"},{"Location":"CINEMARK USA%2C INC.","Address":"6081 Center Dr","City":"Los Angeles","State":"CA","Zip":"90045"},{"Location":"CLASSIC GRILL","Address":"5569 W Manchester Ave","City":"Los Angeles","State":"CA","Zip":"90045"},{"Location":"CNN T7 LAX","Address":"700 World Way T7","City":"Los Angeles","State":"CA","Zip":"90045"},{"Location":"CONTINENTAL AIRLINES","Address":"7300 World Way W","City":"Los Angeles","State":"CA","Zip":"90045"},{"Location":"CONTINENTAL AIRLINES CARGO","Address":"6041 W Imperial Hwy","City":"Los Angeles","State":"CA","Zip":"90045"},{"Location":"CORBIS","Address":"6060 Center Dr 900","City":"Los Angeles","State":"CA","Zip":"90045"},{"Location":"COURTYARD LAX (0007280)","Address":"6161 W Century Blvd","City":"Los Angeles","State":"CA","Zip":"90045"},{"Location":"CRAIGS BARBER AND BEAUTY SALON","Address":"9824 Glasgow Pl 6","City":"Los Angeles","State":"CA","Zip":"90045"},{"Location":"CUSTOM HOTEL","Address":"8639 Lincoln Blvd","City":"Los Angeles","State":"CA","Zip":"90045"},{"Location":"D'ANDREA GRAPHICS CORP","Address":"6341 Arizona Cir","City":"Los Angeles","State":"CA","Zip":"90045"},{"Location":"DAILY GRILL","Address":"5410 W Century Blvd","City":"Los Angeles","State":"CA","Zip":"90045"},{"Location":"DATAFACTION","Address":"5757 W Century Blvd","City":"Los Angeles","State":"CA","Zip":"90045"},{"Location":"DAVE AND BUSTER'S WESTCHESTER","Address":"6081 Center Dr","City":"Los Angeles","State":"CA","Zip":"90045"},{"Location":"DELTA AIR LINES","Address":"500 World Way","City":"Los Angeles","State":"CA","Zip":"90045"},{"Location":"DELTA AIR%2FROBERT HENRIE","Address":"6060 Avion Dr","City":"Los Angeles","State":"CA","Zip":"90045"},{"Location":"DELTA AIRLINES","Address":"200 World Way 5","City":"Los Angeles","State":"CA","Zip":"90045"},{"Location":"DELTA AIRLINES","Address":"500 World Way","City":"Los Angeles","State":"CA","Zip":"90045"},{"Location":"DELTA AIRLINES IN FLIGHT SERVI","Address":"500 World Way 5","City":"Los Angeles","State":"CA","Zip":"90045"},{"Location":"DEREKS JAMAICAN CUISINE","Address":"6806 La Tijera Blvd","City":"Los Angeles","State":"CA","Zip":"90045"},{"Location":"DHL EXPRESS","Address":"5791 W Imperial Hwy","City":"Los Angeles","State":"CA","Zip":"90045"},{"Location":"DIVERSIFIED EDUCATION COMPANY","Address":"11209 S La Cienega Blvd","City":"Los Angeles","State":"CA","Zip":"90045"},{"Location":"DOT CALIFORNIA","Address":"5360 W Imperial Hwy","City":"Los Angeles","State":"CA","Zip":"90045"},{"Location":"DREAM ONE INC","Address":"9100 S Sepulveda Blvd 212","City":"Los Angeles","State":"CA","Zip":"90045"},{"Location":"E NEWS","Address":"800 World Way 984","City":"Los Angeles","State":"CA","Zip":"90045"},{"Location":"EMBASSY SUITES (0004640)","Address":"9801 Airport Blvd","City":"Los Angeles","State":"CA","Zip":"90045"},{"Location":"EMBASSY SUITES LAX NORTH","Address":"9801 Airport Blvd","City":"Los Angeles","State":"CA","Zip":"90045"},{"Location":"ERIKA PUZIK & ASSOCIATES","Address":"6080 Center Dr 730","City":"Los Angeles","State":"CA","Zip":"90045"},{"Location":"ES RING CORPORATE","Address":"6601 Center Dr W 600","City":"Los Angeles","State":"CA","Zip":"90045"},{"Location":"EXPCARE MED CLINIC","Address":"8930 S Sepulveda Blvd 200","City":"Los Angeles","State":"CA","Zip":"90045"},{"Location":"FANTASTIC SAMS","Address":"8801 S Sepulveda Blvd D","City":"Los Angeles","State":"CA","Zip":"90045"},{"Location":"FARMERS MARKET","Address":"500 World Way","City":"Los Angeles","State":"CA","Zip":"90045"},{"Location":"FED EX","Address":"7401 World Way W","City":"Los Angeles","State":"CA","Zip":"90045"},{"Location":"FED EX AIRCRAFT STORES","Address":"7401 World Way W","City":"Los Angeles","State":"CA","Zip":"90045"},{"Location":"FEDERAL EXPRESSE","Address":"11221 Hindry Ave","City":"Los Angeles","State":"CA","Zip":"90045"},{"Location":"FEDEX","Address":"5927 W Imperial Hwy","City":"Los Angeles","State":"CA","Zip":"90045"},{"Location":"FEDEX%2FLAX LINE MAINTENAN","Address":"5927 W Imperial Hwy","City":"Los Angeles","State":"CA","Zip":"90045"},{"Location":"FIRESIDE","Address":"8522 Lincoln Blvd","City":"Los Angeles","State":"CA","Zip":"90045"},{"Location":"FIRESTONE #599611","Address":"6100 W Manchester Ave","City":"Los Angeles","State":"CA","Zip":"90045"},{"Location":"FIRST CLASS NAILS","Address":"6907b La Tijera Blvd","City":"Los Angeles","State":"CA","Zip":"90045"},{"Location":"FISCHER AND COMPANY","Address":"5230 Pacific Concourse Dr 140","City":"Los Angeles","State":"CA","Zip":"90045"},{"Location":"FORD FILLING STATION","Address":"500 World Way","City":"Los Angeles","State":"CA","Zip":"90045"},{"Location":"FOUR POINTS SHERATON LAX","Address":"9750 Airport Blvd","City":"Los Angeles","State":"CA","Zip":"90045"},{"Location":"FRANCISCO BARBER  BEAUTY CARE","Address":"8901 Sepulveda Eastway","City":"Los Angeles","State":"CA","Zip":"90045"},{"Location":"GAME SPORTS BAR & GRILL","Address":"5630 W Manchester Ave","City":"Los Angeles","State":"CA","Zip":"90045"},{"Location":"GATE GOURMET","Address":"6701west Imperial Highway","City":"Los Angeles","State":"CA","Zip":"90045"},{"Location":"GATEWAY FRONTLINE SERVICES","Address":"5757 W Century Blvd 810","City":"Los Angeles","State":"CA","Zip":"90045"},{"Location":"HACIENDA DEL REY","Address":"8347 Lincoln Blvd","City":"Los Angeles","State":"CA","Zip":"90045"},{"Location":"HAIR SOLUTIONS","Address":"5710 W Manchester Ave Unit","City":"Los Angeles","State":"CA","Zip":"90045"},{"Location":"HAWAIIAN AIRLINES","Address":"200 World Way Box9","City":"Los Angeles","State":"CA","Zip":"90045"},{"Location":"HEAD TO TOE","Address":"6310 W 89th St A","City":"Los Angeles","State":"CA","Zip":"90045"},{"Location":"HEADS2THREADS INC","Address":"5531 W Manchester Ave","City":"Los Angeles","State":"CA","Zip":"90045"},{"Location":"HEAVY IRON STUDIOS","Address":"6601 Center Dr W 400","City":"Los Angeles","State":"CA","Zip":"90045"},{"Location":"HERTZ CORPORATION","Address":"9000 Airport Blvd","City":"Los Angeles","State":"CA","Zip":"90045"},{"Location":"HILTON LANDINGS","Address":"5711 W Century Blvd","City":"Los Angeles","State":"CA","Zip":"90045"},{"Location":"HILTON LOS ANGELES AIRPORT","Address":"5711 W Century Blvd","City":"Los Angeles","State":"CA","Zip":"90045"},{"Location":"HMS HOST LAXADM01","Address":"201 World Way Terminal # 6","City":"Los Angeles","State":"CA","Zip":"90045"},{"Location":"HMS HOST LAXCAM01","Address":"400 World Way","City":"Los Angeles","State":"CA","Zip":"90045"},{"Location":"HMS HOST LAXGLA01","Address":"201 World Way","City":"Los Angeles","State":"CA","Zip":"90045"},{"Location":"HMS HOST LAXHTS01","Address":"201 World Way","City":"Los Angeles","State":"CA","Zip":"90045"},{"Location":"HMS HOST LAXMIC06","Address":"100 World Way","City":"Los Angeles","State":"CA","Zip":"90045"},{"Location":"HMS HOST LAXNAL01","Address":"200 World Way","City":"Los Angeles","State":"CA","Zip":"90045"},{"Location":"HMS HOST PDXADM01","Address":"201 World Way","City":"Los Angeles","State":"CA","Zip":"90045"},{"Location":"HOLIDAY INN LA AIRPORT","Address":"9901 S La Cienega Blvd","City":"Los Angeles","State":"CA","Zip":"90045"},{"Location":"HYGIENE NAIL SPA","Address":"5494 W Centinela Ave","City":"Los Angeles","State":"CA","Zip":"90045"},{"Location":"IHOP #782","Address":"8600 S Sepulveda Blvd","City":"Los Angeles","State":"CA","Zip":"90045"},{"Location":"INCOGNITO BARBER SHOP","Address":"8707 La Tijera Blvd","City":"Los Angeles","State":"CA","Zip":"90045"},{"Location":"INTERPRET LLC","Address":"6701 Center Dr W","City":"Los Angeles","State":"CA","Zip":"90045"},{"Location":"ISLANDS RESTAURANT #032","Address":"6081 Center Dr 104","City":"Los Angeles","State":"CA","Zip":"90045"},{"Location":"JAGS BARBERSHOP","Address":"6233 W 87th St","City":"Los Angeles","State":"CA","Zip":"90045"},{"Location":"JET BLUE AIRWAYS","Address":"300 World Way","City":"Los Angeles","State":"CA","Zip":"90045"},{"Location":"KANPAI JAPANESE SUSHI BAR","Address":"8050 Lincoln Blvd","City":"Los Angeles","State":"CA","Zip":"90045"},{"Location":"KERKOURTH PROPERTIES LLC","Address":"6955 La Tijera Blvd D","City":"Los Angeles","State":"CA","Zip":"90045"},{"Location":"KLATCH","Address":"700 World Way","City":"Los Angeles","State":"CA","Zip":"90045"},{"Location":"L.A.T. INVESTMENT CORP","Address":"5777 W Century Blvd 950","City":"Los Angeles","State":"CA","Zip":"90045"},{"Location":"LA FIRESTATION 95","Address":"10010 International Rd","City":"Los Angeles","State":"CA","Zip":"90045"},{"Location":"LA FITNESS #6142","Address":"8601 Lincoln Blvd","City":"Los Angeles","State":"CA","Zip":"90045"},{"Location":"LANAI RESORTS LLC","Address":"6100 Center Dr 1250","City":"Los Angeles","State":"CA","Zip":"90045"},{"Location":"LAPFCU","Address":"5651 W Manchester Ave","City":"Los Angeles","State":"CA","Zip":"90045"},{"Location":"LAW OFFICE OF STEVEN LER","Address":"6033 W Century Blvd 740","City":"Los Angeles","State":"CA","Zip":"90045"},{"Location":"LAX","Address":"500 World Way","City":"Los Angeles","State":"CA","Zip":"90045"},{"Location":"LAX DA AIR","Address":"6101 W Imperial Hwy","City":"Los Angeles","State":"CA","Zip":"90045"},{"Location":"LAX MARRIOT (0064488)","Address":"5855 W Century Blvd","City":"Los Angeles","State":"CA","Zip":"90045"},{"Location":"LAX RENAISSANCE","Address":"9620 Airport Blvd","City":"Los Angeles","State":"CA","Zip":"90045"},{"Location":"LBA REALTY","Address":"5220 Pacific Concourse Dr","City":"Los Angeles","State":"CA","Zip":"90045"},{"Location":"LEMONADE","Address":"500 World Way Depar","City":"Los Angeles","State":"CA","Zip":"90045"},{"Location":"LENDING KEY INC","Address":"6820 La Tijera Blvd 119","City":"Los Angeles","State":"CA","Zip":"90045"},{"Location":"LMU ATHLETICS","Address":"1 Lmu Dr Ms150","City":"Los Angeles","State":"CA","Zip":"90045"},{"Location":"LMU ATHLETICS -LIONS CTR","Address":"1 Lmu Dr Ms850","City":"Los Angeles","State":"CA","Zip":"90045"},{"Location":"LMU SEAVER COLLEGE","Address":"1 Lmu Dr 100","City":"Los Angeles","State":"CA","Zip":"90045"},{"Location":"LOYALA MARYMOUNT UNIVERSITY #2","Address":"1 Lmu Dr M8235","City":"Los Angeles","State":"CA","Zip":"90045"},{"Location":"LOYOLA  MARYMOUNT UNIVERSITY","Address":"8001 Loyola Blvd","City":"Los Angeles","State":"CA","Zip":"90045"},{"Location":"LOYOLA MARY MOUNT UNIVERSITY","Address":"1 Lmu Dr","City":"Los Angeles","State":"CA","Zip":"90045"},{"Location":"LOYOLA MARYMOUNT UNIVERSITY","Address":"8000 Loyola Blvd","City":"Los Angeles","State":"CA","Zip":"90045"},{"Location":"LOYOLA MARYMOUNT UNIVERSITY","Address":"1 Lmu Dr","City":"Los Angeles","State":"CA","Zip":"90045"},{"Location":"LOYOLA MARYMOUNT UNIVERSITY #1","Address":"1 Lmu Dr 8235","City":"Los Angeles","State":"CA","Zip":"90045"},{"Location":"LUXURY HOMES AND DESIGN","Address":"6330 W 81st St","City":"Los Angeles","State":"CA","Zip":"90045"},{"Location":"LYNDON INTERNATIONAL","Address":"5235 W 104th St","City":"Los Angeles","State":"CA","Zip":"90045"},{"Location":"MAGIC JOHNSON SPORTS","Address":"500 World Way 988","City":"Los Angeles","State":"CA","Zip":"90045"},{"Location":"MAMA JOANS","Address":"5496 W Centinela Ave","City":"Los Angeles","State":"CA","Zip":"90045"},{"Location":"Mama Joans Soul Food","Address":"5496 W Centinela Ave","City":"Los Angeles","State":"CA","Zip":"90045"},{"Location":"MAPLE LEAF LOUNGE AIR CANADA","Address":"200 World Way 413","City":"Los Angeles","State":"CA","Zip":"90045"},{"Location":"MARCH VISION CARE","Address":"6601 Center Drive West Secon","City":"Los Angeles","State":"CA","Zip":"90045"},{"Location":"MARIAS TORTILLAS","Address":"5606 W Manchester Ave","City":"Los Angeles","State":"CA","Zip":"90045"},{"Location":"MARRIOTT LAX%2FCHAMPIONS","Address":"5855 W Century Blvd","City":"Los Angeles","State":"CA","Zip":"90045"},{"Location":"MARTINIS","Address":"6503 S Sepulveda Blvd","City":"Los Angeles","State":"CA","Zip":"90045"},{"Location":"MAXWELL DENTAL CORP","Address":"6828 La Tijera Blvd","City":"Los Angeles","State":"CA","Zip":"90045"},{"Location":"MERCURY AIR CARGO","Address":"5908 Avion Dr","City":"Los Angeles","State":"CA","Zip":"90045"},{"Location":"MIDNITE EXPRESS","Address":"8801 Bellanca Ave","City":"Los Angeles","State":"CA","Zip":"90045"},{"Location":"MIDWAY CAR RENTAL","Address":"6151 W Century Blvd","City":"Los Angeles","State":"CA","Zip":"90045"},{"Location":"MURCURY AIR CARGO","Address":"6040 Avion Dr","City":"Los Angeles","State":"CA","Zip":"90045"},{"Location":"MUST HAVE HAIR STUDIO","Address":"6226 12 W Manchester Ave","City":"Los Angeles","State":"CA","Zip":"90045"},{"Location":"NATIONAL UNIVERSITY","Address":"5245 Pacific Concourse Dr 100","City":"Los Angeles","State":"CA","Zip":"90045"},{"Location":"NEW ATTITUDE HAIR SALON","Address":"6218 W 87th St","City":"Los Angeles","State":"CA","Zip":"90045"},{"Location":"NIKKO INFLIGHT CATERING CO","Address":"6751 W Imperial Hwy","City":"Los Angeles","State":"CA","Zip":"90045"},{"Location":"NITETRAIN COACH LEASING","Address":"6141 W Century Blvd","City":"Los Angeles","State":"CA","Zip":"90045"},{"Location":"NWA CARGO","Address":"11101 Aviation Blvd","City":"Los Angeles","State":"CA","Zip":"90045"},{"Location":"O MY HAIR BOUTIQE 2","Address":"8636 S Sepulveda Blvd","City":"Los Angeles","State":"CA","Zip":"90045"},{"Location":"OTIS ART INSTITUTE","Address":"9045 Lincoln Blvd","City":"Los Angeles","State":"CA","Zip":"90045"},{"Location":"PACOS CANTINA INC","Address":"6212 W Manchester Ave","City":"Los Angeles","State":"CA","Zip":"90045"},{"Location":"PARS","Address":"5844 W Manchester Ave","City":"Los Angeles","State":"CA","Zip":"90045"},{"Location":"PAYVIA","Address":"6601 Center Dr W 700","City":"Los Angeles","State":"CA","Zip":"90045"},{"Location":"PEOPLES CARE","Address":"8013 Ramsgate Ave","City":"Los Angeles","State":"CA","Zip":"90045"},{"Location":"PNF LAX INC","Address":"6351 W Century Blvd","City":"Los Angeles","State":"CA","Zip":"90045"},{"Location":"PORTFOLIO HOTELS AND RESORTS","Address":"6101 W Century Blvd","City":"Los Angeles","State":"CA","Zip":"90045"},{"Location":"PREMEIRE PARTY AND RENTS","Address":"5255 W 102nd St","City":"Los Angeles","State":"CA","Zip":"90045"},{"Location":"PRO ANGLE MEDIA","Address":"5757 W Century Blvd 800","City":"Los Angeles","State":"CA","Zip":"90045"},{"Location":"QANTAS AIRWAYS","Address":"380 World Way 4124","City":"Los Angeles","State":"CA","Zip":"90045"},{"Location":"RELIANT MEDICAL CENTER","Address":"9601 S Sepulveda Blvd","City":"Los Angeles","State":"CA","Zip":"90045"},{"Location":"RENAISSANCE (0041540)","Address":"9620 Airport Blvd","City":"Los Angeles","State":"CA","Zip":"90045"},{"Location":"RESIDENCE INN LAX (0215416)","Address":"5933 W Century Blvd","City":"Los Angeles","State":"CA","Zip":"90045"},{"Location":"ROCK & BREWS T5","Address":"500 World Way T5","City":"Los Angeles","State":"CA","Zip":"90045"},{"Location":"ROCK-IT CARGO USA INC","Address":"5438 W 104th St","City":"Los Angeles","State":"CA","Zip":"90045"},{"Location":"S AND H BAGGAGE","Address":"8622 Bellanca Ave M","City":"Los Angeles","State":"CA","Zip":"90045"},{"Location":"SHERATON GATEWAY (0004030)","Address":"6101 W Century Blvd","City":"Los Angeles","State":"CA","Zip":"90045"},{"Location":"SHIPCO TRANSPORT","Address":"5341 W 104th St","City":"Los Angeles","State":"CA","Zip":"90045"},{"Location":"SIZZLER 219","Address":"5856 W Manchester Ave","City":"Los Angeles","State":"CA","Zip":"90045"},{"Location":"SKEWERS","Address":"500 World Way","City":"Los Angeles","State":"CA","Zip":"90045"},{"Location":"SMO KING'S","Address":"6713 La Tijera Blvd","City":"Los Angeles","State":"CA","Zip":"90045"},{"Location":"SMOKERS DELIGHT","Address":"5710 W Manchester Ave","City":"Los Angeles","State":"CA","Zip":"90045"},{"Location":"SNAPY LIQUOR","Address":"5205 W Imperial Hwy","City":"Los Angeles","State":"CA","Zip":"90045"},{"Location":"SONOS 1","Address":"6300 Arizona Cir","City":"Los Angeles","State":"CA","Zip":"90045"},{"Location":"SOUTHWEST AIRLINES","Address":"7255 World Way W","City":"Los Angeles","State":"CA","Zip":"90045"},{"Location":"SOUTHWEST AIRLINES","Address":"100 World Way 328","City":"Los Angeles","State":"CA","Zip":"90045"},{"Location":"SOVEREIGN HEALTH OF CALI","Address":"5919 W 74th St","City":"Los Angeles","State":"CA","Zip":"90045"},{"Location":"SPECTRUM","Address":"6833 Park Ter","City":"Los Angeles","State":"CA","Zip":"90045"},{"Location":"SPRITE ANIMATION","Address":"6701 Center Dr W","City":"Los Angeles","State":"CA","Zip":"90045"},{"Location":"STANDARD AERO","Address":"6201 W Imperial Hwy","City":"Los Angeles","State":"CA","Zip":"90045"},{"Location":"STUDIO Z","Address":"5614 W Manchester Ave","City":"Los Angeles","State":"CA","Zip":"90045"},{"Location":"SUMMIT SKI & CYCLE","Address":"8419 Lincoln Blvd","City":"Los Angeles","State":"CA","Zip":"90045"},{"Location":"SUPER SPA","Address":"9138 S Sepulveda Blvd","City":"Los Angeles","State":"CA","Zip":"90045"},{"Location":"SUSHI KURA","Address":"5567 W Manchester Ave","City":"Los Angeles","State":"CA","Zip":"90045"},{"Location":"SYNERGY LINK CORP.","Address":"8330 Hindry Ave","City":"Los Angeles","State":"CA","Zip":"90045"},{"Location":"TARGET 2","Address":"8496 Osage Ave","City":"Los Angeles","State":"CA","Zip":"90045"},{"Location":"TEODORO DECOUD","Address":"9100 S Sepulveda Blvd 130","City":"Los Angeles","State":"CA","Zip":"90045"},{"Location":"TESLA MOTORS","Address":"5840 W Centinela Ave","City":"Los Angeles","State":"CA","Zip":"90045"},{"Location":"TGI FRIDAY'S #2498","Address":"6721 La Tijera Blvd","City":"Los Angeles","State":"CA","Zip":"90045"},{"Location":"THAI TALAY","Address":"8411 Lincoln Blvd","City":"Los Angeles","State":"CA","Zip":"90045"},{"Location":"THE CANDY BAR INC","Address":"6208 W 87th St","City":"Los Angeles","State":"CA","Zip":"90045"},{"Location":"THE COFFEE BEAN","Address":"500 World Way","City":"Los Angeles","State":"CA","Zip":"90045"},{"Location":"THE GEO GROUP","Address":"6100 Center Dr 825","City":"Los Angeles","State":"CA","Zip":"90045"},{"Location":"THE J SPOT","Address":"5581 W Manchester Ave","City":"Los Angeles","State":"CA","Zip":"90045"},{"Location":"THE PROMENADE CENTER","Address":"6081 Center Dr 202a","City":"Los Angeles","State":"CA","Zip":"90045"},{"Location":"THOMAS JOHNSON MD","Address":"9100 S Sepulveda Blvd 121","City":"Los Angeles","State":"CA","Zip":"90045"},{"Location":"THORNTON TOMASETTI","Address":"6080 Center Dr 260","City":"Los Angeles","State":"CA","Zip":"90045"},{"Location":"TOLL FREE FORWARDING","Address":"9841 Airport Blvd 900","City":"Los Angeles","State":"CA","Zip":"90045"},{"Location":"TOP KOTCH PROMOTIONS AND","Address":"8701 La Tijera Blvd","City":"Los Angeles","State":"CA","Zip":"90045"},{"Location":"TOWER PIZZA","Address":"8351 Lincoln Blvd","City":"Los Angeles","State":"CA","Zip":"90045"},{"Location":"TOWNHOUSE","Address":"6835 La Tijera Blvd","City":"Los Angeles","State":"CA","Zip":"90045"},{"Location":"TRACKSIDE LIVE PROD LLC","Address":"6701 Center Dr W 800","City":"Los Angeles","State":"CA","Zip":"90045"},{"Location":"TRITON MANAGEMENT SERV LLC","Address":"5250 W Century Blvd","City":"Los Angeles","State":"CA","Zip":"90045"},{"Location":"TRUXTONS","Address":"8611 Truxton Ave","City":"Los Angeles","State":"CA","Zip":"90045"},{"Location":"TS70542020000D00XXAOXXLAXXTVXX","Address":"5767 W Century Blvd 300","City":"Los Angeles","State":"CA","Zip":"90045"},{"Location":"TSA FAMS LAX","Address":"1 World Way","City":"Los Angeles","State":"CA","Zip":"90045"},{"Location":"TURTLE & HUGHES","Address":"5760 W 96th St","City":"Los Angeles","State":"CA","Zip":"90045"},{"Location":"TVG NETWORK","Address":"6701 Center Dr W 160","City":"Los Angeles","State":"CA","Zip":"90045"},{"Location":"UA- LAX- HANGAR 1","Address":"6018 Avion Dr 1","City":"Los Angeles","State":"CA","Zip":"90045"},{"Location":"UA- LAX- HANGAR 2","Address":"6018 Avion Dr 2","City":"Los Angeles","State":"CA","Zip":"90045"},{"Location":"UA- LAX- TERMINAL 7","Address":"6018 Avion Dr","City":"Los Angeles","State":"CA","Zip":"90045"},{"Location":"UA- LAX- TERMINAL 8","Address":"6018 Avion Dr","City":"Los Angeles","State":"CA","Zip":"90045"},{"Location":"UNION BANK NA","Address":"6719 La Tijera Blvd","City":"Los Angeles","State":"CA","Zip":"90045"},{"Location":"UNITED STATES COAST GUARD","Address":"7159 World Way W","City":"Los Angeles","State":"CA","Zip":"90045"},{"Location":"UNITED TRANSPORTATION SE","Address":"9100 S Sepulveda Blvd 109","City":"Los Angeles","State":"CA","Zip":"90045"},{"Location":"UNITED TRANSPORTATION SECURITY","Address":"9100 S Sepulveda Blvd 113","City":"Los Angeles","State":"CA","Zip":"90045"},{"Location":"UNIVISION COMMUNICATIONS INC","Address":"5999 Center Dr","City":"Los Angeles","State":"CA","Zip":"90045"},{"Location":"US CBP","Address":"380 World Way","City":"Los Angeles","State":"CA","Zip":"90045"},{"Location":"US CUSTOMS AND BORDER PROTECTI","Address":"11099 S La Cienega Blvd 2206","City":"Los Angeles","State":"CA","Zip":"90045"},{"Location":"USA TODAY","Address":"6060 Center Dr 900","City":"Los Angeles","State":"CA","Zip":"90045"},{"Location":"VERIZON WIRELESS","Address":"6382 Arizona Cir","City":"Los Angeles","State":"CA","Zip":"90045"},{"Location":"VIP SPA","Address":"5561 W Manchester Ave","City":"Los Angeles","State":"CA","Zip":"90045"},{"Location":"VIRGIN AMERICA","Address":"300 World Way","City":"Los Angeles","State":"CA","Zip":"90045"},{"Location":"VIRGIN AUSTRALIA INTERNATIONAL","Address":"300 World Way 3","City":"Los Angeles","State":"CA","Zip":"90045"},{"Location":"WACKY INC","Address":"8919 S Sepulveda Blvd","City":"Los Angeles","State":"CA","Zip":"90045"},{"Location":"WEST CHESTER CHURCH OF CHRIST","Address":"5925 W 79th St","City":"Los Angeles","State":"CA","Zip":"90045"},{"Location":"WEST GASTROENTEROLOGY MEDICAL","Address":"8110 Airport Blvd","City":"Los Angeles","State":"CA","Zip":"90045"},{"Location":"WESTCOAST CUSTOMS AUTOMOTIVE","Address":"6861 La Tijera Blvd","City":"Los Angeles","State":"CA","Zip":"90045"},{"Location":"WESTERN MOTOR WORKS INC","Address":"8332 Osage Ave","City":"Los Angeles","State":"CA","Zip":"90045"},{"Location":"WESTIN LOS ANGELES AIRPORT","Address":"5400 W Century Blvd","City":"Los Angeles","State":"CA","Zip":"90045"},{"Location":"WILSHIRE WEST DENTAL GROUP","Address":"8930 S Sepulveda Blvd 118","City":"Los Angeles","State":"CA","Zip":"90045"},{"Location":"WINGSTOP RESTAURANTS","Address":"6909 La Tijera Blvd","City":"Los Angeles","State":"CA","Zip":"90045"},{"Location":"WOLFGANG PUCK EXPRESS","Address":"700 World Way","City":"Los Angeles","State":"CA","Zip":"90045"},{"Location":"WORLD KARATE","Address":"8707 Truxton Ave","City":"Los Angeles","State":"CA","Zip":"90045"},{"Location":"ALL3MEDIAAMERICA","Address":"6060 Center Dr 4thf","City":"Los Angelese","State":"CA","Zip":"90045"},{"Location":"JIFFY LUBE 1597","Address":"8525 S Sepulveda Blvd","City":"Westchester","State":"CA","Zip":"90045"},{"Location":"KOHL'S #1385","Address":"8739 S Sepulveda Blvd","City":"Westchester","State":"CA","Zip":"90045"},{"Location":"MCL & ASSOCIATE INC","Address":"7701 El Manor Ave","City":"Westchester","State":"CA","Zip":"90045"},{"Location":"RUBEN MICHAEL SALON","Address":"8800 S Sepulveda Blvd 7","City":"Westchester","State":"CA","Zip":"90045"}]