[{"Location":"THE GREYHOUND","Address":"5570 N Figueroa St","City":"Highland Park","State":"CA","Zip":"90042"},{"Location":"THE BUFFALO SPOT 3","Address":"3286 W Slauson","City":"La","State":"CA","Zip":"90042"},{"Location":"ANAS PARTY SUPPLY","Address":"4929 York Blvd","City":"Los Angeles","State":"CA","Zip":"90042"},{"Location":"BELJACK TRUST CORP.","Address":"5515 York Blvd","City":"Los Angeles","State":"CA","Zip":"90042"},{"Location":"EL PESCADOR","Address":"5230 N Figueroa St","City":"Los Angeles","State":"CA","Zip":"90042"},{"Location":"GUSTABO ALZA MEDICAL CORP","Address":"5224 N Figueroa St","City":"Los Angeles","State":"CA","Zip":"90042"},{"Location":"HAIR ZONE","Address":"5673 York Blvd","City":"Los Angeles","State":"CA","Zip":"90042"},{"Location":"JESSICA BEAUTY SALON","Address":"5105 Monte Vista St","City":"Los Angeles","State":"CA","Zip":"90042"},{"Location":"JOHNNY'S BAR","Address":"5006 York Blvd","City":"Los Angeles","State":"CA","Zip":"90042"},{"Location":"L A MEAT MARKET","Address":"5341 N Figueroa St","City":"Los Angeles","State":"CA","Zip":"90042"},{"Location":"LUIS BARBER SHOP","Address":"5205 Monte Vista St","City":"Los Angeles","State":"CA","Zip":"90042"},{"Location":"LUPETAS 98 PLUS PARTY STORE","Address":"5048 York Blvd","City":"Los Angeles","State":"CA","Zip":"90042"},{"Location":"MARISCOS SINALOA","Address":"5633 York Blvd","City":"Los Angeles","State":"CA","Zip":"90042"},{"Location":"MICHELLES NAILS","Address":"5727 N Figueroa St","City":"Los Angeles","State":"CA","Zip":"90042"},{"Location":"PALMER TIRE","Address":"6128 N Figueroa St","City":"Los Angeles","State":"CA","Zip":"90042"},{"Location":"RICROKS TATTOOS","Address":"6181 N Figueroa St","City":"Los Angeles","State":"CA","Zip":"90042"},{"Location":"S MAKEUP STUDIO","Address":"5711 N Figueroa St","City":"Los Angeles","State":"CA","Zip":"90042"},{"Location":"SENSATIONS HAIR STUDIO","Address":"104 N Avenue 58","City":"Los Angeles","State":"CA","Zip":"90042"},{"Location":"THE OFF BEAT BAR","Address":"6316 York Blvd","City":"Los Angeles","State":"CA","Zip":"90042"},{"Location":"THE YORK","Address":"5018 York Blvd","City":"Los Angeles","State":"CA","Zip":"90042"},{"Location":"TRIUMPH OPTICAL","Address":"5529 N Figueroa St","City":"Los Angeles","State":"CA","Zip":"90042"},{"Location":"YORK HEALTHCARE AND WELLNESS","Address":"6071 York Blvd","City":"Los Angeles","State":"CA","Zip":"90042"},{"Location":"THE GREYHOUND","Address":"5570 N Figueroa St","City":"Highland Park","State":"CA","Zip":"90042"},{"Location":"THE BUFFALO SPOT 3","Address":"3286 W Slauson","City":"La","State":"CA","Zip":"90042"},{"Location":"ANAS PARTY SUPPLY","Address":"4929 York Blvd","City":"Los Angeles","State":"CA","Zip":"90042"},{"Location":"BELJACK TRUST CORP.","Address":"5515 York Blvd","City":"Los Angeles","State":"CA","Zip":"90042"},{"Location":"EL PESCADOR","Address":"5230 N Figueroa St","City":"Los Angeles","State":"CA","Zip":"90042"},{"Location":"GUSTABO ALZA MEDICAL CORP","Address":"5224 N Figueroa St","City":"Los Angeles","State":"CA","Zip":"90042"},{"Location":"HAIR ZONE","Address":"5673 York Blvd","City":"Los Angeles","State":"CA","Zip":"90042"},{"Location":"JESSICA BEAUTY SALON","Address":"5105 Monte Vista St","City":"Los Angeles","State":"CA","Zip":"90042"},{"Location":"JOHNNY'S BAR","Address":"5006 York Blvd","City":"Los Angeles","State":"CA","Zip":"90042"},{"Location":"L A MEAT MARKET","Address":"5341 N Figueroa St","City":"Los Angeles","State":"CA","Zip":"90042"},{"Location":"LUIS BARBER SHOP","Address":"5205 Monte Vista St","City":"Los Angeles","State":"CA","Zip":"90042"},{"Location":"LUPETAS 98 PLUS PARTY STORE","Address":"5048 York Blvd","City":"Los Angeles","State":"CA","Zip":"90042"},{"Location":"MICHELLES NAILS","Address":"5727 N Figueroa St","City":"Los Angeles","State":"CA","Zip":"90042"},{"Location":"PALMER TIRE","Address":"6128 N Figueroa St","City":"Los Angeles","State":"CA","Zip":"90042"},{"Location":"RICROKS TATTOOS","Address":"6181 N Figueroa St","City":"Los Angeles","State":"CA","Zip":"90042"},{"Location":"S MAKEUP STUDIO","Address":"5711 N Figueroa St","City":"Los Angeles","State":"CA","Zip":"90042"},{"Location":"SENSATIONS HAIR STUDIO","Address":"104 N Avenue 58","City":"Los Angeles","State":"CA","Zip":"90042"},{"Location":"THE OFF BEAT BAR","Address":"6316 York Blvd","City":"Los Angeles","State":"CA","Zip":"90042"},{"Location":"THE YORK","Address":"5018 York Blvd","City":"Los Angeles","State":"CA","Zip":"90042"},{"Location":"TRIUMPH OPTICAL","Address":"5529 N Figueroa St","City":"Los Angeles","State":"CA","Zip":"90042"},{"Location":"YORK HEALTHCARE AND WELLNESS","Address":"6071 York Blvd","City":"Los Angeles","State":"CA","Zip":"90042"}]