[{"Location":"ZONO","Address":"610 N. First St Burbank","City":"Burbank","State":"CA","Zip":"90057"},{"Location":"7TH STREET MEDICAL GROUP","Address":"1919 W 7th St 2","City":"Los Angeles","State":"CA","Zip":"90057"},{"Location":"ALPHA PHARMACY","Address":"174 S Alvarado St","City":"Los Angeles","State":"CA","Zip":"90057"},{"Location":"ANNA S NEWS","Address":"705 S Alvarado St","City":"Los Angeles","State":"CA","Zip":"90057"},{"Location":"BAMBOO EXPRESS","Address":"600 S Alvarado St 111c","City":"Los Angeles","State":"CA","Zip":"90057"},{"Location":"BETOS MUFFLERS","Address":"2811 Beverly Blvd C","City":"Los Angeles","State":"CA","Zip":"90057"},{"Location":"BIG SIX ENTERPRISES","Address":"2617 W 6th St","City":"Los Angeles","State":"CA","Zip":"90057"},{"Location":"BLUMHOUSE PRODUCTIONS","Address":"2401 Beverly Blvd","City":"Los Angeles","State":"CA","Zip":"90057"},{"Location":"BOTICA DEL PUEBLO","Address":"2035 W 7th St","City":"Los Angeles","State":"CA","Zip":"90057"},{"Location":"CARLOS GUERRA","Address":"3253 Beverly Blvd","City":"Los Angeles","State":"CA","Zip":"90057"},{"Location":"CENTRAL DENTAL CARE","Address":"2023 Beverly Blvd","City":"Los Angeles","State":"CA","Zip":"90057"},{"Location":"CIRCLE CITY","Address":"2201 Beverly Blvd","City":"Los Angeles","State":"CA","Zip":"90057"},{"Location":"COJUTEPEQUE RESTAURANT","Address":"2610 W 3rd St","City":"Los Angeles","State":"CA","Zip":"90057"},{"Location":"CONSULADO GENERAL MEXICO","Address":"2401 W 6th St","City":"Los Angeles","State":"CA","Zip":"90057"},{"Location":"CRISTINA BEAUTY SALON","Address":"2125 W 8th St","City":"Los Angeles","State":"CA","Zip":"90057"},{"Location":"DAISY I BAUTISTA MD","Address":"1930 Wilshire Blvd 803","City":"Los Angeles","State":"CA","Zip":"90057"},{"Location":"DANIEL BRAWLEY","Address":"420 S Bonnie Brae St 16b","City":"Los Angeles","State":"CA","Zip":"90057"},{"Location":"DISORDERLY KIDS","Address":"2520 W 6th St","City":"Los Angeles","State":"CA","Zip":"90057"},{"Location":"DON JIREH EXPRESS","Address":"2222 W 7th St","City":"Los Angeles","State":"CA","Zip":"90057"},{"Location":"DYNAMIST PROFFESIONAL SE","Address":"711 S Alvarado St 204","City":"Los Angeles","State":"CA","Zip":"90057"},{"Location":"EL CALIFAS","Address":"1827 W 6th St","City":"Los Angeles","State":"CA","Zip":"90057"},{"Location":"EL CHINO RESTAURANT","Address":"2119 W 8th St D","City":"Los Angeles","State":"CA","Zip":"90057"},{"Location":"EL GUANACO RESTAURANT","Address":"2015 W 7th St","City":"Los Angeles","State":"CA","Zip":"90057"},{"Location":"EL O","Address":"1816 W 6th St","City":"Los Angeles","State":"CA","Zip":"90057"},{"Location":"EL QUETZAL BAKERY","Address":"2724 W 7th St","City":"Los Angeles","State":"CA","Zip":"90057"},{"Location":"EXECUTIVE TAX SERVICE","Address":"746 S Alvarado St 12","City":"Los Angeles","State":"CA","Zip":"90057"},{"Location":"FAMILY DENISTRY","Address":"274 S Rampart Blvd","City":"Los Angeles","State":"CA","Zip":"90057"},{"Location":"FLOR BLANCA","Address":"806 S Alvarado St","City":"Los Angeles","State":"CA","Zip":"90057"},{"Location":"INDUSTRIAL HEALTH CARE","Address":"2010 Wilshire Blvd 926","City":"Los Angeles","State":"CA","Zip":"90057"},{"Location":"KEFASONG INC","Address":"280 S Rampart Blvd","City":"Los Angeles","State":"CA","Zip":"90057"},{"Location":"LA CHIROPRACTIC GROUP","Address":"2010 Wilshire Blvd 706","City":"Los Angeles","State":"CA","Zip":"90057"},{"Location":"LA FAVORITA MARKET","Address":"3125 Beverly Blvd","City":"Los Angeles","State":"CA","Zip":"90057"},{"Location":"LA ORTHOPEDIC INSTITUTE","Address":"201 S Alvarado St 501","City":"Los Angeles","State":"CA","Zip":"90057"},{"Location":"LA PROBATION 685","Address":"2500 Wilshire Blvd 1010","City":"Los Angeles","State":"CA","Zip":"90057"},{"Location":"LAW OFFICES OF OTTO PENA","Address":"2330 W 3rd St 10","City":"Los Angeles","State":"CA","Zip":"90057"},{"Location":"LE SIGNATURE","Address":"532 S Occidental Blvd","City":"Los Angeles","State":"CA","Zip":"90057"},{"Location":"LIBERTY TAX SERVICE 14","Address":"1800 W 6th St 1","City":"Los Angeles","State":"CA","Zip":"90057"},{"Location":"LIGA Y DEPORTES","Address":"709 S Bonnie Brae St","City":"Los Angeles","State":"CA","Zip":"90057"},{"Location":"LIGA Y DEPORTES 2000","Address":"2007 W 8th St","City":"Los Angeles","State":"CA","Zip":"90057"},{"Location":"MANAGEMENT PLUS GROUP","Address":"672 S La Fayette Park Pl","City":"Los Angeles","State":"CA","Zip":"90057"},{"Location":"MAXIMA ERNACIO DMD INC","Address":"2105 Beverly Blvd 123","City":"Los Angeles","State":"CA","Zip":"90057"},{"Location":"MAYAN RETAILER","Address":"1809 W 6th St","City":"Los Angeles","State":"CA","Zip":"90057"},{"Location":"MAZAT EX","Address":"2400 W 7th St 114","City":"Los Angeles","State":"CA","Zip":"90057"},{"Location":"NATIONAL RESEARCH INSTIT","Address":"2010 Wilshire Blvd 302","City":"Los Angeles","State":"CA","Zip":"90057"},{"Location":"NICE EXPRESS","Address":"2609 W 7th St","City":"Los Angeles","State":"CA","Zip":"90057"},{"Location":"PESCADO MOJADO","Address":"610 S Rampart Blvd","City":"Los Angeles","State":"CA","Zip":"90057"},{"Location":"POLLO CAMPERO","Address":"2116 W 7th St","City":"Los Angeles","State":"CA","Zip":"90057"},{"Location":"ROBERTO LEMUS","Address":"1833 W 8th St","City":"Los Angeles","State":"CA","Zip":"90057"},{"Location":"RUKSA LIQUOR MART","Address":"1805 W 7th St","City":"Los Angeles","State":"CA","Zip":"90057"},{"Location":"S H LAUNDRY INC","Address":"1830 W 8th St","City":"Los Angeles","State":"CA","Zip":"90057"},{"Location":"SALON DE BELLEZA PRICIS","Address":"1816 W 6th St F11pb","City":"Los Angeles","State":"CA","Zip":"90057"},{"Location":"SALON GENISIS","Address":"1816 W 6th St","City":"Los Angeles","State":"CA","Zip":"90057"},{"Location":"SAMMY S PHONE CARD","Address":"1816 W 6th St Z","City":"Los Angeles","State":"CA","Zip":"90057"},{"Location":"SAN CRISTOBAL MEDICAL GR","Address":"2010 Wilshire Blvd 400","City":"Los Angeles","State":"CA","Zip":"90057"},{"Location":"SAN LUCAS MEDICAL CLINIC","Address":"2010 Wilshire Blvd 2012","City":"Los Angeles","State":"CA","Zip":"90057"},{"Location":"SCG","Address":"2301 Beverly Blvd","City":"Los Angeles","State":"CA","Zip":"90057"},{"Location":"SEAFOOD EXPRESS","Address":"2122 Beverly Blvd","City":"Los Angeles","State":"CA","Zip":"90057"},{"Location":"SECOND CENTURY DAY HEALTH CARE","Address":"2121 Beverly Blvd","City":"Los Angeles","State":"CA","Zip":"90057"},{"Location":"SERRANO DAVID R","Address":"176 S Alvarado St","City":"Los Angeles","State":"CA","Zip":"90057"},{"Location":"SILVER LIQROR MARKET","Address":"2717 W 3rd St","City":"Los Angeles","State":"CA","Zip":"90057"},{"Location":"ST VINCENT MEDICAL CENTER","Address":"2200 W 3rd St","City":"Los Angeles","State":"CA","Zip":"90057"},{"Location":"ST. VINCENT MED CTR","Address":"2131 W 3rd St","City":"Los Angeles","State":"CA","Zip":"90057"},{"Location":"STAR SPA","Address":"2551 Beverly Blvd","City":"Los Angeles","State":"CA","Zip":"90057"},{"Location":"SUNG NAE BYUN MD MEDICAL GROUP","Address":"2120 W 8th St 102","City":"Los Angeles","State":"CA","Zip":"90057"},{"Location":"TANGO ROOM AND BAR","Address":"2028 W 7th St","City":"Los Angeles","State":"CA","Zip":"90057"},{"Location":"TECHNICA MEDICA ALVARADO","Address":"745 S Alvarado St","City":"Los Angeles","State":"CA","Zip":"90057"},{"Location":"THIRD STREET LAVANDERIA","Address":"1822 W 3rd St","City":"Los Angeles","State":"CA","Zip":"90057"},{"Location":"TODO DEPORTES Y MAS","Address":"2126 W 6th St","City":"Los Angeles","State":"CA","Zip":"90057"},{"Location":"TWIST BEAUTY STUDIO","Address":"2540 Beverly Blvd","City":"Los Angeles","State":"CA","Zip":"90057"},{"Location":"ULTCW","Address":"2910 Beverly Blvd","City":"Los Angeles","State":"CA","Zip":"90057"},{"Location":"UNITED DENTAL LAB","Address":"2610 W 8th St","City":"Los Angeles","State":"CA","Zip":"90057"},{"Location":"WI SPA","Address":"2700 Wilshire Blvd","City":"Los Angeles","State":"CA","Zip":"90057"},{"Location":"WI SPA #2","Address":"2700 Wilshire Blvd","City":"Los Angeles","State":"CA","Zip":"90057"},{"Location":"WILSHIRE RESTAURANT","Address":"2454 Wilshire Blvd","City":"Los Angeles","State":"CA","Zip":"90057"}]