[{"Location":"LAS PALMAS DE COLIMA","Address":"1553 E 120th St","City":"August F. Haw","State":"CA","Zip":"90059"},{"Location":"BROWN AND PIPKINS","Address":"645 E Imperial Hwy","City":"Los Angeles","State":"CA","Zip":"90059"},{"Location":"BROWN AND PIPKINS","Address":"647 E Imperial Hwy","City":"Los Angeles","State":"CA","Zip":"90059"},{"Location":"CHARLES R DREW UNIV OF MED & S","Address":"1731 E 120th St","City":"Los Angeles","State":"CA","Zip":"90059"},{"Location":"DAVITA #267 KENNETH HAHN","Address":"11854 Wilmington Ave","City":"Los Angeles","State":"CA","Zip":"90059"},{"Location":"EUGEN HAWKINS","Address":"1300 E Imperial Hwy","City":"Los Angeles","State":"CA","Zip":"90059"},{"Location":"EXODUS FOUNDATION FOR RECOVERY","Address":"12021 Wilmington Ave","City":"Los Angeles","State":"CA","Zip":"90059"},{"Location":"FMC 71750000","Address":"11859 Compton Ave","City":"Los Angeles","State":"CA","Zip":"90059"},{"Location":"GREATER MOUNT HERMON MBC","Address":"2302 W 132nd St","City":"Los Angeles","State":"CA","Zip":"90059"},{"Location":"HOLMES","Address":"12020 S Central Ave","City":"Los Angeles","State":"CA","Zip":"90059"},{"Location":"JESSICAS PARTY SUPPLIES","Address":"12021 S Central Ave","City":"Los Angeles","State":"CA","Zip":"90059"},{"Location":"JONATHAN FURNITURE","Address":"2531 E 115th Pl","City":"Los Angeles","State":"CA","Zip":"90059"},{"Location":"LACOUNTYDEPT.PUBHEALTH  SPA5&6","Address":"11833 Wilmington Ave","City":"Los Angeles","State":"CA","Zip":"90059"},{"Location":"LIFELINE COMMUNITY CLINIC","Address":"11905 S Central Ave 100","City":"Los Angeles","State":"CA","Zip":"90059"},{"Location":"LOS ANGELES FIRE DEPT #41","Address":"1815 E 120th St","City":"Los Angeles","State":"CA","Zip":"90059"},{"Location":"MACEDONIA BAPTIST CHURCH","Address":"1751 E 114th St","City":"Los Angeles","State":"CA","Zip":"90059"},{"Location":"MERCADO TIRES","Address":"11011 S Alameda St","City":"Los Angeles","State":"CA","Zip":"90059"},{"Location":"MERCADO TIRES 1","Address":"2503 E 115th Pl","City":"Los Angeles","State":"CA","Zip":"90059"},{"Location":"MLK HOSP POWER PLANT","Address":"12021 Wilmington Ave","City":"Los Angeles","State":"CA","Zip":"90059"},{"Location":"MRI CENTER AT MLK","Address":"12021 Wilmington Ave 17","City":"Los Angeles","State":"CA","Zip":"90059"},{"Location":"MV PUBLIC TRANSPORT DIVISION","Address":"14011 S Central Ave","City":"Los Angeles","State":"CA","Zip":"90059"},{"Location":"NEW GREEN DAY","Address":"1710 E 111th St","City":"Los Angeles","State":"CA","Zip":"90059"},{"Location":"OLDEN ENTERPRISES","Address":"12015 S Central Ave","City":"Los Angeles","State":"CA","Zip":"90059"},{"Location":"PLANNED  PARENTHOOD","Address":"11722 Wilmington Ave","City":"Los Angeles","State":"CA","Zip":"90059"},{"Location":"T AND J WHOLESALE","Address":"852 E Imperial Hwy","City":"Los Angeles","State":"CA","Zip":"90059"},{"Location":"TACO PETE","Address":"12007 S Central Ave","City":"Los Angeles","State":"CA","Zip":"90059"},{"Location":"TRENCH SHORING","Address":"636 E Rosecrans Ave","City":"Los Angeles","State":"CA","Zip":"90059"},{"Location":"UNION AUTO ELECTRIC SERVI","Address":"11221 S Alameda St","City":"Los Angeles","State":"CA","Zip":"90059"},{"Location":"LAS PALMAS DE COLIMA","Address":"1553 E 120th St","City":"August F. Haw","State":"CA","Zip":"90059"},{"Location":"BROWN AND PIPKINS","Address":"647 E Imperial Hwy","City":"Los Angeles","State":"CA","Zip":"90059"},{"Location":"BROWN AND PIPKINS","Address":"645 E Imperial Hwy","City":"Los Angeles","State":"CA","Zip":"90059"},{"Location":"CHARLES R DREW UNIV OF MED & S","Address":"1731 E 120th St","City":"Los Angeles","State":"CA","Zip":"90059"},{"Location":"DAVITA #267 KENNETH HAHN","Address":"11854 Wilmington Ave","City":"Los Angeles","State":"CA","Zip":"90059"},{"Location":"EUGEN HAWKINS","Address":"1300 E Imperial Hwy","City":"Los Angeles","State":"CA","Zip":"90059"},{"Location":"EXODUS FOUNDATION FOR RECOVERY","Address":"12021 Wilmington Ave","City":"Los Angeles","State":"CA","Zip":"90059"},{"Location":"FMC 71750000","Address":"11859 Compton Ave","City":"Los Angeles","State":"CA","Zip":"90059"},{"Location":"GREATER MOUNT HERMON MBC","Address":"2302 W 132nd St","City":"Los Angeles","State":"CA","Zip":"90059"},{"Location":"HOLMES","Address":"12020 S Central Ave","City":"Los Angeles","State":"CA","Zip":"90059"},{"Location":"JESSICAS PARTY SUPPLIES","Address":"12021 S Central Ave","City":"Los Angeles","State":"CA","Zip":"90059"},{"Location":"JONATHAN FURNITURE","Address":"2531 E 115th Pl","City":"Los Angeles","State":"CA","Zip":"90059"},{"Location":"LACOUNTYDEPT.PUBHEALTH  SPA5&6","Address":"11833 Wilmington Ave","City":"Los Angeles","State":"CA","Zip":"90059"},{"Location":"LIFELINE COMMUNITY CLINIC","Address":"11905 S Central Ave 100","City":"Los Angeles","State":"CA","Zip":"90059"},{"Location":"LOS ANGELES FIRE DEPT #41","Address":"1815 E 120th St","City":"Los Angeles","State":"CA","Zip":"90059"},{"Location":"MACEDONIA BAPTIST CHURCH","Address":"1751 E 114th St","City":"Los Angeles","State":"CA","Zip":"90059"},{"Location":"MERCADO TIRES","Address":"11011 S Alameda St","City":"Los Angeles","State":"CA","Zip":"90059"},{"Location":"MERCADO TIRES 1","Address":"2503 E 115th Pl","City":"Los Angeles","State":"CA","Zip":"90059"},{"Location":"MLK HOSP POWER PLANT","Address":"12021 Wilmington Ave","City":"Los Angeles","State":"CA","Zip":"90059"},{"Location":"MRI CENTER AT MLK","Address":"12021 Wilmington Ave 17","City":"Los Angeles","State":"CA","Zip":"90059"},{"Location":"MV PUBLIC TRANSPORT DIVISION","Address":"14011 S Central Ave","City":"Los Angeles","State":"CA","Zip":"90059"},{"Location":"NEW GREEN DAY","Address":"1710 E 111th St","City":"Los Angeles","State":"CA","Zip":"90059"},{"Location":"OLDEN ENTERPRISES","Address":"12015 S Central Ave","City":"Los Angeles","State":"CA","Zip":"90059"},{"Location":"PLANNED  PARENTHOOD","Address":"11722 Wilmington Ave","City":"Los Angeles","State":"CA","Zip":"90059"},{"Location":"T AND J WHOLESALE","Address":"852 E Imperial Hwy","City":"Los Angeles","State":"CA","Zip":"90059"},{"Location":"TACO PETE","Address":"12007 S Central Ave","City":"Los Angeles","State":"CA","Zip":"90059"},{"Location":"TRENCH SHORING","Address":"636 E Rosecrans Ave","City":"Los Angeles","State":"CA","Zip":"90059"},{"Location":"UNION AUTO ELECTRIC SERVI","Address":"11221 S Alameda St","City":"Los Angeles","State":"CA","Zip":"90059"}]