[{"Location":"ARAMBURO PRODUCE","Address":"1961 E Vernon Ave","City":"Los Angeles","State":"CA","Zip":"90058"},{"Location":"C R LAURENCE COMPANY","Address":"2100 E 38th St","City":"Los Angeles","State":"CA","Zip":"90058"},{"Location":"CR LAWRENCE CO INC","Address":"2503 E Vernon Ave","City":"Los Angeles","State":"CA","Zip":"90058"},{"Location":"CY FLOORING","Address":"1933 S Alameda St","City":"Los Angeles","State":"CA","Zip":"90058"},{"Location":"JOE'S PLASTIC","Address":"5725 District Blvd","City":"Los Angeles","State":"CA","Zip":"90058"},{"Location":"LOURDES CHAVEZ INC","Address":"2170 E Anderson St","City":"Los Angeles","State":"CA","Zip":"90058"},{"Location":"LUPITAS BEATY SUPPLY","Address":"4433 S Alameda St","City":"Los Angeles","State":"CA","Zip":"90058"},{"Location":"MAR DIVINO SEAFOOD INC","Address":"1939 Staunton Ave","City":"Los Angeles","State":"CA","Zip":"90058"},{"Location":"NATURE'S PRODUCE COMPANY","Address":"2622 S Alameda St","City":"Los Angeles","State":"CA","Zip":"90058"},{"Location":"NEW STAR ORIENTAL CORP","Address":"2335 E 27th St","City":"Los Angeles","State":"CA","Zip":"90058"},{"Location":"PACKAGING CORP OF AMERICA","Address":"4240 Bandini Blvd","City":"Los Angeles","State":"CA","Zip":"90058"},{"Location":"SOUTH WIND FOOD","Address":"2900 Ayers Ave","City":"Los Angeles","State":"CA","Zip":"90058"},{"Location":"THE HUNDREDS IS HUGE INC","Address":"3150 East 46th Street","City":"Los Angeles","State":"CA","Zip":"90058"},{"Location":"WORLD VARIETY PRODUCE","Address":"5325 S Soto St","City":"Los Angeles","State":"CA","Zip":"90058"},{"Location":"ZAPAPERIA CATHERINE","Address":"4433 S Alameda St 843","City":"Los Angeles","State":"CA","Zip":"90058"},{"Location":"25 TRATORIA","Address":"2501 S Santa Fe Ave","City":"Vernon","State":"CA","Zip":"90058"},{"Location":"3RD STREET APPARAL LLC","Address":"2417 E 24th St","City":"Vernon","State":"CA","Zip":"90058"},{"Location":"7 FOR ALL MANKIND","Address":"4440 E 26th St","City":"Vernon","State":"CA","Zip":"90058"},{"Location":"A TO Z FLAME HARDENING","Address":"2466 E 56th St","City":"Vernon","State":"CA","Zip":"90058"},{"Location":"ALAMEDA MARKET","Address":"4501 S Alameda St","City":"Vernon","State":"CA","Zip":"90058"},{"Location":"ALAMEDA STRIP","Address":"4209 S Alameda St","City":"Vernon","State":"CA","Zip":"90058"},{"Location":"ALAMEDA SWAP MEET","Address":"4501 S Alameda St","City":"Vernon","State":"CA","Zip":"90058"},{"Location":"ALLIANCE SPECIALIZED INC","Address":"2800 Ayers Ave","City":"Vernon","State":"CA","Zip":"90058"},{"Location":"ALLIED FEATHER & DOWN","Address":"2231 E 49th St","City":"Vernon","State":"CA","Zip":"90058"},{"Location":"AMERICAN BUS SPECIALIST","Address":"6140 Alcoa Ave","City":"Vernon","State":"CA","Zip":"90058"},{"Location":"AMERICAN CHAIN AND GEAR CO","Address":"2451 E 57th St","City":"Vernon","State":"CA","Zip":"90058"},{"Location":"ANDYS BURGER","Address":"5831 S Santa Fe Ave","City":"Vernon","State":"CA","Zip":"90058"},{"Location":"AUSTIN TRUCKING INC","Address":"4528 Bandini Blvd","City":"Vernon","State":"CA","Zip":"90058"},{"Location":"BAKER COMMODITIES","Address":"4020 Bandini Blvd","City":"Vernon","State":"CA","Zip":"90058"},{"Location":"BCBG MAX AZIRA GROUP","Address":"2761 Fruitland Ave","City":"Vernon","State":"CA","Zip":"90058"},{"Location":"BEST ORIENTAL PRODUCE","Address":"2929 Leonis Blvd","City":"Vernon","State":"CA","Zip":"90058"},{"Location":"CAPRI CUCCINA","Address":"3608 S Soto St","City":"Vernon","State":"CA","Zip":"90058"},{"Location":"CASA SOCCER INC","Address":"5500 S Santa Fe Ave","City":"Vernon","State":"CA","Zip":"90058"},{"Location":"CITY OF VERNON","Address":"4301 S Santa Fe Ave","City":"Vernon","State":"CA","Zip":"90058"},{"Location":"CLOUGHERTY PACKING","Address":"3049 E Vernon Ave","City":"Vernon","State":"CA","Zip":"90058"},{"Location":"CLOUGHERTY PACKING TWO","Address":"3049 E Vernon Ave","City":"Vernon","State":"CA","Zip":"90058"},{"Location":"COMPLETE GARMENT","Address":"2101 E 38th St","City":"Vernon","State":"CA","Zip":"90058"},{"Location":"CONTINENTAL FLEET PAINT","Address":"2021 E 25th St","City":"Vernon","State":"CA","Zip":"90058"},{"Location":"CORE MARK INTERNATIONAL%2FGENERA","Address":"2311 E 48th St B","City":"Vernon","State":"CA","Zip":"90058"},{"Location":"CR LAURENCE","Address":"2450 E Vernon Ave","City":"Vernon","State":"CA","Zip":"90058"},{"Location":"CR LAURENCE CO INC","Address":"2200 E 55th St","City":"Vernon","State":"CA","Zip":"90058"},{"Location":"CULINARY BRANDS","Address":"3280 E 44th St","City":"Vernon","State":"CA","Zip":"90058"},{"Location":"DAIRYMANS HIDE","Address":"3768 Bandini Blvd","City":"Vernon","State":"CA","Zip":"90058"},{"Location":"DESIGN CONCEPTS INC","Address":"2401 E 27th St","City":"Vernon","State":"CA","Zip":"90058"},{"Location":"DIVERSIFIED DISTRIBUTORS","Address":"4820 Alcoa Ave","City":"Vernon","State":"CA","Zip":"90058"},{"Location":"DONGROSS WAREHOUSE","Address":"1951 E 48th St","City":"Vernon","State":"CA","Zip":"90058"},{"Location":"DOUGLAS STEEL SUPPLY","Address":"5764 Alcoa Ave","City":"Vernon","State":"CA","Zip":"90058"},{"Location":"DREAM GREENWISH CAFE","Address":"3809 S Soto St","City":"Vernon","State":"CA","Zip":"90058"},{"Location":"DURANGO REPAIR AND SERVICE","Address":"2438 E 52nd St","City":"Vernon","State":"CA","Zip":"90058"},{"Location":"FED EX GROUND","Address":"2600 E 28th St","City":"Vernon","State":"CA","Zip":"90058"},{"Location":"GLEN ROSE MEAT","Address":"4561 Loma Vista Ave","City":"Vernon","State":"CA","Zip":"90058"},{"Location":"GOLDEN WEST TRADING","Address":"3420 E Vernon Ave","City":"Vernon","State":"CA","Zip":"90058"},{"Location":"GURU DENIM","Address":"2263 E Vernon Ave","City":"Vernon","State":"CA","Zip":"90058"},{"Location":"GURU DENIM 1","Address":"5233 Alcoa Ave","City":"Vernon","State":"CA","Zip":"90058"},{"Location":"HATIYA","Address":"2302 E 38th St","City":"Vernon","State":"CA","Zip":"90058"},{"Location":"JM APPAREL RESOURCES INC","Address":"6152 S Boyle Ave","City":"Vernon","State":"CA","Zip":"90058"},{"Location":"JOBBERS MEAT PACKING","Address":"3336 Fruitland Ave","City":"Vernon","State":"CA","Zip":"90058"},{"Location":"JUST IN TIME","Address":"6152 S Boyle Ave","City":"Vernon","State":"CA","Zip":"90058"},{"Location":"K AND M FOOD SERVICE","Address":"2443 E 27th St","City":"Vernon","State":"CA","Zip":"90058"},{"Location":"KAREN KANE INC","Address":"2275 E 37th St","City":"Vernon","State":"CA","Zip":"90058"},{"Location":"KIM AND CAMI PRODUCTIONS","Address":"2950 Leonis Blvd","City":"Vernon","State":"CA","Zip":"90058"},{"Location":"LA BODEGA BAR & GRILL","Address":"5812 S Santa Fe Ave","City":"Vernon","State":"CA","Zip":"90058"},{"Location":"LABREA BAKERY","Address":"3250 E 44th St","City":"Vernon","State":"CA","Zip":"90058"},{"Location":"LAVA HEAT ITALIA","Address":"5999 Malburg Way","City":"Vernon","State":"CA","Zip":"90058"},{"Location":"LAWRENCE WHOLESALE","Address":"4353 Exchange Ave","City":"Vernon","State":"CA","Zip":"90058"},{"Location":"LOS HIJOS DEL TENAMAPA","Address":"4903 S Santa Fe Ave","City":"Vernon","State":"CA","Zip":"90058"},{"Location":"MILLENNIUM PRODUCTS","Address":"4646 Hampton St","City":"Vernon","State":"CA","Zip":"90058"},{"Location":"MILLENNIUM PRODUCTS 1","Address":"2520 Chambers St","City":"Vernon","State":"CA","Zip":"90058"},{"Location":"MISS ME","Address":"4715 S Alameda St","City":"Vernon","State":"CA","Zip":"90058"},{"Location":"NYDJ APPARELL","Address":"5401 S Soto St","City":"Vernon","State":"CA","Zip":"90058"},{"Location":"PACIFIC FOREST INDUSTRIES","Address":"4803 Everett Ave","City":"Vernon","State":"CA","Zip":"90058"},{"Location":"PAYCON TRUCKING COMPANY","Address":"3152 Bandini Blvd","City":"Vernon","State":"CA","Zip":"90058"},{"Location":"PERFORMANCE DESIGN PRODUCT","Address":"1840 E 27th St","City":"Vernon","State":"CA","Zip":"90058"},{"Location":"PINKETTE","Address":"4550 Alcoa Ave","City":"Vernon","State":"CA","Zip":"90058"},{"Location":"PROFESSIONAL PRODUCE","Address":"2570 E 25th St","City":"Vernon","State":"CA","Zip":"90058"},{"Location":"PUTNMA ACCESORY GROUP","Address":"2133 E 38th St","City":"Vernon","State":"CA","Zip":"90058"},{"Location":"RANCHO FOODS","Address":"2528 E 37th St","City":"Vernon","State":"CA","Zip":"90058"},{"Location":"REHRIG PACIFIC COMPANY","Address":"4010 E 26th St","City":"Vernon","State":"CA","Zip":"90058"},{"Location":"RICH AND SKINNY","Address":"2021 E 49th St","City":"Vernon","State":"CA","Zip":"90058"},{"Location":"ROGERS POLTRY","Address":"5050 Sante Fe Ave","City":"Vernon","State":"CA","Zip":"90058"},{"Location":"ROYAL WHOLESALE ELECTRIC","Address":"4309 District Blvd","City":"Vernon","State":"CA","Zip":"90058"},{"Location":"RP&KY INC DBA ZS PLACE","Address":"3805 S Soto St","City":"Vernon","State":"CA","Zip":"90058"},{"Location":"S K TEXTILE","Address":"2938 E 54th St","City":"Vernon","State":"CA","Zip":"90058"},{"Location":"SAN ANTONIO ROSE","Address":"4505 S Downey Rd","City":"Vernon","State":"CA","Zip":"90058"},{"Location":"STONE HARBOR INC","Address":"5015 District Blvd","City":"Vernon","State":"CA","Zip":"90058"},{"Location":"TADIN HERB TEA","Address":"3345 E Slauson Ave","City":"Vernon","State":"CA","Zip":"90058"},{"Location":"TAGTIME USA","Address":"4601 District Blvd","City":"Vernon","State":"CA","Zip":"90058"},{"Location":"THE AD ART COMPANY","Address":"3270 E 26th St","City":"Vernon","State":"CA","Zip":"90058"},{"Location":"THE AD ART COMPANY","Address":"3260 E 26th St","City":"Vernon","State":"CA","Zip":"90058"},{"Location":"UNITED PARCEL SERVICES","Address":"3333 S Downey Rd","City":"Vernon","State":"CA","Zip":"90058"},{"Location":"US GARMET LLC","Address":"4440 E 26th St","City":"Vernon","State":"CA","Zip":"90058"},{"Location":"US HLTH WKS AND MED GRP","Address":"3364 E Slauson Ave","City":"Vernon","State":"CA","Zip":"90058"},{"Location":"US HLTH WKS AND MED GRP","Address":"3851 S Soto St","City":"Vernon","State":"CA","Zip":"90058"},{"Location":"V.G.I.","Address":"5508 Sante Fe Ave","City":"Vernon","State":"CA","Zip":"90058"},{"Location":"WHOLE FOODS MARKET","Address":"2307 E 49th St","City":"Vernon","State":"CA","Zip":"90058"},{"Location":"WILLIAMS RECORDS","Address":"1925 E Vernon Ave","City":"Vernon","State":"CA","Zip":"90058"},{"Location":"ARAMBURO PRODUCE","Address":"1961 E Vernon Ave","City":"Los Angeles","State":"CA","Zip":"90058"},{"Location":"C R LAURENCE COMPANY","Address":"2100 E 38th St","City":"Los Angeles","State":"CA","Zip":"90058"},{"Location":"CR LAWRENCE CO INC","Address":"2503 E Vernon Ave","City":"Los Angeles","State":"CA","Zip":"90058"},{"Location":"CY FLOORING","Address":"1933 S Alameda St","City":"Los Angeles","State":"CA","Zip":"90058"},{"Location":"JOE'S PLASTIC","Address":"5725 District Blvd","City":"Los Angeles","State":"CA","Zip":"90058"},{"Location":"LOURDES CHAVEZ INC","Address":"2170 E Anderson St","City":"Los Angeles","State":"CA","Zip":"90058"},{"Location":"LUPITAS BEATY SUPPLY","Address":"4433 S Alameda St","City":"Los Angeles","State":"CA","Zip":"90058"},{"Location":"MAR DIVINO SEAFOOD INC","Address":"1939 Staunton Ave","City":"Los Angeles","State":"CA","Zip":"90058"},{"Location":"NATURE'S PRODUCE COMPANY","Address":"2622 S Alameda St","City":"Los Angeles","State":"CA","Zip":"90058"},{"Location":"NEW STAR ORIENTAL CORP","Address":"2335 E 27th St","City":"Los Angeles","State":"CA","Zip":"90058"},{"Location":"PACKAGING CORP OF AMERICA","Address":"4240 Bandini Blvd","City":"Los Angeles","State":"CA","Zip":"90058"},{"Location":"SOUTH WIND FOOD","Address":"2900 Ayers Ave","City":"Los Angeles","State":"CA","Zip":"90058"},{"Location":"THE HUNDREDS IS HUGE INC","Address":"3150 East 46th Street","City":"Los Angeles","State":"CA","Zip":"90058"},{"Location":"WORLD VARIETY PRODUCE","Address":"5325 S Soto St","City":"Los Angeles","State":"CA","Zip":"90058"},{"Location":"ZAPAPERIA CATHERINE","Address":"4433 S Alameda St 843","City":"Los Angeles","State":"CA","Zip":"90058"},{"Location":"25 TRATORIA","Address":"2501 S Santa Fe Ave","City":"Vernon","State":"CA","Zip":"90058"},{"Location":"3RD STREET APPARAL LLC","Address":"2417 E 24th St","City":"Vernon","State":"CA","Zip":"90058"},{"Location":"7 FOR ALL MANKIND","Address":"4440 E 26th St","City":"Vernon","State":"CA","Zip":"90058"},{"Location":"A TO Z FLAME HARDENING","Address":"2466 E 56th St","City":"Vernon","State":"CA","Zip":"90058"},{"Location":"ALAMEDA MARKET","Address":"4501 S Alameda St","City":"Vernon","State":"CA","Zip":"90058"},{"Location":"ALAMEDA STRIP","Address":"4209 S Alameda St","City":"Vernon","State":"CA","Zip":"90058"},{"Location":"ALAMEDA SWAP MEET","Address":"4501 S Alameda St","City":"Vernon","State":"CA","Zip":"90058"},{"Location":"ALLIANCE SPECIALIZED INC","Address":"2800 Ayers Ave","City":"Vernon","State":"CA","Zip":"90058"},{"Location":"ALLIED FEATHER & DOWN","Address":"2231 E 49th St","City":"Vernon","State":"CA","Zip":"90058"},{"Location":"AMERICAN BUS SPECIALIST","Address":"6140 Alcoa Ave","City":"Vernon","State":"CA","Zip":"90058"},{"Location":"AMERICAN CHAIN AND GEAR CO","Address":"2451 E 57th St","City":"Vernon","State":"CA","Zip":"90058"},{"Location":"ANDYS BURGER","Address":"5831 S Santa Fe Ave","City":"Vernon","State":"CA","Zip":"90058"},{"Location":"AUSTIN TRUCKING INC","Address":"4528 Bandini Blvd","City":"Vernon","State":"CA","Zip":"90058"},{"Location":"BAKER COMMODITIES","Address":"4020 Bandini Blvd","City":"Vernon","State":"CA","Zip":"90058"},{"Location":"BCBG MAX AZIRA GROUP","Address":"2761 Fruitland Ave","City":"Vernon","State":"CA","Zip":"90058"},{"Location":"BEST ORIENTAL PRODUCE","Address":"2929 Leonis Blvd","City":"Vernon","State":"CA","Zip":"90058"},{"Location":"CAPRI CUCCINA","Address":"3608 S Soto St","City":"Vernon","State":"CA","Zip":"90058"},{"Location":"CASA SOCCER INC","Address":"5500 S Santa Fe Ave","City":"Vernon","State":"CA","Zip":"90058"},{"Location":"CITY OF VERNON","Address":"4301 S Santa Fe Ave","City":"Vernon","State":"CA","Zip":"90058"},{"Location":"CLOUGHERTY PACKING","Address":"3049 E Vernon Ave","City":"Vernon","State":"CA","Zip":"90058"},{"Location":"CLOUGHERTY PACKING TWO","Address":"3049 E Vernon Ave","City":"Vernon","State":"CA","Zip":"90058"},{"Location":"COMPLETE GARMENT","Address":"2101 E 38th St","City":"Vernon","State":"CA","Zip":"90058"},{"Location":"CONTINENTAL FLEET PAINT","Address":"2021 E 25th St","City":"Vernon","State":"CA","Zip":"90058"},{"Location":"CORE MARK INTERNATIONAL%2FGENERA","Address":"2311 E 48th St B","City":"Vernon","State":"CA","Zip":"90058"},{"Location":"CR LAURENCE","Address":"2450 E Vernon Ave","City":"Vernon","State":"CA","Zip":"90058"},{"Location":"CR LAURENCE CO INC","Address":"2200 E 55th St","City":"Vernon","State":"CA","Zip":"90058"},{"Location":"CULINARY BRANDS","Address":"3280 E 44th St","City":"Vernon","State":"CA","Zip":"90058"},{"Location":"DAIRYMANS HIDE","Address":"3768 Bandini Blvd","City":"Vernon","State":"CA","Zip":"90058"},{"Location":"DESIGN CONCEPTS INC","Address":"2401 E 27th St","City":"Vernon","State":"CA","Zip":"90058"},{"Location":"DIVERSIFIED DISTRIBUTORS","Address":"4820 Alcoa Ave","City":"Vernon","State":"CA","Zip":"90058"},{"Location":"DONGROSS WAREHOUSE","Address":"1951 E 48th St","City":"Vernon","State":"CA","Zip":"90058"},{"Location":"DOUGLAS STEEL SUPPLY","Address":"5764 Alcoa Ave","City":"Vernon","State":"CA","Zip":"90058"},{"Location":"DREAM GREENWISH CAFE","Address":"3809 S Soto St","City":"Vernon","State":"CA","Zip":"90058"},{"Location":"DURANGO REPAIR AND SERVICE","Address":"2438 E 52nd St","City":"Vernon","State":"CA","Zip":"90058"},{"Location":"FED EX GROUND","Address":"2600 E 28th St","City":"Vernon","State":"CA","Zip":"90058"},{"Location":"GLEN ROSE MEAT","Address":"4561 Loma Vista Ave","City":"Vernon","State":"CA","Zip":"90058"},{"Location":"GOLDEN WEST TRADING","Address":"3420 E Vernon Ave","City":"Vernon","State":"CA","Zip":"90058"},{"Location":"GURU DENIM","Address":"2263 E Vernon Ave","City":"Vernon","State":"CA","Zip":"90058"},{"Location":"GURU DENIM 1","Address":"5233 Alcoa Ave","City":"Vernon","State":"CA","Zip":"90058"},{"Location":"HATIYA","Address":"2302 E 38th St","City":"Vernon","State":"CA","Zip":"90058"},{"Location":"HCD DENIM","Address":"2344 E 38th St","City":"Vernon","State":"CA","Zip":"90058"},{"Location":"JM APPAREL RESOURCES INC","Address":"6152 S Boyle Ave","City":"Vernon","State":"CA","Zip":"90058"},{"Location":"JOBBERS MEAT PACKING","Address":"3336 Fruitland Ave","City":"Vernon","State":"CA","Zip":"90058"},{"Location":"JUST IN TIME","Address":"6152 S Boyle Ave","City":"Vernon","State":"CA","Zip":"90058"},{"Location":"K AND M FOOD SERVICE","Address":"2443 E 27th St","City":"Vernon","State":"CA","Zip":"90058"},{"Location":"KAREN KANE INC","Address":"2275 E 37th St","City":"Vernon","State":"CA","Zip":"90058"},{"Location":"KIM AND CAMI PRODUCTIONS","Address":"2950 Leonis Blvd","City":"Vernon","State":"CA","Zip":"90058"},{"Location":"La Bodega Bar & Grill","Address":"5812 S Santa Fe Ave","City":"Vernon","State":"CA","Zip":"90058"},{"Location":"LABREA BAKERY","Address":"3250 E 44th St","City":"Vernon","State":"CA","Zip":"90058"},{"Location":"LAVA HEAT ITALIA","Address":"5999 Malburg Way","City":"Vernon","State":"CA","Zip":"90058"},{"Location":"LAWRENCE WHOLESALE","Address":"4353 Exchange Ave","City":"Vernon","State":"CA","Zip":"90058"},{"Location":"LOS HIJOS DEL TENAMAPA","Address":"4903 S Santa Fe Ave","City":"Vernon","State":"CA","Zip":"90058"},{"Location":"MILLENNIUM PRODUCTS","Address":"4646 Hampton St","City":"Vernon","State":"CA","Zip":"90058"},{"Location":"MILLENNIUM PRODUCTS 1","Address":"2520 Chambers St","City":"Vernon","State":"CA","Zip":"90058"},{"Location":"MISS ME","Address":"4715 S Alameda St","City":"Vernon","State":"CA","Zip":"90058"},{"Location":"NYDJ APPARELL","Address":"5401 S Soto St","City":"Vernon","State":"CA","Zip":"90058"},{"Location":"PACIFIC FOREST INDUSTRIES","Address":"4803 Everett Ave","City":"Vernon","State":"CA","Zip":"90058"},{"Location":"PAYCON TRUCKING COMPANY","Address":"3152 Bandini Blvd","City":"Vernon","State":"CA","Zip":"90058"},{"Location":"PERFORMANCE DESIGN PRODUCT","Address":"1840 E 27th St","City":"Vernon","State":"CA","Zip":"90058"},{"Location":"PINKETTE","Address":"4550 Alcoa Ave","City":"Vernon","State":"CA","Zip":"90058"},{"Location":"PROFESSIONAL PRODUCE","Address":"2570 E 25th St","City":"Vernon","State":"CA","Zip":"90058"},{"Location":"PUTNMA ACCESORY GROUP","Address":"2133 E 38th St","City":"Vernon","State":"CA","Zip":"90058"},{"Location":"RANCHO FOODS","Address":"2528 E 37th St","City":"Vernon","State":"CA","Zip":"90058"},{"Location":"REHRIG PACIFIC COMPANY","Address":"4010 E 26th St","City":"Vernon","State":"CA","Zip":"90058"},{"Location":"RICH AND SKINNY","Address":"2021 E 49th St","City":"Vernon","State":"CA","Zip":"90058"},{"Location":"ROGERS POLTRY","Address":"5050 Sante Fe Ave","City":"Vernon","State":"CA","Zip":"90058"},{"Location":"ROYAL WHOLESALE ELECTRIC","Address":"4309 District Blvd","City":"Vernon","State":"CA","Zip":"90058"},{"Location":"RP&KY INC DBA ZS PLACE","Address":"3805 S Soto St","City":"Vernon","State":"CA","Zip":"90058"},{"Location":"S K TEXTILE","Address":"2938 E 54th St","City":"Vernon","State":"CA","Zip":"90058"},{"Location":"SAN ANTONIO ROSE","Address":"4505 S Downey Rd","City":"Vernon","State":"CA","Zip":"90058"},{"Location":"STONE HARBOR INC","Address":"5015 District Blvd","City":"Vernon","State":"CA","Zip":"90058"},{"Location":"TADIN HERB TEA","Address":"3345 E Slauson Ave","City":"Vernon","State":"CA","Zip":"90058"},{"Location":"TAGTIME USA","Address":"4601 District Blvd","City":"Vernon","State":"CA","Zip":"90058"},{"Location":"THE AD ART COMPANY","Address":"3270 E 26th St","City":"Vernon","State":"CA","Zip":"90058"},{"Location":"THE AD ART COMPANY","Address":"3260 E 26th St","City":"Vernon","State":"CA","Zip":"90058"},{"Location":"UNITED PARCEL SERVICES","Address":"3333 S Downey Rd","City":"Vernon","State":"CA","Zip":"90058"},{"Location":"US GARMET LLC","Address":"4440 E 26th St","City":"Vernon","State":"CA","Zip":"90058"},{"Location":"US HLTH WKS AND MED GRP","Address":"3364 E Slauson Ave","City":"Vernon","State":"CA","Zip":"90058"},{"Location":"US HLTH WKS AND MED GRP","Address":"3851 S Soto St","City":"Vernon","State":"CA","Zip":"90058"},{"Location":"V.G.I.","Address":"5508 Sante Fe Ave","City":"Vernon","State":"CA","Zip":"90058"},{"Location":"WHOLE FOODS MARKET","Address":"2307 E 49th St","City":"Vernon","State":"CA","Zip":"90058"},{"Location":"WILLIAMS RECORDS","Address":"1925 E Vernon Ave","City":"Vernon","State":"CA","Zip":"90058"}]