[{"Location":"24 HOUR FITNESS #490","Address":"5045 W Slauson Ave","City":"Los Angeles","State":"CA","Zip":"90056"},{"Location":"AMAZING EFFORTS","Address":"6041 S Labrea Ave","City":"Los Angeles","State":"CA","Zip":"90056"},{"Location":"AWESOME HAIR","Address":"5035 W Slauson Ave","City":"Los Angeles","State":"CA","Zip":"90056"},{"Location":"BELLE CHEVEUX","Address":"4745 W Slauson Ave C","City":"Los Angeles","State":"CA","Zip":"90056"},{"Location":"BRENT AIR POOL SUPPLY","Address":"4721 W Slauson Ave","City":"Los Angeles","State":"CA","Zip":"90056"},{"Location":"DIVAS N DOLLS","Address":"4937 W Slauson Ave","City":"Los Angeles","State":"CA","Zip":"90056"},{"Location":"F DIC","Address":"5150 W Goldleaf Cir 405","City":"Los Angeles","State":"CA","Zip":"90056"},{"Location":"LINQUEST CORPORATION","Address":"5140 W Goldleaf Cir 400","City":"Los Angeles","State":"CA","Zip":"90056"},{"Location":"MR FISH AND MEX GRILL","Address":"4949 W Slauson Ave","City":"Los Angeles","State":"CA","Zip":"90056"},{"Location":"PATSY NAILS","Address":"4718 W Slauson Ave","City":"Los Angeles","State":"CA","Zip":"90056"},{"Location":"TAYCOR  FINANCIAL","Address":"5120 W Goldleaf Cir 100","City":"Los Angeles","State":"CA","Zip":"90056"}]