[{"Location":"THAI DAILY","Address":"3552 Cesar Chavez Ave","City":"East Los Angeles","State":"CA","Zip":"90063"},{"Location":"A&C GLAMOUR SALON","Address":"3512 E 1st St","City":"Los Angeles","State":"CA","Zip":"90063"},{"Location":"AA SMOKE INC","Address":"3029 E 4th St","City":"Los Angeles","State":"CA","Zip":"90063"},{"Location":"ABARCA SAW AND SALES1","Address":"608 N Gage Ave","City":"Los Angeles","State":"CA","Zip":"90063"},{"Location":"AMERICAN MOVING PARTS","Address":"4408 Worth St","City":"Los Angeles","State":"CA","Zip":"90063"},{"Location":"ARTESANIAS SONIAS","Address":"3425 E 1st St 2","City":"Los Angeles","State":"CA","Zip":"90063"},{"Location":"BRENDAS BEAUTY SALON","Address":"3004 Wabash Ave","City":"Los Angeles","State":"CA","Zip":"90063"},{"Location":"CEMITAS POBLANA","Address":"401 S Indiana St","City":"Los Angeles","State":"CA","Zip":"90063"},{"Location":"EL SABROSO","Address":"501 N Brannick Ave","City":"Los Angeles","State":"CA","Zip":"90063"},{"Location":"EL SALSABOR","Address":"522 S Lorena St","City":"Los Angeles","State":"CA","Zip":"90063"},{"Location":"ENCANTO FURNITURE CO","Address":"3508 E 1st St","City":"Los Angeles","State":"CA","Zip":"90063"},{"Location":"HIGHLAND NAILS","Address":"1685 N Eastern Ave","City":"Los Angeles","State":"CA","Zip":"90063"},{"Location":"L.A. COUNTY INTERNAL SERVICES","Address":"1100 N Eastern Ave","City":"Los Angeles","State":"CA","Zip":"90063"},{"Location":"LA BUFADORA","Address":"3470 E 1st St","City":"Los Angeles","State":"CA","Zip":"90063"},{"Location":"LA CNTY FIRE COMMAND CTR","Address":"1320 N Eastern Ave","City":"Los Angeles","State":"CA","Zip":"90063"},{"Location":"LA CNTY FIRE FLEET SVCS","Address":"1104 N Eastern Ave 26","City":"Los Angeles","State":"CA","Zip":"90063"},{"Location":"LA COUNTY FD","Address":"1320 N Eastern Ave","City":"Los Angeles","State":"CA","Zip":"90063"},{"Location":"LA COUNTY OFFICE OF EMERGENCY","Address":"1275 N Eastern Ave","City":"Los Angeles","State":"CA","Zip":"90063"},{"Location":"LA COUNTY PUBLIC INFO","Address":"1320 N Eastern Ave","City":"Los Angeles","State":"CA","Zip":"90063"},{"Location":"LA COUNTY SHERRIF DEPT","Address":"1060 N Eastern Ave","City":"Los Angeles","State":"CA","Zip":"90063"},{"Location":"LA IMPERIAL TORTILLERIA","Address":"3717 E 1st St","City":"Los Angeles","State":"CA","Zip":"90063"},{"Location":"LA MARKET","Address":"4101 Floral Dr","City":"Los Angeles","State":"CA","Zip":"90063"},{"Location":"LOS ANGELES COUNTY FIRE DEPT","Address":"1320 N Eastern Ave","City":"Los Angeles","State":"CA","Zip":"90063"},{"Location":"MALDONADOS TAX SERVICE","Address":"3828 East Cesar Chavez Ave","City":"Los Angeles","State":"CA","Zip":"90063"},{"Location":"MARIA SILVIA","Address":"3425 E 1st St 11","City":"Los Angeles","State":"CA","Zip":"90063"},{"Location":"MARY ALICIA","Address":"3100 E 4th St","City":"Los Angeles","State":"CA","Zip":"90063"},{"Location":"MAXIMO LOOK BEAUTY SALON","Address":"3200 City Terrace Dr A","City":"Los Angeles","State":"CA","Zip":"90063"},{"Location":"SANDOVAL AUTO TOWING","Address":"3601 E 5th St","City":"Los Angeles","State":"CA","Zip":"90063"},{"Location":"SARAS MARKET","Address":"3455 City Terrace Dr","City":"Los Angeles","State":"CA","Zip":"90063"},{"Location":"SILVER LAKE CARE GIVERS","Address":"305 N Marianna Ave","City":"Los Angeles","State":"CA","Zip":"90063"},{"Location":"SUPER COIN LAUNDRY","Address":"3400 E Cesar E Chavez Ave","City":"Los Angeles","State":"CA","Zip":"90063"},{"Location":"TEJUINOS RIVERA 1","Address":"3425 E 1st St","City":"Los Angeles","State":"CA","Zip":"90063"},{"Location":"VALLARTA","Address":"3501 E 1st St","City":"Los Angeles","State":"CA","Zip":"90063"},{"Location":"WABASH LAUNDRY","Address":"3051 Wabash Ave","City":"Los Angeles","State":"CA","Zip":"90063"},{"Location":"THAI DAILY","Address":"3552 Cesar Chavez Ave","City":"East Los Angeles","State":"CA","Zip":"90063"},{"Location":"A&C GLAMOUR SALON","Address":"3512 E 1st St","City":"Los Angeles","State":"CA","Zip":"90063"},{"Location":"AA SMOKE INC","Address":"3029 E 4th St","City":"Los Angeles","State":"CA","Zip":"90063"},{"Location":"ABARCA SAW AND SALES1","Address":"608 N Gage Ave","City":"Los Angeles","State":"CA","Zip":"90063"},{"Location":"AMERICAN MOVING PARTS","Address":"4408 Worth St","City":"Los Angeles","State":"CA","Zip":"90063"},{"Location":"ARTESANIAS SONIAS","Address":"3425 E 1st St 2","City":"Los Angeles","State":"CA","Zip":"90063"},{"Location":"BRENDAS BEAUTY SALON","Address":"3004 Wabash Ave","City":"Los Angeles","State":"CA","Zip":"90063"},{"Location":"CEMITAS POBLANA","Address":"401 S Indiana St","City":"Los Angeles","State":"CA","Zip":"90063"},{"Location":"EL SABROSO","Address":"501 N Brannick Ave","City":"Los Angeles","State":"CA","Zip":"90063"},{"Location":"EL SALSABOR","Address":"522 S Lorena St","City":"Los Angeles","State":"CA","Zip":"90063"},{"Location":"ENCANTO FURNITURE CO","Address":"3508 E 1st St","City":"Los Angeles","State":"CA","Zip":"90063"},{"Location":"HIGHLAND NAILS","Address":"1685 N Eastern Ave","City":"Los Angeles","State":"CA","Zip":"90063"},{"Location":"L.A. COUNTY INTERNAL SERVICES","Address":"1100 N Eastern Ave","City":"Los Angeles","State":"CA","Zip":"90063"},{"Location":"LA BUFADORA","Address":"3470 E 1st St","City":"Los Angeles","State":"CA","Zip":"90063"},{"Location":"LA CNTY FIRE COMMAND CTR","Address":"1320 N Eastern Ave","City":"Los Angeles","State":"CA","Zip":"90063"},{"Location":"LA CNTY FIRE FLEET SVCS","Address":"1104 N Eastern Ave 26","City":"Los Angeles","State":"CA","Zip":"90063"},{"Location":"LA COUNTY FD","Address":"1320 N Eastern Ave","City":"Los Angeles","State":"CA","Zip":"90063"},{"Location":"LA COUNTY OFFICE OF EMERGENCY","Address":"1275 N Eastern Ave","City":"Los Angeles","State":"CA","Zip":"90063"},{"Location":"LA COUNTY PUBLIC INFO","Address":"1320 N Eastern Ave","City":"Los Angeles","State":"CA","Zip":"90063"},{"Location":"LA COUNTY SHERRIF DEPT","Address":"1060 N Eastern Ave","City":"Los Angeles","State":"CA","Zip":"90063"},{"Location":"LA IMPERIAL TORTILLERIA","Address":"3717 E 1st St","City":"Los Angeles","State":"CA","Zip":"90063"},{"Location":"LA MARKET","Address":"4101 Floral Dr","City":"Los Angeles","State":"CA","Zip":"90063"},{"Location":"LOS ANGELES COUNTY FIRE DEPT","Address":"1320 N Eastern Ave","City":"Los Angeles","State":"CA","Zip":"90063"},{"Location":"MALDONADOS TAX SERVICE","Address":"3828 East Cesar Chavez Ave","City":"Los Angeles","State":"CA","Zip":"90063"},{"Location":"MARIA SILVIA","Address":"3425 E 1st St 11","City":"Los Angeles","State":"CA","Zip":"90063"},{"Location":"MARY ALICIA","Address":"3100 E 4th St","City":"Los Angeles","State":"CA","Zip":"90063"},{"Location":"MAXIMO LOOK BEAUTY SALON","Address":"3200 City Terrace Dr A","City":"Los Angeles","State":"CA","Zip":"90063"},{"Location":"SANDOVAL AUTO TOWING","Address":"3601 E 5th St","City":"Los Angeles","State":"CA","Zip":"90063"},{"Location":"SARAS MARKET","Address":"3455 City Terrace Dr","City":"Los Angeles","State":"CA","Zip":"90063"},{"Location":"SILVER LAKE CARE GIVERS","Address":"305 N Marianna Ave","City":"Los Angeles","State":"CA","Zip":"90063"},{"Location":"SUPER COIN LAUNDRY","Address":"3400 E Cesar E Chavez Ave","City":"Los Angeles","State":"CA","Zip":"90063"},{"Location":"TEJUINOS RIVERA 1","Address":"3425 E 1st St","City":"Los Angeles","State":"CA","Zip":"90063"},{"Location":"VALLARTA","Address":"3501 E 1st St","City":"Los Angeles","State":"CA","Zip":"90063"},{"Location":"WABASH LAUNDRY","Address":"3051 Wabash Ave","City":"Los Angeles","State":"CA","Zip":"90063"}]