[{"Location":"34 VERDUGO","Address":"3408 Verdugo Rd","City":"Los Angeles","State":"CA","Zip":"90065"},{"Location":"ANGELES HAIR SALON","Address":"1202 Cypress Ave","City":"Los Angeles","State":"CA","Zip":"90065"},{"Location":"ATS NORTHEAST TOW","Address":"2010 N Figueroa St","City":"Los Angeles","State":"CA","Zip":"90065"},{"Location":"ATWATER COLL SHRF STATION","Address":"2930 Fletcher Dr","City":"Los Angeles","State":"CA","Zip":"90065"},{"Location":"BURGER KING #5180","Address":"3101 N San Fernando Rd","City":"Los Angeles","State":"CA","Zip":"90065"},{"Location":"CALIFORNIA PAVING & GRADING","Address":"3253 Verdugo Rd","City":"Los Angeles","State":"CA","Zip":"90065"},{"Location":"CARS 911.COM","Address":"2242 N San Fernando Rd","City":"Los Angeles","State":"CA","Zip":"90065"},{"Location":"COMMERCIAL PAVERS","Address":"2809 W Avenue 37","City":"Los Angeles","State":"CA","Zip":"90065"},{"Location":"DR ERIKA B SALAO INC","Address":"3756 W Avenue 40 1c","City":"Los Angeles","State":"CA","Zip":"90065"},{"Location":"EL ATACOR","Address":"2622 N Figueroa St 11","City":"Los Angeles","State":"CA","Zip":"90065"},{"Location":"EL BUEN SABOR RESTAURANT","Address":"4306 N Figueroa St","City":"Los Angeles","State":"CA","Zip":"90065"},{"Location":"FEDERAL EXPRESS","Address":"2000 N San Fernando Rd","City":"Los Angeles","State":"CA","Zip":"90065"},{"Location":"GAME SHOW NETWORK LLC","Address":"3030 Andrita St","City":"Los Angeles","State":"CA","Zip":"90065"},{"Location":"GNG VINYL FENCING","Address":"2424 N San Fernando Rd","City":"Los Angeles","State":"CA","Zip":"90065"},{"Location":"GOLDEN LIQUOR","Address":"3924 N Figueroa St","City":"Los Angeles","State":"CA","Zip":"90065"},{"Location":"GREEN ROOM BILLIARDS","Address":"3458 N San Fernando Rd","City":"Los Angeles","State":"CA","Zip":"90065"},{"Location":"IGLESIA CHRISTIANA","Address":"3221 N Figueroa St","City":"Los Angeles","State":"CA","Zip":"90065"},{"Location":"INFINITY SKIN & BEAUTY","Address":"3756 W Avenue 40 2b","City":"Los Angeles","State":"CA","Zip":"90065"},{"Location":"JOCS HAIR SALONS","Address":"4108 Verdugo Rd","City":"Los Angeles","State":"CA","Zip":"90065"},{"Location":"KUSINA FILIPINA","Address":"4157 Eagle Rock Blvd","City":"Los Angeles","State":"CA","Zip":"90065"},{"Location":"LA CAR CARRIER","Address":"3033 Treadwell St","City":"Los Angeles","State":"CA","Zip":"90065"},{"Location":"LA MORENITA","Address":"4308 N Figueroa St","City":"Los Angeles","State":"CA","Zip":"90065"},{"Location":"LA PW SANITATION HRDD","Address":"2714 Media Center Dr","City":"Los Angeles","State":"CA","Zip":"90065"},{"Location":"LOS BURRITOS","Address":"3125 N San Fernando Rd","City":"Los Angeles","State":"CA","Zip":"90065"},{"Location":"LU PITAS RESTURANT","Address":"2634 Idell St","City":"Los Angeles","State":"CA","Zip":"90065"},{"Location":"M & C MANUFACTURING CO","Address":"3021 Verdugo Rd","City":"Los Angeles","State":"CA","Zip":"90065"},{"Location":"METROPOLITAN TRANSIT AUTHORITY","Address":"630 W Avenue 28","City":"Los Angeles","State":"CA","Zip":"90065"},{"Location":"MICK HOLDINGS LLC","Address":"3415 Cazador St","City":"Los Angeles","State":"CA","Zip":"90065"},{"Location":"MINTIE","Address":"1114 N San Fernando Rd","City":"Los Angeles","State":"CA","Zip":"90065"},{"Location":"MONTECITO HEIGHTS HC&W CENTER","Address":"4585 N Figueroa St","City":"Los Angeles","State":"CA","Zip":"90065"},{"Location":"MY DENTAL OFFICE","Address":"2211 N San Fernando Rd","City":"Los Angeles","State":"CA","Zip":"90065"},{"Location":"OTIS ELEVATOR","Address":"2701 Media Center Dr","City":"Los Angeles","State":"CA","Zip":"90065"},{"Location":"POINT.360","Address":"2701 Media Center Dr","City":"Los Angeles","State":"CA","Zip":"90065"},{"Location":"PRESTIGE BEAUTY SALON","Address":"2125 Cypress Ave","City":"Los Angeles","State":"CA","Zip":"90065"},{"Location":"RDK DISTRIBUTING","Address":"2910 N San Fernando Rd","City":"Los Angeles","State":"CA","Zip":"90065"},{"Location":"SCRRA %2F METROLINK","Address":"1555 N San Fernando Rd","City":"Los Angeles","State":"CA","Zip":"90065"},{"Location":"SONY","Address":"2706 Media Center Dr","City":"Los Angeles","State":"CA","Zip":"90065"},{"Location":"SUPRISED LOOK HAIR SALON","Address":"3285 Fletcher Dr","City":"Los Angeles","State":"CA","Zip":"90065"},{"Location":"TACOS LA FONDA","Address":"2135 N San Fernando Rd","City":"Los Angeles","State":"CA","Zip":"90065"},{"Location":"TORTILLERIA LA CALIFORNI","Address":"2241 Cypress Ave","City":"Los Angeles","State":"CA","Zip":"90065"},{"Location":"WAGVILLE","Address":"2400 N San Fernando Rd","City":"Los Angeles","State":"CA","Zip":"90065"},{"Location":"YOUNGS LAVENDERIA","Address":"3330 Verdugo Rd","City":"Los Angeles","State":"CA","Zip":"90065"}]