[{"Location":"DG ENTERRTAINMENT","Address":"3280 Cahuenga Blvd","City":"Hollywood","State":"CA","Zip":"90068"},{"Location":"LASD","Address":"2101 N Highland Ave D","City":"Hollywood","State":"CA","Zip":"90068"},{"Location":"SPICE ON HOLLYWOOD","Address":"2011 N Highland Ave","City":"Hollywood","State":"CA","Zip":"90068"},{"Location":"VAN NESS RECOVERY HOUSE","Address":"1919 N Beachwood Dr","City":"Hollywood","State":"CA","Zip":"90068"},{"Location":"161 STREET PIZZERIA","Address":"3252 Cahuenga Blvd W","City":"Los Angeles","State":"CA","Zip":"90068"},{"Location":"ACTIVEVIDEO NETWORKS INC","Address":"3330 Cahuenga Blvd W 501","City":"Los Angeles","State":"CA","Zip":"90068"},{"Location":"ADDED VALUE NA","Address":"3401 Cahuenga Blvd W","City":"Los Angeles","State":"CA","Zip":"90068"},{"Location":"AMIATA LLC","Address":"2178 Castilian Dr","City":"Los Angeles","State":"CA","Zip":"90068"},{"Location":"ARENAS ENTERTAINMENT","Address":"3375 Barham Blvd","City":"Los Angeles","State":"CA","Zip":"90068"},{"Location":"ATLAS DIGITAL","Address":"3425 Cahuenga Blvd W","City":"Los Angeles","State":"CA","Zip":"90068"},{"Location":"ATLAS DIGITAL","Address":"3575 Cahuenga Blvd W 605","City":"Los Angeles","State":"CA","Zip":"90068"},{"Location":"BERT'S GARAGE","Address":"1912 N Cahuenga Blvd","City":"Los Angeles","State":"CA","Zip":"90068"},{"Location":"CIM GROUP","Address":"6900 Bonita Ter","City":"Los Angeles","State":"CA","Zip":"90068"},{"Location":"DIGITAL FILM TREE","Address":"3475 Cahuenga Blvd W","City":"Los Angeles","State":"CA","Zip":"90068"},{"Location":"DL MUSIC","Address":"3575 Cahuenga Blvd W 512","City":"Los Angeles","State":"CA","Zip":"90068"},{"Location":"FIRST ENTERTAINMENT C.U.","Address":"6735 Forest Lawn Dr B","City":"Los Angeles","State":"CA","Zip":"90068"},{"Location":"FIRST ENTERTAINMENT CU #2","Address":"6735 Forest Lawn Dr","City":"Los Angeles","State":"CA","Zip":"90068"},{"Location":"GAP PRODUCTIONS INC","Address":"2173 W Live Oak Dr","City":"Los Angeles","State":"CA","Zip":"90068"},{"Location":"GOLDEN ROAD FOOD SERVICE","Address":"1923 N Bronson Ave","City":"Los Angeles","State":"CA","Zip":"90068"},{"Location":"HENRY'S HAT","Address":"3413 Cahuenga Blvd W","City":"Los Angeles","State":"CA","Zip":"90068"},{"Location":"HIGHLANDS OWNERS ASSOCIATION","Address":"6700 Hillpark Dr 100","City":"Los Angeles","State":"CA","Zip":"90068"},{"Location":"HOLLYWOOD AMERICAN LEGION","Address":"2035 N Highland Ave","City":"Los Angeles","State":"CA","Zip":"90068"},{"Location":"HOLLYWOOD BOWL","Address":"2301 N Highland Ave","City":"Los Angeles","State":"CA","Zip":"90068"},{"Location":"KWKW RADIO","Address":"3301 Barham Blvd 201","City":"Los Angeles","State":"CA","Zip":"90068"},{"Location":"LA FITNESS #69","Address":"3400 Cahuenga Blvd W","City":"Los Angeles","State":"CA","Zip":"90068"},{"Location":"MADISON FILMS INTERNATIONAL","Address":"3800 Barham Blvd 206","City":"Los Angeles","State":"CA","Zip":"90068"},{"Location":"MONASTERY OF THE ANGELS","Address":"1977 Carmen Ave","City":"Los Angeles","State":"CA","Zip":"90068"},{"Location":"MOUNT SINAI","Address":"5950 Forest Lawn Dr","City":"Los Angeles","State":"CA","Zip":"90068"},{"Location":"PANASONIC BROADCAST","Address":"3330 Cahuenga Blvd W","City":"Los Angeles","State":"CA","Zip":"90068"},{"Location":"PIZZA BELLA","Address":"1900 N Highland Ave B","City":"Los Angeles","State":"CA","Zip":"90068"},{"Location":"PM JAMS","Address":"6767 Forest Lawn Dr 211","City":"Los Angeles","State":"CA","Zip":"90068"},{"Location":"PRO RADIO PRODUCTIONS LLC","Address":"3575 Cahuenga Blvd W 500","City":"Los Angeles","State":"CA","Zip":"90068"},{"Location":"QUINCY JONES PRODUCTIONS","Address":"3800 Barham Blvd 503","City":"Los Angeles","State":"CA","Zip":"90068"},{"Location":"R B DAVIES","Address":"6767 Forest Lawn Dr 201","City":"Los Angeles","State":"CA","Zip":"90068"},{"Location":"SHANDY MEDIA INC","Address":"3151 Cahuenga Blvd W 210","City":"Los Angeles","State":"CA","Zip":"90068"},{"Location":"SHED MEDIA US","Address":"3800 Barham Blvd 410","City":"Los Angeles","State":"CA","Zip":"90068"},{"Location":"SMG CARS INC","Address":"3575 Cahuenga Blvd W 360","City":"Los Angeles","State":"CA","Zip":"90068"},{"Location":"SPIRIT DANCE INC","Address":"3349 Cahuenga Blvd W 3","City":"Los Angeles","State":"CA","Zip":"90068"},{"Location":"THE COOK COMPANY","Address":"6767 Forest Lawn Dr 103","City":"Los Angeles","State":"CA","Zip":"90068"},{"Location":"THE MAN CAVE","Address":"3575 Cahuenga Blvd W 110","City":"Los Angeles","State":"CA","Zip":"90068"},{"Location":"THE OAKS GOURMET MARKET","Address":"1915 N Bronson Ave","City":"Los Angeles","State":"CA","Zip":"90068"},{"Location":"THE SPORTS CENTER","Address":"6711 Forest Lawn Dr","City":"Los Angeles","State":"CA","Zip":"90068"},{"Location":"THE SWITCH","Address":"3800 Barham Blvd 311","City":"Los Angeles","State":"CA","Zip":"90068"},{"Location":"TRIFECTA ENTERTAINMENT","Address":"3575 Cahuenga Blvd W 595","City":"Los Angeles","State":"CA","Zip":"90068"},{"Location":"UNIVERSAL CITY NISSAN","Address":"3550 Cahuenga Blvd W","City":"Los Angeles","State":"CA","Zip":"90068"},{"Location":"UNIVERSITY OF TEXAS LA CENTER","Address":"3800 Barham Blvd 103","City":"Los Angeles","State":"CA","Zip":"90068"},{"Location":"VALHALLA","Address":"3201 Cahuenga Blvd","City":"Los Angelos","State":"CA","Zip":"90068"}]