[{"Location":"20TH CENTURY FOX","Address":"2121 Avenue Of The Stars 5thf","City":"Century City","State":"CA","Zip":"90067"},{"Location":"BREAD BAR","Address":"10250 Santa Monica Blvd R2","City":"Century City","State":"CA","Zip":"90067"},{"Location":"KAR","Address":"1800 Avenue Of The Stars 2nd","City":"Century City","State":"CA","Zip":"90067"},{"Location":"1880 CAFE","Address":"1880 Century Park E 103","City":"Los Angeles","State":"CA","Zip":"90067"},{"Location":"53 BANK","Address":"2029 Century Park E 1010","City":"Los Angeles","State":"CA","Zip":"90067"},{"Location":"ADMARKETING INC","Address":"1801 Century Park E 2000","City":"Los Angeles","State":"CA","Zip":"90067"},{"Location":"ADR SERVICES INC","Address":"1900 Avenue Of The Stars 250","City":"Los Angeles","State":"CA","Zip":"90067"},{"Location":"ADVANCED VISION CARE","Address":"2080 Century Park E 911","City":"Los Angeles","State":"CA","Zip":"90067"},{"Location":"AETHER CAPITAL","Address":"1900 Avenue Of The Stars 500","City":"Los Angeles","State":"CA","Zip":"90067"},{"Location":"AFG  LLC","Address":"1888 Century Park E 14thf","City":"Los Angeles","State":"CA","Zip":"90067"},{"Location":"AIR LEASE CORP","Address":"2000 Avenue Of The Stars 10","City":"Los Angeles","State":"CA","Zip":"90067"},{"Location":"AKIN GUMP","Address":"2029 Century Park E 2400","City":"Los Angeles","State":"CA","Zip":"90067"},{"Location":"ALDER LAW","Address":"1875 Century Park E 1500","City":"Los Angeles","State":"CA","Zip":"90067"},{"Location":"ALEX SERNA","Address":"10112 Empyrean Way 204","City":"Los Angeles","State":"CA","Zip":"90067"},{"Location":"ANGELO GORDON & CO","Address":"2000 Avenue Of The Stars 1020","City":"Los Angeles","State":"CA","Zip":"90067"},{"Location":"ANNENBERG SPACE FOR PHOT","Address":"2000 Avenue Of The Stars 10","City":"Los Angeles","State":"CA","Zip":"90067"},{"Location":"APLC","Address":"1880 Century Park E 1100","City":"Los Angeles","State":"CA","Zip":"90067"},{"Location":"APOLLA MANAGEMENT LP","Address":"2000 Avenue Of The Stars 5","City":"Los Angeles","State":"CA","Zip":"90067"},{"Location":"ARES CEP 4","Address":"2049 Century Park E 4","City":"Los Angeles","State":"CA","Zip":"90067"},{"Location":"ARES MANAGEMENT","Address":"2000 Avenue Of The Stars 12","City":"Los Angeles","State":"CA","Zip":"90067"},{"Location":"ARES MANAGEMENT","Address":"2049 Century Park E 1800","City":"Los Angeles","State":"CA","Zip":"90067"},{"Location":"ASMS","Address":"2080 Century Park E 1402","City":"Los Angeles","State":"CA","Zip":"90067"},{"Location":"AUSSIE FEDERAL POLICE","Address":"2029 Century Park E 21","City":"Los Angeles","State":"CA","Zip":"90067"},{"Location":"AUSTRALIAN CONSULATE","Address":"2029 Century Park E 6","City":"Los Angeles","State":"CA","Zip":"90067"},{"Location":"AVERIL CAPITAL","Address":"1901 Avenue Of The Stars 350","City":"Los Angeles","State":"CA","Zip":"90067"},{"Location":"BAIN & CO","Address":"1901 Avenue Of The Stars 2000","City":"Los Angeles","State":"CA","Zip":"90067"},{"Location":"BANC OF CALIFORNIA","Address":"10100 Santa Monica Blvd 25thf","City":"Los Angeles","State":"CA","Zip":"90067"},{"Location":"BARCLAY CAPITAL","Address":"10250 Constellation Blvd","City":"Los Angeles","State":"CA","Zip":"90067"},{"Location":"BARNES & THORNBURG LLP","Address":"2049 Century Park E 3","City":"Los Angeles","State":"CA","Zip":"90067"},{"Location":"BARNES MORRIS","Address":"2000 Avenue Of The Stars 3fl","City":"Los Angeles","State":"CA","Zip":"90067"},{"Location":"BDO SEIDMAN","Address":"1888 Century Park E 4fl","City":"Los Angeles","State":"CA","Zip":"90067"},{"Location":"BELMONT CAPITAL GROUP","Address":"1875 Century Park E 1780","City":"Los Angeles","State":"CA","Zip":"90067"},{"Location":"BESSEMER TRUST","Address":"10250 Constellation Blvd 2600","City":"Los Angeles","State":"CA","Zip":"90067"},{"Location":"BJ'S RESTAURANTS #511","Address":"10250 Santa Monica Blvd 480","City":"Los Angeles","State":"CA","Zip":"90067"},{"Location":"BLAKE BYRNE","Address":"1880 Century Park E","City":"Los Angeles","State":"CA","Zip":"90067"},{"Location":"BLATTEIS & SCHNUR","Address":"1940 Century Park E 200","City":"Los Angeles","State":"CA","Zip":"90067"},{"Location":"BLOOMINGDALE'S","Address":"10250 Santa Monica Blvd","City":"Los Angeles","State":"CA","Zip":"90067"},{"Location":"BNY MELLON","Address":"10250 Constellation Blvd 2100","City":"Los Angeles","State":"CA","Zip":"90067"},{"Location":"BON APPETIT DELI","Address":"1801 Century Park E 330","City":"Los Angeles","State":"CA","Zip":"90067"},{"Location":"BROAD FOUNDATION","Address":"2121 Avenue Of The Stars Fl30","City":"Los Angeles","State":"CA","Zip":"90067"},{"Location":"BROWNE WOODS GEORGE LLP","Address":"2121 Avenue Of The Stars 2400","City":"Los Angeles","State":"CA","Zip":"90067"},{"Location":"CAA","Address":"2029 Century Park E 5","City":"Los Angeles","State":"CA","Zip":"90067"},{"Location":"CALDWELL PARTNERS","Address":"1925 Century Park E 1200","City":"Los Angeles","State":"CA","Zip":"90067"},{"Location":"CANTOR FITZGERALD","Address":"1925 Century Park E 720","City":"Los Angeles","State":"CA","Zip":"90067"},{"Location":"CANTOR FITZGERALD","Address":"1925 Century Park E 700","City":"Los Angeles","State":"CA","Zip":"90067"},{"Location":"CANYON PARTNERS LLC","Address":"2000 Avenue Of The Stars","City":"Los Angeles","State":"CA","Zip":"90067"},{"Location":"CARR WORKPLACES","Address":"10250 Constellation Blvd 2320","City":"Los Angeles","State":"CA","Zip":"90067"},{"Location":"CENTERVIEW PARTNERS","Address":"1999 Ave Of Stars 3030","City":"Los Angeles","State":"CA","Zip":"90067"},{"Location":"CENTURY GRILL","Address":"1901 Avenue Of The Stars A1","City":"Los Angeles","State":"CA","Zip":"90067"},{"Location":"CENTURY UROLOGY MEDICAL GROUP","Address":"2080 Century Park E 1407","City":"Los Angeles","State":"CA","Zip":"90067"},{"Location":"CHARLES SCHWAB","Address":"2029 Century Park E 9","City":"Los Angeles","State":"CA","Zip":"90067"},{"Location":"CHARLES SCHWAB & COMPANY #540","Address":"1900 Avenue Of The Stars 101","City":"Los Angeles","State":"CA","Zip":"90067"},{"Location":"CINEDIGM","Address":"1901 Avenue Of The Stars 12","City":"Los Angeles","State":"CA","Zip":"90067"},{"Location":"CITY EXPRESS","Address":"2049 Century Park E Dcl 1","City":"Los Angeles","State":"CA","Zip":"90067"},{"Location":"COHEN INVESTMENTS  LLC","Address":"1901 Avenue Of The Stars 2","City":"Los Angeles","State":"CA","Zip":"90067"},{"Location":"COHN REZNICK","Address":"1900 Avenue Of The Stars 28thf","City":"Los Angeles","State":"CA","Zip":"90067"},{"Location":"COMPASSIONATE ONCOLOGY MEDICAL","Address":"2080 Century Park E 1005","City":"Los Angeles","State":"CA","Zip":"90067"},{"Location":"CONSULATE OF ITALY","Address":"1900 Avenue Of The Stars 1900","City":"Los Angeles","State":"CA","Zip":"90067"},{"Location":"CONVERSION SYSTEMS","Address":"1999 Avenue Of The Stars 18","City":"Los Angeles","State":"CA","Zip":"90067"},{"Location":"CORP AMERICAN MEIZHOU DO","Address":"10250 Santa Monica Blvd 200a","City":"Los Angeles","State":"CA","Zip":"90067"},{"Location":"COUNTER BURGER CENTURY","Address":"10250 Santa Monica Blvd 1000","City":"Los Angeles","State":"CA","Zip":"90067"},{"Location":"COX CASTLE","Address":"2029 Century Park E 21","City":"Los Angeles","State":"CA","Zip":"90067"},{"Location":"CRABEL CAPITAL MGMT","Address":"10250 Constellation Blvd","City":"Los Angeles","State":"CA","Zip":"90067"},{"Location":"CREATIVE ARTIST AGENCY  2","Address":"2000 Ave Of Stars","City":"Los Angeles","State":"CA","Zip":"90067"},{"Location":"CREATIVE ARTIST AGENCY  3","Address":"2000 Avenue Of The Stars","City":"Los Angeles","State":"CA","Zip":"90067"},{"Location":"CREATIVE ARTIST AGENCY  4","Address":"2000 Avenue Of The Stars","City":"Los Angeles","State":"CA","Zip":"90067"},{"Location":"CREATIVE ARTIST AGENCY  5","Address":"2000 Ave Of Stars","City":"Los Angeles","State":"CA","Zip":"90067"},{"Location":"CREATIVE ARTIST AGENCY  6","Address":"2000 Ave Of Stars","City":"Los Angeles","State":"CA","Zip":"90067"},{"Location":"CREATIVE ARTIST AGENCY  9","Address":"2000 Avenue Of The Stars","City":"Los Angeles","State":"CA","Zip":"90067"},{"Location":"CREATIVE ARTIST AGENCY #1","Address":"2000 Avenue Of The Stars","City":"Los Angeles","State":"CA","Zip":"90067"},{"Location":"CREATIVE ARTIST AGENCY #7","Address":"2000 Avenue Of The Stars","City":"Los Angeles","State":"CA","Zip":"90067"},{"Location":"CREATIVE ARTIST AGENCY #8","Address":"2000 Ave Of Stars","City":"Los Angeles","State":"CA","Zip":"90067"},{"Location":"CTR MALE REPROD MEDICINE","Address":"2080 Century Park E 907","City":"Los Angeles","State":"CA","Zip":"90067"},{"Location":"CUSHMAN AND WAKEFIELD","Address":"10250 Constellation Blvd 2200","City":"Los Angeles","State":"CA","Zip":"90067"},{"Location":"DEBRA FRANK","Address":"1875 Century Park E 700","City":"Los Angeles","State":"CA","Zip":"90067"},{"Location":"DEEP FIELD ASSET MANAGEMT","Address":"2029 Century Park E 400","City":"Los Angeles","State":"CA","Zip":"90067"},{"Location":"DGD&K LLP","Address":"1900 Avenue Of The Stars 11th","City":"Los Angeles","State":"CA","Zip":"90067"},{"Location":"DISCOVERY COMMUNICATIONS","Address":"10100 Santa Monica Blvd 1600","City":"Los Angeles","State":"CA","Zip":"90067"},{"Location":"DOLL AMIR AND ELEY","Address":"1875 Century Park E 18","City":"Los Angeles","State":"CA","Zip":"90067"},{"Location":"DUNE ENTERTAINMENT","Address":"2121 Avenue Of The Stars 2570","City":"Los Angeles","State":"CA","Zip":"90067"},{"Location":"EMPIRE QUALITY","Address":"2000 Avenue Of The Stars 815","City":"Los Angeles","State":"CA","Zip":"90067"},{"Location":"ENTERTAINMENT INDUSTRY","Address":"1900 Avenue Of The Stars","City":"Los Angeles","State":"CA","Zip":"90067"},{"Location":"ENTERTAINMENT STUDIOS","Address":"1925 Century Park E 1025","City":"Los Angeles","State":"CA","Zip":"90067"},{"Location":"ENTERTAINMENT STUDIOS","Address":"1925 Century Park E 1000","City":"Los Angeles","State":"CA","Zip":"90067"},{"Location":"EOS PETRO","Address":"1999 Avenue Of The Stars 2520","City":"Los Angeles","State":"CA","Zip":"90067"},{"Location":"EQUITY OFFICE PROPERTIES","Address":"1999 Avenue Of The Stars 1","City":"Los Angeles","State":"CA","Zip":"90067"},{"Location":"FARSHID BORNA","Address":"2080 Century Park E 405","City":"Los Angeles","State":"CA","Zip":"90067"},{"Location":"FFS","Address":"1875 Century Park E 19","City":"Los Angeles","State":"CA","Zip":"90067"},{"Location":"FIRST WESTERN CAP. MGMT","Address":"1900 Avenue Of The Stars 900","City":"Los Angeles","State":"CA","Zip":"90067"},{"Location":"FORTRESS","Address":"10250 Constellation Blvd","City":"Los Angeles","State":"CA","Zip":"90067"},{"Location":"FRED KUYTS MEDICAL OFFIC","Address":"2080 Century Park E 1804","City":"Los Angeles","State":"CA","Zip":"90067"},{"Location":"GALAXY CAPITAL","Address":"10250 Constellation Blvd","City":"Los Angeles","State":"CA","Zip":"90067"},{"Location":"GELFAND%2C RENNERT & FELDMAN LLC","Address":"1880 Century Park E 1600","City":"Los Angeles","State":"CA","Zip":"90067"},{"Location":"GIBBS%2CGIDEN%2CLOCHER%2CTURNER%2C&SEN","Address":"1880 Century Park E Fl12","City":"Los Angeles","State":"CA","Zip":"90067"},{"Location":"GIGGLES N HUGS","Address":"10250 Santa Monica Blvd 155","City":"Los Angeles","State":"CA","Zip":"90067"},{"Location":"GIPSON HOFFMAN & PANC","Address":"1901 Avenue Of The Stars 1100","City":"Los Angeles","State":"CA","Zip":"90067"},{"Location":"GLANCY BINKOW & GOLDBERG","Address":"1925 Century Park E 2100","City":"Los Angeles","State":"CA","Zip":"90067"},{"Location":"GLASER%2CWEIL%2CFINK%2CJACOBS%2CHOWARD","Address":"10250 Constellation Blvd","City":"Los Angeles","State":"CA","Zip":"90067"},{"Location":"GOLDMAN KNELL CPAS LLP","Address":"1801 Century Park E 2160","City":"Los Angeles","State":"CA","Zip":"90067"},{"Location":"GREENBERG GLUSKER","Address":"1900 Avenue Of The Stars","City":"Los Angeles","State":"CA","Zip":"90067"},{"Location":"GREENBERG%2CGLUSKER%2CFIELDS%2CCLAMA","Address":"1900 Avenue Of The Stars 2100","City":"Los Angeles","State":"CA","Zip":"90067"},{"Location":"GREENE & ASSOCIATE TAL","Address":"1901 Avenue Of The Stars 130","City":"Los Angeles","State":"CA","Zip":"90067"},{"Location":"GREENHILL AND CO","Address":"10250 Constellation Blvd 1620","City":"Los Angeles","State":"CA","Zip":"90067"},{"Location":"H P C INDUSTRIES","Address":"10250 Constellation Blvd 2820","City":"Los Angeles","State":"CA","Zip":"90067"},{"Location":"HAROLD DAVIDSON & ASSOC INC","Address":"1900 Avenue Of The Stars 2400","City":"Los Angeles","State":"CA","Zip":"90067"},{"Location":"HEYMONT AND COMPANY","Address":"1880 Century Park E 14fl","City":"Los Angeles","State":"CA","Zip":"90067"},{"Location":"HORIZON MEDIA","Address":"1888 Century Park E 17","City":"Los Angeles","State":"CA","Zip":"90067"},{"Location":"HOULIHAN LOKEY HOWARD & ZUKIN","Address":"10250 Constellation Blvd","City":"Los Angeles","State":"CA","Zip":"90067"},{"Location":"HYATT REGENCY CENTURY PLAZA","Address":"2025 Avenue Of The Stars","City":"Los Angeles","State":"CA","Zip":"90067"},{"Location":"ICM LLC #8","Address":"10250 Constellation Blvd 7thfl","City":"Los Angeles","State":"CA","Zip":"90067"},{"Location":"INTELLIGENT DECISIONS IN","Address":"1900 Avenue Of The Stars 970","City":"Los Angeles","State":"CA","Zip":"90067"},{"Location":"INTERCONTINENTAL HOTEL CENTURY","Address":"2151 Avenue Of The Stars","City":"Los Angeles","State":"CA","Zip":"90067"},{"Location":"INTERNATIONAL CREATIVE MGM #1","Address":"10250 Constellation Blvd","City":"Los Angeles","State":"CA","Zip":"90067"},{"Location":"INTERNATIONAL CREATIVE MGM #6","Address":"10250 Constellation Blvd","City":"Los Angeles","State":"CA","Zip":"90067"},{"Location":"INTERNATIONAL CREATIVE MGM#4","Address":"10250 Constellation Blvd","City":"Los Angeles","State":"CA","Zip":"90067"},{"Location":"INTERNATIONAL CREATIVE MGM#5","Address":"10250 Constellation Blvd","City":"Los Angeles","State":"CA","Zip":"90067"},{"Location":"INTERNATIONAL CREATIVE MGMT #7","Address":"10250 Constellation Blvd","City":"Los Angeles","State":"CA","Zip":"90067"},{"Location":"INTERNATIONAL CREATIVE MGN # 2","Address":"10250 Constellation Blvd","City":"Los Angeles","State":"CA","Zip":"90067"},{"Location":"INTERNATIONAL CREATIVE MGN #3","Address":"10250 Constellation Blvd","City":"Los Angeles","State":"CA","Zip":"90067"},{"Location":"INTERNATIONAL LEASE FINANCE","Address":"10250 Constellation Blvd 3400","City":"Los Angeles","State":"CA","Zip":"90067"},{"Location":"IRELL & MANELLA LLP","Address":"1800 Avenue Of The Stars 900","City":"Los Angeles","State":"CA","Zip":"90067"},{"Location":"IRVINE COMPANY GYM","Address":"2121 Avenue Of The Stars 120","City":"Los Angeles","State":"CA","Zip":"90067"},{"Location":"ISAACMAN KAUFMAN&PAINTER","Address":"10250 Constellation Blvd 2900","City":"Los Angeles","State":"CA","Zip":"90067"},{"Location":"ITALIAN TRADE COMMISION","Address":"1900 Avenue Of The Stars 350","City":"Los Angeles","State":"CA","Zip":"90067"},{"Location":"JACK 1","Address":"1999 Avenue Of The Stars P3-2","City":"Los Angeles","State":"CA","Zip":"90067"},{"Location":"JEFFER MANGELS BUTLER MITCHELL","Address":"1900 Avenue Of The Stars","City":"Los Angeles","State":"CA","Zip":"90067"},{"Location":"JHS CAPITAL","Address":"1875 Century Park E 6","City":"Los Angeles","State":"CA","Zip":"90067"},{"Location":"JOSEPH DROWN FOUNDATION","Address":"1999 Avenue Of The Stars 23","City":"Los Angeles","State":"CA","Zip":"90067"},{"Location":"KAYNE ANDERSON CAPITAL","Address":"1800 Avenue Of The Stars 3","City":"Los Angeles","State":"CA","Zip":"90067"},{"Location":"KING PURTICH HOLMES PATERNO","Address":"1900 Avenue Of The Stars 25flr","City":"Los Angeles","State":"CA","Zip":"90067"},{"Location":"KLEE TUCHIN","Address":"1999 Avenue Of The Stars 3900","City":"Los Angeles","State":"CA","Zip":"90067"},{"Location":"KORN%2FFERRY","Address":"1900 Avenue Of The Stars 2600","City":"Los Angeles","State":"CA","Zip":"90067"},{"Location":"LACLA INVESTMENT COMPANY","Address":"1901 Avenue Of The Stars 610","City":"Los Angeles","State":"CA","Zip":"90067"},{"Location":"LANDAU GOTTFRIED & BERGER","Address":"1801 Century Park E 700","City":"Los Angeles","State":"CA","Zip":"90067"},{"Location":"LATHAM & WATKINS LLP","Address":"10250 Constellation Blvd","City":"Los Angeles","State":"CA","Zip":"90067"},{"Location":"LAUREL GROVE CAPITAL","Address":"1875 Century Park E 1970","City":"Los Angeles","State":"CA","Zip":"90067"},{"Location":"LAURUS CORPORATION","Address":"1880 Century Park E 1016","City":"Los Angeles","State":"CA","Zip":"90067"},{"Location":"LAW OFFICE OF BARRY K ROTHMAN","Address":"1901 Avenue Of The Stars 370","City":"Los Angeles","State":"CA","Zip":"90067"},{"Location":"LAW OFFICE OF GERARD FOX","Address":"1880 Century Park E 1004","City":"Los Angeles","State":"CA","Zip":"90067"},{"Location":"LEGACY PARTNERS","Address":"1999 Ave Of Stars 31","City":"Los Angeles","State":"CA","Zip":"90067"},{"Location":"LEGAL VISION CONSULTING","Address":"1801 Century Park E 350","City":"Los Angeles","State":"CA","Zip":"90067"},{"Location":"LEVERE%2CNEALE%2CBENDER%2CRANFIN","Address":"10250 Constellation Blvd 1700","City":"Los Angeles","State":"CA","Zip":"90067"},{"Location":"LIEBERMAN RESEARCH WORLDWIDE","Address":"1900 Avenue Of The Stars 1600","City":"Los Angeles","State":"CA","Zip":"90067"},{"Location":"MACQUARIE CAPITAL ADVISORS","Address":"10250 Constellation Blvd 2250","City":"Los Angeles","State":"CA","Zip":"90067"},{"Location":"MACY'S WEST 518","Address":"10250 Santa Monica Blvd","City":"Los Angeles","State":"CA","Zip":"90067"},{"Location":"MAGANA CATHCART & MCARTH","Address":"1900 Avenue Of The Stars 650","City":"Los Angeles","State":"CA","Zip":"90067"},{"Location":"MAPELTON CAPITAL","Address":"1901 Avenue Of The Stars 1925","City":"Los Angeles","State":"CA","Zip":"90067"},{"Location":"MARC DAUER  MD","Address":"2080 Century Park E 1802","City":"Los Angeles","State":"CA","Zip":"90067"},{"Location":"MARVISTA ENTERTAINMENT","Address":"10277 W Olympic Blvd 3","City":"Los Angeles","State":"CA","Zip":"90067"},{"Location":"MATKINS  ALLEN  GABLE  M","Address":"1901 Avenue Of The Stars 1800","City":"Los Angeles","State":"CA","Zip":"90067"},{"Location":"MCCAFFERTY AND CO","Address":"2029 Century Park E 1140","City":"Los Angeles","State":"CA","Zip":"90067"},{"Location":"MEDIALINK","Address":"1901 Ave Ot The Stars 1775","City":"Los Angeles","State":"CA","Zip":"90067"},{"Location":"MERCANTILE NATIONAL BANK","Address":"1880 Century Park E 800","City":"Los Angeles","State":"CA","Zip":"90067"},{"Location":"MERRILL CORPORATION","Address":"1900 Avenue Of The Stars 1200","City":"Los Angeles","State":"CA","Zip":"90067"},{"Location":"MGM GRAND MARKETING","Address":"1880 Century Park E 1108","City":"Los Angeles","State":"CA","Zip":"90067"},{"Location":"MSL WINNER","Address":"2029 Century Park E 17","City":"Los Angeles","State":"CA","Zip":"90067"},{"Location":"MVP SPORTS GROUP","Address":"1880 Century Park E 1511","City":"Los Angeles","State":"CA","Zip":"90067"},{"Location":"NATIXIS NORTH AMERICA","Address":"10250 Constellation Blvd 2750","City":"Los Angeles","State":"CA","Zip":"90067"},{"Location":"ODDLOT ENTERTAINMENT","Address":"2049 Century Park E 1940","City":"Los Angeles","State":"CA","Zip":"90067"},{"Location":"OPEN GATE CAPITAL","Address":"10250 Constellation Blvd 1750","City":"Los Angeles","State":"CA","Zip":"90067"},{"Location":"ORBACH HUFF & SUAREZ  LLP","Address":"1901 Avenue Of The Stars 575","City":"Los Angeles","State":"CA","Zip":"90067"},{"Location":"PACIFIC TRUST BANK","Address":"1880 Century Park E 104","City":"Los Angeles","State":"CA","Zip":"90067"},{"Location":"PACIFIC WESTERN BANK","Address":"10250 Constellation Blvd 1640","City":"Los Angeles","State":"CA","Zip":"90067"},{"Location":"PAUL GEARY MANAGEMENT GR","Address":"1801 Century Park E 1901","City":"Los Angeles","State":"CA","Zip":"90067"},{"Location":"PCCP LLC","Address":"10100 Santa Monica Blvd 1000","City":"Los Angeles","State":"CA","Zip":"90067"},{"Location":"PENINSULA GAMING PARTNER","Address":"10250 Constellation Blvd 2230","City":"Los Angeles","State":"CA","Zip":"90067"},{"Location":"PERKINS COIE","Address":"1888 Century Park E 17","City":"Los Angeles","State":"CA","Zip":"90067"},{"Location":"PHILLIPS LERNER","Address":"2029 Century Park E 1200","City":"Los Angeles","State":"CA","Zip":"90067"},{"Location":"PINK TACO","Address":"10250 Santa Monica Blvd 200","City":"Los Angeles","State":"CA","Zip":"90067"},{"Location":"POLAK INVESTORS","Address":"1880 Century Park E 811","City":"Los Angeles","State":"CA","Zip":"90067"},{"Location":"POSTINVESTMENTGROUP","Address":"1801 Century Park E 2240","City":"Los Angeles","State":"CA","Zip":"90067"},{"Location":"POWER ASSET MANAGEMENT","Address":"1901 Avenue Of The Stars","City":"Los Angeles","State":"CA","Zip":"90067"},{"Location":"PREMIER BUSINESS CENTER","Address":"1875 Century Park E 600","City":"Los Angeles","State":"CA","Zip":"90067"},{"Location":"PREMIER BUSINESS CENTERS","Address":"1999 Avenue Of The Stars 1100","City":"Los Angeles","State":"CA","Zip":"90067"},{"Location":"PWCG INC","Address":"1901 Avenue Of The Stars 680","City":"Los Angeles","State":"CA","Zip":"90067"},{"Location":"R BRUCE TEPPER ALC","Address":"1880 Century Park E 615","City":"Los Angeles","State":"CA","Zip":"90067"},{"Location":"RALPH EHRENPREIS-A LAW CORP.","Address":"1880 Century Park E 550","City":"Los Angeles","State":"CA","Zip":"90067"},{"Location":"REAL TECH","Address":"2080 Century Park E Ph","City":"Los Angeles","State":"CA","Zip":"90067"},{"Location":"REED SMITH LLP","Address":"1901 Avenue Of The Stars 700","City":"Los Angeles","State":"CA","Zip":"90067"},{"Location":"REGENT BUSINESS CENTER","Address":"1901 Avenus Of The Stars 200","City":"Los Angeles","State":"CA","Zip":"90067"},{"Location":"REPUBLIC INVESTMENT COMP","Address":"2049 Century Park E 3630","City":"Los Angeles","State":"CA","Zip":"90067"},{"Location":"RING FINANCIAL INC.","Address":"1880 Century Park E 716","City":"Los Angeles","State":"CA","Zip":"90067"},{"Location":"RITTER PHARMACEUTICAL  I","Address":"1801 Century Park E 1820","City":"Los Angeles","State":"CA","Zip":"90067"},{"Location":"ROCKSUGAR PAN ASIAN 6001","Address":"10250 Santa Monica Blvd 654","City":"Los Angeles","State":"CA","Zip":"90067"},{"Location":"ROGUE MARBLE INC","Address":"10203 Santa Monica Blvd","City":"Los Angeles","State":"CA","Zip":"90067"},{"Location":"RONALD STAUBER","Address":"1880 Century Park E 315","City":"Los Angeles","State":"CA","Zip":"90067"},{"Location":"ROSENFELD ARONSON & KLEIN","Address":"1901 Avenue Of The Stars 500","City":"Los Angeles","State":"CA","Zip":"90067"},{"Location":"ROYAL BANK OF CANADA","Address":"1901 Avenue Of The Stars","City":"Los Angeles","State":"CA","Zip":"90067"},{"Location":"RR DONNELLEY","Address":"1888 Century Park E 1650","City":"Los Angeles","State":"CA","Zip":"90067"},{"Location":"SARD VERBINNEN AND CO","Address":"1875 Century Park E 11","City":"Los Angeles","State":"CA","Zip":"90067"},{"Location":"SEASONS 52 #4528","Address":"10250 Santa Monica Blvd","City":"Los Angeles","State":"CA","Zip":"90067"},{"Location":"SEIA","Address":"2121 Avenue Of The Stars 1600","City":"Los Angeles","State":"CA","Zip":"90067"},{"Location":"SHEPPARD MULLIN","Address":"1901 Avenue Of The Stars 1600","City":"Los Angeles","State":"CA","Zip":"90067"},{"Location":"SITRIN CAPITAL","Address":"2049 Century Park E 3640","City":"Los Angeles","State":"CA","Zip":"90067"},{"Location":"SKLAR KIRSH","Address":"1880 Century Park E 300","City":"Los Angeles","State":"CA","Zip":"90067"},{"Location":"SKYVIEW CAPITAL LLC","Address":"2000 Avenue Of The Stars","City":"Los Angeles","State":"CA","Zip":"90067"},{"Location":"SOLTANIAN","Address":"1801 Century Park E 1560","City":"Los Angeles","State":"CA","Zip":"90067"},{"Location":"SOMERSET MANAGEMENT GROUP","Address":"10250 Constellation Blvd 1610","City":"Los Angeles","State":"CA","Zip":"90067"},{"Location":"STAN ROSENFIELD AND ASS","Address":"2029 Century Park E 11","City":"Los Angeles","State":"CA","Zip":"90067"},{"Location":"STATE STREET BANK","Address":"1801 Century Park Eat 1440","City":"Los Angeles","State":"CA","Zip":"90067"},{"Location":"STEPTOE & JOHNSON","Address":"2121 Avenue Of The Stars 2800","City":"Los Angeles","State":"CA","Zip":"90067"},{"Location":"SUGERMAN COMM. GROUP","Address":"10100 Santa Monica Blvd 250","City":"Los Angeles","State":"CA","Zip":"90067"},{"Location":"SUNTRUST","Address":"1999 Avenue Of The Stars 10","City":"Los Angeles","State":"CA","Zip":"90067"},{"Location":"SUSMAN GODFREY LLP","Address":"1901 Avenue Of The Stars 950","City":"Los Angeles","State":"CA","Zip":"90067"},{"Location":"TAAG INVESTMENT MGMT LLC","Address":"1880 Century Park E 714","City":"Los Angeles","State":"CA","Zip":"90067"},{"Location":"TAMPA FOOTBALL CORP.","Address":"10250 Constellation Blvd 2850","City":"Los Angeles","State":"CA","Zip":"90067"},{"Location":"TANTALO & ADLER LLP","Address":"1901 Avenue Of The Stars 1000","City":"Los Angeles","State":"CA","Zip":"90067"},{"Location":"TBS INC #1","Address":"1888 Century Park E","City":"Los Angeles","State":"CA","Zip":"90067"},{"Location":"TBS INC #2","Address":"1888 Century Park E 1200","City":"Los Angeles","State":"CA","Zip":"90067"},{"Location":"TBS INC #3","Address":"1888 Century Park E 1200","City":"Los Angeles","State":"CA","Zip":"90067"},{"Location":"TBS INC #4","Address":"1888 Century Park E 1200","City":"Los Angeles","State":"CA","Zip":"90067"},{"Location":"TBS INC #5","Address":"1888 Century Park E 1200","City":"Los Angeles","State":"CA","Zip":"90067"},{"Location":"TEAM DETROIT","Address":"1925 Century Park E 250","City":"Los Angeles","State":"CA","Zip":"90067"},{"Location":"THE AGENCY GROUP","Address":"1880 Century Park E 711","City":"Los Angeles","State":"CA","Zip":"90067"},{"Location":"THE ANNEBERG FOUNDATION","Address":"2000 Avenue Of The Stars 10","City":"Los Angeles","State":"CA","Zip":"90067"},{"Location":"THE CELLAR RESTARANT","Address":"1880 Century Park E 102","City":"Los Angeles","State":"CA","Zip":"90067"},{"Location":"THE WESTFIELD CENTURY CITY","Address":"10250 Santa Monica Blvd","City":"Los Angeles","State":"CA","Zip":"90067"},{"Location":"TIAA CREF","Address":"1801 Century Park E 120","City":"Los Angeles","State":"CA","Zip":"90067"},{"Location":"TOKYO BROADCASTING SYSTEM","Address":"1901 Avenue Of The Stars 1460","City":"Los Angeles","State":"CA","Zip":"90067"},{"Location":"TOPA MANAGEMENT CO","Address":"1900 Avenue Of The Stars","City":"Los Angeles","State":"CA","Zip":"90067"},{"Location":"TOSCANOVA RESTAURANT","Address":"10250 Santa Monica Blvd","City":"Los Angeles","State":"CA","Zip":"90067"},{"Location":"TRESSLER LLP","Address":"1901 Avenue Of The Stars 450","City":"Los Angeles","State":"CA","Zip":"90067"},{"Location":"TRIBECA-KMS","Address":"1901 Ave Of Starz 1900","City":"Los Angeles","State":"CA","Zip":"90067"},{"Location":"TRIBUNE","Address":"2049 Century Park E 2600","City":"Los Angeles","State":"CA","Zip":"90067"},{"Location":"TRIMANA","Address":"1900 Avenue Of The Stars A100","City":"Los Angeles","State":"CA","Zip":"90067"},{"Location":"TV GUIDE MAGAZINE LLC","Address":"10250 Constellation Blvd 1750","City":"Los Angeles","State":"CA","Zip":"90067"},{"Location":"UBS FINANCIAL SERVICES","Address":"2000 Avenue Of The Stars","City":"Los Angeles","State":"CA","Zip":"90067"},{"Location":"VALLEY RETINA ASSOCIATES","Address":"2080 Century Park E 707","City":"Los Angeles","State":"CA","Zip":"90067"},{"Location":"VCAP INVESTMENT GROUP","Address":"1801 Century Park E 1132","City":"Los Angeles","State":"CA","Zip":"90067"},{"Location":"VILLAGE ROADSHOW PICTURE","Address":"10100 Santa Monica Blvd 200","City":"Los Angeles","State":"CA","Zip":"90067"},{"Location":"VRM LAW","Address":"1875 Century Park E 11","City":"Los Angeles","State":"CA","Zip":"90067"},{"Location":"WEIDMANN & FARRAR","Address":"1880 Century Park E 817","City":"Los Angeles","State":"CA","Zip":"90067"},{"Location":"WESTERN UNION BUS SOL","Address":"1880 Century Park E 413","City":"Los Angeles","State":"CA","Zip":"90067"},{"Location":"WESTFIELD","Address":"2049 Century Park E 40","City":"Los Angeles","State":"CA","Zip":"90067"},{"Location":"WESTFIELD","Address":"10250 Santa Monica Blvd","City":"Los Angeles","State":"CA","Zip":"90067"},{"Location":"WESTFIELD CENTURY CITY","Address":"1801 Avenue Of The Stars 833","City":"Los Angeles","State":"CA","Zip":"90067"},{"Location":"WESTFIELD CENTURY CITY LLC","Address":"10250 Santa Monica Blvd 1","City":"Los Angeles","State":"CA","Zip":"90067"},{"Location":"WILLIAM DORFMAN DDS","Address":"2080 Century Park E 1601","City":"Los Angeles","State":"CA","Zip":"90067"},{"Location":"WILLIAM J GARGARO","Address":"1880 Century Park E 710","City":"Los Angeles","State":"CA","Zip":"90067"},{"Location":"WILMINGTON TRUST FSB","Address":"10250 Constellation Blvd 2800","City":"Los Angeles","State":"CA","Zip":"90067"},{"Location":"WSS  LLP","Address":"1900 Avenue Of The Stars 450","City":"Los Angeles","State":"CA","Zip":"90067"},{"Location":"ZIFFREN LAW","Address":"1801 Century Park W","City":"Los Angeles","State":"CA","Zip":"90067"},{"Location":"SPEARMINT RHINO GENTLEMEN'S CL","Address":"19900 S Normandie Blvd","City":"Torrence","State":"CA","Zip":"90067"}]