[{"Location":"JMB CAPITAL PARTNERS","Address":"1999 1999 Ave Of The Stars 2040","City":"Century City","State":"CA","Zip":"90062"},{"Location":"1755 MLK COIN LAUNDRY","Address":"1755 W Martin Luther King Jr B","City":"Los Angeles","State":"CA","Zip":"90062"},{"Location":"BELLAS AGUILAS CAFE","Address":"3874 S Western Ave","City":"Los Angeles","State":"CA","Zip":"90062"},{"Location":"CIRCLE CITY 2","Address":"4424 S Western Ave","City":"Los Angeles","State":"CA","Zip":"90062"},{"Location":"COMEDOR BELLA VISTA","Address":"1560 W Martin Luther King Jr B","City":"Los Angeles","State":"CA","Zip":"90062"},{"Location":"CREATIVE LEARNING ACADEMY","Address":"1718 W Martin Luther King Jr B","City":"Los Angeles","State":"CA","Zip":"90062"},{"Location":"CREDELS TOTAL HAIR CARE1","Address":"4517 S Western Ave","City":"Los Angeles","State":"CA","Zip":"90062"},{"Location":"DAVITA #398 LOS ANGELES","Address":"3901 S Western Ave","City":"Los Angeles","State":"CA","Zip":"90062"},{"Location":"EL ARCA BAKERY AND RESTA","Address":"1818 W 54th St","City":"Los Angeles","State":"CA","Zip":"90062"},{"Location":"FOXYS","Address":"1907 W 48th St","City":"Los Angeles","State":"CA","Zip":"90062"},{"Location":"JACKS FAMILY KITCHEN","Address":"3965 S Western Ave","City":"Los Angeles","State":"CA","Zip":"90062"},{"Location":"JAMG AUTO REPAIR","Address":"5128 S Western Ave","City":"Los Angeles","State":"CA","Zip":"90062"},{"Location":"LEES NAILS","Address":"3991 S Western Ave","City":"Los Angeles","State":"CA","Zip":"90062"},{"Location":"LLOYDS BABERSHOP","Address":"4518 S Western Ave","City":"Los Angeles","State":"CA","Zip":"90062"},{"Location":"LOS ANGELES POLICE DEPARTMENT","Address":"1546 W Martin Luther King Jr B","City":"Los Angeles","State":"CA","Zip":"90062"},{"Location":"MARIOS THIRFT SHOP","Address":"1454 W Martin Luther King Jr B","City":"Los Angeles","State":"CA","Zip":"90062"},{"Location":"METRO","Address":"5425 S Van Ness Ave","City":"Los Angeles","State":"CA","Zip":"90062"},{"Location":"MR STEVES PAWN SHOP","Address":"3800 S Western Ave","City":"Los Angeles","State":"CA","Zip":"90062"},{"Location":"NATURES HOTLINE","Address":"1448 W Martin Luther King Jr B","City":"Los Angeles","State":"CA","Zip":"90062"},{"Location":"PREPAID LEGAL SERVICES INC","Address":"1815 W 54th St","City":"Los Angeles","State":"CA","Zip":"90062"},{"Location":"SOL SMOGCHECK","Address":"5124 S Western Ave","City":"Los Angeles","State":"CA","Zip":"90062"},{"Location":"SONSONATE GRILL","Address":"5011 S Western Ave","City":"Los Angeles","State":"CA","Zip":"90062"},{"Location":"SOUTH LA YRP","Address":"1718 W Vernon Ave","City":"Los Angeles","State":"CA","Zip":"90062"},{"Location":"STENTORIANS OF LOS ANGELES","Address":"1409 W Vernon Ave","City":"Los Angeles","State":"CA","Zip":"90062"},{"Location":"TESTAMONIAL CATHEDRAL COGIC","Address":"5701 S Western Ave","City":"Los Angeles","State":"CA","Zip":"90062"},{"Location":"VERNON MARKET","Address":"1717 W Vernon Ave","City":"Los Angeles","State":"CA","Zip":"90062"},{"Location":"JMB CAPITAL PARTNERS","Address":"1999 1999 Ave Of The Stars 2040","City":"Century City","State":"CA","Zip":"90062"},{"Location":"1755 MLK COIN LAUNDRY","Address":"1755 W Martin Luther King Jr B","City":"Los Angeles","State":"CA","Zip":"90062"},{"Location":"BELLAS AGUILAS CAFE","Address":"3874 S Western Ave","City":"Los Angeles","State":"CA","Zip":"90062"},{"Location":"CIRCLE CITY 2","Address":"4424 S Western Ave","City":"Los Angeles","State":"CA","Zip":"90062"},{"Location":"COMEDOR BELLA VISTA","Address":"1560 W Martin Luther King Jr B","City":"Los Angeles","State":"CA","Zip":"90062"},{"Location":"CREATIVE LEARNING ACADEMY","Address":"1718 W Martin Luther King Jr B","City":"Los Angeles","State":"CA","Zip":"90062"},{"Location":"CREDELS TOTAL HAIR CARE1","Address":"4517 S Western Ave","City":"Los Angeles","State":"CA","Zip":"90062"},{"Location":"DAVITA #398 LOS ANGELES","Address":"3901 S Western Ave","City":"Los Angeles","State":"CA","Zip":"90062"},{"Location":"EL ARCA BAKERY AND RESTA","Address":"1818 W 54th St","City":"Los Angeles","State":"CA","Zip":"90062"},{"Location":"FOXYS","Address":"1907 W 48th St","City":"Los Angeles","State":"CA","Zip":"90062"},{"Location":"JACKS FAMILY KITCHEN","Address":"3965 S Western Ave","City":"Los Angeles","State":"CA","Zip":"90062"},{"Location":"JAMG AUTO REPAIR","Address":"5128 S Western Ave","City":"Los Angeles","State":"CA","Zip":"90062"},{"Location":"LEES NAILS","Address":"3991 S Western Ave","City":"Los Angeles","State":"CA","Zip":"90062"},{"Location":"LLOYDS BABERSHOP","Address":"4518 S Western Ave","City":"Los Angeles","State":"CA","Zip":"90062"},{"Location":"LOS ANGELES POLICE DEPARTMENT","Address":"1546 W Martin Luther King Jr B","City":"Los Angeles","State":"CA","Zip":"90062"},{"Location":"MARIOS THIRFT SHOP","Address":"1454 W Martin Luther King Jr B","City":"Los Angeles","State":"CA","Zip":"90062"},{"Location":"METRO","Address":"5425 S Van Ness Ave","City":"Los Angeles","State":"CA","Zip":"90062"},{"Location":"MR STEVES PAWN SHOP","Address":"3800 S Western Ave","City":"Los Angeles","State":"CA","Zip":"90062"},{"Location":"NATURES HOTLINE","Address":"1448 W Martin Luther King Jr B","City":"Los Angeles","State":"CA","Zip":"90062"},{"Location":"PREPAID LEGAL SERVICES INC","Address":"1815 W 54th St","City":"Los Angeles","State":"CA","Zip":"90062"},{"Location":"SOL SMOGCHECK","Address":"5124 S Western Ave","City":"Los Angeles","State":"CA","Zip":"90062"},{"Location":"SONSONATE GRILL","Address":"5011 S Western Ave","City":"Los Angeles","State":"CA","Zip":"90062"},{"Location":"SOUTH LA YRP","Address":"1718 W Vernon Ave","City":"Los Angeles","State":"CA","Zip":"90062"},{"Location":"STENTORIANS OF LOS ANGELES","Address":"1409 W Vernon Ave","City":"Los Angeles","State":"CA","Zip":"90062"},{"Location":"TESTAMONIAL CATHEDRAL COGIC","Address":"5701 S Western Ave","City":"Los Angeles","State":"CA","Zip":"90062"},{"Location":"VERNON MARKET","Address":"1717 W Vernon Ave","City":"Los Angeles","State":"CA","Zip":"90062"}]