[{"Location":"ADVANCED FINISHING","Address":"11645 S Broadway","City":"Los Angeles","State":"CA","Zip":"90061"},{"Location":"AGAPE CHRISTIAN FELLOWSHIP","Address":"12700 S Main St","City":"Los Angeles","State":"CA","Zip":"90061"},{"Location":"AIR ONE INTL INC","Address":"13936 S Broadway","City":"Los Angeles","State":"CA","Zip":"90061"},{"Location":"AMERICAN DYE HOUSE","Address":"13024 S Spring St","City":"Los Angeles","State":"CA","Zip":"90061"},{"Location":"AUTO BODY EXPRESS 2000","Address":"14207 S San Pedro St","City":"Los Angeles","State":"CA","Zip":"90061"},{"Location":"BIGG DADDY BLADES","Address":"11400 S Main St","City":"Los Angeles","State":"CA","Zip":"90061"},{"Location":"CLEAN WATER TECHNOLOGY","Address":"151 135th St","City":"Los Angeles","State":"CA","Zip":"90061"},{"Location":"DEL REY NUT COMPANY","Address":"12926 S Broadway","City":"Los Angeles","State":"CA","Zip":"90061"},{"Location":"EL CRILL","Address":"12730 S Figueroa St","City":"Los Angeles","State":"CA","Zip":"90061"},{"Location":"FIRESTATION 64","Address":"10811 S Main St","City":"Los Angeles","State":"CA","Zip":"90061"},{"Location":"HELICOPTER TECHNOLOGY","Address":"12902 S Broadway","City":"Los Angeles","State":"CA","Zip":"90061"},{"Location":"HOME  ASSEMBLY CHURCH","Address":"13515 S Figueroa St","City":"Los Angeles","State":"CA","Zip":"90061"},{"Location":"HOME OF THE PHOENIX TWO","Address":"10901 S Broadway","City":"Los Angeles","State":"CA","Zip":"90061"},{"Location":"J & L 99 CENT STORE","Address":"11314 1%2F2 S Main St","City":"Los Angeles","State":"CA","Zip":"90061"},{"Location":"JEFTYS","Address":"12823 Avalon Blvd","City":"Los Angeles","State":"CA","Zip":"90061"},{"Location":"LA COUNTY SHERRIF%2FPARK BUREAU","Address":"12910 Athens Way","City":"Los Angeles","State":"CA","Zip":"90061"},{"Location":"MAGNIFICENT SEVEN","Address":"11311 Avalon Blvd","City":"Los Angeles","State":"CA","Zip":"90061"},{"Location":"MCCORMICK AMBULANCE SERV","Address":"12903 Avalon Blvd","City":"Los Angeles","State":"CA","Zip":"90061"},{"Location":"MJB TRANSITIONAL RECOVERY","Address":"11152 S Main St","City":"Los Angeles","State":"CA","Zip":"90061"},{"Location":"MOULTRY","Address":"11316 S San Pedro St","City":"Los Angeles","State":"CA","Zip":"90061"},{"Location":"PARKLANE MEDICAL GROUP","Address":"12900 Avalon Blvd","City":"Los Angeles","State":"CA","Zip":"90061"},{"Location":"PATHWAY REGIONAL APPT SUPPORT","Address":"12833 S Broadway","City":"Los Angeles","State":"CA","Zip":"90061"},{"Location":"PEOPLE FOR COMMUNITY IMPROVEME","Address":"13008 S Figueroa St","City":"Los Angeles","State":"CA","Zip":"90061"},{"Location":"PICO RENTS INC","Address":"13414 S Figueroa St","City":"Los Angeles","State":"CA","Zip":"90061"},{"Location":"PRONTO BURGERS","Address":"110 W El Segundo Blvd","City":"Los Angeles","State":"CA","Zip":"90061"},{"Location":"ROYAL FREIGHT","Address":"222 W El Segundo Blvd","City":"Los Angeles","State":"CA","Zip":"90061"},{"Location":"THE BOOM BOOM ROOM","Address":"12823 Avalon Blvd","City":"Los Angeles","State":"CA","Zip":"90061"},{"Location":"THE FAMILY ROOM","Address":"12705 S Main St","City":"Los Angeles","State":"CA","Zip":"90061"},{"Location":"THE RIO GENTLEMENS CLUB","Address":"13124 S Figueroa St","City":"Los Angeles","State":"CA","Zip":"90061"},{"Location":"UNITED GLOBE TRADING CO INC","Address":"13104 Avalon Blvd","City":"Los Angeles","State":"CA","Zip":"90061"},{"Location":"V&M PLATING","Address":"14024 Avalon Blvd","City":"Los Angeles","State":"CA","Zip":"90061"},{"Location":"WEBBY INC","Address":"230 E 130th St 219","City":"Los Angeles","State":"CA","Zip":"90061"},{"Location":"WINGSTOP #672","Address":"11315 S Figueroa St 110","City":"Los Angeles","State":"CA","Zip":"90061"}]