[{"Location":"10616 PICO  LLC","Address":"10618 W Pico Blvd","City":"Los Angeles","State":"CA","Zip":"90064"},{"Location":"20 CENTURY FOX","Address":"10201 W Pico Blvd","City":"Los Angeles","State":"CA","Zip":"90064"},{"Location":"20 CENTURY FOX TELEVISION","Address":"10201 W Pico Blvd 226","City":"Los Angeles","State":"CA","Zip":"90064"},{"Location":"20TH CENTURY FOX","Address":"10201 W Pico Blvd","City":"Los Angeles","State":"CA","Zip":"90064"},{"Location":"20TH CENTURY FOX CASTING","Address":"10201 W Pico Blvd Blgd. 12 201","City":"Los Angeles","State":"CA","Zip":"90064"},{"Location":"20TH CENTURY FOX FILM CORP","Address":"10201 W Pico Blvd","City":"Los Angeles","State":"CA","Zip":"90064"},{"Location":"2680 BARRINGTON ASSOC","Address":"2680 S Barrington Ave","City":"Los Angeles","State":"CA","Zip":"90064"},{"Location":"ADVANCED BODY SOLUTIONS","Address":"10617 W Pico Blvd","City":"Los Angeles","State":"CA","Zip":"90064"},{"Location":"AFFILIATE SALES","Address":"10201 W Pico Blvd 3254a","City":"Los Angeles","State":"CA","Zip":"90064"},{"Location":"AGRON INC","Address":"2440 S Sepulveda Blvd 201","City":"Los Angeles","State":"CA","Zip":"90064"},{"Location":"ALEXANDER'S FOR HAIR","Address":"11515 W Pico Blvd","City":"Los Angeles","State":"CA","Zip":"90064"},{"Location":"ALTOUR INTERNATIONAL","Address":"12100 W Olympic Blvd 300","City":"Los Angeles","State":"CA","Zip":"90064"},{"Location":"APATOW PRODUCTIONS","Address":"11788 W Pico Blvd","City":"Los Angeles","State":"CA","Zip":"90064"},{"Location":"AUTHENTIC RECOVERY 2","Address":"2203 Overland Ave","City":"Los Angeles","State":"CA","Zip":"90064"},{"Location":"AUTHENTIC RECOVERY 4","Address":"2207 Pelham Ave","City":"Los Angeles","State":"CA","Zip":"90064"},{"Location":"AVATAR NAIL AND SPA","Address":"11700 National Blvd H","City":"Los Angeles","State":"CA","Zip":"90064"},{"Location":"BACKHOUSE RESTAURANT","Address":"10913 W Pico Blvd","City":"Los Angeles","State":"CA","Zip":"90064"},{"Location":"BAJA BUDS","Address":"11205 National Blvd","City":"Los Angeles","State":"CA","Zip":"90064"},{"Location":"BAJA FRESH WEST LOS ANGELES","Address":"2210 Sawtelle Blvd","City":"Los Angeles","State":"CA","Zip":"90064"},{"Location":"BARRISTER EXEC. SUITES","Address":"11500 W Olympic Blvd 400","City":"Los Angeles","State":"CA","Zip":"90064"},{"Location":"BERMAN BERMAN & BERMAN","Address":"11900 W Olympic Blvd 600","City":"Los Angeles","State":"CA","Zip":"90064"},{"Location":"BEVERLY COACHCRAFT","Address":"2320 Sawtelle Blvd","City":"Los Angeles","State":"CA","Zip":"90064"},{"Location":"BIG O TIRES WEST LA","Address":"11470 Gateway Blvd","City":"Los Angeles","State":"CA","Zip":"90064"},{"Location":"BODIES IN MOTION","Address":"12100 W Olympic Blvd","City":"Los Angeles","State":"CA","Zip":"90064"},{"Location":"BRENT AIR TOWING","Address":"2227 Federal Ave","City":"Los Angeles","State":"CA","Zip":"90064"},{"Location":"CALIFORNIA BANK & TRUST","Address":"11345 W Olympic Blvd","City":"Los Angeles","State":"CA","Zip":"90064"},{"Location":"CALIFORNIA MEXICAN","Address":"11106 W Olympic Blvd","City":"Los Angeles","State":"CA","Zip":"90064"},{"Location":"CELEBRITY  CLEAN","Address":"11675 National Blvd","City":"Los Angeles","State":"CA","Zip":"90064"},{"Location":"CHAPMAN GLUCKSMAN & DEAN","Address":"11900 W Olympic Blvd","City":"Los Angeles","State":"CA","Zip":"90064"},{"Location":"CHARLES CUSTOM FRAMING","Address":"10677 W Pico Blvd","City":"Los Angeles","State":"CA","Zip":"90064"},{"Location":"CHILI THAI","Address":"10889 W Pico Blvd","City":"Los Angeles","State":"CA","Zip":"90064"},{"Location":"COSTA DE ORO MEDIA LLC","Address":"2323 Corinth Ave","City":"Los Angeles","State":"CA","Zip":"90064"},{"Location":"DANMOUR AND ASSOC","Address":"11730 Gateway Blvd","City":"Los Angeles","State":"CA","Zip":"90064"},{"Location":"DR PATRICK H DILLON DDS","Address":"10505 W Pico Blvd","City":"Los Angeles","State":"CA","Zip":"90064"},{"Location":"EL SUPER TACO 2","Address":"11300 W Pico Blvd","City":"Los Angeles","State":"CA","Zip":"90064"},{"Location":"FANDANGO  INC","Address":"12200 W Olympic Blvd 400","City":"Los Angeles","State":"CA","Zip":"90064"},{"Location":"FIRE STATION NINTY TWO","Address":"10556 W Pico Blvd","City":"Los Angeles","State":"CA","Zip":"90064"},{"Location":"FORTUNE FINANCIAL INC","Address":"2566 Overland Ave 670","City":"Los Angeles","State":"CA","Zip":"90064"},{"Location":"FOX","Address":"10201 W Pico Blvd","City":"Los Angeles","State":"CA","Zip":"90064"},{"Location":"FOX - DAVID WERTHEIMER","Address":"10201 W Pico Blvd 100","City":"Los Angeles","State":"CA","Zip":"90064"},{"Location":"FOX - JOHN SOLBERG","Address":"10201 W Pico Blvd","City":"Los Angeles","State":"CA","Zip":"90064"},{"Location":"FOX - PAUL CATALANO","Address":"10201 W Pico Blvd","City":"Los Angeles","State":"CA","Zip":"90064"},{"Location":"FOX BROADCASTING CO.","Address":"10201 W Pico Blvd Blgd 100 4140","City":"Los Angeles","State":"CA","Zip":"90064"},{"Location":"FOX GROUP SECURITY","Address":"10201 W Pico Blvd 463","City":"Los Angeles","State":"CA","Zip":"90064"},{"Location":"FOX SEARCHLIGHT","Address":"10201 W Pico Blvd","City":"Los Angeles","State":"CA","Zip":"90064"},{"Location":"FOX SPORTS 1","Address":"10201 W Pico Blvd","City":"Los Angeles","State":"CA","Zip":"90064"},{"Location":"FOX SPORTS LIBRARY","Address":"10210 W Pico Blvd","City":"Los Angeles","State":"CA","Zip":"90064"},{"Location":"FOX SPORTS MEDIA GROUP","Address":"10201 W Pico Blvd","City":"Los Angeles","State":"CA","Zip":"90064"},{"Location":"FOX STUDIOS","Address":"10201 W Pico Blvd B99r5","City":"Los Angeles","State":"CA","Zip":"90064"},{"Location":"FRANCHSCO COLUMBU","Address":"2265 Westwood Blvd A","City":"Los Angeles","State":"CA","Zip":"90064"},{"Location":"FX NETWORKS","Address":"10201 W Pico Blvd","City":"Los Angeles","State":"CA","Zip":"90064"},{"Location":"GABES","Address":"2965 S Sepulveda Blvd","City":"Los Angeles","State":"CA","Zip":"90064"},{"Location":"GRACIE","Address":"10201 W Pico Blvd","City":"Los Angeles","State":"CA","Zip":"90064"},{"Location":"GREENGAGE PRODUCTIONS","Address":"10345 W Olympic Blvd","City":"Los Angeles","State":"CA","Zip":"90064"},{"Location":"GUANNI CHOCOLATES  N.A.","Address":"2329 Amherst Ave","City":"Los Angeles","State":"CA","Zip":"90064"},{"Location":"GULP","Address":"10928 W Pico Blvd","City":"Los Angeles","State":"CA","Zip":"90064"},{"Location":"HAAGEN COMPANY","Address":"12302 Exposition Blvd","City":"Los Angeles","State":"CA","Zip":"90064"},{"Location":"HAMAGAMI%2FCARROLL & ASSOCIATES","Address":"2256 Barry Ave","City":"Los Angeles","State":"CA","Zip":"90064"},{"Location":"HERBAL CARE","Address":"11318 W Pico Blvd","City":"Los Angeles","State":"CA","Zip":"90064"},{"Location":"HILL CREST COUNTRY CLUB #2","Address":"10000 W Pico Blvd","City":"Los Angeles","State":"CA","Zip":"90064"},{"Location":"HILLCREST COUNTRY CLUB","Address":"10000 W Pico Blvd","City":"Los Angeles","State":"CA","Zip":"90064"},{"Location":"HINOJOSA AND WALLET","Address":"2215 Colby Ave","City":"Los Angeles","State":"CA","Zip":"90064"},{"Location":"HONUA MUSIC","Address":"2376 Westwood Blvd Rear","City":"Los Angeles","State":"CA","Zip":"90064"},{"Location":"HUNTINGTON REPRODUCTIVE CENTER","Address":"11500 W Olympic Blvd 504","City":"Los Angeles","State":"CA","Zip":"90064"},{"Location":"IMAGING INTERNATIONAL","Address":"11271 National Blvd A","City":"Los Angeles","State":"CA","Zip":"90064"},{"Location":"INDEPENDENT FITNESS CONSULTANT","Address":"10542 W Pico Blvd","City":"Los Angeles","State":"CA","Zip":"90064"},{"Location":"ISLANDS RESTAURANT #001","Address":"10948 W Pico Blvd","City":"Los Angeles","State":"CA","Zip":"90064"},{"Location":"JOWON SUSHI","Address":"10839 National Blvd","City":"Los Angeles","State":"CA","Zip":"90064"},{"Location":"KIKU THERAPHY","Address":"10966 W Pico Blvd","City":"Los Angeles","State":"CA","Zip":"90064"},{"Location":"KILROY REALTY CORPORATION","Address":"12200 W Olympic Blvd St200","City":"Los Angeles","State":"CA","Zip":"90064"},{"Location":"KOI DESIGNS","Address":"2577 S Bundy Dr","City":"Los Angeles","State":"CA","Zip":"90064"},{"Location":"LA TALPA RESTAURANT","Address":"11751 W Pico Blvd","City":"Los Angeles","State":"CA","Zip":"90064"},{"Location":"LANDMARK THEATERS","Address":"2222 S Barrington Ave","City":"Los Angeles","State":"CA","Zip":"90064"},{"Location":"LOLLICUP","Address":"2206 Sawtelle Blvd","City":"Los Angeles","State":"CA","Zip":"90064"},{"Location":"LORI FORTE PROD","Address":"10201 W Pico Blvd 76","City":"Los Angeles","State":"CA","Zip":"90064"},{"Location":"LUCCA WEST PICO","Address":"11614 W Pico Blvd","City":"Los Angeles","State":"CA","Zip":"90064"},{"Location":"MACY'S WEST 515","Address":"10730 W Pico Blvd","City":"Los Angeles","State":"CA","Zip":"90064"},{"Location":"MACY'S WEST 515A BR","Address":"10730 W Pico Blvd","City":"Los Angeles","State":"CA","Zip":"90064"},{"Location":"MACY'S WEST 515B BR","Address":"10730 W Pico Blvd","City":"Los Angeles","State":"CA","Zip":"90064"},{"Location":"MACY'S WEST 521","Address":"10800 W Pico Blvd","City":"Los Angeles","State":"CA","Zip":"90064"},{"Location":"MARGARITAS BEAUTY SALON","Address":"2403 Sawtelle Blvd","City":"Los Angeles","State":"CA","Zip":"90064"},{"Location":"MARIA ITALIAN KITCHEN","Address":"10761 W Pico Blvd","City":"Los Angeles","State":"CA","Zip":"90064"},{"Location":"MARIE CALLENDERS","Address":"11324 National Blvd","City":"Los Angeles","State":"CA","Zip":"90064"},{"Location":"MATTEO'S RESTAURANT","Address":"2323 Westwood Blvd","City":"Los Angeles","State":"CA","Zip":"90064"},{"Location":"MELEVISION","Address":"2345 Westwood Blvd 7","City":"Los Angeles","State":"CA","Zip":"90064"},{"Location":"MIRACLE MILE ADVISORS LLC","Address":"11300 W Olympic Blvd 800","City":"Los Angeles","State":"CA","Zip":"90064"},{"Location":"MJZ","Address":"2201 S Carmelina Ave","City":"Los Angeles","State":"CA","Zip":"90064"},{"Location":"MULLIN ENTERPRISES","Address":"2242 Purdue Ave","City":"Los Angeles","State":"CA","Zip":"90064"},{"Location":"NEW REGENCY PRODUCTION","Address":"10201 W Pico Blvd","City":"Los Angeles","State":"CA","Zip":"90064"},{"Location":"NORDSTROM","Address":"10830 W Pico Blvd","City":"Los Angeles","State":"CA","Zip":"90064"},{"Location":"NTROPIC","Address":"2332 S Centinela Ave","City":"Los Angeles","State":"CA","Zip":"90064"},{"Location":"OAKWOOD INTERNATIONAL","Address":"2222 Corinth Ave","City":"Los Angeles","State":"CA","Zip":"90064"},{"Location":"OF ONE MIND LLC 1","Address":"2253 Linnington Ave","City":"Los Angeles","State":"CA","Zip":"90064"},{"Location":"PLAN B","Address":"11637 W Pico Blvd","City":"Los Angeles","State":"CA","Zip":"90064"},{"Location":"POOCH HOTEL #5904","Address":"2250 S Barrington Ave","City":"Los Angeles","State":"CA","Zip":"90064"},{"Location":"POUND FOR POUND","Address":"10867 W Pico Blvd","City":"Los Angeles","State":"CA","Zip":"90064"},{"Location":"RANCHO GOLF RESTAURANT","Address":"10460 W Pico Blvd","City":"Los Angeles","State":"CA","Zip":"90064"},{"Location":"RENEGADE FLOORING","Address":"2999 Overland Ave 111","City":"Los Angeles","State":"CA","Zip":"90064"},{"Location":"ROLLS ROYCE BEVERLY HILLS","Address":"11401 W Pico Blvd","City":"Los Angeles","State":"CA","Zip":"90064"},{"Location":"ROYAL WAY","Address":"11801 W Pico Blvd","City":"Los Angeles","State":"CA","Zip":"90064"},{"Location":"RY BREAD INC","Address":"11520 W Pico Blvd","City":"Los Angeles","State":"CA","Zip":"90064"},{"Location":"SAN FRANCISCO SALOON","Address":"11501 W Pico Blvd","City":"Los Angeles","State":"CA","Zip":"90064"},{"Location":"SAVINGS.COM","Address":"2225 S Carmelina Ave","City":"Los Angeles","State":"CA","Zip":"90064"},{"Location":"SAWTELLE DENTAL OFFICE","Address":"2914 Sawtelle Blvd","City":"Los Angeles","State":"CA","Zip":"90064"},{"Location":"SEAFOOD BUFFET","Address":"10850 W Pico Blvd","City":"Los Angeles","State":"CA","Zip":"90064"},{"Location":"SIRENS & TITANS FITNESS","Address":"2311 Westwood Blvd","City":"Los Angeles","State":"CA","Zip":"90064"},{"Location":"SMC INC","Address":"2265 Westwood Blvd 11","City":"Los Angeles","State":"CA","Zip":"90064"},{"Location":"SPANISH BROADCASTING SYSTEM","Address":"10281 W Pico Blvd","City":"Los Angeles","State":"CA","Zip":"90064"},{"Location":"SPARKLING COIN LAUNDRY","Address":"11927 W Pico Blvd","City":"Los Angeles","State":"CA","Zip":"90064"},{"Location":"STEINGARTEN","Address":"10543 W Pico Blvd","City":"Los Angeles","State":"CA","Zip":"90064"},{"Location":"SUNNY TELEVISION PROD.","Address":"10201 W Pico Blvd 233","City":"Los Angeles","State":"CA","Zip":"90064"},{"Location":"SUPERKIDS","Address":"2347 Pontius Ave","City":"Los Angeles","State":"CA","Zip":"90064"},{"Location":"TACOS POR FAVOR II","Address":"11901 W Olypic Blvd","City":"Los Angeles","State":"CA","Zip":"90064"},{"Location":"TEDDYS CAFE","Address":"12043 W Pico Blvd","City":"Los Angeles","State":"CA","Zip":"90064"},{"Location":"THE ARSENAL BAR","Address":"12012 W Pico Blvd","City":"Los Angeles","State":"CA","Zip":"90064"},{"Location":"THE LANDMARK  WEST","Address":"10850 W Pico Blvd 520","City":"Los Angeles","State":"CA","Zip":"90064"},{"Location":"THE LOST AND FOUND","Address":"11700 National Blvd D","City":"Los Angeles","State":"CA","Zip":"90064"},{"Location":"TODD PIPE AND SUPPLY2","Address":"2311 Purdue Ave","City":"Los Angeles","State":"CA","Zip":"90064"},{"Location":"TRADE-IN SOLUTIONS","Address":"11500 W Olympic Blvd 400","City":"Los Angeles","State":"CA","Zip":"90064"},{"Location":"UNION EDITORIAL LLC","Address":"12200 W Olympic Blvd 140","City":"Los Angeles","State":"CA","Zip":"90064"},{"Location":"URBAN GOLF PERFORMANCE","Address":"2240 S Sepulveda Blvd","City":"Los Angeles","State":"CA","Zip":"90064"},{"Location":"VCA","Address":"12100 W Olympic Blvd 470","City":"Los Angeles","State":"CA","Zip":"90064"},{"Location":"VCA ANTECH","Address":"12401 W Olympic Blvd","City":"Los Angeles","State":"CA","Zip":"90064"},{"Location":"VICKIS LUNCHBOX","Address":"10500 W Pico Blvd","City":"Los Angeles","State":"CA","Zip":"90064"},{"Location":"WELLS FARGO BANK","Address":"10789 W Pico Blvd","City":"Los Angeles","State":"CA","Zip":"90064"},{"Location":"WEST COAST TIRE CORP","Address":"2239 Pontius Ave","City":"Los Angeles","State":"CA","Zip":"90064"},{"Location":"WEST LA CAR WASH AND DEL","Address":"11350 W Olympic Blvd","City":"Los Angeles","State":"CA","Zip":"90064"},{"Location":"WESTSIDE DOOR AND MOLDING","Address":"2323 S Sepulveda Blvd","City":"Los Angeles","State":"CA","Zip":"90064"},{"Location":"WESTSIDE PAVILION MALL","Address":"10800 W Pico Blvd 312","City":"Los Angeles","State":"CA","Zip":"90064"},{"Location":"WESTSIDE TAVERN","Address":"10850 W Pico Blvd M8","City":"Los Angeles","State":"CA","Zip":"90064"},{"Location":"WIRELESS CAPITAL PARTNERS LLC","Address":"11900 W Olympic Blvd 400","City":"Los Angeles","State":"CA","Zip":"90064"},{"Location":"YABU RESTAURANT","Address":"11820 W Pico Blvd","City":"Los Angeles","State":"CA","Zip":"90064"},{"Location":"YINGHUA","Address":"2310 Cotner Ave","City":"Los Angeles","State":"CA","Zip":"90064"}]