[{"Location":"9 0 WEST","Address":"12740 Culver Blvd H","City":"Los Angeles","State":"CA","Zip":"90066"},{"Location":"A COMMON THREAD","Address":"4081 Redwood Ave","City":"Los Angeles","State":"CA","Zip":"90066"},{"Location":"A LA CARTE THAI BISTRO","Address":"12404 W Washington Blvd","City":"Los Angeles","State":"CA","Zip":"90066"},{"Location":"ACTIVISION PUBLISHING INC","Address":"12540 Beatrice St","City":"Los Angeles","State":"CA","Zip":"90066"},{"Location":"AEG DIGITAL MEDIA","Address":"12950 Culver Blvd 200","City":"Los Angeles","State":"CA","Zip":"90066"},{"Location":"ALBINO CONSTRUCTION","Address":"12568 W Washington Blvd","City":"Los Angeles","State":"CA","Zip":"90066"},{"Location":"ANGELS GLASS AND MIRRORS","Address":"4567 S Centinela Ave","City":"Los Angeles","State":"CA","Zip":"90066"},{"Location":"ARUP","Address":"12777 W Jefferson Blvd 200","City":"Los Angeles","State":"CA","Zip":"90066"},{"Location":"BANDANA FEVER","Address":"12777 W Jefferson Blvd","City":"Los Angeles","State":"CA","Zip":"90066"},{"Location":"BARONET CLEANERS &LAUNDR","Address":"12831 W Washington Blvd","City":"Los Angeles","State":"CA","Zip":"90066"},{"Location":"CAFE BRASIL  #1","Address":"11736 W Washington Blvd","City":"Los Angeles","State":"CA","Zip":"90066"},{"Location":"CASHMERE AGENCY","Address":"12530 Beatrice St","City":"Los Angeles","State":"CA","Zip":"90066"},{"Location":"CENTRAL PRODUCTIONS","Address":"12910 Culver Blvd A","City":"Los Angeles","State":"CA","Zip":"90066"},{"Location":"CINEMARK PLAYA VISTA","Address":"12746 W Jefferson Blvd","City":"Los Angeles","State":"CA","Zip":"90066"},{"Location":"CLASSIC SPEEDWASH","Address":"12822 W Washington Blvd","City":"Los Angeles","State":"CA","Zip":"90066"},{"Location":"DEUTSCH LA INC","Address":"5454 Beethoven St","City":"Los Angeles","State":"CA","Zip":"90066"},{"Location":"DR ROZENBERG CHIROPRACTORS INC","Address":"12568 W Washington Blvd 202","City":"Los Angeles","State":"CA","Zip":"90066"},{"Location":"E OFFICES","Address":"13101 W Washington Blvd","City":"Los Angeles","State":"CA","Zip":"90066"},{"Location":"EL CHUYS RESTAURANT","Address":"11707 Washington Pl","City":"Los Angeles","State":"CA","Zip":"90066"},{"Location":"EL SASON OAXAQUENO","Address":"12131 Washington Pl A","City":"Los Angeles","State":"CA","Zip":"90066"},{"Location":"EVOLUTION 180","Address":"12811 Coral Tree Pl","City":"Los Angeles","State":"CA","Zip":"90066"},{"Location":"EXPONENT INC","Address":"5401 Mcconnell Ave","City":"Los Angeles","State":"CA","Zip":"90066"},{"Location":"FAR EAST AMERICAN","Address":"5410 Mcconnell Ave","City":"Los Angeles","State":"CA","Zip":"90066"},{"Location":"FRATERNAL ORDER OF EAGLES AERI","Address":"13018 W Washington Blvd","City":"Los Angeles","State":"CA","Zip":"90066"},{"Location":"FRESH IN THE BOT","Address":"13354 W Washington Blvd Rear","City":"Los Angeles","State":"CA","Zip":"90066"},{"Location":"GAME FLY","Address":"5340 Alla Rd","City":"Los Angeles","State":"CA","Zip":"90066"},{"Location":"GCH INC 2","Address":"3865 Grand View Blvd","City":"Los Angeles","State":"CA","Zip":"90066"},{"Location":"GRAND VIEW MARKET","Address":"12210 Venice Blvd","City":"Los Angeles","State":"CA","Zip":"90066"},{"Location":"GRAVLAX","Address":"12400 W Washington Blvd","City":"Los Angeles","State":"CA","Zip":"90066"},{"Location":"HANDY J CAR WASH","Address":"12681 W Washington Blvd","City":"Los Angeles","State":"CA","Zip":"90066"},{"Location":"HARRY BAIL BONDS FRADKIN","Address":"4568 S Centinela Ave","City":"Los Angeles","State":"CA","Zip":"90066"},{"Location":"IGNITION CREATIVE","Address":"12959 Coral Tree Pl","City":"Los Angeles","State":"CA","Zip":"90066"},{"Location":"INVESTORS BUSINESS DAILY","Address":"12655 Beatrice St","City":"Los Angeles","State":"CA","Zip":"90066"},{"Location":"IRIANAS BEAUTY SALON","Address":"11616 Culver Blvd","City":"Los Angeles","State":"CA","Zip":"90066"},{"Location":"JOHNNIES AUTOBODY","Address":"12231 W Washington Blvd","City":"Los Angeles","State":"CA","Zip":"90066"},{"Location":"KASTNER AND PARTNERS INC","Address":"5340 Alla Rd 110","City":"Los Angeles","State":"CA","Zip":"90066"},{"Location":"KETCHUM","Address":"12555 W Jefferson Blvd 250","City":"Los Angeles","State":"CA","Zip":"90066"},{"Location":"LF SPORTSWEAR 1","Address":"5333 Mcconnell Ave","City":"Los Angeles","State":"CA","Zip":"90066"},{"Location":"LIVING REBOS LLC","Address":"3858 Keeshen Dr","City":"Los Angeles","State":"CA","Zip":"90066"},{"Location":"LOAD DELIVERED LOGISTICS","Address":"12950 Culver Blvd 150","City":"Los Angeles","State":"CA","Zip":"90066"},{"Location":"LOGAN MEDIA","Address":"4221 Redwood Ave","City":"Los Angeles","State":"CA","Zip":"90066"},{"Location":"LOUIES OF MAR VISTA","Address":"3817 Grand View Blvd","City":"Los Angeles","State":"CA","Zip":"90066"},{"Location":"MARINA PLAZA DENTAL","Address":"12740 Culver Blvd","City":"Los Angeles","State":"CA","Zip":"90066"},{"Location":"MEDIA ARTS LAB","Address":"12539 Beatrice St","City":"Los Angeles","State":"CA","Zip":"90066"},{"Location":"MONTANARY","Address":"3519 S Centinela Ave","City":"Los Angeles","State":"CA","Zip":"90066"},{"Location":"MOTION THEORY INC","Address":"4235 Redwood Ave","City":"Los Angeles","State":"CA","Zip":"90066"},{"Location":"NEW DIRECTIONS INC","Address":"3741 S Barrington Ave","City":"Los Angeles","State":"CA","Zip":"90066"},{"Location":"NEW DIRECTIONS INC MITCH","Address":"12536 Mitchell Ave","City":"Los Angeles","State":"CA","Zip":"90066"},{"Location":"O NEIL DATA SYSTEMS","Address":"12655 Beatrice St","City":"Los Angeles","State":"CA","Zip":"90066"},{"Location":"OCEAN VIEW MEDICAL SPECIALIST","Address":"11961 Venice Blvd","City":"Los Angeles","State":"CA","Zip":"90066"},{"Location":"OMD USA","Address":"12555 W Jefferson Blvd","City":"Los Angeles","State":"CA","Zip":"90066"},{"Location":"OMD USA LLC ALAN COHENS OFC","Address":"5353 Grosvenor Blvd","City":"Los Angeles","State":"CA","Zip":"90066"},{"Location":"PACOS TACOS INC","Address":"4141 S Centinela Ave","City":"Los Angeles","State":"CA","Zip":"90066"},{"Location":"PANTHEON RESEARCH INC","Address":"4071 Tivoli Ave","City":"Los Angeles","State":"CA","Zip":"90066"},{"Location":"PORTER NOVELLI","Address":"5353 Grosvenor Blvd","City":"Los Angeles","State":"CA","Zip":"90066"},{"Location":"PRECISION TECH","Address":"13368 W Washington Blvd","City":"Los Angeles","State":"CA","Zip":"90066"},{"Location":"PROMISES FOUNDATION","Address":"4419 Inglewood Blvd","City":"Los Angeles","State":"CA","Zip":"90066"},{"Location":"PROMO SHOP INC","Address":"5420 Mcconnell Ave","City":"Los Angeles","State":"CA","Zip":"90066"},{"Location":"REGUS","Address":"12777 W Jefferson Blvd 300","City":"Los Angeles","State":"CA","Zip":"90066"},{"Location":"RGA MEDIA GROUP","Address":"12777 W Jefferson Blvd","City":"Los Angeles","State":"CA","Zip":"90066"},{"Location":"RICKY ONOFREVASQUEZ MD","Address":"12099 W Washington Blvd 202","City":"Los Angeles","State":"CA","Zip":"90066"},{"Location":"ROMAN HOLIDAY HEALTH CLUB","Address":"12814 Venice Blvd","City":"Los Angeles","State":"CA","Zip":"90066"},{"Location":"SAKURA HOUSE","Address":"13362 W Washington Blvd","City":"Los Angeles","State":"CA","Zip":"90066"},{"Location":"SAKURA JAPANESE RESTAURANT","Address":"4545 S Centinela Ave","City":"Los Angeles","State":"CA","Zip":"90066"},{"Location":"SAMYS CAMERA","Address":"12636 Beatrice St","City":"Los Angeles","State":"CA","Zip":"90066"},{"Location":"SANA MEDICAL GROUP","Address":"12099 W Washington Blvd 400","City":"Los Angeles","State":"CA","Zip":"90066"},{"Location":"SIAM CHAN RESTAURANT","Address":"12470 Venice Blvd","City":"Los Angeles","State":"CA","Zip":"90066"},{"Location":"SUNNY  GRILL","Address":"12035 Venice Blvd","City":"Los Angeles","State":"CA","Zip":"90066"},{"Location":"SUPERIOR MEDICAL CLINIC","Address":"11600 Venice Blvd","City":"Los Angeles","State":"CA","Zip":"90066"},{"Location":"SYLVANS PHILLIP","Address":"12623 W Washinton","City":"Los Angeles","State":"CA","Zip":"90066"},{"Location":"TBWA CHIAT DAY #1","Address":"5353 Grosvenor Blvd","City":"Los Angeles","State":"CA","Zip":"90066"},{"Location":"TEETER","Address":"5301 Beethoven St Suite","City":"Los Angeles","State":"CA","Zip":"90066"},{"Location":"THE CORNER DOOR","Address":"12477 W Washington Blvd","City":"Los Angeles","State":"CA","Zip":"90066"},{"Location":"THE INCITE GROUP","Address":"12615 Beatrice St","City":"Los Angeles","State":"CA","Zip":"90066"},{"Location":"TIRE KINGDOM M-1118","Address":"13021 W Washington Blvd","City":"Los Angeles","State":"CA","Zip":"90066"},{"Location":"VENICE CHURCH","Address":"2241 Walgrove Ave","City":"Los Angeles","State":"CA","Zip":"90066"},{"Location":"VERIZON MARINA MTSO","Address":"5549 Westlawn Ave","City":"Los Angeles","State":"CA","Zip":"90066"},{"Location":"WATERLOO & CITY","Address":"12517 W Washington Blvd","City":"Los Angeles","State":"CA","Zip":"90066"},{"Location":"WILLIAM O'NEIL & CO #1","Address":"12655 Beatrice St","City":"Los Angeles","State":"CA","Zip":"90066"},{"Location":"WILLIAM O'NEIL & CO #2","Address":"12655 Beatrice St","City":"Los Angeles","State":"CA","Zip":"90066"},{"Location":"WILLIAM ONEIL & COMP 3","Address":"12655 Beatrice St","City":"Los Angeles","State":"CA","Zip":"90066"},{"Location":"XYZ  GRAPHICS","Address":"4077 Redwood Ave","City":"Los Angeles","State":"CA","Zip":"90066"}]