[{"Location":"BARNEY'S BEANERY","Address":"8447 Santa Monica Blvd","City":"Los Angeles","State":"CA","Zip":"90069"},{"Location":"CABO CANTINA","Address":"8301 W Sunset Blvd","City":"Los Angeles","State":"CA","Zip":"90069"},{"Location":"CEDARS SINAI MEDICAL","Address":"825 N San Vencente 327","City":"Los Angeles","State":"CA","Zip":"90069"},{"Location":"CSE TRAINING 2","Address":"1605 Viewmont Dr","City":"Los Angeles","State":"CA","Zip":"90069"},{"Location":"E.M.O.H. LLC","Address":"8222 Marmont Ln","City":"Los Angeles","State":"CA","Zip":"90069"},{"Location":"HAYA ONE LLC","Address":"9344 Nightingale Dr","City":"Los Angeles","State":"CA","Zip":"90069"},{"Location":"HERACLEAN HOLDINGS LLC","Address":"1423 Tanager Way","City":"Los Angeles","State":"CA","Zip":"90069"},{"Location":"JZ&A FINANCE","Address":"8930 St Ives Dr","City":"Los Angeles","State":"CA","Zip":"90069"},{"Location":"KRISTEN BUCKINGHAM","Address":"912 N La Cienega Blvd","City":"Los Angeles","State":"CA","Zip":"90069"},{"Location":"LION QUEEN LLC","Address":"9243 Cordell Dr","City":"Los Angeles","State":"CA","Zip":"90069"},{"Location":"LITCHFIELD ENTERTAINMENT","Address":"9220 W Sunset Blvd 220","City":"Los Angeles","State":"CA","Zip":"90069"},{"Location":"MANZAR LLC","Address":"1429 Devlin Dr","City":"Los Angeles","State":"CA","Zip":"90069"},{"Location":"RIDGEDALE VENTURES LLC","Address":"1232 Sunset Plaza Dr","City":"Los Angeles","State":"CA","Zip":"90069"},{"Location":"SADDLE RANCH CHOP HOUSE","Address":"8371 W Sunset Blvd","City":"Los Angeles","State":"CA","Zip":"90069"},{"Location":"SHAGARA LLC","Address":"8828 Thrasher Ave","City":"Los Angeles","State":"CA","Zip":"90069"},{"Location":"SUNSET 8335","Address":"8335 W Sunset Blvd 100","City":"Los Angeles","State":"CA","Zip":"90069"},{"Location":"SUNSET SURGERY","Address":"9201 W Sunset Blvd 805","City":"Los Angeles","State":"CA","Zip":"90069"},{"Location":"TALA TWO LLC","Address":"1871 Marcheeta Pl","City":"Los Angeles","State":"CA","Zip":"90069"},{"Location":"TK SILVERMONT LLC","Address":"1501 Viewsite Ter","City":"Los Angeles","State":"CA","Zip":"90069"},{"Location":"WEBER SHANDWICK","Address":"8687 Melrose Ave 700","City":"Los Angeles","State":"CA","Zip":"90069"},{"Location":"WEHO BLISS GC LCC","Address":"1877 Rising Glen Rd","City":"Los Angeles","State":"CA","Zip":"90069"},{"Location":"WORKSHOP CREATIVE","Address":"9006 Melrose Ave","City":"Los Angeles","State":"CA","Zip":"90069"},{"Location":"SMOKEYARD","Address":"1111 Forrest Tr #201","City":"Mammoth","State":"CA","Zip":"90069"},{"Location":"12TH STREET LIMITED","Address":"9000 W Sunset Blvd 950","City":"West Hollywood","State":"CA","Zip":"90069"},{"Location":"19 ENTERTAINMENT INC","Address":"8560 W Sunset Blvd 9flr","City":"West Hollywood","State":"CA","Zip":"90069"},{"Location":"19 ENTERTAINMENT INC #2","Address":"8560 W Sunset Blvd Fl9","City":"West Hollywood","State":"CA","Zip":"90069"},{"Location":"2 DEGREES VENTURES","Address":"9200 W Sunset Blvd","City":"West Hollywood","State":"CA","Zip":"90069"},{"Location":"24 HOUR FITNESS #184","Address":"8612 Santa Monica Blvd","City":"West Hollywood","State":"CA","Zip":"90069"},{"Location":"8909 SUNSET  DBA PEARLS","Address":"8909 W Sunset Blvd","City":"West Hollywood","State":"CA","Zip":"90069"},{"Location":"ABRAMS ARTIST AGENCY","Address":"9200 W Sunset Blvd 11th","City":"West Hollywood","State":"CA","Zip":"90069"},{"Location":"AGO RISTORANTE","Address":"8478 Melrose Ave","City":"West Hollywood","State":"CA","Zip":"90069"},{"Location":"ALAN SIEGEL ENTERTAINMENT","Address":"9200 W Sunset Blvd 407","City":"West Hollywood","State":"CA","Zip":"90069"},{"Location":"AQUA LLC","Address":"9000 W Sunset Blvd 700","City":"West Hollywood","State":"CA","Zip":"90069"},{"Location":"ARTS AND SCIENCES","Address":"827 Hilldale Ave","City":"West Hollywood","State":"CA","Zip":"90069"},{"Location":"BACK2HEALTH","Address":"9201 W Sunset Blvd M120","City":"West Hollywood","State":"CA","Zip":"90069"},{"Location":"BEVERLY CREST DEVELOPMENT","Address":"9125 W Sunset Blvd","City":"West Hollywood","State":"CA","Zip":"90069"},{"Location":"BEVERLY HILLS SUNSET SUR","Address":"9201 W Sunset Blvd 202","City":"West Hollywood","State":"CA","Zip":"90069"},{"Location":"BIG MAMAS & PAPAS PIZZA","Address":"8424 Santa Monica Blvd D","City":"West Hollywood","State":"CA","Zip":"90069"},{"Location":"BLEDIN","Address":"9201 W Sunset Blvd M150","City":"West Hollywood","State":"CA","Zip":"90069"},{"Location":"BOA STEAKHOUSE","Address":"9200 W Sunset Blvd 650","City":"West Hollywood","State":"CA","Zip":"90069"},{"Location":"BRAGMAN NYMAN CAFARELLI # 3","Address":"700 N San Vicente Blvd 8","City":"West Hollywood","State":"CA","Zip":"90069"},{"Location":"BRAGMAN NYMAN CAFARELLI #1","Address":"700 N San Vicente Blvd 8fl","City":"West Hollywood","State":"CA","Zip":"90069"},{"Location":"BRAGMAN NYMAN CAFARELLI #2","Address":"700 N San Vicente Blvd","City":"West Hollywood","State":"CA","Zip":"90069"},{"Location":"BRIAN S UNGER MD INC","Address":"9201 W Sunset Blvd M155","City":"West Hollywood","State":"CA","Zip":"90069"},{"Location":"BURGER LOUNGE III LLC","Address":"8539 W Sunset Blvd 1","City":"West Hollywood","State":"CA","Zip":"90069"},{"Location":"CAFE D'ETOILE","Address":"8941 1%2F2 Santa Monica Blvd","City":"West Hollywood","State":"CA","Zip":"90069"},{"Location":"CAFE LA BOHEME","Address":"8400 Santa Monica Blvd","City":"West Hollywood","State":"CA","Zip":"90069"},{"Location":"CASTLE ROCK PARTNERS LLC","Address":"9169 W Sunset Blvd","City":"West Hollywood","State":"CA","Zip":"90069"},{"Location":"CECCONI'S","Address":"8764 Melrose Ave","City":"West Hollywood","State":"CA","Zip":"90069"},{"Location":"CITRUS","Address":"9000 W Sunset Blvd 101","City":"West Hollywood","State":"CA","Zip":"90069"},{"Location":"CITY GRID MEDIA","Address":"8833 W Sunset Blvd","City":"West Hollywood","State":"CA","Zip":"90069"},{"Location":"CKC HOLDINGS","Address":"8360 Melrose Ave","City":"West Hollywood","State":"CA","Zip":"90069"},{"Location":"CLASS ACT PHYSIQUE","Address":"624 N La Cienega Blvd","City":"West Hollywood","State":"CA","Zip":"90069"},{"Location":"COMERICA BANK","Address":"9200 W Sunset Blvd 150","City":"West Hollywood","State":"CA","Zip":"90069"},{"Location":"CPEHR INC","Address":"9000 W Sunset Blvd 900","City":"West Hollywood","State":"CA","Zip":"90069"},{"Location":"CRAIGS","Address":"8826 Melrose Ave","City":"West Hollywood","State":"CA","Zip":"90069"},{"Location":"CREATIVE PROPERTY GROUP","Address":"9000 W Sunset Blvd 1520","City":"West Hollywood","State":"CA","Zip":"90069"},{"Location":"DAN TANA'S RESTAURANT","Address":"9071 Santa Monica Blvd","City":"West Hollywood","State":"CA","Zip":"90069"},{"Location":"DAVID SALEHANI DDS MD","Address":"9201 W Sunset Blvd 502","City":"West Hollywood","State":"CA","Zip":"90069"},{"Location":"DRAGON GLOBAL MANAGEMENT","Address":"9200 W Sunset Blvd 1201","City":"West Hollywood","State":"CA","Zip":"90069"},{"Location":"DUSHANE DENTAL","Address":"9201 W Sunset Blvd 416","City":"West Hollywood","State":"CA","Zip":"90069"},{"Location":"EARTH BAR","Address":"8365 Santa Monica Blvd","City":"West Hollywood","State":"CA","Zip":"90069"},{"Location":"EDDIES BARBER SHOP","Address":"8704 Santa Monica Blvd Fl1","City":"West Hollywood","State":"CA","Zip":"90069"},{"Location":"EMPIRE AT KINGS ROAD GYM","Address":"1232a N Kings Rd Gym","City":"West Hollywood","State":"CA","Zip":"90069"},{"Location":"EQUINOX FITNESS","Address":"8590 W Sunset Blvd","City":"West Hollywood","State":"CA","Zip":"90069"},{"Location":"EQUINOX WEST HOLLYWOOD 2","Address":"8590 W Sunset Blvd","City":"West Hollywood","State":"CA","Zip":"90069"},{"Location":"FASHION NAILS","Address":"8733 Santa Monica Blvd","City":"West Hollywood","State":"CA","Zip":"90069"},{"Location":"FATTYS PUBLIC HOUSE","Address":"829 N La Cienega Blvd","City":"West Hollywood","State":"CA","Zip":"90069"},{"Location":"FIESTA CANTINA","Address":"8865 Santa Monica Blvd","City":"West Hollywood","State":"CA","Zip":"90069"},{"Location":"FILM FINANCES INC","Address":"9000 W Sunset Blvd","City":"West Hollywood","State":"CA","Zip":"90069"},{"Location":"FLOYD ASSOCIATES","Address":"634b N Robertson Blvd","City":"West Hollywood","State":"CA","Zip":"90069"},{"Location":"FUDDRUCKERS #3412","Address":"8520 Santa Monica Blvd","City":"West Hollywood","State":"CA","Zip":"90069"},{"Location":"FUNCTION PHYSICAL THERAPY","Address":"9201 W Sunset Blvd M140","City":"West Hollywood","State":"CA","Zip":"90069"},{"Location":"GABY'S CONEY DOG","Address":"8873 W Sunset Blvd","City":"West Hollywood","State":"CA","Zip":"90069"},{"Location":"GAINES MOTOR COACHES LLC","Address":"9000 W Sunset Blvd","City":"West Hollywood","State":"CA","Zip":"90069"},{"Location":"GJI","Address":"8653 W Sunset Blvd","City":"West Hollywood","State":"CA","Zip":"90069"},{"Location":"GOLDEN ROAD FOOD SERVICE","Address":"8613 Santa Monica Blvd","City":"West Hollywood","State":"CA","Zip":"90069"},{"Location":"GRACE ENTERTAINMENT MARKETING","Address":"9044 Melrose Ave","City":"West Hollywood","State":"CA","Zip":"90069"},{"Location":"GRAFTON ON SUNSET%2FBAR 20","Address":"8462 W Sunset Blvd","City":"West Hollywood","State":"CA","Zip":"90069"},{"Location":"GYMS SPORTS BAR","Address":"8737 Santa Monica Blvd","City":"West Hollywood","State":"CA","Zip":"90069"},{"Location":"HEALTH THERAPY DETOX SPA","Address":"980 N La Cienega Blvd 101","City":"West Hollywood","State":"CA","Zip":"90069"},{"Location":"HERE LOUNGE","Address":"696 N Robertson Blvd","City":"West Hollywood","State":"CA","Zip":"90069"},{"Location":"HOLMBERG JAGUAR","Address":"9176 W Sunset Blvd","City":"West Hollywood","State":"CA","Zip":"90069"},{"Location":"ISLE OF SERENITY NAIL SPA","Address":"8929 Santa Monica Blvd","City":"West Hollywood","State":"CA","Zip":"90069"},{"Location":"JEDROOT LA INC.","Address":"9220 W Sunset Blvd 315","City":"West Hollywood","State":"CA","Zip":"90069"},{"Location":"JEFF SKOLL GROUP","Address":"9220 W Sunset Blvd 306","City":"West Hollywood","State":"CA","Zip":"90069"},{"Location":"JEFFREY KARA SALON","Address":"8590 W Sunset Blvd 11","City":"West Hollywood","State":"CA","Zip":"90069"},{"Location":"JOHN CHAVES DDS","Address":"9201 W Sunset Blvd 609","City":"West Hollywood","State":"CA","Zip":"90069"},{"Location":"JUNE STREET ARCHITECTURE","Address":"8730 Santa Monica Blvd H","City":"West Hollywood","State":"CA","Zip":"90069"},{"Location":"KATANA","Address":"8439 W Sunset Blvd","City":"West Hollywood","State":"CA","Zip":"90069"},{"Location":"KITCHEN 24 LLC","Address":"8575 Santa Monica Blvd","City":"West Hollywood","State":"CA","Zip":"90069"},{"Location":"KOI RESTAURANT","Address":"730 N La Cienega Blvd","City":"West Hollywood","State":"CA","Zip":"90069"},{"Location":"L & E PRODUCTIONS","Address":"723 1%2F2 N La Cienega Blvd","City":"West Hollywood","State":"CA","Zip":"90069"},{"Location":"LA COUNTY FIRE STATION 7","Address":"864 N San Vicente Blvd","City":"West Hollywood","State":"CA","Zip":"90069"},{"Location":"LA POLT LAW PC","Address":"9000 W Sunset Blvd 800","City":"West Hollywood","State":"CA","Zip":"90069"},{"Location":"LAW OFFICES OF BRIAN D WITZER","Address":"8752 Holloway Dr","City":"West Hollywood","State":"CA","Zip":"90069"},{"Location":"LAW OFFICES OF JAMES BLATT","Address":"9000 W Sunset Blvd","City":"West Hollywood","State":"CA","Zip":"90069"},{"Location":"LONDON WEST HOLLYWOOD(0035100)","Address":"1020 N San Vicente Blvd","City":"West Hollywood","State":"CA","Zip":"90069"},{"Location":"MANI BROTHERS","Address":"9201 W Sunset Blvd","City":"West Hollywood","State":"CA","Zip":"90069"},{"Location":"MANI BROTHERS","Address":"9200 W Sunset Blvd","City":"West Hollywood","State":"CA","Zip":"90069"},{"Location":"MANI BROTHERS","Address":"9200 W Sunset Blvd 555","City":"West Hollywood","State":"CA","Zip":"90069"},{"Location":"MARI VANNA LA","Address":"8475 Melrose Pl","City":"West Hollywood","State":"CA","Zip":"90069"},{"Location":"MARINAS ALTERATIONS","Address":"8344 Melrose Ave 18","City":"West Hollywood","State":"CA","Zip":"90069"},{"Location":"MARS THE WORLD CO LTB","Address":"606 Westmount Dr","City":"West Hollywood","State":"CA","Zip":"90069"},{"Location":"MEDIA TALENT GROUP","Address":"9200 W Sunset Blvd 550","City":"West Hollywood","State":"CA","Zip":"90069"},{"Location":"MELS DRIVE-IN","Address":"8585 W Sunset Blvd","City":"West Hollywood","State":"CA","Zip":"90069"},{"Location":"MICKYS","Address":"8857 Santa Monica Blvd","City":"West Hollywood","State":"CA","Zip":"90069"},{"Location":"MONDRIAN","Address":"8440 W Sunset Blvd","City":"West Hollywood","State":"CA","Zip":"90069"},{"Location":"MOSAIC MEDIA GROUP","Address":"9200 W Sunset Blvd 330","City":"West Hollywood","State":"CA","Zip":"90069"},{"Location":"MTA","Address":"8800 Santa Monica Blvd","City":"West Hollywood","State":"CA","Zip":"90069"},{"Location":"NAILS BY DESIGN AND SPA","Address":"8961 W Sunset Blvd 1","City":"West Hollywood","State":"CA","Zip":"90069"},{"Location":"NEW TOTAL HEALTH CENTER","Address":"8741 Santa Monica Blvd 2f","City":"West Hollywood","State":"CA","Zip":"90069"},{"Location":"NIGHTBIRD THE STUDIOS","Address":"1200 Alta Loma Rd","City":"West Hollywood","State":"CA","Zip":"90069"},{"Location":"NIKO NIKO SUSHI","Address":"8457 Santa Monica Blvd","City":"West Hollywood","State":"CA","Zip":"90069"},{"Location":"NINE THOUSAND SUNSET","Address":"9000 W Sunset Blvd","City":"West Hollywood","State":"CA","Zip":"90069"},{"Location":"NORI SUSHI","Address":"8730 Santa Monica Blvd F","City":"West Hollywood","State":"CA","Zip":"90069"},{"Location":"OCTAGON INC","Address":"8687 Melrose Ave 700","City":"West Hollywood","State":"CA","Zip":"90069"},{"Location":"OH WOW LLC","Address":"937 N La Cienega Blvd","City":"West Hollywood","State":"CA","Zip":"90069"},{"Location":"ORANGE COUTY MATTRESS","Address":"8448 Santa Monica Blvd","City":"West Hollywood","State":"CA","Zip":"90069"},{"Location":"PALMSTAR MEDIA CAPITAL","Address":"9200 W Sunset Blvd 970","City":"West Hollywood","State":"CA","Zip":"90069"},{"Location":"PARIS 1 NAILS","Address":"8537 W Sunset Blvd","City":"West Hollywood","State":"CA","Zip":"90069"},{"Location":"PAYMAN SAADAT MD INC","Address":"9201 W Sunset Blvd 500","City":"West Hollywood","State":"CA","Zip":"90069"},{"Location":"PHILY MACK PRODUCTIONS","Address":"9072 Nemo St","City":"West Hollywood","State":"CA","Zip":"90069"},{"Location":"PHONOMENAL","Address":"8543 Santa Monica Blvd 5","City":"West Hollywood","State":"CA","Zip":"90069"},{"Location":"PLATA ENTERTAINMENT","Address":"8782 W Sunset Blvd","City":"West Hollywood","State":"CA","Zip":"90069"},{"Location":"PMK HBH PUBLIC RELATIONS #1","Address":"8687 Melrose Ave 8","City":"West Hollywood","State":"CA","Zip":"90069"},{"Location":"PREMIERE EXOTIC CAR RENTALS","Address":"8860a W Sunset Blvd","City":"West Hollywood","State":"CA","Zip":"90069"},{"Location":"PRIMO GELATO","Address":"8590 W Sunset Blvd","City":"West Hollywood","State":"CA","Zip":"90069"},{"Location":"PUMP LLC","Address":"8948 Santa Monica Blvd","City":"West Hollywood","State":"CA","Zip":"90069"},{"Location":"QED INTERNATIONAL","Address":"9200 W Sunset Blvd 970","City":"West Hollywood","State":"CA","Zip":"90069"},{"Location":"RAINBOW BAR & GRILL","Address":"9015 W Sunset Blvd","City":"West Hollywood","State":"CA","Zip":"90069"},{"Location":"RAMI ETESSAMI & HIRI ETESSAMI","Address":"9201 W Sunset Blvd 908","City":"West Hollywood","State":"CA","Zip":"90069"},{"Location":"REDLIGHT MANAGMENT","Address":"9200 W Sunset Blvd 1207","City":"West Hollywood","State":"CA","Zip":"90069"},{"Location":"REGUS MANAGEMENT GROUP L","Address":"8560 W Sunset Blvd 5th","City":"West Hollywood","State":"CA","Zip":"90069"},{"Location":"RESURGENT FILM GROUP","Address":"9220 W Sunset Blvd 300","City":"West Hollywood","State":"CA","Zip":"90069"},{"Location":"RIVA BELLA","Address":"9201 W Sunset Blvd","City":"West Hollywood","State":"CA","Zip":"90069"},{"Location":"RIVERSTREET PRODUCTIONS","Address":"912 N La Cienega Blvd 2fl","City":"West Hollywood","State":"CA","Zip":"90069"},{"Location":"ROBSON ORR ENTERTAINMENT","Address":"9200 W Sunset Blvd 1201","City":"West Hollywood","State":"CA","Zip":"90069"},{"Location":"ROCK & REILLYS","Address":"8911 W Sunset Blvd","City":"West Hollywood","State":"CA","Zip":"90069"},{"Location":"RODEO REALTY","Address":"9200 W Sunset Blvd 200","City":"West Hollywood","State":"CA","Zip":"90069"},{"Location":"RSA FILMS INC.","Address":"634 N La Peer Dr Iani","City":"West Hollywood","State":"CA","Zip":"90069"},{"Location":"SAINT FELIX","Address":"8945 Santa Monica Blvd","City":"West Hollywood","State":"CA","Zip":"90069"},{"Location":"SCHIFF COMPANY","Address":"9200 W Sunset Blvd 106","City":"West Hollywood","State":"CA","Zip":"90069"},{"Location":"SCOTT FREE","Address":"634 N La Peer Dr","City":"West Hollywood","State":"CA","Zip":"90069"},{"Location":"SILVER SPOON DEVELOPMENT","Address":"9220 W Sunset Blvd 308","City":"West Hollywood","State":"CA","Zip":"90069"},{"Location":"SILVERBERG LAW CORP","Address":"8778 W Sunset Blvd West","City":"West Hollywood","State":"CA","Zip":"90069"},{"Location":"SKYNNY KITCHEN1","Address":"8928 Santa Monica Blvd","City":"West Hollywood","State":"CA","Zip":"90069"},{"Location":"SLATE PR","Address":"9000 W Sunset Blvd 915","City":"West Hollywood","State":"CA","Zip":"90069"},{"Location":"SNF MANAGEMENT","Address":"9200 W Sunset Blvd 700","City":"West Hollywood","State":"CA","Zip":"90069"},{"Location":"SOHO HOUSE LUCKMAN PLAZA","Address":"9200 W Sunset Blvd 202","City":"West Hollywood","State":"CA","Zip":"90069"},{"Location":"SOHO HOUSE WEST HOLLYWOO","Address":"9200 W Sunset Blvd Penth","City":"West Hollywood","State":"CA","Zip":"90069"},{"Location":"SPIN ARTIST AGENCY","Address":"9000 W Sunset Blvd 1550","City":"West Hollywood","State":"CA","Zip":"90069"},{"Location":"ST TROP INC","Address":"8650 W Sunset Blvd","City":"West Hollywood","State":"CA","Zip":"90069"},{"Location":"STK RESTAURANT","Address":"755 N La Cienega Blvd","City":"West Hollywood","State":"CA","Zip":"90069"},{"Location":"STORY MINING & SUPPLY CO.","Address":"9000 W Sunset Blvd 600","City":"West Hollywood","State":"CA","Zip":"90069"},{"Location":"SUNSET DBA PEARLS 2","Address":"8768 W Sunset Blvd","City":"West Hollywood","State":"CA","Zip":"90069"},{"Location":"SUNSET MARQUIS 2","Address":"1200 Alta Loma Rd","City":"West Hollywood","State":"CA","Zip":"90069"},{"Location":"SUNSET MARQUIS HOTEL2021","Address":"1200 Alta Loma Rd","City":"West Hollywood","State":"CA","Zip":"90069"},{"Location":"SUNSHINE SACHS","Address":"8409 Santa Monica Blvd","City":"West Hollywood","State":"CA","Zip":"90069"},{"Location":"SUR RESTAURANT","Address":"606 N Robertson Blvd","City":"West Hollywood","State":"CA","Zip":"90069"},{"Location":"SUSHI PARK","Address":"8539 W Sunset Blvd","City":"West Hollywood","State":"CA","Zip":"90069"},{"Location":"TALPA MEDIA USA","Address":"8560 W Sunset Blvd 600","City":"West Hollywood","State":"CA","Zip":"90069"},{"Location":"TELEMUS CAPITAL","Address":"9220 W Sunset Blvd 112","City":"West Hollywood","State":"CA","Zip":"90069"},{"Location":"TENMASA JAPANESE","Address":"9016 W Sunset Blvd","City":"West Hollywood","State":"CA","Zip":"90069"},{"Location":"THE BACKROOM","Address":"8788 W Sunset Blvd","City":"West Hollywood","State":"CA","Zip":"90069"},{"Location":"THE BAYOU","Address":"8939 Santa Monica Blvd","City":"West Hollywood","State":"CA","Zip":"90069"},{"Location":"THE BELMONT","Address":"747 N La Cienega Blvd","City":"West Hollywood","State":"CA","Zip":"90069"},{"Location":"THE BLACK FIGHT SOCIETY","Address":"8913 12 Sunset Blvd","City":"West Hollywood","State":"CA","Zip":"90069"},{"Location":"THE BONRIGHT CORP","Address":"8733 W Sunset Blvd 205","City":"West Hollywood","State":"CA","Zip":"90069"},{"Location":"THE GYM ON NEMO","Address":"9041 Nemo St","City":"West Hollywood","State":"CA","Zip":"90069"},{"Location":"THE LOFT ON LA CIENEGA LP","Address":"1152 N La Cienega Blvd","City":"West Hollywood","State":"CA","Zip":"90069"},{"Location":"THE VELD BUSINESS ADVISORY","Address":"8721 W Sunset Blvd 103","City":"West Hollywood","State":"CA","Zip":"90069"},{"Location":"TMC REALTY","Address":"8833 W Sunset Blvd","City":"West Hollywood","State":"CA","Zip":"90069"},{"Location":"TRAIN WEST HOLLYWOOD","Address":"624 N La Cienega Blvd","City":"West Hollywood","State":"CA","Zip":"90069"},{"Location":"VIBE MEDIA","Address":"9000 W Sunset Blvd 1010","City":"West Hollywood","State":"CA","Zip":"90069"},{"Location":"WATCH IT NOW ENTERTAINMENT","Address":"629 N Almont Dr","City":"West Hollywood","State":"CA","Zip":"90069"},{"Location":"WEST HOLLYWOOD","Address":"8401 W Sunset Blvd","City":"West Hollywood","State":"CA","Zip":"90069"},{"Location":"WEST KNOLL PHARMACY","Address":"8547 Santa Monica Blvd","City":"West Hollywood","State":"CA","Zip":"90069"},{"Location":"WONDERLAND","Address":"8739 W Sunset Blvd","City":"West Hollywood","State":"CA","Zip":"90069"},{"Location":"XIX","Address":"9000 W Sunset Blvd Ph","City":"West Hollywood","State":"CA","Zip":"90069"},{"Location":"YOGURT STOP INC","Address":"8803 Santa Monica Blvd","City":"West Hollywood","State":"CA","Zip":"90069"},{"Location":"YUCAIPA COMPANIES","Address":"9130 W Sunset Blvd","City":"West Hollywood","State":"CA","Zip":"90069"},{"Location":"ZEN HEALING","Address":"8468 Santa Monica Blvd","City":"West Hollywood","State":"CA","Zip":"90069"},{"Location":"ZIERING MEDICAL","Address":"9201 W Sunset Blvd","City":"West Hollywood","State":"CA","Zip":"90069"}]