[{"Location":"DISYS","Address":"11301 Wilshire Blvd","City":"Los Angeles","State":"CA","Zip":"90073"},{"Location":"HANY HAMOUDA","Address":"11301 Wilshire Blvd 207","City":"Los Angeles","State":"CA","Zip":"90073"},{"Location":"JOHN PENNINGTON","Address":"11301 Wilshire Blvd 207","City":"Los Angeles","State":"CA","Zip":"90073"},{"Location":"LOS ANGELES 218-5","Address":"11301 Wilshire Blvd 2185","City":"Los Angeles","State":"CA","Zip":"90073"},{"Location":"LOS ANGELES BLD 218-4","Address":"11301 Wilshire Blvd 2184","City":"Los Angeles","State":"CA","Zip":"90073"},{"Location":"LOS ANGLES BLD 220","Address":"11301 Wilshire Blvd 220","City":"Los Angeles","State":"CA","Zip":"90073"},{"Location":"LOS ANGLES BLD 220-2","Address":"11301 Wilshire Blvd 2202","City":"Los Angeles","State":"CA","Zip":"90073"},{"Location":"LOS ANGLES BLD 304-2","Address":"11301 Wilshire Blvd 3042","City":"Los Angeles","State":"CA","Zip":"90073"},{"Location":"LOS ANGLES BLG 236","Address":"11301 Wilshire Blvd 236","City":"Los Angeles","State":"CA","Zip":"90073"},{"Location":"LOS ANGLES VA BLD 304","Address":"11301 Wilshire Blvd 304","City":"Los Angeles","State":"CA","Zip":"90073"},{"Location":"LOS ANGLES VA BLG 218-2","Address":"11301 Wilshire Blvd 2182","City":"Los Angeles","State":"CA","Zip":"90073"},{"Location":"LOS ANGLES VA BLG 236-2","Address":"11301 Wilshire Blvd 2362","City":"Los Angeles","State":"CA","Zip":"90073"},{"Location":"SALVATION ARMY","Address":"11301 Wilshire Blvd","City":"Los Angeles","State":"CA","Zip":"90073"},{"Location":"VA MEDICAL CENTER","Address":"11301 Wilshire Blvd","City":"Los Angeles","State":"CA","Zip":"90073"},{"Location":"VA WEST LOS ANGELES","Address":"11301 Wilshire Blvd 102","City":"Los Angeles","State":"CA","Zip":"90073"}]