[{"Location":"350 SOUTH GRAND AVE LLC","Address":"350 S Grand Ave 2230","City":"Los Angeles","State":"CA","Zip":"90071"},{"Location":"550 SOUTH HOPE OWNER LLC","Address":"550 S Hope St 2ndf","City":"Los Angeles","State":"CA","Zip":"90071"},{"Location":"ABELSON  HERRON  LLP","Address":"333 S Grand Ave 1550","City":"Los Angeles","State":"CA","Zip":"90071"},{"Location":"ALLEN MATKINS","Address":"515 S Figueroa St","City":"Los Angeles","State":"CA","Zip":"90071"},{"Location":"ALLIED WORLD ASSURANCE","Address":"550 S Hope St 18","City":"Los Angeles","State":"CA","Zip":"90071"},{"Location":"ANNENBERG RETREAT","Address":"350 S Grand Ave 35","City":"Los Angeles","State":"CA","Zip":"90071"},{"Location":"APOLLO SPORTS & ENT LLC","Address":"633 W 5th St 5850","City":"Los Angeles","State":"CA","Zip":"90071"},{"Location":"BACKUS BLAND","Address":"444 S Flower St 10","City":"Los Angeles","State":"CA","Zip":"90071"},{"Location":"BANK OF AMERICA CA9-193-23-06","Address":"333 S Hope St 23","City":"Los Angeles","State":"CA","Zip":"90071"},{"Location":"BANK OF AMERICA CA9-806-37-00","Address":"350 S Grand Ave","City":"Los Angeles","State":"CA","Zip":"90071"},{"Location":"BANK OF THE WEST","Address":"300 S Grand Ave 100","City":"Los Angeles","State":"CA","Zip":"90071"},{"Location":"BANK OF THE WEST","Address":"300 S Grand Ave","City":"Los Angeles","State":"CA","Zip":"90071"},{"Location":"BANK SINOPAC","Address":"355 S Grand Ave 4168","City":"Los Angeles","State":"CA","Zip":"90071"},{"Location":"BARTON KLUGMAN & OETTING","Address":"350 S Grand Ave 2200","City":"Los Angeles","State":"CA","Zip":"90071"},{"Location":"BERINGA CENTRAL LLC","Address":"633 W 5th St 830","City":"Los Angeles","State":"CA","Zip":"90071"},{"Location":"BERNET INTERNATIONAL","Address":"445 S Figueroa St 2550","City":"Los Angeles","State":"CA","Zip":"90071"},{"Location":"BEST BEST & KRIEGER LLP","Address":"300 S Grand Ave 25fl","City":"Los Angeles","State":"CA","Zip":"90071"},{"Location":"BLACK ROCK","Address":"350 S Grand Ave 3750","City":"Los Angeles","State":"CA","Zip":"90071"},{"Location":"BLECHER & COLLINS","Address":"515 S Figueroa St 1750","City":"Los Angeles","State":"CA","Zip":"90071"},{"Location":"BOCARSLY EMDEN","Address":"633 W 5th St 64thf","City":"Los Angeles","State":"CA","Zip":"90071"},{"Location":"BONAVENTURE BREWING CO","Address":"404 S Figueroa St 418a","City":"Los Angeles","State":"CA","Zip":"90071"},{"Location":"BORDER GRILL-DTLA","Address":"445 S Figueroa St 100","City":"Los Angeles","State":"CA","Zip":"90071"},{"Location":"BOSTON CONSULTING GROUP","Address":"355 S Grand Ave 3200","City":"Los Angeles","State":"CA","Zip":"90071"},{"Location":"BRETT DEDEAUX","Address":"545 S Figueroa St 1209","City":"Los Angeles","State":"CA","Zip":"90071"},{"Location":"BUNKER HILL BAR & GRILL","Address":"601 W 5th St R201","City":"Los Angeles","State":"CA","Zip":"90071"},{"Location":"CADIZ INC","Address":"550 S Hope St 27","City":"Los Angeles","State":"CA","Zip":"90071"},{"Location":"CAFE PINOT","Address":"700 W 5th St","City":"Los Angeles","State":"CA","Zip":"90071"},{"Location":"CARPENTERS CONTRACTOR COOP","Address":"533 S Fremont Ave 510","City":"Los Angeles","State":"CA","Zip":"90071"},{"Location":"CARPENTERS PENSION TRUSTS","Address":"533 S Fremont Ave","City":"Los Angeles","State":"CA","Zip":"90071"},{"Location":"CASA","Address":"350 S Grand Ave 1","City":"Los Angeles","State":"CA","Zip":"90071"},{"Location":"CHADBOURNE AND PARKE","Address":"350 S Grand Ave 32","City":"Los Angeles","State":"CA","Zip":"90071"},{"Location":"CLARO GROUP","Address":"350 S Grand Ave 23","City":"Los Angeles","State":"CA","Zip":"90071"},{"Location":"CLUNE CONSTRUCTION CO","Address":"350 S Grand Ave 1600","City":"Los Angeles","State":"CA","Zip":"90071"},{"Location":"COLONY CAPITAL LLC","Address":"515 S Flower St 44thf","City":"Los Angeles","State":"CA","Zip":"90071"},{"Location":"COLUMBIA MGMT INVESTMENT","Address":"445 S Figueroa St 2250","City":"Los Angeles","State":"CA","Zip":"90071"},{"Location":"CONSULATE GENERAL OF JA","Address":"350 S Grand Ave 17","City":"Los Angeles","State":"CA","Zip":"90071"},{"Location":"CORNERSTONE RESEARCH","Address":"633 W 5th St 31stf","City":"Los Angeles","State":"CA","Zip":"90071"},{"Location":"DECARLO AND SHANLEY","Address":"533 S Fremont Ave 9","City":"Los Angeles","State":"CA","Zip":"90071"},{"Location":"DELOITTE & TOUCHE","Address":"350 S Grand Ave 1200","City":"Los Angeles","State":"CA","Zip":"90071"},{"Location":"DIAMOND GENERATING CORP","Address":"633 W 5th St 1000","City":"Los Angeles","State":"CA","Zip":"90071"},{"Location":"DIVERSITY LAW GROUP","Address":"550 S Hope St 2655","City":"Los Angeles","State":"CA","Zip":"90071"},{"Location":"ENTERPRISE HOLDINGS","Address":"445 S Figueroa St 3750","City":"Los Angeles","State":"CA","Zip":"90071"},{"Location":"EQUINOX FITNESS DT LA","Address":"444 S Flower St 115","City":"Los Angeles","State":"CA","Zip":"90071"},{"Location":"EQUINOX FITNESS DT LA 2","Address":"444 S Flower St 115","City":"Los Angeles","State":"CA","Zip":"90071"},{"Location":"EVERCORE PARTNERS","Address":"515 S Figueroa St 1000","City":"Los Angeles","State":"CA","Zip":"90071"},{"Location":"FEMA","Address":"350 S Figueroa St","City":"Los Angeles","State":"CA","Zip":"90071"},{"Location":"FINRA","Address":"300 S Grand Ave 1600","City":"Los Angeles","State":"CA","Zip":"90071"},{"Location":"FOLEY & MANSFIELD  PLLP","Address":"300 S Grand Ave 2800","City":"Los Angeles","State":"CA","Zip":"90071"},{"Location":"FREDDIE MAC","Address":"444 S Flower St","City":"Los Angeles","State":"CA","Zip":"90071"},{"Location":"GOLIN HARRIS","Address":"601 W 5th St 400","City":"Los Angeles","State":"CA","Zip":"90071"},{"Location":"HANASHIAN","Address":"633 W 5th St 150","City":"Los Angeles","State":"CA","Zip":"90071"},{"Location":"HASC","Address":"515 S Figueroa St 1300","City":"Los Angeles","State":"CA","Zip":"90071"},{"Location":"HAWKINS PERNELL","Address":"445 S Figueroa St 3200","City":"Los Angeles","State":"CA","Zip":"90071"},{"Location":"HILL%2C FARRER & BURRILL LLP","Address":"300 S Grand Ave 37fl","City":"Los Angeles","State":"CA","Zip":"90071"},{"Location":"HOSPITAL ASSOCIATION OF SOUTHE","Address":"515 S Figueroa St 1300","City":"Los Angeles","State":"CA","Zip":"90071"},{"Location":"HUGHES HUBBARD","Address":"350 S Grand Ave 1","City":"Los Angeles","State":"CA","Zip":"90071"},{"Location":"IDS","Address":"515 S Figueroa St 1600","City":"Los Angeles","State":"CA","Zip":"90071"},{"Location":"ING CAPITAL LLC","Address":"333 S Grand Ave 4120","City":"Los Angeles","State":"CA","Zip":"90071"},{"Location":"JOHNSTON & HUTCHINSON","Address":"601 W 5th St 210","City":"Los Angeles","State":"CA","Zip":"90071"},{"Location":"JONATHAN GOLF CLUB","Address":"545 S Figueroa St","City":"Los Angeles","State":"CA","Zip":"90071"},{"Location":"JP MORGAN CHASE","Address":"300 S Grand Ave 3","City":"Los Angeles","State":"CA","Zip":"90071"},{"Location":"JP TECH INSURANCE SVCS","Address":"445 S Figueroa St","City":"Los Angeles","State":"CA","Zip":"90071"},{"Location":"JULES AND ASSOCIATES INC","Address":"515 S Figueroa St 1950","City":"Los Angeles","State":"CA","Zip":"90071"},{"Location":"KIRKLAND ELLIS","Address":"333 S Hope St","City":"Los Angeles","State":"CA","Zip":"90071"},{"Location":"KNOX RICKSEN LLP","Address":"300 S Grand Ave 3900","City":"Los Angeles","State":"CA","Zip":"90071"},{"Location":"KPMG - 550","Address":"550 S Hope St 1500","City":"Los Angeles","State":"CA","Zip":"90071"},{"Location":"L & R GROUP OF COMPANIES","Address":"550 S Hope St 2200","City":"Los Angeles","State":"CA","Zip":"90071"},{"Location":"LBA REALTY","Address":"550 S Hope St 2665","City":"Los Angeles","State":"CA","Zip":"90071"},{"Location":"LEWIS BRISBOIS","Address":"633 W 5th St 4000","City":"Los Angeles","State":"CA","Zip":"90071"},{"Location":"LINER LLP","Address":"633 W 5th St","City":"Los Angeles","State":"CA","Zip":"90071"},{"Location":"M20 INC","Address":"515 S Figueroa St 1050","City":"Los Angeles","State":"CA","Zip":"90071"},{"Location":"MANULIFE REAL ESTATE","Address":"515 S Figueroa St 320","City":"Los Angeles","State":"CA","Zip":"90071"},{"Location":"MAYER BROWN LLP","Address":"350 S Grand Ave 2500","City":"Los Angeles","State":"CA","Zip":"90071"},{"Location":"MAYER-BROWN LLP","Address":"350 S Grand Ave 2500","City":"Los Angeles","State":"CA","Zip":"90071"},{"Location":"MCCUNE & HARBOR","Address":"515 S Figueroa St 1150","City":"Los Angeles","State":"CA","Zip":"90071"},{"Location":"MCKENNA LONG & ALDRIDGE LLP","Address":"300 S Grand Ave","City":"Los Angeles","State":"CA","Zip":"90071"},{"Location":"MERRILL CORP.","Address":"350 S Grand Ave 3000","City":"Los Angeles","State":"CA","Zip":"90071"},{"Location":"MEYLAN BABIPP JAIN AREVIN&KIM","Address":"444 S Flower St 1850","City":"Los Angeles","State":"CA","Zip":"90071"},{"Location":"MITSUI&COMPANY USA INC","Address":"350 S Grand Ave 39","City":"Los Angeles","State":"CA","Zip":"90071"},{"Location":"MORGAN LEWIS & BOCKIUS","Address":"300 S Grand Ave 22","City":"Los Angeles","State":"CA","Zip":"90071"},{"Location":"MPG OFFICE TRUST","Address":"355 S Grand Ave 4170","City":"Los Angeles","State":"CA","Zip":"90071"},{"Location":"MPG OFFICE TRUST INC","Address":"300 S Grand Ave 1150","City":"Los Angeles","State":"CA","Zip":"90071"},{"Location":"MUNGER TOLLES&OLSON LLP","Address":"355 S Grand Ave 35","City":"Los Angeles","State":"CA","Zip":"90071"},{"Location":"NEWMARK GRUBB KNIGHT FRA","Address":"455 S Figueroa St 3300","City":"Los Angeles","State":"CA","Zip":"90071"},{"Location":"NIPPON LIFE BENEFITS","Address":"515 S Figueroa St 1470","City":"Los Angeles","State":"CA","Zip":"90071"},{"Location":"NOVAK DRUCE CARROLLY LLP","Address":"333 S Grand Ave 2300","City":"Los Angeles","State":"CA","Zip":"90071"},{"Location":"O'MALLEY SEIDLER PARTNERS LLC","Address":"515 S Figueroa St 1988","City":"Los Angeles","State":"CA","Zip":"90071"},{"Location":"PA CONSULTING GROUP","Address":"300 S Grand Ave 3840","City":"Los Angeles","State":"CA","Zip":"90071"},{"Location":"PACIFIC PETROLEUM","Address":"515 S Flower St","City":"Los Angeles","State":"CA","Zip":"90071"},{"Location":"PAYDEN & RYGEL","Address":"333 S Grand Ave 32","City":"Los Angeles","State":"CA","Zip":"90071"},{"Location":"PERIDIEM GLOBAL INVESTORS","Address":"445 S Figueroa St 2350","City":"Los Angeles","State":"CA","Zip":"90071"},{"Location":"PIPER JAFFRAY","Address":"444 S Flower St 1675","City":"Los Angeles","State":"CA","Zip":"90071"},{"Location":"POND NORTH%2CLLC.","Address":"350 S Grand Ave 3300","City":"Los Angeles","State":"CA","Zip":"90071"},{"Location":"PREMIER BUSINESS CENTER","Address":"355 S Grand Ave 2420","City":"Los Angeles","State":"CA","Zip":"90071"},{"Location":"RAYMOND JAMES & ASSOC.","Address":"9595 Wilshire Blvd 300","City":"Los Angeles","State":"CA","Zip":"90071"},{"Location":"REED SMITH LLP","Address":"355 S Grand Ave 2900","City":"Los Angeles","State":"CA","Zip":"90071"},{"Location":"REGUS","Address":"445 S Figueroa St 2700","City":"Los Angeles","State":"CA","Zip":"90071"},{"Location":"RELIANCE STEEL & ALUMINUM","Address":"350 S Grand Ave 5100","City":"Los Angeles","State":"CA","Zip":"90071"},{"Location":"ROBECO INVESTMENT","Address":"350 S Grand Ave 1550","City":"Los Angeles","State":"CA","Zip":"90071"},{"Location":"ROBIE AND MATTHAI","Address":"500 S Grand Ave 1500","City":"Los Angeles","State":"CA","Zip":"90071"},{"Location":"RP REALTY PARTNERS LLC","Address":"550 S Hope St 2200","City":"Los Angeles","State":"CA","Zip":"90071"},{"Location":"RR DONNELLEY","Address":"333 S Grand Ave 4350","City":"Los Angeles","State":"CA","Zip":"90071"},{"Location":"SAGE ADVISORS INC","Address":"550 S Hope St 1910","City":"Los Angeles","State":"CA","Zip":"90071"},{"Location":"SCHAFFER LAX MCNAUGHTON & CHEN","Address":"515 S Figueroa St 1400","City":"Los Angeles","State":"CA","Zip":"90071"},{"Location":"SHANGRI LA CONSTRUCTION","Address":"550 S Hope St 700","City":"Los Angeles","State":"CA","Zip":"90071"},{"Location":"SKADDEN ARPS SLATE MEAGHER #2","Address":"300 S Grand Ave","City":"Los Angeles","State":"CA","Zip":"90071"},{"Location":"SKADDEN ARPS SLATE MEAGHER FLO","Address":"300 S Grand Ave 3400","City":"Los Angeles","State":"CA","Zip":"90071"},{"Location":"SOCIUS INSURANCE SERVICE","Address":"500 S Grand Ave 1680","City":"Los Angeles","State":"CA","Zip":"90071"},{"Location":"SOUTHWEST REGIONAL COUNCIL","Address":"533 S Fremont Ave 10fl","City":"Los Angeles","State":"CA","Zip":"90071"},{"Location":"STONE & YOUNGBERG","Address":"515 S Figueroa St 1800","City":"Los Angeles","State":"CA","Zip":"90071"},{"Location":"STRATEGIC EMPLOYMENT","Address":"500 S Grand Ave 1610","City":"Los Angeles","State":"CA","Zip":"90071"},{"Location":"STUART KETCHUM DOWNTOWN YMCA","Address":"401 S Hope St","City":"Los Angeles","State":"CA","Zip":"90071"},{"Location":"SUEDE BAR AND LOUNGE","Address":"404 S Figueroa St 102","City":"Los Angeles","State":"CA","Zip":"90071"},{"Location":"SULLIVAN CURTIS MONROE INS BKR","Address":"550 S Hope St 1000","City":"Los Angeles","State":"CA","Zip":"90071"},{"Location":"SWETT & CRAWFORD","Address":"515 S Figueroa St 600","City":"Los Angeles","State":"CA","Zip":"90071"},{"Location":"THE JONATHAN CLUB","Address":"545 S Figueroa St","City":"Los Angeles","State":"CA","Zip":"90071"},{"Location":"THE PENTA BUSINESS GROUP","Address":"550 S Hope St 2640","City":"Los Angeles","State":"CA","Zip":"90071"},{"Location":"THE STANDARD DOWNTOWN","Address":"550 S Flower St","City":"Los Angeles","State":"CA","Zip":"90071"},{"Location":"THE WATER GRILL","Address":"544 S Grand Ave","City":"Los Angeles","State":"CA","Zip":"90071"},{"Location":"THOMAS INVESTMENTS","Address":"445 S Figueroa St 2290","City":"Los Angeles","State":"CA","Zip":"90071"},{"Location":"THOMSON REUTERS","Address":"633 W 5th St 23rdf","City":"Los Angeles","State":"CA","Zip":"90071"},{"Location":"TORREY PINES BANK","Address":"601 W 5th St","City":"Los Angeles","State":"CA","Zip":"90071"},{"Location":"TOWER WATSON","Address":"300 S Grand Ave 20th","City":"Los Angeles","State":"CA","Zip":"90071"},{"Location":"TRIMANA","Address":"515 S Figueroa St 380","City":"Los Angeles","State":"CA","Zip":"90071"},{"Location":"TUCKER ELLIS","Address":"515 S Flower St","City":"Los Angeles","State":"CA","Zip":"90071"},{"Location":"UNION BANK","Address":"445 S Figueroa St 14","City":"Los Angeles","State":"CA","Zip":"90071"},{"Location":"UNION BANK","Address":"445 S Figueroa St 21","City":"Los Angeles","State":"CA","Zip":"90071"},{"Location":"UNION BANK","Address":"445 S Figueroa St 34","City":"Los Angeles","State":"CA","Zip":"90071"},{"Location":"UNION BANK","Address":"445 S Figueroa St 20th","City":"Los Angeles","State":"CA","Zip":"90071"},{"Location":"UNION BANK","Address":"445 S Figueroa St 600","City":"Los Angeles","State":"CA","Zip":"90071"},{"Location":"UNION BANK 21FL","Address":"445 S Figueroa St 21","City":"Los Angeles","State":"CA","Zip":"90071"},{"Location":"UNION BANK GLOBAL MARKET","Address":"445 S Figueroa St 710","City":"Los Angeles","State":"CA","Zip":"90071"},{"Location":"UNION BANK MARKET RISK","Address":"445 S Figueroa St 5","City":"Los Angeles","State":"CA","Zip":"90071"},{"Location":"UNION BANK TREASURE INVE","Address":"444 S Figueroa St 35","City":"Los Angeles","State":"CA","Zip":"90071"},{"Location":"USC COLLEGE ADVANCEMENT","Address":"444 S Flower St 41","City":"Los Angeles","State":"CA","Zip":"90071"},{"Location":"WELLS FARGO BANK","Address":"333 S Grand Ave 12th","City":"Los Angeles","State":"CA","Zip":"90071"},{"Location":"WESTIN BONAVENTURE HOTEL","Address":"404 S Figueroa St","City":"Los Angeles","State":"CA","Zip":"90071"},{"Location":"WILMER HALE","Address":"350 S Grand Ave 1","City":"Los Angeles","State":"CA","Zip":"90071"},{"Location":"WILSON SONSINI GOODRICH","Address":"633 W 5th St 1550","City":"Los Angeles","State":"CA","Zip":"90071"},{"Location":"YOKA & SMITH  LLP","Address":"445 S Figueroa St Pent","City":"Los Angeles","State":"CA","Zip":"90071"}]