[{"Location":"DEPARTMENT OF PUBLIC SAFETY","Address":"3667 Mcclintock Ave","City":"Los Angeles","State":"CA","Zip":"90089"},{"Location":"GALAN BASKETBALL","Address":"3400 S Figueroa St","City":"Los Angeles","State":"CA","Zip":"90089"},{"Location":"GALAN BASKETBALL #2","Address":"3400 S Figueroa St","City":"Los Angeles","State":"CA","Zip":"90089"},{"Location":"GALAN BASKETBALL #3","Address":"3400 S Figueroa St","City":"Los Angeles","State":"CA","Zip":"90089"},{"Location":"GROUND ZERO COFFEE HOUSE","Address":"615 Childs Way","City":"Los Angeles","State":"CA","Zip":"90089"},{"Location":"UNIV OF SOUTH CALIFORNIA HSC","Address":"1334 Biggy St","City":"Los Angeles","State":"CA","Zip":"90089"},{"Location":"UNIV OF SOUTHERN CAL-SOCIAL","Address":"655 W 34th St 201","City":"Los Angeles","State":"CA","Zip":"90089"},{"Location":"UNIV OF SOUTHERN CALIFORNIA","Address":"669 W 34th St","City":"Los Angeles","State":"CA","Zip":"90089"},{"Location":"UNIVERSITY OF SOUTHERN CA","Address":"Trousdale Pkwy 15o","City":"Los Angeles","State":"CA","Zip":"90089"},{"Location":"UNIVERSITY OF SOUTHERN CALIF","Address":"615 Childs Way","City":"Los Angeles","State":"CA","Zip":"90089"},{"Location":"UNIVERSITY OF SOUTHERN CALIFOR","Address":"837       Downey Way%2Fsto 102b","City":"Los Angeles","State":"CA","Zip":"90089"},{"Location":"USC ATHLETIC COMPLIANCE","Address":"840 Childs Way 402","City":"Los Angeles","State":"CA","Zip":"90089"},{"Location":"USC ATHLETICS - GALEN","Address":"203a      Heritage Hall","City":"Los Angeles","State":"CA","Zip":"90089"},{"Location":"USC BASEBALL","Address":"3501 Watts Way 203a","City":"Los Angeles","State":"CA","Zip":"90089"},{"Location":"USC DEPT OF ENROLLMENT SERVICE","Address":"700 Childs Way Jhhlobby","City":"Los Angeles","State":"CA","Zip":"90089"},{"Location":"USC DISTANCE EDUCATION","Address":"3650 Mcclintock Ave","City":"Los Angeles","State":"CA","Zip":"90089"},{"Location":"USC EL CENTRO CHICANO","Address":"3601 Trousdale Pkwy 402","City":"Los Angeles","State":"CA","Zip":"90089"},{"Location":"USC FINANCIAL AID","Address":"700 Childs Way 302","City":"Los Angeles","State":"CA","Zip":"90089"},{"Location":"USC HEALTH SCIENCES PR","Address":"2011 N Soto St 2","City":"Los Angeles","State":"CA","Zip":"90089"},{"Location":"USC INSTITUTE OF UROLOGY","Address":"1441 Eastlake Ave 7416","City":"Los Angeles","State":"CA","Zip":"90089"},{"Location":"USC KECK SCHOOL DEANS","Address":"1975 Zonal Ave Kam 5","City":"Los Angeles","State":"CA","Zip":"90089"},{"Location":"USC SCHWARZENEGGER","Address":"635 Downey Way 130b","City":"Los Angeles","State":"CA","Zip":"90089"},{"Location":"USC STUDENT AFFAIRS","Address":"Trousdale Pkwy Apt St201","City":"Los Angeles","State":"CA","Zip":"90089"},{"Location":"USC STUDENT AFFRS-TRAD.","Address":"3607 Trousdale Pkwy Tcc-b","City":"Los Angeles","State":"CA","Zip":"90089"},{"Location":"USC STUDENT PUBLICATIONS","Address":"3601 Trousdale Pkwy 400","City":"Los Angeles","State":"CA","Zip":"90089"},{"Location":"USC UNIVERSITY RELATIONS","Address":"Trousdale Pkwy Ad260","City":"Los Angeles","State":"CA","Zip":"90089"},{"Location":"USC-ADM 110","Address":"Trousdale Pkwy 110","City":"Los Angeles","State":"CA","Zip":"90089"},{"Location":"VIOLENCE INTERVENTION PR","Address":"2010 Zonal Ave 3","City":"Los Angeles","State":"CA","Zip":"90089"},{"Location":"WRIGLEY MARINE SCIENCE CTR","Address":"3616 Trousdale Pkwy","City":"Los Angeles","State":"CA","Zip":"90089"}]