[{"Location":"72 AND SUNNY","Address":"12101 Bluff Creek Dr","City":"Los Angeles","State":"CA","Zip":"90094"},{"Location":"CINEMARK PLAYA VISTA","Address":"12746 W Jefferson Blvd","City":"Los Angeles","State":"CA","Zip":"90094"},{"Location":"EDC","Address":"5510 Lincoln Blvd 110","City":"Los Angeles","State":"CA","Zip":"90094"},{"Location":"TEAM ONE ADV 2","Address":"13031 W Jefferson Blvd","City":"Los Angeles","State":"CA","Zip":"90094"},{"Location":"TEAM ONE ADV.","Address":"13031 W Jefferson Blvd","City":"Los Angeles","State":"CA","Zip":"90094"},{"Location":"TMZ","Address":"13031 W Jefferson Blvd","City":"Los Angeles","State":"CA","Zip":"90094"},{"Location":"BELKIN INTERNATIONAL","Address":"12045 Waterfront Dr","City":"Playa Vista","State":"CA","Zip":"90094"},{"Location":"CALIFORNIA PIZZA KITCHEN CORP","Address":"12181 Bluff Creek Dr","City":"Playa Vista","State":"CA","Zip":"90094"},{"Location":"ELECTRONIC ARTS","Address":"5510 Lincoln Blvd","City":"Playa Vista","State":"CA","Zip":"90094"},{"Location":"FACEBOOK","Address":"12025 Waterfront Dr 400","City":"Playa Vista","State":"CA","Zip":"90094"},{"Location":"FOX HOME TEAM SPORTS","Address":"12121 Bluff Creek Dr E323","City":"Playa Vista","State":"CA","Zip":"90094"},{"Location":"GULP INC","Address":"13020 Pacific Promenade 1","City":"Playa Vista","State":"CA","Zip":"90094"},{"Location":"HANGAR 19","Address":"12181a Bluff Creek Dr","City":"Playa Vista","State":"CA","Zip":"90094"},{"Location":"HORIZON  PH 1 OFFICE HLD LLC","Address":"12181 Bluff Creek Dr C","City":"Playa Vista","State":"CA","Zip":"90094"},{"Location":"KONAMI","Address":"12400 Bluff Creek Dr","City":"Playa Vista","State":"CA","Zip":"90094"},{"Location":"LA FITNESS 06151","Address":"5570 Lincoln Blvd","City":"Playa Vista","State":"CA","Zip":"90094"},{"Location":"LOS ANGELES CLIPPERS","Address":"6951 S Centinela Ave","City":"Playa Vista","State":"CA","Zip":"90094"},{"Location":"LOS ANGELES FIRE DEPARTMENT","Address":"5451 Playa Vista Dr","City":"Playa Vista","State":"CA","Zip":"90094"},{"Location":"LOWERMYBILLS","Address":"12181 Bluff Creek Dr 250","City":"Playa Vista","State":"CA","Zip":"90094"},{"Location":"SUITE FISH SUSHY BAR","Address":"13020 Pacific Promenade","City":"Playa Vista","State":"CA","Zip":"90094"},{"Location":"THE RESERVE INVESTORS%2C LLC","Address":"13031 W Jefferson Blvd 100","City":"Playa Vista","State":"CA","Zip":"90094"},{"Location":"TVGN","Address":"5510 Lincoln Blvd 4thfl","City":"Playa Vista","State":"CA","Zip":"90094"},{"Location":"TVGN 2","Address":"5510 Lincoln Blvd 4thfl","City":"Playa Vista","State":"CA","Zip":"90094"},{"Location":"TWO NIL LLC","Address":"5510 Lincoln Blvd 410","City":"Playa Vista","State":"CA","Zip":"90094"},{"Location":"USC-ICT","Address":"12015 Waterfront Dr","City":"Playa Vista","State":"CA","Zip":"90094"},{"Location":"X PRIZE FOUNDATION","Address":"5510 Lincoln Blvd 100","City":"Playa Vista","State":"CA","Zip":"90094"},{"Location":"YOUTUBE SPACE LA","Address":"12422 Bluff Creek Dr","City":"Playa Vista","State":"CA","Zip":"90094"}]