[{"Location":"ALLIED BLENDING","Address":"5690 Lindbergh Ln","City":"Bell","State":"CA","Zip":"90201"},{"Location":"BALLERZ INC WHEELS & TIRE","Address":"5141 Florence Ave","City":"Bell","State":"CA","Zip":"90201"},{"Location":"BELL CONVALESCENT HOSPITAL","Address":"4900 Florence Ave","City":"Bell","State":"CA","Zip":"90201"},{"Location":"CLINICA MEDICA CUZCATALAN","Address":"3559 Gage Ave","City":"Bell","State":"CA","Zip":"90201"},{"Location":"DEL RECORDS","Address":"6400 Garfield Ave","City":"Bell","State":"CA","Zip":"90201"},{"Location":"DENTALAND - CE2-1","Address":"5021 Florence Ave 50a","City":"Bell","State":"CA","Zip":"90201"},{"Location":"ESTRELLA CAR WASH","Address":"8313 Eastern Ave","City":"Bell","State":"CA","Zip":"90201"},{"Location":"FEDEX","Address":"5391 Rickenbacker Rd","City":"Bell","State":"CA","Zip":"90201"},{"Location":"GRACIELAS BEAUTY SALON","Address":"4724 Gage Ave","City":"Bell","State":"CA","Zip":"90201"},{"Location":"J & F DESIGN","Address":"5578 Bandini Blvd","City":"Bell","State":"CA","Zip":"90201"},{"Location":"JOES PIZZA","Address":"6370 Florence Ave","City":"Bell","State":"CA","Zip":"90201"},{"Location":"MARISCOS SOL Y MAR","Address":"7700 Eastern Ave","City":"Bell","State":"CA","Zip":"90201"},{"Location":"MUDANZAS INTERMEX","Address":"4025 Gage Ave","City":"Bell","State":"CA","Zip":"90201"},{"Location":"OSCAR ZAMBRANO MD INC","Address":"6513 Atlantic Ave","City":"Bell","State":"CA","Zip":"90201"},{"Location":"R & R DRIVE-IN DAIRY","Address":"5133 Florence Ave","City":"Bell","State":"CA","Zip":"90201"},{"Location":"SALVATION ARMY BELL SHEL","Address":"5600 Rickenbacker Rd 1e","City":"Bell","State":"CA","Zip":"90201"},{"Location":"SANDRAS BEAUTY SALON","Address":"5201 Gage Ave","City":"Bell","State":"CA","Zip":"90201"},{"Location":"SINALOA AUTO GLASS","Address":"3830 Florence Ave","City":"Bell","State":"CA","Zip":"90201"},{"Location":"SUDS LAUDROMAT","Address":"4120 Florence Ave","City":"Bell","State":"CA","Zip":"90201"},{"Location":"TACOS DON CHENTE","Address":"6377 Florence Ave","City":"Bell","State":"CA","Zip":"90201"},{"Location":"THE SALVATION ARMY","Address":"5600 Rickenbacker Rd 2ab","City":"Bell","State":"CA","Zip":"90201"},{"Location":"THE SALVATION ARMY","Address":"5600 Rickenbacker Rd 1c","City":"Bell","State":"CA","Zip":"90201"},{"Location":"TIRE AND WHEELS","Address":"3566 Gage Ave","City":"Bell","State":"CA","Zip":"90201"},{"Location":"393 CID BATTALION","Address":"5340 Bandini Blvd","City":"Bell Gardens","State":"CA","Zip":"90201"},{"Location":"AAA RUBBISH","Address":"6920 Foster Bridge Blvd","City":"Bell Gardens","State":"CA","Zip":"90201"},{"Location":"ACADEMY POOL SUPPLY","Address":"6635 Florence Ave","City":"Bell Gardens","State":"CA","Zip":"90201"},{"Location":"AMBIRIA HOMES I","Address":"6424 Sherman Way","City":"Bell Gardens","State":"CA","Zip":"90201"},{"Location":"AMERICAN LEGION POST 465","Address":"7550 Eastern Ave","City":"Bell Gardens","State":"CA","Zip":"90201"},{"Location":"APPLEBEE'S BELL GARDENS","Address":"5700 Florence Ave","City":"Bell Gardens","State":"CA","Zip":"90201"},{"Location":"AZTECA BOXING CLUB INC","Address":"3817 Gage Ave","City":"Bell Gardens","State":"CA","Zip":"90201"},{"Location":"BBB MARKET","Address":"7129 Perry Rd","City":"Bell Gardens","State":"CA","Zip":"90201"},{"Location":"BELL GARDENS GOLF COURSE","Address":"8000 Park Ln","City":"Bell Gardens","State":"CA","Zip":"90201"},{"Location":"BELL GARDENS MANOR","Address":"8424 S E Ave","City":"Bell Gardens","State":"CA","Zip":"90201"},{"Location":"BG LOAN & JEWELRY CO","Address":"7520 Eastern Ave C","City":"Bell Gardens","State":"CA","Zip":"90201"},{"Location":"BICYCLE CLUB CASINO","Address":"7301 Eastern Ave","City":"Bell Gardens","State":"CA","Zip":"90201"},{"Location":"CHAMPION INSURANCE INC","Address":"6345 Atlantic Ave","City":"Bell Gardens","State":"CA","Zip":"90201"},{"Location":"DEL VALLE TRUCKING","Address":"5201 Gage Ave 214","City":"Bell Gardens","State":"CA","Zip":"90201"},{"Location":"EL PESCADOR","Address":"6633 Eastern Ave","City":"Bell Gardens","State":"CA","Zip":"90201"},{"Location":"HI BONE LIQUORS","Address":"5985 Florence Ave","City":"Bell Gardens","State":"CA","Zip":"90201"},{"Location":"INDIVIDUAL FOODSERVICE","Address":"5496 Lindbergh Ln","City":"Bell Gardens","State":"CA","Zip":"90201"},{"Location":"J&J AUTO REPAIR","Address":"6228 Gage Ave","City":"Bell Gardens","State":"CA","Zip":"90201"},{"Location":"JUAN ANAYA DBA ANAYAS SE","Address":"5515 Gage Ave","City":"Bell Gardens","State":"CA","Zip":"90201"},{"Location":"JWCH INSTITUTE","Address":"5600 Rickenbacker Rd","City":"Bell Gardens","State":"CA","Zip":"90201"},{"Location":"LIZ BETH BEAUTY SALON","Address":"6048 Florence Ave","City":"Bell Gardens","State":"CA","Zip":"90201"},{"Location":"LUCKY MARKET","Address":"7731 Eastern Ave","City":"Bell Gardens","State":"CA","Zip":"90201"},{"Location":"LUIS TACO","Address":"7606 Eastern Ave","City":"Bell Gardens","State":"CA","Zip":"90201"},{"Location":"M AND R INSURANCEE","Address":"6430 Gage Ave D","City":"Bell Gardens","State":"CA","Zip":"90201"},{"Location":"MID TOWN PLUMBING INC","Address":"8234 Garfield Ave","City":"Bell Gardens","State":"CA","Zip":"90201"},{"Location":"NAVY OPERATIONAL SUPPORT CENTE","Address":"5631 Rickenbacker Rd","City":"Bell Gardens","State":"CA","Zip":"90201"},{"Location":"PERRY BURGER","Address":"6402 Florence Ave","City":"Bell Gardens","State":"CA","Zip":"90201"},{"Location":"PRIMO BURGER","Address":"8205 Garfield Ave K","City":"Bell Gardens","State":"CA","Zip":"90201"},{"Location":"PUPUSERIA COMALAPA","Address":"6320 Florence Ave I","City":"Bell Gardens","State":"CA","Zip":"90201"},{"Location":"SAINT GERTRUDE","Address":"7025 Garfield Ave","City":"Bell Gardens","State":"CA","Zip":"90201"},{"Location":"SINALOA INSURANCE SERVIC","Address":"5985 Florence Ave 1","City":"Bell Gardens","State":"CA","Zip":"90201"},{"Location":"TACO BOY INC.","Address":"5039 Gage Ave","City":"Bell Gardens","State":"CA","Zip":"90201"},{"Location":"US MARINE CORP","Address":"5631 Rickenbacker Rd","City":"Bell Gardens","State":"CA","Zip":"90201"},{"Location":"USARMY 335 SIG CMD","Address":"5340 Bandini Blvd","City":"Bell Gardens","State":"CA","Zip":"90201"},{"Location":"VAL FIT","Address":"8360 Wilcox Ave","City":"Bell Gardens","State":"CA","Zip":"90201"},{"Location":"VALLEY INTERPRISES GROUP","Address":"6355 Florence Ave","City":"Bell Gardens","State":"CA","Zip":"90201"},{"Location":"VERNON SANITARY","Address":"5350 Lindbergh Ln","City":"Bell Gardens","State":"CA","Zip":"90201"},{"Location":"WINGSTOP  BELL","Address":"6810 Eastern Ave J","City":"Bell Gardens","State":"CA","Zip":"90201"},{"Location":"A AND A COIN LAUNDRY","Address":"6706 Atlantic Ave 101","City":"Cudahy","State":"CA","Zip":"90201"},{"Location":"BELL AUTO DETAIL","Address":"4121 Florence Ave","City":"Cudahy","State":"CA","Zip":"90201"},{"Location":"BLUE HILLS DENTAL MANAGE","Address":"7903 Atlantic Ave","City":"Cudahy","State":"CA","Zip":"90201"},{"Location":"BOULEVARD  BURGERS","Address":"4401 Florence Ave","City":"Cudahy","State":"CA","Zip":"90201"},{"Location":"CALI WHIM INC","Address":"6626 Atlantic Ave","City":"Cudahy","State":"CA","Zip":"90201"},{"Location":"CAMPANA INSURANCE","Address":"6814 Atlantic Ave","City":"Cudahy","State":"CA","Zip":"90201"},{"Location":"CHARLIES CHOP SHOP","Address":"4364 Florence Ave","City":"Cudahy","State":"CA","Zip":"90201"},{"Location":"CHAVALO BARBER SHOP","Address":"7219 Atlantic Ave","City":"Cudahy","State":"CA","Zip":"90201"},{"Location":"CRAZY WING","Address":"7016 Atlantic Ave","City":"Cudahy","State":"CA","Zip":"90201"},{"Location":"CULICHI TOWN","Address":"6638 Atlantic Ave","City":"Cudahy","State":"CA","Zip":"90201"},{"Location":"DAVITA #437","Address":"7612 Atlantic Ave","City":"Cudahy","State":"CA","Zip":"90201"},{"Location":"DIANA'S MEXICAN FOOD PRODUCTS","Address":"4333 Florence Ave","City":"Cudahy","State":"CA","Zip":"90201"},{"Location":"EL JACAZO RESTAURANT","Address":"4148 Florence Ave","City":"Cudahy","State":"CA","Zip":"90201"},{"Location":"EL PESCADOR","Address":"4108 Florence Ave","City":"Cudahy","State":"CA","Zip":"90201"},{"Location":"FARMACIA EL REY","Address":"6607 Atlantic Ave","City":"Cudahy","State":"CA","Zip":"90201"},{"Location":"FILTHY CUTZ BARBERSHOP","Address":"6810 Atlantic Ave","City":"Cudahy","State":"CA","Zip":"90201"},{"Location":"FORCE 12","Address":"4901 Patata St","City":"Cudahy","State":"CA","Zip":"90201"},{"Location":"FTC SOLUTIONS","Address":"4255 Florence Ave","City":"Cudahy","State":"CA","Zip":"90201"},{"Location":"GABYS BEAUTY SALON","Address":"4362 Florence Ave","City":"Cudahy","State":"CA","Zip":"90201"},{"Location":"KIDS DENTAL KARE","Address":"7705 Atlantic Ave B","City":"Cudahy","State":"CA","Zip":"90201"},{"Location":"LAS PALMITAS FRESH FRUITS INC","Address":"4214 Florence Ave","City":"Cudahy","State":"CA","Zip":"90201"},{"Location":"MARYSOL PUPUSERIA","Address":"7940 Atlantic Ave","City":"Cudahy","State":"CA","Zip":"90201"},{"Location":"MFB WORLD WIDE INC","Address":"4901 Patata St","City":"Cudahy","State":"CA","Zip":"90201"},{"Location":"MIRRA BEAUTY SALON","Address":"4355 Florence Ave","City":"Cudahy","State":"CA","Zip":"90201"},{"Location":"MULTI SERVICES ROCHIN","Address":"6511 Atlantic Ave","City":"Cudahy","State":"CA","Zip":"90201"},{"Location":"NARCISO JOYERIA","Address":"6607 Atlantic Ave","City":"Cudahy","State":"CA","Zip":"90201"},{"Location":"PACIFIC BUS LINE","Address":"4360 Florence Ave","City":"Cudahy","State":"CA","Zip":"90201"},{"Location":"PIZZA HUT 24831","Address":"7000 Atlantic Ave","City":"Cudahy","State":"CA","Zip":"90201"},{"Location":"QUEEN NAIL SPA","Address":"7236 Atlantic Ave","City":"Cudahy","State":"CA","Zip":"90201"},{"Location":"RESTAURANT CONCHITAS","Address":"7501 Atlantic Ave Rear","City":"Cudahy","State":"CA","Zip":"90201"},{"Location":"ROSAS BARBERSHOP","Address":"6717 Atlantic Ave C","City":"Cudahy","State":"CA","Zip":"90201"},{"Location":"WESTERN FIREARMS","Address":"6621 Atlantic Ave","City":"Cudahy","State":"CA","Zip":"90201"},{"Location":"ALLIED BLENDING","Address":"5690 Lindbergh Ln","City":"Bell","State":"CA","Zip":"90201"},{"Location":"AVEL AUTO REPAIR","Address":"3901 Florence Ave","City":"Bell","State":"CA","Zip":"90201"},{"Location":"BALLERZ INC WHEELS & TIRE","Address":"5141 Florence Ave","City":"Bell","State":"CA","Zip":"90201"},{"Location":"BELL CONVALESCENT HOSPITAL","Address":"4900 Florence Ave","City":"Bell","State":"CA","Zip":"90201"},{"Location":"CLINICA MEDICA CUZCATALAN","Address":"3559 Gage Ave","City":"Bell","State":"CA","Zip":"90201"},{"Location":"DEL RECORDS","Address":"6400 Garfield Ave","City":"Bell","State":"CA","Zip":"90201"},{"Location":"DENTALAND - CE2-1","Address":"5021 Florence Ave 50a","City":"Bell","State":"CA","Zip":"90201"},{"Location":"ESTRELLA CAR WASH","Address":"8313 Eastern Ave","City":"Bell","State":"CA","Zip":"90201"},{"Location":"FEDEX","Address":"5391 Rickenbacker Rd","City":"Bell","State":"CA","Zip":"90201"},{"Location":"GAGE TIRE AND WHEELS","Address":"3566 Gage Ave","City":"Bell","State":"CA","Zip":"90201"},{"Location":"GRACIELAS BEAUTY SALON","Address":"4724 Gage Ave","City":"Bell","State":"CA","Zip":"90201"},{"Location":"J & F DESIGN","Address":"5578 Bandini Blvd","City":"Bell","State":"CA","Zip":"90201"},{"Location":"JOES PIZZA","Address":"6370 Florence Ave","City":"Bell","State":"CA","Zip":"90201"},{"Location":"MARISCOS SOL Y MAR","Address":"7700 Eastern Ave","City":"Bell","State":"CA","Zip":"90201"},{"Location":"MUDANZAS INTERMEX","Address":"4025 Gage Ave","City":"Bell","State":"CA","Zip":"90201"},{"Location":"OSCAR ZAMBRANO MD INC","Address":"6513 Atlantic Ave","City":"Bell","State":"CA","Zip":"90201"},{"Location":"R & R DRIVE-IN DAIRY","Address":"5133 Florence Ave","City":"Bell","State":"CA","Zip":"90201"},{"Location":"SALVATION ARMY BELL SHEL","Address":"5600 Rickenbacker Rd 1e","City":"Bell","State":"CA","Zip":"90201"},{"Location":"SANDRAS BEAUTY SALON","Address":"5201 Gage Ave","City":"Bell","State":"CA","Zip":"90201"},{"Location":"SINALOA AUTO GLASS","Address":"3830 Florence Ave","City":"Bell","State":"CA","Zip":"90201"},{"Location":"SUDS LAUDROMAT","Address":"4120 Florence Ave","City":"Bell","State":"CA","Zip":"90201"},{"Location":"TACOS DON CHENTE","Address":"6377 Florence Ave","City":"Bell","State":"CA","Zip":"90201"},{"Location":"THE SALVATION ARMY","Address":"5600 Rickenbacker Rd 2ab","City":"Bell","State":"CA","Zip":"90201"},{"Location":"THE SALVATION ARMY","Address":"5600 Rickenbacker Rd 1c","City":"Bell","State":"CA","Zip":"90201"},{"Location":"TIRE AND WHEELS","Address":"3566 Gage Ave","City":"Bell","State":"CA","Zip":"90201"},{"Location":"393 CID BATTALION","Address":"5340 Bandini Blvd","City":"Bell Gardens","State":"CA","Zip":"90201"},{"Location":"AAA RUBBISH","Address":"6920 Foster Bridge Blvd","City":"Bell Gardens","State":"CA","Zip":"90201"},{"Location":"ACADEMY POOL SUPPLY","Address":"6635 Florence Ave","City":"Bell Gardens","State":"CA","Zip":"90201"},{"Location":"AMBIRIA HOMES I","Address":"6424 Sherman Way","City":"Bell Gardens","State":"CA","Zip":"90201"},{"Location":"AMERICAN LEGION POST 465","Address":"7550 Eastern Ave","City":"Bell Gardens","State":"CA","Zip":"90201"},{"Location":"APPLEBEE'S BELL GARDENS","Address":"5700 Florence Ave","City":"Bell Gardens","State":"CA","Zip":"90201"},{"Location":"AZTECA BOXING CLUB INC","Address":"3817 Gage Ave","City":"Bell Gardens","State":"CA","Zip":"90201"},{"Location":"BBB MARKET","Address":"7129 Perry Rd","City":"Bell Gardens","State":"CA","Zip":"90201"},{"Location":"BELL GARDENS GOLF COURSE","Address":"8000 Park Ln","City":"Bell Gardens","State":"CA","Zip":"90201"},{"Location":"BELL GARDENS MANOR","Address":"8424 S E Ave","City":"Bell Gardens","State":"CA","Zip":"90201"},{"Location":"BG LOAN & JEWELRY CO","Address":"7520 Eastern Ave C","City":"Bell Gardens","State":"CA","Zip":"90201"},{"Location":"BICYCLE CLUB CASINO","Address":"7301 Eastern Ave","City":"Bell Gardens","State":"CA","Zip":"90201"},{"Location":"CHAMPION INSURANCE INC","Address":"6345 Atlantic Ave","City":"Bell Gardens","State":"CA","Zip":"90201"},{"Location":"DEL VALLE TRUCKING","Address":"5201 Gage Ave 214","City":"Bell Gardens","State":"CA","Zip":"90201"},{"Location":"EL PESCADOR","Address":"6633 Eastern Ave","City":"Bell Gardens","State":"CA","Zip":"90201"},{"Location":"HI BONE LIQUORS","Address":"5985 Florence Ave","City":"Bell Gardens","State":"CA","Zip":"90201"},{"Location":"INDIVIDUAL FOODSERVICE","Address":"5496 Lindbergh Ln","City":"Bell Gardens","State":"CA","Zip":"90201"},{"Location":"J&J AUTO REPAIR","Address":"6228 Gage Ave","City":"Bell Gardens","State":"CA","Zip":"90201"},{"Location":"JUAN ANAYA DBA ANAYAS SE","Address":"5515 Gage Ave","City":"Bell Gardens","State":"CA","Zip":"90201"},{"Location":"LIZ BETH BEAUTY SALON","Address":"6048 Florence Ave","City":"Bell Gardens","State":"CA","Zip":"90201"},{"Location":"LUCKY MARKET","Address":"7731 Eastern Ave","City":"Bell Gardens","State":"CA","Zip":"90201"},{"Location":"LUIS TACO","Address":"7606 Eastern Ave","City":"Bell Gardens","State":"CA","Zip":"90201"},{"Location":"M AND R INSURANCEE","Address":"6430 Gage Ave D","City":"Bell Gardens","State":"CA","Zip":"90201"},{"Location":"MID TOWN PLUMBING INC","Address":"8234 Garfield Ave","City":"Bell Gardens","State":"CA","Zip":"90201"},{"Location":"NAVY OPERATIONAL SUPPORT CENTE","Address":"5631 Rickenbacker Rd","City":"Bell Gardens","State":"CA","Zip":"90201"},{"Location":"PERRY BURGER","Address":"6402 Florence Ave","City":"Bell Gardens","State":"CA","Zip":"90201"},{"Location":"PRIMO BURGER","Address":"8205 Garfield Ave K","City":"Bell Gardens","State":"CA","Zip":"90201"},{"Location":"PUPUSERIA COMALAPA","Address":"6320 Florence Ave I","City":"Bell Gardens","State":"CA","Zip":"90201"},{"Location":"SAINT GERTRUDE","Address":"7025 Garfield Ave","City":"Bell Gardens","State":"CA","Zip":"90201"},{"Location":"SINALOA INSURANCE SERVIC","Address":"5985 Florence Ave 1","City":"Bell Gardens","State":"CA","Zip":"90201"},{"Location":"TACO BOY INC.","Address":"5039 Gage Ave","City":"Bell Gardens","State":"CA","Zip":"90201"},{"Location":"US MARINE CORP","Address":"5631 Rickenbacker Rd","City":"Bell Gardens","State":"CA","Zip":"90201"},{"Location":"USARMY 335 SIG CMD","Address":"5340 Bandini Blvd","City":"Bell Gardens","State":"CA","Zip":"90201"},{"Location":"VAL FIT","Address":"8360 Wilcox Ave","City":"Bell Gardens","State":"CA","Zip":"90201"},{"Location":"VALLEY INTERPRISES GROUP","Address":"6355 Florence Ave","City":"Bell Gardens","State":"CA","Zip":"90201"},{"Location":"VERNON SANITARY","Address":"5350 Lindbergh Ln","City":"Bell Gardens","State":"CA","Zip":"90201"},{"Location":"WINGSTOP  BELL","Address":"6810 Eastern Ave J","City":"Bell Gardens","State":"CA","Zip":"90201"},{"Location":"A AND A COIN LAUNDRY","Address":"6706 Atlantic Ave 101","City":"Cudahy","State":"CA","Zip":"90201"},{"Location":"BELL AUTO DETAIL","Address":"4121 Florence Ave","City":"Cudahy","State":"CA","Zip":"90201"},{"Location":"BLUE HILLS DENTAL MANAGE","Address":"7903 Atlantic Ave","City":"Cudahy","State":"CA","Zip":"90201"},{"Location":"BOULEVARD  BURGERS","Address":"4401 Florence Ave","City":"Cudahy","State":"CA","Zip":"90201"},{"Location":"CALI WHIM INC","Address":"6626 Atlantic Ave","City":"Cudahy","State":"CA","Zip":"90201"},{"Location":"CAMPANA INSURANCE","Address":"6814 Atlantic Ave","City":"Cudahy","State":"CA","Zip":"90201"},{"Location":"CHARLIES CHOP SHOP","Address":"4364 Florence Ave","City":"Cudahy","State":"CA","Zip":"90201"},{"Location":"CHAVALO BARBER SHOP","Address":"7219 Atlantic Ave","City":"Cudahy","State":"CA","Zip":"90201"},{"Location":"CRAZY WING","Address":"7016 Atlantic Ave","City":"Cudahy","State":"CA","Zip":"90201"},{"Location":"CULICHI TOWN","Address":"6638 Atlantic Ave","City":"Cudahy","State":"CA","Zip":"90201"},{"Location":"DAVITA #437","Address":"7612 Atlantic Ave","City":"Cudahy","State":"CA","Zip":"90201"},{"Location":"DIANA'S MEXICAN FOOD PRODUCTS","Address":"4333 Florence Ave","City":"Cudahy","State":"CA","Zip":"90201"},{"Location":"EL JACAZO RESTAURANT","Address":"4148 Florence Ave","City":"Cudahy","State":"CA","Zip":"90201"},{"Location":"EL PESCADOR","Address":"4108 Florence Ave","City":"Cudahy","State":"CA","Zip":"90201"},{"Location":"FARMACIA EL REY","Address":"6607 Atlantic Ave","City":"Cudahy","State":"CA","Zip":"90201"},{"Location":"FILTHY CUTZ BARBERSHOP","Address":"6810 Atlantic Ave","City":"Cudahy","State":"CA","Zip":"90201"},{"Location":"FORCE 12","Address":"4901 Patata St","City":"Cudahy","State":"CA","Zip":"90201"},{"Location":"FTC SOLUTIONS","Address":"4255 Florence Ave","City":"Cudahy","State":"CA","Zip":"90201"},{"Location":"GABYS BEAUTY SALON","Address":"4362 Florence Ave","City":"Cudahy","State":"CA","Zip":"90201"},{"Location":"KIDS DENTAL KARE","Address":"7705 Atlantic Ave B","City":"Cudahy","State":"CA","Zip":"90201"},{"Location":"LAS PALMITAS FRESH FRUITS INC","Address":"4214 Florence Ave","City":"Cudahy","State":"CA","Zip":"90201"},{"Location":"MARYSOL PUPUSERIA","Address":"7940 Atlantic Ave","City":"Cudahy","State":"CA","Zip":"90201"},{"Location":"MFB WORLD WIDE INC","Address":"4901 Patata St","City":"Cudahy","State":"CA","Zip":"90201"},{"Location":"MIRRA BEAUTY SALON","Address":"4355 Florence Ave","City":"Cudahy","State":"CA","Zip":"90201"},{"Location":"MULTI SERVICES ROCHIN","Address":"6511 Atlantic Ave","City":"Cudahy","State":"CA","Zip":"90201"},{"Location":"NARCISO JOYERIA","Address":"6607 Atlantic Ave","City":"Cudahy","State":"CA","Zip":"90201"},{"Location":"PACIFIC BUS LINE","Address":"4360 Florence Ave","City":"Cudahy","State":"CA","Zip":"90201"},{"Location":"PIZZA HUT 24831","Address":"7000 Atlantic Ave","City":"Cudahy","State":"CA","Zip":"90201"},{"Location":"QUEEN NAIL SPA","Address":"7236 Atlantic Ave","City":"Cudahy","State":"CA","Zip":"90201"},{"Location":"RESTAURANT CONCHITAS","Address":"7501 Atlantic Ave Rear","City":"Cudahy","State":"CA","Zip":"90201"},{"Location":"ROSAS BARBERSHOP","Address":"6717 Atlantic Ave C","City":"Cudahy","State":"CA","Zip":"90201"},{"Location":"WESTERN FIREARMS","Address":"6621 Atlantic Ave","City":"Cudahy","State":"CA","Zip":"90201"}]