[{"Location":"BEVERLY PARK TARRACE 24 LLC","Address":"24 Beverly Park Tarrace","City":"Berverly Hills","State":"CA","Zip":"90210"},{"Location":"","Address":"1118 Calle Vista Dr","City":"Beverly Hills","State":"CA","Zip":"90210"},{"Location":"3D INVESTMENTS","Address":"468 N Camden Dr","City":"Beverly Hills","State":"CA","Zip":"90210"},{"Location":"450 ROXBURY PROPERTIES","Address":"450 N Roxbury Dr","City":"Beverly Hills","State":"CA","Zip":"90210"},{"Location":"90210 WINE PLUS SPIRITS","Address":"350 N Canon Dr Store  #4","City":"Beverly Hills","State":"CA","Zip":"90210"},{"Location":"ALAN KAYE DDS A PROFESSIONAL C","Address":"436 N Roxbury Dr 107","City":"Beverly Hills","State":"CA","Zip":"90210"},{"Location":"ALBERT TOUBIA","Address":"436 N Roxbury Dr 108","City":"Beverly Hills","State":"CA","Zip":"90210"},{"Location":"ALMO SOUNDS","Address":"421 N Beverly Dr 260","City":"Beverly Hills","State":"CA","Zip":"90210"},{"Location":"ANASTASIA SALON","Address":"438 N Bedford Dr","City":"Beverly Hills","State":"CA","Zip":"90210"},{"Location":"ANDELL  INC","Address":"245 N Beverly Dr 300","City":"Beverly Hills","State":"CA","Zip":"90210"},{"Location":"AOL INC","Address":"331 N Maple Dr","City":"Beverly Hills","State":"CA","Zip":"90210"},{"Location":"AOL INC #3","Address":"331 N Maple Dr","City":"Beverly Hills","State":"CA","Zip":"90210"},{"Location":"ARC","Address":"415 N Camden Dr 223","City":"Beverly Hills","State":"CA","Zip":"90210"},{"Location":"ART REPRODUCTIVE CENTER","Address":"450 N Roxbury Dr 500","City":"Beverly Hills","State":"CA","Zip":"90210"},{"Location":"ARTHUR GLOSMAN D.D.S.","Address":"450 N Roxbury Dr 222","City":"Beverly Hills","State":"CA","Zip":"90210"},{"Location":"ASSIL EYE INSTITUTE","Address":"450 N Roxbury Dr 3fl","City":"Beverly Hills","State":"CA","Zip":"90210"},{"Location":"ASSOCIATED FOREIGN EXCHANGE","Address":"327 N Beverly Dr","City":"Beverly Hills","State":"CA","Zip":"90210"},{"Location":"AVIATION","Address":"9629 Brighton Way","City":"Beverly Hills","State":"CA","Zip":"90210"},{"Location":"BANG & OLUFSEN","Address":"369 N Rodeo Dr","City":"Beverly Hills","State":"CA","Zip":"90210"},{"Location":"BARRISTER EXEC.SUITS INC","Address":"433 N Camden Dr 6thf","City":"Beverly Hills","State":"CA","Zip":"90210"},{"Location":"BCKODS","Address":"9107 Wilshire Blvd 400","City":"Beverly Hills","State":"CA","Zip":"90210"},{"Location":"BEDFORD AND BURNS","Address":"369 N Bedford Dr","City":"Beverly Hills","State":"CA","Zip":"90210"},{"Location":"BEDFORD DENTAL-DR NAYSAN","Address":"436 N Bedford Dr 300","City":"Beverly Hills","State":"CA","Zip":"90210"},{"Location":"BEVERLY HILL DERMOTOLOGY CONS","Address":"433 N Camden Dr 805","City":"Beverly Hills","State":"CA","Zip":"90210"},{"Location":"BEVERLY HILL TENNIS CLUB","Address":"340 N Maple Dr","City":"Beverly Hills","State":"CA","Zip":"90210"},{"Location":"BEVERLY HILLS CREDIT UNION","Address":"9298 W 3rd St","City":"Beverly Hills","State":"CA","Zip":"90210"},{"Location":"BEVERLY HILLS HERNIA","Address":"450 N Roxbury Dr 224","City":"Beverly Hills","State":"CA","Zip":"90210"},{"Location":"BEVERLY HILLS POLICE%2FMU","Address":"464 N Rexford Dr","City":"Beverly Hills","State":"CA","Zip":"90210"},{"Location":"BEVERLY PACIFIC LIMITED","Address":"441 N Beverly Dr 207","City":"Beverly Hills","State":"CA","Zip":"90210"},{"Location":"BEVERLY RIDGE ESTATES","Address":"2621 Coldwater Canyon Dr","City":"Beverly Hills","State":"CA","Zip":"90210"},{"Location":"BLACK EQUITIES","Address":"433 N Camden Dr","City":"Beverly Hills","State":"CA","Zip":"90210"},{"Location":"BOUCHON","Address":"235 N Canon Dr 350","City":"Beverly Hills","State":"CA","Zip":"90210"},{"Location":"BRAN NUE DAY LLC","Address":"360 N Camden Dr","City":"Beverly Hills","State":"CA","Zip":"90210"},{"Location":"BROADCAST MEDIA GROUP","Address":"9440 Santa Monica Blvd 706","City":"Beverly Hills","State":"CA","Zip":"90210"},{"Location":"BRUCE MCLUCAS MD","Address":"450 N Roxbury Dr 275","City":"Beverly Hills","State":"CA","Zip":"90210"},{"Location":"BTA MGT CORP","Address":"9405 Brighton Way 34","City":"Beverly Hills","State":"CA","Zip":"90210"},{"Location":"BUENA VISTA CIGAR CLUB","Address":"9715 Santa Monica Blvd","City":"Beverly Hills","State":"CA","Zip":"90210"},{"Location":"CAFFE ROMA","Address":"350 N Canon Dr","City":"Beverly Hills","State":"CA","Zip":"90210"},{"Location":"CITY OF BEVERLY HILLS","Address":"464 N Rexford Dr","City":"Beverly Hills","State":"CA","Zip":"90210"},{"Location":"CITY OF BEVERLY HILLS 2","Address":"9357 W 3rd St","City":"Beverly Hills","State":"CA","Zip":"90210"},{"Location":"CMC PARTNERS","Address":"433 N Camden Dr 750","City":"Beverly Hills","State":"CA","Zip":"90210"},{"Location":"COMMERCIALS UNLIMITED","Address":"190 N Canon Dr 208","City":"Beverly Hills","State":"CA","Zip":"90210"},{"Location":"CRUSTACEAN RESTAURANT","Address":"9646 Santa Monica Blvd","City":"Beverly Hills","State":"CA","Zip":"90210"},{"Location":"DASTEL CORPORATION","Address":"10 Beverly Park","City":"Beverly Hills","State":"CA","Zip":"90210"},{"Location":"DAVID C. RISH MED. CORP.","Address":"435 N Roxbury Dr 204","City":"Beverly Hills","State":"CA","Zip":"90210"},{"Location":"DAVID ORGELL","Address":"262 N Rodeo Dr","City":"Beverly Hills","State":"CA","Zip":"90210"},{"Location":"DIICO","Address":"9440 Santa Monica Blvd 401","City":"Beverly Hills","State":"CA","Zip":"90210"},{"Location":"DOLMAR INC","Address":"433 N Camden Dr 500","City":"Beverly Hills","State":"CA","Zip":"90210"},{"Location":"DOMA","Address":"362 N Camden Dr","City":"Beverly Hills","State":"CA","Zip":"90210"},{"Location":"DONALD GRUENBERG INC","Address":"344 N Beverly Dr","City":"Beverly Hills","State":"CA","Zip":"90210"},{"Location":"DOW JONES","Address":"407 N Maple Dr","City":"Beverly Hills","State":"CA","Zip":"90210"},{"Location":"DR BRIAN LESAGE OFFICE","Address":"436 N Roxbury Dr 100","City":"Beverly Hills","State":"CA","Zip":"90210"},{"Location":"DR BRUCE MCLUCAS","Address":"436 N Bedford Dr 101","City":"Beverly Hills","State":"CA","Zip":"90210"},{"Location":"DR JOSEPH STAN DDS","Address":"448 N Bedford Dr B","City":"Beverly Hills","State":"CA","Zip":"90210"},{"Location":"DR. GANDIN DDS","Address":"450 N Bedford Dr 300","City":"Beverly Hills","State":"CA","Zip":"90210"},{"Location":"DR. JEFFERY COHEN","Address":"436 N Roxbury Dr 215","City":"Beverly Hills","State":"CA","Zip":"90210"},{"Location":"DR. SANDS DDS","Address":"414 N Camden Dr 940","City":"Beverly Hills","State":"CA","Zip":"90210"},{"Location":"EHG APHLA US LLC","Address":"11964 Crest Pl","City":"Beverly Hills","State":"CA","Zip":"90210"},{"Location":"ELGIN CHARLES HAIR SALON","Address":"9437 Little Santa Monica 202","City":"Beverly Hills","State":"CA","Zip":"90210"},{"Location":"ELITE BODY SCULPTURE","Address":"436 N Bedford Dr 304","City":"Beverly Hills","State":"CA","Zip":"90210"},{"Location":"EMERIK PROPERTIES CORP","Address":"9440 Santa Monica Blvd 705","City":"Beverly Hills","State":"CA","Zip":"90210"},{"Location":"ENDEAVOR AGENCY","Address":"9601 Wilshire Blvd","City":"Beverly Hills","State":"CA","Zip":"90210"},{"Location":"ENDEAVOR AGENCY","Address":"9601 Wilshire Blvd 3","City":"Beverly Hills","State":"CA","Zip":"90210"},{"Location":"ENDEAVOR AGENCY #2","Address":"9601 Wilshire Blvd 3","City":"Beverly Hills","State":"CA","Zip":"90210"},{"Location":"ENDEAVOR AGENCY #4","Address":"9601 Wilshire Blvd Fl3","City":"Beverly Hills","State":"CA","Zip":"90210"},{"Location":"ENDEAVOR AGENCY #5","Address":"9601 Wilshire Blvd 3fl","City":"Beverly Hills","State":"CA","Zip":"90210"},{"Location":"ETENDER","Address":"926 N Beverly Dr","City":"Beverly Hills","State":"CA","Zip":"90210"},{"Location":"ETPC COMPANY","Address":"10 Beverly Ridge Ter","City":"Beverly Hills","State":"CA","Zip":"90210"},{"Location":"FACIAL INSTITUTE","Address":"9375 Wilshire Blvd 300","City":"Beverly Hills","State":"CA","Zip":"90210"},{"Location":"FAT BURGER CORP II","Address":"9606 Santa Monica Blvd Penthou","City":"Beverly Hills","State":"CA","Zip":"90210"},{"Location":"FAT BURGER CORPORATION","Address":"9606 Santa Monica Blvd","City":"Beverly Hills","State":"CA","Zip":"90210"},{"Location":"FATBURGER","Address":"474 N Beverly Dr","City":"Beverly Hills","State":"CA","Zip":"90210"},{"Location":"FLEMING'S #1510","Address":"252 N Beverly Dr","City":"Beverly Hills","State":"CA","Zip":"90210"},{"Location":"FOOD ON FOOT","Address":"415 N Crescent Dr 235","City":"Beverly Hills","State":"CA","Zip":"90210"},{"Location":"FOOT AND ANKLE SPECIALTY","Address":"450 N Roxbury Dr 602","City":"Beverly Hills","State":"CA","Zip":"90210"},{"Location":"FOX INT'L CHANNELS","Address":"407 N Maple Dr","City":"Beverly Hills","State":"CA","Zip":"90210"},{"Location":"FOX NETWORK GROUP-FIELD","Address":"407 N Maple Dr","City":"Beverly Hills","State":"CA","Zip":"90210"},{"Location":"FOX NETWORKS GROUP-FINAN","Address":"407 N Maple Dr 101","City":"Beverly Hills","State":"CA","Zip":"90210"},{"Location":"FRANKIE & JOHNNIES","Address":"8947 W Sunset Blvd","City":"Beverly Hills","State":"CA","Zip":"90210"},{"Location":"FRANKIE &JOHNNIE N.Y.PIZZA","Address":"9533 Santa Monica Blvd","City":"Beverly Hills","State":"CA","Zip":"90210"},{"Location":"FRED MONEMPOUR  DDS","Address":"435 N Bedford Dr 416","City":"Beverly Hills","State":"CA","Zip":"90210"},{"Location":"FRONTLINE MANAG ILA","Address":"9350 Civic Center Dr","City":"Beverly Hills","State":"CA","Zip":"90210"},{"Location":"FTA","Address":"427 N Canon Dr","City":"Beverly Hills","State":"CA","Zip":"90210"},{"Location":"G & L REALTY CORP","Address":"439 N Bedford Dr","City":"Beverly Hills","State":"CA","Zip":"90210"},{"Location":"GALCO INC","Address":"421 N Beverly Dr 300","City":"Beverly Hills","State":"CA","Zip":"90210"},{"Location":"GALERIE MICHAEL","Address":"224 N Rodeo Dr","City":"Beverly Hills","State":"CA","Zip":"90210"},{"Location":"GELFAND  RENNERT AND FELDMAN","Address":"904 Glen Way","City":"Beverly Hills","State":"CA","Zip":"90210"},{"Location":"GELFAND RENNERT AND FELDMAN","Address":"904 Glen Way","City":"Beverly Hills","State":"CA","Zip":"90210"},{"Location":"GENDLER & KELLY","Address":"450 N Roxbury Dr 1000","City":"Beverly Hills","State":"CA","Zip":"90210"},{"Location":"GIANT GROUP LTD","Address":"9440 Santa Monica Blvd 407","City":"Beverly Hills","State":"CA","Zip":"90210"},{"Location":"GRANITE ESCROW SERVICES","Address":"439 N Canon Dr 220","City":"Beverly Hills","State":"CA","Zip":"90210"},{"Location":"GREENLIGHT MANAGEMENT","Address":"9713 Santa Monica Blvd 219","City":"Beverly Hills","State":"CA","Zip":"90210"},{"Location":"HAN SCOBLE DDS","Address":"436 N Roxbury Dr","City":"Beverly Hills","State":"CA","Zip":"90210"},{"Location":"HAROLD A LANCER  MD","Address":"440 N Rodeo Dr","City":"Beverly Hills","State":"CA","Zip":"90210"},{"Location":"HILTON & HYLAND REAL ESTATE","Address":"250 N Canon Dr","City":"Beverly Hills","State":"CA","Zip":"90210"},{"Location":"HILTON AND HYLAND RE","Address":"270 N Canon Dr","City":"Beverly Hills","State":"CA","Zip":"90210"},{"Location":"HJTH","Address":"450 N Roxbury Dr 8","City":"Beverly Hills","State":"CA","Zip":"90210"},{"Location":"HSBC BANK #819167","Address":"445 N Bedford Dr","City":"Beverly Hills","State":"CA","Zip":"90210"},{"Location":"HSP GROUP LLC","Address":"433 N Camden Dr 810","City":"Beverly Hills","State":"CA","Zip":"90210"},{"Location":"I AM SPORTS AND ENTERTAINMENT","Address":"184 N Canon Dr","City":"Beverly Hills","State":"CA","Zip":"90210"},{"Location":"I LIKE BIG BUTTS LLC","Address":"1012 Wallace Rdg","City":"Beverly Hills","State":"CA","Zip":"90210"},{"Location":"ICE CREAM LAB","Address":"9461 Santa Monica Blvd","City":"Beverly Hills","State":"CA","Zip":"90210"},{"Location":"IL  TRAMEZZINO","Address":"454 N Canon Dr","City":"Beverly Hills","State":"CA","Zip":"90210"},{"Location":"IL PASTAIO RISTORANTE","Address":"400 N Canon Dr","City":"Beverly Hills","State":"CA","Zip":"90210"},{"Location":"JAFFE AND CLEMENS","Address":"433 N Camden Dr 1000","City":"Beverly Hills","State":"CA","Zip":"90210"},{"Location":"JOUBERT PHYSICAL THERATY","Address":"435 N Bedford Dr 102","City":"Beverly Hills","State":"CA","Zip":"90210"},{"Location":"KAMPAR CORPS","Address":"9312 Civin Center Dr 105","City":"Beverly Hills","State":"CA","Zip":"90210"},{"Location":"KEVIN SANDS DDS","Address":"414 N Camden Dr 940","City":"Beverly Hills","State":"CA","Zip":"90210"},{"Location":"KINGSWOOD CAPITAL LLC1","Address":"244 N Rodeo Dr","City":"Beverly Hills","State":"CA","Zip":"90210"},{"Location":"LA DOLCE VITA","Address":"9785 Santa Monica Blvd","City":"Beverly Hills","State":"CA","Zip":"90210"},{"Location":"LAKESHORE ENTERTAINMENT","Address":"9268 W 3rd St","City":"Beverly Hills","State":"CA","Zip":"90210"},{"Location":"LARRY A KOZAK","Address":"436 N Roxbury Dr","City":"Beverly Hills","State":"CA","Zip":"90210"},{"Location":"LASERAWAY COMPANY","Address":"9615 Brighton Way 202","City":"Beverly Hills","State":"CA","Zip":"90210"},{"Location":"LAW OFFICES OF DAVID S KARTON","Address":"433 N Camden Dr 888","City":"Beverly Hills","State":"CA","Zip":"90210"},{"Location":"LEVINE LEICHTMAN CAPITOL","Address":"335 N Maple Dr","City":"Beverly Hills","State":"CA","Zip":"90210"},{"Location":"LIONGATE CAPITAL","Address":"301 N Canon Dr 228","City":"Beverly Hills","State":"CA","Zip":"90210"},{"Location":"LOLINDA LLC","Address":"1225 Angelo Dr","City":"Beverly Hills","State":"CA","Zip":"90210"},{"Location":"LOUIS MICHAEL SALON","Address":"413 N Canon Dr","City":"Beverly Hills","State":"CA","Zip":"90210"},{"Location":"MANAGEMENT 360","Address":"9111 Wilshire Blvd","City":"Beverly Hills","State":"CA","Zip":"90210"},{"Location":"MAPLE CORNERS  LLC","Address":"400 N Maple Dr Lower","City":"Beverly Hills","State":"CA","Zip":"90210"},{"Location":"MAPLELEAF VENTURES","Address":"401 N Maple Dr","City":"Beverly Hills","State":"CA","Zip":"90210"},{"Location":"MASTRO'S RESTAURANT","Address":"246 N Canon Dr","City":"Beverly Hills","State":"CA","Zip":"90210"},{"Location":"MENS HAIR DESIGN","Address":"9725 Santa Monica Blvd","City":"Beverly Hills","State":"CA","Zip":"90210"},{"Location":"MERCEDESBENZ BEVERLY HILLS SER","Address":"400 Foothill Rd","City":"Beverly Hills","State":"CA","Zip":"90210"},{"Location":"MERCEDESBENZ BEVERLY HILLS TWO","Address":"9250 Beverly Blvd","City":"Beverly Hills","State":"CA","Zip":"90210"},{"Location":"METRO GOLDWYN STUDIOS INC #5","Address":"245 N Beverly Dr","City":"Beverly Hills","State":"CA","Zip":"90210"},{"Location":"MGM","Address":"245 N Beverly Dr","City":"Beverly Hills","State":"CA","Zip":"90210"},{"Location":"MICHAEL ROSENSTEIN  ESQ.","Address":"433 N Camden Dr 400","City":"Beverly Hills","State":"CA","Zip":"90210"},{"Location":"MJA ADVERTISING","Address":"9440 Santa Monica Blvd 507","City":"Beverly Hills","State":"CA","Zip":"90210"},{"Location":"MONTAGE BEVERLY HILLS","Address":"225 N Canon Dr","City":"Beverly Hills","State":"CA","Zip":"90210"},{"Location":"MORGAN STANLEY 100238","Address":"335 N Maple Dr 150","City":"Beverly Hills","State":"CA","Zip":"90210"},{"Location":"MR CHOW BEVERLY HILLS","Address":"344 N Camden Dr","City":"Beverly Hills","State":"CA","Zip":"90210"},{"Location":"MSFA 400 PLACE INC","Address":"400 Trousdale Pl","City":"Beverly Hills","State":"CA","Zip":"90210"},{"Location":"MULBERRY ST PIZZERIA","Address":"347 N Canon Dr","City":"Beverly Hills","State":"CA","Zip":"90210"},{"Location":"NATE N AL DELI","Address":"414 N Beverly Dr","City":"Beverly Hills","State":"CA","Zip":"90210"},{"Location":"NATGEO","Address":"407 N Maple Dr 101","City":"Beverly Hills","State":"CA","Zip":"90210"},{"Location":"NETFLIX","Address":"335 N Maple Dr 300","City":"Beverly Hills","State":"CA","Zip":"90210"},{"Location":"NEW INVESTMENT CORPORATION","Address":"250 N Canon Dr 3thfl","City":"Beverly Hills","State":"CA","Zip":"90210"},{"Location":"NEWS DIGITAL MEDIA","Address":"407 N Maple Dr","City":"Beverly Hills","State":"CA","Zip":"90210"},{"Location":"NIC'S RESTAURANT","Address":"453 N Canon Dr","City":"Beverly Hills","State":"CA","Zip":"90210"},{"Location":"NICHOLAS NIKOLOV%2C MD AMC","Address":"436 N Bedford Dr 207","City":"Beverly Hills","State":"CA","Zip":"90210"},{"Location":"NMS CAPITAL GROUP","Address":"433 N Camden Dr 4","City":"Beverly Hills","State":"CA","Zip":"90210"},{"Location":"NOTES ON A PLATE LLC","Address":"184 N Canon Dr","City":"Beverly Hills","State":"CA","Zip":"90210"},{"Location":"NSB ASSOCIATES INC","Address":"433 N Camden Dr 820","City":"Beverly Hills","State":"CA","Zip":"90210"},{"Location":"PAINTED WOMAN BY KAMECO","Address":"9607 Santa Monica Blvd","City":"Beverly Hills","State":"CA","Zip":"90210"},{"Location":"PALM BEVERLY HILLS REST LLC","Address":"267 N Canon Dr","City":"Beverly Hills","State":"CA","Zip":"90210"},{"Location":"PALM MERIDIAN REC ROOM","Address":"443 N Palm Dr","City":"Beverly Hills","State":"CA","Zip":"90210"},{"Location":"PANINI CAFE","Address":"9601 Santa Monica Blvd","City":"Beverly Hills","State":"CA","Zip":"90210"},{"Location":"PARTICIPANT MEDIA","Address":"331 Foothill Rd","City":"Beverly Hills","State":"CA","Zip":"90210"},{"Location":"PERFORMANCE STRENGTH","Address":"9346 Civic Center Dr 145","City":"Beverly Hills","State":"CA","Zip":"90210"},{"Location":"PLATINUM EQUITY","Address":"360 N Crescent Dr","City":"Beverly Hills","State":"CA","Zip":"90210"},{"Location":"PLAYBOY","Address":"9346 Civic Center Dr 2ndf","City":"Beverly Hills","State":"CA","Zip":"90210"},{"Location":"PORTA VIA","Address":"424 N Canon Dr","City":"Beverly Hills","State":"CA","Zip":"90210"},{"Location":"RAHT COMPANY","Address":"409 N Canon Dr","City":"Beverly Hills","State":"CA","Zip":"90210"},{"Location":"REAL ESTATE CONSIERGE","Address":"9409 Santa Monica Blvd","City":"Beverly Hills","State":"CA","Zip":"90210"},{"Location":"REALD","Address":"100 N Crescent Dr 120","City":"Beverly Hills","State":"CA","Zip":"90210"},{"Location":"RELATIVITY - EUROPA","Address":"9242 Beverly Blvd Suite","City":"Beverly Hills","State":"CA","Zip":"90210"},{"Location":"RELATIVITY MEDIA","Address":"9242 Beverly Blvd Suite","City":"Beverly Hills","State":"CA","Zip":"90210"},{"Location":"RELATIVITY MEDIA - INT.","Address":"345 N Maple Dr","City":"Beverly Hills","State":"CA","Zip":"90210"},{"Location":"RELATIVITY MEDIA - PROD","Address":"345 N Maple Dr","City":"Beverly Hills","State":"CA","Zip":"90210"},{"Location":"RELATIVITY MEDIA-SPORTS","Address":"345 N Maple Dr 205","City":"Beverly Hills","State":"CA","Zip":"90210"},{"Location":"ROBERT RIFKIN DDS","Address":"414 N Camden Dr","City":"Beverly Hills","State":"CA","Zip":"90210"},{"Location":"RODEO REALTY","Address":"202 N Canon Dr","City":"Beverly Hills","State":"CA","Zip":"90210"},{"Location":"SALON 90210","Address":"338 N Canon Dr 2","City":"Beverly Hills","State":"CA","Zip":"90210"},{"Location":"SAVONE","Address":"420 N Canon Dr","City":"Beverly Hills","State":"CA","Zip":"90210"},{"Location":"SC REPRODUCTIVE CENTER","Address":"450 N Roxbury Dr 750","City":"Beverly Hills","State":"CA","Zip":"90210"},{"Location":"SHARKEY'S WOODFIRED MEXICAN","Address":"435 N Beverly Dr","City":"Beverly Hills","State":"CA","Zip":"90210"},{"Location":"SHARYAR BARADARAN DDS","Address":"414 N Camden Dr","City":"Beverly Hills","State":"CA","Zip":"90210"},{"Location":"SMALL TALK SPEECH & LANGUAGE","Address":"415 N Crescent Dr 360","City":"Beverly Hills","State":"CA","Zip":"90210"},{"Location":"SPAGO BEVERLY HILLS","Address":"176 N Canon Dr","City":"Beverly Hills","State":"CA","Zip":"90210"},{"Location":"SPECIALTY SURGICAL CENTER","Address":"9675 Brighton Way 100","City":"Beverly Hills","State":"CA","Zip":"90210"},{"Location":"SSI INVESTMENT MANAGEMENT INC","Address":"9440 Santa Monica Blvd 8fl","City":"Beverly Hills","State":"CA","Zip":"90210"},{"Location":"STARPOINT PROPERTY MGMT","Address":"450 N Roxbury Dr 1050","City":"Beverly Hills","State":"CA","Zip":"90210"},{"Location":"STEFANIE PHELPS DDS","Address":"9400 Brighton Way","City":"Beverly Hills","State":"CA","Zip":"90210"},{"Location":"STEPHEN MASSMAN","Address":"361 N Canon Dr","City":"Beverly Hills","State":"CA","Zip":"90210"},{"Location":"STEVEN GOLDY DDS","Address":"416 N Bedford Dr","City":"Beverly Hills","State":"CA","Zip":"90210"},{"Location":"STOCKCROSS","Address":"190 N Canon Dr 421","City":"Beverly Hills","State":"CA","Zip":"90210"},{"Location":"SUMMITRIDGE PROPERTIES INC","Address":"2600 Summitridge Dr","City":"Beverly Hills","State":"CA","Zip":"90210"},{"Location":"SUMMITTRIDGE PROPERTIES INC","Address":"2600 Summittridge Dr Guest Ho","City":"Beverly Hills","State":"CA","Zip":"90210"},{"Location":"SUSHI YU MI","Address":"9475 Santa Monica Blvd","City":"Beverly Hills","State":"CA","Zip":"90210"},{"Location":"SUTTON PAKFAR & COURTNEY","Address":"450 N Roxbury Dr 700","City":"Beverly Hills","State":"CA","Zip":"90210"},{"Location":"TALENT ENTERTAINMENT GROUP","Address":"9111 Wilshire Blvd","City":"Beverly Hills","State":"CA","Zip":"90210"},{"Location":"THE 952 N ALPINE DR TRUST","Address":"952 N Alpine Dr","City":"Beverly Hills","State":"CA","Zip":"90210"},{"Location":"THE BEVERLY HILLS WOMENS CLUB","Address":"1700 Chevy Chase Dr","City":"Beverly Hills","State":"CA","Zip":"90210"},{"Location":"THE CHEESECAKE FACTORY 0001","Address":"364 N Beverly Dr","City":"Beverly Hills","State":"CA","Zip":"90210"},{"Location":"THE FARM OF BEVERLY HILL","Address":"439 N Beverly Dr","City":"Beverly Hills","State":"CA","Zip":"90210"},{"Location":"THE GOLD COMPANY","Address":"9440 Santa Monica Blvd 400","City":"Beverly Hills","State":"CA","Zip":"90210"},{"Location":"THE GRAND HAVANA ROOM","Address":"301 N Canon Dr","City":"Beverly Hills","State":"CA","Zip":"90210"},{"Location":"THE GRAND HAVANA ROOM2","Address":"301 N Canon Dr 215","City":"Beverly Hills","State":"CA","Zip":"90210"},{"Location":"THE GRILL ON THE ALLEY","Address":"9560 Dayton Way","City":"Beverly Hills","State":"CA","Zip":"90210"},{"Location":"THE KOPELSON CLINIC","Address":"414 N Camden Dr 640","City":"Beverly Hills","State":"CA","Zip":"90210"},{"Location":"THE NOSH OF BEVERLY HILLS","Address":"9689 Santa Monica Blvd","City":"Beverly Hills","State":"CA","Zip":"90210"},{"Location":"THE TERRASSE GROUP","Address":"447 N Doheny Dr","City":"Beverly Hills","State":"CA","Zip":"90210"},{"Location":"THE THINK TANK GROUP","Address":"13160 Mulholland Dr","City":"Beverly Hills","State":"CA","Zip":"90210"},{"Location":"THREE WISHES PRODUCTIONS 2","Address":"14143 Beresford Rd","City":"Beverly Hills","State":"CA","Zip":"90210"},{"Location":"THREE WISHES PRODUCTIONS INC","Address":"14143 Beresford Rd","City":"Beverly Hills","State":"CA","Zip":"90210"},{"Location":"TOPPINGTON PROPERTIES INC","Address":"3200 Toppington Dr","City":"Beverly Hills","State":"CA","Zip":"90210"},{"Location":"TRUE 90210%2C LLC","Address":"410 Trousdale Pl","City":"Beverly Hills","State":"CA","Zip":"90210"},{"Location":"UNITED TALENT AGENCY","Address":"9336 Civic Center Dr","City":"Beverly Hills","State":"CA","Zip":"90210"},{"Location":"UNITED TALENT AGENCY.","Address":"9336 Civic Center Dr","City":"Beverly Hills","State":"CA","Zip":"90210"},{"Location":"VIA ALLORO","Address":"301 N Canon Dr","City":"Beverly Hills","State":"CA","Zip":"90210"},{"Location":"WADDINGTON LAW","Address":"9615 Brighton Way 400","City":"Beverly Hills","State":"CA","Zip":"90210"},{"Location":"WELLS FARGO HOME MORTGAGE","Address":"433 N Camden Dr","City":"Beverly Hills","State":"CA","Zip":"90210"},{"Location":"WILLIAM MORRIS AGENCY","Address":"9601 Wilshire Blvd","City":"Beverly Hills","State":"CA","Zip":"90210"},{"Location":"WOLFGANG STEAKHOUSE","Address":"445 N Canon Dr","City":"Beverly Hills","State":"CA","Zip":"90210"},{"Location":"WONDER PRODUCTIONS INC","Address":"1330 Davies Dr","City":"Beverly Hills","State":"CA","Zip":"90210"},{"Location":"WOOD RIVER VENTURES LLC","Address":"301 N Canon Dr 206","City":"Beverly Hills","State":"CA","Zip":"90210"},{"Location":"WORLDVIEW TRAVEL -BH","Address":"9440 Santa Monica Blvd 600","City":"Beverly Hills","State":"CA","Zip":"90210"},{"Location":"AMERICAN MANAGEMENT CO.","Address":"9595 Wilshire Bl","City":"Los Angeles","State":"CA","Zip":"90210"}]