[{"Location":"449 S DOHENY DR LLC","Address":"449 S Doheny Dr","City":"Beverly Hills","State":"CA","Zip":"90211"},{"Location":"740 MANAGEMENT INC","Address":"8383 Wilshire Blvd 740","City":"Beverly Hills","State":"CA","Zip":"90211"},{"Location":"8200 WILSHIRE MANAGEMENT%2CLLC","Address":"8200 Wilshire Blvd 400","City":"Beverly Hills","State":"CA","Zip":"90211"},{"Location":"ACTV8INC","Address":"8750 Wilshire Blvd 301","City":"Beverly Hills","State":"CA","Zip":"90211"},{"Location":"AFFINITY HEALTHCARE","Address":"8670 Wilshire Blvd 206","City":"Beverly Hills","State":"CA","Zip":"90211"},{"Location":"AFFINITY HEALTHCARE LLC","Address":"8670 Wilshire Blvd 202","City":"Beverly Hills","State":"CA","Zip":"90211"},{"Location":"ALLOY DIGITAL","Address":"8750 Wilshire Blvd 200","City":"Beverly Hills","State":"CA","Zip":"90211"},{"Location":"AMPAS","Address":"8949 Wilshire Blvd","City":"Beverly Hills","State":"CA","Zip":"90211"},{"Location":"ANGEL HAIR BRAIDS","Address":"153 S Robertson Blvd","City":"Beverly Hills","State":"CA","Zip":"90211"},{"Location":"ANTIQUARIAN TRADERS","Address":"303 S Robertson Blvd","City":"Beverly Hills","State":"CA","Zip":"90211"},{"Location":"BETH JACOB CONGREGATION","Address":"9030 W Olympic Blvd","City":"Beverly Hills","State":"CA","Zip":"90211"},{"Location":"BEVERLEY HILLS MEDICAL PLAZA","Address":"150 N Robertson Blvd 320","City":"Beverly Hills","State":"CA","Zip":"90211"},{"Location":"BOGART BUSINESS MGMT","Address":"8383 Wilshire Blvd 225","City":"Beverly Hills","State":"CA","Zip":"90211"},{"Location":"CASTLE & ASSOCIATES","Address":"8383 Wilshire Blvd 810","City":"Beverly Hills","State":"CA","Zip":"90211"},{"Location":"CEDARS-SINAI MEDICAL CENTER HR","Address":"8700 Beverly Blvd 50 N 350","City":"Beverly Hills","State":"CA","Zip":"90211"},{"Location":"CHAKRA INDIAN CUISINE 1","Address":"151 S Doheny Dr","City":"Beverly Hills","State":"CA","Zip":"90211"},{"Location":"CONSULATE OF COLOMBIA","Address":"8383 Wilshire Blvd 420","City":"Beverly Hills","State":"CA","Zip":"90211"},{"Location":"CONTEMPO NAILS","Address":"333 S Robertson Blvd","City":"Beverly Hills","State":"CA","Zip":"90211"},{"Location":"COOL LAVA ENTERTAINMENT","Address":"8383 Wilshire Blvd 412","City":"Beverly Hills","State":"CA","Zip":"90211"},{"Location":"DAVITA #663 BEVERLY HILLS","Address":"50 N La Cienega Blvd","City":"Beverly Hills","State":"CA","Zip":"90211"},{"Location":"DECKSTAR","Address":"8671 Wilshire Blvd 500","City":"Beverly Hills","State":"CA","Zip":"90211"},{"Location":"DOUGLAS EMMETT 2008","Address":"8383 Wilshire Blvd 340","City":"Beverly Hills","State":"CA","Zip":"90211"},{"Location":"FAIRBANKS CENTER","Address":"333 S La Cienega Blvd","City":"Beverly Hills","State":"CA","Zip":"90211"},{"Location":"FOGO DE CHAO B H","Address":"133 N La Cienega Blvd","City":"Beverly Hills","State":"CA","Zip":"90211"},{"Location":"FREEMARK FINANCIAL","Address":"8383 Wilshire Blvd 1000","City":"Beverly Hills","State":"CA","Zip":"90211"},{"Location":"GARY S TAKOWSKY MD","Address":"8500 Wilshire Blvd 630","City":"Beverly Hills","State":"CA","Zip":"90211"},{"Location":"GELFAND AND GELFAND","Address":"161 S Doheny Dr","City":"Beverly Hills","State":"CA","Zip":"90211"},{"Location":"GEORGE FURLA","Address":"8200 Wilshire Blvd","City":"Beverly Hills","State":"CA","Zip":"90211"},{"Location":"GLENN MARSHAK MD INC","Address":"8670 Wilshire Blvd 301","City":"Beverly Hills","State":"CA","Zip":"90211"},{"Location":"GOLDEN STATE BONE CLINIC","Address":"9033 Wilshire Blvd 403","City":"Beverly Hills","State":"CA","Zip":"90211"},{"Location":"H LEON BROOKS MD","Address":"8670 Wilshire Blvd","City":"Beverly Hills","State":"CA","Zip":"90211"},{"Location":"IL CIELO","Address":"9018 Burton Way","City":"Beverly Hills","State":"CA","Zip":"90211"},{"Location":"JA-TAIL","Address":"8383 Wilshire Blvd 412","City":"Beverly Hills","State":"CA","Zip":"90211"},{"Location":"JB TALENT","Address":"8909 W Olympic Blvd 206","City":"Beverly Hills","State":"CA","Zip":"90211"},{"Location":"KAPLAN STAHLER GUMER AGENCY","Address":"8383 Wilshire Blvd 923","City":"Beverly Hills","State":"CA","Zip":"90211"},{"Location":"KECK MEDICAL CENTER","Address":"9033 Wilshire Blvd 305","City":"Beverly Hills","State":"CA","Zip":"90211"},{"Location":"KECK MEDICAL CENTER","Address":"9033 Wilshire Blvd 360","City":"Beverly Hills","State":"CA","Zip":"90211"},{"Location":"KECK MEDICAL CNTR 400","Address":"9033 Wilshire Blvd 400","City":"Beverly Hills","State":"CA","Zip":"90211"},{"Location":"KECK MEDICAL CTR - 406","Address":"9033 Wilshire Blvd 406","City":"Beverly Hills","State":"CA","Zip":"90211"},{"Location":"KENNETH MICHAEL'S","Address":"8840 W Olympic Blvd","City":"Beverly Hills","State":"CA","Zip":"90211"},{"Location":"LAURA OF BEVERLY HILLS","Address":"8320 Wilshire Blvd","City":"Beverly Hills","State":"CA","Zip":"90211"},{"Location":"LAW OFFICES OF JEFFREY W","Address":"8383 Wilshire Blvd 446","City":"Beverly Hills","State":"CA","Zip":"90211"},{"Location":"LAW OFFICES OF PETER NWOSU","Address":"8383 Wilshire Blvd 845","City":"Beverly Hills","State":"CA","Zip":"90211"},{"Location":"LEVITT AND LEICHENGER","Address":"8383 Wilshire Blvd 970","City":"Beverly Hills","State":"CA","Zip":"90211"},{"Location":"LINKTECH WORLDWIDE","Address":"8484 Wilshire Blvd 630","City":"Beverly Hills","State":"CA","Zip":"90211"},{"Location":"MANSOURI LAW OFFICES","Address":"8383 Wilshire Blvd 840","City":"Beverly Hills","State":"CA","Zip":"90211"},{"Location":"MARK I BRENNER BOOKKEEPING","Address":"8383 Wilshire Blvd 435","City":"Beverly Hills","State":"CA","Zip":"90211"},{"Location":"MATSUHISA RESTAURANT","Address":"129 N La Cienega Blvd","City":"Beverly Hills","State":"CA","Zip":"90211"},{"Location":"MIDWAY CAR RENTAL","Address":"8931 Wilshire Blvd","City":"Beverly Hills","State":"CA","Zip":"90211"},{"Location":"MOB SCENE","Address":"8447 Wilshire Blvd 3","City":"Beverly Hills","State":"CA","Zip":"90211"},{"Location":"NIRVANA","Address":"8689 Wilshire Blvd","City":"Beverly Hills","State":"CA","Zip":"90211"},{"Location":"OGARA COACH CO","Address":"121 S Robertson Blvd","City":"Beverly Hills","State":"CA","Zip":"90211"},{"Location":"PHILIP KAUFER","Address":"8383 Wilshire Blvd 830","City":"Beverly Hills","State":"CA","Zip":"90211"},{"Location":"PHILIPPE CHOW","Address":"8620 Wilshire Blvd","City":"Beverly Hills","State":"CA","Zip":"90211"},{"Location":"PRODUCERS GUILD OF AMERICA","Address":"8530 Wilshire Blvd 450","City":"Beverly Hills","State":"CA","Zip":"90211"},{"Location":"PRODUCT PARTNERS LLC","Address":"8383 Wilshire Blvd 1050","City":"Beverly Hills","State":"CA","Zip":"90211"},{"Location":"ROUSE ASSET SERVICES","Address":"8383 Wilshire Blvd 900","City":"Beverly Hills","State":"CA","Zip":"90211"},{"Location":"SHALES JEWELRY","Address":"355 S Robertson Blvd","City":"Beverly Hills","State":"CA","Zip":"90211"},{"Location":"SHAPELL PROPERTIES%2C INC","Address":"8383 Wilshire Blvd 700","City":"Beverly Hills","State":"CA","Zip":"90211"},{"Location":"SPECIALTY SURGICAL CENTER LLC","Address":"8670 Wilshire Blvd 300","City":"Beverly Hills","State":"CA","Zip":"90211"},{"Location":"SPICE AFFAIR LLC 2","Address":"50 N La Cienega Blvd 120","City":"Beverly Hills","State":"CA","Zip":"90211"},{"Location":"STAR STUDDED","Address":"221 N Robertson Blvd B","City":"Beverly Hills","State":"CA","Zip":"90211"},{"Location":"TAKANO","Address":"9008 Wilshire Blvd","City":"Beverly Hills","State":"CA","Zip":"90211"},{"Location":"THAI BOOM RESTAURANT 2","Address":"281 S Robertson Blvd","City":"Beverly Hills","State":"CA","Zip":"90211"},{"Location":"THE AUTO GALLERY","Address":"9022 Wilshire Blvd","City":"Beverly Hills","State":"CA","Zip":"90211"},{"Location":"THE COLLECTIVE","Address":"8383 Wilshire Blvd 1050","City":"Beverly Hills","State":"CA","Zip":"90211"},{"Location":"THE HILL","Address":"8442 Wilshire Blvd","City":"Beverly Hills","State":"CA","Zip":"90211"},{"Location":"THE SHAPIRO LAW FIRM","Address":"212 S Gale Dr","City":"Beverly Hills","State":"CA","Zip":"90211"},{"Location":"TRIMANA RESTAURANT","Address":"8383 Wilshire Blvd 110","City":"Beverly Hills","State":"CA","Zip":"90211"},{"Location":"UMBERTO CORP","Address":"8840 W Olympic Blvd","City":"Beverly Hills","State":"CA","Zip":"90211"},{"Location":"US MERCHANTS","Address":"8737 Wilshire Blvd","City":"Beverly Hills","State":"CA","Zip":"90211"},{"Location":"USC- NORMAN LEAR CENTER","Address":"8383 Wilshire Blvd S650","City":"Beverly Hills","State":"CA","Zip":"90211"},{"Location":"VIEW  POINT","Address":"8820 Wilshire Blvd 220","City":"Beverly Hills","State":"CA","Zip":"90211"},{"Location":"WESTSIDE MEDICAL ASSOCIATES","Address":"99 N La Cienega Blvd","City":"Beverly Hills","State":"CA","Zip":"90211"},{"Location":"ZOOM CELLULAR","Address":"8326 Wilshire Blvd","City":"Beverly Hills","State":"CA","Zip":"90211"}]