[{"Location":"3 ARTS ENTERTAINMENT","Address":"9460 Wilshire Blvd 7","City":"Beverly Hills","State":"CA","Zip":"90212"},{"Location":"462 N LINDEN LOBBY","Address":"462 N Linden Dr","City":"Beverly Hills","State":"CA","Zip":"90212"},{"Location":"%3B2CTORS OUTPATIENT CENTER SURG","Address":"120 S Spalding Dr St100","City":"Beverly Hills","State":"CA","Zip":"90212"},{"Location":"AGENCY FOR THE PERFORMING ARTS","Address":"405 S Beverly Dr","City":"Beverly Hills","State":"CA","Zip":"90212"},{"Location":"AIDIKOFF & UHL","Address":"9454 Wilshire Blvd 303","City":"Beverly Hills","State":"CA","Zip":"90212"},{"Location":"ALTIERI FINE WATCHES","Address":"238 1%2F2 S Beverly Dr","City":"Beverly Hills","State":"CA","Zip":"90212"},{"Location":"ANDALISIA THERAPY CENTER","Address":"9135 W Olympic Blvd","City":"Beverly Hills","State":"CA","Zip":"90212"},{"Location":"ANNE MICHELLE","Address":"181 S Beverly Dr","City":"Beverly Hills","State":"CA","Zip":"90212"},{"Location":"APA  INC","Address":"417 S Beverly Dr","City":"Beverly Hills","State":"CA","Zip":"90212"},{"Location":"ARCHER CAPITAL MNGMT.","Address":"9465 Wilshire Blvd 850","City":"Beverly Hills","State":"CA","Zip":"90212"},{"Location":"BANAFESH DANESH  & JAVID","Address":"9454 Wilshire Blvd 900","City":"Beverly Hills","State":"CA","Zip":"90212"},{"Location":"BANC OF CALIFORNIA","Address":"9595 Wilshire Blvd 711","City":"Beverly Hills","State":"CA","Zip":"90212"},{"Location":"BANK OF MANHATTAN","Address":"9401 Wilshire Blvd 602","City":"Beverly Hills","State":"CA","Zip":"90212"},{"Location":"BANK OF THE WEST","Address":"9401 Wilshire Blvd 100","City":"Beverly Hills","State":"CA","Zip":"90212"},{"Location":"BASH GESAS & COMPANY","Address":"9401 Wilshire Blvd 700","City":"Beverly Hills","State":"CA","Zip":"90212"},{"Location":"BEE KEEPERS APPRENTICES","Address":"442a S Roxbury Dr","City":"Beverly Hills","State":"CA","Zip":"90212"},{"Location":"BEHR ABRAMSON KALLER","Address":"9701 Wilshire Blvd 800","City":"Beverly Hills","State":"CA","Zip":"90212"},{"Location":"BEHREND","Address":"9777 Wilshire Blvd 804","City":"Beverly Hills","State":"CA","Zip":"90212"},{"Location":"BEN - COHEN LAWYERS PLC","Address":"9401 Wilshire Blvd 550","City":"Beverly Hills","State":"CA","Zip":"90212"},{"Location":"BEVERLY HILL HAIR","Address":"328 S Beverly Dr D","City":"Beverly Hills","State":"CA","Zip":"90212"},{"Location":"BEVERLY HILLS BAR ASSOC","Address":"9420 Wilshire Blvd 2","City":"Beverly Hills","State":"CA","Zip":"90212"},{"Location":"BEVERLY HILLS GATEWAY LP","Address":"9777 Wilshire Blvd 815","City":"Beverly Hills","State":"CA","Zip":"90212"},{"Location":"BEVERLY HILLS INTERGRATED","Address":"9231 W Olympic Blvd","City":"Beverly Hills","State":"CA","Zip":"90212"},{"Location":"BEVERLY HILLS ORTHOPEDIC GP","Address":"120 S Spalding Dr 401","City":"Beverly Hills","State":"CA","Zip":"90212"},{"Location":"BEVERLY HILLS PROPERTIES","Address":"9441 Wilshire Blvd","City":"Beverly Hills","State":"CA","Zip":"90212"},{"Location":"BEVERLY HILLS SPORTS COUNCIL","Address":"131 S Rodeo Dr 100","City":"Beverly Hills","State":"CA","Zip":"90212"},{"Location":"BEVERLY HILLS WEALTH MNG","Address":"9454 Wilshire Blvd 710","City":"Beverly Hills","State":"CA","Zip":"90212"},{"Location":"BIG SHOPPING CENTERS USA","Address":"9378 Wilshire Blvd 300","City":"Beverly Hills","State":"CA","Zip":"90212"},{"Location":"BK CAPITAL","Address":"9595 Wilshire Blvd 411","City":"Beverly Hills","State":"CA","Zip":"90212"},{"Location":"BOWMAN MEDICAL GROUP","Address":"9777 Wilshire Blvd 707","City":"Beverly Hills","State":"CA","Zip":"90212"},{"Location":"BRAJITSU INC","Address":"324 S Beverly Dr 2fl","City":"Beverly Hills","State":"CA","Zip":"90212"},{"Location":"BRILLSTEIN ENTERTAINMENT PART.","Address":"9150 Wilshire Blvd 350","City":"Beverly Hills","State":"CA","Zip":"90212"},{"Location":"BROADWAY VIDEO","Address":"9401 Wilshire Blvd","City":"Beverly Hills","State":"CA","Zip":"90212"},{"Location":"CAPRIOTTI'S STORE","Address":"9683 Wilshire Blvd","City":"Beverly Hills","State":"CA","Zip":"90212"},{"Location":"CARLYLE FINANCIAL","Address":"9454 Wilshire Blvd 820","City":"Beverly Hills","State":"CA","Zip":"90212"},{"Location":"CARO HAIR DESIGN","Address":"328 S Beverly Dr E","City":"Beverly Hills","State":"CA","Zip":"90212"},{"Location":"CAROLE BOAG CO INC","Address":"9454 Wilshire Blvd M16","City":"Beverly Hills","State":"CA","Zip":"90212"},{"Location":"COHEN FINANCIAL GROUP","Address":"9595 Wilshire Blvd 801","City":"Beverly Hills","State":"CA","Zip":"90212"},{"Location":"CONTROL ROOM","Address":"315 S Beverly Dr Ph","City":"Beverly Hills","State":"CA","Zip":"90212"},{"Location":"CREATIVE MANAGEMENT P","Address":"280 S Beverly Dr","City":"Beverly Hills","State":"CA","Zip":"90212"},{"Location":"DANIS PANARO AND NIST","Address":"9201 W Olympic Blvd","City":"Beverly Hills","State":"CA","Zip":"90212"},{"Location":"DELTA HOME LOANS","Address":"9454 Wilshire Blvd 825","City":"Beverly Hills","State":"CA","Zip":"90212"},{"Location":"DIAMOND AND GOLD EXCHANGE","Address":"170 S Beverly Dr 310","City":"Beverly Hills","State":"CA","Zip":"90212"},{"Location":"DIRTY BIRD PRODUCTIONS","Address":"9952 Santa Monica Blvd 100","City":"Beverly Hills","State":"CA","Zip":"90212"},{"Location":"DOHENY ENTERPRISES","Address":"350 S Beverly Dr 330","City":"Beverly Hills","State":"CA","Zip":"90212"},{"Location":"DOMINO REALTY","Address":"9990 Santa Monica Blvd","City":"Beverly Hills","State":"CA","Zip":"90212"},{"Location":"DR BRAD PENENBERG","Address":"120 S Spalding Dr","City":"Beverly Hills","State":"CA","Zip":"90212"},{"Location":"DR DAVID FREY","Address":"9725 Wilshire Blvd 414","City":"Beverly Hills","State":"CA","Zip":"90212"},{"Location":"DR. E. BERCOVITCH","Address":"9725 Wilshire Blvd 404","City":"Beverly Hills","State":"CA","Zip":"90212"},{"Location":"DR. READING","Address":"462 N Linden Dr","City":"Beverly Hills","State":"CA","Zip":"90212"},{"Location":"EBERSOL LANIGAN COMPANY","Address":"9150 Wilshire Blvd 100","City":"Beverly Hills","State":"CA","Zip":"90212"},{"Location":"ELLIOT MEGDAL AND ASSOCIATES","Address":"252 S Beverly Dr C","City":"Beverly Hills","State":"CA","Zip":"90212"},{"Location":"ENDEAVOR AGENCY","Address":"9560 Wilshire Blvd 400","City":"Beverly Hills","State":"CA","Zip":"90212"},{"Location":"ENDEAVOR AGENCY #3","Address":"9595 Wilshire Blvd 3","City":"Beverly Hills","State":"CA","Zip":"90212"},{"Location":"ENTERTAINMENT ONE","Address":"9465 Wilshire Blvd 500","City":"Beverly Hills","State":"CA","Zip":"90212"},{"Location":"EONE","Address":"9465 Wilshire Blvd 865","City":"Beverly Hills","State":"CA","Zip":"90212"},{"Location":"EQUITABLE PORTFOLIO CORP","Address":"410 S Beverly Dr","City":"Beverly Hills","State":"CA","Zip":"90212"},{"Location":"EQUITY OFFICE","Address":"9665 Wilshire Blvd","City":"Beverly Hills","State":"CA","Zip":"90212"},{"Location":"ERVIN%2C COHEN AND JESSUP","Address":"9401 Wilshire Blvd 9","City":"Beverly Hills","State":"CA","Zip":"90212"},{"Location":"FAZIO CLEANERS","Address":"9260 W Olympic Blvd","City":"Beverly Hills","State":"CA","Zip":"90212"},{"Location":"FIRST PACTRUST BANCORP","Address":"9595 Wilshire Blvd 304","City":"Beverly Hills","State":"CA","Zip":"90212"},{"Location":"FIRST PROPERTY REALTY CORP","Address":"350 S Beverly Dr 340","City":"Beverly Hills","State":"CA","Zip":"90212"},{"Location":"FIRST REPUBLLIC BANK","Address":"9593 Wilshore Blvd","City":"Beverly Hills","State":"CA","Zip":"90212"},{"Location":"FISHER & WOLFE LLP","Address":"9401 9401 Wilshire Blvd 640","City":"Beverly Hills","State":"CA","Zip":"90212"},{"Location":"FISHER LAW LTD","Address":"9777 Wilshire Blvd 1000","City":"Beverly Hills","State":"CA","Zip":"90212"},{"Location":"FLAX AND ROSENFIELD ADVI","Address":"9454 Wilshire Blvd 715","City":"Beverly Hills","State":"CA","Zip":"90212"},{"Location":"FRESH BROTHERS","Address":"250 S Beverly Dr","City":"Beverly Hills","State":"CA","Zip":"90212"},{"Location":"FRIEDMAN & ASSOCIATES","Address":"9665 Wilshire Blvd 810","City":"Beverly Hills","State":"CA","Zip":"90212"},{"Location":"GIDDEN MEDIA","Address":"400 S Beverly Dr 310","City":"Beverly Hills","State":"CA","Zip":"90212"},{"Location":"GOLDZONE LLC","Address":"9595 Wilshire Blvd 200","City":"Beverly Hills","State":"CA","Zip":"90212"},{"Location":"GOOD UNIVERSE","Address":"9777 Wilshire Blvd 400","City":"Beverly Hills","State":"CA","Zip":"90212"},{"Location":"GRANT TANI BARASH AND ALTMAN","Address":"9100 Wilshire Blvd 10fl","City":"Beverly Hills","State":"CA","Zip":"90212"},{"Location":"GUTMAN LAW","Address":"9401 Wilshire Blvd 575","City":"Beverly Hills","State":"CA","Zip":"90212"},{"Location":"H LESLIE LEVINE","Address":"120 S Spalding Dr 201","City":"Beverly Hills","State":"CA","Zip":"90212"},{"Location":"HAIR STYLES FOR MEN","Address":"118 S Beverly Dr 209","City":"Beverly Hills","State":"CA","Zip":"90212"},{"Location":"HOUSE OF TAILORING","Address":"171 S Beverly Dr","City":"Beverly Hills","State":"CA","Zip":"90212"},{"Location":"IMAGINE","Address":"9465 Wilshire Blvd 700","City":"Beverly Hills","State":"CA","Zip":"90212"},{"Location":"INSOMNIAC HOLDINGS LLC","Address":"9441 W Olympic Blvd","City":"Beverly Hills","State":"CA","Zip":"90212"},{"Location":"JENNY WILLIAMS GRUSKA","Address":"462 N Linden Dr 247","City":"Beverly Hills","State":"CA","Zip":"90212"},{"Location":"JERSEY MIKE'S 20034","Address":"279 S Beverly Dr","City":"Beverly Hills","State":"CA","Zip":"90212"},{"Location":"JOEL L STROM DDS","Address":"350 S Beverly Dr 180","City":"Beverly Hills","State":"CA","Zip":"90212"},{"Location":"JOHN ALLANS","Address":"9634 Wilshire Blvd Level","City":"Beverly Hills","State":"CA","Zip":"90212"},{"Location":"JOHNATHAN KERMANI","Address":"9454 Wilshire Blvd 525","City":"Beverly Hills","State":"CA","Zip":"90212"},{"Location":"JSH HOLDINGS","Address":"9454 Wilshire Blvd 6","City":"Beverly Hills","State":"CA","Zip":"90212"},{"Location":"KAUTZMAN ALLIANCE LLC","Address":"315 S Beverly Dr 508","City":"Beverly Hills","State":"CA","Zip":"90212"},{"Location":"KEDRICK CERRY%2C INC","Address":"9595 Wilshire Blvd 200","City":"Beverly Hills","State":"CA","Zip":"90212"},{"Location":"KENDALL FROZEN FRUITS","Address":"9777 Wilshire Blvd 818","City":"Beverly Hills","State":"CA","Zip":"90212"},{"Location":"KENNETH M YATES","Address":"9735 Wilshire Blvd 200","City":"Beverly Hills","State":"CA","Zip":"90212"},{"Location":"KRUPIN PARTNERS LLC","Address":"9665 Wilshire Blvd 430","City":"Beverly Hills","State":"CA","Zip":"90212"},{"Location":"LA FITNESS #06144","Address":"9100 Wilshire Blvd 100","City":"Beverly Hills","State":"CA","Zip":"90212"},{"Location":"LA RELMONT  MANAGEMENT","Address":"144 S Beverly Dr 304","City":"Beverly Hills","State":"CA","Zip":"90212"},{"Location":"LATIN WORL ENT.","Address":"9777 Wilshire Blvd 811","City":"Beverly Hills","State":"CA","Zip":"90212"},{"Location":"LAW OFFICES RODERICK LINDBLOM","Address":"9777 Wilshire Blvd","City":"Beverly Hills","State":"CA","Zip":"90212"},{"Location":"LEGION PARTNERS ASST MGMT","Address":"9401 Wilshire Blvd 705","City":"Beverly Hills","State":"CA","Zip":"90212"},{"Location":"LEONARD DICKER SHRIEBER","Address":"9430 W Olympic Blvd","City":"Beverly Hills","State":"CA","Zip":"90212"},{"Location":"LEVINE & UNGER","Address":"9454 Wilshire Blvd Ph","City":"Beverly Hills","State":"CA","Zip":"90212"},{"Location":"LOURD CAPITAL LLC","Address":"9777 Wilshire Blvd","City":"Beverly Hills","State":"CA","Zip":"90212"},{"Location":"LUXURY JEWELS OF BEVERLY HILLS","Address":"203 S Beverly Dr","City":"Beverly Hills","State":"CA","Zip":"90212"},{"Location":"MALIBU CLOTHES","Address":"259 S Beverly Dr","City":"Beverly Hills","State":"CA","Zip":"90212"},{"Location":"MAPLETON INVESTMENTS","Address":"9952 Santa Monica Blvd","City":"Beverly Hills","State":"CA","Zip":"90212"},{"Location":"MARCIANO COMPANIES","Address":"144 S Beverly Dr 600","City":"Beverly Hills","State":"CA","Zip":"90212"},{"Location":"MARDER AND FREEDMAN","Address":"118 S Beverly Dr 217","City":"Beverly Hills","State":"CA","Zip":"90212"},{"Location":"MARK MML","Address":"120 El Camino Dr","City":"Beverly Hills","State":"CA","Zip":"90212"},{"Location":"MARKS LAW GROUP","Address":"144 S Beverly Dr 300","City":"Beverly Hills","State":"CA","Zip":"90212"},{"Location":"MB ESCROW INC","Address":"9454 Wilshire Blvd 901","City":"Beverly Hills","State":"CA","Zip":"90212"},{"Location":"MCCOURT GROUP LLC","Address":"9420 Wilshire Blvd 300","City":"Beverly Hills","State":"CA","Zip":"90212"},{"Location":"MEDIA RIGHTS","Address":"9665 Wilshire Blvd 2ndfl","City":"Beverly Hills","State":"CA","Zip":"90212"},{"Location":"MEDICAL BUILDINGS LLC","Address":"9735 Wilshire Blvd 416","City":"Beverly Hills","State":"CA","Zip":"90212"},{"Location":"MERRILL LYNCH CA9-802-08-00","Address":"9595 Wilshire Blvd 800","City":"Beverly Hills","State":"CA","Zip":"90212"},{"Location":"MICHAEL SHOEMAN","Address":"9889 Santa Monica Blvd 204","City":"Beverly Hills","State":"CA","Zip":"90212"},{"Location":"MOZAIC LLC","Address":"9401 Wilshire Blvd 525","City":"Beverly Hills","State":"CA","Zip":"90212"},{"Location":"MULBERRY STREET PIZZA","Address":"240 S Beverly Dr","City":"Beverly Hills","State":"CA","Zip":"90212"},{"Location":"NAGAFER","Address":"462 N Linden Dr 248","City":"Beverly Hills","State":"CA","Zip":"90212"},{"Location":"NAIL PARADISE","Address":"9121 W Olympic Blvd","City":"Beverly Hills","State":"CA","Zip":"90212"},{"Location":"NATHAN CATER","Address":"9595 Wilshire Blvd 801","City":"Beverly Hills","State":"CA","Zip":"90212"},{"Location":"NEIMAN MARCUS 1010","Address":"9700 Wilshire Blvd","City":"Beverly Hills","State":"CA","Zip":"90212"},{"Location":"NESSAH SYNAGOGUE","Address":"142 S Rexford Dr","City":"Beverly Hills","State":"CA","Zip":"90212"},{"Location":"NEW AMERICAN FUNDING","Address":"9465 Wilshire Blvd 400","City":"Beverly Hills","State":"CA","Zip":"90212"},{"Location":"NOAH D ROSENBERG","Address":"9454 Wilshire Blvd 800","City":"Beverly Hills","State":"CA","Zip":"90212"},{"Location":"NSBN & CO","Address":"9454 Wilshire Blvd","City":"Beverly Hills","State":"CA","Zip":"90212"},{"Location":"OCEAN PRIME BEVERLY HILLS","Address":"9595 Wilshire Blvd","City":"Beverly Hills","State":"CA","Zip":"90212"},{"Location":"OPES CAPITAL","Address":"9454 Wilshire Blvd 804","City":"Beverly Hills","State":"CA","Zip":"90212"},{"Location":"ORAL CARE DINTISTRY","Address":"9454 Wilshire Blvd 315","City":"Beverly Hills","State":"CA","Zip":"90212"},{"Location":"PACIFIC WESTERN BANK","Address":"9320 Wilshire Blvd","City":"Beverly Hills","State":"CA","Zip":"90212"},{"Location":"PANORAMA","Address":"9536 Wilshire Blvd 206","City":"Beverly Hills","State":"CA","Zip":"90212"},{"Location":"PARALLEL ENTERTAINMENT","Address":"9420 Wilshire Blvd 250","City":"Beverly Hills","State":"CA","Zip":"90212"},{"Location":"PELES PROPERTIES","Address":"9470 Wilshire Blvd 120","City":"Beverly Hills","State":"CA","Zip":"90212"},{"Location":"PERLMAN & ASSOC","Address":"9454 Wilshire Blvd 500","City":"Beverly Hills","State":"CA","Zip":"90212"},{"Location":"PHARMACY 90210 INC","Address":"9735 Wilshire Blvd 110","City":"Beverly Hills","State":"CA","Zip":"90212"},{"Location":"PICCOLO PARADISO","Address":"150 S Beverly Dr","City":"Beverly Hills","State":"CA","Zip":"90212"},{"Location":"PRECISION FINANCIAL SVCQ","Address":"9454 Wilshire Blvd 902","City":"Beverly Hills","State":"CA","Zip":"90212"},{"Location":"PRESSER DIRECT LLC","Address":"226 S Beverly Dr 225","City":"Beverly Hills","State":"CA","Zip":"90212"},{"Location":"PRESTIGE TALENT","Address":"9250 Wilshire Blvd 208","City":"Beverly Hills","State":"CA","Zip":"90212"},{"Location":"PRINCIPAL MEDIA","Address":"9378 Wilshire Blvd 320","City":"Beverly Hills","State":"CA","Zip":"90212"},{"Location":"PRINCIPATO & YOUNG","Address":"9465 Wilshire Blvd 900","City":"Beverly Hills","State":"CA","Zip":"90212"},{"Location":"PRINCIPATO YOUNG ENT","Address":"9465 Wilshire Blvd 430","City":"Beverly Hills","State":"CA","Zip":"90212"},{"Location":"PROSPECT GLOBAL RESOURCE","Address":"9595 Wilshire Blvd 310","City":"Beverly Hills","State":"CA","Zip":"90212"},{"Location":"RANGER GLOBAL ADVISORS%2C LLC","Address":"9465 Wilshire Blvd Ph","City":"Beverly Hills","State":"CA","Zip":"90212"},{"Location":"RBC WEALTH MANAGEMENT","Address":"9665 Wilshire Blvd 3","City":"Beverly Hills","State":"CA","Zip":"90212"},{"Location":"RESOLUTION ECONOMIC LLC","Address":"9777 Wilshire Blvd 600","City":"Beverly Hills","State":"CA","Zip":"90212"},{"Location":"RIZVI TRAVERSE","Address":"9465 Wilshire Blvd 840","City":"Beverly Hills","State":"CA","Zip":"90212"},{"Location":"ROAR LLC","Address":"9701 Wilshire Blvd 850","City":"Beverly Hills","State":"CA","Zip":"90212"},{"Location":"ROBERT GREENLY","Address":"9454 Wilshire Blvd 601","City":"Beverly Hills","State":"CA","Zip":"90212"},{"Location":"ROCHFORD CHIROPRACTIC CLINIC","Address":"9401 Wilshire Blvd 545","City":"Beverly Hills","State":"CA","Zip":"90212"},{"Location":"ROLEX WATCH SERVICE CENTER","Address":"9420 Wilshire Blvd","City":"Beverly Hills","State":"CA","Zip":"90212"},{"Location":"RONIS DINER","Address":"9911 Santa Monica Blvd","City":"Beverly Hills","State":"CA","Zip":"90212"},{"Location":"ROSEN SABA LLP","Address":"9350 Wilshire Blvd 250","City":"Beverly Hills","State":"CA","Zip":"90212"},{"Location":"ROSTOVSKY WATCHES INC","Address":"9454 Wilshire Blvd 204","City":"Beverly Hills","State":"CA","Zip":"90212"},{"Location":"RUTH CHRIS STEAKHOUSE","Address":"224 S Beverly Dr","City":"Beverly Hills","State":"CA","Zip":"90212"},{"Location":"SAKS FIFTH AVE","Address":"9600 Wilshire Blvd","City":"Beverly Hills","State":"CA","Zip":"90212"},{"Location":"SARAH JEONG LAW CORP","Address":"9150 Wilshire Blvd 210","City":"Beverly Hills","State":"CA","Zip":"90212"},{"Location":"SIDE BAR","Address":"9500 Wilshire Blvd","City":"Beverly Hills","State":"CA","Zip":"90212"},{"Location":"SIERRA AFFINITY","Address":"9378 Wilshire Blvd 210","City":"Beverly Hills","State":"CA","Zip":"90212"},{"Location":"SILVER LINING ENTERTAINMENT","Address":"421 S Beverly Dr","City":"Beverly Hills","State":"CA","Zip":"90212"},{"Location":"SILVER NAILS","Address":"9178 W Olympic Blvd","City":"Beverly Hills","State":"CA","Zip":"90212"},{"Location":"SIX FOUR THREE","Address":"9595 Wilshire Blvd 510","City":"Beverly Hills","State":"CA","Zip":"90212"},{"Location":"SMITH BARNEY 100197","Address":"9665 Wilshire Blvd 600","City":"Beverly Hills","State":"CA","Zip":"90212"},{"Location":"SONY MUSIC","Address":"9830 Wilshire Blvd 10","City":"Beverly Hills","State":"CA","Zip":"90212"},{"Location":"SOUTH BEVERLY GRILL","Address":"122 S Beverly Dr","City":"Beverly Hills","State":"CA","Zip":"90212"},{"Location":"SPALDING DRIVE COSMETIC","Address":"120 S Spalding Dr 315","City":"Beverly Hills","State":"CA","Zip":"90212"},{"Location":"STOCK CROSS","Address":"9464 Wilshire Blvd","City":"Beverly Hills","State":"CA","Zip":"90212"},{"Location":"STONE MYER GENOW SMELKINSON","Address":"9665 Wilshire Blvd 5","City":"Beverly Hills","State":"CA","Zip":"90212"},{"Location":"SURETY FINANCIAL","Address":"350 S Beverly Dr 350","City":"Beverly Hills","State":"CA","Zip":"90212"},{"Location":"TAX AND BUSINESS CSLTN","Address":"9401 Wilshire Blvd 500","City":"Beverly Hills","State":"CA","Zip":"90212"},{"Location":"TD AMERITRADE #05057","Address":"9757 Wilshire Blvd","City":"Beverly Hills","State":"CA","Zip":"90212"},{"Location":"THE   SHAVE","Address":"230 S Beverly Dr","City":"Beverly Hills","State":"CA","Zip":"90212"},{"Location":"THE BLVD","Address":"9500 Wilshire Blvd","City":"Beverly Hills","State":"CA","Zip":"90212"},{"Location":"THE CABBAGE PATCH","Address":"214 S Beverly Dr","City":"Beverly Hills","State":"CA","Zip":"90212"},{"Location":"THE DONNER'S CO","Address":"9350 Wilshire Blvd 302","City":"Beverly Hills","State":"CA","Zip":"90212"},{"Location":"THE GERSH AGENCY INC #1","Address":"9465 Wilshire Blvd 600","City":"Beverly Hills","State":"CA","Zip":"90212"},{"Location":"THE GERSH AGENCY INC #2","Address":"9465 Wilshire Blvd 600","City":"Beverly Hills","State":"CA","Zip":"90212"},{"Location":"THE GORES GROUP","Address":"9800 Wilshire Blvd","City":"Beverly Hills","State":"CA","Zip":"90212"},{"Location":"THE JACKELS COLLECTION","Address":"9454 Wilshire Blvd 805","City":"Beverly Hills","State":"CA","Zip":"90212"},{"Location":"THE LAW OFFICES OF ROBERT KORY","Address":"9300 Wilshire Blvd 2","City":"Beverly Hills","State":"CA","Zip":"90212"},{"Location":"THE PARTNERS TRUST","Address":"9378 Wilshire Blvd 200","City":"Beverly Hills","State":"CA","Zip":"90212"},{"Location":"THE RAINE GROUP LLC","Address":"9560 Wilshire Blvd","City":"Beverly Hills","State":"CA","Zip":"90212"},{"Location":"THE REGUS MGMNT GROUP","Address":"9465 Wilshire Blvd 3rdfl","City":"Beverly Hills","State":"CA","Zip":"90212"},{"Location":"THE ROBIN GROUP","Address":"449 S Beverly Dr 101","City":"Beverly Hills","State":"CA","Zip":"90212"},{"Location":"THE ROTHMAN AGENCY","Address":"9250 Wilshire Blvd","City":"Beverly Hills","State":"CA","Zip":"90212"},{"Location":"THE TORNANTE COMPANY","Address":"233 S Beverly Dr","City":"Beverly Hills","State":"CA","Zip":"90212"},{"Location":"THRIFTY OIL CO","Address":"9595 Wilshire Blvd 505","City":"Beverly Hills","State":"CA","Zip":"90212"},{"Location":"THRULINE ENTERTAINMENT","Address":"9250 Wilshire Blvd","City":"Beverly Hills","State":"CA","Zip":"90212"},{"Location":"UBS FINANCIAL SERVICES","Address":"131 S Rodeo Dr 300","City":"Beverly Hills","State":"CA","Zip":"90212"},{"Location":"UBS FINANCIAL SERVICES #2","Address":"131 S Rodeo Dr 300","City":"Beverly Hills","State":"CA","Zip":"90212"},{"Location":"UBS FINANCIAL SERVICES INC #1","Address":"131 S Rodeo Dr 300","City":"Beverly Hills","State":"CA","Zip":"90212"},{"Location":"UBS FINANCIAL SERVICES INC #3","Address":"131 S Rodeo Dr 300","City":"Beverly Hills","State":"CA","Zip":"90212"},{"Location":"UBS FINANCIAL SERVICES INC #4","Address":"131 S Rodeo Dr 300","City":"Beverly Hills","State":"CA","Zip":"90212"},{"Location":"UNITED ENTERTAINMENT GRP","Address":"9696 Wilshire Blvd 200","City":"Beverly Hills","State":"CA","Zip":"90212"},{"Location":"UNTITLED ENTERTAINMENT","Address":"350 S Beverly Dr 200","City":"Beverly Hills","State":"CA","Zip":"90212"},{"Location":"WALTER'S CAFE INC","Address":"153 S Beverly Dr","City":"Beverly Hills","State":"CA","Zip":"90212"},{"Location":"WEINTRAUB TOBIN CHEDIAK COLEMA","Address":"9665 Wilkshire Blvd 900","City":"Beverly Hills","State":"CA","Zip":"90212"},{"Location":"WELLS FARGO ADVISORS","Address":"9665 Wilshire Blvd 1000","City":"Beverly Hills","State":"CA","Zip":"90212"},{"Location":"WEST COAST MUSIC SERVICES","Address":"9595 Wilshire Blvd 301","City":"Beverly Hills","State":"CA","Zip":"90212"},{"Location":"WESTMINISTER CAPITAL INC","Address":"9665 Wilshire Blvd","City":"Beverly Hills","State":"CA","Zip":"90212"},{"Location":"WILLIAM MORRIS ENDEAVOR","Address":"151 El Camino Dr","City":"Beverly Hills","State":"CA","Zip":"90212"},{"Location":"WORLD VIEW TRAVEL","Address":"449 S Beverly Dr 102","City":"Beverly Hills","State":"CA","Zip":"90212"},{"Location":"XIV KARATS LTD","Address":"314 S Beverly Dr","City":"Beverly Hills","State":"CA","Zip":"90212"},{"Location":"ZUKOR AND NELSON","Address":"9665 Wilshire Blvd 1050","City":"Beverly Hills","State":"CA","Zip":"90212"}]