[{"Location":"ATOZ METALS","Address":"2900 N Alameda St","City":"Compton","State":"CA","Zip":"90222"},{"Location":"COMMUNITY CHAPEL CHURCH","Address":"1307 N Willowbrook Ave","City":"Compton","State":"CA","Zip":"90222"},{"Location":"COMMUNITY MINDED BUSINESS","Address":"1301 N Willowbrook Ave","City":"Compton","State":"CA","Zip":"90222"},{"Location":"COMMUNITY MINDED BUSINESS1","Address":"2255 E Hatchway St","City":"Compton","State":"CA","Zip":"90222"},{"Location":"COMPTON FIRE DEPT STATION #3","Address":"1133 W Rosecrans Ave","City":"Compton","State":"CA","Zip":"90222"},{"Location":"CONCRETE TIE INDUSTRIES","Address":"130 E Oris St","City":"Compton","State":"CA","Zip":"90222"},{"Location":"FATBURGER","Address":"2251 W Rosecrans Ave","City":"Compton","State":"CA","Zip":"90222"},{"Location":"FAYS 1 BARBERSHOP","Address":"2721 N Wilmington Ave","City":"Compton","State":"CA","Zip":"90222"},{"Location":"HANDY LIQUIOR","Address":"1550 N Wilmington Ave","City":"Compton","State":"CA","Zip":"90222"},{"Location":"JACK RUBIN SONS INC","Address":"13103 S Alameda St","City":"Compton","State":"CA","Zip":"90222"},{"Location":"MORRELLS AEROSPACE 3","Address":"432 E Euclid Ave","City":"Compton","State":"CA","Zip":"90222"},{"Location":"MRO SYSTEMS","Address":"3201 N Alameda St Ab","City":"Compton","State":"CA","Zip":"90222"},{"Location":"POP RESTAURANT","Address":"117 E Rosecrans Ave","City":"Compton","State":"CA","Zip":"90222"},{"Location":"SIERRA PACIFIC SUPPLY CO","Address":"1801 W El Segundo Blvd","City":"Compton","State":"CA","Zip":"90222"},{"Location":"TORRES BARBER SHOP 2","Address":"810 W Rosecrans Ave","City":"Compton","State":"CA","Zip":"90222"},{"Location":"VIP BARBER SHOP & B","Address":"2251 W Rosecrans Ave 10","City":"Compton","State":"CA","Zip":"90222"},{"Location":"WING STOP COMPTON #397","Address":"2215 W Rosecrans Ave","City":"Compton","State":"CA","Zip":"90222"}]