[{"Location":"STUDIO CONCEPTS","Address":"2662 E Delamo St","City":"Carson","State":"CA","Zip":"90221"},{"Location":"A N R WELDING INC","Address":"942 S Santa Fe Ave","City":"Compton","State":"CA","Zip":"90221"},{"Location":"ALL 4 SHOW","Address":"1025 E Compton Blvd","City":"Compton","State":"CA","Zip":"90221"},{"Location":"ANA RUTH GALDAMEZ","Address":"19900 N Long Beach Blvd Ste","City":"Compton","State":"CA","Zip":"90221"},{"Location":"APEX LOGISTICS INT'L INC","Address":"17511 S Susana Rd","City":"Compton","State":"CA","Zip":"90221"},{"Location":"BLUDSOS BBQ","Address":"811 S Long Beach Blvd","City":"Compton","State":"CA","Zip":"90221"},{"Location":"BROTHERS OF THE SUN","Address":"605 S Long Beach Blvd","City":"Compton","State":"CA","Zip":"90221"},{"Location":"CHILDRENS R US CHILD DEVELOP","Address":"4611 E Compton Blvd","City":"Compton","State":"CA","Zip":"90221"},{"Location":"COMPTON CUTS","Address":"930 N Long Beach Blvd","City":"Compton","State":"CA","Zip":"90221"},{"Location":"COMPTON FIRE STATION DEPT TWO","Address":"1320 E Palmer St","City":"Compton","State":"CA","Zip":"90221"},{"Location":"COMPTON HUNTING AND FISHING","Address":"1625 S Sportsman Dr","City":"Compton","State":"CA","Zip":"90221"},{"Location":"CRUMZ ONE SERVICES LLC","Address":"4125 E San Luis St","City":"Compton","State":"CA","Zip":"90221"},{"Location":"DEL AMO BURGERS","Address":"2800 E Del Amo Blvd","City":"Compton","State":"CA","Zip":"90221"},{"Location":"FONTENOL TOWING SERVICES","Address":"410 N Bowen Ave","City":"Compton","State":"CA","Zip":"90221"},{"Location":"FREAR CONSULTING INC","Address":"17727 S Susana Rd","City":"Compton","State":"CA","Zip":"90221"},{"Location":"GALINDO CLEANERS","Address":"817 S Long Beach Blvd","City":"Compton","State":"CA","Zip":"90221"},{"Location":"HENKEL CORP","Address":"20021 S Susana Rd","City":"Compton","State":"CA","Zip":"90221"},{"Location":"HUB CITY TEES","Address":"716 S Long Beach Blvd","City":"Compton","State":"CA","Zip":"90221"},{"Location":"IMONICO ALLOYS INC","Address":"3039 E Ana St","City":"Compton","State":"CA","Zip":"90221"},{"Location":"INDUSTRIAL VALCO INC.","Address":"3135 E Ana St","City":"Compton","State":"CA","Zip":"90221"},{"Location":"INTEGRATED LOGISTIC SVCS","Address":"3136 E Victoria St","City":"Compton","State":"CA","Zip":"90221"},{"Location":"JBI","Address":"18601 S Santa Fe Ave","City":"Compton","State":"CA","Zip":"90221"},{"Location":"L.A.C.A WHOLESALE FLOWER","Address":"4610 E Alondra Blvd","City":"Compton","State":"CA","Zip":"90221"},{"Location":"LA RAZA BARBERSHOP","Address":"12934 S Atlantic Ave","City":"Compton","State":"CA","Zip":"90221"},{"Location":"LEGAL E PARALEGAL SERVICES","Address":"2205 E Alondra Blvd","City":"Compton","State":"CA","Zip":"90221"},{"Location":"LMC ENTERPRISES","Address":"19402 S Susana Rd","City":"Compton","State":"CA","Zip":"90221"},{"Location":"LOS DOS AMIGOS","Address":"4605 E Alondra Blvd","City":"Compton","State":"CA","Zip":"90221"},{"Location":"LOS TRES POLLOS","Address":"525 E Rosecrans Ave","City":"Compton","State":"CA","Zip":"90221"},{"Location":"MCI FOODS INC","Address":"12835 S Atlantic Ave","City":"Compton","State":"CA","Zip":"90221"},{"Location":"MEMORIAL HEALTH SERVICE","Address":"121 S Long Beach Blvd","City":"Compton","State":"CA","Zip":"90221"},{"Location":"MHT LUXURY ALLOY WHEELS","Address":"19200 S Reyes Ave","City":"Compton","State":"CA","Zip":"90221"},{"Location":"MID-CITIES FINANCIAL CREDIT","Address":"325 S Santa Fe Ave","City":"Compton","State":"CA","Zip":"90221"},{"Location":"MLB URBAN YOUTH ACADAMY","Address":"901 E Artesia Blvd","City":"Compton","State":"CA","Zip":"90221"},{"Location":"NATIONAL OILWELL VARCO","Address":"2988 E Ana St","City":"Compton","State":"CA","Zip":"90221"},{"Location":"NEIGHBORHOOD LAUNDRY","Address":"2418 E Alondra Blvd","City":"Compton","State":"CA","Zip":"90221"},{"Location":"NEW HOPE IN CHRIST CHURCH","Address":"1530 E Compton Blvd","City":"Compton","State":"CA","Zip":"90221"},{"Location":"ONE STOP INTERNET INC","Address":"3040 E Ana St","City":"Compton","State":"CA","Zip":"90221"},{"Location":"PARKLAND MEDICAL GROUP","Address":"508 N Long Beach Blvd","City":"Compton","State":"CA","Zip":"90221"},{"Location":"PATRICIA BROWN SP","Address":"108 N Alameda St","City":"Compton","State":"CA","Zip":"90221"},{"Location":"PETER  PEPPER  PRODUCTS","Address":"17929 S Susana Rd","City":"Compton","State":"CA","Zip":"90221"},{"Location":"PLATERS POLISH","Address":"19200 S Reyes Ave","City":"Compton","State":"CA","Zip":"90221"},{"Location":"PRICE TRANSFER","Address":"2790 E Del Amo Blvd","City":"Compton","State":"CA","Zip":"90221"},{"Location":"SELEB CUSTOM AUTO CARE","Address":"505 S Crane Ave C","City":"Compton","State":"CA","Zip":"90221"},{"Location":"SERENITY SENIOR HOME II","Address":"217 S Essey Ave","City":"Compton","State":"CA","Zip":"90221"},{"Location":"SONORA MILLS FOODS","Address":"3064 E Maria St","City":"Compton","State":"CA","Zip":"90221"},{"Location":"STAR LAUNDRY","Address":"2109 N Long Beach Blvd","City":"Compton","State":"CA","Zip":"90221"},{"Location":"TAKING ALL FADES","Address":"2787 E Del Amo Blvd","City":"Compton","State":"CA","Zip":"90221"},{"Location":"THE GAS CO","Address":"701 N Bullis Rd","City":"Compton","State":"CA","Zip":"90221"},{"Location":"TONI JOHNSON CHAVIS MD","Address":"403 S Long Beach Blvd","City":"Compton","State":"CA","Zip":"90221"},{"Location":"TOTAL INTERMODAL SERVICES","Address":"19118 S Reyes Ave","City":"Compton","State":"CA","Zip":"90221"},{"Location":"VELOCITY TRUCK  RENTAL","Address":"18890 S Susana Rd","City":"Compton","State":"CA","Zip":"90221"},{"Location":"WALTERS WHOLESALE ELECT CO","Address":"18626 S Susana Rd","City":"Compton","State":"CA","Zip":"90221"},{"Location":"WESTERN MERCHANDISE EXPRESS","Address":"1409 S Sportsman Dr","City":"Compton","State":"CA","Zip":"90221"},{"Location":"L&R TRANSPORT SERVICES","Address":"15105 S Atlantic Ave","City":"East Rancho Dominguez","State":"CA","Zip":"90221"},{"Location":"SERRA MANUFACTURING CORP","Address":"3039 E Las Hermanas St","City":"East Rancho Dominguez","State":"CA","Zip":"90221"},{"Location":"TACOS EL RINCON","Address":"15019 S Atlantic Ave","City":"East Rancho Dominguez","State":"CA","Zip":"90221"},{"Location":"TACOS MEXICO","Address":"613 E Rosecrans Ave","City":"East Rancho Dominguez","State":"CA","Zip":"90221"},{"Location":"NEW WORLD AUTO SOUNDS","Address":"2787 E Delamo Blvd K1","City":"Rancho Dominguez","State":"CA","Zip":"90221"}]