[{"Location":"24 HOUR FITNESS #916","Address":"110 Towne Center Dr","City":"Compton","State":"CA","Zip":"90220"},{"Location":"ALAMEDA ALIMAL HOSPITAL","Address":"925 S Alameda St","City":"Compton","State":"CA","Zip":"90220"},{"Location":"AVALON LABORATORIES","Address":"2610 Homestead Pl","City":"Compton","State":"CA","Zip":"90220"},{"Location":"BIOCELL LABORATORIES","Address":"2001 E University Dr","City":"Compton","State":"CA","Zip":"90220"},{"Location":"BIOQUIP PRODUCTS","Address":"2321 E Gladwick St","City":"Compton","State":"CA","Zip":"90220"},{"Location":"BROTHERS CUT N UP","Address":"900 S Central Ave C","City":"Compton","State":"CA","Zip":"90220"},{"Location":"BUFF AND SHINE MANUFACTURING","Address":"2139 E Del Amo Blvd","City":"Compton","State":"CA","Zip":"90220"},{"Location":"CALIFORNIA METAL DISTRIBUTORS","Address":"222 E Manville St","City":"Compton","State":"CA","Zip":"90220"},{"Location":"CHILDRENS R US CHILD DEVELOP","Address":"615 N Wilmington Ave","City":"Compton","State":"CA","Zip":"90220"},{"Location":"COLESSEUM ATHLETICS","Address":"2400 S Wilmington Ave","City":"Compton","State":"CA","Zip":"90220"},{"Location":"COMPTON FIRE STATION 1","Address":"201 S Acacia Ave","City":"Compton","State":"CA","Zip":"90220"},{"Location":"COMPTON FIRE STATION 4","Address":"950 W Walnut St","City":"Compton","State":"CA","Zip":"90220"},{"Location":"CRYSTAL CASINO","Address":"123 E Artesia Blvd","City":"Compton","State":"CA","Zip":"90220"},{"Location":"DAVITA #4320 GATEWAY","Address":"1580 W Rosecrans Ave","City":"Compton","State":"CA","Zip":"90220"},{"Location":"FED EX EXPRESS","Address":"201 W Manville St","City":"Compton","State":"CA","Zip":"90220"},{"Location":"FNS INC","Address":"18301 S Broadwick St","City":"Compton","State":"CA","Zip":"90220"},{"Location":"FRAMA-TECH","Address":"2001 S Acacia Ave","City":"Compton","State":"CA","Zip":"90220"},{"Location":"FRONTIER IMAGING","Address":"1250 W Artesia Blvd","City":"Compton","State":"CA","Zip":"90220"},{"Location":"GALINDO CLEANERS 1","Address":"526 W Alondra Blvd","City":"Compton","State":"CA","Zip":"90220"},{"Location":"GIOVANNI COSMETICS","Address":"2064 E University Dr","City":"Compton","State":"CA","Zip":"90220"},{"Location":"GLOBAL LOGISTICAL CONN","Address":"475 W Manville St","City":"Compton","State":"CA","Zip":"90220"},{"Location":"GOVISION LT WEST","Address":"2417 E Rancho Del Amo Pl","City":"Compton","State":"CA","Zip":"90220"},{"Location":"GREEN OLIVE","Address":"855 W Victoria St B2","City":"Compton","State":"CA","Zip":"90220"},{"Location":"HORIZON LINES LLC","Address":"220 W Manville St","City":"Compton","State":"CA","Zip":"90220"},{"Location":"HORIZON SPIRIT","Address":"220 W Manville St","City":"Compton","State":"CA","Zip":"90220"},{"Location":"JAS FORWARDING","Address":"1975 E Charles Willard St","City":"Compton","State":"CA","Zip":"90220"},{"Location":"JUNIORVERSITY","Address":"2400 S Central Ave","City":"Compton","State":"CA","Zip":"90220"},{"Location":"LACEDE","Address":"2103 E University Dr","City":"Compton","State":"CA","Zip":"90220"},{"Location":"LIBERTY TAX SERVICE FIVE","Address":"909 S Central Ave D","City":"Compton","State":"CA","Zip":"90220"},{"Location":"LOTTS OF HOPE","Address":"1045 W Spruce St B","City":"Compton","State":"CA","Zip":"90220"},{"Location":"LOVE & UNITY CHURCH","Address":"1840 S Wilmington Ave","City":"Compton","State":"CA","Zip":"90220"},{"Location":"LOVE AND UNITY CHURCH1","Address":"1840 S Wilmington Ave","City":"Compton","State":"CA","Zip":"90220"},{"Location":"MARIAK INDUSTRIES LLC","Address":"575 W Manville St","City":"Compton","State":"CA","Zip":"90220"},{"Location":"MASSIVE MARKETING","Address":"2035 E Vista Bella Way","City":"Compton","State":"CA","Zip":"90220"},{"Location":"MOLECULAR EXPRESS","Address":"2630 Homestead Pl","City":"Compton","State":"CA","Zip":"90220"},{"Location":"NADAS BARBER AND BEAUTY SHOP","Address":"324 W Alondra Blvd","City":"Compton","State":"CA","Zip":"90220"},{"Location":"NATIONAL RETAIL SYSTEMS","Address":"355 W Carob St","City":"Compton","State":"CA","Zip":"90220"},{"Location":"NETWORK LOGISITCS INC","Address":"1195 W Victoria St","City":"Compton","State":"CA","Zip":"90220"},{"Location":"NEWAY PACKAGING","Address":"1973 E Via Arado","City":"Compton","State":"CA","Zip":"90220"},{"Location":"NORCO INDUSTRIES","Address":"365 W Victoria St","City":"Compton","State":"CA","Zip":"90220"},{"Location":"PR LOGISTICS","Address":"220 W Victoria St","City":"Compton","State":"CA","Zip":"90220"},{"Location":"RALPHS COMPTON CREAMERY","Address":"2201 S Wilmington Ave","City":"Compton","State":"CA","Zip":"90220"},{"Location":"RALPHS GROCERY COMPANY","Address":"2201 S Wilmington Ave","City":"Compton","State":"CA","Zip":"90220"},{"Location":"RALPHS GROCERY COMPANY II","Address":"2201 S Wilmington Ave B","City":"Compton","State":"CA","Zip":"90220"},{"Location":"SANTA MONICA SEAFOOD CO","Address":"18531 S Broadwick St","City":"Compton","State":"CA","Zip":"90220"},{"Location":"SHIMAI SUSHI","Address":"855 W Victoria St A2","City":"Compton","State":"CA","Zip":"90220"},{"Location":"SKY EXOTIC CABARET","Address":"1957 E Del Amo Blvd","City":"Compton","State":"CA","Zip":"90220"},{"Location":"SL FUSCO","Address":"1966 E Via Arado","City":"Compton","State":"CA","Zip":"90220"},{"Location":"SPECIALTY DOORS & AUTOMA","Address":"2372 E Pacifica Pl","City":"Compton","State":"CA","Zip":"90220"},{"Location":"STANDARD WIRE AND CABLE","Address":"2050 E Vista Bella Way","City":"Compton","State":"CA","Zip":"90220"},{"Location":"TARGET STORE 2275","Address":"1621 S Alameda St","City":"Compton","State":"CA","Zip":"90220"},{"Location":"TGI FRIDAY'S #2158","Address":"1725 S Alameda St","City":"Compton","State":"CA","Zip":"90220"},{"Location":"THE ROUSE COMPANY","Address":"1611 Kona Dr","City":"Compton","State":"CA","Zip":"90220"},{"Location":"TLM PETRO LABOR FORCE INC","Address":"909 N Alameda St","City":"Compton","State":"CA","Zip":"90220"},{"Location":"TORRES BARBER SHOP 1","Address":"1708 W Compton Blvd","City":"Compton","State":"CA","Zip":"90220"},{"Location":"TORRES BARBER SHOP 3","Address":"908a S Central Ave","City":"Compton","State":"CA","Zip":"90220"},{"Location":"TRAFFIC SALES CONSULTING INC","Address":"18735 S Ferris Pl","City":"Compton","State":"CA","Zip":"90220"},{"Location":"UNION SUPPLY","Address":"2301 E Pacifica Pl","City":"Compton","State":"CA","Zip":"90220"},{"Location":"URBAN LEGENDS STADIUM","Address":"200 Towne Center Dr 107","City":"Compton","State":"CA","Zip":"90220"},{"Location":"USART","Address":"921 W Walnut St","City":"Compton","State":"CA","Zip":"90220"},{"Location":"WASH MULTI FAMILY LAUNDRY 2","Address":"18710 S Wilmington Ave","City":"Compton","State":"CA","Zip":"90220"},{"Location":"WESTERN BOOKKEEPING & TAX SERV","Address":"400 N Central Ave","City":"Compton","State":"CA","Zip":"90220"},{"Location":"WESTERN SHIELD LABEL","Address":"2146 E Gladwick St","City":"Compton","State":"CA","Zip":"90220"},{"Location":"WING STOP THREE NINE SIX","Address":"1641 S Alameda St 102","City":"Compton","State":"CA","Zip":"90220"},{"Location":"DOUBLE BARREL ENVIRONMENTAL","Address":"2408 E Rancho Del Amo Pl","City":"Rancho Dominguez","State":"CA","Zip":"90220"},{"Location":"DOUBLE DOWN PIZZA","Address":"725 E Compton Blvd","City":"Rancho Dominguez","State":"CA","Zip":"90220"}]