[{"Location":"800 COOPERATE POINTE","Address":"800 Corporate Pointe","City":"Culver City","State":"CA","Zip":"90230"},{"Location":"ABBOTS PIZZERIA","Address":"4410 Sepulveda Blvd","City":"Culver City","State":"CA","Zip":"90230"},{"Location":"AGAPE INTERNATIONAL","Address":"5700 Buckingham Pkwy","City":"Culver City","State":"CA","Zip":"90230"},{"Location":"ALL PRO BROADCASTING INC","Address":"100 Corporate Pt 310","City":"Culver City","State":"CA","Zip":"90230"},{"Location":"AMERICAN LEGAND POST 46","Address":"5309 Sepulveda Blvd","City":"Culver City","State":"CA","Zip":"90230"},{"Location":"APA CORP","Address":"5855 Green Valley Cir","City":"Culver City","State":"CA","Zip":"90230"},{"Location":"ARTS BARBER SHOP","Address":"4346 Sepulveda Blvd","City":"Culver City","State":"CA","Zip":"90230"},{"Location":"BJS RESTAURANT #493","Address":"6000 Sepulveda Blvd 1111","City":"Culver City","State":"CA","Zip":"90230"},{"Location":"BUNNIN CHEVROLET OF CULV","Address":"6101 W Slauson Ave","City":"Culver City","State":"CA","Zip":"90230"},{"Location":"CALIF ROLL AND SUSHI","Address":"6251 Bristol Pkwy","City":"Culver City","State":"CA","Zip":"90230"},{"Location":"CALIFORNIA BANK & TRUST","Address":"100 Corporate Pointe","City":"Culver City","State":"CA","Zip":"90230"},{"Location":"CAMPOS TACOS","Address":"10814 Jefferson Blvd P","City":"Culver City","State":"CA","Zip":"90230"},{"Location":"CAPRIOTTIS SANDWICH SHOP","Address":"5495 Sepulveda Blvd H2","City":"Culver City","State":"CA","Zip":"90230"},{"Location":"CCK NAILS AND SPA","Address":"5530 Sepulveda Blvd","City":"Culver City","State":"CA","Zip":"90230"},{"Location":"CD MANAGEMENT CO LLC1","Address":"3964 Tuller Ave","City":"Culver City","State":"CA","Zip":"90230"},{"Location":"CENTURY HOUSING","Address":"1000 Corporate Pointe 200","City":"Culver City","State":"CA","Zip":"90230"},{"Location":"COURTYARD LA WESTSIDE","Address":"6333 Bristol Pkwy","City":"Culver City","State":"CA","Zip":"90230"},{"Location":"CRP PACIFICA PLAZA PL","Address":"6101 W Centinela Ave 201","City":"Culver City","State":"CA","Zip":"90230"},{"Location":"CULVER CITY SHAKEYS 3","Address":"5604 Sepulveda Blvd","City":"Culver City","State":"CA","Zip":"90230"},{"Location":"DEAR JOHNS","Address":"11208 Culver Blvd","City":"Culver City","State":"CA","Zip":"90230"},{"Location":"DONNARAE DIAZ DBA URBAN","Address":"10748 Jefferson Blvd","City":"Culver City","State":"CA","Zip":"90230"},{"Location":"DOUBLE TREE HOTEL BAR","Address":"6161 W Centinela Ave","City":"Culver City","State":"CA","Zip":"90230"},{"Location":"EDNEY CONSULTING SERVICES","Address":"5855 Green Valley Cir 305","City":"Culver City","State":"CA","Zip":"90230"},{"Location":"EL JACALITO RESTAURANTE","Address":"12618 W Washington Blvd","City":"Culver City","State":"CA","Zip":"90230"},{"Location":"EL RINCON CRIOLLO","Address":"4361 Sepulveda Blvd","City":"Culver City","State":"CA","Zip":"90230"},{"Location":"EL SUPER TACO","Address":"11499 Jefferson Blvd","City":"Culver City","State":"CA","Zip":"90230"},{"Location":"ELITE MONEYMATTERS INC","Address":"5753 Uplander Way","City":"Culver City","State":"CA","Zip":"90230"},{"Location":"ERIS #1","Address":"11124 Fairbanks Way","City":"Culver City","State":"CA","Zip":"90230"},{"Location":"ESTHER ABRAHAM DDS","Address":"5427 Sepulveda Blvd A","City":"Culver City","State":"CA","Zip":"90230"},{"Location":"EVOLUTION PHYSICAL THERAPY","Address":"1825 Major St","City":"Culver City","State":"CA","Zip":"90230"},{"Location":"FANZZ SUITE 2620","Address":"600 Sepulveda Bldv","City":"Culver City","State":"CA","Zip":"90230"},{"Location":"GABY'S EXPRESS","Address":"12219 Jefferson Blvd","City":"Culver City","State":"CA","Zip":"90230"},{"Location":"GIVEN IMAGING LA LLC","Address":"5860 Uplander Way","City":"Culver City","State":"CA","Zip":"90230"},{"Location":"GOLD'S GYM CULVER CITY","Address":"6000 Sepulveda Blvd 1200","City":"Culver City","State":"CA","Zip":"90230"},{"Location":"GOODYEAR 8626","Address":"5547 Sepulveda Blvd","City":"Culver City","State":"CA","Zip":"90230"},{"Location":"GREEN PEAS","Address":"4437 Sepulveda Boulevard","City":"Culver City","State":"CA","Zip":"90230"},{"Location":"GREEN PEAS CASUAL FOOD","Address":"4435 Sepulveda Blvd","City":"Culver City","State":"CA","Zip":"90230"},{"Location":"GUADALAJARA BAKERY","Address":"4506 Inglewood Blvd","City":"Culver City","State":"CA","Zip":"90230"},{"Location":"HAAS ENTERTAINMENT","Address":"5774 Uplander Way","City":"Culver City","State":"CA","Zip":"90230"},{"Location":"ICDC COLLEGE","Address":"5995 Sepulveda Blvd 300","City":"Culver City","State":"CA","Zip":"90230"},{"Location":"INDEPENDLY BUSINESS","Address":"4201 Sepulveda Blvd","City":"Culver City","State":"CA","Zip":"90230"},{"Location":"INNOVATION SPECIALTIES","Address":"11869 Teale St","City":"Culver City","State":"CA","Zip":"90230"},{"Location":"INSIDE EDITION KING WORLD","Address":"100 Corporate Pointe","City":"Culver City","State":"CA","Zip":"90230"},{"Location":"ITT TECHNICAL INSTITUTE","Address":"6101 W Centinela Ave 180","City":"Culver City","State":"CA","Zip":"90230"},{"Location":"J2 CULVER INC","Address":"6100 Sepulveda Blvd 1170","City":"Culver City","State":"CA","Zip":"90230"},{"Location":"JERSEY MIKES SUBS 20098","Address":"4114 Sepulveda Blvd H","City":"Culver City","State":"CA","Zip":"90230"},{"Location":"KINGS CAFE","Address":"5508 Sawtelle Blvd","City":"Culver City","State":"CA","Zip":"90230"},{"Location":"LA NAACP","Address":"6000 Sepulveda Blvd 2680","City":"Culver City","State":"CA","Zip":"90230"},{"Location":"LA WEEKLY","Address":"3861 Sepulveda Blvd","City":"Culver City","State":"CA","Zip":"90230"},{"Location":"LASKER KIM AND COMPANY LLP","Address":"6017 Bristol Pkwy","City":"Culver City","State":"CA","Zip":"90230"},{"Location":"LIFEHOUSE HEALTH SERVICES","Address":"300 Corporate Pointe 550","City":"Culver City","State":"CA","Zip":"90230"},{"Location":"LOVELY NAILS","Address":"10742 Jefferson Blvd","City":"Culver City","State":"CA","Zip":"90230"},{"Location":"LUCILLES - CULVER CITY","Address":"6000 Sepulveda Blvd 1121","City":"Culver City","State":"CA","Zip":"90230"},{"Location":"MACY'S WEST 516","Address":"6200 W Slauson Ave","City":"Culver City","State":"CA","Zip":"90230"},{"Location":"MACY'S WEST 516 BR","Address":"6200 W Slauson Ave","City":"Culver City","State":"CA","Zip":"90230"},{"Location":"MARC FILLER CPA","Address":"5855 Green Valley Cir 310","City":"Culver City","State":"CA","Zip":"90230"},{"Location":"MODERN MEDIA","Address":"5826 Uplander Way","City":"Culver City","State":"CA","Zip":"90230"},{"Location":"MOUNTAIN VIEW TIRE%2FGOODYEAR","Address":"6250 W Slauson Ave","City":"Culver City","State":"CA","Zip":"90230"},{"Location":"NORDSTROM RACKS","Address":"6000 Sepulveda Blvd 2581","City":"Culver City","State":"CA","Zip":"90230"},{"Location":"NORTHGATE MARKET","Address":"4700 Inglewood Blvd","City":"Culver City","State":"CA","Zip":"90230"},{"Location":"OLIVE GARDEN #4433","Address":"6000 Sepulveda Blvd","City":"Culver City","State":"CA","Zip":"90230"},{"Location":"ORACLE","Address":"5750 Hannum Ave 200","City":"Culver City","State":"CA","Zip":"90230"},{"Location":"PAY CHEX INC","Address":"300 Corporate Pointe 150","City":"Culver City","State":"CA","Zip":"90230"},{"Location":"PETRELLI'S STEAK HOUSE","Address":"5615 Sepulveda Blvd","City":"Culver City","State":"CA","Zip":"90230"},{"Location":"PLAYA VISTA CAR WASH","Address":"6920 S Centinela Ave","City":"Culver City","State":"CA","Zip":"90230"},{"Location":"PREMIER HEALTH CARE","Address":"6133 Bristol Pkwy 350","City":"Culver City","State":"CA","Zip":"90230"},{"Location":"PSOMAS","Address":"100 Corporate Pointe 265","City":"Culver City","State":"CA","Zip":"90230"},{"Location":"QDOBA-2668-CULVER CITY","Address":"6000 Sepulveda Blvd 1591","City":"Culver City","State":"CA","Zip":"90230"},{"Location":"RUDY BARBERSHOP","Address":"5419 Sepulveda Blvd","City":"Culver City","State":"CA","Zip":"90230"},{"Location":"SACKS AND ZOLONV","Address":"400 Corporate Pointe","City":"Culver City","State":"CA","Zip":"90230"},{"Location":"SARA THE WINE BAR","Address":"3936 Sepulveda Blvd","City":"Culver City","State":"CA","Zip":"90230"},{"Location":"SCARLET LADY SALOON","Address":"5411 Sepulveda Blvd","City":"Culver City","State":"CA","Zip":"90230"},{"Location":"SCHWARZKOPF","Address":"600 Corporate Pointe 600","City":"Culver City","State":"CA","Zip":"90230"},{"Location":"SECURITY IND  SPECIALIST","Address":"6071 Bristol Pkwy","City":"Culver City","State":"CA","Zip":"90230"},{"Location":"SECURITY INDUSTRY SPECIA","Address":"6071 Bristol Pkwy","City":"Culver City","State":"CA","Zip":"90230"},{"Location":"SIZZLER 401","Address":"5801 Sepulveda Blvd","City":"Culver City","State":"CA","Zip":"90230"},{"Location":"SOUTHSIDE TOW AND RECOVERY","Address":"5625 Corryne Pl","City":"Culver City","State":"CA","Zip":"90230"},{"Location":"STAR BUSINESS MANAGEMENT","Address":"1000 Corporate Pointe 100","City":"Culver City","State":"CA","Zip":"90230"},{"Location":"STAR GIRL PRODUCTIONS IN","Address":"5800 Hannum Ave 260","City":"Culver City","State":"CA","Zip":"90230"},{"Location":"TAGAWA & HO LLP","Address":"6101 W Centinela Ave 280","City":"Culver City","State":"CA","Zip":"90230"},{"Location":"TARGET","Address":"10820 Jefferson Blvd","City":"Culver City","State":"CA","Zip":"90230"},{"Location":"TARGET","Address":"6000 Sepulveda Blvd","City":"Culver City","State":"CA","Zip":"90230"},{"Location":"TATTLE TALE","Address":"5401 Sepulveda Blvd","City":"Culver City","State":"CA","Zip":"90230"},{"Location":"TELEWISE LLC","Address":"4200 Sepulveda Blvd 102","City":"Culver City","State":"CA","Zip":"90230"},{"Location":"TEMPUS CONSULTING","Address":"300 Corporate Pointe","City":"Culver City","State":"CA","Zip":"90230"},{"Location":"THE HAIR LAB","Address":"6287 Bristol Pkwy","City":"Culver City","State":"CA","Zip":"90230"},{"Location":"VIBE CREATIVE","Address":"3861 Sepulveda Blvd","City":"Culver City","State":"CA","Zip":"90230"},{"Location":"VITAMIN WORLD","Address":"6000 Sepulveda Blvd 3450","City":"Culver City","State":"CA","Zip":"90230"},{"Location":"WATV PRODUCTIONS","Address":"5800 Hannum Ave 110","City":"Culver City","State":"CA","Zip":"90230"},{"Location":"WEST LA COLL SHRF STATION1","Address":"9000 Overland Ave","City":"Culver City","State":"CA","Zip":"90230"},{"Location":"WEST LA VET CENTER","Address":"5730 Uplander Way 100","City":"Culver City","State":"CA","Zip":"90230"},{"Location":"WEST LOS ANGELES COLLEGE","Address":"9000 Overland Ave A9","City":"Culver City","State":"CA","Zip":"90230"},{"Location":"WESTFIELD CULVER CITY","Address":"6000 Sepulveda Blvd 2820","City":"Culver City","State":"CA","Zip":"90230"},{"Location":"EVOLUTION FITNESS","Address":"6826 S Centinela Ave","City":"Los Angeles","State":"CA","Zip":"90230"},{"Location":"PROPAGANDA","Address":"11264 Playa Ct","City":"Los Angeles","State":"CA","Zip":"90230"},{"Location":"SECURITY IND SPECIALIST","Address":"6035 Bristol Pkwy","City":"Los Angeles","State":"CA","Zip":"90230"}]