[{"Location":"A TIGHTER U","Address":"10854 Washington Blvd","City":"Culver City","State":"CA","Zip":"90232"},{"Location":"ABRA MANAGEMENT INC","Address":"10100 Culver Blvd D","City":"Culver City","State":"CA","Zip":"90232"},{"Location":"ADVANCED CRITICAL CARE","Address":"9599 Jefferson Blvd","City":"Culver City","State":"CA","Zip":"90232"},{"Location":"AKASHA RESTAURANT","Address":"9543 Culver Blvd","City":"Culver City","State":"CA","Zip":"90232"},{"Location":"ALJAZEERA AMERICA LLC","Address":"3555 Hayden Ave 3","City":"Culver City","State":"CA","Zip":"90232"},{"Location":"ANONYMOUS CONTENT","Address":"8522 National Blvd 101","City":"Culver City","State":"CA","Zip":"90232"},{"Location":"ATOM FACTORY","Address":"10351 Washington Blvd","City":"Culver City","State":"CA","Zip":"90232"},{"Location":"ATOM FACTORY","Address":"10317 Washington Blvd","City":"Culver City","State":"CA","Zip":"90232"},{"Location":"AUTHENTIC TALENT AND LIT","Address":"3615 Eastham Dr","City":"Culver City","State":"CA","Zip":"90232"},{"Location":"AXIS   RESIDENTIAL TREAT","Address":"4024 Huron Ave","City":"Culver City","State":"CA","Zip":"90232"},{"Location":"BACKSTAGE INC.","Address":"10400 Culver Blvd","City":"Culver City","State":"CA","Zip":"90232"},{"Location":"BEATS BY DRE","Address":"8501 Steller Dr 1","City":"Culver City","State":"CA","Zip":"90232"},{"Location":"BEATS BY DRE","Address":"8600 Hayden Pl","City":"Culver City","State":"CA","Zip":"90232"},{"Location":"BEATS BY DRE","Address":"8550b Higuera St","City":"Culver City","State":"CA","Zip":"90232"},{"Location":"BELLA VISTA BRAZILIAN GOURMET","Address":"10826 Venice Blvd","City":"Culver City","State":"CA","Zip":"90232"},{"Location":"BLIND DECKER PRODUCTIONS","Address":"8631 Hayden Pl","City":"Culver City","State":"CA","Zip":"90232"},{"Location":"BLIND DECKER PRODUCTIONS","Address":"8621 Hayden Pl","City":"Culver City","State":"CA","Zip":"90232"},{"Location":"BOTTLE ROCK","Address":"3847 Main St","City":"Culver City","State":"CA","Zip":"90232"},{"Location":"BRAND SENSE PTNERS","Address":"10441 Jefferson Blvd 100","City":"Culver City","State":"CA","Zip":"90232"},{"Location":"CARBONS","Address":"9300 Venice Blvd","City":"Culver City","State":"CA","Zip":"90232"},{"Location":"CITY TAVERN","Address":"9739 Culver Blvd","City":"Culver City","State":"CA","Zip":"90232"},{"Location":"CULVER CENTRALE HOA","Address":"9900 Culver Blvd","City":"Culver City","State":"CA","Zip":"90232"},{"Location":"CULVER CITY ELKS 1917","Address":"11160 Washington Pl","City":"Culver City","State":"CA","Zip":"90232"},{"Location":"CULVER CITY HONDA1","Address":"9055 Washington Blvd","City":"Culver City","State":"CA","Zip":"90232"},{"Location":"CULVER CITY HONDA2","Address":"9055 Washington Blvd","City":"Culver City","State":"CA","Zip":"90232"},{"Location":"CULVER CITY SURGICAL CENTER","Address":"9700 Venice Blvd","City":"Culver City","State":"CA","Zip":"90232"},{"Location":"CULVER CITY TOYOTA","Address":"9077 Washington Blvd","City":"Culver City","State":"CA","Zip":"90232"},{"Location":"CULVER HOTEL","Address":"9400 Culver Blvd","City":"Culver City","State":"CA","Zip":"90232"},{"Location":"DAPHNES","Address":"9516 Culver Blvd","City":"Culver City","State":"CA","Zip":"90232"},{"Location":"DD HIRSCH","Address":"11133 W Washington","City":"Culver City","State":"CA","Zip":"90232"},{"Location":"DE THOMAS BOBO & ACCOC","Address":"5883 Blackwelder St","City":"Culver City","State":"CA","Zip":"90232"},{"Location":"DECORATORS PLACE CORP","Address":"2707 Fairfax Ave","City":"Culver City","State":"CA","Zip":"90232"},{"Location":"DIAL GLOBAL","Address":"8935 Lindblade St","City":"Culver City","State":"CA","Zip":"90232"},{"Location":"DIAL GLOBAL","Address":"8944 Lindblade St","City":"Culver City","State":"CA","Zip":"90232"},{"Location":"DR RAD RADULOVICH","Address":"10920 Venice Blvd","City":"Culver City","State":"CA","Zip":"90232"},{"Location":"EAST BOROUGH LLC","Address":"9810 Washington Blvd","City":"Culver City","State":"CA","Zip":"90232"},{"Location":"EIGHT FOUR SIX ONE","Address":"8461 Warner Dr","City":"Culver City","State":"CA","Zip":"90232"},{"Location":"EL BARON RESTAURANT NIGHT CLUB","Address":"8641 Washington Blvd","City":"Culver City","State":"CA","Zip":"90232"},{"Location":"EL RIO BRAVO RESTAURANT","Address":"5853 Washington Blvd","City":"Culver City","State":"CA","Zip":"90232"},{"Location":"ENTERTAINMENT STUDIOS","Address":"8660 Hayden Pl","City":"Culver City","State":"CA","Zip":"90232"},{"Location":"ERIC OWEN MOSS","Address":"8557 Higuera St","City":"Culver City","State":"CA","Zip":"90232"},{"Location":"EVOLUTION PRODUCTIONS","Address":"3524 Hayden Ave","City":"Culver City","State":"CA","Zip":"90232"},{"Location":"FED EX","Address":"3700 Robertson Blvd","City":"Culver City","State":"CA","Zip":"90232"},{"Location":"FMC 16900000","Address":"9432 Venice Blvd","City":"Culver City","State":"CA","Zip":"90232"},{"Location":"FOUR STRIKES","Address":"8522 Washngton Blvd","City":"Culver City","State":"CA","Zip":"90232"},{"Location":"FRAME STORE","Address":"8616 National Blvd","City":"Culver City","State":"CA","Zip":"90232"},{"Location":"GEORGE HELLER","Address":"9696 Culver Blvd 108","City":"Culver City","State":"CA","Zip":"90232"},{"Location":"GIANT PIRATES ENTERTAINMENT","Address":"3522 Hayden Ave","City":"Culver City","State":"CA","Zip":"90232"},{"Location":"GNM FINANCIAL INC","Address":"3962 Landmark St","City":"Culver City","State":"CA","Zip":"90232"},{"Location":"GRAND CASINO","Address":"3826 Main St","City":"Culver City","State":"CA","Zip":"90232"},{"Location":"GREENHAUS GFX","Address":"3839 Main St","City":"Culver City","State":"CA","Zip":"90232"},{"Location":"H2F ENTERTAINMENT","Address":"3431 Wesley St","City":"Culver City","State":"CA","Zip":"90232"},{"Location":"HAJOCA CORP","Address":"5880 Adams Blvd","City":"Culver City","State":"CA","Zip":"90232"},{"Location":"HONEY'S KETTLE","Address":"9537 Culver Blvd","City":"Culver City","State":"CA","Zip":"90232"},{"Location":"HORNET INC","Address":"3962 Ince Blvdr","City":"Culver City","State":"CA","Zip":"90232"},{"Location":"HQ","Address":"4641 Leahy St","City":"Culver City","State":"CA","Zip":"90232"},{"Location":"HSI PRODUCTIONS INC","Address":"9950 Jefferson Blvd 3","City":"Culver City","State":"CA","Zip":"90232"},{"Location":"HUMAN HEALTHY VENDING","Address":"4641 Leahy St","City":"Culver City","State":"CA","Zip":"90232"},{"Location":"ICONISUS","Address":"10000 Venice Blvd","City":"Culver City","State":"CA","Zip":"90232"},{"Location":"IGN ENTERTAINMENT","Address":"10395 Jefferson Blvd","City":"Culver City","State":"CA","Zip":"90232"},{"Location":"INDUSTRY CAFE AND JAZZ","Address":"6039 Washington Blvd","City":"Culver City","State":"CA","Zip":"90232"},{"Location":"IPPLEX HOLDING CORP","Address":"9920 Jefferson Blvd","City":"Culver City","State":"CA","Zip":"90232"},{"Location":"IPPLEX HOLDINGS 2","Address":"9920 Jefferson Blvd","City":"Culver City","State":"CA","Zip":"90232"},{"Location":"JALISCOS BEAUTY SALON","Address":"10872 Venice Blvd","City":"Culver City","State":"CA","Zip":"90232"},{"Location":"JAMES LASSITER OFFICE","Address":"10202 Washington Blvd","City":"Culver City","State":"CA","Zip":"90232"},{"Location":"JIFFY LUBE 0511","Address":"5829 Adams Blvd","City":"Culver City","State":"CA","Zip":"90232"},{"Location":"JONATHAN D PIVO DDS","Address":"9920 Venice Blvd","City":"Culver City","State":"CA","Zip":"90232"},{"Location":"JOXER DALY'S IRISH PUB","Address":"11168 Washington Blvd","City":"Culver City","State":"CA","Zip":"90232"},{"Location":"JR'S BBQ RESTAURANT","Address":"3055 La Cienega Blvd","City":"Culver City","State":"CA","Zip":"90232"},{"Location":"KAYS  N  DAVES","Address":"9341 Culver Blvd","City":"Culver City","State":"CA","Zip":"90232"},{"Location":"KELTON RESEARCH","Address":"9724 Washington Blvd","City":"Culver City","State":"CA","Zip":"90232"},{"Location":"KESLOW CAMERA","Address":"5900 Blackwelder St","City":"Culver City","State":"CA","Zip":"90232"},{"Location":"KIRK DOUGLAS THEATRE","Address":"9820 Washington Blvd","City":"Culver City","State":"CA","Zip":"90232"},{"Location":"LA FITNESS #06105","Address":"3827 Overland Ave","City":"Culver City","State":"CA","Zip":"90232"},{"Location":"LA SCHOOL OF GYMNASTICS","Address":"8450 Higuera St","City":"Culver City","State":"CA","Zip":"90232"},{"Location":"LASER ZONE","Address":"8748 Washington Blvd","City":"Culver City","State":"CA","Zip":"90232"},{"Location":"LAZZARI LA LLC","Address":"9725 Culver Blvd","City":"Culver City","State":"CA","Zip":"90232"},{"Location":"LEGENDS LLC","Address":"3830 Clarington Ave","City":"Culver City","State":"CA","Zip":"90232"},{"Location":"LIVE ANIMALS","Address":"5914 Smiley Dr","City":"Culver City","State":"CA","Zip":"90232"},{"Location":"LONDOLOZI DOG DEN AND CATTERY","Address":"3416 Wesley St","City":"Culver City","State":"CA","Zip":"90232"},{"Location":"LUNCH!","Address":"3829 Main St","City":"Culver City","State":"CA","Zip":"90232"},{"Location":"M AUCTIONS","Address":"9510 Jefferson Blvd","City":"Culver City","State":"CA","Zip":"90232"},{"Location":"MAKER STUDIOS INC","Address":"3562 Eastham Dr","City":"Culver City","State":"CA","Zip":"90232"},{"Location":"MANUEL BODY SHOP","Address":"9301 Venice Blvd","City":"Culver City","State":"CA","Zip":"90232"},{"Location":"MARCELO AHN","Address":"3833 Main St","City":"Culver City","State":"CA","Zip":"90232"},{"Location":"MAROLLA","Address":"9755 Culver Blvd","City":"Culver City","State":"CA","Zip":"90232"},{"Location":"MASSIVE MUSIC","Address":"8500 Steller Dr 1","City":"Culver City","State":"CA","Zip":"90232"},{"Location":"MATERIAL PICTURES","Address":"8440 Warner Dr B1","City":"Culver City","State":"CA","Zip":"90232"},{"Location":"MAYURA RESTAURANT","Address":"10406 Venice Blvd","City":"Culver City","State":"CA","Zip":"90232"},{"Location":"MEDIA TEMPLE","Address":"8520 National Blvd A","City":"Culver City","State":"CA","Zip":"90232"},{"Location":"MONKEYHEAD LLC","Address":"8553 Washington Blvd","City":"Culver City","State":"CA","Zip":"90232"},{"Location":"MUSE COMMUNICATIONS","Address":"9543 Culver Blvd Fl2","City":"Culver City","State":"CA","Zip":"90232"},{"Location":"MUSICIAN CHOICE STUDIO","Address":"3727 Robertson Blvd","City":"Culver City","State":"CA","Zip":"90232"},{"Location":"NANAS VAPE SHOP","Address":"10812 Washington Blvd","City":"Culver City","State":"CA","Zip":"90232"},{"Location":"NATIONAL PUBLIC RADIO","Address":"9909 Jefferson Blvd","City":"Culver City","State":"CA","Zip":"90232"},{"Location":"PALMS SELF STORAGE","Address":"8829 National Blvd","City":"Culver City","State":"CA","Zip":"90232"},{"Location":"PAUL J BRODY DPM","Address":"3831 Hughes Ave","City":"Culver City","State":"CA","Zip":"90232"},{"Location":"PINCHES TACOS","Address":"8665 Washington Blvd","City":"Culver City","State":"CA","Zip":"90232"},{"Location":"POLICE DEPT OF CULVER CI","Address":"4040 Duquesne Ave","City":"Culver City","State":"CA","Zip":"90232"},{"Location":"PRETTY BIRD","Address":"9905 Jefferson Blvd","City":"Culver City","State":"CA","Zip":"90232"},{"Location":"PRIME","Address":"9696 Culver Blvd 102","City":"Culver City","State":"CA","Zip":"90232"},{"Location":"PROGRESSIVE ARTIST AGENCY","Address":"9696 Culver Blvd 110","City":"Culver City","State":"CA","Zip":"90232"},{"Location":"PUBLIC SCHOOL 310","Address":"9411 Culver Blvd","City":"Culver City","State":"CA","Zip":"90232"},{"Location":"RACHLIN ARCHITECTS","Address":"8640 National Blvd","City":"Culver City","State":"CA","Zip":"90232"},{"Location":"ROCCOS TAVERN","Address":"3843 Main St","City":"Culver City","State":"CA","Zip":"90232"},{"Location":"ROK MOBILE INC.","Address":"8500 Steller Dr 301","City":"Culver City","State":"CA","Zip":"90232"},{"Location":"RUSH STREET","Address":"9546 Washington Blvd","City":"Culver City","State":"CA","Zip":"90232"},{"Location":"SCOPELY","Address":"9950 Jefferson Blvd","City":"Culver City","State":"CA","Zip":"90232"},{"Location":"SDI MEDIA","Address":"10950 Washington Blvd Studio 8","City":"Culver City","State":"CA","Zip":"90232"},{"Location":"SERVICON SYSTEMS INC","Address":"3965 Landmark St","City":"Culver City","State":"CA","Zip":"90232"},{"Location":"SHINE AND BRITE  CARWASH","Address":"11166 Venice Blvd","City":"Culver City","State":"CA","Zip":"90232"},{"Location":"SHUBIN AND DONALDSON ARCHITECT","Address":"3834 Willat Ave","City":"Culver City","State":"CA","Zip":"90232"},{"Location":"SIGNATURE BURGER","Address":"3835 Main St","City":"Culver City","State":"CA","Zip":"90232"},{"Location":"SMART ART INC","Address":"3571 Hayden Ave","City":"Culver City","State":"CA","Zip":"90232"},{"Location":"SO CA SPINE INSTITUTE","Address":"3831 Hughes Ave 105","City":"Culver City","State":"CA","Zip":"90232"},{"Location":"SO CAL GRAPHICS","Address":"8432 Steller Dr","City":"Culver City","State":"CA","Zip":"90232"},{"Location":"SONY PICTURES ENTERTAIMENT #2","Address":"10202 Washington Blvd","City":"Culver City","State":"CA","Zip":"90232"},{"Location":"SONY PICTURES ENTERTAINMENT","Address":"10202 Washington Blvd","City":"Culver City","State":"CA","Zip":"90232"},{"Location":"SONY PICTURES ENTERTAINMENT #1","Address":"10202 Washington Blvd","City":"Culver City","State":"CA","Zip":"90232"},{"Location":"SONY PICTURES SOUND","Address":"10202 Washington Blvd","City":"Culver City","State":"CA","Zip":"90232"},{"Location":"SONY PICTURES-MEDIA SERVICES","Address":"10202 Washington Blvd","City":"Culver City","State":"CA","Zip":"90232"},{"Location":"SONY PICTURES%2F MEDIA SERVICES","Address":"10202 Washington Blvd","City":"Culver City","State":"CA","Zip":"90232"},{"Location":"SONY STUDIOS","Address":"10202 W Washington Thalberg Bas","City":"Culver City","State":"CA","Zip":"90232"},{"Location":"SOUTHERN CALIFORNIA GRAPHICS","Address":"8432 Steller Dr","City":"Culver City","State":"CA","Zip":"90232"},{"Location":"SPARK STUDIOS","Address":"10811 Washington Blvd 400","City":"Culver City","State":"CA","Zip":"90232"},{"Location":"SUGAR INC","Address":"3523 Eastham Dr","City":"Culver City","State":"CA","Zip":"90232"},{"Location":"TANDUS INC","Address":"5968 Washington Blvd","City":"Culver City","State":"CA","Zip":"90232"},{"Location":"TASTE OF THE ISLANDS","Address":"9006 Venice Blvd","City":"Culver City","State":"CA","Zip":"90232"},{"Location":"TENNIS CHANNEL","Address":"3555 Hayden Ave","City":"Culver City","State":"CA","Zip":"90232"},{"Location":"THE ARSENAL FILM AND CREATIVE","Address":"8439 Warner Dr","City":"Culver City","State":"CA","Zip":"90232"},{"Location":"THE COZY INN BAR","Address":"11155 Washington Pl","City":"Culver City","State":"CA","Zip":"90232"},{"Location":"THE WOO","Address":"9601 Jefferson Blvd B","City":"Culver City","State":"CA","Zip":"90232"},{"Location":"THE YOUNG TURKS","Address":"8440 Warner Dr C","City":"Culver City","State":"CA","Zip":"90232"},{"Location":"THOMAS M LOE DDS","Address":"10320 Venice Blvd","City":"Culver City","State":"CA","Zip":"90232"},{"Location":"THRESHOLD LLC","Address":"8675 Hayden Pl","City":"Culver City","State":"CA","Zip":"90232"},{"Location":"TOPSON DOWNS","Address":"3840 Watseka Ave","City":"Culver City","State":"CA","Zip":"90232"},{"Location":"TRIPLE CROWN ACADEMY","Address":"3609 Hayden Ave","City":"Culver City","State":"CA","Zip":"90232"},{"Location":"TSUNAMI BURGERS LLC","Address":"9418 Venice Blvd","City":"Culver City","State":"CA","Zip":"90232"},{"Location":"UPLOAD FILMS","Address":"8522 National Blvd 106","City":"Culver City","State":"CA","Zip":"90232"},{"Location":"URBAN MARKETING GROUP","Address":"3215 La Cienega Ave","City":"Culver City","State":"CA","Zip":"90232"},{"Location":"VELVET INC","Address":"3961 Landmark St","City":"Culver City","State":"CA","Zip":"90232"},{"Location":"WALTON ISAACSON","Address":"3630 Eastham Dr","City":"Culver City","State":"CA","Zip":"90232"},{"Location":"WEST OF HEAVEN","Address":"9469 Jefferson Blvd 107","City":"Culver City","State":"CA","Zip":"90232"},{"Location":"WILD CARD MEDIA","Address":"3542 Hayden Ave","City":"Culver City","State":"CA","Zip":"90232"},{"Location":"WOLCOTT ARCHITECTURE & INTER","Address":"3859 Cardiff Ave","City":"Culver City","State":"CA","Zip":"90232"},{"Location":"WONG DOODY","Address":"8500 Steller Dr 5","City":"Culver City","State":"CA","Zip":"90232"},{"Location":"WOVEN DIGITAL","Address":"10381 Jefferson Blvd","City":"Culver City","State":"CA","Zip":"90232"},{"Location":"YOKOHAMA SUSHI","Address":"3859 Overland Ave","City":"Culver City","State":"CA","Zip":"90232"},{"Location":"ZOIC STUDIOS","Address":"3582 Eastham Dr","City":"Culver City","State":"CA","Zip":"90232"}]