[{"Location":"","Address":"2250 E Imperial Hwy","City":"El Segundo","State":"CA","Zip":"90245"},{"Location":"","Address":"2250 E Imerial Hwy","City":"El Segundo","State":"CA","Zip":"90245"},{"Location":"","Address":"2256 E Imperial Hwy","City":"El Segundo","State":"CA","Zip":"90245"},{"Location":"","Address":"2230 E Imperial Hwy","City":"El Segundo","State":"CA","Zip":"90245"},{"Location":"21 CENTURY ONCOLOGY","Address":"860 N Park View Dr","City":"El Segundo","State":"CA","Zip":"90245"},{"Location":"4 STAR GYM","Address":"436 Main St","City":"El Segundo","State":"CA","Zip":"90245"},{"Location":"5ANDIANT","Address":"801 Apollo St 350","City":"El Segundo","State":"CA","Zip":"90245"},{"Location":"61 COMMUNICATION SQUADRON","Address":"483 N Aviation Blvd","City":"El Segundo","State":"CA","Zip":"90245"},{"Location":"61ST COMMUNICATIONS SQUADRON","Address":"483 N Aviation Blvd","City":"El Segundo","State":"CA","Zip":"90245"},{"Location":"ACCENTURE","Address":"2141 Rosecrans Ave 3100","City":"El Segundo","State":"CA","Zip":"90245"},{"Location":"ACCUVANT","Address":"2321 Rosecrans Ave 2240","City":"El Segundo","State":"CA","Zip":"90245"},{"Location":"ACE METRIX","Address":"1960 E Grand Ave 510","City":"El Segundo","State":"CA","Zip":"90245"},{"Location":"ACE OF BLADES","Address":"200 N Douglas St","City":"El Segundo","State":"CA","Zip":"90245"},{"Location":"ADVANTAGE SALES AND MARK","Address":"200 N Sepulveda Blvd 1000","City":"El Segundo","State":"CA","Zip":"90245"},{"Location":"ADVANTAGE SCI","Address":"222 N Sepulveda Blvd 1780","City":"El Segundo","State":"CA","Zip":"90245"},{"Location":"AIR NEW ZEALAND","Address":"1960 E Grand Ave 300","City":"El Segundo","State":"CA","Zip":"90245"},{"Location":"ALESHIRE AND WYNDER","Address":"2361 Rosecrans Ave 475","City":"El Segundo","State":"CA","Zip":"90245"},{"Location":"AMERICAN CAPITAL CORP","Address":"2121 Rosecrans Ave 6","City":"El Segundo","State":"CA","Zip":"90245"},{"Location":"AMERICAN CAPITAL CORP","Address":"2101 Rosecrans Ave 4255","City":"El Segundo","State":"CA","Zip":"90245"},{"Location":"ANAHAU ENERGY","Address":"2041 Rosecrans Ave 322","City":"El Segundo","State":"CA","Zip":"90245"},{"Location":"ANDIAMO PIZZARIA","Address":"134 Main St","City":"El Segundo","State":"CA","Zip":"90245"},{"Location":"ANDREW L. ELLIS & ASSOCIATES","Address":"833 N Douglas St","City":"El Segundo","State":"CA","Zip":"90245"},{"Location":"AREF & ASSOCIATES","Address":"100 N Sepulveda Blvd 100","City":"El Segundo","State":"CA","Zip":"90245"},{"Location":"ATHENE ASSET MANAGEMENT","Address":"2121 Rosecrans Ave 5300","City":"El Segundo","State":"CA","Zip":"90245"},{"Location":"AVANTI HOSPITAL LLC","Address":"222 N Sepulveda Blvd 950","City":"El Segundo","State":"CA","Zip":"90245"},{"Location":"AVASANT","Address":"1960 E Grand Ave 1050","City":"El Segundo","State":"CA","Zip":"90245"},{"Location":"AVEGA HEALTH SYSTMS","Address":"222 N Sepulveda Blvd 11","City":"El Segundo","State":"CA","Zip":"90245"},{"Location":"BALBOA TECHNOLOGIES","Address":"2101 E El Segundo Blvd 201","City":"El Segundo","State":"CA","Zip":"90245"},{"Location":"BANK OF MANHATTAN","Address":"2141 Rosecrans Ave 1100","City":"El Segundo","State":"CA","Zip":"90245"},{"Location":"BARON EQUITIES","Address":"2121 Rosecrans Ave 4335","City":"El Segundo","State":"CA","Zip":"90245"},{"Location":"BC BASEBALL ACADEMY","Address":"430 E Grand Ave","City":"El Segundo","State":"CA","Zip":"90245"},{"Location":"BDP INTL","Address":"557 S Douglas St","City":"El Segundo","State":"CA","Zip":"90245"},{"Location":"BEACH MEX","Address":"409 E Grand Ave","City":"El Segundo","State":"CA","Zip":"90245"},{"Location":"BEACHBODY","Address":"400 Continental Blvd 400","City":"El Segundo","State":"CA","Zip":"90245"},{"Location":"BEACHFREEMAN LIM & CLELAND","Address":"861 N Park View Dr 200","City":"El Segundo","State":"CA","Zip":"90245"},{"Location":"BELLWETHER ASSET MANAGEM","Address":"222 N Sepulveda Blvd 900","City":"El Segundo","State":"CA","Zip":"90245"},{"Location":"BIG DOOR","Address":"114 Sheldon St","City":"El Segundo","State":"CA","Zip":"90245"},{"Location":"BLUE SHEILD OF CALIFORNI","Address":"100 N Sepulveda Blvd 19","City":"El Segundo","State":"CA","Zip":"90245"},{"Location":"BLUE SHIELD OF CALIFONIA","Address":"100 N Sepulveda Blvd 20","City":"El Segundo","State":"CA","Zip":"90245"},{"Location":"BMA SECURITIES","Address":"2321 Rosecrans Ave 3285","City":"El Segundo","State":"CA","Zip":"90245"},{"Location":"BOARD OF EQUALIZATION","Address":"2361 Rosecrans Ave 450","City":"El Segundo","State":"CA","Zip":"90245"},{"Location":"BODY DYNAMICS","Address":"2250 Park Pl","City":"El Segundo","State":"CA","Zip":"90245"},{"Location":"BOEING","Address":"2060 E Imperial Hwy","City":"El Segundo","State":"CA","Zip":"90245"},{"Location":"BOEING","Address":"900 N Sepulveda Blvd 1","City":"El Segundo","State":"CA","Zip":"90245"},{"Location":"BOEING S17 FITNESS","Address":"930 Selby St W-s17","City":"El Segundo","State":"CA","Zip":"90245"},{"Location":"BOOZ AND CO","Address":"2141 Rosecrans Ave 5","City":"El Segundo","State":"CA","Zip":"90245"},{"Location":"BT AMERICAS INC","Address":"2160 E Grand Ave","City":"El Segundo","State":"CA","Zip":"90245"},{"Location":"BT CAFETERIA","Address":"2160 E Grand Ave","City":"El Segundo","State":"CA","Zip":"90245"},{"Location":"BUNDY MFG","Address":"507 S Douglas St","City":"El Segundo","State":"CA","Zip":"90245"},{"Location":"CA FISH GRILL EL SEGUNDO","Address":"730 S Allied Way H","City":"El Segundo","State":"CA","Zip":"90245"},{"Location":"CALLEROS DENTAL INC","Address":"131 W Grand Ave B","City":"El Segundo","State":"CA","Zip":"90245"},{"Location":"CAMBRIA  MANAGEMENT","Address":"2321 Rosecrans Ave 3","City":"El Segundo","State":"CA","Zip":"90245"},{"Location":"CAMDEN CAPITAL","Address":"2301 Rosecrans Ave 2110","City":"El Segundo","State":"CA","Zip":"90245"},{"Location":"CANTON LOW","Address":"439 Main St","City":"El Segundo","State":"CA","Zip":"90245"},{"Location":"CARICO JOHNSON TOOMEY LLP","Address":"841 Apollo St 450","City":"El Segundo","State":"CA","Zip":"90245"},{"Location":"CB RICHARD ELLIS","Address":"100 N Sepulveda Blvd 1000","City":"El Segundo","State":"CA","Zip":"90245"},{"Location":"CBRE","Address":"2121 Rosecrans Ave 1","City":"El Segundo","State":"CA","Zip":"90245"},{"Location":"CBS INTERACTIVE","Address":"2101 Rosecrans Ave 4","City":"El Segundo","State":"CA","Zip":"90245"},{"Location":"CBS INTERACTIVE","Address":"2121 Rosecrans Ave 4","City":"El Segundo","State":"CA","Zip":"90245"},{"Location":"CENTURY PARK CAPITAL PAR","Address":"2101 Rosecrans Ave 4","City":"El Segundo","State":"CA","Zip":"90245"},{"Location":"CETERA FINANCIAL GROUP","Address":"200 N Sepulveda Blvd 1200","City":"El Segundo","State":"CA","Zip":"90245"},{"Location":"CHARLES  REYNOLDS ASS","Address":"2041 Rosecrans Ave 355","City":"El Segundo","State":"CA","Zip":"90245"},{"Location":"CHEVRON - CVN 000064","Address":"324 W El Segundo Blvd 252","City":"El Segundo","State":"CA","Zip":"90245"},{"Location":"CHEVRON - CVN 000332","Address":"324 W El Segundo Blvd 233","City":"El Segundo","State":"CA","Zip":"90245"},{"Location":"CHEVRON PRODUCTS COMPANY","Address":"324 W El Segundo Blvd","City":"El Segundo","State":"CA","Zip":"90245"},{"Location":"CHINA AIRLINES","Address":"200 Continental Blvd","City":"El Segundo","State":"CA","Zip":"90245"},{"Location":"CIGINIUM TECHNOLOGY","Address":"889 Douglas Street","City":"El Segundo","State":"CA","Zip":"90245"},{"Location":"CITY NATIONAL BANK","Address":"2100 Park Pl","City":"El Segundo","State":"CA","Zip":"90245"},{"Location":"CLARITY WEALTH","Address":"2101 Rosecrans Ave 3","City":"El Segundo","State":"CA","Zip":"90245"},{"Location":"COAST LINE REAL ESTATE A","Address":"134 Lomita St","City":"El Segundo","State":"CA","Zip":"90245"},{"Location":"COLLIERS INTERNATIONAL","Address":"2121 Rosecrans Ave 3301","City":"El Segundo","State":"CA","Zip":"90245"},{"Location":"COLUMBIA MANAGEMENT","Address":"100 N Sepulveda Blvd 650","City":"El Segundo","State":"CA","Zip":"90245"},{"Location":"COLUMBUS TECHNOLOGIES","Address":"1960 E Grand Ave 1000","City":"El Segundo","State":"CA","Zip":"90245"},{"Location":"COMMERCIAL TEST ACCOUNT","Address":"2230 E Imperial Hwy","City":"El Segundo","State":"CA","Zip":"90245"},{"Location":"CONILL  ADVERTISING INC","Address":"2101 Rosecrans Ave 2","City":"El Segundo","State":"CA","Zip":"90245"},{"Location":"CONTINENTAL GRAND OFFICE","Address":"2100 E Grand Ave","City":"El Segundo","State":"CA","Zip":"90245"},{"Location":"CONVERGEX","Address":"2301 Rosecrans Ave 4140","City":"El Segundo","State":"CA","Zip":"90245"},{"Location":"COUNTER EL SEGUNDO","Address":"700 S Allied Way","City":"El Segundo","State":"CA","Zip":"90245"},{"Location":"COZYMEL'S #0020","Address":"2171 Rosecrans Ave","City":"El Segundo","State":"CA","Zip":"90245"},{"Location":"DALLAS COWBOYS BUS 1","Address":"2230 E Imperial Hwy","City":"El Segundo","State":"CA","Zip":"90245"},{"Location":"DAVIS PARTNERS-FITNESS","Address":"1960 E Grand Ave 550","City":"El Segundo","State":"CA","Zip":"90245"},{"Location":"DAVITA #653","Address":"601 Hawaii St","City":"El Segundo","State":"CA","Zip":"90245"},{"Location":"DAVITA #653","Address":"841 Apollo St 100","City":"El Segundo","State":"CA","Zip":"90245"},{"Location":"DAVITA #653 PLAYA","Address":"2201 Park Pl","City":"El Segundo","State":"CA","Zip":"90245"},{"Location":"DEDICATED MEDIA INC","Address":"909 N Sepulveda Blvd 320","City":"El Segundo","State":"CA","Zip":"90245"},{"Location":"DERMSTORE","Address":"2301 Rosecrans Ave 2100","City":"El Segundo","State":"CA","Zip":"90245"},{"Location":"DFDS TRANSPORT US INC","Address":"898 N Sepulveda Blvd 6","City":"El Segundo","State":"CA","Zip":"90245"},{"Location":"DICK'S SPORTING GOODS #924","Address":"770 S Sepulveda Blvd","City":"El Segundo","State":"CA","Zip":"90245"},{"Location":"DIGITAL 2260 E EL SEGUNDO%2CLLC","Address":"2260 E El Segundo Blvd","City":"El Segundo","State":"CA","Zip":"90245"},{"Location":"DIRECTV NEL BAR","Address":"2230 E Imperial Hwy","City":"El Segundo","State":"CA","Zip":"90245"},{"Location":"DKP DESIGNS","Address":"110 Maryland St","City":"El Segundo","State":"CA","Zip":"90245"},{"Location":"DONAHUE & HORROW LLP","Address":"1960 E Grand Ave 1215","City":"El Segundo","State":"CA","Zip":"90245"},{"Location":"DONER PARTNERS LLC","Address":"909 N Sepulveda Blvd 200","City":"El Segundo","State":"CA","Zip":"90245"},{"Location":"DPS FOOD WORKS","Address":"2041 Rosecrans Ave 190","City":"El Segundo","State":"CA","Zip":"90245"},{"Location":"DSG INTERNATIONAL LLC","Address":"105 Eucalyptus Dr","City":"El Segundo","State":"CA","Zip":"90245"},{"Location":"DYLAN GORMLY INC.","Address":"2101 E El Segundo Blvd 203","City":"El Segundo","State":"CA","Zip":"90245"},{"Location":"EAST GRAND BAR AND GRILL","Address":"1980 E Grand Ave","City":"El Segundo","State":"CA","Zip":"90245"},{"Location":"EL SEGUNDO ANIMAL HOSPITAL","Address":"240 Center St","City":"El Segundo","State":"CA","Zip":"90245"},{"Location":"EL SEGUNDO FIREFIGHTERS ASSOC","Address":"314 Main St","City":"El Segundo","State":"CA","Zip":"90245"},{"Location":"EL SEGUNDO FISH COMPANY","Address":"210 E Grand Ave","City":"El Segundo","State":"CA","Zip":"90245"},{"Location":"EL SEGUNDO POLICE DEPARTMENT","Address":"348 Main St","City":"El Segundo","State":"CA","Zip":"90245"},{"Location":"EMBASSY SUITES (0012054)","Address":"1440 E Imperial Ave","City":"El Segundo","State":"CA","Zip":"90245"},{"Location":"EMBASSY SUITES HOTEL LAX SOUTH","Address":"1440 E Imperial Ave","City":"El Segundo","State":"CA","Zip":"90245"},{"Location":"EMPIRE INTERNATIONAL","Address":"600 S Allied Way","City":"El Segundo","State":"CA","Zip":"90245"},{"Location":"ENTERTAINERS & ATHLETES","Address":"909 N Sepulveda Blvd 360","City":"El Segundo","State":"CA","Zip":"90245"},{"Location":"ENVISION CAPITAL MGMT IN","Address":"2301 Rosecrans Ave 4180","City":"El Segundo","State":"CA","Zip":"90245"},{"Location":"ETONIEN  LLC","Address":"222 N Sepulveda Blvd 15","City":"El Segundo","State":"CA","Zip":"90245"},{"Location":"EURO PACIFIC CAPITAL","Address":"1960 E Grand Ave 425","City":"El Segundo","State":"CA","Zip":"90245"},{"Location":"EVA AIR","Address":"200 N Sepulveda Blvd 1600","City":"El Segundo","State":"CA","Zip":"90245"},{"Location":"FAST TRACK EXPEDITING LLC","Address":"363 Coral Cir","City":"El Segundo","State":"CA","Zip":"90245"},{"Location":"FINANCIAL WEST","Address":"400 Continental Blvd 600","City":"El Segundo","State":"CA","Zip":"90245"},{"Location":"FLEMING'S #1504","Address":"2301 Rosecrans Ave","City":"El Segundo","State":"CA","Zip":"90245"},{"Location":"FONT ROW MEDIA INC","Address":"210 Penn St","City":"El Segundo","State":"CA","Zip":"90245"},{"Location":"FORMULA","Address":"810 N Park View Dr","City":"El Segundo","State":"CA","Zip":"90245"},{"Location":"FU HU","Address":"909 N Sepulveda Blvd 5thf","City":"El Segundo","State":"CA","Zip":"90245"},{"Location":"FUHU","Address":"1700 E Walnut Ave","City":"El Segundo","State":"CA","Zip":"90245"},{"Location":"GARVEY COMMUNICATIONS","Address":"111 Penn St","City":"El Segundo","State":"CA","Zip":"90245"},{"Location":"GOLFSMITH #039","Address":"2041 Rosecrans Ave","City":"El Segundo","State":"CA","Zip":"90245"},{"Location":"GOOD STUFF","Address":"131 W Grand Ave C","City":"El Segundo","State":"CA","Zip":"90245"},{"Location":"GRANCELL%2C LEBOVITZ%2C STANDER","Address":"200 N Sepulveda Blvd 1400","City":"El Segundo","State":"CA","Zip":"90245"},{"Location":"GRAND AVE COURTYARD","Address":"1960 E Grand Ave 550","City":"El Segundo","State":"CA","Zip":"90245"},{"Location":"GRAND ORTHODONTICS","Address":"310 E Grand Ave 106","City":"El Segundo","State":"CA","Zip":"90245"},{"Location":"GRANITE INVESTMENT PARTN","Address":"2121 Rosecrans Ave 20","City":"El Segundo","State":"CA","Zip":"90245"},{"Location":"GRIFFN CAPITAL","Address":"2121 Rosecrans Ave 3","City":"El Segundo","State":"CA","Zip":"90245"},{"Location":"GRIMALDIS PIZZERIA","Address":"2121 Rosecrans Ave","City":"El Segundo","State":"CA","Zip":"90245"},{"Location":"GROUP 22 INC","Address":"1205 E Grand Ave","City":"El Segundo","State":"CA","Zip":"90245"},{"Location":"GUIDING HANDS LEARNING C","Address":"2004 Park Pl B","City":"El Segundo","State":"CA","Zip":"90245"},{"Location":"HAIR & NAIL","Address":"630 N Sepulveda Blvd 8a","City":"El Segundo","State":"CA","Zip":"90245"},{"Location":"HAVANNA SANDWICH CO","Address":"229 Main St","City":"El Segundo","State":"CA","Zip":"90245"},{"Location":"HENRY COMPANY","Address":"909 N Sepulveda Blvd 650","City":"El Segundo","State":"CA","Zip":"90245"},{"Location":"HIGHLAND REALTY CAPITAL","Address":"880 Apollo St 130","City":"El Segundo","State":"CA","Zip":"90245"},{"Location":"HILTON GARDEN INN","Address":"2100 E Mariposa Ave","City":"El Segundo","State":"CA","Zip":"90245"},{"Location":"HOLLYWOOD BRANDED INC","Address":"110 Lomita St","City":"El Segundo","State":"CA","Zip":"90245"},{"Location":"HOMELAND SECURITY INVEST","Address":"222 N Sepulveda Blvd 400","City":"El Segundo","State":"CA","Zip":"90245"},{"Location":"HYATT PLACE EL SEQUNDO","Address":"750 N Nash St","City":"El Segundo","State":"CA","Zip":"90245"},{"Location":"HYDROFLEX","Address":"301 E El Segundo Blvd","City":"El Segundo","State":"CA","Zip":"90245"},{"Location":"I LOVE TERIYAKI","Address":"130 Main St","City":"El Segundo","State":"CA","Zip":"90245"},{"Location":"I RISE","Address":"2301 Rosecrans Ave 4110","City":"El Segundo","State":"CA","Zip":"90245"},{"Location":"IGNITED MINDS  LLC","Address":"2221 Park Pl","City":"El Segundo","State":"CA","Zip":"90245"},{"Location":"INNOVATION CAPITAL LLC","Address":"222 N Sepulveda Blvd 1300","City":"El Segundo","State":"CA","Zip":"90245"},{"Location":"INNOVATIVE SOLUTIONS INSURANCE","Address":"200 N Sepulveda Blvd 900","City":"El Segundo","State":"CA","Zip":"90245"},{"Location":"INSIGHT STRUCTURAL ENGINEER","Address":"879 N Douglas St","City":"El Segundo","State":"CA","Zip":"90245"},{"Location":"INTEGRATED DATA SERVICES","Address":"2141 Rosecrans Ave 200","City":"El Segundo","State":"CA","Zip":"90245"},{"Location":"INTELLIGENT BEAUTY","Address":"2301 Rosecrans Ave 4","City":"El Segundo","State":"CA","Zip":"90245"},{"Location":"INTELLIGENT BEAUTY","Address":"2301 Rosecrans Ave 4100","City":"El Segundo","State":"CA","Zip":"90245"},{"Location":"INTELLIGENT BEAUTY","Address":"2301 Rosecrans Ave 5","City":"El Segundo","State":"CA","Zip":"90245"},{"Location":"INTERVEST MORTGAGE","Address":"2121 Rosecrans Ave 4330","City":"El Segundo","State":"CA","Zip":"90245"},{"Location":"ITOCHU","Address":"222 N Sepulveda Blvd 2200","City":"El Segundo","State":"CA","Zip":"90245"},{"Location":"JACKSON NATIONAL LIFE IN","Address":"100 N Sepulveda Blvd 18","City":"El Segundo","State":"CA","Zip":"90245"},{"Location":"JACOBS ASSET MANAGMENT","Address":"2121 Rosecrans Ave 2","City":"El Segundo","State":"CA","Zip":"90245"},{"Location":"JAGMAAR PROPERTIES LLC","Address":"125 Eucalyptus Dr","City":"El Segundo","State":"CA","Zip":"90245"},{"Location":"JERSEY MIKES SUBS","Address":"530 N Sepulveda Blvd","City":"El Segundo","State":"CA","Zip":"90245"},{"Location":"JONES LANG","Address":"2141 Rosecrans Ave 6100","City":"El Segundo","State":"CA","Zip":"90245"},{"Location":"JUST DOWNSTAIRS","Address":"1960 E Grand Ave 120","City":"El Segundo","State":"CA","Zip":"90245"},{"Location":"JUST DOWNSTAIRS LLC","Address":"200 N Sepulveda Blvd 100","City":"El Segundo","State":"CA","Zip":"90245"},{"Location":"KARL STORZ","Address":"2151 E Grand Ave","City":"El Segundo","State":"CA","Zip":"90245"},{"Location":"KAYA RESTAURANT","Address":"2251 E Maple Ave","City":"El Segundo","State":"CA","Zip":"90245"},{"Location":"KIEWET POWER 2","Address":"507 W Grand Ave","City":"El Segundo","State":"CA","Zip":"90245"},{"Location":"KILROY REALTY GROUP","Address":"909 N Sepulveda Blvd 220","City":"El Segundo","State":"CA","Zip":"90245"},{"Location":"KINAOLE PARTNERS LLC","Address":"863 N Douglas St 100","City":"El Segundo","State":"CA","Zip":"90245"},{"Location":"KINECTA FEDERAL CREDIT UNION","Address":"2100 Park Pl","City":"El Segundo","State":"CA","Zip":"90245"},{"Location":"KING C INC","Address":"555 N Nash St","City":"El Segundo","State":"CA","Zip":"90245"},{"Location":"KONAMI DIGITAL ENTERTAINMENT","Address":"2381 Rosecrans Ave 200","City":"El Segundo","State":"CA","Zip":"90245"},{"Location":"KURTZMAN CARSON CONSULTANTS","Address":"2335 Alaska Ave","City":"El Segundo","State":"CA","Zip":"90245"},{"Location":"KWK MANAGMENT LLC","Address":"2301 Rosecrans Ave 4195","City":"El Segundo","State":"CA","Zip":"90245"},{"Location":"LA AIR FORCE BASE-61 ABG%2FSVMP","Address":"483 N Aviation Blvd 1467","City":"El Segundo","State":"CA","Zip":"90245"},{"Location":"LA AIRFORCE BASE 61CS","Address":"483 N Aviation Blvd","City":"El Segundo","State":"CA","Zip":"90245"},{"Location":"LAN AIRLINES","Address":"1960 E Grand Ave 530","City":"El Segundo","State":"CA","Zip":"90245"},{"Location":"LANDMARK AVIATION","Address":"6201 W Imperial Hwy","City":"El Segundo","State":"CA","Zip":"90245"},{"Location":"LANDMARK SPORTS AGENCY LLC","Address":"881 N Park View Dr","City":"El Segundo","State":"CA","Zip":"90245"},{"Location":"LANGLEY PRODUCTIONS","Address":"1924 E Maple Ave","City":"El Segundo","State":"CA","Zip":"90245"},{"Location":"LEE DOVER ASSOC","Address":"2301 Rosecrans Ave","City":"El Segundo","State":"CA","Zip":"90245"},{"Location":"LEVEL 5 INTERNATIONAL","Address":"2101 Rosecrans Ave 5283","City":"El Segundo","State":"CA","Zip":"90245"},{"Location":"LMG","Address":"300 N Sepulveda Blvd 1007","City":"El Segundo","State":"CA","Zip":"90245"},{"Location":"LOCKHEAD MARTIN CORPORATION","Address":"2401 E El Segundo Blvd Fl6","City":"El Segundo","State":"CA","Zip":"90245"},{"Location":"LOOK SMART","Address":"100 N Sepulveda Blvd 275","City":"El Segundo","State":"CA","Zip":"90245"},{"Location":"LOOKING","Address":"145 Standard St","City":"El Segundo","State":"CA","Zip":"90245"},{"Location":"LOS ANGELES FLIGHT STANDARDS D","Address":"2250 E Imperial Hwy 140","City":"El Segundo","State":"CA","Zip":"90245"},{"Location":"LOS ANGELES KINGS","Address":"555 N Nash St","City":"El Segundo","State":"CA","Zip":"90245"},{"Location":"LOS ANGELES KINGS 2","Address":"300 Continental Blvd 500","City":"El Segundo","State":"CA","Zip":"90245"},{"Location":"LOS ANGELES LAKERS INC","Address":"2151 E Grand Ave","City":"El Segundo","State":"CA","Zip":"90245"},{"Location":"LOS ANGELES MAIN EXCHANGE","Address":"200 N Douglas St 252","City":"El Segundo","State":"CA","Zip":"90245"},{"Location":"LOS ANGELES MAPS","Address":"1776 E Grand Ave 117","City":"El Segundo","State":"CA","Zip":"90245"},{"Location":"LOVELL MINNICK PARTNERS LLC","Address":"2141 Rosecrans Ave 5150","City":"El Segundo","State":"CA","Zip":"90245"},{"Location":"LSG INC.","Address":"710 S Allied Way D","City":"El Segundo","State":"CA","Zip":"90245"},{"Location":"MADISON MCQUEEN","Address":"135 Richmond St","City":"El Segundo","State":"CA","Zip":"90245"},{"Location":"MANHATTEN EQUITY","Address":"880 Apollo St 217","City":"El Segundo","State":"CA","Zip":"90245"},{"Location":"MARMALADE CAFE","Address":"2014 Park Pl","City":"El Segundo","State":"CA","Zip":"90245"},{"Location":"MATTEL","Address":"333 Continental Blvd","City":"El Segundo","State":"CA","Zip":"90245"},{"Location":"MATTEL","Address":"2031 E Mariposa Ave","City":"El Segundo","State":"CA","Zip":"90245"},{"Location":"MATTEL  DIG","Address":"333 Continental Blvd","City":"El Segundo","State":"CA","Zip":"90245"},{"Location":"MATTEL CHILDRENS CENTER","Address":"333 Continental Blvd M1010","City":"El Segundo","State":"CA","Zip":"90245"},{"Location":"MATTEL CORP","Address":"2041 E Mariposa Ave","City":"El Segundo","State":"CA","Zip":"90245"},{"Location":"MATTEL INC","Address":"2031 E Mariposa Ave","City":"El Segundo","State":"CA","Zip":"90245"},{"Location":"MATTEL INC","Address":"333 Continental Blvd","City":"El Segundo","State":"CA","Zip":"90245"},{"Location":"MATTEL INC -  RICHARD D","Address":"333 Continental Blvd M1150","City":"El Segundo","State":"CA","Zip":"90245"},{"Location":"MATTEL INC - KRISTINA D","Address":"333 Continental Blvd 10thf","City":"El Segundo","State":"CA","Zip":"90245"},{"Location":"MATTEL INC MAPLE","Address":"2041 E Maple Ave","City":"El Segundo","State":"CA","Zip":"90245"},{"Location":"MATTEL INC SECURITY","Address":"333 Continental Blvd","City":"El Segundo","State":"CA","Zip":"90245"},{"Location":"MATTEL INC-DOUG WADLEIGH","Address":"2031 E Mariposa Ave","City":"El Segundo","State":"CA","Zip":"90245"},{"Location":"MATTEL INC-JOE LAWANDUS","Address":"2031 E Mariposa Ave","City":"El Segundo","State":"CA","Zip":"90245"},{"Location":"MATTEL INC-MICHAEL SHORE","Address":"333 Continental Blvd","City":"El Segundo","State":"CA","Zip":"90245"},{"Location":"MATTEL INC.","Address":"333 Continental Blvd","City":"El Segundo","State":"CA","Zip":"90245"},{"Location":"MATTEL TOYS","Address":"333 Continental Blvd","City":"El Segundo","State":"CA","Zip":"90245"},{"Location":"MATTEL-JONATHAN BOURGOIN","Address":"333 Continental Blvd 4th","City":"El Segundo","State":"CA","Zip":"90245"},{"Location":"MCCORMICK & SCHMICK'S","Address":"2101 Rosecrans Ave 6","City":"El Segundo","State":"CA","Zip":"90245"},{"Location":"MENDYS FAMILY RESTAURANT","Address":"241 Main St","City":"El Segundo","State":"CA","Zip":"90245"},{"Location":"MERRILL LYNCH CA8-800-03-00","Address":"2301 Rosecrans Ave 3","City":"El Segundo","State":"CA","Zip":"90245"},{"Location":"MICROTEC","Address":"222 N Sepulveda Blvd 1","City":"El Segundo","State":"CA","Zip":"90245"},{"Location":"MOOSE LODGE","Address":"514 W Imperial Ave","City":"El Segundo","State":"CA","Zip":"90245"},{"Location":"MORGAN STANLEY 100810","Address":"2381 Rosecrans Ave 115","City":"El Segundo","State":"CA","Zip":"90245"},{"Location":"MRS GOOCHS","Address":"760 Sepulveda Blvd","City":"El Segundo","State":"CA","Zip":"90245"},{"Location":"MULLIN TBG","Address":"100 N Sepulveda Blvd 500","City":"El Segundo","State":"CA","Zip":"90245"},{"Location":"MURAD","Address":"2121 Park Pl","City":"El Segundo","State":"CA","Zip":"90245"},{"Location":"MURAD INC","Address":"2141 Rosecrans Ave 1stfl","City":"El Segundo","State":"CA","Zip":"90245"},{"Location":"NAIL GARDEN","Address":"2005 Park Pl B2","City":"El Segundo","State":"CA","Zip":"90245"},{"Location":"NAVY","Address":"100 N Sepulveda Blvd Fl9","City":"El Segundo","State":"CA","Zip":"90245"},{"Location":"NET DATA CENTERS INC","Address":"898 N Sepulveda Blvd 500","City":"El Segundo","State":"CA","Zip":"90245"},{"Location":"NETAPP","Address":"2141 Rosecrans Ave 7","City":"El Segundo","State":"CA","Zip":"90245"},{"Location":"NEWMARK GRUBB KNIGHT FRA","Address":"2321 Rosecrans Ave 4200","City":"El Segundo","State":"CA","Zip":"90245"},{"Location":"NEXON AMERICA","Address":"222 N Sepulveda Blvd 3","City":"El Segundo","State":"CA","Zip":"90245"},{"Location":"NIKKEI","Address":"1960 E Grand Ave 1090","City":"El Segundo","State":"CA","Zip":"90245"},{"Location":"NIMAN & ASSOCIATES","Address":"2101 Rosecrans Ave 3270","City":"El Segundo","State":"CA","Zip":"90245"},{"Location":"NIPPON EXPRESS USA INC","Address":"2233 E Grand Ave","City":"El Segundo","State":"CA","Zip":"90245"},{"Location":"NORTHOP GRUMMAN SYSTEMS CORP","Address":"101 Continental Blvd","City":"El Segundo","State":"CA","Zip":"90245"},{"Location":"NORTHROP","Address":"1 Hornet Way","City":"El Segundo","State":"CA","Zip":"90245"},{"Location":"NORTHROP GRUMAN SYSTEMS CORP","Address":"700 N Douglas St 202","City":"El Segundo","State":"CA","Zip":"90245"},{"Location":"NORTHROP GRUMMAN","Address":"840 Apollo St 343","City":"El Segundo","State":"CA","Zip":"90245"},{"Location":"NORTHROP GRUMMAN INC","Address":"800 N Douglas St 401","City":"El Segundo","State":"CA","Zip":"90245"},{"Location":"NORTHROP GRUMMAN MILITARY","Address":"1 Hornet Way","City":"El Segundo","State":"CA","Zip":"90245"},{"Location":"NORTHROP GRUMMAN SYSTEM CORP","Address":"101 Continental Blvd","City":"El Segundo","State":"CA","Zip":"90245"},{"Location":"NORTHROP GRUMMAN SYSTEMS CORP","Address":"800 N Douglas St 902","City":"El Segundo","State":"CA","Zip":"90245"},{"Location":"NORTHROP GRUMMAN SYSTEMS CORP","Address":"101 Continental Blvd","City":"El Segundo","State":"CA","Zip":"90245"},{"Location":"NORTHROP GRUMMAN SYSTEMS CORP","Address":"1 Hornet Way 202","City":"El Segundo","State":"CA","Zip":"90245"},{"Location":"NORTHROP GRUMMAN SYSTEMS CORP","Address":"700 N Douglas St","City":"El Segundo","State":"CA","Zip":"90245"},{"Location":"NORTHROP GRUMMAN SYSTEMS CORP","Address":"1 Hornet Way","City":"El Segundo","State":"CA","Zip":"90245"},{"Location":"NOS COMMUNICATIONS INC","Address":"909 N Sepulveda Blvd 900","City":"El Segundo","State":"CA","Zip":"90245"},{"Location":"OLD TOWN PATIO","Address":"115 Richmond St","City":"El Segundo","State":"CA","Zip":"90245"},{"Location":"OPUS BANK","Address":"2101 Rosecrans Ave","City":"El Segundo","State":"CA","Zip":"90245"},{"Location":"ORACLE","Address":"200 N Sepulveda Blvd 4","City":"El Segundo","State":"CA","Zip":"90245"},{"Location":"ORIGINAL RINALDI'S","Address":"323 Main St","City":"El Segundo","State":"CA","Zip":"90245"},{"Location":"PACIFIC RETAIL CAPITAL","Address":"100 N Sepulveda Blvd 1925","City":"El Segundo","State":"CA","Zip":"90245"},{"Location":"PACIFIC RETIREMENT ADV.","Address":"898 N Sepulveda Blvd 740","City":"El Segundo","State":"CA","Zip":"90245"},{"Location":"PAJAMAS MEDIA","Address":"100 N Sepulveda Blvd 225","City":"El Segundo","State":"CA","Zip":"90245"},{"Location":"PALADIN HEALTHCARE CAPIT","Address":"2121 Rosecrans Ave 2320","City":"El Segundo","State":"CA","Zip":"90245"},{"Location":"PARDEE HOMES","Address":"2120 Park Pl 120","City":"El Segundo","State":"CA","Zip":"90245"},{"Location":"PAUL MARTENS AMERICAN BISTRO","Address":"2361 Rosecrans Ave 1","City":"El Segundo","State":"CA","Zip":"90245"},{"Location":"PC MALL","Address":"1940 E Mariposa Ave","City":"El Segundo","State":"CA","Zip":"90245"},{"Location":"PETROS KAFE","Address":"131 W Grand Ave A","City":"El Segundo","State":"CA","Zip":"90245"},{"Location":"PF CHANG'S #3800","Address":"2041 Rosecrans Ave","City":"El Segundo","State":"CA","Zip":"90245"},{"Location":"PHOENIX SOFTWARE INTL","Address":"831 N Park View Dr","City":"El Segundo","State":"CA","Zip":"90245"},{"Location":"PINNACLE TRAVEL SERVICE","Address":"185 S Douglas St 200","City":"El Segundo","State":"CA","Zip":"90245"},{"Location":"PIPER JAFFRAY AND CO","Address":"2321 Rosecrans Ave 3","City":"El Segundo","State":"CA","Zip":"90245"},{"Location":"PK4 MEDIA","Address":"1600 E Franklin Ave C","City":"El Segundo","State":"CA","Zip":"90245"},{"Location":"PLAYMATES TOYS  INC","Address":"909 N Sepulveda Blvd 800","City":"El Segundo","State":"CA","Zip":"90245"},{"Location":"PRAGER & FENTON LLP","Address":"2381 Rosecrans Ave 350","City":"El Segundo","State":"CA","Zip":"90245"},{"Location":"PREMIERE BUSINESS CENTER","Address":"222 N Sepulveda Blvd 2000","City":"El Segundo","State":"CA","Zip":"90245"},{"Location":"PRIMARY   COLOR","Address":"401 Coral Cir","City":"El Segundo","State":"CA","Zip":"90245"},{"Location":"PRO IMAGE ATHLETES","Address":"807 N Park View Dr","City":"El Segundo","State":"CA","Zip":"90245"},{"Location":"PRODEGE LLC","Address":"100 N Sepulveda Blvd 800","City":"El Segundo","State":"CA","Zip":"90245"},{"Location":"PROFILE TELEVISION PRODUCTIONS","Address":"200 Continental Blvd","City":"El Segundo","State":"CA","Zip":"90245"},{"Location":"PROSUM","Address":"2321 Rosecrans Ave 4225","City":"El Segundo","State":"CA","Zip":"90245"},{"Location":"PRUDENTIAL INSURANCE","Address":"100 N Sepulveda Blvd 100","City":"El Segundo","State":"CA","Zip":"90245"},{"Location":"QIC GRE US MANAGEMENT","Address":"222 N Sepulveda Blvd 2350","City":"El Segundo","State":"CA","Zip":"90245"},{"Location":"QUALITY SILK SCREEN","Address":"416 E Grand Ave","City":"El Segundo","State":"CA","Zip":"90245"},{"Location":"QUANTECH SERVICES","Address":"185 S Douglas St","City":"El Segundo","State":"CA","Zip":"90245"},{"Location":"R C S","Address":"861 N Park View Dr 100","City":"El Segundo","State":"CA","Zip":"90245"},{"Location":"R&R PARTNERS","Address":"1700 E Walnut Ave 450","City":"El Segundo","State":"CA","Zip":"90245"},{"Location":"RAPP","Address":"100 N Sepulveda Blvd 5","City":"El Segundo","State":"CA","Zip":"90245"},{"Location":"RAYMOND JAMES","Address":"2321 Rosecans Avenue 3240","City":"El Segundo","State":"CA","Zip":"90245"},{"Location":"RAYTHEON","Address":"2000 E El Segundo Blvd","City":"El Segundo","State":"CA","Zip":"90245"},{"Location":"RAYTHEON","Address":"2160 E Grand Ave 3","City":"El Segundo","State":"CA","Zip":"90245"},{"Location":"RBC WEALTH MNGMT","Address":"2361 Rosecrans Ave 460","City":"El Segundo","State":"CA","Zip":"90245"},{"Location":"RED BAR AND GRILL","Address":"222 N Sepulveda Blvd","City":"El Segundo","State":"CA","Zip":"90245"},{"Location":"REEL MUZIK WERKS","Address":"2321 Rosecrans Ave 1280","City":"El Segundo","State":"CA","Zip":"90245"},{"Location":"REGUS BUSINESS CENTRE","Address":"400 Continental Blvd Flr 6","City":"El Segundo","State":"CA","Zip":"90245"},{"Location":"RESIDENCE INN EL SEGUNDO","Address":"2135 E El Segundo Blvd","City":"El Segundo","State":"CA","Zip":"90245"},{"Location":"RESIDENCE INN LA %2F E10065033","Address":"2135 E El Segundo Blvd","City":"El Segundo","State":"CA","Zip":"90245"},{"Location":"RICHMOND BAR & GRILL","Address":"145 Richmond St","City":"El Segundo","State":"CA","Zip":"90245"},{"Location":"RIESTER PACIFIC INC","Address":"1960 E Grand Ave 260","City":"El Segundo","State":"CA","Zip":"90245"},{"Location":"ROCK & BREWS LLC","Address":"143 Main St","City":"El Segundo","State":"CA","Zip":"90245"},{"Location":"ROCKEFELLER PRTNS ARCHITECHS","Address":"201 Arena St","City":"El Segundo","State":"CA","Zip":"90245"},{"Location":"ROCKET FUEL","Address":"841 Apollo St 310","City":"El Segundo","State":"CA","Zip":"90245"},{"Location":"ROSETTE","Address":"2301 Rosecrans Ave","City":"El Segundo","State":"CA","Zip":"90245"},{"Location":"SAIC 4325200360","Address":"300 N Sepulveda Blvd 3000","City":"El Segundo","State":"CA","Zip":"90245"},{"Location":"SALIENT CONSULTING","Address":"2321 Rosecrans Ave 4280","City":"El Segundo","State":"CA","Zip":"90245"},{"Location":"SALT CREEK GRILLE","Address":"2015 Park Pl","City":"El Segundo","State":"CA","Zip":"90245"},{"Location":"SAM DRINE LLC","Address":"630 N Sepulveda Blvd 6","City":"El Segundo","State":"CA","Zip":"90245"},{"Location":"SAMMYS WOODFIRED PIZZA","Address":"780 S Sepulveda Blvd","City":"El Segundo","State":"CA","Zip":"90245"},{"Location":"SARO ENTERPRISES","Address":"829 N Douglas St","City":"El Segundo","State":"CA","Zip":"90245"},{"Location":"SAVVIS INC","Address":"200 N Nash St","City":"El Segundo","State":"CA","Zip":"90245"},{"Location":"SCITOR CORP","Address":"185 S Douglas St 101","City":"El Segundo","State":"CA","Zip":"90245"},{"Location":"SCOTTRADE U04","Address":"831 N Douglas St","City":"El Segundo","State":"CA","Zip":"90245"},{"Location":"SHARP DECISIONS","Address":"222 N Sepulveda Blvd 1306","City":"El Segundo","State":"CA","Zip":"90245"},{"Location":"SILTANEN AND PARTNERS ADVERTIS","Address":"353 Coral Cir","City":"El Segundo","State":"CA","Zip":"90245"},{"Location":"SINGAPORE AIRLINES","Address":"222 N Sepulveda Blvd 16","City":"El Segundo","State":"CA","Zip":"90245"},{"Location":"SIZEMORE LAW","Address":"2101 Rosecrans Ave 3290","City":"El Segundo","State":"CA","Zip":"90245"},{"Location":"SOURCE INTERLINK MEDIA","Address":"831 S Douglas St","City":"El Segundo","State":"CA","Zip":"90245"},{"Location":"SPECTRUM HEALTH CLUBS","Address":"2250 Park Pl","City":"El Segundo","State":"CA","Zip":"90245"},{"Location":"SPORTING NEWS","Address":"840 Apollo St 218","City":"El Segundo","State":"CA","Zip":"90245"},{"Location":"SPORTS AND SPINE ORTHOPA","Address":"2361 Rosecrans Ave 165","City":"El Segundo","State":"CA","Zip":"90245"},{"Location":"SQUARE ENIX INC.","Address":"999 N Sepulveda Blvd Secon","City":"El Segundo","State":"CA","Zip":"90245"},{"Location":"SSV PROP. 2121","Address":"2121 Park Pl","City":"El Segundo","State":"CA","Zip":"90245"},{"Location":"STANDARD STATION","Address":"226 Standard St","City":"El Segundo","State":"CA","Zip":"90245"},{"Location":"STEVE TOTZKE%2FMATTEL INC","Address":"333 Continental Blvd 7thf","City":"El Segundo","State":"CA","Zip":"90245"},{"Location":"STREET MURPHY INC","Address":"1921 E Maple Ave","City":"El Segundo","State":"CA","Zip":"90245"},{"Location":"STUFT PIZZA","Address":"400 Main St","City":"El Segundo","State":"CA","Zip":"90245"},{"Location":"T T & M","Address":"2321 Rosecrans Ave 2","City":"El Segundo","State":"CA","Zip":"90245"},{"Location":"TARGET","Address":"2045 E Mariposa Ave","City":"El Segundo","State":"CA","Zip":"90245"},{"Location":"TECOLOTE RESEARCH INC.","Address":"2120 E Grand Ave 200","City":"El Segundo","State":"CA","Zip":"90245"},{"Location":"TELEDYNE CONTROLS","Address":"501 Continental Blvd","City":"El Segundo","State":"CA","Zip":"90245"},{"Location":"TEXAS INSTRUMENTS","Address":"400 Continental Blvd 330","City":"El Segundo","State":"CA","Zip":"90245"},{"Location":"THE AEROSPACE CORPORATION","Address":"2310 E El Segundo Blvd","City":"El Segundo","State":"CA","Zip":"90245"},{"Location":"THE AEROSPACE CORPORATION","Address":"325 S Douglas St","City":"El Segundo","State":"CA","Zip":"90245"},{"Location":"THE AUTOMOBILE DRIVING MUSEUM","Address":"610 Lairport St","City":"El Segundo","State":"CA","Zip":"90245"},{"Location":"THE BOAT","Address":"150 S Sepulveda Blvd","City":"El Segundo","State":"CA","Zip":"90245"},{"Location":"THE CAMDEN GROUP","Address":"100 N Sepulveda Blvd 600","City":"El Segundo","State":"CA","Zip":"90245"},{"Location":"THE HUMMUS FACTORY","Address":"204 E Grand Ave","City":"El Segundo","State":"CA","Zip":"90245"},{"Location":"THE LAKES AT EL SEGUNDO","Address":"400 S Sepulveda Blvd","City":"El Segundo","State":"CA","Zip":"90245"},{"Location":"THE MALONEY FIRM","Address":"2381 Rosecrans Ave 405","City":"El Segundo","State":"CA","Zip":"90245"},{"Location":"THE OFFICE DOWNTOWN","Address":"206 E Grand Ave","City":"El Segundo","State":"CA","Zip":"90245"},{"Location":"The Office Downtown","Address":"206 E Grand Avenue","City":"El Segundo","State":"CA","Zip":"90245"},{"Location":"THE PARTS DEPARTMENT","Address":"1700 E Holly Ave","City":"El Segundo","State":"CA","Zip":"90245"},{"Location":"THE SPECTRUM CLUB","Address":"2250 Park Pl","City":"El Segundo","State":"CA","Zip":"90245"},{"Location":"THE TAVERN ON MAIN","Address":"123 Main St","City":"El Segundo","State":"CA","Zip":"90245"},{"Location":"THE WOODWARD GROUP","Address":"300 Continental Blvd","City":"El Segundo","State":"CA","Zip":"90245"},{"Location":"THOMAS DALE AND ASSOC","Address":"869 N Douglas St","City":"El Segundo","State":"CA","Zip":"90245"},{"Location":"TIME WARNER CABLE SPORTS","Address":"2345 Alaska Ave","City":"El Segundo","State":"CA","Zip":"90245"},{"Location":"TOGOS EATERY","Address":"150 S Sepulveda Blvd B","City":"El Segundo","State":"CA","Zip":"90245"},{"Location":"TOYOTA SPORTS CENTER REST%2F3","Address":"555 N Nash St","City":"El Segundo","State":"CA","Zip":"90245"},{"Location":"TRACE THREE","Address":"2101 Rosecrans Ave 1250","City":"El Segundo","State":"CA","Zip":"90245"},{"Location":"TRIMANA GRILL","Address":"909 N Sepulveda Blvd 155","City":"El Segundo","State":"CA","Zip":"90245"},{"Location":"TRIPPY INC","Address":"880 Apollo St 343","City":"El Segundo","State":"CA","Zip":"90245"},{"Location":"TSA FAMS LAX","Address":"1700 Walnut Street Ave 300","City":"El Segundo","State":"CA","Zip":"90245"},{"Location":"TURKISH AIRLINES","Address":"2101 Rosecrans Ave 4","City":"El Segundo","State":"CA","Zip":"90245"},{"Location":"URBAN WEALTH","Address":"841 Apollo St 320","City":"El Segundo","State":"CA","Zip":"90245"},{"Location":"VALENTINO'S PIZZA","Address":"150 S Sepulveda Blvd","City":"El Segundo","State":"CA","Zip":"90245"},{"Location":"VELOCIFY","Address":"222 N Sepulveda Blvd 1800","City":"El Segundo","State":"CA","Zip":"90245"},{"Location":"VENTURE WEST FUNDING","Address":"2321 Rosecrans Ave 4","City":"El Segundo","State":"CA","Zip":"90245"},{"Location":"VENTURE WEST FUNDING","Address":"2301 Rosecrans Ave 3170","City":"El Segundo","State":"CA","Zip":"90245"},{"Location":"VISTIMAR SCHOOL","Address":"737 Hawaii St","City":"El Segundo","State":"CA","Zip":"90245"},{"Location":"VITOL AVIATION COMPANY","Address":"300 Continental Blvd 555","City":"El Segundo","State":"CA","Zip":"90245"},{"Location":"VIVENDI GAMES","Address":"100 N Sepulveda Blvd 7&9","City":"El Segundo","State":"CA","Zip":"90245"},{"Location":"VON BEHREN AND HUNTER","Address":"2041 Rosecrans Ave 367","City":"El Segundo","State":"CA","Zip":"90245"},{"Location":"WASH MULTIFAMILY LAUNDRY","Address":"100 N Sepulveda Blvd 12flr","City":"El Segundo","State":"CA","Zip":"90245"},{"Location":"WATERS MCCLUSKEY & BOEHLE","Address":"200 N Sepulveda Blvd 3","City":"El Segundo","State":"CA","Zip":"90245"},{"Location":"WAXLER CARNER WEINREB & BRODSK","Address":"1960 E Grand Ave 1210","City":"El Segundo","State":"CA","Zip":"90245"},{"Location":"WEB YES","Address":"855 N Douglas St","City":"El Segundo","State":"CA","Zip":"90245"},{"Location":"WELLS FARGO","Address":"2141 Rosecrans Ave 3","City":"El Segundo","State":"CA","Zip":"90245"},{"Location":"WELLS FARGO","Address":"2141 Rosecrans Ave 4100","City":"El Segundo","State":"CA","Zip":"90245"},{"Location":"WELLS FARGO BANK","Address":"2141 Rosecrans Ave 41do","City":"El Segundo","State":"CA","Zip":"90245"},{"Location":"WELLS FARGO HOME MORTGA","Address":"2041 Rosecrans Ave 235","City":"El Segundo","State":"CA","Zip":"90245"},{"Location":"WELLS FARGO SECURITIES","Address":"2141 Rosecrans Ave 5fl","City":"El Segundo","State":"CA","Zip":"90245"},{"Location":"WELLSFARGO","Address":"2041 Rosecrans Ave 235","City":"El Segundo","State":"CA","Zip":"90245"},{"Location":"WESTERN MANAGER","Address":"2381 Rosecrans Ave 330","City":"El Segundo","State":"CA","Zip":"90245"},{"Location":"WESTPORT CAPITAL PARTNER","Address":"2121 Rosecrans Ave 4325","City":"El Segundo","State":"CA","Zip":"90245"},{"Location":"WIKI WIKI HAWAIIAN BBQ","Address":"630 N Sepulveda Blvd 4b","City":"El Segundo","State":"CA","Zip":"90245"},{"Location":"WPROMOTE INC","Address":"1700 E Walnut Ave 5fl","City":"El Segundo","State":"CA","Zip":"90245"},{"Location":"WRP","Address":"200 Continental Blvd 2ndf","City":"El Segundo","State":"CA","Zip":"90245"},{"Location":"XCEED FINANCIAL CREDIT UNION#6","Address":"2121 E Maple Ave","City":"El Segundo","State":"CA","Zip":"90245"},{"Location":"XCEED FINANCIAL CREDIT UNION#8","Address":"888 N Nash St","City":"El Segundo","State":"CA","Zip":"90245"},{"Location":"XEROX","Address":"555 S Aviation Blvd","City":"El Segundo","State":"CA","Zip":"90245"},{"Location":"YMT VACATIONS","Address":"100 N Sepulveda Blvd 1700","City":"El Segundo","State":"CA","Zip":"90245"},{"Location":"ZASZOU BUSINESS","Address":"2141 Rosecrans Ave 5175","City":"El Segundo","State":"CA","Zip":"90245"}]