[{"Location":"","Address":"13203 Eastbrook Ave","City":"Downey","State":"CA","Zip":"90242"},{"Location":"BIONICOS DON LEO","Address":"8027 Imperial Hwy","City":"Downey","State":"CA","Zip":"90242"},{"Location":"CARINO'S #1618","Address":"12036 Lakewood Blvd","City":"Downey","State":"CA","Zip":"90242"},{"Location":"CHILI'S #1050","Address":"12030 Lakewood Blvd","City":"Downey","State":"CA","Zip":"90242"},{"Location":"COLUMBIA MEMORIAL","Address":"12400 Columbia Way","City":"Downey","State":"CA","Zip":"90242"},{"Location":"COSPELLI INC 1","Address":"12056 Paramount Blvd","City":"Downey","State":"CA","Zip":"90242"},{"Location":"COUNTY OF L.A. PUBLIC LIBRARY","Address":"7400 Imperial Hwy","City":"Downey","State":"CA","Zip":"90242"},{"Location":"DOWNEY CARE CENTER 1","Address":"13007 Paramount Blvd","City":"Downey","State":"CA","Zip":"90242"},{"Location":"DOWNEY CARE CENTER 2","Address":"13007 Paramount Blvd","City":"Downey","State":"CA","Zip":"90242"},{"Location":"DOWNEY PROBATION OFFICE","Address":"9525 Imperial Hwy 102","City":"Downey","State":"CA","Zip":"90242"},{"Location":"EDS AUTOMOTIVE SERVICE","Address":"12436 Bellflower Blvd","City":"Downey","State":"CA","Zip":"90242"},{"Location":"EL CHOLITO","Address":"12121 Paramount Blvd","City":"Downey","State":"CA","Zip":"90242"},{"Location":"EL POLLON EXPRESS","Address":"8720 Imperial Hwy","City":"Downey","State":"CA","Zip":"90242"},{"Location":"ELEPHANT BAR DOWNEY","Address":"12002 Lakewood Blvd","City":"Downey","State":"CA","Zip":"90242"},{"Location":"GENTRYS BARBER SHOP","Address":"12248 Paramount Blvd","City":"Downey","State":"CA","Zip":"90242"},{"Location":"GET FADED BARBER SHOP","Address":"8021 Imperial Hwy","City":"Downey","State":"CA","Zip":"90242"},{"Location":"HUNT CHIROPRACTOR","Address":"12900 Paramount Blvd","City":"Downey","State":"CA","Zip":"90242"},{"Location":"JIFFY LUBE 0356","Address":"12556 Lakewood Blvd","City":"Downey","State":"CA","Zip":"90242"},{"Location":"KAISER PERMANENTE","Address":"9449 E Imperial Blvd","City":"Downey","State":"CA","Zip":"90242"},{"Location":"KINGS BARBER SHOP","Address":"12043 Paramount Blvd","City":"Downey","State":"CA","Zip":"90242"},{"Location":"L.A. COUNTY PROBATION DEPT","Address":"9150 Imperial Hwy P73","City":"Downey","State":"CA","Zip":"90242"},{"Location":"LA COUNTY PROBATION","Address":"9150 E Imperial Ave","City":"Downey","State":"CA","Zip":"90242"},{"Location":"LA PERLA","Address":"8803 Imperial Hwy","City":"Downey","State":"CA","Zip":"90242"},{"Location":"LA PUPUSERIA DEL PEPETO","Address":"7939 Imperial Hwy","City":"Downey","State":"CA","Zip":"90242"},{"Location":"LAW OFFICE OF ERIC A TORICES","Address":"12139 Paramount Blvd","City":"Downey","State":"CA","Zip":"90242"},{"Location":"LOS AMIGOS BARBER SHOP 1","Address":"12936 Paramount Blvd","City":"Downey","State":"CA","Zip":"90242"},{"Location":"LOS AMIGOS GOLF COURSE","Address":"7295 Quill Dr","City":"Downey","State":"CA","Zip":"90242"},{"Location":"LUCKY GUYS","Address":"12801 Bellflower Blvd","City":"Downey","State":"CA","Zip":"90242"},{"Location":"MAPLES RESTAURANT","Address":"12333 Chavers Ave","City":"Downey","State":"CA","Zip":"90242"},{"Location":"MARISAS MEXICAN RESTAURANT","Address":"11949 Paramount Blvd","City":"Downey","State":"CA","Zip":"90242"},{"Location":"PHILLYS BEST","Address":"12008 Lakewood Blvd","City":"Downey","State":"CA","Zip":"90242"},{"Location":"PIZZA HUT 24836","Address":"9111 Imperial Hwy","City":"Downey","State":"CA","Zip":"90242"},{"Location":"RANCHO MRI CENTER","Address":"12514 Laurel Ave","City":"Downey","State":"CA","Zip":"90242"},{"Location":"REST.PERUBIAN FOOD","Address":"12802 Paramount Blvd","City":"Downey","State":"CA","Zip":"90242"},{"Location":"S&H MANAGEMENT","Address":"11946 Paramount Blvd","City":"Downey","State":"CA","Zip":"90242"},{"Location":"SAINTS AND SINNERS BEAUTY SALO","Address":"12141 Paramount Blvd","City":"Downey","State":"CA","Zip":"90242"},{"Location":"SCHOOLS FIRST CREDIT UNION","Address":"9125 Imperial Hwy A","City":"Downey","State":"CA","Zip":"90242"},{"Location":"SHAKEY'S PIZZA","Address":"12030 Paramount Blvd","City":"Downey","State":"CA","Zip":"90242"},{"Location":"SHUTTLE INN","Address":"9067 Imperial Hwy","City":"Downey","State":"CA","Zip":"90242"},{"Location":"SMOKEN SMOKE HOUSE","Address":"13260 Woodruff Ave","City":"Downey","State":"CA","Zip":"90242"},{"Location":"STOX RESTAURANT","Address":"9518 Imperial Hwy","City":"Downey","State":"CA","Zip":"90242"},{"Location":"THE ANARCHY AND LIBRARY","Address":"13250 Woodruff Ave","City":"Downey","State":"CA","Zip":"90242"},{"Location":"THE CUT BARBER SHOP","Address":"12635 Lakewood Blvd","City":"Downey","State":"CA","Zip":"90242"},{"Location":"TRIPLE PLAY BATTING CAGES","Address":"12434 Bellflower Blvd","City":"Downey","State":"CA","Zip":"90242"},{"Location":"","Address":"13203 Eastbrook Ave","City":"Downey","State":"CA","Zip":"90242"},{"Location":"BIONICOS DON LEO","Address":"8027 Imperial Hwy","City":"Downey","State":"CA","Zip":"90242"},{"Location":"CARINO'S #1618","Address":"12036 Lakewood Blvd","City":"Downey","State":"CA","Zip":"90242"},{"Location":"CHILI'S #1050","Address":"12030 Lakewood Blvd","City":"Downey","State":"CA","Zip":"90242"},{"Location":"COLUMBIA MEMORIAL","Address":"12400 Columbia Way","City":"Downey","State":"CA","Zip":"90242"},{"Location":"COSPELLI INC 1","Address":"12056 Paramount Blvd","City":"Downey","State":"CA","Zip":"90242"},{"Location":"COUNTY OF L.A. PUBLIC LIBRARY","Address":"7400 Imperial Hwy","City":"Downey","State":"CA","Zip":"90242"},{"Location":"DOWNEY CARE CENTER 1","Address":"13007 Paramount Blvd","City":"Downey","State":"CA","Zip":"90242"},{"Location":"DOWNEY CARE CENTER 2","Address":"13007 Paramount Blvd","City":"Downey","State":"CA","Zip":"90242"},{"Location":"DOWNEY PROBATION OFFICE","Address":"9525 Imperial Hwy 102","City":"Downey","State":"CA","Zip":"90242"},{"Location":"EDS AUTOMOTIVE SERVICE","Address":"12436 Bellflower Blvd","City":"Downey","State":"CA","Zip":"90242"},{"Location":"EL CHOLITO","Address":"12121 Paramount Blvd","City":"Downey","State":"CA","Zip":"90242"},{"Location":"EL POLLON EXPRESS","Address":"8720 Imperial Hwy","City":"Downey","State":"CA","Zip":"90242"},{"Location":"ELEPHANT BAR DOWNEY","Address":"12002 Lakewood Blvd","City":"Downey","State":"CA","Zip":"90242"},{"Location":"GENTRYS BARBER SHOP","Address":"12248 Paramount Blvd","City":"Downey","State":"CA","Zip":"90242"},{"Location":"GET FADED BARBER SHOP","Address":"8021 Imperial Hwy","City":"Downey","State":"CA","Zip":"90242"},{"Location":"HUNT CHIROPRACTOR","Address":"12900 Paramount Blvd","City":"Downey","State":"CA","Zip":"90242"},{"Location":"INDUSTRIAL REALTY GROUP","Address":"12214 Lakewood Blvd","City":"Downey","State":"CA","Zip":"90242"},{"Location":"JIFFY LUBE 0356","Address":"12556 Lakewood Blvd","City":"Downey","State":"CA","Zip":"90242"},{"Location":"KAISER PERMANENTE","Address":"9449 E Imperial Blvd","City":"Downey","State":"CA","Zip":"90242"},{"Location":"KINGS BARBER SHOP","Address":"12043 Paramount Blvd","City":"Downey","State":"CA","Zip":"90242"},{"Location":"L.A. COUNTY PROBATION DEPT","Address":"9150 Imperial Hwy P73","City":"Downey","State":"CA","Zip":"90242"},{"Location":"LA COUNTY PROBATION","Address":"9150 E Imperial Ave","City":"Downey","State":"CA","Zip":"90242"},{"Location":"LA PERLA","Address":"8803 Imperial Hwy","City":"Downey","State":"CA","Zip":"90242"},{"Location":"LA PUPUSERIA DEL PEPETO","Address":"7939 Imperial Hwy","City":"Downey","State":"CA","Zip":"90242"},{"Location":"LAW OFFICE OF ERIC A TORICES","Address":"12139 Paramount Blvd","City":"Downey","State":"CA","Zip":"90242"},{"Location":"LOS AMIGOS BARBER SHOP 1","Address":"12936 Paramount Blvd","City":"Downey","State":"CA","Zip":"90242"},{"Location":"LOS AMIGOS GOLF COURSE","Address":"7295 Quill Dr","City":"Downey","State":"CA","Zip":"90242"},{"Location":"LUCKY GUYS","Address":"12801 Bellflower Blvd","City":"Downey","State":"CA","Zip":"90242"},{"Location":"MAPLES RESTAURANT","Address":"12333 Chavers Ave","City":"Downey","State":"CA","Zip":"90242"},{"Location":"MARISAS MEXICAN RESTAURANT","Address":"11949 Paramount Blvd","City":"Downey","State":"CA","Zip":"90242"},{"Location":"PHILLYS BEST","Address":"12008 Lakewood Blvd","City":"Downey","State":"CA","Zip":"90242"},{"Location":"PIZZA HUT 24836","Address":"9111 Imperial Hwy","City":"Downey","State":"CA","Zip":"90242"},{"Location":"RANCHO MRI CENTER","Address":"12514 Laurel Ave","City":"Downey","State":"CA","Zip":"90242"},{"Location":"REST.PERUBIAN FOOD","Address":"12802 Paramount Blvd","City":"Downey","State":"CA","Zip":"90242"},{"Location":"S&H MANAGEMENT","Address":"11946 Paramount Blvd","City":"Downey","State":"CA","Zip":"90242"},{"Location":"SAINTS AND SINNERS BEAUTY SALO","Address":"12141 Paramount Blvd","City":"Downey","State":"CA","Zip":"90242"},{"Location":"SCHOOLS FIRST CREDIT UNION","Address":"9125 Imperial Hwy A","City":"Downey","State":"CA","Zip":"90242"},{"Location":"SHAKEY'S PIZZA","Address":"12030 Paramount Blvd","City":"Downey","State":"CA","Zip":"90242"},{"Location":"SHUTTLE INN","Address":"9067 Imperial Hwy","City":"Downey","State":"CA","Zip":"90242"},{"Location":"SMOKEN SMOKE HOUSE","Address":"13260 Woodruff Ave","City":"Downey","State":"CA","Zip":"90242"},{"Location":"STOX RESTAURANT","Address":"9518 Imperial Hwy","City":"Downey","State":"CA","Zip":"90242"},{"Location":"THE ANARCHY AND LIBRARY","Address":"13250 Woodruff Ave","City":"Downey","State":"CA","Zip":"90242"},{"Location":"THE CUT BARBER SHOP","Address":"12635 Lakewood Blvd","City":"Downey","State":"CA","Zip":"90242"},{"Location":"THE WET BAR","Address":"8832 Imperial Hwy","City":"Downey","State":"CA","Zip":"90242"},{"Location":"TRIPLE PLAY BATTING CAGES","Address":"12434 Bellflower Blvd","City":"Downey","State":"CA","Zip":"90242"}]