[{"Location":"","Address":"12915 Cimarron Ave","City":"Gardena","State":"CA","Zip":"90249"},{"Location":"3 AMERICAS ENTERPRISE","Address":"15324 Crenshaw Blvd","City":"Gardena","State":"CA","Zip":"90249"},{"Location":"A PLUS TAX","Address":"15320 Crenshaw Blvd","City":"Gardena","State":"CA","Zip":"90249"},{"Location":"ALEKSANDAR INC","Address":"1542 W 130th St","City":"Gardena","State":"CA","Zip":"90249"},{"Location":"ALEXANDER DEMOLITION","Address":"14000 Halldale Ave","City":"Gardena","State":"CA","Zip":"90249"},{"Location":"AMY ACUPRESSURE","Address":"14312 Van Ness Ave","City":"Gardena","State":"CA","Zip":"90249"},{"Location":"AUTO PARTS WAREHOUSE","Address":"14020 Van Ness Ave","City":"Gardena","State":"CA","Zip":"90249"},{"Location":"BC EXQUISITE INC","Address":"14121 Van Ness Ave","City":"Gardena","State":"CA","Zip":"90249"},{"Location":"BIOCHEM LAB CORPORATION","Address":"13210 Halldale Ave","City":"Gardena","State":"CA","Zip":"90249"},{"Location":"CLASSIC BURGER","Address":"15342 Crenshaw Blvd","City":"Gardena","State":"CA","Zip":"90249"},{"Location":"CREATIVE HAIR FACTORY","Address":"1705 W El Segundo Blvd","City":"Gardena","State":"CA","Zip":"90249"},{"Location":"CROWN CLEANERS","Address":"15324 S Western Ave B","City":"Gardena","State":"CA","Zip":"90249"},{"Location":"CURRIE'S HAIR & NAIL SALON","Address":"1719 W El Segundo Blvd","City":"Gardena","State":"CA","Zip":"90249"},{"Location":"DECKRITE WATERPROOFING CO.%2CINC","Address":"1734 W 139th St","City":"Gardena","State":"CA","Zip":"90249"},{"Location":"DIVA DEN HAIR SPA","Address":"14403 Crenshaw Blvd","City":"Gardena","State":"CA","Zip":"90249"},{"Location":"DONNA'S COCKTAILS","Address":"15121 S Western Ave","City":"Gardena","State":"CA","Zip":"90249"},{"Location":"DUGGAN AND ASSOCIATES","Address":"1442 W 135th St","City":"Gardena","State":"CA","Zip":"90249"},{"Location":"E AND E BEAUTY SUPPLY","Address":"14822 Crenshaw Blvd 8","City":"Gardena","State":"CA","Zip":"90249"},{"Location":"E R C ACCOUNTANCY CORP","Address":"15120 Atkinson Ave","City":"Gardena","State":"CA","Zip":"90249"},{"Location":"EXCLUSIVE CUTZ","Address":"14108 Crenshaw Blvd","City":"Gardena","State":"CA","Zip":"90249"},{"Location":"FADE AWAY BARBER SHOP","Address":"14125 Van Ness Ave","City":"Gardena","State":"CA","Zip":"90249"},{"Location":"GARDENA SPORTS BAR & LOUNGE","Address":"14112 Crenshaw Blvd","City":"Gardena","State":"CA","Zip":"90249"},{"Location":"GARDNER BUSINESS MANAGEMENT","Address":"12912 S Normandie Ave","City":"Gardena","State":"CA","Zip":"90249"},{"Location":"HEALTH CENTER PHARMACY","Address":"15418 Crenshaw Blvd","City":"Gardena","State":"CA","Zip":"90249"},{"Location":"IMPRESSIVE BEAUTY SUPPY","Address":"14811 S Western Ave","City":"Gardena","State":"CA","Zip":"90249"},{"Location":"J TECH INC","Address":"1638 W 139th St","City":"Gardena","State":"CA","Zip":"90249"},{"Location":"JAMES J LEE","Address":"15435 S Western Ave 100a","City":"Gardena","State":"CA","Zip":"90249"},{"Location":"JIN ZA ROO","Address":"15435 S Western Ave 115","City":"Gardena","State":"CA","Zip":"90249"},{"Location":"JNETTES QUALITY CLEANERS","Address":"2510 W Rosecrans Ave","City":"Gardena","State":"CA","Zip":"90249"},{"Location":"JOSEPH MONCADA INC","Address":"1608 W 139th St","City":"Gardena","State":"CA","Zip":"90249"},{"Location":"JOY COIN LAUNDRY","Address":"14840 Crenshaw Blvd","City":"Gardena","State":"CA","Zip":"90249"},{"Location":"JUAN YOUNG","Address":"14800 S Western Ave 106","City":"Gardena","State":"CA","Zip":"90249"},{"Location":"L.A. GRIP & SUPPLY","Address":"1524 W 132nd St","City":"Gardena","State":"CA","Zip":"90249"},{"Location":"LETICIA  GRANILLO","Address":"15108 S Saint Andrews Pl","City":"Gardena","State":"CA","Zip":"90249"},{"Location":"LIBERTY TABERNACLE CHURCH","Address":"14725 Gramercy Pl","City":"Gardena","State":"CA","Zip":"90249"},{"Location":"LOVE LETTER PIZZA & CHIC","Address":"15435 S Western Ave 112","City":"Gardena","State":"CA","Zip":"90249"},{"Location":"LUCKY STAR CAFE","Address":"14170 Crenshaw Blvd","City":"Gardena","State":"CA","Zip":"90249"},{"Location":"MICHOACAN ALIGNMENT","Address":"1531 W El Segundo Blvd","City":"Gardena","State":"CA","Zip":"90249"},{"Location":"MIS AMIGOS BAR","Address":"15030 S Western Ave","City":"Gardena","State":"CA","Zip":"90249"},{"Location":"MODERNISTIC BEAUTY SALON","Address":"1760 W El Segundo Blvd","City":"Gardena","State":"CA","Zip":"90249"},{"Location":"NAVARRO RESTAURANT","Address":"13825 S Normandie Ave","City":"Gardena","State":"CA","Zip":"90249"},{"Location":"PHENOMINAL HAIR AND NAILS","Address":"14426 Crenshaw Blvd E","City":"Gardena","State":"CA","Zip":"90249"},{"Location":"PITA POPIX GRILL","Address":"15703 Crenshaw Blvd","City":"Gardena","State":"CA","Zip":"90249"},{"Location":"RAKU RAKU","Address":"2217 W Rosecrans Ave","City":"Gardena","State":"CA","Zip":"90249"},{"Location":"RESEARCH METAL","Address":"1970 S 139th St","City":"Gardena","State":"CA","Zip":"90249"},{"Location":"RONS DARBARY COAST","Address":"14320 S Western Ave","City":"Gardena","State":"CA","Zip":"90249"},{"Location":"SCHOOLS FIRST FEDERAL CU","Address":"15706 Crenshaw Blvd","City":"Gardena","State":"CA","Zip":"90249"},{"Location":"SEA MOUNTAIN RESTAURANT","Address":"15000 Crenshaw Blvd","City":"Gardena","State":"CA","Zip":"90249"},{"Location":"SEOUL SAUNA","Address":"15212 S Western Ave A","City":"Gardena","State":"CA","Zip":"90249"},{"Location":"STARZ","Address":"2528 W Rosecrans Ave","City":"Gardena","State":"CA","Zip":"90249"},{"Location":"SUPREME BURGER GRILL","Address":"15900 Crenshaw Blvd Unitc","City":"Gardena","State":"CA","Zip":"90249"},{"Location":"SWAGG BOUTIQUE","Address":"13967 Van Ness Ave","City":"Gardena","State":"CA","Zip":"90249"},{"Location":"THE CITY OF GARDENA MUNICIPAL","Address":"13999 S Western Ave A","City":"Gardena","State":"CA","Zip":"90249"},{"Location":"TOFU MANIA","Address":"15130 S Western Ave","City":"Gardena","State":"CA","Zip":"90249"},{"Location":"UNITED DISTRIBUTING","Address":"1530 W 135th St","City":"Gardena","State":"CA","Zip":"90249"},{"Location":"VICK'Y BAR","Address":"2302 W Rosecrans Ave","City":"Gardena","State":"CA","Zip":"90249"},{"Location":"VICTOR A KEVORKIAN MD IN","Address":"14111 Van Ness Ave","City":"Gardena","State":"CA","Zip":"90249"},{"Location":"WABA GRILL GARDENA","Address":"14219 S Western Ave F","City":"Gardena","State":"CA","Zip":"90249"},{"Location":"WAY OUT WEST INC","Address":"1440 W 135th St","City":"Gardena","State":"CA","Zip":"90249"},{"Location":"WICKED TEMPTATIONS","Address":"1441 W 132nd St","City":"Gardena","State":"CA","Zip":"90249"},{"Location":"WINGSTOP","Address":"2201 W Rosecrans Ave","City":"Gardena","State":"CA","Zip":"90249"},{"Location":"WOMEN SAUNA OF GARDENA","Address":"15435 S Western Ave 107","City":"Gardena","State":"CA","Zip":"90249"},{"Location":"XCEL MECHANICAL SYSTEM","Address":"1710 W 130th St","City":"Gardena","State":"CA","Zip":"90249"},{"Location":"PITA POPIX","Address":"15703 Crenshaw Blvd.","City":"Gardina","State":"CA","Zip":"90249"},{"Location":"","Address":"12915 Cimarron Ave","City":"Gardena","State":"CA","Zip":"90249"},{"Location":"3 AMERICAS ENTERPRISE","Address":"15324 Crenshaw Blvd","City":"Gardena","State":"CA","Zip":"90249"},{"Location":"A PLUS TAX","Address":"15320 Crenshaw Blvd","City":"Gardena","State":"CA","Zip":"90249"},{"Location":"ALEKSANDAR INC","Address":"1542 W 130th St","City":"Gardena","State":"CA","Zip":"90249"},{"Location":"ALEXANDER DEMOLITION","Address":"14000 Halldale Ave","City":"Gardena","State":"CA","Zip":"90249"},{"Location":"AMY ACUPRESSURE","Address":"14312 Van Ness Ave","City":"Gardena","State":"CA","Zip":"90249"},{"Location":"AUTO PARTS WAREHOUSE","Address":"14020 Van Ness Ave","City":"Gardena","State":"CA","Zip":"90249"},{"Location":"BC EXQUISITE INC","Address":"14121 Van Ness Ave","City":"Gardena","State":"CA","Zip":"90249"},{"Location":"BIOCHEM LAB CORPORATION","Address":"13210 Halldale Ave","City":"Gardena","State":"CA","Zip":"90249"},{"Location":"Classic Burger","Address":"15342 Crenshaw Blvd","City":"Gardena","State":"CA","Zip":"90249"},{"Location":"CREATIVE HAIR FACTORY","Address":"1705 W El Segundo Blvd","City":"Gardena","State":"CA","Zip":"90249"},{"Location":"CROWN CLEANERS","Address":"15324 S Western Ave B","City":"Gardena","State":"CA","Zip":"90249"},{"Location":"CURRIE'S HAIR & NAIL SALON","Address":"1719 W El Segundo Blvd","City":"Gardena","State":"CA","Zip":"90249"},{"Location":"DECKRITE WATERPROOFING CO.%2CINC","Address":"1734 W 139th St","City":"Gardena","State":"CA","Zip":"90249"},{"Location":"DIVA DEN HAIR SPA","Address":"14403 Crenshaw Blvd","City":"Gardena","State":"CA","Zip":"90249"},{"Location":"DONNA'S COCKTAILS","Address":"15121 S Western Ave","City":"Gardena","State":"CA","Zip":"90249"},{"Location":"DUGGAN AND ASSOCIATES","Address":"1442 W 135th St","City":"Gardena","State":"CA","Zip":"90249"},{"Location":"E AND E BEAUTY SUPPLY","Address":"14822 Crenshaw Blvd 8","City":"Gardena","State":"CA","Zip":"90249"},{"Location":"E R C ACCOUNTANCY CORP","Address":"15120 Atkinson Ave","City":"Gardena","State":"CA","Zip":"90249"},{"Location":"EXCLUSIVE CUTZ","Address":"14108 Crenshaw Blvd","City":"Gardena","State":"CA","Zip":"90249"},{"Location":"FADE AWAY BARBER SHOP","Address":"14125 Van Ness Ave","City":"Gardena","State":"CA","Zip":"90249"},{"Location":"GARDENA SPORTS BAR & LOUNGE","Address":"14112 Crenshaw Blvd","City":"Gardena","State":"CA","Zip":"90249"},{"Location":"GARDNER BUSINESS MANAGEMENT","Address":"12912 S Normandie Ave","City":"Gardena","State":"CA","Zip":"90249"},{"Location":"HEALTH CENTER PHARMACY","Address":"15418 Crenshaw Blvd","City":"Gardena","State":"CA","Zip":"90249"},{"Location":"IMPRESSIVE BEAUTY SUPPY","Address":"14811 S Western Ave","City":"Gardena","State":"CA","Zip":"90249"},{"Location":"J TECH INC","Address":"1638 W 139th St","City":"Gardena","State":"CA","Zip":"90249"},{"Location":"JAMES J LEE","Address":"15435 S Western Ave 100a","City":"Gardena","State":"CA","Zip":"90249"},{"Location":"JIN ZA ROO","Address":"15435 S Western Ave 115","City":"Gardena","State":"CA","Zip":"90249"},{"Location":"JNETTES QUALITY CLEANERS","Address":"2510 W Rosecrans Ave","City":"Gardena","State":"CA","Zip":"90249"},{"Location":"JOSEPH MONCADA INC","Address":"1608 W 139th St","City":"Gardena","State":"CA","Zip":"90249"},{"Location":"JOY COIN LAUNDRY","Address":"14840 Crenshaw Blvd","City":"Gardena","State":"CA","Zip":"90249"},{"Location":"JUAN YOUNG","Address":"14800 S Western Ave 106","City":"Gardena","State":"CA","Zip":"90249"},{"Location":"L.A. GRIP & SUPPLY","Address":"1524 W 132nd St","City":"Gardena","State":"CA","Zip":"90249"},{"Location":"LETICIA  GRANILLO","Address":"15108 S Saint Andrews Pl","City":"Gardena","State":"CA","Zip":"90249"},{"Location":"LIBERTY TABERNACLE CHURCH","Address":"14725 Gramercy Pl","City":"Gardena","State":"CA","Zip":"90249"},{"Location":"LOVE LETTER PIZZA & CHIC","Address":"15435 S Western Ave 112","City":"Gardena","State":"CA","Zip":"90249"},{"Location":"LUCKY STAR CAFE","Address":"14170 Crenshaw Blvd","City":"Gardena","State":"CA","Zip":"90249"},{"Location":"MICHOACAN ALIGNMENT","Address":"1531 W El Segundo Blvd","City":"Gardena","State":"CA","Zip":"90249"},{"Location":"MIS AMIGOS BAR","Address":"15030 S Western Ave","City":"Gardena","State":"CA","Zip":"90249"},{"Location":"MODERNISTIC BEAUTY SALON","Address":"1760 W El Segundo Blvd","City":"Gardena","State":"CA","Zip":"90249"},{"Location":"MOOJINJANG","Address":"15351 S Western Ave","City":"Gardena","State":"CA","Zip":"90249"},{"Location":"NAVARRO RESTAURANT","Address":"13825 S Normandie Ave","City":"Gardena","State":"CA","Zip":"90249"},{"Location":"PHENOMINAL HAIR AND NAILS","Address":"14426 Crenshaw Blvd E","City":"Gardena","State":"CA","Zip":"90249"},{"Location":"PITA POPIX GRILL","Address":"15703 Crenshaw Blvd","City":"Gardena","State":"CA","Zip":"90249"},{"Location":"PRONTO CAFE","Address":"13890 S Normandie Ave","City":"Gardena","State":"CA","Zip":"90249"},{"Location":"RAKU RAKU","Address":"2217 W Rosecrans Ave","City":"Gardena","State":"CA","Zip":"90249"},{"Location":"RESEARCH METAL","Address":"1970 S 139th St","City":"Gardena","State":"CA","Zip":"90249"},{"Location":"RONS DARBARY COAST","Address":"14320 S Western Ave","City":"Gardena","State":"CA","Zip":"90249"},{"Location":"SCHOOLS FIRST FEDERAL CU","Address":"15706 Crenshaw Blvd","City":"Gardena","State":"CA","Zip":"90249"},{"Location":"SEA MOUNTAIN RESTAURANT","Address":"15000 Crenshaw Blvd","City":"Gardena","State":"CA","Zip":"90249"},{"Location":"SEOUL SAUNA","Address":"15212 S Western Ave A","City":"Gardena","State":"CA","Zip":"90249"},{"Location":"STARZ","Address":"2528 W Rosecrans Ave","City":"Gardena","State":"CA","Zip":"90249"},{"Location":"SUPREME BURGER GRILL","Address":"15900 Crenshaw Blvd Unitc","City":"Gardena","State":"CA","Zip":"90249"},{"Location":"SWAGG BOUTIQUE","Address":"13967 Van Ness Ave","City":"Gardena","State":"CA","Zip":"90249"},{"Location":"THE CITY OF GARDENA MUNICIPAL","Address":"13999 S Western Ave A","City":"Gardena","State":"CA","Zip":"90249"},{"Location":"TOFU MANIA","Address":"15130 S Western Ave","City":"Gardena","State":"CA","Zip":"90249"},{"Location":"UNITED DISTRIBUTING","Address":"1530 W 135th St","City":"Gardena","State":"CA","Zip":"90249"},{"Location":"VAN NESS AUTO REPAIR","Address":"13528 S Normandie Ave","City":"Gardena","State":"CA","Zip":"90249"},{"Location":"VICK'Y BAR","Address":"2302 W Rosecrans Ave","City":"Gardena","State":"CA","Zip":"90249"},{"Location":"VICTOR A KEVORKIAN MD IN","Address":"14111 Van Ness Ave","City":"Gardena","State":"CA","Zip":"90249"},{"Location":"WABA GRILL GARDENA","Address":"14219 S Western Ave F","City":"Gardena","State":"CA","Zip":"90249"},{"Location":"WAY OUT WEST INC","Address":"1440 W 135th St","City":"Gardena","State":"CA","Zip":"90249"},{"Location":"WICKED TEMPTATIONS","Address":"1441 W 132nd St","City":"Gardena","State":"CA","Zip":"90249"},{"Location":"WINGSTOP","Address":"2201 W Rosecrans Ave","City":"Gardena","State":"CA","Zip":"90249"},{"Location":"WOMEN SAUNA OF GARDENA","Address":"15435 S Western Ave 107","City":"Gardena","State":"CA","Zip":"90249"},{"Location":"XCEL MECHANICAL SYSTEM","Address":"1710 W 130th St","City":"Gardena","State":"CA","Zip":"90249"},{"Location":"PITA POPIX","Address":"15703 Crenshaw Blvd.","City":"Gardina","State":"CA","Zip":"90249"}]