[{"Location":"A AND B AUTO SALES","Address":"250 W Roseglens","City":"Gardena","State":"CA","Zip":"90248"},{"Location":"ALOHA PIZZA","Address":"1534 W Artesia Blvd","City":"Gardena","State":"CA","Zip":"90248"},{"Location":"AMBUSERVE INC","Address":"15105 S Broadway","City":"Gardena","State":"CA","Zip":"90248"},{"Location":"AMERICAN AIRCRAFT PRODCUCTS","Address":"15411 S Broadway","City":"Gardena","State":"CA","Zip":"90248"},{"Location":"AMERICAN AIRCRAFT PRODUCTS","Address":"15821 S Broadway","City":"Gardena","State":"CA","Zip":"90248"},{"Location":"AMERICAN AIRCRAFT PRODUCTS","Address":"15402 S Broadway","City":"Gardena","State":"CA","Zip":"90248"},{"Location":"ANVIL STEEL","Address":"134 W 168th St","City":"Gardena","State":"CA","Zip":"90248"},{"Location":"ARKTURA","Address":"18225 S Figueroa St","City":"Gardena","State":"CA","Zip":"90248"},{"Location":"ASAHI FANCY KOI INC","Address":"1051 W 190th St","City":"Gardena","State":"CA","Zip":"90248"},{"Location":"ASAP PROP MANAGEMENT","Address":"15627 S Broadway","City":"Gardena","State":"CA","Zip":"90248"},{"Location":"BARNES PLASTICS","Address":"18903 Anelo Ave","City":"Gardena","State":"CA","Zip":"90248"},{"Location":"BEST ROOFING & WATERPROOFING","Address":"19027 S Hamilton Ave","City":"Gardena","State":"CA","Zip":"90248"},{"Location":"BESTEK MACHINE COMPANY","Address":"1109 W 190th St","City":"Gardena","State":"CA","Zip":"90248"},{"Location":"BINDER METAL PRODUCTS","Address":"14909 S Broadway","City":"Gardena","State":"CA","Zip":"90248"},{"Location":"BLUE DAISY CEMENT PRODUCTS","Address":"314 E Compton Blvd","City":"Gardena","State":"CA","Zip":"90248"},{"Location":"CALI FISH GRILL GARDENA","Address":"1425 W Artesia Blvd","City":"Gardena","State":"CA","Zip":"90248"},{"Location":"CALIFORNIA UNITED BANK","Address":"1025 W 190th St 100","City":"Gardena","State":"CA","Zip":"90248"},{"Location":"CARE FOR ALL YOUR NEEDS","Address":"1225 W 190th St 455","City":"Gardena","State":"CA","Zip":"90248"},{"Location":"CARSON MINNIE TRUCK STOP","Address":"101 W Victoria St","City":"Gardena","State":"CA","Zip":"90248"},{"Location":"CHOPPERS MOTORCYCLE","Address":"132 E 163rd St","City":"Gardena","State":"CA","Zip":"90248"},{"Location":"CITY OF REFUGE","Address":"14527 S San Pedro St","City":"Gardena","State":"CA","Zip":"90248"},{"Location":"CLOUD B INC","Address":"150 W Walnut St 100","City":"Gardena","State":"CA","Zip":"90248"},{"Location":"COSWAY","Address":"14805 S Maple Ave","City":"Gardena","State":"CA","Zip":"90248"},{"Location":"DAHL WAREHOUSE INC","Address":"14605 S Main St","City":"Gardena","State":"CA","Zip":"90248"},{"Location":"DEO VOLENTE INDUSTRIES","Address":"18516 S Broadway St 2","City":"Gardena","State":"CA","Zip":"90248"},{"Location":"DESIGN METAL CONNECTIONS","Address":"14800 S Figueroa St","City":"Gardena","State":"CA","Zip":"90248"},{"Location":"DIVERSIFED CRATING AND P","Address":"400 W Rosecrans Ave","City":"Gardena","State":"CA","Zip":"90248"},{"Location":"EATALIN CAFE","Address":"15500 S Broadway","City":"Gardena","State":"CA","Zip":"90248"},{"Location":"EL ANTOJITO","Address":"16717 S Figueroa St","City":"Gardena","State":"CA","Zip":"90248"},{"Location":"EL POLLO INKA","Address":"1425 W Artesia Blvd 14","City":"Gardena","State":"CA","Zip":"90248"},{"Location":"EL ROCOTO","Address":"1356 W Artesia Blvd","City":"Gardena","State":"CA","Zip":"90248"},{"Location":"ELITE PACIFIC MOTORCARS LLC","Address":"16828 S Main St","City":"Gardena","State":"CA","Zip":"90248"},{"Location":"EPN - SHINIJI TAKESHITA","Address":"1225 W 190th St 475","City":"Gardena","State":"CA","Zip":"90248"},{"Location":"ERICK PEDRAZ","Address":"434 E Alondra Blvd","City":"Gardena","State":"CA","Zip":"90248"},{"Location":"FABULOUS GRILL","Address":"14845 S Main St","City":"Gardena","State":"CA","Zip":"90248"},{"Location":"FEDEX","Address":"18115 S Main St","City":"Gardena","State":"CA","Zip":"90248"},{"Location":"FIRE STATION 79","Address":"18030 S Vermont Ave","City":"Gardena","State":"CA","Zip":"90248"},{"Location":"FLOOR SUPPLY","Address":"543 E Gardena Blvd","City":"Gardena","State":"CA","Zip":"90248"},{"Location":"GARDEN LIQUOR","Address":"18502 S Normandie Ave","City":"Gardena","State":"CA","Zip":"90248"},{"Location":"GERMAN MACHINED PRODUCTS","Address":"1415 W 178th St","City":"Gardena","State":"CA","Zip":"90248"},{"Location":"GOODYEAR AMERICAN OPS","Address":"19200 S Main St B","City":"Gardena","State":"CA","Zip":"90248"},{"Location":"GREENFIELD CARE CENTER OF GARD","Address":"16530 S Broadway St","City":"Gardena","State":"CA","Zip":"90248"},{"Location":"GREG CUNNINGHAM","Address":"550 W 172nd St","City":"Gardena","State":"CA","Zip":"90248"},{"Location":"HARBOR DISTRIBUTING LLC","Address":"16407 S Main St","City":"Gardena","State":"CA","Zip":"90248"},{"Location":"HD SUPPLY","Address":"17600 S Main St","City":"Gardena","State":"CA","Zip":"90248"},{"Location":"HIGHRIDGE  COSTA HOUSING","Address":"330 W Victoria St","City":"Gardena","State":"CA","Zip":"90248"},{"Location":"HM CARPET","Address":"146 E Alondra Blvd","City":"Gardena","State":"CA","Zip":"90248"},{"Location":"IMAGE FIRST","Address":"17818 S Figueroa St","City":"Gardena","State":"CA","Zip":"90248"},{"Location":"IMPRESA AEROSPACE INC","Address":"344 W 157th St","City":"Gardena","State":"CA","Zip":"90248"},{"Location":"INFRATECH LLC","Address":"15700 S Figueroa St","City":"Gardena","State":"CA","Zip":"90248"},{"Location":"INTEGRATED HEALTH SYSTEMS","Address":"19210 S Vermont Ave 400","City":"Gardena","State":"CA","Zip":"90248"},{"Location":"INTERNATIONAL TRADING CO","Address":"18150 S Figueroa St","City":"Gardena","State":"CA","Zip":"90248"},{"Location":"J AND A SHOE CO INC","Address":"198 W 146th St","City":"Gardena","State":"CA","Zip":"90248"},{"Location":"JERSEY MIKES SUBS","Address":"1747 W Artesia Blvd","City":"Gardena","State":"CA","Zip":"90248"},{"Location":"JIMS BURGERS 2","Address":"16025 S Figueroa St","City":"Gardena","State":"CA","Zip":"90248"},{"Location":"JOSEPH BROWN","Address":"231 E Gardena Blvd","City":"Gardena","State":"CA","Zip":"90248"},{"Location":"JS GREENE LILY JACK","Address":"15401 S Figueroa St","City":"Gardena","State":"CA","Zip":"90248"},{"Location":"JUNJU RESTAURANT","Address":"606 W 140th St","City":"Gardena","State":"CA","Zip":"90248"},{"Location":"K1 SPEED TORRANCE","Address":"19038 S Vermont Ave","City":"Gardena","State":"CA","Zip":"90248"},{"Location":"KINTETSU INTERNATIONAL EXPRESS","Address":"879 W 190th St 720","City":"Gardena","State":"CA","Zip":"90248"},{"Location":"LEGIONS PROTECTIVE SERVICES","Address":"17201 S Figueroa St","City":"Gardena","State":"CA","Zip":"90248"},{"Location":"LOS TRES POLLOS1","Address":"15628 S Broadway","City":"Gardena","State":"CA","Zip":"90248"},{"Location":"LOUSIANA FAMOUS CHICKEN","Address":"15315 S Figueroa St","City":"Gardena","State":"CA","Zip":"90248"},{"Location":"MARK IV METAL PRODUCTS INC","Address":"544 W 132nd St","City":"Gardena","State":"CA","Zip":"90248"},{"Location":"MARTIN AUTO REPAIR","Address":"19031 S Main St","City":"Gardena","State":"CA","Zip":"90248"},{"Location":"MAX 5 GOLF","Address":"18216 S Western Ave","City":"Gardena","State":"CA","Zip":"90248"},{"Location":"MCCORMICK AMBULANCE SERV","Address":"17901 S Vermont Ave E","City":"Gardena","State":"CA","Zip":"90248"},{"Location":"MONEY BOYS INC","Address":"414 W Redondo Beach Blvd","City":"Gardena","State":"CA","Zip":"90248"},{"Location":"MOVEEL LUBE","Address":"18004 S Broadway","City":"Gardena","State":"CA","Zip":"90248"},{"Location":"NEXT LEVEL APPAREL","Address":"15730 S Figueroa St","City":"Gardena","State":"CA","Zip":"90248"},{"Location":"OVERTON MOORE PROPERTIES","Address":"19300 S Hamilton Ave 200","City":"Gardena","State":"CA","Zip":"90248"},{"Location":"PALACIO LATINO CLUB","Address":"16416 S Figueroa St","City":"Gardena","State":"CA","Zip":"90248"},{"Location":"PARADISE RESTAURANT","Address":"889 W 190th St","City":"Gardena","State":"CA","Zip":"90248"},{"Location":"PENTICOSTAL CHURCH OF CHRIST","Address":"1019 W 182nd St","City":"Gardena","State":"CA","Zip":"90248"},{"Location":"PHANTOM CARRIAGE BREWERY","Address":"18525 S Main St","City":"Gardena","State":"CA","Zip":"90248"},{"Location":"PRIME AUTO AUCTION","Address":"777 W 190th St","City":"Gardena","State":"CA","Zip":"90248"},{"Location":"PRIME WHEEL CORPORATION","Address":"17676 S Broadway","City":"Gardena","State":"CA","Zip":"90248"},{"Location":"PRONTO CAFE","Address":"291 W Victoria St","City":"Gardena","State":"CA","Zip":"90248"},{"Location":"PS2 INC","Address":"17903 S Hobart Blvd","City":"Gardena","State":"CA","Zip":"90248"},{"Location":"QUADRTECH CORP","Address":"521 W Rosecrans Ave","City":"Gardena","State":"CA","Zip":"90248"},{"Location":"QUEEN B CATERING","Address":"16206 S Denver Ave","City":"Gardena","State":"CA","Zip":"90248"},{"Location":"RASCALS TERIYAKI","Address":"1540 W Artesia Blvd","City":"Gardena","State":"CA","Zip":"90248"},{"Location":"REMINGTON MOVING COMPANY","Address":"14503 S Broadway","City":"Gardena","State":"CA","Zip":"90248"},{"Location":"REMINGTON PLAZA HOA","Address":"620 W 135th St","City":"Gardena","State":"CA","Zip":"90248"},{"Location":"RESTAURANT EL CHERO","Address":"16502 S Main St 6","City":"Gardena","State":"CA","Zip":"90248"},{"Location":"RIO MAYA BAR AND GRILL","Address":"444 W Gardena Blvd","City":"Gardena","State":"CA","Zip":"90248"},{"Location":"S M PRECISION MACHINING INC","Address":"17907 S Figueroa St B","City":"Gardena","State":"CA","Zip":"90248"},{"Location":"SAFELITE AUTO GLASS","Address":"16422 S Avalon Blvd","City":"Gardena","State":"CA","Zip":"90248"},{"Location":"SCHUMACHER","Address":"550 W 135th St","City":"Gardena","State":"CA","Zip":"90248"},{"Location":"SGPS INC","Address":"15823 S Main St","City":"Gardena","State":"CA","Zip":"90248"},{"Location":"SKY ZONE","Address":"1625 W 190th St","City":"Gardena","State":"CA","Zip":"90248"},{"Location":"SMS TRANSPORTATION","Address":"18500 S Broadway","City":"Gardena","State":"CA","Zip":"90248"},{"Location":"SOUTH BAY TOYOTA","Address":"18416 S Western Ave","City":"Gardena","State":"CA","Zip":"90248"},{"Location":"SPACE GIRLZ","Address":"151 W Rosecrans Ave","City":"Gardena","State":"CA","Zip":"90248"},{"Location":"STATEMENT SHIRTS","Address":"403 E Gardena Blvd A","City":"Gardena","State":"CA","Zip":"90248"},{"Location":"STRUCTURAL FOCUS","Address":"19210 S Vermont Ave 210","City":"Gardena","State":"CA","Zip":"90248"},{"Location":"SUNSET PRINTING INC","Address":"16301 S Broadway","City":"Gardena","State":"CA","Zip":"90248"},{"Location":"TAPIOCA PHO","Address":"1425 W Artesia Blvd 19","City":"Gardena","State":"CA","Zip":"90248"},{"Location":"TEMCOR","Address":"879 W 190th St","City":"Gardena","State":"CA","Zip":"90248"},{"Location":"TESSIE CLEVELAND","Address":"18220 S Broadway","City":"Gardena","State":"CA","Zip":"90248"},{"Location":"THE MAC ATHLETIC CLUB","Address":"319 W Victoria St","City":"Gardena","State":"CA","Zip":"90248"},{"Location":"THE WELLNESS HOLISTIC","Address":"1425 W Artesia Blvd 21","City":"Gardena","State":"CA","Zip":"90248"},{"Location":"TOM SUPER BURGERS","Address":"555 E Alondra Blvd","City":"Gardena","State":"CA","Zip":"90248"},{"Location":"TOYOTA TECHNICAL CENTER","Address":"1630 W 186th St","City":"Gardena","State":"CA","Zip":"90248"},{"Location":"TRIMAC TRANSPORATION","Address":"14714 S Avalon Blvd","City":"Gardena","State":"CA","Zip":"90248"},{"Location":"TWIN DRAGON MARKETING","Address":"14600 S Broadway","City":"Gardena","State":"CA","Zip":"90248"},{"Location":"UNITED OIL1","Address":"17311 S Main St","City":"Gardena","State":"CA","Zip":"90248"},{"Location":"UTOPIA NAILS AND SPA","Address":"1719 W Artesia Blvd","City":"Gardena","State":"CA","Zip":"90248"},{"Location":"WASHINGTON IRON WORKS","Address":"17913 S Main St","City":"Gardena","State":"CA","Zip":"90248"},{"Location":"WENDYS 1499","Address":"17420 S Western Ave","City":"Gardena","State":"CA","Zip":"90248"},{"Location":"X TECH SECURITY","Address":"19019 Anelo Ave","City":"Gardena","State":"CA","Zip":"90248"},{"Location":"A AND B AUTO SALES","Address":"250 W Roseglens","City":"Gardena","State":"CA","Zip":"90248"},{"Location":"ALOHA PIZZA","Address":"1534 W Artesia Blvd","City":"Gardena","State":"CA","Zip":"90248"},{"Location":"AMBUSERVE INC","Address":"15105 S Broadway","City":"Gardena","State":"CA","Zip":"90248"},{"Location":"AMERICAN AIRCRAFT PRODCUCTS","Address":"15411 S Broadway","City":"Gardena","State":"CA","Zip":"90248"},{"Location":"AMERICAN AIRCRAFT PRODUCTS","Address":"15402 S Broadway","City":"Gardena","State":"CA","Zip":"90248"},{"Location":"AMERICAN AIRCRAFT PRODUCTS","Address":"15821 S Broadway","City":"Gardena","State":"CA","Zip":"90248"},{"Location":"ANVIL STEEL","Address":"134 W 168th St","City":"Gardena","State":"CA","Zip":"90248"},{"Location":"ARKTURA","Address":"18225 S Figueroa St","City":"Gardena","State":"CA","Zip":"90248"},{"Location":"ASAHI FANCY KOI INC","Address":"1051 W 190th St","City":"Gardena","State":"CA","Zip":"90248"},{"Location":"ASAP PROP MANAGEMENT","Address":"15627 S Broadway","City":"Gardena","State":"CA","Zip":"90248"},{"Location":"BARNES PLASTICS","Address":"18903 Anelo Ave","City":"Gardena","State":"CA","Zip":"90248"},{"Location":"BEST ROOFING & WATERPROOFING","Address":"19027 S Hamilton Ave","City":"Gardena","State":"CA","Zip":"90248"},{"Location":"BESTEK MACHINE COMPANY","Address":"1109 W 190th St","City":"Gardena","State":"CA","Zip":"90248"},{"Location":"BINDER METAL PRODUCTS","Address":"14909 S Broadway","City":"Gardena","State":"CA","Zip":"90248"},{"Location":"BLUE DAISY CEMENT PRODUCTS","Address":"314 E Compton Blvd","City":"Gardena","State":"CA","Zip":"90248"},{"Location":"CALI FISH GRILL GARDENA","Address":"1425 W Artesia Blvd","City":"Gardena","State":"CA","Zip":"90248"},{"Location":"CALIFORNIA UNITED BANK","Address":"1025 W 190th St 100","City":"Gardena","State":"CA","Zip":"90248"},{"Location":"CARE FOR ALL YOUR NEEDS","Address":"1225 W 190th St 455","City":"Gardena","State":"CA","Zip":"90248"},{"Location":"CARSON MINNIE TRUCK STOP","Address":"101 W Victoria St","City":"Gardena","State":"CA","Zip":"90248"},{"Location":"CHOPPERS MOTORCYCLE","Address":"132 E 163rd St","City":"Gardena","State":"CA","Zip":"90248"},{"Location":"CITY OF REFUGE","Address":"14527 S San Pedro St","City":"Gardena","State":"CA","Zip":"90248"},{"Location":"CLOUD B INC","Address":"150 W Walnut St 100","City":"Gardena","State":"CA","Zip":"90248"},{"Location":"COSWAY","Address":"14805 S Maple Ave","City":"Gardena","State":"CA","Zip":"90248"},{"Location":"DAHL WAREHOUSE INC","Address":"14605 S Main St","City":"Gardena","State":"CA","Zip":"90248"},{"Location":"DEO VOLENTE INDUSTRIES","Address":"18516 S Broadway St 2","City":"Gardena","State":"CA","Zip":"90248"},{"Location":"DESIGN METAL CONNECTIONS","Address":"14800 S Figueroa St","City":"Gardena","State":"CA","Zip":"90248"},{"Location":"DIVERSIFED CRATING AND P","Address":"400 W Rosecrans Ave","City":"Gardena","State":"CA","Zip":"90248"},{"Location":"EATALIN CAFE","Address":"15500 S Broadway","City":"Gardena","State":"CA","Zip":"90248"},{"Location":"EL ANTOJITO","Address":"16717 S Figueroa St","City":"Gardena","State":"CA","Zip":"90248"},{"Location":"EL POLLO INKA","Address":"1425 W Artesia Blvd 14","City":"Gardena","State":"CA","Zip":"90248"},{"Location":"EL ROCOTO","Address":"1356 W Artesia Blvd","City":"Gardena","State":"CA","Zip":"90248"},{"Location":"ELITE PACIFIC MOTORCARS LLC","Address":"16828 S Main St","City":"Gardena","State":"CA","Zip":"90248"},{"Location":"EPN - SHINIJI TAKESHITA","Address":"1225 W 190th St 475","City":"Gardena","State":"CA","Zip":"90248"},{"Location":"ERICK PEDRAZ","Address":"434 E Alondra Blvd","City":"Gardena","State":"CA","Zip":"90248"},{"Location":"FABULOUS GRILL","Address":"14845 S Main St","City":"Gardena","State":"CA","Zip":"90248"},{"Location":"FEDEX","Address":"18115 S Main St","City":"Gardena","State":"CA","Zip":"90248"},{"Location":"FIRE STATION 79","Address":"18030 S Vermont Ave","City":"Gardena","State":"CA","Zip":"90248"},{"Location":"FLOOR SUPPLY","Address":"543 E Gardena Blvd","City":"Gardena","State":"CA","Zip":"90248"},{"Location":"GARDEN LIQUOR","Address":"18502 S Normandie Ave","City":"Gardena","State":"CA","Zip":"90248"},{"Location":"GERMAN MACHINED PRODUCTS","Address":"1415 W 178th St","City":"Gardena","State":"CA","Zip":"90248"},{"Location":"GOODYEAR AMERICAN OPS","Address":"19200 S Main St B","City":"Gardena","State":"CA","Zip":"90248"},{"Location":"GREENFIELD CARE CENTER OF GARD","Address":"16530 S Broadway St","City":"Gardena","State":"CA","Zip":"90248"},{"Location":"GREG CUNNINGHAM","Address":"550 W 172nd St","City":"Gardena","State":"CA","Zip":"90248"},{"Location":"HARBOR DISTRIBUTING LLC","Address":"16407 S Main St","City":"Gardena","State":"CA","Zip":"90248"},{"Location":"HD SUPPLY","Address":"17600 S Main St","City":"Gardena","State":"CA","Zip":"90248"},{"Location":"HIGHRIDGE  COSTA HOUSING","Address":"330 W Victoria St","City":"Gardena","State":"CA","Zip":"90248"},{"Location":"HM CARPET","Address":"146 E Alondra Blvd","City":"Gardena","State":"CA","Zip":"90248"},{"Location":"IMAGE FIRST","Address":"17818 S Figueroa St","City":"Gardena","State":"CA","Zip":"90248"},{"Location":"IMPRESA AEROSPACE INC","Address":"344 W 157th St","City":"Gardena","State":"CA","Zip":"90248"},{"Location":"INFRATECH LLC","Address":"15700 S Figueroa St","City":"Gardena","State":"CA","Zip":"90248"},{"Location":"INTEGRATED HEALTH SYSTEMS","Address":"19210 S Vermont Ave 400","City":"Gardena","State":"CA","Zip":"90248"},{"Location":"INTERNATIONAL TRADING CO","Address":"18150 S Figueroa St","City":"Gardena","State":"CA","Zip":"90248"},{"Location":"J AND A SHOE CO INC","Address":"198 W 146th St","City":"Gardena","State":"CA","Zip":"90248"},{"Location":"JERSEY MIKES SUBS","Address":"1747 W Artesia Blvd","City":"Gardena","State":"CA","Zip":"90248"},{"Location":"JIMS BURGERS 2","Address":"16025 S Figueroa St","City":"Gardena","State":"CA","Zip":"90248"},{"Location":"JOSEPH BROWN","Address":"231 E Gardena Blvd","City":"Gardena","State":"CA","Zip":"90248"},{"Location":"JS GREENE LILY JACK","Address":"15401 S Figueroa St","City":"Gardena","State":"CA","Zip":"90248"},{"Location":"JUNJU RESTAURANT","Address":"606 W 140th St","City":"Gardena","State":"CA","Zip":"90248"},{"Location":"K1 SPEED TORRANCE","Address":"19038 S Vermont Ave","City":"Gardena","State":"CA","Zip":"90248"},{"Location":"KINTETSU INTERNATIONAL EXPRESS","Address":"879 W 190th St 720","City":"Gardena","State":"CA","Zip":"90248"},{"Location":"LEGIONS PROTECTIVE SERVICES","Address":"17201 S Figueroa St","City":"Gardena","State":"CA","Zip":"90248"},{"Location":"LOS TRES POLLOS1","Address":"15628 S Broadway","City":"Gardena","State":"CA","Zip":"90248"},{"Location":"LOUSIANA FAMOUS CHICKEN","Address":"15315 S Figueroa St","City":"Gardena","State":"CA","Zip":"90248"},{"Location":"MARK IV METAL PRODUCTS INC","Address":"544 W 132nd St","City":"Gardena","State":"CA","Zip":"90248"},{"Location":"MARTIN AUTO REPAIR","Address":"19031 S Main St","City":"Gardena","State":"CA","Zip":"90248"},{"Location":"MAX 5 GOLF","Address":"18216 S Western Ave","City":"Gardena","State":"CA","Zip":"90248"},{"Location":"MCCORMICK AMBULANCE SERV","Address":"17901 S Vermont Ave E","City":"Gardena","State":"CA","Zip":"90248"},{"Location":"MONEY BOYS INC","Address":"414 W Redondo Beach Blvd","City":"Gardena","State":"CA","Zip":"90248"},{"Location":"MOVEEL LUBE","Address":"18004 S Broadway","City":"Gardena","State":"CA","Zip":"90248"},{"Location":"NEXT LEVEL APPAREL","Address":"15730 S Figueroa St","City":"Gardena","State":"CA","Zip":"90248"},{"Location":"OVERTON MOORE PROPERTIES","Address":"19300 S Hamilton Ave 200","City":"Gardena","State":"CA","Zip":"90248"},{"Location":"PALACIO LATINO CLUB","Address":"16416 S Figueroa St","City":"Gardena","State":"CA","Zip":"90248"},{"Location":"PARADISE RESTAURANT","Address":"889 W 190th St","City":"Gardena","State":"CA","Zip":"90248"},{"Location":"PENTICOSTAL CHURCH OF CHRIST","Address":"1019 W 182nd St","City":"Gardena","State":"CA","Zip":"90248"},{"Location":"PHANTOM CARRIAGE BREWERY","Address":"18525 S Main St","City":"Gardena","State":"CA","Zip":"90248"},{"Location":"PRIME AUTO AUCTION","Address":"777 W 190th St","City":"Gardena","State":"CA","Zip":"90248"},{"Location":"PRIME WHEEL CORPORATION","Address":"17676 S Broadway","City":"Gardena","State":"CA","Zip":"90248"},{"Location":"PS2 INC","Address":"17903 S Hobart Blvd","City":"Gardena","State":"CA","Zip":"90248"},{"Location":"QUADRTECH CORP","Address":"521 W Rosecrans Ave","City":"Gardena","State":"CA","Zip":"90248"},{"Location":"QUEEN B CATERING","Address":"16206 S Denver Ave","City":"Gardena","State":"CA","Zip":"90248"},{"Location":"RASCALS TERIYAKI","Address":"1540 W Artesia Blvd","City":"Gardena","State":"CA","Zip":"90248"},{"Location":"REMINGTON MOVING COMPANY","Address":"14503 S Broadway","City":"Gardena","State":"CA","Zip":"90248"},{"Location":"REMINGTON PLAZA HOA","Address":"620 W 135th St","City":"Gardena","State":"CA","Zip":"90248"},{"Location":"RESTAURANT EL CHERO","Address":"16502 S Main St 6","City":"Gardena","State":"CA","Zip":"90248"},{"Location":"RIO MAYA BAR AND GRILL","Address":"444 W Gardena Blvd","City":"Gardena","State":"CA","Zip":"90248"},{"Location":"S M PRECISION MACHINING INC","Address":"17907 S Figueroa St B","City":"Gardena","State":"CA","Zip":"90248"},{"Location":"SAFELITE AUTO GLASS","Address":"16422 S Avalon Blvd","City":"Gardena","State":"CA","Zip":"90248"},{"Location":"SCHUMACHER","Address":"550 W 135th St","City":"Gardena","State":"CA","Zip":"90248"},{"Location":"SGPS INC","Address":"15823 S Main St","City":"Gardena","State":"CA","Zip":"90248"},{"Location":"SKY ZONE","Address":"1625 W 190th St","City":"Gardena","State":"CA","Zip":"90248"},{"Location":"SMS TRANSPORTATION","Address":"18500 S Broadway","City":"Gardena","State":"CA","Zip":"90248"},{"Location":"SOUTH BAY TOYOTA","Address":"18416 S Western Ave","City":"Gardena","State":"CA","Zip":"90248"},{"Location":"SPACE GIRLZ","Address":"151 W Rosecrans Ave","City":"Gardena","State":"CA","Zip":"90248"},{"Location":"STATEMENT SHIRTS","Address":"403 E Gardena Blvd A","City":"Gardena","State":"CA","Zip":"90248"},{"Location":"STRUCTURAL FOCUS","Address":"19210 S Vermont Ave 210","City":"Gardena","State":"CA","Zip":"90248"},{"Location":"SUNSET PRINTING INC","Address":"16301 S Broadway","City":"Gardena","State":"CA","Zip":"90248"},{"Location":"TAPIOCA PHO","Address":"1425 W Artesia Blvd 19","City":"Gardena","State":"CA","Zip":"90248"},{"Location":"TEMCOR","Address":"879 W 190th St","City":"Gardena","State":"CA","Zip":"90248"},{"Location":"TESSIE CLEVELAND","Address":"18220 S Broadway","City":"Gardena","State":"CA","Zip":"90248"},{"Location":"THE MAC ATHLETIC CLUB","Address":"319 W Victoria St","City":"Gardena","State":"CA","Zip":"90248"},{"Location":"THE WELLNESS HOLISTIC","Address":"1425 W Artesia Blvd 21","City":"Gardena","State":"CA","Zip":"90248"},{"Location":"TOM SUPER BURGERS","Address":"555 E Alondra Blvd","City":"Gardena","State":"CA","Zip":"90248"},{"Location":"TOYOTA TECHNICAL CENTER","Address":"1630 W 186th St","City":"Gardena","State":"CA","Zip":"90248"},{"Location":"TRIMAC TRANSPORATION","Address":"14714 S Avalon Blvd","City":"Gardena","State":"CA","Zip":"90248"},{"Location":"TWIN DRAGON MARKETING","Address":"14600 S Broadway","City":"Gardena","State":"CA","Zip":"90248"},{"Location":"UNITED OIL1","Address":"17311 S Main St","City":"Gardena","State":"CA","Zip":"90248"},{"Location":"UTOPIA NAILS AND SPA","Address":"1719 W Artesia Blvd","City":"Gardena","State":"CA","Zip":"90248"},{"Location":"WASHINGTON IRON WORKS","Address":"17913 S Main St","City":"Gardena","State":"CA","Zip":"90248"},{"Location":"WENDYS 1499","Address":"17420 S Western Ave","City":"Gardena","State":"CA","Zip":"90248"},{"Location":"X TECH SECURITY","Address":"19019 Anelo Ave","City":"Gardena","State":"CA","Zip":"90248"}]