[{"Location":"","Address":"11103 Paramount Blvd","City":"Downey","State":"CA","Zip":"90241"},{"Location":"20%2F20 DRAFT HOUSE","Address":"8228 Firestone Blvd","City":"Downey","State":"CA","Zip":"90241"},{"Location":"80 NINETY BARBER SHOP","Address":"11019 Myrtle St","City":"Downey","State":"CA","Zip":"90241"},{"Location":"ACAPULCO 51","Address":"9021 Firestone Blvd","City":"Downey","State":"CA","Zip":"90241"},{"Location":"ADVANCED STAINLESS & ALLOYS","Address":"8266 Phlox St","City":"Downey","State":"CA","Zip":"90241"},{"Location":"ALLEN TIRES","Address":"12238 Woodruff Ave","City":"Downey","State":"CA","Zip":"90241"},{"Location":"ASTROPAK","Address":"12201 Pangborn Ave","City":"Downey","State":"CA","Zip":"90241"},{"Location":"AVP PRINTING","Address":"11136 Downey Ave","City":"Downey","State":"CA","Zip":"90241"},{"Location":"BASTARDS BBQ","Address":"11045 Downey Ave","City":"Downey","State":"CA","Zip":"90241"},{"Location":"BJ'S RESTAURANT #490","Address":"251 Stonewood St","City":"Downey","State":"CA","Zip":"90241"},{"Location":"BOSU LLC","Address":"10818 Downey Ave B","City":"Downey","State":"CA","Zip":"90241"},{"Location":"BUFFALO WILD WINGS #0315","Address":"193 Stonewood St","City":"Downey","State":"CA","Zip":"90241"},{"Location":"BURGER CITY GRILL","Address":"8260 Firestone Blvd","City":"Downey","State":"CA","Zip":"90241"},{"Location":"CAMBRIDGE MEDICAL GROUP","Address":"11411 Brookshire Ave 501","City":"Downey","State":"CA","Zip":"90241"},{"Location":"CAN LINES","Address":"9839 Downey Norwalk Rd D","City":"Downey","State":"CA","Zip":"90241"},{"Location":"CHAMPION FIAT","Address":"9715 Firestone Blvd","City":"Downey","State":"CA","Zip":"90241"},{"Location":"CITY DOWNEY","Address":"10911 Brookshire Ave","City":"Downey","State":"CA","Zip":"90241"},{"Location":"CLUB DB LOUNGE","Address":"8206 Firestone Blvd","City":"Downey","State":"CA","Zip":"90241"},{"Location":"COCA COLA REFRESH TRANS","Address":"8729 Cleta St","City":"Downey","State":"CA","Zip":"90241"},{"Location":"COCA COLA REFRESHMENTS","Address":"8729 Cleta St","City":"Downey","State":"CA","Zip":"90241"},{"Location":"DAVES BARBER","Address":"8032 Stwrt Gray Rd","City":"Downey","State":"CA","Zip":"90241"},{"Location":"DAVITA #2218 DOWNEY LANDING","Address":"11611 Bellflower Blvd","City":"Downey","State":"CA","Zip":"90241"},{"Location":"DAVITA #5794 IOWA STREET","Address":"8333 Iowa St 100","City":"Downey","State":"CA","Zip":"90241"},{"Location":"DOWNEY BREWING COMPANY","Address":"10924 Paramount Blvd","City":"Downey","State":"CA","Zip":"90241"},{"Location":"DOWNEY MUSIC CENTER","Address":"8337 Firestone Blvd","City":"Downey","State":"CA","Zip":"90241"},{"Location":"DOWNEY SURGICAL CLINIC","Address":"7862 Firestone Blvd","City":"Downey","State":"CA","Zip":"90241"},{"Location":"DOWNEY YMCA","Address":"11531 Downey Ave","City":"Downey","State":"CA","Zip":"90241"},{"Location":"DR DAVID STEIN - OD","Address":"8605 Firestone Blvd","City":"Downey","State":"CA","Zip":"90241"},{"Location":"DR MCANDREWS OFFICE","Address":"10601 Paramnt Blvd","City":"Downey","State":"CA","Zip":"90241"},{"Location":"DR. DAVID BERGER","Address":"11480 Brookshire Ave 1","City":"Downey","State":"CA","Zip":"90241"},{"Location":"EFFEREM SANCHEZ STATE FARM INS","Address":"12327 Woodruff Ave","City":"Downey","State":"CA","Zip":"90241"},{"Location":"EL SALTO DEL FRAILE CORP","Address":"7639 Firestone Blvd","City":"Downey","State":"CA","Zip":"90241"},{"Location":"EL SUSHI LOCO RESTAURANT","Address":"1837 Downey Ave","City":"Downey","State":"CA","Zip":"90241"},{"Location":"ELKS LODGE","Address":"11233 Woodruff Ave","City":"Downey","State":"CA","Zip":"90241"},{"Location":"EVOLUTION HAIR SALON","Address":"11836 Downey Ave 103","City":"Downey","State":"CA","Zip":"90241"},{"Location":"FIRESTONE #003964","Address":"9030 Cecilia St","City":"Downey","State":"CA","Zip":"90241"},{"Location":"FIRESTONE AUTO BODY","Address":"7900 Firestone Blvd","City":"Downey","State":"CA","Zip":"90241"},{"Location":"GNG TRANSPORT","Address":"11015 Paramount Blvd 11","City":"Downey","State":"CA","Zip":"90241"},{"Location":"GVD TRANSPORT","Address":"12222 Woodruff Ave","City":"Downey","State":"CA","Zip":"90241"},{"Location":"HACKERS BAR & GRILL","Address":"10627 Old River School Rd","City":"Downey","State":"CA","Zip":"90241"},{"Location":"HAMPTON BLOWERS","Address":"11255 Woodruff Ave Stec","City":"Downey","State":"CA","Zip":"90241"},{"Location":"HAVANA CAFE","Address":"11402 Old River School Rd","City":"Downey","State":"CA","Zip":"90241"},{"Location":"HERRERA AND JUELLE LLP","Address":"8255 Firestone Blvd 209","City":"Downey","State":"CA","Zip":"90241"},{"Location":"HONDA WORLD DOWNEY","Address":"11136 Dollison Dr","City":"Downey","State":"CA","Zip":"90241"},{"Location":"HOUSE OF BEAUTY","Address":"9304 Firestone Blvd","City":"Downey","State":"CA","Zip":"90241"},{"Location":"ICHIBAN SUSHI","Address":"11020 New St","City":"Downey","State":"CA","Zip":"90241"},{"Location":"ISKAROUS MD%2C RAGAA Z","Address":"11003 Lakewood Blvd 203","City":"Downey","State":"CA","Zip":"90241"},{"Location":"JACKSON HEWITT TAX SERVICE","Address":"8150 Firestone Blvd","City":"Downey","State":"CA","Zip":"90241"},{"Location":"JIFFY LUBE 1585","Address":"7501 Firestone Blvd","City":"Downey","State":"CA","Zip":"90241"},{"Location":"JOHN P ENDOW DDS","Address":"10800 Paramount Blvd 405","City":"Downey","State":"CA","Zip":"90241"},{"Location":"JOSEPHS BAR & GRILL","Address":"11032 Downey Ave","City":"Downey","State":"CA","Zip":"90241"},{"Location":"KELLYS TAVERN","Address":"8148 Firestone Blvd","City":"Downey","State":"CA","Zip":"90241"},{"Location":"KOHL'S #1360","Address":"300 Stonewood St","City":"Downey","State":"CA","Zip":"90241"},{"Location":"L P CARRERAS AND ASSOCIA","Address":"9550 Firestone Blvd 206","City":"Downey","State":"CA","Zip":"90241"},{"Location":"LA BARCA BAR AND GRILL","Address":"11010 Paramount Blvd","City":"Downey","State":"CA","Zip":"90241"},{"Location":"LA FITNESS #49","Address":"7230 Firestone Blvd 4000","City":"Downey","State":"CA","Zip":"90241"},{"Location":"LAS FLORES ESCROW","Address":"10821 Paramount Blvd","City":"Downey","State":"CA","Zip":"90241"},{"Location":"LAW OFFICES OF ROBERT","Address":"11455 Paramount Blvd F","City":"Downey","State":"CA","Zip":"90241"},{"Location":"LOCK AND KEY","Address":"11033 Downey Ave","City":"Downey","State":"CA","Zip":"90241"},{"Location":"MACY'S WEST 481","Address":"9066 Stonewood St","City":"Downey","State":"CA","Zip":"90241"},{"Location":"MACY'S WEST 481 BR","Address":"400 Stonewood St","City":"Downey","State":"CA","Zip":"90241"},{"Location":"MARISCOS CHOIX","Address":"8104 Firestone Blvd","City":"Downey","State":"CA","Zip":"90241"},{"Location":"MATHEW LAUREN SALON","Address":"11138 Downey Ave","City":"Downey","State":"CA","Zip":"90241"},{"Location":"MCKENNA BMW","Address":"9778 Firestone Blvd","City":"Downey","State":"CA","Zip":"90241"},{"Location":"MERUELO ENTERPRISES INC.","Address":"9550 Firestone Blvd 105","City":"Downey","State":"CA","Zip":"90241"},{"Location":"MINISTERIOS LLAMANDA","Address":"12145 Woodruff Ave","City":"Downey","State":"CA","Zip":"90241"},{"Location":"MINKES AND DEERE MDS","Address":"11480 Brookshire Ave 111","City":"Downey","State":"CA","Zip":"90241"},{"Location":"MOSAIK HOOKAH LOUNGE","Address":"11029 Downey Ave","City":"Downey","State":"CA","Zip":"90241"},{"Location":"MR PETES BURGERS","Address":"12050 Woodruff Ave","City":"Downey","State":"CA","Zip":"90241"},{"Location":"MULTANI MEDICAL GROUP INC","Address":"8333 Iowa St","City":"Downey","State":"CA","Zip":"90241"},{"Location":"NEAL J BROWN DDS","Address":"10800 Paramount Blvd 407","City":"Downey","State":"CA","Zip":"90241"},{"Location":"NELSONS BARBER SHOP","Address":"11853 Paramount Blvd","City":"Downey","State":"CA","Zip":"90241"},{"Location":"NEW AMERICAN FUNDING1","Address":"10841 Paramount Blvd 200","City":"Downey","State":"CA","Zip":"90241"},{"Location":"NICHOLAS S ST GEORGE DDS INC","Address":"10249 Paramount Blvd","City":"Downey","State":"CA","Zip":"90241"},{"Location":"NOODLE WORLD JR","Address":"8236 Firestone Blvd","City":"Downey","State":"CA","Zip":"90241"},{"Location":"ONLY VIP BARBER SHOP","Address":"7340 Firestone Blvd 129","City":"Downey","State":"CA","Zip":"90241"},{"Location":"OUR LADY OF PERPETUAL HE","Address":"10441 Downey Ave","City":"Downey","State":"CA","Zip":"90241"},{"Location":"PARK WATER COMPANY","Address":"9750 Washburn Rd","City":"Downey","State":"CA","Zip":"90241"},{"Location":"PAYLESS 4 PLUMBING INC","Address":"8129 Firestone Blvd B","City":"Downey","State":"CA","Zip":"90241"},{"Location":"PENSKE TOYOTA","Address":"9136 Firestone Blvd","City":"Downey","State":"CA","Zip":"90241"},{"Location":"PEREZ%2FVACON GENERAL INSURANCE","Address":"8304 Stewart And Gray Rd","City":"Downey","State":"CA","Zip":"90241"},{"Location":"PIELOON RESTAURANT","Address":"10822 Lakewood Blvd","City":"Downey","State":"CA","Zip":"90241"},{"Location":"PIH HEALTH HOSPITAL DOWNEY MED","Address":"11500 Brookshire Ave","City":"Downey","State":"CA","Zip":"90241"},{"Location":"PIONEER MEDICAL CENTER","Address":"11480 Brookshire Ave 204","City":"Downey","State":"CA","Zip":"90241"},{"Location":"PIONEER MEDICAL GROUP","Address":"11480 Brookshire Ave 204","City":"Downey","State":"CA","Zip":"90241"},{"Location":"PIZZA TIME","Address":"8310 Stewart And Gray Rd","City":"Downey","State":"CA","Zip":"90241"},{"Location":"POW WOW SALOON","Address":"9560 Firestone Blvd","City":"Downey","State":"CA","Zip":"90241"},{"Location":"PRESIDENTIAL ESCROW","Address":"8140 Firestone Blvd","City":"Downey","State":"CA","Zip":"90241"},{"Location":"PSARI 3 INCORPORATED","Address":"8262 Firestone Blvd","City":"Downey","State":"CA","Zip":"90241"},{"Location":"QUALITY AUTOBODY WORKS","Address":"11210 Myrtle St","City":"Downey","State":"CA","Zip":"90241"},{"Location":"R C AUTO SERVICE","Address":"7924 Firestone Blvd","City":"Downey","State":"CA","Zip":"90241"},{"Location":"REALTY PRO GROUP","Address":"8004 4th St","City":"Downey","State":"CA","Zip":"90241"},{"Location":"REVOLUTION HAIR SALON","Address":"11406 Old River School Rd","City":"Downey","State":"CA","Zip":"90241"},{"Location":"RICHS HAIR & NAIL","Address":"7621 Firestone Blvd","City":"Downey","State":"CA","Zip":"90241"},{"Location":"ROBERT WIELENGA MD","Address":"10835 New St","City":"Downey","State":"CA","Zip":"90241"},{"Location":"ROCKVIEW FARMS","Address":"7011 Stewart And Gray Rd","City":"Downey","State":"CA","Zip":"90241"},{"Location":"ROUND TABLE PIZZA","Address":"8248 Firestone Blvd","City":"Downey","State":"CA","Zip":"90241"},{"Location":"SAN MARTIN ESCROW CORP","Address":"11428 Paramount Blvd","City":"Downey","State":"CA","Zip":"90241"},{"Location":"SIZZLER1","Address":"10315 Lakewood Blvd","City":"Downey","State":"CA","Zip":"90241"},{"Location":"SKYLINE SECURITY","Address":"10642 Downey Ave 205","City":"Downey","State":"CA","Zip":"90241"},{"Location":"SQUARE AND COMPASS","Address":"8244 3rd St","City":"Downey","State":"CA","Zip":"90241"},{"Location":"STAR FISH SUSHI","Address":"8244 Firestone Blvd","City":"Downey","State":"CA","Zip":"90241"},{"Location":"STINKIN CRAWFISH","Address":"8240 Firestone Blvd","City":"Downey","State":"CA","Zip":"90241"},{"Location":"TACOS DON CHENTE","Address":"8339 Firestone Blvd","City":"Downey","State":"CA","Zip":"90241"},{"Location":"THE GLEN","Address":"7356 Stewart And Gray Rd","City":"Downey","State":"CA","Zip":"90241"},{"Location":"THE PRIDE BARBERSHOP","Address":"8317 Firestone Blvd","City":"Downey","State":"CA","Zip":"90241"},{"Location":"THE VAPOROLOGIST","Address":"11019 Myrtle St 102","City":"Downey","State":"CA","Zip":"90241"},{"Location":"TROPICANA BAKERY","Address":"10218 Paramount Blvd","City":"Downey","State":"CA","Zip":"90241"},{"Location":"UNIQUE DANCER STUDIOS","Address":"7320 Firestone Blvd 214","City":"Downey","State":"CA","Zip":"90241"},{"Location":"UNITED MEDICAL IMAGING","Address":"11411 Brookshire Ave","City":"Downey","State":"CA","Zip":"90241"},{"Location":"VALLADARES","Address":"11850 Paramount Blvd","City":"Downey","State":"CA","Zip":"90241"},{"Location":"VAPE PRODIGY","Address":"9510 Firestone Blvd","City":"Downey","State":"CA","Zip":"90241"},{"Location":"VASCULAR ACCESS CENTERSOUTH AN","Address":"11411 Brookshire Ave","City":"Downey","State":"CA","Zip":"90241"},{"Location":"VIP WORKOUT","Address":"11600 Paramount Blvd E","City":"Downey","State":"CA","Zip":"90241"},{"Location":"VIRAMONTS MARKETING","Address":"11603 Paramount Blvd","City":"Downey","State":"CA","Zip":"90241"},{"Location":"WABA GRILL","Address":"8258 Firestone Blvd","City":"Downey","State":"CA","Zip":"90241"},{"Location":"WATSONS BODY AND PAINT","Address":"8730 Firestone Blvd","City":"Downey","State":"CA","Zip":"90241"},{"Location":"WELLS FARGO","Address":"8255 Firestone Blvd 502","City":"Downey","State":"CA","Zip":"90241"},{"Location":"WESTERN PACIFIC PULP AND PAPER","Address":"9350 Hall Rd","City":"Downey","State":"CA","Zip":"90241"},{"Location":"WESTERN PACIFIC PULP PAPER","Address":"9400 Hall Rd","City":"Downey","State":"CA","Zip":"90241"},{"Location":"WINGSTOP #718","Address":"8558 Firestone Blvd","City":"Downey","State":"CA","Zip":"90241"},{"Location":"XPRESS AUTO SALES","Address":"8721 Firestone Blvd","City":"Downey","State":"CA","Zip":"90241"},{"Location":"","Address":"11103 Paramount Blvd","City":"Downey","State":"CA","Zip":"90241"},{"Location":"20%2F20 DRAFT HOUSE","Address":"8228 Firestone Blvd","City":"Downey","State":"CA","Zip":"90241"},{"Location":"80 NINETY BARBER SHOP","Address":"11019 Myrtle St","City":"Downey","State":"CA","Zip":"90241"},{"Location":"ACAPULCO 51","Address":"9021 Firestone Blvd","City":"Downey","State":"CA","Zip":"90241"},{"Location":"ADVANCED STAINLESS & ALLOYS","Address":"8266 Phlox St","City":"Downey","State":"CA","Zip":"90241"},{"Location":"ALLEN TIRES","Address":"12238 Woodruff Ave","City":"Downey","State":"CA","Zip":"90241"},{"Location":"ASTROPAK","Address":"12201 Pangborn Ave","City":"Downey","State":"CA","Zip":"90241"},{"Location":"AVP PRINTING","Address":"11136 Downey Ave","City":"Downey","State":"CA","Zip":"90241"},{"Location":"BASTARDS BBQ","Address":"11045 Downey Ave","City":"Downey","State":"CA","Zip":"90241"},{"Location":"BJ'S RESTAURANT #490","Address":"251 Stonewood St","City":"Downey","State":"CA","Zip":"90241"},{"Location":"BOSU LLC","Address":"10818 Downey Ave B","City":"Downey","State":"CA","Zip":"90241"},{"Location":"BUFFALO WILD WINGS #0315","Address":"193 Stonewood St","City":"Downey","State":"CA","Zip":"90241"},{"Location":"BURGER CITY GRILL","Address":"8260 Firestone Blvd","City":"Downey","State":"CA","Zip":"90241"},{"Location":"CAMBRIDGE MEDICAL GROUP","Address":"11411 Brookshire Ave 501","City":"Downey","State":"CA","Zip":"90241"},{"Location":"CAN LINES","Address":"9839 Downey Norwalk Rd D","City":"Downey","State":"CA","Zip":"90241"},{"Location":"CHAMPION FIAT","Address":"9715 Firestone Blvd","City":"Downey","State":"CA","Zip":"90241"},{"Location":"CITY DOWNEY","Address":"10911 Brookshire Ave","City":"Downey","State":"CA","Zip":"90241"},{"Location":"CLUB DB LOUNGE","Address":"8206 Firestone Blvd","City":"Downey","State":"CA","Zip":"90241"},{"Location":"COCA COLA REFRESH TRANS","Address":"8729 Cleta St","City":"Downey","State":"CA","Zip":"90241"},{"Location":"COCA COLA REFRESHMENTS","Address":"8729 Cleta St","City":"Downey","State":"CA","Zip":"90241"},{"Location":"DAVES BARBER","Address":"8032 Stwrt Gray Rd","City":"Downey","State":"CA","Zip":"90241"},{"Location":"DAVITA #2218 DOWNEY LANDING","Address":"11611 Bellflower Blvd","City":"Downey","State":"CA","Zip":"90241"},{"Location":"DAVITA #5794 IOWA STREET","Address":"8333 Iowa St 100","City":"Downey","State":"CA","Zip":"90241"},{"Location":"DOWNEY BREWING COMPANY","Address":"10924 Paramount Blvd","City":"Downey","State":"CA","Zip":"90241"},{"Location":"DOWNEY MUSIC CENTER","Address":"8337 Firestone Blvd","City":"Downey","State":"CA","Zip":"90241"},{"Location":"DOWNEY SURGICAL CLINIC","Address":"7862 Firestone Blvd","City":"Downey","State":"CA","Zip":"90241"},{"Location":"DOWNEY YMCA","Address":"11531 Downey Ave","City":"Downey","State":"CA","Zip":"90241"},{"Location":"DR DAVID STEIN - OD","Address":"8605 Firestone Blvd","City":"Downey","State":"CA","Zip":"90241"},{"Location":"DR MCANDREWS OFFICE","Address":"10601 Paramnt Blvd","City":"Downey","State":"CA","Zip":"90241"},{"Location":"DR. DAVID BERGER","Address":"11480 Brookshire Ave 1","City":"Downey","State":"CA","Zip":"90241"},{"Location":"EFFEREM SANCHEZ STATE FARM INS","Address":"12327 Woodruff Ave","City":"Downey","State":"CA","Zip":"90241"},{"Location":"EL SALTO DEL FRAILE CORP","Address":"7639 Firestone Blvd","City":"Downey","State":"CA","Zip":"90241"},{"Location":"EL SUSHI LOCO RESTAURANT","Address":"1837 Downey Ave","City":"Downey","State":"CA","Zip":"90241"},{"Location":"ELKS LODGE","Address":"11233 Woodruff Ave","City":"Downey","State":"CA","Zip":"90241"},{"Location":"EVOLUTION HAIR SALON","Address":"11836 Downey Ave 103","City":"Downey","State":"CA","Zip":"90241"},{"Location":"FIRESTONE #003964","Address":"9030 Cecilia St","City":"Downey","State":"CA","Zip":"90241"},{"Location":"FIRESTONE AUTO BODY","Address":"7900 Firestone Blvd","City":"Downey","State":"CA","Zip":"90241"},{"Location":"GNG TRANSPORT","Address":"11015 Paramount Blvd 11","City":"Downey","State":"CA","Zip":"90241"},{"Location":"GVD TRANSPORT","Address":"12222 Woodruff Ave","City":"Downey","State":"CA","Zip":"90241"},{"Location":"HACKERS BAR & GRILL","Address":"10627 Old River School Rd","City":"Downey","State":"CA","Zip":"90241"},{"Location":"HAMPTON BLOWERS","Address":"11255 Woodruff Ave Stec","City":"Downey","State":"CA","Zip":"90241"},{"Location":"HAVANA CAFE","Address":"11402 Old River School Rd","City":"Downey","State":"CA","Zip":"90241"},{"Location":"HERRERA AND JUELLE LLP","Address":"8255 Firestone Blvd 209","City":"Downey","State":"CA","Zip":"90241"},{"Location":"HONDA WORLD DOWNEY","Address":"11136 Dollison Dr","City":"Downey","State":"CA","Zip":"90241"},{"Location":"HOUSE OF BEAUTY","Address":"9304 Firestone Blvd","City":"Downey","State":"CA","Zip":"90241"},{"Location":"ICHIBAN SUSHI","Address":"11020 New St","City":"Downey","State":"CA","Zip":"90241"},{"Location":"ISKAROUS MD%2C RAGAA Z","Address":"11003 Lakewood Blvd 203","City":"Downey","State":"CA","Zip":"90241"},{"Location":"JACKSON HEWITT TAX SERVICE","Address":"8150 Firestone Blvd","City":"Downey","State":"CA","Zip":"90241"},{"Location":"JIFFY LUBE 1585","Address":"7501 Firestone Blvd","City":"Downey","State":"CA","Zip":"90241"},{"Location":"JOHN P ENDOW DDS","Address":"10800 Paramount Blvd 405","City":"Downey","State":"CA","Zip":"90241"},{"Location":"JOSEPHS BAR & GRILL","Address":"11032 Downey Ave","City":"Downey","State":"CA","Zip":"90241"},{"Location":"KELLYS TAVERN","Address":"8148 Firestone Blvd","City":"Downey","State":"CA","Zip":"90241"},{"Location":"KOHL'S #1360","Address":"300 Stonewood St","City":"Downey","State":"CA","Zip":"90241"},{"Location":"L P CARRERAS AND ASSOCIA","Address":"9550 Firestone Blvd 206","City":"Downey","State":"CA","Zip":"90241"},{"Location":"LA BARCA BAR AND GRILL","Address":"11010 Paramount Blvd","City":"Downey","State":"CA","Zip":"90241"},{"Location":"LA FITNESS #49","Address":"7230 Firestone Blvd 4000","City":"Downey","State":"CA","Zip":"90241"},{"Location":"LAS FLORES ESCROW","Address":"10821 Paramount Blvd","City":"Downey","State":"CA","Zip":"90241"},{"Location":"LAW OFFICES OF ROBERT","Address":"11455 Paramount Blvd F","City":"Downey","State":"CA","Zip":"90241"},{"Location":"LOCK AND KEY","Address":"11033 Downey Ave","City":"Downey","State":"CA","Zip":"90241"},{"Location":"MACY'S WEST 481","Address":"9066 Stonewood St","City":"Downey","State":"CA","Zip":"90241"},{"Location":"MACY'S WEST 481 BR","Address":"400 Stonewood St","City":"Downey","State":"CA","Zip":"90241"},{"Location":"MARISCOS CHOIX","Address":"8104 Firestone Blvd","City":"Downey","State":"CA","Zip":"90241"},{"Location":"MATHEW LAUREN SALON","Address":"11138 Downey Ave","City":"Downey","State":"CA","Zip":"90241"},{"Location":"MCKENNA BMW","Address":"9778 Firestone Blvd","City":"Downey","State":"CA","Zip":"90241"},{"Location":"MERUELO ENTERPRISES INC.","Address":"9550 Firestone Blvd 105","City":"Downey","State":"CA","Zip":"90241"},{"Location":"MINISTERIOS LLAMANDA","Address":"12145 Woodruff Ave","City":"Downey","State":"CA","Zip":"90241"},{"Location":"MINKES AND DEERE MDS","Address":"11480 Brookshire Ave 111","City":"Downey","State":"CA","Zip":"90241"},{"Location":"MOSAIK HOOKAH LOUNGE","Address":"11029 Downey Ave","City":"Downey","State":"CA","Zip":"90241"},{"Location":"MR PETES BURGERS","Address":"12050 Woodruff Ave","City":"Downey","State":"CA","Zip":"90241"},{"Location":"MULTANI MEDICAL GROUP INC","Address":"8333 Iowa St","City":"Downey","State":"CA","Zip":"90241"},{"Location":"NEAL J BROWN DDS","Address":"10800 Paramount Blvd 407","City":"Downey","State":"CA","Zip":"90241"},{"Location":"NELSONS BARBER SHOP","Address":"11853 Paramount Blvd","City":"Downey","State":"CA","Zip":"90241"},{"Location":"NEW AMERICAN FUNDING1","Address":"10841 Paramount Blvd 200","City":"Downey","State":"CA","Zip":"90241"},{"Location":"NICHOLAS S ST GEORGE DDS INC","Address":"10249 Paramount Blvd","City":"Downey","State":"CA","Zip":"90241"},{"Location":"NOODLE WORLD JR","Address":"8236 Firestone Blvd","City":"Downey","State":"CA","Zip":"90241"},{"Location":"ONLY VIP BARBER SHOP","Address":"7340 Firestone Blvd 129","City":"Downey","State":"CA","Zip":"90241"},{"Location":"OUR LADY OF PERPETUAL HE","Address":"10441 Downey Ave","City":"Downey","State":"CA","Zip":"90241"},{"Location":"PARK WATER COMPANY","Address":"9750 Washburn Rd","City":"Downey","State":"CA","Zip":"90241"},{"Location":"PAYLESS 4 PLUMBING INC","Address":"8129 Firestone Blvd B","City":"Downey","State":"CA","Zip":"90241"},{"Location":"PENSKE TOYOTA","Address":"9136 Firestone Blvd","City":"Downey","State":"CA","Zip":"90241"},{"Location":"PEREZ%2FVACON GENERAL INSURANCE","Address":"8304 Stewart And Gray Rd","City":"Downey","State":"CA","Zip":"90241"},{"Location":"PIELOON RESTAURANT","Address":"10822 Lakewood Blvd","City":"Downey","State":"CA","Zip":"90241"},{"Location":"PIH HEALTH HOSPITAL DOWNEY MED","Address":"11500 Brookshire Ave","City":"Downey","State":"CA","Zip":"90241"},{"Location":"PIONEER MEDICAL CENTER","Address":"11480 Brookshire Ave 204","City":"Downey","State":"CA","Zip":"90241"},{"Location":"PIONEER MEDICAL GROUP","Address":"11480 Brookshire Ave 204","City":"Downey","State":"CA","Zip":"90241"},{"Location":"Pizza Time","Address":"8310 Stewart And Gray Rd","City":"Downey","State":"CA","Zip":"90241"},{"Location":"POW WOW SALOON","Address":"9560 Firestone Blvd","City":"Downey","State":"CA","Zip":"90241"},{"Location":"PRESIDENTIAL ESCROW","Address":"8140 Firestone Blvd","City":"Downey","State":"CA","Zip":"90241"},{"Location":"PSARI 3 INCORPORATED","Address":"8262 Firestone Blvd","City":"Downey","State":"CA","Zip":"90241"},{"Location":"QUALITY AUTOBODY WORKS","Address":"11210 Myrtle St","City":"Downey","State":"CA","Zip":"90241"},{"Location":"R C AUTO SERVICE","Address":"7924 Firestone Blvd","City":"Downey","State":"CA","Zip":"90241"},{"Location":"REALTY PRO GROUP","Address":"8004 4th St","City":"Downey","State":"CA","Zip":"90241"},{"Location":"REVOLUTION HAIR SALON","Address":"11406 Old River School Rd","City":"Downey","State":"CA","Zip":"90241"},{"Location":"RICHS HAIR & NAIL","Address":"7621 Firestone Blvd","City":"Downey","State":"CA","Zip":"90241"},{"Location":"ROBERT WIELENGA MD","Address":"10835 New St","City":"Downey","State":"CA","Zip":"90241"},{"Location":"ROCKVIEW FARMS","Address":"7011 Stewart And Gray Rd","City":"Downey","State":"CA","Zip":"90241"},{"Location":"ROUND TABLE PIZZA","Address":"8248 Firestone Blvd","City":"Downey","State":"CA","Zip":"90241"},{"Location":"SAN MARTIN ESCROW CORP","Address":"11428 Paramount Blvd","City":"Downey","State":"CA","Zip":"90241"},{"Location":"SIZZLER1","Address":"10315 Lakewood Blvd","City":"Downey","State":"CA","Zip":"90241"},{"Location":"SKYLINE SECURITY","Address":"10642 Downey Ave 205","City":"Downey","State":"CA","Zip":"90241"},{"Location":"SQUARE AND COMPASS","Address":"8244 3rd St","City":"Downey","State":"CA","Zip":"90241"},{"Location":"STAR FISH SUSHI","Address":"8244 Firestone Blvd","City":"Downey","State":"CA","Zip":"90241"},{"Location":"STINKIN CRAWFISH","Address":"8240 Firestone Blvd","City":"Downey","State":"CA","Zip":"90241"},{"Location":"TACOS DON CHENTE","Address":"8339 Firestone Blvd","City":"Downey","State":"CA","Zip":"90241"},{"Location":"THE GLEN","Address":"7356 Stewart And Gray Rd","City":"Downey","State":"CA","Zip":"90241"},{"Location":"THE PRIDE BARBERSHOP","Address":"8317 Firestone Blvd","City":"Downey","State":"CA","Zip":"90241"},{"Location":"THE VAPOROLOGIST","Address":"11019 Myrtle St 102","City":"Downey","State":"CA","Zip":"90241"},{"Location":"TROPICANA BAKERY","Address":"10218 Paramount Blvd","City":"Downey","State":"CA","Zip":"90241"},{"Location":"UNIQUE DANCER STUDIOS","Address":"7320 Firestone Blvd 214","City":"Downey","State":"CA","Zip":"90241"},{"Location":"UNITED MEDICAL IMAGING","Address":"11411 Brookshire Ave","City":"Downey","State":"CA","Zip":"90241"},{"Location":"VALLADARES","Address":"11850 Paramount Blvd","City":"Downey","State":"CA","Zip":"90241"},{"Location":"VAPE PRODIGY","Address":"9510 Firestone Blvd","City":"Downey","State":"CA","Zip":"90241"},{"Location":"VASCULAR ACCESS CENTERSOUTH AN","Address":"11411 Brookshire Ave","City":"Downey","State":"CA","Zip":"90241"},{"Location":"VIP WORKOUT","Address":"11600 Paramount Blvd E","City":"Downey","State":"CA","Zip":"90241"},{"Location":"VIRAMONTS MARKETING","Address":"11603 Paramount Blvd","City":"Downey","State":"CA","Zip":"90241"},{"Location":"WABA GRILL","Address":"8258 Firestone Blvd","City":"Downey","State":"CA","Zip":"90241"},{"Location":"WATSONS BODY AND PAINT","Address":"8730 Firestone Blvd","City":"Downey","State":"CA","Zip":"90241"},{"Location":"WELLS FARGO","Address":"8255 Firestone Blvd 502","City":"Downey","State":"CA","Zip":"90241"},{"Location":"WESTERN PACIFIC PULP AND PAPER","Address":"9350 Hall Rd","City":"Downey","State":"CA","Zip":"90241"},{"Location":"WESTERN PACIFIC PULP PAPER","Address":"9400 Hall Rd","City":"Downey","State":"CA","Zip":"90241"},{"Location":"WINGSTOP #718","Address":"8558 Firestone Blvd","City":"Downey","State":"CA","Zip":"90241"},{"Location":"XPRESS AUTO SALES","Address":"8721 Firestone Blvd","City":"Downey","State":"CA","Zip":"90241"}]