[{"Location":"ACKORN HOUSE","Address":"9210 Stamps Ave","City":"Downey","State":"CA","Zip":"90240"},{"Location":"BABY BROS PIZZA & WINGS","Address":"9641 Lakewood Blvd","City":"Downey","State":"CA","Zip":"90240"},{"Location":"BROOKFIELD HEALTHCARE","Address":"9300 Telegraph Rd","City":"Downey","State":"CA","Zip":"90240"},{"Location":"CAFE OPA","Address":"9905 Paramount Blvd","City":"Downey","State":"CA","Zip":"90240"},{"Location":"CAMPOS BARBER SHOP","Address":"7842 Florence Ave","City":"Downey","State":"CA","Zip":"90240"},{"Location":"CAREMORE","Address":"10000 Lakewood Blvd","City":"Downey","State":"CA","Zip":"90240"},{"Location":"CAREMORE MEDICAL GROUP","Address":"9040 Telegraph Rd 102","City":"Downey","State":"CA","Zip":"90240"},{"Location":"CHRIS AND PITTS BBQ","Address":"9243 Lakew0od Blvd","City":"Downey","State":"CA","Zip":"90240"},{"Location":"CHRIS BEST FAMILY RESTAURANT","Address":"9180 Telegraph Rd","City":"Downey","State":"CA","Zip":"90240"},{"Location":"CIVICHE DEL REY","Address":"7404 Florence Ave","City":"Downey","State":"CA","Zip":"90240"},{"Location":"DAVITA #617 DOWNEY","Address":"8630 Florence Ave 100","City":"Downey","State":"CA","Zip":"90240"},{"Location":"DEL RIO LANES","Address":"7502 Florence Ave","City":"Downey","State":"CA","Zip":"90240"},{"Location":"DOWNEY PIZZA","Address":"9026 Florence Ave","City":"Downey","State":"CA","Zip":"90240"},{"Location":"DOWNY DENTAL CENTER","Address":"8515 Florence Ave","City":"Downey","State":"CA","Zip":"90240"},{"Location":"FITNESS CENTER","Address":"9063 Florence Ave","City":"Downey","State":"CA","Zip":"90240"},{"Location":"FLORIDA RESTAURANT","Address":"10025 Lakewood Blvd","City":"Downey","State":"CA","Zip":"90240"},{"Location":"FRIDA HAIR STUDIO","Address":"8640 Florence Ave A","City":"Downey","State":"CA","Zip":"90240"},{"Location":"GARDENA CARE HOMES INC","Address":"9294 Lubec St","City":"Downey","State":"CA","Zip":"90240"},{"Location":"GLORIAS BAR AND GRILL","Address":"7401 Florence Ave","City":"Downey","State":"CA","Zip":"90240"},{"Location":"JC TAVERN LLC","Address":"9106 Telegraph Rd","City":"Downey","State":"CA","Zip":"90240"},{"Location":"KUSTOM KUTS","Address":"10033 Paramount Blvd","City":"Downey","State":"CA","Zip":"90240"},{"Location":"LA CAMPERS SHELLS","Address":"8836 Lakewood Blvd","City":"Downey","State":"CA","Zip":"90240"},{"Location":"LAS PALMITAS FRUIT","Address":"8027 Florence Ave","City":"Downey","State":"CA","Zip":"90240"},{"Location":"M AND M TRUCK LINES INC","Address":"7340 Florence Ave 225","City":"Downey","State":"CA","Zip":"90240"},{"Location":"MAMBO GRILL","Address":"11018 Downery Ave","City":"Downey","State":"CA","Zip":"90240"},{"Location":"MYRA'S SALVADORIAN RESTAURANT","Address":"7324 Florence Ave","City":"Downey","State":"CA","Zip":"90240"},{"Location":"SOMBREROS 2","Address":"8019 Florence Ave","City":"Downey","State":"CA","Zip":"90240"},{"Location":"STATEWIDE VENDING SERVICE","Address":"9829 Brookshire Ave","City":"Downey","State":"CA","Zip":"90240"},{"Location":"TAQUERIA EL GRULLO","Address":"8446 Telegraph Rd","City":"Downey","State":"CA","Zip":"90240"},{"Location":"THE PALMS RESTAURANT","Address":"8060 Florence Ave","City":"Downey","State":"CA","Zip":"90240"},{"Location":"TORTAS BRAVAS","Address":"7414 Florence Ave","City":"Downey","State":"CA","Zip":"90240"},{"Location":"TOYITOS CHICKEN INC","Address":"8510 Paramount Blvd","City":"Downey","State":"CA","Zip":"90240"},{"Location":"UNCLE HENRYS DELI","Address":"7400 Florence Ave","City":"Downey","State":"CA","Zip":"90240"},{"Location":"UNITED DENTAL","Address":"7359 Florence Ave","City":"Downey","State":"CA","Zip":"90240"},{"Location":"USA TRANSPORTATION 1","Address":"9144 Telegraph Rd B","City":"Downey","State":"CA","Zip":"90240"}]