[{"Location":"A & B AUTO REPAIR SH","Address":"16220 S Vermont Ave","City":"Gardena","State":"CA","Zip":"90247"},{"Location":"A & K","Address":"1223 W 135th St","City":"Gardena","State":"CA","Zip":"90247"},{"Location":"ANAS MEXICAN REST","Address":"1060 W Gardena Blvd","City":"Gardena","State":"CA","Zip":"90247"},{"Location":"BBCN BANK","Address":"1400 W Redondo Beach Blvd","City":"Gardena","State":"CA","Zip":"90247"},{"Location":"BRUDDAHS","Address":"1430 W Redondo Beach Blvd","City":"Gardena","State":"CA","Zip":"90247"},{"Location":"CALIFORNIA BANK & TRUST","Address":"1292 W Redondo Beach Blvd","City":"Gardena","State":"CA","Zip":"90247"},{"Location":"CALIFORNIA BANK AND TRUST","Address":"1655 W Redondo Beach Blvd","City":"Gardena","State":"CA","Zip":"90247"},{"Location":"CARBURATOR CLINIC","Address":"1117 W El Segundo Blvd","City":"Gardena","State":"CA","Zip":"90247"},{"Location":"CARROWS GARDENA","Address":"1638 W Redondo Beach Blvd","City":"Gardena","State":"CA","Zip":"90247"},{"Location":"CHILE VERDE 9","Address":"1082 W Rosecrans Ave","City":"Gardena","State":"CA","Zip":"90247"},{"Location":"CLEARVIEW    SANITARIUM","Address":"15823 S Western Ave","City":"Gardena","State":"CA","Zip":"90247"},{"Location":"COUNTRY KKO KKO","Address":"1716 W Redondo Beach Blvd","City":"Gardena","State":"CA","Zip":"90247"},{"Location":"CRAIZY ROCKN SUSHI","Address":"1546 W Redondo Beach Blvd","City":"Gardena","State":"CA","Zip":"90247"},{"Location":"D-ID JEANS","Address":"1100 W 135th St","City":"Gardena","State":"CA","Zip":"90247"},{"Location":"DESERT ROOM","Address":"1006 W Gardena Blvd","City":"Gardena","State":"CA","Zip":"90247"},{"Location":"FAMOUS NAILS","Address":"2215 W Redondo Beach Blvd","City":"Gardena","State":"CA","Zip":"90247"},{"Location":"FIRESTONE #014710","Address":"1830 W Redondo Beach Blvd","City":"Gardena","State":"CA","Zip":"90247"},{"Location":"GARDEN DENTAL GROUP","Address":"1104 W Redondo Beach Blvd","City":"Gardena","State":"CA","Zip":"90247"},{"Location":"GARDENA BOWLING CTR","Address":"15707 S Vermont Ave","City":"Gardena","State":"CA","Zip":"90247"},{"Location":"GARDENA ELKS","Address":"1735 W 162nd St","City":"Gardena","State":"CA","Zip":"90247"},{"Location":"HAPPA RESTAURANT","Address":"1641 W Redondo Beach Blvd 8","City":"Gardena","State":"CA","Zip":"90247"},{"Location":"HAPPYS TIRE SHOP","Address":"1031 W El Segundo Blvd","City":"Gardena","State":"CA","Zip":"90247"},{"Location":"HARDBODY FITNESS","Address":"15725 S Vermont Ave","City":"Gardena","State":"CA","Zip":"90247"},{"Location":"HEX MUFFLER SHOP","Address":"1957 W Artesia Blvd C","City":"Gardena","State":"CA","Zip":"90247"},{"Location":"HUSTLER CASINO #1","Address":"1000 W Redondo Beach Blvd","City":"Gardena","State":"CA","Zip":"90247"},{"Location":"HUSTLER CASINO #2","Address":"1000 W Redondo Beach Blvd","City":"Gardena","State":"CA","Zip":"90247"},{"Location":"HWANG SOH MA EUL","Address":"1835 W Redondo Beach Blvd","City":"Gardena","State":"CA","Zip":"90247"},{"Location":"JAZZ RESTORATION","Address":"1237 W 134th St 9","City":"Gardena","State":"CA","Zip":"90247"},{"Location":"JUAN DIEGO HOUSE","Address":"1103 W 164th St","City":"Gardena","State":"CA","Zip":"90247"},{"Location":"KALPESH P SOLANKI","Address":"1020 W El Segundo Blvd","City":"Gardena","State":"CA","Zip":"90247"},{"Location":"L %24 L HAWAIIAN BARBEQUE","Address":"1258 W Redondo Beach Blvd","City":"Gardena","State":"CA","Zip":"90247"},{"Location":"LA COUNTY FIRE DEPARTMENT","Address":"1650 W 162nd St","City":"Gardena","State":"CA","Zip":"90247"},{"Location":"LA INTS SOCCER SPORTS","Address":"1039 W Gardena Blvd","City":"Gardena","State":"CA","Zip":"90247"},{"Location":"LAURITAS RESTAURANT","Address":"858 W Gardena Blvd","City":"Gardena","State":"CA","Zip":"90247"},{"Location":"LIBERTY   TAX SERVICE","Address":"1134 W Redondo Beach Blvd","City":"Gardena","State":"CA","Zip":"90247"},{"Location":"LOTUS SPORTS BAR","Address":"1717 W Redondo Beach Blvd","City":"Gardena","State":"CA","Zip":"90247"},{"Location":"MARTHY COCKTAIL","Address":"16531 S Western Ave","City":"Gardena","State":"CA","Zip":"90247"},{"Location":"MEIJI PHARMACY","Address":"1630 W Redondo Beach Blvd","City":"Gardena","State":"CA","Zip":"90247"},{"Location":"MENUDO Y BARBACOA DURANGO","Address":"818 W Gardena Blvd","City":"Gardena","State":"CA","Zip":"90247"},{"Location":"MIYABI","Address":"16008 S Western Ave Ef","City":"Gardena","State":"CA","Zip":"90247"},{"Location":"MOON BBQ","Address":"16334 S Western Ave","City":"Gardena","State":"CA","Zip":"90247"},{"Location":"NINOS PLACE","Address":"16104 S Vermont Ave","City":"Gardena","State":"CA","Zip":"90247"},{"Location":"NORMANDIE CASINO","Address":"1045 W Rosecrans Ave","City":"Gardena","State":"CA","Zip":"90247"},{"Location":"NUEVA IMAGEN BEAUTY SALO","Address":"1255 W El Segundo Blvd","City":"Gardena","State":"CA","Zip":"90247"},{"Location":"PHO CONSOMME","Address":"1850 West Redondo Beach Blvd","City":"Gardena","State":"CA","Zip":"90247"},{"Location":"PHO CONSOMME LLC","Address":"1850 W Redondo Beach Blvd","City":"Gardena","State":"CA","Zip":"90247"},{"Location":"R HAUPT ROOFING CONSTUCTION","Address":"1305 W 132nd St 2","City":"Gardena","State":"CA","Zip":"90247"},{"Location":"RAGE SALON","Address":"16136 S Western Ave","City":"Gardena","State":"CA","Zip":"90247"},{"Location":"RICKS DRIVE IN & OUT","Address":"1300 W Rosecrans Ave","City":"Gardena","State":"CA","Zip":"90247"},{"Location":"SAMUEL KIMM","Address":"215 W Redondo Beach Blvd E","City":"Gardena","State":"CA","Zip":"90247"},{"Location":"SAN MIGUEL","Address":"1314 W Rosecrans Ave","City":"Gardena","State":"CA","Zip":"90247"},{"Location":"SEA EMBER","Address":"1636 W Redondo Beach Blvd","City":"Gardena","State":"CA","Zip":"90247"},{"Location":"SHU BAR","Address":"15915 S Western Ave B","City":"Gardena","State":"CA","Zip":"90247"},{"Location":"SPEARS APPLIANCE","Address":"1640 W Redondo Beach Blvd","City":"Gardena","State":"CA","Zip":"90247"},{"Location":"SPECIAL THAI RESTAURANT","Address":"1130 W Redondo Beach Blvd","City":"Gardena","State":"CA","Zip":"90247"},{"Location":"SUPER NATURAL HYDROLICS","Address":"12901 S Budlong Ave C","City":"Gardena","State":"CA","Zip":"90247"},{"Location":"SUSHI BEI","Address":"2021 W Redondo Beach Blvd","City":"Gardena","State":"CA","Zip":"90247"},{"Location":"SYG DENTAL CARE","Address":"1210 W Redondo Beach Blvd","City":"Gardena","State":"CA","Zip":"90247"},{"Location":"TARGET #290","Address":"2169 W Redondo Beach Blvd","City":"Gardena","State":"CA","Zip":"90247"},{"Location":"TEA STATION OPERATION","Address":"1610 W Redondo Beach Blvd 3","City":"Gardena","State":"CA","Zip":"90247"},{"Location":"THE BURNT TORTILLA","Address":"1435 W Redondo Beach Blvd","City":"Gardena","State":"CA","Zip":"90247"},{"Location":"THE TAX  CO II","Address":"16405 S New Hampshire Ave","City":"Gardena","State":"CA","Zip":"90247"},{"Location":"VALOR HEALTHCARE","Address":"1251 W Redondo Beach Blvd","City":"Gardena","State":"CA","Zip":"90247"},{"Location":"VIP TOBACCO AND CIGARS","Address":"2211 W Redondo Beach Blvd","City":"Gardena","State":"CA","Zip":"90247"}]