[{"Location":"24 HOUR FITNESS #55","Address":"2831 W 120th St","City":"Hawthorne","State":"CA","Zip":"90250"},{"Location":"352 LOUNGE","Address":"13126 Hawthorne Blvd","City":"Hawthorne","State":"CA","Zip":"90250"},{"Location":"360 AT SOUTH BAY","Address":"5428 Strand","City":"Hawthorne","State":"CA","Zip":"90250"},{"Location":"ADVANCED AIRCRAFT SERVICES","Address":"12101 Crenshaw Blvd 100","City":"Hawthorne","State":"CA","Zip":"90250"},{"Location":"AIR SEA PACKING AND CRATING","Address":"11965 Prairie Ave","City":"Hawthorne","State":"CA","Zip":"90250"},{"Location":"AMERICAN LEGION 314","Address":"14124 Prairie Ave","City":"Hawthorne","State":"CA","Zip":"90250"},{"Location":"AMIGOS TACOS","Address":"14249 Hawthorne Blvd","City":"Hawthorne","State":"CA","Zip":"90250"},{"Location":"ASTRO MACHINE COMPANY","Address":"3734 W 139th St","City":"Hawthorne","State":"CA","Zip":"90250"},{"Location":"ATHERTON BAPTIST CHURCH","Address":"2627 W 116th St","City":"Hawthorne","State":"CA","Zip":"90250"},{"Location":"BAKERY CHANNY","Address":"12631 Hawthorne Blvd","City":"Hawthorne","State":"CA","Zip":"90250"},{"Location":"BOUIES PROFESSIONAL BUSINESS","Address":"4623 W El Segundo Blvd 202","City":"Hawthorne","State":"CA","Zip":"90250"},{"Location":"C AND S SALES","Address":"12947 Chadron Ave","City":"Hawthorne","State":"CA","Zip":"90250"},{"Location":"CALIFORNIA SUBSHINE","Address":"5342 W Rosecrans Ave","City":"Hawthorne","State":"CA","Zip":"90250"},{"Location":"CAPELLIS TOTAL BEAUTY SA","Address":"14035 Hawthorne Blvd","City":"Hawthorne","State":"CA","Zip":"90250"},{"Location":"CENTRAL TIRE SERV 4","Address":"13213 Crenshaw Blvd","City":"Hawthorne","State":"CA","Zip":"90250"},{"Location":"CENTRAL TIRES 1","Address":"13816 Inglewood Ave","City":"Hawthorne","State":"CA","Zip":"90250"},{"Location":"CHILE VERDE","Address":"2851 W 120th St B","City":"Hawthorne","State":"CA","Zip":"90250"},{"Location":"CITY OF HAWTHORNE%2FSBWIB","Address":"3901 W El Segundo Blvd","City":"Hawthorne","State":"CA","Zip":"90250"},{"Location":"COAST FITNESS","Address":"5005 W El Segundo Blvd","City":"Hawthorne","State":"CA","Zip":"90250"},{"Location":"CONFIRMED FREIGHT","Address":"12620 Yukon Ave","City":"Hawthorne","State":"CA","Zip":"90250"},{"Location":"CONTINENTAL GOURMET","Address":"12921 Prairie Ave","City":"Hawthorne","State":"CA","Zip":"90250"},{"Location":"CONTURE NAILS SPA","Address":"14237 Inglewood Ave","City":"Hawthorne","State":"CA","Zip":"90250"},{"Location":"COSTCO","Address":"12530 Prairie Ave","City":"Hawthorne","State":"CA","Zip":"90250"},{"Location":"DAVITA #4349 HAWTHORNE","Address":"14204 Prairie Ave","City":"Hawthorne","State":"CA","Zip":"90250"},{"Location":"DEBRAS CREDIT REPAIR","Address":"4078 S Broadway Apt B","City":"Hawthorne","State":"CA","Zip":"90250"},{"Location":"DEPUY CENTRAL CALIFORNIA","Address":"12909 Cerise Ave","City":"Hawthorne","State":"CA","Zip":"90250"},{"Location":"DIVINE AFRICAN STORE","Address":"3300 W Rosecrans Ave 103","City":"Hawthorne","State":"CA","Zip":"90250"},{"Location":"EAGLE RIDER","Address":"11904 S La Cienega Blvd","City":"Hawthorne","State":"CA","Zip":"90250"},{"Location":"EL PUERTO ESCONDIDO","Address":"4182 W Elsegundo Blvd","City":"Hawthorne","State":"CA","Zip":"90250"},{"Location":"EL TORITO 7008","Address":"11855 Hawthorne Blvd","City":"Hawthorne","State":"CA","Zip":"90250"},{"Location":"ELITE MOTOR SPORTS","Address":"13020 Ucon Ave Unit","City":"Hawthorne","State":"CA","Zip":"90250"},{"Location":"EQUINOX-SOUTH BAY CLUB 708 #1","Address":"5400 W Rosecrans Ave","City":"Hawthorne","State":"CA","Zip":"90250"},{"Location":"EQUINOX-SOUTH BAY CLUB 708 #2","Address":"5400 W Rosecrans Ave","City":"Hawthorne","State":"CA","Zip":"90250"},{"Location":"EQUINOX-SOUTH BAY CLUB 708 #3","Address":"5400 W Rosecrans Ave","City":"Hawthorne","State":"CA","Zip":"90250"},{"Location":"EUREKA BURGER- HAWTHORNE","Address":"12101 Crenshaw Blvd","City":"Hawthorne","State":"CA","Zip":"90250"},{"Location":"FABOLOUS","Address":"3301 W Rosecrans Ave","City":"Hawthorne","State":"CA","Zip":"90250"},{"Location":"FABULOUS GRILL","Address":"12829 Crenshaw Blvd","City":"Hawthorne","State":"CA","Zip":"90250"},{"Location":"FALCON INN","Address":"5023 W Rosecrans Ave","City":"Hawthorne","State":"CA","Zip":"90250"},{"Location":"FAMILY UNITED N NEW BEGINNINGS","Address":"11616 Hawthorne Blvd 202","City":"Hawthorne","State":"CA","Zip":"90250"},{"Location":"FEDERAL EXPRESS","Address":"12600 Prairie Ave","City":"Hawthorne","State":"CA","Zip":"90250"},{"Location":"FOSTER TIRE CO","Address":"4941 W Rosecrans Ave","City":"Hawthorne","State":"CA","Zip":"90250"},{"Location":"FURNITURE CITY","Address":"14105 Prairie Ave","City":"Hawthorne","State":"CA","Zip":"90250"},{"Location":"GANJI DMD DENTAL CORP","Address":"14650 Aviation Blvd","City":"Hawthorne","State":"CA","Zip":"90250"},{"Location":"GOOD NEWS PRAYER CENTER","Address":"4124 W 138th St C","City":"Hawthorne","State":"CA","Zip":"90250"},{"Location":"HAMPTON INN W IMPERIAL","Address":"4320 W Imperial Hwy","City":"Hawthorne","State":"CA","Zip":"90250"},{"Location":"HAWTHORME MOOSE LODEG","Address":"13212 Englewood","City":"Hawthorne","State":"CA","Zip":"90250"},{"Location":"HAWTHORNE POLICE DEPT","Address":"12501 Hawthorne Blvd","City":"Hawthorne","State":"CA","Zip":"90250"},{"Location":"HAWTHORNE VFW POST 2075","Address":"4563 W 131st St","City":"Hawthorne","State":"CA","Zip":"90250"},{"Location":"HEAVENLY HAIR","Address":"13348 Hawthorne Blvd","City":"Hawthorne","State":"CA","Zip":"90250"},{"Location":"IMPERIAL CREST CONV HOSPITAL","Address":"11834 Inglewood Ave","City":"Hawthorne","State":"CA","Zip":"90250"},{"Location":"ISLAS DE LA BAHIA","Address":"14405 Prairie Ave","City":"Hawthorne","State":"CA","Zip":"90250"},{"Location":"JALISCO BAR","Address":"11611 Inglewood Ave","City":"Hawthorne","State":"CA","Zip":"90250"},{"Location":"JAMMERS INC","Address":"5119 W El Segundo Blvd","City":"Hawthorne","State":"CA","Zip":"90250"},{"Location":"JB NEW CONSTRUCTION INC","Address":"13737 Eenglewood Ave  #101","City":"Hawthorne","State":"CA","Zip":"90250"},{"Location":"JC BROMAC CORPORATION","Address":"11860 S La Cienega Blvd","City":"Hawthorne","State":"CA","Zip":"90250"},{"Location":"JCS EL SEGUNDO INC BU","Address":"5107 W El Segundo Blvd","City":"Hawthorne","State":"CA","Zip":"90250"},{"Location":"JCS HAWTHORNE INC DBA BU","Address":"3930 W El Segundo Blvd","City":"Hawthorne","State":"CA","Zip":"90250"},{"Location":"JIFFY LUBE 1418","Address":"12800 Hawrhorne Blvd","City":"Hawthorne","State":"CA","Zip":"90250"},{"Location":"JILOOL INC","Address":"14039 Hawthorne Blvd","City":"Hawthorne","State":"CA","Zip":"90250"},{"Location":"KAUR GURPRETT","Address":"11601 Inglewood Ave","City":"Hawthorne","State":"CA","Zip":"90250"},{"Location":"KES MAIL INC","Address":"12616 Chadron Ave","City":"Hawthorne","State":"CA","Zip":"90250"},{"Location":"KING HENRY'S","Address":"13443 Crenshaw Blvd","City":"Hawthorne","State":"CA","Zip":"90250"},{"Location":"LA FITNESS #6149","Address":"4949 W 147th St","City":"Hawthorne","State":"CA","Zip":"90250"},{"Location":"LALICIOUS","Address":"3425 Jack Northrop Ave","City":"Hawthorne","State":"CA","Zip":"90250"},{"Location":"LANNYS HOBBIE SHOP","Address":"13115 Yukon Ave","City":"Hawthorne","State":"CA","Zip":"90250"},{"Location":"LAS BRISAS1","Address":"11828 Hawthorne Blvd","City":"Hawthorne","State":"CA","Zip":"90250"},{"Location":"LAS DELICIAS DEL REY","Address":"15022 Prairie Ave","City":"Hawthorne","State":"CA","Zip":"90250"},{"Location":"LAX CROSSFIT","Address":"11944 S La Cienega Blvd","City":"Hawthorne","State":"CA","Zip":"90250"},{"Location":"LIBERTY TAX SERVICE 15","Address":"3909 W Rosecrans Ave B","City":"Hawthorne","State":"CA","Zip":"90250"},{"Location":"LICHAS  RESTAURANT","Address":"4267 W El Segundo Blvd","City":"Hawthorne","State":"CA","Zip":"90250"},{"Location":"LITHOGRAPHIX INC.","Address":"12250 Crenshaw Blvd","City":"Hawthorne","State":"CA","Zip":"90250"},{"Location":"LONDERS REGISTRATION S","Address":"13911 Hawthorne Blvd","City":"Hawthorne","State":"CA","Zip":"90250"},{"Location":"M AND M ENTERPRISE","Address":"11616 Hawthorne Blvd 101","City":"Hawthorne","State":"CA","Zip":"90250"},{"Location":"MARISCOS L CHUY","Address":"11613 Inglewood Ave","City":"Hawthorne","State":"CA","Zip":"90250"},{"Location":"MASTER REPOINTING SERVICES","Address":"13703 Cordary Ave 16","City":"Hawthorne","State":"CA","Zip":"90250"},{"Location":"MATISSE","Address":"14400 Hindry Ave","City":"Hawthorne","State":"CA","Zip":"90250"},{"Location":"MCCORMICK AMBULANCE","Address":"13933 Crenshaw Blvd","City":"Hawthorne","State":"CA","Zip":"90250"},{"Location":"MI LINDO VILLANUEVA","Address":"11801 Inglewood Ave","City":"Hawthorne","State":"CA","Zip":"90250"},{"Location":"MIKES BARBERSHOP","Address":"11927 1%2F2 Inglewood Ave","City":"Hawthorne","State":"CA","Zip":"90250"},{"Location":"MODERN TWIST BARBER SHOP","Address":"4563 W Rosecrans Ave","City":"Hawthorne","State":"CA","Zip":"90250"},{"Location":"MORENOS RADIATOR","Address":"13332 Prairie Ave","City":"Hawthorne","State":"CA","Zip":"90250"},{"Location":"NAIL SPA EXCEL","Address":"5372 W Rosecrans Ave","City":"Hawthorne","State":"CA","Zip":"90250"},{"Location":"NAPA CENTER","Address":"11832 S La Cienega Blvd","City":"Hawthorne","State":"CA","Zip":"90250"},{"Location":"NOA NOA RESTAURANT","Address":"3757 W Rosecrans Ave","City":"Hawthorne","State":"CA","Zip":"90250"},{"Location":"PACIFIC VOLKSWAGEN","Address":"14900 Hindry Ave","City":"Hawthorne","State":"CA","Zip":"90250"},{"Location":"PIZZA SHOW","Address":"13344 Hawthorne Blvd","City":"Hawthorne","State":"CA","Zip":"90250"},{"Location":"POWER NISSAN TORR. SCA-2446","Address":"14610 Hindry Ave","City":"Hawthorne","State":"CA","Zip":"90250"},{"Location":"PUPUSERIA EL CERRO VERDE","Address":"12627 Hawthorne Blvd","City":"Hawthorne","State":"CA","Zip":"90250"},{"Location":"QT HAIR AND BARBER STUDIO","Address":"14129 1%2F2 Crenshaw Blvd","City":"Hawthorne","State":"CA","Zip":"90250"},{"Location":"QUE PASA MEXICAN","Address":"11943 Inglewood Ave","City":"Hawthorne","State":"CA","Zip":"90250"},{"Location":"RAPID MOTOR SERVICE","Address":"13770 Prairie Ave","City":"Hawthorne","State":"CA","Zip":"90250"},{"Location":"RAULS MEXICAN REST","Address":"13908 Inglewood Ave","City":"Hawthorne","State":"CA","Zip":"90250"},{"Location":"ROCK IT CAFE","Address":"14239 Hawthorne Blvd","City":"Hawthorne","State":"CA","Zip":"90250"},{"Location":"ROSECRANS VILLA","Address":"14110 Cordary Ave","City":"Hawthorne","State":"CA","Zip":"90250"},{"Location":"SAFTECH","Address":"4910 W Rosecrans Ave A","City":"Hawthorne","State":"CA","Zip":"90250"},{"Location":"SALVADORE NAVARRO","Address":"14015 Hawthorne Blvd","City":"Hawthorne","State":"CA","Zip":"90250"},{"Location":"SAMUEL ONUOHA MINISTRIES","Address":"11966 Acacia Ave","City":"Hawthorne","State":"CA","Zip":"90250"},{"Location":"SCHENKER INC.","Address":"2815 W El Segundo Blvd","City":"Hawthorne","State":"CA","Zip":"90250"},{"Location":"SHEAR GENUIS","Address":"13837 Hawthorne Blvd","City":"Hawthorne","State":"CA","Zip":"90250"},{"Location":"SKYONE FEDERAL CREDIT UNION","Address":"14600 Aviation Blvd","City":"Hawthorne","State":"CA","Zip":"90250"},{"Location":"SOUTH BAY AUTOS","Address":"13600 Inglewood Ave","City":"Hawthorne","State":"CA","Zip":"90250"},{"Location":"SOUTH BAY FORD","Address":"5100 W Rosecrans Ave","City":"Hawthorne","State":"CA","Zip":"90250"},{"Location":"SOUTH BAY SERVICES","Address":"13030 Inglewood Ave 201","City":"Hawthorne","State":"CA","Zip":"90250"},{"Location":"SOUTH PACIFIC APT","Address":"13020 Kornblum Ave","City":"Hawthorne","State":"CA","Zip":"90250"},{"Location":"SPACE EXPLORATION TECHNOLOGIES","Address":"1 Rocket Rd","City":"Hawthorne","State":"CA","Zip":"90250"},{"Location":"SPORTS AUTHORITY 631","Address":"14555 Ocean Gate Ave","City":"Hawthorne","State":"CA","Zip":"90250"},{"Location":"SPORTS N ACTION","Address":"4561 W Rosecrans Ave","City":"Hawthorne","State":"CA","Zip":"90250"},{"Location":"ST JOSEPHS CATHOLIC CHUR","Address":"11854 Acacia Ave","City":"Hawthorne","State":"CA","Zip":"90250"},{"Location":"STEVEN SEIDEN LAW OFFICE","Address":"13658 Hawthorne Blvd 100c","City":"Hawthorne","State":"CA","Zip":"90250"},{"Location":"SUPER  LAUNDRY","Address":"13315 Hawthorne Blvd A","City":"Hawthorne","State":"CA","Zip":"90250"},{"Location":"SYMMETRY ELECTRONICS","Address":"5400 W Rosecrans Ave","City":"Hawthorne","State":"CA","Zip":"90250"},{"Location":"TARGET","Address":"2700 W 120th St","City":"Hawthorne","State":"CA","Zip":"90250"},{"Location":"TESLA MOTORS","Address":"12259 Crenshaw Blvd","City":"Hawthorne","State":"CA","Zip":"90250"},{"Location":"THE BREAK BAR","Address":"13825 Hawthorne Blvd","City":"Hawthorne","State":"CA","Zip":"90250"},{"Location":"THE GREATEST","Address":"13766 Inglewood Ave","City":"Hawthorne","State":"CA","Zip":"90250"},{"Location":"THINKOM SOLUTION%2C INC","Address":"4881 W 145th St","City":"Hawthorne","State":"CA","Zip":"90250"},{"Location":"TODD  PIPE  AND  SUPPLY","Address":"4828 W 145th St","City":"Hawthorne","State":"CA","Zip":"90250"},{"Location":"TONE BODY FITNESS","Address":"12579 Crenshaw Blvd","City":"Hawthorne","State":"CA","Zip":"90250"},{"Location":"TRIDENT DENTAL LAB","Address":"12000 Aviation Blvd","City":"Hawthorne","State":"CA","Zip":"90250"},{"Location":"VELOCITY NETWORKS","Address":"5155 W Rosecrans Ave 100","City":"Hawthorne","State":"CA","Zip":"90250"},{"Location":"VOUGHT AIRCRAFT","Address":"3901 W Broadway","City":"Hawthorne","State":"CA","Zip":"90250"},{"Location":"ZAHARONI INDUSTRIES INC","Address":"5500 W Rosecrans Ave","City":"Hawthorne","State":"CA","Zip":"90250"},{"Location":"24 HOUR FITNESS #55","Address":"2831 W 120th St","City":"Hawthorne","State":"CA","Zip":"90250"},{"Location":"352 LOUNGE","Address":"13126 Hawthorne Blvd","City":"Hawthorne","State":"CA","Zip":"90250"},{"Location":"360 AT SOUTH BAY","Address":"5428 Strand","City":"Hawthorne","State":"CA","Zip":"90250"},{"Location":"ADVANCED AIRCRAFT SERVICES","Address":"12101 Crenshaw Blvd 100","City":"Hawthorne","State":"CA","Zip":"90250"},{"Location":"AIR SEA PACKING AND CRATING","Address":"11965 Prairie Ave","City":"Hawthorne","State":"CA","Zip":"90250"},{"Location":"AMERICAN LEGION 314","Address":"14124 Prairie Ave","City":"Hawthorne","State":"CA","Zip":"90250"},{"Location":"AMIGOS TACOS","Address":"14249 Hawthorne Blvd","City":"Hawthorne","State":"CA","Zip":"90250"},{"Location":"ASTRO MACHINE COMPANY","Address":"3734 W 139th St","City":"Hawthorne","State":"CA","Zip":"90250"},{"Location":"ATHERTON BAPTIST CHURCH","Address":"2627 W 116th St","City":"Hawthorne","State":"CA","Zip":"90250"},{"Location":"BAKERY CHANNY","Address":"12631 Hawthorne Blvd","City":"Hawthorne","State":"CA","Zip":"90250"},{"Location":"BOUIES PROFESSIONAL BUSINESS","Address":"4623 W El Segundo Blvd 202","City":"Hawthorne","State":"CA","Zip":"90250"},{"Location":"C AND S SALES","Address":"12947 Chadron Ave","City":"Hawthorne","State":"CA","Zip":"90250"},{"Location":"CALIFORNIA SUBSHINE","Address":"5342 W Rosecrans Ave","City":"Hawthorne","State":"CA","Zip":"90250"},{"Location":"CAPELLIS TOTAL BEAUTY SA","Address":"14035 Hawthorne Blvd","City":"Hawthorne","State":"CA","Zip":"90250"},{"Location":"CENTRAL TIRE SERV 4","Address":"13213 Crenshaw Blvd","City":"Hawthorne","State":"CA","Zip":"90250"},{"Location":"CENTRAL TIRES 1","Address":"13816 Inglewood Ave","City":"Hawthorne","State":"CA","Zip":"90250"},{"Location":"CHILE VERDE","Address":"2851 W 120th St B","City":"Hawthorne","State":"CA","Zip":"90250"},{"Location":"CITY OF HAWTHORNE%2FSBWIB","Address":"3901 W El Segundo Blvd","City":"Hawthorne","State":"CA","Zip":"90250"},{"Location":"COAST FITNESS","Address":"5005 W El Segundo Blvd","City":"Hawthorne","State":"CA","Zip":"90250"},{"Location":"CONFIRMED FREIGHT","Address":"12620 Yukon Ave","City":"Hawthorne","State":"CA","Zip":"90250"},{"Location":"CONTINENTAL GOURMET","Address":"12921 Prairie Ave","City":"Hawthorne","State":"CA","Zip":"90250"},{"Location":"CONTURE NAILS SPA","Address":"14237 Inglewood Ave","City":"Hawthorne","State":"CA","Zip":"90250"},{"Location":"COSTCO","Address":"12530 Prairie Ave","City":"Hawthorne","State":"CA","Zip":"90250"},{"Location":"DAVITA #4349 HAWTHORNE","Address":"14204 Prairie Ave","City":"Hawthorne","State":"CA","Zip":"90250"},{"Location":"DEBRAS CREDIT REPAIR","Address":"4078 S Broadway Apt B","City":"Hawthorne","State":"CA","Zip":"90250"},{"Location":"DEPUY CENTRAL CALIFORNIA","Address":"12909 Cerise Ave","City":"Hawthorne","State":"CA","Zip":"90250"},{"Location":"DIVINE AFRICAN STORE","Address":"3300 W Rosecrans Ave 103","City":"Hawthorne","State":"CA","Zip":"90250"},{"Location":"EAGLE RIDER","Address":"11904 S La Cienega Blvd","City":"Hawthorne","State":"CA","Zip":"90250"},{"Location":"EL PUERTO ESCONDIDO","Address":"4182 W Elsegundo Blvd","City":"Hawthorne","State":"CA","Zip":"90250"},{"Location":"EL TORITO 7008","Address":"11855 Hawthorne Blvd","City":"Hawthorne","State":"CA","Zip":"90250"},{"Location":"ELITE MOTOR SPORTS","Address":"13020 Ucon Ave Unit","City":"Hawthorne","State":"CA","Zip":"90250"},{"Location":"EQUINOX-SOUTH BAY CLUB 708 #1","Address":"5400 W Rosecrans Ave","City":"Hawthorne","State":"CA","Zip":"90250"},{"Location":"EQUINOX-SOUTH BAY CLUB 708 #2","Address":"5400 W Rosecrans Ave","City":"Hawthorne","State":"CA","Zip":"90250"},{"Location":"EQUINOX-SOUTH BAY CLUB 708 #3","Address":"5400 W Rosecrans Ave","City":"Hawthorne","State":"CA","Zip":"90250"},{"Location":"EUREKA BURGER- HAWTHORNE","Address":"12101 Crenshaw Blvd","City":"Hawthorne","State":"CA","Zip":"90250"},{"Location":"FABOLOUS","Address":"3301 W Rosecrans Ave","City":"Hawthorne","State":"CA","Zip":"90250"},{"Location":"FABULOUS GRILL","Address":"12829 Crenshaw Blvd","City":"Hawthorne","State":"CA","Zip":"90250"},{"Location":"FALCON INN","Address":"5023 W Rosecrans Ave","City":"Hawthorne","State":"CA","Zip":"90250"},{"Location":"FAMILY UNITED N NEW BEGINNINGS","Address":"11616 Hawthorne Blvd 202","City":"Hawthorne","State":"CA","Zip":"90250"},{"Location":"FEDERAL EXPRESS","Address":"12600 Prairie Ave","City":"Hawthorne","State":"CA","Zip":"90250"},{"Location":"FOSTER TIRE CO","Address":"4941 W Rosecrans Ave","City":"Hawthorne","State":"CA","Zip":"90250"},{"Location":"FURNITURE CITY","Address":"14105 Prairie Ave","City":"Hawthorne","State":"CA","Zip":"90250"},{"Location":"GANJI DMD DENTAL CORP","Address":"14650 Aviation Blvd","City":"Hawthorne","State":"CA","Zip":"90250"},{"Location":"GOOD NEWS PRAYER CENTER","Address":"4124 W 138th St C","City":"Hawthorne","State":"CA","Zip":"90250"},{"Location":"HAMPTON INN W IMPERIAL","Address":"4320 W Imperial Hwy","City":"Hawthorne","State":"CA","Zip":"90250"},{"Location":"HAWTHORME MOOSE LODEG","Address":"13212 Englewood","City":"Hawthorne","State":"CA","Zip":"90250"},{"Location":"HAWTHORNE POLICE DEPT","Address":"12501 Hawthorne Blvd","City":"Hawthorne","State":"CA","Zip":"90250"},{"Location":"HAWTHORNE VFW POST 2075","Address":"4563 W 131st St","City":"Hawthorne","State":"CA","Zip":"90250"},{"Location":"HEAVENLY HAIR","Address":"13348 Hawthorne Blvd","City":"Hawthorne","State":"CA","Zip":"90250"},{"Location":"IMPERIAL CREST CONV HOSPITAL","Address":"11834 Inglewood Ave","City":"Hawthorne","State":"CA","Zip":"90250"},{"Location":"ISLAS DE LA BAHIA","Address":"14405 Prairie Ave","City":"Hawthorne","State":"CA","Zip":"90250"},{"Location":"JALISCO BAR","Address":"11611 Inglewood Ave","City":"Hawthorne","State":"CA","Zip":"90250"},{"Location":"JAMMERS INC","Address":"5119 W El Segundo Blvd","City":"Hawthorne","State":"CA","Zip":"90250"},{"Location":"JB NEW CONSTRUCTION INC","Address":"13737 Eenglewood Ave  #101","City":"Hawthorne","State":"CA","Zip":"90250"},{"Location":"JC BROMAC CORPORATION","Address":"11860 S La Cienega Blvd","City":"Hawthorne","State":"CA","Zip":"90250"},{"Location":"JCS EL SEGUNDO INC BU","Address":"5107 W El Segundo Blvd","City":"Hawthorne","State":"CA","Zip":"90250"},{"Location":"JCS HAWTHORNE INC DBA BU","Address":"3930 W El Segundo Blvd","City":"Hawthorne","State":"CA","Zip":"90250"},{"Location":"JIFFY LUBE 1418","Address":"12800 Hawrhorne Blvd","City":"Hawthorne","State":"CA","Zip":"90250"},{"Location":"JILOOL INC","Address":"14039 Hawthorne Blvd","City":"Hawthorne","State":"CA","Zip":"90250"},{"Location":"KAUR GURPRETT","Address":"11601 Inglewood Ave","City":"Hawthorne","State":"CA","Zip":"90250"},{"Location":"KES MAIL INC","Address":"12616 Chadron Ave","City":"Hawthorne","State":"CA","Zip":"90250"},{"Location":"KING HENRY'S","Address":"13443 Crenshaw Blvd","City":"Hawthorne","State":"CA","Zip":"90250"},{"Location":"LA FITNESS #6149","Address":"4949 W 147th St","City":"Hawthorne","State":"CA","Zip":"90250"},{"Location":"LALICIOUS","Address":"3425 Jack Northrop Ave","City":"Hawthorne","State":"CA","Zip":"90250"},{"Location":"LANNYS HOBBIE SHOP","Address":"13115 Yukon Ave","City":"Hawthorne","State":"CA","Zip":"90250"},{"Location":"LAS BRISAS1","Address":"11828 Hawthorne Blvd","City":"Hawthorne","State":"CA","Zip":"90250"},{"Location":"LAS DELICIAS DEL REY","Address":"15022 Prairie Ave","City":"Hawthorne","State":"CA","Zip":"90250"},{"Location":"LAX CROSSFIT","Address":"11944 S La Cienega Blvd","City":"Hawthorne","State":"CA","Zip":"90250"},{"Location":"LIBERTY TAX SERVICE 15","Address":"3909 W Rosecrans Ave B","City":"Hawthorne","State":"CA","Zip":"90250"},{"Location":"LICHAS  RESTAURANT","Address":"4267 W El Segundo Blvd","City":"Hawthorne","State":"CA","Zip":"90250"},{"Location":"LITHOGRAPHIX INC.","Address":"12250 Crenshaw Blvd","City":"Hawthorne","State":"CA","Zip":"90250"},{"Location":"LONDERS REGISTRATION S","Address":"13911 Hawthorne Blvd","City":"Hawthorne","State":"CA","Zip":"90250"},{"Location":"M AND M ENTERPRISE","Address":"11616 Hawthorne Blvd 101","City":"Hawthorne","State":"CA","Zip":"90250"},{"Location":"MARISCOS L CHUY","Address":"11613 Inglewood Ave","City":"Hawthorne","State":"CA","Zip":"90250"},{"Location":"MASTER REPOINTING SERVICES","Address":"13703 Cordary Ave 16","City":"Hawthorne","State":"CA","Zip":"90250"},{"Location":"MATISSE","Address":"14400 Hindry Ave","City":"Hawthorne","State":"CA","Zip":"90250"},{"Location":"MCCORMICK AMBULANCE","Address":"13933 Crenshaw Blvd","City":"Hawthorne","State":"CA","Zip":"90250"},{"Location":"MI LINDO VILLANUEVA","Address":"11801 Inglewood Ave","City":"Hawthorne","State":"CA","Zip":"90250"},{"Location":"MIKES BARBERSHOP","Address":"11927 1%2F2 Inglewood Ave","City":"Hawthorne","State":"CA","Zip":"90250"},{"Location":"MODERN TWIST BARBER SHOP","Address":"4563 W Rosecrans Ave","City":"Hawthorne","State":"CA","Zip":"90250"},{"Location":"MORENOS RADIATOR","Address":"13332 Prairie Ave","City":"Hawthorne","State":"CA","Zip":"90250"},{"Location":"NAIL SPA EXCEL","Address":"5372 W Rosecrans Ave","City":"Hawthorne","State":"CA","Zip":"90250"},{"Location":"NAPA CENTER","Address":"11832 S La Cienega Blvd","City":"Hawthorne","State":"CA","Zip":"90250"},{"Location":"NOA NOA RESTAURANT","Address":"3757 W Rosecrans Ave","City":"Hawthorne","State":"CA","Zip":"90250"},{"Location":"PACIFIC VOLKSWAGEN","Address":"14900 Hindry Ave","City":"Hawthorne","State":"CA","Zip":"90250"},{"Location":"PIZZA SHOW","Address":"13344 Hawthorne Blvd","City":"Hawthorne","State":"CA","Zip":"90250"},{"Location":"POWER NISSAN TORR. SCA-2446","Address":"14610 Hindry Ave","City":"Hawthorne","State":"CA","Zip":"90250"},{"Location":"PUPUSERIA EL CERRO VERDE","Address":"12627 Hawthorne Blvd","City":"Hawthorne","State":"CA","Zip":"90250"},{"Location":"QT HAIR AND BARBER STUDIO","Address":"14129 1%2F2 Crenshaw Blvd","City":"Hawthorne","State":"CA","Zip":"90250"},{"Location":"QUE PASA MEXICAN","Address":"11943 Inglewood Ave","City":"Hawthorne","State":"CA","Zip":"90250"},{"Location":"RAPID MOTOR SERVICE","Address":"13770 Prairie Ave","City":"Hawthorne","State":"CA","Zip":"90250"},{"Location":"RAULS MEXICAN REST","Address":"13908 Inglewood Ave","City":"Hawthorne","State":"CA","Zip":"90250"},{"Location":"ROCK IT CAFE","Address":"14239 Hawthorne Blvd","City":"Hawthorne","State":"CA","Zip":"90250"},{"Location":"ROSECRANS VILLA","Address":"14110 Cordary Ave","City":"Hawthorne","State":"CA","Zip":"90250"},{"Location":"SAFTECH","Address":"4910 W Rosecrans Ave A","City":"Hawthorne","State":"CA","Zip":"90250"},{"Location":"SALVADORE NAVARRO","Address":"14015 Hawthorne Blvd","City":"Hawthorne","State":"CA","Zip":"90250"},{"Location":"SAMUEL ONUOHA MINISTRIES","Address":"11966 Acacia Ave","City":"Hawthorne","State":"CA","Zip":"90250"},{"Location":"SCHENKER INC.","Address":"2815 W El Segundo Blvd","City":"Hawthorne","State":"CA","Zip":"90250"},{"Location":"SHEAR GENUIS","Address":"13837 Hawthorne Blvd","City":"Hawthorne","State":"CA","Zip":"90250"},{"Location":"SKYONE FEDERAL CREDIT UNION","Address":"14600 Aviation Blvd","City":"Hawthorne","State":"CA","Zip":"90250"},{"Location":"SOUTH BAY AUTOS","Address":"13600 Inglewood Ave","City":"Hawthorne","State":"CA","Zip":"90250"},{"Location":"SOUTH BAY FORD","Address":"5100 W Rosecrans Ave","City":"Hawthorne","State":"CA","Zip":"90250"},{"Location":"SOUTH BAY SERVICES","Address":"13030 Inglewood Ave 201","City":"Hawthorne","State":"CA","Zip":"90250"},{"Location":"SOUTH PACIFIC APT","Address":"13020 Kornblum Ave","City":"Hawthorne","State":"CA","Zip":"90250"},{"Location":"SPACE EXPLORATION TECHNOLOGIES","Address":"1 Rocket Rd","City":"Hawthorne","State":"CA","Zip":"90250"},{"Location":"SPORTS AUTHORITY 631","Address":"14555 Ocean Gate Ave","City":"Hawthorne","State":"CA","Zip":"90250"},{"Location":"SPORTS N ACTION","Address":"4561 W Rosecrans Ave","City":"Hawthorne","State":"CA","Zip":"90250"},{"Location":"ST JOSEPHS CATHOLIC CHUR","Address":"11854 Acacia Ave","City":"Hawthorne","State":"CA","Zip":"90250"},{"Location":"STEVEN SEIDEN LAW OFFICE","Address":"13658 Hawthorne Blvd 100c","City":"Hawthorne","State":"CA","Zip":"90250"},{"Location":"SUPER  LAUNDRY","Address":"13315 Hawthorne Blvd A","City":"Hawthorne","State":"CA","Zip":"90250"},{"Location":"SYMMETRY ELECTRONICS","Address":"5400 W Rosecrans Ave","City":"Hawthorne","State":"CA","Zip":"90250"},{"Location":"TARGET","Address":"2700 W 120th St","City":"Hawthorne","State":"CA","Zip":"90250"},{"Location":"TESLA MOTORS","Address":"12259 Crenshaw Blvd","City":"Hawthorne","State":"CA","Zip":"90250"},{"Location":"THE BREAK BAR","Address":"13825 Hawthorne Blvd","City":"Hawthorne","State":"CA","Zip":"90250"},{"Location":"THE GREATEST","Address":"13766 Inglewood Ave","City":"Hawthorne","State":"CA","Zip":"90250"},{"Location":"THINKOM SOLUTION%2C INC","Address":"4881 W 145th St","City":"Hawthorne","State":"CA","Zip":"90250"},{"Location":"TODD  PIPE  AND  SUPPLY","Address":"4828 W 145th St","City":"Hawthorne","State":"CA","Zip":"90250"},{"Location":"TONE BODY FITNESS","Address":"12579 Crenshaw Blvd","City":"Hawthorne","State":"CA","Zip":"90250"},{"Location":"TRIDENT DENTAL LAB","Address":"12000 Aviation Blvd","City":"Hawthorne","State":"CA","Zip":"90250"},{"Location":"VELOCITY NETWORKS","Address":"5155 W Rosecrans Ave 100","City":"Hawthorne","State":"CA","Zip":"90250"},{"Location":"VOUGHT AIRCRAFT","Address":"3901 W Broadway","City":"Hawthorne","State":"CA","Zip":"90250"},{"Location":"ZAHARONI INDUSTRIES INC","Address":"5500 W Rosecrans Ave","City":"Hawthorne","State":"CA","Zip":"90250"}]