[{"Location":"5 STAR BARBER SHOP","Address":"2479 E Florence Ave","City":"Huntington Park","State":"CA","Zip":"90255"},{"Location":"ADVANTAGE AUTO REPAIR","Address":"6057 State St","City":"Huntington Park","State":"CA","Zip":"90255"},{"Location":"ALBANEZ SERVICES","Address":"2205 Nadeau St","City":"Huntington Park","State":"CA","Zip":"90255"},{"Location":"ALTA MED HEALTH SERVICE","Address":"6330 Rugby Ave","City":"Huntington Park","State":"CA","Zip":"90255"},{"Location":"AMARILLO CASA DE EMPENO","Address":"2716 E Florence Ave","City":"Huntington Park","State":"CA","Zip":"90255"},{"Location":"AMERICAN LION TRASPORTAION","Address":"2474 E Florence Ave","City":"Huntington Park","State":"CA","Zip":"90255"},{"Location":"ANDYS","Address":"2810 E Slauson Ave","City":"Huntington Park","State":"CA","Zip":"90255"},{"Location":"ARCEOS BEAUTY SALON","Address":"2430 E Gage Ave","City":"Huntington Park","State":"CA","Zip":"90255"},{"Location":"AUTO COAST INSURANCE AG","Address":"7848 Pacific Blvd N10","City":"Huntington Park","State":"CA","Zip":"90255"},{"Location":"AVILAS EL RANCHITO HP","Address":"6703 Santa Fe Ave","City":"Huntington Park","State":"CA","Zip":"90255"},{"Location":"BABS MARKET","Address":"7801 State St","City":"Huntington Park","State":"CA","Zip":"90255"},{"Location":"BE FOODS HP CORR","Address":"3053 E Florence Ave","City":"Huntington Park","State":"CA","Zip":"90255"},{"Location":"BELGRAVE FAM DENTAL GROUP","Address":"6011 Pacific Blvd 120","City":"Huntington Park","State":"CA","Zip":"90255"},{"Location":"BEST BUY ELECTRONICS","Address":"6401 Pacific Blvd","City":"Huntington Park","State":"CA","Zip":"90255"},{"Location":"BIRRIERIA TACOS EL GUERO","Address":"7806 Santa Fe Ave","City":"Huntington Park","State":"CA","Zip":"90255"},{"Location":"BOBO'S BURGERS","Address":"7300 Pacific Blvd","City":"Huntington Park","State":"CA","Zip":"90255"},{"Location":"BOTANICA LA CARIDA DE COBRE","Address":"2634 E Florence Ave","City":"Huntington Park","State":"CA","Zip":"90255"},{"Location":"BRAND AND JUMBER","Address":"7962 Salt Lake Ave C","City":"Huntington Park","State":"CA","Zip":"90255"},{"Location":"CALIFORNIA DONUTS","Address":"2700 E Gate Ave A","City":"Huntington Park","State":"CA","Zip":"90255"},{"Location":"CALIFORNIA MARKER COPIES","Address":"2534-2538 E 54st","City":"Huntington Park","State":"CA","Zip":"90255"},{"Location":"CAMACHO AUTOREGISTRATION","Address":"7133 Pacific Blvd","City":"Huntington Park","State":"CA","Zip":"90255"},{"Location":"CAMARONES N BEER SPORTS BAR","Address":"5527 Pacific Blvd","City":"Huntington Park","State":"CA","Zip":"90255"},{"Location":"CARE DENTAL","Address":"6438 Rita Ave","City":"Huntington Park","State":"CA","Zip":"90255"},{"Location":"CASA CORONA","Address":"6608 Pacific Blvd","City":"Huntington Park","State":"CA","Zip":"90255"},{"Location":"CASA LUZ","Address":"2975 E Florence Ave","City":"Huntington Park","State":"CA","Zip":"90255"},{"Location":"CENTRO DE DESARROLLO FAM","Address":"2677 Zoe Ave 120","City":"Huntington Park","State":"CA","Zip":"90255"},{"Location":"CENTRO LATINO TAXES","Address":"2413 Randolph St","City":"Huntington Park","State":"CA","Zip":"90255"},{"Location":"CHA CHA GRILL","Address":"2620 Clarendon Ave","City":"Huntington Park","State":"CA","Zip":"90255"},{"Location":"CITIZENS OF HUMANITY","Address":"5715 Bickett St","City":"Huntington Park","State":"CA","Zip":"90255"},{"Location":"CLINICA MI PAEBLO","Address":"2649 E Gage Ave","City":"Huntington Park","State":"CA","Zip":"90255"},{"Location":"COJUTEPEQUE","Address":"2514 E Gage Ave B","City":"Huntington Park","State":"CA","Zip":"90255"},{"Location":"CONCHITAS 3","Address":"3249 E Gage Ave","City":"Huntington Park","State":"CA","Zip":"90255"},{"Location":"CONTRERAS GARDEN SUPPLY","Address":"4236 Elizabeth St","City":"Huntington Park","State":"CA","Zip":"90255"},{"Location":"COPANSULA RESTAURANT","Address":"6030 Santa Fe Ave","City":"Huntington Park","State":"CA","Zip":"90255"},{"Location":"DANIEL MINI MARKET","Address":"3124 E Gage Ave","City":"Huntington Park","State":"CA","Zip":"90255"},{"Location":"DAVITA #2310 HUNTINGTON PARK","Address":"5942 Rugby Ave","City":"Huntington Park","State":"CA","Zip":"90255"},{"Location":"DELI BOOKEEPING TAX","Address":"7606 California Ave A","City":"Huntington Park","State":"CA","Zip":"90255"},{"Location":"DIANA'S MEXICAN FOOD","Address":"6035 Pacific Blvd","City":"Huntington Park","State":"CA","Zip":"90255"},{"Location":"DINOS CHIKEN & BURGER","Address":"6135 Pacific Blvd","City":"Huntington Park","State":"CA","Zip":"90255"},{"Location":"DOS TOROS 1","Address":"7029 Santa Fe Ave","City":"Huntington Park","State":"CA","Zip":"90255"},{"Location":"DOS TOROS 2","Address":"3238 E Gage Ave","City":"Huntington Park","State":"CA","Zip":"90255"},{"Location":"EL CHAMITAL","Address":"7111 Pacific Blvd","City":"Huntington Park","State":"CA","Zip":"90255"},{"Location":"EL GALLO GIRO","Address":"7148 Pacific Blvd","City":"Huntington Park","State":"CA","Zip":"90255"},{"Location":"EL GRANERO GRILL","Address":"6823 Seville Ave","City":"Huntington Park","State":"CA","Zip":"90255"},{"Location":"EL PUERTO ESCONDIDO","Address":"7421 Pacific Blvd","City":"Huntington Park","State":"CA","Zip":"90255"},{"Location":"EL TENAMPA","Address":"8002 Seville Ave","City":"Huntington Park","State":"CA","Zip":"90255"},{"Location":"ESTER E LEE DDS","Address":"7218 Pacific Blvd","City":"Huntington Park","State":"CA","Zip":"90255"},{"Location":"FIRE STATION 164","Address":"6301 Santa Fe Ave","City":"Huntington Park","State":"CA","Zip":"90255"},{"Location":"FIRESTONE #002569","Address":"2651 E Gage Ave","City":"Huntington Park","State":"CA","Zip":"90255"},{"Location":"GAGE BOWL","Address":"3477 E Gage Ave","City":"Huntington Park","State":"CA","Zip":"90255"},{"Location":"GAGE COIN LAUNDRY","Address":"3216 E Gage Ave","City":"Huntington Park","State":"CA","Zip":"90255"},{"Location":"GENESIS BARBERSHOP","Address":"2711 Zoe Ave","City":"Huntington Park","State":"CA","Zip":"90255"},{"Location":"GOOD BURGER","Address":"2705 Saturn Ave","City":"Huntington Park","State":"CA","Zip":"90255"},{"Location":"HERNANDEZ SERVICE STATION","Address":"6811 Santa Fe Ave","City":"Huntington Park","State":"CA","Zip":"90255"},{"Location":"HONDURAS KITCHEN","Address":"2409 E Slauson Ave","City":"Huntington Park","State":"CA","Zip":"90255"},{"Location":"HP UNIFORMS","Address":"6417 Pacific Blvd","City":"Huntington Park","State":"CA","Zip":"90255"},{"Location":"HUNTINGTON PARK FRESH CUTS","Address":"3280 E Gage Ave","City":"Huntington Park","State":"CA","Zip":"90255"},{"Location":"IMPERIAL PAWN SHOP","Address":"7412 1%2F2 Pacific Blvd","City":"Huntington Park","State":"CA","Zip":"90255"},{"Location":"J BARBER SHOP","Address":"3043 E Gage Ave","City":"Huntington Park","State":"CA","Zip":"90255"},{"Location":"JADE SIAM RESTAURANTS","Address":"2570 E Slauson Ave A","City":"Huntington Park","State":"CA","Zip":"90255"},{"Location":"JOSE NAVARRO BAIL BONDS","Address":"2809 E Gage Ave","City":"Huntington Park","State":"CA","Zip":"90255"},{"Location":"KALUA'S NIGHT CLUB","Address":"6927 Pacific Blvd","City":"Huntington Park","State":"CA","Zip":"90255"},{"Location":"KING BUFFET","Address":"2661 E Florence Ave D","City":"Huntington Park","State":"CA","Zip":"90255"},{"Location":"KITTY KAT BAR","Address":"5728 Santa Fe Avenue","City":"Huntington Park","State":"CA","Zip":"90255"},{"Location":"L APERLA MARKET","Address":"7681 Santa Fe Ave","City":"Huntington Park","State":"CA","Zip":"90255"},{"Location":"LA CURACAO","Address":"5980 Pacific Blvd","City":"Huntington Park","State":"CA","Zip":"90255"},{"Location":"LA LIBERTAD MEDICAL CL","Address":"7900 Pacific Blvd D","City":"Huntington Park","State":"CA","Zip":"90255"},{"Location":"LA RAMADA RESTAURANT","Address":"6330 Santa Fe Ave","City":"Huntington Park","State":"CA","Zip":"90255"},{"Location":"LAURA BARBERSHOP & BEAUTY","Address":"7990 Pacific Blvd C","City":"Huntington Park","State":"CA","Zip":"90255"},{"Location":"LEONARDO'S","Address":"6617 Wilson Ave","City":"Huntington Park","State":"CA","Zip":"90255"},{"Location":"LEONARDO'S REST","Address":"6611 S Alameda St","City":"Huntington Park","State":"CA","Zip":"90255"},{"Location":"LINDA MARICIOS RESTAURANT #2","Address":"5527 Pacific Blvd","City":"Huntington Park","State":"CA","Zip":"90255"},{"Location":"LOS ANGELES PUMP AND VALVE","Address":"2528 E 57th St","City":"Huntington Park","State":"CA","Zip":"90255"},{"Location":"LUGO'S OF CALIFORNIA","Address":"2560 E 56th St","City":"Huntington Park","State":"CA","Zip":"90255"},{"Location":"M & M FURNITURE","Address":"7703 Pacific Blvd","City":"Huntington Park","State":"CA","Zip":"90255"},{"Location":"M2 SILK SCREEN","Address":"2623 E 55th St","City":"Huntington Park","State":"CA","Zip":"90255"},{"Location":"MANOS TORTILLERIA","Address":"2513 E Florence Ave","City":"Huntington Park","State":"CA","Zip":"90255"},{"Location":"MAX TAX","Address":"7212 Pacific Blvd 4","City":"Huntington Park","State":"CA","Zip":"90255"},{"Location":"MICHEL'S FAMILY DENTISTRY","Address":"3058 E Gage Ave","City":"Huntington Park","State":"CA","Zip":"90255"},{"Location":"MONARCH TRADING COMPANY","Address":"5608 Soto St 200","City":"Huntington Park","State":"CA","Zip":"90255"},{"Location":"NOELS INSURANCE","Address":"2477 E Florence Ave","City":"Huntington Park","State":"CA","Zip":"90255"},{"Location":"NUEVO SEVILLA BARBER SHO","Address":"8010 Seville Ave","City":"Huntington Park","State":"CA","Zip":"90255"},{"Location":"OSCARS BARBER","Address":"3262 E Gage Ave","City":"Huntington Park","State":"CA","Zip":"90255"},{"Location":"PACIFIC AUTO REPAIR","Address":"2567 E 54th St","City":"Huntington Park","State":"CA","Zip":"90255"},{"Location":"PACIFIC HEALTH MGMT. 1","Address":"7723 1%2F2 Pacific Blvd","City":"Huntington Park","State":"CA","Zip":"90255"},{"Location":"PARK","Address":"5820 Bickett St","City":"Huntington Park","State":"CA","Zip":"90255"},{"Location":"PLANET FITNESS-H PARK","Address":"7010 S Alameda St","City":"Huntington Park","State":"CA","Zip":"90255"},{"Location":"PORTO VILLAGE PIZZA","Address":"2811 E Slauson Ave","City":"Huntington Park","State":"CA","Zip":"90255"},{"Location":"PRODUCTOS ES","Address":"7915 Seville Ave","City":"Huntington Park","State":"CA","Zip":"90255"},{"Location":"RIO LEMPA 3 RESTAURANT","Address":"2626 Saturn Ave","City":"Huntington Park","State":"CA","Zip":"90255"},{"Location":"SAMUELS HAIR DESIGN","Address":"3305 E Florence Ave","City":"Huntington Park","State":"CA","Zip":"90255"},{"Location":"SAN FRANCISCO DENTAL OFFICE","Address":"2521 E Florence Ave B2","City":"Huntington Park","State":"CA","Zip":"90255"},{"Location":"SAN SALVADOR","Address":"3466 E Florence Ave","City":"Huntington Park","State":"CA","Zip":"90255"},{"Location":"SANTA FE BILLIARDS","Address":"6034 Santa Fe Ave","City":"Huntington Park","State":"CA","Zip":"90255"},{"Location":"SANTA ROSA DE LIMA MEDICAL","Address":"6915 Seville Ave","City":"Huntington Park","State":"CA","Zip":"90255"},{"Location":"SECRETO UNIVERSAL","Address":"6503 Pacific Blvd 204","City":"Huntington Park","State":"CA","Zip":"90255"},{"Location":"SHAKEY'S PIZZA PARLOR","Address":"2522 E Florence Ave","City":"Huntington Park","State":"CA","Zip":"90255"},{"Location":"SILVIAS BEAUTY SALON","Address":"7423 State St","City":"Huntington Park","State":"CA","Zip":"90255"},{"Location":"SIMONS UNIQUE HAIR","Address":"2621 E Gage Ave","City":"Huntington Park","State":"CA","Zip":"90255"},{"Location":"SOUTHERN CALIFORNIA GAS","Address":"6301 Regent St","City":"Huntington Park","State":"CA","Zip":"90255"},{"Location":"SPORTS FASHION","Address":"6313 1%2F2 Pacific Blvd","City":"Huntington Park","State":"CA","Zip":"90255"},{"Location":"ST JOHNS PHARMANCY","Address":"3074 E Florence Ave","City":"Huntington Park","State":"CA","Zip":"90255"},{"Location":"TAMS BURGERS","Address":"2850 E Slauson Ave","City":"Huntington Park","State":"CA","Zip":"90255"},{"Location":"TASTY THAI","Address":"2607 E Gage Ave","City":"Huntington Park","State":"CA","Zip":"90255"},{"Location":"TAUREAN HOLDINGS","Address":"2551 E Gage Ave","City":"Huntington Park","State":"CA","Zip":"90255"},{"Location":"TELSCAPE","Address":"6906 Pacific Blvd","City":"Huntington Park","State":"CA","Zip":"90255"},{"Location":"TORTAS AHOGADAS","Address":"6042 Santa Fe Ave","City":"Huntington Park","State":"CA","Zip":"90255"},{"Location":"URBAN BARBERS","Address":"6906 Santa Fe Ave","City":"Huntington Park","State":"CA","Zip":"90255"},{"Location":"VICTORIA TIRE CENTER INC","Address":"2271 E Florence Ave","City":"Huntington Park","State":"CA","Zip":"90255"},{"Location":"WABA GRILL","Address":"5933 State St","City":"Huntington Park","State":"CA","Zip":"90255"},{"Location":"WING STOP THREE THIRTEEN","Address":"2124 E Florence Ave","City":"Huntington Park","State":"CA","Zip":"90255"},{"Location":"YOUR CHOICE DENTAL","Address":"6601 Rugby Ave 400","City":"Huntington Park","State":"CA","Zip":"90255"},{"Location":"CENTRAL ARM PROTECTION","Address":"2500 1%2F2 E Florence Ave","City":"Walnut Park","State":"CA","Zip":"90255"},{"Location":"DON CHENTE BAR & GRILL","Address":"2144 E Florence Ave","City":"Walnut Park","State":"CA","Zip":"90255"},{"Location":"5 STAR BARBER SHOP","Address":"2479 E Florence Ave","City":"Huntington Park","State":"CA","Zip":"90255"},{"Location":"ADVANTAGE AUTO REPAIR","Address":"6057 State St","City":"Huntington Park","State":"CA","Zip":"90255"},{"Location":"ALBANEZ SERVICES","Address":"2205 Nadeau St","City":"Huntington Park","State":"CA","Zip":"90255"},{"Location":"ALTA MED HEALTH SERVICE","Address":"6330 Rugby Ave","City":"Huntington Park","State":"CA","Zip":"90255"},{"Location":"AMARILLO CASA DE EMPENO","Address":"2716 E Florence Ave","City":"Huntington Park","State":"CA","Zip":"90255"},{"Location":"AMERICAN LION TRASPORTAION","Address":"2474 E Florence Ave","City":"Huntington Park","State":"CA","Zip":"90255"},{"Location":"ANDYS","Address":"2810 E Slauson Ave","City":"Huntington Park","State":"CA","Zip":"90255"},{"Location":"ARCEOS BEAUTY SALON","Address":"2430 E Gage Ave","City":"Huntington Park","State":"CA","Zip":"90255"},{"Location":"AUTO COAST INSURANCE AG","Address":"7848 Pacific Blvd N10","City":"Huntington Park","State":"CA","Zip":"90255"},{"Location":"AVILAS EL RANCHITO HP","Address":"6703 Santa Fe Ave","City":"Huntington Park","State":"CA","Zip":"90255"},{"Location":"BABS MARKET","Address":"7801 State St","City":"Huntington Park","State":"CA","Zip":"90255"},{"Location":"BE FOODS HP CORR","Address":"3053 E Florence Ave","City":"Huntington Park","State":"CA","Zip":"90255"},{"Location":"BELGRAVE FAM DENTAL GROUP","Address":"6011 Pacific Blvd 120","City":"Huntington Park","State":"CA","Zip":"90255"},{"Location":"BEST BUY ELECTRONICS","Address":"6401 Pacific Blvd","City":"Huntington Park","State":"CA","Zip":"90255"},{"Location":"BIRRIERIA TACOS EL GUERO","Address":"7806 Santa Fe Ave","City":"Huntington Park","State":"CA","Zip":"90255"},{"Location":"BOBO'S BURGERS","Address":"7300 Pacific Blvd","City":"Huntington Park","State":"CA","Zip":"90255"},{"Location":"BOTANICA LA CARIDA DE COBRE","Address":"2634 E Florence Ave","City":"Huntington Park","State":"CA","Zip":"90255"},{"Location":"BRAND AND JUMBER","Address":"7962 Salt Lake Ave C","City":"Huntington Park","State":"CA","Zip":"90255"},{"Location":"CALIFORNIA DONUTS","Address":"2700 E Gate Ave A","City":"Huntington Park","State":"CA","Zip":"90255"},{"Location":"CALIFORNIA MARKER COPIES","Address":"2534-2538 E 54st","City":"Huntington Park","State":"CA","Zip":"90255"},{"Location":"CAMACHO AUTOREGISTRATION","Address":"7133 Pacific Blvd","City":"Huntington Park","State":"CA","Zip":"90255"},{"Location":"CAMARONES N BEER SPORTS BAR","Address":"5527 Pacific Blvd","City":"Huntington Park","State":"CA","Zip":"90255"},{"Location":"CARE DENTAL","Address":"6438 Rita Ave","City":"Huntington Park","State":"CA","Zip":"90255"},{"Location":"CASA CORONA","Address":"6608 Pacific Blvd","City":"Huntington Park","State":"CA","Zip":"90255"},{"Location":"CASA LUZ","Address":"2975 E Florence Ave","City":"Huntington Park","State":"CA","Zip":"90255"},{"Location":"CENTRO DE DESARROLLO FAM","Address":"2677 Zoe Ave 120","City":"Huntington Park","State":"CA","Zip":"90255"},{"Location":"CENTRO LATINO TAXES","Address":"2413 Randolph St","City":"Huntington Park","State":"CA","Zip":"90255"},{"Location":"CHA CHA GRILL","Address":"2620 Clarendon Ave","City":"Huntington Park","State":"CA","Zip":"90255"},{"Location":"CITIZENS OF HUMANITY","Address":"5715 Bickett St","City":"Huntington Park","State":"CA","Zip":"90255"},{"Location":"CLINICA MI PAEBLO","Address":"2649 E Gage Ave","City":"Huntington Park","State":"CA","Zip":"90255"},{"Location":"COJUTEPEQUE","Address":"2514 E Gage Ave B","City":"Huntington Park","State":"CA","Zip":"90255"},{"Location":"CONCHITAS 3","Address":"3249 E Gage Ave","City":"Huntington Park","State":"CA","Zip":"90255"},{"Location":"CONTRERAS GARDEN SUPPLY","Address":"4236 Elizabeth St","City":"Huntington Park","State":"CA","Zip":"90255"},{"Location":"COPANSULA RESTAURANT","Address":"6030 Santa Fe Ave","City":"Huntington Park","State":"CA","Zip":"90255"},{"Location":"DANIEL MINI MARKET","Address":"3124 E Gage Ave","City":"Huntington Park","State":"CA","Zip":"90255"},{"Location":"DAVITA #2310 HUNTINGTON PARK","Address":"5942 Rugby Ave","City":"Huntington Park","State":"CA","Zip":"90255"},{"Location":"DELI BOOKEEPING TAX","Address":"7606 California Ave A","City":"Huntington Park","State":"CA","Zip":"90255"},{"Location":"DIANA'S MEXICAN FOOD","Address":"6035 Pacific Blvd","City":"Huntington Park","State":"CA","Zip":"90255"},{"Location":"DINOS CHIKEN & BURGER","Address":"6135 Pacific Blvd","City":"Huntington Park","State":"CA","Zip":"90255"},{"Location":"DOS TOROS 1","Address":"7029 Santa Fe Ave","City":"Huntington Park","State":"CA","Zip":"90255"},{"Location":"DOS TOROS 2","Address":"3238 E Gage Ave","City":"Huntington Park","State":"CA","Zip":"90255"},{"Location":"EL CHAMITAL","Address":"7111 Pacific Blvd","City":"Huntington Park","State":"CA","Zip":"90255"},{"Location":"EL GALLO GIRO","Address":"7148 Pacific Blvd","City":"Huntington Park","State":"CA","Zip":"90255"},{"Location":"EL GRANERO GRILL","Address":"6823 Seville Ave","City":"Huntington Park","State":"CA","Zip":"90255"},{"Location":"EL PUERTO ESCONDIDO","Address":"7421 Pacific Blvd","City":"Huntington Park","State":"CA","Zip":"90255"},{"Location":"El Tenampa","Address":"8002 Seville Ave","City":"Huntington Park","State":"CA","Zip":"90255"},{"Location":"ESTER E LEE DDS","Address":"7218 Pacific Blvd","City":"Huntington Park","State":"CA","Zip":"90255"},{"Location":"FIRE STATION 164","Address":"6301 Santa Fe Ave","City":"Huntington Park","State":"CA","Zip":"90255"},{"Location":"FIRESTONE #002569","Address":"2651 E Gage Ave","City":"Huntington Park","State":"CA","Zip":"90255"},{"Location":"GAGE BOWL","Address":"3477 E Gage Ave","City":"Huntington Park","State":"CA","Zip":"90255"},{"Location":"GAGE COIN LAUNDRY","Address":"3216 E Gage Ave","City":"Huntington Park","State":"CA","Zip":"90255"},{"Location":"GENESIS BARBERSHOP","Address":"2711 Zoe Ave","City":"Huntington Park","State":"CA","Zip":"90255"},{"Location":"GOOD BURGER","Address":"2705 Saturn Ave","City":"Huntington Park","State":"CA","Zip":"90255"},{"Location":"HERNANDEZ SERVICE STATION","Address":"6811 Santa Fe Ave","City":"Huntington Park","State":"CA","Zip":"90255"},{"Location":"HONDURAS KITCHEN","Address":"2409 E Slauson Ave","City":"Huntington Park","State":"CA","Zip":"90255"},{"Location":"HP UNIFORMS","Address":"6417 Pacific Blvd","City":"Huntington Park","State":"CA","Zip":"90255"},{"Location":"HUNTINGTON PARK FRESH CUTS","Address":"3280 E Gage Ave","City":"Huntington Park","State":"CA","Zip":"90255"},{"Location":"IMPERIAL PAWN SHOP","Address":"7412 1%2F2 Pacific Blvd","City":"Huntington Park","State":"CA","Zip":"90255"},{"Location":"J BARBER SHOP","Address":"3043 E Gage Ave","City":"Huntington Park","State":"CA","Zip":"90255"},{"Location":"JADE SIAM RESTAURANTS","Address":"2570 E Slauson Ave A","City":"Huntington Park","State":"CA","Zip":"90255"},{"Location":"JOSE NAVARRO BAIL BONDS","Address":"2809 E Gage Ave","City":"Huntington Park","State":"CA","Zip":"90255"},{"Location":"KALUA'S NIGHT CLUB","Address":"6927 Pacific Blvd","City":"Huntington Park","State":"CA","Zip":"90255"},{"Location":"KING BUFFET","Address":"2661 E Florence Ave D","City":"Huntington Park","State":"CA","Zip":"90255"},{"Location":"KITTY KAT BAR","Address":"5728 Santa Fe Avenue","City":"Huntington Park","State":"CA","Zip":"90255"},{"Location":"L APERLA MARKET","Address":"7681 Santa Fe Ave","City":"Huntington Park","State":"CA","Zip":"90255"},{"Location":"LA CURACAO","Address":"5980 Pacific Blvd","City":"Huntington Park","State":"CA","Zip":"90255"},{"Location":"LA LIBERTAD MEDICAL CL","Address":"7900 Pacific Blvd D","City":"Huntington Park","State":"CA","Zip":"90255"},{"Location":"LA RAMADA RESTAURANT","Address":"6330 Santa Fe Ave","City":"Huntington Park","State":"CA","Zip":"90255"},{"Location":"LA TIENDITA MARKET","Address":"5512 Pacific Blvd","City":"Huntington Park","State":"CA","Zip":"90255"},{"Location":"LAURA BARBERSHOP & BEAUTY","Address":"7990 Pacific Blvd C","City":"Huntington Park","State":"CA","Zip":"90255"},{"Location":"LEONARDO'S","Address":"6617 Wilson Ave","City":"Huntington Park","State":"CA","Zip":"90255"},{"Location":"LEONARDO'S REST","Address":"6611 S Alameda St","City":"Huntington Park","State":"CA","Zip":"90255"},{"Location":"LINDA MARICIOS RESTAURANT #2","Address":"5527 Pacific Blvd","City":"Huntington Park","State":"CA","Zip":"90255"},{"Location":"LOS ANGELES PUMP AND VALVE","Address":"2528 E 57th St","City":"Huntington Park","State":"CA","Zip":"90255"},{"Location":"LUGO'S OF CALIFORNIA","Address":"2560 E 56th St","City":"Huntington Park","State":"CA","Zip":"90255"},{"Location":"M & M FURNITURE","Address":"7703 Pacific Blvd","City":"Huntington Park","State":"CA","Zip":"90255"},{"Location":"M2 SILK SCREEN","Address":"2623 E 55th St","City":"Huntington Park","State":"CA","Zip":"90255"},{"Location":"MANOS TORTILLERIA","Address":"2513 E Florence Ave","City":"Huntington Park","State":"CA","Zip":"90255"},{"Location":"MAX TAX","Address":"7212 Pacific Blvd 4","City":"Huntington Park","State":"CA","Zip":"90255"},{"Location":"MICHEL'S FAMILY DENTISTRY","Address":"3058 E Gage Ave","City":"Huntington Park","State":"CA","Zip":"90255"},{"Location":"MONARCH TRADING COMPANY","Address":"5608 Soto St 200","City":"Huntington Park","State":"CA","Zip":"90255"},{"Location":"NOELS INSURANCE","Address":"2477 E Florence Ave","City":"Huntington Park","State":"CA","Zip":"90255"},{"Location":"NUEVO SEVILLA BARBER SHO","Address":"8010 Seville Ave","City":"Huntington Park","State":"CA","Zip":"90255"},{"Location":"OSCARS BARBER","Address":"3262 E Gage Ave","City":"Huntington Park","State":"CA","Zip":"90255"},{"Location":"PACIFIC AUTO REPAIR","Address":"2567 E 54th St","City":"Huntington Park","State":"CA","Zip":"90255"},{"Location":"PACIFIC HEALTH MGMT. 1","Address":"7723 1%2F2 Pacific Blvd","City":"Huntington Park","State":"CA","Zip":"90255"},{"Location":"PARK","Address":"5820 Bickett St","City":"Huntington Park","State":"CA","Zip":"90255"},{"Location":"PLANET FITNESS-H PARK","Address":"7010 S Alameda St","City":"Huntington Park","State":"CA","Zip":"90255"},{"Location":"PORTO VILLAGE PIZZA","Address":"2811 E Slauson Ave","City":"Huntington Park","State":"CA","Zip":"90255"},{"Location":"PRODUCTOS ES","Address":"7915 Seville Ave","City":"Huntington Park","State":"CA","Zip":"90255"},{"Location":"RIO LEMPA 3 RESTAURANT","Address":"2626 Saturn Ave","City":"Huntington Park","State":"CA","Zip":"90255"},{"Location":"SAMUELS HAIR DESIGN","Address":"3305 E Florence Ave","City":"Huntington Park","State":"CA","Zip":"90255"},{"Location":"SAN FRANCISCO DENTAL OFFICE","Address":"2521 E Florence Ave B2","City":"Huntington Park","State":"CA","Zip":"90255"},{"Location":"SAN SALVADOR","Address":"3466 E Florence Ave","City":"Huntington Park","State":"CA","Zip":"90255"},{"Location":"SANTA FE BILLIARDS","Address":"6034 Santa Fe Ave","City":"Huntington Park","State":"CA","Zip":"90255"},{"Location":"SANTA ROSA DE LIMA MEDICAL","Address":"6915 Seville Ave","City":"Huntington Park","State":"CA","Zip":"90255"},{"Location":"SECRETO UNIVERSAL","Address":"6503 Pacific Blvd 204","City":"Huntington Park","State":"CA","Zip":"90255"},{"Location":"SHAGGE","Address":"6629 Arbutus Ave","City":"Huntington Park","State":"CA","Zip":"90255"},{"Location":"SHAKEY'S PIZZA PARLOR","Address":"2522 E Florence Ave","City":"Huntington Park","State":"CA","Zip":"90255"},{"Location":"SILVIAS BEAUTY SALON","Address":"7423 State St","City":"Huntington Park","State":"CA","Zip":"90255"},{"Location":"SIMONS UNIQUE HAIR","Address":"2621 E Gage Ave","City":"Huntington Park","State":"CA","Zip":"90255"},{"Location":"SOUTHERN CALIFORNIA GAS","Address":"6301 Regent St","City":"Huntington Park","State":"CA","Zip":"90255"},{"Location":"SPORTS FASHION","Address":"6313 1%2F2 Pacific Blvd","City":"Huntington Park","State":"CA","Zip":"90255"},{"Location":"ST JOHNS PHARMANCY","Address":"3074 E Florence Ave","City":"Huntington Park","State":"CA","Zip":"90255"},{"Location":"TAMS BURGERS","Address":"2850 E Slauson Ave","City":"Huntington Park","State":"CA","Zip":"90255"},{"Location":"TASTY THAI","Address":"2607 E Gage Ave","City":"Huntington Park","State":"CA","Zip":"90255"},{"Location":"TAUREAN HOLDINGS","Address":"2551 E Gage Ave","City":"Huntington Park","State":"CA","Zip":"90255"},{"Location":"TELSCAPE","Address":"6906 Pacific Blvd","City":"Huntington Park","State":"CA","Zip":"90255"},{"Location":"TORTAS AHOGADAS","Address":"6042 Santa Fe Ave","City":"Huntington Park","State":"CA","Zip":"90255"},{"Location":"URBAN BARBERS","Address":"6906 Santa Fe Ave","City":"Huntington Park","State":"CA","Zip":"90255"},{"Location":"VICTORIA TIRE CENTER INC","Address":"2271 E Florence Ave","City":"Huntington Park","State":"CA","Zip":"90255"},{"Location":"WABA GRILL","Address":"5933 State St","City":"Huntington Park","State":"CA","Zip":"90255"},{"Location":"WING STOP THREE THIRTEEN","Address":"2124 E Florence Ave","City":"Huntington Park","State":"CA","Zip":"90255"},{"Location":"YOUR CHOICE DENTAL","Address":"6601 Rugby Ave 400","City":"Huntington Park","State":"CA","Zip":"90255"},{"Location":"CENTRAL ARM PROTECTION","Address":"2500 1%2F2 E Florence Ave","City":"Walnut Park","State":"CA","Zip":"90255"},{"Location":"DON CHENTE BAR & GRILL","Address":"2144 E Florence Ave","City":"Walnut Park","State":"CA","Zip":"90255"}]