[{"Location":"211 PCH  LLC","Address":"211 Pacific Coast Hwy","City":"Hermosa Beach","State":"CA","Zip":"90254"},{"Location":"24 HOUR FITNESS #97","Address":"1600 Pacific Coast Hwy","City":"Hermosa Beach","State":"CA","Zip":"90254"},{"Location":"ALEX K ROTH INC","Address":"407 Pacific Coast Hwy","City":"Hermosa Beach","State":"CA","Zip":"90254"},{"Location":"AMERICA  JUNKIE","Address":"68 Pier Ave","City":"Hermosa Beach","State":"CA","Zip":"90254"},{"Location":"BACCHANAL CAPITAL INC","Address":"1332 Hermosa Ave","City":"Hermosa Beach","State":"CA","Zip":"90254"},{"Location":"BAJA SHARKEEZ","Address":"52 Pier Ave","City":"Hermosa Beach","State":"CA","Zip":"90254"},{"Location":"BARNACLES BAR & GRILL","Address":"837 Hermosa Ave","City":"Hermosa Beach","State":"CA","Zip":"90254"},{"Location":"BOARDWALK FRESH BURGER","Address":"1031 Hermosa Ave","City":"Hermosa Beach","State":"CA","Zip":"90254"},{"Location":"BOTTLE INN REST","Address":"22 22nd St","City":"Hermosa Beach","State":"CA","Zip":"90254"},{"Location":"CASEYS CARS INC","Address":"840 Pacific Coast Hwy","City":"Hermosa Beach","State":"CA","Zip":"90254"},{"Location":"CHICKEN SHACK","Address":"1030 Aviation Blvd","City":"Hermosa Beach","State":"CA","Zip":"90254"},{"Location":"CONTOUR SPA","Address":"1310 Pacific Coast Hwy 205","City":"Hermosa Beach","State":"CA","Zip":"90254"},{"Location":"CREME DE LA CREPE","Address":"424 Pier Ave","City":"Hermosa Beach","State":"CA","Zip":"90254"},{"Location":"DANG","Address":"506 Pacific Coast Hwy","City":"Hermosa Beach","State":"CA","Zip":"90254"},{"Location":"DRAGON","Address":"22 Pier Ave","City":"Hermosa Beach","State":"CA","Zip":"90254"},{"Location":"ELEGANT NAILS","Address":"1114 Hermosa Ave","City":"Hermosa Beach","State":"CA","Zip":"90254"},{"Location":"ESTABLISHMENT","Address":"1332 Hermosa Ave 1","City":"Hermosa Beach","State":"CA","Zip":"90254"},{"Location":"EXCELSIOR IN MOTION","Address":"600 Pacific Coast Hwy","City":"Hermosa Beach","State":"CA","Zip":"90254"},{"Location":"FAT FACE FENNERS FISHSHACK","Address":"53 Pier Ave","City":"Hermosa Beach","State":"CA","Zip":"90254"},{"Location":"FLEET FOOD LLC","Address":"425 Pier Ave","City":"Hermosa Beach","State":"CA","Zip":"90254"},{"Location":"GREENBELT","Address":"36 Pier Ave","City":"Hermosa Beach","State":"CA","Zip":"90254"},{"Location":"GUGU SUSHI","Address":"1121 Aviation Blvd","City":"Hermosa Beach","State":"CA","Zip":"90254"},{"Location":"HB ASSOCIATES","Address":"717 Valley Dr C1","City":"Hermosa Beach","State":"CA","Zip":"90254"},{"Location":"HENNESSEY'S TAVERN","Address":"8 Pier Ave","City":"Hermosa Beach","State":"CA","Zip":"90254"},{"Location":"HERMOSA CLEANERS","Address":"2629 Manhattan Ave","City":"Hermosa Beach","State":"CA","Zip":"90254"},{"Location":"HERMOSA DESIGN","Address":"333 Pch Hwy","City":"Hermosa Beach","State":"CA","Zip":"90254"},{"Location":"HOLIDAY INN EXPRESS HERM","Address":"12 Pacific Coast Hwy","City":"Hermosa Beach","State":"CA","Zip":"90254"},{"Location":"HOTS KITCHEN","Address":"844 Hermosa Ave","City":"Hermosa Beach","State":"CA","Zip":"90254"},{"Location":"JAMA AUTO","Address":"700 Pacific Coast Hwy","City":"Hermosa Beach","State":"CA","Zip":"90254"},{"Location":"LA SUNSET TAN","Address":"1402 Pch Hwy","City":"Hermosa Beach","State":"CA","Zip":"90254"},{"Location":"LIFEGUARD HQ","Address":"1201 The Strand","City":"Hermosa Beach","State":"CA","Zip":"90254"},{"Location":"MARLIN EQUITY","Address":"338 Pier Ave","City":"Hermosa Beach","State":"CA","Zip":"90254"},{"Location":"MARX PIER AVE HAIR STUDI","Address":"312 Pier Ave","City":"Hermosa Beach","State":"CA","Zip":"90254"},{"Location":"MEDITERRANEO","Address":"73 Pier Ave","City":"Hermosa Beach","State":"CA","Zip":"90254"},{"Location":"MERMAID HERMOSA BEACH LL","Address":"11 Pier Ave","City":"Hermosa Beach","State":"CA","Zip":"90254"},{"Location":"MICKEY MCCOLGANS","Address":"934 Hermosa Ave","City":"Hermosa Beach","State":"CA","Zip":"90254"},{"Location":"NORTHEND BAR & GRILL","Address":"2626 Hermosa Ave","City":"Hermosa Beach","State":"CA","Zip":"90254"},{"Location":"PACIFIC DENTAL 281","Address":"1559 Pacific Coast Hwy 101","City":"Hermosa Beach","State":"CA","Zip":"90254"},{"Location":"PALMILLA","Address":"39 Pier Ave","City":"Hermosa Beach","State":"CA","Zip":"90254"},{"Location":"PATRICK MOLLOYS","Address":"50a Pier Ave","City":"Hermosa Beach","State":"CA","Zip":"90254"},{"Location":"PIER AVENUE FISH CO LLC","Address":"719 Pier Ave","City":"Hermosa Beach","State":"CA","Zip":"90254"},{"Location":"PONO GROUP LLC 1","Address":"1601 Pch Hwy 155","City":"Hermosa Beach","State":"CA","Zip":"90254"},{"Location":"POULET DUJOUR","Address":"233 Pacific Coast Hwy","City":"Hermosa Beach","State":"CA","Zip":"90254"},{"Location":"QUINNS FAMILY BARBER SHOP","Address":"1131 Aviation Blvd","City":"Hermosa Beach","State":"CA","Zip":"90254"},{"Location":"ROCKEFELLER","Address":"420 Pier Ave","City":"Hermosa Beach","State":"CA","Zip":"90254"},{"Location":"ROK  SUSHI","Address":"1200 Hermosa Ave","City":"Hermosa Beach","State":"CA","Zip":"90254"},{"Location":"ROSAS MEXICAN FOOD","Address":"322 Pacific Coast Hwy","City":"Hermosa Beach","State":"CA","Zip":"90254"},{"Location":"ROUND TABLE PIZZA 767","Address":"2701 Pacific Coast Hwy","City":"Hermosa Beach","State":"CA","Zip":"90254"},{"Location":"ROYA ARBAB DDS 2","Address":"2401 Pacific Coast Hwy 205","City":"Hermosa Beach","State":"CA","Zip":"90254"},{"Location":"SAINT ROCKE","Address":"142 Pacific Coast Hwy","City":"Hermosa Beach","State":"CA","Zip":"90254"},{"Location":"SANDLER","Address":"1200 Artesia Blvd 305","City":"Hermosa Beach","State":"CA","Zip":"90254"},{"Location":"SILVIO'S BRAZILIAN BBQ","Address":"20 Pier Ave","City":"Hermosa Beach","State":"CA","Zip":"90254"},{"Location":"SOUTH BAY ALANO CLUB","Address":"702 11th Pl","City":"Hermosa Beach","State":"CA","Zip":"90254"},{"Location":"SUPERCUTS","Address":"950 Aviation Blvd C","City":"Hermosa Beach","State":"CA","Zip":"90254"},{"Location":"SUSHI FACTORY HERMOSA BE","Address":"1200 Hwy Pacific Coast","City":"Hermosa Beach","State":"CA","Zip":"90254"},{"Location":"SUZYS BG LLC","Address":"1141 Aviation Blvd","City":"Hermosa Beach","State":"CA","Zip":"90254"},{"Location":"SVSB LLC","Address":"1238 Hermosa Ave","City":"Hermosa Beach","State":"CA","Zip":"90254"},{"Location":"THE COMEDY & MAGIC CLUB","Address":"1018 Hermosa Ave","City":"Hermosa Beach","State":"CA","Zip":"90254"},{"Location":"THE DECK HERMOSA LLC","Address":"1272 Strand","City":"Hermosa Beach","State":"CA","Zip":"90254"},{"Location":"THE LIGHTHOUSE","Address":"30 Pier Ave","City":"Hermosa Beach","State":"CA","Zip":"90254"},{"Location":"THE STANDING ROOM","Address":"1320 Hermosa Ave","City":"Hermosa Beach","State":"CA","Zip":"90254"},{"Location":"TRIANGLE HARDWARE","Address":"403 Pacific Coast Hwy","City":"Hermosa Beach","State":"CA","Zip":"90254"},{"Location":"UMAMI BURGERS","Address":"1040 Hermosa Ave","City":"Hermosa Beach","State":"CA","Zip":"90254"},{"Location":"UNION BANK","Address":"1401 Pacific Coast Hwy","City":"Hermosa Beach","State":"CA","Zip":"90254"},{"Location":"VITA BOUNA","Address":"439 Pier Ave","City":"Hermosa Beach","State":"CA","Zip":"90254"},{"Location":"ZANES","Address":"1150 Hermosa Ave","City":"Hermosa Beach","State":"CA","Zip":"90254"},{"Location":"211 PCH  LLC","Address":"211 Pacific Coast Hwy","City":"Hermosa Beach","State":"CA","Zip":"90254"},{"Location":"24 HOUR FITNESS #97","Address":"1600 Pacific Coast Hwy","City":"Hermosa Beach","State":"CA","Zip":"90254"},{"Location":"ALEX K ROTH INC","Address":"407 Pacific Coast Hwy","City":"Hermosa Beach","State":"CA","Zip":"90254"},{"Location":"AMERICA  JUNKIE","Address":"68 Pier Ave","City":"Hermosa Beach","State":"CA","Zip":"90254"},{"Location":"BACCHANAL CAPITAL INC","Address":"1332 Hermosa Ave","City":"Hermosa Beach","State":"CA","Zip":"90254"},{"Location":"BAJA SHARKEEZ","Address":"52 Pier Ave","City":"Hermosa Beach","State":"CA","Zip":"90254"},{"Location":"BARNACLES BAR & GRILL","Address":"837 Hermosa Ave","City":"Hermosa Beach","State":"CA","Zip":"90254"},{"Location":"BOARDWALK FRESH BURGER","Address":"1031 Hermosa Ave","City":"Hermosa Beach","State":"CA","Zip":"90254"},{"Location":"BOTTLE INN REST","Address":"22 22nd St","City":"Hermosa Beach","State":"CA","Zip":"90254"},{"Location":"CASEYS CARS INC","Address":"840 Pacific Coast Hwy","City":"Hermosa Beach","State":"CA","Zip":"90254"},{"Location":"CHICKEN SHACK","Address":"1030 Aviation Blvd","City":"Hermosa Beach","State":"CA","Zip":"90254"},{"Location":"CONTOUR SPA","Address":"1310 Pacific Coast Hwy 205","City":"Hermosa Beach","State":"CA","Zip":"90254"},{"Location":"CREME DE LA CREPE","Address":"424 Pier Ave","City":"Hermosa Beach","State":"CA","Zip":"90254"},{"Location":"DANG","Address":"506 Pacific Coast Hwy","City":"Hermosa Beach","State":"CA","Zip":"90254"},{"Location":"DRAGON","Address":"22 Pier Ave","City":"Hermosa Beach","State":"CA","Zip":"90254"},{"Location":"ELEGANT NAILS","Address":"1114 Hermosa Ave","City":"Hermosa Beach","State":"CA","Zip":"90254"},{"Location":"ESTABLISHMENT","Address":"1332 Hermosa Ave 1","City":"Hermosa Beach","State":"CA","Zip":"90254"},{"Location":"EXCELSIOR IN MOTION","Address":"600 Pacific Coast Hwy","City":"Hermosa Beach","State":"CA","Zip":"90254"},{"Location":"FAT FACE FENNERS FISHSHACK","Address":"53 Pier Ave","City":"Hermosa Beach","State":"CA","Zip":"90254"},{"Location":"FLEET FOOD LLC","Address":"425 Pier Ave","City":"Hermosa Beach","State":"CA","Zip":"90254"},{"Location":"GREENBELT","Address":"36 Pier Ave","City":"Hermosa Beach","State":"CA","Zip":"90254"},{"Location":"GUGU SUSHI","Address":"1121 Aviation Blvd","City":"Hermosa Beach","State":"CA","Zip":"90254"},{"Location":"HB ASSOCIATES","Address":"717 Valley Dr C1","City":"Hermosa Beach","State":"CA","Zip":"90254"},{"Location":"HENNESSEY'S TAVERN","Address":"8 Pier Ave","City":"Hermosa Beach","State":"CA","Zip":"90254"},{"Location":"HERMOSA CLEANERS","Address":"2629 Manhattan Ave","City":"Hermosa Beach","State":"CA","Zip":"90254"},{"Location":"HERMOSA DESIGN","Address":"333 Pch Hwy","City":"Hermosa Beach","State":"CA","Zip":"90254"},{"Location":"HOLIDAY INN EXPRESS HERM","Address":"12 Pacific Coast Hwy","City":"Hermosa Beach","State":"CA","Zip":"90254"},{"Location":"HOTS KITCHEN","Address":"844 Hermosa Ave","City":"Hermosa Beach","State":"CA","Zip":"90254"},{"Location":"JAMA AUTO","Address":"700 Pacific Coast Hwy","City":"Hermosa Beach","State":"CA","Zip":"90254"},{"Location":"LA SUNSET TAN","Address":"1402 Pch Hwy","City":"Hermosa Beach","State":"CA","Zip":"90254"},{"Location":"LIFEGUARD HQ","Address":"1201 The Strand","City":"Hermosa Beach","State":"CA","Zip":"90254"},{"Location":"MARLIN EQUITY","Address":"338 Pier Ave","City":"Hermosa Beach","State":"CA","Zip":"90254"},{"Location":"MARX PIER AVE HAIR STUDI","Address":"312 Pier Ave","City":"Hermosa Beach","State":"CA","Zip":"90254"},{"Location":"MEDITERRANEO","Address":"73 Pier Ave","City":"Hermosa Beach","State":"CA","Zip":"90254"},{"Location":"MERMAID HERMOSA BEACH LL","Address":"11 Pier Ave","City":"Hermosa Beach","State":"CA","Zip":"90254"},{"Location":"MICKEY MCCOLGANS","Address":"934 Hermosa Ave","City":"Hermosa Beach","State":"CA","Zip":"90254"},{"Location":"NORTHEND BAR & GRILL","Address":"2626 Hermosa Ave","City":"Hermosa Beach","State":"CA","Zip":"90254"},{"Location":"PACIFIC DENTAL 281","Address":"1559 Pacific Coast Hwy 101","City":"Hermosa Beach","State":"CA","Zip":"90254"},{"Location":"PALMILLA","Address":"39 Pier Ave","City":"Hermosa Beach","State":"CA","Zip":"90254"},{"Location":"PATRICK MOLLOYS","Address":"50a Pier Ave","City":"Hermosa Beach","State":"CA","Zip":"90254"},{"Location":"PIER AVENUE FISH CO LLC","Address":"719 Pier Ave","City":"Hermosa Beach","State":"CA","Zip":"90254"},{"Location":"PONO GROUP LLC 1","Address":"1601 Pch Hwy 155","City":"Hermosa Beach","State":"CA","Zip":"90254"},{"Location":"POULET DUJOUR","Address":"233 Pacific Coast Hwy","City":"Hermosa Beach","State":"CA","Zip":"90254"},{"Location":"QUINNS FAMILY BARBER SHOP","Address":"1131 Aviation Blvd","City":"Hermosa Beach","State":"CA","Zip":"90254"},{"Location":"ROCKEFELLER","Address":"420 Pier Ave","City":"Hermosa Beach","State":"CA","Zip":"90254"},{"Location":"ROK  SUSHI","Address":"1200 Hermosa Ave","City":"Hermosa Beach","State":"CA","Zip":"90254"},{"Location":"ROSAS MEXICAN FOOD","Address":"322 Pacific Coast Hwy","City":"Hermosa Beach","State":"CA","Zip":"90254"},{"Location":"ROUND TABLE PIZZA 767","Address":"2701 Pacific Coast Hwy","City":"Hermosa Beach","State":"CA","Zip":"90254"},{"Location":"ROYA ARBAB DDS 2","Address":"2401 Pacific Coast Hwy 205","City":"Hermosa Beach","State":"CA","Zip":"90254"},{"Location":"SAINT ROCKE","Address":"142 Pacific Coast Hwy","City":"Hermosa Beach","State":"CA","Zip":"90254"},{"Location":"SANDLER","Address":"1200 Artesia Blvd 305","City":"Hermosa Beach","State":"CA","Zip":"90254"},{"Location":"SILVIO'S BRAZILIAN BBQ","Address":"20 Pier Ave","City":"Hermosa Beach","State":"CA","Zip":"90254"},{"Location":"SOUTH BAY ALANO CLUB","Address":"702 11th Pl","City":"Hermosa Beach","State":"CA","Zip":"90254"},{"Location":"SUPERCUTS","Address":"950 Aviation Blvd C","City":"Hermosa Beach","State":"CA","Zip":"90254"},{"Location":"SUSHI FACTORY HERMOSA BE","Address":"1200 Hwy Pacific Coast","City":"Hermosa Beach","State":"CA","Zip":"90254"},{"Location":"SUZYS BG LLC","Address":"1141 Aviation Blvd","City":"Hermosa Beach","State":"CA","Zip":"90254"},{"Location":"SVSB LLC","Address":"1238 Hermosa Ave","City":"Hermosa Beach","State":"CA","Zip":"90254"},{"Location":"THE COMEDY & MAGIC CLUB","Address":"1018 Hermosa Ave","City":"Hermosa Beach","State":"CA","Zip":"90254"},{"Location":"THE DECK HERMOSA LLC","Address":"1272 Strand","City":"Hermosa Beach","State":"CA","Zip":"90254"},{"Location":"THE LIGHTHOUSE","Address":"30 Pier Ave","City":"Hermosa Beach","State":"CA","Zip":"90254"},{"Location":"THE STANDING ROOM","Address":"1320 Hermosa Ave","City":"Hermosa Beach","State":"CA","Zip":"90254"},{"Location":"TRIANGLE HARDWARE","Address":"403 Pacific Coast Hwy","City":"Hermosa Beach","State":"CA","Zip":"90254"},{"Location":"UMAMI BURGERS","Address":"1040 Hermosa Ave","City":"Hermosa Beach","State":"CA","Zip":"90254"},{"Location":"UNION BANK","Address":"1401 Pacific Coast Hwy","City":"Hermosa Beach","State":"CA","Zip":"90254"},{"Location":"VITA BOUNA","Address":"439 Pier Ave","City":"Hermosa Beach","State":"CA","Zip":"90254"},{"Location":"ZANES","Address":"1150 Hermosa Ave","City":"Hermosa Beach","State":"CA","Zip":"90254"}]