[{"Location":"PEPPERDINE FRESHMAN 1","Address":"24255 Pacific Coast Hwy","City":"Malibu","State":"CA","Zip":"90263"},{"Location":"PEPPERDINE FRESHMAN 10","Address":"24255 Pacific Coast Hwy","City":"Malibu","State":"CA","Zip":"90263"},{"Location":"PEPPERDINE FRESHMAN 11","Address":"24255 Pacific Coast Hwy","City":"Malibu","State":"CA","Zip":"90263"},{"Location":"PEPPERDINE FRESHMAN 12","Address":"24255 Pacific Coast Hwy","City":"Malibu","State":"CA","Zip":"90263"},{"Location":"PEPPERDINE FRESHMAN 13","Address":"24255 Pacific Coast Hwy","City":"Malibu","State":"CA","Zip":"90263"},{"Location":"PEPPERDINE FRESHMAN 14","Address":"24255 Pacific Coast Hwy","City":"Malibu","State":"CA","Zip":"90263"},{"Location":"PEPPERDINE FRESHMAN 15","Address":"24255 Pacific Coast Hwy","City":"Malibu","State":"CA","Zip":"90263"},{"Location":"PEPPERDINE FRESHMAN 16","Address":"24255 Pacific Coast Hwy","City":"Malibu","State":"CA","Zip":"90263"},{"Location":"PEPPERDINE FRESHMAN 17","Address":"24255 Pacific Coast Hwy","City":"Malibu","State":"CA","Zip":"90263"},{"Location":"PEPPERDINE FRESHMAN 18","Address":"24255 Pacific Coast Hwy","City":"Malibu","State":"CA","Zip":"90263"},{"Location":"PEPPERDINE FRESHMAN 19","Address":"24255 Pacific Coast Hwy","City":"Malibu","State":"CA","Zip":"90263"},{"Location":"PEPPERDINE FRESHMAN 2","Address":"24255 Pacific Coast Hwy","City":"Malibu","State":"CA","Zip":"90263"},{"Location":"PEPPERDINE FRESHMAN 20","Address":"24255 Pacific Coast Hwy","City":"Malibu","State":"CA","Zip":"90263"},{"Location":"PEPPERDINE FRESHMAN 21","Address":"24255 Pacific Coast Hwy","City":"Malibu","State":"CA","Zip":"90263"},{"Location":"PEPPERDINE FRESHMAN 22","Address":"24255 Pacific Coast Hwy","City":"Malibu","State":"CA","Zip":"90263"},{"Location":"PEPPERDINE FRESHMAN 3","Address":"24255 Pacific Coast Hwy","City":"Malibu","State":"CA","Zip":"90263"},{"Location":"PEPPERDINE FRESHMAN 4","Address":"24255 Pacific Coast Hwy","City":"Malibu","State":"CA","Zip":"90263"},{"Location":"PEPPERDINE FRESHMAN 5","Address":"24255 Pacific Coast Hwy","City":"Malibu","State":"CA","Zip":"90263"},{"Location":"PEPPERDINE FRESHMAN 6","Address":"24255 Pacific Coast Hwy","City":"Malibu","State":"CA","Zip":"90263"},{"Location":"PEPPERDINE FRESHMAN 7","Address":"24255 Pacific Coast Hwy","City":"Malibu","State":"CA","Zip":"90263"},{"Location":"PEPPERDINE FRESHMAN 8","Address":"24255 Pacific Coast Hwy","City":"Malibu","State":"CA","Zip":"90263"},{"Location":"PEPPERDINE FRESHMAN 9","Address":"24255 Pacific Coast Hwy","City":"Malibu","State":"CA","Zip":"90263"},{"Location":"PEPPERDINE TOWER 1","Address":"24255 Pacific Coast Hwy","City":"Malibu","State":"CA","Zip":"90263"},{"Location":"PEPPERDINE TOWER 10","Address":"24255 Pacific Coast Hwy","City":"Malibu","State":"CA","Zip":"90263"},{"Location":"PEPPERDINE TOWER 11","Address":"24255 Pacific Coast Hwy","City":"Malibu","State":"CA","Zip":"90263"},{"Location":"PEPPERDINE TOWER 2","Address":"24255 Pacific Coast Hwy","City":"Malibu","State":"CA","Zip":"90263"},{"Location":"PEPPERDINE TOWER 3","Address":"24255 Pacific Coast Hwy","City":"Malibu","State":"CA","Zip":"90263"},{"Location":"PEPPERDINE TOWER 4","Address":"24255 Pacific Coast Hwy","City":"Malibu","State":"CA","Zip":"90263"},{"Location":"PEPPERDINE TOWER 6","Address":"24255 Pacific Coast Hwy","City":"Malibu","State":"CA","Zip":"90263"},{"Location":"PEPPERDINE TOWER 7","Address":"24255 Pacific Coast Hwy","City":"Malibu","State":"CA","Zip":"90263"},{"Location":"PEPPERDINE TOWER 8","Address":"24255 Pacific Coast Hwy","City":"Malibu","State":"CA","Zip":"90263"},{"Location":"PEPPERDINE TOWER 9","Address":"24255 Pacific Coast Hwy","City":"Malibu","State":"CA","Zip":"90263"},{"Location":"PEPPERDINE UNIVERSITY","Address":"24255 Pacific Coast Hwy","City":"Malibu","State":"CA","Zip":"90263"}]