[{"Location":"ALDOS KEY SHOP","Address":"3100 E Imperial Hwy 1323","City":"Lynwood","State":"CA","Zip":"90262"},{"Location":"ALEJANDRO ORTIZ","Address":"2931 E Imperial Hwy","City":"Lynwood","State":"CA","Zip":"90262"},{"Location":"ATLANTIC CAR WASH","Address":"10862 Atlantic Ave","City":"Lynwood","State":"CA","Zip":"90262"},{"Location":"BENITES BARBER","Address":"12616 Atlantic Ave","City":"Lynwood","State":"CA","Zip":"90262"},{"Location":"BUBBS HARDWARE","Address":"12519 Long Beach Blvd","City":"Lynwood","State":"CA","Zip":"90262"},{"Location":"BUMPERS UNLIMITED","Address":"10859 Drury Ln","City":"Lynwood","State":"CA","Zip":"90262"},{"Location":"BW SPORTS AN HOBBIES INC","Address":"3100 E Imperial Hwy B7","City":"Lynwood","State":"CA","Zip":"90262"},{"Location":"C AND V MANAGEMENT SERVICE","Address":"10910 Long Beach Blvd 106","City":"Lynwood","State":"CA","Zip":"90262"},{"Location":"CARNICERIA LOS COMPADRES","Address":"3572 Martin Luther King Jr Blv","City":"Lynwood","State":"CA","Zip":"90262"},{"Location":"CENTER FOR WOMENS HEALTH CARE","Address":"3628 E Imperial Hwy 301","City":"Lynwood","State":"CA","Zip":"90262"},{"Location":"CENTER TERMITE","Address":"3030 Martin Luther King Jr Blv","City":"Lynwood","State":"CA","Zip":"90262"},{"Location":"CENTURY BARBERSHOP","Address":"3463 Martin Luther King Jr Blv","City":"Lynwood","State":"CA","Zip":"90262"},{"Location":"COMEX KC LLC","Address":"3170 E Imperial Hwy","City":"Lynwood","State":"CA","Zip":"90262"},{"Location":"COPIER TRANSPORT","Address":"11705 Deputy Yamamoto Pl D","City":"Lynwood","State":"CA","Zip":"90262"},{"Location":"COUNTRY VILLA LYNWOOD HCC","Address":"3611 E Imperial Hwy","City":"Lynwood","State":"CA","Zip":"90262"},{"Location":"CYNTHIA MACIAS","Address":"2901 E Imperial Hwy 2","City":"Lynwood","State":"CA","Zip":"90262"},{"Location":"DAVITA #1523 IMPERIAL","Address":"4345 E Imperial Hwy","City":"Lynwood","State":"CA","Zip":"90262"},{"Location":"DAVITA #614","Address":"3600 Martin Luther King Jr Blv","City":"Lynwood","State":"CA","Zip":"90262"},{"Location":"ECONOMIC RESOURCES CORPORATION","Address":"2600 Industry Way","City":"Lynwood","State":"CA","Zip":"90262"},{"Location":"EL BOTANITAS","Address":"3614 Martin Luther King Jr Blv","City":"Lynwood","State":"CA","Zip":"90262"},{"Location":"EL BUEN SABOR PUPUSAS","Address":"3537 Martin Luther King Jr Blv","City":"Lynwood","State":"CA","Zip":"90262"},{"Location":"EL GALLO GIRO INC","Address":"3180 E Imperial Hwy","City":"Lynwood","State":"CA","Zip":"90262"},{"Location":"EL MANANTIAL","Address":"11044 Long Beach Blvd A","City":"Lynwood","State":"CA","Zip":"90262"},{"Location":"EL TOROGOZ","Address":"10406 Long Beach Blvd","City":"Lynwood","State":"CA","Zip":"90262"},{"Location":"ERICA HAIR DESIGN","Address":"10219 Long Beach Blvd","City":"Lynwood","State":"CA","Zip":"90262"},{"Location":"FELIX ENTERPRISE INC","Address":"10201 State St","City":"Lynwood","State":"CA","Zip":"90262"},{"Location":"FREE DRY COIN LAUNDRY","Address":"11904 Long Beach Blvd","City":"Lynwood","State":"CA","Zip":"90262"},{"Location":"GO FASTER AUTO REGIST","Address":"11638 Atlantic Ave","City":"Lynwood","State":"CA","Zip":"90262"},{"Location":"GOYOS CHECK CASHING","Address":"3598 E Imperial Hwy","City":"Lynwood","State":"CA","Zip":"90262"},{"Location":"GREATER EMMANUEL TEMPLE","Address":"3740 E Imperial Hwy","City":"Lynwood","State":"CA","Zip":"90262"},{"Location":"HORACIO MATTRESS","Address":"2929 E Imperial Hwy","City":"Lynwood","State":"CA","Zip":"90262"},{"Location":"INDEPENDANT HANDS","Address":"12628 Atlantic Ave","City":"Lynwood","State":"CA","Zip":"90262"},{"Location":"JIFFY LUBE 0358","Address":"9901 State St","City":"Lynwood","State":"CA","Zip":"90262"},{"Location":"JOSE SAPIEN","Address":"2991 E Imperial Hwy","City":"Lynwood","State":"CA","Zip":"90262"},{"Location":"LA CO FIRE 147","Address":"3161 E Imperial Hwy","City":"Lynwood","State":"CA","Zip":"90262"},{"Location":"LA HUASTECA RESTAURANT","Address":"3150 E Imperial Hwy 100","City":"Lynwood","State":"CA","Zip":"90262"},{"Location":"LA PLAYITA","Address":"11025 Atlantic Ave","City":"Lynwood","State":"CA","Zip":"90262"},{"Location":"LAS CARINOSAS","Address":"9925 Long Beach Blvd","City":"Lynwood","State":"CA","Zip":"90262"},{"Location":"LEGACY DENTAL 2","Address":"11330 Long Beach Blvd 100","City":"Lynwood","State":"CA","Zip":"90262"},{"Location":"LOS CASILLAS BOXING GYM","Address":"11324 Long Beach Blvd","City":"Lynwood","State":"CA","Zip":"90262"},{"Location":"MARISCOS EL PERIHUETE","Address":"10910 Long Beach Blvd 101","City":"Lynwood","State":"CA","Zip":"90262"},{"Location":"MARISCOS SOL Y MAR","Address":"10007 Long Beach Blvd A","City":"Lynwood","State":"CA","Zip":"90262"},{"Location":"MARTINEZ BARBER SHOP","Address":"9910 Long Beach Blvd","City":"Lynwood","State":"CA","Zip":"90262"},{"Location":"NICE SUPER CUTS","Address":"11640 Atlantic Ave","City":"Lynwood","State":"CA","Zip":"90262"},{"Location":"PABLOS KITCHEN","Address":"3502 Martin Luther King Jr. Bl","City":"Lynwood","State":"CA","Zip":"90262"},{"Location":"PABLOS KITCHEN","Address":"3502 Martin Luther King Jr. Blvd","City":"Lynwood","State":"CA","Zip":"90262"},{"Location":"PANCHOLINS BARBER SHOP","Address":"10820 Atlantic Ave","City":"Lynwood","State":"CA","Zip":"90262"},{"Location":"PHYSICAL REHAB","Address":"11682 Atlantic Ave","City":"Lynwood","State":"CA","Zip":"90262"},{"Location":"PLAYA DE ACAPULCO","Address":"10828 Atlantic Ave","City":"Lynwood","State":"CA","Zip":"90262"},{"Location":"PLAZA MEXICO","Address":"3100 E Imperial Hwy","City":"Lynwood","State":"CA","Zip":"90262"},{"Location":"ROSINAS MEAT MARKET","Address":"11328 Atlantic Ave","City":"Lynwood","State":"CA","Zip":"90262"},{"Location":"RR MARKETS 99 CENTS AND UP","Address":"10536 Long Beach Blvd","City":"Lynwood","State":"CA","Zip":"90262"},{"Location":"SPORTS FAN AUTO MOTORING","Address":"4535 Blount Pl","City":"Lynwood","State":"CA","Zip":"90262"},{"Location":"ST EMYDIUS CHURCH","Address":"10900 California Ave","City":"Lynwood","State":"CA","Zip":"90262"},{"Location":"ST PHILIP NERI CHURCH","Address":"4311 Olanda St","City":"Lynwood","State":"CA","Zip":"90262"},{"Location":"ST. FRANCIS MEDICAL CENTER","Address":"3630 E Imperial Hwy","City":"Lynwood","State":"CA","Zip":"90262"},{"Location":"SUPERIOR COIN LAUNDRY","Address":"3811 Martin Luther King Jr Blv","City":"Lynwood","State":"CA","Zip":"90262"},{"Location":"TOCA EVENTS","Address":"3100 E Imperial Hwy","City":"Lynwood","State":"CA","Zip":"90262"},{"Location":"TORITO BAIL BONDS","Address":"2927 E Imperial Hwy","City":"Lynwood","State":"CA","Zip":"90262"},{"Location":"US FARMERS MARKET","Address":"12301 Atlantic Ave","City":"Lynwood","State":"CA","Zip":"90262"},{"Location":"VISTA VERANDA ASSISTED LIVING","Address":"3540 Martin Luther King Jr Blv","City":"Lynwood","State":"CA","Zip":"90262"},{"Location":"WALTS TOW SERVICE","Address":"10869 Drury Ln","City":"Lynwood","State":"CA","Zip":"90262"},{"Location":"WINGSTOP 256","Address":"10910 Long Beach Blvd 105","City":"Lynwood","State":"CA","Zip":"90262"}]