[{"Location":"ARRIGONI","Address":"1020 Manhattan Ave","City":"Manhattan Bch","State":"CA","Zip":"90266"},{"Location":"FONZIS","Address":"1017 Manhattan Ave","City":"Manhattan Bch","State":"CA","Zip":"90266"},{"Location":"OSHO RESTAURANT","Address":"913 N Sepulveda Blvd","City":"Manhattan Bch","State":"CA","Zip":"90266"},{"Location":"SIMMZY'S","Address":"229 Manhattan Beach Blvd","City":"Manhattan Bch","State":"CA","Zip":"90266"},{"Location":"SK POYMERS","Address":"1142 Highland Ave","City":"Manhattan Bch","State":"CA","Zip":"90266"},{"Location":"THE VINTAGE SHOPP","Address":"3500 N Sepulveda Blvd 140","City":"Manhattan Bch","State":"CA","Zip":"90266"},{"Location":"UNION BANK","Address":"400 Manhattan Beach Blvd","City":"Manhattan Bch","State":"CA","Zip":"90266"},{"Location":"WALNUT INVESTMENTS LLC","Address":"212 The Strand","City":"Manhattan Bch","State":"CA","Zip":"90266"},{"Location":"108 VENTURA GROUP","Address":"108 The Strand","City":"Manhattan Beach","State":"CA","Zip":"90266"},{"Location":"24 HOUR FITNESS #163","Address":"1500 Rosecrans Ave C","City":"Manhattan Beach","State":"CA","Zip":"90266"},{"Location":"900 MANHATTAN LLC","Address":"900 Manhattan Ave","City":"Manhattan Beach","State":"CA","Zip":"90266"},{"Location":"ABC STUDIOS-REVENGE","Address":"1600 Rosecrans Ave 2b","City":"Manhattan Beach","State":"CA","Zip":"90266"},{"Location":"AMERICAN MARTYRS CHURCH","Address":"624 15th St","City":"Manhattan Beach","State":"CA","Zip":"90266"},{"Location":"ARMORY GROUP","Address":"1230 Rosecrans Ave 660","City":"Manhattan Beach","State":"CA","Zip":"90266"},{"Location":"BAJA SHARKEEZ","Address":"3600 Highland Ave","City":"Manhattan Beach","State":"CA","Zip":"90266"},{"Location":"BAJA SHARKEEZ","Address":"3801 Highland Ave","City":"Manhattan Beach","State":"CA","Zip":"90266"},{"Location":"BCG DIGITAL VENTURES","Address":"1240 Rosecrans Ave 600","City":"Manhattan Beach","State":"CA","Zip":"90266"},{"Location":"BEACH CHINESE FOOD","Address":"314 Rosecrans Ave","City":"Manhattan Beach","State":"CA","Zip":"90266"},{"Location":"BEACH PIZZA","Address":"3301 Highland Ave","City":"Manhattan Beach","State":"CA","Zip":"90266"},{"Location":"BLUE ROOM POST","Address":"1600 Rosecrans Ave 5a110","City":"Manhattan Beach","State":"CA","Zip":"90266"},{"Location":"BOB ROY SALON","Address":"327 Manhattan Beach Blvd","City":"Manhattan Beach","State":"CA","Zip":"90266"},{"Location":"BRICKWORKS ROASTHOUSE","Address":"3212 N Sepulveda Blvd A","City":"Manhattan Beach","State":"CA","Zip":"90266"},{"Location":"BRITMO","Address":"1230 Rosecrans Ave 300","City":"Manhattan Beach","State":"CA","Zip":"90266"},{"Location":"BUFA INC","Address":"1005 Manhattan Ave","City":"Manhattan Beach","State":"CA","Zip":"90266"},{"Location":"C CLUB","Address":"304 12th St","City":"Manhattan Beach","State":"CA","Zip":"90266"},{"Location":"CANTINA REAL MANHATTAN B","Address":"926 N Sepulveda Blvd","City":"Manhattan Beach","State":"CA","Zip":"90266"},{"Location":"CARA COMMUNICATIONS CORP","Address":"1600 Rosecrans Ave","City":"Manhattan Beach","State":"CA","Zip":"90266"},{"Location":"CHILI'S #0882","Address":"2620 N Sepulveda Blvd B","City":"Manhattan Beach","State":"CA","Zip":"90266"},{"Location":"CMPR","Address":"1600 Rosecrans Ave 2b3f","City":"Manhattan Beach","State":"CA","Zip":"90266"},{"Location":"DANCE 2 B FIT","Address":"350 N Sepulveda Blvd 3","City":"Manhattan Beach","State":"CA","Zip":"90266"},{"Location":"DELOITTE & TOUCHE","Address":"1600 Rosecrans Ave 200","City":"Manhattan Beach","State":"CA","Zip":"90266"},{"Location":"DESTINATION MATERNITY","Address":"3200 N Sepulveda Blvd","City":"Manhattan Beach","State":"CA","Zip":"90266"},{"Location":"EL TORASCO TWO","Address":"350 N Sepulveda Blvd 2","City":"Manhattan Beach","State":"CA","Zip":"90266"},{"Location":"EL TORITO 0066","Address":"600 S Sepulveda Blvd","City":"Manhattan Beach","State":"CA","Zip":"90266"},{"Location":"ERCOLES BAR","Address":"1101 Manhattan Ave","City":"Manhattan Beach","State":"CA","Zip":"90266"},{"Location":"FIRESTONE 11819","Address":"1701 N Sepulveda Blvd","City":"Manhattan Beach","State":"CA","Zip":"90266"},{"Location":"FLOYDS 99 BARBER SHOP","Address":"1570 Rosecrans Ave B","City":"Manhattan Beach","State":"CA","Zip":"90266"},{"Location":"FTN FINANCIAL","Address":"1230 Rosecrans Ave 300","City":"Manhattan Beach","State":"CA","Zip":"90266"},{"Location":"FUSION SUSHI MB","Address":"1150 Morningside Dr","City":"Manhattan Beach","State":"CA","Zip":"90266"},{"Location":"GABRIELE FOODS INC","Address":"317 Manhattan Beach Blvd","City":"Manhattan Beach","State":"CA","Zip":"90266"},{"Location":"GRUNIONS","Address":"1501 N Sepulveda Blvd","City":"Manhattan Beach","State":"CA","Zip":"90266"},{"Location":"HAWTHORNE SUITES","Address":"1817 N Sepulveda Blvd","City":"Manhattan Beach","State":"CA","Zip":"90266"},{"Location":"HENNESSEY'S TAVERN","Address":"313 Manhattan Beach Blvd","City":"Manhattan Beach","State":"CA","Zip":"90266"},{"Location":"HOUSTON'S RESTAURANT","Address":"1550 Rosecrans Ave A","City":"Manhattan Beach","State":"CA","Zip":"90266"},{"Location":"IL FORNAIO MANHATTAN BEA","Address":"1800 Rosecrans Ave","City":"Manhattan Beach","State":"CA","Zip":"90266"},{"Location":"ISLANDS RESTAURANT #008","Address":"3200 N Sepulveda Blvd","City":"Manhattan Beach","State":"CA","Zip":"90266"},{"Location":"JAMES C WITHERS","Address":"973 Manhattan Beach Blvd A","City":"Manhattan Beach","State":"CA","Zip":"90266"},{"Location":"JENKINS & HOGIN  LLP","Address":"1230 Rosecrans Ave 110","City":"Manhattan Beach","State":"CA","Zip":"90266"},{"Location":"KEITH S FEDER MD","Address":"1200 Rosecrans Ave 206","City":"Manhattan Beach","State":"CA","Zip":"90266"},{"Location":"KINECTA FEDERAL CREDIT UNION","Address":"1440 Rosecrans Ave","City":"Manhattan Beach","State":"CA","Zip":"90266"},{"Location":"KNIGHT EQUITY MARKETS","Address":"1201 Morningside Dr 200","City":"Manhattan Beach","State":"CA","Zip":"90266"},{"Location":"LAW OFFICES  HAUSHALTER","Address":"1230 Rosecrans Ave 300","City":"Manhattan Beach","State":"CA","Zip":"90266"},{"Location":"LIDO DI MANHATTAN","Address":"1550 Rosecrans Ave G","City":"Manhattan Beach","State":"CA","Zip":"90266"},{"Location":"LIGHTSTORM ENTERTAINMENT","Address":"1600 Rosecrans Ave","City":"Manhattan Beach","State":"CA","Zip":"90266"},{"Location":"LINDBERG NUTRITION","Address":"1121 Artesia Blvd","City":"Manhattan Beach","State":"CA","Zip":"90266"},{"Location":"LITTLE SISTER","Address":"1131 Manhattan Ave","City":"Manhattan Beach","State":"CA","Zip":"90266"},{"Location":"MACY'S WEST 514","Address":"3100 N Sepulveda Blvd","City":"Manhattan Beach","State":"CA","Zip":"90266"},{"Location":"MACY'S WEST 514","Address":"3400 N Sepulveda Blvd","City":"Manhattan Beach","State":"CA","Zip":"90266"},{"Location":"MACY'S WEST 514 BR","Address":"3400 N Sepulveda Blvd","City":"Manhattan Beach","State":"CA","Zip":"90266"},{"Location":"MANHATTAN BEACH BREWING CO","Address":"134 Manhattan Beach Blvd","City":"Manhattan Beach","State":"CA","Zip":"90266"},{"Location":"MANHATTAN BEACH MARRIOTT","Address":"1400 Park View Ave","City":"Manhattan Beach","State":"CA","Zip":"90266"},{"Location":"MANHATTAN BEACH POLICE D","Address":"420 15th St","City":"Manhattan Beach","State":"CA","Zip":"90266"},{"Location":"MANHATTAN BEACH SURGERY","Address":"1200 Rosecrans Ave 110","City":"Manhattan Beach","State":"CA","Zip":"90266"},{"Location":"MANHATTAN COUNTRY CLUB","Address":"1330 Park View Ave","City":"Manhattan Beach","State":"CA","Zip":"90266"},{"Location":"MANHATTAN VISION GROUP","Address":"946 Manhattan Beach Blvd","City":"Manhattan Beach","State":"CA","Zip":"90266"},{"Location":"MANHATTAN WEALTH ADVISORS INC","Address":"1230 Rosecrans Ave 620","City":"Manhattan Beach","State":"CA","Zip":"90266"},{"Location":"MARKLAND WEALTH MGMT","Address":"1230 Rosecrans Ave 610","City":"Manhattan Beach","State":"CA","Zip":"90266"},{"Location":"MBS MEDIA CAMPUS","Address":"1600 Rosecrans Ave 5a","City":"Manhattan Beach","State":"CA","Zip":"90266"},{"Location":"MBS MEDIA CAMPUS","Address":"1600 Rosecrans Ave Sa","City":"Manhattan Beach","State":"CA","Zip":"90266"},{"Location":"MBS MEDIA CAMPUS #3","Address":"1600 Rosecrans Ave 3","City":"Manhattan Beach","State":"CA","Zip":"90266"},{"Location":"MK BUSINESS CENTERS","Address":"1600 Rosecrans Ave 4thfl","City":"Manhattan Beach","State":"CA","Zip":"90266"},{"Location":"MR. POCKET'S SPORTS BAR FDD987","Address":"516 N Sepulveda Blvd","City":"Manhattan Beach","State":"CA","Zip":"90266"},{"Location":"NEW AMERICAN FUNDING","Address":"1230 Rosecrans Ave 402","City":"Manhattan Beach","State":"CA","Zip":"90266"},{"Location":"NORTH END CAFFE","Address":"3421 Highland Ave","City":"Manhattan Beach","State":"CA","Zip":"90266"},{"Location":"NW REAL ESTATE BROKERS","Address":"1210 Highland Ave","City":"Manhattan Beach","State":"CA","Zip":"90266"},{"Location":"O B'S GRILL & BAR","Address":"3610 Highland Ave","City":"Manhattan Beach","State":"CA","Zip":"90266"},{"Location":"OLIVE GARDEN #1723","Address":"2610 N Sepulveda Blvd","City":"Manhattan Beach","State":"CA","Zip":"90266"},{"Location":"PALM REALTY BOUTIQUE","Address":"401 Manhattan Beach Blvd","City":"Manhattan Beach","State":"CA","Zip":"90266"},{"Location":"PANCHO'S","Address":"3615 Highland Ave","City":"Manhattan Beach","State":"CA","Zip":"90266"},{"Location":"PETROS MB.%2C INC.","Address":"451 Manhattan Beach Blvd B110","City":"Manhattan Beach","State":"CA","Zip":"90266"},{"Location":"PETS FOOD MARKET","Address":"1816 N Sepulveda Blvd","City":"Manhattan Beach","State":"CA","Zip":"90266"},{"Location":"PIT FIRE MANHATTAN BEACH","Address":"401 Manhattan Beach Blvd","City":"Manhattan Beach","State":"CA","Zip":"90266"},{"Location":"POSH NAILS","Address":"1570 Rosecrans Ave D","City":"Manhattan Beach","State":"CA","Zip":"90266"},{"Location":"PREMIER BUSINESS CENTERS","Address":"1230 Rosecrans Ave 300","City":"Manhattan Beach","State":"CA","Zip":"90266"},{"Location":"PREMIER BUSINESS CENTERS","Address":"1500 Rosecrans Ave 500","City":"Manhattan Beach","State":"CA","Zip":"90266"},{"Location":"PRESTIGE JEWLERS","Address":"3200 N Sepulveda Blvd 2","City":"Manhattan Beach","State":"CA","Zip":"90266"},{"Location":"RA BIG OCEAN INVESTMENT CO","Address":"2912 Ocean Dr","City":"Manhattan Beach","State":"CA","Zip":"90266"},{"Location":"RAPAS DESIGN INC","Address":"1315 Manhattan Beach Blvd C","City":"Manhattan Beach","State":"CA","Zip":"90266"},{"Location":"REBACK%2CMCANDREWS%2CKJAR%2CWARFORD","Address":"1230 Rosecrans Ave 450","City":"Manhattan Beach","State":"CA","Zip":"90266"},{"Location":"RED CARPET USA CARWASH LLC","Address":"2414 N Sepulveda Blvd","City":"Manhattan Beach","State":"CA","Zip":"90266"},{"Location":"ROCK'N FISH","Address":"120 Manhattan Beach Blvd","City":"Manhattan Beach","State":"CA","Zip":"90266"},{"Location":"ROCKEFELLER","Address":"1209 Highland Ave","City":"Manhattan Beach","State":"CA","Zip":"90266"},{"Location":"RONALD J GREENE DDS","Address":"500 S Sepulveda Blvd 206","City":"Manhattan Beach","State":"CA","Zip":"90266"},{"Location":"RPM MORTGAGE INC","Address":"3500 N Sepulveda Blvd E","City":"Manhattan Beach","State":"CA","Zip":"90266"},{"Location":"SAMURAI SAM","Address":"1570 Rosecrans Ave P","City":"Manhattan Beach","State":"CA","Zip":"90266"},{"Location":"SCORPION - CBS","Address":"1600 Rosecrans Ave 1b3fl","City":"Manhattan Beach","State":"CA","Zip":"90266"},{"Location":"SHADE HOTEL #2","Address":"1221 N Valley Dr","City":"Manhattan Beach","State":"CA","Zip":"90266"},{"Location":"SHARK'S COVE","Address":"309 Manhattan Beach Blvd","City":"Manhattan Beach","State":"CA","Zip":"90266"},{"Location":"SHELLBACK TAVERN","Address":"116 Manhattan Beach Blvd","City":"Manhattan Beach","State":"CA","Zip":"90266"},{"Location":"SKECHERS USA","Address":"330 S Sepulveda Blvd","City":"Manhattan Beach","State":"CA","Zip":"90266"},{"Location":"SKECHERS USA%2C INC","Address":"225 Sepulveda Blvd","City":"Manhattan Beach","State":"CA","Zip":"90266"},{"Location":"SPLIN SILVERMAN LLP","Address":"1230 Rosecrans Ave 600","City":"Manhattan Beach","State":"CA","Zip":"90266"},{"Location":"SUMMER SPORTS BAR","Address":"3770 Highland Ave","City":"Manhattan Beach","State":"CA","Zip":"90266"},{"Location":"SUPER SPORTS","Address":"2930 N Sepulveda Blvd","City":"Manhattan Beach","State":"CA","Zip":"90266"},{"Location":"SUSHI AKATORA","Address":"302 Rosecrans Ave","City":"Manhattan Beach","State":"CA","Zip":"90266"},{"Location":"TARGET","Address":"1200 N Sepulveda Blvd","City":"Manhattan Beach","State":"CA","Zip":"90266"},{"Location":"THE BELAMAR HOTEL BAR","Address":"3501 N Sepulveda Blvd","City":"Manhattan Beach","State":"CA","Zip":"90266"},{"Location":"THE CASTLE CE2-1","Address":"2401 N Sepulveda Blvd","City":"Manhattan Beach","State":"CA","Zip":"90266"},{"Location":"THE HANGAR INN","Address":"1001 N Aviation Blvd","City":"Manhattan Beach","State":"CA","Zip":"90266"},{"Location":"THE LAW OFFICES OF TERRY","Address":"3800 Highland Ave 300","City":"Manhattan Beach","State":"CA","Zip":"90266"},{"Location":"THE LOCAL","Address":"900 Manhattan Ave","City":"Manhattan Beach","State":"CA","Zip":"90266"},{"Location":"THE POST","Address":"1142 Manhattan Beach Blvd","City":"Manhattan Beach","State":"CA","Zip":"90266"},{"Location":"THE STRAND HOUSE","Address":"117 Manhattan Beach Blvd","City":"Manhattan Beach","State":"CA","Zip":"90266"},{"Location":"THE WASH TUB MANHATTAN","Address":"3921 Highland Ave","City":"Manhattan Beach","State":"CA","Zip":"90266"},{"Location":"TIN ROOF BISTRO","Address":"3500 N Sepulveda Blvd 100","City":"Manhattan Beach","State":"CA","Zip":"90266"},{"Location":"UCLA RADIOLOGY IMAGING CENTER","Address":"2200 N Sepulveda Blvd","City":"Manhattan Beach","State":"CA","Zip":"90266"},{"Location":"URBAN BEACH CAFE","Address":"1600 Rosecrans Ave 5a","City":"Manhattan Beach","State":"CA","Zip":"90266"},{"Location":"VANTAGE ONCOLOGY","Address":"1500 Rosecrans Ave 400","City":"Manhattan Beach","State":"CA","Zip":"90266"},{"Location":"VIRTUAL TOURIST","Address":"1600 Rosecrans Ave 6b","City":"Manhattan Beach","State":"CA","Zip":"90266"},{"Location":"WAVES BARBERSHOP","Address":"310 Rosecrans Ave","City":"Manhattan Beach","State":"CA","Zip":"90266"},{"Location":"WJ BRADLEY MORTGAGE","Address":"111 N Sepulveda Blvd 300","City":"Manhattan Beach","State":"CA","Zip":"90266"}]