[{"Location":"2XMD PARTNERS LLC","Address":"31418 Broad Beach Rd","City":"Malibu","State":"CA","Zip":"90265"},{"Location":"33064 PCH LLC","Address":"33064 Pacific Coast Hwy","City":"Malibu","State":"CA","Zip":"90265"},{"Location":"BOYS & GIRLS CLUB MALIBU","Address":"30215 Morning View Dr","City":"Malibu","State":"CA","Zip":"90265"},{"Location":"BRIGHT SAN  PRODUCTIONS","Address":"31364 Broad Beach Rd","City":"Malibu","State":"CA","Zip":"90265"},{"Location":"BUI SUSHI","Address":"23733 Malibu Rd","City":"Malibu","State":"CA","Zip":"90265"},{"Location":"CAMP MILLER BLDG A","Address":"433 Encinal Canyon Rd A","City":"Malibu","State":"CA","Zip":"90265"},{"Location":"CANTINA","Address":"29350 Pacific Coast Hwy 7","City":"Malibu","State":"CA","Zip":"90265"},{"Location":"CARBON VIEW LIMITED","Address":"22314 Pacific Coast Hwy","City":"Malibu","State":"CA","Zip":"90265"},{"Location":"CASA ESCOBAR MALIBU BEAC","Address":"22969 Pacific Coast Hwy","City":"Malibu","State":"CA","Zip":"90265"},{"Location":"CITY OF MALIBU","Address":"23815 Stuart Ranch Rd","City":"Malibu","State":"CA","Zip":"90265"},{"Location":"CLIFF HOUSE TRUST","Address":"28128 Pacific Coast Hwy 137","City":"Malibu","State":"CA","Zip":"90265"},{"Location":"COMMUNITY RECOVERY","Address":"1720 Lechusa Rd","City":"Malibu","State":"CA","Zip":"90265"},{"Location":"COMMUNITY RECOVERY","Address":"1665 Encinal Canyon Rd","City":"Malibu","State":"CA","Zip":"90265"},{"Location":"COOGIE'S BEACH CAFE","Address":"23755 Malibu Rd","City":"Malibu","State":"CA","Zip":"90265"},{"Location":"CURTCO ROBB MEDIA","Address":"29160 Heathercliff Rd","City":"Malibu","State":"CA","Zip":"90265"},{"Location":"D'AMORES PIZZA EXPRESS","Address":"22601 Pch","City":"Malibu","State":"CA","Zip":"90265"},{"Location":"DARIUS  WOLSKI","Address":"6629 Wandermere Rd","City":"Malibu","State":"CA","Zip":"90265"},{"Location":"DEELS PROPERTIES","Address":"22070 Pacific Coast Hwy","City":"Malibu","State":"CA","Zip":"90265"},{"Location":"DUCK DIVE GASTROPUB INC","Address":"29169 Heathercliff Rd 102","City":"Malibu","State":"CA","Zip":"90265"},{"Location":"DUKES MALIBU","Address":"21150 Pacific Coast Hwy","City":"Malibu","State":"CA","Zip":"90265"},{"Location":"EUROPEAN SHOE REPAIR","Address":"3882 Cross Creek Rd","City":"Malibu","State":"CA","Zip":"90265"},{"Location":"FLOATING MIRRORS INC","Address":"606 Thrift Rd","City":"Malibu","State":"CA","Zip":"90265"},{"Location":"HRL LABORATORIES","Address":"3011 Malibu Canyon Rd","City":"Malibu","State":"CA","Zip":"90265"},{"Location":"HRL LABORATORIES  LLC","Address":"3011 Malibu Canyon Rd","City":"Malibu","State":"CA","Zip":"90265"},{"Location":"INTERNATIONAL BULLION EX","Address":"23410 Civic Center Way E7","City":"Malibu","State":"CA","Zip":"90265"},{"Location":"JAKKS PACIFIC%2C INC.","Address":"22619 Pacific Coast Hwy","City":"Malibu","State":"CA","Zip":"90265"},{"Location":"KRISTYS MALIBU","Address":"6506 Westward Beach Rd","City":"Malibu","State":"CA","Zip":"90265"},{"Location":"LA COUNTY FIRE DEPARTMENT","Address":"3970 Carbon Canyon Rd","City":"Malibu","State":"CA","Zip":"90265"},{"Location":"LEVSOL LLC","Address":"3878 Puerco Canyon Rd","City":"Malibu","State":"CA","Zip":"90265"},{"Location":"M CAFE","Address":"327 Latigo Canyon Rd","City":"Malibu","State":"CA","Zip":"90265"},{"Location":"MALIBU BEACH INN","Address":"22878 Pacific Coast Hwy","City":"Malibu","State":"CA","Zip":"90265"},{"Location":"MALIBU CAMP","Address":"1250 Encinal Canyon Rd","City":"Malibu","State":"CA","Zip":"90265"},{"Location":"MALIBU CHIRO AND WELLNESS","Address":"23440 Civic Center Way 101","City":"Malibu","State":"CA","Zip":"90265"},{"Location":"MALIBU CREEK BISTRO INC","Address":"22821 Pacific Coast Hwy","City":"Malibu","State":"CA","Zip":"90265"},{"Location":"MALIBU EATS","Address":"3939 Cross Creek Rd","City":"Malibu","State":"CA","Zip":"90265"},{"Location":"MALIBU EYE CENTER","Address":"3840 Cross Creek Rd","City":"Malibu","State":"CA","Zip":"90265"},{"Location":"MALIBU MEDICAL CORP","Address":"23661 Pacific Coast Hwy","City":"Malibu","State":"CA","Zip":"90265"},{"Location":"MALIBU RACQUET CLUB","Address":"23847 Stuart Ranch Rd","City":"Malibu","State":"CA","Zip":"90265"},{"Location":"MALIBU REALTY","Address":"3469 Cross Creek Rd","City":"Malibu","State":"CA","Zip":"90265"},{"Location":"MALIBU ROADHOUSE","Address":"26025 Pacific Coast Hwy","City":"Malibu","State":"CA","Zip":"90265"},{"Location":"MARMALADE CAFE","Address":"3894 Cross St Road Malibu","City":"Malibu","State":"CA","Zip":"90265"},{"Location":"MASTRO'S OCEAN CLUB","Address":"18412 Pacific Coast Hwy","City":"Malibu","State":"CA","Zip":"90265"},{"Location":"MILESTONE RANCH MALIBU","Address":"327 Latigo Canyon Rd","City":"Malibu","State":"CA","Zip":"90265"},{"Location":"MILESTONE RANCH MALIBU","Address":"261 Latigo Canyon Rd","City":"Malibu","State":"CA","Zip":"90265"},{"Location":"MILESTONES","Address":"327 Latigo Canyon Rd","City":"Malibu","State":"CA","Zip":"90265"},{"Location":"MIRACLE MILES APARTMENTS LLC","Address":"32852 Pacific Coast Hwy","City":"Malibu","State":"CA","Zip":"90265"},{"Location":"MOSES","Address":"28128 Pacific Coast Hwy 222","City":"Malibu","State":"CA","Zip":"90265"},{"Location":"MR CHOW MALIBU","Address":"3835 Cross Creek Rd","City":"Malibu","State":"CA","Zip":"90265"},{"Location":"NOBU MALIBU LLC","Address":"22706 Pacific Coast Hwy","City":"Malibu","State":"CA","Zip":"90265"},{"Location":"OCTOPUS HOLDINGS","Address":"22234 Pacific Coast Hwy","City":"Malibu","State":"CA","Zip":"90265"},{"Location":"PACIFIC COAST PETS","Address":"23705 Malibu Rd 300","City":"Malibu","State":"CA","Zip":"90265"},{"Location":"PACIFIC HIGHWAY SUNSHINE","Address":"32752 Pacific Coast Hwy","City":"Malibu","State":"CA","Zip":"90265"},{"Location":"RAMBLA LLC","Address":"3211 Rambla Pacifico","City":"Malibu","State":"CA","Zip":"90265"},{"Location":"RANDE GERBER","Address":"3939 Cross Creek Rd","City":"Malibu","State":"CA","Zip":"90265"},{"Location":"RK MALIBU","Address":"6950 Dume Dr","City":"Malibu","State":"CA","Zip":"90265"},{"Location":"ROCKY OAK LLC","Address":"6395 Meadows Ct","City":"Malibu","State":"CA","Zip":"90265"},{"Location":"SEAVIEW TERRACE","Address":"22741 Pacific Coast Hwy 400","City":"Malibu","State":"CA","Zip":"90265"},{"Location":"STATE FARM INSURANCE","Address":"22225 Pacific Coast Hwy 17","City":"Malibu","State":"CA","Zip":"90265"},{"Location":"T4E ASSOCIATES LLC","Address":"22338 Pacific Coast Hwy","City":"Malibu","State":"CA","Zip":"90265"},{"Location":"TAVERNA TONYE","Address":"23410 Civic Center Way","City":"Malibu","State":"CA","Zip":"90265"},{"Location":"THE RESTAURANT VENTURE F","Address":"28128 Pacific Coast Hwy","City":"Malibu","State":"CA","Zip":"90265"},{"Location":"THE SUNSET RESTAURANT","Address":"6800 Westward Beach Rd","City":"Malibu","State":"CA","Zip":"90265"},{"Location":"URANUS","Address":"6051 Philip Ave","City":"Malibu","State":"CA","Zip":"90265"},{"Location":"VENADO VISTA INVESTMENT","Address":"24657 Blue Dane Ln","City":"Malibu","State":"CA","Zip":"90265"},{"Location":"VINDEL LLC","Address":"6706 Zumirez Dr","City":"Malibu","State":"CA","Zip":"90265"},{"Location":"VORTEX WATER","Address":"10355 Pacific View Dr","City":"Malibu","State":"CA","Zip":"90265"}]