[{"Location":"ABM AUTO MOTIVE 1","Address":"17111 Hawthorne Blvd D","City":"Lawndale","State":"CA","Zip":"90260"},{"Location":"ADVANCED AUTO BODY","Address":"4107 Marine Ave","City":"Lawndale","State":"CA","Zip":"90260"},{"Location":"BAHA CALIFORNIA FISH TACO","Address":"4749 Artesia Blvd","City":"Lawndale","State":"CA","Zip":"90260"},{"Location":"BAKERY CHANNY","Address":"16822 Hawthorne Blvd","City":"Lawndale","State":"CA","Zip":"90260"},{"Location":"BELL HOSPITAL MEDICAL","Address":"15603 Hawthorne Blvd","City":"Lawndale","State":"CA","Zip":"90260"},{"Location":"BEST LAUNDROMAT","Address":"14324 Hawthorne Blvd","City":"Lawndale","State":"CA","Zip":"90260"},{"Location":"BROLLY HUT","Address":"16927 Hawthorne Blvd","City":"Lawndale","State":"CA","Zip":"90260"},{"Location":"BROOKLYN BAR","Address":"16618 Hawthorne Blvd","City":"Lawndale","State":"CA","Zip":"90260"},{"Location":"CABALLEROS BARBER SHOP","Address":"14609 Prairie Ave","City":"Lawndale","State":"CA","Zip":"90260"},{"Location":"CAREMORE MEDICAL ENTERPRISES","Address":"15230 Hawthorne Blvd","City":"Lawndale","State":"CA","Zip":"90260"},{"Location":"CHARLES MAC QUARRIE","Address":"4335 W 147th St","City":"Lawndale","State":"CA","Zip":"90260"},{"Location":"COSMIC FIST RESTAURANT","Address":"15705 Hawthorne Blvd F","City":"Lawndale","State":"CA","Zip":"90260"},{"Location":"DAILY NAIL AND SPA","Address":"15213 Hawthorne Blvd","City":"Lawndale","State":"CA","Zip":"90260"},{"Location":"DCS TESTING &EQUIPMENT","Address":"4637 W 159th St","City":"Lawndale","State":"CA","Zip":"90260"},{"Location":"DIGBYS OF MAYFAIR","Address":"16805 Prairie Ave","City":"Lawndale","State":"CA","Zip":"90260"},{"Location":"EAGLES NEST SALOON","Address":"15150 Prairie Ave","City":"Lawndale","State":"CA","Zip":"90260"},{"Location":"EL AMIGO","Address":"4600 Manhattan Beach Blvd","City":"Lawndale","State":"CA","Zip":"90260"},{"Location":"EL POLLO","Address":"15400 Hawthorne Blvd","City":"Lawndale","State":"CA","Zip":"90260"},{"Location":"EL TARASCO BURRITO","Address":"4809 Marine Ave","City":"Lawndale","State":"CA","Zip":"90260"},{"Location":"INCA GOURMET","Address":"15651 Hawthorne Blvd B","City":"Lawndale","State":"CA","Zip":"90260"},{"Location":"LA FIESTA MARISCOS","Address":"15020 Hawthorne Blvd D","City":"Lawndale","State":"CA","Zip":"90260"},{"Location":"LIFETIME SMILE DENTAL","Address":"15418 Hawthorne Blvd A","City":"Lawndale","State":"CA","Zip":"90260"},{"Location":"LUCKY STAR CAFE","Address":"15109 Prairie Ave","City":"Lawndale","State":"CA","Zip":"90260"},{"Location":"MAGIC LAUNDRY LLC","Address":"14405 Prairie Ave C","City":"Lawndale","State":"CA","Zip":"90260"},{"Location":"MANILA WOK","Address":"15339 Hawthorne Blvd","City":"Lawndale","State":"CA","Zip":"90260"},{"Location":"MAR DE ORO","Address":"15214 Hawthorne Blvd","City":"Lawndale","State":"CA","Zip":"90260"},{"Location":"MTA METROPOLITAN AUTHORITY","Address":"14724 Aviation Blvd","City":"Lawndale","State":"CA","Zip":"90260"},{"Location":"NUMERO UNO PIZZA","Address":"17013 Hawthorne Blvd","City":"Lawndale","State":"CA","Zip":"90260"},{"Location":"OCHOS RIOS GRILL","Address":"14400 Hawthorne Blvd","City":"Lawndale","State":"CA","Zip":"90260"},{"Location":"PACIFIC COAST CONTRUCTION","Address":"15123 Grevillea Ave","City":"Lawndale","State":"CA","Zip":"90260"},{"Location":"REAL ESTATE MANAGMENT","Address":"15900 Hawthorne Blvd 204","City":"Lawndale","State":"CA","Zip":"90260"},{"Location":"RINCONCITO EQUATORIANO","Address":"14607 Prairie Ave","City":"Lawndale","State":"CA","Zip":"90260"},{"Location":"S SALON","Address":"14611 Prairie Ave","City":"Lawndale","State":"CA","Zip":"90260"},{"Location":"SAIGON DISH","Address":"15725 Hawthorne Blvd 108","City":"Lawndale","State":"CA","Zip":"90260"},{"Location":"SOUTH BAY DENTAL CARE1","Address":"17023 Hawthorne Blvd","City":"Lawndale","State":"CA","Zip":"90260"},{"Location":"SOUTH BAY VETERINARY SER","Address":"14431 Hawthorne Blvd","City":"Lawndale","State":"CA","Zip":"90260"},{"Location":"THE ORIGINAL JINO'S PIZZA","Address":"14319 Hawthorne Blvd","City":"Lawndale","State":"CA","Zip":"90260"},{"Location":"THRONE BARBERSHOP","Address":"16825 Prairie Ave","City":"Lawndale","State":"CA","Zip":"90260"},{"Location":"WILLIAMS CONSTRUCTION","Address":"4145 Marine Ave","City":"Lawndale","State":"CA","Zip":"90260"},{"Location":"WILSON","Address":"4622 Manhattan Beach Blvd","City":"Lawndale","State":"CA","Zip":"90260"},{"Location":"WINGSTOP","Address":"15211 Hawthorne Blvd","City":"Lawndale","State":"CA","Zip":"90260"},{"Location":"ABM AUTO MOTIVE 1","Address":"17111 Hawthorne Blvd D","City":"Lawndale","State":"CA","Zip":"90260"},{"Location":"ADVANCED AUTO BODY","Address":"4107 Marine Ave","City":"Lawndale","State":"CA","Zip":"90260"},{"Location":"BAHA CALIFORNIA FISH TACO","Address":"4749 Artesia Blvd","City":"Lawndale","State":"CA","Zip":"90260"},{"Location":"BAKERY CHANNY","Address":"16822 Hawthorne Blvd","City":"Lawndale","State":"CA","Zip":"90260"},{"Location":"BELL HOSPITAL MEDICAL","Address":"15603 Hawthorne Blvd","City":"Lawndale","State":"CA","Zip":"90260"},{"Location":"BEST LAUNDROMAT","Address":"14324 Hawthorne Blvd","City":"Lawndale","State":"CA","Zip":"90260"},{"Location":"BROLLY HUT","Address":"16927 Hawthorne Blvd","City":"Lawndale","State":"CA","Zip":"90260"},{"Location":"BROOKLYN BAR","Address":"16618 Hawthorne Blvd","City":"Lawndale","State":"CA","Zip":"90260"},{"Location":"CABALLEROS BARBER SHOP","Address":"14609 Prairie Ave","City":"Lawndale","State":"CA","Zip":"90260"},{"Location":"CAREMORE MEDICAL ENTERPRISES","Address":"15230 Hawthorne Blvd","City":"Lawndale","State":"CA","Zip":"90260"},{"Location":"CHARLES MAC QUARRIE","Address":"4335 W 147th St","City":"Lawndale","State":"CA","Zip":"90260"},{"Location":"COSMIC FIST RESTAURANT","Address":"15705 Hawthorne Blvd F","City":"Lawndale","State":"CA","Zip":"90260"},{"Location":"DAILY NAIL AND SPA","Address":"15213 Hawthorne Blvd","City":"Lawndale","State":"CA","Zip":"90260"},{"Location":"DCS TESTING &EQUIPMENT","Address":"4637 W 159th St","City":"Lawndale","State":"CA","Zip":"90260"},{"Location":"DIGBYS OF MAYFAIR","Address":"16805 Prairie Ave","City":"Lawndale","State":"CA","Zip":"90260"},{"Location":"EAGLES NEST SALOON","Address":"15150 Prairie Ave","City":"Lawndale","State":"CA","Zip":"90260"},{"Location":"EL AMIGO","Address":"4600 Manhattan Beach Blvd","City":"Lawndale","State":"CA","Zip":"90260"},{"Location":"EL POLLO","Address":"15400 Hawthorne Blvd","City":"Lawndale","State":"CA","Zip":"90260"},{"Location":"EL TARASCO BURRITO","Address":"4809 Marine Ave","City":"Lawndale","State":"CA","Zip":"90260"},{"Location":"INCA GOURMET","Address":"15651 Hawthorne Blvd B","City":"Lawndale","State":"CA","Zip":"90260"},{"Location":"LA FIESTA MARISCOS","Address":"15020 Hawthorne Blvd D","City":"Lawndale","State":"CA","Zip":"90260"},{"Location":"LIFETIME SMILE DENTAL","Address":"15418 Hawthorne Blvd A","City":"Lawndale","State":"CA","Zip":"90260"},{"Location":"LUCKY STAR CAFE","Address":"15109 Prairie Ave","City":"Lawndale","State":"CA","Zip":"90260"},{"Location":"MAGIC LAUNDRY LLC","Address":"14405 Prairie Ave C","City":"Lawndale","State":"CA","Zip":"90260"},{"Location":"MANILA WOK","Address":"15339 Hawthorne Blvd","City":"Lawndale","State":"CA","Zip":"90260"},{"Location":"MAR DE ORO","Address":"15214 Hawthorne Blvd","City":"Lawndale","State":"CA","Zip":"90260"},{"Location":"MTA METROPOLITAN AUTHORITY","Address":"14724 Aviation Blvd","City":"Lawndale","State":"CA","Zip":"90260"},{"Location":"NUMERO UNO PIZZA","Address":"17013 Hawthorne Blvd","City":"Lawndale","State":"CA","Zip":"90260"},{"Location":"OCHOS RIOS GRILL","Address":"14400 Hawthorne Blvd","City":"Lawndale","State":"CA","Zip":"90260"},{"Location":"PACIFIC COAST CONTRUCTION","Address":"15123 Grevillea Ave","City":"Lawndale","State":"CA","Zip":"90260"},{"Location":"REAL ESTATE MANAGMENT","Address":"15900 Hawthorne Blvd 204","City":"Lawndale","State":"CA","Zip":"90260"},{"Location":"RINCONCITO EQUATORIANO","Address":"14607 Prairie Ave","City":"Lawndale","State":"CA","Zip":"90260"},{"Location":"S SALON","Address":"14611 Prairie Ave","City":"Lawndale","State":"CA","Zip":"90260"},{"Location":"SAIGON DISH","Address":"15725 Hawthorne Blvd 108","City":"Lawndale","State":"CA","Zip":"90260"},{"Location":"SOUTH BAY DENTAL CARE1","Address":"17023 Hawthorne Blvd","City":"Lawndale","State":"CA","Zip":"90260"},{"Location":"SOUTH BAY VETERINARY SER","Address":"14431 Hawthorne Blvd","City":"Lawndale","State":"CA","Zip":"90260"},{"Location":"THE ORIGINAL JINO'S PIZZA","Address":"14319 Hawthorne Blvd","City":"Lawndale","State":"CA","Zip":"90260"},{"Location":"THRONE BARBERSHOP","Address":"16825 Prairie Ave","City":"Lawndale","State":"CA","Zip":"90260"},{"Location":"WILLIAMS CONSTRUCTION","Address":"4145 Marine Ave","City":"Lawndale","State":"CA","Zip":"90260"},{"Location":"WILSON","Address":"4622 Manhattan Beach Blvd","City":"Lawndale","State":"CA","Zip":"90260"},{"Location":"WINGSTOP","Address":"15211 Hawthorne Blvd","City":"Lawndale","State":"CA","Zip":"90260"}]