[{"Location":"CROSSFIT BEACH BOX","Address":"2415 12 Artesian Blvd","City":"North Redondo Beach","State":"CA","Zip":"90278"},{"Location":"1 SPACE PARK","Address":"1 Space Park Blvd","City":"Redondo Beach","State":"CA","Zip":"90278"},{"Location":"1 SPACE PARK","Address":"1 Space Park Blvd E2","City":"Redondo Beach","State":"CA","Zip":"90278"},{"Location":"3 BALL PRODUCTIONS INC","Address":"3650 Redondo Beach Ave","City":"Redondo Beach","State":"CA","Zip":"90278"},{"Location":"ANGEL DAVID","Address":"608 Meyer Ln","City":"Redondo Beach","State":"CA","Zip":"90278"},{"Location":"ARTESIA PRODUCE MARKET","Address":"2322 Artesia Blvd","City":"Redondo Beach","State":"CA","Zip":"90278"},{"Location":"BAC STREET LOUNGE","Address":"2422 Artesia Blvd","City":"Redondo Beach","State":"CA","Zip":"90278"},{"Location":"BOGEY'S SPORTS BAR & LOUNGE","Address":"2300 Artesia Blvd","City":"Redondo Beach","State":"CA","Zip":"90278"},{"Location":"BYO PIZZA RBP LLC","Address":"4051 Inglewood Ave 101","City":"Redondo Beach","State":"CA","Zip":"90278"},{"Location":"CHILE VERDE","Address":"2790 Manhattan Beach Blvd","City":"Redondo Beach","State":"CA","Zip":"90278"},{"Location":"DAYUS NAIL SALON","Address":"2103 Artesia Blvd","City":"Redondo Beach","State":"CA","Zip":"90278"},{"Location":"EL GAUCHO MEAT MARKET","Address":"2715 Manhattan Beach Blvd","City":"Redondo Beach","State":"CA","Zip":"90278"},{"Location":"EPN - ALEXANDRO CARRILLO","Address":"2609 Manhattan Beach Blvd","City":"Redondo Beach","State":"CA","Zip":"90278"},{"Location":"HAVANA MANIA","Address":"3615 Englewood Ave","City":"Redondo Beach","State":"CA","Zip":"90278"},{"Location":"HEALTY MEAL INC.","Address":"4051 Inglewood Ave 105","City":"Redondo Beach","State":"CA","Zip":"90278"},{"Location":"HEDIEN","Address":"1625 Aviation Blvd","City":"Redondo Beach","State":"CA","Zip":"90278"},{"Location":"INTERNAP","Address":"3690 Redondo Beach Ave","City":"Redondo Beach","State":"CA","Zip":"90278"},{"Location":"ISLANDS RESTAURANT","Address":"1609 Hawthorne Blvd","City":"Redondo Beach","State":"CA","Zip":"90278"},{"Location":"JERSEY'S BAR & GRILL","Address":"1453 Aviation Blvd","City":"Redondo Beach","State":"CA","Zip":"90278"},{"Location":"JIMMYS BAR AND GRILL","Address":"2701 190th St 100","City":"Redondo Beach","State":"CA","Zip":"90278"},{"Location":"KING HARBOR BREWING","Address":"2907 182nd St","City":"Redondo Beach","State":"CA","Zip":"90278"},{"Location":"KOHL'S #1376","Address":"1799 Hawthorne Blvd","City":"Redondo Beach","State":"CA","Zip":"90278"},{"Location":"LA BARBER SHOP","Address":"2725 Manhattan Beach Blvd","City":"Redondo Beach","State":"CA","Zip":"90278"},{"Location":"LAUNDROLAND","Address":"2603 Artesia Blvd","City":"Redondo Beach","State":"CA","Zip":"90278"},{"Location":"LITTLETON INS","Address":"2772 Artesia Blvd 201","City":"Redondo Beach","State":"CA","Zip":"90278"},{"Location":"LIVING SPACES FURNITURE","Address":"1519 Hawthorne Blvd","City":"Redondo Beach","State":"CA","Zip":"90278"},{"Location":"LOUIS BURGERS","Address":"2116 Artesia Blvd","City":"Redondo Beach","State":"CA","Zip":"90278"},{"Location":"MACY'S WEST 517","Address":"1801 Hawthorne Blvd","City":"Redondo Beach","State":"CA","Zip":"90278"},{"Location":"MACY'S WEST 517 BR","Address":"1801 Hawthorne Blvd","City":"Redondo Beach","State":"CA","Zip":"90278"},{"Location":"MANHATTAN NAILS AND SPA","Address":"3407 Englewood Ave  #b","City":"Redondo Beach","State":"CA","Zip":"90278"},{"Location":"NORDSTROM","Address":"1835 Hawthorne Blvd","City":"Redondo Beach","State":"CA","Zip":"90278"},{"Location":"NORDSTROM RACK - SOUTH B","Address":"1517 Hawthorne Blvd","City":"Redondo Beach","State":"CA","Zip":"90278"},{"Location":"NORTHROP GRUMMAN","Address":"1 Space Park Blvd 119","City":"Redondo Beach","State":"CA","Zip":"90278"},{"Location":"NORTHROP GRUMMAN","Address":"1 Space Park Blvd","City":"Redondo Beach","State":"CA","Zip":"90278"},{"Location":"NORTHROP GRUMMAN CORP","Address":"1 Space Park Blvd","City":"Redondo Beach","State":"CA","Zip":"90278"},{"Location":"NORTHROP GRUMMAN SPACE TECH","Address":"1 Space Park Blvd","City":"Redondo Beach","State":"CA","Zip":"90278"},{"Location":"O'HEARNS PUB","Address":"1517 Aviation Blvd","City":"Redondo Beach","State":"CA","Zip":"90278"},{"Location":"PACIFIC DENTAL #218","Address":"1509 Hawthorne Blvd 102","City":"Redondo Beach","State":"CA","Zip":"90278"},{"Location":"PRECISION FITNESS","Address":"2423 190th St","City":"Redondo Beach","State":"CA","Zip":"90278"},{"Location":"REBOS","Address":"1500 Aviation Blvd","City":"Redondo Beach","State":"CA","Zip":"90278"},{"Location":"RED ROBIN #24","Address":"1815 Hawthorne Blvd","City":"Redondo Beach","State":"CA","Zip":"90278"},{"Location":"REDONDO BEACH DENTAL ARTS","Address":"2731 Manhattan Beach Blvd","City":"Redondo Beach","State":"CA","Zip":"90278"},{"Location":"SOUTH BAY BATTING CAGES","Address":"2903 182nd St","City":"Redondo Beach","State":"CA","Zip":"90278"},{"Location":"SOUTH BAY CARPETS INC","Address":"1443 Aviation Blvd","City":"Redondo Beach","State":"CA","Zip":"90278"},{"Location":"SPOILED ROTTEN TRAVEL","Address":"1513 Aviation Blvd","City":"Redondo Beach","State":"CA","Zip":"90278"},{"Location":"STEVENS GLOBAL LOGISTICS","Address":"3700 Redondo Beach Ave","City":"Redondo Beach","State":"CA","Zip":"90278"},{"Location":"STORMYS BARBERSHOP1","Address":"2206 12 Artesia Blvd","City":"Redondo Beach","State":"CA","Zip":"90278"},{"Location":"TARGET","Address":"1601 Kingsdale Ave","City":"Redondo Beach","State":"CA","Zip":"90278"},{"Location":"THE DOLPHIN","Address":"1995 Artesia Blvd","City":"Redondo Beach","State":"CA","Zip":"90278"},{"Location":"THIRSTY CLUB","Address":"2705 1%2F2 Artesia Blvd","City":"Redondo Beach","State":"CA","Zip":"90278"},{"Location":"TRITION TRAINING CENTER","Address":"1400 Aviation Blvd","City":"Redondo Beach","State":"CA","Zip":"90278"},{"Location":"WINDSOR ONE PLUMBING","Address":"2206 Artesia Blvd","City":"Redondo Beach","State":"CA","Zip":"90278"},{"Location":"YANAGI JAPANESE BISTRO","Address":"2400 Artesia Blvd","City":"Redondo Beach","State":"CA","Zip":"90278"}]