[{"Location":"4005 SLAUSON","Address":"4005 Slauson Ave","City":"Maywood","State":"CA","Zip":"90270"},{"Location":"5940 ATLANTIC PARTNERS L","Address":"5940 Atlantic Blvd","City":"Maywood","State":"CA","Zip":"90270"},{"Location":"8 BALL BILLIARDS","Address":"5250 Atlantic Blvd","City":"Maywood","State":"CA","Zip":"90270"},{"Location":"APOLLO BURGERS","Address":"4722 Slauson Ave","City":"Maywood","State":"CA","Zip":"90270"},{"Location":"CAMILAS MARKET","Address":"5421 Everett Ave","City":"Maywood","State":"CA","Zip":"90270"},{"Location":"COMIDA MEXICANA INC","Address":"5729 Atlantic Blvd","City":"Maywood","State":"CA","Zip":"90270"},{"Location":"EDDIE","Address":"3427 Slauson Ave","City":"Maywood","State":"CA","Zip":"90270"},{"Location":"EXPRESS COIN LAUNDRY","Address":"3651 Slauson Ave","City":"Maywood","State":"CA","Zip":"90270"},{"Location":"GLOW HAIR BOUTIQUE","Address":"4003 Slauson Ave","City":"Maywood","State":"CA","Zip":"90270"},{"Location":"GOODYEAR 9267","Address":"6162 Atlantic Blvd","City":"Maywood","State":"CA","Zip":"90270"},{"Location":"IN THE CUT","Address":"3633 Slauson Ave C","City":"Maywood","State":"CA","Zip":"90270"},{"Location":"JOSE TORRES DDS INC","Address":"3619 Slauson Ave","City":"Maywood","State":"CA","Zip":"90270"},{"Location":"KEENEY TRUCK LINES","Address":"3500 Fruitland Ave","City":"Maywood","State":"CA","Zip":"90270"},{"Location":"LA COSTA DEL","Address":"4505 Slauson Ave","City":"Maywood","State":"CA","Zip":"90270"},{"Location":"LA ESPERANZA MEDICAL TRAINING","Address":"4207 Slauson Ave","City":"Maywood","State":"CA","Zip":"90270"},{"Location":"LA TEQUILA RESTAURANT","Address":"5624 Atlantic Blvd","City":"Maywood","State":"CA","Zip":"90270"},{"Location":"LA VILLANUEVA RESTAURANT","Address":"5306 Atlantic Blvd B","City":"Maywood","State":"CA","Zip":"90270"},{"Location":"LAS TRANCAS RESTAURANT","Address":"5351 Atlantic Blvd","City":"Maywood","State":"CA","Zip":"90270"},{"Location":"MARISCOS BAHIA INC","Address":"6119 Atlantic Blvd","City":"Maywood","State":"CA","Zip":"90270"},{"Location":"MARISCOS MI LINDO SINALOA","Address":"5975 Atlantic Blvd","City":"Maywood","State":"CA","Zip":"90270"},{"Location":"MAYWOOD HEALTH CARE","Address":"6025 Pine Ave","City":"Maywood","State":"CA","Zip":"90270"},{"Location":"MAYWOOD MARKET","Address":"4027 Slauson Ave","City":"Maywood","State":"CA","Zip":"90270"},{"Location":"MAYWOOD TIRE SERVICE INC","Address":"3500 Slauson Ave","City":"Maywood","State":"CA","Zip":"90270"},{"Location":"MERENDERO TROPICAL","Address":"4944 Slauson Ave","City":"Maywood","State":"CA","Zip":"90270"},{"Location":"MVP  BARBER SHOP","Address":"4535 Slauson Ave","City":"Maywood","State":"CA","Zip":"90270"},{"Location":"PRO STOP","Address":"6012 Atlantic Blvd","City":"Maywood","State":"CA","Zip":"90270"},{"Location":"SUMMER DENTAL GROUP","Address":"4201 Slauson Ave","City":"Maywood","State":"CA","Zip":"90270"},{"Location":"THE HOUSE LOUNGE","Address":"3626 Fruitland Ave","City":"Maywood","State":"CA","Zip":"90270"},{"Location":"THE RED WOOD ROOM","Address":"4533 Slauson Ave","City":"Maywood","State":"CA","Zip":"90270"},{"Location":"TRANSPORTES REAL DE MINAS","Address":"5614 Atlantic Blvd","City":"Maywood","State":"CA","Zip":"90270"},{"Location":"WABA GRILL MAYWOOD","Address":"4432 Slauson Ave","City":"Maywood","State":"CA","Zip":"90270"},{"Location":"4005 SLAUSON","Address":"4005 Slauson Ave","City":"Maywood","State":"CA","Zip":"90270"},{"Location":"5940 ATLANTIC PARTNERS L","Address":"5940 Atlantic Blvd","City":"Maywood","State":"CA","Zip":"90270"},{"Location":"8 BALL BILLIARDS","Address":"5250 Atlantic Blvd","City":"Maywood","State":"CA","Zip":"90270"},{"Location":"APOLLO BURGERS","Address":"4722 Slauson Ave","City":"Maywood","State":"CA","Zip":"90270"},{"Location":"CAMILAS MARKET","Address":"5421 Everett Ave","City":"Maywood","State":"CA","Zip":"90270"},{"Location":"COMIDA MEXICANA INC","Address":"5729 Atlantic Blvd","City":"Maywood","State":"CA","Zip":"90270"},{"Location":"EDDIE","Address":"3427 Slauson Ave","City":"Maywood","State":"CA","Zip":"90270"},{"Location":"EXPRESS COIN LAUNDRY","Address":"3651 Slauson Ave","City":"Maywood","State":"CA","Zip":"90270"},{"Location":"GLOW HAIR BOUTIQUE","Address":"4003 Slauson Ave","City":"Maywood","State":"CA","Zip":"90270"},{"Location":"GOODYEAR 9267","Address":"6162 Atlantic Blvd","City":"Maywood","State":"CA","Zip":"90270"},{"Location":"IN THE CUT","Address":"3633 Slauson Ave C","City":"Maywood","State":"CA","Zip":"90270"},{"Location":"JOSE TORRES DDS INC","Address":"3619 Slauson Ave","City":"Maywood","State":"CA","Zip":"90270"},{"Location":"KEENEY TRUCK LINES","Address":"3500 Fruitland Ave","City":"Maywood","State":"CA","Zip":"90270"},{"Location":"LA COSTA DEL","Address":"4505 Slauson Ave","City":"Maywood","State":"CA","Zip":"90270"},{"Location":"LA ESPERANZA MEDICAL TRAINING","Address":"4207 Slauson Ave","City":"Maywood","State":"CA","Zip":"90270"},{"Location":"LA TEQUILA RESTAURANT","Address":"5624 Atlantic Blvd","City":"Maywood","State":"CA","Zip":"90270"},{"Location":"LA VILLANUEVA RESTAURANT","Address":"5306 Atlantic Blvd B","City":"Maywood","State":"CA","Zip":"90270"},{"Location":"LAS TRANCAS RESTAURANT","Address":"5351 Atlantic Blvd","City":"Maywood","State":"CA","Zip":"90270"},{"Location":"MARISCOS BAHIA INC","Address":"6119 Atlantic Blvd","City":"Maywood","State":"CA","Zip":"90270"},{"Location":"MARISCOS MI LINDO SINALOA","Address":"5975 Atlantic Blvd","City":"Maywood","State":"CA","Zip":"90270"},{"Location":"MAYWOOD HEALTH CARE","Address":"6025 Pine Ave","City":"Maywood","State":"CA","Zip":"90270"},{"Location":"MAYWOOD MARKET","Address":"4027 Slauson Ave","City":"Maywood","State":"CA","Zip":"90270"},{"Location":"MAYWOOD TIRE SERVICE INC","Address":"3500 Slauson Ave","City":"Maywood","State":"CA","Zip":"90270"},{"Location":"MERENDERO TROPICAL","Address":"4944 Slauson Ave","City":"Maywood","State":"CA","Zip":"90270"},{"Location":"MVP  BARBER SHOP","Address":"4535 Slauson Ave","City":"Maywood","State":"CA","Zip":"90270"},{"Location":"PRO STOP","Address":"6012 Atlantic Blvd","City":"Maywood","State":"CA","Zip":"90270"},{"Location":"SUMMER DENTAL GROUP","Address":"4201 Slauson Ave","City":"Maywood","State":"CA","Zip":"90270"},{"Location":"THE HOUSE LOUNGE","Address":"3626 Fruitland Ave","City":"Maywood","State":"CA","Zip":"90270"},{"Location":"THE RED WOOD ROOM","Address":"4533 Slauson Ave","City":"Maywood","State":"CA","Zip":"90270"},{"Location":"TRANSPORTES REAL DE MINAS","Address":"5614 Atlantic Blvd","City":"Maywood","State":"CA","Zip":"90270"},{"Location":"WABA GRILL MAYWOOD","Address":"4432 Slauson Ave","City":"Maywood","State":"CA","Zip":"90270"}]