[{"Location":"ADMIRAL RESTAURANT","Address":"31250 Palos Verdes Dr W","City":"Palos Verdes Estates","State":"CA","Zip":"90275"},{"Location":"","Address":"1 Trump National Dr","City":"Rancho Palos Verdes","State":"CA","Zip":"90275"},{"Location":"ANNETT LENNENAN","Address":"5300 Crest Rd","City":"Rancho Palos Verdes","State":"CA","Zip":"90275"},{"Location":"AVENUE ITALY","Address":"31243 Palos Verdes Dr W","City":"Rancho Palos Verdes","State":"CA","Zip":"90275"},{"Location":"AZTECA RESTAURANT","Address":"28643 S Western Ave","City":"Rancho Palos Verdes","State":"CA","Zip":"90275"},{"Location":"BROILER EXPRESS","Address":"29035 S Western Ave","City":"Rancho Palos Verdes","State":"CA","Zip":"90275"},{"Location":"CALIFORNIA WATER SERVICE CO","Address":"5837 Crest Rd","City":"Rancho Palos Verdes","State":"CA","Zip":"90275"},{"Location":"COASTAL PHYSICIANS GROUP","Address":"29409 S Western Ave","City":"Rancho Palos Verdes","State":"CA","Zip":"90275"},{"Location":"CRYSTAL NAILS","Address":"29050 S Western Ave 122","City":"Rancho Palos Verdes","State":"CA","Zip":"90275"},{"Location":"DAUGHTERS OF MARY AND JO","Address":"5300 Crest Rd","City":"Rancho Palos Verdes","State":"CA","Zip":"90275"},{"Location":"DOMENICKS PIZZA HOUSE","Address":"28360 S Western Ave","City":"Rancho Palos Verdes","State":"CA","Zip":"90275"},{"Location":"ELEGANT NAILS AND SPA","Address":"28372 S Western Ave","City":"Rancho Palos Verdes","State":"CA","Zip":"90275"},{"Location":"EMILYS CLEANERS","Address":"28386 S Western Ave","City":"Rancho Palos Verdes","State":"CA","Zip":"90275"},{"Location":"ESTELITA TORRES MD","Address":"29701 S Western Ave 102","City":"Rancho Palos Verdes","State":"CA","Zip":"90275"},{"Location":"EXCEL FUNDING","Address":"28924 S Western Ave 100","City":"Rancho Palos Verdes","State":"CA","Zip":"90275"},{"Location":"GEGES INC","Address":"29601 S Western Ave","City":"Rancho Palos Verdes","State":"CA","Zip":"90275"},{"Location":"GREEN HILLS MEMORIAL PARK","Address":"27501 S Western Ave","City":"Rancho Palos Verdes","State":"CA","Zip":"90275"},{"Location":"LOS VERDES GOLF COURSE","Address":"7000 Los Verdes Dr","City":"Rancho Palos Verdes","State":"CA","Zip":"90275"},{"Location":"LOVE SUSHI PV","Address":"299221 S Western Ave","City":"Rancho Palos Verdes","State":"CA","Zip":"90275"},{"Location":"NICCOLOS ITALIAN","Address":"29113 S Western Ave","City":"Rancho Palos Verdes","State":"CA","Zip":"90275"},{"Location":"PALOS VERDES PHYSICAL THERAPY","Address":"28924 S Western Ave 101","City":"Rancho Palos Verdes","State":"CA","Zip":"90275"},{"Location":"PAVICH'S BRINK OVEN PIZZA","Address":"29701 S Western Ave","City":"Rancho Palos Verdes","State":"CA","Zip":"90275"},{"Location":"PUMARIN THAI CUSINE","Address":"28368 S Western Ave","City":"Rancho Palos Verdes","State":"CA","Zip":"90275"},{"Location":"SOULFUL SHEARS","Address":"28725 S Western Ave","City":"Rancho Palos Verdes","State":"CA","Zip":"90275"},{"Location":"STUFT PIZZA","Address":"28635 S Western Ave","City":"Rancho Palos Verdes","State":"CA","Zip":"90275"},{"Location":"TAXCO MEXICAN RESTAURANT","Address":"29050 S Western Ave 154","City":"Rancho Palos Verdes","State":"CA","Zip":"90275"},{"Location":"TERRANEA RESORT","Address":"100 Terranea Way","City":"Rancho Palos Verdes","State":"CA","Zip":"90275"},{"Location":"TOP WOK","Address":"29505 S Western Ave 103","City":"Rancho Palos Verdes","State":"CA","Zip":"90275"},{"Location":"HIGHRIDGE CAR WASH","Address":"27774 Hawthorne Blvd","City":"Rch Palos Vrd","State":"CA","Zip":"90275"},{"Location":"MERRILL LYNCH CA8-804-01-01","Address":"550 Silver Spur Rd","City":"Rolling Hills Estates","State":"CA","Zip":"90275"},{"Location":"NEW SPARK HOLDINGS%2C INC.","Address":"580 Silver Spur Rd","City":"Rolling Hills Estates","State":"CA","Zip":"90275"}]