[{"Location":"225  AVE  I  L  P","Address":"225 Avenue I 300","City":"Redondo Beach","State":"CA","Zip":"90277"},{"Location":"A WOMANS TOUCH PAINTING","Address":"132 Palos Verdes Blvd 1","City":"Redondo Beach","State":"CA","Zip":"90277"},{"Location":"AMERICAN LEGION POST 184","Address":"412 Camino Real","City":"Redondo Beach","State":"CA","Zip":"90277"},{"Location":"ANTIQUE CORRAL INC","Address":"145 S Pacific Coast Hwy","City":"Redondo Beach","State":"CA","Zip":"90277"},{"Location":"AVENUE A BAR AND GRILL","Address":"800 S Pch Hwy","City":"Redondo Beach","State":"CA","Zip":"90277"},{"Location":"BARNEYS BEANERY","Address":"100 Fishermans Wharf H","City":"Redondo Beach","State":"CA","Zip":"90277"},{"Location":"BEACH DISTRICT SURGERY CENTER","Address":"514 N Prospect Ave 100","City":"Redondo Beach","State":"CA","Zip":"90277"},{"Location":"BLISS & GLENNON","Address":"435 N Pacific Coast Hwy","City":"Redondo Beach","State":"CA","Zip":"90277"},{"Location":"BLUE WATER GRILL","Address":"665 N Harbor Dr","City":"Redondo Beach","State":"CA","Zip":"90277"},{"Location":"BODY ONE FITNESS","Address":"201 Herondo St 100","City":"Redondo Beach","State":"CA","Zip":"90277"},{"Location":"BUCA DI BEPPO #505","Address":"1670 S Pacific Coast Hwy","City":"Redondo Beach","State":"CA","Zip":"90277"},{"Location":"CENTER FOR HEALTH & HEALING","Address":"514 N Prospect Ave 2ndfl","City":"Redondo Beach","State":"CA","Zip":"90277"},{"Location":"CHARLIES","Address":"601 N Pacific Coast Hwy","City":"Redondo Beach","State":"CA","Zip":"90277"},{"Location":"CHART HOUSE 0150","Address":"231 Yacht Club Way","City":"Redondo Beach","State":"CA","Zip":"90277"},{"Location":"CHEZ MELANGE","Address":"1611 S Catalina Ave","City":"Redondo Beach","State":"CA","Zip":"90277"},{"Location":"COZY CAFE","Address":"307 S Pacific Coast Hwy","City":"Redondo Beach","State":"CA","Zip":"90277"},{"Location":"CREME DE LA CREPE 2","Address":"1708 S Catalina Ave","City":"Redondo Beach","State":"CA","Zip":"90277"},{"Location":"CUTE CUTS HAIR STUDIO","Address":"1926 S Pacific Coast Hwy","City":"Redondo Beach","State":"CA","Zip":"90277"},{"Location":"DIVERSIFIED DEVELOPMENT","Address":"116 S Catalina Ave 255","City":"Redondo Beach","State":"CA","Zip":"90277"},{"Location":"EL TACO","Address":"1402 S Pacific Coast Hwy","City":"Redondo Beach","State":"CA","Zip":"90277"},{"Location":"EL TORITO 7011","Address":"100 Fishermans Wharf G","City":"Redondo Beach","State":"CA","Zip":"90277"},{"Location":"ELLE MARIE SPA SALON","Address":"524 S Pacific Coast Hwy","City":"Redondo Beach","State":"CA","Zip":"90277"},{"Location":"EXODUS RECOVERY","Address":"923 S Catalina Ave","City":"Redondo Beach","State":"CA","Zip":"90277"},{"Location":"FAIRDAH SALON","Address":"1702 S Elena Ave A","City":"Redondo Beach","State":"CA","Zip":"90277"},{"Location":"FIRESTONE 003921","Address":"500 N Pacific Coast Hwy","City":"Redondo Beach","State":"CA","Zip":"90277"},{"Location":"FLYIN FIN SUSHI AND SEAFOOD","Address":"1727 S Catalina Ave","City":"Redondo Beach","State":"CA","Zip":"90277"},{"Location":"FOSS MARITIME COMPANY","Address":"161 N Harbor Dr","City":"Redondo Beach","State":"CA","Zip":"90277"},{"Location":"FRESH BROTHERS","Address":"407 N Pch Hwy 100","City":"Redondo Beach","State":"CA","Zip":"90277"},{"Location":"H T GRILL","Address":"1701 S Catalina Ave","City":"Redondo Beach","State":"CA","Zip":"90277"},{"Location":"HAIR BY KC","Address":"800 S Pacific Coast Hwy","City":"Redondo Beach","State":"CA","Zip":"90277"},{"Location":"HENNESSY'S TAVERN","Address":"1712 S Catalina Ave","City":"Redondo Beach","State":"CA","Zip":"90277"},{"Location":"HOUSE OF CIGARS AND LIQ","Address":"400 S Pacific Coast Hwy","City":"Redondo Beach","State":"CA","Zip":"90277"},{"Location":"HYDRO CLEAN AIR","Address":"541 N Pacific Coast Hwy A","City":"Redondo Beach","State":"CA","Zip":"90277"},{"Location":"JCS #0700 - REDONDO","Address":"230 Portofino Way","City":"Redondo Beach","State":"CA","Zip":"90277"},{"Location":"JERSEY MIKES SUBS","Address":"561 N Pacific Coast Hwy","City":"Redondo Beach","State":"CA","Zip":"90277"},{"Location":"KHYC.ORG","Address":"280 Yacht Club Way","City":"Redondo Beach","State":"CA","Zip":"90277"},{"Location":"KINCIDS","Address":"500 Fishermans Wharf","City":"Redondo Beach","State":"CA","Zip":"90277"},{"Location":"L AND L HAWAIIAN BBQ","Address":"1821 S Catalina Ave","City":"Redondo Beach","State":"CA","Zip":"90277"},{"Location":"LA LUPITA MEXICAN GRILL","Address":"234 S Pacific Coast Hwy","City":"Redondo Beach","State":"CA","Zip":"90277"},{"Location":"LOLLIPOP A CHILDRENS BOUTIQUE","Address":"1813 S Catalina Ave","City":"Redondo Beach","State":"CA","Zip":"90277"},{"Location":"LTS INC","Address":"220 S Pacific Coast Hwy 110","City":"Redondo Beach","State":"CA","Zip":"90277"},{"Location":"MICHAEL TRUJILLO SALON","Address":"1903 S Catalina Ave","City":"Redondo Beach","State":"CA","Zip":"90277"},{"Location":"MICKIE FINNZ","Address":"1710 S Catalina Ave 1","City":"Redondo Beach","State":"CA","Zip":"90277"},{"Location":"NAILS AND HAIR CALIFORNI","Address":"616 Torrance Blvd","City":"Redondo Beach","State":"CA","Zip":"90277"},{"Location":"NAJAS PLACE","Address":"154 Internatl Boardwalk","City":"Redondo Beach","State":"CA","Zip":"90277"},{"Location":"NATURAL VICTORY","Address":"215 Avenue I","City":"Redondo Beach","State":"CA","Zip":"90277"},{"Location":"ON THE ROCKS","Address":"239 N Harbor Dr","City":"Redondo Beach","State":"CA","Zip":"90277"},{"Location":"ORIENTAL  BREEZE","Address":"207 Fishermans Wharf","City":"Redondo Beach","State":"CA","Zip":"90277"},{"Location":"PATS","Address":"1312 S Pch Hwy","City":"Redondo Beach","State":"CA","Zip":"90277"},{"Location":"PERSAUNA SPA","Address":"1650 S Pacific Coast Hwy 100","City":"Redondo Beach","State":"CA","Zip":"90277"},{"Location":"PITCHER HOUSE UPPER DECK","Address":"409 N Pacific Coast Hwy","City":"Redondo Beach","State":"CA","Zip":"90277"},{"Location":"PORT ROYAL YACHT CLUB","Address":"555 N Harbor Dr","City":"Redondo Beach","State":"CA","Zip":"90277"},{"Location":"PORTOFINO HOTEL & YACHT CLUB","Address":"260 Portofino Way","City":"Redondo Beach","State":"CA","Zip":"90277"},{"Location":"PORTOFINO HTL & YACHT CLUB-TRP","Address":"260 Portofino Way","City":"Redondo Beach","State":"CA","Zip":"90277"},{"Location":"R10 SOCIAL HOUSE","Address":"179 N Harbor Dr","City":"Redondo Beach","State":"CA","Zip":"90277"},{"Location":"RAGIN CAJUN CAFE REDONDO","Address":"525 S Pacific Coast Hwy","City":"Redondo Beach","State":"CA","Zip":"90277"},{"Location":"RB MARINA GROUP LLC","Address":"209 N Harbor Dr","City":"Redondo Beach","State":"CA","Zip":"90277"},{"Location":"RED CHOP STICKS","Address":"561 N Pacific Coast Hwy","City":"Redondo Beach","State":"CA","Zip":"90277"},{"Location":"REDONDO BARBERSHOP","Address":"201 S Pacific Coast Hwy","City":"Redondo Beach","State":"CA","Zip":"90277"},{"Location":"REDONDO BCH FIREFIGHTERS ASSOC","Address":"280 Marina Way","City":"Redondo Beach","State":"CA","Zip":"90277"},{"Location":"REDONDO BEACH BREWING COMPANY","Address":"1814 S Catalina Ave","City":"Redondo Beach","State":"CA","Zip":"90277"},{"Location":"REDONDO BEACH CRAB HOUSE","Address":"100 Fishermans Wharf F","City":"Redondo Beach","State":"CA","Zip":"90277"},{"Location":"REDONDO BEACH ELKS INC","Address":"315 Esplanade","City":"Redondo Beach","State":"CA","Zip":"90277"},{"Location":"REDONDO BEACH MOOSE #1873","Address":"516 N Pacific Coast Hwy","City":"Redondo Beach","State":"CA","Zip":"90277"},{"Location":"REDONDO BEACH POLICE","Address":"401 Diamond St","City":"Redondo Beach","State":"CA","Zip":"90277"},{"Location":"REDONDO PLUMBING CO","Address":"508 N Pacific Coast Hwy","City":"Redondo Beach","State":"CA","Zip":"90277"},{"Location":"RINALDIS ITALIAN DELI","Address":"308 Avenue I","City":"Redondo Beach","State":"CA","Zip":"90277"},{"Location":"ROBERT E CORTNEY","Address":"120 Fishermans Wharf","City":"Redondo Beach","State":"CA","Zip":"90277"},{"Location":"ROCK AND BREWS","Address":"6300 S Pacific Coast Hwy","City":"Redondo Beach","State":"CA","Zip":"90277"},{"Location":"SALS PLUMBING INC","Address":"713 S Pacific Coast Hwy J","City":"Redondo Beach","State":"CA","Zip":"90277"},{"Location":"SAMBA BRAZILIAN STEAKHOUSE","Address":"207 N Harbor Dr","City":"Redondo Beach","State":"CA","Zip":"90277"},{"Location":"SECOND SOUTHERN CORP.","Address":"149 Palos Verdes Blvd G","City":"Redondo Beach","State":"CA","Zip":"90277"},{"Location":"SILVERADO SENIOR LIVING","Address":"514 N Prospect Ave","City":"Redondo Beach","State":"CA","Zip":"90277"},{"Location":"SKM SYSTEMS ANAYLSIS INC","Address":"1 Pearl St","City":"Redondo Beach","State":"CA","Zip":"90277"},{"Location":"SKYLINE LOUNGE","Address":"1622 S Pacific Coast Hwy","City":"Redondo Beach","State":"CA","Zip":"90277"},{"Location":"SOPHIES PLACE","Address":"1708 S Catalina Ave","City":"Redondo Beach","State":"CA","Zip":"90277"},{"Location":"SPECTRUM CLUB","Address":"819 N Harbor Dr","City":"Redondo Beach","State":"CA","Zip":"90277"},{"Location":"SPIERER WOODWARD CORBALIS","Address":"707 Torrance Blvd 200","City":"Redondo Beach","State":"CA","Zip":"90277"},{"Location":"STEEL PARTNERS","Address":"417 Paseo De La Playa","City":"Redondo Beach","State":"CA","Zip":"90277"},{"Location":"TAPAS & VINO","Address":"1729 S Catalina Ave","City":"Redondo Beach","State":"CA","Zip":"90277"},{"Location":"TEMPLE MENORAH","Address":"1101 Camino Real","City":"Redondo Beach","State":"CA","Zip":"90277"},{"Location":"THE AVENUE HAIR STUDIO","Address":"201 Avenue I","City":"Redondo Beach","State":"CA","Zip":"90277"},{"Location":"THE BULL PEN RESTAURANT","Address":"314 Avenue I","City":"Redondo Beach","State":"CA","Zip":"90277"},{"Location":"THE CHEESECAKE FACTORY 0003","Address":"605 N Harbor Dr","City":"Redondo Beach","State":"CA","Zip":"90277"},{"Location":"TIDE POOL VENTURES CORP","Address":"326 S Pacific Coast Hwy 207","City":"Redondo Beach","State":"CA","Zip":"90277"},{"Location":"TONYS ON THE PIER INC","Address":"210 Fishermans Wharf","City":"Redondo Beach","State":"CA","Zip":"90277"},{"Location":"WS CHINA BISTRO","Address":"1410 S Pacific Coast Hwy","City":"Redondo Beach","State":"CA","Zip":"90277"},{"Location":"ZAZOU","Address":"1810 S Catalina Ave","City":"Redondo Beach","State":"CA","Zip":"90277"},{"Location":"ZEPPYS PIZZA ON THE PIER","Address":"203 Fishermans Wharf 5","City":"Redondo Beach","State":"CA","Zip":"90277"}]