[{"Location":"WINFIELD HOLDINGS LLC","Address":"205 Chaucauqua Way","City":"Pacific Palisade","State":"CA","Zip":"90272"},{"Location":"ARYA GROUP","Address":"1514 San Remo Dr","City":"Pacific Palisades","State":"CA","Zip":"90272"},{"Location":"BANC OF CALIFORNIA","Address":"530 Palisades Dr","City":"Pacific Palisades","State":"CA","Zip":"90272"},{"Location":"BEL AIR BAY CLUB","Address":"16800 Pacific Coast Hwy","City":"Pacific Palisades","State":"CA","Zip":"90272"},{"Location":"BRENTWOOD CIRCLE HOA","Address":"1515 Palisades Dr B","City":"Pacific Palisades","State":"CA","Zip":"90272"},{"Location":"CHAUTAUQUA PALISADES LLC","Address":"692 Chautauqua Blvd","City":"Pacific Palisades","State":"CA","Zip":"90272"},{"Location":"CINRAM","Address":"860 Via De La Paz F4","City":"Pacific Palisades","State":"CA","Zip":"90272"},{"Location":"CLAVIUS BASE INC","Address":"948 Corsica Dr","City":"Pacific Palisades","State":"CA","Zip":"90272"},{"Location":"ES PLAYHOUSE","Address":"1021 Swarthmore Ave","City":"Pacific Palisades","State":"CA","Zip":"90272"},{"Location":"EUROTAILING & BOUTIQUE","Address":"843 Via De La Paz","City":"Pacific Palisades","State":"CA","Zip":"90272"},{"Location":"GIBSON INTERNATIONAL","Address":"15207 W Sunset Blvd A","City":"Pacific Palisades","State":"CA","Zip":"90272"},{"Location":"GLADSTONE'S","Address":"17300 Pacific Coast Hwy","City":"Pacific Palisades","State":"CA","Zip":"90272"},{"Location":"GOLF MAINTENANCE","Address":"1250 Capri Dr","City":"Pacific Palisades","State":"CA","Zip":"90272"},{"Location":"HOUSE DUES TWENTY THREE","Address":"17281 W Sunset Blvd","City":"Pacific Palisades","State":"CA","Zip":"90272"},{"Location":"JINAK CORP","Address":"15231 La Cruz Dr","City":"Pacific Palisades","State":"CA","Zip":"90272"},{"Location":"JOHNSON AND HARBAND CPA","Address":"15200 W Sunset Blvd 203","City":"Pacific Palisades","State":"CA","Zip":"90272"},{"Location":"LACHMAN LANE LLC","Address":"1167 Lachman Ln","City":"Pacific Palisades","State":"CA","Zip":"90272"},{"Location":"MOKU SUSHI","Address":"524 Palisades Dr","City":"Pacific Palisades","State":"CA","Zip":"90272"},{"Location":"MORGAN STANLEY 100238","Address":"860 Via De La Paz","City":"Pacific Palisades","State":"CA","Zip":"90272"},{"Location":"OPTIMIS SPORT PT","Address":"15200 W Sunset Blvd 111","City":"Pacific Palisades","State":"CA","Zip":"90272"},{"Location":"PACIFIC PALISADES PRESBYE","Address":"15821 W Sunset Blvd","City":"Pacific Palisades","State":"CA","Zip":"90272"},{"Location":"PALISADES BARBERSHOP","Address":"15322 Antioch St","City":"Pacific Palisades","State":"CA","Zip":"90272"},{"Location":"PALISADES COMPOUND PHARMACY","Address":"540 Palisades Dr","City":"Pacific Palisades","State":"CA","Zip":"90272"},{"Location":"PALISADES HOA-1","Address":"1439 Palisades Dr","City":"Pacific Palisades","State":"CA","Zip":"90272"},{"Location":"PALISADES PICTURES FRAMI","Address":"15125 W Sunset Blvd","City":"Pacific Palisades","State":"CA","Zip":"90272"},{"Location":"REGAL CLEANERS","Address":"881 Via De La Paz","City":"Pacific Palisades","State":"CA","Zip":"90272"},{"Location":"RONNYS MARKET & LIQUOR","Address":"16642 Marquez Ave","City":"Pacific Palisades","State":"CA","Zip":"90272"},{"Location":"ROSAL FILMS INC","Address":"749 Amalfi Dr","City":"Pacific Palisades","State":"CA","Zip":"90272"},{"Location":"SEAT OF MY PANTS","Address":"306 Bellino Dr","City":"Pacific Palisades","State":"CA","Zip":"90272"},{"Location":"SPECTRUM CLUB-PACIFIC PA","Address":"17383 W Sunset Blvd","City":"Pacific Palisades","State":"CA","Zip":"90272"},{"Location":"STEIN REAL ESTATE GROUP","Address":"767 El Medio Ave","City":"Pacific Palisades","State":"CA","Zip":"90272"},{"Location":"TASTE","Address":"538 Palisades Dr","City":"Pacific Palisades","State":"CA","Zip":"90272"},{"Location":"THE MAX IMPACT FITNESS","Address":"16632 1%2F2 Marquez Ave","City":"Pacific Palisades","State":"CA","Zip":"90272"},{"Location":"THE RIVERA COUNTRY CLUB","Address":"1250 Capri Dr","City":"Pacific Palisades","State":"CA","Zip":"90272"},{"Location":"THE RIVIERA COUNTRY CLUB #3","Address":"1250 Capri Dr","City":"Pacific Palisades","State":"CA","Zip":"90272"},{"Location":"THE RIVIERA COUNTRY CLUB #4","Address":"1250 Capri Dr","City":"Pacific Palisades","State":"CA","Zip":"90272"},{"Location":"TIVOLI","Address":"15306 W Sunset Blvd","City":"Pacific Palisades","State":"CA","Zip":"90272"},{"Location":"VIA ALPHA 11 LLC","Address":"1112 Via De La Paz","City":"Pacific Palisades","State":"CA","Zip":"90272"},{"Location":"NANDO SYLVESTRI","Address":"15415 W Sunset Blvd 215b","City":"Pacific Plsds","State":"CA","Zip":"90272"},{"Location":"PAWS & CLAWS GROOMING","Address":"16634 Marquez Ave","City":"Pacific Plsds","State":"CA","Zip":"90272"},{"Location":"SAMSON INC","Address":"1331 Monument St","City":"Pacific Plsds","State":"CA","Zip":"90272"},{"Location":"WINFIELD HOLDINGS LLC","Address":"205 Chaucauqua Way","City":"Pacific Palisade","State":"CA","Zip":"90272"},{"Location":"ARYA GROUP","Address":"1514 San Remo Dr","City":"Pacific Palisades","State":"CA","Zip":"90272"},{"Location":"BANC OF CALIFORNIA","Address":"530 Palisades Dr","City":"Pacific Palisades","State":"CA","Zip":"90272"},{"Location":"BEL AIR BAY CLUB","Address":"16801 Pacific Coast Hwy","City":"Pacific Palisades","State":"CA","Zip":"90272"},{"Location":"BRENTWOOD CIRCLE HOA","Address":"1515 Palisades Dr B","City":"Pacific Palisades","State":"CA","Zip":"90272"},{"Location":"CHAUTAUQUA PALISADES LLC","Address":"692 Chautauqua Blvd","City":"Pacific Palisades","State":"CA","Zip":"90272"},{"Location":"CINRAM","Address":"860 Via De La Paz F4","City":"Pacific Palisades","State":"CA","Zip":"90272"},{"Location":"CLAVIUS BASE INC","Address":"948 Corsica Dr","City":"Pacific Palisades","State":"CA","Zip":"90272"},{"Location":"ES PLAYHOUSE","Address":"1021 Swarthmore Ave","City":"Pacific Palisades","State":"CA","Zip":"90272"},{"Location":"EUROTAILING & BOUTIQUE","Address":"843 Via De La Paz","City":"Pacific Palisades","State":"CA","Zip":"90272"},{"Location":"GIBSON INTERNATIONAL","Address":"15207 W Sunset Blvd A","City":"Pacific Palisades","State":"CA","Zip":"90272"},{"Location":"GLADSTONE'S","Address":"17300 Pacific Coast Hwy","City":"Pacific Palisades","State":"CA","Zip":"90272"},{"Location":"GOLF MAINTENANCE","Address":"1250 Capri Dr","City":"Pacific Palisades","State":"CA","Zip":"90272"},{"Location":"HOUSE DUES TWENTY THREE","Address":"17281 W Sunset Blvd","City":"Pacific Palisades","State":"CA","Zip":"90272"},{"Location":"JINAK CORP","Address":"15231 La Cruz Dr","City":"Pacific Palisades","State":"CA","Zip":"90272"},{"Location":"JOHNSON AND HARBAND CPA","Address":"15200 W Sunset Blvd 203","City":"Pacific Palisades","State":"CA","Zip":"90272"},{"Location":"LACHMAN LANE LLC","Address":"1167 Lachman Ln","City":"Pacific Palisades","State":"CA","Zip":"90272"},{"Location":"MOKU SUSHI","Address":"524 Palisades Dr","City":"Pacific Palisades","State":"CA","Zip":"90272"},{"Location":"MORGAN STANLEY 100238","Address":"860 Via De La Paz","City":"Pacific Palisades","State":"CA","Zip":"90272"},{"Location":"OPTIMIS SPORT PT","Address":"15200 W Sunset Blvd 111","City":"Pacific Palisades","State":"CA","Zip":"90272"},{"Location":"PACIFIC PALISADES PRESBYE","Address":"15821 W Sunset Blvd","City":"Pacific Palisades","State":"CA","Zip":"90272"},{"Location":"PALISADES BARBERSHOP","Address":"15322 Antioch St","City":"Pacific Palisades","State":"CA","Zip":"90272"},{"Location":"PALISADES COMPOUND PHARMACY","Address":"540 Palisades Dr","City":"Pacific Palisades","State":"CA","Zip":"90272"},{"Location":"PALISADES HOA-1","Address":"1439 Palisades Dr","City":"Pacific Palisades","State":"CA","Zip":"90272"},{"Location":"PALISADES PICTURES FRAMI","Address":"15125 W Sunset Blvd","City":"Pacific Palisades","State":"CA","Zip":"90272"},{"Location":"REGAL CLEANERS","Address":"881 Via De La Paz","City":"Pacific Palisades","State":"CA","Zip":"90272"},{"Location":"RONNYS MARKET & LIQUOR","Address":"16642 Marquez Ave","City":"Pacific Palisades","State":"CA","Zip":"90272"},{"Location":"ROSAL FILMS INC","Address":"749 Amalfi Dr","City":"Pacific Palisades","State":"CA","Zip":"90272"},{"Location":"SEAT OF MY PANTS","Address":"306 Bellino Dr","City":"Pacific Palisades","State":"CA","Zip":"90272"},{"Location":"SPECTRUM CLUB-PACIFIC PA","Address":"17383 W Sunset Blvd","City":"Pacific Palisades","State":"CA","Zip":"90272"},{"Location":"STEIN REAL ESTATE GROUP","Address":"767 El Medio Ave","City":"Pacific Palisades","State":"CA","Zip":"90272"},{"Location":"TASTE","Address":"538 Palisades Dr","City":"Pacific Palisades","State":"CA","Zip":"90272"},{"Location":"THE MAX IMPACT FITNESS","Address":"16632 1%2F2 Marquez Ave","City":"Pacific Palisades","State":"CA","Zip":"90272"},{"Location":"THE RIVERA COUNTRY CLUB","Address":"1250 Capri Dr","City":"Pacific Palisades","State":"CA","Zip":"90272"},{"Location":"THE RIVIERA COUNTRY CLUB #3","Address":"1250 Capri Dr","City":"Pacific Palisades","State":"CA","Zip":"90272"},{"Location":"THE RIVIERA COUNTRY CLUB #4","Address":"1250 Capri Dr","City":"Pacific Palisades","State":"CA","Zip":"90272"},{"Location":"TIVOLI","Address":"15306 W Sunset Blvd","City":"Pacific Palisades","State":"CA","Zip":"90272"},{"Location":"VIA ALPHA 11 LLC","Address":"1112 Via De La Paz","City":"Pacific Palisades","State":"CA","Zip":"90272"},{"Location":"NANDO SYLVESTRI","Address":"15415 W Sunset Blvd 215b","City":"Pacific Plsds","State":"CA","Zip":"90272"},{"Location":"PAWS & CLAWS GROOMING","Address":"16634 Marquez Ave","City":"Pacific Plsds","State":"CA","Zip":"90272"},{"Location":"SAMSON INC","Address":"1331 Monument St","City":"Pacific Plsds","State":"CA","Zip":"90272"}]