[{"Location":"HGS MANAGEMENT LLC","Address":"4057 Via Opata","City":"Palos Verdes Estates","State":"CA","Zip":"90274"},{"Location":"IMBACH  SCOTT","Address":"408 Via Almar","City":"Palos Verdes Estates","State":"CA","Zip":"90274"},{"Location":"MALAGA COVE RANCH MARKET","Address":"43 Malaga Cove Plz","City":"Palos Verdes Estates","State":"CA","Zip":"90274"},{"Location":"PALES VERDES BEACH & ATHLETIC","Address":"389 Paseo Del Mar","City":"Palos Verdes Estates","State":"CA","Zip":"90274"},{"Location":"PALOS VERDES GOLF CLUB","Address":"3301 Via Campesina","City":"Palos Verdes Estates","State":"CA","Zip":"90274"},{"Location":"RAFFAELLO'S PIZZA","Address":"720 Yarmouth Rd","City":"Palos Verdes Estates","State":"CA","Zip":"90274"},{"Location":"THE BOWLS BOYS CLUBHOUSE","Address":"600 Cloyden Rd","City":"Palos Verdes Estates","State":"CA","Zip":"90274"},{"Location":"THECOPI COMPANY","Address":"2516 Via Tejon","City":"Palos Verdes Estates","State":"CA","Zip":"90274"},{"Location":"TRACE WORLDWIDE","Address":"421 Via Chico","City":"Palos Verdes Estates","State":"CA","Zip":"90274"},{"Location":"WINK WORK TESSLER GROUP","Address":"27 Malaga Cove Plz","City":"Palos Verdes Estates","State":"CA","Zip":"90274"},{"Location":"FARMERS & MERCHANTS BANK","Address":"27525 Indian Peak Rd","City":"Palos Verdes Peninsula","State":"CA","Zip":"90274"},{"Location":"HSBC BANK #819878","Address":"449 Silver Spur Rd","City":"Palos Verdes Peninsula","State":"CA","Zip":"90274"},{"Location":"USPS - PALOS VERDES","Address":"955 Deep Valley Dr","City":"Palos Verdes Peninsula","State":"CA","Zip":"90274"},{"Location":"FANTASTIC SAMS","Address":"411 Silver Spur Rd","City":"Pls Vrds Pnsl","State":"CA","Zip":"90274"},{"Location":"","Address":"4711 Sugarhill Dr","City":"Rolling Hills Estates","State":"CA","Zip":"90274"},{"Location":"CTW CUTS INC.","Address":"891 Silver Spur Rd","City":"Rolling Hills Estates","State":"CA","Zip":"90274"},{"Location":"EMPTY SADDLE CLUB","Address":"39 Empty Saddle Rd","City":"Rolling Hills Estates","State":"CA","Zip":"90274"},{"Location":"FIRST CUT SALON","Address":"550 Deep Valley Dr 103","City":"Rolling Hills Estates","State":"CA","Zip":"90274"},{"Location":"FOREVER FIT","Address":"912 Silver Spur Rd","City":"Rolling Hills Estates","State":"CA","Zip":"90274"},{"Location":"KARME","Address":"50 Peninsula Ctr B","City":"Rolling Hills Estates","State":"CA","Zip":"90274"},{"Location":"KELLYS CORNER","Address":"26947 Rolling Hills Rd","City":"Rolling Hills Estates","State":"CA","Zip":"90274"},{"Location":"LUNA ROSSA","Address":"550 Deep Valley Dr 265","City":"Rolling Hills Estates","State":"CA","Zip":"90274"},{"Location":"RED BRICK PIZZA","Address":"550 Deep Valley Dr 141a","City":"Rolling Hills Estates","State":"CA","Zip":"90274"},{"Location":"REGUS MANAGEMENT GROUP L","Address":"609 Deep Valley Dr 200","City":"Rolling Hills Estates","State":"CA","Zip":"90274"},{"Location":"ROLLING HILLS CC","Address":"27000 Palos Verdes Dr E","City":"Rolling Hills Estates","State":"CA","Zip":"90274"},{"Location":"ROLLING HILLS COUNTRY CLUB","Address":"27000 Palos Verdes Dr E","City":"Rolling Hills Estates","State":"CA","Zip":"90274"},{"Location":"RUBY'S DINER","Address":"550 Deep Valley Dr","City":"Rolling Hills Estates","State":"CA","Zip":"90274"},{"Location":"SMITH BARNEY 100184","Address":"609 Deep Valley Dr 400","City":"Rolling Hills Estates","State":"CA","Zip":"90274"},{"Location":"SPECTRUM CLUB ROLLING HILLS","Address":"51 Peninsula Ctr 51d","City":"Rolling Hills Estates","State":"CA","Zip":"90274"},{"Location":"THE APPETIZER","Address":"700 Deep Valley Dr","City":"Rolling Hills Estates","State":"CA","Zip":"90274"},{"Location":"THE MAIL SHOP ETC","Address":"904 Silver Spur Rd","City":"Rolling Hills Estates","State":"CA","Zip":"90274"}]