[{"Location":"10811 CRENSHAW BLVD LLC","Address":"8141 Victoria Ave","City":"South Gate","State":"CA","Zip":"90280"},{"Location":"ACRES","Address":"11343 Pennsylvania Ave","City":"South Gate","State":"CA","Zip":"90280"},{"Location":"ACRES CA","Address":"2418 Glenwood Pl","City":"South Gate","State":"CA","Zip":"90280"},{"Location":"AMERICAN LEGION HOLYDALE PT723","Address":"11269 Garfield Ave","City":"South Gate","State":"CA","Zip":"90280"},{"Location":"ANGEL DE LA CRUZ","Address":"3010 Tweedy Blvd","City":"South Gate","State":"CA","Zip":"90280"},{"Location":"AR AUTO COLLISION","Address":"4954 Firestone Blvd","City":"South Gate","State":"CA","Zip":"90280"},{"Location":"ARENAS INSURANCE AGENCY","Address":"4343 Tweedy Blvd","City":"South Gate","State":"CA","Zip":"90280"},{"Location":"ARIA ENTERPRISES INC","Address":"4001 Firestone Blvd","City":"South Gate","State":"CA","Zip":"90280"},{"Location":"ASTRO ALUMINUM TREATING","Address":"11125 Palmer Ave","City":"South Gate","State":"CA","Zip":"90280"},{"Location":"AZTLAN BOXING CENTER","Address":"10920 Garfield Ave C1","City":"South Gate","State":"CA","Zip":"90280"},{"Location":"BAIL BONDS GUYS","Address":"8621 California Ave","City":"South Gate","State":"CA","Zip":"90280"},{"Location":"BARBER AND BEAUTY SHOP","Address":"8935 California Ave","City":"South Gate","State":"CA","Zip":"90280"},{"Location":"BLUE DIAMOND MATERIALS","Address":"5625 Southern Ave","City":"South Gate","State":"CA","Zip":"90280"},{"Location":"BOGOS BURGERS","Address":"3265 Tweedy Blvd","City":"South Gate","State":"CA","Zip":"90280"},{"Location":"CDG ORTHODONIC CENTER","Address":"4354 Tweedy Blvd","City":"South Gate","State":"CA","Zip":"90280"},{"Location":"CENTRAL FAMILIA CRISTIANO","Address":"5792 Main St","City":"South Gate","State":"CA","Zip":"90280"},{"Location":"CHARLIE LYON PROPERTIES","Address":"4559 Firestone Blvd","City":"South Gate","State":"CA","Zip":"90280"},{"Location":"CISCO BARBERSHOP","Address":"9621 California Ave","City":"South Gate","State":"CA","Zip":"90280"},{"Location":"CLINICA MEDICA SAN MARCOS","Address":"3221 Liberty Blvd","City":"South Gate","State":"CA","Zip":"90280"},{"Location":"COFRADIA OUR LADY OF CHARITY","Address":"8640 State St","City":"South Gate","State":"CA","Zip":"90280"},{"Location":"COUSIMANOS PIZZA","Address":"3843 Tweedy Blvd","City":"South Gate","State":"CA","Zip":"90280"},{"Location":"DAETWEILER TIRE CO INC","Address":"10824 Saint James Ave","City":"South Gate","State":"CA","Zip":"90280"},{"Location":"DAMCO DISTRIBUTION  INC","Address":"5011 Firestone Pl","City":"South Gate","State":"CA","Zip":"90280"},{"Location":"DAMCO DISTRIBUTION INC 3","Address":"5011 Firestone Pl","City":"South Gate","State":"CA","Zip":"90280"},{"Location":"DIVERTY BARBER BEAUTY SHOP","Address":"8603 Long Beach Blvd","City":"South Gate","State":"CA","Zip":"90280"},{"Location":"DOCTORS & SURGEONS OF LA","Address":"3425 Firestone Blvd","City":"South Gate","State":"CA","Zip":"90280"},{"Location":"EL PESCADOR 8","Address":"9535 Long Beach Blvd","City":"South Gate","State":"CA","Zip":"90280"},{"Location":"EL PESCADOR REST. FIVE","Address":"9849 Atlantic Ave","City":"South Gate","State":"CA","Zip":"90280"},{"Location":"EL RINCONCITO RESTURANT","Address":"12017 Garfield Ave","City":"South Gate","State":"CA","Zip":"90280"},{"Location":"EL SOMBRERO","Address":"8920 State St","City":"South Gate","State":"CA","Zip":"90280"},{"Location":"FELIX ZIMAS BODY SHOP","Address":"3400 12 Firestone Blve","City":"South Gate","State":"CA","Zip":"90280"},{"Location":"FLORES INCOME TAX","Address":"10260 Atlantic Ave","City":"South Gate","State":"CA","Zip":"90280"},{"Location":"FRANCO AUTO SERVICE","Address":"3250 Santa Ana St","City":"South Gate","State":"CA","Zip":"90280"},{"Location":"FRATERNAL ORDER OF EAGLES","Address":"8100 Otis St","City":"South Gate","State":"CA","Zip":"90280"},{"Location":"GDL MEAT MARKET","Address":"5710 Imperial Hwy","City":"South Gate","State":"CA","Zip":"90280"},{"Location":"GERMAN & JAPENSE","Address":"13209 Paramount Blvd","City":"South Gate","State":"CA","Zip":"90280"},{"Location":"GIGI HOLLYDALE APPL","Address":"11918 Garfield Ave","City":"South Gate","State":"CA","Zip":"90280"},{"Location":"GLASS WERKS LA%2C INC.","Address":"8600 Rheem Ave","City":"South Gate","State":"CA","Zip":"90280"},{"Location":"GOALS SOCCER CENTER","Address":"9599 Pinehurst Ave","City":"South Gate","State":"CA","Zip":"90280"},{"Location":"GOLDEN EAGLE","Address":"8329 Long Beach Blvd","City":"South Gate","State":"CA","Zip":"90280"},{"Location":"GUADALAJARA MEAT MARKET","Address":"5848 Imperial Hwy","City":"South Gate","State":"CA","Zip":"90280"},{"Location":"HOOTERS SOUTHGATE","Address":"8730 Garfield Ave","City":"South Gate","State":"CA","Zip":"90280"},{"Location":"HOPS AND BARLEY ALEHOUSE INC","Address":"3905 Tweevy Blvd","City":"South Gate","State":"CA","Zip":"90280"},{"Location":"HORIZON INCOME TAX","Address":"4455 Tweedy Blvd","City":"South Gate","State":"CA","Zip":"90280"},{"Location":"IBERO AMERICA TAX SERVICE","Address":"8163 Seville Ave","City":"South Gate","State":"CA","Zip":"90280"},{"Location":"IGNACIOS AUTO REPAIR","Address":"10001 Jackson Ave","City":"South Gate","State":"CA","Zip":"90280"},{"Location":"IMPERIAL COLLISION CTR","Address":"11005 Garfield Pl","City":"South Gate","State":"CA","Zip":"90280"},{"Location":"J&W AUTO ACCESSORIES","Address":"13521 Paramount Blvd","City":"South Gate","State":"CA","Zip":"90280"},{"Location":"JORGE F CARREON LLC","Address":"4500 Tweedy Blvd","City":"South Gate","State":"CA","Zip":"90280"},{"Location":"JR SERVICE","Address":"5135 Firestone Pl","City":"South Gate","State":"CA","Zip":"90280"},{"Location":"KIDS FORUM","Address":"4523 Tweedy Blvd","City":"South Gate","State":"CA","Zip":"90280"},{"Location":"KING OF MODERN STYLE 1","Address":"9645 California Ave","City":"South Gate","State":"CA","Zip":"90280"},{"Location":"LA BARCA RESTAURANT","Address":"3501 Firestone Blvd","City":"South Gate","State":"CA","Zip":"90280"},{"Location":"LA BONITA","Address":"4086 Tweedy Blvd","City":"South Gate","State":"CA","Zip":"90280"},{"Location":"LA CURACAO","Address":"8618 Garfield Ave","City":"South Gate","State":"CA","Zip":"90280"},{"Location":"LA LIBERTAD 2","Address":"8427 Long Beach Blvd","City":"South Gate","State":"CA","Zip":"90280"},{"Location":"LA LIBERTAD MEDICAL CLINIC","Address":"8225 Long Beach Blvd","City":"South Gate","State":"CA","Zip":"90280"},{"Location":"LA PERLA DEL MAR","Address":"9536 Long Beach Blvd","City":"South Gate","State":"CA","Zip":"90280"},{"Location":"LA TAQUIZA DE DON CHUY","Address":"4149 Tweedy Blvd","City":"South Gate","State":"CA","Zip":"90280"},{"Location":"LA TARASCA","Address":"8204 Long Beach Blvd","City":"South Gate","State":"CA","Zip":"90280"},{"Location":"LA VAQUITA MINI MARKET","Address":"12101 Garfield Ave","City":"South Gate","State":"CA","Zip":"90280"},{"Location":"LARRYS LIQUOR STORE","Address":"3904 Tweedy Blvd","City":"South Gate","State":"CA","Zip":"90280"},{"Location":"LAS CABANAS DE SAN PEDRO","Address":"8109 California Ave","City":"South Gate","State":"CA","Zip":"90280"},{"Location":"LAS ENCHILATAS RESTAURANT","Address":"12019 Garfield Ave","City":"South Gate","State":"CA","Zip":"90280"},{"Location":"LAVISH LADYZ","Address":"10558 Stonybrook Ave","City":"South Gate","State":"CA","Zip":"90280"},{"Location":"LETS SEA INC","Address":"8620 Garfield Ave Gt","City":"South Gate","State":"CA","Zip":"90280"},{"Location":"LIDERAZGO FINANCIERO","Address":"9909 Mallison Ave","City":"South Gate","State":"CA","Zip":"90280"},{"Location":"LIMKIN & JOHN FOTO","Address":"8730 Santa Fe Ave","City":"South Gate","State":"CA","Zip":"90280"},{"Location":"LIMKIN & JOHN FOTO","Address":"8700 Santa Fe Ave","City":"South Gate","State":"CA","Zip":"90280"},{"Location":"LOS ANDES RESTAURANT","Address":"8330 Long Beach Blvd 118","City":"South Gate","State":"CA","Zip":"90280"},{"Location":"LOS PAISANOS MEAT MARKET","Address":"9201 Long Beach Blvd","City":"South Gate","State":"CA","Zip":"90280"},{"Location":"LOS PRIMOS BARBER SHOP 1","Address":"9618 Long Beach Blvd","City":"South Gate","State":"CA","Zip":"90280"},{"Location":"LUGOS MASTER FADES BARBE","Address":"3906 Tweedy Blvd","City":"South Gate","State":"CA","Zip":"90280"},{"Location":"LW REINHOLD PLASTICS","Address":"5640 Borwick Ave","City":"South Gate","State":"CA","Zip":"90280"},{"Location":"MACLEOD METALS","Address":"9309 Rayo Ave","City":"South Gate","State":"CA","Zip":"90280"},{"Location":"MAJOR LEAGUE BARBERSHOP","Address":"3417 Tweedy Blvd","City":"South Gate","State":"CA","Zip":"90280"},{"Location":"MARISCOS EL PERIHUETE","Address":"3223 Tweedy Blvd","City":"South Gate","State":"CA","Zip":"90280"},{"Location":"MARISCOS YUCATAN","Address":"3469 Tweedy Blvd","City":"South Gate","State":"CA","Zip":"90280"},{"Location":"MATTIS BEAUTY SALON","Address":"8302 Long Beach Blvd","City":"South Gate","State":"CA","Zip":"90280"},{"Location":"MI SALVADOR REST","Address":"8601 Long Beach Blvd","City":"South Gate","State":"CA","Zip":"90280"},{"Location":"MIKES AUTO COLLISION","Address":"9430 Burtis St","City":"South Gate","State":"CA","Zip":"90280"},{"Location":"MIRAMONTES BARBERSHOP","Address":"13501 Paramount Blvd","City":"South Gate","State":"CA","Zip":"90280"},{"Location":"MOYAS MUFFLER SHOP","Address":"8716 Long Beach Blvd","City":"South Gate","State":"CA","Zip":"90280"},{"Location":"MR.WIRELESS 2","Address":"8942 Atlantic Ave","City":"South Gate","State":"CA","Zip":"90280"},{"Location":"MT 8848 LLC","Address":"5861 Firestone Blvd A","City":"South Gate","State":"CA","Zip":"90280"},{"Location":"NAVARROS ESCUELA DE PELO","Address":"3943 Tweedy Blvd","City":"South Gate","State":"CA","Zip":"90280"},{"Location":"OP MARKET","Address":"2953 Independence Ave","City":"South Gate","State":"CA","Zip":"90280"},{"Location":"OSCARS BARBER SHOP","Address":"10251 Atlantic Ave","City":"South Gate","State":"CA","Zip":"90280"},{"Location":"OSTIONERIA EL COMPA","Address":"5841 Firestone Blvd F","City":"South Gate","State":"CA","Zip":"90280"},{"Location":"PACHANGA MEXICAN","Address":"8101 Long Beach Blvd B","City":"South Gate","State":"CA","Zip":"90280"},{"Location":"PALETERIANEVERIA NAYARIT","Address":"3908 Tweedy Blvd","City":"South Gate","State":"CA","Zip":"90280"},{"Location":"PCA","Address":"9700 E Frontage Rd","City":"South Gate","State":"CA","Zip":"90280"},{"Location":"PENJANO BAKERY","Address":"4468 Firestone Blvd","City":"South Gate","State":"CA","Zip":"90280"},{"Location":"PETES BURGER","Address":"13235 Paramount Blvd","City":"South Gate","State":"CA","Zip":"90280"},{"Location":"PIAZZA TRUCKING","Address":"9001 Rayo Ave","City":"South Gate","State":"CA","Zip":"90280"},{"Location":"PIONEER MEDICAL GROUP","Address":"4476 Tweedy Blvd","City":"South Gate","State":"CA","Zip":"90280"},{"Location":"PLANET FITNESS-SO. GATE","Address":"8724 Garfield Ave","City":"South Gate","State":"CA","Zip":"90280"},{"Location":"QUALAWASH HOLDINGS%2CLLC","Address":"8332 Wilcox Ave","City":"South Gate","State":"CA","Zip":"90280"},{"Location":"QUALITY OF LIFE ACADEMY","Address":"8439 California Ave","City":"South Gate","State":"CA","Zip":"90280"},{"Location":"QUICK SMOG TEST ONLY","Address":"9201 California Ave","City":"South Gate","State":"CA","Zip":"90280"},{"Location":"QUICK STOP AUTO PARTS","Address":"10205 Atlantic Ave","City":"South Gate","State":"CA","Zip":"90280"},{"Location":"RESTAURANTE  MICHOACANAS","Address":"8420 State St","City":"South Gate","State":"CA","Zip":"90280"},{"Location":"SALOON BAR","Address":"4059 Tweedy Blvd","City":"South Gate","State":"CA","Zip":"90280"},{"Location":"SAMS BURGER","Address":"4800 Firestone Blvd","City":"South Gate","State":"CA","Zip":"90280"},{"Location":"SAN ANGEL DENTAL GROUP","Address":"8720 Garfield Ave 104","City":"South Gate","State":"CA","Zip":"90280"},{"Location":"SCHULTZ STEEL COMPANY","Address":"5321 Firestone Blvd","City":"South Gate","State":"CA","Zip":"90280"},{"Location":"SHULTZ STEEL CO","Address":"5321 Firestone Blvd","City":"South Gate","State":"CA","Zip":"90280"},{"Location":"SMOKERS DYNASTY","Address":"4057 Tweedy Blvd","City":"South Gate","State":"CA","Zip":"90280"},{"Location":"SNACK LAND","Address":"2731 Tweedy Blvd","City":"South Gate","State":"CA","Zip":"90280"},{"Location":"SONIA MORALES","Address":"3622 Tweedy Blvd","City":"South Gate","State":"CA","Zip":"90280"},{"Location":"SOUTH GATE FOUR CHURCH","Address":"9512 Pinehurst Ave","City":"South Gate","State":"CA","Zip":"90280"},{"Location":"SOUTH GATE TRANSMISSIONS","Address":"3725 Firestone Blvd","City":"South Gate","State":"CA","Zip":"90280"},{"Location":"SOUTHGATE COLL SHRF STATION","Address":"2340 Firestone Blvd","City":"South Gate","State":"CA","Zip":"90280"},{"Location":"STANDING ROOM BAR AND GRILLE","Address":"5810 Imperial Hwy","City":"South Gate","State":"CA","Zip":"90280"},{"Location":"STATE STREET LAUNDRY","Address":"9844 State St","City":"South Gate","State":"CA","Zip":"90280"},{"Location":"SUNRISE AUTO CENTER","Address":"4400 Firestone Blvd","City":"South Gate","State":"CA","Zip":"90280"},{"Location":"SUSHI LITOS","Address":"8534 Long Beach Blvd","City":"South Gate","State":"CA","Zip":"90280"},{"Location":"TARGET","Address":"5700 Firestone Blvd","City":"South Gate","State":"CA","Zip":"90280"},{"Location":"TGI FRIDAY'S #2511","Address":"4701 Firestone Blvd","City":"South Gate","State":"CA","Zip":"90280"},{"Location":"TITAN TERMINAL","Address":"4570 Ardine St","City":"South Gate","State":"CA","Zip":"90280"},{"Location":"TOAD STOOL","Address":"10143 Atlantic Ave","City":"South Gate","State":"CA","Zip":"90280"},{"Location":"TONY RESTAURANT Y MARISC","Address":"3605 Tweedy Blvd","City":"South Gate","State":"CA","Zip":"90280"},{"Location":"UNIQUE AUTO BODY","Address":"9516 Rayo Ave","City":"South Gate","State":"CA","Zip":"90280"},{"Location":"VICTORY AUTO INSURANCE","Address":"8152 California Ave","City":"South Gate","State":"CA","Zip":"90280"},{"Location":"WING HOUSE","Address":"4336 Tweedy Blvd","City":"South Gate","State":"CA","Zip":"90280"},{"Location":"WINGSTOP SPORTS","Address":"4813 Firestone Blvd","City":"South Gate","State":"CA","Zip":"90280"},{"Location":"WORLD OIL CORP","Address":"9302 Garfield Ave","City":"South Gate","State":"CA","Zip":"90280"},{"Location":"ZAVALA RESTAURANT & TAQU","Address":"13621 Garfield Ave","City":"South Gate","State":"CA","Zip":"90280"}]