[{"Location":"ABUELITAS MEXICAN RESTAURANT","Address":"137 S Topanga Canyon Bvld","City":"Topanga","State":"CA","Zip":"90290"},{"Location":"HERMITAGE INVESTMENTS INC","Address":"2436 N Topanga Canyon Blvd","City":"Topanga","State":"CA","Zip":"90290"},{"Location":"ROCOS","Address":"123 S Topanga Canyon Blvd","City":"Topanga","State":"CA","Zip":"90290"},{"Location":"SUTTON TRUST (BUSINESS)","Address":"3350 Tuna Canyon Rd","City":"Topanga","State":"CA","Zip":"90290"},{"Location":"TOPANGA COALITIION FOR EMERG","Address":"139 Old Church Rd","City":"Topanga","State":"CA","Zip":"90290"},{"Location":"ABUELITAS MEXICAN RESTAURANT","Address":"137 S Topanga Canyon Bvld","City":"Topanga","State":"CA","Zip":"90290"},{"Location":"HERMITAGE INVESTMENTS INC","Address":"2436 N Topanga Canyon Blvd","City":"Topanga","State":"CA","Zip":"90290"},{"Location":"ROCOS","Address":"123 S Topanga Canyon Blvd","City":"Topanga","State":"CA","Zip":"90290"},{"Location":"SUTTON TRUST (BUSINESS)","Address":"3350 Tuna Canyon Rd","City":"Topanga","State":"CA","Zip":"90290"},{"Location":"TOPANGA COALITIION FOR EMERG","Address":"139 Old Church Rd","City":"Topanga","State":"CA","Zip":"90290"}]