[{"Location":"ANZALONE","Address":"8125 W Manchester Ave","City":"Playa Del Rey","State":"CA","Zip":"90293"},{"Location":"HACIENDA PLAYA","Address":"8415 Pershing Dr","City":"Playa Del Rey","State":"CA","Zip":"90293"},{"Location":"LA PW SANITATION","Address":"12000 Vista Del Mar","City":"Playa Del Rey","State":"CA","Zip":"90293"},{"Location":"MARSHA GLEEMAN  P.C.","Address":"314 Culver Blvd","City":"Playa Del Rey","State":"CA","Zip":"90293"},{"Location":"MO'S PLACE","Address":"203 Culver Blvd","City":"Playa Del Rey","State":"CA","Zip":"90293"},{"Location":"PLAYA DEL REY 1573","Address":"7716 W Manchester Ave","City":"Playa Del Rey","State":"CA","Zip":"90293"},{"Location":"PLAYA PROVISIONS","Address":"119 Culver Blvd","City":"Playa Del Rey","State":"CA","Zip":"90293"},{"Location":"PRINCE O'WHALES","Address":"335 Culver Blvd","City":"Playa Del Rey","State":"CA","Zip":"90293"},{"Location":"SOUTHERN CALIFORNIA GAS CO","Address":"8141 Gulana Ave","City":"Playa Del Rey","State":"CA","Zip":"90293"},{"Location":"THE BREAKERS AT WEST PORT","Address":"7301 Vista Delmar","City":"Playa Del Rey","State":"CA","Zip":"90293"},{"Location":"THE SHACK","Address":"185 Culver Blvd","City":"Playa Del Rey","State":"CA","Zip":"90293"},{"Location":"THE TRIPEL","Address":"333 Culver Blvd","City":"Playa Del Rey","State":"CA","Zip":"90293"},{"Location":"THOMPSON","Address":"8049 W Manchester Ave","City":"Playa Del Rey","State":"CA","Zip":"90293"},{"Location":"ELKS LODGE","Address":"8025 W Manchester Ave","City":"Venice","State":"CA","Zip":"90293"}]