[{"Location":"The Funky Monkey","Address":"22554 Main St","City":"Hayward","State":"CA","Zip":"90292"},{"Location":"A M E CHURCH OFFICE OF","Address":"4519 Admiralty Way 205","City":"Marina Del Rey","State":"CA","Zip":"90292"},{"Location":"AAA TLC HEALTH CARE INC","Address":"13900 Palawan Way D236","City":"Marina Del Rey","State":"CA","Zip":"90292"},{"Location":"ALEJOS","Address":"4002 Lincoln Blvd","City":"Marina Del Rey","State":"CA","Zip":"90292"},{"Location":"ANN AND PHELIM MEDIA","Address":"25 Spinnaker St 12","City":"Marina Del Rey","State":"CA","Zip":"90292"},{"Location":"ARQIVA INC","Address":"13160 Mindanao Way","City":"Marina Del Rey","State":"CA","Zip":"90292"},{"Location":"AUTOMOTIVE MARKETING","Address":"4755 Alla Rd","City":"Marina Del Rey","State":"CA","Zip":"90292"},{"Location":"BAJA CANTINA","Address":"311 Washington Blvd","City":"Marina Del Rey","State":"CA","Zip":"90292"},{"Location":"BANKERS SEARCH INC","Address":"4519 Admiralty Way 210","City":"Marina Del Rey","State":"CA","Zip":"90292"},{"Location":"BARRISTER EXECUTIVE SUITES","Address":"4640 Admiralty Way 500","City":"Marina Del Rey","State":"CA","Zip":"90292"},{"Location":"BEANS & RICE INC","Address":"4716 Lincoln Blvd C","City":"Marina Del Rey","State":"CA","Zip":"90292"},{"Location":"BELLA  DRYCLEANER","Address":"4760 Admiralty Way","City":"Marina Del Rey","State":"CA","Zip":"90292"},{"Location":"BETTY MAE","Address":"13375 Beach Ave","City":"Marina Del Rey","State":"CA","Zip":"90292"},{"Location":"BRENNAN'S PUB","Address":"4089 Lincoln Blvd","City":"Marina Del Rey","State":"CA","Zip":"90292"},{"Location":"C & O CUCINA","Address":"3016 Washington Blvd","City":"Marina Del Rey","State":"CA","Zip":"90292"},{"Location":"CABO CANTINA VENICE","Address":"30 Washington Blvd","City":"Marina Del Rey","State":"CA","Zip":"90292"},{"Location":"CAFE DEL REY","Address":"4451 Admiralty Way","City":"Marina Del Rey","State":"CA","Zip":"90292"},{"Location":"CALIFORNIA PIZZA KITCHEN #14","Address":"13345 Fiji Way","City":"Marina Del Rey","State":"CA","Zip":"90292"},{"Location":"CALIFORNIA YACHT CLUB","Address":"4469 Admiralty Way","City":"Marina Del Rey","State":"CA","Zip":"90292"},{"Location":"CASA ADO","Address":"12 Washington Blvd","City":"Marina Del Rey","State":"CA","Zip":"90292"},{"Location":"CB FRANCHISE","Address":"4786 Admiralty Way","City":"Marina Del Rey","State":"CA","Zip":"90292"},{"Location":"CCK NAILS AND SPA","Address":"4726 Lincoln Blvd","City":"Marina Del Rey","State":"CA","Zip":"90292"},{"Location":"CENTURY ENTERTAINMENT","Address":"4058 Del Rey Ave","City":"Marina Del Rey","State":"CA","Zip":"90292"},{"Location":"CHART HOUSE #0022","Address":"13950 Panay Way","City":"Marina Del Rey","State":"CA","Zip":"90292"},{"Location":"CHEQUERD FLAGS","Address":"4128 Lincoln Blvd","City":"Marina Del Rey","State":"CA","Zip":"90292"},{"Location":"CLIFFWATER LLC","Address":"4640 Admiralty Way 11th","City":"Marina Del Rey","State":"CA","Zip":"90292"},{"Location":"COURTYARD BY MARRIOTT 0052045","Address":"13480 Maxella Ave","City":"Marina Del Rey","State":"CA","Zip":"90292"},{"Location":"DEL REY YACHT CLUB","Address":"13900 Palawan Way","City":"Marina Del Rey","State":"CA","Zip":"90292"},{"Location":"DIAGNOSTIC & INTERVENTIONAL","Address":"13160 Mindanao Way","City":"Marina Del Rey","State":"CA","Zip":"90292"},{"Location":"DIRECT PARTNERS","Address":"4755 Alla Rd","City":"Marina Del Rey","State":"CA","Zip":"90292"},{"Location":"EL PARASCO MEXICAN FOOD","Address":"109 Washington Blvd","City":"Marina Del Rey","State":"CA","Zip":"90292"},{"Location":"EL TORITO 7004","Address":"13715 Fiji Way","City":"Marina Del Rey","State":"CA","Zip":"90292"},{"Location":"ELEVENTH HOUR","Address":"4120 Del Rey Ave B","City":"Marina Del Rey","State":"CA","Zip":"90292"},{"Location":"EQUINOX","Address":"13455 Maxella Ave 204","City":"Marina Del Rey","State":"CA","Zip":"90292"},{"Location":"EQUINOX 2","Address":"13455 Maxella Ave 204","City":"Marina Del Rey","State":"CA","Zip":"90292"},{"Location":"FEDEX EXPRESS","Address":"4170 Del Rey Ave","City":"Marina Del Rey","State":"CA","Zip":"90292"},{"Location":"FLEISHMAN-HILLARD","Address":"4745 Alla Rd","City":"Marina Del Rey","State":"CA","Zip":"90292"},{"Location":"FRESH BROTHERS","Address":"4722 1%2F2 Admiralty Way","City":"Marina Del Rey","State":"CA","Zip":"90292"},{"Location":"GLADSTONE MICHEL WEISBERG WILL","Address":"4551 Glencoe Ave 300","City":"Marina Del Rey","State":"CA","Zip":"90292"},{"Location":"GREAT AMERICAN TAILGATE","Address":"13900 Palawan Way","City":"Marina Del Rey","State":"CA","Zip":"90292"},{"Location":"H M SPORTS PERFORMANCE LLC","Address":"114 Washington Blvd C","City":"Marina Del Rey","State":"CA","Zip":"90292"},{"Location":"HOTEL MDR-DOUBLETREE","Address":"13480 Maxella Ave","City":"Marina Del Rey","State":"CA","Zip":"90292"},{"Location":"IDEAOLOGY ADVERTISING INC","Address":"4223 Glencoe Ave","City":"Marina Del Rey","State":"CA","Zip":"90292"},{"Location":"INFORMATION SCIENCES INSTITUTE","Address":"4676 Admiralty Way","City":"Marina Del Rey","State":"CA","Zip":"90292"},{"Location":"ISLANDS RESTAURANT #002","Address":"404 Washington Blvd","City":"Marina Del Rey","State":"CA","Zip":"90292"},{"Location":"J NICHOLS KITCHEN","Address":"4375 Glencoe Ave","City":"Marina Del Rey","State":"CA","Zip":"90292"},{"Location":"JAMES PERSE ENTERPRISES","Address":"4144 Glencoe Ave","City":"Marina Del Rey","State":"CA","Zip":"90292"},{"Location":"JERRY'S FAMOUS DELI","Address":"13181 Mindanao Way","City":"Marina Del Rey","State":"CA","Zip":"90292"},{"Location":"JERSEY MIKES SUBS","Address":"4020 Lincoln Blvd A","City":"Marina Del Rey","State":"CA","Zip":"90292"},{"Location":"JONIS COFFEE ROASTING CAFE","Address":"552 Washington Blvd","City":"Marina Del Rey","State":"CA","Zip":"90292"},{"Location":"KAYA RESTAURANT","Address":"13400 Washington Blvd","City":"Marina Del Rey","State":"CA","Zip":"90292"},{"Location":"KENNEDY MARSHALL COMPANY","Address":"1042 Princeton Dr","City":"Marina Del Rey","State":"CA","Zip":"90292"},{"Location":"KILLER SHRIMP","Address":"4211 Admiralty Way","City":"Marina Del Rey","State":"CA","Zip":"90292"},{"Location":"LASERAWAY","Address":"4268 Lincon Blvd","City":"Marina Del Rey","State":"CA","Zip":"90292"},{"Location":"LEGACY PARTNERS","Address":"4553 Glencoe Ave","City":"Marina Del Rey","State":"CA","Zip":"90292"},{"Location":"LEGACY PARTNERS","Address":"4551 Glencoe Ave 255","City":"Marina Del Rey","State":"CA","Zip":"90292"},{"Location":"LEGACY PARTNERS TWO","Address":"4551 Glencoe Ave 205","City":"Marina Del Rey","State":"CA","Zip":"90292"},{"Location":"LIQUID VENTURE PARTNERS","Address":"4551 Glencoe Ave 150","City":"Marina Del Rey","State":"CA","Zip":"90292"},{"Location":"MARIAS ITALIAN KITCHEN","Address":"4248 Lincoln Blvd","City":"Marina Del Rey","State":"CA","Zip":"90292"},{"Location":"MARINA DEL REY HOSPITAL","Address":"4640 Admiralty Way 650","City":"Marina Del Rey","State":"CA","Zip":"90292"},{"Location":"MARINA DEL REY PSYCHIC","Address":"750 Washington Blvd","City":"Marina Del Rey","State":"CA","Zip":"90292"},{"Location":"MARINA DEL REY TOYOTA","Address":"4636 Lincoln Blvd","City":"Marina Del Rey","State":"CA","Zip":"90292"},{"Location":"MARINA INT & BUNGALOW","Address":"4200 Admiralty Way","City":"Marina Del Rey","State":"CA","Zip":"90292"},{"Location":"MARINA VENIS YHATT CLUB","Address":"4333 Admiralty Way","City":"Marina Del Rey","State":"CA","Zip":"90292"},{"Location":"MARINERS  BAY APARTMENTS","Address":"14004 Palawan Way 208","City":"Marina Del Rey","State":"CA","Zip":"90292"},{"Location":"MARRIOTT MARINA","Address":"4100 Admiralty Way","City":"Marina Del Rey","State":"CA","Zip":"90292"},{"Location":"MED CAFE","Address":"20 Washington Blvd","City":"Marina Del Rey","State":"CA","Zip":"90292"},{"Location":"MEN'S WEARHOUSE #2729","Address":"13161 Mindanao Way D6","City":"Marina Del Rey","State":"CA","Zip":"90292"},{"Location":"MERCEDES CUBAN GRILL","Address":"14 Washington Blvd","City":"Marina Del Rey","State":"CA","Zip":"90292"},{"Location":"MINK RADIOLOGY","Address":"13160 Mindanao Way","City":"Marina Del Rey","State":"CA","Zip":"90292"},{"Location":"MV WECHSLER","Address":"14120 Tahiti Way","City":"Marina Del Rey","State":"CA","Zip":"90292"},{"Location":"NIKE%2C INC.","Address":"4501 Glencoe Ave","City":"Marina Del Rey","State":"CA","Zip":"90292"},{"Location":"ONE TWENTY THREE INC","Address":"123 Washington Blvd","City":"Marina Del Rey","State":"CA","Zip":"90292"},{"Location":"PACIFIC YAHT CLUB","Address":"13915 Panay Way","City":"Marina Del Rey","State":"CA","Zip":"90292"},{"Location":"PATTYS PRESTO PIZZA INC","Address":"13381 Beach Ave","City":"Marina Del Rey","State":"CA","Zip":"90292"},{"Location":"PIZZARITO INC","Address":"4371 Glencoe Ave","City":"Marina Del Rey","State":"CA","Zip":"90292"},{"Location":"RA SUSHI #3035","Address":"13450 Maxella Ave 270","City":"Marina Del Rey","State":"CA","Zip":"90292"},{"Location":"REGATTA SEASIDE HOA","Address":"13600 Marina Pointe Dr","City":"Marina Del Rey","State":"CA","Zip":"90292"},{"Location":"REGIONAL INVESTMENT MANAGEMENT","Address":"4640 Admiralty Way 1050","City":"Marina Del Rey","State":"CA","Zip":"90292"},{"Location":"RHGI INC","Address":"13455 Maxella Ave 230","City":"Marina Del Rey","State":"CA","Zip":"90292"},{"Location":"RITZ CARLTON (0011656)","Address":"4375 Admiralty Way","City":"Marina Del Rey","State":"CA","Zip":"90292"},{"Location":"RITZ CARLTON MARINA DEL","Address":"4375 Admiralty Way","City":"Marina Del Rey","State":"CA","Zip":"90292"},{"Location":"RITZ CARLTON MDR POOL","Address":"4375 Admiralty Way","City":"Marina Del Rey","State":"CA","Zip":"90292"},{"Location":"RPM LA","Address":"4640 Admiralty Way","City":"Marina Del Rey","State":"CA","Zip":"90292"},{"Location":"S%2FY ASAHI 1","Address":"13900 Palawan Way 12d","City":"Marina Del Rey","State":"CA","Zip":"90292"},{"Location":"S%2FY ASAHI 2","Address":"13900 Palawan Way 12d","City":"Marina Del Rey","State":"CA","Zip":"90292"},{"Location":"SANTA MONICA WIND JAMMERS","Address":"13589 Mindanao Way","City":"Marina Del Rey","State":"CA","Zip":"90292"},{"Location":"SEIDLER MANAGEMENT COMPANY","Address":"4640 Admiralty Way 1200","City":"Marina Del Rey","State":"CA","Zip":"90292"},{"Location":"SETTE BELLO","Address":"13455 Maxella Ave","City":"Marina Del Rey","State":"CA","Zip":"90292"},{"Location":"SMILE ART COMMUNICATIONS","Address":"4560 Admiralty Way 110","City":"Marina Del Rey","State":"CA","Zip":"90292"},{"Location":"SONY DADC USA INC","Address":"4499 Glencoe Ave","City":"Marina Del Rey","State":"CA","Zip":"90292"},{"Location":"SPORTS HARBOR","Address":"13484 Washington Blvd","City":"Marina Del Rey","State":"CA","Zip":"90292"},{"Location":"STANTON AND COMPANY","Address":"4223 Glencoe Ave A210","City":"Marina Del Rey","State":"CA","Zip":"90292"},{"Location":"SUPERCUTS","Address":"4371 Glencoe Ave","City":"Marina Del Rey","State":"CA","Zip":"90292"},{"Location":"TELECOM LEASE ADVISORS","Address":"4640 Admiralty Way 1030","City":"Marina Del Rey","State":"CA","Zip":"90292"},{"Location":"TELESIGN CORP","Address":"4136 Del Rey Ave","City":"Marina Del Rey","State":"CA","Zip":"90292"},{"Location":"THE CHEESECAKE FACTORY 0002","Address":"4142 Via Marina","City":"Marina Del Rey","State":"CA","Zip":"90292"},{"Location":"THE CORTEZ BROTHERS","Address":"13445 Beach Ave","City":"Marina Del Rey","State":"CA","Zip":"90292"},{"Location":"THE DUMONT PROJECT","Address":"4223 Glencoe Ave 1010","City":"Marina Del Rey","State":"CA","Zip":"90292"},{"Location":"THE TERRACE","Address":"7 Washington Blvd","City":"Marina Del Rey","State":"CA","Zip":"90292"},{"Location":"THE WAREHOUSE RESTAURANT","Address":"4499 Admiralty Way","City":"Marina Del Rey","State":"CA","Zip":"90292"},{"Location":"TONY P'S DOCKSIDE GRILL","Address":"4445 Admiralty Way","City":"Marina Del Rey","State":"CA","Zip":"90292"},{"Location":"TRIBECA BUSINESS MGMT","Address":"4640 Admiralty Way 500","City":"Marina Del Rey","State":"CA","Zip":"90292"},{"Location":"US MARKETING AND PROMOTIONS","Address":"4755 Alla Rd 2500","City":"Marina Del Rey","State":"CA","Zip":"90292"},{"Location":"USCGC HALIBUT","Address":"13871 Fiji Way","City":"Marina Del Rey","State":"CA","Zip":"90292"},{"Location":"VDH DEVELOPMENT INC","Address":"5106 Pacific Ave","City":"Marina Del Rey","State":"CA","Zip":"90292"},{"Location":"WHARO","Address":"4029 Lincoln Blvd","City":"Marina Del Rey","State":"CA","Zip":"90292"},{"Location":"WING MAN MEDIA","Address":"4061 Glencoe Ave A","City":"Marina Del Rey","State":"CA","Zip":"90292"},{"Location":"YARD HOUSE #8350","Address":"13455 Maxella Ave","City":"Marina Del Rey","State":"CA","Zip":"90292"},{"Location":"YUHL & ATKINSON","Address":"4676 Admiralty Way 550","City":"Marina Del Rey","State":"CA","Zip":"90292"},{"Location":"NAILS BY OLIVIA","Address":"4371 Glencoe Ave B8","City":"Marina Dl Rey","State":"CA","Zip":"90292"},{"Location":"HINANO CAFE","Address":"15 Washington Blvd","City":"Venice","State":"CA","Zip":"90292"},{"Location":"WHALER LLC","Address":"10 Washington Blvd","City":"Venice","State":"CA","Zip":"90292"}]