[{"Location":"11 24TH AVE LLC","Address":"11 24th Ave","City":"Venice","State":"CA","Zip":"90291"},{"Location":"ARKAS AUTO CENTER","Address":"2130 Lincoln Blvd","City":"Venice","State":"CA","Zip":"90291"},{"Location":"BACKYARD PRODUCTION","Address":"248 Main St","City":"Venice","State":"CA","Zip":"90291"},{"Location":"CAMPUS SERVICE","Address":"1233 Rose Ave","City":"Venice","State":"CA","Zip":"90291"},{"Location":"CANDLE CAFE AND GRILL","Address":"325 Ocean Front Walk","City":"Venice","State":"CA","Zip":"90291"},{"Location":"CHAYA VENICE","Address":"110 Navy St","City":"Venice","State":"CA","Zip":"90291"},{"Location":"CLEVER CREATIVE LLC","Address":"606 Venice Blvd A","City":"Venice","State":"CA","Zip":"90291"},{"Location":"CLUTCH","Address":"427 Lincoln Blvd","City":"Venice","State":"CA","Zip":"90291"},{"Location":"CORNERSTONE","Address":"901 Abbot Kinney Blvd A","City":"Venice","State":"CA","Zip":"90291"},{"Location":"CUCCIO NAILS & SPA","Address":"2805 Abbot Kinney Blvd E","City":"Venice","State":"CA","Zip":"90291"},{"Location":"CURROS HAIR DESIGNS","Address":"2426 Lincoln Blvd","City":"Venice","State":"CA","Zip":"90291"},{"Location":"DANNY'S VENICE DELI","Address":"23 Windward Ave","City":"Venice","State":"CA","Zip":"90291"},{"Location":"DEL MAR AUTO","Address":"2521 Lincoln Blvd","City":"Venice","State":"CA","Zip":"90291"},{"Location":"EL HUARIQUE","Address":"1301 Ocean Front Walk","City":"Venice","State":"CA","Zip":"90291"},{"Location":"FIGTREE'S CAFE","Address":"429 Ocean Front Walk","City":"Venice","State":"CA","Zip":"90291"},{"Location":"GET TRUE NAILS","Address":"620 Lincoln Blvd","City":"Venice","State":"CA","Zip":"90291"},{"Location":"GOLD'S GYM #111","Address":"360 Hampton Dr","City":"Venice","State":"CA","Zip":"90291"},{"Location":"LARRYS","Address":"24 Windward Ave","City":"Venice","State":"CA","Zip":"90291"},{"Location":"MARINA  POSTAL CENTER","Address":"2554 Lincoln Blvd","City":"Venice","State":"CA","Zip":"90291"},{"Location":"NIKKI  ENTERTAINMENT","Address":"72 Market St","City":"Venice","State":"CA","Zip":"90291"},{"Location":"ON THE BEACH","Address":"2819 Ocean Front Walk","City":"Venice","State":"CA","Zip":"90291"},{"Location":"ON THE WATER FRONT CAFE","Address":"205 Ocean Front Walk","City":"Venice","State":"CA","Zip":"90291"},{"Location":"PERSONALLY FIT EXCLUSIVE EX #2","Address":"1500 Lincoln Blvd","City":"Venice","State":"CA","Zip":"90291"},{"Location":"PERSONALLY FIT EXCLUSIVE EX #3","Address":"1500 Lincoln Blvd","City":"Venice","State":"CA","Zip":"90291"},{"Location":"PERSONALLY FIT EXCLUSIVE EXERS","Address":"1500 Lincoln Blvd","City":"Venice","State":"CA","Zip":"90291"},{"Location":"PLANCHA TACO","Address":"2024 Pacific Ave","City":"Venice","State":"CA","Zip":"90291"},{"Location":"PREMIER EXOTIC CAR RENTALS","Address":"2501 Lincoln Blvd","City":"Venice","State":"CA","Zip":"90291"},{"Location":"PRIMITAVO WINE BISTRO","Address":"1025 Advot Kinney Blvd","City":"Venice","State":"CA","Zip":"90291"},{"Location":"PROLOGUE FILMS","Address":"534 Victoria Ave","City":"Venice","State":"CA","Zip":"90291"},{"Location":"RGD RETAIL","Address":"1326 Abbot Kinney Blvd","City":"Venice","State":"CA","Zip":"90291"},{"Location":"SARLO INCOME TAX SERVICE INC","Address":"1842 Washington Way","City":"Venice","State":"CA","Zip":"90291"},{"Location":"SIDEWALK CAFE","Address":"1401 Ocean Front Walk","City":"Venice","State":"CA","Zip":"90291"},{"Location":"SMARTCHAT  INC.","Address":"38 Market St","City":"Venice","State":"CA","Zip":"90291"},{"Location":"SMARTCHAT  INC.","Address":"100 Market St","City":"Venice","State":"CA","Zip":"90291"},{"Location":"SNAPCHAT  INC.","Address":"63 Market St","City":"Venice","State":"CA","Zip":"90291"},{"Location":"ST JOSEPH CENTER","Address":"204 Hampton Dr","City":"Venice","State":"CA","Zip":"90291"},{"Location":"STUDIO ONE ON ONE","Address":"2469 Lincoln Blvd","City":"Venice","State":"CA","Zip":"90291"},{"Location":"SU CASA AT VENICE BEACH","Address":"431 Ocean Front Walk","City":"Venice","State":"CA","Zip":"90291"},{"Location":"TACO LOVE VENICE","Address":"705 Lincoln Blvd","City":"Venice","State":"CA","Zip":"90291"},{"Location":"TE PROJECTS","Address":"644a Venice Blvd","City":"Venice","State":"CA","Zip":"90291"},{"Location":"THE BROGAN AGENCY","Address":"1517 Park Row","City":"Venice","State":"CA","Zip":"90291"},{"Location":"THE FIREHOUSE","Address":"213 Rose Ave","City":"Venice","State":"CA","Zip":"90291"},{"Location":"THE MISSION STUDIO","Address":"1746 Abbot Kinney Blvd","City":"Venice","State":"CA","Zip":"90291"},{"Location":"VEGAN SCENE LLC 2","Address":"610 Main St","City":"Venice","State":"CA","Zip":"90291"},{"Location":"VEGAN SCENE LLC1","Address":"610 Main St","City":"Venice","State":"CA","Zip":"90291"},{"Location":"VENICE BEACH SUITES DRE1OF2","Address":"1305 Ocean Front Walk","City":"Venice","State":"CA","Zip":"90291"},{"Location":"WHOLE FOODS MARKET","Address":"225 Lincoln Blvd","City":"Venice","State":"CA","Zip":"90291"},{"Location":"WOLF IN SHEEPS CLOTHINGS","Address":"1031 Abbot Kinney Blvd","City":"Venice","State":"CA","Zip":"90291"}]