[{"Location":"EYE CARE FOR DIABETICS","Address":"323 North Praire Avenue 217","City":"Englewoods","State":"CA","Zip":"90301"},{"Location":"1ST STOP MINI MART","Address":"420 E Florence Ave","City":"Inglewood","State":"CA","Zip":"90301"},{"Location":"A NEW YOU BEAUTY SALON","Address":"205 North Labrea","City":"Inglewood","State":"CA","Zip":"90301"},{"Location":"A TOUCH OF HANDS","Address":"1234 Rosewood Ave 4","City":"Inglewood","State":"CA","Zip":"90301"},{"Location":"AIRPORT COLLISION REPAIR","Address":"513 S La Brea Ave","City":"Inglewood","State":"CA","Zip":"90301"},{"Location":"AIRPORT PLAZA MANAGNMENT","Address":"1120 W Florence Ave D","City":"Inglewood","State":"CA","Zip":"90301"},{"Location":"ALAMO RENTAL CAR","Address":"9020 Aviation Blvd","City":"Inglewood","State":"CA","Zip":"90301"},{"Location":"ALEXANDER ORTHOPEDIC LAB","Address":"660 E Regent St","City":"Inglewood","State":"CA","Zip":"90301"},{"Location":"AMAN STEM CENTER INC","Address":"101 S La Brea Ave","City":"Inglewood","State":"CA","Zip":"90301"},{"Location":"AMANUEL RESTAURANTE","Address":"1120 W Florence Ave A","City":"Inglewood","State":"CA","Zip":"90301"},{"Location":"ANGEL KIDNEY CARE","Address":"994 S La Brea Ave","City":"Inglewood","State":"CA","Zip":"90301"},{"Location":"ANGELICAS RESTUARANT","Address":"520 W Arbor Vitae St","City":"Inglewood","State":"CA","Zip":"90301"},{"Location":"ANTHONYS PAINT AND BODY SHOP","Address":"259 N Labrea  Ave","City":"Inglewood","State":"CA","Zip":"90301"},{"Location":"APOLLO COURIERS INC","Address":"1039 W Hillcrest Blvd","City":"Inglewood","State":"CA","Zip":"90301"},{"Location":"BALDWIN HILL DENTAL CENTER","Address":"124 N Locus St","City":"Inglewood","State":"CA","Zip":"90301"},{"Location":"BALLERS","Address":"140 E Tamarack Ave","City":"Inglewood","State":"CA","Zip":"90301"},{"Location":"BANADIR SOMALI RESTAURANT","Address":"137 W Arbor Vitae St C","City":"Inglewood","State":"CA","Zip":"90301"},{"Location":"BEACH CITY MUSIC INC","Address":"8636 Aviation Blvd","City":"Inglewood","State":"CA","Zip":"90301"},{"Location":"BEB CONSULTING SERV FOUND","Address":"945 S Prairie Ave 201","City":"Inglewood","State":"CA","Zip":"90301"},{"Location":"BLESSED FAMILIES","Address":"325 N Hillcrest Blvd","City":"Inglewood","State":"CA","Zip":"90301"},{"Location":"BOURBON STREET FISH","Address":"601 S Prairie Ave","City":"Inglewood","State":"CA","Zip":"90301"},{"Location":"BRITISH CAR SERVICE","Address":"644 Isis Ave","City":"Inglewood","State":"CA","Zip":"90301"},{"Location":"BROADWAY FEDERAL BANK","Address":"170 N Market St","City":"Inglewood","State":"CA","Zip":"90301"},{"Location":"CAMZAM INVESTMENTS INC","Address":"405 Isis Ave","City":"Inglewood","State":"CA","Zip":"90301"},{"Location":"CARMAX #7810","Address":"8611 S La Cienega Blvd","City":"Inglewood","State":"CA","Zip":"90301"},{"Location":"CASA RIOS  RESTAURANT","Address":"1051 S Prairie Ave","City":"Inglewood","State":"CA","Zip":"90301"},{"Location":"CENTINELA HOSPITAL  CTR","Address":"555 E Hardy St","City":"Inglewood","State":"CA","Zip":"90301"},{"Location":"CENTINELA HOSPITAL MED CENTER","Address":"555 E Hardy St","City":"Inglewood","State":"CA","Zip":"90301"},{"Location":"CHRISHARD MEDICAL GROUP","Address":"233 N Prairie Ave","City":"Inglewood","State":"CA","Zip":"90301"},{"Location":"COMMAND VEHICLE 2","Address":"141 W Regent St","City":"Inglewood","State":"CA","Zip":"90301"},{"Location":"DAVITA #1440 LIFELINEINGLEWOOD","Address":"323 N Prairie Ave 114","City":"Inglewood","State":"CA","Zip":"90301"},{"Location":"DAVITA #3001 INGLEWOOD","Address":"125 E Arbor Vitae St","City":"Inglewood","State":"CA","Zip":"90301"},{"Location":"DR RAY WILLIAMS","Address":"323 N Prairie Ave 222","City":"Inglewood","State":"CA","Zip":"90301"},{"Location":"E PORTERO INCOME TAX","Address":"413 W Arbor Vitae St","City":"Inglewood","State":"CA","Zip":"90301"},{"Location":"EL COMALITO","Address":"307 W Arbor Vitae St","City":"Inglewood","State":"CA","Zip":"90301"},{"Location":"EL NUEVO JALISCO","Address":"207 N La Brea Ave","City":"Inglewood","State":"CA","Zip":"90301"},{"Location":"EL PUERTO ESCODIDO","Address":"915 W Arbor Vitae St","City":"Inglewood","State":"CA","Zip":"90301"},{"Location":"EMERALD EXPRESS","Address":"555 Isis Ave","City":"Inglewood","State":"CA","Zip":"90301"},{"Location":"EMPOWER RF SYSTEMS","Address":"316 W Florence Ave","City":"Inglewood","State":"CA","Zip":"90301"},{"Location":"ENJC SEAFOOD LLC","Address":"424 E Manchester Blvd","City":"Inglewood","State":"CA","Zip":"90301"},{"Location":"EVERYTHING UNDER THE SUN","Address":"220 W Florence Ave","City":"Inglewood","State":"CA","Zip":"90301"},{"Location":"FAITHFUL CENTRAL BIBLE  CHURCH","Address":"333 W Florence Ave","City":"Inglewood","State":"CA","Zip":"90301"},{"Location":"FMC 28680000","Address":"301 N Prairie Ave 100","City":"Inglewood","State":"CA","Zip":"90301"},{"Location":"FMC 42180000","Address":"336 E Hillcrest Blvd","City":"Inglewood","State":"CA","Zip":"90301"},{"Location":"GLOBAL CARDIO CARE INC","Address":"633 Aerick St","City":"Inglewood","State":"CA","Zip":"90301"},{"Location":"GLOBAL FORCE PROTECTIVE SERV.","Address":"614 W Manchester Blvd 204","City":"Inglewood","State":"CA","Zip":"90301"},{"Location":"GRACE CHIROPRATIC","Address":"301 N Prairie Ave 610","City":"Inglewood","State":"CA","Zip":"90301"},{"Location":"GUATEMALA KITCHEN","Address":"226 E Nutwood St","City":"Inglewood","State":"CA","Zip":"90301"},{"Location":"HOLLYWOOD PARK","Address":"1050 S Prairie Ave","City":"Inglewood","State":"CA","Zip":"90301"},{"Location":"HOLLYWOOD PARK LAND COMP","Address":"406 E Florence Ave","City":"Inglewood","State":"CA","Zip":"90301"},{"Location":"HOOMAN CHRYSTLER DODGE JEEP RA","Address":"333 Hindry Ave","City":"Inglewood","State":"CA","Zip":"90301"},{"Location":"HOOMAN HYUNDAI","Address":"970 W Manchester Blvd","City":"Inglewood","State":"CA","Zip":"90301"},{"Location":"IN THE CUT SALON","Address":"220 Regent St","City":"Inglewood","State":"CA","Zip":"90301"},{"Location":"INCOME TAX SERVICES","Address":"531 W Arbor Vitae St","City":"Inglewood","State":"CA","Zip":"90301"},{"Location":"INGLEWOOD HEALTH CENTER II","Address":"100 S Hillcrest Blvd","City":"Inglewood","State":"CA","Zip":"90301"},{"Location":"INGLEWOOD HIGH SCHOOL","Address":"231 S Grevillea Ave","City":"Inglewood","State":"CA","Zip":"90301"},{"Location":"INGLEWOOD IMAGING CENTER","Address":"211 N Prairie Ave","City":"Inglewood","State":"CA","Zip":"90301"},{"Location":"INGLEWOOD JUVENILE COURT","Address":"110 E Regent St","City":"Inglewood","State":"CA","Zip":"90301"},{"Location":"INGLEWOOD SALON","Address":"232 N Market St","City":"Inglewood","State":"CA","Zip":"90301"},{"Location":"INGLEWOOD SHAKEYS 15","Address":"935 W Arbor Vitae","City":"Inglewood","State":"CA","Zip":"90301"},{"Location":"INGLEWOODS FINEST","Address":"122 S Market St","City":"Inglewood","State":"CA","Zip":"90301"},{"Location":"IVYS WEIGHT LOSS MEDICAL","Address":"110 S Lebria Ste 445","City":"Inglewood","State":"CA","Zip":"90301"},{"Location":"JJ BISTRO","Address":"401 E Hillcrest Blvd E","City":"Inglewood","State":"CA","Zip":"90301"},{"Location":"JP CLEANER","Address":"253 S La Brea Ave","City":"Inglewood","State":"CA","Zip":"90301"},{"Location":"KJLH RADIO","Address":"161 N La Brea Ave","City":"Inglewood","State":"CA","Zip":"90301"},{"Location":"L.A. FOCUS PUBLICATION","Address":"333 W Florence Ave C333","City":"Inglewood","State":"CA","Zip":"90301"},{"Location":"LA COSTA  MARISCOS","Address":"597 S La Brea Ave","City":"Inglewood","State":"CA","Zip":"90301"},{"Location":"LA CYCLE SPORTS","Address":"8515 S La Cienega Blvd","City":"Inglewood","State":"CA","Zip":"90301"},{"Location":"LADERA PHYSICAL THERAPY","Address":"409 S La Brea Ave","City":"Inglewood","State":"CA","Zip":"90301"},{"Location":"LAUNDERLAND","Address":"1102 S La Brea Ave","City":"Inglewood","State":"CA","Zip":"90301"},{"Location":"LE SHOPPE EXTRAORDINAIRE","Address":"328 S Market St","City":"Inglewood","State":"CA","Zip":"90301"},{"Location":"LEES CARIBBEAN","Address":"1041 S Prairie Ave","City":"Inglewood","State":"CA","Zip":"90301"},{"Location":"LIFEWALK SERVICES","Address":"239 E Manchester Blvd 212","City":"Inglewood","State":"CA","Zip":"90301"},{"Location":"LORENZO BROWN MD INC","Address":"103 S Locust St","City":"Inglewood","State":"CA","Zip":"90301"},{"Location":"LOS ANGELES COUNTY FIRE DEPART","Address":"141 W Regent St","City":"Inglewood","State":"CA","Zip":"90301"},{"Location":"LOS ANGELES COUNTY FIRE DEPT","Address":"141 W Regent St","City":"Inglewood","State":"CA","Zip":"90301"},{"Location":"LOS PONCHOS REST","Address":"162 N La Brea Ave Rear","City":"Inglewood","State":"CA","Zip":"90301"},{"Location":"MAGIC CIRCLE PRAYER ADULT CARE","Address":"105 S Prairie Ave","City":"Inglewood","State":"CA","Zip":"90301"},{"Location":"MARINELLO SCHOOL OF BEAUTY","Address":"240 S Market St","City":"Inglewood","State":"CA","Zip":"90301"},{"Location":"MARKET STREET BAR & GRIL","Address":"244 S Market St","City":"Inglewood","State":"CA","Zip":"90301"},{"Location":"MARTINOS LIQUOR","Address":"706 E Manchester Blvd","City":"Inglewood","State":"CA","Zip":"90301"},{"Location":"MISSISSIPPI MOSES INC","Address":"801 E Manchester Blvd","City":"Inglewood","State":"CA","Zip":"90301"},{"Location":"MODERN INK TATTOO STUDIO","Address":"1031 W Manchester Blvd 1","City":"Inglewood","State":"CA","Zip":"90301"},{"Location":"MORNING SKY","Address":"1071 W Arbor Vitae St","City":"Inglewood","State":"CA","Zip":"90301"},{"Location":"MR JS STYLEZ","Address":"945 S Prairie Ave","City":"Inglewood","State":"CA","Zip":"90301"},{"Location":"MULTICHROME AND COMPANY INC","Address":"1013 W Hillcrest Blvd","City":"Inglewood","State":"CA","Zip":"90301"},{"Location":"N PLAN B INC","Address":"322 S Market St","City":"Inglewood","State":"CA","Zip":"90301"},{"Location":"NEW BEGINNINGS HUMAN SERV","Address":"405 W Manchester Blvd H","City":"Inglewood","State":"CA","Zip":"90301"},{"Location":"NEW VISION DAY PROGRAM CORP","Address":"336 E Kelso St","City":"Inglewood","State":"CA","Zip":"90301"},{"Location":"NEW VISION DAY PROGRAM INC","Address":"715 S Prairie Ave","City":"Inglewood","State":"CA","Zip":"90301"},{"Location":"NOVEDADES LA GUAPA","Address":"913 S Inglewood Ave","City":"Inglewood","State":"CA","Zip":"90301"},{"Location":"ORLEANS YORK DELI","Address":"400 E Florence Ave","City":"Inglewood","State":"CA","Zip":"90301"},{"Location":"PACIFIC HEALTH MAGMT 2","Address":"418 1%2F2 E Arbor Vitae St","City":"Inglewood","State":"CA","Zip":"90301"},{"Location":"PIERRE ENTERTAINMENT","Address":"8717 Aviation Blvd","City":"Inglewood","State":"CA","Zip":"90301"},{"Location":"PLANET FITNESS","Address":"500 E Manchester Blvd A","City":"Inglewood","State":"CA","Zip":"90301"},{"Location":"PLATINUM CUTS","Address":"233 S La Brea Ave","City":"Inglewood","State":"CA","Zip":"90301"},{"Location":"PURRY COMMUNICATIONS GRP","Address":"8901 South Lacienega Blvd Sssu","City":"Inglewood","State":"CA","Zip":"90301"},{"Location":"Q NAILS","Address":"300 W Manchester Blvd","City":"Inglewood","State":"CA","Zip":"90301"},{"Location":"QUALITY BAIL BONDS","Address":"210 E Regent St A","City":"Inglewood","State":"CA","Zip":"90301"},{"Location":"QUENTELLA FORMAN","Address":"265 E Buckthorn St 2","City":"Inglewood","State":"CA","Zip":"90301"},{"Location":"R HICKS REALTY","Address":"401 E Hillcrest Blvd J","City":"Inglewood","State":"CA","Zip":"90301"},{"Location":"REGENT SQ APRT HOMES","Address":"527 W Regent St","City":"Inglewood","State":"CA","Zip":"90301"},{"Location":"RENNER MOTOR SPORT","Address":"324 W Florence Ave","City":"Inglewood","State":"CA","Zip":"90301"},{"Location":"ROBERTS INCOME TAX","Address":"415 W Manchester Blvd 101","City":"Inglewood","State":"CA","Zip":"90301"},{"Location":"ROYAL ELECTRIC COMPANY","Address":"1231 Myrtle Ave","City":"Inglewood","State":"CA","Zip":"90301"},{"Location":"SIZZLER 266","Address":"831 E Manchester Blvd","City":"Inglewood","State":"CA","Zip":"90301"},{"Location":"SPENCER 4 HIRE","Address":"9009 S La Cienega Blvd A","City":"Inglewood","State":"CA","Zip":"90301"},{"Location":"STYLE SHOES","Address":"405 W Arbor Vitae St","City":"Inglewood","State":"CA","Zip":"90301"},{"Location":"SWEET RED PEACH CUSTOM","Address":"1035 S Prairie Ave Suite","City":"Inglewood","State":"CA","Zip":"90301"},{"Location":"TEFERI ALEMAYEHU","Address":"470 1%2F2 S Market St","City":"Inglewood","State":"CA","Zip":"90301"},{"Location":"THE SALON","Address":"430 E Florence Ave","City":"Inglewood","State":"CA","Zip":"90301"},{"Location":"THE SALVATION ARMY","Address":"324 E Queen St","City":"Inglewood","State":"CA","Zip":"90301"},{"Location":"THE SAVOY","Address":"214 S La Brea Ave","City":"Inglewood","State":"CA","Zip":"90301"},{"Location":"TOP SALES REAL ESTATE","Address":"233 S Market St 104","City":"Inglewood","State":"CA","Zip":"90301"},{"Location":"TRIN-I-TEE","Address":"400 North Labrea Ave #300 300","City":"Inglewood","State":"CA","Zip":"90301"},{"Location":"TUMBYS PIZZA","Address":"1041 W Manchester Blvd","City":"Inglewood","State":"CA","Zip":"90301"},{"Location":"ULTIMATE PROFESSIONAL SERVICE","Address":"517 W Manchester Blvd","City":"Inglewood","State":"CA","Zip":"90301"},{"Location":"UNIQUE LAUNDRY","Address":"232 S Glasgow Ave","City":"Inglewood","State":"CA","Zip":"90301"},{"Location":"UNITED FOOD COMMERCIAL","Address":"9075 S La Cienega Blvd","City":"Inglewood","State":"CA","Zip":"90301"},{"Location":"UNITED STATES VETERANS","Address":"733 Hindry Ave 204","City":"Inglewood","State":"CA","Zip":"90301"},{"Location":"UNITRANS    INTERNATIONAL","Address":"709 Hindry Ave","City":"Inglewood","State":"CA","Zip":"90301"},{"Location":"UNIVERSITY OF WEST LOS ANGELES","Address":"9800 S La Cienega Blvd 12fl","City":"Inglewood","State":"CA","Zip":"90301"},{"Location":"VANGAURD CAR RENTAL","Address":"1213 W Arbor Vitae St","City":"Inglewood","State":"CA","Zip":"90301"},{"Location":"VICTORY OUTREACH INGLEWOOD","Address":"310 E Arbor Vitae St","City":"Inglewood","State":"CA","Zip":"90301"},{"Location":"ZEPHYR  MANUFACTURING","Address":"201 Hindry Ave","City":"Inglewood","State":"CA","Zip":"90301"}]