[{"Location":"4 MBA INCOME TAX","Address":"3530 W Century Blvd 103","City":"Inglewood","State":"CA","Zip":"90303"},{"Location":"AMERICAN FACT ADVISORS","Address":"11161 Crenshaw Blvd","City":"Inglewood","State":"CA","Zip":"90303"},{"Location":"CHILE VERDE","Address":"3382 W Century Blvd","City":"Inglewood","State":"CA","Zip":"90303"},{"Location":"CHILI'S #1094","Address":"3490 W Century Blvd","City":"Inglewood","State":"CA","Zip":"90303"},{"Location":"CONISEAFOOD","Address":"3544 W Imperial Hwy","City":"Inglewood","State":"CA","Zip":"90303"},{"Location":"COSTCO","Address":"3560 W Century Blvd","City":"Inglewood","State":"CA","Zip":"90303"},{"Location":"DAVITA #2542 IMPERIAL","Address":"2738 W Imperial Hwy","City":"Inglewood","State":"CA","Zip":"90303"},{"Location":"DENTAL PLAYGROUND","Address":"3530 W Century Blvd","City":"Inglewood","State":"CA","Zip":"90303"},{"Location":"EL PUERTO ESCONDIDO","Address":"3629 W Imperial Hwy","City":"Inglewood","State":"CA","Zip":"90303"},{"Location":"HOLLY PARK MOTEL","Address":"3928 W Imperial Hwy","City":"Inglewood","State":"CA","Zip":"90303"},{"Location":"HOLLYWOOD PARK CASINO","Address":"3883 W Century Blvd","City":"Inglewood","State":"CA","Zip":"90303"},{"Location":"IMPERIAL CRENSHAW DENTAL CTR","Address":"2798 W Imperial Hwy","City":"Inglewood","State":"CA","Zip":"90303"},{"Location":"LA LLAMARADA","Address":"10711 S Prairie Ave","City":"Inglewood","State":"CA","Zip":"90303"},{"Location":"LA QUINTA INN","Address":"3945 W Imperial Hwy","City":"Inglewood","State":"CA","Zip":"90303"},{"Location":"MCCORMICK AMBULANCE SERV","Address":"3738 W Imperial Hwy","City":"Inglewood","State":"CA","Zip":"90303"},{"Location":"RED LOBSTER #6327","Address":"3400 W Century Blvd","City":"Inglewood","State":"CA","Zip":"90303"},{"Location":"SECURITY PATROL MANAGEMENT COR","Address":"2930 W Imperial Hwy 508","City":"Inglewood","State":"CA","Zip":"90303"},{"Location":"TARGET STORES","Address":"3471 W Century Blvd","City":"Inglewood","State":"CA","Zip":"90303"},{"Location":"THE NEW HEALTHY WORLD","Address":"3405 W Imperial Hwy","City":"Inglewood","State":"CA","Zip":"90303"},{"Location":"THE TIME LOUNGE","Address":"10612 S Prairie Ave","City":"Inglewood","State":"CA","Zip":"90303"},{"Location":"WE KUT BARBERSHOP","Address":"10901 Crenshaw Blvd","City":"Inglewood","State":"CA","Zip":"90303"},{"Location":"WILLIAMS FINANCIAL SERVICES","Address":"2930 W Imperial Hwy 321","City":"Inglewood","State":"CA","Zip":"90303"},{"Location":"WINGSTOP - INGLEWOOD","Address":"3351 W Century Blvd 103","City":"Inglewood","State":"CA","Zip":"90303"},{"Location":"ZSACK AND F CLEANERS","Address":"10300 S Prairie Ave","City":"Inglewood","State":"CA","Zip":"90303"},{"Location":"4 MBA INCOME TAX","Address":"3530 W Century Blvd 103","City":"Inglewood","State":"CA","Zip":"90303"},{"Location":"AMERICAN FACT ADVISORS","Address":"11161 Crenshaw Blvd","City":"Inglewood","State":"CA","Zip":"90303"},{"Location":"CHILE VERDE","Address":"3382 W Century Blvd","City":"Inglewood","State":"CA","Zip":"90303"},{"Location":"CHILI'S #1094","Address":"3490 W Century Blvd","City":"Inglewood","State":"CA","Zip":"90303"},{"Location":"CONISEAFOOD","Address":"3544 W Imperial Hwy","City":"Inglewood","State":"CA","Zip":"90303"},{"Location":"COSTCO","Address":"3560 W Century Blvd","City":"Inglewood","State":"CA","Zip":"90303"},{"Location":"DAVITA #2542 IMPERIAL","Address":"2738 W Imperial Hwy","City":"Inglewood","State":"CA","Zip":"90303"},{"Location":"DENTAL PLAYGROUND","Address":"3530 W Century Blvd","City":"Inglewood","State":"CA","Zip":"90303"},{"Location":"EL PUERTO ESCONDIDO","Address":"3629 W Imperial Hwy","City":"Inglewood","State":"CA","Zip":"90303"},{"Location":"HOLLY PARK MOTEL","Address":"3928 W Imperial Hwy","City":"Inglewood","State":"CA","Zip":"90303"},{"Location":"HOLLYWOOD PARK CASINO","Address":"3883 W Century Blvd","City":"Inglewood","State":"CA","Zip":"90303"},{"Location":"IMPERIAL CRENSHAW DENTAL CTR","Address":"2798 W Imperial Hwy","City":"Inglewood","State":"CA","Zip":"90303"},{"Location":"LA LLAMARADA","Address":"10711 S Prairie Ave","City":"Inglewood","State":"CA","Zip":"90303"},{"Location":"LA QUINTA INN","Address":"3945 W Imperial Hwy","City":"Inglewood","State":"CA","Zip":"90303"},{"Location":"MCCORMICK AMBULANCE SERV","Address":"3738 W Imperial Hwy","City":"Inglewood","State":"CA","Zip":"90303"},{"Location":"RED LOBSTER #6327","Address":"3400 W Century Blvd","City":"Inglewood","State":"CA","Zip":"90303"},{"Location":"SECURITY PATROL MANAGEMENT COR","Address":"2930 W Imperial Hwy 508","City":"Inglewood","State":"CA","Zip":"90303"},{"Location":"TARGET STORES","Address":"3471 W Century Blvd","City":"Inglewood","State":"CA","Zip":"90303"},{"Location":"THE NEW HEALTHY WORLD","Address":"3405 W Imperial Hwy","City":"Inglewood","State":"CA","Zip":"90303"},{"Location":"THE TIME LOUNGE","Address":"10612 S Prairie Ave","City":"Inglewood","State":"CA","Zip":"90303"},{"Location":"WE KUT BARBERSHOP","Address":"10901 Crenshaw Blvd","City":"Inglewood","State":"CA","Zip":"90303"},{"Location":"WILLIAMS FINANCIAL SERVICES","Address":"2930 W Imperial Hwy 321","City":"Inglewood","State":"CA","Zip":"90303"},{"Location":"WINGSTOP - INGLEWOOD","Address":"3351 W Century Blvd 103","City":"Inglewood","State":"CA","Zip":"90303"},{"Location":"ZSACK AND F CLEANERS","Address":"10300 S Prairie Ave","City":"Inglewood","State":"CA","Zip":"90303"}]