[{"Location":"AAMCO TRANSMISSIONS","Address":"4306 W Century Blvd","City":"Inglewood","State":"CA","Zip":"90304"},{"Location":"AGUAS MEXICO","Address":"10127 Hawthorne Blvd","City":"Inglewood","State":"CA","Zip":"90304"},{"Location":"BERTOS BARBER SHOP","Address":"10125 Hawthorne Blvd","City":"Inglewood","State":"CA","Zip":"90304"},{"Location":"BESTA HEALTH1","Address":"1117 South Inglewood Avenue","City":"Inglewood","State":"CA","Zip":"90304"},{"Location":"CARFIX","Address":"4055 W Century Blvd","City":"Inglewood","State":"CA","Zip":"90304"},{"Location":"CENTURY FLOWER MKT","Address":"4701 W Century Blvd","City":"Inglewood","State":"CA","Zip":"90304"},{"Location":"CHAPIN RESTAURANT BAKERY","Address":"4074 W Century Blvd","City":"Inglewood","State":"CA","Zip":"90304"},{"Location":"DAVITA #693 AIRPORT","Address":"11300 Hawthorne Blvd","City":"Inglewood","State":"CA","Zip":"90304"},{"Location":"ECONO LUBE N TUNE","Address":"4639 W Century Blvd","City":"Inglewood","State":"CA","Zip":"90304"},{"Location":"EL FANDANGO","Address":"4233 W Century Blvd 7","City":"Inglewood","State":"CA","Zip":"90304"},{"Location":"EL PUERTO ESCONDIDO","Address":"10321 Hawthorne Blvd","City":"Inglewood","State":"CA","Zip":"90304"},{"Location":"GEEZ HAIR SHOP","Address":"925 La Brea Ave","City":"Inglewood","State":"CA","Zip":"90304"},{"Location":"GRACIELA BEAUTY SALON","Address":"10019 S Inglewood Ave","City":"Inglewood","State":"CA","Zip":"90304"},{"Location":"INDIA GRILL EXPRESS","Address":"11918 Aviation Blvd","City":"Inglewood","State":"CA","Zip":"90304"},{"Location":"LA FONDA MEXICAN FOOD","Address":"4649 W Century Blvd","City":"Inglewood","State":"CA","Zip":"90304"},{"Location":"LA PLAYA MARKET","Address":"10736 S Inglewood Ave","City":"Inglewood","State":"CA","Zip":"90304"},{"Location":"LA SIRENA AZUL","Address":"4545 W Century Blvd","City":"Inglewood","State":"CA","Zip":"90304"},{"Location":"LOS ANGELES COUNTY","Address":"4343 Lennox Blvd","City":"Inglewood","State":"CA","Zip":"90304"},{"Location":"MARISCOS CHENTE","Address":"10020 S Inglewood Ave","City":"Inglewood","State":"CA","Zip":"90304"},{"Location":"MEGA AIRPORT PARKING","Address":"11200 Hawthorne Blvd","City":"Inglewood","State":"CA","Zip":"90304"},{"Location":"NATIONS BUS CORP","Address":"10219 Hawthorne Blvd","City":"Inglewood","State":"CA","Zip":"90304"},{"Location":"PELUQUERIA RODRIGUEZ","Address":"10420 S Inglewood Ave","City":"Inglewood","State":"CA","Zip":"90304"},{"Location":"PESCADERIA EL GOLFO","Address":"10521 S Inglewood Ave","City":"Inglewood","State":"CA","Zip":"90304"},{"Location":"RAYCO AUTOSALES","Address":"11914 Aviation Blvd 103","City":"Inglewood","State":"CA","Zip":"90304"},{"Location":"STYLE SHOES2","Address":"10727 S Inglewood Ave","City":"Inglewood","State":"CA","Zip":"90304"},{"Location":"TTT  S  BEAUTY SALON","Address":"10401 1%2F2 S Inglewood Ave","City":"Lennox","State":"CA","Zip":"90304"}]