[{"Location":"A HOUSE OF CARPET","Address":"3002 W Manchester Blvd","City":"Inglewood","State":"CA","Zip":"90305"},{"Location":"AMERICAN CNA SCHOOL","Address":"2222 W Manchester Blvd","City":"Inglewood","State":"CA","Zip":"90305"},{"Location":"CLASSY CREATIONS","Address":"8458 Crenshaw Blvd","City":"Inglewood","State":"CA","Zip":"90305"},{"Location":"FABULOUS FORUM","Address":"3900 W Manchester Blvd","City":"Inglewood","State":"CA","Zip":"90305"},{"Location":"FIRST CHURCH OF GOD","Address":"9550 Crenshaw Blvd","City":"Inglewood","State":"CA","Zip":"90305"},{"Location":"LAVENDER BLUE","Address":"3310 W Manchester Blvd","City":"Inglewood","State":"CA","Zip":"90305"},{"Location":"LMS WINGS LLC OFFICE","Address":"2323 W Manchester Blvd E","City":"Inglewood","State":"CA","Zip":"90305"},{"Location":"MORNINGSIDE CHURCH","Address":"8722 Crenshaw Blvd","City":"Inglewood","State":"CA","Zip":"90305"},{"Location":"MSG FORUM  LLC","Address":"3900 W Manchester Blvd","City":"Inglewood","State":"CA","Zip":"90305"},{"Location":"NEW BUILDING STONES LLC","Address":"2521 W Manchester Blvd","City":"Inglewood","State":"CA","Zip":"90305"},{"Location":"NU CUTS BARBER SHOP","Address":"8005 S Van Ness Ave","City":"Inglewood","State":"CA","Zip":"90305"},{"Location":"OPULENT TRANSPORT","Address":"3500 W Manchester Blvd 225","City":"Inglewood","State":"CA","Zip":"90305"},{"Location":"POOPIDOOS BY DEB THE SALON","Address":"8414 Crenshaw Blvd","City":"Inglewood","State":"CA","Zip":"90305"},{"Location":"PRIORITIES  HAIR AND NAILS","Address":"2318 W 79th St","City":"Inglewood","State":"CA","Zip":"90305"},{"Location":"SOUL SISTERS HAIR STYLING","Address":"2910 W Manchester Blvd","City":"Inglewood","State":"CA","Zip":"90305"},{"Location":"VICTORY IN CHRIST MINIST","Address":"3220 W 85th St","City":"Inglewood","State":"CA","Zip":"90305"},{"Location":"WINGSTOP #546","Address":"2323 W Manchester Blvd","City":"Inglewood","State":"CA","Zip":"90305"}]