[{"Location":"KIDS CASTLE CHILDCARE","Address":"745 North Labrea Ave","City":"Englewood","State":"CA","Zip":"90302"},{"Location":"BALLOONS ON WHEELS","Address":"1023 N La Brea Ave","City":"Inglewood","State":"CA","Zip":"90302"},{"Location":"BAYOU GRILLE","Address":"1400 N La Brea Ave","City":"Inglewood","State":"CA","Zip":"90302"},{"Location":"BUSINESS DATA INC","Address":"321 N Oak St","City":"Inglewood","State":"CA","Zip":"90302"},{"Location":"CENTINELA MEDICAL GROUP","Address":"933 Centinela Ave B","City":"Inglewood","State":"CA","Zip":"90302"},{"Location":"CENTURY VILLA INC","Address":"301 Centinela Ave","City":"Inglewood","State":"CA","Zip":"90302"},{"Location":"CHARLES A MATTISON DDS","Address":"933 Centinela Ave","City":"Inglewood","State":"CA","Zip":"90302"},{"Location":"CROSS ROADS FINACIAL","Address":"6828 S La Cienega Blvd","City":"Inglewood","State":"CA","Zip":"90302"},{"Location":"CURTOM BUILDING & DEVELOS","Address":"1120 N La Brea Ave","City":"Inglewood","State":"CA","Zip":"90302"},{"Location":"DONAJI RESTAURANT","Address":"902 N La Brea Ave","City":"Inglewood","State":"CA","Zip":"90302"},{"Location":"EURO CAR SERVICE","Address":"800 Centinela Ave","City":"Inglewood","State":"CA","Zip":"90302"},{"Location":"FIESTA MARTIN MEXICAN GRILL","Address":"1314 N La Brea Ave","City":"Inglewood","State":"CA","Zip":"90302"},{"Location":"FIESTA MEXICAN GRILL","Address":"1330 N La Brea Ave","City":"Inglewood","State":"CA","Zip":"90302"},{"Location":"FIRST QUALITY TAX SERVIC","Address":"1401 N La Brea Ave","City":"Inglewood","State":"CA","Zip":"90302"},{"Location":"FIRST QUALITY TAX SERVICE","Address":"1401 N La Brea Ave","City":"Inglewood","State":"CA","Zip":"90302"},{"Location":"FMC 61810000","Address":"610 N Eucalyptus Ave","City":"Inglewood","State":"CA","Zip":"90302"},{"Location":"FMC 71780000","Address":"1416 Centinela Ave","City":"Inglewood","State":"CA","Zip":"90302"},{"Location":"GOOD SHEPHERD HOMES","Address":"512 Centinela Ave","City":"Inglewood","State":"CA","Zip":"90302"},{"Location":"GOOD SHEPHERD HOMES","Address":"510 Centinela Ave","City":"Inglewood","State":"CA","Zip":"90302"},{"Location":"HAIR HAIR AND HAIR","Address":"1580 Centinela Ave 5","City":"Inglewood","State":"CA","Zip":"90302"},{"Location":"HUNGRY JOES","Address":"1100 N Labrea Ave Ste 100","City":"Inglewood","State":"CA","Zip":"90302"},{"Location":"IBEX RESTAURANT 2","Address":"726 N La Brea Ave","City":"Inglewood","State":"CA","Zip":"90302"},{"Location":"JERRYS TREE SERVICE INC","Address":"811 W Hyde Park Blvd","City":"Inglewood","State":"CA","Zip":"90302"},{"Location":"JN LANDSCAPING","Address":"904 W Hyde Pard","City":"Inglewood","State":"CA","Zip":"90302"},{"Location":"LA BELLA SEM","Address":"1504 1%2F2 N La Brea Ave","City":"Inglewood","State":"CA","Zip":"90302"},{"Location":"LA DERA HEIGHTS AUTO CENTER","Address":"802 N La Brea Ave","City":"Inglewood","State":"CA","Zip":"90302"},{"Location":"MARVIN ENGINEERING CO INC","Address":"261 W Beach Ave","City":"Inglewood","State":"CA","Zip":"90302"},{"Location":"QUALITY EQUIPMENT RENTALS INC","Address":"711 N La Brea Ave","City":"Inglewood","State":"CA","Zip":"90302"},{"Location":"RESTORATION THE SALON 2","Address":"1634 Centinela Ave","City":"Inglewood","State":"CA","Zip":"90302"},{"Location":"SPA 313","Address":"313 N La Brea Ave","City":"Inglewood","State":"CA","Zip":"90302"},{"Location":"STATE FARM-WOW","Address":"1300 Centinela Ave 101","City":"Inglewood","State":"CA","Zip":"90302"},{"Location":"SUPERIOR 1 PLUMBING INC","Address":"1617 Centinela Ave","City":"Inglewood","State":"CA","Zip":"90302"},{"Location":"TAYLOR MAID STUDIO","Address":"1400 Centinela Ave","City":"Inglewood","State":"CA","Zip":"90302"},{"Location":"THE GREEN HORSE","Address":"1662 Centinela Ave","City":"Inglewood","State":"CA","Zip":"90302"},{"Location":"THE SERVING SPOON RESTAURANT","Address":"1403 Centinela Ave","City":"Inglewood","State":"CA","Zip":"90302"},{"Location":"TRANSITIONS SPEECH AND LANGUAG","Address":"1630 Centinela Ave","City":"Inglewood","State":"CA","Zip":"90302"},{"Location":"WITHOUT LIMITS HAIR","Address":"1137 N La Brea Ave","City":"Inglewood","State":"CA","Zip":"90302"}]