[{"Location":"2811 WILSHIRE ASSOCIATES LLC","Address":"2811 Wilshire Blvd","City":"Santa Monica","State":"CA","Zip":"90403"},{"Location":"ABACUS  INSURANCE BROKERS INC","Address":"2512 Wilshire Blvd","City":"Santa Monica","State":"CA","Zip":"90403"},{"Location":"ACTIVE BARBERS","Address":"2509 Wilshire Blvd","City":"Santa Monica","State":"CA","Zip":"90403"},{"Location":"AMERICAN DENTAL CERAMICS","Address":"2730 Wilshire Blvd 265","City":"Santa Monica","State":"CA","Zip":"90403"},{"Location":"BLUE PLATE","Address":"1415 Montana Ave","City":"Santa Monica","State":"CA","Zip":"90403"},{"Location":"CASA ESCOBAR","Address":"2500 Wilshire Blvd","City":"Santa Monica","State":"CA","Zip":"90403"},{"Location":"EARTH WIND AND FLOUR","Address":"2222 Wilshire Blvd","City":"Santa Monica","State":"CA","Zip":"90403"},{"Location":"EDDIES BARBERSHOP","Address":"2305 Wilshire Blvd","City":"Santa Monica","State":"CA","Zip":"90403"},{"Location":"FATHERS OFFICE","Address":"1018 Montana Ave","City":"Santa Monica","State":"CA","Zip":"90403"},{"Location":"FIDELITY INVESTMENTS 357","Address":"1200 Wilshire Blvd","City":"Santa Monica","State":"CA","Zip":"90403"},{"Location":"FRAWLEY & ASSOCIATES","Address":"2444 Wilshire Blvd 303","City":"Santa Monica","State":"CA","Zip":"90403"},{"Location":"FUDDRUCKER'S #3394","Address":"2002 Wilshire Blvd","City":"Santa Monica","State":"CA","Zip":"90403"},{"Location":"GOLD TRUST FINANCIAL","Address":"3201 Wilshire Blvd 301","City":"Santa Monica","State":"CA","Zip":"90403"},{"Location":"GROSVENOR PARK MEDIA","Address":"1310 Montana Ave","City":"Santa Monica","State":"CA","Zip":"90403"},{"Location":"GROUP LLC","Address":"2719 Wilshire Blvd 200","City":"Santa Monica","State":"CA","Zip":"90403"},{"Location":"HEIDT CAPITAL GROUP","Address":"3201 Wilshire Blvd 210","City":"Santa Monica","State":"CA","Zip":"90403"},{"Location":"HOUSE OF BILLIARDS","Address":"1901 Wilshire Blvd","City":"Santa Monica","State":"CA","Zip":"90403"},{"Location":"ICON CONCERTS","Address":"1118 3rd St 501","City":"Santa Monica","State":"CA","Zip":"90403"},{"Location":"IZZYS DELI RESTAURANT","Address":"1433 Wilshire Blvd A","City":"Santa Monica","State":"CA","Zip":"90403"},{"Location":"IZZYS OFFICE","Address":"1433 Wilshire Blvd B","City":"Santa Monica","State":"CA","Zip":"90403"},{"Location":"JONATHAN CLUB","Address":"850 Palisades Beach Rd","City":"Santa Monica","State":"CA","Zip":"90403"},{"Location":"K A  S ASSOCIATES","Address":"2932 Wilshire Blvd 100","City":"Santa Monica","State":"CA","Zip":"90403"},{"Location":"KIMUYA","Address":"2830 Wilshire Blvd","City":"Santa Monica","State":"CA","Zip":"90403"},{"Location":"KREAM  SALON","Address":"3021 Wilshire Blvd","City":"Santa Monica","State":"CA","Zip":"90403"},{"Location":"LIFESPAN MEDICINE","Address":"2811 Wilshire Blvd 610","City":"Santa Monica","State":"CA","Zip":"90403"},{"Location":"LOCANDA PORTOFINO","Address":"1110 Montana Ave","City":"Santa Monica","State":"CA","Zip":"90403"},{"Location":"MARIAS ITALIAN KITCHEN","Address":"3001 Wilshire Blvd","City":"Santa Monica","State":"CA","Zip":"90403"},{"Location":"MARK ROTHSCHILD","Address":"2315 Wilshire Blvd","City":"Santa Monica","State":"CA","Zip":"90403"},{"Location":"MEDFOCUS RADIOLOGY NETWO","Address":"2811 Wilshire Blvd 900","City":"Santa Monica","State":"CA","Zip":"90403"},{"Location":"MEDICAL IMAGING CENTER","Address":"2811 Wilshire Blvd 850","City":"Santa Monica","State":"CA","Zip":"90403"},{"Location":"MEN'S WEARHOUSE #2703","Address":"1701 Wilshire Blvd","City":"Santa Monica","State":"CA","Zip":"90403"},{"Location":"NOMA SUSHI","Address":"2031 Wilshire Blvd","City":"Santa Monica","State":"CA","Zip":"90403"},{"Location":"O'BRIEN'S IRISH PUB","Address":"2226 Wilshire Blvd","City":"Santa Monica","State":"CA","Zip":"90403"},{"Location":"PACIFIC DINING CAR INC","Address":"2700 Wilshire Blvd","City":"Santa Monica","State":"CA","Zip":"90403"},{"Location":"PACIFIC TRUST BANK","Address":"2635 Wilshire Blvd","City":"Santa Monica","State":"CA","Zip":"90403"},{"Location":"PLANAHEAD LLC","Address":"3130 Wilshire Blvd","City":"Santa Monica","State":"CA","Zip":"90403"},{"Location":"PREMIER PARTNERSHIPS","Address":"1148 4th St","City":"Santa Monica","State":"CA","Zip":"90403"},{"Location":"R & D KITCHEN","Address":"1323 Montana Ave","City":"Santa Monica","State":"CA","Zip":"90403"},{"Location":"RICHARD EDLUND FILMS","Address":"2710 Wilshire Blvd","City":"Santa Monica","State":"CA","Zip":"90403"},{"Location":"RIEHL CONSTRUCTION","Address":"2444 Wilshire Blvd","City":"Santa Monica","State":"CA","Zip":"90403"},{"Location":"SANTA MONICA PIZZA KITCHEN","Address":"1318 Wilshire Blvd","City":"Santa Monica","State":"CA","Zip":"90403"},{"Location":"SUPER CUTS","Address":"1828 Wilshire Blvd","City":"Santa Monica","State":"CA","Zip":"90403"},{"Location":"SUSHI SHO","Address":"1303 Montana Ave","City":"Santa Monica","State":"CA","Zip":"90403"},{"Location":"TACOTECA","Address":"2460 Wilshire Blvd","City":"Santa Monica","State":"CA","Zip":"90403"},{"Location":"THE DUCK BLIND","Address":"1102 Montana Ave","City":"Santa Monica","State":"CA","Zip":"90403"},{"Location":"THE GASLITE","Address":"2030 Wilshire Blvd","City":"Santa Monica","State":"CA","Zip":"90403"},{"Location":"THE RED SETTER","Address":"2615 Wilshire Blvd","City":"Santa Monica","State":"CA","Zip":"90403"},{"Location":"TOP TO TOP","Address":"2621 Wilshire Blvd","City":"Santa Monica","State":"CA","Zip":"90403"},{"Location":"TRACY S NAIL SPA","Address":"1210 Montana Ave C","City":"Santa Monica","State":"CA","Zip":"90403"},{"Location":"TRU BEAUTY INC","Address":"3102 Wilshire Blvd","City":"Santa Monica","State":"CA","Zip":"90403"},{"Location":"UAMG CONTENT LLC","Address":"1158 26th St 557","City":"Santa Monica","State":"CA","Zip":"90403"},{"Location":"USHUAIA RESTAURANT","Address":"2628 Wilshire Blvd","City":"Santa Monica","State":"CA","Zip":"90403"},{"Location":"VERT CENTER OF  SANTA MONICA","Address":"3011 Wilshire Blvd","City":"Santa Monica","State":"CA","Zip":"90403"},{"Location":"WHITE INC COMPANY INSURANCE","Address":"3130 Wilshire Blvd 200","City":"Santa Monica","State":"CA","Zip":"90403"},{"Location":"WHITER AND BRIGTER DENTAL","Address":"3201 Wilshire Blvd 110","City":"Santa Monica","State":"CA","Zip":"90403"},{"Location":"WHOLE FOODS MARKET #23","Address":"2201 Wilshire Blvd","City":"Santa Monica","State":"CA","Zip":"90403"},{"Location":"WILSHIRE HOUSE","Address":"1125 3rd St 100","City":"Santa Monica","State":"CA","Zip":"90403"}]