[{"Location":"220 FITNESS","Address":"3002 Main St","City":"Santa Monica","State":"CA","Zip":"90405"},{"Location":"24 HOUR FITNESS #183","Address":"2929 31st St","City":"Santa Monica","State":"CA","Zip":"90405"},{"Location":"31 TEN","Address":"3110 Main St","City":"Santa Monica","State":"CA","Zip":"90405"},{"Location":"ALS AVIATION LLC","Address":"3100 Donald Douglas Loop N 3","City":"Santa Monica","State":"CA","Zip":"90405"},{"Location":"ASP","Address":"149 Bay St","City":"Santa Monica","State":"CA","Zip":"90405"},{"Location":"ATLANTIC AVIATION SMO","Address":"2828 Donald Douglas Loop N 25","City":"Santa Monica","State":"CA","Zip":"90405"},{"Location":"BRIANS HAIR STUDIO","Address":"3013 Pico Blvd","City":"Santa Monica","State":"CA","Zip":"90405"},{"Location":"BRIXTON","Address":"2827 Pico Blvd","City":"Santa Monica","State":"CA","Zip":"90405"},{"Location":"BULL'S PUB AND GRILL","Address":"2947 Lincoln Blvd","City":"Santa Monica","State":"CA","Zip":"90405"},{"Location":"CHOAS ENTERPRISES","Address":"2400 Ocean Front Walk","City":"Santa Monica","State":"CA","Zip":"90405"},{"Location":"CRA REALTY","Address":"2716 Ocean Park Blvd","City":"Santa Monica","State":"CA","Zip":"90405"},{"Location":"CURIEL & PARKER","Address":"3113 Pico Blvd","City":"Santa Monica","State":"CA","Zip":"90405"},{"Location":"DELUXE SPA","Address":"2913 Main St","City":"Santa Monica","State":"CA","Zip":"90405"},{"Location":"EL TORITO 7045","Address":"3360 Ocean Park Blvd","City":"Santa Monica","State":"CA","Zip":"90405"},{"Location":"ELIAS ARTS","Address":"2219 Main St","City":"Santa Monica","State":"CA","Zip":"90405"},{"Location":"ENTERPRISE FISH COMPANY","Address":"174 Kinney St","City":"Santa Monica","State":"CA","Zip":"90405"},{"Location":"EPOCH.COM LLC","Address":"2644 30th St 2","City":"Santa Monica","State":"CA","Zip":"90405"},{"Location":"EQUITY OFFICE-6080","Address":"3200 Ocean Park Blvd","City":"Santa Monica","State":"CA","Zip":"90405"},{"Location":"FANTASTIC SAMS","Address":"2639 Lincoln Blvd","City":"Santa Monica","State":"CA","Zip":"90405"},{"Location":"FAST TACO NO.11","Address":"2901 Ocean Park Blvd","City":"Santa Monica","State":"CA","Zip":"90405"},{"Location":"FINN MCCOOLS IRISH PUB","Address":"2702 Main St","City":"Santa Monica","State":"CA","Zip":"90405"},{"Location":"FIRST PACIFIC FINANCIAL","Address":"3420 Ocean Park Blvd 3020","City":"Santa Monica","State":"CA","Zip":"90405"},{"Location":"FRED HARVEY MGMT CO","Address":"2656 29th St 207","City":"Santa Monica","State":"CA","Zip":"90405"},{"Location":"GERBER KAWASAKI INC","Address":"2716 Ocean Park Blvd 2020","City":"Santa Monica","State":"CA","Zip":"90405"},{"Location":"GRAND MELIN GROUP INC","Address":"1021 Grant St","City":"Santa Monica","State":"CA","Zip":"90405"},{"Location":"GUTHY-RENKER CORP 2","Address":"3340 Ocean Park Blvd 3055","City":"Santa Monica","State":"CA","Zip":"90405"},{"Location":"HEARST CORPORATION","Address":"3000 Ocean Park Blvd 2nd","City":"Santa Monica","State":"CA","Zip":"90405"},{"Location":"HOTEL CASA DEL MAR","Address":"1910 Ocean Way","City":"Santa Monica","State":"CA","Zip":"90405"},{"Location":"INSTITUTE FOR  NERVE MEDICINE","Address":"2716 Ocean Park Blvd 3082","City":"Santa Monica","State":"CA","Zip":"90405"},{"Location":"INTERACTIVE DATA CORP","Address":"2901 28th St 300","City":"Santa Monica","State":"CA","Zip":"90405"},{"Location":"JIFFY LUBE 1379","Address":"2344 Pico Blvd","City":"Santa Monica","State":"CA","Zip":"90405"},{"Location":"JOEL F CITRON LAW OFFICE","Address":"3420 Ocean Park Blvd","City":"Santa Monica","State":"CA","Zip":"90405"},{"Location":"JOSIE RESTAURANT","Address":"2424 Pico Blvd","City":"Santa Monica","State":"CA","Zip":"90405"},{"Location":"KIAN INVESTMENTS","Address":"169 Piere Ave 4","City":"Santa Monica","State":"CA","Zip":"90405"},{"Location":"LA AGENCIA DE ORCI ASSO","Address":"2800 28th St","City":"Santa Monica","State":"CA","Zip":"90405"},{"Location":"LAKIN TIRE WEST","Address":"2828 Donald Douglas Loop N 12","City":"Santa Monica","State":"CA","Zip":"90405"},{"Location":"LANGLEY PRODUCTIONS TWO","Address":"220 Ashland Ave","City":"Santa Monica","State":"CA","Zip":"90405"},{"Location":"LOST PLANET","Address":"2515 Main St","City":"Santa Monica","State":"CA","Zip":"90405"},{"Location":"M STREET KITCHEN","Address":"2000 Main St","City":"Santa Monica","State":"CA","Zip":"90405"},{"Location":"MAIN ATTRACTION NAIL & S","Address":"2654 Main St C","City":"Santa Monica","State":"CA","Zip":"90405"},{"Location":"MARK WOOLLEN  ASSOCIATES","Address":"207 Ashland Ave","City":"Santa Monica","State":"CA","Zip":"90405"},{"Location":"MCGRAW HILL FINANCIAL","Address":"3340 Ocean Park Blvd 1070","City":"Santa Monica","State":"CA","Zip":"90405"},{"Location":"MESCALERO","Address":"127 Hollister Ave","City":"Santa Monica","State":"CA","Zip":"90405"},{"Location":"MIDWAY CAR RENTAL","Address":"1901 Ocean Ave","City":"Santa Monica","State":"CA","Zip":"90405"},{"Location":"MILSTEIN ADELMAN & KREGER%2C LLP","Address":"2800 Donald Douglas Loop N","City":"Santa Monica","State":"CA","Zip":"90405"},{"Location":"MIYAKO JAPANESE RESTAURANT","Address":"2829 Ocean Park Blvd","City":"Santa Monica","State":"CA","Zip":"90405"},{"Location":"MORE JOY AUTOMOTIVE","Address":"1325 Pico Blvd","City":"Santa Monica","State":"CA","Zip":"90405"},{"Location":"MORLEY BUILDERS INC","Address":"3330 Ocean Park Blvd","City":"Santa Monica","State":"CA","Zip":"90405"},{"Location":"NEURON SYNDICATE","Address":"1016 Pico Blvd","City":"Santa Monica","State":"CA","Zip":"90405"},{"Location":"NEXT DOOR BY JOSIE","Address":"2420 Pico Blvd","City":"Santa Monica","State":"CA","Zip":"90405"},{"Location":"NOVUS CONTENT LLC","Address":"3303 Pico Blvd","City":"Santa Monica","State":"CA","Zip":"90405"},{"Location":"O BRIENS IRISH PUB","Address":"2941 Main St","City":"Santa Monica","State":"CA","Zip":"90405"},{"Location":"OCEAN PARK CASTING","Address":"2701 Ocean Park Blvd 250","City":"Santa Monica","State":"CA","Zip":"90405"},{"Location":"OCEAN PARK HEALTH MGMT","Address":"2716 Ocean Park Blvd 1005","City":"Santa Monica","State":"CA","Zip":"90405"},{"Location":"OVATION","Address":"2850 Ocean Park Blvd 225","City":"Santa Monica","State":"CA","Zip":"90405"},{"Location":"OVATION    LLC","Address":"2800 28th St 240","City":"Santa Monica","State":"CA","Zip":"90405"},{"Location":"PB AND CAVIAR LLC","Address":"3008 Main St","City":"Santa Monica","State":"CA","Zip":"90405"},{"Location":"PKK INC","Address":"2911 Main St A","City":"Santa Monica","State":"CA","Zip":"90405"},{"Location":"PLAYERS CLUB GOLF","Address":"3211 Pico Blvd","City":"Santa Monica","State":"CA","Zip":"90405"},{"Location":"PLUS 2","Address":"2101 Lincoln Blvd","City":"Santa Monica","State":"CA","Zip":"90405"},{"Location":"RED INTERACTIVE AGENCY","Address":"3420 Ocean Park Blvd 3080","City":"Santa Monica","State":"CA","Zip":"90405"},{"Location":"RESPLENDENT LIGHT CHURCH","Address":"2800 28th St","City":"Santa Monica","State":"CA","Zip":"90405"},{"Location":"RICK'S TAVERN ON MAIN","Address":"2907 Main St","City":"Santa Monica","State":"CA","Zip":"90405"},{"Location":"RIZE","Address":"2906 Lincoln Blvd","City":"Santa Monica","State":"CA","Zip":"90405"},{"Location":"SALUTE","Address":"2435 Main St","City":"Santa Monica","State":"CA","Zip":"90405"},{"Location":"SANTA MONICA CAR WASH","Address":"2510 Pico Blvd","City":"Santa Monica","State":"CA","Zip":"90405"},{"Location":"SANTA MONICA ELKS LODGE","Address":"1040 Pico Blvd","City":"Santa Monica","State":"CA","Zip":"90405"},{"Location":"SANTA MONICA LOCK & SAFE","Address":"2208 Pico Blvd","City":"Santa Monica","State":"CA","Zip":"90405"},{"Location":"SEA COLONY HOMEOWNERS ASSOC","Address":"2849 Barnard Way","City":"Santa Monica","State":"CA","Zip":"90405"},{"Location":"SHERATON DELFINA","Address":"530 Pico Blvd","City":"Santa Monica","State":"CA","Zip":"90405"},{"Location":"SHORTS ENT NETWORK INC","Address":"2716 Ocean Park Blvd 1091","City":"Santa Monica","State":"CA","Zip":"90405"},{"Location":"SHUTTERS ON THE BEACH","Address":"1 Pico Blvd","City":"Santa Monica","State":"CA","Zip":"90405"},{"Location":"SIERRA INVESTMENT MGMT INC","Address":"3420 Ocean Park Blvd 3060","City":"Santa Monica","State":"CA","Zip":"90405"},{"Location":"SJC V LLC","Address":"3100 Donald Douglas Loop N 103","City":"Santa Monica","State":"CA","Zip":"90405"},{"Location":"SKYDANCE PRODUCTIONS","Address":"3100 Donald Douglas Loop N C2","City":"Santa Monica","State":"CA","Zip":"90405"},{"Location":"SPITFIRE GRILL","Address":"3300 Airport Ave","City":"Santa Monica","State":"CA","Zip":"90405"},{"Location":"SPOT 44 AUTO REPAIR","Address":"2907 Lincoln Blvd","City":"Santa Monica","State":"CA","Zip":"90405"},{"Location":"SUSHI HANASHI 1","Address":"1928 Lincoln Blvd","City":"Santa Monica","State":"CA","Zip":"90405"},{"Location":"TEAM DOWNEY","Address":"2828 Donald Douglas Loop N 5","City":"Santa Monica","State":"CA","Zip":"90405"},{"Location":"TENNENBAUM CAPITAL PARTNER","Address":"2951 28th St","City":"Santa Monica","State":"CA","Zip":"90405"},{"Location":"TENNIS CHANNEL","Address":"2850 Ocean Park Blvd 150","City":"Santa Monica","State":"CA","Zip":"90405"},{"Location":"THE BASEMENT TAVERN","Address":"2640 Main St","City":"Santa Monica","State":"CA","Zip":"90405"},{"Location":"THE COUNTER","Address":"2901 Ocean Park Blvd 102","City":"Santa Monica","State":"CA","Zip":"90405"},{"Location":"THE DAILY PINT","Address":"2310 Pico Blvd","City":"Santa Monica","State":"CA","Zip":"90405"},{"Location":"THE UPPER WEST","Address":"3321 Pico Blvd","City":"Santa Monica","State":"CA","Zip":"90405"},{"Location":"TONGAL INC","Address":"1918 Main St 2","City":"Santa Monica","State":"CA","Zip":"90405"},{"Location":"TREYARCH","Address":"3420 Ocean Park Blvd","City":"Santa Monica","State":"CA","Zip":"90405"},{"Location":"TSUKIJI SUSHI SEN","Address":"2915 Main St","City":"Santa Monica","State":"CA","Zip":"90405"},{"Location":"TWITTER","Address":"150 Pico Blvd","City":"Santa Monica","State":"CA","Zip":"90405"},{"Location":"TYPHOON RESTAURANT INC","Address":"3221 Donald Douglas Loop S","City":"Santa Monica","State":"CA","Zip":"90405"},{"Location":"UBM","Address":"2901 28th St 100","City":"Santa Monica","State":"CA","Zip":"90405"},{"Location":"VINTAGE MARKETING","Address":"3101 Ocean Park Blvd 307","City":"Santa Monica","State":"CA","Zip":"90405"},{"Location":"VITOS","Address":"2807 Ocean Park Blvd","City":"Santa Monica","State":"CA","Zip":"90405"},{"Location":"WATERLAND DESIGN","Address":"3400 Airport Ave B","City":"Santa Monica","State":"CA","Zip":"90405"},{"Location":"WATT SERVICES","Address":"2716 Ocean Park Blvd 2025","City":"Santa Monica","State":"CA","Zip":"90405"},{"Location":"WEST COAST CLASSIC","Address":"1918 Lincoln Blvd","City":"Santa Monica","State":"CA","Zip":"90405"},{"Location":"WORLD CAFE","Address":"2820 Main St","City":"Santa Monica","State":"CA","Zip":"90405"}]