[{"Location":"180 LA","Address":"1424 2nd St 3","City":"Santa Monica","State":"CA","Zip":"90401"},{"Location":"24 HOUR FITNESS #68","Address":"1415 2nd St","City":"Santa Monica","State":"CA","Zip":"90401"},{"Location":"41 OCEAN","Address":"1541 Ocean Ave 150","City":"Santa Monica","State":"CA","Zip":"90401"},{"Location":"5150 ACTION INC","Address":"1334 3rd Street Promenade","City":"Santa Monica","State":"CA","Zip":"90401"},{"Location":"A-MARK PRECIOUS METALS","Address":"429 Santa Monica Blvd 230","City":"Santa Monica","State":"CA","Zip":"90401"},{"Location":"ADAMMS STAINED GLASS","Address":"1426 4th St","City":"Santa Monica","State":"CA","Zip":"90401"},{"Location":"ANGELES INVEST. ADVISORS","Address":"429 Santa Monica Blvd 650","City":"Santa Monica","State":"CA","Zip":"90401"},{"Location":"BAJA FRESH SANTA MONICA","Address":"720 Wilshire Blvd 101","City":"Santa Monica","State":"CA","Zip":"90401"},{"Location":"BAR PINTXO","Address":"109 Santa Monica Blvd","City":"Santa Monica","State":"CA","Zip":"90401"},{"Location":"BARNEYS SANTA MONICA","Address":"1351 3rd St","City":"Santa Monica","State":"CA","Zip":"90401"},{"Location":"BARRY R LEVIN SCIENCE FITION A","Address":"720 Santa Monica Blvd","City":"Santa Monica","State":"CA","Zip":"90401"},{"Location":"BBT","Address":"710 Wilshire Blvd","City":"Santa Monica","State":"CA","Zip":"90401"},{"Location":"BEACHMINT","Address":"1333 2nd St 300","City":"Santa Monica","State":"CA","Zip":"90401"},{"Location":"BEADAHS","Address":"203 Arizona Ave","City":"Santa Monica","State":"CA","Zip":"90401"},{"Location":"BENIHANA #1044 SANTA MONICA","Address":"1447 4th St","City":"Santa Monica","State":"CA","Zip":"90401"},{"Location":"BERKLEY POINT CAPITAL","Address":"233 Wilshire Blvd 500","City":"Santa Monica","State":"CA","Zip":"90401"},{"Location":"BIG DEAN CAFE","Address":"1615 Ocean Front Walk","City":"Santa Monica","State":"CA","Zip":"90401"},{"Location":"BLUE PLATE OYSTERETTE","Address":"1355 Ocean Ave","City":"Santa Monica","State":"CA","Zip":"90401"},{"Location":"BOA STEAKHOUSE","Address":"101 Santa Monica Blvd","City":"Santa Monica","State":"CA","Zip":"90401"},{"Location":"BOB INDUSTRIES","Address":"1313 5th St","City":"Santa Monica","State":"CA","Zip":"90401"},{"Location":"BODEGA WINE BAR","Address":"814 Broadway","City":"Santa Monica","State":"CA","Zip":"90401"},{"Location":"BORDER GRILL-SM","Address":"1445 4th St","City":"Santa Monica","State":"CA","Zip":"90401"},{"Location":"BOSTON PRIVATE BANK","Address":"520 Broadway 150","City":"Santa Monica","State":"CA","Zip":"90401"},{"Location":"BRITANNIA PUB","Address":"318 Santa Monica Blvd","City":"Santa Monica","State":"CA","Zip":"90401"},{"Location":"BROADWAY WINE AND SPIRIT","Address":"1011 Broadway","City":"Santa Monica","State":"CA","Zip":"90401"},{"Location":"BUBBA GUMP SHRIMP SANTA MONICA","Address":"301 Santa Monica Pier","City":"Santa Monica","State":"CA","Zip":"90401"},{"Location":"BUDDAHS BELLY","Address":"205 Broadway","City":"Santa Monica","State":"CA","Zip":"90401"},{"Location":"BURN FITTNESS GYM","Address":"1233 3rd St","City":"Santa Monica","State":"CA","Zip":"90401"},{"Location":"CABO CANTINA","Address":"1240 3rd Street Promenade","City":"Santa Monica","State":"CA","Zip":"90401"},{"Location":"CALIBER COLLISION","Address":"1100 Colorado Ave","City":"Santa Monica","State":"CA","Zip":"90401"},{"Location":"CALIFORNIA SHABU S M","Address":"930 Broadway B","City":"Santa Monica","State":"CA","Zip":"90401"},{"Location":"CCRE","Address":"233 Wilshire Blvd 650","City":"Santa Monica","State":"CA","Zip":"90401"},{"Location":"CHARLES SCHWAB CC623","Address":"826 Wilshire Blvd","City":"Santa Monica","State":"CA","Zip":"90401"},{"Location":"CHERNIN ENTERTAINMENT","Address":"1733 Ocean Ave 300","City":"Santa Monica","State":"CA","Zip":"90401"},{"Location":"CHICCO CHANDLER","Address":"1315 Lincoln Blvd","City":"Santa Monica","State":"CA","Zip":"90401"},{"Location":"CI RESTAURANTS S. MONICA","Address":"401 Santa Monica Pier","City":"Santa Monica","State":"CA","Zip":"90401"},{"Location":"CORA'S COFFEE SHOP","Address":"1802 Ocean Ave","City":"Santa Monica","State":"CA","Zip":"90401"},{"Location":"CROSS CAMPUS","Address":"929 Colorado Ave","City":"Santa Monica","State":"CA","Zip":"90401"},{"Location":"DEBMAR MERCURY","Address":"225 Santa Monica Blvd 3fl","City":"Santa Monica","State":"CA","Zip":"90401"},{"Location":"DOUBLETREE GUEST SUITE 0038484","Address":"1707 4th St","City":"Santa Monica","State":"CA","Zip":"90401"},{"Location":"DOUBLETREE GUEST SUITES","Address":"1707 4th St","City":"Santa Monica","State":"CA","Zip":"90401"},{"Location":"DROBNY GLOBAL ASSET MANAGEMENT","Address":"225 Santa Monica Blvd 10","City":"Santa Monica","State":"CA","Zip":"90401"},{"Location":"EL CHOLO","Address":"1025 Wilshire Blvd","City":"Santa Monica","State":"CA","Zip":"90401"},{"Location":"EQUINOX","Address":"201 Santa Monice","City":"Santa Monica","State":"CA","Zip":"90401"},{"Location":"EQUINOX FITNESS","Address":"201 Santa Monica Blvd","City":"Santa Monica","State":"CA","Zip":"90401"},{"Location":"EQUINOX FITNESS 2","Address":"201 Santa Monica Blvd","City":"Santa Monica","State":"CA","Zip":"90401"},{"Location":"EXPLORE ANNENBERG LLC","Address":"1377 Ocean Ave A","City":"Santa Monica","State":"CA","Zip":"90401"},{"Location":"FAIRMONT MIRAMAR HOTEL","Address":"101 Wilshire Blvd","City":"Santa Monica","State":"CA","Zip":"90401"},{"Location":"FASBENDER AND ASSOCIATES","Address":"530 Wilshire Blvd Ste30","City":"Santa Monica","State":"CA","Zip":"90401"},{"Location":"FIRST REPUBLIC BANK","Address":"431 Wilshire Blvd","City":"Santa Monica","State":"CA","Zip":"90401"},{"Location":"FITNESS TOGETHER","Address":"1450 5th St 120","City":"Santa Monica","State":"CA","Zip":"90401"},{"Location":"FOCUS FEATURES LLC","Address":"1540 2nd St 200","City":"Santa Monica","State":"CA","Zip":"90401"},{"Location":"FRED SEGAL SALON","Address":"420 Broadway","City":"Santa Monica","State":"CA","Zip":"90401"},{"Location":"FRITZ MANGER PRODUCTIONS","Address":"710 Wilshire Blvd 210","City":"Santa Monica","State":"CA","Zip":"90401"},{"Location":"GK FILMS","Address":"1540 2nd St 200","City":"Santa Monica","State":"CA","Zip":"90401"},{"Location":"GROOVEWORK LLC","Address":"1418 2nd St","City":"Santa Monica","State":"CA","Zip":"90401"},{"Location":"HARGRAVE & HARGRAVE","Address":"520 Broadway 680","City":"Santa Monica","State":"CA","Zip":"90401"},{"Location":"HBX PROMENADE","Address":"1333 3rd Street Promenade","City":"Santa Monica","State":"CA","Zip":"90401"},{"Location":"HIKARI JAPANESE REST","Address":"401 Santa Monica Blvd","City":"Santa Monica","State":"CA","Zip":"90401"},{"Location":"HILLSTONE RESTAURANT","Address":"202 Wilshire Blvd","City":"Santa Monica","State":"CA","Zip":"90401"},{"Location":"HOLIDAY INN (0008330)","Address":"120 Colorado Ave","City":"Santa Monica","State":"CA","Zip":"90401"},{"Location":"HOOTERS SANTA MONICA SMW303","Address":"321 Santa Monica Blvd","City":"Santa Monica","State":"CA","Zip":"90401"},{"Location":"HOSTELLING INTERNATIONAL","Address":"1436 2nd St","City":"Santa Monica","State":"CA","Zip":"90401"},{"Location":"HOTEL CARMEL","Address":"201 Broadway","City":"Santa Monica","State":"CA","Zip":"90401"},{"Location":"HUM MUSIC","Address":"1547 9th St","City":"Santa Monica","State":"CA","Zip":"90401"},{"Location":"INNOVATIVE ARTISTS","Address":"1505 10th St","City":"Santa Monica","State":"CA","Zip":"90401"},{"Location":"INTERACTIVE CAFE","Address":"215 Broadway","City":"Santa Monica","State":"CA","Zip":"90401"},{"Location":"J.P.'S BAR AND GRILL","Address":"1101 Wilshire Blvd","City":"Santa Monica","State":"CA","Zip":"90401"},{"Location":"JAY FIONDELLA","Address":"1657 Ocean Ave","City":"Santa Monica","State":"CA","Zip":"90401"},{"Location":"JERSEY MIKE'S SUBS","Address":"1447 Lincoln Blvd","City":"Santa Monica","State":"CA","Zip":"90401"},{"Location":"JW MARRIOTT SANTA MONICA","Address":"1740 Ocean Ave","City":"Santa Monica","State":"CA","Zip":"90401"},{"Location":"KAI MANAGEMENT LLC","Address":"101 Broadway","City":"Santa Monica","State":"CA","Zip":"90401"},{"Location":"KASS MANAGEMENT","Address":"501 Santa Monica Blvd 604","City":"Santa Monica","State":"CA","Zip":"90401"},{"Location":"LAB RAT PRODUCTIONS","Address":"1207 4th St Ph3","City":"Santa Monica","State":"CA","Zip":"90401"},{"Location":"LANGLEY PRODUCTIONS","Address":"1111 Broadway","City":"Santa Monica","State":"CA","Zip":"90401"},{"Location":"LISA CHAN DDS","Address":"1551 Ocean Ave","City":"Santa Monica","State":"CA","Zip":"90401"},{"Location":"LOTERIA  SANTA MONICA","Address":"1251 3rd Street Promenade","City":"Santa Monica","State":"CA","Zip":"90401"},{"Location":"LUMA PICTURES","Address":"1424 2nd St","City":"Santa Monica","State":"CA","Zip":"90401"},{"Location":"LUTHER BURBANK MORTGAGE","Address":"233 Wilshire Blvd 150","City":"Santa Monica","State":"CA","Zip":"90401"},{"Location":"MAGUIRE PARTNERS","Address":"1733 Ocean Ave 300","City":"Santa Monica","State":"CA","Zip":"90401"},{"Location":"METHOD LA","Address":"730 Arizona Ave","City":"Santa Monica","State":"CA","Zip":"90401"},{"Location":"MICHEAL J BRANDOLINO DDS INC","Address":"1234 7th St 1","City":"Santa Monica","State":"CA","Zip":"90401"},{"Location":"MILLER-WISHENGRAD","Address":"1335 4th St 400","City":"Santa Monica","State":"CA","Zip":"90401"},{"Location":"MOIR BOMAN ENT","Address":"1250 6th St 401","City":"Santa Monica","State":"CA","Zip":"90401"},{"Location":"MOMCAT 66 INC","Address":"926 Wilshire Blvd","City":"Santa Monica","State":"CA","Zip":"90401"},{"Location":"MORGAN STANLEY 100241","Address":"1453 3rd St 200","City":"Santa Monica","State":"CA","Zip":"90401"},{"Location":"MOVING PICTURE COMPANY","Address":"1437 4th St","City":"Santa Monica","State":"CA","Zip":"90401"},{"Location":"NATURAL RESOURCES DEFENSE COUN","Address":"1314 2nd St","City":"Santa Monica","State":"CA","Zip":"90401"},{"Location":"NEXT LEVEL MARKETING","Address":"1334 3rd Street Promenade 200","City":"Santa Monica","State":"CA","Zip":"90401"},{"Location":"NORDSTROM","Address":"220 Broadway","City":"Santa Monica","State":"CA","Zip":"90401"},{"Location":"NORTH BRISTOL PARTNERS","Address":"1733 Ocean Ave 325","City":"Santa Monica","State":"CA","Zip":"90401"},{"Location":"NYC","Address":"1120 Wilshire Blvd","City":"Santa Monica","State":"CA","Zip":"90401"},{"Location":"ONESTOP INTERNET","Address":"301 Arizona Ave","City":"Santa Monica","State":"CA","Zip":"90401"},{"Location":"OPCC","Address":"505 Olympic Blvd","City":"Santa Monica","State":"CA","Zip":"90401"},{"Location":"PACIFIC DEVELOPMENT PARTNERS","Address":"501 Santa Monica Blvd 312","City":"Santa Monica","State":"CA","Zip":"90401"},{"Location":"PACIFIC PARK","Address":"380 Santa Monica Pier","City":"Santa Monica","State":"CA","Zip":"90401"},{"Location":"PACIFIC PERFOMANCE CENTE","Address":"605 Colorado Ave","City":"Santa Monica","State":"CA","Zip":"90401"},{"Location":"PALANTIR TECHNOLOGIES","Address":"1351 4th St","City":"Santa Monica","State":"CA","Zip":"90401"},{"Location":"PF CHANG'S #5700","Address":"326 Wilshire Blvd","City":"Santa Monica","State":"CA","Zip":"90401"},{"Location":"PLANNED PARENTHOOD","Address":"1316 3rd Street Promenade 201","City":"Santa Monica","State":"CA","Zip":"90401"},{"Location":"PLAYTONE COMPANY","Address":"1224 5th St","City":"Santa Monica","State":"CA","Zip":"90401"},{"Location":"PLEDGELING","Address":"301 Arizona Ave 220","City":"Santa Monica","State":"CA","Zip":"90401"},{"Location":"PONTE MILVIO LLC","Address":"606 Broadway 100","City":"Santa Monica","State":"CA","Zip":"90401"},{"Location":"PREMIER SPORTS & ENTERTAINMENT","Address":"1401 Ocean Ave 302","City":"Santa Monica","State":"CA","Zip":"90401"},{"Location":"PROJECT HOPS LLC","Address":"129 Broadway","City":"Santa Monica","State":"CA","Zip":"90401"},{"Location":"REAL OFFICE CENTERS","Address":"604 Arizona Ave","City":"Santa Monica","State":"CA","Zip":"90401"},{"Location":"RESIGNATION MEDIA","Address":"1207 4th St 300","City":"Santa Monica","State":"CA","Zip":"90401"},{"Location":"SALES FORCE","Address":"1442a 2nd St 2a","City":"Santa Monica","State":"CA","Zip":"90401"},{"Location":"SALVATION ARMY","Address":"1533 4th St","City":"Santa Monica","State":"CA","Zip":"90401"},{"Location":"SANTA MONICA AUDI","Address":"1020 Santa Monica Blvd","City":"Santa Monica","State":"CA","Zip":"90401"},{"Location":"SANTA MONICA FIRE DEPT","Address":"333 Olympic Dr 2ndf","City":"Santa Monica","State":"CA","Zip":"90401"},{"Location":"SANTA MONICA POLICE DEPT","Address":"333 Olympic Dr","City":"Santa Monica","State":"CA","Zip":"90401"},{"Location":"SEASONS 52 #4524","Address":"1501 Ocean Ave","City":"Santa Monica","State":"CA","Zip":"90401"},{"Location":"STAN JOHNSON COMPANY","Address":"501 Santa Monica Blvd Blvd","City":"Santa Monica","State":"CA","Zip":"90401"},{"Location":"STARRPOINT COMMERCIAL PARTNERS","Address":"301 Arizona Ave 303","City":"Santa Monica","State":"CA","Zip":"90401"},{"Location":"STATE FARM AGENCY","Address":"1425 5th St B","City":"Santa Monica","State":"CA","Zip":"90401"},{"Location":"STORYBOARDS INC","Address":"1207 4th St Ste25","City":"Santa Monica","State":"CA","Zip":"90401"},{"Location":"STOUT BURGERS N BEER","Address":"111 Santa Monica Blvd","City":"Santa Monica","State":"CA","Zip":"90401"},{"Location":"STUDIO CENTER CORPORATION","Address":"1548 9th St 100","City":"Santa Monica","State":"CA","Zip":"90401"},{"Location":"SUSHI ROKU","Address":"1401 Ocean Ave","City":"Santa Monica","State":"CA","Zip":"90401"},{"Location":"TABERNA RESTAURANT","Address":"1403 2nd St","City":"Santa Monica","State":"CA","Zip":"90401"},{"Location":"THE BIG FIX LLC","Address":"119 Broadway","City":"Santa Monica","State":"CA","Zip":"90401"},{"Location":"THE BOESCH LAW GROUP","Address":"225 Santa Monica Blvd 11th","City":"Santa Monica","State":"CA","Zip":"90401"},{"Location":"THE CHERRY PARTY INC","Address":"325 Wilshire Blvd 202","City":"Santa Monica","State":"CA","Zip":"90401"},{"Location":"THE KENNEDY MARSHALL COMPANY","Address":"619 Arizona Ave","City":"Santa Monica","State":"CA","Zip":"90401"},{"Location":"THE LOBSTER","Address":"1602 Ocean Ave","City":"Santa Monica","State":"CA","Zip":"90401"},{"Location":"THE MISFITS RESTAURANT","Address":"225 Santa Monica Blvd","City":"Santa Monica","State":"CA","Zip":"90401"},{"Location":"THE PHELPS GROUP","Address":"901 Wilshire Blvd","City":"Santa Monica","State":"CA","Zip":"90401"},{"Location":"THE WHITEHOUSE","Address":"530 Wilshire Blvd 400","City":"Santa Monica","State":"CA","Zip":"90401"},{"Location":"THIRTEEN SEVENTEEN","Address":"1317 5th St","City":"Santa Monica","State":"CA","Zip":"90401"},{"Location":"TOOLEY INVESTMENT COMPANY","Address":"501 Santa Monica Blvd 701","City":"Santa Monica","State":"CA","Zip":"90401"},{"Location":"TRANSIT LLC","Address":"1441 4th St","City":"Santa Monica","State":"CA","Zip":"90401"},{"Location":"TRUE FOOD KITCHEN","Address":"395 Santa Monica Pl 172","City":"Santa Monica","State":"CA","Zip":"90401"},{"Location":"TRUECAR","Address":"1540 2nd St 300","City":"Santa Monica","State":"CA","Zip":"90401"},{"Location":"WARSZAWA RESTAURANT","Address":"1414 Lincoln Blvd","City":"Santa Monica","State":"CA","Zip":"90401"},{"Location":"WATER GRILL SANTA MONICA","Address":"1401 Ocean Ave","City":"Santa Monica","State":"CA","Zip":"90401"},{"Location":"WC DEVELOPMENT","Address":"1312 Lincoln Blvd","City":"Santa Monica","State":"CA","Zip":"90401"},{"Location":"WEST 4TH %2F JANE","Address":"1432a 4th St","City":"Santa Monica","State":"CA","Zip":"90401"},{"Location":"WHOLE FOODS MARKET #49","Address":"500 Wilshire Blvd","City":"Santa Monica","State":"CA","Zip":"90401"},{"Location":"WISE ADULT DAY SERVICE CTR","Address":"1527 4th St","City":"Santa Monica","State":"CA","Zip":"90401"},{"Location":"YCHI SUSHI SANTA MONICA","Address":"607 Colorado Ave","City":"Santa Monica","State":"CA","Zip":"90401"},{"Location":"YE OLDE KINGSHEAD","Address":"116 Santa Monica Blvd","City":"Santa Monica","State":"CA","Zip":"90401"},{"Location":"ZENO GROUP","Address":"501 Colorado Ave 305","City":"Santa Monica","State":"CA","Zip":"90401"},{"Location":"ZODIAK USA","Address":"520 Broadway 5fl","City":"Santa Monica","State":"CA","Zip":"90401"}]