[{"Location":"18TH & BROADWAY","Address":"1725 Broadway","City":"Santa Monica","State":"CA","Zip":"90404"},{"Location":"1ST ROUND ENTERPRISES","Address":"3025 Olympic Blvd 211","City":"Santa Monica","State":"CA","Zip":"90404"},{"Location":"A1 SPA MASSAGE","Address":"1843 Lincoln Blvd","City":"Santa Monica","State":"CA","Zip":"90404"},{"Location":"AGENSYS","Address":"1800 Stewart St","City":"Santa Monica","State":"CA","Zip":"90404"},{"Location":"ALAN MYERSON STUDIOS","Address":"1542 14th St 122","City":"Santa Monica","State":"CA","Zip":"90404"},{"Location":"ALLEY PRODUCTIONS","Address":"1550 Euclid St","City":"Santa Monica","State":"CA","Zip":"90404"},{"Location":"ANQI","Address":"2700 Colorado Ave","City":"Santa Monica","State":"CA","Zip":"90404"},{"Location":"APACHE","Address":"2014 Broadway","City":"Santa Monica","State":"CA","Zip":"90404"},{"Location":"APOGEE ELECTRONICS CORP","Address":"1736 Franklin St B","City":"Santa Monica","State":"CA","Zip":"90404"},{"Location":"ARCADE EDIT","Address":"1707 12th St","City":"Santa Monica","State":"CA","Zip":"90404"},{"Location":"ARSENAL FX","Address":"1620 Euclid St","City":"Santa Monica","State":"CA","Zip":"90404"},{"Location":"ARSENAL FX1","Address":"2038 Broadway","City":"Santa Monica","State":"CA","Zip":"90404"},{"Location":"ARTISAN ENTERTAINMENT","Address":"2700 Colorado Ave 200","City":"Santa Monica","State":"CA","Zip":"90404"},{"Location":"AT RADICAL.MEDIA.INC.","Address":"1630 12th St","City":"Santa Monica","State":"CA","Zip":"90404"},{"Location":"BAD ROBOT PRODUCTIONS","Address":"1221 Olympic Blvd","City":"Santa Monica","State":"CA","Zip":"90404"},{"Location":"BEACH POINT CAPITAL MGMT","Address":"1620 26th St 6","City":"Santa Monica","State":"CA","Zip":"90404"},{"Location":"BEACON PICTURES","Address":"2900 Olympic Blvd 200","City":"Santa Monica","State":"CA","Zip":"90404"},{"Location":"BERMAN & BRAUN","Address":"2900 Olympic Blvd Fl3","City":"Santa Monica","State":"CA","Zip":"90404"},{"Location":"BISTRO OF SANTA MONICA","Address":"2301 Santa Monica Blvd","City":"Santa Monica","State":"CA","Zip":"90404"},{"Location":"BOX N BURN","Address":"1650 Lincoln Blvd","City":"Santa Monica","State":"CA","Zip":"90404"},{"Location":"BUFFALO STUDIOS","Address":"2120 Colorado Ave 400","City":"Santa Monica","State":"CA","Zip":"90404"},{"Location":"BUSBY'S","Address":"3110 Santa Monica Blvd","City":"Santa Monica","State":"CA","Zip":"90404"},{"Location":"BUTCHER EDITORIAL","Address":"2601 Colorado Ave","City":"Santa Monica","State":"CA","Zip":"90404"},{"Location":"CABLE ENTERTAINMENT","Address":"2020 Broadway","City":"Santa Monica","State":"CA","Zip":"90404"},{"Location":"CENTURY COMPUTER PRODUCT","Address":"2230 Mighigan Ave","City":"Santa Monica","State":"CA","Zip":"90404"},{"Location":"CLASSY CLEANERS","Address":"1803 Lincoln Blvd B","City":"Santa Monica","State":"CA","Zip":"90404"},{"Location":"COLLISION CRAFT","Address":"1626 Lincoln Blvd","City":"Santa Monica","State":"CA","Zip":"90404"},{"Location":"COLONY CAPITAL%2C LLC","Address":"2450 Broadway","City":"Santa Monica","State":"CA","Zip":"90404"},{"Location":"COLOR FORCE","Address":"1524 Cloverfield Blvd C","City":"Santa Monica","State":"CA","Zip":"90404"},{"Location":"COMPANY 3","Address":"3401 Exposition Blvd","City":"Santa Monica","State":"CA","Zip":"90404"},{"Location":"COOGIES CAFE SANTA MONICA","Address":"2906 Santa Monica Blvd","City":"Santa Monica","State":"CA","Zip":"90404"},{"Location":"CREP 2700 HOLDINGS","Address":"2700 Colorado Ave 110","City":"Santa Monica","State":"CA","Zip":"90404"},{"Location":"CRISPIN  PORTER BOGUSKY","Address":"2110 Colorado Ave 200","City":"Santa Monica","State":"CA","Zip":"90404"},{"Location":"CUT AND RUN","Address":"2044 Broadway","City":"Santa Monica","State":"CA","Zip":"90404"},{"Location":"DANIEL MUCKLEY","Address":"3216 Santa Monica Blvd Rear","City":"Santa Monica","State":"CA","Zip":"90404"},{"Location":"DAVID E. KELLEY PRODUCTIONS","Address":"2900 Olympic Blvd 170a","City":"Santa Monica","State":"CA","Zip":"90404"},{"Location":"DAVITA #2073 MAR VISTA","Address":"2020 Santa Monica Blvd 100","City":"Santa Monica","State":"CA","Zip":"90404"},{"Location":"DAVITA #3211 SANTA MONICA","Address":"1260 15th St 102","City":"Santa Monica","State":"CA","Zip":"90404"},{"Location":"DEMAND MEDIA INC","Address":"1655 26th St","City":"Santa Monica","State":"CA","Zip":"90404"},{"Location":"DICK CLARK PRODUCTION # 3","Address":"2900 Olympic Blvd","City":"Santa Monica","State":"CA","Zip":"90404"},{"Location":"DICK CLARK PRODUCTION #B","Address":"2900 Olympic Blvd","City":"Santa Monica","State":"CA","Zip":"90404"},{"Location":"DICK CLARK PRODUCTIONS #1","Address":"2900 Olympic Blvd","City":"Santa Monica","State":"CA","Zip":"90404"},{"Location":"DOUGLAS M. FREEDMAN MD","Address":"2021 Santa Monica Blvd","City":"Santa Monica","State":"CA","Zip":"90404"},{"Location":"DREAMWORKS PRODUCTIONS","Address":"1663 Euclid St","City":"Santa Monica","State":"CA","Zip":"90404"},{"Location":"EPS CINEWORKS","Address":"1813 Centinela Ave","City":"Santa Monica","State":"CA","Zip":"90404"},{"Location":"FILM 44","Address":"1526 Cloverfield Blvd D","City":"Santa Monica","State":"CA","Zip":"90404"},{"Location":"FINAL CUTS","Address":"1634 Euclid St","City":"Santa Monica","State":"CA","Zip":"90404"},{"Location":"FIRESTONE #001716","Address":"1817 Lincoln Blvd","City":"Santa Monica","State":"CA","Zip":"90404"},{"Location":"FURLINED","Address":"2803 Colorado Ave","City":"Santa Monica","State":"CA","Zip":"90404"},{"Location":"GAME SHOW NETWORK","Address":"2150 Colorado Ave","City":"Santa Monica","State":"CA","Zip":"90404"},{"Location":"GERMAN AUTO SPORT","Address":"2703 Santa Monica Blvd","City":"Santa Monica","State":"CA","Zip":"90404"},{"Location":"GOODING AND CO","Address":"1517 20th St","City":"Santa Monica","State":"CA","Zip":"90404"},{"Location":"GREATER MORNING STAR BAPTIST","Address":"1973 17th St","City":"Santa Monica","State":"CA","Zip":"90404"},{"Location":"GRINDSTONE ENTERTAINMENT","Address":"2700 Colorado Ave 200","City":"Santa Monica","State":"CA","Zip":"90404"},{"Location":"GSN 6","Address":"2150 Colorado Ave 200","City":"Santa Monica","State":"CA","Zip":"90404"},{"Location":"GSN 7","Address":"2150 Colorado Ave 300","City":"Santa Monica","State":"CA","Zip":"90404"},{"Location":"GUMNIER SAVETT INC","Address":"1723 Cloverfield Blvd","City":"Santa Monica","State":"CA","Zip":"90404"},{"Location":"HANNIBAL LLC","Address":"2936 Nebraska Ave","City":"Santa Monica","State":"CA","Zip":"90404"},{"Location":"HIPS AND PELVIS ST. JOHN","Address":"2001 Santa Monica Blvd","City":"Santa Monica","State":"CA","Zip":"90404"},{"Location":"HOME BOX OFFICE #3","Address":"2500 Broadway 400","City":"Santa Monica","State":"CA","Zip":"90404"},{"Location":"HORNBURG JAGUAR","Address":"3300 Olympic Blvd","City":"Santa Monica","State":"CA","Zip":"90404"},{"Location":"HORNBURG JAGUAR","Address":"3020 Santa Monica Blvd","City":"Santa Monica","State":"CA","Zip":"90404"},{"Location":"HORTON AND CONVERSE PHARMACY","Address":"2001 Santa Monica Blvd","City":"Santa Monica","State":"CA","Zip":"90404"},{"Location":"HULU LLC","Address":"2500 Broadway 200","City":"Santa Monica","State":"CA","Zip":"90404"},{"Location":"IGA RECORDS","Address":"2113 Colorado Ave","City":"Santa Monica","State":"CA","Zip":"90404"},{"Location":"IMPERATIVE ENTERTAINMENT","Address":"1663 18th St 2ndfl","City":"Santa Monica","State":"CA","Zip":"90404"},{"Location":"IMPERIAL WOODPECKER","Address":"1707 Berkeley St","City":"Santa Monica","State":"CA","Zip":"90404"},{"Location":"INDIAN PAINTBRUSH PRODUCTIONS","Address":"1660 Euclid St","City":"Santa Monica","State":"CA","Zip":"90404"},{"Location":"INNOVATIVE ARTISTS","Address":"1617 Broadway","City":"Santa Monica","State":"CA","Zip":"90404"},{"Location":"JAYS AUTOMOTIVE","Address":"1830 Olympic Blvd","City":"Santa Monica","State":"CA","Zip":"90404"},{"Location":"JCB MUSIC","Address":"1630 Euclid St A","City":"Santa Monica","State":"CA","Zip":"90404"},{"Location":"JDP DESIGNS","Address":"1830 Lincoln Blvd","City":"Santa Monica","State":"CA","Zip":"90404"},{"Location":"JEFFREY KOTSUBO DDS INC","Address":"1304 15th St 318","City":"Santa Monica","State":"CA","Zip":"90404"},{"Location":"JERRY BRUCKHEIMER FILMS","Address":"1631 10th St","City":"Santa Monica","State":"CA","Zip":"90404"},{"Location":"JUICE STUDIOS","Address":"1648 10th St","City":"Santa Monica","State":"CA","Zip":"90404"},{"Location":"LA FARM","Address":"3000 Olympic Blvd","City":"Santa Monica","State":"CA","Zip":"90404"},{"Location":"LANDVESTMENT","Address":"2844 Colorado Ave","City":"Santa Monica","State":"CA","Zip":"90404"},{"Location":"LARRY LABRIE PLUMBING","Address":"1808 Lincoln Blvd","City":"Santa Monica","State":"CA","Zip":"90404"},{"Location":"LEVERAGE MANAGEMENT","Address":"3030 Pennsylvania Ave","City":"Santa Monica","State":"CA","Zip":"90404"},{"Location":"LEXUS SANTA MONICA","Address":"1501 Santa Monica Blvd","City":"Santa Monica","State":"CA","Zip":"90404"},{"Location":"LIBBIE AGRAN FINANCIAL SERVICE","Address":"2120 Colorado Ave 100","City":"Santa Monica","State":"CA","Zip":"90404"},{"Location":"LIBERTA SOCCER CLUB","Address":"1410 Olympic Blvd","City":"Santa Monica","State":"CA","Zip":"90404"},{"Location":"LIND AND BJORKLUND LLC","Address":"3000 Olympic Blvd 2540","City":"Santa Monica","State":"CA","Zip":"90404"},{"Location":"LIONSGATE ENTERTAINMENT","Address":"2700 Colorado Ave 5thf","City":"Santa Monica","State":"CA","Zip":"90404"},{"Location":"LIONSGATE ENTERTAINMENT","Address":"2700 Colorado Ave","City":"Santa Monica","State":"CA","Zip":"90404"},{"Location":"LIONSGATE WORLDWIDE TV","Address":"2700 Colorado Ave 200","City":"Santa Monica","State":"CA","Zip":"90404"},{"Location":"MAJOR MOTOR CARS","Address":"2932 Santa Monica Blvd","City":"Santa Monica","State":"CA","Zip":"90404"},{"Location":"MARGARITA MIX","Address":"1661 Lincoln Blvd","City":"Santa Monica","State":"CA","Zip":"90404"},{"Location":"MCCABE'S BAR & GRILL","Address":"2455 Santa Monica Blvd","City":"Santa Monica","State":"CA","Zip":"90404"},{"Location":"MCDONALD CORP","Address":"2712 Santa Monica Blvd","City":"Santa Monica","State":"CA","Zip":"90404"},{"Location":"MORRIS AUTOMOTIVE","Address":"1331 Colorado Ave","City":"Santa Monica","State":"CA","Zip":"90404"},{"Location":"MTV NETWORKS%2FVIA COM","Address":"2600 Colorado Ave","City":"Santa Monica","State":"CA","Zip":"90404"},{"Location":"NETTER","Address":"3212 Nebraska Ave","City":"Santa Monica","State":"CA","Zip":"90404"},{"Location":"NOMAD EDITING","Address":"1661 19th St","City":"Santa Monica","State":"CA","Zip":"90404"},{"Location":"NONFICTION","Address":"905 Olympic Blvd","City":"Santa Monica","State":"CA","Zip":"90404"},{"Location":"NUMBER SIX","Address":"1907b Olympic Blvd","City":"Santa Monica","State":"CA","Zip":"90404"},{"Location":"OCEAN PARK COMMUNITY CENTER","Address":"1751 Cloverfield Blvd","City":"Santa Monica","State":"CA","Zip":"90404"},{"Location":"PACIFIC CONVALESCENT","Address":"1323 17th St","City":"Santa Monica","State":"CA","Zip":"90404"},{"Location":"PARK PICTURES","Address":"2308 Broadway","City":"Santa Monica","State":"CA","Zip":"90404"},{"Location":"PROMAX BDA","Address":"1522 Cloverfield Blvd E","City":"Santa Monica","State":"CA","Zip":"90404"},{"Location":"PURSUIT PRODUCTIONS LLC","Address":"1663 18th St","City":"Santa Monica","State":"CA","Zip":"90404"},{"Location":"RATTLING STICK","Address":"30002 Pennsylvania Ave #1 101","City":"Santa Monica","State":"CA","Zip":"90404"},{"Location":"RED BOX","Address":"1655 Euclid St","City":"Santa Monica","State":"CA","Zip":"90404"},{"Location":"RED BULL NORTH AMERICA","Address":"2501 Colorado Ave","City":"Santa Monica","State":"CA","Zip":"90404"},{"Location":"RED BULL NORTH AMERICA","Address":"1740 Stewart St 320","City":"Santa Monica","State":"CA","Zip":"90404"},{"Location":"RED BULL NORTH AMERICA 2","Address":"1740 Stewart St 320","City":"Santa Monica","State":"CA","Zip":"90404"},{"Location":"RED BULL SHOW HALER","Address":"1740 Stewart St 2","City":"Santa Monica","State":"CA","Zip":"90404"},{"Location":"REEL FX INC","Address":"2115 Colorado Ave","City":"Santa Monica","State":"CA","Zip":"90404"},{"Location":"REMOTE CONTOL PRODUCTIONS","Address":"1547 14th St","City":"Santa Monica","State":"CA","Zip":"90404"},{"Location":"REMOTE CONTROL PRODUCTIONS","Address":"1547 14th St","City":"Santa Monica","State":"CA","Zip":"90404"},{"Location":"REVOLUTION STUDIOS","Address":"2900 Olympic Blvd","City":"Santa Monica","State":"CA","Zip":"90404"},{"Location":"RGM GROUP LLC","Address":"1556 20th St C","City":"Santa Monica","State":"CA","Zip":"90404"},{"Location":"ROCK PAPER SCISSORS","Address":"2308 Broadway","City":"Santa Monica","State":"CA","Zip":"90404"},{"Location":"RPA 3","Address":"2525 Colorado Ave 300","City":"Santa Monica","State":"CA","Zip":"90404"},{"Location":"SAM JONES PICTURES","Address":"1714 18th St","City":"Santa Monica","State":"CA","Zip":"90404"},{"Location":"SANTA MONICA ANIMAL SHELTER","Address":"1640 9th St","City":"Santa Monica","State":"CA","Zip":"90404"},{"Location":"SANTA MONICA FENCE COMPANY","Address":"1547 16th St","City":"Santa Monica","State":"CA","Zip":"90404"},{"Location":"SANTA MONICA POLICE ACTIVIES","Address":"1401 Olympic Blvd","City":"Santa Monica","State":"CA","Zip":"90404"},{"Location":"SANTA MONICA WOMENHEALTH","Address":"2001 Santa Monica Blvd 970w","City":"Santa Monica","State":"CA","Zip":"90404"},{"Location":"SAPIENT CORPORATION","Address":"3211 Olympic Blvd","City":"Santa Monica","State":"CA","Zip":"90404"},{"Location":"SCHAEFER AMBULANCE SERVICE INC","Address":"3118 Santa Monica Blvd","City":"Santa Monica","State":"CA","Zip":"90404"},{"Location":"SCOTT PROPERTIES GYM","Address":"1251 14th St","City":"Santa Monica","State":"CA","Zip":"90404"},{"Location":"SCOTT PROPERTIES MANAGER","Address":"1251 14th St 206","City":"Santa Monica","State":"CA","Zip":"90404"},{"Location":"SECRET WEAPON MARKETING","Address":"1658 10th St","City":"Santa Monica","State":"CA","Zip":"90404"},{"Location":"SHAPCO INC","Address":"1666 20th St","City":"Santa Monica","State":"CA","Zip":"90404"},{"Location":"SKYDANCE PRODUCTIONS","Address":"1661 Lincoln Blvd","City":"Santa Monica","State":"CA","Zip":"90404"},{"Location":"SLINGSHOT GLOBAL MEDIA","Address":"3000 Olympic Blvd","City":"Santa Monica","State":"CA","Zip":"90404"},{"Location":"SPECTRUM CLUB-SN MONICA","Address":"2425 Olympic Blvd","City":"Santa Monica","State":"CA","Zip":"90404"},{"Location":"ST JOHNS HEALTH CENTER","Address":"1328 Twenty Second St","City":"Santa Monica","State":"CA","Zip":"90404"},{"Location":"ST. JOHNS HEALTH CENTER","Address":"2020 Santa Monica Blvd 1","City":"Santa Monica","State":"CA","Zip":"90404"},{"Location":"STIMMUNG","Address":"2052 Broadway","City":"Santa Monica","State":"CA","Zip":"90404"},{"Location":"SUMMIT ENTERTAINMENT","Address":"2700 Colorado Ave","City":"Santa Monica","State":"CA","Zip":"90404"},{"Location":"SURVIVAL ENTERTAINMENT GROUP","Address":"3000 Olympic Blvd","City":"Santa Monica","State":"CA","Zip":"90404"},{"Location":"TACOS POR FAVOR","Address":"1408 Olympic Blvd","City":"Santa Monica","State":"CA","Zip":"90404"},{"Location":"TACOS PUNTA CABROS Y TOR","Address":"2311 Santa Monica Blvd","City":"Santa Monica","State":"CA","Zip":"90404"},{"Location":"TASLIMI CONSTRUCTION COMPANY","Address":"1805 Colorado Ave","City":"Santa Monica","State":"CA","Zip":"90404"},{"Location":"THE MPULSE","Address":"1625 Stanford St","City":"Santa Monica","State":"CA","Zip":"90404"},{"Location":"THE RECORDING ACADEMY #1","Address":"3030 Olympic Blvd","City":"Santa Monica","State":"CA","Zip":"90404"},{"Location":"THE RECORDING ACADEMY #2","Address":"3030 Olympic Blvd","City":"Santa Monica","State":"CA","Zip":"90404"},{"Location":"TIGER TEXT INC","Address":"2110 Broadway","City":"Santa Monica","State":"CA","Zip":"90404"},{"Location":"TIGRISNET INC","Address":"1625 17th St 3","City":"Santa Monica","State":"CA","Zip":"90404"},{"Location":"TOOL OF NORTH AMERICA","Address":"2210 Broadway","City":"Santa Monica","State":"CA","Zip":"90404"},{"Location":"TOPPS DIGITAL SERVICES","Address":"1524 Cloverfield Blvd G","City":"Santa Monica","State":"CA","Zip":"90404"},{"Location":"TRUCXTONS AMERICAN BISTRO","Address":"1329a Santa Monica Blvd","City":"Santa Monica","State":"CA","Zip":"90404"},{"Location":"TURNER IMPACT CAPITAL LLC","Address":"3000 Olympic Blvd 2120","City":"Santa Monica","State":"CA","Zip":"90404"},{"Location":"UCLA SANTA MONICA ONCOLOGY","Address":"2020 Santa Monica Blvd 600","City":"Santa Monica","State":"CA","Zip":"90404"},{"Location":"UMG","Address":"2110 Colorado Ave","City":"Santa Monica","State":"CA","Zip":"90404"},{"Location":"UMG","Address":"2100 Colorado Ave","City":"Santa Monica","State":"CA","Zip":"90404"},{"Location":"UMGD - DISTRIBUTION","Address":"2220 Colorado Ave 5th","City":"Santa Monica","State":"CA","Zip":"90404"},{"Location":"UMGD-DISTRIBUTION 2","Address":"2220 Colorado Ave 5f","City":"Santa Monica","State":"CA","Zip":"90404"},{"Location":"UNIVERSAL GDB","Address":"2220 Colorado Ave","City":"Santa Monica","State":"CA","Zip":"90404"},{"Location":"UNIVERSAL GROUP #3","Address":"2220 Colorado Ave","City":"Santa Monica","State":"CA","Zip":"90404"},{"Location":"UNIVERSAL MUSIC GROUP #1","Address":"2220 Colorado Ave","City":"Santa Monica","State":"CA","Zip":"90404"},{"Location":"UNIVERSAL MUSIC GROUP #2","Address":"2220 Colorado Ave","City":"Santa Monica","State":"CA","Zip":"90404"},{"Location":"UNIVERSAL MUSIC GROUP 3","Address":"2220 Colorado Ave","City":"Santa Monica","State":"CA","Zip":"90404"},{"Location":"UNIVERSAL ROCKINGHAM","Address":"2200 1%2F2 Colorado Ave","City":"Santa Monica","State":"CA","Zip":"90404"},{"Location":"VALLEY CREST DESIGN 3","Address":"1715 18th St","City":"Santa Monica","State":"CA","Zip":"90404"},{"Location":"VANACORE MUSIC","Address":"3000 Olympic Blvd 2324","City":"Santa Monica","State":"CA","Zip":"90404"},{"Location":"VAP BAZAAR","Address":"2907 Santa Monica Blvd","City":"Santa Monica","State":"CA","Zip":"90404"},{"Location":"VAPOR DELIGHT","Address":"1855 Lincoln Blvd A","City":"Santa Monica","State":"CA","Zip":"90404"},{"Location":"VCA INC","Address":"1913 Centinela Ave","City":"Santa Monica","State":"CA","Zip":"90404"},{"Location":"VTBS","Address":"1738 Berkeley St","City":"Santa Monica","State":"CA","Zip":"90404"},{"Location":"WEST COAST POST INC","Address":"2461 Santa Monica Blvd 115","City":"Santa Monica","State":"CA","Zip":"90404"},{"Location":"WHIP NETWORKS","Address":"1847 Centinela Ave","City":"Santa Monica","State":"CA","Zip":"90404"},{"Location":"WINDMARK RECORDING LLC","Address":"1809 Olympic Blvd","City":"Santa Monica","State":"CA","Zip":"90404"},{"Location":"YAHOO","Address":"2700 Pennsylvania Ave","City":"Santa Monica","State":"CA","Zip":"90404"},{"Location":"YAHOO ALTERNATE","Address":"2700a Penn Ave","City":"Santa Monica","State":"CA","Zip":"90404"},{"Location":"YAHOO INC","Address":"2700 Pennsylvania Ave","City":"Santa Monica","State":"CA","Zip":"90404"},{"Location":"YAHOO INC","Address":"2400 Broadway","City":"Santa Monica","State":"CA","Zip":"90404"},{"Location":"YAHOO INC #2","Address":"2400 Broadway","City":"Santa Monica","State":"CA","Zip":"90404"},{"Location":"YAHOO!MEDIA GROUP","Address":"2450 Broadway","City":"Santa Monica","State":"CA","Zip":"90404"}]