[{"Location":"","Address":"2601 Skypark Dr","City":"Torrance","State":"CA","Zip":"90505"},{"Location":"24 HOUR FITNESS #130","Address":"2685 Pacific Coast Hwy","City":"Torrance","State":"CA","Zip":"90505"},{"Location":"3105392191","Address":"25365 Crenshaw Blvd E","City":"Torrance","State":"CA","Zip":"90505"},{"Location":"ALCOA FASTENING SYSTEMS","Address":"3000 Lomita Blvd","City":"Torrance","State":"CA","Zip":"90505"},{"Location":"ANDREW LIN MD","Address":"23600 Telo Ave 280","City":"Torrance","State":"CA","Zip":"90505"},{"Location":"ANZA PACIFIC BARBER SALO","Address":"4330 Pacific Coast Hwy","City":"Torrance","State":"CA","Zip":"90505"},{"Location":"ARISTO CAFE","Address":"3768 W 242nd St","City":"Torrance","State":"CA","Zip":"90505"},{"Location":"ART & COIN TELEVISION LLC","Address":"23930 Madison St","City":"Torrance","State":"CA","Zip":"90505"},{"Location":"ATOMIC BOXING","Address":"25355 Crenshaw Blvd","City":"Torrance","State":"CA","Zip":"90505"},{"Location":"BARNES SYSTEMS INC","Address":"3162 Kashiwa St","City":"Torrance","State":"CA","Zip":"90505"},{"Location":"BARRY J WOLSTAN MD","Address":"23600 Telo Ave 100","City":"Torrance","State":"CA","Zip":"90505"},{"Location":"BAY CITY SURGERY CENTER","Address":"23500 Madison St","City":"Torrance","State":"CA","Zip":"90505"},{"Location":"BBCN BANK","Address":"2742 Wsepulveda Blvd","City":"Torrance","State":"CA","Zip":"90505"},{"Location":"BERRI BLISS CAFE","Address":"25412 Crenshaw Blvd","City":"Torrance","State":"CA","Zip":"90505"},{"Location":"BIG O TIRES 5828","Address":"3635 Pacific Coast Hwy","City":"Torrance","State":"CA","Zip":"90505"},{"Location":"BLACK BEAR DINER","Address":"24021 Hawthorne Blvd","City":"Torrance","State":"CA","Zip":"90505"},{"Location":"BUSINESS TECH SOLUTIONS","Address":"25205 Crenshaw Blvd 350","City":"Torrance","State":"CA","Zip":"90505"},{"Location":"CAI SUSHI BAR","Address":"24215 Crenshaw Blvd","City":"Torrance","State":"CA","Zip":"90505"},{"Location":"CALIFORNIA SUBSHINE","Address":"24631 Crenshaw Blvd M","City":"Torrance","State":"CA","Zip":"90505"},{"Location":"CALIFORNIA WATER SERVICE CO","Address":"2632 W 237th St","City":"Torrance","State":"CA","Zip":"90505"},{"Location":"CAPICOLAS GOURMET","Address":"3160 Pacific Coast Hwy","City":"Torrance","State":"CA","Zip":"90505"},{"Location":"CHILDRENS SPEECH CARE CENTER","Address":"3521 Lomita Blvd","City":"Torrance","State":"CA","Zip":"90505"},{"Location":"CJ SPORTS BAR","Address":"23900 Crenshaw Blvd","City":"Torrance","State":"CA","Zip":"90505"},{"Location":"COAST SURGERY CENTER","Address":"3445 Pacific Coast Hwy 110","City":"Torrance","State":"CA","Zip":"90505"},{"Location":"COUNTRY HLS AMML CLNC","Address":"2919 Rolling Hills Rd","City":"Torrance","State":"CA","Zip":"90505"},{"Location":"COURTYARD TORRANCE PALOS VERDE","Address":"2633 Sepulveda Blvd","City":"Torrance","State":"CA","Zip":"90505"},{"Location":"DAPHNES GREEK","Address":"25420 Crenshaw Blvd","City":"Torrance","State":"CA","Zip":"90505"},{"Location":"DAVID LEE RICE ATTNY","Address":"2780 Skypark Dr 475","City":"Torrance","State":"CA","Zip":"90505"},{"Location":"DEL AMO HOSPITAL","Address":"23700 Camino Del Sol","City":"Torrance","State":"CA","Zip":"90505"},{"Location":"DON WILSON BUILDERS","Address":"23705 Crenshaw Blvd 200","City":"Torrance","State":"CA","Zip":"90505"},{"Location":"EL TORITO 7021","Address":"23225 Hawthorne Blvd","City":"Torrance","State":"CA","Zip":"90505"},{"Location":"END RESUILTS","Address":"24402 Hawthorne Blvd","City":"Torrance","State":"CA","Zip":"90505"},{"Location":"FINANCIAL PLANNING GROUP","Address":"2780 Skypark Dr 206","City":"Torrance","State":"CA","Zip":"90505"},{"Location":"FISHBONZ GRILL","Address":"2599 Airport Dr","City":"Torrance","State":"CA","Zip":"90505"},{"Location":"GABLE HOUSE BOWL","Address":"22501 Hawthorne Blvd","City":"Torrance","State":"CA","Zip":"90505"},{"Location":"GAETANOS","Address":"2731 Pacific Coast Hwy","City":"Torrance","State":"CA","Zip":"90505"},{"Location":"GIFT CORNER","Address":"2553 Pacific Coast Hwy","City":"Torrance","State":"CA","Zip":"90505"},{"Location":"GOODYEAR 4858","Address":"3136 Sepulveda Blvd","City":"Torrance","State":"CA","Zip":"90505"},{"Location":"GYNECOLOGIC ONCOLOGY ASSOC","Address":"23600 Telo Ave 250","City":"Torrance","State":"CA","Zip":"90505"},{"Location":"HALE HAWAII","Address":"3144 Pacific Coast Hwy","City":"Torrance","State":"CA","Zip":"90505"},{"Location":"HAMMONS & BALDINO","Address":"2601 Airport Dr 105","City":"Torrance","State":"CA","Zip":"90505"},{"Location":"HEY 19","Address":"4525 Calle Mayor","City":"Torrance","State":"CA","Zip":"90505"},{"Location":"HOF'S HUT RESTAURANTS","Address":"23635 Crenshaw Blvd","City":"Torrance","State":"CA","Zip":"90505"},{"Location":"HONDA JAPANESE RESTAURANT","Address":"3629 Pacific Coast Hwy","City":"Torrance","State":"CA","Zip":"90505"},{"Location":"INDUSTRY SPORTS BAR AND","Address":"22735 Hawthorne Blvd","City":"Torrance","State":"CA","Zip":"90505"},{"Location":"INNER CIRCLE INVESTMENTS INC","Address":"2700 Pacific Coast Hwy A","City":"Torrance","State":"CA","Zip":"90505"},{"Location":"ISLANDS RESTAURANT #026","Address":"2647 Pacific Coast Hwy","City":"Torrance","State":"CA","Zip":"90505"},{"Location":"JAPANESE MON SUSHI","Address":"3948 Sepulveda Blvd","City":"Torrance","State":"CA","Zip":"90505"},{"Location":"JAY K EMPORIUM","Address":"3130 Pacific Coast Hwy","City":"Torrance","State":"CA","Zip":"90505"},{"Location":"JOEYS SMOKING BBQ","Address":"25308 Crenshaw Blvd","City":"Torrance","State":"CA","Zip":"90505"},{"Location":"JUMA BHARADIA MD INC","Address":"22617 Hawthorne Blvd","City":"Torrance","State":"CA","Zip":"90505"},{"Location":"JZ PLACE","Address":"2531 Pacific Coast Hwy","City":"Torrance","State":"CA","Zip":"90505"},{"Location":"KENNY LE MISS NAILS","Address":"2835 Pacific Coast Hwy","City":"Torrance","State":"CA","Zip":"90505"},{"Location":"KOHL'S #632","Address":"25375 Crenshaw Blvd","City":"Torrance","State":"CA","Zip":"90505"},{"Location":"LANDI RENZO USA CORP","Address":"23535 Telo Ave","City":"Torrance","State":"CA","Zip":"90505"},{"Location":"LOMITA TORRANCE DENTAL OFFICE","Address":"23520 Crenshaw Blvd","City":"Torrance","State":"CA","Zip":"90505"},{"Location":"LOUIS BARNETT & ASSOC","Address":"2601 Airport Dr 100","City":"Torrance","State":"CA","Zip":"90505"},{"Location":"LOUS ON THE HILL","Address":"24590 Hawthorne Blvd","City":"Torrance","State":"CA","Zip":"90505"},{"Location":"MACARONI GRILL #1126","Address":"25352 Crenshaw Blvd","City":"Torrance","State":"CA","Zip":"90505"},{"Location":"MAEDER WEALTH GROUP","Address":"2780 Skypark Dr 230","City":"Torrance","State":"CA","Zip":"90505"},{"Location":"MAGELLAN TRAVELER","Address":"23946 Hawthorne Blvd","City":"Torrance","State":"CA","Zip":"90505"},{"Location":"MARY DDS INC","Address":"2543 Pacific Coast Hwy","City":"Torrance","State":"CA","Zip":"90505"},{"Location":"MERCEDES BENZ OF SOUTH BAY","Address":"3311 Pacific Coast Hwy","City":"Torrance","State":"CA","Zip":"90505"},{"Location":"MERCURY AIR GROUP INC","Address":"2780 Skypark Dr 300","City":"Torrance","State":"CA","Zip":"90505"},{"Location":"MEXICAN RIVIERA","Address":"4239 Pacific Coast Hwy","City":"Torrance","State":"CA","Zip":"90505"},{"Location":"MOA DENTAL GROUP","Address":"3226 Sepulveda Blvd","City":"Torrance","State":"CA","Zip":"90505"},{"Location":"MOLINA","Address":"2732 W Sepulgeda Blvd","City":"Torrance","State":"CA","Zip":"90505"},{"Location":"MONA HAIR AND NAIL SALON","Address":"23828 Crenshaw Blvd","City":"Torrance","State":"CA","Zip":"90505"},{"Location":"MOTOART","Address":"23701 Madison St","City":"Torrance","State":"CA","Zip":"90505"},{"Location":"MR KIMS SUSHI","Address":"24004 Vista Montana","City":"Torrance","State":"CA","Zip":"90505"},{"Location":"NEXT WORLD DEVELOPMENT","Address":"24430 Hawthorne Blvd 204","City":"Torrance","State":"CA","Zip":"90505"},{"Location":"PACIFIC DENTAL #282","Address":"2740 Pacific Coast Hwy","City":"Torrance","State":"CA","Zip":"90505"},{"Location":"PACIFIC ENDO SURGERY CENTER","Address":"3445 Pacific Coast Hwy 120","City":"Torrance","State":"CA","Zip":"90505"},{"Location":"PACIFIC PORSCHE","Address":"2900 Pacific Coast Hwy","City":"Torrance","State":"CA","Zip":"90505"},{"Location":"PACIFIC VETERINARY CENTERS","Address":"23629 Hawthorne Blvd","City":"Torrance","State":"CA","Zip":"90505"},{"Location":"PAIN AND REHAB MEDICAL GROUP","Address":"3701 Skypark Dr 260","City":"Torrance","State":"CA","Zip":"90505"},{"Location":"PALOS VERDES BOWL","Address":"24600 Crenshaw Blvd","City":"Torrance","State":"CA","Zip":"90505"},{"Location":"PAMONA STATION INC","Address":"3006 Sepulveda Blvd","City":"Torrance","State":"CA","Zip":"90505"},{"Location":"PATRIOT WEALTH MANAGERMENT","Address":"2780 Skypark Dr 460","City":"Torrance","State":"CA","Zip":"90505"},{"Location":"PELICAN PRODUCTS%2C INC.","Address":"23215 Early Ave","City":"Torrance","State":"CA","Zip":"90505"},{"Location":"PENINISULA GENERAL","Address":"2790 Skypark Dr","City":"Torrance","State":"CA","Zip":"90505"},{"Location":"PETER LORMAN MD","Address":"23600 Telo Ave 180","City":"Torrance","State":"CA","Zip":"90505"},{"Location":"PHILLYS BEST","Address":"24223 Crenshaw Blvd J","City":"Torrance","State":"CA","Zip":"90505"},{"Location":"PLAZA GOLF","Address":"23715 Crenshaw Blvd","City":"Torrance","State":"CA","Zip":"90505"},{"Location":"POWER FORD","Address":"3111 Pacific Coast Hwy","City":"Torrance","State":"CA","Zip":"90505"},{"Location":"PS CATERING LLC","Address":"25514 January Dr B","City":"Torrance","State":"CA","Zip":"90505"},{"Location":"QUICK LANE TIRE AND AUTO","Address":"3035 Pacific Coast Hwy","City":"Torrance","State":"CA","Zip":"90505"},{"Location":"RATON DENTAL CORPORATION","Address":"24231 Crenshaw Blvd E","City":"Torrance","State":"CA","Zip":"90505"},{"Location":"REALITY GROUP","Address":"23805 Hawthorne Blvd","City":"Torrance","State":"CA","Zip":"90505"},{"Location":"REM SLEEP LABS","Address":"23332 Hawthorne Blvd 302","City":"Torrance","State":"CA","Zip":"90505"},{"Location":"RIVIERA HEALTH SPA","Address":"3601 Lomita Blvd","City":"Torrance","State":"CA","Zip":"90505"},{"Location":"RYO ZAN PAKU","Address":"2589 Pacific Coast Hwy","City":"Torrance","State":"CA","Zip":"90505"},{"Location":"SAATCHI AND SAATCHI","Address":"3501 Sepulveda Blvd","City":"Torrance","State":"CA","Zip":"90505"},{"Location":"SAN FRANCISCAN RESTAURANT","Address":"2520 Sepulveda Blvd","City":"Torrance","State":"CA","Zip":"90505"},{"Location":"SCOTTRADE G04","Address":"22330 Hawthorne Blvd A","City":"Torrance","State":"CA","Zip":"90505"},{"Location":"SIZZLER 0785","Address":"2880 Sepulveda Blvd","City":"Torrance","State":"CA","Zip":"90505"},{"Location":"SKINN COSMETICS","Address":"3102 Kashiwa St","City":"Torrance","State":"CA","Zip":"90505"},{"Location":"SO CAL TENANT IMPROVEMENT INC","Address":"3433 Airport Dr 7","City":"Torrance","State":"CA","Zip":"90505"},{"Location":"SOUTH BAY AUTOMOTIVE INC","Address":"24005 Hawthorne Blvd","City":"Torrance","State":"CA","Zip":"90505"},{"Location":"SOUTH BAY LEXUS","Address":"24777 Crenshaw Blvd","City":"Torrance","State":"CA","Zip":"90505"},{"Location":"SOUTH BAY LEXUS","Address":"3215 Pacific Coast Hwy","City":"Torrance","State":"CA","Zip":"90505"},{"Location":"SOUTH END RACQUET CLUB","Address":"2800 Skypark Dr","City":"Torrance","State":"CA","Zip":"90505"},{"Location":"SOUTHBAY GI","Address":"23600 Telo Ave 260","City":"Torrance","State":"CA","Zip":"90505"},{"Location":"STIX HOLDINGS 763","Address":"24231 Crenshaw Blvd A","City":"Torrance","State":"CA","Zip":"90505"},{"Location":"STUDENT SPORTS LLC","Address":"23954 Madison St 475","City":"Torrance","State":"CA","Zip":"90505"},{"Location":"SUGIMORI%2C TOSHIFUMI","Address":"23441 Madison St 150","City":"Torrance","State":"CA","Zip":"90505"},{"Location":"SUSHI EKI EKI","Address":"2589 Pacific Coast Hwy","City":"Torrance","State":"CA","Zip":"90505"},{"Location":"SUSHI FACTORY","Address":"3963 Pacific Coast Hwy","City":"Torrance","State":"CA","Zip":"90505"},{"Location":"SWORD AND DAUER","Address":"24520 Hawthorne Blvd","City":"Torrance","State":"CA","Zip":"90505"},{"Location":"TARGET","Address":"3433 Sepulveda Blvd","City":"Torrance","State":"CA","Zip":"90505"},{"Location":"TESLA MOTORS","Address":"2560 W 237th St","City":"Torrance","State":"CA","Zip":"90505"},{"Location":"TEXAS LOOSY'S PARLOR","Address":"22252 Palos Verdes Blvd","City":"Torrance","State":"CA","Zip":"90505"},{"Location":"TGI FRIDAY'S #1907","Address":"23420 Hawthorne Blvd","City":"Torrance","State":"CA","Zip":"90505"},{"Location":"THE STEWART COMPANY","Address":"3415 Fujita St","City":"Torrance","State":"CA","Zip":"90505"},{"Location":"TMF  INC","Address":"23520 Telo Ave 3","City":"Torrance","State":"CA","Zip":"90505"},{"Location":"TOOL OF NORTH AMERICA","Address":"3205 Fujita St","City":"Torrance","State":"CA","Zip":"90505"},{"Location":"TORENCE HOSPITAL IPA","Address":"22411 Hawthorne Blvd","City":"Torrance","State":"CA","Zip":"90505"},{"Location":"TORRANCE MEMORIAL MEDICAL CTR","Address":"3330 Lomita Blvd","City":"Torrance","State":"CA","Zip":"90505"},{"Location":"TORRANCE MEMORIAL PHYS NETWORK","Address":"2900 Lomita Blvd","City":"Torrance","State":"CA","Zip":"90505"},{"Location":"TREAT TEA AND ICE","Address":"2595 Airport Dr","City":"Torrance","State":"CA","Zip":"90505"},{"Location":"TUCKERS MARKET","Address":"3690 Newton St","City":"Torrance","State":"CA","Zip":"90505"},{"Location":"UROLOGY INSTITUTE OF SOUTH BAY","Address":"23600 Telo Ave 220","City":"Torrance","State":"CA","Zip":"90505"},{"Location":"UROLOGY SPECIALTY GROUP","Address":"3445 Pacific Coast Hwy 310","City":"Torrance","State":"CA","Zip":"90505"},{"Location":"USRC SOUTH BAY DIALYSIS","Address":"23441 Madison St Bldg8","City":"Torrance","State":"CA","Zip":"90505"},{"Location":"VANLINGEN TOWING LLC","Address":"2755 Lomita Blvd","City":"Torrance","State":"CA","Zip":"90505"},{"Location":"WHOLE FOODS MARKET","Address":"2655 Pacific Coast Hwy","City":"Torrance","State":"CA","Zip":"90505"},{"Location":"WILLIAM BOUNDS LTD","Address":"3737 W 240th St","City":"Torrance","State":"CA","Zip":"90505"},{"Location":"WING STOP","Address":"24231 Crenshaw Blvd Stec","City":"Torrance","State":"CA","Zip":"90505"},{"Location":"YNOT BURGERS","Address":"22940 Hawthorne Blvd","City":"Torrance","State":"CA","Zip":"90505"},{"Location":"YOGIS TERIYAKI HOUSE","Address":"4437 Sepulveda Blvd C","City":"Torrance","State":"CA","Zip":"90505"},{"Location":"SOUTH BAY CENTER","Address":"25924 Rollibng Hills Rd","City":"Torrence","State":"CA","Zip":"90505"}]