[{"Location":"ACAPULCO 0060","Address":"2404 Sepulveda Blvd","City":"Torrance","State":"CA","Zip":"90501"},{"Location":"ACAPULCO CAFE","Address":"1406 W Carson St","City":"Torrance","State":"CA","Zip":"90501"},{"Location":"ACTION SPORTS DIVISION","Address":"1301 Storm Pkwy","City":"Torrance","State":"CA","Zip":"90501"},{"Location":"ALPINE ELECTRONICS","Address":"19145 Gramercy Pl","City":"Torrance","State":"CA","Zip":"90501"},{"Location":"ALPINE ELECTRONICS 2","Address":"19145 Gramercy Pl","City":"Torrance","State":"CA","Zip":"90501"},{"Location":"ALPINE ELECTRONICS 3","Address":"19145 Gramercy Pl","City":"Torrance","State":"CA","Zip":"90501"},{"Location":"ALPINE ELECTRONICS 4","Address":"19145 Gramercy Pl","City":"Torrance","State":"CA","Zip":"90501"},{"Location":"ALPINE ELECTRONICS 5","Address":"19145 Gramercy Pl","City":"Torrance","State":"CA","Zip":"90501"},{"Location":"AMERICAN HONDA CORP","Address":"700 Van Ness Ave","City":"Torrance","State":"CA","Zip":"90501"},{"Location":"AMERICAN HONDA MOTOR CO","Address":"1919 Torrance Blvd","City":"Torrance","State":"CA","Zip":"90501"},{"Location":"AMERICAN HONDA MOTOR COMPANY","Address":"1919 Torrance Blvd","City":"Torrance","State":"CA","Zip":"90501"},{"Location":"AMERICAN HONDA MOTOR COMPANY 2","Address":"1919 Torrance Blvd","City":"Torrance","State":"CA","Zip":"90501"},{"Location":"AMF #261 BOWL O DROME","Address":"21915 S Western Ave","City":"Torrance","State":"CA","Zip":"90501"},{"Location":"ANTCOM  CORPORATION","Address":"367 Van Ness Way","City":"Torrance","State":"CA","Zip":"90501"},{"Location":"ANTIGUA CAFE AND DELI LLC","Address":"1231 Cabrillo Ave 103","City":"Torrance","State":"CA","Zip":"90501"},{"Location":"ARIRANG BILLIARD","Address":"1585 Sepulveda Blvd F","City":"Torrance","State":"CA","Zip":"90501"},{"Location":"ASAHI SHIMBUN AMERICA INC.","Address":"21241 S Western Ave 270","City":"Torrance","State":"CA","Zip":"90501"},{"Location":"BO'S CIGAR TORRANCE","Address":"1305 Sartori Ave B","City":"Torrance","State":"CA","Zip":"90501"},{"Location":"BRANCH OFFICE","Address":"2320 Torrance Blvd","City":"Torrance","State":"CA","Zip":"90501"},{"Location":"BRAVO AUTO COLLISION","Address":"1858 Del Amo Blvd","City":"Torrance","State":"CA","Zip":"90501"},{"Location":"BUCARO CONSTRUCTION INC","Address":"20309 Gramercy Pl C","City":"Torrance","State":"CA","Zip":"90501"},{"Location":"BY BRAZIL","Address":"1615 Cabrillo Ave","City":"Torrance","State":"CA","Zip":"90501"},{"Location":"C P R E M E","Address":"2012 Abalone Ave A","City":"Torrance","State":"CA","Zip":"90501"},{"Location":"CAFE 3355","Address":"1955 Torrance Blvd","City":"Torrance","State":"CA","Zip":"90501"},{"Location":"CBP LAX WELFARE AND REC","Address":"20700 Denker Ave","City":"Torrance","State":"CA","Zip":"90501"},{"Location":"CHILE VERDE","Address":"1441 W Knox St 100","City":"Torrance","State":"CA","Zip":"90501"},{"Location":"CHILE VERDE","Address":"2222 Sepulveda Blvd","City":"Torrance","State":"CA","Zip":"90501"},{"Location":"CHRISTENSEN EHRET LLP","Address":"1629 Cravens Ave","City":"Torrance","State":"CA","Zip":"90501"},{"Location":"CLD SHOE CLINIC","Address":"1920 W Carson St","City":"Torrance","State":"CA","Zip":"90501"},{"Location":"CLEAR CHANNEL OUTDOOR","Address":"19320 Harborgate Way","City":"Torrance","State":"CA","Zip":"90501"},{"Location":"CORNELL ELECTIRIC","Address":"1308 Border Ave","City":"Torrance","State":"CA","Zip":"90501"},{"Location":"COUNTRY BURGER","Address":"21721 S Western Ave","City":"Torrance","State":"CA","Zip":"90501"},{"Location":"CREATIVE PATHWAYS INC","Address":"20815 Higgins Ct","City":"Torrance","State":"CA","Zip":"90501"},{"Location":"CREDIT CARD SERVICES INC","Address":"21281 S Western Ave","City":"Torrance","State":"CA","Zip":"90501"},{"Location":"CRUZ VERDE","Address":"1658 W Carson St B","City":"Torrance","State":"CA","Zip":"90501"},{"Location":"DINO'S BURGERS INC","Address":"1975 Torrance Blvd","City":"Torrance","State":"CA","Zip":"90501"},{"Location":"DOC MAGIC","Address":"1800 W 213th St","City":"Torrance","State":"CA","Zip":"90501"},{"Location":"DOUG MOCKETT","Address":"1915 Abalone Ave","City":"Torrance","State":"CA","Zip":"90501"},{"Location":"DUNN AND ASSOCIATES","Address":"1527 Cravens Ave","City":"Torrance","State":"CA","Zip":"90501"},{"Location":"ELIOS MARKET","Address":"22330 S Western Ave","City":"Torrance","State":"CA","Zip":"90501"},{"Location":"EXCELLENCE IN MOTIVATION","Address":"1899 Western Way 400","City":"Torrance","State":"CA","Zip":"90501"},{"Location":"FANTASTIC CAFE","Address":"20305 S Western Ave","City":"Torrance","State":"CA","Zip":"90501"},{"Location":"FISHS WILD FISH GRILL","Address":"1441 W Knox St 500","City":"Torrance","State":"CA","Zip":"90501"},{"Location":"FOUR MAN","Address":"1815 W 205th St 306","City":"Torrance","State":"CA","Zip":"90501"},{"Location":"FUNAI INC","Address":"19900 Van Ness Ave","City":"Torrance","State":"CA","Zip":"90501"},{"Location":"GEORGE & JOEY'S TOWING","Address":"1656 Plaza Del Amo","City":"Torrance","State":"CA","Zip":"90501"},{"Location":"GUHMOK KOREAN B.B.Q","Address":"2216 Sepulveda Blvd","City":"Torrance","State":"CA","Zip":"90501"},{"Location":"HEALTHCARE LINK SERVICES","Address":"2444 W 205th St A2","City":"Torrance","State":"CA","Zip":"90501"},{"Location":"HONDA SERVICE CENTER","Address":"2280 Crenshaw Blvd","City":"Torrance","State":"CA","Zip":"90501"},{"Location":"INVESTIGATIVE CONSULTANT","Address":"1510 W 228th St","City":"Torrance","State":"CA","Zip":"90501"},{"Location":"JACKSON DAWSON COMM","Address":"355 Van Ness Ave","City":"Torrance","State":"CA","Zip":"90501"},{"Location":"JAPANESE AUTOMOTIVE REPAIR","Address":"1846 Del Amo Blvd","City":"Torrance","State":"CA","Zip":"90501"},{"Location":"KEEGANS IRISH PUB","Address":"1434 Marcelina Ave","City":"Torrance","State":"CA","Zip":"90501"},{"Location":"KINGS HAWAIIAN HOLDING CO INC","Address":"19161 Harborgate Way","City":"Torrance","State":"CA","Zip":"90501"},{"Location":"KPGS","Address":"1436 Marcelina Ave","City":"Torrance","State":"CA","Zip":"90501"},{"Location":"KRT INVESTMENTS","Address":"22908 Lockness Ave","City":"Torrance","State":"CA","Zip":"90501"},{"Location":"L A SUNSET TAN","Address":"390 Amapola Ave 8","City":"Torrance","State":"CA","Zip":"90501"},{"Location":"LAW OFFICE OF WILLIAM LINDHEIM","Address":"381 Van Ness Ave 1502","City":"Torrance","State":"CA","Zip":"90501"},{"Location":"MARCEA INC","Address":"1740 Crenshaw Blvd","City":"Torrance","State":"CA","Zip":"90501"},{"Location":"MEDICAL BENEFIT ASSOC","Address":"2370 W Carson St 160","City":"Torrance","State":"CA","Zip":"90501"},{"Location":"MILESTONE HOSPICE","Address":"1500 Crenshaw Blvd","City":"Torrance","State":"CA","Zip":"90501"},{"Location":"MIYAKO HYBRID HOTEL","Address":"21381 S Western Ave","City":"Torrance","State":"CA","Zip":"90501"},{"Location":"MK DIAMOND PRODUCT","Address":"1315 Storm Pkwy","City":"Torrance","State":"CA","Zip":"90501"},{"Location":"MONKEES CHINESE RESTAURA","Address":"1585 Sepulveda Blvd D","City":"Torrance","State":"CA","Zip":"90501"},{"Location":"MONKISH BREWING CO","Address":"20311 S Western Ave","City":"Torrance","State":"CA","Zip":"90501"},{"Location":"MOOG INC","Address":"20263 S Western Ave","City":"Torrance","State":"CA","Zip":"90501"},{"Location":"MOOSE LODGE 785","Address":"1020 Sartori Ave","City":"Torrance","State":"CA","Zip":"90501"},{"Location":"MULLIGAN FAMILY FUN CENTER","Address":"1351 Sepulveda Blvd","City":"Torrance","State":"CA","Zip":"90501"},{"Location":"MURAD WAREHOUSE","Address":"1340 Storm Pkwy","City":"Torrance","State":"CA","Zip":"90501"},{"Location":"NU ERA HOME HOUSE AGENCY","Address":"370 Amapola Ave 215","City":"Torrance","State":"CA","Zip":"90501"},{"Location":"PADDY O'S","Address":"20320 S Western Ave","City":"Torrance","State":"CA","Zip":"90501"},{"Location":"PANADERIA EL RINCON DEL","Address":"1534 W Carson St","City":"Torrance","State":"CA","Zip":"90501"},{"Location":"PHENOMENEX","Address":"411 Madrid Ave","City":"Torrance","State":"CA","Zip":"90501"},{"Location":"PHIL HUNTSINGER","Address":"2370 W Carson St 140","City":"Torrance","State":"CA","Zip":"90501"},{"Location":"PHO IN HOUSE","Address":"22820 S Western Ave","City":"Torrance","State":"CA","Zip":"90501"},{"Location":"REMARKABLE ROOTER","Address":"1860 W 220th St 430","City":"Torrance","State":"CA","Zip":"90501"},{"Location":"REMODEL USA","Address":"2291 W 205th St 106","City":"Torrance","State":"CA","Zip":"90501"},{"Location":"RHEUBEN ALLEN AND ASSOC","Address":"1978 Del Amo Blvd B","City":"Torrance","State":"CA","Zip":"90501"},{"Location":"ROBERT S ERNENWEIN","Address":"1405 Crenshaw Blvd","City":"Torrance","State":"CA","Zip":"90501"},{"Location":"SAKURA FINE TEC INC","Address":"1750 W 214th St","City":"Torrance","State":"CA","Zip":"90501"},{"Location":"SALLE DASARO","Address":"1450 W 228th St","City":"Torrance","State":"CA","Zip":"90501"},{"Location":"SEIKO INSTRUMENTS USA INC","Address":"21221 S Western Ave","City":"Torrance","State":"CA","Zip":"90501"},{"Location":"SHINMEI USA CORP","Address":"1757 W Carson St S","City":"Torrance","State":"CA","Zip":"90501"},{"Location":"SINALOA TACOS NO.3","Address":"1647 W Carson St","City":"Torrance","State":"CA","Zip":"90501"},{"Location":"SO CAL SHARPSHOOTER","Address":"1827 W 208th St","City":"Torrance","State":"CA","Zip":"90501"},{"Location":"SPORTS STUDIO VENTURES","Address":"1831 W 208th St","City":"Torrance","State":"CA","Zip":"90501"},{"Location":"SUMITOMO ELECTRIC USA","Address":"21241 S Western Ave 120","City":"Torrance","State":"CA","Zip":"90501"},{"Location":"SUNGATE ENERGY SOLUTION","Address":"2020 Del Amo Blvd","City":"Torrance","State":"CA","Zip":"90501"},{"Location":"T M S","Address":"19001 S Western Ave Proje","City":"Torrance","State":"CA","Zip":"90501"},{"Location":"TELSTRAIGHT INTERNATIONA","Address":"1805 W 208th St 203","City":"Torrance","State":"CA","Zip":"90501"},{"Location":"TEMORY","Address":"2424 Sepulveda Blvd M","City":"Torrance","State":"CA","Zip":"90501"},{"Location":"THE CREST SPORTS BAR","Address":"1625 Cabrillo Ave","City":"Torrance","State":"CA","Zip":"90501"},{"Location":"THE DUDES BREWING COMPANY7","Address":"1840 W 208th St","City":"Torrance","State":"CA","Zip":"90501"},{"Location":"THE ORIGINAL JUST LUIGIS","Address":"1437 Marcelina Ave","City":"Torrance","State":"CA","Zip":"90501"},{"Location":"TORRANCE FAMILY DENTAL","Address":"1455 Crenshaw Blvd 180","City":"Torrance","State":"CA","Zip":"90501"},{"Location":"TORRANCE FIRE STA. ONE","Address":"1701 Crenshaw Blvd","City":"Torrance","State":"CA","Zip":"90501"},{"Location":"TORTILLA CANTINA","Address":"1225 El Prado Ave","City":"Torrance","State":"CA","Zip":"90501"},{"Location":"TOYOTA FINANCIAL","Address":"19001 S Western Ave","City":"Torrance","State":"CA","Zip":"90501"},{"Location":"TOYOTA FINANCIAL SERVICES","Address":"19001 S Western Ave 3","City":"Torrance","State":"CA","Zip":"90501"},{"Location":"TOYOTA FINANCIAL SERVICES 2","Address":"19871 S Western Ave","City":"Torrance","State":"CA","Zip":"90501"},{"Location":"TOYOTA MOTOR SALES","Address":"19001 S Western Ave C200","City":"Torrance","State":"CA","Zip":"90501"},{"Location":"TOYOTA MOTOR SALES USA INC","Address":"19001 S Western Ave","City":"Torrance","State":"CA","Zip":"90501"},{"Location":"TOYOTA MOTOR SALES%2C USA","Address":"19001 S Western Ave Data","City":"Torrance","State":"CA","Zip":"90501"},{"Location":"TV ASAHI AMERICA INC","Address":"21241 S Western Ave 270","City":"Torrance","State":"CA","Zip":"90501"},{"Location":"UNIFIED CARE SERVICES","Address":"2368 Torrance Blvd 200","City":"Torrance","State":"CA","Zip":"90501"},{"Location":"UTI","Address":"1640 W 190th St","City":"Torrance","State":"CA","Zip":"90501"},{"Location":"VIRCO MFG CORPORATION","Address":"2027 Harpers Way","City":"Torrance","State":"CA","Zip":"90501"},{"Location":"WEST SIDE GROUP","Address":"505 Van Ness Ave","City":"Torrance","State":"CA","Zip":"90501"},{"Location":"WESTERN FEDERAL CREDIT UNION","Address":"1899 Western Way","City":"Torrance","State":"CA","Zip":"90501"}]