[{"Location":"AIR FAIRE","Address":"20051 S Vermont Ave","City":"Torrance","State":"CA","Zip":"90502"},{"Location":"ALL CITY DEPUTY INSPECTION","Address":"22122 S Vermont Ave C","City":"Torrance","State":"CA","Zip":"90502"},{"Location":"ALPINE VILLAGE","Address":"833 Torrance Blvd","City":"Torrance","State":"CA","Zip":"90502"},{"Location":"AMBITIONS DOBLE","Address":"23228 Doble Ave","City":"Torrance","State":"CA","Zip":"90502"},{"Location":"AVERS DRIVING SCHOOL1","Address":"833 Torrance Blvd","City":"Torrance","State":"CA","Zip":"90502"},{"Location":"AYSO","Address":"19750 S Vermont Ave 200","City":"Torrance","State":"CA","Zip":"90502"},{"Location":"BAY GIRLS GENTLEMENS CLUB","Address":"20320 Hamilton Ave","City":"Torrance","State":"CA","Zip":"90502"},{"Location":"COMIC CULT","Address":"1047 W Carson St 5","City":"Torrance","State":"CA","Zip":"90502"},{"Location":"CUSHMAN & WAKEFIELD","Address":"970 W 190th St 550","City":"Torrance","State":"CA","Zip":"90502"},{"Location":"DAVITA #697 UCLA HARBOR","Address":"21602 S Vermont Ave","City":"Torrance","State":"CA","Zip":"90502"},{"Location":"DISCOUNT BEER & WINE","Address":"1233 Torrance Blvd","City":"Torrance","State":"CA","Zip":"90502"},{"Location":"DIVERSIFIED TRANSPORTATION","Address":"19829 Hamilton Ave","City":"Torrance","State":"CA","Zip":"90502"},{"Location":"ECOLOGY CONTROL COMPANY","Address":"20846 Normandie Ave","City":"Torrance","State":"CA","Zip":"90502"},{"Location":"EMPERIAL CSF INC","Address":"1000 Francisco St","City":"Torrance","State":"CA","Zip":"90502"},{"Location":"ENC INC","Address":"19811 Hamilton Ave","City":"Torrance","State":"CA","Zip":"90502"},{"Location":"FARMER BROTHERS COFFEE","Address":"20333 Normandie Ave","City":"Torrance","State":"CA","Zip":"90502"},{"Location":"FIESTA GRILL","Address":"1153 W Carson St","City":"Torrance","State":"CA","Zip":"90502"},{"Location":"FINLEYS TREE & LAND CARE","Address":"22208 S Vermont Ave","City":"Torrance","State":"CA","Zip":"90502"},{"Location":"FRED BROWN RECOVERY 2","Address":"20533 Catalina St","City":"Torrance","State":"CA","Zip":"90502"},{"Location":"GIRL SKATE BOARDS","Address":"22500 S Vermont Ave","City":"Torrance","State":"CA","Zip":"90502"},{"Location":"GOLDEN STATE PAINT","Address":"23134 Normandie Ave","City":"Torrance","State":"CA","Zip":"90502"},{"Location":"HARBOR   UCLA MEDICAL CENTER","Address":"1000 W Carson St","City":"Torrance","State":"CA","Zip":"90502"},{"Location":"HARBOR CARE","Address":"21521 S Vermont Ave","City":"Torrance","State":"CA","Zip":"90502"},{"Location":"HARBOR UCLA DIAGNOSTIC IMAG","Address":"21828 Normandie Ave","City":"Torrance","State":"CA","Zip":"90502"},{"Location":"HARD SIX EATERY%2C INC","Address":"1001 W Carson St A","City":"Torrance","State":"CA","Zip":"90502"},{"Location":"HUMANA","Address":"970 W 190th St 810","City":"Torrance","State":"CA","Zip":"90502"},{"Location":"IMAGE SOLUTIONS","Address":"19819 Hamilton Ave","City":"Torrance","State":"CA","Zip":"90502"},{"Location":"JAD CHEMICALS COMPANY IN","Address":"833 Torrance Blvd 5","City":"Torrance","State":"CA","Zip":"90502"},{"Location":"JAPANESS SUSHI","Address":"800 W Carson St 40","City":"Torrance","State":"CA","Zip":"90502"},{"Location":"JR286 #2","Address":"20100 S Vermont Ave 101","City":"Torrance","State":"CA","Zip":"90502"},{"Location":"KOWA OPTIMED INC","Address":"20001 S Vermont Ave","City":"Torrance","State":"CA","Zip":"90502"},{"Location":"MARIA ROSALES","Address":"1151 W Carson St","City":"Torrance","State":"CA","Zip":"90502"},{"Location":"MCCORMICK AMBULANCE","Address":"20101 Hamilton Ave 230","City":"Torrance","State":"CA","Zip":"90502"},{"Location":"OGLETREE DEAKINS","Address":"990 W 190th St 600","City":"Torrance","State":"CA","Zip":"90502"},{"Location":"PANALPINA INC","Address":"19900 S Vermont Ave A","City":"Torrance","State":"CA","Zip":"90502"},{"Location":"PHO CONSOMME","Address":"21732 S Vermont Ave","City":"Torrance","State":"CA","Zip":"90502"},{"Location":"PHOENIX INTERNATIONAL","Address":"680 Knox St 210","City":"Torrance","State":"CA","Zip":"90502"},{"Location":"PIT STOP BURGERS","Address":"20720 Normandie Ave","City":"Torrance","State":"CA","Zip":"90502"},{"Location":"RR DONNELLEY","Address":"19681 Pacific Gateway Dr","City":"Torrance","State":"CA","Zip":"90502"},{"Location":"SB HYDRO","Address":"800 W Carson St 31","City":"Torrance","State":"CA","Zip":"90502"},{"Location":"SOUTH BAY FORKLIFT","Address":"23308 Normandie Ave","City":"Torrance","State":"CA","Zip":"90502"},{"Location":"SUNNYSIDE NURSING CENTER","Address":"22617 S Vermont Ave","City":"Torrance","State":"CA","Zip":"90502"},{"Location":"SUNNYSIDE RETIREMENT CENTER","Address":"22711 S Vermont Ave","City":"Torrance","State":"CA","Zip":"90502"},{"Location":"THE MAYA GROUP","Address":"19823 Hamilton Ave","City":"Torrance","State":"CA","Zip":"90502"},{"Location":"THE OFFICE BAR AND GRILL","Address":"19606 Normandie Ave","City":"Torrance","State":"CA","Zip":"90502"},{"Location":"UPS","Address":"19701 Hamilton Ave","City":"Torrance","State":"CA","Zip":"90502"},{"Location":"VERMONT AVENUE BAPTIST CHURCH","Address":"23325 S Vermont Ave","City":"Torrance","State":"CA","Zip":"90502"},{"Location":"VETERANS OF FOREIGN WARS","Address":"20820 S Vermont Ave","City":"Torrance","State":"CA","Zip":"90502"},{"Location":"VIGAN EXPRESS","Address":"21720 S Vermont Ave 114","City":"Torrance","State":"CA","Zip":"90502"},{"Location":"WESTWOOD COLLEGE","Address":"19700 S Vermont Ave 100","City":"Torrance","State":"CA","Zip":"90502"},{"Location":"YOSHINOYA AMERICA INC","Address":"991 Knox St","City":"Torrance","State":"CA","Zip":"90502"},{"Location":"AIR FAIRE","Address":"20051 S Vermont Ave","City":"Torrance","State":"CA","Zip":"90502"},{"Location":"ALL CITY DEPUTY INSPECTION","Address":"22122 S Vermont Ave C","City":"Torrance","State":"CA","Zip":"90502"},{"Location":"ALPINE VILLAGE","Address":"833 Torrance Blvd","City":"Torrance","State":"CA","Zip":"90502"},{"Location":"AMBITIONS DOBLE","Address":"23228 Doble Ave","City":"Torrance","State":"CA","Zip":"90502"},{"Location":"AVERS DRIVING SCHOOL1","Address":"833 Torrance Blvd","City":"Torrance","State":"CA","Zip":"90502"},{"Location":"AYSO","Address":"19750 S Vermont Ave 200","City":"Torrance","State":"CA","Zip":"90502"},{"Location":"BAY GIRLS GENTLEMENS CLUB","Address":"20320 Hamilton Ave","City":"Torrance","State":"CA","Zip":"90502"},{"Location":"COMIC CULT","Address":"1047 W Carson St 5","City":"Torrance","State":"CA","Zip":"90502"},{"Location":"CUSHMAN & WAKEFIELD","Address":"970 W 190th St 550","City":"Torrance","State":"CA","Zip":"90502"},{"Location":"DAVITA #697 UCLA HARBOR","Address":"21602 S Vermont Ave","City":"Torrance","State":"CA","Zip":"90502"},{"Location":"DISCOUNT BEER & WINE","Address":"1233 Torrance Blvd","City":"Torrance","State":"CA","Zip":"90502"},{"Location":"DIVERSIFIED TRANSPORTATION","Address":"19829 Hamilton Ave","City":"Torrance","State":"CA","Zip":"90502"},{"Location":"ECOLOGY CONTROL COMPANY","Address":"20846 Normandie Ave","City":"Torrance","State":"CA","Zip":"90502"},{"Location":"EMPERIAL CSF INC","Address":"1000 Francisco St","City":"Torrance","State":"CA","Zip":"90502"},{"Location":"ENC INC","Address":"19811 Hamilton Ave","City":"Torrance","State":"CA","Zip":"90502"},{"Location":"FARMER BROTHERS COFFEE","Address":"20333 Normandie Ave","City":"Torrance","State":"CA","Zip":"90502"},{"Location":"FIESTA GRILL","Address":"1153 W Carson St","City":"Torrance","State":"CA","Zip":"90502"},{"Location":"FINLEYS TREE & LAND CARE","Address":"22208 S Vermont Ave","City":"Torrance","State":"CA","Zip":"90502"},{"Location":"FRED BROWN RECOVERY 2","Address":"20533 Catalina St","City":"Torrance","State":"CA","Zip":"90502"},{"Location":"GIRL SKATE BOARDS","Address":"22500 S Vermont Ave","City":"Torrance","State":"CA","Zip":"90502"},{"Location":"GOLDEN STATE PAINT","Address":"23134 Normandie Ave","City":"Torrance","State":"CA","Zip":"90502"},{"Location":"HARBOR   UCLA MEDICAL CENTER","Address":"1000 W Carson St","City":"Torrance","State":"CA","Zip":"90502"},{"Location":"HARBOR CARE","Address":"21521 S Vermont Ave","City":"Torrance","State":"CA","Zip":"90502"},{"Location":"HARBOR UCLA DIAGNOSTIC IMAG","Address":"21828 Normandie Ave","City":"Torrance","State":"CA","Zip":"90502"},{"Location":"HARD SIX EATERY%2C INC","Address":"1001 W Carson St A","City":"Torrance","State":"CA","Zip":"90502"},{"Location":"HUMANA","Address":"970 W 190th St 810","City":"Torrance","State":"CA","Zip":"90502"},{"Location":"IMAGE SOLUTIONS","Address":"19819 Hamilton Ave","City":"Torrance","State":"CA","Zip":"90502"},{"Location":"JAD CHEMICALS COMPANY IN","Address":"833 Torrance Blvd 5","City":"Torrance","State":"CA","Zip":"90502"},{"Location":"JAPANESS SUSHI","Address":"800 W Carson St 40","City":"Torrance","State":"CA","Zip":"90502"},{"Location":"JR286 #2","Address":"20100 S Vermont Ave 101","City":"Torrance","State":"CA","Zip":"90502"},{"Location":"KOWA OPTIMED INC","Address":"20001 S Vermont Ave","City":"Torrance","State":"CA","Zip":"90502"},{"Location":"MARIA ROSALES","Address":"1151 W Carson St","City":"Torrance","State":"CA","Zip":"90502"},{"Location":"MCCORMICK AMBULANCE","Address":"20101 Hamilton Ave 230","City":"Torrance","State":"CA","Zip":"90502"},{"Location":"OGLETREE DEAKINS","Address":"990 W 190th St 600","City":"Torrance","State":"CA","Zip":"90502"},{"Location":"PANALPINA INC","Address":"19900 S Vermont Ave A","City":"Torrance","State":"CA","Zip":"90502"},{"Location":"PHO CONSOMME","Address":"21732 S Vermont Ave","City":"Torrance","State":"CA","Zip":"90502"},{"Location":"PHOENIX INTERNATIONAL","Address":"680 Knox St 210","City":"Torrance","State":"CA","Zip":"90502"},{"Location":"PIT STOP BURGERS","Address":"20720 Normandie Ave","City":"Torrance","State":"CA","Zip":"90502"},{"Location":"RR DONNELLEY","Address":"19681 Pacific Gateway Dr","City":"Torrance","State":"CA","Zip":"90502"},{"Location":"SB HYDRO","Address":"800 W Carson St 31","City":"Torrance","State":"CA","Zip":"90502"},{"Location":"SOUTH BAY FORKLIFT","Address":"23308 Normandie Ave","City":"Torrance","State":"CA","Zip":"90502"},{"Location":"SUNNYSIDE NURSING CENTER","Address":"22617 S Vermont Ave","City":"Torrance","State":"CA","Zip":"90502"},{"Location":"SUNNYSIDE RETIREMENT CENTER","Address":"22711 S Vermont Ave","City":"Torrance","State":"CA","Zip":"90502"},{"Location":"THE MAYA GROUP","Address":"19823 Hamilton Ave","City":"Torrance","State":"CA","Zip":"90502"},{"Location":"THE OFFICE BAR AND GRILL","Address":"19606 Normandie Ave","City":"Torrance","State":"CA","Zip":"90502"},{"Location":"UPS","Address":"19701 Hamilton Ave","City":"Torrance","State":"CA","Zip":"90502"},{"Location":"VERMONT AVENUE BAPTIST CHURCH","Address":"23325 S Vermont Ave","City":"Torrance","State":"CA","Zip":"90502"},{"Location":"VETERANS OF FOREIGN WARS","Address":"20820 S Vermont Ave","City":"Torrance","State":"CA","Zip":"90502"},{"Location":"VIGAN EXPRESS","Address":"21720 S Vermont Ave 114","City":"Torrance","State":"CA","Zip":"90502"},{"Location":"WESTWOOD COLLEGE","Address":"19700 S Vermont Ave 100","City":"Torrance","State":"CA","Zip":"90502"},{"Location":"YOSHINOYA AMERICA INC","Address":"991 Knox St","City":"Torrance","State":"CA","Zip":"90502"}]