[{"Location":"MI LINDO MICHOACAN","Address":"4436 W Imperial Hwy","City":"Haw","State":"CA","Zip":"90503"},{"Location":"ABD INSURANCE & FINANCIAL SVCS","Address":"21250 Hawthorne Blvd 600","City":"Torrance","State":"CA","Zip":"90503"},{"Location":"ABSOLUTION BREWING COMPANY","Address":"2878 Columbia St","City":"Torrance","State":"CA","Zip":"90503"},{"Location":"ALL CARE DENTAL","Address":"19019 Hawthorne Blvd","City":"Torrance","State":"CA","Zip":"90503"},{"Location":"AMERICA TIRE DEPOT","Address":"20506 Hawthorne Blvd","City":"Torrance","State":"CA","Zip":"90503"},{"Location":"ANDERSON SILVA ENTERPRIS","Address":"438 Alaska Ave","City":"Torrance","State":"CA","Zip":"90503"},{"Location":"APD FINANCIAL","Address":"3625 Del Amo Blvd 380","City":"Torrance","State":"CA","Zip":"90503"},{"Location":"ASTRID MENDOZA DO","Address":"4201 Torrance Blvd 780","City":"Torrance","State":"CA","Zip":"90503"},{"Location":"BANK OF AMERICA CA8-518-04-04","Address":"21250 Hawthorne Blvd 430","City":"Torrance","State":"CA","Zip":"90503"},{"Location":"BARRISTER EXECTIVES SUITES","Address":"21250 Hawthorne Blvd 500","City":"Torrance","State":"CA","Zip":"90503"},{"Location":"BENIHANA #1021 TORRANCE","Address":"21327 Hawthorne Blvd","City":"Torrance","State":"CA","Zip":"90503"},{"Location":"BEST COIN LAUNDRY","Address":"21172 Hawthorne Blvd","City":"Torrance","State":"CA","Zip":"90503"},{"Location":"BJS RESTAURANT #478","Address":"3525 W Carson St","City":"Torrance","State":"CA","Zip":"90503"},{"Location":"BUFFALO WILD WINGS #3351","Address":"3525 W Carson St 163","City":"Torrance","State":"CA","Zip":"90503"},{"Location":"CA HOME FITNESS","Address":"20502 Hawthorne Blvd","City":"Torrance","State":"CA","Zip":"90503"},{"Location":"CARDIOPULMONARY REHAB","Address":"20929 Hawthorne Blvd","City":"Torrance","State":"CA","Zip":"90503"},{"Location":"CHAYO EATERY","Address":"3556 Torrance Blvd","City":"Torrance","State":"CA","Zip":"90503"},{"Location":"CHILI'S #0315","Address":"21835 Hawthorne Blvd","City":"Torrance","State":"CA","Zip":"90503"},{"Location":"CHOURA EVENTS","Address":"540 Hawaii Ave","City":"Torrance","State":"CA","Zip":"90503"},{"Location":"DAILY BREEZE","Address":"21250 Hawthorne Blvd 170","City":"Torrance","State":"CA","Zip":"90503"},{"Location":"DEL AMO CAR WASH","Address":"20505 Hawthorne Blvd","City":"Torrance","State":"CA","Zip":"90503"},{"Location":"DELAMO DIAGNOSTIC CENTER","Address":"3531 Fashion Way","City":"Torrance","State":"CA","Zip":"90503"},{"Location":"EDELBROCK LLC","Address":"2700 California St","City":"Torrance","State":"CA","Zip":"90503"},{"Location":"EISENBRAND INC. EXOTIC","Address":"4100 Spencer St","City":"Torrance","State":"CA","Zip":"90503"},{"Location":"EL TORITO 7230","Address":"21321 Hawthorne Blvd","City":"Torrance","State":"CA","Zip":"90503"},{"Location":"ELEPHANT BAR TORRANCE","Address":"21227 Hawthorne Blvd","City":"Torrance","State":"CA","Zip":"90503"},{"Location":"ETRADE FINANCIAL","Address":"21243 Hawthorne Blvd","City":"Torrance","State":"CA","Zip":"90503"},{"Location":"FIDELITY INVESTMENTS 309","Address":"21701 Hawthorne Blvd","City":"Torrance","State":"CA","Zip":"90503"},{"Location":"GOODSON LLC","Address":"20550 Hawthorne Blvd","City":"Torrance","State":"CA","Zip":"90503"},{"Location":"HARBOR REGIONAL CENTER","Address":"21231 Hawthorne Blvd","City":"Torrance","State":"CA","Zip":"90503"},{"Location":"HSBC BANK #819280","Address":"21842 Hawthorne Blvd","City":"Torrance","State":"CA","Zip":"90503"},{"Location":"KENNETH GREENSTADT","Address":"3565 Torrance Blvd B","City":"Torrance","State":"CA","Zip":"90503"},{"Location":"LA FITNESS #51","Address":"3550 W Carson St","City":"Torrance","State":"CA","Zip":"90503"},{"Location":"LA GALAXY SOCCER CTR.","Address":"540 Maple Ave","City":"Torrance","State":"CA","Zip":"90503"},{"Location":"LITTLE COMPANY OF MARY HOSPITA","Address":"4101 Torrance Blvd","City":"Torrance","State":"CA","Zip":"90503"},{"Location":"LUCILLE'S SMOKEHOUSE BBQ","Address":"21420 Hawthorne Blvd","City":"Torrance","State":"CA","Zip":"90503"},{"Location":"LUXURY NAIL SPA","Address":"4856 W 190th St","City":"Torrance","State":"CA","Zip":"90503"},{"Location":"MACY'S WEST 511","Address":"21800 Hawthorne Blvd","City":"Torrance","State":"CA","Zip":"90503"},{"Location":"MACY'S WEST 511","Address":"21600 Hawthorne Blvd","City":"Torrance","State":"CA","Zip":"90503"},{"Location":"MACY'S WEST 511 BR","Address":"21600 Hawthorne Blvd","City":"Torrance","State":"CA","Zip":"90503"},{"Location":"MAGELLAN TRAVELER","Address":"2856 Columbia St","City":"Torrance","State":"CA","Zip":"90503"},{"Location":"MARIE CALLENDAR'S #92","Address":"21211 Hawthorne Blvd","City":"Torrance","State":"CA","Zip":"90503"},{"Location":"MARRIOTT TORRANCE","Address":"3635 Fashion Way","City":"Torrance","State":"CA","Zip":"90503"},{"Location":"METRIC PRECISION","Address":"2535 Maricopa St","City":"Torrance","State":"CA","Zip":"90503"},{"Location":"MORRIS MOTORS","Address":"19050 Hawthorne Blvd","City":"Torrance","State":"CA","Zip":"90503"},{"Location":"MOTORCAR PARTS OF AMERICA INC","Address":"2929 California St","City":"Torrance","State":"CA","Zip":"90503"},{"Location":"NAIL SPA","Address":"21160 Hawthorne Blvd","City":"Torrance","State":"CA","Zip":"90503"},{"Location":"NORMA   SARAO MD","Address":"3440 W Carson St 302","City":"Torrance","State":"CA","Zip":"90503"},{"Location":"OMIN","Address":"21250 Hawthorne Blvd 770","City":"Torrance","State":"CA","Zip":"90503"},{"Location":"OUTBACK STEAKHOUSE #0556","Address":"21880 Hawthorne Blvd 369","City":"Torrance","State":"CA","Zip":"90503"},{"Location":"PACIFIC AUDI","Address":"20460 Hawthorne Blvd","City":"Torrance","State":"CA","Zip":"90503"},{"Location":"PANDA AMERICA","Address":"19675 Mariner Ave","City":"Torrance","State":"CA","Zip":"90503"},{"Location":"PLCMMC OUTPATIENT REHAB","Address":"21135 Hawthorne Blvd","City":"Torrance","State":"CA","Zip":"90503"},{"Location":"RA SUSHI #3013 TORRANCE","Address":"3525 W Carson St 161","City":"Torrance","State":"CA","Zip":"90503"},{"Location":"RAPISCAN SYSTEMS","Address":"2805 Columbia St","City":"Torrance","State":"CA","Zip":"90503"},{"Location":"RED LOBSTER #0512","Address":"21233 Hawthorne Blvd","City":"Torrance","State":"CA","Zip":"90503"},{"Location":"REFINERY BASEBALL TRAINI","Address":"444 Alaska Ave","City":"Torrance","State":"CA","Zip":"90503"},{"Location":"RETINA MACULA INSTITUTE","Address":"4201 Torrance Blvd 220","City":"Torrance","State":"CA","Zip":"90503"},{"Location":"ROUTE AMERICAN SPORTS","Address":"2950 Columbia St","City":"Torrance","State":"CA","Zip":"90503"},{"Location":"SAND SPORTS SUPER SHOW","Address":"2824 Columbia St","City":"Torrance","State":"CA","Zip":"90503"},{"Location":"SANDERS AND MONTALTO","Address":"21250 Hawthorne Blvd 485","City":"Torrance","State":"CA","Zip":"90503"},{"Location":"SANTEC","Address":"3501 Challenger St","City":"Torrance","State":"CA","Zip":"90503"},{"Location":"SCOTT ROBINSON  HONDA","Address":"20340 Hawthorne Blvd","City":"Torrance","State":"CA","Zip":"90503"},{"Location":"SIMON PROPERTY GROUP","Address":"21712 Hawthorne Blvd 282a","City":"Torrance","State":"CA","Zip":"90503"},{"Location":"SMITH BARNEY 100209","Address":"21250 Hawthorne Blvd","City":"Torrance","State":"CA","Zip":"90503"},{"Location":"SOCAL PF TORRANCE LLC","Address":"20040 Hawthorne Blvd","City":"Torrance","State":"CA","Zip":"90503"},{"Location":"SOUTH BAY HYUNDAI","Address":"20433 Hawthorne Blvd","City":"Torrance","State":"CA","Zip":"90503"},{"Location":"SOUTH BAY MAZDA","Address":"20626 Hawthorne Blvd","City":"Torrance","State":"CA","Zip":"90503"},{"Location":"SPORTS AUTHORITY 649","Address":"3610 Torrance Blvd","City":"Torrance","State":"CA","Zip":"90503"},{"Location":"STACKED - DEL AMO","Address":"3525 W Carson St 172","City":"Torrance","State":"CA","Zip":"90503"},{"Location":"SUSHI ANZA","Address":"4647 Torrance Blvd","City":"Torrance","State":"CA","Zip":"90503"},{"Location":"TABLETKIOSK","Address":"2832 Columbia St","City":"Torrance","State":"CA","Zip":"90503"},{"Location":"TAURIAN        #1044","Address":"3405 W Carson St","City":"Torrance","State":"CA","Zip":"90503"},{"Location":"TCW TRENDS INC","Address":"2886 Columbia St","City":"Torrance","State":"CA","Zip":"90503"},{"Location":"THE BOUNTY ROOM","Address":"4419 Torrance Blvd","City":"Torrance","State":"CA","Zip":"90503"},{"Location":"THE COUNTER BURGER","Address":"21209 Hawthorne Blvd B","City":"Torrance","State":"CA","Zip":"90503"},{"Location":"THE LAZY DOG CAFE","Address":"3525 W Carson St 162","City":"Torrance","State":"CA","Zip":"90503"},{"Location":"TOGO","Address":"20022 Hawthorne Blvd","City":"Torrance","State":"CA","Zip":"90503"},{"Location":"TORRANCE CARE CENTER BUILD #1","Address":"4333 Torrance Blvd","City":"Torrance","State":"CA","Zip":"90503"},{"Location":"TORRANCE CARE CENTER BUILD #2","Address":"4333 Torrance Blvd","City":"Torrance","State":"CA","Zip":"90503"},{"Location":"TORRANCE CARE CTR WEST","Address":"4333 Torrance Blvd 111a","City":"Torrance","State":"CA","Zip":"90503"},{"Location":"TORRANCE COMMERCE CTR","Address":"4050 Spencer St E","City":"Torrance","State":"CA","Zip":"90503"},{"Location":"TORRANCE MARRIOT CLUB LOUNGE","Address":"3635 Fashion Way","City":"Torrance","State":"CA","Zip":"90503"},{"Location":"TORRANCE MARRIOTT(0064679)","Address":"3635 Fashion Way","City":"Torrance","State":"CA","Zip":"90503"},{"Location":"UFC GYM","Address":"19800 Hawthorne Blvd","City":"Torrance","State":"CA","Zip":"90503"},{"Location":"VAN LINGEN BODY SHOP","Address":"20621 Earl St","City":"Torrance","State":"CA","Zip":"90503"},{"Location":"VEGAS SEAFOOD BUFFET","Address":"3525 W Carson St 170","City":"Torrance","State":"CA","Zip":"90503"},{"Location":"WENDYS 10771","Address":"5326 Torrance Blvd","City":"Torrance","State":"CA","Zip":"90503"},{"Location":"WEST END RACKET HEALTH CLUB","Address":"4343 Spencer St","City":"Torrance","State":"CA","Zip":"90503"},{"Location":"YOGURT ISLAND","Address":"20052 Hawthorne Blvd","City":"Torrance","State":"CA","Zip":"90503"},{"Location":"ZEBRA ROOM","Address":"20930 Hawthorne Blvd","City":"Torrance","State":"CA","Zip":"90503"},{"Location":"MI LINDO MICHOACAN","Address":"4436 W Imperial Hwy","City":"Haw","State":"CA","Zip":"90503"},{"Location":"ABD INSURANCE & FINANCIAL SVCS","Address":"21250 Hawthorne Blvd 600","City":"Torrance","State":"CA","Zip":"90503"},{"Location":"ABSOLUTION BREWING COMPANY","Address":"2878 Columbia St","City":"Torrance","State":"CA","Zip":"90503"},{"Location":"ALL CARE DENTAL","Address":"19019 Hawthorne Blvd","City":"Torrance","State":"CA","Zip":"90503"},{"Location":"AMERICA TIRE DEPOT","Address":"20506 Hawthorne Blvd","City":"Torrance","State":"CA","Zip":"90503"},{"Location":"ANDERSON SILVA ENTERPRIS","Address":"438 Alaska Ave","City":"Torrance","State":"CA","Zip":"90503"},{"Location":"APD FINANCIAL","Address":"3625 Del Amo Blvd 380","City":"Torrance","State":"CA","Zip":"90503"},{"Location":"ASTRID MENDOZA DO","Address":"4201 Torrance Blvd 780","City":"Torrance","State":"CA","Zip":"90503"},{"Location":"BANK OF AMERICA CA8-518-04-04","Address":"21250 Hawthorne Blvd 430","City":"Torrance","State":"CA","Zip":"90503"},{"Location":"BARRISTER EXECTIVES SUITES","Address":"21250 Hawthorne Blvd 500","City":"Torrance","State":"CA","Zip":"90503"},{"Location":"BENIHANA #1021 TORRANCE","Address":"21327 Hawthorne Blvd","City":"Torrance","State":"CA","Zip":"90503"},{"Location":"BEST COIN LAUNDRY","Address":"21172 Hawthorne Blvd","City":"Torrance","State":"CA","Zip":"90503"},{"Location":"BJS RESTAURANT #478","Address":"3525 W Carson St","City":"Torrance","State":"CA","Zip":"90503"},{"Location":"BUFFALO WILD WINGS #3351","Address":"3525 W Carson St 163","City":"Torrance","State":"CA","Zip":"90503"},{"Location":"CA HOME FITNESS","Address":"20502 Hawthorne Blvd","City":"Torrance","State":"CA","Zip":"90503"},{"Location":"CARDIOPULMONARY REHAB","Address":"20929 Hawthorne Blvd","City":"Torrance","State":"CA","Zip":"90503"},{"Location":"CHAYO EATERY","Address":"3556 Torrance Blvd","City":"Torrance","State":"CA","Zip":"90503"},{"Location":"CHILI'S #0315","Address":"21835 Hawthorne Blvd","City":"Torrance","State":"CA","Zip":"90503"},{"Location":"CHOURA EVENTS","Address":"540 Hawaii Ave","City":"Torrance","State":"CA","Zip":"90503"},{"Location":"DAILY BREEZE","Address":"21250 Hawthorne Blvd 170","City":"Torrance","State":"CA","Zip":"90503"},{"Location":"DEL AMO CAR WASH","Address":"20505 Hawthorne Blvd","City":"Torrance","State":"CA","Zip":"90503"},{"Location":"DELAMO DIAGNOSTIC CENTER","Address":"3531 Fashion Way","City":"Torrance","State":"CA","Zip":"90503"},{"Location":"EDELBROCK LLC","Address":"2700 California St","City":"Torrance","State":"CA","Zip":"90503"},{"Location":"EISENBRAND INC. EXOTIC","Address":"4100 Spencer St","City":"Torrance","State":"CA","Zip":"90503"},{"Location":"EL TORITO 7230","Address":"21321 Hawthorne Blvd","City":"Torrance","State":"CA","Zip":"90503"},{"Location":"ELEPHANT BAR TORRANCE","Address":"21227 Hawthorne Blvd","City":"Torrance","State":"CA","Zip":"90503"},{"Location":"ETRADE FINANCIAL","Address":"21243 Hawthorne Blvd","City":"Torrance","State":"CA","Zip":"90503"},{"Location":"FIDELITY INVESTMENTS 309","Address":"21701 Hawthorne Blvd","City":"Torrance","State":"CA","Zip":"90503"},{"Location":"GOODSON LLC","Address":"20550 Hawthorne Blvd","City":"Torrance","State":"CA","Zip":"90503"},{"Location":"HARBOR REGIONAL CENTER","Address":"21231 Hawthorne Blvd","City":"Torrance","State":"CA","Zip":"90503"},{"Location":"HSBC BANK #819280","Address":"21842 Hawthorne Blvd","City":"Torrance","State":"CA","Zip":"90503"},{"Location":"JIJI PRESS AMERICA LTD","Address":"21250 Hawthorne Blvd 700","City":"Torrance","State":"CA","Zip":"90503"},{"Location":"KENNETH GREENSTADT","Address":"3565 Torrance Blvd B","City":"Torrance","State":"CA","Zip":"90503"},{"Location":"LA FITNESS #51","Address":"3550 W Carson St","City":"Torrance","State":"CA","Zip":"90503"},{"Location":"LA GALAXY SOCCER CTR.","Address":"540 Maple Ave","City":"Torrance","State":"CA","Zip":"90503"},{"Location":"LITTLE COMPANY OF MARY HOSPITA","Address":"4101 Torrance Blvd","City":"Torrance","State":"CA","Zip":"90503"},{"Location":"LUCILLE'S SMOKEHOUSE BBQ","Address":"21420 Hawthorne Blvd","City":"Torrance","State":"CA","Zip":"90503"},{"Location":"LUXURY NAIL SPA","Address":"4856 W 190th St","City":"Torrance","State":"CA","Zip":"90503"},{"Location":"MACY'S WEST 511","Address":"21600 Hawthorne Blvd","City":"Torrance","State":"CA","Zip":"90503"},{"Location":"MACY'S WEST 511","Address":"21800 Hawthorne Blvd","City":"Torrance","State":"CA","Zip":"90503"},{"Location":"MACY'S WEST 511 BR","Address":"21600 Hawthorne Blvd","City":"Torrance","State":"CA","Zip":"90503"},{"Location":"MAGELLAN TRAVELER","Address":"2856 Columbia St","City":"Torrance","State":"CA","Zip":"90503"},{"Location":"MARIE CALLENDAR'S #92","Address":"21211 Hawthorne Blvd","City":"Torrance","State":"CA","Zip":"90503"},{"Location":"MARRIOTT TORRANCE","Address":"3635 Fashion Way","City":"Torrance","State":"CA","Zip":"90503"},{"Location":"METRIC PRECISION","Address":"2535 Maricopa St","City":"Torrance","State":"CA","Zip":"90503"},{"Location":"MORRIS MOTORS","Address":"19050 Hawthorne Blvd","City":"Torrance","State":"CA","Zip":"90503"},{"Location":"MOTORCAR PARTS OF AMERICA INC","Address":"2929 California St","City":"Torrance","State":"CA","Zip":"90503"},{"Location":"NAIL SPA","Address":"21160 Hawthorne Blvd","City":"Torrance","State":"CA","Zip":"90503"},{"Location":"NORMA   SARAO MD","Address":"3440 W Carson St 302","City":"Torrance","State":"CA","Zip":"90503"},{"Location":"OMIN","Address":"21250 Hawthorne Blvd 770","City":"Torrance","State":"CA","Zip":"90503"},{"Location":"OUTBACK STEAKHOUSE #0556","Address":"21880 Hawthorne Blvd 369","City":"Torrance","State":"CA","Zip":"90503"},{"Location":"PACIFIC AUDI","Address":"20460 Hawthorne Blvd","City":"Torrance","State":"CA","Zip":"90503"},{"Location":"PANDA AMERICA","Address":"19675 Mariner Ave","City":"Torrance","State":"CA","Zip":"90503"},{"Location":"PLCMMC OUTPATIENT REHAB","Address":"21135 Hawthorne Blvd","City":"Torrance","State":"CA","Zip":"90503"},{"Location":"RA SUSHI #3013 TORRANCE","Address":"3525 W Carson St 161","City":"Torrance","State":"CA","Zip":"90503"},{"Location":"RAPISCAN SYSTEMS","Address":"2805 Columbia St","City":"Torrance","State":"CA","Zip":"90503"},{"Location":"RED LOBSTER #0512","Address":"21233 Hawthorne Blvd","City":"Torrance","State":"CA","Zip":"90503"},{"Location":"REFINERY BASEBALL TRAINI","Address":"444 Alaska Ave","City":"Torrance","State":"CA","Zip":"90503"},{"Location":"RETINA MACULA INSTITUTE","Address":"4201 Torrance Blvd 220","City":"Torrance","State":"CA","Zip":"90503"},{"Location":"ROUTE AMERICAN SPORTS","Address":"2950 Columbia St","City":"Torrance","State":"CA","Zip":"90503"},{"Location":"SAND SPORTS SUPER SHOW","Address":"2824 Columbia St","City":"Torrance","State":"CA","Zip":"90503"},{"Location":"SANDERS AND MONTALTO","Address":"21250 Hawthorne Blvd 485","City":"Torrance","State":"CA","Zip":"90503"},{"Location":"SANTEC","Address":"3501 Challenger St","City":"Torrance","State":"CA","Zip":"90503"},{"Location":"SCOTT ROBINSON  HONDA","Address":"20340 Hawthorne Blvd","City":"Torrance","State":"CA","Zip":"90503"},{"Location":"SIMON PROPERTY GROUP","Address":"21712 Hawthorne Blvd 282a","City":"Torrance","State":"CA","Zip":"90503"},{"Location":"SMITH BARNEY 100209","Address":"21250 Hawthorne Blvd","City":"Torrance","State":"CA","Zip":"90503"},{"Location":"SOCAL PF TORRANCE LLC","Address":"20040 Hawthorne Blvd","City":"Torrance","State":"CA","Zip":"90503"},{"Location":"SOUTH BAY HYUNDAI","Address":"20433 Hawthorne Blvd","City":"Torrance","State":"CA","Zip":"90503"},{"Location":"SOUTH BAY MAZDA","Address":"20626 Hawthorne Blvd","City":"Torrance","State":"CA","Zip":"90503"},{"Location":"SPORTS AUTHORITY 649","Address":"3610 Torrance Blvd","City":"Torrance","State":"CA","Zip":"90503"},{"Location":"STACKED - DEL AMO","Address":"3525 W Carson St 172","City":"Torrance","State":"CA","Zip":"90503"},{"Location":"SUPER A FOODS","Address":"4848 W 190th St","City":"Torrance","State":"CA","Zip":"90503"},{"Location":"SUSHI ANZA","Address":"4647 Torrance Blvd","City":"Torrance","State":"CA","Zip":"90503"},{"Location":"TABLETKIOSK","Address":"2832 Columbia St","City":"Torrance","State":"CA","Zip":"90503"},{"Location":"TAURIAN        #1044","Address":"3405 W Carson St","City":"Torrance","State":"CA","Zip":"90503"},{"Location":"TCW TRENDS INC","Address":"2886 Columbia St","City":"Torrance","State":"CA","Zip":"90503"},{"Location":"THE BOUNTY ROOM","Address":"4419 Torrance Blvd","City":"Torrance","State":"CA","Zip":"90503"},{"Location":"THE COUNTER BURGER","Address":"21209 Hawthorne Blvd B","City":"Torrance","State":"CA","Zip":"90503"},{"Location":"THE LAZY DOG CAFE","Address":"3525 W Carson St 162","City":"Torrance","State":"CA","Zip":"90503"},{"Location":"TOGO","Address":"20022 Hawthorne Blvd","City":"Torrance","State":"CA","Zip":"90503"},{"Location":"TORRANCE CARE CENTER BUILD #1","Address":"4333 Torrance Blvd","City":"Torrance","State":"CA","Zip":"90503"},{"Location":"TORRANCE CARE CENTER BUILD #2","Address":"4333 Torrance Blvd","City":"Torrance","State":"CA","Zip":"90503"},{"Location":"TORRANCE CARE CTR WEST","Address":"4333 Torrance Blvd 111a","City":"Torrance","State":"CA","Zip":"90503"},{"Location":"TORRANCE COMMERCE CTR","Address":"4050 Spencer St E","City":"Torrance","State":"CA","Zip":"90503"},{"Location":"TORRANCE MARRIOT CLUB LOUNGE","Address":"3635 Fashion Way","City":"Torrance","State":"CA","Zip":"90503"},{"Location":"TORRANCE MARRIOTT(0064679)","Address":"3635 Fashion Way","City":"Torrance","State":"CA","Zip":"90503"},{"Location":"UFC GYM","Address":"19800 Hawthorne Blvd","City":"Torrance","State":"CA","Zip":"90503"},{"Location":"VAN LINGEN BODY SHOP","Address":"20621 Earl St","City":"Torrance","State":"CA","Zip":"90503"},{"Location":"VEGAS SEAFOOD BUFFET","Address":"3525 W Carson St 170","City":"Torrance","State":"CA","Zip":"90503"},{"Location":"WENDYS 10771","Address":"5326 Torrance Blvd","City":"Torrance","State":"CA","Zip":"90503"},{"Location":"WEST END RACKET HEALTH CLUB","Address":"4343 Spencer St","City":"Torrance","State":"CA","Zip":"90503"},{"Location":"YOGURT ISLAND","Address":"20052 Hawthorne Blvd","City":"Torrance","State":"CA","Zip":"90503"},{"Location":"ZEBRA ROOM","Address":"20930 Hawthorne Blvd","City":"Torrance","State":"CA","Zip":"90503"}]