[{"Location":"ABEJA NURSERY","Address":"18601 Ermanita Ave","City":"Torrance","State":"CA","Zip":"90504"},{"Location":"ALL STAR BARBER","Address":"18228 Prairie Ave","City":"Torrance","State":"CA","Zip":"90504"},{"Location":"AMBITIONS 184TH PL","Address":"3902 W 184th Pl","City":"Torrance","State":"CA","Zip":"90504"},{"Location":"AMBITIONS 184TH STREET","Address":"4025 W 184th St","City":"Torrance","State":"CA","Zip":"90504"},{"Location":"BLUE SKY FAMILY DENTAL","Address":"17311 Yukon Ave","City":"Torrance","State":"CA","Zip":"90504"},{"Location":"CAPTRIOTIS","Address":"17352 Hawthorne Blvd","City":"Torrance","State":"CA","Zip":"90504"},{"Location":"CARMAX #7272","Address":"18020 Hawthorne Blvd","City":"Torrance","State":"CA","Zip":"90504"},{"Location":"CEDARS-SINAI MEDICAL CENTER","Address":"4100 W 190th St","City":"Torrance","State":"CA","Zip":"90504"},{"Location":"CHEVRON FAST LUBE","Address":"3960 Artesia Blvd","City":"Torrance","State":"CA","Zip":"90504"},{"Location":"CUKO'S","Address":"2314 Redondo Beach Blvd","City":"Torrance","State":"CA","Zip":"90504"},{"Location":"EDI EXPRESS","Address":"2303 W 190th St","City":"Torrance","State":"CA","Zip":"90504"},{"Location":"EFFXX BARBERSHOP","Address":"4005 W 182nd St","City":"Torrance","State":"CA","Zip":"90504"},{"Location":"EXPERT BARBERS","Address":"4005 W 182nd St","City":"Torrance","State":"CA","Zip":"90504"},{"Location":"EXXON  MOBIL","Address":"3700 W 190th St","City":"Torrance","State":"CA","Zip":"90504"},{"Location":"EXXON  MOBIL","Address":"3700 W 190th St Tpt14","City":"Torrance","State":"CA","Zip":"90504"},{"Location":"EXXON MOBIL","Address":"3700 W 190th St","City":"Torrance","State":"CA","Zip":"90504"},{"Location":"EXXON MOBIL","Address":"2555 W 190th St","City":"Torrance","State":"CA","Zip":"90504"},{"Location":"EXXON MOBIL ADMIN RM 250","Address":"3700 W 190th St Tpt9","City":"Torrance","State":"CA","Zip":"90504"},{"Location":"EXXON MOBIL ADMIN RM 262A","Address":"3700 W 190th St","City":"Torrance","State":"CA","Zip":"90504"},{"Location":"EXXON MOBIL CCB BUILDING EAST","Address":"3700 W 190th St","City":"Torrance","State":"CA","Zip":"90504"},{"Location":"EXXON MOBIL CCB BUILDING NORTH","Address":"3700 W 190th St","City":"Torrance","State":"CA","Zip":"90504"},{"Location":"EXXON MOBIL CCB BUILDING SOUTH","Address":"3700 W 190th St","City":"Torrance","State":"CA","Zip":"90504"},{"Location":"EXXON MOBIL EAST LAUNDRY ROOM","Address":"3700 W 190th St","City":"Torrance","State":"CA","Zip":"90504"},{"Location":"EXXON MOBIL FITNESS CENTER","Address":"3700 W 190th St","City":"Torrance","State":"CA","Zip":"90504"},{"Location":"EXXON MOBIL GIS BLDG CONF RM","Address":"3700 W 190th St Emit","City":"Torrance","State":"CA","Zip":"90504"},{"Location":"EXXON MOBIL GYM","Address":"3700 W 190th St","City":"Torrance","State":"CA","Zip":"90504"},{"Location":"EXXON MOBIL MEDICAL","Address":"3700 W 190th St","City":"Torrance","State":"CA","Zip":"90504"},{"Location":"EXXON MOBIL RM 231 SUPPLY","Address":"3700 W 190th St","City":"Torrance","State":"CA","Zip":"90504"},{"Location":"EXXON MOBIL RM 251 PA MGR","Address":"3700 W 190th St","City":"Torrance","State":"CA","Zip":"90504"},{"Location":"EXXON MOBIL SHE BLDG 1ST FL","Address":"3700 W 190th St","City":"Torrance","State":"CA","Zip":"90504"},{"Location":"EXXON MOBIL TPT-2 OPEN AREA","Address":"3700 W 190th St","City":"Torrance","State":"CA","Zip":"90504"},{"Location":"EXXON MOBIL TPT23 PEGASUS","Address":"3700 W 190th St","City":"Torrance","State":"CA","Zip":"90504"},{"Location":"EXXON MOBIL TPT9","Address":"3700 W 190th St","City":"Torrance","State":"CA","Zip":"90504"},{"Location":"EXXON MOBIL WAREHOUSE CONF RM","Address":"3700 W 190th St","City":"Torrance","State":"CA","Zip":"90504"},{"Location":"EXXON MOBILE CCB CONSOLE","Address":"3700 W 190th St","City":"Torrance","State":"CA","Zip":"90504"},{"Location":"FAMILY DENTAL CARE","Address":"3578 Redondo Beach Blvd","City":"Torrance","State":"CA","Zip":"90504"},{"Location":"FLOSSIES'","Address":"3566 Redondo Beach Blvd","City":"Torrance","State":"CA","Zip":"90504"},{"Location":"GEORGE P. JOHNSON CO - CE99-1","Address":"18500 Crenshaw Blvd","City":"Torrance","State":"CA","Zip":"90504"},{"Location":"GILBERTS BICYCLE","Address":"4011 W 182nd St","City":"Torrance","State":"CA","Zip":"90504"},{"Location":"ITT TECHNICAL INSTITUTE","Address":"2555 W 190th St","City":"Torrance","State":"CA","Zip":"90504"},{"Location":"JEROMES FURNITURE","Address":"18850 Hawthorne Blvd","City":"Torrance","State":"CA","Zip":"90504"},{"Location":"LEXUS","Address":"2000 W 190th St","City":"Torrance","State":"CA","Zip":"90504"},{"Location":"MEN'S WEARHOUSE #2708","Address":"18407 Hawthorne Blvd","City":"Torrance","State":"CA","Zip":"90504"},{"Location":"PASTOR CHEF","Address":"16300 Crenshaw Blvd 109","City":"Torrance","State":"CA","Zip":"90504"},{"Location":"PENSKE SOUTH BAY","Address":"18600 Hawthorne Blvd","City":"Torrance","State":"CA","Zip":"90504"},{"Location":"PERFORMANCE TRANSMISSION","Address":"18411 Hawthorne Blvd A","City":"Torrance","State":"CA","Zip":"90504"},{"Location":"PIZZA HUT 26142","Address":"2208 Artesia Blvd","City":"Torrance","State":"CA","Zip":"90504"},{"Location":"PLYCON VAN LINES%2C INC","Address":"4240 W 190th St C","City":"Torrance","State":"CA","Zip":"90504"},{"Location":"PRAIRIE FAMILY DENTAL","Address":"3949 Artesia Blvd","City":"Torrance","State":"CA","Zip":"90504"},{"Location":"ROADIUM OPEN AIR MARKET","Address":"2500 Redondo Beach Blvd","City":"Torrance","State":"CA","Zip":"90504"},{"Location":"SIZZLER 878","Address":"17544 Hawthorne Blvd","City":"Torrance","State":"CA","Zip":"90504"},{"Location":"SOUTH BAY BMW","Address":"18800 Hawthorne Blvd","City":"Torrance","State":"CA","Zip":"90504"},{"Location":"SOUTH BAY BMWMINI","Address":"18900 Hawthorne Blvd","City":"Torrance","State":"CA","Zip":"90504"},{"Location":"SPORTSMAN'S LOUNGE","Address":"3953 Artesia Blvd","City":"Torrance","State":"CA","Zip":"90504"},{"Location":"SWAPMEET SUPPLIES","Address":"2500 Redondo Beach Blvd 8","City":"Torrance","State":"CA","Zip":"90504"},{"Location":"THE HIN DRY","Address":"3116 W 182nd St","City":"Torrance","State":"CA","Zip":"90504"},{"Location":"THE LOFT","Address":"2210 Artesia Blvd","City":"Torrance","State":"CA","Zip":"90504"},{"Location":"THE ROAD HOUSE BAR AND GRILL","Address":"3103 W 190th St","City":"Torrance","State":"CA","Zip":"90504"},{"Location":"TORRANCE FIRE STATION 3","Address":"3535 W 182nd St","City":"Torrance","State":"CA","Zip":"90504"},{"Location":"TOWER ENERGY GROUP 1","Address":"1983 W 190th St 100","City":"Torrance","State":"CA","Zip":"90504"},{"Location":"VAPOR LABS TORRANCE","Address":"2139 W 182nd St","City":"Torrance","State":"CA","Zip":"90504"},{"Location":"VITAMINAS EL LINIA","Address":"2500 Redondo Beach Blvd Patio","City":"Torrance","State":"CA","Zip":"90504"},{"Location":"WINGSTOP","Address":"17419 Crenshaw Blvd","City":"Torrance","State":"CA","Zip":"90504"}]