[{"Location":"BECS PACIFIC","Address":"2825 Pellissier Pl","City":"City Of Industry","State":"CA","Zip":"90601"},{"Location":"BOSS LITHO","Address":"2380 Peck Rd","City":"City Of Industry","State":"CA","Zip":"90601"},{"Location":"ITT GOULD PUMPS","Address":"3951 Capitol Ave","City":"City Of Industry","State":"CA","Zip":"90601"},{"Location":"ITT GOULD PUMPS TEST LAB","Address":"3951 Capitol Ave","City":"City Of Industry","State":"CA","Zip":"90601"},{"Location":"NEIMAN MARCUS","Address":"2500 Workman Mill Rd","City":"City Of Industry","State":"CA","Zip":"90601"},{"Location":"OPERATING ENGINEERS TRAI","Address":"2190 Pellissier Pl","City":"City Of Industry","State":"CA","Zip":"90601"},{"Location":"QUINN GROUP INC","Address":"10006 Rose Hills Rd","City":"City Of Industry","State":"CA","Zip":"90601"},{"Location":"VELOCITY TRUCK AND LEASING","Address":"2425 Kella Ave","City":"City Of Industry","State":"CA","Zip":"90601"},{"Location":"AJ SADES BARBERSHOP","Address":"11531 Whittier Blvd","City":"Whittier","State":"CA","Zip":"90601"},{"Location":"AJS BARBER SHOP","Address":"6518 Greenleaf Ave","City":"Whittier","State":"CA","Zip":"90601"},{"Location":"ANC WATER PLUS","Address":"12726 Hadley St 105","City":"Whittier","State":"CA","Zip":"90601"},{"Location":"ARTS JEWELRY  LOAN","Address":"6542 Greenleaf Ave","City":"Whittier","State":"CA","Zip":"90601"},{"Location":"BAMBOOZE","Address":"6518 Greenleaf Ave","City":"Whittier","State":"CA","Zip":"90601"},{"Location":"CASA DE ESPANA","Address":"6532 Greenleaf Ave","City":"Whittier","State":"CA","Zip":"90601"},{"Location":"EL BUEN GUSTO","Address":"10820 Beverly Blvd A2","City":"Whittier","State":"CA","Zip":"90601"},{"Location":"FALAK HOOKAH LOUNGE","Address":"6518 Greenleaf Ave 15","City":"Whittier","State":"CA","Zip":"90601"},{"Location":"FED EX 906","Address":"3629 Workman Mill Rd","City":"Whittier","State":"CA","Zip":"90601"},{"Location":"FIESTA HALL","Address":"12703 Philadelphia St","City":"Whittier","State":"CA","Zip":"90601"},{"Location":"GLORE ASSOCIATES","Address":"12010 Camilla St","City":"Whittier","State":"CA","Zip":"90601"},{"Location":"GOLDEN OX","Address":"6518 Greenleaf Ave 10","City":"Whittier","State":"CA","Zip":"90601"},{"Location":"GOLDEN STATE FASTENERS","Address":"2631 Pacific Park Dr","City":"Whittier","State":"CA","Zip":"90601"},{"Location":"GRAND BUFFET CORP","Address":"11885 Whittier Blvd","City":"Whittier","State":"CA","Zip":"90601"},{"Location":"GRILL N SUSHI1","Address":"12602 Hadley St","City":"Whittier","State":"CA","Zip":"90601"},{"Location":"HENRYS UPTOWN GARAGE","Address":"12604 Philadelphia St","City":"Whittier","State":"CA","Zip":"90601"},{"Location":"INNOVATIONS BEAUTY SALON","Address":"12604 Hadley St","City":"Whittier","State":"CA","Zip":"90601"},{"Location":"JS SKINCARE & NAILS","Address":"13013 Bailey St","City":"Whittier","State":"CA","Zip":"90601"},{"Location":"L BAR S RANCH","Address":"10033 Kratt Ln","City":"Whittier","State":"CA","Zip":"90601"},{"Location":"LANORIA ENTERTAINMENT","Address":"11003 Rooks Rd","City":"Whittier","State":"CA","Zip":"90601"},{"Location":"LE CHEVEUX ATTIC","Address":"6707 Bright Ave","City":"Whittier","State":"CA","Zip":"90601"},{"Location":"LOS ANGELES FREIGHTLINERS","Address":"2429 Peck Rd","City":"Whittier","State":"CA","Zip":"90601"},{"Location":"MAKI YAKI3","Address":"6736 Bright Ave","City":"Whittier","State":"CA","Zip":"90601"},{"Location":"MICHAEL KORS","Address":"3777 Workman Mill Rd","City":"Whittier","State":"CA","Zip":"90601"},{"Location":"MICHAEL KORS 2","Address":"3777 Workman Mill Rd","City":"Whittier","State":"CA","Zip":"90601"},{"Location":"MILLWRIGHT LOCAL 16 07","Address":"10009 Rose Hills Rd","City":"Whittier","State":"CA","Zip":"90601"},{"Location":"OLTMANS CONSTRUCTION CO.","Address":"10005 Mission Mill Rd","City":"Whittier","State":"CA","Zip":"90601"},{"Location":"PYRAMID INCE","Address":"6531 Greenleaf Ave","City":"Whittier","State":"CA","Zip":"90601"},{"Location":"REAL MCCOYS KITCHEN","Address":"12913 Philadelphia St","City":"Whittier","State":"CA","Zip":"90601"},{"Location":"ROCKY COLA CAFE","Address":"6757 Greenleaf Ave","City":"Whittier","State":"CA","Zip":"90601"},{"Location":"RSSN","Address":"6511 Greenleaf Ave","City":"Whittier","State":"CA","Zip":"90601"},{"Location":"SHEAR CREATION SALON","Address":"12920 Bailey St","City":"Whittier","State":"CA","Zip":"90601"},{"Location":"SPIN LOUNGE","Address":"6532 Greenleaf Ave","City":"Whittier","State":"CA","Zip":"90601"},{"Location":"STUIES BROOKLYN BAGEL INC","Address":"6545 Greenleaf Ave","City":"Whittier","State":"CA","Zip":"90601"},{"Location":"THE 6740","Address":"6740 Greenleaf Ave","City":"Whittier","State":"CA","Zip":"90601"},{"Location":"THE BOTTLE ROOM","Address":"6741 Greenleaf Ave","City":"Whittier","State":"CA","Zip":"90601"},{"Location":"THE RUSTY MONK","Address":"6749 Greenleaf Ave","City":"Whittier","State":"CA","Zip":"90601"},{"Location":"THE VAPOR BOX","Address":"12924 Bailey St","City":"Whittier","State":"CA","Zip":"90601"},{"Location":"TUTTI FRUTTI FROZEN YOGU","Address":"11743 Whittier Blvd","City":"Whittier","State":"CA","Zip":"90601"},{"Location":"UPTOWN GYM","Address":"12912 Philadelphia St","City":"Whittier","State":"CA","Zip":"90601"},{"Location":"VARGAS","Address":"5337 Workman Mill Rd","City":"Whittier","State":"CA","Zip":"90601"},{"Location":"VINTAGE CAFE","Address":"6741 Bright Ave","City":"Whittier","State":"CA","Zip":"90601"},{"Location":"WHITTIER DAILY NEWS","Address":"6737 Bright Ave 109","City":"Whittier","State":"CA","Zip":"90601"},{"Location":"WHITTIER HOSPITAL WOMENS CLINI","Address":"12825 Philadelphia St","City":"Whittier","State":"CA","Zip":"90601"},{"Location":"WHITTIER SPACEMAN STORAGE","Address":"12212 Bailey St","City":"Whittier","State":"CA","Zip":"90601"},{"Location":"BECS PACIFIC","Address":"2825 Pellissier Pl","City":"City Of Industry","State":"CA","Zip":"90601"},{"Location":"BOSS LITHO","Address":"2380 Peck Rd","City":"City Of Industry","State":"CA","Zip":"90601"},{"Location":"ITT GOULD PUMPS","Address":"3951 Capitol Ave","City":"City Of Industry","State":"CA","Zip":"90601"},{"Location":"ITT GOULD PUMPS TEST LAB","Address":"3951 Capitol Ave","City":"City Of Industry","State":"CA","Zip":"90601"},{"Location":"NEIMAN MARCUS","Address":"2500 Workman Mill Rd","City":"City Of Industry","State":"CA","Zip":"90601"},{"Location":"OPERATING ENGINEERS TRAI","Address":"2190 Pellissier Pl","City":"City Of Industry","State":"CA","Zip":"90601"},{"Location":"QUINN GROUP INC","Address":"10006 Rose Hills Rd","City":"City Of Industry","State":"CA","Zip":"90601"},{"Location":"VELOCITY TRUCK AND LEASING","Address":"2425 Kella Ave","City":"City Of Industry","State":"CA","Zip":"90601"},{"Location":"AJS BARBER SHOP","Address":"6518 Greenleaf Ave","City":"Whittier","State":"CA","Zip":"90601"},{"Location":"ANC WATER PLUS","Address":"12726 Hadley St 105","City":"Whittier","State":"CA","Zip":"90601"},{"Location":"ARTS JEWELRY  LOAN","Address":"6542 Greenleaf Ave","City":"Whittier","State":"CA","Zip":"90601"},{"Location":"BAMBOOZE","Address":"6518 Greenleaf Ave","City":"Whittier","State":"CA","Zip":"90601"},{"Location":"CASA DE ESPANA","Address":"6532 Greenleaf Ave","City":"Whittier","State":"CA","Zip":"90601"},{"Location":"EL BUEN GUSTO","Address":"10820 Beverly Blvd A2","City":"Whittier","State":"CA","Zip":"90601"},{"Location":"FALAK HOOKAH LOUNGE","Address":"6518 Greenleaf Ave 15","City":"Whittier","State":"CA","Zip":"90601"},{"Location":"FED EX 906","Address":"3629 Workman Mill Rd","City":"Whittier","State":"CA","Zip":"90601"},{"Location":"FIESTA HALL","Address":"12703 Philadelphia St","City":"Whittier","State":"CA","Zip":"90601"},{"Location":"GLORE ASSOCIATES","Address":"12010 Camilla St","City":"Whittier","State":"CA","Zip":"90601"},{"Location":"GOLDEN OX","Address":"6518 Greenleaf Ave 10","City":"Whittier","State":"CA","Zip":"90601"},{"Location":"GOLDEN STATE FASTENERS","Address":"2631 Pacific Park Dr","City":"Whittier","State":"CA","Zip":"90601"},{"Location":"GRAND BUFFET CORP","Address":"11885 Whittier Blvd","City":"Whittier","State":"CA","Zip":"90601"},{"Location":"GRILL N SUSHI1","Address":"12602 Hadley St","City":"Whittier","State":"CA","Zip":"90601"},{"Location":"HENRYS UPTOWN GARAGE","Address":"12604 Philadelphia St","City":"Whittier","State":"CA","Zip":"90601"},{"Location":"INNOVATIONS BEAUTY SALON","Address":"12604 Hadley St","City":"Whittier","State":"CA","Zip":"90601"},{"Location":"JS SKINCARE & NAILS","Address":"13013 Bailey St","City":"Whittier","State":"CA","Zip":"90601"},{"Location":"L BAR S RANCH","Address":"10033 Kratt Ln","City":"Whittier","State":"CA","Zip":"90601"},{"Location":"LANORIA ENTERTAINMENT","Address":"11003 Rooks Rd","City":"Whittier","State":"CA","Zip":"90601"},{"Location":"LE CHEVEUX ATTIC","Address":"6707 Bright Ave","City":"Whittier","State":"CA","Zip":"90601"},{"Location":"LOS ANGELES FREIGHTLINERS","Address":"2429 Peck Rd","City":"Whittier","State":"CA","Zip":"90601"},{"Location":"MAKI YAKI3","Address":"6736 Bright Ave","City":"Whittier","State":"CA","Zip":"90601"},{"Location":"MICHAEL KORS","Address":"3777 Workman Mill Rd","City":"Whittier","State":"CA","Zip":"90601"},{"Location":"MICHAEL KORS 2","Address":"3777 Workman Mill Rd","City":"Whittier","State":"CA","Zip":"90601"},{"Location":"MILLWRIGHT LOCAL 16 07","Address":"10009 Rose Hills Rd","City":"Whittier","State":"CA","Zip":"90601"},{"Location":"OLTMANS CONSTRUCTION CO.","Address":"10005 Mission Mill Rd","City":"Whittier","State":"CA","Zip":"90601"},{"Location":"PYRAMID INCE","Address":"6531 Greenleaf Ave","City":"Whittier","State":"CA","Zip":"90601"},{"Location":"REAL MCCOYS KITCHEN","Address":"12913 Philadelphia St","City":"Whittier","State":"CA","Zip":"90601"},{"Location":"ROCKY COLA CAFE","Address":"6757 Greenleaf Ave","City":"Whittier","State":"CA","Zip":"90601"},{"Location":"RSSN","Address":"6511 Greenleaf Ave","City":"Whittier","State":"CA","Zip":"90601"},{"Location":"SHEAR CREATION SALON","Address":"12920 Bailey St","City":"Whittier","State":"CA","Zip":"90601"},{"Location":"SPIN LOUNGE","Address":"6532 Greenleaf Ave","City":"Whittier","State":"CA","Zip":"90601"},{"Location":"STUIES BROOKLYN BAGEL INC","Address":"6545 Greenleaf Ave","City":"Whittier","State":"CA","Zip":"90601"},{"Location":"THE 6740","Address":"6740 Greenleaf Ave","City":"Whittier","State":"CA","Zip":"90601"},{"Location":"THE BOTTLE ROOM","Address":"6741 Greenleaf Ave","City":"Whittier","State":"CA","Zip":"90601"},{"Location":"The Rusty Monk","Address":"6749 Greenleaf Ave","City":"Whittier","State":"CA","Zip":"90601"},{"Location":"THE VAPOR BOX","Address":"12924 Bailey St","City":"Whittier","State":"CA","Zip":"90601"},{"Location":"TUTTI FRUTTI FROZEN YOGU","Address":"11743 Whittier Blvd","City":"Whittier","State":"CA","Zip":"90601"},{"Location":"UPTOWN GYM","Address":"12912 Philadelphia St","City":"Whittier","State":"CA","Zip":"90601"},{"Location":"VARGAS","Address":"5337 Workman Mill Rd","City":"Whittier","State":"CA","Zip":"90601"},{"Location":"VINTAGE CAFE","Address":"6741 Bright Ave","City":"Whittier","State":"CA","Zip":"90601"},{"Location":"WHITTIER DAILY NEWS","Address":"6737 Bright Ave 109","City":"Whittier","State":"CA","Zip":"90601"},{"Location":"WHITTIER HOSPITAL WOMENS CLINI","Address":"12825 Philadelphia St","City":"Whittier","State":"CA","Zip":"90601"},{"Location":"WHITTIER SPACEMAN STORAGE","Address":"12212 Bailey St","City":"Whittier","State":"CA","Zip":"90601"}]