[{"Location":"AB SOCCER","Address":"10719 La Mirada Blvd","City":"Whittier","State":"CA","Zip":"90604"},{"Location":"BONDED BY INK","Address":"15019 Leffingwell Rd","City":"Whittier","State":"CA","Zip":"90604"},{"Location":"CANDLEWOOD COUNTRY CLUB","Address":"14000 Telegraph Rd","City":"Whittier","State":"CA","Zip":"90604"},{"Location":"DIRECT SERVICE","Address":"15022 Mulberry Dr","City":"Whittier","State":"CA","Zip":"90604"},{"Location":"ELEGANT BEAUTY SALON","Address":"14318 Telegraph Rd","City":"Whittier","State":"CA","Zip":"90604"},{"Location":"FANTASY CUTS","Address":"14543 Leffingwell Rd","City":"Whittier","State":"CA","Zip":"90604"},{"Location":"FAST CUTS","Address":"13678 Telegraph Rd","City":"Whittier","State":"CA","Zip":"90604"},{"Location":"FROG POND","Address":"11118 Santa Gertrudes Ave","City":"Whittier","State":"CA","Zip":"90604"},{"Location":"GABRIELA ABREU","Address":"10709 La Mirada Blvd","City":"Whittier","State":"CA","Zip":"90604"},{"Location":"J & N TIRES & WHEELS","Address":"14230 Telegraph Rd","City":"Whittier","State":"CA","Zip":"90604"},{"Location":"L&T BEAUTY SALON","Address":"10064 Mills Ave G","City":"Whittier","State":"CA","Zip":"90604"},{"Location":"LA BARBERSHOP","Address":"14227 Leffingwell Rd","City":"Whittier","State":"CA","Zip":"90604"},{"Location":"LUCKY LIZARD","Address":"15646 Leffingwell Rd","City":"Whittier","State":"CA","Zip":"90604"},{"Location":"MIKES AUTO PARTS","Address":"11734 Colima Rd 102","City":"Whittier","State":"CA","Zip":"90604"},{"Location":"MILOS PLACE","Address":"10070 Mills Ave","City":"Whittier","State":"CA","Zip":"90604"},{"Location":"NEUVIA YOUSEF BAIL BONDS","Address":"14411 Telegraph Rd","City":"Whittier","State":"CA","Zip":"90604"},{"Location":"ORCHARD DALE WATER DISCTRICT","Address":"13819 Telegraph Rd","City":"Whittier","State":"CA","Zip":"90604"},{"Location":"PAPPYS PIZZA","Address":"14326 Telegraph Rd","City":"Whittier","State":"CA","Zip":"90604"},{"Location":"SAINT GREGORY CATHOLIC CHURCH","Address":"13935 Telegraph Rd","City":"Whittier","State":"CA","Zip":"90604"},{"Location":"SANTA ROSA DENTAL","Address":"15027 Mulberry Dr","City":"Whittier","State":"CA","Zip":"90604"},{"Location":"SCUHS PAVILLION","Address":"16200 Amber Valley Dr","City":"Whittier","State":"CA","Zip":"90604"},{"Location":"STEVEN TIRE AUTO REPAIR","Address":"14525 Leffingwell Rd","City":"Whittier","State":"CA","Zip":"90604"},{"Location":"THREE ALARM PIZZA DEPT","Address":"11343 La Mirada Blvd","City":"Whittier","State":"CA","Zip":"90604"},{"Location":"TRUSTED TIRE AND SERVICE","Address":"14428 Telegraph Rd","City":"Whittier","State":"CA","Zip":"90604"},{"Location":"VICS TACOS","Address":"10731 La Mirada Blvd","City":"Whittier","State":"CA","Zip":"90604"}]