[{"Location":"EUPHORIA NAIL & SPA","Address":"15756 Laforge","City":"Whitter","State":"CA","Zip":"90603"},{"Location":"24 HOUR FITNESS #123","Address":"10125 Whittwood Dr","City":"Whittier","State":"CA","Zip":"90603"},{"Location":"AMF FRIENDLY HILLS LANES","Address":"15545 Whittier Blvd","City":"Whittier","State":"CA","Zip":"90603"},{"Location":"AUTO SHOP","Address":"16554 Whittier Blvd","City":"Whittier","State":"CA","Zip":"90603"},{"Location":"BARRO'S PIZZA","Address":"16130 Leffingwell Rd","City":"Whittier","State":"CA","Zip":"90603"},{"Location":"BUFFALO WILD WINGS #0510","Address":"10033 Whittwood Dr","City":"Whittier","State":"CA","Zip":"90603"},{"Location":"CALIFORNIA DOMESTIC WATER CO","Address":"15505 Whittier Blvd","City":"Whittier","State":"CA","Zip":"90603"},{"Location":"CAR STEREO MASERS","Address":"16511 Whittier Blvd","City":"Whittier","State":"CA","Zip":"90603"},{"Location":"CASA  OLVERA","Address":"16258 Whittier Blvd","City":"Whittier","State":"CA","Zip":"90603"},{"Location":"CASA DE BELLINI","Address":"16569 Whittier Blvd","City":"Whittier","State":"CA","Zip":"90603"},{"Location":"CILANTROS TACOS","Address":"16533 Whittier Blvd","City":"Whittier","State":"CA","Zip":"90603"},{"Location":"DAVITA #2003 WHITTIER","Address":"10055 Whittwood Dr B","City":"Whittier","State":"CA","Zip":"90603"},{"Location":"HERBERT MESSICK","Address":"15141 Whittier Blvd 550","City":"Whittier","State":"CA","Zip":"90603"},{"Location":"IZADI  SZETO ADC","Address":"16336 Whittier Blvd 200","City":"Whittier","State":"CA","Zip":"90603"},{"Location":"JOY SUSHI","Address":"15630 Whittwood Ln","City":"Whittier","State":"CA","Zip":"90603"},{"Location":"JT'S BEACHCLUB","Address":"15334 Whittier Blvd","City":"Whittier","State":"CA","Zip":"90603"},{"Location":"KIDSMILES PEDIATRIC DENTISTRY","Address":"15634 Whittwood Ln","City":"Whittier","State":"CA","Zip":"90603"},{"Location":"KOHL'S #1386","Address":"15602 Whittwood Ln","City":"Whittier","State":"CA","Zip":"90603"},{"Location":"LAW OFFICE OF TOMAS REQUEJO","Address":"15851 Whittier Blvd 2ndfl","City":"Whittier","State":"CA","Zip":"90603"},{"Location":"NEW AGE VAPOR WHITTIER","Address":"16545 Leffingwell Rd","City":"Whittier","State":"CA","Zip":"90603"},{"Location":"NEXT LEVEL BOOT CAMP","Address":"16561 Whittier Blvd","City":"Whittier","State":"CA","Zip":"90603"},{"Location":"ORCHARDS FRESH FOODS","Address":"16426 Whittier Blvd","City":"Whittier","State":"CA","Zip":"90603"},{"Location":"ORIGINAL ROADHOUSE GRILL","Address":"15156 Whittier Blvd","City":"Whittier","State":"CA","Zip":"90603"},{"Location":"PRECISION FITNESS","Address":"11147 1st Ave","City":"Whittier","State":"CA","Zip":"90603"},{"Location":"RED ROBIN #596","Address":"15610 Whittier Blvd","City":"Whittier","State":"CA","Zip":"90603"},{"Location":"TACO SHACK RESTAURANT","Address":"15856 Whittier Blvd","City":"Whittier","State":"CA","Zip":"90603"},{"Location":"TACOS BAJA","Address":"16032 Whittier Blvd","City":"Whittier","State":"CA","Zip":"90603"},{"Location":"TAURIAN BA LLC #1103","Address":"15500 Whittier Blvd","City":"Whittier","State":"CA","Zip":"90603"},{"Location":"TUBBY'S TAVERN","Address":"16509 Leffingwell Rd","City":"Whittier","State":"CA","Zip":"90603"},{"Location":"WHITTIER KIDNEY DIALYSIS","Address":"16417 Whittier Blvd","City":"Whittier","State":"CA","Zip":"90603"},{"Location":"WHITTIER KIDNEY DIALYSIS1","Address":"16417 Whittier Blvd","City":"Whittier","State":"CA","Zip":"90603"},{"Location":"WHITTIER MEDICAL WEIGHT CONTRO","Address":"11127 1st Ave","City":"Whittier","State":"CA","Zip":"90603"},{"Location":"EUPHORIA NAIL & SPA","Address":"15756 Laforge","City":"Whitter","State":"CA","Zip":"90603"},{"Location":"24 HOUR FITNESS #123","Address":"10125 Whittwood Dr","City":"Whittier","State":"CA","Zip":"90603"},{"Location":"AMF FRIENDLY HILLS LANES","Address":"15545 Whittier Blvd","City":"Whittier","State":"CA","Zip":"90603"},{"Location":"AUTO SHOP","Address":"16554 Whittier Blvd","City":"Whittier","State":"CA","Zip":"90603"},{"Location":"BARRO'S PIZZA","Address":"16130 Leffingwell Rd","City":"Whittier","State":"CA","Zip":"90603"},{"Location":"BUFFALO WILD WINGS #0510","Address":"10033 Whittwood Dr","City":"Whittier","State":"CA","Zip":"90603"},{"Location":"CALIFORNIA DOMESTIC WATER CO","Address":"15505 Whittier Blvd","City":"Whittier","State":"CA","Zip":"90603"},{"Location":"CAR STEREO MASERS","Address":"16511 Whittier Blvd","City":"Whittier","State":"CA","Zip":"90603"},{"Location":"CASA  OLVERA","Address":"16258 Whittier Blvd","City":"Whittier","State":"CA","Zip":"90603"},{"Location":"CASA DE BELLINI","Address":"16569 Whittier Blvd","City":"Whittier","State":"CA","Zip":"90603"},{"Location":"CILANTROS TACOS","Address":"16533 Whittier Blvd","City":"Whittier","State":"CA","Zip":"90603"},{"Location":"DAVITA #2003 WHITTIER","Address":"10055 Whittwood Dr B","City":"Whittier","State":"CA","Zip":"90603"},{"Location":"HERBERT MESSICK","Address":"15141 Whittier Blvd 550","City":"Whittier","State":"CA","Zip":"90603"},{"Location":"IZADI  SZETO ADC","Address":"16336 Whittier Blvd 200","City":"Whittier","State":"CA","Zip":"90603"},{"Location":"JOY SUSHI","Address":"15630 Whittwood Ln","City":"Whittier","State":"CA","Zip":"90603"},{"Location":"JT'S BEACHCLUB","Address":"15334 Whittier Blvd","City":"Whittier","State":"CA","Zip":"90603"},{"Location":"KIDSMILES PEDIATRIC DENTISTRY","Address":"15634 Whittwood Ln","City":"Whittier","State":"CA","Zip":"90603"},{"Location":"KOHL'S #1386","Address":"15602 Whittwood Ln","City":"Whittier","State":"CA","Zip":"90603"},{"Location":"LAW OFFICE OF TOMAS REQUEJO","Address":"15851 Whittier Blvd 2ndfl","City":"Whittier","State":"CA","Zip":"90603"},{"Location":"NEW AGE VAPOR WHITTIER","Address":"16545 Leffingwell Rd","City":"Whittier","State":"CA","Zip":"90603"},{"Location":"NEXT LEVEL BOOT CAMP","Address":"16561 Whittier Blvd","City":"Whittier","State":"CA","Zip":"90603"},{"Location":"ORCHARDS FRESH FOODS","Address":"16426 Whittier Blvd","City":"Whittier","State":"CA","Zip":"90603"},{"Location":"ORIGINAL ROADHOUSE GRILL","Address":"15156 Whittier Blvd","City":"Whittier","State":"CA","Zip":"90603"},{"Location":"PRECISION FITNESS","Address":"11147 1st Ave","City":"Whittier","State":"CA","Zip":"90603"},{"Location":"PROFESSIONAL CARE HEALTH","Address":"16453 Whittier Blvd","City":"Whittier","State":"CA","Zip":"90603"},{"Location":"RED ROBIN #596","Address":"15610 Whittier Blvd","City":"Whittier","State":"CA","Zip":"90603"},{"Location":"TACO SHACK RESTAURANT","Address":"15856 Whittier Blvd","City":"Whittier","State":"CA","Zip":"90603"},{"Location":"TACOS BAJA","Address":"16032 Whittier Blvd","City":"Whittier","State":"CA","Zip":"90603"},{"Location":"TAURIAN BA LLC #1103","Address":"15500 Whittier Blvd","City":"Whittier","State":"CA","Zip":"90603"},{"Location":"TUBBY'S TAVERN","Address":"16509 Leffingwell Rd","City":"Whittier","State":"CA","Zip":"90603"},{"Location":"WHITTIER KIDNEY DIALYSIS","Address":"16417 Whittier Blvd","City":"Whittier","State":"CA","Zip":"90603"},{"Location":"WHITTIER KIDNEY DIALYSIS1","Address":"16417 Whittier Blvd","City":"Whittier","State":"CA","Zip":"90603"},{"Location":"WHITTIER MEDICAL WEIGHT CONTRO","Address":"11127 1st Ave","City":"Whittier","State":"CA","Zip":"90603"}]