[{"Location":"DAVITA #2260 SANTA FE SPRINGS","Address":"11147 Washinton Blvd","City":"Santa Fe Springs","State":"CA","Zip":"90606"},{"Location":"A-1 ACCPUNTURE","Address":"11509 Washington Blvd","City":"Whittier","State":"CA","Zip":"90606"},{"Location":"BROADWAY CUTS","Address":"8023 Broadway Ave","City":"Whittier","State":"CA","Zip":"90606"},{"Location":"CHRIS & PITTS BBQ","Address":"11350 Washington Blvd","City":"Whittier","State":"CA","Zip":"90606"},{"Location":"CHRISTOPHER MARTIN","Address":"8330 Allport Ave","City":"Whittier","State":"CA","Zip":"90606"},{"Location":"CORNER STONE PRESCHOOL","Address":"7804 Thornlake Ave","City":"Whittier","State":"CA","Zip":"90606"},{"Location":"DOUGLAS BURGERS","Address":"11325 Washington Blvd","City":"Whittier","State":"CA","Zip":"90606"},{"Location":"DR REDDYS DENTISTRY","Address":"7910 Norwalk Blvd","City":"Whittier","State":"CA","Zip":"90606"},{"Location":"EDS MOBIL SERVICE","Address":"11253 Whittier Blvd","City":"Whittier","State":"CA","Zip":"90606"},{"Location":"EL ATACOR","Address":"11233 Washington Blvd","City":"Whittier","State":"CA","Zip":"90606"},{"Location":"FERNANDEZ GEORGE","Address":"12403 Slauson Ave G","City":"Whittier","State":"CA","Zip":"90606"},{"Location":"FIRESTONE 002593","Address":"11230 Washington Blvd","City":"Whittier","State":"CA","Zip":"90606"},{"Location":"HACIENDA MHP 1 LLC","Address":"11825 Washington Blvd","City":"Whittier","State":"CA","Zip":"90606"},{"Location":"INDUSTRIAL CONTROL & SUP","Address":"8022 Westman Ave","City":"Whittier","State":"CA","Zip":"90606"},{"Location":"LA EXPRESS","Address":"8328 Allport Ave","City":"Whittier","State":"CA","Zip":"90606"},{"Location":"MICHAEL S SUPER BURGERS","Address":"11506 Slauson Ave","City":"Whittier","State":"CA","Zip":"90606"},{"Location":"MY FRIENDS HOUSE","Address":"6526 Nowalk Blvd","City":"Whittier","State":"CA","Zip":"90606"},{"Location":"NAVARROS TAQUERIA","Address":"8821 Norwalk Blvd","City":"Whittier","State":"CA","Zip":"90606"},{"Location":"PHILS BARBER SHOP","Address":"11825 Washington Blvd 33","City":"Whittier","State":"CA","Zip":"90606"},{"Location":"PIZZA PIZZA","Address":"11530 Washington Blvd","City":"Whittier","State":"CA","Zip":"90606"},{"Location":"PRESBYTERIAN  INTER HOSP","Address":"12522 Lambert Rd","City":"Whittier","State":"CA","Zip":"90606"},{"Location":"RUBIS FROSTY FREEZE","Address":"11401 Washington Blvd","City":"Whittier","State":"CA","Zip":"90606"},{"Location":"SAMS SMOKE SHOP","Address":"11515 Slauson Ave 107","City":"Whittier","State":"CA","Zip":"90606"},{"Location":"SANTA FE KIDS COMPANY","Address":"11304 Washington Blvd","City":"Whittier","State":"CA","Zip":"90606"},{"Location":"SOUTHERN FRESH PRODUCE","Address":"11954 Washington Blvd","City":"Whittier","State":"CA","Zip":"90606"},{"Location":"STUDIO","Address":"8136 Byron Rd G","City":"Whittier","State":"CA","Zip":"90606"},{"Location":"STUFT PIZZA THE","Address":"11104 Whittier Blvd","City":"Whittier","State":"CA","Zip":"90606"},{"Location":"SUPER BURRITO","Address":"11237 Whittier Blvd","City":"Whittier","State":"CA","Zip":"90606"},{"Location":"SUSHI KABANA","Address":"11227 Washington Blvd","City":"Whittier","State":"CA","Zip":"90606"},{"Location":"UNCLES MUFFLERS","Address":"11841 Washington Blvd A","City":"Whittier","State":"CA","Zip":"90606"},{"Location":"WASHINGTON DENTAL","Address":"11408 Washington Blvd","City":"Whittier","State":"CA","Zip":"90606"},{"Location":"YAYAS HAIR SALON","Address":"12200 Washington Blvd J","City":"Whittier","State":"CA","Zip":"90606"}]