[{"Location":"","Address":"12472 Washington Blvd","City":"Whittier","State":"CA","Zip":"90602"},{"Location":"BANNERS LOUNGE","Address":"7320 Greenleaf Ave","City":"Whittier","State":"CA","Zip":"90602"},{"Location":"CALIFORNIA TAX","Address":"12717 Whittier Blvd","City":"Whittier","State":"CA","Zip":"90602"},{"Location":"CAREMORE","Address":"7624 Painter Ave 201","City":"Whittier","State":"CA","Zip":"90602"},{"Location":"CLASSIC FIVE POINTS LLC","Address":"12604 E Whittier Ave","City":"Whittier","State":"CA","Zip":"90602"},{"Location":"CLAUDIAS PLACE","Address":"7756 Greenleaf Ave","City":"Whittier","State":"CA","Zip":"90602"},{"Location":"COD PACKING SUPPLIES","Address":"7708 Greenleaf Ave","City":"Whittier","State":"CA","Zip":"90602"},{"Location":"COX KALMBACH INC","Address":"12402 Washington Blvd","City":"Whittier","State":"CA","Zip":"90602"},{"Location":"DESTINY COMMUNITY CHURCH","Address":"7227 Greenleaf Ave","City":"Whittier","State":"CA","Zip":"90602"},{"Location":"DLT STAFFING","Address":"8152 Painter Ave 205","City":"Whittier","State":"CA","Zip":"90602"},{"Location":"DOCTORS CONVELECENCE HOSPITAL","Address":"7926 Painter Ave","City":"Whittier","State":"CA","Zip":"90602"},{"Location":"EXCEL STAFFING INC.","Address":"7009 Washington Ave","City":"Whittier","State":"CA","Zip":"90602"},{"Location":"GM PROPERTIES 2","Address":"13305 Penn St","City":"Whittier","State":"CA","Zip":"90602"},{"Location":"HAVANA HOUSE","Address":"7020 Greenleaf Ave","City":"Whittier","State":"CA","Zip":"90602"},{"Location":"HOOLIGANS","Address":"12821 Penn St","City":"Whittier","State":"CA","Zip":"90602"},{"Location":"INDEPENDENT TAX REAL ESTATE","Address":"7257 Painter Ave","City":"Whittier","State":"CA","Zip":"90602"},{"Location":"JACKS WHITTIER RESTAURANT","Address":"13221 Whittier Blvd","City":"Whittier","State":"CA","Zip":"90602"},{"Location":"JIMMYS  USA","Address":"12327 Whittier Blvd","City":"Whittier","State":"CA","Zip":"90602"},{"Location":"L.A. BRONZE TAN","Address":"8317 Painter Ave 3","City":"Whittier","State":"CA","Zip":"90602"},{"Location":"LA COUNTY PUB.HEAL EPRP SPA7&8","Address":"7643 Painter Ave","City":"Whittier","State":"CA","Zip":"90602"},{"Location":"LA PESCADORA","Address":"7039 Greenleaf Ave","City":"Whittier","State":"CA","Zip":"90602"},{"Location":"LUZ GORDO DDS","Address":"7313 Greenleaf Ave","City":"Whittier","State":"CA","Zip":"90602"},{"Location":"MENDOZA SPORTS","Address":"12725 Wardman St","City":"Whittier","State":"CA","Zip":"90602"},{"Location":"MR GIANT INC","Address":"12831 Whittier Blvd","City":"Whittier","State":"CA","Zip":"90602"},{"Location":"PHO ROLL","Address":"7007 Greenleaf Ave 102","City":"Whittier","State":"CA","Zip":"90602"},{"Location":"PIH DIALYSIS","Address":"12455 Washington Blvd","City":"Whittier","State":"CA","Zip":"90602"},{"Location":"PIH DIALYSIS 2","Address":"12455 Washington Blvd","City":"Whittier","State":"CA","Zip":"90602"},{"Location":"PIH FOUNDATION","Address":"7612 Greenleaf Ave","City":"Whittier","State":"CA","Zip":"90602"},{"Location":"PIH MED STAFF","Address":"12401 Washington Blvd","City":"Whittier","State":"CA","Zip":"90602"},{"Location":"POSADA AT WHITTIER","Address":"8120 Painter Ave 116","City":"Whittier","State":"CA","Zip":"90602"},{"Location":"RED OAK GRILL","Address":"7051 Greenleaf Ave","City":"Whittier","State":"CA","Zip":"90602"},{"Location":"STEVE'S BBQ","Address":"7007 Greenleaf Ave 101","City":"Whittier","State":"CA","Zip":"90602"},{"Location":"TACOS BAJA","Address":"13320 Whittier Blvd","City":"Whittier","State":"CA","Zip":"90602"},{"Location":"TRITON  MANAGEMENT SERV LLC","Address":"7248 Painter Ave","City":"Whittier","State":"CA","Zip":"90602"},{"Location":"WHITTER COLLEGE","Address":"7004 Founders Hill Rd","City":"Whittier","State":"CA","Zip":"90602"},{"Location":"WHITTIER COLLEGE","Address":"13847 Earlham Dr","City":"Whittier","State":"CA","Zip":"90602"},{"Location":"WHITTIER COLLEGE SAFETY","Address":"7022 Haverhill Park Rd","City":"Whittier","State":"CA","Zip":"90602"},{"Location":"WHITTIER COLLEGE STUDENT","Address":"7214 Painter Ave","City":"Whittier","State":"CA","Zip":"90602"},{"Location":"WOORIGUMI RESTAURANT","Address":"8250 Painter Ave","City":"Whittier","State":"CA","Zip":"90602"},{"Location":"ZUMAYAS MEXICAN","Address":"7317 Greenleaf Ave","City":"Whittier","State":"CA","Zip":"90602"},{"Location":"","Address":"12472 Washington Blvd","City":"Whittier","State":"CA","Zip":"90602"},{"Location":"BANNERS LOUNGE","Address":"7320 Greenleaf Ave","City":"Whittier","State":"CA","Zip":"90602"},{"Location":"CALIFORNIA TAX","Address":"12717 Whittier Blvd","City":"Whittier","State":"CA","Zip":"90602"},{"Location":"CAREMORE","Address":"7624 Painter Ave 201","City":"Whittier","State":"CA","Zip":"90602"},{"Location":"CLASSIC FIVE POINTS LLC","Address":"12604 E Whittier Ave","City":"Whittier","State":"CA","Zip":"90602"},{"Location":"CLAUDIAS PLACE","Address":"7756 Greenleaf Ave","City":"Whittier","State":"CA","Zip":"90602"},{"Location":"COD PACKING SUPPLIES","Address":"7708 Greenleaf Ave","City":"Whittier","State":"CA","Zip":"90602"},{"Location":"COX KALMBACH INC","Address":"12402 Washington Blvd","City":"Whittier","State":"CA","Zip":"90602"},{"Location":"DESTINY COMMUNITY CHURCH","Address":"7227 Greenleaf Ave","City":"Whittier","State":"CA","Zip":"90602"},{"Location":"DLT STAFFING","Address":"8152 Painter Ave 205","City":"Whittier","State":"CA","Zip":"90602"},{"Location":"DOCTORS CONVELECENCE HOSPITAL","Address":"7926 Painter Ave","City":"Whittier","State":"CA","Zip":"90602"},{"Location":"EXCEL STAFFING INC.","Address":"7009 Washington Ave","City":"Whittier","State":"CA","Zip":"90602"},{"Location":"GM PROPERTIES 2","Address":"13305 Penn St","City":"Whittier","State":"CA","Zip":"90602"},{"Location":"HAVANA HOUSE","Address":"7020 Greenleaf Ave","City":"Whittier","State":"CA","Zip":"90602"},{"Location":"HOOLIGANS","Address":"12821 Penn St","City":"Whittier","State":"CA","Zip":"90602"},{"Location":"INDEPENDENT TAX REAL ESTATE","Address":"7257 Painter Ave","City":"Whittier","State":"CA","Zip":"90602"},{"Location":"JACKS WHITTIER RESTAURANT","Address":"13221 Whittier Blvd","City":"Whittier","State":"CA","Zip":"90602"},{"Location":"JIMMYS  USA","Address":"12327 Whittier Blvd","City":"Whittier","State":"CA","Zip":"90602"},{"Location":"L.A. BRONZE TAN","Address":"8317 Painter Ave 3","City":"Whittier","State":"CA","Zip":"90602"},{"Location":"LA COUNTY PUB.HEAL EPRP SPA7&8","Address":"7643 Painter Ave","City":"Whittier","State":"CA","Zip":"90602"},{"Location":"LA PESCADORA","Address":"7039 Greenleaf Ave","City":"Whittier","State":"CA","Zip":"90602"},{"Location":"LUZ GORDO DDS","Address":"7313 Greenleaf Ave","City":"Whittier","State":"CA","Zip":"90602"},{"Location":"MENDOZA SPORTS","Address":"12725 Wardman St","City":"Whittier","State":"CA","Zip":"90602"},{"Location":"MR GIANT INC","Address":"12831 Whittier Blvd","City":"Whittier","State":"CA","Zip":"90602"},{"Location":"PHO ROLL","Address":"7007 Greenleaf Ave 102","City":"Whittier","State":"CA","Zip":"90602"},{"Location":"PIH DIALYSIS","Address":"12455 Washington Blvd","City":"Whittier","State":"CA","Zip":"90602"},{"Location":"PIH DIALYSIS 2","Address":"12455 Washington Blvd","City":"Whittier","State":"CA","Zip":"90602"},{"Location":"PIH FOUNDATION","Address":"7612 Greenleaf Ave","City":"Whittier","State":"CA","Zip":"90602"},{"Location":"PIH MED STAFF","Address":"12401 Washington Blvd","City":"Whittier","State":"CA","Zip":"90602"},{"Location":"POSADA AT WHITTIER","Address":"8120 Painter Ave 116","City":"Whittier","State":"CA","Zip":"90602"},{"Location":"RED OAK GRILL","Address":"7051 Greenleaf Ave","City":"Whittier","State":"CA","Zip":"90602"},{"Location":"STEVE'S BBQ","Address":"7007 Greenleaf Ave 101","City":"Whittier","State":"CA","Zip":"90602"},{"Location":"TACOS BAJA","Address":"13320 Whittier Blvd","City":"Whittier","State":"CA","Zip":"90602"},{"Location":"TRITON  MANAGEMENT SERV LLC","Address":"7248 Painter Ave","City":"Whittier","State":"CA","Zip":"90602"},{"Location":"WHITTER COLLEGE","Address":"7004 Founders Hill Rd","City":"Whittier","State":"CA","Zip":"90602"},{"Location":"WHITTIER COLLEGE","Address":"13847 Earlham Dr","City":"Whittier","State":"CA","Zip":"90602"},{"Location":"WHITTIER COLLEGE SAFETY","Address":"7022 Haverhill Park Rd","City":"Whittier","State":"CA","Zip":"90602"},{"Location":"WHITTIER COLLEGE STUDENT","Address":"7214 Painter Ave","City":"Whittier","State":"CA","Zip":"90602"},{"Location":"WOORIGUMI RESTAURANT","Address":"8250 Painter Ave","City":"Whittier","State":"CA","Zip":"90602"},{"Location":"ZUMAYAS MEXICAN","Address":"7317 Greenleaf Ave","City":"Whittier","State":"CA","Zip":"90602"}]