[{"Location":"ABBAEE SOONDAE","Address":"6522 Stanton Ave E","City":"Buena Park","State":"CA","Zip":"90621"},{"Location":"ACCESS BUSINESS GROUP","Address":"5600 Beach Blvd","City":"Buena Park","State":"CA","Zip":"90621"},{"Location":"ADAMS & SONS TRANSPORTATION","Address":"7101 Cate Dr","City":"Buena Park","State":"CA","Zip":"90621"},{"Location":"ADP","Address":"7000 Village Dr","City":"Buena Park","State":"CA","Zip":"90621"},{"Location":"AMERICAN LEGION","Address":"8071 Whitaker St","City":"Buena Park","State":"CA","Zip":"90621"},{"Location":"ARMOR INSURANCE SERVICE","Address":"7212 Orangethorpe Ave 6","City":"Buena Park","State":"CA","Zip":"90621"},{"Location":"AUTO WHOLERSALER CO","Address":"7479 Orangethorpe Ave","City":"Buena Park","State":"CA","Zip":"90621"},{"Location":"AUTOLOGUE COMPUTER SYSTEM","Address":"8452 Commonwealth Ave","City":"Buena Park","State":"CA","Zip":"90621"},{"Location":"AUTONATION TOYOTA SCION","Address":"6400 Beach Blvd","City":"Buena Park","State":"CA","Zip":"90621"},{"Location":"BAP SANG","Address":"7879 Commonwealth Ave","City":"Buena Park","State":"CA","Zip":"90621"},{"Location":"BBQ MID WEST INC","Address":"5260 Beach Blvd","City":"Buena Park","State":"CA","Zip":"90621"},{"Location":"BCRK INC","Address":"7814 Orangethorpe Ave","City":"Buena Park","State":"CA","Zip":"90621"},{"Location":"BEACH WHALEO","Address":"5440 Beach Blvd","City":"Buena Park","State":"CA","Zip":"90621"},{"Location":"CAFE GUNULJIP","Address":"5448 Beach Blvd","City":"Buena Park","State":"CA","Zip":"90621"},{"Location":"CANSECO BOILER SERVICES","Address":"8641 Whitaker St","City":"Buena Park","State":"CA","Zip":"90621"},{"Location":"CARMAX #7129","Address":"6100 Manchester Blvd","City":"Buena Park","State":"CA","Zip":"90621"},{"Location":"CITY CASH SERVICE","Address":"8214 Commonwealth Ave","City":"Buena Park","State":"CA","Zip":"90621"},{"Location":"COFFEE DATE","Address":"7808 Orangethorpe Ave 101","City":"Buena Park","State":"CA","Zip":"90621"},{"Location":"COLD SPOT MARKET","Address":"8142 Commonwealth Ave","City":"Buena Park","State":"CA","Zip":"90621"},{"Location":"DAN BRUCE","Address":"7344 Melrose St","City":"Buena Park","State":"CA","Zip":"90621"},{"Location":"DISCOVERING THE WORLD","Address":"6455 Roland St","City":"Buena Park","State":"CA","Zip":"90621"},{"Location":"ECHAN HAIR","Address":"7227 Orangethorpe Ave","City":"Buena Park","State":"CA","Zip":"90621"},{"Location":"ELECTRO MEDICAL INSTRUMENTAL","Address":"8475 Artesia Blvd","City":"Buena Park","State":"CA","Zip":"90621"},{"Location":"ELKS LODGE BUENA PARK","Address":"7212 Melrose St","City":"Buena Park","State":"CA","Zip":"90621"},{"Location":"FAIRFIELD INN AND SUITES","Address":"7828 Orangethorpe Ave","City":"Buena Park","State":"CA","Zip":"90621"},{"Location":"FUDDRUCKER'S #3143","Address":"7802 Orangethorpe Ave","City":"Buena Park","State":"CA","Zip":"90621"},{"Location":"GAM JA TANG HOUSE","Address":"5232 Beach Blvd","City":"Buena Park","State":"CA","Zip":"90621"},{"Location":"HAN YANG","Address":"7152 Orangethorpe Ave","City":"Buena Park","State":"CA","Zip":"90621"},{"Location":"HP INVESTMENT LLC","Address":"4560 Beach Blvd","City":"Buena Park","State":"CA","Zip":"90621"},{"Location":"JACADI CORP","Address":"56 Windward Way","City":"Buena Park","State":"CA","Zip":"90621"},{"Location":"JJANG ENTERPRISE","Address":"5258 Beach Blvd","City":"Buena Park","State":"CA","Zip":"90621"},{"Location":"KEN GRODY FORD","Address":"6211 Beach Blvd","City":"Buena Park","State":"CA","Zip":"90621"},{"Location":"KI SUSHI AND SAKE BAR","Address":"5151 Beach Blvd A","City":"Buena Park","State":"CA","Zip":"90621"},{"Location":"KIM","Address":"7231 Orangethorpe Ave","City":"Buena Park","State":"CA","Zip":"90621"},{"Location":"KIM INSOO DDS","Address":"4600 Beach Blvd","City":"Buena Park","State":"CA","Zip":"90621"},{"Location":"KINGSGARDEN CHINESE REST","Address":"5471 Beach Blvd","City":"Buena Park","State":"CA","Zip":"90621"},{"Location":"LEE DIAMOND","Address":"5307 Beach Blvd 101","City":"Buena Park","State":"CA","Zip":"90621"},{"Location":"LEE KA JA TOTAL BEAUTY","Address":"5311 Beach Blvd","City":"Buena Park","State":"CA","Zip":"90621"},{"Location":"MAGIC MESSENGER","Address":"5620 Knott Ave","City":"Buena Park","State":"CA","Zip":"90621"},{"Location":"MANDURANG-BUENA PARK","Address":"5458 Beach Blvd","City":"Buena Park","State":"CA","Zip":"90621"},{"Location":"MINDEULLE","Address":"8192 Commonwealth Ave A","City":"Buena Park","State":"CA","Zip":"90621"},{"Location":"MYUNG DONG TOFU REST","Address":"5446 Beach Blvd","City":"Buena Park","State":"CA","Zip":"90621"},{"Location":"MYUNGDONG RESTAURANT","Address":"5301 Beach Blvd","City":"Buena Park","State":"CA","Zip":"90621"},{"Location":"NEW BEGINNING","Address":"7142 Thomas St","City":"Buena Park","State":"CA","Zip":"90621"},{"Location":"NUTRILITE%2FAMWAY","Address":"5530 River Way","City":"Buena Park","State":"CA","Zip":"90621"},{"Location":"ORANGE COIN OP LAUNDRY","Address":"8725 Orangethorpe Ave C","City":"Buena Park","State":"CA","Zip":"90621"},{"Location":"PREMIER CHEVY OF BUENA PARK","Address":"6195 Auto Center Dr","City":"Buena Park","State":"CA","Zip":"90621"},{"Location":"RED BRICK PIZZA","Address":"7550 Orangethorpe Ave","City":"Buena Park","State":"CA","Zip":"90621"},{"Location":"RESTAURANTS WOOGA","Address":"5450 Beach Blvd 102","City":"Buena Park","State":"CA","Zip":"90621"},{"Location":"SAPPORO","Address":"5491 Beach Blvd","City":"Buena Park","State":"CA","Zip":"90621"},{"Location":"SIZZLERS","Address":"7902 Orangethorpe Ave","City":"Buena Park","State":"CA","Zip":"90621"},{"Location":"STEED ALIGNMENT","Address":"8143 Commonwealth Ave","City":"Buena Park","State":"CA","Zip":"90621"},{"Location":"SUBWAY #2383","Address":"7814 Orangethorpe Ave","City":"Buena Park","State":"CA","Zip":"90621"},{"Location":"TARGET STORE","Address":"7530 Orangethorpe Ave","City":"Buena Park","State":"CA","Zip":"90621"},{"Location":"TITAN COMPUTER REPAIR","Address":"7298 Melrose St","City":"Buena Park","State":"CA","Zip":"90621"},{"Location":"VIVIDUS VENTURE GROUP CORP","Address":"5300 Beach Blvd 112","City":"Buena Park","State":"CA","Zip":"90621"},{"Location":"WAYNE PERRY INC","Address":"8281 Commonwealth Ave","City":"Buena Park","State":"CA","Zip":"90621"},{"Location":"WAYNE PERRY INC","Address":"8485 Artesia Blvd","City":"Buena Park","State":"CA","Zip":"90621"},{"Location":"YUCHUN CHINA","Address":"5246 Beach Blvd","City":"Buena Park","State":"CA","Zip":"90621"},{"Location":"ABBAEE SOONDAE","Address":"6522 Stanton Ave E","City":"Buena Park","State":"CA","Zip":"90621"},{"Location":"ACCESS BUSINESS GROUP","Address":"5600 Beach Blvd","City":"Buena Park","State":"CA","Zip":"90621"},{"Location":"ADAMS & SONS TRANSPORTATION","Address":"7101 Cate Dr","City":"Buena Park","State":"CA","Zip":"90621"},{"Location":"ADP","Address":"7000 Village Dr","City":"Buena Park","State":"CA","Zip":"90621"},{"Location":"AMERICAN LEGION","Address":"8071 Whitaker St","City":"Buena Park","State":"CA","Zip":"90621"},{"Location":"ARMOR INSURANCE SERVICE","Address":"7212 Orangethorpe Ave 6","City":"Buena Park","State":"CA","Zip":"90621"},{"Location":"AUTO WHOLERSALER CO","Address":"7479 Orangethorpe Ave","City":"Buena Park","State":"CA","Zip":"90621"},{"Location":"AUTOLOGUE COMPUTER SYSTEM","Address":"8452 Commonwealth Ave","City":"Buena Park","State":"CA","Zip":"90621"},{"Location":"AUTONATION TOYOTA SCION","Address":"6400 Beach Blvd","City":"Buena Park","State":"CA","Zip":"90621"},{"Location":"BAP SANG","Address":"7879 Commonwealth Ave","City":"Buena Park","State":"CA","Zip":"90621"},{"Location":"BBQ MID WEST INC","Address":"5260 Beach Blvd","City":"Buena Park","State":"CA","Zip":"90621"},{"Location":"BCRK INC","Address":"7814 Orangethorpe Ave","City":"Buena Park","State":"CA","Zip":"90621"},{"Location":"BEACH WHALEO","Address":"5440 Beach Blvd","City":"Buena Park","State":"CA","Zip":"90621"},{"Location":"CAFE GUNULJIP","Address":"5448 Beach Blvd","City":"Buena Park","State":"CA","Zip":"90621"},{"Location":"CANSECO BOILER SERVICES","Address":"8641 Whitaker St","City":"Buena Park","State":"CA","Zip":"90621"},{"Location":"CARMAX #7129","Address":"6100 Manchester Blvd","City":"Buena Park","State":"CA","Zip":"90621"},{"Location":"CITY CASH SERVICE","Address":"8214 Commonwealth Ave","City":"Buena Park","State":"CA","Zip":"90621"},{"Location":"COFFEE DATE","Address":"7808 Orangethorpe Ave 101","City":"Buena Park","State":"CA","Zip":"90621"},{"Location":"COLD SPOT MARKET","Address":"8142 Commonwealth Ave","City":"Buena Park","State":"CA","Zip":"90621"},{"Location":"DAN BRUCE","Address":"7344 Melrose St","City":"Buena Park","State":"CA","Zip":"90621"},{"Location":"DISCOVERING THE WORLD","Address":"6455 Roland St","City":"Buena Park","State":"CA","Zip":"90621"},{"Location":"ECHAN HAIR","Address":"7227 Orangethorpe Ave","City":"Buena Park","State":"CA","Zip":"90621"},{"Location":"ELECTRO MEDICAL INSTRUMENTAL","Address":"8475 Artesia Blvd","City":"Buena Park","State":"CA","Zip":"90621"},{"Location":"ELKS LODGE BUENA PARK","Address":"7212 Melrose St","City":"Buena Park","State":"CA","Zip":"90621"},{"Location":"FAIRFIELD INN AND SUITES","Address":"7828 Orangethorpe Ave","City":"Buena Park","State":"CA","Zip":"90621"},{"Location":"FUDDRUCKER'S #3143","Address":"7802 Orangethorpe Ave","City":"Buena Park","State":"CA","Zip":"90621"},{"Location":"HAN YANG","Address":"7152 Orangethorpe Ave","City":"Buena Park","State":"CA","Zip":"90621"},{"Location":"HP INVESTMENT LLC","Address":"4560 Beach Blvd","City":"Buena Park","State":"CA","Zip":"90621"},{"Location":"JACADI CORP","Address":"56 Windward Way","City":"Buena Park","State":"CA","Zip":"90621"},{"Location":"JJANG ENTERPRISE","Address":"5258 Beach Blvd","City":"Buena Park","State":"CA","Zip":"90621"},{"Location":"KEN GRODY FORD","Address":"6211 Beach Blvd","City":"Buena Park","State":"CA","Zip":"90621"},{"Location":"KI SUSHI AND SAKE BAR","Address":"5151 Beach Blvd A","City":"Buena Park","State":"CA","Zip":"90621"},{"Location":"KIM","Address":"7231 Orangethorpe Ave","City":"Buena Park","State":"CA","Zip":"90621"},{"Location":"KIM INSOO DDS","Address":"4600 Beach Blvd","City":"Buena Park","State":"CA","Zip":"90621"},{"Location":"KINGSGARDEN CHINESE REST","Address":"5471 Beach Blvd","City":"Buena Park","State":"CA","Zip":"90621"},{"Location":"LEE DIAMOND","Address":"5307 Beach Blvd 101","City":"Buena Park","State":"CA","Zip":"90621"},{"Location":"LEE KA JA TOTAL BEAUTY","Address":"5311 Beach Blvd","City":"Buena Park","State":"CA","Zip":"90621"},{"Location":"MAGIC MESSENGER","Address":"5620 Knott Ave","City":"Buena Park","State":"CA","Zip":"90621"},{"Location":"MANDURANG-BUENA PARK","Address":"5458 Beach Blvd","City":"Buena Park","State":"CA","Zip":"90621"},{"Location":"MINDEULLE","Address":"8192 Commonwealth Ave A","City":"Buena Park","State":"CA","Zip":"90621"},{"Location":"MYUNG DONG TOFU REST","Address":"5446 Beach Blvd","City":"Buena Park","State":"CA","Zip":"90621"},{"Location":"MYUNGDONG RESTAURANT","Address":"5301 Beach Blvd","City":"Buena Park","State":"CA","Zip":"90621"},{"Location":"NEW BEGINNING","Address":"7142 Thomas St","City":"Buena Park","State":"CA","Zip":"90621"},{"Location":"NUTRILITE%2FAMWAY","Address":"5530 River Way","City":"Buena Park","State":"CA","Zip":"90621"},{"Location":"ORANGE COIN OP LAUNDRY","Address":"8725 Orangethorpe Ave C","City":"Buena Park","State":"CA","Zip":"90621"},{"Location":"PREMIER CHEVY OF BUENA PARK","Address":"6195 Auto Center Dr","City":"Buena Park","State":"CA","Zip":"90621"},{"Location":"RED BRICK PIZZA","Address":"7550 Orangethorpe Ave","City":"Buena Park","State":"CA","Zip":"90621"},{"Location":"RESTAURANT BEACH","Address":"5232 Beach Blvd","City":"Buena Park","State":"CA","Zip":"90621"},{"Location":"RESTAURANTS WOOGA","Address":"5450 Beach Blvd 102","City":"Buena Park","State":"CA","Zip":"90621"},{"Location":"SAPPORO","Address":"5491 Beach Blvd","City":"Buena Park","State":"CA","Zip":"90621"},{"Location":"SHINSA YOUNGDONG","Address":"6086 Beach Blvd","City":"Buena Park","State":"CA","Zip":"90621"},{"Location":"SIZZLERS","Address":"7902 Orangethorpe Ave","City":"Buena Park","State":"CA","Zip":"90621"},{"Location":"STEED ALIGNMENT","Address":"8143 Commonwealth Ave","City":"Buena Park","State":"CA","Zip":"90621"},{"Location":"SUBWAY #2383","Address":"7814 Orangethorpe Ave","City":"Buena Park","State":"CA","Zip":"90621"},{"Location":"TARGET STORE","Address":"7530 Orangethorpe Ave","City":"Buena Park","State":"CA","Zip":"90621"},{"Location":"TITAN COMPUTER REPAIR","Address":"7298 Melrose St","City":"Buena Park","State":"CA","Zip":"90621"},{"Location":"VIVIDUS VENTURE GROUP CORP","Address":"5300 Beach Blvd 112","City":"Buena Park","State":"CA","Zip":"90621"},{"Location":"WAYNE PERRY INC","Address":"8281 Commonwealth Ave","City":"Buena Park","State":"CA","Zip":"90621"},{"Location":"WAYNE PERRY INC","Address":"8485 Artesia Blvd","City":"Buena Park","State":"CA","Zip":"90621"},{"Location":"YUCHUN CHINA","Address":"5246 Beach Blvd","City":"Buena Park","State":"CA","Zip":"90621"}]