[{"Location":"24 HOUR FITNESS #855","Address":"8420 On The Mall 240","City":"Buena Park","State":"CA","Zip":"90620"},{"Location":"ASSIT MEDICAL SERVICES LLC","Address":"6800 Lincoln Ave","City":"Buena Park","State":"CA","Zip":"90620"},{"Location":"AUTO LIMOUSINE SERVICES","Address":"6880 Orangethorpe Ave D","City":"Buena Park","State":"CA","Zip":"90620"},{"Location":"BIG TIME DIGITAL LLC","Address":"6935 Hermosa Cirle","City":"Buena Park","State":"CA","Zip":"90620"},{"Location":"BINH T BUI DDS","Address":"6131 Orangethorpe Ave 405","City":"Buena Park","State":"CA","Zip":"90620"},{"Location":"BLACK BEAR DINER BUENA","Address":"7005 Knott Ave","City":"Buena Park","State":"CA","Zip":"90620"},{"Location":"BUENA PARK NURSING CENTER","Address":"8520 Western Ave","City":"Buena Park","State":"CA","Zip":"90620"},{"Location":"BUENA PARK SHAKEYS 53","Address":"7030 Valley View St","City":"Buena Park","State":"CA","Zip":"90620"},{"Location":"BUFFALO WILD WINGS #3463","Address":"8301 On The Mall B","City":"Buena Park","State":"CA","Zip":"90620"},{"Location":"BURGER CITY GRILL","Address":"8886 Knott Ave","City":"Buena Park","State":"CA","Zip":"90620"},{"Location":"CERTIFIED TIRE","Address":"7960 La Palma Ave","City":"Buena Park","State":"CA","Zip":"90620"},{"Location":"CHAM SOOT GOL","Address":"8552 Beach Blvd","City":"Buena Park","State":"CA","Zip":"90620"},{"Location":"CHILI'S #0786","Address":"8376 La Palma Ave","City":"Buena Park","State":"CA","Zip":"90620"},{"Location":"CHO SUN OK","Address":"7880 Beach Blvd","City":"Buena Park","State":"CA","Zip":"90620"},{"Location":"CLAIM JUMPER #6","Address":"7971 Beach Blvd","City":"Buena Park","State":"CA","Zip":"90620"},{"Location":"COURTYARD BY MARRIOTT BUENA PA","Address":"7621 Beach Blvd","City":"Buena Park","State":"CA","Zip":"90620"},{"Location":"DANIEL D CHUNG DDS","Address":"8884 Knott Ave","City":"Buena Park","State":"CA","Zip":"90620"},{"Location":"DICKEYS BBQ PIT","Address":"8300 La Palma Ave A1","City":"Buena Park","State":"CA","Zip":"90620"},{"Location":"EL GALLO","Address":"8340 La Palma Ave C5","City":"Buena Park","State":"CA","Zip":"90620"},{"Location":"EL TORITO 7135","Address":"5980 Orangethorpe Ave","City":"Buena Park","State":"CA","Zip":"90620"},{"Location":"FAMILY DENTAL GROUP","Address":"9009 Knott Ave","City":"Buena Park","State":"CA","Zip":"90620"},{"Location":"FENN TERMITE & PEST CONT","Address":"7322 Walnut Ave","City":"Buena Park","State":"CA","Zip":"90620"},{"Location":"FIRESTONE #005835","Address":"6011 Orangethorpe Ave","City":"Buena Park","State":"CA","Zip":"90620"},{"Location":"FITNESS 19 BUENA PARK","Address":"7886 Valley View St","City":"Buena Park","State":"CA","Zip":"90620"},{"Location":"GENERAL AUCTION CO","Address":"7015 Knott Ave","City":"Buena Park","State":"CA","Zip":"90620"},{"Location":"GEORGIA PACIFIC","Address":"6300 Regio Ave","City":"Buena Park","State":"CA","Zip":"90620"},{"Location":"GOODYEAR 8658","Address":"6962 Lincoln Ave","City":"Buena Park","State":"CA","Zip":"90620"},{"Location":"GU IE TOWN","Address":"8535 Knott Ave","City":"Buena Park","State":"CA","Zip":"90620"},{"Location":"HERMES","Address":"7892 Beach Blvd","City":"Buena Park","State":"CA","Zip":"90620"},{"Location":"JERSEY MIKES SUBS 20088","Address":"5974 Orangethorpe Ave","City":"Buena Park","State":"CA","Zip":"90620"},{"Location":"JOHN'S INCREDIBLE PIZZA CO","Address":"8601 On The Mall","City":"Buena Park","State":"CA","Zip":"90620"},{"Location":"JRK INTERNATIONAL","Address":"6850 Lincoln Ave 204","City":"Buena Park","State":"CA","Zip":"90620"},{"Location":"KOHL'S #589","Address":"8191 La Palma Ave","City":"Buena Park","State":"CA","Zip":"90620"},{"Location":"LEGACY FARMS","Address":"6625 Caballero Blvd","City":"Buena Park","State":"CA","Zip":"90620"},{"Location":"MANILA  GRILLE","Address":"7635 Knott Ave","City":"Buena Park","State":"CA","Zip":"90620"},{"Location":"MARBLES LOUNGE","Address":"7000 Beach Blvd","City":"Buena Park","State":"CA","Zip":"90620"},{"Location":"MARIE CALLENDAR'S #50","Address":"5960 Orangethorpe Ave","City":"Buena Park","State":"CA","Zip":"90620"},{"Location":"MARKET EL RANCH","Address":"7631 Knott Ave","City":"Buena Park","State":"CA","Zip":"90620"},{"Location":"MBM FOOD SERVICES","Address":"6800 Artesia Blvd 4","City":"Buena Park","State":"CA","Zip":"90620"},{"Location":"MORNING GLORY PRESS INC","Address":"6595 San Haroldo Way","City":"Buena Park","State":"CA","Zip":"90620"},{"Location":"ODORI SUSHI","Address":"7855 La Palma Ave 1","City":"Buena Park","State":"CA","Zip":"90620"},{"Location":"OLIVE GARDEN #4463","Address":"8386 La Palma Ave","City":"Buena Park","State":"CA","Zip":"90620"},{"Location":"OMNI COMMUNITCATIONS","Address":"6900 8th St","City":"Buena Park","State":"CA","Zip":"90620"},{"Location":"ORANGE COUNTY FIRESTATION #61","Address":"8081 Western Ave","City":"Buena Park","State":"CA","Zip":"90620"},{"Location":"OUT OF THE PARK PIZZA 2","Address":"6038 Ball Rd","City":"Buena Park","State":"CA","Zip":"90620"},{"Location":"OUTBACK STEAKHOUSE #0581","Address":"7575 Beach Blvd","City":"Buena Park","State":"CA","Zip":"90620"},{"Location":"PAC SMOKE SHOP","Address":"6161 Lincoln Ave 12","City":"Buena Park","State":"CA","Zip":"90620"},{"Location":"PERUVIAN RESTAURANT","Address":"7035 Lincoln Ave","City":"Buena Park","State":"CA","Zip":"90620"},{"Location":"ROSEWOOD BARBERSHOP","Address":"7855 La Palma Ave","City":"Buena Park","State":"CA","Zip":"90620"},{"Location":"SABER FITNESS LLC","Address":"8960 Knott Ave","City":"Buena Park","State":"CA","Zip":"90620"},{"Location":"SADDLE CREEK   CORP","Address":"6565 Knott Ave C","City":"Buena Park","State":"CA","Zip":"90620"},{"Location":"SEARS AUTO CENTER","Address":"8150 La Palma Ave","City":"Buena Park","State":"CA","Zip":"90620"},{"Location":"SELECT EQUIPMENT SALES","Address":"6911 8th St","City":"Buena Park","State":"CA","Zip":"90620"},{"Location":"SMITH","Address":"7431 Walnut Ave","City":"Buena Park","State":"CA","Zip":"90620"},{"Location":"SPORTS TREASURES 23","Address":"8370 On The Mall B","City":"Buena Park","State":"CA","Zip":"90620"},{"Location":"TAURIAN BA LLC #1069","Address":"7111 Beach Blvd","City":"Buena Park","State":"CA","Zip":"90620"},{"Location":"TGI FRIDAYS KNOTTS BERRY FARM","Address":"8039 Beach Blvd","City":"Buena Park","State":"CA","Zip":"90620"},{"Location":"THE DART SHOP","Address":"8901 Knott Ave B","City":"Buena Park","State":"CA","Zip":"90620"},{"Location":"THE JUICE JOINT","Address":"6122 Orangethorpe Ave 104","City":"Buena Park","State":"CA","Zip":"90620"},{"Location":"TOMKAT","Address":"8858 Knott Ave","City":"Buena Park","State":"CA","Zip":"90620"},{"Location":"TOP NAILS AND SPA","Address":"8901 Valley View St","City":"Buena Park","State":"CA","Zip":"90620"},{"Location":"TRUE SCHOOL BARBER INC","Address":"7490 La Palma Ave","City":"Buena Park","State":"CA","Zip":"90620"},{"Location":"U C P BUENA PARK","Address":"8361 Knott Ave","City":"Buena Park","State":"CA","Zip":"90620"},{"Location":"UFCW-UNION LOCAL 324","Address":"8530 Stanton Ave","City":"Buena Park","State":"CA","Zip":"90620"},{"Location":"UNITED LIMOSUINE","Address":"7101 Mcneil Ln","City":"Buena Park","State":"CA","Zip":"90620"},{"Location":"YAMAHA CORP OF AMERICA","Address":"6600 Orangethorpe Ave","City":"Buena Park","State":"CA","Zip":"90620"},{"Location":"YAMAHA CORP OF AMERICA","Address":"6722 Orangethorpe Ave","City":"Buena Park","State":"CA","Zip":"90620"}]