[{"Location":"ADP","Address":"5355 Orangethorpe Ave","City":"La Palma","State":"CA","Zip":"90623"},{"Location":"BOBALOCA","Address":"4947 La Palma Ave","City":"La Palma","State":"CA","Zip":"90623"},{"Location":"BULGOGI HOUSE","Address":"6901 Walker St","City":"La Palma","State":"CA","Zip":"90623"},{"Location":"CALIFORNIA BANK & TRUST","Address":"5471 Orangethorpe Ave","City":"La Palma","State":"CA","Zip":"90623"},{"Location":"CARE AMBULANCE","Address":"7872 Walker St 103","City":"La Palma","State":"CA","Zip":"90623"},{"Location":"CLIFF'S HIDEAWAY","Address":"5442 Orangethorpe Ave","City":"La Palma","State":"CA","Zip":"90623"},{"Location":"CONCENTRA","Address":"40 Centerpointe Dr","City":"La Palma","State":"CA","Zip":"90623"},{"Location":"DAVITA #5790 LAPALMA","Address":"5451 La Palma Ave 35","City":"La Palma","State":"CA","Zip":"90623"},{"Location":"GOLF BUDDY","Address":"20 Center Pointe Dr 140","City":"La Palma","State":"CA","Zip":"90623"},{"Location":"GONZALES DDS INC%2C BEVERLY","Address":"5031 La Palma Ave B","City":"La Palma","State":"CA","Zip":"90623"},{"Location":"LA CAPILLA MEXICAN RESTAURANT","Address":"4997 La Palma Ave","City":"La Palma","State":"CA","Zip":"90623"},{"Location":"NTC","Address":"5422 Montclair Cir","City":"La Palma","State":"CA","Zip":"90623"},{"Location":"PAESANOS PIZZA","Address":"5440 Orangethorpe Ave","City":"La Palma","State":"CA","Zip":"90623"},{"Location":"PANDA INN INC","Address":"2 Centerpointe Dr","City":"La Palma","State":"CA","Zip":"90623"},{"Location":"PETRA-ICS","Address":"1 Center Pointe Dr 200","City":"La Palma","State":"CA","Zip":"90623"},{"Location":"RIDERS CLUB","Address":"5511 Orangethorpe Ave","City":"La Palma","State":"CA","Zip":"90623"},{"Location":"ROMA RISTORANTE","Address":"30 Centerpointe Dr 2","City":"La Palma","State":"CA","Zip":"90623"},{"Location":"ROSENDIN ELECTRIC","Address":"5572 Fresca Dr","City":"La Palma","State":"CA","Zip":"90623"},{"Location":"ADP","Address":"5355 Orangethorpe Ave","City":"La Palma","State":"CA","Zip":"90623"},{"Location":"BOBALOCA","Address":"4947 La Palma Ave","City":"La Palma","State":"CA","Zip":"90623"},{"Location":"BULGOGI HOUSE","Address":"6901 Walker St","City":"La Palma","State":"CA","Zip":"90623"},{"Location":"CALIFORNIA BANK & TRUST","Address":"5471 Orangethorpe Ave","City":"La Palma","State":"CA","Zip":"90623"},{"Location":"CARE AMBULANCE","Address":"7872 Walker St 103","City":"La Palma","State":"CA","Zip":"90623"},{"Location":"CLIFF'S HIDEAWAY","Address":"5442 Orangethorpe Ave","City":"La Palma","State":"CA","Zip":"90623"},{"Location":"CONCENTRA","Address":"40 Centerpointe Dr","City":"La Palma","State":"CA","Zip":"90623"},{"Location":"DAVITA #5790 LAPALMA","Address":"5451 La Palma Ave 35","City":"La Palma","State":"CA","Zip":"90623"},{"Location":"GOLF BUDDY","Address":"20 Center Pointe Dr 140","City":"La Palma","State":"CA","Zip":"90623"},{"Location":"GONZALES DDS INC%2C BEVERLY","Address":"5031 La Palma Ave B","City":"La Palma","State":"CA","Zip":"90623"},{"Location":"LA CAPILLA MEXICAN RESTAURANT","Address":"4997 La Palma Ave","City":"La Palma","State":"CA","Zip":"90623"},{"Location":"NTC","Address":"5422 Montclair Cir","City":"La Palma","State":"CA","Zip":"90623"},{"Location":"PAESANOS PIZZA","Address":"5440 Orangethorpe Ave","City":"La Palma","State":"CA","Zip":"90623"},{"Location":"PANDA INN INC","Address":"2 Centerpointe Dr","City":"La Palma","State":"CA","Zip":"90623"},{"Location":"PETRA-ICS","Address":"1 Center Pointe Dr 200","City":"La Palma","State":"CA","Zip":"90623"},{"Location":"RIDERS CLUB","Address":"5511 Orangethorpe Ave","City":"La Palma","State":"CA","Zip":"90623"},{"Location":"ROMA RISTORANTE","Address":"30 Centerpointe Dr 2","City":"La Palma","State":"CA","Zip":"90623"},{"Location":"ROSENDIN ELECTRIC","Address":"5572 Fresca Dr","City":"La Palma","State":"CA","Zip":"90623"}]