[{"Location":"ACES BBQ","Address":"2050 W Whittier Blvd","City":"La Habra","State":"CA","Zip":"90631"},{"Location":"ALL IN ONE CARE","Address":"1030 S Cypress St A","City":"La Habra","State":"CA","Zip":"90631"},{"Location":"APPLEBEE'S #2150013","Address":"1238 W Imperial Hwy","City":"La Habra","State":"CA","Zip":"90631"},{"Location":"BASKIN","Address":"1493 W Whittier Blvd","City":"La Habra","State":"CA","Zip":"90631"},{"Location":"BLACKFLAG MOTORSPORTS","Address":"521 Gerry St","City":"La Habra","State":"CA","Zip":"90631"},{"Location":"BLACKJACK PIZZERIA","Address":"2429 W Whittier Blvd","City":"La Habra","State":"CA","Zip":"90631"},{"Location":"BORD CO","Address":"1240 W Imperial Hwy A","City":"La Habra","State":"CA","Zip":"90631"},{"Location":"CABINET MAGIC","Address":"1801 E Lambert Rd","City":"La Habra","State":"CA","Zip":"90631"},{"Location":"CALIFORNIA BANK & TRUST","Address":"401 W Whittier Blvd 2fl","City":"La Habra","State":"CA","Zip":"90631"},{"Location":"CALIFORNIA PROPERTY AND REALTY","Address":"731 N Beach Blvd 200","City":"La Habra","State":"CA","Zip":"90631"},{"Location":"CHILI'S #0761","Address":"1600 W Imperial Hwy","City":"La Habra","State":"CA","Zip":"90631"},{"Location":"CJ CJ ENTERPRISES INC.","Address":"1501 W Whittier Blvd","City":"La Habra","State":"CA","Zip":"90631"},{"Location":"COASTAL DENTAL CARE","Address":"1216 S Idaho St C","City":"La Habra","State":"CA","Zip":"90631"},{"Location":"CONTINENTEL DELI CATESSE","Address":"1510 W Imperial Hwy Suite","City":"La Habra","State":"CA","Zip":"90631"},{"Location":"CTYLINEANIMALHOSPITAL","Address":"2551 W Whittier Blvd","City":"La Habra","State":"CA","Zip":"90631"},{"Location":"CVS PHARMACY INC","Address":"1111 S Harbor Blvd","City":"La Habra","State":"CA","Zip":"90631"},{"Location":"CVS PHARMACY INC","Address":"777 S Harbor Blvd","City":"La Habra","State":"CA","Zip":"90631"},{"Location":"DANIELS TIRE SERVICE","Address":"2650 W Whittier Blvd","City":"La Habra","State":"CA","Zip":"90631"},{"Location":"DONA CHELA BAR","Address":"334 N Harbor Blvd","City":"La Habra","State":"CA","Zip":"90631"},{"Location":"DUFFYS","Address":"531 W Imperial Hwy","City":"La Habra","State":"CA","Zip":"90631"},{"Location":"ELCE STAR NAILS","Address":"2121 W Imperial Hwy C","City":"La Habra","State":"CA","Zip":"90631"},{"Location":"FARPOINTE INC","Address":"151 E Whittier Blvd E","City":"La Habra","State":"CA","Zip":"90631"},{"Location":"FAST 5 PIZZA","Address":"1951 E La Habra Blvd Steg","City":"La Habra","State":"CA","Zip":"90631"},{"Location":"FIRESTONE #011274","Address":"1071 S Beach Blvd","City":"La Habra","State":"CA","Zip":"90631"},{"Location":"FULE NOODLE & GRILL","Address":"1202 S Idaho St","City":"La Habra","State":"CA","Zip":"90631"},{"Location":"GENERATION NAIL 1","Address":"231 S Harbor Blvd","City":"La Habra","State":"CA","Zip":"90631"},{"Location":"GENTLE DENTAL LA HABRA","Address":"331 N Harbor Blvd","City":"La Habra","State":"CA","Zip":"90631"},{"Location":"GOODYEAR","Address":"421 E Imperial Hwy","City":"La Habra","State":"CA","Zip":"90631"},{"Location":"GYMNASTIC CENTER","Address":"341 W Imperial Hwy","City":"La Habra","State":"CA","Zip":"90631"},{"Location":"HAIR TYME","Address":"1040 E Whittier Blvd 104","City":"La Habra","State":"CA","Zip":"90631"},{"Location":"HARBOR DENTAL CARE","Address":"1150 E Imperial Hwy","City":"La Habra","State":"CA","Zip":"90631"},{"Location":"HARBOR MEXICAN FOOD","Address":"1460 S Harbor Blvd C","City":"La Habra","State":"CA","Zip":"90631"},{"Location":"HEDZ OR TALES","Address":"211 E Imperial Hwy","City":"La Habra","State":"CA","Zip":"90631"},{"Location":"HO HO CHINA","Address":"1910 W Whittier Blvd","City":"La Habra","State":"CA","Zip":"90631"},{"Location":"HOT SHOTS","Address":"1500 E La Habra Blvd","City":"La Habra","State":"CA","Zip":"90631"},{"Location":"IMPERIAL BARBER","Address":"2101 W Imperial Hwy B","City":"La Habra","State":"CA","Zip":"90631"},{"Location":"IV AUTO REPAIR","Address":"919 E Whittier Blvd","City":"La Habra","State":"CA","Zip":"90631"},{"Location":"IVACYNS BEAUTY SALON","Address":"374 E La Habra Blvd","City":"La Habra","State":"CA","Zip":"90631"},{"Location":"JERSEY MIKES SUBS","Address":"1370 S Beach Blvd G","City":"La Habra","State":"CA","Zip":"90631"},{"Location":"JIFFY LUBE 31","Address":"1580 W Emperial Hwy","City":"La Habra","State":"CA","Zip":"90631"},{"Location":"JOES SUSHI","Address":"660 N Beach Blvd","City":"La Habra","State":"CA","Zip":"90631"},{"Location":"JQS CUTS INC","Address":"2290 W Whittier Blvd","City":"La Habra","State":"CA","Zip":"90631"},{"Location":"KINGDOM RESOURCES","Address":"1299 S Harvor","City":"La Habra","State":"CA","Zip":"90631"},{"Location":"KINNI TOBACCO","Address":"1581 W Whittier Blvd","City":"La Habra","State":"CA","Zip":"90631"},{"Location":"KOHL'S #596","Address":"1610 W Imperial Hwy","City":"La Habra","State":"CA","Zip":"90631"},{"Location":"KUT N BEAUTY INC","Address":"2050 W Whittier Blvd","City":"La Habra","State":"CA","Zip":"90631"},{"Location":"L A COUNTY FIRE","Address":"1000 W Risner Way","City":"La Habra","State":"CA","Zip":"90631"},{"Location":"LA BARCA REST & CANTINA","Address":"151 W Whittier Blvd","City":"La Habra","State":"CA","Zip":"90631"},{"Location":"LA FITNESS #46","Address":"1621 W Imperial Hwy","City":"La Habra","State":"CA","Zip":"90631"},{"Location":"LA HABRA DENTAL OFFICE","Address":"386 N Harbor Blvd","City":"La Habra","State":"CA","Zip":"90631"},{"Location":"LA HABRA MOTORS SERVICE","Address":"980 E Whittier Blvd","City":"La Habra","State":"CA","Zip":"90631"},{"Location":"LA HABRA NORTH","Address":"911 N Harbor Blvd","City":"La Habra","State":"CA","Zip":"90631"},{"Location":"LA REYANA DE LA HABRA","Address":"211 S Habra Blvd","City":"La Habra","State":"CA","Zip":"90631"},{"Location":"LASCARIS","Address":"1360 S Beach Blvd","City":"La Habra","State":"CA","Zip":"90631"},{"Location":"LEAKY TIKI","Address":"280 E La Habra Blvd","City":"La Habra","State":"CA","Zip":"90631"},{"Location":"LINDYS COLD PLANING","Address":"625 South Mountain View Ave","City":"La Habra","State":"CA","Zip":"90631"},{"Location":"LOVE LETTER PIZZA & CHIC","Address":"1180 S Idaho St","City":"La Habra","State":"CA","Zip":"90631"},{"Location":"M S FLOWER SHOP","Address":"401 S Harbor Blvd A","City":"La Habra","State":"CA","Zip":"90631"},{"Location":"MARIE CALENDAR","Address":"340 E Whittier Blvd","City":"La Habra","State":"CA","Zip":"90631"},{"Location":"MCDONNELL HOLLAND LAW","Address":"418 E La Habra Blvd","City":"La Habra","State":"CA","Zip":"90631"},{"Location":"MEDPOST URGENT CARE","Address":"1040 W Imperial Hwy D","City":"La Habra","State":"CA","Zip":"90631"},{"Location":"MIYAKO","Address":"1210 W Imperial Hwy E","City":"La Habra","State":"CA","Zip":"90631"},{"Location":"MOBILE FLEET WASH INC.","Address":"511 S Harbor Blvd H","City":"La Habra","State":"CA","Zip":"90631"},{"Location":"MOOSE LODGE","Address":"2555 W La Habra Blvd","City":"La Habra","State":"CA","Zip":"90631"},{"Location":"MOUNTAIN MIKES PIZZA","Address":"1240 W Imperial Hwy B","City":"La Habra","State":"CA","Zip":"90631"},{"Location":"NAMEPLATE CO.","Address":"2531 W La Habra Blvd","City":"La Habra","State":"CA","Zip":"90631"},{"Location":"NEW NAILS","Address":"400 N Harbor Blvd","City":"La Habra","State":"CA","Zip":"90631"},{"Location":"NIKO NIKO LA HABRA","Address":"1350 S Beach Blvd E","City":"La Habra","State":"CA","Zip":"90631"},{"Location":"OSTIONERIA COLIMA","Address":"1651 W Whittier Blvd","City":"La Habra","State":"CA","Zip":"90631"},{"Location":"PADILLA","Address":"700 Lambert Rd 17","City":"La Habra","State":"CA","Zip":"90631"},{"Location":"PAPPYS PIZZA","Address":"534 W Lambert Rd","City":"La Habra","State":"CA","Zip":"90631"},{"Location":"PARK REGENCY CARE CENTER","Address":"1770 W La Habra Blvd","City":"La Habra","State":"CA","Zip":"90631"},{"Location":"PATRICK OCONNOR DDS","Address":"1400 W Imperial Hwy I","City":"La Habra","State":"CA","Zip":"90631"},{"Location":"PEPZ PIZZERIA & EATERY","Address":"165 S Harbor Blvd","City":"La Habra","State":"CA","Zip":"90631"},{"Location":"PHOLY RES","Address":"634 E Whittier Blvd","City":"La Habra","State":"CA","Zip":"90631"},{"Location":"PIZZAREV","Address":"1841 W Imperial Hwy 2b","City":"La Habra","State":"CA","Zip":"90631"},{"Location":"PORTOFINO ITALIAN RESTAURANT","Address":"651 W Whittier Blvd","City":"La Habra","State":"CA","Zip":"90631"},{"Location":"PRO COMPOUNDING PHARMACY","Address":"721 W Whittier Blvd H","City":"La Habra","State":"CA","Zip":"90631"},{"Location":"PRODUCTION PLUMBING","Address":"104 E Electric Ave","City":"La Habra","State":"CA","Zip":"90631"},{"Location":"PROPER GENTS","Address":"524 W Lambert Rd","City":"La Habra","State":"CA","Zip":"90631"},{"Location":"QUICK CHECK SMOG CHECK","Address":"621 W Whittier Blvd A","City":"La Habra","State":"CA","Zip":"90631"},{"Location":"RANCH HOUSE 0001","Address":"1000 S Beach Blvd","City":"La Habra","State":"CA","Zip":"90631"},{"Location":"RED ROBIN #56","Address":"1631 W Imperial Hwy","City":"La Habra","State":"CA","Zip":"90631"},{"Location":"RESTAURANT EL CHOLO","Address":"840 E Whittier Blvr","City":"La Habra","State":"CA","Zip":"90631"},{"Location":"RICARDOS EL RANCHITO","Address":"1351 S Beach Blvd H","City":"La Habra","State":"CA","Zip":"90631"},{"Location":"ROUND TABLE PIZZA","Address":"1202 S Idaho St E","City":"La Habra","State":"CA","Zip":"90631"},{"Location":"ROYER LANDSCAPIE CONSTRU","Address":"220 E 2nd Ave","City":"La Habra","State":"CA","Zip":"90631"},{"Location":"SALON","Address":"1121 W Whittier Blvd","City":"La Habra","State":"CA","Zip":"90631"},{"Location":"SAN MARCOS MEDICAL","Address":"121 N Euclid St","City":"La Habra","State":"CA","Zip":"90631"},{"Location":"SCHOOLS FIRST FEDERAL CU","Address":"1701 W Imperial Hwy A","City":"La Habra","State":"CA","Zip":"90631"},{"Location":"SCOTTRADE 54Y","Address":"1360 S Beach Blvd B","City":"La Habra","State":"CA","Zip":"90631"},{"Location":"SHAKEY PIZZA","Address":"315 W Whittier Blvd","City":"La Habra","State":"CA","Zip":"90631"},{"Location":"SHEPARD   BROS","Address":"541 S Cypress St","City":"La Habra","State":"CA","Zip":"90631"},{"Location":"SHEPARD BROS","Address":"501 S Cypress St","City":"La Habra","State":"CA","Zip":"90631"},{"Location":"SPECIALIZED MECHANIC","Address":"2301 E Lambert Rd F","City":"La Habra","State":"CA","Zip":"90631"},{"Location":"SPORT CLIPS CA526","Address":"1202 S Idaho St G","City":"La Habra","State":"CA","Zip":"90631"},{"Location":"SPORTS AUTHORITY 684","Address":"1531 W Imperial Hwy","City":"La Habra","State":"CA","Zip":"90631"},{"Location":"SQUIRES INN","Address":"714 E Whittier Blvd","City":"La Habra","State":"CA","Zip":"90631"},{"Location":"ST JOSEPH HERITAGE HEALTH CARE","Address":"731 N Beach Blvd","City":"La Habra","State":"CA","Zip":"90631"},{"Location":"STIX HOLDINGS 725","Address":"1331 W Imperial Hwy","City":"La Habra","State":"CA","Zip":"90631"},{"Location":"SUN CAP FIN CONSULTANTS INC","Address":"605 S Palm St J","City":"La Habra","State":"CA","Zip":"90631"},{"Location":"SUNNY HILLS BARBER SHOP","Address":"1546 S Harbor Blvd","City":"La Habra","State":"CA","Zip":"90631"},{"Location":"SUNNY HILLS LIQUOR","Address":"1510 S Harbor Blvd","City":"La Habra","State":"CA","Zip":"90631"},{"Location":"SUNSET SALON","Address":"1951 E La Habra Blvd C","City":"La Habra","State":"CA","Zip":"90631"},{"Location":"SUPERCHARGER USA","Address":"1120 S Cypress St","City":"La Habra","State":"CA","Zip":"90631"},{"Location":"SUSHI FACTORY LA HABRA","Address":"1933 W Imperial Hwy","City":"La Habra","State":"CA","Zip":"90631"},{"Location":"SUSHI MIDA CORP","Address":"1531 W Whittier Blvd","City":"La Habra","State":"CA","Zip":"90631"},{"Location":"TARGET","Address":"1000 W Imperial Hwy","City":"La Habra","State":"CA","Zip":"90631"},{"Location":"THE HITTING ZONE","Address":"1020 S Cypress St","City":"La Habra","State":"CA","Zip":"90631"},{"Location":"THE MATTRESS PLACE","Address":"307 E Imperial Hwy","City":"La Habra","State":"CA","Zip":"90631"},{"Location":"THE SPOT MENS HAIR","Address":"605 W Whittier Blvd","City":"La Habra","State":"CA","Zip":"90631"},{"Location":"THE STAR KOREAN CHURCH","Address":"1201 S Beach Blvd 110","City":"La Habra","State":"CA","Zip":"90631"},{"Location":"THE SUMMER GROUP","Address":"1530 W Whittier Blvd A","City":"La Habra","State":"CA","Zip":"90631"},{"Location":"THROUGH THE GARDEN GATE","Address":"830 E Whittier Blvd","City":"La Habra","State":"CA","Zip":"90631"},{"Location":"THROUGH THE GARDEN GATES","Address":"11100 S Cypruss Suite D","City":"La Habra","State":"CA","Zip":"90631"},{"Location":"TIGER AUTOMOTIVR","Address":"339 N Harbor Blvd","City":"La Habra","State":"CA","Zip":"90631"},{"Location":"TITANIC NAILS AND SPA","Address":"961 N Harbor Blvd","City":"La Habra","State":"CA","Zip":"90631"},{"Location":"UNIQUE NAILS","Address":"1810 W Whittier Blvd","City":"La Habra","State":"CA","Zip":"90631"},{"Location":"VAPOR ICE","Address":"1301 S Beach Blvd I1","City":"La Habra","State":"CA","Zip":"90631"},{"Location":"WEST COAST COLLISION","Address":"361 Harbor Blvd","City":"La Habra","State":"CA","Zip":"90631"},{"Location":"WESTERN TANK","Address":"2301 E Lambert Rd K","City":"La Habra","State":"CA","Zip":"90631"},{"Location":"WESTRIDGE GOLF","Address":"1400 S La Habra Hills Dr","City":"La Habra","State":"CA","Zip":"90631"},{"Location":"WOK AND GRILL","Address":"1945 W La Habra Blvd","City":"La Habra","State":"CA","Zip":"90631"},{"Location":"YUMMY OMG INC. LA HABRA","Address":"1211 E La Habra Blvd","City":"La Habra","State":"CA","Zip":"90631"},{"Location":"VIDA HEALTH CLINIC","Address":"202 La Habra Blvd","City":"La Habra Blvd","State":"CA","Zip":"90631"},{"Location":"AUTO PERFECTIONS","Address":"950 E Whittier Blvd","City":"La Habra Heights","State":"CA","Zip":"90631"},{"Location":"AVALON ELECTRIC","Address":"759 Via Patricio","City":"La Habra Heights","State":"CA","Zip":"90631"},{"Location":"CITY OF LA HABRA HEIGHTS","Address":"1245 Hacienda Rd","City":"La Habra Heights","State":"CA","Zip":"90631"},{"Location":"HACIENDA GOLF CLUB","Address":"718 East Rd","City":"La Habra Heights","State":"CA","Zip":"90631"},{"Location":"HEADLINES BARBERSHOP","Address":"1488 West Rd","City":"La Habra Heights","State":"CA","Zip":"90631"},{"Location":"J L MOTORWORKS INC.","Address":"420 E Whittier Blvd","City":"La Habra Heights","State":"CA","Zip":"90631"},{"Location":"LILLIS RESTAURANT","Address":"421 N Harbor Blvd","City":"La Habra Heights","State":"CA","Zip":"90631"},{"Location":"PURPLE CORP","Address":"855 Reposado Dr","City":"La Habra Heights","State":"CA","Zip":"90631"}]