[{"Location":"ACTION AUTO INC","Address":"9052 Walker St","City":"Cypress","State":"CA","Zip":"90630"},{"Location":"AMERICAN HONDA FINANCE CORP","Address":"10801 Walker St 140","City":"Cypress","State":"CA","Zip":"90630"},{"Location":"AMERICAN LEGION #295","Address":"5646 Corporate Ave","City":"Cypress","State":"CA","Zip":"90630"},{"Location":"ANYTIME FITNESS CYPRESS","Address":"6911 Katella Ave","City":"Cypress","State":"CA","Zip":"90630"},{"Location":"ARMI ALIAN DMD","Address":"5252 Lincoln Ave","City":"Cypress","State":"CA","Zip":"90630"},{"Location":"BARBER POLE","Address":"4155 Ball Rd","City":"Cypress","State":"CA","Zip":"90630"},{"Location":"BOWERMASTER & ASSOCIATES","Address":"10805 Holder St 350","City":"Cypress","State":"CA","Zip":"90630"},{"Location":"BRUSTERS ICE CREAM","Address":"9963 Walker St","City":"Cypress","State":"CA","Zip":"90630"},{"Location":"CALI FISH GRILL CYPRESS","Address":"10569 Valley View St","City":"Cypress","State":"CA","Zip":"90630"},{"Location":"CAMPUS BILLIARDS","Address":"9111 Valley View St 107","City":"Cypress","State":"CA","Zip":"90630"},{"Location":"CHILI'S #0167","Address":"10643 Valley View St","City":"Cypress","State":"CA","Zip":"90630"},{"Location":"CHRISTIE DIGITAL","Address":"5740 Cerritos Ave","City":"Cypress","State":"CA","Zip":"90630"},{"Location":"CHRISTIE DIGITAL","Address":"10550 Camden Dr","City":"Cypress","State":"CA","Zip":"90630"},{"Location":"CHUZE FITNESS","Address":"9851 Walker St","City":"Cypress","State":"CA","Zip":"90630"},{"Location":"CMS","Address":"11130 Holder St 200","City":"Cypress","State":"CA","Zip":"90630"},{"Location":"COMPREHENSIVE HEALTH MGT INC5","Address":"10803 Hope St B","City":"Cypress","State":"CA","Zip":"90630"},{"Location":"CYPRESS AUTO REPAIR","Address":"6036 Cerritos Ave","City":"Cypress","State":"CA","Zip":"90630"},{"Location":"CYPRESS CAR SPA","Address":"6000 Cerritos Ave","City":"Cypress","State":"CA","Zip":"90630"},{"Location":"CYPRESS DENTAL GROUP","Address":"9922 Walker St C","City":"Cypress","State":"CA","Zip":"90630"},{"Location":"CYPRESS POLICE DEPARTMENT","Address":"5275 Orange Ave","City":"Cypress","State":"CA","Zip":"90630"},{"Location":"CYPRESS URGENT CARE","Address":"6876 Katella Ave","City":"Cypress","State":"CA","Zip":"90630"},{"Location":"DRS TECHNOLOGIES","Address":"10600 Valley View St","City":"Cypress","State":"CA","Zip":"90630"},{"Location":"ECHIZEN","Address":"9111 Valley View St 113","City":"Cypress","State":"CA","Zip":"90630"},{"Location":"EL TORITO & ACAPULCO RESTURANT","Address":"5660 Katella Ave 100","City":"Cypress","State":"CA","Zip":"90630"},{"Location":"EL TORITO 7232","Address":"5995 Katella Ave","City":"Cypress","State":"CA","Zip":"90630"},{"Location":"EL ZARAPE RESTAURANT","Address":"4197 Ball Rd","City":"Cypress","State":"CA","Zip":"90630"},{"Location":"EVERGREEN AMERICA CORP","Address":"6021 Katella Ave 200","City":"Cypress","State":"CA","Zip":"90630"},{"Location":"FIRE STATION 17","Address":"4991 Cerritos Ave","City":"Cypress","State":"CA","Zip":"90630"},{"Location":"FIVE CITY AUTO","Address":"4620 Lincoln Ave","City":"Cypress","State":"CA","Zip":"90630"},{"Location":"HAMPTON INN LOS ANGELES(58538)","Address":"10900 Yamaha Way","City":"Cypress","State":"CA","Zip":"90630"},{"Location":"HEALTH CARE SYNERGY","Address":"5555 Corporate Ave","City":"Cypress","State":"CA","Zip":"90630"},{"Location":"HEALTHSMART MANAGEMNT","Address":"10855 Business Center Dr","City":"Cypress","State":"CA","Zip":"90630"},{"Location":"HEARTSCAPE","Address":"10601 Walker St","City":"Cypress","State":"CA","Zip":"90630"},{"Location":"HYBRID APPAREL","Address":"5757 Plaza Dr","City":"Cypress","State":"CA","Zip":"90630"},{"Location":"HYBRID APPAREL","Address":"10711 Walker St","City":"Cypress","State":"CA","Zip":"90630"},{"Location":"I PHO","Address":"9515 Valley View St","City":"Cypress","State":"CA","Zip":"90630"},{"Location":"J PEREZ ASSOCIATES 2 INC","Address":"10833 Valley View St 250","City":"Cypress","State":"CA","Zip":"90630"},{"Location":"JDM","Address":"4360 Lincoln Ave","City":"Cypress","State":"CA","Zip":"90630"},{"Location":"JIMS LIQUOR MART","Address":"4991 Orange Ave","City":"Cypress","State":"CA","Zip":"90630"},{"Location":"JONES LANG LASALLE","Address":"5701 Katella Ave","City":"Cypress","State":"CA","Zip":"90630"},{"Location":"JONES LANG LASALLE 2","Address":"5757 Plaza Dr","City":"Cypress","State":"CA","Zip":"90630"},{"Location":"KOHL'S #1387","Address":"10201 Valley View St","City":"Cypress","State":"CA","Zip":"90630"},{"Location":"KPMG LLP","Address":"6032 Katella Ave","City":"Cypress","State":"CA","Zip":"90630"},{"Location":"LOFT AT CYPRESS","Address":"5950 Corporate Ave","City":"Cypress","State":"CA","Zip":"90630"},{"Location":"LPV CONSTRUCTION","Address":"6072 Lincoln Ave D","City":"Cypress","State":"CA","Zip":"90630"},{"Location":"LYMANFRG COR","Address":"10205 Valley View St 101","City":"Cypress","State":"CA","Zip":"90630"},{"Location":"MANHATTAN BEACHWEAR INC","Address":"10700 Valley View St","City":"Cypress","State":"CA","Zip":"90630"},{"Location":"MEDCOM INC","Address":"6060 Phyllis Dr","City":"Cypress","State":"CA","Zip":"90630"},{"Location":"MITSUBISHI ELECTRIC US%2C INC","Address":"5900 Katella Ave A","City":"Cypress","State":"CA","Zip":"90630"},{"Location":"MUG SHOTS","Address":"10461 Denni St","City":"Cypress","State":"CA","Zip":"90630"},{"Location":"MURPHY3 INC","Address":"5665 Plaza Dr 350","City":"Cypress","State":"CA","Zip":"90630"},{"Location":"PHILLIPS TIRES","Address":"5493 Cerritos Ave","City":"Cypress","State":"CA","Zip":"90630"},{"Location":"PHO SO 9","Address":"9927 Walker St","City":"Cypress","State":"CA","Zip":"90630"},{"Location":"PHYSIOTHERAPY ASSOCIATES","Address":"9827 Walker St","City":"Cypress","State":"CA","Zip":"90630"},{"Location":"PIZZA HUT- 024832","Address":"4065 Ball Rd","City":"Cypress","State":"CA","Zip":"90630"},{"Location":"POWER FLO PRODUCTS","Address":"5573 Market Pl","City":"Cypress","State":"CA","Zip":"90630"},{"Location":"PPC","Address":"5950 Lakeshore Dr","City":"Cypress","State":"CA","Zip":"90630"},{"Location":"PREMIER DISPLAYS","Address":"11261 Warland Dr","City":"Cypress","State":"CA","Zip":"90630"},{"Location":"RELIANCE STEEL AND ALUMIUM CO","Address":"10801 Walker St","City":"Cypress","State":"CA","Zip":"90630"},{"Location":"RESEARCH DESIGN SPECIALISTS","Address":"5552 Cerritos Ave K","City":"Cypress","State":"CA","Zip":"90630"},{"Location":"ROOSTER PUB","Address":"6072 Lincoln Ave B","City":"Cypress","State":"CA","Zip":"90630"},{"Location":"ROUND TABLE PIZZA","Address":"10101 Valley View St","City":"Cypress","State":"CA","Zip":"90630"},{"Location":"ROYAL SQUARE","Address":"4300 Lincoln Ave","City":"Cypress","State":"CA","Zip":"90630"},{"Location":"SBNKH INC","Address":"10545 Valley View St","City":"Cypress","State":"CA","Zip":"90630"},{"Location":"SENOR BIG ED","Address":"5490 Lincoln Ave","City":"Cypress","State":"CA","Zip":"90630"},{"Location":"SHIN JU KU","Address":"4498 Lincoln Ave","City":"Cypress","State":"CA","Zip":"90630"},{"Location":"SIKA SARNAFIL","Address":"6590 Darin Way","City":"Cypress","State":"CA","Zip":"90630"},{"Location":"SPORT CLIPS CA505","Address":"10071 Valley View St","City":"Cypress","State":"CA","Zip":"90630"},{"Location":"SUNGARD","Address":"6803 International Ave","City":"Cypress","State":"CA","Zip":"90630"},{"Location":"SUSHI WORLD","Address":"10953 Meridian Dr","City":"Cypress","State":"CA","Zip":"90630"},{"Location":"TAYCO","Address":"10874 Hope St","City":"Cypress","State":"CA","Zip":"90630"},{"Location":"THE FADE DISTRICT","Address":"5365 Lincoln Ave","City":"Cypress","State":"CA","Zip":"90630"},{"Location":"TIRE KINGDOM B-5807","Address":"6052 Cerritos Ave","City":"Cypress","State":"CA","Zip":"90630"},{"Location":"UGS","Address":"10824 Hope St","City":"Cypress","State":"CA","Zip":"90630"},{"Location":"UNITED HEALTH CARE","Address":"10801 Walker St","City":"Cypress","State":"CA","Zip":"90630"},{"Location":"USHIO","Address":"5440 Cerritos Ave","City":"Cypress","State":"CA","Zip":"90630"},{"Location":"VANS","Address":"6550 Katella Ave","City":"Cypress","State":"CA","Zip":"90630"},{"Location":"VANS A DIVISION OF VF OUTDOOR","Address":"6550 Katella Ave","City":"Cypress","State":"CA","Zip":"90630"},{"Location":"VAPE ESCAPE","Address":"5363 Lincoln Ave","City":"Cypress","State":"CA","Zip":"90630"},{"Location":"VCA COLLEGE PARK","Address":"5839 Ball Rd","City":"Cypress","State":"CA","Zip":"90630"},{"Location":"WALKER STREET IMAG CARE","Address":"10601 Walker St 150","City":"Cypress","State":"CA","Zip":"90630"},{"Location":"WEST COAST CLINICAL TRAILS","Address":"5630 Cerritos Ave","City":"Cypress","State":"CA","Zip":"90630"},{"Location":"WOODFIN HOTEL RESTAURANT","Address":"5905 Corporate Ave","City":"Cypress","State":"CA","Zip":"90630"},{"Location":"YAESU","Address":"6125 Phyllis Dr","City":"Cypress","State":"CA","Zip":"90630"},{"Location":"YOUNG HEALTH CARE","Address":"6336 Lincoln Ave","City":"Cypress","State":"CA","Zip":"90630"},{"Location":"ACTION AUTO INC","Address":"9052 Walker St","City":"Cypress","State":"CA","Zip":"90630"},{"Location":"AMERICAN HONDA FINANCE CORP","Address":"10801 Walker St 140","City":"Cypress","State":"CA","Zip":"90630"},{"Location":"AMERICAN LEGION #295","Address":"5646 Corporate Ave","City":"Cypress","State":"CA","Zip":"90630"},{"Location":"ANYTIME FITNESS CYPRESS","Address":"6911 Katella Ave","City":"Cypress","State":"CA","Zip":"90630"},{"Location":"ARMI ALIAN DMD","Address":"5252 Lincoln Ave","City":"Cypress","State":"CA","Zip":"90630"},{"Location":"BARBER POLE","Address":"4155 Ball Rd","City":"Cypress","State":"CA","Zip":"90630"},{"Location":"BOWERMASTER & ASSOCIATES","Address":"10805 Holder St 350","City":"Cypress","State":"CA","Zip":"90630"},{"Location":"CALI FISH GRILL CYPRESS","Address":"10569 Valley View St","City":"Cypress","State":"CA","Zip":"90630"},{"Location":"CAMPUS BILLIARDS","Address":"9111 Valley View St 107","City":"Cypress","State":"CA","Zip":"90630"},{"Location":"CHILI'S #0167","Address":"10643 Valley View St","City":"Cypress","State":"CA","Zip":"90630"},{"Location":"CHRISTIE DIGITAL","Address":"10550 Camden Dr","City":"Cypress","State":"CA","Zip":"90630"},{"Location":"CHRISTIE DIGITAL","Address":"5740 Cerritos Ave","City":"Cypress","State":"CA","Zip":"90630"},{"Location":"CHUZE FITNESS","Address":"9851 Walker St","City":"Cypress","State":"CA","Zip":"90630"},{"Location":"CMS","Address":"11130 Holder St 200","City":"Cypress","State":"CA","Zip":"90630"},{"Location":"COMPREHENSIVE HEALTH MGT INC5","Address":"10803 Hope St B","City":"Cypress","State":"CA","Zip":"90630"},{"Location":"CYPRESS AUTO REPAIR","Address":"6036 Cerritos Ave","City":"Cypress","State":"CA","Zip":"90630"},{"Location":"CYPRESS CAR SPA","Address":"6000 Cerritos Ave","City":"Cypress","State":"CA","Zip":"90630"},{"Location":"CYPRESS DENTAL GROUP","Address":"9922 Walker St C","City":"Cypress","State":"CA","Zip":"90630"},{"Location":"CYPRESS POLICE DEPARTMENT","Address":"5275 Orange Ave","City":"Cypress","State":"CA","Zip":"90630"},{"Location":"CYPRESS URGENT CARE","Address":"6876 Katella Ave","City":"Cypress","State":"CA","Zip":"90630"},{"Location":"DRS TECHNOLOGIES","Address":"10600 Valley View St","City":"Cypress","State":"CA","Zip":"90630"},{"Location":"ECHIZEN","Address":"9111 Valley View St 113","City":"Cypress","State":"CA","Zip":"90630"},{"Location":"EL TORITO & ACAPULCO RESTURANT","Address":"5660 Katella Ave 100","City":"Cypress","State":"CA","Zip":"90630"},{"Location":"EL TORITO 7232","Address":"5995 Katella Ave","City":"Cypress","State":"CA","Zip":"90630"},{"Location":"EL ZARAPE RESTAURANT","Address":"4197 Ball Rd","City":"Cypress","State":"CA","Zip":"90630"},{"Location":"EVERGREEN AMERICA CORP","Address":"6021 Katella Ave 200","City":"Cypress","State":"CA","Zip":"90630"},{"Location":"FIRE STATION 17","Address":"4991 Cerritos Ave","City":"Cypress","State":"CA","Zip":"90630"},{"Location":"FIVE CITY AUTO","Address":"4620 Lincoln Ave","City":"Cypress","State":"CA","Zip":"90630"},{"Location":"HAMPTON INN LOS ANGELES(58538)","Address":"10900 Yamaha Way","City":"Cypress","State":"CA","Zip":"90630"},{"Location":"HEALTH CARE SYNERGY","Address":"5555 Corporate Ave","City":"Cypress","State":"CA","Zip":"90630"},{"Location":"HEALTHSMART MANAGEMNT","Address":"10855 Business Center Dr","City":"Cypress","State":"CA","Zip":"90630"},{"Location":"HEARTSCAPE","Address":"10601 Walker St","City":"Cypress","State":"CA","Zip":"90630"},{"Location":"HYBRID APPAREL","Address":"10711 Walker St","City":"Cypress","State":"CA","Zip":"90630"},{"Location":"HYBRID APPAREL","Address":"5757 Plaza Dr","City":"Cypress","State":"CA","Zip":"90630"},{"Location":"I PHO","Address":"9515 Valley View St","City":"Cypress","State":"CA","Zip":"90630"},{"Location":"J PEREZ ASSOCIATES 2 INC","Address":"10833 Valley View St 250","City":"Cypress","State":"CA","Zip":"90630"},{"Location":"JDM","Address":"4360 Lincoln Ave","City":"Cypress","State":"CA","Zip":"90630"},{"Location":"JIMS LIQUOR MART","Address":"4991 Orange Ave","City":"Cypress","State":"CA","Zip":"90630"},{"Location":"JONES LANG LASALLE","Address":"5701 Katella Ave","City":"Cypress","State":"CA","Zip":"90630"},{"Location":"JONES LANG LASALLE 2","Address":"5757 Plaza Dr","City":"Cypress","State":"CA","Zip":"90630"},{"Location":"KOHL'S #1387","Address":"10201 Valley View St","City":"Cypress","State":"CA","Zip":"90630"},{"Location":"KPMG LLP","Address":"6032 Katella Ave","City":"Cypress","State":"CA","Zip":"90630"},{"Location":"LOFT AT CYPRESS","Address":"5950 Corporate Ave","City":"Cypress","State":"CA","Zip":"90630"},{"Location":"LPV CONSTRUCTION","Address":"6072 Lincoln Ave D","City":"Cypress","State":"CA","Zip":"90630"},{"Location":"LYMANFRG COR","Address":"10205 Valley View St 101","City":"Cypress","State":"CA","Zip":"90630"},{"Location":"MANHATTAN BEACHWEAR INC","Address":"10700 Valley View St","City":"Cypress","State":"CA","Zip":"90630"},{"Location":"MEDCOM INC","Address":"6060 Phyllis Dr","City":"Cypress","State":"CA","Zip":"90630"},{"Location":"MITSUBISHI ELECTRIC US%2C INC","Address":"5900 Katella Ave A","City":"Cypress","State":"CA","Zip":"90630"},{"Location":"MUG SHOTS","Address":"10461 Denni St","City":"Cypress","State":"CA","Zip":"90630"},{"Location":"MURPHY3 INC","Address":"5665 Plaza Dr 350","City":"Cypress","State":"CA","Zip":"90630"},{"Location":"PHILLIPS TIRES","Address":"5493 Cerritos Ave","City":"Cypress","State":"CA","Zip":"90630"},{"Location":"PHO SO 9","Address":"9927 Walker St","City":"Cypress","State":"CA","Zip":"90630"},{"Location":"PHYSIOTHERAPY ASSOCIATES","Address":"9827 Walker St","City":"Cypress","State":"CA","Zip":"90630"},{"Location":"PIZZA HUT- 024832","Address":"4065 Ball Rd","City":"Cypress","State":"CA","Zip":"90630"},{"Location":"POWER FLO PRODUCTS","Address":"5573 Market Pl","City":"Cypress","State":"CA","Zip":"90630"},{"Location":"PPC","Address":"5950 Lakeshore Dr","City":"Cypress","State":"CA","Zip":"90630"},{"Location":"PREMIER DISPLAYS","Address":"11261 Warland Dr","City":"Cypress","State":"CA","Zip":"90630"},{"Location":"RELIANCE STEEL AND ALUMIUM CO","Address":"10801 Walker St","City":"Cypress","State":"CA","Zip":"90630"},{"Location":"RESEARCH DESIGN SPECIALISTS","Address":"5552 Cerritos Ave K","City":"Cypress","State":"CA","Zip":"90630"},{"Location":"ROOSTER PUB","Address":"6072 Lincoln Ave B","City":"Cypress","State":"CA","Zip":"90630"},{"Location":"ROUND TABLE PIZZA","Address":"10101 Valley View St","City":"Cypress","State":"CA","Zip":"90630"},{"Location":"ROYAL SQUARE","Address":"4300 Lincoln Ave","City":"Cypress","State":"CA","Zip":"90630"},{"Location":"SBNKH INC","Address":"10545 Valley View St","City":"Cypress","State":"CA","Zip":"90630"},{"Location":"SENOR BIG ED","Address":"5490 Lincoln Ave","City":"Cypress","State":"CA","Zip":"90630"},{"Location":"SHIN JU KU","Address":"4498 Lincoln Ave","City":"Cypress","State":"CA","Zip":"90630"},{"Location":"SIKA SARNAFIL","Address":"6590 Darin Way","City":"Cypress","State":"CA","Zip":"90630"},{"Location":"SPORT CLIPS CA505","Address":"10071 Valley View St","City":"Cypress","State":"CA","Zip":"90630"},{"Location":"SUNGARD","Address":"6803 International Ave","City":"Cypress","State":"CA","Zip":"90630"},{"Location":"SUSHI WORLD","Address":"10953 Meridian Dr","City":"Cypress","State":"CA","Zip":"90630"},{"Location":"TAYCO","Address":"10874 Hope St","City":"Cypress","State":"CA","Zip":"90630"},{"Location":"THE FADE DISTRICT","Address":"5365 Lincoln Ave","City":"Cypress","State":"CA","Zip":"90630"},{"Location":"TIRE KINGDOM B-5807","Address":"6052 Cerritos Ave","City":"Cypress","State":"CA","Zip":"90630"},{"Location":"UGS","Address":"10824 Hope St","City":"Cypress","State":"CA","Zip":"90630"},{"Location":"UNITED HEALTH CARE","Address":"10801 Walker St","City":"Cypress","State":"CA","Zip":"90630"},{"Location":"USHIO","Address":"5440 Cerritos Ave","City":"Cypress","State":"CA","Zip":"90630"},{"Location":"VANS","Address":"6550 Katella Ave","City":"Cypress","State":"CA","Zip":"90630"},{"Location":"VANS A DIVISION OF VF OUTDOOR","Address":"6550 Katella Ave","City":"Cypress","State":"CA","Zip":"90630"},{"Location":"VAPE ESCAPE","Address":"5363 Lincoln Ave","City":"Cypress","State":"CA","Zip":"90630"},{"Location":"VCA COLLEGE PARK","Address":"5839 Ball Rd","City":"Cypress","State":"CA","Zip":"90630"},{"Location":"WALKER STREET IMAG CARE","Address":"10601 Walker St 150","City":"Cypress","State":"CA","Zip":"90630"},{"Location":"WEST COAST CLINICAL TRAILS","Address":"5630 Cerritos Ave","City":"Cypress","State":"CA","Zip":"90630"},{"Location":"WOODFIN HOTEL RESTAURANT","Address":"5905 Corporate Ave","City":"Cypress","State":"CA","Zip":"90630"},{"Location":"YAESU","Address":"6125 Phyllis Dr","City":"Cypress","State":"CA","Zip":"90630"},{"Location":"YOUNG HEALTH CARE","Address":"6336 Lincoln Ave","City":"Cypress","State":"CA","Zip":"90630"}]