[{"Location":"24 HOUR FITNESS #77","Address":"13395 Beach Blvd","City":"La Mirada","State":"CA","Zip":"90638"},{"Location":"ALBERTOS MEXICAN FOOD","Address":"14212 Imperial Hwy","City":"La Mirada","State":"CA","Zip":"90638"},{"Location":"ALKACHOICE WATER STORE","Address":"15842 Imperial Hwy","City":"La Mirada","State":"CA","Zip":"90638"},{"Location":"ALONZO LEPE ENTERPRISES","Address":"12739 Valley View Ave 1a","City":"La Mirada","State":"CA","Zip":"90638"},{"Location":"ARYZTA LLC","Address":"16932 Valley View Ave","City":"La Mirada","State":"CA","Zip":"90638"},{"Location":"BODY RESULTS","Address":"15830 Emperial Highway","City":"La Mirada","State":"CA","Zip":"90638"},{"Location":"CABO TACO BAJA GRILL","Address":"15294 Rosecrans Ave","City":"La Mirada","State":"CA","Zip":"90638"},{"Location":"CAREMORE HEALTH PLAN","Address":"15034 Imperial Hwy","City":"La Mirada","State":"CA","Zip":"90638"},{"Location":"CAREMORE MEDICAL ENTERPRISES","Address":"15627 Imperial Hwy A","City":"La Mirada","State":"CA","Zip":"90638"},{"Location":"CHILDRENS HAPPY TEETH","Address":"12271 Laanirada Blvd Siute 202","City":"La Mirada","State":"CA","Zip":"90638"},{"Location":"CITY OF LA MIRADA","Address":"13716 La Mirada Blvd","City":"La Mirada","State":"CA","Zip":"90638"},{"Location":"CLASSIC BURGER","Address":"14901 Alondra Blvd","City":"La Mirada","State":"CA","Zip":"90638"},{"Location":"CLEARMANS NORTHWOODS INN","Address":"14305 Firestone Blvd","City":"La Mirada","State":"CA","Zip":"90638"},{"Location":"CNS LOGISTICS","Address":"14251 Firestone Blvd","City":"La Mirada","State":"CA","Zip":"90638"},{"Location":"COTTON ON USA INC","Address":"16511 Trojan Way","City":"La Mirada","State":"CA","Zip":"90638"},{"Location":"CROSSROADS BARBER SHOP","Address":"15844 Imperial Hwy","City":"La Mirada","State":"CA","Zip":"90638"},{"Location":"DRAFT PICKS MGMT GRP LLC","Address":"15856 Imperial Hwy","City":"La Mirada","State":"CA","Zip":"90638"},{"Location":"ELEGANT CLEANERS","Address":"15741 Imperial Hwy","City":"La Mirada","State":"CA","Zip":"90638"},{"Location":"ELEPHANT BAR LA MIRADA","Address":"14303 Firestone Blvd","City":"La Mirada","State":"CA","Zip":"90638"},{"Location":"EYNALD DUARTE DDS INC","Address":"13960 Valley View Ave","City":"La Mirada","State":"CA","Zip":"90638"},{"Location":"FRIENDLY NAILS AND SPA","Address":"15868 Imperial Hwy","City":"La Mirada","State":"CA","Zip":"90638"},{"Location":"GALLAGHER RENTAL","Address":"15701 Heron Ave","City":"La Mirada","State":"CA","Zip":"90638"},{"Location":"GALLEHER CORPORATION","Address":"14470 Alondra Blvd","City":"La Mirada","State":"CA","Zip":"90638"},{"Location":"GEMSA ENTERPRISES","Address":"14370 Gannet St","City":"La Mirada","State":"CA","Zip":"90638"},{"Location":"GEORGIA PACIFIC","Address":"15500 Valley View Ave","City":"La Mirada","State":"CA","Zip":"90638"},{"Location":"GINZAYA SUSHI","Address":"15290 Rosecrans Ave","City":"La Mirada","State":"CA","Zip":"90638"},{"Location":"GOLDE BRIQUE","Address":"14942 Leffingwell Rd","City":"La Mirada","State":"CA","Zip":"90638"},{"Location":"GONDOLA PIZZA","Address":"15840 Imperial Hwy","City":"La Mirada","State":"CA","Zip":"90638"},{"Location":"HELLERS BARBERS","Address":"15841 Imperial Hwy","City":"La Mirada","State":"CA","Zip":"90638"},{"Location":"HOME DEPOT","Address":"14659 Alondra Blvd","City":"La Mirada","State":"CA","Zip":"90638"},{"Location":"I HEART MEDIA","Address":"16608 Trojan Way","City":"La Mirada","State":"CA","Zip":"90638"},{"Location":"IMAGINE FULFILLMENT SERV","Address":"14245 Artesia Blvd","City":"La Mirada","State":"CA","Zip":"90638"},{"Location":"IMPERIAL HEALTHCARE CENTER","Address":"11926 S Lamirada Blvd","City":"La Mirada","State":"CA","Zip":"90638"},{"Location":"IMPERIAL TIRE PLUS","Address":"14321 Imperial Hwy","City":"La Mirada","State":"CA","Zip":"90638"},{"Location":"JERSEY MIKES SUBS","Address":"14873 Telegraph Rd","City":"La Mirada","State":"CA","Zip":"90638"},{"Location":"JIMMYS","Address":"15849 Imperial Hwy","City":"La Mirada","State":"CA","Zip":"90638"},{"Location":"KIRA JAPANESE RESTAURANT","Address":"15810 Imperial Hwy","City":"La Mirada","State":"CA","Zip":"90638"},{"Location":"LA MIRADA ANIMAL HEALTH","Address":"12248 La Mirada Blvd","City":"La Mirada","State":"CA","Zip":"90638"},{"Location":"LA MIRADA GOLF","Address":"15501 Alicante Rd","City":"La Mirada","State":"CA","Zip":"90638"},{"Location":"LA MIRADA VFW POST 2663","Address":"13932 Valley View Ave","City":"La Mirada","State":"CA","Zip":"90638"},{"Location":"LAS DELICIA BAR","Address":"15852 Imperial Hwy","City":"La Mirada","State":"CA","Zip":"90638"},{"Location":"LEGENDS REALTY","Address":"15073 Imperial Hwy","City":"La Mirada","State":"CA","Zip":"90638"},{"Location":"LINDBLADE METAL WORKS","Address":"14355 Macaw St","City":"La Mirada","State":"CA","Zip":"90638"},{"Location":"LIQUID BATE","Address":"12754 La Mirada Blvd","City":"La Mirada","State":"CA","Zip":"90638"},{"Location":"MAGDY GAD DDS","Address":"12252 La Mirada Blvd","City":"La Mirada","State":"CA","Zip":"90638"},{"Location":"MARIO'S PERUVIAN REST.","Address":"15720 Imperial Hwy","City":"La Mirada","State":"CA","Zip":"90638"},{"Location":"MARISAS RESTAURANT","Address":"15711 Imperial Hwy","City":"La Mirada","State":"CA","Zip":"90638"},{"Location":"MELS CHIBUGAN","Address":"15680 Imperial Hwy","City":"La Mirada","State":"CA","Zip":"90638"},{"Location":"MOMO SPA","Address":"14774 Beach Blvd","City":"La Mirada","State":"CA","Zip":"90638"},{"Location":"MR V'S BAR AND GRILL","Address":"14320 Valley View Ave","City":"La Mirada","State":"CA","Zip":"90638"},{"Location":"OC JAPAN","Address":"14432 Manecita Dr","City":"La Mirada","State":"CA","Zip":"90638"},{"Location":"PEIDMONT PLASTICS","Address":"17000 Valley View Ave","City":"La Mirada","State":"CA","Zip":"90638"},{"Location":"PESCADOR 3","Address":"12246 Mirada Blvd","City":"La Mirada","State":"CA","Zip":"90638"},{"Location":"PHO  SAIGON","Address":"15816 Imperial Hwy","City":"La Mirada","State":"CA","Zip":"90638"},{"Location":"PIH - LA MIRADA - 4TH FL","Address":"12675 La Mirada Blvd 201","City":"La Mirada","State":"CA","Zip":"90638"},{"Location":"PRESBYTERIAN INTERCOMMUNITY","Address":"15050 Imperial Hwy","City":"La Mirada","State":"CA","Zip":"90638"},{"Location":"RDM INDUSTRIES","Address":"14310 Gannet St","City":"La Mirada","State":"CA","Zip":"90638"},{"Location":"ROOKIE'S BAR & GRILL","Address":"15853 Imperial Hwy","City":"La Mirada","State":"CA","Zip":"90638"},{"Location":"SAMS BURGERS","Address":"14525 Telegraph Rd","City":"La Mirada","State":"CA","Zip":"90638"},{"Location":"SCRATCH ENTERTAINMENT CNTR.","Address":"15025 Imperial Hwy","City":"La Mirada","State":"CA","Zip":"90638"},{"Location":"SERVPRO LA MIRADA-SOUTH","Address":"14747 Artesia Blvd 5v","City":"La Mirada","State":"CA","Zip":"90638"},{"Location":"SHAWN DUHAMEL","Address":"15830 Imperial Hwy","City":"La Mirada","State":"CA","Zip":"90638"},{"Location":"SOCAL- PIZZA HUT- 29990","Address":"12218 La Mirada Blvd","City":"La Mirada","State":"CA","Zip":"90638"},{"Location":"SOLID STATE","Address":"14701 Firestone Blvd","City":"La Mirada","State":"CA","Zip":"90638"},{"Location":"SOLID STATE DEVICES INC.","Address":"14830 Valley View Ave","City":"La Mirada","State":"CA","Zip":"90638"},{"Location":"SPORTSMAN LOUNGE","Address":"13902 Imperial Hwy","City":"La Mirada","State":"CA","Zip":"90638"},{"Location":"STAR SCRAP METAL","Address":"14372 Firestone Blvd","City":"La Mirada","State":"CA","Zip":"90638"},{"Location":"SUBURBAN WATER SYSTEMS","Address":"15088 Rosecrans Ave","City":"La Mirada","State":"CA","Zip":"90638"},{"Location":"SUDDATH RELOCATION SYSTEMS","Address":"14221 Artesia Blvd","City":"La Mirada","State":"CA","Zip":"90638"},{"Location":"THE ABBEY MGMT CO","Address":"14770 Firestone Blvd 206","City":"La Mirada","State":"CA","Zip":"90638"},{"Location":"THE BODY ZONE","Address":"15759 Imperial Hwy","City":"La Mirada","State":"CA","Zip":"90638"},{"Location":"THE CRANE GUYS","Address":"14480 Alondra Blvd","City":"La Mirada","State":"CA","Zip":"90638"},{"Location":"THE ET HORN COMPANY","Address":"16050 Canary Ave","City":"La Mirada","State":"CA","Zip":"90638"},{"Location":"THE GREEN CHILE","Address":"13926 Imperial Hwy","City":"La Mirada","State":"CA","Zip":"90638"},{"Location":"THE SIZZLER RESTAURANT","Address":"15252 Rosecrans Ave","City":"La Mirada","State":"CA","Zip":"90638"},{"Location":"TIRE KINGDOM B-5811","Address":"13920 Valley View Ave","City":"La Mirada","State":"CA","Zip":"90638"},{"Location":"TOMARCO","Address":"14848 Northam St","City":"La Mirada","State":"CA","Zip":"90638"},{"Location":"TOMS JR","Address":"15322 Santa Gertrudes Ave","City":"La Mirada","State":"CA","Zip":"90638"},{"Location":"TOMS TAILGATE & CATERING","Address":"15831 Imperial Hwy","City":"La Mirada","State":"CA","Zip":"90638"},{"Location":"US FOOD SERVICE","Address":"15155 Northam St","City":"La Mirada","State":"CA","Zip":"90638"},{"Location":"US FOODS","Address":"15155 Northam St","City":"La Mirada","State":"CA","Zip":"90638"},{"Location":"VEND CATERING SUPPLY","Address":"14455 Industry Cir","City":"La Mirada","State":"CA","Zip":"90638"},{"Location":"VILLA DEL MAR","Address":"14222 Imperial Hwy","City":"La Mirada","State":"CA","Zip":"90638"},{"Location":"WATKINS SHEPARD TRUCKING%2C INC.","Address":"14683 Industry Cir","City":"La Mirada","State":"CA","Zip":"90638"},{"Location":"SOUTHWEST CARPENTERS TRAINING","Address":"7111 Firestone Blvd","City":"Mirada Park","State":"CA","Zip":"90638"},{"Location":"24 HOUR FITNESS #77","Address":"13395 Beach Blvd","City":"La Mirada","State":"CA","Zip":"90638"},{"Location":"ALBERTOS MEXICAN FOOD","Address":"14212 Imperial Hwy","City":"La Mirada","State":"CA","Zip":"90638"},{"Location":"ALKACHOICE WATER STORE","Address":"15842 Imperial Hwy","City":"La Mirada","State":"CA","Zip":"90638"},{"Location":"ALONZO LEPE ENTERPRISES","Address":"12739 Valley View Ave 1a","City":"La Mirada","State":"CA","Zip":"90638"},{"Location":"ARYZTA LLC","Address":"16932 Valley View Ave","City":"La Mirada","State":"CA","Zip":"90638"},{"Location":"BODY RESULTS","Address":"15830 Emperial Highway","City":"La Mirada","State":"CA","Zip":"90638"},{"Location":"CABO TACO BAJA GRILL","Address":"15294 Rosecrans Ave","City":"La Mirada","State":"CA","Zip":"90638"},{"Location":"CAREMORE HEALTH PLAN","Address":"15034 Imperial Hwy","City":"La Mirada","State":"CA","Zip":"90638"},{"Location":"CAREMORE MEDICAL ENTERPRISES","Address":"15627 Imperial Hwy A","City":"La Mirada","State":"CA","Zip":"90638"},{"Location":"CHILDRENS HAPPY TEETH","Address":"12271 Laanirada Blvd Siute 202","City":"La Mirada","State":"CA","Zip":"90638"},{"Location":"CITY OF LA MIRADA","Address":"13716 La Mirada Blvd","City":"La Mirada","State":"CA","Zip":"90638"},{"Location":"CLASSIC BURGER","Address":"14901 Alondra Blvd","City":"La Mirada","State":"CA","Zip":"90638"},{"Location":"CLEARMANS NORTHWOODS INN","Address":"14305 Firestone Blvd","City":"La Mirada","State":"CA","Zip":"90638"},{"Location":"CNS LOGISTICS","Address":"14251 Firestone Blvd","City":"La Mirada","State":"CA","Zip":"90638"},{"Location":"COTTON ON USA INC","Address":"16511 Trojan Way","City":"La Mirada","State":"CA","Zip":"90638"},{"Location":"CROSSROADS BARBER SHOP","Address":"15844 Imperial Hwy","City":"La Mirada","State":"CA","Zip":"90638"},{"Location":"DRAFT PICKS MGMT GRP LLC","Address":"15856 Imperial Hwy","City":"La Mirada","State":"CA","Zip":"90638"},{"Location":"ELEGANT CLEANERS","Address":"15741 Imperial Hwy","City":"La Mirada","State":"CA","Zip":"90638"},{"Location":"ELEPHANT BAR LA MIRADA","Address":"14303 Firestone Blvd","City":"La Mirada","State":"CA","Zip":"90638"},{"Location":"EYNALD DUARTE DDS INC","Address":"13960 Valley View Ave","City":"La Mirada","State":"CA","Zip":"90638"},{"Location":"FRIENDLY NAILS AND SPA","Address":"15868 Imperial Hwy","City":"La Mirada","State":"CA","Zip":"90638"},{"Location":"GALLAGHER RENTAL","Address":"15701 Heron Ave","City":"La Mirada","State":"CA","Zip":"90638"},{"Location":"GALLEHER CORPORATION","Address":"14470 Alondra Blvd","City":"La Mirada","State":"CA","Zip":"90638"},{"Location":"GEMSA ENTERPRISES","Address":"14370 Gannet St","City":"La Mirada","State":"CA","Zip":"90638"},{"Location":"GEORGIA PACIFIC","Address":"15500 Valley View Ave","City":"La Mirada","State":"CA","Zip":"90638"},{"Location":"GINZAYA SUSHI","Address":"15290 Rosecrans Ave","City":"La Mirada","State":"CA","Zip":"90638"},{"Location":"GOLDE BRIQUE","Address":"14942 Leffingwell Rd","City":"La Mirada","State":"CA","Zip":"90638"},{"Location":"GONDOLA PIZZA","Address":"15840 Imperial Hwy","City":"La Mirada","State":"CA","Zip":"90638"},{"Location":"HELLERS BARBERS","Address":"15841 Imperial Hwy","City":"La Mirada","State":"CA","Zip":"90638"},{"Location":"HOME DEPOT","Address":"14659 Alondra Blvd","City":"La Mirada","State":"CA","Zip":"90638"},{"Location":"I HEART MEDIA","Address":"16608 Trojan Way","City":"La Mirada","State":"CA","Zip":"90638"},{"Location":"IMAGINE FULFILLMENT SERV","Address":"14245 Artesia Blvd","City":"La Mirada","State":"CA","Zip":"90638"},{"Location":"IMPERIAL HEALTHCARE CENTER","Address":"11926 S Lamirada Blvd","City":"La Mirada","State":"CA","Zip":"90638"},{"Location":"IMPERIAL TIRE PLUS","Address":"14321 Imperial Hwy","City":"La Mirada","State":"CA","Zip":"90638"},{"Location":"JERSEY MIKES SUBS","Address":"14873 Telegraph Rd","City":"La Mirada","State":"CA","Zip":"90638"},{"Location":"JIMMYS","Address":"15849 Imperial Hwy","City":"La Mirada","State":"CA","Zip":"90638"},{"Location":"KIRA JAPANESE RESTAURANT","Address":"15810 Imperial Hwy","City":"La Mirada","State":"CA","Zip":"90638"},{"Location":"LA MIRADA ANIMAL HEALTH","Address":"12248 La Mirada Blvd","City":"La Mirada","State":"CA","Zip":"90638"},{"Location":"LA MIRADA GOLF","Address":"15501 Alicante Rd","City":"La Mirada","State":"CA","Zip":"90638"},{"Location":"LA MIRADA VFW POST 2663","Address":"13932 Valley View Ave","City":"La Mirada","State":"CA","Zip":"90638"},{"Location":"LAS DELICIA BAR","Address":"15852 Imperial Hwy","City":"La Mirada","State":"CA","Zip":"90638"},{"Location":"LEGENDS REALTY","Address":"15073 Imperial Hwy","City":"La Mirada","State":"CA","Zip":"90638"},{"Location":"LINDBLADE METAL WORKS","Address":"14355 Macaw St","City":"La Mirada","State":"CA","Zip":"90638"},{"Location":"LIQUID BATE","Address":"12754 La Mirada Blvd","City":"La Mirada","State":"CA","Zip":"90638"},{"Location":"MAGDY GAD DDS","Address":"12252 La Mirada Blvd","City":"La Mirada","State":"CA","Zip":"90638"},{"Location":"MARIO'S PERUVIAN REST.","Address":"15720 Imperial Hwy","City":"La Mirada","State":"CA","Zip":"90638"},{"Location":"MARISAS RESTAURANT","Address":"15711 Imperial Hwy","City":"La Mirada","State":"CA","Zip":"90638"},{"Location":"MELS CHIBUGAN","Address":"15680 Imperial Hwy","City":"La Mirada","State":"CA","Zip":"90638"},{"Location":"MOMO SPA","Address":"14774 Beach Blvd","City":"La Mirada","State":"CA","Zip":"90638"},{"Location":"MR V'S BAR AND GRILL","Address":"14320 Valley View Ave","City":"La Mirada","State":"CA","Zip":"90638"},{"Location":"OC JAPAN","Address":"14432 Manecita Dr","City":"La Mirada","State":"CA","Zip":"90638"},{"Location":"PEIDMONT PLASTICS","Address":"17000 Valley View Ave","City":"La Mirada","State":"CA","Zip":"90638"},{"Location":"PESCADOR 3","Address":"12246 Mirada Blvd","City":"La Mirada","State":"CA","Zip":"90638"},{"Location":"PHO  SAIGON","Address":"15816 Imperial Hwy","City":"La Mirada","State":"CA","Zip":"90638"},{"Location":"PIH - LA MIRADA - 4TH FL","Address":"12675 La Mirada Blvd 201","City":"La Mirada","State":"CA","Zip":"90638"},{"Location":"PRESBYTERIAN INTERCOMMUNITY","Address":"15050 Imperial Hwy","City":"La Mirada","State":"CA","Zip":"90638"},{"Location":"RDM INDUSTRIES","Address":"14310 Gannet St","City":"La Mirada","State":"CA","Zip":"90638"},{"Location":"ROOKIE'S BAR & GRILL","Address":"15853 Imperial Hwy","City":"La Mirada","State":"CA","Zip":"90638"},{"Location":"SAMS BURGERS","Address":"14525 Telegraph Rd","City":"La Mirada","State":"CA","Zip":"90638"},{"Location":"SCRATCH ENTERTAINMENT CNTR.","Address":"15025 Imperial Hwy","City":"La Mirada","State":"CA","Zip":"90638"},{"Location":"SERVPRO LA MIRADA-SOUTH","Address":"14747 Artesia Blvd 5v","City":"La Mirada","State":"CA","Zip":"90638"},{"Location":"SHAWN DUHAMEL","Address":"15830 Imperial Hwy","City":"La Mirada","State":"CA","Zip":"90638"},{"Location":"SOCAL- PIZZA HUT- 29990","Address":"12218 La Mirada Blvd","City":"La Mirada","State":"CA","Zip":"90638"},{"Location":"SOLID STATE","Address":"14701 Firestone Blvd","City":"La Mirada","State":"CA","Zip":"90638"},{"Location":"SOLID STATE DEVICES INC.","Address":"14830 Valley View Ave","City":"La Mirada","State":"CA","Zip":"90638"},{"Location":"SPORTSMAN LOUNGE","Address":"13902 Imperial Hwy","City":"La Mirada","State":"CA","Zip":"90638"},{"Location":"STAR SCRAP METAL","Address":"14372 Firestone Blvd","City":"La Mirada","State":"CA","Zip":"90638"},{"Location":"SUBURBAN WATER SYSTEMS","Address":"15088 Rosecrans Ave","City":"La Mirada","State":"CA","Zip":"90638"},{"Location":"SUDDATH RELOCATION SYSTEMS","Address":"14221 Artesia Blvd","City":"La Mirada","State":"CA","Zip":"90638"},{"Location":"THE ABBEY MGMT CO","Address":"14770 Firestone Blvd 206","City":"La Mirada","State":"CA","Zip":"90638"},{"Location":"THE BODY ZONE","Address":"15759 Imperial Hwy","City":"La Mirada","State":"CA","Zip":"90638"},{"Location":"THE CRANE GUYS","Address":"14480 Alondra Blvd","City":"La Mirada","State":"CA","Zip":"90638"},{"Location":"THE ET HORN COMPANY","Address":"16050 Canary Ave","City":"La Mirada","State":"CA","Zip":"90638"},{"Location":"THE GREEN CHILE","Address":"13926 Imperial Hwy","City":"La Mirada","State":"CA","Zip":"90638"},{"Location":"THE SIZZLER RESTAURANT","Address":"15252 Rosecrans Ave","City":"La Mirada","State":"CA","Zip":"90638"},{"Location":"TIRE KINGDOM B-5811","Address":"13920 Valley View Ave","City":"La Mirada","State":"CA","Zip":"90638"},{"Location":"TOMARCO","Address":"14848 Northam St","City":"La Mirada","State":"CA","Zip":"90638"},{"Location":"TOMS JR","Address":"15322 Santa Gertrudes Ave","City":"La Mirada","State":"CA","Zip":"90638"},{"Location":"TOMS TAILGATE & CATERING","Address":"15831 Imperial Hwy","City":"La Mirada","State":"CA","Zip":"90638"},{"Location":"US FOOD SERVICE","Address":"15155 Northam St","City":"La Mirada","State":"CA","Zip":"90638"},{"Location":"US FOODS","Address":"15155 Northam St","City":"La Mirada","State":"CA","Zip":"90638"},{"Location":"VEND CATERING SUPPLY","Address":"14455 Industry Cir","City":"La Mirada","State":"CA","Zip":"90638"},{"Location":"WATKINS SHEPARD TRUCKING%2C INC.","Address":"14683 Industry Cir","City":"La Mirada","State":"CA","Zip":"90638"},{"Location":"SOUTHWEST CARPENTERS TRAINING","Address":"7111 Firestone Blvd","City":"Mirada Park","State":"CA","Zip":"90638"}]