[{"Location":"ALL ACCESS APPAREL","Address":"1515 Gage Rd","City":"Montebello","State":"CA","Zip":"90640"},{"Location":"ALL AUTO ELECTRIC","Address":"720 Washington Blvd","City":"Montebello","State":"CA","Zip":"90640"},{"Location":"ALONDRA HOT WINGS","Address":"616 W Whittier Blvd","City":"Montebello","State":"CA","Zip":"90640"},{"Location":"ANA SAKURA INC","Address":"1228 S Greenwood Ave","City":"Montebello","State":"CA","Zip":"90640"},{"Location":"ANKA BEHAVIORAL HEALTH","Address":"136 N Taylor Ave","City":"Montebello","State":"CA","Zip":"90640"},{"Location":"APPLEBEE'S MONTEBELLO","Address":"1493 N Montebello Blvd A","City":"Montebello","State":"CA","Zip":"90640"},{"Location":"ARMENDARIZ TAX AND FINAN","Address":"3307 W Beverly Blvd","City":"Montebello","State":"CA","Zip":"90640"},{"Location":"ARYSO GRILL (GR INC)","Address":"410 W Whittier Blvd","City":"Montebello","State":"CA","Zip":"90640"},{"Location":"BERTHA GONZALEZ%2C DO","Address":"3106 W Beverly Blvd","City":"Montebello","State":"CA","Zip":"90640"},{"Location":"BEST WESTERN MONTEBELLO PLAZA","Address":"7709 Telegraph Rd","City":"Montebello","State":"CA","Zip":"90640"},{"Location":"BEVERLY  TOWERS","Address":"1315 W Beverly Blvd","City":"Montebello","State":"CA","Zip":"90640"},{"Location":"BEVERLY CAR WASH","Address":"220 E Beverly Blvd","City":"Montebello","State":"CA","Zip":"90640"},{"Location":"BEVERLY HOSPITAL","Address":"309 W Beverly Blvd","City":"Montebello","State":"CA","Zip":"90640"},{"Location":"BJ PIZZERIA","Address":"1426 W Beverly Blvd","City":"Montebello","State":"CA","Zip":"90640"},{"Location":"BJS RESTAURANT #464","Address":"1716 Montebello Town Ctr","City":"Montebello","State":"CA","Zip":"90640"},{"Location":"BLTEE LLC","Address":"7101 Telegraph Rd","City":"Montebello","State":"CA","Zip":"90640"},{"Location":"BOULEVARD BARBERS","Address":"605 W Whittier Blvd","City":"Montebello","State":"CA","Zip":"90640"},{"Location":"CANADA CAMERA AND PHOTO","Address":"2525 W Beverly Blvd","City":"Montebello","State":"CA","Zip":"90640"},{"Location":"CANTON CITY RESTAURANT","Address":"121 N Garfield Ave","City":"Montebello","State":"CA","Zip":"90640"},{"Location":"CANTWELL SACRED HEART","Address":"329 N Garfield Ave","City":"Montebello","State":"CA","Zip":"90640"},{"Location":"CAREMORE","Address":"2444 W Beverly Blvd","City":"Montebello","State":"CA","Zip":"90640"},{"Location":"CERTIFIED INDUSTRIAL FAB","Address":"1532 S Greenwood Ave","City":"Montebello","State":"CA","Zip":"90640"},{"Location":"CHEVROLET MONTEBELLO","Address":"310 W Whittier Blvd","City":"Montebello","State":"CA","Zip":"90640"},{"Location":"CHOPSTIX ROLL & BENTO","Address":"1122 Washington Blvd A","City":"Montebello","State":"CA","Zip":"90640"},{"Location":"CITY OF MONTEBELLO BAND","Address":"1300 W Olympic Blvd","City":"Montebello","State":"CA","Zip":"90640"},{"Location":"CS & M MONTEBELLO","Address":"125 N Montebello Blvd D","City":"Montebello","State":"CA","Zip":"90640"},{"Location":"DAVITA #335 DRS OF MONTBELLO","Address":"1721 W Whittier Blvd","City":"Montebello","State":"CA","Zip":"90640"},{"Location":"DAVITA #5430 PICO RIVERA","Address":"100 Washington Blvd","City":"Montebello","State":"CA","Zip":"90640"},{"Location":"DE PAUL CENTER","Address":"1105 S Bluff Rd","City":"Montebello","State":"CA","Zip":"90640"},{"Location":"DEA","Address":"2200 W Flotilla St","City":"Montebello","State":"CA","Zip":"90640"},{"Location":"DENTISTRY FOR CHILDREN","Address":"880 W Beverly Blvd","City":"Montebello","State":"CA","Zip":"90640"},{"Location":"DV - MONTEBELLO","Address":"833 W Whittier Blvd","City":"Montebello","State":"CA","Zip":"90640"},{"Location":"EB FOODS MOTEBELLO","Address":"1813 W Whittier Blvd","City":"Montebello","State":"CA","Zip":"90640"},{"Location":"EL ZIPOTE INC B","Address":"1111 Washington Blvd I","City":"Montebello","State":"CA","Zip":"90640"},{"Location":"EMPIRE CLEANING SUPPLY INC","Address":"7733 Telegraph Rd","City":"Montebello","State":"CA","Zip":"90640"},{"Location":"ESTRADA INCOME TAX SERVICE","Address":"2539 Via Campo","City":"Montebello","State":"CA","Zip":"90640"},{"Location":"FAMILY BARBER SHOP","Address":"734 Newmark Mall","City":"Montebello","State":"CA","Zip":"90640"},{"Location":"FANZZ - MONTEBELLO","Address":"1836 Montebello Town Ctr","City":"Montebello","State":"CA","Zip":"90640"},{"Location":"FERNANDOS HARDWARE 3","Address":"500 Washington Blvd","City":"Montebello","State":"CA","Zip":"90640"},{"Location":"FIVE JS AUTO SERVICE CEN","Address":"1619 W Whittier Blvd","City":"Montebello","State":"CA","Zip":"90640"},{"Location":"FORD OF MONTEBELLO","Address":"2747 Via Campo","City":"Montebello","State":"CA","Zip":"90640"},{"Location":"FRESH MEXICAN","Address":"1018 W Beverly Blvd","City":"Montebello","State":"CA","Zip":"90640"},{"Location":"GARDUNOS","Address":"2206 W Whittier Blvd","City":"Montebello","State":"CA","Zip":"90640"},{"Location":"GOLDEN SKEWER","Address":"2212 W Beverly Blvd","City":"Montebello","State":"CA","Zip":"90640"},{"Location":"GOLDEN WOK","Address":"521 N Montebello Blvd Suite","City":"Montebello","State":"CA","Zip":"90640"},{"Location":"HD SUPPLY","Address":"7601 Telegraph Rd","City":"Montebello","State":"CA","Zip":"90640"},{"Location":"HIKARI SUSHI BAR","Address":"1864 Montebello Town Ctr","City":"Montebello","State":"CA","Zip":"90640"},{"Location":"HILTON GARDEN INN 3","Address":"801 Via San Clemente 233","City":"Montebello","State":"CA","Zip":"90640"},{"Location":"HILTON GI (0054786)","Address":"801 Via San Clemente","City":"Montebello","State":"CA","Zip":"90640"},{"Location":"HOT WINGS AND THINGS","Address":"886 N Garfield Ave","City":"Montebello","State":"CA","Zip":"90640"},{"Location":"INTEGRATED TURBO MACHINERY","Address":"7411 Telegraph Rd","City":"Montebello","State":"CA","Zip":"90640"},{"Location":"INTEX SOLUTIONS INC","Address":"507 Washington Blvd","City":"Montebello","State":"CA","Zip":"90640"},{"Location":"J  A AUTO REPAIR INC","Address":"720 Washington Blvd F","City":"Montebello","State":"CA","Zip":"90640"},{"Location":"J ANTONIO ALACORN","Address":"2133 W Beverly Blvd 200","City":"Montebello","State":"CA","Zip":"90640"},{"Location":"J. MISY CORP.","Address":"888 N Garfield Ave","City":"Montebello","State":"CA","Zip":"90640"},{"Location":"JAY B 2 ICE CREAM","Address":"1416 W Whittier Blvd","City":"Montebello","State":"CA","Zip":"90640"},{"Location":"JERSEY MIKES SUBS","Address":"535 N Montebello Blvd","City":"Montebello","State":"CA","Zip":"90640"},{"Location":"JOELS BARBERSHOP","Address":"2419 W Beverly Blvd A","City":"Montebello","State":"CA","Zip":"90640"},{"Location":"KENT H LANDSBERG","Address":"1640 S Greenwood Ave","City":"Montebello","State":"CA","Zip":"90640"},{"Location":"LA COSTA","Address":"854 N Garfield Ave","City":"Montebello","State":"CA","Zip":"90640"},{"Location":"LA FITNESS #06112","Address":"2222 W Beverly Blvd","City":"Montebello","State":"CA","Zip":"90640"},{"Location":"LA REALESTATE NETWORK","Address":"1200a W Beverly Blvd","City":"Montebello","State":"CA","Zip":"90640"},{"Location":"LAFIRMA","Address":"1493 N Montebello Blvd 204","City":"Montebello","State":"CA","Zip":"90640"},{"Location":"LITTLE MEXICO RESTAURANT","Address":"1923 W Whittier Blvd","City":"Montebello","State":"CA","Zip":"90640"},{"Location":"LNH INC.","Address":"137 N Montebello Blvd C","City":"Montebello","State":"CA","Zip":"90640"},{"Location":"MACY'S WEST 484","Address":"1900 Montebello Town Ctr","City":"Montebello","State":"CA","Zip":"90640"},{"Location":"MACY'S WEST 490","Address":"2000 Montebello Town Ctr","City":"Montebello","State":"CA","Zip":"90640"},{"Location":"MACY'S WEST 490 BR","Address":"2000 Montebello Town Ctr","City":"Montebello","State":"CA","Zip":"90640"},{"Location":"MAOF","Address":"401 N Garfield Ave","City":"Montebello","State":"CA","Zip":"90640"},{"Location":"MONICA MIRANDA","Address":"900 S Maple Ave","City":"Montebello","State":"CA","Zip":"90640"},{"Location":"MONTEBELLO ELKS LODGE","Address":"506 W Whittier Blvd","City":"Montebello","State":"CA","Zip":"90640"},{"Location":"MONTEBELLO GLASS & MIRRO","Address":"844 Washington Blvd","City":"Montebello","State":"CA","Zip":"90640"},{"Location":"MONTEBELLO KIDNEY CENTER","Address":"433 N 4th St","City":"Montebello","State":"CA","Zip":"90640"},{"Location":"MONTEBELLO OFFICE 272","Address":"616 W Cleveland Ave","City":"Montebello","State":"CA","Zip":"90640"},{"Location":"MONTEBELLO TOWN CENTER","Address":"2134 Montebello Town Ctr","City":"Montebello","State":"CA","Zip":"90640"},{"Location":"NUTRITION TECHNOLOGY","Address":"2232 W Beverly Blvd","City":"Montebello","State":"CA","Zip":"90640"},{"Location":"OLYMPIC DISPOSAL","Address":"116 Maynard Rd","City":"Montebello","State":"CA","Zip":"90640"},{"Location":"ORDONEZ MEXICAN REST","Address":"872 N Garfield Ave","City":"Montebello","State":"CA","Zip":"90640"},{"Location":"PIZZA HUT 24922","Address":"1515 W Beverly Blvd","City":"Montebello","State":"CA","Zip":"90640"},{"Location":"PLAYA BAJA","Address":"102 E Beverly Blvd","City":"Montebello","State":"CA","Zip":"90640"},{"Location":"PRO SOURCE DISTRIBUTION","Address":"6865 Washington Blvd","City":"Montebello","State":"CA","Zip":"90640"},{"Location":"QUIET CANNON MONTEBELLO INC","Address":"901 Via San Clemente","City":"Montebello","State":"CA","Zip":"90640"},{"Location":"RIOS PIZZA","Address":"531 N Montebello Blvd","City":"Montebello","State":"CA","Zip":"90640"},{"Location":"ROLLING STOCK PLUS","Address":"1709 S Greenwood Ave","City":"Montebello","State":"CA","Zip":"90640"},{"Location":"SAHARA DENTAL","Address":"433 N 4th St 210","City":"Montebello","State":"CA","Zip":"90640"},{"Location":"SIZZLER","Address":"1908 W Beverly Blvd","City":"Montebello","State":"CA","Zip":"90640"},{"Location":"STREET EXECUTIVES BARBER & MEN'S GROOMING SALON","Address":"715 West Whittier Boulevard","City":"Montebello","State":"CA","Zip":"90640"},{"Location":"SUNSET OLIVE OIL LLC","Address":"133 Van Norman Rd","City":"Montebello","State":"CA","Zip":"90640"},{"Location":"SUPER WASH","Address":"116 E Whittier Blvd","City":"Montebello","State":"CA","Zip":"90640"},{"Location":"SUSHI MOORA INC","Address":"800 W Beverly Blvd","City":"Montebello","State":"CA","Zip":"90640"},{"Location":"TEPIATL MEXICAN FOOD & M","Address":"2100 W Whittier Blvd","City":"Montebello","State":"CA","Zip":"90640"},{"Location":"TERAPIAS ALTERNATIVAS AA","Address":"2126 W Whittier Blvd","City":"Montebello","State":"CA","Zip":"90640"},{"Location":"THAI CASA RESTAURANT","Address":"2468 W Whittier Blvd","City":"Montebello","State":"CA","Zip":"90640"},{"Location":"THE BUS","Address":"528 S Greenwood Ave","City":"Montebello","State":"CA","Zip":"90640"},{"Location":"THE CREAM SHOP","Address":"1416 W Olympic Blvd","City":"Montebello","State":"CA","Zip":"90640"},{"Location":"THE DAILY BREW COFFEE BAR","Address":"137 N Montebello Blvd A","City":"Montebello","State":"CA","Zip":"90640"},{"Location":"THISTLE ROLLER COMPANY INC","Address":"209 Van Norman Rd","City":"Montebello","State":"CA","Zip":"90640"},{"Location":"TIPS BARBERSHOP","Address":"864 N Gardield Ave","City":"Montebello","State":"CA","Zip":"90640"},{"Location":"TOTAL E CLIPS HAIR SALON","Address":"3315 W Beverly Blvd","City":"Montebello","State":"CA","Zip":"90640"},{"Location":"WILBUR CURTIS CO INC","Address":"6913 W Acco St","City":"Montebello","State":"CA","Zip":"90640"},{"Location":"ZANKOU CHICKEN","Address":"125 N Montebello Blvd E","City":"Montebello","State":"CA","Zip":"90640"}]