[{"Location":"3D SMOG TUNE AND LUBE","Address":"11841 Firestone Blvd","City":"Norwalk","State":"CA","Zip":"90650"},{"Location":"ACCENTURE","Address":"12440 Imperial Hwy","City":"Norwalk","State":"CA","Zip":"90650"},{"Location":"AK SING","Address":"13300 San Antonio Dr","City":"Norwalk","State":"CA","Zip":"90650"},{"Location":"ALONDRA DENTAL CARE","Address":"10927 Alondra Blvd","City":"Norwalk","State":"CA","Zip":"90650"},{"Location":"AMERICAN LEGION POST 359","Address":"11986 Front St","City":"Norwalk","State":"CA","Zip":"90650"},{"Location":"ANTICUCHERIA PERUANA","Address":"14351 Pioneer Blvd","City":"Norwalk","State":"CA","Zip":"90650"},{"Location":"APPLEBEE'S NORWALK","Address":"12129 Imperial Hwy","City":"Norwalk","State":"CA","Zip":"90650"},{"Location":"AXIS CONSTRUCTION","Address":"13556 Pumice St","City":"Norwalk","State":"CA","Zip":"90650"},{"Location":"BAJA CALIFORINA BAR AND GRILL","Address":"11521 Firestone Blvd","City":"Norwalk","State":"CA","Zip":"90650"},{"Location":"BILLS BARBER","Address":"12012 Rosecrans Ave","City":"Norwalk","State":"CA","Zip":"90650"},{"Location":"BTE SALES","Address":"13804 Shoemaker Ave","City":"Norwalk","State":"CA","Zip":"90650"},{"Location":"CAFE PALM TREE","Address":"12500 Firestone Blvd B","City":"Norwalk","State":"CA","Zip":"90650"},{"Location":"CALI CARWASH","Address":"16000 Pioneer Blvd","City":"Norwalk","State":"CA","Zip":"90650"},{"Location":"CASA ADELITA","Address":"12842 Rosecrans Ave","City":"Norwalk","State":"CA","Zip":"90650"},{"Location":"CERRITOS COLLEGE","Address":"11110 Alondra Blvd","City":"Norwalk","State":"CA","Zip":"90650"},{"Location":"CERRITOS FAMILY DENTISTRY","Address":"10973 Rosecrans Ave","City":"Norwalk","State":"CA","Zip":"90650"},{"Location":"CHAPALA BAKERY   NUM 5","Address":"11707 Firestone Blvd","City":"Norwalk","State":"CA","Zip":"90650"},{"Location":"CHILDREN'S DENTAL GROUP","Address":"14119 Pioneer Blvd","City":"Norwalk","State":"CA","Zip":"90650"},{"Location":"COAST PLAZA DOCTORS HOSPITAL","Address":"13100 Studebaker Rd","City":"Norwalk","State":"CA","Zip":"90650"},{"Location":"CONSTRUCTION BY R N R","Address":"14504 Carmenita Rd F","City":"Norwalk","State":"CA","Zip":"90650"},{"Location":"CRESTMARK ENT.","Address":"10919 Alondra Blvd","City":"Norwalk","State":"CA","Zip":"90650"},{"Location":"DAVITA #5153 NORWALK","Address":"11913 Firestone Blvd","City":"Norwalk","State":"CA","Zip":"90650"},{"Location":"DAVITA #672 NORWALK","Address":"12375 Imperial Hwy","City":"Norwalk","State":"CA","Zip":"90650"},{"Location":"DIANA RESTAURANT 3","Address":"16330 Pioneer Blvd","City":"Norwalk","State":"CA","Zip":"90650"},{"Location":"DORISS HAIR DESIGNS","Address":"10923 Alondra Blvd","City":"Norwalk","State":"CA","Zip":"90650"},{"Location":"DOUGLAS BURGERS NORWALK","Address":"16306 Pioneer Blvd","City":"Norwalk","State":"CA","Zip":"90650"},{"Location":"DOUGLAS DRIVE-IN","Address":"11939 Firestone Blvd","City":"Norwalk","State":"CA","Zip":"90650"},{"Location":"EDS HANDYMAN SERVICE","Address":"13594 Pumice St","City":"Norwalk","State":"CA","Zip":"90650"},{"Location":"EL CLASIFICADO","Address":"11205 Imperial Hwy","City":"Norwalk","State":"CA","Zip":"90650"},{"Location":"EL TACO LOCCO","Address":"12341 Imperial Hwy","City":"Norwalk","State":"CA","Zip":"90650"},{"Location":"FBI%2FJRIC","Address":"12440 Imperial Hwy 725","City":"Norwalk","State":"CA","Zip":"90650"},{"Location":"FBI%2FJRIC 2","Address":"12440 Imperial Hwy","City":"Norwalk","State":"CA","Zip":"90650"},{"Location":"GENESSIS TRAVEL","Address":"15720 Pioneer Blvd 1%2F2","City":"Norwalk","State":"CA","Zip":"90650"},{"Location":"GO HYANG","Address":"16441 Pioneer Blvd F&g","City":"Norwalk","State":"CA","Zip":"90650"},{"Location":"GOODIES UNIFORM","Address":"12158 Firestone Blvd","City":"Norwalk","State":"CA","Zip":"90650"},{"Location":"HAPPY LIQUOR","Address":"11829 Alondra Blvd","City":"Norwalk","State":"CA","Zip":"90650"},{"Location":"HILTON WORLDWIDE LOS ANGLS","Address":"13111 Sycamore Dr","City":"Norwalk","State":"CA","Zip":"90650"},{"Location":"HUH DAEGAM SULUNGTANG","Address":"16511 Pioneer Blvd","City":"Norwalk","State":"CA","Zip":"90650"},{"Location":"HUYNA","Address":"16441 Pioneer Blvd C","City":"Norwalk","State":"CA","Zip":"90650"},{"Location":"IMPERIAL BABRER SHOP","Address":"10936 Imperial Hwy","City":"Norwalk","State":"CA","Zip":"90650"},{"Location":"INTEGRA MARKETING INC","Address":"15613 Blackburn Ave","City":"Norwalk","State":"CA","Zip":"90650"},{"Location":"INTERCOMMUNITY HEALTHCARE & RE","Address":"12627 Studebaker Rd","City":"Norwalk","State":"CA","Zip":"90650"},{"Location":"KEYSTONES LANES","Address":"11459 Imperial Hwy","City":"Norwalk","State":"CA","Zip":"90650"},{"Location":"KIDS DENTAL KARE 3","Address":"10965 Firestone Blvd","City":"Norwalk","State":"CA","Zip":"90650"},{"Location":"KUNG PAO BOWL","Address":"12331 Imperial Hwy","City":"Norwalk","State":"CA","Zip":"90650"},{"Location":"LA MEXICANA","Address":"13208 San Antonio Dr","City":"Norwalk","State":"CA","Zip":"90650"},{"Location":"LOS COMPADRES","Address":"11600 Rosecrans Ave","City":"Norwalk","State":"CA","Zip":"90650"},{"Location":"M AND M AUTO CLINIC","Address":"11640 Rosecrans Ave","City":"Norwalk","State":"CA","Zip":"90650"},{"Location":"MATCHON","Address":"16511 Pioneer Blvd 107","City":"Norwalk","State":"CA","Zip":"90650"},{"Location":"MCDONALDS","Address":"12510 Norwalk Blvd","City":"Norwalk","State":"CA","Zip":"90650"},{"Location":"MCKENNA BMW CPO","Address":"10915 Firestone Blvd","City":"Norwalk","State":"CA","Zip":"90650"},{"Location":"MCKENNA MOTORS","Address":"10850 Firestone Blvd","City":"Norwalk","State":"CA","Zip":"90650"},{"Location":"METROPOLITAN STATE HOSPITAL #1","Address":"11401 Bloomfield Ave","City":"Norwalk","State":"CA","Zip":"90650"},{"Location":"METROPOLITAN STATE HOSPITAL #2","Address":"11401 Bloomfield Ave","City":"Norwalk","State":"CA","Zip":"90650"},{"Location":"MVP BARBER SHOP","Address":"15617 Studebaker Rd","City":"Norwalk","State":"CA","Zip":"90650"},{"Location":"NEW HARVEST CHRISTIAN","Address":"11364 Imperial Hwy","City":"Norwalk","State":"CA","Zip":"90650"},{"Location":"NOEMIS MEXICAN REST.","Address":"14350 Pioneer Blvd","City":"Norwalk","State":"CA","Zip":"90650"},{"Location":"NORWALK ELKS LODGE #2142","Address":"13418 Clarkdale Ave","City":"Norwalk","State":"CA","Zip":"90650"},{"Location":"NORWALK GOLF CENTER I","Address":"13717 Shoemaker Ave","City":"Norwalk","State":"CA","Zip":"90650"},{"Location":"NORWALK MEADOWS NURSING CENTER","Address":"10625 Leffingwell Rd","City":"Norwalk","State":"CA","Zip":"90650"},{"Location":"NORWALK ORTHOPEDIC SURGE","Address":"13560 San Antonio Dr G","City":"Norwalk","State":"CA","Zip":"90650"},{"Location":"NORWALK SHAKEYS 51","Address":"11403 Firestone Blvd","City":"Norwalk","State":"CA","Zip":"90650"},{"Location":"NORWALK TOYOTA","Address":"11404 Imperial Hwy","City":"Norwalk","State":"CA","Zip":"90650"},{"Location":"OUTBACK STEAKHOUSE #0571","Address":"12850 Norwalk Blvd","City":"Norwalk","State":"CA","Zip":"90650"},{"Location":"OZEN SUSHI","Address":"16511 Pioneer Blvd","City":"Norwalk","State":"CA","Zip":"90650"},{"Location":"PIONEER SPA","Address":"16511 Pioneer Blvd 108","City":"Norwalk","State":"CA","Zip":"90650"},{"Location":"PSS","Address":"13045 Tom White Way J","City":"Norwalk","State":"CA","Zip":"90650"},{"Location":"REGISTRAR RECORDER CTY CLERK","Address":"12400 Imperial Hwy","City":"Norwalk","State":"CA","Zip":"90650"},{"Location":"REMEK ENTERTAINMENT","Address":"10632 Imperial Hwy","City":"Norwalk","State":"CA","Zip":"90650"},{"Location":"RESTAURANTE MARQUEZ","Address":"13226 Rosecrans Ave Rear","City":"Norwalk","State":"CA","Zip":"90650"},{"Location":"ROSE DENTAL IMPLANT CENTER","Address":"13041 Rosecrans Ave 207","City":"Norwalk","State":"CA","Zip":"90650"},{"Location":"ROSECRANS SPIRIT SHOP","Address":"11016 Rosecrans Ave","City":"Norwalk","State":"CA","Zip":"90650"},{"Location":"SAMS BURGER","Address":"10961 Firestone Blvd","City":"Norwalk","State":"CA","Zip":"90650"},{"Location":"SAMS BURGERS","Address":"14041 Pioneer Blvd","City":"Norwalk","State":"CA","Zip":"90650"},{"Location":"SAN MARCOS MEDICAL","Address":"13307 San Antonio Dr","City":"Norwalk","State":"CA","Zip":"90650"},{"Location":"SANDRA ENOJADO","Address":"11695 The Plz","City":"Norwalk","State":"CA","Zip":"90650"},{"Location":"SCOREBOARD 2","Address":"11957 Firestone Blvd","City":"Norwalk","State":"CA","Zip":"90650"},{"Location":"SOCAL PIZZA","Address":"12253 Imperial Hwy","City":"Norwalk","State":"CA","Zip":"90650"},{"Location":"SONSU USA","Address":"16511 Pioneer Blvd 102","City":"Norwalk","State":"CA","Zip":"90650"},{"Location":"SOUTHLAND MGMT","Address":"11701 Studebaker Rd","City":"Norwalk","State":"CA","Zip":"90650"},{"Location":"TACOS Y MARISCOS","Address":"12001 Rosecrans Ave","City":"Norwalk","State":"CA","Zip":"90650"},{"Location":"TARGET","Address":"10600 Firestone Blvd","City":"Norwalk","State":"CA","Zip":"90650"},{"Location":"TERESITA G PABALAN DMD","Address":"11818 Rosecrans Ave B","City":"Norwalk","State":"CA","Zip":"90650"},{"Location":"THE VAPE ROOM","Address":"11405 Firestone Blvd Suite","City":"Norwalk","State":"CA","Zip":"90650"},{"Location":"TNT TORTAS AND TACOS","Address":"11042 Rosecrans Ave","City":"Norwalk","State":"CA","Zip":"90650"},{"Location":"TOMO HAIR SALON","Address":"16441 Pioneer Blvd","City":"Norwalk","State":"CA","Zip":"90650"},{"Location":"TRES AMIGOS","Address":"16641 Pioneer Blvd","City":"Norwalk","State":"CA","Zip":"90650"},{"Location":"US COAST GUARD","Address":"11005 Firestone Blvd 111","City":"Norwalk","State":"CA","Zip":"90650"},{"Location":"US DENTAL GROUP","Address":"11881 Rosecrans Ave","City":"Norwalk","State":"CA","Zip":"90650"},{"Location":"WEST CENTRAL PRODUCE","Address":"12840 Leyva St","City":"Norwalk","State":"CA","Zip":"90650"}]