[{"Location":"A AND JS FASHION","Address":"9549 Telegraph Rd","City":"Pico Rivera","State":"CA","Zip":"90660"},{"Location":"AMERICAN LEGION","Address":"4909 Durfee Ave","City":"Pico Rivera","State":"CA","Zip":"90660"},{"Location":"AMERICAN LEGION 411","Address":"7642 Serapis Ave","City":"Pico Rivera","State":"CA","Zip":"90660"},{"Location":"AP EXPRESS","Address":"8500 Rex Rd","City":"Pico Rivera","State":"CA","Zip":"90660"},{"Location":"ATR INC","Address":"7875 Telegraph Rd 105","City":"Pico Rivera","State":"CA","Zip":"90660"},{"Location":"ATTRACTION MARKETING FORMULA","Address":"7409 Citronell Ave","City":"Pico Rivera","State":"CA","Zip":"90660"},{"Location":"BETHAN MEDICAL WEIGHT CNTRL","Address":"9315 Whittier Blvd","City":"Pico Rivera","State":"CA","Zip":"90660"},{"Location":"BLACKTIE AND BLUEJEANS","Address":"6702 Rosemead Blvd","City":"Pico Rivera","State":"CA","Zip":"90660"},{"Location":"BUENA VISTA INSPECTIONS","Address":"9583 Slauson Ave","City":"Pico Rivera","State":"CA","Zip":"90660"},{"Location":"BURGER STOP","Address":"9315 Slauson Ave","City":"Pico Rivera","State":"CA","Zip":"90660"},{"Location":"CALIFORNIA HOT WINGS","Address":"8746 Washington Blvd","City":"Pico Rivera","State":"CA","Zip":"90660"},{"Location":"CAREMORE","Address":"9330 Washington Blvd","City":"Pico Rivera","State":"CA","Zip":"90660"},{"Location":"CARMENS RESTURANT","Address":"8318 Rosemead Blvd","City":"Pico Rivera","State":"CA","Zip":"90660"},{"Location":"CENTURY 21 ALLSTARS","Address":"9155 Telegraph Rd 2","City":"Pico Rivera","State":"CA","Zip":"90660"},{"Location":"CHATEAU BRIAND","Address":"8528 Rosemead Blvd","City":"Pico Rivera","State":"CA","Zip":"90660"},{"Location":"CHILI'S #1141","Address":"8890 Washington Blvd","City":"Pico Rivera","State":"CA","Zip":"90660"},{"Location":"CLARA RIO'S PIZZA","Address":"9317 Slauson Ave","City":"Pico Rivera","State":"CA","Zip":"90660"},{"Location":"CLEARMANS STEAK N STEIN INN","Address":"9545 Whittier Blvd","City":"Pico Rivera","State":"CA","Zip":"90660"},{"Location":"COSMOS TRANSPORTATION EXPRESS","Address":"19021 S Reyes","City":"Pico Rivera","State":"CA","Zip":"90660"},{"Location":"DAL RAE RESTAURANT","Address":"9023 Washington Blvd","City":"Pico Rivera","State":"CA","Zip":"90660"},{"Location":"DENTAL CENTER","Address":"9309 Telegraph Rd","City":"Pico Rivera","State":"CA","Zip":"90660"},{"Location":"DEVIN CHOPPA DPM","Address":"9049 Washington Blvd","City":"Pico Rivera","State":"CA","Zip":"90660"},{"Location":"DINOS BURGERS","Address":"9367 Telegraph Rd","City":"Pico Rivera","State":"CA","Zip":"90660"},{"Location":"DISCOVERY TRAVEL SERVICES","Address":"9087 Telegraph Rd","City":"Pico Rivera","State":"CA","Zip":"90660"},{"Location":"DOUGHBOY PIZZA","Address":"9450 Whittier Blvd","City":"Pico Rivera","State":"CA","Zip":"90660"},{"Location":"ED LIQUOR","Address":"6616 Rosemead Blvd","City":"Pico Rivera","State":"CA","Zip":"90660"},{"Location":"EL BUEN GUSTO","Address":"9333 Slauson Ave","City":"Pico Rivera","State":"CA","Zip":"90660"},{"Location":"EL PESCADOR PICO RIVERA","Address":"9051 Telegraph Rd","City":"Pico Rivera","State":"CA","Zip":"90660"},{"Location":"EL PESCADOR REST 17","Address":"9051 Telegraph Rd","City":"Pico Rivera","State":"CA","Zip":"90660"},{"Location":"EL ZIPOTE INC","Address":"8662 Whittier Blvd","City":"Pico Rivera","State":"CA","Zip":"90660"},{"Location":"FALCON PIZZA","Address":"9247 Slauson Ave","City":"Pico Rivera","State":"CA","Zip":"90660"},{"Location":"FAMILY DENTISTRY","Address":"4500 Rosemead Blvd","City":"Pico Rivera","State":"CA","Zip":"90660"},{"Location":"GARDENS RESTAURANT","Address":"9425 Telegraph Rd 105","City":"Pico Rivera","State":"CA","Zip":"90660"},{"Location":"GENDARME INSTITUTE","Address":"9471 Slauson Ave","City":"Pico Rivera","State":"CA","Zip":"90660"},{"Location":"GENERATIONS SALON 2010","Address":"4557 Durfee Ave","City":"Pico Rivera","State":"CA","Zip":"90660"},{"Location":"GENTLEMANS BARBERSHOP","Address":"9025 Slauson Ave","City":"Pico Rivera","State":"CA","Zip":"90660"},{"Location":"HENRYS FENCE","Address":"3689 San Gabriel River Pkwy","City":"Pico Rivera","State":"CA","Zip":"90660"},{"Location":"JERSEY MIKES SUBS","Address":"8947 Washington Blvd","City":"Pico Rivera","State":"CA","Zip":"90660"},{"Location":"JOHNNYS SHOP","Address":"8520 Rosemead Blvd","City":"Pico Rivera","State":"CA","Zip":"90660"},{"Location":"JT MCKINNEY CO INC","Address":"8400 Slauson Ave","City":"Pico Rivera","State":"CA","Zip":"90660"},{"Location":"L AND M FOOTWEAR","Address":"8605 Washington Blvd","City":"Pico Rivera","State":"CA","Zip":"90660"},{"Location":"LA FITNESS #80","Address":"8909 Washington Blvd","City":"Pico Rivera","State":"CA","Zip":"90660"},{"Location":"LA FONDA PAISA","Address":"6748 Passons Blvd","City":"Pico Rivera","State":"CA","Zip":"90660"},{"Location":"LAS ALASANES MEXICAN REST","Address":"6756 Passons Blvd","City":"Pico Rivera","State":"CA","Zip":"90660"},{"Location":"LATIN SKULLS","Address":"5036 Passons Blvd 5-6","City":"Pico Rivera","State":"CA","Zip":"90660"},{"Location":"LNL HAWAIIN BBQ","Address":"8760 Washington Blvd","City":"Pico Rivera","State":"CA","Zip":"90660"},{"Location":"LUBRICATING SPECIALTIES","Address":"8015 Paramount Blvd","City":"Pico Rivera","State":"CA","Zip":"90660"},{"Location":"MARIO TACOS","Address":"9247 Whittier Blvd","City":"Pico Rivera","State":"CA","Zip":"90660"},{"Location":"MARISCOS ROSITA","Address":"4302 Lindsey Ave","City":"Pico Rivera","State":"CA","Zip":"90660"},{"Location":"MCDONALDS PICO RIVERA","Address":"8913 Washington Blvd","City":"Pico Rivera","State":"CA","Zip":"90660"},{"Location":"METROPOLITAN  AUTOMOTIVE","Address":"7185 Rosemead Blvd","City":"Pico Rivera","State":"CA","Zip":"90660"},{"Location":"MI PATRIA RESTAURANT","Address":"9425 Telegraph Rd","City":"Pico Rivera","State":"CA","Zip":"90660"},{"Location":"MR B B Q GRILL","Address":"8139 Telegraph Rd","City":"Pico Rivera","State":"CA","Zip":"90660"},{"Location":"NATURAL FRUIT FACTORY","Address":"8917 Beverly Blvd","City":"Pico Rivera","State":"CA","Zip":"90660"},{"Location":"PACIFIC WESTERN BANK","Address":"8810 East Whittier St","City":"Pico Rivera","State":"CA","Zip":"90660"},{"Location":"PARADISE SMOG EST AND REPAIR","Address":"9301 Beverly Rd","City":"Pico Rivera","State":"CA","Zip":"90660"},{"Location":"PASEO SAN MIGUEL RESTAUR","Address":"4623 Rosemead Blvd","City":"Pico Rivera","State":"CA","Zip":"90660"},{"Location":"PICO RIVERA COMMUNITY","Address":"4530 Rosemead Blvd","City":"Pico Rivera","State":"CA","Zip":"90660"},{"Location":"PICO RIVERA GAS CAR WASH","Address":"8400 Washington Blvd","City":"Pico Rivera","State":"CA","Zip":"90660"},{"Location":"PICO RIVIERA GARDENS","Address":"6525 Rosemead Blvd","City":"Pico Rivera","State":"CA","Zip":"90660"},{"Location":"PLATINUM BARBER SHOP","Address":"5036 Passons Blvd 1","City":"Pico Rivera","State":"CA","Zip":"90660"},{"Location":"R & B INCOME TAX SERVICE","Address":"8421 Rosemead Blvd","City":"Pico Rivera","State":"CA","Zip":"90660"},{"Location":"ROSEMEAD MEDICAL PLAZA","Address":"4511 Rosemead Blvd","City":"Pico Rivera","State":"CA","Zip":"90660"},{"Location":"RUSH TRUCK CENTER PICO R","Address":"8830 Slauson Ave","City":"Pico Rivera","State":"CA","Zip":"90660"},{"Location":"S AND M FOOD","Address":"3260 Fairway Dr","City":"Pico Rivera","State":"CA","Zip":"90660"},{"Location":"SAFELITE","Address":"8561 Loch Lomond Dr","City":"Pico Rivera","State":"CA","Zip":"90660"},{"Location":"SALGADO TIRES SERVICE","Address":"9022 Beverly Rd","City":"Pico Rivera","State":"CA","Zip":"90660"},{"Location":"SHAKEY'S PIZZA RESTAURANT #24","Address":"9290 Whittier Blvd","City":"Pico Rivera","State":"CA","Zip":"90660"},{"Location":"SHEER PLEASURE","Address":"9475 Telegraph Rd","City":"Pico Rivera","State":"CA","Zip":"90660"},{"Location":"SIZZLER 323","Address":"6730 Rosemead Blvd","City":"Pico Rivera","State":"CA","Zip":"90660"},{"Location":"SOUTHERN CALIFONIA GAS CO","Address":"8101 Rosemead Blvd B","City":"Pico Rivera","State":"CA","Zip":"90660"},{"Location":"SOUTHERN CALIFORNIA GAS COMP","Address":"1801 S Rosemead Blvd Blgd B","City":"Pico Rivera","State":"CA","Zip":"90660"},{"Location":"ST BARTHOLOMEWS","Address":"7540 Passons Blvd","City":"Pico Rivera","State":"CA","Zip":"90660"},{"Location":"TACOS EL CHILANGO","Address":"9510 Whittier Blvd","City":"Pico Rivera","State":"CA","Zip":"90660"},{"Location":"TAMARACK INN","Address":"9257 Slauson Ave","City":"Pico Rivera","State":"CA","Zip":"90660"},{"Location":"TAMS TOPLINE NAILS & SPA","Address":"8715 Washington Blvd","City":"Pico Rivera","State":"CA","Zip":"90660"},{"Location":"TLC BARBER SHOP","Address":"8654 E Beverly Dr","City":"Pico Rivera","State":"CA","Zip":"90660"},{"Location":"TOYAVENUS BEAUTY SHOP","Address":"8535 Washington Blvd E","City":"Pico Rivera","State":"CA","Zip":"90660"},{"Location":"UNISOURCE OFFICE SERVICE","Address":"8350 Rex Rd","City":"Pico Rivera","State":"CA","Zip":"90660"},{"Location":"VAL H TRAN","Address":"9227 Whittier Blvd","City":"Pico Rivera","State":"CA","Zip":"90660"},{"Location":"VFW","Address":"4865 Duffee Ave","City":"Pico Rivera","State":"CA","Zip":"90660"},{"Location":"VFW POST 7734","Address":"9128 Burmedis St.","City":"Pico Rivera","State":"CA","Zip":"90660"},{"Location":"WENDYS 9400","Address":"8450 Washington Blvd","City":"Pico Rivera","State":"CA","Zip":"90660"},{"Location":"WHITTIER FERTILIZER","Address":"9441 Kruse Rd","City":"Pico Rivera","State":"CA","Zip":"90660"},{"Location":"WILLIAMS BOOT & SHOE REP","Address":"9233 Whittier Blvd","City":"Pico Rivera","State":"CA","Zip":"90660"},{"Location":"WING STOP","Address":"8945 Washington Blvd 12","City":"Pico Rivera","State":"CA","Zip":"90660"}]