[{"Location":"BCC UNLIMITED","Address":"8206 Secura Way","City":"Santa Fe Spgs","State":"CA","Zip":"90670"},{"Location":"24 HOUR FITNESS #69","Address":"13312 Imperial Hwy","City":"Santa Fe Springs","State":"CA","Zip":"90670"},{"Location":"A AND H FORKLIFT INC","Address":"8140 Allport Ave","City":"Santa Fe Springs","State":"CA","Zip":"90670"},{"Location":"ABSOLUTE ABATEMENT AND DEMOLI","Address":"8433 Chetle Ave","City":"Santa Fe Springs","State":"CA","Zip":"90670"},{"Location":"ACCURIDE INTERNATIONAL INC","Address":"12311 Shoemaker Ave","City":"Santa Fe Springs","State":"CA","Zip":"90670"},{"Location":"ALL-STOR","Address":"12045 Florence Ave 304","City":"Santa Fe Springs","State":"CA","Zip":"90670"},{"Location":"AMERICAN RELOCATION & LOGISTIC","Address":"13565 Larwin Cir","City":"Santa Fe Springs","State":"CA","Zip":"90670"},{"Location":"AMERICAN TRANSPORTATION SERV","Address":"12059 Telegraph Rd","City":"Santa Fe Springs","State":"CA","Zip":"90670"},{"Location":"ANHEUSER-BUSCH WHLSLR #70427","Address":"12065 Pike St","City":"Santa Fe Springs","State":"CA","Zip":"90670"},{"Location":"ATLANTIC INC.","Address":"10018 Sante Fe Springs Rd","City":"Santa Fe Springs","State":"CA","Zip":"90670"},{"Location":"BDP MEDIA","Address":"9950 Bell Ranch Dr 104","City":"Santa Fe Springs","State":"CA","Zip":"90670"},{"Location":"BJ SERVICES COMPANY","Address":"11927 Greenstone Ave","City":"Santa Fe Springs","State":"CA","Zip":"90670"},{"Location":"BLESS TIRE & AUTO REPAIR","Address":"13143 Rosecrans Ave","City":"Santa Fe Springs","State":"CA","Zip":"90670"},{"Location":"BOROWITZ AND CLARK LLP","Address":"12631 Imperial Hwy 104a","City":"Santa Fe Springs","State":"CA","Zip":"90670"},{"Location":"BOT N BOT INC","Address":"13005 Los Nietos Rd","City":"Santa Fe Springs","State":"CA","Zip":"90670"},{"Location":"BROTHERS BODY SHOP","Address":"12630 Carmenita Rd","City":"Santa Fe Springs","State":"CA","Zip":"90670"},{"Location":"BRUCE'S","Address":"12623 Imperial Hwy","City":"Santa Fe Springs","State":"CA","Zip":"90670"},{"Location":"CANEX%2CINC","Address":"15304 Spring Ave","City":"Santa Fe Springs","State":"CA","Zip":"90670"},{"Location":"CAPITOL DISTRIBUTION","Address":"13930 Mica St","City":"Santa Fe Springs","State":"CA","Zip":"90670"},{"Location":"CAREMORE ONE","Address":"10210 Orr And Day Rd A","City":"Santa Fe Springs","State":"CA","Zip":"90670"},{"Location":"CENTRAL PET","Address":"13227 Orden Dr","City":"Santa Fe Springs","State":"CA","Zip":"90670"},{"Location":"CHIANG","Address":"11944 Baker Pl","City":"Santa Fe Springs","State":"CA","Zip":"90670"},{"Location":"CHP SANTA FE SPRINGS","Address":"10051 Orr And Day Rd","City":"Santa Fe Springs","State":"CA","Zip":"90670"},{"Location":"COAST ALUMINUM & ARCHITECTURAL","Address":"10628 Fulton Wells Ave","City":"Santa Fe Springs","State":"CA","Zip":"90670"},{"Location":"COMPLETE PRINTING SOLUTIONS","Address":"11925 Los Nietos Rd","City":"Santa Fe Springs","State":"CA","Zip":"90670"},{"Location":"CONSOLIDATED DISPOSAL SERVICES","Address":"12949 Telegraph Rd","City":"Santa Fe Springs","State":"CA","Zip":"90670"},{"Location":"COSBY OIL COMPANY","Address":"12902 Park St","City":"Santa Fe Springs","State":"CA","Zip":"90670"},{"Location":"CSI ELECTRICAL CONTRACTIONS","Address":"10623 Fulton Wells Ave","City":"Santa Fe Springs","State":"CA","Zip":"90670"},{"Location":"DAVITA #5793 SANTA FE SPRINGS","Address":"10012 Norwalk Blvd 190","City":"Santa Fe Springs","State":"CA","Zip":"90670"},{"Location":"DAY STAR WAREHOUSE CO","Address":"10736 Bloomfield Ave","City":"Santa Fe Springs","State":"CA","Zip":"90670"},{"Location":"DEAD AND BURIED","Address":"13031 Los Nietos Rd B","City":"Santa Fe Springs","State":"CA","Zip":"90670"},{"Location":"DELTA APPAREL INC","Address":"13220 Orden Dr","City":"Santa Fe Springs","State":"CA","Zip":"90670"},{"Location":"DIGITEK COMPUTER PRODUCTS","Address":"9115 Dice Rd 2","City":"Santa Fe Springs","State":"CA","Zip":"90670"},{"Location":"DOBLE GLASS","Address":"14545 Valley View Ave O","City":"Santa Fe Springs","State":"CA","Zip":"90670"},{"Location":"E&L ELECTRIC INC","Address":"12322 Los Nietos Rd","City":"Santa Fe Springs","State":"CA","Zip":"90670"},{"Location":"ELECTRIC SALES UNLIMITIED","Address":"9023 Norwalk Blvd","City":"Santa Fe Springs","State":"CA","Zip":"90670"},{"Location":"ELECTRONIC CHROME AND GRINDING","Address":"9126 Dice Rd","City":"Santa Fe Springs","State":"CA","Zip":"90670"},{"Location":"ENERSYS","Address":"11936 Altamar Pl","City":"Santa Fe Springs","State":"CA","Zip":"90670"},{"Location":"EPN - HERBERT PADILLA","Address":"10700 Norwalk Blvd","City":"Santa Fe Springs","State":"CA","Zip":"90670"},{"Location":"FED EX","Address":"9339 Ann St","City":"Santa Fe Springs","State":"CA","Zip":"90670"},{"Location":"FMC 54220000","Address":"13063 Rosecrans Ave","City":"Santa Fe Springs","State":"CA","Zip":"90670"},{"Location":"FORTNER PRECISION2","Address":"12145 Slauson Ave","City":"Santa Fe Springs","State":"CA","Zip":"90670"},{"Location":"FRY STEEL COMPANY","Address":"13325 Molette St","City":"Santa Fe Springs","State":"CA","Zip":"90670"},{"Location":"G AND K","Address":"14700 Spring Ave","City":"Santa Fe Springs","State":"CA","Zip":"90670"},{"Location":"GALAXY BRAZING COMPANY INC INC","Address":"10015 Freeman Ave","City":"Santa Fe Springs","State":"CA","Zip":"90670"},{"Location":"GALLEHER INC","Address":"9303 Greenleaf Ave","City":"Santa Fe Springs","State":"CA","Zip":"90670"},{"Location":"GEEZERS RESTAURANT","Address":"12120 Telegraph Rd","City":"Santa Fe Springs","State":"CA","Zip":"90670"},{"Location":"GENESIS FURNITURE","Address":"13161 Rosecrans Ave","City":"Santa Fe Springs","State":"CA","Zip":"90670"},{"Location":"GOODRICH COPORATION","Address":"11120 Norwalk Blvd","City":"Santa Fe Springs","State":"CA","Zip":"90670"},{"Location":"GOODRICH CORP","Address":"9920 Freeman Ave","City":"Santa Fe Springs","State":"CA","Zip":"90670"},{"Location":"GOODRICH CORPORATION","Address":"11120 Norwalk Blvd","City":"Santa Fe Springs","State":"CA","Zip":"90670"},{"Location":"GPA","Address":"12830 Romandel Ave","City":"Santa Fe Springs","State":"CA","Zip":"90670"},{"Location":"GREEN CYCLE","Address":"12815 Imperial Hwy","City":"Santa Fe Springs","State":"CA","Zip":"90670"},{"Location":"GRIFFITH COMPANY","Address":"12200 Bloomfield Ave","City":"Santa Fe Springs","State":"CA","Zip":"90670"},{"Location":"HOSPIRA INC","Address":"13939 Borate St","City":"Santa Fe Springs","State":"CA","Zip":"90670"},{"Location":"HUNGRY BOY BURGERS","Address":"10810 Norwalk Blvd","City":"Santa Fe Springs","State":"CA","Zip":"90670"},{"Location":"I S BLUEPRINT SERVICE","Address":"15421 Carmenita Rd N","City":"Santa Fe Springs","State":"CA","Zip":"90670"},{"Location":"IMPERIAL SQUARE OFFICE PARK","Address":"12631 Imperial Hwy C125","City":"Santa Fe Springs","State":"CA","Zip":"90670"},{"Location":"IND SPROCKETS GEARS","Address":"13700 Milroy Pl","City":"Santa Fe Springs","State":"CA","Zip":"90670"},{"Location":"INDUSTRIAL POWER SOURCE","Address":"14501 Marquardt Ave","City":"Santa Fe Springs","State":"CA","Zip":"90670"},{"Location":"INTERNATIONL PAPER","Address":"11211 Greenstone Ave","City":"Santa Fe Springs","State":"CA","Zip":"90670"},{"Location":"IO TEC","Address":"12150 Mora Dr","City":"Santa Fe Springs","State":"CA","Zip":"90670"},{"Location":"IRMAS JEWELRY","Address":"11520 Telegraph Rd","City":"Santa Fe Springs","State":"CA","Zip":"90670"},{"Location":"JA CRAWFORD COMPANY","Address":"11813 Slauson Ave","City":"Santa Fe Springs","State":"CA","Zip":"90670"},{"Location":"JANUS ET CIE","Address":"12310 Greenstone Ave","City":"Santa Fe Springs","State":"CA","Zip":"90670"},{"Location":"JARROW FORMULAS INC","Address":"10715 Shoemaker Ave","City":"Santa Fe Springs","State":"CA","Zip":"90670"},{"Location":"JENSEN MACHINING INC","Address":"8298 Allport Ave","City":"Santa Fe Springs","State":"CA","Zip":"90670"},{"Location":"KELLY PIPE","Address":"11700 Bloomfield Ave","City":"Santa Fe Springs","State":"CA","Zip":"90670"},{"Location":"KEMP BROS. CONSTRUCTIONS INC.","Address":"10135 Geary Ave","City":"Santa Fe Springs","State":"CA","Zip":"90670"},{"Location":"KIEWIT PACIFIC","Address":"10704 Shoemaker Ave","City":"Santa Fe Springs","State":"CA","Zip":"90670"},{"Location":"LA COUNTY EMS","Address":"10100 Pioneer Blvd 200","City":"Santa Fe Springs","State":"CA","Zip":"90670"},{"Location":"LA FITNESS #61","Address":"13332 Telegraph Rd","City":"Santa Fe Springs","State":"CA","Zip":"90670"},{"Location":"LAKIN TIRE","Address":"15305 Spring Ave","City":"Santa Fe Springs","State":"CA","Zip":"90670"},{"Location":"LEE RACHADA THAI CUISINE","Address":"13416 Imperial Hwy","City":"Santa Fe Springs","State":"CA","Zip":"90670"},{"Location":"LOS ANGELES CENTER","Address":"11015 Bloomfield Ave","City":"Santa Fe Springs","State":"CA","Zip":"90670"},{"Location":"LOS ANGELES COUNTY EMS","Address":"10430 Slusher Dr","City":"Santa Fe Springs","State":"CA","Zip":"90670"},{"Location":"MAGGIE'S","Address":"11900 Telegraph Rd","City":"Santa Fe Springs","State":"CA","Zip":"90670"},{"Location":"MASTER CUTTING","Address":"12075 Florence Ave","City":"Santa Fe Springs","State":"CA","Zip":"90670"},{"Location":"MCI FOODS%2C INC","Address":"13013 Molette St","City":"Santa Fe Springs","State":"CA","Zip":"90670"},{"Location":"MCKESSON","Address":"9501 Norwalk Blvd","City":"Santa Fe Springs","State":"CA","Zip":"90670"},{"Location":"MCMASTER-CARR","Address":"9630 Norwalk Blvd","City":"Santa Fe Springs","State":"CA","Zip":"90670"},{"Location":"MCMURRAY STERN INC","Address":"15511 Carmenita Rd","City":"Santa Fe Springs","State":"CA","Zip":"90670"},{"Location":"MEDCOAST AMBULANCE","Address":"14325 Iseli Rd","City":"Santa Fe Springs","State":"CA","Zip":"90670"},{"Location":"MERCHANDISE OUTLET","Address":"8956 Sorensen Ave 7","City":"Santa Fe Springs","State":"CA","Zip":"90670"},{"Location":"MIKE THOMPSON RV SUPERSTOREE","Address":"13940 Firestone Blvd","City":"Santa Fe Springs","State":"CA","Zip":"90670"},{"Location":"MONTEBELLO CONTAINER CORP","Address":"13220 Molette St","City":"Santa Fe Springs","State":"CA","Zip":"90670"},{"Location":"MP TRANSMISSIONS INC","Address":"14140 Alondra Blvd Stea","City":"Santa Fe Springs","State":"CA","Zip":"90670"},{"Location":"MULTILINK INTERNATIONAL","Address":"12235 Los Nietos Rd","City":"Santa Fe Springs","State":"CA","Zip":"90670"},{"Location":"NATIONAL APPARATUS","Address":"13039 Florence Ave","City":"Santa Fe Springs","State":"CA","Zip":"90670"},{"Location":"NELSON & ASSOCIATES","Address":"12816 Leffingwell Ave","City":"Santa Fe Springs","State":"CA","Zip":"90670"},{"Location":"NUTRILITE%2FAMWAY%2FACCESS BUSINES","Address":"12825 Leffingwell Ave","City":"Santa Fe Springs","State":"CA","Zip":"90670"},{"Location":"ONE SOURCE PLUS INC","Address":"13950 Rosecrans Ave","City":"Santa Fe Springs","State":"CA","Zip":"90670"},{"Location":"OXY HEALTH CORPORATION","Address":"10719 Norwalk Blvd","City":"Santa Fe Springs","State":"CA","Zip":"90670"},{"Location":"PACIFIC DIVING ACADEMY","Address":"15064 Shoemaker Ave","City":"Santa Fe Springs","State":"CA","Zip":"90670"},{"Location":"PACIFIC MEDICAL IMAGING","Address":"12041 Mora Dr","City":"Santa Fe Springs","State":"CA","Zip":"90670"},{"Location":"PARKING TECHNICAL SERVICES","Address":"14130 Alondra Blvd","City":"Santa Fe Springs","State":"CA","Zip":"90670"},{"Location":"PERFORMANCE TEAM FREIGHT INC","Address":"11204 Norwalk Blvd","City":"Santa Fe Springs","State":"CA","Zip":"90670"},{"Location":"PHILLIPS INDUSTRIES","Address":"12012 Burke St","City":"Santa Fe Springs","State":"CA","Zip":"90670"},{"Location":"PHOENIX WAREHOUSE OF CA","Address":"9306 Sorensen Ave","City":"Santa Fe Springs","State":"CA","Zip":"90670"},{"Location":"POWER PRO POLUMBING","Address":"8421 Chetle Ave","City":"Santa Fe Springs","State":"CA","Zip":"90670"},{"Location":"PRECISE AUTOMTIVE","Address":"13048 Firestone Blvd","City":"Santa Fe Springs","State":"CA","Zip":"90670"},{"Location":"PRECISION TUBE BENDING","Address":"13626 Talc St","City":"Santa Fe Springs","State":"CA","Zip":"90670"},{"Location":"PRINTWORKS RUBBER ART","Address":"9960 Bell Ranch Dr 107","City":"Santa Fe Springs","State":"CA","Zip":"90670"},{"Location":"PROGRESSIVE ORTHOPEDIC","Address":"11643 Telegraph Rd","City":"Santa Fe Springs","State":"CA","Zip":"90670"},{"Location":"PUMP ENGINEERING CO","Address":"9807 Jordan Cir","City":"Santa Fe Springs","State":"CA","Zip":"90670"},{"Location":"PVF SALES","Address":"13707 Borate St","City":"Santa Fe Springs","State":"CA","Zip":"90670"},{"Location":"QUICK SERVICE DIST","Address":"11755 Slauson Ave","City":"Santa Fe Springs","State":"CA","Zip":"90670"},{"Location":"R R LEONARD COMPANY","Address":"10910 Shoemaker Ave","City":"Santa Fe Springs","State":"CA","Zip":"90670"},{"Location":"RAGO FOOD DISTRIBUTER","Address":"12915 Telegraph Rd G","City":"Santa Fe Springs","State":"CA","Zip":"90670"},{"Location":"REFUNDS TODAY","Address":"10430 Pioneer Blvd 2","City":"Santa Fe Springs","State":"CA","Zip":"90670"},{"Location":"ROAD RACE MOTOR SPORTS","Address":"13037 Lakeland Rd F","City":"Santa Fe Springs","State":"CA","Zip":"90670"},{"Location":"ROYAL CORP","Address":"10232 Palm Dr","City":"Santa Fe Springs","State":"CA","Zip":"90670"},{"Location":"SANTA FE SPRINGS FIRE STATION","Address":"11736 Telegraph Rd","City":"Santa Fe Springs","State":"CA","Zip":"90670"},{"Location":"SANTA FE SPRINGS POLICE","Address":"12636 Emmens Way","City":"Santa Fe Springs","State":"CA","Zip":"90670"},{"Location":"SANTA FE SPRINGS SWAP MEET","Address":"13963 Alondra Blvd","City":"Santa Fe Springs","State":"CA","Zip":"90670"},{"Location":"SANTE FE SPRINGS LIBRARY","Address":"11700 Telegraph Rd","City":"Santa Fe Springs","State":"CA","Zip":"90670"},{"Location":"SHAW INDUSTRIES TWO","Address":"15305 Valley View Ave","City":"Santa Fe Springs","State":"CA","Zip":"90670"},{"Location":"SHORING ENGINEERS","Address":"12645 Clark St","City":"Santa Fe Springs","State":"CA","Zip":"90670"},{"Location":"SHOWCASE FACILITY SOLUTIONS","Address":"13021 Leffingwell Ave","City":"Santa Fe Springs","State":"CA","Zip":"90670"},{"Location":"SO COOL AIR CONDITIONING","Address":"14126 Gannet St 109","City":"Santa Fe Springs","State":"CA","Zip":"90670"},{"Location":"SOUTHERN CALIFORNIA EDISON","Address":"9901 Geary Ave","City":"Santa Fe Springs","State":"CA","Zip":"90670"},{"Location":"SOUTHERN WINE AND SPIRITS","Address":"13500 Foster Rd","City":"Santa Fe Springs","State":"CA","Zip":"90670"},{"Location":"SUPERIOR","Address":"15510 Carmenita Rd","City":"Santa Fe Springs","State":"CA","Zip":"90670"},{"Location":"SUPREME ENTERPRISE","Address":"8417 Secura Way","City":"Santa Fe Springs","State":"CA","Zip":"90670"},{"Location":"TANGRAM INTERIORS","Address":"9200 Sorensen Ave","City":"Santa Fe Springs","State":"CA","Zip":"90670"},{"Location":"TARGET","Address":"10621 Carmenita Rd","City":"Santa Fe Springs","State":"CA","Zip":"90670"},{"Location":"TARGET SPECIALTY PRODUCTS","Address":"15415 Marquardt Ave","City":"Santa Fe Springs","State":"CA","Zip":"90670"},{"Location":"THE COUNTERTOP FACTORY","Address":"12337 Telegraph Rd","City":"Santa Fe Springs","State":"CA","Zip":"90670"},{"Location":"THE MICRO CONNECTION ENT","Address":"9834 Jordan Cir","City":"Santa Fe Springs","State":"CA","Zip":"90670"},{"Location":"TUBE SERVICE COMPANY","Address":"9351 Norwalk Blvd","City":"Santa Fe Springs","State":"CA","Zip":"90670"},{"Location":"TWIN MED","Address":"11333 Greenstone Ave","City":"Santa Fe Springs","State":"CA","Zip":"90670"},{"Location":"UNITED ALLOYS AND METALS","Address":"9600 John St","City":"Santa Fe Springs","State":"CA","Zip":"90670"},{"Location":"US ARMOR CORP","Address":"10715 Bloomfield Ave","City":"Santa Fe Springs","State":"CA","Zip":"90670"},{"Location":"VALOR HEALTH CARE WHITTIE CVOC","Address":"10210 Orr And Day Rd B","City":"Santa Fe Springs","State":"CA","Zip":"90670"},{"Location":"VALVE AND STEEL SUPPLY","Address":"10826 Norwalk Blvd","City":"Santa Fe Springs","State":"CA","Zip":"90670"},{"Location":"VANS","Address":"15700 Shoemaker Ave","City":"Santa Fe Springs","State":"CA","Zip":"90670"},{"Location":"VANS 2","Address":"15700 Shoemaker Ave","City":"Santa Fe Springs","State":"CA","Zip":"90670"},{"Location":"VFW POST #3752","Address":"11912 Rivera Rd A","City":"Santa Fe Springs","State":"CA","Zip":"90670"},{"Location":"VOTAW PRECISION TECHNOLGY","Address":"13153 Lakeland Rd","City":"Santa Fe Springs","State":"CA","Zip":"90670"},{"Location":"WEST COAST LAMINATING","Address":"13833 Borate St","City":"Santa Fe Springs","State":"CA","Zip":"90670"},{"Location":"WESTRUX INTERNATIONAL INC","Address":"15555 Valley View Ave","City":"Santa Fe Springs","State":"CA","Zip":"90670"},{"Location":"WILSONART","Address":"13911 Gannet St","City":"Santa Fe Springs","State":"CA","Zip":"90670"},{"Location":"WOODS ELECTRIC COMPANY","Address":"9214 Norwalk Blvd","City":"Santa Fe Springs","State":"CA","Zip":"90670"},{"Location":"ZUMAR #2","Address":"9719 Santa Fe Springs Rd","City":"Santa Fe Springs","State":"CA","Zip":"90670"}]