[{"Location":"A1 AUTOMATION INC","Address":"8432 Katella Ave","City":"Stanton","State":"CA","Zip":"90680"},{"Location":"ABC LAUNDROMAT","Address":"7014 Katella Ave","City":"Stanton","State":"CA","Zip":"90680"},{"Location":"ABILITY CENTER","Address":"11600 Western Ave","City":"Stanton","State":"CA","Zip":"90680"},{"Location":"ACAPULCO RESTAURANT 59","Address":"12765 Beach Blvd","City":"Stanton","State":"CA","Zip":"90680"},{"Location":"B AND E","Address":"7562 Orangewood Ave","City":"Stanton","State":"CA","Zip":"90680"},{"Location":"BEACH CITY GRINDING","Address":"10553 Dale Ave","City":"Stanton","State":"CA","Zip":"90680"},{"Location":"BIEN DUONG","Address":"12465 Beach Blvd","City":"Stanton","State":"CA","Zip":"90680"},{"Location":"BOTTOMS UP","Address":"8595 Katella Ave","City":"Stanton","State":"CA","Zip":"90680"},{"Location":"CORNER POCKET","Address":"10781 Dale Ave","City":"Stanton","State":"CA","Zip":"90680"},{"Location":"CR AND R INC","Address":"11292 Western Ave","City":"Stanton","State":"CA","Zip":"90680"},{"Location":"EXCALIBUR LAUNDRIES","Address":"8171 Monroe Ave","City":"Stanton","State":"CA","Zip":"90680"},{"Location":"FIELD TIME TARGET AND TRAINING","Address":"8230 Electric Ave","City":"Stanton","State":"CA","Zip":"90680"},{"Location":"GINO PIZZA","Address":"10464 Beach Blvd","City":"Stanton","State":"CA","Zip":"90680"},{"Location":"GLOBAL STUDENT HOUSING","Address":"7161 Katella Ave","City":"Stanton","State":"CA","Zip":"90680"},{"Location":"GOOD FELLAS BARBERSHOP","Address":"7023 Katella Ave 7023","City":"Stanton","State":"CA","Zip":"90680"},{"Location":"GUNG JUNG","Address":"10330 Beach Blvd A","City":"Stanton","State":"CA","Zip":"90680"},{"Location":"HARRYS CAFE","Address":"8461 Katella Ave","City":"Stanton","State":"CA","Zip":"90680"},{"Location":"HARRYS CAFE","Address":"12021 Beach Blvd","City":"Stanton","State":"CA","Zip":"90680"},{"Location":"HIKARI SUSHI","Address":"7015 Katella Ave","City":"Stanton","State":"CA","Zip":"90680"},{"Location":"LA BARCA NIGHT CLUB","Address":"11221 Beach Blvd","City":"Stanton","State":"CA","Zip":"90680"},{"Location":"LEE SANDWICH","Address":"12550 Beach Blvd","City":"Stanton","State":"CA","Zip":"90680"},{"Location":"LUCKY JOHN'S #3 INC.","Address":"12435 Beach Blvd","City":"Stanton","State":"CA","Zip":"90680"},{"Location":"MAKIYAKI","Address":"12522 Beach Blvd","City":"Stanton","State":"CA","Zip":"90680"},{"Location":"MANWONGOL","Address":"10332 Beach Blvd","City":"Stanton","State":"CA","Zip":"90680"},{"Location":"MARISCOS VISTA DEL MAR","Address":"6999 Cerritos Ave","City":"Stanton","State":"CA","Zip":"90680"},{"Location":"ODDBALLS","Address":"8440 Cerritos Ave","City":"Stanton","State":"CA","Zip":"90680"},{"Location":"PURE BARBERS","Address":"7437 Cerritos Ave","City":"Stanton","State":"CA","Zip":"90680"},{"Location":"QUAN KHAT","Address":"12860 Beach Blvd Ab","City":"Stanton","State":"CA","Zip":"90680"},{"Location":"RACK N CUE","Address":"7520 Katella Ave","City":"Stanton","State":"CA","Zip":"90680"},{"Location":"RESTAURANT SEOL AK SAN","Address":"12140 Beach Blvd","City":"Stanton","State":"CA","Zip":"90680"},{"Location":"RONS WHOLESALETIRE","Address":"10971 Dale Ave","City":"Stanton","State":"CA","Zip":"90680"},{"Location":"SKY SUSHI","Address":"7145 Katella Ave","City":"Stanton","State":"CA","Zip":"90680"},{"Location":"STANTON PET HOSPITAL","Address":"8591 Katella Ave","City":"Stanton","State":"CA","Zip":"90680"},{"Location":"TELETRON","Address":"12820 Beach Blvd","City":"Stanton","State":"CA","Zip":"90680"},{"Location":"TOWN HAIR","Address":"7536 Katella Ave","City":"Stanton","State":"CA","Zip":"90680"},{"Location":"VENUS LOUNGE","Address":"11572 Beach Blvd","City":"Stanton","State":"CA","Zip":"90680"}]