[{"Location":"A1 MOTORSPORTS","Address":"12234 South St","City":"Artesia","State":"CA","Zip":"90701"},{"Location":"AMERICAN RANCH  SEAFOOD","Address":"19105 Pioneer Blvd","City":"Artesia","State":"CA","Zip":"90701"},{"Location":"ARIRANG","Address":"18011 Norwalk Blvd A","City":"Artesia","State":"CA","Zip":"90701"},{"Location":"ARTESIA DENTAL CARE","Address":"11649 Artesia Blvd","City":"Artesia","State":"CA","Zip":"90701"},{"Location":"ARTESIA ICE CO","Address":"11846 Frampton Ct","City":"Artesia","State":"CA","Zip":"90701"},{"Location":"ARTESIA ICE PALACE","Address":"11446 Artesia Blvd","City":"Artesia","State":"CA","Zip":"90701"},{"Location":"ASOKA THE GREAT","Address":"18614 Pioneer Blvd","City":"Artesia","State":"CA","Zip":"90701"},{"Location":"AZONS FILIPINO RESTAURANT","Address":"11612 South St","City":"Artesia","State":"CA","Zip":"90701"},{"Location":"BBCN BANK","Address":"17127 Pioneer Blvd","City":"Artesia","State":"CA","Zip":"90701"},{"Location":"BELLY BOMZ KITCHEN","Address":"11824 Artesia Blvd","City":"Artesia","State":"CA","Zip":"90701"},{"Location":"BETH J SKIN CARE 2","Address":"12141 South St","City":"Artesia","State":"CA","Zip":"90701"},{"Location":"CHRISTOPHER LAN","Address":"12225 South St 100","City":"Artesia","State":"CA","Zip":"90701"},{"Location":"D J BIBINGKAHAN","Address":"12155 South St","City":"Artesia","State":"CA","Zip":"90701"},{"Location":"DR KEN IWAKI","Address":"11700 Artesia Blvd","City":"Artesia","State":"CA","Zip":"90701"},{"Location":"FLYING CHICKEN PA DAK","Address":"12238 Artesia Blvd","City":"Artesia","State":"CA","Zip":"90701"},{"Location":"GARDEN BUFFET BBQ","Address":"11746 South St","City":"Artesia","State":"CA","Zip":"90701"},{"Location":"JOSE DON MEX","Address":"11805 Artesia Blvd","City":"Artesia","State":"CA","Zip":"90701"},{"Location":"JULIO'S PIZZA RESTAURANT & BAR","Address":"11651 Artesia Blvd","City":"Artesia","State":"CA","Zip":"90701"},{"Location":"JULIO'S PIZZA RESTAURANT & BAR","Address":"17538 Pioneer Blvd","City":"Artesia","State":"CA","Zip":"90701"},{"Location":"KARIYA SHABU SHABU & BBQ","Address":"18868 Norwalk Blvd","City":"Artesia","State":"CA","Zip":"90701"},{"Location":"LILY HEALTH CARE","Address":"12220 South St","City":"Artesia","State":"CA","Zip":"90701"},{"Location":"LYTTD","Address":"11710 South St 104","City":"Artesia","State":"CA","Zip":"90701"},{"Location":"MV GENERATION INC","Address":"11688 South St 104","City":"Artesia","State":"CA","Zip":"90701"},{"Location":"NEW SEOUL SOONDAE","Address":"11750 Artesia Blvd","City":"Artesia","State":"CA","Zip":"90701"},{"Location":"PHO 2000","Address":"17801 Pioneer Blvd L","City":"Artesia","State":"CA","Zip":"90701"},{"Location":"PRIME GRILL CORP","Address":"11710 South St 108","City":"Artesia","State":"CA","Zip":"90701"},{"Location":"REALTY SPECIALTY","Address":"18760 Pioneer Blvd","City":"Artesia","State":"CA","Zip":"90701"},{"Location":"RED EYE FISH","Address":"18921 Norwalk Blvd","City":"Artesia","State":"CA","Zip":"90701"},{"Location":"RED ROBIN #39","Address":"360 Los Cerritos Center","City":"Artesia","State":"CA","Zip":"90701"},{"Location":"SALL RESEARCH MEDICAL CENTER","Address":"11423 187th St","City":"Artesia","State":"CA","Zip":"90701"},{"Location":"SECURE INVESTMENTS","Address":"18743 Pioneer Blvd 205","City":"Artesia","State":"CA","Zip":"90701"},{"Location":"SPIN SHAVED ICE","Address":"11824 Artesia Blvd","City":"Artesia","State":"CA","Zip":"90701"},{"Location":"SURATI FARSAN MART","Address":"11814 186th St","City":"Artesia","State":"CA","Zip":"90701"},{"Location":"SUSHI SAMURAI","Address":"11700 South St 101","City":"Artesia","State":"CA","Zip":"90701"},{"Location":"TPT LLC","Address":"11660 South St 109","City":"Artesia","State":"CA","Zip":"90701"},{"Location":"TRAN AND ASSOCIATES","Address":"11423 187th St","City":"Artesia","State":"CA","Zip":"90701"},{"Location":"TRU NAILS SPA","Address":"11660 South St","City":"Artesia","State":"CA","Zip":"90701"},{"Location":"UNITED CENTRAL BANK","Address":"11710 South St 101","City":"Artesia","State":"CA","Zip":"90701"},{"Location":"YELLOW SEA ILAND","Address":"11746 Artesia Blvd A","City":"Artesia","State":"CA","Zip":"90701"},{"Location":"YOJIE SHABUSHABU","Address":"11710 South St 105","City":"Artesia","State":"CA","Zip":"90701"},{"Location":"DR S KENT CHOY INC","Address":"11911 Artesia Blvd 102","City":"Cerritos","State":"CA","Zip":"90701"},{"Location":"WESTPORT ESCROW","Address":"12328 South St","City":"Cerritos","State":"CA","Zip":"90701"}]