[{"Location":"E D LUCE PACAKGING","Address":"13918 Equitable Rd","City":"Artesia","State":"CA","Zip":"90703"},{"Location":"WORKSHOP","Address":"16819 Gridley Pl","City":"Artesia","State":"CA","Zip":"90703"},{"Location":"7149282075","Address":"16466 Norwalk Blvd","City":"Cerritos","State":"CA","Zip":"90703"},{"Location":"ABZ PEST CONTROL SERVICES","Address":"17546 Studebaker Rd","City":"Cerritos","State":"CA","Zip":"90703"},{"Location":"AJITO","Address":"11314 South St","City":"Cerritos","State":"CA","Zip":"90703"},{"Location":"AMF CERRITOS LANES #567","Address":"18811 Carmenita Rd","City":"Cerritos","State":"CA","Zip":"90703"},{"Location":"AMOR Y TACOS","Address":"13333 South St","City":"Cerritos","State":"CA","Zip":"90703"},{"Location":"ANCHOR LOANS","Address":"12800 Center Court Dr S 100","City":"Cerritos","State":"CA","Zip":"90703"},{"Location":"ARROWHEAD SYRUP","Address":"17108 Edwards Rd","City":"Cerritos","State":"CA","Zip":"90703"},{"Location":"ATT MOBILITY","Address":"12911 183rd St","City":"Cerritos","State":"CA","Zip":"90703"},{"Location":"BBQ SURAWON","Address":"16448 Norwalk Blvd","City":"Cerritos","State":"CA","Zip":"90703"},{"Location":"BELTRAN","Address":"16480 Norwalk Blvd","City":"Cerritos","State":"CA","Zip":"90703"},{"Location":"BIOSPACE INC","Address":"13850 Cerritos Corporate Dr C","City":"Cerritos","State":"CA","Zip":"90703"},{"Location":"BJS RESTAURANT #430","Address":"11101 183rd St","City":"Cerritos","State":"CA","Zip":"90703"},{"Location":"BRADCAL INC","Address":"13013 166th St","City":"Cerritos","State":"CA","Zip":"90703"},{"Location":"BRAINSTORM","Address":"18000 Studebaker Rd 520","City":"Cerritos","State":"CA","Zip":"90703"},{"Location":"BROWNING AUTOMOTIVE GROUP","Address":"18803 Studebaker Rd","City":"Cerritos","State":"CA","Zip":"90703"},{"Location":"BROWNING AUTOMOTIVE GROUP","Address":"16625 Norwalk Blvd","City":"Cerritos","State":"CA","Zip":"90703"},{"Location":"BROWNING COLLISION","Address":"18827 Shudebaker Rd","City":"Cerritos","State":"CA","Zip":"90703"},{"Location":"BUFFALO WILD WINGS #0308","Address":"11255 183rd St","City":"Cerritos","State":"CA","Zip":"90703"},{"Location":"CAFE HQ","Address":"13337 Artesia Blvd","City":"Cerritos","State":"CA","Zip":"90703"},{"Location":"CALIFORNIA FISH GRILL","Address":"11421 South St C1","City":"Cerritos","State":"CA","Zip":"90703"},{"Location":"CALIFORNIA PIZZA KITCHEN #120","Address":"310 Los Cerritos Mall","City":"Cerritos","State":"CA","Zip":"90703"},{"Location":"CAREMORE","Address":"12898 Towne Center Dr","City":"Cerritos","State":"CA","Zip":"90703"},{"Location":"CAREMORE MEDICAL ENTERPRISES","Address":"12900 Park Plaza Dr 150","City":"Cerritos","State":"CA","Zip":"90703"},{"Location":"CCC INFORMATION SERVICES","Address":"12610 Park Plaza Dr 200","City":"Cerritos","State":"CA","Zip":"90703"},{"Location":"CENTURY 21 CLASSIC ESTATES","Address":"13217 South St","City":"Cerritos","State":"CA","Zip":"90703"},{"Location":"CERRITOS ACURA","Address":"18827 Studebaker Rd","City":"Cerritos","State":"CA","Zip":"90703"},{"Location":"CERRITOS BUICK PONTAIC","Address":"18400 Stuebaker Rd.","City":"Cerritos","State":"CA","Zip":"90703"},{"Location":"CERRITOS BUICK PONTIAC GMC","Address":"17720 Crusader Ave","City":"Cerritos","State":"CA","Zip":"90703"},{"Location":"CERRITOS COLLEGE","Address":"11051 166th St","City":"Cerritos","State":"CA","Zip":"90703"},{"Location":"CERRITOS FORD INC","Address":"18900 Studebaker Rd","City":"Cerritos","State":"CA","Zip":"90703"},{"Location":"CG RESTAURANT GROUP","Address":"11308 South St","City":"Cerritos","State":"CA","Zip":"90703"},{"Location":"CHUN SUN MIN","Address":"19402 Vickie Ave","City":"Cerritos","State":"CA","Zip":"90703"},{"Location":"CLAUDIA MIZUTANI","Address":"10805 Artesia Blvd 105","City":"Cerritos","State":"CA","Zip":"90703"},{"Location":"CONGRESSWOMEN LINDA SANCHEZ","Address":"17906 Crusader Ave 100","City":"Cerritos","State":"CA","Zip":"90703"},{"Location":"D SOTO AND ASSOCIATES","Address":"11016 Artesia Blvd","City":"Cerritos","State":"CA","Zip":"90703"},{"Location":"DAVIS MECHANICAL PLUMBING INC","Address":"17530 Studebaker Rd","City":"Cerritos","State":"CA","Zip":"90703"},{"Location":"DAVITA #5788 CERRITOS (CITRUS)","Address":"1922 Pioneer Blvd 101","City":"Cerritos","State":"CA","Zip":"90703"},{"Location":"DONGSUNG BIOPHARM INC","Address":"13838 Bentley Pl A","City":"Cerritos","State":"CA","Zip":"90703"},{"Location":"ECOLOGY AUTO PARTS","Address":"14150 Vine Pl","City":"Cerritos","State":"CA","Zip":"90703"},{"Location":"EL ROCOTO","Address":"11433 South St","City":"Cerritos","State":"CA","Zip":"90703"},{"Location":"EL TORITO 0054","Address":"11167 183rd St","City":"Cerritos","State":"CA","Zip":"90703"},{"Location":"FANZZ CERRITOS","Address":"122 Los Cerritos Mall","City":"Cerritos","State":"CA","Zip":"90703"},{"Location":"FIRESTONE #015180","Address":"11524 South St","City":"Cerritos","State":"CA","Zip":"90703"},{"Location":"FIRST MEDICAL CENTER","Address":"11841 South St","City":"Cerritos","State":"CA","Zip":"90703"},{"Location":"FLEISCHMANNS VINEGAR","Address":"12604 Hiddencreek Way","City":"Cerritos","State":"CA","Zip":"90703"},{"Location":"FRANTONES PIZZA SPAGHETTI","Address":"10808 Alondra Blvd","City":"Cerritos","State":"CA","Zip":"90703"},{"Location":"GATTEN SUSHI CERRITOS","Address":"11306 1%2F2 South St","City":"Cerritos","State":"CA","Zip":"90703"},{"Location":"GOLFSMITH 126","Address":"12865 Towne Center Dr","City":"Cerritos","State":"CA","Zip":"90703"},{"Location":"GUPPY TEAHOUSE","Address":"11803 South St","City":"Cerritos","State":"CA","Zip":"90703"},{"Location":"HANJIN SHIPPING CERRITOS","Address":"17785 Center Court Dr N 650","City":"Cerritos","State":"CA","Zip":"90703"},{"Location":"HANSANG 2","Address":"11454 South St","City":"Cerritos","State":"CA","Zip":"90703"},{"Location":"IMORTGAGE","Address":"17777 Center Court Dr N 275","City":"Cerritos","State":"CA","Zip":"90703"},{"Location":"INFINITY INSURANCE","Address":"13340 183rd St 100","City":"Cerritos","State":"CA","Zip":"90703"},{"Location":"ISUZU MOTORS AMERICA","Address":"13340 183rd St","City":"Cerritos","State":"CA","Zip":"90703"},{"Location":"JANGKUM RESTAURANTS","Address":"16440 Norwalk Blvd 105","City":"Cerritos","State":"CA","Zip":"90703"},{"Location":"JAY M AZLING DDS","Address":"12622 South St","City":"Cerritos","State":"CA","Zip":"90703"},{"Location":"JEEPNEY ASIAN GRILL","Address":"11900 South St 101","City":"Cerritos","State":"CA","Zip":"90703"},{"Location":"JINJU KOREAN RESTAURANT","Address":"13349 Artesia Blvd","City":"Cerritos","State":"CA","Zip":"90703"},{"Location":"KABUKI RESTAURANT","Address":"11431 South St","City":"Cerritos","State":"CA","Zip":"90703"},{"Location":"KOBEEL USA INC","Address":"13929 Struikman Rd","City":"Cerritos","State":"CA","Zip":"90703"},{"Location":"KOHL'S #590","Address":"12821 Towne Center Dr","City":"Cerritos","State":"CA","Zip":"90703"},{"Location":"LA FITNESS #19","Address":"10802 Alondra Blvd","City":"Cerritos","State":"CA","Zip":"90703"},{"Location":"LBS FINANCIAL","Address":"11239 183rd St","City":"Cerritos","State":"CA","Zip":"90703"},{"Location":"LEXUS OF CERRITOS","Address":"18800 Studebaker Rd","City":"Cerritos","State":"CA","Zip":"90703"},{"Location":"LUCILLES BBQ","Address":"11338 South St","City":"Cerritos","State":"CA","Zip":"90703"},{"Location":"MACARONI GRILL #1197","Address":"12875 Towne Center Dr","City":"Cerritos","State":"CA","Zip":"90703"},{"Location":"MACY'S WEST 483","Address":"500 Los Cerritos Mall","City":"Cerritos","State":"CA","Zip":"90703"},{"Location":"MACY'S WEST 483 BR","Address":"500 Los Cerritos Mall","City":"Cerritos","State":"CA","Zip":"90703"},{"Location":"MAKI SUSHI","Address":"13309 Artesia Blvd","City":"Cerritos","State":"CA","Zip":"90703"},{"Location":"MARCONE SUPPLY","Address":"13825 Cerritos Corporate Dr Steb","City":"Cerritos","State":"CA","Zip":"90703"},{"Location":"MCKENNA VOLKSWAGEN","Address":"18303 Studebaker Rd","City":"Cerritos","State":"CA","Zip":"90703"},{"Location":"MED POST URGENT CARE","Address":"13299 South St","City":"Cerritos","State":"CA","Zip":"90703"},{"Location":"MEN'S WEARHOUSE #2713","Address":"17550 Bloomfield Ave B1","City":"Cerritos","State":"CA","Zip":"90703"},{"Location":"MICROSOFT - CERRITOS","Address":"331 Los Cerritos Mall","City":"Cerritos","State":"CA","Zip":"90703"},{"Location":"MIDWAY INTERNATIONAL INC","Address":"16511 Carmenita Rd","City":"Cerritos","State":"CA","Zip":"90703"},{"Location":"MYUNG SUNG NOODLE","Address":"12243 Artesia Blvd","City":"Cerritos","State":"CA","Zip":"90703"},{"Location":"NGUYEN","Address":"11316 South St 1%2F2","City":"Cerritos","State":"CA","Zip":"90703"},{"Location":"NINE SEAFOOD LLC","Address":"11818 South St 108","City":"Cerritos","State":"CA","Zip":"90703"},{"Location":"NORDSTORM LOS CORRITOS","Address":"600 Los Cerritos Mall","City":"Cerritos","State":"CA","Zip":"90703"},{"Location":"NORM REEVES HONDA - CERRITOS","Address":"18500 Studebaker Rd","City":"Cerritos","State":"CA","Zip":"90703"},{"Location":"PANKL AREO SPACE","Address":"16615 Edwards Rd","City":"Cerritos","State":"CA","Zip":"90703"},{"Location":"PEKING WOK","Address":"11203 183rd St","City":"Cerritos","State":"CA","Zip":"90703"},{"Location":"PENSKE JAGUAR LAND ROVER","Address":"10861 183rd St","City":"Cerritos","State":"CA","Zip":"90703"},{"Location":"PINOY PINAY RESTAURANT","Address":"11900 South St 107-1","City":"Cerritos","State":"CA","Zip":"90703"},{"Location":"POWER TOYOTA CERRITOS","Address":"18700 Studebaker Rd","City":"Cerritos","State":"CA","Zip":"90703"},{"Location":"PRINTING MANAGEMENT ASSOCIATES","Address":"17128 Edwards Rd","City":"Cerritos","State":"CA","Zip":"90703"},{"Location":"PROLOGIS INC.","Address":"17777 Center Court Dr N 100","City":"Cerritos","State":"CA","Zip":"90703"},{"Location":"PRUDENTIAL CALIFORNIA REALTY","Address":"18000 Studebaker Rd 600","City":"Cerritos","State":"CA","Zip":"90703"},{"Location":"R THREE","Address":"15959 Piuma Ave","City":"Cerritos","State":"CA","Zip":"90703"},{"Location":"RAZOR USA","Address":"12723 166th St","City":"Cerritos","State":"CA","Zip":"90703"},{"Location":"REVOLVE CLOTHING","Address":"16716 Edwards Rd","City":"Cerritos","State":"CA","Zip":"90703"},{"Location":"REVOLVE CLOTHING","Address":"16800 Edwards Rd","City":"Cerritos","State":"CA","Zip":"90703"},{"Location":"ROCKTENN","Address":"18021 Valley View Ave","City":"Cerritos","State":"CA","Zip":"90703"},{"Location":"SCHOOLSFIRST FCU","Address":"17500 Bloomfield Ave","City":"Cerritos","State":"CA","Zip":"90703"},{"Location":"SCOTTRADE N04","Address":"11409 South St C-4","City":"Cerritos","State":"CA","Zip":"90703"},{"Location":"SHIPMATES RESTAURANT & SPORTS","Address":"11424 South St","City":"Cerritos","State":"CA","Zip":"90703"},{"Location":"SOMUNNAN RESTARUNT","Address":"13303 Artesia Blvd","City":"Cerritos","State":"CA","Zip":"90703"},{"Location":"SOUTH STREET GRILL","Address":"10769 South St","City":"Cerritos","State":"CA","Zip":"90703"},{"Location":"SOUTHERN WINE & SPIRITS","Address":"17101 Valley View Ave","City":"Cerritos","State":"CA","Zip":"90703"},{"Location":"SPORTS AUTHORITY 638","Address":"11900 South St","City":"Cerritos","State":"CA","Zip":"90703"},{"Location":"STACKED CERRITOS","Address":"18425 Gridley Rd","City":"Cerritos","State":"CA","Zip":"90703"},{"Location":"STAR BURGERS","Address":"13400 Alondra Blvd","City":"Cerritos","State":"CA","Zip":"90703"},{"Location":"STRAW HAT PIZZA CERRITOS","Address":"10729 South St","City":"Cerritos","State":"CA","Zip":"90703"},{"Location":"T HASEGAWA","Address":"14047 183rd St","City":"Cerritos","State":"CA","Zip":"90703"},{"Location":"TARGET 1305","Address":"11525 South St","City":"Cerritos","State":"CA","Zip":"90703"},{"Location":"TARGET STORE 289","Address":"20200 Bloomfield Ave","City":"Cerritos","State":"CA","Zip":"90703"},{"Location":"TGI FRIDAY'S #1945","Address":"12721 Towne Center Dr","City":"Cerritos","State":"CA","Zip":"90703"},{"Location":"THE CORNER PLACE","Address":"19100 Gridley Rd","City":"Cerritos","State":"CA","Zip":"90703"},{"Location":"THE HAIR WHISPERER","Address":"11412 South St","City":"Cerritos","State":"CA","Zip":"90703"},{"Location":"THE LAZY DOG CAFE - CERR","Address":"278 Los Cerritos Mall","City":"Cerritos","State":"CA","Zip":"90703"},{"Location":"TSI TITLE COMPANY OF CAL","Address":"17785 Center Court Dr N","City":"Cerritos","State":"CA","Zip":"90703"},{"Location":"UMAYA RAMEN","Address":"11318 South St","City":"Cerritos","State":"CA","Zip":"90703"},{"Location":"UMEKEN","Address":"13012 Moore St","City":"Cerritos","State":"CA","Zip":"90703"},{"Location":"UNITED PARCEL SERVICE","Address":"13233 Moore St","City":"Cerritos","State":"CA","Zip":"90703"},{"Location":"WHEEL PROS","Address":"16010 Bloomfield Ave","City":"Cerritos","State":"CA","Zip":"90703"},{"Location":"WINGSTOP","Address":"11445 South St","City":"Cerritos","State":"CA","Zip":"90703"},{"Location":"WOOD RANCH BBQ & GRILL","Address":"12801 Towne Center Dr","City":"Cerritos","State":"CA","Zip":"90703"},{"Location":"E D LUCE PACAKGING","Address":"13918 Equitable Rd","City":"Artesia","State":"CA","Zip":"90703"},{"Location":"WORKSHOP","Address":"16819 Gridley Pl","City":"Artesia","State":"CA","Zip":"90703"},{"Location":"7149282075","Address":"16466 Norwalk Blvd","City":"Cerritos","State":"CA","Zip":"90703"},{"Location":"ABZ PEST CONTROL SERVICES","Address":"17546 Studebaker Rd","City":"Cerritos","State":"CA","Zip":"90703"},{"Location":"AJITO","Address":"11314 South St","City":"Cerritos","State":"CA","Zip":"90703"},{"Location":"AMF CERRITOS LANES #567","Address":"18811 Carmenita Rd","City":"Cerritos","State":"CA","Zip":"90703"},{"Location":"AMOR Y TACOS","Address":"13333 South St","City":"Cerritos","State":"CA","Zip":"90703"},{"Location":"ANCHOR LOANS","Address":"12800 Center Court Dr S 100","City":"Cerritos","State":"CA","Zip":"90703"},{"Location":"ARROWHEAD SYRUP","Address":"17108 Edwards Rd","City":"Cerritos","State":"CA","Zip":"90703"},{"Location":"ATT MOBILITY","Address":"12911 183rd St","City":"Cerritos","State":"CA","Zip":"90703"},{"Location":"BBQ SURAWON","Address":"16448 Norwalk Blvd","City":"Cerritos","State":"CA","Zip":"90703"},{"Location":"BELTRAN","Address":"16480 Norwalk Blvd","City":"Cerritos","State":"CA","Zip":"90703"},{"Location":"BIOSPACE INC","Address":"13850 Cerritos Corporate Dr C","City":"Cerritos","State":"CA","Zip":"90703"},{"Location":"BJS RESTAURANT #430","Address":"11101 183rd St","City":"Cerritos","State":"CA","Zip":"90703"},{"Location":"BRADCAL INC","Address":"13013 166th St","City":"Cerritos","State":"CA","Zip":"90703"},{"Location":"BRAINSTORM","Address":"18000 Studebaker Rd 520","City":"Cerritos","State":"CA","Zip":"90703"},{"Location":"BROWNING AUTOMOTIVE GROUP","Address":"18803 Studebaker Rd","City":"Cerritos","State":"CA","Zip":"90703"},{"Location":"BROWNING AUTOMOTIVE GROUP","Address":"16625 Norwalk Blvd","City":"Cerritos","State":"CA","Zip":"90703"},{"Location":"BROWNING COLLISION","Address":"18827 Shudebaker Rd","City":"Cerritos","State":"CA","Zip":"90703"},{"Location":"BUFFALO WILD WINGS #0308","Address":"11255 183rd St","City":"Cerritos","State":"CA","Zip":"90703"},{"Location":"CAFE HQ","Address":"13337 Artesia Blvd","City":"Cerritos","State":"CA","Zip":"90703"},{"Location":"CALIFORNIA FISH GRILL","Address":"11421 South St C1","City":"Cerritos","State":"CA","Zip":"90703"},{"Location":"CALIFORNIA PIZZA KITCHEN #120","Address":"310 Los Cerritos Mall","City":"Cerritos","State":"CA","Zip":"90703"},{"Location":"CAREMORE","Address":"12898 Towne Center Dr","City":"Cerritos","State":"CA","Zip":"90703"},{"Location":"CAREMORE MEDICAL ENTERPRISES","Address":"12900 Park Plaza Dr 150","City":"Cerritos","State":"CA","Zip":"90703"},{"Location":"CCC INFORMATION SERVICES","Address":"12610 Park Plaza Dr 200","City":"Cerritos","State":"CA","Zip":"90703"},{"Location":"CENTURY 21 CLASSIC ESTATES","Address":"13217 South St","City":"Cerritos","State":"CA","Zip":"90703"},{"Location":"CERRITOS ACURA","Address":"18827 Studebaker Rd","City":"Cerritos","State":"CA","Zip":"90703"},{"Location":"CERRITOS BUICK PONTAIC","Address":"18400 Stuebaker Rd.","City":"Cerritos","State":"CA","Zip":"90703"},{"Location":"CERRITOS BUICK PONTIAC GMC","Address":"17720 Crusader Ave","City":"Cerritos","State":"CA","Zip":"90703"},{"Location":"CERRITOS COLLEGE","Address":"11051 166th St","City":"Cerritos","State":"CA","Zip":"90703"},{"Location":"CERRITOS FORD INC","Address":"18900 Studebaker Rd","City":"Cerritos","State":"CA","Zip":"90703"},{"Location":"CG RESTAURANT GROUP","Address":"11308 South St","City":"Cerritos","State":"CA","Zip":"90703"},{"Location":"CHUN SUN MIN","Address":"19402 Vickie Ave","City":"Cerritos","State":"CA","Zip":"90703"},{"Location":"CLAUDIA MIZUTANI","Address":"10805 Artesia Blvd 105","City":"Cerritos","State":"CA","Zip":"90703"},{"Location":"CONGRESSWOMEN LINDA SANCHEZ","Address":"17906 Crusader Ave 100","City":"Cerritos","State":"CA","Zip":"90703"},{"Location":"D SOTO AND ASSOCIATES","Address":"11016 Artesia Blvd","City":"Cerritos","State":"CA","Zip":"90703"},{"Location":"DAVIS MECHANICAL PLUMBING INC","Address":"17530 Studebaker Rd","City":"Cerritos","State":"CA","Zip":"90703"},{"Location":"DAVITA #5788 CERRITOS (CITRUS)","Address":"1922 Pioneer Blvd 101","City":"Cerritos","State":"CA","Zip":"90703"},{"Location":"DONGSUNG BIOPHARM INC","Address":"13838 Bentley Pl A","City":"Cerritos","State":"CA","Zip":"90703"},{"Location":"ECOLOGY AUTO PARTS","Address":"14150 Vine Pl","City":"Cerritos","State":"CA","Zip":"90703"},{"Location":"EL ROCOTO","Address":"11433 South St","City":"Cerritos","State":"CA","Zip":"90703"},{"Location":"EL TORITO 0054","Address":"11167 183rd St","City":"Cerritos","State":"CA","Zip":"90703"},{"Location":"FANZZ CERRITOS","Address":"122 Los Cerritos Mall","City":"Cerritos","State":"CA","Zip":"90703"},{"Location":"FIRESTONE #015180","Address":"11524 South St","City":"Cerritos","State":"CA","Zip":"90703"},{"Location":"FIRST MEDICAL CENTER","Address":"11841 South St","City":"Cerritos","State":"CA","Zip":"90703"},{"Location":"FLEISCHMANNS VINEGAR","Address":"12604 Hiddencreek Way","City":"Cerritos","State":"CA","Zip":"90703"},{"Location":"FRANTONES PIZZA SPAGHETTI","Address":"10808 Alondra Blvd","City":"Cerritos","State":"CA","Zip":"90703"},{"Location":"GATTEN SUSHI CERRITOS","Address":"11306 1%2F2 South St","City":"Cerritos","State":"CA","Zip":"90703"},{"Location":"GOLFSMITH 126","Address":"12865 Towne Center Dr","City":"Cerritos","State":"CA","Zip":"90703"},{"Location":"GUPPY TEAHOUSE","Address":"11803 South St","City":"Cerritos","State":"CA","Zip":"90703"},{"Location":"HANJIN SHIPPING CERRITOS","Address":"17785 Center Court Dr N 650","City":"Cerritos","State":"CA","Zip":"90703"},{"Location":"IMORTGAGE","Address":"17777 Center Court Dr N 275","City":"Cerritos","State":"CA","Zip":"90703"},{"Location":"INFINITY INSURANCE","Address":"13340 183rd St 100","City":"Cerritos","State":"CA","Zip":"90703"},{"Location":"ISUZU MOTORS AMERICA","Address":"13340 183rd St","City":"Cerritos","State":"CA","Zip":"90703"},{"Location":"JANGKUM RESTAURANTS","Address":"16440 Norwalk Blvd 105","City":"Cerritos","State":"CA","Zip":"90703"},{"Location":"JAY M AZLING DDS","Address":"12622 South St","City":"Cerritos","State":"CA","Zip":"90703"},{"Location":"JEEPNEY ASIAN GRILL","Address":"11900 South St 101","City":"Cerritos","State":"CA","Zip":"90703"},{"Location":"JINJU KOREAN RESTAURANT","Address":"13349 Artesia Blvd","City":"Cerritos","State":"CA","Zip":"90703"},{"Location":"KABUKI RESTAURANT","Address":"11431 South St","City":"Cerritos","State":"CA","Zip":"90703"},{"Location":"KOBEEL USA INC","Address":"13929 Struikman Rd","City":"Cerritos","State":"CA","Zip":"90703"},{"Location":"KOHL'S #590","Address":"12821 Towne Center Dr","City":"Cerritos","State":"CA","Zip":"90703"},{"Location":"LA FITNESS #19","Address":"10802 Alondra Blvd","City":"Cerritos","State":"CA","Zip":"90703"},{"Location":"LBS FINANCIAL","Address":"11239 183rd St","City":"Cerritos","State":"CA","Zip":"90703"},{"Location":"LEXUS OF CERRITOS","Address":"18800 Studebaker Rd","City":"Cerritos","State":"CA","Zip":"90703"},{"Location":"LUCILLES BBQ","Address":"11338 South St","City":"Cerritos","State":"CA","Zip":"90703"},{"Location":"MACARONI GRILL #1197","Address":"12875 Towne Center Dr","City":"Cerritos","State":"CA","Zip":"90703"},{"Location":"MACY'S WEST 483","Address":"500 Los Cerritos Mall","City":"Cerritos","State":"CA","Zip":"90703"},{"Location":"MACY'S WEST 483 BR","Address":"500 Los Cerritos Mall","City":"Cerritos","State":"CA","Zip":"90703"},{"Location":"MAKI SUSHI","Address":"13309 Artesia Blvd","City":"Cerritos","State":"CA","Zip":"90703"},{"Location":"MARCONE SUPPLY","Address":"13825 Cerritos Corporate Dr Steb","City":"Cerritos","State":"CA","Zip":"90703"},{"Location":"MCKENNA VOLKSWAGEN","Address":"18303 Studebaker Rd","City":"Cerritos","State":"CA","Zip":"90703"},{"Location":"MED POST URGENT CARE","Address":"13299 South St","City":"Cerritos","State":"CA","Zip":"90703"},{"Location":"MEN'S WEARHOUSE #2713","Address":"17550 Bloomfield Ave B1","City":"Cerritos","State":"CA","Zip":"90703"},{"Location":"MICROSOFT - CERRITOS","Address":"331 Los Cerritos Mall","City":"Cerritos","State":"CA","Zip":"90703"},{"Location":"MIDWAY INTERNATIONAL INC","Address":"16511 Carmenita Rd","City":"Cerritos","State":"CA","Zip":"90703"},{"Location":"MYUNG SUNG NOODLE","Address":"12243 Artesia Blvd","City":"Cerritos","State":"CA","Zip":"90703"},{"Location":"NGUYEN","Address":"11316 South St 1%2F2","City":"Cerritos","State":"CA","Zip":"90703"},{"Location":"NINE SEAFOOD LLC","Address":"11818 South St 108","City":"Cerritos","State":"CA","Zip":"90703"},{"Location":"NORDSTORM LOS CORRITOS","Address":"600 Los Cerritos Mall","City":"Cerritos","State":"CA","Zip":"90703"},{"Location":"NORM REEVES HONDA - CERRITOS","Address":"18500 Studebaker Rd","City":"Cerritos","State":"CA","Zip":"90703"},{"Location":"PANKL AREO SPACE","Address":"16615 Edwards Rd","City":"Cerritos","State":"CA","Zip":"90703"},{"Location":"PEKING WOK","Address":"11203 183rd St","City":"Cerritos","State":"CA","Zip":"90703"},{"Location":"PENSKE JAGUAR LAND ROVER","Address":"10861 183rd St","City":"Cerritos","State":"CA","Zip":"90703"},{"Location":"PINOY PINAY RESTAURANT","Address":"11900 South St 107-1","City":"Cerritos","State":"CA","Zip":"90703"},{"Location":"POWER TOYOTA CERRITOS","Address":"18700 Studebaker Rd","City":"Cerritos","State":"CA","Zip":"90703"},{"Location":"PRINTING MANAGEMENT ASSOCIATES","Address":"17128 Edwards Rd","City":"Cerritos","State":"CA","Zip":"90703"},{"Location":"PROLOGIS INC.","Address":"17777 Center Court Dr N 100","City":"Cerritos","State":"CA","Zip":"90703"},{"Location":"PRUDENTIAL CALIFORNIA REALTY","Address":"18000 Studebaker Rd 600","City":"Cerritos","State":"CA","Zip":"90703"},{"Location":"R THREE","Address":"15959 Piuma Ave","City":"Cerritos","State":"CA","Zip":"90703"},{"Location":"RAZOR USA","Address":"12723 166th St","City":"Cerritos","State":"CA","Zip":"90703"},{"Location":"REVOLVE CLOTHING","Address":"16716 Edwards Rd","City":"Cerritos","State":"CA","Zip":"90703"},{"Location":"REVOLVE CLOTHING","Address":"16800 Edwards Rd","City":"Cerritos","State":"CA","Zip":"90703"},{"Location":"ROCKTENN","Address":"18021 Valley View Ave","City":"Cerritos","State":"CA","Zip":"90703"},{"Location":"SCHOOLSFIRST FCU","Address":"17500 Bloomfield Ave","City":"Cerritos","State":"CA","Zip":"90703"},{"Location":"SCOTTRADE N04","Address":"11409 South St C-4","City":"Cerritos","State":"CA","Zip":"90703"},{"Location":"SHIPMATES RESTAURANT & SPORTS","Address":"11424 South St","City":"Cerritos","State":"CA","Zip":"90703"},{"Location":"SOMUNNAN RESTARUNT","Address":"13303 Artesia Blvd","City":"Cerritos","State":"CA","Zip":"90703"},{"Location":"SOUTH STREET GRILL","Address":"10769 South St","City":"Cerritos","State":"CA","Zip":"90703"},{"Location":"SOUTHERN WINE & SPIRITS","Address":"17101 Valley View Ave","City":"Cerritos","State":"CA","Zip":"90703"},{"Location":"SPORTS AUTHORITY 638","Address":"11900 South St","City":"Cerritos","State":"CA","Zip":"90703"},{"Location":"STACKED CERRITOS","Address":"18425 Gridley Rd","City":"Cerritos","State":"CA","Zip":"90703"},{"Location":"STAR BURGERS","Address":"13400 Alondra Blvd","City":"Cerritos","State":"CA","Zip":"90703"},{"Location":"STRAW HAT PIZZA CERRITOS","Address":"10729 South St","City":"Cerritos","State":"CA","Zip":"90703"},{"Location":"T HASEGAWA","Address":"14047 183rd St","City":"Cerritos","State":"CA","Zip":"90703"},{"Location":"TARGET 1305","Address":"11525 South St","City":"Cerritos","State":"CA","Zip":"90703"},{"Location":"TARGET STORE 289","Address":"20200 Bloomfield Ave","City":"Cerritos","State":"CA","Zip":"90703"},{"Location":"TGI FRIDAY'S #1945","Address":"12721 Towne Center Dr","City":"Cerritos","State":"CA","Zip":"90703"},{"Location":"THE CORNER PLACE","Address":"19100 Gridley Rd","City":"Cerritos","State":"CA","Zip":"90703"},{"Location":"THE HAIR WHISPERER","Address":"11412 South St","City":"Cerritos","State":"CA","Zip":"90703"},{"Location":"THE LAZY DOG CAFE - CERR","Address":"278 Los Cerritos Mall","City":"Cerritos","State":"CA","Zip":"90703"},{"Location":"TSI TITLE COMPANY OF CAL","Address":"17785 Center Court Dr N","City":"Cerritos","State":"CA","Zip":"90703"},{"Location":"UMAYA RAMEN","Address":"11318 South St","City":"Cerritos","State":"CA","Zip":"90703"},{"Location":"UMEKEN","Address":"13012 Moore St","City":"Cerritos","State":"CA","Zip":"90703"},{"Location":"UNITED PARCEL SERVICE","Address":"13233 Moore St","City":"Cerritos","State":"CA","Zip":"90703"},{"Location":"WHEEL PROS","Address":"16010 Bloomfield Ave","City":"Cerritos","State":"CA","Zip":"90703"},{"Location":"WINGSTOP","Address":"11445 South St","City":"Cerritos","State":"CA","Zip":"90703"},{"Location":"WOOD RANCH BBQ & GRILL","Address":"12801 Towne Center Dr","City":"Cerritos","State":"CA","Zip":"90703"}]