[{"Location":"562 AUTO EXCHANGE","Address":"13110 Lakewood Blvd 1","City":"Bellflower","State":"CA","Zip":"90706"},{"Location":"ABLE ROOTERS","Address":"17630 Lakewood Blvd 25","City":"Bellflower","State":"CA","Zip":"90706"},{"Location":"AMBITIONS FIDLER AVE","Address":"13513 Fidler Ave","City":"Bellflower","State":"CA","Zip":"90706"},{"Location":"AMBITIONS VAN RUITEN","Address":"9284 Van Ruiten St","City":"Bellflower","State":"CA","Zip":"90706"},{"Location":"AMEICAN LIBERTY BAIL BON","Address":"9836 Flower St","City":"Bellflower","State":"CA","Zip":"90706"},{"Location":"ANDREW M STEIN LAW CORP","Address":"9944 Flower St","City":"Bellflower","State":"CA","Zip":"90706"},{"Location":"APPLIED CONTROLS","Address":"9068 Rosecrans Ave","City":"Bellflower","State":"CA","Zip":"90706"},{"Location":"ATLAS LOAN & JEWLERY CO","Address":"16522 Bellflower Blvd","City":"Bellflower","State":"CA","Zip":"90706"},{"Location":"BELL DENTAL CARE","Address":"16106 Bellflower Blvd","City":"Bellflower","State":"CA","Zip":"90706"},{"Location":"BELL FLOWER EAGLES","Address":"9816 Cedar St","City":"Bellflower","State":"CA","Zip":"90706"},{"Location":"BELLFLOWER AUTO COLLISION","Address":"10101 Artesia Blvd","City":"Bellflower","State":"CA","Zip":"90706"},{"Location":"BELLFLOWER COLLISION","Address":"9853 Alondra Blvd","City":"Bellflower","State":"CA","Zip":"90706"},{"Location":"BELLFLOWER LONG BEACH LODGE","Address":"16426 Bellflower Blvd","City":"Bellflower","State":"CA","Zip":"90706"},{"Location":"BOS CIGAR LOUNGE","Address":"16515 Bellflower Blvd","City":"Bellflower","State":"CA","Zip":"90706"},{"Location":"BOTTOMS UP","Address":"9080 Artesia Blvd","City":"Bellflower","State":"CA","Zip":"90706"},{"Location":"BROOKS MILLWORK","Address":"17308 Woodruff Ave 12","City":"Bellflower","State":"CA","Zip":"90706"},{"Location":"BUSINESS OFFICE CENTER","Address":"9100 Alondra Blvd","City":"Bellflower","State":"CA","Zip":"90706"},{"Location":"CALVARY BAPTIST CHURCH","Address":"14722 Clark Ave","City":"Bellflower","State":"CA","Zip":"90706"},{"Location":"CARRERAS CARPET","Address":"9638 Alondra Blvd","City":"Bellflower","State":"CA","Zip":"90706"},{"Location":"CHRIS AND PITTS BBQ","Address":"9839 Artesia Blvd","City":"Bellflower","State":"CA","Zip":"90706"},{"Location":"CLINICAL INNOVATIONS","Address":"17800 Woodruff Ave","City":"Bellflower","State":"CA","Zip":"90706"},{"Location":"COGBURN SMART PROD MANAGEMENT","Address":"10001 Artesia Blvd","City":"Bellflower","State":"CA","Zip":"90706"},{"Location":"COUNTY OF LA FIRE MUSEUM","Address":"9834 Flora Vista St","City":"Bellflower","State":"CA","Zip":"90706"},{"Location":"COURT VIEW PROFESSIONAL BUILDI","Address":"16600 Woodruff Ave","City":"Bellflower","State":"CA","Zip":"90706"},{"Location":"CURB'O'LET%2C INC","Address":"9421 Monterey St","City":"Bellflower","State":"CA","Zip":"90706"},{"Location":"CYPRESS BUBBLES","Address":"16900 Lakewood Blvd 105","City":"Bellflower","State":"CA","Zip":"90706"},{"Location":"DAVITA #2138 BELLFLOWER","Address":"15736 Woodruff Ave","City":"Bellflower","State":"CA","Zip":"90706"},{"Location":"DAVITA #4369 ARTERSIA","Address":"16506 Lakewood Blvd 200","City":"Bellflower","State":"CA","Zip":"90706"},{"Location":"DESALES HALL","Address":"13856 Bellflower Blvd","City":"Bellflower","State":"CA","Zip":"90706"},{"Location":"DR ESPIE CLAUDIO","Address":"10301 Artesia Blvd 101","City":"Bellflower","State":"CA","Zip":"90706"},{"Location":"EASY 8","Address":"8762 Artesia Blvd","City":"Bellflower","State":"CA","Zip":"90706"},{"Location":"EL CHEF HORNERO RESTAURANT","Address":"14074 Woodruff Ave","City":"Bellflower","State":"CA","Zip":"90706"},{"Location":"ENRIQUES RESTAURANT","Address":"17244 Downey Ave","City":"Bellflower","State":"CA","Zip":"90706"},{"Location":"FANTASTIC GRILL","Address":"16900 Lakewood Blvd 101","City":"Bellflower","State":"CA","Zip":"90706"},{"Location":"FCO CABINETS","Address":"9017 Jeff St","City":"Bellflower","State":"CA","Zip":"90706"},{"Location":"FIREHOUSE CHEF","Address":"16530 Bellflower Blvd","City":"Bellflower","State":"CA","Zip":"90706"},{"Location":"FITNESS 19-CA-245","Address":"9044 Alondra Blvd","City":"Bellflower","State":"CA","Zip":"90706"},{"Location":"FLOUR STREET BAKERY","Address":"16527 Bellflower Blvd","City":"Bellflower","State":"CA","Zip":"90706"},{"Location":"FMC 27720000","Address":"10116 Rosecrans Ave","City":"Bellflower","State":"CA","Zip":"90706"},{"Location":"FRANKS PLACE","Address":"17832 Clark Ave","City":"Bellflower","State":"CA","Zip":"90706"},{"Location":"FRONKS","Address":"16922 Bellflower Blvd","City":"Bellflower","State":"CA","Zip":"90706"},{"Location":"GOODYEAR 8653","Address":"10146 Artesia Blvd","City":"Bellflower","State":"CA","Zip":"90706"},{"Location":"HAMBONE","Address":"9825 Belmont St","City":"Bellflower","State":"CA","Zip":"90706"},{"Location":"HARMON HOMES INC","Address":"15931 Woodruff Ave","City":"Bellflower","State":"CA","Zip":"90706"},{"Location":"HAWAIIAN ROOM","Address":"9875 Alondra Blvd","City":"Bellflower","State":"CA","Zip":"90706"},{"Location":"HEADQUARTERS CLOTHING","Address":"9348 Artesia Blvd","City":"Bellflower","State":"CA","Zip":"90706"},{"Location":"HEALTHY HAIR DESIGNS","Address":"16231 Bellflower Blvd","City":"Bellflower","State":"CA","Zip":"90706"},{"Location":"IMMACULATE HEART OF MARY","Address":"10066 Rosecrans Ave","City":"Bellflower","State":"CA","Zip":"90706"},{"Location":"JIFFY LUBE","Address":"10160 Alondra Blvd","City":"Bellflower","State":"CA","Zip":"90706"},{"Location":"JOHNNY REDS","Address":"16639 Bellflower Blvd","City":"Bellflower","State":"CA","Zip":"90706"},{"Location":"JOHNNY THACH BARBER SHOP","Address":"9885 Alondra Blvd","City":"Bellflower","State":"CA","Zip":"90706"},{"Location":"KAISER PERMANENTE","Address":"9400 Rosecrans Ave","City":"Bellflower","State":"CA","Zip":"90706"},{"Location":"KASIER PERMANETA 1","Address":"9400 Rosecrans Ave","City":"Bellflower","State":"CA","Zip":"90706"},{"Location":"KATHLEEN LLC","Address":"9709 Alondra Blvd","City":"Bellflower","State":"CA","Zip":"90706"},{"Location":"KENNY'S AUTO SERVICE","Address":"17406 Woodruff Ave","City":"Bellflower","State":"CA","Zip":"90706"},{"Location":"LA CO FIRE STATION 98","Address":"9814 Maplewood St","City":"Bellflower","State":"CA","Zip":"90706"},{"Location":"LAS ISLAS MARIAS MARISCOS","Address":"10301 Artesia Blvd 104","City":"Bellflower","State":"CA","Zip":"90706"},{"Location":"LIGHTEM UP SMOKE SHOP","Address":"10301 Artesia Blvd 102","City":"Bellflower","State":"CA","Zip":"90706"},{"Location":"LITTLE HOUSE SOBER LIVING","Address":"9439 Darnell St","City":"Bellflower","State":"CA","Zip":"90706"},{"Location":"LOS CERRITOS YMCA","Address":"15530 Woodruff Ave","City":"Bellflower","State":"CA","Zip":"90706"},{"Location":"MARYS NAILS","Address":"9359 Alondra Blvd","City":"Bellflower","State":"CA","Zip":"90706"},{"Location":"MAXX GRILL","Address":"14305 Bellflower Blvd","City":"Bellflower","State":"CA","Zip":"90706"},{"Location":"MENUEL  F MENDOZA","Address":"16323 Clark Ave B","City":"Bellflower","State":"CA","Zip":"90706"},{"Location":"METROPOLIS","Address":"16509 Bellflower Blvd","City":"Bellflower","State":"CA","Zip":"90706"},{"Location":"MIKES AUTO REPAIR","Address":"9214 Artesia Blvd","City":"Bellflower","State":"CA","Zip":"90706"},{"Location":"MITCHELLES BEAUTY SALON","Address":"16721 Bellflower Blvd","City":"Bellflower","State":"CA","Zip":"90706"},{"Location":"MONTERO AUTO SERVICE","Address":"9250 Artesia Blvd E","City":"Bellflower","State":"CA","Zip":"90706"},{"Location":"NEW WAVE RESTAURANT","Address":"17847 Lakewood Blvd","City":"Bellflower","State":"CA","Zip":"90706"},{"Location":"NORTHSTAR MORTGAGE CORP","Address":"17427 Bellflower Blvd","City":"Bellflower","State":"CA","Zip":"90706"},{"Location":"OBSTRUCTED VIEW INC","Address":"17016 Bellflower Blvd","City":"Bellflower","State":"CA","Zip":"90706"},{"Location":"OUTSIDERS BARERSHOP","Address":"10209 Rosecrans Ave","City":"Bellflower","State":"CA","Zip":"90706"},{"Location":"PIONEER MEDICAL GROUP","Address":"10251 Artesia Blvd","City":"Bellflower","State":"CA","Zip":"90706"},{"Location":"PRISSCILLA MARTINEZ","Address":"16811 Ardmore Ave","City":"Bellflower","State":"CA","Zip":"90706"},{"Location":"PUPUSERIA COMALAPA","Address":"9427 Alondra Blvd","City":"Bellflower","State":"CA","Zip":"90706"},{"Location":"PURE ELEGANCE HAIR SALONS","Address":"16700 Bellflower Blvd","City":"Bellflower","State":"CA","Zip":"90706"},{"Location":"QUICK SOCCER","Address":"17013a Bellflower Blvd","City":"Bellflower","State":"CA","Zip":"90706"},{"Location":"RICCIS ITALIAN DELI","Address":"17317 Bellflower Blvd","City":"Bellflower","State":"CA","Zip":"90706"},{"Location":"ROSEWOOD BARBERSHOP 2","Address":"14325 Woodruff Ave","City":"Bellflower","State":"CA","Zip":"90706"},{"Location":"ROSEWOOD PUB","Address":"10074 Rosecrans Ave","City":"Bellflower","State":"CA","Zip":"90706"},{"Location":"ROUND TABLE PIZZA","Address":"15730 Bellflower Blvd","City":"Bellflower","State":"CA","Zip":"90706"},{"Location":"S AN J CLEANERS","Address":"9357 Alondra Blvd","City":"Bellflower","State":"CA","Zip":"90706"},{"Location":"SABER FITNESS BELLFLOWER LLC","Address":"9055 Artesia Blvd","City":"Bellflower","State":"CA","Zip":"90706"},{"Location":"SHOE KING","Address":"9818 Artesia Blvd","City":"Bellflower","State":"CA","Zip":"90706"},{"Location":"SOUTHLAND TAX SERVICE","Address":"16822 Clark Ave","City":"Bellflower","State":"CA","Zip":"90706"},{"Location":"SPIKES SPORTS BAR AND GRILL","Address":"16728 Bellflower Blvd","City":"Bellflower","State":"CA","Zip":"90706"},{"Location":"SUSHI & ROLL TERIYAKI","Address":"15920 Clark Ave","City":"Bellflower","State":"CA","Zip":"90706"},{"Location":"TCS CARDS","Address":"9842 Flower St","City":"Bellflower","State":"CA","Zip":"90706"},{"Location":"TEAMSTERS LOCAL 911","Address":"9900 Flower St","City":"Bellflower","State":"CA","Zip":"90706"},{"Location":"THE IRISH TOWER","Address":"9876 Alondra Blvd","City":"Bellflower","State":"CA","Zip":"90706"},{"Location":"TOWN CENTER PLAZA","Address":"16521 Adenmoor Ave","City":"Bellflower","State":"CA","Zip":"90706"},{"Location":"TURNING HEADS BEAUTY","Address":"15114 Clark Ave","City":"Bellflower","State":"CA","Zip":"90706"},{"Location":"UNCLE REDS PIZZERIA AND PUB","Address":"13762 Clark Ave","City":"Bellflower","State":"CA","Zip":"90706"},{"Location":"VICTORIA BAL MD","Address":"9604 Artesia Blvd 202a","City":"Bellflower","State":"CA","Zip":"90706"},{"Location":"VILLA CORNUTA","Address":"16136 Cornuta Ave","City":"Bellflower","State":"CA","Zip":"90706"},{"Location":"WEST COAST CONCRETE CUTTINT","Address":"9206 Rosecrans Ave","City":"Bellflower","State":"CA","Zip":"90706"},{"Location":"WING STOP","Address":"14307 Bellflower Blvd","City":"Bellflower","State":"CA","Zip":"90706"},{"Location":"WOODYS AUTO BODY","Address":"13124 Lakewood Blvd","City":"Bellflower","State":"CA","Zip":"90706"}]