[{"Location":"ANHEUSER BUSCH WHLSLR #70401","Address":"18 Pebbly Beach Rd","City":"Avalon","State":"CA","Zip":"90704"},{"Location":"AVALON GRILLE","Address":"423 Crescent Avenue","City":"Avalon","State":"CA","Zip":"90704"},{"Location":"BLUE WATER GRILL","Address":"306 Crescent Avenue","City":"Avalon","State":"CA","Zip":"90704"},{"Location":"DESCANSO BEACH CLUB","Address":"1 Descanso Way","City":"Avalon","State":"CA","Zip":"90704"},{"Location":"HUNT & ASSOCIATE","Address":"119 Claressa Ave","City":"Avalon","State":"CA","Zip":"90704"},{"Location":"MARLIN CLUB","Address":"108 Catalina","City":"Avalon","State":"CA","Zip":"90704"},{"Location":"PACIFIC ISLE APARTMENTS 2","Address":"330 Whittley Avenue","City":"Avalon","State":"CA","Zip":"90704"},{"Location":"SCE CATALINA DISTRICT","Address":"1 Pebbly Beach Rd","City":"Avalon","State":"CA","Zip":"90704"},{"Location":"SOUTHERN CALIFORNIA EDISON","Address":"106 Vedeleou St","City":"Avalon","State":"CA","Zip":"90704"},{"Location":"THE LOCKER ROOM","Address":"126 Sumner Ave","City":"Avalon","State":"CA","Zip":"90704"},{"Location":"THREE PALMS ARCADE INC","Address":"225 Crescent Ave","City":"Avalon","State":"CA","Zip":"90704"},{"Location":"TWO HARBORS ENT.%2C INC.","Address":"Po Box 5086","City":"Avalon","State":"CA","Zip":"90704"},{"Location":"TWO HARBORS ENTERPRISES","Address":"1 Banning House Rd","City":"Avalon","State":"CA","Zip":"90704"},{"Location":"TWO HARBORS ENTERPRISES","Address":"3 Banning House Rd","City":"Avalon","State":"CA","Zip":"90704"}]