[{"Location":"21 MINI INC","Address":"24503 Narbonne Ave","City":"Lomita","State":"CA","Zip":"90717"},{"Location":"ALFREDOS MEXICAN RESTAURANT","Address":"2372 Pacific Coast Hwy","City":"Lomita","State":"CA","Zip":"90717"},{"Location":"ASTRO","Address":"2150 Lomita Blvd","City":"Lomita","State":"CA","Zip":"90717"},{"Location":"BAJA MARINE SERVICE INC","Address":"1966 Lomita Blvd","City":"Lomita","State":"CA","Zip":"90717"},{"Location":"BASEBALL CARDS AND BOBBLE","Address":"25622 Narbonne Ave","City":"Lomita","State":"CA","Zip":"90717"},{"Location":"BONELLOS NEW YORK PIZZA","Address":"24427 Narborne Ave","City":"Lomita","State":"CA","Zip":"90717"},{"Location":"BURGER CITY GRILL","Address":"2064 Pacific Coast Hwy","City":"Lomita","State":"CA","Zip":"90717"},{"Location":"CHR","Address":"1719 Pacific Coast Hwy","City":"Lomita","State":"CA","Zip":"90717"},{"Location":"CONTINENTAL GOURMET DELI","Address":"25600 Narbonne Ave","City":"Lomita","State":"CA","Zip":"90717"},{"Location":"CORNER PRINT","Address":"2204 Lomita Blvd","City":"Lomita","State":"CA","Zip":"90717"},{"Location":"EL JACALITO OAXAQUENO","Address":"24609 Narbonne Ave","City":"Lomita","State":"CA","Zip":"90717"},{"Location":"EZ INCOME TAX SERVICES","Address":"24419 Narbonne Ave","City":"Lomita","State":"CA","Zip":"90717"},{"Location":"FIREHOUSE","Address":"24123 Narbonne Ave","City":"Lomita","State":"CA","Zip":"90717"},{"Location":"GODFREY ESCROW CO","Address":"25200 Narbonne Ave","City":"Lomita","State":"CA","Zip":"90717"},{"Location":"HARNED REALITY","Address":"24520 Narbonne Ave","City":"Lomita","State":"CA","Zip":"90717"},{"Location":"HAZARD FINANCIAL","Address":"25124 Narbonne Ave 205","City":"Lomita","State":"CA","Zip":"90717"},{"Location":"HOHOHO BARBERSHOP","Address":"1934 Lomita Blvd","City":"Lomita","State":"CA","Zip":"90717"},{"Location":"ISSHIN","Address":"1945 Pacific Coast Hwy","City":"Lomita","State":"CA","Zip":"90717"},{"Location":"JANGMOJIP KOREAN","Address":"1824 Nomita Blvd","City":"Lomita","State":"CA","Zip":"90717"},{"Location":"JOHN CARO","Address":"26303 Western Ave","City":"Lomita","State":"CA","Zip":"90717"},{"Location":"KANG COIN LAUNDRY","Address":"1836 Lomita Blvd","City":"Lomita","State":"CA","Zip":"90717"},{"Location":"KGMB INC","Address":"2271 Lomita Blvd","City":"Lomita","State":"CA","Zip":"90717"},{"Location":"KOTOSH INC","Address":"2408 Lomita Blvd C","City":"Lomita","State":"CA","Zip":"90717"},{"Location":"LANDOS HAIR DESIGN","Address":"25626 1%2F2 Narbonne Ave","City":"Lomita","State":"CA","Zip":"90717"},{"Location":"LOC BEAUTY AND SCIENCE","Address":"2021 Lomita Blvd","City":"Lomita","State":"CA","Zip":"90717"},{"Location":"OHEARNS PUB LM","Address":"1831 Pacific Coast Hwy","City":"Lomita","State":"CA","Zip":"90717"},{"Location":"PALOS VERDES HOUSINGFOUNDATION","Address":"1729 252nd St","City":"Lomita","State":"CA","Zip":"90717"},{"Location":"PETE'S PLACE","Address":"2158 Lomita Blvd","City":"Lomita","State":"CA","Zip":"90717"},{"Location":"QUEENS SPA","Address":"1820 Lomita Blvd","City":"Lomita","State":"CA","Zip":"90717"},{"Location":"QUIZNOS - LOMITA","Address":"2169 Pacific Coast Hwy","City":"Lomita","State":"CA","Zip":"90717"},{"Location":"RANCHO POOL SERVICE","Address":"26359 Western Ave","City":"Lomita","State":"CA","Zip":"90717"},{"Location":"RIZZOS PIZZA","Address":"24100 Narbonne Ave","City":"Lomita","State":"CA","Zip":"90717"},{"Location":"SFO GRP%2F WIENERSCHNITZEL","Address":"1715 Pacific Coast Hwy","City":"Lomita","State":"CA","Zip":"90717"},{"Location":"SIZZLER #329","Address":"2421 Pacific Coast Hwy","City":"Lomita","State":"CA","Zip":"90717"},{"Location":"SOHO THAI FUSION BAR GRILL","Address":"2104 Pacific Coast Hwy 3","City":"Lomita","State":"CA","Zip":"90717"},{"Location":"SOUTH BAY BASEBALL CARDS INC","Address":"1751 Pacific Coast Hwy","City":"Lomita","State":"CA","Zip":"90717"},{"Location":"SOUTH BAY MIDAS 2 INC","Address":"2000 Lomita Blvd","City":"Lomita","State":"CA","Zip":"90717"},{"Location":"STERLING AUTO BODY","Address":"2075 Lomita Blvd","City":"Lomita","State":"CA","Zip":"90717"},{"Location":"THOMPSON BUILDING MATERIALS","Address":"2400 Pacific Coast Hwy","City":"Lomita","State":"CA","Zip":"90717"},{"Location":"TOP CHICKEN PERUVIAN RES","Address":"2363 Pacific Coast Hwy","City":"Lomita","State":"CA","Zip":"90717"},{"Location":"YANAGI BISTRO","Address":"2439 Pacific Coast Hwy","City":"Lomita","State":"CA","Zip":"90717"}]