[{"Location":"24 HOUR FITNESS #890","Address":"4821 Del Amo Blvd","City":"Lakewood","State":"CA","Zip":"90712"},{"Location":"A & B BARBERSHOP","Address":"5239 Paramount Blvd","City":"Lakewood","State":"CA","Zip":"90712"},{"Location":"AARP","Address":"3200 Carson St 1","City":"Lakewood","State":"CA","Zip":"90712"},{"Location":"APPLEBEE'S #2150043","Address":"4935 Graywood Ave","City":"Lakewood","State":"CA","Zip":"90712"},{"Location":"BADA BING PRO","Address":"4142 Paramount Blvd","City":"Lakewood","State":"CA","Zip":"90712"},{"Location":"BANK OF AMERICA CA8-919-01-01","Address":"4008 Hardwick St","City":"Lakewood","State":"CA","Zip":"90712"},{"Location":"BRIEN OCONNORS","Address":"4130 Paramount Blvd","City":"Lakewood","State":"CA","Zip":"90712"},{"Location":"BUFFALO WILD WINGS #0437","Address":"4678 Daneland St","City":"Lakewood","State":"CA","Zip":"90712"},{"Location":"CAL BOWL","Address":"2500 Carson St","City":"Lakewood","State":"CA","Zip":"90712"},{"Location":"CERRITOS FAMILY MEDICAL GROUP","Address":"3650 South St 101","City":"Lakewood","State":"CA","Zip":"90712"},{"Location":"CHILI'S #0252","Address":"4931 Candlewood St","City":"Lakewood","State":"CA","Zip":"90712"},{"Location":"CITY OF LAKEWOOD","Address":"5050 Clark Ave","City":"Lakewood","State":"CA","Zip":"90712"},{"Location":"COOPERS HOUSE OF BREW MASTERS","Address":"4823 Paramount Blvd","City":"Lakewood","State":"CA","Zip":"90712"},{"Location":"DAVITA #615 LAKEWOOD","Address":"4611 Silva St","City":"Lakewood","State":"CA","Zip":"90712"},{"Location":"DESTINATION XL 9746","Address":"4437 Candlewood St","City":"Lakewood","State":"CA","Zip":"90712"},{"Location":"DR DAVID GOREN AND ASSOCIATES","Address":"5203 Lakewood Blvd A","City":"Lakewood","State":"CA","Zip":"90712"},{"Location":"EAST SIDE MARIO'S","Address":"4771 Candlewood St","City":"Lakewood","State":"CA","Zip":"90712"},{"Location":"EL TORITO 7007","Address":"5242 Lakewood Blvd","City":"Lakewood","State":"CA","Zip":"90712"},{"Location":"ELEPHANT BAR LAKEWOOD","Address":"4630 Candlewood St","City":"Lakewood","State":"CA","Zip":"90712"},{"Location":"FANZZ #15","Address":"305 Lakewood Center Mall","City":"Lakewood","State":"CA","Zip":"90712"},{"Location":"FIRST CITY CREDIT UNION","Address":"5252 Lakewood Blvd","City":"Lakewood","State":"CA","Zip":"90712"},{"Location":"FROM CHI TO LA INC.","Address":"5223 Oliva Ave","City":"Lakewood","State":"CA","Zip":"90712"},{"Location":"FUDDRUCKERS #3078","Address":"5229 Clark Ave","City":"Lakewood","State":"CA","Zip":"90712"},{"Location":"GEORGE GREEK CAFE THREE","Address":"5252 Faculty Ave","City":"Lakewood","State":"CA","Zip":"90712"},{"Location":"JJ FISH MARKET","Address":"5251 Paramount Blvd","City":"Lakewood","State":"CA","Zip":"90712"},{"Location":"KOHL'S #633","Address":"2650 Carson St","City":"Lakewood","State":"CA","Zip":"90712"},{"Location":"LABORERS LOCAL 507","Address":"3919 Paramount Blvd","City":"Lakewood","State":"CA","Zip":"90712"},{"Location":"LAKEWOOD CC GOLF SHOP","Address":"3101 Carson St","City":"Lakewood","State":"CA","Zip":"90712"},{"Location":"LAKEWOOD COUNTRY CLUB","Address":"3101 Carson St","City":"Lakewood","State":"CA","Zip":"90712"},{"Location":"LAKEWOOD FAMILY BILLIARDS","Address":"4125 Paramount Blvd","City":"Lakewood","State":"CA","Zip":"90712"},{"Location":"LAKEWOOD MOBIL","Address":"4311 South St","City":"Lakewood","State":"CA","Zip":"90712"},{"Location":"LAKEWOOD TENNIS CENTER","Address":"4212 Clubhouse Dr","City":"Lakewood","State":"CA","Zip":"90712"},{"Location":"LAW OFFICES DENNIS FUSI","Address":"4909 Lakewood Blvd","City":"Lakewood","State":"CA","Zip":"90712"},{"Location":"MACY'S WEST 513","Address":"5100 Lakewood Blvd","City":"Lakewood","State":"CA","Zip":"90712"},{"Location":"MACY'S WEST 513 BR","Address":"5100 Lakewood Blvd","City":"Lakewood","State":"CA","Zip":"90712"},{"Location":"MEN'S WEARHOUSE #2745","Address":"4447 Candlewood St","City":"Lakewood","State":"CA","Zip":"90712"},{"Location":"MTN VIEW TIRE LAKEWOOD","Address":"5233 Clark Ave","City":"Lakewood","State":"CA","Zip":"90712"},{"Location":"NORDSTROM RACK - LAKEWOO","Address":"4651 Silva St","City":"Lakewood","State":"CA","Zip":"90712"},{"Location":"OHANA HAWAIIN BBQ","Address":"5316 Clark Ave","City":"Lakewood","State":"CA","Zip":"90712"},{"Location":"OUTBACK STEAKHOUSE #0560","Address":"5305 Clark Ave","City":"Lakewood","State":"CA","Zip":"90712"},{"Location":"PACIFIC DENTAL-CANDLEWOOD","Address":"4443 Candlewood St","City":"Lakewood","State":"CA","Zip":"90712"},{"Location":"PINO PIZZA","Address":"2510 Carson St","City":"Lakewood","State":"CA","Zip":"90712"},{"Location":"PINO'S PIZZA","Address":"2510 Carson St","City":"Lakewood","State":"CA","Zip":"90712"},{"Location":"PIONEER MEDICAL GROUP","Address":"5750 Downey Ave 205","City":"Lakewood","State":"CA","Zip":"90712"},{"Location":"RED LOBSTER #0528","Address":"4333 Candlewood St","City":"Lakewood","State":"CA","Zip":"90712"},{"Location":"RED ROBIN #678","Address":"112 Lakewood Center Mall","City":"Lakewood","State":"CA","Zip":"90712"},{"Location":"RITZY BEE HAIR DESIGNS","Address":"4842 Paramount Blvd","City":"Lakewood","State":"CA","Zip":"90712"},{"Location":"ROUND ONE ENTERTAINMENT","Address":"401 Lakewood Center Mall","City":"Lakewood","State":"CA","Zip":"90712"},{"Location":"ROUND TABLE PIZZA LAKEWOOD","Address":"5250 Faculty Ave","City":"Lakewood","State":"CA","Zip":"90712"},{"Location":"SEAHAWK COCKTAIL LOUNGE","Address":"4103 Candlewood St","City":"Lakewood","State":"CA","Zip":"90712"},{"Location":"SPORTS AUTHORITY 665","Address":"4950 Faculty Ave","City":"Lakewood","State":"CA","Zip":"90712"},{"Location":"STIX HOLDINGS 731","Address":"5105 Candlewood St","City":"Lakewood","State":"CA","Zip":"90712"},{"Location":"SUPER MEX","Address":"5254 Faculty Ave","City":"Lakewood","State":"CA","Zip":"90712"},{"Location":"SUPER MEX RESTAURANT","Address":"5254 Faculty Ave","City":"Lakewood","State":"CA","Zip":"90712"},{"Location":"TARGET CORPORATION-LAKEWOOD","Address":"141 Lakewood Center Mall","City":"Lakewood","State":"CA","Zip":"90712"},{"Location":"TAURIAN        #1049","Address":"5000 Candlewood St","City":"Lakewood","State":"CA","Zip":"90712"},{"Location":"THAI CORNER RESTAURANT","Address":"2615 Carson St","City":"Lakewood","State":"CA","Zip":"90712"},{"Location":"THE FLITE ROOM","Address":"4111 Lakewood Blvd","City":"Lakewood","State":"CA","Zip":"90712"},{"Location":"THE HOTDOG SHOPPE","Address":"5125 Candlewood St","City":"Lakewood","State":"CA","Zip":"90712"},{"Location":"THE WESTERN ASSOC OF FOOD CHAI","Address":"4010 Watson Plaza Dr 211","City":"Lakewood","State":"CA","Zip":"90712"},{"Location":"TOGO TOGO","Address":"4629 Candlewood St","City":"Lakewood","State":"CA","Zip":"90712"},{"Location":"TOP TAX PROS INC","Address":"5261 Paramount Blvd","City":"Lakewood","State":"CA","Zip":"90712"},{"Location":"TRACYS BLESSED HANDS SAL","Address":"4091 Hardwick St 102","City":"Lakewood","State":"CA","Zip":"90712"},{"Location":"UNITED AEROSPACE WORKERS","Address":"3971 Pixie Ave","City":"Lakewood","State":"CA","Zip":"90712"},{"Location":"WENDYS 1467","Address":"4314 South St","City":"Lakewood","State":"CA","Zip":"90712"}]