[{"Location":"AUCTION EXCHANGE AND SERVICE","Address":"11813 Carson St","City":"Hawaiian Gardens","State":"CA","Zip":"90716"},{"Location":"BBQ NIGHT","Address":"12545 Carson St","City":"Hawaiian Gardens","State":"CA","Zip":"90716"},{"Location":"BURGER KING  3147","Address":"12513 Carson St","City":"Hawaiian Gardens","State":"CA","Zip":"90716"},{"Location":"CHICAGO AUTO BODY & REPAIR","Address":"12421 Carson St","City":"Hawaiian Gardens","State":"CA","Zip":"90716"},{"Location":"COCOS BIONICOS","Address":"12090 Carson St F","City":"Hawaiian Gardens","State":"CA","Zip":"90716"},{"Location":"DAVITA #2455 HAWAIIAN GARDENS","Address":"12191 226th St","City":"Hawaiian Gardens","State":"CA","Zip":"90716"},{"Location":"EL PESCADOR 11","Address":"21500 Norwalk Blvd","City":"Hawaiian Gardens","State":"CA","Zip":"90716"},{"Location":"ELKS LODGE NO 1570","Address":"12507 Carson St","City":"Hawaiian Gardens","State":"CA","Zip":"90716"},{"Location":"FOREST","Address":"12130 Carson St A","City":"Hawaiian Gardens","State":"CA","Zip":"90716"},{"Location":"FRIED BANANAS","Address":"21527 Norwalk Blvd","City":"Hawaiian Gardens","State":"CA","Zip":"90716"},{"Location":"HAWAIIAN GARDENS CASINO","Address":"11871 Carson St","City":"Hawaiian Gardens","State":"CA","Zip":"90716"},{"Location":"HOWARD CONTRACTING INC","Address":"12354 Carson St","City":"Hawaiian Gardens","State":"CA","Zip":"90716"},{"Location":"JSSB RESTAURANT","Address":"12591 Carson St","City":"Hawaiian Gardens","State":"CA","Zip":"90716"},{"Location":"M&O INSURANCE & TAXES","Address":"22112 Norwalk Blvd","City":"Hawaiian Gardens","State":"CA","Zip":"90716"},{"Location":"MOUREY","Address":"11858 Carson St A","City":"Hawaiian Gardens","State":"CA","Zip":"90716"},{"Location":"PHO MAY","Address":"12140 Carson St E","City":"Hawaiian Gardens","State":"CA","Zip":"90716"},{"Location":"SO CAL PF- HAWAIIAN GDNS","Address":"21101 Norwalk Blvd","City":"Hawaiian Gardens","State":"CA","Zip":"90716"},{"Location":"TACOS SAN PEDRO","Address":"11832 Carson St","City":"Hawaiian Gardens","State":"CA","Zip":"90716"},{"Location":"TRI CITY REGIONAL MEDICAL CTR","Address":"21530 Pioneer Blvd","City":"Hawaiian Gardens","State":"CA","Zip":"90716"},{"Location":"TRI-CITY REGIONAL HOSPIT","Address":"21530 Pioneer Blvd","City":"Hawaiian Gardens","State":"CA","Zip":"90716"},{"Location":"TROPICANA SPORTS BAR","Address":"12414 Carson St","City":"Hawaiian Gardens","State":"CA","Zip":"90716"},{"Location":"VFW POST 7243","Address":"12064 E Centralia St","City":"Hawaiian Gdns","State":"CA","Zip":"90716"},{"Location":"AUCTION EXCHANGE AND SERVICE","Address":"11813 Carson St","City":"Hawaiian Gardens","State":"CA","Zip":"90716"},{"Location":"BBQ NIGHT","Address":"12545 Carson St","City":"Hawaiian Gardens","State":"CA","Zip":"90716"},{"Location":"BURGER KING  3147","Address":"12513 Carson St","City":"Hawaiian Gardens","State":"CA","Zip":"90716"},{"Location":"CHICAGO AUTO BODY & REPAIR","Address":"12421 Carson St","City":"Hawaiian Gardens","State":"CA","Zip":"90716"},{"Location":"COCOS BIONICOS","Address":"12090 Carson St F","City":"Hawaiian Gardens","State":"CA","Zip":"90716"},{"Location":"DAVITA #2455 HAWAIIAN GARDENS","Address":"12191 226th St","City":"Hawaiian Gardens","State":"CA","Zip":"90716"},{"Location":"EL PESCADOR 11","Address":"21500 Norwalk Blvd","City":"Hawaiian Gardens","State":"CA","Zip":"90716"},{"Location":"ELKS LODGE NO 1570","Address":"12507 Carson St","City":"Hawaiian Gardens","State":"CA","Zip":"90716"},{"Location":"FOREST","Address":"12130 Carson St A","City":"Hawaiian Gardens","State":"CA","Zip":"90716"},{"Location":"FRIED BANANAS","Address":"21527 Norwalk Blvd","City":"Hawaiian Gardens","State":"CA","Zip":"90716"},{"Location":"HAWAIIAN GARDENS CASINO","Address":"11871 Carson St","City":"Hawaiian Gardens","State":"CA","Zip":"90716"},{"Location":"HOWARD CONTRACTING INC","Address":"12354 Carson St","City":"Hawaiian Gardens","State":"CA","Zip":"90716"},{"Location":"JSSB RESTAURANT","Address":"12591 Carson St","City":"Hawaiian Gardens","State":"CA","Zip":"90716"},{"Location":"M&O INSURANCE & TAXES","Address":"22112 Norwalk Blvd","City":"Hawaiian Gardens","State":"CA","Zip":"90716"},{"Location":"MOUREY","Address":"11858 Carson St A","City":"Hawaiian Gardens","State":"CA","Zip":"90716"},{"Location":"PHO MAY","Address":"12140 Carson St E","City":"Hawaiian Gardens","State":"CA","Zip":"90716"},{"Location":"SO CAL PF- HAWAIIAN GDNS","Address":"21101 Norwalk Blvd","City":"Hawaiian Gardens","State":"CA","Zip":"90716"},{"Location":"TACOS SAN PEDRO","Address":"11832 Carson St","City":"Hawaiian Gardens","State":"CA","Zip":"90716"},{"Location":"TRI CITY REGIONAL MEDICAL CTR","Address":"21530 Pioneer Blvd","City":"Hawaiian Gardens","State":"CA","Zip":"90716"},{"Location":"TRI-CITY REGIONAL HOSPIT","Address":"21530 Pioneer Blvd","City":"Hawaiian Gardens","State":"CA","Zip":"90716"},{"Location":"TROPICANA SPORTS BAR","Address":"12414 Carson St","City":"Hawaiian Gardens","State":"CA","Zip":"90716"},{"Location":"VFW POST 7243","Address":"12064 E Centralia St","City":"Hawaiian Gdns","State":"CA","Zip":"90716"}]