[{"Location":"3 BROS RESTAURANT","Address":"23722 Western Ave","City":"Harbor City","State":"CA","Zip":"90710"},{"Location":"4 POPALS INC","Address":"25820 Western Ave","City":"Harbor City","State":"CA","Zip":"90710"},{"Location":"AMERICAN BUILDERS GROUP INC","Address":"1660 Anaheim St","City":"Harbor City","State":"CA","Zip":"90710"},{"Location":"BEAUTY AND BARBER RIVERA","Address":"1214 Pacific Coast Hwy","City":"Harbor City","State":"CA","Zip":"90710"},{"Location":"BLU AUTOMOTIVE","Address":"731 Pacific Coast Hwy","City":"Harbor City","State":"CA","Zip":"90710"},{"Location":"CALIFORNIA CUTTERS","Address":"1314 Sepulveda Blvd","City":"Harbor City","State":"CA","Zip":"90710"},{"Location":"CAR PLUS FINANCE INCORPO","Address":"1427 Pacific Coast Hwy","City":"Harbor City","State":"CA","Zip":"90710"},{"Location":"CLASS A HEALTH","Address":"1403 W Lomita Ave","City":"Harbor City","State":"CA","Zip":"90710"},{"Location":"DOMS PLUMBING INC","Address":"1671 Pacific Coast Hwy","City":"Harbor City","State":"CA","Zip":"90710"},{"Location":"EL GALLITO","Address":"843 Pacific Coast Hwy","City":"Harbor City","State":"CA","Zip":"90710"},{"Location":"FIRE STATION 85 LAFD","Address":"1331 253rd St","City":"Harbor City","State":"CA","Zip":"90710"},{"Location":"FLYING FOOD GROUP","Address":"25324 Frampton Ave","City":"Harbor City","State":"CA","Zip":"90710"},{"Location":"FMC 27730000","Address":"1221 Pacific Coast Hwy","City":"Harbor City","State":"CA","Zip":"90710"},{"Location":"GOFA INC","Address":"1650 Sepulveda Blvd","City":"Harbor City","State":"CA","Zip":"90710"},{"Location":"GUATEMALA BAKERY","Address":"1234 Lomita Blvd A","City":"Harbor City","State":"CA","Zip":"90710"},{"Location":"HARBOR DENTAL ASSOC.","Address":"25617 Dodge Ave","City":"Harbor City","State":"CA","Zip":"90710"},{"Location":"HEC ENGINEERING","Address":"24050 Frampton Ave","City":"Harbor City","State":"CA","Zip":"90710"},{"Location":"IC PLUS INC","Address":"1515 259th St","City":"Harbor City","State":"CA","Zip":"90710"},{"Location":"JAN ALTIMATE IMAGE","Address":"23706 Western Ave","City":"Harbor City","State":"CA","Zip":"90710"},{"Location":"LA FITNESS #93","Address":"908 Sepulveda Blvd","City":"Harbor City","State":"CA","Zip":"90710"},{"Location":"LE PETITE SPOON","Address":"1234 Lomita Blvd","City":"Harbor City","State":"CA","Zip":"90710"},{"Location":"LEOS AUTO HOUSE","Address":"24920 Normandie Ave B","City":"Harbor City","State":"CA","Zip":"90710"},{"Location":"LOMITA ADULT HEALTH CARE","Address":"1234 Lomita Blvd E","City":"Harbor City","State":"CA","Zip":"90710"},{"Location":"LOUIS LIOU","Address":"1404 Pacific Coast Hwy","City":"Harbor City","State":"CA","Zip":"90710"},{"Location":"MARICELAS BIONICOS","Address":"1202 Pacific Coast Hwy","City":"Harbor City","State":"CA","Zip":"90710"},{"Location":"MASTERS BARBERS","Address":"1316 Sepulveda Blvd","City":"Harbor City","State":"CA","Zip":"90710"},{"Location":"PINE TREE RESTAURANT","Address":"25890 Western Ave","City":"Harbor City","State":"CA","Zip":"90710"},{"Location":"PLESANT HOLIDAY MOTEL","Address":"1440 Pacific Coast Hwy","City":"Harbor City","State":"CA","Zip":"90710"},{"Location":"RESULTS SPORTS & FITNESS","Address":"1724 Palos Verdes Dr N","City":"Harbor City","State":"CA","Zip":"90710"},{"Location":"SIMPSON RACE PRODUCTS","Address":"1407 240th St","City":"Harbor City","State":"CA","Zip":"90710"},{"Location":"ST ISABEL FAMIL MEDICAL CLINIC","Address":"1535 Lomita Blvd","City":"Harbor City","State":"CA","Zip":"90710"},{"Location":"SUNRISE CAREGIVERS","Address":"1151 Pacific Coast Hwy","City":"Harbor City","State":"CA","Zip":"90710"},{"Location":"TEDS PLACE","Address":"23401 Normandie Ave","City":"Harbor City","State":"CA","Zip":"90710"},{"Location":"THE GOLD CLUB","Address":"1612 Pacific Coast Hwy","City":"Harbor City","State":"CA","Zip":"90710"},{"Location":"WINGSTOP","Address":"1685 Pacific Coast Hwy D","City":"Harbor City","State":"CA","Zip":"90710"}]