[{"Location":"AACRES CA LLC","Address":"6129 Bellflower Blvd","City":"Lakewood","State":"CA","Zip":"90713"},{"Location":"ALL AMERICAN BAIL BONDS","Address":"5517 Del Amo Blvd","City":"Lakewood","State":"CA","Zip":"90713"},{"Location":"ALLEN TIRE CO","Address":"5855 Carson St","City":"Lakewood","State":"CA","Zip":"90713"},{"Location":"ARBYS 5853","Address":"5920 South St","City":"Lakewood","State":"CA","Zip":"90713"},{"Location":"BEE WELL","Address":"5841 Bellflower Blvd","City":"Lakewood","State":"CA","Zip":"90713"},{"Location":"COLDWELL BANKER STAR REALTY","Address":"4916 Palo Verde Ave","City":"Lakewood","State":"CA","Zip":"90713"},{"Location":"CRUNCH FITNESS","Address":"5815 Bellflower Blvd","City":"Lakewood","State":"CA","Zip":"90713"},{"Location":"DESROCHE","Address":"5835 Bellflower Blvd","City":"Lakewood","State":"CA","Zip":"90713"},{"Location":"GINZAYA JAPAN RESTAURANT","Address":"4218 Woodruff Ave","City":"Lakewood","State":"CA","Zip":"90713"},{"Location":"GLORY DAYS","Address":"4132 Woodruff Ave","City":"Lakewood","State":"CA","Zip":"90713"},{"Location":"GRAN DOUGHNUTS","Address":"5550 Woodruff Ave","City":"Lakewood","State":"CA","Zip":"90713"},{"Location":"HIDEAWAY  LLC","Address":"5523 South St","City":"Lakewood","State":"CA","Zip":"90713"},{"Location":"JIFFY LUBE 602","Address":"5523 South St","City":"Lakewood","State":"CA","Zip":"90713"},{"Location":"LONG BCH. SCHOOLS FINANCIAL CU","Address":"4916 Bellflower Blvd","City":"Lakewood","State":"CA","Zip":"90713"},{"Location":"MI CASA RESTAURANT","Address":"5549 Woodruff Ave","City":"Lakewood","State":"CA","Zip":"90713"},{"Location":"MIKE F BARDI DDS INC","Address":"5830 Bellflower Blvd","City":"Lakewood","State":"CA","Zip":"90713"},{"Location":"NEW CHINATOWN EXPRESS INC","Address":"5554 Woodruff Ave","City":"Lakewood","State":"CA","Zip":"90713"},{"Location":"PIZZA MAN","Address":"6909 Carson St","City":"Lakewood","State":"CA","Zip":"90713"},{"Location":"PLAN PARENTHOOD LA 1","Address":"5525 Del Amo Blvd","City":"Lakewood","State":"CA","Zip":"90713"},{"Location":"PLAN PARENTHOOD LA 2 1","Address":"5519 Del Amo Blvd","City":"Lakewood","State":"CA","Zip":"90713"},{"Location":"RAYMOND J. MANGIGIAN DDS","Address":"4854 Bellflower Blvd","City":"Lakewood","State":"CA","Zip":"90713"},{"Location":"REGAL ENTERTAINMENT LLC","Address":"6763 Carson St","City":"Lakewood","State":"CA","Zip":"90713"},{"Location":"SNUG HARBOR","Address":"5520 Del Amo Blvd","City":"Lakewood","State":"CA","Zip":"90713"},{"Location":"WING STOP LAKEWOOD","Address":"5910 Del Amo Blvd","City":"Lakewood","State":"CA","Zip":"90713"}]