[{"Location":"24 HOUR FITNESS #111","Address":"4951 Katella Ave","City":"Cypress","State":"CA","Zip":"90720"},{"Location":"AROMA ITALIANO CAFE","Address":"4959 Katella Ave A","City":"Cypress","State":"CA","Zip":"90720"},{"Location":"FRANCOS RESTAURANT","Address":"10653 Calle Lee","City":"Cypress","State":"CA","Zip":"90720"},{"Location":"FUJI REVOLVING SUSHI BAR","Address":"5373 Katella Ave A","City":"Cypress","State":"CA","Zip":"90720"},{"Location":"PACIFIC PREMIER BANK","Address":"4957 Katella Ave A","City":"Cypress","State":"CA","Zip":"90720"},{"Location":"RED ROBIN #599","Address":"5461 Katella Ave","City":"Cypress","State":"CA","Zip":"90720"},{"Location":"STARTER GATES GROUP","Address":"4961 Katella Ave","City":"Cypress","State":"CA","Zip":"90720"},{"Location":"11TH BATTALION ARCD","Address":"4235 Yorktown Ave 17","City":"Los Alamitos","State":"CA","Zip":"90720"},{"Location":"3611 FARQUHAR INVESTMENTS LLC","Address":"3552 Green Ave","City":"Los Alamitos","State":"CA","Zip":"90720"},{"Location":"52ND AVIATION","Address":"4102 Constitution Ave","City":"Los Alamitos","State":"CA","Zip":"90720"},{"Location":"ADALBERTOS 1","Address":"4240 Katella Ave","City":"Los Alamitos","State":"CA","Zip":"90720"},{"Location":"ALAMITOS HEALTH CARE CENTER","Address":"3952 Katella Ave","City":"Los Alamitos","State":"CA","Zip":"90720"},{"Location":"ALAMITOS WEST HEALTH CARE","Address":"3902 Katella Ave","City":"Los Alamitos","State":"CA","Zip":"90720"},{"Location":"ALL HAPPY BARBERS1","Address":"3461 Sausalito St","City":"Los Alamitos","State":"CA","Zip":"90720"},{"Location":"AMECI","Address":"10847 Los Alamitos Blvd","City":"Los Alamitos","State":"CA","Zip":"90720"},{"Location":"AMERICAN LEGION POST 716","Address":"3252 Florista St","City":"Los Alamitos","State":"CA","Zip":"90720"},{"Location":"AMERIPRISE FINANCIAL","Address":"5242 Katella Ave 102","City":"Los Alamitos","State":"CA","Zip":"90720"},{"Location":"ARMY AIR FORCE EXCHANGE","Address":"4340 Yorktown Ave","City":"Los Alamitos","State":"CA","Zip":"90720"},{"Location":"BLAKES REST. GROUP  INC","Address":"11105 Los Alamitos Blvd","City":"Los Alamitos","State":"CA","Zip":"90720"},{"Location":"BOONDOCKS LOUNGE","Address":"11142 Los Alamitos Blvd","City":"Los Alamitos","State":"CA","Zip":"90720"},{"Location":"BR ANDERSON ELECTRIC","Address":"3624 Briggeman Dr","City":"Los Alamitos","State":"CA","Zip":"90720"},{"Location":"CALIFORNIA ARMY NATIONAL GUARD","Address":"11340 Valley Forge Ave","City":"Los Alamitos","State":"CA","Zip":"90720"},{"Location":"CALIFORNIA NATIONAL GUARD","Address":"11302 Independence Rd 920a","City":"Los Alamitos","State":"CA","Zip":"90720"},{"Location":"CARDIOVASCULAR CARE INC","Address":"3801 Katella Ave 401","City":"Los Alamitos","State":"CA","Zip":"90720"},{"Location":"CIF SOUTHERN SECTION","Address":"10932 Pine St","City":"Los Alamitos","State":"CA","Zip":"90720"},{"Location":"COTTONWOOD CHURCH","Address":"4505 Katella Ave","City":"Los Alamitos","State":"CA","Zip":"90720"},{"Location":"DAVITA #2344 LOS ALAMITOS","Address":"4143 Katella Ave","City":"Los Alamitos","State":"CA","Zip":"90720"},{"Location":"ELLISON%2C MIKE","Address":"4050 Katella Ave 11","City":"Los Alamitos","State":"CA","Zip":"90720"},{"Location":"FIRE HOUSE CAFE","Address":"3858 Cerritos Ave","City":"Los Alamitos","State":"CA","Zip":"90720"},{"Location":"GOOD YEAR","Address":"11121 Los Alamitos Blvd","City":"Los Alamitos","State":"CA","Zip":"90720"},{"Location":"GOURMET PIE & CAFE","Address":"5350 Katella Ave","City":"Los Alamitos","State":"CA","Zip":"90720"},{"Location":"GRATING PACIFIC","Address":"3651 Sausalito St","City":"Los Alamitos","State":"CA","Zip":"90720"},{"Location":"HOF'S HUT RESTAURANT","Address":"10900 Los Alamitos Blvd","City":"Los Alamitos","State":"CA","Zip":"90720"},{"Location":"INTERNATIONAL CITY RACING","Address":"10545 Humbolt St","City":"Los Alamitos","State":"CA","Zip":"90720"},{"Location":"JANET FAIR  RN  NCM","Address":"3582 Aa Green Street 6","City":"Los Alamitos","State":"CA","Zip":"90720"},{"Location":"JIFFY LUBE","Address":"3311 Katella Ave","City":"Los Alamitos","State":"CA","Zip":"90720"},{"Location":"KATELLA BAR","Address":"4470 Katella Ave","City":"Los Alamitos","State":"CA","Zip":"90720"},{"Location":"KDC SYSTEMS","Address":"4462 Corporate Center Dr","City":"Los Alamitos","State":"CA","Zip":"90720"},{"Location":"KINDORF DANCERS","Address":"5370 Katella Ave","City":"Los Alamitos","State":"CA","Zip":"90720"},{"Location":"LOS ALAMITOS","Address":"4152 Katella Ave","City":"Los Alamitos","State":"CA","Zip":"90720"},{"Location":"LOS ALAMITOS FIRE DEPT","Address":"4520 Constitution Ave","City":"Los Alamitos","State":"CA","Zip":"90720"},{"Location":"LOS ALAMITOS INT MEDICAL GRP","Address":"3771 Katella Ave 300","City":"Los Alamitos","State":"CA","Zip":"90720"},{"Location":"LOS ALAMITOS MEDICAL CENTER","Address":"10861 Cherry St 212","City":"Los Alamitos","State":"CA","Zip":"90720"},{"Location":"LOS ALAMITOS MEDICAL CTR","Address":"3951 Katella Ave","City":"Los Alamitos","State":"CA","Zip":"90720"},{"Location":"MADERAS STEAK AND RIBS","Address":"3642 Katella Ave","City":"Los Alamitos","State":"CA","Zip":"90720"},{"Location":"MARCY ZWELLING-AAMOT","Address":"3771 Katella Ave 108","City":"Los Alamitos","State":"CA","Zip":"90720"},{"Location":"MCI SALES & SERVICES","Address":"10850 Portal Dr","City":"Los Alamitos","State":"CA","Zip":"90720"},{"Location":"MEDICINE AND NEPHROLOGY","Address":"10941 Bloomfield St A","City":"Los Alamitos","State":"CA","Zip":"90720"},{"Location":"NEW ATTITUDE","Address":"10905 Los Alamitos Blvd","City":"Los Alamitos","State":"CA","Zip":"90720"},{"Location":"ORANGE COUNTY MATTRESS","Address":"4232 Katella Ave","City":"Los Alamitos","State":"CA","Zip":"90720"},{"Location":"PLAY IT AGAIN LOS AL","Address":"4141 Katella Ave","City":"Los Alamitos","State":"CA","Zip":"90720"},{"Location":"REM SLEEP LABS LOS ALAMITOS","Address":"4281 Katella Ave 110","City":"Los Alamitos","State":"CA","Zip":"90720"},{"Location":"RONALD JAMIESON CPA","Address":"4281 Katella Ave 117","City":"Los Alamitos","State":"CA","Zip":"90720"},{"Location":"SECURITY SOLUTIONS","Address":"10911 Bloomfield St","City":"Los Alamitos","State":"CA","Zip":"90720"},{"Location":"SHAWN LOUIS","Address":"4281 Katella Ave 208","City":"Los Alamitos","State":"CA","Zip":"90720"},{"Location":"SIZZLER","Address":"10471 Los Alamitos Blvd","City":"Los Alamitos","State":"CA","Zip":"90720"},{"Location":"SPARTA GRAPHICS INC","Address":"10744 Noel St","City":"Los Alamitos","State":"CA","Zip":"90720"},{"Location":"SPIN PIZZA  LOS ALIMITOS","Address":"11122 Los Alamitos Blvd","City":"Los Alamitos","State":"CA","Zip":"90720"},{"Location":"STARTING GATE","Address":"5052 Katella Ave","City":"Los Alamitos","State":"CA","Zip":"90720"},{"Location":"SUBMARINA","Address":"5373 Katella Ave C","City":"Los Alamitos","State":"CA","Zip":"90720"},{"Location":"SUNBURST YOUTH ACADEMY","Address":"4022 Saratoga Ave 21","City":"Los Alamitos","State":"CA","Zip":"90720"},{"Location":"THE CAGE","Address":"10660 Humbolt St","City":"Los Alamitos","State":"CA","Zip":"90720"},{"Location":"THE SPORTSMAN","Address":"11133 Los Alamitos Blvd","City":"Los Alamitos","State":"CA","Zip":"90720"},{"Location":"TREND OFFSET PRINTING","Address":"3801 Catalina St","City":"Los Alamitos","State":"CA","Zip":"90720"},{"Location":"TSC INC","Address":"10542 Los Alamitos Blvd","City":"Los Alamitos","State":"CA","Zip":"90720"},{"Location":"VALENTINO'S PIZZA","Address":"10511 Los Alamitos Blvd","City":"Los Alamitos","State":"CA","Zip":"90720"},{"Location":"WMS TAX & FIN SRVC","Address":"10421 Los Alamitos Blvd","City":"Los Alamitos","State":"CA","Zip":"90720"}]