[{"Location":"A AND H AUTO REPAIR","Address":"8522 Somerset Blvd","City":"Paramount","State":"CA","Zip":"90723"},{"Location":"AAA FLUTING & MACHINE","Address":"14042 Garfield Ave Suite","City":"Paramount","State":"CA","Zip":"90723"},{"Location":"ADVANCE TRONICS","Address":"7922 Rosecrans Ave T","City":"Paramount","State":"CA","Zip":"90723"},{"Location":"ALL AMERICAN WHEEL","Address":"16200 Garfield Ave","City":"Paramount","State":"CA","Zip":"90723"},{"Location":"ALONDRA HOT WINGS","Address":"8411 Alondra Blvd","City":"Paramount","State":"CA","Zip":"90723"},{"Location":"AMERICAN CONSTRUCTION SERVICES","Address":"7811 Jefferson St","City":"Paramount","State":"CA","Zip":"90723"},{"Location":"ASIAN STAR","Address":"8524 Alondra Blvd","City":"Paramount","State":"CA","Zip":"90723"},{"Location":"BIANCHI THEATRES","Address":"7770 Rosecrans Ave","City":"Paramount","State":"CA","Zip":"90723"},{"Location":"BIG BEN CARWASH","Address":"16482 Paramount Blvd","City":"Paramount","State":"CA","Zip":"90723"},{"Location":"BISON ENGINEERING COMPANY","Address":"15535 Texaco Ave","City":"Paramount","State":"CA","Zip":"90723"},{"Location":"BLVD COCKTAILS","Address":"8410 Alondra Blvd","City":"Paramount","State":"CA","Zip":"90723"},{"Location":"BODEGA LATINA","Address":"14601 Lakewood Blvd B","City":"Paramount","State":"CA","Zip":"90723"},{"Location":"CALIFORNIA SCREW PRODUCTS","Address":"14957 Gwenchris Ct","City":"Paramount","State":"CA","Zip":"90723"},{"Location":"CASA CONTRERAS FURNITURE","Address":"14155 Paramount Blvd","City":"Paramount","State":"CA","Zip":"90723"},{"Location":"CASA GAMINO","Address":"8330 Alondra Blvd","City":"Paramount","State":"CA","Zip":"90723"},{"Location":"CENTRAL TIRE SERVICE 7","Address":"15501 Lakewood Blvd","City":"Paramount","State":"CA","Zip":"90723"},{"Location":"CERAMICA GARCIA","Address":"15741 Garfield Ave","City":"Paramount","State":"CA","Zip":"90723"},{"Location":"CH PROGRAM","Address":"8026 Alondra Blvd","City":"Paramount","State":"CA","Zip":"90723"},{"Location":"CHEMCO PRODUCT COMPANY ATTN C","Address":"6401 Alondra Blvd","City":"Paramount","State":"CA","Zip":"90723"},{"Location":"CINDERELLA","Address":"8600 Contreras St","City":"Paramount","State":"CA","Zip":"90723"},{"Location":"CITY OF PARAMOUNT","Address":"15001 Paramount Blvd","City":"Paramount","State":"CA","Zip":"90723"},{"Location":"CNC AUTO CENTER","Address":"15525 Lakewood Blvd","City":"Paramount","State":"CA","Zip":"90723"},{"Location":"COMMUNICATION WORKERS OF","Address":"7844 Rosecrans Ave","City":"Paramount","State":"CA","Zip":"90723"},{"Location":"CSA CONSTRUCTORS INC","Address":"6826 Rosecrans Ave","City":"Paramount","State":"CA","Zip":"90723"},{"Location":"DAVITA #332 PARAMOUNT","Address":"8319 Alondra Blvd","City":"Paramount","State":"CA","Zip":"90723"},{"Location":"DEMARIA ELECTRIC MOTOR SERVICE","Address":"7048 Marcelle St","City":"Paramount","State":"CA","Zip":"90723"},{"Location":"DMG PRODUCTS INC","Address":"15735 Garfield Ave 42","City":"Paramount","State":"CA","Zip":"90723"},{"Location":"EL COMALON","Address":"15000 Paramount Blvd","City":"Paramount","State":"CA","Zip":"90723"},{"Location":"EL PERI SUSHI","Address":"16604 Paramount Blvd","City":"Paramount","State":"CA","Zip":"90723"},{"Location":"EL SANGUCHETTO BAKERY","Address":"8133 Alondra Blvd","City":"Paramount","State":"CA","Zip":"90723"},{"Location":"EXTRUDE HONE","Address":"8800 Somerset Blvd","City":"Paramount","State":"CA","Zip":"90723"},{"Location":"FPC","Address":"14518 Garfield Ave","City":"Paramount","State":"CA","Zip":"90723"},{"Location":"FRANKS BARBER SHOP","Address":"8505 Rosecrans Ave","City":"Paramount","State":"CA","Zip":"90723"},{"Location":"G C R TRUCK TIRE CENTER","Address":"7801 Rosecrans Ave","City":"Paramount","State":"CA","Zip":"90723"},{"Location":"GET RIGHT TAXES","Address":"15718 Paramount Blvd A","City":"Paramount","State":"CA","Zip":"90723"},{"Location":"GONNA ENTERPRISE","Address":"16222 Paramount Blvd","City":"Paramount","State":"CA","Zip":"90723"},{"Location":"GUS'S DELI BBQ & GRILLE","Address":"8320 Alondra Blvd","City":"Paramount","State":"CA","Zip":"90723"},{"Location":"HOT SALSA","Address":"14327 Garfield Ave","City":"Paramount","State":"CA","Zip":"90723"},{"Location":"HUNTER SECURITY","Address":"15317 Paramount Blvd","City":"Paramount","State":"CA","Zip":"90723"},{"Location":"INSTYLE NAILS AND SPA","Address":"7922 Rosecrans Ave I","City":"Paramount","State":"CA","Zip":"90723"},{"Location":"IRISH HARP","Address":"16683 Paramount Blvd","City":"Paramount","State":"CA","Zip":"90723"},{"Location":"JANS PRO TAX SERVICES","Address":"15718 Paramount Blvd C","City":"Paramount","State":"CA","Zip":"90723"},{"Location":"JDL PACKING SYSTEMS","Address":"7116 Marcelle St","City":"Paramount","State":"CA","Zip":"90723"},{"Location":"JIMENEZ SOCCER","Address":"8055 Rosecrans Ave 102","City":"Paramount","State":"CA","Zip":"90723"},{"Location":"JOHNS WHOLESALE ELETRIC","Address":"15116 12 Downey Ave","City":"Paramount","State":"CA","Zip":"90723"},{"Location":"LA BELLA NAILS & SPA","Address":"15106 Paramount Blvd","City":"Paramount","State":"CA","Zip":"90723"},{"Location":"LA ESPERANZA MEDICAL TRAINING","Address":"15718 Paramount Blvd","City":"Paramount","State":"CA","Zip":"90723"},{"Location":"LA PAZ GERO PSYCH","Address":"8835 Vans St","City":"Paramount","State":"CA","Zip":"90723"},{"Location":"LAN NGUYAN DBA","Address":"16260 Paramount Blvd I","City":"Paramount","State":"CA","Zip":"90723"},{"Location":"LAS PLEBES","Address":"15516 Paramount Blvd","City":"Paramount","State":"CA","Zip":"90723"},{"Location":"LOS ALTOS BOOTS","Address":"14910 Garfield Ave","City":"Paramount","State":"CA","Zip":"90723"},{"Location":"MARISCOS EL PERIHUETE","Address":"16600 Paramount Blvd","City":"Paramount","State":"CA","Zip":"90723"},{"Location":"MI LINDA SINALOA 1","Address":"7610 Rosecrans Ave","City":"Paramount","State":"CA","Zip":"90723"},{"Location":"MILLION DOLLAR SPOT","Address":"8221 Rosecrans Ave","City":"Paramount","State":"CA","Zip":"90723"},{"Location":"MILLWRIGHT SERVICES INC","Address":"7045 Jackson St","City":"Paramount","State":"CA","Zip":"90723"},{"Location":"MR J'S","Address":"7824 Alondra Blvd","City":"Paramount","State":"CA","Zip":"90723"},{"Location":"MR T TRANSPORT INC","Address":"15535 Garfield Ave","City":"Paramount","State":"CA","Zip":"90723"},{"Location":"MUSIC BOX COCKTAILS","Address":"13114 Downey Ave","City":"Paramount","State":"CA","Zip":"90723"},{"Location":"NATURAL PRODUCT CENTER","Address":"7922 Rosecrans Ave C","City":"Paramount","State":"CA","Zip":"90723"},{"Location":"NEWMAN STORAGE LLC","Address":"7343 Adams St","City":"Paramount","State":"CA","Zip":"90723"},{"Location":"NORTHGATE MARKETS","Address":"16259 Paramount Blvd","City":"Paramount","State":"CA","Zip":"90723"},{"Location":"NRG","Address":"7245 Alondra Blvd","City":"Paramount","State":"CA","Zip":"90723"},{"Location":"OPTIMUM CHOICE INSURANCE","Address":"6826 Somerset Blvd 1","City":"Paramount","State":"CA","Zip":"90723"},{"Location":"PARA LATINO MEDICAL CTR","Address":"15717 Paramount Blvd","City":"Paramount","State":"CA","Zip":"90723"},{"Location":"PARA ROSE LIQUOR","Address":"8020 Rosecrans Ave","City":"Paramount","State":"CA","Zip":"90723"},{"Location":"PARAMOUNT CONVALESCENT","Address":"8558 Rosecrans Ave","City":"Paramount","State":"CA","Zip":"90723"},{"Location":"PARAMOUNT MEADOWS NURSING CTR","Address":"7039 Alondra Blvd","City":"Paramount","State":"CA","Zip":"90723"},{"Location":"PICA TORTAS AHOGADAS","Address":"8111 Rosecrans Ave K","City":"Paramount","State":"CA","Zip":"90723"},{"Location":"PREMIUM WINDOWS INC","Address":"7027 Motz St","City":"Paramount","State":"CA","Zip":"90723"},{"Location":"PTM INC","Address":"7801 Somerset Blvd","City":"Paramount","State":"CA","Zip":"90723"},{"Location":"R GARD AND COMPANY INC","Address":"7711 Adams St","City":"Paramount","State":"CA","Zip":"90723"},{"Location":"RAFAELS WHOLESALE TOOLS","Address":"7718 Rosecrans Ave","City":"Paramount","State":"CA","Zip":"90723"},{"Location":"RALPHS GROCERY COMPANY","Address":"14900 Garfield Ave","City":"Paramount","State":"CA","Zip":"90723"},{"Location":"RB BARBER AND BEAUTY SAL","Address":"15511 Lakewood Blvd","City":"Paramount","State":"CA","Zip":"90723"},{"Location":"RELOADED","Address":"7922 Rosecrans Ave O","City":"Paramount","State":"CA","Zip":"90723"},{"Location":"RICK AND LUPE LLC","Address":"8101 Somerset Blvd","City":"Paramount","State":"CA","Zip":"90723"},{"Location":"RINKENS INTERNATIONAL","Address":"15501 Texaco Ave","City":"Paramount","State":"CA","Zip":"90723"},{"Location":"RIOS SPORTS","Address":"16460 Paramount Blvd","City":"Paramount","State":"CA","Zip":"90723"},{"Location":"RMI INTERNATIONAL","Address":"8125 Somerset Blvd","City":"Paramount","State":"CA","Zip":"90723"},{"Location":"ROSEWOOD FAMILY RESTAURANT","Address":"15750 Paramount Blvd","City":"Paramount","State":"CA","Zip":"90723"},{"Location":"SAL CARE HOME SERVICES","Address":"15607 Lakewood Blvd A","City":"Paramount","State":"CA","Zip":"90723"},{"Location":"SAN JOSE DENTAL CENTER","Address":"7922 Rosecrans Ave","City":"Paramount","State":"CA","Zip":"90723"},{"Location":"SAN LUIS DENTAL","Address":"7500 Rosecrans Ave","City":"Paramount","State":"CA","Zip":"90723"},{"Location":"SAN REMO DENTAL","Address":"15122 Paramount Blvd","City":"Paramount","State":"CA","Zip":"90723"},{"Location":"SANGUCHETTO","Address":"8133 Alondra Blvd","City":"Paramount","State":"CA","Zip":"90723"},{"Location":"SHAKY'S PIZZA","Address":"8022 Rosecrans Ave","City":"Paramount","State":"CA","Zip":"90723"},{"Location":"SKY BURGER","Address":"15025 Lakewood Blvd","City":"Paramount","State":"CA","Zip":"90723"},{"Location":"SPARKLEAN LAUNDRY","Address":"15526 Paramount Blvd A","City":"Paramount","State":"CA","Zip":"90723"},{"Location":"STAUB METALS CORP","Address":"7747 Rosecrans Ave","City":"Paramount","State":"CA","Zip":"90723"},{"Location":"STYLES HAIR DESIGN","Address":"8229 Somerset Blvd","City":"Paramount","State":"CA","Zip":"90723"},{"Location":"SUPER A FOODS FOUR","Address":"13120 Downey Ave","City":"Paramount","State":"CA","Zip":"90723"},{"Location":"TACOS Y EL PUEBLO 2","Address":"7346 Alondra Blvd","City":"Paramount","State":"CA","Zip":"90723"},{"Location":"TAMS BURGERS","Address":"8454 Alondra Blvd","City":"Paramount","State":"CA","Zip":"90723"},{"Location":"TAQUERIA DOS AMIDOS  2","Address":"6857 Somerset Blvd","City":"Paramount","State":"CA","Zip":"90723"},{"Location":"THE BRADE FACTORY","Address":"15734 Paramount Blvd","City":"Paramount","State":"CA","Zip":"90723"},{"Location":"THE MARK COSTELLO COMPANY","Address":"15351 Texaco Ave","City":"Paramount","State":"CA","Zip":"90723"},{"Location":"THE OLOR CLUB","Address":"15339 Paramount Blvd","City":"Paramount","State":"CA","Zip":"90723"},{"Location":"THE PARAMOUNT SWAP MEET","Address":"7900 All America City Way","City":"Paramount","State":"CA","Zip":"90723"},{"Location":"TORINO LOUNGE","Address":"14123 Garfield Ave","City":"Paramount","State":"CA","Zip":"90723"},{"Location":"TREASURE POT","Address":"8540 Alondra Blvd","City":"Paramount","State":"CA","Zip":"90723"},{"Location":"VICKY PROFESSIONAL SERVICES","Address":"15975 Paramount Blvd A","City":"Paramount","State":"CA","Zip":"90723"},{"Location":"WILCHES ALBERTO MD","Address":"7831 Jackson St","City":"Paramount","State":"CA","Zip":"90723"},{"Location":"WILD WEST BOOTS","Address":"14922 Garfield Ave","City":"Paramount","State":"CA","Zip":"90723"},{"Location":"ZORN PRODUCTION UNLIM. INC","Address":"15220 Texaco Ave","City":"Paramount","State":"CA","Zip":"90723"},{"Location":"A AND H AUTO REPAIR","Address":"8522 Somerset Blvd","City":"Paramount","State":"CA","Zip":"90723"},{"Location":"AAA FLUTING & MACHINE","Address":"14042 Garfield Ave Suite","City":"Paramount","State":"CA","Zip":"90723"},{"Location":"ADVANCE TRONICS","Address":"7922 Rosecrans Ave T","City":"Paramount","State":"CA","Zip":"90723"},{"Location":"ALL AMERICAN WHEEL","Address":"16200 Garfield Ave","City":"Paramount","State":"CA","Zip":"90723"},{"Location":"ALONDRA HOT WINGS","Address":"8411 Alondra Blvd","City":"Paramount","State":"CA","Zip":"90723"},{"Location":"AMERICAN CONSTRUCTION SERVICES","Address":"7811 Jefferson St","City":"Paramount","State":"CA","Zip":"90723"},{"Location":"ASIAN STAR","Address":"8524 Alondra Blvd","City":"Paramount","State":"CA","Zip":"90723"},{"Location":"BIANCHI THEATRES","Address":"7770 Rosecrans Ave","City":"Paramount","State":"CA","Zip":"90723"},{"Location":"BIG BEN CARWASH","Address":"16482 Paramount Blvd","City":"Paramount","State":"CA","Zip":"90723"},{"Location":"BISON ENGINEERING COMPANY","Address":"15535 Texaco Ave","City":"Paramount","State":"CA","Zip":"90723"},{"Location":"BLVD COCKTAILS","Address":"8410 Alondra Blvd","City":"Paramount","State":"CA","Zip":"90723"},{"Location":"BODEGA LATINA","Address":"14601 Lakewood Blvd B","City":"Paramount","State":"CA","Zip":"90723"},{"Location":"CALIFORNIA SCREW PRODUCTS","Address":"14957 Gwenchris Ct","City":"Paramount","State":"CA","Zip":"90723"},{"Location":"CASA CONTRERAS FURNITURE","Address":"14155 Paramount Blvd","City":"Paramount","State":"CA","Zip":"90723"},{"Location":"CASA GAMINO","Address":"8330 Alondra Blvd","City":"Paramount","State":"CA","Zip":"90723"},{"Location":"CENTRAL TIRE SERVICE 7","Address":"15501 Lakewood Blvd","City":"Paramount","State":"CA","Zip":"90723"},{"Location":"CERAMICA GARCIA","Address":"15741 Garfield Ave","City":"Paramount","State":"CA","Zip":"90723"},{"Location":"CH PROGRAM","Address":"8026 Alondra Blvd","City":"Paramount","State":"CA","Zip":"90723"},{"Location":"CHEMCO PRODUCT COMPANY ATTN C","Address":"6401 Alondra Blvd","City":"Paramount","State":"CA","Zip":"90723"},{"Location":"CINDERELLA","Address":"8600 Contreras St","City":"Paramount","State":"CA","Zip":"90723"},{"Location":"CITY OF PARAMOUNT","Address":"15001 Paramount Blvd","City":"Paramount","State":"CA","Zip":"90723"},{"Location":"CNC AUTO CENTER","Address":"15525 Lakewood Blvd","City":"Paramount","State":"CA","Zip":"90723"},{"Location":"COMMUNICATION WORKERS OF","Address":"7844 Rosecrans Ave","City":"Paramount","State":"CA","Zip":"90723"},{"Location":"CSA CONSTRUCTORS INC","Address":"6826 Rosecrans Ave","City":"Paramount","State":"CA","Zip":"90723"},{"Location":"DAVITA #332 PARAMOUNT","Address":"8319 Alondra Blvd","City":"Paramount","State":"CA","Zip":"90723"},{"Location":"DEMARIA ELECTRIC MOTOR SERVICE","Address":"7048 Marcelle St","City":"Paramount","State":"CA","Zip":"90723"},{"Location":"DMG PRODUCTS INC","Address":"15735 Garfield Ave 42","City":"Paramount","State":"CA","Zip":"90723"},{"Location":"EL COMALON","Address":"15000 Paramount Blvd","City":"Paramount","State":"CA","Zip":"90723"},{"Location":"EL PERI SUSHI","Address":"16604 Paramount Blvd","City":"Paramount","State":"CA","Zip":"90723"},{"Location":"El Sanguchetto Bakery","Address":"8133 Alondra Blvd","City":"Paramount","State":"CA","Zip":"90723"},{"Location":"EXTRUDE HONE","Address":"8800 Somerset Blvd","City":"Paramount","State":"CA","Zip":"90723"},{"Location":"FPC","Address":"14518 Garfield Ave","City":"Paramount","State":"CA","Zip":"90723"},{"Location":"FRANKS BARBER SHOP","Address":"8505 Rosecrans Ave","City":"Paramount","State":"CA","Zip":"90723"},{"Location":"G C R TRUCK TIRE CENTER","Address":"7801 Rosecrans Ave","City":"Paramount","State":"CA","Zip":"90723"},{"Location":"GET RIGHT TAXES","Address":"15718 Paramount Blvd A","City":"Paramount","State":"CA","Zip":"90723"},{"Location":"GONNA ENTERPRISE","Address":"16222 Paramount Blvd","City":"Paramount","State":"CA","Zip":"90723"},{"Location":"GUS'S DELI BBQ & GRILLE","Address":"8320 Alondra Blvd","City":"Paramount","State":"CA","Zip":"90723"},{"Location":"HOT SALSA","Address":"14327 Garfield Ave","City":"Paramount","State":"CA","Zip":"90723"},{"Location":"HUNTER SECURITY","Address":"15317 Paramount Blvd","City":"Paramount","State":"CA","Zip":"90723"},{"Location":"INSTYLE NAILS AND SPA","Address":"7922 Rosecrans Ave I","City":"Paramount","State":"CA","Zip":"90723"},{"Location":"IRISH HARP","Address":"16683 Paramount Blvd","City":"Paramount","State":"CA","Zip":"90723"},{"Location":"JANS PRO TAX SERVICES","Address":"15718 Paramount Blvd C","City":"Paramount","State":"CA","Zip":"90723"},{"Location":"JDL PACKING SYSTEMS","Address":"7116 Marcelle St","City":"Paramount","State":"CA","Zip":"90723"},{"Location":"JIMENEZ SOCCER","Address":"8055 Rosecrans Ave 102","City":"Paramount","State":"CA","Zip":"90723"},{"Location":"JOHNS WHOLESALE ELETRIC","Address":"15116 12 Downey Ave","City":"Paramount","State":"CA","Zip":"90723"},{"Location":"LA BELLA NAILS & SPA","Address":"15106 Paramount Blvd","City":"Paramount","State":"CA","Zip":"90723"},{"Location":"LA ESPERANZA MEDICAL TRAINING","Address":"15718 Paramount Blvd","City":"Paramount","State":"CA","Zip":"90723"},{"Location":"LA PAZ GERO PSYCH","Address":"8835 Vans St","City":"Paramount","State":"CA","Zip":"90723"},{"Location":"LAN NGUYAN DBA","Address":"16260 Paramount Blvd I","City":"Paramount","State":"CA","Zip":"90723"},{"Location":"LAS PLEBES","Address":"15516 Paramount Blvd","City":"Paramount","State":"CA","Zip":"90723"},{"Location":"LOS ALTOS BOOTS","Address":"14910 Garfield Ave","City":"Paramount","State":"CA","Zip":"90723"},{"Location":"MARISCOS EL PERIHUETE","Address":"16600 Paramount Blvd","City":"Paramount","State":"CA","Zip":"90723"},{"Location":"MI LINDA SINALOA 1","Address":"7610 Rosecrans Ave","City":"Paramount","State":"CA","Zip":"90723"},{"Location":"MILLION DOLLAR SPOT","Address":"8221 Rosecrans Ave","City":"Paramount","State":"CA","Zip":"90723"},{"Location":"MILLWRIGHT SERVICES INC","Address":"7045 Jackson St","City":"Paramount","State":"CA","Zip":"90723"},{"Location":"MR J'S","Address":"7824 Alondra Blvd","City":"Paramount","State":"CA","Zip":"90723"},{"Location":"MR T TRANSPORT INC","Address":"15535 Garfield Ave","City":"Paramount","State":"CA","Zip":"90723"},{"Location":"MUSIC BOX COCKTAILS","Address":"13114 Downey Ave","City":"Paramount","State":"CA","Zip":"90723"},{"Location":"NATURAL PRODUCT CENTER","Address":"7922 Rosecrans Ave C","City":"Paramount","State":"CA","Zip":"90723"},{"Location":"NEWMAN STORAGE LLC","Address":"7343 Adams St","City":"Paramount","State":"CA","Zip":"90723"},{"Location":"NORTHGATE MARKETS","Address":"16259 Paramount Blvd","City":"Paramount","State":"CA","Zip":"90723"},{"Location":"NRG","Address":"7245 Alondra Blvd","City":"Paramount","State":"CA","Zip":"90723"},{"Location":"OPTIMUM CHOICE INSURANCE","Address":"6826 Somerset Blvd 1","City":"Paramount","State":"CA","Zip":"90723"},{"Location":"PARA LATINO MEDICAL CTR","Address":"15717 Paramount Blvd","City":"Paramount","State":"CA","Zip":"90723"},{"Location":"PARA ROSE LIQUOR","Address":"8020 Rosecrans Ave","City":"Paramount","State":"CA","Zip":"90723"},{"Location":"PARAMOUNT CONVALESCENT","Address":"8558 Rosecrans Ave","City":"Paramount","State":"CA","Zip":"90723"},{"Location":"PARAMOUNT MEADOWS NURSING CTR","Address":"7039 Alondra Blvd","City":"Paramount","State":"CA","Zip":"90723"},{"Location":"PICA TORTAS AHOGADAS","Address":"8111 Rosecrans Ave K","City":"Paramount","State":"CA","Zip":"90723"},{"Location":"PREMIUM WINDOWS INC","Address":"7027 Motz St","City":"Paramount","State":"CA","Zip":"90723"},{"Location":"PTM INC","Address":"7801 Somerset Blvd","City":"Paramount","State":"CA","Zip":"90723"},{"Location":"R GARD AND COMPANY INC","Address":"7711 Adams St","City":"Paramount","State":"CA","Zip":"90723"},{"Location":"RAFAELS WHOLESALE TOOLS","Address":"7718 Rosecrans Ave","City":"Paramount","State":"CA","Zip":"90723"},{"Location":"RALPHS GROCERY COMPANY","Address":"14900 Garfield Ave","City":"Paramount","State":"CA","Zip":"90723"},{"Location":"RB BARBER AND BEAUTY SAL","Address":"15511 Lakewood Blvd","City":"Paramount","State":"CA","Zip":"90723"},{"Location":"RELOADED","Address":"7922 Rosecrans Ave O","City":"Paramount","State":"CA","Zip":"90723"},{"Location":"RICK AND LUPE LLC","Address":"8101 Somerset Blvd","City":"Paramount","State":"CA","Zip":"90723"},{"Location":"RINKENS INTERNATIONAL","Address":"15501 Texaco Ave","City":"Paramount","State":"CA","Zip":"90723"},{"Location":"RIOS SPORTS","Address":"16460 Paramount Blvd","City":"Paramount","State":"CA","Zip":"90723"},{"Location":"RMI INTERNATIONAL","Address":"8125 Somerset Blvd","City":"Paramount","State":"CA","Zip":"90723"},{"Location":"ROSEWOOD FAMILY RESTAURANT","Address":"15750 Paramount Blvd","City":"Paramount","State":"CA","Zip":"90723"},{"Location":"SAL CARE HOME SERVICES","Address":"15607 Lakewood Blvd A","City":"Paramount","State":"CA","Zip":"90723"},{"Location":"SAN JOSE DENTAL CENTER","Address":"7922 Rosecrans Ave","City":"Paramount","State":"CA","Zip":"90723"},{"Location":"SAN LUIS DENTAL","Address":"7500 Rosecrans Ave","City":"Paramount","State":"CA","Zip":"90723"},{"Location":"SAN REMO DENTAL","Address":"15122 Paramount Blvd","City":"Paramount","State":"CA","Zip":"90723"},{"Location":"SANGUCHETTO","Address":"8133 Alondra Blvd","City":"Paramount","State":"CA","Zip":"90723"},{"Location":"SHAKY'S PIZZA","Address":"8022 Rosecrans Ave","City":"Paramount","State":"CA","Zip":"90723"},{"Location":"SKY BURGER","Address":"15025 Lakewood Blvd","City":"Paramount","State":"CA","Zip":"90723"},{"Location":"SPARKLEAN LAUNDRY","Address":"15526 Paramount Blvd A","City":"Paramount","State":"CA","Zip":"90723"},{"Location":"STARS BARBER","Address":"8001 Somerset Blvd","City":"Paramount","State":"CA","Zip":"90723"},{"Location":"STAUB METALS CORP","Address":"7747 Rosecrans Ave","City":"Paramount","State":"CA","Zip":"90723"},{"Location":"STYLES HAIR DESIGN","Address":"8229 Somerset Blvd","City":"Paramount","State":"CA","Zip":"90723"},{"Location":"SUPER A FOODS FOUR","Address":"13120 Downey Ave","City":"Paramount","State":"CA","Zip":"90723"},{"Location":"TACOS Y EL PUEBLO 2","Address":"7346 Alondra Blvd","City":"Paramount","State":"CA","Zip":"90723"},{"Location":"TAMS BURGERS","Address":"8454 Alondra Blvd","City":"Paramount","State":"CA","Zip":"90723"},{"Location":"TAQUERIA DOS AMIDOS  2","Address":"6857 Somerset Blvd","City":"Paramount","State":"CA","Zip":"90723"},{"Location":"THE BRADE FACTORY","Address":"15734 Paramount Blvd","City":"Paramount","State":"CA","Zip":"90723"},{"Location":"THE MARK COSTELLO COMPANY","Address":"15351 Texaco Ave","City":"Paramount","State":"CA","Zip":"90723"},{"Location":"THE OLOR CLUB","Address":"15339 Paramount Blvd","City":"Paramount","State":"CA","Zip":"90723"},{"Location":"THE PARAMOUNT SWAP MEET","Address":"7900 All America City Way","City":"Paramount","State":"CA","Zip":"90723"},{"Location":"TORINO LOUNGE","Address":"14123 Garfield Ave","City":"Paramount","State":"CA","Zip":"90723"},{"Location":"TREASURE POT","Address":"8540 Alondra Blvd","City":"Paramount","State":"CA","Zip":"90723"},{"Location":"VICKY PROFESSIONAL SERVICES","Address":"15975 Paramount Blvd A","City":"Paramount","State":"CA","Zip":"90723"},{"Location":"WILCHES ALBERTO MD","Address":"7831 Jackson St","City":"Paramount","State":"CA","Zip":"90723"},{"Location":"WILD WEST BOOTS","Address":"14922 Garfield Ave","City":"Paramount","State":"CA","Zip":"90723"},{"Location":"ZORN PRODUCTION UNLIM. INC","Address":"15220 Texaco Ave","City":"Paramount","State":"CA","Zip":"90723"}]