[{"Location":"ATOMIC BOXING","Address":"960 N Western Ave","City":"San Pedro","State":"CA","Zip":"90732"},{"Location":"EASTER SEALS SOUTHERN CA","Address":"1453 W 8th St A","City":"San Pedro","State":"CA","Zip":"90732"},{"Location":"MOONLIGHTING MARINE","Address":"1311 W 26th Pl","City":"San Pedro","State":"CA","Zip":"90732"},{"Location":"NISAMEX LLC STORE 20167","Address":"912 N Western Ave","City":"San Pedro","State":"CA","Zip":"90732"},{"Location":"PENINSULA PRIMARY CARE","Address":"1428 W 7th St B","City":"San Pedro","State":"CA","Zip":"90732"},{"Location":"PROVIDENCE MEDICAL","Address":"1499 W 1st St","City":"San Pedro","State":"CA","Zip":"90732"},{"Location":"SAN PEDRO HOSPITAL","Address":"1300 W 7th St","City":"San Pedro","State":"CA","Zip":"90732"},{"Location":"SONNY'S BISTRO","Address":"1420 W 25th St","City":"San Pedro","State":"CA","Zip":"90732"},{"Location":"STIX HOLDINGS 754","Address":"970 N Western Ave 52","City":"San Pedro","State":"CA","Zip":"90732"},{"Location":"THE SALVATION ARMY CORP","Address":"1326 Stonewood Ct","City":"San Pedro","State":"CA","Zip":"90732"},{"Location":"ZACATECAS CARNICERIA","Address":"123 Mirabeau Ave","City":"San Pedro","State":"CA","Zip":"90732"}]