[{"Location":"","Address":"330 Ferry St","City":"San Pedro","State":"CA","Zip":"90731"},{"Location":"22ND STREET LANDING RESTAURANT","Address":"141 W 22nd St","City":"San Pedro","State":"CA","Zip":"90731"},{"Location":"A & J PARTY SUPPLY & FLO","Address":"139 N Pacific Ave","City":"San Pedro","State":"CA","Zip":"90731"},{"Location":"ACAPULCO RESTAURANT #53","Address":"750 Sampson Way 83","City":"San Pedro","State":"CA","Zip":"90731"},{"Location":"ADVANCED BALANCE STUDIO","Address":"1921 N Gaffey St I","City":"San Pedro","State":"CA","Zip":"90731"},{"Location":"ADVANCED DIESEL AND AUTOMOTIVE","Address":"1106 S Gaffey St","City":"San Pedro","State":"CA","Zip":"90731"},{"Location":"AFD PETROLEUM","Address":"224 Whalers Walk 22","City":"San Pedro","State":"CA","Zip":"90731"},{"Location":"APM TERMINALS","Address":"2500 Navy Way","City":"San Pedro","State":"CA","Zip":"90731"},{"Location":"BAYSIDE TERRACE APTS","Address":"860 W 5th St","City":"San Pedro","State":"CA","Zip":"90731"},{"Location":"BERTO L MILLER","Address":"971 S Seaside Ave","City":"San Pedro","State":"CA","Zip":"90731"},{"Location":"BIG NICKS PIZZA","Address":"1110 N Gaffey St","City":"San Pedro","State":"CA","Zip":"90731"},{"Location":"BRYNN FOSS TUG CO","Address":"425 S Palos Verdes St","City":"San Pedro","State":"CA","Zip":"90731"},{"Location":"BUNZ GOURMET BURGERS","Address":"655 W 7th St","City":"San Pedro","State":"CA","Zip":"90731"},{"Location":"CABRILLO BEACH YACHT","Address":"211 W 22nd St","City":"San Pedro","State":"CA","Zip":"90731"},{"Location":"CATALINA EXPRESS","Address":"95 Berth","City":"San Pedro","State":"CA","Zip":"90731"},{"Location":"CATALINA EXPRESS SAN PEDRO","Address":"95 Berth","City":"San Pedro","State":"CA","Zip":"90731"},{"Location":"CENTURY MOTORCYCLE","Address":"1640 S Pacific Ave","City":"San Pedro","State":"CA","Zip":"90731"},{"Location":"CGIS RAO LA LB","Address":"1001 S Seaside Ave 59","City":"San Pedro","State":"CA","Zip":"90731"},{"Location":"CITY HALL MARKET","Address":"1043 S Palos Verdes St","City":"San Pedro","State":"CA","Zip":"90731"},{"Location":"CLEAN SAN PEDRO","Address":"549 W 9th St","City":"San Pedro","State":"CA","Zip":"90731"},{"Location":"COBHAM SATCOM","Address":"2800 Miner St 16m","City":"San Pedro","State":"CA","Zip":"90731"},{"Location":"CRIMSON PROJECT LLC","Address":"345 W 6th St","City":"San Pedro","State":"CA","Zip":"90731"},{"Location":"CROWN PLAZA SAN PEDRO #2","Address":"601 S Palos Verdes St","City":"San Pedro","State":"CA","Zip":"90731"},{"Location":"CUSTOM SHOE REPAIR","Address":"702 S Pacific Ave","City":"San Pedro","State":"CA","Zip":"90731"},{"Location":"DLA ENERGY AMW","Address":"3171 N Gaffey St","City":"San Pedro","State":"CA","Zip":"90731"},{"Location":"DOUBLETREE SAN PEDRO (0052369)","Address":"2800 Via Cabrillo Marina","City":"San Pedro","State":"CA","Zip":"90731"},{"Location":"ENIGMA BAR","Address":"1323 S Pacific Ave","City":"San Pedro","State":"CA","Zip":"90731"},{"Location":"FOREMEN'S UNION 94 ILWU","Address":"411 N Harbor Blvd 303","City":"San Pedro","State":"CA","Zip":"90731"},{"Location":"FRED BROWN RCOVERY 7","Address":"244 W 14th St","City":"San Pedro","State":"CA","Zip":"90731"},{"Location":"FRED BROWN RECOVERY 10","Address":"856 W 19th St","City":"San Pedro","State":"CA","Zip":"90731"},{"Location":"FRED BROWN RECOVERY 3","Address":"356 W 13th St","City":"San Pedro","State":"CA","Zip":"90731"},{"Location":"FRED BROWN RECOVERY 4","Address":"354 W 13th St B","City":"San Pedro","State":"CA","Zip":"90731"},{"Location":"FRED BROWN RECOVERY 5","Address":"425 W 13th St","City":"San Pedro","State":"CA","Zip":"90731"},{"Location":"FRED BROWN RECOVERY 6","Address":"423 W 13th St","City":"San Pedro","State":"CA","Zip":"90731"},{"Location":"FRED BROWN RECOVERY 7","Address":"270 W 14th St","City":"San Pedro","State":"CA","Zip":"90731"},{"Location":"FRED BROWN RECOVERY 8","Address":"242 W 14th St","City":"San Pedro","State":"CA","Zip":"90731"},{"Location":"FRED BROWN RECOVERY 8","Address":"276 W 14th St","City":"San Pedro","State":"CA","Zip":"90731"},{"Location":"FRED BROWN RECOVERY 9","Address":"278 W 14th St","City":"San Pedro","State":"CA","Zip":"90731"},{"Location":"GAFFEY FANTASTIC CAFE","Address":"1235 N Gaffey St","City":"San Pedro","State":"CA","Zip":"90731"},{"Location":"GAFFEY SMOKE CENTER","Address":"711 W Battery St","City":"San Pedro","State":"CA","Zip":"90731"},{"Location":"GEORGES BARBERSHOP","Address":"725 S Pacific Ave","City":"San Pedro","State":"CA","Zip":"90731"},{"Location":"GODMOTHERS","Address":"302 W 7th St","City":"San Pedro","State":"CA","Zip":"90731"},{"Location":"GOODFELLAS","Address":"356 W 6th St","City":"San Pedro","State":"CA","Zip":"90731"},{"Location":"GRANDE COIN LAUDRY","Address":"1202 S Pacific Ave","City":"San Pedro","State":"CA","Zip":"90731"},{"Location":"GREEN ONION","Address":"145 W 6th St","City":"San Pedro","State":"CA","Zip":"90731"},{"Location":"HAMID DDS","Address":"138 S Gaffey St","City":"San Pedro","State":"CA","Zip":"90731"},{"Location":"HAPPY DINNER","Address":"617 S Centre St","City":"San Pedro","State":"CA","Zip":"90731"},{"Location":"HARBOR HOUSE OF DANK","Address":"1400 S Gaffney B","City":"San Pedro","State":"CA","Zip":"90731"},{"Location":"HARLEY MARINE SERVICES","Address":"1610 Barracuda St","City":"San Pedro","State":"CA","Zip":"90731"},{"Location":"HAVANA LOUNGE CIGAR SHOP","Address":"529 W 9th St","City":"San Pedro","State":"CA","Zip":"90731"},{"Location":"ILWU LOCAL 13","Address":"630 S Centre St","City":"San Pedro","State":"CA","Zip":"90731"},{"Location":"IRON CITY TAVERN","Address":"589 W 9th St","City":"San Pedro","State":"CA","Zip":"90731"},{"Location":"J TRANIS RISTORANTE","Address":"584 W 9th St","City":"San Pedro","State":"CA","Zip":"90731"},{"Location":"JACKSONS PLACE","Address":"335 W 7th St","City":"San Pedro","State":"CA","Zip":"90731"},{"Location":"JM RV RENTAL","Address":"2800 Miner St A11","City":"San Pedro","State":"CA","Zip":"90731"},{"Location":"JMJ SPORT FISHING","Address":"141 W 22nd St","City":"San Pedro","State":"CA","Zip":"90731"},{"Location":"JOSEPH'S BAKERY","Address":"1027 S Meyler St","City":"San Pedro","State":"CA","Zip":"90731"},{"Location":"JUNES BAR","Address":"1100 S Pacific Ave","City":"San Pedro","State":"CA","Zip":"90731"},{"Location":"LEISURE SPA NAILS & HAIR","Address":"377 W 7th St","City":"San Pedro","State":"CA","Zip":"90731"},{"Location":"LOCAL 63 UNION","Address":"350 W 5th St 100","City":"San Pedro","State":"CA","Zip":"90731"},{"Location":"M%2FV KAHU","Address":"2800 Miner St D121","City":"San Pedro","State":"CA","Zip":"90731"},{"Location":"M%2FV POTTS","Address":"2800 Miner St 11c","City":"San Pedro","State":"CA","Zip":"90731"},{"Location":"M%2FY BUTTERCUP LLC","Address":"241 Watchorn Walk 171","City":"San Pedro","State":"CA","Zip":"90731"},{"Location":"M%2FY CHEERS","Address":"2800 Miner St Slipc","City":"San Pedro","State":"CA","Zip":"90731"},{"Location":"M%2FY FLEETWOOD","Address":"2800 Miner St 36m","City":"San Pedro","State":"CA","Zip":"90731"},{"Location":"M%2FY PACIFIC DIVINE","Address":"2800 Miner St","City":"San Pedro","State":"CA","Zip":"90731"},{"Location":"M%2FY PERFECT PITCH","Address":"2800 Miner St","City":"San Pedro","State":"CA","Zip":"90731"},{"Location":"MADISON TOURS AND TRAVEL","Address":"2800 Miner St 22b","City":"San Pedro","State":"CA","Zip":"90731"},{"Location":"MARILYN DAY BOOKKEEPING","Address":"817 W 9th St","City":"San Pedro","State":"CA","Zip":"90731"},{"Location":"MARINA SEAFOOD","Address":"1050 Nagoya Way","City":"San Pedro","State":"CA","Zip":"90731"},{"Location":"MOST VALUBLE PIZZA","Address":"525 S Gaffey St","City":"San Pedro","State":"CA","Zip":"90731"},{"Location":"MOTOR YACHT A","Address":"2800 Miner St","City":"San Pedro","State":"CA","Zip":"90731"},{"Location":"MOTOR YACHT A 2","Address":"2800 Miner St","City":"San Pedro","State":"CA","Zip":"90731"},{"Location":"MOUNT SINAI BAPTIST CHURCH","Address":"225 S Mesa St","City":"San Pedro","State":"CA","Zip":"90731"},{"Location":"MV AQUADISIAC","Address":"2800 Miner St","City":"San Pedro","State":"CA","Zip":"90731"},{"Location":"MV BALMY","Address":"211 W 22nd St","City":"San Pedro","State":"CA","Zip":"90731"},{"Location":"MV HORIZON KODIAK","Address":"2800 Miner St 8h","City":"San Pedro","State":"CA","Zip":"90731"},{"Location":"MV KIMBLE","Address":"2800 Miner St","City":"San Pedro","State":"CA","Zip":"90731"},{"Location":"MY TRITON","Address":"2800 Miner St 13d","City":"San Pedro","State":"CA","Zip":"90731"},{"Location":"NEILS PASTA SEAFOOD GRILL","Address":"383 W 5th St","City":"San Pedro","State":"CA","Zip":"90731"},{"Location":"NIKO'S PIZZERIA","Address":"399 W 6th St","City":"San Pedro","State":"CA","Zip":"90731"},{"Location":"NRC QUEST","Address":"1500 Barracuda St","City":"San Pedro","State":"CA","Zip":"90731"},{"Location":"OCEANFRONT CARE HOME INC","Address":"3605 S Carolina St","City":"San Pedro","State":"CA","Zip":"90731"},{"Location":"OFF THE VINE","Address":"600 S Pacific Ave 103","City":"San Pedro","State":"CA","Zip":"90731"},{"Location":"PANORAMA MANAGEMENT GROUP INC","Address":"210 Whalers Walk Berth #100","City":"San Pedro","State":"CA","Zip":"90731"},{"Location":"PENESULA PHARMACY","Address":"1294 W 6th St 100","City":"San Pedro","State":"CA","Zip":"90731"},{"Location":"PHILIE B'S RESTUARANT GRP LLC","Address":"347 W 6th St","City":"San Pedro","State":"CA","Zip":"90731"},{"Location":"PIRATE TOWN DIAMOND CUTS 2","Address":"134 N Gaffey St G","City":"San Pedro","State":"CA","Zip":"90731"},{"Location":"PORKYS BBQ","Address":"362 W 6th St","City":"San Pedro","State":"CA","Zip":"90731"},{"Location":"PORT SHIP INTERNATIONAL","Address":"285 W 6th St 101","City":"San Pedro","State":"CA","Zip":"90731"},{"Location":"PORTS AMERICA CRUISE INC.","Address":"Berth 93   100 Swinford","City":"San Pedro","State":"CA","Zip":"90731"},{"Location":"PORTS AMERICA DBA","Address":"2001 John S Gibson Blvd","City":"San Pedro","State":"CA","Zip":"90731"},{"Location":"PORTS O' CALL RESTAURANT","Address":"Berth 76 Port Of La","City":"San Pedro","State":"CA","Zip":"90731"},{"Location":"PORTSIDE CLEANERS","Address":"421 W 6th St","City":"San Pedro","State":"CA","Zip":"90731"},{"Location":"POSEIDAN MARINE LLC","Address":"2800 Miner St","City":"San Pedro","State":"CA","Zip":"90731"},{"Location":"PRONTOS MINI MARKET","Address":"210 N Pacific Ave","City":"San Pedro","State":"CA","Zip":"90731"},{"Location":"PUESTA DEL SOL","Address":"1622 S Gaffey St","City":"San Pedro","State":"CA","Zip":"90731"},{"Location":"R%2FV BAGGETT","Address":"2800 Miner St A11","City":"San Pedro","State":"CA","Zip":"90731"},{"Location":"R%2FV COUCH","Address":"2800 Miner St 88d","City":"San Pedro","State":"CA","Zip":"90731"},{"Location":"R%2FV OQUIN","Address":"2800 Miner St","City":"San Pedro","State":"CA","Zip":"90731"},{"Location":"REGUS","Address":"222 W 6th St 400","City":"San Pedro","State":"CA","Zip":"90731"},{"Location":"RV MITCHELL","Address":"2800 Miner St","City":"San Pedro","State":"CA","Zip":"90731"},{"Location":"S COAST GUARD","Address":"1001 S Seaside Ave","City":"San Pedro","State":"CA","Zip":"90731"},{"Location":"S%2FY KAORI","Address":"2800 Miner St 22c","City":"San Pedro","State":"CA","Zip":"90731"},{"Location":"SA RECYCLING","Address":"901 New Dock St","City":"San Pedro","State":"CA","Zip":"90731"},{"Location":"SALON CE LA LUNA","Address":"1861 N Gaffey St G","City":"San Pedro","State":"CA","Zip":"90731"},{"Location":"SAMUELSEN & GONZALEZ LAW FIRM","Address":"350 W 5th St 105","City":"San Pedro","State":"CA","Zip":"90731"},{"Location":"SAN PEDRO & PENINSULA YMCA","Address":"301 S Bandini St","City":"San Pedro","State":"CA","Zip":"90731"},{"Location":"SAN PEDRO BREWING COMPANY","Address":"331 W 6th St","City":"San Pedro","State":"CA","Zip":"90731"},{"Location":"SAN PEDRO CAFE","Address":"605 S Pacific Ave","City":"San Pedro","State":"CA","Zip":"90731"},{"Location":"SAN PEDRO DENTAL","Address":"697 S Gaffey St","City":"San Pedro","State":"CA","Zip":"90731"},{"Location":"SAN PEDRO MEDICAL PLAZA","Address":"531 W 7th St","City":"San Pedro","State":"CA","Zip":"90731"},{"Location":"SAN PEDRO TACO COMPANY","Address":"441 S Gaffey St","City":"San Pedro","State":"CA","Zip":"90731"},{"Location":"SAN PEDRO VAPES","Address":"447 W 6th St","City":"San Pedro","State":"CA","Zip":"90731"},{"Location":"SANPEDRO EYECARE ASSOC","Address":"571 W 7th St","City":"San Pedro","State":"CA","Zip":"90731"},{"Location":"SENFUKU","Address":"380 W 6th St","City":"San Pedro","State":"CA","Zip":"90731"},{"Location":"SLAVKO'S HARBOR POULTRY","Address":"1224 S Pacific Ave","City":"San Pedro","State":"CA","Zip":"90731"},{"Location":"SPOT LOUNGE","Address":"2139 S Pacific Ave","City":"San Pedro","State":"CA","Zip":"90731"},{"Location":"STANDARD PACIFIC HOMES","Address":"783 Gatun St #110","City":"San Pedro","State":"CA","Zip":"90731"},{"Location":"STECCO INVESTMENTS LLC","Address":"2800 Miner St C11","City":"San Pedro","State":"CA","Zip":"90731"},{"Location":"SUSHI 21","Address":"235 S Gaffey St","City":"San Pedro","State":"CA","Zip":"90731"},{"Location":"SVORINICH AND ASSOCIATE","Address":"1891 N Gaffey St 224","City":"San Pedro","State":"CA","Zip":"90731"},{"Location":"SYNERGY HEALTHCARE","Address":"505 S Pacific Ave 101","City":"San Pedro","State":"CA","Zip":"90731"},{"Location":"TARGET SAN PEDRO","Address":"1701 N Gaffey St","City":"San Pedro","State":"CA","Zip":"90731"},{"Location":"TC'S COCKTAIL LOUNGE","Address":"694 W 9th St","City":"San Pedro","State":"CA","Zip":"90731"},{"Location":"THE INDIAN ROOM","Address":"952 S Pacific Ave","City":"San Pedro","State":"CA","Zip":"90731"},{"Location":"THE SHOP","Address":"437 West 6thst","City":"San Pedro","State":"CA","Zip":"90731"},{"Location":"THINK CAFE","Address":"302 W 5th St","City":"San Pedro","State":"CA","Zip":"90731"},{"Location":"THREE G LAUNDRY LLC","Address":"2215 S Pacific Ave","City":"San Pedro","State":"CA","Zip":"90731"},{"Location":"TOMMYS BURGERS","Address":"1141 S Gaffey St","City":"San Pedro","State":"CA","Zip":"90731"},{"Location":"TRI COUNTY MEDICAL","Address":"114 N Pacific Ave","City":"San Pedro","State":"CA","Zip":"90731"},{"Location":"TRIGO LLC","Address":"2800 Miner St","City":"San Pedro","State":"CA","Zip":"90731"},{"Location":"US COAST GUARD","Address":"1001 S Seaside Ave 22","City":"San Pedro","State":"CA","Zip":"90731"},{"Location":"US COAST GUARD CUTTER GEORGE C","Address":"1001 S Seaside Ave","City":"San Pedro","State":"CA","Zip":"90731"},{"Location":"US COAST GUARD STATION LA%2FLB","Address":"1001 S Seaside Ave","City":"San Pedro","State":"CA","Zip":"90731"},{"Location":"USCG BUILDING #38","Address":"1001 S Seaside Ave","City":"San Pedro","State":"CA","Zip":"90731"},{"Location":"USCG COMMAND %2F OPPS","Address":"1001 S Seaside Ave","City":"San Pedro","State":"CA","Zip":"90731"},{"Location":"USCGC ALERT (WMEC 630)","Address":"1001 South Eastside Ave 20","City":"San Pedro","State":"CA","Zip":"90731"},{"Location":"WISE GUYS","Address":"2218 S Pacific Ave","City":"San Pedro","State":"CA","Zip":"90731"}]