[{"Location":"","Address":"1910 Saint Andrews Dr","City":"Seal Beach","State":"CA","Zip":"90740"},{"Location":"5TH BN 14TH MARINES N BTRY","Address":"800 Seal Beach Blvd 14","City":"Seal Beach","State":"CA","Zip":"90740"},{"Location":"5THBN 14TH MARINES","Address":"800 Seal Beach Blvd 14","City":"Seal Beach","State":"CA","Zip":"90740"},{"Location":"ACCURATE STORAGE","Address":"1011 Seal Beach Blvd","City":"Seal Beach","State":"CA","Zip":"90740"},{"Location":"AIM SPORTS PLEX LLC","Address":"1718 Apollo Ct","City":"Seal Beach","State":"CA","Zip":"90740"},{"Location":"ANGELOS ITALIAN DELI","Address":"133 Main St","City":"Seal Beach","State":"CA","Zip":"90740"},{"Location":"ANYTIME FITNESS","Address":"2920 Westminster Ave","City":"Seal Beach","State":"CA","Zip":"90740"},{"Location":"BEACHSIDE GRILLE","Address":"620 Pacific Coast Hwy","City":"Seal Beach","State":"CA","Zip":"90740"},{"Location":"BEACHWOOD BBQ","Address":"131 Main St","City":"Seal Beach","State":"CA","Zip":"90740"},{"Location":"BISTRO STREET GERMAIN","Address":"302 Main St","City":"Seal Beach","State":"CA","Zip":"90740"},{"Location":"BNAF","Address":"2600 Westminster Ave","City":"Seal Beach","State":"CA","Zip":"90740"},{"Location":"CAPITAL SOURCE","Address":"13962 Seal Beach Blvd","City":"Seal Beach","State":"CA","Zip":"90740"},{"Location":"CITY OF SEAL BEACH","Address":"3333 Saint Cloud Dr","City":"Seal Beach","State":"CA","Zip":"90740"},{"Location":"CLANCY'S SALOON%2C INC.","Address":"111 Main St","City":"Seal Beach","State":"CA","Zip":"90740"},{"Location":"COACH'S SPORT GRILL","Address":"1025 Pacific Coast Hwy","City":"Seal Beach","State":"CA","Zip":"90740"},{"Location":"COASTAL RIVERINE SQUAD 11","Address":"800 Seal Beach Blvd 77","City":"Seal Beach","State":"CA","Zip":"90740"},{"Location":"CORIVERON 11","Address":"800 Seal Beach Blvd 66","City":"Seal Beach","State":"CA","Zip":"90740"},{"Location":"DAVES OTHER PLACE","Address":"1500 Pacific Coast Hwy C","City":"Seal Beach","State":"CA","Zip":"90740"},{"Location":"DENDREON CORP","Address":"1700 Saturn Way","City":"Seal Beach","State":"CA","Zip":"90740"},{"Location":"DEPT OF NAVY SEABREEZE RV RES","Address":"800 Seal Beach Blvd","City":"Seal Beach","State":"CA","Zip":"90740"},{"Location":"ENCORE INTERIORS","Address":"1729 Apollo Ct","City":"Seal Beach","State":"CA","Zip":"90740"},{"Location":"EVENT LINK","Address":"330 Main St 203a","City":"Seal Beach","State":"CA","Zip":"90740"},{"Location":"FIDELITY INVESTMENTS 264","Address":"12201 Seal Beach Blvd","City":"Seal Beach","State":"CA","Zip":"90740"},{"Location":"FIRE STATION 48","Address":"3131 N Gate Rd","City":"Seal Beach","State":"CA","Zip":"90740"},{"Location":"FIRST SERVE TENNIS COURTS","Address":"3900 Lampson Ave","City":"Seal Beach","State":"CA","Zip":"90740"},{"Location":"FIT STOP- FITNESS CENTER","Address":"800 Seal Beach Blvd B16","City":"Seal Beach","State":"CA","Zip":"90740"},{"Location":"GOLDEN RAIN FOUNDATION","Address":"1880 Golden Rain Rd","City":"Seal Beach","State":"CA","Zip":"90740"},{"Location":"HENNESSEY'S GRILL","Address":"143 Main St","City":"Seal Beach","State":"CA","Zip":"90740"},{"Location":"IRISHERS SALOON","Address":"121 Main St","City":"Seal Beach","State":"CA","Zip":"90740"},{"Location":"ISLANDS RESTAURANT #037","Address":"12320 Seal Beach Blvd","City":"Seal Beach","State":"CA","Zip":"90740"},{"Location":"KOBE JAPANESE","Address":"3001 Old Ranch Pkwy","City":"Seal Beach","State":"CA","Zip":"90740"},{"Location":"KOHL'S #604","Address":"12345 Seal Beach Blvd","City":"Seal Beach","State":"CA","Zip":"90740"},{"Location":"LAYLAS CAFE","Address":"13956 Seal Beach Blvd","City":"Seal Beach","State":"CA","Zip":"90740"},{"Location":"LENING AND COMPANY","Address":"13924 Seal Beach Blvd C","City":"Seal Beach","State":"CA","Zip":"90740"},{"Location":"MABB SEAL BEACH 1","Address":"800 Seal Beach Blvd 19","City":"Seal Beach","State":"CA","Zip":"90740"},{"Location":"MABB SEAL BEACH 2","Address":"800 Seal Beach Blvd 19","City":"Seal Beach","State":"CA","Zip":"90740"},{"Location":"MACARONI GRILL #1255","Address":"12380 Seal Beach Blvd","City":"Seal Beach","State":"CA","Zip":"90740"},{"Location":"MAGTEK","Address":"1710 Apollo Ct","City":"Seal Beach","State":"CA","Zip":"90740"},{"Location":"O'MALLEYS ON MAIN","Address":"140 Main St","City":"Seal Beach","State":"CA","Zip":"90740"},{"Location":"OLD RANCH COUNTRY CLUB LLC","Address":"3901 Lampson Ave","City":"Seal Beach","State":"CA","Zip":"90740"},{"Location":"ONE LUV SALON","Address":"1250 Pacific Coast Hwy A","City":"Seal Beach","State":"CA","Zip":"90740"},{"Location":"ORIGINAL PARTS GROUP INC","Address":"1770 Saturn Way","City":"Seal Beach","State":"CA","Zip":"90740"},{"Location":"PACIFIC DENTAL 272","Address":"12419 Seal Beach Boule","City":"Seal Beach","State":"CA","Zip":"90740"},{"Location":"PACIFIC PREMIER BANK","Address":"13928 Seal Beach Blvd","City":"Seal Beach","State":"CA","Zip":"90740"},{"Location":"PATTYS PLACE","Address":"500 Pacific Coast Hwy 104","City":"Seal Beach","State":"CA","Zip":"90740"},{"Location":"PHO BASIL LEAF","Address":"136 Main Street%2C Seal Beach","City":"Seal Beach","State":"CA","Zip":"90740"},{"Location":"PRASAI","Address":"1053 Pacific Coast Hwy","City":"Seal Beach","State":"CA","Zip":"90740"},{"Location":"ROCHARIN THAI BISTRO","Address":"600 Pacific Coast Hwy 108","City":"Seal Beach","State":"CA","Zip":"90740"},{"Location":"ROGER DUNN GOLF SHOP","Address":"13958 Seal Beach Blvd","City":"Seal Beach","State":"CA","Zip":"90740"},{"Location":"SEAL BEACH ABBEY%2C INC.","Address":"306 Main St","City":"Seal Beach","State":"CA","Zip":"90740"},{"Location":"SEAL BEACH FAMILY MED GP","Address":"1198 Pacific Coast Hwy I","City":"Seal Beach","State":"CA","Zip":"90740"},{"Location":"SEAL BEACH LIQUOR","Address":"112 Main St","City":"Seal Beach","State":"CA","Zip":"90740"},{"Location":"SEAL BEACH POLICE DEPARTMENT","Address":"911 Seal Beach Blvd","City":"Seal Beach","State":"CA","Zip":"90740"},{"Location":"SEYCHELLES REEF","Address":"1400 Pacific Coast Hwy","City":"Seal Beach","State":"CA","Zip":"90740"},{"Location":"STIX HOLDINGS 757","Address":"12430 Seal Beach Blvd A","City":"Seal Beach","State":"CA","Zip":"90740"},{"Location":"SUPAKORN YAMSUK","Address":"1013 Pacific Coast Hwy","City":"Seal Beach","State":"CA","Zip":"90740"},{"Location":"TARGET","Address":"12300 Seal Beach Blvd","City":"Seal Beach","State":"CA","Zip":"90740"},{"Location":"THE BOEING COMPANY","Address":"2201 Seal Beach Blvd 90","City":"Seal Beach","State":"CA","Zip":"90740"},{"Location":"THE BOEING COMPANY","Address":"2201 Seal Beach Blvd","City":"Seal Beach","State":"CA","Zip":"90740"},{"Location":"THE BOEING COMPANY S.& I.S","Address":"2800 Westminster Ave","City":"Seal Beach","State":"CA","Zip":"90740"},{"Location":"THE GRILL","Address":"101 Main St 0","City":"Seal Beach","State":"CA","Zip":"90740"},{"Location":"THE HANGOUT","Address":"901 Ocean Ave","City":"Seal Beach","State":"CA","Zip":"90740"},{"Location":"TYRS INC","Address":"1790 Apollo Ct","City":"Seal Beach","State":"CA","Zip":"90740"},{"Location":"UNITED HEALTH GROUP INC","Address":"13930 Seal Beach Blvd","City":"Seal Beach","State":"CA","Zip":"90740"},{"Location":"WAKI SUSHI","Address":"210 Main St","City":"Seal Beach","State":"CA","Zip":"90740"},{"Location":"WALT'S WHARF","Address":"201 Main St","City":"Seal Beach","State":"CA","Zip":"90740"},{"Location":"WEST-COMM","Address":"911 Seal Beach Blvd","City":"Seal Beach","State":"CA","Zip":"90740"},{"Location":"YASAI JAPANESS RESTAURANT","Address":"2365 Seal Beach Blvd","City":"Seal Beach","State":"CA","Zip":"90740"},{"Location":"YUCATAN GRILL","Address":"550 Pacific Coast Hwy 111","City":"Seal Beach","State":"CA","Zip":"90740"},{"Location":"Z PIZZA","Address":"12430 Seal Beach Blvd F","City":"Seal Beach","State":"CA","Zip":"90740"}]