[{"Location":"AJ SPORTS CLUB LLC","Address":"21042 Main St","City":"Carson","State":"CA","Zip":"90745"},{"Location":"ALCOA FASTENING SYSTEM 1","Address":"900 E Watson Center Rd","City":"Carson","State":"CA","Zip":"90745"},{"Location":"AW COLLISION OF CARSON","Address":"21212 Avalon Blvd","City":"Carson","State":"CA","Zip":"90745"},{"Location":"BEYOND SKIN CARE","Address":"22122 Main St","City":"Carson","State":"CA","Zip":"90745"},{"Location":"CALIFORNIA CARTAGE CO.","Address":"22351 Wilmington Ave","City":"Carson","State":"CA","Zip":"90745"},{"Location":"CAMINO VILLAGE","Address":"21735 Main St","City":"Carson","State":"CA","Zip":"90745"},{"Location":"CAR PROS KIA","Address":"21243 Avalon Blvd","City":"Carson","State":"CA","Zip":"90745"},{"Location":"CARSON HONDA","Address":"1435 E 223rd St","City":"Carson","State":"CA","Zip":"90745"},{"Location":"CARSON SHERIFF'S STATION","Address":"21356 Avalon Blvd","City":"Carson","State":"CA","Zip":"90745"},{"Location":"CARSON TOYOTA","Address":"1333 E 223rd St","City":"Carson","State":"CA","Zip":"90745"},{"Location":"CHILE RELLENO MX FOOD","Address":"194 E Carson St","City":"Carson","State":"CA","Zip":"90745"},{"Location":"CHILE VERDE","Address":"270 E Sepulveda Blvd","City":"Carson","State":"CA","Zip":"90745"},{"Location":"CHILE VERDE","Address":"20806 Figueroa St","City":"Carson","State":"CA","Zip":"90745"},{"Location":"COASTAL PHYSICIANS GROUP","Address":"824 E Carson St 101","City":"Carson","State":"CA","Zip":"90745"},{"Location":"COLOR SPOT NURSERY","Address":"133 W Sepulveda Blvd","City":"Carson","State":"CA","Zip":"90745"},{"Location":"CONNECTIONS","Address":"24416 Main St 304","City":"Carson","State":"CA","Zip":"90745"},{"Location":"DAMCO DISTRIBUTION INC","Address":"1015 E 236th St","City":"Carson","State":"CA","Zip":"90745"},{"Location":"DAVITA #5691 CARSON","Address":"1309 E Carson St","City":"Carson","State":"CA","Zip":"90745"},{"Location":"DIANA RESTAURANT 2","Address":"300 E Sepulveda Blvd","City":"Carson","State":"CA","Zip":"90745"},{"Location":"DINO MANAGEMENT","Address":"21112 Figueroa St","City":"Carson","State":"CA","Zip":"90745"},{"Location":"DJ RESTUARANT","Address":"860 E Carson St","City":"Carson","State":"CA","Zip":"90745"},{"Location":"DOMINICK PIZZA HOUSE","Address":"24209 Avalon Blvd","City":"Carson","State":"CA","Zip":"90745"},{"Location":"DOUBLETREE HOTEL CARSON","Address":"2 Civic Plaza Dr","City":"Carson","State":"CA","Zip":"90745"},{"Location":"DR EDUARDO GABUTEN DMD INC","Address":"22015 Main St","City":"Carson","State":"CA","Zip":"90745"},{"Location":"DR LETICIA TOLENTINO","Address":"860 E Carson St 106","City":"Carson","State":"CA","Zip":"90745"},{"Location":"EAGLES FRATERNITY","Address":"23730 Main St","City":"Carson","State":"CA","Zip":"90745"},{"Location":"EXPRESS PIPE","Address":"1000 E Carson St","City":"Carson","State":"CA","Zip":"90745"},{"Location":"FAMOUS BURGER","Address":"23417 Main St","City":"Carson","State":"CA","Zip":"90745"},{"Location":"FCL LOGISTICS","Address":"23011 Wilmington Ave","City":"Carson","State":"CA","Zip":"90745"},{"Location":"FLORANTE A ALEJO MD","Address":"282 E Sepulveda Blvd","City":"Carson","State":"CA","Zip":"90745"},{"Location":"FLORES CAFE","Address":"1804 E Carson St","City":"Carson","State":"CA","Zip":"90745"},{"Location":"FUJI TRANS","Address":"1231 E 230th St","City":"Carson","State":"CA","Zip":"90745"},{"Location":"GALLO MARKET","Address":"21002 Main St","City":"Carson","State":"CA","Zip":"90745"},{"Location":"GARDEN OF PRAISE","Address":"759 E 223rd St","City":"Carson","State":"CA","Zip":"90745"},{"Location":"GCFI","Address":"225 W Torrance Blvd D","City":"Carson","State":"CA","Zip":"90745"},{"Location":"GMB NORTH AMERICA INC","Address":"22310 Bonita St","City":"Carson","State":"CA","Zip":"90745"},{"Location":"GSC CLEANING","Address":"1330 E 223rd St 519","City":"Carson","State":"CA","Zip":"90745"},{"Location":"HANDUGEN RESTAURANT","Address":"21616 Figueroa St","City":"Carson","State":"CA","Zip":"90745"},{"Location":"HEAVENLY VAPE","Address":"23740 Main St","City":"Carson","State":"CA","Zip":"90745"},{"Location":"HENRY TILLMAN BOXING CLUB","Address":"21625 Avalon Blvd","City":"Carson","State":"CA","Zip":"90745"},{"Location":"HERBALIFE","Address":"18431 S Willington Ave","City":"Carson","State":"CA","Zip":"90745"},{"Location":"INLAND KENWORTH INC","Address":"1202 E Carson St","City":"Carson","State":"CA","Zip":"90745"},{"Location":"JUDSON BAPTIST CHURCH","Address":"451 E 223rd St","City":"Carson","State":"CA","Zip":"90745"},{"Location":"KEN PORTER AUTIONS","Address":"21140 Avalon Blvd","City":"Carson","State":"CA","Zip":"90745"},{"Location":"LA VINYL WINDOWS","Address":"21011 Figueroa St","City":"Carson","State":"CA","Zip":"90745"},{"Location":"LAS PALMAS CAFE","Address":"23909 Avalon Blvd","City":"Carson","State":"CA","Zip":"90745"},{"Location":"LIBERTY  TAX SERVICE","Address":"23555 Avalon Blvd","City":"Carson","State":"CA","Zip":"90745"},{"Location":"LOPEZ QUIZON FAMILY DENTAL","Address":"23712 Main St","City":"Carson","State":"CA","Zip":"90745"},{"Location":"LUPITAS MEXICAN RESTAURANT","Address":"21917 Main St","City":"Carson","State":"CA","Zip":"90745"},{"Location":"MARIOS HAIR SALON","Address":"22114 Main St","City":"Carson","State":"CA","Zip":"90745"},{"Location":"MGS BARBER SHOP","Address":"860 E Carson St 111","City":"Carson","State":"CA","Zip":"90745"},{"Location":"NADERS FURNITURE STORES INC","Address":"456 E Carson St","City":"Carson","State":"CA","Zip":"90745"},{"Location":"NITAS RESTAURANT","Address":"22028 Avalon Blvd","City":"Carson","State":"CA","Zip":"90745"},{"Location":"NORTHWEST RV","Address":"21203 Figueroa St","City":"Carson","State":"CA","Zip":"90745"},{"Location":"PAC BUILDING 2","Address":"21200 Figueroa St","City":"Carson","State":"CA","Zip":"90745"},{"Location":"PEACE APOSTOLIC CHURCH INC","Address":"21224 Figueroa St","City":"Carson","State":"CA","Zip":"90745"},{"Location":"PGG ENTERPRISES LLC","Address":"135 W Carson St","City":"Carson","State":"CA","Zip":"90745"},{"Location":"PHILLIPS 66","Address":"1520 E Sepulveda Blvd","City":"Carson","State":"CA","Zip":"90745"},{"Location":"PLANET FITNESS-CARSON","Address":"123 E Lomita Blvd","City":"Carson","State":"CA","Zip":"90745"},{"Location":"PLATINUM LIMOUSINE & SUV","Address":"21205 Main St","City":"Carson","State":"CA","Zip":"90745"},{"Location":"POOCH HOTEL #5913","Address":"22251 Wilmington Ave","City":"Carson","State":"CA","Zip":"90745"},{"Location":"PREFERRED SERVICES","Address":"234 E Carson St 6","City":"Carson","State":"CA","Zip":"90745"},{"Location":"PRICE TRANSFER","Address":"1240 E 230th St","City":"Carson","State":"CA","Zip":"90745"},{"Location":"PRICE TRANSFER","Address":"1145 E 233rd St","City":"Carson","State":"CA","Zip":"90745"},{"Location":"PUPUSERIA LA PLAZITA PORTENA","Address":"22807 Figueroa St","City":"Carson","State":"CA","Zip":"90745"},{"Location":"RODRIGUEZ USEABLES","Address":"420 E Sepulveda Blvd","City":"Carson","State":"CA","Zip":"90745"},{"Location":"SALON 2000","Address":"22022 Avalon Blvd","City":"Carson","State":"CA","Zip":"90745"},{"Location":"SHULTZ STEEL CO","Address":"18421 S Main St","City":"Carson","State":"CA","Zip":"90745"},{"Location":"SONI THREATING SALON","Address":"860 E Carson St 115b","City":"Carson","State":"CA","Zip":"90745"},{"Location":"SOUTH BAY TRUCK CENTER","Address":"21107 Chico St","City":"Carson","State":"CA","Zip":"90745"},{"Location":"SOUTHWEST CONNECTION INC","Address":"21175 Main St E1","City":"Carson","State":"CA","Zip":"90745"},{"Location":"SSF IMPORTED AUTO PARTS","Address":"21175 Main St","City":"Carson","State":"CA","Zip":"90745"},{"Location":"TARGET","Address":"651 W Sepulveda Blvd","City":"Carson","State":"CA","Zip":"90745"},{"Location":"TEDS BURGERS","Address":"22000 Main St","City":"Carson","State":"CA","Zip":"90745"},{"Location":"THE CITY OF CARSON","Address":"21411 Orrick Ave","City":"Carson","State":"CA","Zip":"90745"},{"Location":"THE RENDEZVOUS LOUNGE","Address":"450 E Sepulveda Blvd","City":"Carson","State":"CA","Zip":"90745"},{"Location":"TONYS BARBER SHOP","Address":"149 E Lomita Blvd","City":"Carson","State":"CA","Zip":"90745"},{"Location":"TOO BIG WATER","Address":"22110 Main St","City":"Carson","State":"CA","Zip":"90745"},{"Location":"TOWNE AIR FRIEGHT","Address":"1000 E 223rd St","City":"Carson","State":"CA","Zip":"90745"},{"Location":"VETERANS SPORTS COMPLEX B05354","Address":"22400 Moneta Ave","City":"Carson","State":"CA","Zip":"90745"},{"Location":"VILLA BARBER SHOP","Address":"23411 Avalon Blvd","City":"Carson","State":"CA","Zip":"90745"},{"Location":"WEST COAST AERO SPACE","Address":"24224 Broad St","City":"Carson","State":"CA","Zip":"90745"},{"Location":"WINGSTOP 5A WINGS LLC","Address":"212 E Sepulveda Blvd","City":"Carson","State":"CA","Zip":"90745"},{"Location":"AJ SPORTS CLUB LLC","Address":"21042 Main St","City":"Carson","State":"CA","Zip":"90745"},{"Location":"ALCOA FASTENING SYSTEM 1","Address":"900 E Watson Center Rd","City":"Carson","State":"CA","Zip":"90745"},{"Location":"AW COLLISION OF CARSON","Address":"21212 Avalon Blvd","City":"Carson","State":"CA","Zip":"90745"},{"Location":"BEYOND SKIN CARE","Address":"22122 Main St","City":"Carson","State":"CA","Zip":"90745"},{"Location":"CALIFORNIA CARTAGE CO.","Address":"22351 Wilmington Ave","City":"Carson","State":"CA","Zip":"90745"},{"Location":"CAMINO VILLAGE","Address":"21735 Main St","City":"Carson","State":"CA","Zip":"90745"},{"Location":"CAR PROS KIA","Address":"21243 Avalon Blvd","City":"Carson","State":"CA","Zip":"90745"},{"Location":"CARSON HONDA","Address":"1435 E 223rd St","City":"Carson","State":"CA","Zip":"90745"},{"Location":"CARSON SHERIFF'S STATION","Address":"21356 Avalon Blvd","City":"Carson","State":"CA","Zip":"90745"},{"Location":"CARSON TOYOTA","Address":"1333 E 223rd St","City":"Carson","State":"CA","Zip":"90745"},{"Location":"CHILE RELLENO MX FOOD","Address":"194 E Carson St","City":"Carson","State":"CA","Zip":"90745"},{"Location":"CHILE VERDE","Address":"270 E Sepulveda Blvd","City":"Carson","State":"CA","Zip":"90745"},{"Location":"CHILE VERDE","Address":"20806 Figueroa St","City":"Carson","State":"CA","Zip":"90745"},{"Location":"COASTAL PHYSICIANS GROUP","Address":"824 E Carson St 101","City":"Carson","State":"CA","Zip":"90745"},{"Location":"COLOR SPOT NURSERY","Address":"133 W Sepulveda Blvd","City":"Carson","State":"CA","Zip":"90745"},{"Location":"CONNECTIONS","Address":"24416 Main St 304","City":"Carson","State":"CA","Zip":"90745"},{"Location":"DAMCO DISTRIBUTION INC","Address":"1015 E 236th St","City":"Carson","State":"CA","Zip":"90745"},{"Location":"DAVITA #5691 CARSON","Address":"1309 E Carson St","City":"Carson","State":"CA","Zip":"90745"},{"Location":"DIANA RESTAURANT 2","Address":"300 E Sepulveda Blvd","City":"Carson","State":"CA","Zip":"90745"},{"Location":"DINO MANAGEMENT","Address":"21112 Figueroa St","City":"Carson","State":"CA","Zip":"90745"},{"Location":"DJ RESTUARANT","Address":"860 E Carson St","City":"Carson","State":"CA","Zip":"90745"},{"Location":"DOMINICK PIZZA HOUSE","Address":"24209 Avalon Blvd","City":"Carson","State":"CA","Zip":"90745"},{"Location":"DOUBLETREE HOTEL CARSON","Address":"2 Civic Plaza Dr","City":"Carson","State":"CA","Zip":"90745"},{"Location":"DR EDUARDO GABUTEN DMD INC","Address":"22015 Main St","City":"Carson","State":"CA","Zip":"90745"},{"Location":"DR LETICIA TOLENTINO","Address":"860 E Carson St 106","City":"Carson","State":"CA","Zip":"90745"},{"Location":"EAGLES FRATERNITY","Address":"23730 Main St","City":"Carson","State":"CA","Zip":"90745"},{"Location":"EXPRESS PIPE","Address":"1000 E Carson St","City":"Carson","State":"CA","Zip":"90745"},{"Location":"FAMOUS BURGER","Address":"23417 Main St","City":"Carson","State":"CA","Zip":"90745"},{"Location":"FCL LOGISTICS","Address":"23011 Wilmington Ave","City":"Carson","State":"CA","Zip":"90745"},{"Location":"FLORANTE A ALEJO MD","Address":"282 E Sepulveda Blvd","City":"Carson","State":"CA","Zip":"90745"},{"Location":"FLORES CAFE","Address":"1804 E Carson St","City":"Carson","State":"CA","Zip":"90745"},{"Location":"FUJI TRANS","Address":"1231 E 230th St","City":"Carson","State":"CA","Zip":"90745"},{"Location":"GALLO MARKET","Address":"21002 Main St","City":"Carson","State":"CA","Zip":"90745"},{"Location":"GARDEN OF PRAISE","Address":"759 E 223rd St","City":"Carson","State":"CA","Zip":"90745"},{"Location":"GCFI","Address":"225 W Torrance Blvd D","City":"Carson","State":"CA","Zip":"90745"},{"Location":"GMB NORTH AMERICA INC","Address":"22310 Bonita St","City":"Carson","State":"CA","Zip":"90745"},{"Location":"GSC CLEANING","Address":"1330 E 223rd St 519","City":"Carson","State":"CA","Zip":"90745"},{"Location":"HEAVENLY VAPE","Address":"23740 Main St","City":"Carson","State":"CA","Zip":"90745"},{"Location":"HENRY TILLMAN BOXING CLUB","Address":"21625 Avalon Blvd","City":"Carson","State":"CA","Zip":"90745"},{"Location":"HERBALIFE","Address":"18431 S Willington Ave","City":"Carson","State":"CA","Zip":"90745"},{"Location":"INLAND KENWORTH INC","Address":"1202 E Carson St","City":"Carson","State":"CA","Zip":"90745"},{"Location":"JUDSON BAPTIST CHURCH","Address":"451 E 223rd St","City":"Carson","State":"CA","Zip":"90745"},{"Location":"KEN PORTER AUTIONS","Address":"21140 Avalon Blvd","City":"Carson","State":"CA","Zip":"90745"},{"Location":"LA VINYL WINDOWS","Address":"21011 Figueroa St","City":"Carson","State":"CA","Zip":"90745"},{"Location":"Las Palmas Cafe","Address":"23909 Avalon Blvd","City":"Carson","State":"CA","Zip":"90745"},{"Location":"LIBERTY  TAX SERVICE","Address":"23555 Avalon Blvd","City":"Carson","State":"CA","Zip":"90745"},{"Location":"LOPEZ QUIZON FAMILY DENTAL","Address":"23712 Main St","City":"Carson","State":"CA","Zip":"90745"},{"Location":"LUPITAS MEXICAN RESTAURANT","Address":"21917 Main St","City":"Carson","State":"CA","Zip":"90745"},{"Location":"MARIOS HAIR SALON","Address":"22114 Main St","City":"Carson","State":"CA","Zip":"90745"},{"Location":"MGS BARBER SHOP","Address":"860 E Carson St 111","City":"Carson","State":"CA","Zip":"90745"},{"Location":"NADERS FURNITURE STORES INC","Address":"456 E Carson St","City":"Carson","State":"CA","Zip":"90745"},{"Location":"NITAS RESTAURANT","Address":"22028 Avalon Blvd","City":"Carson","State":"CA","Zip":"90745"},{"Location":"NORTHWEST RV","Address":"21203 Figueroa St","City":"Carson","State":"CA","Zip":"90745"},{"Location":"PAC BUILDING 2","Address":"21200 Figueroa St","City":"Carson","State":"CA","Zip":"90745"},{"Location":"PEACE APOSTOLIC CHURCH INC","Address":"21224 Figueroa St","City":"Carson","State":"CA","Zip":"90745"},{"Location":"PGG ENTERPRISES LLC","Address":"135 W Carson St","City":"Carson","State":"CA","Zip":"90745"},{"Location":"PHILLIPS 66","Address":"1520 E Sepulveda Blvd","City":"Carson","State":"CA","Zip":"90745"},{"Location":"PLANET FITNESS-CARSON","Address":"123 E Lomita Blvd","City":"Carson","State":"CA","Zip":"90745"},{"Location":"PLATINUM LIMOUSINE & SUV","Address":"21205 Main St","City":"Carson","State":"CA","Zip":"90745"},{"Location":"POOCH HOTEL #5913","Address":"22251 Wilmington Ave","City":"Carson","State":"CA","Zip":"90745"},{"Location":"PREFERRED SERVICES","Address":"234 E Carson St 6","City":"Carson","State":"CA","Zip":"90745"},{"Location":"PRICE TRANSFER","Address":"1145 E 233rd St","City":"Carson","State":"CA","Zip":"90745"},{"Location":"PRICE TRANSFER","Address":"1240 E 230th St","City":"Carson","State":"CA","Zip":"90745"},{"Location":"PUPUSERIA LA PLACITA PORTE M A","Address":"22807 Figueroa St","City":"Carson","State":"CA","Zip":"90745"},{"Location":"RODRIGUEZ USEABLES","Address":"420 E Sepulveda Blvd","City":"Carson","State":"CA","Zip":"90745"},{"Location":"SALON 2000","Address":"22022 Avalon Blvd","City":"Carson","State":"CA","Zip":"90745"},{"Location":"SHULTZ STEEL CO","Address":"18421 S Main St","City":"Carson","State":"CA","Zip":"90745"},{"Location":"SONI THREATING SALON","Address":"860 E Carson St 115b","City":"Carson","State":"CA","Zip":"90745"},{"Location":"SOUTH BAY TRUCK CENTER","Address":"21107 Chico St","City":"Carson","State":"CA","Zip":"90745"},{"Location":"SOUTHWEST CONNECTION INC","Address":"21175 Main St E1","City":"Carson","State":"CA","Zip":"90745"},{"Location":"SSF IMPORTED AUTO PARTS","Address":"21175 Main St","City":"Carson","State":"CA","Zip":"90745"},{"Location":"TARGET","Address":"651 W Sepulveda Blvd","City":"Carson","State":"CA","Zip":"90745"},{"Location":"TEDS BURGERS","Address":"22000 Main St","City":"Carson","State":"CA","Zip":"90745"},{"Location":"THE CITY OF CARSON","Address":"21411 Orrick Ave","City":"Carson","State":"CA","Zip":"90745"},{"Location":"THE RENDEZVOUS LOUNGE","Address":"450 E Sepulveda Blvd","City":"Carson","State":"CA","Zip":"90745"},{"Location":"TONYS BARBER SHOP","Address":"149 E Lomita Blvd","City":"Carson","State":"CA","Zip":"90745"},{"Location":"TOO BIG WATER","Address":"22110 Main St","City":"Carson","State":"CA","Zip":"90745"},{"Location":"TOWNE AIR FRIEGHT","Address":"1000 E 223rd St","City":"Carson","State":"CA","Zip":"90745"},{"Location":"VETERANS SPORTS COMPLEX B05354","Address":"22400 Moneta Ave","City":"Carson","State":"CA","Zip":"90745"},{"Location":"WEST COAST AERO SPACE","Address":"24224 Broad St","City":"Carson","State":"CA","Zip":"90745"},{"Location":"WINGSTOP 5A WINGS LLC","Address":"212 E Sepulveda Blvd","City":"Carson","State":"CA","Zip":"90745"}]