[{"Location":"","Address":"675 Loyola Ave","City":"Carson","State":"CA","Zip":"90746"},{"Location":"24 HOUR FITNESS #192","Address":"945 Dominquez Ave","City":"Carson","State":"CA","Zip":"90746"},{"Location":"ASAP DRUGS SOLUTIONS INC","Address":"455 E Carson Plaza Dr","City":"Carson","State":"CA","Zip":"90746"},{"Location":"BE AEROSPACE","Address":"1351 Charles Willard St","City":"Carson","State":"CA","Zip":"90746"},{"Location":"BEAUTY LOUNGE SPA","Address":"20700 Avalon Blvd 180","City":"Carson","State":"CA","Zip":"90746"},{"Location":"BRAND PROMOTIONS","Address":"17022 Montanero Ave 5","City":"Carson","State":"CA","Zip":"90746"},{"Location":"BROWNS BARBERSHOP","Address":"645 E University Dr","City":"Carson","State":"CA","Zip":"90746"},{"Location":"BUFFALO WILD WINGS #3758","Address":"736 E Del Amo Blvd","City":"Carson","State":"CA","Zip":"90746"},{"Location":"BUG STOP SERVICES","Address":"1007 E Dominguez St N","City":"Carson","State":"CA","Zip":"90746"},{"Location":"CARSON BURGER CORP. BIG BURGER","Address":"17940 Avalon Blvd","City":"Carson","State":"CA","Zip":"90746"},{"Location":"CARSON CHRISTIAN CENTER INC","Address":"18101 Avalon Blvd","City":"Carson","State":"CA","Zip":"90746"},{"Location":"CHAPIN TRUCKING","Address":"16809 Central Ave","City":"Carson","State":"CA","Zip":"90746"},{"Location":"CHILDRENS DENTAL - CARSON","Address":"20700 Avalon Blvd","City":"Carson","State":"CA","Zip":"90746"},{"Location":"CHILI'S #1139","Address":"20760 Avalon Blvd","City":"Carson","State":"CA","Zip":"90746"},{"Location":"CINTAS DOC MANAGEMENT","Address":"18020 Central Ave","City":"Carson","State":"CA","Zip":"90746"},{"Location":"CLARENCE E MCCLENDON MIN","Address":"20501 Avalon Blvd C","City":"Carson","State":"CA","Zip":"90746"},{"Location":"COMMUNITY MEDICAL CLINIC","Address":"20930 Bonita St W","City":"Carson","State":"CA","Zip":"90746"},{"Location":"DEL AMO HOSPITAL","Address":"16920 Avalon Blvd","City":"Carson","State":"CA","Zip":"90746"},{"Location":"DERMALOGICA INC","Address":"1535 Beachey Pl","City":"Carson","State":"CA","Zip":"90746"},{"Location":"DIESEL TECH","Address":"20314 Tajauta Ave","City":"Carson","State":"CA","Zip":"90746"},{"Location":"DMC POWER INC","Address":"623 E Artesia Blvd","City":"Carson","State":"CA","Zip":"90746"},{"Location":"DOMINGUEZ HILL VILLAGE","Address":"1137 S Oakhill Cir","City":"Carson","State":"CA","Zip":"90746"},{"Location":"EJ WALLACE ENTERPRISES","Address":"20620 Leapwood Ave G","City":"Carson","State":"CA","Zip":"90746"},{"Location":"EL BURRO TACOS","Address":"17401 Avalon Blvd","City":"Carson","State":"CA","Zip":"90746"},{"Location":"ELITE TRANSFER INC","Address":"751 Kingshill Pl","City":"Carson","State":"CA","Zip":"90746"},{"Location":"EPSON AMERICA  INC.","Address":"18300 Central Ave","City":"Carson","State":"CA","Zip":"90746"},{"Location":"EV ROBERTS","Address":"18027 Bishop Ave","City":"Carson","State":"CA","Zip":"90746"},{"Location":"EXEL","Address":"1375 Beachey Pl","City":"Carson","State":"CA","Zip":"90746"},{"Location":"FAT BURGER FOODS OF CARSON","Address":"501 E Albertoni St","City":"Carson","State":"CA","Zip":"90746"},{"Location":"FED EX GROUND","Address":"1725 Charles Willard St","City":"Carson","State":"CA","Zip":"90746"},{"Location":"FIRESTONE #003700","Address":"20707 Avalon Blvd","City":"Carson","State":"CA","Zip":"90746"},{"Location":"FIRST CHOICE","Address":"20620 Leapwood Ave A","City":"Carson","State":"CA","Zip":"90746"},{"Location":"FMC 14850000","Address":"20710 Leapwood Ave E","City":"Carson","State":"CA","Zip":"90746"},{"Location":"GENERAL MILLS YOPLAIT","Address":"1055 Sandhill Ave","City":"Carson","State":"CA","Zip":"90746"},{"Location":"GORDON LABORATORIES","Address":"751 E Artesia Blvd","City":"Carson","State":"CA","Zip":"90746"},{"Location":"GORDON LABORATORIES 2","Address":"840 E Walnut St","City":"Carson","State":"CA","Zip":"90746"},{"Location":"HD SMITH","Address":"1370 E Victoria St","City":"Carson","State":"CA","Zip":"90746"},{"Location":"HERBALIFE","Address":"18431 S Willington Ave","City":"Carson","State":"CA","Zip":"90746"},{"Location":"HOUSE OF SEAFOOD","Address":"940 E Dominguez St","City":"Carson","State":"CA","Zip":"90746"},{"Location":"JM ENTERPRISE","Address":"637 E Albertoni St","City":"Carson","State":"CA","Zip":"90746"},{"Location":"JUST TIRES #4822","Address":"744 E Dominguez St","City":"Carson","State":"CA","Zip":"90746"},{"Location":"LA PENITA  2","Address":"17531 Central Ave G","City":"Carson","State":"CA","Zip":"90746"},{"Location":"LA PENITA 2 MEX REST","Address":"17531 Central Ave","City":"Carson","State":"CA","Zip":"90746"},{"Location":"LEWIS HYMAN","Address":"860 Sandhill Ave","City":"Carson","State":"CA","Zip":"90746"},{"Location":"M AND M SOUL FOOD","Address":"335 E Alberton Street","City":"Carson","State":"CA","Zip":"90746"},{"Location":"M AND M SOUL FOOD","Address":"335 E Abertony Ave 30","City":"Carson","State":"CA","Zip":"90746"},{"Location":"MAURICE HIGGINS","Address":"454 E Carson Plaza Dr 106","City":"Carson","State":"CA","Zip":"90746"},{"Location":"MCCALISTER TRANSPORTATIO","Address":"20710 Leapwood Ave D","City":"Carson","State":"CA","Zip":"90746"},{"Location":"MCKENNA ENGINEERING","Address":"1162 E Dominguez St","City":"Carson","State":"CA","Zip":"90746"},{"Location":"MID AMERICA OVERSEAS INC","Address":"18049 Wilmington Ave","City":"Carson","State":"CA","Zip":"90746"},{"Location":"MING INTERNATIONAL INC.","Address":"17100 Margay Ave","City":"Carson","State":"CA","Zip":"90746"},{"Location":"OLIVE GARDEN #4431","Address":"20532 Avalon Blvd","City":"Carson","State":"CA","Zip":"90746"},{"Location":"P JS GRILL","Address":"675 E University Dr","City":"Carson","State":"CA","Zip":"90746"},{"Location":"PESCADOR BAR & GRILL","Address":"17421 Avalon Blvd A","City":"Carson","State":"CA","Zip":"90746"},{"Location":"PIZZA HUT 24833","Address":"20377 Avalon Blvd","City":"Carson","State":"CA","Zip":"90746"},{"Location":"PLATINUM STYLES BARBER SHOP","Address":"1426 E Turmont St","City":"Carson","State":"CA","Zip":"90746"},{"Location":"RICKS HAIR","Address":"18620 Billings Ave","City":"Carson","State":"CA","Zip":"90746"},{"Location":"S & R BRAZIL BIKNIS","Address":"1139 E Dominguez St St-j","City":"Carson","State":"CA","Zip":"90746"},{"Location":"SALON IMAGE","Address":"940 E Dominguez St N","City":"Carson","State":"CA","Zip":"90746"},{"Location":"SENDEREX CARGO INC","Address":"17022 Montanero Ave 6","City":"Carson","State":"CA","Zip":"90746"},{"Location":"SHAKEY'S PIZZA RESTAURNAT #16","Address":"665 E Del Amo Blvd","City":"Carson","State":"CA","Zip":"90746"},{"Location":"SHAMROCK SUPPLY","Address":"145 E Albertoni St","City":"Carson","State":"CA","Zip":"90746"},{"Location":"SHOEZOOCOM","Address":"727 Kingshill Pl","City":"Carson","State":"CA","Zip":"90746"},{"Location":"SIZZLER 345","Address":"20755 Avalon Blvd","City":"Carson","State":"CA","Zip":"90746"},{"Location":"SMITHS ALL AMERCIAN MOVERS","Address":"907 E Walnut St","City":"Carson","State":"CA","Zip":"90746"},{"Location":"TARGET 2026","Address":"20700 Avalon Blvd 750","City":"Carson","State":"CA","Zip":"90746"},{"Location":"TEAMSTERS LOCAL 572","Address":"450 E Carson Plaza Dr","City":"Carson","State":"CA","Zip":"90746"},{"Location":"THE HOME CARE GROUP INC","Address":"20930 Bonita St U","City":"Carson","State":"CA","Zip":"90746"},{"Location":"TONY ROMA'S","Address":"20720 Avalon Blvd","City":"Carson","State":"CA","Zip":"90746"},{"Location":"TRUTH & LOVE CHURCH","Address":"1129 E Dominguez St A","City":"Carson","State":"CA","Zip":"90746"},{"Location":"TRW%2C INC","Address":"1800 Glenn Curtiss St","City":"Carson","State":"CA","Zip":"90746"},{"Location":"US AUTO PARTS NETWORK INC","Address":"16941 Keegan Ave","City":"Carson","State":"CA","Zip":"90746"},{"Location":"VICTORIA GOLF COURSE","Address":"340 E 192nd St","City":"Carson","State":"CA","Zip":"90746"},{"Location":"WING STOP SOUTH BAY PAVILION","Address":"20700 Avalon Blvd 565","City":"Carson","State":"CA","Zip":"90746"},{"Location":"YOUNG'S TRUCKING","Address":"20630 Leapwood Ave G","City":"Carson","State":"CA","Zip":"90746"}]