[{"Location":"ACUPUNCTURE PAIN RELIEF CEN","Address":"1703 N Avalon Blvd","City":"Wilmington","State":"CA","Zip":"90744"},{"Location":"ALBERTES MEXICAN FOOD","Address":"1304 W Pacific Coast Hwy","City":"Wilmington","State":"CA","Zip":"90744"},{"Location":"ALIGN HEALTH CENTER","Address":"1118 N Avalon Blvd 2","City":"Wilmington","State":"CA","Zip":"90744"},{"Location":"ALL FRESH PRODUCE","Address":"901 E E St","City":"Wilmington","State":"CA","Zip":"90744"},{"Location":"AMERICAN INTEGRATED SERVICE","Address":"1502 E Opp St","City":"Wilmington","State":"CA","Zip":"90744"},{"Location":"ANDERSON HAY AND GRAIN","Address":"915 E Colon St","City":"Wilmington","State":"CA","Zip":"90744"},{"Location":"AVALON BARBER AND BEAUTY","Address":"224 E Anaheim St","City":"Wilmington","State":"CA","Zip":"90744"},{"Location":"BARBER AND BEAUTY SALON","Address":"629 N Avalon Blvd A","City":"Wilmington","State":"CA","Zip":"90744"},{"Location":"BEE WELL 2","Address":"612 N Avalon Blvd","City":"Wilmington","State":"CA","Zip":"90744"},{"Location":"BIG WEST TRANSPORT","Address":"1004 East Oacific Coast H","City":"Wilmington","State":"CA","Zip":"90744"},{"Location":"CAMARENA TACO TRUCK","Address":"516 1%2F2 W Anaheim St","City":"Wilmington","State":"CA","Zip":"90744"},{"Location":"CERTIFRESH","Address":"842 Flint Ave","City":"Wilmington","State":"CA","Zip":"90744"},{"Location":"CHOWDER BARGE","Address":"611 N Henry Ford Ave Berth","City":"Wilmington","State":"CA","Zip":"90744"},{"Location":"CLAUDIAS BEAUTY SALON","Address":"950 N Avalon Blvd","City":"Wilmington","State":"CA","Zip":"90744"},{"Location":"COMPLETE CARE FAMILY MED CLIN","Address":"1231 N Avalon Blvd","City":"Wilmington","State":"CA","Zip":"90744"},{"Location":"CONOCO PHILLIPS","Address":"1660 W Anaheim St","City":"Wilmington","State":"CA","Zip":"90744"},{"Location":"COOPERAND BRAIN OIL CO","Address":"655 E D St","City":"Wilmington","State":"CA","Zip":"90744"},{"Location":"EAT AT RUDY'S","Address":"558 E Anaheim St","City":"Wilmington","State":"CA","Zip":"90744"},{"Location":"EL METAPANECO","Address":"1201 N Avalon Blvd","City":"Wilmington","State":"CA","Zip":"90744"},{"Location":"EL NORTE RESTAURANT","Address":"815 Cristobal Ave","City":"Wilmington","State":"CA","Zip":"90744"},{"Location":"EL TACO LOCO","Address":"128 E Pacific Coast Hwy","City":"Wilmington","State":"CA","Zip":"90744"},{"Location":"FLORES RESTAURANT INC","Address":"1108 E Pacific Coast Hwy","City":"Wilmington","State":"CA","Zip":"90744"},{"Location":"FOCSLE BAR","Address":"400 N Avalon Blvd","City":"Wilmington","State":"CA","Zip":"90744"},{"Location":"FRANKIES MOTORS INC","Address":"321 E Anaheim St","City":"Wilmington","State":"CA","Zip":"90744"},{"Location":"FX EXPRESS","Address":"531 Flint Ave","City":"Wilmington","State":"CA","Zip":"90744"},{"Location":"GOLD POINT TRANSPORTATION","Address":"1621 E Opp St","City":"Wilmington","State":"CA","Zip":"90744"},{"Location":"HARBOR DIVISION","Address":"1500 E Lomita Blvd","City":"Wilmington","State":"CA","Zip":"90744"},{"Location":"HARBOR EXPRESS","Address":"501 Quay Ave","City":"Wilmington","State":"CA","Zip":"90744"},{"Location":"HOLIDAY HARBOR","Address":"201 Berth","City":"Wilmington","State":"CA","Zip":"90744"},{"Location":"IBT","Address":"1919 E Pacific Coast Hwy","City":"Wilmington","State":"CA","Zip":"90744"},{"Location":"LA HARBOR COLL SHRF STATION1","Address":"1111 Figueroa Pl","City":"Wilmington","State":"CA","Zip":"90744"},{"Location":"LA MEXICANA MARKET","Address":"1115 E L St","City":"Wilmington","State":"CA","Zip":"90744"},{"Location":"LEZMA AUTO SALES","Address":"724 W Pacific Coast Hwy","City":"Wilmington","State":"CA","Zip":"90744"},{"Location":"LIBERTY  TAX SERVICE","Address":"412 W Pacific Coast Hwy","City":"Wilmington","State":"CA","Zip":"90744"},{"Location":"LIBERTY TAX SERVICE","Address":"225 W Anaheim St","City":"Wilmington","State":"CA","Zip":"90744"},{"Location":"LOS TRES COCHINITOS","Address":"803 W Pacific Coast Hwy","City":"Wilmington","State":"CA","Zip":"90744"},{"Location":"LUIGI S TAX FIRM","Address":"117 W Anaheim St","City":"Wilmington","State":"CA","Zip":"90744"},{"Location":"METROPOLITAN","Address":"720 E E St","City":"Wilmington","State":"CA","Zip":"90744"},{"Location":"MI PUEBLITO SAN JUAN","Address":"1341 N Wilmington Blvd","City":"Wilmington","State":"CA","Zip":"90744"},{"Location":"NORTHGATE GONZALEZ LLC","Address":"311 W Pacific Coast Hwy","City":"Wilmington","State":"CA","Zip":"90744"},{"Location":"PAC ANCHOR TRANSPORTATION INC","Address":"425 Quay Ave","City":"Wilmington","State":"CA","Zip":"90744"},{"Location":"PAMAR TRANSPORTATION","Address":"508 E D St","City":"Wilmington","State":"CA","Zip":"90744"},{"Location":"PAYSHA STEVEDORING","Address":"802 S Fries Ave","City":"Wilmington","State":"CA","Zip":"90744"},{"Location":"PORT OF LOS ANGELES","Address":"120 W C St","City":"Wilmington","State":"CA","Zip":"90744"},{"Location":"PORTSIDE BABER","Address":"1027 N Avalon Blvd","City":"Wilmington","State":"CA","Zip":"90744"},{"Location":"REI CONSULTANTS INC","Address":"1316 E Mauretania St","City":"Wilmington","State":"CA","Zip":"90744"},{"Location":"SEAFARERS INTERNATIONAL UNION","Address":"510 Broad Ave","City":"Wilmington","State":"CA","Zip":"90744"},{"Location":"SHELL OIL","Address":"1926 E Pacific Coast Hwy","City":"Wilmington","State":"CA","Zip":"90744"},{"Location":"SIBRIAN TRUCKING","Address":"1700 E Young St Trail","City":"Wilmington","State":"CA","Zip":"90744"},{"Location":"SIMPLEMENTE BEATRIZ","Address":"928 N Avalon Blvd","City":"Wilmington","State":"CA","Zip":"90744"},{"Location":"SMILE DONUT HOUSE","Address":"445 E Anaheim St N","City":"Wilmington","State":"CA","Zip":"90744"},{"Location":"SO CAL LUBE CENTER","Address":"710 E D St","City":"Wilmington","State":"CA","Zip":"90744"},{"Location":"TAX SOLUTIONS PLUS","Address":"119 W Anaheim St 5","City":"Wilmington","State":"CA","Zip":"90744"},{"Location":"TESORO REFINING & MARKETING","Address":"2101 E Pacific Coast Hwy","City":"Wilmington","State":"CA","Zip":"90744"},{"Location":"THE CABERET","Address":"2523 E Anaheim St","City":"Wilmington","State":"CA","Zip":"90744"},{"Location":"THE WILMINGTON BARBER","Address":"1322 E Pacific Coast Hwy 1","City":"Wilmington","State":"CA","Zip":"90744"},{"Location":"THOMPSON BLDG MTLS%2FWILMINGTON","Address":"1350 W Pacific Coast Hwy","City":"Wilmington","State":"CA","Zip":"90744"},{"Location":"TICKETS AUTO ZONE","Address":"704 W Pacific Coast Hwy","City":"Wilmington","State":"CA","Zip":"90744"},{"Location":"VALUE TRANSPORTATION SERVICE","Address":"642 Sanford Ave","City":"Wilmington","State":"CA","Zip":"90744"},{"Location":"VFW POST TWENTYNINE SIXTYSEVEN","Address":"1130 W Anaheim St","City":"Wilmington","State":"CA","Zip":"90744"},{"Location":"WATERMAN SUPPLY","Address":"910 Mahar Ave","City":"Wilmington","State":"CA","Zip":"90744"},{"Location":"WILMINGTON BUDS","Address":"712 N Avalon Blvd","City":"Wilmington","State":"CA","Zip":"90744"},{"Location":"WILMINGTON URGENT CARE","Address":"714 N Avalon Blvd","City":"Wilmington","State":"CA","Zip":"90744"}]