[{"Location":"SUN SET PIZZA & PASTA CO","Address":"16711 Pacific Cost Hwy","City":"Sun Set Beach","State":"CA","Zip":"90742"},{"Location":"BRIX WINE%2C BREWS AND NY DELI","Address":"16635 Pacific Coast Highway","City":"Sunset Beach","State":"CA","Zip":"90742"},{"Location":"CIELO MARE LLC","Address":"16971 S Pacific Ave","City":"Sunset Beach","State":"CA","Zip":"90742"},{"Location":"HARRYS GRILL","Address":"16685 Pacific Coast Highway","City":"Sunset Beach","State":"CA","Zip":"90742"},{"Location":"KING NEPTUNES","Address":"17115 Pacific Coast Hwy","City":"Sunset Beach","State":"CA","Zip":"90742"},{"Location":"NADINES IRISH MIST","Address":"16655 Pacific Coast Hwy","City":"Sunset Beach","State":"CA","Zip":"90742"},{"Location":"RAMONO CUCINA 2","Address":"16595 Coast Hwy","City":"Sunset Beach","State":"CA","Zip":"90742"},{"Location":"SUNSET PSYCHIC","Address":"17055 Pacific Coast Highway","City":"Sunset Beach","State":"CA","Zip":"90742"},{"Location":"SUNSET YACHT SALES","Address":"16862 Pacific Coast Hwy","City":"Sunset Beach","State":"CA","Zip":"90742"},{"Location":"THE SCHOONER AT SUNSET","Address":"16821 Pacific Coast Hwy","City":"Sunset Beach","State":"CA","Zip":"90742"},{"Location":"TURCS","Address":"16321 Pacific Cost Hiway","City":"Sunset Beach","State":"CA","Zip":"90742"},{"Location":"WOODYS DINNER","Address":"16371 Pacific Coast Highway","City":"Sunset Beach","State":"CA","Zip":"90742"}]