[{"Location":"","Address":"3290 E 19th St","City":"Signal Hill","State":"CA","Zip":"90755"},{"Location":"ABOVE THE LINE AV","Address":"2951 Obisto Ave","City":"Signal Hill","State":"CA","Zip":"90755"},{"Location":"ACCUTITE FASTNERS","Address":"2449 Gundry Ave","City":"Signal Hill","State":"CA","Zip":"90755"},{"Location":"ACE SECURITY SYSTEMS INC","Address":"2601 E 28th St","City":"Signal Hill","State":"CA","Zip":"90755"},{"Location":"APPLEBEE'S #2150042","Address":"899 E Spring St","City":"Signal Hill","State":"CA","Zip":"90755"},{"Location":"BBC FLORA","Address":"2805 E Pacific Coast Hwy","City":"Signal Hill","State":"CA","Zip":"90755"},{"Location":"BENNETTS PERFORMANCE","Address":"1940 Freeman Ave","City":"Signal Hill","State":"CA","Zip":"90755"},{"Location":"BIG E PIZZA","Address":"3225 E Pacific Coast Hwy C","City":"Signal Hill","State":"CA","Zip":"90755"},{"Location":"CHAMPS DELI RESTAURANT","Address":"3200 E Willow St","City":"Signal Hill","State":"CA","Zip":"90755"},{"Location":"DATSUN ALLEY","Address":"2202 E 28th St","City":"Signal Hill","State":"CA","Zip":"90755"},{"Location":"DELIUS RESTAURANT","Address":"2951 Cherry Ave","City":"Signal Hill","State":"CA","Zip":"90755"},{"Location":"EVERSON SPICE CO","Address":"2667 Gundry Ave","City":"Signal Hill","State":"CA","Zip":"90755"},{"Location":"FANTASY","Address":"2825 Walnut Ave","City":"Signal Hill","State":"CA","Zip":"90755"},{"Location":"FED EX","Address":"2451 N Palm Dr","City":"Signal Hill","State":"CA","Zip":"90755"},{"Location":"FRENCH NAILS","Address":"2514 Cherry Ave 9","City":"Signal Hill","State":"CA","Zip":"90755"},{"Location":"GLOBAL ACCESS SUPPLY INC","Address":"1671 E 28th St","City":"Signal Hill","State":"CA","Zip":"90755"},{"Location":"GMV AUTOREPAIR  RESTORATION","Address":"3285 Industry Dr","City":"Signal Hill","State":"CA","Zip":"90755"},{"Location":"GOLDEN EAGLE RESTAURANT","Address":"2101 E Willow St","City":"Signal Hill","State":"CA","Zip":"90755"},{"Location":"HARPER AND TWO","Address":"2937 Cherry Ave","City":"Signal Hill","State":"CA","Zip":"90755"},{"Location":"HOFS HUT CORP.","Address":"2601 E Willow St","City":"Signal Hill","State":"CA","Zip":"90755"},{"Location":"HOOMAN NISSAN OF LONGBEACH","Address":"1800 E Spring St","City":"Signal Hill","State":"CA","Zip":"90755"},{"Location":"JOHN M PHILLIPS","Address":"2755 Dawson Ave","City":"Signal Hill","State":"CA","Zip":"90755"},{"Location":"K & E MANUFACTURING","Address":"1950 Freeman Ave","City":"Signal Hill","State":"CA","Zip":"90755"},{"Location":"LA PREP","Address":"2701 Signal Pkwy","City":"Signal Hill","State":"CA","Zip":"90755"},{"Location":"LONGBEACH FUTSAL INDOOR","Address":"2953 Obispo Ave","City":"Signal Hill","State":"CA","Zip":"90755"},{"Location":"MEDICAL MANAGEMENT SYSTE","Address":"3272 E Willow St","City":"Signal Hill","State":"CA","Zip":"90755"},{"Location":"MEL GUYS INDUSTRIAL SHEETMETAL","Address":"2766 Saint Louis Ave","City":"Signal Hill","State":"CA","Zip":"90755"},{"Location":"MICHAEL SEDWAY","Address":"2700 Rose Ave C","City":"Signal Hill","State":"CA","Zip":"90755"},{"Location":"NADER","Address":"3301 E Pacific Coast Hwy","City":"Signal Hill","State":"CA","Zip":"90755"},{"Location":"NAME YOUR GAME","Address":"3106 E Willow St","City":"Signal Hill","State":"CA","Zip":"90755"},{"Location":"NLSF LLC","Address":"3221 Industry Dr","City":"Signal Hill","State":"CA","Zip":"90755"},{"Location":"OCONNER","Address":"3342 Olive Ave","City":"Signal Hill","State":"CA","Zip":"90755"},{"Location":"OFFICE DEPOT","Address":"3366 E Willow St","City":"Signal Hill","State":"CA","Zip":"90755"},{"Location":"ON DECK LLC","Address":"2499 E Willow St A","City":"Signal Hill","State":"CA","Zip":"90755"},{"Location":"OUR CROSS CREATIONS","Address":"2502 N Palm Dr I","City":"Signal Hill","State":"CA","Zip":"90755"},{"Location":"PBI MARKET EQUIPMENT","Address":"2667 Gundry Ave","City":"Signal Hill","State":"CA","Zip":"90755"},{"Location":"QUEEN CITY MOTEL","Address":"3555 E Pacific Coast Hwy","City":"Signal Hill","State":"CA","Zip":"90755"},{"Location":"RENO HARDWARE SUPPLY INC","Address":"2855 Walnut Ave","City":"Signal Hill","State":"CA","Zip":"90755"},{"Location":"ROCCOS","Address":"2420 E 28th St","City":"Signal Hill","State":"CA","Zip":"90755"},{"Location":"RONS LUBE N TUNE","Address":"3299 E Pacific Coast","City":"Signal Hill","State":"CA","Zip":"90755"},{"Location":"SHELL","Address":"2457 Redondo Ave","City":"Signal Hill","State":"CA","Zip":"90755"},{"Location":"SIGNAL HILL ATHLETIC CEN","Address":"3351 E Hill St","City":"Signal Hill","State":"CA","Zip":"90755"},{"Location":"SIGNAL HILL POLICE DEPT","Address":"1800 E Hill St","City":"Signal Hill","State":"CA","Zip":"90755"},{"Location":"SUBWAY SANDWICHES","Address":"3225 E Pacific Coast Hwy","City":"Signal Hill","State":"CA","Zip":"90755"},{"Location":"TARGET","Address":"950 E 33rd St","City":"Signal Hill","State":"CA","Zip":"90755"},{"Location":"TAX SPECIALIST","Address":"1657 E 28th St","City":"Signal Hill","State":"CA","Zip":"90755"},{"Location":"TED DALTON","Address":"2420 E 28th St","City":"Signal Hill","State":"CA","Zip":"90755"},{"Location":"TESORO LOGISTICS OPERATIONS","Address":"2350 Obispo Ave","City":"Signal Hill","State":"CA","Zip":"90755"},{"Location":"THE PALMS","Address":"2540 N Palm Dr","City":"Signal Hill","State":"CA","Zip":"90755"},{"Location":"TOGOS","Address":"1889 E Willow St","City":"Signal Hill","State":"CA","Zip":"90755"},{"Location":"UNCLE BILL'S","Address":"2800 Walnut Ave","City":"Signal Hill","State":"CA","Zip":"90755"},{"Location":"US EPA","Address":"2250 Obispo Ave 101","City":"Signal Hill","State":"CA","Zip":"90755"},{"Location":"VENTURA CAPITAL LLC","Address":"2525 Cherry Ave 375","City":"Signal Hill","State":"CA","Zip":"90755"},{"Location":"WORLD FAMOUS CURLYS CAFE","Address":"1999 E Willow St","City":"Signal Hill","State":"CA","Zip":"90755"}]