[{"Location":"CAREMORE","Address":"3300 E South St 203","City":"Lakewood","State":"CA","Zip":"90805"},{"Location":"DK AMANS VALVE","Address":"2407 E Artesia Blvd","City":"Lakewood","State":"CA","Zip":"90805"},{"Location":"LAS SONATECA RESTAURANT","Address":"5344 Long Beach Blvd","City":"Lakewood","State":"CA","Zip":"90805"},{"Location":"A STAR AUTOMOTIVE","Address":"5344 Cherry Ave","City":"Long Beach","State":"CA","Zip":"90805"},{"Location":"ABILITY CENTER","Address":"2715 Seaboard Ln","City":"Long Beach","State":"CA","Zip":"90805"},{"Location":"AHASAN","Address":"5439 Cherry Ave Steb","City":"Long Beach","State":"CA","Zip":"90805"},{"Location":"AJ SUPER WASH","Address":"1030 E South St","City":"Long Beach","State":"CA","Zip":"90805"},{"Location":"AMERICAN TRANSPOTATION SYSTEMS","Address":"3133 1%2F2 E South St","City":"Long Beach","State":"CA","Zip":"90805"},{"Location":"ANA RUTH GALDAMEZ","Address":"1903 E Artesia Blvd","City":"Long Beach","State":"CA","Zip":"90805"},{"Location":"ASHE BUSINESS SERVICE","Address":"320 E South St","City":"Long Beach","State":"CA","Zip":"90805"},{"Location":"ATL AUTO REPAIR","Address":"5608 Atlantic Ave","City":"Long Beach","State":"CA","Zip":"90805"},{"Location":"BARBIES BAR","Address":"1008 E Artesia Blvd","City":"Long Beach","State":"CA","Zip":"90805"},{"Location":"BAY VISTA HEALTHCARE","Address":"5901 Downey Ave","City":"Long Beach","State":"CA","Zip":"90805"},{"Location":"BOTTOMS UP TAVERN","Address":"1739 E Artesia Blvd","City":"Long Beach","State":"CA","Zip":"90805"},{"Location":"BRAGG INVESTMENT CO INC","Address":"6251 N Paramount Blvd","City":"Long Beach","State":"CA","Zip":"90805"},{"Location":"BRAGG INVESTMENT CO INC 2","Address":"6242 N Paramount Blvd","City":"Long Beach","State":"CA","Zip":"90805"},{"Location":"CARTER WOOD","Address":"5325 Cherry Ave","City":"Long Beach","State":"CA","Zip":"90805"},{"Location":"CHERRY AND ARTESIA","Address":"6637 Cherry Ave","City":"Long Beach","State":"CA","Zip":"90805"},{"Location":"CHILTEPE RESTAURANT","Address":"5631 Atlantic Ave","City":"Long Beach","State":"CA","Zip":"90805"},{"Location":"CLOUD 9 SPORTS BAR","Address":"1740 E Artesia Blvd","City":"Long Beach","State":"CA","Zip":"90805"},{"Location":"COIN LAUNDRY","Address":"2612 E South St","City":"Long Beach","State":"CA","Zip":"90805"},{"Location":"COMMUNITY GRACE BRETHREN","Address":"5885 Downey Ave","City":"Long Beach","State":"CA","Zip":"90805"},{"Location":"COMPLETE BUSINESS SOLUTI","Address":"3255 E South St K205","City":"Long Beach","State":"CA","Zip":"90805"},{"Location":"CORNELLS DELI","Address":"6637 Cherry Ave","City":"Long Beach","State":"CA","Zip":"90805"},{"Location":"CPC","Address":"2210 E Artesia Blvd","City":"Long Beach","State":"CA","Zip":"90805"},{"Location":"CUT ABOVE BARBER SHOP","Address":"6052 Atlantic Ave","City":"Long Beach","State":"CA","Zip":"90805"},{"Location":"DALYS COCKTAILS","Address":"2620 E South St","City":"Long Beach","State":"CA","Zip":"90805"},{"Location":"DAVITA #5792 NEPHRON","Address":"5820 Downey Ave","City":"Long Beach","State":"CA","Zip":"90805"},{"Location":"DOUGLAS BURGERS","Address":"6150 Cherry Ave","City":"Long Beach","State":"CA","Zip":"90805"},{"Location":"EL CORTEZ","Address":"5345 Long Beach Blvd","City":"Long Beach","State":"CA","Zip":"90805"},{"Location":"EL POLLO IMPERIAL","Address":"5991 Atlantic Ave","City":"Long Beach","State":"CA","Zip":"90805"},{"Location":"EL PUERCO RANCHO MARKET","Address":"6583 Atlantic Ave 102","City":"Long Beach","State":"CA","Zip":"90805"},{"Location":"FANTASY BURGER","Address":"1320 E South St","City":"Long Beach","State":"CA","Zip":"90805"},{"Location":"FATBURGER","Address":"6780 Cherry Ave","City":"Long Beach","State":"CA","Zip":"90805"},{"Location":"FIREHOUSE 11","Address":"160 E Market St","City":"Long Beach","State":"CA","Zip":"90805"},{"Location":"FMC 28700000","Address":"145 W Victoria St","City":"Long Beach","State":"CA","Zip":"90805"},{"Location":"GARY L BARTON CORP","Address":"4700 Long Beach Blvd","City":"Long Beach","State":"CA","Zip":"90805"},{"Location":"GB REMANUFACTURING","Address":"2040 E Cherry Industrial Cir","City":"Long Beach","State":"CA","Zip":"90805"},{"Location":"GOD'S DIVINE CENTER CHURCH","Address":"5501 Atlantic Ave","City":"Long Beach","State":"CA","Zip":"90805"},{"Location":"GOLD COAST FENCING INC","Address":"2119 E Curry St","City":"Long Beach","State":"CA","Zip":"90805"},{"Location":"HD SUPPLY HOME IMPROVEMENT","Address":"5950 N Paramount Blvd","City":"Long Beach","State":"CA","Zip":"90805"},{"Location":"JESSES BAR CORP.","Address":"5440 Atlantic Ave","City":"Long Beach","State":"CA","Zip":"90805"},{"Location":"LA CASA MENTAL HEALTH REHAB","Address":"6060 N Paramount Blvd","City":"Long Beach","State":"CA","Zip":"90805"},{"Location":"LEXUS OF CERRITOS 2","Address":"2615 E South St","City":"Long Beach","State":"CA","Zip":"90805"},{"Location":"LONG BEACH FISH","Address":"1705 E Artesia Blvd","City":"Long Beach","State":"CA","Zip":"90805"},{"Location":"LOUISIANA","Address":"901 E Artesia Blvd 1","City":"Long Beach","State":"CA","Zip":"90805"},{"Location":"MANNY THE BARBER","Address":"6080 Atlantic Ave L","City":"Long Beach","State":"CA","Zip":"90805"},{"Location":"MENTAL HEALTH URGENT CARE CNTR","Address":"6060 N Paramount Blvd","City":"Long Beach","State":"CA","Zip":"90805"},{"Location":"MODERN SPECIALIST INC","Address":"6190 Cherry Ave","City":"Long Beach","State":"CA","Zip":"90805"},{"Location":"MORGAN'S LIQUOR & JR. MARKET","Address":"106 W Artesia Blvd","City":"Long Beach","State":"CA","Zip":"90805"},{"Location":"MULDOON'S SALOON","Address":"5646 N Paramount Blvd","City":"Long Beach","State":"CA","Zip":"90805"},{"Location":"NO 1 NAILS & SPA","Address":"2001 E South St 3","City":"Long Beach","State":"CA","Zip":"90805"},{"Location":"NORTHCOM TAVERN","Address":"1048 E South St","City":"Long Beach","State":"CA","Zip":"90805"},{"Location":"PARADISE LB","Address":"4911 Long Beach Blvd","City":"Long Beach","State":"CA","Zip":"90805"},{"Location":"PRECISE BARBERSHOP","Address":"5223 Atlantic Ave","City":"Long Beach","State":"CA","Zip":"90805"},{"Location":"REVCO PRECISION","Address":"6114 Cherry Ave","City":"Long Beach","State":"CA","Zip":"90805"},{"Location":"RMD GROUP","Address":"2311 E South St","City":"Long Beach","State":"CA","Zip":"90805"},{"Location":"ROBERT NAKO ENTERPRISES","Address":"6925 Cherry Ave","City":"Long Beach","State":"CA","Zip":"90805"},{"Location":"SAENZ INCOME TAX","Address":"5422 Long Beach Blvd","City":"Long Beach","State":"CA","Zip":"90805"},{"Location":"SERENITY SMOKE SHOP 1","Address":"2801 E Artesia Blvd","City":"Long Beach","State":"CA","Zip":"90805"},{"Location":"SERRANO","Address":"4913 Long Beach Blvd","City":"Long Beach","State":"CA","Zip":"90805"},{"Location":"SHIPCO TRANSPORT","Address":"100 W Victoria St","City":"Long Beach","State":"CA","Zip":"90805"},{"Location":"TA CHEN INTERNATIONAL","Address":"5855 Obispo Ave","City":"Long Beach","State":"CA","Zip":"90805"},{"Location":"TARGET2","Address":"6750 Cherry Ave","City":"Long Beach","State":"CA","Zip":"90805"},{"Location":"TAX STATION","Address":"4647 Long Beach Blvd B1","City":"Long Beach","State":"CA","Zip":"90805"},{"Location":"TESORO LOGISTICS OPERATIONS","Address":"5905 N Paramount Blvd","City":"Long Beach","State":"CA","Zip":"90805"},{"Location":"THE FAIRFIELD YMCA","Address":"4949 Atlantic Ave","City":"Long Beach","State":"CA","Zip":"90805"},{"Location":"TOUCH BY INK SILK SCREEN","Address":"903 E Market St","City":"Long Beach","State":"CA","Zip":"90805"},{"Location":"U-HAUL PARAMONT MF.CO","Address":"5884 N Paramount Blvd","City":"Long Beach","State":"CA","Zip":"90805"},{"Location":"VFW 8615 A","Address":"2805 E South St","City":"Long Beach","State":"CA","Zip":"90805"},{"Location":"WINGSTOP","Address":"6792 Cherry Ave","City":"Long Beach","State":"CA","Zip":"90805"}]