[{"Location":"A AND A TOWING","Address":"3204 Cherry Ave","City":"Long Beach","State":"CA","Zip":"90807"},{"Location":"AIRFLITE","Address":"3250 Airflite Way","City":"Long Beach","State":"CA","Zip":"90807"},{"Location":"AIRFLITE","Address":"3250 Airflight Way","City":"Long Beach","State":"CA","Zip":"90807"},{"Location":"AIRFLITE 2","Address":"3200 Airflight Way","City":"Long Beach","State":"CA","Zip":"90807"},{"Location":"AMIRA MANAGENT  INVESTMENT","Address":"4668 N Banner Dr 4","City":"Long Beach","State":"CA","Zip":"90807"},{"Location":"BABE'S KITCHEN","Address":"1106 E Wardlow Rd","City":"Long Beach","State":"CA","Zip":"90807"},{"Location":"BAMBOO TERI HOUSE","Address":"3391 Atlantic Ave","City":"Long Beach","State":"CA","Zip":"90807"},{"Location":"BIXBY KNOLLS TOWER RETIREMENT","Address":"3747 Atlantic Ave","City":"Long Beach","State":"CA","Zip":"90807"},{"Location":"BOEING CALIFORINA EMPLOYEE","Address":"2019 E Wardlow Rd","City":"Long Beach","State":"CA","Zip":"90807"},{"Location":"CARUSO  FORD","Address":"3600 Cherry Ave","City":"Long Beach","State":"CA","Zip":"90807"},{"Location":"CATALANOS PIZZA","Address":"1178 E Carson St","City":"Long Beach","State":"CA","Zip":"90807"},{"Location":"CERTIFIED TIRES","Address":"3800 Cherry Ave","City":"Long Beach","State":"CA","Zip":"90807"},{"Location":"CLASSIC TOBACCO","Address":"4112 Orange Ave","City":"Long Beach","State":"CA","Zip":"90807"},{"Location":"CREE INVESTMENT","Address":"3250 Cherry Ave","City":"Long Beach","State":"CA","Zip":"90807"},{"Location":"CRESTMARK ENTERTAINMENT","Address":"3445 Long Beach Blvd","City":"Long Beach","State":"CA","Zip":"90807"},{"Location":"CROSS LINK VENTURES","Address":"3701 Long Beach Blvd 303a","City":"Long Beach","State":"CA","Zip":"90807"},{"Location":"DAVITA #2137 BIXBY KNOLLS","Address":"3744 Long Beach Blvd","City":"Long Beach","State":"CA","Zip":"90807"},{"Location":"DAVITA #438 UNITED","Address":"3111 Long Beach Blvd","City":"Long Beach","State":"CA","Zip":"90807"},{"Location":"DENNIS J O SULLIVAN LAW OFFICE","Address":"3839 Long Beach Blvd","City":"Long Beach","State":"CA","Zip":"90807"},{"Location":"EJ MALLOYS","Address":"4306 Atlantic Ave","City":"Long Beach","State":"CA","Zip":"90807"},{"Location":"EL TORITO 7159","Address":"3301 Atlantic Ave","City":"Long Beach","State":"CA","Zip":"90807"},{"Location":"FANTASTIC BURGERS","Address":"3400 Cherry Ave","City":"Long Beach","State":"CA","Zip":"90807"},{"Location":"FIRESTONE #267434","Address":"3000 Cherry Ave","City":"Long Beach","State":"CA","Zip":"90807"},{"Location":"GEORGIES PLACE","Address":"3850 Atlantic Ave","City":"Long Beach","State":"CA","Zip":"90807"},{"Location":"GOLDEN STAR NO 2","Address":"2001 E Carson St","City":"Long Beach","State":"CA","Zip":"90807"},{"Location":"GRACE EDWARDS","Address":"3811 Long Beach Blvd","City":"Long Beach","State":"CA","Zip":"90807"},{"Location":"HANDYS SMOKEHOUSE","Address":"4149 Long Beach Blvd","City":"Long Beach","State":"CA","Zip":"90807"},{"Location":"HARBOR CHEVROLET","Address":"3770 Cherry Ave","City":"Long Beach","State":"CA","Zip":"90807"},{"Location":"HARBOR VIEW COMMUNITY","Address":"850 E Wardlow Rd","City":"Long Beach","State":"CA","Zip":"90807"},{"Location":"HOKKAIDO SEAFOOD BUFFET","Address":"3030 Cherry Ave","City":"Long Beach","State":"CA","Zip":"90807"},{"Location":"JIFFY LUBE 2688","Address":"4155 Long Beach Blvd","City":"Long Beach","State":"CA","Zip":"90807"},{"Location":"JOHN K EVANS%2FJOHN BROOMER","Address":"4028 Long Beach Blvd 203","City":"Long Beach","State":"CA","Zip":"90807"},{"Location":"KINOKAWA JAPANESE RESTAURANT","Address":"1611 E Wardlow Rd","City":"Long Beach","State":"CA","Zip":"90807"},{"Location":"LA FITNESS #41","Address":"2140 E Carson St","City":"Long Beach","State":"CA","Zip":"90807"},{"Location":"LBS FINANCIAL CU","Address":"4436 Atlantic Ave","City":"Long Beach","State":"CA","Zip":"90807"},{"Location":"LIGHT AND LIFE WEST","Address":"3650 Long Beach Blvd","City":"Long Beach","State":"CA","Zip":"90807"},{"Location":"LONA'S CITY LIMITS CANTINA","Address":"1174 E Wardlow Rd","City":"Long Beach","State":"CA","Zip":"90807"},{"Location":"LONG BEACH AIRPORT","Address":"3150 Saint Louis Ave","City":"Long Beach","State":"CA","Zip":"90807"},{"Location":"LONG BEACH LINCOLN MERCURY 1","Address":"3500 Cherry Ave","City":"Long Beach","State":"CA","Zip":"90807"},{"Location":"LONG BEACH MEDICAL CENTER","Address":"4014 Long Beach Blvd 100","City":"Long Beach","State":"CA","Zip":"90807"},{"Location":"LONG BEACH PETROLEUM CLUB","Address":"3636 Linden Ave","City":"Long Beach","State":"CA","Zip":"90807"},{"Location":"MED POST URGENT CARE","Address":"2010 E Carson St","City":"Long Beach","State":"CA","Zip":"90807"},{"Location":"MR FIX IT PLUMBING","Address":"4320 Atlantic Ave 230","City":"Long Beach","State":"CA","Zip":"90807"},{"Location":"MR PITS","Address":"4100 Orange Ave","City":"Long Beach","State":"CA","Zip":"90807"},{"Location":"NORMS HOME COMPANION","Address":"3915 Long Beach Blvd","City":"Long Beach","State":"CA","Zip":"90807"},{"Location":"NORTHGATE GONZALEZ STORE 39","Address":"4700 Cherry Ave","City":"Long Beach","State":"CA","Zip":"90807"},{"Location":"OASIS MEDICAL","Address":"4056 Orange Ave","City":"Long Beach","State":"CA","Zip":"90807"},{"Location":"PCMC","Address":"250 W Wardlow Rd","City":"Long Beach","State":"CA","Zip":"90807"},{"Location":"PERFORMANCE PLUS TIRE","Address":"3910 Cherry Ave","City":"Long Beach","State":"CA","Zip":"90807"},{"Location":"PHIL TRANI'S RESTAURANT","Address":"3490 Long Beach Blvd","City":"Long Beach","State":"CA","Zip":"90807"},{"Location":"PLASTICARE SURGERY CENTER","Address":"920 E Wardlow Rd","City":"Long Beach","State":"CA","Zip":"90807"},{"Location":"R P LAURAIN & ASSOC.","Address":"3353 Linden Ave 200","City":"Long Beach","State":"CA","Zip":"90807"},{"Location":"RED DOG SALOON","Address":"1946 Delamo Blvd","City":"Long Beach","State":"CA","Zip":"90807"},{"Location":"ROLL SUSHI","Address":"3401 Cherry Ave C","City":"Long Beach","State":"CA","Zip":"90807"},{"Location":"ROXANNES INC","Address":"1115 E Wardlow Rd","City":"Long Beach","State":"CA","Zip":"90807"},{"Location":"ROYAL BUFFET","Address":"530 E 33rd St","City":"Long Beach","State":"CA","Zip":"90807"},{"Location":"SALON SOL","Address":"3949 Long Beach Blvd","City":"Long Beach","State":"CA","Zip":"90807"},{"Location":"SPIRES RESTAURANT","Address":"1935 E Del Amo Blvd","City":"Long Beach","State":"CA","Zip":"90807"},{"Location":"SPORTS PUB AND GRILL","Address":"710-20 E Wardlow Rd","City":"Long Beach","State":"CA","Zip":"90807"},{"Location":"SUSHIWEST","Address":"4105 Atlantic Ave C","City":"Long Beach","State":"CA","Zip":"90807"},{"Location":"TASHIRO DDS GEORGE R","Address":"558 E Wardlow Rd","City":"Long Beach","State":"CA","Zip":"90807"},{"Location":"TEAMSTERS LOCAL 848","Address":"3888 Cherry Ave","City":"Long Beach","State":"CA","Zip":"90807"},{"Location":"THE BOEING CO #2","Address":"2401 E Wardlow Rd","City":"Long Beach","State":"CA","Zip":"90807"},{"Location":"THE BOEING COMPANY #1","Address":"2401 E Wardlow Rd","City":"Long Beach","State":"CA","Zip":"90807"},{"Location":"THE BOEING COMPANY 3","Address":"2401 E Wardlow Rd 55","City":"Long Beach","State":"CA","Zip":"90807"},{"Location":"THE FACTORY GASTRO BAR","Address":"4020 Atlantic Ave","City":"Long Beach","State":"CA","Zip":"90807"},{"Location":"THE TERMO COMPANY","Address":"3275 Cherry Ave","City":"Long Beach","State":"CA","Zip":"90807"},{"Location":"TIMMONS OF LONG BEACH","Address":"3940 Cherry Ave","City":"Long Beach","State":"CA","Zip":"90807"},{"Location":"VIRGINIA COUNTRY CLUB BAR","Address":"4602 N Virginia Rd","City":"Long Beach","State":"CA","Zip":"90807"},{"Location":"VIRGINIA COUNTRY CLUB LOBBY","Address":"4602 N Virginia Rd","City":"Long Beach","State":"CA","Zip":"90807"},{"Location":"WA RASIC CONSTRUCTION","Address":"4150 Long Beach Blvd","City":"Long Beach","State":"CA","Zip":"90807"},{"Location":"WE MIX IT BARBER","Address":"1942 1%2F2 E Del Amo Blvd","City":"Long Beach","State":"CA","Zip":"90807"},{"Location":"WEILAND BREWERY RESTAURAN","Address":"4354 Atlantic Ave","City":"Long Beach","State":"CA","Zip":"90807"},{"Location":"WING STOP","Address":"2018 E Carson St","City":"Long Beach","State":"CA","Zip":"90807"},{"Location":"YSSL HAIR STUDIO","Address":"3972 Atlantic Ave","City":"Long Beach","State":"CA","Zip":"90807"},{"Location":"A AND A TOWING","Address":"3204 Cherry Ave","City":"Long Beach","State":"CA","Zip":"90807"},{"Location":"AIRFLITE","Address":"3250 Airflight Way","City":"Long Beach","State":"CA","Zip":"90807"},{"Location":"AIRFLITE","Address":"3250 Airflite Way","City":"Long Beach","State":"CA","Zip":"90807"},{"Location":"AIRFLITE 2","Address":"3200 Airflight Way","City":"Long Beach","State":"CA","Zip":"90807"},{"Location":"ALEX AUTO REPAIR","Address":"3360 Atlantic Ave","City":"Long Beach","State":"CA","Zip":"90807"},{"Location":"AMIRA MANAGENT  INVESTMENT","Address":"4668 N Banner Dr 4","City":"Long Beach","State":"CA","Zip":"90807"},{"Location":"BABE'S KITCHEN","Address":"1106 E Wardlow Rd","City":"Long Beach","State":"CA","Zip":"90807"},{"Location":"BAMBOO TERI HOUSE","Address":"3391 Atlantic Ave","City":"Long Beach","State":"CA","Zip":"90807"},{"Location":"BIXBY KNOLLS TOWER RETIREMENT","Address":"3747 Atlantic Ave","City":"Long Beach","State":"CA","Zip":"90807"},{"Location":"BOEING CALIFORINA EMPLOYEE","Address":"2019 E Wardlow Rd","City":"Long Beach","State":"CA","Zip":"90807"},{"Location":"CARUSO  FORD","Address":"3600 Cherry Ave","City":"Long Beach","State":"CA","Zip":"90807"},{"Location":"CATALANOS PIZZA","Address":"1178 E Carson St","City":"Long Beach","State":"CA","Zip":"90807"},{"Location":"CERTIFIED TIRES","Address":"3800 Cherry Ave","City":"Long Beach","State":"CA","Zip":"90807"},{"Location":"CLASSIC TOBACCO","Address":"4112 Orange Ave","City":"Long Beach","State":"CA","Zip":"90807"},{"Location":"CREE INVESTMENT","Address":"3250 Cherry Ave","City":"Long Beach","State":"CA","Zip":"90807"},{"Location":"CRESTMARK ENTERTAINMENT","Address":"3445 Long Beach Blvd","City":"Long Beach","State":"CA","Zip":"90807"},{"Location":"CROSS LINK VENTURES","Address":"3701 Long Beach Blvd 303a","City":"Long Beach","State":"CA","Zip":"90807"},{"Location":"DAVITA #2137 BIXBY KNOLLS","Address":"3744 Long Beach Blvd","City":"Long Beach","State":"CA","Zip":"90807"},{"Location":"DAVITA #438 UNITED","Address":"3111 Long Beach Blvd","City":"Long Beach","State":"CA","Zip":"90807"},{"Location":"DENNIS J O SULLIVAN LAW OFFICE","Address":"3839 Long Beach Blvd","City":"Long Beach","State":"CA","Zip":"90807"},{"Location":"EJ MALLOYS","Address":"4306 Atlantic Ave","City":"Long Beach","State":"CA","Zip":"90807"},{"Location":"EL TORITO 7159","Address":"3301 Atlantic Ave","City":"Long Beach","State":"CA","Zip":"90807"},{"Location":"FANTASTIC BURGERS","Address":"3400 Cherry Ave","City":"Long Beach","State":"CA","Zip":"90807"},{"Location":"FIRESTONE #267434","Address":"3000 Cherry Ave","City":"Long Beach","State":"CA","Zip":"90807"},{"Location":"GEORGIES PLACE","Address":"3850 Atlantic Ave","City":"Long Beach","State":"CA","Zip":"90807"},{"Location":"GOLDEN STAR NO 2","Address":"2001 E Carson St","City":"Long Beach","State":"CA","Zip":"90807"},{"Location":"GRACE EDWARDS","Address":"3811 Long Beach Blvd","City":"Long Beach","State":"CA","Zip":"90807"},{"Location":"HANDYS SMOKEHOUSE","Address":"4149 Long Beach Blvd","City":"Long Beach","State":"CA","Zip":"90807"},{"Location":"HARBOR CHEVROLET","Address":"3770 Cherry Ave","City":"Long Beach","State":"CA","Zip":"90807"},{"Location":"HARBOR VIEW COMMUNITY","Address":"850 E Wardlow Rd","City":"Long Beach","State":"CA","Zip":"90807"},{"Location":"HOKKAIDO SEAFOOD BUFFET","Address":"3030 Cherry Ave","City":"Long Beach","State":"CA","Zip":"90807"},{"Location":"JIFFY LUBE 2688","Address":"4155 Long Beach Blvd","City":"Long Beach","State":"CA","Zip":"90807"},{"Location":"JOHN K EVANS%2FJOHN BROOMER","Address":"4028 Long Beach Blvd 203","City":"Long Beach","State":"CA","Zip":"90807"},{"Location":"KINOKAWA JAPANESE RESTAURANT","Address":"1611 E Wardlow Rd","City":"Long Beach","State":"CA","Zip":"90807"},{"Location":"LA FITNESS #41","Address":"2140 E Carson St","City":"Long Beach","State":"CA","Zip":"90807"},{"Location":"LBS FINANCIAL CU","Address":"4436 Atlantic Ave","City":"Long Beach","State":"CA","Zip":"90807"},{"Location":"LIGHT AND LIFE WEST","Address":"3650 Long Beach Blvd","City":"Long Beach","State":"CA","Zip":"90807"},{"Location":"LONA'S CITY LIMITS CANTINA","Address":"1174 E Wardlow Rd","City":"Long Beach","State":"CA","Zip":"90807"},{"Location":"LONG BEACH AIRPORT","Address":"3150 Saint Louis Ave","City":"Long Beach","State":"CA","Zip":"90807"},{"Location":"LONG BEACH LINCOLN MERCURY 1","Address":"3500 Cherry Ave","City":"Long Beach","State":"CA","Zip":"90807"},{"Location":"LONG BEACH MEDICAL CENTER","Address":"4014 Long Beach Blvd 100","City":"Long Beach","State":"CA","Zip":"90807"},{"Location":"LONG BEACH PETROLEUM CLUB","Address":"3636 Linden Ave","City":"Long Beach","State":"CA","Zip":"90807"},{"Location":"MED POST URGENT CARE","Address":"2010 E Carson St","City":"Long Beach","State":"CA","Zip":"90807"},{"Location":"MR FIX IT PLUMBING","Address":"4320 Atlantic Ave 230","City":"Long Beach","State":"CA","Zip":"90807"},{"Location":"MR PITS","Address":"4100 Orange Ave","City":"Long Beach","State":"CA","Zip":"90807"},{"Location":"NORMS HOME COMPANION","Address":"3915 Long Beach Blvd","City":"Long Beach","State":"CA","Zip":"90807"},{"Location":"NORTHGATE GONZALEZ STORE 39","Address":"4700 Cherry Ave","City":"Long Beach","State":"CA","Zip":"90807"},{"Location":"OASIS MEDICAL","Address":"4056 Orange Ave","City":"Long Beach","State":"CA","Zip":"90807"},{"Location":"PCMC","Address":"250 W Wardlow Rd","City":"Long Beach","State":"CA","Zip":"90807"},{"Location":"PERFORMANCE PLUS TIRE","Address":"3910 Cherry Ave","City":"Long Beach","State":"CA","Zip":"90807"},{"Location":"PHIL TRANI'S RESTAURANT","Address":"3490 Long Beach Blvd","City":"Long Beach","State":"CA","Zip":"90807"},{"Location":"PLASTICARE SURGERY CENTER","Address":"920 E Wardlow Rd","City":"Long Beach","State":"CA","Zip":"90807"},{"Location":"R P LAURAIN & ASSOC.","Address":"3353 Linden Ave 200","City":"Long Beach","State":"CA","Zip":"90807"},{"Location":"RED DOG SALOON","Address":"1946 Delamo Blvd","City":"Long Beach","State":"CA","Zip":"90807"},{"Location":"ROLL SUSHI","Address":"3401 Cherry Ave C","City":"Long Beach","State":"CA","Zip":"90807"},{"Location":"ROXANNES INC","Address":"1115 E Wardlow Rd","City":"Long Beach","State":"CA","Zip":"90807"},{"Location":"ROYAL BUFFET","Address":"530 E 33rd St","City":"Long Beach","State":"CA","Zip":"90807"},{"Location":"SALON SOL","Address":"3949 Long Beach Blvd","City":"Long Beach","State":"CA","Zip":"90807"},{"Location":"SPIRES RESTAURANT","Address":"1935 E Del Amo Blvd","City":"Long Beach","State":"CA","Zip":"90807"},{"Location":"SPORTS PUB AND GRILL","Address":"710-20 E Wardlow Rd","City":"Long Beach","State":"CA","Zip":"90807"},{"Location":"SUSHIWEST","Address":"4105 Atlantic Ave C","City":"Long Beach","State":"CA","Zip":"90807"},{"Location":"TASHIRO DDS GEORGE R","Address":"558 E Wardlow Rd","City":"Long Beach","State":"CA","Zip":"90807"},{"Location":"TEAMSTERS LOCAL 848","Address":"3888 Cherry Ave","City":"Long Beach","State":"CA","Zip":"90807"},{"Location":"THE BOEING CO #2","Address":"2401 E Wardlow Rd","City":"Long Beach","State":"CA","Zip":"90807"},{"Location":"THE BOEING COMPANY #1","Address":"2401 E Wardlow Rd","City":"Long Beach","State":"CA","Zip":"90807"},{"Location":"THE BOEING COMPANY 3","Address":"2401 E Wardlow Rd 55","City":"Long Beach","State":"CA","Zip":"90807"},{"Location":"THE FACTORY GASTRO BAR","Address":"4020 Atlantic Ave","City":"Long Beach","State":"CA","Zip":"90807"},{"Location":"THE TERMO COMPANY","Address":"3275 Cherry Ave","City":"Long Beach","State":"CA","Zip":"90807"},{"Location":"TIMMONS OF LONG BEACH","Address":"3940 Cherry Ave","City":"Long Beach","State":"CA","Zip":"90807"},{"Location":"VIRGINIA COUNTRY CLUB BAR","Address":"4602 N Virginia Rd","City":"Long Beach","State":"CA","Zip":"90807"},{"Location":"VIRGINIA COUNTRY CLUB LOBBY","Address":"4602 N Virginia Rd","City":"Long Beach","State":"CA","Zip":"90807"},{"Location":"WA RASIC CONSTRUCTION","Address":"4150 Long Beach Blvd","City":"Long Beach","State":"CA","Zip":"90807"},{"Location":"WE MIX IT BARBER","Address":"1942 1%2F2 E Del Amo Blvd","City":"Long Beach","State":"CA","Zip":"90807"},{"Location":"WEILAND BREWERY RESTAURAN","Address":"4354 Atlantic Ave","City":"Long Beach","State":"CA","Zip":"90807"},{"Location":"WING STOP","Address":"2018 E Carson St","City":"Long Beach","State":"CA","Zip":"90807"},{"Location":"YSSL HAIR STUDIO","Address":"3972 Atlantic Ave","City":"Long Beach","State":"CA","Zip":"90807"}]