[{"Location":"24 HOUR FITNESS #154","Address":"100 Oceangate","City":"Long Beach","State":"CA","Zip":"90802"},{"Location":"3 DEE INTERNATIONAL","Address":"300 Oceangate 1450","City":"Long Beach","State":"CA","Zip":"90802"},{"Location":"40 RIVERROCK ESTATE GROUP","Address":"200 Pine Ave","City":"Long Beach","State":"CA","Zip":"90802"},{"Location":"ACI MEDIA GROUP","Address":"330 Golden Shr 410","City":"Long Beach","State":"CA","Zip":"90802"},{"Location":"ADVANTAGE CDC","Address":"11 Golden Shr 630","City":"Long Beach","State":"CA","Zip":"90802"},{"Location":"ALONDRA HOT WINGS","Address":"245 Pine Ave 190","City":"Long Beach","State":"CA","Zip":"90802"},{"Location":"AMERIPRISE FINANCIAL","Address":"301 E Ocean Blvd 1550","City":"Long Beach","State":"CA","Zip":"90802"},{"Location":"ASHLEYS BAR AND GRILL","Address":"1731 E 4th St","City":"Long Beach","State":"CA","Zip":"90802"},{"Location":"BEACHWOOD BBQ & BEWERY","Address":"210a E 3rd St A","City":"Long Beach","State":"CA","Zip":"90802"},{"Location":"BELMONT BROKERAGE","Address":"647 E 4th St","City":"Long Beach","State":"CA","Zip":"90802"},{"Location":"BETA OFFSHORE #2","Address":"Platform Eureka","City":"Long Beach","State":"CA","Zip":"90802"},{"Location":"BETA OFFSHORE #3","Address":"Platform Eureka","City":"Long Beach","State":"CA","Zip":"90802"},{"Location":"BO BEAU KITCHEN  ROOF TA","Address":"144 Pine Ave","City":"Long Beach","State":"CA","Zip":"90802"},{"Location":"BROADLIND LP","Address":"149 Linden Ave M101","City":"Long Beach","State":"CA","Zip":"90802"},{"Location":"BROADWAY PIZZA AND GRILL","Address":"120 E Broadway","City":"Long Beach","State":"CA","Zip":"90802"},{"Location":"BUREAU OF ATF","Address":"301 E Ocean Blvd 2050","City":"Long Beach","State":"CA","Zip":"90802"},{"Location":"CA STATE LANDS","Address":"200 Oceangate 1200","City":"Long Beach","State":"CA","Zip":"90802"},{"Location":"CA STATE LANDS COMMISSIO","Address":"200 Oceangate 900","City":"Long Beach","State":"CA","Zip":"90802"},{"Location":"CAFE SEVILLA","Address":"140 Pine Ave","City":"Long Beach","State":"CA","Zip":"90802"},{"Location":"CAMPCARE SERVICES%2C INC","Address":"340 Golden Shore 445","City":"Long Beach","State":"CA","Zip":"90802"},{"Location":"CATALINA EXPRESS","Address":"310 Golden Shr","City":"Long Beach","State":"CA","Zip":"90802"},{"Location":"CBP OFFICE OF INTERNAL","Address":"340 Golden Shr 3","City":"Long Beach","State":"CA","Zip":"90802"},{"Location":"CHILI'S #1047","Address":"30 Shoreline Dr W","City":"Long Beach","State":"CA","Zip":"90802"},{"Location":"CITY OF LONG BEACH HARBOR DEPT","Address":"1249 Pier F Ave 1","City":"Long Beach","State":"CA","Zip":"90802"},{"Location":"CITY OF LONG BEACH HARBOR DEPT","Address":"1249 Pier F Ave Fl2","City":"Long Beach","State":"CA","Zip":"90802"},{"Location":"CITY OF LONG BEACH HARBOR DEPT","Address":"925 Harbor Plz","City":"Long Beach","State":"CA","Zip":"90802"},{"Location":"CLANCYS","Address":"803 E Broadway","City":"Long Beach","State":"CA","Zip":"90802"},{"Location":"CLINTON & CLINTON","Address":"100 Oceangate 14th","City":"Long Beach","State":"CA","Zip":"90802"},{"Location":"CMA CGM AMERICA LLC","Address":"100 Oceangate 900","City":"Long Beach","State":"CA","Zip":"90802"},{"Location":"COLONIAL CARE CENTER","Address":"1913 E 5th St","City":"Long Beach","State":"CA","Zip":"90802"},{"Location":"COLOR GRAPHICS INC","Address":"211 E Ocean Blvd","City":"Long Beach","State":"CA","Zip":"90802"},{"Location":"COMERICA BANK","Address":"301 E Ocean Blvd 18","City":"Long Beach","State":"CA","Zip":"90802"},{"Location":"COMERICA CORP REAL EST","Address":"301 E Ocean Blvd 18th","City":"Long Beach","State":"CA","Zip":"90802"},{"Location":"CONGREGATION ALEHOUSE","Address":"201 E Broadway","City":"Long Beach","State":"CA","Zip":"90802"},{"Location":"CONGRESSMAN ALAN LOWENTHAL","Address":"100 W Broadway 600","City":"Long Beach","State":"CA","Zip":"90802"},{"Location":"CROWELL WEEDON & CO","Address":"300 Oceangate 800","City":"Long Beach","State":"CA","Zip":"90802"},{"Location":"CS TOMASI","Address":"100 Oceangate 1450","City":"Long Beach","State":"CA","Zip":"90802"},{"Location":"CUBAN PETES MOJITO LOUNGE","Address":"245 Pine Ave 290","City":"Long Beach","State":"CA","Zip":"90802"},{"Location":"CURD%2C GALINDO AND SMITH","Address":"301 E Ocean Blvd 1700","City":"Long Beach","State":"CA","Zip":"90802"},{"Location":"CUSTOMS BORDER PROTECTION","Address":"301 E Ocean Blvd 14-35","City":"Long Beach","State":"CA","Zip":"90802"},{"Location":"DDR URBAN LLC","Address":"95 S Pine Ave","City":"Long Beach","State":"CA","Zip":"90802"},{"Location":"DEPARTMENT OF TREASURY","Address":"501 W Ocean Blvd 3160","City":"Long Beach","State":"CA","Zip":"90802"},{"Location":"DOD%2FCMLO","Address":"301 E Ocean Blvd 1020","City":"Long Beach","State":"CA","Zip":"90802"},{"Location":"E CIG INC","Address":"106 W 3rd St","City":"Long Beach","State":"CA","Zip":"90802"},{"Location":"ECHO GLOBAL LOGISTICS","Address":"100 W Broadway 6005","City":"Long Beach","State":"CA","Zip":"90802"},{"Location":"EL TORAZO","Address":"603 Atlantic Ave","City":"Long Beach","State":"CA","Zip":"90802"},{"Location":"FAMOUS DAVE'S #3160","Address":"300 S Pine Ave","City":"Long Beach","State":"CA","Zip":"90802"},{"Location":"FERNS COCKTAILS","Address":"1253 E 4th St","City":"Long Beach","State":"CA","Zip":"90802"},{"Location":"FIRESTONE #267356","Address":"636 Locust Ave","City":"Long Beach","State":"CA","Zip":"90802"},{"Location":"FITNESS CHIROPRACTIC.","Address":"100 Oceangate","City":"Long Beach","State":"CA","Zip":"90802"},{"Location":"FMC 11410000","Address":"440 W Ocean Blvd","City":"Long Beach","State":"CA","Zip":"90802"},{"Location":"FOSS MARITIME","Address":"Pier D Berth 35","City":"Long Beach","State":"CA","Zip":"90802"},{"Location":"FUEGO","Address":"700 Queensway Dr","City":"Long Beach","State":"CA","Zip":"90802"},{"Location":"GALLERY 421","Address":"421 W Broadway","City":"Long Beach","State":"CA","Zip":"90802"},{"Location":"GOLD'S GYM #272","Address":"345 Pine Ave","City":"Long Beach","State":"CA","Zip":"90802"},{"Location":"GOUCHO GRILL","Address":"200 Pine Ave B","City":"Long Beach","State":"CA","Zip":"90802"},{"Location":"GRE SHORELINE SQUARE","Address":"301 E Ocean Blvd 1660","City":"Long Beach","State":"CA","Zip":"90802"},{"Location":"GUTIERREZ","Address":"300 Oceangate 150","City":"Long Beach","State":"CA","Zip":"90802"},{"Location":"HCVT","Address":"100 Oceangate 800","City":"Long Beach","State":"CA","Zip":"90802"},{"Location":"HDR","Address":"100 Oceangate 1120","City":"Long Beach","State":"CA","Zip":"90802"},{"Location":"HENRY J JOHNSON MD","Address":"110 W Ocean Blvd 426","City":"Long Beach","State":"CA","Zip":"90802"},{"Location":"HITZKE & ASSOCIATES","Address":"100 Oceangate 1100","City":"Long Beach","State":"CA","Zip":"90802"},{"Location":"HONDURAS KITCHEN","Address":"1909 E 4th St","City":"Long Beach","State":"CA","Zip":"90802"},{"Location":"HOOTERS OF LONG BEACH","Address":"71 Aquarium Way","City":"Long Beach","State":"CA","Zip":"90802"},{"Location":"HYATT REGENCY LONG BEACH","Address":"200 S Pine Ave","City":"Long Beach","State":"CA","Zip":"90802"},{"Location":"IMMIGRATION%2FCUSTOMS ENFORCEMEN","Address":"501 W Ocean Blvd","City":"Long Beach","State":"CA","Zip":"90802"},{"Location":"ISLANDS RESTAURANTS #043","Address":"55 S Pine Ave","City":"Long Beach","State":"CA","Zip":"90802"},{"Location":"JACOBSEN PILOT SERVICE","Address":"1259 Pier F Ave","City":"Long Beach","State":"CA","Zip":"90802"},{"Location":"JOE R'S CIGARS LLC","Address":"107 W Broadway","City":"Long Beach","State":"CA","Zip":"90802"},{"Location":"JOHNNY ROCKETS","Address":"245 Pine Ave 110","City":"Long Beach","State":"CA","Zip":"90802"},{"Location":"KAMUS KELLER","Address":"330 Golden Shr 450","City":"Long Beach","State":"CA","Zip":"90802"},{"Location":"KEESAL YOUNG AND LOGAN","Address":"400 Oceangate","City":"Long Beach","State":"CA","Zip":"90802"},{"Location":"KEGEL  TOBIN AND TRUCE","Address":"330 Golden Shr 150","City":"Long Beach","State":"CA","Zip":"90802"},{"Location":"KING CRAB LOUNGE","Address":"100 W Broadway","City":"Long Beach","State":"CA","Zip":"90802"},{"Location":"KTN ENTERPRISES INC","Address":"11 Golden Shr 440","City":"Long Beach","State":"CA","Zip":"90802"},{"Location":"KV MART","Address":"421 Pacific Ave","City":"Long Beach","State":"CA","Zip":"90802"},{"Location":"L OPERA","Address":"101 Pine Ave","City":"Long Beach","State":"CA","Zip":"90802"},{"Location":"LA CREPERIE CAFE PINE INC","Address":"130 Pine Ave","City":"Long Beach","State":"CA","Zip":"90802"},{"Location":"LB 4 FISH%2CLLC","Address":"330 S Pine Ave","City":"Long Beach","State":"CA","Zip":"90802"},{"Location":"LONG BEACH","Address":"225 E Broadway","City":"Long Beach","State":"CA","Zip":"90802"},{"Location":"LONG BEACH DENTAL","Address":"308 Orange Ave","City":"Long Beach","State":"CA","Zip":"90802"},{"Location":"LONG BEACH FIRE DEPARTMENT","Address":"925 Harbor Plz 100","City":"Long Beach","State":"CA","Zip":"90802"},{"Location":"LOUISIANA CHARLIES","Address":"429 Shoreline Village Dr H","City":"Long Beach","State":"CA","Zip":"90802"},{"Location":"MAKAKI RESTAURNAT","Address":"155 4th","City":"Long Beach","State":"CA","Zip":"90802"},{"Location":"MARYS LONG BEACH INC","Address":"330 Pine Ave Stree","City":"Long Beach","State":"CA","Zip":"90802"},{"Location":"MERCED RESTAURANT","Address":"1064 E Broadway","City":"Long Beach","State":"CA","Zip":"90802"},{"Location":"MICHAELS PIZZERIA PROMEN","Address":"210 E 3rd St Promenade C","City":"Long Beach","State":"CA","Zip":"90802"},{"Location":"MIECO INC","Address":"301 E Ocean Blvd 1100","City":"Long Beach","State":"CA","Zip":"90802"},{"Location":"MINE SHAFT","Address":"1720 E Broadway","City":"Long Beach","State":"CA","Zip":"90802"},{"Location":"MOLINA HEALTHCARE","Address":"200 Oceangate 1500","City":"Long Beach","State":"CA","Zip":"90802"},{"Location":"OMELETTE INN","Address":"318 Pine Ave","City":"Long Beach","State":"CA","Zip":"90802"},{"Location":"OSG LOS ANGELES","Address":"301 E Ocean Blvd 590","City":"Long Beach","State":"CA","Zip":"90802"},{"Location":"OUTBACK STEAKHOUSE #0586","Address":"20 W Shoreline Dr","City":"Long Beach","State":"CA","Zip":"90802"},{"Location":"OXY THUMS LONG BEACH","Address":"1280 Pier G Ave","City":"Long Beach","State":"CA","Zip":"90802"},{"Location":"PARADISE BAR & RESTAURANT","Address":"1800 E Broadway","City":"Long Beach","State":"CA","Zip":"90802"},{"Location":"PARKER'S LIGHTHOUSE","Address":"435 Shoreline Village Dr","City":"Long Beach","State":"CA","Zip":"90802"},{"Location":"PF CHANG'S #9944","Address":"340 S Pine Ave","City":"Long Beach","State":"CA","Zip":"90802"},{"Location":"PINA BARBER SHOP","Address":"1704 E 4th St","City":"Long Beach","State":"CA","Zip":"90802"},{"Location":"PK R INC","Address":"1836 E 4th St","City":"Long Beach","State":"CA","Zip":"90802"},{"Location":"PRINDAL AMARO GOETZ","Address":"310 Golden Shr 4","City":"Long Beach","State":"CA","Zip":"90802"},{"Location":"PROFESSIONAL NAILS AND SPA 2","Address":"345 The Promenade N","City":"Long Beach","State":"CA","Zip":"90802"},{"Location":"QUEENS WHARF","Address":"555 Pico Ave","City":"Long Beach","State":"CA","Zip":"90802"},{"Location":"REBEL BITE","Address":"649 E Broadway","City":"Long Beach","State":"CA","Zip":"90802"},{"Location":"ROCCOS DELI- DOWNTOWN","Address":"525 E 1st St","City":"Long Beach","State":"CA","Zip":"90802"},{"Location":"ROCK BOTTOM #1072","Address":"1 Pine Ave","City":"Long Beach","State":"CA","Zip":"90802"},{"Location":"ROSSI DOSKOCIL & FINKELSTEIN","Address":"400 Oceangate 1000","City":"Long Beach","State":"CA","Zip":"90802"},{"Location":"S A RECYCLING","Address":"482 Pier T Ave","City":"Long Beach","State":"CA","Zip":"90802"},{"Location":"SCOTTRADE 04O","Address":"100 Oceangate 375","City":"Long Beach","State":"CA","Zip":"90802"},{"Location":"SGT PEPPERS AND PIANO CA","Address":"91 S Pine Ave","City":"Long Beach","State":"CA","Zip":"90802"},{"Location":"SHANNON'S ON PINE","Address":"209a Pine Ave","City":"Long Beach","State":"CA","Zip":"90802"},{"Location":"SHENANIGANS IRISH PUB","Address":"423 Shoreline Village Dr A","City":"Long Beach","State":"CA","Zip":"90802"},{"Location":"SHORELINE YACHT CLUB","Address":"386 E Shoreline Dr","City":"Long Beach","State":"CA","Zip":"90802"},{"Location":"SIMON EDDINS & GREENSTONE LLP","Address":"301 E Ocean Blvd 1950","City":"Long Beach","State":"CA","Zip":"90802"},{"Location":"SIP LOUNGE","Address":"111 E Ocean Blvd","City":"Long Beach","State":"CA","Zip":"90802"},{"Location":"SPENCER REED GROUP","Address":"100 Oceangate 900","City":"Long Beach","State":"CA","Zip":"90802"},{"Location":"SSA CONTAINER%2FCENTRAL GATE","Address":"1160 Pier F Ave B","City":"Long Beach","State":"CA","Zip":"90802"},{"Location":"ST MARYS MEDICAL CENTER","Address":"1150 E 4th St 111","City":"Long Beach","State":"CA","Zip":"90802"},{"Location":"SUPER MEX RESTAURANT","Address":"732 E 1st St","City":"Long Beach","State":"CA","Zip":"90802"},{"Location":"SURE HAVEN11","Address":"1818 E Appleton St","City":"Long Beach","State":"CA","Zip":"90802"},{"Location":"SURE HAVEN13","Address":"1601 E 1st St","City":"Long Beach","State":"CA","Zip":"90802"},{"Location":"SYNERGY WORK PLACES","Address":"100 Oceangate 1200","City":"Long Beach","State":"CA","Zip":"90802"},{"Location":"TACO BEACH","Address":"211 Pine Ave","City":"Long Beach","State":"CA","Zip":"90802"},{"Location":"TESORO COMPANIES","Address":"400 Oceangate 600","City":"Long Beach","State":"CA","Zip":"90802"},{"Location":"THAI RESTAURANT","Address":"801 E 3rd St","City":"Long Beach","State":"CA","Zip":"90802"},{"Location":"THE AULD DUBLINER","Address":"71 S Pine Ave","City":"Long Beach","State":"CA","Zip":"90802"},{"Location":"THE BITTER CHEF","Address":"601 E Broadway","City":"Long Beach","State":"CA","Zip":"90802"},{"Location":"THE BRIT","Address":"1744 E Broadway","City":"Long Beach","State":"CA","Zip":"90802"},{"Location":"THE DESIGNORY","Address":"211 E Ocean Blvd 100","City":"Long Beach","State":"CA","Zip":"90802"},{"Location":"THE FEDERAL BAR-LB","Address":"102 Pine Ave","City":"Long Beach","State":"CA","Zip":"90802"},{"Location":"THE GALLOS","Address":"941 E 4th St","City":"Long Beach","State":"CA","Zip":"90802"},{"Location":"THE RED ROOM INC","Address":"1229 E 4th St","City":"Long Beach","State":"CA","Zip":"90802"},{"Location":"THE SALVATION ARMY","Address":"180 E Ocean Blvd 4thfl","City":"Long Beach","State":"CA","Zip":"90802"},{"Location":"THE VAPOR UNDERGROUND","Address":"207 Pine Ave","City":"Long Beach","State":"CA","Zip":"90802"},{"Location":"TOKYO WAKO","Address":"310 S Pine Ave","City":"Long Beach","State":"CA","Zip":"90802"},{"Location":"TOWN AND CITY","Address":"525 E Broadway","City":"Long Beach","State":"CA","Zip":"90802"},{"Location":"TRITON MANAGEMENT SERVICES%2CLLC","Address":"432 W Ocean Blvd","City":"Long Beach","State":"CA","Zip":"90802"},{"Location":"TSLA DISTRIBUTION CORP","Address":"121 W 4th St","City":"Long Beach","State":"CA","Zip":"90802"},{"Location":"UBS FINANCIAL #1","Address":"301 E Ocean Blvd 1600","City":"Long Beach","State":"CA","Zip":"90802"},{"Location":"US CUSTOMS AND BORDER PROTECTI","Address":"301 E Ocean Blvd 1500","City":"Long Beach","State":"CA","Zip":"90802"},{"Location":"UTI UNITED STATES INC","Address":"100 Oceangate 1500","City":"Long Beach","State":"CA","Zip":"90802"},{"Location":"VIP YACHTS","Address":"1825 W Pier D St","City":"Long Beach","State":"CA","Zip":"90802"},{"Location":"VRC  INC","Address":"918 E 4th St","City":"Long Beach","State":"CA","Zip":"90802"},{"Location":"WELFARE COMMITTEE SEA LAUNCH","Address":"2700 Nimitz Rd","City":"Long Beach","State":"CA","Zip":"90802"},{"Location":"WESTIN LONG BEACH","Address":"333 E Ocean Blvd","City":"Long Beach","State":"CA","Zip":"90802"},{"Location":"WING   STOP","Address":"80 E 4th St","City":"Long Beach","State":"CA","Zip":"90802"},{"Location":"YARD HOUSE #8301","Address":"401 Shoreline Village Dr","City":"Long Beach","State":"CA","Zip":"90802"}]