[{"Location":"AA1C SERVICES","Address":"2325 E 7th St","City":"Long Beach","State":"CA","Zip":"90804"},{"Location":"AGC RECREATION PARK","Address":"5001 Deukmejian Dr","City":"Long Beach","State":"CA","Zip":"90804"},{"Location":"AGC RECREATION PARK CRSE 9","Address":"5000 E 7th St","City":"Long Beach","State":"CA","Zip":"90804"},{"Location":"ALEX'S BAR","Address":"2913 E Anaheim St","City":"Long Beach","State":"CA","Zip":"90804"},{"Location":"AMERICAN DENTAL CENTER","Address":"3318 E Anaheim St","City":"Long Beach","State":"CA","Zip":"90804"},{"Location":"BELMONT HEIGHTS FUNERAL","Address":"3501 E 7th St","City":"Long Beach","State":"CA","Zip":"90804"},{"Location":"BILLIE JEAN KING TENNIS CENTER","Address":"1040 Park Ave","City":"Long Beach","State":"CA","Zip":"90804"},{"Location":"BLACK LIGHT DISTRICT","Address":"2500 E Anaheim St","City":"Long Beach","State":"CA","Zip":"90804"},{"Location":"BREATHE VAP SPOT","Address":"5107 E Pacific Coast Hwy","City":"Long Beach","State":"CA","Zip":"90804"},{"Location":"BULL BAR","Address":"3316 E 7th St","City":"Long Beach","State":"CA","Zip":"90804"},{"Location":"CALLALOOS CARIBBEAN KITC","Address":"4137 E Anaheim St","City":"Long Beach","State":"CA","Zip":"90804"},{"Location":"CAREMORE","Address":"4540 E 7th St","City":"Long Beach","State":"CA","Zip":"90804"},{"Location":"CSULB- LONG BEACH STATE","Address":"4700 Deukmejian Dr","City":"Long Beach","State":"CA","Zip":"90804"},{"Location":"DELTA GAMMA SORORITY","Address":"773 Redondo Ave","City":"Long Beach","State":"CA","Zip":"90804"},{"Location":"DIPIAZZA RESTAURANT AND LOUNGE","Address":"5205 E Pacific Coast Hwy","City":"Long Beach","State":"CA","Zip":"90804"},{"Location":"EL BURRITO GRILL","Address":"5211 E Pacific Coast Hwy","City":"Long Beach","State":"CA","Zip":"90804"},{"Location":"EL TORAZO 1","Address":"2801 E 10th St","City":"Long Beach","State":"CA","Zip":"90804"},{"Location":"FIRST STEP FITNESS","Address":"1335 Loma Ave","City":"Long Beach","State":"CA","Zip":"90804"},{"Location":"FREE CONFERENCING CORP","Address":"4300 E Pacific Coast Hwy","City":"Long Beach","State":"CA","Zip":"90804"},{"Location":"GREEN FIELD CHURRASCARIA","Address":"5305 E Pacific Coast Hwy","City":"Long Beach","State":"CA","Zip":"90804"},{"Location":"HAIR 911 SALON","Address":"4138 E Anaheim St","City":"Long Beach","State":"CA","Zip":"90804"},{"Location":"HAIR BASIX","Address":"1100 Redondo Ave 2","City":"Long Beach","State":"CA","Zip":"90804"},{"Location":"HASKELLS PROSPECTORS","Address":"2400 E 7th St","City":"Long Beach","State":"CA","Zip":"90804"},{"Location":"HOOMAN TOYOTA LONGBEACH","Address":"4401 E Pacific Coast Hwy","City":"Long Beach","State":"CA","Zip":"90804"},{"Location":"HOOMAN TOYOTA OF LONGBEACH","Address":"4401 E Pacific Coast Hwy","City":"Long Beach","State":"CA","Zip":"90804"},{"Location":"IGUANA KELLEYS","Address":"4306 E Anaheim St","City":"Long Beach","State":"CA","Zip":"90804"},{"Location":"JOE JOST'S","Address":"2803 E Anaheim St","City":"Long Beach","State":"CA","Zip":"90804"},{"Location":"LA CONCHA RESTAURANT","Address":"2612 E Anaheim St","City":"Long Beach","State":"CA","Zip":"90804"},{"Location":"LA FITNESS #06115","Address":"4438 E Pacific Coast Hwy","City":"Long Beach","State":"CA","Zip":"90804"},{"Location":"LINDAS MEXICAN DELIGHT","Address":"951 Redondo Ave","City":"Long Beach","State":"CA","Zip":"90804"},{"Location":"LIQUID LOUNGE","Address":"3522 E Anaheim St","City":"Long Beach","State":"CA","Zip":"90804"},{"Location":"LONG BEACH THAI RESTAURANT","Address":"3109 E Anaheim St","City":"Long Beach","State":"CA","Zip":"90804"},{"Location":"LOREN RENCH DDS","Address":"1650 Ximeno Ave 200","City":"Long Beach","State":"CA","Zip":"90804"},{"Location":"LOS COMPADRES RESTAURANT","Address":"3229 E Anaheim St","City":"Long Beach","State":"CA","Zip":"90804"},{"Location":"MACHAN SIGN COMPANY INC","Address":"1209 Euclid Ave","City":"Long Beach","State":"CA","Zip":"90804"},{"Location":"MAY'S THAI KITCHEN","Address":"3832 E Anaheim St","City":"Long Beach","State":"CA","Zip":"90804"},{"Location":"NAT. CLEANERS & LAUNDRY%2CIRENE","Address":"3344 E Pacific Coast Hwy","City":"Long Beach","State":"CA","Zip":"90804"},{"Location":"PACIFIC PALMS HEALTHCARE","Address":"1020 Termino Ave","City":"Long Beach","State":"CA","Zip":"90804"},{"Location":"PCH AUTO SALES OF LONG BEACH","Address":"3000 E Pacific Coast Hwy","City":"Long Beach","State":"CA","Zip":"90804"},{"Location":"PHO HONG PHAT","Address":"3243 E Anaheim St","City":"Long Beach","State":"CA","Zip":"90804"},{"Location":"PREMIER HAIR STYLIST","Address":"3500 E Anaheim St A","City":"Long Beach","State":"CA","Zip":"90804"},{"Location":"RC CORP","Address":"994 Redondo Ave","City":"Long Beach","State":"CA","Zip":"90804"},{"Location":"REGENCY OAKS","Address":"3850 E Esther St","City":"Long Beach","State":"CA","Zip":"90804"},{"Location":"ROUNDIN THIRD","Address":"4133 E Anaheim St","City":"Long Beach","State":"CA","Zip":"90804"},{"Location":"SIGMA CHI SIGMA","Address":"4207 E 7th St","City":"Long Beach","State":"CA","Zip":"90804"},{"Location":"STORE 42","Address":"2038 E 10th St","City":"Long Beach","State":"CA","Zip":"90804"},{"Location":"SYLVIAS BEAUTY CENTER","Address":"2027 E 10th St","City":"Long Beach","State":"CA","Zip":"90804"},{"Location":"THE CROOKED DUCK","Address":"5096 E Pacific Coast Hwy","City":"Long Beach","State":"CA","Zip":"90804"},{"Location":"VISION DESIGN STUDIO","Address":"1342 Coronado Ave","City":"Long Beach","State":"CA","Zip":"90804"},{"Location":"YOUR HOUSE ..","Address":"2838 E Pacific Coast Hwy","City":"Long Beach","State":"CA","Zip":"90804"}]