[{"Location":"AEROXEC OPS","Address":"2735 E Spring St","City":"Long Beach","State":"CA","Zip":"90806"},{"Location":"AMERICAN AUTO FINANCE","Address":"1991 E Spring St","City":"Long Beach","State":"CA","Zip":"90806"},{"Location":"AMERICAN RED CROSS LONG BEACH","Address":"3150 E 29th St","City":"Long Beach","State":"CA","Zip":"90806"},{"Location":"BELLA SALON","Address":"727 W Pacific Coast Hwy","City":"Long Beach","State":"CA","Zip":"90806"},{"Location":"BIG O TIRES 5826","Address":"1181 E Pacific Coast Hwy","City":"Long Beach","State":"CA","Zip":"90806"},{"Location":"BUONOS AUTHENTIC PIZZERIA","Address":"401 W Willow St","City":"Long Beach","State":"CA","Zip":"90806"},{"Location":"BURGER KING #2119","Address":"2600 Long Beach Blvd","City":"Long Beach","State":"CA","Zip":"90806"},{"Location":"CHERYL ALAN DESIGN","Address":"941 E 20th St 211","City":"Long Beach","State":"CA","Zip":"90806"},{"Location":"CHILI VERDE #10","Address":"251 E Willow St","City":"Long Beach","State":"CA","Zip":"90806"},{"Location":"CUSHMAN WAKEFIELD","Address":"3780 Kilroy Airport Way 100","City":"Long Beach","State":"CA","Zip":"90806"},{"Location":"DAVITA #11056 EL DORADO","Address":"2977 Redondo Ave","City":"Long Beach","State":"CA","Zip":"90806"},{"Location":"DAVITA #2140 UCLA LONG BEACH","Address":"1075 E Pacific Coast Hwy 2140","City":"Long Beach","State":"CA","Zip":"90806"},{"Location":"DR AYMAN NEOMAN MD OFFICE","Address":"701 E 28th St 201","City":"Long Beach","State":"CA","Zip":"90806"},{"Location":"ENAIDS WAY INC","Address":"710 W Willow St","City":"Long Beach","State":"CA","Zip":"90806"},{"Location":"EPSON","Address":"3840 Kilroy Airport Way","City":"Long Beach","State":"CA","Zip":"90806"},{"Location":"EXPLOSION SALON","Address":"2387 Atlantic Ave","City":"Long Beach","State":"CA","Zip":"90806"},{"Location":"GOURMET DONUTS","Address":"1800 Atlantic Ave","City":"Long Beach","State":"CA","Zip":"90806"},{"Location":"GRAINGER INDUSTRIAL SUPPLY","Address":"3090 E Airport Way","City":"Long Beach","State":"CA","Zip":"90806"},{"Location":"GREATER LONGBEACH ENDOSCOPY","Address":"2880 Atlantic Ave 180","City":"Long Beach","State":"CA","Zip":"90806"},{"Location":"H&R BODY SHOP","Address":"2086 Pacific Ave","City":"Long Beach","State":"CA","Zip":"90806"},{"Location":"HEALTHCARE PARTNERS","Address":"2600 Redondo Ave","City":"Long Beach","State":"CA","Zip":"90806"},{"Location":"HUBBARD  ERIC R","Address":"2333 Pacific Ave","City":"Long Beach","State":"CA","Zip":"90806"},{"Location":"IGLESIA DE JESUCRI","Address":"2400 Pacific Ave","City":"Long Beach","State":"CA","Zip":"90806"},{"Location":"J & Q LAUNDRYMAT","Address":"2396 Atlantic Ave","City":"Long Beach","State":"CA","Zip":"90806"},{"Location":"JUAREZ BARBERSHOP","Address":"2039 Orange Ave","City":"Long Beach","State":"CA","Zip":"90806"},{"Location":"KILROY REALTY LP","Address":"3780 Kilroy Airport Way 410","City":"Long Beach","State":"CA","Zip":"90806"},{"Location":"KOGAN MD%2C SETH A","Address":"790 E Willow St 100","City":"Long Beach","State":"CA","Zip":"90806"},{"Location":"LA CUSTOM APPAREL","Address":"2680 Temple Ave","City":"Long Beach","State":"CA","Zip":"90806"},{"Location":"LIBERTY  TAX  SERVICE THREE","Address":"2511 Long Beach Blvd","City":"Long Beach","State":"CA","Zip":"90806"},{"Location":"LONG BEACH DENTAL","Address":"2006 Long Beach Blvd E","City":"Long Beach","State":"CA","Zip":"90806"},{"Location":"LONG BEACH MEMORIAL","Address":"2801 Atlantic Ave","City":"Long Beach","State":"CA","Zip":"90806"},{"Location":"LONG BEACH MEMORIAL MED CTR","Address":"450 E Spring St 1","City":"Long Beach","State":"CA","Zip":"90806"},{"Location":"LOS POTROS RESTAURANTE","Address":"1901 E Pacific Coast Hwy","City":"Long Beach","State":"CA","Zip":"90806"},{"Location":"MARINE SPILL RESPONSE","Address":"3300 E Spring St","City":"Long Beach","State":"CA","Zip":"90806"},{"Location":"MCDONALD'S","Address":"2599 Long Beach Blvd","City":"Long Beach","State":"CA","Zip":"90806"},{"Location":"MEMORIAL PODIATRY GROUP","Address":"2325 Pacific Ave","City":"Long Beach","State":"CA","Zip":"90806"},{"Location":"MONICAS BAKERY","Address":"2016 Pacific Ave","City":"Long Beach","State":"CA","Zip":"90806"},{"Location":"NORM WILSON AND SONS","Address":"3400 E Spring St","City":"Long Beach","State":"CA","Zip":"90806"},{"Location":"ON BOARD INTERNATIONAL INC","Address":"2702 Temple Ave","City":"Long Beach","State":"CA","Zip":"90806"},{"Location":"PACIFIC AIR CENTER","Address":"2845 E Spring St","City":"Long Beach","State":"CA","Zip":"90806"},{"Location":"PANCHO VILLA RESTAURANT","Address":"2202 Long Beach Blvd","City":"Long Beach","State":"CA","Zip":"90806"},{"Location":"PBS PUB & CO.","Address":"464 W Willow St","City":"Long Beach","State":"CA","Zip":"90806"},{"Location":"PEDIATRIC MEDICAL CENTER","Address":"2921 Redondo Ave","City":"Long Beach","State":"CA","Zip":"90806"},{"Location":"PHO LONG BEACH","Address":"511 Willow St","City":"Long Beach","State":"CA","Zip":"90806"},{"Location":"POSCA BROTHERS DENTAL LAB","Address":"641 W Willow St","City":"Long Beach","State":"CA","Zip":"90806"},{"Location":"SCAN","Address":"3800 Kilroy Airport Way 100","City":"Long Beach","State":"CA","Zip":"90806"},{"Location":"SOUTHERN CAL. EDISON","Address":"3900 Kilroy Airport Way","City":"Long Beach","State":"CA","Zip":"90806"},{"Location":"SUDDUTH TIRE COMPANY","Address":"2690 Atlantic Ave","City":"Long Beach","State":"CA","Zip":"90806"},{"Location":"SURGERY CENTER OF LONG BEACH","Address":"2880 Atlantic Ave 160","City":"Long Beach","State":"CA","Zip":"90806"},{"Location":"TAN MD JESUS  & JESSE W","Address":"2865 Atlantic Ave 225","City":"Long Beach","State":"CA","Zip":"90806"},{"Location":"TEPE TACO","Address":"2233 Pacific Ave","City":"Long Beach","State":"CA","Zip":"90806"},{"Location":"THE 710 BAR","Address":"329 W Willow St","City":"Long Beach","State":"CA","Zip":"90806"},{"Location":"THE PIT STOP","Address":"500 W Pacific Coast Hwy","City":"Long Beach","State":"CA","Zip":"90806"},{"Location":"TILL 2 CLUB","Address":"475 W Willow St","City":"Long Beach","State":"CA","Zip":"90806"},{"Location":"TIME OUT BAR","Address":"2054 Pacific Ave","City":"Long Beach","State":"CA","Zip":"90806"},{"Location":"TIRE TRAX","Address":"550 E Pacific Coast Hwy","City":"Long Beach","State":"CA","Zip":"90806"},{"Location":"VISIBLE TRANSFORMATION","Address":"1420 E Pacific Coast Hwy","City":"Long Beach","State":"CA","Zip":"90806"},{"Location":"WINGSTOP","Address":"2000 Long Beach Blvd A","City":"Long Beach","State":"CA","Zip":"90806"},{"Location":"ZAPANTA DDS%2C JOSEPH","Address":"722 W Willow St","City":"Long Beach","State":"CA","Zip":"90806"}]