[{"Location":"A I","Address":"5283a E 2nd St","City":"Long Beach","State":"CA","Zip":"90803"},{"Location":"ACAPULCO RESTAURANT #52","Address":"6270 E Pacific Coast Hwy","City":"Long Beach","State":"CA","Zip":"90803"},{"Location":"ADR DUE LLC","Address":"4708 E 2nd St","City":"Long Beach","State":"CA","Zip":"90803"},{"Location":"AHG MANAGEMENT DESIGN LLC","Address":"117 Bay Shore Ave","City":"Long Beach","State":"CA","Zip":"90803"},{"Location":"ALL STATE INSURANCE","Address":"5520 E 2nd St A","City":"Long Beach","State":"CA","Zip":"90803"},{"Location":"BADDELEYS","Address":"3348 E Broadway","City":"Long Beach","State":"CA","Zip":"90803"},{"Location":"BAJA FISH TACOS","Address":"5224 E 2nd St","City":"Long Beach","State":"CA","Zip":"90803"},{"Location":"BAYPOINTE ENTERPRISES","Address":"6272 E Pacific Coast Hwy A","City":"Long Beach","State":"CA","Zip":"90803"},{"Location":"BEACH COMBER HAIR DESIGN","Address":"15 39th Pl","City":"Long Beach","State":"CA","Zip":"90803"},{"Location":"BELLEMONT SHORE CHILDREN","Address":"30 S Termino Ave","City":"Long Beach","State":"CA","Zip":"90803"},{"Location":"BELMOUNT BREWING CO","Address":"25 39th Pl","City":"Long Beach","State":"CA","Zip":"90803"},{"Location":"BIG DADDY'S CIGARS","Address":"5844 E Naples Plz","City":"Long Beach","State":"CA","Zip":"90803"},{"Location":"BIXBY VILLAGE GOLF COURSE","Address":"6180 Bixby Village Dr","City":"Long Beach","State":"CA","Zip":"90803"},{"Location":"BOATHOUSE ON THE BAY","Address":"190 N Marina Dr","City":"Long Beach","State":"CA","Zip":"90803"},{"Location":"BOYNE COIN-O-MATIC","Address":"3620 E Broadway","City":"Long Beach","State":"CA","Zip":"90803"},{"Location":"BUFFALO WILD WINGS #0390","Address":"6314 E Pacific Coast Hwy","City":"Long Beach","State":"CA","Zip":"90803"},{"Location":"CALIFORNIA SHABU L B","Address":"5242 E 2nd St","City":"Long Beach","State":"CA","Zip":"90803"},{"Location":"CAPTIAL LENDING AND REAL ESTAT","Address":"6615 E Pacific Coast Hwy","City":"Long Beach","State":"CA","Zip":"90803"},{"Location":"CBYC","Address":"6291 E Pacific Coast Hwy","City":"Long Beach","State":"CA","Zip":"90803"},{"Location":"CESARS BISTRO","Address":"6240 E Pch","City":"Long Beach","State":"CA","Zip":"90803"},{"Location":"CHRONICTACOS-MARINA","Address":"6602 E Pacific Coast Hwy","City":"Long Beach","State":"CA","Zip":"90803"},{"Location":"CLAIM JUMPER #17","Address":"6501 E Pacific Coast Hwy","City":"Long Beach","State":"CA","Zip":"90803"},{"Location":"CRAB POT RESTAURANT","Address":"215 N Marina Dr","City":"Long Beach","State":"CA","Zip":"90803"},{"Location":"CROWS","Address":"5728 E 2nd St","City":"Long Beach","State":"CA","Zip":"90803"},{"Location":"DAVERSA SALON","Address":"6477 E Pacific Coast Hwy","City":"Long Beach","State":"CA","Zip":"90803"},{"Location":"DERRY 207","Address":"2751 E Broadway","City":"Long Beach","State":"CA","Zip":"90803"},{"Location":"DIANA CHOI","Address":"202 Nieto Ave","City":"Long Beach","State":"CA","Zip":"90803"},{"Location":"DICK SIMON YACHTS INC","Address":"164 N Marina Dr","City":"Long Beach","State":"CA","Zip":"90803"},{"Location":"DOGZ BAR AND GRILL","Address":"5300 E 2nd St","City":"Long Beach","State":"CA","Zip":"90803"},{"Location":"DON LUPE CIGAR LOUNGE","Address":"5305 E 2nd St","City":"Long Beach","State":"CA","Zip":"90803"},{"Location":"ECO VAPE","Address":"203 Santa Ana Ave Steb","City":"Long Beach","State":"CA","Zip":"90803"},{"Location":"EJ MALLOYS","Address":"3411 E Broadway","City":"Long Beach","State":"CA","Zip":"90803"},{"Location":"EL TORITO 7028","Address":"6605 E Pacific Coast Hwy","City":"Long Beach","State":"CA","Zip":"90803"},{"Location":"EL VIAJEIRO","Address":"205 N Marina Dr 3-3","City":"Long Beach","State":"CA","Zip":"90803"},{"Location":"EXECUTIVE FITNESS","Address":"5708 E 2nd St","City":"Long Beach","State":"CA","Zip":"90803"},{"Location":"FLOORING CABINETS SUPPLI","Address":"3737 E 2nd St 305","City":"Long Beach","State":"CA","Zip":"90803"},{"Location":"FORBIDDEN CITY","Address":"6380 E Pacific Coast Hwy A","City":"Long Beach","State":"CA","Zip":"90803"},{"Location":"FRANK GROFF INC","Address":"3730 E Broadway B","City":"Long Beach","State":"CA","Zip":"90803"},{"Location":"GOLDEN STATE TANNING STUDIO","Address":"6246 E Pacific Coast Hwy","City":"Long Beach","State":"CA","Zip":"90803"},{"Location":"HIBACHI SUSHI N GIRLL","Address":"6640 E Pacific Coast Hwy","City":"Long Beach","State":"CA","Zip":"90803"},{"Location":"INCO COMMERCIAL","Address":"6621 E Pacific Coast Hwy 280","City":"Long Beach","State":"CA","Zip":"90803"},{"Location":"JCS #0670-LONG BEACH","Address":"6550 E Marina Dr","City":"Long Beach","State":"CA","Zip":"90803"},{"Location":"KC BRANAGHANS","Address":"5734 E 2nd St","City":"Long Beach","State":"CA","Zip":"90803"},{"Location":"KHOURY'S RESTAURANT","Address":"110 N Marina Dr","City":"Long Beach","State":"CA","Zip":"90803"},{"Location":"KIHON","Address":"5662 E 2nd St","City":"Long Beach","State":"CA","Zip":"90803"},{"Location":"KINGDOM PARTNER SOLUTIONS LLC","Address":"194 N Marina Dr 201","City":"Long Beach","State":"CA","Zip":"90803"},{"Location":"LEGENDS","Address":"5236 E 2nd St","City":"Long Beach","State":"CA","Zip":"90803"},{"Location":"LONG BEACH PIZZA","Address":"3430 E Broadway","City":"Long Beach","State":"CA","Zip":"90803"},{"Location":"LONG BEACH PIZZA CO","Address":"3430 E Broadway","City":"Long Beach","State":"CA","Zip":"90803"},{"Location":"LONG BEACH YACHT CLUB -FDD98-3","Address":"6201 E Appian Way","City":"Long Beach","State":"CA","Zip":"90803"},{"Location":"LUCILLES SMOKEHOUSE BBQ","Address":"6257 E 2nd St","City":"Long Beach","State":"CA","Zip":"90803"},{"Location":"M.A.D.E","Address":"4821 E 2nd St","City":"Long Beach","State":"CA","Zip":"90803"},{"Location":"MAGIC LAMP RESTAURANT","Address":"5020 E 2nd St","City":"Long Beach","State":"CA","Zip":"90803"},{"Location":"MALARKEYS GRILL","Address":"168 N Marina Dr","City":"Long Beach","State":"CA","Zip":"90803"},{"Location":"MARINA SHIP YARD","Address":"6400 E Marina Dr","City":"Long Beach","State":"CA","Zip":"90803"},{"Location":"MCKEE","Address":"6200 E Pacific Coast Hwy B","City":"Long Beach","State":"CA","Zip":"90803"},{"Location":"MURPHY'S PUB AT BELMONT","Address":"4918 E 2nd St","City":"Long Beach","State":"CA","Zip":"90803"},{"Location":"NAPLES RIB COMPANY","Address":"5800 E 2nd St","City":"Long Beach","State":"CA","Zip":"90803"},{"Location":"NEWPORT PACIFIC","Address":"6230 E Marina View Dr","City":"Long Beach","State":"CA","Zip":"90803"},{"Location":"PAPALUCCIS","Address":"4611 E 2nd St","City":"Long Beach","State":"CA","Zip":"90803"},{"Location":"PARADIS","Address":"5305 E 2nd St","City":"Long Beach","State":"CA","Zip":"90803"},{"Location":"PARK PANTRY","Address":"2104 E Broadway","City":"Long Beach","State":"CA","Zip":"90803"},{"Location":"PHILS BARBER SHOP","Address":"5328 E 2nd St","City":"Long Beach","State":"CA","Zip":"90803"},{"Location":"PICARELLIS","Address":"6204 E Pacific Coast Hwy","City":"Long Beach","State":"CA","Zip":"90803"},{"Location":"PINTS SPORTS BAR AND GRILL","Address":"5755 E Pacific Coast Hwy","City":"Long Beach","State":"CA","Zip":"90803"},{"Location":"QUINNS IRISH PUB","Address":"200 Nieto Ave","City":"Long Beach","State":"CA","Zip":"90803"},{"Location":"R.K. PROPERTIES","Address":"3737 E Broadway","City":"Long Beach","State":"CA","Zip":"90803"},{"Location":"RILEY'S ON 2ND","Address":"5331 E 2nd St","City":"Long Beach","State":"CA","Zip":"90803"},{"Location":"SABABA ENTERTAINMENT%2C INC","Address":"6527 E Pacific Coast Hwy 339","City":"Long Beach","State":"CA","Zip":"90803"},{"Location":"SAPPORO SUSHI","Address":"5735 E Pacific Coast Hwy","City":"Long Beach","State":"CA","Zip":"90803"},{"Location":"SCHOOLS FIRST FEDERAL CREDIT 1","Address":"4725 E 2nd St","City":"Long Beach","State":"CA","Zip":"90803"},{"Location":"SCHOONER OR LATER","Address":"241 N Marina Dr","City":"Long Beach","State":"CA","Zip":"90803"},{"Location":"SEAL BEACH YACHT CLUB","Address":"255 N Marina Dr","City":"Long Beach","State":"CA","Zip":"90803"},{"Location":"SHANNON'S BAYSHORE","Address":"5335 E 2nd St","City":"Long Beach","State":"CA","Zip":"90803"},{"Location":"SHARKEEZ","Address":"5100 E 2nd St","City":"Long Beach","State":"CA","Zip":"90803"},{"Location":"SHARP HAIR STYLES","Address":"6642 E Pch  #104","City":"Long Beach","State":"CA","Zip":"90803"},{"Location":"SIMMZYS RESTAURANT","Address":"5271 E 2nd St","City":"Long Beach","State":"CA","Zip":"90803"},{"Location":"STRATEGICPORTFOLIO ADVIS","Address":"194 N Marina Dr 202","City":"Long Beach","State":"CA","Zip":"90803"},{"Location":"SUPER MEX RESTAURANT","Address":"4709 E 2nd St","City":"Long Beach","State":"CA","Zip":"90803"},{"Location":"SUSHI AI","Address":"5262 E 2nd St 101","City":"Long Beach","State":"CA","Zip":"90803"},{"Location":"TACOS BELMONT","Address":"3870 E Ocean Blvd","City":"Long Beach","State":"CA","Zip":"90803"},{"Location":"TAVERN ON 2","Address":"5110 E 2nd St","City":"Long Beach","State":"CA","Zip":"90803"},{"Location":"TD AMERITRADE #05050","Address":"6636 E Pacific Coast Hwy","City":"Long Beach","State":"CA","Zip":"90803"},{"Location":"THAI GOURMET BY SRI MAYA","Address":"4722 E 2nd St","City":"Long Beach","State":"CA","Zip":"90803"},{"Location":"THE 3636 CLUB","Address":"3636 E Broadway","City":"Long Beach","State":"CA","Zip":"90803"},{"Location":"THE BEACH ON 2ND ST","Address":"5308a E 2nd St","City":"Long Beach","State":"CA","Zip":"90803"},{"Location":"THE GASLAMP","Address":"6251 E Pacific Coast Hwy","City":"Long Beach","State":"CA","Zip":"90803"},{"Location":"THE RENO ROOM","Address":"3400 E Broadway","City":"Long Beach","State":"CA","Zip":"90803"},{"Location":"TILTED KILT","Address":"6575 E Pacific Coast Hwy","City":"Long Beach","State":"CA","Zip":"90803"},{"Location":"WELLS FARGO ADVISOR","Address":"6700 E Pacific Coast Hwy","City":"Long Beach","State":"CA","Zip":"90803"},{"Location":"WHOLE FOODS MARKET GROCE","Address":"6550 E Pacific Coast Hwy","City":"Long Beach","State":"CA","Zip":"90803"},{"Location":"WS TWO 55 INC","Address":"5726 E 7th St","City":"Long Beach","State":"CA","Zip":"90803"},{"Location":"YEN SUSHI N SAKE BAR","Address":"4905 E 2nd St","City":"Long Beach","State":"CA","Zip":"90803"},{"Location":"A I","Address":"5283a E 2nd St","City":"Long Beach","State":"CA","Zip":"90803"},{"Location":"ACAPULCO RESTAURANT #52","Address":"6270 E Pacific Coast Hwy","City":"Long Beach","State":"CA","Zip":"90803"},{"Location":"ADR DUE LLC","Address":"4708 E 2nd St","City":"Long Beach","State":"CA","Zip":"90803"},{"Location":"AHG MANAGEMENT DESIGN LLC","Address":"117 Bay Shore Ave","City":"Long Beach","State":"CA","Zip":"90803"},{"Location":"ALL STATE INSURANCE","Address":"5520 E 2nd St A","City":"Long Beach","State":"CA","Zip":"90803"},{"Location":"BADDELEYS","Address":"3348 E Broadway","City":"Long Beach","State":"CA","Zip":"90803"},{"Location":"BAJA FISH TACOS","Address":"5224 E 2nd St","City":"Long Beach","State":"CA","Zip":"90803"},{"Location":"BAYPOINTE ENTERPRISES","Address":"6272 E Pacific Coast Hwy A","City":"Long Beach","State":"CA","Zip":"90803"},{"Location":"BEACH COMBER HAIR DESIGN","Address":"15 39th Pl","City":"Long Beach","State":"CA","Zip":"90803"},{"Location":"BELLEMONT SHORE CHILDREN","Address":"30 S Termino Ave","City":"Long Beach","State":"CA","Zip":"90803"},{"Location":"BELMOUNT BREWING CO","Address":"25 39th Pl","City":"Long Beach","State":"CA","Zip":"90803"},{"Location":"BIG DADDY'S CIGARS","Address":"5844 E Naples Plz","City":"Long Beach","State":"CA","Zip":"90803"},{"Location":"BIXBY VILLAGE GOLF COURSE","Address":"6180 Bixby Village Dr","City":"Long Beach","State":"CA","Zip":"90803"},{"Location":"BOATHOUSE ON THE BAY","Address":"190 N Marina Dr","City":"Long Beach","State":"CA","Zip":"90803"},{"Location":"BOYNE COIN-O-MATIC","Address":"3620 E Broadway","City":"Long Beach","State":"CA","Zip":"90803"},{"Location":"BUFFALO WILD WINGS #0390","Address":"6314 E Pacific Coast Hwy","City":"Long Beach","State":"CA","Zip":"90803"},{"Location":"CALIFORNIA SHABU L B","Address":"5242 E 2nd St","City":"Long Beach","State":"CA","Zip":"90803"},{"Location":"CAPTIAL LENDING AND REAL ESTAT","Address":"6615 E Pacific Coast Hwy","City":"Long Beach","State":"CA","Zip":"90803"},{"Location":"CBYC","Address":"6291 E Pacific Coast Hwy","City":"Long Beach","State":"CA","Zip":"90803"},{"Location":"CESARS BISTRO","Address":"6240 E Pch","City":"Long Beach","State":"CA","Zip":"90803"},{"Location":"CHRONICTACOS-MARINA","Address":"6602 E Pacific Coast Hwy","City":"Long Beach","State":"CA","Zip":"90803"},{"Location":"CLAIM JUMPER #17","Address":"6501 E Pacific Coast Hwy","City":"Long Beach","State":"CA","Zip":"90803"},{"Location":"CRAB POT RESTAURANT","Address":"215 N Marina Dr","City":"Long Beach","State":"CA","Zip":"90803"},{"Location":"CROWS","Address":"5728 E 2nd St","City":"Long Beach","State":"CA","Zip":"90803"},{"Location":"DAVERSA SALON","Address":"6477 E Pacific Coast Hwy","City":"Long Beach","State":"CA","Zip":"90803"},{"Location":"DERRY 207","Address":"2751 E Broadway","City":"Long Beach","State":"CA","Zip":"90803"},{"Location":"DIANA CHOI","Address":"202 Nieto Ave","City":"Long Beach","State":"CA","Zip":"90803"},{"Location":"DICK SIMON YACHTS INC","Address":"164 N Marina Dr","City":"Long Beach","State":"CA","Zip":"90803"},{"Location":"DOGZ BAR AND GRILL","Address":"5300 E 2nd St","City":"Long Beach","State":"CA","Zip":"90803"},{"Location":"DON LUPE CIGAR LOUNGE","Address":"5305 E 2nd St","City":"Long Beach","State":"CA","Zip":"90803"},{"Location":"ECO VAPE","Address":"203 Santa Ana Ave Steb","City":"Long Beach","State":"CA","Zip":"90803"},{"Location":"EJ MALLOYS","Address":"3411 E Broadway","City":"Long Beach","State":"CA","Zip":"90803"},{"Location":"EL TORITO 7028","Address":"6605 E Pacific Coast Hwy","City":"Long Beach","State":"CA","Zip":"90803"},{"Location":"EL VIAJEIRO","Address":"205 N Marina Dr 3-3","City":"Long Beach","State":"CA","Zip":"90803"},{"Location":"EXECUTIVE FITNESS","Address":"5708 E 2nd St","City":"Long Beach","State":"CA","Zip":"90803"},{"Location":"FLOORING CABINETS SUPPLI","Address":"3737 E 2nd St 305","City":"Long Beach","State":"CA","Zip":"90803"},{"Location":"FORBIDDEN CITY","Address":"6380 E Pacific Coast Hwy A","City":"Long Beach","State":"CA","Zip":"90803"},{"Location":"FRANK GROFF INC","Address":"3730 E Broadway B","City":"Long Beach","State":"CA","Zip":"90803"},{"Location":"GOLDEN STATE TANNING STUDIO","Address":"6246 E Pacific Coast Hwy","City":"Long Beach","State":"CA","Zip":"90803"},{"Location":"HIBACHI SUSHI N GIRLL","Address":"6640 E Pacific Coast Hwy","City":"Long Beach","State":"CA","Zip":"90803"},{"Location":"INCO COMMERCIAL","Address":"6621 E Pacific Coast Hwy 280","City":"Long Beach","State":"CA","Zip":"90803"},{"Location":"JCS #0670-LONG BEACH","Address":"6550 E Marina Dr","City":"Long Beach","State":"CA","Zip":"90803"},{"Location":"KC BRANAGHANS","Address":"5734 E 2nd St","City":"Long Beach","State":"CA","Zip":"90803"},{"Location":"KHOURY'S RESTAURANT","Address":"110 N Marina Dr","City":"Long Beach","State":"CA","Zip":"90803"},{"Location":"KIHON","Address":"5662 E 2nd St","City":"Long Beach","State":"CA","Zip":"90803"},{"Location":"KINGDOM PARTNER SOLUTIONS LLC","Address":"194 N Marina Dr 201","City":"Long Beach","State":"CA","Zip":"90803"},{"Location":"LEGENDS","Address":"5236 E 2nd St","City":"Long Beach","State":"CA","Zip":"90803"},{"Location":"LONG BEACH PIZZA","Address":"3430 E Broadway","City":"Long Beach","State":"CA","Zip":"90803"},{"Location":"Long Beach Pizza Co","Address":"3430 E Broadway","City":"Long Beach","State":"CA","Zip":"90803"},{"Location":"LONG BEACH YACHT CLUB -FDD98-3","Address":"6201 E Appian Way","City":"Long Beach","State":"CA","Zip":"90803"},{"Location":"LUCILLES SMOKEHOUSE BBQ","Address":"6257 E 2nd St","City":"Long Beach","State":"CA","Zip":"90803"},{"Location":"M.A.D.E","Address":"4821 E 2nd St","City":"Long Beach","State":"CA","Zip":"90803"},{"Location":"MAGIC LAMP RESTAURANT","Address":"5020 E 2nd St","City":"Long Beach","State":"CA","Zip":"90803"},{"Location":"MALARKEYS GRILL","Address":"168 N Marina Dr","City":"Long Beach","State":"CA","Zip":"90803"},{"Location":"MARINA SHIP YARD","Address":"6400 E Marina Dr","City":"Long Beach","State":"CA","Zip":"90803"},{"Location":"MCKEE","Address":"6200 E Pacific Coast Hwy B","City":"Long Beach","State":"CA","Zip":"90803"},{"Location":"MURPHY'S PUB AT BELMONT","Address":"4918 E 2nd St","City":"Long Beach","State":"CA","Zip":"90803"},{"Location":"NAPLES RIB COMPANY","Address":"5800 E 2nd St","City":"Long Beach","State":"CA","Zip":"90803"},{"Location":"NEWPORT PACIFIC","Address":"6230 E Marina View Dr","City":"Long Beach","State":"CA","Zip":"90803"},{"Location":"PAPALUCCIS","Address":"4611 E 2nd St","City":"Long Beach","State":"CA","Zip":"90803"},{"Location":"PARADIS","Address":"5305 E 2nd St","City":"Long Beach","State":"CA","Zip":"90803"},{"Location":"PARK PANTRY","Address":"2104 E Broadway","City":"Long Beach","State":"CA","Zip":"90803"},{"Location":"PHILS BARBER SHOP","Address":"5328 E 2nd St","City":"Long Beach","State":"CA","Zip":"90803"},{"Location":"PICARELLIS","Address":"6204 E Pacific Coast Hwy","City":"Long Beach","State":"CA","Zip":"90803"},{"Location":"PINTS SPORTS BAR AND GRILL","Address":"5755 E Pacific Coast Hwy","City":"Long Beach","State":"CA","Zip":"90803"},{"Location":"QUINNS IRISH PUB","Address":"200 Nieto Ave","City":"Long Beach","State":"CA","Zip":"90803"},{"Location":"R.K. PROPERTIES","Address":"3737 E Broadway","City":"Long Beach","State":"CA","Zip":"90803"},{"Location":"RILEY'S ON 2ND","Address":"5331 E 2nd St","City":"Long Beach","State":"CA","Zip":"90803"},{"Location":"SABABA ENTERTAINMENT%2C INC","Address":"6527 E Pacific Coast Hwy 339","City":"Long Beach","State":"CA","Zip":"90803"},{"Location":"SAPPORO SUSHI","Address":"5735 E Pacific Coast Hwy","City":"Long Beach","State":"CA","Zip":"90803"},{"Location":"SCHOOLS FIRST FEDERAL CREDIT 1","Address":"4725 E 2nd St","City":"Long Beach","State":"CA","Zip":"90803"},{"Location":"SCHOONER OR LATER","Address":"241 N Marina Dr","City":"Long Beach","State":"CA","Zip":"90803"},{"Location":"SEAL BEACH YACHT CLUB","Address":"255 N Marina Dr","City":"Long Beach","State":"CA","Zip":"90803"},{"Location":"SHANNON'S BAYSHORE","Address":"5335 E 2nd St","City":"Long Beach","State":"CA","Zip":"90803"},{"Location":"SHARKEEZ","Address":"5100 E 2nd St","City":"Long Beach","State":"CA","Zip":"90803"},{"Location":"SHARP HAIR STYLES","Address":"6642 E Pch  #104","City":"Long Beach","State":"CA","Zip":"90803"},{"Location":"SIMMZYS RESTAURANT","Address":"5271 E 2nd St","City":"Long Beach","State":"CA","Zip":"90803"},{"Location":"STRATEGICPORTFOLIO ADVIS","Address":"194 N Marina Dr 202","City":"Long Beach","State":"CA","Zip":"90803"},{"Location":"SUPER MEX RESTAURANT","Address":"4709 E 2nd St","City":"Long Beach","State":"CA","Zip":"90803"},{"Location":"SUSHI AI","Address":"5262 E 2nd St 101","City":"Long Beach","State":"CA","Zip":"90803"},{"Location":"TACOS BELMONT","Address":"3870 E Ocean Blvd","City":"Long Beach","State":"CA","Zip":"90803"},{"Location":"TAVERN ON 2","Address":"5110 E 2nd St","City":"Long Beach","State":"CA","Zip":"90803"},{"Location":"TD AMERITRADE #05050","Address":"6636 E Pacific Coast Hwy","City":"Long Beach","State":"CA","Zip":"90803"},{"Location":"THAI GOURMET BY SRI MAYA","Address":"4722 E 2nd St","City":"Long Beach","State":"CA","Zip":"90803"},{"Location":"THE 3636 CLUB","Address":"3636 E Broadway","City":"Long Beach","State":"CA","Zip":"90803"},{"Location":"THE BEACH ON 2ND ST","Address":"5308a E 2nd St","City":"Long Beach","State":"CA","Zip":"90803"},{"Location":"THE GASLAMP","Address":"6251 E Pacific Coast Hwy","City":"Long Beach","State":"CA","Zip":"90803"},{"Location":"THE RENO ROOM","Address":"3400 E Broadway","City":"Long Beach","State":"CA","Zip":"90803"},{"Location":"TILTED KILT","Address":"6575 E Pacific Coast Hwy","City":"Long Beach","State":"CA","Zip":"90803"},{"Location":"WELLS FARGO ADVISOR","Address":"6700 E Pacific Coast Hwy","City":"Long Beach","State":"CA","Zip":"90803"},{"Location":"WHOLE FOODS MARKET GROCE","Address":"6550 E Pacific Coast Hwy","City":"Long Beach","State":"CA","Zip":"90803"},{"Location":"WS TWO 55 INC","Address":"5726 E 7th St","City":"Long Beach","State":"CA","Zip":"90803"},{"Location":"YEN SUSHI N SAKE BAR","Address":"4905 E 2nd St","City":"Long Beach","State":"CA","Zip":"90803"}]