[{"Location":"24 HOUR FITNESS #186","Address":"3030 N Bellflower Blvd","City":"Long Beach","State":"CA","Zip":"90808"},{"Location":"5IRIVELLOS SPORTS SHOP","Address":"4115 N Viking Way","City":"Long Beach","State":"CA","Zip":"90808"},{"Location":"ALLERGY & ASTHMA CARE CENTER","Address":"3816 Woodruff Ave 209","City":"Long Beach","State":"CA","Zip":"90808"},{"Location":"AMBITIONS KEYNOTE","Address":"6127 E Keynote St","City":"Long Beach","State":"CA","Zip":"90808"},{"Location":"AMBITIONS SUNFIELD","Address":"4734 Sunfield Ave","City":"Long Beach","State":"CA","Zip":"90808"},{"Location":"AMBITIONSALBURY AVE","Address":"3836 Albury Ave","City":"Long Beach","State":"CA","Zip":"90808"},{"Location":"AMERICAN LEGION","Address":"5938 E Parkcrest St","City":"Long Beach","State":"CA","Zip":"90808"},{"Location":"BEACH CITY COLLEGE","Address":"4901 E Carson St","City":"Long Beach","State":"CA","Zip":"90808"},{"Location":"BONDED BY ROOTS","Address":"4148 Norse Way","City":"Long Beach","State":"CA","Zip":"90808"},{"Location":"BOOMERS COCKTAIL LOUNGE","Address":"5456 E Del Amo Blvd","City":"Long Beach","State":"CA","Zip":"90808"},{"Location":"BOS CIGAR LONG BEACH","Address":"4501 E Carson St 114","City":"Long Beach","State":"CA","Zip":"90808"},{"Location":"CHICK-FIL-A AT LONG BEAC","Address":"7681 Carson Blvd","City":"Long Beach","State":"CA","Zip":"90808"},{"Location":"CITY OF LONG BEACH","Address":"4100 E Donald Douglas Dr","City":"Long Beach","State":"CA","Zip":"90808"},{"Location":"COURTYARD BY MARRIOTT LONG BEA","Address":"3841 Lakewood Blvd","City":"Long Beach","State":"CA","Zip":"90808"},{"Location":"DAUGHTRY CAFE","Address":"4100 E Donald Douglas Dr","City":"Long Beach","State":"CA","Zip":"90808"},{"Location":"DEMPSEY'S SPORTS BAR & GRILL","Address":"3583 N Los Coyotes Diagonal","City":"Long Beach","State":"CA","Zip":"90808"},{"Location":"DUSTIN L ROWE DDS INC","Address":"3320 N Los Coyotes Diagonal 100","City":"Long Beach","State":"CA","Zip":"90808"},{"Location":"EL BURRITO GRILL","Address":"4101 N Bellflower Blvd A","City":"Long Beach","State":"CA","Zip":"90808"},{"Location":"EL TORITO 7235","Address":"7591 Carson Blvd","City":"Long Beach","State":"CA","Zip":"90808"},{"Location":"ELDORADO BAR & GRILL","Address":"3014 N Studebaker Rd","City":"Long Beach","State":"CA","Zip":"90808"},{"Location":"EYE PHYSICAN OF LONG BEA","Address":"3325 Palo Verde Ave 103","City":"Long Beach","State":"CA","Zip":"90808"},{"Location":"FITNESS 19","Address":"6337 E Spring St","City":"Long Beach","State":"CA","Zip":"90808"},{"Location":"FLIGHT SAFETY INTL","Address":"4330 E Donald Douglas Dr","City":"Long Beach","State":"CA","Zip":"90808"},{"Location":"FUSION SUSHI LONG BEACH","Address":"6415 E Spring St","City":"Long Beach","State":"CA","Zip":"90808"},{"Location":"GULFSTREAM","Address":"3495 N Lakewood Blvd","City":"Long Beach","State":"CA","Zip":"90808"},{"Location":"GULFSTREAM AEROSPACE CORP","Address":"4150 E Donald Douglas Dr","City":"Long Beach","State":"CA","Zip":"90808"},{"Location":"HEARTWELL  PONY COLT BASEBALL","Address":"5551 E Parkcrest St","City":"Long Beach","State":"CA","Zip":"90808"},{"Location":"HEARTWELL CAL RIPKEN","Address":"6242 E Carson Street","City":"Long Beach","State":"CA","Zip":"90808"},{"Location":"HEARTWELL GOLF COURSE","Address":"6700 E Carson St","City":"Long Beach","State":"CA","Zip":"90808"},{"Location":"HFR LLC","Address":"8105 E Wardlow Rd","City":"Long Beach","State":"CA","Zip":"90808"},{"Location":"ISLANDS RESTAURANTS #55","Address":"7531 Carson Blvd B-2","City":"Long Beach","State":"CA","Zip":"90808"},{"Location":"JAGAR HAIR STUDIO 2","Address":"4416 E Village Rd","City":"Long Beach","State":"CA","Zip":"90808"},{"Location":"JET BLUE AIRWAYS","Address":"4225 E Donald Douglas Dr","City":"Long Beach","State":"CA","Zip":"90808"},{"Location":"JETFLITE  INTERNATIONAL","Address":"4310 E Donald Douglas Dr","City":"Long Beach","State":"CA","Zip":"90808"},{"Location":"LBS  FINANCIAL","Address":"6417 E Spring St","City":"Long Beach","State":"CA","Zip":"90808"},{"Location":"LONG BEACH AIRPORT","Address":"4100 E Donald Douglas Dr 5","City":"Long Beach","State":"CA","Zip":"90808"},{"Location":"LONG BEACH AIRPORT","Address":"4100 E Donald Douglas Dr","City":"Long Beach","State":"CA","Zip":"90808"},{"Location":"LONG BEACH FIRE DEPT #1","Address":"3205 N Lakewood Blvd","City":"Long Beach","State":"CA","Zip":"90808"},{"Location":"LONG BEACH FIRE DEPT #2","Address":"3205 N Lakewood Blvd","City":"Long Beach","State":"CA","Zip":"90808"},{"Location":"LONG BEACH POLICE DEPT","Address":"3205 N Lakewood Blvd","City":"Long Beach","State":"CA","Zip":"90808"},{"Location":"LUCILLE'S SMOKEHOUSE BBQ","Address":"7411 Carson Blvd","City":"Long Beach","State":"CA","Zip":"90808"},{"Location":"PACIFIC SHORES MEDICAL GROUP","Address":"3747 Worsham Ave 101","City":"Long Beach","State":"CA","Zip":"90808"},{"Location":"PANVIMARN THAI CUISINE","Address":"4101 N Bellflower Blvd C","City":"Long Beach","State":"CA","Zip":"90808"},{"Location":"ROADHOUSE GRILL","Address":"7391 Carson Blvd","City":"Long Beach","State":"CA","Zip":"90808"},{"Location":"SAIGON EXPRESS","Address":"4501 E Carson St","City":"Long Beach","State":"CA","Zip":"90808"},{"Location":"SHEAR  RHYTHM","Address":"4126 N Viking Way 220","City":"Long Beach","State":"CA","Zip":"90808"},{"Location":"SKYLINK GOLF COURSE","Address":"4800 E Wardlow Rd","City":"Long Beach","State":"CA","Zip":"90808"},{"Location":"ST MARIA GORETTI CHURCH","Address":"3954 Palo Verde Ave","City":"Long Beach","State":"CA","Zip":"90808"},{"Location":"STATIC SALON AND SPA","Address":"5929 E Spring St","City":"Long Beach","State":"CA","Zip":"90808"},{"Location":"STIKS AND STOHNS","Address":"4111 N Viking Way","City":"Long Beach","State":"CA","Zip":"90808"},{"Location":"SUNWEST DENTAL","Address":"5469 E Carson St","City":"Long Beach","State":"CA","Zip":"90808"},{"Location":"SURE HAVEN 3550","Address":"3550 Fela Ave","City":"Long Beach","State":"CA","Zip":"90808"},{"Location":"SURE HAVEN INC 10","Address":"7900 E Tarma St","City":"Long Beach","State":"CA","Zip":"90808"},{"Location":"SURE HAVEN12","Address":"3849 Chatwin Ave","City":"Long Beach","State":"CA","Zip":"90808"},{"Location":"TAYLORS CIGAR LOUNGE","Address":"5937 E Spring St","City":"Long Beach","State":"CA","Zip":"90808"},{"Location":"TGI FRIDAY'S #1116","Address":"7221 Carson Blvd","City":"Long Beach","State":"CA","Zip":"90808"},{"Location":"THE NAIL CLUB","Address":"3960 N Studebaker Rd","City":"Long Beach","State":"CA","Zip":"90808"},{"Location":"THE PARADIES SHOPS","Address":"4235 E Donald Douglas Dr","City":"Long Beach","State":"CA","Zip":"90808"},{"Location":"THIRSTY ISLE","Address":"4317 E Carson St","City":"Long Beach","State":"CA","Zip":"90808"},{"Location":"TRACY'S BAR & GRILL","Address":"5511 E Spring St","City":"Long Beach","State":"CA","Zip":"90808"},{"Location":"TRANSPORTATION SECURITY ADMIN","Address":"4401 E Donald Douglas Dr 100","City":"Long Beach","State":"CA","Zip":"90808"},{"Location":"TSA LONG BEACH DAUGHERTY FIELD","Address":"4100 E Donald Douglas Dr","City":"Long Beach","State":"CA","Zip":"90808"},{"Location":"FELAHY LAW GROUP","Address":"4000 Cover St 100","City":"Longbeach","State":"CA","Zip":"90808"}]