[{"Location":"ANHEUSER-BUSCH WHLSLR #80465","Address":"20499 S Reeves Ave","City":"Carson","State":"CA","Zip":"90810"},{"Location":"BERKLEY INT PACKAGEING","Address":"2725 E Elpresicio Street","City":"Carson","State":"CA","Zip":"90810"},{"Location":"CARGO CARGO","Address":"2710 E El Presidio St 150","City":"Carson","State":"CA","Zip":"90810"},{"Location":"CHINGS ISLAND CO","Address":"2659 E Carson St B","City":"Carson","State":"CA","Zip":"90810"},{"Location":"COSWAY COMPANY INC","Address":"20844 Reeves Ave","City":"Carson","State":"CA","Zip":"90810"},{"Location":"MV TRANSPORTATION","Address":"21222 S Wilmington Ave","City":"Carson","State":"CA","Zip":"90810"},{"Location":"SANTIAGO TRAILER REPAIR INC","Address":"21119 S Wilmington Ave","City":"Carson","State":"CA","Zip":"90810"},{"Location":"SONY ELECTRONICS","Address":"2201 E Carson St","City":"Carson","State":"CA","Zip":"90810"},{"Location":"AMERICAN LEGION","Address":"21022 S Alameda St","City":"Long Beach","State":"CA","Zip":"90810"},{"Location":"ANCON TRANSPORTATION SERVICE","Address":"2132 E Dominguez St","City":"Long Beach","State":"CA","Zip":"90810"},{"Location":"ARTEMIS PET FOOD CO.","Address":"21640 S Wilmington Ave","City":"Long Beach","State":"CA","Zip":"90810"},{"Location":"BONANZA RESTAURANT","Address":"1810 W Willow St","City":"Long Beach","State":"CA","Zip":"90810"},{"Location":"BREAK ROOM","Address":"1920 W Willow St","City":"Long Beach","State":"CA","Zip":"90810"},{"Location":"CAL COAST PACKING","Address":"2040 E 220th St","City":"Long Beach","State":"CA","Zip":"90810"},{"Location":"CALI FAMOUS","Address":"20934 S Sante Fe Avee","City":"Long Beach","State":"CA","Zip":"90810"},{"Location":"COSWAY COMPANY INC","Address":"20633 S Fordyce Ave","City":"Long Beach","State":"CA","Zip":"90810"},{"Location":"CROWS NEST","Address":"1912 W Willow St","City":"Long Beach","State":"CA","Zip":"90810"},{"Location":"CRUISE AMERICA","Address":"2233 E 223rd St","City":"Long Beach","State":"CA","Zip":"90810"},{"Location":"EDNAS FILIPINO CUISINE","Address":"2540 Santa Fee Ave","City":"Long Beach","State":"CA","Zip":"90810"},{"Location":"FAB WEST SALOON LLC","Address":"1616 W Pacific Coast Hwy","City":"Long Beach","State":"CA","Zip":"90810"},{"Location":"FAMOUS HAIR & NAIL SALON","Address":"1336 W Willow St 104","City":"Long Beach","State":"CA","Zip":"90810"},{"Location":"FANTASTIC BURGER","Address":"3665 Santa Fe Ave","City":"Long Beach","State":"CA","Zip":"90810"},{"Location":"FARMERS INSURANCE","Address":"1424 W Willow St","City":"Long Beach","State":"CA","Zip":"90810"},{"Location":"FELYS H2O","Address":"2521 Santa Fe Ave","City":"Long Beach","State":"CA","Zip":"90810"},{"Location":"FLUOR ENTERPRISES INC","Address":"1500 Hughes Way","City":"Long Beach","State":"CA","Zip":"90810"},{"Location":"HIGHLINE TRANSPORT","Address":"20915 S Lamberton Ave","City":"Long Beach","State":"CA","Zip":"90810"},{"Location":"HTX INTERNATIONAL","Address":"2637 E El Presidio St","City":"Long Beach","State":"CA","Zip":"90810"},{"Location":"IRWIN INDUSTRIES","Address":"1580 W Carson St","City":"Long Beach","State":"CA","Zip":"90810"},{"Location":"J AND J SMOKE HOUSE BBQ","Address":"1555 W Willow St","City":"Long Beach","State":"CA","Zip":"90810"},{"Location":"J B I","Address":"2650 E El Presidio St","City":"Long Beach","State":"CA","Zip":"90810"},{"Location":"JVC","Address":"2201 E Dominguez St","City":"Long Beach","State":"CA","Zip":"90810"},{"Location":"KENWOOD USA CORP","Address":"2201 E Dominguez St","City":"Long Beach","State":"CA","Zip":"90810"},{"Location":"LAKESHORE LEARNING","Address":"20974 S Santa Fe Ave","City":"Long Beach","State":"CA","Zip":"90810"},{"Location":"MANGAN INC","Address":"3901 Via Oro Ave","City":"Long Beach","State":"CA","Zip":"90810"},{"Location":"METRO NETWORKS","Address":"1500 Hughes Way B100","City":"Long Beach","State":"CA","Zip":"90810"},{"Location":"MTA METROPOLITAN AUTHORITY 2","Address":"4350 E 208th St","City":"Long Beach","State":"CA","Zip":"90810"},{"Location":"PANAMSAT","Address":"1600 Forbes Way","City":"Long Beach","State":"CA","Zip":"90810"},{"Location":"PANDA BOWL","Address":"1508 W Willow St","City":"Long Beach","State":"CA","Zip":"90810"},{"Location":"PANGAN","Address":"2529 Santa Fe Ave","City":"Long Beach","State":"CA","Zip":"90810"},{"Location":"PIONEER ELECTRONICS","Address":"1925 E Dominguez St","City":"Long Beach","State":"CA","Zip":"90810"},{"Location":"PRICE TRANSFER","Address":"2711 E Dominguez St","City":"Long Beach","State":"CA","Zip":"90810"},{"Location":"RADIOLOGY DEPORT DEVISES","Address":"1904 E Dominguez St","City":"Long Beach","State":"CA","Zip":"90810"},{"Location":"RHODIA INC","Address":"20720 S Wilmington Ave","City":"Long Beach","State":"CA","Zip":"90810"},{"Location":"SA RECYCLING","Address":"22606 S Alameda St","City":"Long Beach","State":"CA","Zip":"90810"},{"Location":"SANTA FE CONVALESCENT","Address":"3294 Santa Fe Ave","City":"Long Beach","State":"CA","Zip":"90810"},{"Location":"SEACHROME CORP","Address":"1906 E Dominguez St","City":"Long Beach","State":"CA","Zip":"90810"},{"Location":"SHELL OIL CARSON","Address":"20945 S Wilmington Ave","City":"Long Beach","State":"CA","Zip":"90810"},{"Location":"SIERRA PACIFIC","Address":"4041 Via Oro Ave","City":"Long Beach","State":"CA","Zip":"90810"},{"Location":"TAILGATE BAR","Address":"2503 Santa Fe Ave","City":"Long Beach","State":"CA","Zip":"90810"},{"Location":"TATUNG","Address":"2850 E El Presidio St","City":"Long Beach","State":"CA","Zip":"90810"},{"Location":"THAI DINER BBQ RESTAURAN","Address":"1320 W Willow St A","City":"Long Beach","State":"CA","Zip":"90810"},{"Location":"TOTAL TRAFFIC","Address":"1500 Hughes Way B100","City":"Long Beach","State":"CA","Zip":"90810"},{"Location":"VENTURA TRUCKING COMPANY","Address":"2418 E 223rd St","City":"Long Beach","State":"CA","Zip":"90810"},{"Location":"WILHELMSEN SHIP SERVICES","Address":"2200 W Pacific Coast Hwy","City":"Long Beach","State":"CA","Zip":"90810"},{"Location":"YBHG INC.","Address":"1504 W Willow St","City":"Long Beach","State":"CA","Zip":"90810"}]