[{"Location":"A E INSURANCE SERVICES","Address":"4407 E Los Coyotes Diagonal","City":"Long Beach","State":"CA","Zip":"90815"},{"Location":"AGAINST THE GREEN2","Address":"1932 N Lakewood Blvd","City":"Long Beach","State":"CA","Zip":"90815"},{"Location":"AMBITIONS 9TH ST","Address":"6711 E 9th St","City":"Long Beach","State":"CA","Zip":"90815"},{"Location":"ANNEX","Address":"4300 E Stearns St","City":"Long Beach","State":"CA","Zip":"90815"},{"Location":"ASSOCIATED STUDENTS","Address":"1212 N Bellflower Blvd","City":"Long Beach","State":"CA","Zip":"90815"},{"Location":"ASSOCIATED STUDENTS INC 2","Address":"1212 N Bellflower Blvd","City":"Long Beach","State":"CA","Zip":"90815"},{"Location":"AUTO CLUB OF SOUTHERN CALIF","Address":"4800 Airport Plaza Dr","City":"Long Beach","State":"CA","Zip":"90815"},{"Location":"AVENUE 3 PIZZA","Address":"2226 Palo Verde Ave","City":"Long Beach","State":"CA","Zip":"90815"},{"Location":"AWESOME SUSHI","Address":"2601 Clark Ave","City":"Long Beach","State":"CA","Zip":"90815"},{"Location":"BANK OF AMERICA CA7-927-01-01","Address":"2135 N Bellflower Blvd","City":"Long Beach","State":"CA","Zip":"90815"},{"Location":"BARBARA & RAY ALPERT JEWISH","Address":"3801 E Willow St","City":"Long Beach","State":"CA","Zip":"90815"},{"Location":"BLONDIES","Address":"2259 N Lakewood Blvd","City":"Long Beach","State":"CA","Zip":"90815"},{"Location":"CAL STATE LONG BEACH DIN","Address":"6300 E State University Dr State","City":"Long Beach","State":"CA","Zip":"90815"},{"Location":"CIRCLE CLEANERS","Address":"1938 N Lakewood Blvd","City":"Long Beach","State":"CA","Zip":"90815"},{"Location":"CITY OF LONG BEACH HARBOR DEPT","Address":"4801 Airport Plaza Dr","City":"Long Beach","State":"CA","Zip":"90815"},{"Location":"CONTROL SWITCHES","Address":"2425 Mira Mar Ave","City":"Long Beach","State":"CA","Zip":"90815"},{"Location":"DELI NEWS PIZZA","Address":"5555 E Stearns St 104","City":"Long Beach","State":"CA","Zip":"90815"},{"Location":"E J MALLOYS","Address":"5506 E Britton Dr","City":"Long Beach","State":"CA","Zip":"90815"},{"Location":"ECCOS INC","Address":"2123 N Bellflower Blvd","City":"Long Beach","State":"CA","Zip":"90815"},{"Location":"ELDORADO PARK TENNIS CENTER","Address":"2800 N Studebaker Rd","City":"Long Beach","State":"CA","Zip":"90815"},{"Location":"FBI LONG BEACH RA","Address":"4811 Airport Plaza Dr 500","City":"Long Beach","State":"CA","Zip":"90815"},{"Location":"FEDERAL AVIATION ADMIN","Address":"5001 Airport Plaza Dr 100","City":"Long Beach","State":"CA","Zip":"90815"},{"Location":"FIRESTONE #267433","Address":"1855 N Lakewood Blvd","City":"Long Beach","State":"CA","Zip":"90815"},{"Location":"GREAT MEX GRILL","Address":"5530 E Atherton St","City":"Long Beach","State":"CA","Zip":"90815"},{"Location":"HICCUPS","Address":"1946 N Lakewood Blvd","City":"Long Beach","State":"CA","Zip":"90815"},{"Location":"HOF'S HUT-LOS ALTOS","Address":"2147 N Bellflower Blvd","City":"Long Beach","State":"CA","Zip":"90815"},{"Location":"HOLIDAY INN HOTEL AND CONFEREN","Address":"2640 N Lakewood Blvd","City":"Long Beach","State":"CA","Zip":"90815"},{"Location":"IMMUNOCORP","Address":"2340 Mira Mar Ave","City":"Long Beach","State":"CA","Zip":"90815"},{"Location":"JERRY'S DOGS","Address":"1804 Ximeno Ave","City":"Long Beach","State":"CA","Zip":"90815"},{"Location":"JERSEY MIKES SUBS","Address":"1831 Ximeno Ave","City":"Long Beach","State":"CA","Zip":"90815"},{"Location":"LA FITNESS #95","Address":"2180 N Bellflower Blvd","City":"Long Beach","State":"CA","Zip":"90815"},{"Location":"LONG BEACH DENTAL ARTS","Address":"6226 E Spring St 200","City":"Long Beach","State":"CA","Zip":"90815"},{"Location":"LONG BEACH MARRIOTT","Address":"4700 Airport Plaza Dr","City":"Long Beach","State":"CA","Zip":"90815"},{"Location":"LONG BEACH SMOKE SHOP","Address":"5900 E Spring St D","City":"Long Beach","State":"CA","Zip":"90815"},{"Location":"LONG BEACH WEIGHT CONTROL","Address":"1934 N Lakewood Blvd","City":"Long Beach","State":"CA","Zip":"90815"},{"Location":"LOS ALTOS YOUTH BASEBALL","Address":"2760 N Studebaker Rd","City":"Long Beach","State":"CA","Zip":"90815"},{"Location":"MANIA PIZZA","Address":"1785 Palo Verde Ave","City":"Long Beach","State":"CA","Zip":"90815"},{"Location":"MARRIOTT LONG BEACH","Address":"4700 Airport Plaza Dr","City":"Long Beach","State":"CA","Zip":"90815"},{"Location":"MIYAKO LONG BEACH","Address":"2938 Clark Ave","City":"Long Beach","State":"CA","Zip":"90815"},{"Location":"MOAILK ENT","Address":"2830 N Bellflower Blvd B","City":"Long Beach","State":"CA","Zip":"90815"},{"Location":"MTN VIEW TIRE LONG BEACH","Address":"2169 N Bellflower Blvd","City":"Long Beach","State":"CA","Zip":"90815"},{"Location":"NAILS& SPA BEAUTY CENTER","Address":"5501 E Stearns St","City":"Long Beach","State":"CA","Zip":"90815"},{"Location":"OFFICE DEPOT","Address":"3500 E Willow St","City":"Long Beach","State":"CA","Zip":"90815"},{"Location":"P2S ENGINEERING","Address":"5000 E.spring Street%2C 8th Floo","City":"Long Beach","State":"CA","Zip":"90815"},{"Location":"PACIFIC DENTAL #288","Address":"5533a E Stearns St","City":"Long Beach","State":"CA","Zip":"90815"},{"Location":"PANORAMA SPORTS LOUNGE","Address":"2640 N Lakewood Blvd","City":"Long Beach","State":"CA","Zip":"90815"},{"Location":"PIONEER MEDICAL GROUP","Address":"2220 Clark Ave","City":"Long Beach","State":"CA","Zip":"90815"},{"Location":"PORTOFINO PIZZERIA AND DELI","Address":"5900 E Spring St B","City":"Long Beach","State":"CA","Zip":"90815"},{"Location":"SOUTHERN CALIFORNIA CREDIT UNI","Address":"2371 Grand Ave","City":"Long Beach","State":"CA","Zip":"90815"},{"Location":"SPARKYS CHEESESTAKES","Address":"1998 Ximeno Ave","City":"Long Beach","State":"CA","Zip":"90815"},{"Location":"STIX HOLDINGS 733","Address":"2090 N Bellflower Blvd","City":"Long Beach","State":"CA","Zip":"90815"},{"Location":"STRAW HAT PIZZA%2FLB","Address":"6522 E Spring St","City":"Long Beach","State":"CA","Zip":"90815"},{"Location":"SUBWAY","Address":"4207 E Willow St","City":"Long Beach","State":"CA","Zip":"90815"},{"Location":"TACO BEACH CANTINA","Address":"2099 Bellflower Ave","City":"Long Beach","State":"CA","Zip":"90815"},{"Location":"TARGET #0195","Address":"2270 N Bellflower Blvd","City":"Long Beach","State":"CA","Zip":"90815"},{"Location":"THE INTERLUDE","Address":"1710 Clark Ave","City":"Long Beach","State":"CA","Zip":"90815"},{"Location":"THE LAST BARBERS & BEAUT","Address":"2221 Palo Verde Ave 1h","City":"Long Beach","State":"CA","Zip":"90815"},{"Location":"THE MARKETPLACE GRILL","Address":"4750 E Los Coyotes Diagonal","City":"Long Beach","State":"CA","Zip":"90815"},{"Location":"THE REFINERY","Address":"2017 Palo Verde Ave","City":"Long Beach","State":"CA","Zip":"90815"},{"Location":"WALLS CHILD CARE","Address":"5449 E Fairbrook St","City":"Long Beach","State":"CA","Zip":"90815"},{"Location":"YUMMY OMG INC. LONG BEACH","Address":"1806 Ximeno Ave","City":"Long Beach","State":"CA","Zip":"90815"}]