[{"Location":"562 MOTORING AND PARTS","Address":"2114 W 16th St","City":"Long Beach","State":"CA","Zip":"90813"},{"Location":"A CHECKER TOWING","Address":"812 W Cowles St","City":"Long Beach","State":"CA","Zip":"90813"},{"Location":"AAA PAWN SHOP EXCHANGE","Address":"1100 Long Beach Blvd","City":"Long Beach","State":"CA","Zip":"90813"},{"Location":"ALLPORT LOGISTICS","Address":"1789 W 9th St","City":"Long Beach","State":"CA","Zip":"90813"},{"Location":"ANTIOCH CHURCH OF LONG BEACH","Address":"1532 Gundry Ave","City":"Long Beach","State":"CA","Zip":"90813"},{"Location":"BAMBUCO COLOMBIAN GRILL","Address":"1478 Santa Se Ave","City":"Long Beach","State":"CA","Zip":"90813"},{"Location":"BEHAVIORAL HEALTH SERVICES","Address":"1775 Chestnut Ave","City":"Long Beach","State":"CA","Zip":"90813"},{"Location":"BP PIPELINES OF NORTH AMERICA","Address":"1300 Pier B St","City":"Long Beach","State":"CA","Zip":"90813"},{"Location":"BUILT MORE METAL FABRICATORS","Address":"1326 W 12th St","City":"Long Beach","State":"CA","Zip":"90813"},{"Location":"CADMAN GROUP","Address":"1100 Elm Ave","City":"Long Beach","State":"CA","Zip":"90813"},{"Location":"CHAPMAN HOUSE INC","Address":"834 Pacific Ave","City":"Long Beach","State":"CA","Zip":"90813"},{"Location":"CHARLES W KERANEN","Address":"701 W 14th St","City":"Long Beach","State":"CA","Zip":"90813"},{"Location":"CHRIST SECOND BAPTIST","Address":"1471 Martin Luther King Jr Ave","City":"Long Beach","State":"CA","Zip":"90813"},{"Location":"CMAC CONSTRUCTION","Address":"1450 Santa Fe Ave","City":"Long Beach","State":"CA","Zip":"90813"},{"Location":"CROSBY AND OVERTON","Address":"1610 W 17th St","City":"Long Beach","State":"CA","Zip":"90813"},{"Location":"DAN AND GINA ROACH","Address":"1410 Lemon Ave","City":"Long Beach","State":"CA","Zip":"90813"},{"Location":"EL SAUZ","Address":"1616 E Anaheim St","City":"Long Beach","State":"CA","Zip":"90813"},{"Location":"EL TACO LOCO","Address":"1465 Magnolia Ave","City":"Long Beach","State":"CA","Zip":"90813"},{"Location":"F C T","Address":"1319 W Gaylord St","City":"Long Beach","State":"CA","Zip":"90813"},{"Location":"FARIAS","Address":"1440 Santa Fe Ave","City":"Long Beach","State":"CA","Zip":"90813"},{"Location":"FERNANDO AUTO REPAIR","Address":"951 Martin Luther King Jr Ave","City":"Long Beach","State":"CA","Zip":"90813"},{"Location":"FIELD TECHNOLOGY INC","Address":"1472 Harbor Ave","City":"Long Beach","State":"CA","Zip":"90813"},{"Location":"FOOD BANK SO CAL","Address":"1444 San Francisco Ave","City":"Long Beach","State":"CA","Zip":"90813"},{"Location":"GISELLE BEAUTY SALON","Address":"343 W Anaheim St","City":"Long Beach","State":"CA","Zip":"90813"},{"Location":"GOODEN","Address":"820 Carrack Ave","City":"Long Beach","State":"CA","Zip":"90813"},{"Location":"GREATER LONG BEACH DENTAL","Address":"141 E 9th St","City":"Long Beach","State":"CA","Zip":"90813"},{"Location":"H2O FITNESS","Address":"980 Atlantic Ave 2","City":"Long Beach","State":"CA","Zip":"90813"},{"Location":"HARBOR DIESEL AND EQUIPMENT IN","Address":"537 W Anaheim St","City":"Long Beach","State":"CA","Zip":"90813"},{"Location":"HARBOR VIEW CENTER #1541","Address":"490 W 14th St","City":"Long Beach","State":"CA","Zip":"90813"},{"Location":"HUUK FISH & GRILL","Address":"1335 Long Beach Blvd","City":"Long Beach","State":"CA","Zip":"90813"},{"Location":"INFINITE HEALTH SOLUTION","Address":"315 E 11th St","City":"Long Beach","State":"CA","Zip":"90813"},{"Location":"JC EXPRESS","Address":"2009 W Cowles St","City":"Long Beach","State":"CA","Zip":"90813"},{"Location":"JOYFUL PAWS","Address":"1701 Fashion Ave","City":"Long Beach","State":"CA","Zip":"90813"},{"Location":"K J LEE AUTOMOTIVE","Address":"1301 Atlantic Ave","City":"Long Beach","State":"CA","Zip":"90813"},{"Location":"LA BLANC INTERIORS","Address":"790 12 Via Wanda","City":"Long Beach","State":"CA","Zip":"90813"},{"Location":"LA FIESTA BAR","Address":"136 E Anaheim St","City":"Long Beach","State":"CA","Zip":"90813"},{"Location":"LB COIN LAUNDRY MAT","Address":"400 E Anaheim St","City":"Long Beach","State":"CA","Zip":"90813"},{"Location":"LIBERTY TAX SERVICE FOUR","Address":"795 Long Beach Blvd","City":"Long Beach","State":"CA","Zip":"90813"},{"Location":"LONG BEACH MAINTENANCE","Address":"2030 W 17th St","City":"Long Beach","State":"CA","Zip":"90813"},{"Location":"LOS COMPADRES RESTAURANT","Address":"1144 Pine Ave","City":"Long Beach","State":"CA","Zip":"90813"},{"Location":"M COLORS BEAUTY SALON","Address":"1347 Long Beach Blvd","City":"Long Beach","State":"CA","Zip":"90813"},{"Location":"MAMYS PLACE","Address":"1234 Long Beach Blvd","City":"Long Beach","State":"CA","Zip":"90813"},{"Location":"MANAGEMENT ACTIVITIES","Address":"1020 E 7th St","City":"Long Beach","State":"CA","Zip":"90813"},{"Location":"MARISCOS LAS ISLITAS","Address":"210 W Anaheim St","City":"Long Beach","State":"CA","Zip":"90813"},{"Location":"MARISCOS LAS ISLITAS","Address":"1585 Santa Fe Ave","City":"Long Beach","State":"CA","Zip":"90813"},{"Location":"MI ANTIGUA","Address":"1022 Long Beach Blvd","City":"Long Beach","State":"CA","Zip":"90813"},{"Location":"NAVA","Address":"1490 Santa Fe Ave","City":"Long Beach","State":"CA","Zip":"90813"},{"Location":"NCADD LONG BEACH","Address":"427 W 9th St B","City":"Long Beach","State":"CA","Zip":"90813"},{"Location":"NEIL AIRCRAFT","Address":"1260 W 15th St","City":"Long Beach","State":"CA","Zip":"90813"},{"Location":"NICKELL METAL SPRAY","Address":"1429 W 15th St","City":"Long Beach","State":"CA","Zip":"90813"},{"Location":"NUGGET BAR","Address":"468 W Anaheim St","City":"Long Beach","State":"CA","Zip":"90813"},{"Location":"NUMBER ONE AUTO","Address":"1500 Long Beach Blvd","City":"Long Beach","State":"CA","Zip":"90813"},{"Location":"PACIFIC SHORES MEDICAL GROUP","Address":"1043 Elm Ave 104","City":"Long Beach","State":"CA","Zip":"90813"},{"Location":"PARK PACIFIC TOWER","Address":"714 Pacific Ave","City":"Long Beach","State":"CA","Zip":"90813"},{"Location":"ROMA PIZZA","Address":"730 Long Beach Blvd B","City":"Long Beach","State":"CA","Zip":"90813"},{"Location":"SAMS STREET LIQUOR","Address":"1566 Santa Fe Ave","City":"Long Beach","State":"CA","Zip":"90813"},{"Location":"SIEMREAP ASIAN CUSINE","Address":"1810 E Anaheim St","City":"Long Beach","State":"CA","Zip":"90813"},{"Location":"SPECIALIZED TRANSPORT","Address":"810 W Esther St","City":"Long Beach","State":"CA","Zip":"90813"},{"Location":"SPOT LIGHTING SUPPLIES","Address":"1200 Oregon Ave","City":"Long Beach","State":"CA","Zip":"90813"},{"Location":"ST MARY MEDICAL CENTER","Address":"1050 Linden Ave","City":"Long Beach","State":"CA","Zip":"90813"},{"Location":"SUPERIOR ELECTRICAL","Address":"1700 W Anaheim St","City":"Long Beach","State":"CA","Zip":"90813"},{"Location":"TAPIA TRUCKING","Address":"2135 W Esther St","City":"Long Beach","State":"CA","Zip":"90813"},{"Location":"THE DENTAL SALON LLC","Address":"1711 Atlantic Ave","City":"Long Beach","State":"CA","Zip":"90813"},{"Location":"TOBOS BAR AND GRILL","Address":"1351 Long Beach Blvd","City":"Long Beach","State":"CA","Zip":"90813"},{"Location":"TONYS ITALIAN FOOD","Address":"701 Long Beach Blvd","City":"Long Beach","State":"CA","Zip":"90813"},{"Location":"TOO MUCH DRAMA PRODUCTIONS","Address":"1420 Warren Ave B","City":"Long Beach","State":"CA","Zip":"90813"},{"Location":"VILLAS REGISTRATION","Address":"1454 W 17th St","City":"Long Beach","State":"CA","Zip":"90813"}]