[{"Location":"49ER SHOP","Address":"6049 E 7th St","City":"Long Beach","State":"CA","Zip":"90840"},{"Location":"ATHLETICS ADMIN-BARRETT","Address":"1250 N Bellflower Blvd","City":"Long Beach","State":"CA","Zip":"90840"},{"Location":"C.S.U.L.B ACADEMIC AFFAIRS","Address":"1250 N Bellflower Blvd Bh303","City":"Long Beach","State":"CA","Zip":"90840"},{"Location":"CALIFORNIA STATE UNIVERSITY","Address":"1250 N Bellflower Blvd Bh320","City":"Long Beach","State":"CA","Zip":"90840"},{"Location":"CALIFORNIA STATE UNIVERSITY LO","Address":"1250 N Bellflower Blvd","City":"Long Beach","State":"CA","Zip":"90840"},{"Location":"CSULB","Address":"1250 N Bellflower Blvd Bh377","City":"Long Beach","State":"CA","Zip":"90840"},{"Location":"CSULB BROTMAN HALL ROOM","Address":"1250 N Bellflower Blvd Bh387","City":"Long Beach","State":"CA","Zip":"90840"},{"Location":"CSULB EOC","Address":"1250 N Bellflower Blvd","City":"Long Beach","State":"CA","Zip":"90840"},{"Location":"CSULB LIBRARY","Address":"N Bellflower Blvd","City":"Long Beach","State":"CA","Zip":"90840"},{"Location":"NUGGET GRILL & PUB","Address":"6049 E 7th St","City":"Long Beach","State":"CA","Zip":"90840"},{"Location":"THE GOLD MINE CSULB","Address":"1250 N Bellflower Blvd","City":"Long Beach","State":"CA","Zip":"90840"},{"Location":"THE WALTER PYRAMID","Address":"1250 N Bellflower Blvd","City":"Long Beach","State":"CA","Zip":"90840"},{"Location":"THE WALTER PYRAMID 2","Address":"1250 N Bellflower Blvd","City":"Long Beach","State":"CA","Zip":"90840"}]