[{"Location":"ALEXAS FLOWER","Address":"1439 S Baldwin Ave","City":"Arcadia","State":"CA","Zip":"91007"},{"Location":"AMERICAN PLUS BANK","Address":"630 W Duarte Rd","City":"Arcadia","State":"CA","Zip":"91007"},{"Location":"ANN KAREN DAY SPA","Address":"1215 S Baldwin Ave","City":"Arcadia","State":"CA","Zip":"91007"},{"Location":"ANTOANETA AUTO INC","Address":"400 S Baldwin Ave 102","City":"Arcadia","State":"CA","Zip":"91007"},{"Location":"ARCADIA ELKS LODGE","Address":"27 W Hunnington Dr","City":"Arcadia","State":"CA","Zip":"91007"},{"Location":"ARCADIA GARDEN CAFE","Address":"850 S Baldwin Ave","City":"Arcadia","State":"CA","Zip":"91007"},{"Location":"ARCADIA OUTPATIENT SURGERY CTR","Address":"614 W Duarte Rd","City":"Arcadia","State":"CA","Zip":"91007"},{"Location":"ARCADIA POLICE DEPT","Address":"250 W Huntington Dr","City":"Arcadia","State":"CA","Zip":"91007"},{"Location":"AV 79 TEA HOUSE","Address":"815 W Naomi Ave G","City":"Arcadia","State":"CA","Zip":"91007"},{"Location":"BENIHANA #1070","Address":"400 S Baldwin Ave 901l","City":"Arcadia","State":"CA","Zip":"91007"},{"Location":"CA THOROUGHBRED HRSMNS FNDTN","Address":"285 W Huntington Dr","City":"Arcadia","State":"CA","Zip":"91007"},{"Location":"CAL BANK & TRUST","Address":"721 W Huntington Dr","City":"Arcadia","State":"CA","Zip":"91007"},{"Location":"CHANGS GARDEN","Address":"627 W Euarte Rd","City":"Arcadia","State":"CA","Zip":"91007"},{"Location":"CONGRESS MEDICAL ASSOCIATES","Address":"289 W Huntington Dr","City":"Arcadia","State":"CA","Zip":"91007"},{"Location":"DAVE AND BUSTER'S #34","Address":"400 S Baldwin Ave 930u","City":"Arcadia","State":"CA","Zip":"91007"},{"Location":"DAVITA #5487 ARCADIA OAKS","Address":"721 W Huntington Dr","City":"Arcadia","State":"CA","Zip":"91007"},{"Location":"DINO CLARIZIO MD","Address":"1505 S Baldwin Ave","City":"Arcadia","State":"CA","Zip":"91007"},{"Location":"E SCOTT KING DDS","Address":"1215 W Huntington Dr","City":"Arcadia","State":"CA","Zip":"91007"},{"Location":"FIRESTONE #011320","Address":"1500 S Baldwin Ave","City":"Arcadia","State":"CA","Zip":"91007"},{"Location":"FULL HOUSE SEAFOOD","Address":"1220 S Golden West Ave","City":"Arcadia","State":"CA","Zip":"91007"},{"Location":"GOLDEN HORSE","Address":"1037 S Baldwin Ave","City":"Arcadia","State":"CA","Zip":"91007"},{"Location":"GOLDS GYM","Address":"400 S Baldwin Ave 3000","City":"Arcadia","State":"CA","Zip":"91007"},{"Location":"HAI DI LAO","Address":"400 S Baldwin Ave 2015","City":"Arcadia","State":"CA","Zip":"91007"},{"Location":"HAIR TOGETHER","Address":"1314 S Baldwin Ave","City":"Arcadia","State":"CA","Zip":"91007"},{"Location":"HONEY BOBA","Address":"1 W Duarte Rd A","City":"Arcadia","State":"CA","Zip":"91007"},{"Location":"J&X INVESTMENT INC","Address":"1220 S Baldwin Ave","City":"Arcadia","State":"CA","Zip":"91007"},{"Location":"KRONSON MEDICAL CORP","Address":"301 W Huntington Dr 519","City":"Arcadia","State":"CA","Zip":"91007"},{"Location":"LA FITNESS #81","Address":"1325 S Baldwin Ave","City":"Arcadia","State":"CA","Zip":"91007"},{"Location":"LINKWORLD PROPERTIES","Address":"1220 S Golden West Ave","City":"Arcadia","State":"CA","Zip":"91007"},{"Location":"MACY'S WEST 482","Address":"400 S Baldwin Ave","City":"Arcadia","State":"CA","Zip":"91007"},{"Location":"MACY'S WEST 482 BR","Address":"400 S Baldwin Ave","City":"Arcadia","State":"CA","Zip":"91007"},{"Location":"METHODIST HOSPITAL","Address":"300 W Huntington Dr","City":"Arcadia","State":"CA","Zip":"91007"},{"Location":"MILANS BAKERY","Address":"1326 S Baldwin Ave","City":"Arcadia","State":"CA","Zip":"91007"},{"Location":"NORDSTROM","Address":"400 S Baldwin Ave","City":"Arcadia","State":"CA","Zip":"91007"},{"Location":"OPUS SUSHI","Address":"1027 S Baldwin Ave","City":"Arcadia","State":"CA","Zip":"91007"},{"Location":"ORCHARD PIE CUISINE","Address":"1311 S Baldwin Ave","City":"Arcadia","State":"CA","Zip":"91007"},{"Location":"PEPPER'S","Address":"181 Colorado Pl","City":"Arcadia","State":"CA","Zip":"91007"},{"Location":"RED ROBIN #672","Address":"400 S Baldwin Ave","City":"Arcadia","State":"CA","Zip":"91007"},{"Location":"ROGER N ANDREWS MD","Address":"624 W Duarte Rd 203","City":"Arcadia","State":"CA","Zip":"91007"},{"Location":"RUSNAK %2F ARCADIA","Address":"55 W Huntington Dr","City":"Arcadia","State":"CA","Zip":"91007"},{"Location":"SANTA ANITA PARK","Address":"285 W Huntington Dr","City":"Arcadia","State":"CA","Zip":"91007"},{"Location":"TASTY GARDEN","Address":"1212 S Baldwin Ave","City":"Arcadia","State":"CA","Zip":"91007"},{"Location":"TERRY'S STATION","Address":"1218 S Baldwin Ave","City":"Arcadia","State":"CA","Zip":"91007"},{"Location":"THE CHEESECAKE FACTORY 0124","Address":"400 S Baldwin Ave 904l","City":"Arcadia","State":"CA","Zip":"91007"},{"Location":"VICTOR DE LOS SANTOS DDS","Address":"1035 W Huntington Dr B","City":"Arcadia","State":"CA","Zip":"91007"},{"Location":"WESTFIELD SANTA ANITA MALL","Address":"400 S Baldwin Ave","City":"Arcadia","State":"CA","Zip":"91007"},{"Location":"WESTFIELD SANTAANITA","Address":"400 S Baldwin Ave 231","City":"Arcadia","State":"CA","Zip":"91007"},{"Location":"WOOD RANCH BBQ & GRILL","Address":"400 S Baldwin Ave","City":"Arcadia","State":"CA","Zip":"91007"},{"Location":"ALEXAS FLOWER","Address":"1439 S Baldwin Ave","City":"Arcadia","State":"CA","Zip":"91007"},{"Location":"AMERICAN PLUS BANK","Address":"630 W Duarte Rd","City":"Arcadia","State":"CA","Zip":"91007"},{"Location":"ANN KAREN DAY SPA","Address":"1215 S Baldwin Ave","City":"Arcadia","State":"CA","Zip":"91007"},{"Location":"ANTOANETA AUTO INC","Address":"400 S Baldwin Ave 102","City":"Arcadia","State":"CA","Zip":"91007"},{"Location":"ARCADIA ELKS LODGE","Address":"27 W Hunnington Dr","City":"Arcadia","State":"CA","Zip":"91007"},{"Location":"ARCADIA GARDEN CAFE","Address":"850 S Baldwin Ave","City":"Arcadia","State":"CA","Zip":"91007"},{"Location":"ARCADIA OUTPATIENT SURGERY CTR","Address":"614 W Duarte Rd","City":"Arcadia","State":"CA","Zip":"91007"},{"Location":"ARCADIA POLICE DEPT","Address":"250 W Huntington Dr","City":"Arcadia","State":"CA","Zip":"91007"},{"Location":"AV 79 TEA HOUSE","Address":"815 W Naomi Ave G","City":"Arcadia","State":"CA","Zip":"91007"},{"Location":"BENIHANA #1070","Address":"400 S Baldwin Ave 901l","City":"Arcadia","State":"CA","Zip":"91007"},{"Location":"CA THOROUGHBRED HRSMNS FNDTN","Address":"285 W Huntington Dr","City":"Arcadia","State":"CA","Zip":"91007"},{"Location":"CAL BANK & TRUST","Address":"721 W Huntington Dr","City":"Arcadia","State":"CA","Zip":"91007"},{"Location":"CHANGS GARDEN","Address":"627 W Euarte Rd","City":"Arcadia","State":"CA","Zip":"91007"},{"Location":"CONGRESS MEDICAL ASSOCIATES","Address":"289 W Huntington Dr","City":"Arcadia","State":"CA","Zip":"91007"},{"Location":"DAVE AND BUSTER'S #34","Address":"400 S Baldwin Ave 930u","City":"Arcadia","State":"CA","Zip":"91007"},{"Location":"DAVITA #5487 ARCADIA OAKS","Address":"721 W Huntington Dr","City":"Arcadia","State":"CA","Zip":"91007"},{"Location":"DINO CLARIZIO MD","Address":"1505 S Baldwin Ave","City":"Arcadia","State":"CA","Zip":"91007"},{"Location":"E SCOTT KING DDS","Address":"1215 W Huntington Dr","City":"Arcadia","State":"CA","Zip":"91007"},{"Location":"FIRESTONE #011320","Address":"1500 S Baldwin Ave","City":"Arcadia","State":"CA","Zip":"91007"},{"Location":"FULL HOUSE SEAFOOD","Address":"1220 S Golden West Ave","City":"Arcadia","State":"CA","Zip":"91007"},{"Location":"GOLDEN HORSE","Address":"1037 S Baldwin Ave","City":"Arcadia","State":"CA","Zip":"91007"},{"Location":"GOLDS GYM","Address":"400 S Baldwin Ave 3000","City":"Arcadia","State":"CA","Zip":"91007"},{"Location":"HAI DI LAO","Address":"400 S Baldwin Ave 2015","City":"Arcadia","State":"CA","Zip":"91007"},{"Location":"HAIR TOGETHER","Address":"1314 S Baldwin Ave","City":"Arcadia","State":"CA","Zip":"91007"},{"Location":"HONEY BOBA","Address":"1 W Duarte Rd A","City":"Arcadia","State":"CA","Zip":"91007"},{"Location":"J&X INVESTMENT INC","Address":"1220 S Baldwin Ave","City":"Arcadia","State":"CA","Zip":"91007"},{"Location":"KRONSON MEDICAL CORP","Address":"301 W Huntington Dr 519","City":"Arcadia","State":"CA","Zip":"91007"},{"Location":"LA FITNESS #81","Address":"1325 S Baldwin Ave","City":"Arcadia","State":"CA","Zip":"91007"},{"Location":"LINKWORLD PROPERTIES","Address":"1220 S Golden West Ave","City":"Arcadia","State":"CA","Zip":"91007"},{"Location":"MACY'S WEST 482","Address":"400 S Baldwin Ave","City":"Arcadia","State":"CA","Zip":"91007"},{"Location":"MACY'S WEST 482 BR","Address":"400 S Baldwin Ave","City":"Arcadia","State":"CA","Zip":"91007"},{"Location":"METHODIST HOSPITAL","Address":"300 W Huntington Dr","City":"Arcadia","State":"CA","Zip":"91007"},{"Location":"MILANS BAKERY","Address":"1326 S Baldwin Ave","City":"Arcadia","State":"CA","Zip":"91007"},{"Location":"NORDSTROM","Address":"400 S Baldwin Ave","City":"Arcadia","State":"CA","Zip":"91007"},{"Location":"OPUS SUSHI","Address":"1027 S Baldwin Ave","City":"Arcadia","State":"CA","Zip":"91007"},{"Location":"ORCHARD PIE CUISINE","Address":"1311 S Baldwin Ave","City":"Arcadia","State":"CA","Zip":"91007"},{"Location":"PEPPER'S","Address":"181 Colorado Pl","City":"Arcadia","State":"CA","Zip":"91007"},{"Location":"RED ROBIN #672","Address":"400 S Baldwin Ave","City":"Arcadia","State":"CA","Zip":"91007"},{"Location":"ROGER N ANDREWS MD","Address":"624 W Duarte Rd 203","City":"Arcadia","State":"CA","Zip":"91007"},{"Location":"RUSNAK %2F ARCADIA","Address":"55 W Huntington Dr","City":"Arcadia","State":"CA","Zip":"91007"},{"Location":"SANTA ANITA PARK","Address":"285 W Huntington Dr","City":"Arcadia","State":"CA","Zip":"91007"},{"Location":"TASTY GARDEN","Address":"1212 S Baldwin Ave","City":"Arcadia","State":"CA","Zip":"91007"},{"Location":"TERRY'S STATION","Address":"1218 S Baldwin Ave","City":"Arcadia","State":"CA","Zip":"91007"},{"Location":"THE CHEESECAKE FACTORY 0124","Address":"400 S Baldwin Ave 904l","City":"Arcadia","State":"CA","Zip":"91007"},{"Location":"VICTOR DE LOS SANTOS DDS","Address":"1035 W Huntington Dr B","City":"Arcadia","State":"CA","Zip":"91007"},{"Location":"WESTFIELD SANTA ANITA MALL","Address":"400 S Baldwin Ave","City":"Arcadia","State":"CA","Zip":"91007"},{"Location":"WESTFIELD SANTAANITA","Address":"400 S Baldwin Ave 231","City":"Arcadia","State":"CA","Zip":"91007"},{"Location":"WOOD RANCH BBQ & GRILL","Address":"400 S Baldwin Ave","City":"Arcadia","State":"CA","Zip":"91007"}]