[{"Location":"24 HOUR FITNESS #62","Address":"2311 Lincoln Ave","City":"Altadena","State":"CA","Zip":"91001"},{"Location":"ALTADENA ALE & WINE HOUS","Address":"2329 Fair Oaks Ave","City":"Altadena","State":"CA","Zip":"91001"},{"Location":"ALTADENA GOLF COURSE","Address":"1456 E Mendocino St","City":"Altadena","State":"CA","Zip":"91001"},{"Location":"BOURNE INC","Address":"3082 Thurin Ave","City":"Altadena","State":"CA","Zip":"91001"},{"Location":"CROWN CITY MASONIC BUILDING","Address":"2540 Fair Oaks Ave","City":"Altadena","State":"CA","Zip":"91001"},{"Location":"EL CAPORAL","Address":"2100 Fair Oaks Ave","City":"Altadena","State":"CA","Zip":"91001"},{"Location":"FRATERNAL ORDER OF EAGLES","Address":"455 E Woodbury Rd","City":"Altadena","State":"CA","Zip":"91001"},{"Location":"JACKSON HEWITT TAX SERV","Address":"1920 Lake Ave 108","City":"Altadena","State":"CA","Zip":"91001"},{"Location":"PARK BENCH DELI LLC","Address":"2470 Lake Ave","City":"Altadena","State":"CA","Zip":"91001"},{"Location":"PIZZA HUT","Address":"2211 N Lake Ave","City":"Altadena","State":"CA","Zip":"91001"},{"Location":"PIZZA JOE'S","Address":"2287 Lake Ave","City":"Altadena","State":"CA","Zip":"91001"},{"Location":"POWERHOUSE BAIL BOND","Address":"405 E Woodbury Rd","City":"Altadena","State":"CA","Zip":"91001"},{"Location":"RANCHO BAR","Address":"2485 Lake Ave","City":"Altadena","State":"CA","Zip":"91001"},{"Location":"ROMEYS RECOVERY  HOUSES  LLC","Address":"2132 Summit Ave","City":"Altadena","State":"CA","Zip":"91001"},{"Location":"ROMEYS RECOVERY HOUSE 2","Address":"2132 Summit Ave B","City":"Altadena","State":"CA","Zip":"91001"},{"Location":"ROMEYS RECOVERY HOUSE 3","Address":"2132 Summit Ave C","City":"Altadena","State":"CA","Zip":"91001"},{"Location":"RUBIO CANYON LAND AND WATER","Address":"583 E Sacramento St","City":"Altadena","State":"CA","Zip":"91001"},{"Location":"SACRED HEART CATHOLIC CHURCH","Address":"2889 Lincoln Ave","City":"Altadena","State":"CA","Zip":"91001"},{"Location":"STANDARD ICE CREAM","Address":"2207 Lincoln Ave","City":"Altadena","State":"CA","Zip":"91001"},{"Location":"WEBSTERS COMMUNITY PHARMACY","Address":"2459 Lake Ave","City":"Altadena","State":"CA","Zip":"91001"}]