[{"Location":"1410 PARTNERS LLC","Address":"500 N 1st Ave 2","City":"Arcadia","State":"CA","Zip":"91006"},{"Location":"24 HOUR FITNESS #906","Address":"125 N 1st Ave","City":"Arcadia","State":"CA","Zip":"91006"},{"Location":"ALBERTSONS","Address":"298 E Live Oak Ave","City":"Arcadia","State":"CA","Zip":"91006"},{"Location":"AMERICAN LEGION POST #247","Address":"615 E Live Oak Ave","City":"Arcadia","State":"CA","Zip":"91006"},{"Location":"AMERIPRISE FINANCIAL INC","Address":"225 E Santa Clara St 302","City":"Arcadia","State":"CA","Zip":"91006"},{"Location":"ARCADIA FITNESS SPORTS","Address":"2101 E Duarte Rd","City":"Arcadia","State":"CA","Zip":"91006"},{"Location":"ARCADIA GOLF COURSE","Address":"620 E Live Oak Ave","City":"Arcadia","State":"CA","Zip":"91006"},{"Location":"ARCADIA ROCK CLIMBING","Address":"305 N Santa Anita Ave","City":"Arcadia","State":"CA","Zip":"91006"},{"Location":"ARCADIA TENNIS CENTER","Address":"405 S Santa Anita Ave","City":"Arcadia","State":"CA","Zip":"91006"},{"Location":"ART DELREY REALTY","Address":"333 E Foothill Blvd","City":"Arcadia","State":"CA","Zip":"91006"},{"Location":"ASSOCIATE ENDOSCOPY INC","Address":"45 E Saint Joseph St","City":"Arcadia","State":"CA","Zip":"91006"},{"Location":"BALANCED LIVING HEALTH AGENCY","Address":"49 E Huntington Dr","City":"Arcadia","State":"CA","Zip":"91006"},{"Location":"BIT","Address":"4167 E Live Oak Ave","City":"Arcadia","State":"CA","Zip":"91006"},{"Location":"BJS RESTAURANT #416","Address":"400 E Huntington Dr","City":"Arcadia","State":"CA","Zip":"91006"},{"Location":"BUCKLESS CARPET VINYL","Address":"4432 E Live Oak Ave","City":"Arcadia","State":"CA","Zip":"91006"},{"Location":"CARMINES","Address":"311 E Live Oak Ave","City":"Arcadia","State":"CA","Zip":"91006"},{"Location":"CIGAR PALACE","Address":"153 E Foothill Blvd","City":"Arcadia","State":"CA","Zip":"91006"},{"Location":"DANCO METAL SURFACING","Address":"48 La Porte St 1","City":"Arcadia","State":"CA","Zip":"91006"},{"Location":"DR THOMAS R SEGURA DDS","Address":"170 E Foothill Blvd","City":"Arcadia","State":"CA","Zip":"91006"},{"Location":"ELIO E SALVO INC","Address":"12318 Lower Azusa Rd","City":"Arcadia","State":"CA","Zip":"91006"},{"Location":"EMBELLISH FIRST AVENUE","Address":"824 S 1st Ave","City":"Arcadia","State":"CA","Zip":"91006"},{"Location":"EPN - MARIA MARTINEZ","Address":"41 E Foothill Blvd 104","City":"Arcadia","State":"CA","Zip":"91006"},{"Location":"FIRST CABIN","Address":"46 E Huntington Dr","City":"Arcadia","State":"CA","Zip":"91006"},{"Location":"FITNESS FACTOR","Address":"24 N 1st Ave","City":"Arcadia","State":"CA","Zip":"91006"},{"Location":"G&K BURGERS","Address":"4466 E Live Oak Ave","City":"Arcadia","State":"CA","Zip":"91006"},{"Location":"GRANDSLAM TICKETS","Address":"4115 E Live Oak Ave 6","City":"Arcadia","State":"CA","Zip":"91006"},{"Location":"HAIR ETC","Address":"400 S 1st Ave","City":"Arcadia","State":"CA","Zip":"91006"},{"Location":"HAIR TIMES","Address":"1111 Highland Oaks Dr","City":"Arcadia","State":"CA","Zip":"91006"},{"Location":"HELENS CYCLES 2","Address":"142 E Huntington Dr","City":"Arcadia","State":"CA","Zip":"91006"},{"Location":"HINTON%2CKREDITOR & GRONROOS","Address":"50 E Foothill Blvd 300","City":"Arcadia","State":"CA","Zip":"91006"},{"Location":"HOT N SWEET CHICKEN","Address":"48 E Huntington Dr","City":"Arcadia","State":"CA","Zip":"91006"},{"Location":"K SHAH MD AND CCSGV INC","Address":"900 S 1st Ave","City":"Arcadia","State":"CA","Zip":"91006"},{"Location":"KNIGHTS OF COLUMBUS","Address":"403 1st Ave","City":"Arcadia","State":"CA","Zip":"91006"},{"Location":"KNOCKOUTS GENTLEMENS CLUB","Address":"1580 Clark St","City":"Arcadia","State":"CA","Zip":"91006"},{"Location":"L.A. LIVATIONS","Address":"11715 Clark St","City":"Arcadia","State":"CA","Zip":"91006"},{"Location":"LA LUNA NEGRA INC 2","Address":"21 E Huntington Dr","City":"Arcadia","State":"CA","Zip":"91006"},{"Location":"LOS AMIGOS BARBER SHOP 3","Address":"616 W Live Oak Ave","City":"Arcadia","State":"CA","Zip":"91006"},{"Location":"MAKI & SUSHI","Address":"302 E Huntington Dr","City":"Arcadia","State":"CA","Zip":"91006"},{"Location":"MATT DENNY'S ALEHOUSE REST","Address":"145 E Huntington Dr","City":"Arcadia","State":"CA","Zip":"91006"},{"Location":"MEN'S WEARHOUSE #2719","Address":"336 E Huntington Dr H7a","City":"Arcadia","State":"CA","Zip":"91006"},{"Location":"NICE GUY TATTOO","Address":"602 E Live Oak Ave","City":"Arcadia","State":"CA","Zip":"91006"},{"Location":"ORACLE","Address":"440 E Huntington Dr 400","City":"Arcadia","State":"CA","Zip":"91006"},{"Location":"OUTBACK STEAKHOUSE #0557","Address":"166 E Huntington Dr","City":"Arcadia","State":"CA","Zip":"91006"},{"Location":"PANAGIRI INC","Address":"200 E Foothill Blvd A","City":"Arcadia","State":"CA","Zip":"91006"},{"Location":"PHO HA","Address":"411 E Huntington Dr 101c","City":"Arcadia","State":"CA","Zip":"91006"},{"Location":"PHYSCIAL EDGE","Address":"253 N Santa Anita Ave","City":"Arcadia","State":"CA","Zip":"91006"},{"Location":"PROFESSIONAL ADVISORY SERVICES","Address":"255 E Santa Clara St 300","City":"Arcadia","State":"CA","Zip":"91006"},{"Location":"RAMONA INC","Address":"302 N 1st Ave 1","City":"Arcadia","State":"CA","Zip":"91006"},{"Location":"ROSALIE HEWIT","Address":"139 E Huntington Dr","City":"Arcadia","State":"CA","Zip":"91006"},{"Location":"SALON MONET","Address":"145 E Duarte Rd","City":"Arcadia","State":"CA","Zip":"91006"},{"Location":"SANTA ANITA GOLF COURSE","Address":"405 S Santa Anita Ave","City":"Arcadia","State":"CA","Zip":"91006"},{"Location":"SCOTTRADE 54C","Address":"328 E Huntington Dr","City":"Arcadia","State":"CA","Zip":"91006"},{"Location":"SESAME GRILL","Address":"308 E Huntington Dr","City":"Arcadia","State":"CA","Zip":"91006"},{"Location":"SHADY BRADYS","Address":"4273 E Live Oak Ave","City":"Arcadia","State":"CA","Zip":"91006"},{"Location":"SHRIMP HOUSE","Address":"4488 E Live Oak Ave","City":"Arcadia","State":"CA","Zip":"91006"},{"Location":"THE DRINKERS HALL OF FAME","Address":"151 E Huntington Dr","City":"Arcadia","State":"CA","Zip":"91006"},{"Location":"TOKYO WAKO","Address":"401 E Huntington Dr","City":"Arcadia","State":"CA","Zip":"91006"},{"Location":"TRANSDEV SERVICES INC","Address":"5640 Peck Rd","City":"Arcadia","State":"CA","Zip":"91006"},{"Location":"US FOREST SERVICE-ENG17","Address":"701 N Santa Anita Ave","City":"Arcadia","State":"CA","Zip":"91006"},{"Location":"WELLS FARGO HOME MORTGAGE","Address":"55 E Huntington Dr 200","City":"Arcadia","State":"CA","Zip":"91006"},{"Location":"WILSON  WILSON","Address":"414 S 1st Ave","City":"Arcadia","State":"CA","Zip":"91006"},{"Location":"1410 PARTNERS LLC","Address":"500 N 1st Ave 2","City":"Arcadia","State":"CA","Zip":"91006"},{"Location":"24 HOUR FITNESS #906","Address":"125 N 1st Ave","City":"Arcadia","State":"CA","Zip":"91006"},{"Location":"ALBERTSONS","Address":"298 E Live Oak Ave","City":"Arcadia","State":"CA","Zip":"91006"},{"Location":"AMERICAN LEGION POST #247","Address":"615 E Live Oak Ave","City":"Arcadia","State":"CA","Zip":"91006"},{"Location":"AMERIPRISE FINANCIAL INC","Address":"225 E Santa Clara St 302","City":"Arcadia","State":"CA","Zip":"91006"},{"Location":"ARCADIA FITNESS SPORTS","Address":"2101 E Duarte Rd","City":"Arcadia","State":"CA","Zip":"91006"},{"Location":"ARCADIA GOLF COURSE","Address":"620 E Live Oak Ave","City":"Arcadia","State":"CA","Zip":"91006"},{"Location":"ARCADIA ROCK CLIMBING","Address":"305 N Santa Anita Ave","City":"Arcadia","State":"CA","Zip":"91006"},{"Location":"ARCADIA TENNIS CENTER","Address":"405 S Santa Anita Ave","City":"Arcadia","State":"CA","Zip":"91006"},{"Location":"ART DELREY REALTY","Address":"333 E Foothill Blvd","City":"Arcadia","State":"CA","Zip":"91006"},{"Location":"ASSOCIATE ENDOSCOPY INC","Address":"45 E Saint Joseph St","City":"Arcadia","State":"CA","Zip":"91006"},{"Location":"BALANCED LIVING HEALTH AGENCY","Address":"49 E Huntington Dr","City":"Arcadia","State":"CA","Zip":"91006"},{"Location":"BIT","Address":"4167 E Live Oak Ave","City":"Arcadia","State":"CA","Zip":"91006"},{"Location":"BJS RESTAURANT #416","Address":"400 E Huntington Dr","City":"Arcadia","State":"CA","Zip":"91006"},{"Location":"BUCKLESS CARPET VINYL","Address":"4432 E Live Oak Ave","City":"Arcadia","State":"CA","Zip":"91006"},{"Location":"CARMINES","Address":"311 E Live Oak Ave","City":"Arcadia","State":"CA","Zip":"91006"},{"Location":"CIGAR PALACE","Address":"153 E Foothill Blvd","City":"Arcadia","State":"CA","Zip":"91006"},{"Location":"DANCO METAL SURFACING","Address":"48 La Porte St 1","City":"Arcadia","State":"CA","Zip":"91006"},{"Location":"DR THOMAS R SEGURA DDS","Address":"170 E Foothill Blvd","City":"Arcadia","State":"CA","Zip":"91006"},{"Location":"ELIO E SALVO INC","Address":"12318 Lower Azusa Rd","City":"Arcadia","State":"CA","Zip":"91006"},{"Location":"EMBELLISH FIRST AVENUE","Address":"824 S 1st Ave","City":"Arcadia","State":"CA","Zip":"91006"},{"Location":"EPN - MARIA MARTINEZ","Address":"41 E Foothill Blvd 104","City":"Arcadia","State":"CA","Zip":"91006"},{"Location":"FIRST CABIN","Address":"46 E Huntington Dr","City":"Arcadia","State":"CA","Zip":"91006"},{"Location":"FITNESS FACTOR","Address":"24 N 1st Ave","City":"Arcadia","State":"CA","Zip":"91006"},{"Location":"G&K BURGERS","Address":"4466 E Live Oak Ave","City":"Arcadia","State":"CA","Zip":"91006"},{"Location":"GRANDSLAM TICKETS","Address":"4115 E Live Oak Ave 6","City":"Arcadia","State":"CA","Zip":"91006"},{"Location":"HAIR ETC","Address":"400 S 1st Ave","City":"Arcadia","State":"CA","Zip":"91006"},{"Location":"HAIR TIMES","Address":"1111 Highland Oaks Dr","City":"Arcadia","State":"CA","Zip":"91006"},{"Location":"HELENS CYCLES 2","Address":"142 E Huntington Dr","City":"Arcadia","State":"CA","Zip":"91006"},{"Location":"HINTON%2CKREDITOR & GRONROOS","Address":"50 E Foothill Blvd 300","City":"Arcadia","State":"CA","Zip":"91006"},{"Location":"HOT N SWEET CHICKEN","Address":"48 E Huntington Dr","City":"Arcadia","State":"CA","Zip":"91006"},{"Location":"K SHAH MD AND CCSGV INC","Address":"900 S 1st Ave","City":"Arcadia","State":"CA","Zip":"91006"},{"Location":"KNIGHTS OF COLUMBUS","Address":"403 1st Ave","City":"Arcadia","State":"CA","Zip":"91006"},{"Location":"KNOCKOUTS GENTLEMENS CLUB","Address":"1580 Clark St","City":"Arcadia","State":"CA","Zip":"91006"},{"Location":"L.A. LIVATIONS","Address":"11715 Clark St","City":"Arcadia","State":"CA","Zip":"91006"},{"Location":"LA LUNA NEGRA INC 2","Address":"21 E Huntington Dr","City":"Arcadia","State":"CA","Zip":"91006"},{"Location":"LOS AMIGOS BARBER SHOP 3","Address":"616 W Live Oak Ave","City":"Arcadia","State":"CA","Zip":"91006"},{"Location":"MAKI & SUSHI","Address":"302 E Huntington Dr","City":"Arcadia","State":"CA","Zip":"91006"},{"Location":"MATT DENNY'S ALEHOUSE REST","Address":"145 E Huntington Dr","City":"Arcadia","State":"CA","Zip":"91006"},{"Location":"MEN'S WEARHOUSE #2719","Address":"336 E Huntington Dr H7a","City":"Arcadia","State":"CA","Zip":"91006"},{"Location":"NICE GUY TATTOO","Address":"602 E Live Oak Ave","City":"Arcadia","State":"CA","Zip":"91006"},{"Location":"ORACLE","Address":"440 E Huntington Dr 400","City":"Arcadia","State":"CA","Zip":"91006"},{"Location":"OUTBACK STEAKHOUSE #0557","Address":"166 E Huntington Dr","City":"Arcadia","State":"CA","Zip":"91006"},{"Location":"PANAGIRI INC","Address":"200 E Foothill Blvd A","City":"Arcadia","State":"CA","Zip":"91006"},{"Location":"PHO HA","Address":"411 E Huntington Dr 101c","City":"Arcadia","State":"CA","Zip":"91006"},{"Location":"PHYSCIAL EDGE","Address":"253 N Santa Anita Ave","City":"Arcadia","State":"CA","Zip":"91006"},{"Location":"PROFESSIONAL ADVISORY SERVICES","Address":"255 E Santa Clara St 300","City":"Arcadia","State":"CA","Zip":"91006"},{"Location":"RAMONA INC","Address":"302 N 1st Ave 1","City":"Arcadia","State":"CA","Zip":"91006"},{"Location":"ROSALIE HEWIT","Address":"139 E Huntington Dr","City":"Arcadia","State":"CA","Zip":"91006"},{"Location":"SALON MONET","Address":"145 E Duarte Rd","City":"Arcadia","State":"CA","Zip":"91006"},{"Location":"SANTA ANITA GOLF COURSE","Address":"405 S Santa Anita Ave","City":"Arcadia","State":"CA","Zip":"91006"},{"Location":"SCOTTRADE 54C","Address":"328 E Huntington Dr","City":"Arcadia","State":"CA","Zip":"91006"},{"Location":"SESAME GRILL","Address":"308 E Huntington Dr","City":"Arcadia","State":"CA","Zip":"91006"},{"Location":"SHADY BRADYS","Address":"4273 E Live Oak Ave","City":"Arcadia","State":"CA","Zip":"91006"},{"Location":"SHRIMP HOUSE","Address":"4488 E Live Oak Ave","City":"Arcadia","State":"CA","Zip":"91006"},{"Location":"THE DRINKERS HALL OF FAME","Address":"151 E Huntington Dr","City":"Arcadia","State":"CA","Zip":"91006"},{"Location":"TOKYO WAKO","Address":"401 E Huntington Dr","City":"Arcadia","State":"CA","Zip":"91006"},{"Location":"TRANSDEV SERVICES INC","Address":"5640 Peck Rd","City":"Arcadia","State":"CA","Zip":"91006"},{"Location":"US FOREST SERVICE-ENG17","Address":"701 N Santa Anita Ave","City":"Arcadia","State":"CA","Zip":"91006"},{"Location":"WELLS FARGO HOME MORTGAGE","Address":"55 E Huntington Dr 200","City":"Arcadia","State":"CA","Zip":"91006"},{"Location":"WILSON  WILSON","Address":"414 S 1st Ave","City":"Arcadia","State":"CA","Zip":"91006"}]