[{"Location":"CHICKEN DAY","Address":"2383 Foothill Blvd D","City":"La Canada","State":"CA","Zip":"91011"},{"Location":"EIJIS FLORIST","Address":"930 Foothill Blvd","City":"La Canada","State":"CA","Zip":"91011"},{"Location":"HABIT PIZZA","Address":"2261 Foothill Blvd","City":"La Canada","State":"CA","Zip":"91011"},{"Location":"IN STYLE HAIR","Address":"2207 Foothill Blvd","City":"La Canada","State":"CA","Zip":"91011"},{"Location":"MOHAMMED ABGHARY","Address":"2309 Foothill Blvd","City":"La Canada","State":"CA","Zip":"91011"},{"Location":"US FOREST SERVICE ENG 15","Address":"Shortcut Station","City":"La Canada","State":"CA","Zip":"91011"},{"Location":"WCL CORP","Address":"1004 Foothill Blvd","City":"La Canada","State":"CA","Zip":"91011"},{"Location":"WINDY S NAIL & SPA","Address":"1359 Foothill Blvd","City":"La Canada","State":"CA","Zip":"91011"},{"Location":"ALLEN LUND COMPANY%2C INC.","Address":"4529 Angeles Crest Hwy","City":"La Canada Flintridge","State":"CA","Zip":"91011"},{"Location":"ANYTIME FITNESS","Address":"890 Town Center Dr B","City":"La Canada Flintridge","State":"CA","Zip":"91011"},{"Location":"CITIZENS BUSINESS BANK","Address":"858 Foothill Blvd","City":"La Canada Flintridge","State":"CA","Zip":"91011"},{"Location":"CRYSTAL VAPOR","Address":"2259 Foothill Blvd","City":"La Canada Flintridge","State":"CA","Zip":"91011"},{"Location":"DINOS CHICKEN AND BURGERS","Address":"4900 Gould Ave","City":"La Canada Flintridge","State":"CA","Zip":"91011"},{"Location":"DISH","Address":"734 Foothill Blvd","City":"La Canada Flintridge","State":"CA","Zip":"91011"},{"Location":"DONA MARIA MEX REST","Address":"729 Foothill Blvd","City":"La Canada Flintridge","State":"CA","Zip":"91011"},{"Location":"FIRESTONE","Address":"459 Foothill Blvd","City":"La Canada Flintridge","State":"CA","Zip":"91011"},{"Location":"FK INC","Address":"520 Meadowview Dr","City":"La Canada Flintridge","State":"CA","Zip":"91011"},{"Location":"FLINT CANYON TENNIS CLUB","Address":"265 Berkshire Ave","City":"La Canada Flintridge","State":"CA","Zip":"91011"},{"Location":"FLINTRIDGE PROPER PARTNE","Address":"464 Foothill Blvd","City":"La Canada Flintridge","State":"CA","Zip":"91011"},{"Location":"FLINTRIDGE SACRED HEART ACADEM","Address":"440 Saint Katherine Dr","City":"La Canada Flintridge","State":"CA","Zip":"91011"},{"Location":"FOOTHILL MUNICIPAL WATER","Address":"4536 Hampton Rd","City":"La Canada Flintridge","State":"CA","Zip":"91011"},{"Location":"GEORGEE'S PIZZA","Address":"720 Foothill Blvd","City":"La Canada Flintridge","State":"CA","Zip":"91011"},{"Location":"GOODYEAR 4830","Address":"420 Foothill Blvd","City":"La Canada Flintridge","State":"CA","Zip":"91011"},{"Location":"ICHIBAN JAPANESE REST","Address":"711 Foothill Blvd Fg","City":"La Canada Flintridge","State":"CA","Zip":"91011"},{"Location":"JERSEY MIKE'S SUBS","Address":"711 Foothill Blvd B","City":"La Canada Flintridge","State":"CA","Zip":"91011"},{"Location":"LOS GRINGOS LOCOS","Address":"631 Foothill Blvd","City":"La Canada Flintridge","State":"CA","Zip":"91011"},{"Location":"NORTH SHORE BURGERS","Address":"1929 Verdugo Blvd B","City":"La Canada Flintridge","State":"CA","Zip":"91011"},{"Location":"PACIFIC DENTAL #27","Address":"2220 Foothill Blvd A","City":"La Canada Flintridge","State":"CA","Zip":"91011"},{"Location":"PACOS BARBER SHOP","Address":"633 Foothill Blvd","City":"La Canada Flintridge","State":"CA","Zip":"91011"},{"Location":"PAUL A THOMPSON DDS","Address":"4526 Rinetti Ln","City":"La Canada Flintridge","State":"CA","Zip":"91011"},{"Location":"ROUND TABLE PIZZA LA CANADA","Address":"502 Foothill Blvd","City":"La Canada Flintridge","State":"CA","Zip":"91011"},{"Location":"SAKURA INC","Address":"985 Foothill Blvd","City":"La Canada Flintridge","State":"CA","Zip":"91011"},{"Location":"SPORT CLIPS 640","Address":"890 Town Center Dr A","City":"La Canada Flintridge","State":"CA","Zip":"91011"},{"Location":"TAYLORS  STEAKHOUSE","Address":"901 Foothill Blvd","City":"La Canada Flintridge","State":"CA","Zip":"91011"},{"Location":"TORY INC","Address":"2383 Foothill Blvd","City":"La Canada Flintridge","State":"CA","Zip":"91011"},{"Location":"WELLS FARGO HOME MORTGAGE2","Address":"555 Foothill Blvd","City":"La Canada Flintridge","State":"CA","Zip":"91011"},{"Location":"WINGSTOP","Address":"1975 Verdugo Blvd","City":"La Canada Flintridge","State":"CA","Zip":"91011"},{"Location":"CHICKEN DAY","Address":"2383 Foothill Blvd D","City":"La Canada","State":"CA","Zip":"91011"},{"Location":"EIJIS FLORIST","Address":"930 Foothill Blvd","City":"La Canada","State":"CA","Zip":"91011"},{"Location":"HABIT PIZZA","Address":"2261 Foothill Blvd","City":"La Canada","State":"CA","Zip":"91011"},{"Location":"IN STYLE HAIR","Address":"2207 Foothill Blvd","City":"La Canada","State":"CA","Zip":"91011"},{"Location":"MOHAMMED ABGHARY","Address":"2309 Foothill Blvd","City":"La Canada","State":"CA","Zip":"91011"},{"Location":"US FOREST SERVICE ENG 15","Address":"Shortcut Station","City":"La Canada","State":"CA","Zip":"91011"},{"Location":"WCL CORP","Address":"1004 Foothill Blvd","City":"La Canada","State":"CA","Zip":"91011"},{"Location":"WINDY S NAIL & SPA","Address":"1359 Foothill Blvd","City":"La Canada","State":"CA","Zip":"91011"},{"Location":"ALLEN LUND COMPANY%2C INC.","Address":"4529 Angeles Crest Hwy","City":"La Canada Flintridge","State":"CA","Zip":"91011"},{"Location":"ANYTIME FITNESS","Address":"890 Town Center Dr B","City":"La Canada Flintridge","State":"CA","Zip":"91011"},{"Location":"CITIZENS BUSINESS BANK","Address":"858 Foothill Blvd","City":"La Canada Flintridge","State":"CA","Zip":"91011"},{"Location":"CRYSTAL VAPOR","Address":"2259 Foothill Blvd","City":"La Canada Flintridge","State":"CA","Zip":"91011"},{"Location":"DINOS CHICKEN AND BURGERS","Address":"4900 Gould Ave","City":"La Canada Flintridge","State":"CA","Zip":"91011"},{"Location":"DISH","Address":"734 Foothill Blvd","City":"La Canada Flintridge","State":"CA","Zip":"91011"},{"Location":"DONA MARIA MEX REST","Address":"729 Foothill Blvd","City":"La Canada Flintridge","State":"CA","Zip":"91011"},{"Location":"FIRESTONE","Address":"459 Foothill Blvd","City":"La Canada Flintridge","State":"CA","Zip":"91011"},{"Location":"FK INC","Address":"520 Meadowview Dr","City":"La Canada Flintridge","State":"CA","Zip":"91011"},{"Location":"FLINT CANYON TENNIS CLUB","Address":"265 Berkshire Ave","City":"La Canada Flintridge","State":"CA","Zip":"91011"},{"Location":"FLINTRIDGE PROPER PARTNE","Address":"464 Foothill Blvd","City":"La Canada Flintridge","State":"CA","Zip":"91011"},{"Location":"FLINTRIDGE SACRED HEART ACADEM","Address":"440 Saint Katherine Dr","City":"La Canada Flintridge","State":"CA","Zip":"91011"},{"Location":"FOOTHILL MUNICIPAL WATER","Address":"4536 Hampton Rd","City":"La Canada Flintridge","State":"CA","Zip":"91011"},{"Location":"GEORGEE'S PIZZA","Address":"720 Foothill Blvd","City":"La Canada Flintridge","State":"CA","Zip":"91011"},{"Location":"GOODYEAR 4830","Address":"420 Foothill Blvd","City":"La Canada Flintridge","State":"CA","Zip":"91011"},{"Location":"ICHIBAN JAPANESE REST","Address":"711 Foothill Blvd Fg","City":"La Canada Flintridge","State":"CA","Zip":"91011"},{"Location":"JERSEY MIKE'S SUBS","Address":"711 Foothill Blvd B","City":"La Canada Flintridge","State":"CA","Zip":"91011"},{"Location":"LOS GRINGOS LOCOS","Address":"631 Foothill Blvd","City":"La Canada Flintridge","State":"CA","Zip":"91011"},{"Location":"NORTH SHORE BURGERS","Address":"1929 Verdugo Blvd B","City":"La Canada Flintridge","State":"CA","Zip":"91011"},{"Location":"PACIFIC DENTAL #27","Address":"2220 Foothill Blvd A","City":"La Canada Flintridge","State":"CA","Zip":"91011"},{"Location":"PACOS BARBER SHOP","Address":"633 Foothill Blvd","City":"La Canada Flintridge","State":"CA","Zip":"91011"},{"Location":"PAUL A THOMPSON DDS","Address":"4526 Rinetti Ln","City":"La Canada Flintridge","State":"CA","Zip":"91011"},{"Location":"ROUND TABLE PIZZA LA CANADA","Address":"502 Foothill Blvd","City":"La Canada Flintridge","State":"CA","Zip":"91011"},{"Location":"SAKURA INC","Address":"985 Foothill Blvd","City":"La Canada Flintridge","State":"CA","Zip":"91011"},{"Location":"SPORT CLIPS 640","Address":"890 Town Center Dr A","City":"La Canada Flintridge","State":"CA","Zip":"91011"},{"Location":"TAYLORS  STEAKHOUSE","Address":"901 Foothill Blvd","City":"La Canada Flintridge","State":"CA","Zip":"91011"},{"Location":"TORY INC","Address":"2383 Foothill Blvd","City":"La Canada Flintridge","State":"CA","Zip":"91011"},{"Location":"WELLS FARGO HOME MORTGAGE2","Address":"555 Foothill Blvd","City":"La Canada Flintridge","State":"CA","Zip":"91011"},{"Location":"WINGSTOP","Address":"1975 Verdugo Blvd","City":"La Canada Flintridge","State":"CA","Zip":"91011"}]