[{"Location":"24 HOUR FITNESS #170","Address":"715 E Huntington Dr","City":"Monrovia","State":"CA","Zip":"91016"},{"Location":"ABC HAWAIIAN BBQ","Address":"158 W Foothill Blvd","City":"Monrovia","State":"CA","Zip":"91016"},{"Location":"AEGIS AMBULANCE SERVICES","Address":"140 W Chestnut Ave","City":"Monrovia","State":"CA","Zip":"91016"},{"Location":"ALL MY LAUNDRY","Address":"170 W Foothill Blvd","City":"Monrovia","State":"CA","Zip":"91016"},{"Location":"APPLEBEE'S MONROVIA #9191","Address":"502 W Huntington Dr","City":"Monrovia","State":"CA","Zip":"91016"},{"Location":"ARCADIA PHYSICAL THERAPY","Address":"381 E Huntington Dr 203","City":"Monrovia","State":"CA","Zip":"91016"},{"Location":"BELLA SERA TRATTORIA","Address":"4422 South Myrtle Av","City":"Monrovia","State":"CA","Zip":"91016"},{"Location":"BENEDETTO DDS INC","Address":"858 W Foothill Blvd D","City":"Monrovia","State":"CA","Zip":"91016"},{"Location":"BEST FRIENDS PET HOSPITAL","Address":"911 W Foothill Blvd","City":"Monrovia","State":"CA","Zip":"91016"},{"Location":"BIG SHRIMPS FISH GRILL","Address":"123 E Colorado Blvd","City":"Monrovia","State":"CA","Zip":"91016"},{"Location":"CAFE X2O","Address":"335 W Foothill Blvd","City":"Monrovia","State":"CA","Zip":"91016"},{"Location":"CASTILLOS BARBER SHOP","Address":"101 E Chestnut Ave","City":"Monrovia","State":"CA","Zip":"91016"},{"Location":"CERTIFIED MARKET","Address":"227 W Foothill Blvd","City":"Monrovia","State":"CA","Zip":"91016"},{"Location":"CHILI'S #0028","Address":"630 W Huntington Dr","City":"Monrovia","State":"CA","Zip":"91016"},{"Location":"CLAIM JUMPER #15","Address":"820 W Huntington Dr","City":"Monrovia","State":"CA","Zip":"91016"},{"Location":"COLORADO BARBER SHOP","Address":"140 E Colorado Blvd","City":"Monrovia","State":"CA","Zip":"91016"},{"Location":"COMPLIANCE POSTER","Address":"438 W Chestnut Ave","City":"Monrovia","State":"CA","Zip":"91016"},{"Location":"COURTYARD MONROVIA","Address":"700 W Huntington Dr","City":"Monrovia","State":"CA","Zip":"91016"},{"Location":"CREATIVE WOMAN","Address":"1530 S Myrtle Ave","City":"Monrovia","State":"CA","Zip":"91016"},{"Location":"CWA LOCAL 9505","Address":"724 E Huntington Dr","City":"Monrovia","State":"CA","Zip":"91016"},{"Location":"DAVE 101","Address":"172 W Foothill Blvd","City":"Monrovia","State":"CA","Zip":"91016"},{"Location":"DENTAL CARE","Address":"148 W Foothill Blvd","City":"Monrovia","State":"CA","Zip":"91016"},{"Location":"DER WEINERSCHNITZEL","Address":"750 E Huntington Dr","City":"Monrovia","State":"CA","Zip":"91016"},{"Location":"DJMB SERVICES","Address":"122 E Walnut Ave B","City":"Monrovia","State":"CA","Zip":"91016"},{"Location":"DOLLMAKERS","Address":"50 W Lemon Ave 24","City":"Monrovia","State":"CA","Zip":"91016"},{"Location":"DR DOMOTORS ANIMAL HOUSE","Address":"135 W Foothill Blvd","City":"Monrovia","State":"CA","Zip":"91016"},{"Location":"EVER PRIMA INC","Address":"160 W Pomona Ave","City":"Monrovia","State":"CA","Zip":"91016"},{"Location":"EXPERT NAILS","Address":"182 W Fort Hill Blvd","City":"Monrovia","State":"CA","Zip":"91016"},{"Location":"FANTASTIC SAMS-MONROVIA","Address":"180 W Foothill Blvd","City":"Monrovia","State":"CA","Zip":"91016"},{"Location":"FDIC","Address":"1333 S Mayflower Ave 405","City":"Monrovia","State":"CA","Zip":"91016"},{"Location":"FELIKIAN BROTHERS INC","Address":"1321 S Shamrock Ave","City":"Monrovia","State":"CA","Zip":"91016"},{"Location":"FELLOWSHIP MONROVIA","Address":"401 E Huntington Dr","City":"Monrovia","State":"CA","Zip":"91016"},{"Location":"FIRST ADVANTAGE 1","Address":"605 E Huntington Dr 211","City":"Monrovia","State":"CA","Zip":"91016"},{"Location":"FLAME BROILER 97","Address":"446 W Huntington Dr","City":"Monrovia","State":"CA","Zip":"91016"},{"Location":"FOOTHILL GYM","Address":"202 S Myrtle Ave","City":"Monrovia","State":"CA","Zip":"91016"},{"Location":"FOR KEEPS LLC","Address":"929 S Myrtle Ave","City":"Monrovia","State":"CA","Zip":"91016"},{"Location":"GARBIS APELIAN INS AGENCY","Address":"126 W Olive Ave","City":"Monrovia","State":"CA","Zip":"91016"},{"Location":"GEM CITY GRILL","Address":"115-17 E Olive Ave","City":"Monrovia","State":"CA","Zip":"91016"},{"Location":"HEMEDIAGNOSTICS","Address":"2119 S Myrtle Ave Stea","City":"Monrovia","State":"CA","Zip":"91016"},{"Location":"HERMOSA FRANCHISE CONSUL","Address":"452 W Huntington Dr","City":"Monrovia","State":"CA","Zip":"91016"},{"Location":"HOLIDAY INN MONROVIA","Address":"924 W Huntington Dr","City":"Monrovia","State":"CA","Zip":"91016"},{"Location":"HON SUSHI","Address":"144 W Foothill Blvd","City":"Monrovia","State":"CA","Zip":"91016"},{"Location":"I D CHA HOUSE","Address":"931 W Duarte Rd","City":"Monrovia","State":"CA","Zip":"91016"},{"Location":"IMMACULATE CONCEPTION CHURCH","Address":"740 S Shamrock Ave","City":"Monrovia","State":"CA","Zip":"91016"},{"Location":"INCOME TAX AND ACCOUNTING","Address":"116 S Myrtle Ave","City":"Monrovia","State":"CA","Zip":"91016"},{"Location":"ITT CORPORATION%2C SYSTEMS DIV","Address":"1400 S Shamrock Ave","City":"Monrovia","State":"CA","Zip":"91016"},{"Location":"J P PAPER SHREDDERS","Address":"428 W Chestnut Ave","City":"Monrovia","State":"CA","Zip":"91016"},{"Location":"JAIMES SPORTS BAR","Address":"323 W Huntington Dr","City":"Monrovia","State":"CA","Zip":"91016"},{"Location":"JCHADWICK","Address":"1005 S Mountain Ave","City":"Monrovia","State":"CA","Zip":"91016"},{"Location":"JERSEY MIKES SUBS","Address":"444 W Huntington Dr","City":"Monrovia","State":"CA","Zip":"91016"},{"Location":"KEN WU GENERAL PARTNERSHIP","Address":"530 S Myrtle Ave","City":"Monrovia","State":"CA","Zip":"91016"},{"Location":"KIKU SUSHI RESTAURANT","Address":"670 W Huntington Dr","City":"Monrovia","State":"CA","Zip":"91016"},{"Location":"KING CHEESE","Address":"229 Railroad Ave","City":"Monrovia","State":"CA","Zip":"91016"},{"Location":"KJ & M CARPET COMPANY","Address":"918 S Myrtle Ave","City":"Monrovia","State":"CA","Zip":"91016"},{"Location":"KNIGHTS OF COLUMBUS","Address":"130 W Pomona Ave","City":"Monrovia","State":"CA","Zip":"91016"},{"Location":"KOHL'S #1370","Address":"504 W Huntington Dr","City":"Monrovia","State":"CA","Zip":"91016"},{"Location":"KRUSE & SON%2C INC.","Address":"235 Kruse Ave","City":"Monrovia","State":"CA","Zip":"91016"},{"Location":"L.A. RESTAURANT MANAGEME","Address":"852 S Alta Vista Ave","City":"Monrovia","State":"CA","Zip":"91016"},{"Location":"LAS VEGAS SUITES LLC","Address":"513 S Myrtle Ave B","City":"Monrovia","State":"CA","Zip":"91016"},{"Location":"LG MONROVIA","Address":"419 S Myrtle Ave","City":"Monrovia","State":"CA","Zip":"91016"},{"Location":"LIVING SPACES FURNITURE","Address":"407 W Huntington Dr","City":"Monrovia","State":"CA","Zip":"91016"},{"Location":"LOS GUEROS MEXICAN","Address":"313 Huntington Dr","City":"Monrovia","State":"CA","Zip":"91016"},{"Location":"MASKOFF","Address":"345 W Maple Ave","City":"Monrovia","State":"CA","Zip":"91016"},{"Location":"MAXS MEXICAN CUSINE","Address":"1101 E Huntington Dr","City":"Monrovia","State":"CA","Zip":"91016"},{"Location":"MIYAKO","Address":"414 S Myrtle Ave","City":"Monrovia","State":"CA","Zip":"91016"},{"Location":"MONROVIA DENTALCARE","Address":"831 E Huntington Dr 201","City":"Monrovia","State":"CA","Zip":"91016"},{"Location":"MONROVIA FAMILY YMCA","Address":"501 S Mountain Ave","City":"Monrovia","State":"CA","Zip":"91016"},{"Location":"MONROVIA FIRE","Address":"141 E Lemon Ave","City":"Monrovia","State":"CA","Zip":"91016"},{"Location":"MONROVIA MOBILE HOME ESTATES","Address":"1035 E Huntington Dr","City":"Monrovia","State":"CA","Zip":"91016"},{"Location":"MONROVIA PIZZA COMPANY","Address":"503 W Duarte Rd","City":"Monrovia","State":"CA","Zip":"91016"},{"Location":"MONROVIA SHELL","Address":"702 E Huntington Dr","City":"Monrovia","State":"CA","Zip":"91016"},{"Location":"MONROVIA STATION TWO","Address":"2055 S Myrtle Ave","City":"Monrovia","State":"CA","Zip":"91016"},{"Location":"MOONCAT","Address":"108 E Lime Ave","City":"Monrovia","State":"CA","Zip":"91016"},{"Location":"MOUNTAIN VIEW DIALYSIS","Address":"900 S Mountain Ave","City":"Monrovia","State":"CA","Zip":"91016"},{"Location":"MS DIAGNOSTIC LABORATORY","Address":"128 W Olive Ave","City":"Monrovia","State":"CA","Zip":"91016"},{"Location":"MT SIERRA COLLEGE","Address":"101 E Huntington Dr","City":"Monrovia","State":"CA","Zip":"91016"},{"Location":"NEIGHBORHOOD PAWN INC","Address":"619 S Myrtle Ave","City":"Monrovia","State":"CA","Zip":"91016"},{"Location":"NEW WAY CAR WASH","Address":"123 W Duarte Rd","City":"Monrovia","State":"CA","Zip":"91016"},{"Location":"NU WAY PROPERTIES","Address":"145 W Duarte Rd","City":"Monrovia","State":"CA","Zip":"91016"},{"Location":"OLD TOWN PIZZA","Address":"338 S Myrtle Ave","City":"Monrovia","State":"CA","Zip":"91016"},{"Location":"OUTDOOR SPECIALIST","Address":"100 E Huntington Dr 210","City":"Monrovia","State":"CA","Zip":"91016"},{"Location":"PACIFIC PLATE BREWING COMPANY","Address":"1999 S Myrtle Ave","City":"Monrovia","State":"CA","Zip":"91016"},{"Location":"PERIDOT SPA","Address":"935 W Huntington Dr A","City":"Monrovia","State":"CA","Zip":"91016"},{"Location":"PROTOTYPE TO PRODUCTIONS","Address":"2650 S Myrtle Ave 10","City":"Monrovia","State":"CA","Zip":"91016"},{"Location":"RED LOBSTER #0651","Address":"928 W Huntington Dr","City":"Monrovia","State":"CA","Zip":"91016"},{"Location":"REDS DRIVE THRU","Address":"127 W Foothill Blvd","City":"Monrovia","State":"CA","Zip":"91016"},{"Location":"RESTAURANT DEVON","Address":"109 E Lemon Ave","City":"Monrovia","State":"CA","Zip":"91016"},{"Location":"RIGOS MEXICAN RESTAURANT","Address":"457 W Foothill Blvd","City":"Monrovia","State":"CA","Zip":"91016"},{"Location":"RONCELI PLASTICS","Address":"330 W Duarte Rd","City":"Monrovia","State":"CA","Zip":"91016"},{"Location":"RONCELLI PLASTICS","Address":"330 W Duarte Rd","City":"Monrovia","State":"CA","Zip":"91016"},{"Location":"ROUND TABLE-HUNTINGTON DR","Address":"626 W Huntington Dr","City":"Monrovia","State":"CA","Zip":"91016"},{"Location":"RUDY'S MEXICAN FOOD","Address":"602 S Myrtle Ave","City":"Monrovia","State":"CA","Zip":"91016"},{"Location":"SAKURA SUSHI HOUSE","Address":"215 E Foothill Blvd","City":"Monrovia","State":"CA","Zip":"91016"},{"Location":"SCE MONROVIA","Address":"1440 Southern California Ave","City":"Monrovia","State":"CA","Zip":"91016"},{"Location":"SCI HISPANA","Address":"200 E Duarte Rd","City":"Monrovia","State":"CA","Zip":"91016"},{"Location":"SCI HISPANA 2","Address":"200 E Duarte Rd","City":"Monrovia","State":"CA","Zip":"91016"},{"Location":"SECOND BAPTIST CHURCH","Address":"925 S Shamrock Ave","City":"Monrovia","State":"CA","Zip":"91016"},{"Location":"SENNA GROUP LLC","Address":"409 S Myrtle Ave","City":"Monrovia","State":"CA","Zip":"91016"},{"Location":"SONIC AUTOMOTIVE INC","Address":"1425 S Mountain Ave","City":"Monrovia","State":"CA","Zip":"91016"},{"Location":"SONIC AUTOMOTIVE INC 2","Address":"1451 S Mountian Ave","City":"Monrovia","State":"CA","Zip":"91016"},{"Location":"SOUTHERN CALIFORNIA EDISON","Address":"1218 S 5th Ave","City":"Monrovia","State":"CA","Zip":"91016"},{"Location":"STAAR SURGICAL","Address":"1911 Walker Ave","City":"Monrovia","State":"CA","Zip":"91016"},{"Location":"STAAR SURGICAL COMPANY","Address":"1941 Walker Ave","City":"Monrovia","State":"CA","Zip":"91016"},{"Location":"STAR SURGICAL COMPANY","Address":"1911 Walker Ave","City":"Monrovia","State":"CA","Zip":"91016"},{"Location":"STEVE GARRETT & ASSOCIATES","Address":"2003 S Myrtle Ave","City":"Monrovia","State":"CA","Zip":"91016"},{"Location":"SUNDAYS OLD TOWN BISTRO","Address":"520 S Myrtle Ave","City":"Monrovia","State":"CA","Zip":"91016"},{"Location":"SUNNY SOUTHERN CALIFORNIA INC","Address":"750 E Foothill Blvd","City":"Monrovia","State":"CA","Zip":"91016"},{"Location":"T PHILLIPS ALE HOUSE","Address":"601 S Myrtle Ave","City":"Monrovia","State":"CA","Zip":"91016"},{"Location":"TALL PINES COFFEE SHOP","Address":"1540 S Myrtle Ave","City":"Monrovia","State":"CA","Zip":"91016"},{"Location":"TAURIAN        #1061","Address":"560 W Huntington Dr","City":"Monrovia","State":"CA","Zip":"91016"},{"Location":"THE DOLLMAKERS","Address":"412 S Myrtle Ave","City":"Monrovia","State":"CA","Zip":"91016"},{"Location":"THE OPERA","Address":"402 S Myrtle Ave","City":"Monrovia","State":"CA","Zip":"91016"},{"Location":"TIPPING DEVELOPMENT","Address":"911 S Primrose Ave P","City":"Monrovia","State":"CA","Zip":"91016"},{"Location":"TOMDAN ENTERPRISES INC","Address":"831 E Huntington Dr 202","City":"Monrovia","State":"CA","Zip":"91016"},{"Location":"VFW 2070","Address":"825 S Magnolia Ave","City":"Monrovia","State":"CA","Zip":"91016"},{"Location":"WANG","Address":"120 E Lemon Ave","City":"Monrovia","State":"CA","Zip":"91016"},{"Location":"WENDYS 1294","Address":"190 W Foothill Blvd","City":"Monrovia","State":"CA","Zip":"91016"},{"Location":"WINGSTOP #296","Address":"184 W Foothill Blvd D-8","City":"Monrovia","State":"CA","Zip":"91016"}]