[{"Location":"AVR BOULDER BAY CAPITAL","Address":"49 S Baldwin Ave K","City":"Sierra Madre","State":"CA","Zip":"91024"},{"Location":"CASA DEL REY","Address":"31 N Baldwin Ave","City":"Sierra Madre","State":"CA","Zip":"91024"},{"Location":"CLIMB INC","Address":"161 W Sierra Madre Blvd","City":"Sierra Madre","State":"CA","Zip":"91024"},{"Location":"CORFU","Address":"48 W Sierra Madre Blvd","City":"Sierra Madre","State":"CA","Zip":"91024"},{"Location":"GEM PLUMBING INC.","Address":"140 E Montecito Ave","City":"Sierra Madre","State":"CA","Zip":"91024"},{"Location":"LUCKY BALDWINS DELIRIUM CAFE","Address":"21 Kersting Ct","City":"Sierra Madre","State":"CA","Zip":"91024"},{"Location":"NADIENE KUHN CPA","Address":"49 S Baldwin Ave","City":"Sierra Madre","State":"CA","Zip":"91024"},{"Location":"SHIRRE JUICE COMPANY","Address":"1 Kersting Ct","City":"Sierra Madre","State":"CA","Zip":"91024"},{"Location":"SIERRA MADRE PIZZA CO","Address":"181 W Sierra Madre Blvd","City":"Sierra Madre","State":"CA","Zip":"91024"},{"Location":"TAYLOR OL FASHIONED MEAT","Address":"14 E Sierra Madre Blvd","City":"Sierra Madre","State":"CA","Zip":"91024"},{"Location":"THE PEPPERTREE GRILL","Address":"322 W Sierra Madre Blvd","City":"Sierra Madre","State":"CA","Zip":"91024"},{"Location":"WISTERIA RESTAURANT","Address":"44 N Baldwin Ave","City":"Sierra Madre","State":"CA","Zip":"91024"},{"Location":"AVR BOULDER BAY CAPITAL","Address":"49 S Baldwin Ave K","City":"Sierra Madre","State":"CA","Zip":"91024"},{"Location":"CASA DEL REY","Address":"31 N Baldwin Ave","City":"Sierra Madre","State":"CA","Zip":"91024"},{"Location":"CLIMB INC","Address":"161 W Sierra Madre Blvd","City":"Sierra Madre","State":"CA","Zip":"91024"},{"Location":"CORFU","Address":"48 W Sierra Madre Blvd","City":"Sierra Madre","State":"CA","Zip":"91024"},{"Location":"GEM PLUMBING INC.","Address":"140 E Montecito Ave","City":"Sierra Madre","State":"CA","Zip":"91024"},{"Location":"LUCKY BALDWINS DELIRIUM CAFE","Address":"21 Kersting Ct","City":"Sierra Madre","State":"CA","Zip":"91024"},{"Location":"NADIENE KUHN CPA","Address":"49 S Baldwin Ave","City":"Sierra Madre","State":"CA","Zip":"91024"},{"Location":"SHIRRE JUICE COMPANY","Address":"1 Kersting Ct","City":"Sierra Madre","State":"CA","Zip":"91024"},{"Location":"SIERRA MADRE PIZZA CO","Address":"181 W Sierra Madre Blvd","City":"Sierra Madre","State":"CA","Zip":"91024"},{"Location":"TAYLOR OL FASHIONED MEAT","Address":"14 E Sierra Madre Blvd","City":"Sierra Madre","State":"CA","Zip":"91024"},{"Location":"THE PEPPERTREE GRILL","Address":"322 W Sierra Madre Blvd","City":"Sierra Madre","State":"CA","Zip":"91024"},{"Location":"WISTERIA RESTAURANT","Address":"44 N Baldwin Ave","City":"Sierra Madre","State":"CA","Zip":"91024"}]