[{"Location":"ANDERSENS PET SHOP","Address":"2218 Honolulu Ave","City":"Montrose","State":"CA","Zip":"91020"},{"Location":"BASIN 141 LLC","Address":"2265 Honolulu Ave","City":"Montrose","State":"CA","Zip":"91020"},{"Location":"CASA CORDOBA","Address":"2331 Honolulu Ave","City":"Montrose","State":"CA","Zip":"91020"},{"Location":"CLEAVE","Address":"2263 Honolulu Ave","City":"Montrose","State":"CA","Zip":"91020"},{"Location":"EL CHARO RESTAURANT","Address":"3741 Verdugo Rd","City":"Montrose","State":"CA","Zip":"91020"},{"Location":"FRATELLIS PIZZA AND DELI","Address":"2064 Verdugo Blvd B","City":"Montrose","State":"CA","Zip":"91020"},{"Location":"GIUSEPPE'S PIZZERIA","Address":"2428 Honolulu Ave","City":"Montrose","State":"CA","Zip":"91020"},{"Location":"GMI RESTAURANTS INC","Address":"2209 Honolulu Ave","City":"Montrose","State":"CA","Zip":"91020"},{"Location":"JOSELITO'S","Address":"2345 Honolulu Ave","City":"Montrose","State":"CA","Zip":"91020"},{"Location":"MOBILOGIX","Address":"3720 Clifton Pl","City":"Montrose","State":"CA","Zip":"91020"},{"Location":"MONTROSE BAKERY","Address":"2325 Honolulu Ave","City":"Montrose","State":"CA","Zip":"91020"},{"Location":"MONTROSE JEWELERS","Address":"2257 Honolulu Ave","City":"Montrose","State":"CA","Zip":"91020"},{"Location":"MONTROSE LP","Address":"2500 Honolulu Ave","City":"Montrose","State":"CA","Zip":"91020"},{"Location":"PEPE'S MEXICAN RESTAURANT","Address":"2272 Honolulu Ave","City":"Montrose","State":"CA","Zip":"91020"},{"Location":"RAYMOND AND RAYNOND INC","Address":"2307 Honolulu Ave","City":"Montrose","State":"CA","Zip":"91020"},{"Location":"SAKE RESTURANT","Address":"2270 Honolulu Ave","City":"Montrose","State":"CA","Zip":"91020"},{"Location":"SUSHI MONSTER","Address":"2426 Honolulu Ave","City":"Montrose","State":"CA","Zip":"91020"},{"Location":"SUSHI PLUS","Address":"2232 Honolulu Ave","City":"Montrose","State":"CA","Zip":"91020"},{"Location":"UNAI TERIYAKI","Address":"2268 Honolulu Ave","City":"Montrose","State":"CA","Zip":"91020"}]