[{"Location":"MIKE AND ANNES","Address":"1040 Mission St 102","City":"S Pasadena","State":"CA","Zip":"91030"},{"Location":"OCEAN LIQUOR","Address":"2005 Huntington Dr","City":"S Pasadena","State":"CA","Zip":"91030"},{"Location":"AMERPRISE FINANCIAL","Address":"1000 Miss Ion Street B","City":"South  Pasadena","State":"CA","Zip":"91030"},{"Location":"AI JAPANESE RESTAURANT","Address":"1013 Fair Oaks Ave","City":"South Pasadena","State":"CA","Zip":"91030"},{"Location":"ARROYL VISTA INN2","Address":"335 Monterey Rd","City":"South Pasadena","State":"CA","Zip":"91030"},{"Location":"ARROYO RACQUET CLUB","Address":"920 Lohman Ln","City":"South Pasadena","State":"CA","Zip":"91030"},{"Location":"ARROYO VISTA INN","Address":"335 Monterey Rd","City":"South Pasadena","State":"CA","Zip":"91030"},{"Location":"CANOE HOUSE BAR AND GRILL","Address":"805 Fair Oaks Ave","City":"South Pasadena","State":"CA","Zip":"91030"},{"Location":"CARMINES RESTAURANT","Address":"424 Fair Oaks Ave","City":"South Pasadena","State":"CA","Zip":"91030"},{"Location":"CREATIONS HAIR SALON","Address":"1828 Fremont Ave","City":"South Pasadena","State":"CA","Zip":"91030"},{"Location":"FAIR OAKS CIGARS","Address":"806 Fair Oaks Ave","City":"South Pasadena","State":"CA","Zip":"91030"},{"Location":"GLOBAL LAW GROUP","Address":"909 El Centro St","City":"South Pasadena","State":"CA","Zip":"91030"},{"Location":"GUS'S BBQ","Address":"808 Fair Oaks Ave","City":"South Pasadena","State":"CA","Zip":"91030"},{"Location":"LAUREL QUALITY CLEANERS INC","Address":"800 Mission St","City":"South Pasadena","State":"CA","Zip":"91030"},{"Location":"LAW OFFICES OF THOMAS P RILEY","Address":"1114 Fremont Ave","City":"South Pasadena","State":"CA","Zip":"91030"},{"Location":"MAMMA'S BRICK OVEN PIZZA","Address":"710 Fair Oaks Ave","City":"South Pasadena","State":"CA","Zip":"91030"},{"Location":"MESSAGE MV SPA","Address":"1136 Fair Oaks Ave","City":"South Pasadena","State":"CA","Zip":"91030"},{"Location":"MIRROR IMAGE FITNESS","Address":"1139 Fair Oaks Ave","City":"South Pasadena","State":"CA","Zip":"91030"},{"Location":"NONNA PIZZERIA TAKE OUT","Address":"818 Fair Oaks Ave","City":"South Pasadena","State":"CA","Zip":"91030"},{"Location":"PASADENA FIRE 81","Address":"817 Mound Ave","City":"South Pasadena","State":"CA","Zip":"91030"},{"Location":"RADHIKA RESTAURANT INC","Address":"1019 Mission St","City":"South Pasadena","State":"CA","Zip":"91030"},{"Location":"ROUND TABLE-FAIR OAKS","Address":"1127 Fair Oaks Ave","City":"South Pasadena","State":"CA","Zip":"91030"},{"Location":"SHAKERS RESTAURANT","Address":"601 Fair Oaks Ave","City":"South Pasadena","State":"CA","Zip":"91030"},{"Location":"SNAP FITNESS","Address":"807a Meridian Ave","City":"South Pasadena","State":"CA","Zip":"91030"},{"Location":"SOUTH PASADENA ANIMAL HOSPITAL","Address":"1911 Fremont Ave","City":"South Pasadena","State":"CA","Zip":"91030"},{"Location":"SOUTH PASADENA CONV. HOSP","Address":"904 Mission St","City":"South Pasadena","State":"CA","Zip":"91030"},{"Location":"SOUTH PASADENA DENTAL","Address":"1140 Fremont Ave","City":"South Pasadena","State":"CA","Zip":"91030"},{"Location":"SPORT CLIPS CA637","Address":"1124 Fair Oaks Ave","City":"South Pasadena","State":"CA","Zip":"91030"},{"Location":"WNC INSURANCE SERVICES","Address":"899 El Centro St","City":"South Pasadena","State":"CA","Zip":"91030"}]