[{"Location":"CROWS NEST SPORTS GRILL","Address":"7279 Foothill Blvd","City":"Tujunga","State":"CA","Zip":"91042"},{"Location":"CRYSTAL BRIGHT SMILE","Address":"7738 Foothill Blvd","City":"Tujunga","State":"CA","Zip":"91042"},{"Location":"ELKS LODGE","Address":"10137 Commerce Ave","City":"Tujunga","State":"CA","Zip":"91042"},{"Location":"FOOTHILL PLUMBING","Address":"9924 Commerce Ave","City":"Tujunga","State":"CA","Zip":"91042"},{"Location":"HEALTH CARE PARTNERS","Address":"6673 Foothill Blvd","City":"Tujunga","State":"CA","Zip":"91042"},{"Location":"KLARAS HAIRCUT","Address":"7502 Foothill Blvd 103","City":"Tujunga","State":"CA","Zip":"91042"},{"Location":"LEOS PIZZA","Address":"7556 Foothill Blvd","City":"Tujunga","State":"CA","Zip":"91042"},{"Location":"OAKPARK HEALTHCARE","Address":"9166 Tujunga Canyon Blvd","City":"Tujunga","State":"CA","Zip":"91042"},{"Location":"OAKVIEW CONVALESCENT HOSPITAL","Address":"9166 Tujunga Canyon Blvd","City":"Tujunga","State":"CA","Zip":"91042"},{"Location":"OUR LADY OF LOURDES CHURCH","Address":"10321 Tujunga Canyon Blvd","City":"Tujunga","State":"CA","Zip":"91042"},{"Location":"PACOIMA MOTORS 2","Address":"7529 Foothill Blvd","City":"Tujunga","State":"CA","Zip":"91042"},{"Location":"SUNLAND CARE GIVERS","Address":"7445 Foothill Blvd","City":"Tujunga","State":"CA","Zip":"91042"},{"Location":"TEES ON THE GREEN","Address":"6433 Latuna Canon Rd","City":"Tujunga","State":"CA","Zip":"91042"},{"Location":"TUJUNGA BARBERSHOP","Address":"6651 Foothill Blvd","City":"Tujunga","State":"CA","Zip":"91042"},{"Location":"US FORREST SERVICE","Address":"2131 Stonyvale Rd","City":"Tujunga","State":"CA","Zip":"91042"},{"Location":"VASQUEZ","Address":"7146 Foothill Blvd","City":"Tujunga","State":"CA","Zip":"91042"},{"Location":"WORLD GYM","Address":"6656 Foothill Blvd","City":"Tujunga","State":"CA","Zip":"91042"},{"Location":"YMCA","Address":"6840 Foothill Blvd","City":"Tujunga","State":"CA","Zip":"91042"}]