[{"Location":"ANGELES GOLF CLUB MAINTANENCE","Address":"9401 Foothill Blvd","City":"Sunland","State":"CA","Zip":"91040"},{"Location":"ANGELES NATIONAL GOLF CLUB","Address":"9401 Foothill Blvd","City":"Sunland","State":"CA","Zip":"91040"},{"Location":"AUTOS USA","Address":"8220 Foothill Blvd","City":"Sunland","State":"CA","Zip":"91040"},{"Location":"BIG MAMAS & PAPAS PIZZERIA","Address":"7802 Foothill Blvd H","City":"Sunland","State":"CA","Zip":"91040"},{"Location":"ESTRADA ENTERPRISE LAUNDRY","Address":"8662 Foothill Blvd","City":"Sunland","State":"CA","Zip":"91040"},{"Location":"HORIZON","Address":"8737 Fenwick St","City":"Sunland","State":"CA","Zip":"91040"},{"Location":"HOUSE OF SKEWERS","Address":"8422 Foothill Blvd","City":"Sunland","State":"CA","Zip":"91040"},{"Location":"JAPANESE SAKE SAKE SUSHI","Address":"8343 Foothill Blvd A","City":"Sunland","State":"CA","Zip":"91040"},{"Location":"LOS ARCHOS MEXICAN","Address":"8418 Foothill Blvd","City":"Sunland","State":"CA","Zip":"91040"},{"Location":"NARCONON  FRESH START","Address":"10601 Hillrose Cir","City":"Sunland","State":"CA","Zip":"91040"},{"Location":"NARCONON FRESH START","Address":"10651 Hillrose Cir","City":"Sunland","State":"CA","Zip":"91040"},{"Location":"NEW VISTA NURSING ADMIN","Address":"8647 Fenwick St","City":"Sunland","State":"CA","Zip":"91040"},{"Location":"PALS SHADOW HILLS CLEANERS","Address":"9680 Sunland Blvd","City":"Sunland","State":"CA","Zip":"91040"},{"Location":"RISE AND SHINE","Address":"9685 Sunland Blvd","City":"Sunland","State":"CA","Zip":"91040"},{"Location":"SHAWARMA HOUSE","Address":"8515 Foothill Blvd","City":"Sunland","State":"CA","Zip":"91040"},{"Location":"STAR HAND WASH INC","Address":"8220 Foothill Blvd D","City":"Sunland","State":"CA","Zip":"91040"},{"Location":"SUN THRIFT STORE","Address":"8800 Foothill Boulevar","City":"Sunland","State":"CA","Zip":"91040"},{"Location":"SUNDOWN CLUB","Address":"7803 Foothill Blvd","City":"Sunland","State":"CA","Zip":"91040"},{"Location":"SUNLAND CHIROPRACTIC","Address":"7969 Foothill Blvd","City":"Sunland","State":"CA","Zip":"91040"},{"Location":"UNIQUE HAIRCUT","Address":"8519 Foothill Blvd","City":"Sunland","State":"CA","Zip":"91040"},{"Location":"WHERE ELSE INC","Address":"8234 Foothill Blvd","City":"Sunland","State":"CA","Zip":"91040"},{"Location":"ANGELES GOLF CLUB MAINTANENCE","Address":"9401 Foothill Blvd","City":"Sunland","State":"CA","Zip":"91040"},{"Location":"ANGELES NATIONAL GOLF CLUB","Address":"9401 Foothill Blvd","City":"Sunland","State":"CA","Zip":"91040"},{"Location":"AUTOS USA","Address":"8220 Foothill Blvd","City":"Sunland","State":"CA","Zip":"91040"},{"Location":"BIG MAMAS & PAPAS PIZZERIA","Address":"7802 Foothill Blvd H","City":"Sunland","State":"CA","Zip":"91040"},{"Location":"ESTRADA ENTERPRISE LAUNDRY","Address":"8662 Foothill Blvd","City":"Sunland","State":"CA","Zip":"91040"},{"Location":"HORIZON","Address":"8737 Fenwick St","City":"Sunland","State":"CA","Zip":"91040"},{"Location":"HOUSE OF SKEWERS","Address":"8422 Foothill Blvd","City":"Sunland","State":"CA","Zip":"91040"},{"Location":"JAPANESE SAKE SAKE SUSHI","Address":"8343 Foothill Blvd A","City":"Sunland","State":"CA","Zip":"91040"},{"Location":"LOS ARCHOS MEXICAN","Address":"8418 Foothill Blvd","City":"Sunland","State":"CA","Zip":"91040"},{"Location":"NARCONON  FRESH START","Address":"10601 Hillrose Cir","City":"Sunland","State":"CA","Zip":"91040"},{"Location":"NARCONON FRESH START","Address":"10651 Hillrose Cir","City":"Sunland","State":"CA","Zip":"91040"},{"Location":"NEW VISTA NURSING ADMIN","Address":"8647 Fenwick St","City":"Sunland","State":"CA","Zip":"91040"},{"Location":"PALS SHADOW HILLS CLEANERS","Address":"9680 Sunland Blvd","City":"Sunland","State":"CA","Zip":"91040"},{"Location":"RISE AND SHINE","Address":"9685 Sunland Blvd","City":"Sunland","State":"CA","Zip":"91040"},{"Location":"SHAWARMA HOUSE","Address":"8515 Foothill Blvd","City":"Sunland","State":"CA","Zip":"91040"},{"Location":"STAR HAND WASH INC","Address":"8220 Foothill Blvd D","City":"Sunland","State":"CA","Zip":"91040"},{"Location":"SUN THRIFT STORE","Address":"8800 Foothill Boulevar","City":"Sunland","State":"CA","Zip":"91040"},{"Location":"SUNDOWN CLUB","Address":"7803 Foothill Blvd","City":"Sunland","State":"CA","Zip":"91040"},{"Location":"SUNLAND CHIROPRACTIC","Address":"7969 Foothill Blvd","City":"Sunland","State":"CA","Zip":"91040"},{"Location":"UNIQUE HAIRCUT","Address":"8519 Foothill Blvd","City":"Sunland","State":"CA","Zip":"91040"},{"Location":"WHERE ELSE INC","Address":"8234 Foothill Blvd","City":"Sunland","State":"CA","Zip":"91040"}]