[{"Location":"AKA BISTRO","Address":"41 Hugus Aly","City":"Pasadena","State":"CA","Zip":"91103"},{"Location":"ARMO PROPERTY LLC DBA THE WOLF","Address":"72 N Fair Oaks Ave","City":"Pasadena","State":"CA","Zip":"91103"},{"Location":"ART CENTER COLLEGE 1","Address":"1700 Lida St","City":"Pasadena","State":"CA","Zip":"91103"},{"Location":"AUDIO ELEMENT","Address":"117 E Union St","City":"Pasadena","State":"CA","Zip":"91103"},{"Location":"AYZENBERG GROUP INC.","Address":"49 E Walnut St","City":"Pasadena","State":"CA","Zip":"91103"},{"Location":"BAD SUSHI SANTA INC","Address":"29 E Holly St","City":"Pasadena","State":"CA","Zip":"91103"},{"Location":"BECKHAM GRILL","Address":"77 W Walnut St","City":"Pasadena","State":"CA","Zip":"91103"},{"Location":"BETHEL BAPTIST CHURCH","Address":"1972 N Fair Oaks Ave","City":"Pasadena","State":"CA","Zip":"91103"},{"Location":"BETHLEHEM CHURCH OF CHRI","Address":"1550 N Fair Oaks Ave","City":"Pasadena","State":"CA","Zip":"91103"},{"Location":"BROOKSIDE GOLF CLUB","Address":"1133 Rosemont Ave","City":"Pasadena","State":"CA","Zip":"91103"},{"Location":"C S BARBER SHOP","Address":"2051 N Fair Oaks Ave","City":"Pasadena","State":"CA","Zip":"91103"},{"Location":"CAFE SANTORINI","Address":"64 W Union St","City":"Pasadena","State":"CA","Zip":"91103"},{"Location":"CAMELLA GARDENS","Address":"1920 N Fair Oaks Ave","City":"Pasadena","State":"CA","Zip":"91103"},{"Location":"CASTLE PRESS","Address":"1222 N Fair Oaks Ave","City":"Pasadena","State":"CA","Zip":"91103"},{"Location":"CROSS CAMPUS 2","Address":"85 N Raymond Ave","City":"Pasadena","State":"CA","Zip":"91103"},{"Location":"CROWN CITY SPORTS","Address":"17 N Raymond Ave","City":"Pasadena","State":"CA","Zip":"91103"},{"Location":"DEWITT ALGORRI AND ALGORRI","Address":"25 E Union St","City":"Pasadena","State":"CA","Zip":"91103"},{"Location":"DUNCAN STUDIO INC","Address":"35 N Arroyo Pkwy 200","City":"Pasadena","State":"CA","Zip":"91103"},{"Location":"EDEN GARDEN BAR & GRILL","Address":"175 E Holly St","City":"Pasadena","State":"CA","Zip":"91103"},{"Location":"EISENHOWER NURSE & CONV-1","Address":"1470 N Fair Oaks Ave","City":"Pasadena","State":"CA","Zip":"91103"},{"Location":"EISENHOWER NURSE & CONV-2","Address":"1470 N Fair Oaks Ave","City":"Pasadena","State":"CA","Zip":"91103"},{"Location":"FINOCCHIARO & COMPANY","Address":"20 N Raymond Ave 350","City":"Pasadena","State":"CA","Zip":"91103"},{"Location":"FIRST STUDENT","Address":"1600 Lincoln Ave","City":"Pasadena","State":"CA","Zip":"91103"},{"Location":"FULL COUNT BASEBALL ACADEMY","Address":"1200 N Fair Oaks Ave","City":"Pasadena","State":"CA","Zip":"91103"},{"Location":"GOLDEN CROSS","Address":"1450 N Fair Oaks Ave","City":"Pasadena","State":"CA","Zip":"91103"},{"Location":"GRIFOLS","Address":"1520 Lancashire St","City":"Pasadena","State":"CA","Zip":"91103"},{"Location":"GV FOUNDATION","Address":"1230 N Marengo Ave","City":"Pasadena","State":"CA","Zip":"91103"},{"Location":"HEY THAT'S AMORE","Address":"27 E Holly St","City":"Pasadena","State":"CA","Zip":"91103"},{"Location":"IL FORNAIO PASADENA","Address":"24 W Union St","City":"Pasadena","State":"CA","Zip":"91103"},{"Location":"IMAGE BEAUTY","Address":"164 E Orange Grove Blvd B","City":"Pasadena","State":"CA","Zip":"91103"},{"Location":"J G BOSWELL COMPANY","Address":"101 W Walnut St","City":"Pasadena","State":"CA","Zip":"91103"},{"Location":"LUKE WALKER5S BARBER BEAUTY","Address":"627 N Fair Oaks Ave","City":"Pasadena","State":"CA","Zip":"91103"},{"Location":"LUKE WALKERS BARBER & BE","Address":"627 N Fair Oaks Ave","City":"Pasadena","State":"CA","Zip":"91103"},{"Location":"LUPITAS","Address":"1365 N Fair Oaks Ave","City":"Pasadena","State":"CA","Zip":"91103"},{"Location":"MARINA'S BEAUTY SALON","Address":"708 N Marengo Ave","City":"Pasadena","State":"CA","Zip":"91103"},{"Location":"MARITZA RESTAURANT","Address":"687 N Raymond Ave Pasad","City":"Pasadena","State":"CA","Zip":"91103"},{"Location":"NEW LIGHT HOLINESS","Address":"2005 N Fair Oaks Ave","City":"Pasadena","State":"CA","Zip":"91103"},{"Location":"NIKKA FISH & GRILL","Address":"43 E Union St","City":"Pasadena","State":"CA","Zip":"91103"},{"Location":"OLD TOWNE PUB","Address":"66 N Fair Oaks Ave","City":"Pasadena","State":"CA","Zip":"91103"},{"Location":"ONE COLORADO INVESTMENTS LLC","Address":"24 E Union St","City":"Pasadena","State":"CA","Zip":"91103"},{"Location":"OPERATING ENGINEERS LOCAL 12","Address":"150 Corson St","City":"Pasadena","State":"CA","Zip":"91103"},{"Location":"OSHER VAN DE VOODE INVESTMENT","Address":"125 N Raymond Ave 309","City":"Pasadena","State":"CA","Zip":"91103"},{"Location":"PASADENA FISH MARKET","Address":"181 E Orange Grove Blvd","City":"Pasadena","State":"CA","Zip":"91103"},{"Location":"PASADENA PRIMARY CARE ME","Address":"1403 N Fair Oaks Ave 2","City":"Pasadena","State":"CA","Zip":"91103"},{"Location":"PASADENA RECOVERY CENTER","Address":"1811 N Raymond Ave","City":"Pasadena","State":"CA","Zip":"91103"},{"Location":"PV REALTY","Address":"39 E Union St","City":"Pasadena","State":"CA","Zip":"91103"},{"Location":"ROSE BOWL","Address":"1001 Rose Bowl Dr","City":"Pasadena","State":"CA","Zip":"91103"},{"Location":"RUSNAK - AUDI","Address":"55 N Saint John Ave","City":"Pasadena","State":"CA","Zip":"91103"},{"Location":"SCOTT UNITED METHODIST C","Address":"444 N Orange Grove Blvd","City":"Pasadena","State":"CA","Zip":"91103"},{"Location":"SEVILLE CONSTRUCTION SERVICES","Address":"35 Hugus Aly 210","City":"Pasadena","State":"CA","Zip":"91103"},{"Location":"SIAGON NOODLE","Address":"28 N Raymond Ave","City":"Pasadena","State":"CA","Zip":"91103"},{"Location":"SLATERS 50%2F50 PASADENA","Address":"61 N Raymond Ave","City":"Pasadena","State":"CA","Zip":"91103"},{"Location":"SPLASH HAIR SALON","Address":"1270 Lincoln Ave 1500","City":"Pasadena","State":"CA","Zip":"91103"},{"Location":"SUSHI ROKU PASADENA","Address":"33 Miller Aly","City":"Pasadena","State":"CA","Zip":"91103"},{"Location":"TESTING & TREATMENT SPECIALIST","Address":"30 N Raymond Ave 405","City":"Pasadena","State":"CA","Zip":"91103"},{"Location":"THARAL THOMAS","Address":"1485 Lincoln Ave","City":"Pasadena","State":"CA","Zip":"91103"},{"Location":"THE FAMILY CHURCH","Address":"1540 Lincoln Ave","City":"Pasadena","State":"CA","Zip":"91103"},{"Location":"THE ROSEBOWL AQUATICS CENTER","Address":"360 N Arroyo Blvd","City":"Pasadena","State":"CA","Zip":"91103"},{"Location":"UNION STREET BAR","Address":"53 E Union St","City":"Pasadena","State":"CA","Zip":"91103"},{"Location":"VEROS RESTAURANT","Address":"654 Lincoln Ave","City":"Pasadena","State":"CA","Zip":"91103"},{"Location":"VERTICAL WINE BISTRO","Address":"70 N Raymond Ave","City":"Pasadena","State":"CA","Zip":"91103"},{"Location":"VILLAGE ROADSHOW","Address":"42 Miller Aly","City":"Pasadena","State":"CA","Zip":"91103"},{"Location":"AKA BISTRO","Address":"41 Hugus Aly","City":"Pasadena","State":"CA","Zip":"91103"},{"Location":"ARMO PROPERTY LLC DBA THE WOLF","Address":"72 N Fair Oaks Ave","City":"Pasadena","State":"CA","Zip":"91103"},{"Location":"ART CENTER COLLEGE 1","Address":"1700 Lida St","City":"Pasadena","State":"CA","Zip":"91103"},{"Location":"AUDIO ELEMENT","Address":"117 E Union St","City":"Pasadena","State":"CA","Zip":"91103"},{"Location":"AYZENBERG GROUP INC.","Address":"49 E Walnut St","City":"Pasadena","State":"CA","Zip":"91103"},{"Location":"BAD SUSHI SANTA INC","Address":"29 E Holly St","City":"Pasadena","State":"CA","Zip":"91103"},{"Location":"BECKHAM GRILL","Address":"77 W Walnut St","City":"Pasadena","State":"CA","Zip":"91103"},{"Location":"BETHEL BAPTIST CHURCH","Address":"1972 N Fair Oaks Ave","City":"Pasadena","State":"CA","Zip":"91103"},{"Location":"BETHLEHEM CHURCH OF CHRI","Address":"1550 N Fair Oaks Ave","City":"Pasadena","State":"CA","Zip":"91103"},{"Location":"BROOKSIDE GOLF CLUB","Address":"1133 Rosemont Ave","City":"Pasadena","State":"CA","Zip":"91103"},{"Location":"C S BARBER SHOP","Address":"2051 N Fair Oaks Ave","City":"Pasadena","State":"CA","Zip":"91103"},{"Location":"Cafe Santorini","Address":"64 W Union St","City":"Pasadena","State":"CA","Zip":"91103"},{"Location":"CAMELLA GARDENS","Address":"1920 N Fair Oaks Ave","City":"Pasadena","State":"CA","Zip":"91103"},{"Location":"CASTLE PRESS","Address":"1222 N Fair Oaks Ave","City":"Pasadena","State":"CA","Zip":"91103"},{"Location":"CROSS CAMPUS 2","Address":"85 N Raymond Ave","City":"Pasadena","State":"CA","Zip":"91103"},{"Location":"CROWN CITY SPORTS","Address":"17 N Raymond Ave","City":"Pasadena","State":"CA","Zip":"91103"},{"Location":"DEWITT ALGORRI AND ALGORRI","Address":"25 E Union St","City":"Pasadena","State":"CA","Zip":"91103"},{"Location":"DUNCAN STUDIO INC","Address":"35 N Arroyo Pkwy 200","City":"Pasadena","State":"CA","Zip":"91103"},{"Location":"EDEN GARDEN BAR & GRILL","Address":"175 E Holly St","City":"Pasadena","State":"CA","Zip":"91103"},{"Location":"EISENHOWER NURSE & CONV-1","Address":"1470 N Fair Oaks Ave","City":"Pasadena","State":"CA","Zip":"91103"},{"Location":"EISENHOWER NURSE & CONV-2","Address":"1470 N Fair Oaks Ave","City":"Pasadena","State":"CA","Zip":"91103"},{"Location":"FINOCCHIARO & COMPANY","Address":"20 N Raymond Ave 350","City":"Pasadena","State":"CA","Zip":"91103"},{"Location":"FIRST STUDENT","Address":"1600 Lincoln Ave","City":"Pasadena","State":"CA","Zip":"91103"},{"Location":"FULL COUNT BASEBALL ACADEMY","Address":"1200 N Fair Oaks Ave","City":"Pasadena","State":"CA","Zip":"91103"},{"Location":"GOLDEN CROSS","Address":"1450 N Fair Oaks Ave","City":"Pasadena","State":"CA","Zip":"91103"},{"Location":"GRIFOLS","Address":"1520 Lancashire St","City":"Pasadena","State":"CA","Zip":"91103"},{"Location":"GV FOUNDATION","Address":"1230 N Marengo Ave","City":"Pasadena","State":"CA","Zip":"91103"},{"Location":"HEY THAT'S AMORE","Address":"27 E Holly St","City":"Pasadena","State":"CA","Zip":"91103"},{"Location":"IL FORNAIO PASADENA","Address":"24 W Union St","City":"Pasadena","State":"CA","Zip":"91103"},{"Location":"IMAGE BEAUTY","Address":"164 E Orange Grove Blvd B","City":"Pasadena","State":"CA","Zip":"91103"},{"Location":"J G BOSWELL COMPANY","Address":"101 W Walnut St","City":"Pasadena","State":"CA","Zip":"91103"},{"Location":"LUKE WALKER5S BARBER BEAUTY","Address":"627 N Fair Oaks Ave","City":"Pasadena","State":"CA","Zip":"91103"},{"Location":"LUKE WALKERS BARBER & BE","Address":"627 N Fair Oaks Ave","City":"Pasadena","State":"CA","Zip":"91103"},{"Location":"LUPITAS","Address":"1365 N Fair Oaks Ave","City":"Pasadena","State":"CA","Zip":"91103"},{"Location":"MARINA'S BEAUTY SALON","Address":"708 N Marengo Ave","City":"Pasadena","State":"CA","Zip":"91103"},{"Location":"MARITZA RESTAURANT","Address":"687 N Raymond Ave Pasad","City":"Pasadena","State":"CA","Zip":"91103"},{"Location":"NEW LIGHT HOLINESS","Address":"2005 N Fair Oaks Ave","City":"Pasadena","State":"CA","Zip":"91103"},{"Location":"NIKKA FISH & GRILL","Address":"43 E Union St","City":"Pasadena","State":"CA","Zip":"91103"},{"Location":"OLD TOWNE PUB","Address":"66 N Fair Oaks Ave","City":"Pasadena","State":"CA","Zip":"91103"},{"Location":"ONE COLORADO INVESTMENTS LLC","Address":"24 E Union St","City":"Pasadena","State":"CA","Zip":"91103"},{"Location":"OPERATING ENGINEERS LOCAL 12","Address":"150 Corson St","City":"Pasadena","State":"CA","Zip":"91103"},{"Location":"OSHER VAN DE VOODE INVESTMENT","Address":"125 N Raymond Ave 309","City":"Pasadena","State":"CA","Zip":"91103"},{"Location":"PASADENA FISH MARKET","Address":"181 E Orange Grove Blvd","City":"Pasadena","State":"CA","Zip":"91103"},{"Location":"PASADENA PRIMARY CARE ME","Address":"1403 N Fair Oaks Ave 2","City":"Pasadena","State":"CA","Zip":"91103"},{"Location":"PASADENA RECOVERY CENTER","Address":"1811 N Raymond Ave","City":"Pasadena","State":"CA","Zip":"91103"},{"Location":"PV REALTY","Address":"39 E Union St","City":"Pasadena","State":"CA","Zip":"91103"},{"Location":"ROSE BOWL","Address":"1001 Rose Bowl Dr","City":"Pasadena","State":"CA","Zip":"91103"},{"Location":"RUSNAK - AUDI","Address":"55 N Saint John Ave","City":"Pasadena","State":"CA","Zip":"91103"},{"Location":"SCOTT UNITED METHODIST C","Address":"444 N Orange Grove Blvd","City":"Pasadena","State":"CA","Zip":"91103"},{"Location":"SEVILLE CONSTRUCTION SERVICES","Address":"35 Hugus Aly 210","City":"Pasadena","State":"CA","Zip":"91103"},{"Location":"SIAGON NOODLE","Address":"28 N Raymond Ave","City":"Pasadena","State":"CA","Zip":"91103"},{"Location":"SLATERS 50%2F50 PASADENA","Address":"61 N Raymond Ave","City":"Pasadena","State":"CA","Zip":"91103"},{"Location":"SOPHIA LYN CONVALESCENT HOSPIT","Address":"1570 N Fair Oaks Ave","City":"Pasadena","State":"CA","Zip":"91103"},{"Location":"SPLASH HAIR SALON","Address":"1270 Lincoln Ave 1500","City":"Pasadena","State":"CA","Zip":"91103"},{"Location":"SUSHI ROKU PASADENA","Address":"33 Miller Aly","City":"Pasadena","State":"CA","Zip":"91103"},{"Location":"TESTING & TREATMENT SPECIALIST","Address":"30 N Raymond Ave 405","City":"Pasadena","State":"CA","Zip":"91103"},{"Location":"THARAL THOMAS","Address":"1485 Lincoln Ave","City":"Pasadena","State":"CA","Zip":"91103"},{"Location":"THE FAMILY CHURCH","Address":"1540 Lincoln Ave","City":"Pasadena","State":"CA","Zip":"91103"},{"Location":"THE ROSEBOWL AQUATICS CENTER","Address":"360 N Arroyo Blvd","City":"Pasadena","State":"CA","Zip":"91103"},{"Location":"UNION STREET BAR","Address":"53 E Union St","City":"Pasadena","State":"CA","Zip":"91103"},{"Location":"VEROS RESTAURANT","Address":"654 Lincoln Ave","City":"Pasadena","State":"CA","Zip":"91103"},{"Location":"VERTICAL WINE BISTRO","Address":"70 N Raymond Ave","City":"Pasadena","State":"CA","Zip":"91103"},{"Location":"VILLA OAKS CONVALESCENT HOSPIT","Address":"1515 N Fair Oaks Ave","City":"Pasadena","State":"CA","Zip":"91103"},{"Location":"VILLAGE ROADSHOW","Address":"42 Miller Aly","City":"Pasadena","State":"CA","Zip":"91103"}]