[{"Location":"24 HOUR FITNESS #173","Address":"465 N Halstead St","City":"Pasadena","State":"CA","Zip":"91107"},{"Location":"AAC RESTAURANT","Address":"2122 E Foothill Blvd","City":"Pasadena","State":"CA","Zip":"91107"},{"Location":"ALONDRA HOT WINGS PASADE","Address":"2675 E Colorado Blvd","City":"Pasadena","State":"CA","Zip":"91107"},{"Location":"AMERICAN LEGIONS 280","Address":"179 N Vinedo Ave","City":"Pasadena","State":"CA","Zip":"91107"},{"Location":"AMERICAN RED CROSS1","Address":"133 N Altadena Dr 103","City":"Pasadena","State":"CA","Zip":"91107"},{"Location":"AMF 300 PASADENA #257","Address":"3545 E Foothill Blvd","City":"Pasadena","State":"CA","Zip":"91107"},{"Location":"AMORE NAILS SPA","Address":"3835 E Sierra Madre Blvd","City":"Pasadena","State":"CA","Zip":"91107"},{"Location":"ASHORI INVESTMENTS DBA ERIK","Address":"2639 E Foothill Blvd","City":"Pasadena","State":"CA","Zip":"91107"},{"Location":"AURORA LAS ENCINAS HOSPITAL","Address":"2900 E Del Mar Blvd","City":"Pasadena","State":"CA","Zip":"91107"},{"Location":"AVANTI ITALIAN BISTRO","Address":"187 N Sierra Madre Blvd","City":"Pasadena","State":"CA","Zip":"91107"},{"Location":"BUZIOS FROZEN YOGURT CAFE","Address":"2345 E Colorado Blvd 195","City":"Pasadena","State":"CA","Zip":"91107"},{"Location":"CAMERONS SEAFOOD","Address":"1978 E Colorado Blvd","City":"Pasadena","State":"CA","Zip":"91107"},{"Location":"CAPTAIN TABACCO","Address":"2371 E Colorado Blvd","City":"Pasadena","State":"CA","Zip":"91107"},{"Location":"CHIQUITA BONITA","Address":"3565 E Colorado Blvd","City":"Pasadena","State":"CA","Zip":"91107"},{"Location":"CLASSIC GERMAN MOTORS","Address":"1818 E Walnut St","City":"Pasadena","State":"CA","Zip":"91107"},{"Location":"COLORADO PUB","Address":"2640 E Colorado Blvd","City":"Pasadena","State":"CA","Zip":"91107"},{"Location":"COMMERCIAL TEST ECOF #3","Address":"3581 E Colorado Blvd","City":"Pasadena","State":"CA","Zip":"91107"},{"Location":"CONSTUCTION 911","Address":"2070 E Walnut St","City":"Pasadena","State":"CA","Zip":"91107"},{"Location":"DANONE WATERS OF NORTH AMERICA","Address":"465 N Halstead St 150","City":"Pasadena","State":"CA","Zip":"91107"},{"Location":"DAPHNES","Address":"3573 E Foothill Blvd","City":"Pasadena","State":"CA","Zip":"91107"},{"Location":"DAVITA #331 EATON CANYON","Address":"2551 E Washington Blvd","City":"Pasadena","State":"CA","Zip":"91107"},{"Location":"DAVITA #4329 PASADENA","Address":"3722 E Colorado Blvd","City":"Pasadena","State":"CA","Zip":"91107"},{"Location":"DENTAL STUDIO OF PASEDENA","Address":"2270 E Colorado Blvd","City":"Pasadena","State":"CA","Zip":"91107"},{"Location":"DICK'S SPORTING GOODS #932","Address":"3359 E Foothill Blvd","City":"Pasadena","State":"CA","Zip":"91107"},{"Location":"DOLPHINS RENTALS INC","Address":"1901 E Colorado Blvd","City":"Pasadena","State":"CA","Zip":"91107"},{"Location":"DON FRANCO ENTERPRISES","Address":"470 S Rosemead Blvd","City":"Pasadena","State":"CA","Zip":"91107"},{"Location":"EL TORITO #7163","Address":"3333 E Foothill Blvd","City":"Pasadena","State":"CA","Zip":"91107"},{"Location":"ENTERPRISE MOTORS","Address":"2460 E Walnut St","City":"Pasadena","State":"CA","Zip":"91107"},{"Location":"FANTASTIC SAMS","Address":"3645 E Foothill Blvd","City":"Pasadena","State":"CA","Zip":"91107"},{"Location":"FIRST WESTERN BROKERAGE","Address":"1235 Leonard Ave","City":"Pasadena","State":"CA","Zip":"91107"},{"Location":"FLAME BROILER 100","Address":"2335 E Colorado Blvd 100","City":"Pasadena","State":"CA","Zip":"91107"},{"Location":"FORZA SILICON CORPORATION","Address":"2947 Bradley St 130","City":"Pasadena","State":"CA","Zip":"91107"},{"Location":"GANAHL LUMBER","Address":"3003 E Colorado Blvd","City":"Pasadena","State":"CA","Zip":"91107"},{"Location":"GAON RESTAURANT","Address":"2063 E Colorado Blvd","City":"Pasadena","State":"CA","Zip":"91107"},{"Location":"GIN SUSHI","Address":"3589 E Colorado Blvd","City":"Pasadena","State":"CA","Zip":"91107"},{"Location":"GLOBALINK SECURITIES INC","Address":"3452 E Foothill Blvd 1040","City":"Pasadena","State":"CA","Zip":"91107"},{"Location":"GOGO  SUSHI","Address":"2269 E Colorado Blvd C101","City":"Pasadena","State":"CA","Zip":"91107"},{"Location":"GOLD KNOX JEWELRY","Address":"3556 E Foothill Blvd","City":"Pasadena","State":"CA","Zip":"91107"},{"Location":"GOLDMINE JEWELERS","Address":"1818 E Colorado Blvd","City":"Pasadena","State":"CA","Zip":"91107"},{"Location":"GOLFSMITH #034","Address":"3309 E Foothill Blvd","City":"Pasadena","State":"CA","Zip":"91107"},{"Location":"GOODYEAR 4870","Address":"2480 E Foothill Blvd","City":"Pasadena","State":"CA","Zip":"91107"},{"Location":"GREEN DOT","Address":"3465 E Foothill Blvd","City":"Pasadena","State":"CA","Zip":"91107"},{"Location":"GRIFFINEST ASIA SECURITIES","Address":"3452 E Foothill Blvd 100","City":"Pasadena","State":"CA","Zip":"91107"},{"Location":"HASTING CLEANERS","Address":"430 Hastings Ranch Rd","City":"Pasadena","State":"CA","Zip":"91107"},{"Location":"HASTINGS S RANCH TOGOS","Address":"3405 E Foothill Blvd","City":"Pasadena","State":"CA","Zip":"91107"},{"Location":"HI TEK AUTOMOTIVE","Address":"2132 E Walnut St","City":"Pasadena","State":"CA","Zip":"91107"},{"Location":"HONDA OF PASADENA","Address":"1965 E Foothill Blvd","City":"Pasadena","State":"CA","Zip":"91107"},{"Location":"HOTHEADS","Address":"2513 E Colorado Blvd","City":"Pasadena","State":"CA","Zip":"91107"},{"Location":"ICHIMA SUSHI","Address":"325 N Rosemead Blvd","City":"Pasadena","State":"CA","Zip":"91107"},{"Location":"ISLANDS RESTAURANT #003","Address":"3533 E Foothill Blvd","City":"Pasadena","State":"CA","Zip":"91107"},{"Location":"JOHNNIES PAINT AND BODY SHOP","Address":"2245 E Foothill Blvd","City":"Pasadena","State":"CA","Zip":"91107"},{"Location":"KABUKI PASADENA","Address":"3539 E Foothill Blvd","City":"Pasadena","State":"CA","Zip":"91107"},{"Location":"LA FITNESS 06155","Address":"355 N Rosemead Blvd","City":"Pasadena","State":"CA","Zip":"91107"},{"Location":"LAND ROVER PASADENA","Address":"3485 E Colorado Blvd","City":"Pasadena","State":"CA","Zip":"91107"},{"Location":"LAS ENCINAS HOSPITAL","Address":"2900 E Del Mar Blvd","City":"Pasadena","State":"CA","Zip":"91107"},{"Location":"LAW OFFCS OF PAUL YOUNG","Address":"2667 E Colorado Blvd B","City":"Pasadena","State":"CA","Zip":"91107"},{"Location":"LUTHERAN  SOCIAL SERVICE","Address":"60 N Daisy Ave","City":"Pasadena","State":"CA","Zip":"91107"},{"Location":"MAMMAS","Address":"311 S Rosemead Blvd","City":"Pasadena","State":"CA","Zip":"91107"},{"Location":"MARGARITAS RESTAURANT","Address":"155 S Rosemead Blvd","City":"Pasadena","State":"CA","Zip":"91107"},{"Location":"MARIA'S ITALIAN KITCHEN","Address":"3537 E Foothill Blvd","City":"Pasadena","State":"CA","Zip":"91107"},{"Location":"MOBILITY WORKS","Address":"325 N Altadena Dr","City":"Pasadena","State":"CA","Zip":"91107"},{"Location":"MZ SERVICES","Address":"3212 E Colorado Blvd","City":"Pasadena","State":"CA","Zip":"91107"},{"Location":"NORDSTROM RACK- HASTINGS VILLA","Address":"3363 E Foothill Blvd","City":"Pasadena","State":"CA","Zip":"91107"},{"Location":"OLD SCHOOL EATARY","Address":"975 N Michillinda Ave","City":"Pasadena","State":"CA","Zip":"91107"},{"Location":"OPEIU  LOCAL  FIVE THIRTY SEVE","Address":"3229 E Foothill Blvd","City":"Pasadena","State":"CA","Zip":"91107"},{"Location":"OSEYO SHABU SHABU","Address":"2879 E Colorado Blvd","City":"Pasadena","State":"CA","Zip":"91107"},{"Location":"PANDA MANAGEMENT CO.","Address":"3488 E Foothill Blvd","City":"Pasadena","State":"CA","Zip":"91107"},{"Location":"PASADENA AUTO OUTLET","Address":"2965 E Colorado Blvd","City":"Pasadena","State":"CA","Zip":"91107"},{"Location":"PASADENA LEGEND NOODLE","Address":"2335 E Colorado Blvd 110","City":"Pasadena","State":"CA","Zip":"91107"},{"Location":"PASADENA OAKS LLC","Address":"365 El Nido Ave","City":"Pasadena","State":"CA","Zip":"91107"},{"Location":"PASADENA PATIO","Address":"78 S Rosemead Blvd","City":"Pasadena","State":"CA","Zip":"91107"},{"Location":"PLATE 38","Address":"2361 E Colorado Blvd","City":"Pasadena","State":"CA","Zip":"91107"},{"Location":"POTTS & ASSOCIATES INC","Address":"3500 E Colorado Blvd 107","City":"Pasadena","State":"CA","Zip":"91107"},{"Location":"PROGRESSIVE INSURANCE","Address":"3570 E Foothill Blvd","City":"Pasadena","State":"CA","Zip":"91107"},{"Location":"R PLACE","Address":"3739 E Colorado Blvd","City":"Pasadena","State":"CA","Zip":"91107"},{"Location":"RAFFIS CATERING & BANQUE","Address":"3887 E Sierra Madre Blvd","City":"Pasadena","State":"CA","Zip":"91107"},{"Location":"ROBIN'S RESTAURANT","Address":"395 N Rosemead Blvd","City":"Pasadena","State":"CA","Zip":"91107"},{"Location":"RUSNAK VOLVO","Address":"2025 E Colorado Blvd","City":"Pasadena","State":"CA","Zip":"91107"},{"Location":"SPORT CLIPS CA636","Address":"2335 E Colorado Blvd 120","City":"Pasadena","State":"CA","Zip":"91107"},{"Location":"STIX HOLDINGS 777","Address":"3591 E Foothill Blvd","City":"Pasadena","State":"CA","Zip":"91107"},{"Location":"SUPERCUTS","Address":"3735 E Foothill Blvd","City":"Pasadena","State":"CA","Zip":"91107"},{"Location":"TARGET","Address":"3121 E Colorado Blvd","City":"Pasadena","State":"CA","Zip":"91107"},{"Location":"TOYOTA OF PASADENA","Address":"3600 E Foothill Blvd","City":"Pasadena","State":"CA","Zip":"91107"},{"Location":"TYPECRAFT","Address":"2040 E Walnut St","City":"Pasadena","State":"CA","Zip":"91107"},{"Location":"UNITED STATES MARINES","Address":"2699 Paloma St","City":"Pasadena","State":"CA","Zip":"91107"},{"Location":"VALLEYFRESH  NORTH AMERICA","Address":"3452 E Foothill Blvd 500","City":"Pasadena","State":"CA","Zip":"91107"},{"Location":"VELO  PASADENA","Address":"2562 E Colorado Blvd","City":"Pasadena","State":"CA","Zip":"91107"},{"Location":"VIVA TACOS LA ESTRELLA","Address":"2525 E Foothill Blvd","City":"Pasadena","State":"CA","Zip":"91107"},{"Location":"WHOLEFOODS MARKET","Address":"3751 E Foothill Blvd","City":"Pasadena","State":"CA","Zip":"91107"},{"Location":"YES SUSHI","Address":"3500 E Colorado Blvd","City":"Pasadena","State":"CA","Zip":"91107"},{"Location":"ZEPHYR","Address":"2419 E Colorado Blvd","City":"Pasadena","State":"CA","Zip":"91107"}]