[{"Location":"24 HOUR FITNESS #179","Address":"525 E Colorado Blvd","City":"Pasadena","State":"CA","Zip":"91101"},{"Location":"300 NORTH CAPITAL","Address":"300 N Lake Ave","City":"Pasadena","State":"CA","Zip":"91101"},{"Location":"ALEXANDRIA REAL ESTATE","Address":"385 E Colorado Blvd 299","City":"Pasadena","State":"CA","Zip":"91101"},{"Location":"AMALGAMATED BANK","Address":"472 E Colorado Blvd","City":"Pasadena","State":"CA","Zip":"91101"},{"Location":"AMERICAN LEGION POST 13 1","Address":"131 N Marengo Ave","City":"Pasadena","State":"CA","Zip":"91101"},{"Location":"ANGEL BABY NAIL PARLOR","Address":"471 N Lake Ave","City":"Pasadena","State":"CA","Zip":"91101"},{"Location":"APERCEN PARTNERS LLC","Address":"234 E Colorado Blvd 240","City":"Pasadena","State":"CA","Zip":"91101"},{"Location":"AVANTI","Address":"111 N Lake Ave","City":"Pasadena","State":"CA","Zip":"91101"},{"Location":"BANK OF AMERICA","Address":"35 N Lake Ave 9","City":"Pasadena","State":"CA","Zip":"91101"},{"Location":"BANK OF THE WEST","Address":"587 E Colorado Blvd","City":"Pasadena","State":"CA","Zip":"91101"},{"Location":"BARRISTER EXECUTIVE SUIT","Address":"225 S Lake Ave 300","City":"Pasadena","State":"CA","Zip":"91101"},{"Location":"BC BURGERS","Address":"535 S Lake Ave","City":"Pasadena","State":"CA","Zip":"91101"},{"Location":"BETTY NAILS & SPA","Address":"766 E Colorado Blvd 101","City":"Pasadena","State":"CA","Zip":"91101"},{"Location":"BINDER ASSOCIATES","Address":"251 S Lake Ave 920","City":"Pasadena","State":"CA","Zip":"91101"},{"Location":"BJ'S RESTAURANT #528","Address":"234 E Colorado Blvd","City":"Pasadena","State":"CA","Zip":"91101"},{"Location":"BOBBYS PLACE","Address":"140 N Lake Ave","City":"Pasadena","State":"CA","Zip":"91101"},{"Location":"BODEGA WINE BAR","Address":"260 E Colorado Blvd 208","City":"Pasadena","State":"CA","Zip":"91101"},{"Location":"BOSTON PRIVATE BANK AND","Address":"345 E Colorado Blvd 130","City":"Pasadena","State":"CA","Zip":"91101"},{"Location":"BREAKTHRU FITNESS INC","Address":"345 S Lake Ave 201a","City":"Pasadena","State":"CA","Zip":"91101"},{"Location":"BROWN GITT LAW GROUP LLP","Address":"300 N Lake Ave 200","City":"Pasadena","State":"CA","Zip":"91101"},{"Location":"BRYSON CLIMATE INITIATIVE","Address":"80 S Lake Ave 550","City":"Pasadena","State":"CA","Zip":"91101"},{"Location":"CAL BANK & TRUST","Address":"155 N Lake Ave","City":"Pasadena","State":"CA","Zip":"91101"},{"Location":"CALIFORNA CREDITS GROUP","Address":"251 S Lake Ave 400","City":"Pasadena","State":"CA","Zip":"91101"},{"Location":"CALIFORNIA PIZZA KITCHEN #24","Address":"99 N Los Robles Ave","City":"Pasadena","State":"CA","Zip":"91101"},{"Location":"CAS DE LAS AMIGAS-5","Address":"171 N Oak Knoll Ave","City":"Pasadena","State":"CA","Zip":"91101"},{"Location":"CAS DE LAS AMIGAS-6","Address":"161 N Oak Knoll Ave","City":"Pasadena","State":"CA","Zip":"91101"},{"Location":"CASA DE LAS AMIGAS","Address":"175 N Oak Knoll Ave","City":"Pasadena","State":"CA","Zip":"91101"},{"Location":"CASA DE LAS AMIGAS-4","Address":"160 N El Molino Ave","City":"Pasadena","State":"CA","Zip":"91101"},{"Location":"CASA DE LAS AMIGAS3","Address":"160 N El Molino Ave","City":"Pasadena","State":"CA","Zip":"91101"},{"Location":"CECO CAPITAL CORPORATION","Address":"180 S Lake Ave 335","City":"Pasadena","State":"CA","Zip":"91101"},{"Location":"COLDWELL BANKER RESIDENTIAL","Address":"388 S Lake Ave","City":"Pasadena","State":"CA","Zip":"91101"},{"Location":"CONGRESSWOMAN JUDY CHU","Address":"527 S Lake Ave 106","City":"Pasadena","State":"CA","Zip":"91101"},{"Location":"CONRAD'S RESTAURANT","Address":"861 E Walnut St","City":"Pasadena","State":"CA","Zip":"91101"},{"Location":"CROCODILE CAFE","Address":"140 S Lake Ave","City":"Pasadena","State":"CA","Zip":"91101"},{"Location":"CUSTODIO & DUBEY LLP","Address":"766 E Colorado Blvd 108","City":"Pasadena","State":"CA","Zip":"91101"},{"Location":"DEASY PENNER","Address":"200 S Los Robles Ave 100","City":"Pasadena","State":"CA","Zip":"91101"},{"Location":"DIGNITY HEALTH","Address":"251 S Lake Ave 7","City":"Pasadena","State":"CA","Zip":"91101"},{"Location":"DISCOUNT TIRE CENTER","Address":"650 E Green St","City":"Pasadena","State":"CA","Zip":"91101"},{"Location":"DR RALPH CALLENDER","Address":"780 E Green St","City":"Pasadena","State":"CA","Zip":"91101"},{"Location":"DUPARS RESTAURANT","Address":"214 S Lake Ave","City":"Pasadena","State":"CA","Zip":"91101"},{"Location":"EAST WEST BANK","Address":"135 N Los Robles Ave 8","City":"Pasadena","State":"CA","Zip":"91101"},{"Location":"EL CHOLO","Address":"260 E Colorado Blvd 203","City":"Pasadena","State":"CA","Zip":"91101"},{"Location":"EL PORTAL","Address":"695 E Green St","City":"Pasadena","State":"CA","Zip":"91101"},{"Location":"ELECTRIC POWER GROUP","Address":"201 S Lake Ave 4","City":"Pasadena","State":"CA","Zip":"91101"},{"Location":"EMMIS COMMUNICATIONS","Address":"790 E Colorado Blvd 900","City":"Pasadena","State":"CA","Zip":"91101"},{"Location":"FANNIE MAE","Address":"135 N Los Robles Ave 400","City":"Pasadena","State":"CA","Zip":"91101"},{"Location":"FARIENT  ADVISORS","Address":"201 S Lake Ave 8","City":"Pasadena","State":"CA","Zip":"91101"},{"Location":"FH&K LLP","Address":"155h S Lake Ave 430","City":"Pasadena","State":"CA","Zip":"91101"},{"Location":"FIDELITY INVESTMENTS 166","Address":"123 S Lake Ave","City":"Pasadena","State":"CA","Zip":"91101"},{"Location":"FIRST QUADRANT LP","Address":"800 E Colorado Blvd 900","City":"Pasadena","State":"CA","Zip":"91101"},{"Location":"FISH DISH","Address":"230 S Lake Ave 3","City":"Pasadena","State":"CA","Zip":"91101"},{"Location":"FIT ANNEX","Address":"740 E Green St","City":"Pasadena","State":"CA","Zip":"91101"},{"Location":"FLAHERTY & CRUMRINE","Address":"301 E Colorado Blvd 720","City":"Pasadena","State":"CA","Zip":"91101"},{"Location":"FULLER GUEST CONFERENCE","Address":"700 Locust St","City":"Pasadena","State":"CA","Zip":"91101"},{"Location":"FUTURES IN EDUCATION","Address":"35 N Lake Ave 250","City":"Pasadena","State":"CA","Zip":"91101"},{"Location":"GARCIA","Address":"169 N Oak Knoll Ave","City":"Pasadena","State":"CA","Zip":"91101"},{"Location":"GATEWAY SCIENCE ENGINEERING","Address":"300 N Lake Ave 320","City":"Pasadena","State":"CA","Zip":"91101"},{"Location":"GRANDE'S","Address":"624 E Colorado Blvd","City":"Pasadena","State":"CA","Zip":"91101"},{"Location":"GREAT AMEICAN INSURANCE","Address":"766 E Colorado Blvd 107","City":"Pasadena","State":"CA","Zip":"91101"},{"Location":"HABIB TILE AND STONE INC","Address":"269 Shoppers Ln","City":"Pasadena","State":"CA","Zip":"91101"},{"Location":"HARVEST FINANCIAL","Address":"200 S Los Robles Ave 440","City":"Pasadena","State":"CA","Zip":"91101"},{"Location":"HILTON PASADENA","Address":"168 S Los Robles Ave","City":"Pasadena","State":"CA","Zip":"91101"},{"Location":"HOME STREET BANK","Address":"251 S Lake Ave 103","City":"Pasadena","State":"CA","Zip":"91101"},{"Location":"HOUSE OF  REST","Address":"784 Santa Barbara St","City":"Pasadena","State":"CA","Zip":"91101"},{"Location":"HSIEH","Address":"26 S Los Robles Ave","City":"Pasadena","State":"CA","Zip":"91101"},{"Location":"I B E W LOCAL 11","Address":"297 N Marengo Ave","City":"Pasadena","State":"CA","Zip":"91101"},{"Location":"ISLANDS RESTAURANT #34","Address":"330 E Colorado Blvd 240","City":"Pasadena","State":"CA","Zip":"91101"},{"Location":"JACOBS ENGINEERING","Address":"840 E Green St 432","City":"Pasadena","State":"CA","Zip":"91101"},{"Location":"JACOBS ENGINEERING GROUP INC","Address":"155 N Lake Ave 150","City":"Pasadena","State":"CA","Zip":"91101"},{"Location":"JAKSE 2ND STORE LLC","Address":"122 S Lake Ave","City":"Pasadena","State":"CA","Zip":"91101"},{"Location":"JARED AND LUCAS LLC","Address":"201 S Lake Ave P1","City":"Pasadena","State":"CA","Zip":"91101"},{"Location":"JOSEPH E ABE DDS","Address":"65 N Madison Ave 506","City":"Pasadena","State":"CA","Zip":"91101"},{"Location":"JURIS PRODUTIONS","Address":"44 N Marengo Ave","City":"Pasadena","State":"CA","Zip":"91101"},{"Location":"KAISER FOUNDATION","Address":"99 S Oakland Ave","City":"Pasadena","State":"CA","Zip":"91101"},{"Location":"KAISER PERMANENTE PASADE","Address":"99 Oakland Ave 2n","City":"Pasadena","State":"CA","Zip":"91101"},{"Location":"KAPLAN","Address":"225 S Lake Ave 2","City":"Pasadena","State":"CA","Zip":"91101"},{"Location":"KENNEDY CAPITAL","Address":"553 S Marengo Ave","City":"Pasadena","State":"CA","Zip":"91101"},{"Location":"KEVIN HURLEY","Address":"251 S Lake Ave 320","City":"Pasadena","State":"CA","Zip":"91101"},{"Location":"KHORSANDI PATENT LAW GROUP","Address":"180 S Lake Ave 435","City":"Pasadena","State":"CA","Zip":"91101"},{"Location":"LA FITNESS #23","Address":"201 S Lake Ave","City":"Pasadena","State":"CA","Zip":"91101"},{"Location":"LAKE SUSHI","Address":"546 S Lake Ave","City":"Pasadena","State":"CA","Zip":"91101"},{"Location":"LAND ADVISORS ORGANIZATI","Address":"201 S Lake Ave 500","City":"Pasadena","State":"CA","Zip":"91101"},{"Location":"LAW FIRM OF GLAUBER BERENSON","Address":"232 N Lake Ave","City":"Pasadena","State":"CA","Zip":"91101"},{"Location":"LAW OFFICE DON SCHWEITER","Address":"201 S Lake Ave 700","City":"Pasadena","State":"CA","Zip":"91101"},{"Location":"LKH LLC","Address":"735 E Green St","City":"Pasadena","State":"CA","Zip":"91101"},{"Location":"LLARENA MURDOCK AND LOPEZ","Address":"505 E Colorado Blvd","City":"Pasadena","State":"CA","Zip":"91101"},{"Location":"LOCKHEED FEDERAL CREDIT","Address":"180 S Lake Ave 100","City":"Pasadena","State":"CA","Zip":"91101"},{"Location":"LOS ANGELES CTY EMPLOYEES RET","Address":"300 N Lake Ave 750","City":"Pasadena","State":"CA","Zip":"91101"},{"Location":"MACY'S WEST 508","Address":"401 S Lake Ave","City":"Pasadena","State":"CA","Zip":"91101"},{"Location":"MARTIN WERBELOW","Address":"300 N Lake Ave 930","City":"Pasadena","State":"CA","Zip":"91101"},{"Location":"MARX OKUBO","Address":"225 S Lake Ave 1185","City":"Pasadena","State":"CA","Zip":"91101"},{"Location":"MCCARTHY COOK & CO","Address":"155 N Lake Ave","City":"Pasadena","State":"CA","Zip":"91101"},{"Location":"MCHALE AND ALLEN CORP","Address":"527 S Lake Ave 102","City":"Pasadena","State":"CA","Zip":"91101"},{"Location":"MEN'S WEARHOUSE #2716","Address":"406 S Lake Ave","City":"Pasadena","State":"CA","Zip":"91101"},{"Location":"MERRILL LYNCH CA9-808-02-00","Address":"225 S Lake Ave 100","City":"Pasadena","State":"CA","Zip":"91101"},{"Location":"MERRILL LYNCH CA9-808-08-00","Address":"225 S Lake Ave 800","City":"Pasadena","State":"CA","Zip":"91101"},{"Location":"MICHAEL DIPIETRO TAX OFFICE","Address":"140 S Lake Ave 324","City":"Pasadena","State":"CA","Zip":"91101"},{"Location":"MORGAN STANLEY 100255","Address":"55 S Lake Ave","City":"Pasadena","State":"CA","Zip":"91101"},{"Location":"MOSCARET INVESTMENT  ADVISORY","Address":"180 S Lake Ave 315","City":"Pasadena","State":"CA","Zip":"91101"},{"Location":"MS PROPERTY COMPANY","Address":"345 E Colorado Blvd","City":"Pasadena","State":"CA","Zip":"91101"},{"Location":"MUTUAL OMAHA BANK","Address":"200 S Los Robles Ave 300","City":"Pasadena","State":"CA","Zip":"91101"},{"Location":"NINE AND NINE THAI KITCHEN","Address":"754 E Colorado Blvd","City":"Pasadena","State":"CA","Zip":"91101"},{"Location":"NINE AND NINE THAI KITCHEN 2","Address":"738 E Colorado Blvd","City":"Pasadena","State":"CA","Zip":"91101"},{"Location":"NORTHERN TRUST COMPANY","Address":"201 S Lake Ave 600","City":"Pasadena","State":"CA","Zip":"91101"},{"Location":"NORTON SIMON ART FOUNDATION","Address":"385 E Colorado Blvd 240","City":"Pasadena","State":"CA","Zip":"91101"},{"Location":"OLD REPUBLIC CONSTRUCTIO","Address":"225 S Lake Ave 900","City":"Pasadena","State":"CA","Zip":"91101"},{"Location":"OPENX TECHNOLOGY INC","Address":"888 E Walnut St 2","City":"Pasadena","State":"CA","Zip":"91101"},{"Location":"PASADENA COURTS","Address":"300 E Walnut St 2ndfl","City":"Pasadena","State":"CA","Zip":"91101"},{"Location":"PAUL HAAGA","Address":"234 E Colorado Blvd 505","City":"Pasadena","State":"CA","Zip":"91101"},{"Location":"PEJSA & SHEPHERD%2CAN ACCT. CORP","Address":"180 S Lake Ave 600","City":"Pasadena","State":"CA","Zip":"91101"},{"Location":"PF CHANG'S #9000","Address":"260 E Colorado Blvd 201","City":"Pasadena","State":"CA","Zip":"91101"},{"Location":"POLLARD MAVREDAKIS CRANERT","Address":"35 N Lake Ave 500","City":"Pasadena","State":"CA","Zip":"91101"},{"Location":"PRADO COMMUNITY","Address":"840 E Green St 100","City":"Pasadena","State":"CA","Zip":"91101"},{"Location":"PREMIER HEALTH CARE","Address":"790 E Colorado Blvd 8","City":"Pasadena","State":"CA","Zip":"91101"},{"Location":"PRIMECAP MANAGEMENT CO.","Address":"225 S Lake Ave 400","City":"Pasadena","State":"CA","Zip":"91101"},{"Location":"RBC WEALTH MANAGEMENT","Address":"300 N Lake Ave 10","City":"Pasadena","State":"CA","Zip":"91101"},{"Location":"RED WHITE AND BLUEZZ LLC","Address":"37 S El Molino Ave","City":"Pasadena","State":"CA","Zip":"91101"},{"Location":"REGUS MANAGEMENT GROUP","Address":"155 N Lake Ave 8thf","City":"Pasadena","State":"CA","Zip":"91101"},{"Location":"ROSLYN HUTCHINSON LLC","Address":"232 N Lake Ave 220","City":"Pasadena","State":"CA","Zip":"91101"},{"Location":"ROUNDS PREMIUM BURGERS","Address":"46 N Lake Ave","City":"Pasadena","State":"CA","Zip":"91101"},{"Location":"RUSSAKOW GREENE AND PAN","Address":"790 E Green St","City":"Pasadena","State":"CA","Zip":"91101"},{"Location":"SABAITIS LAW","Address":"200 S Los Robles Ave 410","City":"Pasadena","State":"CA","Zip":"91101"},{"Location":"SAM DELCAMP","Address":"225 S Lake Ave 3","City":"Pasadena","State":"CA","Zip":"91101"},{"Location":"SAN SAI JAPANESE GRILL","Address":"350 S Lake Ave 104","City":"Pasadena","State":"CA","Zip":"91101"},{"Location":"SCHOOLS FIRST FEDERAL CREDIT U","Address":"555 S Lake Ave","City":"Pasadena","State":"CA","Zip":"91101"},{"Location":"SHARKYS","Address":"841 Cordova St","City":"Pasadena","State":"CA","Zip":"91101"},{"Location":"SHAUN MALEK DDS","Address":"465 N Lake Ave","City":"Pasadena","State":"CA","Zip":"91101"},{"Location":"SHUBERTS CAFE","Address":"451 E Colorado Blvd","City":"Pasadena","State":"CA","Zip":"91101"},{"Location":"SHUSTER FINANCIAL","Address":"225 S Lake Ave 600","City":"Pasadena","State":"CA","Zip":"91101"},{"Location":"SKEEHAN & COMPANY","Address":"180 S Lake Ave 7th","City":"Pasadena","State":"CA","Zip":"91101"},{"Location":"SMITTY'S GRILL","Address":"110 S Lake Ave","City":"Pasadena","State":"CA","Zip":"91101"},{"Location":"SNOWDEN CAPITAL","Address":"225 S Lake Ave 650","City":"Pasadena","State":"CA","Zip":"91101"},{"Location":"SOTOMOR AND  ASSOCIATES LLP","Address":"540 S Marengo Ave","City":"Pasadena","State":"CA","Zip":"91101"},{"Location":"SOUTH LAKE VENTURES LLC","Address":"492 S Lake Ave","City":"Pasadena","State":"CA","Zip":"91101"},{"Location":"SPECIALTY PROGRAMING","Address":"790 E Colorado Blvd 510","City":"Pasadena","State":"CA","Zip":"91101"},{"Location":"STEARLING FINANCIAL","Address":"225 S Lake Ave 600","City":"Pasadena","State":"CA","Zip":"91101"},{"Location":"STIFEL NICOLAUS & CO","Address":"300 N Lake Ave 900","City":"Pasadena","State":"CA","Zip":"91101"},{"Location":"STIVERS AND COMPANY","Address":"505 E Colorado Blvd 201","City":"Pasadena","State":"CA","Zip":"91101"},{"Location":"SYSTEM PROPERTY","Address":"80 S Lake Ave","City":"Pasadena","State":"CA","Zip":"91101"},{"Location":"TARGET T0883","Address":"777 E Colorado Blvd","City":"Pasadena","State":"CA","Zip":"91101"},{"Location":"TAYLOR INSURANCE","Address":"201 S Lake Ave 300","City":"Pasadena","State":"CA","Zip":"91101"},{"Location":"TD AMERITRADE #05060","Address":"2 N Lake Ave 100","City":"Pasadena","State":"CA","Zip":"91101"},{"Location":"THE COUNTER BURGER","Address":"140 Shoppers Ln","City":"Pasadena","State":"CA","Zip":"91101"},{"Location":"THE SEVILLE GROUP","Address":"199 S Hudson Ave","City":"Pasadena","State":"CA","Zip":"91101"},{"Location":"THE SHERATON PASADENA","Address":"303 Cordova St","City":"Pasadena","State":"CA","Zip":"91101"},{"Location":"THE STRATEGY GROUP INC","Address":"234 E Colorado Blvd 210","City":"Pasadena","State":"CA","Zip":"91101"},{"Location":"THE WESTIN PASADENA","Address":"191 N Los Robles Ave","City":"Pasadena","State":"CA","Zip":"91101"},{"Location":"THORNTON AND ASSOCIATES","Address":"16 N Marengo Ave 700","City":"Pasadena","State":"CA","Zip":"91101"},{"Location":"TIAA-CREF","Address":"35 N Lake Ave 800","City":"Pasadena","State":"CA","Zip":"91101"},{"Location":"TOGO'S PASADENA GREEN ST","Address":"854 E Green St","City":"Pasadena","State":"CA","Zip":"91101"},{"Location":"UBS","Address":"200 S Los Robles Ave 6","City":"Pasadena","State":"CA","Zip":"91101"},{"Location":"UBS FINANCIAL SERVICES","Address":"200 S Los Robles Ave 6","City":"Pasadena","State":"CA","Zip":"91101"},{"Location":"UBS INTERNATIONAL","Address":"200 S Los Robles Ave 620","City":"Pasadena","State":"CA","Zip":"91101"},{"Location":"UNITED AGENCIES INC","Address":"301 E Colorado Blvd 200","City":"Pasadena","State":"CA","Zip":"91101"},{"Location":"UNIVERSITY CLUB OF PASADENA","Address":"175 N Oakland Ave","City":"Pasadena","State":"CA","Zip":"91101"},{"Location":"US POSTAL INSPECTION SVC","Address":"281 E Colorado Blvd","City":"Pasadena","State":"CA","Zip":"91101"},{"Location":"VANESSAS CAFE","Address":"696 E Colorado Blvd 17","City":"Pasadena","State":"CA","Zip":"91101"},{"Location":"VENTANAS BAR-WESTIN","Address":"191 N Los Robles Ave","City":"Pasadena","State":"CA","Zip":"91101"},{"Location":"VERDE CAFE","Address":"535 E Del Mar Blvd","City":"Pasadena","State":"CA","Zip":"91101"},{"Location":"WALTER HOVING HOME","Address":"127 S El Molino Ave","City":"Pasadena","State":"CA","Zip":"91101"},{"Location":"WELLS FARGO HOME MORTGAG","Address":"100 S Lake Ave","City":"Pasadena","State":"CA","Zip":"91101"},{"Location":"WESCOM CREDIT UNION","Address":"123 S Marengo Ave","City":"Pasadena","State":"CA","Zip":"91101"},{"Location":"WESPAC","Address":"201 S Lake Ave 509","City":"Pasadena","State":"CA","Zip":"91101"},{"Location":"WESTERN ASSET MGMT","Address":"385 E Colorado Blvd","City":"Pasadena","State":"CA","Zip":"91101"},{"Location":"YAHAIRAS CAFE","Address":"698 E Colorado Blvd","City":"Pasadena","State":"CA","Zip":"91101"},{"Location":"YARD HOUSE #8307","Address":"330 E Colorado Blvd","City":"Pasadena","State":"CA","Zip":"91101"}]