[{"Location":"1881 CLUB","Address":"1881 E Washington Blvd","City":"Pasadena","State":"CA","Zip":"91104"},{"Location":"ALTAEATS","Address":"1860 N Allen Ave","City":"Pasadena","State":"CA","Zip":"91104"},{"Location":"ARBOR VISTA","Address":"811 E Washington Blvd","City":"Pasadena","State":"CA","Zip":"91104"},{"Location":"CALIFORNIA SERVICE INC","Address":"384 E Orange Grove Blvd 201","City":"Pasadena","State":"CA","Zip":"91104"},{"Location":"CAR-MAC ENTERPRISES LLC","Address":"1453 N Lake Ave","City":"Pasadena","State":"CA","Zip":"91104"},{"Location":"CASITA MIJARES","Address":"1806 E Washington Blvd","City":"Pasadena","State":"CA","Zip":"91104"},{"Location":"CASTLE VIEW RETIREMENT ESTATES","Address":"1425 N Garfield Ave","City":"Pasadena","State":"CA","Zip":"91104"},{"Location":"COUNTRY MANOR","Address":"1391 N Garfield Ave","City":"Pasadena","State":"CA","Zip":"91104"},{"Location":"CROWN CITY BILLIARDS AND LOUNG","Address":"1312 N Lake Ave","City":"Pasadena","State":"CA","Zip":"91104"},{"Location":"DOMINICOS","Address":"2411 E Washington Blvd","City":"Pasadena","State":"CA","Zip":"91104"},{"Location":"GAROS BASTURMA","Address":"1082 N Allen Ave","City":"Pasadena","State":"CA","Zip":"91104"},{"Location":"HAIR DESIGN BY M","Address":"1864 E Washington Blvd 211","City":"Pasadena","State":"CA","Zip":"91104"},{"Location":"JOHNS BEAUTY SALON","Address":"2447 E Washington Blvd","City":"Pasadena","State":"CA","Zip":"91104"},{"Location":"MEDI-DELI","Address":"456 E Orange Grove Blvd 130","City":"Pasadena","State":"CA","Zip":"91104"},{"Location":"MOORES OUR SCHOOL INC","Address":"1800 E Mountain St","City":"Pasadena","State":"CA","Zip":"91104"},{"Location":"PINOCCHIOS PIZZA","Address":"1449 N Lake Ave","City":"Pasadena","State":"CA","Zip":"91104"},{"Location":"PRECISIONS BARBER SALON","Address":"1429 N Lake Ave","City":"Pasadena","State":"CA","Zip":"91104"},{"Location":"SIMPLY BEYOUTIFUL","Address":"1427 N Lake Ave","City":"Pasadena","State":"CA","Zip":"91104"},{"Location":"STYLE WITH A TWIST","Address":"1503 N Lake Ave","City":"Pasadena","State":"CA","Zip":"91104"},{"Location":"SUEBEOREG MONTA FACTORY","Address":"1531 E Washington Blvd","City":"Pasadena","State":"CA","Zip":"91104"},{"Location":"SUPER CUTS 1","Address":"1842 E Washington Blvd","City":"Pasadena","State":"CA","Zip":"91104"},{"Location":"THE SLAW DOGS","Address":"720 N Lake Ave 8","City":"Pasadena","State":"CA","Zip":"91104"},{"Location":"UPICK","Address":"720 N Lake Ave 9","City":"Pasadena","State":"CA","Zip":"91104"},{"Location":"WALT BUTLER SPORTS SHOES","Address":"1725 E Washington Blvd","City":"Pasadena","State":"CA","Zip":"91104"},{"Location":"WINGSTOP #91104","Address":"1279 N Lake Ave","City":"Pasadena","State":"CA","Zip":"91104"}]