[{"Location":"35ER BAR","Address":"12 E Colorado Blvd","City":"Pasadena","State":"CA","Zip":"91105"},{"Location":"39 CONGRESS PARTNERSHIP LT","Address":"39 Congress St","City":"Pasadena","State":"CA","Zip":"91105"},{"Location":"A  FLOAT SUSHI BAR","Address":"87 E Colorado Blvd","City":"Pasadena","State":"CA","Zip":"91105"},{"Location":"ANNANDALE GOLF CLUB","Address":"1 N San Rafael Ave","City":"Pasadena","State":"CA","Zip":"91105"},{"Location":"ARROYO CHOP HOUSE","Address":"536 S Arroyo Pkwy","City":"Pasadena","State":"CA","Zip":"91105"},{"Location":"AWAD LLP","Address":"33 Valley St","City":"Pasadena","State":"CA","Zip":"91105"},{"Location":"BAR CELONA","Address":"46 E Colorado Blvd","City":"Pasadena","State":"CA","Zip":"91105"},{"Location":"BOB CUTLER AUTOMOTIVE","Address":"38 Waverly Dr","City":"Pasadena","State":"CA","Zip":"91105"},{"Location":"BUCA DI BEPPO #503","Address":"80 W Green St","City":"Pasadena","State":"CA","Zip":"91105"},{"Location":"BUFFALO WILD WINGS #3562","Address":"1000 S Fair Oaks Ave","City":"Pasadena","State":"CA","Zip":"91105"},{"Location":"BURGER KING","Address":"622 S Fair Oaks Ave","City":"Pasadena","State":"CA","Zip":"91105"},{"Location":"CALIFORNIA HAND INST","Address":"625 S Fair Oaks Ave 250","City":"Pasadena","State":"CA","Zip":"91105"},{"Location":"CATZ","Address":"801 S Raymond Ave","City":"Pasadena","State":"CA","Zip":"91105"},{"Location":"CENTRAL PARK RESTAURANT","Address":"219 S Fair Oaks Ave","City":"Pasadena","State":"CA","Zip":"91105"},{"Location":"CHOZA MAMA","Address":"96 E Colorado Blvd","City":"Pasadena","State":"CA","Zip":"91105"},{"Location":"CIGARS BY CHIVAS11","Address":"58 S De Lacey Ave","City":"Pasadena","State":"CA","Zip":"91105"},{"Location":"CONGREGATION ALEHOUSE","Address":"300 S Raymond Ave A","City":"Pasadena","State":"CA","Zip":"91105"},{"Location":"CONGRESS MEDICAL ASSI","Address":"800 S Raymond Ave","City":"Pasadena","State":"CA","Zip":"91105"},{"Location":"CORE TCG","Address":"319 S Arroyo Pkwy 3","City":"Pasadena","State":"CA","Zip":"91105"},{"Location":"DOG HAUS","Address":"95 E Green St","City":"Pasadena","State":"CA","Zip":"91105"},{"Location":"DONA ROSA BAKERY","Address":"577 S Arroyo Pkwy","City":"Pasadena","State":"CA","Zip":"91105"},{"Location":"EL TOREO CAFE","Address":"21 S Fair Oaks Ave","City":"Pasadena","State":"CA","Zip":"91105"},{"Location":"ELEMENT 18","Address":"20 E Colorado Blvd 201","City":"Pasadena","State":"CA","Zip":"91105"},{"Location":"EQUATOR","Address":"22 Mills Pl","City":"Pasadena","State":"CA","Zip":"91105"},{"Location":"ESCAPE SALON","Address":"185 E Glenarm St","City":"Pasadena","State":"CA","Zip":"91105"},{"Location":"FAIR OAKS DENTAL GROUP","Address":"301 S Fair Oaks Ave 206","City":"Pasadena","State":"CA","Zip":"91105"},{"Location":"FETAL DIAGNOSTIC CENTER","Address":"625 Fam Oaks Ave 225","City":"Pasadena","State":"CA","Zip":"91105"},{"Location":"FMC 74030000","Address":"1111 S Arroyo Pkwy 150","City":"Pasadena","State":"CA","Zip":"91105"},{"Location":"FMC 74810000","Address":"757 S Raymond Ave 100","City":"Pasadena","State":"CA","Zip":"91105"},{"Location":"FRASCA ROONEY LLP","Address":"117 E Colorado Blvd","City":"Pasadena","State":"CA","Zip":"91105"},{"Location":"GREEN RINO CONSULTING","Address":"87 E Green St 203","City":"Pasadena","State":"CA","Zip":"91105"},{"Location":"HANSEN DENTAL CARE","Address":"301 S Fair Oaks Ave 103","City":"Pasadena","State":"CA","Zip":"91105"},{"Location":"HEALTHCARE PARTNERS MED GROUP","Address":"301 S Fair Oaks Ave 300","City":"Pasadena","State":"CA","Zip":"91105"},{"Location":"HICKEY SMITH LLP","Address":"23 E Colorado Blvd 203","City":"Pasadena","State":"CA","Zip":"91105"},{"Location":"HIGHPOINT PARTNERS LLP","Address":"257 S Fair Oaks Ave 210","City":"Pasadena","State":"CA","Zip":"91105"},{"Location":"HOLTHOUSE CARLIN VAN","Address":"350 W Colorado Blvd","City":"Pasadena","State":"CA","Zip":"91105"},{"Location":"HOT WINGS CAFE","Address":"89 E Colorado Blvd","City":"Pasadena","State":"CA","Zip":"91105"},{"Location":"HOUSTON'S REST","Address":"320 S Arroyo Pkwy","City":"Pasadena","State":"CA","Zip":"91105"},{"Location":"HUNTING PRACTICE ASSOCIATES","Address":"39 Congress St 201","City":"Pasadena","State":"CA","Zip":"91105"},{"Location":"HUNTINGTON REPRODUCTIVE","Address":"333 S Arroyo Pkwy","City":"Pasadena","State":"CA","Zip":"91105"},{"Location":"IXTAPA CANTINA","Address":"119 E Colorado Blvd","City":"Pasadena","State":"CA","Zip":"91105"},{"Location":"JACOBS ENGINEERING GROUP","Address":"292 Palmetto Dr","City":"Pasadena","State":"CA","Zip":"91105"},{"Location":"JAKE'S OF PASADENA","Address":"38 W Colorado Blvd","City":"Pasadena","State":"CA","Zip":"91105"},{"Location":"KABUKI RESTAURANT","Address":"88 W Colorado Blvd 103","City":"Pasadena","State":"CA","Zip":"91105"},{"Location":"KADOHIRO","Address":"61 S Fair Oaks Ave 110","City":"Pasadena","State":"CA","Zip":"91105"},{"Location":"KINGS ROW GASTRO PUB","Address":"20 E Colorado Blvd 102","City":"Pasadena","State":"CA","Zip":"91105"},{"Location":"KINGSTON CAFE","Address":"333 S Fair Oaks Ave","City":"Pasadena","State":"CA","Zip":"91105"},{"Location":"LA GRANDE ORANGE CAFE","Address":"260 S Raymond Ave","City":"Pasadena","State":"CA","Zip":"91105"},{"Location":"LAUREL QUALITY CLEANERS INC","Address":"185 E Glenarm St","City":"Pasadena","State":"CA","Zip":"91105"},{"Location":"LIFE SOURCE WATER","Address":"523 S Fair Oaks Ave","City":"Pasadena","State":"CA","Zip":"91105"},{"Location":"LIVE MIXX LOUNGE","Address":"115 E Colorado Blvd","City":"Pasadena","State":"CA","Zip":"91105"},{"Location":"LUCIANOS RISTORANTE","Address":"117 W California Blvd","City":"Pasadena","State":"CA","Zip":"91105"},{"Location":"LUCKY BALDWIN'S","Address":"17 S Raymond Ave","City":"Pasadena","State":"CA","Zip":"91105"},{"Location":"LUCKY BALDWINS - ESPN-2","Address":"17 S Raymond Ave","City":"Pasadena","State":"CA","Zip":"91105"},{"Location":"MARGARITA JONES RESTAURANT","Address":"541 S Arroyo Pkwy","City":"Pasadena","State":"CA","Zip":"91105"},{"Location":"MENAGE","Address":"54 E Colorado Blvd","City":"Pasadena","State":"CA","Zip":"91105"},{"Location":"METACLOUD INC.","Address":"117 E Colorado Blvd 300","City":"Pasadena","State":"CA","Zip":"91105"},{"Location":"MIJARES RESTAURANT","Address":"145 Palmetto Dr","City":"Pasadena","State":"CA","Zip":"91105"},{"Location":"NIKE INC","Address":"37 W Colorado Blvd","City":"Pasadena","State":"CA","Zip":"91105"},{"Location":"NORTON SIMON ART FOUNDATION","Address":"411 W Colorado Blvd","City":"Pasadena","State":"CA","Zip":"91105"},{"Location":"OBA SUSHI IZAKAYA","Address":"181 E Glenarm St 110","City":"Pasadena","State":"CA","Zip":"91105"},{"Location":"OPTERRA ENERGY SERVICES","Address":"150 E Colorado Blvd 360","City":"Pasadena","State":"CA","Zip":"91105"},{"Location":"ORTHO CENTER MEDICAL GROUP","Address":"425 S Fair Oaks Ave","City":"Pasadena","State":"CA","Zip":"91105"},{"Location":"PARAGON SPORTS INTERNATIONAL","Address":"257 S Fair Oaks Ave 200","City":"Pasadena","State":"CA","Zip":"91105"},{"Location":"PARKWAY GRILL","Address":"510 S Arroyo Pkwy","City":"Pasadena","State":"CA","Zip":"91105"},{"Location":"PASADENA COMMUNITY CHRISTIAN F","Address":"500 S Pasadena Ave","City":"Pasadena","State":"CA","Zip":"91105"},{"Location":"PASADENA ELKS LODGE #672","Address":"400 W Colorado Blvd","City":"Pasadena","State":"CA","Zip":"91105"},{"Location":"PASADENA WATER & POWER","Address":"45 E Glenarm St","City":"Pasadena","State":"CA","Zip":"91105"},{"Location":"PEDIATRIC ASSOCIATES OF PASADE","Address":"55 E California Blvd 200","City":"Pasadena","State":"CA","Zip":"91105"},{"Location":"PIT FIRE PASADANA LLC","Address":"730 S Arroyo Pkwy","City":"Pasadena","State":"CA","Zip":"91105"},{"Location":"PITA JUNGLE -CA","Address":"43 E Colorado Blvd","City":"Pasadena","State":"CA","Zip":"91105"},{"Location":"PLATI GERMAN CAR SERVICE","Address":"442 S Raymond Ave","City":"Pasadena","State":"CA","Zip":"91105"},{"Location":"PLAYMAKER NUTRITION","Address":"369 S Fair Oaks Ave","City":"Pasadena","State":"CA","Zip":"91105"},{"Location":"Q'S BILLIARDS CLUB","Address":"99 E Colorado Blvd","City":"Pasadena","State":"CA","Zip":"91105"},{"Location":"REASONS%40BCH ALHAMBRA HOS","Address":"453 S Grand Ave","City":"Pasadena","State":"CA","Zip":"91105"},{"Location":"REFLEX PERFORMANCE","Address":"117 W Bellevue Dr 4","City":"Pasadena","State":"CA","Zip":"91105"},{"Location":"REMARKETING OF AMERICA","Address":"61 E Colorado Blvd 210","City":"Pasadena","State":"CA","Zip":"91105"},{"Location":"RESTAURANT 1810 A","Address":"121 W Colorado Blvd","City":"Pasadena","State":"CA","Zip":"91105"},{"Location":"RICE THAI TAPAS","Address":"181 E Glenarm St 105","City":"Pasadena","State":"CA","Zip":"91105"},{"Location":"ROCCOS PASADENA","Address":"44 W Green St","City":"Pasadena","State":"CA","Zip":"91105"},{"Location":"RUSNAK AUDI PASADENA","Address":"267 W Colorado Blvd","City":"Pasadena","State":"CA","Zip":"91105"},{"Location":"RUSNAK JAGUAR","Address":"337 W Colorado Blvd","City":"Pasadena","State":"CA","Zip":"91105"},{"Location":"RUSNAK PASADENA","Address":"325 W Colorado Blvd","City":"Pasadena","State":"CA","Zip":"91105"},{"Location":"RUSNAK ROLLS ROYCE","Address":"285 W Colorado Blvd","City":"Pasadena","State":"CA","Zip":"91105"},{"Location":"RUSNAK%2FPASADENA","Address":"267-337 W Colorado Blvd","City":"Pasadena","State":"CA","Zip":"91105"},{"Location":"SAN RESTAURANT","Address":"124 E Colorado Blvd","City":"Pasadena","State":"CA","Zip":"91105"},{"Location":"SCREENSURGE STUDIOS","Address":"300 S Raymond Ave 6","City":"Pasadena","State":"CA","Zip":"91105"},{"Location":"STRYKER ORTHOPAEDICS","Address":"81 W Bellevue Dr","City":"Pasadena","State":"CA","Zip":"91105"},{"Location":"SURIYA RESTAURANT","Address":"123 W California Blvd","City":"Pasadena","State":"CA","Zip":"91105"},{"Location":"TECH MEDICAL CENTER OF USC","Address":"625 S Fair Oaks Ave 400","City":"Pasadena","State":"CA","Zip":"91105"},{"Location":"THE CALIFORNIAN - PASADENA CON","Address":"120 Bellefontaine St","City":"Pasadena","State":"CA","Zip":"91105"},{"Location":"THE CHEESECAKE FACTORY 0018","Address":"2 W Colorado Blvd","City":"Pasadena","State":"CA","Zip":"91105"},{"Location":"THE RAYMOND RESTAURANT","Address":"1250 S Fair Oaks Ave","City":"Pasadena","State":"CA","Zip":"91105"},{"Location":"THE SALVATION ARMY","Address":"86 Waverly Dr","City":"Pasadena","State":"CA","Zip":"91105"},{"Location":"THE VALLEY HUNT CLUB","Address":"560 S Orange Grove Blvd","City":"Pasadena","State":"CA","Zip":"91105"},{"Location":"TRIFECTA FIT SPORTS LLC","Address":"900 S Arroyo Pkwy","City":"Pasadena","State":"CA","Zip":"91105"},{"Location":"US INVESTMENT","Address":"162 W Bellevue Dr A","City":"Pasadena","State":"CA","Zip":"91105"},{"Location":"VALLEY HUNT CLUB%2FBAR","Address":"520 S Orange Grove Blvd","City":"Pasadena","State":"CA","Zip":"91105"},{"Location":"VCA A BREED APART","Address":"777 S Arroyo Pkwy","City":"Pasadena","State":"CA","Zip":"91105"},{"Location":"VILLA SORRISO","Address":"168 W Colorado Blvd","City":"Pasadena","State":"CA","Zip":"91105"},{"Location":"WELLS FARGO","Address":"350 W Colorado Blvd","City":"Pasadena","State":"CA","Zip":"91105"},{"Location":"WELLS FARGO","Address":"350 W Colorado Blvd 390","City":"Pasadena","State":"CA","Zip":"91105"},{"Location":"WFM - PASADENA","Address":"465 S Arroyo Pkwy","City":"Pasadena","State":"CA","Zip":"91105"},{"Location":"WHOLE FOODS MARKET","Address":"465 S Arroyo Pkwy","City":"Pasadena","State":"CA","Zip":"91105"},{"Location":"ZILIN","Address":"34 S Raymond Ave","City":"Pasadena","State":"CA","Zip":"91105"}]