[{"Location":"FIRST CAPITAL","Address":"2065 Huntington Dr","City":"San Marino","State":"CA","Zip":"91108"},{"Location":"HSBC BANK #819285","Address":"2398 Huntington Dr","City":"San Marino","State":"CA","Zip":"91108"},{"Location":"MALLIS PROPERTIES","Address":"2650 Mission St 105","City":"San Marino","State":"CA","Zip":"91108"},{"Location":"MISSION FITNESS CENTER","Address":"2451 Mission St","City":"San Marino","State":"CA","Zip":"91108"},{"Location":"MISSION VILLAGE PLAZA","Address":"2545 Mission St","City":"San Marino","State":"CA","Zip":"91108"},{"Location":"OAK KNOLL BARBER SHOP","Address":"1615 Chelsea Rd","City":"San Marino","State":"CA","Zip":"91108"},{"Location":"PM JACOY CLOTHING INC","Address":"2650 Mission St 104","City":"San Marino","State":"CA","Zip":"91108"},{"Location":"PORTA VIA","Address":"2507 Mission St","City":"San Marino","State":"CA","Zip":"91108"},{"Location":"RODI PARTNERSHIP","Address":"2600 Mission St 200","City":"San Marino","State":"CA","Zip":"91108"},{"Location":"TCF FRANCHISE FINANCE","Address":"1405 San Marino Ave 100b","City":"San Marino","State":"CA","Zip":"91108"},{"Location":"USC PRESIDENT","Address":"1550 Oak Grove Ave","City":"San Marino","State":"CA","Zip":"91108"},{"Location":"VISAGE  HAIR SALON","Address":"1459 San Marino Ave","City":"San Marino","State":"CA","Zip":"91108"},{"Location":"WINE CONNECTIONS","Address":"2154 Huntington Dr","City":"San Marino","State":"CA","Zip":"91108"},{"Location":"FIRST CAPITAL","Address":"2065 Huntington Dr","City":"San Marino","State":"CA","Zip":"91108"},{"Location":"HSBC BANK #819285","Address":"2398 Huntington Dr","City":"San Marino","State":"CA","Zip":"91108"},{"Location":"MALLIS PROPERTIES","Address":"2650 Mission St 105","City":"San Marino","State":"CA","Zip":"91108"},{"Location":"MISSION FITNESS CENTER","Address":"2451 Mission St","City":"San Marino","State":"CA","Zip":"91108"},{"Location":"MISSION VILLAGE PLAZA","Address":"2545 Mission St","City":"San Marino","State":"CA","Zip":"91108"},{"Location":"OAK KNOLL BARBER SHOP","Address":"1615 Chelsea Rd","City":"San Marino","State":"CA","Zip":"91108"},{"Location":"PM JACOY CLOTHING INC","Address":"2650 Mission St 104","City":"San Marino","State":"CA","Zip":"91108"},{"Location":"PORTA VIA","Address":"2507 Mission St","City":"San Marino","State":"CA","Zip":"91108"},{"Location":"RODI PARTNERSHIP","Address":"2600 Mission St 200","City":"San Marino","State":"CA","Zip":"91108"},{"Location":"TCF FRANCHISE FINANCE","Address":"1405 San Marino Ave 100b","City":"San Marino","State":"CA","Zip":"91108"},{"Location":"USC PRESIDENT","Address":"1550 Oak Grove Ave","City":"San Marino","State":"CA","Zip":"91108"},{"Location":"VISAGE  HAIR SALON","Address":"1459 San Marino Ave","City":"San Marino","State":"CA","Zip":"91108"},{"Location":"WINE CONNECTIONS","Address":"2154 Huntington Dr","City":"San Marino","State":"CA","Zip":"91108"}]