[{"Location":"ACC GROUP","Address":"959 E Walnut St 205","City":"Pasadena","State":"CA","Zip":"91106"},{"Location":"ADVANCED LASER ANTI AGING MED","Address":"960 E Green St 108","City":"Pasadena","State":"CA","Zip":"91106"},{"Location":"AMIGO RESTAURANT","Address":"1076 E Colorado Blvd","City":"Pasadena","State":"CA","Zip":"91106"},{"Location":"AUSTIN MA HEMATOLOGY ONCOLOGY","Address":"959 E Walnut St 210","City":"Pasadena","State":"CA","Zip":"91106"},{"Location":"BANTAN ASSOCIATES INC","Address":"1155 E Green St","City":"Pasadena","State":"CA","Zip":"91106"},{"Location":"BISTRO FOURTY FIVE","Address":"45 S Mentor Ave","City":"Pasadena","State":"CA","Zip":"91106"},{"Location":"CAL TECH","Address":"293 S Holliston Ave","City":"Pasadena","State":"CA","Zip":"91106"},{"Location":"CALIFORNIA INSTITUTE OF TECH","Address":"293 S Holliston Ave","City":"Pasadena","State":"CA","Zip":"91106"},{"Location":"CALTECH","Address":"399 S Holliston Ave","City":"Pasadena","State":"CA","Zip":"91106"},{"Location":"CALTECH","Address":"1300   Califonia Blvd","City":"Pasadena","State":"CA","Zip":"91106"},{"Location":"CALTECH 2","Address":"293 S Holliston Ave","City":"Pasadena","State":"CA","Zip":"91106"},{"Location":"CHARLES WONG COLORADO PROP","Address":"1005 E Colorado Blvd","City":"Pasadena","State":"CA","Zip":"91106"},{"Location":"CITIZENS BUSINESS BANK","Address":"1010 E Colorado Blvd","City":"Pasadena","State":"CA","Zip":"91106"},{"Location":"DR SELTZER MD INC","Address":"960 E Green St","City":"Pasadena","State":"CA","Zip":"91106"},{"Location":"DREAM CHURCH","Address":"1305 E Colorado Blvd","City":"Pasadena","State":"CA","Zip":"91106"},{"Location":"FIRESTONE #011576","Address":"1110 E Colorado Blvd","City":"Pasadena","State":"CA","Zip":"91106"},{"Location":"FLAMZZ PIZZA","Address":"1655 E Colorado Blvd","City":"Pasadena","State":"CA","Zip":"91106"},{"Location":"GUIDANCE SOFTWARE 1ST","Address":"1055 E Colorado Blvd 1","City":"Pasadena","State":"CA","Zip":"91106"},{"Location":"GUIDANCE SOFTWARE 5TH","Address":"1055 E Colorado Blvd 5","City":"Pasadena","State":"CA","Zip":"91106"},{"Location":"HOUSE OF HALAL HEIDAR BA","Address":"1511 E Colorado Blvd","City":"Pasadena","State":"CA","Zip":"91106"},{"Location":"HSBC BANK #819268","Address":"1055 E Colorado Blvd 102","City":"Pasadena","State":"CA","Zip":"91106"},{"Location":"HUTTON AND WILSON","Address":"1055 E Colorado Blvd 310","City":"Pasadena","State":"CA","Zip":"91106"},{"Location":"JAPON BISTRO","Address":"927 E Colorado Blvd","City":"Pasadena","State":"CA","Zip":"91106"},{"Location":"JAVIERS MEXICAN FOOD","Address":"1543 E Colorado Blvd","City":"Pasadena","State":"CA","Zip":"91106"},{"Location":"JUICE IT UP TAKE OUT SMOOTHIES","Address":"165 N Hill Ave","City":"Pasadena","State":"CA","Zip":"91106"},{"Location":"KAREN GUINN DDS","Address":"1175 E Green St","City":"Pasadena","State":"CA","Zip":"91106"},{"Location":"KIDS DENTAL KARE","Address":"1127 E Green St","City":"Pasadena","State":"CA","Zip":"91106"},{"Location":"KYLE KESSENICH SERVICES","Address":"1299 E Green St","City":"Pasadena","State":"CA","Zip":"91106"},{"Location":"LANGHAM HOTEL","Address":"1401 S Oak Knoll Ave","City":"Pasadena","State":"CA","Zip":"91106"},{"Location":"LUCKY BALDWINS TRAPPISTE","Address":"1770 E Colorado Blvd","City":"Pasadena","State":"CA","Zip":"91106"},{"Location":"MEINEKE CAR CARE","Address":"38 N Hill Ave","City":"Pasadena","State":"CA","Zip":"91106"},{"Location":"MIZUHO SECURITIES USA","Address":"1055 E Colorado Blvd 5179","City":"Pasadena","State":"CA","Zip":"91106"},{"Location":"MSLA","Address":"1294 E Colorado Blvd","City":"Pasadena","State":"CA","Zip":"91106"},{"Location":"NORMAS TACOS","Address":"950 E Colorado Blvd 104","City":"Pasadena","State":"CA","Zip":"91106"},{"Location":"NOVEL CAFE","Address":"1713 E Colorado Blvd","City":"Pasadena","State":"CA","Zip":"91106"},{"Location":"PAC TRUST BANK","Address":"600 S Lake Ave","City":"Pasadena","State":"CA","Zip":"91106"},{"Location":"PARK PLACE MASTER","Address":"928 E Colorado Blvd","City":"Pasadena","State":"CA","Zip":"91106"},{"Location":"PASADENA CITY COLLEGE","Address":"1570 E Colorado Blvd","City":"Pasadena","State":"CA","Zip":"91106"},{"Location":"PASADENA ENDODONTICS","Address":"960 E Green St 111","City":"Pasadena","State":"CA","Zip":"91106"},{"Location":"PASADENA NOVEL CAFE","Address":"1713 E Colorado Blvd","City":"Pasadena","State":"CA","Zip":"91106"},{"Location":"PASADENA PIZZA CO","Address":"336 N Allen Ave","City":"Pasadena","State":"CA","Zip":"91106"},{"Location":"PIE N BURGER","Address":"913 E California Blvd","City":"Pasadena","State":"CA","Zip":"91106"},{"Location":"REGENCY PARK ASTORIA","Address":"925 E Villa St","City":"Pasadena","State":"CA","Zip":"91106"},{"Location":"SAGA MOTOR HOTEL","Address":"1633 E Colorado Blvd","City":"Pasadena","State":"CA","Zip":"91106"},{"Location":"SUN PACIFIC MARKETING COOP","Address":"1095 E Green St","City":"Pasadena","State":"CA","Zip":"91106"},{"Location":"T B HOLDING INC","Address":"105 N Hill Ave 101","City":"Pasadena","State":"CA","Zip":"91106"},{"Location":"T BOYLE'S TAVERN","Address":"37 N Catalina Ave","City":"Pasadena","State":"CA","Zip":"91106"},{"Location":"THE ATHENAEUM","Address":"551 S Hill Ave","City":"Pasadena","State":"CA","Zip":"91106"},{"Location":"THE ICEHOUSE","Address":"24 N Mentor Ave","City":"Pasadena","State":"CA","Zip":"91106"},{"Location":"TINA THOMPSON COMMUNICAT","Address":"959 E Walnut St 100","City":"Pasadena","State":"CA","Zip":"91106"},{"Location":"VALIK CORP DBA ZPIZZA PA","Address":"1705 E Colorado Blvd","City":"Pasadena","State":"CA","Zip":"91106"},{"Location":"WALNUT PASADENA PROPERTIES LLC","Address":"959 E Walnut St","City":"Pasadena","State":"CA","Zip":"91106"},{"Location":"WESTERN INTERNATIONAL","Address":"33 S Catalina Ave 203","City":"Pasadena","State":"CA","Zip":"91106"},{"Location":"WJ BRADLEY MORTGAGE","Address":"1055 E Colorado Blvd 120","City":"Pasadena","State":"CA","Zip":"91106"}]