[{"Location":"24 HOUR FITNESS #113","Address":"240 N Brand Blvd","City":"Glendale","State":"CA","Zip":"91203"},{"Location":"24 HOUR FITNESS #219","Address":"450 N Brand Blvd","City":"Glendale","State":"CA","Zip":"91203"},{"Location":"ACAPULCO 0006","Address":"722 N Pacific Ave","City":"Glendale","State":"CA","Zip":"91203"},{"Location":"AFRICAN TRAVEL","Address":"330 N Brand Blvd 905","City":"Glendale","State":"CA","Zip":"91203"},{"Location":"AGE OF LEARNING","Address":"101 N Brand Blvd","City":"Glendale","State":"CA","Zip":"91203"},{"Location":"AKUMA RESTAURANT","Address":"239 N Brand Blvd","City":"Glendale","State":"CA","Zip":"91203"},{"Location":"APEX CUSTOMERS CARE","Address":"547 Arden Ave","City":"Glendale","State":"CA","Zip":"91203"},{"Location":"ATF","Address":"550 N Brand Blvd 800","City":"Glendale","State":"CA","Zip":"91203"},{"Location":"ATF","Address":"550 N Brand Blvd 8","City":"Glendale","State":"CA","Zip":"91203"},{"Location":"AVERY DENNISON CORPORATION","Address":"207 N Goode Ave","City":"Glendale","State":"CA","Zip":"91203"},{"Location":"BJS RESTAURANT #468","Address":"101 N Brand Blvd","City":"Glendale","State":"CA","Zip":"91203"},{"Location":"BRAND ON SUSHI","Address":"308 N Brand Blvd","City":"Glendale","State":"CA","Zip":"91203"},{"Location":"CALIFORNIA HIGHWAY PATROL","Address":"411 N Central Ave 410","City":"Glendale","State":"CA","Zip":"91203"},{"Location":"CHARLES BILLARD","Address":"224 N Brand Blvd","City":"Glendale","State":"CA","Zip":"91203"},{"Location":"CHRISTIE PARKER&HALE LLP","Address":"655 N Central Ave 2300","City":"Glendale","State":"CA","Zip":"91203"},{"Location":"CLANCY'S","Address":"219 N Central Ave","City":"Glendale","State":"CA","Zip":"91203"},{"Location":"CLEARPATH FCU","Address":"340 Arden Ave","City":"Glendale","State":"CA","Zip":"91203"},{"Location":"CONRADS RESTAURANT","Address":"820 N Central Ave","City":"Glendale","State":"CA","Zip":"91203"},{"Location":"CRAB BROIL AVE","Address":"900 N Central Ave","City":"Glendale","State":"CA","Zip":"91203"},{"Location":"EL MORFI GRILL","Address":"241 N Brand Blvd","City":"Glendale","State":"CA","Zip":"91203"},{"Location":"EQUINOX 718 GLENDALE","Address":"207 Goode St","City":"Glendale","State":"CA","Zip":"91203"},{"Location":"EQUINOX 718 GLENDALE 2","Address":"207 Goode St","City":"Glendale","State":"CA","Zip":"91203"},{"Location":"FAR NIENTE","Address":"204 1%2F2 N Brand Blvd","City":"Glendale","State":"CA","Zip":"91203"},{"Location":"GAUCHOS VILLAGE","Address":"411 N Brand Blvd","City":"Glendale","State":"CA","Zip":"91203"},{"Location":"GLENDALE ALLEGRO","Address":"423 N Brand Blvd","City":"Glendale","State":"CA","Zip":"91203"},{"Location":"GLENDALE PROPERTIES INC","Address":"320 Arden Ave 110","City":"Glendale","State":"CA","Zip":"91203"},{"Location":"GLENDALE SUITE GALLERY","Address":"236 N Brand Blvd","City":"Glendale","State":"CA","Zip":"91203"},{"Location":"GLENDALERESTAURANT.INC","Address":"314 N Brand Blvd","City":"Glendale","State":"CA","Zip":"91203"},{"Location":"GLOBAL HOLDINGS","Address":"550 N Brand Blvd 6","City":"Glendale","State":"CA","Zip":"91203"},{"Location":"GOOD BARBER","Address":"831 N Pacific Ave L","City":"Glendale","State":"CA","Zip":"91203"},{"Location":"HBC LOS ANGELES","Address":"655 N Central Ave 2500","City":"Glendale","State":"CA","Zip":"91203"},{"Location":"HBC LOS ANGELES","Address":"655 N Central Ave","City":"Glendale","State":"CA","Zip":"91203"},{"Location":"HOUSE OF JOY","Address":"818 N Pacific Ave I","City":"Glendale","State":"CA","Zip":"91203"},{"Location":"INTER VALLEY ESCROW INC","Address":"447 Burchett St","City":"Glendale","State":"CA","Zip":"91203"},{"Location":"JOHNNIES PIZZA","Address":"138 N Brand Blvd","City":"Glendale","State":"CA","Zip":"91203"},{"Location":"JUMPSTART MANAGEMENT","Address":"550 N Brand Blvd 925","City":"Glendale","State":"CA","Zip":"91203"},{"Location":"KNAPP PETERSEN & CLARKE","Address":"550 N Brand Blvd 1500","City":"Glendale","State":"CA","Zip":"91203"},{"Location":"LAW OFFICES BARBAR M RODRIGUEZ","Address":"330 Arden Ave 205","City":"Glendale","State":"CA","Zip":"91203"},{"Location":"LEGACY PARTNERS","Address":"101 N Brand Blvd 1650","City":"Glendale","State":"CA","Zip":"91203"},{"Location":"LEGALZOOM.COM","Address":"101 N Brand Blvd 1100","City":"Glendale","State":"CA","Zip":"91203"},{"Location":"LEGALZOOM.COM INC","Address":"101 N Brand Blvd 10","City":"Glendale","State":"CA","Zip":"91203"},{"Location":"LINCOLN FINANCIAL GROUP","Address":"101 N Brand Blvd 1800","City":"Glendale","State":"CA","Zip":"91203"},{"Location":"LITTLE PALACE","Address":"205 N Central Ave","City":"Glendale","State":"CA","Zip":"91203"},{"Location":"LOLAS PERUVIAN RESTAURAN","Address":"230 N Brand Blvd","City":"Glendale","State":"CA","Zip":"91203"},{"Location":"MANN  URRUTIA  NELSON","Address":"330 N Brand Blvd 1190","City":"Glendale","State":"CA","Zip":"91203"},{"Location":"MAUERHAN PLUMBING","Address":"752 W California Ave","City":"Glendale","State":"CA","Zip":"91203"},{"Location":"MOORE MCLENNAN%2C LLP","Address":"701 N Brand Blvd 200","City":"Glendale","State":"CA","Zip":"91203"},{"Location":"MY CAFE","Address":"138 N Brand Blvd 100","City":"Glendale","State":"CA","Zip":"91203"},{"Location":"NAPI GLENDALE-CBRE","Address":"505 N Brand Blvd 1480","City":"Glendale","State":"CA","Zip":"91203"},{"Location":"NATIONAL TELECONSULTANTS INC","Address":"700 N Brand Blvd","City":"Glendale","State":"CA","Zip":"91203"},{"Location":"NBC STUDIOS LLC","Address":"130 N Brand Blvd","City":"Glendale","State":"CA","Zip":"91203"},{"Location":"NDA INTERIORS","Address":"505 N Brand Blvd 850","City":"Glendale","State":"CA","Zip":"91203"},{"Location":"NORTH AMERICAN TITLE","Address":"520 N Central Ave 2","City":"Glendale","State":"CA","Zip":"91203"},{"Location":"PEKING CHINA","Address":"310 N Brand Blvd","City":"Glendale","State":"CA","Zip":"91203"},{"Location":"PHOENICIA RESTAURANT","Address":"343 N Central Ave","City":"Glendale","State":"CA","Zip":"91203"},{"Location":"RM FOSTER AND ASSOCIATES","Address":"550 N Brand Blvd 1","City":"Glendale","State":"CA","Zip":"91203"},{"Location":"ROYAL VANAK","Address":"108 N Brand Blvd","City":"Glendale","State":"CA","Zip":"91203"},{"Location":"RUDYS OF GLENDALE","Address":"109 W California Ave","City":"Glendale","State":"CA","Zip":"91203"},{"Location":"SAPPORO","Address":"318 N Brand Blvd","City":"Glendale","State":"CA","Zip":"91203"},{"Location":"SEARS AUTO CENTER","Address":"211 W California Ave","City":"Glendale","State":"CA","Zip":"91203"},{"Location":"SHAKERS","Address":"801 N Central Ave","City":"Glendale","State":"CA","Zip":"91203"},{"Location":"SILVER JEWELRY","Address":"228 N Brand Blvd","City":"Glendale","State":"CA","Zip":"91203"},{"Location":"SLOAN AND SLOAN","Address":"343 Arden Ave","City":"Glendale","State":"CA","Zip":"91203"},{"Location":"SMITH BARNEY 100252","Address":"550 N Brand Blvd 1000","City":"Glendale","State":"CA","Zip":"91203"},{"Location":"SOUTH BRAND GROUP INC","Address":"357 Arden Ave","City":"Glendale","State":"CA","Zip":"91203"},{"Location":"TAVERN ON BRAND","Address":"208 N Brand Blvd","City":"Glendale","State":"CA","Zip":"91203"},{"Location":"TERIYAKI ME","Address":"207 W Wilson Ave","City":"Glendale","State":"CA","Zip":"91203"},{"Location":"THE CALIFORNIA CREDIT UNION","Address":"701 N Brand Blvd","City":"Glendale","State":"CA","Zip":"91203"},{"Location":"THE WOODEN FORK","Address":"316 N Brand Blvd","City":"Glendale","State":"CA","Zip":"91203"},{"Location":"VELAZQUEZ & ASSOCIATES%2C INC.","Address":"330 N Brand Blvd 200","City":"Glendale","State":"CA","Zip":"91203"},{"Location":"VIDEO EQUIPMENT RENTAL","Address":"757 W California Ave 6","City":"Glendale","State":"CA","Zip":"91203"},{"Location":"WEDBUSH SECURITIES%2C INC","Address":"411 N Central Ave 302","City":"Glendale","State":"CA","Zip":"91203"},{"Location":"WESTON HERZOG","Address":"550 N Brand Blvd 19","City":"Glendale","State":"CA","Zip":"91203"},{"Location":"WHOLE FOODS MARKET%2F5007","Address":"207 N Goode Ave 700","City":"Glendale","State":"CA","Zip":"91203"}]