[{"Location":"ANARCHY POST","Address":"1811 Victory Blvd","City":"Glendale","State":"CA","Zip":"91201"},{"Location":"ARTS MEAT MARKET","Address":"1404 W Kenneth Rd","City":"Glendale","State":"CA","Zip":"91201"},{"Location":"AZTECA AMERICA","Address":"1139 Grand Central Ave","City":"Glendale","State":"CA","Zip":"91201"},{"Location":"CON SAZON PERUVIAN","Address":"6514 San Fernando Rd","City":"Glendale","State":"CA","Zip":"91201"},{"Location":"CORNER BISTRO","Address":"6720 San Fernando Rd","City":"Glendale","State":"CA","Zip":"91201"},{"Location":"DREAMWORKS ANIMATION","Address":"1000 Flower St","City":"Glendale","State":"CA","Zip":"91201"},{"Location":"ELENA HAIR SALON","Address":"6806 San Fernando Rd","City":"Glendale","State":"CA","Zip":"91201"},{"Location":"EVS","Address":"1819 Victory Blvd","City":"Glendale","State":"CA","Zip":"91201"},{"Location":"FOSTERS FREEZE LLC","Address":"1208 W Glenoaks Blvd","City":"Glendale","State":"CA","Zip":"91201"},{"Location":"GEI","Address":"1401 W Kenneth Rd","City":"Glendale","State":"CA","Zip":"91201"},{"Location":"GLEN OAKS ESCROW","Address":"6120 San Fernando Rd","City":"Glendale","State":"CA","Zip":"91201"},{"Location":"GLEN OAKS ESCROW","Address":"6100 San Fernando Rd","City":"Glendale","State":"CA","Zip":"91201"},{"Location":"KAZA TV FIFTY FOUR","Address":"1139 Grand Central Ave","City":"Glendale","State":"CA","Zip":"91201"},{"Location":"MAMBOS","Address":"1701 Victory Blvd","City":"Glendale","State":"CA","Zip":"91201"},{"Location":"MERCIES INSURANCE","Address":"6802 San Fernando Rd","City":"Glendale","State":"CA","Zip":"91201"},{"Location":"MOUNTAIN VIEW TIRE","Address":"6750 San Fernando Rd","City":"Glendale","State":"CA","Zip":"91201"},{"Location":"MR K S PIZZA","Address":"1504 W Glenoaks Blvd","City":"Glendale","State":"CA","Zip":"91201"},{"Location":"PERFORMANCE GLASS","Address":"631 Ruberta Ave","City":"Glendale","State":"CA","Zip":"91201"},{"Location":"PERSON & COVEY INC.","Address":"616 Allen Ave","City":"Glendale","State":"CA","Zip":"91201"},{"Location":"PIVOTAL POST","Address":"1721 Victory Blvd","City":"Glendale","State":"CA","Zip":"91201"},{"Location":"PUBLIC STORAGE INC","Address":"701 Western Ave","City":"Glendale","State":"CA","Zip":"91201"},{"Location":"RED ROCK GA","Address":"1546 Victory Blvd","City":"Glendale","State":"CA","Zip":"91201"},{"Location":"RYLEN INC","Address":"825 Western Ave 20","City":"Glendale","State":"CA","Zip":"91201"},{"Location":"SAXTON INDUSTRIAL INC","Address":"1736 Standard Ave","City":"Glendale","State":"CA","Zip":"91201"},{"Location":"SCHAEFER AMBULANCE SERVICE","Address":"1900 Victory Blvd","City":"Glendale","State":"CA","Zip":"91201"},{"Location":"SENORA AUTO SPA AND LUBE","Address":"1521 Riverside Dr","City":"Glendale","State":"CA","Zip":"91201"},{"Location":"SEVEN ELEVEN","Address":"2055 W Glenoaks Blvd","City":"Glendale","State":"CA","Zip":"91201"},{"Location":"SUNNY LAUNDROMAT","Address":"6302 San Fernando Rd","City":"Glendale","State":"CA","Zip":"91201"},{"Location":"SUNSHINE FINANCE","Address":"1110 Sonora Ave 211","City":"Glendale","State":"CA","Zip":"91201"},{"Location":"TACO NACO","Address":"6802 1%2F2 San Fernando Rd","City":"Glendale","State":"CA","Zip":"91201"},{"Location":"TAL TECH CONSTRUCTION","Address":"1767 Standard Ave","City":"Glendale","State":"CA","Zip":"91201"},{"Location":"USAEPAY","Address":"1833 Victory Blvd","City":"Glendale","State":"CA","Zip":"91201"},{"Location":"VICTORY STUDIOS","Address":"1840 Victory Blvd","City":"Glendale","State":"CA","Zip":"91201"},{"Location":"VIDEO EQUIPMENT RENTALS","Address":"912 Ruberta Ave","City":"Glendale","State":"CA","Zip":"91201"},{"Location":"WALT DISNEY COMPANY #7","Address":"1401 Flower St","City":"Glendale","State":"CA","Zip":"91201"},{"Location":"WINCHESTER BAR","Address":"6522 San Fernando Rd 101","City":"Glendale","State":"CA","Zip":"91201"}]