[{"Location":"AAA1 COMMUNICATIONS","Address":"225 E Broadway","City":"Glendale","State":"CA","Zip":"91205"},{"Location":"ALYNNS NAILS","Address":"1147 E Broadway","City":"Glendale","State":"CA","Zip":"91205"},{"Location":"BELLA NAILS","Address":"1212 S Glendale Ave","City":"Glendale","State":"CA","Zip":"91205"},{"Location":"BET RECREATION INC #2","Address":"135 S Glendale Ave","City":"Glendale","State":"CA","Zip":"91205"},{"Location":"BODY SHOP TATTOO","Address":"710 E Broadway","City":"Glendale","State":"CA","Zip":"91205"},{"Location":"BROTHER ENTERTAINMENT","Address":"1101 S Adams St Aptc","City":"Glendale","State":"CA","Zip":"91205"},{"Location":"CAREMORE","Address":"406 E Colorado St","City":"Glendale","State":"CA","Zip":"91205"},{"Location":"COLORADO BEAUTY SALON","Address":"623 E Colorado St","City":"Glendale","State":"CA","Zip":"91205"},{"Location":"DAVE'S ON BROADWAY","Address":"708 E Broadway","City":"Glendale","State":"CA","Zip":"91205"},{"Location":"DAVITA #3519 GLENDALE","Address":"1000 E Palmer Ave","City":"Glendale","State":"CA","Zip":"91205"},{"Location":"DOLORES PRESS%2C INC.","Address":"1615 S Glendale Ave","City":"Glendale","State":"CA","Zip":"91205"},{"Location":"EL SABROCITO RESTAURANT","Address":"1232 S Glendale Ave B","City":"Glendale","State":"CA","Zip":"91205"},{"Location":"ELKS LODGE 1289","Address":"120 E Colorado St","City":"Glendale","State":"CA","Zip":"91205"},{"Location":"EMERALD CITY ASSISTED LIVING","Address":"205 E Los Seliz Rd","City":"Glendale","State":"CA","Zip":"91205"},{"Location":"EXCELLENT NAILS","Address":"1215 E Colorado St","City":"Glendale","State":"CA","Zip":"91205"},{"Location":"FADE IMAGE BABERSHOP1","Address":"1341 E Colorado St B","City":"Glendale","State":"CA","Zip":"91205"},{"Location":"FIVE SEASONS 1","Address":"1428 E Colorado St","City":"Glendale","State":"CA","Zip":"91205"},{"Location":"GLENDALE SHAKEYS 12","Address":"1133 S Glendale Ave","City":"Glendale","State":"CA","Zip":"91205"},{"Location":"GLENDALE SPORTS INJURY A","Address":"1030 S Glendale Ave 301","City":"Glendale","State":"CA","Zip":"91205"},{"Location":"HAGOP ALAJAJIAN CHIROPRA","Address":"815 E Colorado St 250","City":"Glendale","State":"CA","Zip":"91205"},{"Location":"HAMLETS KITCHEN","Address":"1248 S Glendale Ave Z","City":"Glendale","State":"CA","Zip":"91205"},{"Location":"HERMOZAYVAZIAN D.P.M","Address":"1030 S Glendale Ave 403","City":"Glendale","State":"CA","Zip":"91205"},{"Location":"HOOKAH LOUNGE","Address":"831 E Colorado St","City":"Glendale","State":"CA","Zip":"91205"},{"Location":"HOUSE OF LIQUORE","Address":"1008 E Colorado St","City":"Glendale","State":"CA","Zip":"91205"},{"Location":"JAM CONSTRUCTION","Address":"1012 E Colorado St","City":"Glendale","State":"CA","Zip":"91205"},{"Location":"LEVISTE","Address":"1141 E Colorado St","City":"Glendale","State":"CA","Zip":"91205"},{"Location":"LUCKY GLOVES GYMS","Address":"725 E Broadway","City":"Glendale","State":"CA","Zip":"91205"},{"Location":"LUCY ROSS ENTERPRISES","Address":"624 E Colorado St A","City":"Glendale","State":"CA","Zip":"91205"},{"Location":"MARICEL GUARIN","Address":"1439 E Colorado St","City":"Glendale","State":"CA","Zip":"91205"},{"Location":"PETIKYAN","Address":"1000 S Glendale Ave","City":"Glendale","State":"CA","Zip":"91205"},{"Location":"SABZ AND OLIVE","Address":"107 E Broadway","City":"Glendale","State":"CA","Zip":"91205"},{"Location":"SOLID BASE INTERNATIONAL","Address":"1335 E Harvard St 202","City":"Glendale","State":"CA","Zip":"91205"},{"Location":"SRP SERVICES INC.","Address":"220 E Broadway A","City":"Glendale","State":"CA","Zip":"91205"},{"Location":"SUSHI KAI","Address":"143 S Maryland Ave","City":"Glendale","State":"CA","Zip":"91205"},{"Location":"T A ORIENTAL RUGS","Address":"1256 S Glendale Ave","City":"Glendale","State":"CA","Zip":"91205"},{"Location":"THE HOLY FAMILY RECTORY","Address":"321 E Elk Ave","City":"Glendale","State":"CA","Zip":"91205"},{"Location":"TROYS DRIVE NUMBER SIX","Address":"520 S Glendale Ave","City":"Glendale","State":"CA","Zip":"91205"},{"Location":"TRU CARE AUTO","Address":"120 E Los Feliz Rd","City":"Glendale","State":"CA","Zip":"91205"},{"Location":"UNIFREIGHT CARGO%2C INC","Address":"410 S Verdugo Rd","City":"Glendale","State":"CA","Zip":"91205"},{"Location":"WINE BAR AND GALLERY","Address":"117 E Harvard St","City":"Glendale","State":"CA","Zip":"91205"},{"Location":"WINGSTOP #620","Address":"245 S Glendale Ave B","City":"Glendale","State":"CA","Zip":"91205"},{"Location":"WRIGHT KIM LAW","Address":"130 S Jackson St","City":"Glendale","State":"CA","Zip":"91205"},{"Location":"AAA1 COMMUNICATIONS","Address":"225 E Broadway","City":"Glendale","State":"CA","Zip":"91205"},{"Location":"ALYNNS NAILS","Address":"1147 E Broadway","City":"Glendale","State":"CA","Zip":"91205"},{"Location":"BET RECREATION INC #2","Address":"135 S Glendale Ave","City":"Glendale","State":"CA","Zip":"91205"},{"Location":"BODY SHOP TATTOO","Address":"710 E Broadway","City":"Glendale","State":"CA","Zip":"91205"},{"Location":"BROTHER ENTERTAINMENT","Address":"1101 S Adams St Aptc","City":"Glendale","State":"CA","Zip":"91205"},{"Location":"CAREMORE","Address":"406 E Colorado St","City":"Glendale","State":"CA","Zip":"91205"},{"Location":"COLORADO BEAUTY SALON","Address":"623 E Colorado St","City":"Glendale","State":"CA","Zip":"91205"},{"Location":"DAVE'S ON BROADWAY","Address":"708 E Broadway","City":"Glendale","State":"CA","Zip":"91205"},{"Location":"DAVITA #3519 GLENDALE","Address":"1000 E Palmer Ave","City":"Glendale","State":"CA","Zip":"91205"},{"Location":"DOLORES PRESS%2C INC.","Address":"1615 S Glendale Ave","City":"Glendale","State":"CA","Zip":"91205"},{"Location":"EL SABROCITO RESTAURANT","Address":"1232 S Glendale Ave B","City":"Glendale","State":"CA","Zip":"91205"},{"Location":"ELKS LODGE 1289","Address":"120 E Colorado St","City":"Glendale","State":"CA","Zip":"91205"},{"Location":"EMERALD CITY ASSISTED LIVING","Address":"205 E Los Seliz Rd","City":"Glendale","State":"CA","Zip":"91205"},{"Location":"FADE IMAGE BABERSHOP1","Address":"1341 E Colorado St B","City":"Glendale","State":"CA","Zip":"91205"},{"Location":"FIVE SEASONS 1","Address":"1428 E Colorado St","City":"Glendale","State":"CA","Zip":"91205"},{"Location":"GLENDALE SHAKEYS 12","Address":"1133 S Glendale Ave","City":"Glendale","State":"CA","Zip":"91205"},{"Location":"GLENDALE SPORTS INJURY A","Address":"1030 S Glendale Ave 301","City":"Glendale","State":"CA","Zip":"91205"},{"Location":"HAGOP ALAJAJIAN CHIROPRA","Address":"815 E Colorado St 250","City":"Glendale","State":"CA","Zip":"91205"},{"Location":"HAMLETS KITCHEN","Address":"1248 S Glendale Ave Z","City":"Glendale","State":"CA","Zip":"91205"},{"Location":"HERMOZAYVAZIAN D.P.M","Address":"1030 S Glendale Ave 403","City":"Glendale","State":"CA","Zip":"91205"},{"Location":"HOOKAH LOUNGE","Address":"831 E Colorado St","City":"Glendale","State":"CA","Zip":"91205"},{"Location":"HOUSE OF LIQUORE","Address":"1008 E Colorado St","City":"Glendale","State":"CA","Zip":"91205"},{"Location":"JAM CONSTRUCTION","Address":"1012 E Colorado St","City":"Glendale","State":"CA","Zip":"91205"},{"Location":"LEVISTE","Address":"1141 E Colorado St","City":"Glendale","State":"CA","Zip":"91205"},{"Location":"LUCKY GLOVES GYMS","Address":"725 E Broadway","City":"Glendale","State":"CA","Zip":"91205"},{"Location":"LUCY ROSS ENTERPRISES","Address":"624 E Colorado St A","City":"Glendale","State":"CA","Zip":"91205"},{"Location":"MARICEL GUARIN","Address":"1439 E Colorado St","City":"Glendale","State":"CA","Zip":"91205"},{"Location":"PETIKYAN","Address":"1000 S Glendale Ave","City":"Glendale","State":"CA","Zip":"91205"},{"Location":"SABZ AND OLIVE","Address":"107 E Broadway","City":"Glendale","State":"CA","Zip":"91205"},{"Location":"SRP SERVICES INC.","Address":"220 E Broadway A","City":"Glendale","State":"CA","Zip":"91205"},{"Location":"SUSHI KAI","Address":"143 S Maryland Ave","City":"Glendale","State":"CA","Zip":"91205"},{"Location":"T A ORIENTAL RUGS","Address":"1256 S Glendale Ave","City":"Glendale","State":"CA","Zip":"91205"},{"Location":"THE HOLY FAMILY RECTORY","Address":"321 E Elk Ave","City":"Glendale","State":"CA","Zip":"91205"},{"Location":"TROYS DRIVE NUMBER SIX","Address":"520 S Glendale Ave","City":"Glendale","State":"CA","Zip":"91205"},{"Location":"TRU CARE AUTO","Address":"120 E Los Feliz Rd","City":"Glendale","State":"CA","Zip":"91205"},{"Location":"UNIFREIGHT CARGO%2C INC","Address":"410 S Verdugo Rd","City":"Glendale","State":"CA","Zip":"91205"},{"Location":"WINE BAR AND GALLERY","Address":"117 E Harvard St","City":"Glendale","State":"CA","Zip":"91205"},{"Location":"WINGSTOP #620","Address":"245 S Glendale Ave B","City":"Glendale","State":"CA","Zip":"91205"},{"Location":"WRIGHT KIM LAW","Address":"130 S Jackson St","City":"Glendale","State":"CA","Zip":"91205"}]