[{"Location":"1001 NIGHTS RESTAURANT 1","Address":"1829 S Brand Blvd","City":"Glendale","State":"CA","Zip":"91204"},{"Location":"1001 NIGHTS RESTAURANT 2","Address":"1827 S Brand Blvd","City":"Glendale","State":"CA","Zip":"91204"},{"Location":"ACURA OF GLENDALE","Address":"505 S Brand Blvd","City":"Glendale","State":"CA","Zip":"91204"},{"Location":"ASIAN JOURNAL PUBLICATIO","Address":"1210 S Brand Blvd","City":"Glendale","State":"CA","Zip":"91204"},{"Location":"BARRAGANS RESTURANT","Address":"814 S Central Ave","City":"Glendale","State":"CA","Zip":"91204"},{"Location":"BILLIARDS CORNER","Address":"1111 S Central Ave","City":"Glendale","State":"CA","Zip":"91204"},{"Location":"BLOOMINGDALES","Address":"103 S Brand Blvd","City":"Glendale","State":"CA","Zip":"91204"},{"Location":"CALSTAR MOTORS","Address":"700 S Brand Blvd","City":"Glendale","State":"CA","Zip":"91204"},{"Location":"CAR PROS KIA","Address":"400 S Brand Blvd","City":"Glendale","State":"CA","Zip":"91204"},{"Location":"CARL FELDMAN LAW OFFICE","Address":"206 S Brand Blvd 2","City":"Glendale","State":"CA","Zip":"91204"},{"Location":"CARS ON BROADWAY","Address":"361 W Broadway","City":"Glendale","State":"CA","Zip":"91204"},{"Location":"DGROTTO INC","Address":"154 S Brand Blvd","City":"Glendale","State":"CA","Zip":"91204"},{"Location":"DREAM CARS","Address":"400 S Central Ave","City":"Glendale","State":"CA","Zip":"91204"},{"Location":"EL PORTAL RESTAURANT","Address":"401 W Los Feliz Rd","City":"Glendale","State":"CA","Zip":"91204"},{"Location":"EL RUBY CAFE","Address":"4106 San Fernando Rd E","City":"Glendale","State":"CA","Zip":"91204"},{"Location":"FIRESTONE #011428","Address":"401 S Brand Blvd","City":"Glendale","State":"CA","Zip":"91204"},{"Location":"GATEWAY ANIMAL HOSPITAL","Address":"431 W Los Feliz Rd","City":"Glendale","State":"CA","Zip":"91204"},{"Location":"GAVAR","Address":"420 W Colorado St # A","City":"Glendale","State":"CA","Zip":"91204"},{"Location":"GLEN HOLD A LLC","Address":"530 Riverdale Dr","City":"Glendale","State":"CA","Zip":"91204"},{"Location":"GLENDALE COLLISION CENTE","Address":"4690 San Fernando Rd","City":"Glendale","State":"CA","Zip":"91204"},{"Location":"GLENDALE FOOD CONCEPTS","Address":"158 S Brand Blvd","City":"Glendale","State":"CA","Zip":"91204"},{"Location":"GLENDALE TAP","Address":"4227 San Fernando Rd","City":"Glendale","State":"CA","Zip":"91204"},{"Location":"GOODYEAR 8637","Address":"423 S Central Ave","City":"Glendale","State":"CA","Zip":"91204"},{"Location":"HEATHER KHUU","Address":"313 S Central Ave","City":"Glendale","State":"CA","Zip":"91204"},{"Location":"IMA ADOBO BOWL & BBQ","Address":"730 S Central Ave 101","City":"Glendale","State":"CA","Zip":"91204"},{"Location":"ISLANDS RESTAURANT #012","Address":"117 W Broadway","City":"Glendale","State":"CA","Zip":"91204"},{"Location":"K AND W SASABE ELECTRIC CO","Address":"1521 Railroad St","City":"Glendale","State":"CA","Zip":"91204"},{"Location":"KT MODA","Address":"120 S Brand Blvd","City":"Glendale","State":"CA","Zip":"91204"},{"Location":"LA CITA RESTAURANT","Address":"4608 San Fernando Rd","City":"Glendale","State":"CA","Zip":"91204"},{"Location":"LUCKY 7 PIZZA","Address":"440 W Broadway A","City":"Glendale","State":"CA","Zip":"91204"},{"Location":"MAXS RESTAURANT CORP","Address":"313 W Broadway","City":"Glendale","State":"CA","Zip":"91204"},{"Location":"MEDITERRANEAN DELIGHT","Address":"126 S Brand Blvd","City":"Glendale","State":"CA","Zip":"91204"},{"Location":"MINAS","Address":"4742 San Fernando Rd","City":"Glendale","State":"CA","Zip":"91204"},{"Location":"MINI KABOB","Address":"313 1%2F2 W Vine St","City":"Glendale","State":"CA","Zip":"91204"},{"Location":"MOOSE DEN INC","Address":"156 S Brand Blvd","City":"Glendale","State":"CA","Zip":"91204"},{"Location":"NEW CENTURY VOLKSWAGON","Address":"1220 S Brand Blvd","City":"Glendale","State":"CA","Zip":"91204"},{"Location":"OUTBACK STEAKHOUSE #0589","Address":"146 S Brand Blvd","City":"Glendale","State":"CA","Zip":"91204"},{"Location":"PAPIKYAN","Address":"416 S Central Ave","City":"Glendale","State":"CA","Zip":"91204"},{"Location":"PIZZA DU CHEF","Address":"311 1%2F2 W Broadway","City":"Glendale","State":"CA","Zip":"91204"},{"Location":"RAIN FALLS INC","Address":"152 S Brand Blvd","City":"Glendale","State":"CA","Zip":"91204"},{"Location":"SUNSET TOW","Address":"526 W Chevy Chase Dr","City":"Glendale","State":"CA","Zip":"91204"},{"Location":"TACORI ENTERPRISES","Address":"1736 Gardena Ave","City":"Glendale","State":"CA","Zip":"91204"},{"Location":"THE VAPE THEORY","Address":"420 S Brand Blvd","City":"Glendale","State":"CA","Zip":"91204"},{"Location":"TIB TRANSPORTATION INC","Address":"425 W Broadway 400","City":"Glendale","State":"CA","Zip":"91204"},{"Location":"VEGAS SEAFOOD BUFFET","Address":"110 S Brand Blvd","City":"Glendale","State":"CA","Zip":"91204"},{"Location":"WIECHMANN CONCRETE INC","Address":"422 W Chevy Chase Dr","City":"Glendale","State":"CA","Zip":"91204"},{"Location":"WINDSOR CLUB","Address":"123 W Windsor Rd","City":"Glendale","State":"CA","Zip":"91204"}]