[{"Location":"ADVENTIST HEALTH PHYSICIANS","Address":"544 N Glendale Ave","City":"Glendale","State":"CA","Zip":"91206"},{"Location":"BUKO RESTAURANT","Address":"327 N Verdugo Rd","City":"Glendale","State":"CA","Zip":"91206"},{"Location":"DAVITA #5530 GLENDALE NORTH","Address":"1505 Wilson Ter 190","City":"Glendale","State":"CA","Zip":"91206"},{"Location":"EDUTECH CONSULTING","Address":"225 N Maryland Ave D","City":"Glendale","State":"CA","Zip":"91206"},{"Location":"GLENDALE ADVENTIST WEST TOWER","Address":"1509 Wilson Ter","City":"Glendale","State":"CA","Zip":"91206"},{"Location":"GLENDALE ENDOSCOPY CENTER","Address":"824 N Glendale Ave","City":"Glendale","State":"CA","Zip":"91206"},{"Location":"GLENDALE FEDEAL C.U.","Address":"500 E Wilson Ave","City":"Glendale","State":"CA","Zip":"91206"},{"Location":"GLENDALE YMCA","Address":"140 N Louise St","City":"Glendale","State":"CA","Zip":"91206"},{"Location":"KANE CHOM","Address":"139 N Maryland Ave 101","City":"Glendale","State":"CA","Zip":"91206"},{"Location":"LAW OFFICES OF LYLE L. BLANE","Address":"200 N Maryland Ave 303","City":"Glendale","State":"CA","Zip":"91206"},{"Location":"MAPLETON INVESTMENTS","Address":"1577 E Chevy Chase Dr","City":"Glendale","State":"CA","Zip":"91206"},{"Location":"MAYTAG COIN LAUNDRY","Address":"411 N Verdugo Rd","City":"Glendale","State":"CA","Zip":"91206"},{"Location":"MEN'S WEARHOUSE #2711","Address":"120 N Glendale Ave","City":"Glendale","State":"CA","Zip":"91206"},{"Location":"MGN FIVE STAR","Address":"128 N Maryland Ave A","City":"Glendale","State":"CA","Zip":"91206"},{"Location":"MGN FIVE STAR CINEMA","Address":"128 N Maryland Ave","City":"Glendale","State":"CA","Zip":"91206"},{"Location":"NORDSTROM RACK","Address":"227 N Glendale Ave","City":"Glendale","State":"CA","Zip":"91206"},{"Location":"OCTOPUS GLENDALE","Address":"112 N Maryland Ave","City":"Glendale","State":"CA","Zip":"91206"},{"Location":"OSAKA SEAFOOD BUFFET","Address":"300 Harvey Dr","City":"Glendale","State":"CA","Zip":"91206"},{"Location":"PANDA INN","Address":"111 E Wilson Ave","City":"Glendale","State":"CA","Zip":"91206"},{"Location":"PIERRE GARDEN","Address":"145 N Maryland Ave","City":"Glendale","State":"CA","Zip":"91206"},{"Location":"ROYAL OAKS CONVALESCENT HOSPIT","Address":"250 N Verdugo Rd","City":"Glendale","State":"CA","Zip":"91206"},{"Location":"SCHOLL CANYON GOLF COURSE","Address":"3800 E Glenoaks Blvd","City":"Glendale","State":"CA","Zip":"91206"},{"Location":"TOASTED  BUN","Address":"808 E California Ave","City":"Glendale","State":"CA","Zip":"91206"},{"Location":"TWO GUYS FROM ITALY","Address":"405 N Verdugo Rd","City":"Glendale","State":"CA","Zip":"91206"},{"Location":"V&A SIGARRETS","Address":"246 N Glendale Ave","City":"Glendale","State":"CA","Zip":"91206"},{"Location":"WHOLE FOODS MARKET","Address":"331 N Glendale Ave","City":"Glendale","State":"CA","Zip":"91206"},{"Location":"ADVENTIST HEALTH PHYSICIANS","Address":"544 N Glendale Ave","City":"Glendale","State":"CA","Zip":"91206"},{"Location":"BUKO RESTAURANT","Address":"327 N Verdugo Rd","City":"Glendale","State":"CA","Zip":"91206"},{"Location":"DAVITA #5530 GLENDALE NORTH","Address":"1505 Wilson Ter 190","City":"Glendale","State":"CA","Zip":"91206"},{"Location":"EDUTECH CONSULTING","Address":"225 N Maryland Ave D","City":"Glendale","State":"CA","Zip":"91206"},{"Location":"GLENDALE ADVENTIST WEST TOWER","Address":"1509 Wilson Ter","City":"Glendale","State":"CA","Zip":"91206"},{"Location":"GLENDALE ENDOSCOPY CENTER","Address":"824 N Glendale Ave","City":"Glendale","State":"CA","Zip":"91206"},{"Location":"GLENDALE FEDEAL C.U.","Address":"500 E Wilson Ave","City":"Glendale","State":"CA","Zip":"91206"},{"Location":"GLENDALE YMCA","Address":"140 N Louise St","City":"Glendale","State":"CA","Zip":"91206"},{"Location":"KANE CHOM","Address":"139 N Maryland Ave 101","City":"Glendale","State":"CA","Zip":"91206"},{"Location":"LAW OFFICES OF LYLE L. BLANE","Address":"200 N Maryland Ave 303","City":"Glendale","State":"CA","Zip":"91206"},{"Location":"MAPLETON INVESTMENTS","Address":"1577 E Chevy Chase Dr","City":"Glendale","State":"CA","Zip":"91206"},{"Location":"MAYTAG COIN LAUNDRY","Address":"411 N Verdugo Rd","City":"Glendale","State":"CA","Zip":"91206"},{"Location":"MEN'S WEARHOUSE #2711","Address":"120 N Glendale Ave","City":"Glendale","State":"CA","Zip":"91206"},{"Location":"MGN FIVE STAR","Address":"128 N Maryland Ave A","City":"Glendale","State":"CA","Zip":"91206"},{"Location":"MGN FIVE STAR CINEMA","Address":"128 N Maryland Ave","City":"Glendale","State":"CA","Zip":"91206"},{"Location":"NORDSTROM RACK","Address":"227 N Glendale Ave","City":"Glendale","State":"CA","Zip":"91206"},{"Location":"OCTOPUS GLENDALE","Address":"112 N Maryland Ave","City":"Glendale","State":"CA","Zip":"91206"},{"Location":"OSAKA SEAFOOD BUFFET","Address":"300 Harvey Dr","City":"Glendale","State":"CA","Zip":"91206"},{"Location":"PANDA INN","Address":"111 E Wilson Ave","City":"Glendale","State":"CA","Zip":"91206"},{"Location":"PIERRE GARDEN","Address":"145 N Maryland Ave","City":"Glendale","State":"CA","Zip":"91206"},{"Location":"ROYAL OAKS CONVALESCENT HOSPIT","Address":"250 N Verdugo Rd","City":"Glendale","State":"CA","Zip":"91206"},{"Location":"SCHOLL CANYON GOLF COURSE","Address":"3800 E Glenoaks Blvd","City":"Glendale","State":"CA","Zip":"91206"},{"Location":"TOASTED  BUN","Address":"808 E California Ave","City":"Glendale","State":"CA","Zip":"91206"},{"Location":"TWO GUYS FROM ITALY","Address":"405 N Verdugo Rd","City":"Glendale","State":"CA","Zip":"91206"},{"Location":"V&A SIGARRETS","Address":"246 N Glendale Ave","City":"Glendale","State":"CA","Zip":"91206"},{"Location":"WHOLE FOODS MARKET","Address":"331 N Glendale Ave","City":"Glendale","State":"CA","Zip":"91206"}]