[{"Location":"AVALON AT GLENDALE","Address":"1137 N Central Ave","City":"Glendale","State":"CA","Zip":"91202"},{"Location":"CAFE BRAVO","Address":"1135 W Glenoaks Blvd","City":"Glendale","State":"CA","Zip":"91202"},{"Location":"CAPRI LOUNGE","Address":"1134 N Pacific Ave","City":"Glendale","State":"CA","Zip":"91202"},{"Location":"CASA DE RAMOS","Address":"827 W Glenoaks Blvd","City":"Glendale","State":"CA","Zip":"91202"},{"Location":"FLANAGAN UNGER GROVER MCCOOL","Address":"1156 N Brand Blvd","City":"Glendale","State":"CA","Zip":"91202"},{"Location":"HILTON LA (0052871)","Address":"100 W Glenoaks Blvd","City":"Glendale","State":"CA","Zip":"91202"},{"Location":"JOHN W BERG DDS","Address":"1139 N Brand Blvd","City":"Glendale","State":"CA","Zip":"91202"},{"Location":"MARIA O CESARE DDS","Address":"1122 N Brand Blvd 202","City":"Glendale","State":"CA","Zip":"91202"},{"Location":"PACIFIC VIDEO","Address":"1160 N Pacific Ave","City":"Glendale","State":"CA","Zip":"91202"},{"Location":"QUALITY CARE SURGERY LLC","Address":"5700 San Fernando Rd","City":"Glendale","State":"CA","Zip":"91202"},{"Location":"SAGE FITNESS","Address":"1150 N Brand Blvd C","City":"Glendale","State":"CA","Zip":"91202"},{"Location":"SHAMSHIRI RESTAURANT","Address":"122 W Stocker St","City":"Glendale","State":"CA","Zip":"91202"},{"Location":"SOUTH STATE REAL ESTATE","Address":"1201 N Pacific Ave 202","City":"Glendale","State":"CA","Zip":"91202"},{"Location":"SOUTH STATE REAL ESTATE","Address":"1163 N Pacific Ave","City":"Glendale","State":"CA","Zip":"91202"},{"Location":"V NAILS","Address":"1200 N Pacific Ave 101","City":"Glendale","State":"CA","Zip":"91202"},{"Location":"VERTIGO HALL LLC","Address":"400 W Glenoaks Blvd","City":"Glendale","State":"CA","Zip":"91202"},{"Location":"AVALON AT GLENDALE","Address":"1137 N Central Ave","City":"Glendale","State":"CA","Zip":"91202"},{"Location":"CAFE BRAVO","Address":"1135 W Glenoaks Blvd","City":"Glendale","State":"CA","Zip":"91202"},{"Location":"CAPRI LOUNGE","Address":"1134 N Pacific Ave","City":"Glendale","State":"CA","Zip":"91202"},{"Location":"CASA DE RAMOS","Address":"827 W Glenoaks Blvd","City":"Glendale","State":"CA","Zip":"91202"},{"Location":"FLANAGAN UNGER GROVER MCCOOL","Address":"1156 N Brand Blvd","City":"Glendale","State":"CA","Zip":"91202"},{"Location":"HILTON LA (0052871)","Address":"100 W Glenoaks Blvd","City":"Glendale","State":"CA","Zip":"91202"},{"Location":"JOHN W BERG DDS","Address":"1139 N Brand Blvd","City":"Glendale","State":"CA","Zip":"91202"},{"Location":"MARIA O CESARE DDS","Address":"1122 N Brand Blvd 202","City":"Glendale","State":"CA","Zip":"91202"},{"Location":"PACIFIC VIDEO","Address":"1160 N Pacific Ave","City":"Glendale","State":"CA","Zip":"91202"},{"Location":"QUALITY CARE SURGERY LLC","Address":"5700 San Fernando Rd","City":"Glendale","State":"CA","Zip":"91202"},{"Location":"SAGE FITNESS","Address":"1150 N Brand Blvd C","City":"Glendale","State":"CA","Zip":"91202"},{"Location":"SHAMSHIRI RESTAURANT","Address":"122 W Stocker St","City":"Glendale","State":"CA","Zip":"91202"},{"Location":"SOUTH STATE REAL ESTATE","Address":"1201 N Pacific Ave 202","City":"Glendale","State":"CA","Zip":"91202"},{"Location":"SOUTH STATE REAL ESTATE","Address":"1163 N Pacific Ave","City":"Glendale","State":"CA","Zip":"91202"},{"Location":"V NAILS","Address":"1200 N Pacific Ave 101","City":"Glendale","State":"CA","Zip":"91202"},{"Location":"VERTIGO HALL LLC","Address":"400 W Glenoaks Blvd","City":"Glendale","State":"CA","Zip":"91202"}]