[{"Location":"ARBOR CULTURE","Address":"424 Mesa Lila Rd","City":"Glendale","State":"CA","Zip":"91208"},{"Location":"ASSOCIATED STUDENTS%2FGLENDALE","Address":"1500 N Verdugo Rd","City":"Glendale","State":"CA","Zip":"91208"},{"Location":"BLUE MOON LOUNGE","Address":"3509 N Verdugo Rd","City":"Glendale","State":"CA","Zip":"91208"},{"Location":"CA EMINENT DOMAIN LAW GR","Address":"3429 Ocean View Blvd L","City":"Glendale","State":"CA","Zip":"91208"},{"Location":"CENTRIC WEALTH MANAGEMENT","Address":"3795 La Crescenta Ave 103","City":"Glendale","State":"CA","Zip":"91208"},{"Location":"LA CABANITA","Address":"3445 N Verdugo Rd","City":"Glendale","State":"CA","Zip":"91208"},{"Location":"OAKMONT CC - NON BAR","Address":"3100 Country Club Dr","City":"Glendale","State":"CA","Zip":"91208"},{"Location":"OAKMONT COUNTRY CLUB","Address":"3100 Country Club Dr","City":"Glendale","State":"CA","Zip":"91208"},{"Location":"ARBOR CULTURE","Address":"424 Mesa Lila Rd","City":"Glendale","State":"CA","Zip":"91208"},{"Location":"ASSOCIATED STUDENTS%2FGLENDALE","Address":"1500 N Verdugo Rd","City":"Glendale","State":"CA","Zip":"91208"},{"Location":"BLUE MOON LOUNGE","Address":"3509 N Verdugo Rd","City":"Glendale","State":"CA","Zip":"91208"},{"Location":"CA EMINENT DOMAIN LAW GR","Address":"3429 Ocean View Blvd L","City":"Glendale","State":"CA","Zip":"91208"},{"Location":"CENTRIC WEALTH MANAGEMENT","Address":"3795 La Crescenta Ave 103","City":"Glendale","State":"CA","Zip":"91208"},{"Location":"LA CABANITA","Address":"3445 N Verdugo Rd","City":"Glendale","State":"CA","Zip":"91208"},{"Location":"OAKMONT CC - NON BAR","Address":"3100 Country Club Dr","City":"Glendale","State":"CA","Zip":"91208"},{"Location":"OAKMONT COUNTRY CLUB","Address":"3100 Country Club Dr","City":"Glendale","State":"CA","Zip":"91208"}]