[{"Location":"PHO PHO","Address":"4121 Pennsylvania Ave I","City":"Glendale","State":"CA","Zip":"91214"},{"Location":"AVO DIAMONDS SETTER INC.","Address":"2629 Foothill Blvd 393","City":"La Crescenta","State":"CA","Zip":"91214"},{"Location":"BLISS HAIR STUDIO","Address":"3604 Foothill Blvd","City":"La Crescenta","State":"CA","Zip":"91214"},{"Location":"BUFF AND TWEEZE","Address":"3731 Foothill Blvd K","City":"La Crescenta","State":"CA","Zip":"91214"},{"Location":"CRESCENTA VALLEY  TOW","Address":"4456 Cloud Ave","City":"La Crescenta","State":"CA","Zip":"91214"},{"Location":"CRESCENTA VALLEY INSURANCE","Address":"3156 Foothill Blvd A","City":"La Crescenta","State":"CA","Zip":"91214"},{"Location":"FOOTHILL ATHLETIC CLUB","Address":"3931 Lowell Ave","City":"La Crescenta","State":"CA","Zip":"91214"},{"Location":"GILLIGANS IRISH PUB","Address":"2959 Honolulu Ave","City":"La Crescenta","State":"CA","Zip":"91214"},{"Location":"HAMILTON TOOL ENGINEERING LLC","Address":"3544 Foothill Blvd","City":"La Crescenta","State":"CA","Zip":"91214"},{"Location":"HOUSE OF JOY","Address":"3220 Foothill Blvd","City":"La Crescenta","State":"CA","Zip":"91214"},{"Location":"JUST TIRES #4853","Address":"3765 Foothill Blvd","City":"La Crescenta","State":"CA","Zip":"91214"},{"Location":"LEO'S ALL STAR SPORTS BAR","Address":"2941 Honolulu Ave","City":"La Crescenta","State":"CA","Zip":"91214"},{"Location":"RAY BARBER SHOP","Address":"3234 Foothill Blvd","City":"La Crescenta","State":"CA","Zip":"91214"},{"Location":"SAKURA","Address":"3630 Foothill Blvd","City":"La Crescenta","State":"CA","Zip":"91214"},{"Location":"SIDESHOW BAR LLC","Address":"3645 Foothill Blvd","City":"La Crescenta","State":"CA","Zip":"91214"},{"Location":"TOFU LOVE","Address":"3115 Foothill Blvd","City":"La Crescenta","State":"CA","Zip":"91214"},{"Location":"UP THE HILL","Address":"2856 Foothill Blvd","City":"La Crescenta","State":"CA","Zip":"91214"},{"Location":"PHO PHO","Address":"4121 Pennsylvania Ave I","City":"Glendale","State":"CA","Zip":"91214"},{"Location":"AVO DIAMONDS SETTER INC.","Address":"2629 Foothill Blvd 393","City":"La Crescenta","State":"CA","Zip":"91214"},{"Location":"BLISS HAIR STUDIO","Address":"3604 Foothill Blvd","City":"La Crescenta","State":"CA","Zip":"91214"},{"Location":"BUFF AND TWEEZE","Address":"3731 Foothill Blvd K","City":"La Crescenta","State":"CA","Zip":"91214"},{"Location":"CRESCENTA VALLEY  TOW","Address":"4456 Cloud Ave","City":"La Crescenta","State":"CA","Zip":"91214"},{"Location":"CRESCENTA VALLEY INSURANCE","Address":"3156 Foothill Blvd A","City":"La Crescenta","State":"CA","Zip":"91214"},{"Location":"FOOTHILL ATHLETIC CLUB","Address":"3931 Lowell Ave","City":"La Crescenta","State":"CA","Zip":"91214"},{"Location":"GILLIGANS IRISH PUB","Address":"2959 Honolulu Ave","City":"La Crescenta","State":"CA","Zip":"91214"},{"Location":"HAMILTON TOOL ENGINEERING LLC","Address":"3544 Foothill Blvd","City":"La Crescenta","State":"CA","Zip":"91214"},{"Location":"HOUSE OF JOY","Address":"3220 Foothill Blvd","City":"La Crescenta","State":"CA","Zip":"91214"},{"Location":"JUST TIRES #4853","Address":"3765 Foothill Blvd","City":"La Crescenta","State":"CA","Zip":"91214"},{"Location":"LEO'S ALL STAR SPORTS BAR","Address":"2941 Honolulu Ave","City":"La Crescenta","State":"CA","Zip":"91214"},{"Location":"RAY BARBER SHOP","Address":"3234 Foothill Blvd","City":"La Crescenta","State":"CA","Zip":"91214"},{"Location":"SAKURA","Address":"3630 Foothill Blvd","City":"La Crescenta","State":"CA","Zip":"91214"},{"Location":"SIDESHOW BAR LLC","Address":"3645 Foothill Blvd","City":"La Crescenta","State":"CA","Zip":"91214"},{"Location":"TOFU LOVE","Address":"3115 Foothill Blvd","City":"La Crescenta","State":"CA","Zip":"91214"},{"Location":"UP THE HILL","Address":"2856 Foothill Blvd","City":"La Crescenta","State":"CA","Zip":"91214"}]