[{"Location":"ALEX GILANIANS APC","Address":"100 W Broadway 1250","City":"Glendale","State":"CA","Zip":"91210"},{"Location":"DABBAH-HADDAD","Address":"100 W Broadway 990","City":"Glendale","State":"CA","Zip":"91210"},{"Location":"FONDA & FRASER","Address":"100 W Broadway 650","City":"Glendale","State":"CA","Zip":"91210"},{"Location":"FRIDA RESTAURANT AMERICA","Address":"750 Americana Way","City":"Glendale","State":"CA","Zip":"91210"},{"Location":"GEN GROWTH PROPERTIES","Address":"100 W Broadway 700","City":"Glendale","State":"CA","Zip":"91210"},{"Location":"GLENDALES GIGGLES N HUGS","Address":"3222 Glendale Galleria","City":"Glendale","State":"CA","Zip":"91210"},{"Location":"GRANVILLE CAFE","Address":"807 Americana Way","City":"Glendale","State":"CA","Zip":"91210"},{"Location":"JAMES MULLIGAN INSURANCE","Address":"100 W Broadway 820","City":"Glendale","State":"CA","Zip":"91210"},{"Location":"JCPENNEY 0699-9","Address":"333 W Colorado St","City":"Glendale","State":"CA","Zip":"91210"},{"Location":"KATSUYA GLENDALE","Address":"702 Americana Way","City":"Glendale","State":"CA","Zip":"91210"},{"Location":"LEGALZOOM.COM","Address":"100 W Broadway 100","City":"Glendale","State":"CA","Zip":"91210"},{"Location":"MACY'S WEST 502","Address":"2100 Glendale Galleria","City":"Glendale","State":"CA","Zip":"91210"},{"Location":"NORDSTROM BAR VERDE","Address":"102 Caruso Ave","City":"Glendale","State":"CA","Zip":"91210"},{"Location":"NORDSTROM GLENDALE","Address":"102 Caruso Ave","City":"Glendale","State":"CA","Zip":"91210"},{"Location":"PIRCH INC","Address":"101 S Brand Blvd","City":"Glendale","State":"CA","Zip":"91210"},{"Location":"RED ROBIN #242","Address":"1187 Glendale Galleria","City":"Glendale","State":"CA","Zip":"91210"},{"Location":"SCOTTRADE F04","Address":"100 W Broadway 150","City":"Glendale","State":"CA","Zip":"91210"},{"Location":"TARGET","Address":"2195 Glendale Galleria Store","City":"Glendale","State":"CA","Zip":"91210"},{"Location":"THE CHEESECAKE FACTORY 0141","Address":"511 Americana Way","City":"Glendale","State":"CA","Zip":"91210"}]