[{"Location":"AMECI","Address":"6603 Independence Ave B","City":"Canoga Park","State":"CA","Zip":"91303"},{"Location":"AMERICA TAX SERVICE","Address":"21822 Sherman Way 204","City":"Canoga Park","State":"CA","Zip":"91303"},{"Location":"APPLING","Address":"7220 Owensmouth Ave 204c","City":"Canoga Park","State":"CA","Zip":"91303"},{"Location":"BEHNAZ SEPEHRIPAR DDS","Address":"21045 Sherman Way","City":"Canoga Park","State":"CA","Zip":"91303"},{"Location":"BIG O TIRES","Address":"21311 Vanowen St 125","City":"Canoga Park","State":"CA","Zip":"91303"},{"Location":"BISTRO KA","Address":"6600 Topanga Canyon Blvd 2010","City":"Canoga Park","State":"CA","Zip":"91303"},{"Location":"BONILLA","Address":"7152 Remmet Ave","City":"Canoga Park","State":"CA","Zip":"91303"},{"Location":"BOUTIQUE JACKII 2","Address":"20924 Gault St","City":"Canoga Park","State":"CA","Zip":"91303"},{"Location":"CALIFORNIA PIZZA KITCHEN #314","Address":"6600 Topanga Canyon Blvd","City":"Canoga Park","State":"CA","Zip":"91303"},{"Location":"CANOGA DISCOUNT BIRDS","Address":"21731 Sherman Way","City":"Canoga Park","State":"CA","Zip":"91303"},{"Location":"CANOGAS FINEST LLC","Address":"7230 Variel Ave","City":"Canoga Park","State":"CA","Zip":"91303"},{"Location":"CARE FOR CARE","Address":"21813 Sherman Way","City":"Canoga Park","State":"CA","Zip":"91303"},{"Location":"CHAMPS HOT GRILL","Address":"7250 Canoga Ave","City":"Canoga Park","State":"CA","Zip":"91303"},{"Location":"CHILENAZO","Address":"7238 Canoga Ave","City":"Canoga Park","State":"CA","Zip":"91303"},{"Location":"DESTINATION MATERNITY","Address":"6600 Topanga Canyon Blvd 2048","City":"Canoga Park","State":"CA","Zip":"91303"},{"Location":"DRAGON KING","Address":"21415 Vanowen St","City":"Canoga Park","State":"CA","Zip":"91303"},{"Location":"EL GALLO GIRO INC","Address":"20901 Sherman Way","City":"Canoga Park","State":"CA","Zip":"91303"},{"Location":"ELITE FULL SERVICE SALON","Address":"7224 Canoga Ave","City":"Canoga Park","State":"CA","Zip":"91303"},{"Location":"EXECUTIVE CUT AND SHAVE","Address":"21709 Sherman Way","City":"Canoga Park","State":"CA","Zip":"91303"},{"Location":"FEDERAL EXPRESS","Address":"21300 Vanowen St","City":"Canoga Park","State":"CA","Zip":"91303"},{"Location":"FIRE STATION 72","Address":"6811 De Soto Ave","City":"Canoga Park","State":"CA","Zip":"91303"},{"Location":"FIRESTONE #011622","Address":"7100 Topanga Canyon Blvd","City":"Canoga Park","State":"CA","Zip":"91303"},{"Location":"FRANCE DONUT","Address":"21119 Sherman Way","City":"Canoga Park","State":"CA","Zip":"91303"},{"Location":"GIGGLES N HUGS TOPANGA","Address":"6600 Topanga Canyon Blvd 2008","City":"Canoga Park","State":"CA","Zip":"91303"},{"Location":"GLOBAL TECH RESEARCH","Address":"7108 De Soto Ave 200","City":"Canoga Park","State":"CA","Zip":"91303"},{"Location":"GYU KAKU JAPENSE BARBUE GRILL","Address":"6600 Topanga Canyon Blvd 1010","City":"Canoga Park","State":"CA","Zip":"91303"},{"Location":"HOLE IN THE SKY","Address":"21044 Sherman Way","City":"Canoga Park","State":"CA","Zip":"91303"},{"Location":"HOUSTON LLC","Address":"7220 Owensmouth Ave 209","City":"Canoga Park","State":"CA","Zip":"91303"},{"Location":"INGOLSTADT WEST INC","Address":"6933 Canoga Ave","City":"Canoga Park","State":"CA","Zip":"91303"},{"Location":"JERRYS PIZZA","Address":"22035 Sherman Way","City":"Canoga Park","State":"CA","Zip":"91303"},{"Location":"JGS NIP HAT","Address":"22122 Sherman Way 101","City":"Canoga Park","State":"CA","Zip":"91303"},{"Location":"MACY'S WEST 503","Address":"21900 Vanowen St","City":"Canoga Park","State":"CA","Zip":"91303"},{"Location":"MARTINS UPHOLSTERY","Address":"7116 Alabama Ave","City":"Canoga Park","State":"CA","Zip":"91303"},{"Location":"MICROSOFT - CANOGA PARK","Address":"6600 Topanga Canyon Blvd","City":"Canoga Park","State":"CA","Zip":"91303"},{"Location":"MISSION BURRITO 1-CP","Address":"21425 Vanowen St","City":"Canoga Park","State":"CA","Zip":"91303"},{"Location":"MORTGAGE MAVENS INC","Address":"21133 Victory Blvd 203","City":"Canoga Park","State":"CA","Zip":"91303"},{"Location":"NAILS 4 YOU","Address":"22330 Sherman Way","City":"Canoga Park","State":"CA","Zip":"91303"},{"Location":"NORDSTORM - TOPANGA PLAZA","Address":"21725 Victory Blvd","City":"Canoga Park","State":"CA","Zip":"91303"},{"Location":"NORDSTROM BAZILLE","Address":"21725 Victory Blvd","City":"Canoga Park","State":"CA","Zip":"91303"},{"Location":"POCOS MEXICAN RESTAURANT","Address":"20917 Sherman Way","City":"Canoga Park","State":"CA","Zip":"91303"},{"Location":"PRO LOOK NAIL STAR & SKIN CARE","Address":"21015 Sherman Way B","City":"Canoga Park","State":"CA","Zip":"91303"},{"Location":"RED ROBIN #238","Address":"6600 Topanga Canyon Blvd","City":"Canoga Park","State":"CA","Zip":"91303"},{"Location":"RUDY DELCID","Address":"7251 Owensmouth Ave","City":"Canoga Park","State":"CA","Zip":"91303"},{"Location":"SCOTLAND YARD PUB","Address":"22041 Sherman Way B","City":"Canoga Park","State":"CA","Zip":"91303"},{"Location":"SPECTRUM CLUB-WEST HILLS","Address":"22235 Sherman Way","City":"Canoga Park","State":"CA","Zip":"91303"},{"Location":"ST. JOHN UNLIMITED","Address":"7101 Farralone Ave 144","City":"Canoga Park","State":"CA","Zip":"91303"},{"Location":"STARS COIN LAUNDRY","Address":"21305 Sherman Way","City":"Canoga Park","State":"CA","Zip":"91303"},{"Location":"SUSANAS HOUSE OF BEAUTY","Address":"7230 Variel Ave","City":"Canoga Park","State":"CA","Zip":"91303"},{"Location":"SWEET WATER MESA GROUP","Address":"22156 Sherman Way H","City":"Canoga Park","State":"CA","Zip":"91303"},{"Location":"SYNERGY DATA SYSTEMS INC","Address":"22153 Sherman Way","City":"Canoga Park","State":"CA","Zip":"91303"},{"Location":"TACOS WAY","Address":"21628 Sherman Way","City":"Canoga Park","State":"CA","Zip":"91303"},{"Location":"THE BLADE BARBERSHOP 2","Address":"21504 Sherman Way","City":"Canoga Park","State":"CA","Zip":"91303"},{"Location":"THE CHEESECAKE FACTORY #0170","Address":"6600 Topanga Canyon Blvd","City":"Canoga Park","State":"CA","Zip":"91303"},{"Location":"THE CORVETTE SHOP","Address":"7537 Topanga Canyon Blvd","City":"Canoga Park","State":"CA","Zip":"91303"},{"Location":"TOPANGA CAR WASH","Address":"6829 Topanga Canyon Blvd","City":"Canoga Park","State":"CA","Zip":"91303"},{"Location":"VALLARTA SUPERMARKET NO 11","Address":"21208 Sherman Way","City":"Canoga Park","State":"CA","Zip":"91303"},{"Location":"WINGSTOP","Address":"6844 Desoto St","City":"Canoga Park","State":"CA","Zip":"91303"},{"Location":"DESTINATION XL 9701","Address":"6401 Topanga Canyon Blvd","City":"Woodland Hills","State":"CA","Zip":"91303"},{"Location":"DOGHOUSE TOPANGA LLC","Address":"6501 Topanga Canyon Blvd","City":"Woodland Hills","State":"CA","Zip":"91303"},{"Location":"Karlo'S & Koke'S","Address":"6551 Topanga Canyon Blvd","City":"Woodland Hills","State":"CA","Zip":"91303"},{"Location":"NEIMAN MARCUS 1105","Address":"6550 Topanga Canyon Blvd","City":"Woodland Hills","State":"CA","Zip":"91303"},{"Location":"TITANTIC VAPE INC 1","Address":"6457 Topanga Canyon Blvd","City":"Woodland Hills","State":"CA","Zip":"91303"}]