[{"Location":"ABERGEL & ASSOCIATES INC","Address":"26560 Agoura Rd 203","City":"Calabasas","State":"CA","Zip":"91302"},{"Location":"AIA HOLDINGS","Address":"26540 Agoura Rd 200","City":"Calabasas","State":"CA","Zip":"91302"},{"Location":"ALBERSON","Address":"26521 Agoura Rd","City":"Calabasas","State":"CA","Zip":"91302"},{"Location":"ALL MOTORISTS INSURANCE AGENCY","Address":"5230 Las Virgenes Rd 100","City":"Calabasas","State":"CA","Zip":"91302"},{"Location":"AMA WATERWAYS","Address":"26010 Mureau Rd 200","City":"Calabasas","State":"CA","Zip":"91302"},{"Location":"ATLAS DEVELOPMENT CORP","Address":"26679 Agoura Rd 200","City":"Calabasas","State":"CA","Zip":"91302"},{"Location":"BANK OF AMERICA CA7-910-02-33","Address":"4500 Park Granada","City":"Calabasas","State":"CA","Zip":"91302"},{"Location":"BCBC NAIL SPA","Address":"26799 Agoura Rd C4","City":"Calabasas","State":"CA","Zip":"91302"},{"Location":"BOB SMITH BMW","Address":"24500 Calabasas Rd","City":"Calabasas","State":"CA","Zip":"91302"},{"Location":"BOB SMITH MINI","Address":"24400 Calabasas Rd","City":"Calabasas","State":"CA","Zip":"91302"},{"Location":"C P MANAGEMENT","Address":"5000 Parkway Calabasas 204","City":"Calabasas","State":"CA","Zip":"91302"},{"Location":"C Q NAILS","Address":"26500 Agoura Rd 107","City":"Calabasas","State":"CA","Zip":"91302"},{"Location":"CALABASAS ACURA SERVICE","Address":"24650 Calabasas Rd","City":"Calabasas","State":"CA","Zip":"91302"},{"Location":"CALABASAS DENTAL CARE","Address":"23695 Calabasas Rd","City":"Calabasas","State":"CA","Zip":"91302"},{"Location":"CALABASAS FARMS1","Address":"26791 Agoura Rd","City":"Calabasas","State":"CA","Zip":"91302"},{"Location":"CALABASAS HIGH SCHOOL","Address":"22855 Mulholland Hwy","City":"Calabasas","State":"CA","Zip":"91302"},{"Location":"CALABASAS J.R","Address":"4799 Commons Way J","City":"Calabasas","State":"CA","Zip":"91302"},{"Location":"CAMP GONZALES","Address":"1301 Las Virgenes Rd","City":"Calabasas","State":"CA","Zip":"91302"},{"Location":"CAPRI NAIL SPA","Address":"23677 Calabasas Rd","City":"Calabasas","State":"CA","Zip":"91302"},{"Location":"CHOW HOUSE%2FSIX RESTAURANT LP","Address":"23536 Calabasas Rd","City":"Calabasas","State":"CA","Zip":"91302"},{"Location":"COASTAL SATELLITE INC","Address":"26660 Agoura Rd","City":"Calabasas","State":"CA","Zip":"91302"},{"Location":"COMMERCIAL REALTY CONSULTANTS","Address":"23586 Calabasas Rd 100","City":"Calabasas","State":"CA","Zip":"91302"},{"Location":"COURTYARD SALON","Address":"23645 Calabasas Rd","City":"Calabasas","State":"CA","Zip":"91302"},{"Location":"DEAL SEGMENS INC","Address":"23875 Ventura Blvd 101","City":"Calabasas","State":"CA","Zip":"91302"},{"Location":"DR STUART HOFFMAN","Address":"4764 Park Granada 104","City":"Calabasas","State":"CA","Zip":"91302"},{"Location":"ENCO BUILDERS","Address":"2063 Delphine Ln","City":"Calabasas","State":"CA","Zip":"91302"},{"Location":"EXPEDITION MOTOR HOMES INC","Address":"23981 Craftsman Rd","City":"Calabasas","State":"CA","Zip":"91302"},{"Location":"FANTASTIC SAMS","Address":"26500 Agoura Rd 100","City":"Calabasas","State":"CA","Zip":"91302"},{"Location":"FRESH BROTHER PIZZA","Address":"4751 Commons Way Suite","City":"Calabasas","State":"CA","Zip":"91302"},{"Location":"FROZEN PALMS INC 1","Address":"22733 De Kalb Dr","City":"Calabasas","State":"CA","Zip":"91302"},{"Location":"GEBBIA INTERNATIONAL","Address":"24100 Calabasas Rd 100","City":"Calabasas","State":"CA","Zip":"91302"},{"Location":"GRANT  AND WEBER","Address":"26610 Agoura Rd","City":"Calabasas","State":"CA","Zip":"91302"},{"Location":"GRAYBILL INVESTMENTS 2","Address":"23480 Park Sorrento 201a","City":"Calabasas","State":"CA","Zip":"91302"},{"Location":"HANAMI SUSHI CALABASAS","Address":"26527 Agoura Rd","City":"Calabasas","State":"CA","Zip":"91302"},{"Location":"HEART LEADER","Address":"23945 Calabasas Rd 213","City":"Calabasas","State":"CA","Zip":"91302"},{"Location":"HILTON GARDEN INN","Address":"24150 Park Sorrento","City":"Calabasas","State":"CA","Zip":"91302"},{"Location":"HW PREMIER SERVICES","Address":"5115 Douglas Fir Rd","City":"Calabasas","State":"CA","Zip":"91302"},{"Location":"I BRAND","Address":"5146 Douglas Fir Rd 205","City":"Calabasas","State":"CA","Zip":"91302"},{"Location":"INFOSTOX.COM USA%2C INC","Address":"5010 Parkway Calabasas 105","City":"Calabasas","State":"CA","Zip":"91302"},{"Location":"INTERNATIONAL LASER GROUP","Address":"26610 Agoura Rd 100","City":"Calabasas","State":"CA","Zip":"91302"},{"Location":"ISLAND DRIVER","Address":"25650 Mulholland Hwy 1a","City":"Calabasas","State":"CA","Zip":"91302"},{"Location":"IXIA","Address":"26601 Agoura Rd","City":"Calabasas","State":"CA","Zip":"91302"},{"Location":"JERSEY MIKE SUBS","Address":"26799 Agoura Rd","City":"Calabasas","State":"CA","Zip":"91302"},{"Location":"KING'S FISH HOUSE","Address":"4798 Commons Way","City":"Calabasas","State":"CA","Zip":"91302"},{"Location":"KNIGHT CALABAS","Address":"4515 Park Entrada","City":"Calabasas","State":"CA","Zip":"91302"},{"Location":"KUSH LABS LLC","Address":"5115 Douglas Fir Rd B","City":"Calabasas","State":"CA","Zip":"91302"},{"Location":"KYJ INTERNATIONAL INC","Address":"23508 Calabasas Rd","City":"Calabasas","State":"CA","Zip":"91302"},{"Location":"LA CNTY GONZALEZ BLDG 1","Address":"1301 Las Virgenes Rd","City":"Calabasas","State":"CA","Zip":"91302"},{"Location":"LA CNTY GONZALEZ BLDG 2","Address":"1301 Las Virgenes Rd","City":"Calabasas","State":"CA","Zip":"91302"},{"Location":"LA CNTY GONZALEZ BLDG 3","Address":"1301 Las Virgenes Rd","City":"Calabasas","State":"CA","Zip":"91302"},{"Location":"LA PAZ MEXICAN SEAFOOD RESTAUR","Address":"4505 Las Virgenes Rd 101","City":"Calabasas","State":"CA","Zip":"91302"},{"Location":"LADENBURG THALMANN & CO INC","Address":"24003 Ventura Blvd A","City":"Calabasas","State":"CA","Zip":"91302"},{"Location":"LAS VIRGENES MUNICIPAL WATER","Address":"4232 Las Virgenes Rd","City":"Calabasas","State":"CA","Zip":"91302"},{"Location":"LAS VIRGENES WATER DISTRICT","Address":"4232 Las Virgenes Rd","City":"Calabasas","State":"CA","Zip":"91302"},{"Location":"LAZERCAD LLC","Address":"4346 Oak Glen St","City":"Calabasas","State":"CA","Zip":"91302"},{"Location":"LAZERCAD LLC 2","Address":"22253 Parched Dr","City":"Calabasas","State":"CA","Zip":"91302"},{"Location":"LILY SHOP","Address":"26010 Mureau Rd 110","City":"Calabasas","State":"CA","Zip":"91302"},{"Location":"LOVIS DELICATESSEN","Address":"24005 Calabasas Rd","City":"Calabasas","State":"CA","Zip":"91302"},{"Location":"MALIBU CANYON COIN","Address":"5661 Las Virgenes Rd","City":"Calabasas","State":"CA","Zip":"91302"},{"Location":"MARMALADE CAFE CALABASAS","Address":"4783 Commons Way Stee","City":"Calabasas","State":"CA","Zip":"91302"},{"Location":"MAURY ABRAMS LLC","Address":"26135 Mureau Rd 200","City":"Calabasas","State":"CA","Zip":"91302"},{"Location":"MDIA","Address":"5016 Parkway Calabasas 100","City":"Calabasas","State":"CA","Zip":"91302"},{"Location":"MDIA 2","Address":"5016 Parkway Calabasas 207","City":"Calabasas","State":"CA","Zip":"91302"},{"Location":"MEDITERRANEAN PITA GRILL","Address":"26527 Agoura Rd 120","City":"Calabasas","State":"CA","Zip":"91302"},{"Location":"MERCEDES BENZ CALABASAS","Address":"24181 Calabasas Rd","City":"Calabasas","State":"CA","Zip":"91302"},{"Location":"MICHAELS PIZZA","Address":"5669 Las Virgenes Rd","City":"Calabasas","State":"CA","Zip":"91302"},{"Location":"MRS. CLEANERS","Address":"3840 Old Topanga Canyon Rd D","City":"Calabasas","State":"CA","Zip":"91302"},{"Location":"MURRE CLEANERS","Address":"23542 Calabasas Rd","City":"Calabasas","State":"CA","Zip":"91302"},{"Location":"MUSE SCHOOL","Address":"1666 Las Virgenes Canyon Rd","City":"Calabasas","State":"CA","Zip":"91302"},{"Location":"NATIONAL PARK SERVICE BLD 2","Address":"26412 Mulholland Hwy","City":"Calabasas","State":"CA","Zip":"91302"},{"Location":"NATIONAL TECHNICAL SYSTEMS","Address":"24007 Ventura Blvd 200","City":"Calabasas","State":"CA","Zip":"91302"},{"Location":"NEV PRODUCTIONS","Address":"22451 Galilee St","City":"Calabasas","State":"CA","Zip":"91302"},{"Location":"NYLA SPORTS MEDICINE","Address":"26655 Agoura Rd","City":"Calabasas","State":"CA","Zip":"91302"},{"Location":"PEDALERS FORK","Address":"23504 Calabasas Rd","City":"Calabasas","State":"CA","Zip":"91302"},{"Location":"PIZZA STUDIO","Address":"26010 Mureau Rd 140","City":"Calabasas","State":"CA","Zip":"91302"},{"Location":"POLACHECK JEWELERS","Address":"4719 Commons Way E","City":"Calabasas","State":"CA","Zip":"91302"},{"Location":"PRIME TIME PACKAGING","Address":"5010 Parkway Calabasas 104","City":"Calabasas","State":"CA","Zip":"91302"},{"Location":"PROFESSIONAL BASEBALL SCOUTS","Address":"5010 Parkway Calabasas 201","City":"Calabasas","State":"CA","Zip":"91302"},{"Location":"PROGRESSIVE TAX GROUP","Address":"5010 Parkway Calabasas 101","City":"Calabasas","State":"CA","Zip":"91302"},{"Location":"RANCHO LAS VIRGENES","Address":"3700 Las Virgenes Rd","City":"Calabasas","State":"CA","Zip":"91302"},{"Location":"RIVERIA REST & LOUNGE","Address":"23683 Calabasas Rd","City":"Calabasas","State":"CA","Zip":"91302"},{"Location":"SAGE LLC","Address":"23527 Calabasas Rd","City":"Calabasas","State":"CA","Zip":"91302"},{"Location":"SALT RESTRAUNT","Address":"26500 Agoura Rd","City":"Calabasas","State":"CA","Zip":"91302"},{"Location":"SALVATION ARMY - CAMP GROUNDS","Address":"26801 Dorothy Dr","City":"Calabasas","State":"CA","Zip":"91302"},{"Location":"SHARKYS","Address":"26527 Agoura Rd 124","City":"Calabasas","State":"CA","Zip":"91302"},{"Location":"SILVERADO SENIOR LIVING","Address":"25100 Calabasas Rd","City":"Calabasas","State":"CA","Zip":"91302"},{"Location":"SPORTS MOTION PHYSICAL","Address":"24007 Ventura Blvd 100","City":"Calabasas","State":"CA","Zip":"91302"},{"Location":"STARKUTS PLUS","Address":"26521 Agoura Rd 112","City":"Calabasas","State":"CA","Zip":"91302"},{"Location":"STIX HOLDINGS 703","Address":"4799 Commons Way 1","City":"Calabasas","State":"CA","Zip":"91302"},{"Location":"SUSHI NISHI","Address":"26799 Agoura Rd 1","City":"Calabasas","State":"CA","Zip":"91302"},{"Location":"TANIA BAKER","Address":"4937 Las Virgenes Rd 203","City":"Calabasas","State":"CA","Zip":"91302"},{"Location":"TAPIA WATER RECLAMATION","Address":"731 Malibu Canyon Rd","City":"Calabasas","State":"CA","Zip":"91302"},{"Location":"THE OAKS OF CALABASAS HOA","Address":"25464 Prado De Las Flores","City":"Calabasas","State":"CA","Zip":"91302"},{"Location":"THE SALVATION ARMY","Address":"26801 Dorothy Dr","City":"Calabasas","State":"CA","Zip":"91302"},{"Location":"THE ZOO FX","Address":"5115 Douglas Fir Rd H","City":"Calabasas","State":"CA","Zip":"91302"},{"Location":"TK NAILS","Address":"26527 Agoura Rd 108","City":"Calabasas","State":"CA","Zip":"91302"},{"Location":"TOSCANOVA RESTAURANT","Address":"4799 Commons Way A","City":"Calabasas","State":"CA","Zip":"91302"},{"Location":"VALLEYCREST COMPANIES","Address":"24151 Ventura Blvd","City":"Calabasas","State":"CA","Zip":"91302"},{"Location":"WEMBLEYS INC","Address":"5000 Parkway Calabasas 110","City":"Calabasas","State":"CA","Zip":"91302"}]