[{"Location":"CRAZY HARRY","Address":"20112 Saticoy St","City":"Canoga Park","State":"CA","Zip":"91306"},{"Location":"EASY  SMILES DENTAL","Address":"20173 Saticoy St","City":"Canoga Park","State":"CA","Zip":"91306"},{"Location":"LILIANA ANZUETO","Address":"20201 Sherman Way 109","City":"Canoga Park","State":"CA","Zip":"91306"},{"Location":"LUIS FERNADO DDS","Address":"20434 Sherman Way","City":"Canoga Park","State":"CA","Zip":"91306"},{"Location":"ATTORNEY RECOVERY","Address":"20112 Runnymede St","City":"Winnetka","State":"CA","Zip":"91306"},{"Location":"BEERS N WINGS","Address":"20141 Roscoe Blvd","City":"Winnetka","State":"CA","Zip":"91306"},{"Location":"BROTHERS BARBER SHOP","Address":"19746 Sherman Way","City":"Winnetka","State":"CA","Zip":"91306"},{"Location":"CANOGA MUFFLERS AUTO","Address":"20124 Sherman Way A","City":"Winnetka","State":"CA","Zip":"91306"},{"Location":"CARRILLOS TORTELLERIA","Address":"19744 Sherman Way","City":"Winnetka","State":"CA","Zip":"91306"},{"Location":"CHILDREN ARE OUR FUTURE KESWIC","Address":"20440 Keswick St","City":"Winnetka","State":"CA","Zip":"91306"},{"Location":"CRAZY HARRY'S BAR","Address":"20112 Saticoy Street","City":"Winnetka","State":"CA","Zip":"91306"},{"Location":"EL PITAL","Address":"20037 Vanowen St","City":"Winnetka","State":"CA","Zip":"91306"},{"Location":"EZER GROUP LLC","Address":"19755 Vanowen St","City":"Winnetka","State":"CA","Zip":"91306"},{"Location":"FIRESTATION 104","Address":"8349 Winnetka Ave","City":"Winnetka","State":"CA","Zip":"91306"},{"Location":"HARRIS CAPITAL INVESTMENT","Address":"20246 Hemmingway St","City":"Winnetka","State":"CA","Zip":"91306"},{"Location":"J AND B LAUNDRY","Address":"20021 Roscoe Blvd 16","City":"Winnetka","State":"CA","Zip":"91306"},{"Location":"J AND M MINI MART","Address":"7141 Winnetka Ave","City":"Winnetka","State":"CA","Zip":"91306"},{"Location":"JALTEPEQUE","Address":"20021 Roscoe Blvd","City":"Winnetka","State":"CA","Zip":"91306"},{"Location":"JOES BARBER SHOP","Address":"19801 Vanowen St B","City":"Winnetka","State":"CA","Zip":"91306"},{"Location":"KALESA GRILL","Address":"20171 Saticoy St","City":"Winnetka","State":"CA","Zip":"91306"},{"Location":"KALESA GRILL TO GO","Address":"20171 Saticoy St","City":"Winnetka","State":"CA","Zip":"91306"},{"Location":"KOOL VISION WINDOW","Address":"20104 Saticoy St","City":"Winnetka","State":"CA","Zip":"91306"},{"Location":"LASDUNAS RESTURANT","Address":"20133 Saticoy St","City":"Winnetka","State":"CA","Zip":"91306"},{"Location":"MI ILUSION RESTAURANT IN","Address":"20425 Sherman Way","City":"Winnetka","State":"CA","Zip":"91306"},{"Location":"NEW NAILS","Address":"20050 Vanowen St H","City":"Winnetka","State":"CA","Zip":"91306"},{"Location":"NUMERO UNO","Address":"20169 Saticoy St","City":"Winnetka","State":"CA","Zip":"91306"},{"Location":"RESEDA FLOWERS","Address":"19755 Vanowen St A-22","City":"Winnetka","State":"CA","Zip":"91306"},{"Location":"S&B MARKET","Address":"20028 Saticoy St","City":"Winnetka","State":"CA","Zip":"91306"},{"Location":"SILLYS LOUNGE","Address":"20160 Roscoe Blvd","City":"Winnetka","State":"CA","Zip":"91306"},{"Location":"SKY DENTAL GROUP","Address":"19725 Vanowen St","City":"Winnetka","State":"CA","Zip":"91306"},{"Location":"STAR'S DRIVE-IN INC","Address":"20445 Sherman Way","City":"Winnetka","State":"CA","Zip":"91306"},{"Location":"THE GROOMER INC","Address":"7237 Corbin Ave","City":"Winnetka","State":"CA","Zip":"91306"},{"Location":"THE PIZZERIA FACTORY","Address":"19755 Vanowen St","City":"Winnetka","State":"CA","Zip":"91306"},{"Location":"THE WINNETKA BOWL","Address":"20122 Vanowen St","City":"Winnetka","State":"CA","Zip":"91306"},{"Location":"VALLARTA SUPERMARKETS NO 24","Address":"19725 Vanowen St","City":"Winnetka","State":"CA","Zip":"91306"},{"Location":"VALUE TIRE & BRAKE","Address":"19729 Sherman Way","City":"Winnetka","State":"CA","Zip":"91306"},{"Location":"VITAL IMAGING","Address":"7111 Winnetka Ave 16","City":"Winnetka","State":"CA","Zip":"91306"},{"Location":"VOILITE NAILS","Address":"20111 Roscoe Blvd","City":"Winnetka","State":"CA","Zip":"91306"},{"Location":"WEST OAK URGENT CARE CENTER","Address":"20181 Saticoy St","City":"Winnetka","State":"CA","Zip":"91306"},{"Location":"WINNETKA AUTO BODY","Address":"20256 Saticoy St","City":"Winnetka","State":"CA","Zip":"91306"},{"Location":"WINNETKA CHECK CASHING","Address":"20851 Sherman Way","City":"Winnetka","State":"CA","Zip":"91306"},{"Location":"WINNETKA DENTAL","Address":"7111 Winnetka Ave","City":"Winnetka","State":"CA","Zip":"91306"},{"Location":"YOLANDA BAKERY","Address":"19742 Sherman Way","City":"Winnetka","State":"CA","Zip":"91306"}]