[{"Location":"CAFE TEQUILA","Address":"20923 Roscoe Blvd","City":"Box Canyon","State":"CA","Zip":"91304"},{"Location":"3M COMPANY","Address":"8357 Canoga Ave","City":"Canoga Park","State":"CA","Zip":"91304"},{"Location":"AEROJET ROCKETDYNE","Address":"8900 De Soto Ave","City":"Canoga Park","State":"CA","Zip":"91304"},{"Location":"ALLSALE ELECTRIC INC","Address":"8100 Deering Ave","City":"Canoga Park","State":"CA","Zip":"91304"},{"Location":"BANK OF AMERICA CA9-902-02-10","Address":"8521 Fallbrook Ave","City":"Canoga Park","State":"CA","Zip":"91304"},{"Location":"BEEF BURRITO TAQUERIA","Address":"7801 Canoga Ave Suite","City":"Canoga Park","State":"CA","Zip":"91304"},{"Location":"BIG MAMAS & PAPAS PIZZERIA","Address":"8221 Canoga Ave","City":"Canoga Park","State":"CA","Zip":"91304"},{"Location":"CALIFORNIA HOME BUILDERS","Address":"21510 Roscoe Blvd","City":"Canoga Park","State":"CA","Zip":"91304"},{"Location":"CANNY N PETER CORP","Address":"7625 Topanga Canyon Blvd","City":"Canoga Park","State":"CA","Zip":"91304"},{"Location":"CHILDREN ARE OUR FUTURE FAUST","Address":"8569 Faust Ave","City":"Canoga Park","State":"CA","Zip":"91304"},{"Location":"DAKAR FOUNDATION","Address":"20954 Bryant St 18","City":"Canoga Park","State":"CA","Zip":"91304"},{"Location":"DAVID ELLIS CHRYSLER JEEP","Address":"21422 Roscoe Blvd","City":"Canoga Park","State":"CA","Zip":"91304"},{"Location":"DENTAL HEALTH GROUP","Address":"8320 De Soto Ave","City":"Canoga Park","State":"CA","Zip":"91304"},{"Location":"DISCOUNT CARE GIVERS1","Address":"8053 Deering Ave","City":"Canoga Park","State":"CA","Zip":"91304"},{"Location":"DREAM MAGIC STUDIOS","Address":"8911 Independence Ave","City":"Canoga Park","State":"CA","Zip":"91304"},{"Location":"ELKS","Address":"20925 Osborne St","City":"Canoga Park","State":"CA","Zip":"91304"},{"Location":"EXCLUSIVE STUDIOS","Address":"8511 Canoga Ave B","City":"Canoga Park","State":"CA","Zip":"91304"},{"Location":"EXODUS DOOR AND WINDOW","Address":"8225 Remmet Ave","City":"Canoga Park","State":"CA","Zip":"91304"},{"Location":"GIUSEPPES","Address":"23701 Roscoe Blvd","City":"Canoga Park","State":"CA","Zip":"91304"},{"Location":"GOLD CADILLAC","Address":"21602 Roscoe Blvd","City":"Canoga Park","State":"CA","Zip":"91304"},{"Location":"GROCERY BAG LIQUOR","Address":"22722 Roscoe Blvd","City":"Canoga Park","State":"CA","Zip":"91304"},{"Location":"INSTANT REPLAY","Address":"21927 Saticoy St","City":"Canoga Park","State":"CA","Zip":"91304"},{"Location":"KNIGHTS OF COLUMBUS OLOV CLUB","Address":"21433 Strathern St","City":"Canoga Park","State":"CA","Zip":"91304"},{"Location":"LA PAZ BAKERY","Address":"8223 De Soto Ave","City":"Canoga Park","State":"CA","Zip":"91304"},{"Location":"LABAHIASALVIDORIANMEXICANFOOD","Address":"8414 Topanga Canyon Blvd","City":"Canoga Park","State":"CA","Zip":"91304"},{"Location":"LAPD 911 VALLEY COMM","Address":"23001 Roscoe Blvd","City":"Canoga Park","State":"CA","Zip":"91304"},{"Location":"LOS CABOS RESTAURANT","Address":"20945 Roscoe Blvd","City":"Canoga Park","State":"CA","Zip":"91304"},{"Location":"MAC CHEVRON","Address":"8301 Canoga Ave","City":"Canoga Park","State":"CA","Zip":"91304"},{"Location":"MILLERS RESTAURANT","Address":"8945 De Soto Ave","City":"Canoga Park","State":"CA","Zip":"91304"},{"Location":"NANA GLORIAS FAST FOOD","Address":"8911 De Soto Ave","City":"Canoga Park","State":"CA","Zip":"91304"},{"Location":"PARAGON METAL PRODUCTS","Address":"21026 Osborne St 5","City":"Canoga Park","State":"CA","Zip":"91304"},{"Location":"PROMOTION PLUS","Address":"21034 Osborne St","City":"Canoga Park","State":"CA","Zip":"91304"},{"Location":"RELIABLE GUTTERS AND PAINTING","Address":"9039 Topanga Canyon Blvd","City":"Canoga Park","State":"CA","Zip":"91304"},{"Location":"SALVATION ARMY","Address":"21375 Roscoe Blvd","City":"Canoga Park","State":"CA","Zip":"91304"},{"Location":"SENTER  FAMILY TRUST","Address":"8427 Canoga Ave","City":"Canoga Park","State":"CA","Zip":"91304"},{"Location":"SENTER FAMILY TRUST","Address":"8423b Canoga Ave","City":"Canoga Park","State":"CA","Zip":"91304"},{"Location":"SOUTHERN CALIFORNIA GAS","Address":"7711 Canoga Ave","City":"Canoga Park","State":"CA","Zip":"91304"},{"Location":"SUNLAND WEST INTERNATIONAL","Address":"9001 Independence Ave","City":"Canoga Park","State":"CA","Zip":"91304"},{"Location":"SUPERIOR POOL PRODUCTS","Address":"21320 Deering Ct","City":"Canoga Park","State":"CA","Zip":"91304"},{"Location":"THE AUTO GALLERY","Address":"21344 Deering Ct","City":"Canoga Park","State":"CA","Zip":"91304"},{"Location":"THE BAY POINTE","Address":"22720 Roscoe Blvd","City":"Canoga Park","State":"CA","Zip":"91304"},{"Location":"THE RABBIT HOLE","Address":"22105 Roscoe Blvd","City":"Canoga Park","State":"CA","Zip":"91304"},{"Location":"THE WET SPOT","Address":"8237 Canoga Ave","City":"Canoga Park","State":"CA","Zip":"91304"},{"Location":"VALLARTA SUPER MARKETS","Address":"2155 Roscoe Blvd","City":"Canoga Park","State":"CA","Zip":"91304"},{"Location":"LOS HERMANOS","Address":"22744 Roscoe Blvd","City":"West Hills","State":"CA","Zip":"91304"},{"Location":"URBANWALK","Address":"23233 Saticoy St 112","City":"West Hills","State":"CA","Zip":"91304"}]