[{"Location":"B & B INSURANCE A","Address":"5008 Chesbrow","City":"Agoura","State":"CA","Zip":"91301"},{"Location":"CRONIES SPORTS GRILL","Address":"5687 Kanan Rd","City":"Agoura","State":"CA","Zip":"91301"},{"Location":"ELEGANTS   HAIR SALON","Address":"5899 Kanan Rd","City":"Agoura","State":"CA","Zip":"91301"},{"Location":"ISLANDS RESTAURANT #033","Address":"29271 Agoura Rd","City":"Agoura","State":"CA","Zip":"91301"},{"Location":"26705 MALIBU HILLS RD","Address":"26705 Malibu Hills Rd","City":"Agoura Hills","State":"CA","Zip":"91301"},{"Location":"AGOURA HILLS CAR WASH","Address":"30245 Canwood St","City":"Agoura Hills","State":"CA","Zip":"91301"},{"Location":"AGOURA HILLS ORAL SURGERY","Address":"28040 Dorothy Dr","City":"Agoura Hills","State":"CA","Zip":"91301"},{"Location":"AGOURA LIQUOR","Address":"5003 Kanan Rd","City":"Agoura Hills","State":"CA","Zip":"91301"},{"Location":"AMECI PIZZA AND PASTA","Address":"30651 Thousand Oaks Blvd E","City":"Agoura Hills","State":"CA","Zip":"91301"},{"Location":"APRIL RANCH LLC-FIRE","Address":"2703 April Rd","City":"Agoura Hills","State":"CA","Zip":"91301"},{"Location":"AUDIENCE PLANNERS 1","Address":"5341 Derry Ave Q","City":"Agoura Hills","State":"CA","Zip":"91301"},{"Location":"BANK OF AMERICA CA6-910-02-01","Address":"29851 Agoura Rd 2","City":"Agoura Hills","State":"CA","Zip":"91301"},{"Location":"BANKCARD USA","Address":"28720 Roadside Dr 299","City":"Agoura Hills","State":"CA","Zip":"91301"},{"Location":"BEGELECTRIC CORP","Address":"5142 Clareton Dr 140","City":"Agoura Hills","State":"CA","Zip":"91301"},{"Location":"BLUE MOON STUDIO","Address":"28205 Agoura Rd A","City":"Agoura Hills","State":"CA","Zip":"91301"},{"Location":"BRENDANS AGOURA LLC","Address":"30315 Canwood St 1","City":"Agoura Hills","State":"CA","Zip":"91301"},{"Location":"BRUCE BENNETT CPA","Address":"28047 Dorothy Dr 307","City":"Agoura Hills","State":"CA","Zip":"91301"},{"Location":"CALDERA MEDICAL INC","Address":"5171 Clareton Dr","City":"Agoura Hills","State":"CA","Zip":"91301"},{"Location":"CASAMBA INC OF AUGOURA HILLS","Address":"5210 Lewis Rd 10","City":"Agoura Hills","State":"CA","Zip":"91301"},{"Location":"CHABAD OF CONEJO","Address":"30347 Canwood St","City":"Agoura Hills","State":"CA","Zip":"91301"},{"Location":"CIPOLLA & CALABA","Address":"5018 Chesebro Rd","City":"Agoura Hills","State":"CA","Zip":"91301"},{"Location":"CITY OF AGOURA HILLS","Address":"30001 Ladyface Ct","City":"Agoura Hills","State":"CA","Zip":"91301"},{"Location":"COYOTE FITNESS","Address":"28716 Roadside Dr","City":"Agoura Hills","State":"CA","Zip":"91301"},{"Location":"CRAIG SHORE DDS","Address":"29525 Canwood St","City":"Agoura Hills","State":"CA","Zip":"91301"},{"Location":"CRISSINI RESTAURANT","Address":"30125 Agoura Rd","City":"Agoura Hills","State":"CA","Zip":"91301"},{"Location":"DCBB  INC.","Address":"5308 Derry Ave W","City":"Agoura Hills","State":"CA","Zip":"91301"},{"Location":"DOUGLAS SEARS","Address":"30423 Canwood St","City":"Agoura Hills","State":"CA","Zip":"91301"},{"Location":"EVOLUTION AUDIO & VIDEO","Address":"5341 Derry Ave S","City":"Agoura Hills","State":"CA","Zip":"91301"},{"Location":"FERRUM FITNESS INC","Address":"29056 Thousand Oaks Blvd","City":"Agoura Hills","State":"CA","Zip":"91301"},{"Location":"FLYTETYME PRODUCTIONS","Address":"5308 Derry Ave W","City":"Agoura Hills","State":"CA","Zip":"91301"},{"Location":"FOCUS DENTISTRY","Address":"28040 Dorothy Dr S203","City":"Agoura Hills","State":"CA","Zip":"91301"},{"Location":"GEESEN INSURANCE","Address":"5126 Clareton Dr","City":"Agoura Hills","State":"CA","Zip":"91301"},{"Location":"HAMPTON INN & AGOURA HILLS","Address":"30255 Agoura Rd","City":"Agoura Hills","State":"CA","Zip":"91301"},{"Location":"HAMPTON INN & SUITES","Address":"30255 Agoura Rd","City":"Agoura Hills","State":"CA","Zip":"91301"},{"Location":"INTERTHINX","Address":"30005 Ladyface Ct","City":"Agoura Hills","State":"CA","Zip":"91301"},{"Location":"JACK IN THE BOX","Address":"5033 Kanan Rd","City":"Agoura Hills","State":"CA","Zip":"91301"},{"Location":"JADE MANAGEMENT LLC","Address":"28632 Roadside Dr 115","City":"Agoura Hills","State":"CA","Zip":"91301"},{"Location":"JIFFY LUBE 0638","Address":"29162 Roadside Dr","City":"Agoura Hills","State":"CA","Zip":"91301"},{"Location":"JMP PHYSICAL THERAPY GROUP","Address":"30135 Agoura Rd C","City":"Agoura Hills","State":"CA","Zip":"91301"},{"Location":"JONI & FRIENDS","Address":"30009 Ladyface Ct","City":"Agoura Hills","State":"CA","Zip":"91301"},{"Location":"KEUMARS RAHIMI DDS INC.","Address":"28632 Roadside Dr 270","City":"Agoura Hills","State":"CA","Zip":"91301"},{"Location":"KOOKS ART","Address":"5330 Derry Ave P","City":"Agoura Hills","State":"CA","Zip":"91301"},{"Location":"L. A. FOODS  LLC","Address":"5115 Clareton Dr 200","City":"Agoura Hills","State":"CA","Zip":"91301"},{"Location":"LADYFACE ALE HOUSE AND BRASERR","Address":"29281 Agoura Rd","City":"Agoura Hills","State":"CA","Zip":"91301"},{"Location":"LAKE LINDERO","Address":"5719 Lake Lindero Dr","City":"Agoura Hills","State":"CA","Zip":"91301"},{"Location":"LAW OFFICE MICHAEL MENSE","Address":"28632 Roadside Dr 263","City":"Agoura Hills","State":"CA","Zip":"91301"},{"Location":"LOST HILLS SHERIFF STATION","Address":"27050 Agoura Rd","City":"Agoura Hills","State":"CA","Zip":"91301"},{"Location":"METAL JEANS INC.","Address":"5331 Derry Ave J","City":"Agoura Hills","State":"CA","Zip":"91301"},{"Location":"MOTOR VEHICLE SOFTWARE CORP","Address":"29219 Canwood St","City":"Agoura Hills","State":"CA","Zip":"91301"},{"Location":"NAIS SPA","Address":"5731 Kanan Rd 102","City":"Agoura Hills","State":"CA","Zip":"91301"},{"Location":"NORCOMP SC","Address":"29229 Canwood St 104","City":"Agoura Hills","State":"CA","Zip":"91301"},{"Location":"NOVASTOR","Address":"29209 Canwood St","City":"Agoura Hills","State":"CA","Zip":"91301"},{"Location":"NUMERO UNO-AGOURA HILLS","Address":"28860 Roadside Dr","City":"Agoura Hills","State":"CA","Zip":"91301"},{"Location":"ON ASSIGNMENT INC","Address":"26745 Malibu Hills Rd","City":"Agoura Hills","State":"CA","Zip":"91301"},{"Location":"PACIFIC COMPENSATION","Address":"30301 Agoura Rd","City":"Agoura Hills","State":"CA","Zip":"91301"},{"Location":"PACIFIC EDGE WINE AND SPIRITS","Address":"5155 Clareton Dr 100","City":"Agoura Hills","State":"CA","Zip":"91301"},{"Location":"PADRI ITALIAN CUSINE","Address":"29008 Agoura Rd","City":"Agoura Hills","State":"CA","Zip":"91301"},{"Location":"PLATA CANTINA","Address":"28914 Roadside Dr 110","City":"Agoura Hills","State":"CA","Zip":"91301"},{"Location":"PRECISION CROSSFIT LLC","Address":"28710 Canwood St 105-1","City":"Agoura Hills","State":"CA","Zip":"91301"},{"Location":"PREMIER FUNDING","Address":"28632 Roadside Dr 130","City":"Agoura Hills","State":"CA","Zip":"91301"},{"Location":"PRIME STEAKHOUSE","Address":"29020 Agoura Rd A14","City":"Agoura Hills","State":"CA","Zip":"91301"},{"Location":"PRINCIPE &  ASSOC","Address":"30423 Canwood St","City":"Agoura Hills","State":"CA","Zip":"91301"},{"Location":"RESIDULA INCOME OPPORTUN","Address":"28720 Roadside Dr 200","City":"Agoura Hills","State":"CA","Zip":"91301"},{"Location":"REVOLUTION SPEAKEASY INC","Address":"29020 Agoura Rd A10","City":"Agoura Hills","State":"CA","Zip":"91301"},{"Location":"ROBERT MARON INC","Address":"30851 Agoura Rd 203","City":"Agoura Hills","State":"CA","Zip":"91301"},{"Location":"ROCKSTORE","Address":"30354 Mulholland Hwy","City":"Agoura Hills","State":"CA","Zip":"91301"},{"Location":"SEABREEZE DENTAL","Address":"29525 Canwood St","City":"Agoura Hills","State":"CA","Zip":"91301"},{"Location":"SELKO MARTIN","Address":"28720 Canwood St 203","City":"Agoura Hills","State":"CA","Zip":"91301"},{"Location":"SHERATON AGOURA HILLS(0037470)","Address":"30100 Agoura Rd","City":"Agoura Hills","State":"CA","Zip":"91301"},{"Location":"SPIRENT","Address":"27349 Agoura Rd 100","City":"Agoura Hills","State":"CA","Zip":"91301"},{"Location":"STARK SALTER & SMITH","Address":"28632 Roadside Drife 215","City":"Agoura Hills","State":"CA","Zip":"91301"},{"Location":"STATE FARM","Address":"29800 Agoura Rd 105b","City":"Agoura Hills","State":"CA","Zip":"91301"},{"Location":"SUSHI & WASABI","Address":"5895 Kanan Rd","City":"Agoura Hills","State":"CA","Zip":"91301"},{"Location":"SUSHI SU","Address":"5015 Cornell Rd H","City":"Agoura Hills","State":"CA","Zip":"91301"},{"Location":"TERADYNE INC","Address":"30701 Agoura Rd","City":"Agoura Hills","State":"CA","Zip":"91301"},{"Location":"THE CANYON CLUB","Address":"28912 Roadside Dr","City":"Agoura Hills","State":"CA","Zip":"91301"},{"Location":"THE CHEESECAKE FACTORY CORP.","Address":"26950 Agoura Rd","City":"Agoura Hills","State":"CA","Zip":"91301"},{"Location":"THE JOHNSTON GROUP","Address":"5142 Clareton Dr 240","City":"Agoura Hills","State":"CA","Zip":"91301"},{"Location":"THE LAB BREWING COMPANY","Address":"30105 Agoura Rd","City":"Agoura Hills","State":"CA","Zip":"91301"},{"Location":"THE LATIGO KID","Address":"5617 Kanan Rd","City":"Agoura Hills","State":"CA","Zip":"91301"},{"Location":"THE PLAY DESTINATION","Address":"28501 Canwood St 3e","City":"Agoura Hills","State":"CA","Zip":"91301"},{"Location":"TOUCH COMMERCE","Address":"29903 Agoura Rd 101","City":"Agoura Hills","State":"CA","Zip":"91301"},{"Location":"TRIUNFO CREEK LLC","Address":"2714 Triunfo Canyon Rd","City":"Agoura Hills","State":"CA","Zip":"91301"},{"Location":"UNION BANK","Address":"28015 Thousand Oaks Blvd","City":"Agoura Hills","State":"CA","Zip":"91301"},{"Location":"WICKMANS LIFESTYLE","Address":"28448 Roadside Dr","City":"Agoura Hills","State":"CA","Zip":"91301"},{"Location":"WILLY'S SMOKEHOUSE BAR & GRILL","Address":"28434 Roadside Dr","City":"Agoura Hills","State":"CA","Zip":"91301"},{"Location":"WINNER'S PIZZA","Address":"30684 Thousand Oaks Blvd","City":"Agoura Hills","State":"CA","Zip":"91301"},{"Location":"WOOD RANCH AGOURA HILLS","Address":"5050 Cornell Rd","City":"Agoura Hills","State":"CA","Zip":"91301"},{"Location":"YUM YUM DONUTS","Address":"5833 Kanan Rd","City":"Agoura Hills","State":"CA","Zip":"91301"},{"Location":"ZIV STUDIO FOR SMILE DESIGN","Address":"5353 Reyes Adobe Rd B","City":"Agoura Hills","State":"CA","Zip":"91301"},{"Location":"GAINES AND GAINES APLC","Address":"27200 Agoura Rd 101","City":"Calabasas","State":"CA","Zip":"91301"}]