[{"Location":"RED LOBSTER #0525","Address":"22800 Vanowen St","City":"Canoga Park","State":"CA","Zip":"91307"},{"Location":"24 HOUR FITNESS #904","Address":"6653 Fallbrook Ave","City":"West Hills","State":"CA","Zip":"91307"},{"Location":"ALESSIO","Address":"6428 Platt Ave","City":"West Hills","State":"CA","Zip":"91307"},{"Location":"ALTA DENA","Address":"22748 Saticoy St","City":"West Hills","State":"CA","Zip":"91307"},{"Location":"CHILI'S #0148","Address":"6775 Fallbrook Ave","City":"West Hills","State":"CA","Zip":"91307"},{"Location":"DENTIST OFFICE","Address":"24434 Vanowen St","City":"West Hills","State":"CA","Zip":"91307"},{"Location":"FIELDS INVESTMENTS","Address":"22736 Vanowen St B","City":"West Hills","State":"CA","Zip":"91307"},{"Location":"KOHL'S #628","Address":"6651 Fallbrook Ave","City":"West Hills","State":"CA","Zip":"91307"},{"Location":"KYOTO SUSHI","Address":"22906 Vanowen St","City":"West Hills","State":"CA","Zip":"91307"},{"Location":"MAC SUBS INC","Address":"22816 Vanowen St","City":"West Hills","State":"CA","Zip":"91307"},{"Location":"OLIVE GARDEN #4473","Address":"6501 Fallbrook Ave","City":"West Hills","State":"CA","Zip":"91307"},{"Location":"PACIFIC DENTAL-PLATT VILLAGE","Address":"6646 Platt Ave","City":"West Hills","State":"CA","Zip":"91307"},{"Location":"PIZZA HUT 26203","Address":"23717 Victory Blvd","City":"West Hills","State":"CA","Zip":"91307"},{"Location":"SAILS GROUP LOS ANGELES","Address":"7453 Fallbrook Ave","City":"West Hills","State":"CA","Zip":"91307"},{"Location":"SPOKE N WHEEL LLC","Address":"6804 Platt Ave","City":"West Hills","State":"CA","Zip":"91307"},{"Location":"STURGEON COSMETIC DENTAL CARE","Address":"7325 Medical Center Dr 310","City":"West Hills","State":"CA","Zip":"91307"},{"Location":"SUPERCUTS #8760","Address":"22904 Vanowen St","City":"West Hills","State":"CA","Zip":"91307"},{"Location":"TARGET STORE T228","Address":"6635 Fallbrook Ave","City":"West Hills","State":"CA","Zip":"91307"},{"Location":"WENDYS 3536","Address":"6430 Platt Ave","City":"West Hills","State":"CA","Zip":"91307"},{"Location":"WEST HILL SURGICAL CENTER","Address":"7240 Medical Center Dr","City":"West Hills","State":"CA","Zip":"91307"},{"Location":"WEST HILLS PIZZA COMPANY","Address":"7543 Fallbrook Ave","City":"West Hills","State":"CA","Zip":"91307"},{"Location":"RED LOBSTER #0525","Address":"22800 Vanowen St","City":"Canoga Park","State":"CA","Zip":"91307"},{"Location":"24 HOUR FITNESS #904","Address":"6653 Fallbrook Ave","City":"West Hills","State":"CA","Zip":"91307"},{"Location":"ALESSIO","Address":"6428 Platt Ave","City":"West Hills","State":"CA","Zip":"91307"},{"Location":"ALTA DENA","Address":"22748 Saticoy St","City":"West Hills","State":"CA","Zip":"91307"},{"Location":"CHILI'S #0148","Address":"6775 Fallbrook Ave","City":"West Hills","State":"CA","Zip":"91307"},{"Location":"DENTIST OFFICE","Address":"24434 Vanowen St","City":"West Hills","State":"CA","Zip":"91307"},{"Location":"FIELDS INVESTMENTS","Address":"22736 Vanowen St B","City":"West Hills","State":"CA","Zip":"91307"},{"Location":"KOHL'S #628","Address":"6651 Fallbrook Ave","City":"West Hills","State":"CA","Zip":"91307"},{"Location":"KYOTO SUSHI","Address":"22906 Vanowen St","City":"West Hills","State":"CA","Zip":"91307"},{"Location":"MAC SUBS INC","Address":"22816 Vanowen St","City":"West Hills","State":"CA","Zip":"91307"},{"Location":"OLIVE GARDEN #4473","Address":"6501 Fallbrook Ave","City":"West Hills","State":"CA","Zip":"91307"},{"Location":"PACIFIC DENTAL-PLATT VILLAGE","Address":"6646 Platt Ave","City":"West Hills","State":"CA","Zip":"91307"},{"Location":"PIZZA HUT 26203","Address":"23717 Victory Blvd","City":"West Hills","State":"CA","Zip":"91307"},{"Location":"SAILS GROUP LOS ANGELES","Address":"7453 Fallbrook Ave","City":"West Hills","State":"CA","Zip":"91307"},{"Location":"SPOKE N WHEEL LLC","Address":"6804 Platt Ave","City":"West Hills","State":"CA","Zip":"91307"},{"Location":"STURGEON COSMETIC DENTAL CARE","Address":"7325 Medical Center Dr 310","City":"West Hills","State":"CA","Zip":"91307"},{"Location":"SUPERCUTS #8760","Address":"22904 Vanowen St","City":"West Hills","State":"CA","Zip":"91307"},{"Location":"TARGET STORE T228","Address":"6635 Fallbrook Ave","City":"West Hills","State":"CA","Zip":"91307"},{"Location":"WENDYS 3536","Address":"6430 Platt Ave","City":"West Hills","State":"CA","Zip":"91307"},{"Location":"WEST HILL SURGICAL CENTER","Address":"7240 Medical Center Dr","City":"West Hills","State":"CA","Zip":"91307"},{"Location":"WEST HILLS PIZZA COMPANY","Address":"7543 Fallbrook Ave","City":"West Hills","State":"CA","Zip":"91307"}]