[{"Location":"1ST PLACE SPORTS COMPLEX","Address":"9400 Penfield Ave","City":"Chatsworth","State":"CA","Zip":"91311"},{"Location":"9600 TC ASSOCIATES","Address":"9600 Topanga Canyon Blvd 200","City":"Chatsworth","State":"CA","Zip":"91311"},{"Location":"ACE USA","Address":"9200 Oakdale Ave","City":"Chatsworth","State":"CA","Zip":"91311"},{"Location":"ADVANTAGE LIGHT SOURCE","Address":"21624 Marilla St","City":"Chatsworth","State":"CA","Zip":"91311"},{"Location":"AGHASI INC","Address":"21104 Devonshire St","City":"Chatsworth","State":"CA","Zip":"91311"},{"Location":"AIR ONE AERO SPACE LLC","Address":"10010 Canoga Ave B4","City":"Chatsworth","State":"CA","Zip":"91311"},{"Location":"ALIGN AEROSPACE LLC","Address":"21123 Nordhoff St","City":"Chatsworth","State":"CA","Zip":"91311"},{"Location":"ALLERCLEAN","Address":"10309 Vassar Ave","City":"Chatsworth","State":"CA","Zip":"91311"},{"Location":"AMWINS INSURANCE BROKERA","Address":"19867 Prairie St 250","City":"Chatsworth","State":"CA","Zip":"91311"},{"Location":"APPLEBEE'S #2150038","Address":"9255 Winnetka Ave","City":"Chatsworth","State":"CA","Zip":"91311"},{"Location":"BECKER PROFESSIONAL EDU","Address":"9200 Oakdale Ave 600","City":"Chatsworth","State":"CA","Zip":"91311"},{"Location":"BELLA BEAN PRODUCTIONS","Address":"21356 Nordhoff St 107","City":"Chatsworth","State":"CA","Zip":"91311"},{"Location":"BIONUTRACEUTICAL","Address":"21820 Marilla St","City":"Chatsworth","State":"CA","Zip":"91311"},{"Location":"BOUTIQUE JACKII","Address":"10132 Topanga Canyon Blvd","City":"Chatsworth","State":"CA","Zip":"91311"},{"Location":"CALIFORNIA DELUXE WINDOWS INC","Address":"20735 Superior St","City":"Chatsworth","State":"CA","Zip":"91311"},{"Location":"CALIFORNIA RESTORATION","Address":"9435 Irondale Ave","City":"Chatsworth","State":"CA","Zip":"91311"},{"Location":"CAPSTONE TURBINE CORP","Address":"21211 Nordhoff St","City":"Chatsworth","State":"CA","Zip":"91311"},{"Location":"CASA DE CARLOS","Address":"20549 Devonshire St","City":"Chatsworth","State":"CA","Zip":"91311"},{"Location":"CHATSWORTH COLLISION","Address":"10040 Canoga Ave","City":"Chatsworth","State":"CA","Zip":"91311"},{"Location":"CHATSWORTH ERC","Address":"20749 Prairie St","City":"Chatsworth","State":"CA","Zip":"91311"},{"Location":"CHATSWORTH VETERINARY CENTER","Address":"21418 Devonshire St","City":"Chatsworth","State":"CA","Zip":"91311"},{"Location":"CHEMSIL SILICONES","Address":"21900 Marilla St","City":"Chatsworth","State":"CA","Zip":"91311"},{"Location":"CHILDREN ARE OUR FUTURE MAYALL","Address":"20463 Mayall St","City":"Chatsworth","State":"CA","Zip":"91311"},{"Location":"CHILDREN ARE OUR FUTURE REMMET","Address":"10928 Remmet Ave","City":"Chatsworth","State":"CA","Zip":"91311"},{"Location":"COMET ELECTRIC","Address":"21625 Prairie St","City":"Chatsworth","State":"CA","Zip":"91311"},{"Location":"CREATIVE E PROD LLC","Address":"20812 Lassen St","City":"Chatsworth","State":"CA","Zip":"91311"},{"Location":"D.E.I","Address":"9248 Eton Ave","City":"Chatsworth","State":"CA","Zip":"91311"},{"Location":"DENISES PET GROOMING","Address":"21701 Devonshire St H","City":"Chatsworth","State":"CA","Zip":"91311"},{"Location":"DIAMOND GAME","Address":"9340 Penfield Ave","City":"Chatsworth","State":"CA","Zip":"91311"},{"Location":"DOUGS CUSTOM PAINT AND BODY","Address":"10149 Canoga Ave","City":"Chatsworth","State":"CA","Zip":"91311"},{"Location":"DUNE CITI","Address":"9943 Canoga Ave","City":"Chatsworth","State":"CA","Zip":"91311"},{"Location":"EPN - DEWEY CASS","Address":"21757 Devonshire St 8","City":"Chatsworth","State":"CA","Zip":"91311"},{"Location":"FANTASTIC FAM 2","Address":"20541 Devonshire St","City":"Chatsworth","State":"CA","Zip":"91311"},{"Location":"FB PRODUCTIONS INC","Address":"19734 Dearborn St","City":"Chatsworth","State":"CA","Zip":"91311"},{"Location":"FINE DESIGN FAB","Address":"9710 Owensmouth Ave A","City":"Chatsworth","State":"CA","Zip":"91311"},{"Location":"FOREVER HEALTHY","Address":"10158 Mason Ave","City":"Chatsworth","State":"CA","Zip":"91311"},{"Location":"FORTRESS ENTERAINMENT","Address":"10707 Overman Ave","City":"Chatsworth","State":"CA","Zip":"91311"},{"Location":"GARY KROUSE INSURANCE","Address":"9620 Topanga Canyon Pl H","City":"Chatsworth","State":"CA","Zip":"91311"},{"Location":"GEFEN INC","Address":"20600 Nordhoff St","City":"Chatsworth","State":"CA","Zip":"91311"},{"Location":"GREAT AMERICAN SPRINKLER","Address":"20211 Prairie St G","City":"Chatsworth","State":"CA","Zip":"91311"},{"Location":"HL SWENSEN INC","Address":"9850 Owensmouth Ave 1","City":"Chatsworth","State":"CA","Zip":"91311"},{"Location":"HOME LAND SECURITY","Address":"19809 Prairie St","City":"Chatsworth","State":"CA","Zip":"91311"},{"Location":"HOT BOARDER INC","Address":"9725 Variel Ave","City":"Chatsworth","State":"CA","Zip":"91311"},{"Location":"HYDREL","Address":"9144 Deering Ave","City":"Chatsworth","State":"CA","Zip":"91311"},{"Location":"INDIAN SPRINGS ESTATES HOA","Address":"11416 Iverson Rd","City":"Chatsworth","State":"CA","Zip":"91311"},{"Location":"JD MACHINING","Address":"10055 Canoga Ave","City":"Chatsworth","State":"CA","Zip":"91311"},{"Location":"JOERNS CALIFORNIA LLC","Address":"19748 Dearborn St","City":"Chatsworth","State":"CA","Zip":"91311"},{"Location":"JOSE ANTONIO POLLOS A LA BRASA","Address":"20951 Devonshire St","City":"Chatsworth","State":"CA","Zip":"91311"},{"Location":"JP MORGAN CHASE","Address":"9200 Oakdale Ave","City":"Chatsworth","State":"CA","Zip":"91311"},{"Location":"KEVIN WACHS","Address":"21900 Plummer St","City":"Chatsworth","State":"CA","Zip":"91311"},{"Location":"LAMPS PLUS","Address":"20250 Plummer St","City":"Chatsworth","State":"CA","Zip":"91311"},{"Location":"LEES ENTERPRISE","Address":"20731 Marilla St","City":"Chatsworth","State":"CA","Zip":"91311"},{"Location":"LENNYS SMOKEHOUSE","Address":"23360 Lake Manor Dr","City":"Chatsworth","State":"CA","Zip":"91311"},{"Location":"LEVLAD LLC","Address":"9200 Mason Ave","City":"Chatsworth","State":"CA","Zip":"91311"},{"Location":"LOGIX FEDERAL CREDIT","Address":"10324 Mason Ave","City":"Chatsworth","State":"CA","Zip":"91311"},{"Location":"LOS TOROS MEXICAN RESTS","Address":"21743 Devonshire St","City":"Chatsworth","State":"CA","Zip":"91311"},{"Location":"MAGNUS","Address":"9144 Owensmouth Ave","City":"Chatsworth","State":"CA","Zip":"91311"},{"Location":"MCG'S IRISH PUB","Address":"21356 Devonshire St","City":"Chatsworth","State":"CA","Zip":"91311"},{"Location":"MEDALLION FUFILLMENT","Address":"20675 Nordhoff St","City":"Chatsworth","State":"CA","Zip":"91311"},{"Location":"METRO TRANSIT AUTHORITY","Address":"9201 Canoga Ave","City":"Chatsworth","State":"CA","Zip":"91311"},{"Location":"MIKE FITZGERALD ENTERPRI","Address":"9626 Lurline Ave H","City":"Chatsworth","State":"CA","Zip":"91311"},{"Location":"MIKE HANSEN","Address":"10010 Canoga Ave B1","City":"Chatsworth","State":"CA","Zip":"91311"},{"Location":"NAILSPA SALON INC","Address":"20423 Devonshire St","City":"Chatsworth","State":"CA","Zip":"91311"},{"Location":"NATROL","Address":"21411 Prairie St","City":"Chatsworth","State":"CA","Zip":"91311"},{"Location":"NEW CENTURY","Address":"20861 Lassen St","City":"Chatsworth","State":"CA","Zip":"91311"},{"Location":"NHBB","Address":"9730 Independence Ave","City":"Chatsworth","State":"CA","Zip":"91311"},{"Location":"NORTHRIDGE FUTSAL","Address":"19851 Nordhoff Pl 102","City":"Chatsworth","State":"CA","Zip":"91311"},{"Location":"NOVUS CONSTRUCTION","Address":"9205 Alabama Ave F","City":"Chatsworth","State":"CA","Zip":"91311"},{"Location":"O'BRYANT ELECTRIC INC","Address":"20417 Nordhoff St","City":"Chatsworth","State":"CA","Zip":"91311"},{"Location":"ONTIC","Address":"20400 Plummer St","City":"Chatsworth","State":"CA","Zip":"91311"},{"Location":"PARADISE LINGERIE","Address":"20830 Dearborn St","City":"Chatsworth","State":"CA","Zip":"91311"},{"Location":"PENTA FINANCIAL INC.","Address":"9740 Cozycroft Ave","City":"Chatsworth","State":"CA","Zip":"91311"},{"Location":"PHARMAGEL INTERNATIONAL","Address":"21530 Gledhill St","City":"Chatsworth","State":"CA","Zip":"91311"},{"Location":"PLATINUM GROUP OF COMPANIES","Address":"9121 Oakdale Ave 201","City":"Chatsworth","State":"CA","Zip":"91311"},{"Location":"PRISM MANAGMENT CO","Address":"9544 Topanga Canyon Blvd","City":"Chatsworth","State":"CA","Zip":"91311"},{"Location":"PROCAM RENTALS","Address":"9660 Lurline Ave","City":"Chatsworth","State":"CA","Zip":"91311"},{"Location":"QUALITY FABRICATION INC","Address":"9631 Irondale Ave","City":"Chatsworth","State":"CA","Zip":"91311"},{"Location":"REXAM BEVERAGE CAN","Address":"20730 Prairie St","City":"Chatsworth","State":"CA","Zip":"91311"},{"Location":"RFP MEDICAL","Address":"9820 Owensmouth Ave 1","City":"Chatsworth","State":"CA","Zip":"91311"},{"Location":"RODEO KING","Address":"21340 Devonshire St","City":"Chatsworth","State":"CA","Zip":"91311"},{"Location":"SANSAI JAPANESE GRILL","Address":"9243 Winnetka Ave","City":"Chatsworth","State":"CA","Zip":"91311"},{"Location":"SAZON  COLOMBIA","Address":"20454 Nordhoff St","City":"Chatsworth","State":"CA","Zip":"91311"},{"Location":"SEXY HAIR CONCEPTS","Address":"21551 Prairie St","City":"Chatsworth","State":"CA","Zip":"91311"},{"Location":"SHARKYS WOODFIRE MEXICAN","Address":"20419 Devonshire St","City":"Chatsworth","State":"CA","Zip":"91311"},{"Location":"SHUTTERS AND MORE INC","Address":"9430 De Soto Ave","City":"Chatsworth","State":"CA","Zip":"91311"},{"Location":"SIERRA CREDIT CORP","Address":"9160 Deering Ave","City":"Chatsworth","State":"CA","Zip":"91311"},{"Location":"SIERRA CYN HIGH SCHOOL","Address":"20801 Rinaldi St","City":"Chatsworth","State":"CA","Zip":"91311"},{"Location":"SIGN IMAGE INC","Address":"20440 Corisco St","City":"Chatsworth","State":"CA","Zip":"91311"},{"Location":"SO CAL HITTING ZONE","Address":"8929 Oso Ave B","City":"Chatsworth","State":"CA","Zip":"91311"},{"Location":"SOUTHERN CALIFORNIA GAS 1","Address":"9400 Oakdale Ave","City":"Chatsworth","State":"CA","Zip":"91311"},{"Location":"SPECIALIZED INVESTIGATIONS","Address":"9171 Gazette Ave","City":"Chatsworth","State":"CA","Zip":"91311"},{"Location":"STRAIN BALBOA CAREGIVERS","Address":"21627 Devonshire St","City":"Chatsworth","State":"CA","Zip":"91311"},{"Location":"STRAW HAT PIZZA","Address":"21515 Devonshire St","City":"Chatsworth","State":"CA","Zip":"91311"},{"Location":"SUNNYS SALOON","Address":"20922 Lassen St","City":"Chatsworth","State":"CA","Zip":"91311"},{"Location":"SUPERIOR CONTAINER CORP","Address":"9423 Oso Ave","City":"Chatsworth","State":"CA","Zip":"91311"},{"Location":"TARGET OFFSITE WAREHOUSE","Address":"20720 Superior St B","City":"Chatsworth","State":"CA","Zip":"91311"},{"Location":"TELEDYNE","Address":"19735 Dearborn St","City":"Chatsworth","State":"CA","Zip":"91311"},{"Location":"THE FLAME BROILER","Address":"10364 Mason Ave","City":"Chatsworth","State":"CA","Zip":"91311"},{"Location":"THE TURN KEY","Address":"21350 Nordhoff St","City":"Chatsworth","State":"CA","Zip":"91311"},{"Location":"THOMAS JAMES","Address":"21350 Nordhoff St 102","City":"Chatsworth","State":"CA","Zip":"91311"},{"Location":"UNIVE OF WEST LOS ANGELES","Address":"9201 Oakdale Ave 201","City":"Chatsworth","State":"CA","Zip":"91311"},{"Location":"V1 ROTATE SUBS","Address":"9840 Topanga Canyon Blvd","City":"Chatsworth","State":"CA","Zip":"91311"},{"Location":"WEST SIDE VALLEY AUTO","Address":"10158 Canoga Ave","City":"Chatsworth","State":"CA","Zip":"91311"},{"Location":"ZERO TOLERANCE","Address":"20525 Nordhoff St 4","City":"Chatsworth","State":"CA","Zip":"91311"}]