[{"Location":"","Address":"5056 Chicopee Ave","City":"Encino","State":"CA","Zip":"91316"},{"Location":"809 DOMINICAN BEAUTY","Address":"17005 Ventura Blvd","City":"Encino","State":"CA","Zip":"91316"},{"Location":"AFINETY","Address":"6345 Balboa Blvd 370","City":"Encino","State":"CA","Zip":"91316"},{"Location":"BLOW ME DRY","Address":"17414 Ventura Blvd","City":"Encino","State":"CA","Zip":"91316"},{"Location":"BUCA DI BEPPO #504","Address":"17500 Ventura Blvd","City":"Encino","State":"CA","Zip":"91316"},{"Location":"CABANA CIGAR LOUNGE","Address":"17460 Ventura Blvd","City":"Encino","State":"CA","Zip":"91316"},{"Location":"CHILI'S #0876","Address":"17240 Ventura Blvd","City":"Encino","State":"CA","Zip":"91316"},{"Location":"CHO CHO SAN","Address":"4928 Balboa Blvd","City":"Encino","State":"CA","Zip":"91316"},{"Location":"CRAIG GLICK","Address":"17547 Ventura Blvd 103","City":"Encino","State":"CA","Zip":"91316"},{"Location":"DANCING WASABI","Address":"17547 Ventura Blvd 108","City":"Encino","State":"CA","Zip":"91316"},{"Location":"DAPHNES GREEK","Address":"17136 Ventura Blvd","City":"Encino","State":"CA","Zip":"91316"},{"Location":"DAVITA #1865 SOUTH VALLEY","Address":"17815 Ventura Blvd 100","City":"Encino","State":"CA","Zip":"91316"},{"Location":"ENCINO DENTAL CARE","Address":"17777 Ventura Blvd","City":"Encino","State":"CA","Zip":"91316"},{"Location":"ENCINO DRY CLEANERS","Address":"16946 Ventura Blvd","City":"Encino","State":"CA","Zip":"91316"},{"Location":"ENCINO PLAZA SURGICAL CENTER","Address":"5400 Balboa Blvd 111","City":"Encino","State":"CA","Zip":"91316"},{"Location":"FAT STOGIES","Address":"17306 Ventura Blvd","City":"Encino","State":"CA","Zip":"91316"},{"Location":"FIRESTONE #015636","Address":"17912 Ventura Blvd","City":"Encino","State":"CA","Zip":"91316"},{"Location":"FIRST ENTERTAINMENT CU","Address":"17656 Ventura Bld","City":"Encino","State":"CA","Zip":"91316"},{"Location":"HANDS TO HOLD INC","Address":"17401 Ventura Blvd A17","City":"Encino","State":"CA","Zip":"91316"},{"Location":"HOOKD ON KNITTING","Address":"17401 Ventura Blvd A41","City":"Encino","State":"CA","Zip":"91316"},{"Location":"ITALIAN PIZZA COOKERY","Address":"17976 Ventura Blvd","City":"Encino","State":"CA","Zip":"91316"},{"Location":"LOS ANGELES RECRUITER BATTALIO","Address":"6337 Balboa Blvd","City":"Encino","State":"CA","Zip":"91316"},{"Location":"LURIE PHYSICALL THERAPY","Address":"17071 Ventura Blvd","City":"Encino","State":"CA","Zip":"91316"},{"Location":"MDMC","Address":"17037 Ventura Blvd","City":"Encino","State":"CA","Zip":"91316"},{"Location":"MOONLIGHT","Address":"18000 Ventura Blvd 23","City":"Encino","State":"CA","Zip":"91316"},{"Location":"MULBERRY STREET PIZZERIA","Address":"17040 Ventura Blvd","City":"Encino","State":"CA","Zip":"91316"},{"Location":"NATIONAL CORPORATIONS UN","Address":"17620 Burbank Blvd 9","City":"Encino","State":"CA","Zip":"91316"},{"Location":"O'MALLEY FAMILY FIELD","Address":"17301 Oxnard St","City":"Encino","State":"CA","Zip":"91316"},{"Location":"PASSION CAFE AND LOUNGE","Address":"17401 Ventura Blvd","City":"Encino","State":"CA","Zip":"91316"},{"Location":"PHILLY'S BEST","Address":"17200 Ventura Blvd 229b","City":"Encino","State":"CA","Zip":"91316"},{"Location":"PR INC","Address":"5031 Enfield Ave","City":"Encino","State":"CA","Zip":"91316"},{"Location":"PREMIER CAR WASH","Address":"17432 Ventura Blvd","City":"Encino","State":"CA","Zip":"91316"},{"Location":"RMALA USA INC","Address":"17401 Ventura Blvd B21","City":"Encino","State":"CA","Zip":"91316"},{"Location":"ROUND  CAFE L'AMBIANCE","Address":"17777 Ventura Blvd 101","City":"Encino","State":"CA","Zip":"91316"},{"Location":"SPORT CLIPS CA705","Address":"17200 Ventura Blvd 223","City":"Encino","State":"CA","Zip":"91316"},{"Location":"STEPHEN ROSADO","Address":"17015 12 Ventura Blvd","City":"Encino","State":"CA","Zip":"91316"},{"Location":"SWEENEYS ALE HOUSE","Address":"17337 Ventura Blvd","City":"Encino","State":"CA","Zip":"91316"},{"Location":"THE NORTH SHORE TRUST","Address":"5358 Oak Park Ave","City":"Encino","State":"CA","Zip":"91316"},{"Location":"THE STAND","Address":"17000 Ventura Blvd 104","City":"Encino","State":"CA","Zip":"91316"},{"Location":"TIP TOP NAILS SPA","Address":"17905 Ventura Blvd","City":"Encino","State":"CA","Zip":"91316"},{"Location":"WESTMARK SCHOOL","Address":"5461 Louise Ave","City":"Encino","State":"CA","Zip":"91316"},{"Location":"YAMATO JAPANESE","Address":"17200 Ventura Blvd 221","City":"Encino","State":"CA","Zip":"91316"}]