[{"Location":"ADVANCED RV SERVICE","Address":"1200 Old Conejo Rd","City":"Newbury Park","State":"CA","Zip":"91320"},{"Location":"AMERICAN ADVENTURE IS","Address":"3215 Old Conejo Rd","City":"Newbury Park","State":"CA","Zip":"91320"},{"Location":"AMGEN","Address":"1 Amgen Center Dr 24-0a","City":"Newbury Park","State":"CA","Zip":"91320"},{"Location":"AMGEN INC","Address":"1 Amgen Center Dr","City":"Newbury Park","State":"CA","Zip":"91320"},{"Location":"AMGEN INC 2","Address":"815 Biotech Ct","City":"Newbury Park","State":"CA","Zip":"91320"},{"Location":"AMGEN%2C INC","Address":"1 Amgen Center Dr","City":"Newbury Park","State":"CA","Zip":"91320"},{"Location":"AMGEN%2C INC.","Address":"1 Amgen Center Dr","City":"Newbury Park","State":"CA","Zip":"91320"},{"Location":"AZARS RED ROBIN","Address":"2215 Michael Dr","City":"Newbury Park","State":"CA","Zip":"91320"},{"Location":"BRENDANS IRISH PUB","Address":"495 N Ventu Park Rd","City":"Newbury Park","State":"CA","Zip":"91320"},{"Location":"CALIFORNIA SPINE INSTITUTE MED","Address":"1001 Newbury Rd","City":"Newbury Park","State":"CA","Zip":"91320"},{"Location":"CAPRICORN MANAGEMENT","Address":"2635 Lavery Ct 12","City":"Newbury Park","State":"CA","Zip":"91320"},{"Location":"CHILI'S #1177","Address":"1700 Newbury Rd","City":"Newbury Park","State":"CA","Zip":"91320"},{"Location":"CLASSIC CUT & COLOR","Address":"3339 Kimber Dr C","City":"Newbury Park","State":"CA","Zip":"91320"},{"Location":"COMMUNITY DENTAL GROUP","Address":"587 N Ventu Park Rd C","City":"Newbury Park","State":"CA","Zip":"91320"},{"Location":"COMPUMAT","Address":"300 Giant Oak Ave E","City":"Newbury Park","State":"CA","Zip":"91320"},{"Location":"COSMETIC TECHNOLOGIES INC","Address":"2550 Avurite Cir","City":"Newbury Park","State":"CA","Zip":"91320"},{"Location":"COUNTRY HARVEST","Address":"3345 Kimber Dr","City":"Newbury Park","State":"CA","Zip":"91320"},{"Location":"COURTYARD MARRIOTT","Address":"1710 Newbury Rd","City":"Newbury Park","State":"CA","Zip":"91320"},{"Location":"CRONIES SPORTS GRILL","Address":"1620 Newbury Rd 1","City":"Newbury Park","State":"CA","Zip":"91320"},{"Location":"EL SANCHO LOCO","Address":"2271 Michael Dr","City":"Newbury Park","State":"CA","Zip":"91320"},{"Location":"FITNESS 19 NEWBURY PARK","Address":"161 N Reino Rd","City":"Newbury Park","State":"CA","Zip":"91320"},{"Location":"GIANT BICYCLES","Address":"3587 Old Conejo Rd","City":"Newbury Park","State":"CA","Zip":"91320"},{"Location":"HOGAN FAMILY FOUNDATION INC","Address":"2834 Borchard Rd","City":"Newbury Park","State":"CA","Zip":"91320"},{"Location":"HOLDREN'S STEAKS AND SEAFOOD","Address":"1714 Newbury Rd","City":"Newbury Park","State":"CA","Zip":"91320"},{"Location":"ISLANDS RESTAURANT #059","Address":"935 Broadbeck Dr","City":"Newbury Park","State":"CA","Zip":"91320"},{"Location":"JERSEY MIKE SUBS","Address":"1610 Newdury Rd","City":"Newbury Park","State":"CA","Zip":"91320"},{"Location":"LEAD BUILDERS INC","Address":"2568 Turquoise Cir","City":"Newbury Park","State":"CA","Zip":"91320"},{"Location":"LETTYS MEXICAN RESTAURANT","Address":"2454 W Hillcrest Dr","City":"Newbury Park","State":"CA","Zip":"91320"},{"Location":"LOCKHEED FEDERAL CREDIT","Address":"1005 Broadbeck Dr","City":"Newbury Park","State":"CA","Zip":"91320"},{"Location":"MAGOO'S SPORTS GRILL","Address":"722 N Wendy Dr","City":"Newbury Park","State":"CA","Zip":"91320"},{"Location":"NEWBURY PARK PHYSICAL THERAPY","Address":"2814 Camino Dos Rios 406","City":"Newbury Park","State":"CA","Zip":"91320"},{"Location":"NEWBURY WINE AND SPIRIT","Address":"2199 Michael Dr","City":"Newbury Park","State":"CA","Zip":"91320"},{"Location":"PACIFIC DENTAL 18","Address":"501 S Reino Rd G","City":"Newbury Park","State":"CA","Zip":"91320"},{"Location":"PATRIOT AIRSOFT","Address":"1260 Rancho Conejo Blvd 1","City":"Newbury Park","State":"CA","Zip":"91320"},{"Location":"PICKLES DELICATESSEN AND REST","Address":"1940 Newbury Rd 100","City":"Newbury Park","State":"CA","Zip":"91320"},{"Location":"RANCH HAND BBQ","Address":"1015 Broadbeck Dr","City":"Newbury Park","State":"CA","Zip":"91320"},{"Location":"ROMA ITALIAN DELI","Address":"2247 Michael Dr","City":"Newbury Park","State":"CA","Zip":"91320"},{"Location":"SAFFRON INDIAN CUISINE","Address":"579 N Ventu Park Rd","City":"Newbury Park","State":"CA","Zip":"91320"},{"Location":"SHARKYS NEWBURY PARK","Address":"1930 Newbury Rd 300","City":"Newbury Park","State":"CA","Zip":"91320"},{"Location":"SIDESHOW COLLECTIBLES","Address":"2630 Conejo Spectrum St","City":"Newbury Park","State":"CA","Zip":"91320"},{"Location":"SKYWORKS SOLUTIONS INC","Address":"2427 W Hillcrest Dr","City":"Newbury Park","State":"CA","Zip":"91320"},{"Location":"SO CAL RACING SUPPLY","Address":"2624 Lavery Ct 207","City":"Newbury Park","State":"CA","Zip":"91320"},{"Location":"SPORT CLIPS CA751","Address":"715 N Wendy Dr","City":"Newbury Park","State":"CA","Zip":"91320"},{"Location":"STAGE COACH LIQUORS","Address":"1536 Newbury Rd","City":"Newbury Park","State":"CA","Zip":"91320"},{"Location":"STOLP","Address":"501 N Ventu Park Rd","City":"Newbury Park","State":"CA","Zip":"91320"},{"Location":"SUMO NEWBURY","Address":"1714 Newbury Rd C","City":"Newbury Park","State":"CA","Zip":"91320"},{"Location":"SUPERIOR POOL PRODUCTS","Address":"1180 Tourmaline Dr","City":"Newbury Park","State":"CA","Zip":"91320"},{"Location":"THE ALAMO","Address":"2311 Borchard Rd","City":"Newbury Park","State":"CA","Zip":"91320"},{"Location":"US BUSINESS PARK","Address":"3559 Old Conejo Rd","City":"Newbury Park","State":"CA","Zip":"91320"},{"Location":"VICTORY","Address":"2330 Teller Rd","City":"Newbury Park","State":"CA","Zip":"91320"},{"Location":"WEST GASTROENTEROLOGY","Address":"311 Haigh Rd","City":"Newbury Park","State":"CA","Zip":"91320"},{"Location":"WESTLAKE SHEET METAL","Address":"3265 Grande Vista Dr","City":"Newbury Park","State":"CA","Zip":"91320"},{"Location":"ZS ASSOCIATES","Address":"2545 W Hillcrest Dr 130","City":"Newbury Park","State":"CA","Zip":"91320"},{"Location":"ALL BEARINGS SOLUTIONS","Address":"2192 Anchor Ct C","City":"Thousand Oaks","State":"CA","Zip":"91320"},{"Location":"KOHL'S #630","Address":"1960 Newbury Rd","City":"Thousand Oaks","State":"CA","Zip":"91320"},{"Location":"REGAN MOTORS","Address":"1282 Newbury Rd","City":"Thousand Oaks","State":"CA","Zip":"91320"},{"Location":"THOUSAND OAKS SGRY - PRI","Address":"1120 Newbury Rd","City":"Thousand Oaks","State":"CA","Zip":"91320"},{"Location":"THOUSAND OAKS SURGERY CT","Address":"1120 Newbury Rd","City":"Thousand Oaks","State":"CA","Zip":"91320"}]