[{"Location":"CALIFORNIA MEDICAL REHAB","Address":"18251 Roscoe Blvd","City":"Northridge","State":"CA","Zip":"91325"},{"Location":"CHILDREN ARE OUR FUTURE LEMARS","Address":"17622 Lemarsh St","City":"Northridge","State":"CA","Zip":"91325"},{"Location":"CJ GRAND SPA INC","Address":"10211 Balboa Blvd","City":"Northridge","State":"CA","Zip":"91325"},{"Location":"FACEY MEDICAL FOUNDATION","Address":"18460 Roscoe Blvd","City":"Northridge","State":"CA","Zip":"91325"},{"Location":"FIRESTONE #006114","Address":"10141 Balboa Blvd","City":"Northridge","State":"CA","Zip":"91325"},{"Location":"GEVORGYAN","Address":"10215 Lasaine Ave","City":"Northridge","State":"CA","Zip":"91325"},{"Location":"GINO","Address":"17646 Lassen St","City":"Northridge","State":"CA","Zip":"91325"},{"Location":"KB PIZZA AND MORE","Address":"9000 Balboa Blvd","City":"Northridge","State":"CA","Zip":"91325"},{"Location":"KOGEH DEPENDENT","Address":"17326 Devonshire St","City":"Northridge","State":"CA","Zip":"91325"},{"Location":"LEE'S 4 COCKTAILS","Address":"17040 Devonshire St","City":"Northridge","State":"CA","Zip":"91325"},{"Location":"MARK GREEN STADT MD","Address":"18350 Roscoe Blvd 300","City":"Northridge","State":"CA","Zip":"91325"},{"Location":"MEDTRONIC","Address":"18000 Devonshire St","City":"Northridge","State":"CA","Zip":"91325"},{"Location":"MEDTRONIC MINI MED INC","Address":"18000 Devonshire St","City":"Northridge","State":"CA","Zip":"91325"},{"Location":"NDI INSURANCE AGENCY","Address":"17106 Devonshire St","City":"Northridge","State":"CA","Zip":"91325"},{"Location":"NECTAR APPLE","Address":"8626 Balboa Blvd","City":"Northridge","State":"CA","Zip":"91325"},{"Location":"PARAGON BAR AND GRILL LLC","Address":"8319 Louise Ave","City":"Northridge","State":"CA","Zip":"91325"},{"Location":"PERUS TASTE RESTAURANT","Address":"8246 Louise Ave","City":"Northridge","State":"CA","Zip":"91325"},{"Location":"PRESIDENTE MEXICAN RESTAURANT","Address":"18441 Devonshire St","City":"Northridge","State":"CA","Zip":"91325"},{"Location":"RENAISSANCE IMAGING AT NRH","Address":"18436 Roscoe Blvd","City":"Northridge","State":"CA","Zip":"91325"},{"Location":"RIO BARBERSHOP","Address":"8644 Linlake Ave","City":"Northridge","State":"CA","Zip":"91325"},{"Location":"SHARKYS WOODFIRED- NRTDG","Address":"18426 Nordhoff St","City":"Northridge","State":"CA","Zip":"91325"},{"Location":"SHIK DO RAK","Address":"18434 Devonshire St","City":"Northridge","State":"CA","Zip":"91325"},{"Location":"SOZA","Address":"18401 Eddy St","City":"Northridge","State":"CA","Zip":"91325"},{"Location":"TARGET","Address":"8999 Balboa Blvd","City":"Northridge","State":"CA","Zip":"91325"},{"Location":"THE BLADE BARBERSHOP","Address":"8630 Balboa Blvd","City":"Northridge","State":"CA","Zip":"91325"},{"Location":"YOGURTS PLANET","Address":"18427 Nordhoff St B","City":"Northridge","State":"CA","Zip":"91325"}]