[{"Location":"A & B BUSINESS","Address":"24240 Lyons Ave","City":"Newhall","State":"CA","Zip":"91321"},{"Location":"ALA FIESTA PARTY RENTAL","Address":"23630 Newhall Ave B","City":"Newhall","State":"CA","Zip":"91321"},{"Location":"AQUILAR","Address":"23638 Newhall Ave 4","City":"Newhall","State":"CA","Zip":"91321"},{"Location":"BECCAS BOWS N BOW TIES","Address":"24263 Main St","City":"Newhall","State":"CA","Zip":"91321"},{"Location":"BLN INC","Address":"23760 Newhall Ave","City":"Newhall","State":"CA","Zip":"91321"},{"Location":"CALEX ENGINEERING","Address":"23651 Pine St","City":"Newhall","State":"CA","Zip":"91321"},{"Location":"CARNICERIA MARKET LATINA","Address":"24743 Railroad Ave","City":"Newhall","State":"CA","Zip":"91321"},{"Location":"CIRCUMSOLAR ENERGY","Address":"24050 Briardale Way","City":"Newhall","State":"CA","Zip":"91321"},{"Location":"COIN PLUS","Address":"23332 Lyons Ave","City":"Newhall","State":"CA","Zip":"91321"},{"Location":"DARIO'S MEXICAN RESTAURANT","Address":"24523 Newhall Ave","City":"Newhall","State":"CA","Zip":"91321"},{"Location":"DOCS INN","Address":"23912 Lyons Ave","City":"Newhall","State":"CA","Zip":"91321"},{"Location":"DON CUCO MEXICAN RESTAURANT","Address":"24130 Lyons Ave","City":"Newhall","State":"CA","Zip":"91321"},{"Location":"EL PUEBLO RESTAURANT","Address":"24400 Walnut St","City":"Newhall","State":"CA","Zip":"91321"},{"Location":"EL TROCADERO","Address":"24274 Main St","City":"Newhall","State":"CA","Zip":"91321"},{"Location":"EL VALLE LAWN MOWER SHOP","Address":"22413 12th St","City":"Newhall","State":"CA","Zip":"91321"},{"Location":"FIRE STATION 73","Address":"24875 Railroad Ave","City":"Newhall","State":"CA","Zip":"91321"},{"Location":"FIRESTONE #598860","Address":"23100 Lyons Ave","City":"Newhall","State":"CA","Zip":"91321"},{"Location":"HEALTHY SMILE DENTAL","Address":"24242 Lyons Ave","City":"Newhall","State":"CA","Zip":"91321"},{"Location":"JIMMY DEAN'S","Address":"22941 Lyons Ave","City":"Newhall","State":"CA","Zip":"91321"},{"Location":"JOSIES IMAGE SALON","Address":"24378 Main St","City":"Newhall","State":"CA","Zip":"91321"},{"Location":"JULIO LEMOS INSURANCE","Address":"23566 Lyons Ave 101","City":"Newhall","State":"CA","Zip":"91321"},{"Location":"KANOKKOIN ATKINSON DBA B","Address":"23820 Lyons Ave","City":"Newhall","State":"CA","Zip":"91321"},{"Location":"KELLER DAVIS REAL ESTATE","Address":"19310 Avenue Of The Oaks B","City":"Newhall","State":"CA","Zip":"91321"},{"Location":"LA CHARRITA RESTAURANT","Address":"24225 Main St A","City":"Newhall","State":"CA","Zip":"91321"},{"Location":"LILY'S CAFE","Address":"23700 Lyons Ave","City":"Newhall","State":"CA","Zip":"91321"},{"Location":"LOVE SUSHI","Address":"24134 Lyons Ave","City":"Newhall","State":"CA","Zip":"91321"},{"Location":"MINNIE MAX CLEANERS","Address":"23214 Lyons Ave","City":"Newhall","State":"CA","Zip":"91321"},{"Location":"MINNIE MAX CLEANERS","Address":"26364 Sierra Hwy","City":"Newhall","State":"CA","Zip":"91321"},{"Location":"MOUNTAIN VIEW TIRE NEWHALL","Address":"23340 Lyons Ave","City":"Newhall","State":"CA","Zip":"91321"},{"Location":"NAGLER & SONS","Address":"24889 Railroad Ave F","City":"Newhall","State":"CA","Zip":"91321"},{"Location":"NEWHALL COUNTY WATER DISTRICT","Address":"23780 Pine St","City":"Newhall","State":"CA","Zip":"91321"},{"Location":"PACIFICA SANTA CLARITA","Address":"24305 Lyons Ave","City":"Newhall","State":"CA","Zip":"91321"},{"Location":"PET STOP 2","Address":"26870 Sierra Hwy","City":"Newhall","State":"CA","Zip":"91321"},{"Location":"PIZZA HUT #26140","Address":"23430 Lyons Ave","City":"Newhall","State":"CA","Zip":"91321"},{"Location":"RENDEZVOUS BAR","Address":"22505 8th St","City":"Newhall","State":"CA","Zip":"91321"},{"Location":"RESULTS FITNESS","Address":"24420 Walnut St","City":"Newhall","State":"CA","Zip":"91321"},{"Location":"RICK FRANKLIN CONSTRUCTION","Address":"22165 Placerita Canyon Rd","City":"Newhall","State":"CA","Zip":"91321"},{"Location":"ROBERT J KOGEN DDS","Address":"22817 Lyons Ave","City":"Newhall","State":"CA","Zip":"91321"},{"Location":"ROUND TABLE PIZZA","Address":"254 Lyons Ave","City":"Newhall","State":"CA","Zip":"91321"},{"Location":"SHEAR IDENTITY","Address":"24811 Railroad Ave M","City":"Newhall","State":"CA","Zip":"91321"},{"Location":"SHOOTERS","Address":"24450 Lyons Ave","City":"Newhall","State":"CA","Zip":"91321"},{"Location":"THE FINAL SCORE","Address":"23754 Lyons Ave","City":"Newhall","State":"CA","Zip":"91321"},{"Location":"THE NAIL GARDEN","Address":"23634 Lyons Ave","City":"Newhall","State":"CA","Zip":"91321"},{"Location":"THE PLUMBOLOGIST","Address":"24887 Railroad Ave D","City":"Newhall","State":"CA","Zip":"91321"},{"Location":"TODDS HAIR SALON","Address":"23334 Lyons Ave","City":"Newhall","State":"CA","Zip":"91321"},{"Location":"TORTAS AHOGADAS LAS ORGINALES","Address":"23630 Newhall Ave 1","City":"Newhall","State":"CA","Zip":"91321"},{"Location":"TOWN AND COUNTRY LIQUOR","Address":"23638 Newhall Ave","City":"Newhall","State":"CA","Zip":"91321"},{"Location":"VALENCIA LANES","Address":"23700 Lyons Ave","City":"Newhall","State":"CA","Zip":"91321"},{"Location":"VINCENZOS PIZZA","Address":"24504 Lyons Ave","City":"Newhall","State":"CA","Zip":"91321"},{"Location":"CANYON COUNTRY DENTAL GROUP","Address":"26877 Sierra Hwy","City":"Santa Clarita","State":"CA","Zip":"91321"},{"Location":"IDEAL FITNESS CENTER","Address":"24640 Wiley Canyon Rd","City":"Santa Clarita","State":"CA","Zip":"91321"},{"Location":"PIZZA FACTORY","Address":"26910 Sierra Hwy D2","City":"Santa Clarita","State":"CA","Zip":"91321"},{"Location":"SUSHI CALIFORNIA","Address":"26921 Sierra Hwy","City":"Santa Clarita","State":"CA","Zip":"91321"},{"Location":"TAKUMI","Address":"26850 Sierra Hwy A10","City":"Santa Clarita","State":"CA","Zip":"91321"},{"Location":"WENDY'S #9060","Address":"24525 Lyons Ave 9060","City":"Santa Clarita","State":"CA","Zip":"91321"}]