[{"Location":"24 HOUR FITNESS #866","Address":"19350 Nordhoff St D","City":"Northridge","State":"CA","Zip":"91324"},{"Location":"3M PHARMACEUTICALS","Address":"19901 Nordhoff St","City":"Northridge","State":"CA","Zip":"91324"},{"Location":"ACAPULCO 61","Address":"9400 Reseda Blvd","City":"Northridge","State":"CA","Zip":"91324"},{"Location":"ALAN STEIN D.D.S.","Address":"18546 Roscoe Blvd 230","City":"Northridge","State":"CA","Zip":"91324"},{"Location":"ALLIANT TECHSYSTEMS OPERATION","Address":"9401 Corbin Ave","City":"Northridge","State":"CA","Zip":"91324"},{"Location":"ALWAYS SPA","Address":"9044 Corbin Ave D","City":"Northridge","State":"CA","Zip":"91324"},{"Location":"AV MASTERS INC","Address":"8940 Quartz Ave","City":"Northridge","State":"CA","Zip":"91324"},{"Location":"BANC OF CALIFORNIA","Address":"8850 Tampa Ave 106","City":"Northridge","State":"CA","Zip":"91324"},{"Location":"BBCN BANK","Address":"10147 Reseda Blvd","City":"Northridge","State":"CA","Zip":"91324"},{"Location":"BONEFISH GRILL #6505","Address":"9301 Tampa Ave","City":"Northridge","State":"CA","Zip":"91324"},{"Location":"BUENOS AIRES GRILL INC.","Address":"8856 Corbin Ave","City":"Northridge","State":"CA","Zip":"91324"},{"Location":"BUFFALO WILD WINGS #0500","Address":"9301 Tampa Ave 142","City":"Northridge","State":"CA","Zip":"91324"},{"Location":"BURGER KING #1067","Address":"19640 Nordhoff St","City":"Northridge","State":"CA","Zip":"91324"},{"Location":"BUSINESS PARTNERS LLC","Address":"9301 Corbin Ave 120","City":"Northridge","State":"CA","Zip":"91324"},{"Location":"C P F S","Address":"9310 Corbin Ave","City":"Northridge","State":"CA","Zip":"91324"},{"Location":"CALIFORNIA FITNESS","Address":"9150 Reseda Blvd","City":"Northridge","State":"CA","Zip":"91324"},{"Location":"CHI-CHI'S PIZZA","Address":"9080 Tampa Ave","City":"Northridge","State":"CA","Zip":"91324"},{"Location":"CHILDREN ARE OUR FUTURE BALLIN","Address":"19646 Ballinger St","City":"Northridge","State":"CA","Zip":"91324"},{"Location":"CHILDREN ARE OUR FUTURE SUPERI","Address":"19600 Superior St","City":"Northridge","State":"CA","Zip":"91324"},{"Location":"CHILI'S #0040","Address":"9200 Reseda Blvd","City":"Northridge","State":"CA","Zip":"91324"},{"Location":"CJ BARBER SHOP","Address":"8914 Reseda Blvd","City":"Northridge","State":"CA","Zip":"91324"},{"Location":"CLAIM JUMPER #23","Address":"9429 Tampa Ave","City":"Northridge","State":"CA","Zip":"91324"},{"Location":"COMPASSIONATE PATIENT RE","Address":"18526 Parthenia St","City":"Northridge","State":"CA","Zip":"91324"},{"Location":"COSTCO","Address":"8810 Tampa Avenue","City":"Northridge","State":"CA","Zip":"91324"},{"Location":"CRUNCH FITNESS NORTHRIDG","Address":"10155 Reseda Blvd","City":"Northridge","State":"CA","Zip":"91324"},{"Location":"DAY AND NIGHT TOWING 2","Address":"18657 Parthenia St","City":"Northridge","State":"CA","Zip":"91324"},{"Location":"DEKIRMENJIAN","Address":"19253 Roscoe Blvd","City":"Northridge","State":"CA","Zip":"91324"},{"Location":"DENNYS","Address":"9001 Tampa Ave","City":"Northridge","State":"CA","Zip":"91324"},{"Location":"DIAMOND WEALTH MANGEMENT","Address":"9045 Corbin Ave 305","City":"Northridge","State":"CA","Zip":"91324"},{"Location":"DICKEYS SAN FERNANDO","Address":"9035 Reseda Blvd","City":"Northridge","State":"CA","Zip":"91324"},{"Location":"EL TORITO 7037","Address":"8855 Tampa Ave","City":"Northridge","State":"CA","Zip":"91324"},{"Location":"FIRESTONE #029874","Address":"19320 Plummer St","City":"Northridge","State":"CA","Zip":"91324"},{"Location":"FLOYDS 99 GROWTH 3 LLC","Address":"19334 Nordhoff St","City":"Northridge","State":"CA","Zip":"91324"},{"Location":"GENTLEMEN HAIRCUTS","Address":"9037 Reseda Blvd","City":"Northridge","State":"CA","Zip":"91324"},{"Location":"GOLD'S GYM","Address":"19835 Nordhoff St 1a","City":"Northridge","State":"CA","Zip":"91324"},{"Location":"GOLDEN STATE STORAGE","Address":"18832 Rayen St","City":"Northridge","State":"CA","Zip":"91324"},{"Location":"GRAINGER- 443","Address":"8930 Winnetka Ave","City":"Northridge","State":"CA","Zip":"91324"},{"Location":"HALLMARK SURGICAL CTR ON NORTH","Address":"327 Reseda Blvd","City":"Northridge","State":"CA","Zip":"91324"},{"Location":"HILLCREST CLEANERS","Address":"18535 Devonshire St","City":"Northridge","State":"CA","Zip":"91324"},{"Location":"HYAKUMI SUSHI","Address":"19500 Plummer St B1","City":"Northridge","State":"CA","Zip":"91324"},{"Location":"JERSEY MIKES SUBS","Address":"19350 Nordhoff St C","City":"Northridge","State":"CA","Zip":"91324"},{"Location":"JM BOXING","Address":"18543 Devonshire St","City":"Northridge","State":"CA","Zip":"91324"},{"Location":"KANTOR AND KANTOR","Address":"19839 Nordhoff St","City":"Northridge","State":"CA","Zip":"91324"},{"Location":"KIDNEY AND HYPERTENSION CONSUL","Address":"18531 Roscoe Blvd 206","City":"Northridge","State":"CA","Zip":"91324"},{"Location":"KINGS BURGER","Address":"9345 Reseda Blvd D","City":"Northridge","State":"CA","Zip":"91324"},{"Location":"KOHL'S #1373","Address":"8800 Corbin Ave","City":"Northridge","State":"CA","Zip":"91324"},{"Location":"KVS FREIGHT AND SHIPPING LLC","Address":"9349 Melvin Ave 3","City":"Northridge","State":"CA","Zip":"91324"},{"Location":"KYOTO SUSHI","Address":"18531 Devonshire St","City":"Northridge","State":"CA","Zip":"91324"},{"Location":"LA FITNESS #47","Address":"18679 Devonshire St","City":"Northridge","State":"CA","Zip":"91324"},{"Location":"LA LASAGNA CO","Address":"8501 Reseda Blvd","City":"Northridge","State":"CA","Zip":"91324"},{"Location":"LAN VENTURE GROUP LLC","Address":"10186 Reseda Blvd","City":"Northridge","State":"CA","Zip":"91324"},{"Location":"MACARONI GRILL #1203","Address":"19400 Plummer St","City":"Northridge","State":"CA","Zip":"91324"},{"Location":"MACY'S WEST 491","Address":"9301 Tampa Ave","City":"Northridge","State":"CA","Zip":"91324"},{"Location":"MACY'S WEST 491","Address":"9220 Shirley Ave","City":"Northridge","State":"CA","Zip":"91324"},{"Location":"MACY'S WEST 491 BR","Address":"9220 Shirley Ave","City":"Northridge","State":"CA","Zip":"91324"},{"Location":"MARIAS ITALIAN KITCHEN","Address":"9161 Reseda Blvd","City":"Northridge","State":"CA","Zip":"91324"},{"Location":"MARISCOS LA SERENATA VIP","Address":"19265 Roscoe Blvd","City":"Northridge","State":"CA","Zip":"91324"},{"Location":"MBX CROSSFIT","Address":"19555 Parthenia St","City":"Northridge","State":"CA","Zip":"91324"},{"Location":"MEN'S WEARHOUSE #2704","Address":"9021 Tampa Ave","City":"Northridge","State":"CA","Zip":"91324"},{"Location":"NORTHRIDGE DIALYSIS CTR","Address":"9325 Reseda Blvd","City":"Northridge","State":"CA","Zip":"91324"},{"Location":"NORTHRIDGE FAMILY CENTER","Address":"9514 Reseda Blvd 6","City":"Northridge","State":"CA","Zip":"91324"},{"Location":"NORTHRIDGE FASHION CENTER","Address":"9301 Tampa Ave","City":"Northridge","State":"CA","Zip":"91324"},{"Location":"NORTHRIDGE ICE CREAM","Address":"19105 Parthenia St","City":"Northridge","State":"CA","Zip":"91324"},{"Location":"NORTHRIDGE TOYOTA","Address":"19550 Nordhoff St","City":"Northridge","State":"CA","Zip":"91324"},{"Location":"NUTRITIONAL VENDING","Address":"19441 Business Center Dr 119","City":"Northridge","State":"CA","Zip":"91324"},{"Location":"OUTBACK STEAKHOUSE #0561","Address":"18711 Devonshire St","City":"Northridge","State":"CA","Zip":"91324"},{"Location":"OUTDOOR GRILL","Address":"18697 Devonshire St","City":"Northridge","State":"CA","Zip":"91324"},{"Location":"PACIFIC DENTAL #89","Address":"18519 Devonshire St","City":"Northridge","State":"CA","Zip":"91324"},{"Location":"PHO 22 NORTHRIDGE","Address":"9651 Reseda Blvd","City":"Northridge","State":"CA","Zip":"91324"},{"Location":"PLATINO RECORDS","Address":"19201 Parthenia St","City":"Northridge","State":"CA","Zip":"91324"},{"Location":"Q AND Q HAWAIIAN BARBEQUE","Address":"8850 Campa Ave  #104","City":"Northridge","State":"CA","Zip":"91324"},{"Location":"R&R COIN LAUNDRY","Address":"8554 Reseda Blvd","City":"Northridge","State":"CA","Zip":"91324"},{"Location":"RED ROBIN #254","Address":"9301 Tampa Ave","City":"Northridge","State":"CA","Zip":"91324"},{"Location":"ROBLES","Address":"8876 Corbin Ave","City":"Northridge","State":"CA","Zip":"91324"},{"Location":"RODEO REALTY","Address":"9338 Reseda Blvd","City":"Northridge","State":"CA","Zip":"91324"},{"Location":"ROGERS RIB SHACK","Address":"8450 Reseda Blvd","City":"Northridge","State":"CA","Zip":"91324"},{"Location":"RONALD PERELMAN MD","Address":"18531 Roscoe Blvd 202","City":"Northridge","State":"CA","Zip":"91324"},{"Location":"ROSIES SMOKEHOUSE  LLC","Address":"9012 Tampa Ave","City":"Northridge","State":"CA","Zip":"91324"},{"Location":"RYDELL AUTOMOTIVE","Address":"18600 Devonshire St","City":"Northridge","State":"CA","Zip":"91324"},{"Location":"SAILS LOS ANGELES","Address":"19650 Needles St","City":"Northridge","State":"CA","Zip":"91324"},{"Location":"SERGEY TATULYAN DDS INC","Address":"18856 Roscoe Blvd A","City":"Northridge","State":"CA","Zip":"91324"},{"Location":"SHAHRAM NOURI DENTAL CORP","Address":"9068 Tampa Ave","City":"Northridge","State":"CA","Zip":"91324"},{"Location":"SHOGUN","Address":"10174 Reseda Blvd","City":"Northridge","State":"CA","Zip":"91324"},{"Location":"SPORT CLIPS CA704","Address":"19500 Plummer St D5","City":"Northridge","State":"CA","Zip":"91324"},{"Location":"SPORTS AUTHORITY 633","Address":"9301 Tampa Ave 212","City":"Northridge","State":"CA","Zip":"91324"},{"Location":"STANDARD BARBER SHOP","Address":"8937 Reseda Blvd","City":"Northridge","State":"CA","Zip":"91324"},{"Location":"STOVEPIPER LOUNGE","Address":"19563 Parthenia St","City":"Northridge","State":"CA","Zip":"91324"},{"Location":"SUPERCUTS #80106","Address":"18703 Devonshire St","City":"Northridge","State":"CA","Zip":"91324"},{"Location":"SUSHI BAR","Address":"9129 Reseda Blvd","City":"Northridge","State":"CA","Zip":"91324"},{"Location":"SWEET DEAL","Address":"8807 Baird Ave","City":"Northridge","State":"CA","Zip":"91324"},{"Location":"TAKUYO","Address":"8510 Reseda Blvd","City":"Northridge","State":"CA","Zip":"91324"},{"Location":"TAMPA MUSA","Address":"8850 Tampa Ave","City":"Northridge","State":"CA","Zip":"91324"},{"Location":"TANDEM MORTGAGE","Address":"19520 Nordhoff St 7","City":"Northridge","State":"CA","Zip":"91324"},{"Location":"TAPS","Address":"18673 Devonshire St","City":"Northridge","State":"CA","Zip":"91324"},{"Location":"TARGET","Address":"8840 Corbin Ave","City":"Northridge","State":"CA","Zip":"91324"},{"Location":"TAURIAN        #1058","Address":"9145 Corbin Ave","City":"Northridge","State":"CA","Zip":"91324"},{"Location":"THAI BAMBOO RESTUARANT","Address":"9084 Tampa Ave","City":"Northridge","State":"CA","Zip":"91324"},{"Location":"TOMO SUSHI","Address":"18707 Devonshire St 101","City":"Northridge","State":"CA","Zip":"91324"},{"Location":"TOP NAIL","Address":"19500 Plummer St D4","City":"Northridge","State":"CA","Zip":"91324"},{"Location":"UNIFIED PICTURES","Address":"19773 Bahama St","City":"Northridge","State":"CA","Zip":"91324"},{"Location":"UNITED DENTAL GROUP","Address":"10149 Reseda Blvd","City":"Northridge","State":"CA","Zip":"91324"},{"Location":"VALLARTAS  SUPERMARKET","Address":"8453 Reseda Blvd","City":"Northridge","State":"CA","Zip":"91324"},{"Location":"VALLEY BEAUTY SUPPLY","Address":"8801 Reseda Blvd C","City":"Northridge","State":"CA","Zip":"91324"},{"Location":"VALLEY CLUB","Address":"8728 Corbin Ave","City":"Northridge","State":"CA","Zip":"91324"},{"Location":"VALLEY LIFE CHURCH","Address":"8935 Reseda Blvd","City":"Northridge","State":"CA","Zip":"91324"},{"Location":"VAPES GALORE","Address":"8452 Reseda Blvd","City":"Northridge","State":"CA","Zip":"91324"},{"Location":"VITAMIN WORLD 4947","Address":"9301 Tampa Ave 201","City":"Northridge","State":"CA","Zip":"91324"},{"Location":"WE GET IT HAIR SALON","Address":"8816 Reseda Blvd","City":"Northridge","State":"CA","Zip":"91324"},{"Location":"WINGSTOP #605","Address":"9041 Reseda Blvd","City":"Northridge","State":"CA","Zip":"91324"},{"Location":"WOOD RANCH BARBECUE","Address":"9301 Tampa Ave 214","City":"Northridge","State":"CA","Zip":"91324"},{"Location":"WOORI KALBI","Address":"9711 Reseda Blvd","City":"Northridge","State":"CA","Zip":"91324"},{"Location":"XESSORIEZ INC","Address":"19500 Plummer St G2","City":"Northridge","State":"CA","Zip":"91324"},{"Location":"YARD HOUSE #8342","Address":"9301 Tampa Ave 216","City":"Northridge","State":"CA","Zip":"91324"}]