[{"Location":"AMECI PIZZA","Address":"11229 Tampa Ave","City":"Northridge","State":"CA","Zip":"91326"},{"Location":"CAFE JUNGLE","Address":"10328 1%2F2 Reseda Blvd","City":"Northridge","State":"CA","Zip":"91326"},{"Location":"PORTER VALLEY COUNTRY","Address":"19216 Singing Hills Dr","City":"Northridge","State":"CA","Zip":"91326"},{"Location":"PORTER VALLEY COUNTRY CLUB","Address":"19216 Singing Hills Dr","City":"Northridge","State":"CA","Zip":"91326"},{"Location":"Z PIZZA","Address":"19300 Rinaldi St F2","City":"Northridge","State":"CA","Zip":"91326"},{"Location":"C P E S CALIFORNIA2","Address":"10426 Baird Ave","City":"Porter Ranch","State":"CA","Zip":"91326"},{"Location":"CHILDREN ARE OUR FUTURE MERION","Address":"19110 Merion Dr","City":"Porter Ranch","State":"CA","Zip":"91326"},{"Location":"ISLANDS RESTAURANT #045","Address":"11400 Porter Ranch Dr","City":"Porter Ranch","State":"CA","Zip":"91326"},{"Location":"JASMINE  THAI CUSINE","Address":"19707 Rinaldi St","City":"Porter Ranch","State":"CA","Zip":"91326"},{"Location":"MUSASHI JAPANESE CUISINE","Address":"19713 Rinaldi St","City":"Porter Ranch","State":"CA","Zip":"91326"},{"Location":"PORTER RANCH MUSASHI","Address":"19713 Rinaldi St","City":"Porter Ranch","State":"CA","Zip":"91326"},{"Location":"SCOTTRADE 54J","Address":"11201 Tampa Ave","City":"Porter Ranch","State":"CA","Zip":"91326"},{"Location":"SHEPHERD OF THE HILL","Address":"19700 Rinaldi St","City":"Porter Ranch","State":"CA","Zip":"91326"},{"Location":"STIX HOLDINGS 746","Address":"19751 Rinaldi St Stix","City":"Porter Ranch","State":"CA","Zip":"91326"},{"Location":"TGI FRIDAY'S #1943","Address":"19855 Rinaldi St","City":"Porter Ranch","State":"CA","Zip":"91326"},{"Location":"UNION BANK","Address":"19921 Rinaldi St","City":"Porter Ranch","State":"CA","Zip":"91326"},{"Location":"WHOLE FOODS MARKET #24","Address":"19340 Rinaldi St","City":"Porter Ranch","State":"CA","Zip":"91326"},{"Location":"AMECI PIZZA","Address":"11229 Tampa Ave","City":"Northridge","State":"CA","Zip":"91326"},{"Location":"CAFE JUNGLE","Address":"10328 1%2F2 Reseda Blvd","City":"Northridge","State":"CA","Zip":"91326"},{"Location":"PORTER VALLEY COUNTRY","Address":"19216 Singing Hills Dr","City":"Northridge","State":"CA","Zip":"91326"},{"Location":"PORTER VALLEY COUNTRY CLUB","Address":"19216 Singing Hills Dr","City":"Northridge","State":"CA","Zip":"91326"},{"Location":"Z PIZZA","Address":"19300 Rinaldi St F2","City":"Northridge","State":"CA","Zip":"91326"},{"Location":"C P E S CALIFORNIA2","Address":"10426 Baird Ave","City":"Porter Ranch","State":"CA","Zip":"91326"},{"Location":"CHILDREN ARE OUR FUTURE MERION","Address":"19110 Merion Dr","City":"Porter Ranch","State":"CA","Zip":"91326"},{"Location":"ISLANDS RESTAURANT #045","Address":"11400 Porter Ranch Dr","City":"Porter Ranch","State":"CA","Zip":"91326"},{"Location":"JASMINE  THAI CUSINE","Address":"19707 Rinaldi St","City":"Porter Ranch","State":"CA","Zip":"91326"},{"Location":"Musashi Japanese Cuisine","Address":"19713 Rinaldi St","City":"Porter Ranch","State":"CA","Zip":"91326"},{"Location":"PORTER RANCH MUSASHI","Address":"19713 Rinaldi St","City":"Porter Ranch","State":"CA","Zip":"91326"},{"Location":"SCOTTRADE 54J","Address":"11201 Tampa Ave","City":"Porter Ranch","State":"CA","Zip":"91326"},{"Location":"SHEPHERD OF THE HILL","Address":"19700 Rinaldi St","City":"Porter Ranch","State":"CA","Zip":"91326"},{"Location":"STIX HOLDINGS 746","Address":"19751 Rinaldi St Stix","City":"Porter Ranch","State":"CA","Zip":"91326"},{"Location":"TGI FRIDAY'S #1943","Address":"19855 Rinaldi St","City":"Porter Ranch","State":"CA","Zip":"91326"},{"Location":"UNION BANK","Address":"19921 Rinaldi St","City":"Porter Ranch","State":"CA","Zip":"91326"},{"Location":"WHOLE FOODS MARKET #24","Address":"19340 Rinaldi St","City":"Porter Ranch","State":"CA","Zip":"91326"}]