[{"Location":"ABRAHAM","Address":"8936 Woodman Ave","City":"Arleta","State":"CA","Zip":"91331"},{"Location":"CARDONA","Address":"13189 Osborne St 104","City":"Arleta","State":"CA","Zip":"91331"},{"Location":"EL CAFETALITO RESTAURANT","Address":"8700 Woodman Ave 7","City":"Arleta","State":"CA","Zip":"91331"},{"Location":"ELEGANT BEAUTY SALON","Address":"13926 Nordhoff St","City":"Arleta","State":"CA","Zip":"91331"},{"Location":"ELIAS BARBERSHOP","Address":"8949 Woodman Ave","City":"Arleta","State":"CA","Zip":"91331"},{"Location":"JC WELDING","Address":"10717 San Fernando Rd","City":"Arleta","State":"CA","Zip":"91331"},{"Location":"LAS AMERICAS MEDICAL CLINIC","Address":"9128 Woodman Ave","City":"Arleta","State":"CA","Zip":"91331"},{"Location":"LAURAS RESTAURANT","Address":"9057 Woodman Ave","City":"Arleta","State":"CA","Zip":"91331"},{"Location":"LOS ANGELES DEPT OF WATER","Address":"8801 Arleta Ave","City":"Arleta","State":"CA","Zip":"91331"},{"Location":"LOS SIETE MARES","Address":"8859 Woodman Ave","City":"Arleta","State":"CA","Zip":"91331"},{"Location":"MILES CHEMICAL","Address":"12801 Rangoon St","City":"Arleta","State":"CA","Zip":"91331"},{"Location":"OSBORN BEAUTY SALON","Address":"13215 Osborne St B","City":"Arleta","State":"CA","Zip":"91331"},{"Location":"SHOWROOM BEAUTY","Address":"8915 Woodman Ave","City":"Arleta","State":"CA","Zip":"91331"},{"Location":"TACOS Y MARISCOS VALLARTA","Address":"8730 Woodman Ave","City":"Arleta","State":"CA","Zip":"91331"},{"Location":"TARGET","Address":"9725 Laurel Canyon Blvd","City":"Arleta","State":"CA","Zip":"91331"},{"Location":"VALLARTA SUPERMARKETS NO 26","Address":"9011 Woodman Ave","City":"Arleta","State":"CA","Zip":"91331"},{"Location":"VALLEY PATIENTS","Address":"8953 Woodman Ave","City":"Arleta","State":"CA","Zip":"91331"},{"Location":"VAN NUYS","Address":"14429 Van Nuys Blvd","City":"Arleta","State":"CA","Zip":"91331"},{"Location":"#1 PIZZA","Address":"10750 Glenoaks Blvd 3","City":"Pacoima","State":"CA","Zip":"91331"},{"Location":"ALYS RESTAURANT","Address":"13753 Van Nuys Blvd","City":"Pacoima","State":"CA","Zip":"91331"},{"Location":"AMERICAN AIRPORT CORP","Address":"12653 Osborne St","City":"Pacoima","State":"CA","Zip":"91331"},{"Location":"ANDREWS LAWN MOWER SHOP","Address":"13613 Van Nuys Blvd","City":"Pacoima","State":"CA","Zip":"91331"},{"Location":"ANGEL CITY AIR","Address":"12653 Osborne St","City":"Pacoima","State":"CA","Zip":"91331"},{"Location":"ANTONIOS TACOS KABAOB","Address":"13630 Van Nuys Blvd","City":"Pacoima","State":"CA","Zip":"91331"},{"Location":"BLVD BARBER SHOP","Address":"12965 Van Nuys Blvd","City":"Pacoima","State":"CA","Zip":"91331"},{"Location":"BOTANICA SAN SIMON","Address":"13412 Van Nuys Blvd","City":"Pacoima","State":"CA","Zip":"91331"},{"Location":"BURGER KING","Address":"12781 Van Nuys Blvd","City":"Pacoima","State":"CA","Zip":"91331"},{"Location":"C A SIGNS","Address":"10280 Glenoaks Blvd","City":"Pacoima","State":"CA","Zip":"91331"},{"Location":"COMPLETE CUTS","Address":"13219a Van Nuys Blvd A","City":"Pacoima","State":"CA","Zip":"91331"},{"Location":"CPILG","Address":"10220 Norris Ave","City":"Pacoima","State":"CA","Zip":"91331"},{"Location":"DEPARTMENT OF JUSTICE","Address":"12653 Osborne St 33","City":"Pacoima","State":"CA","Zip":"91331"},{"Location":"DIARITZAS SOCCER CENTER","Address":"12969 Van Nuys Blvd","City":"Pacoima","State":"CA","Zip":"91331"},{"Location":"DUDLEY CHAPMAN","Address":"11076 Norris Ave","City":"Pacoima","State":"CA","Zip":"91331"},{"Location":"EL CANELO 2","Address":"11555 Glenoaks Blvd G7","City":"Pacoima","State":"CA","Zip":"91331"},{"Location":"EL PASEO NIGHTCLUB","Address":"13293 Van Nuys Blvd","City":"Pacoima","State":"CA","Zip":"91331"},{"Location":"ELIAS BARBER SHOP","Address":"13486 Van Nuys Blvd 3","City":"Pacoima","State":"CA","Zip":"91331"},{"Location":"FED EX GROUND","Address":"12500 Branford St","City":"Pacoima","State":"CA","Zip":"91331"},{"Location":"FIREHOUSE","Address":"13035 Van Nuys Blvd","City":"Pacoima","State":"CA","Zip":"91331"},{"Location":"GENESIS COFFEE SHOP","Address":"10983 Glenoaks Blvd","City":"Pacoima","State":"CA","Zip":"91331"},{"Location":"GREATER COMMUNITY MISSIONARY","Address":"11066 Norris Ave","City":"Pacoima","State":"CA","Zip":"91331"},{"Location":"GREEN TEAM PARTNERS","Address":"9908 San Fernando Rd","City":"Pacoima","State":"CA","Zip":"91331"},{"Location":"J AND J TIRES AND WHEELS","Address":"10935 San Fernando Rd","City":"Pacoima","State":"CA","Zip":"91331"},{"Location":"KALEY PARTY SUPPLIES","Address":"10062 Laurel Canyon Blvd","City":"Pacoima","State":"CA","Zip":"91331"},{"Location":"KIPKA","Address":"13730 Desmond St","City":"Pacoima","State":"CA","Zip":"91331"},{"Location":"KREATE INC","Address":"12831 Muscatine St","City":"Pacoima","State":"CA","Zip":"91331"},{"Location":"LA COUNTY FIRE DEPT TECH OPS","Address":"12605 Osborne St","City":"Pacoima","State":"CA","Zip":"91331"},{"Location":"LAS CUARTO MILPAS","Address":"10707 Glenoaks Blvd","City":"Pacoima","State":"CA","Zip":"91331"},{"Location":"LEXINGTON ACQUISITIONS INC","Address":"12660 Branford St","City":"Pacoima","State":"CA","Zip":"91331"},{"Location":"LIDIAS BEAUTY SALON","Address":"13513 Van Nuys Blvd","City":"Pacoima","State":"CA","Zip":"91331"},{"Location":"LUNAS RADIATOR MOFLES","Address":"10677 San Fernando Rd","City":"Pacoima","State":"CA","Zip":"91331"},{"Location":"M & R PLATING CORP","Address":"12375 Montague St","City":"Pacoima","State":"CA","Zip":"91331"},{"Location":"MAAC HAIR STUDIO","Address":"10095 Laurel Canyon Blvd","City":"Pacoima","State":"CA","Zip":"91331"},{"Location":"MARGOTS HAIRSTYLING LLC","Address":"9757 Laurel Canyon Blvd","City":"Pacoima","State":"CA","Zip":"91331"},{"Location":"MARQUEZ BARBER SHOP","Address":"13749 Van Nuys Blvd","City":"Pacoima","State":"CA","Zip":"91331"},{"Location":"MICHAEL & ROSE","Address":"10041 Laurel Canyon Blvd","City":"Pacoima","State":"CA","Zip":"91331"},{"Location":"MIRIAM BARBER BEAUTY","Address":"13684 Van Nuys Blvd","City":"Pacoima","State":"CA","Zip":"91331"},{"Location":"MONTANO CABINETS INC","Address":"12555 Brandford St","City":"Pacoima","State":"CA","Zip":"91331"},{"Location":"PAC CITY BREWERY","Address":"12780 Pierce St 5","City":"Pacoima","State":"CA","Zip":"91331"},{"Location":"PACOIMA MOTORS","Address":"11003 San Fernando Rd","City":"Pacoima","State":"CA","Zip":"91331"},{"Location":"PAPPAS AND TACOS","Address":"9752 Laurel Canyon Blvd","City":"Pacoima","State":"CA","Zip":"91331"},{"Location":"PARADISE DENTAL GROUP 2","Address":"10059 Laurel Canyon Blvd","City":"Pacoima","State":"CA","Zip":"91331"},{"Location":"PATTYS BEAUTY SALON","Address":"12800 Van Nuys Blvd 6","City":"Pacoima","State":"CA","Zip":"91331"},{"Location":"PHILLIPS PLYWOOD COMPANY INC","Address":"13599 Desmond St","City":"Pacoima","State":"CA","Zip":"91331"},{"Location":"R&A  AUTO REPAIR","Address":"13123 Paxcon St","City":"Pacoima","State":"CA","Zip":"91331"},{"Location":"RAMIREZ BOOKKEEPING & TA","Address":"13174 Van Nuys Blvd","City":"Pacoima","State":"CA","Zip":"91331"},{"Location":"REYES ROYALTY WATER","Address":"11212 Glenoaks Blvd","City":"Pacoima","State":"CA","Zip":"91331"},{"Location":"SOUTHERN CALIFORNIA GAS","Address":"12475 Branford St","City":"Pacoima","State":"CA","Zip":"91331"},{"Location":"STYLESVILLE BARBER SHOP","Address":"13161 Van Nuys Blvd","City":"Pacoima","State":"CA","Zip":"91331"},{"Location":"SYLMAR FAMILY POOL HALL","Address":"11035 San Fernando Rd","City":"Pacoima","State":"CA","Zip":"91331"},{"Location":"SYLVIA FLOWER MARKET","Address":"13272 Van Nuys Blvd","City":"Pacoima","State":"CA","Zip":"91331"},{"Location":"SYLVIA FLOWER SHOP NO. 2","Address":"13082 Van Nuys Blvd","City":"Pacoima","State":"CA","Zip":"91331"},{"Location":"THE FAMILY BAKERY & CAFE","Address":"13630 Van Nuys Blvd 103","City":"Pacoima","State":"CA","Zip":"91331"},{"Location":"TODA DIESEL","Address":"9870 San Fernando Rd 101","City":"Pacoima","State":"CA","Zip":"91331"},{"Location":"VALLARTA GENERAL OFFICES","Address":"10147 San Fernando Rd","City":"Pacoima","State":"CA","Zip":"91331"},{"Location":"VALLARTA SUPER MARKETS NO 18","Address":"10175 San Fernando Rd","City":"Pacoima","State":"CA","Zip":"91331"},{"Location":"VASQUEZ AUTO BODY","Address":"12316 Bralford St B","City":"Pacoima","State":"CA","Zip":"91331"},{"Location":"WESTCARE DENTAL","Address":"11256 Glenoaks Blvd","City":"Pacoima","State":"CA","Zip":"91331"},{"Location":"WILLIAMS AUTOS INC","Address":"13432 Van Nuys Blvd","City":"Pacoima","State":"CA","Zip":"91331"},{"Location":"WILLYS BARBER SHOP","Address":"10413 Laurel Canyon Blvd","City":"Pacoima","State":"CA","Zip":"91331"},{"Location":"WINGSTOP","Address":"12745 Van Nuys Blvd","City":"Pacoima","State":"CA","Zip":"91331"},{"Location":"WRIGHT","Address":"12460 Van Nuys Blvd","City":"Pacoima","State":"CA","Zip":"91331"}]