[{"Location":"99 PHO","Address":"7255 Reseda Blvd","City":"Reseda","State":"CA","Zip":"91335"},{"Location":"ABCD VALLEY RESTRAURANT","Address":"18044 Saticoy St A","City":"Reseda","State":"CA","Zip":"91335"},{"Location":"AS YOU ARE CHURCH","Address":"7855 Lindley Ave","City":"Reseda","State":"CA","Zip":"91335"},{"Location":"BECKYS BEAUTY SALON","Address":"18320 Sherman Way A","City":"Reseda","State":"CA","Zip":"91335"},{"Location":"BLADE BARBER SHOP","Address":"19302 Vanowen St","City":"Reseda","State":"CA","Zip":"91335"},{"Location":"BREWSTER FOODS","Address":"7121 Canby Ave","City":"Reseda","State":"CA","Zip":"91335"},{"Location":"CHIC NAILS","Address":"7550 Tampa Ave 3","City":"Reseda","State":"CA","Zip":"91335"},{"Location":"CIGARETTE ZONE","Address":"6860 Canby Ave 109","City":"Reseda","State":"CA","Zip":"91335"},{"Location":"CJS","Address":"7321 Reseda Blvd","City":"Reseda","State":"CA","Zip":"91335"},{"Location":"CLUB 360","Address":"18420 Hart St","City":"Reseda","State":"CA","Zip":"91335"},{"Location":"CLUB 360 II","Address":"18420 Hart St","City":"Reseda","State":"CA","Zip":"91335"},{"Location":"DANIELS BARBER SHOP","Address":"19325 Vanowen St","City":"Reseda","State":"CA","Zip":"91335"},{"Location":"DVELA LLC","Address":"7117 Lindley Ave","City":"Reseda","State":"CA","Zip":"91335"},{"Location":"EBI ENTERPRISES INC","Address":"18300 Vanowen St","City":"Reseda","State":"CA","Zip":"91335"},{"Location":"EL CARRUSEL BAKERY","Address":"6800 Reseda Blvd I","City":"Reseda","State":"CA","Zip":"91335"},{"Location":"EL INTCONPARABLE","Address":"19315 Saticoy St","City":"Reseda","State":"CA","Zip":"91335"},{"Location":"EL PROGRESSO MARKET","Address":"18121 Saticoy St","City":"Reseda","State":"CA","Zip":"91335"},{"Location":"FIRESTONE #011770","Address":"18051 Sherman Way","City":"Reseda","State":"CA","Zip":"91335"},{"Location":"GLORIA BEAUTY SALON","Address":"6800 Reseda Blvd E","City":"Reseda","State":"CA","Zip":"91335"},{"Location":"GMCM4U LLC","Address":"6947 Reseda Blvd 100","City":"Reseda","State":"CA","Zip":"91335"},{"Location":"HEADQUARTERS BARBER STUDIO","Address":"7027 Reseda Blvd","City":"Reseda","State":"CA","Zip":"91335"},{"Location":"HONDURAS RESTAURANT","Address":"6747 Tampa Ave","City":"Reseda","State":"CA","Zip":"91335"},{"Location":"IRVS AUTOMOTIVE SERVICE","Address":"7052 Reseda Blvd","City":"Reseda","State":"CA","Zip":"91335"},{"Location":"KOLBE HONDA","Address":"7514 Reseda Blvd","City":"Reseda","State":"CA","Zip":"91335"},{"Location":"LA PARRILLA FRESH","Address":"7455 Reseda Blvd A","City":"Reseda","State":"CA","Zip":"91335"},{"Location":"LANNI NAILS","Address":"7634 Tampa Ave","City":"Reseda","State":"CA","Zip":"91335"},{"Location":"LISTO EL POLLO","Address":"6800 Reseda Blvd","City":"Reseda","State":"CA","Zip":"91335"},{"Location":"LOS ANGELES CITY FD","Address":"9861 Reseda Blvd","City":"Reseda","State":"CA","Zip":"91335"},{"Location":"LUNA V BEAUTY SALON","Address":"7157 Lindley Ave","City":"Reseda","State":"CA","Zip":"91335"},{"Location":"MAGIC BEAUTY SALON","Address":"7403 Reseda Blvd","City":"Reseda","State":"CA","Zip":"91335"},{"Location":"MAJOR LEAGUE ACTING ACAD","Address":"7006 Reseda Blvd","City":"Reseda","State":"CA","Zip":"91335"},{"Location":"MARIANAS BEAUTY SALON","Address":"18125 Saticoy St E","City":"Reseda","State":"CA","Zip":"91335"},{"Location":"MARIAS BOTANICA","Address":"18039 Saticoy St","City":"Reseda","State":"CA","Zip":"91335"},{"Location":"MEDICAL MARIJUANA CARD","Address":"6853 Reseda Blvd","City":"Reseda","State":"CA","Zip":"91335"},{"Location":"MIS RAICES SAVADOREAN","Address":"7539 Reseda Blvd","City":"Reseda","State":"CA","Zip":"91335"},{"Location":"MOOSE LODGE RESEDA","Address":"17751 Saticoy St","City":"Reseda","State":"CA","Zip":"91335"},{"Location":"NAN DAJH KABOB DAGH","Address":"7163 Lindley Ave","City":"Reseda","State":"CA","Zip":"91335"},{"Location":"NEW VALLEY SPA","Address":"19255 Valley St","City":"Reseda","State":"CA","Zip":"91335"},{"Location":"NORTHRIDGE MEDICAL CENTER","Address":"18460 Cantara St","City":"Reseda","State":"CA","Zip":"91335"},{"Location":"OFFIR OFFICE SYSTEMS","Address":"6925 Canby Ave 107","City":"Reseda","State":"CA","Zip":"91335"},{"Location":"PANADARIAY RESTAURANT","Address":"7238 Reseda Blvd","City":"Reseda","State":"CA","Zip":"91335"},{"Location":"PHO VIET CALI","Address":"18111 Saticoy St","City":"Reseda","State":"CA","Zip":"91335"},{"Location":"PRECISSION AUTO BODY","Address":"7654 Tampa Ave","City":"Reseda","State":"CA","Zip":"91335"},{"Location":"RIO GRANDE RESTAURANT","Address":"18845 Sherman Way H","City":"Reseda","State":"CA","Zip":"91335"},{"Location":"ROSIES HAIR AND FACES","Address":"7217 Reseda Blvd 7221","City":"Reseda","State":"CA","Zip":"91335"},{"Location":"SIMPLE WIRELESS","Address":"7636 Tampa Ave","City":"Reseda","State":"CA","Zip":"91335"},{"Location":"SOO HYUN KIM DDS","Address":"7604 Reseda Blvd","City":"Reseda","State":"CA","Zip":"91335"},{"Location":"SPARAGNA AND SPARAGNA","Address":"7133 Etiwanda Ave","City":"Reseda","State":"CA","Zip":"91335"},{"Location":"STAR CUT","Address":"6648 Reseda Blvd","City":"Reseda","State":"CA","Zip":"91335"},{"Location":"STEVEN YANG DDS","Address":"6670 Reseda Blvd","City":"Reseda","State":"CA","Zip":"91335"},{"Location":"TACO HEAVEN LLC","Address":"7607 White Oak Ave","City":"Reseda","State":"CA","Zip":"91335"},{"Location":"THE CANBY","Address":"19312 Vanowen St","City":"Reseda","State":"CA","Zip":"91335"},{"Location":"VALLEY BARBER SHOP","Address":"7123 Lindley Ave","City":"Reseda","State":"CA","Zip":"91335"},{"Location":"VARGO PHYSICAL THERAPY 9","Address":"18039 Sherman Way","City":"Reseda","State":"CA","Zip":"91335"},{"Location":"VICTOR VICTORIA BEAUTY SALON","Address":"18460 Sherman Way","City":"Reseda","State":"CA","Zip":"91335"},{"Location":"WANG DO YA JI","Address":"7608 Reseda Blvd Jeong","City":"Reseda","State":"CA","Zip":"91335"},{"Location":"YEAGER","Address":"17715 Vanowen St","City":"Reseda","State":"CA","Zip":"91335"},{"Location":"ZIGS RESTAURANT","Address":"6821 White Oak Ave","City":"Reseda","State":"CA","Zip":"91335"},{"Location":"ALSTATE KEYSER AGENCY","Address":"6117 Reseda Blvd","City":"Tarzana","State":"CA","Zip":"91335"},{"Location":"COIN LAUNDRY","Address":"6109 Reseda Blvd","City":"Tarzana","State":"CA","Zip":"91335"},{"Location":"LA PAIN CLINIC","Address":"6224 Baird Ave","City":"Tarzana","State":"CA","Zip":"91335"},{"Location":"PURPLE CAT & CABBAGE","Address":"6101 Reseda Blvd","City":"Tarzana","State":"CA","Zip":"91335"},{"Location":"ROLADIN BAKERY","Address":"19365 Victory Blvd","City":"Tarzana","State":"CA","Zip":"91335"},{"Location":"WINGSTOP","Address":"6102 Reseda Blvd","City":"Tarzana","State":"CA","Zip":"91335"},{"Location":"99 PHO","Address":"7255 Reseda Blvd","City":"Reseda","State":"CA","Zip":"91335"},{"Location":"ABCD VALLEY RESTRAURANT","Address":"18044 Saticoy St A","City":"Reseda","State":"CA","Zip":"91335"},{"Location":"AS YOU ARE CHURCH","Address":"7855 Lindley Ave","City":"Reseda","State":"CA","Zip":"91335"},{"Location":"BECKYS BEAUTY SALON","Address":"18320 Sherman Way A","City":"Reseda","State":"CA","Zip":"91335"},{"Location":"BLADE BARBER SHOP","Address":"19302 Vanowen St","City":"Reseda","State":"CA","Zip":"91335"},{"Location":"BREWSTER FOODS","Address":"7121 Canby Ave","City":"Reseda","State":"CA","Zip":"91335"},{"Location":"CHIC NAILS","Address":"7550 Tampa Ave 3","City":"Reseda","State":"CA","Zip":"91335"},{"Location":"CIGARETTE ZONE","Address":"6860 Canby Ave 109","City":"Reseda","State":"CA","Zip":"91335"},{"Location":"CJS","Address":"7321 Reseda Blvd","City":"Reseda","State":"CA","Zip":"91335"},{"Location":"CLUB 360","Address":"18420 Hart St","City":"Reseda","State":"CA","Zip":"91335"},{"Location":"CLUB 360 II","Address":"18420 Hart St","City":"Reseda","State":"CA","Zip":"91335"},{"Location":"DANIELS BARBER SHOP","Address":"19325 Vanowen St","City":"Reseda","State":"CA","Zip":"91335"},{"Location":"DVELA LLC","Address":"7117 Lindley Ave","City":"Reseda","State":"CA","Zip":"91335"},{"Location":"EBI ENTERPRISES INC","Address":"18300 Vanowen St","City":"Reseda","State":"CA","Zip":"91335"},{"Location":"EL CARRUSEL BAKERY","Address":"6800 Reseda Blvd I","City":"Reseda","State":"CA","Zip":"91335"},{"Location":"EL INTCONPARABLE","Address":"19315 Saticoy St","City":"Reseda","State":"CA","Zip":"91335"},{"Location":"EL PROGRESSO MARKET","Address":"18121 Saticoy St","City":"Reseda","State":"CA","Zip":"91335"},{"Location":"FIRESTONE #011770","Address":"18051 Sherman Way","City":"Reseda","State":"CA","Zip":"91335"},{"Location":"GLORIA BEAUTY SALON","Address":"6800 Reseda Blvd E","City":"Reseda","State":"CA","Zip":"91335"},{"Location":"GMCM4U LLC","Address":"6947 Reseda Blvd 100","City":"Reseda","State":"CA","Zip":"91335"},{"Location":"HEADQUARTERS BARBER STUDIO","Address":"7027 Reseda Blvd","City":"Reseda","State":"CA","Zip":"91335"},{"Location":"HONDURAS RESTAURANT","Address":"6747 Tampa Ave","City":"Reseda","State":"CA","Zip":"91335"},{"Location":"IRVS AUTOMOTIVE SERVICE","Address":"7052 Reseda Blvd","City":"Reseda","State":"CA","Zip":"91335"},{"Location":"KOLBE HONDA","Address":"7514 Reseda Blvd","City":"Reseda","State":"CA","Zip":"91335"},{"Location":"LA PARRILLA FRESH","Address":"7455 Reseda Blvd A","City":"Reseda","State":"CA","Zip":"91335"},{"Location":"LANNI NAILS","Address":"7634 Tampa Ave","City":"Reseda","State":"CA","Zip":"91335"},{"Location":"LISTO EL POLLO","Address":"6800 Reseda Blvd","City":"Reseda","State":"CA","Zip":"91335"},{"Location":"LOS ANGELES CITY FD","Address":"9861 Reseda Blvd","City":"Reseda","State":"CA","Zip":"91335"},{"Location":"LUNA V BEAUTY SALON","Address":"7157 Lindley Ave","City":"Reseda","State":"CA","Zip":"91335"},{"Location":"MAGIC BEAUTY SALON","Address":"7403 Reseda Blvd","City":"Reseda","State":"CA","Zip":"91335"},{"Location":"MAJOR LEAGUE ACTING ACAD","Address":"7006 Reseda Blvd","City":"Reseda","State":"CA","Zip":"91335"},{"Location":"MARIANAS BEAUTY SALON","Address":"18125 Saticoy St E","City":"Reseda","State":"CA","Zip":"91335"},{"Location":"MARIAS BOTANICA","Address":"18039 Saticoy St","City":"Reseda","State":"CA","Zip":"91335"},{"Location":"MEDICAL MARIJUANA CARD","Address":"6853 Reseda Blvd","City":"Reseda","State":"CA","Zip":"91335"},{"Location":"MIS RAICES SAVADOREAN","Address":"7539 Reseda Blvd","City":"Reseda","State":"CA","Zip":"91335"},{"Location":"MOOSE LODGE RESEDA","Address":"17751 Saticoy St","City":"Reseda","State":"CA","Zip":"91335"},{"Location":"NAN DAJH KABOB DAGH","Address":"7163 Lindley Ave","City":"Reseda","State":"CA","Zip":"91335"},{"Location":"NEW VALLEY SPA","Address":"19255 Valley St","City":"Reseda","State":"CA","Zip":"91335"},{"Location":"NORTHRIDGE MEDICAL CENTER","Address":"18460 Cantara St","City":"Reseda","State":"CA","Zip":"91335"},{"Location":"OFFIR OFFICE SYSTEMS","Address":"6925 Canby Ave 107","City":"Reseda","State":"CA","Zip":"91335"},{"Location":"PANADARIAY RESTAURANT","Address":"7238 Reseda Blvd","City":"Reseda","State":"CA","Zip":"91335"},{"Location":"PHO VIET CALI","Address":"18111 Saticoy St","City":"Reseda","State":"CA","Zip":"91335"},{"Location":"PRECISSION AUTO BODY","Address":"7654 Tampa Ave","City":"Reseda","State":"CA","Zip":"91335"},{"Location":"RIO GRANDE RESTAURANT","Address":"18845 Sherman Way H","City":"Reseda","State":"CA","Zip":"91335"},{"Location":"ROSIES HAIR AND FACES","Address":"7217 Reseda Blvd 7221","City":"Reseda","State":"CA","Zip":"91335"},{"Location":"SIMPLE WIRELESS","Address":"7636 Tampa Ave","City":"Reseda","State":"CA","Zip":"91335"},{"Location":"SOO HYUN KIM DDS","Address":"7604 Reseda Blvd","City":"Reseda","State":"CA","Zip":"91335"},{"Location":"SPARAGNA AND SPARAGNA","Address":"7133 Etiwanda Ave","City":"Reseda","State":"CA","Zip":"91335"},{"Location":"STAR CUT","Address":"6648 Reseda Blvd","City":"Reseda","State":"CA","Zip":"91335"},{"Location":"STEVEN YANG DDS","Address":"6670 Reseda Blvd","City":"Reseda","State":"CA","Zip":"91335"},{"Location":"TACO HEAVEN LLC","Address":"7607 White Oak Ave","City":"Reseda","State":"CA","Zip":"91335"},{"Location":"THE CANBY","Address":"19312 Vanowen St","City":"Reseda","State":"CA","Zip":"91335"},{"Location":"VALLEY BARBER SHOP","Address":"7123 Lindley Ave","City":"Reseda","State":"CA","Zip":"91335"},{"Location":"VARGO PHYSICAL THERAPY 9","Address":"18039 Sherman Way","City":"Reseda","State":"CA","Zip":"91335"},{"Location":"VICTOR VICTORIA BEAUTY SALON","Address":"18460 Sherman Way","City":"Reseda","State":"CA","Zip":"91335"},{"Location":"WANG DO YA JI","Address":"7608 Reseda Blvd Jeong","City":"Reseda","State":"CA","Zip":"91335"},{"Location":"YEAGER","Address":"17715 Vanowen St","City":"Reseda","State":"CA","Zip":"91335"},{"Location":"ZIGS RESTAURANT","Address":"6821 White Oak Ave","City":"Reseda","State":"CA","Zip":"91335"},{"Location":"ALSTATE KEYSER AGENCY","Address":"6117 Reseda Blvd","City":"Tarzana","State":"CA","Zip":"91335"},{"Location":"COIN LAUNDRY","Address":"6109 Reseda Blvd","City":"Tarzana","State":"CA","Zip":"91335"},{"Location":"LA PAIN CLINIC","Address":"6224 Baird Ave","City":"Tarzana","State":"CA","Zip":"91335"},{"Location":"PURPLE CAT & CABBAGE","Address":"6101 Reseda Blvd","City":"Tarzana","State":"CA","Zip":"91335"},{"Location":"ROLADIN BAKERY","Address":"19365 Victory Blvd","City":"Tarzana","State":"CA","Zip":"91335"},{"Location":"WINGSTOP","Address":"6102 Reseda Blvd","City":"Tarzana","State":"CA","Zip":"91335"}]