[{"Location":"DESMONDS STUDIO PRODUCTIONS","Address":"12000 Paxton St","City":"Kagel Canyon","State":"CA","Zip":"91342"},{"Location":"ITT TECHNICAL INSTITUTE","Address":"12669 Encinitas Ave","City":"Kagel Canyon","State":"CA","Zip":"91342"},{"Location":"ALICIA HAIR CREATIONS","Address":"13643 1%2F2 Foothill Blvd","City":"Sylmar","State":"CA","Zip":"91342"},{"Location":"ALLIED BEVERAGES1","Address":"13235 Golden State Rd","City":"Sylmar","State":"CA","Zip":"91342"},{"Location":"ALLIED DEMOLITION","Address":"12328 Gladstone Ave 5","City":"Sylmar","State":"CA","Zip":"91342"},{"Location":"AMANDA 2 BARBERSHOP","Address":"12431 San Fernando Rd E","City":"Sylmar","State":"CA","Zip":"91342"},{"Location":"AMANDA BARBERSHOP","Address":"12539 San Fernando Rd","City":"Sylmar","State":"CA","Zip":"91342"},{"Location":"AMBERFRENT INC","Address":"12087 Lopez Rd","City":"Sylmar","State":"CA","Zip":"91342"},{"Location":"ANA MARIAS MEXICAN RESTAURANT","Address":"12641 San Fernando Rd","City":"Sylmar","State":"CA","Zip":"91342"},{"Location":"ANGELES NATIONAL FOREST","Address":"12371 Little Tujunga Canyon Rd","City":"Sylmar","State":"CA","Zip":"91342"},{"Location":"ANHEUSER-BUSCH #70400","Address":"15420 Cobalt St","City":"Sylmar","State":"CA","Zip":"91342"},{"Location":"ANTHONY INTERNATIONAL","Address":"12391 Montero Ave","City":"Sylmar","State":"CA","Zip":"91342"},{"Location":"BEAUTIFUL NAILS","Address":"13947 Foothill Blvd 109","City":"Sylmar","State":"CA","Zip":"91342"},{"Location":"BENIAMIN GULASARIAN","Address":"13127 San Fernando Rd 106","City":"Sylmar","State":"CA","Zip":"91342"},{"Location":"BEST APPLIANCES INSTALLATIONS","Address":"12473 Gladstone Ave M","City":"Sylmar","State":"CA","Zip":"91342"},{"Location":"BIRRERIA EL CAMARONERO","Address":"13565 Glenoaks Blvd","City":"Sylmar","State":"CA","Zip":"91342"},{"Location":"CALABASAS HOUSING FOUNDATION","Address":"13290 Brley Avenue","City":"Sylmar","State":"CA","Zip":"91342"},{"Location":"CARUSOS PIZZA","Address":"13735 Foothill Blvd","City":"Sylmar","State":"CA","Zip":"91342"},{"Location":"CASA TORRES","Address":"14117 Hubbar St H","City":"Sylmar","State":"CA","Zip":"91342"},{"Location":"CIRCLE VENSION CONTRUCTION","Address":"15751 Roxford St L","City":"Sylmar","State":"CA","Zip":"91342"},{"Location":"CITY OF LA DEPT OF WATER","Address":"13101 Sepulveda Blvd","City":"Sylmar","State":"CA","Zip":"91342"},{"Location":"CLI INC","Address":"13010 San Fernando Rd 11","City":"Sylmar","State":"CA","Zip":"91342"},{"Location":"COCA COLA REFRESHMENTS","Address":"12925 Bradley Ave","City":"Sylmar","State":"CA","Zip":"91342"},{"Location":"CRAZY GOODY","Address":"12940 Foothill Blvd A","City":"Sylmar","State":"CA","Zip":"91342"},{"Location":"CUSTOM INSTALLERS INC","Address":"13020 San Fernando Rd A","City":"Sylmar","State":"CA","Zip":"91342"},{"Location":"DGE","Address":"13300 Ralston Ave","City":"Sylmar","State":"CA","Zip":"91342"},{"Location":"DGE 2","Address":"13326 Ralston Ave","City":"Sylmar","State":"CA","Zip":"91342"},{"Location":"EL CARISO GOLF COURSE","Address":"13100 Eldridge Ave","City":"Sylmar","State":"CA","Zip":"91342"},{"Location":"EL VAQUERO RESTAURANT","Address":"13066 Glenoaks Blvd","City":"Sylmar","State":"CA","Zip":"91342"},{"Location":"ESTRADA HARDWARE COMPANY","Address":"15853 Monte St","City":"Sylmar","State":"CA","Zip":"91342"},{"Location":"FASHION 2000 HAIR & NAIL","Address":"12643 Glenoaks Blvd","City":"Sylmar","State":"CA","Zip":"91342"},{"Location":"FAST CUTS","Address":"15140 Bledsoe St Steb","City":"Sylmar","State":"CA","Zip":"91342"},{"Location":"FAT BURGER","Address":"11984 Foothill Blvd","City":"Sylmar","State":"CA","Zip":"91342"},{"Location":"FIDDLERS","Address":"12721 Glenoaks Blvd","City":"Sylmar","State":"CA","Zip":"91342"},{"Location":"FOOTHILL TRANSMISSION","Address":"13940 Foothill Blvd 101","City":"Sylmar","State":"CA","Zip":"91342"},{"Location":"GOLDAK INC","Address":"15835 Monte St 104","City":"Sylmar","State":"CA","Zip":"91342"},{"Location":"HAIR ICON BARBER SHOP","Address":"11916 Foothill Blvd","City":"Sylmar","State":"CA","Zip":"91342"},{"Location":"HAIRTASTICS","Address":"14520 Polk St","City":"Sylmar","State":"CA","Zip":"91342"},{"Location":"HERVALIFE","Address":"13903 Foothill Blvd C","City":"Sylmar","State":"CA","Zip":"91342"},{"Location":"HOLLYWOOD RENTALS","Address":"12800 Foothill Blvd","City":"Sylmar","State":"CA","Zip":"91342"},{"Location":"HOLTON CONSERVATION CAMP CC#16","Address":"12653n Little Tujunga Canyon Rd","City":"Sylmar","State":"CA","Zip":"91342"},{"Location":"HOPE FAMILY GARDEN CONFERENCE","Address":"12249 Lopez Canyon Rd","City":"Sylmar","State":"CA","Zip":"91342"},{"Location":"HOPE FAMILY GARDEN PALM COURT","Address":"12249 Lopez Canyon Rd","City":"Sylmar","State":"CA","Zip":"91342"},{"Location":"HOPE GARDEN - SEQUOIA A","Address":"12249 Lopez Canyon Rd","City":"Sylmar","State":"CA","Zip":"91342"},{"Location":"HOPE GARDEN FAMILY CENTER","Address":"12249 Lopez Canyon Rd","City":"Sylmar","State":"CA","Zip":"91342"},{"Location":"HOPE GARDENS - SEQUOIA-B","Address":"12249 Lopez Canyon Rd","City":"Sylmar","State":"CA","Zip":"91342"},{"Location":"INLINE DISTRIBUTING COMPANY","Address":"14093 Balboa Blvd","City":"Sylmar","State":"CA","Zip":"91342"},{"Location":"ISU PETASYS","Address":"12930 Bradley Ave","City":"Sylmar","State":"CA","Zip":"91342"},{"Location":"J Z LAWNMOWER SHOP","Address":"14042 Hubbard St","City":"Sylmar","State":"CA","Zip":"91342"},{"Location":"JIFFY LUBE 3242","Address":"15000 Olive View Dr","City":"Sylmar","State":"CA","Zip":"91342"},{"Location":"KRISPY KLEAN BARBER SHOP","Address":"13060 Glenoaks Blvd 103","City":"Sylmar","State":"CA","Zip":"91342"},{"Location":"L3 COMMUNICATIONS OCEAN SYSTEM","Address":"15825 Roxford St","City":"Sylmar","State":"CA","Zip":"91342"},{"Location":"LA MISSIION COLL SHRF STATION1","Address":"13356 Eldridge Ave","City":"Sylmar","State":"CA","Zip":"91342"},{"Location":"LOS EQUIPALES","Address":"15963 Yarni St","City":"Sylmar","State":"CA","Zip":"91342"},{"Location":"LOS TRESHERMAN EXPRESS","Address":"13800 Foothill Blvd","City":"Sylmar","State":"CA","Zip":"91342"},{"Location":"LOYALTY PAINTING","Address":"12896 Bradley Ave F","City":"Sylmar","State":"CA","Zip":"91342"},{"Location":"MAD SCIENCE OF LA","Address":"15815 Monte St 101","City":"Sylmar","State":"CA","Zip":"91342"},{"Location":"MB2 RACEWAY","Address":"13943 Balboa Blvd","City":"Sylmar","State":"CA","Zip":"91342"},{"Location":"MCDONALDS","Address":"12950 Foothill Blvd","City":"Sylmar","State":"CA","Zip":"91342"},{"Location":"MND ENGINEERING","Address":"12473 Gladstone Ave R","City":"Sylmar","State":"CA","Zip":"91342"},{"Location":"MODERN SPA AND HAIR","Address":"12737 Glenoaks Blvd","City":"Sylmar","State":"CA","Zip":"91342"},{"Location":"MOOSE LODGE","Address":"12178 San Fernando Rd","City":"Sylmar","State":"CA","Zip":"91342"},{"Location":"OLIVE VIEW FEDRAL CREDIT UNION","Address":"14445 Olive View Dr P","City":"Sylmar","State":"CA","Zip":"91342"},{"Location":"OLIVE VIEW UCLA IMAGING CENTER","Address":"14445 Olive View Dr","City":"Sylmar","State":"CA","Zip":"91342"},{"Location":"ON AND OFF SITE SHREDDING","Address":"12329 Gladstone Ave","City":"Sylmar","State":"CA","Zip":"91342"},{"Location":"PEARSON DENTAL SUPPLIES","Address":"13161 Telfair Ave","City":"Sylmar","State":"CA","Zip":"91342"},{"Location":"PETERS MARTIAL ARTS CTR","Address":"13229 Gladstone Ave A1","City":"Sylmar","State":"CA","Zip":"91342"},{"Location":"PHOENIX HOUSE","Address":"11600 Eldridge Ave","City":"Sylmar","State":"CA","Zip":"91342"},{"Location":"PIZZA HUT 26144","Address":"12737 Glenoaks Blvd","City":"Sylmar","State":"CA","Zip":"91342"},{"Location":"PIZZA MAN","Address":"13796 Foothill Blvd 107","City":"Sylmar","State":"CA","Zip":"91342"},{"Location":"PPG AEROSPACE","Address":"12780 San Fernando Rd","City":"Sylmar","State":"CA","Zip":"91342"},{"Location":"PRECISION CRATES INC","Address":"12923 Foothill Blvd B","City":"Sylmar","State":"CA","Zip":"91342"},{"Location":"QUALLION LLC","Address":"12744 San Fernando Rd","City":"Sylmar","State":"CA","Zip":"91342"},{"Location":"RANCH SIDE CAFE","Address":"11355 Foothill Blvd","City":"Sylmar","State":"CA","Zip":"91342"},{"Location":"REPUBLIC SERVICE","Address":"14747 San Fernando Rd","City":"Sylmar","State":"CA","Zip":"91342"},{"Location":"RONCO INDUSTRIES","Address":"15401 Cobalt St","City":"Sylmar","State":"CA","Zip":"91342"},{"Location":"RUIZ","Address":"13566 Glenoaks Blvd","City":"Sylmar","State":"CA","Zip":"91342"},{"Location":"RUSH TRUCK CENTER","Address":"12985 Foothill Blvd","City":"Sylmar","State":"CA","Zip":"91342"},{"Location":"SAFARI NAIL SPA AND HAIR","Address":"13759 Foothill Blvd","City":"Sylmar","State":"CA","Zip":"91342"},{"Location":"SAN FERNANDO HOUSING CORP","Address":"14470 Bledsoe St","City":"Sylmar","State":"CA","Zip":"91342"},{"Location":"SAN FERNANDO NURSING","Address":"12260 Foothill Blvd","City":"Sylmar","State":"CA","Zip":"91342"},{"Location":"SANDOVAL","Address":"12741 Foothill Blvd 270","City":"Sylmar","State":"CA","Zip":"91342"},{"Location":"SECURITY PAVING","Address":"13170 Telfair Ave","City":"Sylmar","State":"CA","Zip":"91342"},{"Location":"SELMA FLOWER SHOP","Address":"13635 Foothill Blvd","City":"Sylmar","State":"CA","Zip":"91342"},{"Location":"SIGUE CORP","Address":"13291 Ralston Ave","City":"Sylmar","State":"CA","Zip":"91342"},{"Location":"SKANDIA BAKERY","Address":"12424 Gladstone Ave","City":"Sylmar","State":"CA","Zip":"91342"},{"Location":"SLS INC","Address":"14090 Balboa Blvd","City":"Sylmar","State":"CA","Zip":"91342"},{"Location":"SMW RESTORATION","Address":"12862 Foothill Blvd","City":"Sylmar","State":"CA","Zip":"91342"},{"Location":"SO CAL WATER JET","Address":"13030 Bradley Ave","City":"Sylmar","State":"CA","Zip":"91342"},{"Location":"SPARKLEAN LAUNDRY","Address":"12737 Glenoaks Blvd 20","City":"Sylmar","State":"CA","Zip":"91342"},{"Location":"SPECTROLAB INC.","Address":"12500 Gladstone Ave","City":"Sylmar","State":"CA","Zip":"91342"},{"Location":"ST JUDE MEDICAL","Address":"15900 Valley View Ct","City":"Sylmar","State":"CA","Zip":"91342"},{"Location":"STAR WAGGON #2","Address":"13334 Ralston Ave","City":"Sylmar","State":"CA","Zip":"91342"},{"Location":"STAR WAGGON #3","Address":"13334 Ralston Ave","City":"Sylmar","State":"CA","Zip":"91342"},{"Location":"STAR WAGGONS #1","Address":"13334 Ralston Ave","City":"Sylmar","State":"CA","Zip":"91342"},{"Location":"STAR WAGGONS #4","Address":"13334 Ralston Ave","City":"Sylmar","State":"CA","Zip":"91342"},{"Location":"STAR WAGGONS INC #10","Address":"13334 Ralston Ave","City":"Sylmar","State":"CA","Zip":"91342"},{"Location":"STAR WAGGONS INC #13","Address":"13334 Ralston Ave","City":"Sylmar","State":"CA","Zip":"91342"},{"Location":"STAR WAGGONS INC #5","Address":"13334 Ralston Ave","City":"Sylmar","State":"CA","Zip":"91342"},{"Location":"STAR WAGGONS INC #6","Address":"13334 Ralston Ave","City":"Sylmar","State":"CA","Zip":"91342"},{"Location":"STAR WAGGONS INC #7","Address":"13334 Ralston Ave","City":"Sylmar","State":"CA","Zip":"91342"},{"Location":"STAR WAGGONS INC #8","Address":"13334 Ralston Ave","City":"Sylmar","State":"CA","Zip":"91342"},{"Location":"STAR WAGGONS INC #9","Address":"13334 Ralston Ave","City":"Sylmar","State":"CA","Zip":"91342"},{"Location":"STAR WAGGONS INC 14","Address":"13334 Ralston Ave","City":"Sylmar","State":"CA","Zip":"91342"},{"Location":"STAR WAGGONS INC 15","Address":"13334 Ralston Ave","City":"Sylmar","State":"CA","Zip":"91342"},{"Location":"STAR WAGGONS%2C INC #11","Address":"13334 Ralston Ave","City":"Sylmar","State":"CA","Zip":"91342"},{"Location":"STAR WAGGONS%2C INC #12","Address":"13334 Ralston Ave","City":"Sylmar","State":"CA","Zip":"91342"},{"Location":"SUPERIOR GUNITE","Address":"12306 Van Nuys Blvd","City":"Sylmar","State":"CA","Zip":"91342"},{"Location":"SUVICHE SUSHI BAR","Address":"14117 Hubbard St A","City":"Sylmar","State":"CA","Zip":"91342"},{"Location":"SYLMAR BARBER AND BEAUTY","Address":"13733 Foothill Blvd","City":"Sylmar","State":"CA","Zip":"91342"},{"Location":"SYLMAR FIX","Address":"13790 Foothill Blvd 7","City":"Sylmar","State":"CA","Zip":"91342"},{"Location":"SYLMAR PROPERTIES","Address":"13851 Foothill Blvd","City":"Sylmar","State":"CA","Zip":"91342"},{"Location":"SYLMAR VILLAS","Address":"15878 Larkspur St E208","City":"Sylmar","State":"CA","Zip":"91342"},{"Location":"TACOS MI RINCON TAPATIO","Address":"13947 Foothill Blvd Suite","City":"Sylmar","State":"CA","Zip":"91342"},{"Location":"TANDUM CORPORATION","Address":"13947 Foothill Blvd 105","City":"Sylmar","State":"CA","Zip":"91342"},{"Location":"TODD PIPE AND SUPPLY 3","Address":"16348 Foothill Blvd","City":"Sylmar","State":"CA","Zip":"91342"},{"Location":"TONYS BARBERSHOP","Address":"13757 Foothill Blvd","City":"Sylmar","State":"CA","Zip":"91342"},{"Location":"TRI SIGNAL","Address":"15853 Monte St 101","City":"Sylmar","State":"CA","Zip":"91342"},{"Location":"TUTOR SA LIBA CORP","Address":"15901 Olden St","City":"Sylmar","State":"CA","Zip":"91342"},{"Location":"UCP HUBBARD HOUSE","Address":"14109 Hubbard St","City":"Sylmar","State":"CA","Zip":"91342"},{"Location":"UNION       RESCUE MISSION","Address":"12249 Lopez Canyon Rd","City":"Sylmar","State":"CA","Zip":"91342"},{"Location":"UNION  RESCUE  MISSION 1","Address":"12249 Lopez Canyon Rd","City":"Sylmar","State":"CA","Zip":"91342"},{"Location":"UNION RESCUE","Address":"12249 Lopez Canyon Rd","City":"Sylmar","State":"CA","Zip":"91342"},{"Location":"UNION RESCUE MISSION","Address":"12249 Lopez Canyon Rd R","City":"Sylmar","State":"CA","Zip":"91342"},{"Location":"UPS","Address":"12745 Arroyo St","City":"Sylmar","State":"CA","Zip":"91342"},{"Location":"URBAN TREE CARE","Address":"16251 Filbert St","City":"Sylmar","State":"CA","Zip":"91342"},{"Location":"US FOREST SERVICE-LITTLE T","Address":"12371 Little Tujunga Canyon Rd","City":"Sylmar","State":"CA","Zip":"91342"},{"Location":"US RENAL","Address":"12151 San Fernando Rd","City":"Sylmar","State":"CA","Zip":"91342"},{"Location":"USA FITNESS INC","Address":"13640 Foothill Blvd","City":"Sylmar","State":"CA","Zip":"91342"},{"Location":"USA FITNESS LLC 2","Address":"13784 Foothill Blvd","City":"Sylmar","State":"CA","Zip":"91342"},{"Location":"VALLARTA SUPERMARKET 7","Address":"13820 Foothill Blvd","City":"Sylmar","State":"CA","Zip":"91342"},{"Location":"VALLARTA TRAINING CENTER","Address":"13287 Ralston Ave","City":"Sylmar","State":"CA","Zip":"91342"},{"Location":"VFW 14071","Address":"14071 Polk St","City":"Sylmar","State":"CA","Zip":"91342"},{"Location":"VILLAIN NUTRITION","Address":"137 Foothill Blvd  #100","City":"Sylmar","State":"CA","Zip":"91342"},{"Location":"VILLALONGIN MARKET","Address":"13947 Foothill Blvd","City":"Sylmar","State":"CA","Zip":"91342"},{"Location":"VISION SCENERY INC 1","Address":"12450 Foothill Blvd","City":"Sylmar","State":"CA","Zip":"91342"},{"Location":"WEST COAST MEDICAL","Address":"12843 Foothill Blvd D","City":"Sylmar","State":"CA","Zip":"91342"},{"Location":"WORLD DONUTS","Address":"12637 Glenoaks Blvd","City":"Sylmar","State":"CA","Zip":"91342"}]