[{"Location":"A FARHADIAN DENTAL GROUP","Address":"10550 Sepulveda Blvd 115","City":"Mission Hills","State":"CA","Zip":"91345"},{"Location":"ACTION FISHING TACKLE","Address":"15338 Chatsworth St","City":"Mission Hills","State":"CA","Zip":"91345"},{"Location":"BISHOP ALEMANY","Address":"15241 Rinaldi St","City":"Mission Hills","State":"CA","Zip":"91345"},{"Location":"CRESCENT HEALTHCARE","Address":"11550 Indian Hills Rd 271","City":"Mission Hills","State":"CA","Zip":"91345"},{"Location":"DUON GUSTO","Address":"15535 Devonshire St","City":"Mission Hills","State":"CA","Zip":"91345"},{"Location":"FMC 68040000","Address":"11550 Indian Hills Rd","City":"Mission Hills","State":"CA","Zip":"91345"},{"Location":"HOLY CROSS MEDICAL CENTER","Address":"15031 Rinaldi St","City":"Mission Hills","State":"CA","Zip":"91345"},{"Location":"HOLY CROSS ORTHO","Address":"11550 Indian Hills Rd 300","City":"Mission Hills","State":"CA","Zip":"91345"},{"Location":"JACK MORENO DDS","Address":"15531 Devonshire St","City":"Mission Hills","State":"CA","Zip":"91345"},{"Location":"KIDNEY CONSULTANT MEDICAL","Address":"11550 Indian Hls 371","City":"Mission Hills","State":"CA","Zip":"91345"},{"Location":"LAMINATE IT","Address":"15235 Brand Blvd A105","City":"Mission Hills","State":"CA","Zip":"91345"},{"Location":"MESTIZO","Address":"15418 Lassen St","City":"Mission Hills","State":"CA","Zip":"91345"},{"Location":"MI CARBONERO","Address":"10720 Sepulveda Blvd","City":"Mission Hills","State":"CA","Zip":"91345"},{"Location":"MISSION HILLS HYUNDAI","Address":"10240 Sepulveda Blvd","City":"Mission Hills","State":"CA","Zip":"91345"},{"Location":"NISSAN OF MISSION HILLS","Address":"11000 Sepulveda Blvd","City":"Mission Hills","State":"CA","Zip":"91345"},{"Location":"NORTH VALLEY EYE MEDICAL","Address":"11550 Indian Hills Rd 341","City":"Mission Hills","State":"CA","Zip":"91345"},{"Location":"NOVA STORAGE","Address":"14800 Rinaldi St","City":"Mission Hills","State":"CA","Zip":"91345"},{"Location":"OGANYAN ASSOCIATES INC","Address":"15306 Devonshire St 200","City":"Mission Hills","State":"CA","Zip":"91345"},{"Location":"PATIENTS AGAINST PAIN INC","Address":"15422 Devonshire St","City":"Mission Hills","State":"CA","Zip":"91345"},{"Location":"PAULS TAVERN","Address":"15425 Chatsworth St","City":"Mission Hills","State":"CA","Zip":"91345"},{"Location":"PIZZA HUT #26135","Address":"10719 Sepulveda Blvd","City":"Mission Hills","State":"CA","Zip":"91345"},{"Location":"PRESIDENTE I","Address":"11451 Sepulveda Blvd","City":"Mission Hills","State":"CA","Zip":"91345"},{"Location":"ROBERT C JIMENEZ","Address":"11100 Sepulveda Blvd 1","City":"Mission Hills","State":"CA","Zip":"91345"},{"Location":"SAFARI ROOM","Address":"15426 Devonshire St","City":"Mission Hills","State":"CA","Zip":"91345"},{"Location":"SAN FERNANDO SURGERY CENTER","Address":"11550 Indian Hills Rd 160","City":"Mission Hills","State":"CA","Zip":"91345"},{"Location":"A FARHADIAN DENTAL GROUP","Address":"10550 Sepulveda Blvd 115","City":"Mission Hills","State":"CA","Zip":"91345"},{"Location":"ACTION FISHING TACKLE","Address":"15338 Chatsworth St","City":"Mission Hills","State":"CA","Zip":"91345"},{"Location":"BISHOP ALEMANY","Address":"15241 Rinaldi St","City":"Mission Hills","State":"CA","Zip":"91345"},{"Location":"CRESCENT HEALTHCARE","Address":"11550 Indian Hills Rd 271","City":"Mission Hills","State":"CA","Zip":"91345"},{"Location":"DUON GUSTO","Address":"15535 Devonshire St","City":"Mission Hills","State":"CA","Zip":"91345"},{"Location":"FMC 68040000","Address":"11550 Indian Hills Rd","City":"Mission Hills","State":"CA","Zip":"91345"},{"Location":"HOLY CROSS MEDICAL CENTER","Address":"15031 Rinaldi St","City":"Mission Hills","State":"CA","Zip":"91345"},{"Location":"HOLY CROSS ORTHO","Address":"11550 Indian Hills Rd 300","City":"Mission Hills","State":"CA","Zip":"91345"},{"Location":"JACK MORENO DDS","Address":"15531 Devonshire St","City":"Mission Hills","State":"CA","Zip":"91345"},{"Location":"KIDNEY CONSULTANT MEDICAL","Address":"11550 Indian Hls 371","City":"Mission Hills","State":"CA","Zip":"91345"},{"Location":"LAMINATE IT","Address":"15235 Brand Blvd A105","City":"Mission Hills","State":"CA","Zip":"91345"},{"Location":"MESTIZO","Address":"15418 Lassen St","City":"Mission Hills","State":"CA","Zip":"91345"},{"Location":"MI CARBONERO","Address":"10720 Sepulveda Blvd","City":"Mission Hills","State":"CA","Zip":"91345"},{"Location":"MISSION HILLS HYUNDAI","Address":"10240 Sepulveda Blvd","City":"Mission Hills","State":"CA","Zip":"91345"},{"Location":"NISSAN OF MISSION HILLS","Address":"11000 Sepulveda Blvd","City":"Mission Hills","State":"CA","Zip":"91345"},{"Location":"NORTH VALLEY EYE MEDICAL","Address":"11550 Indian Hills Rd 341","City":"Mission Hills","State":"CA","Zip":"91345"},{"Location":"NOVA STORAGE","Address":"14800 Rinaldi St","City":"Mission Hills","State":"CA","Zip":"91345"},{"Location":"OGANYAN ASSOCIATES INC","Address":"15306 Devonshire St 200","City":"Mission Hills","State":"CA","Zip":"91345"},{"Location":"PATIENTS AGAINST PAIN INC","Address":"15422 Devonshire St","City":"Mission Hills","State":"CA","Zip":"91345"},{"Location":"PAULS TAVERN","Address":"15425 Chatsworth St","City":"Mission Hills","State":"CA","Zip":"91345"},{"Location":"PIZZA HUT #26135","Address":"10719 Sepulveda Blvd","City":"Mission Hills","State":"CA","Zip":"91345"},{"Location":"PRESIDENTE I","Address":"11451 Sepulveda Blvd","City":"Mission Hills","State":"CA","Zip":"91345"},{"Location":"ROBERT C JIMENEZ","Address":"11100 Sepulveda Blvd 1","City":"Mission Hills","State":"CA","Zip":"91345"},{"Location":"SAFARI ROOM","Address":"15426 Devonshire St","City":"Mission Hills","State":"CA","Zip":"91345"},{"Location":"SAN FERNANDO SURGERY CENTER","Address":"11550 Indian Hills Rd 160","City":"Mission Hills","State":"CA","Zip":"91345"}]