[{"Location":"3030 FITNESS","Address":"1201 Truman St A","City":"San Fernando","State":"CA","Zip":"91340"},{"Location":"ABEX EXHIBIT SYSTEMS","Address":"355 Parkside Dr","City":"San Fernando","State":"CA","Zip":"91340"},{"Location":"ACEY DECY","Address":"200 Parkside Dr","City":"San Fernando","State":"CA","Zip":"91340"},{"Location":"ACTION HAULING INC","Address":"721 Jessie St","City":"San Fernando","State":"CA","Zip":"91340"},{"Location":"AIRO INDUSTRIES","Address":"429 Jessie St","City":"San Fernando","State":"CA","Zip":"91340"},{"Location":"ALLSTATEAUTOBODY","Address":"1337 Truman St","City":"San Fernando","State":"CA","Zip":"91340"},{"Location":"AMERICAN LEGION 176","Address":"602 Pico St","City":"San Fernando","State":"CA","Zip":"91340"},{"Location":"AMERICARE MEDICAL DENTAL","Address":"326 N Maclay Ave","City":"San Fernando","State":"CA","Zip":"91340"},{"Location":"ARROYO BLDG MATERIALS","Address":"890 Arroyo St","City":"San Fernando","State":"CA","Zip":"91340"},{"Location":"BEN VILLEGAS","Address":"317 S Brand Blvd","City":"San Fernando","State":"CA","Zip":"91340"},{"Location":"BLUE LOVE MUSIC","Address":"1431 Truman St N","City":"San Fernando","State":"CA","Zip":"91340"},{"Location":"BRIDAL CITY","Address":"908 San Fernando Rd","City":"San Fernando","State":"CA","Zip":"91340"},{"Location":"BUSTOS AUTO BODY","Address":"1345 San Fernando Rd","City":"San Fernando","State":"CA","Zip":"91340"},{"Location":"CAL GROVE RENTALS","Address":"456 Glenoaks Blvd","City":"San Fernando","State":"CA","Zip":"91340"},{"Location":"CALIFORNIA DENTAL ASSO","Address":"2040 Glenoaks Blvd F","City":"San Fernando","State":"CA","Zip":"91340"},{"Location":"CARRILLOS TORTILLERIA","Address":"1242 Pico St","City":"San Fernando","State":"CA","Zip":"91340"},{"Location":"CENTRAL MARKET INC","Address":"11479 San Fernando Rd","City":"San Fernando","State":"CA","Zip":"91340"},{"Location":"CENTRO DENTAL FAMILIAR","Address":"907 Truman St","City":"San Fernando","State":"CA","Zip":"91340"},{"Location":"CHERNEY DDS RON","Address":"567 S Brand Blvd","City":"San Fernando","State":"CA","Zip":"91340"},{"Location":"CORK N JUG","Address":"901 Truman St","City":"San Fernando","State":"CA","Zip":"91340"},{"Location":"COURTHOUSE SUSHI","Address":"137 N Maclay Ave","City":"San Fernando","State":"CA","Zip":"91340"},{"Location":"CULICHE BOTANERO","Address":"1419 San Fernando Rd","City":"San Fernando","State":"CA","Zip":"91340"},{"Location":"DE LA MARE ENGINEERING","Address":"1908 1st St","City":"San Fernando","State":"CA","Zip":"91340"},{"Location":"ECOLOGY SMOG","Address":"1437 San Fernando Rd","City":"San Fernando","State":"CA","Zip":"91340"},{"Location":"EL HALCON COCKTAILS","Address":"911 San Fernando Rd","City":"San Fernando","State":"CA","Zip":"91340"},{"Location":"EL PESCADOR 2","Address":"1009 Truman St","City":"San Fernando","State":"CA","Zip":"91340"},{"Location":"FIRESTONE #004332","Address":"104 S Maclay Ave","City":"San Fernando","State":"CA","Zip":"91340"},{"Location":"FMC 31020000","Address":"451 S Brand Blvd","City":"San Fernando","State":"CA","Zip":"91340"},{"Location":"FMC 71810000","Address":"501 S Brand Blvd 1","City":"San Fernando","State":"CA","Zip":"91340"},{"Location":"GALPIN HONDA","Address":"11151 Laurel Canyon Blvd","City":"San Fernando","State":"CA","Zip":"91340"},{"Location":"GRACIANAS RESTAURANT","Address":"2006 Glenoaks Blvd","City":"San Fernando","State":"CA","Zip":"91340"},{"Location":"GREEN CUISINE","Address":"2021 1st St","City":"San Fernando","State":"CA","Zip":"91340"},{"Location":"H AND D SUPPLY","Address":"13571 Vaughn St","City":"San Fernando","State":"CA","Zip":"91340"},{"Location":"HEAVENLY PANCAKE","Address":"665 N Maclay Ave","City":"San Fernando","State":"CA","Zip":"91340"},{"Location":"I TECH WIRELESS","Address":"1023 N Maclay Ave","City":"San Fernando","State":"CA","Zip":"91340"},{"Location":"IBEW LOCAL 11","Address":"400 Chatsworth Dr","City":"San Fernando","State":"CA","Zip":"91340"},{"Location":"JACONA BARBER SHOP","Address":"812 San Fernando Rd","City":"San Fernando","State":"CA","Zip":"91340"},{"Location":"JAIDEN SHOES AND WESTERN WEAR","Address":"1048 San Fernando Rd","City":"San Fernando","State":"CA","Zip":"91340"},{"Location":"JB BRITCHES INC","Address":"1014 Griswold Ave","City":"San Fernando","State":"CA","Zip":"91340"},{"Location":"JRS AUTO BODY","Address":"1412 San Fernando Rd A","City":"San Fernando","State":"CA","Zip":"91340"},{"Location":"JUST TIRES #4862","Address":"707 Truman St","City":"San Fernando","State":"CA","Zip":"91340"},{"Location":"KATIES SALON","Address":"1133 Celis St","City":"San Fernando","State":"CA","Zip":"91340"},{"Location":"LA CASA COIFFURES","Address":"512 San Fernando Mission Blvd","City":"San Fernando","State":"CA","Zip":"91340"},{"Location":"LOS MOLCAJETES MEXICANOS","Address":"1701 Truman St","City":"San Fernando","State":"CA","Zip":"91340"},{"Location":"LOS TRES HERMANOS RESTAU","Address":"1049 San Fernando Rd","City":"San Fernando","State":"CA","Zip":"91340"},{"Location":"MAGALYS TEMALES","Address":"119 N Maclay Ave","City":"San Fernando","State":"CA","Zip":"91340"},{"Location":"MARGARITAS HAIR SALON","Address":"969 N Maclay Ave","City":"San Fernando","State":"CA","Zip":"91340"},{"Location":"MARTIN AUTO COLOR","Address":"614 San Fernando Rd","City":"San Fernando","State":"CA","Zip":"91340"},{"Location":"NORTH STAR REFRIGERATOR","Address":"11440 Ilex Ave","City":"San Fernando","State":"CA","Zip":"91340"},{"Location":"OROZCOS BEAUTY SALON","Address":"703 N Maclay Ave","City":"San Fernando","State":"CA","Zip":"91340"},{"Location":"PACIFIC WESTERN BANK","Address":"400 San Fernando Mission Blvd","City":"San Fernando","State":"CA","Zip":"91340"},{"Location":"PEPSI BOTTLING COMPANY","Address":"1200 Arroyo St","City":"San Fernando","State":"CA","Zip":"91340"},{"Location":"PIONEER TIRE","Address":"530 Glenoaks Blvd","City":"San Fernando","State":"CA","Zip":"91340"},{"Location":"PRODUCTO NATURALES","Address":"1057 N Maclay Ave","City":"San Fernando","State":"CA","Zip":"91340"},{"Location":"PROFESSIONAL PRINTING CENTERS","Address":"1203 San Fernando Rd","City":"San Fernando","State":"CA","Zip":"91340"},{"Location":"SALON DE BELLEZA","Address":"1029 San Fernando Rd","City":"San Fernando","State":"CA","Zip":"91340"},{"Location":"SAMS CLUB","Address":"12920 Foothill Blvd","City":"San Fernando","State":"CA","Zip":"91340"},{"Location":"SAN FERNANDO AUTOMOTIVE GROUP","Address":"700 San Fernando Rd","City":"San Fernando","State":"CA","Zip":"91340"},{"Location":"SAN FERNANDO POOL SUPPLY","Address":"1457 San Fernando Rd A","City":"San Fernando","State":"CA","Zip":"91340"},{"Location":"SECURITY SPECIALISTS","Address":"1500 Glenoaks Blvd","City":"San Fernando","State":"CA","Zip":"91340"},{"Location":"TECHNICAL HEATERS INC","Address":"710 Jessie St","City":"San Fernando","State":"CA","Zip":"91340"},{"Location":"TERIYAKI MADNESS INC","Address":"1240 Truman St 165","City":"San Fernando","State":"CA","Zip":"91340"},{"Location":"TMB","Address":"527 Park Ave","City":"San Fernando","State":"CA","Zip":"91340"},{"Location":"TONY'S PIZZA","Address":"2030 Glenoaks Blvd","City":"San Fernando","State":"CA","Zip":"91340"},{"Location":"TOOTH FAIRY DENTAL","Address":"556 S Brand Blvd","City":"San Fernando","State":"CA","Zip":"91340"},{"Location":"TRIUMPH PRECISION PRODUCTS","Address":"13636 Vaughn St","City":"San Fernando","State":"CA","Zip":"91340"},{"Location":"TRULINE PRINTING INC","Address":"1442 Truman St","City":"San Fernando","State":"CA","Zip":"91340"},{"Location":"URBANOS AUTO BODY PAINT INC","Address":"100 N Hubbard Ave","City":"San Fernando","State":"CA","Zip":"91340"},{"Location":"VALLEY WING PIT","Address":"1245 San Fernando Rd 100","City":"San Fernando","State":"CA","Zip":"91340"},{"Location":"VETERNS OF FOREIGN WARS","Address":"111 N Hagar St","City":"San Fernando","State":"CA","Zip":"91340"},{"Location":"VICTORIAS CASTLE FULL BE","Address":"1201 Truman St C","City":"San Fernando","State":"CA","Zip":"91340"},{"Location":"VICTORIAS FURNITURE","Address":"1033 San Fernando Rd","City":"San Fernando","State":"CA","Zip":"91340"},{"Location":"VIDA SPA","Address":"315 N Mackley Ave","City":"San Fernando","State":"CA","Zip":"91340"}]