[{"Location":"ACRES LLC","Address":"16312 Tupper St","City":"North Hills","State":"CA","Zip":"91343"},{"Location":"ARAPEL LLC","Address":"9518 Sepulveda Blvd","City":"North Hills","State":"CA","Zip":"91343"},{"Location":"BURAYE INSURANCE AGENCY","Address":"16161 Roscoe Blvd","City":"North Hills","State":"CA","Zip":"91343"},{"Location":"CIGARETTE EMPIRE","Address":"9048 Woodley Ave A","City":"North Hills","State":"CA","Zip":"91343"},{"Location":"DCMA LOS ANGELES","Address":"16111 Plummer St 10","City":"North Hills","State":"CA","Zip":"91343"},{"Location":"DENTAL PLANET","Address":"9050 Sepulveda Blvd","City":"North Hills","State":"CA","Zip":"91343"},{"Location":"EL CONEJO SOCCER","Address":"15310 Parthenia St","City":"North Hills","State":"CA","Zip":"91343"},{"Location":"EMMANUEL PANADERIA Y PUP","Address":"8710 1%2F2 Sepulveda Blvd","City":"North Hills","State":"CA","Zip":"91343"},{"Location":"EZ COLLATERAL AND LOAN","Address":"8700 Sepulveda Blvd","City":"North Hills","State":"CA","Zip":"91343"},{"Location":"FED EX EXPRESS","Address":"16633 Schoenborn St","City":"North Hills","State":"CA","Zip":"91343"},{"Location":"FRANCIS HAIR SALON","Address":"8951 Sepulveda Blvd","City":"North Hills","State":"CA","Zip":"91343"},{"Location":"FRATELLIS PIZZA","Address":"16153 Parthenia St","City":"North Hills","State":"CA","Zip":"91343"},{"Location":"GALPIN FORD","Address":"15421 Roscoe Blvd","City":"North Hills","State":"CA","Zip":"91343"},{"Location":"GALPIN FORD 1","Address":"15505 Roscoe Blvd 1","City":"North Hills","State":"CA","Zip":"91343"},{"Location":"GALPIN FORD ADMINISTRATI","Address":"8350 Langdon Ave","City":"North Hills","State":"CA","Zip":"91343"},{"Location":"GALPIN MOTORS","Address":"15505 Roscoe Blvd","City":"North Hills","State":"CA","Zip":"91343"},{"Location":"GALPIN MOTORS INC","Address":"15505 Roscoe Blvd","City":"North Hills","State":"CA","Zip":"91343"},{"Location":"GALPIN MUSTANG SHOWROOM","Address":"15555 Roscoe Blvd","City":"North Hills","State":"CA","Zip":"91343"},{"Location":"IMPERIAL TOYS","Address":"16641 Roscoe Pl","City":"North Hills","State":"CA","Zip":"91343"},{"Location":"JAE 805 INC","Address":"16200 Parthenia St","City":"North Hills","State":"CA","Zip":"91343"},{"Location":"LA CASA DE LAS GARNACHAS","Address":"8755 Parthenia Pl","City":"North Hills","State":"CA","Zip":"91343"},{"Location":"LATINOS","Address":"15261 Parthenia St","City":"North Hills","State":"CA","Zip":"91343"},{"Location":"LBIS PLATINUM SHARES HAI","Address":"15650 Nordhoff St 103","City":"North Hills","State":"CA","Zip":"91343"},{"Location":"LOS TRES HERMANOS INC","Address":"9504 Sepulveda Blvd","City":"North Hills","State":"CA","Zip":"91343"},{"Location":"MANILA SUNSET","Address":"9516 Sepulveda Blvd","City":"North Hills","State":"CA","Zip":"91343"},{"Location":"MARTIN SALON","Address":"15322 Parthenia St","City":"North Hills","State":"CA","Zip":"91343"},{"Location":"MENDEZ","Address":"8925 Sepulveda Blvd 113","City":"North Hills","State":"CA","Zip":"91343"},{"Location":"NORWOOD BAR AND LOUNGE","Address":"16200 Nordhoff St","City":"North Hills","State":"CA","Zip":"91343"},{"Location":"OUR LADY OF PEACE CHURCH","Address":"15444 Nordhoff St","City":"North Hills","State":"CA","Zip":"91343"},{"Location":"PALACE NAILS","Address":"16204 Parthenia St","City":"North Hills","State":"CA","Zip":"91343"},{"Location":"PENNY AND PEGGY PRESCHOOL","Address":"15300 Dearborn St 582","City":"North Hills","State":"CA","Zip":"91343"},{"Location":"POPEYES CHICKEN NO 3305","Address":"16159 Parthenia St","City":"North Hills","State":"CA","Zip":"91343"},{"Location":"RESTAURANTE NICARAGUENSE","Address":"15335 Parthenia St","City":"North Hills","State":"CA","Zip":"91343"},{"Location":"ROCK N SUSHI","Address":"16141 Boscoe Blvd","City":"North Hills","State":"CA","Zip":"91343"},{"Location":"SAN FERNANDO INCOME TAX","Address":"15257 Parthenia St","City":"North Hills","State":"CA","Zip":"91343"},{"Location":"SCHOOL TIME","Address":"9025 Langdon Ave","City":"North Hills","State":"CA","Zip":"91343"},{"Location":"SEPULVEDA VET CENTER","Address":"9737 Haskell Ave","City":"North Hills","State":"CA","Zip":"91343"},{"Location":"SKY TOBACCO","Address":"8702 Sepulveda Blvd","City":"North Hills","State":"CA","Zip":"91343"},{"Location":"SUBWAY","Address":"15753 Roscoe Blvd","City":"North Hills","State":"CA","Zip":"91343"},{"Location":"TACOS GUADALAJARA","Address":"15259 Parthenia St","City":"North Hills","State":"CA","Zip":"91343"},{"Location":"TIENDA MAMA SANTA","Address":"15343 Parthenia St","City":"North Hills","State":"CA","Zip":"91343"},{"Location":"ULTIMATE SALON","Address":"9508 Sepulveda Blvd","City":"North Hills","State":"CA","Zip":"91343"},{"Location":"USA FITNESS","Address":"8759 Sepulveda Blvd","City":"North Hills","State":"CA","Zip":"91343"},{"Location":"VALLARTA SUPERMARKET","Address":"9136 Sepulveda Blvd","City":"North Hills","State":"CA","Zip":"91343"},{"Location":"WITCHES BREW COCKTAILC","Address":"16151 Parthenia St","City":"North Hills","State":"CA","Zip":"91343"},{"Location":"CHA CHA CHICKEN","Address":"16912 Parthenia St","City":"Northridge","State":"CA","Zip":"91343"},{"Location":"FRIENDS OF THE FAMILY","Address":"16861 Parthenia St","City":"Northridge","State":"CA","Zip":"91343"},{"Location":"PLUSH POCKET PILLIARDS","Address":"16950 Parthenia St","City":"Northridge","State":"CA","Zip":"91343"},{"Location":"WESCARE HOME HEALTH PROVIDER","Address":"16921 Parthenia St 203","City":"Northridge","State":"CA","Zip":"91343"}]