[{"Location":"","Address":"17511 Mayerling St","City":"Granada Hills","State":"CA","Zip":"91344"},{"Location":"5 STAR HOOKAH","Address":"17527 Chatsworth St","City":"Granada Hills","State":"CA","Zip":"91344"},{"Location":"60 MINUTE TUNE GRANADA HILLS","Address":"11920 Balboa Blvd","City":"Granada Hills","State":"CA","Zip":"91344"},{"Location":"ASATOUR VARDANYAN","Address":"11130 Balboa Blvd A","City":"Granada Hills","State":"CA","Zip":"91344"},{"Location":"ASC SECURITY USA","Address":"10324 Balboa Blvd 210","City":"Granada Hills","State":"CA","Zip":"91344"},{"Location":"ASH BROS INC","Address":"17531 Chatsworth St","City":"Granada Hills","State":"CA","Zip":"91344"},{"Location":"BALBOA SUSHI","Address":"10375 Balboa Blvd","City":"Granada Hills","State":"CA","Zip":"91344"},{"Location":"BOSTON PRIVATE BANK IN TRUST","Address":"10820 Zelzah Ave","City":"Granada Hills","State":"CA","Zip":"91344"},{"Location":"BRIAN J KIM DDS MSD INC","Address":"10515 Balboa Blvd 280","City":"Granada Hills","State":"CA","Zip":"91344"},{"Location":"EL QUESO GRANDE","Address":"10152 Balboa Blvd","City":"Granada Hills","State":"CA","Zip":"91344"},{"Location":"FITNESS UNLIMITED","Address":"16836 Devonshire St","City":"Granada Hills","State":"CA","Zip":"91344"},{"Location":"GRANADA HILLS FIRE STATION 18","Address":"12050 Balboa Blvd","City":"Granada Hills","State":"CA","Zip":"91344"},{"Location":"GRANADA LAUNDRY","Address":"16143 Devonshire St","City":"Granada Hills","State":"CA","Zip":"91344"},{"Location":"H M KHOSH INC","Address":"11062 Balboa Blvd","City":"Granada Hills","State":"CA","Zip":"91344"},{"Location":"HOUSE OF GRILL","Address":"16263 San Fernando Mission Blvd","City":"Granada Hills","State":"CA","Zip":"91344"},{"Location":"ICON BARBERSHOP","Address":"17023 Chatsworth St","City":"Granada Hills","State":"CA","Zip":"91344"},{"Location":"IN THE ZONE BARBERSHOP","Address":"10703 White Oak Ave","City":"Granada Hills","State":"CA","Zip":"91344"},{"Location":"JUG JUG","Address":"11908 Balboa Blvd","City":"Granada Hills","State":"CA","Zip":"91344"},{"Location":"KNOLLWOOD COUNTRY CLUB","Address":"12024 Balboa Blvd","City":"Granada Hills","State":"CA","Zip":"91344"},{"Location":"KNOLLWOOD COUNTRY PRO SHOP","Address":"12040 Balboa Blvd","City":"Granada Hills","State":"CA","Zip":"91344"},{"Location":"MELITO BARBERSHOP","Address":"17651 Chatsworth St","City":"Granada Hills","State":"CA","Zip":"91344"},{"Location":"MERCADO BUENOS AIRES","Address":"16137 Devonshire St","City":"Granada Hills","State":"CA","Zip":"91344"},{"Location":"MOUNTAIN VIEW TIRE GRANADA","Address":"16855 Devonshire St","City":"Granada Hills","State":"CA","Zip":"91344"},{"Location":"MWD-JENSEN PLANT","Address":"13100 Balboa Blvd","City":"Granada Hills","State":"CA","Zip":"91344"},{"Location":"NEELY ACCOUNTANCY","Address":"17037 Chatsworth St 208a","City":"Granada Hills","State":"CA","Zip":"91344"},{"Location":"OHGRADYS","Address":"17633 Chatsworth St","City":"Granada Hills","State":"CA","Zip":"91344"},{"Location":"PAC ACTUARIL CONSULTING","Address":"10727 White Oak Ave 120","City":"Granada Hills","State":"CA","Zip":"91344"},{"Location":"PAMPAS CAFE","Address":"17003 Chatsworth St","City":"Granada Hills","State":"CA","Zip":"91344"},{"Location":"PARTY TIME  LIQUORS","Address":"11902 Balboa Blvd","City":"Granada Hills","State":"CA","Zip":"91344"},{"Location":"PHILIP CHATHAM","Address":"16801 Devonshire St","City":"Granada Hills","State":"CA","Zip":"91344"},{"Location":"PROGRESSIVE PYHSICAL","Address":"10725 Zelzah Ave B","City":"Granada Hills","State":"CA","Zip":"91344"},{"Location":"SAILS GROUP LA NEWCASTLE","Address":"11505 Newcastle Ave","City":"Granada Hills","State":"CA","Zip":"91344"},{"Location":"SILKY  NAILS","Address":"16156 San Fernando Mission Blvd","City":"Granada Hills","State":"CA","Zip":"91344"},{"Location":"SMILE ARTS DENTISTRY","Address":"17847 Chatfworth St","City":"Granada Hills","State":"CA","Zip":"91344"},{"Location":"SMISER PROPERTIES","Address":"17050 Chatsworth St","City":"Granada Hills","State":"CA","Zip":"91344"},{"Location":"SMOKE N STICKS","Address":"11027 Balboa Blvd","City":"Granada Hills","State":"CA","Zip":"91344"},{"Location":"STIX HOLDINGS 718","Address":"18101 Chatsworth St","City":"Granada Hills","State":"CA","Zip":"91344"},{"Location":"SUGAR SUITE","Address":"11858 Balboa Blvd A","City":"Granada Hills","State":"CA","Zip":"91344"},{"Location":"SUPERCUTS #8023","Address":"16927 Devonshire St","City":"Granada Hills","State":"CA","Zip":"91344"},{"Location":"TARGET","Address":"11133 Balboa Blvd","City":"Granada Hills","State":"CA","Zip":"91344"},{"Location":"TENDER GLOW","Address":"16909 San Fernando Mission Blvd","City":"Granada Hills","State":"CA","Zip":"91344"},{"Location":"THE TAX EXPERTS","Address":"17037 Chatsworth St 208b","City":"Granada Hills","State":"CA","Zip":"91344"},{"Location":"VFW POST 2323","Address":"17522 Chatsworth St","City":"Granada Hills","State":"CA","Zip":"91344"},{"Location":"VILLA HOU SING","Address":"10458 Amestoy Ave","City":"Granada Hills","State":"CA","Zip":"91344"},{"Location":"VILLA HOUSING","Address":"10454 Amestoy Ave","City":"Granada Hills","State":"CA","Zip":"91344"},{"Location":"VINCENZO'S PIZZA","Address":"11045 Balboa Blvd","City":"Granada Hills","State":"CA","Zip":"91344"},{"Location":"WELLS FARGO HOME MORTG","Address":"17945 Chatsworth St","City":"Granada Hills","State":"CA","Zip":"91344"},{"Location":"WORLD SERIES BATTING CAGE","Address":"11155 Woodley Ave","City":"Granada Hills","State":"CA","Zip":"91344"},{"Location":"YOSHIS AUTO BODY REPAIR","Address":"10725 Lindley Ave","City":"Granada Hills","State":"CA","Zip":"91344"},{"Location":"CRUNCH FITNESS MORENO VA","Address":"2250 Town Circle 1090","City":"Moreno Valley","State":"CA","Zip":"91344"}]