[{"Location":"3D INTERNATIONAL LLC","Address":"20724 Centre Pointe Pkwy","City":"Santa Clarita","State":"CA","Zip":"91350"},{"Location":"ALL STAR SPORTS GRILLS","Address":"28200 Bouquet Canyon Rd","City":"Santa Clarita","State":"CA","Zip":"91350"},{"Location":"AMERICAN TELEBROKERS","Address":"20707 Centre Pointe Pkwy","City":"Santa Clarita","State":"CA","Zip":"91350"},{"Location":"ANDY GUMP","Address":"26410 Summit Cir","City":"Santa Clarita","State":"CA","Zip":"91350"},{"Location":"ANYTIME FITNESS","Address":"26869 Bouquet Canyon Rd","City":"Santa Clarita","State":"CA","Zip":"91350"},{"Location":"AUTO BODY SPECIALISTS","Address":"25781 Springbrook Ave","City":"Santa Clarita","State":"CA","Zip":"91350"},{"Location":"BEAUTY SQUARE","Address":"21515 Soledad Canyon Rd 108","City":"Santa Clarita","State":"CA","Zip":"91350"},{"Location":"BELLA CUCINA RESTAURANT","Address":"27911 Seco Canyon Rd","City":"Santa Clarita","State":"CA","Zip":"91350"},{"Location":"BODYSHOP 661","Address":"26524 Ruether Ave","City":"Santa Clarita","State":"CA","Zip":"91350"},{"Location":"CALIFORNIA SMOG CENTER","Address":"26524 Ruether Ave 503","City":"Santa Clarita","State":"CA","Zip":"91350"},{"Location":"CARDELLIO DESIGN WORKX","Address":"20734 Centre Pointe Pkwy","City":"Santa Clarita","State":"CA","Zip":"91350"},{"Location":"CENTRE POINTE COLLISION","Address":"21150 Centre Pointe Pkwy","City":"Santa Clarita","State":"CA","Zip":"91350"},{"Location":"CHICAGO TITLE COMPANY","Address":"26415 Carl Boyer Dr 255","City":"Santa Clarita","State":"CA","Zip":"91350"},{"Location":"CITY OF SANTA CLARITA","Address":"27150 Bouquet Canyon Rd","City":"Santa Clarita","State":"CA","Zip":"91350"},{"Location":"DENTRISTY FOR KIDS AND ADULTS","Address":"26457 Bouquet Canyon Rd","City":"Santa Clarita","State":"CA","Zip":"91350"},{"Location":"DICK'S SPORTING GOODS #935","Address":"26591 Carl Boyer Dr","City":"Santa Clarita","State":"CA","Zip":"91350"},{"Location":"DOMESTIC VIOLENCE CENTER","Address":"27610 Spandau Dr","City":"Santa Clarita","State":"CA","Zip":"91350"},{"Location":"DOWNTOWN PHILLY CHEESSTE","Address":"26570 Bouquet Canyon Rd","City":"Santa Clarita","State":"CA","Zip":"91350"},{"Location":"DYNASTY NAILS SALON","Address":"26566 Bouquet Canyon Rd","City":"Santa Clarita","State":"CA","Zip":"91350"},{"Location":"E B INSURANCE","Address":"26553 Golden Valley Rd","City":"Santa Clarita","State":"CA","Zip":"91350"},{"Location":"ELIE LITTAUER RENTALS","Address":"27307 Arriola Ave","City":"Santa Clarita","State":"CA","Zip":"91350"},{"Location":"EXECUTIVE AUTO","Address":"26516 Ruether Ave Ste20","City":"Santa Clarita","State":"CA","Zip":"91350"},{"Location":"EXELON INC 2","Address":"26535 Summit Cir","City":"Santa Clarita","State":"CA","Zip":"91350"},{"Location":"FREDDYS AUTOMOTIVE","Address":"26502 Ruether Ave","City":"Santa Clarita","State":"CA","Zip":"91350"},{"Location":"GOGI HOUSE","Address":"26524 Bouquet Canyon Rd","City":"Santa Clarita","State":"CA","Zip":"91350"},{"Location":"GREEN LANDSCAPE NURSERY","Address":"26191 Bouquet Canyon Rd","City":"Santa Clarita","State":"CA","Zip":"91350"},{"Location":"JERSEY MIKE'S SUBS","Address":"26510 Bouquet Canyon Rd","City":"Santa Clarita","State":"CA","Zip":"91350"},{"Location":"KEEP IT SELF STORAGE","Address":"25333 Railroad Ave","City":"Santa Clarita","State":"CA","Zip":"91350"},{"Location":"KM AUTO SPA","Address":"26485 Bouquet Canyon Rd","City":"Santa Clarita","State":"CA","Zip":"91350"},{"Location":"KUMASHIKI","Address":"22896 Copper Hill Dr","City":"Santa Clarita","State":"CA","Zip":"91350"},{"Location":"L AND J AUTO BODY","Address":"26536 Ruether Ave","City":"Santa Clarita","State":"CA","Zip":"91350"},{"Location":"LA COCINA","Address":"28076 Bouquet Canyon Rd","City":"Santa Clarita","State":"CA","Zip":"91350"},{"Location":"LA FITNESS - SANTA CLARITA","Address":"26455 Golden Valley Rd","City":"Santa Clarita","State":"CA","Zip":"91350"},{"Location":"LAS DELICIAS RESTAURANT","Address":"26851 Bouquet Canyon Rd","City":"Santa Clarita","State":"CA","Zip":"91350"},{"Location":"LIFE THAI FUSION","Address":"22911 Soledad Canyon Rd","City":"Santa Clarita","State":"CA","Zip":"91350"},{"Location":"LOCKHEED FCU","Address":"26459 Bouquet Canyon Rd","City":"Santa Clarita","State":"CA","Zip":"91350"},{"Location":"MABEL'S ROADHOUSE","Address":"26328 Bouquet Canyon Rd","City":"Santa Clarita","State":"CA","Zip":"91350"},{"Location":"MACS POOL AND SPA","Address":"26067 Bouquet Canyon Rd","City":"Santa Clarita","State":"CA","Zip":"91350"},{"Location":"MANA SMOG CHECK","Address":"23051 Drayton St B","City":"Santa Clarita","State":"CA","Zip":"91350"},{"Location":"MIDAS","Address":"25745 San Fernando Rd","City":"Santa Clarita","State":"CA","Zip":"91350"},{"Location":"MINUTEMAN TAXPAYER ADVOC","Address":"26370 Diamond Pl 511","City":"Santa Clarita","State":"CA","Zip":"91350"},{"Location":"NAIL FIX","Address":"26455 Bouquet Canyon Rd","City":"Santa Clarita","State":"CA","Zip":"91350"},{"Location":"NOBLE LA INC","Address":"28118 Bouquet Rd 214","City":"Santa Clarita","State":"CA","Zip":"91350"},{"Location":"NORTH COUNTY REGIONAL OF","Address":"21182 Centre Pointe Pkwy 130","City":"Santa Clarita","State":"CA","Zip":"91350"},{"Location":"PETS SUPPLY SANTA CLARITA","Address":"26831 Bouquet Canyon Rd","City":"Santa Clarita","State":"CA","Zip":"91350"},{"Location":"PIZZA HUT","Address":"27984 Seco Canyon Rd 303","City":"Santa Clarita","State":"CA","Zip":"91350"},{"Location":"PLATNIUM REAL ESTATE  VIP","Address":"27600 Bouquet Canyon Rd 208","City":"Santa Clarita","State":"CA","Zip":"91350"},{"Location":"PRESIDENTE - VALENCIA","Address":"26625 Bouquet Canyon Rd","City":"Santa Clarita","State":"CA","Zip":"91350"},{"Location":"RATTLER'S BARB-Q","Address":"26495 Golden Valley Rd","City":"Santa Clarita","State":"CA","Zip":"91350"},{"Location":"SAMS CLUB","Address":"26468 Carl Boyer Dr","City":"Santa Clarita","State":"CA","Zip":"91350"},{"Location":"SANTA CLARITA LANES","Address":"21615 Soledad Canyon Rd","City":"Santa Clarita","State":"CA","Zip":"91350"},{"Location":"SCHOONERS PATIO GRILL TWO","Address":"22903 Soledad Canyon Rd","City":"Santa Clarita","State":"CA","Zip":"91350"},{"Location":"SCHOONERVILLE RESTAURANT","Address":"26254 Bouquet Canyon Rd","City":"Santa Clarita","State":"CA","Zip":"91350"},{"Location":"SCV CLEAR WATER","Address":"26871 Bouquet Canyon Rd","City":"Santa Clarita","State":"CA","Zip":"91350"},{"Location":"SERVICE ONE COMPANY","Address":"26342 Ruether Ave","City":"Santa Clarita","State":"CA","Zip":"91350"},{"Location":"SHADOW HOLDINGS","Address":"26455 Ruether Ave","City":"Santa Clarita","State":"CA","Zip":"91350"},{"Location":"SPORT CLIPS CA701","Address":"26562 Bouquet Canyon Rd","City":"Santa Clarita","State":"CA","Zip":"91350"},{"Location":"SPORT CLIPS CA702","Address":"26485 Golden Valley Rd","City":"Santa Clarita","State":"CA","Zip":"91350"},{"Location":"STAY GREEN","Address":"26415 Summit Cir","City":"Santa Clarita","State":"CA","Zip":"91350"},{"Location":"STOCK WINDOW AND DOOR","Address":"25655 Springbrook Ave 6","City":"Santa Clarita","State":"CA","Zip":"91350"},{"Location":"SUB MARINA","Address":"26517 Carl Boyer Dr","City":"Santa Clarita","State":"CA","Zip":"91350"},{"Location":"T M C PROPERTIES","Address":"25670 Springbrook Ave 170","City":"Santa Clarita","State":"CA","Zip":"91350"},{"Location":"THE CUTTING EDGE LLC","Address":"26834 Seco Canyon Rd","City":"Santa Clarita","State":"CA","Zip":"91350"},{"Location":"THE TAILGATE","Address":"26891 Bouquet Canyon Rd","City":"Santa Clarita","State":"CA","Zip":"91350"},{"Location":"TRI TIP","Address":"26370 Diamond Pl 500","City":"Santa Clarita","State":"CA","Zip":"91350"},{"Location":"VINCENZO'S PIZZA","Address":"20701 Plum Canyon Rd","City":"Santa Clarita","State":"CA","Zip":"91350"},{"Location":"WING STOP SANTA CLARITA","Address":"22931 Soledad Canyon Rd","City":"Santa Clarita","State":"CA","Zip":"91350"},{"Location":"ZACS DIVE","Address":"26773 Bouquet Canyon Rd","City":"Santa Clarita","State":"CA","Zip":"91350"},{"Location":"AMERICAN MEDICAL RESPONSE SGUS","Address":"27737 Bouquet Canyon Rd 113","City":"Saugus","State":"CA","Zip":"91350"},{"Location":"GEMINI BEAUTY SUPPLY","Address":"26849 Bouquet Canyon Rd","City":"Saugus","State":"CA","Zip":"91350"},{"Location":"GOLDEN TRIANGLE DENTAL","Address":"217000 Golden Trianlge Rd","City":"Saugus","State":"CA","Zip":"91350"},{"Location":"GUZMAN TIRES","Address":"25885 Railroad Ave","City":"Saugus","State":"CA","Zip":"91350"},{"Location":"JBC ENTERPRISES","Address":"27665 Bouque Cannon Rd","City":"Saugus","State":"CA","Zip":"91350"},{"Location":"ROLLA SUSHI GRILL","Address":"27737 Bouquet Canyon Rd 106","City":"Saugus","State":"CA","Zip":"91350"},{"Location":"SANTA CLARITA STAINMASTE","Address":"26111 Bouquet Canyon Rd B3","City":"Saugus","State":"CA","Zip":"91350"},{"Location":"SIMPLY DISCOUNT FURNITUR","Address":"21444 Golden Triangle Rd","City":"Saugus","State":"CA","Zip":"91350"},{"Location":"US HEALTHWORKS","Address":"22840 Soledad Canyon Rd","City":"Saugus","State":"CA","Zip":"91350"},{"Location":"WENDY'S #4556","Address":"26538 Bouquet Canyon Rd","City":"Saugus","State":"CA","Zip":"91350"}]