[{"Location":"ACTION PERSONAL TRAINING","Address":"18348 Ventura Blvd","City":"Tarzana","State":"CA","Zip":"91356"},{"Location":"ALL PRO COLLISION","Address":"18927 Ventura Blvd","City":"Tarzana","State":"CA","Zip":"91356"},{"Location":"AMBER T NAILS","Address":"19100 Ventura Blvd E","City":"Tarzana","State":"CA","Zip":"91356"},{"Location":"ANSES JOSEPH W","Address":"18403 Ventura Blvd","City":"Tarzana","State":"CA","Zip":"91356"},{"Location":"BEATBIKE LLC","Address":"18700 Ventura Blvd 220","City":"Tarzana","State":"CA","Zip":"91356"},{"Location":"BIG O TIRES","Address":"18440 Ventura Blvd","City":"Tarzana","State":"CA","Zip":"91356"},{"Location":"BLEECKER STREET","Address":"5442 Yolanda Ave","City":"Tarzana","State":"CA","Zip":"91356"},{"Location":"BMPP TAVERN","Address":"19527 Ventura Blvd","City":"Tarzana","State":"CA","Zip":"91356"},{"Location":"BRAEMAR COUNTRY CLUB - TRP","Address":"4001 Reseda Blvd","City":"Tarzana","State":"CA","Zip":"91356"},{"Location":"BRAEMAR FITNESS CENTER","Address":"4001 Reseda Blvd","City":"Tarzana","State":"CA","Zip":"91356"},{"Location":"CHABLIS FOOD & WINE","Address":"18588 Ventura Blvd","City":"Tarzana","State":"CA","Zip":"91356"},{"Location":"CHEVRON FOOD MART TARZAN","Address":"19156 Ventura Blvd","City":"Tarzana","State":"CA","Zip":"91356"},{"Location":"CRAZY TOKYO     SUSHI","Address":"18406 Ventura Blvd","City":"Tarzana","State":"CA","Zip":"91356"},{"Location":"DARBAND RESTURANT","Address":"19337 Ventura Blvd","City":"Tarzana","State":"CA","Zip":"91356"},{"Location":"DKS BARBER & STYLE","Address":"19633 Ventura Blvd","City":"Tarzana","State":"CA","Zip":"91356"},{"Location":"EL CABALLERO","Address":"18300 Tarzana Dr","City":"Tarzana","State":"CA","Zip":"91356"},{"Location":"EL PATRON","Address":"5545 Reseda Blvd","City":"Tarzana","State":"CA","Zip":"91356"},{"Location":"ESSERMAN STEEL","Address":"18345 Ventura Blvd 400","City":"Tarzana","State":"CA","Zip":"91356"},{"Location":"ESTHETIC PROFESSIONALS","Address":"18981 Ventura Blvd","City":"Tarzana","State":"CA","Zip":"91356"},{"Location":"FRANKIE'S ITALIAN KITCHEN","Address":"5538 Reseda Blvd","City":"Tarzana","State":"CA","Zip":"91356"},{"Location":"GLOBAL FUTURES","Address":"19300 Ventura Blvd","City":"Tarzana","State":"CA","Zip":"91356"},{"Location":"GOODYEAR TIRE CENTER","Address":"19401 Ventura Blvd","City":"Tarzana","State":"CA","Zip":"91356"},{"Location":"GREYSTOKE GRILL","Address":"18395 Ventura Blvd","City":"Tarzana","State":"CA","Zip":"91356"},{"Location":"HEAVENLY NAILS","Address":"18904 Ventura Blvd","City":"Tarzana","State":"CA","Zip":"91356"},{"Location":"IL TRAMEZZINO","Address":"18636 Ventura Blvd","City":"Tarzana","State":"CA","Zip":"91356"},{"Location":"IMPORT KITCHEN & BATH","Address":"18961 Ventura Blvd","City":"Tarzana","State":"CA","Zip":"91356"},{"Location":"IN SHAPE","Address":"18740 Oxnard St 302","City":"Tarzana","State":"CA","Zip":"91356"},{"Location":"INFINITE HOME HEALTH","Address":"19326 Ventura Blvd 201","City":"Tarzana","State":"CA","Zip":"91356"},{"Location":"KEV'S AUTO TOPS AND UPHOLSTERY","Address":"5557 Reseda Blvd B","City":"Tarzana","State":"CA","Zip":"91356"},{"Location":"KRAVINGS FUSION","Address":"18663 Ventura Blvd 100","City":"Tarzana","State":"CA","Zip":"91356"},{"Location":"LARISA SALON","Address":"6002 Reseda Blvd","City":"Tarzana","State":"CA","Zip":"91356"},{"Location":"LOS ANGELES CITY FD 93","Address":"19059 Ventura Blvd","City":"Tarzana","State":"CA","Zip":"91356"},{"Location":"MAUI SUGARMILL SALOON","Address":"18389 Ventura Blvd","City":"Tarzana","State":"CA","Zip":"91356"},{"Location":"MICHELLE TWITO","Address":"19513 Ventura Blvd","City":"Tarzana","State":"CA","Zip":"91356"},{"Location":"MV ASHLEY S","Address":"4814 Hasekian Dr 3","City":"Tarzana","State":"CA","Zip":"91356"},{"Location":"NEEDLE HEARTS","Address":"18900 Ventura Blvd","City":"Tarzana","State":"CA","Zip":"91356"},{"Location":"O AND K OIL","Address":"18500 Ventura Blvd","City":"Tarzana","State":"CA","Zip":"91356"},{"Location":"PEASANT WINE BISTRO","Address":"19100 Ventura Blvd N","City":"Tarzana","State":"CA","Zip":"91356"},{"Location":"PETIES PLACE","Address":"6025 Reseda Blvd","City":"Tarzana","State":"CA","Zip":"91356"},{"Location":"PHO CA","Address":"19550 Ventura Blvd","City":"Tarzana","State":"CA","Zip":"91356"},{"Location":"PHOENIX CONCEPTS","Address":"19458 Ventura Blvd 6","City":"Tarzana","State":"CA","Zip":"91356"},{"Location":"PSR INCORPORATED","Address":"5442 Yolanda Ave","City":"Tarzana","State":"CA","Zip":"91356"},{"Location":"RDC COLLECTIVE CORP","Address":"18448 Oxnard St","City":"Tarzana","State":"CA","Zip":"91356"},{"Location":"SAGE ACADEMY","Address":"5901 Lindley Ave","City":"Tarzana","State":"CA","Zip":"91356"},{"Location":"SHAPE","Address":"18421 Ventura Blvd","City":"Tarzana","State":"CA","Zip":"91356"},{"Location":"SUPERCUTS #8198","Address":"19227 Ventura Blvd","City":"Tarzana","State":"CA","Zip":"91356"},{"Location":"SUSHI SPOT","Address":"19658 Ventura Blvd","City":"Tarzana","State":"CA","Zip":"91356"},{"Location":"TAO GARDEN RESTURANT 1","Address":"18900 Ventura Blvd","City":"Tarzana","State":"CA","Zip":"91356"},{"Location":"THE LITTLE ROCK","Address":"5507 Reseda Blvd","City":"Tarzana","State":"CA","Zip":"91356"},{"Location":"UBATUBA ACAI","Address":"18641 Ventura Blvd","City":"Tarzana","State":"CA","Zip":"91356"},{"Location":"VIOLE T CONSTRUCTION INC","Address":"18716 Oxnard St","City":"Tarzana","State":"CA","Zip":"91356"},{"Location":"WELLMED","Address":"18730 Oxnard St 203","City":"Tarzana","State":"CA","Zip":"91356"},{"Location":"WHOLE FOODS MARKET-TRZ","Address":"18700 Ventura Blvd","City":"Tarzana","State":"CA","Zip":"91356"},{"Location":"ACTION PERSONAL TRAINING","Address":"18348 Ventura Blvd","City":"Tarzana","State":"CA","Zip":"91356"},{"Location":"ALL PRO COLLISION","Address":"18927 Ventura Blvd","City":"Tarzana","State":"CA","Zip":"91356"},{"Location":"AMBER T NAILS","Address":"19100 Ventura Blvd E","City":"Tarzana","State":"CA","Zip":"91356"},{"Location":"ANSES JOSEPH W","Address":"18403 Ventura Blvd","City":"Tarzana","State":"CA","Zip":"91356"},{"Location":"BEATBIKE LLC","Address":"18700 Ventura Blvd 220","City":"Tarzana","State":"CA","Zip":"91356"},{"Location":"BIG O TIRES","Address":"18440 Ventura Blvd","City":"Tarzana","State":"CA","Zip":"91356"},{"Location":"BLEECKER STREET","Address":"5442 Yolanda Ave","City":"Tarzana","State":"CA","Zip":"91356"},{"Location":"BMPP TAVERN","Address":"19527 Ventura Blvd","City":"Tarzana","State":"CA","Zip":"91356"},{"Location":"BRAEMAR COUNTRY CLUB - TRP","Address":"4001 Reseda Blvd","City":"Tarzana","State":"CA","Zip":"91356"},{"Location":"BRAEMAR FITNESS CENTER","Address":"4001 Reseda Blvd","City":"Tarzana","State":"CA","Zip":"91356"},{"Location":"CHABLIS FOOD & WINE","Address":"18588 Ventura Blvd","City":"Tarzana","State":"CA","Zip":"91356"},{"Location":"CHEVRON FOOD MART TARZAN","Address":"19156 Ventura Blvd","City":"Tarzana","State":"CA","Zip":"91356"},{"Location":"CRAZY TOKYO     SUSHI","Address":"18406 Ventura Blvd","City":"Tarzana","State":"CA","Zip":"91356"},{"Location":"DARBAND RESTURANT","Address":"19337 Ventura Blvd","City":"Tarzana","State":"CA","Zip":"91356"},{"Location":"DKS BARBER & STYLE","Address":"19633 Ventura Blvd","City":"Tarzana","State":"CA","Zip":"91356"},{"Location":"EL CABALLERO","Address":"18300 Tarzana Dr","City":"Tarzana","State":"CA","Zip":"91356"},{"Location":"EL PATRON","Address":"5545 Reseda Blvd","City":"Tarzana","State":"CA","Zip":"91356"},{"Location":"ESSERMAN STEEL","Address":"18345 Ventura Blvd 400","City":"Tarzana","State":"CA","Zip":"91356"},{"Location":"ESTHETIC PROFESSIONALS","Address":"18981 Ventura Blvd","City":"Tarzana","State":"CA","Zip":"91356"},{"Location":"FRANKIE'S ITALIAN KITCHEN","Address":"5538 Reseda Blvd","City":"Tarzana","State":"CA","Zip":"91356"},{"Location":"GLOBAL FUTURES","Address":"19300 Ventura Blvd","City":"Tarzana","State":"CA","Zip":"91356"},{"Location":"GOODYEAR TIRE CENTER","Address":"19401 Ventura Blvd","City":"Tarzana","State":"CA","Zip":"91356"},{"Location":"GREYSTOKE GRILL","Address":"18395 Ventura Blvd","City":"Tarzana","State":"CA","Zip":"91356"},{"Location":"HEAVENLY NAILS","Address":"18904 Ventura Blvd","City":"Tarzana","State":"CA","Zip":"91356"},{"Location":"IL TRAMEZZINO","Address":"18636 Ventura Blvd","City":"Tarzana","State":"CA","Zip":"91356"},{"Location":"IMPORT KITCHEN & BATH","Address":"18961 Ventura Blvd","City":"Tarzana","State":"CA","Zip":"91356"},{"Location":"IN SHAPE","Address":"18740 Oxnard St 302","City":"Tarzana","State":"CA","Zip":"91356"},{"Location":"INFINITE HOME HEALTH","Address":"19326 Ventura Blvd 201","City":"Tarzana","State":"CA","Zip":"91356"},{"Location":"KEV'S AUTO TOPS AND UPHOLSTERY","Address":"5557 Reseda Blvd B","City":"Tarzana","State":"CA","Zip":"91356"},{"Location":"KRAVINGS FUSION","Address":"18663 Ventura Blvd 100","City":"Tarzana","State":"CA","Zip":"91356"},{"Location":"LARISA SALON","Address":"6002 Reseda Blvd","City":"Tarzana","State":"CA","Zip":"91356"},{"Location":"LOS ANGELES CITY FD 93","Address":"19059 Ventura Blvd","City":"Tarzana","State":"CA","Zip":"91356"},{"Location":"MAUI SUGARMILL SALOON","Address":"18389 Ventura Blvd","City":"Tarzana","State":"CA","Zip":"91356"},{"Location":"MICHELLE TWITO","Address":"19513 Ventura Blvd","City":"Tarzana","State":"CA","Zip":"91356"},{"Location":"MV ASHLEY S","Address":"4814 Hasekian Dr 3","City":"Tarzana","State":"CA","Zip":"91356"},{"Location":"NEEDLE HEARTS","Address":"18900 Ventura Blvd","City":"Tarzana","State":"CA","Zip":"91356"},{"Location":"O AND K OIL","Address":"18500 Ventura Blvd","City":"Tarzana","State":"CA","Zip":"91356"},{"Location":"PEASANT WINE BISTRO","Address":"19100 Ventura Blvd N","City":"Tarzana","State":"CA","Zip":"91356"},{"Location":"PETIES PLACE","Address":"6025 Reseda Blvd","City":"Tarzana","State":"CA","Zip":"91356"},{"Location":"PHO CA","Address":"19550 Ventura Blvd","City":"Tarzana","State":"CA","Zip":"91356"},{"Location":"PHOENIX CONCEPTS","Address":"19458 Ventura Blvd 6","City":"Tarzana","State":"CA","Zip":"91356"},{"Location":"RDC COLLECTIVE CORP","Address":"18448 Oxnard St","City":"Tarzana","State":"CA","Zip":"91356"},{"Location":"SAGE ACADEMY","Address":"5901 Lindley Ave","City":"Tarzana","State":"CA","Zip":"91356"},{"Location":"SHAPE","Address":"18421 Ventura Blvd","City":"Tarzana","State":"CA","Zip":"91356"},{"Location":"SUPERCUTS #8198","Address":"19227 Ventura Blvd","City":"Tarzana","State":"CA","Zip":"91356"},{"Location":"SUSHI SPOT","Address":"19658 Ventura Blvd","City":"Tarzana","State":"CA","Zip":"91356"},{"Location":"TAO GARDEN RESTURANT 1","Address":"18900 Ventura Blvd","City":"Tarzana","State":"CA","Zip":"91356"},{"Location":"THE LITTLE ROCK","Address":"5507 Reseda Blvd","City":"Tarzana","State":"CA","Zip":"91356"},{"Location":"UBATUBA ACAI","Address":"18641 Ventura Blvd","City":"Tarzana","State":"CA","Zip":"91356"},{"Location":"VIOLE T CONSTRUCTION INC","Address":"18716 Oxnard St","City":"Tarzana","State":"CA","Zip":"91356"},{"Location":"WELLMED","Address":"18730 Oxnard St 203","City":"Tarzana","State":"CA","Zip":"91356"},{"Location":"WHOLE FOODS MARKET-TRZ","Address":"18700 Ventura Blvd","City":"Tarzana","State":"CA","Zip":"91356"}]