[{"Location":"ACCURATE FREIGHT SYSTEM","Address":"28159 Avenue Stanford 180","City":"Santa Clarita","State":"CA","Zip":"91355"},{"Location":"ARTHUR GARFINKEL MD","Address":"23861 Mcbean Pkwy E30","City":"Santa Clarita","State":"CA","Zip":"91355"},{"Location":"AUDI VALENCI","Address":"21033 Creekside Road","City":"Santa Clarita","State":"CA","Zip":"91355"},{"Location":"CALIFORNIA PROTECTION IN","Address":"28338 Constellation Rd 930","City":"Santa Clarita","State":"CA","Zip":"91355"},{"Location":"COMMAND VEHICLE 1","Address":"26230 Citrus Avenue","City":"Santa Clarita","State":"CA","Zip":"91355"},{"Location":"COMMUNITY BANK","Address":"28470 Avenue Stanford 110","City":"Santa Clarita","State":"CA","Zip":"91355"},{"Location":"ENLITE TECHNOLOGY","Address":"25307 Via Artina","City":"Santa Clarita","State":"CA","Zip":"91355"},{"Location":"EXTREME PERFORMANCE INC","Address":"25111 Rye Canyon Loop","City":"Santa Clarita","State":"CA","Zip":"91355"},{"Location":"GHG INVESTMENTS INC","Address":"24887 Ave Rockefeller","City":"Santa Clarita","State":"CA","Zip":"91355"},{"Location":"HONDA PERFORMANCE DEVELOPMENT","Address":"25145 Anza Dr","City":"Santa Clarita","State":"CA","Zip":"91355"},{"Location":"I MORTGAGE","Address":"25152 Springfield Ct","City":"Santa Clarita","State":"CA","Zip":"91355"},{"Location":"J DAVIS CUSTOM CLOTHIERS","Address":"24201 Valencia Blvd 3840","City":"Santa Clarita","State":"CA","Zip":"91355"},{"Location":"JONES LANG LASALLE","Address":"25152 Springfield Ct 140","City":"Santa Clarita","State":"CA","Zip":"91355"},{"Location":"JUMP5150","Address":"28381 Constellation Rd","City":"Santa Clarita","State":"CA","Zip":"91355"},{"Location":"KISHO JAPANESE RESTAURAN","Address":"23430 Valencia Blvd","City":"Santa Clarita","State":"CA","Zip":"91355"},{"Location":"MACY'S WEST 493","Address":"26450 Mcbean Pkwy","City":"Santa Clarita","State":"CA","Zip":"91355"},{"Location":"MACY'S WEST 493 BR","Address":"26450 Mcbean Pkwy","City":"Santa Clarita","State":"CA","Zip":"91355"},{"Location":"MAKE IT RIGHT","Address":"28220 Avenue Crocker 408","City":"Santa Clarita","State":"CA","Zip":"91355"},{"Location":"MAKEUP DESIGNORY","Address":"25311 Avenue Stanford","City":"Santa Clarita","State":"CA","Zip":"91355"},{"Location":"MERCURY INS - S CLARITA","Address":"27200 Tourney Rd 400","City":"Santa Clarita","State":"CA","Zip":"91355"},{"Location":"MR SUSHI","Address":"23360 Valencia Blvd D","City":"Santa Clarita","State":"CA","Zip":"91355"},{"Location":"OLIVE GARDEN #1563","Address":"27003 Mcbean Pkwy","City":"Santa Clarita","State":"CA","Zip":"91355"},{"Location":"RAYANN ENGINEERING","Address":"28355 Industry Dr 406","City":"Santa Clarita","State":"CA","Zip":"91355"},{"Location":"SGB ENTERPRISES","Address":"24844 Anza Dr A","City":"Santa Clarita","State":"CA","Zip":"91355"},{"Location":"SOCCER ONE","Address":"27823 Smyth Dr","City":"Santa Clarita","State":"CA","Zip":"91355"},{"Location":"SUPERCUTS #9853","Address":"27091 Mcbean Pkwy","City":"Santa Clarita","State":"CA","Zip":"91355"},{"Location":"WENDY'S #10810","Address":"28180 Newhall Ranch Rd","City":"Santa Clarita","State":"CA","Zip":"91355"},{"Location":"Z PIZZA STORES INC","Address":"27015 Mcbean Pkwy","City":"Santa Clarita","State":"CA","Zip":"91355"},{"Location":"ABEL SYSTEMS","Address":"25574 Rye Canyon Rd A","City":"Valencia","State":"CA","Zip":"91355"},{"Location":"ADEPT FASTENERS","Address":"28709 Industry Dr","City":"Valencia","State":"CA","Zip":"91355"},{"Location":"ADVANCED DERMATOLOGY","Address":"28212 Kelly Johnson Pkwy 265","City":"Valencia","State":"CA","Zip":"91355"},{"Location":"AFTERBURN FITNESS","Address":"26007 Avenue Hall","City":"Valencia","State":"CA","Zip":"91355"},{"Location":"AGC VISTA VALENCIA","Address":"24700 Trevino Dr","City":"Valencia","State":"CA","Zip":"91355"},{"Location":"AIRCRAFT HINGE","Address":"24930 Avenue Tibbitts","City":"Valencia","State":"CA","Zip":"91355"},{"Location":"AKIAN CAPITAL","Address":"26235 Technology Dr","City":"Valencia","State":"CA","Zip":"91355"},{"Location":"ALAMO RESTURANT","Address":"25946 Mcbean Pkwy","City":"Valencia","State":"CA","Zip":"91355"},{"Location":"ALFRED MANN FOUNDATION","Address":"25134 Rye Canyon Loop","City":"Valencia","State":"CA","Zip":"91355"},{"Location":"AM TOUCH DENTAL","Address":"28703 Industry Dr","City":"Valencia","State":"CA","Zip":"91355"},{"Location":"AMERICAN HAKKO INC","Address":"28920 Avenue Williams","City":"Valencia","State":"CA","Zip":"91355"},{"Location":"AMERICAN LIGHTING PRODUCTION","Address":"28945 Avenue Williams","City":"Valencia","State":"CA","Zip":"91355"},{"Location":"AMERICAN MEDICAL RESPONSE II","Address":"24907 Avenue Tibbitts E","City":"Valencia","State":"CA","Zip":"91355"},{"Location":"AMERICAN MEDICAL RESPONSE VAL","Address":"25864 Tournament Rd L","City":"Valencia","State":"CA","Zip":"91355"},{"Location":"AMERICAN TIRE DEPOT","Address":"25150 Rye Canyon Rd","City":"Valencia","State":"CA","Zip":"91355"},{"Location":"AMERICAS BEST MERCHANT SRVS","Address":"25600 Rye Canyon Rd","City":"Valencia","State":"CA","Zip":"91355"},{"Location":"AMR","Address":"23329 Lyons Ave E","City":"Valencia","State":"CA","Zip":"91355"},{"Location":"AQUAFINE CORPORATION","Address":"29010 Avenue Paine","City":"Valencia","State":"CA","Zip":"91355"},{"Location":"ARVATO USA INC","Address":"29011 Commerce Center Dr","City":"Valencia","State":"CA","Zip":"91355"},{"Location":"ATK AUDIOTEK CORP","Address":"28238 Avenue Crocker","City":"Valencia","State":"CA","Zip":"91355"},{"Location":"ATV INC","Address":"25158 Rye Canyon Rd","City":"Valencia","State":"CA","Zip":"91355"},{"Location":"AUTOSKINS CORP","Address":"28462 Constellation Rd","City":"Valencia","State":"CA","Zip":"91355"},{"Location":"AZUL TEQUILA RESTAURANT","Address":"25387 Wayne Mills Pl","City":"Valencia","State":"CA","Zip":"91355"},{"Location":"B & B MANUFACTURING","Address":"27956 Beale Ct","City":"Valencia","State":"CA","Zip":"91355"},{"Location":"B MANUFACTURING","Address":"25356 Rye Canyon Rd","City":"Valencia","State":"CA","Zip":"91355"},{"Location":"B&B MANUFACTORING","Address":"27940 Beale Ct","City":"Valencia","State":"CA","Zip":"91355"},{"Location":"BAGGER SPORTS","Address":"23460 Cinema Dr","City":"Valencia","State":"CA","Zip":"91355"},{"Location":"BAGGER SPORTS1","Address":"23460 Cinema Dr K","City":"Valencia","State":"CA","Zip":"91355"},{"Location":"BANK OF SANTA CLARITA1","Address":"28528 Industry Dr","City":"Valencia","State":"CA","Zip":"91355"},{"Location":"BANK OF SANTA CLARITA2","Address":"23780 Magic Mountain Pkwy","City":"Valencia","State":"CA","Zip":"91355"},{"Location":"BEL  AIR LIGHTING","Address":"28104 Witherspoon Pkwy","City":"Valencia","State":"CA","Zip":"91355"},{"Location":"BELLA NAILS AND SPA","Address":"27011 Mcbean Pkwy 105","City":"Valencia","State":"CA","Zip":"91355"},{"Location":"BFMG INC","Address":"23630 Valencia Blvd F","City":"Valencia","State":"CA","Zip":"91355"},{"Location":"BIG JOHN MCCARTHYS ULTIMATE T","Address":"25385 Rye Canyon Rd","City":"Valencia","State":"CA","Zip":"91355"},{"Location":"BIG JOHN PERFORMANCE","Address":"24233 Creekside Rd 107","City":"Valencia","State":"CA","Zip":"91355"},{"Location":"BIG O TIRES E19%2F4819","Address":"23510 Valencia Blvd","City":"Valencia","State":"CA","Zip":"91355"},{"Location":"BJ'S RESTAURANT #414","Address":"24320 Town Center Dr","City":"Valencia","State":"CA","Zip":"91355"},{"Location":"BREAST IMAGING CENTER","Address":"23929 Mcbean Pkwy 101","City":"Valencia","State":"CA","Zip":"91355"},{"Location":"BRYSON MARTIN RACING  IN","Address":"29033 Avenue Sherman 203","City":"Valencia","State":"CA","Zip":"91355"},{"Location":"BUCA DI BEPPO #523","Address":"26940 Theater Dr","City":"Valencia","State":"CA","Zip":"91355"},{"Location":"C.A RASMUSSEN INC","Address":"28548 Livingston Ave","City":"Valencia","State":"CA","Zip":"91355"},{"Location":"CAL ARTS","Address":"24700 Mcbean Pkwy","City":"Valencia","State":"CA","Zip":"91355"},{"Location":"CALIFORNIA HIGHWAY PATROL","Address":"28648 The Old Rd","City":"Valencia","State":"CA","Zip":"91355"},{"Location":"CALIFORNIA ROCKS","Address":"28416 Constellation Rd","City":"Valencia","State":"CA","Zip":"91355"},{"Location":"CARDINAL HEALTH","Address":"27680 Avenue Mentry","City":"Valencia","State":"CA","Zip":"91355"},{"Location":"CAST TRANSPORTATION","Address":"25611 Dorado Dr 4","City":"Valencia","State":"CA","Zip":"91355"},{"Location":"CAST TRANSPORTATION 2","Address":"25611 Dorado Dr 2","City":"Valencia","State":"CA","Zip":"91355"},{"Location":"CAST TRANSPORTATION 3","Address":"25611 Dorado Dr 3","City":"Valencia","State":"CA","Zip":"91355"},{"Location":"CAST TRANSPORTATION 5","Address":"25611 Dorado Dr 5","City":"Valencia","State":"CA","Zip":"91355"},{"Location":"CAST TRANSPORTATION INC","Address":"25611 Dorado Dr","City":"Valencia","State":"CA","Zip":"91355"},{"Location":"CBK AVIATION INC","Address":"28958 Hancock Pkwy","City":"Valencia","State":"CA","Zip":"91355"},{"Location":"CITY OF SANTA CLARITA","Address":"25663 Avenue Stanford","City":"Valencia","State":"CA","Zip":"91355"},{"Location":"CLP ENTERPRISE LLC","Address":"28104 Newhall Ranch Rd","City":"Valencia","State":"CA","Zip":"91355"},{"Location":"COMPASSIONATE HEALTHCARE ASSC","Address":"28212 Kelly Johnson Pkwy","City":"Valencia","State":"CA","Zip":"91355"},{"Location":"COUNTY SANITATION DIST%2FLA","Address":"28185 The Old Rd","City":"Valencia","State":"CA","Zip":"91355"},{"Location":"CURTISS WRIGHT","Address":"28965 Avenue Penn","City":"Valencia","State":"CA","Zip":"91355"},{"Location":"CYNTHIA NOVAK DDS","Address":"27420 Tourney Rd 240","City":"Valencia","State":"CA","Zip":"91355"},{"Location":"DANNI PRODUCTIONS LLC","Address":"26074 Avenue Hall 15","City":"Valencia","State":"CA","Zip":"91355"},{"Location":"DARMONT CONSTR CORP","Address":"27720 Avenue Scott","City":"Valencia","State":"CA","Zip":"91355"},{"Location":"DATALINK NETWORKS INC","Address":"28110 Avenue Stanford A","City":"Valencia","State":"CA","Zip":"91355"},{"Location":"DAVID VANACORE MUSIC","Address":"27734 Avenue Scott 180","City":"Valencia","State":"CA","Zip":"91355"},{"Location":"DELUXE MEDIA MANAGEMENT","Address":"29125 Avenue Paine","City":"Valencia","State":"CA","Zip":"91355"},{"Location":"DEPARTMENT OF DEFENSE INSP GEN","Address":"25350 Magic Mountain Pkwy 200","City":"Valencia","State":"CA","Zip":"91355"},{"Location":"DINKS NEW YORK DELI","Address":"24201 Valencia Blvd 3690","City":"Valencia","State":"CA","Zip":"91355"},{"Location":"DP BUILDERS","Address":"25128 Avenue Tibbitts 100","City":"Valencia","State":"CA","Zip":"91355"},{"Location":"DR. GREGORY SENOSSKY","Address":"23929 Mcbean Pkwy 110","City":"Valencia","State":"CA","Zip":"91355"},{"Location":"EL TORITO 7182","Address":"27510 The Old Rd","City":"Valencia","State":"CA","Zip":"91355"},{"Location":"EPN - JOE HANSEN","Address":"25060 Wave Standford 270","City":"Valencia","State":"CA","Zip":"91355"},{"Location":"EXCLUSIVE POWDER COATING","Address":"24932 Avenue Kearny","City":"Valencia","State":"CA","Zip":"91355"},{"Location":"FIRST ENTERTAINMENT CREDIT UNI","Address":"25828 Mcbean Pkwy","City":"Valencia","State":"CA","Zip":"91355"},{"Location":"FOURSTAR LIGHTING","Address":"28170 Avenue Crocker 103","City":"Valencia","State":"CA","Zip":"91355"},{"Location":"FRESHWATER INC","Address":"28165 Avenue Crocker","City":"Valencia","State":"CA","Zip":"91355"},{"Location":"FRESHWORKS","Address":"23340 Cinema Dr","City":"Valencia","State":"CA","Zip":"91355"},{"Location":"FRONTIER TOYOTA","Address":"23621 Creekside Rd","City":"Valencia","State":"CA","Zip":"91355"},{"Location":"GO DENTAL","Address":"27560 Newhall Ranch Rd 309","City":"Valencia","State":"CA","Zip":"91355"},{"Location":"GOTHIC LANDSCAPE INC","Address":"27502 Avenue Scott","City":"Valencia","State":"CA","Zip":"91355"},{"Location":"GREED INC","Address":"23329 Lyons Ave A","City":"Valencia","State":"CA","Zip":"91355"},{"Location":"GYMNASTICS UNLIMITED","Address":"28373 Constellation Rd","City":"Valencia","State":"CA","Zip":"91355"},{"Location":"HEALTHCOMP SOLUTIONS","Address":"25327 Avenue Stanford 101","City":"Valencia","State":"CA","Zip":"91355"},{"Location":"HENRY MAYO HOSPITAL","Address":"23845 Mcbean Pkwy","City":"Valencia","State":"CA","Zip":"91355"},{"Location":"HENRY MAYO HOSPITAL FOUNDATION","Address":"25950 Mcbean Pkwy","City":"Valencia","State":"CA","Zip":"91355"},{"Location":"HENRY MAYO NEWHALL HOSPITAL","Address":"23929 Mcbean Pkwy 208","City":"Valencia","State":"CA","Zip":"91355"},{"Location":"HEY'S PLUMBING","Address":"24730 Avenue Tibbitts 120","City":"Valencia","State":"CA","Zip":"91355"},{"Location":"HIGH PRESSURE TECHNOLOGIES","Address":"24895 Avenue Rockefeller","City":"Valencia","State":"CA","Zip":"91355"},{"Location":"HILTON WORLDWIDE VALENCIA","Address":"28508 Westinghouse Pl","City":"Valencia","State":"CA","Zip":"91355"},{"Location":"HOLIDAY INN EXPRESS VALE","Address":"27513 Wayne Mills Pl","City":"Valencia","State":"CA","Zip":"91355"},{"Location":"HYDROSYSTEMS","Address":"29132 Avenue Paine","City":"Valencia","State":"CA","Zip":"91355"},{"Location":"ICE STATION VALENCIA","Address":"27745 Smyth Dr","City":"Valencia","State":"CA","Zip":"91355"},{"Location":"IDS SANTA CLARITA","Address":"23861 Mcbean Pkwy E11","City":"Valencia","State":"CA","Zip":"91355"},{"Location":"IGNISIS","Address":"25152 Springfield Ct 120","City":"Valencia","State":"CA","Zip":"91355"},{"Location":"ISLANDS RESTAURANT #040","Address":"24180 Valencia Blvd","City":"Valencia","State":"CA","Zip":"91355"},{"Location":"ITALIA PANETTERIA & DELI","Address":"27674 Newhall Ranch Rd","City":"Valencia","State":"CA","Zip":"91355"},{"Location":"ITT AEROSPACE","Address":"28150 Industry Dr","City":"Valencia","State":"CA","Zip":"91355"},{"Location":"J R L ELECTRIC SUPPLY CO INC","Address":"29170 Avenue Penn","City":"Valencia","State":"CA","Zip":"91355"},{"Location":"JACK WASSERSTEIN DDS","Address":"27450 Tourney Rd 100","City":"Valencia","State":"CA","Zip":"91355"},{"Location":"JARGIS DISTRIBUTING LLC","Address":"25000 Avenue Stanford 248","City":"Valencia","State":"CA","Zip":"91355"},{"Location":"JAVAPOUR DISTIBUTING LLC","Address":"28261 Newhall Ranch Rd","City":"Valencia","State":"CA","Zip":"91355"},{"Location":"JC PENNY","Address":"24140 Magic Mountain Pkwy","City":"Valencia","State":"CA","Zip":"91355"},{"Location":"JEB GROUP INC","Address":"23929 Valencia Blvd","City":"Valencia","State":"CA","Zip":"91355"},{"Location":"JEM FX INC","Address":"25109 Rye Canyon Loop","City":"Valencia","State":"CA","Zip":"91355"},{"Location":"JIMMY DEAN'S CHARBROILED BURGERS","Address":"28018 The Old Rd","City":"Valencia","State":"CA","Zip":"91355"},{"Location":"JIMMY DEANS","Address":"28018 The Old Rd","City":"Valencia","State":"CA","Zip":"91355"},{"Location":"JIMS HEATING AND AC INC","Address":"26074 Avenue Hall 19","City":"Valencia","State":"CA","Zip":"91355"},{"Location":"JJS BAR AND GRILL","Address":"25848 Tournament Rd","City":"Valencia","State":"CA","Zip":"91355"},{"Location":"JOANNE YOUNG DDS INC","Address":"28212 Kelly Johnson Pkwy 170","City":"Valencia","State":"CA","Zip":"91355"},{"Location":"JORDANS VIRTUAL FIT CLUB","Address":"27674 Newhall Ranch Rd C","City":"Valencia","State":"CA","Zip":"91355"},{"Location":"KABUKI JAPANESE RESTAURANT","Address":"24045 Newhall Ranch Rd Ste A-2","City":"Valencia","State":"CA","Zip":"91355"},{"Location":"KCB PRECISION","Address":"29009 Avenue Penn","City":"Valencia","State":"CA","Zip":"91355"},{"Location":"KIA OF VALENCIA","Address":"23901 Creekside Rd","City":"Valencia","State":"CA","Zip":"91355"},{"Location":"KOHL'S #608","Address":"24200 Valencia Blvd","City":"Valencia","State":"CA","Zip":"91355"},{"Location":"KT HAIR AND NAIL SALON","Address":"23134 Valencia Blvd","City":"Valencia","State":"CA","Zip":"91355"},{"Location":"KYOTO SUSHI","Address":"27039 Mcbean Pkwy","City":"Valencia","State":"CA","Zip":"91355"},{"Location":"LA COUNTY SHERRIF DEPT","Address":"26455 Rockwell Canyon Rd","City":"Valencia","State":"CA","Zip":"91355"},{"Location":"LA FIRE STATION 126","Address":"26320 Citrus St","City":"Valencia","State":"CA","Zip":"91355"},{"Location":"LA FITNESS #70","Address":"28211 Newhall Ranch Rd","City":"Valencia","State":"CA","Zip":"91355"},{"Location":"LAFD","Address":"26320 Citrus St","City":"Valencia","State":"CA","Zip":"91355"},{"Location":"LARSENS STEAKHOUSE","Address":"24320 Town Center Dr 130","City":"Valencia","State":"CA","Zip":"91355"},{"Location":"LAVI INDUSTRIES","Address":"27810 Avenue Hopkins","City":"Valencia","State":"CA","Zip":"91355"},{"Location":"LAZY DOG CAFE","Address":"24201 Valencia Blvd 3682","City":"Valencia","State":"CA","Zip":"91355"},{"Location":"LBW INSURANCE","Address":"28055 Smyth Dr","City":"Valencia","State":"CA","Zip":"91355"},{"Location":"LEXUS OF VALENCIA","Address":"24033 Creekside Rd","City":"Valencia","State":"CA","Zip":"91355"},{"Location":"LOCKHEED FEDERAL CREDIT","Address":"27051 Mcbean Pkwy","City":"Valencia","State":"CA","Zip":"91355"},{"Location":"LOS ANGELAS COUNTY SHERIFFS","Address":"26101 Magic Mountain Pkwy","City":"Valencia","State":"CA","Zip":"91355"},{"Location":"LUCILLES VALENCIA","Address":"24201 Valencia Blvd 3660","City":"Valencia","State":"CA","Zip":"91355"},{"Location":"MAGIC MOUNTAIN LLC - BAR","Address":"26101 Magic Mountain Pkwy","City":"Valencia","State":"CA","Zip":"91355"},{"Location":"MARSTONS RESTAURANT","Address":"24011 Newhall Ranch Rd","City":"Valencia","State":"CA","Zip":"91355"},{"Location":"MARTYS FLOORING AMERICA","Address":"23360 Valencia Blvd G","City":"Valencia","State":"CA","Zip":"91355"},{"Location":"MECHANIX WEAR INC","Address":"28525 Witherspoon Pkwy","City":"Valencia","State":"CA","Zip":"91355"},{"Location":"MEHRAN ABBASSIAN DDS INC","Address":"27420 Tourney Rd 250","City":"Valencia","State":"CA","Zip":"91355"},{"Location":"MEN'S WEARHOUSE #2723","Address":"24145 Magic Mountain Pkwy","City":"Valencia","State":"CA","Zip":"91355"},{"Location":"MERCEDES BENZ OF VALENCIA","Address":"23775 Auto Center Dr","City":"Valencia","State":"CA","Zip":"91355"},{"Location":"MERCEDEZ BENZ OF VALENCIA","Address":"23355 Valencia Blvd","City":"Valencia","State":"CA","Zip":"91355"},{"Location":"MERCURY INSURANCE","Address":"27200 Tourney Rd 400","City":"Valencia","State":"CA","Zip":"91355"},{"Location":"MILLIENNIUM MAINTENANCE","Address":"26007 Huntington Ln 11","City":"Valencia","State":"CA","Zip":"91355"},{"Location":"MISSION VALLEY BANK 2","Address":"28159 Avenue Stanford 190","City":"Valencia","State":"CA","Zip":"91355"},{"Location":"MODERN DAY RENTAL","Address":"25327 Avenue Stanford 109","City":"Valencia","State":"CA","Zip":"91355"},{"Location":"MORGAN PRODUCTS","Address":"28111 Avenue Stanford","City":"Valencia","State":"CA","Zip":"91355"},{"Location":"MORGAN STANLEY 100210","Address":"24300 Town Center Dr 102-2","City":"Valencia","State":"CA","Zip":"91355"},{"Location":"MORTGAGE MANAGEMENT CONSULTANT","Address":"27965 Smyth Dr 101","City":"Valencia","State":"CA","Zip":"91355"},{"Location":"MR STAX INC","Address":"25060 Avenue Stanford 200","City":"Valencia","State":"CA","Zip":"91355"},{"Location":"NAIL FORUM VALENCIA","Address":"24216 Valencia Blvd","City":"Valencia","State":"CA","Zip":"91355"},{"Location":"NBTY GLOBAL","Address":"27655 Avenue Hopkins","City":"Valencia","State":"CA","Zip":"91355"},{"Location":"NCIS","Address":"26030 Avenue Hall","City":"Valencia","State":"CA","Zip":"91355"},{"Location":"NCIS","Address":"28343 Avenue Crocker 1","City":"Valencia","State":"CA","Zip":"91355"},{"Location":"NEW GENERATION INSURANCE","Address":"28073 Smyth Dr","City":"Valencia","State":"CA","Zip":"91355"},{"Location":"NILDA M WOOLARD","Address":"23369 Lyons Ave","City":"Valencia","State":"CA","Zip":"91355"},{"Location":"OCHWATT TOOLING","Address":"27520 Avenue Hopkins D","City":"Valencia","State":"CA","Zip":"91355"},{"Location":"ONE 11 INK","Address":"28358 Constellation Rd 650","City":"Valencia","State":"CA","Zip":"91355"},{"Location":"PAST DUE PAYMENTS","Address":"25322 Rye Canyon Rd 200","City":"Valencia","State":"CA","Zip":"91355"},{"Location":"PATTERSON COLLISION CENTER","Address":"24852 Ave Rockefeller","City":"Valencia","State":"CA","Zip":"91355"},{"Location":"PAYLESS WATER HEATERS","Address":"27919 Smyth Dr","City":"Valencia","State":"CA","Zip":"91355"},{"Location":"PIZZA DI MARCO","Address":"27674 Newhall Ranch Rd","City":"Valencia","State":"CA","Zip":"91355"},{"Location":"PLANET YOGURT","Address":"24415 Town Center Dr 125","City":"Valencia","State":"CA","Zip":"91355"},{"Location":"PROFESSIONAL TAX SERVICES","Address":"25124 Springfield Ct 260","City":"Valencia","State":"CA","Zip":"91355"},{"Location":"QDOBA-002286-VALENCIA","Address":"26295 Newhall Ranch Rd","City":"Valencia","State":"CA","Zip":"91355"},{"Location":"RACE TRAINING USA INC","Address":"28494 Westinghouse Pl 211","City":"Valencia","State":"CA","Zip":"91355"},{"Location":"RACECAR TEAM NINE","Address":"28150 Avenue Crocker","City":"Valencia","State":"CA","Zip":"91355"},{"Location":"RAH INDUSTRIES","Address":"28035 Harrison Prwy","City":"Valencia","State":"CA","Zip":"91355"},{"Location":"RAH INDUSTRIES INC","Address":"24800 Ave Rockefeller","City":"Valencia","State":"CA","Zip":"91355"},{"Location":"REAL LIFE CHUCH","Address":"23841 Newhall Ranch Rd","City":"Valencia","State":"CA","Zip":"91355"},{"Location":"REALTY ADVISORY GROUP","Address":"28338 Constellation Rd 950","City":"Valencia","State":"CA","Zip":"91355"},{"Location":"RED LOBSTER #0511","Address":"27524 The Old Rd","City":"Valencia","State":"CA","Zip":"91355"},{"Location":"RED ROBIN #246","Address":"24201 Valencia Blvd 1351","City":"Valencia","State":"CA","Zip":"91355"},{"Location":"ROMI INDUSTRIES","Address":"25443 Rye Canyon Rd","City":"Valencia","State":"CA","Zip":"91355"},{"Location":"RUSTIC EATERY","Address":"25343 Wayne Mills Pl","City":"Valencia","State":"CA","Zip":"91355"},{"Location":"RUSTIC GROUP INC.","Address":"24025 Newhall Ranch Rd","City":"Valencia","State":"CA","Zip":"91355"},{"Location":"SABOR COCINA MEXICANA","Address":"23953 Newhall Ranch Rd","City":"Valencia","State":"CA","Zip":"91355"},{"Location":"SAFE ENVIROMENT # 2","Address":"28474 Westinghouse Pl","City":"Valencia","State":"CA","Zip":"91355"},{"Location":"SAFE ENVIROMENT #1","Address":"28474 Westinghouse Pl","City":"Valencia","State":"CA","Zip":"91355"},{"Location":"SALON CENTRIC","Address":"28145 Harrison Pkwy","City":"Valencia","State":"CA","Zip":"91355"},{"Location":"SALT CREEK GRILLE-VALENC","Address":"24415 Town Center Dr 115","City":"Valencia","State":"CA","Zip":"91355"},{"Location":"SAMS FLAMING GRILL","Address":"25347 Wayne Mills Pl","City":"Valencia","State":"CA","Zip":"91355"},{"Location":"SAMSUNG INFORMATION","Address":"27931 Smyth Dr","City":"Valencia","State":"CA","Zip":"91355"},{"Location":"SANTA CLARITA IMAGING","Address":"25775 Mcbean Pkwy 100","City":"Valencia","State":"CA","Zip":"91355"},{"Location":"SANTA CLARITA KIDNEY CTR","Address":"23861 Mcbean Pkwy E11","City":"Valencia","State":"CA","Zip":"91355"},{"Location":"SANTA CLARITA STUDIOS","Address":"25135 Anza Dr","City":"Valencia","State":"CA","Zip":"91355"},{"Location":"SAUGUS UNION SCHOOL DISTRICT","Address":"24930 Avenue Stanford","City":"Valencia","State":"CA","Zip":"91355"},{"Location":"SCHWART OIL COMPANY","Address":"27241 Henry Mayo Dr","City":"Valencia","State":"CA","Zip":"91355"},{"Location":"SCOTTRADE O04","Address":"27033 Mcbean Pkwy","City":"Valencia","State":"CA","Zip":"91355"},{"Location":"SCV EYE CENTER","Address":"23861 Mcbean Pkwy E12","City":"Valencia","State":"CA","Zip":"91355"},{"Location":"SCV SCHOOL FOOD SVCS AGENCY","Address":"25210 Anza Dr","City":"Valencia","State":"CA","Zip":"91355"},{"Location":"SHARPE INTERIOR SYSTEMS","Address":"28045 Harrison Pkwy","City":"Valencia","State":"CA","Zip":"91355"},{"Location":"SHIELD HEALTHCARE","Address":"27911 Franklin Pkwy","City":"Valencia","State":"CA","Zip":"91355"},{"Location":"SIX FLAGS MAGIC MOUNTAIN","Address":"26101 Magic Mountain Pkwy","City":"Valencia","State":"CA","Zip":"91355"},{"Location":"SKYHIGH VALENCIA LLC","Address":"28656 The Old Rd","City":"Valencia","State":"CA","Zip":"91355"},{"Location":"SMILING FROG","Address":"23969 Newhall Ranch Rd","City":"Valencia","State":"CA","Zip":"91355"},{"Location":"SOLID CONCEPTS","Address":"28309 Avenue Crocker","City":"Valencia","State":"CA","Zip":"91355"},{"Location":"SOLITA VALENCIA","Address":"24201 Valencia Blvd 3470","City":"Valencia","State":"CA","Zip":"91355"},{"Location":"SOUTHERN  CALI  ORTHO INSTITUT","Address":"24051 Newhall Ranch Rd 2","City":"Valencia","State":"CA","Zip":"91355"},{"Location":"SOUTHERN CA EDISON PRE FAB DPT","Address":"25625 Rye Canyon Rd","City":"Valencia","State":"CA","Zip":"91355"},{"Location":"SOUTHERN CALIFORNIA EDISON","Address":"28640 Stanford Ave","City":"Valencia","State":"CA","Zip":"91355"},{"Location":"SOUTHERN CALIFORNIA EDISON","Address":"25625 Rye Canyon Rd","City":"Valencia","State":"CA","Zip":"91355"},{"Location":"SOUTHERN CALIFORNIA GAS COM","Address":"24650 Avenue Rockefeller","City":"Valencia","State":"CA","Zip":"91355"},{"Location":"STOLL METAL CRAFT INC","Address":"24808 Anza Dr","City":"Valencia","State":"CA","Zip":"91355"},{"Location":"STUDIO E VALENCIA","Address":"28005 Smyth Dr","City":"Valencia","State":"CA","Zip":"91355"},{"Location":"SUSHI ONE","Address":"28267 Newhall Ranch Rd","City":"Valencia","State":"CA","Zip":"91355"},{"Location":"SYSTEMS PERFORMANCE GROUP","Address":"28920 Avenue Penn 102","City":"Valencia","State":"CA","Zip":"91355"},{"Location":"TAURIAN BA LLC #1125","Address":"27007 Mcbean Pkwy","City":"Valencia","State":"CA","Zip":"91355"},{"Location":"TEE PLUS","Address":"23407 Lyons Ave","City":"Valencia","State":"CA","Zip":"91355"},{"Location":"TERIYAKI MADNESS","Address":"28227 Newhall Ranch Rd","City":"Valencia","State":"CA","Zip":"91355"},{"Location":"TGI FRIDAY'S #1906","Address":"24201 Valencia Blvd 102","City":"Valencia","State":"CA","Zip":"91355"},{"Location":"THE CHOPHOUSE BAR GRILL INC","Address":"23885 Newhall Ranch Rd","City":"Valencia","State":"CA","Zip":"91355"},{"Location":"THE COURTYARD BAR","Address":"28523 Westinghouse Pl","City":"Valencia","State":"CA","Zip":"91355"},{"Location":"THE GAS CO","Address":"25205 Rye Canyon Rd","City":"Valencia","State":"CA","Zip":"91355"},{"Location":"THE KIRSCHNER GROUP INC","Address":"28328 Constellation Rd","City":"Valencia","State":"CA","Zip":"91355"},{"Location":"THE PAMPERED PET HOTEL AND SPA","Address":"27815 Smyth Dr","City":"Valencia","State":"CA","Zip":"91355"},{"Location":"THE PASEO CLUB BAR","Address":"27650 Dickason Dr","City":"Valencia","State":"CA","Zip":"91355"},{"Location":"THE PASEO CLUB CARDIO","Address":"27650 Dickason Dr","City":"Valencia","State":"CA","Zip":"91355"},{"Location":"THE PASEO CLUB FITNESS","Address":"27650 Dickason Dr","City":"Valencia","State":"CA","Zip":"91355"},{"Location":"THE SHRIMP HAUS","Address":"25373 Wayne Mills Pl","City":"Valencia","State":"CA","Zip":"91355"},{"Location":"THE SIGNAL","Address":"24000 Creekside Rd","City":"Valencia","State":"CA","Zip":"91355"},{"Location":"TILTED KILT PUB & EATERY","Address":"24300 Town Center Dr 110","City":"Valencia","State":"CA","Zip":"91355"},{"Location":"TOPPERS PIZZA 8","Address":"23710 Valencia Blvd","City":"Valencia","State":"CA","Zip":"91355"},{"Location":"TOWN CENTER AUTO SPA","Address":"26575 Mcbean Park Way","City":"Valencia","State":"CA","Zip":"91355"},{"Location":"TRI TIPPS","Address":"27530 Newhall Ranch Rd 101","City":"Valencia","State":"CA","Zip":"91355"},{"Location":"TRIANIM HEALTH SERVICES","Address":"27201 Tourney Rd 115","City":"Valencia","State":"CA","Zip":"91355"},{"Location":"TRIUMPH ACTUAPION SYS VALENCIA","Address":"28150 Harrison Pkwy","City":"Valencia","State":"CA","Zip":"91355"},{"Location":"TVEYES INC","Address":"24923 Avenida Balita","City":"Valencia","State":"CA","Zip":"91355"},{"Location":"ULTRA VIOLET DEVICES INC","Address":"26145 Technology Dr","City":"Valencia","State":"CA","Zip":"91355"},{"Location":"US HEALTH WORKS","Address":"25733 Rye Canyon Rd","City":"Valencia","State":"CA","Zip":"91355"},{"Location":"US HEALTHWORKS","Address":"25124 Springfield Ct 200","City":"Valencia","State":"CA","Zip":"91355"},{"Location":"UTAK LABORATORIES","Address":"25020 Avenue Tibbitts","City":"Valencia","State":"CA","Zip":"91355"},{"Location":"VALENCIA ACURA","Address":"23955 Creekside Rd","City":"Valencia","State":"CA","Zip":"91355"},{"Location":"VALENCIA BMW","Address":"23435 Valencia Blvd","City":"Valencia","State":"CA","Zip":"91355"},{"Location":"VALENCIA BMW 2","Address":"24135 Creekside Rd","City":"Valencia","State":"CA","Zip":"91355"},{"Location":"VALENCIA BODY SHOP INC","Address":"26643 Auto Center Dr","City":"Valencia","State":"CA","Zip":"91355"},{"Location":"VALENCIA CHILDREN'S DENTAL","Address":"27885 Smyth Dr","City":"Valencia","State":"CA","Zip":"91355"},{"Location":"VALENCIA CORP FITNESS","Address":"24445 Town Center Dr","City":"Valencia","State":"CA","Zip":"91355"},{"Location":"VALENCIA EXECUTIVE SUITES II","Address":"28422 Constellation Rd","City":"Valencia","State":"CA","Zip":"91355"},{"Location":"VALENCIA LASER BLAST","Address":"23460 Cinema Dr C","City":"Valencia","State":"CA","Zip":"91355"},{"Location":"VALENCIA NEWS","Address":"23164 Valencia Blvd","City":"Valencia","State":"CA","Zip":"91355"},{"Location":"VALENCIA NISSAN","Address":"24111 Creekside Rd","City":"Valencia","State":"CA","Zip":"91355"},{"Location":"VALENCIA PIPE CO","Address":"28839 Industry Dr","City":"Valencia","State":"CA","Zip":"91355"},{"Location":"VALENCIA RESTAURANT%2FHOT WINGS","Address":"24501 Town Center Dr 101","City":"Valencia","State":"CA","Zip":"91355"},{"Location":"VALENCIA TRAVEL VILLAGE","Address":"29171 Hancock Pkwy","City":"Valencia","State":"CA","Zip":"91355"},{"Location":"VALENCIA WATER COMPANY","Address":"24631 Ave Rockefeller","City":"Valencia","State":"CA","Zip":"91355"},{"Location":"VALENCIA WINE CO.","Address":"24300 Town Center Dr 105","City":"Valencia","State":"CA","Zip":"91355"},{"Location":"VALLARTA SUPERMARKET #19","Address":"23449 Lyons Ave","City":"Valencia","State":"CA","Zip":"91355"},{"Location":"VELOCITY SPORTS PERFORMANCE SC","Address":"28325 Constellation Rd","City":"Valencia","State":"CA","Zip":"91355"},{"Location":"VITEK","Address":"28492 Constellation Rd","City":"Valencia","State":"CA","Zip":"91355"},{"Location":"VTC BUSINESS CENTER","Address":"24303 Town Center Dr 160","City":"Valencia","State":"CA","Zip":"91355"},{"Location":"WENDY'S #4156","Address":"27544 The Old Rd","City":"Valencia","State":"CA","Zip":"91355"},{"Location":"WESTSIDE TAN","Address":"28275 Newhall Ranch Rd","City":"Valencia","State":"CA","Zip":"91355"},{"Location":"WHOLE FOODS MARKET SANTA CLARI","Address":"24130 Valencia Blvd","City":"Valencia","State":"CA","Zip":"91355"},{"Location":"WOKCANO VALENCIA","Address":"24201 Valencia Blvd","City":"Valencia","State":"CA","Zip":"91355"},{"Location":"WOLF CREEK BREWERY","Address":"25108 Rye Canyon Loop","City":"Valencia","State":"CA","Zip":"91355"},{"Location":"YMCA","Address":"26147 Mcbean Pkwy","City":"Valencia","State":"CA","Zip":"91355"},{"Location":"YMS LAUNDRY","Address":"24015 Newhall Ranch Rd","City":"Valencia","State":"CA","Zip":"91355"}]