[{"Location":"CARDIO GIRL","Address":"24003 New Hill River Rd","City":"Valencia","State":"CA","Zip":"91354"},{"Location":"JERSEYS   SUBS","Address":"23872 Copperhill Dr","City":"Valencia","State":"CA","Zip":"91354"},{"Location":"LA IGUANA FRESH BAJA GRILL","Address":"27750 Mcbean Pkwy","City":"Valencia","State":"CA","Zip":"91354"},{"Location":"PEGASUS  STUDIO RENTALS INC","Address":"26515 Bryce Rd","City":"Valencia","State":"CA","Zip":"91354"},{"Location":"PHO SURE","Address":"23876 Copperhill Dr","City":"Valencia","State":"CA","Zip":"91354"},{"Location":"SAMS FLAMING GRILL","Address":"23874 Copperhill Dr","City":"Valencia","State":"CA","Zip":"91354"},{"Location":"TESORO DEL VALLE","Address":"23721 Stoney Creek Rd","City":"Valencia","State":"CA","Zip":"91354"},{"Location":"WOLF CREEK RESTAURANT","Address":"27746 Mcbean Pkwy","City":"Valencia","State":"CA","Zip":"91354"},{"Location":"CARDIO GIRL","Address":"24003 New Hill River Rd","City":"Valencia","State":"CA","Zip":"91354"},{"Location":"JERSEYS   SUBS","Address":"23872 Copperhill Dr","City":"Valencia","State":"CA","Zip":"91354"},{"Location":"LA IGUANA FRESH BAJA GRILL","Address":"27750 Mcbean Pkwy","City":"Valencia","State":"CA","Zip":"91354"},{"Location":"PEGASUS  STUDIO RENTALS INC","Address":"26515 Bryce Rd","City":"Valencia","State":"CA","Zip":"91354"},{"Location":"PHO SURE","Address":"23876 Copperhill Dr","City":"Valencia","State":"CA","Zip":"91354"},{"Location":"SAMS FLAMING GRILL","Address":"23874 Copperhill Dr","City":"Valencia","State":"CA","Zip":"91354"},{"Location":"TESORO DEL VALLE","Address":"23721 Stoney Creek Rd","City":"Valencia","State":"CA","Zip":"91354"},{"Location":"WOLF CREEK RESTAURANT","Address":"27746 Mcbean Pkwy","City":"Valencia","State":"CA","Zip":"91354"}]