[{"Location":"MOVIE MOVERS S-70","Address":"11473 Perose St","City":"Los Angeles","State":"CA","Zip":"91352"},{"Location":"AADLEN BROTHER AUTO WRECKING","Address":"11590 Tuxford St","City":"Sun Valley","State":"CA","Zip":"91352"},{"Location":"AADLEN BROTHER AUTO WRECKING","Address":"8521 Telfair Ave","City":"Sun Valley","State":"CA","Zip":"91352"},{"Location":"ACAPULCO 0002","Address":"8431 Sunland Blvd","City":"Sun Valley","State":"CA","Zip":"91352"},{"Location":"ADLIN BROTHERS AUTO WRECKING","Address":"11409 Penrose St","City":"Sun Valley","State":"CA","Zip":"91352"},{"Location":"ALL E WASTE","Address":"11656 Pendleton St","City":"Sun Valley","State":"CA","Zip":"91352"},{"Location":"ALPHA MEDICAL RESOURCE INC","Address":"7990 San Fernando Rd","City":"Sun Valley","State":"CA","Zip":"91352"},{"Location":"ALT SYSTEMS INC","Address":"7642 Clybourn Ave","City":"Sun Valley","State":"CA","Zip":"91352"},{"Location":"ANGELUS OXYGEN & EQUIPME","Address":"12173 Branford St","City":"Sun Valley","State":"CA","Zip":"91352"},{"Location":"ANTHONYS TIRE CENTER","Address":"9308 Glenoaks Blvd","City":"Sun Valley","State":"CA","Zip":"91352"},{"Location":"ARMENIAN CUSINE","Address":"8131 San Fernando Rd","City":"Sun Valley","State":"CA","Zip":"91352"},{"Location":"AUTOTOPIA","Address":"7654 Clybourn Ave","City":"Sun Valley","State":"CA","Zip":"91352"},{"Location":"BELLS TRUCK","Address":"11644 Sheldon St","City":"Sun Valley","State":"CA","Zip":"91352"},{"Location":"BEST VALLEY INSURANCE","Address":"8416 Lankershim Blvd 206","City":"Sun Valley","State":"CA","Zip":"91352"},{"Location":"BILL MEARS TIRE SERVICE","Address":"11660 Tuxford St","City":"Sun Valley","State":"CA","Zip":"91352"},{"Location":"BOBS BIG BOY","Address":"8274 Sunland Blvd","City":"Sun Valley","State":"CA","Zip":"91352"},{"Location":"BUDS DOUGHNUTS","Address":"8949 Sunland Blvd","City":"Sun Valley","State":"CA","Zip":"91352"},{"Location":"CABINET PLUS","Address":"8520 Tujunga Ave","City":"Sun Valley","State":"CA","Zip":"91352"},{"Location":"CAMPBELL TAX SERVICES","Address":"9116 Sunland Blvd 102","City":"Sun Valley","State":"CA","Zip":"91352"},{"Location":"CORBIS","Address":"11059 Sherman Way","City":"Sun Valley","State":"CA","Zip":"91352"},{"Location":"CROWN DISPOSAL COMPANY INC","Address":"9189 Degarmo Avenue","City":"Sun Valley","State":"CA","Zip":"91352"},{"Location":"DAT AUTO PARTS","Address":"11134 Tuxford St","City":"Sun Valley","State":"CA","Zip":"91352"},{"Location":"DAZIAN","Address":"10671 Lorne St","City":"Sun Valley","State":"CA","Zip":"91352"},{"Location":"DOMINICAN HAIR STYLE","Address":"8440 Laurel Canyon Blvd","City":"Sun Valley","State":"CA","Zip":"91352"},{"Location":"DOUBLE J PACKAGING","Address":"9834 Glenoaks Blvd","City":"Sun Valley","State":"CA","Zip":"91352"},{"Location":"EA MECHANICAL","Address":"7860 Clybourn Ave","City":"Sun Valley","State":"CA","Zip":"91352"},{"Location":"EL COMPADRE RESTAURANT","Address":"8440 Sunland Blvd","City":"Sun Valley","State":"CA","Zip":"91352"},{"Location":"ELECTRO LIGHTING LLC","Address":"11273 Goss St","City":"Sun Valley","State":"CA","Zip":"91352"},{"Location":"ELECTRO LIGHTING LLC 1","Address":"8952 Glenoaks Blvd","City":"Sun Valley","State":"CA","Zip":"91352"},{"Location":"ELMERS AUTO SALE","Address":"7559 Vineland Ave","City":"Sun Valley","State":"CA","Zip":"91352"},{"Location":"EXQYUSITE SURFACES INC","Address":"11817 Wicks St","City":"Sun Valley","State":"CA","Zip":"91352"},{"Location":"FEDEX","Address":"9210 San Fernando Rd","City":"Sun Valley","State":"CA","Zip":"91352"},{"Location":"FERNANDO VARIETY PIGEON CLUB","Address":"9008 Laurel Canyon Blvd","City":"Sun Valley","State":"CA","Zip":"91352"},{"Location":"FILM ILLUSIONS INC","Address":"7410 San Fernando Rd","City":"Sun Valley","State":"CA","Zip":"91352"},{"Location":"GEORGE STUDIO CATERING","Address":"12113 1%2F2 Branford St 6","City":"Sun Valley","State":"CA","Zip":"91352"},{"Location":"GEORGIO'S PIZZA","Address":"8414 Sunland Blvd","City":"Sun Valley","State":"CA","Zip":"91352"},{"Location":"GQ AUTO BODY PAINT","Address":"11585 Sheldon St","City":"Sun Valley","State":"CA","Zip":"91352"},{"Location":"GRACE COMMUNITY CHURCH","Address":"13248 Roscoe Blvd","City":"Sun Valley","State":"CA","Zip":"91352"},{"Location":"GS GUZMAN SERVICE","Address":"9161 San Fernando Rd","City":"Sun Valley","State":"CA","Zip":"91352"},{"Location":"H DISCOUNT FURNITURE","Address":"8462 Sunland Blvd","City":"Sun Valley","State":"CA","Zip":"91352"},{"Location":"HARMONY NAIL","Address":"8721 Sunland Blvd","City":"Sun Valley","State":"CA","Zip":"91352"},{"Location":"INDUSTRIAL METAL SUPPLY","Address":"8300 San Fernando Rd","City":"Sun Valley","State":"CA","Zip":"91352"},{"Location":"J AND P MOTOR SPORTS","Address":"11067 Olinda St","City":"Sun Valley","State":"CA","Zip":"91352"},{"Location":"J&R BARBER SHOP","Address":"8444 Laurel Canyon Blvd","City":"Sun Valley","State":"CA","Zip":"91352"},{"Location":"JM HYDRAULICS INC","Address":"11628 Sheldon St","City":"Sun Valley","State":"CA","Zip":"91352"},{"Location":"KING KONG PRODUCTION","Address":"8924 Lankershim Blvd","City":"Sun Valley","State":"CA","Zip":"91352"},{"Location":"KITOR CORPORATION","Address":"9959 Glenoaks Blvd","City":"Sun Valley","State":"CA","Zip":"91352"},{"Location":"KLEEN CUTS","Address":"8100 Sunland Blvd","City":"Sun Valley","State":"CA","Zip":"91352"},{"Location":"KNOKX PRO ENTERTAINMENT","Address":"11108 Tuxford St","City":"Sun Valley","State":"CA","Zip":"91352"},{"Location":"KOHL'S #1381","Address":"8501 Laurel Canyon Blvd","City":"Sun Valley","State":"CA","Zip":"91352"},{"Location":"L.A. X-RAY","Address":"10940 Tuxford St","City":"Sun Valley","State":"CA","Zip":"91352"},{"Location":"LA COCINA RESTAURANT","Address":"9201 San Fernando Rd","City":"Sun Valley","State":"CA","Zip":"91352"},{"Location":"LA HYDRO JET AND ROOTER SVC","Address":"10639 Wixom St","City":"Sun Valley","State":"CA","Zip":"91352"},{"Location":"LAUREL CANYON DIALYSIS","Address":"8987 Laurel Canyon Blvd","City":"Sun Valley","State":"CA","Zip":"91352"},{"Location":"LENCH MOB PRODUCTION","Address":"7205 Clybourn Ave","City":"Sun Valley","State":"CA","Zip":"91352"},{"Location":"LOVE YOUR HAIR AND BODY","Address":"8141 Sunland Blvd","City":"Sun Valley","State":"CA","Zip":"91352"},{"Location":"MIKES LIQUOR","Address":"9311 San Fernando Rd","City":"Sun Valley","State":"CA","Zip":"91352"},{"Location":"MOVIE MOVERS S-203","Address":"11473 Penrose St","City":"Sun Valley","State":"CA","Zip":"91352"},{"Location":"MOVIE MOVERS S-31","Address":"11473 Penrose St","City":"Sun Valley","State":"CA","Zip":"91352"},{"Location":"MOVIE MOVERS S-63","Address":"11473 Penrose St","City":"Sun Valley","State":"CA","Zip":"91352"},{"Location":"MOVIE MOVERS S-76","Address":"11473 Penrose St","City":"Sun Valley","State":"CA","Zip":"91352"},{"Location":"MOVIE MOVERS S-84","Address":"11473 Penrose St","City":"Sun Valley","State":"CA","Zip":"91352"},{"Location":"OBJECTS","Address":"10623 Keswick St","City":"Sun Valley","State":"CA","Zip":"91352"},{"Location":"PARTNERSHIP STAFFING SOL","Address":"8416 Lankershim Blvd 201","City":"Sun Valley","State":"CA","Zip":"91352"},{"Location":"PENSKE  TRUCKING  LEASING","Address":"11200 Peoria St","City":"Sun Valley","State":"CA","Zip":"91352"},{"Location":"PJS AUTO REPAIR","Address":"8957 Glenoaks Blvd","City":"Sun Valley","State":"CA","Zip":"91352"},{"Location":"PRG","Address":"9111 Sunland Blvd","City":"Sun Valley","State":"CA","Zip":"91352"},{"Location":"RANCHEROS TACOS","Address":"8447 Sunland Blvd","City":"Sun Valley","State":"CA","Zip":"91352"},{"Location":"RELIABLE AUTO COLLISION","Address":"11107 Randall St","City":"Sun Valley","State":"CA","Zip":"91352"},{"Location":"RINCON SALVADORENO","Address":"8731 Lankershim Blvd","City":"Sun Valley","State":"CA","Zip":"91352"},{"Location":"ROSYS","Address":"8434 Laurel Canyon Blvd","City":"Sun Valley","State":"CA","Zip":"91352"},{"Location":"ROYAL","Address":"10888 La Tuna Canyon Rd","City":"Sun Valley","State":"CA","Zip":"91352"},{"Location":"SERRA PHARMACY","Address":"9375 San Fernando Rd","City":"Sun Valley","State":"CA","Zip":"91352"},{"Location":"SHELDON AUTO CARE","Address":"11699 Sheldon St","City":"Sun Valley","State":"CA","Zip":"91352"},{"Location":"SMI DISTRIBUTING INC","Address":"8077 San Fernando Rd","City":"Sun Valley","State":"CA","Zip":"91352"},{"Location":"SO CAL COOP","Address":"9364 San Fernando Rd","City":"Sun Valley","State":"CA","Zip":"91352"},{"Location":"SOL DEL VALLE COMMUNITY CENTER","Address":"10803 Penrose St","City":"Sun Valley","State":"CA","Zip":"91352"},{"Location":"SOUTHWEST MOULDING INC","Address":"11034 Sherman Way B","City":"Sun Valley","State":"CA","Zip":"91352"},{"Location":"SPECTRUM ELECTRIC","Address":"11452 Sheldon St","City":"Sun Valley","State":"CA","Zip":"91352"},{"Location":"SUN VALLEY AMERICAN LEGION","Address":"9026 Sunland Blvd","City":"Sun Valley","State":"CA","Zip":"91352"},{"Location":"SUN VALLEY CARE GIVERS","Address":"11000 Randall St E","City":"Sun Valley","State":"CA","Zip":"91352"},{"Location":"SUN VALLEY CHURCH","Address":"12055 Wicks St","City":"Sun Valley","State":"CA","Zip":"91352"},{"Location":"SUN VALLEY PAPER STOCK","Address":"11166 Pendleton St","City":"Sun Valley","State":"CA","Zip":"91352"},{"Location":"SUNLAND LAUNDRY","Address":"8715 Sunland Blvd","City":"Sun Valley","State":"CA","Zip":"91352"},{"Location":"TAHOE RENTALS","Address":"11834 Roscoe Blvd","City":"Sun Valley","State":"CA","Zip":"91352"},{"Location":"TEE-N-JAY MANUFACTURING","Address":"9145 Glenoaks Blvd","City":"Sun Valley","State":"CA","Zip":"91352"},{"Location":"THE BEST BAD CO","Address":"11174 Fleetwood St","City":"Sun Valley","State":"CA","Zip":"91352"},{"Location":"THE HOUND DOG","Address":"8749 Glenoaks Blvd","City":"Sun Valley","State":"CA","Zip":"91352"},{"Location":"THE POLYGON GROUP","Address":"9723 Glenoaks Blvd","City":"Sun Valley","State":"CA","Zip":"91352"},{"Location":"TIMELESS BEAUTY STUDIO","Address":"11101 Sherman Way 7","City":"Sun Valley","State":"CA","Zip":"91352"},{"Location":"VALLEY MARBLE AND GRANITE","Address":"12320 Branford St F","City":"Sun Valley","State":"CA","Zip":"91352"},{"Location":"W&J CUNNINGHAM INC","Address":"8548 Lankershim Blvd","City":"Sun Valley","State":"CA","Zip":"91352"},{"Location":"WEST EFFEX","Address":"11635 Sheldon St","City":"Sun Valley","State":"CA","Zip":"91352"},{"Location":"WET DESIGN","Address":"10901 Sherman Way","City":"Sun Valley","State":"CA","Zip":"91352"},{"Location":"WILLOWS MOTEL","Address":"8333 Glenoaks Blvd","City":"Sun Valley","State":"CA","Zip":"91352"},{"Location":"SUGAR FOOD CORP","Address":"9500 Eldorado Ave","City":"Sunvalley","State":"CA","Zip":"91352"}]