[{"Location":"ANGELOS BARBERSHOP","Address":"27261 Camp Plenty Rd","City":"Canyon Country","State":"CA","Zip":"91351"},{"Location":"AZTECA DEV-COUSINS BURGERS","Address":"19318 Soledad Canyon Rd","City":"Canyon Country","State":"CA","Zip":"91351"},{"Location":"BECICOS","Address":"18902 Soledad Cyn","City":"Canyon Country","State":"CA","Zip":"91351"},{"Location":"BIER ACADEMY","Address":"18511 Soledad Cyn","City":"Canyon Country","State":"CA","Zip":"91351"},{"Location":"BUFFALO WILD WINGS #3687","Address":"19252 Soledad Canyon Rd","City":"Canyon Country","State":"CA","Zip":"91351"},{"Location":"CARRIAGE TRADE CLEANERS","Address":"19324 Soledad Canyon Rd","City":"Canyon Country","State":"CA","Zip":"91351"},{"Location":"CASA VIEJA GRILL","Address":"19238 Stillmore St","City":"Canyon Country","State":"CA","Zip":"91351"},{"Location":"CHARCOAL KOREAN BBQ INC","Address":"19158 Soledad Canyon Rd","City":"Canyon Country","State":"CA","Zip":"91351"},{"Location":"CIGAR STORE ONE","Address":"18563 Soledad Canyon Rd","City":"Canyon Country","State":"CA","Zip":"91351"},{"Location":"CLH MANAGEMENT","Address":"19042 Soledad Canyon Rd","City":"Canyon Country","State":"CA","Zip":"91351"},{"Location":"DAZZALING BEAUTY SALON","Address":"27125 Sierra Hwy","City":"Canyon Country","State":"CA","Zip":"91351"},{"Location":"DICKEYS BBQ PITT","Address":"18742 Soledad Cyn","City":"Canyon Country","State":"CA","Zip":"91351"},{"Location":"DKL CORPORATION","Address":"18812 Soledad Canyon Rd","City":"Canyon Country","State":"CA","Zip":"91351"},{"Location":"DLC CC INC","Address":"18744 Soledad Canyon Rd","City":"Canyon Country","State":"CA","Zip":"91351"},{"Location":"EPN-MARK WILLIAMS","Address":"26974 Rainbow Glen Dr","City":"Canyon Country","State":"CA","Zip":"91351"},{"Location":"FAIRBANKS","Address":"17205 Sierra Hwy 104","City":"Canyon Country","State":"CA","Zip":"91351"},{"Location":"FIESTA GRILL","Address":"27251 1%2F2 Camp Plenty Rd","City":"Canyon Country","State":"CA","Zip":"91351"},{"Location":"GINA DORFMAN DDS","Address":"18635 Soledad Canyon Rd 108","City":"Canyon Country","State":"CA","Zip":"91351"},{"Location":"HACIENDA DON CUCO","Address":"27247 Camp Plenty Rd","City":"Canyon Country","State":"CA","Zip":"91351"},{"Location":"JIM WAGNERS THROW ZONE","Address":"26846 Oak Ave","City":"Canyon Country","State":"CA","Zip":"91351"},{"Location":"JMSCV INC.","Address":"18635 Soledad Canyon Rd 104","City":"Canyon Country","State":"CA","Zip":"91351"},{"Location":"JULIO LEMOS INSURANCE SERVICES","Address":"27255 Camp Plenty Rd","City":"Canyon Country","State":"CA","Zip":"91351"},{"Location":"LOVE SUSHI","Address":"18521 Soledad Canyon Rd","City":"Canyon Country","State":"CA","Zip":"91351"},{"Location":"MARIA BONITA MEX REST","Address":"20655 Soledad Canyon Rd 5","City":"Canyon Country","State":"CA","Zip":"91351"},{"Location":"MARIO THE MECHANIC","Address":"27266 Camp Plenty Rd A","City":"Canyon Country","State":"CA","Zip":"91351"},{"Location":"MID CANYON DENTAL","Address":"17752 Sierra Hwy","City":"Canyon Country","State":"CA","Zip":"91351"},{"Location":"MINT CANYON MOOSE LODGE","Address":"18000 Sierra Hwy","City":"Canyon Country","State":"CA","Zip":"91351"},{"Location":"MJ BARBER SHOP","Address":"19443 Soledad Canyon Rd 7","City":"Canyon Country","State":"CA","Zip":"91351"},{"Location":"MY DOGS GENIE","Address":"20655 Soledad Canyon Rd 42","City":"Canyon Country","State":"CA","Zip":"91351"},{"Location":"OGGI'S PIZZA","Address":"18810 Soledad Canyon Rd","City":"Canyon Country","State":"CA","Zip":"91351"},{"Location":"PARADISE HOME","Address":"20319 Cedarcreek St","City":"Canyon Country","State":"CA","Zip":"91351"},{"Location":"PHAT N JUICY BURGERS 1","Address":"27598 Sierra Hwy","City":"Canyon Country","State":"CA","Zip":"91351"},{"Location":"PHO VIET RESTAURANT","Address":"18741 Soledad Canyon Rd","City":"Canyon Country","State":"CA","Zip":"91351"},{"Location":"PI NAILS","Address":"18567 Soledad Canyon Rd","City":"Canyon Country","State":"CA","Zip":"91351"},{"Location":"PICO RICO","Address":"18517 Soledad Canyon Rd","City":"Canyon Country","State":"CA","Zip":"91351"},{"Location":"REEVES REAR END REPAIR AND SER","Address":"26821 Ruether Ave G","City":"Canyon Country","State":"CA","Zip":"91351"},{"Location":"RICKYS LIQUOR","Address":"18520 W Soledad Ave M-n","City":"Canyon Country","State":"CA","Zip":"91351"},{"Location":"ROUTE 66","Address":"18730 Soledad Canyon Rd","City":"Canyon Country","State":"CA","Zip":"91351"},{"Location":"SULPHUR SPRINGS SCHOOL DISTRIC","Address":"27000 Weyerhauser Way","City":"Canyon Country","State":"CA","Zip":"91351"},{"Location":"THE DOCTORS OFFICE","Address":"19223 Soledad Canyon Rd","City":"Canyon Country","State":"CA","Zip":"91351"},{"Location":"TRI TIPPS 2","Address":"27125 Sierra Hwy 600","City":"Canyon Country","State":"CA","Zip":"91351"},{"Location":"VARGO PHYSICAL THERAPY6","Address":"27125 Sierra Hwy","City":"Canyon Country","State":"CA","Zip":"91351"},{"Location":"VFW","Address":"16208 Sierra Hwy","City":"Canyon Country","State":"CA","Zip":"91351"},{"Location":"VFW 6110","Address":"16555 Sierra Hwy","City":"Canyon Country","State":"CA","Zip":"91351"},{"Location":"VV NAILS 2","Address":"27596 Sierra Hwy","City":"Canyon Country","State":"CA","Zip":"91351"},{"Location":"EVEREST  RESTAURANT  2","Address":"18645 Soledad Canyon Rd","City":"Santa Clarita","State":"CA","Zip":"91351"},{"Location":"MOUNTAIN VIEW ALARM INC","Address":"26752 Oak Ave M","City":"Santa Clarita","State":"CA","Zip":"91351"},{"Location":"RAY INSTITUTE INC","Address":"26503 Cockleburr Ln","City":"Santa Clarita","State":"CA","Zip":"91351"},{"Location":"SANDI THOMAS","Address":"18712 Soledad Canyon Rd","City":"Santa Clarita","State":"CA","Zip":"91351"},{"Location":"WARREN MOSES","Address":"27570 Sierra Hwy","City":"Santa Clarita","State":"CA","Zip":"91351"},{"Location":"WING STOP","Address":"18547 Soledad Canyon Rd","City":"Santa Clarita","State":"CA","Zip":"91351"}]