[{"Location":"5955 DE SOTO LLC","Address":"5955 De Soto Ave 120","City":"Woodland Hills","State":"CA","Zip":"91367"},{"Location":"ADVANTAGE AMG","Address":"21031 Warner Center Ln 150","City":"Woodland Hills","State":"CA","Zip":"91367"},{"Location":"ARROW LOS ANGELES OFFICE","Address":"20935 Warner Center Ln Ste 1","City":"Woodland Hills","State":"CA","Zip":"91367"},{"Location":"ASSOCIATED FOREIGN EXCHA","Address":"21045 Califa St","City":"Woodland Hills","State":"CA","Zip":"91367"},{"Location":"BJS RESTAURANT #415","Address":"6424 Canoga Ave","City":"Woodland Hills","State":"CA","Zip":"91367"},{"Location":"BLUE SHIELD OF CA","Address":"6300 Canoga Ave 1","City":"Woodland Hills","State":"CA","Zip":"91367"},{"Location":"CNM LLP","Address":"21051 Warner Center Ln 140","City":"Woodland Hills","State":"CA","Zip":"91367"},{"Location":"CREATIVE RESOURCE ASSOCIATIVE","Address":"21759 Irwin St 2nd Floor","City":"Woodland Hills","State":"CA","Zip":"91367"},{"Location":"DANCE DIMENSIONS","Address":"6100 Topanga Canyon Blvd 1380","City":"Woodland Hills","State":"CA","Zip":"91367"},{"Location":"EL TORITO 7034","Address":"6040 Canoga Ave","City":"Woodland Hills","State":"CA","Zip":"91367"},{"Location":"EQUINOX FITNESS #1","Address":"21530 Oxnard St","City":"Woodland Hills","State":"CA","Zip":"91367"},{"Location":"EQUINOX FITNESS #2","Address":"21530 Oxnard St","City":"Woodland Hills","State":"CA","Zip":"91367"},{"Location":"EQUITY OFFICE","Address":"22144 Clarendon St 280","City":"Woodland Hills","State":"CA","Zip":"91367"},{"Location":"FARMERS 10TH FLOOR","Address":"6303 Owensmouth Ave","City":"Woodland Hills","State":"CA","Zip":"91367"},{"Location":"FARMERS 3RD FLOOR","Address":"6301 Owensmouth Ave","City":"Woodland Hills","State":"CA","Zip":"91367"},{"Location":"FARMERS INSURANCE","Address":"6303 Owensmouth Ave 1","City":"Woodland Hills","State":"CA","Zip":"91367"},{"Location":"FARMERS INSURANCE 2ND FL","Address":"6303 Owensmouth Ave","City":"Woodland Hills","State":"CA","Zip":"91367"},{"Location":"FLEMING'S #1507","Address":"6373 Topanga Canyon Blvd","City":"Woodland Hills","State":"CA","Zip":"91367"},{"Location":"GENNES INC GAUCHO GRILL","Address":"6435 Canoga Ave","City":"Woodland Hills","State":"CA","Zip":"91367"},{"Location":"GOLDEN SHEARS GROOMING%2C INC","Address":"5334 Ponce Ave","City":"Woodland Hills","State":"CA","Zip":"91367"},{"Location":"GOLDEN STATE WOK","Address":"21028 Victory Blvd","City":"Woodland Hills","State":"CA","Zip":"91367"},{"Location":"GOLFSMITH #032","Address":"21494 Victory Blvd","City":"Woodland Hills","State":"CA","Zip":"91367"},{"Location":"HARUNAMI INC","Address":"6020 Canoga Ave 100","City":"Woodland Hills","State":"CA","Zip":"91367"},{"Location":"HCF INSURANCE AGENCY INC","Address":"21747 Erwin St 2","City":"Woodland Hills","State":"CA","Zip":"91367"},{"Location":"HILTON WOODLAND HILLS (0052873","Address":"6360 Canoga Ave","City":"Woodland Hills","State":"CA","Zip":"91367"},{"Location":"HOLWICK CONSTRUCTORS","Address":"21011 Warner Center Ln C","City":"Woodland Hills","State":"CA","Zip":"91367"},{"Location":"HOOK BURGER","Address":"6201 Topanga Canyon Blvd","City":"Woodland Hills","State":"CA","Zip":"91367"},{"Location":"HOWARDS DELI","Address":"20970 Warner Center Ln","City":"Woodland Hills","State":"CA","Zip":"91367"},{"Location":"IN HIS PRESENCE CHURCH","Address":"21300 Califa St","City":"Woodland Hills","State":"CA","Zip":"91367"},{"Location":"INPUT","Address":"6200 Canoga Ave 400","City":"Woodland Hills","State":"CA","Zip":"91367"},{"Location":"INTER%2FMEDIA ADVERTISING","Address":"22120 Clarendon St 3fl","City":"Woodland Hills","State":"CA","Zip":"91367"},{"Location":"KERN ORGANIZATION","Address":"20955 Warner Center Ln","City":"Woodland Hills","State":"CA","Zip":"91367"},{"Location":"KEYES WOODLAND HILLS HONDA","Address":"6111 Topanga Canyon Blvd","City":"Woodland Hills","State":"CA","Zip":"91367"},{"Location":"KINECTA FEDERAL CREDIT UNION","Address":"21440 Victory Blvd","City":"Woodland Hills","State":"CA","Zip":"91367"},{"Location":"LA FITNESS #96","Address":"6401 Canoga Ave","City":"Woodland Hills","State":"CA","Zip":"91367"},{"Location":"LANDAU SWARTZ & MCCARTY","Address":"21300 Victory Blvd 420","City":"Woodland Hills","State":"CA","Zip":"91367"},{"Location":"LANDSBERG & ASSOCIATES","Address":"5950 Canoga Ave 605","City":"Woodland Hills","State":"CA","Zip":"91367"},{"Location":"LAW OFFICES OF DALE K GALIPO","Address":"21800 Burbank Blvd 310","City":"Woodland Hills","State":"CA","Zip":"91367"},{"Location":"LOCKHEED FEDERAL CREDIT UNION","Address":"21520 Victory Blvd","City":"Woodland Hills","State":"CA","Zip":"91367"},{"Location":"M%2FV ARDALAN","Address":"5950 Canoga Ave 610","City":"Woodland Hills","State":"CA","Zip":"91367"},{"Location":"MAGGIANO'S #0165","Address":"6100 Topanga Canyon Blvd","City":"Woodland Hills","State":"CA","Zip":"91367"},{"Location":"MEDPOINT MANAGEMENT","Address":"6400 Canoga Ave 350","City":"Woodland Hills","State":"CA","Zip":"91367"},{"Location":"MEN'S WEARHOUSE #2702","Address":"6400 Owensmouth Ave","City":"Woodland Hills","State":"CA","Zip":"91367"},{"Location":"MORGAN STANLEY 100211","Address":"21650 Oxnard St","City":"Woodland Hills","State":"CA","Zip":"91367"},{"Location":"MORTON'S WOODLAND HILL","Address":"6250 Canoga Ave","City":"Woodland Hills","State":"CA","Zip":"91367"},{"Location":"NETZERO","Address":"21255 Burbank Blvd 100","City":"Woodland Hills","State":"CA","Zip":"91367"},{"Location":"NORDSTROMS RACK","Address":"21490 Victory Blvd","City":"Woodland Hills","State":"CA","Zip":"91367"},{"Location":"PANINI CAFE WOODLAND HIL","Address":"21600 Victory Blvd","City":"Woodland Hills","State":"CA","Zip":"91367"},{"Location":"PETER C FOY & ASSOCIATES","Address":"6200 Canoga Ave 325","City":"Woodland Hills","State":"CA","Zip":"91367"},{"Location":"PF CHANG'S #4200","Address":"21821 Oxnard St","City":"Woodland Hills","State":"CA","Zip":"91367"},{"Location":"PULMONARY PROVIDERS INC","Address":"6457 Independence Ave","City":"Woodland Hills","State":"CA","Zip":"91367"},{"Location":"REGAL AIRCRAFT INC","Address":"5855 Topanga Canyon Blvd 330","City":"Woodland Hills","State":"CA","Zip":"91367"},{"Location":"RLJ ENTERTAINMENT","Address":"6320 Canoga Ave 800","City":"Woodland Hills","State":"CA","Zip":"91367"},{"Location":"ROY'S RESTAURANT #2505","Address":"6363 Topanga Canyon Blvd","City":"Woodland Hills","State":"CA","Zip":"91367"},{"Location":"RUTHS CHRIS STEAKHOUSE","Address":"6100 Topanga Canyon Blvd","City":"Woodland Hills","State":"CA","Zip":"91367"},{"Location":"SENOR GRANDES","Address":"21514 Victory Blvd","City":"Woodland Hills","State":"CA","Zip":"91367"},{"Location":"SHIPSURANCE","Address":"21800 Burbank Blvd 240","City":"Woodland Hills","State":"CA","Zip":"91367"},{"Location":"SKY HIGH SPORTS WOODLAND HILLS","Address":"6033 De Soto Ave","City":"Woodland Hills","State":"CA","Zip":"91367"},{"Location":"SOUTHERN CAL VET HOSPITAL","Address":"5421 Topanga Canyon Blvd","City":"Woodland Hills","State":"CA","Zip":"91367"},{"Location":"ST BERNADINE CHURCH","Address":"24410 Calvert St","City":"Woodland Hills","State":"CA","Zip":"91367"},{"Location":"SUSHI TEMPTATION","Address":"6100 Topanga Canyon Blvd 2290","City":"Woodland Hills","State":"CA","Zip":"91367"},{"Location":"TGI FRIDAY'S #1904","Address":"5919 Canoga Ave","City":"Woodland Hills","State":"CA","Zip":"91367"},{"Location":"THE AMERICAN RED CROSS","Address":"6338 Variel Ave","City":"Woodland Hills","State":"CA","Zip":"91367"},{"Location":"THE RACK LLC","Address":"6100 Topanga Canyon Blvd 2150","City":"Woodland Hills","State":"CA","Zip":"91367"},{"Location":"THE SHOT ZONE INC","Address":"21320 Oxnard St","City":"Woodland Hills","State":"CA","Zip":"91367"},{"Location":"TOPANGA TRAINING & FITNESS","Address":"5441 Topanga Canyon Blvd","City":"Woodland Hills","State":"CA","Zip":"91367"},{"Location":"TWONW LLC","Address":"6400 Independence Ave","City":"Woodland Hills","State":"CA","Zip":"91367"},{"Location":"UMG - OWENSMOUTH","Address":"6301 Owensmouth Ave","City":"Woodland Hills","State":"CA","Zip":"91367"},{"Location":"UNDERHILL INSURANCE","Address":"5951 Canoga Ave","City":"Woodland Hills","State":"CA","Zip":"91367"},{"Location":"UNITED IMAGING","Address":"21201 Oxnard St","City":"Woodland Hills","State":"CA","Zip":"91367"},{"Location":"UNIVERSAL MUSIC GROUP","Address":"5820 Canoga Ave 220","City":"Woodland Hills","State":"CA","Zip":"91367"},{"Location":"US LEGAL SUPPORT","Address":"20970 Warner Center Ln","City":"Woodland Hills","State":"CA","Zip":"91367"},{"Location":"US TAX SHIELD","Address":"6300 Canoga Ave 1700","City":"Woodland Hills","State":"CA","Zip":"91367"},{"Location":"WARNER CENTER PET CLINIC","Address":"20930 Victory Blvd","City":"Woodland Hills","State":"CA","Zip":"91367"},{"Location":"WELLPOINT CAREMORE","Address":"21555 Oxnard St","City":"Woodland Hills","State":"CA","Zip":"91367"},{"Location":"WEST VALLEY SOCCER LEAGU","Address":"6430 Variel Ave 103","City":"Woodland Hills","State":"CA","Zip":"91367"},{"Location":"WOODLAND HILLS ATHLETIC CLUB","Address":"20971 Burbank Blvd","City":"Woodland Hills","State":"CA","Zip":"91367"},{"Location":"WOODLAND HILLS BUICK","Address":"6133 Topanga Canyon Blvd","City":"Woodland Hills","State":"CA","Zip":"91367"},{"Location":"ZEN BUFFET","Address":"21610 Victory Blvd","City":"Woodland Hills","State":"CA","Zip":"91367"},{"Location":"ZENITH  INSURANCE","Address":"21255 Califa St","City":"Woodland Hills","State":"CA","Zip":"91367"},{"Location":"ZENITH INSURANCE INC","Address":"21155 Califa St","City":"Woodland Hills","State":"CA","Zip":"91367"},{"Location":"ZURAVIN FAMILY TRUST","Address":"21400 Burbank Blvd 123","City":"Woodland Hills","State":"CA","Zip":"91367"},{"Location":"ZURICH NA","Address":"6303 Owensmouth Ave 1flr","City":"Woodland Hills","State":"CA","Zip":"91367"}]