[{"Location":"UMI SUSHI RESATUARANT","Address":"30819 Thousands Oaks Blvd","City":"Los Angeles","State":"CA","Zip":"91362"},{"Location":"24 HOUR FITNESS #89","Address":"2595 Thousand Oaks Blvd","City":"Thousand Oaks","State":"CA","Zip":"91362"},{"Location":"AMECI PIZZA & PASTA","Address":"1724 E Avenida De Los Arboles","City":"Thousand Oaks","State":"CA","Zip":"91362"},{"Location":"CARLSON BUILDING MATERIALS","Address":"1432 Thousand Oaks Blvd","City":"Thousand Oaks","State":"CA","Zip":"91362"},{"Location":"CISCO'S MEXICAN RESTAURANT","Address":"1712 E Avenida De Los Arboles","City":"Thousand Oaks","State":"CA","Zip":"91362"},{"Location":"CONEJO AUTO DETAILING","Address":"3177 Thousand Oaks Blvd","City":"Thousand Oaks","State":"CA","Zip":"91362"},{"Location":"DIAR MARKET INC","Address":"2671 E Thousand Oaks Blvd","City":"Thousand Oaks","State":"CA","Zip":"91362"},{"Location":"FIRESTONE #014575","Address":"1100 E Thousand Oaks Blvd","City":"Thousand Oaks","State":"CA","Zip":"91362"},{"Location":"GOLDEN DRAGON","Address":"2416 E Thousand Oaks Blvd","City":"Thousand Oaks","State":"CA","Zip":"91362"},{"Location":"HAMPSHIRE LIQUOR","Address":"11 Hampshire Rd","City":"Thousand Oaks","State":"CA","Zip":"91362"},{"Location":"HOGAN FAMILY FOUNDATION","Address":"2001 E Thousand Oaks Blvd","City":"Thousand Oaks","State":"CA","Zip":"91362"},{"Location":"J C PLUMBING N THINGS","Address":"3238 E Thousand Oaks Blvd","City":"Thousand Oaks","State":"CA","Zip":"91362"},{"Location":"JIFFY LUBE 0681","Address":"2905 E Thousand Oaks Blvd","City":"Thousand Oaks","State":"CA","Zip":"91362"},{"Location":"JIFFY LUBE 3232","Address":"1695 E Thousand Oaks Blvd","City":"Thousand Oaks","State":"CA","Zip":"91362"},{"Location":"JINKYS CAFE","Address":"1724 E Avenida De Los Arboles","City":"Thousand Oaks","State":"CA","Zip":"91362"},{"Location":"JUST TIRES #4863","Address":"2343 Thousand Oaks Blvd","City":"Thousand Oaks","State":"CA","Zip":"91362"},{"Location":"LA CARRETA","Address":"75 S Rancho Rd B","City":"Thousand Oaks","State":"CA","Zip":"91362"},{"Location":"LAGS SPINE & SPORT CARE","Address":"1459 E Thousand Oaks Blvd A3","City":"Thousand Oaks","State":"CA","Zip":"91362"},{"Location":"LOGIX","Address":"2060 E Avenida De Los Arboles","City":"Thousand Oaks","State":"CA","Zip":"91362"},{"Location":"MASTRO'S STEAKHOUSE","Address":"2087 E Thousand Oaks Blvd","City":"Thousand Oaks","State":"CA","Zip":"91362"},{"Location":"MIL ROBLES DENTAL","Address":"2940 E Thousand Oaks Blvd D","City":"Thousand Oaks","State":"CA","Zip":"91362"},{"Location":"MULBERRY STREET PIZZA","Address":"1655 E Thousand Oaks Blvd 104","City":"Thousand Oaks","State":"CA","Zip":"91362"},{"Location":"OAK ZONE","Address":"3212 E Thousand Oaks Blvd","City":"Thousand Oaks","State":"CA","Zip":"91362"},{"Location":"OAKSTONE GLASS CORP","Address":"3330 E Thousand Oaks Blvd","City":"Thousand Oaks","State":"CA","Zip":"91362"},{"Location":"ORCHARD SUPPLY HARDWARE","Address":"1934 E Avenida De Los Arboles","City":"Thousand Oaks","State":"CA","Zip":"91362"},{"Location":"PACIFIC DENTAL-THOUSAND OAKS","Address":"1760 E Avenida De Los Arboles A","City":"Thousand Oaks","State":"CA","Zip":"91362"},{"Location":"PACIFIC FRESH GRILL","Address":"2060 E Avenida De Los Arboles","City":"Thousand Oaks","State":"CA","Zip":"91362"},{"Location":"PEP BOYS AUTO PARTS","Address":"2099 E Thousand Oaks Blvd","City":"Thousand Oaks","State":"CA","Zip":"91362"},{"Location":"PEPROTECH","Address":"31238 Zia Colina","City":"Thousand Oaks","State":"CA","Zip":"91362"},{"Location":"PF CHANG'S #9964","Address":"2250 E Thousand Oaks Blvd","City":"Thousand Oaks","State":"CA","Zip":"91362"},{"Location":"PREMIER COACH","Address":"3053 Los Feliz Dr","City":"Thousand Oaks","State":"CA","Zip":"91362"},{"Location":"RAMIEZ SERVICIOS LATINOS","Address":"1374 E Thousand Oaks Blvd","City":"Thousand Oaks","State":"CA","Zip":"91362"},{"Location":"RAZOR'S EDGE","Address":"3275 E Thousand Oaks Blvd 101a","City":"Thousand Oaks","State":"CA","Zip":"91362"},{"Location":"RHINELAND DELI","Address":"2346 E Thousand Oaks Blvd","City":"Thousand Oaks","State":"CA","Zip":"91362"},{"Location":"SABOR COCINA MEXICANA","Address":"2200 E Thousand Oaks Blvd","City":"Thousand Oaks","State":"CA","Zip":"91362"},{"Location":"SAILS LOS ANGELES","Address":"2065 Erbes Rd","City":"Thousand Oaks","State":"CA","Zip":"91362"},{"Location":"SCOTTRADE 54E","Address":"1610 E Thousand Oaks Blvd C","City":"Thousand Oaks","State":"CA","Zip":"91362"},{"Location":"SPECIALTY FITNESS","Address":"3255 E Thousand Oaks Blvd A","City":"Thousand Oaks","State":"CA","Zip":"91362"},{"Location":"SPORT CLIPS CA755","Address":"2072 E Avenida De Los Arboles","City":"Thousand Oaks","State":"CA","Zip":"91362"},{"Location":"STORQUEST","Address":"100 N Skyline Dr","City":"Thousand Oaks","State":"CA","Zip":"91362"},{"Location":"THE CROWN & ANCHOR","Address":"2891 E Thousand Oaks Blvd","City":"Thousand Oaks","State":"CA","Zip":"91362"},{"Location":"THE MERMAID TAVERN","Address":"1345 E Thousand Oaks Blvd","City":"Thousand Oaks","State":"CA","Zip":"91362"},{"Location":"THE TIPSY GOAT","Address":"159 Thousand Oaks Blvd","City":"Thousand Oaks","State":"CA","Zip":"91362"},{"Location":"THOUSAND OAKS COIN LAUNDRY","Address":"1380 E Thousand Oaks Blvd","City":"Thousand Oaks","State":"CA","Zip":"91362"},{"Location":"THOUSAND OAKS ELKS LODGE 24777","Address":"158 N Conejo School Rd","City":"Thousand Oaks","State":"CA","Zip":"91362"},{"Location":"THOUSAND OAKS TOYOTA & SCION","Address":"2401 E Thousand Oaks Blvd","City":"Thousand Oaks","State":"CA","Zip":"91362"},{"Location":"TILTED KILT","Address":"1435 E Thousand Oaks Blvd","City":"Thousand Oaks","State":"CA","Zip":"91362"},{"Location":"TIRE PROS","Address":"3209 E Thousand Oaks Blvd","City":"Thousand Oaks","State":"CA","Zip":"91362"},{"Location":"TO CW LLC","Address":"2725 E Thousand Oaks Blvd","City":"Thousand Oaks","State":"CA","Zip":"91362"},{"Location":"TO JEWLERY","Address":"2539 E Thousand Oaks Blvd","City":"Thousand Oaks","State":"CA","Zip":"91362"},{"Location":"TOMMYS RESTAURANT","Address":"3085 E Thousand Oaks Blvd","City":"Thousand Oaks","State":"CA","Zip":"91362"},{"Location":"UMAMI BURGER","Address":"2200 E Thousand Oaks Blvd","City":"Thousand Oaks","State":"CA","Zip":"91362"},{"Location":"WEST OAKS DENTAL ARTS","Address":"2940 Thousand Oaks Blvd D","City":"Thousand Oaks","State":"CA","Zip":"91362"},{"Location":"WOK N SOUTH","Address":"2689 E Thousand Oaks Blvd","City":"Thousand Oaks","State":"CA","Zip":"91362"},{"Location":"XHALE HOOKA LOUNGE","Address":"1414 E Thousand Oaks Blvd 101","City":"Thousand Oaks","State":"CA","Zip":"91362"},{"Location":"ACURA OF THOUSAND OAKS","Address":"3945 Auto Mall Dr","City":"Westlake Village","State":"CA","Zip":"91362"},{"Location":"ALLEN CONSTRUCTION","Address":"31356 Via Colinas 107","City":"Westlake Village","State":"CA","Zip":"91362"},{"Location":"AMERIFIRST FINANCIAL","Address":"31200 Via Colinas 110","City":"Westlake Village","State":"CA","Zip":"91362"},{"Location":"ARNETTE DENTISTRY'S%2C INC","Address":"179 Auburn Ct 2","City":"Westlake Village","State":"CA","Zip":"91362"},{"Location":"B C SEARCH PARTNERS LLC","Address":"31255 Cedar Valley Dr","City":"Westlake Village","State":"CA","Zip":"91362"},{"Location":"BANK OF AMERICA CA9-159-02-02","Address":"200 N Westlake Blvd","City":"Westlake Village","State":"CA","Zip":"91362"},{"Location":"BAXTER HEALTHCARE","Address":"1 Baxter Way","City":"Westlake Village","State":"CA","Zip":"91362"},{"Location":"BC BC NAIL","Address":"30750 Russell Ranch Rd A","City":"Westlake Village","State":"CA","Zip":"91362"},{"Location":"BELAIR HOUSING FOUNDATION","Address":"2220 N Westlake Blvd","City":"Westlake Village","State":"CA","Zip":"91362"},{"Location":"BESCO ASSOCIATES","Address":"31192 La Baya Dr H","City":"Westlake Village","State":"CA","Zip":"91362"},{"Location":"BJS RESTAURANT #426","Address":"3955 Thousand Oaks Blvd","City":"Westlake Village","State":"CA","Zip":"91362"},{"Location":"BLVD MOTOR CAR COMPANY","Address":"31250 Cedar Valley Dr","City":"Westlake Village","State":"CA","Zip":"91362"},{"Location":"BRIDGEPOINT PACIFIC GROUP INC","Address":"31324 Via Colinas 101","City":"Westlake Village","State":"CA","Zip":"91362"},{"Location":"BURKHALTER MICHAEL KESSLER & G","Address":"340 N Westlake Blvd","City":"Westlake Village","State":"CA","Zip":"91362"},{"Location":"CALIFORNIA CINEMA INVESTMENTS","Address":"180 Promenade Way","City":"Westlake Village","State":"CA","Zip":"91362"},{"Location":"CAPRI NAIL SPA","Address":"650 S Westlake Blvd 100","City":"Westlake Village","State":"CA","Zip":"91362"},{"Location":"CARRIERE MEN WEAR","Address":"30770 Russell Ranch Rd 6","City":"Westlake Village","State":"CA","Zip":"91362"},{"Location":"CDH ASSOCIATES","Address":"5655 Lindero Cyn 226","City":"Westlake Village","State":"CA","Zip":"91362"},{"Location":"COASTAL FRESH FARM  INC","Address":"3625 E Thousand Oaks Blvd 243","City":"Westlake Village","State":"CA","Zip":"91362"},{"Location":"CONEJO DYNAMICS","Address":"31360 Via Colinas 104","City":"Westlake Village","State":"CA","Zip":"91362"},{"Location":"EQUINOX WESTLAKE","Address":"112 S Lakeview Canyon Rd 2","City":"Westlake Village","State":"CA","Zip":"91362"},{"Location":"EQUINOX WESTLAKE 2","Address":"112 S Lakeview Canyon Rd","City":"Westlake Village","State":"CA","Zip":"91362"},{"Location":"FAMILY LOVE LETTER","Address":"3625 E Thousand Oaks Blvd 138","City":"Westlake Village","State":"CA","Zip":"91362"},{"Location":"FARFALLA WESTLAKE","Address":"160 Promenade Way A","City":"Westlake Village","State":"CA","Zip":"91362"},{"Location":"FDSI LOGISTICS","Address":"5703 Corsa Ave","City":"Westlake Village","State":"CA","Zip":"91362"},{"Location":"FIDELITY INVESTMENTS 266","Address":"111 S Westlake Blvd","City":"Westlake Village","State":"CA","Zip":"91362"},{"Location":"FINANCIAL WEST GROUP","Address":"4510 E Thousand Oaks Blvd 100","City":"Westlake Village","State":"CA","Zip":"91362"},{"Location":"FISH LOVERS WESTLAKE LLC","Address":"30970 Russell Ranch Rd","City":"Westlake Village","State":"CA","Zip":"91362"},{"Location":"FLINT RIDGE INSURANCE","Address":"340 N Westlake Blvd 150","City":"Westlake Village","State":"CA","Zip":"91362"},{"Location":"FOUR SEASONS PH","Address":"2 Dole Dr","City":"Westlake Village","State":"CA","Zip":"91362"},{"Location":"FOUR SEASONS PRIVATE RM","Address":"2 Dole Dr","City":"Westlake Village","State":"CA","Zip":"91362"},{"Location":"FOUR SEASONS-WESTLAKE","Address":"2 Dole Dr","City":"Westlake Village","State":"CA","Zip":"91362"},{"Location":"FSK LAW LLP","Address":"31229 Cedar Valley Dr","City":"Westlake Village","State":"CA","Zip":"91362"},{"Location":"GARRY FETMAN","Address":"5655 Lindero Cyn 52121","City":"Westlake Village","State":"CA","Zip":"91362"},{"Location":"GKV CAPITAL MANAGEMENT CO.","Address":"125 Auburn Ct 200","City":"Westlake Village","State":"CA","Zip":"91362"},{"Location":"GPS","Address":"5655 Lindero Canyon Rd","City":"Westlake Village","State":"CA","Zip":"91362"},{"Location":"GUITAR CENTER","Address":"5775 Lindero Canyon Rd","City":"Westlake Village","State":"CA","Zip":"91362"},{"Location":"HCVT","Address":"4550 E Thousand Oaks Blvd 100","City":"Westlake Village","State":"CA","Zip":"91362"},{"Location":"HONDA OF THOUSAND OAKS","Address":"3925 Auto Mall Dr","City":"Westlake Village","State":"CA","Zip":"91362"},{"Location":"I PAYMENT INC","Address":"30721 Russell Ranch Rd","City":"Westlake Village","State":"CA","Zip":"91362"},{"Location":"IMERICA ENTERTAINMENT INC","Address":"30822 Overfall Dr","City":"Westlake Village","State":"CA","Zip":"91362"},{"Location":"INTUIT FINANCIAL SERVICE","Address":"5601 Lindero Canyon Rd 100","City":"Westlake Village","State":"CA","Zip":"91362"},{"Location":"JA OREFICE COMPANY","Address":"128 Auburn Ct","City":"Westlake Village","State":"CA","Zip":"91362"},{"Location":"JAMES TRAN DDS","Address":"179 Auburn Ct 4","City":"Westlake Village","State":"CA","Zip":"91362"},{"Location":"JEANNINES","Address":"30770 Russell Ranch Rd G","City":"Westlake Village","State":"CA","Zip":"91362"},{"Location":"JERSEY MIKES SUBS","Address":"3825 E Thousand Oaks Blvd","City":"Westlake Village","State":"CA","Zip":"91362"},{"Location":"JG MANAGEMENT","Address":"5743 Corsa Ave","City":"Westlake Village","State":"CA","Zip":"91362"},{"Location":"JR INDUSTRIES","Address":"31280 La Baya Dr","City":"Westlake Village","State":"CA","Zip":"91362"},{"Location":"JUKE PERFORMANCE INC","Address":"31320 Via Colinas 115","City":"Westlake Village","State":"CA","Zip":"91362"},{"Location":"KAIKU FINANCE LLC","Address":"4540 E Thousand Oaks Blvd","City":"Westlake Village","State":"CA","Zip":"91362"},{"Location":"KEMP FORD","Address":"3810 E Thousand Oaks Blvd","City":"Westlake Village","State":"CA","Zip":"91362"},{"Location":"KYTHERA","Address":"30930 Russell Ranch Rd","City":"Westlake Village","State":"CA","Zip":"91362"},{"Location":"LA BAYA OFFICE PARTNERS","Address":"31194 La Baya Dr 100","City":"Westlake Village","State":"CA","Zip":"91362"},{"Location":"LADIN HYUNDAI SUBARU","Address":"3725 Auto Mall Dr","City":"Westlake Village","State":"CA","Zip":"91362"},{"Location":"MARMALADE CAFE WESTLAKE VILLAG","Address":"140 Promenade Way Ste 1","City":"Westlake Village","State":"CA","Zip":"91362"},{"Location":"MARRIOT RESIDENCE INN","Address":"30950 Russell Ranch Rd","City":"Westlake Village","State":"CA","Zip":"91362"},{"Location":"MARSHA L. ROUBIDOUX","Address":"3625 E Thousand Oaks Blvd 145","City":"Westlake Village","State":"CA","Zip":"91362"},{"Location":"MATECH","Address":"31304 Via Colinas 102","City":"Westlake Village","State":"CA","Zip":"91362"},{"Location":"MINATURA","Address":"31225 La Baya Dr 200","City":"Westlake Village","State":"CA","Zip":"91362"},{"Location":"MORGAN STANLEY 100325","Address":"200 N Westlake Blvd","City":"Westlake Village","State":"CA","Zip":"91362"},{"Location":"NEFTIN VOLKSWAGEN","Address":"3550 Auto Mall Dr","City":"Westlake Village","State":"CA","Zip":"91362"},{"Location":"NFUSE 360","Address":"31332 Via Colinas 105","City":"Westlake Village","State":"CA","Zip":"91362"},{"Location":"NORTH RANCH COUNTRY CLUB","Address":"4761 Valley Spring Dr","City":"Westlake Village","State":"CA","Zip":"91362"},{"Location":"NORTH RANCH COUNTRY CLUB TENNI","Address":"4761 Valley Spring Dr","City":"Westlake Village","State":"CA","Zip":"91362"},{"Location":"PACIFIC DENTAL #143","Address":"5784 Lindero Canyon Rd","City":"Westlake Village","State":"CA","Zip":"91362"},{"Location":"PACIFIC ONE GROUP","Address":"5716 Corsa Ave 100","City":"Westlake Village","State":"CA","Zip":"91362"},{"Location":"PASEO BUSINESS CENTER","Address":"3717 E Thousand Oaks Blvd","City":"Westlake Village","State":"CA","Zip":"91362"},{"Location":"PAUL MARTINS AME GRILL","Address":"100 S Westlake Blvd B","City":"Westlake Village","State":"CA","Zip":"91362"},{"Location":"PETRA","Address":"3731 E Thousand Oaks Blvd","City":"Westlake Village","State":"CA","Zip":"91362"},{"Location":"PUBLIC SCHOOL 805","Address":"120 Promenade Way A","City":"Westlake Village","State":"CA","Zip":"91362"},{"Location":"RDP REAL ESTATE SERVICES","Address":"31351 Via Colinas 202","City":"Westlake Village","State":"CA","Zip":"91362"},{"Location":"REM SLEEP LABS","Address":"31255 Cedar Valley Dr 320","City":"Westlake Village","State":"CA","Zip":"91362"},{"Location":"RUSNAK AUDI","Address":"3832 E Thousand Oaks Blvd","City":"Westlake Village","State":"CA","Zip":"91362"},{"Location":"RUSNAK WESTLAKE","Address":"3645 Auto Mall Dr","City":"Westlake Village","State":"CA","Zip":"91362"},{"Location":"RUSNAK WESTLAKE PORSCHE","Address":"3839 Auto Mall Dr","City":"Westlake Village","State":"CA","Zip":"91362"},{"Location":"RUSNAK WESTLAKE VOLVO","Address":"3863 Auto Mall Dr","City":"Westlake Village","State":"CA","Zip":"91362"},{"Location":"RUSSELL RANCH ROAD II%2C LLC","Address":"30930 Russell Ranch Rd","City":"Westlake Village","State":"CA","Zip":"91362"},{"Location":"RUSTICO RESTAURANT","Address":"1125 Lindero Canyon Rd","City":"Westlake Village","State":"CA","Zip":"91362"},{"Location":"SDG RUSSELL RANCH ASSOCI","Address":"30770 Russell Ranch Rd I","City":"Westlake Village","State":"CA","Zip":"91362"},{"Location":"SHAVER PONTIAC JEEP","Address":"3888 E Thousand Oaks Blvd","City":"Westlake Village","State":"CA","Zip":"91362"},{"Location":"SILVER STAR A.G. LTD","Address":"3905 Auto Mall Dr","City":"Westlake Village","State":"CA","Zip":"91362"},{"Location":"SILVER STAR MERCEDES","Address":"3905 Auto Mall Dr","City":"Westlake Village","State":"CA","Zip":"91362"},{"Location":"SSC","Address":"370 N Westlake Blvd 200","City":"Westlake Village","State":"CA","Zip":"91362"},{"Location":"ST MAXIMILIAN KOLBE CHURCH","Address":"5801 Kanan Rd","City":"Westlake Village","State":"CA","Zip":"91362"},{"Location":"STEVE LEE AND ASSOCIATES","Address":"5743 Corsa Ave 211","City":"Westlake Village","State":"CA","Zip":"91362"},{"Location":"STIX HOLDINGS 770","Address":"180 Promenade Way","City":"Westlake Village","State":"CA","Zip":"91362"},{"Location":"STIX HOLDINGS 770","Address":"30734 Russell Ranch Rd D","City":"Westlake Village","State":"CA","Zip":"91362"},{"Location":"STUDIO TYLA","Address":"3747 E Thousand Oaks Blvd","City":"Westlake Village","State":"CA","Zip":"91362"},{"Location":"SUSHI AI","Address":"5790 Lindero Canyon Rd 2a","City":"Westlake Village","State":"CA","Zip":"91362"},{"Location":"SYLCOR  INC","Address":"31332 Via Colinas 106a","City":"Westlake Village","State":"CA","Zip":"91362"},{"Location":"TD AMERITRADE #05052","Address":"650 S Westlake Blvd 100","City":"Westlake Village","State":"CA","Zip":"91362"},{"Location":"The Counter","Address":"30990 Russel Ranch Rd","City":"Westlake Village","State":"CA","Zip":"91362"},{"Location":"THE GALLERY","Address":"30768 Russell Ranch Rd C","City":"Westlake Village","State":"CA","Zip":"91362"},{"Location":"THE NAPA TAVERN","Address":"101 S Westlake Blvd 101","City":"Westlake Village","State":"CA","Zip":"91362"},{"Location":"THE ROSS GROUP INC","Address":"3625 Thousand Oaks Blvd","City":"Westlake Village","State":"CA","Zip":"91362"},{"Location":"THOUSAND OAKS INFINITI","Address":"3570 E Thousand Oaks Blvd","City":"Westlake Village","State":"CA","Zip":"91362"},{"Location":"TKO ELECTRONICS INC","Address":"31113 Via Colinas","City":"Westlake Village","State":"CA","Zip":"91362"},{"Location":"UNITED CEREBRAL PALSY HILLCRES","Address":"2170 N Westlake Blvd","City":"Westlake Village","State":"CA","Zip":"91362"},{"Location":"VARGO PHYSICAL THERAPY","Address":"31344 Via Colinas 107","City":"Westlake Village","State":"CA","Zip":"91362"},{"Location":"VARGO PHYSICAL THERAPY 2","Address":"3753 E Thousand Oaks Blvd","City":"Westlake Village","State":"CA","Zip":"91362"},{"Location":"VELOCITY COMMERCIAL CAPITAL","Address":"30699 Russell Ranch Rd 295","City":"Westlake Village","State":"CA","Zip":"91362"},{"Location":"VLG","Address":"5707 Corsa Ave","City":"Westlake Village","State":"CA","Zip":"91362"},{"Location":"WEST LAKE COACH 2","Address":"3610 E Thousand Oaks Blvd","City":"Westlake Village","State":"CA","Zip":"91362"},{"Location":"WESTLAKE AUTO COLLISON","Address":"31290 La Baya Dr 3","City":"Westlake Village","State":"CA","Zip":"91362"},{"Location":"WESTLAKE COACH","Address":"3610 E Thousand Oaks Blvd","City":"Westlake Village","State":"CA","Zip":"91362"},{"Location":"WESTLAKE COUNTER BURGER","Address":"30990 Russell Ranch Rd","City":"Westlake Village","State":"CA","Zip":"91362"},{"Location":"WESTLAKE LOPERIA GRILL LLC","Address":"180 Promenade Way","City":"Westlake Village","State":"CA","Zip":"91362"}]