[{"Location":"ADVANCED SLEEP MEDICINE SERVIC","Address":"299 W Hillcrest Dr 106","City":"Thousand Oaks","State":"CA","Zip":"91360"},{"Location":"AMY NABI DDS PC","Address":"394 Lombard St","City":"Thousand Oaks","State":"CA","Zip":"91360"},{"Location":"BANK OF AMERICA CA6-918","Address":"225 W Hillcrest Dr","City":"Thousand Oaks","State":"CA","Zip":"91360"},{"Location":"BELMONT VILLAGE COMMON","Address":"3680 N Moorpark Rd","City":"Thousand Oaks","State":"CA","Zip":"91360"},{"Location":"BUCA DI BEPPO #527","Address":"205 N Moorpark Rd P","City":"Thousand Oaks","State":"CA","Zip":"91360"},{"Location":"CAMBONI ITALIAN REST","Address":"75 W Thousand Oaks Blvd","City":"Thousand Oaks","State":"CA","Zip":"91360"},{"Location":"CARL WILLIAMS INSURANCE","Address":"555 Saint Charles Dr 107","City":"Thousand Oaks","State":"CA","Zip":"91360"},{"Location":"CENTER FOR DERMATOLOGY","Address":"267 W Hillcrest Dr","City":"Thousand Oaks","State":"CA","Zip":"91360"},{"Location":"CHO CHO SAN","Address":"400 E Thousand Oaks Blvd","City":"Thousand Oaks","State":"CA","Zip":"91360"},{"Location":"CONEJO RECREATION PARK DISTRIC","Address":"403 W Hillcrest Dr","City":"Thousand Oaks","State":"CA","Zip":"91360"},{"Location":"COSTAL ALLERGY CARE","Address":"430 E Avenida De Los Arboles 203","City":"Thousand Oaks","State":"CA","Zip":"91360"},{"Location":"CPC","Address":"101 Hodencamp Rd 103","City":"Thousand Oaks","State":"CA","Zip":"91360"},{"Location":"CRAZY KING KONG FISHING","Address":"215 N Moorpark Rd K","City":"Thousand Oaks","State":"CA","Zip":"91360"},{"Location":"CURTIS R COUCH DDS","Address":"216 Lombard St","City":"Thousand Oaks","State":"CA","Zip":"91360"},{"Location":"DARBAND GRILL","Address":"868 E Thousand Oaks Blvd","City":"Thousand Oaks","State":"CA","Zip":"91360"},{"Location":"DESTINATION MATERNITY","Address":"96 Hill Crest Dr","City":"Thousand Oaks","State":"CA","Zip":"91360"},{"Location":"DIGESTIVE HEALTH CENTERS","Address":"3510 N Moorpark Rd 101","City":"Thousand Oaks","State":"CA","Zip":"91360"},{"Location":"EAST VALLEY SHERRIFF STATION","Address":"2101 E Olsen Rd","City":"Thousand Oaks","State":"CA","Zip":"91360"},{"Location":"ESTATE & FINANCIAL SERVICES","Address":"468 Pennsfield Pl 201","City":"Thousand Oaks","State":"CA","Zip":"91360"},{"Location":"FERGUSON #1163","Address":"380 E Thousand Oaks Blvd","City":"Thousand Oaks","State":"CA","Zip":"91360"},{"Location":"FIREFIGHTERS 1ST CREDIT UNION","Address":"191 W Wilbur Rd","City":"Thousand Oaks","State":"CA","Zip":"91360"},{"Location":"FIRESTONE #006254","Address":"598 W Hillcrest Dr E","City":"Thousand Oaks","State":"CA","Zip":"91360"},{"Location":"GALLARDOS AUTOMOTIVE","Address":"881 E Thousand Oaks Blvd","City":"Thousand Oaks","State":"CA","Zip":"91360"},{"Location":"GOLD'S GYM #710","Address":"197 N Moorpark Rd 1ab","City":"Thousand Oaks","State":"CA","Zip":"91360"},{"Location":"HOOTERS THOUSAND OAKS","Address":"401 N Moorpark Rd","City":"Thousand Oaks","State":"CA","Zip":"91360"},{"Location":"JERSEY   MIKES   SUBS","Address":"605 E Janss Rd A","City":"Thousand Oaks","State":"CA","Zip":"91360"},{"Location":"JONATHAN K NAKANO DMD INC","Address":"390 Lombard St","City":"Thousand Oaks","State":"CA","Zip":"91360"},{"Location":"LARRY WINTER%2C CFP","Address":"195 E Hillcrest Dr 110","City":"Thousand Oaks","State":"CA","Zip":"91360"},{"Location":"LOMBARD DENTAL","Address":"245 Lombard St","City":"Thousand Oaks","State":"CA","Zip":"91360"},{"Location":"M6 FITNESS","Address":"258 Lombard St","City":"Thousand Oaks","State":"CA","Zip":"91360"},{"Location":"MACE RICH","Address":"350 W Hillcrest Dr","City":"Thousand Oaks","State":"CA","Zip":"91360"},{"Location":"MACERICH  INC","Address":"350 W Hillcrest Dr","City":"Thousand Oaks","State":"CA","Zip":"91360"},{"Location":"MACY'S WEST 492","Address":"220 W Hillcrest Dr","City":"Thousand Oaks","State":"CA","Zip":"91360"},{"Location":"MACY'S WEST 492","Address":"350 W Hillcrest Dr","City":"Thousand Oaks","State":"CA","Zip":"91360"},{"Location":"MACY'S WEST 492 BR","Address":"590 W Hillcrest Dr","City":"Thousand Oaks","State":"CA","Zip":"91360"},{"Location":"MARQUIS CLEANERS","Address":"1334 N Moorpark Rd","City":"Thousand Oaks","State":"CA","Zip":"91360"},{"Location":"MEN'S WEARHOUSE #2726","Address":"33 N Moorpark Rd","City":"Thousand Oaks","State":"CA","Zip":"91360"},{"Location":"MUVICO THOUSAND OAKS 14","Address":"166 W Hillcrest Dr","City":"Thousand Oaks","State":"CA","Zip":"91360"},{"Location":"NIELS AUTO SERVICE","Address":"49 Taylor Ct B","City":"Thousand Oaks","State":"CA","Zip":"91360"},{"Location":"NORDSTROM THE OAKS","Address":"346 W Hillcrest Dr","City":"Thousand Oaks","State":"CA","Zip":"91360"},{"Location":"OCEAN SUSHI","Address":"105 Brazil St","City":"Thousand Oaks","State":"CA","Zip":"91360"},{"Location":"OLIVE GARDEN #4402","Address":"158 W Hillcrest Dr","City":"Thousand Oaks","State":"CA","Zip":"91360"},{"Location":"OUTBACK STEAKHOUSE #0567","Address":"137 E Thousand Oaks Blvd","City":"Thousand Oaks","State":"CA","Zip":"91360"},{"Location":"PACIFIC DENTAL-EAST OAKS DENTL","Address":"593 N Moorpark Rd B","City":"Thousand Oaks","State":"CA","Zip":"91360"},{"Location":"PARIS NAILS","Address":"428 N Moorpark Rd","City":"Thousand Oaks","State":"CA","Zip":"91360"},{"Location":"PIERCE COURT","Address":"889 Pierce Ct 101","City":"Thousand Oaks","State":"CA","Zip":"91360"},{"Location":"PJ PUB BAR AND GRILL","Address":"417 Avenida De Los Arboles","City":"Thousand Oaks","State":"CA","Zip":"91360"},{"Location":"POSTAL ANNEX","Address":"1336 N Moorpark Rd","City":"Thousand Oaks","State":"CA","Zip":"91360"},{"Location":"PROFESSIONAL PLANNING","Address":"100 E Thousand Oaks Blvd 150","City":"Thousand Oaks","State":"CA","Zip":"91360"},{"Location":"PURE PAYMENT SOLUTIONS","Address":"299 W Hillcrest Dr 113","City":"Thousand Oaks","State":"CA","Zip":"91360"},{"Location":"RED LOBSTER #6380","Address":"156 W Hillcrest Dr","City":"Thousand Oaks","State":"CA","Zip":"91360"},{"Location":"RED ROBIN #673","Address":"170 W Hillcrest Dr","City":"Thousand Oaks","State":"CA","Zip":"91360"},{"Location":"REEDS AUTOMOTIVE","Address":"57 Taylor Ct","City":"Thousand Oaks","State":"CA","Zip":"91360"},{"Location":"SIDELINE SPORTS","Address":"570 W Hillcrest Dr","City":"Thousand Oaks","State":"CA","Zip":"91360"},{"Location":"SNAPPER JACKS","Address":"604 E Janss Rd","City":"Thousand Oaks","State":"CA","Zip":"91360"},{"Location":"SOUTHERN CALIFORNIA BREAK","Address":"851 E Thousand Oaks Blvd","City":"Thousand Oaks","State":"CA","Zip":"91360"},{"Location":"SPIWAK AND IEZZA LLC","Address":"555 Marin St 140","City":"Thousand Oaks","State":"CA","Zip":"91360"},{"Location":"SPORTS TREASURES","Address":"196 W Hillcrest Dr 89","City":"Thousand Oaks","State":"CA","Zip":"91360"},{"Location":"STACKED THSND OAKS","Address":"446 W Hillcrest Dr","City":"Thousand Oaks","State":"CA","Zip":"91360"},{"Location":"STEVE A KIND MD INC","Address":"2230 Lynn Rd 330","City":"Thousand Oaks","State":"CA","Zip":"91360"},{"Location":"STUFT PIZZA & BREWING CO.","Address":"398 N Moorpark Rd","City":"Thousand Oaks","State":"CA","Zip":"91360"},{"Location":"SUNSET","Address":"235 Unit G Moorpark Rd","City":"Thousand Oaks","State":"CA","Zip":"91360"},{"Location":"SUNSET HILLS COUNTRY CLU","Address":"4155 Erbes Rd","City":"Thousand Oaks","State":"CA","Zip":"91360"},{"Location":"SUNSET HILLS GRILL","Address":"4155 Erbes Rd","City":"Thousand Oaks","State":"CA","Zip":"91360"},{"Location":"SWEET TOOTH DENTAL OFFICE","Address":"225 N Moorpark Rd C","City":"Thousand Oaks","State":"CA","Zip":"91360"},{"Location":"THE CHEESECAKE FACTORY 0029","Address":"442 W Hillcrest Dr","City":"Thousand Oaks","State":"CA","Zip":"91360"},{"Location":"THE LAZY DOG CAFE #4","Address":"172 W Hillcrest Dr","City":"Thousand Oaks","State":"CA","Zip":"91360"},{"Location":"THE OAKS CENTER FOR COSMETIC","Address":"253 Lombard St C","City":"Thousand Oaks","State":"CA","Zip":"91360"},{"Location":"THOUSAND WOK","Address":"450 N Moorpark Rd","City":"Thousand Oaks","State":"CA","Zip":"91360"},{"Location":"TK NAILS & SPA","Address":"411 E Avenida De Los Arboles","City":"Thousand Oaks","State":"CA","Zip":"91360"},{"Location":"TONE  WALLING & MEADOR","Address":"100 E Thousand Oaks Blvd 257","City":"Thousand Oaks","State":"CA","Zip":"91360"},{"Location":"TOPPERS PIZZA","Address":"1416 N Moorpark Rd","City":"Thousand Oaks","State":"CA","Zip":"91360"},{"Location":"TRI-PARTY THOUSAND OAKS","Address":"199 W Hillcrest Dr","City":"Thousand Oaks","State":"CA","Zip":"91360"},{"Location":"VCFD STATION 30","Address":"325 W Hillcrest Dr","City":"Thousand Oaks","State":"CA","Zip":"91360"},{"Location":"VET SPECIALTY EMERGENCY CENTER","Address":"2967 N Moorpark Rd","City":"Thousand Oaks","State":"CA","Zip":"91360"},{"Location":"VILLAGE FAMILY DENTISTRY","Address":"166 N Moorpark Rd 204","City":"Thousand Oaks","State":"CA","Zip":"91360"},{"Location":"WHOLE FOODS MARKET","Address":"740 N Moorpark Rd","City":"Thousand Oaks","State":"CA","Zip":"91360"},{"Location":"WJL DISTRIBUTORS","Address":"123 Hodencamp Rd 102","City":"Thousand Oaks","State":"CA","Zip":"91360"},{"Location":"YMCA OF SE VENTURA COUNTY","Address":"4031 N Moorpark Rd","City":"Thousand Oaks","State":"CA","Zip":"91360"},{"Location":"YOMAMA SUSHI THOUSAND OAKS1","Address":"140 W Hillcrest Dr 118","City":"Thousand Oaks","State":"CA","Zip":"91360"}]