[{"Location":"4 DA BODIS","Address":"21146 Ventura Blvd","City":"Woodland Hills","State":"CA","Zip":"91364"},{"Location":"ALICE NAILS","Address":"22637 Ventura Blvd","City":"Woodland Hills","State":"CA","Zip":"91364"},{"Location":"ALLSTATE BUILDING OFFICE MAINT","Address":"19720 Ventura Blvd 105","City":"Woodland Hills","State":"CA","Zip":"91364"},{"Location":"AMF #270 WOODLAKE LANES","Address":"23130 Ventura Blvd","City":"Woodland Hills","State":"CA","Zip":"91364"},{"Location":"AUTO GALLERY AUDI","Address":"21301 Ventura Blvd","City":"Woodland Hills","State":"CA","Zip":"91364"},{"Location":"BARONES THE PIZZERIA XPR","Address":"22435 Ventura Blvd D","City":"Woodland Hills","State":"CA","Zip":"91364"},{"Location":"BERNARD LUND CPA","Address":"20301 Ventura Blvd 202a","City":"Woodland Hills","State":"CA","Zip":"91364"},{"Location":"CALIFORNIA PITA","Address":"21753 Ventura Blvd","City":"Woodland Hills","State":"CA","Zip":"91364"},{"Location":"CRAZY TOKYO SUSHI","Address":"21841 Ventura Blvd","City":"Woodland Hills","State":"CA","Zip":"91364"},{"Location":"CRYSTAL NAIL AND SPA","Address":"22941 Ventura Blvd","City":"Woodland Hills","State":"CA","Zip":"91364"},{"Location":"DANS SUPER SUBS","Address":"22446 Ventura Blvd","City":"Woodland Hills","State":"CA","Zip":"91364"},{"Location":"DICKIES BARBECUE PIT","Address":"21853 Ventura Blvd","City":"Woodland Hills","State":"CA","Zip":"91364"},{"Location":"DIRTY BULL TAVERN","Address":"21797 Ventura Blvd","City":"Woodland Hills","State":"CA","Zip":"91364"},{"Location":"EDWARD ROSEN AND ASSOCIATES","Address":"21500 Ventura Blvd 200","City":"Woodland Hills","State":"CA","Zip":"91364"},{"Location":"EXOTIC EURO CARS","Address":"22223 Ventura Blvd","City":"Woodland Hills","State":"CA","Zip":"91364"},{"Location":"EXOTIC THAI CAFE","Address":"22776 Ventura Blvd","City":"Woodland Hills","State":"CA","Zip":"91364"},{"Location":"FARAH BEAUTY SALON","Address":"5533 Penfield Ave","City":"Woodland Hills","State":"CA","Zip":"91364"},{"Location":"FAZIO CLEANERS","Address":"23383 Mulholland Dr","City":"Woodland Hills","State":"CA","Zip":"91364"},{"Location":"FINGER NAILS","Address":"23001 Ventura Blvd","City":"Woodland Hills","State":"CA","Zip":"91364"},{"Location":"FITNESS PHILOSOPHY","Address":"23067 Ventura Blvd A","City":"Woodland Hills","State":"CA","Zip":"91364"},{"Location":"FMC 31030000","Address":"19836 Ventura Blvd","City":"Woodland Hills","State":"CA","Zip":"91364"},{"Location":"FRATELLIS","Address":"20929 Ventura Blvd 11","City":"Woodland Hills","State":"CA","Zip":"91364"},{"Location":"G TONNICS FITNESS","Address":"23010 Ventura Blvd","City":"Woodland Hills","State":"CA","Zip":"91364"},{"Location":"GK VENTURES LLC","Address":"22737 Ventura Blvd","City":"Woodland Hills","State":"CA","Zip":"91364"},{"Location":"HEAD WEST SALON","Address":"23349 Mulholland Dr","City":"Woodland Hills","State":"CA","Zip":"91364"},{"Location":"HOLIDAY INN EXPRESS","Address":"22617 Ventura Blvd","City":"Woodland Hills","State":"CA","Zip":"91364"},{"Location":"INTERSTATE VAPE","Address":"21050 Ventura Blvd","City":"Woodland Hills","State":"CA","Zip":"91364"},{"Location":"ISLANDS RESTAURANT #022","Address":"23397 Mulholland Dr","City":"Woodland Hills","State":"CA","Zip":"91364"},{"Location":"JANS FAMILY SALON","Address":"20812 Ventura Blvd","City":"Woodland Hills","State":"CA","Zip":"91364"},{"Location":"JERRY'S FAMOUS DELI","Address":"21857 Ventura Blvd","City":"Woodland Hills","State":"CA","Zip":"91364"},{"Location":"JJ SULLIVANS","Address":"22917 Ventura Blvd","City":"Woodland Hills","State":"CA","Zip":"91364"},{"Location":"LA CITY FIRESTATION 105","Address":"6345 Fallbork","City":"Woodland Hills","State":"CA","Zip":"91364"},{"Location":"LASERAWAY","Address":"21787 Ventura Blvd","City":"Woodland Hills","State":"CA","Zip":"91364"},{"Location":"LOTUS INN CHINA BISTRO","Address":"21733 Ventura Blvd","City":"Woodland Hills","State":"CA","Zip":"91364"},{"Location":"MAC CHEVRON","Address":"22351 Ventura Blvd","City":"Woodland Hills","State":"CA","Zip":"91364"},{"Location":"MAC CHEVRON 2","Address":"5314 Topanga Canyon Blvd","City":"Woodland Hills","State":"CA","Zip":"91364"},{"Location":"MAZAR MEDITERRANEAN REST","Address":"21926 Ventura Blvd","City":"Woodland Hills","State":"CA","Zip":"91364"},{"Location":"MONTY.S PRIME STEAKS","Address":"5371 Topanga Canyon Blvd","City":"Woodland Hills","State":"CA","Zip":"91364"},{"Location":"MOTHER NATURES REMEDY","Address":"22831 Ventura Blvd","City":"Woodland Hills","State":"CA","Zip":"91364"},{"Location":"MULHOLLAND DENTAL CARE","Address":"23305 Mulholland Dr E","City":"Woodland Hills","State":"CA","Zip":"91364"},{"Location":"NAILS BY KELLY","Address":"22545 Ventura Blvd","City":"Woodland Hills","State":"CA","Zip":"91364"},{"Location":"NAILS TWO THOUSAND","Address":"23305 Mulholland Dr B","City":"Woodland Hills","State":"CA","Zip":"91364"},{"Location":"PARTNERS SALON","Address":"20861 Ventura Blvd","City":"Woodland Hills","State":"CA","Zip":"91364"},{"Location":"PASSION NAIL SALON","Address":"4868 Topanga Canyon Blvd","City":"Woodland Hills","State":"CA","Zip":"91364"},{"Location":"PETES SUSHI INC","Address":"23349 Mulholland Dr","City":"Woodland Hills","State":"CA","Zip":"91364"},{"Location":"PICKWICK'S PUB","Address":"21010 Ventura Blvd","City":"Woodland Hills","State":"CA","Zip":"91364"},{"Location":"PORKY'S BASEBALL CARDS INC.","Address":"21908 1%2F2 Ventura Blvd","City":"Woodland Hills","State":"CA","Zip":"91364"},{"Location":"QUALITY PROPERTIES","Address":"4874 Topanga Canyon Blvd","City":"Woodland Hills","State":"CA","Zip":"91364"},{"Location":"R CRAIG FORD DDS","Address":"5300 Topanga Canyon Blvd","City":"Woodland Hills","State":"CA","Zip":"91364"},{"Location":"RED GINGER","Address":"22984 Ventura Blvd","City":"Woodland Hills","State":"CA","Zip":"91364"},{"Location":"RIB RANCH BARBEQUE","Address":"4923 Topanga Canyon Blvd","City":"Woodland Hills","State":"CA","Zip":"91364"},{"Location":"S & K GELATO INC","Address":"22401 Ventura Blvd F","City":"Woodland Hills","State":"CA","Zip":"91364"},{"Location":"SERENITY NAILS","Address":"22140 Ventura Blvd","City":"Woodland Hills","State":"CA","Zip":"91364"},{"Location":"SISTERS OF ST LOUIS","Address":"20820 Ventura Blvd","City":"Woodland Hills","State":"CA","Zip":"91364"},{"Location":"SOUP'S GRILL","Address":"21028 Ventura Blvd","City":"Woodland Hills","State":"CA","Zip":"91364"},{"Location":"THAI BA","Address":"23305 Mulholland Dr D","City":"Woodland Hills","State":"CA","Zip":"91364"},{"Location":"THE AUTO GALLERY","Address":"21301 Ventura Blvd","City":"Woodland Hills","State":"CA","Zip":"91364"},{"Location":"THE CHOP SHOP","Address":"21908 Ventura Blvd","City":"Woodland Hills","State":"CA","Zip":"91364"},{"Location":"THE FALLBROOK GROUP LLC","Address":"22901 Ventura Blvd","City":"Woodland Hills","State":"CA","Zip":"91364"},{"Location":"THE JEWISH FEDERATION 3","Address":"19710 Ventura Blvd","City":"Woodland Hills","State":"CA","Zip":"91364"},{"Location":"VENTURA NAILS","Address":"22886 Ventura Blvd","City":"Woodland Hills","State":"CA","Zip":"91364"},{"Location":"VENTURA WEST CAR WASH","Address":"22517 Ventura Blvd","City":"Woodland Hills","State":"CA","Zip":"91364"},{"Location":"VISTA FORD","Address":"21501 Ventura Blvd","City":"Woodland Hills","State":"CA","Zip":"91364"},{"Location":"WAHOOS TACOS AND MORE","Address":"19960 Ventura Blvd","City":"Woodland Hills","State":"CA","Zip":"91364"},{"Location":"WAX CZAR LLC","Address":"19737 Ventura Blvd 202","City":"Woodland Hills","State":"CA","Zip":"91364"},{"Location":"WENDYS  09077","Address":"22611 Ventura Blvd","City":"Woodland Hills","State":"CA","Zip":"91364"},{"Location":"WEST VALLEY PATIENTS GROUP","Address":"23043 Ventura Blvd","City":"Woodland Hills","State":"CA","Zip":"91364"},{"Location":"WHITE HARTE LLC","Address":"22456 Ventura Blvd","City":"Woodland Hills","State":"CA","Zip":"91364"},{"Location":"WHOLE FOODS MARKET #16","Address":"21347 Ventura Blvd","City":"Woodland Hills","State":"CA","Zip":"91364"},{"Location":"WOODLAND HILLS COUNTRY","Address":"21150 Dumetz Rd","City":"Woodland Hills","State":"CA","Zip":"91364"},{"Location":"WOODLAND HILLS HYUNDAI","Address":"20539 Ventura Blvd","City":"Woodland Hills","State":"CA","Zip":"91364"}]