[{"Location":"RECOVERY ADVOCATES","Address":"890 Lake Sherwood Dr","City":"Lake Sherwood","State":"CA","Zip":"91361"},{"Location":"ALBERT CHOW INC","Address":"315 S Moorpark Rd 315","City":"Thousand Oaks","State":"CA","Zip":"91361"},{"Location":"BORDERLINE BAR & GRILL","Address":"99 Rolling Oaks Dr","City":"Thousand Oaks","State":"CA","Zip":"91361"},{"Location":"CONEJO VALLEY VETERINARY","Address":"3580 Willow Ln","City":"Thousand Oaks","State":"CA","Zip":"91361"},{"Location":"DAVITA #5532 THOUSAND OAKS","Address":"375 Rolling Oaks Dr 100","City":"Thousand Oaks","State":"CA","Zip":"91361"},{"Location":"LAURA FATHI DDS INC.","Address":"375 Rolling Oaks Dr 120","City":"Thousand Oaks","State":"CA","Zip":"91361"},{"Location":"LOS ROBLES GOLF COURSE","Address":"299 S Moorpark Rd","City":"Thousand Oaks","State":"CA","Zip":"91361"},{"Location":"MARY L ANKERBRAND PC","Address":"325 Rolling Oaks Dr 201","City":"Thousand Oaks","State":"CA","Zip":"91361"},{"Location":"OMEGA REHAB & SPORT","Address":"325 Rolling Oaks Dr 250","City":"Thousand Oaks","State":"CA","Zip":"91361"},{"Location":"PROACTIVE SPORTS PROFORMANCE","Address":"3155 Willow Ln","City":"Thousand Oaks","State":"CA","Zip":"91361"},{"Location":"RADNET1","Address":"415 Rolling Oaks Dr","City":"Thousand Oaks","State":"CA","Zip":"91361"},{"Location":"RADNET2","Address":"415 Rolling Oaks Dr 230","City":"Thousand Oaks","State":"CA","Zip":"91361"},{"Location":"RADNET3","Address":"415 Rolling Oaks Dr","City":"Thousand Oaks","State":"CA","Zip":"91361"},{"Location":"RADNET4","Address":"415 Rolling Oaks Dr","City":"Thousand Oaks","State":"CA","Zip":"91361"},{"Location":"SEA HOLDINGS LLC","Address":"590 W Stafford Rd","City":"Thousand Oaks","State":"CA","Zip":"91361"},{"Location":"SHERWOOD COUNTRY CLUB","Address":"320 W Stafford Rd","City":"Thousand Oaks","State":"CA","Zip":"91361"},{"Location":"SHERWOOD LAKE CLUB","Address":"341 Williamsburg Way","City":"Thousand Oaks","State":"CA","Zip":"91361"},{"Location":"SMITHS INTERCONNECT","Address":"350 Conejo Ridge Ave","City":"Thousand Oaks","State":"CA","Zip":"91361"},{"Location":"SPECTRUM CLUB-THOUSAND O","Address":"2400 Willow Ln","City":"Thousand Oaks","State":"CA","Zip":"91361"},{"Location":"THE TENNIS SHOP OF WESTLAKE","Address":"2903 Agoura Rd","City":"Thousand Oaks","State":"CA","Zip":"91361"},{"Location":"WESTLAKE HEALTH CARE CENTER","Address":"250 Fairview Rd","City":"Thousand Oaks","State":"CA","Zip":"91361"},{"Location":"CORREIA","Address":"111 S Westlake Blv","City":"Village","State":"CA","Zip":"91361"},{"Location":"18 8 FINE MENS SALON","Address":"960 S Westlake Blvd 7","City":"Westlake Village","State":"CA","Zip":"91361"},{"Location":"ABELSON TESTAN BRUNDO","Address":"31330 Oak Crest Dr A","City":"Westlake Village","State":"CA","Zip":"91361"},{"Location":"AMERIPRISE WESTLAKE","Address":"3027 Townsgate Rd 205","City":"Westlake Village","State":"CA","Zip":"91361"},{"Location":"AMERPRISE FINANCIAL","Address":"3027 Townsgate Rd 205","City":"Westlake Village","State":"CA","Zip":"91361"},{"Location":"ANHEUSER-BUSCH REGION #8","Address":"2945 Townsgate Rd 310","City":"Westlake Village","State":"CA","Zip":"91361"},{"Location":"APPLIED NATURAL GAS FUELS INC","Address":"31111 Agoura Rd 208","City":"Westlake Village","State":"CA","Zip":"91361"},{"Location":"ARTIEA CAPITAL MANAGEMNT","Address":"2659 Townsgate Rd 203","City":"Westlake Village","State":"CA","Zip":"91361"},{"Location":"BANK OF AMERICA CA6-917-02-05","Address":"31303 Agoura Rd","City":"Westlake Village","State":"CA","Zip":"91361"},{"Location":"BARRISTER EXECUTIVE","Address":"2625 Townsgate Rd","City":"Westlake Village","State":"CA","Zip":"91361"},{"Location":"BELLINI OSTERIA RESTAURANT","Address":"951 S Westlake Blvd 102","City":"Westlake Village","State":"CA","Zip":"91361"},{"Location":"BIBBY FINANCIAL SERVICES CA","Address":"3027 Townsgate Rd 140","City":"Westlake Village","State":"CA","Zip":"91361"},{"Location":"BIG SCREEN NETWORK","Address":"860 Hampshire Rd A","City":"Westlake Village","State":"CA","Zip":"91361"},{"Location":"BOGIES BAR","Address":"32001 Agoura Rd","City":"Westlake Village","State":"CA","Zip":"91361"},{"Location":"BOOST YOUR AVERAGE","Address":"2326 Townsgate Rd","City":"Westlake Village","State":"CA","Zip":"91361"},{"Location":"BRENTS HOLDING II","Address":"2799 Townsgate Rd","City":"Westlake Village","State":"CA","Zip":"91361"},{"Location":"BROWN  STEVEN E LAW OFFI","Address":"910 Hampshire Rd G","City":"Westlake Village","State":"CA","Zip":"91361"},{"Location":"BURR FINANCIAL","Address":"2659 Townsgate Rd 109","City":"Westlake Village","State":"CA","Zip":"91361"},{"Location":"CAPTRUST FINANCIAL ADVSR","Address":"2625 Townsgate Rd 300","City":"Westlake Village","State":"CA","Zip":"91361"},{"Location":"CASA ESCOBAR","Address":"2809 Agoura Rd","City":"Westlake Village","State":"CA","Zip":"91361"},{"Location":"CIGAR & WINES INC","Address":"2803 Agoura Rd A","City":"Westlake Village","State":"CA","Zip":"91361"},{"Location":"CISCO'S MEXICAN RESTAURANT","Address":"925 S Westlake Blvd","City":"Westlake Village","State":"CA","Zip":"91361"},{"Location":"COMPUNDIA PHARMCY INC","Address":"766 Lakefield Rd E","City":"Westlake Village","State":"CA","Zip":"91361"},{"Location":"CYDCOR","Address":"3011 Townsgate Rd","City":"Westlake Village","State":"CA","Zip":"91361"},{"Location":"DR ANTHONY VIRELLA","Address":"32144 Agoura Rd 220","City":"Westlake Village","State":"CA","Zip":"91361"},{"Location":"EAST COAST BAGEL COMPANY","Address":"1014 S Westlake Blvd 2","City":"Westlake Village","State":"CA","Zip":"91361"},{"Location":"ELITE FITNESS PLUS","Address":"2360 Townsgate Rd","City":"Westlake Village","State":"CA","Zip":"91361"},{"Location":"ERNEST AND YOUNG","Address":"2931 Townsgate Rd 100","City":"Westlake Village","State":"CA","Zip":"91361"},{"Location":"EULER HERMES","Address":"3011 Townsgate Rd 130","City":"Westlake Village","State":"CA","Zip":"91361"},{"Location":"FIRST CALIFORNIA BANK","Address":"3027 Townsgate Rd 3","City":"Westlake Village","State":"CA","Zip":"91361"},{"Location":"FIRST PRIVATE BANK & TRUST","Address":"971 S Westlake Blvd","City":"Westlake Village","State":"CA","Zip":"91361"},{"Location":"FIRST RATE FINANCIAL GROUP","Address":"2625 Townsgate Rd 320","City":"Westlake Village","State":"CA","Zip":"91361"},{"Location":"GALLETTO BAR & GRILL","Address":"982 S Westlake Blvd 2","City":"Westlake Village","State":"CA","Zip":"91361"},{"Location":"GO WEST CREATIVE GROUP","Address":"2248 Townsgate Rd 1","City":"Westlake Village","State":"CA","Zip":"91361"},{"Location":"GOLD COAST PARTNERS","Address":"2475 Townsgate Rd 150","City":"Westlake Village","State":"CA","Zip":"91361"},{"Location":"HEALTH ADVOCATE INC","Address":"3027 Townsgate Rd 110","City":"Westlake Village","State":"CA","Zip":"91361"},{"Location":"HYATT %40 WEST LAKE V","Address":"880 S Westlake Blvd","City":"Westlake Village","State":"CA","Zip":"91361"},{"Location":"JAFRA COSMETICS INTERNATIONAL","Address":"2451 Townsgate Rd","City":"Westlake Village","State":"CA","Zip":"91361"},{"Location":"JIM COWEN  & CO","Address":"31111 Agouta Rd 200","City":"Westlake Village","State":"CA","Zip":"91361"},{"Location":"JOE AND CLARA PALATES IN","Address":"2282 Townsgate Rd 1","City":"Westlake Village","State":"CA","Zip":"91361"},{"Location":"KAMUS KELLER TURPIN INC","Address":"31416 Agoura Rd 118","City":"Westlake Village","State":"CA","Zip":"91361"},{"Location":"KIN SUSHI","Address":"951 S Westlake Blvd 114","City":"Westlake Village","State":"CA","Zip":"91361"},{"Location":"KOLE FINANICIAL","Address":"920 Hamshire Rd A9","City":"Westlake Village","State":"CA","Zip":"91361"},{"Location":"LAKESIDE MARINA","Address":"32123 Lindero Canyon Rd 107","City":"Westlake Village","State":"CA","Zip":"91361"},{"Location":"LAW OFFICE OF H G FRIEDMAN","Address":"31416 Agoura Rd 200","City":"Westlake Village","State":"CA","Zip":"91361"},{"Location":"LOCKHEED FEDERAL CREDIT","Address":"2820 Townsgate Rd","City":"Westlake Village","State":"CA","Zip":"91361"},{"Location":"LTC PROPERTIES","Address":"2829 Townsgate Rd 350","City":"Westlake Village","State":"CA","Zip":"91361"},{"Location":"MASS MUTUAL","Address":"31111 Agoura Rd 100a","City":"Westlake Village","State":"CA","Zip":"91361"},{"Location":"MASS MUTUAL","Address":"31111 Agoura Rd 100","City":"Westlake Village","State":"CA","Zip":"91361"},{"Location":"MEDITERRANEO","Address":"32037 Agoura Rd","City":"Westlake Village","State":"CA","Zip":"91361"},{"Location":"MEICO INC.","Address":"2801 Townsgate Rd 122","City":"Westlake Village","State":"CA","Zip":"91361"},{"Location":"MERRILL LYNCH CA6-811-03-00","Address":"2815 Townsgate Rd 300","City":"Westlake Village","State":"CA","Zip":"91361"},{"Location":"MERRILL LYNCH CA7-705-01-02","Address":"31111 Agoura Rd 120a","City":"Westlake Village","State":"CA","Zip":"91361"},{"Location":"MIJASHON","Address":"4601 Lakeview Canyon Rd","City":"Westlake Village","State":"CA","Zip":"91361"},{"Location":"MONTECITO BANK","Address":"968 S Westlake Blvd","City":"Westlake Village","State":"CA","Zip":"91361"},{"Location":"MORROW & MORROW","Address":"2660 Townsgate Rd 400","City":"Westlake Village","State":"CA","Zip":"91361"},{"Location":"NEVERS%2CPALAZZO%2CMADDUX%2CPACKARD","Address":"31248 Oak Crest Dr 100","City":"Westlake Village","State":"CA","Zip":"91361"},{"Location":"ON Q FINANCIAL","Address":"960 S Westlake Blvd 2","City":"Westlake Village","State":"CA","Zip":"91361"},{"Location":"OPTIMAL PERFORMANCE","Address":"822 Hampshire Rd F","City":"Westlake Village","State":"CA","Zip":"91361"},{"Location":"PACIFIC FINANCIAL WEST","Address":"32107 Lindero Canyon Rd 122","City":"Westlake Village","State":"CA","Zip":"91361"},{"Location":"PASSION FOODS LLC","Address":"780 Lakefield Rd C","City":"Westlake Village","State":"CA","Zip":"91361"},{"Location":"PEARL DISTRICT","Address":"982 S Westalke Blvd","City":"Westlake Village","State":"CA","Zip":"91361"},{"Location":"PLATINUM OFFICE SUITES","Address":"2945 Townsgate Rd 200","City":"Westlake Village","State":"CA","Zip":"91361"},{"Location":"R A KENNEDY A LAW CORP","Address":"2239 Townsgate Rd","City":"Westlake Village","State":"CA","Zip":"91361"},{"Location":"RAYMOND JAMES","Address":"3027 Townsgate Rd 100","City":"Westlake Village","State":"CA","Zip":"91361"},{"Location":"ROW 44","Address":"4353 Park Terrace Dr","City":"Westlake Village","State":"CA","Zip":"91361"},{"Location":"SACHS MARKETING GROUP1","Address":"31416 Agoura Rd 225","City":"Westlake Village","State":"CA","Zip":"91361"},{"Location":"SECURITAS SECURITY SERVICES","Address":"4330 Park Terrace Dr","City":"Westlake Village","State":"CA","Zip":"91361"},{"Location":"SEVEN OAKS REHAB AND FITNESS","Address":"141 Triunfo Canyon Rd","City":"Westlake Village","State":"CA","Zip":"91361"},{"Location":"SHIAMAN","Address":"2659 Townsgate Rd 138","City":"Westlake Village","State":"CA","Zip":"91361"},{"Location":"SILVER AND ARSHT","Address":"1860 Bridgegate St","City":"Westlake Village","State":"CA","Zip":"91361"},{"Location":"SILVER OAKS CLEANER","Address":"2806 Townsgate Rd D","City":"Westlake Village","State":"CA","Zip":"91361"},{"Location":"SMITH GEIGER LLC","Address":"31365 Oak Crest Dr 150","City":"Westlake Village","State":"CA","Zip":"91361"},{"Location":"SOUTHERN CALIF EDISON","Address":"3589 Foothill Dr","City":"Westlake Village","State":"CA","Zip":"91361"},{"Location":"SPECIALTY SURGICAL","Address":"696 Hampshire Rd 100","City":"Westlake Village","State":"CA","Zip":"91361"},{"Location":"STEVEN A GEWIRT","Address":"2815 Townsgate Rd 325","City":"Westlake Village","State":"CA","Zip":"91361"},{"Location":"STIFEL NICOLAUS & CO","Address":"2945 Townsgate Rd 110","City":"Westlake Village","State":"CA","Zip":"91361"},{"Location":"STOWELL ZEILENGA & RUTH","Address":"2815 Townsgate Rd 330","City":"Westlake Village","State":"CA","Zip":"91361"},{"Location":"SUMMIT FINANCIAL CONSULT","Address":"3011 Townsgate Rd 110","City":"Westlake Village","State":"CA","Zip":"91361"},{"Location":"SUNRISE OF WESTLAKE VILLAGE","Address":"3101 Townsgate Rd","City":"Westlake Village","State":"CA","Zip":"91361"},{"Location":"T.O. PRINTING","Address":"5334 Sterling Center Dr","City":"Westlake Village","State":"CA","Zip":"91361"},{"Location":"THE HAIRPORT","Address":"951 S Westlake Blvd 202","City":"Westlake Village","State":"CA","Zip":"91361"},{"Location":"THE RYDING   COMPANY INC","Address":"2659 Townsgate Rd 101","City":"Westlake Village","State":"CA","Zip":"91361"},{"Location":"THE RYLAND GROUP INC","Address":"3011 Townsgate Rd 200","City":"Westlake Village","State":"CA","Zip":"91361"},{"Location":"THE WEST COAST AGENCY","Address":"30961 Agoura Rd 109","City":"Westlake Village","State":"CA","Zip":"91361"},{"Location":"TUSCANY IL RITORANTE","Address":"968 S Westlake Blvd 4","City":"Westlake Village","State":"CA","Zip":"91361"},{"Location":"UBS","Address":"3011 Townsgate Rd 300","City":"Westlake Village","State":"CA","Zip":"91361"},{"Location":"UBS FINANCIAL SERVICES","Address":"3011 Townsgate Rd 300","City":"Westlake Village","State":"CA","Zip":"91361"},{"Location":"VILLAGE UNOCAL","Address":"31505 Agoura Rd","City":"Westlake Village","State":"CA","Zip":"91361"},{"Location":"VS MEDIA INC","Address":"31416 Agoura Rd","City":"Westlake Village","State":"CA","Zip":"91361"},{"Location":"WEALTH CARE ALLIANCE CORP","Address":"2629 Townsgate Rd 235","City":"Westlake Village","State":"CA","Zip":"91361"},{"Location":"WEBQUEST","Address":"2629 Townsgate Rd 205","City":"Westlake Village","State":"CA","Zip":"91361"},{"Location":"WELLS FARGO","Address":"2829 Townsgate Rd 215","City":"Westlake Village","State":"CA","Zip":"91361"},{"Location":"WELLS FARGO ADVISORS","Address":"2829 Townsgate Rd 200","City":"Westlake Village","State":"CA","Zip":"91361"},{"Location":"WELLS FARGO PRIVATE MORTGAGE B","Address":"3011 Townsgate Rd 120","City":"Westlake Village","State":"CA","Zip":"91361"},{"Location":"WESTLAKE  YACHT CLUB","Address":"32123 Lindero Canyon Rd","City":"Westlake Village","State":"CA","Zip":"91361"},{"Location":"WESTLAKE FITNESS CONNECTION","Address":"910 Hampshire Rd P","City":"Westlake Village","State":"CA","Zip":"91361"},{"Location":"WESTLAKE GOLF COURSE","Address":"4812 Lakeview Canyon Rd","City":"Westlake Village","State":"CA","Zip":"91361"},{"Location":"WESTLAKE PROPERTIES DOING DBA","Address":"4700 Lakeview Canyon Rd","City":"Westlake Village","State":"CA","Zip":"91361"},{"Location":"WESTLAKE RESERVOIR","Address":"32601 Torchwood Pl","City":"Westlake Village","State":"CA","Zip":"91361"},{"Location":"WESTLAKE SURGICAL CENTER","Address":"911 Hampshire Rd 2","City":"Westlake Village","State":"CA","Zip":"91361"},{"Location":"WESTOAKS","Address":"951 Westlake Blvd 101","City":"Westlake Village","State":"CA","Zip":"91361"},{"Location":"WOOD RANCH USA INC","Address":"2835 Townsgate Rd","City":"Westlake Village","State":"CA","Zip":"91361"},{"Location":"ZIN BISTRO AMERICIAN","Address":"32131 Lindero Canyon Rd 111","City":"Westlake Village","State":"CA","Zip":"91361"},{"Location":"ROSEN AND LOEB","Address":"2659 Townsgate Rd 136","City":"Westlake Vlg","State":"CA","Zip":"91361"},{"Location":"WEST COAST HOUSING PARTNERS","Address":"3027 Townsgate Rd 250","City":"Westlake Vlg","State":"CA","Zip":"91361"}]