[{"Location":"ALDO BARBER SHOP","Address":"31575 Castaic Rd","City":"Castaic","State":"CA","Zip":"91384"},{"Location":"ALEJANDRA ESQUIVEZ","Address":"31424 Castaic Rd","City":"Castaic","State":"CA","Zip":"91384"},{"Location":"AMECI PIZZA & PASTA","Address":"27305 Live Oak Rd","City":"Castaic","State":"CA","Zip":"91384"},{"Location":"ANGELES NATIONAL FOREST","Address":"38001 Golden State Hwy","City":"Castaic","State":"CA","Zip":"91384"},{"Location":"ANGELOS 6 BARBER SHOP","Address":"31771 Castaic Rd","City":"Castaic","State":"CA","Zip":"91384"},{"Location":"ARIANIS HAIR DESIGN","Address":"31563 Castaic Rd A","City":"Castaic","State":"CA","Zip":"91384"},{"Location":"BENWOOD FEED & MERCANTIL","Address":"29465 The Old Rd","City":"Castaic","State":"CA","Zip":"91384"},{"Location":"CASTAIC TRUCK STOP","Address":"31611 Castaic Rd","City":"Castaic","State":"CA","Zip":"91384"},{"Location":"CHABELOS MEXICAN GRILL","Address":"31822 Castaic Rd","City":"Castaic","State":"CA","Zip":"91384"},{"Location":"DEL VALLE TRAINING CENTER","Address":"28101 Chiquito Canyon Rd","City":"Castaic","State":"CA","Zip":"91384"},{"Location":"HOWIES PUB","Address":"31579 3%2F4 Castaic Rd","City":"Castaic","State":"CA","Zip":"91384"},{"Location":"JERSEY MIKES","Address":"31765 Castaic Rd","City":"Castaic","State":"CA","Zip":"91384"},{"Location":"LA COUNTY SHERRIFFS DEPT","Address":"32113 Castaic Lake Dr","City":"Castaic","State":"CA","Zip":"91384"},{"Location":"LANROCAS","Address":"27923 Sloan Cayon Rd","City":"Castaic","State":"CA","Zip":"91384"},{"Location":"MIKES DINER","Address":"31537 Castaic Rd","City":"Castaic","State":"CA","Zip":"91384"},{"Location":"OLD ROAD STORAGE","Address":"31001 The Old Rd","City":"Castaic","State":"CA","Zip":"91384"},{"Location":"PACIFIC DENTAL-HASLEY DENTAL","Address":"29655 The Old Rd","City":"Castaic","State":"CA","Zip":"91384"},{"Location":"PAPAZ BURNER GRILL","Address":"31703 Castaic Rd","City":"Castaic","State":"CA","Zip":"91384"},{"Location":"PILOT FLYING J #37200","Address":"31642 Castaic Rd","City":"Castaic","State":"CA","Zip":"91384"},{"Location":"RED DOT PIZZA CO","Address":"31430 Castaic Rd","City":"Castaic","State":"CA","Zip":"91384"},{"Location":"SUSHI STORY INC","Address":"28050 Hasley Canyon Rd 114","City":"Castaic","State":"CA","Zip":"91384"},{"Location":"THOMPSON OIL COMPANY","Address":"28506 San Martinez Grande Canyo","City":"Castaic","State":"CA","Zip":"91384"},{"Location":"ALDO BARBER SHOP","Address":"31575 Castaic Rd","City":"Castaic","State":"CA","Zip":"91384"},{"Location":"ALEJANDRA ESQUIVEZ","Address":"31424 Castaic Rd","City":"Castaic","State":"CA","Zip":"91384"},{"Location":"AMECI PIZZA & PASTA","Address":"27305 Live Oak Rd","City":"Castaic","State":"CA","Zip":"91384"},{"Location":"ANGELES NATIONAL FOREST","Address":"38001 Golden State Hwy","City":"Castaic","State":"CA","Zip":"91384"},{"Location":"ANGELOS 6 BARBER SHOP","Address":"31771 Castaic Rd","City":"Castaic","State":"CA","Zip":"91384"},{"Location":"ARIANIS HAIR DESIGN","Address":"31563 Castaic Rd A","City":"Castaic","State":"CA","Zip":"91384"},{"Location":"BENWOOD FEED & MERCANTIL","Address":"29465 The Old Rd","City":"Castaic","State":"CA","Zip":"91384"},{"Location":"Castaic Truck Stop","Address":"31611 Castaic Rd","City":"Castaic","State":"CA","Zip":"91384"},{"Location":"CHABELOS MEXICAN GRILL","Address":"31822 Castaic Rd","City":"Castaic","State":"CA","Zip":"91384"},{"Location":"DEL VALLE TRAINING CENTER","Address":"28101 Chiquito Canyon Rd","City":"Castaic","State":"CA","Zip":"91384"},{"Location":"HOWIES PUB","Address":"31579 3%2F4 Castaic Rd","City":"Castaic","State":"CA","Zip":"91384"},{"Location":"JERSEY MIKES","Address":"31765 Castaic Rd","City":"Castaic","State":"CA","Zip":"91384"},{"Location":"LA COUNTY SHERRIFFS DEPT","Address":"32113 Castaic Lake Dr","City":"Castaic","State":"CA","Zip":"91384"},{"Location":"LANROCAS","Address":"27923 Sloan Cayon Rd","City":"Castaic","State":"CA","Zip":"91384"},{"Location":"MIKES DINER","Address":"31537 Castaic Rd","City":"Castaic","State":"CA","Zip":"91384"},{"Location":"OLD ROAD STORAGE","Address":"31001 The Old Rd","City":"Castaic","State":"CA","Zip":"91384"},{"Location":"PACIFIC DENTAL-HASLEY DENTAL","Address":"29655 The Old Rd","City":"Castaic","State":"CA","Zip":"91384"},{"Location":"PAPAZ BURNER GRILL","Address":"31703 Castaic Rd","City":"Castaic","State":"CA","Zip":"91384"},{"Location":"PILOT FLYING J #37200","Address":"31642 Castaic Rd","City":"Castaic","State":"CA","Zip":"91384"},{"Location":"RED DOT PIZZA CO","Address":"31430 Castaic Rd","City":"Castaic","State":"CA","Zip":"91384"},{"Location":"SUSHI STORY INC","Address":"28050 Hasley Canyon Rd 114","City":"Castaic","State":"CA","Zip":"91384"},{"Location":"THOMPSON OIL COMPANY","Address":"28506 San Martinez Grande Canyo","City":"Castaic","State":"CA","Zip":"91384"}]