[{"Location":"AMR","Address":"18246 Soledad Canyon Rd","City":"Canyon Country","State":"CA","Zip":"91387"},{"Location":"CANYON COUNTRY BARBERSHOP","Address":"18423 1%2F2 Soledad Canyon Rd","City":"Canyon Country","State":"CA","Zip":"91387"},{"Location":"CANYON LIQUOR","Address":"16507 Soledad Canyon Rd","City":"Canyon Country","State":"CA","Zip":"91387"},{"Location":"CODESEVEN2013LLC","Address":"18340 Soledad Canyon Rd","City":"Canyon Country","State":"CA","Zip":"91387"},{"Location":"CUT N GO","Address":"18541 Via Princessa","City":"Canyon Country","State":"CA","Zip":"91387"},{"Location":"DARLING CLEANERS","Address":"18721 Via Princessa","City":"Canyon Country","State":"CA","Zip":"91387"},{"Location":"FACEY MEDICAL FOUNDATION","Address":"17909 Soledad Canyon Rd","City":"Canyon Country","State":"CA","Zip":"91387"},{"Location":"GLOBAL STUDIO RENTALS","Address":"17932 Maplehurst Pl","City":"Canyon Country","State":"CA","Zip":"91387"},{"Location":"GRINDERS BAR AND EATERY","Address":"18283 Soledad Canyon Rd","City":"Canyon Country","State":"CA","Zip":"91387"},{"Location":"HENRY MAYO GOLDEN VALLEY THERA","Address":"19065 Golden Valley Rd 101","City":"Canyon Country","State":"CA","Zip":"91387"},{"Location":"JERSEY MIKES SUBS","Address":"19159 Golden Valley Rd","City":"Canyon Country","State":"CA","Zip":"91387"},{"Location":"LA COUNTY FIRE DEPT","Address":"29310 Sand Canyon Rd","City":"Canyon Country","State":"CA","Zip":"91387"},{"Location":"LAPFCU","Address":"19195 Golden Valley Rd","City":"Canyon Country","State":"CA","Zip":"91387"},{"Location":"LOCKHEED FEDERAL CREDIT UNION","Address":"19085 Golden Valley Rd","City":"Canyon Country","State":"CA","Zip":"91387"},{"Location":"MANZANILLO MEXICAN RESTA","Address":"18342 Soledad Canyon Rd","City":"Canyon Country","State":"CA","Zip":"91387"},{"Location":"NEWMAN CHIROPRACTIC INC 2","Address":"19065 Golden Valley Rd","City":"Canyon Country","State":"CA","Zip":"91387"},{"Location":"R2 RACING","Address":"18228 12 Soledad Canyon Rd","City":"Canyon Country","State":"CA","Zip":"91387"},{"Location":"ROBINSON RANCH","Address":"27734 Sand Canyon Rd","City":"Canyon Country","State":"CA","Zip":"91387"},{"Location":"ROUND TABLE PIZZA","Address":"16534 Soledad Canyon Road","City":"Canyon Country","State":"CA","Zip":"91387"},{"Location":"THE GRILL FACTORY INC","Address":"16522 Soledad Canyon Rd","City":"Canyon Country","State":"CA","Zip":"91387"},{"Location":"LA COUNTYFIRE DEPT 150","Address":"19190 Golden Valley Rd","City":"Santa Clara","State":"CA","Zip":"91387"},{"Location":"ASTRUM PRODUCTIONS LLC","Address":"25933 Sand Canyon Rd","City":"Santa Clarita","State":"CA","Zip":"91387"},{"Location":"ASTRUM PRODUCTIONS LLC1","Address":"25975 Sand Canyon Rd","City":"Santa Clarita","State":"CA","Zip":"91387"},{"Location":"BANK OF SANTA CLARITA","Address":"19045 Golden Valley Rd","City":"Santa Clarita","State":"CA","Zip":"91387"},{"Location":"BEAR DIVIDE RANGER STATION","Address":"21501 Sand Canyon Rd","City":"Santa Clarita","State":"CA","Zip":"91387"},{"Location":"BERGIE'S BAR & GRILL","Address":"16404 Delone St","City":"Santa Clarita","State":"CA","Zip":"91387"},{"Location":"CANYON COUNTRY CARWASH","Address":"18775 Flying Tiger Dr","City":"Santa Clarita","State":"CA","Zip":"91387"},{"Location":"CHILI'S #1250","Address":"19071 Golden Valley Rd","City":"Santa Clarita","State":"CA","Zip":"91387"},{"Location":"COSTCO","Address":"18649 Via Princessa","City":"Santa Clarita","State":"CA","Zip":"91387"},{"Location":"KOHL'S #752","Address":"19307 Golden Valley Rd","City":"Santa Clarita","State":"CA","Zip":"91387"},{"Location":"S C FOOD GROUP INC","Address":"16412 Delone St","City":"Santa Clarita","State":"CA","Zip":"91387"},{"Location":"SIZZLER'S #1233","Address":"19013 Golden Valley Rd","City":"Santa Clarita","State":"CA","Zip":"91387"},{"Location":"TARGET 2030","Address":"19105 Golden Valley Rd","City":"Santa Clarita","State":"CA","Zip":"91387"},{"Location":"US GOVERNMENT","Address":"21501 Sand Canyon Rd","City":"Santa Clarita","State":"CA","Zip":"91387"},{"Location":"US RENAL CARE","Address":"18520 Via Princessa C1sui","City":"Santa Clarita","State":"CA","Zip":"91387"}]