[{"Location":"WOOD RANCH BBQ","Address":"25580 The Old Rd","City":"Newhall","State":"CA","Zip":"91381"},{"Location":"CHILI'S #0453","Address":"25970 The Old Rd","City":"Santa Clarita","State":"CA","Zip":"91381"},{"Location":"KINZA SUSHI AND ASIAN IZAKAYA","Address":"25269 The Old Rd P","City":"Santa Clarita","State":"CA","Zip":"91381"},{"Location":"MACARONI GRILL 1121","Address":"25720 N Old Rd","City":"Santa Clarita","State":"CA","Zip":"91381"},{"Location":"CAL BANK & TRUST","Address":"25420 The Old Rd","City":"Stevenson Ranch","State":"CA","Zip":"91381"},{"Location":"CHUY'S BAJA BROILER","Address":"25289 The Old Rd","City":"Stevenson Ranch","State":"CA","Zip":"91381"},{"Location":"CLAIM JUMPER #20","Address":"25740 The Old Rd","City":"Stevenson Ranch","State":"CA","Zip":"91381"},{"Location":"FIRE STATION 124","Address":"25870 Hemingway Ave","City":"Stevenson Ranch","State":"CA","Zip":"91381"},{"Location":"JERSEYS SUBS","Address":"25660 The Old Rd","City":"Stevenson Ranch","State":"CA","Zip":"91381"},{"Location":"LA FITNESS #0021","Address":"24945 Pico Canyon Rd","City":"Stevenson Ranch","State":"CA","Zip":"91381"},{"Location":"LOCKHEED FEDERAL CREDIT","Address":"25945 The Old Rd","City":"Stevenson Ranch","State":"CA","Zip":"91381"},{"Location":"NAIL FORUM","Address":"24931 Pico Canyon Rd","City":"Stevenson Ranch","State":"CA","Zip":"91381"},{"Location":"NEW KYOTO SUSHI","Address":"25712 The Old Rd","City":"Stevenson Ranch","State":"CA","Zip":"91381"},{"Location":"OCEAN NAILS SPA","Address":"25586 The Old Rd","City":"Stevenson Ranch","State":"CA","Zip":"91381"},{"Location":"OUTBACK STEAKHOUSE #0565","Address":"25261 The Old Rd","City":"Stevenson Ranch","State":"CA","Zip":"91381"},{"Location":"PACE PAYMENT SYSTEMS","Address":"25129 The Old Rd 222","City":"Stevenson Ranch","State":"CA","Zip":"91381"},{"Location":"PREMEIR HEALTH CARE","Address":"25129 The Old Rd 380","City":"Stevenson Ranch","State":"CA","Zip":"91381"},{"Location":"SCV VAPE","Address":"25269 The Old Rd A","City":"Stevenson Ranch","State":"CA","Zip":"91381"},{"Location":"SMOKE ZONE INC","Address":"25886 The Old Rd","City":"Stevenson Ranch","State":"CA","Zip":"91381"},{"Location":"SPUMONI","Address":"24917 Pico Canyon Rd","City":"Stevenson Ranch","State":"CA","Zip":"91381"},{"Location":"STIX HOLDINGS 767","Address":"25960 The Old Rd","City":"Stevenson Ranch","State":"CA","Zip":"91381"},{"Location":"VALENCIA MARKETPLACE DENTAL","Address":"25528 The Old Rd","City":"Stevenson Ranch","State":"CA","Zip":"91381"},{"Location":"YAMATO KURA LLC","Address":"24947 Pico Canyon Rd","City":"Stevenson Ranch","State":"CA","Zip":"91381"},{"Location":"Wonder Nails & Spa","Address":"25968 N The Old Road","City":"Stevensons Ranch","State":"CA","Zip":"91381"},{"Location":"BIG WANGS VALENCIA","Address":"26876 The Old Rd","City":"Valencia","State":"CA","Zip":"91381"},{"Location":"CRITERION WEALTH MANAGEMENT","Address":"26650 The Old Rd 212","City":"Valencia","State":"CA","Zip":"91381"},{"Location":"FAT BURGER #1076","Address":"26906 The Old Rd","City":"Valencia","State":"CA","Zip":"91381"},{"Location":"NICK N WILLYS","Address":"26870 The Old Rd","City":"Valencia","State":"CA","Zip":"91381"},{"Location":"SF STAR HAIR CO","Address":"25343 Silver Aspen Way 735","City":"Valencia","State":"CA","Zip":"91381"},{"Location":"SPORT CLIPS CA703","Address":"26818 The Old Rd","City":"Valencia","State":"CA","Zip":"91381"},{"Location":"T P C AT VALENCIA%2CLLC","Address":"26550 Heritage View Ln","City":"Valencia","State":"CA","Zip":"91381"}]