[{"Location":"SANDY STEIN CO","Address":"34734 Sweetwater Dr","City":"Agua Dulce","State":"CA","Zip":"91390"},{"Location":"ALL PEST PROS","Address":"33336 Agua Dulce Canyon Rd","City":"Santa Clarita","State":"CA","Zip":"91390"},{"Location":"ELMORE PIPE JACKING","Address":"11715 Davenport Rd","City":"Santa Clarita","State":"CA","Zip":"91390"},{"Location":"FRANCISQUITO CAMP","Address":"35100 San Francisquito Canyon R","City":"Santa Clarita","State":"CA","Zip":"91390"},{"Location":"LA COCINA","Address":"28022 Seco Canyon Rd","City":"Santa Clarita","State":"CA","Zip":"91390"},{"Location":"LA COUNTY FIRE 14","Address":"35100 San Francisquito Canyon R","City":"Santa Clarita","State":"CA","Zip":"91390"},{"Location":"LA COUNTY SCOTT BLDG 1","Address":"28700 Bouquet Canyon Rd","City":"Santa Clarita","State":"CA","Zip":"91390"},{"Location":"LA COUNTY SCOTT BLDG 2","Address":"28700 Bouquet Canyon Rd","City":"Santa Clarita","State":"CA","Zip":"91390"},{"Location":"LA COUNTY SCOTT BLDG 3","Address":"28700 Bouquet Canyon Rd","City":"Santa Clarita","State":"CA","Zip":"91390"},{"Location":"LA COUNTY SCOTT BLDG 4","Address":"28700 Bouquet Canyon Rd","City":"Santa Clarita","State":"CA","Zip":"91390"},{"Location":"LA COUNTY SCOTT BLDG 5","Address":"28700 Bouquet Canyon Rd","City":"Santa Clarita","State":"CA","Zip":"91390"},{"Location":"LA COUNTY SCUDDER BLDG 1","Address":"28750 Bouquet Canyon Rd","City":"Santa Clarita","State":"CA","Zip":"91390"},{"Location":"LA COUNTY SCUDDER BLDG 2","Address":"28750 Bouquet Canyon Rd","City":"Santa Clarita","State":"CA","Zip":"91390"},{"Location":"LA COUNTY SCUDDER BLDG 4","Address":"28750 Bouquet Canyon Rd","City":"Santa Clarita","State":"CA","Zip":"91390"},{"Location":"MARIA BUNITA MEX REST","Address":"33311 Agua Dulce Canyon Rd","City":"Santa Clarita","State":"CA","Zip":"91390"},{"Location":"STEIN CO 2","Address":"34734 Sweetwater Dr","City":"Santa Clarita","State":"CA","Zip":"91390"},{"Location":"SWEETWATER BAR AND GRILL","Address":"33310 Agua Dulce Canyon Rd","City":"Santa Clarita","State":"CA","Zip":"91390"},{"Location":"US FOREST SERVICE TEXAS CANYON","Address":"30800 Bouquet Canyon Rd","City":"Santa Clarita","State":"CA","Zip":"91390"},{"Location":"C & D RENTALS","Address":"28310 Gold Canyon Dr","City":"Saugus","State":"CA","Zip":"91390"},{"Location":"THE BIG OAKS","Address":"33101 Banquet Canyon Rd","City":"Saugus","State":"CA","Zip":"91390"},{"Location":"SANDY STEIN CO","Address":"34734 Sweetwater Dr","City":"Agua Dulce","State":"CA","Zip":"91390"},{"Location":"ALL PEST PROS","Address":"33336 Agua Dulce Canyon Rd","City":"Santa Clarita","State":"CA","Zip":"91390"},{"Location":"ELMORE PIPE JACKING","Address":"11715 Davenport Rd","City":"Santa Clarita","State":"CA","Zip":"91390"},{"Location":"FRANCISQUITO CAMP","Address":"35100 San Francisquito Canyon R","City":"Santa Clarita","State":"CA","Zip":"91390"},{"Location":"LA COCINA","Address":"28022 Seco Canyon Rd","City":"Santa Clarita","State":"CA","Zip":"91390"},{"Location":"LA COUNTY FIRE 14","Address":"35100 San Francisquito Canyon R","City":"Santa Clarita","State":"CA","Zip":"91390"},{"Location":"LA COUNTY SCOTT BLDG 1","Address":"28700 Bouquet Canyon Rd","City":"Santa Clarita","State":"CA","Zip":"91390"},{"Location":"LA COUNTY SCOTT BLDG 2","Address":"28700 Bouquet Canyon Rd","City":"Santa Clarita","State":"CA","Zip":"91390"},{"Location":"LA COUNTY SCOTT BLDG 3","Address":"28700 Bouquet Canyon Rd","City":"Santa Clarita","State":"CA","Zip":"91390"},{"Location":"LA COUNTY SCOTT BLDG 4","Address":"28700 Bouquet Canyon Rd","City":"Santa Clarita","State":"CA","Zip":"91390"},{"Location":"LA COUNTY SCOTT BLDG 5","Address":"28700 Bouquet Canyon Rd","City":"Santa Clarita","State":"CA","Zip":"91390"},{"Location":"LA COUNTY SCUDDER BLDG 1","Address":"28750 Bouquet Canyon Rd","City":"Santa Clarita","State":"CA","Zip":"91390"},{"Location":"LA COUNTY SCUDDER BLDG 2","Address":"28750 Bouquet Canyon Rd","City":"Santa Clarita","State":"CA","Zip":"91390"},{"Location":"LA COUNTY SCUDDER BLDG 4","Address":"28750 Bouquet Canyon Rd","City":"Santa Clarita","State":"CA","Zip":"91390"},{"Location":"MARIA BUNITA MEX REST","Address":"33311 Agua Dulce Canyon Rd","City":"Santa Clarita","State":"CA","Zip":"91390"},{"Location":"STEIN CO 2","Address":"34734 Sweetwater Dr","City":"Santa Clarita","State":"CA","Zip":"91390"},{"Location":"US FOREST SERVICE TEXAS CANYON","Address":"30800 Bouquet Canyon Rd","City":"Santa Clarita","State":"CA","Zip":"91390"},{"Location":"C & D RENTALS","Address":"28310 Gold Canyon Dr","City":"Saugus","State":"CA","Zip":"91390"},{"Location":"THE BIG OAKS","Address":"33101 Banquet Canyon Rd","City":"Saugus","State":"CA","Zip":"91390"}]