[{"Location":"ANGELS BARBER SHOP","Address":"6742 Balboa Blvd","City":"Lake Balboa","State":"CA","Zip":"91406"},{"Location":"PALABRA MIEL SAN FERNADO","Address":"16260 Lindbergh St","City":"Lake Balboa","State":"CA","Zip":"91406"},{"Location":"T&T BARBER SHOP","Address":"17652 Vanowen St","City":"Lake Balboa","State":"CA","Zip":"91406"},{"Location":"818 PROPERTIES LLC","Address":"6705 Valjean Ave","City":"Van Nuys","State":"CA","Zip":"91406"},{"Location":"A1 PERSONAL TRAINING","Address":"7536 Valjean Ave","City":"Van Nuys","State":"CA","Zip":"91406"},{"Location":"ADVANCED AIR MANAGEMENT","Address":"16233 Vanowen St","City":"Van Nuys","State":"CA","Zip":"91406"},{"Location":"AERO SERVICES GROUP","Address":"16555-7 Arminta St","City":"Van Nuys","State":"CA","Zip":"91406"},{"Location":"AFFORDABLE HOME FURNITURE","Address":"7300 Valjean Ave","City":"Van Nuys","State":"CA","Zip":"91406"},{"Location":"AIRTEL PLAZA HOTEL","Address":"7277 Valjean Ave","City":"Van Nuys","State":"CA","Zip":"91406"},{"Location":"AJAX","Address":"15818 Arminta St","City":"Van Nuys","State":"CA","Zip":"91406"},{"Location":"ALLIED NATIONWIDE SECURI","Address":"7247 Hayvenhurst Ave A7","City":"Van Nuys","State":"CA","Zip":"91406"},{"Location":"AMERICAN INDUSTRIAL SOURCE","Address":"15759 Strathern St","City":"Van Nuys","State":"CA","Zip":"91406"},{"Location":"AMERICAN OLEAN","Address":"16300 Stagg St","City":"Van Nuys","State":"CA","Zip":"91406"},{"Location":"AMJ GLOBAL LLC 1","Address":"15462 Cabrito Rd","City":"Van Nuys","State":"CA","Zip":"91406"},{"Location":"AMS","Address":"7933 Haskell Ave","City":"Van Nuys","State":"CA","Zip":"91406"},{"Location":"ANHEUSER BUSCH BREWERY","Address":"15800 Roscoe Blvd","City":"Van Nuys","State":"CA","Zip":"91406"},{"Location":"ANTOJITOS LATINOS","Address":"15713 Vanowen St","City":"Van Nuys","State":"CA","Zip":"91406"},{"Location":"ATB&J LAW","Address":"15400 Sherman Way 260","City":"Van Nuys","State":"CA","Zip":"91406"},{"Location":"BALBOA RV PARK","Address":"7740 Balboa Blvd","City":"Van Nuys","State":"CA","Zip":"91406"},{"Location":"BALBOA WAY LIQUOR","Address":"7143 Balboa Blvd","City":"Van Nuys","State":"CA","Zip":"91406"},{"Location":"BATTLEMENT MESA CO","Address":"7740 Balboa Blvd 22","City":"Van Nuys","State":"CA","Zip":"91406"},{"Location":"BEHAVIORAL SYSTEMS SOUTHWEST","Address":"8141 Orion Ave","City":"Van Nuys","State":"CA","Zip":"91406"},{"Location":"BERNEY PROPERTIES","Address":"7633 Haskell Ave","City":"Van Nuys","State":"CA","Zip":"91406"},{"Location":"C & C INC","Address":"7415 Hayvenhurst Pl","City":"Van Nuys","State":"CA","Zip":"91406"},{"Location":"CALIFORNIA CAT CENTER","Address":"7048 Sophia Ave","City":"Van Nuys","State":"CA","Zip":"91406"},{"Location":"CANNACARE INC","Address":"17616 Sherman Way","City":"Van Nuys","State":"CA","Zip":"91406"},{"Location":"CAPSTONE TURBINE CORP 2","Address":"16640 Stagg St","City":"Van Nuys","State":"CA","Zip":"91406"},{"Location":"CLAY LACY","Address":"7435 Valjean Ave","City":"Van Nuys","State":"CA","Zip":"91406"},{"Location":"CLAY LACY HANGER 1","Address":"7435 Valjean Ave","City":"Van Nuys","State":"CA","Zip":"91406"},{"Location":"CLUB 7557","Address":"7557 Woodley Ave","City":"Van Nuys","State":"CA","Zip":"91406"},{"Location":"COSTA AZUL LLC","Address":"16441 Vanowen St","City":"Van Nuys","State":"CA","Zip":"91406"},{"Location":"CRAB CAKE CONNECTION","Address":"8101 Orion Ave 18","City":"Van Nuys","State":"CA","Zip":"91406"},{"Location":"DAL TILE","Address":"16201 Stagg St","City":"Van Nuys","State":"CA","Zip":"91406"},{"Location":"DIAMOND NAILS","Address":"6800 Balboa Blvd E","City":"Van Nuys","State":"CA","Zip":"91406"},{"Location":"DONA AMALIA INC","Address":"16060 Saticoy St","City":"Van Nuys","State":"CA","Zip":"91406"},{"Location":"DRIVEWISE AUTO","Address":"6862 Hayvenhurst Ave D","City":"Van Nuys","State":"CA","Zip":"91406"},{"Location":"ECLIPSE AC","Address":"16117 Valerio St","City":"Van Nuys","State":"CA","Zip":"91406"},{"Location":"EL TROPICAL REST Y BAR","Address":"7758 Densmore Ave","City":"Van Nuys","State":"CA","Zip":"91406"},{"Location":"ELECTRO CONCEPTS INC.","Address":"6701 Odessa Ave","City":"Van Nuys","State":"CA","Zip":"91406"},{"Location":"ENNYES BEAUTY SALONS","Address":"16044 Vanowen St","City":"Van Nuys","State":"CA","Zip":"91406"},{"Location":"EVERGREEN RESTAURANT","Address":"17621 Sherman Way","City":"Van Nuys","State":"CA","Zip":"91406"},{"Location":"EXTREME MACHINING OPERATIONS","Address":"7955 Haskell Ave","City":"Van Nuys","State":"CA","Zip":"91406"},{"Location":"FAMILY DENTISTRY","Address":"15355 Sherman Way J","City":"Van Nuys","State":"CA","Zip":"91406"},{"Location":"GALPIN FORD","Address":"7868 Orion Ave","City":"Van Nuys","State":"CA","Zip":"91406"},{"Location":"GALPIN MAZDA","Address":"15430 Roscoe Blvd","City":"Van Nuys","State":"CA","Zip":"91406"},{"Location":"GALPIN MOTORS","Address":"8210 Orion Ave","City":"Van Nuys","State":"CA","Zip":"91406"},{"Location":"GOURMET COFFEE SERVICE","Address":"7660 Densmore Ave","City":"Van Nuys","State":"CA","Zip":"91406"},{"Location":"GRAND ADHC","Address":"6752 White Oak Ave","City":"Van Nuys","State":"CA","Zip":"91406"},{"Location":"H AND M SHEET METAL","Address":"7621 Hayvenhurst Ave","City":"Van Nuys","State":"CA","Zip":"91406"},{"Location":"HARRIS STATIONERS","Address":"7100 Valjean Ave","City":"Van Nuys","State":"CA","Zip":"91406"},{"Location":"HEARTS COFFEE SHOP","Address":"16918 Saticoy St","City":"Van Nuys","State":"CA","Zip":"91406"},{"Location":"HERITAGE CABINET CO","Address":"15750 Arminta St","City":"Van Nuys","State":"CA","Zip":"91406"},{"Location":"HIGH TECH LA","Address":"17111 Victory Blvd","City":"Van Nuys","State":"CA","Zip":"91406"},{"Location":"JED EDGE INTERNATIONAL","Address":"16101 Saticoy St","City":"Van Nuys","State":"CA","Zip":"91406"},{"Location":"JET AVAITION","Address":"7415 Hayvenhurst Pl 200","City":"Van Nuys","State":"CA","Zip":"91406"},{"Location":"KINNARA THAI RESTAURANT","Address":"15355 Sherman Way B","City":"Van Nuys","State":"CA","Zip":"91406"},{"Location":"KUSH COLLECTIVE","Address":"16770 Stagg St","City":"Van Nuys","State":"CA","Zip":"91406"},{"Location":"LA NUEZA FOGATA","Address":"16852 Sherman Way","City":"Van Nuys","State":"CA","Zip":"91406"},{"Location":"LA PIEDAD","Address":"15709 Vanowen St","City":"Van Nuys","State":"CA","Zip":"91406"},{"Location":"LAVANDERA CLASSICA","Address":"16105 Victory Blvd","City":"Van Nuys","State":"CA","Zip":"91406"},{"Location":"LIVE MEDIA GROUP","Address":"16249 Stagg St","City":"Van Nuys","State":"CA","Zip":"91406"},{"Location":"MAJESTIC ASSET MANAGEMENT INC","Address":"15400 Sherman Way 215","City":"Van Nuys","State":"CA","Zip":"91406"},{"Location":"MB AIRWAYS","Address":"7415 Hayvenhurst Pl 254","City":"Van Nuys","State":"CA","Zip":"91406"},{"Location":"MOULTON LEGISTICS MANAGEMENT","Address":"7850 Ruffner Ave","City":"Van Nuys","State":"CA","Zip":"91406"},{"Location":"MUNCHKIN","Address":"7835 Gloria Ave","City":"Van Nuys","State":"CA","Zip":"91406"},{"Location":"NETJETS","Address":"7535 Valjean Ave A","City":"Van Nuys","State":"CA","Zip":"91406"},{"Location":"OCCIDENTAL FLIGHT OPERATIONS","Address":"7430 Hayvenhurst Pl","City":"Van Nuys","State":"CA","Zip":"91406"},{"Location":"P GRAPHICS","Address":"6961 Valjean Ave","City":"Van Nuys","State":"CA","Zip":"91406"},{"Location":"PATIENT MANGEMENT","Address":"7820 Balboa Blvd","City":"Van Nuys","State":"CA","Zip":"91406"},{"Location":"PIZZA HUT","Address":"17630 Vanowen St","City":"Van Nuys","State":"CA","Zip":"91406"},{"Location":"PLUS ENTERTAINMENT","Address":"16151 Leadwell St","City":"Van Nuys","State":"CA","Zip":"91406"},{"Location":"POGOS BAR","Address":"17314 Saticoy St","City":"Van Nuys","State":"CA","Zip":"91406"},{"Location":"PREMIERE AUTO GROUP","Address":"15500 Roscoe Blvd","City":"Van Nuys","State":"CA","Zip":"91406"},{"Location":"PRODUCE DELIVERY SERVICE","Address":"17623 Sherman Way","City":"Van Nuys","State":"CA","Zip":"91406"},{"Location":"PRODUCTION GEAR RENTALS","Address":"16140 Runnymede St","City":"Van Nuys","State":"CA","Zip":"91406"},{"Location":"PROTOCOL ENTERTAINMENT","Address":"16128 Sher Way","City":"Van Nuys","State":"CA","Zip":"91406"},{"Location":"RESEDA TRANSMISSIONS","Address":"17630 Sherman Way B","City":"Van Nuys","State":"CA","Zip":"91406"},{"Location":"RIVERA","Address":"16101 Vanowen St","City":"Van Nuys","State":"CA","Zip":"91406"},{"Location":"RODRIGUEZ","Address":"17630 Sherman Way C","City":"Van Nuys","State":"CA","Zip":"91406"},{"Location":"RV FRANCO DENTAL OFFICE","Address":"15355 Sherman Way P","City":"Van Nuys","State":"CA","Zip":"91406"},{"Location":"SAFELITE AUTO GLASS","Address":"16200 Waterman Dr","City":"Van Nuys","State":"CA","Zip":"91406"},{"Location":"SALSA AND BEER","Address":"6740 White Oak Ave","City":"Van Nuys","State":"CA","Zip":"91406"},{"Location":"SAN FERNANDO VALLEY COMMUNITY","Address":"16360 Roscoe Blvd 2","City":"Van Nuys","State":"CA","Zip":"91406"},{"Location":"SCP DISTRIBUTORS INC","Address":"7901 Woodley Ave","City":"Van Nuys","State":"CA","Zip":"91406"},{"Location":"SENTRY CONTROL SYSTEMS","Address":"6611 Odessa Ave","City":"Van Nuys","State":"CA","Zip":"91406"},{"Location":"SHELL OIL","Address":"8100 Haskell Ave","City":"Van Nuys","State":"CA","Zip":"91406"},{"Location":"SHOWBIZ STUDIOS INC","Address":"15521 Lanark St","City":"Van Nuys","State":"CA","Zip":"91406"},{"Location":"SIGNATURE FLIGHT SUPPORT","Address":"7155 Valjean Ave","City":"Van Nuys","State":"CA","Zip":"91406"},{"Location":"SIGNATURE FLIGHT SUPPORT","Address":"7240 Hayvenhurst Ave","City":"Van Nuys","State":"CA","Zip":"91406"},{"Location":"SIZZLER","Address":"16955 Sherman Way","City":"Van Nuys","State":"CA","Zip":"91406"},{"Location":"SNAPIR DENTAL GROUP","Address":"15704 Vanowen St","City":"Van Nuys","State":"CA","Zip":"91406"},{"Location":"SOUTHERN CALIFORNIA GAS","Address":"16645 Saticoy St","City":"Van Nuys","State":"CA","Zip":"91406"},{"Location":"SPRINGBOK BAR & GRILL","Address":"16153 Victory Blvd","City":"Van Nuys","State":"CA","Zip":"91406"},{"Location":"SWEETWATER DIGITAL PROD.","Address":"16200 Stagg St","City":"Van Nuys","State":"CA","Zip":"91406"},{"Location":"SWEETWATER DIGITAL PROD.","Address":"7635 Airport Business Pkwy","City":"Van Nuys","State":"CA","Zip":"91406"},{"Location":"THE BLADE BARBERSHOP","Address":"16851 Victory Blvd","City":"Van Nuys","State":"CA","Zip":"91406"},{"Location":"ULLOA","Address":"16042 Vanowen St","City":"Van Nuys","State":"CA","Zip":"91406"},{"Location":"VALENCIA LUMBER","Address":"15809 Strathern St","City":"Van Nuys","State":"CA","Zip":"91406"},{"Location":"VALLARTA SUPERMARKET #6","Address":"16107 Victory Blvd","City":"Van Nuys","State":"CA","Zip":"91406"},{"Location":"VALLEY JEWELY","Address":"17643 Sherman Way 203","City":"Van Nuys","State":"CA","Zip":"91406"},{"Location":"VAN NUYS GOLF COURSE-SCG","Address":"6550 Odessa Ave","City":"Van Nuys","State":"CA","Zip":"91406"},{"Location":"WEISS FAMILY PROPERTIES","Address":"15551 Cabrito Rd","City":"Van Nuys","State":"CA","Zip":"91406"},{"Location":"WEST COAST FLOORS","Address":"15635 Saticoy St","City":"Van Nuys","State":"CA","Zip":"91406"}]