[{"Location":"ORDENEZ ACCOUNTING","Address":"14538 Vanowen St","City":"Valley Glen","State":"CA","Zip":"91405"},{"Location":"98 CENT DISCOUNT STORE","Address":"7343 Van Nuys Blvd","City":"Van Nuys","State":"CA","Zip":"91405"},{"Location":"ALBERTOS MEXICAN FOOD","Address":"14525 Vanowen St","City":"Van Nuys","State":"CA","Zip":"91405"},{"Location":"ALLIED BUILDING PRODUCTS","Address":"15208 Raymer St","City":"Van Nuys","State":"CA","Zip":"91405"},{"Location":"ARAKSYA MOVSISYAN LLC","Address":"13316 Vanowen St","City":"Van Nuys","State":"CA","Zip":"91405"},{"Location":"AUTO MARKET INC","Address":"14485 Raymer St","City":"Van Nuys","State":"CA","Zip":"91405"},{"Location":"AY PAPA QUE RICO","Address":"7344 Van Nuys Blvd 1","City":"Van Nuys","State":"CA","Zip":"91405"},{"Location":"BOTANICA BV","Address":"15234 Saticoy St","City":"Van Nuys","State":"CA","Zip":"91405"},{"Location":"CALI VIEJO","Address":"7363 Van Nuys Blvd","City":"Van Nuys","State":"CA","Zip":"91405"},{"Location":"CAMACHO","Address":"7433 Van Nuys Blvd","City":"Van Nuys","State":"CA","Zip":"91405"},{"Location":"CLUB SALVADORENO REST","Address":"7344 Van Nuys Blvd","City":"Van Nuys","State":"CA","Zip":"91405"},{"Location":"DAVID BARNES COMPANY","Address":"14701 Keswick St","City":"Van Nuys","State":"CA","Zip":"91405"},{"Location":"DAVITA #616-1C VALLEY","Address":"6840 Sepulveda Blvd 101","City":"Van Nuys","State":"CA","Zip":"91405"},{"Location":"DELICIAS DE MI RANCHITO","Address":"14523 Vanowen St","City":"Van Nuys","State":"CA","Zip":"91405"},{"Location":"DELTA NINE","Address":"7648 Van Nuys Blvd","City":"Van Nuys","State":"CA","Zip":"91405"},{"Location":"EL CAFETAL","Address":"13663 Vanolin St","City":"Van Nuys","State":"CA","Zip":"91405"},{"Location":"EL CRIOLLO","Address":"6622 Van Nuys Blvd","City":"Van Nuys","State":"CA","Zip":"91405"},{"Location":"EL POLLO NORTENITO","Address":"14522 Vanowen St","City":"Van Nuys","State":"CA","Zip":"91405"},{"Location":"FUNRISE INC","Address":"7811 Lemona Ave","City":"Van Nuys","State":"CA","Zip":"91405"},{"Location":"G&A PROFESSIONAL SERVICES","Address":"14048 Vanowen St","City":"Van Nuys","State":"CA","Zip":"91405"},{"Location":"GAPA LLC","Address":"13429 Vanowen St","City":"Van Nuys","State":"CA","Zip":"91405"},{"Location":"HOUSE OF TACOS","Address":"13521 Sherman Way","City":"Van Nuys","State":"CA","Zip":"91405"},{"Location":"HUMTINGTON BEACH HOSPITALITY","Address":"14626 Raymer St","City":"Van Nuys","State":"CA","Zip":"91405"},{"Location":"JALISCO SUPER MUFFLERS","Address":"14526 Sherman Cir","City":"Van Nuys","State":"CA","Zip":"91405"},{"Location":"JANNY'S BEAUTY SALON","Address":"14126 Sherman Way 8","City":"Van Nuys","State":"CA","Zip":"91405"},{"Location":"JAVIS ELECTRA WAREHOUSE","Address":"7056 Van Nuys Blvd","City":"Van Nuys","State":"CA","Zip":"91405"},{"Location":"KESTER LAUNDARY","Address":"6823 Kester Ave","City":"Van Nuys","State":"CA","Zip":"91405"},{"Location":"KIDNEY CENTER OF VAN NUYS","Address":"14624 Sherman Way 106","City":"Van Nuys","State":"CA","Zip":"91405"},{"Location":"LA CARRETA RESTAURANT","Address":"7301 Van Nuys Blvde","City":"Van Nuys","State":"CA","Zip":"91405"},{"Location":"LAS CONVINIENT STORE INC","Address":"7018 Van Nuys Blvd","City":"Van Nuys","State":"CA","Zip":"91405"},{"Location":"LIQUID ZOO","Address":"7214 Sepulveda Blvd","City":"Van Nuys","State":"CA","Zip":"91405"},{"Location":"LISTO EL POLLO","Address":"6807 Sepulveda Blvd","City":"Van Nuys","State":"CA","Zip":"91405"},{"Location":"LOS TRES HERMANOS INC","Address":"7456 Van Nuys Blvd","City":"Van Nuys","State":"CA","Zip":"91405"},{"Location":"LUCKY U CONSIGNMENT","Address":"15012 Sherman Way 208","City":"Van Nuys","State":"CA","Zip":"91405"},{"Location":"MARTICA'S BEAUTY SALON","Address":"14046 Vanowen St","City":"Van Nuys","State":"CA","Zip":"91405"},{"Location":"MASTER MUFFLER AUTO  INC","Address":"7012 Van Nuys Blvd","City":"Van Nuys","State":"CA","Zip":"91405"},{"Location":"MERCADO BUENOS AIRES INC","Address":"7540 Sepulveda Blvd","City":"Van Nuys","State":"CA","Zip":"91405"},{"Location":"METAPAN RESTAURANT","Address":"14043 Sherman Way","City":"Van Nuys","State":"CA","Zip":"91405"},{"Location":"MI CASITA","Address":"14860 Vanowen St","City":"Van Nuys","State":"CA","Zip":"91405"},{"Location":"OCHOAS AUTO REPAIR","Address":"6710 Van Nuys Blvd","City":"Van Nuys","State":"CA","Zip":"91405"},{"Location":"OLDER ADULTS FSP%2FFCCS","Address":"14600 Sherman Way 100d","City":"Van Nuys","State":"CA","Zip":"91405"},{"Location":"OLIVE TREE APARTMENTS REC ROOM","Address":"14960 Sherman Way","City":"Van Nuys","State":"CA","Zip":"91405"},{"Location":"PANADERIA EL SALVADOR","Address":"14527 Vanowen St","City":"Van Nuys","State":"CA","Zip":"91405"},{"Location":"PANADERIA ZARAGOZA","Address":"14909 Vanowen St","City":"Van Nuys","State":"CA","Zip":"91405"},{"Location":"PANORAMA INSURANCE","Address":"14915 Sherman Way","City":"Van Nuys","State":"CA","Zip":"91405"},{"Location":"PLANNED PARENTHOOD LA","Address":"7100 Van Nuys Blvd 108","City":"Van Nuys","State":"CA","Zip":"91405"},{"Location":"ROCK OF VALLEY CHURCH","Address":"7722 Kester Ave","City":"Van Nuys","State":"CA","Zip":"91405"},{"Location":"SFVCMHC INC","Address":"14545 Sherman Cir","City":"Van Nuys","State":"CA","Zip":"91405"},{"Location":"SIZZLER 852","Address":"7131 Van Nuys Blvd","City":"Van Nuys","State":"CA","Zip":"91405"},{"Location":"STONECROFT ATTYS","Address":"7034 Van Nuys Blvd C","City":"Van Nuys","State":"CA","Zip":"91405"},{"Location":"SUN MOTORS","Address":"14122 Vanowen St","City":"Van Nuys","State":"CA","Zip":"91405"},{"Location":"SUPERIOR POOL PRODUCTS","Address":"14768 Raymer St","City":"Van Nuys","State":"CA","Zip":"91405"},{"Location":"TARGET","Address":"14920 Raymer St","City":"Van Nuys","State":"CA","Zip":"91405"},{"Location":"THE GREEN EARTH","Address":"6811 Woodman Ave","City":"Van Nuys","State":"CA","Zip":"91405"},{"Location":"THE SERVICE LAUNDRY","Address":"14509 Sherman Way","City":"Van Nuys","State":"CA","Zip":"91405"},{"Location":"TRANSISTIONS%2FCAPPS","Address":"14535 Sherman Cir","City":"Van Nuys","State":"CA","Zip":"91405"},{"Location":"TRAVIS & MALACHI%2C LLC","Address":"13521 Sherman Way E","City":"Van Nuys","State":"CA","Zip":"91405"},{"Location":"UJPEST","Address":"14034 Vanowen St","City":"Van Nuys","State":"CA","Zip":"91405"},{"Location":"VALLARTASUPERMARKETS  NO2","Address":"13715 Vanowen St","City":"Van Nuys","State":"CA","Zip":"91405"},{"Location":"VALLEY CARWASH","Address":"7530 Van Nuys Blvd","City":"Van Nuys","State":"CA","Zip":"91405"},{"Location":"VALLEY SMILE DENTAL CARE","Address":"13651 Vanowen St","City":"Van Nuys","State":"CA","Zip":"91405"},{"Location":"VALLEY XPRESS COLLISION","Address":"6915 Van Nuys Blvd Lepin","City":"Van Nuys","State":"CA","Zip":"91405"},{"Location":"VAN NUYS PATIENT CARE","Address":"14526 Sherman Way C","City":"Van Nuys","State":"CA","Zip":"91405"},{"Location":"T&T NAILS SPA","Address":"7048 Fepulveda Blvd","City":"Van Nyum","State":"CA","Zip":"91405"},{"Location":"ORDENEZ ACCOUNTING","Address":"14538 Vanowen St","City":"Valley Glen","State":"CA","Zip":"91405"},{"Location":"98 CENT DISCOUNT STORE","Address":"7343 Van Nuys Blvd","City":"Van Nuys","State":"CA","Zip":"91405"},{"Location":"ALBERTOS MEXICAN FOOD","Address":"14525 Vanowen St","City":"Van Nuys","State":"CA","Zip":"91405"},{"Location":"ALLIED BUILDING PRODUCTS","Address":"15208 Raymer St","City":"Van Nuys","State":"CA","Zip":"91405"},{"Location":"ARAKSYA MOVSISYAN LLC","Address":"13316 Vanowen St","City":"Van Nuys","State":"CA","Zip":"91405"},{"Location":"AUTO MARKET INC","Address":"14485 Raymer St","City":"Van Nuys","State":"CA","Zip":"91405"},{"Location":"AY PAPA QUE RICO","Address":"7344 Van Nuys Blvd 1","City":"Van Nuys","State":"CA","Zip":"91405"},{"Location":"BOTANICA BV","Address":"15234 Saticoy St","City":"Van Nuys","State":"CA","Zip":"91405"},{"Location":"CALI VIEJO","Address":"7363 Van Nuys Blvd","City":"Van Nuys","State":"CA","Zip":"91405"},{"Location":"CAMACHO","Address":"7433 Van Nuys Blvd","City":"Van Nuys","State":"CA","Zip":"91405"},{"Location":"CLUB SALVADORENO REST","Address":"7344 Van Nuys Blvd","City":"Van Nuys","State":"CA","Zip":"91405"},{"Location":"DAVID BARNES COMPANY","Address":"14701 Keswick St","City":"Van Nuys","State":"CA","Zip":"91405"},{"Location":"DAVITA #616-1C VALLEY","Address":"6840 Sepulveda Blvd 101","City":"Van Nuys","State":"CA","Zip":"91405"},{"Location":"DELICIAS DE MI RANCHITO","Address":"14523 Vanowen St","City":"Van Nuys","State":"CA","Zip":"91405"},{"Location":"DELTA NINE","Address":"7648 Van Nuys Blvd","City":"Van Nuys","State":"CA","Zip":"91405"},{"Location":"EL CAFETAL","Address":"13663 Vanolin St","City":"Van Nuys","State":"CA","Zip":"91405"},{"Location":"EL CRIOLLO","Address":"6622 Van Nuys Blvd","City":"Van Nuys","State":"CA","Zip":"91405"},{"Location":"El Pollo Nortenito","Address":"14522 Vanowen St","City":"Van Nuys","State":"CA","Zip":"91405"},{"Location":"FUNRISE INC","Address":"7811 Lemona Ave","City":"Van Nuys","State":"CA","Zip":"91405"},{"Location":"G&A PROFESSIONAL SERVICES","Address":"14048 Vanowen St","City":"Van Nuys","State":"CA","Zip":"91405"},{"Location":"GAPA LLC","Address":"13429 Vanowen St","City":"Van Nuys","State":"CA","Zip":"91405"},{"Location":"HOUSE OF TACOS","Address":"13521 Sherman Way","City":"Van Nuys","State":"CA","Zip":"91405"},{"Location":"HUMTINGTON BEACH HOSPITALITY","Address":"14626 Raymer St","City":"Van Nuys","State":"CA","Zip":"91405"},{"Location":"JALISCO SUPER MUFFLERS","Address":"14526 Sherman Cir","City":"Van Nuys","State":"CA","Zip":"91405"},{"Location":"JANNY'S BEAUTY SALON","Address":"14126 Sherman Way 8","City":"Van Nuys","State":"CA","Zip":"91405"},{"Location":"JAVIS ELECTRA WAREHOUSE","Address":"7056 Van Nuys Blvd","City":"Van Nuys","State":"CA","Zip":"91405"},{"Location":"KESTER LAUNDARY","Address":"6823 Kester Ave","City":"Van Nuys","State":"CA","Zip":"91405"},{"Location":"KIDNEY CENTER OF VAN NUYS","Address":"14624 Sherman Way 106","City":"Van Nuys","State":"CA","Zip":"91405"},{"Location":"LA CARRETA RESTAURANT","Address":"7301 Van Nuys Blvde","City":"Van Nuys","State":"CA","Zip":"91405"},{"Location":"LAS CONVINIENT STORE INC","Address":"7018 Van Nuys Blvd","City":"Van Nuys","State":"CA","Zip":"91405"},{"Location":"LIQUID ZOO","Address":"7214 Sepulveda Blvd","City":"Van Nuys","State":"CA","Zip":"91405"},{"Location":"LISTO EL POLLO","Address":"6807 Sepulveda Blvd","City":"Van Nuys","State":"CA","Zip":"91405"},{"Location":"LOS TRES HERMANOS INC","Address":"7456 Van Nuys Blvd","City":"Van Nuys","State":"CA","Zip":"91405"},{"Location":"LUCKY U CONSIGNMENT","Address":"15012 Sherman Way 208","City":"Van Nuys","State":"CA","Zip":"91405"},{"Location":"MARTICA'S BEAUTY SALON","Address":"14046 Vanowen St","City":"Van Nuys","State":"CA","Zip":"91405"},{"Location":"MASTER MUFFLER AUTO  INC","Address":"7012 Van Nuys Blvd","City":"Van Nuys","State":"CA","Zip":"91405"},{"Location":"MERCADO BUENOS AIRES INC","Address":"7540 Sepulveda Blvd","City":"Van Nuys","State":"CA","Zip":"91405"},{"Location":"METAPAN RESTAURANT","Address":"14043 Sherman Way","City":"Van Nuys","State":"CA","Zip":"91405"},{"Location":"MI CASITA","Address":"14860 Vanowen St","City":"Van Nuys","State":"CA","Zip":"91405"},{"Location":"OCHOAS AUTO REPAIR","Address":"6710 Van Nuys Blvd","City":"Van Nuys","State":"CA","Zip":"91405"},{"Location":"OLDER ADULTS FSP%2FFCCS","Address":"14600 Sherman Way 100d","City":"Van Nuys","State":"CA","Zip":"91405"},{"Location":"OLIVE TREE APARTMENTS REC ROOM","Address":"14960 Sherman Way","City":"Van Nuys","State":"CA","Zip":"91405"},{"Location":"PANADERIA EL SALVADOR","Address":"14527 Vanowen St","City":"Van Nuys","State":"CA","Zip":"91405"},{"Location":"PANORAMA INSURANCE","Address":"14915 Sherman Way","City":"Van Nuys","State":"CA","Zip":"91405"},{"Location":"PLANNED PARENTHOOD LA","Address":"7100 Van Nuys Blvd 108","City":"Van Nuys","State":"CA","Zip":"91405"},{"Location":"ROCK OF VALLEY CHURCH","Address":"7722 Kester Ave","City":"Van Nuys","State":"CA","Zip":"91405"},{"Location":"SFVCMHC INC","Address":"14545 Sherman Cir","City":"Van Nuys","State":"CA","Zip":"91405"},{"Location":"SIZZLER 852","Address":"7131 Van Nuys Blvd","City":"Van Nuys","State":"CA","Zip":"91405"},{"Location":"STONECROFT ATTYS","Address":"7034 Van Nuys Blvd C","City":"Van Nuys","State":"CA","Zip":"91405"},{"Location":"SUN MOTORS","Address":"14122 Vanowen St","City":"Van Nuys","State":"CA","Zip":"91405"},{"Location":"SUPERIOR POOL PRODUCTS","Address":"14768 Raymer St","City":"Van Nuys","State":"CA","Zip":"91405"},{"Location":"TARGET","Address":"14920 Raymer St","City":"Van Nuys","State":"CA","Zip":"91405"},{"Location":"THE GREEN EARTH","Address":"6811 Woodman Ave","City":"Van Nuys","State":"CA","Zip":"91405"},{"Location":"THE SERVICE LAUNDRY","Address":"14509 Sherman Way","City":"Van Nuys","State":"CA","Zip":"91405"},{"Location":"TRANSISTIONS%2FCAPPS","Address":"14535 Sherman Cir","City":"Van Nuys","State":"CA","Zip":"91405"},{"Location":"TRAVIS & MALACHI%2C LLC","Address":"13521 Sherman Way E","City":"Van Nuys","State":"CA","Zip":"91405"},{"Location":"UJPEST","Address":"14034 Vanowen St","City":"Van Nuys","State":"CA","Zip":"91405"},{"Location":"VALLARTASUPERMARKETS  NO2","Address":"13715 Vanowen St","City":"Van Nuys","State":"CA","Zip":"91405"},{"Location":"VALLEY CARWASH","Address":"7530 Van Nuys Blvd","City":"Van Nuys","State":"CA","Zip":"91405"},{"Location":"VALLEY SMILE DENTAL CARE","Address":"13651 Vanowen St","City":"Van Nuys","State":"CA","Zip":"91405"},{"Location":"VALLEY XPRESS COLLISION","Address":"6915 Van Nuys Blvd Lepin","City":"Van Nuys","State":"CA","Zip":"91405"},{"Location":"VAN NUYS PATIENT CARE","Address":"14526 Sherman Way C","City":"Van Nuys","State":"CA","Zip":"91405"},{"Location":"T&T NAILS SPA","Address":"7048 Fepulveda Blvd","City":"Van Nyum","State":"CA","Zip":"91405"}]