[{"Location":"24 HOUR FITNESS #145","Address":"8350 Van Nuys Blvd","City":"Panorama City","State":"CA","Zip":"91402"},{"Location":"ABRAHAMS FASHION","Address":"14650 Parthenia St L4","City":"Panorama City","State":"CA","Zip":"91402"},{"Location":"ALVADOR ALCARAZ","Address":"14692 Parthenia St","City":"Panorama City","State":"CA","Zip":"91402"},{"Location":"ARMENTAS BARBER SHOP","Address":"8610 Van Nuys Blvd 1305","City":"Panorama City","State":"CA","Zip":"91402"},{"Location":"CARNITAS MICHOACANAS","Address":"9067 Van Nuys Blvd A","City":"Panorama City","State":"CA","Zip":"91402"},{"Location":"CENTRO  PANADERO","Address":"14712 Parthenia St H","City":"Panorama City","State":"CA","Zip":"91402"},{"Location":"COD GROUP OF COMPANIES","Address":"14525 Nordhoff St","City":"Panorama City","State":"CA","Zip":"91402"},{"Location":"CROWN LAUNDRY","Address":"9051 Van Nuys Blvd 3","City":"Panorama City","State":"CA","Zip":"91402"},{"Location":"DENTAL WONDERLAND","Address":"8761 Van Nuys Blvd","City":"Panorama City","State":"CA","Zip":"91402"},{"Location":"DJ BIBINGKAHAN","Address":"14417 Roscoe Blvd K","City":"Panorama City","State":"CA","Zip":"91402"},{"Location":"DNL PIZZA","Address":"8401 Van Nuys Blvd 74a","City":"Panorama City","State":"CA","Zip":"91402"},{"Location":"EL GALLO GIRO","Address":"8309 Van Nuys Blvd","City":"Panorama City","State":"CA","Zip":"91402"},{"Location":"EMCA","Address":"14650 Parthenia St G12","City":"Panorama City","State":"CA","Zip":"91402"},{"Location":"FERNANDOS HAIR MASTER","Address":"15243 Roscoe Blvd","City":"Panorama City","State":"CA","Zip":"91402"},{"Location":"FIRESTONE #018406","Address":"8760 Van Nuys Blvd","City":"Panorama City","State":"CA","Zip":"91402"},{"Location":"FIRST CLASS RESTORATION","Address":"14621 Titus St 3","City":"Panorama City","State":"CA","Zip":"91402"},{"Location":"FLAME BROILER","Address":"13606 Roscoe Blvd 7","City":"Panorama City","State":"CA","Zip":"91402"},{"Location":"FLOWERS BOUTIQUE","Address":"13606 Roscoe Blvd 6","City":"Panorama City","State":"CA","Zip":"91402"},{"Location":"FRESH MARKET RESTAURANT","Address":"8259 Sepulveda Blvd","City":"Panorama City","State":"CA","Zip":"91402"},{"Location":"GABRIELYAN","Address":"8536 Saloma Ave","City":"Panorama City","State":"CA","Zip":"91402"},{"Location":"GIROMEX","Address":"14650 Parthenia St 13","City":"Panorama City","State":"CA","Zip":"91402"},{"Location":"GOLDILOCKS","Address":"8340 Van Nuys Blvd","City":"Panorama City","State":"CA","Zip":"91402"},{"Location":"GOODWILL PANORAMA CITY","Address":"14565 Lanark St","City":"Panorama City","State":"CA","Zip":"91402"},{"Location":"GOODYEAR 8625","Address":"8100 Van Nuys Blvd","City":"Panorama City","State":"CA","Zip":"91402"},{"Location":"GORDITAS DURANGO MEXICAI","Address":"14650 Roscoe Blvd 2","City":"Panorama City","State":"CA","Zip":"91402"},{"Location":"GPC PROFESSIONAL INC","Address":"9612 Van Nuys Blvd 201","City":"Panorama City","State":"CA","Zip":"91402"},{"Location":"INNOVATIVE DIALYSIS SYST","Address":"14600 Roscoe Blvd","City":"Panorama City","State":"CA","Zip":"91402"},{"Location":"JMI CARBONERO RESTRANT","Address":"15049 Roscoe Blvd","City":"Panorama City","State":"CA","Zip":"91402"},{"Location":"KAISER-NEW BUILDING","Address":"8250 Woodman Ave","City":"Panorama City","State":"CA","Zip":"91402"},{"Location":"KIDS DENTAL CARE","Address":"8214 Van Nuys Blvd","City":"Panorama City","State":"CA","Zip":"91402"},{"Location":"KITCHEN'S BEST INC","Address":"14547 Titus St 218","City":"Panorama City","State":"CA","Zip":"91402"},{"Location":"L A GARDEN SOLUTIONS","Address":"9508 Van Nuys Blvd A","City":"Panorama City","State":"CA","Zip":"91402"},{"Location":"L L TIRES AND WHEELS","Address":"14525 Nordhoff St","City":"Panorama City","State":"CA","Zip":"91402"},{"Location":"LA CITY FIRE DEPARTMENT","Address":"14355 Arminta St","City":"Panorama City","State":"CA","Zip":"91402"},{"Location":"LA CURACAO","Address":"8401 Van Nuys Blvd 63","City":"Panorama City","State":"CA","Zip":"91402"},{"Location":"LALAINE MABANSAG DDS","Address":"9063 Van Nuys Blvd","City":"Panorama City","State":"CA","Zip":"91402"},{"Location":"LATINO DENTAL GROUP","Address":"8111 Van Nuys Blvd 107","City":"Panorama City","State":"CA","Zip":"91402"},{"Location":"MANILA GOOD HA RESTAURANT","Address":"8205 Woodman Ave 101","City":"Panorama City","State":"CA","Zip":"91402"},{"Location":"MANUEL 2 PUPUSERIA","Address":"8204 Van Nuys Blvd","City":"Panorama City","State":"CA","Zip":"91402"},{"Location":"MARIA BONITA","Address":"14650 Parthenia St N9","City":"Panorama City","State":"CA","Zip":"91402"},{"Location":"MARISCOS  LA SIRENITA","Address":"9116 Van Nuys Blvd","City":"Panorama City","State":"CA","Zip":"91402"},{"Location":"MARISCOS GUADALAJARA","Address":"15319 Roscoe Blvd","City":"Panorama City","State":"CA","Zip":"91402"},{"Location":"METRO BALDERAS RESTAURANT","Address":"8520 Van Nuys Blvd","City":"Panorama City","State":"CA","Zip":"91402"},{"Location":"NAVARRO","Address":"14650 Parthenia St","City":"Panorama City","State":"CA","Zip":"91402"},{"Location":"NEIGHBORHOOD DENTAL","Address":"14417 Roscoe Blvd E","City":"Panorama City","State":"CA","Zip":"91402"},{"Location":"NOB HILL","Address":"8229 Van Nuys Blvd","City":"Panorama City","State":"CA","Zip":"91402"},{"Location":"OCEGUEDA","Address":"15045 Roscoe Blvd","City":"Panorama City","State":"CA","Zip":"91402"},{"Location":"PANORAMA COIN LAUNDRY","Address":"8126 Van Nuys Blvd A","City":"Panorama City","State":"CA","Zip":"91402"},{"Location":"PARAISO DEL MAR","Address":"13862 Chase St","City":"Panorama City","State":"CA","Zip":"91402"},{"Location":"PLAZA DEL VALLE","Address":"8610 Van Nuys Blvd","City":"Panorama City","State":"CA","Zip":"91402"},{"Location":"PULGARCITO QUERIDO","Address":"13864 Chase St","City":"Panorama City","State":"CA","Zip":"91402"},{"Location":"PULGARCITO QUERIDO","Address":"13864  Chase St","City":"Panorama City","State":"CA","Zip":"91402"},{"Location":"PULGARCITO QUERIDO","Address":"13864 1%2F2 Chase Street","City":"Panorama City","State":"CA","Zip":"91402"},{"Location":"RESTAURANTE LA HUERECITA","Address":"8610 Van Nuys Blvd","City":"Panorama City","State":"CA","Zip":"91402"},{"Location":"RIGHTWAY TIRES","Address":"14540 Van Nuys Blvd","City":"Panorama City","State":"CA","Zip":"91402"},{"Location":"RINCON TAURINO","Address":"14551 Nordhoff St","City":"Panorama City","State":"CA","Zip":"91402"},{"Location":"RINCON TAURINO","Address":"8708 Van Nuys Blvd","City":"Panorama City","State":"CA","Zip":"91402"},{"Location":"ROSES BEAUTY SALON","Address":"15331 Roscoe Blvd","City":"Panorama City","State":"CA","Zip":"91402"},{"Location":"SKIN CARE CLINIC","Address":"8250 Ventura Canyon Ave C","City":"Panorama City","State":"CA","Zip":"91402"},{"Location":"TELSCAPE","Address":"8401 Van Nuys Blvd 80","City":"Panorama City","State":"CA","Zip":"91402"},{"Location":"THAI ORIGINAL BBQ","Address":"8251 Woodman Ave","City":"Panorama City","State":"CA","Zip":"91402"},{"Location":"THE NEW ARISTOCRATE","Address":"13752 Roscoe Blvd","City":"Panorama City","State":"CA","Zip":"91402"},{"Location":"ULTIMATE GAMING CENTER","Address":"8551 Vesper Ave","City":"Panorama City","State":"CA","Zip":"91402"},{"Location":"UNIVERSAL FITNESS CLUB","Address":"8250 Van Nuys Blvd","City":"Panorama City","State":"CA","Zip":"91402"},{"Location":"USA DONUTS CROISSANTS","Address":"15321 Roscoe Blvd","City":"Panorama City","State":"CA","Zip":"91402"},{"Location":"V&M WASH","Address":"9501 Van Nuys Blvd 110","City":"Panorama City","State":"CA","Zip":"91402"},{"Location":"VALLEY ICE CENTER","Address":"8750 Van Nuys Blvd","City":"Panorama City","State":"CA","Zip":"91402"},{"Location":"VAN HAIR SALON","Address":"14447 Roscoe Blvd","City":"Panorama City","State":"CA","Zip":"91402"},{"Location":"VAN NUYES DENTAL","Address":"8227 Van Nuys Blvd","City":"Panorama City","State":"CA","Zip":"91402"},{"Location":"WINGSTOP","Address":"14508 Nordhoff St","City":"Panorama City","State":"CA","Zip":"91402"},{"Location":"YOLANDA HERRERO-LANDING DDS","Address":"8340 Van Nuys Blvd C","City":"Panorama City","State":"CA","Zip":"91402"},{"Location":"ZODAX","Address":"14040 Arminta St","City":"Panorama City","State":"CA","Zip":"91402"},{"Location":"DEEZ CUTS","Address":"15327 Roscoe Blvd","City":"Van Nuys","State":"CA","Zip":"91402"},{"Location":"IRONHEAD","Address":"7616 Ventura Canyon Ave","City":"Van Nuys","State":"CA","Zip":"91402"},{"Location":"VAN NUYS DENTALVILLE","Address":"7864 Van Nuys Blvd","City":"Van Nuys","State":"CA","Zip":"91402"}]