[{"Location":"1111 WILSHIRE","Address":"15301 Ventura Blvd 450","City":"Sherman Oaks","State":"CA","Zip":"91403"},{"Location":"16 BY 9 POST","Address":"15125 Ventura Blvd 200","City":"Sherman Oaks","State":"CA","Zip":"91403"},{"Location":"24 HOUR FITNESS #70","Address":"15301 Ventura Blvd","City":"Sherman Oaks","State":"CA","Zip":"91403"},{"Location":"AGORA REALTY AND MGMT INC","Address":"15206 Ventura Blvd 306","City":"Sherman Oaks","State":"CA","Zip":"91403"},{"Location":"ALIVE FITNESS LLC","Address":"14940 Ventura Blvd","City":"Sherman Oaks","State":"CA","Zip":"91403"},{"Location":"ALL SYSTEMS LAB","Address":"4955 Van Nuys Blvd 711","City":"Sherman Oaks","State":"CA","Zip":"91403"},{"Location":"APTHECARY","Address":"15372 Dickens St","City":"Sherman Oaks","State":"CA","Zip":"91403"},{"Location":"ATHENEA BAR & GRILL","Address":"14755 Ventura Blvd","City":"Sherman Oaks","State":"CA","Zip":"91403"},{"Location":"BAJA FRESH SHERMAN OAKS","Address":"14622 Ventura Blvd 120","City":"Sherman Oaks","State":"CA","Zip":"91403"},{"Location":"BARRYS BOOT CAMP","Address":"14622 Ventura Blvd 201","City":"Sherman Oaks","State":"CA","Zip":"91403"},{"Location":"BATTERS BOX","Address":"4558 Sherman Oaks Ave","City":"Sherman Oaks","State":"CA","Zip":"91403"},{"Location":"BEDLOO","Address":"14930 Ventura Blvd 340","City":"Sherman Oaks","State":"CA","Zip":"91403"},{"Location":"BLUE ICE","Address":"15165 Ventura Blvd 225","City":"Sherman Oaks","State":"CA","Zip":"91403"},{"Location":"BROT & GROSS%2C LLP","Address":"15260 Ventura Blvd 1500","City":"Sherman Oaks","State":"CA","Zip":"91403"},{"Location":"BUFFALO WILD WINGS #0457","Address":"15301 Ventura Blvd P16","City":"Sherman Oaks","State":"CA","Zip":"91403"},{"Location":"CALIFORNIA ITALIAN WATER ICE","Address":"4558 Sherman Oaks Ave","City":"Sherman Oaks","State":"CA","Zip":"91403"},{"Location":"CARLSON  & GREENBERG","Address":"15233 Ventura Blvd 1100","City":"Sherman Oaks","State":"CA","Zip":"91403"},{"Location":"CITY NATIONAL BANK","Address":"15260 Ventura Blvd 1600","City":"Sherman Oaks","State":"CA","Zip":"91403"},{"Location":"CUCINA BENE","Address":"4511 Sepulveda Blvd","City":"Sherman Oaks","State":"CA","Zip":"91403"},{"Location":"DEVRY UNIVERSITY","Address":"15301 Ventura Blvd D100","City":"Sherman Oaks","State":"CA","Zip":"91403"},{"Location":"DOCTOR BLUE JEANNS","Address":"4454 Van Nuys Blvd F","City":"Sherman Oaks","State":"CA","Zip":"91403"},{"Location":"DOUGHERTY DENTAL GROUP","Address":"4955 Van Nuys Blvd 606","City":"Sherman Oaks","State":"CA","Zip":"91403"},{"Location":"DR GREENSPAN ORPTHOPEDIC","Address":"4955 Van Nuys Blvd 704","City":"Sherman Oaks","State":"CA","Zip":"91403"},{"Location":"EBYLINE","Address":"15260 Ventura Blvd 800","City":"Sherman Oaks","State":"CA","Zip":"91403"},{"Location":"EL RANCHO RESTAURANT","Address":"15030 Ventura Blvd 24","City":"Sherman Oaks","State":"CA","Zip":"91403"},{"Location":"EL TORITO 7252","Address":"15301 Ventura Blvd P5","City":"Sherman Oaks","State":"CA","Zip":"91403"},{"Location":"FAZIO CLEANERS","Address":"14715 Ventura Blvd","City":"Sherman Oaks","State":"CA","Zip":"91403"},{"Location":"FISH DISH","Address":"14622 Ventura Blvd 103","City":"Sherman Oaks","State":"CA","Zip":"91403"},{"Location":"FLIGHT","Address":"14930 Ventura Blvd 300","City":"Sherman Oaks","State":"CA","Zip":"91403"},{"Location":"FORBIX CAPITAL CORP.","Address":"15260 Ventura Blvd 980","City":"Sherman Oaks","State":"CA","Zip":"91403"},{"Location":"FRANK MAGID ASSOCIATES","Address":"15260 Ventura Blvd 1840","City":"Sherman Oaks","State":"CA","Zip":"91403"},{"Location":"FUSION PHYSICAL THERAPY","Address":"5000 Van Nuys Blvd 110","City":"Sherman Oaks","State":"CA","Zip":"91403"},{"Location":"GEORGE SINANIS","Address":"15233 Ventura Blvd 230","City":"Sherman Oaks","State":"CA","Zip":"91403"},{"Location":"GGF LLP","Address":"15456 Ventura Blvd 500","City":"Sherman Oaks","State":"CA","Zip":"91403"},{"Location":"GOLD YAKI BUGER","Address":"4454 Van Nuys Blvd N","City":"Sherman Oaks","State":"CA","Zip":"91403"},{"Location":"GRANADA ENTERTAINMENT USA","Address":"15303 Ventura Blvd 800","City":"Sherman Oaks","State":"CA","Zip":"91403"},{"Location":"GREEN VILLAGE CHINESE CU","Address":"15466 Ventura Blvd","City":"Sherman Oaks","State":"CA","Zip":"91403"},{"Location":"GSKS MANAGEMENT","Address":"15260 Ventura Blvd 1040","City":"Sherman Oaks","State":"CA","Zip":"91403"},{"Location":"GUDVI SUSSMAN & OPPENHEIM INC","Address":"15260 Ventura Blvd 2100","City":"Sherman Oaks","State":"CA","Zip":"91403"},{"Location":"HAMBURGER HAMLET","Address":"4419 Van Nuys Blvd","City":"Sherman Oaks","State":"CA","Zip":"91403"},{"Location":"HANAMI SUSHI","Address":"4454 Van Nuys Blvd O","City":"Sherman Oaks","State":"CA","Zip":"91403"},{"Location":"HAND TO HAND INC","Address":"4419 Van Nuys Blvd","City":"Sherman Oaks","State":"CA","Zip":"91403"},{"Location":"HARMON & DIKIT","Address":"15456 Ventura Blvd 301","City":"Sherman Oaks","State":"CA","Zip":"91403"},{"Location":"HAROLD PERLAZA","Address":"4955 Van Nuys Blvd 202","City":"Sherman Oaks","State":"CA","Zip":"91403"},{"Location":"HOT WINGS CAFE 4","Address":"4609 Van Nuys Blvd","City":"Sherman Oaks","State":"CA","Zip":"91403"},{"Location":"HOUSE OF BILLIARDS","Address":"14662 Ventura Blvd","City":"Sherman Oaks","State":"CA","Zip":"91403"},{"Location":"HUNT CAPITAL PARTNERS","Address":"15260 Ventura Blvd 600","City":"Sherman Oaks","State":"CA","Zip":"91403"},{"Location":"ITV STUDIOS US GROUP","Address":"15303 Ventura Blvd C1100","City":"Sherman Oaks","State":"CA","Zip":"91403"},{"Location":"JJTFIRMLLC","Address":"15300 Ventura Blvd 404","City":"Sherman Oaks","State":"CA","Zip":"91403"},{"Location":"JOEYS LIST","Address":"15233 Ventura Blvd 7","City":"Sherman Oaks","State":"CA","Zip":"91403"},{"Location":"KANDOO FILMS","Address":"4515 Van Nuys Blvd","City":"Sherman Oaks","State":"CA","Zip":"91403"},{"Location":"KAUFMAN ROSENBERG AND COHEN","Address":"15300 Ventura Blvd 304","City":"Sherman Oaks","State":"CA","Zip":"91403"},{"Location":"KESSLER%2C SCHNEIDER & CO","Address":"15260 Ventura Blvd 1040","City":"Sherman Oaks","State":"CA","Zip":"91403"},{"Location":"KIDNEY CENTER SHERMAN OAKS","Address":"4995 Van Nuys Blvd 111","City":"Sherman Oaks","State":"CA","Zip":"91403"},{"Location":"LA ORTHOPEDIC INSTITUTE","Address":"4955 Van Nuys Blvd 615","City":"Sherman Oaks","State":"CA","Zip":"91403"},{"Location":"LAVI SPINE PEDIC","Address":"4849 Van Nuys Blvd 104","City":"Sherman Oaks","State":"CA","Zip":"91403"},{"Location":"LAW OFF MGDESYAN & TAHERIPOUR","Address":"15260 Ventura Blvd 2200","City":"Sherman Oaks","State":"CA","Zip":"91403"},{"Location":"LEE & ASSOCIATES","Address":"15250 Ventura Blvd 100","City":"Sherman Oaks","State":"CA","Zip":"91403"},{"Location":"LIBRARY LIQUIDITY CO","Address":"15300 Ventura Blvd 303","City":"Sherman Oaks","State":"CA","Zip":"91403"},{"Location":"LIFE MOTIVATIONS INC","Address":"14519 Ventura Blvd","City":"Sherman Oaks","State":"CA","Zip":"91403"},{"Location":"LINGOSPOT","Address":"15206 Ventura Blvd 209","City":"Sherman Oaks","State":"CA","Zip":"91403"},{"Location":"LOUIS BERMEO","Address":"15315 Magnolia Blvd 203","City":"Sherman Oaks","State":"CA","Zip":"91403"},{"Location":"LUCKY STRIKE ENTERTAINMENT","Address":"15260 Ventura Blvd 1110","City":"Sherman Oaks","State":"CA","Zip":"91403"},{"Location":"MACK AVENUE RECORDS","Address":"4565 Sherman Oaks Ave","City":"Sherman Oaks","State":"CA","Zip":"91403"},{"Location":"MAD BULL'S TAVERN","Address":"14649 Ventura Blvd","City":"Sherman Oaks","State":"CA","Zip":"91403"},{"Location":"MANNYS BARBER SHOP","Address":"14840 Magnolia Blvd","City":"Sherman Oaks","State":"CA","Zip":"91403"},{"Location":"MARIE CALENDERS RESTAURANT","Address":"14743 Ventura Blvd","City":"Sherman Oaks","State":"CA","Zip":"91403"},{"Location":"MARMALADE CAFE SHERMAN OAKS","Address":"14910 Ventura Blvd","City":"Sherman Oaks","State":"CA","Zip":"91403"},{"Location":"MASTER IMAGE","Address":"15260 Ventura Blvd 1220","City":"Sherman Oaks","State":"CA","Zip":"91403"},{"Location":"MELS DRIVE IN","Address":"14846 Ventura Blvd","City":"Sherman Oaks","State":"CA","Zip":"91403"},{"Location":"MID VALLEY PULIMONARY MEDICAL","Address":"4955 Van Nuys Blvd 502","City":"Sherman Oaks","State":"CA","Zip":"91403"},{"Location":"MOTION PICTURE ASSOCI OF AMERI","Address":"15301 Ventura Blvd E","City":"Sherman Oaks","State":"CA","Zip":"91403"},{"Location":"MSP PARTNERS","Address":"15136 Ventura Blvd","City":"Sherman Oaks","State":"CA","Zip":"91403"},{"Location":"MV GIBSON","Address":"15260 Ventura Blvd 2100","City":"Sherman Oaks","State":"CA","Zip":"91403"},{"Location":"NARVID SCOTT LLP","Address":"15165 Ventura Blvd 300","City":"Sherman Oaks","State":"CA","Zip":"91403"},{"Location":"NATIONWIDE SPORTS","Address":"4717 Van Nuys Blvd","City":"Sherman Oaks","State":"CA","Zip":"91403"},{"Location":"NEXT LEVEL TRAINING","Address":"4617 Van Nuys Blvd B","City":"Sherman Oaks","State":"CA","Zip":"91403"},{"Location":"NOODLE WORLD SHERMAN OAKS","Address":"4457 Van Nuys Bvld","City":"Sherman Oaks","State":"CA","Zip":"91403"},{"Location":"OLIVA ITALIAN GRILL","Address":"4449 Van Nuys Blvd","City":"Sherman Oaks","State":"CA","Zip":"91403"},{"Location":"ON THE THIRTY","Address":"14622 Ventura Blvd 112","City":"Sherman Oaks","State":"CA","Zip":"91403"},{"Location":"ONSET PRODUCTIONS","Address":"15260 Ventura Blvd 1130","City":"Sherman Oaks","State":"CA","Zip":"91403"},{"Location":"OSWALD B BURSTEIN DDS","Address":"14652 Ventura Blvd 200","City":"Sherman Oaks","State":"CA","Zip":"91403"},{"Location":"PEARSON SIMON WARSHAW & PENNY","Address":"15165 Ventura Blvd 400","City":"Sherman Oaks","State":"CA","Zip":"91403"},{"Location":"PF CHANG'S #9912","Address":"15301 Ventura Blvd","City":"Sherman Oaks","State":"CA","Zip":"91403"},{"Location":"PHILIP CONWISAR MD INC","Address":"4835 Van Nuys Blvd","City":"Sherman Oaks","State":"CA","Zip":"91403"},{"Location":"PICO PICA RICO RESTAURANT","Address":"14834 Magnolia Blvd","City":"Sherman Oaks","State":"CA","Zip":"91403"},{"Location":"PINEAPPLE HILL SALOON","Address":"4454 Van Nuys Blvd N","City":"Sherman Oaks","State":"CA","Zip":"91403"},{"Location":"PITA KITCHEN","Address":"14500 Ventura Blvd","City":"Sherman Oaks","State":"CA","Zip":"91403"},{"Location":"PREMIER BUSINESS CENTERS","Address":"15260 Ventura Blvd 1200","City":"Sherman Oaks","State":"CA","Zip":"91403"},{"Location":"PREMIERE RADIO NETWORKS LA #1","Address":"15260 Ventura Blvd 500","City":"Sherman Oaks","State":"CA","Zip":"91403"},{"Location":"PREMIERE RADIO NETWORKS LA #2","Address":"15260 Ventura Blvd 500","City":"Sherman Oaks","State":"CA","Zip":"91403"},{"Location":"PREMIERE RADIO NETWORKS LA #3","Address":"15260 Ventura Blvd 500","City":"Sherman Oaks","State":"CA","Zip":"91403"},{"Location":"PREMIERE RADIO NETWORKS LA #4","Address":"15260 Ventura Blvd 500","City":"Sherman Oaks","State":"CA","Zip":"91403"},{"Location":"PREMIERE RADIO NETWORKS LA #5","Address":"15260 Ventura Blvd 500","City":"Sherman Oaks","State":"CA","Zip":"91403"},{"Location":"PRIORITY SPORTS & ENTERT","Address":"15233 Ventura Blvd 7","City":"Sherman Oaks","State":"CA","Zip":"91403"},{"Location":"PUBLIC SCHOOL 818","Address":"15300 Ventura Blvd 102g","City":"Sherman Oaks","State":"CA","Zip":"91403"},{"Location":"PUCHICA BAR AND GRILL","Address":"4523 Sepulveda Blvd","City":"Sherman Oaks","State":"CA","Zip":"91403"},{"Location":"REM SLEEP LABS","Address":"4995 Van Nuys Blvd 417","City":"Sherman Oaks","State":"CA","Zip":"91403"},{"Location":"RENTRAK","Address":"5000 Van Nuys Blvd 460","City":"Sherman Oaks","State":"CA","Zip":"91403"},{"Location":"RICHARD DAVID ROGEN","Address":"15250 Ventura Blvd 400","City":"Sherman Oaks","State":"CA","Zip":"91403"},{"Location":"RICHARD FARKAS","Address":"15300 Ventura Blvd 504","City":"Sherman Oaks","State":"CA","Zip":"91403"},{"Location":"RICHARD SWATT DDS INC","Address":"4955 Van Nuys Blvd","City":"Sherman Oaks","State":"CA","Zip":"91403"},{"Location":"RIO COMPANY","Address":"15300 Ventura Blvd 500","City":"Sherman Oaks","State":"CA","Zip":"91403"},{"Location":"RIVE GAUCHE","Address":"15300 Ventura Blvd 507","City":"Sherman Oaks","State":"CA","Zip":"91403"},{"Location":"ROBBIE MAC'S PIZZA","Address":"14502 Ventura Blvd","City":"Sherman Oaks","State":"CA","Zip":"91403"},{"Location":"ROBERTSON TAYLOR","Address":"15260 Ventura Blvd 2230","City":"Sherman Oaks","State":"CA","Zip":"91403"},{"Location":"RODEO REALTY","Address":"15300 Ventura Blvd 500","City":"Sherman Oaks","State":"CA","Zip":"91403"},{"Location":"SAM LLP","Address":"15260 Ventura Blvd 2000","City":"Sherman Oaks","State":"CA","Zip":"91403"},{"Location":"SEGAL INSURENCE AGENCY INC","Address":"15250 Ventura Blvd 1200","City":"Sherman Oaks","State":"CA","Zip":"91403"},{"Location":"SERVICE TIRE COMPANY","Address":"4969 Van Nuys Blvd","City":"Sherman Oaks","State":"CA","Zip":"91403"},{"Location":"SHAYA ENTERPRISES","Address":"15260 Ventura Blvd 855","City":"Sherman Oaks","State":"CA","Zip":"91403"},{"Location":"SHERMAN OAKS MEDICAL","Address":"4911 Van Nuys Blvd Apc","City":"Sherman Oaks","State":"CA","Zip":"91403"},{"Location":"SILICON VALLEY BANK","Address":"15260 Ventura Blvd 980","City":"Sherman Oaks","State":"CA","Zip":"91403"},{"Location":"SMITH BARNEY 100565","Address":"15260 Ventura Blvd 1900","City":"Sherman Oaks","State":"CA","Zip":"91403"},{"Location":"SOLA SALONS","Address":"15125 Ventura Blvd","City":"Sherman Oaks","State":"CA","Zip":"91403"},{"Location":"SOLLEY'S SHERMAN OAKS","Address":"4578 Van Nuys Blvd","City":"Sherman Oaks","State":"CA","Zip":"91403"},{"Location":"STANLEY AND ASSOCIATE","Address":"15233 Ventura Blvd 15","City":"Sherman Oaks","State":"CA","Zip":"91403"},{"Location":"STEPHEN KUJALA","Address":"4709 Tobias Ave","City":"Sherman Oaks","State":"CA","Zip":"91403"},{"Location":"STEVES BIGGER SUBS","Address":"4533 Sepulveda Blvd","City":"Sherman Oaks","State":"CA","Zip":"91403"},{"Location":"STUNTS UNLIMITED","Address":"15233 Ventura Blvd 425","City":"Sherman Oaks","State":"CA","Zip":"91403"},{"Location":"SUSHI HOUSE OF TAKA","Address":"4627 Van Nuys Blvd","City":"Sherman Oaks","State":"CA","Zip":"91403"},{"Location":"TARGET ENTERPRISES","Address":"15260 Ventura Blvd 1240","City":"Sherman Oaks","State":"CA","Zip":"91403"},{"Location":"THE BARREL","Address":"4547 Van Nuys Blvd","City":"Sherman Oaks","State":"CA","Zip":"91403"},{"Location":"THE BLUE DOG","Address":"4524 Saugus Ave","City":"Sherman Oaks","State":"CA","Zip":"91403"},{"Location":"THE CARLYLE RESIDENCES","Address":"15031 Ventura Blvd 450","City":"Sherman Oaks","State":"CA","Zip":"91403"},{"Location":"THE CHEESECAKE FACTORY 0044","Address":"15301 Ventura Blvd P1","City":"Sherman Oaks","State":"CA","Zip":"91403"},{"Location":"THE CIGAR WAREHOUSE","Address":"15141 Ventura Blvd","City":"Sherman Oaks","State":"CA","Zip":"91403"},{"Location":"THE EMERSON","Address":"15301 Ventura Blvd 450","City":"Sherman Oaks","State":"CA","Zip":"91403"},{"Location":"THE WARREN WEALTH GROUP","Address":"15233 Ventura Blvd 2","City":"Sherman Oaks","State":"CA","Zip":"91403"},{"Location":"TIPSY COW","Address":"15005 Ventura Blvd","City":"Sherman Oaks","State":"CA","Zip":"91403"},{"Location":"TRANSFORMATION SALON","Address":"15226 Ventura Blvd","City":"Sherman Oaks","State":"CA","Zip":"91403"},{"Location":"TRITON MEDIA","Address":"15303 Ventura Blvd","City":"Sherman Oaks","State":"CA","Zip":"91403"},{"Location":"U.S. LEGAL SUPPORT","Address":"15250 Ventura Blvd 410","City":"Sherman Oaks","State":"CA","Zip":"91403"},{"Location":"UNION BANK INVESTMENT SERVICES","Address":"15233 Ventura Blvd 1","City":"Sherman Oaks","State":"CA","Zip":"91403"},{"Location":"VALLEY INN","Address":"4557 Sherman Oaks Ave","City":"Sherman Oaks","State":"CA","Zip":"91403"},{"Location":"VARGO PHYSICAL THERAPY","Address":"4955 Van Nuys Blvd 317","City":"Sherman Oaks","State":"CA","Zip":"91403"},{"Location":"VERMONT AVENUE FEE OWNER%2C LLC","Address":"15301 Ventura Blvd","City":"Sherman Oaks","State":"CA","Zip":"91403"},{"Location":"VILLA JULIETTA","Address":"4724 Kester Ave","City":"Sherman Oaks","State":"CA","Zip":"91403"},{"Location":"VISTA MODERN LLC GYM","Address":"4632 Vista Del Monte Ave","City":"Sherman Oaks","State":"CA","Zip":"91403"},{"Location":"WHOLE FOODS MARKET","Address":"4520 Sepulveda Blvd","City":"Sherman Oaks","State":"CA","Zip":"91403"},{"Location":"Z EXCLUSIVE SALON","Address":"14622 Ventura Blvd 108","City":"Sherman Oaks","State":"CA","Zip":"91403"},{"Location":"ZALEMARK","Address":"15260 Ventura Blvd 1200","City":"Sherman Oaks","State":"CA","Zip":"91403"},{"Location":"ZENITH FOOD ENTERPRISES","Address":"15301 Ventura Blvd","City":"Sherman Oaks","State":"CA","Zip":"91403"}]