[{"Location":"CENTER BMW","Address":"5201 Van Nuys Blvd","City":"Sherman Oaks","State":"CA","Zip":"91401"},{"Location":"HEART TO HEART HEALTH CA","Address":"13739 Chandler Blvd","City":"Sherman Oaks","State":"CA","Zip":"91401"},{"Location":"KEYS EUROPEAN","Address":"5400 Van Nuys Blvd","City":"Sherman Oaks","State":"CA","Zip":"91401"},{"Location":"MILLER HONDA","Address":"5355 Van Nuys Blvd","City":"Sherman Oaks","State":"CA","Zip":"91401"},{"Location":"NATS EARLY BITE","Address":"14115 Burbank Blvd","City":"Sherman Oaks","State":"CA","Zip":"91401"},{"Location":"SHARKYS WOODFIRE MEXICAN REST","Address":"13238 Burbank Blvd","City":"Sherman Oaks","State":"CA","Zip":"91401"},{"Location":"SMOKE CITY MARKET","Address":"5242 Van Nuys Blvd","City":"Sherman Oaks","State":"CA","Zip":"91401"},{"Location":"SUMO SUSHI","Address":"5254 Van Nuys Blvd","City":"Sherman Oaks","State":"CA","Zip":"91401"},{"Location":"THE HELP GROUP","Address":"13130 Burbank Blvd","City":"Sherman Oaks","State":"CA","Zip":"91401"},{"Location":"THE ROBIN HOOD - TRP","Address":"13640 Burbank Blvd","City":"Sherman Oaks","State":"CA","Zip":"91401"},{"Location":"BAR LOS OLIVOS","Address":"13608 Victory Blvd","City":"Van Nuys","State":"CA","Zip":"91401"},{"Location":"BARONE'S%2C INC.","Address":"13726 Oxnard St","City":"Van Nuys","State":"CA","Zip":"91401"},{"Location":"BELLA HAIR AND NAILS","Address":"13654 Victory Blvd C","City":"Van Nuys","State":"CA","Zip":"91401"},{"Location":"BERNARDO LONDONO","Address":"14449 Victory Blvd","City":"Van Nuys","State":"CA","Zip":"91401"},{"Location":"BRIDGE SOBER LIVING 2","Address":"6003 Sunnyslope Ave","City":"Van Nuys","State":"CA","Zip":"91401"},{"Location":"CARNICERIA DON JUAN","Address":"14103 Victory Blvd 1","City":"Van Nuys","State":"CA","Zip":"91401"},{"Location":"DISCOUNT MUFFLER CENTER","Address":"14412 Victory Blvd","City":"Van Nuys","State":"CA","Zip":"91401"},{"Location":"DREAM MACHINE ENGINEERIN","Address":"14418 Oxnard St","City":"Van Nuys","State":"CA","Zip":"91401"},{"Location":"EL NUEVO RINCONITO SALVADORE I","Address":"6429 Van Nuys Blvd","City":"Van Nuys","State":"CA","Zip":"91401"},{"Location":"ELBAR INVESTMENTS LP","Address":"5636 Van Nuys Blvd A","City":"Van Nuys","State":"CA","Zip":"91401"},{"Location":"ELIYAHU BENSIMON","Address":"6314 Van Nuys Blvd 213","City":"Van Nuys","State":"CA","Zip":"91401"},{"Location":"ELKS LODGE VAN NUYS","Address":"14440 Friar St","City":"Van Nuys","State":"CA","Zip":"91401"},{"Location":"FIRESTONE #011711","Address":"6530 Van Nuys Blvd","City":"Van Nuys","State":"CA","Zip":"91401"},{"Location":"GEORGES LIQUOR","Address":"14102 Oxnard St","City":"Van Nuys","State":"CA","Zip":"91401"},{"Location":"GREEN DENTAL AND ORTHODONTICS","Address":"14401 Burbank Blvd","City":"Van Nuys","State":"CA","Zip":"91401"},{"Location":"GREENFIELD PROPERTIES","Address":"6309 Van Nuys Blvd 110","City":"Van Nuys","State":"CA","Zip":"91401"},{"Location":"HUM SERVICES INC DBA A M","Address":"6219 Van Nuys Blvd","City":"Van Nuys","State":"CA","Zip":"91401"},{"Location":"ICELAND ICESKATING","Address":"14318 Calvert St","City":"Van Nuys","State":"CA","Zip":"91401"},{"Location":"IRELAND'S 32","Address":"13721 Burbank Blvd","City":"Van Nuys","State":"CA","Zip":"91401"},{"Location":"K K INTERNATIONAL PAWN SHOP","Address":"6329 Van Nuys Blvd","City":"Van Nuys","State":"CA","Zip":"91401"},{"Location":"KEYES CHEVROLET","Address":"5949 Van Nuys Blvd","City":"Van Nuys","State":"CA","Zip":"91401"},{"Location":"KEYES HYUNDAI","Address":"5746 Van Nuys Blvd","City":"Van Nuys","State":"CA","Zip":"91401"},{"Location":"KEYES LEXUS","Address":"5905 Van Nuys Blvd","City":"Van Nuys","State":"CA","Zip":"91401"},{"Location":"KEYES TOYOTA","Address":"5855 Van Nuys Blvd","City":"Van Nuys","State":"CA","Zip":"91401"},{"Location":"KIDDIES CREATIVE LEARNING","Address":"13242 Cictory Blvd","City":"Van Nuys","State":"CA","Zip":"91401"},{"Location":"LA FIRE STATION 39","Address":"14415 Sylvan St","City":"Van Nuys","State":"CA","Zip":"91401"},{"Location":"LA FITNESS #16","Address":"5300 Coldwater Canyon Ave","City":"Van Nuys","State":"CA","Zip":"91401"},{"Location":"LA SIRENITA","Address":"14032 Oxnard St","City":"Van Nuys","State":"CA","Zip":"91401"},{"Location":"LA VLY COLL SHERRIFS STATION2","Address":"5800 Fulton Ave","City":"Van Nuys","State":"CA","Zip":"91401"},{"Location":"LOS TRES HERMANOS 5","Address":"6269 Van Nuys Blvd","City":"Van Nuys","State":"CA","Zip":"91401"},{"Location":"MACCUPICCHU RESTAURANT","Address":"6465 Van Nuys Blvd","City":"Van Nuys","State":"CA","Zip":"91401"},{"Location":"MARISCOS LOS ARCOS","Address":"14038 1%2F2 Victory Blvd","City":"Van Nuys","State":"CA","Zip":"91401"},{"Location":"MARTHAS BAKERY","Address":"14103 Victory Blvd 9","City":"Van Nuys","State":"CA","Zip":"91401"},{"Location":"MAS PLASTICS","Address":"14229 Oxnard St","City":"Van Nuys","State":"CA","Zip":"91401"},{"Location":"METRO FOOD GALLERY","Address":"13321 Burbank Blvd 7","City":"Van Nuys","State":"CA","Zip":"91401"},{"Location":"NO FUSS ENTERPRISES INC","Address":"5940 Calhoun Ave","City":"Van Nuys","State":"CA","Zip":"91401"},{"Location":"OSCAR BEAUTY SALON","Address":"14442 Hamlin St","City":"Van Nuys","State":"CA","Zip":"91401"},{"Location":"PETROSIANTS","Address":"13701 Burbank Blvd","City":"Van Nuys","State":"CA","Zip":"91401"},{"Location":"PREMIER AUTO CREDIT","Address":"6502 Van Nuys Blvd","City":"Van Nuys","State":"CA","Zip":"91401"},{"Location":"PURO SABOR INC","Address":"6366 Van Nuys Blvd","City":"Van Nuys","State":"CA","Zip":"91401"},{"Location":"RED MOON","Address":"14350 Oxnard St","City":"Van Nuys","State":"CA","Zip":"91401"},{"Location":"ROMAN HOLIDAY HEALTH CLUB#2","Address":"14435 Victory Blvd","City":"Van Nuys","State":"CA","Zip":"91401"},{"Location":"SOHO","Address":"14248 Oxnard St","City":"Van Nuys","State":"CA","Zip":"91401"},{"Location":"TAKATIS RESTAURANT","Address":"6470 Van Nuys Blvd A","City":"Van Nuys","State":"CA","Zip":"91401"},{"Location":"TEQUILAS BAR & GRILL","Address":"13627 Victory Blvd","City":"Van Nuys","State":"CA","Zip":"91401"},{"Location":"THE AUTO GALLERY2","Address":"5711 Van Nuys Blvd","City":"Van Nuys","State":"CA","Zip":"91401"},{"Location":"THU NAIL FANTACY","Address":"13314 Victory Blvd","City":"Van Nuys","State":"CA","Zip":"91401"},{"Location":"TRITON MANAGEMENT SERVICES%2CLLC","Address":"6213 Van Nuys Blvd","City":"Van Nuys","State":"CA","Zip":"91401"},{"Location":"US DEPT OF STATE","Address":"6230 Van Nuys Blvd 2003","City":"Van Nuys","State":"CA","Zip":"91401"},{"Location":"US MARINE CORP","Address":"6230 Van Nuys Blvd 3005","City":"Van Nuys","State":"CA","Zip":"91401"},{"Location":"VAN NUYS CHRHSLER DODGE JEEP","Address":"6110 Van Nuys Blvd","City":"Van Nuys","State":"CA","Zip":"91401"},{"Location":"VAN NUYS FAMILY DENTAL GROUP","Address":"14100 Victory Blvd","City":"Van Nuys","State":"CA","Zip":"91401"},{"Location":"VAN NUYS MINI MALL","Address":"6363 Van Nuys Blvd 66","City":"Van Nuys","State":"CA","Zip":"91401"},{"Location":"VICTOR PALACIOS ATTORNEY","Address":"5605 Woodman Ave 210","City":"Van Nuys","State":"CA","Zip":"91401"},{"Location":"VICTORY PAWN SHOP","Address":"13306 Victory Blvd","City":"Van Nuys","State":"CA","Zip":"91401"},{"Location":"VOLKSWAGEN OF VANNUYS INC.","Address":"6115 Van Nuys Blvd","City":"Van Nuys","State":"CA","Zip":"91401"}]