[{"Location":"EL KATRACHO","Address":"14838 Burbank Blvd","City":"Sherman Oaks","State":"CA","Zip":"91411"},{"Location":"GOODNIGHT AND COMPANY","Address":"15035 Califa St","City":"Sherman Oaks","State":"CA","Zip":"91411"},{"Location":"LATFLY DESIGNS","Address":"14748 Burbank Blvd 113","City":"Sherman Oaks","State":"CA","Zip":"91411"},{"Location":"VELVET NAILS","Address":"14900 Burbank Blvd 104","City":"Sherman Oaks","State":"CA","Zip":"91411"},{"Location":"800LOANMART","Address":"5805 Sepulveda Blvd","City":"Van Nuys","State":"CA","Zip":"91411"},{"Location":"ART LIVE INC","Address":"5936 Kester Ave","City":"Van Nuys","State":"CA","Zip":"91411"},{"Location":"AUTO APPEARANCE SPECIALI","Address":"14550 Sylvan St A","City":"Van Nuys","State":"CA","Zip":"91411"},{"Location":"BENTRO ATHEA","Address":"14851 Victory Blvd H","City":"Van Nuys","State":"CA","Zip":"91411"},{"Location":"BONANZA CONCRETE INC","Address":"15115 Oxnard St","City":"Van Nuys","State":"CA","Zip":"91411"},{"Location":"BRIAN BROWN PROF CORP 2E","Address":"14545 Friar St 216","City":"Van Nuys","State":"CA","Zip":"91411"},{"Location":"BUNIM MURRAY PRODUCTIONS","Address":"5990 Sepulveda Blvd","City":"Van Nuys","State":"CA","Zip":"91411"},{"Location":"BUNIM-MURRAY PRODUCTIONS","Address":"6007 Sepulveda Blvd","City":"Van Nuys","State":"CA","Zip":"91411"},{"Location":"CAHUENGA CAREGIVERS INC","Address":"14901 Oxnard St","City":"Van Nuys","State":"CA","Zip":"91411"},{"Location":"CARLITOS WAY","Address":"15238 Victory Blvd","City":"Van Nuys","State":"CA","Zip":"91411"},{"Location":"COSTCO","Address":"6100 Sepulveda Boulevard","City":"Van Nuys","State":"CA","Zip":"91411"},{"Location":"EASTON SPORT DEV FOUNDATION","Address":"15026 Oxnard St","City":"Van Nuys","State":"CA","Zip":"91411"},{"Location":"EROS STATION","Address":"15164 Oxnard St","City":"Van Nuys","State":"CA","Zip":"91411"},{"Location":"FMC 70260000","Address":"14808 Oxnard St","City":"Van Nuys","State":"CA","Zip":"91411"},{"Location":"FRENCH ANTIQUE STORE","Address":"14806 Delano St 5","City":"Van Nuys","State":"CA","Zip":"91411"},{"Location":"FULLERTON  & HANNA ATTY","Address":"6311 Columus Av","City":"Van Nuys","State":"CA","Zip":"91411"},{"Location":"GABRIEL RUBANENKO MD","Address":"14557 Friar St B2","City":"Van Nuys","State":"CA","Zip":"91411"},{"Location":"GLOBAL TRENDING LLC","Address":"6164 Sepulveda Blvd","City":"Van Nuys","State":"CA","Zip":"91411"},{"Location":"HAMLIN CENTER","Address":"14515 Hamlin St 100","City":"Van Nuys","State":"CA","Zip":"91411"},{"Location":"JBS SERVICES","Address":"14663 Victory Blvd","City":"Van Nuys","State":"CA","Zip":"91411"},{"Location":"JV PARALEGAL SERVICES","Address":"14517 Victory Blvd 201","City":"Van Nuys","State":"CA","Zip":"91411"},{"Location":"KANDY KISS OF CALIFORNIA","Address":"14761 Califa St","City":"Van Nuys","State":"CA","Zip":"91411"},{"Location":"KAROLINA'S BEAUTY SALON","Address":"14517 Victory Blvd","City":"Van Nuys","State":"CA","Zip":"91411"},{"Location":"KETTER CONSTRUCTION","Address":"14541 Delano St","City":"Van Nuys","State":"CA","Zip":"91411"},{"Location":"LA FITNESS #85","Address":"6161 Sepulveda Blvd","City":"Van Nuys","State":"CA","Zip":"91411"},{"Location":"LA MASRICA RESTUARANT","Address":"14511 Victory Blvd","City":"Van Nuys","State":"CA","Zip":"91411"},{"Location":"LOLA'S CHICKEN 2","Address":"14851 Victory Blvd C","City":"Van Nuys","State":"CA","Zip":"91411"},{"Location":"MARISAS SALON","Address":"14505 Gilmore St","City":"Van Nuys","State":"CA","Zip":"91411"},{"Location":"MCKERNAN INSPECTIONS","Address":"6111 Kester Ave","City":"Van Nuys","State":"CA","Zip":"91411"},{"Location":"MCM-LA ENGINEERING","Address":"14545 Victory Blvd 418","City":"Van Nuys","State":"CA","Zip":"91411"},{"Location":"MILLER HONDA","Address":"5905 Sepulveda Blvd","City":"Van Nuys","State":"CA","Zip":"91411"},{"Location":"NAPOLIS PIZZA","Address":"14831 Burbank Blvd","City":"Van Nuys","State":"CA","Zip":"91411"},{"Location":"NETWORK DIRECT INC","Address":"14530 Delano St","City":"Van Nuys","State":"CA","Zip":"91411"},{"Location":"NOEL","Address":"14812 Calvert St","City":"Van Nuys","State":"CA","Zip":"91411"},{"Location":"ORCHARD SUPPLY HARDWARE","Address":"5960 Sepulveda Blvd","City":"Van Nuys","State":"CA","Zip":"91411"},{"Location":"PHO 999 RESTAURANT","Address":"6411 Sepulveda Blvd 1k","City":"Van Nuys","State":"CA","Zip":"91411"},{"Location":"REGENT CARPET CARE","Address":"14807 Aetna St","City":"Van Nuys","State":"CA","Zip":"91411"},{"Location":"SHOWCASE","Address":"14813 1%2F4 Oxnard St","City":"Van Nuys","State":"CA","Zip":"91411"},{"Location":"SOLEIL INVESTMENTS","Address":"14545 Victory Blvd 326","City":"Van Nuys","State":"CA","Zip":"91411"},{"Location":"SPEARMINT RHINO","Address":"15004 Oxnard St","City":"Van Nuys","State":"CA","Zip":"91411"},{"Location":"SPINE AND ORTHOPEDIC","Address":"6326 Vesper Ave","City":"Van Nuys","State":"CA","Zip":"91411"},{"Location":"SSBDM","Address":"15223 Burbank Blvd","City":"Van Nuys","State":"CA","Zip":"91411"},{"Location":"STAGE 1 ON LEMONA","Address":"5920 Lemona Ave","City":"Van Nuys","State":"CA","Zip":"91411"},{"Location":"SUPERIOR MOLDING","Address":"5953 Sepulveda Blvd","City":"Van Nuys","State":"CA","Zip":"91411"},{"Location":"TARGET","Address":"5711 Sepulveda Blvd 1307","City":"Van Nuys","State":"CA","Zip":"91411"},{"Location":"THE CHEROKEE GROUP","Address":"5990 Sepulveda Blvd 600","City":"Van Nuys","State":"CA","Zip":"91411"},{"Location":"THORO","Address":"14835 Bessemer St","City":"Van Nuys","State":"CA","Zip":"91411"},{"Location":"VALLEY MOTOR CENTER","Address":"14950 Oxnard St","City":"Van Nuys","State":"CA","Zip":"91411"},{"Location":"VALLEY MOTOR CENTER","Address":"14954 Oxnard St","City":"Van Nuys","State":"CA","Zip":"91411"},{"Location":"VALLEYCUTS","Address":"6265 Sepulveda Blvd 5","City":"Van Nuys","State":"CA","Zip":"91411"},{"Location":"VAN NUYS JUVENILE PROBAT","Address":"14540 Haynes St","City":"Van Nuys","State":"CA","Zip":"91411"},{"Location":"VAN NUYS MARBLE","Address":"6160 Sepulveda Blvd","City":"Van Nuys","State":"CA","Zip":"91411"},{"Location":"VICTORIA MEDICAL CLINIC","Address":"14614 Victory Blvd","City":"Van Nuys","State":"CA","Zip":"91411"},{"Location":"WINGSTOP VAN NUYS","Address":"6734 Sepulvda Blvd","City":"Van Nuys","State":"CA","Zip":"91411"}]