[{"Location":"ADVANCE COLOR DESIGN","Address":"13542 Ventura Blvd","City":"Sherman Oaks","State":"CA","Zip":"91423"},{"Location":"ANTONIOS PIZZA","Address":"13619 Ventura Blvd","City":"Sherman Oaks","State":"CA","Zip":"91423"},{"Location":"APEX INTERNATIONAL TRANS","Address":"4625 Woodman Ave","City":"Sherman Oaks","State":"CA","Zip":"91423"},{"Location":"ARCHIES OF HOLLYWOOD","Address":"13714 Ventura Blvd 1%2F2","City":"Sherman Oaks","State":"CA","Zip":"91423"},{"Location":"ARY INC","Address":"13849 Ventura Blvd","City":"Sherman Oaks","State":"CA","Zip":"91423"},{"Location":"BIG DEAL MUSIC","Address":"14260 Ventura Blvd 201","City":"Sherman Oaks","State":"CA","Zip":"91423"},{"Location":"BNG ACCOUNTANCY CORP","Address":"14011 Ventura Blvd 502","City":"Sherman Oaks","State":"CA","Zip":"91423"},{"Location":"BODY USA","Address":"14340 Ventura Blvd","City":"Sherman Oaks","State":"CA","Zip":"91423"},{"Location":"BONEYARD BISTRO","Address":"13539 Ventura Blvd","City":"Sherman Oaks","State":"CA","Zip":"91423"},{"Location":"C MARSHALL RELATIONS","Address":"4730 Woodman Ave 304","City":"Sherman Oaks","State":"CA","Zip":"91423"},{"Location":"CACTUS","Address":"4378 Woodman Ave","City":"Sherman Oaks","State":"CA","Zip":"91423"},{"Location":"CAFE CORDIALE","Address":"14015 Ventura Blvd","City":"Sherman Oaks","State":"CA","Zip":"91423"},{"Location":"CERTIFIED COLLITION CRAF","Address":"4330 Woodman Ave","City":"Sherman Oaks","State":"CA","Zip":"91423"},{"Location":"CHILDREN MENDING HEART","Address":"13741 Ventura Blvd","City":"Sherman Oaks","State":"CA","Zip":"91423"},{"Location":"CHIMNEY SWEEP LOUNGE","Address":"4354 Woodman Ave","City":"Sherman Oaks","State":"CA","Zip":"91423"},{"Location":"CHOICE HOME CARE","Address":"14101 Valleyheart Dr 200","City":"Sherman Oaks","State":"CA","Zip":"91423"},{"Location":"COZYS BAR AND GRILL","Address":"14058 Ventura Blvd","City":"Sherman Oaks","State":"CA","Zip":"91423"},{"Location":"CREDITORS ADJUSTMENT BUREAU","Address":"14226 Ventura Blvd","City":"Sherman Oaks","State":"CA","Zip":"91423"},{"Location":"CURTIS PLUMBING","Address":"13446 Ventura Blvd","City":"Sherman Oaks","State":"CA","Zip":"91423"},{"Location":"DAYDREAMS SALON","Address":"14433 Magnolia Blvd","City":"Sherman Oaks","State":"CA","Zip":"91423"},{"Location":"DEJ","Address":"13448 Ventura Blvd","City":"Sherman Oaks","State":"CA","Zip":"91423"},{"Location":"DR TOTH","Address":"13367 Ventura Blvd","City":"Sherman Oaks","State":"CA","Zip":"91423"},{"Location":"EDITH HUGO","Address":"13625 Ventura Blvd","City":"Sherman Oaks","State":"CA","Zip":"91423"},{"Location":"EL TORITO 7074","Address":"14433 1%2F2 Ventura Blvd","City":"Sherman Oaks","State":"CA","Zip":"91423"},{"Location":"FASHION SQUARE CARWASH","Address":"4625 Woodman Ave","City":"Sherman Oaks","State":"CA","Zip":"91423"},{"Location":"FLY ON THE WALL","Address":"12925 Riverside Dr 4flr","City":"Sherman Oaks","State":"CA","Zip":"91423"},{"Location":"FLYNET PICTURES","Address":"13750 Ventura Blvd 206","City":"Sherman Oaks","State":"CA","Zip":"91423"},{"Location":"FOOT INSPIRATION PARTNERSHIP","Address":"14324 Ventura Blvd","City":"Sherman Oaks","State":"CA","Zip":"91423"},{"Location":"GARDEN CITY MUSIC","Address":"13245 Riverside Dr 305","City":"Sherman Oaks","State":"CA","Zip":"91423"},{"Location":"GOODYEAR 8635","Address":"14210 Ventura Blvd","City":"Sherman Oaks","State":"CA","Zip":"91423"},{"Location":"GRB ENTERTAINMENT","Address":"13400 Riverside Dr 300","City":"Sherman Oaks","State":"CA","Zip":"91423"},{"Location":"GUYU KAKU","Address":"14457 Ventura Blvd","City":"Sherman Oaks","State":"CA","Zip":"91423"},{"Location":"HEARST DIGITAL STUDIOS","Address":"13545 Ventura Blvd","City":"Sherman Oaks","State":"CA","Zip":"91423"},{"Location":"ISLANDS RESTAURANT #065","Address":"14141 Ventura Blvd 2","City":"Sherman Oaks","State":"CA","Zip":"91423"},{"Location":"IZAKAYA M","Address":"13573 Ventura Blvd","City":"Sherman Oaks","State":"CA","Zip":"91423"},{"Location":"JASMINE CLEANERS","Address":"4362 Woodman Ave","City":"Sherman Oaks","State":"CA","Zip":"91423"},{"Location":"LAURIES FLASH FRAMERS","Address":"14000 Ventura Blvd","City":"Sherman Oaks","State":"CA","Zip":"91423"},{"Location":"MACY'S WEST 501","Address":"14000 Riverside Dr","City":"Sherman Oaks","State":"CA","Zip":"91423"},{"Location":"MAKE IT HAPPEN PRODUCTION","Address":"13557 Ventura Blvd","City":"Sherman Oaks","State":"CA","Zip":"91423"},{"Location":"MAZZARINA SUBS","Address":"12924 Riverside Dr","City":"Sherman Oaks","State":"CA","Zip":"91423"},{"Location":"MD ORTHOPEDICS INC 1","Address":"13833 Ventura Blvd","City":"Sherman Oaks","State":"CA","Zip":"91423"},{"Location":"MICHAELS CUSTOM CLOTHES","Address":"13757 Ventura Blvd","City":"Sherman Oaks","State":"CA","Zip":"91423"},{"Location":"MIDORI SUSHI","Address":"13905 Centura Blvd","City":"Sherman Oaks","State":"CA","Zip":"91423"},{"Location":"NATAS PASTRIES","Address":"13317 Ventura Blvd D","City":"Sherman Oaks","State":"CA","Zip":"91423"},{"Location":"NEWMANAARONSONVANAMAN","Address":"14001 Ventura Blvd","City":"Sherman Oaks","State":"CA","Zip":"91423"},{"Location":"PAUL MARK SALON","Address":"4345 Woodman Ave","City":"Sherman Oaks","State":"CA","Zip":"91423"},{"Location":"PRAW HAROLD INS SVCS","Address":"14011 Ventura Blvd 215w","City":"Sherman Oaks","State":"CA","Zip":"91423"},{"Location":"PREMIER HEALTHCARE","Address":"13949 Ventura Blvd","City":"Sherman Oaks","State":"CA","Zip":"91423"},{"Location":"PTD BUSINESS MANAGEMENT","Address":"13801 Ventura Blvd","City":"Sherman Oaks","State":"CA","Zip":"91423"},{"Location":"REFINERY","Address":"14455 Ventura Blvd","City":"Sherman Oaks","State":"CA","Zip":"91423"},{"Location":"SANTINOS PIZZA","Address":"4319 Woodman Ave","City":"Sherman Oaks","State":"CA","Zip":"91423"},{"Location":"SHERMAN OAKS CIGAR AND TOBACCO","Address":"14445 Ventura Blvd","City":"Sherman Oaks","State":"CA","Zip":"91423"},{"Location":"SHERMAN OAKS POSTAL","Address":"14444 Magnolia Blvd","City":"Sherman Oaks","State":"CA","Zip":"91423"},{"Location":"SILVER LIQUOR","Address":"4405 Woodman Ave","City":"Sherman Oaks","State":"CA","Zip":"91423"},{"Location":"SLAPPY STUDIO","Address":"13437 Ventura Blvd 216","City":"Sherman Oaks","State":"CA","Zip":"91423"},{"Location":"SPORTS AUTHORITY 652","Address":"13730 Riverside Dr","City":"Sherman Oaks","State":"CA","Zip":"91423"},{"Location":"STEVEN   DRELL","Address":"13320 Riverside Dr 100","City":"Sherman Oaks","State":"CA","Zip":"91423"},{"Location":"STIR","Address":"13359 Ventura Blvd","City":"Sherman Oaks","State":"CA","Zip":"91423"},{"Location":"SUNERGY SOLAR INC","Address":"14429 Ventura Blvd 101","City":"Sherman Oaks","State":"CA","Zip":"91423"},{"Location":"SUNSET HEALTH PRODUCTS","Address":"13245 Riverside Dr 330","City":"Sherman Oaks","State":"CA","Zip":"91423"},{"Location":"THE GREAT GREEK","Address":"13362 Ventura Blvd","City":"Sherman Oaks","State":"CA","Zip":"91423"},{"Location":"THE OAKS TAVERN","Address":"13625 Moorpark St","City":"Sherman Oaks","State":"CA","Zip":"91423"},{"Location":"THE TANGO ROOM","Address":"4346 Woodman Ave","City":"Sherman Oaks","State":"CA","Zip":"91423"},{"Location":"THE WOODMAN","Address":"13615 Ventura Blvd","City":"Sherman Oaks","State":"CA","Zip":"91423"},{"Location":"THE WOODMAN PHYSCIC","Address":"4738 Woodman Ave","City":"Sherman Oaks","State":"CA","Zip":"91423"},{"Location":"U.S. NAILS","Address":"13911 Ventura Blvd","City":"Sherman Oaks","State":"CA","Zip":"91423"},{"Location":"UNIVERSAL LIFE FORCE INC","Address":"14101 Valleyheart Dr 100","City":"Sherman Oaks","State":"CA","Zip":"91423"},{"Location":"WESTFIELD  FASHION SQUARE","Address":"14006 Riverside Dr 17","City":"Sherman Oaks","State":"CA","Zip":"91423"},{"Location":"WHOLE FOODS MARKET","Address":"12905 Riverside Dr","City":"Sherman Oaks","State":"CA","Zip":"91423"},{"Location":"WOODBRIDGE INVESTMENTS","Address":"14225 Ventura Blvd 100","City":"Sherman Oaks","State":"CA","Zip":"91423"},{"Location":"ADVANCE COLOR DESIGN","Address":"13542 Ventura Blvd","City":"Sherman Oaks","State":"CA","Zip":"91423"},{"Location":"ANTONIOS PIZZA","Address":"13619 Ventura Blvd","City":"Sherman Oaks","State":"CA","Zip":"91423"},{"Location":"APEX INTERNATIONAL TRANS","Address":"4625 Woodman Ave","City":"Sherman Oaks","State":"CA","Zip":"91423"},{"Location":"ARCHIES OF HOLLYWOOD","Address":"13714 Ventura Blvd 1%2F2","City":"Sherman Oaks","State":"CA","Zip":"91423"},{"Location":"ARY INC","Address":"13849 Ventura Blvd","City":"Sherman Oaks","State":"CA","Zip":"91423"},{"Location":"BIG DEAL MUSIC","Address":"14260 Ventura Blvd 201","City":"Sherman Oaks","State":"CA","Zip":"91423"},{"Location":"BNG ACCOUNTANCY CORP","Address":"14011 Ventura Blvd 502","City":"Sherman Oaks","State":"CA","Zip":"91423"},{"Location":"BODY USA","Address":"14340 Ventura Blvd","City":"Sherman Oaks","State":"CA","Zip":"91423"},{"Location":"BONEYARD BISTRO","Address":"13539 Ventura Blvd","City":"Sherman Oaks","State":"CA","Zip":"91423"},{"Location":"C MARSHALL RELATIONS","Address":"4730 Woodman Ave 304","City":"Sherman Oaks","State":"CA","Zip":"91423"},{"Location":"CACTUS","Address":"4378 Woodman Ave","City":"Sherman Oaks","State":"CA","Zip":"91423"},{"Location":"CAFE CORDIALE","Address":"14015 Ventura Blvd","City":"Sherman Oaks","State":"CA","Zip":"91423"},{"Location":"CERTIFIED COLLITION CRAF","Address":"4330 Woodman Ave","City":"Sherman Oaks","State":"CA","Zip":"91423"},{"Location":"CHILDREN MENDING HEART","Address":"13741 Ventura Blvd","City":"Sherman Oaks","State":"CA","Zip":"91423"},{"Location":"CHIMNEY SWEEP LOUNGE","Address":"4354 Woodman Ave","City":"Sherman Oaks","State":"CA","Zip":"91423"},{"Location":"CHOICE HOME CARE","Address":"14101 Valleyheart Dr 200","City":"Sherman Oaks","State":"CA","Zip":"91423"},{"Location":"COZYS BAR AND GRILL","Address":"14058 Ventura Blvd","City":"Sherman Oaks","State":"CA","Zip":"91423"},{"Location":"CREDITORS ADJUSTMENT BUREAU","Address":"14226 Ventura Blvd","City":"Sherman Oaks","State":"CA","Zip":"91423"},{"Location":"CURTIS PLUMBING","Address":"13446 Ventura Blvd","City":"Sherman Oaks","State":"CA","Zip":"91423"},{"Location":"DAYDREAMS SALON","Address":"14433 Magnolia Blvd","City":"Sherman Oaks","State":"CA","Zip":"91423"},{"Location":"DEJ","Address":"13448 Ventura Blvd","City":"Sherman Oaks","State":"CA","Zip":"91423"},{"Location":"DR TOTH","Address":"13367 Ventura Blvd","City":"Sherman Oaks","State":"CA","Zip":"91423"},{"Location":"EDITH HUGO","Address":"13625 Ventura Blvd","City":"Sherman Oaks","State":"CA","Zip":"91423"},{"Location":"EL TORITO 7074","Address":"14433 1%2F2 Ventura Blvd","City":"Sherman Oaks","State":"CA","Zip":"91423"},{"Location":"FASHION SQUARE CARWASH","Address":"4625 Woodman Ave","City":"Sherman Oaks","State":"CA","Zip":"91423"},{"Location":"FLY ON THE WALL","Address":"12925 Riverside Dr 4flr","City":"Sherman Oaks","State":"CA","Zip":"91423"},{"Location":"FLYNET PICTURES","Address":"13750 Ventura Blvd 206","City":"Sherman Oaks","State":"CA","Zip":"91423"},{"Location":"FOOT INSPIRATION PARTNERSHIP","Address":"14324 Ventura Blvd","City":"Sherman Oaks","State":"CA","Zip":"91423"},{"Location":"GARDEN CITY MUSIC","Address":"13245 Riverside Dr 305","City":"Sherman Oaks","State":"CA","Zip":"91423"},{"Location":"GOODYEAR 8635","Address":"14210 Ventura Blvd","City":"Sherman Oaks","State":"CA","Zip":"91423"},{"Location":"GRB ENTERTAINMENT","Address":"13400 Riverside Dr 300","City":"Sherman Oaks","State":"CA","Zip":"91423"},{"Location":"GUYU KAKU","Address":"14457 Ventura Blvd","City":"Sherman Oaks","State":"CA","Zip":"91423"},{"Location":"HEARST DIGITAL STUDIOS","Address":"13545 Ventura Blvd","City":"Sherman Oaks","State":"CA","Zip":"91423"},{"Location":"ISLANDS RESTAURANT #065","Address":"14141 Ventura Blvd 2","City":"Sherman Oaks","State":"CA","Zip":"91423"},{"Location":"IZAKAYA M","Address":"13573 Ventura Blvd","City":"Sherman Oaks","State":"CA","Zip":"91423"},{"Location":"JASMINE CLEANERS","Address":"4362 Woodman Ave","City":"Sherman Oaks","State":"CA","Zip":"91423"},{"Location":"LAURIES FLASH FRAMERS","Address":"14000 Ventura Blvd","City":"Sherman Oaks","State":"CA","Zip":"91423"},{"Location":"MACY'S WEST 501","Address":"14000 Riverside Dr","City":"Sherman Oaks","State":"CA","Zip":"91423"},{"Location":"MAKE IT HAPPEN PRODUCTION","Address":"13557 Ventura Blvd","City":"Sherman Oaks","State":"CA","Zip":"91423"},{"Location":"MAZZARINA SUBS","Address":"12924 Riverside Dr","City":"Sherman Oaks","State":"CA","Zip":"91423"},{"Location":"MD ORTHOPEDICS INC 1","Address":"13833 Ventura Blvd","City":"Sherman Oaks","State":"CA","Zip":"91423"},{"Location":"MICHAELS CUSTOM CLOTHES","Address":"13757 Ventura Blvd","City":"Sherman Oaks","State":"CA","Zip":"91423"},{"Location":"MIDORI SUSHI","Address":"13905 Centura Blvd","City":"Sherman Oaks","State":"CA","Zip":"91423"},{"Location":"NATAS PASTRIES","Address":"13317 Ventura Blvd D","City":"Sherman Oaks","State":"CA","Zip":"91423"},{"Location":"NEWMANAARONSONVANAMAN","Address":"14001 Ventura Blvd","City":"Sherman Oaks","State":"CA","Zip":"91423"},{"Location":"PAUL MARK SALON","Address":"4345 Woodman Ave","City":"Sherman Oaks","State":"CA","Zip":"91423"},{"Location":"POWER & TWERSKY","Address":"13801 Ventura Blvd","City":"Sherman Oaks","State":"CA","Zip":"91423"},{"Location":"PRAW HAROLD INS SVCS","Address":"14011 Ventura Blvd 215w","City":"Sherman Oaks","State":"CA","Zip":"91423"},{"Location":"PREMIER HEALTHCARE","Address":"13949 Ventura Blvd","City":"Sherman Oaks","State":"CA","Zip":"91423"},{"Location":"REFINERY","Address":"14455 Ventura Blvd","City":"Sherman Oaks","State":"CA","Zip":"91423"},{"Location":"SANTINOS PIZZA","Address":"4319 Woodman Ave","City":"Sherman Oaks","State":"CA","Zip":"91423"},{"Location":"SHERMAN OAKS CIGAR AND TOBACCO","Address":"14445 Ventura Blvd","City":"Sherman Oaks","State":"CA","Zip":"91423"},{"Location":"SHERMAN OAKS POSTAL","Address":"14444 Magnolia Blvd","City":"Sherman Oaks","State":"CA","Zip":"91423"},{"Location":"SILVER LIQUOR","Address":"4405 Woodman Ave","City":"Sherman Oaks","State":"CA","Zip":"91423"},{"Location":"SLAPPY STUDIO","Address":"13437 Ventura Blvd 216","City":"Sherman Oaks","State":"CA","Zip":"91423"},{"Location":"SPORTS AUTHORITY 652","Address":"13730 Riverside Dr","City":"Sherman Oaks","State":"CA","Zip":"91423"},{"Location":"STEVEN   DRELL","Address":"13320 Riverside Dr 100","City":"Sherman Oaks","State":"CA","Zip":"91423"},{"Location":"STIR","Address":"13359 Ventura Blvd","City":"Sherman Oaks","State":"CA","Zip":"91423"},{"Location":"SUNERGY SOLAR INC","Address":"14429 Ventura Blvd 101","City":"Sherman Oaks","State":"CA","Zip":"91423"},{"Location":"SUNSET HEALTH PRODUCTS","Address":"13245 Riverside Dr 330","City":"Sherman Oaks","State":"CA","Zip":"91423"},{"Location":"THE GREAT GREEK","Address":"13362 Ventura Blvd","City":"Sherman Oaks","State":"CA","Zip":"91423"},{"Location":"THE OAKS TAVERN","Address":"13625 Moorpark St","City":"Sherman Oaks","State":"CA","Zip":"91423"},{"Location":"THE TANGO ROOM","Address":"4346 Woodman Ave","City":"Sherman Oaks","State":"CA","Zip":"91423"},{"Location":"THE WOODMAN","Address":"13615 Ventura Blvd","City":"Sherman Oaks","State":"CA","Zip":"91423"},{"Location":"THE WOODMAN PHYSCIC","Address":"4738 Woodman Ave","City":"Sherman Oaks","State":"CA","Zip":"91423"},{"Location":"U.S. NAILS","Address":"13911 Ventura Blvd","City":"Sherman Oaks","State":"CA","Zip":"91423"},{"Location":"UNIVERSAL LIFE FORCE INC","Address":"14101 Valleyheart Dr 100","City":"Sherman Oaks","State":"CA","Zip":"91423"},{"Location":"WESTFIELD  FASHION SQUARE","Address":"14006 Riverside Dr 17","City":"Sherman Oaks","State":"CA","Zip":"91423"},{"Location":"WHOLE FOODS MARKET","Address":"12905 Riverside Dr","City":"Sherman Oaks","State":"CA","Zip":"91423"},{"Location":"WOODBRIDGE INVESTMENTS","Address":"14225 Ventura Blvd 100","City":"Sherman Oaks","State":"CA","Zip":"91423"}]