[{"Location":"AAA TLC HEALTH CARE INC","Address":"16133 Ventura Blvd 900","City":"Encino","State":"CA","Zip":"91436"},{"Location":"ACRC","Address":"16200 Ventura Blvd 201","City":"Encino","State":"CA","Zip":"91436"},{"Location":"AMECI PIZZA KITCHEN","Address":"15615 Ventura Blvd","City":"Encino","State":"CA","Zip":"91436"},{"Location":"AMERICAN PROPERTY ADVISORS","Address":"16311 Ventura Blvd 1200","City":"Encino","State":"CA","Zip":"91436"},{"Location":"ANDREW FLIER  INC","Address":"16133 Ventura Blvd 560","City":"Encino","State":"CA","Zip":"91436"},{"Location":"ASYLUM ENTERTAINMENT","Address":"15503 Ventura Blvd 240","City":"Encino","State":"CA","Zip":"91436"},{"Location":"BARRISTER EXECUTIVE SUIT","Address":"16133 Ventura Blvd 7thf","City":"Encino","State":"CA","Zip":"91436"},{"Location":"BENIHANA #1001 ENCINO","Address":"16226 Ventura Blvd","City":"Encino","State":"CA","Zip":"91436"},{"Location":"BLAZER MEDIA","Address":"16501 Ventura Blvd 504","City":"Encino","State":"CA","Zip":"91436"},{"Location":"BOARDWALK BURGERS","Address":"15826 Ventura Blvd 116","City":"Encino","State":"CA","Zip":"91436"},{"Location":"BOVITZ RESEARCH GROUP","Address":"16133 Ventura Blvd 820","City":"Encino","State":"CA","Zip":"91436"},{"Location":"BULL INTEGRATED MARKETING","Address":"16130 Ventura Blvd 400","City":"Encino","State":"CA","Zip":"91436"},{"Location":"CALIFORNIA INSTITUTE","Address":"16030 Ventura Blvd 605","City":"Encino","State":"CA","Zip":"91436"},{"Location":"COMMONWEALTH FOREIGN EX","Address":"16133 Ventura Blvd","City":"Encino","State":"CA","Zip":"91436"},{"Location":"COSGROVE MALCOM MD","Address":"16311 Ventura Blvd","City":"Encino","State":"CA","Zip":"91436"},{"Location":"CROWELL WEEDON & CO%2C","Address":"16130 Ventura Blvd 460","City":"Encino","State":"CA","Zip":"91436"},{"Location":"DAVID WEISE & ASSOCIATES","Address":"16000 Ventura Blvd","City":"Encino","State":"CA","Zip":"91436"},{"Location":"DROSMAN DENTAL","Address":"16500 Ventura Blvd A205","City":"Encino","State":"CA","Zip":"91436"},{"Location":"E-POLL MARKET RESEARCH","Address":"16133 Ventura Blvd 905","City":"Encino","State":"CA","Zip":"91436"},{"Location":"EL MARIACHI","Address":"15627 Ventura Blvd","City":"Encino","State":"CA","Zip":"91436"},{"Location":"ELEPHANT HUT THAI CUISINE","Address":"16616 Ventura Blvd","City":"Encino","State":"CA","Zip":"91436"},{"Location":"EMERALD EYE CENTER","Address":"16260 Ventura Blvd 711","City":"Encino","State":"CA","Zip":"91436"},{"Location":"EMILIO'S TRATTORIA","Address":"16234 Ventura Blvd","City":"Encino","State":"CA","Zip":"91436"},{"Location":"ENCINO CAR WASH","Address":"16300 Ventura Blvd","City":"Encino","State":"CA","Zip":"91436"},{"Location":"ENCINO DERMATOLOGY","Address":"16260 Ventura Blvd 140","City":"Encino","State":"CA","Zip":"91436"},{"Location":"ENCINO LITTLE LEAGUE","Address":"5120 Hayvenhurst Ave","City":"Encino","State":"CA","Zip":"91436"},{"Location":"EQUINOX FITNESS ENCINO","Address":"16830 Ventura Blvd","City":"Encino","State":"CA","Zip":"91436"},{"Location":"EQUINOX FITNESS ENCINO 2","Address":"16830 Ventura Blvd","City":"Encino","State":"CA","Zip":"91436"},{"Location":"FARFALLA ENCINO","Address":"16403 Ventura Blvd D","City":"Encino","State":"CA","Zip":"91436"},{"Location":"FISHMAN BLOCK & DIAMOND","Address":"16830 Ventura Blvd 400","City":"Encino","State":"CA","Zip":"91436"},{"Location":"FRATTALI & SALEM  LLP","Address":"16133 Ventura Blvd 545","City":"Encino","State":"CA","Zip":"91436"},{"Location":"FRESH BROTHERS","Address":"16060 Ventura Blvd","City":"Encino","State":"CA","Zip":"91436"},{"Location":"GELFAND RENNERT & FELDMA","Address":"16830 Ventura Blvd 501","City":"Encino","State":"CA","Zip":"91436"},{"Location":"GKM","Address":"16133 Ventura Blvd 880","City":"Encino","State":"CA","Zip":"91436"},{"Location":"GOLDBERG AND COMPANY","Address":"15760 Ventura Blvd 1730","City":"Encino","State":"CA","Zip":"91436"},{"Location":"HART BEAT PRODUCTIONS","Address":"15910 Ventura Blvd 1505","City":"Encino","State":"CA","Zip":"91436"},{"Location":"HUB INT. INSURANCE SERVICES","Address":"16030 Ventura Blvd 500","City":"Encino","State":"CA","Zip":"91436"},{"Location":"KARMA BISTRO","Address":"16101 Ventura Blvd 225","City":"Encino","State":"CA","Zip":"91436"},{"Location":"KEY INVESTMENT TEAM","Address":"16830 Ventura Blvd 515","City":"Encino","State":"CA","Zip":"91436"},{"Location":"KLASS HELMAN & ROSS","Address":"16133 Ventura Blvd 1145","City":"Encino","State":"CA","Zip":"91436"},{"Location":"L & L LLP","Address":"16133 Ventura Blvd 640","City":"Encino","State":"CA","Zip":"91436"},{"Location":"LANDROVER ENCINO","Address":"15800 Ventura Blvd","City":"Encino","State":"CA","Zip":"91436"},{"Location":"LARSENS STEAK HOUSE","Address":"16101 Ventura Blvd","City":"Encino","State":"CA","Zip":"91436"},{"Location":"LAW OFFICES OF KMZ","Address":"16055 Ventura Blvd","City":"Encino","State":"CA","Zip":"91436"},{"Location":"LMNO PRODUCTIONS INC.   # 2","Address":"15821 Ventura Blvd 320","City":"Encino","State":"CA","Zip":"91436"},{"Location":"LMNO PRODUCTIONS INC. # 1","Address":"15821 Ventura Blvd 320","City":"Encino","State":"CA","Zip":"91436"},{"Location":"MARCUS AND MILLICHAP","Address":"16830 Ventura Blvd 100","City":"Encino","State":"CA","Zip":"91436"},{"Location":"MARGULIS FAITH LLP","Address":"16030 Ventura Blvd 470","City":"Encino","State":"CA","Zip":"91436"},{"Location":"MARTINI IOSUE & AKPOVI","Address":"16830 Ventura Blvd 415","City":"Encino","State":"CA","Zip":"91436"},{"Location":"MEDITERRANEAN EXPRESS","Address":"16101 Ventura Blvd 160","City":"Encino","State":"CA","Zip":"91436"},{"Location":"MERCEDES BENZ OF ENCINO","Address":"16721 Ventura Blvd","City":"Encino","State":"CA","Zip":"91436"},{"Location":"MERRILL LYNCH CA8-802-06-00","Address":"16830 Ventura Blvd 601","City":"Encino","State":"CA","Zip":"91436"},{"Location":"MILLER WARD & CO.","Address":"16030 Ventura Blvd 300","City":"Encino","State":"CA","Zip":"91436"},{"Location":"NADER LAW FIRM","Address":"16530 Ventura Blvd 405","City":"Encino","State":"CA","Zip":"91436"},{"Location":"NATHAN AND SOROKO CPAS","Address":"16133 Ventura Blvd 620","City":"Encino","State":"CA","Zip":"91436"},{"Location":"OCTOPUS ENCINO","Address":"16733 Ventura Blvd 1","City":"Encino","State":"CA","Zip":"91436"},{"Location":"PEPPERS DELI & GRILL","Address":"15928 Ventura Blvd Suit1","City":"Encino","State":"CA","Zip":"91436"},{"Location":"PHILPOTT BILLS STOLL & MEEKS","Address":"16030 Ventura Blvd 380","City":"Encino","State":"CA","Zip":"91436"},{"Location":"PREMIER PRIVATE FITNESS","Address":"16654 Ventura Blvd","City":"Encino","State":"CA","Zip":"91436"},{"Location":"QUALITY PARKING","Address":"15928 Ventura Blvd 103","City":"Encino","State":"CA","Zip":"91436"},{"Location":"RAYMOND JAMES FINANCIAL SVCS","Address":"16133 Ventura Blvd 530","City":"Encino","State":"CA","Zip":"91436"},{"Location":"RICHARD ALEX SCOTT INC","Address":"15821 Ventura Blvd","City":"Encino","State":"CA","Zip":"91436"},{"Location":"RLM INVESTMENTS","Address":"16133 Ventura Blvd 700","City":"Encino","State":"CA","Zip":"91436"},{"Location":"SADAF RESTAURANT","Address":"16240 Ventura Blvd","City":"Encino","State":"CA","Zip":"91436"},{"Location":"SALKA CAPITOL INC","Address":"16250 Ventura Blvd 445","City":"Encino","State":"CA","Zip":"91436"},{"Location":"SCOTTRADE 04P","Address":"16112 Ventura Blvd","City":"Encino","State":"CA","Zip":"91436"},{"Location":"SEAFOOD BUFFET","Address":"15910 Ventura Blvd","City":"Encino","State":"CA","Zip":"91436"},{"Location":"SERENITY WEALTH MGMT","Address":"16133 Ventura Blvd","City":"Encino","State":"CA","Zip":"91436"},{"Location":"SHALLMAN COMMUNICATIONS","Address":"15840 Ventura Blvd 301","City":"Encino","State":"CA","Zip":"91436"},{"Location":"SHIRZAD A ABRAMS MD","Address":"16311 Ventura Blvd 1150","City":"Encino","State":"CA","Zip":"91436"},{"Location":"SK MANAGEMENT CO%2C LLC","Address":"15910 Ventura Blvd","City":"Encino","State":"CA","Zip":"91436"},{"Location":"SMITH","Address":"16130 Ventura Blvd 320","City":"Encino","State":"CA","Zip":"91436"},{"Location":"SNOW ORTHODONTICS","Address":"16260 Ventura Blvd 410","City":"Encino","State":"CA","Zip":"91436"},{"Location":"SOHEIL GOEL DDS","Address":"16101 Ventura Blvd 329","City":"Encino","State":"CA","Zip":"91436"},{"Location":"SOLEIL INVESTMENTS LLC","Address":"16200 Ventura Blvd 418","City":"Encino","State":"CA","Zip":"91436"},{"Location":"SOUTHWEST SECURITIES INC","Address":"15760 Ventura Blvd 2000","City":"Encino","State":"CA","Zip":"91436"},{"Location":"SPEINBRECHER AND ASSCO","Address":"16830 Ventura Blvd 401","City":"Encino","State":"CA","Zip":"91436"},{"Location":"STONE SOUP CHILD CARE","Address":"15910 Ventura Blvd 1420","City":"Encino","State":"CA","Zip":"91436"},{"Location":"SUNSET GROUP REALTY","Address":"16200 Ventura Blvd 226","City":"Encino","State":"CA","Zip":"91436"},{"Location":"TD AMERITRADE #05056","Address":"16403 Ventura Blvd C","City":"Encino","State":"CA","Zip":"91436"},{"Location":"THE FERTILITY INSTITUTES","Address":"16030 Ventura Blvd 404","City":"Encino","State":"CA","Zip":"91436"},{"Location":"TOMO SUSHI","Address":"16161 Ventura Blvd","City":"Encino","State":"CA","Zip":"91436"},{"Location":"TONY ROMA'S ENCINO","Address":"16575 Ventura Blvd","City":"Encino","State":"CA","Zip":"91436"},{"Location":"TROJAN HAIR STYLES FOR MEN","Address":"16545 Ventura Blvd 26","City":"Encino","State":"CA","Zip":"91436"},{"Location":"VALLEY RETINA ASSOCIATES MED","Address":"16500 Ventura Blvd 250","City":"Encino","State":"CA","Zip":"91436"},{"Location":"WELLS FARGO","Address":"15760 Ventura Blvd 108","City":"Encino","State":"CA","Zip":"91436"},{"Location":"AAA TLC HEALTH CARE INC","Address":"16133 Ventura Blvd 900","City":"Encino","State":"CA","Zip":"91436"},{"Location":"ACRC","Address":"16200 Ventura Blvd 201","City":"Encino","State":"CA","Zip":"91436"},{"Location":"Ameci Pizza Kitchen","Address":"15615 Ventura Blvd","City":"Encino","State":"CA","Zip":"91436"},{"Location":"AMERICAN PROPERTY ADVISORS","Address":"16311 Ventura Blvd 1200","City":"Encino","State":"CA","Zip":"91436"},{"Location":"ANDREW FLIER  INC","Address":"16133 Ventura Blvd 560","City":"Encino","State":"CA","Zip":"91436"},{"Location":"ASYLUM ENTERTAINMENT","Address":"15503 Ventura Blvd 240","City":"Encino","State":"CA","Zip":"91436"},{"Location":"BARRISTER EXECUTIVE SUIT","Address":"16133 Ventura Blvd 7thf","City":"Encino","State":"CA","Zip":"91436"},{"Location":"BENIHANA #1001 ENCINO","Address":"16226 Ventura Blvd","City":"Encino","State":"CA","Zip":"91436"},{"Location":"BLAZER MEDIA","Address":"16501 Ventura Blvd 504","City":"Encino","State":"CA","Zip":"91436"},{"Location":"BOARDWALK BURGERS","Address":"15826 Ventura Blvd 116","City":"Encino","State":"CA","Zip":"91436"},{"Location":"BOVITZ RESEARCH GROUP","Address":"16133 Ventura Blvd 820","City":"Encino","State":"CA","Zip":"91436"},{"Location":"BULL INTEGRATED MARKETING","Address":"16130 Ventura Blvd 400","City":"Encino","State":"CA","Zip":"91436"},{"Location":"CALIFORNIA INSTITUTE","Address":"16030 Ventura Blvd 605","City":"Encino","State":"CA","Zip":"91436"},{"Location":"COMMONWEALTH FOREIGN EX","Address":"16133 Ventura Blvd","City":"Encino","State":"CA","Zip":"91436"},{"Location":"COSGROVE MALCOM MD","Address":"16311 Ventura Blvd","City":"Encino","State":"CA","Zip":"91436"},{"Location":"CROWELL WEEDON & CO%2C","Address":"16130 Ventura Blvd 460","City":"Encino","State":"CA","Zip":"91436"},{"Location":"DAVID WEISE & ASSOCIATES","Address":"16000 Ventura Blvd","City":"Encino","State":"CA","Zip":"91436"},{"Location":"DROSMAN DENTAL","Address":"16500 Ventura Blvd A205","City":"Encino","State":"CA","Zip":"91436"},{"Location":"E-POLL MARKET RESEARCH","Address":"16133 Ventura Blvd 905","City":"Encino","State":"CA","Zip":"91436"},{"Location":"EL MARIACHI","Address":"15627 Ventura Blvd","City":"Encino","State":"CA","Zip":"91436"},{"Location":"ELEPHANT HUT THAI CUISINE","Address":"16616 Ventura Blvd","City":"Encino","State":"CA","Zip":"91436"},{"Location":"EMERALD EYE CENTER","Address":"16260 Ventura Blvd 711","City":"Encino","State":"CA","Zip":"91436"},{"Location":"EMILIO'S TRATTORIA","Address":"16234 Ventura Blvd","City":"Encino","State":"CA","Zip":"91436"},{"Location":"ENCINO CAR WASH","Address":"16300 Ventura Blvd","City":"Encino","State":"CA","Zip":"91436"},{"Location":"ENCINO DERMATOLOGY","Address":"16260 Ventura Blvd 140","City":"Encino","State":"CA","Zip":"91436"},{"Location":"ENCINO LITTLE LEAGUE","Address":"5120 Hayvenhurst Ave","City":"Encino","State":"CA","Zip":"91436"},{"Location":"EQUINOX FITNESS ENCINO","Address":"16830 Ventura Blvd","City":"Encino","State":"CA","Zip":"91436"},{"Location":"EQUINOX FITNESS ENCINO 2","Address":"16830 Ventura Blvd","City":"Encino","State":"CA","Zip":"91436"},{"Location":"FARFALLA ENCINO","Address":"16403 Ventura Blvd D","City":"Encino","State":"CA","Zip":"91436"},{"Location":"FISHMAN BLOCK & DIAMOND","Address":"16830 Ventura Blvd 400","City":"Encino","State":"CA","Zip":"91436"},{"Location":"FRATTALI & SALEM  LLP","Address":"16133 Ventura Blvd 545","City":"Encino","State":"CA","Zip":"91436"},{"Location":"FRESH BROTHERS","Address":"16060 Ventura Blvd","City":"Encino","State":"CA","Zip":"91436"},{"Location":"GELFAND RENNERT & FELDMA","Address":"16830 Ventura Blvd 501","City":"Encino","State":"CA","Zip":"91436"},{"Location":"GKM","Address":"16133 Ventura Blvd 880","City":"Encino","State":"CA","Zip":"91436"},{"Location":"GOLDBERG AND COMPANY","Address":"15760 Ventura Blvd 1730","City":"Encino","State":"CA","Zip":"91436"},{"Location":"HART BEAT PRODUCTIONS","Address":"15910 Ventura Blvd 1505","City":"Encino","State":"CA","Zip":"91436"},{"Location":"HUB INT. INSURANCE SERVICES","Address":"16030 Ventura Blvd 500","City":"Encino","State":"CA","Zip":"91436"},{"Location":"KARMA BISTRO","Address":"16101 Ventura Blvd 225","City":"Encino","State":"CA","Zip":"91436"},{"Location":"KEY INVESTMENT TEAM","Address":"16830 Ventura Blvd 515","City":"Encino","State":"CA","Zip":"91436"},{"Location":"KLASS HELMAN & ROSS","Address":"16133 Ventura Blvd 1145","City":"Encino","State":"CA","Zip":"91436"},{"Location":"L & L LLP","Address":"16133 Ventura Blvd 640","City":"Encino","State":"CA","Zip":"91436"},{"Location":"LANDROVER ENCINO","Address":"15800 Ventura Blvd","City":"Encino","State":"CA","Zip":"91436"},{"Location":"LARSENS STEAK HOUSE","Address":"16101 Ventura Blvd","City":"Encino","State":"CA","Zip":"91436"},{"Location":"LAW OFFICES OF KMZ","Address":"16055 Ventura Blvd","City":"Encino","State":"CA","Zip":"91436"},{"Location":"LMNO PRODUCTIONS INC.   # 2","Address":"15821 Ventura Blvd 320","City":"Encino","State":"CA","Zip":"91436"},{"Location":"LMNO PRODUCTIONS INC. # 1","Address":"15821 Ventura Blvd 320","City":"Encino","State":"CA","Zip":"91436"},{"Location":"MARCUS AND MILLICHAP","Address":"16830 Ventura Blvd 100","City":"Encino","State":"CA","Zip":"91436"},{"Location":"MARGULIS FAITH LLP","Address":"16030 Ventura Blvd 470","City":"Encino","State":"CA","Zip":"91436"},{"Location":"MARTINI IOSUE & AKPOVI","Address":"16830 Ventura Blvd 415","City":"Encino","State":"CA","Zip":"91436"},{"Location":"MEDITERRANEAN EXPRESS","Address":"16101 Ventura Blvd 160","City":"Encino","State":"CA","Zip":"91436"},{"Location":"MERCEDES BENZ OF ENCINO","Address":"16721 Ventura Blvd","City":"Encino","State":"CA","Zip":"91436"},{"Location":"MERRILL LYNCH CA8-802-06-00","Address":"16830 Ventura Blvd 601","City":"Encino","State":"CA","Zip":"91436"},{"Location":"MILLER WARD & CO.","Address":"16030 Ventura Blvd 300","City":"Encino","State":"CA","Zip":"91436"},{"Location":"NADER LAW FIRM","Address":"16530 Ventura Blvd 405","City":"Encino","State":"CA","Zip":"91436"},{"Location":"NATHAN AND SOROKO CPAS","Address":"16133 Ventura Blvd 620","City":"Encino","State":"CA","Zip":"91436"},{"Location":"OCTOPUS ENCINO","Address":"16733 Ventura Blvd 1","City":"Encino","State":"CA","Zip":"91436"},{"Location":"PEPPERS DELI & GRILL","Address":"15928 Ventura Blvd Suit1","City":"Encino","State":"CA","Zip":"91436"},{"Location":"PHILPOTT BILLS STOLL & MEEKS","Address":"16030 Ventura Blvd 380","City":"Encino","State":"CA","Zip":"91436"},{"Location":"PREMIER PRIVATE FITNESS","Address":"16654 Ventura Blvd","City":"Encino","State":"CA","Zip":"91436"},{"Location":"QUALITY PARKING","Address":"15928 Ventura Blvd 103","City":"Encino","State":"CA","Zip":"91436"},{"Location":"RAYMOND JAMES FINANCIAL SVCS","Address":"16133 Ventura Blvd 530","City":"Encino","State":"CA","Zip":"91436"},{"Location":"RICHARD ALEX SCOTT INC","Address":"15821 Ventura Blvd","City":"Encino","State":"CA","Zip":"91436"},{"Location":"RLM INVESTMENTS","Address":"16133 Ventura Blvd 700","City":"Encino","State":"CA","Zip":"91436"},{"Location":"SADAF RESTAURANT","Address":"16240 Ventura Blvd","City":"Encino","State":"CA","Zip":"91436"},{"Location":"SALKA CAPITOL INC","Address":"16250 Ventura Blvd 445","City":"Encino","State":"CA","Zip":"91436"},{"Location":"SCOTTRADE 04P","Address":"16112 Ventura Blvd","City":"Encino","State":"CA","Zip":"91436"},{"Location":"SEAFOOD BUFFET","Address":"15910 Ventura Blvd","City":"Encino","State":"CA","Zip":"91436"},{"Location":"SERENITY WEALTH MGMT","Address":"16133 Ventura Blvd","City":"Encino","State":"CA","Zip":"91436"},{"Location":"SHALLMAN COMMUNICATIONS","Address":"15840 Ventura Blvd 301","City":"Encino","State":"CA","Zip":"91436"},{"Location":"SHIRZAD A ABRAMS MD","Address":"16311 Ventura Blvd 1150","City":"Encino","State":"CA","Zip":"91436"},{"Location":"SK MANAGEMENT CO%2C LLC","Address":"15910 Ventura Blvd","City":"Encino","State":"CA","Zip":"91436"},{"Location":"SMITH","Address":"16130 Ventura Blvd 320","City":"Encino","State":"CA","Zip":"91436"},{"Location":"SNOW ORTHODONTICS","Address":"16260 Ventura Blvd 410","City":"Encino","State":"CA","Zip":"91436"},{"Location":"SOHEIL GOEL DDS","Address":"16101 Ventura Blvd 329","City":"Encino","State":"CA","Zip":"91436"},{"Location":"SOLEIL INVESTMENTS LLC","Address":"16200 Ventura Blvd 418","City":"Encino","State":"CA","Zip":"91436"},{"Location":"SOUTHWEST SECURITIES INC","Address":"15760 Ventura Blvd 2000","City":"Encino","State":"CA","Zip":"91436"},{"Location":"SPEINBRECHER AND ASSCO","Address":"16830 Ventura Blvd 401","City":"Encino","State":"CA","Zip":"91436"},{"Location":"STONE SOUP CHILD CARE","Address":"15910 Ventura Blvd 1420","City":"Encino","State":"CA","Zip":"91436"},{"Location":"SUNSET GROUP REALTY","Address":"16200 Ventura Blvd 226","City":"Encino","State":"CA","Zip":"91436"},{"Location":"TD AMERITRADE #05056","Address":"16403 Ventura Blvd C","City":"Encino","State":"CA","Zip":"91436"},{"Location":"THE FERTILITY INSTITUTES","Address":"16030 Ventura Blvd 404","City":"Encino","State":"CA","Zip":"91436"},{"Location":"TOMO SUSHI","Address":"16161 Ventura Blvd","City":"Encino","State":"CA","Zip":"91436"},{"Location":"TONY ROMA'S ENCINO","Address":"16575 Ventura Blvd","City":"Encino","State":"CA","Zip":"91436"},{"Location":"TROJAN HAIR STYLES FOR MEN","Address":"16545 Ventura Blvd 26","City":"Encino","State":"CA","Zip":"91436"},{"Location":"VALLEY RETINA ASSOCIATES MED","Address":"16500 Ventura Blvd 250","City":"Encino","State":"CA","Zip":"91436"},{"Location":"WELLS FARGO","Address":"15760 Ventura Blvd 108","City":"Encino","State":"CA","Zip":"91436"}]