[{"Location":"180 DEGREE HAIR SALON","Address":"2311 W Burbank Blvd","City":"Burbank","State":"CA","Zip":"91506"},{"Location":"AUTO CLUB OF SOUTHERN CALIF","Address":"1111 W Alameda Ave Ers","City":"Burbank","State":"CA","Zip":"91506"},{"Location":"BURBANK CITY FCU","Address":"1800 W Magnolia Blvd","City":"Burbank","State":"CA","Zip":"91506"},{"Location":"BURBANK LIQUOR & MARKET","Address":"1701 W Burbank Blvd 101","City":"Burbank","State":"CA","Zip":"91506"},{"Location":"CALIFORNIA REALESTATE SERVICES","Address":"1616 W Burbank Blvd E","City":"Burbank","State":"CA","Zip":"91506"},{"Location":"CAREAR STRATEGIES","Address":"1520 W Magnolia Blvd","City":"Burbank","State":"CA","Zip":"91506"},{"Location":"CHERI SUNDAE PRODUCTIONS","Address":"2401 W Olive Ave 100","City":"Burbank","State":"CA","Zip":"91506"},{"Location":"CIVOLUTION - LA OFFICE","Address":"1502 W Verdugo Ave","City":"Burbank","State":"CA","Zip":"91506"},{"Location":"COMBO GROUP LLC","Address":"2210 W Olive Ave 200","City":"Burbank","State":"CA","Zip":"91506"},{"Location":"CRESCENT HEALTHCARE","Address":"2031 W Alameda Ave 340","City":"Burbank","State":"CA","Zip":"91506"},{"Location":"DARTS AWAY","Address":"1710 W Magnolia Blvd","City":"Burbank","State":"CA","Zip":"91506"},{"Location":"EL CRIOLLO BURBANK","Address":"916 W Burbank Blvd D","City":"Burbank","State":"CA","Zip":"91506"},{"Location":"ENVELOPE EXPRESS","Address":"2204 W Magnolia Blvd","City":"Burbank","State":"CA","Zip":"91506"},{"Location":"FMC 54840000","Address":"2031 W Alameda Ave 202","City":"Burbank","State":"CA","Zip":"91506"},{"Location":"FOTOKEM","Address":"900 W Alameda Ave","City":"Burbank","State":"CA","Zip":"91506"},{"Location":"GERRY L LANIER INC","Address":"1400 W Olive Ave 201","City":"Burbank","State":"CA","Zip":"91506"},{"Location":"GRANADA RESTAURANT","Address":"1100 W Victory Blvd","City":"Burbank","State":"CA","Zip":"91506"},{"Location":"HAIR CARE CENTER","Address":"1611 W Burbank Blvd","City":"Burbank","State":"CA","Zip":"91506"},{"Location":"HARRY'S TOBACCO SHOP","Address":"2309 W Olive Ave C","City":"Burbank","State":"CA","Zip":"91506"},{"Location":"JENNINGS TERMITES","Address":"1613 W Burbank Blvd","City":"Burbank","State":"CA","Zip":"91506"},{"Location":"LAEC INC","Address":"480 W Riverside Dr","City":"Burbank","State":"CA","Zip":"91506"},{"Location":"LOS ANGELES DUPLICATION2","Address":"2107 W Alameda Ave","City":"Burbank","State":"CA","Zip":"91506"},{"Location":"MEDIAPLACEMENT ENTERTAINMENT","Address":"2406 W Magnolia Blvd","City":"Burbank","State":"CA","Zip":"91506"},{"Location":"MYSTIC ART PICTURES","Address":"1918 W Magnolia Blvd 206","City":"Burbank","State":"CA","Zip":"91506"},{"Location":"NEW BUENOS AIRES1","Address":"1723 W Verdugo Ave","City":"Burbank","State":"CA","Zip":"91506"},{"Location":"OLIVES BISTRO","Address":"2001 W Olive Ave","City":"Burbank","State":"CA","Zip":"91506"},{"Location":"OSCARS BARBERSHOP","Address":"1614 W Magnolia Blvd","City":"Burbank","State":"CA","Zip":"91506"},{"Location":"PARAMOUNT RECORDING STUDIOS","Address":"721 S Glenwood Pl","City":"Burbank","State":"CA","Zip":"91506"},{"Location":"PARK BAR AND GRILL","Address":"2007 W Burbank Blvd","City":"Burbank","State":"CA","Zip":"91506"},{"Location":"PETER BRENN DDS","Address":"1400 W Olive Ave","City":"Burbank","State":"CA","Zip":"91506"},{"Location":"PHILLYS BEST","Address":"1419 W Olive Ave","City":"Burbank","State":"CA","Zip":"91506"},{"Location":"RGS","Address":"1111 Chestnut St","City":"Burbank","State":"CA","Zip":"91506"},{"Location":"SAN MARCO BAKERY","Address":"2215 W Burbank Blvd","City":"Burbank","State":"CA","Zip":"91506"},{"Location":"SIR REEL STUDIO RENTALS","Address":"1001 Chestnut St","City":"Burbank","State":"CA","Zip":"91506"},{"Location":"SPORT CLIPS CA706","Address":"2452 W Victory Blvd","City":"Burbank","State":"CA","Zip":"91506"},{"Location":"SPORTIVO PIZZA AND BAR","Address":"1220 W Burbank Blvd","City":"Burbank","State":"CA","Zip":"91506"},{"Location":"TAKE SUSHI","Address":"1722 W Verdugo Ave","City":"Burbank","State":"CA","Zip":"91506"},{"Location":"TALLYRAND RESTAURANT","Address":"1700 W Olive Ave","City":"Burbank","State":"CA","Zip":"91506"},{"Location":"TECHNICOLOR","Address":"1117 W Isabel St","City":"Burbank","State":"CA","Zip":"91506"},{"Location":"TULIP SALON","Address":"1421 W Olive Ave","City":"Burbank","State":"CA","Zip":"91506"},{"Location":"VAHE TERZAKARIAN","Address":"1130 W Olive Ave","City":"Burbank","State":"CA","Zip":"91506"},{"Location":"VFW POST8310","Address":"1006 W Magnolia Blvd","City":"Burbank","State":"CA","Zip":"91506"},{"Location":"ZAUN GLASS CO","Address":"1218 W Magnolia Blvd","City":"Burbank","State":"CA","Zip":"91506"},{"Location":"180 DEGREE HAIR SALON","Address":"2311 W Burbank Blvd","City":"Burbank","State":"CA","Zip":"91506"},{"Location":"AUTO CLUB OF SOUTHERN CALIF","Address":"1111 W Alameda Ave Ers","City":"Burbank","State":"CA","Zip":"91506"},{"Location":"BURBANK CITY FCU","Address":"1800 W Magnolia Blvd","City":"Burbank","State":"CA","Zip":"91506"},{"Location":"BURBANK LIQUOR & MARKET","Address":"1701 W Burbank Blvd 101","City":"Burbank","State":"CA","Zip":"91506"},{"Location":"CALIFORNIA REALESTATE SERVICES","Address":"1616 W Burbank Blvd E","City":"Burbank","State":"CA","Zip":"91506"},{"Location":"CAREAR STRATEGIES","Address":"1520 W Magnolia Blvd","City":"Burbank","State":"CA","Zip":"91506"},{"Location":"CHERI SUNDAE PRODUCTIONS","Address":"2401 W Olive Ave 100","City":"Burbank","State":"CA","Zip":"91506"},{"Location":"CIVOLUTION - LA OFFICE","Address":"1502 W Verdugo Ave","City":"Burbank","State":"CA","Zip":"91506"},{"Location":"COMBO GROUP LLC","Address":"2210 W Olive Ave 200","City":"Burbank","State":"CA","Zip":"91506"},{"Location":"CRESCENT HEALTHCARE","Address":"2031 W Alameda Ave 340","City":"Burbank","State":"CA","Zip":"91506"},{"Location":"DARTS AWAY","Address":"1710 W Magnolia Blvd","City":"Burbank","State":"CA","Zip":"91506"},{"Location":"EL CRIOLLO BURBANK","Address":"916 W Burbank Blvd D","City":"Burbank","State":"CA","Zip":"91506"},{"Location":"ENVELOPE EXPRESS","Address":"2204 W Magnolia Blvd","City":"Burbank","State":"CA","Zip":"91506"},{"Location":"FMC 54840000","Address":"2031 W Alameda Ave 202","City":"Burbank","State":"CA","Zip":"91506"},{"Location":"FOTOKEM","Address":"900 W Alameda Ave","City":"Burbank","State":"CA","Zip":"91506"},{"Location":"GERRY L LANIER INC","Address":"1400 W Olive Ave 201","City":"Burbank","State":"CA","Zip":"91506"},{"Location":"GRANADA RESTAURANT","Address":"1100 W Victory Blvd","City":"Burbank","State":"CA","Zip":"91506"},{"Location":"HAIR CARE CENTER","Address":"1611 W Burbank Blvd","City":"Burbank","State":"CA","Zip":"91506"},{"Location":"HARRY'S TOBACCO SHOP","Address":"2309 W Olive Ave C","City":"Burbank","State":"CA","Zip":"91506"},{"Location":"JENNINGS TERMITES","Address":"1613 W Burbank Blvd","City":"Burbank","State":"CA","Zip":"91506"},{"Location":"LAEC INC","Address":"480 W Riverside Dr","City":"Burbank","State":"CA","Zip":"91506"},{"Location":"LOS ANGELES DUPLICATION2","Address":"2107 W Alameda Ave","City":"Burbank","State":"CA","Zip":"91506"},{"Location":"MEDIAPLACEMENT ENTERTAINMENT","Address":"2406 W Magnolia Blvd","City":"Burbank","State":"CA","Zip":"91506"},{"Location":"MYSTIC ART PICTURES","Address":"1918 W Magnolia Blvd 206","City":"Burbank","State":"CA","Zip":"91506"},{"Location":"NEW BUENOS AIRES1","Address":"1723 W Verdugo Ave","City":"Burbank","State":"CA","Zip":"91506"},{"Location":"OLIVES BISTRO","Address":"2001 W Olive Ave","City":"Burbank","State":"CA","Zip":"91506"},{"Location":"OSCARS BARBERSHOP","Address":"1614 W Magnolia Blvd","City":"Burbank","State":"CA","Zip":"91506"},{"Location":"PARAMOUNT RECORDING STUDIOS","Address":"721 S Glenwood Pl","City":"Burbank","State":"CA","Zip":"91506"},{"Location":"PARK BAR AND GRILL","Address":"2007 W Burbank Blvd","City":"Burbank","State":"CA","Zip":"91506"},{"Location":"PETER BRENN DDS","Address":"1400 W Olive Ave","City":"Burbank","State":"CA","Zip":"91506"},{"Location":"PHILLYS BEST","Address":"1419 W Olive Ave","City":"Burbank","State":"CA","Zip":"91506"},{"Location":"RGS","Address":"1111 Chestnut St","City":"Burbank","State":"CA","Zip":"91506"},{"Location":"SAN MARCO BAKERY","Address":"2215 W Burbank Blvd","City":"Burbank","State":"CA","Zip":"91506"},{"Location":"SIR REEL STUDIO RENTALS","Address":"1001 Chestnut St","City":"Burbank","State":"CA","Zip":"91506"},{"Location":"SPORT CLIPS CA706","Address":"2452 W Victory Blvd","City":"Burbank","State":"CA","Zip":"91506"},{"Location":"SPORTIVO PIZZA AND BAR","Address":"1220 W Burbank Blvd","City":"Burbank","State":"CA","Zip":"91506"},{"Location":"TAKE SUSHI","Address":"1722 W Verdugo Ave","City":"Burbank","State":"CA","Zip":"91506"},{"Location":"TALLYRAND RESTAURANT","Address":"1700 W Olive Ave","City":"Burbank","State":"CA","Zip":"91506"},{"Location":"TECHNICOLOR","Address":"1117 W Isabel St","City":"Burbank","State":"CA","Zip":"91506"},{"Location":"TULIP SALON","Address":"1421 W Olive Ave","City":"Burbank","State":"CA","Zip":"91506"},{"Location":"VAHE TERZAKARIAN","Address":"1130 W Olive Ave","City":"Burbank","State":"CA","Zip":"91506"},{"Location":"VFW POST8310","Address":"1006 W Magnolia Blvd","City":"Burbank","State":"CA","Zip":"91506"},{"Location":"ZAUN GLASS CO","Address":"1218 W Magnolia Blvd","City":"Burbank","State":"CA","Zip":"91506"}]