[{"Location":"3R PRINTING","Address":"2915 W Burbank Blvd","City":"Burbank","State":"CA","Zip":"91505"},{"Location":"ABC CABLE NETWORK","Address":"3800 W Alameda Ave 1626","City":"Burbank","State":"CA","Zip":"91505"},{"Location":"ADVANTAGE AUDIO INC","Address":"1026 N Hollywood Way","City":"Burbank","State":"CA","Zip":"91505"},{"Location":"ALASKA AIRLINES BREAK ROOM","Address":"2627 N Hollywood Way","City":"Burbank","State":"CA","Zip":"91505"},{"Location":"ALTOBELLI JEWELERS","Address":"4150 W Riverside Dr 210","City":"Burbank","State":"CA","Zip":"91505"},{"Location":"AMERICAN HOMECARE  INC","Address":"745 North Whitmall  Highway","City":"Burbank","State":"CA","Zip":"91505"},{"Location":"AMERIFLIGHT","Address":"4700 W Empire Ave","City":"Burbank","State":"CA","Zip":"91505"},{"Location":"APACHE RENTAL  GROUP","Address":"3910 W Magnolia Blvd","City":"Burbank","State":"CA","Zip":"91505"},{"Location":"ATLANTIC AVIATION","Address":"10750 Sherman Way","City":"Burbank","State":"CA","Zip":"91505"},{"Location":"AUDIO REHAB","Address":"3096 N Clybourn Ave","City":"Burbank","State":"CA","Zip":"91505"},{"Location":"BASE PRODUCTIONS","Address":"4540 W Valerio St","City":"Burbank","State":"CA","Zip":"91505"},{"Location":"BATJAC PRODUCTIONS INC","Address":"3500 W Olive Ave 750","City":"Burbank","State":"CA","Zip":"91505"},{"Location":"BERNERO PRODUCTIONS 2","Address":"4450 W Lakeside Dr 250","City":"Burbank","State":"CA","Zip":"91505"},{"Location":"BIRCH GOLD GROUP","Address":"3500 W Olive Ave 730","City":"Burbank","State":"CA","Zip":"91505"},{"Location":"BRAD LACHMAN PRODUCTIONS","Address":"4450 W Lakeside Dr 280","City":"Burbank","State":"CA","Zip":"91505"},{"Location":"BRAVO","Address":"3400 W Olive Ave 250","City":"Burbank","State":"CA","Zip":"91505"},{"Location":"BURBANK ELKS #1497","Address":"2232 N Hollywood Way","City":"Burbank","State":"CA","Zip":"91505"},{"Location":"BURBANK GLENDALE PASADENA","Address":"2627 N Hollywood Way","City":"Burbank","State":"CA","Zip":"91505"},{"Location":"BURBANK GLENDALE PASADENA AIRP","Address":"2800 N Clybourn Ave","City":"Burbank","State":"CA","Zip":"91505"},{"Location":"BURBANK OCCUPATIONAL HEALTH","Address":"3413 W Pacific Ave 102","City":"Burbank","State":"CA","Zip":"91505"},{"Location":"BURBANK SMOKE SHOP","Address":"515 N Hollywood Way","City":"Burbank","State":"CA","Zip":"91505"},{"Location":"CANDILEJAS RESTAURANT","Address":"7505 N San Fernando Rd","City":"Burbank","State":"CA","Zip":"91505"},{"Location":"CHAMORRO AND ASSOC","Address":"1023 N Hollywood Way 200","City":"Burbank","State":"CA","Zip":"91505"},{"Location":"CHAMPS","Address":"4103 W Burbank Blvd","City":"Burbank","State":"CA","Zip":"91505"},{"Location":"CHAOS VISUAL PRODUCTIONS","Address":"2333 N Valley St","City":"Burbank","State":"CA","Zip":"91505"},{"Location":"CIACRISTINA","Address":"4201 W Olive Ave","City":"Burbank","State":"CA","Zip":"91505"},{"Location":"CLAIM JUMPER","Address":"3500 W Olive Ave 105","City":"Burbank","State":"CA","Zip":"91505"},{"Location":"COMMUNITY BANK","Address":"2800 N Hollywood Way","City":"Burbank","State":"CA","Zip":"91505"},{"Location":"CONAN O BRIEN SHOW","Address":"4001 Warner Blvd","City":"Burbank","State":"CA","Zip":"91505"},{"Location":"CORAL CAFE","Address":"3321 W Burbank Blvd","City":"Burbank","State":"CA","Zip":"91505"},{"Location":"CPMCA","Address":"3500 W Olive Ave 860","City":"Burbank","State":"CA","Zip":"91505"},{"Location":"CW NETWORK","Address":"400 N Hollywood Way 2r1","City":"Burbank","State":"CA","Zip":"91505"},{"Location":"CW NETWORK PINNACLE 1","Address":"3300 W Olive Ave 3089","City":"Burbank","State":"CA","Zip":"91505"},{"Location":"CW NETWORK PINNACLE 2","Address":"3300 W Olive Ave 3089","City":"Burbank","State":"CA","Zip":"91505"},{"Location":"CW NETWORK PINNACLE 3","Address":"3300 W Olive Ave 3089","City":"Burbank","State":"CA","Zip":"91505"},{"Location":"DAVE AARON ENTERPRISES","Address":"3809 W Burbank Blvd","City":"Burbank","State":"CA","Zip":"91505"},{"Location":"DELUXE MEDIA GROUP","Address":"2130 N Hollywood Way","City":"Burbank","State":"CA","Zip":"91505"},{"Location":"DISNEY","Address":"3800 W Alameda Ave 831","City":"Burbank","State":"CA","Zip":"91505"},{"Location":"DISNEY ABC CABLE","Address":"3800 W Alameda Ave 45030","City":"Burbank","State":"CA","Zip":"91505"},{"Location":"DISNEY AVIATION GROUP","Address":"3000 N Clybourn Ave","City":"Burbank","State":"CA","Zip":"91505"},{"Location":"DOLBY LABORATORIES","Address":"3601 W Alameda Ave","City":"Burbank","State":"CA","Zip":"91505"},{"Location":"DON CUCOS MEXICAN RESTAURANT","Address":"3911 W Riverside Dr","City":"Burbank","State":"CA","Zip":"91505"},{"Location":"DREAMWORKS LLC","Address":"3020 N Clybourn Ave","City":"Burbank","State":"CA","Zip":"91505"},{"Location":"DVS INTELESTREAM","Address":"2625 W Olive Ave","City":"Burbank","State":"CA","Zip":"91505"},{"Location":"E  PAUL BRODSKY CPA INC","Address":"2710 W Burbank Blvd","City":"Burbank","State":"CA","Zip":"91505"},{"Location":"EAGLE IN PROGRESS CLEAN","Address":"10970 Sherman Way","City":"Burbank","State":"CA","Zip":"91505"},{"Location":"EAST VALLEY MEDICAL GROUP","Address":"201 S Buena Vista St 300","City":"Burbank","State":"CA","Zip":"91505"},{"Location":"EL TORITO 0008","Address":"3113 W Olive Ave","City":"Burbank","State":"CA","Zip":"91505"},{"Location":"ELECTRIC IMAGE","Address":"10970 Sherman Way 112","City":"Burbank","State":"CA","Zip":"91505"},{"Location":"ENE%2FTSA-BUR","Address":"2627 N Hollywood Way","City":"Burbank","State":"CA","Zip":"91505"},{"Location":"EVOLUTION FILM & TAPE","Address":"3310 W Vanowen St","City":"Burbank","State":"CA","Zip":"91505"},{"Location":"FEDEX","Address":"4511 W Empire Ave","City":"Burbank","State":"CA","Zip":"91505"},{"Location":"FIRST ENTERTAINMENT CREDIT UNI","Address":"2520 W Olive Ave","City":"Burbank","State":"CA","Zip":"91505"},{"Location":"FISH DISH LLC","Address":"2575 N Hollywood Way 106","City":"Burbank","State":"CA","Zip":"91505"},{"Location":"FLOYDS BARBER SHOP","Address":"1040 N Hollywood Way","City":"Burbank","State":"CA","Zip":"91505"},{"Location":"FORMATION ENTERTAINMENT","Address":"528 N Frederic St","City":"Burbank","State":"CA","Zip":"91505"},{"Location":"FOTO-KEM INDUSTRIES","Address":"2727 W Alameda Ave 400","City":"Burbank","State":"CA","Zip":"91505"},{"Location":"FOTOKEM","Address":"2801 W Alameda Ave","City":"Burbank","State":"CA","Zip":"91505"},{"Location":"FOTOKEM","Address":"2820 W Olive Ave","City":"Burbank","State":"CA","Zip":"91505"},{"Location":"FUNXIONAL FITNESS","Address":"4111 W Alameda Ave","City":"Burbank","State":"CA","Zip":"91505"},{"Location":"GTC AVIATION INC-GTC MGMT SVCS","Address":"2900 N Clybourn Ave","City":"Burbank","State":"CA","Zip":"91505"},{"Location":"HANDY MARKET","Address":"2514 W Magnolia Blvd","City":"Burbank","State":"CA","Zip":"91505"},{"Location":"HASBRO STUDIOS","Address":"2950 N Hollywood Way 100","City":"Burbank","State":"CA","Zip":"91505"},{"Location":"HOTEL AMARANO BURBANK","Address":"322 N Pass Ave","City":"Burbank","State":"CA","Zip":"91505"},{"Location":"HOTEL AMARANO POOL","Address":"322 N Pass Ave","City":"Burbank","State":"CA","Zip":"91505"},{"Location":"IMAGINE COMMUNICATIONS","Address":"3400 W Olive Ave 220","City":"Burbank","State":"CA","Zip":"91505"},{"Location":"ION MEDIA NETWORKS","Address":"2600 W Olive Ave 900","City":"Burbank","State":"CA","Zip":"91505"},{"Location":"JET BLUE AIRLINE","Address":"2627 N Hollywood Way","City":"Burbank","State":"CA","Zip":"91505"},{"Location":"JFK COMPANY","Address":"7521 N Claybeck Ave","City":"Burbank","State":"CA","Zip":"91505"},{"Location":"JOE'S GREAT AMERICAN BAR&GRILL","Address":"4311 W Magnolia Blvd","City":"Burbank","State":"CA","Zip":"91505"},{"Location":"KCET 28","Address":"2900 W Alameda Ave 600","City":"Burbank","State":"CA","Zip":"91505"},{"Location":"KCET 28%2FLTB","Address":"2900 W Alameda Ave","City":"Burbank","State":"CA","Zip":"91505"},{"Location":"KEEP ME POSTED","Address":"4111 W Alameda Ave","City":"Burbank","State":"CA","Zip":"91505"},{"Location":"KEVIN IRVING","Address":"3309 W Burbank Blvd","City":"Burbank","State":"CA","Zip":"91505"},{"Location":"KEYSTONE CABINETRY","Address":"3110 N Clybourn Ave","City":"Burbank","State":"CA","Zip":"91505"},{"Location":"KFI RADIO","Address":"3400 W Olive Ave 550","City":"Burbank","State":"CA","Zip":"91505"},{"Location":"KLAC CLEAR CHANNEL","Address":"3400 W Olive Ave 550","City":"Burbank","State":"CA","Zip":"91505"},{"Location":"KURU KURU SUSHI","Address":"521 N Hollywood Way B-4","City":"Burbank","State":"CA","Zip":"91505"},{"Location":"LA GRAPHICO","Address":"3800 W Vanowen St","City":"Burbank","State":"CA","Zip":"91505"},{"Location":"LA PAG LIQUOR","Address":"4101 W Magnolia Blvd","City":"Burbank","State":"CA","Zip":"91505"},{"Location":"LAKESIDE GOLF CLUB","Address":"4500 W Lakeside Dr","City":"Burbank","State":"CA","Zip":"91505"},{"Location":"LEE FILTERS","Address":"2237 N Hollywood Way","City":"Burbank","State":"CA","Zip":"91505"},{"Location":"LEGEND PICTURES  LLC","Address":"2900 W Alameda Ave Fl15","City":"Burbank","State":"CA","Zip":"91505"},{"Location":"LEVEL 3 POST","Address":"2901 W Alameda Ave Rdfl","City":"Burbank","State":"CA","Zip":"91505"},{"Location":"LILIDEAN LLC","Address":"10950 Sherman Way 170","City":"Burbank","State":"CA","Zip":"91505"},{"Location":"LOCKHEED FEDERAL CREDIT UNION","Address":"2340 N Hollywood Way","City":"Burbank","State":"CA","Zip":"91505"},{"Location":"LOGIX FCU - CONTACT CT","Address":"2249 N Hollywood Way","City":"Burbank","State":"CA","Zip":"91505"},{"Location":"LOGIX LOUNGE","Address":"2340 N Hollywood Way","City":"Burbank","State":"CA","Zip":"91505"},{"Location":"LOS AMIGOS","Address":"2825 W Olive Ave","City":"Burbank","State":"CA","Zip":"91505"},{"Location":"LUKYS HARDWARE COMPANY","Address":"3814 W Burbank Blvd","City":"Burbank","State":"CA","Zip":"91505"},{"Location":"MARC GRAUE RECORDING","Address":"3421 W Burbank Blvd","City":"Burbank","State":"CA","Zip":"91505"},{"Location":"MATTHEWS STUDIO EQUIPMENT","Address":"4520 W Valerio St","City":"Burbank","State":"CA","Zip":"91505"},{"Location":"METROPOLITAN CULINARY SER","Address":"2627 N Hollywood Way","City":"Burbank","State":"CA","Zip":"91505"},{"Location":"MI LATIN KITCHEN","Address":"3803 W Burbank Blvd","City":"Burbank","State":"CA","Zip":"91505"},{"Location":"MICHAELS VALLEY PLUMBING","Address":"2612 W Burbank Blvd","City":"Burbank","State":"CA","Zip":"91505"},{"Location":"MORTON'S BURBANK","Address":"3400 W Olive Ave 180","City":"Burbank","State":"CA","Zip":"91505"},{"Location":"MOTION PICTURE MAGIC","Address":"3611 W Pacific Ave A","City":"Burbank","State":"CA","Zip":"91505"},{"Location":"MOUNTAIN VIEW TIRE","Address":"2901 W Magnolia Blvd","City":"Burbank","State":"CA","Zip":"91505"},{"Location":"MY EYE MEDIA LLC","Address":"2211 N Hollywood Way","City":"Burbank","State":"CA","Zip":"91505"},{"Location":"NEW WAVE","Address":"2660 W Olive Ave","City":"Burbank","State":"CA","Zip":"91505"},{"Location":"NEW WAVE ENTERTAINMENT","Address":"2660 W Olive Ave C","City":"Burbank","State":"CA","Zip":"91505"},{"Location":"P E S PAYROLL","Address":"4100 W Burbank Blvd","City":"Burbank","State":"CA","Zip":"91505"},{"Location":"PACIFIC SURGERY CENTER","Address":"2829 W Burbank Blvd","City":"Burbank","State":"CA","Zip":"91505"},{"Location":"PACIFIC TITLE ARCHIVES","Address":"2240 N Screenland Dr","City":"Burbank","State":"CA","Zip":"91505"},{"Location":"PARADIES SHOPS INC","Address":"2627 N Hollywood Way 1603","City":"Burbank","State":"CA","Zip":"91505"},{"Location":"PHF II LLC","Address":"2500 N Hollywood Way","City":"Burbank","State":"CA","Zip":"91505"},{"Location":"PIVOTAL POST","Address":"2901 W Alameda Ave 7thf","City":"Burbank","State":"CA","Zip":"91505"},{"Location":"RADAR MULTIMEDIA","Address":"4111 W Alameda Ave 412","City":"Burbank","State":"CA","Zip":"91505"},{"Location":"RAVEN PAUL AND COMPANY","Address":"840 N Hollywood Way","City":"Burbank","State":"CA","Zip":"91505"},{"Location":"RAYCOM MEDIA","Address":"2901 W Alameda Ave 500","City":"Burbank","State":"CA","Zip":"91505"},{"Location":"RAYMOND RICCI DDS","Address":"4405 W Riverside Dr 301","City":"Burbank","State":"CA","Zip":"91505"},{"Location":"RIBS USA","Address":"2711 W Olive Ave","City":"Burbank","State":"CA","Zip":"91505"},{"Location":"ROBERT BOWNE LAW OFFICES","Address":"4421 W Riverside Dr 200","City":"Burbank","State":"CA","Zip":"91505"},{"Location":"ROSE HEALING RETREAT","Address":"3008 W Burbank Blvd","City":"Burbank","State":"CA","Zip":"91505"},{"Location":"SABOA ENTERTAINMENT","Address":"4403 W Magnolia Blvd","City":"Burbank","State":"CA","Zip":"91505"},{"Location":"SAINT JOSEPH MED CNTR","Address":"501 S Buena Vista St","City":"Burbank","State":"CA","Zip":"91505"},{"Location":"SAN PEDRO HOSPITAL","Address":"501 S Buena Vista St","City":"Burbank","State":"CA","Zip":"91505"},{"Location":"SHAMROCK HOLDINGS","Address":"3500 W Olive Ave 700","City":"Burbank","State":"CA","Zip":"91505"},{"Location":"SHERRI CALLAN","Address":"1126 N Hollywood Way","City":"Burbank","State":"CA","Zip":"91505"},{"Location":"SIMMZYS  BURBANK","Address":"3000 W Olive Ave","City":"Burbank","State":"CA","Zip":"91505"},{"Location":"SIZZLER INC","Address":"1145 N Hollywood Way","City":"Burbank","State":"CA","Zip":"91505"},{"Location":"SKY HILL LIVING","Address":"3919 W Victory Blvd","City":"Burbank","State":"CA","Zip":"91505"},{"Location":"SNELL & WILCOX%2C INC","Address":"3519 W Pacific Ave","City":"Burbank","State":"CA","Zip":"91505"},{"Location":"SOBRIETY ADDICTION SOLUTIONS","Address":"4421 W Riverside Dr 102","City":"Burbank","State":"CA","Zip":"91505"},{"Location":"SOUTHWEST  AIRLINES","Address":"4209 W Empire Ave","City":"Burbank","State":"CA","Zip":"91505"},{"Location":"SOUTHWEST AIRLINE","Address":"2627 N Hollywood Way","City":"Burbank","State":"CA","Zip":"91505"},{"Location":"STEEL MAGNOLIAS","Address":"3800 W Magnolia Blvd","City":"Burbank","State":"CA","Zip":"91505"},{"Location":"STEVLAND MORRIS PRODUCTIONS","Address":"4616 W Magnolia Blvd","City":"Burbank","State":"CA","Zip":"91505"},{"Location":"STUDIO 1738 INC","Address":"4100 W Burbank Blvd","City":"Burbank","State":"CA","Zip":"91505"},{"Location":"TALENT WORKS","Address":"3500 W Olive Ave 1400","City":"Burbank","State":"CA","Zip":"91505"},{"Location":"TAQUERIA EL TAPATIO LLC.","Address":"2501 W Burbank Blvd D","City":"Burbank","State":"CA","Zip":"91505"},{"Location":"TASTE CHICAGO","Address":"603 N Hollywood Way","City":"Burbank","State":"CA","Zip":"91505"},{"Location":"TEQUILAS CANTINA AND GRI","Address":"4310 W Magnolia Blvd","City":"Burbank","State":"CA","Zip":"91505"},{"Location":"THE CW NETWORK R2 2FL","Address":"400 N Hollywood Way 2r","City":"Burbank","State":"CA","Zip":"91505"},{"Location":"THE HOLLYWOOD WAY","Address":"1333 N Hollywood Way","City":"Burbank","State":"CA","Zip":"91505"},{"Location":"THE HUB","Address":"2950 N Hollywood Way","City":"Burbank","State":"CA","Zip":"91505"},{"Location":"THE HUB TOO","Address":"2950 N Hollywood Way","City":"Burbank","State":"CA","Zip":"91505"},{"Location":"THE OFFICE BAR & GRILL","Address":"3516 W Victory Blvd","City":"Burbank","State":"CA","Zip":"91505"},{"Location":"THE SNUG","Address":"4108 W Magnolia Blvd","City":"Burbank","State":"CA","Zip":"91505"},{"Location":"THREE R PRINTING INC","Address":"2921 W Burbank Blvd","City":"Burbank","State":"CA","Zip":"91505"},{"Location":"TINHORN FLATS SALOON","Address":"2623 W Magnolia Blvd","City":"Burbank","State":"CA","Zip":"91505"},{"Location":"TOLUCA LAKE DENTISTRY","Address":"4405 W Riverside Dr 300","City":"Burbank","State":"CA","Zip":"91505"},{"Location":"TREYBALL MAGNOLIA","Address":"4321 W Magnolia Blvd","City":"Burbank","State":"CA","Zip":"91505"},{"Location":"TURNER PROPERTIES INC","Address":"3500 W Olive Ave 15thf","City":"Burbank","State":"CA","Zip":"91505"},{"Location":"TURNER PROPERTIES INC 2","Address":"3500 W Olive Ave 15thf","City":"Burbank","State":"CA","Zip":"91505"},{"Location":"TURNER PROPERTIES INC 3","Address":"3500 W Olive Ave 15thf","City":"Burbank","State":"CA","Zip":"91505"},{"Location":"TWENTY FIVE SEVEN PRODUCTIONS","Address":"4119 W Burbank Blvd","City":"Burbank","State":"CA","Zip":"91505"},{"Location":"UFC","Address":"2600 W Olive Ave 1050","City":"Burbank","State":"CA","Zip":"91505"},{"Location":"UMAMI BURGER BURBANK","Address":"4300 W Riverside Dr","City":"Burbank","State":"CA","Zip":"91505"},{"Location":"VALLARTA SUPERMARKET #17","Address":"10950 Sherman Way 110","City":"Burbank","State":"CA","Zip":"91505"},{"Location":"VARGO PHYSICAL THERAPY","Address":"3425 W Victory Blvd","City":"Burbank","State":"CA","Zip":"91505"},{"Location":"VISION ENTERTAINMENT GRO","Address":"4404 W Riverside Dr A","City":"Burbank","State":"CA","Zip":"91505"},{"Location":"VISION FITNESS","Address":"2707 W Burbank Blvd","City":"Burbank","State":"CA","Zip":"91505"},{"Location":"VISUAL DATA MEDIA SERVICES","Address":"610 N Hollywood Way","City":"Burbank","State":"CA","Zip":"91505"},{"Location":"WARNER BROS STUDIO FACILITIES","Address":"4001 W Olive Ave 118","City":"Burbank","State":"CA","Zip":"91505"},{"Location":"WARNER BROTHERS","Address":"411 N Hollywood Way Rm113","City":"Burbank","State":"CA","Zip":"91505"},{"Location":"WOK TO GO","Address":"521 N Hollywood Way D","City":"Burbank","State":"CA","Zip":"91505"},{"Location":"WWTVM 1","Address":"4411 W Olive Ave","City":"Burbank","State":"CA","Zip":"91505"},{"Location":"WWTVM 2","Address":"4411 W Olive Ave","City":"Burbank","State":"CA","Zip":"91505"},{"Location":"WWTVM 3","Address":"4411 W Olive Ave","City":"Burbank","State":"CA","Zip":"91505"}]