[{"Location":"1928  JEWELRY","Address":"3000 W Empire Ave","City":"Burbank","State":"CA","Zip":"91504"},{"Location":"2255 PARTNERS LP","Address":"2255 N Ontario St 105","City":"Burbank","State":"CA","Zip":"91504"},{"Location":"24 HOUR FITNESS #883","Address":"1903 W Empire Ave","City":"Burbank","State":"CA","Zip":"91504"},{"Location":"3100 PARTNERS LLC","Address":"2333 N Ontario St","City":"Burbank","State":"CA","Zip":"91504"},{"Location":"ALLIANZ GLOBAL RISKS US INSUR","Address":"2350 W Empire Ave","City":"Burbank","State":"CA","Zip":"91504"},{"Location":"ARGGENTINE ASSOC OF LOS","Address":"2100 N Glenoaks Blvd","City":"Burbank","State":"CA","Zip":"91504"},{"Location":"AUTHENTIC ENTERTAINMENT","Address":"2860 N Naomi St","City":"Burbank","State":"CA","Zip":"91504"},{"Location":"BANDMERCH LLC","Address":"3120 W Empire Ave","City":"Burbank","State":"CA","Zip":"91504"},{"Location":"BURBANK SHAKEYS 7","Address":"1300 San Fernando Rd","City":"Burbank","State":"CA","Zip":"91504"},{"Location":"CAST & CREW PAYROLL LLC","Address":"2300 W Empire Ave 5thf","City":"Burbank","State":"CA","Zip":"91504"},{"Location":"CINEMILLS","Address":"2021 N Lincoln St","City":"Burbank","State":"CA","Zip":"91504"},{"Location":"COURTYARD BY MARRIOTT BURBANK","Address":"2100 W Empire Ave","City":"Burbank","State":"CA","Zip":"91504"},{"Location":"CRANE HYDRO-AIRE","Address":"3000 Winona Ave","City":"Burbank","State":"CA","Zip":"91504"},{"Location":"DAVITA #4021 BURBANK","Address":"1211 N San Fernando Blvd","City":"Burbank","State":"CA","Zip":"91504"},{"Location":"DELUXE DIGITAL CREATIVE","Address":"2400 W Empire Ave 300","City":"Burbank","State":"CA","Zip":"91504"},{"Location":"DELUXE MEDIA   STUDIO","Address":"2400 W Empire Ave 400","City":"Burbank","State":"CA","Zip":"91504"},{"Location":"DIAGNOSTIC LABORTORY","Address":"2820 N Ontario St","City":"Burbank","State":"CA","Zip":"91504"},{"Location":"ECLIPSE ADVERTISING","Address":"2255 N Ontario St 230","City":"Burbank","State":"CA","Zip":"91504"},{"Location":"ENTERPRISE RENT A CAR","Address":"3220 Winona Ave","City":"Burbank","State":"CA","Zip":"91504"},{"Location":"ENTERTAINMENT PARTNERS","Address":"2835 N Naomi St","City":"Burbank","State":"CA","Zip":"91504"},{"Location":"EXOTIC THAI CUISINE","Address":"1212 N San Fernando Blvd H","City":"Burbank","State":"CA","Zip":"91504"},{"Location":"FENDER LA CENTER STAGING","Address":"3400 Winona Ave","City":"Burbank","State":"CA","Zip":"91504"},{"Location":"FENDER MUSICAL INSTRUMENTS","Address":"3001 N San Fernando Blvd","City":"Burbank","State":"CA","Zip":"91504"},{"Location":"FIREMANS FUND","Address":"2350 W Empire Ave 200","City":"Burbank","State":"CA","Zip":"91504"},{"Location":"GARAGERZ","Address":"3330 Burton Ave","City":"Burbank","State":"CA","Zip":"91504"},{"Location":"GLOBAL SOLUTIONS DISTRIBUTORS","Address":"2125 Floyd St","City":"Burbank","State":"CA","Zip":"91504"},{"Location":"HAMPTON INN & SUITES (0055248)","Address":"7501 N Glenoaks Blvd","City":"Burbank","State":"CA","Zip":"91504"},{"Location":"HART ENTERTAINMENT","Address":"2301 W Empire Ave","City":"Burbank","State":"CA","Zip":"91504"},{"Location":"HIGHLAND GLEN INVESTMENT","Address":"2537 N Ontario St","City":"Burbank","State":"CA","Zip":"91504"},{"Location":"HILL STREET CAFE","Address":"3301 N Glenoaks Blvd","City":"Burbank","State":"CA","Zip":"91504"},{"Location":"I NAILS AND SPA","Address":"1121 N San Fernando Blvd","City":"Burbank","State":"CA","Zip":"91504"},{"Location":"IMAGIC","Address":"2810 N Lima St","City":"Burbank","State":"CA","Zip":"91504"},{"Location":"JIMMYS PLACE","Address":"1623 N San Fernando Blvd","City":"Burbank","State":"CA","Zip":"91504"},{"Location":"K KICS","Address":"444 Irving Dr 202","City":"Burbank","State":"CA","Zip":"91504"},{"Location":"KIDS CASTLE ESQ","Address":"2814 W Empire Ave","City":"Burbank","State":"CA","Zip":"91504"},{"Location":"KMART","Address":"1000 San Fernando Rd","City":"Burbank","State":"CA","Zip":"91504"},{"Location":"KRCA TELEVISION","Address":"1813 N Victory Pl","City":"Burbank","State":"CA","Zip":"91504"},{"Location":"LA BAMBA RESTAURANT","Address":"2600 N Glenoaks Blvd","City":"Burbank","State":"CA","Zip":"91504"},{"Location":"LAWYERS MUTUAL","Address":"3110 W Empire Ave","City":"Burbank","State":"CA","Zip":"91504"},{"Location":"LAWYERS TITLE COMPANY","Address":"7530 N Glenoaks Blvd","City":"Burbank","State":"CA","Zip":"91504"},{"Location":"MANUEL GONZALEZ","Address":"2001 N Buena Vista St","City":"Burbank","State":"CA","Zip":"91504"},{"Location":"MHER ASATRYAN DDS INC","Address":"928 N San Fernando Blvd E","City":"Burbank","State":"CA","Zip":"91504"},{"Location":"MODERN VIDEOFILM","Address":"2300 W Empire Ave 200","City":"Burbank","State":"CA","Zip":"91504"},{"Location":"NAITASTIC","Address":"2128 N Glenoaks Blvd 102","City":"Burbank","State":"CA","Zip":"91504"},{"Location":"NERDIST IND","Address":"2525 N Naomi St Rm202","City":"Burbank","State":"CA","Zip":"91504"},{"Location":"NEW EDIT","Address":"1641 Maria St","City":"Burbank","State":"CA","Zip":"91504"},{"Location":"ORIGINAL PRODUCTIONS","Address":"2435 N Naomi St","City":"Burbank","State":"CA","Zip":"91504"},{"Location":"PACIFICO ENGINEERING AND TELEV","Address":"3086 N Lima St","City":"Burbank","State":"CA","Zip":"91504"},{"Location":"PERFORMANCE DESIGNED PRO","Address":"2300 W Empire Ave 650","City":"Burbank","State":"CA","Zip":"91504"},{"Location":"PERLITE PLASTERING","Address":"2707 W Empire Ave","City":"Burbank","State":"CA","Zip":"91504"},{"Location":"PLAYBACK TECHNOLOGIES INC","Address":"2530 N Ontario St","City":"Burbank","State":"CA","Zip":"91504"},{"Location":"PLAYBOY PLUS ENTERTAINMENT","Address":"2300 W Empire Ave 7","City":"Burbank","State":"CA","Zip":"91504"},{"Location":"RALPHS GROCERY 712","Address":"1100 N San Fernando Blvd","City":"Burbank","State":"CA","Zip":"91504"},{"Location":"RAMADA INN(0013670)","Address":"2900 N San Fernando Blvd","City":"Burbank","State":"CA","Zip":"91504"},{"Location":"ROCKY FISH AND POUTRY","Address":"1212 N San Fernando Blvd","City":"Burbank","State":"CA","Zip":"91504"},{"Location":"ROCKYS","Address":"2019 N Lincoln St","City":"Burbank","State":"CA","Zip":"91504"},{"Location":"RON LEE'S ART STUDIO","Address":"3000 W Empire Ave","City":"Burbank","State":"CA","Zip":"91504"},{"Location":"ROVI CORPORATION","Address":"2233 N Ontario St","City":"Burbank","State":"CA","Zip":"91504"},{"Location":"RX EXCHANGE","Address":"2545 N Ontario St","City":"Burbank","State":"CA","Zip":"91504"},{"Location":"RYANHERCO","Address":"3010 N San Fernando Blvd","City":"Burbank","State":"CA","Zip":"91504"},{"Location":"SANDBOX ENTERTAINMENT LLC","Address":"2814 W Empire Ave","City":"Burbank","State":"CA","Zip":"91504"},{"Location":"SAVVIS","Address":"3015 Winona Ave","City":"Burbank","State":"CA","Zip":"91504"},{"Location":"SCHOOL OF BUSINESS","Address":"7500 N Glenoaks Blvd","City":"Burbank","State":"CA","Zip":"91504"},{"Location":"STEREOD","Address":"3355 W Empire Ave 100","City":"Burbank","State":"CA","Zip":"91504"},{"Location":"STUDIO PRODUCTIONS","Address":"4000 Cohasset","City":"Burbank","State":"CA","Zip":"91504"},{"Location":"TARGET #1362","Address":"1800 W Empire Ave","City":"Burbank","State":"CA","Zip":"91504"},{"Location":"THE CIGAR SHOP OF BURBANK","Address":"1700 N San Fernando Blvd","City":"Burbank","State":"CA","Zip":"91504"},{"Location":"THE WHISKEY BAND","Address":"1221 N San Fernando Blvd","City":"Burbank","State":"CA","Zip":"91504"},{"Location":"TONIR CAFE","Address":"3236 N San Fernando Blvd","City":"Burbank","State":"CA","Zip":"91504"},{"Location":"TOTAL ROOFING INC","Address":"3334 Burton Ave","City":"Burbank","State":"CA","Zip":"91504"},{"Location":"TRI TECH RESTORATION","Address":"3301 N San Fernando Blvd","City":"Burbank","State":"CA","Zip":"91504"},{"Location":"TSA BURBANK GLENDALE PASADENA","Address":"2919 W Empire Ave","City":"Burbank","State":"CA","Zip":"91504"},{"Location":"UNITED TOWING","Address":"2509 N Ontario St","City":"Burbank","State":"CA","Zip":"91504"},{"Location":"WALT DISNEY COMPANY","Address":"3355 W Empire Ave 1","City":"Burbank","State":"CA","Zip":"91504"},{"Location":"WAR INC","Address":"2015 N Lincoln St","City":"Burbank","State":"CA","Zip":"91504"},{"Location":"WINGSTOP","Address":"928 N San Fernando Blvd H","City":"Burbank","State":"CA","Zip":"91504"},{"Location":"YAHOO!","Address":"3333 W Empire Ave","City":"Burbank","State":"CA","Zip":"91504"}]