[{"Location":"2 G DIGITAL","Address":"280 E Magnolia Blvd","City":"Burbank","State":"CA","Zip":"91502"},{"Location":"AB ENTERTAINMENT","Address":"333 S Front St 201","City":"Burbank","State":"CA","Zip":"91502"},{"Location":"ACCENT HAIR AND NAIL SPA","Address":"162 E Orange Grove Ave","City":"Burbank","State":"CA","Zip":"91502"},{"Location":"ACF BURBANK YOUTH CENTER","Address":"75 E Santa Anita Ave","City":"Burbank","State":"CA","Zip":"91502"},{"Location":"ALAMEDA PARK DENTAL","Address":"221 W Alameda Ave 101","City":"Burbank","State":"CA","Zip":"91502"},{"Location":"AMECI PIZZA AND PASTA","Address":"240 N Glenoaks Blvd","City":"Burbank","State":"CA","Zip":"91502"},{"Location":"ANEFX","Address":"217 N Lake St","City":"Burbank","State":"CA","Zip":"91502"},{"Location":"ANNETENNA PRODUCTIONS","Address":"291 S Lake St","City":"Burbank","State":"CA","Zip":"91502"},{"Location":"APPLIED MINDS","Address":"801 N Lake St","City":"Burbank","State":"CA","Zip":"91502"},{"Location":"ARIES PREPARED BEEF","Address":"17 W Magnolia Blvd","City":"Burbank","State":"CA","Zip":"91502"},{"Location":"ATLAS DIGITAL","Address":"170 S Flower St","City":"Burbank","State":"CA","Zip":"91502"},{"Location":"BARNEY'S BEANERY","Address":"250 N First St","City":"Burbank","State":"CA","Zip":"91502"},{"Location":"BARRAGANS","Address":"730 N Victory Blvd","City":"Burbank","State":"CA","Zip":"91502"},{"Location":"BATCADE INC.","Address":"220 N Victory Blvd","City":"Burbank","State":"CA","Zip":"91502"},{"Location":"BIG MAMAS & PAPAS","Address":"321 E Alameda Ave","City":"Burbank","State":"CA","Zip":"91502"},{"Location":"BIGBOSS CREATIVE","Address":"135 W Magnolia Blvd","City":"Burbank","State":"CA","Zip":"91502"},{"Location":"BIOSCRIP  INFUSION SERVICES","Address":"320 S Flower St","City":"Burbank","State":"CA","Zip":"91502"},{"Location":"BJS RESTAURANT #420","Address":"107 S 1st St","City":"Burbank","State":"CA","Zip":"91502"},{"Location":"BOSS LITHO","Address":"333 S Front St 210","City":"Burbank","State":"CA","Zip":"91502"},{"Location":"BUFFALO WILD WINGS #3466","Address":"127 E Palm Ave","City":"Burbank","State":"CA","Zip":"91502"},{"Location":"BURBANK BAR & GRILLE","Address":"112 N San Fernando Blvd","City":"Burbank","State":"CA","Zip":"91502"},{"Location":"BURBANK RANGE INC","Address":"1060 N Lake St","City":"Burbank","State":"CA","Zip":"91502"},{"Location":"CABRINI CLUB INC","Address":"134 S Glenoaks Blvd","City":"Burbank","State":"CA","Zip":"91502"},{"Location":"CALIFORNIA PIZZA KITCHEN #47","Address":"601 N San Fernando Blvd","City":"Burbank","State":"CA","Zip":"91502"},{"Location":"CARMAX #7126","Address":"1000 S Flower St","City":"Burbank","State":"CA","Zip":"91502"},{"Location":"CC INSTITUTE","Address":"101 W Alameda Ave 200","City":"Burbank","State":"CA","Zip":"91502"},{"Location":"CENTRAL CASTING","Address":"220 S Flower St","City":"Burbank","State":"CA","Zip":"91502"},{"Location":"CHEVY'S 2049","Address":"701 N San Fernando Blvd","City":"Burbank","State":"CA","Zip":"91502"},{"Location":"CROSSCUT FILMS","Address":"100 E Cedar Ave B18","City":"Burbank","State":"CA","Zip":"91502"},{"Location":"CRUNCH FITNESS","Address":"761 N San Fernando Blvd","City":"Burbank","State":"CA","Zip":"91502"},{"Location":"CWA LOCAL 9503","Address":"825 S Victory Blvd","City":"Burbank","State":"CA","Zip":"91502"},{"Location":"DAPHNES","Address":"1781 N Victory Pl","City":"Burbank","State":"CA","Zip":"91502"},{"Location":"DAY AND NIGHT BAIL BONDS","Address":"221 N 3rd St","City":"Burbank","State":"CA","Zip":"91502"},{"Location":"DON CUCOS MEXICAN RESTAURANT","Address":"218 E Orange Grove Ave","City":"Burbank","State":"CA","Zip":"91502"},{"Location":"EL TAPATIO RESTAURANT","Address":"926 S San Fernando Blvd","City":"Burbank","State":"CA","Zip":"91502"},{"Location":"EMANON AIRCRAFT","Address":"404 S Lake St","City":"Burbank","State":"CA","Zip":"91502"},{"Location":"EPN - DANNY CHAMORRO","Address":"441 N Varney St 101","City":"Burbank","State":"CA","Zip":"91502"},{"Location":"EPN - MICAL T. PYEATT","Address":"303 N Glenoaks Blvd","City":"Burbank","State":"CA","Zip":"91502"},{"Location":"ERINS FITNESS CLUB","Address":"150 W Cypress Ave E","City":"Burbank","State":"CA","Zip":"91502"},{"Location":"FANTASIA BILLIARDS","Address":"131 N San Fernando Blvd","City":"Burbank","State":"CA","Zip":"91502"},{"Location":"FAVORITE LIQUOR","Address":"533 S Victory Blvd","City":"Burbank","State":"CA","Zip":"91502"},{"Location":"FIT BODY BOOTCAMP","Address":"539 N Glenoaks Blvd","City":"Burbank","State":"CA","Zip":"91502"},{"Location":"FLAPPERS COMEDY CLUB","Address":"102 E Magnolia Blvd","City":"Burbank","State":"CA","Zip":"91502"},{"Location":"FLAWLESS LAER CENTER","Address":"435 N Glenoaks Blvd","City":"Burbank","State":"CA","Zip":"91502"},{"Location":"FORMOSA INTERACTIVE","Address":"250 E Olive Ave 350","City":"Burbank","State":"CA","Zip":"91502"},{"Location":"FUDDRUCKERS #3136","Address":"221 N San Fernando Blvd","City":"Burbank","State":"CA","Zip":"91502"},{"Location":"GAUCHO GRILL BURBANK","Address":"269 E Palm Ave","City":"Burbank","State":"CA","Zip":"91502"},{"Location":"GLENOAKS CAR WASH","Address":"444 S Glenoaks Blvd","City":"Burbank","State":"CA","Zip":"91502"},{"Location":"GLOBAL POWER MARKET","Address":"350 N Glenoaks Blvd 207","City":"Burbank","State":"CA","Zip":"91502"},{"Location":"GORDON BIERSCH BURBANK #4612","Address":"145 S San Fernando Blvd","City":"Burbank","State":"CA","Zip":"91502"},{"Location":"GRANVILLE   CAFE","Address":"121 N San Fernando Blvd","City":"Burbank","State":"CA","Zip":"91502"},{"Location":"GREAT STEAK AND POTATO","Address":"1737 N Victory Pl","City":"Burbank","State":"CA","Zip":"91502"},{"Location":"HAPPY AND RELAXED","Address":"213 N Victory Blvd","City":"Burbank","State":"CA","Zip":"91502"},{"Location":"HASKEL INTERNATIONAL","Address":"100 E Graham Pl","City":"Burbank","State":"CA","Zip":"91502"},{"Location":"HEADQUARTERS","Address":"1101 S Flower St","City":"Burbank","State":"CA","Zip":"91502"},{"Location":"HOKKAIDO SEAFOOD BUFFET","Address":"109 E Palm Ave","City":"Burbank","State":"CA","Zip":"91502"},{"Location":"HOOK BURGER BISTRO","Address":"1731 N Victory Pl","City":"Burbank","State":"CA","Zip":"91502"},{"Location":"HOOTERS BURBANK BRK204","Address":"600 N 1st St","City":"Burbank","State":"CA","Zip":"91502"},{"Location":"IGLOO MUSIC","Address":"228 W Palm Ave E","City":"Burbank","State":"CA","Zip":"91502"},{"Location":"INTECH MACHINE","Address":"825 N Lake St C","City":"Burbank","State":"CA","Zip":"91502"},{"Location":"ISLANDS RESTAURANT #010","Address":"101 E Orange Grove Ave","City":"Burbank","State":"CA","Zip":"91502"},{"Location":"KABUKI RESTAURANT","Address":"201 N San Fernando Blvd","City":"Burbank","State":"CA","Zip":"91502"},{"Location":"KEY CODE MEDIA","Address":"270 S Flower St","City":"Burbank","State":"CA","Zip":"91502"},{"Location":"LA VIP BUS LLC","Address":"150 S Glenoaks Blvd","City":"Burbank","State":"CA","Zip":"91502"},{"Location":"LANCERS RESTAURANT","Address":"697 N Victory Blvd","City":"Burbank","State":"CA","Zip":"91502"},{"Location":"LAST STOP PROPS & SCENIC","Address":"111 E Linden Ave","City":"Burbank","State":"CA","Zip":"91502"},{"Location":"LIGHTSTAGE","Address":"166 S Victory Blvd","City":"Burbank","State":"CA","Zip":"91502"},{"Location":"LOUIE AND STETTLER","Address":"303 N Glenoaks Blvd 4","City":"Burbank","State":"CA","Zip":"91502"},{"Location":"MACY'S WEST 504","Address":"201 E Cypress Ave","City":"Burbank","State":"CA","Zip":"91502"},{"Location":"MACY'S WEST 504 BR","Address":"200 E Cypress Ave","City":"Burbank","State":"CA","Zip":"91502"},{"Location":"MAINTCO","Address":"20 W Burbank Blvd","City":"Burbank","State":"CA","Zip":"91502"},{"Location":"MARKET CITY CAFE","Address":"164 E Palm Ave","City":"Burbank","State":"CA","Zip":"91502"},{"Location":"MEDIA CITY SUN","Address":"249 E Palm Ave","City":"Burbank","State":"CA","Zip":"91502"},{"Location":"MEDIA MAX ONLINE","Address":"550 N 3rd St","City":"Burbank","State":"CA","Zip":"91502"},{"Location":"MEN'S WEARHOUSE #2740","Address":"1403 N Victory Pl","City":"Burbank","State":"CA","Zip":"91502"},{"Location":"MOANA HAWAIIAN BBQ","Address":"150 N San Fernando Blvd","City":"Burbank","State":"CA","Zip":"91502"},{"Location":"MOMOTARO","Address":"509 S Glenoaks Blvd","City":"Burbank","State":"CA","Zip":"91502"},{"Location":"MOMOTARO FOOD INC","Address":"507 S Glenoaks Blvd","City":"Burbank","State":"CA","Zip":"91502"},{"Location":"NAIL AND HAIR BAR","Address":"107 E Alameda Ave","City":"Burbank","State":"CA","Zip":"91502"},{"Location":"NATIONAL CAPTIONING INSTITUE","Address":"303 N Glenoaks Blvd 200","City":"Burbank","State":"CA","Zip":"91502"},{"Location":"NICKELODEON ANIMATION ST","Address":"231 W Olive Ave","City":"Burbank","State":"CA","Zip":"91502"},{"Location":"NICKELODEON ANIMATION STUDIOS","Address":"231 W Olive Ave","City":"Burbank","State":"CA","Zip":"91502"},{"Location":"NICKELODEON ANIMATION STUDIOS2","Address":"231 W Olive Ave","City":"Burbank","State":"CA","Zip":"91502"},{"Location":"NORDSTROM RACK - EMPIRE CENTER","Address":"1601 N Victory Pl","City":"Burbank","State":"CA","Zip":"91502"},{"Location":"NORTH END PIZZERIA","Address":"212 E Orange Grove Ave","City":"Burbank","State":"CA","Zip":"91502"},{"Location":"ODF  CORP","Address":"119 E Graham Pl B","City":"Burbank","State":"CA","Zip":"91502"},{"Location":"OLIVE GARDEN #1570","Address":"1741 N Victory Pl","City":"Burbank","State":"CA","Zip":"91502"},{"Location":"OPUS PLATINUM","Address":"108 N San Fernando Blvd","City":"Burbank","State":"CA","Zip":"91502"},{"Location":"ORIGINAL MARTINO'S BAKERY","Address":"335 N Victory Blvd","City":"Burbank","State":"CA","Zip":"91502"},{"Location":"ORIGINAL PRODUCTIONS","Address":"308 W Verdugo Ave","City":"Burbank","State":"CA","Zip":"91502"},{"Location":"ORIGINAL PRODUCTIONS","Address":"400 S Victory Blvd 300","City":"Burbank","State":"CA","Zip":"91502"},{"Location":"ORIGINAL PRODUCTIONS 3","Address":"308 W Verdugo Ave","City":"Burbank","State":"CA","Zip":"91502"},{"Location":"OUTBACK STEAKHOUSE","Address":"1761 N Victory Pl","City":"Burbank","State":"CA","Zip":"91502"},{"Location":"PETROL ADVERTISING","Address":"443 N Varney St","City":"Burbank","State":"CA","Zip":"91502"},{"Location":"PF CHANG'S #9934","Address":"201 E Magnolia Blvd 281","City":"Burbank","State":"CA","Zip":"91502"},{"Location":"PINK SNEAKER PRODUCTIONS INC","Address":"175 E Olive Ave","City":"Burbank","State":"CA","Zip":"91502"},{"Location":"PUPUSERIA DEL VALLE","Address":"431 S Victory Blvd","City":"Burbank","State":"CA","Zip":"91502"},{"Location":"RAAD INCORPORATED","Address":"300 N Victory Blvd","City":"Burbank","State":"CA","Zip":"91502"},{"Location":"RAFO'S CAFE","Address":"101 N Victory Blvd K","City":"Burbank","State":"CA","Zip":"91502"},{"Location":"REALITY CHECK SYSTEMS","Address":"726 S Flower St","City":"Burbank","State":"CA","Zip":"91502"},{"Location":"RED ORANGE PRODUCTIONS","Address":"1111 S Victory Blvd","City":"Burbank","State":"CA","Zip":"91502"},{"Location":"ROBERT DIAZ INC","Address":"151 W Providencia Ave","City":"Burbank","State":"CA","Zip":"91502"},{"Location":"ROUND ABOUT","Address":"217 S Lake St","City":"Burbank","State":"CA","Zip":"91502"},{"Location":"SEASON THAI CUISINE","Address":"166 E Orange Grove Ave","City":"Burbank","State":"CA","Zip":"91502"},{"Location":"SERCURITAS SERCURITY SERV","Address":"601 S Glenoaks Blvd","City":"Burbank","State":"CA","Zip":"91502"},{"Location":"SHARKEY'S BISTRO","Address":"520 S Glenoaks Blvd","City":"Burbank","State":"CA","Zip":"91502"},{"Location":"SHARKYS","Address":"1791 N Victory Pl","City":"Burbank","State":"CA","Zip":"91502"},{"Location":"SOUNDTRONICS WIRELESS INC","Address":"111 W Ash Ave","City":"Burbank","State":"CA","Zip":"91502"},{"Location":"SPECTRUM HOME HEALTH","Address":"907 S Victory Blvd","City":"Burbank","State":"CA","Zip":"91502"},{"Location":"STORY TAVERN","Address":"150 S San Fernando Blvd 40","City":"Burbank","State":"CA","Zip":"91502"},{"Location":"SWANER HARDWOOD COMPANY","Address":"5 W Magnolia Blvd","City":"Burbank","State":"CA","Zip":"91502"},{"Location":"TAURIAN BA%2CLLC 1078","Address":"235 S 1st St","City":"Burbank","State":"CA","Zip":"91502"},{"Location":"THE CORNER BAR","Address":"924 S San Fernando Blvd","City":"Burbank","State":"CA","Zip":"91502"},{"Location":"THOMAS REALTY CO INC","Address":"150 E Olive Ave 308","City":"Burbank","State":"CA","Zip":"91502"},{"Location":"TIM TILTON T%40T","Address":"333 S Front St 100","City":"Burbank","State":"CA","Zip":"91502"},{"Location":"TOM GREEN STUDIO","Address":"33 E Orange Grove Ave 104","City":"Burbank","State":"CA","Zip":"91502"},{"Location":"TRAVIESO PRODUCTIONS","Address":"1205 S Flower St 210","City":"Burbank","State":"CA","Zip":"91502"},{"Location":"TYLIE JONES AND ASSOC","Address":"58 E Santa Anita Ave","City":"Burbank","State":"CA","Zip":"91502"},{"Location":"UNIVERSAL ENTARTAINMENT","Address":"270 E Magnolia Blvd B","City":"Burbank","State":"CA","Zip":"91502"},{"Location":"UNIVERSAL ENTERTAINMENT","Address":"260 E Magnolia Blvd","City":"Burbank","State":"CA","Zip":"91502"},{"Location":"UNIVERSAL STUDIO CREDIT UNION","Address":"175 E Olive Ave 100","City":"Burbank","State":"CA","Zip":"91502"},{"Location":"VILMA CUTS","Address":"212 E Olive Ave","City":"Burbank","State":"CA","Zip":"91502"},{"Location":"WAHOO'S FISH TACO #123","Address":"201 E Magnolia Blvd 381","City":"Burbank","State":"CA","Zip":"91502"},{"Location":"WOKEANO CAFE","Address":"150 S San Fernando Blvd 20","City":"Burbank","State":"CA","Zip":"91502"}]