[{"Location":"ACCESS HOLLYWOOD #1","Address":"3000 W Alameda Ave A301","City":"Burbank","State":"CA","Zip":"91523"},{"Location":"ACCESS HOLLYWOOD #2","Address":"3000 W Alameda Ave E","City":"Burbank","State":"CA","Zip":"91523"},{"Location":"ACCESS HOLLYWOOD #3","Address":"3000 W Alameda Ave E","City":"Burbank","State":"CA","Zip":"91523"},{"Location":"ACCESS HOLLYWOOD #4","Address":"3000 W Alameda Ave","City":"Burbank","State":"CA","Zip":"91523"},{"Location":"ACCESS HOLLYWOOD #5","Address":"3000 W Alameda Ave A301","City":"Burbank","State":"CA","Zip":"91523"},{"Location":"BRAVO MEDIA","Address":"3000 W Alameda Ave 6363","City":"Burbank","State":"CA","Zip":"91523"},{"Location":"CATALINA MEDIA DEV II","Address":"3000 W Alameda Ave","City":"Burbank","State":"CA","Zip":"91523"},{"Location":"CATALINA MEDIA DEVELOPME","Address":"3000 W Alameda Ave","City":"Burbank","State":"CA","Zip":"91523"},{"Location":"ESTRELLA COMMUNICATIONS","Address":"3000 W Alameda Ave 3365","City":"Burbank","State":"CA","Zip":"91523"},{"Location":"KNBC%2FPRTRK","Address":"3000 W Alameda Ave","City":"Burbank","State":"CA","Zip":"91523"},{"Location":"ROCART INC","Address":"3000 W Alameda Ave","City":"Burbank","State":"CA","Zip":"91523"},{"Location":"SANTOS","Address":"3000 W Alameda Ave","City":"Burbank","State":"CA","Zip":"91523"},{"Location":"THE ELLEN DEGENERES SHOW","Address":"3000 W Alameda Ave 2700","City":"Burbank","State":"CA","Zip":"91523"},{"Location":"ACCESS HOLLYWOOD #1","Address":"3000 W Alameda Ave A301","City":"Burbank","State":"CA","Zip":"91523"},{"Location":"ACCESS HOLLYWOOD #2","Address":"3000 W Alameda Ave E","City":"Burbank","State":"CA","Zip":"91523"},{"Location":"ACCESS HOLLYWOOD #3","Address":"3000 W Alameda Ave E","City":"Burbank","State":"CA","Zip":"91523"},{"Location":"ACCESS HOLLYWOOD #4","Address":"3000 W Alameda Ave","City":"Burbank","State":"CA","Zip":"91523"},{"Location":"ACCESS HOLLYWOOD #5","Address":"3000 W Alameda Ave A301","City":"Burbank","State":"CA","Zip":"91523"},{"Location":"BRAVO MEDIA","Address":"3000 W Alameda Ave 6363","City":"Burbank","State":"CA","Zip":"91523"},{"Location":"CATALINA MEDIA DEV II","Address":"3000 W Alameda Ave","City":"Burbank","State":"CA","Zip":"91523"},{"Location":"CATALINA MEDIA DEVELOPME","Address":"3000 W Alameda Ave","City":"Burbank","State":"CA","Zip":"91523"},{"Location":"ESTRELLA COMMUNICATIONS","Address":"3000 W Alameda Ave 3365","City":"Burbank","State":"CA","Zip":"91523"},{"Location":"KNBC%2FPRTRK","Address":"3000 W Alameda Ave","City":"Burbank","State":"CA","Zip":"91523"},{"Location":"ROCART INC","Address":"3000 W Alameda Ave","City":"Burbank","State":"CA","Zip":"91523"},{"Location":"SANTOS","Address":"3000 W Alameda Ave","City":"Burbank","State":"CA","Zip":"91523"},{"Location":"THE ELLEN DEGENERES SHOW","Address":"3000 W Alameda Ave 2700","City":"Burbank","State":"CA","Zip":"91523"}]