[{"Location":"120 INFILE SECOND FL","Address":"4000 Warner Blvd 44","City":"Burbank","State":"CA","Zip":"91522"},{"Location":"ELLEN  SHOW BLD 19-1","Address":"4000 Warner Blvd 19","City":"Burbank","State":"CA","Zip":"91522"},{"Location":"ELLEN SHOW BLD 19-2","Address":"4000 Warner Blvd 19","City":"Burbank","State":"CA","Zip":"91522"},{"Location":"ELLEN SHOW BLD 19-3","Address":"4000 Warner Blvd 19","City":"Burbank","State":"CA","Zip":"91522"},{"Location":"KEN NAGAYAMA MARTIAL ART","Address":"2809 Burbank Bluebird","City":"Burbank","State":"CA","Zip":"91522"},{"Location":"STAGE 25","Address":"4000 Warner Blvd 25","City":"Burbank","State":"CA","Zip":"91522"},{"Location":"STUDIO FACILITIES","Address":"4000 Warner Blvd","City":"Burbank","State":"CA","Zip":"91522"},{"Location":"THE REAL","Address":"4000 Warner Blvd B36","City":"Burbank","State":"CA","Zip":"91522"},{"Location":"THE REAL","Address":"4000 Warner Blvd Stage","City":"Burbank","State":"CA","Zip":"91522"},{"Location":"WARNER BROS","Address":"4000 Warner Blvd","City":"Burbank","State":"CA","Zip":"91522"},{"Location":"WARNER BROS BUILD 67","Address":"4000 Warner Bros 67","City":"Burbank","State":"CA","Zip":"91522"},{"Location":"WARNER BROS CONAN","Address":"4000 Warner Blvd","City":"Burbank","State":"CA","Zip":"91522"},{"Location":"WARNER BROS CONAN 2","Address":"4000 Warner Blvd","City":"Burbank","State":"CA","Zip":"91522"},{"Location":"WARNER BROS CONAN 3","Address":"4000 Warner Blvd","City":"Burbank","State":"CA","Zip":"91522"},{"Location":"WARNER BROS CONAN OFFICE","Address":"4000 Warner Blvd","City":"Burbank","State":"CA","Zip":"91522"},{"Location":"WARNER BROS HUMAN RESOURCES","Address":"4000 Warner Blvd 2252","City":"Burbank","State":"CA","Zip":"91522"},{"Location":"WARNER BROS STUD FAC   34R","Address":"4000 Warner Blvd","City":"Burbank","State":"CA","Zip":"91522"},{"Location":"WARNER BROS STUDIO FACIL","Address":"4000 Warner Blvd Blg 6","City":"Burbank","State":"CA","Zip":"91522"},{"Location":"WARNER BROS. STUDIO","Address":"4000 Warner Blvd 184","City":"Burbank","State":"CA","Zip":"91522"},{"Location":"WARNER BROS. STUDIO","Address":"400       Warner Blvd Bld","City":"Burbank","State":"CA","Zip":"91522"},{"Location":"WARNER BROTHERS","Address":"4000 Warner Blvd 100","City":"Burbank","State":"CA","Zip":"91522"},{"Location":"WARNER BROTHERS","Address":"4000 Warner Blvd 140","City":"Burbank","State":"CA","Zip":"91522"},{"Location":"WARNER BROTHERS STUDIO","Address":"4000 Warner Blvd 216","City":"Burbank","State":"CA","Zip":"91522"},{"Location":"WARNER BRTHERS BLDG 150","Address":"4000 Warner Blvd Bldg1","City":"Burbank","State":"CA","Zip":"91522"},{"Location":"WB B121","Address":"4000 Warner Blvd B121","City":"Burbank","State":"CA","Zip":"91522"}]