[{"Location":"WALT DISNEY #14","Address":"2300 Riverside Dr","City":"Burbank","State":"CA","Zip":"91521"},{"Location":"WALT DISNEY COMPANY  #27","Address":"500 S Buena Vista St","City":"Burbank","State":"CA","Zip":"91521"},{"Location":"WALT DISNEY COMPANY #1","Address":"500 S Buena Vista St","City":"Burbank","State":"CA","Zip":"91521"},{"Location":"WALT DISNEY COMPANY #10","Address":"500 S Buena Vista St","City":"Burbank","State":"CA","Zip":"91521"},{"Location":"WALT DISNEY COMPANY #11","Address":"500 S Buena Vista St","City":"Burbank","State":"CA","Zip":"91521"},{"Location":"WALT DISNEY COMPANY #12","Address":"500 S Buena Vista St","City":"Burbank","State":"CA","Zip":"91521"},{"Location":"WALT DISNEY COMPANY #13","Address":"2300 Riverside Dr","City":"Burbank","State":"CA","Zip":"91521"},{"Location":"WALT DISNEY COMPANY #2","Address":"500 S Buena Vista St","City":"Burbank","State":"CA","Zip":"91521"},{"Location":"WALT DISNEY COMPANY #26 MC5076","Address":"500 S Buena Vista St","City":"Burbank","State":"CA","Zip":"91521"},{"Location":"WALT DISNEY COMPANY #3","Address":"500 S Buena Vista St","City":"Burbank","State":"CA","Zip":"91521"},{"Location":"WALT DISNEY COMPANY #4","Address":"2300 Riverside Dr","City":"Burbank","State":"CA","Zip":"91521"},{"Location":"WALT DISNEY COMPANY #5","Address":"2300 Riverside Dr","City":"Burbank","State":"CA","Zip":"91521"},{"Location":"WALT DISNEY COMPANY #6","Address":"2300 Riverside Dr","City":"Burbank","State":"CA","Zip":"91521"},{"Location":"WALT DISNEY COMPANY #9","Address":"2300 Riverside Dr","City":"Burbank","State":"CA","Zip":"91521"},{"Location":"WALT DISNEY PICTURES #17","Address":"500 S Buena Vista St","City":"Burbank","State":"CA","Zip":"91521"},{"Location":"WALT DISNEY PICTURES & TV # 19","Address":"500 S Buena Vista St","City":"Burbank","State":"CA","Zip":"91521"},{"Location":"WALT DISNEY PICTURES & TV #15","Address":"500 S Buena Vista St","City":"Burbank","State":"CA","Zip":"91521"},{"Location":"WALT DISNEY PICTURES & TV #16","Address":"500 S Buena Vista St","City":"Burbank","State":"CA","Zip":"91521"},{"Location":"WALT DISNEY PICTURES & TV #18","Address":"500 S Buena Vista St","City":"Burbank","State":"CA","Zip":"91521"},{"Location":"WALT DISNEY PICTURES & TV #20","Address":"500 S Buena Vista St","City":"Burbank","State":"CA","Zip":"91521"},{"Location":"WALT DISNEY PICTURES & TV #21","Address":"500 S Buena Vista St","City":"Burbank","State":"CA","Zip":"91521"},{"Location":"WALT DISNEY PICTURES & TV #22","Address":"500 S Buena Vista St","City":"Burbank","State":"CA","Zip":"91521"},{"Location":"WALT DISNEY PICTURES & TV #23","Address":"500 S Buena Vista St 5076","City":"Burbank","State":"CA","Zip":"91521"},{"Location":"WALT DISNEY PICTURES & TV #24","Address":"500 S Buena Vista St","City":"Burbank","State":"CA","Zip":"91521"},{"Location":"WALT DISNEY PICTURES & TV #25","Address":"500 S Buena Vista St 2512","City":"Burbank","State":"CA","Zip":"91521"},{"Location":"WALT DISNEY SECURITY","Address":"500 S Buena Vista St","City":"Burbank","State":"CA","Zip":"91521"},{"Location":"WALT DISNEY #14","Address":"2300 Riverside Dr","City":"Burbank","State":"CA","Zip":"91521"},{"Location":"WALT DISNEY COMPANY  #27","Address":"500 S Buena Vista St","City":"Burbank","State":"CA","Zip":"91521"},{"Location":"WALT DISNEY COMPANY #1","Address":"500 S Buena Vista St","City":"Burbank","State":"CA","Zip":"91521"},{"Location":"WALT DISNEY COMPANY #10","Address":"500 S Buena Vista St","City":"Burbank","State":"CA","Zip":"91521"},{"Location":"WALT DISNEY COMPANY #11","Address":"500 S Buena Vista St","City":"Burbank","State":"CA","Zip":"91521"},{"Location":"WALT DISNEY COMPANY #12","Address":"500 S Buena Vista St","City":"Burbank","State":"CA","Zip":"91521"},{"Location":"WALT DISNEY COMPANY #13","Address":"2300 Riverside Dr","City":"Burbank","State":"CA","Zip":"91521"},{"Location":"WALT DISNEY COMPANY #2","Address":"500 S Buena Vista St","City":"Burbank","State":"CA","Zip":"91521"},{"Location":"WALT DISNEY COMPANY #26 MC5076","Address":"500 S Buena Vista St","City":"Burbank","State":"CA","Zip":"91521"},{"Location":"WALT DISNEY COMPANY #3","Address":"500 S Buena Vista St","City":"Burbank","State":"CA","Zip":"91521"},{"Location":"WALT DISNEY COMPANY #4","Address":"2300 Riverside Dr","City":"Burbank","State":"CA","Zip":"91521"},{"Location":"WALT DISNEY COMPANY #5","Address":"2300 Riverside Dr","City":"Burbank","State":"CA","Zip":"91521"},{"Location":"WALT DISNEY COMPANY #6","Address":"2300 Riverside Dr","City":"Burbank","State":"CA","Zip":"91521"},{"Location":"WALT DISNEY COMPANY #9","Address":"2300 Riverside Dr","City":"Burbank","State":"CA","Zip":"91521"},{"Location":"WALT DISNEY PICTURES #17","Address":"500 S Buena Vista St","City":"Burbank","State":"CA","Zip":"91521"},{"Location":"WALT DISNEY PICTURES & TV # 19","Address":"500 S Buena Vista St","City":"Burbank","State":"CA","Zip":"91521"},{"Location":"WALT DISNEY PICTURES & TV #15","Address":"500 S Buena Vista St","City":"Burbank","State":"CA","Zip":"91521"},{"Location":"WALT DISNEY PICTURES & TV #16","Address":"500 S Buena Vista St","City":"Burbank","State":"CA","Zip":"91521"},{"Location":"WALT DISNEY PICTURES & TV #18","Address":"500 S Buena Vista St","City":"Burbank","State":"CA","Zip":"91521"},{"Location":"WALT DISNEY PICTURES & TV #20","Address":"500 S Buena Vista St","City":"Burbank","State":"CA","Zip":"91521"},{"Location":"WALT DISNEY PICTURES & TV #21","Address":"500 S Buena Vista St","City":"Burbank","State":"CA","Zip":"91521"},{"Location":"WALT DISNEY PICTURES & TV #22","Address":"500 S Buena Vista St","City":"Burbank","State":"CA","Zip":"91521"},{"Location":"WALT DISNEY PICTURES & TV #23","Address":"500 S Buena Vista St 5076","City":"Burbank","State":"CA","Zip":"91521"},{"Location":"WALT DISNEY PICTURES & TV #24","Address":"500 S Buena Vista St","City":"Burbank","State":"CA","Zip":"91521"},{"Location":"WALT DISNEY PICTURES & TV #25","Address":"500 S Buena Vista St 2512","City":"Burbank","State":"CA","Zip":"91521"},{"Location":"WALT DISNEY SECURITY","Address":"500 S Buena Vista St","City":"Burbank","State":"CA","Zip":"91521"}]