[{"Location":"BETTER LIFE SERVICES INC","Address":"11490 Burbank Blvd 3b","City":"N Hollywood","State":"CA","Zip":"91601"},{"Location":"CARING BEAR DENTAL","Address":"5050 Lankershim Blvd","City":"N Hollywood","State":"CA","Zip":"91601"},{"Location":"TOKYO SUSHI BAR","Address":"5239 Lankershim Blvd","City":"N Hollywood","State":"CA","Zip":"91601"},{"Location":"TRAVIS AND MALACHI","Address":"11300 Magnolia Blvd 2","City":"N Hollywood","State":"CA","Zip":"91601"},{"Location":"17 HERTZ","Address":"5253 Lankershim Blvd","City":"North Hollywood","State":"CA","Zip":"91601"},{"Location":"24 HOUR FITNESS #889","Address":"5300 Lankershim Blvd 100","City":"North Hollywood","State":"CA","Zip":"91601"},{"Location":"ACUNAS","Address":"4821 Lankershim Blvd","City":"North Hollywood","State":"CA","Zip":"91601"},{"Location":"ALL CLEAR ENVIRONMENTAL","Address":"5353 Denny Ave","City":"North Hollywood","State":"CA","Zip":"91601"},{"Location":"ANDYS RESTAURANT","Address":"5342 Vineland Ave","City":"North Hollywood","State":"CA","Zip":"91601"},{"Location":"ART INSTITUTE OF CALIFORNIA","Address":"5250 Lankershim Blvd","City":"North Hollywood","State":"CA","Zip":"91601"},{"Location":"AT ONE FITNESS","Address":"11116 Weddington St","City":"North Hollywood","State":"CA","Zip":"91601"},{"Location":"BELLEZZA INC","Address":"11009 Burbank Blvd 112","City":"North Hollywood","State":"CA","Zip":"91601"},{"Location":"BIG WANGS","Address":"5300 Lankershim Blvd","City":"North Hollywood","State":"CA","Zip":"91601"},{"Location":"BLUECROSS PET HOSPITAL","Address":"5505 Tujunga Ave","City":"North Hollywood","State":"CA","Zip":"91601"},{"Location":"BRAKE THE FLOOR PROD","Address":"5446 Satsuma Ave","City":"North Hollywood","State":"CA","Zip":"91601"},{"Location":"BRICKYARDS","Address":"11130 Magnolia Blvd","City":"North Hollywood","State":"CA","Zip":"91601"},{"Location":"BUSSINESS","Address":"5308 Vineland Ave","City":"North Hollywood","State":"CA","Zip":"91601"},{"Location":"CAR FIDELITY","Address":"4864 Lankershim Blvd","City":"North Hollywood","State":"CA","Zip":"91601"},{"Location":"CARL LOVELL  HAIR STUDIO","Address":"4836 Lankershim Blvd","City":"North Hollywood","State":"CA","Zip":"91601"},{"Location":"CHANDLER  LODGE  FOUNDATION","Address":"11455 Chandler Blvd B","City":"North Hollywood","State":"CA","Zip":"91601"},{"Location":"CHANDLER  LODGE FOUNDATION","Address":"11455 Chandler Blvd A","City":"North Hollywood","State":"CA","Zip":"91601"},{"Location":"CHAYO HAIR SALON","Address":"4806 Colfax Ave","City":"North Hollywood","State":"CA","Zip":"91601"},{"Location":"CHERISH THE FAMILY INC","Address":"10512 Magnolia Blvd","City":"North Hollywood","State":"CA","Zip":"91601"},{"Location":"CHIANGSAN THAI CUISINE","Address":"5145 Colfax Ave","City":"North Hollywood","State":"CA","Zip":"91601"},{"Location":"COLEYS JAMAICAS BEST","Address":"10842 Magnolia Blvd","City":"North Hollywood","State":"CA","Zip":"91601"},{"Location":"CRYSTALWERKS","Address":"4940 Vineland Ave","City":"North Hollywood","State":"CA","Zip":"91601"},{"Location":"CUE TECH TELEPROMPTING","Address":"5527 Satsuma Ave","City":"North Hollywood","State":"CA","Zip":"91601"},{"Location":"DISTRICT PUB","Address":"5249 Lankershim Blvd","City":"North Hollywood","State":"CA","Zip":"91601"},{"Location":"DR ALEKSEY","Address":"11300 Magnolia Blvd 5","City":"North Hollywood","State":"CA","Zip":"91601"},{"Location":"DRAGON STREET","Address":"5001 Lankershim Blvd","City":"North Hollywood","State":"CA","Zip":"91601"},{"Location":"E&T FINISHING","Address":"5350 Strohm Ave 13","City":"North Hollywood","State":"CA","Zip":"91601"},{"Location":"FAT BURGER","Address":"11009 Burbank Blvd 126","City":"North Hollywood","State":"CA","Zip":"91601"},{"Location":"FIRESTATION 60","Address":"5320 Tujunga Ave","City":"North Hollywood","State":"CA","Zip":"91601"},{"Location":"FIRESTONE #011533","Address":"4835 Lankershim Blvd","City":"North Hollywood","State":"CA","Zip":"91601"},{"Location":"FIRST UNITED METHODIST","Address":"4832 Tujunga Ave","City":"North Hollywood","State":"CA","Zip":"91601"},{"Location":"G2 GRAPHIC SERVICE","Address":"5510 Cleon Ave","City":"North Hollywood","State":"CA","Zip":"91601"},{"Location":"GIANT TRADING COMPANY INC","Address":"10950 Burbank Blvd","City":"North Hollywood","State":"CA","Zip":"91601"},{"Location":"GM DESIGN","Address":"5350 Biloxi Ave","City":"North Hollywood","State":"CA","Zip":"91601"},{"Location":"GYRO SPECIALIST INC","Address":"10545 Burbank Blvd 201","City":"North Hollywood","State":"CA","Zip":"91601"},{"Location":"HA HA CAFE 1","Address":"5010 Lankershim Blvd","City":"North Hollywood","State":"CA","Zip":"91601"},{"Location":"HARVEY JAY MASON","Address":"5102 Vineland Ave","City":"North Hollywood","State":"CA","Zip":"91601"},{"Location":"HI LIFE PRODUCTS AND SERVICES","Address":"11410 Burbank Blvd 2","City":"North Hollywood","State":"CA","Zip":"91601"},{"Location":"HOUSE OF WINGS","Address":"5958 Vineland Ave F","City":"North Hollywood","State":"CA","Zip":"91601"},{"Location":"IAR INC","Address":"5600 Lankershim Blvd","City":"North Hollywood","State":"CA","Zip":"91601"},{"Location":"INDIAN HILL MEDIA DBA MIXERS","Address":"11337 Burbank Blvd","City":"North Hollywood","State":"CA","Zip":"91601"},{"Location":"INTERNATIONAL MUSEUM OF DVD","Address":"5729 Cahuenga Blvd","City":"North Hollywood","State":"CA","Zip":"91601"},{"Location":"IRDETO USA  INC.","Address":"5250 Lankershim Blvd 750","City":"North Hollywood","State":"CA","Zip":"91601"},{"Location":"IZALCO RESTAURANTS","Address":"10729 Burbank Blvd","City":"North Hollywood","State":"CA","Zip":"91601"},{"Location":"J MAGIC RECORDS`","Address":"10709 Burbank Blvd","City":"North Hollywood","State":"CA","Zip":"91601"},{"Location":"JERRY JAMES INC","Address":"10522 Burbank Blvd","City":"North Hollywood","State":"CA","Zip":"91601"},{"Location":"LA COUNTY PUBHEALT EPRP SPA1&2","Address":"5300 Tujunga Ave 2","City":"North Hollywood","State":"CA","Zip":"91601"},{"Location":"LOS BURRITOS INC","Address":"5568 Lankershim Blvd","City":"North Hollywood","State":"CA","Zip":"91601"},{"Location":"MAD DOG VIDEO","Address":"5510 Satsuma Ave","City":"North Hollywood","State":"CA","Zip":"91601"},{"Location":"MAGORIS BEAUTY SALON","Address":"10645 Burbank Blvd","City":"North Hollywood","State":"CA","Zip":"91601"},{"Location":"MATES INC","Address":"5412 Cleon Ave","City":"North Hollywood","State":"CA","Zip":"91601"},{"Location":"MOTION PICTURES PLACEMENT","Address":"10625 Chandler Blvd","City":"North Hollywood","State":"CA","Zip":"91601"},{"Location":"MP EATRY","Address":"5643 Lankershim Blvd","City":"North Hollywood","State":"CA","Zip":"91601"},{"Location":"NAIL SPA SALON","Address":"5300 Lankershim Blvd","City":"North Hollywood","State":"CA","Zip":"91601"},{"Location":"NO BAR","Address":"10622 Magnolia Blvd","City":"North Hollywood","State":"CA","Zip":"91601"},{"Location":"NO HO COMMONS","Address":"11136 Chandler Blvd","City":"North Hollywood","State":"CA","Zip":"91601"},{"Location":"NOHO  SENIOR VILLAS","Address":"5525 Klump Ave","City":"North Hollywood","State":"CA","Zip":"91601"},{"Location":"NORTH HOLLYWOOD LIQUOR","Address":"11228 Burbank Blvd","City":"North Hollywood","State":"CA","Zip":"91601"},{"Location":"NRG RECORDING SERVICES","Address":"11128 Weddington St","City":"North Hollywood","State":"CA","Zip":"91601"},{"Location":"ONE CHURCH INTERNATIONAL","Address":"11039 Mccormick St","City":"North Hollywood","State":"CA","Zip":"91601"},{"Location":"PHILADELPHIA CAFE","Address":"11112 Magnolia Blvd","City":"North Hollywood","State":"CA","Zip":"91601"},{"Location":"PIT FIRE PIZZA","Address":"5211 Lankershim Blvd","City":"North Hollywood","State":"CA","Zip":"91601"},{"Location":"PYRAMIDO","Address":"4907 Lankershim Blvd","City":"North Hollywood","State":"CA","Zip":"91601"},{"Location":"REGUS MANAGEMENT GROUP","Address":"5250 Lankershim Blvd 500","City":"North Hollywood","State":"CA","Zip":"91601"},{"Location":"ROSALI CLEANERS","Address":"11335 Magnolia Blvd 1c","City":"North Hollywood","State":"CA","Zip":"91601"},{"Location":"SAMS LIQUOR","Address":"4832 Lankershim Blvd","City":"North Hollywood","State":"CA","Zip":"91601"},{"Location":"SKINNYS LOUNGE","Address":"4923 Lankershim Blvd","City":"North Hollywood","State":"CA","Zip":"91601"},{"Location":"SUNRISE FORD OF NORTH HW","Address":"5550 Lankershim Blvd","City":"North Hollywood","State":"CA","Zip":"91601"},{"Location":"TAYLOR MADE","Address":"5112 Colfax Ave A","City":"North Hollywood","State":"CA","Zip":"91601"},{"Location":"THE CHEMISTS LLC","Address":"5739 Tujunga Ave","City":"North Hollywood","State":"CA","Zip":"91601"},{"Location":"THE FEDERAL BAR","Address":"5303 Lankershim Blvd","City":"North Hollywood","State":"CA","Zip":"91601"},{"Location":"THE HESBY","Address":"5031 Fair Ave","City":"North Hollywood","State":"CA","Zip":"91601"},{"Location":"THE KANSAS CITY BBQ COMPANY","Address":"10863 Magnolia Blvd","City":"North Hollywood","State":"CA","Zip":"91601"},{"Location":"THE OTHER DOOR","Address":"10437 Burbank Blvd","City":"North Hollywood","State":"CA","Zip":"91601"},{"Location":"THE WORLD FITNESS","Address":"5101 Lankershim Blvd","City":"North Hollywood","State":"CA","Zip":"91601"},{"Location":"TONE MERCHANTS","Address":"5419 Cleon Ave N","City":"North Hollywood","State":"CA","Zip":"91601"},{"Location":"TREMENDOUS","Address":"5250 Lankershim Blvd 650","City":"North Hollywood","State":"CA","Zip":"91601"},{"Location":"US GOVERNMENT CAREER SERVICE","Address":"10523 Burbank Blvd 106","City":"North Hollywood","State":"CA","Zip":"91601"},{"Location":"VAULT CROSSFIT","Address":"5335 Craner Ave","City":"North Hollywood","State":"CA","Zip":"91601"},{"Location":"VIP AUTO SERVICE","Address":"5606 Lankershim Blvd","City":"North Hollywood","State":"CA","Zip":"91601"},{"Location":"WESLEY SCHOOL","Address":"4832 Tujunga Ave","City":"North Hollywood","State":"CA","Zip":"91601"},{"Location":"X KLUSIVE STUDIO INC","Address":"10654 Magnolia Blvd","City":"North Hollywood","State":"CA","Zip":"91601"},{"Location":"XLRATOR MEDIA","Address":"5250 Lankershim Blvd 730","City":"North Hollywood","State":"CA","Zip":"91601"}]