[{"Location":"HD FILMS-HULU","Address":"10911 Riverside Dr 100","City":"N Hollywood","State":"CA","Zip":"91602"},{"Location":"AAA REMODELING INC","Address":"11336 Camarillo St","City":"North Hollywood","State":"CA","Zip":"91602"},{"Location":"BILL HUGHES MUSIC SERVICE","Address":"10908 Riverside Dr","City":"North Hollywood","State":"CA","Zip":"91602"},{"Location":"BK CLASSIC","Address":"4420 Lankershim Blvd","City":"North Hollywood","State":"CA","Zip":"91602"},{"Location":"BOULEVARD TRAVEL","Address":"4605 Lankershim Blvd 501","City":"North Hollywood","State":"CA","Zip":"91602"},{"Location":"DAKOTA N ENTERTAINMENT","Address":"4133 Lankershim Blvd","City":"North Hollywood","State":"CA","Zip":"91602"},{"Location":"DARREN CASAMASSIMA","Address":"10999 Riverside Dr 200","City":"North Hollywood","State":"CA","Zip":"91602"},{"Location":"DR CLEANERS","Address":"4444 Lankershim Blvd","City":"North Hollywood","State":"CA","Zip":"91602"},{"Location":"DR JACK MAR","Address":"10918 Riverside Dr","City":"North Hollywood","State":"CA","Zip":"91602"},{"Location":"GOODYEAR 4856","Address":"4708 Lankershim Blvd","City":"North Hollywood","State":"CA","Zip":"91602"},{"Location":"GRAFFITI PALACE TATTOO","Address":"4427 Lankershim Blvd","City":"North Hollywood","State":"CA","Zip":"91602"},{"Location":"HA HA CAFE","Address":"4712 Lankershim Blvd","City":"North Hollywood","State":"CA","Zip":"91602"},{"Location":"HERZOG PRODUCTIONS","Address":"4640 Lankershim Blvd 400","City":"North Hollywood","State":"CA","Zip":"91602"},{"Location":"HITS","Address":"4220 Lankershim Blvd","City":"North Hollywood","State":"CA","Zip":"91602"},{"Location":"HOMEWASH COIN LAUNDRY","Address":"4785 Lankershim Blvd","City":"North Hollywood","State":"CA","Zip":"91602"},{"Location":"IPC THE HOSPITALIST","Address":"4605 Lankershim Blvd 617","City":"North Hollywood","State":"CA","Zip":"91602"},{"Location":"LARRABEE SOUND","Address":"4162 Lankershim Blvd","City":"North Hollywood","State":"CA","Zip":"91602"},{"Location":"LAW OFFICES OF PAUL MEDV","Address":"10952 Moorpark St","City":"North Hollywood","State":"CA","Zip":"91602"},{"Location":"LE PETIT CHATEAU","Address":"4615 Lankershim Blvd","City":"North Hollywood","State":"CA","Zip":"91602"},{"Location":"LOTUS VEGAN","Address":"4715 Lankershim Blvd","City":"North Hollywood","State":"CA","Zip":"91602"},{"Location":"MIDWAY CAR RENTAL","Address":"4201 Lankershim Blvd","City":"North Hollywood","State":"CA","Zip":"91602"},{"Location":"MONADA INC","Address":"4419 Lankershim Blvd","City":"North Hollywood","State":"CA","Zip":"91602"},{"Location":"MOVIOLA DIGITAL","Address":"11311 Camarillo St","City":"North Hollywood","State":"CA","Zip":"91602"},{"Location":"NATO N HOLLYWOOD","Address":"4605 Lankershim Blvd 180","City":"North Hollywood","State":"CA","Zip":"91602"},{"Location":"NICK'S CAFE","Address":"4605 Lankershim Blvd 205","City":"North Hollywood","State":"CA","Zip":"91602"},{"Location":"ORCHID ROYAL SPA","Address":"10910 Riverside Dr","City":"North Hollywood","State":"CA","Zip":"91602"},{"Location":"RONALD SALTMAN DC","Address":"10628 Riverside Dr","City":"North Hollywood","State":"CA","Zip":"91602"},{"Location":"ROOTZ ONE INC","Address":"11336 Camarillo St 207","City":"North Hollywood","State":"CA","Zip":"91602"},{"Location":"SIERRA INVESTMENT PROPERTIES","Address":"10761 Blix St","City":"North Hollywood","State":"CA","Zip":"91602"},{"Location":"SOO RAA THAI","Address":"10650 Riverside Dr","City":"North Hollywood","State":"CA","Zip":"91602"},{"Location":"ST. CHARLES CHURCH","Address":"10906 Moorpark St","City":"North Hollywood","State":"CA","Zip":"91602"},{"Location":"STAR LITE CANTINA","Address":"11411 Moorpark St","City":"North Hollywood","State":"CA","Zip":"91602"},{"Location":"STUDIO CITY ORTHOPEDIC MEDICAL","Address":"11650 Riverside Dr","City":"North Hollywood","State":"CA","Zip":"91602"},{"Location":"TANACITY WOMENS FITNESS","Address":"4418 Vineland Ave B","City":"North Hollywood","State":"CA","Zip":"91602"},{"Location":"TEAMSTERS LOCAL 399","Address":"4747 Vineland Ave","City":"North Hollywood","State":"CA","Zip":"91602"},{"Location":"TIKI NO","Address":"4657 Lankershim Blvd","City":"North Hollywood","State":"CA","Zip":"91602"},{"Location":"TOLUCA LAKE MANOR","Address":"4560 Cartwright Ave","City":"North Hollywood","State":"CA","Zip":"91602"},{"Location":"TONY'S PIZZA","Address":"4745 Lankershim Blvd","City":"North Hollywood","State":"CA","Zip":"91602"},{"Location":"UNIVERSAL BAR & GRILL","Address":"4093 Lankershim Blvd","City":"North Hollywood","State":"CA","Zip":"91602"},{"Location":"VDA PROPERTY COMPANY","Address":"4605 Lankershim Blvd 707","City":"North Hollywood","State":"CA","Zip":"91602"},{"Location":"VITAC CORPORATION","Address":"4605 Lankershim Blvd 250","City":"North Hollywood","State":"CA","Zip":"91602"},{"Location":"VON DER AHE MORTGAGE","Address":"4605 Lankershim Blvd 800","City":"North Hollywood","State":"CA","Zip":"91602"},{"Location":"A SMITH & CO PROPERTIES","Address":"4130 Cahuenga Blvd","City":"Toluca Lake","State":"CA","Zip":"91602"},{"Location":"FORTYONE FORTYONE","Address":"4141 Lankershim Blvd","City":"Toluca Lake","State":"CA","Zip":"91602"},{"Location":"JAIEUN LEE","Address":"10140 Riverside Dr","City":"Toluca Lake","State":"CA","Zip":"91602"},{"Location":"MALBEC ARGENTINEAN BISTRO","Address":"10151 Riverside Dr","City":"Toluca Lake","State":"CA","Zip":"91602"},{"Location":"METSOS RESTAURANT INC","Address":"10001 Riverside Dr","City":"Toluca Lake","State":"CA","Zip":"91602"},{"Location":"NICK BAN DDS INC","Address":"10723 Riverside Dr","City":"Toluca Lake","State":"CA","Zip":"91602"},{"Location":"THE COUNTER BURGER","Address":"10123 Riverside Dr A","City":"Toluca Lake","State":"CA","Zip":"91602"},{"Location":"THE RED DOOR","Address":"10057 Riverside Dr","City":"Toluca Lake","State":"CA","Zip":"91602"},{"Location":"TIMMY NOLAN'S INC","Address":"10111 Riverside Dr","City":"Toluca Lake","State":"CA","Zip":"91602"},{"Location":"WELLS FARGO BANK","Address":"10064 Riverside Dr","City":"Toluca Lake","State":"CA","Zip":"91602"}]