[{"Location":"NO HOLLYWOOD SHAKEYS 8","Address":"5321 Laurel Cayon Blvd","City":"N Hollywood","State":"CA","Zip":"91607"},{"Location":"DR RANDALL STITT","Address":"12418 Burbank Blvd","City":"North Hollywood","State":"CA","Zip":"91607"},{"Location":"HAYATI CAFE","Address":"12519 Burbank Blvd","City":"North Hollywood","State":"CA","Zip":"91607"},{"Location":"TACOS EL TORO","Address":"5964 Laurel Canyon Blvd","City":"North Hollywood","State":"CA","Zip":"91607"},{"Location":"VALLEY DISCOUNT JEWELERS","Address":"12119 Magnolia Blvd","City":"North Hollywood","State":"CA","Zip":"91607"},{"Location":"LAUREL CHANDLER DENTAL CARE","Address":"4717 Laurel Gyn Blvd 700","City":"Studio City","State":"CA","Zip":"91607"},{"Location":"12650 RIVERSIDE DRIVE LLC","Address":"12650 Riverside Dr 204","City":"Valley Village","State":"CA","Zip":"91607"},{"Location":"AFM&SAG-AFTRA","Address":"4705 Laurel Canyon Blvd 400","City":"Valley Village","State":"CA","Zip":"91607"},{"Location":"ALAN SALER MEDIATION SERVICES","Address":"4705 Laurel Canyon Blvd 302","City":"Valley Village","State":"CA","Zip":"91607"},{"Location":"ALARO PET CLINIC","Address":"4846 Laurel Cannyon Blvd","City":"Valley Village","State":"CA","Zip":"91607"},{"Location":"ASI ENTERTAINMENT","Address":"12020 Chandler Blvd 100","City":"Valley Village","State":"CA","Zip":"91607"},{"Location":"CHRISTOPHER STYLES BARBER SPA","Address":"4815 Whitsett Ave","City":"Valley Village","State":"CA","Zip":"91607"},{"Location":"COIN LAUNDRY","Address":"5616 Laurel Canyon Blvd","City":"Valley Village","State":"CA","Zip":"91607"},{"Location":"DENNIS P BLOCK AND ASSOCIATES","Address":"5437 Laurel Canyon Blvd 2flr","City":"Valley Village","State":"CA","Zip":"91607"},{"Location":"DRAFT","Address":"12430 Riverside Dr","City":"Valley Village","State":"CA","Zip":"91607"},{"Location":"EL TACO LOCO","Address":"5424 Laurel Canyon Blvd I","City":"Valley Village","State":"CA","Zip":"91607"},{"Location":"FOXFIRE ROOM","Address":"12516 Magnolia Blvd","City":"Valley Village","State":"CA","Zip":"91607"},{"Location":"GIANT BOWLING PIN PRODUCTIONS","Address":"4705 Laurel Canyon Blvd 5","City":"Valley Village","State":"CA","Zip":"91607"},{"Location":"GORGEOUS BY K SALON","Address":"12036 Burbank Blvd","City":"Valley Village","State":"CA","Zip":"91607"},{"Location":"INTHANON THAI CUISINE","Address":"12510 Burbank Blvd","City":"Valley Village","State":"CA","Zip":"91607"},{"Location":"LE MARKET INC","Address":"12516 Burbank Blvd","City":"Valley Village","State":"CA","Zip":"91607"},{"Location":"MATTRESS PROS 1","Address":"5600 Laurel Canyon Blvd","City":"Valley Village","State":"CA","Zip":"91607"},{"Location":"PAT'S COCKTAILS","Address":"12121 Riverside Dr","City":"Valley Village","State":"CA","Zip":"91607"},{"Location":"PIE TOWN PRODUCTIONS","Address":"5433 Laurel Canyon Blvd","City":"Valley Village","State":"CA","Zip":"91607"},{"Location":"PILGRIM FILM AND TELEVIS","Address":"12020 Chandler Blvd","City":"Valley Village","State":"CA","Zip":"91607"},{"Location":"RUSSIAN DACHA","Address":"5338 Laurel Canyon Blvd","City":"Valley Village","State":"CA","Zip":"91607"},{"Location":"SHERMAN VILLAGE HEALTHCARE CTR","Address":"12750 Riverside Dr","City":"Valley Village","State":"CA","Zip":"91607"},{"Location":"STUDIO CITY","Address":"4705 Laurel Canyon Blvd 400","City":"Valley Village","State":"CA","Zip":"91607"},{"Location":"STUDIO CITY 2","Address":"4705 Laurel Canyon Blvd 400","City":"Valley Village","State":"CA","Zip":"91607"},{"Location":"SUPER CUTS","Address":"5622 Laurel Canyon Blvd","City":"Valley Village","State":"CA","Zip":"91607"},{"Location":"SWAG WIRELESS","Address":"5208 Laurel Canyon Blvd","City":"Valley Village","State":"CA","Zip":"91607"},{"Location":"THE LAW  OFFICE  MITCHELL A K.","Address":"5352 Laurel Canyon Blvd 100","City":"Valley Village","State":"CA","Zip":"91607"},{"Location":"THE OASIS CHURCH","Address":"12800 Riverside Dr 200","City":"Valley Village","State":"CA","Zip":"91607"},{"Location":"VALLEY GYM","Address":"12506 Magnolia Blvd","City":"Valley Village","State":"CA","Zip":"91607"}]