[{"Location":"LANKERSHIN CAR WASHING","Address":"6622 Lankershim Blvd","City":"N Hollywood","State":"CA","Zip":"91606"},{"Location":"BARBER SHOP","Address":"10550 Victory Blvd","City":"North Hollywood","State":"CA","Zip":"91606"},{"Location":"BONTANICA OGGUN Y YEMAYA","Address":"6325 Lankershim Blvd","City":"North Hollywood","State":"CA","Zip":"91606"},{"Location":"BOYAJIAN AND BARDAKJIAN","Address":"6058 Lankershim Blvd","City":"North Hollywood","State":"CA","Zip":"91606"},{"Location":"CHAMPION BARBERSHOP2","Address":"6700 Laurel Canyon Blvd 2a","City":"North Hollywood","State":"CA","Zip":"91606"},{"Location":"CHAMPIONS BARBERSHOP1","Address":"6636 Lankershim Blvd","City":"North Hollywood","State":"CA","Zip":"91606"},{"Location":"DAVITA #2546 NORTH HOLLYWOOD","Address":"12126 Victory Blvd","City":"North Hollywood","State":"CA","Zip":"91606"},{"Location":"DIAZ","Address":"6007 Lankershim Blvd","City":"North Hollywood","State":"CA","Zip":"91606"},{"Location":"EL JEFE TEST ONLY","Address":"6548 Lankershim Blvd","City":"North Hollywood","State":"CA","Zip":"91606"},{"Location":"ENTERTAINMENT 2000 INC.","Address":"6439 Lankershim Blvd","City":"North Hollywood","State":"CA","Zip":"91606"},{"Location":"EXTREME AUTO SOUND","Address":"11702 Victory Blvd","City":"North Hollywood","State":"CA","Zip":"91606"},{"Location":"FIRESTONE #005126","Address":"6440 Laurel Canyon Blvd","City":"North Hollywood","State":"CA","Zip":"91606"},{"Location":"FISH POND","Address":"12459 Oxnard St","City":"North Hollywood","State":"CA","Zip":"91606"},{"Location":"G SPOT NAILS","Address":"6354 Vineland Ave","City":"North Hollywood","State":"CA","Zip":"91606"},{"Location":"GENTLE TOUCH","Address":"11755 Victory Blvd 203","City":"North Hollywood","State":"CA","Zip":"91606"},{"Location":"GOLD'S GYM #336","Address":"6233 Laurel Canyon Blvd","City":"North Hollywood","State":"CA","Zip":"91606"},{"Location":"GOLDEN  STATE","Address":"10830 Oxnard St","City":"North Hollywood","State":"CA","Zip":"91606"},{"Location":"HECTORS HAIR SALON","Address":"6740 Laurel Canyon Blvd","City":"North Hollywood","State":"CA","Zip":"91606"},{"Location":"HOLLYWOOD HONEYWAGON","Address":"11160 Victory Blvd","City":"North Hollywood","State":"CA","Zip":"91606"},{"Location":"LA CABANITA DE DON CHEPE","Address":"6757 Lankershim Blvd","City":"North Hollywood","State":"CA","Zip":"91606"},{"Location":"LA MARIA RESTAURANT INC","Address":"10516 Victory Blvd","City":"North Hollywood","State":"CA","Zip":"91606"},{"Location":"LAZAROS BARBER SHOP","Address":"6404 Tujunga Ave","City":"North Hollywood","State":"CA","Zip":"91606"},{"Location":"MACY'S WEST 505","Address":"6150 Laurel Canyon Blvd","City":"North Hollywood","State":"CA","Zip":"91606"},{"Location":"MAGGIES PASTRY","Address":"6530 Lankershim Blvd L","City":"North Hollywood","State":"CA","Zip":"91606"},{"Location":"MICHAELS PUB","Address":"11506 Oxnard St","City":"North Hollywood","State":"CA","Zip":"91606"},{"Location":"MODELO FURNITURE","Address":"6418 Lankershim Blvd","City":"North Hollywood","State":"CA","Zip":"91606"},{"Location":"MOUNTAIN VIEW TIRE & SERVICE","Address":"6550 Laurel Canyon Blvd","City":"North Hollywood","State":"CA","Zip":"91606"},{"Location":"PIERCE BROTHERS VALHALLA","Address":"10621 Victory Blvd","City":"North Hollywood","State":"CA","Zip":"91606"},{"Location":"PLUS COIN LAUNDRY","Address":"6747 Bakman Ave","City":"North Hollywood","State":"CA","Zip":"91606"},{"Location":"RAYAN LAUNDRY INC","Address":"6774 Coldwater Canyon Ave","City":"North Hollywood","State":"CA","Zip":"91606"},{"Location":"RESTAURANTE MI TIERRA","Address":"11746 Victory Blvd","City":"North Hollywood","State":"CA","Zip":"91606"},{"Location":"SAMVEL PLACE LLC","Address":"6530 Lankershim Blvd H","City":"North Hollywood","State":"CA","Zip":"91606"},{"Location":"SHEILAS","Address":"6424 Lankershim Blvd","City":"North Hollywood","State":"CA","Zip":"91606"},{"Location":"SIERRA MOUNTAIN MEDICAL CORP","Address":"12134 Victory Blvd","City":"North Hollywood","State":"CA","Zip":"91606"},{"Location":"SIZZLER 925","Address":"6343 Laurel Canyon Blvd","City":"North Hollywood","State":"CA","Zip":"91606"},{"Location":"ST. PATRICKS ROMAN CATHO","Address":"10625 Erwin St","City":"North Hollywood","State":"CA","Zip":"91606"},{"Location":"STEWART MUSIC GROUP","Address":"12431 Oxnard St 9","City":"North Hollywood","State":"CA","Zip":"91606"},{"Location":"TABIBIAN INC","Address":"6700 Lower Canyon B Lvd #canyo","City":"North Hollywood","State":"CA","Zip":"91606"},{"Location":"TALISMAN","Address":"12900 Victory Blvd","City":"North Hollywood","State":"CA","Zip":"91606"},{"Location":"THE DONUTSHOP YUM YUM","Address":"6001 Lankershim Blvd","City":"North Hollywood","State":"CA","Zip":"91606"},{"Location":"THE SUSHI BY JIN","Address":"6010 Laurel Canyon Blvd","City":"North Hollywood","State":"CA","Zip":"91606"},{"Location":"TREFBON SALON","Address":"11015 Victory Blvd S","City":"North Hollywood","State":"CA","Zip":"91606"},{"Location":"UNCLE TONYS PIZZARIA","Address":"13007 Victory Blvd","City":"North Hollywood","State":"CA","Zip":"91606"},{"Location":"VALLARTA SUPERMARKETS #1","Address":"13051 Victory Blvd","City":"North Hollywood","State":"CA","Zip":"91606"},{"Location":"VICTORY ENTERTAINMENT","Address":"12147 Victory Blvd","City":"North Hollywood","State":"CA","Zip":"91606"},{"Location":"XOCHILT ISSA- TARGET","Address":"11051 Victory Blvd","City":"North Hollywood","State":"CA","Zip":"91606"}]