[{"Location":"SADDLE RANCH UNIVERSAL","Address":"666 Universal Parkway","City":"Los Angeles","State":"CA","Zip":"91608"},{"Location":"BUBBA GUMP SHRIMP CO","Address":"1000 Universal Studios Blvd 114","City":"Universal City","State":"CA","Zip":"91608"},{"Location":"BUCA DI BEPPO #511","Address":"1000 Universal Studios Blvd G101","City":"Universal City","State":"CA","Zip":"91608"},{"Location":"CI RESTAURANTS UNIVERSAL","Address":"1000 Universal Studios Blvd 133","City":"Universal City","State":"CA","Zip":"91608"},{"Location":"CRIME SCENE INVESTIGATION","Address":"100 Universal City Plz E","City":"Universal City","State":"CA","Zip":"91608"},{"Location":"DREAMWORKS","Address":"100 Universal City Plz 5121","City":"Universal City","State":"CA","Zip":"91608"},{"Location":"DREAMWORKS","Address":"100 Universal City Plz B5121","City":"Universal City","State":"CA","Zip":"91608"},{"Location":"DREAMWORKS SKG","Address":"100 Universal City Plz 5121","City":"Universal City","State":"CA","Zip":"91608"},{"Location":"DREAMWORKS SVC","Address":"100 Universal City Plz 5121","City":"Universal City","State":"CA","Zip":"91608"},{"Location":"HILTON LOS ANGELES UNIV CITY","Address":"555 Universal Hollywood Dr","City":"Universal City","State":"CA","Zip":"91608"},{"Location":"HILTON UNIVERSAL CITY & TOWERS","Address":"555 Universal Hollywood Dr","City":"Universal City","State":"CA","Zip":"91608"},{"Location":"INFUSION LOUNGE","Address":"1000 Universal Blvd","City":"Universal City","State":"CA","Zip":"91608"},{"Location":"JILLIAN'S UNIVERSAL CITY","Address":"1000 Universal Studios Blvd G103","City":"Universal City","State":"CA","Zip":"91608"},{"Location":"JOHNNY ROCKETS","Address":"1000 Universal Studios Blvd 130","City":"Universal City","State":"CA","Zip":"91608"},{"Location":"KARL STRAUSS BREWING CO","Address":"1000 Universal Studios Blvd","City":"Universal City","State":"CA","Zip":"91608"},{"Location":"NBC UNIVERSAL TRANSPORTATION","Address":"100 Universal City Plz 5187","City":"Universal City","State":"CA","Zip":"91608"},{"Location":"SPORTS AVENUE OF CALIFORNIA","Address":"1000 Universal Studios Blvd","City":"Universal City","State":"CA","Zip":"91608"},{"Location":"THE RAIDERS IMAGE #943","Address":"1000 Universal Studios Blvd G104b","City":"Universal City","State":"CA","Zip":"91608"},{"Location":"UNIVERSAL CITY STUDIOS","Address":"100 Universal City Plz","City":"Universal City","State":"CA","Zip":"91608"},{"Location":"UNIVERSAL CITY STUDIOS","Address":"100 Universal City Plz 4250m","City":"Universal City","State":"CA","Zip":"91608"},{"Location":"UNIVERSAL CITY STUDIOS #2","Address":"100 Universal City Plz 4250m","City":"Universal City","State":"CA","Zip":"91608"},{"Location":"UNIVERSAL PICTURES","Address":"100 Universal City Plz","City":"Universal City","State":"CA","Zip":"91608"},{"Location":"UNIVERSAL PICTURES CREAT","Address":"100 Universal City Plz","City":"Universal City","State":"CA","Zip":"91608"}]