[{"Location":"EFP REAL ESTATE INVESTMENTS","Address":"12433 Ventura Blvd","City":"N Hollywood","State":"CA","Zip":"91604"},{"Location":"ACASHI SUSHI BAR","Address":"4037 Radford Ave","City":"Studio City","State":"CA","Zip":"91604"},{"Location":"ACF PROPERTY MGMT","Address":"12411 Ventura Blvd 30","City":"Studio City","State":"CA","Zip":"91604"},{"Location":"ALL CALIFORNIA FUNDING","Address":"13047 Ventura Blvd 2nd","City":"Studio City","State":"CA","Zip":"91604"},{"Location":"AMERICAN UNITED HOME CARE","Address":"13111 Ventura Blvd","City":"Studio City","State":"CA","Zip":"91604"},{"Location":"ANIMAL EMERGENCY CENTER","Address":"11730 Ventura Blvd","City":"Studio City","State":"CA","Zip":"91604"},{"Location":"ANTHONY SCHNURER  MD","Address":"11900 Ventura Blvd","City":"Studio City","State":"CA","Zip":"91604"},{"Location":"AROMA COFFEE AND TEA","Address":"4360 Tujunga Ave","City":"Studio City","State":"CA","Zip":"91604"},{"Location":"AT TIME SQUARE 2011 INC.","Address":"12215 Ventura Blvd 211","City":"Studio City","State":"CA","Zip":"91604"},{"Location":"BAKADO","Address":"12345 Ventura Blvd","City":"Studio City","State":"CA","Zip":"91604"},{"Location":"BBR DEVELOPMENT","Address":"12522 Moorpark St","City":"Studio City","State":"CA","Zip":"91604"},{"Location":"BIDIT UP","Address":"11426 Ventura Blvd","City":"Studio City","State":"CA","Zip":"91604"},{"Location":"BOB MACKIE DESIGN GROUP LIMITE","Address":"4019 Tujunga Ave","City":"Studio City","State":"CA","Zip":"91604"},{"Location":"CALIFORNIA CROSSFIT LLC","Address":"11559 Ventura Blvd","City":"Studio City","State":"CA","Zip":"91604"},{"Location":"CBS - MOONVEZ","Address":"4024 Radford Ave","City":"Studio City","State":"CA","Zip":"91604"},{"Location":"CBS MIAMI STUDIOS","Address":"4026 Colfax Ave","City":"Studio City","State":"CA","Zip":"91604"},{"Location":"CBS NETWORK NEWS LA","Address":"4200 Radford Ave","City":"Studio City","State":"CA","Zip":"91604"},{"Location":"CELEBRATY LOOKS LAZER CL","Address":"12265 Ventura Blvd 206","City":"Studio City","State":"CA","Zip":"91604"},{"Location":"CERVERA ADVERTISING","Address":"10800 Ventura Blvd","City":"Studio City","State":"CA","Zip":"91604"},{"Location":"CHARIESSE GRIFFIN STUDIOS","Address":"10968 1%2F2 Ventura Blvd","City":"Studio City","State":"CA","Zip":"91604"},{"Location":"CITRON MODERN CARE OF WESTCOM","Address":"11023 Fruitland Dr","City":"Studio City","State":"CA","Zip":"91604"},{"Location":"CITY ORGANIC REMEDIES","Address":"11306 Ventura Blvd","City":"Studio City","State":"CA","Zip":"91604"},{"Location":"CLEAR TALENT GROUP","Address":"10950 Ventura Blvd","City":"Studio City","State":"CA","Zip":"91604"},{"Location":"COMMERCIAL TALENT","Address":"12711 Ventura Blvd 285","City":"Studio City","State":"CA","Zip":"91604"},{"Location":"COSTUMER CLEANERS","Address":"11275 Ventura Blvd","City":"Studio City","State":"CA","Zip":"91604"},{"Location":"CRAVE STUDIO INC","Address":"11992 Ventura Blvd","City":"Studio City","State":"CA","Zip":"91604"},{"Location":"CROWN MEDIA","Address":"12700 Ventura Blvd","City":"Studio City","State":"CA","Zip":"91604"},{"Location":"DARVINZ KEBAB","Address":"11925 Ventura Blvd","City":"Studio City","State":"CA","Zip":"91604"},{"Location":"ELECTRIC PICTURE","Address":"3753 Cahuenga Blvd","City":"Studio City","State":"CA","Zip":"91604"},{"Location":"EMPEROR BRAND","Address":"11345 Ventura Blvd","City":"Studio City","State":"CA","Zip":"91604"},{"Location":"ESQUIRE SALON FOR MEN","Address":"12729 Ventura Blvd","City":"Studio City","State":"CA","Zip":"91604"},{"Location":"FIRESTONE #011088","Address":"11905 Ventura Blvd","City":"Studio City","State":"CA","Zip":"91604"},{"Location":"FIRST ENTERTAINMENT CU","Address":"4067 Laurel Cyn","City":"Studio City","State":"CA","Zip":"91604"},{"Location":"FIRST REPUBLIC BANK","Address":"12070 Ventura Blvd","City":"Studio City","State":"CA","Zip":"91604"},{"Location":"GARY CAPLAN INC","Address":"12522 Moorpark St 109","City":"Studio City","State":"CA","Zip":"91604"},{"Location":"HAIR BY MONIQUE","Address":"11239 Ventura Blvd 212","City":"Studio City","State":"CA","Zip":"91604"},{"Location":"HEFFERMAN'S HOUSE","Address":"11042 Ventura Blvd","City":"Studio City","State":"CA","Zip":"91604"},{"Location":"HOMELAND HEALTH ORGANIZATION","Address":"11682 Laurelcrest Dr","City":"Studio City","State":"CA","Zip":"91604"},{"Location":"HUFFMAN PUBLIC AFFAIRS","Address":"12430 Hortense St","City":"Studio City","State":"CA","Zip":"91604"},{"Location":"ILLUMINATE%2FHTV","Address":"10900 Ventura Blvd","City":"Studio City","State":"CA","Zip":"91604"},{"Location":"JERRY'S FAMOUS DELI","Address":"12655 Ventura Blvd","City":"Studio City","State":"CA","Zip":"91604"},{"Location":"JERRYS DELI CORP","Address":"12711 Ventura Blvd 400","City":"Studio City","State":"CA","Zip":"91604"},{"Location":"JESSICA DOMINGUEZ LAW","Address":"3771 Cahuenga Blvd","City":"Studio City","State":"CA","Zip":"91604"},{"Location":"KAFFE ROUGE","Address":"11282 Ventura Blvd","City":"Studio City","State":"CA","Zip":"91604"},{"Location":"KCBS-TV","Address":"4200 Radford Ave","City":"Studio City","State":"CA","Zip":"91604"},{"Location":"KINGS HEAD  LLC","Address":"12969 Ventura Blvd","City":"Studio City","State":"CA","Zip":"91604"},{"Location":"LA LOGGIA","Address":"11814 Ventura Blvd","City":"Studio City","State":"CA","Zip":"91604"},{"Location":"LALAS ARGENTINE GRILL","Address":"11935 Ventura Blvd","City":"Studio City","State":"CA","Zip":"91604"},{"Location":"LAUREL TAVERN","Address":"11938 Ventura Blvd","City":"Studio City","State":"CA","Zip":"91604"},{"Location":"LOTERIA GRILL","Address":"12050 Ventura Blvd","City":"Studio City","State":"CA","Zip":"91604"},{"Location":"M&J MANAGEMENT GROUP SHI","Address":"12745 Ventura Blvd","City":"Studio City","State":"CA","Zip":"91604"},{"Location":"MAGIC GATE","Address":"11331 Ventura Blvd","City":"Studio City","State":"CA","Zip":"91604"},{"Location":"MEXICALLI","Address":"12161 Ventura Blvd","City":"Studio City","State":"CA","Zip":"91604"},{"Location":"MIDORI SUCHI RESTAURANT","Address":"11622 Ventura Blvd","City":"Studio City","State":"CA","Zip":"91604"},{"Location":"MOLLIE MAGS-LGTV","Address":"11331 Ventura Blvd 3b","City":"Studio City","State":"CA","Zip":"91604"},{"Location":"MUSE ENTERTAINMENT USA","Address":"4400 Coldwater Canyon Ave 355","City":"Studio City","State":"CA","Zip":"91604"},{"Location":"NIKOS SHOE REPAIR","Address":"11300 Ventura Blvd","City":"Studio City","State":"CA","Zip":"91604"},{"Location":"OYSTER HOUSE","Address":"12446 Moorpark St","City":"Studio City","State":"CA","Zip":"91604"},{"Location":"PAGE 71","Address":"11916 Ventura Blvd","City":"Studio City","State":"CA","Zip":"91604"},{"Location":"PAGLIACCIS CAFE II","Address":"3990 Vantage Ave","City":"Studio City","State":"CA","Zip":"91604"},{"Location":"PEPE'S NEW YORK PIZZA","Address":"11946 Ventura Blvd","City":"Studio City","State":"CA","Zip":"91604"},{"Location":"PEPES NY PIZZA","Address":"10604 Ventura Blvd","City":"Studio City","State":"CA","Zip":"91604"},{"Location":"PINZ BOWLING CENTER","Address":"12655 Ventura Blvd","City":"Studio City","State":"CA","Zip":"91604"},{"Location":"PIZZA GUY","Address":"11723 Moorpark St","City":"Studio City","State":"CA","Zip":"91604"},{"Location":"PLAY TO THE BONE","Address":"11450 Ventura Blvd","City":"Studio City","State":"CA","Zip":"91604"},{"Location":"ROCCOS TAVERN","Address":"12514 Ventura Blvd","City":"Studio City","State":"CA","Zip":"91604"},{"Location":"RUSSIAN PREMIER","Address":"4020 4020 Arch Dr","City":"Studio City","State":"CA","Zip":"91604"},{"Location":"SAVANNAH BLEU SALON","Address":"11239 Ventura Blvd","City":"Studio City","State":"CA","Zip":"91604"},{"Location":"SCOTTRADE 54B","Address":"12265 Ventura Blvd 100","City":"Studio City","State":"CA","Zip":"91604"},{"Location":"SERRA'S BAR & GRILL","Address":"12449 Ventura Blvd","City":"Studio City","State":"CA","Zip":"91604"},{"Location":"SIX STUDIO","Address":"12650 Ventura Blvd","City":"Studio City","State":"CA","Zip":"91604"},{"Location":"SMOKE FREE VAPOR STORE","Address":"12307 Ventura Blvd 200","City":"Studio City","State":"CA","Zip":"91604"},{"Location":"SPARK WOODFIRE GRILL","Address":"11801 Ventura Blvd","City":"Studio City","State":"CA","Zip":"91604"},{"Location":"STIX HOLDINGS 760","Address":"3960 Laurel Canyon Blvd","City":"Studio City","State":"CA","Zip":"91604"},{"Location":"STOUT BURGERS AND BEER","Address":"11262 Ventura Blvd","City":"Studio City","State":"CA","Zip":"91604"},{"Location":"STUDIO CITY DENTAL ARTS","Address":"3959 Laurel Canyon Blvd E","City":"Studio City","State":"CA","Zip":"91604"},{"Location":"SUNSET CITY NAILS","Address":"12107 Ventura Blvd","City":"Studio City","State":"CA","Zip":"91604"},{"Location":"SY DEVORE VALLEY SHOP","Address":"12930 Ventura Blvd 124","City":"Studio City","State":"CA","Zip":"91604"},{"Location":"TAKE A BAO","Address":"11838 Ventura Blvd","City":"Studio City","State":"CA","Zip":"91604"},{"Location":"TENNIS ACE","Address":"12544 Ventura Blvd","City":"Studio City","State":"CA","Zip":"91604"},{"Location":"TERU SUSHI","Address":"11940 Ventura Blvd","City":"Studio City","State":"CA","Zip":"91604"},{"Location":"THAI BBQ OF VENTURA BL","Address":"12254 Ventura Blvd","City":"Studio City","State":"CA","Zip":"91604"},{"Location":"THE  TALK","Address":"4024 Radford Ave","City":"Studio City","State":"CA","Zip":"91604"},{"Location":"THE ANGELLOTTI CO","Address":"12423 Ventura Ct","City":"Studio City","State":"CA","Zip":"91604"},{"Location":"THE BRENTWOOD INC","Address":"4000 Colfax Ave","City":"Studio City","State":"CA","Zip":"91604"},{"Location":"THE COUNTER STUDIO CITY","Address":"12117 Ventura Blvd","City":"Studio City","State":"CA","Zip":"91604"},{"Location":"THE FOX & HOUNDS","Address":"11100 Ventura Blvd","City":"Studio City","State":"CA","Zip":"91604"},{"Location":"THE INSIDER","Address":"4024 Radford Ave Stg5","City":"Studio City","State":"CA","Zip":"91604"},{"Location":"THE RIVER ROCK LOUNGE","Address":"12833 Ventura Blvd","City":"Studio City","State":"CA","Zip":"91604"},{"Location":"THE SALSA BAR","Address":"3791 Cahuenga Blvd","City":"Studio City","State":"CA","Zip":"91604"},{"Location":"THE SIEGEL GROUP INC.","Address":"12080 Ventura Pl A","City":"Studio City","State":"CA","Zip":"91604"},{"Location":"THE SUSHI HOUSE","Address":"11388 Ventura Blvd","City":"Studio City","State":"CA","Zip":"91604"},{"Location":"THE TALK","Address":"4024 Radford Ave 102","City":"Studio City","State":"CA","Zip":"91604"},{"Location":"THE WELLNESS EARTH LLC","Address":"11557 Ventura Blvd","City":"Studio City","State":"CA","Zip":"91604"},{"Location":"TIFFANY TO","Address":"11036 Ventura Blvd","City":"Studio City","State":"CA","Zip":"91604"},{"Location":"TRANS ATLANTIC MOTORS","Address":"11601 Ventura Blvd","City":"Studio City","State":"CA","Zip":"91604"},{"Location":"TRIUM ENTERTAINMENT","Address":"10960 Ventura Blvd","City":"Studio City","State":"CA","Zip":"91604"},{"Location":"UMAMI BURGER","Address":"12159 Ventura Blvd","City":"Studio City","State":"CA","Zip":"91604"},{"Location":"UNCLE ANDRES BBQ1","Address":"11715 Moorpark St","City":"Studio City","State":"CA","Zip":"91604"},{"Location":"V EYE P","Address":"12229 Ventura Blvd A","City":"Studio City","State":"CA","Zip":"91604"},{"Location":"V HAIR DESIGNS","Address":"13251 Ventura Blvd C","City":"Studio City","State":"CA","Zip":"91604"},{"Location":"VAN WAGNER COMMUNICATION","Address":"11829 Ventura Blvd","City":"Studio City","State":"CA","Zip":"91604"},{"Location":"VITELLOS RESTAURANT","Address":"4349 Tujunga Ave","City":"Studio City","State":"CA","Zip":"91604"},{"Location":"XEN LOUNGE","Address":"10628 Ventura Blvd","City":"Studio City","State":"CA","Zip":"91604"},{"Location":"ZYDECO STUDIOS","Address":"11317 Ventura Blvd","City":"Studio City","State":"CA","Zip":"91604"}]