[{"Location":"FNW FOOD SERVICES","Address":"7005 Tujunga Ave","City":"N Hollywood","State":"CA","Zip":"91605"},{"Location":"JUST FOR LOOKS DETAILING","Address":"13225 Sherman Way 7","City":"N Hollywood","State":"CA","Zip":"91605"},{"Location":"MMA HOOKAH WHOLESALE INC","Address":"8210 Lankershim Blvd 9","City":"N Hollywood","State":"CA","Zip":"91605"},{"Location":"S&R CNC MACHINING","Address":"8255 Lankershim Blvd","City":"N Hollywood","State":"CA","Zip":"91605"},{"Location":"SOUTHSIDE AND BEER","Address":"11669 Sherman Way","City":"N Hollywood","State":"CA","Zip":"91605"},{"Location":"ACGI","Address":"7315 Fulton Ave","City":"North Hollywood","State":"CA","Zip":"91605"},{"Location":"ALL VALLEY DEALER AUTO AUCTION","Address":"7331 Laurel Canyon Blvd","City":"North Hollywood","State":"CA","Zip":"91605"},{"Location":"ANGELS DENTAL CORP","Address":"8025 Webb Ave B","City":"North Hollywood","State":"CA","Zip":"91605"},{"Location":"AQUA SIERRA LAUNDRY","Address":"12859 Sherman Way","City":"North Hollywood","State":"CA","Zip":"91605"},{"Location":"ARLENE ZAPANTA","Address":"8001 Laurel Canyon Blvd 104","City":"North Hollywood","State":"CA","Zip":"91605"},{"Location":"ARMCRAFT","Address":"7282 Bellaire Ave","City":"North Hollywood","State":"CA","Zip":"91605"},{"Location":"AUTOBODY JA","Address":"7645 Lankershim Blvd B","City":"North Hollywood","State":"CA","Zip":"91605"},{"Location":"AZTECA SOCCER CLUB","Address":"8001 Laurel Canyon Blvd 208","City":"North Hollywood","State":"CA","Zip":"91605"},{"Location":"AZUL SPORTS","Address":"8025 Lankershim Blvd","City":"North Hollywood","State":"CA","Zip":"91605"},{"Location":"BEGINYAN","Address":"7252 Bellaire Ave","City":"North Hollywood","State":"CA","Zip":"91605"},{"Location":"BLUE ZEBRA CABARET","Address":"6872 Farmdale Ave","City":"North Hollywood","State":"CA","Zip":"91605"},{"Location":"BOWERS AMBULENCE SERVICE","Address":"12638 Saticoy St S","City":"North Hollywood","State":"CA","Zip":"91605"},{"Location":"BRAVO SYSTEMS INTER INC","Address":"7347 Atoll Ave","City":"North Hollywood","State":"CA","Zip":"91605"},{"Location":"BURGER KING","Address":"11546 Sherman Way","City":"North Hollywood","State":"CA","Zip":"91605"},{"Location":"BUY & SELL PAWN","Address":"8023 Lankershim Blvd A","City":"North Hollywood","State":"CA","Zip":"91605"},{"Location":"CALIFORNIA FAST TIRE","Address":"8265 Lankershim Blvd","City":"North Hollywood","State":"CA","Zip":"91605"},{"Location":"CANDU SERVICES","Address":"12025 Vose St 1","City":"North Hollywood","State":"CA","Zip":"91605"},{"Location":"CIRCULATING AIR","Address":"7337 Varna Ave","City":"North Hollywood","State":"CA","Zip":"91605"},{"Location":"CLINICA  MI PUEBLO","Address":"11609 Sherman Way","City":"North Hollywood","State":"CA","Zip":"91605"},{"Location":"CONNIES BEAUTY SALON","Address":"7561 Lankershim Blvd 110","City":"North Hollywood","State":"CA","Zip":"91605"},{"Location":"DAVIDSON DEVELOPMENT","Address":"7310 Varna Ave","City":"North Hollywood","State":"CA","Zip":"91605"},{"Location":"DECK BASEBALL TRAINING","Address":"8163 Lankershim Blvd","City":"North Hollywood","State":"CA","Zip":"91605"},{"Location":"DELTA FIRE PROTECTION","Address":"7356 Fulton Ave","City":"North Hollywood","State":"CA","Zip":"91605"},{"Location":"ECAR","Address":"6841 Beck Ave","City":"North Hollywood","State":"CA","Zip":"91605"},{"Location":"EDS  AUTOMOTIVE CENTER","Address":"11637 Sherman Way","City":"North Hollywood","State":"CA","Zip":"91605"},{"Location":"EL HATUCHAY","Address":"12853 Sherman Way","City":"North Hollywood","State":"CA","Zip":"91605"},{"Location":"ELISAS BRASS","Address":"7355 Lankershim Blvd","City":"North Hollywood","State":"CA","Zip":"91605"},{"Location":"ELIZABETH BEAUTY SALON","Address":"7458 Lankershim Blvd","City":"North Hollywood","State":"CA","Zip":"91605"},{"Location":"ERICS COLLISION","Address":"7919 Lankershim Blvd","City":"North Hollywood","State":"CA","Zip":"91605"},{"Location":"ERIKAS BEAUTY SALON","Address":"11709 Saticoy St","City":"North Hollywood","State":"CA","Zip":"91605"},{"Location":"FIRST CLASS BABRBERSHOP","Address":"10750 Vanowen St","City":"North Hollywood","State":"CA","Zip":"91605"},{"Location":"FR PRECISION MACHINERY INC","Address":"7361 Ethel Ave 11","City":"North Hollywood","State":"CA","Zip":"91605"},{"Location":"GEORGE COLLASO","Address":"11553 Sherman Way D","City":"North Hollywood","State":"CA","Zip":"91605"},{"Location":"GIFT & CRAFT","Address":"7355 Lankershim Blvd 47b","City":"North Hollywood","State":"CA","Zip":"91605"},{"Location":"GOAT HOUSE","Address":"7303 Ethel Ave","City":"North Hollywood","State":"CA","Zip":"91605"},{"Location":"GOLDEN FLOORS","Address":"13020 Sherman Way","City":"North Hollywood","State":"CA","Zip":"91605"},{"Location":"HD MUSIC","Address":"13345 Saticoy St","City":"North Hollywood","State":"CA","Zip":"91605"},{"Location":"HILDAS JEANS","Address":"7355 Lankershim Blvd 12","City":"North Hollywood","State":"CA","Zip":"91605"},{"Location":"HILOS Y TELAS CHELYS","Address":"7355 Lankershim Blvd 69","City":"North Hollywood","State":"CA","Zip":"91605"},{"Location":"HOLIDAY HUMANE SOCIETY","Address":"7301 Fulton Ave","City":"North Hollywood","State":"CA","Zip":"91605"},{"Location":"HOUSE OF DISCOUNT RADIATOR","Address":"7645 Lankershim Blvd","City":"North Hollywood","State":"CA","Zip":"91605"},{"Location":"INTERNATIONAL PROMOTIONS","Address":"10725 Vanowen St","City":"North Hollywood","State":"CA","Zip":"91605"},{"Location":"J AND S AUTOMOTIVE","Address":"12740 Sherman Way","City":"North Hollywood","State":"CA","Zip":"91605"},{"Location":"J M PLASTIC","Address":"12021 Vose St","City":"North Hollywood","State":"CA","Zip":"91605"},{"Location":"JENNYS FASHION","Address":"7355 Lankershim Blvd 77","City":"North Hollywood","State":"CA","Zip":"91605"},{"Location":"JUSTICE FOR HARLEM LLC","Address":"12028 Vose St","City":"North Hollywood","State":"CA","Zip":"91605"},{"Location":"KALONICET CULTURE STUDIO","Address":"7427 Varna Ave","City":"North Hollywood","State":"CA","Zip":"91605"},{"Location":"LA FIESTA SUPER MALL INC","Address":"12727 Sherman Way 201b","City":"North Hollywood","State":"CA","Zip":"91605"},{"Location":"LA SELECTA","Address":"7814 Lankershim Blvd","City":"North Hollywood","State":"CA","Zip":"91605"},{"Location":"LA TAPATIA","Address":"13143 Saticoy St 1a","City":"North Hollywood","State":"CA","Zip":"91605"},{"Location":"LANKERSHIM ADHC INCORP","Address":"6907 Lankershim Blvd","City":"North Hollywood","State":"CA","Zip":"91605"},{"Location":"LANKERSHIM CHECK CASHING","Address":"7355 Lankershim Blvd 88","City":"North Hollywood","State":"CA","Zip":"91605"},{"Location":"LAS CASITAS RESTAURANT","Address":"10932 Vanowen St","City":"North Hollywood","State":"CA","Zip":"91605"},{"Location":"LAS QUENAS","Address":"12708 Sherman Way","City":"North Hollywood","State":"CA","Zip":"91605"},{"Location":"LIZY BEAUTY SALON","Address":"12727 Sherman Way C01","City":"North Hollywood","State":"CA","Zip":"91605"},{"Location":"LOLITAS HOME INC","Address":"7651 Alcove Ave","City":"North Hollywood","State":"CA","Zip":"91605"},{"Location":"MARBLE AND GRANITE","Address":"6860 Farmdale Ave","City":"North Hollywood","State":"CA","Zip":"91605"},{"Location":"MARIO STORE FOR MEN","Address":"7355 Lankershim Blvd 48","City":"North Hollywood","State":"CA","Zip":"91605"},{"Location":"MARISCOS CIELITO LINDO","Address":"7453 Laurel Canyon Blvd","City":"North Hollywood","State":"CA","Zip":"91605"},{"Location":"MARISCOS MI PUEBLO","Address":"12516 Vanowen St","City":"North Hollywood","State":"CA","Zip":"91605"},{"Location":"MEICARBONORO THREE","Address":"12500 Vanowen St","City":"North Hollywood","State":"CA","Zip":"91605"},{"Location":"MI CARBONERO","Address":"11644 Victory Bolevard","City":"North Hollywood","State":"CA","Zip":"91605"},{"Location":"MIKE GREEN FIRE","Address":"11916 Valerio St","City":"North Hollywood","State":"CA","Zip":"91605"},{"Location":"NACHO & FAMILY CLOTHING","Address":"12727 Sherman Way E20","City":"North Hollywood","State":"CA","Zip":"91605"},{"Location":"NANAY GLORIA'S KITCHENETTE","Address":"12863 Sherman Way","City":"North Hollywood","State":"CA","Zip":"91605"},{"Location":"NENAS FASHION","Address":"7355 Lankershim Blvd 10","City":"North Hollywood","State":"CA","Zip":"91605"},{"Location":"ORTIZ TIRES","Address":"7019 Laurel Canyon Blvd 1","City":"North Hollywood","State":"CA","Zip":"91605"},{"Location":"PADILLAS TIRES","Address":"7127 Vineland Ave","City":"North Hollywood","State":"CA","Zip":"91605"},{"Location":"PIZZA HUT","Address":"8023 Lankershim Blvd","City":"North Hollywood","State":"CA","Zip":"91605"},{"Location":"QUALITY AUTOMOTIVE REPAIR","Address":"10740 Vanowen St","City":"North Hollywood","State":"CA","Zip":"91605"},{"Location":"RESTAURANTE AMALIAS","Address":"11541 Sherman Way","City":"North Hollywood","State":"CA","Zip":"91605"},{"Location":"ROBERTO VELAZQUEZ","Address":"11649 Sherman Way","City":"North Hollywood","State":"CA","Zip":"91605"},{"Location":"RON KOZIEL","Address":"13158 Sherman Way","City":"North Hollywood","State":"CA","Zip":"91605"},{"Location":"S.A.D. LIGHTING","Address":"13400 Saticoy St 7","City":"North Hollywood","State":"CA","Zip":"91605"},{"Location":"SCHUBERT SYSTEMS GROUP","Address":"7325 Hinds Ave","City":"North Hollywood","State":"CA","Zip":"91605"},{"Location":"SCOTCO INC","Address":"7429 Varna Ave","City":"North Hollywood","State":"CA","Zip":"91605"},{"Location":"SEVEN SEAS","Address":"7325 Greenbush Ave","City":"North Hollywood","State":"CA","Zip":"91605"},{"Location":"SOUND LINE INC","Address":"11166 Gault St","City":"North Hollywood","State":"CA","Zip":"91605"},{"Location":"SRI SIAM CAFE","Address":"12843 Vanowen St","City":"North Hollywood","State":"CA","Zip":"91605"},{"Location":"STAR MARBLE INC","Address":"12500 Raymer St","City":"North Hollywood","State":"CA","Zip":"91605"},{"Location":"STUDIO SUPPLY AND RECYCLING","Address":"7305 Ethel Ave","City":"North Hollywood","State":"CA","Zip":"91605"},{"Location":"TERESAS BARBERSHOP","Address":"8247 Laurel Canyon Blvd","City":"North Hollywood","State":"CA","Zip":"91605"},{"Location":"THAI BBQ","Address":"13114 Blythe St","City":"North Hollywood","State":"CA","Zip":"91605"},{"Location":"THE LIVING WORD","Address":"7321 Atoll Ave","City":"North Hollywood","State":"CA","Zip":"91605"},{"Location":"THE SCENE","Address":"13307 Saticoy St","City":"North Hollywood","State":"CA","Zip":"91605"},{"Location":"THOMAS TRIPPANY","Address":"6925 Farmdale Ave","City":"North Hollywood","State":"CA","Zip":"91605"},{"Location":"TIMOTHY LEETRAKUL DDS","Address":"12643 Sherman Way","City":"North Hollywood","State":"CA","Zip":"91605"},{"Location":"UP FRONT MOVERS","Address":"10929 Vanowen St 108","City":"North Hollywood","State":"CA","Zip":"91605"},{"Location":"VALLEY COMMUNITY CLINIC","Address":"6801 Coldwater Canyon Ave","City":"North Hollywood","State":"CA","Zip":"91605"},{"Location":"VALUE FURNITURE OUTLET","Address":"13054 Sherman Way","City":"North Hollywood","State":"CA","Zip":"91605"},{"Location":"WESTCHESTER GLASS & MIRROR CO","Address":"11644 Vanowen St","City":"North Hollywood","State":"CA","Zip":"91605"},{"Location":"WESTCO CHEMICALS","Address":"12551 Saticoy St S","City":"North Hollywood","State":"CA","Zip":"91605"}]