[{"Location":"LUCILLE'S #26","Address":"4611 Chino Hills Parkway","City":"Chino Hill","State":"CA","Zip":"91709"},{"Location":"24 HOUR FITNESS #180","Address":"4200 Chino Hills Pkwy","City":"Chino Hills","State":"CA","Zip":"91709"},{"Location":"AMERICAN    FINANCIAL NETWORK","Address":"14748 Pipeline Ave A","City":"Chino Hills","State":"CA","Zip":"91709"},{"Location":"AMERICAN MEDICAL RESPONSE","Address":"14512 Pipeline Ave","City":"Chino Hills","State":"CA","Zip":"91709"},{"Location":"ANTIMITE TERMITE  PEST CNTL","Address":"5867 Pine Ave","City":"Chino Hills","State":"CA","Zip":"91709"},{"Location":"ARCHIBALD BURGERS","Address":"15421 Fairfield Ranch Rd","City":"Chino Hills","State":"CA","Zip":"91709"},{"Location":"ARMEN SUB INC","Address":"6510 Butterfield Ranch Rd","City":"Chino Hills","State":"CA","Zip":"91709"},{"Location":"ASSOCIATION MANAGEMENT","Address":"14780 Pipeline Ave","City":"Chino Hills","State":"CA","Zip":"91709"},{"Location":"BJS RESTAURANT #483","Address":"4585 Chino Hills Pkwy","City":"Chino Hills","State":"CA","Zip":"91709"},{"Location":"BLD CHINO HILLS","Address":"16333 Fairfield Ranch Rd","City":"Chino Hills","State":"CA","Zip":"91709"},{"Location":"BUFFALO WILD WINGS #3333","Address":"3160 Chino Ave","City":"Chino Hills","State":"CA","Zip":"91709"},{"Location":"CALIFORNIA PIZZA KITCHEN #282","Address":"3505 Grand Ave","City":"Chino Hills","State":"CA","Zip":"91709"},{"Location":"CERTIFIED TIRE #43","Address":"14632 Pipeline Ave","City":"Chino Hills","State":"CA","Zip":"91709"},{"Location":"CHILI'S #0789","Address":"3670 Grand Ave","City":"Chino Hills","State":"CA","Zip":"91709"},{"Location":"CHINO HILLS DENTISTRY","Address":"3110 Chino Ave 260","City":"Chino Hills","State":"CA","Zip":"91709"},{"Location":"CHINO HILLS PEDIATRICS I","Address":"3110 Chino Ave 250","City":"Chino Hills","State":"CA","Zip":"91709"},{"Location":"CHINO HILLS PRIMARY CARE","Address":"3110 Chino Ave 150a","City":"Chino Hills","State":"CA","Zip":"91709"},{"Location":"CLIP AND CUT 2","Address":"3280 Chino Hills Pkwy 3","City":"Chino Hills","State":"CA","Zip":"91709"},{"Location":"CLIP N CUTS","Address":"2983 Chino Ave A4","City":"Chino Hills","State":"CA","Zip":"91709"},{"Location":"CRABBY CORNER","Address":"13089 Peyton Dr I","City":"Chino Hills","State":"CA","Zip":"91709"},{"Location":"CRUM OPTOMETRIC GROUP INC.","Address":"2581 Chino Hills Pkwy Stec","City":"Chino Hills","State":"CA","Zip":"91709"},{"Location":"DIAMOND AND DESIGN JEWELERS","Address":"4505 Chino Hills Pkwy","City":"Chino Hills","State":"CA","Zip":"91709"},{"Location":"DILLONS RESTAURANT%2FPUBI","Address":"13920 City Center Dr 4075","City":"Chino Hills","State":"CA","Zip":"91709"},{"Location":"DON SPENCE","Address":"12870 Rock Crest Ln","City":"Chino Hills","State":"CA","Zip":"91709"},{"Location":"DR PATRICIA BROTMAN","Address":"15944 Los Serranos Country Club","City":"Chino Hills","State":"CA","Zip":"91709"},{"Location":"FAZOLIS CHINO HILLS","Address":"13015 Peyton Dr","City":"Chino Hills","State":"CA","Zip":"91709"},{"Location":"FIRESTONE #301700","Address":"15880 Soquel Canyon Pkwy","City":"Chino Hills","State":"CA","Zip":"91709"},{"Location":"FULLER INSURANCE AGENCY","Address":"5839 Pine Ave","City":"Chino Hills","State":"CA","Zip":"91709"},{"Location":"GOODYEAR 4841","Address":"4200 Chino Hills Pkwy","City":"Chino Hills","State":"CA","Zip":"91709"},{"Location":"GREEN BANANA LEAF LLC","Address":"13089 Peyton Dr J","City":"Chino Hills","State":"CA","Zip":"91709"},{"Location":"GREEN ISLAND","Address":"13161 Peyton Dr B","City":"Chino Hills","State":"CA","Zip":"91709"},{"Location":"GUPPY HOUSE","Address":"13065 Peyton Dr A","City":"Chino Hills","State":"CA","Zip":"91709"},{"Location":"HAMPTON INN & SUITES (0059674)","Address":"3150 Chino Ave","City":"Chino Hills","State":"CA","Zip":"91709"},{"Location":"HERE FOR THE BEER","Address":"4191 Chino Hills Pkwy","City":"Chino Hills","State":"CA","Zip":"91709"},{"Location":"HERITAGE MORTAGE","Address":"5821 Pine Ave A","City":"Chino Hills","State":"CA","Zip":"91709"},{"Location":"ICHI KAWA","Address":"4665 Chino Hills Pkwy A","City":"Chino Hills","State":"CA","Zip":"91709"},{"Location":"JACUZZI INC","Address":"13925 City Center Dr 200","City":"Chino Hills","State":"CA","Zip":"91709"},{"Location":"JOJOS ACQUISITION INC","Address":"2923 Chino Ave","City":"Chino Hills","State":"CA","Zip":"91709"},{"Location":"KIKU JAPANESE RESTAURANT","Address":"3090 Chino Ave C","City":"Chino Hills","State":"CA","Zip":"91709"},{"Location":"LAS CASCADAS","Address":"4200 Chino Hills Pkwy 100","City":"Chino Hills","State":"CA","Zip":"91709"},{"Location":"LIBERTY TAX SERVICES","Address":"3280 Chino Hills Pkwy A5","City":"Chino Hills","State":"CA","Zip":"91709"},{"Location":"LINE DRIVE BASEBALL SOFT","Address":"4030 Chino Hills Pkwy 2","City":"Chino Hills","State":"CA","Zip":"91709"},{"Location":"LNA CONCRET STRUCTURES","Address":"15455 Tern St","City":"Chino Hills","State":"CA","Zip":"91709"},{"Location":"LOS PRIMOS MEXICAN FOOD","Address":"15390 Fairfield Ranch Rd I","City":"Chino Hills","State":"CA","Zip":"91709"},{"Location":"LOS SERRANOS COUNTRY CLU","Address":"15656 Yorba Ave","City":"Chino Hills","State":"CA","Zip":"91709"},{"Location":"MADANG TOFU INC","Address":"12959 Peyton Dr B","City":"Chino Hills","State":"CA","Zip":"91709"},{"Location":"OH QUESO","Address":"14270 Chino Hills Pkwy E","City":"Chino Hills","State":"CA","Zip":"91709"},{"Location":"PARADISE","Address":"2545 Chino Hills Pkwy A","City":"Chino Hills","State":"CA","Zip":"91709"},{"Location":"PARTY HOUSE LIQUOR","Address":"4060 Chino Hills Pkwy","City":"Chino Hills","State":"CA","Zip":"91709"},{"Location":"PF CHANG'S #9840","Address":"3445 Grand Ave","City":"Chino Hills","State":"CA","Zip":"91709"},{"Location":"PMAC LENDING SERVICES INC","Address":"15325 Fairfield Ranch Rd 200","City":"Chino Hills","State":"CA","Zip":"91709"},{"Location":"PMAC UNIVERSITY","Address":"15325 Fa Fairfield Ranch Rd Ste 2","City":"Chino Hills","State":"CA","Zip":"91709"},{"Location":"PRO BODY PHYSICAL THERAPY","Address":"3110 Chino Ave 130","City":"Chino Hills","State":"CA","Zip":"91709"},{"Location":"PRO NAILS","Address":"4200 Chino Hills Pkwy 370","City":"Chino Hills","State":"CA","Zip":"91709"},{"Location":"RA SUSHI #3023 CHINO HILLS","Address":"13925 City Center Dr 2065","City":"Chino Hills","State":"CA","Zip":"91709"},{"Location":"ROSCOE'S FAMOUS DELI","Address":"14700 Pipeline Ave","City":"Chino Hills","State":"CA","Zip":"91709"},{"Location":"SAMURAI JAPANESE RESTAURANT","Address":"2593 Chino Hills Pkwy E","City":"Chino Hills","State":"CA","Zip":"91709"},{"Location":"SANDRAS CALIMEX CANTINA","Address":"14670 Pipeline Ave","City":"Chino Hills","State":"CA","Zip":"91709"},{"Location":"SAVI NAILS AND SPA","Address":"4665 Chino Hills Pkwy","City":"Chino Hills","State":"CA","Zip":"91709"},{"Location":"SHAMROCK'S GRILL & PUB","Address":"4020 Chino Hills Pkwy","City":"Chino Hills","State":"CA","Zip":"91709"},{"Location":"SHOBOO KITCHEN","Address":"3626 Grand Ave M","City":"Chino Hills","State":"CA","Zip":"91709"},{"Location":"ST PAUL APOSTLE CATHOLIC","Address":"14085 Peyton Dr","City":"Chino Hills","State":"CA","Zip":"91709"},{"Location":"STIX HOLDINGS 707","Address":"3410 Grand Ave H","City":"Chino Hills","State":"CA","Zip":"91709"},{"Location":"SUPERCUTS CA 81073","Address":"4200 Chino Hills Pkwy","City":"Chino Hills","State":"CA","Zip":"91709"},{"Location":"SUSHI Q","Address":"3330 Grand Ave B","City":"Chino Hills","State":"CA","Zip":"91709"},{"Location":"TARSEM SINGHAL DDS-2130","Address":"2130 Grand Ave H","City":"Chino Hills","State":"CA","Zip":"91709"},{"Location":"THAI CORNER","Address":"14230 Chino Hills Pkwy H","City":"Chino Hills","State":"CA","Zip":"91709"},{"Location":"THAI TWIST","Address":"13089 Peyton Dr E","City":"Chino Hills","State":"CA","Zip":"91709"},{"Location":"THE GRID CYBER LOUNGE","Address":"3060 Chino Ave D","City":"Chino Hills","State":"CA","Zip":"91709"},{"Location":"THE KICKIN CRAB","Address":"13925 City Center Dr 2005","City":"Chino Hills","State":"CA","Zip":"91709"},{"Location":"THE LITTLE COPY SHOP","Address":"2955 Chino Ave E5","City":"Chino Hills","State":"CA","Zip":"91709"},{"Location":"THE PUB AT CHINOS HILL","Address":"5771 Pine Ave","City":"Chino Hills","State":"CA","Zip":"91709"},{"Location":"TRUECARE SURGERY CENTER","Address":"4511 Chino Hills Pkwy C","City":"Chino Hills","State":"CA","Zip":"91709"},{"Location":"U S TAEKWONDO CHINOHILLS","Address":"15938 Los Serranos Country Club","City":"Chino Hills","State":"CA","Zip":"91709"},{"Location":"VELLANO 20%2F20 #3","Address":"2441 Vellano Club Dr","City":"Chino Hills","State":"CA","Zip":"91709"},{"Location":"VELLANO COUNTRY CLUB","Address":"2441 Vellano Club Dr","City":"Chino Hills","State":"CA","Zip":"91709"},{"Location":"VELLANO COUNTRY CLUB #2","Address":"2449 Vellano Club Dr","City":"Chino Hills","State":"CA","Zip":"91709"},{"Location":"WABA GRILL","Address":"4517 Chino Hills Pkwy C","City":"Chino Hills","State":"CA","Zip":"91709"},{"Location":"WESTERN HILLS COUNTRY CLUB","Address":"1800 Carbon Canyon Rd","City":"Chino Hills","State":"CA","Zip":"91709"},{"Location":"WESTERN HILLS ESTATES","Address":"1850 Fairway Dr 102","City":"Chino Hills","State":"CA","Zip":"91709"},{"Location":"WINDERMERE REAL ESTATE GROUP","Address":"2130 Grand Ave","City":"Chino Hills","State":"CA","Zip":"91709"},{"Location":"WINGSTOP #601","Address":"4200 Chino Hills Pkwy 105","City":"Chino Hills","State":"CA","Zip":"91709"},{"Location":"WOOD RANCH BBQ & GRILL - CHINO","Address":"3335 Grand Ave","City":"Chino Hills","State":"CA","Zip":"91709"},{"Location":"YARD HOUSE 8320","Address":"13881 Peyton Dr Bldg9","City":"Chino Hills","State":"CA","Zip":"91709"}]