[{"Location":"A-1 LANDSCAPE SERVICE","Address":"5062 Elton St","City":"Baldwin Park","State":"CA","Zip":"91706"},{"Location":"AFS WAREHOUSE","Address":"5301 Rivergrade Rd","City":"Baldwin Park","State":"CA","Zip":"91706"},{"Location":"AMERICAN DENTAL","Address":"14311 Ramona Blvd","City":"Baldwin Park","State":"CA","Zip":"91706"},{"Location":"AMERICAN LEGION POST 241","Address":"4725 Maine Ave","City":"Baldwin Park","State":"CA","Zip":"91706"},{"Location":"AMERICAN MEDICAL RESPONSE","Address":"5257 Vincent Ave","City":"Baldwin Park","State":"CA","Zip":"91706"},{"Location":"ANA MARIA DENTAL OFFICE","Address":"14607 Ramona Blvd","City":"Baldwin Park","State":"CA","Zip":"91706"},{"Location":"ASPETTA  INC.","Address":"4744 Maine Ave","City":"Baldwin Park","State":"CA","Zip":"91706"},{"Location":"B P CUTS BARBER SHOP","Address":"14131 Ramona Blvd","City":"Baldwin Park","State":"CA","Zip":"91706"},{"Location":"BALDWIN PARK DENTAL GROU","Address":"13734 Ramona Blvd","City":"Baldwin Park","State":"CA","Zip":"91706"},{"Location":"BALDWIN PARK GRILL","Address":"4291 Maine Ave","City":"Baldwin Park","State":"CA","Zip":"91706"},{"Location":"BIOFRIENDLY CORP","Address":"13459 Brooks Dr A","City":"Baldwin Park","State":"CA","Zip":"91706"},{"Location":"BIOSENSE WEBSTER","Address":"15715 Arrow Hwy","City":"Baldwin Park","State":"CA","Zip":"91706"},{"Location":"BIOSENSE WEBSTER BLDG-2","Address":"15815 Arrow Hwy","City":"Baldwin Park","State":"CA","Zip":"91706"},{"Location":"BOBBEN INC","Address":"13200 Brooks Dr A","City":"Baldwin Park","State":"CA","Zip":"91706"},{"Location":"CASA GUERRERO","Address":"4007 La Rica Ave","City":"Baldwin Park","State":"CA","Zip":"91706"},{"Location":"CASA JIMENEZ MEXICAN 2","Address":"13348 Ramona Blvd","City":"Baldwin Park","State":"CA","Zip":"91706"},{"Location":"CB ELLIS B1 GYM","Address":"4900 Rivergrade Rd B1","City":"Baldwin Park","State":"CA","Zip":"91706"},{"Location":"CHINESE 4 YOU","Address":"14510 Baldwin Park Towne Ctr B1","City":"Baldwin Park","State":"CA","Zip":"91706"},{"Location":"CLASSIC AUTOMOTIVE","Address":"15232 Arrow Hwy Unitc","City":"Baldwin Park","State":"CA","Zip":"91706"},{"Location":"COWBOY BURGERS & BBQ","Address":"13101 Ramona Blvd","City":"Baldwin Park","State":"CA","Zip":"91706"},{"Location":"DAN MIKOLASKO CONSTRUCTION","Address":"5118 Calmview Ave","City":"Baldwin Park","State":"CA","Zip":"91706"},{"Location":"DAVITOS MENS HAIR STYLIN","Address":"4019 La Rica Ave","City":"Baldwin Park","State":"CA","Zip":"91706"},{"Location":"DENOVO DENTAL INC","Address":"5130 Commerce Dr","City":"Baldwin Park","State":"CA","Zip":"91706"},{"Location":"DOMINGUEZ CONSTRUCTION","Address":"16029 Arrow Hwy B","City":"Baldwin Park","State":"CA","Zip":"91706"},{"Location":"DR ROBLES FAMILY DENTAL","Address":"13533 Francisquito Ave","City":"Baldwin Park","State":"CA","Zip":"91706"},{"Location":"E AND K PRECISION INC.","Address":"5108 Calmview Ave","City":"Baldwin Park","State":"CA","Zip":"91706"},{"Location":"EL MATADOR","Address":"5312 Irwindale Ave","City":"Baldwin Park","State":"CA","Zip":"91706"},{"Location":"ESPADAS INC","Address":"5109 Elton St","City":"Baldwin Park","State":"CA","Zip":"91706"},{"Location":"FIESTA BAR","Address":"1834 Puente Ave","City":"Baldwin Park","State":"CA","Zip":"91706"},{"Location":"FIRESTONE #011991","Address":"4201 Maine Ave","City":"Baldwin Park","State":"CA","Zip":"91706"},{"Location":"FITNESS 19-243","Address":"3000 Big Dalton Ave","City":"Baldwin Park","State":"CA","Zip":"91706"},{"Location":"FMC 28670000","Address":"12711 Ramona Blvd","City":"Baldwin Park","State":"CA","Zip":"91706"},{"Location":"FOREVER YOUNG","Address":"4265 Maine Ave","City":"Baldwin Park","State":"CA","Zip":"91706"},{"Location":"GARDEN VIEW CARE CENTER","Address":"14475 Garden View Ln","City":"Baldwin Park","State":"CA","Zip":"91706"},{"Location":"GC SERVICES","Address":"4900 Rivergrade Rd","City":"Baldwin Park","State":"CA","Zip":"91706"},{"Location":"HALLETT BOATS","Address":"4800 Rivergrade Rd","City":"Baldwin Park","State":"CA","Zip":"91706"},{"Location":"HIMALAYAN CAFE","Address":"4291 Maine Ave","City":"Baldwin Park","State":"CA","Zip":"91706"},{"Location":"IGLESIA DEL NAZARENO","Address":"14254 Los Angeles St","City":"Baldwin Park","State":"CA","Zip":"91706"},{"Location":"IN AND OUT BURGER","Address":"13752 Francisquito Ave","City":"Baldwin Park","State":"CA","Zip":"91706"},{"Location":"IN AND OUT BURGER INC","Address":"13502 Hamburger Ln","City":"Baldwin Park","State":"CA","Zip":"91706"},{"Location":"INNOUT BURGER","Address":"1333 Virginia Ave","City":"Baldwin Park","State":"CA","Zip":"91706"},{"Location":"INNOUTBURGER","Address":"13502 Hamburger Ln","City":"Baldwin Park","State":"CA","Zip":"91706"},{"Location":"IRWINDALE DENTAL","Address":"16029 Arrow Hwy E","City":"Baldwin Park","State":"CA","Zip":"91706"},{"Location":"IT TRM INFORMATION SECURITY","Address":"4900 Rivergrade Rd","City":"Baldwin Park","State":"CA","Zip":"91706"},{"Location":"J & L LAUNDRY SERVICES","Address":"14131 Ramona Blvd","City":"Baldwin Park","State":"CA","Zip":"91706"},{"Location":"JAIMES TRUCK REPAIR","Address":"4249 Elton St","City":"Baldwin Park","State":"CA","Zip":"91706"},{"Location":"JEFFREY FAJARDO RAMONA","Address":"13310 Ramona Blvd K","City":"Baldwin Park","State":"CA","Zip":"91706"},{"Location":"JENSENS MARKET","Address":"4724 Maine Ave","City":"Baldwin Park","State":"CA","Zip":"91706"},{"Location":"KAI INDUSTRIES","Address":"15805 Edna Pl","City":"Baldwin Park","State":"CA","Zip":"91706"},{"Location":"KRAZY KUTS","Address":"4433 Maine Ave","City":"Baldwin Park","State":"CA","Zip":"91706"},{"Location":"LA FOGATA RESTAURANT","Address":"13900 Francisquito Ave A","City":"Baldwin Park","State":"CA","Zip":"91706"},{"Location":"LA TACOR TAQUERIA","Address":"14412 Ramona Blvd","City":"Baldwin Park","State":"CA","Zip":"91706"},{"Location":"LEGACY DENTAL","Address":"3127 Baldwin Park Blvd D","City":"Baldwin Park","State":"CA","Zip":"91706"},{"Location":"LEOS RESTAURANT","Address":"4704 Maine Ave C","City":"Baldwin Park","State":"CA","Zip":"91706"},{"Location":"LOUIS MANUFACTURING","Address":"4775 Irwindale Ave","City":"Baldwin Park","State":"CA","Zip":"91706"},{"Location":"LUCKY STAR BURGERS","Address":"14351 Ramona Blvd","City":"Baldwin Park","State":"CA","Zip":"91706"},{"Location":"MARIOS BARBER SHOP","Address":"4303 Maine Ave","City":"Baldwin Park","State":"CA","Zip":"91706"},{"Location":"MARIS PLACE","Address":"4291 Maine Ave","City":"Baldwin Park","State":"CA","Zip":"91706"},{"Location":"MEDIC 1 AMBULANCE SERVICE","Address":"5462 Irwindale Ave","City":"Baldwin Park","State":"CA","Zip":"91706"},{"Location":"MEDIC 1-IRWINDALE","Address":"12806 Sehabarum Ave #a","City":"Baldwin Park","State":"CA","Zip":"91706"},{"Location":"METROPOLITAN LIFE INS","Address":"4900 Rivergrade Rd A110","City":"Baldwin Park","State":"CA","Zip":"91706"},{"Location":"METROPOLITAN LIFE INSURANCE CO","Address":"4910 Rivergrade Rd","City":"Baldwin Park","State":"CA","Zip":"91706"},{"Location":"MICHAELS SUPER BURGER","Address":"16350 Arrow Hwy","City":"Baldwin Park","State":"CA","Zip":"91706"},{"Location":"MISSION PAVING AND SEALING","Address":"12747 Schabarum Ave","City":"Baldwin Park","State":"CA","Zip":"91706"},{"Location":"MONROVIA MAILING COMPANY INC","Address":"1442 Arrow Hwy A","City":"Baldwin Park","State":"CA","Zip":"91706"},{"Location":"MY MACHINE INC","Address":"5140 Commerce Dr","City":"Baldwin Park","State":"CA","Zip":"91706"},{"Location":"PACON INC","Address":"4249 Puente Ave","City":"Baldwin Park","State":"CA","Zip":"91706"},{"Location":"PEPES FINEST MEXICAN FOOD","Address":"14400 Merced Ave","City":"Baldwin Park","State":"CA","Zip":"91706"},{"Location":"PEPSI BOTTLE CO","Address":"4416 Azusa Canyon Rd","City":"Baldwin Park","State":"CA","Zip":"91706"},{"Location":"PHOENIX SATELITE TV","Address":"12803 Schadarum Ave","City":"Baldwin Park","State":"CA","Zip":"91706"},{"Location":"PLAZA TIRE","Address":"14056 Ramona Blvd","City":"Baldwin Park","State":"CA","Zip":"91706"},{"Location":"PROGRESSIVE CARE","Address":"3941 Merced Ave","City":"Baldwin Park","State":"CA","Zip":"91706"},{"Location":"RACE TRAINING USA INC","Address":"500 Speedway Dr F","City":"Baldwin Park","State":"CA","Zip":"91706"},{"Location":"RAMONA BARBER","Address":"12748 Ramona Blvd","City":"Baldwin Park","State":"CA","Zip":"91706"},{"Location":"RC CUSTOM WOODWORKS INC","Address":"5277 Vincent Ave 9","City":"Baldwin Park","State":"CA","Zip":"91706"},{"Location":"ROYAL COACHES","Address":"14827 Ramona Blvd","City":"Baldwin Park","State":"CA","Zip":"91706"},{"Location":"SAINT JOHNS FAMILY PHARM","Address":"14514 Ramona Blvd","City":"Baldwin Park","State":"CA","Zip":"91706"},{"Location":"SHAKEY'S PIZZA","Address":"14021 Ramona Blvd","City":"Baldwin Park","State":"CA","Zip":"91706"},{"Location":"SIZZLER","Address":"14635 Baldwin Park Towne Ctr","City":"Baldwin Park","State":"CA","Zip":"91706"},{"Location":"ST JOHN THE BAPTIST CHURCH","Address":"3848 Stewart Ave","City":"Baldwin Park","State":"CA","Zip":"91706"},{"Location":"SUPER BIONICOS","Address":"14315 Ramona Blvd B","City":"Baldwin Park","State":"CA","Zip":"91706"},{"Location":"TACO LA BUFADORA 2","Address":"16020 Arrow Hwy","City":"Baldwin Park","State":"CA","Zip":"91706"},{"Location":"TAO KARUNA INSTITUTE","Address":"15855 Edna Pl 18","City":"Baldwin Park","State":"CA","Zip":"91706"},{"Location":"THE BUYBACK STORE","Address":"14348 Ramona Blvd","City":"Baldwin Park","State":"CA","Zip":"91706"},{"Location":"TORTAS SINALOA","Address":"14510 Baldwin Park Towne Ctr 5","City":"Baldwin Park","State":"CA","Zip":"91706"},{"Location":"TURBO WHOLESALE TIRES","Address":"5793 Martin Rd","City":"Baldwin Park","State":"CA","Zip":"91706"},{"Location":"TVON LLC","Address":"460 Cloverleaf Dr","City":"Baldwin Park","State":"CA","Zip":"91706"},{"Location":"U.T.U.","Address":"15999 Cypress Ave","City":"Baldwin Park","State":"CA","Zip":"91706"},{"Location":"URUAPAN BAR & GRILL","Address":"13310 Ramona Blvd A","City":"Baldwin Park","State":"CA","Zip":"91706"},{"Location":"URUAPAN SALAD GRILL","Address":"14335 Ramona Blvd","City":"Baldwin Park","State":"CA","Zip":"91706"},{"Location":"VALLARTA SUPERMARKET NO 15","Address":"13940 Ramona Blvd","City":"Baldwin Park","State":"CA","Zip":"91706"},{"Location":"VAN ASCH JANITORIAL","Address":"16300 Arrow Hwy A","City":"Baldwin Park","State":"CA","Zip":"91706"},{"Location":"VERTEX TRANSPORTATION INC","Address":"15859 Edna Pl 201","City":"Baldwin Park","State":"CA","Zip":"91706"},{"Location":"WENDYS 11392","Address":"3101 Baldwin Park Blvd","City":"Baldwin Park","State":"CA","Zip":"91706"},{"Location":"WING STOP #349","Address":"3127 Baldwin Park Blvd","City":"Baldwin Park","State":"CA","Zip":"91706"},{"Location":"XIAOCHEN WANG","Address":"13409 Garvey Ave 4","City":"Baldwin Park","State":"CA","Zip":"91706"},{"Location":"AMERICAN MEDICAL RESPONSE I","Address":"12921 Ramona Blvd D","City":"Irwindale","State":"CA","Zip":"91706"},{"Location":"DEALER TIRE","Address":"4981 4th St","City":"Irwindale","State":"CA","Zip":"91706"},{"Location":"MARISCOS URAPANS","Address":"16034 Arrow Hwy","City":"Irwindale","State":"CA","Zip":"91706"},{"Location":"MB FOOD SERVICE","Address":"4401 N Foxdale Ave","City":"Irwindale","State":"CA","Zip":"91706"},{"Location":"POLYCYCLE SOLUTIONS","Address":"4516 Azusa Canyon Rd","City":"Irwindale","State":"CA","Zip":"91706"},{"Location":"SCEFCU","Address":"12701 Shabarum Ave","City":"Irwindale","State":"CA","Zip":"91706"},{"Location":"THE VAPE DEN","Address":"15640 Arrow Hwy","City":"Irwindale","State":"CA","Zip":"91706"}]