[{"Location":"ACCESS PARTNERS","Address":"1250 Mountain View Cir","City":"Azusa","State":"CA","Zip":"91702"},{"Location":"AMERICAN LEGIONS 180","Address":"819 N Loren Ave","City":"Azusa","State":"CA","Zip":"91702"},{"Location":"AP ADVERSARY PROTECTION","Address":"515 N Azusa Ave C","City":"Azusa","State":"CA","Zip":"91702"},{"Location":"APPLEBEE'S #2150039","Address":"377 N Citrus Ave","City":"Azusa","State":"CA","Zip":"91702"},{"Location":"ASSOCIATED AIR BALANCE","Address":"457 E Arrow Hwy D","City":"Azusa","State":"CA","Zip":"91702"},{"Location":"AZUSA DIALYSIS","Address":"310-312 N Azusa Rd","City":"Azusa","State":"CA","Zip":"91702"},{"Location":"AZUSA GREEN","Address":"919 W Sierra Madre Ave","City":"Azusa","State":"CA","Zip":"91702"},{"Location":"AZUSA PACIFIC UNIVERS. OFFICES","Address":"901 E Alosta Ave","City":"Azusa","State":"CA","Zip":"91702"},{"Location":"BIG ALS BABERSHOP","Address":"310 N Citrus Ave F","City":"Azusa","State":"CA","Zip":"91702"},{"Location":"BOTANICA DISTRIBUTION","Address":"521 N Azusa Ave","City":"Azusa","State":"CA","Zip":"91702"},{"Location":"BROWN AUTO GLASS","Address":"1101 W Foothill Blvd","City":"Azusa","State":"CA","Zip":"91702"},{"Location":"CANYON CITY BARBEQUE","Address":"347 N San Gabriel Ave","City":"Azusa","State":"CA","Zip":"91702"},{"Location":"CITY OF AZUSA ELECTRIC DIVISON","Address":"1020 W 10th St","City":"Azusa","State":"CA","Zip":"91702"},{"Location":"CONGREGATION ALEHOUSE","Address":"616 N Azusa Ave","City":"Azusa","State":"CA","Zip":"91702"},{"Location":"COSTCO","Address":"1220 W Foothill Blvd","City":"Azusa","State":"CA","Zip":"91702"},{"Location":"COUWAMI ASIAN RESTAURANT","Address":"437 S Azusa Ave","City":"Azusa","State":"CA","Zip":"91702"},{"Location":"CUSTOM CREATOR","Address":"910 W 10th St","City":"Azusa","State":"CA","Zip":"91702"},{"Location":"DENTAL OFFICE GENERAL JEAN KAT","Address":"1141 E Alosta Ave","City":"Azusa","State":"CA","Zip":"91702"},{"Location":"EAGLES LODGE 2810 AZUSA","Address":"1603 N San Gabriel Canyon Rd","City":"Azusa","State":"CA","Zip":"91702"},{"Location":"ED ANGLEMYER CRANE RENTAL","Address":"1190 W Gladstone St","City":"Azusa","State":"CA","Zip":"91702"},{"Location":"EL GALLO PINTO","Address":"5559 N Azusa Ave","City":"Azusa","State":"CA","Zip":"91702"},{"Location":"ELLER GEM INC","Address":"18469 East Oakley St","City":"Azusa","State":"CA","Zip":"91702"},{"Location":"ETTIE LEE YOUTH AND FAMILY2","Address":"620 N Cerritos Ave","City":"Azusa","State":"CA","Zip":"91702"},{"Location":"EXIT 38 AVENUE LLC","Address":"347 S Irwindale Ave","City":"Azusa","State":"CA","Zip":"91702"},{"Location":"FALAFEEL ME","Address":"1123 E Alosta Ave","City":"Azusa","State":"CA","Zip":"91702"},{"Location":"GALE BANKS ENGENEERING","Address":"589 S Duggan Ave","City":"Azusa","State":"CA","Zip":"91702"},{"Location":"GALE BANKS ENGENEERING 2","Address":"547 S Duggan Ave","City":"Azusa","State":"CA","Zip":"91702"},{"Location":"GOODYEAR 4877","Address":"877 S Azusa Ave","City":"Azusa","State":"CA","Zip":"91702"},{"Location":"HANSON DISTRIBUTING INC","Address":"975 W 8th St","City":"Azusa","State":"CA","Zip":"91702"},{"Location":"IRISH PUB GROUP","Address":"200 S Irwindale Ave","City":"Azusa","State":"CA","Zip":"91702"},{"Location":"JCW AUTO REPAIR","Address":"245 S Irwindale Ave","City":"Azusa","State":"CA","Zip":"91702"},{"Location":"JERRYS MARKET","Address":"211 E Newburgh St","City":"Azusa","State":"CA","Zip":"91702"},{"Location":"JESSIES MEXICAN AND SEAF","Address":"400 N Azusa Ave","City":"Azusa","State":"CA","Zip":"91702"},{"Location":"JIFFY LUBE 0640","Address":"808 E Alosta Ave","City":"Azusa","State":"CA","Zip":"91702"},{"Location":"JULIUS KLEIN CAMP","Address":"22550 E East Fork Rd","City":"Azusa","State":"CA","Zip":"91702"},{"Location":"JULIUS KLEIN CAMP 19","Address":"22550 E East Fork Rd","City":"Azusa","State":"CA","Zip":"91702"},{"Location":"KANPAI SUSHI RESTAURANT","Address":"722 N Azusa Ave","City":"Azusa","State":"CA","Zip":"91702"},{"Location":"LA PRADERA CARNICERIA","Address":"651 E Arrow Hwy","City":"Azusa","State":"CA","Zip":"91702"},{"Location":"LA TOLTECA","Address":"429 N Azusa Ave","City":"Azusa","State":"CA","Zip":"91702"},{"Location":"LALOS RESTAURANT","Address":"530 S Citrus Ave 8","City":"Azusa","State":"CA","Zip":"91702"},{"Location":"LEOS BEAUTY SALON 2","Address":"623 Azusa","City":"Azusa","State":"CA","Zip":"91702"},{"Location":"LINDLEYSCOTT HOUSE","Address":"720 E Foothill Blvd","City":"Azusa","State":"CA","Zip":"91702"},{"Location":"MAX COCINE","Address":"635 N Azusa Ave","City":"Azusa","State":"CA","Zip":"91702"},{"Location":"MDW MANCINO","Address":"716 N Coney Ave","City":"Azusa","State":"CA","Zip":"91702"},{"Location":"MIGUEL JEREMIAS M DDS","Address":"525 N Azusa Ave","City":"Azusa","State":"CA","Zip":"91702"},{"Location":"NORTHROP GRUMMANN","Address":"1111 W 3rd St","City":"Azusa","State":"CA","Zip":"91702"},{"Location":"PADDILAS RESTURANT","Address":"16920 E Gladstone St","City":"Azusa","State":"CA","Zip":"91702"},{"Location":"PHO 777 KOREAN BARBQUE TOFO","Address":"920 E Alosta Ave","City":"Azusa","State":"CA","Zip":"91702"},{"Location":"PHO EXPRESS","Address":"1167 E Alosta Ave","City":"Azusa","State":"CA","Zip":"91702"},{"Location":"PIE PLACE","Address":"1175 E Alosta Ave","City":"Azusa","State":"CA","Zip":"91702"},{"Location":"RALPH REYES DDS","Address":"613 N Azusa Ave 613b","City":"Azusa","State":"CA","Zip":"91702"},{"Location":"RINCON FIRE STATION","Address":"15200 N San Gabriel Canyon Rd","City":"Azusa","State":"CA","Zip":"91702"},{"Location":"RODGER","Address":"780 N Loren Ave","City":"Azusa","State":"CA","Zip":"91702"},{"Location":"SAKAE SUSHI","Address":"1155 E Alosta Ave","City":"Azusa","State":"CA","Zip":"91702"},{"Location":"SHALABI MEDICAL OFFICE","Address":"453 E Arrow Hwy","City":"Azusa","State":"CA","Zip":"91702"},{"Location":"SILVERDO SENIOR LIVING SIERRA","Address":"125 W Sierra Madre Ave","City":"Azusa","State":"CA","Zip":"91702"},{"Location":"ST FRANCES OF ROME CHURCH","Address":"501 E Foothill Blvd","City":"Azusa","State":"CA","Zip":"91702"},{"Location":"STANLEY STEEMER","Address":"841 W Foothill Blvd","City":"Azusa","State":"CA","Zip":"91702"},{"Location":"SUPER TOMS BURGERS","Address":"444 E Foothill Blvd","City":"Azusa","State":"CA","Zip":"91702"},{"Location":"SUPERCUTS","Address":"858 E Alosta Ave","City":"Azusa","State":"CA","Zip":"91702"},{"Location":"TACO KING","Address":"245 E Gladstone St","City":"Azusa","State":"CA","Zip":"91702"},{"Location":"TAMS BURGERS","Address":"585 E Arrow Hwy","City":"Azusa","State":"CA","Zip":"91702"},{"Location":"TARDINO BROS KITCHEN1","Address":"709 N Azusa Ave","City":"Azusa","State":"CA","Zip":"91702"},{"Location":"TRIAD FITNESS","Address":"360 N Citrus Ave","City":"Azusa","State":"CA","Zip":"91702"},{"Location":"TULIPANO ITALIAN RESTAUR","Address":"530 S Citrus Ave","City":"Azusa","State":"CA","Zip":"91702"},{"Location":"US ARMS FORCE CARRER CENTER","Address":"992 E Alosta Ave","City":"Azusa","State":"CA","Zip":"91702"},{"Location":"USDA NATIONAL FINANCE","Address":"East Fork Rs Star Rental","City":"Azusa","State":"CA","Zip":"91702"},{"Location":"VERIZON AZUSA MTSO","Address":"939 N Vernon Ave","City":"Azusa","State":"CA","Zip":"91702"},{"Location":"BARTLEY OPTICAL SALES","Address":"1300 W Optical Dr","City":"Irwindale","State":"CA","Zip":"91702"},{"Location":"IRWINDALE INDUSTRIAL CLINIC","Address":"6000 N Irwindale Ave A","City":"Irwindale","State":"CA","Zip":"91702"},{"Location":"SOUTHERN CALIFORNIA EDISON","Address":"6010 N Irwindale Ave","City":"Irwindale","State":"CA","Zip":"91702"},{"Location":"SOUTHERN CALIFORNIA EDISON","Address":"6030 N Irwindale Ave","City":"Irwindale","State":"CA","Zip":"91702"},{"Location":"SOUTHERN CALIFORNIA EDISON%2FIRW","Address":"6020 N Irwindale Ave Bld-m","City":"Irwindale","State":"CA","Zip":"91702"}]