[{"Location":"4EVR FIT","Address":"8750 Baseline Rd","City":"Rancho Cucamonga","State":"CA","Zip":"91701"},{"Location":"CARNELIAN DENTAL","Address":"6626 Carnelian St","City":"Rancho Cucamonga","State":"CA","Zip":"91701"},{"Location":"CASAVERDE LANDSCAPE","Address":"7090 Archibald Ave","City":"Rancho Cucamonga","State":"CA","Zip":"91701"},{"Location":"Cc Hair Fashions","Address":"6791 Carnelian Street","City":"Rancho Cucamonga","State":"CA","Zip":"91701"},{"Location":"CHAPARRAL HEIGHTS MOBILE","Address":"6880 Archibald Ave","City":"Rancho Cucamonga","State":"CA","Zip":"91701"},{"Location":"CRUSH NUTRITION LLC","Address":"7211 Haven Ave G","City":"Rancho Cucamonga","State":"CA","Zip":"91701"},{"Location":"DALIAS PIZZA MARKET","Address":"9588 Baseline Rd","City":"Rancho Cucamonga","State":"CA","Zip":"91701"},{"Location":"EL RANCHERO RESTAURANT2","Address":"8697 19th St","City":"Rancho Cucamonga","State":"CA","Zip":"91701"},{"Location":"FITNESS 19 RANCHO CUCAMO","Address":"7221 Haven Ave","City":"Rancho Cucamonga","State":"CA","Zip":"91701"},{"Location":"GALLI'S","Address":"6620 Carnelian St","City":"Rancho Cucamonga","State":"CA","Zip":"91701"},{"Location":"HAIR EXPER BARBAR","Address":"7181 Archibald Ave 22","City":"Rancho Cucamonga","State":"CA","Zip":"91701"},{"Location":"JERRYS OLD TYME BARBER SHOP1","Address":"8685 19th St","City":"Rancho Cucamonga","State":"CA","Zip":"91701"},{"Location":"PFF BANK AND TRUST","Address":"6644 Carnelian St","City":"Rancho Cucamonga","State":"CA","Zip":"91701"},{"Location":"PFF BANK AND TRUST","Address":"9696 Baseline Rd","City":"Rancho Cucamonga","State":"CA","Zip":"91701"},{"Location":"RAMONA VILLA ESTATES","Address":"9800 Baseline Rd","City":"Rancho Cucamonga","State":"CA","Zip":"91701"},{"Location":"SEMAIN BROTHERS LTD","Address":"10350 Baseline Rd","City":"Rancho Cucamonga","State":"CA","Zip":"91701"},{"Location":"SKY NAILS","Address":"8683 19th St","City":"Rancho Cucamonga","State":"CA","Zip":"91701"},{"Location":"STUFT PIZZA","Address":"7251 Haven Ave 1a","City":"Rancho Cucamonga","State":"CA","Zip":"91701"},{"Location":"Thee Latest Hair Exp. Ii","Address":"9024 Archibald Avenue","City":"Rancho Cucamonga","State":"CA","Zip":"91701"},{"Location":"WINGSTOP","Address":"7212 Archibald Ave","City":"Rancho Cucamonga","State":"CA","Zip":"91701"},{"Location":"BAD ASS COFFEE CO","Address":"11460 Kenyon Way 108","City":"Rch Cucamonga","State":"CA","Zip":"91701"},{"Location":"BASELINE  ANIMAL HOSPITA","Address":"9760 Baseline Rd 100","City":"Rch Cucamonga","State":"CA","Zip":"91701"}]