[{"Location":"BARBARAS ANSWERING SERVICE","Address":"230 W Foothill Blvd","City":"Claremont","State":"CA","Zip":"91711"},{"Location":"BEER BELLY DELI","Address":"590 W 1st St","City":"Claremont","State":"CA","Zip":"91711"},{"Location":"BROW THREADING","Address":"430 Auto Center Dr","City":"Claremont","State":"CA","Zip":"91711"},{"Location":"BUCA DI BEPPO #506","Address":"505 W Foothill Blvd","City":"Claremont","State":"CA","Zip":"91711"},{"Location":"CAL BANK & TRUST","Address":"102 Yale Ave","City":"Claremont","State":"CA","Zip":"91711"},{"Location":"CASA DE SALSA","Address":"415 W Foothill Blvd","City":"Claremont","State":"CA","Zip":"91711"},{"Location":"CASA MORENO","Address":"101 N Indian Hill Blvd 103","City":"Claremont","State":"CA","Zip":"91711"},{"Location":"CLAREMONT MCKENNA COLLEG","Address":"664 Harwood Pl","City":"Claremont","State":"CA","Zip":"91711"},{"Location":"CLAREMONT MCKENNA COLLEGE","Address":"500 E 9th St","City":"Claremont","State":"CA","Zip":"91711"},{"Location":"CLAREMONT MEDICAL","Address":"995 W Foothill Blvd","City":"Claremont","State":"CA","Zip":"91711"},{"Location":"CLAREMONT SCHOOL OF THEOLOGY","Address":"1325 N College Ave","City":"Claremont","State":"CA","Zip":"91711"},{"Location":"CLAREMONT TOYOTA","Address":"601 Auto Center Dr","City":"Claremont","State":"CA","Zip":"91711"},{"Location":"CLAREMONT U","Address":"150 E 8th St","City":"Claremont","State":"CA","Zip":"91711"},{"Location":"CLAREMONT UNIVERSITY","Address":"101 S Mills Ave","City":"Claremont","State":"CA","Zip":"91711"},{"Location":"CLAREMONT UNIVERSITY","Address":"757 College Way","City":"Claremont","State":"CA","Zip":"91711"},{"Location":"CLAREMONT UNIVERSITY CONSORTIU","Address":"139 E 7th St","City":"Claremont","State":"CA","Zip":"91711"},{"Location":"CLAREMONT VW","Address":"508 Auto Center Dr","City":"Claremont","State":"CA","Zip":"91711"},{"Location":"COMMUNITY COMMERCE BANK","Address":"358 W Foothill Blvd","City":"Claremont","State":"CA","Zip":"91711"},{"Location":"CROSSROADS INC","Address":"250 W 1st St 254","City":"Claremont","State":"CA","Zip":"91711"},{"Location":"DOUBLETREE BY HILTON (0014630)","Address":"555 W Foothill Blvd","City":"Claremont","State":"CA","Zip":"91711"},{"Location":"EDDIE'S NEW YORK PIZZERIA","Address":"1065 W Foothill Blvd","City":"Claremont","State":"CA","Zip":"91711"},{"Location":"ESPIAU'S RESTAURANT","Address":"109 Yale Ave","City":"Claremont","State":"CA","Zip":"91711"},{"Location":"EUREKA BURGER","Address":"580 W 1st St","City":"Claremont","State":"CA","Zip":"91711"},{"Location":"GET U FIT PERSONAL WELLN","Address":"1420 N Claremont Blvd 207","City":"Claremont","State":"CA","Zip":"91711"},{"Location":"HAIR CONNECTION","Address":"370 W Foothill Blvd","City":"Claremont","State":"CA","Zip":"91711"},{"Location":"INTEGRATED RESOURCE","Address":"405 5 Indian Hill Blvd","City":"Claremont","State":"CA","Zip":"91711"},{"Location":"IRON WORKS","Address":"697 E Foothill Blvd","City":"Claremont","State":"CA","Zip":"91711"},{"Location":"JAMES SANBRANO ATTORNEY","Address":"319 Harvard Ave D","City":"Claremont","State":"CA","Zip":"91711"},{"Location":"KECK GRADUATE INSTITUTE","Address":"535 Watson Dr","City":"Claremont","State":"CA","Zip":"91711"},{"Location":"KING KONG SUSHI","Address":"300 N Indian Hill Blvd","City":"Claremont","State":"CA","Zip":"91711"},{"Location":"LAKES PHYSICAL THERAPHY","Address":"935 W Foothill Blvd","City":"Claremont","State":"CA","Zip":"91711"},{"Location":"LAW OFFICE OF HERBERT HAFIF","Address":"265 W Bonita Ave","City":"Claremont","State":"CA","Zip":"91711"},{"Location":"LONE EAGLE WEALTH SRVC","Address":"1490 N Claremont Blvd 100","City":"Claremont","State":"CA","Zip":"91711"},{"Location":"LOUIS WATSON MD","Address":"2058 N Mills Ave","City":"Claremont","State":"CA","Zip":"91711"},{"Location":"MAHONEY AND SOL","Address":"150 W 1st St 280","City":"Claremont","State":"CA","Zip":"91711"},{"Location":"MARIE CALANDERS","Address":"1030 W Foothill Blvd","City":"Claremont","State":"CA","Zip":"91711"},{"Location":"NEW BEDFORD PANORAMEX","Address":"1480 N Claremont Blvd","City":"Claremont","State":"CA","Zip":"91711"},{"Location":"NEWPORT DENTAL","Address":"406 Auto Center Dr","City":"Claremont","State":"CA","Zip":"91711"},{"Location":"OAKPARK MANOR","Address":"501 S College Ave","City":"Claremont","State":"CA","Zip":"91711"},{"Location":"ORCHARD RESTAURANT AND LOUNGE","Address":"555 W Foothill Blvd A","City":"Claremont","State":"CA","Zip":"91711"},{"Location":"PFF BANK AND TRUST","Address":"393 W Foothill Blvd","City":"Claremont","State":"CA","Zip":"91711"},{"Location":"PIANO PIANO DWUELLING","Address":"555 W Foothill Blvd","City":"Claremont","State":"CA","Zip":"91711"},{"Location":"PILGRIM PLACE","Address":"721 Harrison Ave","City":"Claremont","State":"CA","Zip":"91711"},{"Location":"PIZZA N SUCH INC","Address":"202 Yale Ave","City":"Claremont","State":"CA","Zip":"91711"},{"Location":"POMONA VALLEY HEALTH CENTER","Address":"1601 Monte Vista Ave","City":"Claremont","State":"CA","Zip":"91711"},{"Location":"RICHARD D MC CLOSKEY DDS INC","Address":"412 W Baseline Rd","City":"Claremont","State":"CA","Zip":"91711"},{"Location":"ROUND PREMIUM BURGESRS","Address":"885 S Indian Hill Blvd","City":"Claremont","State":"CA","Zip":"91711"},{"Location":"ROUND TABLE PIZZA","Address":"598 E Baseline Rd","City":"Claremont","State":"CA","Zip":"91711"},{"Location":"ROUND TABLE PIZZA","Address":"408 Auto Center Dr","City":"Claremont","State":"CA","Zip":"91711"},{"Location":"RUNAWAY PRODUCTS LLC","Address":"250 W 1st St 310","City":"Claremont","State":"CA","Zip":"91711"},{"Location":"SCRIPPS - SALLIE TIERNAN","Address":"1031 Platt Blvd","City":"Claremont","State":"CA","Zip":"91711"},{"Location":"SCRIPPS CO","Address":"1030 Columbia Ave","City":"Claremont","State":"CA","Zip":"91711"},{"Location":"SCRIPPS COLLEGE","Address":"1030 Columbia Ave 2007","City":"Claremont","State":"CA","Zip":"91711"},{"Location":"SCRIPPS COLLEGE","Address":"240 E 11th St","City":"Claremont","State":"CA","Zip":"91711"},{"Location":"SPECTRUM%2C SPORTS MANAGEMENT","Address":"1420 N Claremont Blvd 112b","City":"Claremont","State":"CA","Zip":"91711"},{"Location":"SPORTS PROS","Address":"1599 Monte Vista Ave","City":"Claremont","State":"CA","Zip":"91711"},{"Location":"ST JOSEPHS HOME","Address":"2408 San Jacinto Ct","City":"Claremont","State":"CA","Zip":"91711"},{"Location":"SUPER CUTS","Address":"926 W Foothill Blvd","City":"Claremont","State":"CA","Zip":"91711"},{"Location":"SUSHI MARU SEAFOOD","Address":"962 W Foothill Blvd","City":"Claremont","State":"CA","Zip":"91711"},{"Location":"TBA RESTURANT","Address":"128 Oberlin Ave","City":"Claremont","State":"CA","Zip":"91711"},{"Location":"THE CLAREMONT CLUB","Address":"1777 Monte Vista Ave","City":"Claremont","State":"CA","Zip":"91711"},{"Location":"THE HUB","Address":"500 E 9th St","City":"Claremont","State":"CA","Zip":"91711"},{"Location":"THE LEAHY LAWFIRM","Address":"415 W Foothill Blvd 208","City":"Claremont","State":"CA","Zip":"91711"},{"Location":"THE PRESS","Address":"129 Harvard Ave","City":"Claremont","State":"CA","Zip":"91711"},{"Location":"THE RENKEN COMPANY","Address":"492 W Foothill Blvd","City":"Claremont","State":"CA","Zip":"91711"},{"Location":"THE WEBB SCHOOLS","Address":"1175 W Baseline Rd","City":"Claremont","State":"CA","Zip":"91711"},{"Location":"UFCW LOCAL 1428","Address":"705 W Arrow Hwy","City":"Claremont","State":"CA","Zip":"91711"},{"Location":"VALANI GRILL","Address":"425 W Foothill Blvd","City":"Claremont","State":"CA","Zip":"91711"},{"Location":"WABA GRILL TERIYAKI HOUS","Address":"440 Auto Center Dr","City":"Claremont","State":"CA","Zip":"91711"},{"Location":"WALTERS RESTAURANT","Address":"310 Yale Ave","City":"Claremont","State":"CA","Zip":"91711"},{"Location":"WESCO GROUP INC","Address":"131 Yale Ave","City":"Claremont","State":"CA","Zip":"91711"},{"Location":"WESTERN ASSEMBLY HOME","Address":"350 Berkeley Ave","City":"Claremont","State":"CA","Zip":"91711"},{"Location":"WILCOX SALES","Address":"1420 N Claremont Blvd 203a","City":"Claremont","State":"CA","Zip":"91711"},{"Location":"YOUTH ACTIVITY CENTRE","Address":"1717 N Indian Hill Blvd A","City":"Claremont","State":"CA","Zip":"91711"}]