[{"Location":"#1 ENJOY NAIL AND SPA","Address":"5370 Schaefer Ave C1","City":"Chino","State":"CA","Zip":"91710"},{"Location":"24 HOUR FITNESS #897","Address":"12155 Central Ave","City":"Chino","State":"CA","Zip":"91710"},{"Location":"A CUT ABOVE","Address":"13060 Central Avenue","City":"Chino","State":"CA","Zip":"91710"},{"Location":"ALDIB","Address":"5202 Philadelphia St Unitu","City":"Chino","State":"CA","Zip":"91710"},{"Location":"ALWAYS LESS OUTLET","Address":"3909 Schaefer Ave","City":"Chino","State":"CA","Zip":"91710"},{"Location":"AMCOR","Address":"14270 Ramona Ave","City":"Chino","State":"CA","Zip":"91710"},{"Location":"AMERICAN BARBERS","Address":"4514 Philadelphia St","City":"Chino","State":"CA","Zip":"91710"},{"Location":"AMERICAN HONDA","Address":"14141 Yorba Ave","City":"Chino","State":"CA","Zip":"91710"},{"Location":"AMERICAN LEGION - CHINO","Address":"13759 Central Ave","City":"Chino","State":"CA","Zip":"91710"},{"Location":"AMERICAN MEDICAL","Address":"14901 Central Ave","City":"Chino","State":"CA","Zip":"91710"},{"Location":"APPLEBEE'S #2150022","Address":"3956 Grand Ave","City":"Chino","State":"CA","Zip":"91710"},{"Location":"ATLANTIS PACKAGING","Address":"13405 Benson Ave","City":"Chino","State":"CA","Zip":"91710"},{"Location":"B N D SECURITY","Address":"13748 Iroquois Pl A","City":"Chino","State":"CA","Zip":"91710"},{"Location":"BENTO BOX CHINO","Address":"12202 Central Ave","City":"Chino","State":"CA","Zip":"91710"},{"Location":"BERIT USA","Address":"4110 Edison Ave","City":"Chino","State":"CA","Zip":"91710"},{"Location":"BLEACHERS SPORTS BAR","Address":"3757 Riverside Dr","City":"Chino","State":"CA","Zip":"91710"},{"Location":"BLONDIES CLIP SHOP","Address":"13460 Central Ave D","City":"Chino","State":"CA","Zip":"91710"},{"Location":"BRIGHT SHARK POWDER COATING","Address":"4530 Schaefer Ave","City":"Chino","State":"CA","Zip":"91710"},{"Location":"BTT INC.","Address":"15086 La Palma Dr","City":"Chino","State":"CA","Zip":"91710"},{"Location":"BURGER KING","Address":"5451 Philadelphia St","City":"Chino","State":"CA","Zip":"91710"},{"Location":"BYKOWSKI EQUITMENT","Address":"12360 Eastend Ave","City":"Chino","State":"CA","Zip":"91710"},{"Location":"CAL BANK & TRUST","Address":"5455 Riverside Dr","City":"Chino","State":"CA","Zip":"91710"},{"Location":"CALIFORNIA FERTILITY EXPERTS","Address":"13768 Roswell Ave 207","City":"Chino","State":"CA","Zip":"91710"},{"Location":"CALIFORNIA VIETNAMESE RE","Address":"3808 Grand Ave","City":"Chino","State":"CA","Zip":"91710"},{"Location":"CAPITAL LUMBER","Address":"14055 Yorba Ave","City":"Chino","State":"CA","Zip":"91710"},{"Location":"CCDA WATERS LLC","Address":"14326 Monte Vista Ave","City":"Chino","State":"CA","Zip":"91710"},{"Location":"CENTURY 21 HOME","Address":"4110 Edison Ave 210","City":"Chino","State":"CA","Zip":"91710"},{"Location":"CHEESE BAKES R US LLC","Address":"4047 Grand Ave","City":"Chino","State":"CA","Zip":"91710"},{"Location":"CHINO BURGERS","Address":"5725 Riverside Dr","City":"Chino","State":"CA","Zip":"91710"},{"Location":"CHINO CAFE","Address":"3785 Riverside Dr","City":"Chino","State":"CA","Zip":"91710"},{"Location":"CHINO CENTRAL LIQOUR PLU","Address":"11740 Central Ave","City":"Chino","State":"CA","Zip":"91710"},{"Location":"CHINO HILLS FORD","Address":"4480 Chino Hills Pkwy","City":"Chino","State":"CA","Zip":"91710"},{"Location":"CHINO HILLS PIZZA CO","Address":"14550 Pipeline Ave","City":"Chino","State":"CA","Zip":"91710"},{"Location":"CHINO MEDICAL GROUP","Address":"5475 Walnut Ave","City":"Chino","State":"CA","Zip":"91710"},{"Location":"CHINO TIRE AND MUFFLER","Address":"13552 Central Ave C","City":"Chino","State":"CA","Zip":"91710"},{"Location":"CHINO VALLEY FAMILY YMCA","Address":"5665 Edison Ave","City":"Chino","State":"CA","Zip":"91710"},{"Location":"CHINOS ONE STOP HAIR SA","Address":"4479 Riverside Dr","City":"Chino","State":"CA","Zip":"91710"},{"Location":"CITY OF CHINO POLICE","Address":"5450 Walnut Ave","City":"Chino","State":"CA","Zip":"91710"},{"Location":"CLASSICPLAN","Address":"13750 Pipeline Ave","City":"Chino","State":"CA","Zip":"91710"},{"Location":"COCK A DOODLE","Address":"12940 Central Ave","City":"Chino","State":"CA","Zip":"91710"},{"Location":"CONSTRUCTIVE SOLUTIONS","Address":"7000 Merrill Ave","City":"Chino","State":"CA","Zip":"91710"},{"Location":"CONTROLLWORKS","Address":"13720 Monte Vista Ave","City":"Chino","State":"CA","Zip":"91710"},{"Location":"CORRAL BAR & GRILL","Address":"12345 Mountain Ave","City":"Chino","State":"CA","Zip":"91710"},{"Location":"CRUNCH FITNESS CHINO","Address":"5420 Philadelphia St A","City":"Chino","State":"CA","Zip":"91710"},{"Location":"DALES BARBER SHOP","Address":"12466 Central Ave","City":"Chino","State":"CA","Zip":"91710"},{"Location":"DAVITA #3506 CHINO","Address":"4445 Riverside Dr","City":"Chino","State":"CA","Zip":"91710"},{"Location":"DDL TRAFFIC INC","Address":"14658 Central Ave","City":"Chino","State":"CA","Zip":"91710"},{"Location":"DICKEYS BARBECUE PIT","Address":"11971 Central Ave Stea","City":"Chino","State":"CA","Zip":"91710"},{"Location":"DL LONG LANDSCAPING","Address":"5475 G St","City":"Chino","State":"CA","Zip":"91710"},{"Location":"DOMESTIC DIESEL","Address":"13745 Yorba Ave","City":"Chino","State":"CA","Zip":"91710"},{"Location":"DOUBLZ BURGER","Address":"4750 Riverside Dr","City":"Chino","State":"CA","Zip":"91710"},{"Location":"DR MEDICAL PLAZA","Address":"5343 Riverside Dr","City":"Chino","State":"CA","Zip":"91710"},{"Location":"DSC LOGISTICS","Address":"5026 Chino Hills Pkwy","City":"Chino","State":"CA","Zip":"91710"},{"Location":"DUKE","Address":"13950 Monte Vista Ave","City":"Chino","State":"CA","Zip":"91710"},{"Location":"EL EL WOOD PRODUCTS","Address":"6011 Schaefer Ave","City":"Chino","State":"CA","Zip":"91710"},{"Location":"EMERSON POWER TRANSMISSION","Address":"3553 Placentia Ct","City":"Chino","State":"CA","Zip":"91710"},{"Location":"ESCABECHE GRILL","Address":"5460 Philadelphia St","City":"Chino","State":"CA","Zip":"91710"},{"Location":"ESPOCAR","Address":"5209 G St","City":"Chino","State":"CA","Zip":"91710"},{"Location":"EXEL INC","Address":"14701 Yorba Ave","City":"Chino","State":"CA","Zip":"91710"},{"Location":"EZ SMOG INC","Address":"14935 La Palma Dr","City":"Chino","State":"CA","Zip":"91710"},{"Location":"FANTASTIC SAM","Address":"12081 Central Ave","City":"Chino","State":"CA","Zip":"91710"},{"Location":"FIRST QUALITY PAINTING","Address":"13933 Sycamore Way","City":"Chino","State":"CA","Zip":"91710"},{"Location":"FITNESS 19 CHINO","Address":"12873 Mountain Ave A","City":"Chino","State":"CA","Zip":"91710"},{"Location":"FLAME BROILER 82","Address":"4029 Grand Ave C","City":"Chino","State":"CA","Zip":"91710"},{"Location":"FLOS FAMILY RESTAURANT","Address":"7000 Merrill Ave","City":"Chino","State":"CA","Zip":"91710"},{"Location":"G S M","Address":"13953 Ramona Ave","City":"Chino","State":"CA","Zip":"91710"},{"Location":"GDM","Address":"5963 Freedom Dr","City":"Chino","State":"CA","Zip":"91710"},{"Location":"GEMINI PACKAGING SOLUTIO","Address":"3340 Riverside Dr K","City":"Chino","State":"CA","Zip":"91710"},{"Location":"GIUSEPPE'S PIZZA","Address":"12150 Ramona Ave 7","City":"Chino","State":"CA","Zip":"91710"},{"Location":"GLASS INC INTERNATIONAL","Address":"14055 Laurelwood Pl","City":"Chino","State":"CA","Zip":"91710"},{"Location":"GOLDEN STATE BORING","Address":"7000 Merrill Ave 40","City":"Chino","State":"CA","Zip":"91710"},{"Location":"GREAT TECH INCORPORATED","Address":"13358 Monte Vista Ave","City":"Chino","State":"CA","Zip":"91710"},{"Location":"HAPPY NAILS AND SPA","Address":"3809 Grand Ave A","City":"Chino","State":"CA","Zip":"91710"},{"Location":"HEALTH PLUS INC","Address":"13837 Magnolia Ave","City":"Chino","State":"CA","Zip":"91710"},{"Location":"HI LITE MANUFACTURING","Address":"13450 Monte Vista Ave","City":"Chino","State":"CA","Zip":"91710"},{"Location":"HOT SHOTS TRANSPORTING","Address":"13615 12th St A","City":"Chino","State":"CA","Zip":"91710"},{"Location":"HUSSMANN CORP","Address":"13770 Ramona Ave","City":"Chino","State":"CA","Zip":"91710"},{"Location":"INDUSTRIAL STEAM SWEEPIN","Address":"13933 Ramona Ave G","City":"Chino","State":"CA","Zip":"91710"},{"Location":"ISLAND PHO","Address":"12414 Central Ave","City":"Chino","State":"CA","Zip":"91710"},{"Location":"ISLANDS RESTAURANT #020","Address":"3962 Grand Ave","City":"Chino","State":"CA","Zip":"91710"},{"Location":"J M ENGINEERING INC","Address":"13766 Iroquois Pl","City":"Chino","State":"CA","Zip":"91710"},{"Location":"JAMES LIN MOTORSPORTS IN","Address":"13941 Ramona Ave D","City":"Chino","State":"CA","Zip":"91710"},{"Location":"JERSEY MIKES SUBS NISAMEX","Address":"12152 Central Ave","City":"Chino","State":"CA","Zip":"91710"},{"Location":"JIHEE","Address":"5490 Philadelphia St B","City":"Chino","State":"CA","Zip":"91710"},{"Location":"JULIES","Address":"12345 Mountain Ave K","City":"Chino","State":"CA","Zip":"91710"},{"Location":"JUMP START PHYSICAL THERAPY","Address":"14682 Central Ave","City":"Chino","State":"CA","Zip":"91710"},{"Location":"KAILE BARBER SHOP","Address":"12409 Central Ave","City":"Chino","State":"CA","Zip":"91710"},{"Location":"KELLY'S SPORTS AND BILLIARDS","Address":"5402 Philadelphia St K","City":"Chino","State":"CA","Zip":"91710"},{"Location":"KOHL'S #591","Address":"4093 Grand Ave","City":"Chino","State":"CA","Zip":"91710"},{"Location":"LA CURACAO","Address":"5459 Philadelphia St","City":"Chino","State":"CA","Zip":"91710"},{"Location":"LA FITNESS #34","Address":"14485 Pipeline Ave","City":"Chino","State":"CA","Zip":"91710"},{"Location":"LATIMEX","Address":"11742 Central Ave","City":"Chino","State":"CA","Zip":"91710"},{"Location":"LIBERTY TAX SERVICE1","Address":"12136 Central Ave","City":"Chino","State":"CA","Zip":"91710"},{"Location":"MACH ONE AIR CHARTERS","Address":"7000 Merrill Ave F3","City":"Chino","State":"CA","Zip":"91710"},{"Location":"MAGNUS","Address":"14144 Central Ave E","City":"Chino","State":"CA","Zip":"91710"},{"Location":"MARISCOS EL PUERTO","Address":"5599 Riverside Dr","City":"Chino","State":"CA","Zip":"91710"},{"Location":"MARISCOS EL RAFA","Address":"12150 Ramona Ave","City":"Chino","State":"CA","Zip":"91710"},{"Location":"MARISCOS LAS BRISAS","Address":"13460 Central Ave A","City":"Chino","State":"CA","Zip":"91710"},{"Location":"MASSAGE ENVY","Address":"3825 Grand Ave B","City":"Chino","State":"CA","Zip":"91710"},{"Location":"MEN'S WEARHOUSE #2733","Address":"4004 Grand Ave D","City":"Chino","State":"CA","Zip":"91710"},{"Location":"MILITARY AIRCRAFT","Address":"7000 Merrill Ave","City":"Chino","State":"CA","Zip":"91710"},{"Location":"MK SMITH CHEVROLET","Address":"12845 Central Ave","City":"Chino","State":"CA","Zip":"91710"},{"Location":"MLA CHINO PAYDAY ADVANCE","Address":"12150 Ramona Ave 9","City":"Chino","State":"CA","Zip":"91710"},{"Location":"MOORE FLOORING","Address":"5497 Vine St","City":"Chino","State":"CA","Zip":"91710"},{"Location":"MOUNTAIN MIKES PIZZA","Address":"7011 Schaefer Ave A","City":"Chino","State":"CA","Zip":"91710"},{"Location":"NEW YORK PIZZERIA","Address":"12431 Central Ave","City":"Chino","State":"CA","Zip":"91710"},{"Location":"NEXUS","Address":"15516 Dupont Ave A","City":"Chino","State":"CA","Zip":"91710"},{"Location":"NICK'S PIZZERIA","Address":"4125 Riverside Dr","City":"Chino","State":"CA","Zip":"91710"},{"Location":"NORDSTROM RACK STORE 328","Address":"3849 Grand Ave","City":"Chino","State":"CA","Zip":"91710"},{"Location":"OLD FASHION DONUTS","Address":"12150 Ramona Ave","City":"Chino","State":"CA","Zip":"91710"},{"Location":"OMNIA ITALIAN DESIGN","Address":"4900 Edison Ave","City":"Chino","State":"CA","Zip":"91710"},{"Location":"OST INC","Address":"14125 Telephone Ave 6","City":"Chino","State":"CA","Zip":"91710"},{"Location":"OWENS AMERICAN BISTRO","Address":"5210 D St","City":"Chino","State":"CA","Zip":"91710"},{"Location":"OZEKI SUSHI RESTAURANT","Address":"4751 Riverside Dr","City":"Chino","State":"CA","Zip":"91710"},{"Location":"PACIFIC COAST MAN","Address":"5270 Edison Ave","City":"Chino","State":"CA","Zip":"91710"},{"Location":"PACIFIC WHOLESALE","Address":"4833 Schaefer Ave","City":"Chino","State":"CA","Zip":"91710"},{"Location":"PADILLAS BARBER SHOP","Address":"4636 Riverside Dr","City":"Chino","State":"CA","Zip":"91710"},{"Location":"PAPACHINOS GRILL  GREENS","Address":"14501 Ramona Ave","City":"Chino","State":"CA","Zip":"91710"},{"Location":"PARKER HOUSE INTERNATION","Address":"13780 Central Ave","City":"Chino","State":"CA","Zip":"91710"},{"Location":"PFF BANK AND TRUST","Address":"12801 Central Ave","City":"Chino","State":"CA","Zip":"91710"},{"Location":"PRADO CAMP","Address":"14467 Central Ave White","City":"Chino","State":"CA","Zip":"91710"},{"Location":"PROUD SMILE DENTISTRY","Address":"12411 Central Ave","City":"Chino","State":"CA","Zip":"91710"},{"Location":"RALPH GRACIE CHINO HEALTH","Address":"14151 Pipeline Ave","City":"Chino","State":"CA","Zip":"91710"},{"Location":"RAY & SANDY'S HIDEAWAY","Address":"12438 Central Ave","City":"Chino","State":"CA","Zip":"91710"},{"Location":"RDM ELECTRIC","Address":"13867 Redwood Ave","City":"Chino","State":"CA","Zip":"91710"},{"Location":"RED ROBIN #93","Address":"3903 Grand Ave","City":"Chino","State":"CA","Zip":"91710"},{"Location":"RETIRE AMERICA","Address":"15338 Central Ave","City":"Chino","State":"CA","Zip":"91710"},{"Location":"RIALTO CONCRETE PRODUCTS","Address":"7000 Merrill Ave B110","City":"Chino","State":"CA","Zip":"91710"},{"Location":"RISING STAR MOTORCOACH I","Address":"15632 Dupont Ave","City":"Chino","State":"CA","Zip":"91710"},{"Location":"RITEWAY FLOORING","Address":"13933 Oaks Ave","City":"Chino","State":"CA","Zip":"91710"},{"Location":"RIVER SIDE GRILL","Address":"5258 Riverside Dr","City":"Chino","State":"CA","Zip":"91710"},{"Location":"ROUND TABLE PIZZA","Address":"12881 Mountain Ave","City":"Chino","State":"CA","Zip":"91710"},{"Location":"S & S BARBER COMPANY","Address":"4133 Riverside Dr","City":"Chino","State":"CA","Zip":"91710"},{"Location":"SAM PIEVAC COMPANY","Address":"13975 Monte Vista Ave","City":"Chino","State":"CA","Zip":"91710"},{"Location":"SAVANT CONSTRUCTION","Address":"13830 Mountain Ave","City":"Chino","State":"CA","Zip":"91710"},{"Location":"SCHOOLSFIRST FCU1","Address":"4005 Grand Ave","City":"Chino","State":"CA","Zip":"91710"},{"Location":"SCOTT BROTHERS","Address":"12006 Eastend Ave","City":"Chino","State":"CA","Zip":"91710"},{"Location":"SCOTT ENGINEERING INC","Address":"5051 Edison Ave","City":"Chino","State":"CA","Zip":"91710"},{"Location":"SCOTTRADE 54I","Address":"14529 Ramona Ave","City":"Chino","State":"CA","Zip":"91710"},{"Location":"SHAKEY'S PIZZA","Address":"5536 Philadelphia St K","City":"Chino","State":"CA","Zip":"91710"},{"Location":"SHIMA RESTAURANT CORP","Address":"13700 Roswell Ave","City":"Chino","State":"CA","Zip":"91710"},{"Location":"SOFT TOUCH CAR WASH","Address":"5246 Riverside Dr","City":"Chino","State":"CA","Zip":"91710"},{"Location":"SONORA RESTAURANT","Address":"11738 Central Ave","City":"Chino","State":"CA","Zip":"91710"},{"Location":"SOUTHERN CA FUNERAL","Address":"12964 Central Ave","City":"Chino","State":"CA","Zip":"91710"},{"Location":"SOUTHERN CALIFORNIA EDISON","Address":"7000 Merrill Ave A-290","City":"Chino","State":"CA","Zip":"91710"},{"Location":"SOUTHGATE ENGINEERING","Address":"13477 Yorba Ave","City":"Chino","State":"CA","Zip":"91710"},{"Location":"SPECIALTY MACHINING","Address":"4060 Cheyenne Ct","City":"Chino","State":"CA","Zip":"91710"},{"Location":"SUPERCUTS CA182","Address":"12203 Central Ave","City":"Chino","State":"CA","Zip":"91710"},{"Location":"TARGET","Address":"5555 Philadelphia St","City":"Chino","State":"CA","Zip":"91710"},{"Location":"TENT WORKS WINDOW TENTING","Address":"13641 Central Ave N","City":"Chino","State":"CA","Zip":"91710"},{"Location":"TERIYAKI MADNESS","Address":"7041 Schaefer Ave Stea","City":"Chino","State":"CA","Zip":"91710"},{"Location":"THE CORNER BAR","Address":"13707 Central Ave","City":"Chino","State":"CA","Zip":"91710"},{"Location":"THE NEW GENERATION NUTRI","Address":"4625 Riverside Dr D","City":"Chino","State":"CA","Zip":"91710"},{"Location":"TILTED KILT","Address":"3919 Grand Ave","City":"Chino","State":"CA","Zip":"91710"},{"Location":"TIRE KINGDOM B-5803","Address":"14135 Pipeline Ave","City":"Chino","State":"CA","Zip":"91710"},{"Location":"TITAN BURGERS LLC","Address":"5509 Philadelphia St","City":"Chino","State":"CA","Zip":"91710"},{"Location":"TOPO'S","Address":"12598 Central Ave","City":"Chino","State":"CA","Zip":"91710"},{"Location":"TRINITY NETWORX","Address":"4091 Riverside Dr 218","City":"Chino","State":"CA","Zip":"91710"},{"Location":"TRUJILLO","Address":"7049 Chino Ave","City":"Chino","State":"CA","Zip":"91710"},{"Location":"UNITED ELECTRIC SUPPLY CO","Address":"15497 Dupont Ave","City":"Chino","State":"CA","Zip":"91710"},{"Location":"UNIVERSAL CONTAINER PACKAGING","Address":"14880 Monte Vista Ave","City":"Chino","State":"CA","Zip":"91710"},{"Location":"US HEALTHWORKS","Address":"15302 El Prado Rd","City":"Chino","State":"CA","Zip":"91710"},{"Location":"VISTA MEDICAL GROUP","Address":"12555 Central Ave C","City":"Chino","State":"CA","Zip":"91710"},{"Location":"WABI SABI","Address":"4029 Grand Ave A","City":"Chino","State":"CA","Zip":"91710"},{"Location":"WALMART","Address":"3943 Grand Ave","City":"Chino","State":"CA","Zip":"91710"},{"Location":"WEST COAST PARTNER","Address":"14538 Central Ave","City":"Chino","State":"CA","Zip":"91710"},{"Location":"WESTESCO","Address":"14802 Yorba Ct","City":"Chino","State":"CA","Zip":"91710"},{"Location":"WHACKER","Address":"13910 Oaks Ave","City":"Chino","State":"CA","Zip":"91710"},{"Location":"WILD KINGDOM INC","Address":"3937 Schaefer Ave","City":"Chino","State":"CA","Zip":"91710"},{"Location":"WOW CUTS","Address":"14568 Pipeline Ave","City":"Chino","State":"CA","Zip":"91710"},{"Location":"WRIGHT INSURANCE","Address":"3340 Riverside Dr L","City":"Chino","State":"CA","Zip":"91710"},{"Location":"WU CHIROPRACTIC INC.","Address":"13768 Roswell Ave 209","City":"Chino","State":"CA","Zip":"91710"}]