[{"Location":"BRONCOS GRILL EXPRESS","Address":"960 E Badillo St","City":"Covina","State":"CA","Zip":"91724"},{"Location":"CAMERON PROPERTY INC","Address":"973 E Badillo St A","City":"Covina","State":"CA","Zip":"91724"},{"Location":"CHARTER OAK BARBER","Address":"2008 E Arrow Hwy","City":"Covina","State":"CA","Zip":"91724"},{"Location":"COVENA HILLS DENTAL","Address":"598 S Grand Ave","City":"Covina","State":"CA","Zip":"91724"},{"Location":"COVINA DENTAL","Address":"984 E Badillo St E","City":"Covina","State":"CA","Zip":"91724"},{"Location":"CUE TIME FAMILY BILLIARDS","Address":"19706 E Arrow Hwy","City":"Covina","State":"CA","Zip":"91724"},{"Location":"EGGLESTON YOUTH CENTER","Address":"340 N Westridge Ave","City":"Covina","State":"CA","Zip":"91724"},{"Location":"EL CINO","Address":"818 N Glendora Ave","City":"Covina","State":"CA","Zip":"91724"},{"Location":"FIRST CHOICE MOBILE RADI","Address":"4425 N Sunflower Ave","City":"Covina","State":"CA","Zip":"91724"},{"Location":"FITNESS 19 CA 220","Address":"207 N Grand Ave","City":"Covina","State":"CA","Zip":"91724"},{"Location":"JIFFY LUBE 1712","Address":"21008 E Arrow Hwy","City":"Covina","State":"CA","Zip":"91724"},{"Location":"MARIS KITCHEN","Address":"1319 N Grand Ave","City":"Covina","State":"CA","Zip":"91724"},{"Location":"MONTGOMERY NEIMEYER AND CO","Address":"1037 Park View Dr","City":"Covina","State":"CA","Zip":"91724"},{"Location":"NOISE LLC","Address":"19523 E Cypress St","City":"Covina","State":"CA","Zip":"91724"},{"Location":"OCEAN MARINE SAILS","Address":"1044 E Edna Pl","City":"Covina","State":"CA","Zip":"91724"},{"Location":"PARTEE INSURANCE","Address":"580 S Grand Ave","City":"Covina","State":"CA","Zip":"91724"},{"Location":"PERKINELMER","Address":"1330 E Cypress St","City":"Covina","State":"CA","Zip":"91724"},{"Location":"PROTOCOL BARBER SHOP","Address":"1001 N Grand Ave","City":"Covina","State":"CA","Zip":"91724"},{"Location":"RODOLFO MAGSINO MD INC","Address":"21304 E Arrow Hwy","City":"Covina","State":"CA","Zip":"91724"},{"Location":"ROGERS CLEM & COMPANY","Address":"1067 Park View Dr","City":"Covina","State":"CA","Zip":"91724"},{"Location":"SKIN CARE SPECIALIST","Address":"2059 E Greenhaven St","City":"Covina","State":"CA","Zip":"91724"},{"Location":"SUNFLOWER CLEANERS","Address":"20814 E Arrow Hwy","City":"Covina","State":"CA","Zip":"91724"},{"Location":"SUPERCUTS 80009","Address":"984 E Badillo St B","City":"Covina","State":"CA","Zip":"91724"},{"Location":"T'S LOUNGE","Address":"20612 E Arrow Hwy","City":"Covina","State":"CA","Zip":"91724"},{"Location":"TEAMSTERS LOCAL 396","Address":"880 S Oak Park Rd 200","City":"Covina","State":"CA","Zip":"91724"},{"Location":"TULIA TACOS","Address":"19650 E Arrow Hwy","City":"Covina","State":"CA","Zip":"91724"},{"Location":"UHAUL","Address":"1963 E Covina Blvd","City":"Covina","State":"CA","Zip":"91724"},{"Location":"UNIFIED GROCERES INSURANCE SER","Address":"874 S Village Oaks Dr","City":"Covina","State":"CA","Zip":"91724"}]