[{"Location":"3 VINOS","Address":"201 N Citrus Ave","City":"Covina","State":"CA","Zip":"91723"},{"Location":"AFFORDABLE PROPERTY MANA","Address":"535 S Barranca Ave 36","City":"Covina","State":"CA","Zip":"91723"},{"Location":"AHMED SAEED DDS","Address":"661 S 2nd Ave","City":"Covina","State":"CA","Zip":"91723"},{"Location":"ANIES CLEANERS","Address":"229 E Rowland St","City":"Covina","State":"CA","Zip":"91723"},{"Location":"ANN REYHAN THEREPIST","Address":"166 W College St","City":"Covina","State":"CA","Zip":"91723"},{"Location":"AR ELECTRIC INC","Address":"718 E Edna Pl","City":"Covina","State":"CA","Zip":"91723"},{"Location":"ARMOR  INSURANCE","Address":"260 E Rowland St","City":"Covina","State":"CA","Zip":"91723"},{"Location":"ARTIST PIZZA","Address":"113 N Citrus Ave","City":"Covina","State":"CA","Zip":"91723"},{"Location":"ASSOCIATED AUTO AIR RADIATOR","Address":"746 Barranca Ave","City":"Covina","State":"CA","Zip":"91723"},{"Location":"AZO GALLERIES","Address":"144 W Badillo St","City":"Covina","State":"CA","Zip":"91723"},{"Location":"BIG %241 SAVER","Address":"526 E San Bernardino Rd","City":"Covina","State":"CA","Zip":"91723"},{"Location":"BREAD AND BARLEY","Address":"130 N Citrus Ave","City":"Covina","State":"CA","Zip":"91723"},{"Location":"BREW AND MEATBALL CO","Address":"325 N Citrus Ave","City":"Covina","State":"CA","Zip":"91723"},{"Location":"CASA MORENO","Address":"233 N Citrus Ave","City":"Covina","State":"CA","Zip":"91723"},{"Location":"CENTRAL DENTAL CARE","Address":"223 San Bernardino Rd","City":"Covina","State":"CA","Zip":"91723"},{"Location":"CITRUS VALLEY MEDICAL","Address":"210 W San Bernardino Rd","City":"Covina","State":"CA","Zip":"91723"},{"Location":"CITY GRILL","Address":"147 E College St","City":"Covina","State":"CA","Zip":"91723"},{"Location":"DR ELGHAZIS OFFICE","Address":"219 W Badillo St B","City":"Covina","State":"CA","Zip":"91723"},{"Location":"DR REGINA S WONG","Address":"677 S 2nd Ave","City":"Covina","State":"CA","Zip":"91723"},{"Location":"EDS BMW SERVICE","Address":"576 N Citrus Ave D","City":"Covina","State":"CA","Zip":"91723"},{"Location":"EL BUKANAS EXPRESS","Address":"100 N Citrus Ave","City":"Covina","State":"CA","Zip":"91723"},{"Location":"EL MATADOR","Address":"307 N Citrus Ave","City":"Covina","State":"CA","Zip":"91723"},{"Location":"ELVIES INN SHARMA KARMA","Address":"610 Shoppers Ln","City":"Covina","State":"CA","Zip":"91723"},{"Location":"ENYEDI MARSHALL AND MONTANEZ","Address":"550 E Badillo St","City":"Covina","State":"CA","Zip":"91723"},{"Location":"FAMOUS BARBER SHOP","Address":"624 S Barranca Ave","City":"Covina","State":"CA","Zip":"91723"},{"Location":"GEORGIAS BUN AND BURGER","Address":"180 E Rowland St","City":"Covina","State":"CA","Zip":"91723"},{"Location":"GEORGIES MEDITERRANEAN C","Address":"323 N Citrus Ave","City":"Covina","State":"CA","Zip":"91723"},{"Location":"GOLDEN EMPIRE MORTGAGE","Address":"664 Shoppers Ln","City":"Covina","State":"CA","Zip":"91723"},{"Location":"J AND L LAUNDRY SERVICE","Address":"458 E Rowland St","City":"Covina","State":"CA","Zip":"91723"},{"Location":"JP UNITED LLC","Address":"211 N Citrus Ave","City":"Covina","State":"CA","Zip":"91723"},{"Location":"JUI RAY PAN DENTAL%2C INC","Address":"227 W Badillo St 1","City":"Covina","State":"CA","Zip":"91723"},{"Location":"K9 ADVENTURES","Address":"642 E Edna Pl","City":"Covina","State":"CA","Zip":"91723"},{"Location":"KATIE JAKES BAR & GRILL CE99-2","Address":"750 Terrado Plz 10","City":"Covina","State":"CA","Zip":"91723"},{"Location":"KUT HAUS SALON","Address":"116 E Badillo St A","City":"Covina","State":"CA","Zip":"91723"},{"Location":"LA COUNTY FIRE STATION 154","Address":"401 N 2nd Ave","City":"Covina","State":"CA","Zip":"91723"},{"Location":"LAPID FOODS INC","Address":"525 N Howard Ave","City":"Covina","State":"CA","Zip":"91723"},{"Location":"LEO BROWNS COMPLETE AUTO","Address":"676 E San Bernardino Rd","City":"Covina","State":"CA","Zip":"91723"},{"Location":"LEROY LENHART","Address":"204 S Citrus Ave","City":"Covina","State":"CA","Zip":"91723"},{"Location":"LOVE","Address":"800 S Barranca Ave 100","City":"Covina","State":"CA","Zip":"91723"},{"Location":"MARIPOSA RESTAURANT","Address":"245 E Rowland St","City":"Covina","State":"CA","Zip":"91723"},{"Location":"NAT BARTENDERS SCHOOL","Address":"200 S Citrus Ave","City":"Covina","State":"CA","Zip":"91723"},{"Location":"PACIFIC COLLISION CENTER","Address":"131 W Dexter St","City":"Covina","State":"CA","Zip":"91723"},{"Location":"PIZCON INC.","Address":"461 S Citrus Ave","City":"Covina","State":"CA","Zip":"91723"},{"Location":"RED DEVIL PIZZA","Address":"116 W Badillo St","City":"Covina","State":"CA","Zip":"91723"},{"Location":"REMAX","Address":"475 E Badillo St","City":"Covina","State":"CA","Zip":"91723"},{"Location":"RENDZVOUS","Address":"570 E San Bernardino Rd","City":"Covina","State":"CA","Zip":"91723"},{"Location":"REYNOLDS BUICK INC.","Address":"675 S Citrus Ave","City":"Covina","State":"CA","Zip":"91723"},{"Location":"RIGHTEOUS PLUMBING","Address":"336 E Rowland St","City":"Covina","State":"CA","Zip":"91723"},{"Location":"ROOT VISION","Address":"100 S Citrus Ave 201","City":"Covina","State":"CA","Zip":"91723"},{"Location":"ROWLAND COANALESCENT HOSPITAL","Address":"330 W Rowland St","City":"Covina","State":"CA","Zip":"91723"},{"Location":"RUDE DOG","Address":"114 N Citrus Ave","City":"Covina","State":"CA","Zip":"91723"},{"Location":"SAFE LITE AUTOGLASS","Address":"576 N Citrus Ave A","City":"Covina","State":"CA","Zip":"91723"},{"Location":"SAGE COVINA CHEVROLET","Address":"635 S Citrus Ave","City":"Covina","State":"CA","Zip":"91723"},{"Location":"SAN GABRIEL VALLEY ALANO CLUB","Address":"510 S 2nd Ave","City":"Covina","State":"CA","Zip":"91723"},{"Location":"STAR BAR","Address":"148 Shoppers Ln","City":"Covina","State":"CA","Zip":"91723"},{"Location":"SUNLAND TIRE COMPANY","Address":"202 W Badillo St","City":"Covina","State":"CA","Zip":"91723"},{"Location":"SUPERIOR ENVIRONMENTAL","Address":"555 E Edna Pl","City":"Covina","State":"CA","Zip":"91723"},{"Location":"TEAMSTERS LOCAL 495","Address":"800 S Barranca Ave 320","City":"Covina","State":"CA","Zip":"91723"},{"Location":"THOMAS ACURA","Address":"580 S Citrus Ave","City":"Covina","State":"CA","Zip":"91723"},{"Location":"TREND DRAPERY AND UPHOLSTERING","Address":"542 12 N 2nd Ave","City":"Covina","State":"CA","Zip":"91723"},{"Location":"UPTOWN IMAGE SALON AND SPA","Address":"221 N Citrus Ave","City":"Covina","State":"CA","Zip":"91723"},{"Location":"UPUL'S TRAVEL SERVICE","Address":"654 Shoppers Ln","City":"Covina","State":"CA","Zip":"91723"},{"Location":"USBORNE FAMILY MEDICINE","Address":"236 W College St","City":"Covina","State":"CA","Zip":"91723"},{"Location":"VALLEY MERCEDES SERVICES","Address":"576 N Citrus Ave","City":"Covina","State":"CA","Zip":"91723"},{"Location":"WINGS SHELTER","Address":"502 S San Jose Ave","City":"Covina","State":"CA","Zip":"91723"},{"Location":"YASHIMA RESTAURANT","Address":"236 E Rowland St","City":"Covina","State":"CA","Zip":"91723"}]