[{"Location":"399 PIZZA COMPANY","Address":"940 N Citrus Ave","City":"Covina","State":"CA","Zip":"91722"},{"Location":"AARON P SHARMA AND ASSOCIATES","Address":"1171 W San Bernardino Rd C","City":"Covina","State":"CA","Zip":"91722"},{"Location":"AIR ON TIME","Address":"1534 W Industrial Park St B","City":"Covina","State":"CA","Zip":"91722"},{"Location":"ALL AREA PLUMBING","Address":"1560 W Industrial Park St","City":"Covina","State":"CA","Zip":"91722"},{"Location":"AMERICAN LEGION","Address":"330 757 West Front St","City":"Covina","State":"CA","Zip":"91722"},{"Location":"ARTS BARBER SHOP","Address":"1020 N Citrus Ave","City":"Covina","State":"CA","Zip":"91722"},{"Location":"AVERY DENNISON INC","Address":"753 Arrow Grand Cir","City":"Covina","State":"CA","Zip":"91722"},{"Location":"BARNEYS PRECISION   PRODUCTS","Address":"807 W Front St","City":"Covina","State":"CA","Zip":"91722"},{"Location":"BERTS MEGA MALL","Address":"1151 N Azusa Ave","City":"Covina","State":"CA","Zip":"91722"},{"Location":"BLACK & WHITE EMERG VHCL","Address":"1611 W San Bernardino Rd E","City":"Covina","State":"CA","Zip":"91722"},{"Location":"BRUNSWICK #875 COVINA","Address":"1060 W San Bernardino Rd","City":"Covina","State":"CA","Zip":"91722"},{"Location":"CALIFORNIA MOTORS","Address":"953 N Citrus Ave","City":"Covina","State":"CA","Zip":"91722"},{"Location":"CAPRIOTTIS SANDWICH SHOP","Address":"216 N Azusa Ave","City":"Covina","State":"CA","Zip":"91722"},{"Location":"CHE","Address":"4550 N Lark Ellen Ave 102","City":"Covina","State":"CA","Zip":"91722"},{"Location":"CITRUS PSYCHIATRIC","Address":"500 W Badillo St","City":"Covina","State":"CA","Zip":"91722"},{"Location":"CLANCY'S SPORTS BAR","Address":"961 N Azusa Ave 10","City":"Covina","State":"CA","Zip":"91722"},{"Location":"COVINA PARK DENTAL","Address":"520 W Badillo St","City":"Covina","State":"CA","Zip":"91722"},{"Location":"CRAZY ROCK-N SUSHI","Address":"942 W Arrow Hwy A","City":"Covina","State":"CA","Zip":"91722"},{"Location":"CUSTOM COLLISION","Address":"19060 E. Air Hwy","City":"Covina","State":"CA","Zip":"91722"},{"Location":"DIRECT CARPET SALES","Address":"176 E Arrow Hwy","City":"Covina","State":"CA","Zip":"91722"},{"Location":"GUIDOS PIZZA & PASTA","Address":"833 W Covina Blvd","City":"Covina","State":"CA","Zip":"91722"},{"Location":"HABACHI SUPER BUFFET","Address":"1459 N Citrus Ave","City":"Covina","State":"CA","Zip":"91722"},{"Location":"HORIZON AUTOMOTIVE","Address":"1202 N Azusa Ave","City":"Covina","State":"CA","Zip":"91722"},{"Location":"KNIGHTS OF COLUMBUS","Address":"4315 N Vincent Ave","City":"Covina","State":"CA","Zip":"91722"},{"Location":"LARK ELLEN ELEMENTARY","Address":"4555 N Lark Ellen Ave","City":"Covina","State":"CA","Zip":"91722"},{"Location":"MANNY'S EL LOCO","Address":"845 W Cypress St","City":"Covina","State":"CA","Zip":"91722"},{"Location":"MI SALVADOR RESTAURANT","Address":"474 W Arrow Hwy","City":"Covina","State":"CA","Zip":"91722"},{"Location":"NADIM DAGHER MD","Address":"530 W Badillo St D","City":"Covina","State":"CA","Zip":"91722"},{"Location":"NEMETH FAMILY INTERIORS","Address":"700 W Arrow Hwy","City":"Covina","State":"CA","Zip":"91722"},{"Location":"NORTH WOODS INN OF COVINA","Address":"540 N Azusa Ave","City":"Covina","State":"CA","Zip":"91722"},{"Location":"OUTBACK STEAKHOUSE #0575","Address":"1476 N Azusa Ave","City":"Covina","State":"CA","Zip":"91722"},{"Location":"P AND Z SUPER BURGERS","Address":"1030 N Citrus Ave","City":"Covina","State":"CA","Zip":"91722"},{"Location":"PAEZ PATROL SECURITY INC","Address":"1171 W San Bernardino Rd","City":"Covina","State":"CA","Zip":"91722"},{"Location":"PHARMAKHON INC","Address":"130 E Arrow Hwy","City":"Covina","State":"CA","Zip":"91722"},{"Location":"PLANET FITNESS COVINA","Address":"1480 N Azusa Ave","City":"Covina","State":"CA","Zip":"91722"},{"Location":"RASPADO XPRESS","Address":"567 N Azusa Ave","City":"Covina","State":"CA","Zip":"91722"},{"Location":"RAYS TEPEYAC MEXICAN","Address":"1055 N Azusa Ave","City":"Covina","State":"CA","Zip":"91722"},{"Location":"REDWOOD BAR & GRILL","Address":"975 W San Bernardino Rd","City":"Covina","State":"CA","Zip":"91722"},{"Location":"SC EDISON CSAS COVINA","Address":"1551 W San Bernardino Rd","City":"Covina","State":"CA","Zip":"91722"},{"Location":"SEARS AUTOMOTIVE","Address":"710 W Arrow Hwy","City":"Covina","State":"CA","Zip":"91722"},{"Location":"SHAKEYS PIZZA #26","Address":"1422 N Azusa Ave","City":"Covina","State":"CA","Zip":"91722"},{"Location":"SKY NAILS & SPA","Address":"435 N Vincent Ave","City":"Covina","State":"CA","Zip":"91722"},{"Location":"SUPER CUTZ 8030","Address":"426 N Azusa Ave","City":"Covina","State":"CA","Zip":"91722"},{"Location":"TM PROFESSIONALS","Address":"1109 W San Dernardino Rd 250","City":"Covina","State":"CA","Zip":"91722"},{"Location":"TOMMYS BURGERS AND STEAKS","Address":"154 E Arrow Hwy","City":"Covina","State":"CA","Zip":"91722"},{"Location":"TUMBLING WATERS","Address":"1380 N Citrus Ave A1","City":"Covina","State":"CA","Zip":"91722"},{"Location":"WABA GRILL TERIYAKI HSE","Address":"1407 N Azusa Ave","City":"Covina","State":"CA","Zip":"91722"}]