[{"Location":"2 PERCENT CHOP","Address":"7877 Monticello Ave","City":"Rancho Cucamonga","State":"CA","Zip":"91739"},{"Location":"AB109 DAY REPORTING CENTER","Address":"9478 Etiwanda Ave","City":"Rancho Cucamonga","State":"CA","Zip":"91739"},{"Location":"ABM ON SITE SERVICES","Address":"11955 Jack Benny Dr 104","City":"Rancho Cucamonga","State":"CA","Zip":"91739"},{"Location":"ANYAS PIZZAS","Address":"7270 Victoria Park Ln","City":"Rancho Cucamonga","State":"CA","Zip":"91739"},{"Location":"BASS PRO SHOP","Address":"7777 Victoria Gardens Ln","City":"Rancho Cucamonga","State":"CA","Zip":"91739"},{"Location":"BUFFALO WILD WINGS #3247","Address":"8188 Day Creek Blvd 140","City":"Rancho Cucamonga","State":"CA","Zip":"91739"},{"Location":"BUFFALO WINGS & RINGS","Address":"12375 Baseline Rd 101","City":"Rancho Cucamonga","State":"CA","Zip":"91739"},{"Location":"CALIFORNIA PIZZA KITCHEN #206","Address":"12517 N Mainstreet","City":"Rancho Cucamonga","State":"CA","Zip":"91739"},{"Location":"CARINO'S #1609","Address":"12240 Foothill Blvd","City":"Rancho Cucamonga","State":"CA","Zip":"91739"},{"Location":"CHRISTS CHURCH OF THE VALLEY","Address":"7576 Etiwanda Ave","City":"Rancho Cucamonga","State":"CA","Zip":"91739"},{"Location":"CHRONIC TACOS","Address":"11920 Foothill Blvd 150","City":"Rancho Cucamonga","State":"CA","Zip":"91739"},{"Location":"CLAIM JUMPER #13","Address":"12499 Foothill Blvd","City":"Rancho Cucamonga","State":"CA","Zip":"91739"},{"Location":"COLDWELL BANKER EMPIRE REALTY","Address":"11981 Jack Benny Dr","City":"Rancho Cucamonga","State":"CA","Zip":"91739"},{"Location":"CUCAMONGA VALLEY WATER DISTRIC","Address":"5815 Etiwanda Ave","City":"Rancho Cucamonga","State":"CA","Zip":"91739"},{"Location":"DAVID GIFTS AND TOBACCO","Address":"8008 Monet Ave 101","City":"Rancho Cucamonga","State":"CA","Zip":"91739"},{"Location":"DESTINATION MATERNITY","Address":"12455 Victoria  Gardens Ln","City":"Rancho Cucamonga","State":"CA","Zip":"91739"},{"Location":"DESTINATION XL 9851","Address":"12455 Victoria Gardens Ln 170","City":"Rancho Cucamonga","State":"CA","Zip":"91739"},{"Location":"DR LUZVIMINDA V DAYRIT I","Address":"12802 Foothill Blvd 103","City":"Rancho Cucamonga","State":"CA","Zip":"91739"},{"Location":"EL TORITO 7249","Address":"12369 Foothill Blvd","City":"Rancho Cucamonga","State":"CA","Zip":"91739"},{"Location":"EM SPORTS LLC","Address":"12067 Arrow Rte","City":"Rancho Cucamonga","State":"CA","Zip":"91739"},{"Location":"ETAWAND SCHOOLS TRANSPORTATION","Address":"6062 East Ave","City":"Rancho Cucamonga","State":"CA","Zip":"91739"},{"Location":"ETIWANDDA SCHOOL DIST","Address":"12999 Victoria St","City":"Rancho Cucamonga","State":"CA","Zip":"91739"},{"Location":"FLEMING'S #1508","Address":"7905 Monet Ave","City":"Rancho Cucamonga","State":"CA","Zip":"91739"},{"Location":"FOUR POINTS SHERATON BAR","Address":"11960 Foothill Blvd","City":"Rancho Cucamonga","State":"CA","Zip":"91739"},{"Location":"G&G FOOD & FUTURE LLC","Address":"7270 Victoria Park Ln 2g","City":"Rancho Cucamonga","State":"CA","Zip":"91739"},{"Location":"GORDON TRUCKING INC","Address":"8566 Pecan Ave","City":"Rancho Cucamonga","State":"CA","Zip":"91739"},{"Location":"JCS #0745 - RANCHO CUCAMONGA","Address":"12327 Foothill Blvd","City":"Rancho Cucamonga","State":"CA","Zip":"91739"},{"Location":"K L MILLER INSURANCE AGENCY","Address":"11940 Foothill Blvd 205","City":"Rancho Cucamonga","State":"CA","Zip":"91739"},{"Location":"KING'S FISH HOUSE","Address":"12427 N Mainstreet","City":"Rancho Cucamonga","State":"CA","Zip":"91739"},{"Location":"LIVING SPACES FURNITURE","Address":"12649 Foothill Blvd","City":"Rancho Cucamonga","State":"CA","Zip":"91739"},{"Location":"LUNA MODERN MEXICAN KITCHEN","Address":"7881 Monet Ave","City":"Rancho Cucamonga","State":"CA","Zip":"91739"},{"Location":"MACY'S WEST 533","Address":"12501 S Mainstreet","City":"Rancho Cucamonga","State":"CA","Zip":"91739"},{"Location":"MACY'S WEST 533","Address":"7855 Kew Ave","City":"Rancho Cucamonga","State":"CA","Zip":"91739"},{"Location":"MACY'S WEST 533 BR","Address":"7855 Kew Ave","City":"Rancho Cucamonga","State":"CA","Zip":"91739"},{"Location":"MACY'S WEST 533 BR","Address":"12501 S Mainstreet","City":"Rancho Cucamonga","State":"CA","Zip":"91739"},{"Location":"MEN'S WEARHOUSE #2714","Address":"12238 Foothill Blvd 150","City":"Rancho Cucamonga","State":"CA","Zip":"91739"},{"Location":"MINSARANG  INC.","Address":"12592 Foothill Blvd 150","City":"Rancho Cucamonga","State":"CA","Zip":"91739"},{"Location":"MONACOS PIZZA  LLC","Address":"7325 Day Creek Blvd 101","City":"Rancho Cucamonga","State":"CA","Zip":"91739"},{"Location":"MR YOU EXPRESS","Address":"12223 Highland Ave 112","City":"Rancho Cucamonga","State":"CA","Zip":"91739"},{"Location":"NIC PARTNERS","Address":"11981 Jack Benny Dr 103","City":"Rancho Cucamonga","State":"CA","Zip":"91739"},{"Location":"OKAWA SUSHI GRILL","Address":"8158 Day Creek Blvd 100","City":"Rancho Cucamonga","State":"CA","Zip":"91739"},{"Location":"PAUL MARTINS AMERICAN GRILL","Address":"12594 N Mainstreet","City":"Rancho Cucamonga","State":"CA","Zip":"91739"},{"Location":"PF CHANG'S #9970","Address":"7870 Monticello Ave","City":"Rancho Cucamonga","State":"CA","Zip":"91739"},{"Location":"PFF BANK TRUST AND US BANK","Address":"8047 Day Creek Blvd","City":"Rancho Cucamonga","State":"CA","Zip":"91739"},{"Location":"PIZZA FACTORY","Address":"12273 Highland Ave 132a","City":"Rancho Cucamonga","State":"CA","Zip":"91739"},{"Location":"PPF HALL OF FAMERS","Address":"7863 Kew Ave","City":"Rancho Cucamonga","State":"CA","Zip":"91739"},{"Location":"PRESTIGE TOWNING TRANSPORT","Address":"7721 Fennel Rd","City":"Rancho Cucamonga","State":"CA","Zip":"91739"},{"Location":"QUALITY HOME HEALTH","Address":"7182 Acorn Pl","City":"Rancho Cucamonga","State":"CA","Zip":"91739"},{"Location":"RANCHO CUCAMONGA FITNESS","Address":"12739 Foothill Blvd","City":"Rancho Cucamonga","State":"CA","Zip":"91739"},{"Location":"RANCHO REGIONAL VETRANRY HOSPI","Address":"11981 Jack Benny Dr 101","City":"Rancho Cucamonga","State":"CA","Zip":"91739"},{"Location":"RED ROBIN #406","Address":"12217 Foothill Blvd","City":"Rancho Cucamonga","State":"CA","Zip":"91739"},{"Location":"SANSAI","Address":"7325 Day Creek Blvd 105","City":"Rancho Cucamonga","State":"CA","Zip":"91739"},{"Location":"SHAKEY'S RANCHO CUCAMONGA","Address":"12455 Victoria Gardens Ln 110","City":"Rancho Cucamonga","State":"CA","Zip":"91739"},{"Location":"SLATERS 5050 RANCHO","Address":"8009 Day Creek Blvd","City":"Rancho Cucamonga","State":"CA","Zip":"91739"},{"Location":"SOLA SALON","Address":"11940 Foothill Blvd","City":"Rancho Cucamonga","State":"CA","Zip":"91739"},{"Location":"SPARTAN MOBIL SUITES","Address":"5600 San Marcus Way","City":"Rancho Cucamonga","State":"CA","Zip":"91739"},{"Location":"SPROUTS FARMERS MARKET","Address":"7355 Day Creek Blvd","City":"Rancho Cucamonga","State":"CA","Zip":"91739"},{"Location":"STAR CRAB","Address":"12802 Foothill Blvd 101","City":"Rancho Cucamonga","State":"CA","Zip":"91739"},{"Location":"SUPERCUTS","Address":"12273 Highland Ave","City":"Rancho Cucamonga","State":"CA","Zip":"91739"},{"Location":"TGI FRIDAY'S #2055","Address":"12570 Versailles St","City":"Rancho Cucamonga","State":"CA","Zip":"91739"},{"Location":"THE CHEESECAKE FACTORY 0091","Address":"12379 N Mainstreet","City":"Rancho Cucamonga","State":"CA","Zip":"91739"},{"Location":"TILTED KILT","Address":"12770 Foothill Blvd","City":"Rancho Cucamonga","State":"CA","Zip":"91739"},{"Location":"TIOS MEXICAN FOOD","Address":"7305 Day Creek Blvd","City":"Rancho Cucamonga","State":"CA","Zip":"91739"},{"Location":"TOBY KEITH'S I LOVE THIS BAR","Address":"12635 N Mainstreet 5000b","City":"Rancho Cucamonga","State":"CA","Zip":"91739"},{"Location":"U GRILL","Address":"12728 Foothill Blvd","City":"Rancho Cucamonga","State":"CA","Zip":"91739"},{"Location":"US FOREST SERVICE","Address":"6696 Etiwanda Ave","City":"Rancho Cucamonga","State":"CA","Zip":"91739"},{"Location":"WALLGLENN INC","Address":"12583 Highland Ave","City":"Rancho Cucamonga","State":"CA","Zip":"91739"},{"Location":"WELCH MANAGEMENT CORP","Address":"7375 Day Creek Blvd 104","City":"Rancho Cucamonga","State":"CA","Zip":"91739"},{"Location":"WEST VALEY CORRECTIONAL","Address":"9500 Etiwanda Ave","City":"Rancho Cucamonga","State":"CA","Zip":"91739"},{"Location":"YARD HOUSE 8309","Address":"12473 N Mainstreet","City":"Rancho Cucamonga","State":"CA","Zip":"91739"},{"Location":"PLANET STORAGE CENTER","Address":"12330 Arrow Rte","City":"Rch Cucamonga","State":"CA","Zip":"91739"},{"Location":"V & L REPAIR","Address":"13063 Whittram Ave","City":"Rch Cucamonga","State":"CA","Zip":"91739"}]