[{"Location":"1 PHO NOODLE GRILL","Address":"11897 Foothill Blvd B","City":"Rancho Cucamonga","State":"CA","Zip":"91730"},{"Location":"24 HOUR FITNESS #197","Address":"11787 Foothill Blvd","City":"Rancho Cucamonga","State":"CA","Zip":"91730"},{"Location":"4 ACE CONSTRUCTION","Address":"8351 Elm Ave 104","City":"Rancho Cucamonga","State":"CA","Zip":"91730"},{"Location":"909 SPORTS GRILL","Address":"11849 Foothill Blvd A","City":"Rancho Cucamonga","State":"CA","Zip":"91730"},{"Location":"A PLUS CARPET AND TILE","Address":"11561 Foothill Blvd","City":"Rancho Cucamonga","State":"CA","Zip":"91730"},{"Location":"A R SQUARE INC","Address":"8757 Lanyard Ct 150","City":"Rancho Cucamonga","State":"CA","Zip":"91730"},{"Location":"ABUNDANT LIVING FAMILY CHURCH","Address":"10900 Civic Center Dr","City":"Rancho Cucamonga","State":"CA","Zip":"91730"},{"Location":"ACCENT COMPUTER SOLUTIONS","Address":"8438 Red Oak Ave","City":"Rancho Cucamonga","State":"CA","Zip":"91730"},{"Location":"ADVANCED SURGICAL INSTITUTE","Address":"8112 Milliken Ave","City":"Rancho Cucamonga","State":"CA","Zip":"91730"},{"Location":"AGENT FRANCHISE","Address":"9518 9th St C2","City":"Rancho Cucamonga","State":"CA","Zip":"91730"},{"Location":"ALI MOHAMED MD","Address":"10165 Foothill Blvd","City":"Rancho Cucamonga","State":"CA","Zip":"91730"},{"Location":"ALONZO DECK","Address":"10022 6th St C","City":"Rancho Cucamonga","State":"CA","Zip":"91730"},{"Location":"ALTALOMA PSYCHOLOGICAL ASSOC","Address":"9089 Baseline Rd 200","City":"Rancho Cucamonga","State":"CA","Zip":"91730"},{"Location":"AMERICAN MEDICAL RESPONSE","Address":"7925 Center Ave","City":"Rancho Cucamonga","State":"CA","Zip":"91730"},{"Location":"ANTONINOS REST.","Address":"7945 Vineyard Ave D7","City":"Rancho Cucamonga","State":"CA","Zip":"91730"},{"Location":"APOSTOLIC ASSEMBLY","Address":"10807 Laurel St","City":"Rancho Cucamonga","State":"CA","Zip":"91730"},{"Location":"APPLEBEE'S #2150024","Address":"10709 Foothill Blvd","City":"Rancho Cucamonga","State":"CA","Zip":"91730"},{"Location":"ARETE","Address":"9439 Archibald Ave 105","City":"Rancho Cucamonga","State":"CA","Zip":"91730"},{"Location":"ARROWHEAD FREGHT INC","Address":"8796 Rochester Ave","City":"Rancho Cucamonga","State":"CA","Zip":"91730"},{"Location":"ARROWHEAD ORTHOPEDIC 4","Address":"8805 Haven Ave","City":"Rancho Cucamonga","State":"CA","Zip":"91730"},{"Location":"ARROWWOODS WORK CORP","Address":"8713 Lion St","City":"Rancho Cucamonga","State":"CA","Zip":"91730"},{"Location":"ARS NATIONAL SVCS","Address":"10801 6th St 110","City":"Rancho Cucamonga","State":"CA","Zip":"91730"},{"Location":"ASTON OLSON READER INSURANCE","Address":"10722 Arrow Rte 508","City":"Rancho Cucamonga","State":"CA","Zip":"91730"},{"Location":"AUREUS MEDICAL","Address":"7974 Haven Ave 250","City":"Rancho Cucamonga","State":"CA","Zip":"91730"},{"Location":"AVERY DENNISON","Address":"11195 Eucalyptus St","City":"Rancho Cucamonga","State":"CA","Zip":"91730"},{"Location":"AZTLAN PRODUCTION INCORP","Address":"8558 Sierrra Madre Ave","City":"Rancho Cucamonga","State":"CA","Zip":"91730"},{"Location":"BARBERS R US","Address":"9339 Foothill Blvd L","City":"Rancho Cucamonga","State":"CA","Zip":"91730"},{"Location":"BASF CORPORATION","Address":"9060 Haven Ave","City":"Rancho Cucamonga","State":"CA","Zip":"91730"},{"Location":"BAUSCH AND LOMB","Address":"10532 Acacia St B8","City":"Rancho Cucamonga","State":"CA","Zip":"91730"},{"Location":"BENACARE MEDICAL CENTER","Address":"8599 Haven Ave 101","City":"Rancho Cucamonga","State":"CA","Zip":"91730"},{"Location":"BIG WOK","Address":"11334 4th St 103","City":"Rancho Cucamonga","State":"CA","Zip":"91730"},{"Location":"BJS PIZZA","Address":"9653 Baseline Rd","City":"Rancho Cucamonga","State":"CA","Zip":"91730"},{"Location":"BJS RESTAURANT #433","Address":"11520 4th St","City":"Rancho Cucamonga","State":"CA","Zip":"91730"},{"Location":"BOBS MUFFLER SHOP","Address":"8714 Lion St B","City":"Rancho Cucamonga","State":"CA","Zip":"91730"},{"Location":"BOSTON'S THE GOURMET PIZZA","Address":"11260 4th St","City":"Rancho Cucamonga","State":"CA","Zip":"91730"},{"Location":"BROWN METAL COMPANY","Address":"8635 White Oak Ave","City":"Rancho Cucamonga","State":"CA","Zip":"91730"},{"Location":"BRUNSWICK #870","Address":"7930 Haven Ave","City":"Rancho Cucamonga","State":"CA","Zip":"91730"},{"Location":"BUDGET TRUCK RENTAL","Address":"8393 Foothill Blvd","City":"Rancho Cucamonga","State":"CA","Zip":"91730"},{"Location":"BUILDING INDUSTRY CREDIT ASSN","Address":"10601 Civic Center Dr 10","City":"Rancho Cucamonga","State":"CA","Zip":"91730"},{"Location":"CAFE CALATO","Address":"9640 Center Ave 150","City":"Rancho Cucamonga","State":"CA","Zip":"91730"},{"Location":"CAHP CREDIT UNION","Address":"9471 Pittsburgh Ave","City":"Rancho Cucamonga","State":"CA","Zip":"91730"},{"Location":"CAL BANK & TRUST","Address":"9590 Foothill Blvd","City":"Rancho Cucamonga","State":"CA","Zip":"91730"},{"Location":"CALIFORNIA ATHLETIC CENTER LLC","Address":"9120 Haven Ave","City":"Rancho Cucamonga","State":"CA","Zip":"91730"},{"Location":"CALIFORNIA FOOTHILLS MDCL ASS","Address":"8211 Rochester Ave 101","City":"Rancho Cucamonga","State":"CA","Zip":"91730"},{"Location":"CALVIN DONUTS","Address":"9721 Baseline Rd","City":"Rancho Cucamonga","State":"CA","Zip":"91730"},{"Location":"CARDIO FIT SPORTS CLUB INC","Address":"9950 Foothill Blvd O","City":"Rancho Cucamonga","State":"CA","Zip":"91730"},{"Location":"CARE FIRST SURGICAL CENT","Address":"8599 Haven Ave Suite","City":"Rancho Cucamonga","State":"CA","Zip":"91730"},{"Location":"CARROWS RESTAURANT","Address":"11669 Foothill Blvd","City":"Rancho Cucamonga","State":"CA","Zip":"91730"},{"Location":"CASK N CLEAVER","Address":"8689 9th St","City":"Rancho Cucamonga","State":"CA","Zip":"91730"},{"Location":"CDM INC","Address":"9220 Cleveland Ave 100","City":"Rancho Cucamonga","State":"CA","Zip":"91730"},{"Location":"CE NAILS SPA SALON","Address":"9640 Milliken Ave 6101","City":"Rancho Cucamonga","State":"CA","Zip":"91730"},{"Location":"CHILI'S #0197","Address":"10598 Foothill Blvd","City":"Rancho Cucamonga","State":"CA","Zip":"91730"},{"Location":"CHINO BASIN WATER MASTER","Address":"9641 San Bernardino Rd","City":"Rancho Cucamonga","State":"CA","Zip":"91730"},{"Location":"CHRISTMAS HOUSE BED","Address":"9240 Archibald Ave","City":"Rancho Cucamonga","State":"CA","Zip":"91730"},{"Location":"CNJ MARKETING","Address":"10535 Foothill Blvd 276","City":"Rancho Cucamonga","State":"CA","Zip":"91730"},{"Location":"CO- OP FINANCIAL SERV","Address":"9692 Haven Ave","City":"Rancho Cucamonga","State":"CA","Zip":"91730"},{"Location":"COASTLINE MANUFACTURING COMP","Address":"10234 4th St","City":"Rancho Cucamonga","State":"CA","Zip":"91730"},{"Location":"COCA COLA REFRESHMENTS","Address":"10670 6th St","City":"Rancho Cucamonga","State":"CA","Zip":"91730"},{"Location":"COHEN MEDICAL CENTER","Address":"8330 Red Oak St 201","City":"Rancho Cucamonga","State":"CA","Zip":"91730"},{"Location":"COLOR ME BEAUTY","Address":"10399 Foothill Blvd 101b","City":"Rancho Cucamonga","State":"CA","Zip":"91730"},{"Location":"CONCENTRA HEALTH SERVICES","Address":"9405 Fairway View Pl","City":"Rancho Cucamonga","State":"CA","Zip":"91730"},{"Location":"CROSS ROAD EQUIPMENT LEASE LLC","Address":"9385 Haven Ave","City":"Rancho Cucamonga","State":"CA","Zip":"91730"},{"Location":"CTI","Address":"10801 6th St","City":"Rancho Cucamonga","State":"CA","Zip":"91730"},{"Location":"CUCAMONGA PIZZA CO.","Address":"9659 Milliken Ave 103","City":"Rancho Cucamonga","State":"CA","Zip":"91730"},{"Location":"CUCAMONGA RESTAURANTS IN","Address":"8318 Foothill Blvd","City":"Rancho Cucamonga","State":"CA","Zip":"91730"},{"Location":"CUCAMONGA SERVICE CLUB 1","Address":"9324 San Bernardino Rd","City":"Rancho Cucamonga","State":"CA","Zip":"91730"},{"Location":"CUCAMONGA VALLEY WATER DISTRIC","Address":"10440 Ashford St","City":"Rancho Cucamonga","State":"CA","Zip":"91730"},{"Location":"CW DRIVER","Address":"11879 Sebastian Way","City":"Rancho Cucamonga","State":"CA","Zip":"91730"},{"Location":"DAVITA #5364 RANCHO CUCAMONGA","Address":"8219 Rochester Ave","City":"Rancho Cucamonga","State":"CA","Zip":"91730"},{"Location":"DIAMOND SHEER'S","Address":"9319 Foothill Blvd","City":"Rancho Cucamonga","State":"CA","Zip":"91730"},{"Location":"DICKEY'S BARBECUE PIT","Address":"9670 Haven Ave 105","City":"Rancho Cucamonga","State":"CA","Zip":"91730"},{"Location":"DIVERSIFIED PACIFIC","Address":"10621 Civic Center Dr","City":"Rancho Cucamonga","State":"CA","Zip":"91730"},{"Location":"DOGGIE COUTURE","Address":"8976 Foothill Blvd B7","City":"Rancho Cucamonga","State":"CA","Zip":"91730"},{"Location":"DR HATTAR DENTAL","Address":"9950 Foothill Blvd T","City":"Rancho Cucamonga","State":"CA","Zip":"91730"},{"Location":"EDDIE MARINE INC","Address":"11479 6th St","City":"Rancho Cucamonga","State":"CA","Zip":"91730"},{"Location":"EL RANCHO RESTAURANT 2","Address":"9260 Haven Ave","City":"Rancho Cucamonga","State":"CA","Zip":"91730"},{"Location":"EMPIRE CPAP LLC","Address":"8598 Utica Ave 100","City":"Rancho Cucamonga","State":"CA","Zip":"91730"},{"Location":"EXEL","Address":"9160 Buffalo Ave","City":"Rancho Cucamonga","State":"CA","Zip":"91730"},{"Location":"EXEL INC.","Address":"9333 Hermosa Ave","City":"Rancho Cucamonga","State":"CA","Zip":"91730"},{"Location":"FALKEN TIRE","Address":"8656 Haven Ave","City":"Rancho Cucamonga","State":"CA","Zip":"91730"},{"Location":"FAMOUS DAVES BBQ RANCHO #3096","Address":"11470 4th St","City":"Rancho Cucamonga","State":"CA","Zip":"91730"},{"Location":"FIERCE ALLSTAR CHEER","Address":"10838 Bell Ct","City":"Rancho Cucamonga","State":"CA","Zip":"91730"},{"Location":"FIRST BAPTIST CHURCH OF","Address":"7450 Archibald Ave","City":"Rancho Cucamonga","State":"CA","Zip":"91730"},{"Location":"FITNESS 19","Address":"7945 Vineyard Ave","City":"Rancho Cucamonga","State":"CA","Zip":"91730"},{"Location":"FMC 23750000","Address":"10532 Acacia St B2","City":"Rancho Cucamonga","State":"CA","Zip":"91730"},{"Location":"FONDA DON CHON","Address":"10276 Foothill Blvd","City":"Rancho Cucamonga","State":"CA","Zip":"91730"},{"Location":"FOOTHILL DENTAL","Address":"11561 Foothill Blvd","City":"Rancho Cucamonga","State":"CA","Zip":"91730"},{"Location":"FRITO-LAY INC","Address":"9535 Archibald Ave","City":"Rancho Cucamonga","State":"CA","Zip":"91730"},{"Location":"FRONTIER ENTERPRISES LLC","Address":"8300 Utica Ave 300","City":"Rancho Cucamonga","State":"CA","Zip":"91730"},{"Location":"GANDOLFOS NY DELICATESEN","Address":"9090 Milliken Ave 160","City":"Rancho Cucamonga","State":"CA","Zip":"91730"},{"Location":"GAO SUSHI","Address":"8270 Foothill Blvd","City":"Rancho Cucamonga","State":"CA","Zip":"91730"},{"Location":"GENTEX CORP","Address":"9859 7th St","City":"Rancho Cucamonga","State":"CA","Zip":"91730"},{"Location":"GENTLE DENTAL","Address":"8880 Foothill Blvd 5","City":"Rancho Cucamonga","State":"CA","Zip":"91730"},{"Location":"GENTLEMENS BARBER CLUB","Address":"9635 Milliken Ave E102","City":"Rancho Cucamonga","State":"CA","Zip":"91730"},{"Location":"GLORIAS HAIR2","Address":"9685 Baseline Rd","City":"Rancho Cucamonga","State":"CA","Zip":"91730"},{"Location":"GM SPO","Address":"9150 Hermosa Ave","City":"Rancho Cucamonga","State":"CA","Zip":"91730"},{"Location":"GOODFELLAS","Address":"8034 Haven Ave B","City":"Rancho Cucamonga","State":"CA","Zip":"91730"},{"Location":"GOODWEST RUBBER CORP","Address":"9615 Feron Blvd","City":"Rancho Cucamonga","State":"CA","Zip":"91730"},{"Location":"HAWAIAN BARBECUE #2","Address":"10710 Foothill Blvd 110","City":"Rancho Cucamonga","State":"CA","Zip":"91730"},{"Location":"HIDE A WHILE","Address":"9469 Foothill Blvd","City":"Rancho Cucamonga","State":"CA","Zip":"91730"},{"Location":"HOME DEPOT","Address":"8535 Oakwood Pl B","City":"Rancho Cucamonga","State":"CA","Zip":"91730"},{"Location":"HOME DIALYSIS CENTERS O","Address":"8239 Rochester Ave 110","City":"Rancho Cucamonga","State":"CA","Zip":"91730"},{"Location":"HOOK UPS BARBERSHOP","Address":"8939 Foothill Blvd","City":"Rancho Cucamonga","State":"CA","Zip":"91730"},{"Location":"HRC FACILITY","Address":"8112 Milliken Ave 101","City":"Rancho Cucamonga","State":"CA","Zip":"91730"},{"Location":"ILINK BUSINESS MANAGEMEN","Address":"11650 Mission Park Dr 102","City":"Rancho Cucamonga","State":"CA","Zip":"91730"},{"Location":"INDY MAC BANK","Address":"9680 Haven Ave 350","City":"Rancho Cucamonga","State":"CA","Zip":"91730"},{"Location":"INLAND EMPIRE STAGES","Address":"9567 8th St","City":"Rancho Cucamonga","State":"CA","Zip":"91730"},{"Location":"IPPG","Address":"8577 Haven Ave","City":"Rancho Cucamonga","State":"CA","Zip":"91730"},{"Location":"ISLANDS RESTAURANT #038","Address":"11425 Foothill Blvd","City":"Rancho Cucamonga","State":"CA","Zip":"91730"},{"Location":"ITF CONSULTING","Address":"10825 7th St D","City":"Rancho Cucamonga","State":"CA","Zip":"91730"},{"Location":"JDR TECHNICAL SERVICE","Address":"10572 Acacia St C1","City":"Rancho Cucamonga","State":"CA","Zip":"91730"},{"Location":"JENKINS ORTHODONTICS","Address":"10601 Church St 104","City":"Rancho Cucamonga","State":"CA","Zip":"91730"},{"Location":"JENNY CRAIG","Address":"11335 Jersey Blvd","City":"Rancho Cucamonga","State":"CA","Zip":"91730"},{"Location":"JEROMES FURNITURE II","Address":"11750 4th St","City":"Rancho Cucamonga","State":"CA","Zip":"91730"},{"Location":"JERSEY MIKES SUBS","Address":"9659 Milliken Ave 102","City":"Rancho Cucamonga","State":"CA","Zip":"91730"},{"Location":"JONES COVEY GROUP INC","Address":"9595 Lucas Ranch Rd","City":"Rancho Cucamonga","State":"CA","Zip":"91730"},{"Location":"JP LATIN DELI","Address":"9047 Arrow Rte 190","City":"Rancho Cucamonga","State":"CA","Zip":"91730"},{"Location":"JUANITAS III RCH CUCMNGA","Address":"9651 Baseline Rd","City":"Rancho Cucamonga","State":"CA","Zip":"91730"},{"Location":"JUST MORTGAGE INC","Address":"9680 Haven Ave","City":"Rancho Cucamonga","State":"CA","Zip":"91730"},{"Location":"K TOWNE 88","Address":"10455 Foothill Blvd 101","City":"Rancho Cucamonga","State":"CA","Zip":"91730"},{"Location":"KAISER PERMANENTE","Address":"10850 Arrow Rte","City":"Rancho Cucamonga","State":"CA","Zip":"91730"},{"Location":"KENS JAPANESE RESTAURANT","Address":"10006 Foothill Blvd","City":"Rancho Cucamonga","State":"CA","Zip":"91730"},{"Location":"KIRO CARS","Address":"8730 Vineyard Ave","City":"Rancho Cucamonga","State":"CA","Zip":"91730"},{"Location":"LA CRAB HOUSE1","Address":"10720 Foothill Blvd 100","City":"Rancho Cucamonga","State":"CA","Zip":"91730"},{"Location":"LAW OFFICE OF FERNANDO VARGAS","Address":"8647 Haven Ave 200","City":"Rancho Cucamonga","State":"CA","Zip":"91730"},{"Location":"LEDESMA AND MIRER CONSTRUCTION","Address":"9441 Haven Ave","City":"Rancho Cucamonga","State":"CA","Zip":"91730"},{"Location":"LEGACY SERVICES","Address":"10832 Laurel St 203","City":"Rancho Cucamonga","State":"CA","Zip":"91730"},{"Location":"LG ELECTRONIC OF ALABAMA  INC","Address":"11600 Millenium Ct","City":"Rancho Cucamonga","State":"CA","Zip":"91730"},{"Location":"LIFEWAY CHURCH","Address":"7477 Vineyard Ave","City":"Rancho Cucamonga","State":"CA","Zip":"91730"},{"Location":"LIGHTNING TRANS DIV 1 CORP","Address":"9267 Haven Ave 170","City":"Rancho Cucamonga","State":"CA","Zip":"91730"},{"Location":"MAIN ELECTRIC SUPPLY","Address":"9409 Charles Smith Ave","City":"Rancho Cucamonga","State":"CA","Zip":"91730"},{"Location":"MARYS MEXICAN FOOD","Address":"10062 Arrow Rte","City":"Rancho Cucamonga","State":"CA","Zip":"91730"},{"Location":"MAX MUSCLE SPORTS NUTRITION","Address":"10808 Foothill Blvd 150","City":"Rancho Cucamonga","State":"CA","Zip":"91730"},{"Location":"MBM FOOD DIST","Address":"9408 Richmond Pl","City":"Rancho Cucamonga","State":"CA","Zip":"91730"},{"Location":"MEDICAL SUPPLIES","Address":"9375 Archibald Ave 803","City":"Rancho Cucamonga","State":"CA","Zip":"91730"},{"Location":"MERCURY INS - RANCHO CUCA","Address":"11000 Eucalyptus St","City":"Rancho Cucamonga","State":"CA","Zip":"91730"},{"Location":"MESKER WEST","Address":"8797 Rochester Ave A2","City":"Rancho Cucamonga","State":"CA","Zip":"91730"},{"Location":"MET LIFE","Address":"11830 Sebastian Way 100","City":"Rancho Cucamonga","State":"CA","Zip":"91730"},{"Location":"MICAS PERUVIAN SANDWICH","Address":"8880 Archibald Ave E","City":"Rancho Cucamonga","State":"CA","Zip":"91730"},{"Location":"MING BO USA HOMES","Address":"8620 Rochester Ave","City":"Rancho Cucamonga","State":"CA","Zip":"91730"},{"Location":"MOBILIA DENTAL CORPORATION","Address":"10064 Arrow Rte","City":"Rancho Cucamonga","State":"CA","Zip":"91730"},{"Location":"MOUNTAIN MIKES PIZZA","Address":"7319 Milliken Ave 100","City":"Rancho Cucamonga","State":"CA","Zip":"91730"},{"Location":"MOUNTAIN VIEW OMS","Address":"11843 Sebastian Way 103","City":"Rancho Cucamonga","State":"CA","Zip":"91730"},{"Location":"MOUNTAIN VIEW TIRE","Address":"8548 Utica Ave","City":"Rancho Cucamonga","State":"CA","Zip":"91730"},{"Location":"MOUNTAIN VIEW TIRE CUCA","Address":"8140 Masi Dr","City":"Rancho Cucamonga","State":"CA","Zip":"91730"},{"Location":"MYKON CONSTRUCTION","Address":"10700 Jersey Bvld  #610","City":"Rancho Cucamonga","State":"CA","Zip":"91730"},{"Location":"MYUNG DONG TOFU RESTAURANT","Address":"9799 Baseline Rd","City":"Rancho Cucamonga","State":"CA","Zip":"91730"},{"Location":"NATIONAL COMMUNITY RENAISSANCE","Address":"9421 Haven Ave","City":"Rancho Cucamonga","State":"CA","Zip":"91730"},{"Location":"NET TECH COMPUTERS","Address":"9849 Foothill Blvd C","City":"Rancho Cucamonga","State":"CA","Zip":"91730"},{"Location":"NEXT EPISODE","Address":"9849 Foothill Blvd","City":"Rancho Cucamonga","State":"CA","Zip":"91730"},{"Location":"NO CLUE CRAFT BREWERY","Address":"9037 Arrow Root #170","City":"Rancho Cucamonga","State":"CA","Zip":"91730"},{"Location":"NUGEN AND ASSOCIATES INSURANCE","Address":"10722 Arrow Rte 116","City":"Rancho Cucamonga","State":"CA","Zip":"91730"},{"Location":"PACIFIC DENTAL #151","Address":"7319 Milliken Ave 110","City":"Rancho Cucamonga","State":"CA","Zip":"91730"},{"Location":"PACIFIC EYE INSTITUTE","Address":"8112 Milliken Ave 203","City":"Rancho Cucamonga","State":"CA","Zip":"91730"},{"Location":"PATTY JOHNSON ACUPUNCTUR","Address":"8645 Haven Ave Ste55","City":"Rancho Cucamonga","State":"CA","Zip":"91730"},{"Location":"PAYROLL LINK INC.","Address":"10251 Trademark St B","City":"Rancho Cucamonga","State":"CA","Zip":"91730"},{"Location":"PIZZA ROYAL  INC","Address":"8671 Baseline Rd","City":"Rancho Cucamonga","State":"CA","Zip":"91730"},{"Location":"PMC","Address":"8447 Maple Pl 1","City":"Rancho Cucamonga","State":"CA","Zip":"91730"},{"Location":"PROF ELECTRICAL CONSTRUCTION","Address":"9112 Santa Anita Ave","City":"Rancho Cucamonga","State":"CA","Zip":"91730"},{"Location":"QUALITY ONE ENGRAVERS","Address":"9749 Cres Ctr Dr 202","City":"Rancho Cucamonga","State":"CA","Zip":"91730"},{"Location":"R E F INDUSTRIES  INC","Address":"7915 Center Ave","City":"Rancho Cucamonga","State":"CA","Zip":"91730"},{"Location":"R.S.A. MEDICAL CENTER","Address":"7777 Milliken Ave","City":"Rancho Cucamonga","State":"CA","Zip":"91730"},{"Location":"RADNET 5","Address":"8805 Haven Ave","City":"Rancho Cucamonga","State":"CA","Zip":"91730"},{"Location":"RADNET 6","Address":"8805 Haven Ave","City":"Rancho Cucamonga","State":"CA","Zip":"91730"},{"Location":"RANCHO CUCAMONGA POLICE","Address":"10510 Civic Center Dr","City":"Rancho Cucamonga","State":"CA","Zip":"91730"},{"Location":"RANCHO CUCAMONGA POLICE DEP","Address":"10510 Civic Center Dr","City":"Rancho Cucamonga","State":"CA","Zip":"91730"},{"Location":"RANCHO FAMILY PRACTICE","Address":"7777 Milliken Ave 240","City":"Rancho Cucamonga","State":"CA","Zip":"91730"},{"Location":"RC LAUREL PROPERTIES LLC","Address":"10837 Laurel St","City":"Rancho Cucamonga","State":"CA","Zip":"91730"},{"Location":"REALTY EXCUTIVES EXPERTS","Address":"9220 Haven Ave 100","City":"Rancho Cucamonga","State":"CA","Zip":"91730"},{"Location":"RED HILL CHIROPRACTIC","Address":"8977 Foothill Blvd D","City":"Rancho Cucamonga","State":"CA","Zip":"91730"},{"Location":"RED TOMATOES MARKET","Address":"9950 Foothill Blvd V","City":"Rancho Cucamonga","State":"CA","Zip":"91730"},{"Location":"ROCKET CAR COMPANY","Address":"8133 Foothill Blvd B","City":"Rancho Cucamonga","State":"CA","Zip":"91730"},{"Location":"ROCKY'S PIZZA","Address":"9615 Foothill Blvd","City":"Rancho Cucamonga","State":"CA","Zip":"91730"},{"Location":"RYAN BECK PHOTOGRAPHY","Address":"8768 Helms Ave D","City":"Rancho Cucamonga","State":"CA","Zip":"91730"},{"Location":"SALON 360","Address":"9205 Archibald Ave","City":"Rancho Cucamonga","State":"CA","Zip":"91730"},{"Location":"SCOTTRADE 04T","Address":"8110 Milliken Ave 101","City":"Rancho Cucamonga","State":"CA","Zip":"91730"},{"Location":"SHARP IMAGE COL INC","Address":"10833 Edison Ct","City":"Rancho Cucamonga","State":"CA","Zip":"91730"},{"Location":"SILVER NAILS","Address":"9659 Baseline Rd","City":"Rancho Cucamonga","State":"CA","Zip":"91730"},{"Location":"SIXTY 6","Address":"8916 Foothill Blvd K","City":"Rancho Cucamonga","State":"CA","Zip":"91730"},{"Location":"SLEEP AND DIAGNOSTICS","Address":"7974 Haven Ave 180","City":"Rancho Cucamonga","State":"CA","Zip":"91730"},{"Location":"SMART AND FINAL","Address":"11601 Dayton Dr","City":"Rancho Cucamonga","State":"CA","Zip":"91730"},{"Location":"SMARTWIRE INC","Address":"9037 Arrow Root  #130","City":"Rancho Cucamonga","State":"CA","Zip":"91730"},{"Location":"SMILE HAVEN DENTAL 1","Address":"10399 Foothill Blvd 101a","City":"Rancho Cucamonga","State":"CA","Zip":"91730"},{"Location":"SOCRATES FINANCIAL","Address":"9300 Santa Anita Ave 108","City":"Rancho Cucamonga","State":"CA","Zip":"91730"},{"Location":"SOLIS","Address":"10801 Jersey Blvd","City":"Rancho Cucamonga","State":"CA","Zip":"91730"},{"Location":"SOUTHWIRE","Address":"9199 Cleveland Ave 100","City":"Rancho Cucamonga","State":"CA","Zip":"91730"},{"Location":"SPECTRA SENSORS","Address":"11027 Arrow Rte","City":"Rancho Cucamonga","State":"CA","Zip":"91730"},{"Location":"SSRB GROUP  INC","Address":"8189 Foothill Blvd","City":"Rancho Cucamonga","State":"CA","Zip":"91730"},{"Location":"STACIE ONEIL","Address":"10299 Alder Ct","City":"Rancho Cucamonga","State":"CA","Zip":"91730"},{"Location":"STACKZ","Address":"9223 Archibald Ave H","City":"Rancho Cucamonga","State":"CA","Zip":"91730"},{"Location":"STEER N STEIN","Address":"8348 Archibald Ave","City":"Rancho Cucamonga","State":"CA","Zip":"91730"},{"Location":"STIX BILLIARDS","Address":"7985 Vineyard Ave","City":"Rancho Cucamonga","State":"CA","Zip":"91730"},{"Location":"STIX HOLDINGS 780","Address":"10990 Foothill Blvd 100","City":"Rancho Cucamonga","State":"CA","Zip":"91730"},{"Location":"SUPERCUTS CA 120","Address":"9140 Foothill Blvd","City":"Rancho Cucamonga","State":"CA","Zip":"91730"},{"Location":"SUPEROIR TANK","Address":"9500 Lucas Ranch Rd","City":"Rancho Cucamonga","State":"CA","Zip":"91730"},{"Location":"SUSHI AREA","Address":"9319 Foothill Blvd E","City":"Rancho Cucamonga","State":"CA","Zip":"91730"},{"Location":"SUSHIMARTINI","Address":"8153 Aspen Ave","City":"Rancho Cucamonga","State":"CA","Zip":"91730"},{"Location":"SWEET AFHAIR","Address":"10078 Arrow Rte A","City":"Rancho Cucamonga","State":"CA","Zip":"91730"},{"Location":"TATUM  TREZZA","Address":"10165 Foothill Blvd 6","City":"Rancho Cucamonga","State":"CA","Zip":"91730"},{"Location":"TD AMERITRADE #05037","Address":"11010 Foothill Blvd 110","City":"Rancho Cucamonga","State":"CA","Zip":"91730"},{"Location":"TEAM FALKEN TIRE","Address":"8656 Haven Ave","City":"Rancho Cucamonga","State":"CA","Zip":"91730"},{"Location":"THAI VEGAN CUISINE","Address":"9819 Foothill Blvd F","City":"Rancho Cucamonga","State":"CA","Zip":"91730"},{"Location":"THE FACTORY CORPORATION","Address":"9340 Santa Anita Ave 107","City":"Rancho Cucamonga","State":"CA","Zip":"91730"},{"Location":"THE LAZY DOG","Address":"11560 4th St","City":"Rancho Cucamonga","State":"CA","Zip":"91730"},{"Location":"THE OLD SPAGHETTI FACTORY","Address":"11896 Foothill Blvd","City":"Rancho Cucamonga","State":"CA","Zip":"91730"},{"Location":"THE SUPREME PLATE LLC","Address":"9849 Foothill Blvd K","City":"Rancho Cucamonga","State":"CA","Zip":"91730"},{"Location":"THE WINE TAILOR","Address":"8916 Foothill Blvd K3","City":"Rancho Cucamonga","State":"CA","Zip":"91730"},{"Location":"TIM BURNS CPA","Address":"9620 Center Ave 160","City":"Rancho Cucamonga","State":"CA","Zip":"91730"},{"Location":"TINT CITY WINDOW TINT","Address":"10340 Foothill Blvd","City":"Rancho Cucamonga","State":"CA","Zip":"91730"},{"Location":"TRL SYSTEMS","Address":"9531 Milliken Ave","City":"Rancho Cucamonga","State":"CA","Zip":"91730"},{"Location":"TROPICAL FOOD EXPRESS","Address":"9625 Foothill Blvd","City":"Rancho Cucamonga","State":"CA","Zip":"91730"},{"Location":"TRUE SLEEP","Address":"9645 Arrow Rte G","City":"Rancho Cucamonga","State":"CA","Zip":"91730"},{"Location":"UNIVERSAL SERVALENCE SYSTEMS","Address":"11172 Elm Ave","City":"Rancho Cucamonga","State":"CA","Zip":"91730"},{"Location":"UNIVERSAL TECHNICAL INSTITUTE","Address":"9494 Haven Ave","City":"Rancho Cucamonga","State":"CA","Zip":"91730"},{"Location":"US BANK","Address":"11343 Baseline Rd","City":"Rancho Cucamonga","State":"CA","Zip":"91730"},{"Location":"US LEGAL SUPPORT INC","Address":"9680 Haven Ave 140","City":"Rancho Cucamonga","State":"CA","Zip":"91730"},{"Location":"VANGUARD TOOL MANUFACTURING","Address":"8388 Utica Ave","City":"Rancho Cucamonga","State":"CA","Zip":"91730"},{"Location":"VATSAL HAREN MODY","Address":"10832 Laurel St 101","City":"Rancho Cucamonga","State":"CA","Zip":"91730"},{"Location":"VEHICLE ACCESSORY CENTER","Address":"10863 Jersey Blvd 101","City":"Rancho Cucamonga","State":"CA","Zip":"91730"},{"Location":"VICTORY PAINT AND HOT RODS","Address":"9029 Rochester Ave","City":"Rancho Cucamonga","State":"CA","Zip":"91730"},{"Location":"VOCATIONAL IMPROVEMENT PROG","Address":"8675 Boston Pl","City":"Rancho Cucamonga","State":"CA","Zip":"91730"},{"Location":"WABISABI TEPPAN GRILL","Address":"11837 Foothill Blvd B","City":"Rancho Cucamonga","State":"CA","Zip":"91730"},{"Location":"WELCH MANAGEMENT CORP","Address":"7945 Haven Ave 100","City":"Rancho Cucamonga","State":"CA","Zip":"91730"},{"Location":"WELLS FARGO DEALER SERVICES","Address":"10750 4th St 200","City":"Rancho Cucamonga","State":"CA","Zip":"91730"},{"Location":"WEST COAST FIRE","Address":"11010 Arrow Rte #108","City":"Rancho Cucamonga","State":"CA","Zip":"91730"},{"Location":"WEST VALLEY COURT SVC","Address":"8303 Haven Ave 3fl","City":"Rancho Cucamonga","State":"CA","Zip":"91730"},{"Location":"WOOD SMITH HENNING AND BERMAN","Address":"9333 Fairway View Pl 200","City":"Rancho Cucamonga","State":"CA","Zip":"91730"},{"Location":"XKLUSIVE WIRELESS","Address":"10076 Arrow Rte","City":"Rancho Cucamonga","State":"CA","Zip":"91730"},{"Location":"YATAI EXPRESS","Address":"8976 Foothill Blvd B6","City":"Rancho Cucamonga","State":"CA","Zip":"91730"},{"Location":"YOUNGS ACUPUNCTURE CLINI","Address":"8865 Foothill Blvd 105","City":"Rancho Cucamonga","State":"CA","Zip":"91730"},{"Location":"ZENDEJAS  MEXICAN GRILL","Address":"8106 Milliken Ave","City":"Rancho Cucamonga","State":"CA","Zip":"91730"},{"Location":"LUCILLE'S SMOKEHOUSE BBQ","Address":"12624  N Main St","City":"Rancho Cucanmoica","State":"CA","Zip":"91730"},{"Location":"AAHSOME SALON","Address":"8063 Archibald Ave","City":"Rch Cucamonga","State":"CA","Zip":"91730"},{"Location":"AMERICAN MADE","Address":"8727 Utica Ave","City":"Rch Cucamonga","State":"CA","Zip":"91730"},{"Location":"ANITA DR KUNDI","Address":"8221 Rochester Ave 120","City":"Rch Cucamonga","State":"CA","Zip":"91730"},{"Location":"CJM LIGHTING SERVICE","Address":"8619 Red Oak St","City":"Rch Cucamonga","State":"CA","Zip":"91730"},{"Location":"DALMAN & KLODT BUILDERS","Address":"11824 Bunker Hill Dr","City":"Rch Cucamonga","State":"CA","Zip":"91730"},{"Location":"FINAL TOUCH","Address":"8623 Baseline Rd","City":"Rch Cucamonga","State":"CA","Zip":"91730"},{"Location":"GARCIA","Address":"8880 Foothill Blvd 104","City":"Rch Cucamonga","State":"CA","Zip":"91730"},{"Location":"MEXUS PRODUCE","Address":"8707 Utica Ave","City":"Rch Cucamonga","State":"CA","Zip":"91730"},{"Location":"MOBILITY TOYS","Address":"8400 Maple Pl 104","City":"Rch Cucamonga","State":"CA","Zip":"91730"},{"Location":"OPTION ONE PLUMBING","Address":"10722 Arrow Rte 602","City":"Rch Cucamonga","State":"CA","Zip":"91730"},{"Location":"PHO BAMBU","Address":"9668 Milliken Ave 101","City":"Rch Cucamonga","State":"CA","Zip":"91730"},{"Location":"RAMONA TIRE INC","Address":"11836 Foothill Blvd","City":"Rch Cucamonga","State":"CA","Zip":"91730"},{"Location":"SMILENEEDS DENTAL","Address":"9113 Foothill Blvd 210","City":"Rch Cucamonga","State":"CA","Zip":"91730"},{"Location":"SUSHI ONE SPOT","Address":"10990 Foothill Blvd","City":"Rch Cucamonga","State":"CA","Zip":"91730"},{"Location":"TEAM PHYSICAL THERAPY","Address":"10590 Town Center Dr 100","City":"Rch Cucamonga","State":"CA","Zip":"91730"},{"Location":"VALERIO TROPICAL BAKE SH","Address":"11098 Foothill Blvd","City":"Rch Cucamonga","State":"CA","Zip":"91730"},{"Location":"YOLANDA SIRRI","Address":"9255 Baseline Rd L","City":"Rch Cucamonga","State":"CA","Zip":"91730"},{"Location":"1 PHO NOODLE GRILL","Address":"11897 Foothill Blvd B","City":"Rancho Cucamonga","State":"CA","Zip":"91730"},{"Location":"24 HOUR FITNESS #197","Address":"11787 Foothill Blvd","City":"Rancho Cucamonga","State":"CA","Zip":"91730"},{"Location":"4 ACE CONSTRUCTION","Address":"8351 Elm Ave 104","City":"Rancho Cucamonga","State":"CA","Zip":"91730"},{"Location":"909 SPORTS GRILL","Address":"11849 Foothill Blvd A","City":"Rancho Cucamonga","State":"CA","Zip":"91730"},{"Location":"A PLUS CARPET AND TILE","Address":"11561 Foothill Blvd","City":"Rancho Cucamonga","State":"CA","Zip":"91730"},{"Location":"A R SQUARE INC","Address":"8757 Lanyard Ct 150","City":"Rancho Cucamonga","State":"CA","Zip":"91730"},{"Location":"ABUNDANT LIVING FAMILY CHURCH","Address":"10900 Civic Center Dr","City":"Rancho Cucamonga","State":"CA","Zip":"91730"},{"Location":"ACCENT COMPUTER SOLUTIONS","Address":"8438 Red Oak Ave","City":"Rancho Cucamonga","State":"CA","Zip":"91730"},{"Location":"ADVANCED SURGICAL INSTITUTE","Address":"8112 Milliken Ave","City":"Rancho Cucamonga","State":"CA","Zip":"91730"},{"Location":"AGENT FRANCHISE","Address":"9518 9th St C2","City":"Rancho Cucamonga","State":"CA","Zip":"91730"},{"Location":"ALI MOHAMED MD","Address":"10165 Foothill Blvd","City":"Rancho Cucamonga","State":"CA","Zip":"91730"},{"Location":"ALONZO DECK","Address":"10022 6th St C","City":"Rancho Cucamonga","State":"CA","Zip":"91730"},{"Location":"ALTALOMA PSYCHOLOGICAL ASSOC","Address":"9089 Baseline Rd 200","City":"Rancho Cucamonga","State":"CA","Zip":"91730"},{"Location":"AMERICAN MEDICAL RESPONSE","Address":"7925 Center Ave","City":"Rancho Cucamonga","State":"CA","Zip":"91730"},{"Location":"ANTONINOS REST.","Address":"7945 Vineyard Ave D7","City":"Rancho Cucamonga","State":"CA","Zip":"91730"},{"Location":"APOSTOLIC ASSEMBLY","Address":"10807 Laurel St","City":"Rancho Cucamonga","State":"CA","Zip":"91730"},{"Location":"APPLEBEE'S #2150024","Address":"10709 Foothill Blvd","City":"Rancho Cucamonga","State":"CA","Zip":"91730"},{"Location":"ARETE","Address":"9439 Archibald Ave 105","City":"Rancho Cucamonga","State":"CA","Zip":"91730"},{"Location":"ARROWHEAD FREGHT INC","Address":"8796 Rochester Ave","City":"Rancho Cucamonga","State":"CA","Zip":"91730"},{"Location":"ARROWHEAD ORTHOPEDIC 4","Address":"8805 Haven Ave","City":"Rancho Cucamonga","State":"CA","Zip":"91730"},{"Location":"ARROWWOODS WORK CORP","Address":"8713 Lion St","City":"Rancho Cucamonga","State":"CA","Zip":"91730"},{"Location":"ARS NATIONAL SVCS","Address":"10801 6th St 110","City":"Rancho Cucamonga","State":"CA","Zip":"91730"},{"Location":"ASTON OLSON READER INSURANCE","Address":"10722 Arrow Rte 508","City":"Rancho Cucamonga","State":"CA","Zip":"91730"},{"Location":"AUREUS MEDICAL","Address":"7974 Haven Ave 250","City":"Rancho Cucamonga","State":"CA","Zip":"91730"},{"Location":"AVERY DENNISON","Address":"11195 Eucalyptus St","City":"Rancho Cucamonga","State":"CA","Zip":"91730"},{"Location":"AZTLAN PRODUCTION INCORP","Address":"8558 Sierrra Madre Ave","City":"Rancho Cucamonga","State":"CA","Zip":"91730"},{"Location":"BARBERS R US","Address":"9339 Foothill Blvd L","City":"Rancho Cucamonga","State":"CA","Zip":"91730"},{"Location":"BASF CORPORATION","Address":"9060 Haven Ave","City":"Rancho Cucamonga","State":"CA","Zip":"91730"},{"Location":"BAUSCH AND LOMB","Address":"10532 Acacia St B8","City":"Rancho Cucamonga","State":"CA","Zip":"91730"},{"Location":"BENACARE MEDICAL CENTER","Address":"8599 Haven Ave 101","City":"Rancho Cucamonga","State":"CA","Zip":"91730"},{"Location":"BIG WOK","Address":"11334 4th St 103","City":"Rancho Cucamonga","State":"CA","Zip":"91730"},{"Location":"BJS PIZZA","Address":"9653 Baseline Rd","City":"Rancho Cucamonga","State":"CA","Zip":"91730"},{"Location":"BJS RESTAURANT #433","Address":"11520 4th St","City":"Rancho Cucamonga","State":"CA","Zip":"91730"},{"Location":"BOBS MUFFLER SHOP","Address":"8714 Lion St B","City":"Rancho Cucamonga","State":"CA","Zip":"91730"},{"Location":"BOSTON'S THE GOURMET PIZZA","Address":"11260 4th St","City":"Rancho Cucamonga","State":"CA","Zip":"91730"},{"Location":"BROWN METAL COMPANY","Address":"8635 White Oak Ave","City":"Rancho Cucamonga","State":"CA","Zip":"91730"},{"Location":"BRUNSWICK #870","Address":"7930 Haven Ave","City":"Rancho Cucamonga","State":"CA","Zip":"91730"},{"Location":"BUDGET TRUCK RENTAL","Address":"8393 Foothill Blvd","City":"Rancho Cucamonga","State":"CA","Zip":"91730"},{"Location":"BUILDING INDUSTRY CREDIT ASSN","Address":"10601 Civic Center Dr 10","City":"Rancho Cucamonga","State":"CA","Zip":"91730"},{"Location":"CAFE CALATO","Address":"9640 Center Ave 150","City":"Rancho Cucamonga","State":"CA","Zip":"91730"},{"Location":"CAHP CREDIT UNION","Address":"9471 Pittsburgh Ave","City":"Rancho Cucamonga","State":"CA","Zip":"91730"},{"Location":"CAL BANK & TRUST","Address":"9590 Foothill Blvd","City":"Rancho Cucamonga","State":"CA","Zip":"91730"},{"Location":"CALIFORNIA ATHLETIC CENTER LLC","Address":"9120 Haven Ave","City":"Rancho Cucamonga","State":"CA","Zip":"91730"},{"Location":"CALIFORNIA FOOTHILLS MDCL ASS","Address":"8211 Rochester Ave 101","City":"Rancho Cucamonga","State":"CA","Zip":"91730"},{"Location":"CALVIN DONUTS","Address":"9721 Baseline Rd","City":"Rancho Cucamonga","State":"CA","Zip":"91730"},{"Location":"CARDIO FIT SPORTS CLUB INC","Address":"9950 Foothill Blvd O","City":"Rancho Cucamonga","State":"CA","Zip":"91730"},{"Location":"CARE FIRST SURGICAL CENT","Address":"8599 Haven Ave Suite","City":"Rancho Cucamonga","State":"CA","Zip":"91730"},{"Location":"CARROWS RESTAURANT","Address":"11669 Foothill Blvd","City":"Rancho Cucamonga","State":"CA","Zip":"91730"},{"Location":"CASK N CLEAVER","Address":"8689 9th St","City":"Rancho Cucamonga","State":"CA","Zip":"91730"},{"Location":"CDM INC","Address":"9220 Cleveland Ave 100","City":"Rancho Cucamonga","State":"CA","Zip":"91730"},{"Location":"CE NAILS SPA SALON","Address":"9640 Milliken Ave 6101","City":"Rancho Cucamonga","State":"CA","Zip":"91730"},{"Location":"CHILI'S #0197","Address":"10598 Foothill Blvd","City":"Rancho Cucamonga","State":"CA","Zip":"91730"},{"Location":"CHINO BASIN WATER MASTER","Address":"9641 San Bernardino Rd","City":"Rancho Cucamonga","State":"CA","Zip":"91730"},{"Location":"CHRISTMAS HOUSE BED","Address":"9240 Archibald Ave","City":"Rancho Cucamonga","State":"CA","Zip":"91730"},{"Location":"CNJ MARKETING","Address":"10535 Foothill Blvd 276","City":"Rancho Cucamonga","State":"CA","Zip":"91730"},{"Location":"CO- OP FINANCIAL SERV","Address":"9692 Haven Ave","City":"Rancho Cucamonga","State":"CA","Zip":"91730"},{"Location":"COASTLINE MANUFACTURING COMP","Address":"10234 4th St","City":"Rancho Cucamonga","State":"CA","Zip":"91730"},{"Location":"COCA COLA REFRESHMENTS","Address":"10670 6th St","City":"Rancho Cucamonga","State":"CA","Zip":"91730"},{"Location":"COHEN MEDICAL CENTER","Address":"8330 Red Oak St 201","City":"Rancho Cucamonga","State":"CA","Zip":"91730"},{"Location":"COLOR ME BEAUTY","Address":"10399 Foothill Blvd 101b","City":"Rancho Cucamonga","State":"CA","Zip":"91730"},{"Location":"CONCENTRA HEALTH SERVICES","Address":"9405 Fairway View Pl","City":"Rancho Cucamonga","State":"CA","Zip":"91730"},{"Location":"CROSS ROAD EQUIPMENT LEASE LLC","Address":"9385 Haven Ave","City":"Rancho Cucamonga","State":"CA","Zip":"91730"},{"Location":"CTI","Address":"10801 6th St","City":"Rancho Cucamonga","State":"CA","Zip":"91730"},{"Location":"CUCAMONGA PIZZA CO.","Address":"9659 Milliken Ave 103","City":"Rancho Cucamonga","State":"CA","Zip":"91730"},{"Location":"CUCAMONGA RESTAURANTS IN","Address":"8318 Foothill Blvd","City":"Rancho Cucamonga","State":"CA","Zip":"91730"},{"Location":"CUCAMONGA SERVICE CLUB 1","Address":"9324 San Bernardino Rd","City":"Rancho Cucamonga","State":"CA","Zip":"91730"},{"Location":"CUCAMONGA VALLEY WATER DISTRIC","Address":"10440 Ashford St","City":"Rancho Cucamonga","State":"CA","Zip":"91730"},{"Location":"CW DRIVER","Address":"11879 Sebastian Way","City":"Rancho Cucamonga","State":"CA","Zip":"91730"},{"Location":"DAVITA #5364 RANCHO CUCAMONGA","Address":"8219 Rochester Ave","City":"Rancho Cucamonga","State":"CA","Zip":"91730"},{"Location":"DIAMOND SHEER'S","Address":"9319 Foothill Blvd","City":"Rancho Cucamonga","State":"CA","Zip":"91730"},{"Location":"DICKEY'S BARBECUE PIT","Address":"9670 Haven Ave 105","City":"Rancho Cucamonga","State":"CA","Zip":"91730"},{"Location":"DIVERSIFIED PACIFIC","Address":"10621 Civic Center Dr","City":"Rancho Cucamonga","State":"CA","Zip":"91730"},{"Location":"DOGGIE COUTURE","Address":"8976 Foothill Blvd B7","City":"Rancho Cucamonga","State":"CA","Zip":"91730"},{"Location":"DR HATTAR DENTAL","Address":"9950 Foothill Blvd T","City":"Rancho Cucamonga","State":"CA","Zip":"91730"},{"Location":"EDDIE MARINE INC","Address":"11479 6th St","City":"Rancho Cucamonga","State":"CA","Zip":"91730"},{"Location":"EL RANCHO RESTAURANT 2","Address":"9260 Haven Ave","City":"Rancho Cucamonga","State":"CA","Zip":"91730"},{"Location":"EMPIRE CPAP LLC","Address":"8598 Utica Ave 100","City":"Rancho Cucamonga","State":"CA","Zip":"91730"},{"Location":"EXEL","Address":"9160 Buffalo Ave","City":"Rancho Cucamonga","State":"CA","Zip":"91730"},{"Location":"EXEL INC.","Address":"9333 Hermosa Ave","City":"Rancho Cucamonga","State":"CA","Zip":"91730"},{"Location":"FALKEN TIRE","Address":"8656 Haven Ave","City":"Rancho Cucamonga","State":"CA","Zip":"91730"},{"Location":"FAMOUS DAVES BBQ RANCHO #3096","Address":"11470 4th St","City":"Rancho Cucamonga","State":"CA","Zip":"91730"},{"Location":"FIERCE ALLSTAR CHEER","Address":"10838 Bell Ct","City":"Rancho Cucamonga","State":"CA","Zip":"91730"},{"Location":"FIRST BAPTIST CHURCH OF","Address":"7450 Archibald Ave","City":"Rancho Cucamonga","State":"CA","Zip":"91730"},{"Location":"FITNESS 19","Address":"7945 Vineyard Ave","City":"Rancho Cucamonga","State":"CA","Zip":"91730"},{"Location":"FMC 23750000","Address":"10532 Acacia St B2","City":"Rancho Cucamonga","State":"CA","Zip":"91730"},{"Location":"FONDA DON CHON","Address":"10276 Foothill Blvd","City":"Rancho Cucamonga","State":"CA","Zip":"91730"},{"Location":"FOOTHILL DENTAL","Address":"11561 Foothill Blvd","City":"Rancho Cucamonga","State":"CA","Zip":"91730"},{"Location":"FRITO-LAY INC","Address":"9535 Archibald Ave","City":"Rancho Cucamonga","State":"CA","Zip":"91730"},{"Location":"FRONTIER ENTERPRISES LLC","Address":"8300 Utica Ave 300","City":"Rancho Cucamonga","State":"CA","Zip":"91730"},{"Location":"GANDOLFOS NY DELICATESEN","Address":"9090 Milliken Ave 160","City":"Rancho Cucamonga","State":"CA","Zip":"91730"},{"Location":"GAO SUSHI","Address":"8270 Foothill Blvd","City":"Rancho Cucamonga","State":"CA","Zip":"91730"},{"Location":"GENTEX CORP","Address":"9859 7th St","City":"Rancho Cucamonga","State":"CA","Zip":"91730"},{"Location":"GENTLE DENTAL","Address":"8880 Foothill Blvd 5","City":"Rancho Cucamonga","State":"CA","Zip":"91730"},{"Location":"GENTLEMENS BARBER CLUB","Address":"9635 Milliken Ave E102","City":"Rancho Cucamonga","State":"CA","Zip":"91730"},{"Location":"GLORIAS HAIR2","Address":"9685 Baseline Rd","City":"Rancho Cucamonga","State":"CA","Zip":"91730"},{"Location":"GM SPO","Address":"9150 Hermosa Ave","City":"Rancho Cucamonga","State":"CA","Zip":"91730"},{"Location":"GOODFELLAS","Address":"8034 Haven Ave B","City":"Rancho Cucamonga","State":"CA","Zip":"91730"},{"Location":"GOODWEST RUBBER CORP","Address":"9615 Feron Blvd","City":"Rancho Cucamonga","State":"CA","Zip":"91730"},{"Location":"HAWAIAN BARBECUE #2","Address":"10710 Foothill Blvd 110","City":"Rancho Cucamonga","State":"CA","Zip":"91730"},{"Location":"HIDE A WHILE","Address":"9469 Foothill Blvd","City":"Rancho Cucamonga","State":"CA","Zip":"91730"},{"Location":"HOME DEPOT","Address":"8535 Oakwood Pl B","City":"Rancho Cucamonga","State":"CA","Zip":"91730"},{"Location":"HOME DIALYSIS CENTERS O","Address":"8239 Rochester Ave 110","City":"Rancho Cucamonga","State":"CA","Zip":"91730"},{"Location":"HOOK UPS BARBERSHOP","Address":"8939 Foothill Blvd","City":"Rancho Cucamonga","State":"CA","Zip":"91730"},{"Location":"HRC FACILITY","Address":"8112 Milliken Ave 101","City":"Rancho Cucamonga","State":"CA","Zip":"91730"},{"Location":"ILINK BUSINESS MANAGEMEN","Address":"11650 Mission Park Dr 102","City":"Rancho Cucamonga","State":"CA","Zip":"91730"},{"Location":"INDY MAC BANK","Address":"9680 Haven Ave 350","City":"Rancho Cucamonga","State":"CA","Zip":"91730"},{"Location":"INLAND EMPIRE STAGES","Address":"9567 8th St","City":"Rancho Cucamonga","State":"CA","Zip":"91730"},{"Location":"IPPG","Address":"8577 Haven Ave","City":"Rancho Cucamonga","State":"CA","Zip":"91730"},{"Location":"ISLANDS RESTAURANT #038","Address":"11425 Foothill Blvd","City":"Rancho Cucamonga","State":"CA","Zip":"91730"},{"Location":"ITF CONSULTING","Address":"10825 7th St D","City":"Rancho Cucamonga","State":"CA","Zip":"91730"},{"Location":"JDR TECHNICAL SERVICE","Address":"10572 Acacia St C1","City":"Rancho Cucamonga","State":"CA","Zip":"91730"},{"Location":"JENKINS ORTHODONTICS","Address":"10601 Church St 104","City":"Rancho Cucamonga","State":"CA","Zip":"91730"},{"Location":"JENNY CRAIG","Address":"11335 Jersey Blvd","City":"Rancho Cucamonga","State":"CA","Zip":"91730"},{"Location":"JEROMES FURNITURE II","Address":"11750 4th St","City":"Rancho Cucamonga","State":"CA","Zip":"91730"},{"Location":"JERSEY MIKES SUBS","Address":"9659 Milliken Ave 102","City":"Rancho Cucamonga","State":"CA","Zip":"91730"},{"Location":"JONES COVEY GROUP INC","Address":"9595 Lucas Ranch Rd","City":"Rancho Cucamonga","State":"CA","Zip":"91730"},{"Location":"JP LATIN DELI","Address":"9047 Arrow Rte 190","City":"Rancho Cucamonga","State":"CA","Zip":"91730"},{"Location":"JUANITAS III RCH CUCMNGA","Address":"9651 Baseline Rd","City":"Rancho Cucamonga","State":"CA","Zip":"91730"},{"Location":"JUST MORTGAGE INC","Address":"9680 Haven Ave","City":"Rancho Cucamonga","State":"CA","Zip":"91730"},{"Location":"K TOWNE 88","Address":"10455 Foothill Blvd 101","City":"Rancho Cucamonga","State":"CA","Zip":"91730"},{"Location":"KAISER PERMANENTE","Address":"10850 Arrow Rte","City":"Rancho Cucamonga","State":"CA","Zip":"91730"},{"Location":"KENS JAPANESE RESTAURANT","Address":"10006 Foothill Blvd","City":"Rancho Cucamonga","State":"CA","Zip":"91730"},{"Location":"KIRO CARS","Address":"8730 Vineyard Ave","City":"Rancho Cucamonga","State":"CA","Zip":"91730"},{"Location":"KOBE JAPANESE HOUSE","Address":"7900 Haven Ave 24","City":"Rancho Cucamonga","State":"CA","Zip":"91730"},{"Location":"LA CRAB HOUSE1","Address":"10720 Foothill Blvd 100","City":"Rancho Cucamonga","State":"CA","Zip":"91730"},{"Location":"LAW OFFICE OF FERNANDO VARGAS","Address":"8647 Haven Ave 200","City":"Rancho Cucamonga","State":"CA","Zip":"91730"},{"Location":"LEDESMA AND MIRER CONSTRUCTION","Address":"9441 Haven Ave","City":"Rancho Cucamonga","State":"CA","Zip":"91730"},{"Location":"LEGACY SERVICES","Address":"10832 Laurel St 203","City":"Rancho Cucamonga","State":"CA","Zip":"91730"},{"Location":"LG ELECTRONIC OF ALABAMA  INC","Address":"11600 Millenium Ct","City":"Rancho Cucamonga","State":"CA","Zip":"91730"},{"Location":"LIFEWAY CHURCH","Address":"7477 Vineyard Ave","City":"Rancho Cucamonga","State":"CA","Zip":"91730"},{"Location":"LIGHTNING TRANS DIV 1 CORP","Address":"9267 Haven Ave 170","City":"Rancho Cucamonga","State":"CA","Zip":"91730"},{"Location":"MAIN ELECTRIC SUPPLY","Address":"9409 Charles Smith Ave","City":"Rancho Cucamonga","State":"CA","Zip":"91730"},{"Location":"MARYS MEXICAN FOOD","Address":"10062 Arrow Rte","City":"Rancho Cucamonga","State":"CA","Zip":"91730"},{"Location":"MAX MUSCLE SPORTS NUTRITION","Address":"10808 Foothill Blvd 150","City":"Rancho Cucamonga","State":"CA","Zip":"91730"},{"Location":"MBM FOOD DIST","Address":"9408 Richmond Pl","City":"Rancho Cucamonga","State":"CA","Zip":"91730"},{"Location":"MEDICAL SUPPLIES","Address":"9375 Archibald Ave 803","City":"Rancho Cucamonga","State":"CA","Zip":"91730"},{"Location":"MERCURY INS - RANCHO CUCA","Address":"11000 Eucalyptus St","City":"Rancho Cucamonga","State":"CA","Zip":"91730"},{"Location":"MESKER WEST","Address":"8797 Rochester Ave A2","City":"Rancho Cucamonga","State":"CA","Zip":"91730"},{"Location":"MET LIFE","Address":"11830 Sebastian Way 100","City":"Rancho Cucamonga","State":"CA","Zip":"91730"},{"Location":"MICAS PERUVIAN SANDWICH","Address":"8880 Archibald Ave E","City":"Rancho Cucamonga","State":"CA","Zip":"91730"},{"Location":"MING BO USA HOMES","Address":"8620 Rochester Ave","City":"Rancho Cucamonga","State":"CA","Zip":"91730"},{"Location":"MOBILIA DENTAL CORPORATION","Address":"10064 Arrow Rte","City":"Rancho Cucamonga","State":"CA","Zip":"91730"},{"Location":"MOUNTAIN MIKES PIZZA","Address":"7319 Milliken Ave 100","City":"Rancho Cucamonga","State":"CA","Zip":"91730"},{"Location":"MOUNTAIN VIEW OMS","Address":"11843 Sebastian Way 103","City":"Rancho Cucamonga","State":"CA","Zip":"91730"},{"Location":"MOUNTAIN VIEW TIRE","Address":"8548 Utica Ave","City":"Rancho Cucamonga","State":"CA","Zip":"91730"},{"Location":"MOUNTAIN VIEW TIRE CUCA","Address":"8140 Masi Dr","City":"Rancho Cucamonga","State":"CA","Zip":"91730"},{"Location":"MYKON CONSTRUCTION","Address":"10700 Jersey Bvld  #610","City":"Rancho Cucamonga","State":"CA","Zip":"91730"},{"Location":"MYUNG DONG TOFU RESTAURANT","Address":"9799 Baseline Rd","City":"Rancho Cucamonga","State":"CA","Zip":"91730"},{"Location":"NATIONAL COMMUNITY RENAISSANCE","Address":"9421 Haven Ave","City":"Rancho Cucamonga","State":"CA","Zip":"91730"},{"Location":"NET TECH COMPUTERS","Address":"9849 Foothill Blvd C","City":"Rancho Cucamonga","State":"CA","Zip":"91730"},{"Location":"NEXT EPISODE","Address":"9849 Foothill Blvd","City":"Rancho Cucamonga","State":"CA","Zip":"91730"},{"Location":"NO CLUE CRAFT BREWERY","Address":"9037 Arrow Root #170","City":"Rancho Cucamonga","State":"CA","Zip":"91730"},{"Location":"NUGEN AND ASSOCIATES INSURANCE","Address":"10722 Arrow Rte 116","City":"Rancho Cucamonga","State":"CA","Zip":"91730"},{"Location":"PACIFIC DENTAL #151","Address":"7319 Milliken Ave 110","City":"Rancho Cucamonga","State":"CA","Zip":"91730"},{"Location":"PACIFIC EYE INSTITUTE","Address":"8112 Milliken Ave 203","City":"Rancho Cucamonga","State":"CA","Zip":"91730"},{"Location":"PATTY JOHNSON ACUPUNCTUR","Address":"8645 Haven Ave Ste55","City":"Rancho Cucamonga","State":"CA","Zip":"91730"},{"Location":"PAYROLL LINK INC.","Address":"10251 Trademark St B","City":"Rancho Cucamonga","State":"CA","Zip":"91730"},{"Location":"PIZZA ROYAL  INC","Address":"8671 Baseline Rd","City":"Rancho Cucamonga","State":"CA","Zip":"91730"},{"Location":"PMC","Address":"8447 Maple Pl 1","City":"Rancho Cucamonga","State":"CA","Zip":"91730"},{"Location":"PROF ELECTRICAL CONSTRUCTION","Address":"9112 Santa Anita Ave","City":"Rancho Cucamonga","State":"CA","Zip":"91730"},{"Location":"QUALITY ONE ENGRAVERS","Address":"9749 Cres Ctr Dr 202","City":"Rancho Cucamonga","State":"CA","Zip":"91730"},{"Location":"R E F INDUSTRIES  INC","Address":"7915 Center Ave","City":"Rancho Cucamonga","State":"CA","Zip":"91730"},{"Location":"R.S.A. MEDICAL CENTER","Address":"7777 Milliken Ave","City":"Rancho Cucamonga","State":"CA","Zip":"91730"},{"Location":"RADNET 5","Address":"8805 Haven Ave","City":"Rancho Cucamonga","State":"CA","Zip":"91730"},{"Location":"RADNET 6","Address":"8805 Haven Ave","City":"Rancho Cucamonga","State":"CA","Zip":"91730"},{"Location":"RANCHO CUCAMONGA POLICE","Address":"10510 Civic Center Dr","City":"Rancho Cucamonga","State":"CA","Zip":"91730"},{"Location":"RANCHO CUCAMONGA POLICE DEP","Address":"10510 Civic Center Dr","City":"Rancho Cucamonga","State":"CA","Zip":"91730"},{"Location":"RANCHO FAMILY PRACTICE","Address":"7777 Milliken Ave 240","City":"Rancho Cucamonga","State":"CA","Zip":"91730"},{"Location":"RC LAUREL PROPERTIES LLC","Address":"10837 Laurel St","City":"Rancho Cucamonga","State":"CA","Zip":"91730"},{"Location":"REALTY EXCUTIVES EXPERTS","Address":"9220 Haven Ave 100","City":"Rancho Cucamonga","State":"CA","Zip":"91730"},{"Location":"RED HILL CHIROPRACTIC","Address":"8977 Foothill Blvd D","City":"Rancho Cucamonga","State":"CA","Zip":"91730"},{"Location":"RED TOMATOES MARKET","Address":"9950 Foothill Blvd V","City":"Rancho Cucamonga","State":"CA","Zip":"91730"},{"Location":"ROCKET CAR COMPANY","Address":"8133 Foothill Blvd B","City":"Rancho Cucamonga","State":"CA","Zip":"91730"},{"Location":"ROCKY'S PIZZA","Address":"9615 Foothill Blvd","City":"Rancho Cucamonga","State":"CA","Zip":"91730"},{"Location":"RYAN BECK PHOTOGRAPHY","Address":"8768 Helms Ave D","City":"Rancho Cucamonga","State":"CA","Zip":"91730"},{"Location":"SALON 360","Address":"9205 Archibald Ave","City":"Rancho Cucamonga","State":"CA","Zip":"91730"},{"Location":"SCOTTRADE 04T","Address":"8110 Milliken Ave 101","City":"Rancho Cucamonga","State":"CA","Zip":"91730"},{"Location":"SHARP IMAGE COL INC","Address":"10833 Edison Ct","City":"Rancho Cucamonga","State":"CA","Zip":"91730"},{"Location":"SILVER NAILS","Address":"9659 Baseline Rd","City":"Rancho Cucamonga","State":"CA","Zip":"91730"},{"Location":"SIXTY 6","Address":"8916 Foothill Blvd K","City":"Rancho Cucamonga","State":"CA","Zip":"91730"},{"Location":"SLEEP AND DIAGNOSTICS","Address":"7974 Haven Ave 180","City":"Rancho Cucamonga","State":"CA","Zip":"91730"},{"Location":"SMART AND FINAL","Address":"11601 Dayton Dr","City":"Rancho Cucamonga","State":"CA","Zip":"91730"},{"Location":"SMARTWIRE INC","Address":"9037 Arrow Root  #130","City":"Rancho Cucamonga","State":"CA","Zip":"91730"},{"Location":"SMILE HAVEN DENTAL 1","Address":"10399 Foothill Blvd 101a","City":"Rancho Cucamonga","State":"CA","Zip":"91730"},{"Location":"SOCRATES FINANCIAL","Address":"9300 Santa Anita Ave 108","City":"Rancho Cucamonga","State":"CA","Zip":"91730"},{"Location":"SOLIS","Address":"10801 Jersey Blvd","City":"Rancho Cucamonga","State":"CA","Zip":"91730"},{"Location":"SOUTHWIRE","Address":"9199 Cleveland Ave 100","City":"Rancho Cucamonga","State":"CA","Zip":"91730"},{"Location":"SPECTRA SENSORS","Address":"11027 Arrow Rte","City":"Rancho Cucamonga","State":"CA","Zip":"91730"},{"Location":"SSRB GROUP  INC","Address":"8189 Foothill Blvd","City":"Rancho Cucamonga","State":"CA","Zip":"91730"},{"Location":"STACIE ONEIL","Address":"10299 Alder Ct","City":"Rancho Cucamonga","State":"CA","Zip":"91730"},{"Location":"STACKZ","Address":"9223 Archibald Ave H","City":"Rancho Cucamonga","State":"CA","Zip":"91730"},{"Location":"STEER N STEIN","Address":"8348 Archibald Ave","City":"Rancho Cucamonga","State":"CA","Zip":"91730"},{"Location":"STIX BILLIARDS","Address":"7985 Vineyard Ave","City":"Rancho Cucamonga","State":"CA","Zip":"91730"},{"Location":"STIX HOLDINGS 780","Address":"10990 Foothill Blvd 100","City":"Rancho Cucamonga","State":"CA","Zip":"91730"},{"Location":"SUPERCUTS CA 120","Address":"9140 Foothill Blvd","City":"Rancho Cucamonga","State":"CA","Zip":"91730"},{"Location":"SUPEROIR TANK","Address":"9500 Lucas Ranch Rd","City":"Rancho Cucamonga","State":"CA","Zip":"91730"},{"Location":"SUSHI AREA","Address":"9319 Foothill Blvd E","City":"Rancho Cucamonga","State":"CA","Zip":"91730"},{"Location":"SUSHIMARTINI","Address":"8153 Aspen Ave","City":"Rancho Cucamonga","State":"CA","Zip":"91730"},{"Location":"SWEET AFHAIR","Address":"10078 Arrow Rte A","City":"Rancho Cucamonga","State":"CA","Zip":"91730"},{"Location":"TATUM  TREZZA","Address":"10165 Foothill Blvd 6","City":"Rancho Cucamonga","State":"CA","Zip":"91730"},{"Location":"TD AMERITRADE #05037","Address":"11010 Foothill Blvd 110","City":"Rancho Cucamonga","State":"CA","Zip":"91730"},{"Location":"TEAM FALKEN TIRE","Address":"8656 Haven Ave","City":"Rancho Cucamonga","State":"CA","Zip":"91730"},{"Location":"THAI VEGAN CUISINE","Address":"9819 Foothill Blvd F","City":"Rancho Cucamonga","State":"CA","Zip":"91730"},{"Location":"THE FACTORY CORPORATION","Address":"9340 Santa Anita Ave 107","City":"Rancho Cucamonga","State":"CA","Zip":"91730"},{"Location":"THE LAZY DOG","Address":"11560 4th St","City":"Rancho Cucamonga","State":"CA","Zip":"91730"},{"Location":"THE OLD SPAGHETTI FACTORY","Address":"11896 Foothill Blvd","City":"Rancho Cucamonga","State":"CA","Zip":"91730"},{"Location":"THE SUPREME PLATE LLC","Address":"9849 Foothill Blvd K","City":"Rancho Cucamonga","State":"CA","Zip":"91730"},{"Location":"THE WINE TAILOR","Address":"8916 Foothill Blvd K3","City":"Rancho Cucamonga","State":"CA","Zip":"91730"},{"Location":"TIM BURNS CPA","Address":"9620 Center Ave 160","City":"Rancho Cucamonga","State":"CA","Zip":"91730"},{"Location":"TINT CITY WINDOW TINT","Address":"10340 Foothill Blvd","City":"Rancho Cucamonga","State":"CA","Zip":"91730"},{"Location":"TRL SYSTEMS","Address":"9531 Milliken Ave","City":"Rancho Cucamonga","State":"CA","Zip":"91730"},{"Location":"TROPICAL FOOD EXPRESS","Address":"9625 Foothill Blvd","City":"Rancho Cucamonga","State":"CA","Zip":"91730"},{"Location":"TRUE SLEEP","Address":"9645 Arrow Rte G","City":"Rancho Cucamonga","State":"CA","Zip":"91730"},{"Location":"UNIVERSAL SERVALENCE SYSTEMS","Address":"11172 Elm Ave","City":"Rancho Cucamonga","State":"CA","Zip":"91730"},{"Location":"UNIVERSAL TECHNICAL INSTITUTE","Address":"9494 Haven Ave","City":"Rancho Cucamonga","State":"CA","Zip":"91730"},{"Location":"US BANK","Address":"11343 Baseline Rd","City":"Rancho Cucamonga","State":"CA","Zip":"91730"},{"Location":"US LEGAL SUPPORT INC","Address":"9680 Haven Ave 140","City":"Rancho Cucamonga","State":"CA","Zip":"91730"},{"Location":"VANGUARD TOOL MANUFACTURING","Address":"8388 Utica Ave","City":"Rancho Cucamonga","State":"CA","Zip":"91730"},{"Location":"VATSAL HAREN MODY","Address":"10832 Laurel St 101","City":"Rancho Cucamonga","State":"CA","Zip":"91730"},{"Location":"VEHICLE ACCESSORY CENTER","Address":"10863 Jersey Blvd 101","City":"Rancho Cucamonga","State":"CA","Zip":"91730"},{"Location":"VICTORY PAINT AND HOT RODS","Address":"9029 Rochester Ave","City":"Rancho Cucamonga","State":"CA","Zip":"91730"},{"Location":"VOCATIONAL IMPROVEMENT PROG","Address":"8675 Boston Pl","City":"Rancho Cucamonga","State":"CA","Zip":"91730"},{"Location":"WABISABI TEPPAN GRILL","Address":"11837 Foothill Blvd B","City":"Rancho Cucamonga","State":"CA","Zip":"91730"},{"Location":"WELCH MANAGEMENT CORP","Address":"7945 Haven Ave 100","City":"Rancho Cucamonga","State":"CA","Zip":"91730"},{"Location":"WELLS FARGO DEALER SERVICES","Address":"10750 4th St 200","City":"Rancho Cucamonga","State":"CA","Zip":"91730"},{"Location":"WEST COAST FIRE","Address":"11010 Arrow Rte #108","City":"Rancho Cucamonga","State":"CA","Zip":"91730"},{"Location":"WEST VALLEY COURT SVC","Address":"8303 Haven Ave 3fl","City":"Rancho Cucamonga","State":"CA","Zip":"91730"},{"Location":"WOOD SMITH HENNING AND BERMAN","Address":"9333 Fairway View Pl 200","City":"Rancho Cucamonga","State":"CA","Zip":"91730"},{"Location":"XKLUSIVE WIRELESS","Address":"10076 Arrow Rte","City":"Rancho Cucamonga","State":"CA","Zip":"91730"},{"Location":"YATAI EXPRESS","Address":"8976 Foothill Blvd B6","City":"Rancho Cucamonga","State":"CA","Zip":"91730"},{"Location":"YOUNGS ACUPUNCTURE CLINI","Address":"8865 Foothill Blvd 105","City":"Rancho Cucamonga","State":"CA","Zip":"91730"},{"Location":"ZENDEJAS  MEXICAN GRILL","Address":"8106 Milliken Ave","City":"Rancho Cucamonga","State":"CA","Zip":"91730"},{"Location":"LUCILLE'S SMOKEHOUSE BBQ","Address":"12624  N Main St","City":"Rancho Cucanmoica","State":"CA","Zip":"91730"},{"Location":"AAHSOME SALON","Address":"8063 Archibald Ave","City":"Rch Cucamonga","State":"CA","Zip":"91730"},{"Location":"AMERICAN MADE","Address":"8727 Utica Ave","City":"Rch Cucamonga","State":"CA","Zip":"91730"},{"Location":"ANITA DR KUNDI","Address":"8221 Rochester Ave 120","City":"Rch Cucamonga","State":"CA","Zip":"91730"},{"Location":"CJM LIGHTING SERVICE","Address":"8619 Red Oak St","City":"Rch Cucamonga","State":"CA","Zip":"91730"},{"Location":"DALMAN & KLODT BUILDERS","Address":"11824 Bunker Hill Dr","City":"Rch Cucamonga","State":"CA","Zip":"91730"},{"Location":"FINAL TOUCH","Address":"8623 Baseline Rd","City":"Rch Cucamonga","State":"CA","Zip":"91730"},{"Location":"GARCIA","Address":"8880 Foothill Blvd 104","City":"Rch Cucamonga","State":"CA","Zip":"91730"},{"Location":"MEXUS PRODUCE","Address":"8707 Utica Ave","City":"Rch Cucamonga","State":"CA","Zip":"91730"},{"Location":"MOBILITY TOYS","Address":"8400 Maple Pl 104","City":"Rch Cucamonga","State":"CA","Zip":"91730"},{"Location":"OPTION ONE PLUMBING","Address":"10722 Arrow Rte 602","City":"Rch Cucamonga","State":"CA","Zip":"91730"},{"Location":"PHO BAMBU","Address":"9668 Milliken Ave 101","City":"Rch Cucamonga","State":"CA","Zip":"91730"},{"Location":"RAMONA TIRE INC","Address":"11836 Foothill Blvd","City":"Rch Cucamonga","State":"CA","Zip":"91730"},{"Location":"SMILENEEDS DENTAL","Address":"9113 Foothill Blvd 210","City":"Rch Cucamonga","State":"CA","Zip":"91730"},{"Location":"SUSHI ONE SPOT","Address":"10990 Foothill Blvd","City":"Rch Cucamonga","State":"CA","Zip":"91730"},{"Location":"TEAM PHYSICAL THERAPY","Address":"10590 Town Center Dr 100","City":"Rch Cucamonga","State":"CA","Zip":"91730"},{"Location":"VALERIO TROPICAL BAKE SH","Address":"11098 Foothill Blvd","City":"Rch Cucamonga","State":"CA","Zip":"91730"},{"Location":"YOLANDA SIRRI","Address":"9255 Baseline Rd L","City":"Rch Cucamonga","State":"CA","Zip":"91730"}]