[{"Location":"EL PERICO RANCHERO","Address":"9770 19th St","City":"Alta Loma","State":"CA","Zip":"91737"},{"Location":"HK S BAR AND GRILL","Address":"9740 19th St","City":"Alta Loma","State":"CA","Zip":"91737"},{"Location":"BARBONIS PIZZA","Address":"9792 19th St","City":"Rancho Cucamonga","State":"CA","Zip":"91737"},{"Location":"CERTIFIED PROPERTIES","Address":"10335 Ring Ave","City":"Rancho Cucamonga","State":"CA","Zip":"91737"},{"Location":"CHAFFEY COMMUNITY COLLEGE","Address":"5885 Haven Ave","City":"Rancho Cucamonga","State":"CA","Zip":"91737"},{"Location":"HANDELS HOMEMADE ICE CRM","Address":"6403 Haven Ave","City":"Rancho Cucamonga","State":"CA","Zip":"91737"},{"Location":"HAVEN FAMILY DENTISTRY","Address":"6331 Haven Ave 17","City":"Rancho Cucamonga","State":"CA","Zip":"91737"},{"Location":"LILY NAILS AND SPA","Address":"6403 Haven Ave 101","City":"Rancho Cucamonga","State":"CA","Zip":"91737"},{"Location":"SEPT TAP ROOM & EATERY","Address":"6321 Haven Ave","City":"Rancho Cucamonga","State":"CA","Zip":"91737"}]