[{"Location":"LOS TOROS MEAT MARKET","Address":"5225 Peck Rd","City":"City Industry","State":"CA","Zip":"91732"},{"Location":"BIG BOYS BARBERSHOP","Address":"11835 Valley Blvd","City":"El Monte","State":"CA","Zip":"91732"},{"Location":"BRIDGES INC","Address":"11927 Elliott Ave","City":"El Monte","State":"CA","Zip":"91732"},{"Location":"CHICOS BARBER SHOP","Address":"12266 Ramona Blvd","City":"El Monte","State":"CA","Zip":"91732"},{"Location":"CHINA GREAT BUFFET","Address":"11860 Valley Blvd","City":"El Monte","State":"CA","Zip":"91732"},{"Location":"CLINICA DENTAL MEXICO","Address":"2335a Durfee Ave","City":"El Monte","State":"CA","Zip":"91732"},{"Location":"COGSWELL GARDEN HOME","Address":"5405 Cogswell Rd","City":"El Monte","State":"CA","Zip":"91732"},{"Location":"DEYSI SOUND","Address":"4715 Peck Rd","City":"El Monte","State":"CA","Zip":"91732"},{"Location":"DIANA RESTAURANT","Address":"2905 Durfee Ave","City":"El Monte","State":"CA","Zip":"91732"},{"Location":"DIXIE DIESEL","Address":"3150 Maxson Rd","City":"El Monte","State":"CA","Zip":"91732"},{"Location":"EL BUKANAS DEL MONTE","Address":"11583 Lower Azusa Rd","City":"El Monte","State":"CA","Zip":"91732"},{"Location":"EL DORADO TIRE SERV","Address":"12366 Ramona Blvd 1","City":"El Monte","State":"CA","Zip":"91732"},{"Location":"EL GALLITO MARKET","Address":"12242 Valley Blvd","City":"El Monte","State":"CA","Zip":"91732"},{"Location":"EL MONTE COMMUNITY CREDIT UNIO","Address":"11718 Ramona Blvd","City":"El Monte","State":"CA","Zip":"91732"},{"Location":"EL PATIO BAR AND GRILL","Address":"11672 Ramona Blvd","City":"El Monte","State":"CA","Zip":"91732"},{"Location":"EL PESCADOR EL MONTE","Address":"11740 Valley Blvd","City":"El Monte","State":"CA","Zip":"91732"},{"Location":"EL TENAMPA","Address":"2645 Mountain View Rd","City":"El Monte","State":"CA","Zip":"91732"},{"Location":"GOLDEN  KEY MORTGAGE &","Address":"4200 Peck Rd A","City":"El Monte","State":"CA","Zip":"91732"},{"Location":"HAVANA CLUB","Address":"3831 Peck Rd","City":"El Monte","State":"CA","Zip":"91732"},{"Location":"JC WIRELESS","Address":"3818 Peck Rd B","City":"El Monte","State":"CA","Zip":"91732"},{"Location":"JOLLY JUG","Address":"4264 Peck Rd","City":"El Monte","State":"CA","Zip":"91732"},{"Location":"JORGE ENRIQUEZ LLC","Address":"2637 Durfee Ave","City":"El Monte","State":"CA","Zip":"91732"},{"Location":"LAMPPOST PIZZA","Address":"4368 Peck Rd","City":"El Monte","State":"CA","Zip":"91732"},{"Location":"LATINO SPORTS BAR","Address":"2938 1%2F2 Durfee Ave","City":"El Monte","State":"CA","Zip":"91732"},{"Location":"LAURAS INCOME TAX SERVICE","Address":"4309 Peck Rd 3","City":"El Monte","State":"CA","Zip":"91732"},{"Location":"MARISCOS LA QUEBRADA","Address":"12148 Valley Blvd","City":"El Monte","State":"CA","Zip":"91732"},{"Location":"MOOSE LODGE 1097","Address":"4249 Peck Rd","City":"El Monte","State":"CA","Zip":"91732"},{"Location":"MR CUTTS BARBER SHOP","Address":"2802 Mountain View Rd","City":"El Monte","State":"CA","Zip":"91732"},{"Location":"NACHO BARBER & BEAUTY","Address":"4705 Peck Rd","City":"El Monte","State":"CA","Zip":"91732"},{"Location":"PRIMOS TICKET","Address":"11706 Ramona Blvd 100","City":"El Monte","State":"CA","Zip":"91732"},{"Location":"RAMIREZ CHEVRON CIRCLE K","Address":"12004 Ramona Blvd","City":"El Monte","State":"CA","Zip":"91732"},{"Location":"SUPER FIVE BARBER SHOP","Address":"11534 Garvey Ave","City":"El Monte","State":"CA","Zip":"91732"},{"Location":"TOP OF THE LINE BARBERS","Address":"2319 Durfee Ave B","City":"El Monte","State":"CA","Zip":"91732"},{"Location":"TRIPLEE MACHINERY MOVING","Address":"3301 Gilman Rd","City":"El Monte","State":"CA","Zip":"91732"},{"Location":"UNIVERSAL AUTO BODY AND PAINT","Address":"2523 Durfee Ave","City":"El Monte","State":"CA","Zip":"91732"}]