[{"Location":"A&M TOBACCO","Address":"10627 Garvey Ave","City":"El Monte","State":"CA","Zip":"91733"},{"Location":"AJISEN USA INC","Address":"2428 Storier Ave","City":"El Monte","State":"CA","Zip":"91733"},{"Location":"BUBBLE BATH","Address":"10320 Garvey Ave","City":"El Monte","State":"CA","Zip":"91733"},{"Location":"EL CANEY MARKET","Address":"9869 E Gavey","City":"El Monte","State":"CA","Zip":"91733"},{"Location":"EMERGENCY PET CLINIC OF SAN","Address":"3254 Santa Anita Ave","City":"El Monte","State":"CA","Zip":"91733"},{"Location":"ET AUTO SALES","Address":"10409 Garvey Ave","City":"El Monte","State":"CA","Zip":"91733"},{"Location":"GREATER ELMONTE  HOSPITA","Address":"1701 Santa Anita Ave","City":"El Monte","State":"CA","Zip":"91733"},{"Location":"LA CASITA SALVADORENA","Address":"10928 Garvey Ave","City":"El Monte","State":"CA","Zip":"91733"},{"Location":"LATINO AUTO SALE","Address":"9934 Garvey Ave","City":"El Monte","State":"CA","Zip":"91733"},{"Location":"LOS MAGUEYES","Address":"2352 Mountain View Rd","City":"El Monte","State":"CA","Zip":"91733"},{"Location":"MEXI-SUB","Address":"10138 Garvey Ave H","City":"El Monte","State":"CA","Zip":"91733"},{"Location":"MULTI SERVICES","Address":"10304 Garvey Ave","City":"El Monte","State":"CA","Zip":"91733"},{"Location":"ONE STOP CORNER MARKET","Address":"10756 Garvey Ave","City":"El Monte","State":"CA","Zip":"91733"},{"Location":"SANTIAGOS CORP","Address":"9846a Garvey Ave","City":"El Monte","State":"CA","Zip":"91733"},{"Location":"THE BARBER SHOP CLUB","Address":"1648 Tyler Avenue","City":"El Monte","State":"CA","Zip":"91733"},{"Location":"VALPARAISO MOTORS","Address":"11203 Garvey Ave","City":"El Monte","State":"CA","Zip":"91733"},{"Location":"WINGSTOP 775","Address":"11335 Thienes Ave 1","City":"El Monte","State":"CA","Zip":"91733"},{"Location":"MARISCAL PAINTING","Address":"9220 Klingerman St","City":"S El Monte","State":"CA","Zip":"91733"},{"Location":"TASTY CHOICE","Address":"1724 Durfee Ave","City":"S El Monte","State":"CA","Zip":"91733"},{"Location":"TENERIOS AUTO PAINT AND","Address":"10901 Fawcett Ave","City":"S El Monte","State":"CA","Zip":"91733"},{"Location":"AMERICAN MEDICAL RESPONSE SEM","Address":"9528 Rush St J","City":"South El Monte","State":"CA","Zip":"91733"},{"Location":"BALI CONSTRUCTION","Address":"9852 Joe Vargas Way","City":"South El Monte","State":"CA","Zip":"91733"},{"Location":"BIRRIERIA TLAQUEPAQUE","Address":"10904 Rush St","City":"South El Monte","State":"CA","Zip":"91733"},{"Location":"CICY OF SOUTH ELMONTE","Address":"1530 Central Ave","City":"South El Monte","State":"CA","Zip":"91733"},{"Location":"CITY OF SOUTH ELMONTE SENIOR","Address":"1556 Central Ave","City":"South El Monte","State":"CA","Zip":"91733"},{"Location":"COAST APPLINANCE PARTS","Address":"2606 Lee Ave","City":"South El Monte","State":"CA","Zip":"91733"},{"Location":"COAST MACHINERY MOVERS","Address":"2431 Chico Ave","City":"South El Monte","State":"CA","Zip":"91733"},{"Location":"DAVITA #673 GTR EL MONTE","Address":"1938 Tyler Ave","City":"South El Monte","State":"CA","Zip":"91733"},{"Location":"DURFEE DENTAL OFFICE","Address":"2001 Santa Anita Ave 204","City":"South El Monte","State":"CA","Zip":"91733"},{"Location":"ENVIRO  PUMPS","Address":"1919 Santa Anita Ave","City":"South El Monte","State":"CA","Zip":"91733"},{"Location":"ERINIES CARBURETORS INC","Address":"10903 Fawcett Ave","City":"South El Monte","State":"CA","Zip":"91733"},{"Location":"FORBES KTV BAR & RESTAURANT","Address":"1536 Peck Rd","City":"South El Monte","State":"CA","Zip":"91733"},{"Location":"G&G CORP","Address":"1603 Durfee Ave","City":"South El Monte","State":"CA","Zip":"91733"},{"Location":"GOLDEN CUE BILLIARDS","Address":"1953 Durfee Ave","City":"South El Monte","State":"CA","Zip":"91733"},{"Location":"GR BABCOCK COMPANY","Address":"2325 Merced Ave","City":"South El Monte","State":"CA","Zip":"91733"},{"Location":"HORIZON PLASTERING INC","Address":"1933 Central Ave","City":"South El Monte","State":"CA","Zip":"91733"},{"Location":"I TENNIS","Address":"1201 Potrero Ave","City":"South El Monte","State":"CA","Zip":"91733"},{"Location":"INDUSTRIAL PIPE AND STEEL","Address":"9936 Rush St","City":"South El Monte","State":"CA","Zip":"91733"},{"Location":"JENCO PLATING","Address":"9536 Rush St","City":"South El Monte","State":"CA","Zip":"91733"},{"Location":"L A TOOLS","Address":"1929 Durfee Ave","City":"South El Monte","State":"CA","Zip":"91733"},{"Location":"LA COUNTY FIRESTATION #90","Address":"10115 Rush St","City":"South El Monte","State":"CA","Zip":"91733"},{"Location":"LEES PET SHOP","Address":"9611 Garvey Ave 103","City":"South El Monte","State":"CA","Zip":"91733"},{"Location":"LEGION MANUFACTURING","Address":"2112 Santa Anita Ave","City":"South El Monte","State":"CA","Zip":"91733"},{"Location":"MAGS PREMIER ATHLETICS INC","Address":"1736 Potrero Ave","City":"South El Monte","State":"CA","Zip":"91733"},{"Location":"MARITZA  GOMEZ","Address":"2500 Chico Ave","City":"South El Monte","State":"CA","Zip":"91733"},{"Location":"MASTER METAL WORKS","Address":"1805 Potrero Ave","City":"South El Monte","State":"CA","Zip":"91733"},{"Location":"MERCARDITO DEL PUEBLO","Address":"9566 Garvey Ave","City":"South El Monte","State":"CA","Zip":"91733"},{"Location":"MTB IMPORTS","Address":"9535 Rush St B","City":"South El Monte","State":"CA","Zip":"91733"},{"Location":"OPTELMATIC INC","Address":"11221 Thienes Ave","City":"South El Monte","State":"CA","Zip":"91733"},{"Location":"PLACECRAFT BOATS","Address":"10825 Fawcett Ave","City":"South El Monte","State":"CA","Zip":"91733"},{"Location":"SAN ISIDRO MEXICAN REST","Address":"2327 Rosemead Blvd","City":"South El Monte","State":"CA","Zip":"91733"},{"Location":"SOL DE MEXICO","Address":"1612 Santa Anita Ave","City":"South El Monte","State":"CA","Zip":"91733"},{"Location":"T MOBILE 4235100082","Address":"10171 Rush St","City":"South El Monte","State":"CA","Zip":"91733"},{"Location":"TEAMSTERS LOCAL 986","Address":"1198 Durfee Ave","City":"South El Monte","State":"CA","Zip":"91733"},{"Location":"THE BALDEN RANCH CO INC","Address":"2501 Rosemead Blvd","City":"South El Monte","State":"CA","Zip":"91733"},{"Location":"TODAY AUCTIONEERS","Address":"9422 Rush St","City":"South El Monte","State":"CA","Zip":"91733"},{"Location":"TRIPLE BE PLAYS","Address":"831 Rosemead Blvd","City":"South El Monte","State":"CA","Zip":"91733"},{"Location":"VACCO INDUSTRIES","Address":"10350 Vacco St","City":"South El Monte","State":"CA","Zip":"91733"},{"Location":"VACCO INDUSTRIES 2","Address":"10333 Vacco St","City":"South El Monte","State":"CA","Zip":"91733"},{"Location":"WHITTIER TINT SHOP","Address":"11521 Farndon St","City":"South El Monte","State":"CA","Zip":"91733"}]