[{"Location":"360 AUTOWORKS","Address":"10134 Valley Blvd","City":"El Monte","State":"CA","Zip":"91731"},{"Location":"ABBA PRODUCTIONS INC","Address":"3014 Peck Rd","City":"El Monte","State":"CA","Zip":"91731"},{"Location":"AEROTEK","Address":"9300 Flair Dr 300","City":"El Monte","State":"CA","Zip":"91731"},{"Location":"AIM CONSULTING SERVICES","Address":"11401 Valley Blvd 201","City":"El Monte","State":"CA","Zip":"91731"},{"Location":"AIR DREAMS MATRESS","Address":"3266 Rosemead Blvd","City":"El Monte","State":"CA","Zip":"91731"},{"Location":"AMERICAN MEDICAL RESPONSE EM","Address":"10018 Lower Azusa Rd E","City":"El Monte","State":"CA","Zip":"91731"},{"Location":"ANNIA'S KITCHEN","Address":"4233 Santa Anita Ave 12","City":"El Monte","State":"CA","Zip":"91731"},{"Location":"BABY BROS PIZZA AND WINGS","Address":"11007 Lower Azusa Rd","City":"El Monte","State":"CA","Zip":"91731"},{"Location":"BABY BROS PIZZA CO.","Address":"11007 Lower Azusa Rd C","City":"El Monte","State":"CA","Zip":"91731"},{"Location":"BABY FACE RESTAURANT","Address":"10602 Lower Azusa Rd","City":"El Monte","State":"CA","Zip":"91731"},{"Location":"BANGKIT USA","Address":"10511 Valley Blvd","City":"El Monte","State":"CA","Zip":"91731"},{"Location":"CATHAY BANK","Address":"9650 Flair Dr","City":"El Monte","State":"CA","Zip":"91731"},{"Location":"CHARMING CHINA","Address":"11100 Valley Blvd","City":"El Monte","State":"CA","Zip":"91731"},{"Location":"CITY OF ELMONTE","Address":"3990 Arden Dr","City":"El Monte","State":"CA","Zip":"91731"},{"Location":"DALEVIEW MOBILE ESTATES","Address":"4800 Daleview Ave","City":"El Monte","State":"CA","Zip":"91731"},{"Location":"DENNYS EL MONTE","Address":"3540 N Tech Rd","City":"El Monte","State":"CA","Zip":"91731"},{"Location":"EL HUARACHE RESTAURANT","Address":"10956 Valley Mall","City":"El Monte","State":"CA","Zip":"91731"},{"Location":"EL JACALITO","Address":"10221 Valley Blvd","City":"El Monte","State":"CA","Zip":"91731"},{"Location":"EL MONTE AIRPORT","Address":"4233 Santa Anita Ave","City":"El Monte","State":"CA","Zip":"91731"},{"Location":"EL MONTE CONVALESCENT HOSPITAL","Address":"4096 Easy St","City":"El Monte","State":"CA","Zip":"91731"},{"Location":"EL MONTE TOWER%2CFAA","Address":"4500 Riverview Ave","City":"El Monte","State":"CA","Zip":"91731"},{"Location":"EL PARAISO BAR","Address":"10474 Valley Blvd","City":"El Monte","State":"CA","Zip":"91731"},{"Location":"EL SALVADORENO REST.","Address":"3130 Peck Rd","City":"El Monte","State":"CA","Zip":"91731"},{"Location":"EL SOMBRERO","Address":"3550 Santa Anita Ave","City":"El Monte","State":"CA","Zip":"91731"},{"Location":"FENGLING MUSICAI INSTRUM","Address":"10423 Valley Blvd G","City":"El Monte","State":"CA","Zip":"91731"},{"Location":"FRANK ALEX DANCE FOLKLOR","Address":"11037 Valley Blvd","City":"El Monte","State":"CA","Zip":"91731"},{"Location":"GOODYS","Address":"11357 Valley Blvd","City":"El Monte","State":"CA","Zip":"91731"},{"Location":"ICHIBAN BUFFET AND GRILL","Address":"3608 Peck Rd","City":"El Monte","State":"CA","Zip":"91731"},{"Location":"IGNACIO SPORT BAR","Address":"10631 Valley Mall","City":"El Monte","State":"CA","Zip":"91731"},{"Location":"JOSE R PILPA MD INC","Address":"10302 Lower Azusa Rd","City":"El Monte","State":"CA","Zip":"91731"},{"Location":"KINGS TIRE & WHEEL","Address":"4356 Baldwin Ave","City":"El Monte","State":"CA","Zip":"91731"},{"Location":"KNIGHTS OF COLUMBUS","Address":"11331 Stewart St","City":"El Monte","State":"CA","Zip":"91731"},{"Location":"KOREAN HOUSE BBQ","Address":"10632 Lower Azusa Rd","City":"El Monte","State":"CA","Zip":"91731"},{"Location":"LABORERS PSWROC","Address":"4399 Santa Anita Ave 204","City":"El Monte","State":"CA","Zip":"91731"},{"Location":"LIBERTY INDUSTRIES","Address":"10754 Lower Azusa Rd Azuza","City":"El Monte","State":"CA","Zip":"91731"},{"Location":"LOLLICUP","Address":"10512 Azusa","City":"El Monte","State":"CA","Zip":"91731"},{"Location":"LONGO LEXUS","Address":"3530 Peck Rd","City":"El Monte","State":"CA","Zip":"91731"},{"Location":"LOS AMIGOS BARBER SHOP 2","Address":"10476 Valley Blvd 5","City":"El Monte","State":"CA","Zip":"91731"},{"Location":"NELSEN HONDA","Address":"3464 Peck Rd","City":"El Monte","State":"CA","Zip":"91731"},{"Location":"NIJJAR REALTY","Address":"4900 Santa Anita Ave 2f","City":"El Monte","State":"CA","Zip":"91731"},{"Location":"OMAR PEREZ MEDICAL CORPS","Address":"10728 Ramona Blvd","City":"El Monte","State":"CA","Zip":"91731"},{"Location":"PACIFIC  IPA","Address":"9700 Flair Dr","City":"El Monte","State":"CA","Zip":"91731"},{"Location":"PIZZA OVEN","Address":"9060 Telstar Ave 201","City":"El Monte","State":"CA","Zip":"91731"},{"Location":"R 2 RESTAURANT","Address":"10404 - 06 Valley Blvd","City":"El Monte","State":"CA","Zip":"91731"},{"Location":"ROSS NISSAN AND EL MONTE","Address":"3428 Peck Rd","City":"El Monte","State":"CA","Zip":"91731"},{"Location":"ROSS NISSAN EL MONTE","Address":"11565 Federal Dr","City":"El Monte","State":"CA","Zip":"91731"},{"Location":"SILVER DOLLAR SALOON","Address":"10729 Lower Azusa Rd","City":"El Monte","State":"CA","Zip":"91731"},{"Location":"SOTTYS BREAK AND ALIGMENT","Address":"4540 Baldwin Ave","City":"El Monte","State":"CA","Zip":"91731"},{"Location":"TACO LA BUFADORA 1","Address":"10990 Lower Azusa Rd","City":"El Monte","State":"CA","Zip":"91731"},{"Location":"TACOS Y MARISCOS JALISCO","Address":"3850 Baldwin Ave","City":"El Monte","State":"CA","Zip":"91731"},{"Location":"THE CHOPSTICKS SEAFOOD","Address":"10990 10990  #azusa","City":"El Monte","State":"CA","Zip":"91731"},{"Location":"THRIFTY ICE CREAM","Address":"9200 Telstar Ave","City":"El Monte","State":"CA","Zip":"91731"},{"Location":"TRACYS NAILS","Address":"3580 Santa Anita Ave","City":"El Monte","State":"CA","Zip":"91731"},{"Location":"TRINITY YOUTH","Address":"11057 Basye St","City":"El Monte","State":"CA","Zip":"91731"},{"Location":"TRITON MANAGEMENT SERVICES LLC","Address":"11430 Valley Blvd","City":"El Monte","State":"CA","Zip":"91731"},{"Location":"U.S. HEALTH WORKS","Address":"9350 Flair Dr 102","City":"El Monte","State":"CA","Zip":"91731"},{"Location":"VFW POST","Address":"11126 Ramona Blvd","City":"El Monte","State":"CA","Zip":"91731"},{"Location":"WECHAT CAFE","Address":"10131 Valley Blvd","City":"El Monte","State":"CA","Zip":"91731"},{"Location":"WELLS FARGO","Address":"3440 Flair Dr 5","City":"El Monte","State":"CA","Zip":"91731"},{"Location":"WELLS FARGO BANK","Address":"3440 Flair Dr 2","City":"El Monte","State":"CA","Zip":"91731"},{"Location":"WELLS FARGO BANK","Address":"3440 Flair Dr","City":"El Monte","State":"CA","Zip":"91731"},{"Location":"WELLS FARGO BANK","Address":"9000 Flair Dr","City":"El Monte","State":"CA","Zip":"91731"},{"Location":"WIN HYUNDAI","Address":"3462 Peck Rd","City":"El Monte","State":"CA","Zip":"91731"},{"Location":"WOLFPACK FITNESS","Address":"3551 Peck Rd","City":"El Monte","State":"CA","Zip":"91731"},{"Location":"DAVITA #1518 ROSEMEAD SPRINGS","Address":"3213 Rosemead Blvd","City":"Los Angeles","State":"CA","Zip":"91731"}]