[{"Location":"24 HOUR FITNESS #58","Address":"1600 S Azusa Ave","City":"City Of Industry","State":"CA","Zip":"91748"},{"Location":"333 FINANCIAL GROUP LLC","Address":"17700 Castleton St 538","City":"City Of Industry","State":"CA","Zip":"91748"},{"Location":"BENIHANA #1032 CITY OF INDUST","Address":"17877 Gale Ave","City":"City Of Industry","State":"CA","Zip":"91748"},{"Location":"BJ'S RESTAURANT #504","Address":"17615 Castleton St","City":"City Of Industry","State":"CA","Zip":"91748"},{"Location":"BROOK FURNITURE RENTAL","Address":"18960 San Jose Ave","City":"City Of Industry","State":"CA","Zip":"91748"},{"Location":"BUFFALO WILD WINGS #0333","Address":"1576 S Azusa Ave","City":"City Of Industry","State":"CA","Zip":"91748"},{"Location":"CHILI'S #0026","Address":"17588 Castleton St","City":"City Of Industry","State":"CA","Zip":"91748"},{"Location":"CHUBBY CHEEK CAFE","Address":"18025 Gale Ave","City":"City Of Industry","State":"CA","Zip":"91748"},{"Location":"DFS","Address":"1140 Coiner Ct","City":"City Of Industry","State":"CA","Zip":"91748"},{"Location":"DIAMOND HONDA","Address":"17525 Gale Ave","City":"City Of Industry","State":"CA","Zip":"91748"},{"Location":"FEDEX","Address":"16720 Chestnut St E","City":"City Of Industry","State":"CA","Zip":"91748"},{"Location":"FERGUSON%2FLINCOLN PRODUCTS 2467","Address":"18825 San Jose Ave","City":"City Of Industry","State":"CA","Zip":"91748"},{"Location":"FOCUS HAIR STUDIO","Address":"1600 S Azusa Ave 533","City":"City Of Industry","State":"CA","Zip":"91748"},{"Location":"FRISCO'S CAR HOPS","Address":"18065 Gale Ave","City":"City Of Industry","State":"CA","Zip":"91748"},{"Location":"FTH GROUP","Address":"19501 E Walnut Dr S","City":"City Of Industry","State":"CA","Zip":"91748"},{"Location":"GS BATES ENTERPRISES INC","Address":"18200 Gale Ave","City":"City Of Industry","State":"CA","Zip":"91748"},{"Location":"HONG","Address":"18205 Gale Ave","City":"City Of Industry","State":"CA","Zip":"91748"},{"Location":"HOT TOPIC","Address":"18305 San Jose Ave","City":"City Of Industry","State":"CA","Zip":"91748"},{"Location":"HOT TOPIC TORRIDHQ","Address":"18501 San Jose Ave","City":"City Of Industry","State":"CA","Zip":"91748"},{"Location":"I SWEET RESTAURANT","Address":"17501 Colima Rd","City":"City Of Industry","State":"CA","Zip":"91748"},{"Location":"JCS #0728","Address":"1420 S Azusa Ave","City":"City Of Industry","State":"CA","Zip":"91748"},{"Location":"JMD","Address":"18645 Gale Ave 212","City":"City Of Industry","State":"CA","Zip":"91748"},{"Location":"LOS ANGELES COUNTY TREASURER","Address":"16610 Chestnut St","City":"City Of Industry","State":"CA","Zip":"91748"},{"Location":"LUXY 101","Address":"18043 Gale Ave","City":"City Of Industry","State":"CA","Zip":"91748"},{"Location":"MACARONI GRILL #1302","Address":"17603 Colima Rd","City":"City Of Industry","State":"CA","Zip":"91748"},{"Location":"MACY'S WEST 488 BR","Address":"400 Puente Mall","City":"City Of Industry","State":"CA","Zip":"91748"},{"Location":"MALIBU SPEED ZONE","Address":"17871 Castleton St","City":"City Of Industry","State":"CA","Zip":"91748"},{"Location":"MARIE CALLENDERS","Address":"1560 Albatross Rd","City":"City Of Industry","State":"CA","Zip":"91748"},{"Location":"MAZDA PUENTE HILLS II","Address":"17723 Gale Ave","City":"City Of Industry","State":"CA","Zip":"91748"},{"Location":"MJ CAFE & TEA HOUSE","Address":"17521 Colima Rd","City":"City Of Industry","State":"CA","Zip":"91748"},{"Location":"NIKO NIKO CITY OF INDUST","Address":"17501 Colima Rd","City":"City Of Industry","State":"CA","Zip":"91748"},{"Location":"OUTBACK STEAKHOUSE #0572","Address":"1418 S Azusa Ave","City":"City Of Industry","State":"CA","Zip":"91748"},{"Location":"PAIR THAI","Address":"18219 Gale Ave B","City":"City Of Industry","State":"CA","Zip":"91748"},{"Location":"PHO HA VIETNAMESE RESTAR","Address":"18220 Gale Ave","City":"City Of Industry","State":"CA","Zip":"91748"},{"Location":"PUENTE HILLS CHEVROLET","Address":"17300 Gale Ave","City":"City Of Industry","State":"CA","Zip":"91748"},{"Location":"PUENTE HILLS FIAT","Address":"17405 Gale Ave","City":"City Of Industry","State":"CA","Zip":"91748"},{"Location":"PUETE HILLS SUBARU","Address":"17801 Gale Ave","City":"City Of Industry","State":"CA","Zip":"91748"},{"Location":"PUNTE HILLS HYUNDAI","Address":"17621 Gale Ave","City":"City Of Industry","State":"CA","Zip":"91748"},{"Location":"RAMEN YUKINOYA","Address":"18230 Gale Ave","City":"City Of Industry","State":"CA","Zip":"91748"},{"Location":"RDD FREIGHT INTERNATIONA","Address":"18311 Railroad St","City":"City Of Industry","State":"CA","Zip":"91748"},{"Location":"RED LOBSTER #0513","Address":"17601 Castleton St","City":"City Of Industry","State":"CA","Zip":"91748"},{"Location":"REEF CO LLC","Address":"1015 S Azusa Ave","City":"City Of Industry","State":"CA","Zip":"91748"},{"Location":"ROUND ONE ENTERTAINMENT","Address":"1600 S Azusa Ave 285","City":"City Of Industry","State":"CA","Zip":"91748"},{"Location":"SIMPLI SUSHI","Address":"18222 Gale Ave A","City":"City Of Industry","State":"CA","Zip":"91748"},{"Location":"SPA RENAISSANCE","Address":"17980 Castleton St","City":"City Of Industry","State":"CA","Zip":"91748"},{"Location":"TARGET","Address":"17751 Colima Rd","City":"City Of Industry","State":"CA","Zip":"91748"},{"Location":"TEA WAR INC","Address":"18558 Gale Ave 186","City":"City Of Industry","State":"CA","Zip":"91748"},{"Location":"TELEDYNE","Address":"16830 Chestnut St","City":"City Of Industry","State":"CA","Zip":"91748"},{"Location":"TGI FRIDAY'S #1921","Address":"17427 Colima Rd","City":"City Of Industry","State":"CA","Zip":"91748"},{"Location":"URBAN FURNITURE","Address":"825 Ajax Ave","City":"City Of Industry","State":"CA","Zip":"91748"},{"Location":"VALLEY VISTA SERVICE","Address":"17445 Railroad St","City":"City Of Industry","State":"CA","Zip":"91748"},{"Location":"WHITE  WAVE  FOODS LLC","Address":"18275 Arenth Ave","City":"City Of Industry","State":"CA","Zip":"91748"},{"Location":"WHITEWAVE FOODS","Address":"18275 Arenth Ave","City":"City Of Industry","State":"CA","Zip":"91748"},{"Location":"WHITEWAVE FOODS FOUR","Address":"18275 Arenth Ave 4","City":"City Of Industry","State":"CA","Zip":"91748"},{"Location":"WHITEWAVE FOODS THREE","Address":"18275 Arenth Ave","City":"City Of Industry","State":"CA","Zip":"91748"},{"Location":"WING STOP #528","Address":"17501 Colima Rd G1","City":"City Of Industry","State":"CA","Zip":"91748"},{"Location":"XOX PUB RESTAURANT","Address":"18250 Gale Ave","City":"City Of Industry","State":"CA","Zip":"91748"},{"Location":"ZHENG FUSIONS","Address":"17515 Colima Rd","City":"City Of Industry","State":"CA","Zip":"91748"},{"Location":"ARIEL RESTURANT AND LOUNGE","Address":"19055 Colima Rd","City":"Rowland Heights","State":"CA","Zip":"91748"},{"Location":"BANANA BAY RESTAURANT","Address":"18230 Colima Rd","City":"Rowland Heights","State":"CA","Zip":"91748"},{"Location":"BOBA BEAR","Address":"18414 Colima Rd R","City":"Rowland Heights","State":"CA","Zip":"91748"},{"Location":"CA MEXICAN RESTURANT","Address":"19744 Colima Rd","City":"Rowland Heights","State":"CA","Zip":"91748"},{"Location":"CHIOU INVESTMENTS","Address":"18457 Colima Rd","City":"Rowland Heights","State":"CA","Zip":"91748"},{"Location":"CLEARMIST VAPE","Address":"1729 Fullerton Rd B","City":"Rowland Heights","State":"CA","Zip":"91748"},{"Location":"CONGRESSMAN ED ROYCE","Address":"1380 Fullerton Rd 205","City":"Rowland Heights","State":"CA","Zip":"91748"},{"Location":"CRAB FACTORY","Address":"18331 Colima Rd","City":"Rowland Heights","State":"CA","Zip":"91748"},{"Location":"CROCKETT PACKAGING","Address":"19570 San Jose Ave","City":"Rowland Heights","State":"CA","Zip":"91748"},{"Location":"CT NAILS","Address":"17534 Colima Rd","City":"Rowland Heights","State":"CA","Zip":"91748"},{"Location":"CTM ESTABLISHMENT LLC","Address":"18222 Aguiro St","City":"Rowland Heights","State":"CA","Zip":"91748"},{"Location":"EGYPT SMOKE","Address":"15253 Colima Rd  #203","City":"Rowland Heights","State":"CA","Zip":"91748"},{"Location":"ERA BILLARDS CLUB","Address":"18888 Labin Court B208","City":"Rowland Heights","State":"CA","Zip":"91748"},{"Location":"FANTASTINET","Address":"18888 Labin Court 203b","City":"Rowland Heights","State":"CA","Zip":"91748"},{"Location":"GOOD PARTNER HEALTH CARE INC","Address":"18897 Colima Rd C","City":"Rowland Heights","State":"CA","Zip":"91748"},{"Location":"HAPPY HARBOR","Address":"1015 Nogales St # 126","City":"Rowland Heights","State":"CA","Zip":"91748"},{"Location":"IN TECH","Address":"19042 San Jose Ave","City":"Rowland Heights","State":"CA","Zip":"91748"},{"Location":"JAE JONG KIM DDS","Address":"17476 Colima Rd","City":"Rowland Heights","State":"CA","Zip":"91748"},{"Location":"JANG GA NAE","Address":"1722 Desire Ave 108","City":"Rowland Heights","State":"CA","Zip":"91748"},{"Location":"JANG MO JIP RESTAURANT","Address":"18755 Colima Rd","City":"Rowland Heights","State":"CA","Zip":"91748"},{"Location":"JINJU KOREAN RESTAURANT","Address":"1700 Batson Ave","City":"Rowland Heights","State":"CA","Zip":"91748"},{"Location":"JOHNTIN MEDICAL GROUP","Address":"1722 Desire Ave 202","City":"Rowland Heights","State":"CA","Zip":"91748"},{"Location":"KANG AND LEE DENTAL GROU","Address":"18431 Colima Rd","City":"Rowland Heights","State":"CA","Zip":"91748"},{"Location":"KICKIN CRAB","Address":"1390 Fullerton Rd","City":"Rowland Heights","State":"CA","Zip":"91748"},{"Location":"KOREAN GARDEN","Address":"19718 Colima Rd","City":"Rowland Heights","State":"CA","Zip":"91748"},{"Location":"LHMMAI LLC","Address":"738 Phillips","City":"Rowland Heights","State":"CA","Zip":"91748"},{"Location":"LOVE LETTER","Address":"18333 Colima Rd B","City":"Rowland Heights","State":"CA","Zip":"91748"},{"Location":"MNT SEAFOOD VILLAGE","Address":"18904 Gale Ave","City":"Rowland Heights","State":"CA","Zip":"91748"},{"Location":"MOUNTAIN VIEW TIRE ROLAND","Address":"18837 Colima Rd","City":"Rowland Heights","State":"CA","Zip":"91748"},{"Location":"NIKO NIKO ROWLAND HEIGHTS","Address":"19705 Colima Rd","City":"Rowland Heights","State":"CA","Zip":"91748"},{"Location":"NO JOKE CUSTOM","Address":"19144 San Jose Ave","City":"Rowland Heights","State":"CA","Zip":"91748"},{"Location":"ONG GA NAE KOREAN BBQ","Address":"19745 Colima Rd 4","City":"Rowland Heights","State":"CA","Zip":"91748"},{"Location":"PHO COSOMME  LLC","Address":"1380 Fullerton Rd 104","City":"Rowland Heights","State":"CA","Zip":"91748"},{"Location":"PRINCE RH PROPERTY LLC","Address":"18170 Colima Rd","City":"Rowland Heights","State":"CA","Zip":"91748"},{"Location":"RED DOOR HOTPOT INC","Address":"81414 Colimard Rd","City":"Rowland Heights","State":"CA","Zip":"91748"},{"Location":"ROWLAND HEIGHT REGENT GA","Address":"18406 Colima Rd H","City":"Rowland Heights","State":"CA","Zip":"91748"},{"Location":"SCOTTRADE P04","Address":"17472 Colima Rd","City":"Rowland Heights","State":"CA","Zip":"91748"},{"Location":"SENIOR COOP CENTER","Address":"18931 Colima Rd B","City":"Rowland Heights","State":"CA","Zip":"91748"},{"Location":"STUBBYS","Address":"19259 Colima Rd","City":"Rowland Heights","State":"CA","Zip":"91748"},{"Location":"THE BOILING CRAB","Address":"18902 Gale Ave A","City":"Rowland Heights","State":"CA","Zip":"91748"},{"Location":"TOP ICHI ICHI","Address":"18184 Colima Rd","City":"Rowland Heights","State":"CA","Zip":"91748"},{"Location":"UNITED DOCTORS MED GRP","Address":"19036 Colima Rd","City":"Rowland Heights","State":"CA","Zip":"91748"},{"Location":"UNTEL WIRELESS","Address":"18472 Colima Rd 105","City":"Rowland Heights","State":"CA","Zip":"91748"},{"Location":"WALLACE BLACKWELDER DDS","Address":"19728 Colima Rd","City":"Rowland Heights","State":"CA","Zip":"91748"},{"Location":"WELLS FARGO HOME MORTGAGE","Address":"17800 Castle Pon St 450","City":"Rowland Heights","State":"CA","Zip":"91748"},{"Location":"EL FRIJOLITO","Address":"2414 Fullerton Rd","City":"Rowland Hghts","State":"CA","Zip":"91748"},{"Location":"JAVA SPICE","Address":"1743 Fullerton Rd","City":"Rowland Hghts","State":"CA","Zip":"91748"},{"Location":"LONG CHOA SHOU RESTAURAN","Address":"18438 Colima Rd 106","City":"Rowland Hghts","State":"CA","Zip":"91748"},{"Location":"TASTY STATION","Address":"19035 Colima Rd","City":"Rowland Hghts","State":"CA","Zip":"91748"}]