[{"Location":"101 SUSHI","Address":"15347 Gale Ave","City":"City Of Industry","State":"CA","Zip":"91745"},{"Location":"2020 AUTOBODY TECH","Address":"1300 Bixby Dr","City":"City Of Industry","State":"CA","Zip":"91745"},{"Location":"ACTION SALES INC","Address":"17025 Gale Ave","City":"City Of Industry","State":"CA","Zip":"91745"},{"Location":"AGEO DIACK INCORP","Address":"1250 S Johnson Dr","City":"City Of Industry","State":"CA","Zip":"91745"},{"Location":"EL PUEBLO BURGER","Address":"16025 Gale Ave A1","City":"City Of Industry","State":"CA","Zip":"91745"},{"Location":"FLEETWOOD FIBRE PACKAGING","Address":"15250 Don Julian Rd","City":"City Of Industry","State":"CA","Zip":"91745"},{"Location":"FRIENDS BARBERSHOP 10","Address":"15925 Gale Ave","City":"City Of Industry","State":"CA","Zip":"91745"},{"Location":"GALE AVENUE HOSPITALITY","Address":"15333 Gale Ave","City":"City Of Industry","State":"CA","Zip":"91745"},{"Location":"GENERAL SEALANTS INC","Address":"300 Turnbull Canyon Rd","City":"City Of Industry","State":"CA","Zip":"91745"},{"Location":"HACIENDA HEIGHTS","Address":"15239 Gale Ave","City":"City Of Industry","State":"CA","Zip":"91745"},{"Location":"INDUSTRY CONVALESCENT HOSPITAL","Address":"555 El Encanto Rd","City":"City Of Industry","State":"CA","Zip":"91745"},{"Location":"LUBE PIT STOP","Address":"980 Turnbull Canyon Rd","City":"City Of Industry","State":"CA","Zip":"91745"},{"Location":"MACY'S WEST","Address":"15541 Gale Ave","City":"City Of Industry","State":"CA","Zip":"91745"},{"Location":"MARGARITAS MEXICAN FOOD","Address":"15257 Gale Ave","City":"City Of Industry","State":"CA","Zip":"91745"},{"Location":"MAX'S OF MANILA","Address":"6000 Auzusa Ave","City":"City Of Industry","State":"CA","Zip":"91745"},{"Location":"PERFORMANCE FOOD SERVICE","Address":"16639 Gale Ave","City":"City Of Industry","State":"CA","Zip":"91745"},{"Location":"PUENTE HILLS TOYOTA","Address":"17070 Gale Ave","City":"City Of Industry","State":"CA","Zip":"91745"},{"Location":"PUENTE HILLS VW","Address":"17110 Gale Ave","City":"City Of Industry","State":"CA","Zip":"91745"},{"Location":"ROBINSONS MAY DISTRIBUTION CTE","Address":"15615 Gale Ave","City":"City Of Industry","State":"CA","Zip":"91745"},{"Location":"SING TAO NEWSPAPER","Address":"17059 Green Dr","City":"City Of Industry","State":"CA","Zip":"91745"},{"Location":"SKILLED NURSING PHARMACY","Address":"16666 E Johnson Dr","City":"City Of Industry","State":"CA","Zip":"91745"},{"Location":"SWAT FAME INC","Address":"16425 Gale Ave","City":"City Of Industry","State":"CA","Zip":"91745"},{"Location":"TASTE OF MEXICO","Address":"15223 Gale Ave","City":"City Of Industry","State":"CA","Zip":"91745"},{"Location":"THE INDUSTRY BAR","Address":"15323 Gale Ave","City":"City Of Industry","State":"CA","Zip":"91745"},{"Location":"WALMART","Address":"17150 Gale Ave","City":"City Of Industry","State":"CA","Zip":"91745"},{"Location":"AMERICAN MEDICAL RESPONSE","Address":"3032 S Hacienda Blvd","City":"Hacienda Heights","State":"CA","Zip":"91745"},{"Location":"BOULEVARD BARBER SHOP","Address":"2031 S Hacienda Blvd","City":"Hacienda Heights","State":"CA","Zip":"91745"},{"Location":"CAL BANK & TRUST","Address":"1687 S Azusa Ave","City":"Hacienda Heights","State":"CA","Zip":"91745"},{"Location":"CARE MORE MEDICAL ENTERPRISES","Address":"3180 Colima Rd","City":"Hacienda Heights","State":"CA","Zip":"91745"},{"Location":"CASA JIMENEZ MEXICAN","Address":"15844 Gale Ave","City":"Hacienda Heights","State":"CA","Zip":"91745"},{"Location":"CITY LIGHTS COCKTAIL","Address":"1257 S Hacienda Blvd","City":"Hacienda Heights","State":"CA","Zip":"91745"},{"Location":"CMG CAPITAL MEDIA GROUP","Address":"14569 Teton Dr","City":"Hacienda Heights","State":"CA","Zip":"91745"},{"Location":"EL BUKANAS EXPRESS","Address":"15914 Gale Ave A","City":"Hacienda Heights","State":"CA","Zip":"91745"},{"Location":"EMPIRE TABBACO","Address":"15914 Halliburton Rd","City":"Hacienda Heights","State":"CA","Zip":"91745"},{"Location":"FRIENDS BARBERSHOP 8","Address":"1123 S Hacienda Blvd","City":"Hacienda Heights","State":"CA","Zip":"91745"},{"Location":"GOLDEN OX BURGERS","Address":"1104 S Hacienda Blvd","City":"Hacienda Heights","State":"CA","Zip":"91745"},{"Location":"H AND R BLOCK","Address":"17142 Colima Rd C","City":"Hacienda Heights","State":"CA","Zip":"91745"},{"Location":"HACIENDA HEIGHTS CHEVRON","Address":"1160 7th Ave","City":"Hacienda Heights","State":"CA","Zip":"91745"},{"Location":"HACIENDA HEIGHTS FAMILY DENTIS","Address":"2545 S Hacienda Blvd","City":"Hacienda Heights","State":"CA","Zip":"91745"},{"Location":"HACIENDA LIQUOR","Address":"2047 S Hacienda Blvd","City":"Hacienda Heights","State":"CA","Zip":"91745"},{"Location":"HAWK II ENVIRONMENTAL","Address":"2321 S Hacienda Blvd A","City":"Hacienda Heights","State":"CA","Zip":"91745"},{"Location":"HELEN EVANS HOME","Address":"15125 Gale Ave","City":"Hacienda Heights","State":"CA","Zip":"91745"},{"Location":"JOY SPA SAUNA","Address":"2020 S Hacienda Blvd H","City":"Hacienda Heights","State":"CA","Zip":"91745"},{"Location":"LAM","Address":"1629 S Azusa Ave","City":"Hacienda Heights","State":"CA","Zip":"91745"},{"Location":"MONTANOS CASA DE TACOS","Address":"2015 S Hacienda Blvd","City":"Hacienda Heights","State":"CA","Zip":"91745"},{"Location":"MOONLIGHT TAVERN","Address":"15825 Gale Ave","City":"Hacienda Heights","State":"CA","Zip":"91745"},{"Location":"NORTHERN CAFE","Address":"1637 S Azusa Ave","City":"Hacienda Heights","State":"CA","Zip":"91745"},{"Location":"ROYAL PARK APARTMENTS","Address":"14814 Gale Ave","City":"Hacienda Heights","State":"CA","Zip":"91745"},{"Location":"SUNSET ROOMS","Address":"2029 S Hacienda Blvd","City":"Hacienda Heights","State":"CA","Zip":"91745"},{"Location":"SUSHI LAND","Address":"2129 S Hacienda Blvd","City":"Hacienda Heights","State":"CA","Zip":"91745"},{"Location":"TASTE OF MEXI CO.","Address":"15223 E Gale Ave","City":"Hacienda Heights","State":"CA","Zip":"91745"},{"Location":"TEMAKI SUSHI","Address":"3107 Colima Rd","City":"Hacienda Heights","State":"CA","Zip":"91745"},{"Location":"THAIS SPECIALTY 2","Address":"1675 S Azusa Ave","City":"Hacienda Heights","State":"CA","Zip":"91745"},{"Location":"TICHA'S FOREVER SALON","Address":"15808 Gale Ave","City":"Hacienda Heights","State":"CA","Zip":"91745"},{"Location":"TOKYO LOBBY","Address":"1683 S Azusa Ave","City":"Hacienda Heights","State":"CA","Zip":"91745"},{"Location":"WALA WALA RESTAURANT","Address":"2130 S Hacienda Blvd","City":"Hacienda Heights","State":"CA","Zip":"91745"},{"Location":"WAYNE'S WESTERN BBQ","Address":"3142 Colima Rd","City":"Hacienda Heights","State":"CA","Zip":"91745"},{"Location":"NEW CORNER JAMBOREE","Address":"17188 Colima Rd D","City":"Hacienda Hts","State":"CA","Zip":"91745"},{"Location":"THE OLD BOYS TEA HOUSE","Address":"1655 S Azusa Ave G","City":"Hacienda Hts","State":"CA","Zip":"91745"},{"Location":"WALBROOK HOUSE","Address":"15122 Walbrook Dr","City":"Hacienda Hts","State":"CA","Zip":"91745"}]