[{"Location":"24 HOUR FITNESS #910","Address":"1357 Glendora Mtn Rd","City":"Glendora","State":"CA","Zip":"91741"},{"Location":"A SPLENDOR SENIOR LIVING","Address":"452 Sellers St","City":"Glendora","State":"CA","Zip":"91741"},{"Location":"ADULT HEART CLINIC INC","Address":"412 W Carroll Ave 204","City":"Glendora","State":"CA","Zip":"91741"},{"Location":"AMERICAN SLEEP CENTERS","Address":"415 W Carroll Ave","City":"Glendora","State":"CA","Zip":"91741"},{"Location":"AMMAR DENTISTRY","Address":"175 N Pennsylvania Ave 5","City":"Glendora","State":"CA","Zip":"91741"},{"Location":"BOLEY","Address":"1330 E Foothill Blvd","City":"Glendora","State":"CA","Zip":"91741"},{"Location":"BRIAN WOOD AUTOMOTIVE","Address":"200 W Foothill Blvd","City":"Glendora","State":"CA","Zip":"91741"},{"Location":"BROKER SOLUTIONS INC","Address":"126 N Glendora Ave","City":"Glendora","State":"CA","Zip":"91741"},{"Location":"CDS CORP","Address":"2001 E Financial Way 200","City":"Glendora","State":"CA","Zip":"91741"},{"Location":"CITRUS COMMUNITY COLLEGE","Address":"1000 W Foothill Blvd","City":"Glendora","State":"CA","Zip":"91741"},{"Location":"COMPLETE METAL DESIGN","Address":"154 S Valencia Ave","City":"Glendora","State":"CA","Zip":"91741"},{"Location":"DA AVERE","Address":"158 N Glendora Ave De","City":"Glendora","State":"CA","Zip":"91741"},{"Location":"DOMENICOS JR","Address":"146 N Glendora Ave 103","City":"Glendora","State":"CA","Zip":"91741"},{"Location":"FIORINA","Address":"124 N Glendora Ave","City":"Glendora","State":"CA","Zip":"91741"},{"Location":"FIRE STATION 86","Address":"520 Amelia Ave","City":"Glendora","State":"CA","Zip":"91741"},{"Location":"FMC 71830000","Address":"120 W Foothill Blvd","City":"Glendora","State":"CA","Zip":"91741"},{"Location":"FOOTHILL BARBERS","Address":"345 W Foothill Blvd C","City":"Glendora","State":"CA","Zip":"91741"},{"Location":"FORTUNE     ESCROW","Address":"302 W Foothill Blvd","City":"Glendora","State":"CA","Zip":"91741"},{"Location":"GLENDORA VILLAGE GOLDSMITH","Address":"158 N Glendora Ave B","City":"Glendora","State":"CA","Zip":"91741"},{"Location":"GRAVES AND CO","Address":"180 N Pennsylvania Avr","City":"Glendora","State":"CA","Zip":"91741"},{"Location":"HACIENDA MOBILE HOME PARK","Address":"208 S Barranca Ave","City":"Glendora","State":"CA","Zip":"91741"},{"Location":"HART ENVIRONMENTAL","Address":"208 1%2F2 N Glendora Ave","City":"Glendora","State":"CA","Zip":"91741"},{"Location":"HEMATOLOGY ONCOLOGY SPECIALIST","Address":"412 W Carroll Ave 210","City":"Glendora","State":"CA","Zip":"91741"},{"Location":"JUICE IT UP","Address":"545 S Grand Ave","City":"Glendora","State":"CA","Zip":"91741"},{"Location":"K B ENGINEERING INC","Address":"540 S Pasadena Ave","City":"Glendora","State":"CA","Zip":"91741"},{"Location":"KANGS SUSHI","Address":"201 N Glendora Ave","City":"Glendora","State":"CA","Zip":"91741"},{"Location":"KARAS KORNER DELI","Address":"101 W Foothill Blvd","City":"Glendora","State":"CA","Zip":"91741"},{"Location":"LA FETRA SR. CENTER","Address":"333 E Foothill Blvd","City":"Glendora","State":"CA","Zip":"91741"},{"Location":"MARTINDALE COMMERCIAL REAL EST","Address":"216 N Glendora Ave 200","City":"Glendora","State":"CA","Zip":"91741"},{"Location":"MCCLURE INVESTMENT LLC","Address":"158 N Glendora Ave N","City":"Glendora","State":"CA","Zip":"91741"},{"Location":"PACIFIC WESTERN BANK","Address":"510 S Grand Ave","City":"Glendora","State":"CA","Zip":"91741"},{"Location":"PRIME LENDING","Address":"124 N Glendora Ave 101","City":"Glendora","State":"CA","Zip":"91741"},{"Location":"RAMIREZ INC.","Address":"358 W Mountain View Ave 7","City":"Glendora","State":"CA","Zip":"91741"},{"Location":"RIKAS EMPANADAS","Address":"150 S Grand Ave M","City":"Glendora","State":"CA","Zip":"91741"},{"Location":"ROBERT KEIJONEN","Address":"180 Penna Ave","City":"Glendora","State":"CA","Zip":"91741"},{"Location":"RONALD L DARDEN DDS","Address":"175 N Pennsylvania Ave 1","City":"Glendora","State":"CA","Zip":"91741"},{"Location":"RONYS TOBACCO","Address":"425 W Foothill Blvd A","City":"Glendora","State":"CA","Zip":"91741"},{"Location":"ROSE WENTZ STATE FARM","Address":"201 W Foothill Blvd","City":"Glendora","State":"CA","Zip":"91741"},{"Location":"SCULPTURE  NAILS","Address":"118 S Grand Ave","City":"Glendora","State":"CA","Zip":"91741"},{"Location":"THE SEW AND SEW","Address":"160 N Glendora Ave E","City":"Glendora","State":"CA","Zip":"91741"},{"Location":"TPTAG  LLC","Address":"180 N Glendora Ave","City":"Glendora","State":"CA","Zip":"91741"},{"Location":"US FOREST SERVICE - GLENDORA","Address":"110 N Wabash Ave","City":"Glendora","State":"CA","Zip":"91741"},{"Location":"OKAMOTO & PAWLEY ORTHODONTICS","Address":"175 N Pennsylivania Ave 6","City":"Glenora","State":"CA","Zip":"91741"}]