[{"Location":"ALVAREZ GLASMAN","Address":"13181 Crossroads Pkwy N 400","City":"City Of Industry","State":"CA","Zip":"91746"},{"Location":"AMERICAN STEEL MASTERS I","Address":"15050 Proctor Ave","City":"City Of Industry","State":"CA","Zip":"91746"},{"Location":"AMORINDO","Address":"15200 Valley Blvd","City":"City Of Industry","State":"CA","Zip":"91746"},{"Location":"ANNING JOHNSON CO","Address":"13250 Temple Ave","City":"City Of Industry","State":"CA","Zip":"91746"},{"Location":"BENTLEY PRINCE STREET","Address":"14641 Don Julian Rd","City":"City Of Industry","State":"CA","Zip":"91746"},{"Location":"CACIQUE INC","Address":"14940 Proctor Ave","City":"City Of Industry","State":"CA","Zip":"91746"},{"Location":"CALSTAR INSURANCE","Address":"15424 Valley Blvd","City":"City Of Industry","State":"CA","Zip":"91746"},{"Location":"CEMCO 1","Address":"263 N Covina Ln","City":"City Of Industry","State":"CA","Zip":"91746"},{"Location":"CLASSIC DISTRIBUTING","Address":"120 Puente Ave","City":"City Of Industry","State":"CA","Zip":"91746"},{"Location":"COCA-COLA REFRESHMENTS CITY OF","Address":"13255 Amar Rd","City":"City Of Industry","State":"CA","Zip":"91746"},{"Location":"CROSSROADS CAFE","Address":"13191 Crossroads Pkwy N 195","City":"City Of Industry","State":"CA","Zip":"91746"},{"Location":"DAL TILE","Address":"295 Willow Ave","City":"City Of Industry","State":"CA","Zip":"91746"},{"Location":"DAUM COMM. REAL ESTATE","Address":"13181 Crossroads Pkwy N","City":"City Of Industry","State":"CA","Zip":"91746"},{"Location":"DEL TERRA","Address":"13181 Crossroads Pkwy N 540","City":"City Of Industry","State":"CA","Zip":"91746"},{"Location":"EATONS ELECTRICAL CORP","Address":"13039 Crossroads Pkwy S","City":"City Of Industry","State":"CA","Zip":"91746"},{"Location":"EL TEPEYAC CAFE","Address":"13131 Crossroads Pkwy S","City":"City Of Industry","State":"CA","Zip":"91746"},{"Location":"ELTA COTORRO","Address":"15445 Valley Blvd","City":"City Of Industry","State":"CA","Zip":"91746"},{"Location":"EURO SERVICE","Address":"13453 Valley Blvd","City":"City Of Industry","State":"CA","Zip":"91746"},{"Location":"GOYA FOODS","Address":"14500 Proctor Ave","City":"City Of Industry","State":"CA","Zip":"91746"},{"Location":"HAL-SEN AUTO GLASS","Address":"13101 Valley Blvd","City":"City Of Industry","State":"CA","Zip":"91746"},{"Location":"INTERPRES CORP","Address":"13191 Crossroads Pkwy N 585","City":"City Of Industry","State":"CA","Zip":"91746"},{"Location":"JACMAR FOODSERVICE","Address":"300 Baldwin Park Blvd","City":"City Of Industry","State":"CA","Zip":"91746"},{"Location":"LACORR PACKAGING 2","Address":"13890 Nelson Ave","City":"City Of Industry","State":"CA","Zip":"91746"},{"Location":"LACORR PACKAGING LLC","Address":"13890 Nelson Ave","City":"City Of Industry","State":"CA","Zip":"91746"},{"Location":"LEE & ASSOCIATES INC","Address":"13181 Crossroads Pkwy N 300","City":"City Of Industry","State":"CA","Zip":"91746"},{"Location":"M G BUMPER FIXING","Address":"205 Puente Ave","City":"City Of Industry","State":"CA","Zip":"91746"},{"Location":"MAJESTIC REALTY COMPANY INC","Address":"13191 Crossroads Pkwy N Fl6","City":"City Of Industry","State":"CA","Zip":"91746"},{"Location":"METLIFE OF SOUTHERN CALIFORNIA","Address":"13191 Crossroads Pkwy N 305","City":"City Of Industry","State":"CA","Zip":"91746"},{"Location":"NEW AMERICAN FUND 1307","Address":"13191 Crossroads Pkwy N","City":"City Of Industry","State":"CA","Zip":"91746"},{"Location":"NEWMARK GRUBB KNIGHT FRANK","Address":"13191 Crossroads Pkwy N 555","City":"City Of Industry","State":"CA","Zip":"91746"},{"Location":"PATH FINDER","Address":"14120 Valley Blvd","City":"City Of Industry","State":"CA","Zip":"91746"},{"Location":"PHO HOA RESTAURANT","Address":"15401 Valley Blvd","City":"City Of Industry","State":"CA","Zip":"91746"},{"Location":"PIZZA HUT","Address":"15495 Valley Blvd","City":"City Of Industry","State":"CA","Zip":"91746"},{"Location":"PROLACTA BIOSCIENCE INC","Address":"757 Baldwin Park Blvd","City":"City Of Industry","State":"CA","Zip":"91746"},{"Location":"RJ TRUCK AND TRAILER","Address":"15034 Proctor Ave","City":"City Of Industry","State":"CA","Zip":"91746"},{"Location":"SANCHEZ LAW FIRM","Address":"13181 Crossroads Pkwy N 460","City":"City Of Industry","State":"CA","Zip":"91746"},{"Location":"SCC INVESTMENTS","Address":"15418 Valley Blvd","City":"City Of Industry","State":"CA","Zip":"91746"},{"Location":"SPEARMINT RHINO","Address":"15429 Valley Blvd","City":"City Of Industry","State":"CA","Zip":"91746"},{"Location":"WILLDAN ENGINEERING","Address":"13191 Crossroads Pkwy N 405","City":"City Of Industry","State":"CA","Zip":"91746"},{"Location":"ZENITH SPECIALTY BAG INC","Address":"810 Canal Pl","City":"City Of Industry","State":"CA","Zip":"91746"},{"Location":"ALLIED PAVING ENTERPRISE","Address":"15007 Salt Lake Ave","City":"La Puente","State":"CA","Zip":"91746"},{"Location":"BIG BOYS BARBERSHOP","Address":"13308 Valley Blvd","City":"La Puente","State":"CA","Zip":"91746"},{"Location":"BOBS BURGERS","Address":"14952 Valley Blvd","City":"La Puente","State":"CA","Zip":"91746"},{"Location":"BUCKS ARTS AND CRAFTS","Address":"151 S 9th Ave","City":"La Puente","State":"CA","Zip":"91746"},{"Location":"BURGER KING","Address":"14600 Valley Blvd","City":"La Puente","State":"CA","Zip":"91746"},{"Location":"CALIFORNIA BANK AND TRUST","Address":"13200 Cross Roads Parkway N135","City":"La Puente","State":"CA","Zip":"91746"},{"Location":"CAMINO REAL RESTAURANT","Address":"13756 Amar Rd","City":"La Puente","State":"CA","Zip":"91746"},{"Location":"CATHOLIC CHURCHES","Address":"13935 Temple Ave","City":"La Puente","State":"CA","Zip":"91746"},{"Location":"DUKES","Address":"14350 Valley Blvd","City":"La Puente","State":"CA","Zip":"91746"},{"Location":"ESTRADAS AUTO REPAIR","Address":"14214 Valley Blvd","City":"La Puente","State":"CA","Zip":"91746"},{"Location":"EXPRESS AUTO","Address":"14834 Valley Blvd A","City":"La Puente","State":"CA","Zip":"91746"},{"Location":"FRESH CUT BABRBER SHOP","Address":"15156 Valley Blvd","City":"La Puente","State":"CA","Zip":"91746"},{"Location":"HECTOR CONTRERAS INSURANCE","Address":"13928 Valley Blvd","City":"La Puente","State":"CA","Zip":"91746"},{"Location":"JOESPH APANTA DENTIST OFFICE","Address":"13757 Amar Rd","City":"La Puente","State":"CA","Zip":"91746"},{"Location":"KELLWOOD COMPANY","Address":"13071 Temple Ave","City":"La Puente","State":"CA","Zip":"91746"},{"Location":"KIRBY SERVICE CENTER","Address":"13048 Valley Blvd","City":"La Puente","State":"CA","Zip":"91746"},{"Location":"L AND T JAPANESE","Address":"13910 Valley Blvd A","City":"La Puente","State":"CA","Zip":"91746"},{"Location":"MARIA OJEDA","Address":"13200 Valley Blvd Steb","City":"La Puente","State":"CA","Zip":"91746"},{"Location":"MARISCOS MARTIN","Address":"13430 Valley Blvd","City":"La Puente","State":"CA","Zip":"91746"},{"Location":"NATE TIRES","Address":"13130 Valley Blvd","City":"La Puente","State":"CA","Zip":"91746"},{"Location":"QUALITY CUSTOM DISTRIBUTION","Address":"14317 Lomitas Ave","City":"La Puente","State":"CA","Zip":"91746"},{"Location":"RINCON TAURINO","Address":"13744 Amar Rd","City":"La Puente","State":"CA","Zip":"91746"},{"Location":"SANTOS BARBERSHOP","Address":"13200 Valley Blvd Suite","City":"La Puente","State":"CA","Zip":"91746"},{"Location":"SOUTHE CALIFORNIA ENVIRO","Address":"13912 Valley Blvd B","City":"La Puente","State":"CA","Zip":"91746"},{"Location":"SPORT BARBER SHOP","Address":"14434 Valley Blvd","City":"La Puente","State":"CA","Zip":"91746"},{"Location":"TAX SERVICE","Address":"13701 Amar Rd","City":"La Puente","State":"CA","Zip":"91746"},{"Location":"TRIPLE J INTERNATIONAL INC","Address":"14847 Proctor Ave 4","City":"La Puente","State":"CA","Zip":"91746"}]