[{"Location":"","Address":"1206 S Barranca Ave A","City":"Glendora","State":"CA","Zip":"91740"},{"Location":"3D MEDICAL DIAGNOSTICS","Address":"1124 E Route 66 1142","City":"Glendora","State":"CA","Zip":"91740"},{"Location":"ALBERTOS MEXICAN FOOD","Address":"841 W Route 66","City":"Glendora","State":"CA","Zip":"91740"},{"Location":"ANABA SUSHI","Address":"1758 S Grand Ave","City":"Glendora","State":"CA","Zip":"91740"},{"Location":"ARBOR GLEN CARE CENTER","Address":"1033 E Arrow Hwy","City":"Glendora","State":"CA","Zip":"91740"},{"Location":"ARBOR GLEN CARE CENTER - 2","Address":"1033 E Arrow Hwy","City":"Glendora","State":"CA","Zip":"91740"},{"Location":"AZUSA PACIFIC UNIVERSITY","Address":"750 W Route 66","City":"Glendora","State":"CA","Zip":"91740"},{"Location":"BLUE OCEAN DENTISTRY","Address":"408 W Baseline Rd","City":"Glendora","State":"CA","Zip":"91740"},{"Location":"CAR KINGDOM AUTO SALES","Address":"837 W Route 66","City":"Glendora","State":"CA","Zip":"91740"},{"Location":"CASH IN A FLASH","Address":"103 W Route 66 E","City":"Glendora","State":"CA","Zip":"91740"},{"Location":"CHEERS SPORTS BAR","Address":"129 E Arrow Hwy","City":"Glendora","State":"CA","Zip":"91740"},{"Location":"CHILI'S #1308","Address":"1371 E Gladstone St","City":"Glendora","State":"CA","Zip":"91740"},{"Location":"CITY OF GLENDORA COMMUNITY CTR","Address":"241 W Dawson Ave","City":"Glendora","State":"CA","Zip":"91740"},{"Location":"COSMOS BISTRO","Address":"1031 E Route 66","City":"Glendora","State":"CA","Zip":"91740"},{"Location":"DAVITA #5481 GLENDORA FOOTHILL","Address":"750 W Route 66 Q","City":"Glendora","State":"CA","Zip":"91740"},{"Location":"FALAK HOOKAH LOUNGE","Address":"757 E Arrow Hwy M","City":"Glendora","State":"CA","Zip":"91740"},{"Location":"FROZEN ROPES","Address":"2244 E Route 66","City":"Glendora","State":"CA","Zip":"91740"},{"Location":"GLEN OAKS GOLF AND LEARNING","Address":"200 W Dawson Ave","City":"Glendora","State":"CA","Zip":"91740"},{"Location":"GLENDORA COMMUNITY HOSPITAL","Address":"150 W Route 66","City":"Glendora","State":"CA","Zip":"91740"},{"Location":"GLENDORA CONTINENTAL","Address":"316 W Route 66","City":"Glendora","State":"CA","Zip":"91740"},{"Location":"GOLDEN DRAGON","Address":"1754 S Grand Ave","City":"Glendora","State":"CA","Zip":"91740"},{"Location":"GUNSLINGERS","Address":"1750 S Grand Ave","City":"Glendora","State":"CA","Zip":"91740"},{"Location":"HAPPY DENTAL PRACTICE","Address":"1770 S Barranca Ave","City":"Glendora","State":"CA","Zip":"91740"},{"Location":"HARLOW","Address":"1340 E Route 66 104","City":"Glendora","State":"CA","Zip":"91740"},{"Location":"HDJS INC","Address":"1836 E Route 66 F","City":"Glendora","State":"CA","Zip":"91740"},{"Location":"HEART FIT","Address":"821 E Route 66","City":"Glendora","State":"CA","Zip":"91740"},{"Location":"HILL IMAGING CENTER","Address":"130 W Route 66","City":"Glendora","State":"CA","Zip":"91740"},{"Location":"JERSEY MIKES SUBS","Address":"865 W Route 66 A","City":"Glendora","State":"CA","Zip":"91740"},{"Location":"KING'S GYM","Address":"917 E Route 66","City":"Glendora","State":"CA","Zip":"91740"},{"Location":"KOHL'S #595","Address":"1225 S Lone Hill Ave","City":"Glendora","State":"CA","Zip":"91740"},{"Location":"LA FITNESS #63","Address":"820 S Grand Ave","City":"Glendora","State":"CA","Zip":"91740"},{"Location":"LAUNDERLAND","Address":"328 E Route 66","City":"Glendora","State":"CA","Zip":"91740"},{"Location":"LE CLINIQUE","Address":"1385 E Gladstone St 200","City":"Glendora","State":"CA","Zip":"91740"},{"Location":"LEES NAIL SPA","Address":"832 S Grand Ave","City":"Glendora","State":"CA","Zip":"91740"},{"Location":"LIFELINK","Address":"626 W Route 66 G","City":"Glendora","State":"CA","Zip":"91740"},{"Location":"LONDON GASTRO  INC.","Address":"731 W Route 66","City":"Glendora","State":"CA","Zip":"91740"},{"Location":"LONE HILL COLLISION","Address":"1248 S Lone Hill Ave","City":"Glendora","State":"CA","Zip":"91740"},{"Location":"MINI COOPER EXPERTS","Address":"705 E Arrow Hwy C","City":"Glendora","State":"CA","Zip":"91740"},{"Location":"NEW FIT WEIGHTLOSS CLINIC","Address":"2028 E Route 66 102","City":"Glendora","State":"CA","Zip":"91740"},{"Location":"OSUNAS MEXICAN GRILL","Address":"1311 S Grand Ave 160","City":"Glendora","State":"CA","Zip":"91740"},{"Location":"OUR PLACE","Address":"240 E Route 66","City":"Glendora","State":"CA","Zip":"91740"},{"Location":"PEPPERTREE CAFE","Address":"1020 E Route 66","City":"Glendora","State":"CA","Zip":"91740"},{"Location":"PETRILLOS","Address":"750 W Route 66","City":"Glendora","State":"CA","Zip":"91740"},{"Location":"PFF BANK AND TRUST","Address":"801 S Grand Ave","City":"Glendora","State":"CA","Zip":"91740"},{"Location":"RAYDON CO","Address":"442 Fleetwood Pl B","City":"Glendora","State":"CA","Zip":"91740"},{"Location":"S&B FOODS","Address":"1200 E Route 66","City":"Glendora","State":"CA","Zip":"91740"},{"Location":"SAKOS AUTOMOTIVE","Address":"512 W Route 66","City":"Glendora","State":"CA","Zip":"91740"},{"Location":"SAMS CLUB MEMBERSHIP WAREHOUSE","Address":"1301 S Lone Hill Ave","City":"Glendora","State":"CA","Zip":"91740"},{"Location":"SCHOOL OF HOPE LEADERSHIP","Address":"1000 E Route 66 H","City":"Glendora","State":"CA","Zip":"91740"},{"Location":"SHEETMETAL WORKERS LOCAL UNION","Address":"2120 Auto Centre Dr","City":"Glendora","State":"CA","Zip":"91740"},{"Location":"SOUTHERNCALIFORNIAPUBLICPOWER","Address":"1160 Nicole Ct","City":"Glendora","State":"CA","Zip":"91740"},{"Location":"TEAMSTER LOCAL 848","Address":"731 E Arrow Hwy","City":"Glendora","State":"CA","Zip":"91740"},{"Location":"THAI DIAMOND BBQ","Address":"1832 E Rt 66","City":"Glendora","State":"CA","Zip":"91740"},{"Location":"THE GOLDEN SPUR","Address":"1223 E Route 66","City":"Glendora","State":"CA","Zip":"91740"},{"Location":"THE HOUSE OF TACOS &SANDWICHES","Address":"1004 E Route 66","City":"Glendora","State":"CA","Zip":"91740"},{"Location":"THE VAPORS","Address":"857 W Route 66","City":"Glendora","State":"CA","Zip":"91740"},{"Location":"TOYOTA OF GLENDORA","Address":"1949 Auto Cenre Dr","City":"Glendora","State":"CA","Zip":"91740"},{"Location":"UNITED CALIF DISCOUNT","Address":"1172 Nicole Ct","City":"Glendora","State":"CA","Zip":"91740"},{"Location":"VICTOR GRIECO TAX SERVICE","Address":"504 E Route 66 101","City":"Glendora","State":"CA","Zip":"91740"},{"Location":"WAL MART","Address":"1950 Auto Centre Dr","City":"Glendora","State":"CA","Zip":"91740"},{"Location":"WENDYS 8603","Address":"1325 S Lone Hill Ave","City":"Glendora","State":"CA","Zip":"91740"},{"Location":"WINGSTOP#386","Address":"1365 E Gladstone St 600","City":"Glendora","State":"CA","Zip":"91740"},{"Location":"WORLD GYM","Address":"1838 E Route 66","City":"Glendora","State":"CA","Zip":"91740"},{"Location":"ZPIZZA","Address":"1365 E Gladstone St 500","City":"Glendora","State":"CA","Zip":"91740"}]