[{"Location":"CITY OF INDUSTRY","Address":"15651 Stafford St","City":"City Of Industry","State":"CA","Zip":"91744"},{"Location":"CLAYTON INDUSTRIES","Address":"17477 Hurley St","City":"City Of Industry","State":"CA","Zip":"91744"},{"Location":"CNC ENGINEERING","Address":"255 N Hacienda Blvd","City":"City Of Industry","State":"CA","Zip":"91744"},{"Location":"DISCOVER ENTERTAINMENT","Address":"15619 E Valley Blvd","City":"City Of Industry","State":"CA","Zip":"91744"},{"Location":"FRESHPOINT","Address":"155 N Orange Ave","City":"City Of Industry","State":"CA","Zip":"91744"},{"Location":"GC LANDSCAPE INC","Address":"15824 Amar Rd","City":"City Of Industry","State":"CA","Zip":"91744"},{"Location":"GOODYEAR 8622","Address":"15610 Valley Blvd","City":"City Of Industry","State":"CA","Zip":"91744"},{"Location":"PACIFIC PALMS CONFERENCE RESOR","Address":"1 Industry Hills Pkwy","City":"City Of Industry","State":"CA","Zip":"91744"},{"Location":"PACIFIC PALMS RESTAURANT","Address":"1 Industry Hills Pkwy","City":"City Of Industry","State":"CA","Zip":"91744"},{"Location":"RED RIBBON BAKE SHOP","Address":"16125 E Valley Blvd","City":"City Of Industry","State":"CA","Zip":"91744"},{"Location":"TROY CSL LIGHTING INC","Address":"14508 Nelson Ave","City":"City Of Industry","State":"CA","Zip":"91744"},{"Location":"US HEALTHWORKS MEDICAL GROUP","Address":"17487 Hurley St","City":"City Of Industry","State":"CA","Zip":"91744"},{"Location":"AMAR DENTAL CENTER","Address":"119 N 1st St","City":"La Puente","State":"CA","Zip":"91744"},{"Location":"BARRON FUNDING GROUP","Address":"525 N Azusa Ave 101","City":"La Puente","State":"CA","Zip":"91744"},{"Location":"CASA JIMENEZ","Address":"120 N 1st St","City":"La Puente","State":"CA","Zip":"91744"},{"Location":"CLINICA MEDICA DEL SOL GROUP","Address":"1431 N Hacienda Blvd","City":"La Puente","State":"CA","Zip":"91744"},{"Location":"COVINA WEST APARTMENTS","Address":"15757 Francisquito Ave B1","City":"La Puente","State":"CA","Zip":"91744"},{"Location":"DHA TORTILLERIA INC","Address":"17251 E Valley Blvd","City":"La Puente","State":"CA","Zip":"91744"},{"Location":"DURANGO","Address":"15735 Amar Rd","City":"La Puente","State":"CA","Zip":"91744"},{"Location":"ED BUTTS FORD","Address":"1515 N Hacienda Blvd","City":"La Puente","State":"CA","Zip":"91744"},{"Location":"EL GUAPO BARBER SHOP","Address":"15413 Fairgrove Ave","City":"La Puente","State":"CA","Zip":"91744"},{"Location":"ENSENADA MARKET","Address":"17259 Valley Blvd","City":"La Puente","State":"CA","Zip":"91744"},{"Location":"FAMILY PROFESSIONAL HAIR","Address":"629 Glendora Ave","City":"La Puente","State":"CA","Zip":"91744"},{"Location":"FANCY NAILS","Address":"1387 N Hacienda Blvd","City":"La Puente","State":"CA","Zip":"91744"},{"Location":"FIRESTONE #012025","Address":"1021 N Hacienda Blvd","City":"La Puente","State":"CA","Zip":"91744"},{"Location":"G Q CUTS","Address":"121 South First Street","City":"La Puente","State":"CA","Zip":"91744"},{"Location":"G Q CUTS","Address":"121 S 1st St","City":"La Puente","State":"CA","Zip":"91744"},{"Location":"GOLDEN OX FAMILY RESTAURANT","Address":"877 N Hacienda Blvd","City":"La Puente","State":"CA","Zip":"91744"},{"Location":"J AND FORMAL WEAR","Address":"15817 Main St","City":"La Puente","State":"CA","Zip":"91744"},{"Location":"JAIME'S AUTO ELECTRIC","Address":"18559 E Valley Blvd","City":"La Puente","State":"CA","Zip":"91744"},{"Location":"JIMS BURGERS","Address":"501 S Azusa Way","City":"La Puente","State":"CA","Zip":"91744"},{"Location":"JOSE T TAVARES","Address":"762 Glendora Ave A","City":"La Puente","State":"CA","Zip":"91744"},{"Location":"JUARITOS BARBER SHOP","Address":"1437 N Hacienda Blvd","City":"La Puente","State":"CA","Zip":"91744"},{"Location":"KAY THREADING","Address":"1807 N Hacienda Blvd B","City":"La Puente","State":"CA","Zip":"91744"},{"Location":"KENNETH NGUYEN DDS","Address":"762 Glendora Ave","City":"La Puente","State":"CA","Zip":"91744"},{"Location":"KINGS BARBERSHOP PTSP","Address":"225 S Azusa Ave 103","City":"La Puente","State":"CA","Zip":"91744"},{"Location":"LA COZINA POBLANA","Address":"17247 12 E Valley Blvd","City":"La Puente","State":"CA","Zip":"91744"},{"Location":"LA LUPITA MARKET","Address":"913 N Sunset Ave","City":"La Puente","State":"CA","Zip":"91744"},{"Location":"LA LUPITA MEAT MARKET","Address":"913 Sunset Avenue","City":"La Puente","State":"CA","Zip":"91744"},{"Location":"LA PUENTE TIRE","Address":"18121 E Valley Blvd","City":"La Puente","State":"CA","Zip":"91744"},{"Location":"LAS PALMAS RESTAURANT","Address":"17237 E Valley Blvd","City":"La Puente","State":"CA","Zip":"91744"},{"Location":"LOUIE MAY C DDS","Address":"15955 Main St","City":"La Puente","State":"CA","Zip":"91744"},{"Location":"LP HAIR STUDIO","Address":"15715 Amar Rd","City":"La Puente","State":"CA","Zip":"91744"},{"Location":"MABEL UTZ","Address":"864 N Hacienda Blvd","City":"La Puente","State":"CA","Zip":"91744"},{"Location":"MARIA'S BARBER SHOP","Address":"16045 Amar Road","City":"La Puente","State":"CA","Zip":"91744"},{"Location":"MARISCOS BAJA MEX","Address":"15448 Amar Rd","City":"La Puente","State":"CA","Zip":"91744"},{"Location":"MENDOZA","Address":"15903 Main St","City":"La Puente","State":"CA","Zip":"91744"},{"Location":"MYRNAS BEAUTY SALON","Address":"15512 Amar Rd","City":"La Puente","State":"CA","Zip":"91744"},{"Location":"NUEVA IMAGEN Y MAS","Address":"1655 N Hacienda Blvd B","City":"La Puente","State":"CA","Zip":"91744"},{"Location":"PEDRO BARBER BEAUTY SALON","Address":"1120 N Hacienda Blvd","City":"La Puente","State":"CA","Zip":"91744"},{"Location":"PIZZA HUT #24834","Address":"1559 N Hacienda Blvd","City":"La Puente","State":"CA","Zip":"91744"},{"Location":"PJ BONIFACIO AUTO DESIG","Address":"655 Alderton Ave","City":"La Puente","State":"CA","Zip":"91744"},{"Location":"PLANET FITNESS LA PUENTE","Address":"1717 N Hacienda Blvd","City":"La Puente","State":"CA","Zip":"91744"},{"Location":"POMPEII PIZZA PARLOR","Address":"1425 Valinda Ave","City":"La Puente","State":"CA","Zip":"91744"},{"Location":"RESCUE PRO","Address":"16110 Old Valley Blvd","City":"La Puente","State":"CA","Zip":"91744"},{"Location":"RUBYS BEAURY SALON","Address":"818 N Hacienda Blvd","City":"La Puente","State":"CA","Zip":"91744"},{"Location":"S & S PERFORMANCE INC","Address":"1046 N Hacienda Blvd","City":"La Puente","State":"CA","Zip":"91744"},{"Location":"SATSUMA LANDSCAPE","Address":"214 N 1st St","City":"La Puente","State":"CA","Zip":"91744"},{"Location":"SOCAL PIZZA HUT- 30835","Address":"1251 N Hacienda Blvd","City":"La Puente","State":"CA","Zip":"91744"},{"Location":"TASTY CHOICE BURGERS","Address":"551 N Azusa Ave","City":"La Puente","State":"CA","Zip":"91744"},{"Location":"THE BIRRIERA LA SUPREMA","Address":"437 S Azusa Ave","City":"La Puente","State":"CA","Zip":"91744"},{"Location":"UNITED DENTAL","Address":"401 South Avusa Ave  #a","City":"La Puente","State":"CA","Zip":"91744"},{"Location":"VALINDA BARBER","Address":"1431 1%2F2 Valinda Ave","City":"La Puente","State":"CA","Zip":"91744"},{"Location":"VICTORY MANAGEMENT GROUP","Address":"1855 N Hacienda Blvd","City":"La Puente","State":"CA","Zip":"91744"},{"Location":"VILLA CARINO MEXICAN RES","Address":"1066 N Hacienda Blvd","City":"La Puente","State":"CA","Zip":"91744"},{"Location":"VIRGINIA AGUSTIN","Address":"525 N Azusa Ave 112","City":"La Puente","State":"CA","Zip":"91744"},{"Location":"WINGSTOP #465","Address":"1238 N Hacienda Blvd","City":"La Puente","State":"CA","Zip":"91744"}]