[{"Location":"24 HOUR FITNESS #893","Address":"12354 Limonite Ave","City":"Eastvale","State":"CA","Zip":"91752"},{"Location":"BR4 BBQ INC.","Address":"12569 Limonite Ave 330","City":"Eastvale","State":"CA","Zip":"91752"},{"Location":"BUFFALO WILD WINGS #3384","Address":"12411 Limonite Ave B650","City":"Eastvale","State":"CA","Zip":"91752"},{"Location":"JERSEY MIKES SUBS","Address":"12569 Limonite Ave 320","City":"Eastvale","State":"CA","Zip":"91752"},{"Location":"PHO VIET","Address":"12257 Limonite Ave A30","City":"Eastvale","State":"CA","Zip":"91752"},{"Location":"SCHNEIDER LOGISTICS","Address":"4250 Hamner Ave","City":"Eastvale","State":"CA","Zip":"91752"},{"Location":"TIOS MEXICAN RESTUARANT","Address":"12571 Limonite Ave 210","City":"Eastvale","State":"CA","Zip":"91752"},{"Location":"WINGSTOP #622","Address":"12552 Limonite Ave 110","City":"Eastvale","State":"CA","Zip":"91752"},{"Location":"OAKLEY","Address":"11296 Harrel St","City":"Jurupa Valley","State":"CA","Zip":"91752"},{"Location":"SOUTH BOUND EXPRESS","Address":"10551 Limonite Ave","City":"Jurupa Valley","State":"CA","Zip":"91752"},{"Location":"SWIFT TRANSPORTATION","Address":"3575 Wineville Rd","City":"Jurupa Valley","State":"CA","Zip":"91752"},{"Location":"7RANCOS TOWING","Address":"5920 Crown Dr","City":"Mira Loma","State":"CA","Zip":"91752"},{"Location":"ADESA  LA AUCTION","Address":"4450 Wineville Ave","City":"Mira Loma","State":"CA","Zip":"91752"},{"Location":"ADESA LA AUCTION","Address":"11625 Nino Way","City":"Mira Loma","State":"CA","Zip":"91752"},{"Location":"ADVANCED BUSINESS GRAPHICS","Address":"3810 Wabash Dr","City":"Mira Loma","State":"CA","Zip":"91752"},{"Location":"ADVANCED STERILIZATION PRODUCT","Address":"4325 Etiwanda Ave B","City":"Mira Loma","State":"CA","Zip":"91752"},{"Location":"AJM DELIVERY SERVICDE IN","Address":"3778 Milliken Ave","City":"Mira Loma","State":"CA","Zip":"91752"},{"Location":"ALBERTOS MEXICAN FOOD","Address":"6253 Pats Ranch Rd","City":"Mira Loma","State":"CA","Zip":"91752"},{"Location":"ANHEUSER-BUSCH","Address":"10980 Inland Ave","City":"Mira Loma","State":"CA","Zip":"91752"},{"Location":"APPLEBEE'S #2150033","Address":"12375 Limonite Ave","City":"Mira Loma","State":"CA","Zip":"91752"},{"Location":"BIG LEAGUE DREAMS","Address":"10550 Cantu Galleano Ranch Rd","City":"Mira Loma","State":"CA","Zip":"91752"},{"Location":"CARINO'S MIRA LOMA #1623","Address":"12447 Limonite Ave","City":"Mira Loma","State":"CA","Zip":"91752"},{"Location":"CPR CELL PHONE REPAIR","Address":"12571 Limonite Ave 250","City":"Mira Loma","State":"CA","Zip":"91752"},{"Location":"FAST LAP","Address":"3215 Corridor Dr","City":"Mira Loma","State":"CA","Zip":"91752"},{"Location":"FED EX FREIGHT","Address":"12100 Riverside Dr","City":"Mira Loma","State":"CA","Zip":"91752"},{"Location":"FERGUSON #0625","Address":"12455 Harvest Dr","City":"Mira Loma","State":"CA","Zip":"91752"},{"Location":"FITNESS 19","Address":"4692 Pats Ranch Road","City":"Mira Loma","State":"CA","Zip":"91752"},{"Location":"GALASSOS BAKERY","Address":"10820 San Sevaine Way","City":"Mira Loma","State":"CA","Zip":"91752"},{"Location":"GRANGER SUPPLY INCORPORATED","Address":"4700 Hamner Ave","City":"Mira Loma","State":"CA","Zip":"91752"},{"Location":"HOME DEPOT","Address":"11625 Venture Dr","City":"Mira Loma","State":"CA","Zip":"91752"},{"Location":"HOME DEPOT","Address":"11650 Venture Dr","City":"Mira Loma","State":"CA","Zip":"91752"},{"Location":"INDUSTRIAL CATERING INC","Address":"3815 Wabash Dr","City":"Mira Loma","State":"CA","Zip":"91752"},{"Location":"INLAND ZIP SUSHI","Address":"12257 Limonite Ave 800","City":"Mira Loma","State":"CA","Zip":"91752"},{"Location":"JOJOS ACQUISITION INC","Address":"6237 Pats Ranch Rd B","City":"Mira Loma","State":"CA","Zip":"91752"},{"Location":"K-SWISS%2C INC","Address":"3177 Space Ctr","City":"Mira Loma","State":"CA","Zip":"91752"},{"Location":"KMART","Address":"3100 Milliken Ave","City":"Mira Loma","State":"CA","Zip":"91752"},{"Location":"KOHL'S #1032","Address":"12315 Limonite Ave","City":"Mira Loma","State":"CA","Zip":"91752"},{"Location":"KRISTIE VO OPTOMETRY","Address":"6445 Pats Ranch Rd","City":"Mira Loma","State":"CA","Zip":"91752"},{"Location":"LUCKY KITCHEN CO","Address":"12257 Limonite Ave 820","City":"Mira Loma","State":"CA","Zip":"91752"},{"Location":"MARISCOS EL PARGO","Address":"5850 Etiwanda Ave 111","City":"Mira Loma","State":"CA","Zip":"91752"},{"Location":"MIRA LOMA LAUNDRY MAT","Address":"6716 Smith Ave","City":"Mira Loma","State":"CA","Zip":"91752"},{"Location":"MOUNTAIN  VIEW TIRE SERVICE","Address":"6080 Hamner Ave 105","City":"Mira Loma","State":"CA","Zip":"91752"},{"Location":"NESTLE USA","Address":"3450 Dulles Dr","City":"Mira Loma","State":"CA","Zip":"91752"},{"Location":"ON THE BORDER","Address":"12269 Limonite Ave","City":"Mira Loma","State":"CA","Zip":"91752"},{"Location":"PAN AMERICAN CERAMICS","Address":"3215 Corridor Dr","City":"Mira Loma","State":"CA","Zip":"91752"},{"Location":"PARADIGM LABEL","Address":"10258 Birtcher Dr","City":"Mira Loma","State":"CA","Zip":"91752"},{"Location":"PAVEMENT RECYCLING SYSTE","Address":"10240 San Sevaine Way","City":"Mira Loma","State":"CA","Zip":"91752"},{"Location":"PETCO","Address":"4345 Parkhurst St","City":"Mira Loma","State":"CA","Zip":"91752"},{"Location":"RED PERSIMMON NAILS","Address":"6461 Pats Ranch Rd A","City":"Mira Loma","State":"CA","Zip":"91752"},{"Location":"RFD STATION 17","Address":"10400 San Sevaine Way","City":"Mira Loma","State":"CA","Zip":"91752"},{"Location":"RV   SHEET   METALS","Address":"3197 Grapevine St","City":"Mira Loma","State":"CA","Zip":"91752"},{"Location":"SKY HIGH ONTARIO LLC","Address":"3230 Cornerstone Dr","City":"Mira Loma","State":"CA","Zip":"91752"},{"Location":"SPORT CLIPS CA509","Address":"6445 Pats Ranch Rd","City":"Mira Loma","State":"CA","Zip":"91752"},{"Location":"STIX HOLDINGS 735","Address":"12571 Limonite Ave 200","City":"Mira Loma","State":"CA","Zip":"91752"},{"Location":"SWIFT TRANSPORTAION","Address":"11888 Mission Blvd","City":"Mira Loma","State":"CA","Zip":"91752"},{"Location":"TARGET","Address":"12471 Limonite Ave","City":"Mira Loma","State":"CA","Zip":"91752"},{"Location":"THE SOUTH FORTY INC","Address":"6339 Etiwanda Ave","City":"Mira Loma","State":"CA","Zip":"91752"},{"Location":"TOTAL TRANSPORTATION LOGISTICS","Address":"4325 Etiwanda Ave","City":"Mira Loma","State":"CA","Zip":"91752"},{"Location":"TRIWAYS INC.","Address":"11201 Iberia St B","City":"Mira Loma","State":"CA","Zip":"91752"},{"Location":"TRUCK TUB INTERNATIONAL INC","Address":"10855 San Sevaine Way","City":"Mira Loma","State":"CA","Zip":"91752"},{"Location":"VALLEY POWER SYSTEMS","Address":"11300 Inland Ave","City":"Mira Loma","State":"CA","Zip":"91752"},{"Location":"WABI SABI%2FMIRA LOMA","Address":"6237 Pats Ranch Rd G","City":"Mira Loma","State":"CA","Zip":"91752"},{"Location":"SAUDER","Address":"11450 E Philadelphia St","City":"Miraloma","State":"CA","Zip":"91752"}]