[{"Location":"ALADS","Address":"2 Cupania Cir","City":"Monterey Park","State":"CA","Zip":"91755"},{"Location":"ARMANDO MEXICAN RESTARUN","Address":"704 E Garvey Ave","City":"Monterey Park","State":"CA","Zip":"91755"},{"Location":"BANK OF THE WEST","Address":"1977 Saturn St","City":"Monterey Park","State":"CA","Zip":"91755"},{"Location":"EAST WEST DENTAL","Address":"629 E Garvey Ave","City":"Monterey Park","State":"CA","Zip":"91755"},{"Location":"LAW OFFICE & MARY NGUYEN","Address":"1101 E Garvey Ave 206","City":"Monterey Park","State":"CA","Zip":"91755"},{"Location":"MAMA LU DUMPLING HOUSE","Address":"153 E Garvey Ave","City":"Monterey Park","State":"CA","Zip":"91755"},{"Location":"NOODLE CITY","Address":"848 E Garvey Ave C","City":"Monterey Park","State":"CA","Zip":"91755"},{"Location":"SOUTHERN CALIFORNIA EDISON","Address":"1000 Potrero Grande Dr","City":"Monterey Park","State":"CA","Zip":"91755"},{"Location":"UNION BANK","Address":"1980 Saturn St Vo35","City":"Monterey Park","State":"CA","Zip":"91755"},{"Location":"UNION BANK COMMAND CTR","Address":"1980 Saturn St","City":"Monterey Park","State":"CA","Zip":"91755"},{"Location":"UNION BANK EBCM V03-460","Address":"1980 Saturn St","City":"Monterey Park","State":"CA","Zip":"91755"},{"Location":"UNITED STATES MARSHALS","Address":"1938 Saturn St","City":"Monterey Park","State":"CA","Zip":"91755"},{"Location":"VICTORY FRENCH RESTAURANT","Address":"580 E Garvey Ave","City":"Monterey Park","State":"CA","Zip":"91755"}]