[{"Location":"AHMC INTERNATIONAL C C","Address":"605 N Garfield Ave","City":"Monterey Park","State":"CA","Zip":"91754"},{"Location":"ATLANTIC RESTUARANT","Address":"440 S Atlantic Blvd","City":"Monterey Park","State":"CA","Zip":"91754"},{"Location":"BOLLINIS PIZZERIA NAPOLETANA","Address":"2315 S Garfield Ave","City":"Monterey Park","State":"CA","Zip":"91754"},{"Location":"CAL BANK & TRUST","Address":"2107 S Atlantic Blvd","City":"Monterey Park","State":"CA","Zip":"91754"},{"Location":"CAMENO REAL CHEVROLET","Address":"2401 S Atlantic Blvd","City":"Monterey Park","State":"CA","Zip":"91754"},{"Location":"CARROWS","Address":"2271 S Atlantic Blvd","City":"Monterey Park","State":"CA","Zip":"91754"},{"Location":"CITY OF MONTEREY PARK FIRE EOC","Address":"329 W Newmark Ave","City":"Monterey Park","State":"CA","Zip":"91754"},{"Location":"COUNTY OF LA FIRE PPS","Address":"1255 Corporate Center Dr 328","City":"Monterey Park","State":"CA","Zip":"91754"},{"Location":"CTI","Address":"1200 Corporate Center Dr","City":"Monterey Park","State":"CA","Zip":"91754"},{"Location":"DAVITA #399 MONTERY PARK","Address":"2560 Corporate Pl 101","City":"Monterey Park","State":"CA","Zip":"91754"},{"Location":"DAVITA #4375 GARFIELD HOME","Address":"228 N Garfield Ave 301","City":"Monterey Park","State":"CA","Zip":"91754"},{"Location":"EAST LA COLL SHRF STATION3","Address":"1301 Avenida Cesar Chavez","City":"Monterey Park","State":"CA","Zip":"91754"},{"Location":"EAST LOS ANGELES COLLEGE","Address":"1301 Avenida Cesar Chavez","City":"Monterey Park","State":"CA","Zip":"91754"},{"Location":"ELA CHP","Address":"1601 Corporate Center Dr","City":"Monterey Park","State":"CA","Zip":"91754"},{"Location":"F AND A FEDERAL CREDIT UNION","Address":"2625 Corporate Pl","City":"Monterey Park","State":"CA","Zip":"91754"},{"Location":"FIRST DATA","Address":"2525 Cooperate Place","City":"Monterey Park","State":"CA","Zip":"91754"},{"Location":"GARFIELD HEALTH CENTER","Address":"210 N Garfield Ave 203","City":"Monterey Park","State":"CA","Zip":"91754"},{"Location":"GARFIELD IMAGING CENTER","Address":"555 N Garfield Ave","City":"Monterey Park","State":"CA","Zip":"91754"},{"Location":"GARFIELD MEDICAL CENTER","Address":"525 N Garfield Ave","City":"Monterey Park","State":"CA","Zip":"91754"},{"Location":"GARFIELD MEDICAL CENTER","Address":"605 N Garfield Ave","City":"Monterey Park","State":"CA","Zip":"91754"},{"Location":"GARFIELD MEDICAL CENTER","Address":"401 Garfield Ave","City":"Monterey Park","State":"CA","Zip":"91754"},{"Location":"GOODYEAR 8628","Address":"1925 S Atlantic Blvd","City":"Monterey Park","State":"CA","Zip":"91754"},{"Location":"HENRYS HAIR SALON","Address":"2324 S Atlantic Blvd A","City":"Monterey Park","State":"CA","Zip":"91754"},{"Location":"JOHNNY HERRERA","Address":"2411 S Garfield Ave","City":"Monterey Park","State":"CA","Zip":"91754"},{"Location":"LA FITNESS #87","Address":"416 S Atlantic Blvd","City":"Monterey Park","State":"CA","Zip":"91754"},{"Location":"LASD IMPAAC","Address":"901 Corporate Center Dr 310","City":"Monterey Park","State":"CA","Zip":"91754"},{"Location":"LOS ANGELES COMMUNITY COLLEGE","Address":"1301 Avenida Cesar Chavez","City":"Monterey Park","State":"CA","Zip":"91754"},{"Location":"MD MEDICAL CENTER%2C INC.","Address":"600 N Garfield Ave 111","City":"Monterey Park","State":"CA","Zip":"91754"},{"Location":"MEN'S WEARHOUSE #2727","Address":"1901 S Atlantic Blvd","City":"Monterey Park","State":"CA","Zip":"91754"},{"Location":"MERCHANTS BUILDING MAINT","Address":"1190 Monterey Pass Rd","City":"Monterey Park","State":"CA","Zip":"91754"},{"Location":"MILLA MOTEL","Address":"438 El Mercado Ave","City":"Monterey Park","State":"CA","Zip":"91754"},{"Location":"MONTEREY PARK GOLF CLUB","Address":"3600 W Ramona Blvd","City":"Monterey Park","State":"CA","Zip":"91754"},{"Location":"MONTEREY PARK HOSPITAL","Address":"900 S Atlantic Blvd","City":"Monterey Park","State":"CA","Zip":"91754"},{"Location":"MONTEREY PARK PIES INC","Address":"220 S Atlantic Blvd","City":"Monterey Park","State":"CA","Zip":"91754"},{"Location":"NIKO NIKO SUSHI","Address":"2000 S Atlantic Blvd","City":"Monterey Park","State":"CA","Zip":"91754"},{"Location":"OCP FRIEND CORP","Address":"141 N Atlantic Blvd","City":"Monterey Park","State":"CA","Zip":"91754"},{"Location":"PAC BRIDGE HOUSING CORP","Address":"500 S Mcpherrin Ave Ofc","City":"Monterey Park","State":"CA","Zip":"91754"},{"Location":"RIOS PIZZA","Address":"2223 S Atlantic Blvd","City":"Monterey Park","State":"CA","Zip":"91754"},{"Location":"SCGC","Address":"1801 S Atlantic Blvd","City":"Monterey Park","State":"CA","Zip":"91754"},{"Location":"SHAKAS","Address":"2300 S Garfield Ave","City":"Monterey Park","State":"CA","Zip":"91754"},{"Location":"SHERIFF HEADQUARTERS BUR","Address":"4700 W Ramona Blvd","City":"Monterey Park","State":"CA","Zip":"91754"},{"Location":"SHINA NO YORU","Address":"2201 S Garfield Ave","City":"Monterey Park","State":"CA","Zip":"91754"},{"Location":"SHINANO RESTAURANTS","Address":"1106 S Atlantic Blvd","City":"Monterey Park","State":"CA","Zip":"91754"},{"Location":"SHINSEN GUMI","Address":"111 N Atlantic Blvd 248","City":"Monterey Park","State":"CA","Zip":"91754"},{"Location":"SYNERMED INC","Address":"1600 Corporate Center Dr","City":"Monterey Park","State":"CA","Zip":"91754"},{"Location":"THAI HOUSE RESTAURANT%2CINC","Address":"2080 S Atlantic Blvd","City":"Monterey Park","State":"CA","Zip":"91754"},{"Location":"THE BARBESRSHOP COMPANY","Address":"2334 S Atlantic Blvd","City":"Monterey Park","State":"CA","Zip":"91754"},{"Location":"TOGOS","Address":"2325 S Atlantic Blvd","City":"Monterey Park","State":"CA","Zip":"91754"},{"Location":"TOKYO FRIED CHICKEN CO","Address":"122 S Atlantic Blvd","City":"Monterey Park","State":"CA","Zip":"91754"},{"Location":"VENICE ROOM INC.","Address":"2428 S Garfield Ave","City":"Monterey Park","State":"CA","Zip":"91754"},{"Location":"YOUNIQUE CAFE","Address":"220 W Garvey Ave","City":"Monterey Park","State":"CA","Zip":"91754"},{"Location":"AHMC INTERNATIONAL C C","Address":"605 N Garfield Ave","City":"Monterey Park","State":"CA","Zip":"91754"},{"Location":"ATLANTIC RESTUARANT","Address":"440 S Atlantic Blvd","City":"Monterey Park","State":"CA","Zip":"91754"},{"Location":"BOLLINIS PIZZERIA NAPOLETANA","Address":"2315 S Garfield Ave","City":"Monterey Park","State":"CA","Zip":"91754"},{"Location":"CAL BANK & TRUST","Address":"2107 S Atlantic Blvd","City":"Monterey Park","State":"CA","Zip":"91754"},{"Location":"CAMENO REAL CHEVROLET","Address":"2401 S Atlantic Blvd","City":"Monterey Park","State":"CA","Zip":"91754"},{"Location":"CARROWS","Address":"2271 S Atlantic Blvd","City":"Monterey Park","State":"CA","Zip":"91754"},{"Location":"CITY OF MONTEREY PARK FIRE EOC","Address":"329 W Newmark Ave","City":"Monterey Park","State":"CA","Zip":"91754"},{"Location":"COUNTY OF LA FIRE PPS","Address":"1255 Corporate Center Dr 328","City":"Monterey Park","State":"CA","Zip":"91754"},{"Location":"CTI","Address":"1200 Corporate Center Dr","City":"Monterey Park","State":"CA","Zip":"91754"},{"Location":"DAVITA #399 MONTERY PARK","Address":"2560 Corporate Pl 101","City":"Monterey Park","State":"CA","Zip":"91754"},{"Location":"DAVITA #4375 GARFIELD HOME","Address":"228 N Garfield Ave 301","City":"Monterey Park","State":"CA","Zip":"91754"},{"Location":"EAST LA COLL SHRF STATION3","Address":"1301 Avenida Cesar Chavez","City":"Monterey Park","State":"CA","Zip":"91754"},{"Location":"EAST LOS ANGELES COLLEGE","Address":"1301 Avenida Cesar Chavez","City":"Monterey Park","State":"CA","Zip":"91754"},{"Location":"ELA CHP","Address":"1601 Corporate Center Dr","City":"Monterey Park","State":"CA","Zip":"91754"},{"Location":"F AND A FEDERAL CREDIT UNION","Address":"2625 Corporate Pl","City":"Monterey Park","State":"CA","Zip":"91754"},{"Location":"FIRST DATA","Address":"2525 Cooperate Place","City":"Monterey Park","State":"CA","Zip":"91754"},{"Location":"GARFIELD HEALTH CENTER","Address":"210 N Garfield Ave 203","City":"Monterey Park","State":"CA","Zip":"91754"},{"Location":"GARFIELD IMAGING CENTER","Address":"555 N Garfield Ave","City":"Monterey Park","State":"CA","Zip":"91754"},{"Location":"GARFIELD MEDICAL CENTER","Address":"605 N Garfield Ave","City":"Monterey Park","State":"CA","Zip":"91754"},{"Location":"GARFIELD MEDICAL CENTER","Address":"525 N Garfield Ave","City":"Monterey Park","State":"CA","Zip":"91754"},{"Location":"GARFIELD MEDICAL CENTER","Address":"401 Garfield Ave","City":"Monterey Park","State":"CA","Zip":"91754"},{"Location":"GOODYEAR 8628","Address":"1925 S Atlantic Blvd","City":"Monterey Park","State":"CA","Zip":"91754"},{"Location":"HENRYS HAIR SALON","Address":"2324 S Atlantic Blvd A","City":"Monterey Park","State":"CA","Zip":"91754"},{"Location":"JOHNNY HERRERA","Address":"2411 S Garfield Ave","City":"Monterey Park","State":"CA","Zip":"91754"},{"Location":"LA FITNESS #87","Address":"416 S Atlantic Blvd","City":"Monterey Park","State":"CA","Zip":"91754"},{"Location":"LASD IMPAAC","Address":"901 Corporate Center Dr 310","City":"Monterey Park","State":"CA","Zip":"91754"},{"Location":"LOS ANGELES COMMUNITY COLLEGE","Address":"1301 Avenida Cesar Chavez","City":"Monterey Park","State":"CA","Zip":"91754"},{"Location":"MD MEDICAL CENTER%2C INC.","Address":"600 N Garfield Ave 111","City":"Monterey Park","State":"CA","Zip":"91754"},{"Location":"MEN'S WEARHOUSE #2727","Address":"1901 S Atlantic Blvd","City":"Monterey Park","State":"CA","Zip":"91754"},{"Location":"MERCHANTS BUILDING MAINT","Address":"1190 Monterey Pass Rd","City":"Monterey Park","State":"CA","Zip":"91754"},{"Location":"MILLA MOTEL","Address":"438 El Mercado Ave","City":"Monterey Park","State":"CA","Zip":"91754"},{"Location":"MONTEREY PARK GOLF CLUB","Address":"3600 W Ramona Blvd","City":"Monterey Park","State":"CA","Zip":"91754"},{"Location":"MONTEREY PARK HOSPITAL","Address":"900 S Atlantic Blvd","City":"Monterey Park","State":"CA","Zip":"91754"},{"Location":"MONTEREY PARK PIES INC","Address":"220 S Atlantic Blvd","City":"Monterey Park","State":"CA","Zip":"91754"},{"Location":"NIKO NIKO SUSHI","Address":"2000 S Atlantic Blvd","City":"Monterey Park","State":"CA","Zip":"91754"},{"Location":"OCP FRIEND CORP","Address":"141 N Atlantic Blvd","City":"Monterey Park","State":"CA","Zip":"91754"},{"Location":"PAC BRIDGE HOUSING CORP","Address":"500 S Mcpherrin Ave Ofc","City":"Monterey Park","State":"CA","Zip":"91754"},{"Location":"RIOS PIZZA","Address":"2223 S Atlantic Blvd","City":"Monterey Park","State":"CA","Zip":"91754"},{"Location":"SCGC","Address":"1801 S Atlantic Blvd","City":"Monterey Park","State":"CA","Zip":"91754"},{"Location":"SHAKAS","Address":"2300 S Garfield Ave","City":"Monterey Park","State":"CA","Zip":"91754"},{"Location":"SHERIFF HEADQUARTERS BUR","Address":"4700 W Ramona Blvd","City":"Monterey Park","State":"CA","Zip":"91754"},{"Location":"SHINA NO YORU","Address":"2201 S Garfield Ave","City":"Monterey Park","State":"CA","Zip":"91754"},{"Location":"SHINANO RESTAURANTS","Address":"1106 S Atlantic Blvd","City":"Monterey Park","State":"CA","Zip":"91754"},{"Location":"SHINSEN GUMI","Address":"111 N Atlantic Blvd 248","City":"Monterey Park","State":"CA","Zip":"91754"},{"Location":"SYNERMED INC","Address":"1600 Corporate Center Dr","City":"Monterey Park","State":"CA","Zip":"91754"},{"Location":"THAI HOUSE RESTAURANT%2CINC","Address":"2080 S Atlantic Blvd","City":"Monterey Park","State":"CA","Zip":"91754"},{"Location":"THE BARBESRSHOP COMPANY","Address":"2334 S Atlantic Blvd","City":"Monterey Park","State":"CA","Zip":"91754"},{"Location":"TOGOS","Address":"2325 S Atlantic Blvd","City":"Monterey Park","State":"CA","Zip":"91754"},{"Location":"TOKYO FRIED CHICKEN CO","Address":"122 S Atlantic Blvd","City":"Monterey Park","State":"CA","Zip":"91754"},{"Location":"VENICE ROOM INC.","Address":"2428 S Garfield Ave","City":"Monterey Park","State":"CA","Zip":"91754"},{"Location":"YOUNIQUE CAFE","Address":"220 W Garvey Ave","City":"Monterey Park","State":"CA","Zip":"91754"}]