[{"Location":"ALL-STAR INSULATION","Address":"1915 Mckinley Ave A","City":"La Verne","State":"CA","Zip":"91750"},{"Location":"AMERICAN AIRPORTS CORP","Address":"1615 Mckinley Ave","City":"La Verne","State":"CA","Zip":"91750"},{"Location":"ANDYS SHOE REPAIR","Address":"2400 Foothill Blvd B","City":"La Verne","State":"CA","Zip":"91750"},{"Location":"AOKI JAPANESE RESTAURANT","Address":"2307 D St","City":"La Verne","State":"CA","Zip":"91750"},{"Location":"BEST DEAL SMOKE SHOP","Address":"1463 Foothill Blvd","City":"La Verne","State":"CA","Zip":"91750"},{"Location":"CARAL PERUVIAN GRILL","Address":"1453 Foothill Blvd","City":"La Verne","State":"CA","Zip":"91750"},{"Location":"CHASES CAFE","Address":"2136 3rd St","City":"La Verne","State":"CA","Zip":"91750"},{"Location":"CHILI'S #0351","Address":"1912 Foothill Blvd","City":"La Verne","State":"CA","Zip":"91750"},{"Location":"COPACABANA MOBILE HOME","Address":"2717 Arrow Hwy","City":"La Verne","State":"CA","Zip":"91750"},{"Location":"CUSTOM CRAFT","Address":"2376 1st St","City":"La Verne","State":"CA","Zip":"91750"},{"Location":"DAVENPORT HALL","Address":"1950 3rd St","City":"La Verne","State":"CA","Zip":"91750"},{"Location":"E SHILDS","Address":"920 Palomares St","City":"La Verne","State":"CA","Zip":"91750"},{"Location":"ENTECH MEDICAL","Address":"1910 D St","City":"La Verne","State":"CA","Zip":"91750"},{"Location":"FOOTHILL TERRACE MHP%2FCLUBHOUSE","Address":"4095 Fruit St","City":"La Verne","State":"CA","Zip":"91750"},{"Location":"FRONT LINE SAFETY.","Address":"1643 Puddingstone Dr","City":"La Verne","State":"CA","Zip":"91750"},{"Location":"FUTURE CONCEPTS #14","Address":"1230 Arrow Hwy","City":"La Verne","State":"CA","Zip":"91750"},{"Location":"GILSPIA INC","Address":"2307 D St","City":"La Verne","State":"CA","Zip":"91750"},{"Location":"GREEN CLEAN","Address":"1171 Foothill Blvd","City":"La Verne","State":"CA","Zip":"91750"},{"Location":"HAAKER EQUIPMENT COMPANY","Address":"2070 N White Ave","City":"La Verne","State":"CA","Zip":"91750"},{"Location":"HARDY INSURANCE SERVICES 2 INC","Address":"2911 Bonita Ave A","City":"La Verne","State":"CA","Zip":"91750"},{"Location":"HILL GROUP LLC","Address":"1715 Corrigan","City":"La Verne","State":"CA","Zip":"91750"},{"Location":"HOUSE OF WINGS","Address":"2317 D St","City":"La Verne","State":"CA","Zip":"91750"},{"Location":"JCL CONTRACTORS","Address":"2980 1st St","City":"La Verne","State":"CA","Zip":"91750"},{"Location":"KIRK JOHNSON REAL ESTATE","Address":"2332 D St","City":"La Verne","State":"CA","Zip":"91750"},{"Location":"KOHL'S #599","Address":"2229 Foothill Blvd","City":"La Verne","State":"CA","Zip":"91750"},{"Location":"L & L HAWAIIAN BARBECUE","Address":"2400 Foothill Blvd A","City":"La Verne","State":"CA","Zip":"91750"},{"Location":"LA CNTY AFFLERBAUGH BLD2","Address":"6631 Stephens Ranch Rd","City":"La Verne","State":"CA","Zip":"91750"},{"Location":"LA CNTY AFFLERBAUGH BLDG","Address":"6631 Stephens Ranch Rd","City":"La Verne","State":"CA","Zip":"91750"},{"Location":"LA COUNTY PAIGE BLDG 1","Address":"6601 Stephens Ranch Rd","City":"La Verne","State":"CA","Zip":"91750"},{"Location":"LA COUNTY PAIGE BLDG 2","Address":"6601 Stephens Ranch Rd","City":"La Verne","State":"CA","Zip":"91750"},{"Location":"LA FITNESS #45","Address":"1275 Foothill Blvd","City":"La Verne","State":"CA","Zip":"91750"},{"Location":"LA PALOMA INC","Address":"2975 Foothill Blvd","City":"La Verne","State":"CA","Zip":"91750"},{"Location":"LA VERNE CAR WASH","Address":"914 Foothill Blvd","City":"La Verne","State":"CA","Zip":"91750"},{"Location":"LA VERNE FIRE FIREFIGHTER ST 1","Address":"2061 3rd St","City":"La Verne","State":"CA","Zip":"91750"},{"Location":"LA VERNE FIRE STATION ST 2","Address":"4785 Wheeler Ave","City":"La Verne","State":"CA","Zip":"91750"},{"Location":"LA VERNE FIRE STATION ST 3","Address":"5100 Esperanza Dr","City":"La Verne","State":"CA","Zip":"91750"},{"Location":"LA VERNE FITNESS LLC","Address":"1473a Foothill Blvd","City":"La Verne","State":"CA","Zip":"91750"},{"Location":"LA VERNE PIZZA COMPANY","Address":"3836 Emerald Ave D","City":"La Verne","State":"CA","Zip":"91750"},{"Location":"LARVERNE GLASS AND SCREEN","Address":"1782 N White Ave","City":"La Verne","State":"CA","Zip":"91750"},{"Location":"LAVERN METRO WATER DISTRICT","Address":"3201 Wheeler Ave 122","City":"La Verne","State":"CA","Zip":"91750"},{"Location":"LAVERNE POLICE DEPARTMENT","Address":"2061 3rd St","City":"La Verne","State":"CA","Zip":"91750"},{"Location":"LEGENDS PACKAGING GROUP","Address":"1840 Arrow Hwy","City":"La Verne","State":"CA","Zip":"91750"},{"Location":"LEROY HAYNES - ADOLESCENT BLDG","Address":"233 Base Line Rd","City":"La Verne","State":"CA","Zip":"91750"},{"Location":"LEROY HAYNES- EMANICIPATIONBLD","Address":"233 Base Line Rd","City":"La Verne","State":"CA","Zip":"91750"},{"Location":"LILELU INC DBA JERSEY MI","Address":"2212 Foothill Blvd","City":"La Verne","State":"CA","Zip":"91750"},{"Location":"LORSDBURG TAPHOUSE&GRILL","Address":"2335 D St","City":"La Verne","State":"CA","Zip":"91750"},{"Location":"MAMA PETRILLO'S","Address":"2123 Foothill Blvd","City":"La Verne","State":"CA","Zip":"91750"},{"Location":"MARSHALL CANYON CTRY CLUB","Address":"6100 Stephens Ranch Rd","City":"La Verne","State":"CA","Zip":"91750"},{"Location":"METROPOLITAN WATER DISTRICT","Address":"3201 Wheeler Ave","City":"La Verne","State":"CA","Zip":"91750"},{"Location":"MISTER DS DINER","Address":"919 Foothill Blvd","City":"La Verne","State":"CA","Zip":"91750"},{"Location":"PACIFIC OIL COOLER SERVICE","Address":"1677 Curtiss Ct","City":"La Verne","State":"CA","Zip":"91750"},{"Location":"PAPPAS ARTISANAL1","Address":"2232 D St 101","City":"La Verne","State":"CA","Zip":"91750"},{"Location":"PASTA CUCINA RUSTICA","Address":"2086 Foothill Blvd D","City":"La Verne","State":"CA","Zip":"91750"},{"Location":"PEARL DENTAL GROUP","Address":"2082 Foothill Blvd","City":"La Verne","State":"CA","Zip":"91750"},{"Location":"PIZZA BARN","Address":"2021 Foothill Blvd","City":"La Verne","State":"CA","Zip":"91750"},{"Location":"RED DEVIL PIZZA","Address":"1465 Foothill Blvd","City":"La Verne","State":"CA","Zip":"91750"},{"Location":"ROUND TABLE PIZZA","Address":"2488 Foothill Blvd D","City":"La Verne","State":"CA","Zip":"91750"},{"Location":"SABOR A MI","Address":"2313 D St","City":"La Verne","State":"CA","Zip":"91750"},{"Location":"SHOGUN","Address":"2123 Foothill Blvd Bc","City":"La Verne","State":"CA","Zip":"91750"},{"Location":"SINFULLY SWEET APPLE COMPANY","Address":"2084 Foothill Blvd H","City":"La Verne","State":"CA","Zip":"91750"},{"Location":"SPOONERS 1","Address":"2325 D St","City":"La Verne","State":"CA","Zip":"91750"},{"Location":"STATE FARM","Address":"2144 Bonita Ave","City":"La Verne","State":"CA","Zip":"91750"},{"Location":"STIX HOLDINGS 728","Address":"1335 Foothill Blvd","City":"La Verne","State":"CA","Zip":"91750"},{"Location":"SUPERCUTS CA 80590","Address":"1612 Foothill Blvd","City":"La Verne","State":"CA","Zip":"91750"},{"Location":"TARGET CORPORATION","Address":"2462 Foothill Blvd","City":"La Verne","State":"CA","Zip":"91750"},{"Location":"THE LEROY HAYNES CENTER","Address":"233 Base Line Rd Bldg1","City":"La Verne","State":"CA","Zip":"91750"},{"Location":"THE LEROY HAYNES CENTER 6","Address":"233 Base Line Rd 6","City":"La Verne","State":"CA","Zip":"91750"},{"Location":"THE LEROY HAYNES CENTER BLDG 2","Address":"233 Base Line Rd 2","City":"La Verne","State":"CA","Zip":"91750"},{"Location":"THE LEROY HAYNES CENTER%2F BLDG4","Address":"233 Baseline Rd","City":"La Verne","State":"CA","Zip":"91750"},{"Location":"TIGARTECH INC","Address":"1736 Wright Ave","City":"La Verne","State":"CA","Zip":"91750"},{"Location":"TOFACO","Address":"1661 Fairplex Dr","City":"La Verne","State":"CA","Zip":"91750"},{"Location":"TWIN OAKS MOBILE HOME","Address":"3800 Bradford St","City":"La Verne","State":"CA","Zip":"91750"},{"Location":"UNIVERSITY OF LA VERNE","Address":"2000 2nd Street Pavln","City":"La Verne","State":"CA","Zip":"91750"},{"Location":"US BANK","Address":"1933 Foothill Blvd","City":"La Verne","State":"CA","Zip":"91750"},{"Location":"USDA NATIONAL FINANCE CENTER","Address":"9292 San Dimas Lyn Rd","City":"La Verne","State":"CA","Zip":"91750"},{"Location":"WAREHOUSE PIZZA","Address":"2340 D St","City":"La Verne","State":"CA","Zip":"91750"},{"Location":"WF CONSTRUCTION","Address":"620 Arrow Hwy","City":"La Verne","State":"CA","Zip":"91750"},{"Location":"WINGSTOP","Address":"2369 Foothill Blvd B","City":"La Verne","State":"CA","Zip":"91750"}]