[{"Location":"AMERICAN MEDICAL RESPONSE DB","Address":"23341 Golden Springs Dr","City":"Diamond Bar","State":"CA","Zip":"91765"},{"Location":"APEX","Address":"21671 Gateway Center Dr 108","City":"Diamond Bar","State":"CA","Zip":"91765"},{"Location":"BBCN BANK","Address":"2809 S Diamond Bar Blvd","City":"Diamond Bar","State":"CA","Zip":"91765"},{"Location":"BBQ CHICKEN","Address":"2841 S Diamond Bar Blvd C","City":"Diamond Bar","State":"CA","Zip":"91765"},{"Location":"BIOSENSE WEBSTER DMND BR","Address":"3333 S Diamond Canyon Rd","City":"Diamond Bar","State":"CA","Zip":"91765"},{"Location":"BOULEVARD BAGELS","Address":"574 N Diamond Bar Blvd","City":"Diamond Bar","State":"CA","Zip":"91765"},{"Location":"CALVARY CHAPEL","Address":"22324 Golden Springs Dr","City":"Diamond Bar","State":"CA","Zip":"91765"},{"Location":"CATUIRA FAMILY DENISTRY","Address":"966 N Diamond Bar Blvd","City":"Diamond Bar","State":"CA","Zip":"91765"},{"Location":"CHILI'S #1449","Address":"707 Grand Ave","City":"Diamond Bar","State":"CA","Zip":"91765"},{"Location":"CRUNCH FITNESS DIAMOND B","Address":"1132 S Diamond Bar Blvd","City":"Diamond Bar","State":"CA","Zip":"91765"},{"Location":"DIAMOND BAR DENTAL GROUP","Address":"2040 S Brea Canyon Rd 210","City":"Diamond Bar","State":"CA","Zip":"91765"},{"Location":"DIAMOND BAR GOLF COURSE","Address":"22751 Golden Springs Dr","City":"Diamond Bar","State":"CA","Zip":"91765"},{"Location":"DIAMOND BAR SURGERY CENTER","Address":"1448 Bridgegate Dr","City":"Diamond Bar","State":"CA","Zip":"91765"},{"Location":"EXECUTIVE BENEFIT PROGRAM","Address":"712 N Diamond Bar Blvd","City":"Diamond Bar","State":"CA","Zip":"91765"},{"Location":"FIRESTONE #025984","Address":"1150 Grand Ave","City":"Diamond Bar","State":"CA","Zip":"91765"},{"Location":"FLAME BROILER - DIAMOND","Address":"2839 S Diamond Bar Blvd B","City":"Diamond Bar","State":"CA","Zip":"91765"},{"Location":"GOOD TIMES PARTY SUPPLY","Address":"23545 Palomino Dr C","City":"Diamond Bar","State":"CA","Zip":"91765"},{"Location":"GOODYEAR 4875","Address":"121 S Diamond Bar Blvd","City":"Diamond Bar","State":"CA","Zip":"91765"},{"Location":"GUARDIAN","Address":"1440 Bridgegate Dr 295","City":"Diamond Bar","State":"CA","Zip":"91765"},{"Location":"HONEST 1 AUTOCARE","Address":"780 N Diamond Bar Blvd B2","City":"Diamond Bar","State":"CA","Zip":"91765"},{"Location":"INLAND EMPIRE RENEWABLE","Address":"3230 Fallow Field Dr","City":"Diamond Bar","State":"CA","Zip":"91765"},{"Location":"INT'L BROTHERHOOD OF ELECTICAL","Address":"600 N Diamond Bar Blvd","City":"Diamond Bar","State":"CA","Zip":"91765"},{"Location":"JOHNNY&SAM INC","Address":"22640 Golden Springs Dr A","City":"Diamond Bar","State":"CA","Zip":"91765"},{"Location":"MANDARIN TASTE","Address":"23391 Golden Springs Dr","City":"Diamond Bar","State":"CA","Zip":"91765"},{"Location":"MARIA REBECCA ARAMBULO D","Address":"22640 Golden Springs Dr A","City":"Diamond Bar","State":"CA","Zip":"91765"},{"Location":"MICHAEL K FURUMOTO DDS INC","Address":"21308 Pathfinder Rd 111","City":"Diamond Bar","State":"CA","Zip":"91765"},{"Location":"MIKES TOBACCO","Address":"1174 S Diamond Bar Blvd","City":"Diamond Bar","State":"CA","Zip":"91765"},{"Location":"NANCYS PET PARLOR","Address":"1345 S Diamond Bar Blvd","City":"Diamond Bar","State":"CA","Zip":"91765"},{"Location":"OAK TREE LANES SPORTS BAR","Address":"980 N Diamond Bar Blvd","City":"Diamond Bar","State":"CA","Zip":"91765"},{"Location":"ORCHIDS NAIL SPA","Address":"1121 Grand Ave","City":"Diamond Bar","State":"CA","Zip":"91765"},{"Location":"PFF BANK AND TRUST","Address":"1175 Grand Ave","City":"Diamond Bar","State":"CA","Zip":"91765"},{"Location":"PHO HANA RESTAURANT","Address":"2777 S Diamond Bar Blvd","City":"Diamond Bar","State":"CA","Zip":"91765"},{"Location":"PHOHANA INC","Address":"277 S Diamond Bar Blvd","City":"Diamond Bar","State":"CA","Zip":"91765"},{"Location":"REMAX TOP PRODUCERS","Address":"618 N Diamond Bar Blvd","City":"Diamond Bar","State":"CA","Zip":"91765"},{"Location":"REMAX TOP PRODUCERS 1","Address":"634 N Diamond Bar Blvd","City":"Diamond Bar","State":"CA","Zip":"91765"},{"Location":"SAIGON NOODLE HOUSE","Address":"1136 S Diamond Bar Blvd","City":"Diamond Bar","State":"CA","Zip":"91765"},{"Location":"SAKURA FOOT SPA","Address":"21343 Cold Spring Ln","City":"Diamond Bar","State":"CA","Zip":"91765"},{"Location":"SOUTHWEST PATROL INC","Address":"838 N Diamond Bar Blvd","City":"Diamond Bar","State":"CA","Zip":"91765"},{"Location":"TARGET 2179","Address":"747 Grand Ave","City":"Diamond Bar","State":"CA","Zip":"91765"},{"Location":"THE VAPING SECTION","Address":"1397 S Diamond Bar Blvd","City":"Diamond Bar","State":"CA","Zip":"91765"},{"Location":"THE WHOLE ENCHILADA","Address":"1114 S Diamond Bar Blvd","City":"Diamond Bar","State":"CA","Zip":"91765"},{"Location":"THERESA LEE CHB DBA TRK","Address":"1300 Valley Vista Dr 100","City":"Diamond Bar","State":"CA","Zip":"91765"},{"Location":"TONGFANG GLOBAL","Address":"1550 Valley Vista Dr 210","City":"Diamond Bar","State":"CA","Zip":"91765"},{"Location":"WAYNE H MARTIN MD","Address":"1111 Grand Ave A","City":"Diamond Bar","State":"CA","Zip":"91765"},{"Location":"WORK FORCE SOLUTIONS","Address":"584 N Diamond Bar Blvd","City":"Diamond Bar","State":"CA","Zip":"91765"},{"Location":"YOKO YOKO SUSHI & ROLL","Address":"1261 S Diamond Bar Blvd","City":"Diamond Bar","State":"CA","Zip":"91765"}]