[{"Location":"24 HOUR FITNESS #920","Address":"2580 S Archibald Ave","City":"Ontario","State":"CA","Zip":"91761"},{"Location":"909 CLIPPERS","Address":"2433 S Grove Ave","City":"Ontario","State":"CA","Zip":"91761"},{"Location":"ABS FACILITY SERVICES","Address":"847 S Wanamaker Ave","City":"Ontario","State":"CA","Zip":"91761"},{"Location":"ACCENT CARE INCORPORATED","Address":"1455 Auto Center Dr 200","City":"Ontario","State":"CA","Zip":"91761"},{"Location":"AIRPORT VAN RENTALS INC","Address":"636 E Holt Blvd","City":"Ontario","State":"CA","Zip":"91761"},{"Location":"ALANSOS BARBER SHOP","Address":"828 E Holt Blvd","City":"Ontario","State":"CA","Zip":"91761"},{"Location":"ALL PRO PLUMBING CORP","Address":"5075 E Airport Dr","City":"Ontario","State":"CA","Zip":"91761"},{"Location":"ALLEGIANCE HEALTHCARE","Address":"4551 E Philadelphia St","City":"Ontario","State":"CA","Zip":"91761"},{"Location":"AMERICAN JETTING SERVICE","Address":"2081 S Hellman Ave C","City":"Ontario","State":"CA","Zip":"91761"},{"Location":"AMERIFLIGHT","Address":"2161 E Avion Ave","City":"Ontario","State":"CA","Zip":"91761"},{"Location":"AMREP INC","Address":"1555 S Cucamonga Ave","City":"Ontario","State":"CA","Zip":"91761"},{"Location":"ANIL MAHAJAN DDS","Address":"398 E Holt Blvd","City":"Ontario","State":"CA","Zip":"91761"},{"Location":"APRIA CORAM ONTARIO","Address":"4355 E Lowell St C","City":"Ontario","State":"CA","Zip":"91761"},{"Location":"ARCHIBALD DENTAL OFFICE","Address":"3065 S Archibald Ave","City":"Ontario","State":"CA","Zip":"91761"},{"Location":"ARCHIBALDS DRIVE THRU","Address":"2685 E Riverside Dr","City":"Ontario","State":"CA","Zip":"91761"},{"Location":"ARROWHEAD MOUNTAIN SPRING WAT2","Address":"5772 Jurupa St","City":"Ontario","State":"CA","Zip":"91761"},{"Location":"BARTH FARMS","Address":"13150 S Archibald Ave","City":"Ontario","State":"CA","Zip":"91761"},{"Location":"BB CRAFTS","Address":"1951 Lynx Pl","City":"Ontario","State":"CA","Zip":"91761"},{"Location":"BENTO BOX","Address":"2910 S Archibald Ave C","City":"Ontario","State":"CA","Zip":"91761"},{"Location":"BERTRAND MANAGEMENT GROUP","Address":"3296 E Guasti Rd 100","City":"Ontario","State":"CA","Zip":"91761"},{"Location":"BEST & KRIEGER","Address":"2855 E Guasti Rd 400","City":"Ontario","State":"CA","Zip":"91761"},{"Location":"BIOSCRIP INFUSION SERVICES INC","Address":"840 S Rochester A","City":"Ontario","State":"CA","Zip":"91761"},{"Location":"BMW REDLANDS","Address":"1150 S Milliken Ave","City":"Ontario","State":"CA","Zip":"91761"},{"Location":"BNP HOUSE OF PRAYER","Address":"7877 E Riverside Dr","City":"Ontario","State":"CA","Zip":"91761"},{"Location":"BODEGA   LATINA","Address":"1950 Sterling Ave","City":"Ontario","State":"CA","Zip":"91761"},{"Location":"BRANDONS DINER VINEYARD","Address":"2407 S Vineyard Ave A","City":"Ontario","State":"CA","Zip":"91761"},{"Location":"BRIDGESTONE TIRES","Address":"4000 E Mission Blvd","City":"Ontario","State":"CA","Zip":"91761"},{"Location":"C & D ZODIAC INC.","Address":"1945 S Grove Ave","City":"Ontario","State":"CA","Zip":"91761"},{"Location":"C N C MOTORS","Address":"4960 Vanderbilt St","City":"Ontario","State":"CA","Zip":"91761"},{"Location":"CALIFORNIA LEAGUE SERVICES","Address":"2855 E Guasti Rd 600","City":"Ontario","State":"CA","Zip":"91761"},{"Location":"CALIFORNIA UNITED BANK","Address":"3281 E Guasti Rd 650","City":"Ontario","State":"CA","Zip":"91761"},{"Location":"CALIFORNIA VETERINARY SPECIALI","Address":"2409 S Vineyard Ave O","City":"Ontario","State":"CA","Zip":"91761"},{"Location":"CARDENAS MARKET 5","Address":"720 E Holt Blvd","City":"Ontario","State":"CA","Zip":"91761"},{"Location":"CARDENAS MARKET 81","Address":"2450 S Vineyard Ave","City":"Ontario","State":"CA","Zip":"91761"},{"Location":"CENTER ICE","Address":"201 S Plum Ave","City":"Ontario","State":"CA","Zip":"91761"},{"Location":"CERTIFIED TOWING","Address":"1135 E State St","City":"Ontario","State":"CA","Zip":"91761"},{"Location":"CGO CONSTRUCTION","Address":"3100 E Cedar St 14","City":"Ontario","State":"CA","Zip":"91761"},{"Location":"CHINO VALLEY YOUNG LIFE","Address":"14330 S Cleveland Ave","City":"Ontario","State":"CA","Zip":"91761"},{"Location":"CITRUS MOTORS","Address":"1350 S Woodruff Way","City":"Ontario","State":"CA","Zip":"91761"},{"Location":"CITRUS MOTORS INC","Address":"1375 S Woodruff Way","City":"Ontario","State":"CA","Zip":"91761"},{"Location":"CITY OF ONTARIO PDEOC","Address":"2500 S Archibald Ave","City":"Ontario","State":"CA","Zip":"91761"},{"Location":"CLEMENT PAPPAS","Address":"1755 E Acacia St","City":"Ontario","State":"CA","Zip":"91761"},{"Location":"CNC MOTORS","Address":"4980 Banderbilt Street","City":"Ontario","State":"CA","Zip":"91761"},{"Location":"COASTAL PACIFIC FOOD DISTRIBUT","Address":"1520 E Mission Blvd","City":"Ontario","State":"CA","Zip":"91761"},{"Location":"COLLIERS INTERNATIONAL","Address":"2855 E Guasti Rd 401","City":"Ontario","State":"CA","Zip":"91761"},{"Location":"COLOPLAST","Address":"4495 E Wall St 101","City":"Ontario","State":"CA","Zip":"91761"},{"Location":"COMMUNITY BANK","Address":"3110 E Guasti Rd 500","City":"Ontario","State":"CA","Zip":"91761"},{"Location":"CONVERSE INC","Address":"4450 E Lowell St","City":"Ontario","State":"CA","Zip":"91761"},{"Location":"CONVERSE INCORPORATED","Address":"1460 S Hofer Ranch Rd","City":"Ontario","State":"CA","Zip":"91761"},{"Location":"COUNTRY MEADOWS MANUFACTURED","Address":"1855 E Riverside Dr","City":"Ontario","State":"CA","Zip":"91761"},{"Location":"CROWN LEXUS","Address":"1125 Kettering Dr","City":"Ontario","State":"CA","Zip":"91761"},{"Location":"CROWN TOYOTA","Address":"1201 Kettering Dr","City":"Ontario","State":"CA","Zip":"91761"},{"Location":"CROWN TOYOTA- SERVICE DEPT","Address":"1201 Kettering Dr","City":"Ontario","State":"CA","Zip":"91761"},{"Location":"CROWN TOYOTA-INTERNET","Address":"1151 Kettering Dr","City":"Ontario","State":"CA","Zip":"91761"},{"Location":"CU DIRECT CORP","Address":"2855 E Guasti Rd","City":"Ontario","State":"CA","Zip":"91761"},{"Location":"CULLIGAN OF ONTARIO","Address":"1925 Burgundy Pl","City":"Ontario","State":"CA","Zip":"91761"},{"Location":"CUTTING CREW BARBERSHOP","Address":"755 E Holt Blvd","City":"Ontario","State":"CA","Zip":"91761"},{"Location":"DAL TILE","Address":"3624 La Salle St","City":"Ontario","State":"CA","Zip":"91761"},{"Location":"DARRAS LAW","Address":"3257 E Guasti Rd 300","City":"Ontario","State":"CA","Zip":"91761"},{"Location":"DAVITA #2124 ONTARIO","Address":"1950 S Grove Ave 101a","City":"Ontario","State":"CA","Zip":"91761"},{"Location":"DAVITA #960","Address":"1100 S Grove Ave F7","City":"Ontario","State":"CA","Zip":"91761"},{"Location":"DAWN FOOD PRODUCTS","Address":"3505 E Francis St","City":"Ontario","State":"CA","Zip":"91761"},{"Location":"DC LOGISTICSS","Address":"820 S Vintage Ave B","City":"Ontario","State":"CA","Zip":"91761"},{"Location":"DELAWARE NORTH COMP 2","Address":"2500 E Airport Dr 2215","City":"Ontario","State":"CA","Zip":"91761"},{"Location":"DELAWARE NORTH COMP. 1","Address":"2500 E Airport Dr 2215","City":"Ontario","State":"CA","Zip":"91761"},{"Location":"DELAWARE NORTH COMP3","Address":"2500 E Airport Dr 2215","City":"Ontario","State":"CA","Zip":"91761"},{"Location":"DELAWARE NORTH COMP4","Address":"2500 East Ontario Airport Driv 2215","City":"Ontario","State":"CA","Zip":"91761"},{"Location":"DIAGNOSTIC SOLUTIONS INTERNA","Address":"2580 E Philadelphia St C","City":"Ontario","State":"CA","Zip":"91761"},{"Location":"DIGITAL TECHNOLOGIES","Address":"760 S Rochester E","City":"Ontario","State":"CA","Zip":"91761"},{"Location":"DOREL JUVENILE GROUP","Address":"5400 Shea Center Dr","City":"Ontario","State":"CA","Zip":"91761"},{"Location":"EAA PACIFIC","Address":"4711 E Airport Dr","City":"Ontario","State":"CA","Zip":"91761"},{"Location":"ECO ABSORBENT TECHNOLOGIES","Address":"1360 E Locust St","City":"Ontario","State":"CA","Zip":"91761"},{"Location":"ELEGANT WOOD PRODUCTS","Address":"1910 S Carlos Ave","City":"Ontario","State":"CA","Zip":"91761"},{"Location":"EMPIRE NISSAN INC","Address":"1377 Kettering Dr","City":"Ontario","State":"CA","Zip":"91761"},{"Location":"EMSER  TILE","Address":"5300 Shea Center Dr","City":"Ontario","State":"CA","Zip":"91761"},{"Location":"ENE ENTERPRISES%2FTSA-ONT","Address":"3200 E Guasti Rd","City":"Ontario","State":"CA","Zip":"91761"},{"Location":"EXEL","Address":"5351 Jurupa St","City":"Ontario","State":"CA","Zip":"91761"},{"Location":"EXEL INC","Address":"950 S Dupont Ave","City":"Ontario","State":"CA","Zip":"91761"},{"Location":"EXEL INC","Address":"5151 E Philadelphia St","City":"Ontario","State":"CA","Zip":"91761"},{"Location":"EXPERT HARDWOOD FLOORING","Address":"451 Kettering Dr","City":"Ontario","State":"CA","Zip":"91761"},{"Location":"FAMOUS STARS AND STRAPS","Address":"4050 Greystone Dr","City":"Ontario","State":"CA","Zip":"91761"},{"Location":"FED EX","Address":"3371 E Francis St","City":"Ontario","State":"CA","Zip":"91761"},{"Location":"FEDEX","Address":"1801 E Avion Ave","City":"Ontario","State":"CA","Zip":"91761"},{"Location":"FFE TRANSPORATION","Address":"5361 Santa Ana St","City":"Ontario","State":"CA","Zip":"91761"},{"Location":"FIAT OF ONTARIO","Address":"1201 Auto Center Dr","City":"Ontario","State":"CA","Zip":"91761"},{"Location":"FIRST AMERICAN TITLE","Address":"3281 E Guasti Rd 440","City":"Ontario","State":"CA","Zip":"91761"},{"Location":"FLOW DYNAMICS","Address":"909 S Cucamonga Ave 102","City":"Ontario","State":"CA","Zip":"91761"},{"Location":"G & K SERVICES","Address":"3465 E Cedar St","City":"Ontario","State":"CA","Zip":"91761"},{"Location":"GANOLIFE","Address":"4700 E Airport Dr","City":"Ontario","State":"CA","Zip":"91761"},{"Location":"GARDNER TRUCKING","Address":"1219 E Elm St","City":"Ontario","State":"CA","Zip":"91761"},{"Location":"GCH INC","Address":"1920 S Rochester","City":"Ontario","State":"CA","Zip":"91761"},{"Location":"GRAZIANOS","Address":"3060 S Archibald Ave","City":"Ontario","State":"CA","Zip":"91761"},{"Location":"GREENLEAF LOGISTICS GROUP","Address":"1505 S Dupont Ave A","City":"Ontario","State":"CA","Zip":"91761"},{"Location":"GUARDIAN JET CENTER","Address":"1150 S Vineyard Ave","City":"Ontario","State":"CA","Zip":"91761"},{"Location":"HAIR CUT","Address":"2448 S Vineyard Ave 104","City":"Ontario","State":"CA","Zip":"91761"},{"Location":"HED FOOD SERVICES","Address":"5590 Jurupa St A","City":"Ontario","State":"CA","Zip":"91761"},{"Location":"HEREWEGO PIRTEK","Address":"909 S Cucamonga Ave 101","City":"Ontario","State":"CA","Zip":"91761"},{"Location":"HICKS WILLIAMS CRAWFORD& LYNCH","Address":"3401 Centre Lake Dr 6thf","City":"Ontario","State":"CA","Zip":"91761"},{"Location":"HINO MOTORS SALES","Address":"401 S Dupont Ave","City":"Ontario","State":"CA","Zip":"91761"},{"Location":"HOLIDAY CAFE 2","Address":"4890 S Motor Ln","City":"Ontario","State":"CA","Zip":"91761"},{"Location":"HUMANE SOCIETY CHAFFEY","Address":"1010 E Mission Blvd","City":"Ontario","State":"CA","Zip":"91761"},{"Location":"I E VAPES","Address":"2665 E Riverside Dr B","City":"Ontario","State":"CA","Zip":"91761"},{"Location":"IAPMO","Address":"5001 E Philadelphia St","City":"Ontario","State":"CA","Zip":"91761"},{"Location":"IAPMO","Address":"4755 E Philadelphia St","City":"Ontario","State":"CA","Zip":"91761"},{"Location":"INDEX FASTENERS INC","Address":"945 E Grevillea Ct","City":"Ontario","State":"CA","Zip":"91761"},{"Location":"INLINE PLASTICS INC.","Address":"1950 S Baker Ave","City":"Ontario","State":"CA","Zip":"91761"},{"Location":"J S CONSULTANTS","Address":"1119 S Milliken Ave B","City":"Ontario","State":"CA","Zip":"91761"},{"Location":"JACOBS ENGINEERING GROUP","Address":"3257 E Guasti Rd 120","City":"Ontario","State":"CA","Zip":"91761"},{"Location":"JEDI TRAVEL","Address":"2949 S Vineyard Ave","City":"Ontario","State":"CA","Zip":"91761"},{"Location":"JEEP CRYSTLER DODGE- ONT","Address":"1202 Auto Center Dr","City":"Ontario","State":"CA","Zip":"91761"},{"Location":"JIFFY LUBE 3304","Address":"2560 S Vineyard Ave","City":"Ontario","State":"CA","Zip":"91761"},{"Location":"JOGUE1","Address":"4142 Pacific Privado","City":"Ontario","State":"CA","Zip":"91761"},{"Location":"K MART ONTARIO","Address":"5600 E Airport Dr","City":"Ontario","State":"CA","Zip":"91761"},{"Location":"KAISER ONTARI MEDICAL OFC BLDG","Address":"2295 S Vineyard Ave C","City":"Ontario","State":"CA","Zip":"91761"},{"Location":"KEYSTONE AUTOMOTIVE IND","Address":"2530 Lindsey Privado Dr C","City":"Ontario","State":"CA","Zip":"91761"},{"Location":"KNP SMOKE SHOP","Address":"3045 S Archibald Ave%2C Ste G","City":"Ontario","State":"CA","Zip":"91761"},{"Location":"KUDER ENGINEERING","Address":"2155 S Cucamonga Ave","City":"Ontario","State":"CA","Zip":"91761"},{"Location":"LA FREIGHT LINER COLLISION CTR","Address":"1031 E Holt Blvd","City":"Ontario","State":"CA","Zip":"91761"},{"Location":"LA ISLA YOKOMO SUSHI","Address":"2435 S Grove Ave","City":"Ontario","State":"CA","Zip":"91761"},{"Location":"LAZY BOY","Address":"3550 E Francis St","City":"Ontario","State":"CA","Zip":"91761"},{"Location":"LEGACY SUPPLY CHAIN SERVICES","Address":"1000 S Cucamonga Ave","City":"Ontario","State":"CA","Zip":"91761"},{"Location":"LMI","Address":"501 Kettering Dr","City":"Ontario","State":"CA","Zip":"91761"},{"Location":"LOS AMIGOS RESTAURANT","Address":"500 E Holt Blvd","City":"Ontario","State":"CA","Zip":"91761"},{"Location":"LOS ANGELES WORLD AIRPORTS","Address":"2132 E Avion Ave","City":"Ontario","State":"CA","Zip":"91761"},{"Location":"LSG SKY CHEFS","Address":"1590 S Milliken Ave F","City":"Ontario","State":"CA","Zip":"91761"},{"Location":"LUNCH LADIES INC.","Address":"1150 E Philadelphia St 105","City":"Ontario","State":"CA","Zip":"91761"},{"Location":"MAGNUSSEN HOME","Address":"2155 Excise Ave B","City":"Ontario","State":"CA","Zip":"91761"},{"Location":"MAGTROL","Address":"1550 S Milliken Ave F","City":"Ontario","State":"CA","Zip":"91761"},{"Location":"MAPLE MOBILE HOMES","Address":"2313 E Philadelphia St K","City":"Ontario","State":"CA","Zip":"91761"},{"Location":"MARISCOS LAS BRISAS","Address":"2951 S Vineyard Ave","City":"Ontario","State":"CA","Zip":"91761"},{"Location":"MARRIOTT ONTARIO AIRPORT","Address":"2200 E Holt Blvd","City":"Ontario","State":"CA","Zip":"91761"},{"Location":"MAXIMUM WHOLSALE INC","Address":"780 S Rochester A","City":"Ontario","State":"CA","Zip":"91761"},{"Location":"MERCEDES BENZ OF ONTARIO","Address":"3787 E Guasti Rd","City":"Ontario","State":"CA","Zip":"91761"},{"Location":"MICO WEST","Address":"701 E Francis St","City":"Ontario","State":"CA","Zip":"91761"},{"Location":"MOBIS PARTS AMERICA","Address":"1900 S Rochester","City":"Ontario","State":"CA","Zip":"91761"},{"Location":"MORALES","Address":"743 E Francis St","City":"Ontario","State":"CA","Zip":"91761"},{"Location":"MORGAN STANLEY 100204","Address":"3281 E Guasti Rd 130","City":"Ontario","State":"CA","Zip":"91761"},{"Location":"MULTI INDUSTRY PRECISION","Address":"2051 Del Rio Way","City":"Ontario","State":"CA","Zip":"91761"},{"Location":"MUSTAZZOLI RISTORANTE","Address":"1845 E Holt Blvd C","City":"Ontario","State":"CA","Zip":"91761"},{"Location":"NAFTA DISTRIBUTION","Address":"5120 Santa Ana St","City":"Ontario","State":"CA","Zip":"91761"},{"Location":"NORDSTROM","Address":"1600 S Milliken Ave","City":"Ontario","State":"CA","Zip":"91761"},{"Location":"OFFICE STAR PRODUCTS","Address":"1901 S Archibald Ave","City":"Ontario","State":"CA","Zip":"91761"},{"Location":"OLD WORLD FINISH","Address":"2025 Elm Ct","City":"Ontario","State":"CA","Zip":"91761"},{"Location":"ONTARIO EMERGENCY SERVICES","Address":"350 S Milliken Ave J","City":"Ontario","State":"CA","Zip":"91761"},{"Location":"ONTARIO POLICE OFFICERS ASSOC","Address":"2500 S Archibald Ave","City":"Ontario","State":"CA","Zip":"91761"},{"Location":"ONTARIO S%2FC OPERATIONS","Address":"1351 E Francis St","City":"Ontario","State":"CA","Zip":"91761"},{"Location":"PACIFIC WESTERN BANK","Address":"2401 S Grove Ave","City":"Ontario","State":"CA","Zip":"91761"},{"Location":"PACOS MACHINE SHOP","Address":"2124 S Grove Ave E","City":"Ontario","State":"CA","Zip":"91761"},{"Location":"PANDA INN","Address":"3223 Centre Lake Dr","City":"Ontario","State":"CA","Zip":"91761"},{"Location":"PARCO","Address":"1801 S Archibald Ave","City":"Ontario","State":"CA","Zip":"91761"},{"Location":"PATRIOT ENVIRONMENTAL","Address":"1490 S Vineyard Ave A","City":"Ontario","State":"CA","Zip":"91761"},{"Location":"PCC","Address":"1405 S Cucamonga Ave","City":"Ontario","State":"CA","Zip":"91761"},{"Location":"PENSKE HONDA ONTARIO","Address":"1401 Auto Center Dr","City":"Ontario","State":"CA","Zip":"91761"},{"Location":"PEPSI COLA SALES LLC","Address":"2095 S Archibald Ave 200","City":"Ontario","State":"CA","Zip":"91761"},{"Location":"PERFUME OUTLETS","Address":"3055 S Archibald Ave B","City":"Ontario","State":"CA","Zip":"91761"},{"Location":"POWER GRADE INC","Address":"2115 S Cucamonga Ave","City":"Ontario","State":"CA","Zip":"91761"},{"Location":"PRIME HEALTHCARE MANAGMENT","Address":"3300 E Guasti Rd 3","City":"Ontario","State":"CA","Zip":"91761"},{"Location":"R AND J WELDING","Address":"2182 Maple Privado","City":"Ontario","State":"CA","Zip":"91761"},{"Location":"RAY PRODUCTS","Address":"1700 Chablis Ave","City":"Ontario","State":"CA","Zip":"91761"},{"Location":"RED PERFIMMON NAIL AND SPA","Address":"2448 S Vineyard Ave","City":"Ontario","State":"CA","Zip":"91761"},{"Location":"REGUS","Address":"3281 E Guasti Rd 700","City":"Ontario","State":"CA","Zip":"91761"},{"Location":"RG WERKS","Address":"2322 S Vineyard Ave","City":"Ontario","State":"CA","Zip":"91761"},{"Location":"RGH ENTERPRISES INC","Address":"3980 Earlstone St","City":"Ontario","State":"CA","Zip":"91761"},{"Location":"RIDDELL ALL AMERICAN","Address":"2888 E Spruce St","City":"Ontario","State":"CA","Zip":"91761"},{"Location":"ROBERT BOSCH CORPORATION","Address":"4641 E Guasti Rd","City":"Ontario","State":"CA","Zip":"91761"},{"Location":"SADDLE CREEK CORP","Address":"5431 E Philadelphia St","City":"Ontario","State":"CA","Zip":"91761"},{"Location":"SAFELITE","Address":"4501 E Airport Dr A","City":"Ontario","State":"CA","Zip":"91761"},{"Location":"SAFELITE AUTO GLASS","Address":"4060 E Francis St 100","City":"Ontario","State":"CA","Zip":"91761"},{"Location":"SARCOS QUALITY ENGINEERI","Address":"780 E Francis St E","City":"Ontario","State":"CA","Zip":"91761"},{"Location":"SAVAGE BMW","Address":"1301 Auto Center Dr","City":"Ontario","State":"CA","Zip":"91761"},{"Location":"SCHENKER LOGISTICS","Address":"3971 E Airport Dr","City":"Ontario","State":"CA","Zip":"91761"},{"Location":"SCHENKER LOGISTICS II","Address":"102 Watermaker Ave","City":"Ontario","State":"CA","Zip":"91761"},{"Location":"SECURE STAFF","Address":"2000 S Grove Ave 111","City":"Ontario","State":"CA","Zip":"91761"},{"Location":"SHIELD HEALTHCARE","Address":"3290 E Guasti Rd","City":"Ontario","State":"CA","Zip":"91761"},{"Location":"SIGMANET","Address":"4290 E Brickell St","City":"Ontario","State":"CA","Zip":"91761"},{"Location":"SIGN INDUSTRIES INC","Address":"2101 Carrillo Privado","City":"Ontario","State":"CA","Zip":"91761"},{"Location":"SOLUTIONS HAIR AND BARBER STU","Address":"2506 S Grove Ave","City":"Ontario","State":"CA","Zip":"91761"},{"Location":"ST  ELIZABETH ANN SETON","Address":"2713 S Grove Ave","City":"Ontario","State":"CA","Zip":"91761"},{"Location":"STAPLES","Address":"1500 S Dupont Ave","City":"Ontario","State":"CA","Zip":"91761"},{"Location":"SUNSHINE GROWERS NURSERY","Address":"13130 S Milliken Ave","City":"Ontario","State":"CA","Zip":"91761"},{"Location":"SUPERIOR QUALITY FOODS","Address":"2355 E Francis St","City":"Ontario","State":"CA","Zip":"91761"},{"Location":"SUPERIOR QUALITY FOODS","Address":"2455 E Francis St","City":"Ontario","State":"CA","Zip":"91761"},{"Location":"T MOBILE 4235100155","Address":"3257 E Guasti Rd 200","City":"Ontario","State":"CA","Zip":"91761"},{"Location":"TACO HUT","Address":"1150 E Philadelphia Street","City":"Ontario","State":"CA","Zip":"91761"},{"Location":"TAKARI INTERNATIONAL%2C INC","Address":"2040 E Locust Ct","City":"Ontario","State":"CA","Zip":"91761"},{"Location":"TCA 026 ONTARIO EAST","Address":"4325 E Guasti Rd","City":"Ontario","State":"CA","Zip":"91761"},{"Location":"TCA 162 ONTARIO WEST","Address":"4265 E Guasti Rd","City":"Ontario","State":"CA","Zip":"91761"},{"Location":"TGI FRIDAY'S #1913","Address":"3351 Centre Lake Dr","City":"Ontario","State":"CA","Zip":"91761"},{"Location":"THE HERTZ CORP","Address":"3450 E Airport Dr 100","City":"Ontario","State":"CA","Zip":"91761"},{"Location":"THE HOME DEPOT","Address":"5450 E Francis St","City":"Ontario","State":"CA","Zip":"91761"},{"Location":"THE HONEST COMPANY","Address":"1950 S Vintage Ave","City":"Ontario","State":"CA","Zip":"91761"},{"Location":"THE OFFICE BAR","Address":"2425 S Grove Ave","City":"Ontario","State":"CA","Zip":"91761"},{"Location":"THE TIMBERLAND COMPANY","Address":"3950 E Airport Dr","City":"Ontario","State":"CA","Zip":"91761"},{"Location":"THOR MCANDREW CONSTRUCTION","Address":"780 E Francis St U-k","City":"Ontario","State":"CA","Zip":"91761"},{"Location":"TITAN BURGERS","Address":"2240 S Haven Ave","City":"Ontario","State":"CA","Zip":"91761"},{"Location":"TOYO TIRE HOLDINGS OF AMERICAS","Address":"2151 S Vintage Ave","City":"Ontario","State":"CA","Zip":"91761"},{"Location":"TOYOTA MOTOR SALES","Address":"2600 Stanford Ave","City":"Ontario","State":"CA","Zip":"91761"},{"Location":"TOYOTA MOTOR SALES","Address":"1425 Toyota Way","City":"Ontario","State":"CA","Zip":"91761"},{"Location":"TRANSONIC","Address":"3939 E Guasti Rd C","City":"Ontario","State":"CA","Zip":"91761"},{"Location":"TRANSPORTATION SECURITY ADMIN","Address":"2500 E Airport Dr","City":"Ontario","State":"CA","Zip":"91761"},{"Location":"TRU GRIT","Address":"760 E Francis St N","City":"Ontario","State":"CA","Zip":"91761"},{"Location":"TSA ONTARIO INT'L AIRPORT","Address":"2900 E Airport Dr","City":"Ontario","State":"CA","Zip":"91761"},{"Location":"ULINE","Address":"2950 Jurupa St","City":"Ontario","State":"CA","Zip":"91761"},{"Location":"UP STAR  USA","Address":"1885 S Vineyard Ave 1","City":"Ontario","State":"CA","Zip":"91761"},{"Location":"US HEALTH WORKS","Address":"2171 S Grove Ave","City":"Ontario","State":"CA","Zip":"91761"},{"Location":"VERIZON INLAND MTSO","Address":"5351 E Airport Dr","City":"Ontario","State":"CA","Zip":"91761"},{"Location":"VISTAR CORPORATION","Address":"3790 Jurupa St","City":"Ontario","State":"CA","Zip":"91761"},{"Location":"VOIT REAL ESTATE","Address":"3280 E Guasti Rd","City":"Ontario","State":"CA","Zip":"91761"},{"Location":"WAV COMM","Address":"1429 S Cucamonga Ave","City":"Ontario","State":"CA","Zip":"91761"},{"Location":"WESTERN AUTO","Address":"1302 S Wanamaker Ave","City":"Ontario","State":"CA","Zip":"91761"},{"Location":"WH BYERS ROOFING","Address":"202 S Bon View Ave","City":"Ontario","State":"CA","Zip":"91761"},{"Location":"Y AND D RUBBER COMPANY","Address":"1451 S Carlos Ave","City":"Ontario","State":"CA","Zip":"91761"},{"Location":"YUGEN SUSHI","Address":"2550 S Archibald Ave O","City":"Ontario","State":"CA","Zip":"91761"},{"Location":"ZENDEJAS MEXICAN GRILL SEAFOOD","Address":"2440 S Vineyard Ave","City":"Ontario","State":"CA","Zip":"91761"}]