[{"Location":"AMERICAN BUSINESS BANK","Address":"3633 Inland Empire Blvd 720","City":"Ontario","State":"CA","Zip":"91764"},{"Location":"AMERICAN FINANCIAL NETWORK","Address":"3400 Inland Empire Blvd 210","City":"Ontario","State":"CA","Zip":"91764"},{"Location":"AMERIFIRST FINANCIAL","Address":"901 Via Piemonte 150","City":"Ontario","State":"CA","Zip":"91764"},{"Location":"ANGES LANDROMAT II","Address":"1228 E 6th St","City":"Ontario","State":"CA","Zip":"91764"},{"Location":"APPLEBEE'S #2150027","Address":"1021 N Milliken Ave","City":"Ontario","State":"CA","Zip":"91764"},{"Location":"ARA INSURANCE","Address":"3333 Concours 9200","City":"Ontario","State":"CA","Zip":"91764"},{"Location":"B&F SUSHI & BBQ","Address":"3495 E Concours St","City":"Ontario","State":"CA","Zip":"91764"},{"Location":"BAJA FRESH ONTARIO","Address":"929 N Milliken Ave 103","City":"Ontario","State":"CA","Zip":"91764"},{"Location":"BANC OF CALIFORNIA","Address":"3990 Concours 300","City":"Ontario","State":"CA","Zip":"91764"},{"Location":"BENIHANA #1042 ONTARIO INC","Address":"3760 Inland Empire Blvd","City":"Ontario","State":"CA","Zip":"91764"},{"Location":"BERKS AND LEWIS LITGATION LLC","Address":"4686 Ontario Mills Pkwy 100b","City":"Ontario","State":"CA","Zip":"91764"},{"Location":"BIG CATCH","Address":"765 N Milliken Ave C","City":"Ontario","State":"CA","Zip":"91764"},{"Location":"BLUEFIELD ASSOCIATES INC","Address":"1100 N Hellman Ave","City":"Ontario","State":"CA","Zip":"91764"},{"Location":"BROOKVALE INTERNATIONAL","Address":"5540 E 4th St","City":"Ontario","State":"CA","Zip":"91764"},{"Location":"CAPRI","Address":"1355 E 4th St","City":"Ontario","State":"CA","Zip":"91764"},{"Location":"CARDENAS MARKET 29","Address":"1837 E 4th St","City":"Ontario","State":"CA","Zip":"91764"},{"Location":"CARLKARCHER ENTERPRIZES","Address":"1051 Wineville Ave","City":"Ontario","State":"CA","Zip":"91764"},{"Location":"CARMAX #7120","Address":"4100 Inland Empire Blvd","City":"Ontario","State":"CA","Zip":"91764"},{"Location":"CBRE","Address":"4141 Inland Empire Blvd 100","City":"Ontario","State":"CA","Zip":"91764"},{"Location":"CHERRY RANCH LLC","Address":"3595 Inland Empire Blvd 1100","City":"Ontario","State":"CA","Zip":"91764"},{"Location":"CHEVY'S 2472","Address":"4551 Mills Cir","City":"Ontario","State":"CA","Zip":"91764"},{"Location":"CHINA UNICOM AMERICAS OP","Address":"901 Via Piemonte 210","City":"Ontario","State":"CA","Zip":"91764"},{"Location":"CITIZENS BUSINESS BANK","Address":"701 N Haven Ave","City":"Ontario","State":"CA","Zip":"91764"},{"Location":"CITY NATIONAL BANK","Address":"3633 Inland Empire Blvd 100","City":"Ontario","State":"CA","Zip":"91764"},{"Location":"CITY OF ONTARIO","Address":"303 E B St","City":"Ontario","State":"CA","Zip":"91764"},{"Location":"CITY OF ONTARIO-EOC","Address":"200 N Cherry Ave","City":"Ontario","State":"CA","Zip":"91764"},{"Location":"CLINICA DENTAL FAMILIAR SAN JU","Address":"1245 N Grove Ave C","City":"Ontario","State":"CA","Zip":"91764"},{"Location":"COMPASS CB- ONTARIO","Address":"901 Via Piemonte 140","City":"Ontario","State":"CA","Zip":"91764"},{"Location":"CONGRESSWOMAN NORMA TORRES","Address":"3200 Inland Empire Blvd 200b","City":"Ontario","State":"CA","Zip":"91764"},{"Location":"CORNER DELI","Address":"980 Ontario Mills Dr D","City":"Ontario","State":"CA","Zip":"91764"},{"Location":"CROSSROADS CARWASH","Address":"1050 Ontario Mills Dr","City":"Ontario","State":"CA","Zip":"91764"},{"Location":"CUSHMAN & WAKEFIELD","Address":"901 N Via Piemonte St","City":"Ontario","State":"CA","Zip":"91764"},{"Location":"DAPHNES GREEK","Address":"4261 Inland Empire Blvd B101","City":"Ontario","State":"CA","Zip":"91764"},{"Location":"DAVE AND BUSTER'S #10","Address":"4821 Mills Cir H","City":"Ontario","State":"CA","Zip":"91764"},{"Location":"DAVIS GRASS GOLDSTEIN & HOUSOU","Address":"3105 Sedona Ct","City":"Ontario","State":"CA","Zip":"91764"},{"Location":"DCGA ENGINEERS","Address":"4750 Ontario Mills Pkwy","City":"Ontario","State":"CA","Zip":"91764"},{"Location":"DENNY'S RESTAURANT","Address":"502 N Vineyard Ave","City":"Ontario","State":"CA","Zip":"91764"},{"Location":"DOUBLETREE HOTEL","Address":"222 N Vineyard Ave","City":"Ontario","State":"CA","Zip":"91764"},{"Location":"DOUBLETREE HOTEL (0053320)","Address":"222 N Vineyard Ave","City":"Ontario","State":"CA","Zip":"91764"},{"Location":"EL CHILITOS RESTAURANT","Address":"1630 E 4th St Stek","City":"Ontario","State":"CA","Zip":"91764"},{"Location":"EL TORITO 7143","Address":"3680 Inland Empire Blvd","City":"Ontario","State":"CA","Zip":"91764"},{"Location":"FAMILY DISNTISTRY","Address":"1361 E 4th St","City":"Ontario","State":"CA","Zip":"91764"},{"Location":"FANTASTIC SAMS","Address":"4150 E 4th St F","City":"Ontario","State":"CA","Zip":"91764"},{"Location":"FANZZ ONTARIO","Address":"1 Mills Cir","City":"Ontario","State":"CA","Zip":"91764"},{"Location":"FAST LAP 2","Address":"735 N Milliken Ave C","City":"Ontario","State":"CA","Zip":"91764"},{"Location":"FUDDRUCKERS #3701","Address":"4423 Mills Cir","City":"Ontario","State":"CA","Zip":"91764"},{"Location":"FURNITURE FIND INC","Address":"4210 Inland Empire Blvd","City":"Ontario","State":"CA","Zip":"91764"},{"Location":"GAMEWORKS","Address":"4541 Mills Cir","City":"Ontario","State":"CA","Zip":"91764"},{"Location":"HAMPTON INN & SUITES (0054799)","Address":"4500 Mills Cir","City":"Ontario","State":"CA","Zip":"91764"},{"Location":"HAYS OF CA INSURANCE","Address":"3800 Concours 340","City":"Ontario","State":"CA","Zip":"91764"},{"Location":"HC PACIFIC","Address":"5536 Ontario Mills Pkwy","City":"Ontario","State":"CA","Zip":"91764"},{"Location":"HILLWOOD","Address":"901 Via Piemonte 175","City":"Ontario","State":"CA","Zip":"91764"},{"Location":"HILTON ONTARIO AIRPORT","Address":"700 N Haven Ave","City":"Ontario","State":"CA","Zip":"91764"},{"Location":"HMC GROUP","Address":"3546 Concours 1","City":"Ontario","State":"CA","Zip":"91764"},{"Location":"HOLIDAY CAFE","Address":"931 N Milliken Ave","City":"Ontario","State":"CA","Zip":"91764"},{"Location":"HOME DEPOT 5642","Address":"5655 Ontario Mills Pkwy","City":"Ontario","State":"CA","Zip":"91764"},{"Location":"HOOTERS ONTARIO ONT201","Address":"725 N Milliken Ave","City":"Ontario","State":"CA","Zip":"91764"},{"Location":"J AND D CORP DBA MASSAGE ENVY","Address":"4150 E 4th St A","City":"Ontario","State":"CA","Zip":"91764"},{"Location":"JEWTRICE SALON","Address":"3495 Concours Steb","City":"Ontario","State":"CA","Zip":"91764"},{"Location":"K1 SPEED ONTARIO","Address":"5350 Ontario Mills Pkwy","City":"Ontario","State":"CA","Zip":"91764"},{"Location":"KIDS CLUB","Address":"1825 N Vineyard Ave","City":"Ontario","State":"CA","Zip":"91764"},{"Location":"KL DESIGN","Address":"311 Virginia Ave","City":"Ontario","State":"CA","Zip":"91764"},{"Location":"KOHL'S #601","Address":"1051 N Milliken Ave","City":"Ontario","State":"CA","Zip":"91764"},{"Location":"LEE AND ASSOCIATES","Address":"3535 Inland Empire Blvd","City":"Ontario","State":"CA","Zip":"91764"},{"Location":"LIZARRAGA LAWFIRM","Address":"3270 Inland Empire Blvd 120","City":"Ontario","State":"CA","Zip":"91764"},{"Location":"LOL KIDS CLUB","Address":"735 N Milliken Ave A","City":"Ontario","State":"CA","Zip":"91764"},{"Location":"MARIE CALLENDARS PIE SHOPS","Address":"2149 E Convention Center Way","City":"Ontario","State":"CA","Zip":"91764"},{"Location":"MARIO ITALLIAN PIZZA","Address":"1201 N Grove Ave","City":"Ontario","State":"CA","Zip":"91764"},{"Location":"MARISCO BAHIA","Address":"1517 N Baker Ave","City":"Ontario","State":"CA","Zip":"91764"},{"Location":"MARISCOS EL DORADO","Address":"1111 N Grove Ave","City":"Ontario","State":"CA","Zip":"91764"},{"Location":"MARK CHRISTOPER AUTO CENTER","Address":"2131 E Convention Center Way","City":"Ontario","State":"CA","Zip":"91764"},{"Location":"MARK CHRISTOPHER AUTO CENTER","Address":"2131 E Convention Center Way","City":"Ontario","State":"CA","Zip":"91764"},{"Location":"MARTINEZ AND ASSOCIATES","Address":"3400 Inland Empire Blvd 100","City":"Ontario","State":"CA","Zip":"91764"},{"Location":"MATHIS BROTHERS FURNITURE","Address":"4105 Inland Empire Blvd","City":"Ontario","State":"CA","Zip":"91764"},{"Location":"MELLON%2CJOHNSON & REARDON CPA'S","Address":"3270 Inland Empire Blvd","City":"Ontario","State":"CA","Zip":"91764"},{"Location":"MERCY HOUSE","Address":"521 Virginia Ave","City":"Ontario","State":"CA","Zip":"91764"},{"Location":"MERCY HOUSEE","Address":"525 Virginia Ave","City":"Ontario","State":"CA","Zip":"91764"},{"Location":"MERCY HOUSSE","Address":"517 Virginia Ave","City":"Ontario","State":"CA","Zip":"91764"},{"Location":"MERRILL LYNCH CA6-805-01-00","Address":"4141 Inland Empire Blvd","City":"Ontario","State":"CA","Zip":"91764"},{"Location":"METRO MARKETING GROUP","Address":"3174 Sedona Ct","City":"Ontario","State":"CA","Zip":"91764"},{"Location":"MIKEN CONSTRUCTION","Address":"4686 Ontario Mills Pkwy","City":"Ontario","State":"CA","Zip":"91764"},{"Location":"MOMS DONUTS","Address":"1859 N Vineyard Ave","City":"Ontario","State":"CA","Zip":"91764"},{"Location":"NAMMCAL","Address":"3990 Concours 500","City":"Ontario","State":"CA","Zip":"91764"},{"Location":"NATIONAL GENERAL INSURAN","Address":"3800 Concours 200","City":"Ontario","State":"CA","Zip":"91764"},{"Location":"NEIMAN MARCUS 2221","Address":"4758 Mills Cir","City":"Ontario","State":"CA","Zip":"91764"},{"Location":"NEW YORK GRILL","Address":"950 Ontario Mills Dr","City":"Ontario","State":"CA","Zip":"91764"},{"Location":"NIKE INC","Address":"4557 Mills Cir","City":"Ontario","State":"CA","Zip":"91764"},{"Location":"NITES INN","Address":"1801 Eg Street","City":"Ontario","State":"CA","Zip":"91764"},{"Location":"NORDSTOM RACK","Address":"4750 Mills Cir","City":"Ontario","State":"CA","Zip":"91764"},{"Location":"OAKLEY THREE","Address":"990 Barrington Ave","City":"Ontario","State":"CA","Zip":"91764"},{"Location":"OLIVE GARDEN #1579","Address":"4403 Mills Cir","City":"Ontario","State":"CA","Zip":"91764"},{"Location":"ONTARIO CITY HALL","Address":"303 E B St","City":"Ontario","State":"CA","Zip":"91764"},{"Location":"ONTARIO MILLS","Address":"1 Mills Cir 1","City":"Ontario","State":"CA","Zip":"91764"},{"Location":"ONTARIO MILLS 76","Address":"4350 Mills Cir","City":"Ontario","State":"CA","Zip":"91764"},{"Location":"OUTBACK STEAKHOUSE #0584","Address":"4492 Ontario Mills Pkwy","City":"Ontario","State":"CA","Zip":"91764"},{"Location":"OWENS AND MINORS","Address":"5125 Ontario Mills Pkwy","City":"Ontario","State":"CA","Zip":"91764"},{"Location":"PAGE ONE","Address":"215 E C St","City":"Ontario","State":"CA","Zip":"91764"},{"Location":"PHILLYS BEST","Address":"4320 Mills Cir","City":"Ontario","State":"CA","Zip":"91764"},{"Location":"PINNICALE CAPITOL","Address":"3990 Concours 350","City":"Ontario","State":"CA","Zip":"91764"},{"Location":"PRO IMAGE","Address":"1 Mills Cir 525","City":"Ontario","State":"CA","Zip":"91764"},{"Location":"PROFESSIONAL GOLFERS ASSOC","Address":"3333 Concours 2","City":"Ontario","State":"CA","Zip":"91764"},{"Location":"QUADRAMED","Address":"901 Via Piemonte 300","City":"Ontario","State":"CA","Zip":"91764"},{"Location":"R CHOICE MARKET","Address":"959 E 4th St","City":"Ontario","State":"CA","Zip":"91764"},{"Location":"RABOBANK","Address":"3800 Concours 350","City":"Ontario","State":"CA","Zip":"91764"},{"Location":"RAINFOREST CAFE #0463","Address":"4810 Mills Cir","City":"Ontario","State":"CA","Zip":"91764"},{"Location":"RED LOBSTER #6270","Address":"4413 Mills Cir","City":"Ontario","State":"CA","Zip":"91764"},{"Location":"REMAX ELEGANCE","Address":"720 N Archibald Ave","City":"Ontario","State":"CA","Zip":"91764"},{"Location":"ROCKY'S NEW YORK PIZZA","Address":"1919 E 4th St","City":"Ontario","State":"CA","Zip":"91764"},{"Location":"ROSSAS CUCINA","Address":"425 N Vineyard Ave","City":"Ontario","State":"CA","Zip":"91764"},{"Location":"RX TRANSCIPTION AND CODI","Address":"3500 Porsche Way 2nd","City":"Ontario","State":"CA","Zip":"91764"},{"Location":"SHERATON BAR","Address":"429 N Vineyard Ave","City":"Ontario","State":"CA","Zip":"91764"},{"Location":"SOCAL JEWELRY AND LOAN","Address":"1630 E 4th St","City":"Ontario","State":"CA","Zip":"91764"},{"Location":"SPECTATORS","Address":"750 N Archibald Ave B","City":"Ontario","State":"CA","Zip":"91764"},{"Location":"SPIRES RESTAURANT","Address":"104 N Vineyard Ave","City":"Ontario","State":"CA","Zip":"91764"},{"Location":"SPORTS AUTHORITY 778","Address":"4655 Mills Cir","City":"Ontario","State":"CA","Zip":"91764"},{"Location":"TACOS REST","Address":"1821 E 4th St","City":"Ontario","State":"CA","Zip":"91764"},{"Location":"TARGET","Address":"4200 E 4th St","City":"Ontario","State":"CA","Zip":"91764"},{"Location":"TAURIAN BA LLC #1088","Address":"3640 Porsche Way","City":"Ontario","State":"CA","Zip":"91764"},{"Location":"TERIYAKI FLAME BOILER","Address":"929 N Milliken Ave 101","City":"Ontario","State":"CA","Zip":"91764"},{"Location":"THE CORNER PUB","Address":"1257 N Vineyard Ave","City":"Ontario","State":"CA","Zip":"91764"},{"Location":"THE LUXE SEAFOOD & GRIL","Address":"701 N Milliken Ave D","City":"Ontario","State":"CA","Zip":"91764"},{"Location":"THE SHERWIN WILLIAMS COMPANY","Address":"5526 Ontario Mills Pkwy","City":"Ontario","State":"CA","Zip":"91764"},{"Location":"TOKYO WAKO ONTARION INC","Address":"4472 Ontario Mills Pkwy","City":"Ontario","State":"CA","Zip":"91764"},{"Location":"UNIVERSITY OF LA VERNE 1","Address":"320 E D St","City":"Ontario","State":"CA","Zip":"91764"},{"Location":"US HEALTHWORKS MEDICAL GROUP","Address":"3200 Inland Empire Blvd","City":"Ontario","State":"CA","Zip":"91764"},{"Location":"UST","Address":"305 N Sacramento Ave","City":"Ontario","State":"CA","Zip":"91764"},{"Location":"VELVET ROOM","Address":"4323 Mills Cir","City":"Ontario","State":"CA","Zip":"91764"},{"Location":"VEROS CREDIT","Address":"3595 Inland Empire Blvd 1240","City":"Ontario","State":"CA","Zip":"91764"},{"Location":"VESPERTINE HAIR DESIGN","Address":"1050 Ontario Mills Dr","City":"Ontario","State":"CA","Zip":"91764"},{"Location":"VITAMIN WORLD 4908","Address":"1 Mills Cir 309","City":"Ontario","State":"CA","Zip":"91764"},{"Location":"WEDBUSH SECURITY INC","Address":"901 Via Piemonte","City":"Ontario","State":"CA","Zip":"91764"},{"Location":"WELLS FARGO #2","Address":"3800 Concours 220","City":"Ontario","State":"CA","Zip":"91764"},{"Location":"WESTERN STATES DRYWALL","Address":"3250 Shelby St 200","City":"Ontario","State":"CA","Zip":"91764"},{"Location":"WESTWOOD COLLEGE","Address":"2890 Inland Empire Blvd","City":"Ontario","State":"CA","Zip":"91764"},{"Location":"ZIGARI CIGAR HAVEN","Address":"990 Ontario Mills Dr E","City":"Ontario","State":"CA","Zip":"91764"}]