[{"Location":"4 CUTS BEAUTY SALON","Address":"2407 Valley Blvd A5","City":"Pomona","State":"CA","Zip":"91768"},{"Location":"ACE","Address":"672 Fairplex Dr","City":"Pomona","State":"CA","Zip":"91768"},{"Location":"ACS ENTERPRISES","Address":"123 Pacific St","City":"Pomona","State":"CA","Zip":"91768"},{"Location":"AMERICANS RED CROSS","Address":"100 Red Cross Cir","City":"Pomona","State":"CA","Zip":"91768"},{"Location":"ANHEUSER BUSCH","Address":"1101 W Mckinley Ave","City":"Pomona","State":"CA","Zip":"91768"},{"Location":"ANTHONY TORRES DEMOLITION","Address":"1807 Mount Vernon Ave","City":"Pomona","State":"CA","Zip":"91768"},{"Location":"ASI - CAMPUS RECREATION","Address":"3801 W Temple Ave Bld42","City":"Pomona","State":"CA","Zip":"91768"},{"Location":"AUREAS BEAUTY SALON","Address":"488 W Holt Ave","City":"Pomona","State":"CA","Zip":"91768"},{"Location":"CAL POLY POMONA OFFICE","Address":"4105 University Dr","City":"Pomona","State":"CA","Zip":"91768"},{"Location":"CARDENAS MARKET 20","Address":"1645 W Holt Ave","City":"Pomona","State":"CA","Zip":"91768"},{"Location":"COCO  PALMS","Address":"1600 Fairplex Dr","City":"Pomona","State":"CA","Zip":"91768"},{"Location":"CORNUCOPIA FOODS","Address":"2201 N White Ave","City":"Pomona","State":"CA","Zip":"91768"},{"Location":"COUNTRY OAKS","Address":"215 W Pearl St","City":"Pomona","State":"CA","Zip":"91768"},{"Location":"DEVRY UNIVERSITY","Address":"901 Corporate Center Dr","City":"Pomona","State":"CA","Zip":"91768"},{"Location":"DIAZ SERVICE","Address":"488 W Holt Ave 2","City":"Pomona","State":"CA","Zip":"91768"},{"Location":"EL COMPITA SMOG CHECK","Address":"1711 W Holt Ave","City":"Pomona","State":"CA","Zip":"91768"},{"Location":"FORTUNE MANAGEMENT COMPANY","Address":"2883 Surveyor St","City":"Pomona","State":"CA","Zip":"91768"},{"Location":"GREYSTONE INC","Address":"176 Mercury Cir","City":"Pomona","State":"CA","Zip":"91768"},{"Location":"GUASALMEX RESTAURANT","Address":"150 W Holt Ave","City":"Pomona","State":"CA","Zip":"91768"},{"Location":"HAIR PROS BEAUTY SALON","Address":"495 W Holt Ave","City":"Pomona","State":"CA","Zip":"91768"},{"Location":"HAYWARD INDUSTRIES","Address":"2875 Pomona Blvd","City":"Pomona","State":"CA","Zip":"91768"},{"Location":"HEALTH MEDICAL MANAGEMENT INC","Address":"675 N Park Ave","City":"Pomona","State":"CA","Zip":"91768"},{"Location":"HI FI MOBILE HOME PLAZA","Address":"1010 W Holt Ave 8e","City":"Pomona","State":"CA","Zip":"91768"},{"Location":"HOUSE OF RUTH INC","Address":"599 N Main St","City":"Pomona","State":"CA","Zip":"91768"},{"Location":"INNEX","Address":"325 Enterprise Pl","City":"Pomona","State":"CA","Zip":"91768"},{"Location":"INNOVATION BREW WORKS","Address":"3650 W Temple Ave 100a","City":"Pomona","State":"CA","Zip":"91768"},{"Location":"JEFFREY CORRIGAN AND SHAW","Address":"716 Corporate Center Dr","City":"Pomona","State":"CA","Zip":"91768"},{"Location":"KATRINA FOOD INC","Address":"3530 W Temple Ave","City":"Pomona","State":"CA","Zip":"91768"},{"Location":"LANTERMAN DEVELOPMENT","Address":"3530 Pomona Blvd","City":"Pomona","State":"CA","Zip":"91768"},{"Location":"LANTERMAN DEVELOPMENTAL CENTER","Address":"3530 Pomona Blvd","City":"Pomona","State":"CA","Zip":"91768"},{"Location":"LEXMAR","Address":"200 Erie St","City":"Pomona","State":"CA","Zip":"91768"},{"Location":"LF MOTEL MANAGEMENT CORP","Address":"1700 Gillette Rd","City":"Pomona","State":"CA","Zip":"91768"},{"Location":"METCALF INCE","Address":"2690 Pomona Blvd","City":"Pomona","State":"CA","Zip":"91768"},{"Location":"MOUNTAIN MEADOW GOLF COURSE","Address":"1875 Fairplex Dr","City":"Pomona","State":"CA","Zip":"91768"},{"Location":"PANADERIA JALISCO LLC","Address":"2407 Valley Blvd A1","City":"Pomona","State":"CA","Zip":"91768"},{"Location":"PARADISE PACKAGE","Address":"169 Atlantic St","City":"Pomona","State":"CA","Zip":"91768"},{"Location":"PCV MURCOR INC","Address":"740 Corporate Center Dr","City":"Pomona","State":"CA","Zip":"91768"},{"Location":"PEARSON SALES CO","Address":"2303 Mount Vernon Ave","City":"Pomona","State":"CA","Zip":"91768"},{"Location":"POMONA CUSTOMS","Address":"488 W Holt Ave 1","City":"Pomona","State":"CA","Zip":"91768"},{"Location":"POMONA VISTA CARE CENTER","Address":"651 N Main St","City":"Pomona","State":"CA","Zip":"91768"},{"Location":"RAZOR BARBER SHOP","Address":"152 W Holt Ave","City":"Pomona","State":"CA","Zip":"91768"},{"Location":"SCE POMONA INNOVATION","Address":"1 Innovation Way","City":"Pomona","State":"CA","Zip":"91768"},{"Location":"SOUTHERN CALIFORNIA EDISON","Address":"3 Innovation Way","City":"Pomona","State":"CA","Zip":"91768"},{"Location":"SPECIAL EFFECTS","Address":"467 N Main St","City":"Pomona","State":"CA","Zip":"91768"},{"Location":"SUPERIOR DUCT FABRICATION","Address":"1683 Mount Vernon Ave","City":"Pomona","State":"CA","Zip":"91768"},{"Location":"TAQUERIA NEL TRIUNFO","Address":"1565 W Holt Ave 9","City":"Pomona","State":"CA","Zip":"91768"},{"Location":"TEAMSTER JOINT COUNCIL 42","Address":"981 Corporate Center Dr 200","City":"Pomona","State":"CA","Zip":"91768"},{"Location":"THE LEGAL INC","Address":"2851 Pomona Blvd","City":"Pomona","State":"CA","Zip":"91768"},{"Location":"TIJUANA TACOS1","Address":"487 W Holt Ave","City":"Pomona","State":"CA","Zip":"91768"},{"Location":"UNDAGROUND KUSTUMZ","Address":"1723 Club Dr","City":"Pomona","State":"CA","Zip":"91768"},{"Location":"VILLA TOROS RESTAURANT","Address":"1420 W Holt Ave","City":"Pomona","State":"CA","Zip":"91768"}]