[{"Location":"MACHOS","Address":"1245 E. Hold Blvd.","City":"Pomana","State":"CA","Zip":"91767"},{"Location":"AMERICAN FAMILY DENTISTR","Address":"1956 Indian Hill Blvd","City":"Pomona","State":"CA","Zip":"91767"},{"Location":"APEX IMAGING SERVICES","Address":"732 Indigo Ct","City":"Pomona","State":"CA","Zip":"91767"},{"Location":"C.T. NAILS & SPA","Address":"101 E Foothill Blvd 7","City":"Pomona","State":"CA","Zip":"91767"},{"Location":"CALIBER  COLLISION CENTER","Address":"2542 N Towne Ave","City":"Pomona","State":"CA","Zip":"91767"},{"Location":"CARDENAS","Address":"700 E Arrow Hwy","City":"Pomona","State":"CA","Zip":"91767"},{"Location":"CARDENAS MARKET 16","Address":"690 E Holt Ave","City":"Pomona","State":"CA","Zip":"91767"},{"Location":"CASA COLINA HOSPITAL","Address":"255 E Bonita Ave","City":"Pomona","State":"CA","Zip":"91767"},{"Location":"CCC","Address":"219 E Foothill Blvd","City":"Pomona","State":"CA","Zip":"91767"},{"Location":"CENTRESCAPES","Address":"165 Gentry St","City":"Pomona","State":"CA","Zip":"91767"},{"Location":"CHRISTENSEN HEARING CENT","Address":"2055 N Garey Ave Ste 4","City":"Pomona","State":"CA","Zip":"91767"},{"Location":"CLINICA SALUD  AND FAMILIA","Address":"1019 E Holt Ave","City":"Pomona","State":"CA","Zip":"91767"},{"Location":"COCINEROS MEXICAN GRILLE","Address":"700 E. Arrow Hwy.","City":"Pomona","State":"CA","Zip":"91767"},{"Location":"DAVITA #3004 POMONA","Address":"2111 N Garey Ave","City":"Pomona","State":"CA","Zip":"91767"},{"Location":"DAYDAYS BBQ AND WAFFLE HOUSE","Address":"994 E Holt Ave","City":"Pomona","State":"CA","Zip":"91767"},{"Location":"DE LOPEZ LAURA DENTAL CORP","Address":"1320 N Garey Ave","City":"Pomona","State":"CA","Zip":"91767"},{"Location":"DISCO MANIA","Address":"1600 E Holt Ave I16","City":"Pomona","State":"CA","Zip":"91767"},{"Location":"DR GILLS FAMILY DENTISTRY","Address":"722 E Arrow Hwy","City":"Pomona","State":"CA","Zip":"91767"},{"Location":"EGGLESTON YOUTH CENTER","Address":"215 W La Verne Ave","City":"Pomona","State":"CA","Zip":"91767"},{"Location":"FMC 71820000","Address":"150 E Arrow Hwy","City":"Pomona","State":"CA","Zip":"91767"},{"Location":"FRIAR TRUCKS BAR & GRILL","Address":"540 E Foothill Blvd","City":"Pomona","State":"CA","Zip":"91767"},{"Location":"GNC AIR CONDITION","Address":"160 E Holt Ave A","City":"Pomona","State":"CA","Zip":"91767"},{"Location":"GROOM TIME","Address":"924 E Holt Ave","City":"Pomona","State":"CA","Zip":"91767"},{"Location":"GROVE FAMILY DENTAL","Address":"3167 N Garey Ave","City":"Pomona","State":"CA","Zip":"91767"},{"Location":"HALIK","Address":"3161 N Garey Ave","City":"Pomona","State":"CA","Zip":"91767"},{"Location":"HEADSPRUNG BARBER","Address":"3157 N Garey Ave","City":"Pomona","State":"CA","Zip":"91767"},{"Location":"HI BROW","Address":"547 E Foothill Blvd","City":"Pomona","State":"CA","Zip":"91767"},{"Location":"HOWARD ROOFING CO INC","Address":"245 N Mountain View Ave","City":"Pomona","State":"CA","Zip":"91767"},{"Location":"HW LLC","Address":"858 N Garey Ave","City":"Pomona","State":"CA","Zip":"91767"},{"Location":"JIFFY LUBE 1200","Address":"2880 N Garey Ave","City":"Pomona","State":"CA","Zip":"91767"},{"Location":"JIMMY'S LOUNGE","Address":"640 E Holt Ave","City":"Pomona","State":"CA","Zip":"91767"},{"Location":"KISHI JAPANESE RESTAURANT","Address":"320 W Foothill Blvd","City":"Pomona","State":"CA","Zip":"91767"},{"Location":"L&M FLOORING","Address":"2197 Larchmont St","City":"Pomona","State":"CA","Zip":"91767"},{"Location":"LDR NEUROSURGERY GROUP","Address":"255 E Bonita Ave 9","City":"Pomona","State":"CA","Zip":"91767"},{"Location":"LEE WIDODO & ZHANG","Address":"1532 San Bernardino Ave A1","City":"Pomona","State":"CA","Zip":"91767"},{"Location":"LEGION POST30","Address":"239 E Holt Ave","City":"Pomona","State":"CA","Zip":"91767"},{"Location":"LOS JARRITOS","Address":"3191 N Garey Ave","City":"Pomona","State":"CA","Zip":"91767"},{"Location":"MESHIE HAIR SALON","Address":"724 N Garey Ave","City":"Pomona","State":"CA","Zip":"91767"},{"Location":"MILLENNIUM BIO MEDICAL","Address":"360 E Bonita Ave","City":"Pomona","State":"CA","Zip":"91767"},{"Location":"PHO HA VIETNAMESE RESTAU","Address":"695 Indian Hill Blvd","City":"Pomona","State":"CA","Zip":"91767"},{"Location":"POMONA PRIME CHIROPRACTIC","Address":"3165 N Garey Ave","City":"Pomona","State":"CA","Zip":"91767"},{"Location":"POMONA VALLEY HOSPITAL","Address":"1798 N Garey Ave","City":"Pomona","State":"CA","Zip":"91767"},{"Location":"REHAB SUPPORT SYSTEMS","Address":"2811 Metropolitan Pl","City":"Pomona","State":"CA","Zip":"91767"},{"Location":"RETRO FIRNESS","Address":"675 E Foothill Blvd","City":"Pomona","State":"CA","Zip":"91767"},{"Location":"RIES REFRIGERATION","Address":"1200 Price Ave C","City":"Pomona","State":"CA","Zip":"91767"},{"Location":"RYAN MANOR TRANSITIONAL HOUSIN","Address":"604 Verde Vista Ave","City":"Pomona","State":"CA","Zip":"91767"},{"Location":"SANTA FE OUTLETS","Address":"896 E Holt Ave","City":"Pomona","State":"CA","Zip":"91767"},{"Location":"SCRRA %2F METROLINK","Address":"2558 Supply St","City":"Pomona","State":"CA","Zip":"91767"},{"Location":"STEPHAN'S PHYSICAL THERAPY","Address":"1900 Royalty Dr 160","City":"Pomona","State":"CA","Zip":"91767"},{"Location":"TAURO AUTO SALES","Address":"1681 E Holt Ave","City":"Pomona","State":"CA","Zip":"91767"},{"Location":"UNISTAR INC","Address":"128 N Gibbs St","City":"Pomona","State":"CA","Zip":"91767"},{"Location":"URBIN TRENDS","Address":"720 E Arrow Hwy","City":"Pomona","State":"CA","Zip":"91767"},{"Location":"VALENTINOS PIZZA","Address":"644 E Arrow Hwy","City":"Pomona","State":"CA","Zip":"91767"},{"Location":"VICS PORTABLE MACHINING INC","Address":"159 N East End Ave","City":"Pomona","State":"CA","Zip":"91767"},{"Location":"VOLUNTEERS OF AMERICA","Address":"2040 N Garey Ave","City":"Pomona","State":"CA","Zip":"91767"},{"Location":"WINGSTOP","Address":"756 E Arrow Hwy","City":"Pomona","State":"CA","Zip":"91767"},{"Location":"YMCA OF POMONA VALLEY","Address":"1460 E Holt Ave 196","City":"Pomona","State":"CA","Zip":"91767"},{"Location":"YVONNE SHU DDS INC","Address":"1640 Indian Hill Blvd Apt","City":"Pomona","State":"CA","Zip":"91767"},{"Location":"ZAMORA SERVICES","Address":"942 E Holt Ave","City":"Pomona","State":"CA","Zip":"91767"}]