[{"Location":"GRIFFITH COMPANY","Address":"4756 W Mission Blvd","City":"Montclair","State":"CA","Zip":"91762"},{"Location":"VALLEY DEPARTMENT STORE","Address":"245 N Euclid Ave","City":"Montclair","State":"CA","Zip":"91762"},{"Location":"86D SPORTS LOUNGE","Address":"1045 W Philadelphia St","City":"Ontario","State":"CA","Zip":"91762"},{"Location":"AC TIRE 1","Address":"301 W California St","City":"Ontario","State":"CA","Zip":"91762"},{"Location":"ARIA CUISINE","Address":"112 W B St","City":"Ontario","State":"CA","Zip":"91762"},{"Location":"B AND B JAZZ CAFE","Address":"1133 W 6th St","City":"Ontario","State":"CA","Zip":"91762"},{"Location":"BIG W BARBER SHOP","Address":"2209 S Mountain Ave","City":"Ontario","State":"CA","Zip":"91762"},{"Location":"BOILING CRABS AND CRAWFISH","Address":"612 N Euclid Ave","City":"Ontario","State":"CA","Zip":"91762"},{"Location":"BRIAN FITZGAROLD","Address":"1113 W Holt Blvd","City":"Ontario","State":"CA","Zip":"91762"},{"Location":"BROTHERS BURGERS","Address":"843 N Mountain Ave","City":"Ontario","State":"CA","Zip":"91762"},{"Location":"CADAE LLC","Address":"415 W Main St","City":"Ontario","State":"CA","Zip":"91762"},{"Location":"CARDENAS MARKET 3","Address":"1848 S Euclid Ave","City":"Ontario","State":"CA","Zip":"91762"},{"Location":"CASA JIMENEZ","Address":"1520 N Mountain Ave","City":"Ontario","State":"CA","Zip":"91762"},{"Location":"CHINO VALLEY TRUCK WASH","Address":"14411 Euclid Ave","City":"Ontario","State":"CA","Zip":"91762"},{"Location":"COLDWELL PRIEMER REALTOR","Address":"537 N Euclid Ave","City":"Ontario","State":"CA","Zip":"91762"},{"Location":"D BIG SHOT","Address":"2507 S Euclid Ave","City":"Ontario","State":"CA","Zip":"91762"},{"Location":"D L NITTLER CONSTRUCTION","Address":"1365 Brooks St 11","City":"Ontario","State":"CA","Zip":"91762"},{"Location":"DANIEL DUROSEAU DDS INC","Address":"126 W B St 2d","City":"Ontario","State":"CA","Zip":"91762"},{"Location":"DEVINE","Address":"10749 Rose Ave","City":"Ontario","State":"CA","Zip":"91762"},{"Location":"DIMENSIONS HAIR","Address":"2260 S Mountain Ave","City":"Ontario","State":"CA","Zip":"91762"},{"Location":"EAF INSURANCE SERVICES","Address":"746 N Mountain Ave","City":"Ontario","State":"CA","Zip":"91762"},{"Location":"EL CHILITO MEXICAN RESTAURANT","Address":"2905 S. Euclid Ave. A","City":"Ontario","State":"CA","Zip":"91762"},{"Location":"EL PESCADOR ONTARIO","Address":"2322 S Mountain Ave","City":"Ontario","State":"CA","Zip":"91762"},{"Location":"EL PESCADOR RESTAURANT","Address":"636 N Euclid Ave","City":"Ontario","State":"CA","Zip":"91762"},{"Location":"FAMILY DENTAL CLINIC","Address":"1051 N Mountain Ave","City":"Ontario","State":"CA","Zip":"91762"},{"Location":"FAMILYRESTAURANT SKILLET","Address":"805 N Euclid Ave","City":"Ontario","State":"CA","Zip":"91762"},{"Location":"FANTASTIC SAMS","Address":"1036 N Mountain Ave","City":"Ontario","State":"CA","Zip":"91762"},{"Location":"FIRST MORTGAGE CORP","Address":"1131 W 6th St 300","City":"Ontario","State":"CA","Zip":"91762"},{"Location":"FRATERNAL ORDER OF EAGLE","Address":"218 W Holt Blvd","City":"Ontario","State":"CA","Zip":"91762"},{"Location":"GIOVANNIS PIZZA","Address":"2254 S Euclid Ave B","City":"Ontario","State":"CA","Zip":"91762"},{"Location":"JENNYS PUPUSERIA","Address":"741 W Holt Blvd","City":"Ontario","State":"CA","Zip":"91762"},{"Location":"JR DISTRIBUTOR INTERNATIONAL","Address":"1229 W State St","City":"Ontario","State":"CA","Zip":"91762"},{"Location":"LA BOTANA","Address":"885 S Mountain Ave","City":"Ontario","State":"CA","Zip":"91762"},{"Location":"LAS PALMAS TAQUERIA","Address":"1119 N Mountain Ave","City":"Ontario","State":"CA","Zip":"91762"},{"Location":"LIL RAYS BARBER SHOP","Address":"1256 W Mission Blvd","City":"Ontario","State":"CA","Zip":"91762"},{"Location":"LUCYS BARBER SHOP","Address":"715 Euclid Ave","City":"Ontario","State":"CA","Zip":"91762"},{"Location":"MEINEKE ECONAL LUBE AND TUNE","Address":"1100 West Hope","City":"Ontario","State":"CA","Zip":"91762"},{"Location":"MICHAEL ANGELO'S PIZZARIA","Address":"2467 S Euclid Ave","City":"Ontario","State":"CA","Zip":"91762"},{"Location":"MISSON JEWELRY AND LOAN","Address":"5138 W Mission Blvd C","City":"Ontario","State":"CA","Zip":"91762"},{"Location":"NATIONS SURGERY CENTER","Address":"1211 W 6th St","City":"Ontario","State":"CA","Zip":"91762"},{"Location":"NORTHSTAR REALTY FIRM","Address":"404 N Euclid Ave","City":"Ontario","State":"CA","Zip":"91762"},{"Location":"ON TAP BARBERSHOP","Address":"1520 N Mountain Ave 124","City":"Ontario","State":"CA","Zip":"91762"},{"Location":"PLAYAS DEL SOL","Address":"1542 W Holt Blvd","City":"Ontario","State":"CA","Zip":"91762"},{"Location":"PLAYERS LOUNGE LLC","Address":"11001 S Central Ave","City":"Ontario","State":"CA","Zip":"91762"},{"Location":"RAMONA TIRES","Address":"2451 S Euclid Ave","City":"Ontario","State":"CA","Zip":"91762"},{"Location":"RESTAURANT ENRIQUES","Address":"812 S Mountain Ave","City":"Ontario","State":"CA","Zip":"91762"},{"Location":"REYESBOOKKEEPINGANDINCOMETAX","Address":"931 W Holt Blvd C","City":"Ontario","State":"CA","Zip":"91762"},{"Location":"ROUND TABLE PIZZA 2","Address":"1020 N Mountain Ave","City":"Ontario","State":"CA","Zip":"91762"},{"Location":"SALPICON SALVADORAN RESTAURANT","Address":"2252 S Euclid Ave G","City":"Ontario","State":"CA","Zip":"91762"},{"Location":"SALTWATER SPECIALTIES","Address":"604 S Palmetto Ave","City":"Ontario","State":"CA","Zip":"91762"},{"Location":"SAMUEL CROWE AND ASSOCIATES","Address":"1131 W 6th St 100","City":"Ontario","State":"CA","Zip":"91762"},{"Location":"SECOYA MARKET","Address":"426 N Euclid Ave","City":"Ontario","State":"CA","Zip":"91762"},{"Location":"SPECTRUM DENTAL ARTS","Address":"1049 W Philadelphia St","City":"Ontario","State":"CA","Zip":"91762"},{"Location":"ST GEORGE AUTO SALES","Address":"1113 W Holt Blvd","City":"Ontario","State":"CA","Zip":"91762"},{"Location":"SURETECK IND COM SERV INC","Address":"10742 S Central Ave","City":"Ontario","State":"CA","Zip":"91762"},{"Location":"TAQUERIA LOS MAGUEYES","Address":"105 N Euclid Ave","City":"Ontario","State":"CA","Zip":"91762"},{"Location":"THE 4TH FLOOR","Address":"1131 W 6th St 255","City":"Ontario","State":"CA","Zip":"91762"},{"Location":"THE GRINDER HAVEN","Address":"724 W Holt Blvd","City":"Ontario","State":"CA","Zip":"91762"},{"Location":"THE LO DOWN SMOKE SHOP","Address":"225 W B St","City":"Ontario","State":"CA","Zip":"91762"},{"Location":"TIJUANAS TACOS","Address":"1702 S Euclid Ave","City":"Ontario","State":"CA","Zip":"91762"},{"Location":"TORTAS SENALOA","Address":"2252 S Euclid Ave","City":"Ontario","State":"CA","Zip":"91762"},{"Location":"TORTAS SINALOA I","Address":"2252 S Euclid Ave C","City":"Ontario","State":"CA","Zip":"91762"},{"Location":"UNITED TERRAZZO","Address":"620 Magnolia Ave A","City":"Ontario","State":"CA","Zip":"91762"},{"Location":"US BANK","Address":"333 N Euclid Ave","City":"Ontario","State":"CA","Zip":"91762"},{"Location":"VAPING","Address":"2211 S Mountain Ave","City":"Ontario","State":"CA","Zip":"91762"},{"Location":"WINGNUTS #3","Address":"1520 N Mountain Ave","City":"Ontario","State":"CA","Zip":"91762"},{"Location":"WOODYS BAR AND GRILL","Address":"1528 W Holt Blvd","City":"Ontario","State":"CA","Zip":"91762"},{"Location":"DYNAMIC TOWING","Address":"10741 Central Pl","City":"Ontrio","State":"CA","Zip":"91762"},{"Location":"GRIFFITH COMPANY","Address":"4756 W Mission Blvd","City":"Montclair","State":"CA","Zip":"91762"},{"Location":"VALLEY DEPARTMENT STORE","Address":"245 N Euclid Ave","City":"Montclair","State":"CA","Zip":"91762"},{"Location":"86D SPORTS LOUNGE","Address":"1045 W Philadelphia St","City":"Ontario","State":"CA","Zip":"91762"},{"Location":"AC TIRE 1","Address":"301 W California St","City":"Ontario","State":"CA","Zip":"91762"},{"Location":"B AND B JAZZ CAFE","Address":"1133 W 6th St","City":"Ontario","State":"CA","Zip":"91762"},{"Location":"BIG W BARBER SHOP","Address":"2209 S Mountain Ave","City":"Ontario","State":"CA","Zip":"91762"},{"Location":"BOILING CRABS AND CRAWFISH","Address":"612 N Euclid Ave","City":"Ontario","State":"CA","Zip":"91762"},{"Location":"BRIAN FITZGAROLD","Address":"1113 W Holt Blvd","City":"Ontario","State":"CA","Zip":"91762"},{"Location":"BROTHERS BURGERS","Address":"843 N Mountain Ave","City":"Ontario","State":"CA","Zip":"91762"},{"Location":"CADAE LLC","Address":"415 W Main St","City":"Ontario","State":"CA","Zip":"91762"},{"Location":"CARDENAS MARKET 3","Address":"1848 S Euclid Ave","City":"Ontario","State":"CA","Zip":"91762"},{"Location":"CASA JIMENEZ","Address":"1520 N Mountain Ave","City":"Ontario","State":"CA","Zip":"91762"},{"Location":"CHINO VALLEY TRUCK WASH","Address":"14411 Euclid Ave","City":"Ontario","State":"CA","Zip":"91762"},{"Location":"COLDWELL PRIEMER REALTOR","Address":"537 N Euclid Ave","City":"Ontario","State":"CA","Zip":"91762"},{"Location":"D BIG SHOT","Address":"2507 S Euclid Ave","City":"Ontario","State":"CA","Zip":"91762"},{"Location":"D L NITTLER CONSTRUCTION","Address":"1365 Brooks St 11","City":"Ontario","State":"CA","Zip":"91762"},{"Location":"DANIEL DUROSEAU DDS INC","Address":"126 W B St 2d","City":"Ontario","State":"CA","Zip":"91762"},{"Location":"DEVINE","Address":"10749 Rose Ave","City":"Ontario","State":"CA","Zip":"91762"},{"Location":"DIMENSIONS HAIR","Address":"2260 S Mountain Ave","City":"Ontario","State":"CA","Zip":"91762"},{"Location":"EAF INSURANCE SERVICES","Address":"746 N Mountain Ave","City":"Ontario","State":"CA","Zip":"91762"},{"Location":"El Chilito Mexican Restaurant","Address":"2905 S. Euclid Ave. A","City":"Ontario","State":"CA","Zip":"91762"},{"Location":"EL PESCADOR ONTARIO","Address":"2322 S Mountain Ave","City":"Ontario","State":"CA","Zip":"91762"},{"Location":"EL PESCADOR RESTAURANT","Address":"636 N Euclid Ave","City":"Ontario","State":"CA","Zip":"91762"},{"Location":"FAMILY DENTAL CLINIC","Address":"1051 N Mountain Ave","City":"Ontario","State":"CA","Zip":"91762"},{"Location":"FAMILYRESTAURANT SKILLET","Address":"805 N Euclid Ave","City":"Ontario","State":"CA","Zip":"91762"},{"Location":"FANTASTIC SAMS","Address":"1036 N Mountain Ave","City":"Ontario","State":"CA","Zip":"91762"},{"Location":"FIRST MORTGAGE CORP","Address":"1131 W 6th St 300","City":"Ontario","State":"CA","Zip":"91762"},{"Location":"FRATERNAL ORDER OF EAGLE","Address":"218 W Holt Blvd","City":"Ontario","State":"CA","Zip":"91762"},{"Location":"GIOVANNIS PIZZA","Address":"2254 S Euclid Ave B","City":"Ontario","State":"CA","Zip":"91762"},{"Location":"JENNYS PUPUSERIA","Address":"741 W Holt Blvd","City":"Ontario","State":"CA","Zip":"91762"},{"Location":"JR DISTRIBUTOR INTERNATIONAL","Address":"1229 W State St","City":"Ontario","State":"CA","Zip":"91762"},{"Location":"LA BOTANA","Address":"885 S Mountain Ave","City":"Ontario","State":"CA","Zip":"91762"},{"Location":"LAS PALMAS TAQUERIA","Address":"1119 N Mountain Ave","City":"Ontario","State":"CA","Zip":"91762"},{"Location":"LIL RAYS BARBER SHOP","Address":"1256 W Mission Blvd","City":"Ontario","State":"CA","Zip":"91762"},{"Location":"LUCYS BARBER SHOP","Address":"715 Euclid Ave","City":"Ontario","State":"CA","Zip":"91762"},{"Location":"MEINEKE ECONAL LUBE AND TUNE","Address":"1100 West Hope","City":"Ontario","State":"CA","Zip":"91762"},{"Location":"MICHAEL ANGELO'S PIZZARIA","Address":"2467 S Euclid Ave","City":"Ontario","State":"CA","Zip":"91762"},{"Location":"MISSON JEWELRY AND LOAN","Address":"5138 W Mission Blvd C","City":"Ontario","State":"CA","Zip":"91762"},{"Location":"NATIONS SURGERY CENTER","Address":"1211 W 6th St","City":"Ontario","State":"CA","Zip":"91762"},{"Location":"NORTHSTAR REALTY FIRM","Address":"404 N Euclid Ave","City":"Ontario","State":"CA","Zip":"91762"},{"Location":"ON TAP BARBERSHOP","Address":"1520 N Mountain Ave 124","City":"Ontario","State":"CA","Zip":"91762"},{"Location":"PLAYAS DEL SOL","Address":"1542 W Holt Blvd","City":"Ontario","State":"CA","Zip":"91762"},{"Location":"PLAYERS LOUNGE LLC","Address":"11001 S Central Ave","City":"Ontario","State":"CA","Zip":"91762"},{"Location":"RAMONA TIRES","Address":"2451 S Euclid Ave","City":"Ontario","State":"CA","Zip":"91762"},{"Location":"RESTAURANT ENRIQUES","Address":"812 S Mountain Ave","City":"Ontario","State":"CA","Zip":"91762"},{"Location":"REYESBOOKKEEPINGANDINCOMETAX","Address":"931 W Holt Blvd C","City":"Ontario","State":"CA","Zip":"91762"},{"Location":"ROUND TABLE PIZZA 2","Address":"1020 N Mountain Ave","City":"Ontario","State":"CA","Zip":"91762"},{"Location":"SALPICON SALVADORAN RESTAURANT","Address":"2252 S Euclid Ave G","City":"Ontario","State":"CA","Zip":"91762"},{"Location":"SALTWATER SPECIALTIES","Address":"604 S Palmetto Ave","City":"Ontario","State":"CA","Zip":"91762"},{"Location":"SAMUEL CROWE AND ASSOCIATES","Address":"1131 W 6th St 100","City":"Ontario","State":"CA","Zip":"91762"},{"Location":"SECOYA MARKET","Address":"426 N Euclid Ave","City":"Ontario","State":"CA","Zip":"91762"},{"Location":"SPECTRUM DENTAL ARTS","Address":"1049 W Philadelphia St","City":"Ontario","State":"CA","Zip":"91762"},{"Location":"ST GEORGE AUTO SALES","Address":"1113 W Holt Blvd","City":"Ontario","State":"CA","Zip":"91762"},{"Location":"SURETECK IND COM SERV INC","Address":"10742 S Central Ave","City":"Ontario","State":"CA","Zip":"91762"},{"Location":"TAQUERIA LOS MAGUEYES","Address":"105 N Euclid Ave","City":"Ontario","State":"CA","Zip":"91762"},{"Location":"THE 4TH FLOOR","Address":"1131 W 6th St 255","City":"Ontario","State":"CA","Zip":"91762"},{"Location":"THE GRINDER HAVEN","Address":"724 W Holt Blvd","City":"Ontario","State":"CA","Zip":"91762"},{"Location":"THE LO DOWN SMOKE SHOP","Address":"225 W B St","City":"Ontario","State":"CA","Zip":"91762"},{"Location":"TIJUANAS TACOS","Address":"1702 S Euclid Ave","City":"Ontario","State":"CA","Zip":"91762"},{"Location":"TORTAS SENALOA","Address":"2252 S Euclid Ave","City":"Ontario","State":"CA","Zip":"91762"},{"Location":"TORTAS SINALOA I","Address":"2252 S Euclid Ave C","City":"Ontario","State":"CA","Zip":"91762"},{"Location":"UNITED TERRAZZO","Address":"620 Magnolia Ave A","City":"Ontario","State":"CA","Zip":"91762"},{"Location":"US BANK","Address":"333 N Euclid Ave","City":"Ontario","State":"CA","Zip":"91762"},{"Location":"VAPING","Address":"2211 S Mountain Ave","City":"Ontario","State":"CA","Zip":"91762"},{"Location":"WINGNUTS #3","Address":"1520 N Mountain Ave","City":"Ontario","State":"CA","Zip":"91762"},{"Location":"WOODYS BAR AND GRILL","Address":"1528 W Holt Blvd","City":"Ontario","State":"CA","Zip":"91762"},{"Location":"DYNAMIC TOWING","Address":"10741 Central Pl","City":"Ontrio","State":"CA","Zip":"91762"}]