[{"Location":"24 HOUR FITNESS #901","Address":"9790 Central Ave","City":"Montclair","State":"CA","Zip":"91763"},{"Location":"A PLUS DENTIST","Address":"4712 Brooks St","City":"Montclair","State":"CA","Zip":"91763"},{"Location":"ACAPULCO RESTAURANT #46","Address":"9405 Monte Vista Ave","City":"Montclair","State":"CA","Zip":"91763"},{"Location":"ACEPEX MANAGEMENT CORP","Address":"10643 Mills Ave","City":"Montclair","State":"CA","Zip":"91763"},{"Location":"ADVANCE CAR STEREO","Address":"8945 Central Ave","City":"Montclair","State":"CA","Zip":"91763"},{"Location":"AMERICAN DENTAL","Address":"4380 Holt Blvd E","City":"Montclair","State":"CA","Zip":"91763"},{"Location":"ANDYS AUTO REPAIR","Address":"5334 Holt Blvd C","City":"Montclair","State":"CA","Zip":"91763"},{"Location":"APPLEBEE'S MONTCLAIR #9227","Address":"9241 Monte Vista Ave","City":"Montclair","State":"CA","Zip":"91763"},{"Location":"AVANS CELLULAR SOLUTIONS","Address":"4545 Mission Blvd B","City":"Montclair","State":"CA","Zip":"91763"},{"Location":"AVS MONTORING","Address":"4017 Holt Blvd","City":"Montclair","State":"CA","Zip":"91763"},{"Location":"CAFE MODERNO","Address":"9197 Central Ave J","City":"Montclair","State":"CA","Zip":"91763"},{"Location":"CAFE NHO","Address":"4380 Holt Blvd J","City":"Montclair","State":"CA","Zip":"91763"},{"Location":"CAST METAL","Address":"5621 State St","City":"Montclair","State":"CA","Zip":"91763"},{"Location":"CENTRAL MEDICAL CLINIC","Address":"9880 Central Ave","City":"Montclair","State":"CA","Zip":"91763"},{"Location":"CHILI'S #1056","Address":"9393 Monte Vista Ave","City":"Montclair","State":"CA","Zip":"91763"},{"Location":"CL & YJ%2C INC","Address":"10410 Ramona Ave","City":"Montclair","State":"CA","Zip":"91763"},{"Location":"CONCEPT MARINE","Address":"4731 Arrow Hwy B","City":"Montclair","State":"CA","Zip":"91763"},{"Location":"COSTCO","Address":"9404 Central Avenue","City":"Montclair","State":"CA","Zip":"91763"},{"Location":"CULICHITOWN CORP","Address":"5461 Holt Blvd G","City":"Montclair","State":"CA","Zip":"91763"},{"Location":"CUSTOM CANVAS CO","Address":"5482 Arrow Hwy A","City":"Montclair","State":"CA","Zip":"91763"},{"Location":"DAVITA #436-1C MONTCLAIR","Address":"9140 Monte Vista Ave","City":"Montclair","State":"CA","Zip":"91763"},{"Location":"DOCTOR'S HOSPITAL MEDICAL CTR","Address":"5000 San Bernardino St","City":"Montclair","State":"CA","Zip":"91763"},{"Location":"DON JOSE MEX REST","Address":"8950 Central Ave","City":"Montclair","State":"CA","Zip":"91763"},{"Location":"DRAGON 99","Address":"9335 Monte Vista Ave","City":"Montclair","State":"CA","Zip":"91763"},{"Location":"ELEPHANT BAR MONTCLAIR","Address":"4949 S Montclair Plaza Ln","City":"Montclair","State":"CA","Zip":"91763"},{"Location":"EMILY LING DDS","Address":"9197 Central Ave C","City":"Montclair","State":"CA","Zip":"91763"},{"Location":"ESI INSURANCE","Address":"9738 Central Ave","City":"Montclair","State":"CA","Zip":"91763"},{"Location":"EXPO POWER SYSTEMS","Address":"5534 Olive St","City":"Montclair","State":"CA","Zip":"91763"},{"Location":"FINISH LINE MOTOR SPORTS","Address":"5199 Brooks St C","City":"Montclair","State":"CA","Zip":"91763"},{"Location":"FIRESTONE #015768","Address":"9201 Central Ave","City":"Montclair","State":"CA","Zip":"91763"},{"Location":"GOODYEAR 8654","Address":"8915 Central Ave","City":"Montclair","State":"CA","Zip":"91763"},{"Location":"HABANEROS MEXICAN FOOD","Address":"5474 Moreno St","City":"Montclair","State":"CA","Zip":"91763"},{"Location":"HAMPTON TEDDER ELECTRIC","Address":"4571 State St","City":"Montclair","State":"CA","Zip":"91763"},{"Location":"INDUSTRIAL WASTE UTILIZATION","Address":"5601 State St","City":"Montclair","State":"CA","Zip":"91763"},{"Location":"INFINITI OF MONTCLAIR","Address":"9440 Autoplex St","City":"Montclair","State":"CA","Zip":"91763"},{"Location":"J A FAST DMV SERVICE","Address":"4238 Mission Blvd","City":"Montclair","State":"CA","Zip":"91763"},{"Location":"JOHN'S INCREDIBLE PIZZA","Address":"5280 Arrow Hwy","City":"Montclair","State":"CA","Zip":"91763"},{"Location":"JOSE ROCHA","Address":"5466 Moreno St","City":"Montclair","State":"CA","Zip":"91763"},{"Location":"LA FITNESS #06127","Address":"9385 Monte Vista Ave","City":"Montclair","State":"CA","Zip":"91763"},{"Location":"LACOSTA AUTO SALES","Address":"4290 Holt Blvd","City":"Montclair","State":"CA","Zip":"91763"},{"Location":"LARRYS BURGERS","Address":"4370 Holt Blvd","City":"Montclair","State":"CA","Zip":"91763"},{"Location":"LIVING  INC","Address":"10555 Mills Ave","City":"Montclair","State":"CA","Zip":"91763"},{"Location":"MACY'S WEST 486","Address":"5000 E Montclair Plaza Ln","City":"Montclair","State":"CA","Zip":"91763"},{"Location":"MACY'S WEST 486","Address":"5200 Montclair Plaza Lane","City":"Montclair","State":"CA","Zip":"91763"},{"Location":"MEN'S WEARHOUSE #2718","Address":"9177 Central Ave A","City":"Montclair","State":"CA","Zip":"91763"},{"Location":"METRO ACURA","Address":"9377 Autoplex St","City":"Montclair","State":"CA","Zip":"91763"},{"Location":"MONTCLAIR CARE CENTER","Address":"5119 Bandera St","City":"Montclair","State":"CA","Zip":"91763"},{"Location":"MONTCLAIR CORP FITNESS INC","Address":"5150 Moreno St","City":"Montclair","State":"CA","Zip":"91763"},{"Location":"MONTE VISTA PHARMACY","Address":"9635 Monte Vista Ave","City":"Montclair","State":"CA","Zip":"91763"},{"Location":"MONTEREY MANOR","Address":"11250 Ramona Ave","City":"Montclair","State":"CA","Zip":"91763"},{"Location":"MOUNTAINVIEW TIRE","Address":"5200 Mountclair Plaza Ln","City":"Montclair","State":"CA","Zip":"91763"},{"Location":"NORDSTROM","Address":"5015 E Montclair Plaza Ln","City":"Montclair","State":"CA","Zip":"91763"},{"Location":"OMNI    TRANS","Address":"4748 Arrow Hwy","City":"Montclair","State":"CA","Zip":"91763"},{"Location":"OUR LADY OF LORDS","Address":"10191 Central Ave","City":"Montclair","State":"CA","Zip":"91763"},{"Location":"PATEL%2C AMIEL R DDS INC","Address":"4921 Moreno St","City":"Montclair","State":"CA","Zip":"91763"},{"Location":"PLATINUM INCOME TAX SERVICES","Address":"4545 Mission Blvd F","City":"Montclair","State":"CA","Zip":"91763"},{"Location":"PRIMETIME REALTY","Address":"9876 Central Ave","City":"Montclair","State":"CA","Zip":"91763"},{"Location":"RED LOBSTER #0529","Address":"9345 Monte Vista Ave","City":"Montclair","State":"CA","Zip":"91763"},{"Location":"ROBERT HABBESTAD M.D.","Address":"9645 Monte Vista Ave 301","City":"Montclair","State":"CA","Zip":"91763"},{"Location":"ROCCO'S PIZZERIA","Address":"4913 Moreno St","City":"Montclair","State":"CA","Zip":"91763"},{"Location":"ROCKY'S PIZZERIA","Address":"4990 Holt Blvd","City":"Montclair","State":"CA","Zip":"91763"},{"Location":"ROJAS PARTY SUPPLY","Address":"9680 Central Ave B","City":"Montclair","State":"CA","Zip":"91763"},{"Location":"ROSEAUTOCLINIC AND RV REPAIR","Address":"5657 Holt Blvd","City":"Montclair","State":"CA","Zip":"91763"},{"Location":"RUMBLE FISH","Address":"5470 Moreno St B","City":"Montclair","State":"CA","Zip":"91763"},{"Location":"SABOR LATINO GRILL","Address":"10285 Central Ave","City":"Montclair","State":"CA","Zip":"91763"},{"Location":"SCHRADERS MEDICAL SUPPLY","Address":"5507 Brooks St","City":"Montclair","State":"CA","Zip":"91763"},{"Location":"SCOOTERS AUTO SERVICE","Address":"5601 Arrow Hwy A","City":"Montclair","State":"CA","Zip":"91763"},{"Location":"SEPP ELECTRICAL","Address":"5205 State St","City":"Montclair","State":"CA","Zip":"91763"},{"Location":"STP ENTERTAINMENT","Address":"4666 Holt Blvd","City":"Montclair","State":"CA","Zip":"91763"},{"Location":"SUPERCUTS CA 043","Address":"9051 Central Ave","City":"Montclair","State":"CA","Zip":"91763"},{"Location":"TAURIAN BA LLC #1057","Address":"9415 Monte Vista Ave","City":"Montclair","State":"CA","Zip":"91763"},{"Location":"THE SAND BAR","Address":"5363 Arrow Hwy","City":"Montclair","State":"CA","Zip":"91763"},{"Location":"TOKYO GARDEN","Address":"5660 Holt Blvd","City":"Montclair","State":"CA","Zip":"91763"},{"Location":"TOKYO JAPANESE RESTURANT","Address":"9513 Central Ave","City":"Montclair","State":"CA","Zip":"91763"},{"Location":"TONYS AUTOBODY","Address":"5334 Holt Blvd B","City":"Montclair","State":"CA","Zip":"91763"},{"Location":"TORRES INCOME TAX 2","Address":"8900 Benson Ave K","City":"Montclair","State":"CA","Zip":"91763"},{"Location":"US BANK","Address":"9090 Central Ave","City":"Montclair","State":"CA","Zip":"91763"},{"Location":"VIDA HEALTH CLINIC","Address":"5404 Moreno St N","City":"Montclair","State":"CA","Zip":"91763"},{"Location":"WHITE ROSE MASSAGE","Address":"9513 Central Ave","City":"Montclair","State":"CA","Zip":"91763"},{"Location":"XKLUSIVE BARBER & BEAUTY","Address":"4949 Holt Blvd","City":"Montclair","State":"CA","Zip":"91763"}]