[{"Location":"A1 LINEN SERVICE","Address":"396 La Mesa St","City":"Pomona","State":"CA","Zip":"91766"},{"Location":"ACUPRESSURE","Address":"3991 E Mission Blvd","City":"Pomona","State":"CA","Zip":"91766"},{"Location":"ACURIOS AROMA THERAPHY","Address":"447 E Mission Blvd G","City":"Pomona","State":"CA","Zip":"91766"},{"Location":"ALIBI EAST","Address":"225 S San Antonio Ave","City":"Pomona","State":"CA","Zip":"91766"},{"Location":"ALL STAR KIA","Address":"8 Rio Rancho Rd","City":"Pomona","State":"CA","Zip":"91766"},{"Location":"ALLIED LOGISTICS","Address":"1583 E Grand Ave 1575","City":"Pomona","State":"CA","Zip":"91766"},{"Location":"ANHEUSER-BUSCH WHLSLR #70441","Address":"2800 S Reservoir St","City":"Pomona","State":"CA","Zip":"91766"},{"Location":"BACK DOOR","Address":"1250 E Mission Blvd","City":"Pomona","State":"CA","Zip":"91766"},{"Location":"BECK HARDWOOD INC","Address":"1384 S Signal Dr","City":"Pomona","State":"CA","Zip":"91766"},{"Location":"BLACK KNIGHTZ MC","Address":"310 S East End Ave","City":"Pomona","State":"CA","Zip":"91766"},{"Location":"BOBA TEA ZONE","Address":"961 E Mission Blvd","City":"Pomona","State":"CA","Zip":"91766"},{"Location":"CARITAS BARBERSHOP","Address":"420 E Mission Blvd","City":"Pomona","State":"CA","Zip":"91766"},{"Location":"CENTRO BOTANICO DE SAN J","Address":"1180 Philadelphia St 15","City":"Pomona","State":"CA","Zip":"91766"},{"Location":"CHAR CONSULTANT CORP","Address":"300 S Thomas St 304","City":"Pomona","State":"CA","Zip":"91766"},{"Location":"CHARACTERS","Address":"276 E 1st St","City":"Pomona","State":"CA","Zip":"91766"},{"Location":"CITY OF POMONA POLICE DEPT","Address":"490 W Mission Blvd","City":"Pomona","State":"CA","Zip":"91766"},{"Location":"COOLTEC","Address":"1250 E Franklin Ave B","City":"Pomona","State":"CA","Zip":"91766"},{"Location":"COSTANOAN RUMSEN","Address":"242 E 1st St","City":"Pomona","State":"CA","Zip":"91766"},{"Location":"COVENANT TRANSPORTATION","Address":"1300 E Franlin Avenue","City":"Pomona","State":"CA","Zip":"91766"},{"Location":"DAVITA #4344 POMONA VALLEY","Address":"2703 S Towne Ave","City":"Pomona","State":"CA","Zip":"91766"},{"Location":"DBA  TWO FIVE SIX","Address":"256 S Main St","City":"Pomona","State":"CA","Zip":"91766"},{"Location":"DEMO - VERIZON","Address":"280 Locust St","City":"Pomona","State":"CA","Zip":"91766"},{"Location":"FERGUSON #0603","Address":"2750 S Towne Ave","City":"Pomona","State":"CA","Zip":"91766"},{"Location":"FIRST TRANSIT INC","Address":"200 S East End Ave","City":"Pomona","State":"CA","Zip":"91766"},{"Location":"GLORIA MITCHELL BAIL BONDS","Address":"359 W Mission Blvd","City":"Pomona","State":"CA","Zip":"91766"},{"Location":"GODINEZ PALLET COMPANY","Address":"1312 W 1st St","City":"Pomona","State":"CA","Zip":"91766"},{"Location":"HAIR COUTURE SALON","Address":"804 Philadelphia St","City":"Pomona","State":"CA","Zip":"91766"},{"Location":"HARRISON CLINICAL MANAGEMENT","Address":"2895 S Towne Ave","City":"Pomona","State":"CA","Zip":"91766"},{"Location":"HENKELS & MCCOY INC","Address":"2840 Ficus St","City":"Pomona","State":"CA","Zip":"91766"},{"Location":"INLAND VALLEY HUMANE SOCIETY","Address":"500 S Humane Way","City":"Pomona","State":"CA","Zip":"91766"},{"Location":"INTER VALLEY POOL SUPPLY","Address":"1415 E 3rd St","City":"Pomona","State":"CA","Zip":"91766"},{"Location":"JOHN A FORBING STATE FRM","Address":"3030 W Temple Ave","City":"Pomona","State":"CA","Zip":"91766"},{"Location":"JP GROUP LA","Address":"101 S Main St","City":"Pomona","State":"CA","Zip":"91766"},{"Location":"LA FUENTE RESTAURANT","Address":"987 S Garey Ave","City":"Pomona","State":"CA","Zip":"91766"},{"Location":"LACADANA SPORTS BAR AND GRILL","Address":"1604 W Mission Blvd","City":"Pomona","State":"CA","Zip":"91766"},{"Location":"LIFT-IT","Address":"1603 W 2nd St","City":"Pomona","State":"CA","Zip":"91766"},{"Location":"LUMBER LIQUIDATORS 2","Address":"1601 W Mission Blvd 104","City":"Pomona","State":"CA","Zip":"91766"},{"Location":"METRO ALE HOUSE","Address":"197 E 2nd St","City":"Pomona","State":"CA","Zip":"91766"},{"Location":"MEXICO LINDO RESTAURANT","Address":"1060 S Garey Ave","City":"Pomona","State":"CA","Zip":"91766"},{"Location":"MI JALISCO","Address":"2256 S Garey Ave","City":"Pomona","State":"CA","Zip":"91766"},{"Location":"NY DELIGHT","Address":"310 S Thomas St","City":"Pomona","State":"CA","Zip":"91766"},{"Location":"O&J MOLDING DOORS & MORE","Address":"1612 W Mission Blvd","City":"Pomona","State":"CA","Zip":"91766"},{"Location":"ODONOVANS PUB","Address":"101 E 3rd St","City":"Pomona","State":"CA","Zip":"91766"},{"Location":"PHO V VIETNAMESE CUISINE","Address":"281 S Thomas St 103","City":"Pomona","State":"CA","Zip":"91766"},{"Location":"PIZZA BEER AND WINGS","Address":"296 W 2nd St","City":"Pomona","State":"CA","Zip":"91766"},{"Location":"POMONA VALLEY TOWING","Address":"1731 E Mission Blvd","City":"Pomona","State":"CA","Zip":"91766"},{"Location":"RITEMP REFRIGERATION INC","Address":"1517 E Grand Ave","City":"Pomona","State":"CA","Zip":"91766"},{"Location":"ROKIN CRAB LLC","Address":"135 E 2nd St","City":"Pomona","State":"CA","Zip":"91766"},{"Location":"SAKURA ICHI","Address":"101 W Mission Blvd 101","City":"Pomona","State":"CA","Zip":"91766"},{"Location":"SANTACRUZ","Address":"1285 S Garey Ave E","City":"Pomona","State":"CA","Zip":"91766"},{"Location":"SC FOODS LLC","Address":"171 W 2nd St","City":"Pomona","State":"CA","Zip":"91766"},{"Location":"SO CALI TRUCK BODIES","Address":"155 S Reservoir St","City":"Pomona","State":"CA","Zip":"91766"},{"Location":"STAINLESS FIXTURES","Address":"1250 E Franklin Ave","City":"Pomona","State":"CA","Zip":"91766"},{"Location":"TAQUERIA DE ANDA","Address":"1690 S Garey Ave","City":"Pomona","State":"CA","Zip":"91766"},{"Location":"TARGET","Address":"701 Rio Rancho Rd","City":"Pomona","State":"CA","Zip":"91766"},{"Location":"TELLEZ","Address":"2001 S Garey Ave","City":"Pomona","State":"CA","Zip":"91766"},{"Location":"THE DRINK TAPAS BAR","Address":"150 W 3rd St","City":"Pomona","State":"CA","Zip":"91766"},{"Location":"THE FOX SPORTS BAR AND GRILL","Address":"301 Sgarey Ave","City":"Pomona","State":"CA","Zip":"91766"},{"Location":"THE HOOKUP","Address":"1047 E 2nd St","City":"Pomona","State":"CA","Zip":"91766"},{"Location":"TOM JONES REALTY","Address":"1463 W Mission Blvd","City":"Pomona","State":"CA","Zip":"91766"},{"Location":"TRAVELERS CHOICE","Address":"2805 S Reservoir St","City":"Pomona","State":"CA","Zip":"91766"},{"Location":"TROPICAL MEXICO RESTAURANT","Address":"1371 S East End Ave","City":"Pomona","State":"CA","Zip":"91766"},{"Location":"UNI GOLF","Address":"1226 E Lexington Ave","City":"Pomona","State":"CA","Zip":"91766"},{"Location":"VETERANS THRIFT STORE","Address":"1190 S Garey Ave","City":"Pomona","State":"CA","Zip":"91766"},{"Location":"WALMART","Address":"80 Rio Rancho Rd","City":"Pomona","State":"CA","Zip":"91766"},{"Location":"WALTER J KNEZEVICH  INC","Address":"375 E Mission Blvd","City":"Pomona","State":"CA","Zip":"91766"},{"Location":"WC2U MOBILE BEAUTY HAIR","Address":"264 W 3rd St","City":"Pomona","State":"CA","Zip":"91766"},{"Location":"WESTERN UNIVERSITY","Address":"309 E 2nd St","City":"Pomona","State":"CA","Zip":"91766"},{"Location":"A1 LINEN SERVICE","Address":"396 La Mesa St","City":"Pomona","State":"CA","Zip":"91766"},{"Location":"ACUPRESSURE","Address":"3991 E Mission Blvd","City":"Pomona","State":"CA","Zip":"91766"},{"Location":"ACURIOS AROMA THERAPHY","Address":"447 E Mission Blvd G","City":"Pomona","State":"CA","Zip":"91766"},{"Location":"ALIBI EAST","Address":"225 S San Antonio Ave","City":"Pomona","State":"CA","Zip":"91766"},{"Location":"ALL STAR KIA","Address":"8 Rio Rancho Rd","City":"Pomona","State":"CA","Zip":"91766"},{"Location":"ALLIED LOGISTICS","Address":"1583 E Grand Ave 1575","City":"Pomona","State":"CA","Zip":"91766"},{"Location":"ANHEUSER-BUSCH WHLSLR #70441","Address":"2800 S Reservoir St","City":"Pomona","State":"CA","Zip":"91766"},{"Location":"BACK DOOR","Address":"1250 E Mission Blvd","City":"Pomona","State":"CA","Zip":"91766"},{"Location":"BECK HARDWOOD INC","Address":"1384 S Signal Dr","City":"Pomona","State":"CA","Zip":"91766"},{"Location":"BLACK KNIGHTZ MC","Address":"310 S East End Ave","City":"Pomona","State":"CA","Zip":"91766"},{"Location":"BOBA TEA ZONE","Address":"961 E Mission Blvd","City":"Pomona","State":"CA","Zip":"91766"},{"Location":"CARITAS BARBERSHOP","Address":"420 E Mission Blvd","City":"Pomona","State":"CA","Zip":"91766"},{"Location":"CENTRO BOTANICO DE SAN J","Address":"1180 Philadelphia St 15","City":"Pomona","State":"CA","Zip":"91766"},{"Location":"CHAR CONSULTANT CORP","Address":"300 S Thomas St 304","City":"Pomona","State":"CA","Zip":"91766"},{"Location":"CHARACTERS","Address":"276 E 1st St","City":"Pomona","State":"CA","Zip":"91766"},{"Location":"CITY OF POMONA POLICE DEPT","Address":"490 W Mission Blvd","City":"Pomona","State":"CA","Zip":"91766"},{"Location":"COOLTEC","Address":"1250 E Franklin Ave B","City":"Pomona","State":"CA","Zip":"91766"},{"Location":"COSTANOAN RUMSEN","Address":"242 E 1st St","City":"Pomona","State":"CA","Zip":"91766"},{"Location":"COVENANT TRANSPORTATION","Address":"1300 E Franlin Avenue","City":"Pomona","State":"CA","Zip":"91766"},{"Location":"DAVITA #4344 POMONA VALLEY","Address":"2703 S Towne Ave","City":"Pomona","State":"CA","Zip":"91766"},{"Location":"DBA  TWO FIVE SIX","Address":"256 S Main St","City":"Pomona","State":"CA","Zip":"91766"},{"Location":"DEMO - VERIZON","Address":"280 Locust St","City":"Pomona","State":"CA","Zip":"91766"},{"Location":"FERGUSON #0603","Address":"2750 S Towne Ave","City":"Pomona","State":"CA","Zip":"91766"},{"Location":"FIRST TRANSIT INC","Address":"200 S East End Ave","City":"Pomona","State":"CA","Zip":"91766"},{"Location":"GLORIA MITCHELL BAIL BONDS","Address":"359 W Mission Blvd","City":"Pomona","State":"CA","Zip":"91766"},{"Location":"GODINEZ PALLET COMPANY","Address":"1312 W 1st St","City":"Pomona","State":"CA","Zip":"91766"},{"Location":"HAIR COUTURE SALON","Address":"804 Philadelphia St","City":"Pomona","State":"CA","Zip":"91766"},{"Location":"HARRISON CLINICAL MANAGEMENT","Address":"2895 S Towne Ave","City":"Pomona","State":"CA","Zip":"91766"},{"Location":"HENKELS & MCCOY INC","Address":"2840 Ficus St","City":"Pomona","State":"CA","Zip":"91766"},{"Location":"INLAND VALLEY HUMANE SOCIETY","Address":"500 S Humane Way","City":"Pomona","State":"CA","Zip":"91766"},{"Location":"INTER VALLEY POOL SUPPLY","Address":"1415 E 3rd St","City":"Pomona","State":"CA","Zip":"91766"},{"Location":"JOHN A FORBING STATE FRM","Address":"3030 W Temple Ave","City":"Pomona","State":"CA","Zip":"91766"},{"Location":"JP GROUP LA","Address":"101 S Main St","City":"Pomona","State":"CA","Zip":"91766"},{"Location":"LA FUENTE RESTAURANT","Address":"987 S Garey Ave","City":"Pomona","State":"CA","Zip":"91766"},{"Location":"LACADANA SPORTS BAR AND GRILL","Address":"1604 W Mission Blvd","City":"Pomona","State":"CA","Zip":"91766"},{"Location":"LIFT-IT","Address":"1603 W 2nd St","City":"Pomona","State":"CA","Zip":"91766"},{"Location":"LUMBER LIQUIDATORS 2","Address":"1601 W Mission Blvd 104","City":"Pomona","State":"CA","Zip":"91766"},{"Location":"METRO ALE HOUSE","Address":"197 E 2nd St","City":"Pomona","State":"CA","Zip":"91766"},{"Location":"MEXICO LINDO RESTAURANT","Address":"1060 S Garey Ave","City":"Pomona","State":"CA","Zip":"91766"},{"Location":"MI JALISCO","Address":"2256 S Garey Ave","City":"Pomona","State":"CA","Zip":"91766"},{"Location":"NY DELIGHT","Address":"310 S Thomas St","City":"Pomona","State":"CA","Zip":"91766"},{"Location":"O&J MOLDING DOORS & MORE","Address":"1612 W Mission Blvd","City":"Pomona","State":"CA","Zip":"91766"},{"Location":"ODONOVANS PUB","Address":"101 E 3rd St","City":"Pomona","State":"CA","Zip":"91766"},{"Location":"PHO V VIETNAMESE CUISINE","Address":"281 S Thomas St 103","City":"Pomona","State":"CA","Zip":"91766"},{"Location":"PIZZA BEER AND WINGS","Address":"296 W 2nd St","City":"Pomona","State":"CA","Zip":"91766"},{"Location":"POMONA VALLEY TOWING","Address":"1731 E Mission Blvd","City":"Pomona","State":"CA","Zip":"91766"},{"Location":"RITEMP REFRIGERATION INC","Address":"1517 E Grand Ave","City":"Pomona","State":"CA","Zip":"91766"},{"Location":"ROKIN CRAB LLC","Address":"135 E 2nd St","City":"Pomona","State":"CA","Zip":"91766"},{"Location":"SAKURA ICHI","Address":"101 W Mission Blvd 101","City":"Pomona","State":"CA","Zip":"91766"},{"Location":"SANTACRUZ","Address":"1285 S Garey Ave E","City":"Pomona","State":"CA","Zip":"91766"},{"Location":"SC FOODS LLC","Address":"171 W 2nd St","City":"Pomona","State":"CA","Zip":"91766"},{"Location":"SO CALI TRUCK BODIES","Address":"155 S Reservoir St","City":"Pomona","State":"CA","Zip":"91766"},{"Location":"STAINLESS FIXTURES","Address":"1250 E Franklin Ave","City":"Pomona","State":"CA","Zip":"91766"},{"Location":"TAQUERIA DE ANDA","Address":"1690 S Garey Ave","City":"Pomona","State":"CA","Zip":"91766"},{"Location":"TARGET","Address":"701 Rio Rancho Rd","City":"Pomona","State":"CA","Zip":"91766"},{"Location":"TELLEZ","Address":"2001 S Garey Ave","City":"Pomona","State":"CA","Zip":"91766"},{"Location":"THE DRINK TAPAS BAR","Address":"150 W 3rd St","City":"Pomona","State":"CA","Zip":"91766"},{"Location":"THE FOX SPORTS BAR AND GRILL","Address":"301 Sgarey Ave","City":"Pomona","State":"CA","Zip":"91766"},{"Location":"THE HOOKUP","Address":"1047 E 2nd St","City":"Pomona","State":"CA","Zip":"91766"},{"Location":"TOM JONES REALTY","Address":"1463 W Mission Blvd","City":"Pomona","State":"CA","Zip":"91766"},{"Location":"TRAVELERS CHOICE","Address":"2805 S Reservoir St","City":"Pomona","State":"CA","Zip":"91766"},{"Location":"TROPICAL MEXICO RESTAURANT","Address":"1371 S East End Ave","City":"Pomona","State":"CA","Zip":"91766"},{"Location":"UNI GOLF","Address":"1226 E Lexington Ave","City":"Pomona","State":"CA","Zip":"91766"},{"Location":"VETERANS THRIFT STORE","Address":"1190 S Garey Ave","City":"Pomona","State":"CA","Zip":"91766"},{"Location":"WALMART","Address":"80 Rio Rancho Rd","City":"Pomona","State":"CA","Zip":"91766"},{"Location":"WALTER J KNEZEVICH  INC","Address":"375 E Mission Blvd","City":"Pomona","State":"CA","Zip":"91766"},{"Location":"WC2U MOBILE BEAUTY HAIR","Address":"264 W 3rd St","City":"Pomona","State":"CA","Zip":"91766"},{"Location":"WESTERN UNIVERSITY","Address":"309 E 2nd St","City":"Pomona","State":"CA","Zip":"91766"}]