[{"Location":"HERB S BRAR MD","Address":"760 S Washburn St 4a","City":"Carona","State":"CA","Zip":"91770"},{"Location":"888 SEAFOOD RESTAURANT","Address":"8450 Valley Blvd 121","City":"Rosemead","State":"CA","Zip":"91770"},{"Location":"ALL CARE WOMANS HOUSE","Address":"3006 San Gabriel Blvd","City":"Rosemead","State":"CA","Zip":"91770"},{"Location":"ALL IN CRAB","Address":"8966 Garvey Ave C","City":"Rosemead","State":"CA","Zip":"91770"},{"Location":"ANKA BEHAVIORAL HEALTH","Address":"2507 Evelyn Ave","City":"Rosemead","State":"CA","Zip":"91770"},{"Location":"BHC ALHAMBRA HOSPITAL","Address":"4619 Rosemead Blvd","City":"Rosemead","State":"CA","Zip":"91770"},{"Location":"BIG MIKE BARBER SHOP","Address":"7849 Garvey Ave","City":"Rosemead","State":"CA","Zip":"91770"},{"Location":"CAFE CAU VONG","Address":"3365 Walnut Grove Ave B","City":"Rosemead","State":"CA","Zip":"91770"},{"Location":"CAFE JIGRAL","Address":"9008 Garvey Ave E","City":"Rosemead","State":"CA","Zip":"91770"},{"Location":"CALIFORNIA AMERICAN WATER","Address":"8657 Grand Ave","City":"Rosemead","State":"CA","Zip":"91770"},{"Location":"CHANG MOTEL VIP","Address":"2619 San Gabriel Blvd","City":"Rosemead","State":"CA","Zip":"91770"},{"Location":"DE AMAZON SALON","Address":"1300 Potrero Grande Dr F","City":"Rosemead","State":"CA","Zip":"91770"},{"Location":"ESPINOZA LEATHER","Address":"8730 Garvey Ave","City":"Rosemead","State":"CA","Zip":"91770"},{"Location":"GOLDEN HEART MEDICAL CORP","Address":"8729 Valley Blvd A","City":"Rosemead","State":"CA","Zip":"91770"},{"Location":"H AND V  LLC","Address":"3606 Rosemead Blvd","City":"Rosemead","State":"CA","Zip":"91770"},{"Location":"HILTON WORLDWIDE DOUBLETREE LA","Address":"888 Montebello Blvd","City":"Rosemead","State":"CA","Zip":"91770"},{"Location":"JADE BBQ RESTAURANT","Address":"7808 Garvey Ave","City":"Rosemead","State":"CA","Zip":"91770"},{"Location":"JERSEY MIKES SUBS","Address":"3614 Rosemead Blvd","City":"Rosemead","State":"CA","Zip":"91770"},{"Location":"KAMI BUFFET","Address":"909 San Gabriel Blvd","City":"Rosemead","State":"CA","Zip":"91770"},{"Location":"KIDS KLUB","Address":"4930 Earle Ave","City":"Rosemead","State":"CA","Zip":"91770"},{"Location":"LA COUNTY FD #4","Address":"2644 San Gabriel Blvd","City":"Rosemead","State":"CA","Zip":"91770"},{"Location":"LA FITNESS #06128","Address":"3508 Rosemead Blvd","City":"Rosemead","State":"CA","Zip":"91770"},{"Location":"LDVC","Address":"9606 Valley Blvd","City":"Rosemead","State":"CA","Zip":"91770"},{"Location":"LIFE EQUATIONS AUDIT PC","Address":"3927 Walnut Grove Ave","City":"Rosemead","State":"CA","Zip":"91770"},{"Location":"METROPOLITAN MASONIC LOD","Address":"8637 Valley Blvd","City":"Rosemead","State":"CA","Zip":"91770"},{"Location":"NGUYEN","Address":"8522 Valley Blvd","City":"Rosemead","State":"CA","Zip":"91770"},{"Location":"OLIVE GARDEN #4453","Address":"1866 Montebello Town Center D","City":"Rosemead","State":"CA","Zip":"91770"},{"Location":"PANDA EXPRESS","Address":"1717 Walnut Grove Ave 100","City":"Rosemead","State":"CA","Zip":"91770"},{"Location":"PANDA RESTAURANT GROUP INC","Address":"1683 Walnut Grove Ave","City":"Rosemead","State":"CA","Zip":"91770"},{"Location":"RICKS BURGERS","Address":"8640 Garvey Ave","City":"Rosemead","State":"CA","Zip":"91770"},{"Location":"RICKS BURGERS","Address":"8640 E Garvey Avenue","City":"Rosemead","State":"CA","Zip":"91770"},{"Location":"ROSE CITY PIZZA","Address":"3588 Rosemead Blvd","City":"Rosemead","State":"CA","Zip":"91770"},{"Location":"SAIGON 22","Address":"8766 Valley Blvd","City":"Rosemead","State":"CA","Zip":"91770"},{"Location":"SON AGE LE MD","Address":"9143 Valley Blvd 101a","City":"Rosemead","State":"CA","Zip":"91770"},{"Location":"SOUTHERN CALIFORNIA EDISON","Address":"1515 Walnut Grove Ave","City":"Rosemead","State":"CA","Zip":"91770"},{"Location":"SOUTHERN CALIFORNIA EDISON","Address":"8631 Rush St 100","City":"Rosemead","State":"CA","Zip":"91770"},{"Location":"TBT HIEPTHANH CARE","Address":"9640 Valley Blvd","City":"Rosemead","State":"CA","Zip":"91770"},{"Location":"TGI FRIDAY'S #2446","Address":"3518 Rosemead Blvd","City":"Rosemead","State":"CA","Zip":"91770"},{"Location":"THE CUTLERY","Address":"8940 Valley Blvd","City":"Rosemead","State":"CA","Zip":"91770"},{"Location":"THIEN NA","Address":"8837 Valley Blvd","City":"Rosemead","State":"CA","Zip":"91770"},{"Location":"UFC GYM PRESALE 2","Address":"3676 Rosemead Blvd","City":"Rosemead","State":"CA","Zip":"91770"},{"Location":"VICENTE BARBERSHOP","Address":"3044 San Gabriel Blvd","City":"Rosemead","State":"CA","Zip":"91770"},{"Location":"WAHOO CHAYA","Address":"8151 Arroyo Dr","City":"Rosemead","State":"CA","Zip":"91770"},{"Location":"WHITTIER NARROW GOLF LLC","Address":"8640 Rush St","City":"Rosemead","State":"CA","Zip":"91770"},{"Location":"WINGSTOP","Address":"3612 Rosemead Blvd","City":"Rosemead","State":"CA","Zip":"91770"}]