[{"Location":"FUTURE CONCEPTS #18","Address":"675 W Terrance Dr","City":"Dimas","State":"CA","Zip":"91773"},{"Location":"444 N AMELIA AVENUE LLC","Address":"444 N Amelia Ave","City":"San Dimas","State":"CA","Zip":"91773"},{"Location":"ADP","Address":"400 W Covina Blvd","City":"San Dimas","State":"CA","Zip":"91773"},{"Location":"AMERPRISE","Address":"373 E Foothill Blvd","City":"San Dimas","State":"CA","Zip":"91773"},{"Location":"ANGELAS ITALIAN KITCHEN","Address":"130 E Bonita Ave","City":"San Dimas","State":"CA","Zip":"91773"},{"Location":"APPLEBEE'S SAN DIMAS #8788","Address":"674 W Arrow Hwy","City":"San Dimas","State":"CA","Zip":"91773"},{"Location":"AUTOMATIC  DATA  PROCESSING","Address":"620 W Covina Blvd","City":"San Dimas","State":"CA","Zip":"91773"},{"Location":"BENNETT C JEONG DDS","Address":"1075 Via Verde","City":"San Dimas","State":"CA","Zip":"91773"},{"Location":"BESSIRE AND CASEMHISER INC","Address":"430 S San Dimas Ave","City":"San Dimas","State":"CA","Zip":"91773"},{"Location":"BRIGHTON GARDENS","Address":"1740 S San Dimas Ave","City":"San Dimas","State":"CA","Zip":"91773"},{"Location":"CA DIALYSISS","Address":"1335 W Cypress Ave 102","City":"San Dimas","State":"CA","Zip":"91773"},{"Location":"CALIFORNIA KIDNEY SPECIALIST","Address":"1335 Cypress St","City":"San Dimas","State":"CA","Zip":"91773"},{"Location":"CASK & CLEAVER","Address":"125 Village Ct","City":"San Dimas","State":"CA","Zip":"91773"},{"Location":"CENTURY 21 WHITING","Address":"510 E Foothill Blvd 101","City":"San Dimas","State":"CA","Zip":"91773"},{"Location":"CERTIFIED TIRES","Address":"100 W Bonita Ave","City":"San Dimas","State":"CA","Zip":"91773"},{"Location":"CHARLES RAGONESE SERVICE","Address":"199 S Monte Vista Ave 2","City":"San Dimas","State":"CA","Zip":"91773"},{"Location":"CHARTER OAK MOBILE HOME ESTATE","Address":"801 W Covina Blvd","City":"San Dimas","State":"CA","Zip":"91773"},{"Location":"CHRISTS CHURCH OF THE VALLEY","Address":"1404 W Covina Blvd","City":"San Dimas","State":"CA","Zip":"91773"},{"Location":"CLAYTON BREWING COMPANY","Address":"661 W Arrow Hwy","City":"San Dimas","State":"CA","Zip":"91773"},{"Location":"COSCO","Address":"520 N Lone Hill Ave","City":"San Dimas","State":"CA","Zip":"91773"},{"Location":"DONUTS GALORE","Address":"1112 Via Verde","City":"San Dimas","State":"CA","Zip":"91773"},{"Location":"ENCORE DANCE CENTER","Address":"432 E Foothill Blvd","City":"San Dimas","State":"CA","Zip":"91773"},{"Location":"FANTASTIC SAMS","Address":"464 N Lone Hill Ave","City":"San Dimas","State":"CA","Zip":"91773"},{"Location":"FS MEXICAN FOOD","Address":"1057 W Arrow Hwy","City":"San Dimas","State":"CA","Zip":"91773"},{"Location":"FUTURE CONCEPTS #10","Address":"675 W Terrace Dr","City":"San Dimas","State":"CA","Zip":"91773"},{"Location":"FUTURE CONCEPTS #11","Address":"675 W Terrace Dr","City":"San Dimas","State":"CA","Zip":"91773"},{"Location":"FUTURE CONCEPTS #12","Address":"675 W Terrace Dr","City":"San Dimas","State":"CA","Zip":"91773"},{"Location":"FUTURE CONCEPTS #13","Address":"675 W Terrace Dr","City":"San Dimas","State":"CA","Zip":"91773"},{"Location":"FUTURE CONCEPTS #15","Address":"675 W Terrace Dr","City":"San Dimas","State":"CA","Zip":"91773"},{"Location":"FUTURE CONCEPTS #156","Address":"675 W Terrace Dr","City":"San Dimas","State":"CA","Zip":"91773"},{"Location":"FUTURE CONCEPTS #16","Address":"675 W Terrace Dr","City":"San Dimas","State":"CA","Zip":"91773"},{"Location":"FUTURE CONCEPTS #19","Address":"675 W Terrace Dr","City":"San Dimas","State":"CA","Zip":"91773"},{"Location":"FUTURE CONCEPTS #4","Address":"675 W Terrace Dr","City":"San Dimas","State":"CA","Zip":"91773"},{"Location":"FUTURE CONCEPTS #55","Address":"675 W Terrace Dr","City":"San Dimas","State":"CA","Zip":"91773"},{"Location":"FUTURE CONCEPTS #56","Address":"675 W Terrace Dr","City":"San Dimas","State":"CA","Zip":"91773"},{"Location":"FUTURE CONCEPTS #58","Address":"675 W Terrace Dr","City":"San Dimas","State":"CA","Zip":"91773"},{"Location":"FUTURE CONCEPTS #9","Address":"675 W Terrace Dr","City":"San Dimas","State":"CA","Zip":"91773"},{"Location":"FUTURE CONCEPTS 226","Address":"675 W Terrace Dr","City":"San Dimas","State":"CA","Zip":"91773"},{"Location":"FUTURE CONCEPTS 227","Address":"675 W Terrace Dr","City":"San Dimas","State":"CA","Zip":"91773"},{"Location":"FUTURE CONCEPTS INTERNET SOLUT","Address":"6750 W Terrace Drive","City":"San Dimas","State":"CA","Zip":"91773"},{"Location":"GOLDEN STATE WATER CO","Address":"603 E Foothill Blvd","City":"San Dimas","State":"CA","Zip":"91773"},{"Location":"HOUSE OF HYDROPONICS","Address":"732 W Arrow Hwy","City":"San Dimas","State":"CA","Zip":"91773"},{"Location":"INLAND AIR BALANCE","Address":"482 W Arrow Hwy C","City":"San Dimas","State":"CA","Zip":"91773"},{"Location":"JACKSON AND JACKSON INSURANCE","Address":"302 E Foothill Blvd","City":"San Dimas","State":"CA","Zip":"91773"},{"Location":"JERSEY MIKES SUBS","Address":"466 N Lone Hill Ave","City":"San Dimas","State":"CA","Zip":"91773"},{"Location":"KHO AND PATEL","Address":"160 E Arrow Hwy","City":"San Dimas","State":"CA","Zip":"91773"},{"Location":"LA COUNTY ROCKEY BLDG  1","Address":"1900 Sycamore Canyon Rd","City":"San Dimas","State":"CA","Zip":"91773"},{"Location":"LA COUNTY ROCKEY BLDG 2","Address":"1900 Sycamore Canyon Rd","City":"San Dimas","State":"CA","Zip":"91773"},{"Location":"LA COUNTY ROCKEY BLDG 3","Address":"1900 Sycamore Canyon Rd","City":"San Dimas","State":"CA","Zip":"91773"},{"Location":"LA COUNTY ROCKEY BLDG 4","Address":"1900 Sycamore Canyon Rd","City":"San Dimas","State":"CA","Zip":"91773"},{"Location":"LAFD 64%2CRICHARD BURK%2C","Address":"164 S Walnut Ave","City":"San Dimas","State":"CA","Zip":"91773"},{"Location":"LIFE PACIFIC COLLEGE","Address":"1100 W Covina Blvd","City":"San Dimas","State":"CA","Zip":"91773"},{"Location":"LIMIT PROPERTIES LLC","Address":"949 N Cataract Ave K","City":"San Dimas","State":"CA","Zip":"91773"},{"Location":"LONEHILL MANOR","Address":"1205 Cypress St","City":"San Dimas","State":"CA","Zip":"91773"},{"Location":"LOUIS MANUFACTURING","Address":"321 W Covina Blvd","City":"San Dimas","State":"CA","Zip":"91773"},{"Location":"MCKINLEY CHILDRENS CENTE","Address":"762 Cypress St","City":"San Dimas","State":"CA","Zip":"91773"},{"Location":"MICHEAL PIZZA  INC","Address":"552 W Arrow Hwy","City":"San Dimas","State":"CA","Zip":"91773"},{"Location":"MOBILE LAND MOBILE HOME PARK","Address":"1635 W Covina Blvd","City":"San Dimas","State":"CA","Zip":"91773"},{"Location":"O SUSHI & GRILL","Address":"1126 Via Verde","City":"San Dimas","State":"CA","Zip":"91773"},{"Location":"OLIVE GARDEN #4407","Address":"582 N Lone Hill Ave","City":"San Dimas","State":"CA","Zip":"91773"},{"Location":"PHILLYS BEST","Address":"806 W Arrow Hwy C","City":"San Dimas","State":"CA","Zip":"91773"},{"Location":"PREMIER SLEEP MEDICINE","Address":"1305 W Arrow Hwy 102","City":"San Dimas","State":"CA","Zip":"91773"},{"Location":"RAYMOND E HOYT DDS","Address":"380 S San Dimas Ave 200","City":"San Dimas","State":"CA","Zip":"91773"},{"Location":"RED ROBIN #46","Address":"565 W Arrow Hwy","City":"San Dimas","State":"CA","Zip":"91773"},{"Location":"REMAX","Address":"1037 W Arrow Hwy","City":"San Dimas","State":"CA","Zip":"91773"},{"Location":"ROADYS RESTAURANT","Address":"160 W Bonita Ave","City":"San Dimas","State":"CA","Zip":"91773"},{"Location":"ROCK IN JUMP","Address":"533 W Arrow Hwy","City":"San Dimas","State":"CA","Zip":"91773"},{"Location":"SAN DIMAS HAIR STOP","Address":"1433 W Arrow Hwy","City":"San Dimas","State":"CA","Zip":"91773"},{"Location":"SAN DIMAS HOSPITAL","Address":"1350 W Covina Blvd","City":"San Dimas","State":"CA","Zip":"91773"},{"Location":"SAN DIMAS SUSHI","Address":"536 W Bonita Ave","City":"San Dimas","State":"CA","Zip":"91773"},{"Location":"SATA LAWNMOWER SHOP","Address":"221 W Bonita Ave","City":"San Dimas","State":"CA","Zip":"91773"},{"Location":"SCOTTRADE 54S","Address":"866 W Arrow Hwy","City":"San Dimas","State":"CA","Zip":"91773"},{"Location":"SECURITY NATIONAL MORT","Address":"421 S Cataract Ave","City":"San Dimas","State":"CA","Zip":"91773"},{"Location":"SOUTH CALIFORNIA EDISION","Address":"800 W Cienega Ave","City":"San Dimas","State":"CA","Zip":"91773"},{"Location":"SOUTHERN CALIFORNIA GAS CO1","Address":"1050 Overland Ct","City":"San Dimas","State":"CA","Zip":"91773"},{"Location":"STEVE SCOTTS STATEFARM INS","Address":"413 E Foothill Blvd 102","City":"San Dimas","State":"CA","Zip":"91773"},{"Location":"SUPER CUTS","Address":"185 N Redwood Dr #100","City":"San Dimas","State":"CA","Zip":"91773"},{"Location":"SUSHI SHOW","Address":"951 W Arrow Hwy","City":"San Dimas","State":"CA","Zip":"91773"},{"Location":"SUSHI SHOW","Address":"957 W Arrow Hwy A100","City":"San Dimas","State":"CA","Zip":"91773"},{"Location":"TARGET SAN DIMAS","Address":"888 W Arrow Hwy","City":"San Dimas","State":"CA","Zip":"91773"},{"Location":"THE PIZZA PLACE1","Address":"170 E Bonita Ave","City":"San Dimas","State":"CA","Zip":"91773"},{"Location":"TOP THAI TABLE","Address":"110 N San Dimas Ave","City":"San Dimas","State":"CA","Zip":"91773"},{"Location":"ULTRA","Address":"380 S San Dimas Ave","City":"San Dimas","State":"CA","Zip":"91773"},{"Location":"UNITED NURSES ASSOC OF CALIF","Address":"955 Overland Ct 150","City":"San Dimas","State":"CA","Zip":"91773"},{"Location":"US BANK","Address":"165 E Bonita Ave","City":"San Dimas","State":"CA","Zip":"91773"},{"Location":"VOORHIS APARTMENT COMPLEX","Address":"505 N San Dimas Canyon Rd","City":"San Dimas","State":"CA","Zip":"91773"},{"Location":"WESTIN AUTOMOTIVE PRODUCTS INC","Address":"320 W Covina Blvd","City":"San Dimas","State":"CA","Zip":"91773"},{"Location":"ZENDEJAS MEXICAN RESTAURANT","Address":"665 W Arrow Hwy","City":"San Dimas","State":"CA","Zip":"91773"}]