[{"Location":"AIRSTREAM LOS ANGELES","Address":"1212 E Las Tunas Dr","City":"San Gabriel","State":"CA","Zip":"91776"},{"Location":"AL'S COCKTAILS","Address":"413 And 1 Half W Las Tunas Dr","City":"San Gabriel","State":"CA","Zip":"91776"},{"Location":"ARMANDOS MEXICAN","Address":"132 W Valley Blvd","City":"San Gabriel","State":"CA","Zip":"91776"},{"Location":"ASSOCIATED HEALTH CARE MANGMEN","Address":"1788 S San Gabriel Blvd","City":"San Gabriel","State":"CA","Zip":"91776"},{"Location":"B'S LAND","Address":"243 S San Gabriel Blvd","City":"San Gabriel","State":"CA","Zip":"91776"},{"Location":"BOBA AVE 8090","Address":"140 W Valley Blvd 118b","City":"San Gabriel","State":"CA","Zip":"91776"},{"Location":"CHEERS BAR AND GRILL","Address":"717 S San Gabriel Blvd","City":"San Gabriel","State":"CA","Zip":"91776"},{"Location":"CHUNG KING RESTAURANT","Address":"1000 S San Gabriel Blvd","City":"San Gabriel","State":"CA","Zip":"91776"},{"Location":"CLAROS ITALIAN MARKET","Address":"1003 E Valley Blvd","City":"San Gabriel","State":"CA","Zip":"91776"},{"Location":"COFFEE HANH HOA","Address":"1726 S Del Mar Ave B","City":"San Gabriel","State":"CA","Zip":"91776"},{"Location":"COUNTRY VILLA BROADWAY","Address":"112 E Broadway","City":"San Gabriel","State":"CA","Zip":"91776"},{"Location":"CV BROADWAY %2F F.BACLAYON","Address":"112 E Broadway 104a","City":"San Gabriel","State":"CA","Zip":"91776"},{"Location":"ELKS LODGE","Address":"1373 E Las Tunas Dr","City":"San Gabriel","State":"CA","Zip":"91776"},{"Location":"ENCORE CAFE","Address":"209 Valley Blvd","City":"San Gabriel","State":"CA","Zip":"91776"},{"Location":"FACTORY TEA BAR","Address":"323 S Mission Dr","City":"San Gabriel","State":"CA","Zip":"91776"},{"Location":"GAMINI HETHAMUNI","Address":"416 W Las Tunas Dr 300","City":"San Gabriel","State":"CA","Zip":"91776"},{"Location":"GOLDEN GOLF MART","Address":"320 W Valley Blvd","City":"San Gabriel","State":"CA","Zip":"91776"},{"Location":"HILTON LA (0053722)","Address":"225 W Valley Blvd","City":"San Gabriel","State":"CA","Zip":"91776"},{"Location":"HSBC BANK #819209 #1","Address":"227 W Valley Blvd 198b","City":"San Gabriel","State":"CA","Zip":"91776"},{"Location":"HSBC BANK #819209 #2","Address":"227 W Valley Blvd 298b","City":"San Gabriel","State":"CA","Zip":"91776"},{"Location":"ICHO ICZKAYA 1","Address":"708 E Las Tunas Dr","City":"San Gabriel","State":"CA","Zip":"91776"},{"Location":"INDIAN INC","Address":"633 S San Gabriel Blvd 105","City":"San Gabriel","State":"CA","Zip":"91776"},{"Location":"JACK POT","Address":"523 S San Gabriel Blvd","City":"San Gabriel","State":"CA","Zip":"91776"},{"Location":"JR CAFE","Address":"512 W Valley Blvd","City":"San Gabriel","State":"CA","Zip":"91776"},{"Location":"L H FOOT CARE","Address":"1623 S Del Mar Ave","City":"San Gabriel","State":"CA","Zip":"91776"},{"Location":"LUCKY NOODLE KING","Address":"543 E Valley Blvd 10","City":"San Gabriel","State":"CA","Zip":"91776"},{"Location":"LUNAS MEXICAN RESTAURANT","Address":"343 S Mission Dr","City":"San Gabriel","State":"CA","Zip":"91776"},{"Location":"LUNAS RESTURANT","Address":"343 S Mission Dr","City":"San Gabriel","State":"CA","Zip":"91776"},{"Location":"MA SPACE","Address":"1045 E Valley Blvd A102","City":"San Gabriel","State":"CA","Zip":"91776"},{"Location":"MISSION LODGE","Address":"824 S Gladys Ave","City":"San Gabriel","State":"CA","Zip":"91776"},{"Location":"MY WIRELESS","Address":"166 W Valley Blvd C","City":"San Gabriel","State":"CA","Zip":"91776"},{"Location":"NEW KINGSWOOD","Address":"250 W Valley Blvd","City":"San Gabriel","State":"CA","Zip":"91776"},{"Location":"NO.1 KAZOKU","Address":"162 W Valley Blvd","City":"San Gabriel","State":"CA","Zip":"91776"},{"Location":"ONE ON ONE EATERY","Address":"400 E Valley Blvd","City":"San Gabriel","State":"CA","Zip":"91776"},{"Location":"OOKOOK2","Address":"5405 Rosemead Blvd","City":"San Gabriel","State":"CA","Zip":"91776"},{"Location":"PIZZA PLACE CALIFORNIA","Address":"303 S Mission Dr","City":"San Gabriel","State":"CA","Zip":"91776"},{"Location":"QUALITY DIALYSIS","Address":"801 S San Gabriel Blvd","City":"San Gabriel","State":"CA","Zip":"91776"},{"Location":"SAIGON EDEN","Address":"980 E Las Tunas Dr","City":"San Gabriel","State":"CA","Zip":"91776"},{"Location":"SAN GABRIEL CLUB","Address":"411 E Las Tunas Dr","City":"San Gabriel","State":"CA","Zip":"91776"},{"Location":"SAN GABRIEL SHAKEYS 6","Address":"866 E Las Tunas Dr","City":"San Gabriel","State":"CA","Zip":"91776"},{"Location":"SAN GABRIEL VALLEY MEDICAL CEN","Address":"438 W Las Tunas Dr","City":"San Gabriel","State":"CA","Zip":"91776"},{"Location":"SAOLANG","Address":"737 E Valley Blvd","City":"San Gabriel","State":"CA","Zip":"91776"},{"Location":"SCOTTRADE D04","Address":"227 W Valley Blvd 178b","City":"San Gabriel","State":"CA","Zip":"91776"},{"Location":"SHANGHAI NO.1 SEAFOOD","Address":"250 W Valley Blvd M","City":"San Gabriel","State":"CA","Zip":"91776"},{"Location":"SHARKY'S","Address":"409 W Las Tunas Dr","City":"San Gabriel","State":"CA","Zip":"91776"},{"Location":"SON NGUYEN DDS","Address":"730 E Valley Blvd","City":"San Gabriel","State":"CA","Zip":"91776"},{"Location":"SUITE 88 BAR AND LOUNGE","Address":"1062 E Las Tunas Dr","City":"San Gabriel","State":"CA","Zip":"91776"},{"Location":"TASTY CHOICE","Address":"200 S San Gabriel Blvd","City":"San Gabriel","State":"CA","Zip":"91776"},{"Location":"TEA SPIRIT CO","Address":"1635 S San Gabriel Blvd E","City":"San Gabriel","State":"CA","Zip":"91776"},{"Location":"TIA GLADIS MEXICAN REST","Address":"921 S Gladys Ave","City":"San Gabriel","State":"CA","Zip":"91776"},{"Location":"YOBA SUSHI","Address":"529 E Valley Blvd 158","City":"San Gabriel","State":"CA","Zip":"91776"},{"Location":"YUAN YUAN ENTERPRISE INC","Address":"154 W Valley Blvd","City":"San Gabriel","State":"CA","Zip":"91776"}]