[{"Location":"APPLEBEE'S TEMPLE CITY #9783","Address":"5701 Rosemead Blvd","City":"Temple City","State":"CA","Zip":"91780"},{"Location":"B2O","Address":"8841 Las Tunas Dr","City":"Temple City","State":"CA","Zip":"91780"},{"Location":"BALDWIN GARDENS NURSING CENTER","Address":"10786 Live Oak Ave","City":"Temple City","State":"CA","Zip":"91780"},{"Location":"BANANA LEAF","Address":"5835 Temple City Blvd","City":"Temple City","State":"CA","Zip":"91780"},{"Location":"BOBA   EXPRESS","Address":"9653 Las Tunas Dr","City":"Temple City","State":"CA","Zip":"91780"},{"Location":"CITY OF TEMPLE CITY1","Address":"5938 Kauffman Ave","City":"Temple City","State":"CA","Zip":"91780"},{"Location":"CREST LOUNGE","Address":"5921 Temple City Blvd","City":"Temple City","State":"CA","Zip":"91780"},{"Location":"EL RUIZENIOR GRILL","Address":"5818 Temple City Blvd","City":"Temple City","State":"CA","Zip":"91780"},{"Location":"GABRIELS MENS WEAR","Address":"5849 Temple City Blvd","City":"Temple City","State":"CA","Zip":"91780"},{"Location":"GUPPY HOUSE 2","Address":"5747 Rosemead Blvd","City":"Temple City","State":"CA","Zip":"91780"},{"Location":"HSBC BANK #819887","Address":"9601 Las Tunas Dr","City":"Temple City","State":"CA","Zip":"91780"},{"Location":"JOES BODYSHOP","Address":"9237 Lower Azusa Rd H","City":"Temple City","State":"CA","Zip":"91780"},{"Location":"JUG & JIGGER","Address":"5235 Tyler Ave","City":"Temple City","State":"CA","Zip":"91780"},{"Location":"LA COUNTY FIRE STN 47","Address":"5946 Kauffman Ave","City":"Temple City","State":"CA","Zip":"91780"},{"Location":"LITTLE BOHEMIA","Address":"9535 Las Tunas Dr","City":"Temple City","State":"CA","Zip":"91780"},{"Location":"MI OFICINA","Address":"6334 Rosemead Blvd","City":"Temple City","State":"CA","Zip":"91780"},{"Location":"OSCAR MURSULI CIGARS","Address":"10669 Lower Azusa Rd","City":"Temple City","State":"CA","Zip":"91780"},{"Location":"PARLIAMENT FINANCAL","Address":"9083 Las Tunas Dr","City":"Temple City","State":"CA","Zip":"91780"},{"Location":"RACQUET SPORTS","Address":"9614 Las Tunas Dr","City":"Temple City","State":"CA","Zip":"91780"},{"Location":"STATE FARM","Address":"9529 Las Tunas Dr","City":"Temple City","State":"CA","Zip":"91780"},{"Location":"TEMPLE CITY DIALYSIS","Address":"9945 Lower Azusa Rd","City":"Temple City","State":"CA","Zip":"91780"},{"Location":"TEMPLE CITY HEALTHCARE","Address":"5101 Tyler Ave","City":"Temple City","State":"CA","Zip":"91780"},{"Location":"TENJU TEA HOUSE","Address":"5817 Rosemead Blvd","City":"Temple City","State":"CA","Zip":"91780"},{"Location":"APPLEBEE'S TEMPLE CITY #9783","Address":"5701 Rosemead Blvd","City":"Temple City","State":"CA","Zip":"91780"},{"Location":"B2O","Address":"8841 Las Tunas Dr","City":"Temple City","State":"CA","Zip":"91780"},{"Location":"BALDWIN GARDENS NURSING CENTER","Address":"10786 Live Oak Ave","City":"Temple City","State":"CA","Zip":"91780"},{"Location":"BANANA LEAF","Address":"5835 Temple City Blvd","City":"Temple City","State":"CA","Zip":"91780"},{"Location":"BOBA   EXPRESS","Address":"9653 Las Tunas Dr","City":"Temple City","State":"CA","Zip":"91780"},{"Location":"CITY OF TEMPLE CITY1","Address":"5938 Kauffman Ave","City":"Temple City","State":"CA","Zip":"91780"},{"Location":"CREST LOUNGE","Address":"5921 Temple City Blvd","City":"Temple City","State":"CA","Zip":"91780"},{"Location":"EL RUIZENIOR GRILL","Address":"5818 Temple City Blvd","City":"Temple City","State":"CA","Zip":"91780"},{"Location":"GABRIELS MENS WEAR","Address":"5849 Temple City Blvd","City":"Temple City","State":"CA","Zip":"91780"},{"Location":"GUPPY HOUSE 2","Address":"5747 Rosemead Blvd","City":"Temple City","State":"CA","Zip":"91780"},{"Location":"HSBC BANK #819887","Address":"9601 Las Tunas Dr","City":"Temple City","State":"CA","Zip":"91780"},{"Location":"JOES BODYSHOP","Address":"9237 Lower Azusa Rd H","City":"Temple City","State":"CA","Zip":"91780"},{"Location":"JUG & JIGGER","Address":"5235 Tyler Ave","City":"Temple City","State":"CA","Zip":"91780"},{"Location":"LA COUNTY FIRE STN 47","Address":"5946 Kauffman Ave","City":"Temple City","State":"CA","Zip":"91780"},{"Location":"LITTLE BOHEMIA","Address":"9535 Las Tunas Dr","City":"Temple City","State":"CA","Zip":"91780"},{"Location":"MI OFICINA","Address":"6334 Rosemead Blvd","City":"Temple City","State":"CA","Zip":"91780"},{"Location":"OSCAR MURSULI CIGARS","Address":"10669 Lower Azusa Rd","City":"Temple City","State":"CA","Zip":"91780"},{"Location":"PARLIAMENT FINANCAL","Address":"9083 Las Tunas Dr","City":"Temple City","State":"CA","Zip":"91780"},{"Location":"RACQUET SPORTS","Address":"9614 Las Tunas Dr","City":"Temple City","State":"CA","Zip":"91780"},{"Location":"STATE FARM","Address":"9529 Las Tunas Dr","City":"Temple City","State":"CA","Zip":"91780"},{"Location":"TEMPLE CITY DIALYSIS","Address":"9945 Lower Azusa Rd","City":"Temple City","State":"CA","Zip":"91780"},{"Location":"TEMPLE CITY HEALTHCARE","Address":"5101 Tyler Ave","City":"Temple City","State":"CA","Zip":"91780"},{"Location":"TENJU TEA HOUSE","Address":"5817 Rosemead Blvd","City":"Temple City","State":"CA","Zip":"91780"}]