[{"Location":"CHILI'S #1554","Address":"1191 E 19th St","City":"Upland","State":"CA","Zip":"91784"},{"Location":"COMPETITRACK INC","Address":"1713 N Ukiah Way","City":"Upland","State":"CA","Zip":"91784"},{"Location":"DICK'S SPORTING GOODS #922","Address":"1939 N Campus Ave","City":"Upland","State":"CA","Zip":"91784"},{"Location":"FRATELLOS PIZZA AND PASTA","Address":"1667 N Mountain Ave 123","City":"Upland","State":"CA","Zip":"91784"},{"Location":"GOLFSMITH 030","Address":"1221 E 19th St","City":"Upland","State":"CA","Zip":"91784"},{"Location":"GRAZIES ITALIAN REST.","Address":"1615 N Mountain Ave","City":"Upland","State":"CA","Zip":"91784"},{"Location":"HAPPY NAILS OF UPLAND","Address":"1902 N Campus Ave","City":"Upland","State":"CA","Zip":"91784"},{"Location":"KOHL'S #607","Address":"1923 N Campus Ave","City":"Upland","State":"CA","Zip":"91784"},{"Location":"KUMA SUSHI","Address":"1905 N Campus Ave","City":"Upland","State":"CA","Zip":"91784"},{"Location":"LA FITNESS #76","Address":"1351 E 19th St","City":"Upland","State":"CA","Zip":"91784"},{"Location":"LILELU INC DBA JERSEY MI","Address":"1945 N Campus Ave A","City":"Upland","State":"CA","Zip":"91784"},{"Location":"MOUNTAIN VIEW TIRE AND SERVICE","Address":"1389 E 19th St","City":"Upland","State":"CA","Zip":"91784"},{"Location":"MOUNTAIN VIEW VETENARY   HOSP","Address":"1655 N Mountain Ave 110","City":"Upland","State":"CA","Zip":"91784"},{"Location":"NGUYEN","Address":"1943 N Campus Ave","City":"Upland","State":"CA","Zip":"91784"},{"Location":"NORDSTROM RACK - COLONIE","Address":"1301 E 19th St","City":"Upland","State":"CA","Zip":"91784"},{"Location":"PET TIME ANIMAL HOSPITAL","Address":"1103 E 16th St","City":"Upland","State":"CA","Zip":"91784"},{"Location":"PFF BANK AND TRUST","Address":"1669 N Mountain Ave","City":"Upland","State":"CA","Zip":"91784"},{"Location":"PORTERS SPORTS GRILL","Address":"1041 E 16th St F","City":"Upland","State":"CA","Zip":"91784"},{"Location":"QDOBA-002440-UPLAND","Address":"1902 N Campus Ave A","City":"Upland","State":"CA","Zip":"91784"},{"Location":"RANCHO LOS MAGUEYES","Address":"1667 N Mountian Ave 128","City":"Upland","State":"CA","Zip":"91784"},{"Location":"ROUNDIN 3RD SPORTS BAR","Address":"1041 E 16th St F","City":"Upland","State":"CA","Zip":"91784"},{"Location":"SAN BIAGIOS PIZZA 19TH S","Address":"1118 E 19th St","City":"Upland","State":"CA","Zip":"91784"},{"Location":"SANNER CAPITAL MANAGEMENT","Address":"1125 E 16th St 1","City":"Upland","State":"CA","Zip":"91784"},{"Location":"SOUVLLA GREEK GRILL","Address":"1945 N Campus Ave C","City":"Upland","State":"CA","Zip":"91784"},{"Location":"SPORT CLIPS CA632","Address":"1943 N Campus Ave B","City":"Upland","State":"CA","Zip":"91784"},{"Location":"STIX HOLDINGS 782","Address":"1053 E 19th St B","City":"Upland","State":"CA","Zip":"91784"},{"Location":"SUMMIT OTHODONICS","Address":"1902 Ncampus Ave","City":"Upland","State":"CA","Zip":"91784"},{"Location":"SUPER     CUTS CA EIGHT","Address":"1902 N Campus Ave","City":"Upland","State":"CA","Zip":"91784"},{"Location":"TARGET","Address":"1931 N Campus Ave","City":"Upland","State":"CA","Zip":"91784"},{"Location":"THE BRITISH BULLDOG PUB","Address":"1667 N Mountain Ave 117","City":"Upland","State":"CA","Zip":"91784"},{"Location":"THE HEIGHTS RESTAURANT","Address":"1883 N Campus Ave","City":"Upland","State":"CA","Zip":"91784"},{"Location":"UPLAND HILLS COUNTRY CLU","Address":"1231 E 16th St","City":"Upland","State":"CA","Zip":"91784"},{"Location":"UPLAND SMILE CENTER","Address":"1125 E 16th St 6","City":"Upland","State":"CA","Zip":"91784"},{"Location":"USDA FOREST","Address":"3000 N Mountain Ave","City":"Upland","State":"CA","Zip":"91784"},{"Location":"Z MAURO CORP","Address":"1943 N Campus Ave","City":"Upland","State":"CA","Zip":"91784"}]