[{"Location":"24 HOUR FITNESS #165","Address":"685 W Foothill Blvd","City":"Upland","State":"CA","Zip":"91786"},{"Location":"66 AUTO REPAIR","Address":"1775 W Foothill Blvd","City":"Upland","State":"CA","Zip":"91786"},{"Location":"A M P TREE SERVICE INC","Address":"202 N Loma Pl","City":"Upland","State":"CA","Zip":"91786"},{"Location":"A PLUS AUTO","Address":"735 N Mountain Ave","City":"Upland","State":"CA","Zip":"91786"},{"Location":"ABC PHARMACY","Address":"954 W Foothill Blvd","City":"Upland","State":"CA","Zip":"91786"},{"Location":"ALERT SEC SYSTEMS","Address":"1232 Monte Vista Ave 2","City":"Upland","State":"CA","Zip":"91786"},{"Location":"ALL PURPOSE SAFETY TRAINING","Address":"167 N 3rd Ave Q","City":"Upland","State":"CA","Zip":"91786"},{"Location":"ALPINE COLLISON CENTER","Address":"2110 Aviation Dr","City":"Upland","State":"CA","Zip":"91786"},{"Location":"AMC PROPERTY MANAGEMENT","Address":"1452 W 9th St E","City":"Upland","State":"CA","Zip":"91786"},{"Location":"AMERICAN ALLIANCE DRUG TESTING","Address":"326 N Euclid Ave","City":"Upland","State":"CA","Zip":"91786"},{"Location":"ANAYA TILE INC","Address":"993 W 9th St","City":"Upland","State":"CA","Zip":"91786"},{"Location":"ANGELS CARE ANIMAL HOSPITAL","Address":"659 E 15th St Q","City":"Upland","State":"CA","Zip":"91786"},{"Location":"B AND D CONSTRUCTION","Address":"145 N 10th Ave","City":"Upland","State":"CA","Zip":"91786"},{"Location":"BOOMERS UPLAND","Address":"1560 W 7th St","City":"Upland","State":"CA","Zip":"91786"},{"Location":"BRANDONS DINER","Address":"870 E Foothill Blvd A","City":"Upland","State":"CA","Zip":"91786"},{"Location":"BRUNSWICK ZONE #827 UPLAND","Address":"451 W Foothill Blvd","City":"Upland","State":"CA","Zip":"91786"},{"Location":"CAFFE ALLEGRO","Address":"186 N 2nd Ave","City":"Upland","State":"CA","Zip":"91786"},{"Location":"CALI CUTS","Address":"330 W Foothill Blvd","City":"Upland","State":"CA","Zip":"91786"},{"Location":"CALIFORNIA CYLINDER CORP","Address":"1297 W 9th St","City":"Upland","State":"CA","Zip":"91786"},{"Location":"CAREMORE MEDICAL ENT LLC","Address":"141 W Foothill Blvd","City":"Upland","State":"CA","Zip":"91786"},{"Location":"CCL LABEL INC","Address":"576 College Commerce Way","City":"Upland","State":"CA","Zip":"91786"},{"Location":"CENTURY TU RESTURANT","Address":"1244 W Foothill Blvd","City":"Upland","State":"CA","Zip":"91786"},{"Location":"CERTIFIED TIRE","Address":"463 E Foothill Blvd","City":"Upland","State":"CA","Zip":"91786"},{"Location":"CHARLES SCHWAB CC866","Address":"299 W Foothill Blvd 112","City":"Upland","State":"CA","Zip":"91786"},{"Location":"CHARLIES STARS AND STRIPES","Address":"296 N 2nd Ave","City":"Upland","State":"CA","Zip":"91786"},{"Location":"CLASSIC VAPOR","Address":"373 E Foothill Blvd F","City":"Upland","State":"CA","Zip":"91786"},{"Location":"CLINICA MEDICA CENTRO LASER","Address":"300 E 7th St 2e","City":"Upland","State":"CA","Zip":"91786"},{"Location":"COUTURE SALON STUDIO","Address":"141 W Foothill Blvd C","City":"Upland","State":"CA","Zip":"91786"},{"Location":"CRUNCH LA LLC","Address":"380 S Mountain Ave","City":"Upland","State":"CA","Zip":"91786"},{"Location":"DALE BROS. BREWERY","Address":"2120 Porter Field Way","City":"Upland","State":"CA","Zip":"91786"},{"Location":"DAMAS ENTERTAINMENT INC","Address":"406 E Foothill Blvd","City":"Upland","State":"CA","Zip":"91786"},{"Location":"DAVITA #1426 LIFELINE","Address":"536 E Foothill Blvd","City":"Upland","State":"CA","Zip":"91786"},{"Location":"DAVITA #3903 UPLAND","Address":"600 N 13th Ave","City":"Upland","State":"CA","Zip":"91786"},{"Location":"DB FLOORING","Address":"1148 W 9th St","City":"Upland","State":"CA","Zip":"91786"},{"Location":"DC INC","Address":"1241 W 9th St","City":"Upland","State":"CA","Zip":"91786"},{"Location":"DEWEY MCDONALD CARRILLO","Address":"1232 W Arrow Hwy 200","City":"Upland","State":"CA","Zip":"91786"},{"Location":"DKP ELECTRIC","Address":"1495 W 9th St 505","City":"Upland","State":"CA","Zip":"91786"},{"Location":"DOMIS PERUVIAN CUISINE","Address":"915 N Euclid Ave","City":"Upland","State":"CA","Zip":"91786"},{"Location":"DONNA DUDZIAK MD","Address":"901 San Bernardino Rd 301","City":"Upland","State":"CA","Zip":"91786"},{"Location":"DR JOHN SAUTER","Address":"1330 San Bernardino Rd 1","City":"Upland","State":"CA","Zip":"91786"},{"Location":"DST","Address":"1689 W Arrow Rte J","City":"Upland","State":"CA","Zip":"91786"},{"Location":"EAGLE INVESTMENTS OF CAL","Address":"2175 W Foothill Blvd","City":"Upland","State":"CA","Zip":"91786"},{"Location":"EDEN EAST","Address":"1651 W Foothill Blvd M","City":"Upland","State":"CA","Zip":"91786"},{"Location":"EDEN GARDEN FUSION GRILL","Address":"392 East A St","City":"Upland","State":"CA","Zip":"91786"},{"Location":"EL PERICO RANCHERO","Address":"1401 E Foothill Blvd","City":"Upland","State":"CA","Zip":"91786"},{"Location":"EL TORITO 7188","Address":"335 S Mountain Ave","City":"Upland","State":"CA","Zip":"91786"},{"Location":"ELITE MEDICAL EXPRESS","Address":"521 N Mountain Ave P","City":"Upland","State":"CA","Zip":"91786"},{"Location":"EMPIRE CLINICAL RESEARCH","Address":"1060 E Foothill Blvd","City":"Upland","State":"CA","Zip":"91786"},{"Location":"EVEREST RESTAURANT  1","Address":"430 N Central Ave","City":"Upland","State":"CA","Zip":"91786"},{"Location":"EVERLAST VAPOR","Address":"188 N 2nd Ave","City":"Upland","State":"CA","Zip":"91786"},{"Location":"FATIMA H HAKKAK DO.INC","Address":"685 N 13th Ave 10","City":"Upland","State":"CA","Zip":"91786"},{"Location":"FIRESTONE #013420","Address":"1434 E Foothill Blvd","City":"Upland","State":"CA","Zip":"91786"},{"Location":"FITNESS 19 CA132","Address":"141 W Foothill Blvd C","City":"Upland","State":"CA","Zip":"91786"},{"Location":"FOOTHILL CAR WASH","Address":"2016 W Foothill Blvd","City":"Upland","State":"CA","Zip":"91786"},{"Location":"FORD OF UPLAND","Address":"555 W Foothill Blvd","City":"Upland","State":"CA","Zip":"91786"},{"Location":"FRANK PICKETT","Address":"818 N Mountain Ave 202","City":"Upland","State":"CA","Zip":"91786"},{"Location":"FREDDIE BALGUMA%2C MD","Address":"630 N 13th Ave","City":"Upland","State":"CA","Zip":"91786"},{"Location":"FRESH DENTAL","Address":"99 N San Antonio Ave 220","City":"Upland","State":"CA","Zip":"91786"},{"Location":"G SOUND","Address":"1466 E Foothill Blvd","City":"Upland","State":"CA","Zip":"91786"},{"Location":"GEM WORLD OF CALIFORNIA","Address":"155 N Benson Ave","City":"Upland","State":"CA","Zip":"91786"},{"Location":"GOLDEN NAILS SPA","Address":"1270 W Foothill Blvd","City":"Upland","State":"CA","Zip":"91786"},{"Location":"GOLDEN STATE BANK","Address":"1060 W Foothill Blvd","City":"Upland","State":"CA","Zip":"91786"},{"Location":"GOODTIMEZ","Address":"649 W Foothill Blvd","City":"Upland","State":"CA","Zip":"91786"},{"Location":"GRAY AND EHRLER ORTHODONTIC","Address":"436 N Mountain Ave","City":"Upland","State":"CA","Zip":"91786"},{"Location":"HAF LLC","Address":"40 N Central Ave","City":"Upland","State":"CA","Zip":"91786"},{"Location":"HAIR FIRST BARBER & BEAU","Address":"677 E Foothill Blvd","City":"Upland","State":"CA","Zip":"91786"},{"Location":"HEALTHY ENVIRONMENT","Address":"557 N Central Ave","City":"Upland","State":"CA","Zip":"91786"},{"Location":"HERBERT BAIL BONDS","Address":"147 N Euclid Ave","City":"Upland","State":"CA","Zip":"91786"},{"Location":"HI BROW","Address":"925 W Foothill Blvd","City":"Upland","State":"CA","Zip":"91786"},{"Location":"HOLLIDAY ROCK","Address":"1401 N Benson Ave","City":"Upland","State":"CA","Zip":"91786"},{"Location":"HTW OFF ROAD CENTER","Address":"356 E Foothill Blvd A","City":"Upland","State":"CA","Zip":"91786"},{"Location":"IAN BISHOP","Address":"440 N Mountain Ave 313","City":"Upland","State":"CA","Zip":"91786"},{"Location":"INCAS PERUVIAN GRILL","Address":"870 E Foothill Blvd","City":"Upland","State":"CA","Zip":"91786"},{"Location":"INLAND EMERGENCY PET CLINIC","Address":"10 W 7th St","City":"Upland","State":"CA","Zip":"91786"},{"Location":"INLAND EMPIRE OMFS","Address":"930 W Foothill Blvd C","City":"Upland","State":"CA","Zip":"91786"},{"Location":"INLAND FAMILY HEALTH CENTERS","Address":"300 N Euclid Ave","City":"Upland","State":"CA","Zip":"91786"},{"Location":"INLAND INSTITUTE","Address":"1333 E Foothill Blvd","City":"Upland","State":"CA","Zip":"91786"},{"Location":"INLAND VALLEY","Address":"2009 Porter Field Way C","City":"Upland","State":"CA","Zip":"91786"},{"Location":"INLAND VALLEY RECOVERY SERVICE","Address":"934 N Mountain Ave A-b","City":"Upland","State":"CA","Zip":"91786"},{"Location":"J&G ADVERTISING SPECCIAL","Address":"1388 W 9th St","City":"Upland","State":"CA","Zip":"91786"},{"Location":"JARRITOS RESTAURANT","Address":"1262 W Foothill Blvd","City":"Upland","State":"CA","Zip":"91786"},{"Location":"JD ALLISON'S","Address":"291 N 2nd Ave","City":"Upland","State":"CA","Zip":"91786"},{"Location":"JERSEY MIKES SUBS","Address":"367 S Mountain Ave","City":"Upland","State":"CA","Zip":"91786"},{"Location":"KERN DIAGNOSTIC","Address":"1328 N Benson Ave C","City":"Upland","State":"CA","Zip":"91786"},{"Location":"KOHL'S #1384","Address":"233 S Mountain Ave","City":"Upland","State":"CA","Zip":"91786"},{"Location":"KRAMERS MASONARY","Address":"2066 W Foothill Blvd","City":"Upland","State":"CA","Zip":"91786"},{"Location":"KS E CIG CORP","Address":"1229 W Foothill Blvd","City":"Upland","State":"CA","Zip":"91786"},{"Location":"LAMB COMPONENTS","Address":"1259 W 9th St","City":"Upland","State":"CA","Zip":"91786"},{"Location":"LASER ISLAND","Address":"207 E Foothill Blvd","City":"Upland","State":"CA","Zip":"91786"},{"Location":"LAURA BELLO","Address":"500 N Euclid Ave","City":"Upland","State":"CA","Zip":"91786"},{"Location":"LAW OFCS OF MARK GROSSMAN","Address":"100 N Euclid Ave","City":"Upland","State":"CA","Zip":"91786"},{"Location":"LAW OFFICE OF ROBERT SCHAUER","Address":"215 N 2nd Ave F","City":"Upland","State":"CA","Zip":"91786"},{"Location":"LAW OFFICE.RICHARD MUIR","Address":"820 N Mountain Ave 235","City":"Upland","State":"CA","Zip":"91786"},{"Location":"LAW OFFICES OF MARK GROSSMAN","Address":"525 N Central Ave 2","City":"Upland","State":"CA","Zip":"91786"},{"Location":"LIMERICKS TAVERN INC","Address":"1234 W Foothill Blvd","City":"Upland","State":"CA","Zip":"91786"},{"Location":"LOUIES CHKN & FISH GRILL","Address":"960 N Mountain Ave A","City":"Upland","State":"CA","Zip":"91786"},{"Location":"MAGDELENOS RESTAURANT","Address":"220 N Central Ave","City":"Upland","State":"CA","Zip":"91786"},{"Location":"MAILIK","Address":"175 Grove Ave C","City":"Upland","State":"CA","Zip":"91786"},{"Location":"MARGARITA ROCKS","Address":"1386 E Foothill Blvd","City":"Upland","State":"CA","Zip":"91786"},{"Location":"MARK CHRISTOPHER AUTO CENTER","Address":"2122 Aviation Dr","City":"Upland","State":"CA","Zip":"91786"},{"Location":"MARTINEZ TOWING","Address":"331 E Foothill Blvd","City":"Upland","State":"CA","Zip":"91786"},{"Location":"MCCALISTER","Address":"1527 W 13th St H","City":"Upland","State":"CA","Zip":"91786"},{"Location":"MCEAHRON CONSTRUCTION","Address":"1538 Howard Access Rd","City":"Upland","State":"CA","Zip":"91786"},{"Location":"MEDITERRIANE LOUNGE","Address":"1276 W 7th St","City":"Upland","State":"CA","Zip":"91786"},{"Location":"MI RANCHITO","Address":"152 W Foothill Blvd","City":"Upland","State":"CA","Zip":"91786"},{"Location":"MORA","Address":"820 W Foothill Blvd","City":"Upland","State":"CA","Zip":"91786"},{"Location":"MOUNTAIN VIEW CHEVROLET","Address":"1079 W Foothill Blvd","City":"Upland","State":"CA","Zip":"91786"},{"Location":"NEW CHINA REST","Address":"2006 W Foothill Blvd","City":"Upland","State":"CA","Zip":"91786"},{"Location":"NUNOS BISTRO","Address":"2440 W Arrow Rte","City":"Upland","State":"CA","Zip":"91786"},{"Location":"OLD WORLD DELI","Address":"281 S Mountian Ave","City":"Upland","State":"CA","Zip":"91786"},{"Location":"OUTBACK STEAKHOUSE #0554","Address":"530 N Mountain Ave","City":"Upland","State":"CA","Zip":"91786"},{"Location":"P.A. FINANCIAL LEASING","Address":"2009 Porter Field Way","City":"Upland","State":"CA","Zip":"91786"},{"Location":"PACIFIC COAST SHOWMEN ASSN","Address":"305 N Central Ave","City":"Upland","State":"CA","Zip":"91786"},{"Location":"PACIFIC EYE INSTITUTE","Address":"555 N 13th Ave","City":"Upland","State":"CA","Zip":"91786"},{"Location":"PACIFIC WINE MERCHANTS","Address":"210 A St","City":"Upland","State":"CA","Zip":"91786"},{"Location":"PEOPLE UNITED FOR CHRIST","Address":"550 College Commerce Way","City":"Upland","State":"CA","Zip":"91786"},{"Location":"PHIL JAE RA","Address":"190 N Mountain Ave","City":"Upland","State":"CA","Zip":"91786"},{"Location":"PHILLIPS UNDERCAR","Address":"1710 W Foothill Blvd A3","City":"Upland","State":"CA","Zip":"91786"},{"Location":"PHYSIO THERAPY ASSCOSIATES","Address":"299 W Foothill Blvd 200","City":"Upland","State":"CA","Zip":"91786"},{"Location":"PINNACLE LABS INTERNATIONAL","Address":"284 Industry Way","City":"Upland","State":"CA","Zip":"91786"},{"Location":"PLE INC","Address":"1551 W 13th St","City":"Upland","State":"CA","Zip":"91786"},{"Location":"PREMIER STONE AND TITLE","Address":"1024 W 9th St","City":"Upland","State":"CA","Zip":"91786"},{"Location":"PRINCETON PROPERTY MANGEMENT","Address":"165 Wiseman Way B","City":"Upland","State":"CA","Zip":"91786"},{"Location":"PRO BEST NAILS","Address":"669 E Foothill Blvd","City":"Upland","State":"CA","Zip":"91786"},{"Location":"PUEBLITA RESTAURANT","Address":"555 N Benson Ave","City":"Upland","State":"CA","Zip":"91786"},{"Location":"PULLEY","Address":"1308 Monte Vista Ave 10","City":"Upland","State":"CA","Zip":"91786"},{"Location":"PUNK ROCK PLUMBING","Address":"1106 W 9th St","City":"Upland","State":"CA","Zip":"91786"},{"Location":"RANCHO MOBILE AUTO SERVI","Address":"1466 E Foothill Blvd A","City":"Upland","State":"CA","Zip":"91786"},{"Location":"RAQUEL NUNEZ INC","Address":"933 N Central Ave Steb","City":"Upland","State":"CA","Zip":"91786"},{"Location":"REACH AIR MEDICAL SERVICES 13","Address":"1257 Airport Dr","City":"Upland","State":"CA","Zip":"91786"},{"Location":"RED DEVIL PIZZA","Address":"907 W Foothill Blvd","City":"Upland","State":"CA","Zip":"91786"},{"Location":"RESOURCE COMPUTERS","Address":"1945 W 9th St","City":"Upland","State":"CA","Zip":"91786"},{"Location":"REVOLCREATIVE","Address":"1160 Dewey Way D","City":"Upland","State":"CA","Zip":"91786"},{"Location":"RFJ&G INC","Address":"1440 N Benson Ave E","City":"Upland","State":"CA","Zip":"91786"},{"Location":"RHYTHM AND BREWS CABERET","Address":"281 N 2nd Ave","City":"Upland","State":"CA","Zip":"91786"},{"Location":"ROMULO DELEON DDS","Address":"250 E 7th St","City":"Upland","State":"CA","Zip":"91786"},{"Location":"ROUND TABLE PIZZA","Address":"830 E Foothill Blvd","City":"Upland","State":"CA","Zip":"91786"},{"Location":"ROZINA SMITH THERAPY","Address":"846 W Foothill Blvd C","City":"Upland","State":"CA","Zip":"91786"},{"Location":"SAKE SAKE","Address":"345 S Mountain Ave","City":"Upland","State":"CA","Zip":"91786"},{"Location":"SAN ANTONIO AMBULATORY","Address":"901 San Bernardino Rd 2ndfl","City":"Upland","State":"CA","Zip":"91786"},{"Location":"SAN ANTONIO COMMUNITY HOSPITAL","Address":"999 San Bernardino Rd 685","City":"Upland","State":"CA","Zip":"91786"},{"Location":"SAN ANTONIO COMMUNITY HOSPITAL","Address":"999 San Bernardino Rd","City":"Upland","State":"CA","Zip":"91786"},{"Location":"SAN BIAGIOS PIZZA 7TH ST","Address":"1263 W 7th St","City":"Upland","State":"CA","Zip":"91786"},{"Location":"SANDRA E","Address":"151 N 2nd Ave","City":"Upland","State":"CA","Zip":"91786"},{"Location":"SANNER CAPITAL MANAGEMENT","Address":"1749 W 13th St 281","City":"Upland","State":"CA","Zip":"91786"},{"Location":"SCHEU YMCA OF UPLAND","Address":"1150 E Foothill Blvd","City":"Upland","State":"CA","Zip":"91786"},{"Location":"SCOTT GOLDMAN MD","Address":"400 N Mountain Ave 310","City":"Upland","State":"CA","Zip":"91786"},{"Location":"SECOND AVENUE SALOON","Address":"271 N 2nd Ave","City":"Upland","State":"CA","Zip":"91786"},{"Location":"SEDUCTIVE HAIR","Address":"141 W Foothill Blvd C","City":"Upland","State":"CA","Zip":"91786"},{"Location":"SHAKEYS UPLAND","Address":"791 E Foothill Blvd A","City":"Upland","State":"CA","Zip":"91786"},{"Location":"SHIRLEES  FITNESS CLUB","Address":"1275 W Foothill Blvd","City":"Upland","State":"CA","Zip":"91786"},{"Location":"SHO SUSHI","Address":"373 E Foothill Blvd D","City":"Upland","State":"CA","Zip":"91786"},{"Location":"SKIN PHYSICIANS AND SURGEONS","Address":"859 E Foothill Blvd B","City":"Upland","State":"CA","Zip":"91786"},{"Location":"SMOTHERS BARBERS","Address":"175 N 2nd Ave","City":"Upland","State":"CA","Zip":"91786"},{"Location":"SO CAL PERMANENTE MED GROUP","Address":"1183 E Foothill Blvd","City":"Upland","State":"CA","Zip":"91786"},{"Location":"SO CAL PERMANENTE MED GRP","Address":"1183 E Foothill Blvd","City":"Upland","State":"CA","Zip":"91786"},{"Location":"SONIS MARKET & LIQUOR","Address":"197 S 2nd Ave","City":"Upland","State":"CA","Zip":"91786"},{"Location":"SOUTHWEST SERVICES","Address":"869 E Foothill Blvd H","City":"Upland","State":"CA","Zip":"91786"},{"Location":"SPOIL ME NAILS SPA","Address":"1651 W Foothill Blvd E","City":"Upland","State":"CA","Zip":"91786"},{"Location":"STAR IMPORT AUTO","Address":"1410 E Foothill Blvd Stea","City":"Upland","State":"CA","Zip":"91786"},{"Location":"STEVEN ZALMAS","Address":"969 W Foothill Blvd","City":"Upland","State":"CA","Zip":"91786"},{"Location":"STEVES COLLISION","Address":"1060 W 9th St","City":"Upland","State":"CA","Zip":"91786"},{"Location":"STIX HOLDINGS 766","Address":"131 W Foothill Blvd A","City":"Upland","State":"CA","Zip":"91786"},{"Location":"STONE COLLECTION","Address":"1104 W 9th St","City":"Upland","State":"CA","Zip":"91786"},{"Location":"SUNSHINE WINDOWS","Address":"265 Corporate Way","City":"Upland","State":"CA","Zip":"91786"},{"Location":"SUSHI SHIRO","Address":"967 W Foothill Blvd","City":"Upland","State":"CA","Zip":"91786"},{"Location":"SUSHI TAKUMI","Address":"1651 W Foothill Blvd A","City":"Upland","State":"CA","Zip":"91786"},{"Location":"TALK OF THE TOWN HAIR","Address":"250 N 2nd Ave H","City":"Upland","State":"CA","Zip":"91786"},{"Location":"TDR MORTGAGE","Address":"180 D St","City":"Upland","State":"CA","Zip":"91786"},{"Location":"TEN X","Address":"1693 W Arrow Rte B","City":"Upland","State":"CA","Zip":"91786"},{"Location":"TEQUILA HOPPERS BAR & GRILL IN","Address":"60 N Mountain Ave","City":"Upland","State":"CA","Zip":"91786"},{"Location":"THE BUFFALO INN","Address":"1814 W Foothill Blvd","City":"Upland","State":"CA","Zip":"91786"},{"Location":"THE PALACE MEDITERRIANE","Address":"1276 W 7th St","City":"Upland","State":"CA","Zip":"91786"},{"Location":"THE THINNERY","Address":"651 W Foothill Blvd","City":"Upland","State":"CA","Zip":"91786"},{"Location":"THE UPLAND SPORTS ARENA","Address":"1721 W 11th St","City":"Upland","State":"CA","Zip":"91786"},{"Location":"THEORY NAILS LOUNGE","Address":"141 W Foothill Blvd A","City":"Upland","State":"CA","Zip":"91786"},{"Location":"TILE DISCOUNTERS","Address":"1076 W 9th St","City":"Upland","State":"CA","Zip":"91786"},{"Location":"TIME OUT SALON  AND BARB","Address":"382 S Mountain Ave","City":"Upland","State":"CA","Zip":"91786"},{"Location":"TOMAS RODRIGUEZ LLC","Address":"935 W Foothill Blvd","City":"Upland","State":"CA","Zip":"91786"},{"Location":"TRI CITY PATIENT CENTER","Address":"2174 W Foothill Blvd","City":"Upland","State":"CA","Zip":"91786"},{"Location":"TROPICAL LEI","Address":"2121 W Foothill Blvd","City":"Upland","State":"CA","Zip":"91786"},{"Location":"UPLAND DENTAL AESTHETICS","Address":"121 W Foothill Blvd E","City":"Upland","State":"CA","Zip":"91786"},{"Location":"UPLAND KABOB INC","Address":"733 N Mountain Ave","City":"Upland","State":"CA","Zip":"91786"},{"Location":"UPLAND SURGICAL","Address":"1330 San Bernardino Rd","City":"Upland","State":"CA","Zip":"91786"},{"Location":"UPLAND TENNIS CLUB","Address":"1525 W 15th St","City":"Upland","State":"CA","Zip":"91786"},{"Location":"US AUCTIONS OFFICE","Address":"130 E 9th St","City":"Upland","State":"CA","Zip":"91786"},{"Location":"US BANK","Address":"20 E Foothill Blvd","City":"Upland","State":"CA","Zip":"91786"},{"Location":"VAN GORDON RACING","Address":"1846 W 11th St J","City":"Upland","State":"CA","Zip":"91786"},{"Location":"VAPE INDUSTRY","Address":"1120 Dewey Way","City":"Upland","State":"CA","Zip":"91786"},{"Location":"VCA CENTRAL ANINMAL HOSPITAL","Address":"281 N Central Ave","City":"Upland","State":"CA","Zip":"91786"},{"Location":"WABA GRILL","Address":"899 W Foothill Blvd","City":"Upland","State":"CA","Zip":"91786"},{"Location":"WELCHES MANAGEMENT","Address":"1233 W Foothill Blvd","City":"Upland","State":"CA","Zip":"91786"},{"Location":"WINGSTOP 830","Address":"110 S Mountain Ave B","City":"Upland","State":"CA","Zip":"91786"},{"Location":"WOMAN YOU ARE","Address":"141 W Foothill Blvd C","City":"Upland","State":"CA","Zip":"91786"},{"Location":"X MEADOW FINISHING","Address":"954 W 9th St","City":"Upland","State":"CA","Zip":"91786"},{"Location":"ZAKY CORPORATION","Address":"1013 W Foothill Blvd E","City":"Upland","State":"CA","Zip":"91786"}]