[{"Location":"24 HOUR FITNESS #860","Address":"21560 Valley Blvd","City":"City Of Industry","State":"CA","Zip":"91789"},{"Location":"KOHL'S #197","Address":"21818 Valley Blvd","City":"City Of Industry","State":"CA","Zip":"91789"},{"Location":"OWENS AND MINER","Address":"455 Brea Canyon Rd","City":"City Of Industry","State":"CA","Zip":"91789"},{"Location":"UNICAL AVIATION  INC","Address":"680 S Lemon Ave","City":"City Of Industry","State":"CA","Zip":"91789"},{"Location":"BBQ STOP","Address":"20627 Golden Springs Dr A","City":"Diamond Bar","State":"CA","Zip":"91789"},{"Location":"OB SQUARE","Address":"20657 Golden Springs Dr 102","City":"Diamond Bar","State":"CA","Zip":"91789"},{"Location":"SIX STAR VILLA FOOT SPA","Address":"20915 Golden Springs Dr","City":"Diamond Bar","State":"CA","Zip":"91789"},{"Location":"ADVANCED INDUSTRIAL COMPUTERS","Address":"21808 Garcia Ln","City":"Walnut","State":"CA","Zip":"91789"},{"Location":"ALAMO CAR WASH","Address":"784 Nogales Ave","City":"Walnut","State":"CA","Zip":"91789"},{"Location":"ALAMO CAR WASH 1","Address":"762 N Nogales St","City":"Walnut","State":"CA","Zip":"91789"},{"Location":"AMERCIAN STRIPES","Address":"18856 Amar Rd 7","City":"Walnut","State":"CA","Zip":"91789"},{"Location":"AMERICAN MEDICAL RESPONSE II","Address":"20148 E Walnut Dr S I","City":"Walnut","State":"CA","Zip":"91789"},{"Location":"APPLEBEE'S WALNUT","Address":"21625 Valley Blvd","City":"Walnut","State":"CA","Zip":"91789"},{"Location":"BARROS PIZZA","Address":"21000 Golden Springs Dr","City":"Walnut","State":"CA","Zip":"91789"},{"Location":"BOBA TIME1","Address":"19820 Colima Rd","City":"Walnut","State":"CA","Zip":"91789"},{"Location":"BULK TRANSPORTATION","Address":"415 S Lemon Ave","City":"Walnut","State":"CA","Zip":"91789"},{"Location":"CAFE HOUSE 2","Address":"20627 Golden Springs Dr","City":"Walnut","State":"CA","Zip":"91789"},{"Location":"CAL BANK & TRUST","Address":"20401 Valley Blvd","City":"Walnut","State":"CA","Zip":"91789"},{"Location":"CALIBER COLLISION CENTERS","Address":"20601 Valley Blvd","City":"Walnut","State":"CA","Zip":"91789"},{"Location":"CAPRIOTTIS SANDWICH SHOP","Address":"505 N Grand Ave 97","City":"Walnut","State":"CA","Zip":"91789"},{"Location":"COLIMA PALACE","Address":"19814 Colima Rd","City":"Walnut","State":"CA","Zip":"91789"},{"Location":"DREYERS DIST","Address":"351 Cheryl Ln","City":"Walnut","State":"CA","Zip":"91789"},{"Location":"FED EX GROUND","Address":"200 Old Ranch Rd","City":"Walnut","State":"CA","Zip":"91789"},{"Location":"FIRESTONE #006378","Address":"860 Nogales Ave","City":"Walnut","State":"CA","Zip":"91789"},{"Location":"FISERV SOLUTIONS","Address":"19935 E Walnut Dr N","City":"Walnut","State":"CA","Zip":"91789"},{"Location":"GRAND AVENUE DENTAL PRACTICE","Address":"1249 N Grand Ave","City":"Walnut","State":"CA","Zip":"91789"},{"Location":"GSF","Address":"21489 Baker Pkwy","City":"Walnut","State":"CA","Zip":"91789"},{"Location":"HANSANG","Address":"1119 Brea Canyon Rd","City":"Walnut","State":"CA","Zip":"91789"},{"Location":"HAWAIIAN BBQ","Address":"21565 Valley Blvd C","City":"Walnut","State":"CA","Zip":"91789"},{"Location":"HD SUPPLY","Address":"21651 Baker Pkwy","City":"Walnut","State":"CA","Zip":"91789"},{"Location":"HSBC BANK #819881","Address":"515 N Grand Ave 1","City":"Walnut","State":"CA","Zip":"91789"},{"Location":"I MOMO SUSHI","Address":"368 N Lemon Ave","City":"Walnut","State":"CA","Zip":"91789"},{"Location":"J.F. SHEA CO. INC","Address":"655 Brea Canyon Rd","City":"Walnut","State":"CA","Zip":"91789"},{"Location":"JAKKS PACIFIC INC","Address":"21749 Baker Pkwy","City":"Walnut","State":"CA","Zip":"91789"},{"Location":"KEITH BREIDINGER R CPA","Address":"404 S Lemon Ave 1","City":"Walnut","State":"CA","Zip":"91789"},{"Location":"L&L HAWAIIAN BARBEQUE","Address":"21565 Valley Blvd.%2C Ste C","City":"Walnut","State":"CA","Zip":"91789"},{"Location":"LA FITNESS #40","Address":"20801 Golden Springs Dr","City":"Walnut","State":"CA","Zip":"91789"},{"Location":"LA PETITE BEAUTY SALON","Address":"784 Nogales Ave","City":"Walnut","State":"CA","Zip":"91789"},{"Location":"LIQUOR STATION","Address":"800 N Nogales St","City":"Walnut","State":"CA","Zip":"91789"},{"Location":"LOS AMIGOS RESTURANT","Address":"20835 Valley Blvd","City":"Walnut","State":"CA","Zip":"91789"},{"Location":"LOS PORTALES","Address":"778 Nogales Ave","City":"Walnut","State":"CA","Zip":"91789"},{"Location":"MORROW-MEADOWS CORP.","Address":"231 Benton Ct","City":"Walnut","State":"CA","Zip":"91789"},{"Location":"MYUNG DONG TOFU HOUSE","Address":"20627 Golden Springs Dr Stem","City":"Walnut","State":"CA","Zip":"91789"},{"Location":"NEW YORK PIZZERIA","Address":"364 N Lemon Ave","City":"Walnut","State":"CA","Zip":"91789"},{"Location":"NEWEN'S BEAUTY SALON","Address":"20747 Amar Road","City":"Walnut","State":"CA","Zip":"91789"},{"Location":"NGUYEN SALON","Address":"20747 Amar Rd 2","City":"Walnut","State":"CA","Zip":"91789"},{"Location":"NHISAP","Address":"20795 Amar Rd 4","City":"Walnut","State":"CA","Zip":"91789"},{"Location":"NINJA SUSHI","Address":"316 N Lemon Ave","City":"Walnut","State":"CA","Zip":"91789"},{"Location":"NOVATECH ENGINEERING","Address":"20475 Yellow Brick Rd 3h","City":"Walnut","State":"CA","Zip":"91789"},{"Location":"ON DECK MODZ","Address":"20199 Valley Blvd H","City":"Walnut","State":"CA","Zip":"91789"},{"Location":"OSUNA  EST","Address":"18746 Amar Rd","City":"Walnut","State":"CA","Zip":"91789"},{"Location":"PAPER POT SHABU","Address":"20657 Golden Springs Dr 206","City":"Walnut","State":"CA","Zip":"91789"},{"Location":"PAVILION FLORIST","Address":"20199 Valley Blvd","City":"Walnut","State":"CA","Zip":"91789"},{"Location":"PETER C LIU DDS","Address":"18710 Awar Rd #d","City":"Walnut","State":"CA","Zip":"91789"},{"Location":"RED PERSIMMON NAILS AND SPA","Address":"21750 Valley Blvd","City":"Walnut","State":"CA","Zip":"91789"},{"Location":"ROYAL VISTA GOLF CLUB","Address":"20055 Colima Rd","City":"Walnut","State":"CA","Zip":"91789"},{"Location":"RUBYS KITCHEN","Address":"1263 N Grand Ave","City":"Walnut","State":"CA","Zip":"91789"},{"Location":"S O LOGISTICS AND","Address":"957 Fairway Dr","City":"Walnut","State":"CA","Zip":"91789"},{"Location":"SCHOOLS 1ST FED CU","Address":"515 N Grand Ave B","City":"Walnut","State":"CA","Zip":"91789"},{"Location":"SETTLERS JERKY INC","Address":"307 Paseo Sonrisa","City":"Walnut","State":"CA","Zip":"91789"},{"Location":"SO CAL PALLET","Address":"20809 Currier Rd","City":"Walnut","State":"CA","Zip":"91789"},{"Location":"SPEED ZONE MOTOR SPORTS","Address":"933 Fairway Dr","City":"Walnut","State":"CA","Zip":"91789"},{"Location":"SPIRIT GENERAL CONSTRUCTION","Address":"20848 Carrey Rd","City":"Walnut","State":"CA","Zip":"91789"},{"Location":"SUNSHINE ROOFING","Address":"20300 Carrey Rd","City":"Walnut","State":"CA","Zip":"91789"},{"Location":"SYSCO FOOD SERV","Address":"20701 Currier Rd","City":"Walnut","State":"CA","Zip":"91789"},{"Location":"TOTAL RESOURCES INT'L","Address":"420 S Lemon Ave","City":"Walnut","State":"CA","Zip":"91789"},{"Location":"TRI COUNTIES AOR","Address":"19720 E Walnut Dr S 100a","City":"Walnut","State":"CA","Zip":"91789"},{"Location":"UNICAL AVIATION","Address":"680 S Lemon Ave","City":"Walnut","State":"CA","Zip":"91789"},{"Location":"UNIVERSAL AUTO CARE INC.","Address":"19821 Valley Blvd","City":"Walnut","State":"CA","Zip":"91789"},{"Location":"VAPOR JUNKIES","Address":"20781 Amar Rd","City":"Walnut","State":"CA","Zip":"91789"},{"Location":"WALNUT HAND CARWASH","Address":"319 Lemon Creek Dr","City":"Walnut","State":"CA","Zip":"91789"}]