[{"Location":"399 PIZZA CO","Address":"2435 S Azusa Ave","City":"West Covina","State":"CA","Zip":"91792"},{"Location":"A PLUS NAILS","Address":"2345 S Azusa Ave","City":"West Covina","State":"CA","Zip":"91792"},{"Location":"BIG LEAGUE DREAMS","Address":"2100 S Azusa Ave","City":"West Covina","State":"CA","Zip":"91792"},{"Location":"CEBU LA FORTUNA BAKERY","Address":"1557 E Amar Rd B","City":"West Covina","State":"CA","Zip":"91792"},{"Location":"CHRISTINE BEAUTY SALON","Address":"1559 E Amar Rd","City":"West Covina","State":"CA","Zip":"91792"},{"Location":"COZY THAI","Address":"2550 E Amar Rd","City":"West Covina","State":"CA","Zip":"91792"},{"Location":"D HAIR SALON INC","Address":"1559 E Amar Rd T","City":"West Covina","State":"CA","Zip":"91792"},{"Location":"DARIOS BARBERSHOP","Address":"1009 E Amar Rd","City":"West Covina","State":"CA","Zip":"91792"},{"Location":"DJ BIBINGKAHAN RESTAURANT","Address":"1515 E Amar Rd","City":"West Covina","State":"CA","Zip":"91792"},{"Location":"GARCIA ALBA","Address":"1559 E Amar Rd P","City":"West Covina","State":"CA","Zip":"91792"},{"Location":"INSIDE THE PARK SPORTING","Address":"2353 S Azusa Ave","City":"West Covina","State":"CA","Zip":"91792"},{"Location":"ITO AY ATIN RESTAURANT","Address":"1559 E Amar Rd Qr","City":"West Covina","State":"CA","Zip":"91792"},{"Location":"JEFF'S BARBECUE AND BIBINGKINTIAN","Address":"1559 East Amar Road","City":"West Covina","State":"CA","Zip":"91792"},{"Location":"KANG","Address":"2500 S Azusa Ave","City":"West Covina","State":"CA","Zip":"91792"},{"Location":"KUSINA NI LOLA","Address":"1559 E Amar Rd","City":"West Covina","State":"CA","Zip":"91792"},{"Location":"MARTABAK CAFE","Address":"3666 S Nogales St","City":"West Covina","State":"CA","Zip":"91792"},{"Location":"MERRYS HOUSE OF CHICKEN","Address":"2550 E Amar Rd A5","City":"West Covina","State":"CA","Zip":"91792"},{"Location":"MIKI HOUSE","Address":"2423 S Azusa Ave","City":"West Covina","State":"CA","Zip":"91792"},{"Location":"PETER C LIU DDS INC","Address":"19046 La Puente Rd","City":"West Covina","State":"CA","Zip":"91792"},{"Location":"PHO VIETNAM KITCHEN","Address":"2351 S Azusa Ave","City":"West Covina","State":"CA","Zip":"91792"},{"Location":"PINOY PINAY PHILIPINO RESTAUR","Address":"2532 S Azusa Ave","City":"West Covina","State":"CA","Zip":"91792"},{"Location":"PURRFECT AUTO","Address":"2323 S Azusa Ave","City":"West Covina","State":"CA","Zip":"91792"},{"Location":"QUINTO DMD%2C MARLENE R","Address":"1557 E Amar Rd","City":"West Covina","State":"CA","Zip":"91792"},{"Location":"REBEL YELL BAR AND GRILL","Address":"2100 S Valinda Ave","City":"West Covina","State":"CA","Zip":"91792"},{"Location":"ROSIE BEAUTY SALON LLC","Address":"1557 E Amar Rd G","City":"West Covina","State":"CA","Zip":"91792"},{"Location":"ROUND TABLE PIZZA-AZUSA","Address":"2270 S Azusa Ave D","City":"West Covina","State":"CA","Zip":"91792"},{"Location":"RSD AUTO BROKER","Address":"1549 E Amar Rd A10","City":"West Covina","State":"CA","Zip":"91792"},{"Location":"SHAKEYS PIZZA RESTAURANT","Address":"2520 S Azusa Ave","City":"West Covina","State":"CA","Zip":"91792"},{"Location":"TAQUISA MEXICAN FOOD","Address":"1001 E Amar Rd 108","City":"West Covina","State":"CA","Zip":"91792"},{"Location":"TARGET","Address":"2370 S Azusa Ave","City":"West Covina","State":"CA","Zip":"91792"},{"Location":"TOFU HOUSE","Address":"2560 E Amar Rd B1","City":"West Covina","State":"CA","Zip":"91792"},{"Location":"VALERIOS TROPICAL BAKE","Address":"1509 E Amar Rd","City":"West Covina","State":"CA","Zip":"91792"},{"Location":"WEST COVINA FIRE STN 4","Address":"1815 S Azusa Ave","City":"West Covina","State":"CA","Zip":"91792"},{"Location":"WEST COVINA FIRE STN 5","Address":"2650 Shadow Oak Dr","City":"West Covina","State":"CA","Zip":"91792"},{"Location":"WILLY JOHN REYES","Address":"1557 E Amar Rd F","City":"West Covina","State":"CA","Zip":"91792"},{"Location":"399 PIZZA CO","Address":"2435 S Azusa Ave","City":"West Covina","State":"CA","Zip":"91792"},{"Location":"A PLUS NAILS","Address":"2345 S Azusa Ave","City":"West Covina","State":"CA","Zip":"91792"},{"Location":"BIG LEAGUE DREAMS","Address":"2100 S Azusa Ave","City":"West Covina","State":"CA","Zip":"91792"},{"Location":"CEBU LA FORTUNA BAKERY","Address":"1557 E Amar Rd B","City":"West Covina","State":"CA","Zip":"91792"},{"Location":"CHRISTINE BEAUTY SALON","Address":"1559 E Amar Rd","City":"West Covina","State":"CA","Zip":"91792"},{"Location":"COZY THAI","Address":"2550 E Amar Rd","City":"West Covina","State":"CA","Zip":"91792"},{"Location":"D HAIR SALON INC","Address":"1559 E Amar Rd T","City":"West Covina","State":"CA","Zip":"91792"},{"Location":"DARIOS BARBERSHOP","Address":"1009 E Amar Rd","City":"West Covina","State":"CA","Zip":"91792"},{"Location":"DJ BIBINGKAHAN RESTAURANT","Address":"1515 E Amar Rd","City":"West Covina","State":"CA","Zip":"91792"},{"Location":"GARCIA ALBA","Address":"1559 E Amar Rd P","City":"West Covina","State":"CA","Zip":"91792"},{"Location":"INSIDE THE PARK SPORTING","Address":"2353 S Azusa Ave","City":"West Covina","State":"CA","Zip":"91792"},{"Location":"ITO AY ATIN RESTAURANT","Address":"1559 E Amar Rd Qr","City":"West Covina","State":"CA","Zip":"91792"},{"Location":"JEFF'S BARBECUE AND BIBINGKINTIAN","Address":"1559 East Amar Road","City":"West Covina","State":"CA","Zip":"91792"},{"Location":"KANG","Address":"2500 S Azusa Ave","City":"West Covina","State":"CA","Zip":"91792"},{"Location":"KUSINA NI LOLA","Address":"1559 E Amar Rd","City":"West Covina","State":"CA","Zip":"91792"},{"Location":"MARTABAK CAFE","Address":"3666 S Nogales St","City":"West Covina","State":"CA","Zip":"91792"},{"Location":"MERRYS HOUSE OF CHICKEN","Address":"2550 E Amar Rd A5","City":"West Covina","State":"CA","Zip":"91792"},{"Location":"MIKI HOUSE","Address":"2423 S Azusa Ave","City":"West Covina","State":"CA","Zip":"91792"},{"Location":"PETER C LIU DDS INC","Address":"19046 La Puente Rd","City":"West Covina","State":"CA","Zip":"91792"},{"Location":"PHO VIETNAM KITCHEN","Address":"2351 S Azusa Ave","City":"West Covina","State":"CA","Zip":"91792"},{"Location":"PINOY PINAY PHILIPINO RESTAUR","Address":"2532 S Azusa Ave","City":"West Covina","State":"CA","Zip":"91792"},{"Location":"PURRFECT AUTO","Address":"2323 S Azusa Ave","City":"West Covina","State":"CA","Zip":"91792"},{"Location":"QUINTO DMD%2C MARLENE R","Address":"1557 E Amar Rd","City":"West Covina","State":"CA","Zip":"91792"},{"Location":"REBEL YELL BAR AND GRILL","Address":"2100 S Valinda Ave","City":"West Covina","State":"CA","Zip":"91792"},{"Location":"ROSIE BEAUTY SALON LLC","Address":"1557 E Amar Rd G","City":"West Covina","State":"CA","Zip":"91792"},{"Location":"ROUND TABLE PIZZA-AZUSA","Address":"2270 S Azusa Ave D","City":"West Covina","State":"CA","Zip":"91792"},{"Location":"RSD AUTO BROKER","Address":"2550 E Amar Rd A10","City":"West Covina","State":"CA","Zip":"91792"},{"Location":"SHAKEYS PIZZA RESTAURANT","Address":"2520 S Azusa Ave","City":"West Covina","State":"CA","Zip":"91792"},{"Location":"TAQUISA MEXICAN FOOD","Address":"1001 E Amar Rd 108","City":"West Covina","State":"CA","Zip":"91792"},{"Location":"TARGET","Address":"2370 S Azusa Ave","City":"West Covina","State":"CA","Zip":"91792"},{"Location":"TOFU HOUSE","Address":"2560 E Amar Rd B1","City":"West Covina","State":"CA","Zip":"91792"},{"Location":"VALERIOS TROPICAL BAKE","Address":"1509 E Amar Rd","City":"West Covina","State":"CA","Zip":"91792"},{"Location":"WEST COVINA FIRE STN 4","Address":"1815 S Azusa Ave","City":"West Covina","State":"CA","Zip":"91792"},{"Location":"WEST COVINA FIRE STN 5","Address":"2650 Shadow Oak Dr","City":"West Covina","State":"CA","Zip":"91792"},{"Location":"WILLY JOHN REYES","Address":"1557 E Amar Rd F","City":"West Covina","State":"CA","Zip":"91792"}]