[{"Location":"24 HOUR FITNESS #917","Address":"1422 S Azusa Ave","City":"West Covina","State":"CA","Zip":"91791"},{"Location":"ADREATE","Address":"2650 E Garvey Ave S","City":"West Covina","State":"CA","Zip":"91791"},{"Location":"ANJ HOT POINT INT LLC","Address":"222 S Citrus St","City":"West Covina","State":"CA","Zip":"91791"},{"Location":"ASSEMBLY MEM DIST OFFICE","Address":"100 N Barranca St 895","City":"West Covina","State":"CA","Zip":"91791"},{"Location":"AYCE SUSHI","Address":"116 N Grand Ave","City":"West Covina","State":"CA","Zip":"91791"},{"Location":"BJS RESTAURANT #418","Address":"2917 E Eastland Ctr Dr","City":"West Covina","State":"CA","Zip":"91791"},{"Location":"BOROWITZ & CLARK LLP","Address":"100 N Barranca St 250","City":"West Covina","State":"CA","Zip":"91791"},{"Location":"BUFFALO WILD WINGS #3484","Address":"2548 E Workman Ave","City":"West Covina","State":"CA","Zip":"91791"},{"Location":"CAREMORE HEALTH PLAN III","Address":"301 N Azusa Ave","City":"West Covina","State":"CA","Zip":"91791"},{"Location":"CARINO'S #1613","Address":"147 N Barranca St","City":"West Covina","State":"CA","Zip":"91791"},{"Location":"CELLTOO","Address":"2538 E Workman Ave","City":"West Covina","State":"CA","Zip":"91791"},{"Location":"CHILI'S #0050","Address":"2929 E Eastland Center Dr","City":"West Covina","State":"CA","Zip":"91791"},{"Location":"CRESCENT HEALTHCARE INC","Address":"855 N Lark Ellen Ave E","City":"West Covina","State":"CA","Zip":"91791"},{"Location":"DENTAL SPA OF WEST COVINA","Address":"346 N Azusa Ave","City":"West Covina","State":"CA","Zip":"91791"},{"Location":"DICK'S SPORTING GOODS #921","Address":"2753 E Eastland Ctr Dr","City":"West Covina","State":"CA","Zip":"91791"},{"Location":"EL BUKANAS EXPRESS","Address":"1347 S Azusa Ave","City":"West Covina","State":"CA","Zip":"91791"},{"Location":"EL TORITO 7027","Address":"3133 E Garvey Ave N","City":"West Covina","State":"CA","Zip":"91791"},{"Location":"FRIDAY NAILS AND SPA","Address":"104 N Grand Ave","City":"West Covina","State":"CA","Zip":"91791"},{"Location":"GREEN FIELD STEAK HOUSE","Address":"381 N Azusa Ave","City":"West Covina","State":"CA","Zip":"91791"},{"Location":"GUPPY WEST COVINA LLC","Address":"2646 E Garvey Ave S","City":"West Covina","State":"CA","Zip":"91791"},{"Location":"HAMPTON INN (0050934)","Address":"3145 E Garvey Ave N","City":"West Covina","State":"CA","Zip":"91791"},{"Location":"HOLIDAY INN - FITNESS","Address":"3233 E Garvey Ave N","City":"West Covina","State":"CA","Zip":"91791"},{"Location":"HOLIDAY INN - LOBBY","Address":"3233 E Garvey Ave N","City":"West Covina","State":"CA","Zip":"91791"},{"Location":"HOLIDAY INN LOUNGE","Address":"3233 E Garvey Ave N","City":"West Covina","State":"CA","Zip":"91791"},{"Location":"HOOTERS WEST COVINA WCV203","Address":"3041 E Garvey Ave N","City":"West Covina","State":"CA","Zip":"91791"},{"Location":"ISLANDS RESTAURANT #050","Address":"139 N Barranca St","City":"West Covina","State":"CA","Zip":"91791"},{"Location":"JERSEY MIKES","Address":"2536 E Workman Ave","City":"West Covina","State":"CA","Zip":"91791"},{"Location":"KNK FOOD  INC.","Address":"245 N Citrus St","City":"West Covina","State":"CA","Zip":"91791"},{"Location":"LA FITNESS WEST COVINA #06153","Address":"3101 E Garvey Ave N","City":"West Covina","State":"CA","Zip":"91791"},{"Location":"MARIE CALLENDAR'S #75","Address":"3117 E Garvey Ave N","City":"West Covina","State":"CA","Zip":"91791"},{"Location":"MCINTYRE SQUARE","Address":"220 S Citrus St","City":"West Covina","State":"CA","Zip":"91791"},{"Location":"MERCEDES BENZ WEST COVINA","Address":"1829 E Garvey Ave N","City":"West Covina","State":"CA","Zip":"91791"},{"Location":"NAPA WEST COVINA","Address":"215 N Azusa Ave","City":"West Covina","State":"CA","Zip":"91791"},{"Location":"OLD WORLD DELICATESSEN","Address":"2648 E Workman Ave 3008","City":"West Covina","State":"CA","Zip":"91791"},{"Location":"OMEGA POLYGRAPH LARK","Address":"855 N Lark Ellen Ave K","City":"West Covina","State":"CA","Zip":"91791"},{"Location":"OTO OTO JAPANESE REST","Address":"2686 E Garvey Ave S","City":"West Covina","State":"CA","Zip":"91791"},{"Location":"PACIFIC FISH GRILL","Address":"2851 E Eastland Ctr Dr 5","City":"West Covina","State":"CA","Zip":"91791"},{"Location":"PENSKE AUDI WEST COVINA","Address":"2010 E Garvey Ave S","City":"West Covina","State":"CA","Zip":"91791"},{"Location":"PENSKE TOYOTA SCION OF W","Address":"1800 E Garvey Ave S","City":"West Covina","State":"CA","Zip":"91791"},{"Location":"PK SCHFIEFFER LLP","Address":"100 N Barranca St 1100","City":"West Covina","State":"CA","Zip":"91791"},{"Location":"PREMIER CHRYSLER","Address":"298 N Azusa Ave","City":"West Covina","State":"CA","Zip":"91791"},{"Location":"STINKIN  CRAWFISH","Address":"2518 E Workman Ave","City":"West Covina","State":"CA","Zip":"91791"},{"Location":"SUBURBAN WATER SYSTEMS","Address":"2235 E Garvey Ave N A","City":"West Covina","State":"CA","Zip":"91791"},{"Location":"TAQUERIA LA FOGATA","Address":"314 N Azusa Ave","City":"West Covina","State":"CA","Zip":"91791"},{"Location":"TARGET","Address":"2831 E Eastland Center Dr","City":"West Covina","State":"CA","Zip":"91791"},{"Location":"TGI FRIDAY'S #1911","Address":"2625 E Eastland Ctr Dr","City":"West Covina","State":"CA","Zip":"91791"},{"Location":"VILLA TEPEYAC","Address":"2200 E Garvey Ave S","City":"West Covina","State":"CA","Zip":"91791"},{"Location":"VINCENZOS TERRAZZA","Address":"232 S Citrus St","City":"West Covina","State":"CA","Zip":"91791"},{"Location":"VINE RESIDENCE LLC","Address":"1405 E Vine Ave","City":"West Covina","State":"CA","Zip":"91791"},{"Location":"WEST COVINA FIRE STN 2","Address":"2441 E Cortez St","City":"West Covina","State":"CA","Zip":"91791"},{"Location":"WEST COVINA FIRE STN 3","Address":"1433 E Puente Ave","City":"West Covina","State":"CA","Zip":"91791"},{"Location":"WEST COVINA LOTUS","Address":"2501 E Garvey Ave N","City":"West Covina","State":"CA","Zip":"91791"},{"Location":"WEST COVINA NISSAN","Address":"205 N Citrus St","City":"West Covina","State":"CA","Zip":"91791"}]