[{"Location":"","Address":"1425 W Puente Ave","City":"West Covina","State":"CA","Zip":"91790"},{"Location":"24 HOUR FITNESS #81","Address":"1530 W West Covina Pkwy","City":"West Covina","State":"CA","Zip":"91790"},{"Location":"399 PIZZA CO II INC","Address":"1931 W Badillo St","City":"West Covina","State":"CA","Zip":"91790"},{"Location":"AGC OF CALIFORNIA","Address":"1906 W Garvey Ave S 100","City":"West Covina","State":"CA","Zip":"91790"},{"Location":"ALEJANDRO M SANCHEZ MD","Address":"1250 S Sunset Ave 101","City":"West Covina","State":"CA","Zip":"91790"},{"Location":"ANNAS PIZZA","Address":"1240 Lakes Dr","City":"West Covina","State":"CA","Zip":"91790"},{"Location":"BRUNSWICK #876 W COVINA LANES","Address":"675 S Glendora Ave","City":"West Covina","State":"CA","Zip":"91790"},{"Location":"CLARISAS BEAUTY SALON","Address":"833 S Glendora Ave","City":"West Covina","State":"CA","Zip":"91790"},{"Location":"CLEAN WHOLESALE AUTO","Address":"2118 W Francisquito Ave","City":"West Covina","State":"CA","Zip":"91790"},{"Location":"COLONIAL MANOR HOSPITAL","Address":"919 N Sunset Ave","City":"West Covina","State":"CA","Zip":"91790"},{"Location":"COTORROS","Address":"969 S Glendora Ave","City":"West Covina","State":"CA","Zip":"91790"},{"Location":"CRAZY HORSE","Address":"1360 W Garvey Ave S","City":"West Covina","State":"CA","Zip":"91790"},{"Location":"CRAZY MIKES SUSHI","Address":"1032 W West Covina Pkwy","City":"West Covina","State":"CA","Zip":"91790"},{"Location":"CROWELL WEEDON","Address":"1050 Lakes Dr 250","City":"West Covina","State":"CA","Zip":"91790"},{"Location":"DAVITA #618 COVINA","Address":"1541 W Garvey Ave N","City":"West Covina","State":"CA","Zip":"91790"},{"Location":"DOCTORS PROF PHARMACY","Address":"1535 W Merced Ave","City":"West Covina","State":"CA","Zip":"91790"},{"Location":"DON LENCHOS","Address":"835 S Glendora Ave","City":"West Covina","State":"CA","Zip":"91790"},{"Location":"EGGLESTON YOUTH CENTER","Address":"1526 S St Malo St","City":"West Covina","State":"CA","Zip":"91790"},{"Location":"EL SOL DE LA NOCHE","Address":"1302 W Francisquito Ave B","City":"West Covina","State":"CA","Zip":"91790"},{"Location":"ELEPHANT BAR W COVINA","Address":"200 S Vincent Ave","City":"West Covina","State":"CA","Zip":"91790"},{"Location":"FACTORY TEA BAR","Address":"969 S Glendora Ave","City":"West Covina","State":"CA","Zip":"91790"},{"Location":"FAITH COMMUNITY CHURCH","Address":"1211 E Badillo St","City":"West Covina","State":"CA","Zip":"91790"},{"Location":"FAMOUS BARBER SHOP","Address":"545 E Vine Ave 2","City":"West Covina","State":"CA","Zip":"91790"},{"Location":"FBI","Address":"1050 Lakes Dr 350","City":"West Covina","State":"CA","Zip":"91790"},{"Location":"FELTON","Address":"112 Plaza Dr","City":"West Covina","State":"CA","Zip":"91790"},{"Location":"FINANCIAL BUSINESS PLANN","Address":"1315 W West Covina Pkwy","City":"West Covina","State":"CA","Zip":"91790"},{"Location":"FIRESTONE #327708","Address":"1035 W West Covina Pkwy","City":"West Covina","State":"CA","Zip":"91790"},{"Location":"FIRST FINANCIAL CREDIT II","Address":"1616 W Cameron Ave","City":"West Covina","State":"CA","Zip":"91790"},{"Location":"FIRST FINANCIAL CREDIT UNION","Address":"1600 W Cameron Ave","City":"West Covina","State":"CA","Zip":"91790"},{"Location":"FMC 28410000","Address":"1540 W West Covina Pkwy","City":"West Covina","State":"CA","Zip":"91790"},{"Location":"GALAXY SPORTS BAR","Address":"656 S Sunset Ave","City":"West Covina","State":"CA","Zip":"91790"},{"Location":"GATTEN SUSHI W. C.","Address":"112 Plaza Dr 1042","City":"West Covina","State":"CA","Zip":"91790"},{"Location":"GMFC INDUSTRIES  INC.","Address":"146 S Glendora Ave","City":"West Covina","State":"CA","Zip":"91790"},{"Location":"GOLD'S GYM WEST COVINA","Address":"502 Plaza Dr","City":"West Covina","State":"CA","Zip":"91790"},{"Location":"GREATEST NAIL AND SPA","Address":"312 Plaza Dr","City":"West Covina","State":"CA","Zip":"91790"},{"Location":"HIBACHI TEPPAN AND SUSHI","Address":"450 S Glendora Ave","City":"West Covina","State":"CA","Zip":"91790"},{"Location":"JANET LEE","Address":"110 N Vincent Ave","City":"West Covina","State":"CA","Zip":"91790"},{"Location":"LA NAILS TOO","Address":"1516 Plaza Dr","City":"West Covina","State":"CA","Zip":"91790"},{"Location":"LUCILLES BBQ","Address":"1445 Plaza Dr","City":"West Covina","State":"CA","Zip":"91790"},{"Location":"MACY'S WEST 485","Address":"1111 Plaza Dr","City":"West Covina","State":"CA","Zip":"91790"},{"Location":"MACY'S WEST 485","Address":"1200 W West Covina Pkwy","City":"West Covina","State":"CA","Zip":"91790"},{"Location":"MEN'S WEARHOUSE #2732","Address":"426 Plaza Dr 1420","City":"West Covina","State":"CA","Zip":"91790"},{"Location":"NAVARROS TOWING","Address":"1122 N Azusa Canyon Rd","City":"West Covina","State":"CA","Zip":"91790"},{"Location":"NEW YORKS FINEST","Address":"648 Sunset Ave","City":"West Covina","State":"CA","Zip":"91790"},{"Location":"NORDSTROM RACK","Address":"1415 Plaza Dr","City":"West Covina","State":"CA","Zip":"91790"},{"Location":"PALACE GARDEN BUFFETT","Address":"318 S California Ave","City":"West Covina","State":"CA","Zip":"91790"},{"Location":"PEPPES POLLO","Address":"1209 S Glendora Ave","City":"West Covina","State":"CA","Zip":"91790"},{"Location":"PREMIER HEALTH ADVISORS","Address":"1730 W Cameron Ave 120","City":"West Covina","State":"CA","Zip":"91790"},{"Location":"QUEEN VALLEY HOSPITAL","Address":"1115 S Sunset Ave","City":"West Covina","State":"CA","Zip":"91790"},{"Location":"RAMBOS TACOS","Address":"2122 W Francisquito Ave","City":"West Covina","State":"CA","Zip":"91790"},{"Location":"RED ROBIN #160","Address":"428 Plaza Dr","City":"West Covina","State":"CA","Zip":"91790"},{"Location":"RED ROOM LOUNGE","Address":"1230 Lakes Dr","City":"West Covina","State":"CA","Zip":"91790"},{"Location":"ROYAL LOUNGE","Address":"210 S Glendora Ave","City":"West Covina","State":"CA","Zip":"91790"},{"Location":"SCHOOLS FIRST FEDERAL CREDIT","Address":"332 S California Ave","City":"West Covina","State":"CA","Zip":"91790"},{"Location":"SENOR BURRITO","Address":"1207 S Glendora Ave","City":"West Covina","State":"CA","Zip":"91790"},{"Location":"STATE FARM INSURANCE","Address":"154 S Glendora Ave","City":"West Covina","State":"CA","Zip":"91790"},{"Location":"SUNSET BEAUTY SUPPLY  SALON","Address":"1324 W Francisquito Ave C1","City":"West Covina","State":"CA","Zip":"91790"},{"Location":"SUNSET JEWERLY","Address":"1226 W Francisquito Ave","City":"West Covina","State":"CA","Zip":"91790"},{"Location":"SUPER CUTS  TWO","Address":"1083 W West Covina Pkwy","City":"West Covina","State":"CA","Zip":"91790"},{"Location":"SUSHI DAMU","Address":"1230 Lakes Dr 101","City":"West Covina","State":"CA","Zip":"91790"},{"Location":"T'S LOUNGE INC","Address":"328 S Glendora Ave","City":"West Covina","State":"CA","Zip":"91790"},{"Location":"TEN SHABU","Address":"1015 S Glendora Ave","City":"West Covina","State":"CA","Zip":"91790"},{"Location":"THE CHOP SHOP","Address":"1222 S Glendora Ave","City":"West Covina","State":"CA","Zip":"91790"},{"Location":"THE CRAWFISH SPOT INC","Address":"1011 S Glendora Ave","City":"West Covina","State":"CA","Zip":"91790"},{"Location":"THE LAZY DOG W. COVINA","Address":"1440 Plaza Dr","City":"West Covina","State":"CA","Zip":"91790"},{"Location":"THE SMILE AGENCY","Address":"1290 S Sunset Ave","City":"West Covina","State":"CA","Zip":"91790"},{"Location":"TONYS RESTAURANT","Address":"1200 S Sunset Ave 3","City":"West Covina","State":"CA","Zip":"91790"},{"Location":"VALLEY IMAGING","Address":"1401 W Merced Ave 103","City":"West Covina","State":"CA","Zip":"91790"},{"Location":"VETERANS OF FOREIGN WARS","Address":"2328 W Merced Ave","City":"West Covina","State":"CA","Zip":"91790"},{"Location":"VISIONS CONSULTING","Address":"336 1%2F2 S Glendora Ave G","City":"West Covina","State":"CA","Zip":"91790"},{"Location":"WEST COVINA FAMILY DENTISTRY","Address":"450 S Glendora Ave","City":"West Covina","State":"CA","Zip":"91790"},{"Location":"WEST COVINA FIRE STN 1","Address":"819 S Sunset Ave","City":"West Covina","State":"CA","Zip":"91790"},{"Location":"WEST HAVEN HEALTH CARE CENTER","Address":"1495 W Cameron Ave","City":"West Covina","State":"CA","Zip":"91790"},{"Location":"WESTFIELD WEST COVINA","Address":"112 Plaza Dr","City":"West Covina","State":"CA","Zip":"91790"},{"Location":"WISE GUYS BARBERS","Address":"815 South Glendora Avenue","City":"West Covina","State":"CA","Zip":"91790"},{"Location":"ZAPANTA","Address":"945 S Glendora Ave","City":"West Covina","State":"CA","Zip":"91790"}]