[{"Location":"333 MEDICAL CENTER","Address":"333 S Garfield Ave A","City":"Alhambra","State":"CA","Zip":"91801"},{"Location":"333 MEDICAL CENTER # 2","Address":"333 S Garfield Ave K","City":"Alhambra","State":"CA","Zip":"91801"},{"Location":"707 S GARFIELD AVE LP","Address":"707 S Garfield Ave 201","City":"Alhambra","State":"CA","Zip":"91801"},{"Location":"ALHAMBRA AMERICAN LEGION","Address":"24 N Stoneman Ave","City":"Alhambra","State":"CA","Zip":"91801"},{"Location":"ALHAMBRA CONVALESCENT HOME","Address":"415 S Garfield Ave","City":"Alhambra","State":"CA","Zip":"91801"},{"Location":"ALHAMBRA POLICE DEPARTMENT","Address":"211 S 1st St","City":"Alhambra","State":"CA","Zip":"91801"},{"Location":"ALHAMBRA VOLKSWAGEN INC","Address":"1811 W Main St","City":"Alhambra","State":"CA","Zip":"91801"},{"Location":"ALONDRA HOT WINGS","Address":"515 W Main St","City":"Alhambra","State":"CA","Zip":"91801"},{"Location":"AMERITUS","Address":"1 E Commonwealth Ave","City":"Alhambra","State":"CA","Zip":"91801"},{"Location":"APPLEBEE'S ALHAMBRA","Address":"21 E Main St","City":"Alhambra","State":"CA","Zip":"91801"},{"Location":"AUNTIE  M","Address":"128 S Palm Ave","City":"Alhambra","State":"CA","Zip":"91801"},{"Location":"BOB WONDRIES FORD","Address":"400 S Atlantic Blvd","City":"Alhambra","State":"CA","Zip":"91801"},{"Location":"BOTECO BAR & LOUNGE","Address":"28 W Main St","City":"Alhambra","State":"CA","Zip":"91801"},{"Location":"CAL BANK & TRUST","Address":"230 E Valley Blvd","City":"Alhambra","State":"CA","Zip":"91801"},{"Location":"CARAMBA","Address":"3020 W Main St","City":"Alhambra","State":"CA","Zip":"91801"},{"Location":"CB AFTER DARK","Address":"24 W Main St","City":"Alhambra","State":"CA","Zip":"91801"},{"Location":"CHARLIES TRIO","Address":"47 W Main St","City":"Alhambra","State":"CA","Zip":"91801"},{"Location":"CHINA TASTING","Address":"1308 E Valley Blvd","City":"Alhambra","State":"CA","Zip":"91801"},{"Location":"DINER ON MAIN","Address":"201 W Main St","City":"Alhambra","State":"CA","Zip":"91801"},{"Location":"DIPS GRILL","Address":"39 W Main St","City":"Alhambra","State":"CA","Zip":"91801"},{"Location":"DOG HAUS LLC 2","Address":"410 E Main St","City":"Alhambra","State":"CA","Zip":"91801"},{"Location":"DR SHIRISH PATEL","Address":"1027 E Main St","City":"Alhambra","State":"CA","Zip":"91801"},{"Location":"DR TOLEDO FAMILY DENTISTRY","Address":"750 S Garfield Ave A","City":"Alhambra","State":"CA","Zip":"91801"},{"Location":"FIRESTONE #011304","Address":"837 E Main St","City":"Alhambra","State":"CA","Zip":"91801"},{"Location":"FRONTERAS ACQUISITION%2C INC","Address":"118 W Main St","City":"Alhambra","State":"CA","Zip":"91801"},{"Location":"GARDEN CAFE INC","Address":"288 W Valley Blvd 101","City":"Alhambra","State":"CA","Zip":"91801"},{"Location":"GOLDEN MILE BOWLING ALLEY","Address":"1400 E Valley Blvd","City":"Alhambra","State":"CA","Zip":"91801"},{"Location":"GOUDY HONDA","Address":"1400 W Main St","City":"Alhambra","State":"CA","Zip":"91801"},{"Location":"GRILL EM ALL","Address":"19 E Main St","City":"Alhambra","State":"CA","Zip":"91801"},{"Location":"HAVANA HOUSE","Address":"133 W Main St","City":"Alhambra","State":"CA","Zip":"91801"},{"Location":"HOT KITCHEN","Address":"1468 E Valley Blvd","City":"Alhambra","State":"CA","Zip":"91801"},{"Location":"INDO KITCHEN","Address":"5 N 4th St","City":"Alhambra","State":"CA","Zip":"91801"},{"Location":"JAY DEE CAFE","Address":"1843 W Main St","City":"Alhambra","State":"CA","Zip":"91801"},{"Location":"JOHN CHAO DDS","Address":"100 S 1st St","City":"Alhambra","State":"CA","Zip":"91801"},{"Location":"KIA OF ALHAMBRA","Address":"1247 W Main St","City":"Alhambra","State":"CA","Zip":"91801"},{"Location":"KIKI BAR INCORPORATED","Address":"201 E Bay State St","City":"Alhambra","State":"CA","Zip":"91801"},{"Location":"LA CDC","Address":"700 W Main St","City":"Alhambra","State":"CA","Zip":"91801"},{"Location":"LA FITNESS #36","Address":"412 E Main St","City":"Alhambra","State":"CA","Zip":"91801"},{"Location":"NEW NOODLE GUY","Address":"1257 E Valley Blvd","City":"Alhambra","State":"CA","Zip":"91801"},{"Location":"Nha Trang Noodle House","Address":"417 W Main Street","City":"Alhambra","State":"CA","Zip":"91801"},{"Location":"OAK HILL INC","Address":"248 E Main St 100","City":"Alhambra","State":"CA","Zip":"91801"},{"Location":"PHAROS BURGERS","Address":"1129 N Garfield Ave","City":"Alhambra","State":"CA","Zip":"91801"},{"Location":"PROMAX AUTO SPORT","Address":"8 Park St","City":"Alhambra","State":"CA","Zip":"91801"},{"Location":"RICKS DRIVE IN & OUT","Address":"132 W Main St","City":"Alhambra","State":"CA","Zip":"91801"},{"Location":"SACRED HEART RETREAT","Address":"410 N Granada Ave","City":"Alhambra","State":"CA","Zip":"91801"},{"Location":"SHAKAS","Address":"101 W Main St C","City":"Alhambra","State":"CA","Zip":"91801"},{"Location":"THAI PURPLE","Address":"27 N Garfield Ave","City":"Alhambra","State":"CA","Zip":"91801"},{"Location":"THE CUE BALL","Address":"934 E Main St","City":"Alhambra","State":"CA","Zip":"91801"},{"Location":"THE GRANADA LA","Address":"17 S 1st St 100","City":"Alhambra","State":"CA","Zip":"91801"},{"Location":"THIRTY 8 DEGREES ALE HOUSE","Address":"100 W Main St","City":"Alhambra","State":"CA","Zip":"91801"},{"Location":"TROPIC LIQUOR","Address":"210 N Huntington Dr","City":"Alhambra","State":"CA","Zip":"91801"},{"Location":"ULTRAZONE","Address":"231 E Main St","City":"Alhambra","State":"CA","Zip":"91801"},{"Location":"WISZ","Address":"630 S Almansor St","City":"Alhambra","State":"CA","Zip":"91801"},{"Location":"Z SUSHI","Address":"1132 N Garfield Ave","City":"Alhambra","State":"CA","Zip":"91801"}]