[{"Location":"ALOHA FOOD FACTORY","Address":"2990 W Valley Blvd","City":"Alhambra","State":"CA","Zip":"91803"},{"Location":"ANGELAS ITAILIAN RESTAUR","Address":"1540 W Valley Blvd","City":"Alhambra","State":"CA","Zip":"91803"},{"Location":"C & C COLLISION","Address":"518 S Palm Ave","City":"Alhambra","State":"CA","Zip":"91803"},{"Location":"CAFE SPOT","Address":"500 W Valley Blvd A","City":"Alhambra","State":"CA","Zip":"91803"},{"Location":"CHA CHA CHILI","Address":"640 W Valley Blvd","City":"Alhambra","State":"CA","Zip":"91803"},{"Location":"CHONITOS MEXICAN REST","Address":"2505 W Valley Blvd","City":"Alhambra","State":"CA","Zip":"91803"},{"Location":"DEVRY UNIVERSITY-ALHAMBRA","Address":"1000 S Fremont Ave 100","City":"Alhambra","State":"CA","Zip":"91803"},{"Location":"EVIKE DOT COM INC","Address":"2801 W Mission Rd","City":"Alhambra","State":"CA","Zip":"91803"},{"Location":"FMC 21450000","Address":"1801 W Valley Blvd 102","City":"Alhambra","State":"CA","Zip":"91803"},{"Location":"FREEDOM MOBILE WIRELESS","Address":"1100 W Commonwealth Ave D","City":"Alhambra","State":"CA","Zip":"91803"},{"Location":"GREEN PAPAYA","Address":"1800 W Valley Blvd","City":"Alhambra","State":"CA","Zip":"91803"},{"Location":"JACMAR","Address":"2200 W Valley Blvd","City":"Alhambra","State":"CA","Zip":"91803"},{"Location":"JUST GRILLIN","Address":"1129 S Fremont Ave D","City":"Alhambra","State":"CA","Zip":"91803"},{"Location":"KOHL'S #790","Address":"1201 S Fremont Ave","City":"Alhambra","State":"CA","Zip":"91803"},{"Location":"LA FITNESS #83","Address":"920 S Fremont Ave","City":"Alhambra","State":"CA","Zip":"91803"},{"Location":"LA PARILLA MEXICANA","Address":"2938 W Valley Blvd","City":"Alhambra","State":"CA","Zip":"91803"},{"Location":"MANNYS TACOS","Address":"1100 W Commonwealth Ave C","City":"Alhambra","State":"CA","Zip":"91803"},{"Location":"MARIA ANITA MARZAN DDS","Address":"2630 W Valley Blvd","City":"Alhambra","State":"CA","Zip":"91803"},{"Location":"OO KOOK TOFU & BBQ","Address":"2201 W Commonwealth Ave","City":"Alhambra","State":"CA","Zip":"91803"},{"Location":"S CALIFORNIA  EDISON","Address":"501 S Marengo Ave M","City":"Alhambra","State":"CA","Zip":"91803"},{"Location":"SCOTTRADE 54U","Address":"2107 W Commonwealth Ave C","City":"Alhambra","State":"CA","Zip":"91803"},{"Location":"SHAKEY'S PIZZA PARLOR #13","Address":"2234 W Valley Blvd","City":"Alhambra","State":"CA","Zip":"91803"},{"Location":"SOUTHERN CALIFORNIA EDISON 2","Address":"501 S Marengo Ave","City":"Alhambra","State":"CA","Zip":"91803"},{"Location":"ST STEVENS SERBIAN ORTODOX","Address":"1621 Garvey Ave","City":"Alhambra","State":"CA","Zip":"91803"},{"Location":"THE ALHAMBRA OFFICE COMMUNITY","Address":"1000 S Fremont Ave 7300","City":"Alhambra","State":"CA","Zip":"91803"},{"Location":"USC STUDENT LOUNGE","Address":"1000 S Fremont Ave A11","City":"Alhambra","State":"CA","Zip":"91803"}]