[{"Location":"MANZANITA TANF","Address":"39a Crestwood Rd","City":"Boulevard","State":"CA","Zip":"91905"},{"Location":"MCCAIN VALLEY CAMP","Address":"2550 Mccain Valley Rd","City":"Boulevard","State":"CA","Zip":"91905"},{"Location":"MOUNTAIN TOP MARKET & GA","Address":"39710 Old Highway 80","City":"Boulevard","State":"CA","Zip":"91905"},{"Location":"SAN DIEGO FIRE AUTHORITY BLVD","Address":"39923 Highway 94","City":"Boulevard","State":"CA","Zip":"91905"},{"Location":"US BORDER PATROL","Address":"2463 Ribbonwood Rd","City":"Boulevard","State":"CA","Zip":"91905"},{"Location":"MANZANITA TANF","Address":"39a Crestwood Rd","City":"Boulevard","State":"CA","Zip":"91905"},{"Location":"MCCAIN VALLEY CAMP","Address":"2550 Mccain Valley Rd","City":"Boulevard","State":"CA","Zip":"91905"},{"Location":"MOUNTAIN TOP MARKET & GA","Address":"39710 Old Highway 80","City":"Boulevard","State":"CA","Zip":"91905"},{"Location":"SAN DIEGO FIRE AUTHORITY BLVD","Address":"39923 Highway 94","City":"Boulevard","State":"CA","Zip":"91905"},{"Location":"US BORDER PATROL","Address":"2463 Ribbonwood Rd","City":"Boulevard","State":"CA","Zip":"91905"}]