[{"Location":"AGC CHULA VISTA","Address":"4475 Bonita Rd","City":"Bonita","State":"CA","Zip":"91902"},{"Location":"ALL STAR SPORTS BAR","Address":"4076 Bonita Rd","City":"Bonita","State":"CA","Zip":"91902"},{"Location":"BONITA GOLF COURSE","Address":"5540 Sweetwater Rd","City":"Bonita","State":"CA","Zip":"91902"},{"Location":"BONITA VALLEY COMMUNITY CHURCH","Address":"4744 Bonita Rd","City":"Bonita","State":"CA","Zip":"91902"},{"Location":"BONITA VALLEY LIQUOR","Address":"4040 Bonita Rd","City":"Bonita","State":"CA","Zip":"91902"},{"Location":"CARIBE RESTAURANT AND NIGHTCLA","Address":"5080 Bonita Rd H-k","City":"Bonita","State":"CA","Zip":"91902"},{"Location":"DONNYS CAFE INC","Address":"3901 Bonita Rd","City":"Bonita","State":"CA","Zip":"91902"},{"Location":"LA QUINTA BAR AND GRILL","Address":"4110 Bonita Rd","City":"Bonita","State":"CA","Zip":"91902"},{"Location":"OCHOAS BAR AND GRILL","Address":"4110 Bonita Rd","City":"Bonita","State":"CA","Zip":"91902"},{"Location":"ROMESTO MEX MED","Address":"4346 Bonita Rd","City":"Bonita","State":"CA","Zip":"91902"},{"Location":"STAR'S SALON","Address":"4230 Bonita Rd","City":"Bonita","State":"CA","Zip":"91902"},{"Location":"SUKAO","Address":"4062 Bonita Rd","City":"Bonita","State":"CA","Zip":"91902"},{"Location":"WILLIAM FISCHER DMD INC","Address":"145 Willow St","City":"Bonita","State":"CA","Zip":"91902"},{"Location":"AGC CHULA VISTA","Address":"4475 Bonita Rd","City":"Bonita","State":"CA","Zip":"91902"},{"Location":"ALL STAR SPORTS BAR","Address":"4076 Bonita Rd","City":"Bonita","State":"CA","Zip":"91902"},{"Location":"BONITA GOLF COURSE","Address":"5540 Sweetwater Rd","City":"Bonita","State":"CA","Zip":"91902"},{"Location":"BONITA VALLEY COMMUNITY CHURCH","Address":"4744 Bonita Rd","City":"Bonita","State":"CA","Zip":"91902"},{"Location":"BONITA VALLEY LIQUOR","Address":"4040 Bonita Rd","City":"Bonita","State":"CA","Zip":"91902"},{"Location":"CARIBE RESTAURANT AND NIGHTCLA","Address":"5080 Bonita Rd H-k","City":"Bonita","State":"CA","Zip":"91902"},{"Location":"DONNYS CAFE INC","Address":"3901 Bonita Rd","City":"Bonita","State":"CA","Zip":"91902"},{"Location":"La Quinta Bar And Grill","Address":"4110 Bonita Rd","City":"Bonita","State":"CA","Zip":"91902"},{"Location":"OCHOAS BAR AND GRILL","Address":"4110 Bonita Rd","City":"Bonita","State":"CA","Zip":"91902"},{"Location":"ROMESTO MEX MED","Address":"4346 Bonita Rd","City":"Bonita","State":"CA","Zip":"91902"},{"Location":"STAR'S SALON","Address":"4230 Bonita Rd","City":"Bonita","State":"CA","Zip":"91902"},{"Location":"SUKAO","Address":"4062 Bonita Rd","City":"Bonita","State":"CA","Zip":"91902"},{"Location":"WILLIAM FISCHER DMD INC","Address":"145 Willow St","City":"Bonita","State":"CA","Zip":"91902"}]