[{"Location":"EL PASO TACO SHOP","Address":"31480 Highway 94","City":"Campo","State":"CA","Zip":"91906"},{"Location":"GOLDEN ACORN CASINO","Address":"1800 Golden Acorn Way","City":"Campo","State":"CA","Zip":"91906"},{"Location":"JUVENILE RANCH FACILITY","Address":"957 Forest Gate Rd","City":"Campo","State":"CA","Zip":"91906"},{"Location":"LA POSTA RANGE CONF","Address":"30456 Corral Canyon Trl","City":"Campo","State":"CA","Zip":"91906"},{"Location":"LA POSTA RANGE HOBBY","Address":"30456 Corral Canyon Trl","City":"Campo","State":"CA","Zip":"91906"},{"Location":"SAN DIEGO RURAL FIRE PROTECTIO","Address":"29690 Oak Dr","City":"Campo","State":"CA","Zip":"91906"},{"Location":"VFW POST 2080","Address":"301  Sheridan Rd","City":"Campo","State":"CA","Zip":"91906"},{"Location":"AMERICAN MEDICAL RESPONSE","Address":"1390 Dewey Pl","City":"Campo","State":"CA","Zip":"91906"},{"Location":"EL PASO TACO SHOP","Address":"31480 Highway 94","City":"Campo","State":"CA","Zip":"91906"},{"Location":"GOLDEN ACORN CASINO","Address":"1800 Golden Acorn Way","City":"Campo","State":"CA","Zip":"91906"},{"Location":"JUVENILE RANCH FACILITY","Address":"957 Forest Gate Rd","City":"Campo","State":"CA","Zip":"91906"},{"Location":"LA POSTA RANGE CONF","Address":"30456 Corral Canyon Trl","City":"Campo","State":"CA","Zip":"91906"},{"Location":"LA POSTA RANGE HOBBY","Address":"30456 Corral Canyon Trl","City":"Campo","State":"CA","Zip":"91906"},{"Location":"SAN DIEGO RURAL FIRE PROTECTIO","Address":"29690 Oak Dr","City":"Campo","State":"CA","Zip":"91906"},{"Location":"VFW POST 2080","Address":"301  Sheridan Rd","City":"Campo","State":"CA","Zip":"91906"}]