[{"Location":"AHI SUSHI & GRILL","Address":"1347 Tavern Rd C128b","City":"Alpine","State":"CA","Zip":"91901"},{"Location":"AL PANCHOS MEXICAN RESTA","Address":"2139 Alpine Blvd","City":"Alpine","State":"CA","Zip":"91901"},{"Location":"ALPINE ACE HARDWARE","Address":"1347 Tavern Rd C4","City":"Alpine","State":"CA","Zip":"91901"},{"Location":"ALPINE DISCOUNT LIQUORS","Address":"2223 Alpine Blvd","City":"Alpine","State":"CA","Zip":"91901"},{"Location":"ALPINE FITNESS","Address":"1620 Alpine Blvd","City":"Alpine","State":"CA","Zip":"91901"},{"Location":"ALPINE TAVERN AND GRILL","Address":"2506 Alpine Blvd","City":"Alpine","State":"CA","Zip":"91901"},{"Location":"ALPINE TOBACCO COMPANY","Address":"2151 Alpine Blvd","City":"Alpine","State":"CA","Zip":"91901"},{"Location":"ALPINE VFW","Address":"844 Tavern Rd","City":"Alpine","State":"CA","Zip":"91901"},{"Location":"AMERICAN LEGION ALPINE","Address":"3328 Alpine Blvd","City":"Alpine","State":"CA","Zip":"91901"},{"Location":"ATRIA SALON","Address":"1730 Alpine Blvd 205","City":"Alpine","State":"CA","Zip":"91901"},{"Location":"CAMP BARRETT","Address":"21077 Lyons Valley Rd","City":"Alpine","State":"CA","Zip":"91901"},{"Location":"CASINO INN","Address":"1155 Alpine Blvd","City":"Alpine","State":"CA","Zip":"91901"},{"Location":"G S PRIME DELI","Address":"2710 Alpine Blvd K","City":"Alpine","State":"CA","Zip":"91901"},{"Location":"LA CARRETA","Address":"1347 Tavern Rd 31","City":"Alpine","State":"CA","Zip":"91901"},{"Location":"MEDITERRANEO BAR","Address":"1347 Tavern Rd","City":"Alpine","State":"CA","Zip":"91901"},{"Location":"NAIL SPA PLUS","Address":"2963 Alpine Blvd 105","City":"Alpine","State":"CA","Zip":"91901"},{"Location":"NIKE INC","Address":"5005 Willows Rd H102","City":"Alpine","State":"CA","Zip":"91901"},{"Location":"S.D.G.E - ALPINE HQ","Address":"1010 Tavern Rd Bld 1","City":"Alpine","State":"CA","Zip":"91901"},{"Location":"SO INDIAN HEALTH COUNCIL","Address":"4058 Willows Rd","City":"Alpine","State":"CA","Zip":"91901"},{"Location":"US FOREST SERVICE","Address":"3348 Alpine Blvd","City":"Alpine","State":"CA","Zip":"91901"},{"Location":"VIEJAS FIRE STATION # 25","Address":"19860 Viejas Grade Rd","City":"Alpine","State":"CA","Zip":"91901"},{"Location":"VIEJAS TRIBAL GOVERNMENT","Address":"1 Viejas Grade Rd","City":"Alpine","State":"CA","Zip":"91901"}]