[{"Location":"BUFFALO WILD WINGS #0491","Address":"2015 Birch Rd 715","City":"Chula Vista","State":"CA","Zip":"91915"},{"Location":"CHILI'S #1363","Address":"2015 Birch Rd 2400","City":"Chula Vista","State":"CA","Zip":"91915"},{"Location":"IDS CHULA VISTA","Address":"2084 Otay Lakes Rd","City":"Chula Vista","State":"CA","Zip":"91915"},{"Location":"IDS-LA JOLLA","Address":"2082 Otay Lakes Rd 101","City":"Chula Vista","State":"CA","Zip":"91915"},{"Location":"ISLANDS RESTAURANT #042","Address":"2255 Otay Lakes Rd","City":"Chula Vista","State":"CA","Zip":"91915"},{"Location":"J M EASTLAKE SD LLC","Address":"2315 Otay Lakes Rd 304","City":"Chula Vista","State":"CA","Zip":"91915"},{"Location":"JERSEY MIKES SUBS","Address":"2015 Birch Rd 2001","City":"Chula Vista","State":"CA","Zip":"91915"},{"Location":"LA FITNESS #71","Address":"2070 Otay Lakes Rd","City":"Chula Vista","State":"CA","Zip":"91915"},{"Location":"LANDEROS AND ASSOCIATES INC","Address":"2015 Birch Rd 2003","City":"Chula Vista","State":"CA","Zip":"91915"},{"Location":"MACARONI GRILL #1339","Address":"2015 Birch Rd 2500","City":"Chula Vista","State":"CA","Zip":"91915"},{"Location":"MACY'S WEST 555 BR","Address":"2015 Birch Rd 2","City":"Chula Vista","State":"CA","Zip":"91915"},{"Location":"MANDARIN BEIJING CHINESE","Address":"2130 Birch Rd","City":"Chula Vista","State":"CA","Zip":"91915"},{"Location":"MARISCOS HECTORS","Address":"2305 Otay Lakes Rd","City":"Chula Vista","State":"CA","Zip":"91915"},{"Location":"NAILS SPA  PLUS INC","Address":"1480 Eastlake Pkwy 907","City":"Chula Vista","State":"CA","Zip":"91915"},{"Location":"OGGIS PIZZA & BREWING","Address":"2130 Birch Rd 104","City":"Chula Vista","State":"CA","Zip":"91915"},{"Location":"PARTNERS URGENT CARE","Address":"2315 Otay Lakes Rd 306","City":"Chula Vista","State":"CA","Zip":"91915"},{"Location":"PF CHANG'S #9811","Address":"2015 Birch Rd 1401","City":"Chula Vista","State":"CA","Zip":"91915"},{"Location":"RMS ENTERPISES LLC","Address":"2015 Birch Rd 1601","City":"Chula Vista","State":"CA","Zip":"91915"},{"Location":"SAVOIE LLC","Address":"2015 Birch Rd 720","City":"Chula Vista","State":"CA","Zip":"91915"},{"Location":"SMILES OF EASTLAKE","Address":"2127 Olympic Pkwy 1003","City":"Chula Vista","State":"CA","Zip":"91915"},{"Location":"SUBWAY #52982","Address":"1360 Eastlake Pkwy","City":"Chula Vista","State":"CA","Zip":"91915"},{"Location":"SUSHI YA","Address":"2015 Birch Rd","City":"Chula Vista","State":"CA","Zip":"91915"},{"Location":"TAPIOCA EXPRESS","Address":"1480 Eastlake Pkwy","City":"Chula Vista","State":"CA","Zip":"91915"},{"Location":"THE CHEESECAKE FACTORY 0115","Address":"2015 Birch Rd","City":"Chula Vista","State":"CA","Zip":"91915"},{"Location":"THE SUPER DENTISTS","Address":"2226 Otay Lakes Rd","City":"Chula Vista","State":"CA","Zip":"91915"},{"Location":"USOC-ARCHERY BUILDING","Address":"2800 Olympic Pkwy","City":"Chula Vista","State":"CA","Zip":"91915"},{"Location":"USOC-ATHLETIC CHECK IN","Address":"2800 Olympic Pkwy","City":"Chula Vista","State":"CA","Zip":"91915"},{"Location":"USOC-ATT CONNECTING CTR","Address":"2800 Olympic Pkwy","City":"Chula Vista","State":"CA","Zip":"91915"},{"Location":"USOC-BOATHOUSE BUILDING","Address":"2800 Olympic Pkwy","City":"Chula Vista","State":"CA","Zip":"91915"},{"Location":"USOC-FACILITIES","Address":"2800 Olympic Pkwy","City":"Chula Vista","State":"CA","Zip":"91915"},{"Location":"USOC-FIELD HOCKEY BLDG","Address":"2800 Olympic Pkwy","City":"Chula Vista","State":"CA","Zip":"91915"},{"Location":"USOC-SECURITY BUILDING","Address":"2800 Olympic Pkwy","City":"Chula Vista","State":"CA","Zip":"91915"},{"Location":"USOC-SOCCER BUILDING","Address":"2800 Olympic Pkwy","City":"Chula Vista","State":"CA","Zip":"91915"},{"Location":"USOC-TRACK & FIELD BLDG.","Address":"2800 Olympic Pkwy","City":"Chula Vista","State":"CA","Zip":"91915"},{"Location":"USOC-VISITOR CENTER BLDG","Address":"2800 Olympic Pkwy","City":"Chula Vista","State":"CA","Zip":"91915"},{"Location":"WINGS N THINGS OTAY","Address":"2315 Otay Lakes Rd 103","City":"Chula Vista","State":"CA","Zip":"91915"},{"Location":"BUFFALO WILD WINGS #0491","Address":"2015 Birch Rd 715","City":"Chula Vista","State":"CA","Zip":"91915"},{"Location":"CHILI'S #1363","Address":"2015 Birch Rd 2400","City":"Chula Vista","State":"CA","Zip":"91915"},{"Location":"IDS CHULA VISTA","Address":"2084 Otay Lakes Rd","City":"Chula Vista","State":"CA","Zip":"91915"},{"Location":"IDS-LA JOLLA","Address":"2082 Otay Lakes Rd 101","City":"Chula Vista","State":"CA","Zip":"91915"},{"Location":"ISLANDS RESTAURANT #042","Address":"2255 Otay Lakes Rd","City":"Chula Vista","State":"CA","Zip":"91915"},{"Location":"J M EASTLAKE SD LLC","Address":"2315 Otay Lakes Rd 304","City":"Chula Vista","State":"CA","Zip":"91915"},{"Location":"JERSEY MIKES SUBS","Address":"2015 Birch Rd 2001","City":"Chula Vista","State":"CA","Zip":"91915"},{"Location":"LA FITNESS #71","Address":"2070 Otay Lakes Rd","City":"Chula Vista","State":"CA","Zip":"91915"},{"Location":"LANDEROS AND ASSOCIATES INC","Address":"2015 Birch Rd 2003","City":"Chula Vista","State":"CA","Zip":"91915"},{"Location":"MACARONI GRILL #1339","Address":"2015 Birch Rd 2500","City":"Chula Vista","State":"CA","Zip":"91915"},{"Location":"MACY'S WEST 555 BR","Address":"2015 Birch Rd 2","City":"Chula Vista","State":"CA","Zip":"91915"},{"Location":"MANDARIN BEIJING CHINESE","Address":"2130 Birch Rd","City":"Chula Vista","State":"CA","Zip":"91915"},{"Location":"MARISCOS HECTORS","Address":"2305 Otay Lakes Rd","City":"Chula Vista","State":"CA","Zip":"91915"},{"Location":"NAILS SPA  PLUS INC","Address":"1480 Eastlake Pkwy 907","City":"Chula Vista","State":"CA","Zip":"91915"},{"Location":"OGGIS PIZZA & BREWING","Address":"2130 Birch Rd 104","City":"Chula Vista","State":"CA","Zip":"91915"},{"Location":"PARTNERS URGENT CARE","Address":"2315 Otay Lakes Rd 306","City":"Chula Vista","State":"CA","Zip":"91915"},{"Location":"PF CHANG'S #9811","Address":"2015 Birch Rd 1401","City":"Chula Vista","State":"CA","Zip":"91915"},{"Location":"RMS ENTERPISES LLC","Address":"2015 Birch Rd 1601","City":"Chula Vista","State":"CA","Zip":"91915"},{"Location":"SAVOIE LLC","Address":"2015 Birch Rd 720","City":"Chula Vista","State":"CA","Zip":"91915"},{"Location":"SMILES OF EASTLAKE","Address":"2127 Olympic Pkwy 1003","City":"Chula Vista","State":"CA","Zip":"91915"},{"Location":"SUBWAY #52982","Address":"1360 Eastlake Pkwy","City":"Chula Vista","State":"CA","Zip":"91915"},{"Location":"SUSHI YA","Address":"2015 Birch Rd","City":"Chula Vista","State":"CA","Zip":"91915"},{"Location":"TAPIOCA EXPRESS","Address":"1480 Eastlake Pkwy","City":"Chula Vista","State":"CA","Zip":"91915"},{"Location":"THE CHEESECAKE FACTORY 0115","Address":"2015 Birch Rd","City":"Chula Vista","State":"CA","Zip":"91915"},{"Location":"THE SUPER DENTISTS","Address":"2226 Otay Lakes Rd","City":"Chula Vista","State":"CA","Zip":"91915"},{"Location":"USOC-ARCHERY BUILDING","Address":"2800 Olympic Pkwy","City":"Chula Vista","State":"CA","Zip":"91915"},{"Location":"USOC-ATHLETIC CHECK IN","Address":"2800 Olympic Pkwy","City":"Chula Vista","State":"CA","Zip":"91915"},{"Location":"USOC-ATT CONNECTING CTR","Address":"2800 Olympic Pkwy","City":"Chula Vista","State":"CA","Zip":"91915"},{"Location":"USOC-BOATHOUSE BUILDING","Address":"2800 Olympic Pkwy","City":"Chula Vista","State":"CA","Zip":"91915"},{"Location":"USOC-FACILITIES","Address":"2800 Olympic Pkwy","City":"Chula Vista","State":"CA","Zip":"91915"},{"Location":"USOC-FIELD HOCKEY BLDG","Address":"2800 Olympic Pkwy","City":"Chula Vista","State":"CA","Zip":"91915"},{"Location":"USOC-SECURITY BUILDING","Address":"2800 Olympic Pkwy","City":"Chula Vista","State":"CA","Zip":"91915"},{"Location":"USOC-SOCCER BUILDING","Address":"2800 Olympic Pkwy","City":"Chula Vista","State":"CA","Zip":"91915"},{"Location":"USOC-TRACK & FIELD BLDG.","Address":"2800 Olympic Pkwy","City":"Chula Vista","State":"CA","Zip":"91915"},{"Location":"USOC-VISITOR CENTER BLDG","Address":"2800 Olympic Pkwy","City":"Chula Vista","State":"CA","Zip":"91915"},{"Location":"WINGS N THINGS OTAY","Address":"2315 Otay Lakes Rd 103","City":"Chula Vista","State":"CA","Zip":"91915"}]