[{"Location":"BODY DYNAMICS TRAINING","Address":"2525 Windward Way","City":"Chula Vista","State":"CA","Zip":"91914"},{"Location":"BRIAN T TANAKA DMD APC","Address":"2446 Fenton St 101","City":"Chula Vista","State":"CA","Zip":"91914"},{"Location":"BROKEN YOLK - CHULA VISTA","Address":"884 Eastlake Pkwy","City":"Chula Vista","State":"CA","Zip":"91914"},{"Location":"CANCER TREATMENT SERVICES SD","Address":"959 Lane Ave","City":"Chula Vista","State":"CA","Zip":"91914"},{"Location":"DAVID T CHEUNG DDS","Address":"2446 Fenton St 100","City":"Chula Vista","State":"CA","Zip":"91914"},{"Location":"EASTLAKE PETROLEUM LP","Address":"950 Eastlake Pkwy","City":"Chula Vista","State":"CA","Zip":"91914"},{"Location":"EASTLAKE TAVERN AND BOWL","Address":"881 Showroom Pl 100","City":"Chula Vista","State":"CA","Zip":"91914"},{"Location":"FEDERICO DRACHENBERG","Address":"890 Eastlake Pkwy 101","City":"Chula Vista","State":"CA","Zip":"91914"},{"Location":"FILIPPIS PIZZA GROTTO","Address":"871 Showroom Pl","City":"Chula Vista","State":"CA","Zip":"91914"},{"Location":"FMC 86470000","Address":"2391 Boswell Rd","City":"Chula Vista","State":"CA","Zip":"91914"},{"Location":"GOODYS SUSHI SPOT","Address":"2322 Proctor Valley Rd 104","City":"Chula Vista","State":"CA","Zip":"91914"},{"Location":"GREAT CLIPS","Address":"970 Eastlake Pkwy 106","City":"Chula Vista","State":"CA","Zip":"91914"},{"Location":"GREAT STEAK","Address":"2322 Proctor Valley Rd 103","City":"Chula Vista","State":"CA","Zip":"91914"},{"Location":"HITACHI AMERICA LTD-DMD","Address":"900 Hitachi Way","City":"Chula Vista","State":"CA","Zip":"91914"},{"Location":"IMORTGAGE","Address":"891 Kuhn Dr 100","City":"Chula Vista","State":"CA","Zip":"91914"},{"Location":"LASER TAG SAN DIEGO LLC","Address":"871 Showroom Pl 106","City":"Chula Vista","State":"CA","Zip":"91914"},{"Location":"MAXIM ATHLETIC","Address":"2381 Boswell Rd","City":"Chula Vista","State":"CA","Zip":"91914"},{"Location":"MINA A MAFI DDS","Address":"2452 Fenton St 304","City":"Chula Vista","State":"CA","Zip":"91914"},{"Location":"NOWAK AESTHETICS","Address":"2440 Fenton St","City":"Chula Vista","State":"CA","Zip":"91914"},{"Location":"OTAY LAKES ORTHODONTICS","Address":"891 Kuhn Dr 205","City":"Chula Vista","State":"CA","Zip":"91914"},{"Location":"PACK & BIANES VISION CARE","Address":"890 Eastlake Pkwy 102","City":"Chula Vista","State":"CA","Zip":"91914"},{"Location":"REPUBLIC MOVING AND STORAGE","Address":"2311 Boswell Rd 5","City":"Chula Vista","State":"CA","Zip":"91914"},{"Location":"SALT CREEK GOLF COURSE","Address":"525 Hunte Pkwy","City":"Chula Vista","State":"CA","Zip":"91914"},{"Location":"SAN DIEGO NATIONAL BANK","Address":"970 Eastlake Pkwy 101","City":"Chula Vista","State":"CA","Zip":"91914"},{"Location":"SAN MIGUEL RANCH","Address":"401 Calle La Marina E 111","City":"Chula Vista","State":"CA","Zip":"91914"},{"Location":"SOUTH BAY PEDIATRIC DENTAL","Address":"2446 Fenton St 102","City":"Chula Vista","State":"CA","Zip":"91914"},{"Location":"TARGET","Address":"910 Eastlake Pkwy","City":"Chula Vista","State":"CA","Zip":"91914"},{"Location":"TOM MASSARAT DDS","Address":"2452 Fenton St 303","City":"Chula Vista","State":"CA","Zip":"91914"},{"Location":"VILLAGE WALK DENTAL","Address":"890 Eastlake Pkwy 304","City":"Chula Vista","State":"CA","Zip":"91914"},{"Location":"WESTMONT SENIOR LVNG","Address":"2325 Proctor Valley Rd","City":"Chula Vista","State":"CA","Zip":"91914"},{"Location":"BODY DYNAMICS TRAINING","Address":"2525 Windward Way","City":"Chula Vista","State":"CA","Zip":"91914"},{"Location":"BRIAN T TANAKA DMD APC","Address":"2446 Fenton St 101","City":"Chula Vista","State":"CA","Zip":"91914"},{"Location":"BROKEN YOLK - CHULA VISTA","Address":"884 Eastlake Pkwy","City":"Chula Vista","State":"CA","Zip":"91914"},{"Location":"CANCER TREATMENT SERVICES SD","Address":"959 Lane Ave","City":"Chula Vista","State":"CA","Zip":"91914"},{"Location":"DAVID T CHEUNG DDS","Address":"2446 Fenton St 100","City":"Chula Vista","State":"CA","Zip":"91914"},{"Location":"EASTLAKE PETROLEUM LP","Address":"950 Eastlake Pkwy","City":"Chula Vista","State":"CA","Zip":"91914"},{"Location":"EASTLAKE TAVERN AND BOWL","Address":"881 Showroom Pl 100","City":"Chula Vista","State":"CA","Zip":"91914"},{"Location":"FEDERICO DRACHENBERG","Address":"890 Eastlake Pkwy 101","City":"Chula Vista","State":"CA","Zip":"91914"},{"Location":"FILIPPIS PIZZA GROTTO","Address":"871 Showroom Pl","City":"Chula Vista","State":"CA","Zip":"91914"},{"Location":"FMC 86470000","Address":"2391 Boswell Rd","City":"Chula Vista","State":"CA","Zip":"91914"},{"Location":"GOODYS SUSHI SPOT","Address":"2322 Proctor Valley Rd 104","City":"Chula Vista","State":"CA","Zip":"91914"},{"Location":"GREAT CLIPS","Address":"970 Eastlake Pkwy 106","City":"Chula Vista","State":"CA","Zip":"91914"},{"Location":"GREAT STEAK","Address":"2322 Proctor Valley Rd 103","City":"Chula Vista","State":"CA","Zip":"91914"},{"Location":"HITACHI AMERICA LTD-DMD","Address":"900 Hitachi Way","City":"Chula Vista","State":"CA","Zip":"91914"},{"Location":"IMORTGAGE","Address":"891 Kuhn Dr 100","City":"Chula Vista","State":"CA","Zip":"91914"},{"Location":"LASER TAG SAN DIEGO LLC","Address":"871 Showroom Pl 106","City":"Chula Vista","State":"CA","Zip":"91914"},{"Location":"MAXIM ATHLETIC","Address":"2381 Boswell Rd","City":"Chula Vista","State":"CA","Zip":"91914"},{"Location":"MINA A MAFI DDS","Address":"2452 Fenton St 304","City":"Chula Vista","State":"CA","Zip":"91914"},{"Location":"NOWAK AESTHETICS","Address":"2440 Fenton St","City":"Chula Vista","State":"CA","Zip":"91914"},{"Location":"OTAY LAKES ORTHODONTICS","Address":"891 Kuhn Dr 205","City":"Chula Vista","State":"CA","Zip":"91914"},{"Location":"PACK & BIANES VISION CARE","Address":"890 Eastlake Pkwy 102","City":"Chula Vista","State":"CA","Zip":"91914"},{"Location":"REPUBLIC MOVING AND STORAGE","Address":"2311 Boswell Rd 5","City":"Chula Vista","State":"CA","Zip":"91914"},{"Location":"SALT CREEK GOLF COURSE","Address":"525 Hunte Pkwy","City":"Chula Vista","State":"CA","Zip":"91914"},{"Location":"SAN DIEGO NATIONAL BANK","Address":"970 Eastlake Pkwy 101","City":"Chula Vista","State":"CA","Zip":"91914"},{"Location":"SAN MIGUEL RANCH","Address":"401 Calle La Marina E 111","City":"Chula Vista","State":"CA","Zip":"91914"},{"Location":"SOUTH BAY PEDIATRIC DENTAL","Address":"2446 Fenton St 102","City":"Chula Vista","State":"CA","Zip":"91914"},{"Location":"TARGET","Address":"910 Eastlake Pkwy","City":"Chula Vista","State":"CA","Zip":"91914"},{"Location":"TOM MASSARAT DDS","Address":"2452 Fenton St 303","City":"Chula Vista","State":"CA","Zip":"91914"},{"Location":"VILLAGE WALK DENTAL","Address":"890 Eastlake Pkwy 304","City":"Chula Vista","State":"CA","Zip":"91914"},{"Location":"WESTMONT SENIOR LVNG","Address":"2325 Proctor Valley Rd","City":"Chula Vista","State":"CA","Zip":"91914"}]