[{"Location":"24 HOUR FITNESS #071","Address":"320 3rd Ave","City":"Chula Vista","State":"CA","Zip":"91910"},{"Location":"24 HOUR FITNESS #84","Address":"870 Amena Ct","City":"Chula Vista","State":"CA","Zip":"91910"},{"Location":"AMERICA'S FINEST CARPET","Address":"45 N 4th Ave B","City":"Chula Vista","State":"CA","Zip":"91910"},{"Location":"BABERSHOP HEAVEN","Address":"310 3rd Ave C9","City":"Chula Vista","State":"CA","Zip":"91910"},{"Location":"BJS RESTAURANT #482","Address":"555 Broadway 1019","City":"Chula Vista","State":"CA","Zip":"91910"},{"Location":"BONE ASSOCIATES","Address":"480 4th Ave 307","City":"Chula Vista","State":"CA","Zip":"91910"},{"Location":"BOOMERS INSURANCE SERVIC","Address":"272 Church Ave 3","City":"Chula Vista","State":"CA","Zip":"91910"},{"Location":"BRUNSWICK #874 PREMIER","Address":"845 Lazo Ct","City":"Chula Vista","State":"CA","Zip":"91910"},{"Location":"BUFFALO WILD WINGS #0395","Address":"555 Broadway 116","City":"Chula Vista","State":"CA","Zip":"91910"},{"Location":"BURGER KING 11435","Address":"97 E Bonita Rd","City":"Chula Vista","State":"CA","Zip":"91910"},{"Location":"BURGER KING 2339","Address":"599 Broadway","City":"Chula Vista","State":"CA","Zip":"91910"},{"Location":"CANADA STATE BURGER","Address":"409 Telegraph Canyon Rd","City":"Chula Vista","State":"CA","Zip":"91910"},{"Location":"CAYS YACHT SALES","Address":"604 Marina Pkwy","City":"Chula Vista","State":"CA","Zip":"91910"},{"Location":"CHILI'S #0387","Address":"800 Paseo Del Rey","City":"Chula Vista","State":"CA","Zip":"91910"},{"Location":"CHULA VISTA POLICE DEPARTMENT","Address":"315 4th Ave","City":"Chula Vista","State":"CA","Zip":"91910"},{"Location":"CHULA VISTA RV PARK LOUNGE","Address":"460 Sandpiper Way","City":"Chula Vista","State":"CA","Zip":"91910"},{"Location":"COOPS WEST TEXAS BBQ","Address":"534 Broadway","City":"Chula Vista","State":"CA","Zip":"91910"},{"Location":"D. YOUNG PHAM%2C DDS PC","Address":"1415 Ridgeback Rd St23","City":"Chula Vista","State":"CA","Zip":"91910"},{"Location":"DAISY SPA","Address":"253 Broadway","City":"Chula Vista","State":"CA","Zip":"91910"},{"Location":"DUBBS DRILL SHACK LLC","Address":"845 Lazo Ct","City":"Chula Vista","State":"CA","Zip":"91910"},{"Location":"ELKS LODGE CHULA VISTA #2011","Address":"901 Elks Ln","City":"Chula Vista","State":"CA","Zip":"91910"},{"Location":"EYECANDY SHOWGIRLS","Address":"215 Bay Blvd","City":"Chula Vista","State":"CA","Zip":"91910"},{"Location":"FANTASTIC SAMS","Address":"730 Otay Lakes Rd","City":"Chula Vista","State":"CA","Zip":"91910"},{"Location":"FAT BURGER","Address":"555 Broadway 118","City":"Chula Vista","State":"CA","Zip":"91910"},{"Location":"FMC 69130000","Address":"630 Bay Blvd 101","City":"Chula Vista","State":"CA","Zip":"91910"},{"Location":"FUDDRUCKERS #3055","Address":"340 3rd Ave","City":"Chula Vista","State":"CA","Zip":"91910"},{"Location":"GALLERY AT THE MARINA","Address":"550 Marina Pkwy","City":"Chula Vista","State":"CA","Zip":"91910"},{"Location":"GOODFELLAS","Address":"3060 Bonita Rd","City":"Chula Vista","State":"CA","Zip":"91910"},{"Location":"GOODRICH AEROSTRUCTURES","Address":"850 Lagoon Dr","City":"Chula Vista","State":"CA","Zip":"91910"},{"Location":"HI-BALL BAR & RESTAURANT","Address":"626 E St","City":"Chula Vista","State":"CA","Zip":"91910"},{"Location":"HOTFOODS INC","Address":"481 Broadway A","City":"Chula Vista","State":"CA","Zip":"91910"},{"Location":"IRRESISTABLE SMILES","Address":"1040 Tierra Del Rey 211","City":"Chula Vista","State":"CA","Zip":"91910"},{"Location":"JC PENNY1","Address":"591 Broadway","City":"Chula Vista","State":"CA","Zip":"91910"},{"Location":"JEROMES FURNITURE 3A","Address":"775 Plaza Ct","City":"Chula Vista","State":"CA","Zip":"91910"},{"Location":"JOHNNYS DELI FRUTERIA","Address":"573 H St","City":"Chula Vista","State":"CA","Zip":"91910"},{"Location":"KOREAN KITCHEN","Address":"509 Telegraph Canyon Rd","City":"Chula Vista","State":"CA","Zip":"91910"},{"Location":"KOUSAY A ALKORAINY MD","Address":"480 4th Ave 409","City":"Chula Vista","State":"CA","Zip":"91910"},{"Location":"LA BELLA CAFE","Address":"289 G St","City":"Chula Vista","State":"CA","Zip":"91910"},{"Location":"LA QUINTA GRILL","Address":"625 E St","City":"Chula Vista","State":"CA","Zip":"91910"},{"Location":"LASER DENTAL CENTER","Address":"885 Canarios Ct 210","City":"Chula Vista","State":"CA","Zip":"91910"},{"Location":"LLB CONCEPTS INC","Address":"1435 Ridgeback Rd","City":"Chula Vista","State":"CA","Zip":"91910"},{"Location":"LOLITAS RESTAURANTS INC","Address":"413 Telegraph Canyon Rd","City":"Chula Vista","State":"CA","Zip":"91910"},{"Location":"LOS PANCHOS AUTH MEXICAN","Address":"577 H St","City":"Chula Vista","State":"CA","Zip":"91910"},{"Location":"LUZITA'S","Address":"60 East J Street","City":"Chula Vista","State":"CA","Zip":"91910"},{"Location":"MACY'S WEST 546","Address":"555 Broadway","City":"Chula Vista","State":"CA","Zip":"91910"},{"Location":"MACY'S WEST 546 BR","Address":"555 Broadway","City":"Chula Vista","State":"CA","Zip":"91910"},{"Location":"MACY'S WEST 555","Address":"Sr125 And Olympic Pkwy","City":"Chula Vista","State":"CA","Zip":"91910"},{"Location":"MANNA BBQ CHULA VISTA","Address":"724 Otay Lakes Rd","City":"Chula Vista","State":"CA","Zip":"91910"},{"Location":"MATUA E","Address":"626 E St","City":"Chula Vista","State":"CA","Zip":"91910"},{"Location":"MCDONALDS 917","Address":"619 Broadway","City":"Chula Vista","State":"CA","Zip":"91910"},{"Location":"OLGA SAIZ DENTAL CORP","Address":"661 3rd Ave","City":"Chula Vista","State":"CA","Zip":"91910"},{"Location":"PACIFIC DENTAL  #274","Address":"700 Otay Lakes Rd","City":"Chula Vista","State":"CA","Zip":"91910"},{"Location":"PETES PRECISION AUTOMOTIVE","Address":"310 Trousdale Dr A","City":"Chula Vista","State":"CA","Zip":"91910"},{"Location":"PHO VINH","Address":"349 Broadway","City":"Chula Vista","State":"CA","Zip":"91910"},{"Location":"QUICK STOP LIQUORS","Address":"670 Broadway","City":"Chula Vista","State":"CA","Zip":"91910"},{"Location":"RANCHO DEL REY ORTHODONTICS","Address":"1040 Tierra Del Rey 203","City":"Chula Vista","State":"CA","Zip":"91910"},{"Location":"RED LOBSTER #6383","Address":"598 H St","City":"Chula Vista","State":"CA","Zip":"91910"},{"Location":"ROBERTO TACO SHOP","Address":"444 Broadway","City":"Chula Vista","State":"CA","Zip":"91910"},{"Location":"SAM HALABO DMD INC","Address":"239 F St","City":"Chula Vista","State":"CA","Zip":"91910"},{"Location":"SAN DIEGO HARBOR POLICE","Address":"950 Marina Way","City":"Chula Vista","State":"CA","Zip":"91910"},{"Location":"SANZEL INC","Address":"3001 Bonita Rd 100","City":"Chula Vista","State":"CA","Zip":"91910"},{"Location":"SCRIPPS MEMORIAL HOSPITAL","Address":"435 H St","City":"Chula Vista","State":"CA","Zip":"91910"},{"Location":"SHAKEY'S CHULA VISTA","Address":"555 Broadway 1078","City":"Chula Vista","State":"CA","Zip":"91910"},{"Location":"SOUTH BAY ENDODONTICS","Address":"885 Canarios Ct 208","City":"Chula Vista","State":"CA","Zip":"91910"},{"Location":"SPORTS AUTHORITY 779","Address":"390 E H St","City":"Chula Vista","State":"CA","Zip":"91910"},{"Location":"STAR GAZER NIGHT CLUB","Address":"33 Broadway","City":"Chula Vista","State":"CA","Zip":"91910"},{"Location":"SUPER MEGA WASH LLC","Address":"88 E Bonita Rd","City":"Chula Vista","State":"CA","Zip":"91910"},{"Location":"SUZANNE TULENKO DMD","Address":"235 F St","City":"Chula Vista","State":"CA","Zip":"91910"},{"Location":"TALAVERA AZUL","Address":"365 3rd Ave","City":"Chula Vista","State":"CA","Zip":"91910"},{"Location":"TAURIAN BA%2C LLC #1025","Address":"707 E St","City":"Chula Vista","State":"CA","Zip":"91910"},{"Location":"THE ARCHWAY LOUNGE","Address":"684 Telegraph Canyon Road","City":"Chula Vista","State":"CA","Zip":"91910"},{"Location":"THE CANYON","Address":"421 Telegraph Canyon Rd","City":"Chula Vista","State":"CA","Zip":"91910"},{"Location":"THE CENTER CUT RESTAURANT","Address":"534 Broadway","City":"Chula Vista","State":"CA","Zip":"91910"},{"Location":"THE HAIRCUT ZONE","Address":"547 Telegraph Canyon Rd","City":"Chula Vista","State":"CA","Zip":"91910"},{"Location":"THE LIONS DEN 2","Address":"725 Broadway","City":"Chula Vista","State":"CA","Zip":"91910"},{"Location":"THE OAKWOOD LOUNGE","Address":"618 E St H","City":"Chula Vista","State":"CA","Zip":"91910"},{"Location":"UYEN THOMPSON%2C DDS","Address":"688 Old Telegraph Canyon Rd","City":"Chula Vista","State":"CA","Zip":"91910"},{"Location":"VILLAGE CLUB","Address":"429 Broadway","City":"Chula Vista","State":"CA","Zip":"91910"},{"Location":"WILD WOOLLY'S SALOON","Address":"247 Broadway","City":"Chula Vista","State":"CA","Zip":"91910"}]