[{"Location":"24 HOUR FITNESS #102","Address":"1660 Broadway","City":"Chula Vista","State":"CA","Zip":"91911"},{"Location":"A 1  AUTO REPAIR AND DETAIL","Address":"956 Broadway","City":"Chula Vista","State":"CA","Zip":"91911"},{"Location":"ACE INDUSTRIES INC","Address":"738 Design Ct 302","City":"Chula Vista","State":"CA","Zip":"91911"},{"Location":"ACE OF FADES 2","Address":"1296 3rd Ave B","City":"Chula Vista","State":"CA","Zip":"91911"},{"Location":"ALLIED WASTE SERVICES","Address":"881 Energy Way","City":"Chula Vista","State":"CA","Zip":"91911"},{"Location":"AMERICA'S FINEST CARPET","Address":"730 Design Ct 401","City":"Chula Vista","State":"CA","Zip":"91911"},{"Location":"AMERICAN TIRE DEPOT","Address":"1135 Broadway","City":"Chula Vista","State":"CA","Zip":"91911"},{"Location":"APPLEBEE'S #2150044","Address":"610 Palomar St 1502","City":"Chula Vista","State":"CA","Zip":"91911"},{"Location":"AQUI ES TEXCOCO","Address":"1043 Broadway 108","City":"Chula Vista","State":"CA","Zip":"91911"},{"Location":"ASGARI HOLDING INC","Address":"1655 Brandywine Ave E","City":"Chula Vista","State":"CA","Zip":"91911"},{"Location":"BAJA BURGERS AND BEER","Address":"860 Broadway","City":"Chula Vista","State":"CA","Zip":"91911"},{"Location":"BAJA PALLETS","Address":"3333 Main St","City":"Chula Vista","State":"CA","Zip":"91911"},{"Location":"BEYER SUPREME TIRES","Address":"1055 3rd Ave 91911","City":"Chula Vista","State":"CA","Zip":"91911"},{"Location":"BRENTWOOD MOBILE HOME PA","Address":"1100 Industrial Blvd","City":"Chula Vista","State":"CA","Zip":"91911"},{"Location":"CASA DON DIEGO RESTAURANT","Address":"1199 3rd Ave","City":"Chula Vista","State":"CA","Zip":"91911"},{"Location":"CHECK CENTER","Address":"1295 Broadway 210a","City":"Chula Vista","State":"CA","Zip":"91911"},{"Location":"COASTAL INTERIORS","Address":"322 Palomar St","City":"Chula Vista","State":"CA","Zip":"91911"},{"Location":"COZY CORNER PIZZA","Address":"1655 Brandyview Avenue Suite E","City":"Chula Vista","State":"CA","Zip":"91911"},{"Location":"CRICKET WIRELESS","Address":"2050 Entertainment Cir","City":"Chula Vista","State":"CA","Zip":"91911"},{"Location":"DHS USCIS","Address":"1261 3rd Ave A","City":"Chula Vista","State":"CA","Zip":"91911"},{"Location":"EL DORADO CLEANERS","Address":"4360 Main St","City":"Chula Vista","State":"CA","Zip":"91911"},{"Location":"ELDORADO MEXICAN FOOD","Address":"311 Palomar St","City":"Chula Vista","State":"CA","Zip":"91911"},{"Location":"ELECTRONIC VAPOR LLC","Address":"1010 Broadway 1","City":"Chula Vista","State":"CA","Zip":"91911"},{"Location":"FIRESTONE #017671","Address":"830 Broadway","City":"Chula Vista","State":"CA","Zip":"91911"},{"Location":"FULLER FORD AND HONDA","Address":"580 Auto Park Dr","City":"Chula Vista","State":"CA","Zip":"91911"},{"Location":"FULLER FORD AND HONDA","Address":"560 Auto Park Dr","City":"Chula Vista","State":"CA","Zip":"91911"},{"Location":"HECTORS MARISCOS","Address":"1177 Broadway 14","City":"Chula Vista","State":"CA","Zip":"91911"},{"Location":"HILLTOP BARBER SHOP","Address":"1419 Hilltop Dr F","City":"Chula Vista","State":"CA","Zip":"91911"},{"Location":"JUMP AROUND NOW","Address":"1675 Brandywine Ave","City":"Chula Vista","State":"CA","Zip":"91911"},{"Location":"KANPAI RESTAURANT","Address":"301 Palomar St","City":"Chula Vista","State":"CA","Zip":"91911"},{"Location":"KOHL'S #958","Address":"1870 Main Ct","City":"Chula Vista","State":"CA","Zip":"91911"},{"Location":"KS SPIN CYCLE","Address":"1355 Broadway","City":"Chula Vista","State":"CA","Zip":"91911"},{"Location":"LADY AND CARMELA LLC","Address":"840 Broadway","City":"Chula Vista","State":"CA","Zip":"91911"},{"Location":"LATINO FAMILY DENTAL","Address":"1635 3rd Ave D","City":"Chula Vista","State":"CA","Zip":"91911"},{"Location":"LOLITAS TACO SHOP 4.","Address":"601 E Palomar St A","City":"Chula Vista","State":"CA","Zip":"91911"},{"Location":"LOS PANCHOS","Address":"1009 3rd Ave","City":"Chula Vista","State":"CA","Zip":"91911"},{"Location":"MARISCO'S LA CACHO","Address":"3120 Main St","City":"Chula Vista","State":"CA","Zip":"91911"},{"Location":"MARISCOS LA PERLA NEGRA","Address":"651 Palomar St 23a","City":"Chula Vista","State":"CA","Zip":"91911"},{"Location":"MJS  BAR AND GRILL","Address":"1445 3rd Ave","City":"Chula Vista","State":"CA","Zip":"91911"},{"Location":"MOSSY NISSAN CHULA VISTA","Address":"1885 Auto Park Pl","City":"Chula Vista","State":"CA","Zip":"91911"},{"Location":"MR DS COCKTAIL LOUNGE","Address":"1322 3rd Ave","City":"Chula Vista","State":"CA","Zip":"91911"},{"Location":"NICE  & EASY AUTO BODY &PAINT","Address":"2350 Main St","City":"Chula Vista","State":"CA","Zip":"91911"},{"Location":"OTAY FARM MARKET","Address":"1716 Broadway","City":"Chula Vista","State":"CA","Zip":"91911"},{"Location":"OTAY LANDFILL INC","Address":"1700 Maxwell Rd","City":"Chula Vista","State":"CA","Zip":"91911"},{"Location":"PALOMAR TOYS","Address":"669 Palomar St F","City":"Chula Vista","State":"CA","Zip":"91911"},{"Location":"PDQ FITNESS & SPORTS","Address":"355 K St L","City":"Chula Vista","State":"CA","Zip":"91911"},{"Location":"PHO HUNG CALI","Address":"1060 Broadway","City":"Chula Vista","State":"CA","Zip":"91911"},{"Location":"PROFIL INSTITUTE FOR CLINICAL","Address":"855 3rd Ave 4400","City":"Chula Vista","State":"CA","Zip":"91911"},{"Location":"ROBERTOS TACO SHOP 3","Address":"1052 Broadway","City":"Chula Vista","State":"CA","Zip":"91911"},{"Location":"RUSH STAR WIRELESS","Address":"1124 Bay Blvd B","City":"Chula Vista","State":"CA","Zip":"91911"},{"Location":"RV PROMOBILE","Address":"180 Mace St A12","City":"Chula Vista","State":"CA","Zip":"91911"},{"Location":"SAFELITE AUTO GLASS","Address":"1415 Broadway","City":"Chula Vista","State":"CA","Zip":"91911"},{"Location":"SD WINGS AND RIBS","Address":"263 E Orange Ave 1","City":"Chula Vista","State":"CA","Zip":"91911"},{"Location":"SEA FOOD BAR","Address":"3120 Main St","City":"Chula Vista","State":"CA","Zip":"91911"},{"Location":"SENIORS ON BROADWAY","Address":"845 Broadway 105","City":"Chula Vista","State":"CA","Zip":"91911"},{"Location":"SF MEATS","Address":"2514 Main St","City":"Chula Vista","State":"CA","Zip":"91911"},{"Location":"SOUTH BAY MOTOR SPORTS","Address":"1890 Auto Park Pl","City":"Chula Vista","State":"CA","Zip":"91911"},{"Location":"SOUTH CALI STEAK AND BURGER BAR","Address":"301 Montgomery Street","City":"Chula Vista","State":"CA","Zip":"91911"},{"Location":"SUNBOW FAMILY DENTISTRY","Address":"1351 Medical Center Dr B","City":"Chula Vista","State":"CA","Zip":"91911"},{"Location":"URBAN DESIGNS INC","Address":"677 Anita St F","City":"Chula Vista","State":"CA","Zip":"91911"},{"Location":"VAPE UP USA","Address":"1079 3rd Ave","City":"Chula Vista","State":"CA","Zip":"91911"},{"Location":"VAPURE USA INC","Address":"1124 Bay Blvd A","City":"Chula Vista","State":"CA","Zip":"91911"}]