[{"Location":"ATC DEPT N33D H92240-15-P-0015","Address":"1 Hooper Blvd","City":"Imperial Beach","State":"CA","Zip":"91932"},{"Location":"BARRELS WINE AND BEER","Address":"710 Seacoast Drive","City":"Imperial Beach","State":"CA","Zip":"91932"},{"Location":"BIG KAHUNAS","Address":"600 Palm Ave 117","City":"Imperial Beach","State":"CA","Zip":"91932"},{"Location":"BULLPEN TAVERN","Address":"706 Highway 75","City":"Imperial Beach","State":"CA","Zip":"91932"},{"Location":"COASTAL RIVERING GROUP ONE","Address":"1498 13th St","City":"Imperial Beach","State":"CA","Zip":"91932"},{"Location":"CORONADO BREWING IB","Address":"875 Seacoast Dr","City":"Imperial Beach","State":"CA","Zip":"91932"},{"Location":"CSDC","Address":"1325 Iris Ave","City":"Imperial Beach","State":"CA","Zip":"91932"},{"Location":"DENTAL SOLUTION","Address":"701 Palm Ave","City":"Imperial Beach","State":"CA","Zip":"91932"},{"Location":"EL TAPATIO RESTAURANT","Address":"667 Silver Strand Blvd","City":"Imperial Beach","State":"CA","Zip":"91932"},{"Location":"FLEET RES. ASSN.  289","Address":"659 Silver Strand Blvd","City":"Imperial Beach","State":"CA","Zip":"91932"},{"Location":"I B MORTGAGE","Address":"1258 Imperial Beach Blvd","City":"Imperial Beach","State":"CA","Zip":"91932"},{"Location":"IB FORUM  LLC","Address":"1079 Seacoast Dr","City":"Imperial Beach","State":"CA","Zip":"91932"},{"Location":"IMPERIAL NAILS SALON","Address":"600 Palm Ave","City":"Imperial Beach","State":"CA","Zip":"91932"},{"Location":"MESG-1 IN4","Address":"Bld 184 Nolf-1b","City":"Imperial Beach","State":"CA","Zip":"91932"},{"Location":"MICKEYS BAR","Address":"220 Palm Ave","City":"Imperial Beach","State":"CA","Zip":"91932"},{"Location":"NAVAL WARFARE  ATC 903","Address":"1 Hooper Blvd 903","City":"Imperial Beach","State":"CA","Zip":"91932"},{"Location":"NAVAL WARFARE ATC 901","Address":"1 Hooper Blvd 901","City":"Imperial Beach","State":"CA","Zip":"91932"},{"Location":"NAVAL WARFARE ATC 904","Address":"1 Hooper Blvd 904","City":"Imperial Beach","State":"CA","Zip":"91932"},{"Location":"NAVAL WARFARE ATC905","Address":"1 Hooper Blvd 905","City":"Imperial Beach","State":"CA","Zip":"91932"},{"Location":"NCWG1","Address":"Nolf Ib Bldg 184","City":"Imperial Beach","State":"CA","Zip":"91932"},{"Location":"NSW ADVANCED TRAINING COMMAND","Address":"1 Hooper Blvd","City":"Imperial Beach","State":"CA","Zip":"91932"},{"Location":"OVISION KEYS SERVICES","Address":"869 Cypress Ave","City":"Imperial Beach","State":"CA","Zip":"91932"},{"Location":"PIN SUSHI RESTAURANT","Address":"910 Seacoast Dr","City":"Imperial Beach","State":"CA","Zip":"91932"},{"Location":"REDS WINE AND CRAFT BEER","Address":"710 Seacoast Dr F","City":"Imperial Beach","State":"CA","Zip":"91932"},{"Location":"S D JOB CORPS CTR","Address":"1325 Iris Ave","City":"Imperial Beach","State":"CA","Zip":"91932"},{"Location":"SCOREBOARD","Address":"951 Palm Ave","City":"Imperial Beach","State":"CA","Zip":"91932"},{"Location":"SUN AND SEA MANOR","Address":"740 7th St","City":"Imperial Beach","State":"CA","Zip":"91932"},{"Location":"THE SALTY FROG","Address":"992 Palm Ave","City":"Imperial Beach","State":"CA","Zip":"91932"},{"Location":"THE WAVE CAFE","Address":"809 Seacoast Dr","City":"Imperial Beach","State":"CA","Zip":"91932"},{"Location":"US NAVY","Address":"1498 13th St 193","City":"Imperial Beach","State":"CA","Zip":"91932"},{"Location":"WEST COAST KITCHEN CAFE","Address":"208 Palm Ave","City":"Imperial Beach","State":"CA","Zip":"91932"},{"Location":"YE OLD PLANK INN","Address":"24 Palm Ave","City":"Imperial Beach","State":"CA","Zip":"91932"},{"Location":"MSRON-3-BLD-166","Address":"Nolf Ib 184","City":"San Diego","State":"CA","Zip":"91932"},{"Location":"ATC DEPT N33D H92240-15-P-0015","Address":"1 Hooper Blvd","City":"Imperial Beach","State":"CA","Zip":"91932"},{"Location":"Barrels Wine And Beer","Address":"710 Seacoast Drive","City":"Imperial Beach","State":"CA","Zip":"91932"},{"Location":"BIG KAHUNAS","Address":"600 Palm Ave 117","City":"Imperial Beach","State":"CA","Zip":"91932"},{"Location":"BULLPEN TAVERN","Address":"706 Highway 75","City":"Imperial Beach","State":"CA","Zip":"91932"},{"Location":"COASTAL RIVERING GROUP ONE","Address":"1498 13th St","City":"Imperial Beach","State":"CA","Zip":"91932"},{"Location":"CORONADO BREWING IB","Address":"875 Seacoast Dr","City":"Imperial Beach","State":"CA","Zip":"91932"},{"Location":"CSDC","Address":"1325 Iris Ave","City":"Imperial Beach","State":"CA","Zip":"91932"},{"Location":"EL TAPATIO RESTAURANT","Address":"667 Silver Strand Blvd","City":"Imperial Beach","State":"CA","Zip":"91932"},{"Location":"FLEET RES. ASSN.  289","Address":"659 Silver Strand Blvd","City":"Imperial Beach","State":"CA","Zip":"91932"},{"Location":"I B MORTGAGE","Address":"1258 Imperial Beach Blvd","City":"Imperial Beach","State":"CA","Zip":"91932"},{"Location":"IB FORUM  LLC","Address":"1079 Seacoast Dr","City":"Imperial Beach","State":"CA","Zip":"91932"},{"Location":"IMPERIAL NAILS SALON","Address":"600 Palm Ave","City":"Imperial Beach","State":"CA","Zip":"91932"},{"Location":"MESG-1 IN4","Address":"Bld 184 Nolf-1b","City":"Imperial Beach","State":"CA","Zip":"91932"},{"Location":"MICKEYS BAR","Address":"220 Palm Ave","City":"Imperial Beach","State":"CA","Zip":"91932"},{"Location":"NAVAL WARFARE  ATC 903","Address":"1 Hooper Blvd 903","City":"Imperial Beach","State":"CA","Zip":"91932"},{"Location":"NAVAL WARFARE ATC 901","Address":"1 Hooper Blvd 901","City":"Imperial Beach","State":"CA","Zip":"91932"},{"Location":"NAVAL WARFARE ATC 904","Address":"1 Hooper Blvd 904","City":"Imperial Beach","State":"CA","Zip":"91932"},{"Location":"NAVAL WARFARE ATC905","Address":"1 Hooper Blvd 905","City":"Imperial Beach","State":"CA","Zip":"91932"},{"Location":"NCWG1","Address":"Nolf Ib Bldg 184","City":"Imperial Beach","State":"CA","Zip":"91932"},{"Location":"NSW ADVANCED TRAINING COMMAND","Address":"1 Hooper Blvd","City":"Imperial Beach","State":"CA","Zip":"91932"},{"Location":"OVISION KEYS SERVICES","Address":"869 Cypress Ave","City":"Imperial Beach","State":"CA","Zip":"91932"},{"Location":"PIN SUSHI RESTAURANT","Address":"910 Seacoast Dr","City":"Imperial Beach","State":"CA","Zip":"91932"},{"Location":"REDS WINE AND CRAFT BEER","Address":"710 Seacoast Dr F","City":"Imperial Beach","State":"CA","Zip":"91932"},{"Location":"S D JOB CORPS CTR","Address":"1325 Iris Ave","City":"Imperial Beach","State":"CA","Zip":"91932"},{"Location":"SCOREBOARD","Address":"951 Palm Ave","City":"Imperial Beach","State":"CA","Zip":"91932"},{"Location":"SUN AND SEA MANOR","Address":"740 7th St","City":"Imperial Beach","State":"CA","Zip":"91932"},{"Location":"THE SALTY FROG","Address":"992 Palm Ave","City":"Imperial Beach","State":"CA","Zip":"91932"},{"Location":"THE WAVE CAFE","Address":"809 Seacoast Dr","City":"Imperial Beach","State":"CA","Zip":"91932"},{"Location":"US NAVY","Address":"1498 13th St 193","City":"Imperial Beach","State":"CA","Zip":"91932"},{"Location":"WEST COAST KITCHEN CAFE","Address":"208 Palm Ave","City":"Imperial Beach","State":"CA","Zip":"91932"},{"Location":"YE OLD PLANK INN","Address":"24 Palm Ave","City":"Imperial Beach","State":"CA","Zip":"91932"},{"Location":"MSRON-3-BLD-166","Address":"Nolf Ib 184","City":"San Diego","State":"CA","Zip":"91932"}]