[{"Location":"AROMA HOOKA AND CIGAR LOUNGE","Address":"12930 Campo Rd K","City":"Jamul","State":"CA","Zip":"91935"},{"Location":"BRODYS BURGERS & BEER","Address":"12930 Campo Rd E","City":"Jamul","State":"CA","Zip":"91935"},{"Location":"DEERHORN VALLEY FIRE STATION","Address":"2363 Horey Springs Rd","City":"Jamul","State":"CA","Zip":"91935"},{"Location":"DEPT OF HOMELAND SECURITY  II","Address":"15430a Campo Rd","City":"Jamul","State":"CA","Zip":"91935"},{"Location":"DM MARTIN BOOKEEPING","Address":"13910 Lyons Valley Rd I","City":"Jamul","State":"CA","Zip":"91935"},{"Location":"EQUITY LIFESTYLE 5116","Address":"14615 Otay Lakes Rd","City":"Jamul","State":"CA","Zip":"91935"},{"Location":"EQUITY LIFESTYLES 5116","Address":"14615 Otay Lakes Rd","City":"Jamul","State":"CA","Zip":"91935"},{"Location":"AMERICAN MEDICAL","Address":"13881 Campo Rd A-1","City":"Jamul","State":"CA","Zip":"91935"},{"Location":"AROMA HOOKA AND CIGAR LOUNGE","Address":"12930 Campo Rd K","City":"Jamul","State":"CA","Zip":"91935"},{"Location":"BRODYS BURGERS & BEER","Address":"12930 Campo Rd E","City":"Jamul","State":"CA","Zip":"91935"},{"Location":"DEERHORN VALLEY FIRE STATION","Address":"2363 Horey Springs Rd","City":"Jamul","State":"CA","Zip":"91935"},{"Location":"DEPT OF HOMELAND SECURITY  II","Address":"15430a Campo Rd","City":"Jamul","State":"CA","Zip":"91935"},{"Location":"DM MARTIN BOOKEEPING","Address":"13910 Lyons Valley Rd I","City":"Jamul","State":"CA","Zip":"91935"},{"Location":"EQUITY LIFESTYLE 5116","Address":"14615 Otay Lakes Rd","City":"Jamul","State":"CA","Zip":"91935"},{"Location":"EQUITY LIFESTYLES 5116","Address":"14615 Otay Lakes Rd","City":"Jamul","State":"CA","Zip":"91935"}]