[{"Location":"619-867-1514","Address":"7860 Golden Ave","City":"Lemon Grove","State":"CA","Zip":"91945"},{"Location":"AMERICAN LEGION POST 201","Address":"8015 Broadway","City":"Lemon Grove","State":"CA","Zip":"91945"},{"Location":"AMERICAN TIRE DEPOT","Address":"6994 Broadway","City":"Lemon Grove","State":"CA","Zip":"91945"},{"Location":"ANNAS THE FAMILY RESTAURANT","Address":"8099 Broadway","City":"Lemon Grove","State":"CA","Zip":"91945"},{"Location":"BOB BAKER TOYOTA","Address":"6800 Federal Blvd","City":"Lemon Grove","State":"CA","Zip":"91945"},{"Location":"CARNITAS EL BOTANERO","Address":"8035 Broadway","City":"Lemon Grove","State":"CA","Zip":"91945"},{"Location":"COOPS CUTS LLC","Address":"2625 Lemon Grove Ave","City":"Lemon Grove","State":"CA","Zip":"91945"},{"Location":"COPA CABANA BAR AND GRILL","Address":"7826 Broadway","City":"Lemon Grove","State":"CA","Zip":"91945"},{"Location":"DAVIDS FLOWER","Address":"7733 Palm St 102","City":"Lemon Grove","State":"CA","Zip":"91945"},{"Location":"EDCO DISPOSAL CORP","Address":"6670 Federal Blvd","City":"Lemon Grove","State":"CA","Zip":"91945"},{"Location":"EL POLLO GRILL","Address":"7836 Broadway","City":"Lemon Grove","State":"CA","Zip":"91945"},{"Location":"EXCLUSIVE CLOTHING","Address":"7139 Broadway","City":"Lemon Grove","State":"CA","Zip":"91945"},{"Location":"GTM DISCOUNT GENERAL STORES","Address":"7663 Broadway","City":"Lemon Grove","State":"CA","Zip":"91945"},{"Location":"JAZZYS HAIR DESIGN","Address":"7733 Palm St","City":"Lemon Grove","State":"CA","Zip":"91945"},{"Location":"KMF CROSS FIT","Address":"6420 Federal Blvd D","City":"Lemon Grove","State":"CA","Zip":"91945"},{"Location":"LEFT COAST CUTS","Address":"7431 Broadway","City":"Lemon Grove","State":"CA","Zip":"91945"},{"Location":"MISS DONUTS","Address":"7863 Broadway","City":"Lemon Grove","State":"CA","Zip":"91945"},{"Location":"MONTEREY HAIR SHOP","Address":"7609 Broadway","City":"Lemon Grove","State":"CA","Zip":"91945"},{"Location":"MOSSY HONDA","Address":"3615 Lemon Grove Ave","City":"Lemon Grove","State":"CA","Zip":"91945"},{"Location":"NORBERTO & MARGARITA INC","Address":"8131 Broadway 154","City":"Lemon Grove","State":"CA","Zip":"91945"},{"Location":"ROBINSON RENTALS","Address":"6849 Federal Blvd","City":"Lemon Grove","State":"CA","Zip":"91945"},{"Location":"SABOR MEXICAN GRILL","Address":"7123 Broadway","City":"Lemon Grove","State":"CA","Zip":"91945"},{"Location":"SPORTSMAN'S PUB INC.","Address":"7350 Broadway","City":"Lemon Grove","State":"CA","Zip":"91945"},{"Location":"T NAILS HAIR SALON","Address":"7133 Broadway","City":"Lemon Grove","State":"CA","Zip":"91945"},{"Location":"THE BUFFALO SPOT","Address":"7820 Broadway","City":"Lemon Grove","State":"CA","Zip":"91945"},{"Location":"THEGOODLIFE TATTOO SHOP","Address":"7451 Broadway","City":"Lemon Grove","State":"CA","Zip":"91945"},{"Location":"VEYS POWER SPORT","Address":"7345 Broadway","City":"Lemon Grove","State":"CA","Zip":"91945"},{"Location":"VFW POST 1512","Address":"6873 Federal Blvd","City":"Lemon Grove","State":"CA","Zip":"91945"},{"Location":"WINGSTOP","Address":"6969 Broadway","City":"Lemon Grove","State":"CA","Zip":"91945"}]