[{"Location":"SOMBRERO MEXICAN FOOD","Address":"703 E Daneberge Dr","City":"El Centro","State":"CA","Zip":"91942"},{"Location":"24 HOUR FITNESS #101","Address":"7450 University Ave","City":"La Mesa","State":"CA","Zip":"91942"},{"Location":"24 HOUR FITNESS #178","Address":"5601 Grossmont Center Dr","City":"La Mesa","State":"CA","Zip":"91942"},{"Location":"70TH STREET SHELL","Address":"5151 70th St","City":"La Mesa","State":"CA","Zip":"91942"},{"Location":"%40 SPACEBAR","Address":"7454 University Ave A","City":"La Mesa","State":"CA","Zip":"91942"},{"Location":"ALBERT MEXICAN REST","Address":"8038 La Mesa Blvd","City":"La Mesa","State":"CA","Zip":"91942"},{"Location":"ALEJANDRO VILLASENOR","Address":"8306 Parkway Dr","City":"La Mesa","State":"CA","Zip":"91942"},{"Location":"ALVARADO PARKWAY INSTITUTE","Address":"7050 Parkway Dr","City":"La Mesa","State":"CA","Zip":"91942"},{"Location":"AMIGOS MEXICAN FOOD","Address":"5307 Lake Murray Blvd C","City":"La Mesa","State":"CA","Zip":"91942"},{"Location":"ANNA SALON & SPA","Address":"9128 Fletcher Pkwy","City":"La Mesa","State":"CA","Zip":"91942"},{"Location":"BANKOK ORCHID","Address":"9168 Fletcher Pkwy","City":"La Mesa","State":"CA","Zip":"91942"},{"Location":"BIG E WINE AND LIQUOR 1","Address":"5525 Jackson Dr","City":"La Mesa","State":"CA","Zip":"91942"},{"Location":"BJS RESTAURANT #417","Address":"5500 Grossmont Center Dr M1","City":"La Mesa","State":"CA","Zip":"91942"},{"Location":"BO-BEAU KITCHEN & BAR","Address":"8384 La Mesa Blvd","City":"La Mesa","State":"CA","Zip":"91942"},{"Location":"BOLAM DENTAL OFFICE","Address":"5308 Lake Murray Blvd D","City":"La Mesa","State":"CA","Zip":"91942"},{"Location":"BOLT BREWERY","Address":"8179 Center St","City":"La Mesa","State":"CA","Zip":"91942"},{"Location":"CALIFORNIA SPECIAL CARE CENTER","Address":"8787 Center Dr","City":"La Mesa","State":"CA","Zip":"91942"},{"Location":"CARDINAL DENTAL","Address":"8960 Fletcher Pkwy D","City":"La Mesa","State":"CA","Zip":"91942"},{"Location":"CARL BURGERS BODY SHOP","Address":"8355 Hercules St","City":"La Mesa","State":"CA","Zip":"91942"},{"Location":"CARL BURGERS CHRYSLER-JEEP","Address":"8333 Hercules St","City":"La Mesa","State":"CA","Zip":"91942"},{"Location":"CASA DE PICO","Address":"5500 Grossmont Center Dr M","City":"La Mesa","State":"CA","Zip":"91942"},{"Location":"CENTIFONTIS REST & BAR INC","Address":"8365 La Mesa Blvd","City":"La Mesa","State":"CA","Zip":"91942"},{"Location":"CHILI'S #0454","Address":"8285 Fletcher Pkwy","City":"La Mesa","State":"CA","Zip":"91942"},{"Location":"CHUZE FITNESS","Address":"5500 Grossmont Center Dr 414","City":"La Mesa","State":"CA","Zip":"91942"},{"Location":"CLAIM JUMPER #12","Address":"5500 Grossmont Center Dr","City":"La Mesa","State":"CA","Zip":"91942"},{"Location":"DEAYDRE PULLIAM","Address":"8469 La Mesa Blvd","City":"La Mesa","State":"CA","Zip":"91942"},{"Location":"DREW COLLISION REPAIR CENTER","Address":"8970 La Mesa Blvd","City":"La Mesa","State":"CA","Zip":"91942"},{"Location":"EL TORITO 7082","Address":"5024 Baltimore Dr","City":"La Mesa","State":"CA","Zip":"91942"},{"Location":"FIRESTONE #019445","Address":"5577 Lake Murray Blvd","City":"La Mesa","State":"CA","Zip":"91942"},{"Location":"FIRST REPUBLIC BANK","Address":"8347 La Mesa Blvd","City":"La Mesa","State":"CA","Zip":"91942"},{"Location":"FUDDRUCKERS #3062","Address":"5500 Grossmont Center Dr","City":"La Mesa","State":"CA","Zip":"91942"},{"Location":"GISELE K INC.","Address":"6062 Lake Murray Blvd 101a","City":"La Mesa","State":"CA","Zip":"91942"},{"Location":"GROSSMONT HOSP BRIAR","Address":"9000 Wakarusa St","City":"La Mesa","State":"CA","Zip":"91942"},{"Location":"GROSSMONT HOSP WOMEN CENTER","Address":"5555 Grossmont Center Dr","City":"La Mesa","State":"CA","Zip":"91942"},{"Location":"GROSSMONT HOSPITAL","Address":"8860 Center Dr","City":"La Mesa","State":"CA","Zip":"91942"},{"Location":"GROSSMONT HOSPITAL","Address":"5555 Grossmont Center Dr","City":"La Mesa","State":"CA","Zip":"91942"},{"Location":"GROSSMONT LAND CO","Address":"5500 Grossmont Center Dr","City":"La Mesa","State":"CA","Zip":"91942"},{"Location":"GROSSMONT SHOPPING CENTER","Address":"5500 Grossmont Center Dr 213","City":"La Mesa","State":"CA","Zip":"91942"},{"Location":"HELIX ENVIRONMENTAL","Address":"7578 El Cajon Blvd","City":"La Mesa","State":"CA","Zip":"91942"},{"Location":"HIGHLY FAVORED HAIR SALO","Address":"7881 University Ave","City":"La Mesa","State":"CA","Zip":"91942"},{"Location":"HIMEJI CASTLE INC","Address":"8555 Fletcher Pkwy 105","City":"La Mesa","State":"CA","Zip":"91942"},{"Location":"HOFFERS CIGAR BAR","Address":"8282 La Mesa Blvd","City":"La Mesa","State":"CA","Zip":"91942"},{"Location":"HOLIDAY INN EXPRESS LA M","Address":"9550 Murray Dr","City":"La Mesa","State":"CA","Zip":"91942"},{"Location":"HOOLEYS","Address":"5500 Grossmont Center Dr","City":"La Mesa","State":"CA","Zip":"91942"},{"Location":"HOWARD B FEFFER DDS","Address":"8881 Fletcher Pkwy 220","City":"La Mesa","State":"CA","Zip":"91942"},{"Location":"JEFF GRAY DDS","Address":"8555 Fletcher Pkwy 102","City":"La Mesa","State":"CA","Zip":"91942"},{"Location":"JOHNNY B'S BAR & GRILL","Address":"8393 La Mesa Blvd","City":"La Mesa","State":"CA","Zip":"91942"},{"Location":"JOJOS HAIR STYLING","Address":"8675 La Mesa Blvd","City":"La Mesa","State":"CA","Zip":"91942"},{"Location":"JOLT N JOE'S","Address":"8076 La Mesa Blvd","City":"La Mesa","State":"CA","Zip":"91942"},{"Location":"KEN WILLIAMS DDS","Address":"5565 Grossmont Center Dr 220","City":"La Mesa","State":"CA","Zip":"91942"},{"Location":"KONNICHIWA SUSHI","Address":"8350 La Mesa Blvd","City":"La Mesa","State":"CA","Zip":"91942"},{"Location":"LA MESA BISTRO AND BAKERY","Address":"8697 La Mesa Blvd","City":"La Mesa","State":"CA","Zip":"91942"},{"Location":"LA MESA INDOOR SOCCER","Address":"9586 Murray Dr","City":"La Mesa","State":"CA","Zip":"91942"},{"Location":"LAFWORLD INC DBA CHICO CLUB","Address":"7366 El Cajon Blvd","City":"La Mesa","State":"CA","Zip":"91942"},{"Location":"LAKE PARK CONDOMINIUM ASSOC","Address":"5700 Baltimore Dr","City":"La Mesa","State":"CA","Zip":"91942"},{"Location":"MACY'S WEST 549","Address":"5500 Grossmont Center Dr","City":"La Mesa","State":"CA","Zip":"91942"},{"Location":"MACY'S WEST 549 BR","Address":"5500 Grossmont Center Dr","City":"La Mesa","State":"CA","Zip":"91942"},{"Location":"MARIETA'S","Address":"8949 La Mesa Blvd","City":"La Mesa","State":"CA","Zip":"91942"},{"Location":"MEN'S WEARHOUSE #2311","Address":"5465 Grossmont Center Dr D","City":"La Mesa","State":"CA","Zip":"91942"},{"Location":"MICHAEL ALLENSON","Address":"8283 La Mesa Blvd","City":"La Mesa","State":"CA","Zip":"91942"},{"Location":"MOMENTOS ENTERPRISES INC","Address":"5500 Grossmont Center Dr C1","City":"La Mesa","State":"CA","Zip":"91942"},{"Location":"MORGAN STANLEY 100794","Address":"5464 Grossmont Center Dr","City":"La Mesa","State":"CA","Zip":"91942"},{"Location":"MR G'S TAVERN","Address":"7081 University Ave","City":"La Mesa","State":"CA","Zip":"91942"},{"Location":"NORM COCKTAILS","Address":"7403 El Cajon Blvd","City":"La Mesa","State":"CA","Zip":"91942"},{"Location":"PARKWAY LLC","Address":"8090 Parkway Dr","City":"La Mesa","State":"CA","Zip":"91942"},{"Location":"PARKYS SALOON","Address":"6149 Lake Murray Blvd","City":"La Mesa","State":"CA","Zip":"91942"},{"Location":"PARTNERS URGENT CARE%2FGM","Address":"6136 Lake Murray Blvd","City":"La Mesa","State":"CA","Zip":"91942"},{"Location":"PATTY S CAFE","Address":"6155 Lake Murray Blvd","City":"La Mesa","State":"CA","Zip":"91942"},{"Location":"PENSKE FORD","Address":"8970 La Mesa Blvd","City":"La Mesa","State":"CA","Zip":"91942"},{"Location":"PENSKE HYUNDAI","Address":"8850 Grossmont Blvd","City":"La Mesa","State":"CA","Zip":"91942"},{"Location":"PETE'S PLACE","Address":"8330 La Mesa Blvd","City":"La Mesa","State":"CA","Zip":"91942"},{"Location":"PFI LA MESA","Address":"8302 La Mesa Blvd","City":"La Mesa","State":"CA","Zip":"91942"},{"Location":"RED LOBSTER #0504","Address":"8703 Murray Dr","City":"La Mesa","State":"CA","Zip":"91942"},{"Location":"REGAL BAR LLC","Address":"8342 La Mesa Blvd","City":"La Mesa","State":"CA","Zip":"91942"},{"Location":"REHAB UNITED","Address":"8881 Fletcher Pkwy 385","City":"La Mesa","State":"CA","Zip":"91942"},{"Location":"RIGOBERTOS TACO SHOP","Address":"5454 Jackson Dr","City":"La Mesa","State":"CA","Zip":"91942"},{"Location":"ROSARITOS MEXICAN FOOD","Address":"6062 Lake Murray Blvd 204","City":"La Mesa","State":"CA","Zip":"91942"},{"Location":"ROSARITOS MEXICAN FOOD","Address":"7941 University Ave","City":"La Mesa","State":"CA","Zip":"91942"},{"Location":"SALON DE  SOLAGE","Address":"8274 Parkway Dr 104","City":"La Mesa","State":"CA","Zip":"91942"},{"Location":"SAN DIEGO HOME COOKING INC","Address":"5465 Lake Murray Blvd","City":"La Mesa","State":"CA","Zip":"91942"},{"Location":"SCOTTRADE 54F","Address":"5208 Jackson Dr 113","City":"La Mesa","State":"CA","Zip":"91942"},{"Location":"SERDIO BERKSTEIN DDS","Address":"8860 Center Dr 440","City":"La Mesa","State":"CA","Zip":"91942"},{"Location":"SHAKYS PIZZA","Address":"5500 Grossmont Center Dr 267","City":"La Mesa","State":"CA","Zip":"91942"},{"Location":"SHARP HEALTHCARE","Address":"5555 Grossmont Center Dr","City":"La Mesa","State":"CA","Zip":"91942"},{"Location":"SPCBL","Address":"7101 University Ave","City":"La Mesa","State":"CA","Zip":"91942"},{"Location":"STIX HOLDINGS 727","Address":"8025 Fletcher Pkwy","City":"La Mesa","State":"CA","Zip":"91942"},{"Location":"SUMMIT DENTAL","Address":"8530 La Mesa Blvd 204","City":"La Mesa","State":"CA","Zip":"91942"},{"Location":"SWAMIS CAFE","Address":"8284 La Mesa Blvd","City":"La Mesa","State":"CA","Zip":"91942"},{"Location":"TARGET STORES","Address":"5500 G Grose Mount Center Dr 35","City":"La Mesa","State":"CA","Zip":"91942"},{"Location":"THE ADVANTAGE CENTER","Address":"8363 Center Dr","City":"La Mesa","State":"CA","Zip":"91942"},{"Location":"THE BAR LA MESA","Address":"5286 Baltimore Dr","City":"La Mesa","State":"CA","Zip":"91942"},{"Location":"THE HEARTH HOUSE","Address":"5505 Jackson Dr","City":"La Mesa","State":"CA","Zip":"91942"},{"Location":"THE ROOK","Address":"7745 University Ave","City":"La Mesa","State":"CA","Zip":"91942"},{"Location":"TORREY PINES BANK","Address":"8379 Center Dr","City":"La Mesa","State":"CA","Zip":"91942"},{"Location":"VANISH LOUNGE.","Address":"7520 El Cajon Blvd 104","City":"La Mesa","State":"CA","Zip":"91942"},{"Location":"VFW POST 1774","Address":"8118 University Ave","City":"La Mesa","State":"CA","Zip":"91942"},{"Location":"VILLAGE GYM","Address":"8227 La Mesa Blvd","City":"La Mesa","State":"CA","Zip":"91942"},{"Location":"VILLAGE STATION BS","Address":"5943 Severin Dr","City":"La Mesa","State":"CA","Zip":"91942"},{"Location":"WALMART","Address":"5500 Grossmont Center Dr","City":"La Mesa","State":"CA","Zip":"91942"},{"Location":"WEAZROCK INC","Address":"8758 La Mesa Blvd","City":"La Mesa","State":"CA","Zip":"91942"},{"Location":"WEEVIL BURGER","Address":"9104 Fletcher Pkwy","City":"La Mesa","State":"CA","Zip":"91942"},{"Location":"WEST COAST BARBECUE","Address":"6126 Lake Murray Blvd","City":"La Mesa","State":"CA","Zip":"91942"},{"Location":"WONG GOLDEN PALICE","Address":"7126 University Ave","City":"La Mesa","State":"CA","Zip":"91942"}]