[{"Location":"6193369300","Address":"1420 E Plaza Blvd B2","City":"National City","State":"CA","Zip":"91950"},{"Location":"8 PLAZA CHIROPRACTIC","Address":"3400 E 8th St 212","City":"National City","State":"CA","Zip":"91950"},{"Location":"ADVANTAGE AMBULANCE INC","Address":"3142 E Plaza Blvd P","City":"National City","State":"CA","Zip":"91950"},{"Location":"ALL AMERICAN PLASTIC AND PACKA","Address":"3020 Hoover Ave","City":"National City","State":"CA","Zip":"91950"},{"Location":"ALOHA GRILL","Address":"3120 E Plaza Blvd","City":"National City","State":"CA","Zip":"91950"},{"Location":"ANGIE AND VANGIES HAIRSTYLE","Address":"3114 E Plaza Blvd","City":"National City","State":"CA","Zip":"91950"},{"Location":"APPLEBEE'S #2150023","Address":"3030 Plaza Bonita Rd","City":"National City","State":"CA","Zip":"91950"},{"Location":"B B FUNITURE","Address":"404 National City Blvd","City":"National City","State":"CA","Zip":"91950"},{"Location":"BAYVIEW BEHAVIORAL HEALTH","Address":"2400 E 4th St","City":"National City","State":"CA","Zip":"91950"},{"Location":"BIRRIAS CHIVAS & CHEVES","Address":"2401 Highland Ave 104","City":"National City","State":"CA","Zip":"91950"},{"Location":"BUSTURS BEACH HOUSE","Address":"740 Bay Marina Dr","City":"National City","State":"CA","Zip":"91950"},{"Location":"CALI CLIPPERS BARBERSHOP","Address":"2435 National City Blvd","City":"National City","State":"CA","Zip":"91950"},{"Location":"CALIFORNIA BURIAL CHAPEL","Address":"2200 Highland Ave","City":"National City","State":"CA","Zip":"91950"},{"Location":"CALIFORNIA'S TACO SHOP","Address":"51 N Highland Ave","City":"National City","State":"CA","Zip":"91950"},{"Location":"CAROL'S VIDEO","Address":"2421 E Plaza Blvd","City":"National City","State":"CA","Zip":"91950"},{"Location":"CERTIFIED TIRE AND SERVICE","Address":"1705 Sweetwater Rd","City":"National City","State":"CA","Zip":"91950"},{"Location":"CHINESSE NOODLE HOUSE","Address":"600 E 8th St 5","City":"National City","State":"CA","Zip":"91950"},{"Location":"CHUZE FITNESS","Address":"3007 Highland Ave 16","City":"National City","State":"CA","Zip":"91950"},{"Location":"CRUNCH FITNESS","Address":"3030 Plaza Bonita Rd","City":"National City","State":"CA","Zip":"91950"},{"Location":"DEE THE TAX LADY","Address":"36 N Euclid Ave G","City":"National City","State":"CA","Zip":"91950"},{"Location":"DR DINAH VITUG","Address":"1035 Highland Ave","City":"National City","State":"CA","Zip":"91950"},{"Location":"DR MARILYN  AGBUYA DENTAL","Address":"1430 E Plaza Blvd E9","City":"National City","State":"CA","Zip":"91950"},{"Location":"DULCERIA FIESTA","Address":"640 Highland Ave D","City":"National City","State":"CA","Zip":"91950"},{"Location":"EL TORITO 7258","Address":"3030 Plaza Bonita Rd 2510","City":"National City","State":"CA","Zip":"91950"},{"Location":"ELEANORM LUMAHAN DDS INC","Address":"1127 Highland Ave","City":"National City","State":"CA","Zip":"91950"},{"Location":"ETHRIDGE CENTER","Address":"416 National City Blvd","City":"National City","State":"CA","Zip":"91950"},{"Location":"EUCLID LAUNDROMAT","Address":"891 Euclid Ave","City":"National City","State":"CA","Zip":"91950"},{"Location":"FILAM AUTO REPAIR","Address":"105 W 18th St","City":"National City","State":"CA","Zip":"91950"},{"Location":"FIRESTONE #010898","Address":"943 Highland Ave","City":"National City","State":"CA","Zip":"91950"},{"Location":"FIRESTONE #029106","Address":"2531 E Plaza Blvd","City":"National City","State":"CA","Zip":"91950"},{"Location":"FMC 19820000","Address":"303 W 26th St","City":"National City","State":"CA","Zip":"91950"},{"Location":"FRESH UP BARBER SHOP LLC","Address":"3030 Plaza Bonita Rd","City":"National City","State":"CA","Zip":"91950"},{"Location":"G & G PHO","Address":"1421 E Plaza Blvd 1","City":"National City","State":"CA","Zip":"91950"},{"Location":"G AND S ENTERPRISES INC","Address":"1921 Roosevelt Ave","City":"National City","State":"CA","Zip":"91950"},{"Location":"GALLERIA","Address":"2720 E Plaza Blvd M","City":"National City","State":"CA","Zip":"91950"},{"Location":"GEEVAN HAIR SALON","Address":"1610 E 8th St B","City":"National City","State":"CA","Zip":"91950"},{"Location":"GLOBAL TRAVEL & TOUR","Address":"1631 E 8th St 3","City":"National City","State":"CA","Zip":"91950"},{"Location":"GOODYS SUSHI AND GRILL","Address":"2424 Hoover Ave","City":"National City","State":"CA","Zip":"91950"},{"Location":"GRAND REALTY SERVICES","Address":"914 E 8th St 207","City":"National City","State":"CA","Zip":"91950"},{"Location":"HAIR BALLERS","Address":"933 Highland Ave","City":"National City","State":"CA","Zip":"91950"},{"Location":"HANAOKA RESTAURANT","Address":"1528 Sweetwater Rd C","City":"National City","State":"CA","Zip":"91950"},{"Location":"HARVEST MEAT","Address":"1022 Bay Marina Dr","City":"National City","State":"CA","Zip":"91950"},{"Location":"ITT TECHNICAL INSITUTE","Address":"401 Mile Of Cars Way 100","City":"National City","State":"CA","Zip":"91950"},{"Location":"JANE S. GALANG DDS INC","Address":"1415 E 8th St 2","City":"National City","State":"CA","Zip":"91950"},{"Location":"JERAULDS CAR CARE CENTER","Address":"2020 National City Blvd","City":"National City","State":"CA","Zip":"91950"},{"Location":"JOHNS INCREDIBLE PIZZA C","Address":"3010 Plaza Bonita Rd 102","City":"National City","State":"CA","Zip":"91950"},{"Location":"K GRILL","Address":"2220 E Plaza Blvd","City":"National City","State":"CA","Zip":"91950"},{"Location":"KALUSUGAN COMMUNITY SERVICES","Address":"1419 E 8th St","City":"National City","State":"CA","Zip":"91950"},{"Location":"KEN STOP WATER STORE","Address":"3530 E 8th St","City":"National City","State":"CA","Zip":"91950"},{"Location":"KFFC","Address":"2220 E Plaza Blvd A2","City":"National City","State":"CA","Zip":"91950"},{"Location":"L & M TIRE COMPANY INC.","Address":"820 Highland Ave","City":"National City","State":"CA","Zip":"91950"},{"Location":"LA LOLA PAELLAS AND TAPA","Address":"3030 Plaza Bonita Rd 1108","City":"National City","State":"CA","Zip":"91950"},{"Location":"LA LOMITA MEXICAN GRILL","Address":"3100 E 8th St","City":"National City","State":"CA","Zip":"91950"},{"Location":"LA ORIGINAL CASA DEL TACO","Address":"1635 Sweetwater Rd","City":"National City","State":"CA","Zip":"91950"},{"Location":"LISAS FILIPINO CUISINE","Address":"1210 E Plaza Blvd 410","City":"National City","State":"CA","Zip":"91950"},{"Location":"MACY'S WEST 548","Address":"3000 Plaza Bonita Rd","City":"National City","State":"CA","Zip":"91950"},{"Location":"MACY'S WEST 548 BR","Address":"3000 Plaza Bonita Rd","City":"National City","State":"CA","Zip":"91950"},{"Location":"MAGDALENAS HAIR SALON","Address":"2431 National City Blvd","City":"National City","State":"CA","Zip":"91950"},{"Location":"MARITESSA MASANGYA DDS","Address":"2207 Highland Ave","City":"National City","State":"CA","Zip":"91950"},{"Location":"MCDINIS","Address":"105 E 8th St","City":"National City","State":"CA","Zip":"91950"},{"Location":"MEN'S WEARHOUSE #2308","Address":"3030 Plaza Bonita Rd 1072","City":"National City","State":"CA","Zip":"91950"},{"Location":"METRO AUTO PARTS DISTRIBUTOR","Address":"206 W 35th St","City":"National City","State":"CA","Zip":"91950"},{"Location":"MIRIAMS HAIR CREATION","Address":"450 E 8th St F","City":"National City","State":"CA","Zip":"91950"},{"Location":"MOR FURNITURE2","Address":"1608 Sweetwater Rd","City":"National City","State":"CA","Zip":"91950"},{"Location":"MOSSY COLLISION CENTER","Address":"100 W 30th St","City":"National City","State":"CA","Zip":"91950"},{"Location":"MOSSY FIAT","Address":"2626 National City Blvd","City":"National City","State":"CA","Zip":"91950"},{"Location":"MOSSY NISSAN INC","Address":"2700 National City Blvd","City":"National City","State":"CA","Zip":"91950"},{"Location":"MR. TACOS","Address":"2503 Sweetwater Rd","City":"National City","State":"CA","Zip":"91950"},{"Location":"N    CITY SPORTS LOUNGE","Address":"2511 Sweetwater Rd","City":"National City","State":"CA","Zip":"91950"},{"Location":"NAILS BY KIM","Address":"1635 Sweetwater Rd F","City":"National City","State":"CA","Zip":"91950"},{"Location":"NATIONAL CITY GOLF COURSE","Address":"1439 Sweetwater Rd","City":"National City","State":"CA","Zip":"91950"},{"Location":"NATIONAL CITY LAUNDROMAT","Address":"1302 E Plaza Blvd","City":"National City","State":"CA","Zip":"91950"},{"Location":"NORDSTROM RACK - PLAZA B","Address":"3010 Plaza Bonita Rd 2036","City":"National City","State":"CA","Zip":"91950"},{"Location":"OLYMPIC AUTO SALES","Address":"1800 National City Blvd","City":"National City","State":"CA","Zip":"91950"},{"Location":"OUTBACK STEAKHOUSE #0582","Address":"2980 Plaza Bonita Rd","City":"National City","State":"CA","Zip":"91950"},{"Location":"OXYHEAL MEDICAL SYSTEMS%2C INC","Address":"3224 Hoover Ave","City":"National City","State":"CA","Zip":"91950"},{"Location":"OZZYS PLUMBING & DRAIN","Address":"337 W 35th St P","City":"National City","State":"CA","Zip":"91950"},{"Location":"PANDA BUFER","Address":"4 N Euclid Ave A","City":"National City","State":"CA","Zip":"91950"},{"Location":"PARADISE VALLEY HOSPITAL","Address":"2400 E 4th St","City":"National City","State":"CA","Zip":"91950"},{"Location":"PERRY FORD OF NAT CITY","Address":"2050 National City Blvd","City":"National City","State":"CA","Zip":"91950"},{"Location":"PHO MAI CALI","Address":"1635 Sweetwater Rd H","City":"National City","State":"CA","Zip":"91950"},{"Location":"PHO NAM CALI","Address":"2344 E 8th St","City":"National City","State":"CA","Zip":"91950"},{"Location":"PIER 32 MARINA","Address":"3201 Marina Way","City":"National City","State":"CA","Zip":"91950"},{"Location":"PINOY FIESTA","Address":"550 E 8th St 9","City":"National City","State":"CA","Zip":"91950"},{"Location":"POINT POINT JOINT RESTAURANT","Address":"916 E 8th St 123","City":"National City","State":"CA","Zip":"91950"},{"Location":"RED ROBIN #676","Address":"3030 Plaza Bonita Rd","City":"National City","State":"CA","Zip":"91950"},{"Location":"RELIANCE METAL CENTER","Address":"2100 Cleveland Ave","City":"National City","State":"CA","Zip":"91950"},{"Location":"RENATO DAVID REYES DDS","Address":"1625 Sweetwater Rd G1","City":"National City","State":"CA","Zip":"91950"},{"Location":"RINCON DEL MAR","Address":"314 Highland Ave","City":"National City","State":"CA","Zip":"91950"},{"Location":"SAHOU INC","Address":"1536 Sweetwater Rd C","City":"National City","State":"CA","Zip":"91950"},{"Location":"SAN DIEGO UNIFIED POR DISTRICT","Address":"1400 Tidelands Ave","City":"National City","State":"CA","Zip":"91950"},{"Location":"SAN MATEO EMBROIDERY","Address":"914 E 8th St 206","City":"National City","State":"CA","Zip":"91950"},{"Location":"SARI SARI 99 CENT & MORE","Address":"2220 E Plaza Blvd O","City":"National City","State":"CA","Zip":"91950"},{"Location":"SOUTH COUNTY BUICK GMC","Address":"2202 National City Blvd","City":"National City","State":"CA","Zip":"91950"},{"Location":"SOUTHBAY VOLKSWAGEN","Address":"3131 National City Blvd","City":"National City","State":"CA","Zip":"91950"},{"Location":"SPORTS FEVER","Address":"3030 Plaza Bonita Rd","City":"National City","State":"CA","Zip":"91950"},{"Location":"STAR AUTOMOTIVES","Address":"438 National City Blvd","City":"National City","State":"CA","Zip":"91950"},{"Location":"STONEY'S BAR AND GRILL","Address":"108 W 25th St","City":"National City","State":"CA","Zip":"91950"},{"Location":"SUNDIEGO CHARTER","Address":"522 W 8th St","City":"National City","State":"CA","Zip":"91950"},{"Location":"SWEETWATER HARLEY-DAVIDSON","Address":"3201 Hoover Ave","City":"National City","State":"CA","Zip":"91950"},{"Location":"SYNERGY CLINICAL RESEARCH","Address":"1908 Sweetwater Rd","City":"National City","State":"CA","Zip":"91950"},{"Location":"TANYA NAILS 1","Address":"3116 E Plaza Blvd","City":"National City","State":"CA","Zip":"91950"},{"Location":"TARGET STORE 2232","Address":"3060 Plaza Bonita Rd","City":"National City","State":"CA","Zip":"91950"},{"Location":"THE WATERFRONT GRILL","Address":"3201 Marina Way 102","City":"National City","State":"CA","Zip":"91950"},{"Location":"TITAS II","Address":"3421 E Plaza Blvd","City":"National City","State":"CA","Zip":"91950"},{"Location":"USA MILITARY GROUP INC","Address":"914 E 8th St 105","City":"National City","State":"CA","Zip":"91950"},{"Location":"VALLARTA SUPER MARKET","Address":"901 Euclid Ave","City":"National City","State":"CA","Zip":"91950"},{"Location":"VAPEROO","Address":"2435 E Plaza Blvd","City":"National City","State":"CA","Zip":"91950"},{"Location":"VITAMIN WORLD 4980","Address":"3030 Plaza Bonita Rd 1070","City":"National City","State":"CA","Zip":"91950"},{"Location":"VOLUNTEERS OF AMERICA","Address":"2300 E 7th St","City":"National City","State":"CA","Zip":"91950"},{"Location":"WE LAND MORE INC","Address":"133 E 8th St","City":"National City","State":"CA","Zip":"91950"},{"Location":"WINGS N THINGS NC","Address":"1499 E Plaza Blvd","City":"National City","State":"CA","Zip":"91950"},{"Location":"WINGSTOP","Address":"932 Highland Ave","City":"National City","State":"CA","Zip":"91950"}]