[{"Location":"CHERYLS COCKTAILS INC","Address":"10761 Jamacha Blvd C","City":"Spring Valley","State":"CA","Zip":"91978"},{"Location":"OASIS HOOKAH LOUNGE","Address":"2615 Sweetwater Springs Blvd C","City":"Spring Valley","State":"CA","Zip":"91978"},{"Location":"OTAY WATER DISTRICT","Address":"2553 Sweetwater Springs Blvd","City":"Spring Valley","State":"CA","Zip":"91978"},{"Location":"OTAY WATER DISTRICT","Address":"2554 Sweetwater Springs Blvd 71752","City":"Spring Valley","State":"CA","Zip":"91978"},{"Location":"PRO NAIL","Address":"2615 Sweetwater Springs Blvd E","City":"Spring Valley","State":"CA","Zip":"91978"},{"Location":"SKY LOUNGE","Address":"3515 Sweetwater Springs Blvd","City":"Spring Valley","State":"CA","Zip":"91978"},{"Location":"THE GREEK SOMBRERO","Address":"12891 Campo Rd","City":"Spring Valley","State":"CA","Zip":"91978"},{"Location":"CHERYLS COCKTAILS INC","Address":"10761 Jamacha Blvd C","City":"Spring Valley","State":"CA","Zip":"91978"},{"Location":"OASIS HOOKAH LOUNGE","Address":"2615 Sweetwater Springs Blvd C","City":"Spring Valley","State":"CA","Zip":"91978"},{"Location":"OTAY WATER DISTRICT","Address":"2554 Sweetwater Springs Blvd 71752","City":"Spring Valley","State":"CA","Zip":"91978"},{"Location":"OTAY WATER DISTRICT","Address":"2553 Sweetwater Springs Blvd","City":"Spring Valley","State":"CA","Zip":"91978"},{"Location":"PALOMINOS REST.","Address":"2615 Sweetwater Springs Blvd F","City":"Spring Valley","State":"CA","Zip":"91978"},{"Location":"PRO NAIL","Address":"2615 Sweetwater Springs Blvd E","City":"Spring Valley","State":"CA","Zip":"91978"},{"Location":"SKY LOUNGE","Address":"3515 Sweetwater Springs Blvd","City":"Spring Valley","State":"CA","Zip":"91978"},{"Location":"THE GREEK SOMBRERO","Address":"12891 Campo Rd","City":"Spring Valley","State":"CA","Zip":"91978"}]