[{"Location":"A1 HOOKAH BAR","Address":"10026 Campo Rd","City":"Spring Valley","State":"CA","Zip":"91977"},{"Location":"AQUA SPA AND POOL","Address":"2820 Highlands Blvd","City":"Spring Valley","State":"CA","Zip":"91977"},{"Location":"AUTO PAWN SAN DIEGO","Address":"8939 Troy St","City":"Spring Valley","State":"CA","Zip":"91977"},{"Location":"BANCO MOTORS","Address":"10002 Campo Rd","City":"Spring Valley","State":"CA","Zip":"91977"},{"Location":"BRIGHTON PLACE SPRG.VLY.","Address":"9009 Campo Rd","City":"Spring Valley","State":"CA","Zip":"91977"},{"Location":"CALIFORNIA COMFORT SPORTS BAR","Address":"8910 Troy St","City":"Spring Valley","State":"CA","Zip":"91977"},{"Location":"CARDCO INC","Address":"6377 Quarry Rd","City":"Spring Valley","State":"CA","Zip":"91977"},{"Location":"CASA DE ORO COIN LAUNDRY","Address":"9750 Campo Rd","City":"Spring Valley","State":"CA","Zip":"91977"},{"Location":"CERTIFIED TIRE","Address":"10050 Campo Rd","City":"Spring Valley","State":"CA","Zip":"91977"},{"Location":"CHAMPIONS LEAGUE BARBER SHOP","Address":"8300 Paradise Valley Rd 109","City":"Spring Valley","State":"CA","Zip":"91977"},{"Location":"CIGS AND GARS","Address":"533 Sweetwater Rd","City":"Spring Valley","State":"CA","Zip":"91977"},{"Location":"DEORO MINE CO","Address":"9924 Campo Rd","City":"Spring Valley","State":"CA","Zip":"91977"},{"Location":"JOYCEES COCKTAILS","Address":"1025 Elkelton Blvd","City":"Spring Valley","State":"CA","Zip":"91977"},{"Location":"MIKE COCKTAILS","Address":"629 Sweetwater Rd","City":"Spring Valley","State":"CA","Zip":"91977"},{"Location":"NEW IMAGE HAIR AND NAIL","Address":"609 Sweetwater Rd","City":"Spring Valley","State":"CA","Zip":"91977"},{"Location":"PALENZUELA BIRD SHOP","Address":"9531 Jamacha Blvd","City":"Spring Valley","State":"CA","Zip":"91977"},{"Location":"PANDA HOUSE","Address":"9330 Jamacha Blvd","City":"Spring Valley","State":"CA","Zip":"91977"},{"Location":"ROGERS BARBERSHOP","Address":"8365 Paradise Valley Rd","City":"Spring Valley","State":"CA","Zip":"91977"},{"Location":"SOMBRERO MEXICAN FOOD","Address":"691 Sweetwater Rd","City":"Spring Valley","State":"CA","Zip":"91977"},{"Location":"SONNYS LAST CHANCE","Address":"546 Grand Ave","City":"Spring Valley","State":"CA","Zip":"91977"},{"Location":"THE BANCROFT","Address":"9143 Campo Rd","City":"Spring Valley","State":"CA","Zip":"91977"},{"Location":"THE HAIR CUT ZONE","Address":"9732 Campo Rd","City":"Spring Valley","State":"CA","Zip":"91977"},{"Location":"UFG CAMPO LP","Address":"9679 Campo Rd","City":"Spring Valley","State":"CA","Zip":"91977"}]