[{"Location":"24 HOUR FITNESS #894","Address":"2501 El Camino Real","City":"Carlsbad","State":"CA","Zip":"92008"},{"Location":"ABLATION FRONTIERS","Address":"2210 Faraday Ave 100","City":"Carlsbad","State":"CA","Zip":"92008"},{"Location":"BARRIO","Address":"530 Grand Ave","City":"Carlsbad","State":"CA","Zip":"92008"},{"Location":"BISTRO WEST A","Address":"4960 Avd Encinas","City":"Carlsbad","State":"CA","Zip":"92008"},{"Location":"BJ'S RESTAURANT #489","Address":"5613 Paseo Del Norte","City":"Carlsbad","State":"CA","Zip":"92008"},{"Location":"BLUE OCEAN ROBATA","Address":"2958 Madison St","City":"Carlsbad","State":"CA","Zip":"92008"},{"Location":"BOAR CROSSIN INC","Address":"390 Grand Ave","City":"Carlsbad","State":"CA","Zip":"92008"},{"Location":"BOARD AND BREW","Address":"201 Oak Ave","City":"Carlsbad","State":"CA","Zip":"92008"},{"Location":"CALIFORNIA VETERINARY SPECIALI","Address":"2310 Faraday Ave","City":"Carlsbad","State":"CA","Zip":"92008"},{"Location":"CALLAWAY GOLF","Address":"2180 Rutherford Rd","City":"Carlsbad","State":"CA","Zip":"92008"},{"Location":"CALLAWAY GOLF BALL COMPANY","Address":"2180 Rutherford Rd","City":"Carlsbad","State":"CA","Zip":"92008"},{"Location":"CALLAWAY GOLF CO","Address":"2285 Rutherford Rd","City":"Carlsbad","State":"CA","Zip":"92008"},{"Location":"CALLAWAY GOLF COMPANY","Address":"5858 Dryden Pl","City":"Carlsbad","State":"CA","Zip":"92008"},{"Location":"CAP STONE ADV","Address":"1545 Faraday Ave","City":"Carlsbad","State":"CA","Zip":"92008"},{"Location":"CARLSBAD ANIMAL HOSPITAL","Address":"2739 State St","City":"Carlsbad","State":"CA","Zip":"92008"},{"Location":"CARLSBAD DENTAL","Address":"5814 Van Allen Way 220","City":"Carlsbad","State":"CA","Zip":"92008"},{"Location":"CARLSBAD GOLF CENTER","Address":"2711 Haymar Dr","City":"Carlsbad","State":"CA","Zip":"92008"},{"Location":"CARLSBAD SALON AND SPA","Address":"785 Carlsbad Village Dr","City":"Carlsbad","State":"CA","Zip":"92008"},{"Location":"CARLSBADDS PEDIATRIC SMILES","Address":"1285 Carlsbad Village Dr","City":"Carlsbad","State":"CA","Zip":"92008"},{"Location":"CHUZE FITNESS","Address":"2502 El Camino Real","City":"Carlsbad","State":"CA","Zip":"92008"},{"Location":"CLAIM JUMPER #9","Address":"5958 Avenida Encinas","City":"Carlsbad","State":"CA","Zip":"92008"},{"Location":"COBRA PUMA GOLF","Address":"1818 Aston Ave","City":"Carlsbad","State":"CA","Zip":"92008"},{"Location":"COLOR NAILS","Address":"5617 Paseo Del Norte 212","City":"Carlsbad","State":"CA","Zip":"92008"},{"Location":"CORTAN INC","Address":"2624 B El Camino Rial","City":"Carlsbad","State":"CA","Zip":"92008"},{"Location":"COUNTRY WINE & LIQUOR","Address":"4901 El Camino Real A","City":"Carlsbad","State":"CA","Zip":"92008"},{"Location":"COVIDIEN","Address":"2101 Faraday Ave","City":"Carlsbad","State":"CA","Zip":"92008"},{"Location":"COYOTE BAR","Address":"300 Carlsbad Village Dr","City":"Carlsbad","State":"CA","Zip":"92008"},{"Location":"CREDIT COUNSELORS CORP","Address":"5838 Edison Pl 200","City":"Carlsbad","State":"CA","Zip":"92008"},{"Location":"CROWELL WEEDON & CO","Address":"1921 Palomar Oaks Way 102","City":"Carlsbad","State":"CA","Zip":"92008"},{"Location":"CUSHMAN & WAKEFIELD","Address":"5796 Armada Dr 375","City":"Carlsbad","State":"CA","Zip":"92008"},{"Location":"DEL MAR RECOVERY","Address":"1935 Camino Vida Roble 140","City":"Carlsbad","State":"CA","Zip":"92008"},{"Location":"DEMPSEY CONSTRUCTION INC","Address":"5937 Darwin Ct 103","City":"Carlsbad","State":"CA","Zip":"92008"},{"Location":"DINI'S BY THE SEA","Address":"3290 Carlsbad Blvd","City":"Carlsbad","State":"CA","Zip":"92008"},{"Location":"DRUG ENFORCEMENT ADMIN","Address":"5810 Newton Dr","City":"Carlsbad","State":"CA","Zip":"92008"},{"Location":"DSA ENTERPRISES","Address":"2525 El Camino Real 268","City":"Carlsbad","State":"CA","Zip":"92008"},{"Location":"EPN - RON EDDE","Address":"5931 Priestly Dr 202","City":"Carlsbad","State":"CA","Zip":"92008"},{"Location":"EXCEL PROPERTIES","Address":"5135 Avenida Encinas B","City":"Carlsbad","State":"CA","Zip":"92008"},{"Location":"FAGEN FRIEDMAN AND FULFROST","Address":"1525 Faraday Ave 300","City":"Carlsbad","State":"CA","Zip":"92008"},{"Location":"FAIRWAY INDEPENDENT MORTGAGE","Address":"1545 Faraday Ave","City":"Carlsbad","State":"CA","Zip":"92008"},{"Location":"FAMOUS FACES","Address":"2525 El Camino Real 252","City":"Carlsbad","State":"CA","Zip":"92008"},{"Location":"FIRESTONE #015814","Address":"2545 El Camino Real","City":"Carlsbad","State":"CA","Zip":"92008"},{"Location":"FIRST NATIONAL BANK OF SC","Address":"2365 Marron Rd","City":"Carlsbad","State":"CA","Zip":"92008"},{"Location":"FITZPATRICK CAPITAL","Address":"1921 Palomar Oaks Way 201","City":"Carlsbad","State":"CA","Zip":"92008"},{"Location":"FLOOR EXPO","Address":"1960 Kellogg Ave","City":"Carlsbad","State":"CA","Zip":"92008"},{"Location":"GOLDEN TEE COCKTAIL LOUNGE","Address":"1065 Carlsbad Village Dr F","City":"Carlsbad","State":"CA","Zip":"92008"},{"Location":"GRAND AVENUE BAR AND GRILL","Address":"752 Grand Ave","City":"Carlsbad","State":"CA","Zip":"92008"},{"Location":"GREATCALL","Address":"1950 Camino Vida Roble 100","City":"Carlsbad","State":"CA","Zip":"92008"},{"Location":"GREEN LEAF ENVIRONMENTAL","Address":"2227 Faraday Ave D","City":"Carlsbad","State":"CA","Zip":"92008"},{"Location":"HENNESSEY'S","Address":"2777 Roosevelt St","City":"Carlsbad","State":"CA","Zip":"92008"},{"Location":"HILTON GRAND MARBRISA","Address":"5500 Grand Pacific Dr","City":"Carlsbad","State":"CA","Zip":"92008"},{"Location":"HILTON GRAND MARBRISA","Address":"5500 Grand Pacific Dr Kidsc","City":"Carlsbad","State":"CA","Zip":"92008"},{"Location":"HOEHN ACURA","Address":"5556 Paseo Del Norte","City":"Carlsbad","State":"CA","Zip":"92008"},{"Location":"HOEHN AUDI","Address":"5215 Car Country Dr","City":"Carlsbad","State":"CA","Zip":"92008"},{"Location":"HOEHN INFINITI","Address":"5245 Car Country Dr","City":"Carlsbad","State":"CA","Zip":"92008"},{"Location":"HOEHN MOTORS INC","Address":"5475 Car Country Dr","City":"Carlsbad","State":"CA","Zip":"92008"},{"Location":"HOOKED ON SUSHI","Address":"2508 El Camino Real A","City":"Carlsbad","State":"CA","Zip":"92008"},{"Location":"HWP LNSURANCE","Address":"2230 Faraday Ave","City":"Carlsbad","State":"CA","Zip":"92008"},{"Location":"I MORTGAGE","Address":"1902 Wright Pl 120","City":"Carlsbad","State":"CA","Zip":"92008"},{"Location":"INTEGRITY APPLICATIONS INC","Address":"1921 Palomar Oaks Way 300","City":"Carlsbad","State":"CA","Zip":"92008"},{"Location":"JENNY CRAIG INTERNATIONAL HEAD","Address":"5770 Fleet St","City":"Carlsbad","State":"CA","Zip":"92008"},{"Location":"JOHNSONS AUTO BODY AND PAINT","Address":"2677 State St","City":"Carlsbad","State":"CA","Zip":"92008"},{"Location":"KARL STRAUSS","Address":"5801 Armada Dr","City":"Carlsbad","State":"CA","Zip":"92008"},{"Location":"KC NAILS & SPA","Address":"2525 El Camino Real 214b","City":"Carlsbad","State":"CA","Zip":"92008"},{"Location":"KEN GRODY FORD","Address":"5555 Paseo Del Norte","City":"Carlsbad","State":"CA","Zip":"92008"},{"Location":"KING'S FISH HOUSE-CARLSBAD","Address":"5625 Paseo Del Norte","City":"Carlsbad","State":"CA","Zip":"92008"},{"Location":"KOKO BEACH","Address":"2858 Carlsbad Blvd","City":"Carlsbad","State":"CA","Zip":"92008"},{"Location":"LAS OLAS","Address":"2939 Carlsbad Blvd","City":"Carlsbad","State":"CA","Zip":"92008"},{"Location":"LEGOLAND CALIFORNIA","Address":"1 Legoland Dr","City":"Carlsbad","State":"CA","Zip":"92008"},{"Location":"LIFE TECHNOLOGIES","Address":"5781 Van Allen Way","City":"Carlsbad","State":"CA","Zip":"92008"},{"Location":"MACY'S WEST 545","Address":"2557 El Camino Real","City":"Carlsbad","State":"CA","Zip":"92008"},{"Location":"MACY'S WEST 545","Address":"2559 El Camino Real","City":"Carlsbad","State":"CA","Zip":"92008"},{"Location":"MACY'S WEST 545A BR","Address":"2559 El Camino Real","City":"Carlsbad","State":"CA","Zip":"92008"},{"Location":"MACY'S WEST 545B BR","Address":"2559 El Camino Real","City":"Carlsbad","State":"CA","Zip":"92008"},{"Location":"MAS FINA CANTINA","Address":"2780 State St","City":"Carlsbad","State":"CA","Zip":"92008"},{"Location":"MAX LINEAR","Address":"5966 La Place Ct 100","City":"Carlsbad","State":"CA","Zip":"92008"},{"Location":"MAXIMUM PAINTING","Address":"5674 El Camino Real F","City":"Carlsbad","State":"CA","Zip":"92008"},{"Location":"MCM FINANCIAL SERVICES INC1","Address":"527 Chinquapin Ave","City":"Carlsbad","State":"CA","Zip":"92008"},{"Location":"MED SPHERE SYSTEMS INC","Address":"1903 Wright Pl 120","City":"Carlsbad","State":"CA","Zip":"92008"},{"Location":"MEKETA INVESTMENT GROUP","Address":"5796 Armada Dr 110","City":"Carlsbad","State":"CA","Zip":"92008"},{"Location":"MEXICO VIEJO","Address":"2508 El Camino Real D","City":"Carlsbad","State":"CA","Zip":"92008"},{"Location":"MIGUELS COCINA","Address":"5980 Avenida Encinas","City":"Carlsbad","State":"CA","Zip":"92008"},{"Location":"MORGAN STANLEY 100275","Address":"5796 Armada Dr 200","City":"Carlsbad","State":"CA","Zip":"92008"},{"Location":"MV TECHNICAL SALES LLC","Address":"1940 Camino Vida Roble","City":"Carlsbad","State":"CA","Zip":"92008"},{"Location":"NATIONAL SEARCH ASSOCIAT","Address":"1921 Palomar Oaks Way 250","City":"Carlsbad","State":"CA","Zip":"92008"},{"Location":"NIKE INC","Address":"5620 Paseo Del Norte 119c","City":"Carlsbad","State":"CA","Zip":"92008"},{"Location":"NIXON","Address":"2091 Rutherford Rd 100","City":"Carlsbad","State":"CA","Zip":"92008"},{"Location":"NORTE'S MEXICAN FOOD","Address":"3003 Carlsbad Blvd","City":"Carlsbad","State":"CA","Zip":"92008"},{"Location":"NTN COMMUNICATIONS","Address":"2231 Rutherford Rd 100","City":"Carlsbad","State":"CA","Zip":"92008"},{"Location":"O'SULLIVAN'S IRISH PUB","Address":"640 Grand Ave A","City":"Carlsbad","State":"CA","Zip":"92008"},{"Location":"ON THE TRAX BREWING","Address":"5674 El Camino Real","City":"Carlsbad","State":"CA","Zip":"92008"},{"Location":"PACIFIC BUSINESS CENTERS","Address":"2173 Salk Ave 250","City":"Carlsbad","State":"CA","Zip":"92008"},{"Location":"PAON RESTAURANT AND WINE BAR","Address":"560 Carlsbad Village Dr","City":"Carlsbad","State":"CA","Zip":"92008"},{"Location":"PAON RESTAURANT WINE BAR","Address":"660 Carlsbad Village Dr","City":"Carlsbad","State":"CA","Zip":"92008"},{"Location":"PF CHANG'S #9849","Address":"5621 Paseo Del Norte","City":"Carlsbad","State":"CA","Zip":"92008"},{"Location":"PIZZA PORT","Address":"571 Carlsbad Village Dr","City":"Carlsbad","State":"CA","Zip":"92008"},{"Location":"PLAZA CAMINO REAL","Address":"2525 El Camino Real 100","City":"Carlsbad","State":"CA","Zip":"92008"},{"Location":"POLLOS MARIA","Address":"3055 Harding St","City":"Carlsbad","State":"CA","Zip":"92008"},{"Location":"REDMON ELECTRIC","Address":"1944 Kellogg Ave","City":"Carlsbad","State":"CA","Zip":"92008"},{"Location":"REEF","Address":"5935 Darwin Ct","City":"Carlsbad","State":"CA","Zip":"92008"},{"Location":"REGUS CARLSBAD","Address":"1902 Wright Pl 200","City":"Carlsbad","State":"CA","Zip":"92008"},{"Location":"RESIDENCE INN CARLSBAD","Address":"2000 Faraday Ave","City":"Carlsbad","State":"CA","Zip":"92008"},{"Location":"REVIEW BOOST","Address":"5840 El Camino Real 106","City":"Carlsbad","State":"CA","Zip":"92008"},{"Location":"ROCKSTAR SAN DIEGO","Address":"2200 Faraday Ave 200","City":"Carlsbad","State":"CA","Zip":"92008"},{"Location":"RORICK BUICK CADILLAC","Address":"5334 Paseo Del Norte","City":"Carlsbad","State":"CA","Zip":"92008"},{"Location":"S.A.BEULIGMANN DDS","Address":"1299 Carlsbad Village Dr","City":"Carlsbad","State":"CA","Zip":"92008"},{"Location":"SAFELIGHT AUTO GLASS","Address":"1060 Auto Center Ct","City":"Carlsbad","State":"CA","Zip":"92008"},{"Location":"SAN DIEGO GAS AND ELECTRIC","Address":"5016 Carlsbad Blvd 1410","City":"Carlsbad","State":"CA","Zip":"92008"},{"Location":"SAN DIEGO GAS AND ELECTRIC","Address":"5016 Carlsbad Blvd 1404","City":"Carlsbad","State":"CA","Zip":"92008"},{"Location":"SAN DIEGO PUBS LLC","Address":"850 Tamarack Ave","City":"Carlsbad","State":"CA","Zip":"92008"},{"Location":"SANSAI JAPANESE GRILL","Address":"5600 Paseo Del Norte 115a","City":"Carlsbad","State":"CA","Zip":"92008"},{"Location":"SARA'S HAIR STYLIST","Address":"2943 Carlsbad Blvd","City":"Carlsbad","State":"CA","Zip":"92008"},{"Location":"SENOR GRUBBY'S","Address":"377 Carlsbad Village Dr","City":"Carlsbad","State":"CA","Zip":"92008"},{"Location":"SHORELINE CONSULTING INTL","Address":"390 Oak Ave O","City":"Carlsbad","State":"CA","Zip":"92008"},{"Location":"SKYLARS HOME & PATIO","Address":"2840 State St","City":"Carlsbad","State":"CA","Zip":"92008"},{"Location":"SOCO GROUP","Address":"5962 Priestly Dr","City":"Carlsbad","State":"CA","Zip":"92008"},{"Location":"STEPHEN A. LAWRENCE%2C DDS","Address":"785 Grand Ave 206","City":"Carlsbad","State":"CA","Zip":"92008"},{"Location":"STORMS TIRE AND AUTO","Address":"2615 State St","City":"Carlsbad","State":"CA","Zip":"92008"},{"Location":"SUE BOLWELL  INC","Address":"1207 Carlsbad Village Dr H","City":"Carlsbad","State":"CA","Zip":"92008"},{"Location":"SUSHI TAISHO","Address":"300 Carlsbad Village Dr 214","City":"Carlsbad","State":"CA","Zip":"92008"},{"Location":"SYNTERACT","Address":"5759 Fleet St 100","City":"Carlsbad","State":"CA","Zip":"92008"},{"Location":"TAYLOR MADE","Address":"2155 Salk Ave","City":"Carlsbad","State":"CA","Zip":"92008"},{"Location":"THAT PIZZA PLACE","Address":"2622 El Camino Real","City":"Carlsbad","State":"CA","Zip":"92008"},{"Location":"THE BESTA WAN PIZZA","Address":"1814 Marron Rd","City":"Carlsbad","State":"CA","Zip":"92008"},{"Location":"THE CINDER ROOM","Address":"300 Carlsbad Village Dr 213","City":"Carlsbad","State":"CA","Zip":"92008"},{"Location":"THE LAND AND WATER CO.","Address":"2978 Carlsbad Blvd","City":"Carlsbad","State":"CA","Zip":"92008"},{"Location":"THE SHERATON CARLSBAD RESORT","Address":"5480 Grand Pacific Dr","City":"Carlsbad","State":"CA","Zip":"92008"},{"Location":"THE VILLAGE PUB","Address":"2900 State St","City":"Carlsbad","State":"CA","Zip":"92008"},{"Location":"THESAN PHARMACUTICAL","Address":"5864 Owens Ave 200","City":"Carlsbad","State":"CA","Zip":"92008"},{"Location":"VANTAGGIO FARMING CORP","Address":"1935 Camino Vida Roble 260","City":"Carlsbad","State":"CA","Zip":"92008"},{"Location":"WADA SUSHI  INC.","Address":"3050 Pio Pico Dr A","City":"Carlsbad","State":"CA","Zip":"92008"},{"Location":"WAL MART STORES INC","Address":"1530 Faraday Ave","City":"Carlsbad","State":"CA","Zip":"92008"},{"Location":"WELL FARGO RESTAURANT FINANCE","Address":"5938 Priestly Dr","City":"Carlsbad","State":"CA","Zip":"92008"},{"Location":"WESELOH CHEVROLET","Address":"5335 Paseo Del Norte","City":"Carlsbad","State":"CA","Zip":"92008"},{"Location":"WEST CANNON COURT LLC","Address":"4990 Abenida Encinas","City":"Carlsbad","State":"CA","Zip":"92008"},{"Location":"WEST COAST ENVIRONMENTAL CONSU","Address":"5845 Avenida Encinas 139","City":"Carlsbad","State":"CA","Zip":"92008"},{"Location":"WEST STEAK SEAFOOD AND SPIRITS","Address":"4980 Avenida Encinas","City":"Carlsbad","State":"CA","Zip":"92008"},{"Location":"WING STOP","Address":"2508 Elcamino Real","City":"Carlsbad","State":"CA","Zip":"92008"},{"Location":"WOLFF WIESE MAGANA LLC","Address":"1925 Palomar Oaks Way 200","City":"Carlsbad","State":"CA","Zip":"92008"},{"Location":"ZYNGA INC","Address":"2175 Salk Ave","City":"Carlsbad","State":"CA","Zip":"92008"}]