[{"Location":"24 HOUR FITNESS #927","Address":"3409 Via Montebello","City":"Carlsbad","State":"CA","Zip":"92009"},{"Location":"ALAN RICH AND ASSOCIATES","Address":"2784 Gateway Rd 104","City":"Carlsbad","State":"CA","Zip":"92009"},{"Location":"BOARD AND BREW","Address":"2675 Gateway Rd 103","City":"Carlsbad","State":"CA","Zip":"92009"},{"Location":"BOYS AND GIRLS CLUB","Address":"2730 Bressi Ranch Way","City":"Carlsbad","State":"CA","Zip":"92009"},{"Location":"BUCA DI BEPPO #520","Address":"1921 Calle Barcelona","City":"Carlsbad","State":"CA","Zip":"92009"},{"Location":"CABRILLO MORTGAGE","Address":"2766 Gateway Rd C","City":"Carlsbad","State":"CA","Zip":"92009"},{"Location":"CARLSBAD CHILDREN'S DENTISTRY","Address":"3257 Camino De Los Coches 304","City":"Carlsbad","State":"CA","Zip":"92009"},{"Location":"CARLSBAD PPR INC","Address":"6971 El Camino Real 201","City":"Carlsbad","State":"CA","Zip":"92009"},{"Location":"CARLSBAD UNIFIED SCHOOL","Address":"6225 El Camino Real","City":"Carlsbad","State":"CA","Zip":"92009"},{"Location":"CASA DE BANDINI","Address":"1901 Calle Barcelona","City":"Carlsbad","State":"CA","Zip":"92009"},{"Location":"CCI","Address":"6941 El Camino Real","City":"Carlsbad","State":"CA","Zip":"92009"},{"Location":"CHILDREN'S DISCOVERY DENTAL","Address":"6221 Metropolitan St 202","City":"Carlsbad","State":"CA","Zip":"92009"},{"Location":"CONTINUITY PRODUCTS","Address":"2710 Gateway Rd","City":"Carlsbad","State":"CA","Zip":"92009"},{"Location":"CREATIONS","Address":"7100 Arenal Ln","City":"Carlsbad","State":"CA","Zip":"92009"},{"Location":"CRUST PIZZERIA","Address":"3263 Camino De Los Coches 105","City":"Carlsbad","State":"CA","Zip":"92009"},{"Location":"ENCINITAS UPHOLSTERY","Address":"6353 El Camino Real I","City":"Carlsbad","State":"CA","Zip":"92009"},{"Location":"FORTIS GYM","Address":"2712 Gateway Rd","City":"Carlsbad","State":"CA","Zip":"92009"},{"Location":"GOURMET CUISINE INC","Address":"7670 El Camino Real","City":"Carlsbad","State":"CA","Zip":"92009"},{"Location":"HOLIDAY TRAVEL OF AMERICA","Address":"6405 El Camino Real","City":"Carlsbad","State":"CA","Zip":"92009"},{"Location":"IGNITE BISTRO & WINE SPOT","Address":"6996 El Camino Real","City":"Carlsbad","State":"CA","Zip":"92009"},{"Location":"ITALIAN REVOLUTION LLC","Address":"6955 El Camino Real 107","City":"Carlsbad","State":"CA","Zip":"92009"},{"Location":"JEFFREY W FRUIN DDS","Address":"3257 Camino De Los Coches 306","City":"Carlsbad","State":"CA","Zip":"92009"},{"Location":"LA COSTA MEMBERS LOUNGE","Address":"2100 Costa Del Mar Rd","City":"Carlsbad","State":"CA","Zip":"92009"},{"Location":"LA COSTA ORTHODONTAICS","Address":"3257 Camino De Los Coches 205","City":"Carlsbad","State":"CA","Zip":"92009"},{"Location":"LA COSTA RESORT & SPA","Address":"2100 Costa Del Mar Rd","City":"Carlsbad","State":"CA","Zip":"92009"},{"Location":"LA COSTA VALLEY MASTER A","Address":"2280 Calle Barcelona","City":"Carlsbad","State":"CA","Zip":"92009"},{"Location":"LA CRESTA AT COLINAS1","Address":"3306 Avenida Anacapa","City":"Carlsbad","State":"CA","Zip":"92009"},{"Location":"LOS COCHES DENTISTRY","Address":"3247 Camino De Los Coches 210","City":"Carlsbad","State":"CA","Zip":"92009"},{"Location":"MINISTRY CENTERED TECH","Address":"2790 Gateway Rd I","City":"Carlsbad","State":"CA","Zip":"92009"},{"Location":"OMNI LA COSTA BISTRO 65","Address":"2100 Costa Del Mar Rd","City":"Carlsbad","State":"CA","Zip":"92009"},{"Location":"PACIFIC DENTAL #404","Address":"7625 Via Campanile 130","City":"Carlsbad","State":"CA","Zip":"92009"},{"Location":"PICKETT FENCE DESIGN","Address":"2718 Gateway Rd","City":"Carlsbad","State":"CA","Zip":"92009"},{"Location":"PIEOLOGY","Address":"2647 Gateway Rd 101","City":"Carlsbad","State":"CA","Zip":"92009"},{"Location":"PINNACLE  RECOVERY","Address":"2774 Gateway Rd","City":"Carlsbad","State":"CA","Zip":"92009"},{"Location":"PINNACLE RECOVERING","Address":"2774 Gateway Rd","City":"Carlsbad","State":"CA","Zip":"92009"},{"Location":"PIZZA PORT BRESSI RANCH","Address":"2730 Gateway Rd 100","City":"Carlsbad","State":"CA","Zip":"92009"},{"Location":"PRUE BURGER","Address":"2641 Gateway Rd","City":"Carlsbad","State":"CA","Zip":"92009"},{"Location":"PURE FITNESS CARLSBAD","Address":"6215 El Camino Real","City":"Carlsbad","State":"CA","Zip":"92009"},{"Location":"PURE FITNESS CARLSBAD #3","Address":"6215 El Camino Real","City":"Carlsbad","State":"CA","Zip":"92009"},{"Location":"PUREFITNESS CARLSBAD #2","Address":"6215 El Camino Real","City":"Carlsbad","State":"CA","Zip":"92009"},{"Location":"RUDYS TACO SHOP","Address":"7662 El Camino Real 102","City":"Carlsbad","State":"CA","Zip":"92009"},{"Location":"STIX HOLDINGS 704","Address":"7750 Rancho Santa Fe Rd A1","City":"Carlsbad","State":"CA","Zip":"92009"},{"Location":"STIX HOLDINGS 772","Address":"2641 Gateway Rd 101","City":"Carlsbad","State":"CA","Zip":"92009"},{"Location":"STRUANS MEDIA","Address":"2782 Gateway Rd","City":"Carlsbad","State":"CA","Zip":"92009"},{"Location":"TOMMY V'S URBAN KITCHEN","Address":"2659 Gateway Rd","City":"Carlsbad","State":"CA","Zip":"92009"},{"Location":"TOMOYAMA SUSHI","Address":"6949 El Camino Real 201b","City":"Carlsbad","State":"CA","Zip":"92009"},{"Location":"TORREY PINES BANK","Address":"2760 Gateway Rd","City":"Carlsbad","State":"CA","Zip":"92009"},{"Location":"TUSCANY 1","Address":"6981 El Camino Real 103","City":"Carlsbad","State":"CA","Zip":"92009"},{"Location":"VERTICAL RETAIL SOLUTIONS","Address":"2411 Jacaranda Ave","City":"Carlsbad","State":"CA","Zip":"92009"},{"Location":"VIA SAT","Address":"6215 El Camino Real","City":"Carlsbad","State":"CA","Zip":"92009"},{"Location":"VIA SAT","Address":"2530 Campbell Pl","City":"Carlsbad","State":"CA","Zip":"92009"},{"Location":"VIASAC INC","Address":"6155 El Camino Real","City":"Carlsbad","State":"CA","Zip":"92009"},{"Location":"VIASAT","Address":"6161 El Camino Real","City":"Carlsbad","State":"CA","Zip":"92009"},{"Location":"VIASAT 2","Address":"6183 El Camino Real","City":"Carlsbad","State":"CA","Zip":"92009"},{"Location":"VIASAT INC","Address":"6197 El Camino Real","City":"Carlsbad","State":"CA","Zip":"92009"},{"Location":"VIASET","Address":"6155 El Camino Real","City":"Carlsbad","State":"CA","Zip":"92009"},{"Location":"VIASTA INC","Address":"6305 El Camino Real","City":"Carlsbad","State":"CA","Zip":"92009"},{"Location":"WHITE CONSTRUCTION INC1","Address":"2524 Gateway Rd","City":"Carlsbad","State":"CA","Zip":"92009"},{"Location":"WINDERMERE CARLSBAD","Address":"6965 El Camino Real 107","City":"Carlsbad","State":"CA","Zip":"92009"},{"Location":"WINE LOFT LLC","Address":"1911 Calle Barcelona 151","City":"Carlsbad","State":"CA","Zip":"92009"},{"Location":"WREATH EQUITY LLC","Address":"6981 El Camino Real 101","City":"Carlsbad","State":"CA","Zip":"92009"},{"Location":"YAMA RIKI SUSHI","Address":"7610 Via Campanile 148","City":"Carlsbad","State":"CA","Zip":"92009"}]