[{"Location":"DE ANZA COUNTRY CLUB","Address":"509 Catrina Dr","City":"Berrego Springs","State":"CA","Zip":"92004"},{"Location":"BIG HORN BAR AND GRILL","Address":"221 Palm Canyon Drive 956","City":"Borergo","State":"CA","Zip":"92004"},{"Location":"CALICO'S","Address":"587 Palm Canyon Dr 109","City":"Borrego Spring","State":"CA","Zip":"92004"},{"Location":"ASSAGGIO'S","Address":"1816 Tom Canyon Dr","City":"Borrego Springs","State":"CA","Zip":"92004"},{"Location":"CAMELITAS MEXICAN GRILL","Address":"575 Palm Canyon Dr","City":"Borrego Springs","State":"CA","Zip":"92004"},{"Location":"CARLEES PLACE","Address":"660 Palm Canyon Dr","City":"Borrego Springs","State":"CA","Zip":"92004"},{"Location":"CONSIDINE BORREGO LLC","Address":"1881 Rams Hill Rd","City":"Borrego Springs","State":"CA","Zip":"92004"},{"Location":"DESERT IRONWOODS RESORT","Address":"4875 Highway 78","City":"Borrego Springs","State":"CA","Zip":"92004"},{"Location":"KRAZY COYOTE BAR AND GRILL","Address":"2220 Hoberg Rd","City":"Borrego Springs","State":"CA","Zip":"92004"},{"Location":"LA CASA DEL ZORRO","Address":"3845 Yaqui Pass","City":"Borrego Springs","State":"CA","Zip":"92004"},{"Location":"SAN DIEGO FIRE DEPT","Address":"5841 Highway 78","City":"Borrego Springs","State":"CA","Zip":"92004"},{"Location":"THE OASIS INN","Address":"366 Palm Canyon Dr","City":"Borrego Springs","State":"CA","Zip":"92004"},{"Location":"UNITED STATES GYPSUM CO","Address":"7801 Split Mountain Rd","City":"Borrego Springs","State":"CA","Zip":"92004"},{"Location":"BCS","Address":"13750 Danielson Street","City":"Ponry","State":"CA","Zip":"92004"},{"Location":"DE ANZA COUNTRY CLUB","Address":"509 Catrina Dr","City":"Berrego Springs","State":"CA","Zip":"92004"},{"Location":"BIG HORN BAR AND GRILL","Address":"221 Palm Canyon Drive 956","City":"Borergo","State":"CA","Zip":"92004"},{"Location":"CALICO'S","Address":"587 Palm Canyon Dr 109","City":"Borrego Spring","State":"CA","Zip":"92004"},{"Location":"ASSAGGIO'S","Address":"1816 Tom Canyon Dr","City":"Borrego Springs","State":"CA","Zip":"92004"},{"Location":"CAMELITAS MEXICAN GRILL","Address":"575 Palm Canyon Dr","City":"Borrego Springs","State":"CA","Zip":"92004"},{"Location":"CARLEES PLACE","Address":"660 Palm Canyon Dr","City":"Borrego Springs","State":"CA","Zip":"92004"},{"Location":"CONSIDINE BORREGO LLC","Address":"1881 Rams Hill Rd","City":"Borrego Springs","State":"CA","Zip":"92004"},{"Location":"DESERT IRONWOODS RESORT","Address":"4875 Highway 78","City":"Borrego Springs","State":"CA","Zip":"92004"},{"Location":"KRAZY COYOTE BAR AND GRILL","Address":"2220 Hoberg Rd","City":"Borrego Springs","State":"CA","Zip":"92004"},{"Location":"LA CASA DEL ZORRO","Address":"3845 Yaqui Pass","City":"Borrego Springs","State":"CA","Zip":"92004"},{"Location":"SAN DIEGO FIRE DEPT","Address":"5841 Highway 78","City":"Borrego Springs","State":"CA","Zip":"92004"},{"Location":"THE OASIS INN","Address":"366 Palm Canyon Dr","City":"Borrego Springs","State":"CA","Zip":"92004"},{"Location":"UNITED STATES GYPSUM CO","Address":"7801 Split Mountain Rd","City":"Borrego Springs","State":"CA","Zip":"92004"},{"Location":"BCS","Address":"13750 Danielson Street","City":"Ponry","State":"CA","Zip":"92004"}]