[{"Location":"CARDIFF BEACH BAR AT TOWER 13","Address":"2633 S Coast Highway 101","City":"Cardiff By The Sea","State":"CA","Zip":"92007"},{"Location":"CARDIFF OFFICE","Address":"110 Aberdeen Dr A","City":"Cardiff By The Sea","State":"CA","Zip":"92007"},{"Location":"CHART HOUSE","Address":"2588 S Highway 101","City":"Cardiff By The Sea","State":"CA","Zip":"92007"},{"Location":"CROSS FIT INC 2","Address":"135 Liverpool Dr","City":"Cardiff By The Sea","State":"CA","Zip":"92007"},{"Location":"EAM INVESTORS%2C LLC","Address":"2533 S Coast Highway 101 240","City":"Cardiff By The Sea","State":"CA","Zip":"92007"},{"Location":"ELKS LODGE 2243","Address":"1393 Windsor Rd","City":"Cardiff By The Sea","State":"CA","Zip":"92007"},{"Location":"ENCINITAS HOSPITALISTS ASSOC","Address":"2611 S Coast Highway 101 202","City":"Cardiff By The Sea","State":"CA","Zip":"92007"},{"Location":"LAS OLAS MEXICAN RESTAURANT","Address":"2655 S Highway 101 103","City":"Cardiff By The Sea","State":"CA","Zip":"92007"},{"Location":"MULTIMEDIA GRAPHIC NETWORK","Address":"2533 S Highway 101 260","City":"Cardiff By The Sea","State":"CA","Zip":"92007"},{"Location":"PACIFIC COAST GRILL","Address":"2526 S Coast Highway 101","City":"Cardiff By The Sea","State":"CA","Zip":"92007"},{"Location":"RIMELS","Address":"2011 San Elijo Ave","City":"Cardiff By The Sea","State":"CA","Zip":"92007"},{"Location":"SOUTHWEST SECURTIES INC  CARD","Address":"2533 S Coast Highway 101 250","City":"Cardiff By The Sea","State":"CA","Zip":"92007"},{"Location":"THE KRAKEN","Address":"2531 S Coast Highway 101","City":"Cardiff By The Sea","State":"CA","Zip":"92007"},{"Location":"TRIISO INC","Address":"2187 Newcastle Ave 101","City":"Cardiff By The Sea","State":"CA","Zip":"92007"},{"Location":"WALL STREET DEVELOPMENT","Address":"2611 S Coast Highway 101 205","City":"Cardiff By The Sea","State":"CA","Zip":"92007"},{"Location":"WOODMAN LAB DBA GO PRO","Address":"131 Aberdeen Dr 100","City":"Cardiff By The Sea","State":"CA","Zip":"92007"}]