[{"Location":"2768 LOKER GROUP","Address":"2768 Loker Ave W","City":"Carlsbad","State":"CA","Zip":"92010"},{"Location":"ACUSHNET COMPANY","Address":"2819 Loker Ave E","City":"Carlsbad","State":"CA","Zip":"92010"},{"Location":"CALIFORNIA BOARD SPORTS","Address":"5601 Palmer Way","City":"Carlsbad","State":"CA","Zip":"92010"},{"Location":"DENIAIRE COMPANY","Address":"3142 Tiger Run Ct 104","City":"Carlsbad","State":"CA","Zip":"92010"},{"Location":"DEPT OF DEFENSE","Address":"3205 Lionshead Ave","City":"Carlsbad","State":"CA","Zip":"92010"},{"Location":"FEDEX LLC","Address":"2495 Faraday Ave","City":"Carlsbad","State":"CA","Zip":"92010"},{"Location":"FERGUSON #1457","Address":"2785 Loker Ave W","City":"Carlsbad","State":"CA","Zip":"92010"},{"Location":"GRAPHICS OUTFITTERS","Address":"3210 Grey Hawk Ct","City":"Carlsbad","State":"CA","Zip":"92010"},{"Location":"HAY HOUSE INC","Address":"2776 Loker Ave W","City":"Carlsbad","State":"CA","Zip":"92010"},{"Location":"ISIS PHARMECEUTICAL","Address":"2855 Gazelle Ct","City":"Carlsbad","State":"CA","Zip":"92010"},{"Location":"JAZZERCISE INC","Address":"2460 Impala Dr","City":"Carlsbad","State":"CA","Zip":"92010"},{"Location":"LG DISPLAY","Address":"2791 Loker Ave W","City":"Carlsbad","State":"CA","Zip":"92010"},{"Location":"LOS PRIMOS MEXICAN REST.","Address":"2708 Loker Ave W 102","City":"Carlsbad","State":"CA","Zip":"92010"},{"Location":"MAINJTENANCENET INC","Address":"3115 Melrose Dr 250","City":"Carlsbad","State":"CA","Zip":"92010"},{"Location":"MPELL SOLUTIONS","Address":"3142 Tiger Run Ct 108","City":"Carlsbad","State":"CA","Zip":"92010"},{"Location":"NOVELL GROUP INC SAN DIEGO","Address":"3284 Grey Hawk Ct 200","City":"Carlsbad","State":"CA","Zip":"92010"},{"Location":"NOVUM GROUP","Address":"3207 Grey Hawk Ct 110","City":"Carlsbad","State":"CA","Zip":"92010"},{"Location":"PERACYPS INC","Address":"5900 Sea Lion Pl 130","City":"Carlsbad","State":"CA","Zip":"92010"},{"Location":"RANCHO CARLSBAD GC","Address":"5200 El Camino Real","City":"Carlsbad","State":"CA","Zip":"92010"},{"Location":"ROCK AND ROLL","Address":"2708 Loker Ave W B107","City":"Carlsbad","State":"CA","Zip":"92010"},{"Location":"RQ CONSTRUCTION LLC","Address":"3194 Lionshead Ave","City":"Carlsbad","State":"CA","Zip":"92010"},{"Location":"SIS","Address":"3250 Grey Hawk Ct","City":"Carlsbad","State":"CA","Zip":"92010"},{"Location":"SPORT CLIPS CA401","Address":"2708 Loker Ave W 106","City":"Carlsbad","State":"CA","Zip":"92010"},{"Location":"TACO TRUCK CREATIVE","Address":"3172 Lionshead Ave","City":"Carlsbad","State":"CA","Zip":"92010"},{"Location":"TAYLORMADE","Address":"3182 Lionshead Ave","City":"Carlsbad","State":"CA","Zip":"92010"},{"Location":"UNITED HEALTH GROUP","Address":"2858 Loker Ave E","City":"Carlsbad","State":"CA","Zip":"92010"},{"Location":"2768 LOKER GROUP","Address":"2768 Loker Ave W","City":"Carlsbad","State":"CA","Zip":"92010"},{"Location":"ACUSHNET COMPANY","Address":"2819 Loker Ave E","City":"Carlsbad","State":"CA","Zip":"92010"},{"Location":"CALIFORNIA BOARD SPORTS","Address":"5601 Palmer Way","City":"Carlsbad","State":"CA","Zip":"92010"},{"Location":"DENIAIRE COMPANY","Address":"3142 Tiger Run Ct 104","City":"Carlsbad","State":"CA","Zip":"92010"},{"Location":"DEPT OF DEFENSE","Address":"3205 Lionshead Ave","City":"Carlsbad","State":"CA","Zip":"92010"},{"Location":"FERGUSON #1457","Address":"2785 Loker Ave W","City":"Carlsbad","State":"CA","Zip":"92010"},{"Location":"GRAPHICS OUTFITTERS","Address":"3210 Grey Hawk Ct","City":"Carlsbad","State":"CA","Zip":"92010"},{"Location":"HAY HOUSE INC","Address":"2776 Loker Ave W","City":"Carlsbad","State":"CA","Zip":"92010"},{"Location":"ISIS PHARMECEUTICAL","Address":"2855 Gazelle Ct","City":"Carlsbad","State":"CA","Zip":"92010"},{"Location":"JAZZERCISE INC","Address":"2460 Impala Dr","City":"Carlsbad","State":"CA","Zip":"92010"},{"Location":"LG DISPLAY","Address":"2791 Loker Ave W","City":"Carlsbad","State":"CA","Zip":"92010"},{"Location":"LOS PRIMOS MEXICAN REST.","Address":"2708 Loker Ave W 102","City":"Carlsbad","State":"CA","Zip":"92010"},{"Location":"MAINJTENANCENET INC","Address":"3115 Melrose Dr 250","City":"Carlsbad","State":"CA","Zip":"92010"},{"Location":"MPELL SOLUTIONS","Address":"3142 Tiger Run Ct 108","City":"Carlsbad","State":"CA","Zip":"92010"},{"Location":"NOVELL GROUP INC SAN DIEGO","Address":"3284 Grey Hawk Ct 200","City":"Carlsbad","State":"CA","Zip":"92010"},{"Location":"NOVUM GROUP","Address":"3207 Grey Hawk Ct 110","City":"Carlsbad","State":"CA","Zip":"92010"},{"Location":"PERACYPS INC","Address":"5900 Sea Lion Pl 130","City":"Carlsbad","State":"CA","Zip":"92010"},{"Location":"RANCHO CARLSBAD GC","Address":"5200 El Camino Real","City":"Carlsbad","State":"CA","Zip":"92010"},{"Location":"ROCK AND ROLL","Address":"2708 Loker Ave W B107","City":"Carlsbad","State":"CA","Zip":"92010"},{"Location":"RQ CONSTRUCTION LLC","Address":"3194 Lionshead Ave","City":"Carlsbad","State":"CA","Zip":"92010"},{"Location":"SIS","Address":"3250 Grey Hawk Ct","City":"Carlsbad","State":"CA","Zip":"92010"},{"Location":"SPORT CLIPS CA401","Address":"2708 Loker Ave W 106","City":"Carlsbad","State":"CA","Zip":"92010"},{"Location":"TACO TRUCK CREATIVE","Address":"3172 Lionshead Ave","City":"Carlsbad","State":"CA","Zip":"92010"},{"Location":"TAYLORMADE","Address":"3182 Lionshead Ave","City":"Carlsbad","State":"CA","Zip":"92010"},{"Location":"THE CRAFTMANSHIP MUSEUM","Address":"3190 Lionshead Ave","City":"Carlsbad","State":"CA","Zip":"92010"},{"Location":"UNITED HEALTH GROUP","Address":"2858 Loker Ave E","City":"Carlsbad","State":"CA","Zip":"92010"}]