[{"Location":"24 HOUR FITNESS #024","Address":"1265 Laurel Tree Ln 100","City":"Carlsbad","State":"CA","Zip":"92011"},{"Location":"24 HOUR FITNESS #90281","Address":"2221 Las Palmas Dr","City":"Carlsbad","State":"CA","Zip":"92011"},{"Location":"5 TOOL ATHLETICS","Address":"2245 Camino Vida Roble 104","City":"Carlsbad","State":"CA","Zip":"92011"},{"Location":"BENIHANA #1050","Address":"755 Raintree Dr 100","City":"Carlsbad","State":"CA","Zip":"92011"},{"Location":"BOLOGNA GOURMET","Address":"6150 Yarrow Dr","City":"Carlsbad","State":"CA","Zip":"92011"},{"Location":"BONDDECK TRADING","Address":"2111 Palomar Airport Rd 340","City":"Carlsbad","State":"CA","Zip":"92011"},{"Location":"BROWN","Address":"2121 Palomar Airport Rd 130","City":"Carlsbad","State":"CA","Zip":"92011"},{"Location":"BUFFINI AND COMPANY","Address":"6349 Palomar Oaks Ct","City":"Carlsbad","State":"CA","Zip":"92011"},{"Location":"BUGER LOUNGE","Address":"961 Palomar Airport Rd 116","City":"Carlsbad","State":"CA","Zip":"92011"},{"Location":"C E D","Address":"6106a Avd Encinas Stea","City":"Carlsbad","State":"CA","Zip":"92011"},{"Location":"CARLSBAD DENTAL ART INC","Address":"2521 Palomar Airport Rd","City":"Carlsbad","State":"CA","Zip":"92011"},{"Location":"CBS SPORTS.COM COLLEGE N","Address":"2035 Corte Del Nogal 250","City":"Carlsbad","State":"CA","Zip":"92011"},{"Location":"CRQ NATCA","Address":"2200 Palomar Airport Rd","City":"Carlsbad","State":"CA","Zip":"92011"},{"Location":"CRW SYSTEMS","Address":"2036 Corte Del Nogal","City":"Carlsbad","State":"CA","Zip":"92011"},{"Location":"CYO PIZZA","Address":"2519 Palomar Airport Rd 5101","City":"Carlsbad","State":"CA","Zip":"92011"},{"Location":"DAYBREAK CHURCH","Address":"6515 Ambrosia Ln","City":"Carlsbad","State":"CA","Zip":"92011"},{"Location":"DKLE INC","Address":"961 Palomar Airport Rd 110","City":"Carlsbad","State":"CA","Zip":"92011"},{"Location":"DWG ENTERPRISES","Address":"2521 Palomar Airport Rd 106","City":"Carlsbad","State":"CA","Zip":"92011"},{"Location":"ENCINAS WASTE WATER JPA","Address":"6200 Avenida Encinas","City":"Carlsbad","State":"CA","Zip":"92011"},{"Location":"ENCORE SPORTS & ENTERTAINMENT","Address":"703 Palomar Airport Rd 200","City":"Carlsbad","State":"CA","Zip":"92011"},{"Location":"FUTURES IN EDUCATION%2FHAL","Address":"705 Palomar Airport Rd 350","City":"Carlsbad","State":"CA","Zip":"92011"},{"Location":"GASPAR PHYSICAL THERAPY","Address":"6102 Avenida Encinas E","City":"Carlsbad","State":"CA","Zip":"92011"},{"Location":"GREEN DRAGON  TAVERN INC","Address":"6115 Paseo Del Norte","City":"Carlsbad","State":"CA","Zip":"92011"},{"Location":"GRUBB & ELLIS","Address":"1000 Aviara Dr","City":"Carlsbad","State":"CA","Zip":"92011"},{"Location":"HAMPTON INN - COMMON","Address":"2229 Palomar Airport Rd","City":"Carlsbad","State":"CA","Zip":"92011"},{"Location":"HQ GLOBAL WORKPLACES","Address":"701 Palomar Airport Rd 300","City":"Carlsbad","State":"CA","Zip":"92011"},{"Location":"ISLANDS RESTAURANT #029","Address":"889 Palomar Airport Rd","City":"Carlsbad","State":"CA","Zip":"92011"},{"Location":"JERRYS DOGS - CARLSBAD","Address":"7040 Avenida Encinas 111","City":"Carlsbad","State":"CA","Zip":"92011"},{"Location":"JET SOURCE INC","Address":"2056 Palomar Airport Rd","City":"Carlsbad","State":"CA","Zip":"92011"},{"Location":"K1 SPEED CARLSBAD","Address":"6212 Corte Del Abeto","City":"Carlsbad","State":"CA","Zip":"92011"},{"Location":"LA COSTA LOANS","Address":"703 Palomar Airport Rd 225","City":"Carlsbad","State":"CA","Zip":"92011"},{"Location":"LL PRINTERS1","Address":"6200 Yarrow Dr","City":"Carlsbad","State":"CA","Zip":"92011"},{"Location":"LONGEVITY PHYSICAL THERAPY","Address":"2077 Las Palmas Dr","City":"Carlsbad","State":"CA","Zip":"92011"},{"Location":"M K CAPITAL ADVISE LLC","Address":"6005 Hidden Valley Rd 290","City":"Carlsbad","State":"CA","Zip":"92011"},{"Location":"MELLES GRIOT","Address":"2051 Palomar Airport Rd 200","City":"Carlsbad","State":"CA","Zip":"92011"},{"Location":"NAKOA FITNESS","Address":"2052 Corte Del Nogal 160","City":"Carlsbad","State":"CA","Zip":"92011"},{"Location":"NORTH COUNTY ORTHO","Address":"6121 Paseo Del Norte","City":"Carlsbad","State":"CA","Zip":"92011"},{"Location":"PLAY WERX%2C INC.","Address":"6060 Avenida Encinas B","City":"Carlsbad","State":"CA","Zip":"92011"},{"Location":"PREMIER JET","Address":"2100 Palomar Airport Rd","City":"Carlsbad","State":"CA","Zip":"92011"},{"Location":"PREMIER TWO1 FOUR  LLC","Address":"2100 Palomar Airport Rd 218","City":"Carlsbad","State":"CA","Zip":"92011"},{"Location":"PREMIER TWO1FOUR LLC","Address":"2100 Palomar Airport Rd 221","City":"Carlsbad","State":"CA","Zip":"92011"},{"Location":"PRIMO PIZZA & PASTA","Address":"7110 Avenida Encinas","City":"Carlsbad","State":"CA","Zip":"92011"},{"Location":"RAZER USA","Address":"2035 Corte Del Nogal 101","City":"Carlsbad","State":"CA","Zip":"92011"},{"Location":"RESPIRONICS","Address":"2271 Cosmos Ct","City":"Carlsbad","State":"CA","Zip":"92011"},{"Location":"ROTH CAPITAL PARTNERS","Address":"6183 Paseo Del Norte 290","City":"Carlsbad","State":"CA","Zip":"92011"},{"Location":"SHELL GAS AND CAR WASH","Address":"2509 Palomar Airport Rd","City":"Carlsbad","State":"CA","Zip":"92011"},{"Location":"STIX HOLDING 705","Address":"7150 Avenida Encinas 102","City":"Carlsbad","State":"CA","Zip":"92011"},{"Location":"SUSHI KUCHI2","Address":"7180 Avenida Encinas 100","City":"Carlsbad","State":"CA","Zip":"92011"},{"Location":"TD AMERITRADE #05058","Address":"701 Palomar Airport Rd","City":"Carlsbad","State":"CA","Zip":"92011"},{"Location":"TGI FRIDAY'S #1952","Address":"890 Palomar Airport Rd","City":"Carlsbad","State":"CA","Zip":"92011"},{"Location":"THE LANDINGS RESTAURANT","Address":"2198 Palomar Airport Rd","City":"Carlsbad","State":"CA","Zip":"92011"},{"Location":"TRANSCHEM INC","Address":"2140 Palomar Airport Rd 125","City":"Carlsbad","State":"CA","Zip":"92011"},{"Location":"UNIRE REAL ESTATE GROUP","Address":"703 Palomar Airport Rd","City":"Carlsbad","State":"CA","Zip":"92011"},{"Location":"VIASAT","Address":"2290 Cosmos Ct","City":"Carlsbad","State":"CA","Zip":"92011"},{"Location":"VIVINT","Address":"7130 Avd Encinas 200","City":"Carlsbad","State":"CA","Zip":"92011"},{"Location":"WASSERMAN","Address":"2052 Corte Del Nogal","City":"Carlsbad","State":"CA","Zip":"92011"},{"Location":"WESTERN FLIGHT%2C INC.","Address":"2210 Palomar Airport Rd","City":"Carlsbad","State":"CA","Zip":"92011"}]