[{"Location":"ALDER CAPITAL","Address":"1223 Camino Del Mar 0","City":"Del Mar","State":"CA","Zip":"92014"},{"Location":"ARCOS MANAGEMENT INC","Address":"2705 Via De La Valle","City":"Del Mar","State":"CA","Zip":"92014"},{"Location":"BEACHSIDE SUBS","Address":"2626 Del Mar Heights Rd A","City":"Del Mar","State":"CA","Zip":"92014"},{"Location":"BRIGANTINE SEAFOOD","Address":"3263 Camino Del Mar","City":"Del Mar","State":"CA","Zip":"92014"},{"Location":"BSA INVESTMENTS","Address":"1237 Camino Del Mar G","City":"Del Mar","State":"CA","Zip":"92014"},{"Location":"BUGER LOUNGE","Address":"2720 Via De Oa Valle","City":"Del Mar","State":"CA","Zip":"92014"},{"Location":"CHINA CAFE","Address":"2236 Carmel Valley Rd","City":"Del Mar","State":"CA","Zip":"92014"},{"Location":"CUCINA ENOTECA DEL MAR","Address":"2730 Via De La Valle","City":"Del Mar","State":"CA","Zip":"92014"},{"Location":"DEL MAR GOLF CENTER","Address":"15555 Jimmy Durante Blvd","City":"Del Mar","State":"CA","Zip":"92014"},{"Location":"DENNYS","Address":"2203 Villa De Valle","City":"Del Mar","State":"CA","Zip":"92014"},{"Location":"ELMAN DATA INC","Address":"419 Stratford Ct","City":"Del Mar","State":"CA","Zip":"92014"},{"Location":"FIRST REPUBLIC BANK","Address":"1110 Camino Del Mar","City":"Del Mar","State":"CA","Zip":"92014"},{"Location":"HARRINGTON PROPERTIES","Address":"1349 Ocean Ave","City":"Del Mar","State":"CA","Zip":"92014"},{"Location":"IL FORNAIO DEL MAR","Address":"1555 Camino Del Mar","City":"Del Mar","State":"CA","Zip":"92014"},{"Location":"IL FORNAIO DEL MAR","Address":"1555 Camino Del Mar 301","City":"Del Mar","State":"CA","Zip":"92014"},{"Location":"JIMMY O'S","Address":"225 15th St","City":"Del Mar","State":"CA","Zip":"92014"},{"Location":"LIBERTY TOBACCO","Address":"2650 Via De La Valled 230","City":"Del Mar","State":"CA","Zip":"92014"},{"Location":"LIQUID INVESTMENTS INC.","Address":"3840 Via De La Valle 300","City":"Del Mar","State":"CA","Zip":"92014"},{"Location":"MARKET RESTAURANT & BAR","Address":"3702 Via De La Valle","City":"Del Mar","State":"CA","Zip":"92014"},{"Location":"MILTONS RESTAURANT","Address":"2660 Via De La Valle","City":"Del Mar","State":"CA","Zip":"92014"},{"Location":"MOSSY AUTOMOTIVE","Address":"3790 Via De La Valle","City":"Del Mar","State":"CA","Zip":"92014"},{"Location":"NOBLE NAIL & SPA","Address":"910 Camino Del Mar D","City":"Del Mar","State":"CA","Zip":"92014"},{"Location":"PACIFICA DEL MAR","Address":"1555 Camino Del Mar 321","City":"Del Mar","State":"CA","Zip":"92014"},{"Location":"PATRICIA MURPHY DDS","Address":"1401 Camino Del Mar 120","City":"Del Mar","State":"CA","Zip":"92014"},{"Location":"RANCHO CAR WASH","Address":"2661 Via De La Valle","City":"Del Mar","State":"CA","Zip":"92014"},{"Location":"RON BARRY DMD  INC","Address":"13983 Mango Dr 202","City":"Del Mar","State":"CA","Zip":"92014"},{"Location":"SEA & SMOKE","Address":"2690 Via De La Valle D210","City":"Del Mar","State":"CA","Zip":"92014"},{"Location":"SEASALT DEL MAR","Address":"2282 Carmel Valley Rd","City":"Del Mar","State":"CA","Zip":"92014"},{"Location":"SILKS RESTAURANT","Address":"15575 Jimmy Durante Blvd","City":"Del Mar","State":"CA","Zip":"92014"},{"Location":"SPORT CLIPS CA405","Address":"2632 Del Mar Heights Rd","City":"Del Mar","State":"CA","Zip":"92014"},{"Location":"SUN TRUST BANK","Address":"322 8th St 100","City":"Del Mar","State":"CA","Zip":"92014"},{"Location":"SUNNY SMILES KIDS","Address":"12835 Pointe Del Mar Way 2","City":"Del Mar","State":"CA","Zip":"92014"},{"Location":"SURFSIDE RACE PLACE","Address":"2260 Jimmy Durante Blvd","City":"Del Mar","State":"CA","Zip":"92014"},{"Location":"THE NAIL PARLOUR","Address":"3790 Via De La Valle 214","City":"Del Mar","State":"CA","Zip":"92014"},{"Location":"V BARBER SHOP","Address":"2683 Via De La Valle H","City":"Del Mar","State":"CA","Zip":"92014"},{"Location":"WHOLE FOODS MARKETS","Address":"2600 Via De La Valle","City":"Del Mar","State":"CA","Zip":"92014"},{"Location":"WINDERMERE DEL MAR","Address":"1201 Camino Del Mar 102","City":"Del Mar","State":"CA","Zip":"92014"},{"Location":"DEL MAR HORSEPARK","Address":"14550 El Camino","City":"Delmar","State":"CA","Zip":"92014"},{"Location":"BLENHEIM EQUISPORTS OF CA%2CINC.","Address":"3075 La Pata Rd","City":"San Juan Capistrano","State":"CA","Zip":"92014"},{"Location":"ALDER CAPITAL","Address":"1223 Camino Del Mar 0","City":"Del Mar","State":"CA","Zip":"92014"},{"Location":"ARCOS MANAGEMENT INC","Address":"2705 Via De La Valle","City":"Del Mar","State":"CA","Zip":"92014"},{"Location":"BEACHSIDE SUBS","Address":"2626 Del Mar Heights Rd A","City":"Del Mar","State":"CA","Zip":"92014"},{"Location":"BRIGANTINE SEAFOOD","Address":"3263 Camino Del Mar","City":"Del Mar","State":"CA","Zip":"92014"},{"Location":"BSA INVESTMENTS","Address":"1237 Camino Del Mar G","City":"Del Mar","State":"CA","Zip":"92014"},{"Location":"BUGER LOUNGE","Address":"2720 Via De Oa Valle","City":"Del Mar","State":"CA","Zip":"92014"},{"Location":"CHINA CAFE","Address":"2236 Carmel Valley Rd","City":"Del Mar","State":"CA","Zip":"92014"},{"Location":"CUCINA ENOTECA DEL MAR","Address":"2730 Via De La Valle","City":"Del Mar","State":"CA","Zip":"92014"},{"Location":"DEL MAR GOLF CENTER","Address":"15555 Jimmy Durante Blvd","City":"Del Mar","State":"CA","Zip":"92014"},{"Location":"DENNYS","Address":"2203 Villa De Valle","City":"Del Mar","State":"CA","Zip":"92014"},{"Location":"FIRST REPUBLIC BANK","Address":"1110 Camino Del Mar","City":"Del Mar","State":"CA","Zip":"92014"},{"Location":"HARRINGTON PROPERTIES","Address":"1349 Ocean Ave","City":"Del Mar","State":"CA","Zip":"92014"},{"Location":"IL FORNAIO DEL MAR","Address":"1555 Camino Del Mar 301","City":"Del Mar","State":"CA","Zip":"92014"},{"Location":"IL FORNAIO DEL MAR","Address":"1555 Camino Del Mar","City":"Del Mar","State":"CA","Zip":"92014"},{"Location":"JIMMY O'S","Address":"225 15th St","City":"Del Mar","State":"CA","Zip":"92014"},{"Location":"LIBERTY TOBACCO","Address":"2650 Via De La Valled 230","City":"Del Mar","State":"CA","Zip":"92014"},{"Location":"LIQUID INVESTMENTS INC.","Address":"3840 Via De La Valle 300","City":"Del Mar","State":"CA","Zip":"92014"},{"Location":"MARKET RESTAURANT & BAR","Address":"3702 Via De La Valle","City":"Del Mar","State":"CA","Zip":"92014"},{"Location":"MILTONS RESTAURANT","Address":"2660 Via De La Valle","City":"Del Mar","State":"CA","Zip":"92014"},{"Location":"MOSSY AUTOMOTIVE","Address":"3790 Via De La Valle","City":"Del Mar","State":"CA","Zip":"92014"},{"Location":"NOBLE NAIL & SPA","Address":"910 Camino Del Mar D","City":"Del Mar","State":"CA","Zip":"92014"},{"Location":"PACIFICA DEL MAR","Address":"1555 Camino Del Mar 321","City":"Del Mar","State":"CA","Zip":"92014"},{"Location":"PATRICIA MURPHY DDS","Address":"1401 Camino Del Mar 120","City":"Del Mar","State":"CA","Zip":"92014"},{"Location":"RANCHO CAR WASH","Address":"2661 Via De La Valle","City":"Del Mar","State":"CA","Zip":"92014"},{"Location":"RON BARRY DMD  INC","Address":"13983 Mango Dr 202","City":"Del Mar","State":"CA","Zip":"92014"},{"Location":"SEA & SMOKE","Address":"2690 Via De La Valle D210","City":"Del Mar","State":"CA","Zip":"92014"},{"Location":"SEASALT DEL MAR","Address":"2282 Carmel Valley Rd","City":"Del Mar","State":"CA","Zip":"92014"},{"Location":"SILKS RESTAURANT","Address":"15575 Jimmy Durante Blvd","City":"Del Mar","State":"CA","Zip":"92014"},{"Location":"SPORT CLIPS CA405","Address":"2632 Del Mar Heights Rd","City":"Del Mar","State":"CA","Zip":"92014"},{"Location":"SUN TRUST BANK","Address":"322 8th St 100","City":"Del Mar","State":"CA","Zip":"92014"},{"Location":"SUNNY SMILES KIDS","Address":"12835 Pointe Del Mar Way 2","City":"Del Mar","State":"CA","Zip":"92014"},{"Location":"SURFSIDE RACE PLACE","Address":"2260 Jimmy Durante Blvd","City":"Del Mar","State":"CA","Zip":"92014"},{"Location":"THE NAIL PARLOUR","Address":"3790 Via De La Valle 214","City":"Del Mar","State":"CA","Zip":"92014"},{"Location":"V BARBER SHOP","Address":"2683 Via De La Valle H","City":"Del Mar","State":"CA","Zip":"92014"},{"Location":"WHOLE FOODS MARKETS","Address":"2600 Via De La Valle","City":"Del Mar","State":"CA","Zip":"92014"},{"Location":"WINDERMERE DEL MAR","Address":"1201 Camino Del Mar 102","City":"Del Mar","State":"CA","Zip":"92014"},{"Location":"DEL MAR HORSEPARK","Address":"14550 El Camino","City":"Delmar","State":"CA","Zip":"92014"},{"Location":"BLENHEIM EQUISPORTS OF CA%2CINC.","Address":"3075 La Pata Rd","City":"San Juan Capistrano","State":"CA","Zip":"92014"}]