[{"Location":"ALBERTS MEXICAN FOOD.","Address":"1530 Jamacha Rd","City":"El Cajon","State":"CA","Zip":"92019"},{"Location":"APPLEBEE'S #2150011","Address":"2508 Jamacha Rd","City":"El Cajon","State":"CA","Zip":"92019"},{"Location":"CRUNCH FITNESS","Address":"522 Jamacha Rd","City":"El Cajon","State":"CA","Zip":"92019"},{"Location":"CRUNCH FITNESS JAMACHA","Address":"522 Jamacha Rd","City":"El Cajon","State":"CA","Zip":"92019"},{"Location":"DF DAVIS REAL ESTATE INC.","Address":"860 Jamacha Rd 206","City":"El Cajon","State":"CA","Zip":"92019"},{"Location":"EL CAJAON BISTRO AND BACKERY","Address":"109 Jamacha Rd","City":"El Cajon","State":"CA","Zip":"92019"},{"Location":"HOOLEYS","Address":"2955 Jamacha Rd 21a","City":"El Cajon","State":"CA","Zip":"92019"},{"Location":"JERSEY MIKES SUBS","Address":"2514 Jamacha Rd 504","City":"El Cajon","State":"CA","Zip":"92019"},{"Location":"JUNCTION STEAKHOUSE AND SPORTS","Address":"773 -783 Jamacha Rd.","City":"El Cajon","State":"CA","Zip":"92019"},{"Location":"JUNCTION STEAKHOUSE AND SPORTSBAR","Address":"777 Jamache Rd","City":"El Cajon","State":"CA","Zip":"92019"},{"Location":"KOHL'S #675","Address":"2398 Jamacha Rd","City":"El Cajon","State":"CA","Zip":"92019"},{"Location":"LIFE SMILES DENTAL CARE","Address":"1530 Hilton Head Rd 111","City":"El Cajon","State":"CA","Zip":"92019"},{"Location":"NICKY ROTTENS","Address":"3773 Willow Glen Dr","City":"El Cajon","State":"CA","Zip":"92019"},{"Location":"OUTBACK STEAKHOUSE","Address":"722 Jamacha Rd","City":"El Cajon","State":"CA","Zip":"92019"},{"Location":"PASSION NAILS","Address":"2990 Jamacha Rd 152","City":"El Cajon","State":"CA","Zip":"92019"},{"Location":"PATRICIOS BARBERSHOP","Address":"770 Jamacha Rd","City":"El Cajon","State":"CA","Zip":"92019"},{"Location":"PRESS BOX SPORTS LOUNGE","Address":"2990 Jamacha Rd 120","City":"El Cajon","State":"CA","Zip":"92019"},{"Location":"SALS BARBER SHOP","Address":"560 Jamacha Rd","City":"El Cajon","State":"CA","Zip":"92019"},{"Location":"SAN DIEGO RURAL FIRE PROTECT","Address":"2249 Jamacha Rd","City":"El Cajon","State":"CA","Zip":"92019"},{"Location":"SHEESHA LOUNGE","Address":"2990 Jamacha Rd","City":"El Cajon","State":"CA","Zip":"92019"},{"Location":"SOAPY JOES CAR WASH","Address":"2658 Jamacha Rd","City":"El Cajon","State":"CA","Zip":"92019"},{"Location":"SOMBRERO MEXICAN FOOD","Address":"1501 E Washington Ave","City":"El Cajon","State":"CA","Zip":"92019"},{"Location":"SPORT CLIPS CA416","Address":"12098 Fury Ln B1","City":"El Cajon","State":"CA","Zip":"92019"},{"Location":"STIX HOLDINGS 747","Address":"2504 Jamacha Rd C","City":"El Cajon","State":"CA","Zip":"92019"},{"Location":"SYCUAN CASINO","Address":"5469 Casino Way","City":"El Cajon","State":"CA","Zip":"92019"},{"Location":"SYCUAN FIRE DEPARTMENT","Address":"5449 Dehesa Rd","City":"El Cajon","State":"CA","Zip":"92019"},{"Location":"SYCUAN FIRE DEPT","Address":"5449 Sycuan Rd","City":"El Cajon","State":"CA","Zip":"92019"},{"Location":"SYCUAN TRIBAL POLICE","Address":"5459 Dehesa Rd","City":"El Cajon","State":"CA","Zip":"92019"},{"Location":"TARGET # 1140","Address":"2911 Jamacha Rd","City":"El Cajon","State":"CA","Zip":"92019"},{"Location":"TGI FRIDAY'S #1920","Address":"2991 Jamacha Rd","City":"El Cajon","State":"CA","Zip":"92019"},{"Location":"VITAMIN WAREHOUSE","Address":"538 Jamacha Rd","City":"El Cajon","State":"CA","Zip":"92019"},{"Location":"WASH AND LAUNDER LAND","Address":"576 Jamacha Rd","City":"El Cajon","State":"CA","Zip":"92019"},{"Location":"ALBERTS MEXICAN FOOD.","Address":"1530 Jamacha Rd","City":"El Cajon","State":"CA","Zip":"92019"},{"Location":"APPLEBEE'S #2150011","Address":"2508 Jamacha Rd","City":"El Cajon","State":"CA","Zip":"92019"},{"Location":"CRUNCH FITNESS","Address":"522 Jamacha Rd","City":"El Cajon","State":"CA","Zip":"92019"},{"Location":"CRUNCH FITNESS JAMACHA","Address":"522 Jamacha Rd","City":"El Cajon","State":"CA","Zip":"92019"},{"Location":"DF DAVIS REAL ESTATE INC.","Address":"860 Jamacha Rd 206","City":"El Cajon","State":"CA","Zip":"92019"},{"Location":"EL CAJAON BISTRO AND BACKERY","Address":"109 Jamacha Rd","City":"El Cajon","State":"CA","Zip":"92019"},{"Location":"HOOLEYS","Address":"2955 Jamacha Rd 21a","City":"El Cajon","State":"CA","Zip":"92019"},{"Location":"JERSEY MIKES SUBS","Address":"2514 Jamacha Rd 504","City":"El Cajon","State":"CA","Zip":"92019"},{"Location":"JUNCTION STEAKHOUSE AND SPORTS","Address":"773 -783 Jamacha Rd.","City":"El Cajon","State":"CA","Zip":"92019"},{"Location":"KOHL'S #675","Address":"2398 Jamacha Rd","City":"El Cajon","State":"CA","Zip":"92019"},{"Location":"LIFE SMILES DENTAL CARE","Address":"1530 Hilton Head Rd 111","City":"El Cajon","State":"CA","Zip":"92019"},{"Location":"NICKY ROTTENS","Address":"3773 Willow Glen Dr","City":"El Cajon","State":"CA","Zip":"92019"},{"Location":"OUTBACK STEAKHOUSE","Address":"722 Jamacha Rd","City":"El Cajon","State":"CA","Zip":"92019"},{"Location":"PASSION NAILS","Address":"2990 Jamacha Rd 152","City":"El Cajon","State":"CA","Zip":"92019"},{"Location":"PATRICIOS BARBERSHOP","Address":"770 Jamacha Rd","City":"El Cajon","State":"CA","Zip":"92019"},{"Location":"PRESS BOX SPORTS LOUNGE","Address":"2990 Jamacha Rd 120","City":"El Cajon","State":"CA","Zip":"92019"},{"Location":"SALS BARBER SHOP","Address":"560 Jamacha Rd","City":"El Cajon","State":"CA","Zip":"92019"},{"Location":"SAN DIEGO RURAL FIRE PROTECT","Address":"2249 Jamacha Rd","City":"El Cajon","State":"CA","Zip":"92019"},{"Location":"SHEESHA LOUNGE","Address":"2990 Jamacha Rd","City":"El Cajon","State":"CA","Zip":"92019"},{"Location":"SOAPY JOES CAR WASH","Address":"2658 Jamacha Rd","City":"El Cajon","State":"CA","Zip":"92019"},{"Location":"SOMBRERO MEXICAN FOOD","Address":"1501 E Washington Ave","City":"El Cajon","State":"CA","Zip":"92019"},{"Location":"SPORT CLIPS CA416","Address":"12098 Fury Ln B1","City":"El Cajon","State":"CA","Zip":"92019"},{"Location":"STIX HOLDINGS 747","Address":"2504 Jamacha Rd C","City":"El Cajon","State":"CA","Zip":"92019"},{"Location":"SYCUAN CASINO","Address":"5469 Casino Way","City":"El Cajon","State":"CA","Zip":"92019"},{"Location":"SYCUAN FIRE DEPARTMENT","Address":"5449 Dehesa Rd","City":"El Cajon","State":"CA","Zip":"92019"},{"Location":"SYCUAN FIRE DEPT","Address":"5449 Sycuan Rd","City":"El Cajon","State":"CA","Zip":"92019"},{"Location":"SYCUAN TRIBAL POLICE","Address":"5459 Dehesa Rd","City":"El Cajon","State":"CA","Zip":"92019"},{"Location":"TARGET # 1140","Address":"2911 Jamacha Rd","City":"El Cajon","State":"CA","Zip":"92019"},{"Location":"TGI FRIDAY'S #1920","Address":"2991 Jamacha Rd","City":"El Cajon","State":"CA","Zip":"92019"},{"Location":"VITAMIN WAREHOUSE","Address":"538 Jamacha Rd","City":"El Cajon","State":"CA","Zip":"92019"},{"Location":"WASH AND LAUNDER LAND","Address":"576 Jamacha Rd","City":"El Cajon","State":"CA","Zip":"92019"}]