[{"Location":"24 HOUR FITNESS #880","Address":"198 W Main St","City":"El Cajon","State":"CA","Zip":"92020"},{"Location":"ABC SUPPLY CO INC","Address":"800 Benedict Ave","City":"El Cajon","State":"CA","Zip":"92020"},{"Location":"AERO MEDIVAC","Address":"681 Kenney St","City":"El Cajon","State":"CA","Zip":"92020"},{"Location":"AHI SUSHI & GRILL","Address":"2872 Fletcher Pkwy","City":"El Cajon","State":"CA","Zip":"92020"},{"Location":"AIR METHOD","Address":"545 Kenney St G1a","City":"El Cajon","State":"CA","Zip":"92020"},{"Location":"ALWAYS RECYCLLING","Address":"1425 N Magnolia Ave","City":"El Cajon","State":"CA","Zip":"92020"},{"Location":"AMERICAN SPECIALTY HEALT","Address":"1973 Friendship Dr","City":"El Cajon","State":"CA","Zip":"92020"},{"Location":"AMERICAN TIRE DEPOT","Address":"130 W Bradley Ave","City":"El Cajon","State":"CA","Zip":"92020"},{"Location":"AMI SUSHI 1","Address":"755 Arnele Ave","City":"El Cajon","State":"CA","Zip":"92020"},{"Location":"Antonelli'S","Address":"1354 N Magnolia Ave","City":"El Cajon","State":"CA","Zip":"92020"},{"Location":"APPLEBEE'S #2150011","Address":"107 Fletcher Pkwy","City":"El Cajon","State":"CA","Zip":"92020"},{"Location":"AUTOBAHN WEST","Address":"210 W Bradley Ave Suite","City":"El Cajon","State":"CA","Zip":"92020"},{"Location":"BEDROCK BOULDERS","Address":"1998 E Chase Ave","City":"El Cajon","State":"CA","Zip":"92020"},{"Location":"BMW OF EL CAJON","Address":"720 El Cajon Blvd","City":"El Cajon","State":"CA","Zip":"92020"},{"Location":"CERTIFIED TIRE","Address":"790 N Johnson Ave","City":"El Cajon","State":"CA","Zip":"92020"},{"Location":"CONGRESSMAN DUNCAN HUNTE","Address":"1611 N Magnolia Ave 310","City":"El Cajon","State":"CA","Zip":"92020"},{"Location":"COPLEY ENTERPRISES","Address":"110 El Cajon Blvd","City":"El Cajon","State":"CA","Zip":"92020"},{"Location":"CRUNCH FITNESS","Address":"565 Fletcher Parkway 202","City":"El Cajon","State":"CA","Zip":"92020"},{"Location":"CVUSD ADMINISTRATION","Address":"750 E Main St","City":"El Cajon","State":"CA","Zip":"92020"},{"Location":"DENTAL ARTS GROUP","Address":"707 Arnele Ave","City":"El Cajon","State":"CA","Zip":"92020"},{"Location":"DICK'S SPORTING GOODS #615","Address":"565 Fletcher Pkwy","City":"El Cajon","State":"CA","Zip":"92020"},{"Location":"EL CAJON GRAND COCKTAIL LOUNGE","Address":"351 W Main St","City":"El Cajon","State":"CA","Zip":"92020"},{"Location":"EL CAJON TIPTON HONDA","Address":"889 Arnele Ave","City":"El Cajon","State":"CA","Zip":"92020"},{"Location":"EL MIRIACHI MEXICAN REST","Address":"165 E Main St","City":"El Cajon","State":"CA","Zip":"92020"},{"Location":"FELLOWS CORPORATION","Address":"1074 Estes St","City":"El Cajon","State":"CA","Zip":"92020"},{"Location":"FOOTHILLS CHRISTIAN CHUR","Address":"350 Cypress Ln","City":"El Cajon","State":"CA","Zip":"92020"},{"Location":"FOXY NAIL","Address":"840 Jackman St","City":"El Cajon","State":"CA","Zip":"92020"},{"Location":"GOODMAN AUTO CENTER","Address":"1100 El Cajon Blvd","City":"El Cajon","State":"CA","Zip":"92020"},{"Location":"GRAB GO 8 INC","Address":"1591 N Magnolia Ave B","City":"El Cajon","State":"CA","Zip":"92020"},{"Location":"HELIX WATER DISTRICT","Address":"1233 Vernon Way","City":"El Cajon","State":"CA","Zip":"92020"},{"Location":"HIGH PERFORMANCE AIRCRAFT%2C INC","Address":"1850 Joe Crosson Dr","City":"El Cajon","State":"CA","Zip":"92020"},{"Location":"J&B MATERIAL INC","Address":"1165 N Johnson Ave","City":"El Cajon","State":"CA","Zip":"92020"},{"Location":"JEROMES FURNITURE 4","Address":"333 N Johnson Ave","City":"El Cajon","State":"CA","Zip":"92020"},{"Location":"JOHN JOSEPH BACINO DDS","Address":"560 Brockton St","City":"El Cajon","State":"CA","Zip":"92020"},{"Location":"LEXUS EL CAJON","Address":"1000 Arnele Ave","City":"El Cajon","State":"CA","Zip":"92020"},{"Location":"LOGISTIC ENGINEER","Address":"2700 Navajo Rd","City":"El Cajon","State":"CA","Zip":"92020"},{"Location":"LORD AND GLADDEN INC","Address":"1380 El Cajon Blvd","City":"El Cajon","State":"CA","Zip":"92020"},{"Location":"LUCKY CHINESE","Address":"1571 N Magnolia Ave 201","City":"El Cajon","State":"CA","Zip":"92020"},{"Location":"MAIN TAP TAVERN","Address":"518 E Main St","City":"El Cajon","State":"CA","Zip":"92020"},{"Location":"MARAZZI AMERICAN OLEAN","Address":"1280 N Johnson Ave","City":"El Cajon","State":"CA","Zip":"92020"},{"Location":"MAZDA EL CAJON","Address":"900 Arnele Ave","City":"El Cajon","State":"CA","Zip":"92020"},{"Location":"MILLENIUM LABAROTORIES","Address":"1909 N Marshall Ave","City":"El Cajon","State":"CA","Zip":"92020"},{"Location":"MOSSY NISSAN","Address":"1170 W Main St","City":"El Cajon","State":"CA","Zip":"92020"},{"Location":"ON THE BORDER","Address":"103 Fletcher Pkwy","City":"El Cajon","State":"CA","Zip":"92020"},{"Location":"OUR LADY GRACE CHURCH1","Address":"2766 Navajo Rd","City":"El Cajon","State":"CA","Zip":"92020"},{"Location":"P&O PARKWAY PLAZA LP","Address":"375 Parkway Plz","City":"El Cajon","State":"CA","Zip":"92020"},{"Location":"PAUL H VELTON DDS INC","Address":"2397 Fletcher Pkwy","City":"El Cajon","State":"CA","Zip":"92020"},{"Location":"PFI","Address":"148 E Main St","City":"El Cajon","State":"CA","Zip":"92020"},{"Location":"POR FAVOR DC","Address":"182 E Main St","City":"El Cajon","State":"CA","Zip":"92020"},{"Location":"RDI LLC","Address":"385 S Marshall Ave A","City":"El Cajon","State":"CA","Zip":"92020"},{"Location":"REXEL","Address":"1333 N Magnolia Ave","City":"El Cajon","State":"CA","Zip":"92020"},{"Location":"SAFARI AVIATION","Address":"1935 N Marshall Ave 21","City":"El Cajon","State":"CA","Zip":"92020"},{"Location":"SAN DIEGO G AND E EASTERN","Address":"904 W Main St","City":"El Cajon","State":"CA","Zip":"92020"},{"Location":"SOMBRERO MEXICAN FOOD","Address":"1215 W Main St","City":"El Cajon","State":"CA","Zip":"92020"},{"Location":"SUBARU EL CAJON","Address":"900 Arnele Ave","City":"El Cajon","State":"CA","Zip":"92020"},{"Location":"TIGER AUTO SALES INC","Address":"410 El Cajon Blvd","City":"El Cajon","State":"CA","Zip":"92020"},{"Location":"TOYOTA OF EL CAJON","Address":"965 Arnele Ave","City":"El Cajon","State":"CA","Zip":"92020"},{"Location":"TUBE SERVICE COMPANY","Address":"1571 N Johnson Ave","City":"El Cajon","State":"CA","Zip":"92020"},{"Location":"US BORDER PATROL","Address":"225 Kenney St","City":"El Cajon","State":"CA","Zip":"92020"},{"Location":"VERTECHS","Address":"410 Raleigh Ave","City":"El Cajon","State":"CA","Zip":"92020"},{"Location":"VERTECHS 1","Address":"1071 Industrial Pl","City":"El Cajon","State":"CA","Zip":"92020"},{"Location":"VETERANS MEMORIAL ASSOCI","Address":"136 Chambers St","City":"El Cajon","State":"CA","Zip":"92020"},{"Location":"VITAMIN WORLD 4941","Address":"635 Parkway Plz","City":"El Cajon","State":"CA","Zip":"92020"},{"Location":"VOLUNTEERS OF AMERICA","Address":"290 S Magnolia Ave","City":"El Cajon","State":"CA","Zip":"92020"},{"Location":"WALMART","Address":"605 Fletcher Pkwy","City":"El Cajon","State":"CA","Zip":"92020"},{"Location":"WELDMAC MFG COMPANY","Address":"1451 N Johnson Ave","City":"El Cajon","State":"CA","Zip":"92020"}]