[{"Location":"101 NAIL LOUNGE 2","Address":"541 S Coast Hwy","City":"Encinitas","State":"CA","Zip":"92024"},{"Location":"1ST STREET BAR INC","Address":"656 S Coast Highway 101","City":"Encinitas","State":"CA","Zip":"92024"},{"Location":"24 HOUR FITNESS #114","Address":"455 Santa Fe Dr","City":"Encinitas","State":"CA","Zip":"92024"},{"Location":"8 FITNESS","Address":"681 Encinitas Blvd 313","City":"Encinitas","State":"CA","Zip":"92024"},{"Location":"BARRY LOSASSO MD INC","Address":"317 N El Camino Real","City":"Encinitas","State":"CA","Zip":"92024"},{"Location":"BELLA ROSA","Address":"806 S Coast Highway 101","City":"Encinitas","State":"CA","Zip":"92024"},{"Location":"BETYS TACOS","Address":"1464 Encinitas Blvd","City":"Encinitas","State":"CA","Zip":"92024"},{"Location":"BIER GARDEN","Address":"641 S Coast Highway 101","City":"Encinitas","State":"CA","Zip":"92024"},{"Location":"BMW ENCINITAS","Address":"1302 Encinitas Blvd","City":"Encinitas","State":"CA","Zip":"92024"},{"Location":"BODY REFINERY","Address":"2240 Encinitas Blvd L","City":"Encinitas","State":"CA","Zip":"92024"},{"Location":"BOHAN VACATION RENTAL","Address":"134 Grandview St","City":"Encinitas","State":"CA","Zip":"92024"},{"Location":"BRETTS BBQ","Address":"1505 Encinitas Blvd","City":"Encinitas","State":"CA","Zip":"92024"},{"Location":"BUFFALO WILD WINGS #0464","Address":"1068 N El Camino Real","City":"Encinitas","State":"CA","Zip":"92024"},{"Location":"BULL TACO LLC","Address":"101 N Coast Hwy","City":"Encinitas","State":"CA","Zip":"92024"},{"Location":"CALIFORNIA HEALTH SPAN INSTITU","Address":"320 Santa Fe Dr 211","City":"Encinitas","State":"CA","Zip":"92024"},{"Location":"CAPTAIN KENO'S","Address":"158 N Coast Hwy 101","City":"Encinitas","State":"CA","Zip":"92024"},{"Location":"CARLOS CHONG PROFESSIONAL DDS","Address":"142 Encinitas Blvd","City":"Encinitas","State":"CA","Zip":"92024"},{"Location":"CHILI'S #0448","Address":"1004 N El Camino Real","City":"Encinitas","State":"CA","Zip":"92024"},{"Location":"CMTM INC","Address":"543 Encinitas Blvd 111","City":"Encinitas","State":"CA","Zip":"92024"},{"Location":"COMPLETE CAR CARE","Address":"318 N El Camino Real A","City":"Encinitas","State":"CA","Zip":"92024"},{"Location":"CORE ORTHOPAEDIC","Address":"332 Santa Fe Dr 110","City":"Encinitas","State":"CA","Zip":"92024"},{"Location":"CRAFTSMAN TAVERN","Address":"267 N El Camino Real","City":"Encinitas","State":"CA","Zip":"92024"},{"Location":"CUTEE NAILS","Address":"110 Encinitas Blvd","City":"Encinitas","State":"CA","Zip":"92024"},{"Location":"D STREET BAR & GRILL","Address":"485 S Coast Highway 101","City":"Encinitas","State":"CA","Zip":"92024"},{"Location":"DANIELS TIRE","Address":"330 N El Camino Real","City":"Encinitas","State":"CA","Zip":"92024"},{"Location":"DAVITA #3486 ENCINITAS","Address":"332 Santa Fe Dr 100","City":"Encinitas","State":"CA","Zip":"92024"},{"Location":"DENTAL SPECIALTY ASSOCIATES","Address":"477 N El Camino Real B203","City":"Encinitas","State":"CA","Zip":"92024"},{"Location":"EAST VILLAGE ASIAN DINER","Address":"628 S Coast Highway 101","City":"Encinitas","State":"CA","Zip":"92024"},{"Location":"EDWARD COFFEY DOS MS","Address":"1445 Encinitas Blvd","City":"Encinitas","State":"CA","Zip":"92024"},{"Location":"ENCINITAS BOXING INC","Address":"613 Westlake St","City":"Encinitas","State":"CA","Zip":"92024"},{"Location":"ENCINITAS CAFE","Address":"531 S Coast Highway 101","City":"Encinitas","State":"CA","Zip":"92024"},{"Location":"ENCINITAS DENTAL CARE","Address":"205 S El Camino Real F","City":"Encinitas","State":"CA","Zip":"92024"},{"Location":"ENCINITAS DENTISTRY","Address":"519 Encinitas Blvd 104","City":"Encinitas","State":"CA","Zip":"92024"},{"Location":"ENCINITAS ENDODONTIC SPECIALIS","Address":"760 Garden View Ct 210","City":"Encinitas","State":"CA","Zip":"92024"},{"Location":"ENCINITAS FIRE FIGHTER2","Address":"618 Birmingham Dr","City":"Encinitas","State":"CA","Zip":"92024"},{"Location":"ENCINITAS FIRE FIGHTER4","Address":"2011 Village Park Way 4","City":"Encinitas","State":"CA","Zip":"92024"},{"Location":"ENCINITAS FIRE FIGHTERS 01","Address":"415 2nd St","City":"Encinitas","State":"CA","Zip":"92024"},{"Location":"ENCINITAS FIRE FIGHTERS 03","Address":"801 Orpheus Ave","City":"Encinitas","State":"CA","Zip":"92024"},{"Location":"ENCINITAS FIRE FIGHTERS 05","Address":"540 Balour Dr","City":"Encinitas","State":"CA","Zip":"92024"},{"Location":"ENCINITAS FIRE FIGHTERS 06","Address":"770 Rancho Santa Fe Rd","City":"Encinitas","State":"CA","Zip":"92024"},{"Location":"ENCINITAS FISH SHOP","Address":"1010 S Coast Highway 101","City":"Encinitas","State":"CA","Zip":"92024"},{"Location":"ENCINITAS FORD","Address":"1424 Encinitas Blvd","City":"Encinitas","State":"CA","Zip":"92024"},{"Location":"ENCINITAS OGGI'S PIZZA","Address":"305 Encinitas Blvd","City":"Encinitas","State":"CA","Zip":"92024"},{"Location":"ENCINITAS PROMENADE GAS & OIL","Address":"1580 Leucadia Blvd","City":"Encinitas","State":"CA","Zip":"92024"},{"Location":"ENCINITAS RANCH GOLF C","Address":"1275 Quail Gardens Dr","City":"Encinitas","State":"CA","Zip":"92024"},{"Location":"ENCINITAS SUSHI LOUNGE","Address":"461 Santa Fe Drive","City":"Encinitas","State":"CA","Zip":"92024"},{"Location":"ENCINITAS SUSHI LOUNGE","Address":"461 Santa Fe Dr","City":"Encinitas","State":"CA","Zip":"92024"},{"Location":"ENCINTAS ALE HOUSE","Address":"1044 S Coast Highway 101","City":"Encinitas","State":"CA","Zip":"92024"},{"Location":"FIREFLY GRILL AND WINE BAR","Address":"251 N El Camino Real B","City":"Encinitas","State":"CA","Zip":"92024"},{"Location":"FIREHOUSE SUBS ENCINTAS","Address":"132 N El Camino Real","City":"Encinitas","State":"CA","Zip":"92024"},{"Location":"FIRENZE TRATTORIA","Address":"162 S Rancho Santa Fe Rd","City":"Encinitas","State":"CA","Zip":"92024"},{"Location":"GAGLIONE BROTHERS","Address":"252 N El Camino Real","City":"Encinitas","State":"CA","Zip":"92024"},{"Location":"GARDEN FRESH RESTAURANTS","Address":"109 North El Cameno","City":"Encinitas","State":"CA","Zip":"92024"},{"Location":"HANSENS","Address":"1105 S Coast Highway 101","City":"Encinitas","State":"CA","Zip":"92024"},{"Location":"HAPIFISH","Address":"190 N Coast Highway 101","City":"Encinitas","State":"CA","Zip":"92024"},{"Location":"HAPPINESS NAILS","Address":"111 N El Camino Real C","City":"Encinitas","State":"CA","Zip":"92024"},{"Location":"ISLANDS RESTAURANT #052","Address":"1588 Leucadia Blvd","City":"Encinitas","State":"CA","Zip":"92024"},{"Location":"J MAROON DDS INC.","Address":"257 N El Camino Real B","City":"Encinitas","State":"CA","Zip":"92024"},{"Location":"KOHL'S #1415","Address":"134 N El Camino Real","City":"Encinitas","State":"CA","Zip":"92024"},{"Location":"LA COSTA FARMS","Address":"1911 Saxony Rd","City":"Encinitas","State":"CA","Zip":"92024"},{"Location":"LA FITNESS #44","Address":"201 S El Camino Real","City":"Encinitas","State":"CA","Zip":"92024"},{"Location":"LEUCADIA OFFICE","Address":"828 N Coast Highway 101 E","City":"Encinitas","State":"CA","Zip":"92024"},{"Location":"LOBSTER WEST","Address":"765 S Coast Hwy","City":"Encinitas","State":"CA","Zip":"92024"},{"Location":"LUCKIES LLC","Address":"1542 N Coast Highway 101","City":"Encinitas","State":"CA","Zip":"92024"},{"Location":"LUMBERYARD TAVERN & GRILL","Address":"967 S Coast Highway 101 101","City":"Encinitas","State":"CA","Zip":"92024"},{"Location":"MAGDALENA ECKE YMCA","Address":"200 Saxony Rd","City":"Encinitas","State":"CA","Zip":"92024"},{"Location":"MARICELA SIMMONS DDS","Address":"351 Santa Fe Dr 230","City":"Encinitas","State":"CA","Zip":"92024"},{"Location":"MEN'S WEARHOUSE #2310","Address":"1042 N El Camino Real H","City":"Encinitas","State":"CA","Zip":"92024"},{"Location":"MR PEABODY'S BURGERS & ALE","Address":"136 Encinitas Blvd","City":"Encinitas","State":"CA","Zip":"92024"},{"Location":"MR. SUSHI","Address":"111 N El Camino Real B","City":"Encinitas","State":"CA","Zip":"92024"},{"Location":"OHURLEYS BEACH BAR","Address":"107 Diana St","City":"Encinitas","State":"CA","Zip":"92024"},{"Location":"OLIVENHEIN GUEST","Address":"350 Cole Ranch Rd","City":"Encinitas","State":"CA","Zip":"92024"},{"Location":"PANDORA PIZZA","Address":"828 N Coast Highway 101 G","City":"Encinitas","State":"CA","Zip":"92024"},{"Location":"PIZZA LEUCADIA INC","Address":"315 S Coast Hwy V","City":"Encinitas","State":"CA","Zip":"92024"},{"Location":"PIZZICATO","Address":"252 N El Camino Real 5","City":"Encinitas","State":"CA","Zip":"92024"},{"Location":"PMC","Address":"543 Encinitas Blvd 101","City":"Encinitas","State":"CA","Zip":"92024"},{"Location":"PRIORITY PUBLIC HOUSE","Address":"576 N Coast Highway 101","City":"Encinitas","State":"CA","Zip":"92024"},{"Location":"PURELY DENTAL ENCINITAS DDS","Address":"499 N El Camino Real C102","City":"Encinitas","State":"CA","Zip":"92024"},{"Location":"QBR","Address":"90 N Coast Highway 101 207","City":"Encinitas","State":"CA","Zip":"92024"},{"Location":"RANDY W GARLAND","Address":"531 Encinitas Blvd 101","City":"Encinitas","State":"CA","Zip":"92024"},{"Location":"REAL EC TECH","Address":"617 Saxony Pl 101","City":"Encinitas","State":"CA","Zip":"92024"},{"Location":"REGAL SEAGULL","Address":"996 N Coast Highway 101","City":"Encinitas","State":"CA","Zip":"92024"},{"Location":"RITE CUT BARBER","Address":"1460 Encinitas Blvd","City":"Encinitas","State":"CA","Zip":"92024"},{"Location":"ROBERTOS TACO SHOP","Address":"471 Encinitas Blvd","City":"Encinitas","State":"CA","Zip":"92024"},{"Location":"ROUND TABLE PIZZA","Address":"1321 Encinitas Blvd","City":"Encinitas","State":"CA","Zip":"92024"},{"Location":"ROYAL MOTEL","Address":"1488 N Coast Hwy 1001","City":"Encinitas","State":"CA","Zip":"92024"},{"Location":"SAN DIEGO CARDIOVASCULAR ASS","Address":"320 Santa Fe Dr 204","City":"Encinitas","State":"CA","Zip":"92024"},{"Location":"SCHOONER STATION PIZZERIA","Address":"481 Santa Fe Dr","City":"Encinitas","State":"CA","Zip":"92024"},{"Location":"SCHULTE INSURANCE AGENCY","Address":"1036 2nd St","City":"Encinitas","State":"CA","Zip":"92024"},{"Location":"SCOTTRADE I04","Address":"258 N El Camino Real B1","City":"Encinitas","State":"CA","Zip":"92024"},{"Location":"SCRIPPS CLINIC ENCINITAS","Address":"310 Santa Fe Dr 311","City":"Encinitas","State":"CA","Zip":"92024"},{"Location":"SHELL CAR WASH ENCINITAS","Address":"1060 N El Camino Real","City":"Encinitas","State":"CA","Zip":"92024"},{"Location":"SHELTER","Address":"540 S Coast Highway 101","City":"Encinitas","State":"CA","Zip":"92024"},{"Location":"SKEWERS GRILL","Address":"1060 N El Camino Real","City":"Encinitas","State":"CA","Zip":"92024"},{"Location":"SONIMA WELLNESS","Address":"851 S Coast Highway 101 100","City":"Encinitas","State":"CA","Zip":"92024"},{"Location":"SOUTH COAST VAPOR COMPANY","Address":"1532 Encinitas Blvd","City":"Encinitas","State":"CA","Zip":"92024"},{"Location":"SPARTAN HOLDINGS INC","Address":"1454 Encinitas Blvd","City":"Encinitas","State":"CA","Zip":"92024"},{"Location":"SPORT ABOUT","Address":"207 South Elcamino Real F","City":"Encinitas","State":"CA","Zip":"92024"},{"Location":"SPORT CLIPS CA414","Address":"276 N El Camino Real D","City":"Encinitas","State":"CA","Zip":"92024"},{"Location":"SPORTS AUTHORITY 782","Address":"1050 North El Camino R","City":"Encinitas","State":"CA","Zip":"92024"},{"Location":"ST MARK LUTHERAN CHURCH","Address":"552 S El Camino Real","City":"Encinitas","State":"CA","Zip":"92024"},{"Location":"STEPHEN A CRAFT DDS","Address":"274 N El Camino Real D","City":"Encinitas","State":"CA","Zip":"92024"},{"Location":"SUMMIT MANAGEMENT","Address":"183 Calle Magdalena 100","City":"Encinitas","State":"CA","Zip":"92024"},{"Location":"SUYAKI  INC","Address":"211 S El Camino Real","City":"Encinitas","State":"CA","Zip":"92024"},{"Location":"SWAMI","Address":"1163 S Coast Highway 101","City":"Encinitas","State":"CA","Zip":"92024"},{"Location":"TODD MORGAN DMD","Address":"320 Sante Fe 105","City":"Encinitas","State":"CA","Zip":"92024"},{"Location":"TOTAL WOMAN - ENCINITAS","Address":"172 N El Camino Real","City":"Encinitas","State":"CA","Zip":"92024"},{"Location":"TRANG CHESLER DDS","Address":"374 N El Camino Real","City":"Encinitas","State":"CA","Zip":"92024"},{"Location":"UNION KITCHEN & TAP","Address":"1108 S Coast Highway 101","City":"Encinitas","State":"CA","Zip":"92024"},{"Location":"WHOLE FOODS MARKET","Address":"687 S Pacific Coast Hwy 101","City":"Encinitas","State":"CA","Zip":"92024"},{"Location":"ZEPHYR PARTNERS","Address":"700 2nd St","City":"Encinitas","State":"CA","Zip":"92024"}]