[{"Location":"1 NAILS","Address":"532 N 2nd St","City":"El Cajon","State":"CA","Zip":"92021"},{"Location":"ADVANCE PLUMBING","Address":"9423 Bond Ave","City":"El Cajon","State":"CA","Zip":"92021"},{"Location":"B & D CABINETS INC","Address":"9337 Bond Ave","City":"El Cajon","State":"CA","Zip":"92021"},{"Location":"BARBERSIDE","Address":"941 Broadway L","City":"El Cajon","State":"CA","Zip":"92021"},{"Location":"BLARNEY STONE   EL CAJON","Address":"388 N 2nd St","City":"El Cajon","State":"CA","Zip":"92021"},{"Location":"BLUE JAY","Address":"1145 Greenfield Dr B","City":"El Cajon","State":"CA","Zip":"92021"},{"Location":"BOBBY COMBS RV CENTERS","Address":"1405 E Main St","City":"El Cajon","State":"CA","Zip":"92021"},{"Location":"BONGIOVANNI REST","Address":"15244 Olde Highway 80","City":"El Cajon","State":"CA","Zip":"92021"},{"Location":"BURMAN ELECTRIC","Address":"14328b Olde Highway 80","City":"El Cajon","State":"CA","Zip":"92021"},{"Location":"CALIFORNIA HIGHWAY PATROL","Address":"1722 E Main St","City":"El Cajon","State":"CA","Zip":"92021"},{"Location":"COUNTRY WINE SPRITS INC","Address":"330 N 2nd St","City":"El Cajon","State":"CA","Zip":"92021"},{"Location":"DALCIAS ALA LENA","Address":"1398 E Main St","City":"El Cajon","State":"CA","Zip":"92021"},{"Location":"DE LA FUENTE CADILLAC","Address":"1385 E Main St","City":"El Cajon","State":"CA","Zip":"92021"},{"Location":"DONS COCKTAIL LOUNGE","Address":"13321 Highway 8 Business","City":"El Cajon","State":"CA","Zip":"92021"},{"Location":"EAST COUNT PAWN SHOP","Address":"941 Broadway","City":"El Cajon","State":"CA","Zip":"92021"},{"Location":"EAST COUNTY AUTO COLLISION","Address":"1375 E Main St","City":"El Cajon","State":"CA","Zip":"92021"},{"Location":"FAMILY DENTISTRY","Address":"1782 E Main St","City":"El Cajon","State":"CA","Zip":"92021"},{"Location":"FIRESTONE #025380","Address":"435 N 2nd St","City":"El Cajon","State":"CA","Zip":"92021"},{"Location":"GRANIT HILLS CONV. HOSP.","Address":"1340 E Madison Ave","City":"El Cajon","State":"CA","Zip":"92021"},{"Location":"HORIZON DENTAL GROUP","Address":"742 Broadway","City":"El Cajon","State":"CA","Zip":"92021"},{"Location":"JERSEY MIKE SUBS","Address":"141 Broadway B","City":"El Cajon","State":"CA","Zip":"92021"},{"Location":"KELLYS PUB EAST","Address":"719 E Bradley Ave","City":"El Cajon","State":"CA","Zip":"92021"},{"Location":"KIPS CAFE","Address":"1190 N 2nd St","City":"El Cajon","State":"CA","Zip":"92021"},{"Location":"LOS COCHES LAUNDRY","Address":"8575 Los Coches Rd","City":"El Cajon","State":"CA","Zip":"92021"},{"Location":"MARIETA'S EAST","Address":"1746 E Main St","City":"El Cajon","State":"CA","Zip":"92021"},{"Location":"MJ RESTAURANT","Address":"576 N 2nd St","City":"El Cajon","State":"CA","Zip":"92021"},{"Location":"MYERZ POUR HOUSE","Address":"1678 Greenfield Dr","City":"El Cajon","State":"CA","Zip":"92021"},{"Location":"NICE RACK","Address":"1246 E Main St 101","City":"El Cajon","State":"CA","Zip":"92021"},{"Location":"PANCHOS RESTAURANT","Address":"1709 E Main St","City":"El Cajon","State":"CA","Zip":"92021"},{"Location":"PARKWAY SPORT CENTER","Address":"1055 Ballantyne St","City":"El Cajon","State":"CA","Zip":"92021"},{"Location":"PONCHOS TACO SHOP","Address":"1279 E Main St","City":"El Cajon","State":"CA","Zip":"92021"},{"Location":"QUARTERDECK INN","Address":"975 Broadway","City":"El Cajon","State":"CA","Zip":"92021"},{"Location":"RENEGADE COUNTRY INC","Address":"14335 Olde Highway 80","City":"El Cajon","State":"CA","Zip":"92021"},{"Location":"ROBERTOS TACO SHOP","Address":"907 Broadway","City":"El Cajon","State":"CA","Zip":"92021"},{"Location":"ROSARITO TACO SHOP 6","Address":"14490 Olde Highway 80","City":"El Cajon","State":"CA","Zip":"92021"},{"Location":"SOMBRERO MEXICAN FOOD-GR","Address":"1522 Graves Ave","City":"El Cajon","State":"CA","Zip":"92021"},{"Location":"STYLISH NAILS","Address":"971 Broadway","City":"El Cajon","State":"CA","Zip":"92021"},{"Location":"SUN VALLEY DENTAL CARE","Address":"1209 E Main St","City":"El Cajon","State":"CA","Zip":"92021"},{"Location":"TARGET STORES 2","Address":"250 Broadway","City":"El Cajon","State":"CA","Zip":"92021"},{"Location":"TAURIAN BA LLC #1015","Address":"1000 Graves Ave","City":"El Cajon","State":"CA","Zip":"92021"},{"Location":"TOP FASHION HAIR NAILS A","Address":"359 N 2nd St","City":"El Cajon","State":"CA","Zip":"92021"},{"Location":"VENUS NAILS AND HAIR","Address":"1752 E Main St","City":"El Cajon","State":"CA","Zip":"92021"},{"Location":"VOLUNTEERS OF AMERICA","Address":"9980 Hawley Rd","City":"El Cajon","State":"CA","Zip":"92021"},{"Location":"WING N IT INC","Address":"528 N 2nd St","City":"El Cajon","State":"CA","Zip":"92021"},{"Location":"THE FLINN SPINGS INN","Address":"15505 Old Highway","City":"Elcajon","State":"CA","Zip":"92021"}]