[{"Location":"24 HOUR FITNESS #859","Address":"1529 E Valley Pkwy","City":"Escondido","State":"CA","Zip":"92027"},{"Location":"ESCONDIDO POLICE DEPARTMENT","Address":"25855 Valley Center Road","City":"Escondido","State":"CA","Zip":"92027"},{"Location":"EXPRESS TIRE","Address":"433 N Ash St","City":"Escondido","State":"CA","Zip":"92027"},{"Location":"FERIAS TAX SERVICE","Address":"442 N Rose St","City":"Escondido","State":"CA","Zip":"92027"},{"Location":"HAIR FORCE SQUADRON","Address":"2341 E Valley Pkwy D","City":"Escondido","State":"CA","Zip":"92027"},{"Location":"HAYASHI","Address":"1450 East Valley Park Way","City":"Escondido","State":"CA","Zip":"92027"},{"Location":"INTERFAITH COMMUNITY SRV","Address":"1061 Rincon Villa Pl","City":"Escondido","State":"CA","Zip":"92027"},{"Location":"JEB SAND AND GRAVEL","Address":"25125 Lake Wohlford Rd","City":"Escondido","State":"CA","Zip":"92027"},{"Location":"KIDS & TEENS DENTAL GRP","Address":"2367 E Valley Pkwy","City":"Escondido","State":"CA","Zip":"92027"},{"Location":"KIMS HAIR STUDIOS","Address":"1736 E Valley Pkwy","City":"Escondido","State":"CA","Zip":"92027"},{"Location":"LAUNDRY LAND","Address":"2341 E Valley Pkwy A","City":"Escondido","State":"CA","Zip":"92027"},{"Location":"MIKKI'S CAFE","Address":"1639 E Valley Pkwy","City":"Escondido","State":"CA","Zip":"92027"},{"Location":"MIKKIS CAFE","Address":"1639 E Valley Pkwy","City":"Escondido","State":"CA","Zip":"92027"},{"Location":"MIRIN CAFE","Address":"1555 E Valley Pkwy","City":"Escondido","State":"CA","Zip":"92027"},{"Location":"MY STAR WIRELESS","Address":"1516 E Valley Pkwy","City":"Escondido","State":"CA","Zip":"92027"},{"Location":"PACIFICA SENIOR LIVING","Address":"1351 E Washington Ave","City":"Escondido","State":"CA","Zip":"92027"},{"Location":"QUE TORTAS","Address":"1485 E Valley Parkway Ste D","City":"Escondido","State":"CA","Zip":"92027"},{"Location":"QUE TORTAS","Address":"1485 E Valley Parkway%2C Ste D","City":"Escondido","State":"CA","Zip":"92027"},{"Location":"SAN DIEGO BRAIN INJURY","Address":"2033 Oro Verde Rd","City":"Escondido","State":"CA","Zip":"92027"},{"Location":"SAN DIEGO ZOO SAFARI PARK","Address":"15500 San Pasqual Valley Rd","City":"Escondido","State":"CA","Zip":"92027"},{"Location":"SAN DIEGO ZOO SAFARI PARK2","Address":"15500 San Pasqual Valley Rd","City":"Escondido","State":"CA","Zip":"92027"},{"Location":"SNAP FITNESS #525","Address":"2355 E Valley Pkwy","City":"Escondido","State":"CA","Zip":"92027"},{"Location":"SR TAKITO","Address":"1620 E Valley Pkwy","City":"Escondido","State":"CA","Zip":"92027"},{"Location":"TEN FANCY NAILS","Address":"1339 E Valley Pkwy","City":"Escondido","State":"CA","Zip":"92027"},{"Location":"VALLARTA SUPERMARKET","Address":"1315 E Valley Pkwy","City":"Escondido","State":"CA","Zip":"92027"},{"Location":"VISTA VERDE ESTATES","Address":"1924 Sheridan Ave","City":"Escondido","State":"CA","Zip":"92027"},{"Location":"ZAYAS TAX SRVC & IMMIGRT","Address":"200 N Ash St 109","City":"Escondido","State":"CA","Zip":"92027"},{"Location":"24 HOUR FITNESS #859","Address":"1529 E Valley Pkwy","City":"Escondido","State":"CA","Zip":"92027"},{"Location":"ESCONDIDO POLICE DEPARTMENT","Address":"25855 Valley Center Road","City":"Escondido","State":"CA","Zip":"92027"},{"Location":"EXPRESS TIRE","Address":"433 N Ash St","City":"Escondido","State":"CA","Zip":"92027"},{"Location":"FERIAS TAX SERVICE","Address":"442 N Rose St","City":"Escondido","State":"CA","Zip":"92027"},{"Location":"HAIR FORCE SQUADRON","Address":"2341 E Valley Pkwy D","City":"Escondido","State":"CA","Zip":"92027"},{"Location":"HAYASHI","Address":"1450 East Valley Park Way","City":"Escondido","State":"CA","Zip":"92027"},{"Location":"INTERFAITH COMMUNITY SRV","Address":"1061 Rincon Villa Pl","City":"Escondido","State":"CA","Zip":"92027"},{"Location":"JEB SAND AND GRAVEL","Address":"25125 Lake Wohlford Rd","City":"Escondido","State":"CA","Zip":"92027"},{"Location":"KIDS & TEENS DENTAL GRP","Address":"2367 E Valley Pkwy","City":"Escondido","State":"CA","Zip":"92027"},{"Location":"KIMS HAIR STUDIOS","Address":"1736 E Valley Pkwy","City":"Escondido","State":"CA","Zip":"92027"},{"Location":"LAUNDRY LAND","Address":"2341 E Valley Pkwy A","City":"Escondido","State":"CA","Zip":"92027"},{"Location":"MIKKI'S CAFE","Address":"1639 E Valley Pkwy","City":"Escondido","State":"CA","Zip":"92027"},{"Location":"MIKKIS CAFE","Address":"1639 E Valley Pkwy","City":"Escondido","State":"CA","Zip":"92027"},{"Location":"MIRIN CAFE","Address":"1555 E Valley Pkwy","City":"Escondido","State":"CA","Zip":"92027"},{"Location":"MY STAR WIRELESS","Address":"1516 E Valley Pkwy","City":"Escondido","State":"CA","Zip":"92027"},{"Location":"PACIFICA SENIOR LIVING","Address":"1351 E Washington Ave","City":"Escondido","State":"CA","Zip":"92027"},{"Location":"QUE TORTAS","Address":"1485 E Valley Parkway Ste D","City":"Escondido","State":"CA","Zip":"92027"},{"Location":"Que Tortas","Address":"1485 E Valley Parkway%2C Ste D","City":"Escondido","State":"CA","Zip":"92027"},{"Location":"SAN DIEGO BRAIN INJURY","Address":"2033 Oro Verde Rd","City":"Escondido","State":"CA","Zip":"92027"},{"Location":"SAN DIEGO ZOO SAFARI PARK","Address":"15500 San Pasqual Valley Rd","City":"Escondido","State":"CA","Zip":"92027"},{"Location":"SAN DIEGO ZOO SAFARI PARK2","Address":"15500 San Pasqual Valley Rd","City":"Escondido","State":"CA","Zip":"92027"},{"Location":"SNAP FITNESS #525","Address":"2355 E Valley Pkwy","City":"Escondido","State":"CA","Zip":"92027"},{"Location":"SR TAKITO","Address":"1620 E Valley Pkwy","City":"Escondido","State":"CA","Zip":"92027"},{"Location":"VALLARTA SUPERMARKET","Address":"1315 E Valley Pkwy","City":"Escondido","State":"CA","Zip":"92027"},{"Location":"VISTA VERDE ESTATES","Address":"1924 Sheridan Ave","City":"Escondido","State":"CA","Zip":"92027"},{"Location":"ZAYAS TAX SRVC & IMMIGRT","Address":"200 N Ash St 109","City":"Escondido","State":"CA","Zip":"92027"}]