[{"Location":"11 WESTERN BUILDERS","Address":"765 W 3rd Ave","City":"Escondido","State":"CA","Zip":"92025"},{"Location":"24 HOUR FITNESS #95","Address":"400 La Terraza Blvd","City":"Escondido","State":"CA","Zip":"92025"},{"Location":"AKITA JAPANESE RESTAURAN","Address":"330 W Felicita Ave","City":"Escondido","State":"CA","Zip":"92025"},{"Location":"AMERICAN LEGION 149","Address":"230 E Park Ave","City":"Escondido","State":"CA","Zip":"92025"},{"Location":"ANEJO BAR & GRILL","Address":"329 W Felicita Ave","City":"Escondido","State":"CA","Zip":"92025"},{"Location":"ANTA ACUPUNCTURE","Address":"715 S Escondido Blvd","City":"Escondido","State":"CA","Zip":"92025"},{"Location":"ARS NATIONAL SERVICES","Address":"270 W 2nd Ave","City":"Escondido","State":"CA","Zip":"92025"},{"Location":"AUTO MART","Address":"760 W Mission Ave","City":"Escondido","State":"CA","Zip":"92025"},{"Location":"BANDY CANYON RANCH CORP","Address":"16251 Bandy Canyon Rd B","City":"Escondido","State":"CA","Zip":"92025"},{"Location":"BJ'S RESTAURANT #497","Address":"204 E Via Rancho Pkwy","City":"Escondido","State":"CA","Zip":"92025"},{"Location":"BRAKESTOP AUTO REPAIR","Address":"600 N Broadway","City":"Escondido","State":"CA","Zip":"92025"},{"Location":"BRIGANTINE ESCONDIDO","Address":"421 W Felicita Ave","City":"Escondido","State":"CA","Zip":"92025"},{"Location":"CALSTATE AUTO GROUP INC","Address":"234 W 3rd Ave","City":"Escondido","State":"CA","Zip":"92025"},{"Location":"CARLYLE'S PRO SHOP","Address":"555 N Tulip St","City":"Escondido","State":"CA","Zip":"92025"},{"Location":"CARMAX #7654","Address":"830 Dan Way","City":"Escondido","State":"CA","Zip":"92025"},{"Location":"CHECK CENTER","Address":"102 E Mission Ave","City":"Escondido","State":"CA","Zip":"92025"},{"Location":"CHILI'S #0269","Address":"1105 W Valley Pkwy","City":"Escondido","State":"CA","Zip":"92025"},{"Location":"CHUZE FITNESS ESCONDIDO","Address":"409 W Felicita Ave","City":"Escondido","State":"CA","Zip":"92025"},{"Location":"COCINA DEL CHARRO","Address":"890 W Valley Pkwy","City":"Escondido","State":"CA","Zip":"92025"},{"Location":"CONRAD COMPANIES","Address":"476 W Vermont Ave","City":"Escondido","State":"CA","Zip":"92025"},{"Location":"CONTINENTAL OUT OF SERVI","Address":"727 Rock Springs Rd B","City":"Escondido","State":"CA","Zip":"92025"},{"Location":"CREENCIA MISTICA","Address":"1316 S Escondido Blvd","City":"Escondido","State":"CA","Zip":"92025"},{"Location":"DCH CONSTRUCTION","Address":"15231 Highland Valley Rd","City":"Escondido","State":"CA","Zip":"92025"},{"Location":"DESTINATION XL 9080","Address":"1004 W Valley Pkwy 23","City":"Escondido","State":"CA","Zip":"92025"},{"Location":"DIVERSIFIED BUSINESS","Address":"1725 S Escondido Blvd","City":"Escondido","State":"CA","Zip":"92025"},{"Location":"DONALD A THOR DDS","Address":"735 E Ohio Ave 102","City":"Escondido","State":"CA","Zip":"92025"},{"Location":"DR. DOUGLAS HOPE DDS","Address":"511 E 2nd Ave","City":"Escondido","State":"CA","Zip":"92025"},{"Location":"EL CHAPIN","Address":"251 W Washington Ave","City":"Escondido","State":"CA","Zip":"92025"},{"Location":"ELEGANT NAILS AND SPA","Address":"331 W Felicita Ave","City":"Escondido","State":"CA","Zip":"92025"},{"Location":"EMMANUEL FAITH COMMUNITY CHRUC","Address":"639 E Felicita Ave","City":"Escondido","State":"CA","Zip":"92025"},{"Location":"ENTWIND BISTRO WINE BAR 1","Address":"113 E Grand Ave","City":"Escondido","State":"CA","Zip":"92025"},{"Location":"ESCONDIDO COIN AND LOAN","Address":"241 E Grand Ave","City":"Escondido","State":"CA","Zip":"92025"},{"Location":"ESCONDIDO COLLISION CENTER","Address":"753 W Washington Ave","City":"Escondido","State":"CA","Zip":"92025"},{"Location":"ESCONDIDO ENDODONTICS-DENTAL","Address":"488 E Valley Pkwy 307","City":"Escondido","State":"CA","Zip":"92025"},{"Location":"EVANS TIRE & SERVICE CENTER","Address":"510 N Broadway","City":"Escondido","State":"CA","Zip":"92025"},{"Location":"FAMILYCARE DENTAL","Address":"1114 W Valley Pkwy","City":"Escondido","State":"CA","Zip":"92025"},{"Location":"FATBURGER ESCONDIDO","Address":"314 W Valley Pkwy","City":"Escondido","State":"CA","Zip":"92025"},{"Location":"FATTE'S PIZZA","Address":"242 West Mission #d","City":"Escondido","State":"CA","Zip":"92025"},{"Location":"FIRST REPUBLIC BANK","Address":"116 E Grand Ave","City":"Escondido","State":"CA","Zip":"92025"},{"Location":"GEORGES BURGER","Address":"350 N Broadway","City":"Escondido","State":"CA","Zip":"92025"},{"Location":"GLORIA MAYORA-MEJIA DDS","Address":"342 S Broadway","City":"Escondido","State":"CA","Zip":"92025"},{"Location":"HACIENDA DEVEGA","Address":"2608 S Escondido Blvd","City":"Escondido","State":"CA","Zip":"92025"},{"Location":"HICHZUKI","Address":"324 W Valley Pkwy","City":"Escondido","State":"CA","Zip":"92025"},{"Location":"HOSPITALITY AMERICAN OF","Address":"339 W Felicita Ave","City":"Escondido","State":"CA","Zip":"92025"},{"Location":"IKARUS PRODUCTIONS  LLC","Address":"880 W Valley Pkwy","City":"Escondido","State":"CA","Zip":"92025"},{"Location":"INTERFAITH COMMUNITY SERVICE","Address":"550 W Washington Ave B","City":"Escondido","State":"CA","Zip":"92025"},{"Location":"JALAPENO MEXICAN GRILL","Address":"503 W Grand Ave","City":"Escondido","State":"CA","Zip":"92025"},{"Location":"JERSEY MIKES 20071","Address":"1829 S Centre City Pkwy","City":"Escondido","State":"CA","Zip":"92025"},{"Location":"JORGE MEICANTESSEN","Address":"675 E Valley Pkwy","City":"Escondido","State":"CA","Zip":"92025"},{"Location":"K & K ORIENT VALLEY","Address":"665 N Broadway","City":"Escondido","State":"CA","Zip":"92025"},{"Location":"KANGS BBQ","Address":"635 W Mission Ave","City":"Escondido","State":"CA","Zip":"92025"},{"Location":"KARZ PLUS R V","Address":"502 W Mission Ave","City":"Escondido","State":"CA","Zip":"92025"},{"Location":"KIDZ CARE DENTAL GROUP","Address":"625 W Citicado Pkwy 208","City":"Escondido","State":"CA","Zip":"92025"},{"Location":"KNIGHTS OF COLUMBUS ESCONDIDO","Address":"515 W Valley Pkwy","City":"Escondido","State":"CA","Zip":"92025"},{"Location":"L & M TIRE COMPANY INC.","Address":"1805 S Centre City Pkwy","City":"Escondido","State":"CA","Zip":"92025"},{"Location":"LA TAPATIA MEXICAN REST","Address":"340 W Grand Ave","City":"Escondido","State":"CA","Zip":"92025"},{"Location":"LA TAQUERIA JALISCO","Address":"511 W Valley Pkwy","City":"Escondido","State":"CA","Zip":"92025"},{"Location":"LATITUDE 33 MIDRISE","Address":"439 W Washington Ave","City":"Escondido","State":"CA","Zip":"92025"},{"Location":"LATITUDE 33 TOWNS","Address":"515 Meander Gln","City":"Escondido","State":"CA","Zip":"92025"},{"Location":"LOS PANCHOS","Address":"915 S Escondido Blvd","City":"Escondido","State":"CA","Zip":"92025"},{"Location":"LOURDES MEXICAN FOOD INC","Address":"650 S Escondido Blvd","City":"Escondido","State":"CA","Zip":"92025"},{"Location":"MACARONI GRILL #1285","Address":"202 E Via Rancho Pkwy","City":"Escondido","State":"CA","Zip":"92025"},{"Location":"MACY'S WEST 550","Address":"220 E Via Rancho Pkwy","City":"Escondido","State":"CA","Zip":"92025"},{"Location":"MARIE CALLENDERS","Address":"515 W 13th Ave","City":"Escondido","State":"CA","Zip":"92025"},{"Location":"MARISCOS EL CAMARON","Address":"126 S Kalmia St","City":"Escondido","State":"CA","Zip":"92025"},{"Location":"MERCEDES BENZ OF ESCONDIDO","Address":"1101 W 9th Ave","City":"Escondido","State":"CA","Zip":"92025"},{"Location":"MEXICAN AMERICAN CENTRAL","Address":"117 N Broadway","City":"Escondido","State":"CA","Zip":"92025"},{"Location":"MIRJANAS ALTERATIONS","Address":"750 E Valley Pkwy","City":"Escondido","State":"CA","Zip":"92025"},{"Location":"MOONLIGHT ACUPRESSURE","Address":"301 E Washington Ave A","City":"Escondido","State":"CA","Zip":"92025"},{"Location":"NEW ALTERNATIVES INC","Address":"17701 San Pasqual Valley Rd Unt27","City":"Escondido","State":"CA","Zip":"92025"},{"Location":"NIGHTINGALE HEALTH SVC","Address":"2644 Canyon Rd","City":"Escondido","State":"CA","Zip":"92025"},{"Location":"NO EXCUSES FITNESS TRAINING CE","Address":"1770 S Escondido Blvd A","City":"Escondido","State":"CA","Zip":"92025"},{"Location":"NORTH COUNTRY ORAL AND FACIAL","Address":"839 E Grand Ave","City":"Escondido","State":"CA","Zip":"92025"},{"Location":"NORTH COUNTY LOANS AND JEWELRY","Address":"205 W Mission Ave S","City":"Escondido","State":"CA","Zip":"92025"},{"Location":"NORTH COUNTY TAVERN AND BOWL","Address":"200 E Via Rancho Pkwy","City":"Escondido","State":"CA","Zip":"92025"},{"Location":"NORTH COUNTY TRANSIT DISTRICT","Address":"775 Norlak Ave","City":"Escondido","State":"CA","Zip":"92025"},{"Location":"NORTH COUNTY TRANST DIST","Address":"775 Norlak Ave","City":"Escondido","State":"CA","Zip":"92025"},{"Location":"NORTHGATE MARKET","Address":"606 N Escondido Blvd","City":"Escondido","State":"CA","Zip":"92025"},{"Location":"ON THE BORDER","Address":"298 E Via Rancho Pkwy","City":"Escondido","State":"CA","Zip":"92025"},{"Location":"ONSCHEDULE AUTO REPAIR","Address":"944 W Mission Ave","City":"Escondido","State":"CA","Zip":"92025"},{"Location":"OSULLIVANS IRISH PUB","Address":"118 E Grand Ave","City":"Escondido","State":"CA","Zip":"92025"},{"Location":"PANAMERICANA TRAVEL","Address":"242 W Mission Ave G","City":"Escondido","State":"CA","Zip":"92025"},{"Location":"PARADISO","Address":"340 W Valley Pkwy","City":"Escondido","State":"CA","Zip":"92025"},{"Location":"PERRY INFINITI ESCONDIDO INC","Address":"855 La Terraza Blvd","City":"Escondido","State":"CA","Zip":"92025"},{"Location":"PHO TRUC XANH","Address":"503 W Mission Ave","City":"Escondido","State":"CA","Zip":"92025"},{"Location":"PLAN 9 ALE HOUSE","Address":"155 E Grand Ave","City":"Escondido","State":"CA","Zip":"92025"},{"Location":"POUNDERS SPORTS PUB","Address":"125 W Grand Ave","City":"Escondido","State":"CA","Zip":"92025"},{"Location":"PROVIDENT BANK MORTGAGE","Address":"362 W Mission Ave","City":"Escondido","State":"CA","Zip":"92025"},{"Location":"QUANTUM AUTO SALES 3 INC","Address":"728 N Escondido Blvd","City":"Escondido","State":"CA","Zip":"92025"},{"Location":"RBC WEALTH MANAGEMENT","Address":"500 La Terraza Blvd 102","City":"Escondido","State":"CA","Zip":"92025"},{"Location":"RED ROBIN #33","Address":"200 E Via Rancho Pkwy 499","City":"Escondido","State":"CA","Zip":"92025"},{"Location":"REDWOOD TERRACE","Address":"710 W 13th Ave","City":"Escondido","State":"CA","Zip":"92025"},{"Location":"ROCCOS DELI","Address":"205 W Mission Ave N","City":"Escondido","State":"CA","Zip":"92025"},{"Location":"SAN CLEMENTE AUTO SALES","Address":"855 N Broadway","City":"Escondido","State":"CA","Zip":"92025"},{"Location":"SAN DIEGO HOME COOKING","Address":"2680 S Escondido Blvd","City":"Escondido","State":"CA","Zip":"92025"},{"Location":"SAN DIEGO WATER AUTHORITY","Address":"610 W 5th Ave","City":"Escondido","State":"CA","Zip":"92025"},{"Location":"SEARS AUTO CENTER","Address":"210 E Via Rancho Pkwy","City":"Escondido","State":"CA","Zip":"92025"},{"Location":"SERVICIOS LOS 3  AMIGOS","Address":"259 W Washington Ave A","City":"Escondido","State":"CA","Zip":"92025"},{"Location":"SHEER COMB BABBER","Address":"945 W Valley Pkwy H","City":"Escondido","State":"CA","Zip":"92025"},{"Location":"SIGNATURE BAGEL AND DELI","Address":"332 W Valley Pkwy","City":"Escondido","State":"CA","Zip":"92025"},{"Location":"SOUTHERN CALIFORNIA TRIBAL","Address":"350 E Grand Ave 100","City":"Escondido","State":"CA","Zip":"92025"},{"Location":"SPORT CLIPS CA408","Address":"1036 W Valley Pkwy","City":"Escondido","State":"CA","Zip":"92025"},{"Location":"STIX HOLDINGS 713","Address":"1875 S Centre City Pkwy Hj","City":"Escondido","State":"CA","Zip":"92025"},{"Location":"SUPERIOR AUTO COLLISION 2","Address":"350 N Quince St","City":"Escondido","State":"CA","Zip":"92025"},{"Location":"SUSHI NORI","Address":"1835 S Centre City Pkwy C","City":"Escondido","State":"CA","Zip":"92025"},{"Location":"SUSHI YAMA","Address":"500 N Escondido Blvd","City":"Escondido","State":"CA","Zip":"92025"},{"Location":"SWAMI'S CAFE","Address":"150 W Grand Ave","City":"Escondido","State":"CA","Zip":"92025"},{"Location":"SYNERGY","Address":"710 E Grand Ave","City":"Escondido","State":"CA","Zip":"92025"},{"Location":"SYNERGY CLINICAL RESEARCH","Address":"710 E Grand Ave","City":"Escondido","State":"CA","Zip":"92025"},{"Location":"SYNERGY CLINICAL RESEARCH","Address":"120 N Fig St","City":"Escondido","State":"CA","Zip":"92025"},{"Location":"TACOS EL PORTAL","Address":"311 W Mission Ave","City":"Escondido","State":"CA","Zip":"92025"},{"Location":"TARGET 2802","Address":"280 E Via Rancho Pkwy","City":"Escondido","State":"CA","Zip":"92025"},{"Location":"THE CHEESECAKE FACTORY 0168","Address":"272 E Via Rancho Pkwy","City":"Escondido","State":"CA","Zip":"92025"},{"Location":"THE HODGES GOLF","Address":"12675 Sunset Dr","City":"Escondido","State":"CA","Zip":"92025"},{"Location":"TOUCH OF HEALTH","Address":"651 E Grand Ave","City":"Escondido","State":"CA","Zip":"92025"},{"Location":"TRANSMISSION PROS","Address":"644 W 9th Ave","City":"Escondido","State":"CA","Zip":"92025"},{"Location":"U S HEALTHWORKS","Address":"860 W Valley Pkwy 150","City":"Escondido","State":"CA","Zip":"92025"},{"Location":"VCA ACACIA ANIMAL HOSPITAL 96","Address":"655 W Citracado Pkwy","City":"Escondido","State":"CA","Zip":"92025"},{"Location":"VIP DAY SPA","Address":"1151 E Washington Ave A1","City":"Escondido","State":"CA","Zip":"92025"},{"Location":"WESTSIDE BARBER SHOP","Address":"645 W 9th Ave","City":"Escondido","State":"CA","Zip":"92025"},{"Location":"WGM BEVERAGE CORP","Address":"1881 S Escondido Blvd","City":"Escondido","State":"CA","Zip":"92025"},{"Location":"WINDOW MAGIC INC","Address":"740 Metcalf St 19","City":"Escondido","State":"CA","Zip":"92025"},{"Location":"ZM NORWOOD AND CO","Address":"420 S Broadway","City":"Escondido","State":"CA","Zip":"92025"}]