[{"Location":"ACCRETIVE INVESTMENTS","Address":"9381 W Lilac Rd","City":"Escondido","State":"CA","Zip":"92026"},{"Location":"ANOTHY VOZZA","Address":"1281 N Escondido Blvd","City":"Escondido","State":"CA","Zip":"92026"},{"Location":"BARRETT S WELLER DDS","Address":"1870 W El Norte Pkwy","City":"Escondido","State":"CA","Zip":"92026"},{"Location":"CASTLE CREEK COUNTRY CLUB","Address":"8797 Circle R Dr","City":"Escondido","State":"CA","Zip":"92026"},{"Location":"DAIRY QUEEN","Address":"310 W El Norte Pkwy","City":"Escondido","State":"CA","Zip":"92026"},{"Location":"FARMERS INSURANCE","Address":"2150 N Center Parkway","City":"Escondido","State":"CA","Zip":"92026"},{"Location":"HUNGRY BEAR SUB SHOP","Address":"302 W El Norte Pkwy D","City":"Escondido","State":"CA","Zip":"92026"},{"Location":"INTERFAITH COMMUNITY SERVICES","Address":"1309 Nordahl Rd","City":"Escondido","State":"CA","Zip":"92026"},{"Location":"KILLER PIZZA FROM MARS","Address":"1040 W El Norte Pkwy","City":"Escondido","State":"CA","Zip":"92026"},{"Location":"L & M TIRE COMPANY INC.","Address":"615 W El Norte Pkwy 310","City":"Escondido","State":"CA","Zip":"92026"},{"Location":"LA FITNESS #52","Address":"362 W El Norte Pkwy","City":"Escondido","State":"CA","Zip":"92026"},{"Location":"NORTH BAR","Address":"200 W El Norte Pkwy 7","City":"Escondido","State":"CA","Zip":"92026"},{"Location":"SAILS GROUP LA KFF","Address":"1944 N Iris Ln","City":"Escondido","State":"CA","Zip":"92026"},{"Location":"SAN DIEGO CHRISTIAN CTR","Address":"1305 Deodar Rd","City":"Escondido","State":"CA","Zip":"92026"},{"Location":"T MOBILE 4235100085","Address":"1441 Montiel Rd 141","City":"Escondido","State":"CA","Zip":"92026"},{"Location":"USA JUNIORS SPORTS CLUB","Address":"130 E Lincoln Ave","City":"Escondido","State":"CA","Zip":"92026"},{"Location":"VALLEY CENTER WATER DISTRICT","Address":"8711 Circle R Dr","City":"Escondido","State":"CA","Zip":"92026"},{"Location":"VILLA MONTICELLO ASSITED","Address":"25720 Jesmond Dene Dr","City":"Escondido","State":"CA","Zip":"92026"}]