[{"Location":"127 WEST SOCIAL HOUSE","Address":"127 W Elder St","City":"Fallbrook","State":"CA","Zip":"92028"},{"Location":"ANYTIME FITNESS","Address":"855 S Main Ave B","City":"Fallbrook","State":"CA","Zip":"92028"},{"Location":"AQUA CRYSTAL WATER","Address":"835 S Main Ave","City":"Fallbrook","State":"CA","Zip":"92028"},{"Location":"CREATIVE STYLZ","Address":"3748 Lake Shore Rd","City":"Fallbrook","State":"CA","Zip":"92028"},{"Location":"EL MESON DE MI TIERRA","Address":"232 S Main Ave","City":"Fallbrook","State":"CA","Zip":"92028"},{"Location":"EL PARQUE","Address":"2659 Reche Rd","City":"Fallbrook","State":"CA","Zip":"92028"},{"Location":"ESTRELLAS RESTAURANT","Address":"129 E Mission Rd","City":"Fallbrook","State":"CA","Zip":"92028"},{"Location":"FALL BROOK SENIOR CENTER","Address":"399 Heald Ln","City":"Fallbrook","State":"CA","Zip":"92028"},{"Location":"FALLBROOK  LIQUOR","Address":"1051 S Main Ave","City":"Fallbrook","State":"CA","Zip":"92028"},{"Location":"FALLBROOK ANIMAL HOSPITAL","Address":"1216 S Main Ave","City":"Fallbrook","State":"CA","Zip":"92028"},{"Location":"FALLBROOK BREWING CO INC","Address":"136 N Main Ave","City":"Fallbrook","State":"CA","Zip":"92028"},{"Location":"FALLBROOK GOLF COURSE INC","Address":"2757 Gird Rd","City":"Fallbrook","State":"CA","Zip":"92028"},{"Location":"FALLBROOK HELI BASE SHERIFFS","Address":"2155 S Mission Rd A","City":"Fallbrook","State":"CA","Zip":"92028"},{"Location":"FALLBROOK NURSERY","Address":"3612 E Mission Rd","City":"Fallbrook","State":"CA","Zip":"92028"},{"Location":"GRAYBILL MEDICAL GROUP","Address":"1035 S Main Ave","City":"Fallbrook","State":"CA","Zip":"92028"},{"Location":"GREAT YEAR INC","Address":"904 S Main Ave","City":"Fallbrook","State":"CA","Zip":"92028"},{"Location":"LAS ISLAS MARIA PROBOSCIS LLC","Address":"1019 S Main Ave","City":"Fallbrook","State":"CA","Zip":"92028"},{"Location":"MAGEE'S TAVERN","Address":"125 S Main Ave","City":"Fallbrook","State":"CA","Zip":"92028"},{"Location":"NEW LIFE WELLNESS","Address":"208 W Aviation Rd","City":"Fallbrook","State":"CA","Zip":"92028"},{"Location":"NORTH COUNTY FIRE ADMIN","Address":"330 S Main Ave","City":"Fallbrook","State":"CA","Zip":"92028"},{"Location":"NORTHGATE GONZALEZ LLC","Address":"1346 S Mission Rd","City":"Fallbrook","State":"CA","Zip":"92028"},{"Location":"OCEANIC FALLBROOK%2C LP","Address":"3135 Old Highway 395","City":"Fallbrook","State":"CA","Zip":"92028"},{"Location":"PALA MESA MARKET","Address":"4775 Via Belmonte","City":"Fallbrook","State":"CA","Zip":"92028"},{"Location":"PALA MESA RESORT","Address":"2001 Old Highway 395","City":"Fallbrook","State":"CA","Zip":"92028"},{"Location":"PALA MESA RESORT PRO SHOP","Address":"2001 Old Highway 395","City":"Fallbrook","State":"CA","Zip":"92028"},{"Location":"RAINBOW CAMP","Address":"8215 Rainbow Heights Rd","City":"Fallbrook","State":"CA","Zip":"92028"},{"Location":"RAINBOW OAKS RESTAURANT","Address":"4815 5th St","City":"Fallbrook","State":"CA","Zip":"92028"},{"Location":"RED EYE INC","Address":"1448 S Mission Rd","City":"Fallbrook","State":"CA","Zip":"92028"},{"Location":"RICHARD G GOBLE DDS","Address":"1108 S Main Ave","City":"Fallbrook","State":"CA","Zip":"92028"},{"Location":"ROCK SOLID STONE","Address":"308 Industrial Way","City":"Fallbrook","State":"CA","Zip":"92028"},{"Location":"SCORE BOARD PIZZERIA","Address":"1125 S Mission Rd","City":"Fallbrook","State":"CA","Zip":"92028"},{"Location":"SUNSET BARBER SHOP","Address":"1069 1%2F2 S Main Ave","City":"Fallbrook","State":"CA","Zip":"92028"},{"Location":"THE EXPRESSO BAR","Address":"139 S Main Ave","City":"Fallbrook","State":"CA","Zip":"92028"},{"Location":"TRUPIANOS ITALIAN BISTRO","Address":"945 S Main Ave","City":"Fallbrook","State":"CA","Zip":"92028"},{"Location":"VAZQUEZ","Address":"1075 S Mission Rd A","City":"Fallbrook","State":"CA","Zip":"92028"},{"Location":"VFW 1924","Address":"1175 Old Stage Rd","City":"Fallbrook","State":"CA","Zip":"92028"},{"Location":"WEDGEWOOD BANQUET CENTER","Address":"3742 Flowerwood Ln","City":"Fallbrook","State":"CA","Zip":"92028"},{"Location":"YAMA RESTAURANT","Address":"1067 S Main Ave","City":"Fallbrook","State":"CA","Zip":"92028"},{"Location":"RAINBOW OAKS MARKETPLACE","Address":"4805 5th St","City":"Rainbow","State":"CA","Zip":"92028"}]