[{"Location":"AMERICAN MINI STORAGE I","Address":"1440 Mission Rd","City":"Escondido","State":"CA","Zip":"92029"},{"Location":"APPLEBEE'S #2150020","Address":"1216 Auto Park Way","City":"Escondido","State":"CA","Zip":"92029"},{"Location":"AUTO ART","Address":"2361 Vineyard Ave","City":"Escondido","State":"CA","Zip":"92029"},{"Location":"AUTO PARK PRO LUBE","Address":"1400 Auto Park Way","City":"Escondido","State":"CA","Zip":"92029"},{"Location":"BIG RED AUTO","Address":"435 Venture St A","City":"Escondido","State":"CA","Zip":"92029"},{"Location":"BIMBO BAKERY","Address":"2069 Aldergrove Ave","City":"Escondido","State":"CA","Zip":"92029"},{"Location":"BIT PROS INCORPORATED","Address":"1238 Simpson Way Swb","City":"Escondido","State":"CA","Zip":"92029"},{"Location":"BLANCHARD TRAINING","Address":"125 State Pl","City":"Escondido","State":"CA","Zip":"92029"},{"Location":"BMW OF ESCONDIDO","Address":"1555 Auto Park Way","City":"Escondido","State":"CA","Zip":"92029"},{"Location":"CALIFORNIA METAL SERVICES INC","Address":"1428 Mission Rd","City":"Escondido","State":"CA","Zip":"92029"},{"Location":"CARINDERIA RESTAURANT","Address":"3440 Del Lago Blvd 1","City":"Escondido","State":"CA","Zip":"92029"},{"Location":"COAST CATERING","Address":"445 Corporate Dr","City":"Escondido","State":"CA","Zip":"92029"},{"Location":"COCOS- 1224","Address":"1280 W Valley Pkwy","City":"Escondido","State":"CA","Zip":"92029"},{"Location":"DAL TILE","Address":"2275 Barham Dr","City":"Escondido","State":"CA","Zip":"92029"},{"Location":"DICK'S SPORTING GOODS #609","Address":"1200 Auto Park Way","City":"Escondido","State":"CA","Zip":"92029"},{"Location":"ECHO PACIFIC CONST","Address":"2066 Aldergrove Ave","City":"Escondido","State":"CA","Zip":"92029"},{"Location":"FORD OF ESCONDIDO","Address":"1717 Auto Park Way","City":"Escondido","State":"CA","Zip":"92029"},{"Location":"GROUND SERVICE TECHNOLOGY","Address":"2280 Micro Pl","City":"Escondido","State":"CA","Zip":"92029"},{"Location":"HAWTHORNE TIRE","Address":"2431 Auto Park Way","City":"Escondido","State":"CA","Zip":"92029"},{"Location":"HIDDEN VALLEY MOVING & S","Address":"1218 Pacific Oaks Pl","City":"Escondido","State":"CA","Zip":"92029"},{"Location":"HYUNDAI OF ESCONDIDO","Address":"1919 Auto Park Way","City":"Escondido","State":"CA","Zip":"92029"},{"Location":"LOS PRIMOS MEXICAN REST.","Address":"1348 W Valley Pkwy","City":"Escondido","State":"CA","Zip":"92029"},{"Location":"MAFIA MIKES PIZZA","Address":"3440 Del Lago Blvd","City":"Escondido","State":"CA","Zip":"92029"},{"Location":"MEN'S WEARHOUSE #2303","Address":"1276b Auto Park Way 165","City":"Escondido","State":"CA","Zip":"92029"},{"Location":"MICRO MARINE INC","Address":"555 Country Club Dr","City":"Escondido","State":"CA","Zip":"92029"},{"Location":"MIKES BBQ INC","Address":"1356 W Valley Pkwy","City":"Escondido","State":"CA","Zip":"92029"},{"Location":"MOSSY VOLKSWAGON","Address":"1695 Auto Park Way","City":"Escondido","State":"CA","Zip":"92029"},{"Location":"MSE LANDSCAPE PROS. INC","Address":"1948 Don Lee Pl Ste2","City":"Escondido","State":"CA","Zip":"92029"},{"Location":"NELSON SERVICES INC","Address":"1348 W Valley Pkwy H","City":"Escondido","State":"CA","Zip":"92029"},{"Location":"NORTH COUNTY BUICK CADILLAC","Address":"1515 Auto Park Way","City":"Escondido","State":"CA","Zip":"92029"},{"Location":"NORTH COUNTY KIA","Address":"1501 Auto Park Way","City":"Escondido","State":"CA","Zip":"92029"},{"Location":"NORTH COUNTY SURGICAL ASSOC","Address":"2067 Wineridge Pl A","City":"Escondido","State":"CA","Zip":"92029"},{"Location":"PIEOLOGY","Address":"1334 W Valley Pkwy","City":"Escondido","State":"CA","Zip":"92029"},{"Location":"PIT RIVER CONSTRUCTION INC","Address":"300 Enterprise St Lm","City":"Escondido","State":"CA","Zip":"92029"},{"Location":"PRO TOOL & EQUIPMENT INC","Address":"2060 Aldergrove Ave","City":"Escondido","State":"CA","Zip":"92029"},{"Location":"PURPER","Address":"1914 Mission Rd C","City":"Escondido","State":"CA","Zip":"92029"},{"Location":"ROOF CONSTRUCTION","Address":"1563 Sterling Ct","City":"Escondido","State":"CA","Zip":"92029"},{"Location":"SABLESAM LLC","Address":"2033 Johnston Gln","City":"Escondido","State":"CA","Zip":"92029"},{"Location":"SAFELITE AUTO GLASS","Address":"2750 Auto Park Way Ste 9","City":"Escondido","State":"CA","Zip":"92029"},{"Location":"SAN DIEGO G AND E NORTHEAST","Address":"571 Enterprise St","City":"Escondido","State":"CA","Zip":"92029"},{"Location":"SAN DIEGO GAS AND ELECTRIC","Address":"2300 Harveson Pl","City":"Escondido","State":"CA","Zip":"92029"},{"Location":"SAN DIEGO STEEL SOLUTIONS","Address":"579 Enterprise St","City":"Escondido","State":"CA","Zip":"92029"},{"Location":"SIERRA CONTRACTING","Address":"445 Corporate Dr A","City":"Escondido","State":"CA","Zip":"92029"},{"Location":"SOUND IMAGE","Address":"2415 Auto Park Way","City":"Escondido","State":"CA","Zip":"92029"},{"Location":"SPORT SUSHI","Address":"3440 Del Lago Blvd H","City":"Escondido","State":"CA","Zip":"92029"},{"Location":"STIX HOLDINGS 773","Address":"1284 Auto Park Way","City":"Escondido","State":"CA","Zip":"92029"},{"Location":"SUSHIYA ESCONDIDO","Address":"1268 Auto Park Way","City":"Escondido","State":"CA","Zip":"92029"},{"Location":"TARA SYSTEMS 1","Address":"520 State Pl","City":"Escondido","State":"CA","Zip":"92029"},{"Location":"TARGET INC 274","Address":"1280 Auto Park Way","City":"Escondido","State":"CA","Zip":"92029"},{"Location":"TEN PERFECT NAILS 2","Address":"1210 Auto Park Way G","City":"Escondido","State":"CA","Zip":"92029"},{"Location":"THE DETAIL SHOP","Address":"2312 Auto Park Way","City":"Escondido","State":"CA","Zip":"92029"},{"Location":"TORESCO","Address":"1145 Industrial Ave I","City":"Escondido","State":"CA","Zip":"92029"},{"Location":"VINTANA","Address":"1205 Auto Park Way","City":"Escondido","State":"CA","Zip":"92029"},{"Location":"VOLVO ESCONDIDO","Address":"1938 Auto Park Way N","City":"Escondido","State":"CA","Zip":"92029"},{"Location":"ZINFANDEL CONCEPTS INC","Address":"2225 Barham Dr D","City":"Escondido","State":"CA","Zip":"92029"}]