[{"Location":"24 HOUR FITNESS #167","Address":"7680 Girard Ave","City":"La Jolla","State":"CA","Zip":"92037"},{"Location":"464 PROSPECT-LA JOLLA","Address":"464 Prospect St","City":"La Jolla","State":"CA","Zip":"92037"},{"Location":"ALFONSOS OF LA JOLLA","Address":"1251 Prospect St","City":"La Jolla","State":"CA","Zip":"92037"},{"Location":"ALTEGRIS INVESTMENTS","Address":"1200 Prospect St 400","City":"La Jolla","State":"CA","Zip":"92037"},{"Location":"ALTIUM","Address":"4225 Executive Sq 700","City":"La Jolla","State":"CA","Zip":"92037"},{"Location":"AMAYA LA JOLLA","Address":"1205 Prospect St","City":"La Jolla","State":"CA","Zip":"92037"},{"Location":"AMBRX","Address":"10975 N Torrey Pines Rd","City":"La Jolla","State":"CA","Zip":"92037"},{"Location":"AMICIS","Address":"811 Prospect St","City":"La Jolla","State":"CA","Zip":"92037"},{"Location":"AVALON CAPITAL GROUP INC","Address":"5786 La Jolla Blvd","City":"La Jolla","State":"CA","Zip":"92037"},{"Location":"BANG & OLUFSEN","Address":"7722 Girard Ave","City":"La Jolla","State":"CA","Zip":"92037"},{"Location":"BAR FLY SAN DIEGO","Address":"909 Prospect St 100","City":"La Jolla","State":"CA","Zip":"92037"},{"Location":"BDO SEIDMAN LLP","Address":"4250 Executive Sq 600","City":"La Jolla","State":"CA","Zip":"92037"},{"Location":"BERNINIS BISTRO","Address":"7550 Fay Ave","City":"La Jolla","State":"CA","Zip":"92037"},{"Location":"BJS RESTAURANT #403","Address":"8873 Villa La Jolla Dr","City":"La Jolla","State":"CA","Zip":"92037"},{"Location":"BURNS AND MCDONNELL","Address":"4225 Executive Sq 500","City":"La Jolla","State":"CA","Zip":"92037"},{"Location":"CADENCE","Address":"7701 Herschel Ave","City":"La Jolla","State":"CA","Zip":"92037"},{"Location":"CAFE MOJOE","Address":"7513 La Jolla Blvd","City":"La Jolla","State":"CA","Zip":"92037"},{"Location":"CAPITAL ACCTS INC.","Address":"4250 Executive Sq 700","City":"La Jolla","State":"CA","Zip":"92037"},{"Location":"CEDAR FOODS","Address":"4250 Executive Sq 1","City":"La Jolla","State":"CA","Zip":"92037"},{"Location":"CG CREATIVE","Address":"1224 Prospect St 130","City":"La Jolla","State":"CA","Zip":"92037"},{"Location":"CITY NATIONAL BANK","Address":"4275 Executive Sq 750","City":"La Jolla","State":"CA","Zip":"92037"},{"Location":"COASTAL PAH","Address":"830 Kline St","City":"La Jolla","State":"CA","Zip":"92037"},{"Location":"CRAB CATCHER","Address":"1298 Prospect St 3a","City":"La Jolla","State":"CA","Zip":"92037"},{"Location":"CYBERFLOW","Address":"4250 Executive Sq 525","City":"La Jolla","State":"CA","Zip":"92037"},{"Location":"DAPHNES","Address":"8657 Villa La Jolla Dr 105","City":"La Jolla","State":"CA","Zip":"92037"},{"Location":"DONOVANS STEAK HOUSE","Address":"1250 Prospect St","City":"La Jolla","State":"CA","Zip":"92037"},{"Location":"DOUGHERTY DENTAL","Address":"7776 Ivanhoe Ave 120","City":"La Jolla","State":"CA","Zip":"92037"},{"Location":"DR. ANTHONY SCOMA DDS.","Address":"875 Prospect St 202","City":"La Jolla","State":"CA","Zip":"92037"},{"Location":"EDDIE V'S #8511","Address":"1270 Prospect St","City":"La Jolla","State":"CA","Zip":"92037"},{"Location":"ELEGANCE NAILS","Address":"6902 La Jolla Blvd","City":"La Jolla","State":"CA","Zip":"92037"},{"Location":"EMPRESS NAI","Address":"1120 Wall St","City":"La Jolla","State":"CA","Zip":"92037"},{"Location":"ESTANCIA LA JOLLA(0056787)","Address":"9700 N Torrey Pines Rd","City":"La Jolla","State":"CA","Zip":"92037"},{"Location":"FERRARI OF SD","Address":"7514 Girard Ave","City":"La Jolla","State":"CA","Zip":"92037"},{"Location":"FINCHES BISTRO & WINE BAR","Address":"7644 Girard Ave","City":"La Jolla","State":"CA","Zip":"92037"},{"Location":"FINS MEXICAN EATERY","Address":"8657 Villa La Jolla Dr 103","City":"La Jolla","State":"CA","Zip":"92037"},{"Location":"FIRST REPUBLIC BANK","Address":"1200 Prospect St","City":"La Jolla","State":"CA","Zip":"92037"},{"Location":"FOUNTAIN OF YOUTH","Address":"2606 Caminito Tom Morris","City":"La Jolla","State":"CA","Zip":"92037"},{"Location":"GELLENS INVSTMENT CO","Address":"7910 Girard Ave 9","City":"La Jolla","State":"CA","Zip":"92037"},{"Location":"GEORGES AT THE COVE","Address":"1250 Prospect St","City":"La Jolla","State":"CA","Zip":"92037"},{"Location":"GERBER","Address":"4225 Executive Sq 950","City":"La Jolla","State":"CA","Zip":"92037"},{"Location":"GHS STEADFAST RESORT MGT","Address":"1224 Prospect St 140","City":"La Jolla","State":"CA","Zip":"92037"},{"Location":"GOODWIN BROWN GROOS","Address":"4225 Executive Sq 370","City":"La Jolla","State":"CA","Zip":"92037"},{"Location":"GREY J. CUNNINGHAM","Address":"7300 Girard Ave 206","City":"La Jolla","State":"CA","Zip":"92037"},{"Location":"HCP TPSP LLC1","Address":"11011 N Torrey Pines Rd","City":"La Jolla","State":"CA","Zip":"92037"},{"Location":"HENNESSEYS TAVERN","Address":"7811 Herschel Ave","City":"La Jolla","State":"CA","Zip":"92037"},{"Location":"HILTON LA JOLLA (0009090)","Address":"10950 N Torrey Pines Rd","City":"La Jolla","State":"CA","Zip":"92037"},{"Location":"HIT MOBILE INC","Address":"2876 Palomino Cir","City":"La Jolla","State":"CA","Zip":"92037"},{"Location":"HOTEL LA JOLLA","Address":"7955 La Jolla Shores Dr","City":"La Jolla","State":"CA","Zip":"92037"},{"Location":"HSBC","Address":"4250 Executive Sq 520","City":"La Jolla","State":"CA","Zip":"92037"},{"Location":"INTELLIGENT OFFICE","Address":"4275 Executive Sq 200","City":"La Jolla","State":"CA","Zip":"92037"},{"Location":"ISLANDS RESTAURANTS #018","Address":"3351 Nobel Dr","City":"La Jolla","State":"CA","Zip":"92037"},{"Location":"JBM PROPERTIES","Address":"2223 Avenida De La Playa 350","City":"La Jolla","State":"CA","Zip":"92037"},{"Location":"JERSEY MIKES 2","Address":"7836 Herschel Ave","City":"La Jolla","State":"CA","Zip":"92037"},{"Location":"JET WEALTH ADVISORS","Address":"4250 Executive Sq 660","City":"La Jolla","State":"CA","Zip":"92037"},{"Location":"JOHN BURNES REAL ESTATE","Address":"4250 Executive Sq 540","City":"La Jolla","State":"CA","Zip":"92037"},{"Location":"JORGE SAAD INVESTMRNTS","Address":"4275 Executive Sq 918","City":"La Jolla","State":"CA","Zip":"92037"},{"Location":"JOSEPH D'ANGELO DDS","Address":"1111 Torrey Pines Rd 101","City":"La Jolla","State":"CA","Zip":"92037"},{"Location":"JOSES LA JOLLA  LLC","Address":"1037 Prospect St","City":"La Jolla","State":"CA","Zip":"92037"},{"Location":"KARL STRAUSS BREWING","Address":"1044 Wall St","City":"La Jolla","State":"CA","Zip":"92037"},{"Location":"LA JOLLA ATHLETIC CLUB","Address":"1202 Prospect St","City":"La Jolla","State":"CA","Zip":"92037"},{"Location":"LA JOLLA BREWING COMPANY","Address":"7536 Fay Ave","City":"La Jolla","State":"CA","Zip":"92037"},{"Location":"LA JOLLA COUNTRY CLUB","Address":"7301 High Ave","City":"La Jolla","State":"CA","Zip":"92037"},{"Location":"LA JOLLA INSTITUTE FOR ALLERGY","Address":"9420 Athena Cir","City":"La Jolla","State":"CA","Zip":"92037"},{"Location":"LA JOLLA LIGHTING","Address":"5640 La Jolla Blvd","City":"La Jolla","State":"CA","Zip":"92037"},{"Location":"LA JOLLA YMCA","Address":"8355 Cliffridge Ave","City":"La Jolla","State":"CA","Zip":"92037"},{"Location":"LA JOLLAIEGO CTRI","Address":"9444 Medical Center Dr","City":"La Jolla","State":"CA","Zip":"92037"},{"Location":"LAJOLLA CAPITAL GROUP","Address":"1025 Prospect St 380","City":"La Jolla","State":"CA","Zip":"92037"},{"Location":"LAJOLLA TENNIS CLUB","Address":"7632 Draper Ave","City":"La Jolla","State":"CA","Zip":"92037"},{"Location":"LAS CASITAS","Address":"2181 Avenida De La Playa","City":"La Jolla","State":"CA","Zip":"92037"},{"Location":"LAUCALA GROUP LLC","Address":"7661 Girard Ave","City":"La Jolla","State":"CA","Zip":"92037"},{"Location":"LAWRENCE FAMILY JCC","Address":"4126 Executive Dr","City":"La Jolla","State":"CA","Zip":"92037"},{"Location":"LBY BAR MARRIOTT LA JOLL","Address":"4240 La Jolla Village Dr","City":"La Jolla","State":"CA","Zip":"92037"},{"Location":"LIGAND PHARMACEUTICALS","Address":"11119 N Torrey Pines Rd 200","City":"La Jolla","State":"CA","Zip":"92037"},{"Location":"LINDSAY & BROWNELL%2C LLP","Address":"4225 Executive Sq 1150","City":"La Jolla","State":"CA","Zip":"92037"},{"Location":"LITTON FINANCIAL","Address":"4225 Executive Sq 1030","City":"La Jolla","State":"CA","Zip":"92037"},{"Location":"LOBBY MARRIOTT LA JOLLA","Address":"4240 La Jolla Village Dr","City":"La Jolla","State":"CA","Zip":"92037"},{"Location":"LOCTON INSURANCE","Address":"4275 Executive Sq 600","City":"La Jolla","State":"CA","Zip":"92037"},{"Location":"LODGE AT TORREY PINES","Address":"11480 N Torrey Pines Rd","City":"La Jolla","State":"CA","Zip":"92037"},{"Location":"LODGE AT TORRY PINES ARV","Address":"11480 N Torrey Pines Rd","City":"La Jolla","State":"CA","Zip":"92037"},{"Location":"LUPI VINO CUCINA RESTAUR","Address":"5518 La Jolla Blvd","City":"La Jolla","State":"CA","Zip":"92037"},{"Location":"MANDARAN HOUSE","Address":"6765 La Jolla Blvd","City":"La Jolla","State":"CA","Zip":"92037"},{"Location":"MARINE STREET FINANCIAL","Address":"4275 Executive Sq 910","City":"La Jolla","State":"CA","Zip":"92037"},{"Location":"MARINE STREET MARKET & S","Address":"7402 La Jolla Blvd","City":"La Jolla","State":"CA","Zip":"92037"},{"Location":"MARRIOTT LA JOLLA","Address":"4240 La Jolla Village Dr","City":"La Jolla","State":"CA","Zip":"92037"},{"Location":"MASS MUTUAL FINANCIAL GROUP","Address":"4275 Executive Sq 400","City":"La Jolla","State":"CA","Zip":"92037"},{"Location":"MCGRAW HILL","Address":"2122 Via Casa Alta","City":"La Jolla","State":"CA","Zip":"92037"},{"Location":"MELISSA F MINGER DMD INC","Address":"8950 Villa La Jolla Dr A105","City":"La Jolla","State":"CA","Zip":"92037"},{"Location":"MORGAN STANLEY 100254","Address":"1250 Prospect St 202","City":"La Jolla","State":"CA","Zip":"92037"},{"Location":"MORGAN STANLEY 100254","Address":"1111 Prospect St","City":"La Jolla","State":"CA","Zip":"92037"},{"Location":"MORGAN STANLEY 100254","Address":"1225 Prospect St","City":"La Jolla","State":"CA","Zip":"92037"},{"Location":"NATIONAL UNIVERSITY","Address":"11355 N Torrey Pines Rd","City":"La Jolla","State":"CA","Zip":"92037"},{"Location":"NATIONAL UNIVERSITY","Address":"11255 N Torrey Pines Rd","City":"La Jolla","State":"CA","Zip":"92037"},{"Location":"NATIONAL UNIVERSITY","Address":"11255 N Torrey Pines Rd 2092","City":"La Jolla","State":"CA","Zip":"92037"},{"Location":"NATIONAL UNIVERSITY 1","Address":"11255 N Torrey Pines Rd 215","City":"La Jolla","State":"CA","Zip":"92037"},{"Location":"NATIONAL UNIVERSITY2","Address":"11355 N Torrey Pines Rd","City":"La Jolla","State":"CA","Zip":"92037"},{"Location":"NORTHWESTERN MUTUAL","Address":"4225 Executive Sq 16","City":"La Jolla","State":"CA","Zip":"92037"},{"Location":"NOZOMI SUSHI","Address":"4150 Regents Park Row","City":"La Jolla","State":"CA","Zip":"92037"},{"Location":"OHANA CAFE","Address":"7500 La Jolla Blvd","City":"La Jolla","State":"CA","Zip":"92037"},{"Location":"PACIFIC DENTAL","Address":"8657 Villa La Jolla Dr 211","City":"La Jolla","State":"CA","Zip":"92037"},{"Location":"PACIFIC MERCANTILE BANK","Address":"4225 Executive Sq 150","City":"La Jolla","State":"CA","Zip":"92037"},{"Location":"PACIFIC TRUST BANK","Address":"7877 Ivanhoe Ave","City":"La Jolla","State":"CA","Zip":"92037"},{"Location":"PENN MUTUAL","Address":"4250 Executive Sq 500","City":"La Jolla","State":"CA","Zip":"92037"},{"Location":"PHARMANET I3","Address":"4225 Executive Sq 800","City":"La Jolla","State":"CA","Zip":"92037"},{"Location":"PROMISCUOUS FORK","Address":"6984 La Jolla Blvd","City":"La Jolla","State":"CA","Zip":"92037"},{"Location":"PROSPECT BAR AND GRILL","Address":"1025 Prospect St 210","City":"La Jolla","State":"CA","Zip":"92037"},{"Location":"PUESTO","Address":"1026 Wall St","City":"La Jolla","State":"CA","Zip":"92037"},{"Location":"RALPHS","Address":"8657 Villa La Jolla Dr","City":"La Jolla","State":"CA","Zip":"92037"},{"Location":"RBC WEALTH MAAGEMENT","Address":"4250 Executive Sq 8","City":"La Jolla","State":"CA","Zip":"92037"},{"Location":"REAL OFFICE CENTERS","Address":"4225 Executive Sq 600","City":"La Jolla","State":"CA","Zip":"92037"},{"Location":"RICHARD BIALICK DDS","Address":"8950 Villa La Jolla Dr B220","City":"La Jolla","State":"CA","Zip":"92037"},{"Location":"RICHARD EVANGELISTA DDS INC","Address":"8861 Villa La Jolla Dr 501","City":"La Jolla","State":"CA","Zip":"92037"},{"Location":"RIMELS ROTISSERIE","Address":"1030 Torrey Pines Rd E","City":"La Jolla","State":"CA","Zip":"92037"},{"Location":"ROBERT C KIM DDS","Address":"8950 Villa La Jolla Dr B124","City":"La Jolla","State":"CA","Zip":"92037"},{"Location":"ROCK BOTTOM #1074","Address":"8980 Villa La Jolla Dr","City":"La Jolla","State":"CA","Zip":"92037"},{"Location":"RYALEMKO  INC.","Address":"1200 Prospect St 600","City":"La Jolla","State":"CA","Zip":"92037"},{"Location":"SAMMYS WOODFIRE PIZZA","Address":"875 Prospect St","City":"La Jolla","State":"CA","Zip":"92037"},{"Location":"SANTA BARBARA TAX PROD.","Address":"11085 N Torrey Pines Rd","City":"La Jolla","State":"CA","Zip":"92037"},{"Location":"SCOTTRADE 04Q","Address":"8855 Villa La Jolla Dr 402","City":"La Jolla","State":"CA","Zip":"92037"},{"Location":"SCRIPPS GREEN HOSPITAL","Address":"10666 N Torrey Pines Rd N107","City":"La Jolla","State":"CA","Zip":"92037"},{"Location":"SCRIPPS RADIATION","Address":"10670 John Jay Hopkins Dr","City":"La Jolla","State":"CA","Zip":"92037"},{"Location":"SCRIPPS RESEARCH INST","Address":"10466 North Torry Pines Rd","City":"La Jolla","State":"CA","Zip":"92037"},{"Location":"SHILEY  SPORTS & HEALTH CENTER","Address":"10820 N Torrey Pines Rd","City":"La Jolla","State":"CA","Zip":"92037"},{"Location":"SHILEY - MASTERSON","Address":"10820 N Torrey Pines Rd","City":"La Jolla","State":"CA","Zip":"92037"},{"Location":"SHILEY PAVILION","Address":"10820 N Torrey Pines Rd","City":"La Jolla","State":"CA","Zip":"92037"},{"Location":"SILVERGATE BANK","Address":"4275 Executive Sq 800","City":"La Jolla","State":"CA","Zip":"92037"},{"Location":"SPIRIT OF SAINT JERMAINE","Address":"3251 Holiday Ct 101","City":"La Jolla","State":"CA","Zip":"92037"},{"Location":"STIX HOLDINGS 726","Address":"8707 Villa La Jolla Dr B1","City":"La Jolla","State":"CA","Zip":"92037"},{"Location":"SUSHI MORI","Address":"2161 Avenida De La Playa","City":"La Jolla","State":"CA","Zip":"92037"},{"Location":"SUSHI ON THE ROCK","Address":"1025 Prospect St 250","City":"La Jolla","State":"CA","Zip":"92037"},{"Location":"SYNTHETIC GENOMICS","Address":"11149 N Torrey Pines Rd","City":"La Jolla","State":"CA","Zip":"92037"},{"Location":"TGI FRIDAY'S #1908","Address":"8801 Villa La Jolla Dr","City":"La Jolla","State":"CA","Zip":"92037"},{"Location":"THE BEAUTIFUL GAME LLC","Address":"4275 Executive Sq 200","City":"La Jolla","State":"CA","Zip":"92037"},{"Location":"THE HAKE","Address":"1250 Prospect St B10","City":"La Jolla","State":"CA","Zip":"92037"},{"Location":"THE MULLER COMPANY","Address":"10350 N Torrey Pines Rd","City":"La Jolla","State":"CA","Zip":"92037"},{"Location":"THE SHACK BAR & GRILL","Address":"6941 La Jolla Blvd","City":"La Jolla","State":"CA","Zip":"92037"},{"Location":"THE SPOT RESTAURANT","Address":"1005 Prospect St","City":"La Jolla","State":"CA","Zip":"92037"},{"Location":"THE WATKINS FIRM","Address":"4275 Executive Sq 10","City":"La Jolla","State":"CA","Zip":"92037"},{"Location":"TORREY PINES CLUB CORP","Address":"11480 N Torrey Pines Rd","City":"La Jolla","State":"CA","Zip":"92037"},{"Location":"TORREY PINES SCIENCE PARK","Address":"11085 N Torrey Pines Rd","City":"La Jolla","State":"CA","Zip":"92037"},{"Location":"UNION BANK","Address":"4250 Executive Sq 1","City":"La Jolla","State":"CA","Zip":"92037"},{"Location":"UNION BANK","Address":"7807 Girard Ave 200","City":"La Jolla","State":"CA","Zip":"92037"},{"Location":"VACO","Address":"4250 Executive Sq 750","City":"La Jolla","State":"CA","Zip":"92037"},{"Location":"VERDES EL RANCHERO","Address":"7404 La Jolla Blvd","City":"La Jolla","State":"CA","Zip":"92037"},{"Location":"WEST POINT INVESTMENT CO","Address":"7460 Girard Ave 10","City":"La Jolla","State":"CA","Zip":"92037"},{"Location":"WEST WIRELESS HEATH INSTITUTE","Address":"10350 N Torroy Pins Rd","City":"La Jolla","State":"CA","Zip":"92037"},{"Location":"WESTPAC WEALTH","Address":"4275 Executive Sq 1100","City":"La Jolla","State":"CA","Zip":"92037"},{"Location":"WHOLE FOODS MARKET","Address":"8825 Villa La Jolla Dr","City":"La Jolla","State":"CA","Zip":"92037"},{"Location":"WHOS NEXT","Address":"3251 Holiday Ct 104","City":"La Jolla","State":"CA","Zip":"92037"},{"Location":"WILLIS RISK & INSURANCE SERV","Address":"4250 Executive Sq 250","City":"La Jolla","State":"CA","Zip":"92037"},{"Location":"INN AT RANCHO SANTA FE","Address":"5951 Linea Del Cielo","City":"Rancho Santa Fe","State":"CA","Zip":"92037"}]