[{"Location":"","Address":"2008 Prospect Pl","City":"Julian","State":"CA","Zip":"92036"},{"Location":"AMERICAN LEGION POST FOUR SIX","Address":"2503 Washington St","City":"Julian","State":"CA","Zip":"92036"},{"Location":"JULIAN MARKET","Address":"2202 Main","City":"Julian","State":"CA","Zip":"92036"},{"Location":"KQ RANCH CAMPGROUND","Address":"449 K Q Ranch Rd","City":"Julian","State":"CA","Zip":"92036"},{"Location":"KQ RANCH CAMPGROUND #2","Address":"449 K Q Ranch Rd","City":"Julian","State":"CA","Zip":"92036"},{"Location":"LA CINA CONSERVATION CAMP","Address":"15108 Sunrise Hwy","City":"Julian","State":"CA","Zip":"92036"},{"Location":"LAKE CUYAMACA REC & PARK DIST","Address":"15027 Highway 79","City":"Julian","State":"CA","Zip":"92036"},{"Location":"LAKE CUYAMACA RECREATION","Address":"15027 Highway 79","City":"Julian","State":"CA","Zip":"92036"},{"Location":"PANCHO VILLAS","Address":"2907 Washington St","City":"Julian","State":"CA","Zip":"92036"},{"Location":"PINE HILLS FIRE STATION","Address":"Boulde Boulder Creek Dr And Eng Rd","City":"Julian","State":"CA","Zip":"92036"},{"Location":"THE BAILEY BBQ","Address":"2305 Main Street","City":"Julian","State":"CA","Zip":"92036"},{"Location":"THE COOLER","Address":"4470 Highway 78 4466","City":"Julian","State":"CA","Zip":"92036"},{"Location":"WYNOLAS PERC","Address":"4470 Julian Rd","City":"Julian","State":"CA","Zip":"92036"}]