[{"Location":"ALBERTS MEXICAN REST","Address":"13334 Highway 8 Business","City":"Lakeside","State":"CA","Zip":"92040"},{"Location":"ALBETOS TACO SHOP","Address":"12510 Lakeshore Dr","City":"Lakeside","State":"CA","Zip":"92040"},{"Location":"BARONA","Address":"1095 Barona Rd","City":"Lakeside","State":"CA","Zip":"92040"},{"Location":"BARONA FIRE PROTECTION DISTRIC","Address":"1112 Barona Rd","City":"Lakeside","State":"CA","Zip":"92040"},{"Location":"BARONA PEB GYM","Address":"1095 Barona Rd","City":"Lakeside","State":"CA","Zip":"92040"},{"Location":"BARONA RECREATION","Address":"1095 Barona Rd","City":"Lakeside","State":"CA","Zip":"92040"},{"Location":"BARONA TRIBAL ENFORCEMENT","Address":"1095 Barona Rd","City":"Lakeside","State":"CA","Zip":"92040"},{"Location":"BETTER DAYS PIZZERIA","Address":"10109 Maine Ave","City":"Lakeside","State":"CA","Zip":"92040"},{"Location":"BOLL WEEVIL","Address":"9741 Winter Gardens Blvd","City":"Lakeside","State":"CA","Zip":"92040"},{"Location":"EASTBOUND BAR AND GRILL","Address":"10053 Maine Ave","City":"Lakeside","State":"CA","Zip":"92040"},{"Location":"ERNEST CONEEN CCC CONSTRUCTION","Address":"10575 Valle Vista Rd","City":"Lakeside","State":"CA","Zip":"92040"},{"Location":"HELIX WATER DISTRICT","Address":"9550 Lake Jennings Park Rd","City":"Lakeside","State":"CA","Zip":"92040"},{"Location":"LA LOMITA MEXICAN GRILL","Address":"12115 Woodside Ave","City":"Lakeside","State":"CA","Zip":"92040"},{"Location":"LA PALAPA MEX. RESTAURANT","Address":"12169 Woodside Ave A","City":"Lakeside","State":"CA","Zip":"92040"},{"Location":"LAKESIDE SPECIAL CARE CENTER","Address":"11962 Woodside Ave","City":"Lakeside","State":"CA","Zip":"92040"},{"Location":"MYNT LOUNGE","Address":"9744 Winter Gardens Blvd","City":"Lakeside","State":"CA","Zip":"92040"},{"Location":"PATRICKS BARBERSHOP","Address":"13330 Highway 8 Business","City":"Lakeside","State":"CA","Zip":"92040"},{"Location":"PECKERWOOD MOTORCYCLE CL","Address":"8807 Winter Gardens Blvd C","City":"Lakeside","State":"CA","Zip":"92040"},{"Location":"PNNACLE PEAK STEAKHOUSE","Address":"9927 Maine Ave","City":"Lakeside","State":"CA","Zip":"92040"},{"Location":"SAN DIEGO HOME COOKING INC","Address":"12212 Woodside Ave","City":"Lakeside","State":"CA","Zip":"92040"},{"Location":"SARAIS TACO SHOP","Address":"10143 Maine Ave","City":"Lakeside","State":"CA","Zip":"92040"},{"Location":"SOMBRERO MEXICAN FOOD","Address":"12346 Woodside Ave","City":"Lakeside","State":"CA","Zip":"92040"},{"Location":"TCI TIRE CENTERS LLC","Address":"12208 Industry Rd","City":"Lakeside","State":"CA","Zip":"92040"},{"Location":"TURNING POINT MINISTRIES","Address":"10007 Riverford Rd","City":"Lakeside","State":"CA","Zip":"92040"},{"Location":"VETERANS OF FOREIGN WARS","Address":"12650 Lindo Ln","City":"Lakeside","State":"CA","Zip":"92040"},{"Location":"ALBERTS MEXICAN REST","Address":"13334 Highway 8 Business","City":"Lakeside","State":"CA","Zip":"92040"},{"Location":"ALBETOS TACO SHOP","Address":"12510 Lakeshore Dr","City":"Lakeside","State":"CA","Zip":"92040"},{"Location":"BARONA","Address":"1095 Barona Rd","City":"Lakeside","State":"CA","Zip":"92040"},{"Location":"BARONA FIRE PROTECTION DISTRIC","Address":"1112 Barona Rd","City":"Lakeside","State":"CA","Zip":"92040"},{"Location":"BARONA PEB GYM","Address":"1095 Barona Rd","City":"Lakeside","State":"CA","Zip":"92040"},{"Location":"BARONA RECREATION","Address":"1095 Barona Rd","City":"Lakeside","State":"CA","Zip":"92040"},{"Location":"BARONA TRIBAL ENFORCEMENT","Address":"1095 Barona Rd","City":"Lakeside","State":"CA","Zip":"92040"},{"Location":"BOLL WEEVIL","Address":"9741 Winter Gardens Blvd","City":"Lakeside","State":"CA","Zip":"92040"},{"Location":"EASTBOUND BAR AND GRILL","Address":"10053 Maine Ave","City":"Lakeside","State":"CA","Zip":"92040"},{"Location":"ERNEST CONEEN CCC CONSTRUCTION","Address":"10575 Valle Vista Rd","City":"Lakeside","State":"CA","Zip":"92040"},{"Location":"HELIX WATER DISTRICT","Address":"9550 Lake Jennings Park Rd","City":"Lakeside","State":"CA","Zip":"92040"},{"Location":"LA LOMITA MEXICAN GRILL","Address":"12115 Woodside Ave","City":"Lakeside","State":"CA","Zip":"92040"},{"Location":"LA PALAPA MEX. RESTAURANT","Address":"12169 Woodside Ave A","City":"Lakeside","State":"CA","Zip":"92040"},{"Location":"LAKESIDE SPECIAL CARE CENTER","Address":"11962 Woodside Ave","City":"Lakeside","State":"CA","Zip":"92040"},{"Location":"MYNT LOUNGE","Address":"9744 Winter Gardens Blvd","City":"Lakeside","State":"CA","Zip":"92040"},{"Location":"PATRICKS BARBERSHOP","Address":"13330 Highway 8 Business","City":"Lakeside","State":"CA","Zip":"92040"},{"Location":"PECKERWOOD MOTORCYCLE CL","Address":"8807 Winter Gardens Blvd C","City":"Lakeside","State":"CA","Zip":"92040"},{"Location":"PNNACLE PEAK STEAKHOUSE","Address":"9927 Maine Ave","City":"Lakeside","State":"CA","Zip":"92040"},{"Location":"SAN DIEGO HOME COOKING INC","Address":"12212 Woodside Ave","City":"Lakeside","State":"CA","Zip":"92040"},{"Location":"SARAIS TACO SHOP","Address":"10143 Maine Ave","City":"Lakeside","State":"CA","Zip":"92040"},{"Location":"SOMBRERO MEXICAN FOOD","Address":"12346 Woodside Ave","City":"Lakeside","State":"CA","Zip":"92040"},{"Location":"TCI TIRE CENTERS LLC","Address":"12208 Industry Rd","City":"Lakeside","State":"CA","Zip":"92040"},{"Location":"TURNING POINT MINISTRIES","Address":"10007 Riverford Rd","City":"Lakeside","State":"CA","Zip":"92040"},{"Location":"VETERANS OF FOREIGN WARS","Address":"12650 Lindo Ln","City":"Lakeside","State":"CA","Zip":"92040"}]