[{"Location":"24 HOUR FITNESS #80","Address":"4655 Frazee Rd","City":"Oceanside","State":"CA","Zip":"92057"},{"Location":"ARROWOOD GOLF COURSE","Address":"5201a Village Dr","City":"Oceanside","State":"CA","Zip":"92057"},{"Location":"BIG LIQUOR INC","Address":"617 N Redondo Dr A","City":"Oceanside","State":"CA","Zip":"92057"},{"Location":"DAVIES","Address":"125 Old Grove Rd 8","City":"Oceanside","State":"CA","Zip":"92057"},{"Location":"EMERALD ISLE GOLF COURSE","Address":"660 S El Camino Real","City":"Oceanside","State":"CA","Zip":"92057"},{"Location":"EMRALD DENTAL PRACTICE","Address":"4645 Frazee Rd A","City":"Oceanside","State":"CA","Zip":"92057"},{"Location":"ERIBERTOS MEXICAN FOOD","Address":"644 N Redondo Dr","City":"Oceanside","State":"CA","Zip":"92057"},{"Location":"FIRST SAMOAN CONGREGTNL","Address":"201 Stallion Dr","City":"Oceanside","State":"CA","Zip":"92057"},{"Location":"FITNESS 19","Address":"439 College Blvd","City":"Oceanside","State":"CA","Zip":"92057"},{"Location":"HAPPINESS NAILS","Address":"467 College Blvd","City":"Oceanside","State":"CA","Zip":"92057"},{"Location":"IN HIS GRIP JM CORP","Address":"4904 N River Rd 400","City":"Oceanside","State":"CA","Zip":"92057"},{"Location":"LOVE BOAT SUSHI","Address":"125 Old Grove Rd 5","City":"Oceanside","State":"CA","Zip":"92057"},{"Location":"MARIETA'S","Address":"485 Vandergrift Blvd","City":"Oceanside","State":"CA","Zip":"92057"},{"Location":"NORTH COUNTY ALANO CLUB","Address":"4198 Mission Ave","City":"Oceanside","State":"CA","Zip":"92057"},{"Location":"OHAMA HAWAIIAN BBQ","Address":"459 College Blvd","City":"Oceanside","State":"CA","Zip":"92057"},{"Location":"PRESTIGE NAIL  SPA1","Address":"125 Old Grove Rd 11","City":"Oceanside","State":"CA","Zip":"92057"},{"Location":"SAN DIEGO AUTO AUCTION","Address":"4691 Calle Joven","City":"Oceanside","State":"CA","Zip":"92057"},{"Location":"SUSHI ISLAND","Address":"4645 Frazee Rd F","City":"Oceanside","State":"CA","Zip":"92057"},{"Location":"TONY PEPPERONI #2","Address":"805 College Blvd 102","City":"Oceanside","State":"CA","Zip":"92057"},{"Location":"24 HOUR FITNESS #80","Address":"4655 Frazee Rd","City":"Oceanside","State":"CA","Zip":"92057"},{"Location":"ARROWOOD GOLF COURSE","Address":"5201a Village Dr","City":"Oceanside","State":"CA","Zip":"92057"},{"Location":"BIG LIQUOR INC","Address":"617 N Redondo Dr A","City":"Oceanside","State":"CA","Zip":"92057"},{"Location":"DAVIES","Address":"125 Old Grove Rd 8","City":"Oceanside","State":"CA","Zip":"92057"},{"Location":"EMERALD ISLE GOLF COURSE","Address":"660 S El Camino Real","City":"Oceanside","State":"CA","Zip":"92057"},{"Location":"EMRALD DENTAL PRACTICE","Address":"4645 Frazee Rd A","City":"Oceanside","State":"CA","Zip":"92057"},{"Location":"ERIBERTOS MEXICAN FOOD","Address":"644 N Redondo Dr","City":"Oceanside","State":"CA","Zip":"92057"},{"Location":"FIRST SAMOAN CONGREGTNL","Address":"201 Stallion Dr","City":"Oceanside","State":"CA","Zip":"92057"},{"Location":"FITNESS 19","Address":"439 College Blvd","City":"Oceanside","State":"CA","Zip":"92057"},{"Location":"HAPPINESS NAILS","Address":"467 College Blvd","City":"Oceanside","State":"CA","Zip":"92057"},{"Location":"IN HIS GRIP JM CORP","Address":"4904 N River Rd 400","City":"Oceanside","State":"CA","Zip":"92057"},{"Location":"LOVE BOAT SUSHI","Address":"125 Old Grove Rd 5","City":"Oceanside","State":"CA","Zip":"92057"},{"Location":"MARIETA'S","Address":"485 Vandergrift Blvd","City":"Oceanside","State":"CA","Zip":"92057"},{"Location":"NORTH COUNTY ALANO CLUB","Address":"4198 Mission Ave","City":"Oceanside","State":"CA","Zip":"92057"},{"Location":"OHAMA HAWAIIAN BBQ","Address":"459 College Blvd","City":"Oceanside","State":"CA","Zip":"92057"},{"Location":"PRESTIGE NAIL  SPA1","Address":"125 Old Grove Rd 11","City":"Oceanside","State":"CA","Zip":"92057"},{"Location":"SAN DIEGO AUTO AUCTION","Address":"4691 Calle Joven","City":"Oceanside","State":"CA","Zip":"92057"},{"Location":"SUSHI ISLAND","Address":"4645 Frazee Rd F","City":"Oceanside","State":"CA","Zip":"92057"},{"Location":"TONY PEPPERONI #2","Address":"805 College Blvd 102","City":"Oceanside","State":"CA","Zip":"92057"}]