[{"Location":"NORTH COUNTY PIZZA INC","Address":"520407 Basilone","City":"Camp Pendleton","State":"CA","Zip":"92054"},{"Location":"A D SUPERSOILS","Address":"210 N Tremont St","City":"Oceanside","State":"CA","Zip":"92054"},{"Location":"ACIFIC INC","Address":"1715c S Freeman St","City":"Oceanside","State":"CA","Zip":"92054"},{"Location":"AMATO INSURANCE LLCE","Address":"234 S Coast Hwy","City":"Oceanside","State":"CA","Zip":"92054"},{"Location":"AMERICAN TIRE DEPOT","Address":"515 N Coast Hwy","City":"Oceanside","State":"CA","Zip":"92054"},{"Location":"APPLEBEE'S #2150025","Address":"2146 Vista Way","City":"Oceanside","State":"CA","Zip":"92054"},{"Location":"BAGBY BEER CO","Address":"601 S Coast Hwy","City":"Oceanside","State":"CA","Zip":"92054"},{"Location":"BDS TACTICAL","Address":"1405 S Coast Hwy","City":"Oceanside","State":"CA","Zip":"92054"},{"Location":"BEACHCOMBER BARBER SHOP","Address":"309 Pier View Way","City":"Oceanside","State":"CA","Zip":"92054"},{"Location":"BEACHCOMBER BARBERSHOP","Address":"518 Oceanside Blvd","City":"Oceanside","State":"CA","Zip":"92054"},{"Location":"BINGOS SURF BOARDS","Address":"2110 S Coast Hwy 101c","City":"Oceanside","State":"CA","Zip":"92054"},{"Location":"BLVD CHINESE KITCHEN","Address":"514 S Coast Hwy","City":"Oceanside","State":"CA","Zip":"92054"},{"Location":"BREAKFAST CLUB DINER","Address":"228 N Pacific Coast Hwy","City":"Oceanside","State":"CA","Zip":"92054"},{"Location":"BREAKWATER BREWING CO","Address":"101 N Coast Hwy C140","City":"Oceanside","State":"CA","Zip":"92054"},{"Location":"BUFFALO WILD WINGS #0496","Address":"2685 Vista Way","City":"Oceanside","State":"CA","Zip":"92054"},{"Location":"BULL TACO","Address":"1815 S Coast Hwy","City":"Oceanside","State":"CA","Zip":"92054"},{"Location":"CHEESESTEAK GRILL","Address":"1771 Oceanside Blvd","City":"Oceanside","State":"CA","Zip":"92054"},{"Location":"CHILI'S #0860","Address":"2627 Vista Way","City":"Oceanside","State":"CA","Zip":"92054"},{"Location":"CIGAR GROTTO","Address":"220 N Coast Hwy","City":"Oceanside","State":"CA","Zip":"92054"},{"Location":"COAST COLLISIONS CENTER","Address":"1112 S Tremont St","City":"Oceanside","State":"CA","Zip":"92054"},{"Location":"COASTAL MARKET","Address":"432 S Coast Hwy","City":"Oceanside","State":"CA","Zip":"92054"},{"Location":"CONEHEAD INVESTMENTS","Address":"615 Mission Ave","City":"Oceanside","State":"CA","Zip":"92054"},{"Location":"CONOVER TIRES WHEELS AND","Address":"2405 Oceanside Blvd","City":"Oceanside","State":"CA","Zip":"92054"},{"Location":"CORNER LIQUOR","Address":"2600 Oceanside Blvd","City":"Oceanside","State":"CA","Zip":"92054"},{"Location":"COUNTY OF SAN DIEGO","Address":"1315 Union Plaza Ct","City":"Oceanside","State":"CA","Zip":"92054"},{"Location":"COUNTY OF SAN DIEGO 1","Address":"1320 Union Plaza Ct","City":"Oceanside","State":"CA","Zip":"92054"},{"Location":"DAVINAS CABO GRILL","Address":"212 N Tremont St","City":"Oceanside","State":"CA","Zip":"92054"},{"Location":"DC ACROSS THE STREET","Address":"105 Brooks St","City":"Oceanside","State":"CA","Zip":"92054"},{"Location":"DOHERTY CONCRETE","Address":"2850 Industry St","City":"Oceanside","State":"CA","Zip":"92054"},{"Location":"DONNA & STEVES","Address":"207 N Tremont St","City":"Oceanside","State":"CA","Zip":"92054"},{"Location":"EAST 2 WEST CUTZ","Address":"1906 Oceanside Blvd L","City":"Oceanside","State":"CA","Zip":"92054"},{"Location":"EL TORITO #7093","Address":"2693 Vista Way","City":"Oceanside","State":"CA","Zip":"92054"},{"Location":"EVERY BODY FIT","Address":"560 Greenbrier Dr 101","City":"Oceanside","State":"CA","Zip":"92054"},{"Location":"FIRE AND INSPECTIONS COM","Address":"104 S Coast Hwy","City":"Oceanside","State":"CA","Zip":"92054"},{"Location":"FIREHOUSE SUBS","Address":"2619 Vista Way B1","City":"Oceanside","State":"CA","Zip":"92054"},{"Location":"FLYING PIG PUB AND KITCHEN","Address":"626 S Tremont St","City":"Oceanside","State":"CA","Zip":"92054"},{"Location":"HANA  JAPANESE RESTURANT","Address":"2415 Vista Way","City":"Oceanside","State":"CA","Zip":"92054"},{"Location":"HON SUSHI","Address":"1733 S Coast Hwy","City":"Oceanside","State":"CA","Zip":"92054"},{"Location":"HOOLIGANS","Address":"560 Greenbrier Dr 105","City":"Oceanside","State":"CA","Zip":"92054"},{"Location":"HOSIES","Address":"113 S Coast Hwy","City":"Oceanside","State":"CA","Zip":"92054"},{"Location":"JCS #0159 - OCEANSIDE","Address":"314 Harbor Dr S","City":"Oceanside","State":"CA","Zip":"92054"},{"Location":"JENNIE","Address":"1001 S Coast Hwy","City":"Oceanside","State":"CA","Zip":"92054"},{"Location":"JOHNNY M OCEANSIDE","Address":"308 Mission Ave","City":"Oceanside","State":"CA","Zip":"92054"},{"Location":"JOLLY ROGER","Address":"1900 Harbor Dr N","City":"Oceanside","State":"CA","Zip":"92054"},{"Location":"KJORGEN ENTERPRISES INC","Address":"1537 S Coast Hwy","City":"Oceanside","State":"CA","Zip":"92054"},{"Location":"KNUCKEL HEADS BARBER SHOP","Address":"431 S Coast Hwy","City":"Oceanside","State":"CA","Zip":"92054"},{"Location":"L AND M TIRE COMPANY INC 59","Address":"1151 S Coast Hwy","City":"Oceanside","State":"CA","Zip":"92054"},{"Location":"LA CASA PIZZA","Address":"209 N Tremont St","City":"Oceanside","State":"CA","Zip":"92054"},{"Location":"LA FITNESS #28","Address":"2335 Vista Way","City":"Oceanside","State":"CA","Zip":"92054"},{"Location":"LBC  INC","Address":"1145 S Tremont St","City":"Oceanside","State":"CA","Zip":"92054"},{"Location":"LNL HAWAIIAN BBQ","Address":"2455 Vista Way","City":"Oceanside","State":"CA","Zip":"92054"},{"Location":"LOCAL TAP ROOM","Address":"308 S Coast Hwy","City":"Oceanside","State":"CA","Zip":"92054"},{"Location":"LV NAILS","Address":"518 Oceanside Blvd","City":"Oceanside","State":"CA","Zip":"92054"},{"Location":"MACARONI GRILL #1283","Address":"2655 Vista Way","City":"Oceanside","State":"CA","Zip":"92054"},{"Location":"MARTINEZ","Address":"501 S Coast Hwy A","City":"Oceanside","State":"CA","Zip":"92054"},{"Location":"MARYS RESTAURANT","Address":"307 N Coast Hwy","City":"Oceanside","State":"CA","Zip":"92054"},{"Location":"MASTERS","Address":"208 S Coast Hwy","City":"Oceanside","State":"CA","Zip":"92054"},{"Location":"MASTERTECH","Address":"1100 S Tremont St","City":"Oceanside","State":"CA","Zip":"92054"},{"Location":"MATEL GAYE","Address":"613 Mission Ave","City":"Oceanside","State":"CA","Zip":"92054"},{"Location":"MEINEKE CAR CARE","Address":"618 Mission Ave","City":"Oceanside","State":"CA","Zip":"92054"},{"Location":"MEN'S WEARHOUSE #2307","Address":"2555 Vista Way C","City":"Oceanside","State":"CA","Zip":"92054"},{"Location":"MISSION AVE BAR & GRILL","Address":"711 Mission Ave","City":"Oceanside","State":"CA","Zip":"92054"},{"Location":"NICHOLAS C BANCHE ACC","Address":"715 Pier View Way","City":"Oceanside","State":"CA","Zip":"92054"},{"Location":"NORTH COUNTY TRANSIT DISTRICT","Address":"810 Mission Ave","City":"Oceanside","State":"CA","Zip":"92054"},{"Location":"O SIDE BAR GRILL","Address":"113 S Coast Hwy","City":"Oceanside","State":"CA","Zip":"92054"},{"Location":"OCEANA LAUNDRY","Address":"815 S Coast Hwy","City":"Oceanside","State":"CA","Zip":"92054"},{"Location":"OCEANS 6","Address":"406 Pier View Way","City":"Oceanside","State":"CA","Zip":"92054"},{"Location":"OCEANS ELEVEN","Address":"121 Brooks St","City":"Oceanside","State":"CA","Zip":"92054"},{"Location":"OCEANSIDE 420","Address":"214 N Coast Hwy","City":"Oceanside","State":"CA","Zip":"92054"},{"Location":"OCEANSIDE BROILER","Address":"1325 Harbor Dr N","City":"Oceanside","State":"CA","Zip":"92054"},{"Location":"OCEANSIDE COIN LAUNDRY","Address":"1824 Oceanside Blvd D","City":"Oceanside","State":"CA","Zip":"92054"},{"Location":"OCEANSIDE SPORTS BAR","Address":"1910 Oceanside Blvd F","City":"Oceanside","State":"CA","Zip":"92054"},{"Location":"OCEANSIDE YACHT CLUB","Address":"1950 Harbor Dr N","City":"Oceanside","State":"CA","Zip":"92054"},{"Location":"PCH SPORTS BAR","Address":"1835 S Coast Hwy","City":"Oceanside","State":"CA","Zip":"92054"},{"Location":"PHO OCEANSIDE","Address":"518 Oceanside Blvd","City":"Oceanside","State":"CA","Zip":"92054"},{"Location":"PIERVIEW INVESTMENT II","Address":"301 Pier View Way","City":"Oceanside","State":"CA","Zip":"92054"},{"Location":"POPCORN ROY INC","Address":"2315 Vista Way","City":"Oceanside","State":"CA","Zip":"92054"},{"Location":"PORT OF SUBS","Address":"510 Oceanside Blvd 1","City":"Oceanside","State":"CA","Zip":"92054"},{"Location":"RED LOBSTER #6367","Address":"2471 Vista Way","City":"Oceanside","State":"CA","Zip":"92054"},{"Location":"RED ROOSTER","Address":"1985 Oceanside Blvd","City":"Oceanside","State":"CA","Zip":"92054"},{"Location":"ROCKIN BAJA COASTAL CANTINA","Address":"258 Harbor Dr S","City":"Oceanside","State":"CA","Zip":"92054"},{"Location":"ROOKIES SPORTS BAR","Address":"2216 S El Camino Real 104","City":"Oceanside","State":"CA","Zip":"92054"},{"Location":"SANTINO'S PIZZA","Address":"401 Mission Ave B120","City":"Oceanside","State":"CA","Zip":"92054"},{"Location":"SCOTTRADE 54T","Address":"2515b Vista Way","City":"Oceanside","State":"CA","Zip":"92054"},{"Location":"SMILE NAILS AND SPA","Address":"1759 Oceanside Blvd B","City":"Oceanside","State":"CA","Zip":"92054"},{"Location":"SPA NAIL DESIGN","Address":"1830 Oceanside Blvd C3","City":"Oceanside","State":"CA","Zip":"92054"},{"Location":"ST MARY STAR OF THE SEA","Address":"609 Pier View Way 1","City":"Oceanside","State":"CA","Zip":"92054"},{"Location":"STAND UP FOR KIDS","Address":"220 Oceanside Blvd","City":"Oceanside","State":"CA","Zip":"92054"},{"Location":"SURF BOWL","Address":"1401 S Coast Hwy","City":"Oceanside","State":"CA","Zip":"92054"},{"Location":"SUSHI N JOY","Address":"2530 Vista Way J","City":"Oceanside","State":"CA","Zip":"92054"},{"Location":"TARGET","Address":"2255 Elcamino Real","City":"Oceanside","State":"CA","Zip":"92054"},{"Location":"TERI CAFE INC","Address":"2216 S El Camino Real 123","City":"Oceanside","State":"CA","Zip":"92054"},{"Location":"THAI WOK INN","Address":"511 Mission Ave","City":"Oceanside","State":"CA","Zip":"92054"},{"Location":"THAT BOY GOOD","Address":"207 N Coast Hwy","City":"Oceanside","State":"CA","Zip":"92054"},{"Location":"THE BROKEN YOLK CAFE","Address":"2434 Vista Way","City":"Oceanside","State":"CA","Zip":"92054"},{"Location":"THE CUP","Address":"206 Wisconsin Ave","City":"Oceanside","State":"CA","Zip":"92054"},{"Location":"THE MAIN ATTRACTION","Address":"939 N Coast Hwy","City":"Oceanside","State":"CA","Zip":"92054"},{"Location":"THE POUR HOUSE","Address":"1903 S Coast Hwy","City":"Oceanside","State":"CA","Zip":"92054"},{"Location":"TONYS HARBOR SPORT BAR & GRILL","Address":"274 Harbor Dr S","City":"Oceanside","State":"CA","Zip":"92054"},{"Location":"TONYS SPORTS BAR AND GRILL","Address":"274 S Harbor Drive","City":"Oceanside","State":"CA","Zip":"92054"},{"Location":"TREMONT STREET BAR & GRILL","Address":"311 N Tremont St","City":"Oceanside","State":"CA","Zip":"92054"},{"Location":"TROLLMAN PROPERTIES%2CLLC","Address":"2420 Vista Way 208","City":"Oceanside","State":"CA","Zip":"92054"},{"Location":"TWENTO INC DBA POSH WASH II","Address":"306 N Horne St","City":"Oceanside","State":"CA","Zip":"92054"},{"Location":"TYS BURGER HOUSE","Address":"515 Mission Ave","City":"Oceanside","State":"CA","Zip":"92054"},{"Location":"VINCENT BARBERSHOP","Address":"1830 Oceanside Blvd C2","City":"Oceanside","State":"CA","Zip":"92054"},{"Location":"WINGS AND THINGS RESTAURANT","Address":"2525 Vista Way","City":"Oceanside","State":"CA","Zip":"92054"},{"Location":"COLIMAS RESTAURANT","Address":"1551 W Mission","City":"San Marcos","State":"CA","Zip":"92054"}]