[{"Location":"FIRESTONE #329316","Address":"51091 Basilon Rd","City":"Camp Pendalton","State":"CA","Zip":"92055"},{"Location":"MULLIGANS GOLF COURSE","Address":"Purchase Order Pnm13p0041 1108","City":"Camp Pendlenton","State":"CA","Zip":"92055"},{"Location":"4TH LAR BN","Address":"100 Nelson Road  #41407","City":"Camp Pendleton","State":"CA","Zip":"92055"},{"Location":"ASSAULT CRAFT UNIT 5","Address":"Area 31 Bldg 31916","City":"Camp Pendleton","State":"CA","Zip":"92055"},{"Location":"AVTB BLDG 210536","Address":"Bldg 210536 Kraus Street","City":"Camp Pendleton","State":"CA","Zip":"92055"},{"Location":"CAMP PENDLETON","Address":"Pcr 12  #2253","City":"Camp Pendleton","State":"CA","Zip":"92055"},{"Location":"COCOS STORE1400","Address":"Camp Pend Bldge 20845 112","City":"Camp Pendleton","State":"CA","Zip":"92055"},{"Location":"COLD STEEL SPORTS BAR","Address":"Area 21 Bldg 210-0619","City":"Camp Pendleton","State":"CA","Zip":"92055"},{"Location":"COMBAT LOGISTICS REGIMENT 15","Address":"Clr 15  #22172","City":"Camp Pendleton","State":"CA","Zip":"92055"},{"Location":"COMBAT LOGISTICS REGIMENT HQ","Address":"Clr 15  #22165","City":"Camp Pendleton","State":"CA","Zip":"92055"},{"Location":"DEL MAR BEACH RESORT","Address":"210841 12th Street","City":"Camp Pendleton","State":"CA","Zip":"92055"},{"Location":"EVENT CENTER DMBR","Address":"210841  12th Street","City":"Camp Pendleton","State":"CA","Zip":"92055"},{"Location":"FIRESTONE #329314","Address":"Camp Pendleton Vandegirft","City":"Camp Pendleton","State":"CA","Zip":"92055"},{"Location":"MARINES","Address":"Clr 1 Supply Usmc 17 St 12074","City":"Camp Pendleton","State":"CA","Zip":"92055"},{"Location":"ROBERTOS MEXICAN FOOD","Address":"Bldg 20845 110","City":"Camp Pendleton","State":"CA","Zip":"92055"},{"Location":"SAN ONOFRE BEACH RESORT","Address":"555020 Beach Club Road%2C Bldg5191","City":"Camp Pendleton","State":"CA","Zip":"92055"},{"Location":"SOUTH MESA LODGE","Address":"202870 Jacinto Road","City":"Camp Pendleton","State":"CA","Zip":"92055"},{"Location":"VENTURE HEALTH GROUP","Address":"1377 Area 13 Pendleton","City":"Camp Pendleton","State":"CA","Zip":"92055"},{"Location":"VENTURE HEALTH GROUP LLC","Address":"Building 20845","City":"Camp Pendleton","State":"CA","Zip":"92055"},{"Location":"VINEYARD RETAIL STORE","Address":"15101 Vandegrift Road","City":"Camp Pendleton","State":"CA","Zip":"92055"},{"Location":"MAIN BUILDING 32942","Address":"3rd Laad Bn","City":"Camp Pendton","State":"CA","Zip":"92055"},{"Location":"MARINE CORPS BASE","Address":"Range     116 Marine Corp","City":"Camp Pennelton","State":"CA","Zip":"92055"},{"Location":"FINEST CITY REGISTRATION","Address":"11002 T Mainside","City":"Oceanside","State":"CA","Zip":"92055"},{"Location":"MARINE COURT COMMUNITY SVC","Address":"Building 2662  #2662","City":"Oceanside","State":"CA","Zip":"92055"}]