[{"Location":"ACUSHNET COMPANY-PPI","Address":"4033 Avenida De La Plata","City":"Oceanside","State":"CA","Zip":"92056"},{"Location":"AGRI SERVICE","Address":"3210 Oceanside Blvd","City":"Oceanside","State":"CA","Zip":"92056"},{"Location":"BARBER AND BEAUTY SHOP","Address":"3504 College Blvd A","City":"Oceanside","State":"CA","Zip":"92056"},{"Location":"CHRISTOPHER H LAYTON DDS PC","Address":"3809 Plaza Dr 114","City":"Oceanside","State":"CA","Zip":"92056"},{"Location":"COAST DENTAL","Address":"1976 College Blvd","City":"Oceanside","State":"CA","Zip":"92056"},{"Location":"COCA COLA","Address":"3900 Ocean Ranch Blvd","City":"Oceanside","State":"CA","Zip":"92056"},{"Location":"CURTIS E MCRAE DDS","Address":"3601 Vista Way 205","City":"Oceanside","State":"CA","Zip":"92056"},{"Location":"DANIEL & CO DAY SPA","Address":"4170 Oceanside Blvd","City":"Oceanside","State":"CA","Zip":"92056"},{"Location":"DAPHNES GREEK","Address":"3480 Marron Rd 3b104","City":"Oceanside","State":"CA","Zip":"92056"},{"Location":"DICK'S SPORTING GOODS #931","Address":"3514 College Blvd","City":"Oceanside","State":"CA","Zip":"92056"},{"Location":"EL CORAZON SENIOR CENTER","Address":"3302 Senior Center Dr","City":"Oceanside","State":"CA","Zip":"92056"},{"Location":"ENZO BBQ","Address":"4121 Oceanside Blvd 201","City":"Oceanside","State":"CA","Zip":"92056"},{"Location":"FALVEY INC.","Address":"4196 Oceanside Blvd A","City":"Oceanside","State":"CA","Zip":"92056"},{"Location":"GILEAD SCIENCES","Address":"4049 Avenida De La Plata","City":"Oceanside","State":"CA","Zip":"92056"},{"Location":"GILEAD SCIENCES","Address":"4039 Avenida De La Plata","City":"Oceanside","State":"CA","Zip":"92056"},{"Location":"GO GO JAPAN","Address":"4121 Oceanside Blvd 202","City":"Oceanside","State":"CA","Zip":"92056"},{"Location":"GREAT EXPECTATIONS SERVICES","Address":"4825 Glenhaven Dr","City":"Oceanside","State":"CA","Zip":"92056"},{"Location":"GSM","Address":"3921 Oceanic Dr 803","City":"Oceanside","State":"CA","Zip":"92056"},{"Location":"HOOTERS OCEANSIDE OSD106","Address":"3186 Vista Way","City":"Oceanside","State":"CA","Zip":"92056"},{"Location":"I LOVE BAGELS","Address":"3910 Vista Way 101","City":"Oceanside","State":"CA","Zip":"92056"},{"Location":"I LOVE PHO","Address":"3809 Plaza Dr 115","City":"Oceanside","State":"CA","Zip":"92056"},{"Location":"JERSEY MIKES SUBS","Address":"4111 Oceanside Blvd 100","City":"Oceanside","State":"CA","Zip":"92056"},{"Location":"JUNKYARD GRILL","Address":"3613 Ocean Ranch Blvd 108","City":"Oceanside","State":"CA","Zip":"92056"},{"Location":"KAISER OCEANSIDE","Address":"1302 Rocky Point Dr","City":"Oceanside","State":"CA","Zip":"92056"},{"Location":"LA CANTINA DOORS","Address":"3817 Ocean Ranch Blvd 114","City":"Oceanside","State":"CA","Zip":"92056"},{"Location":"LANDMARK MFG","Address":"4112 Avenida De La Plata","City":"Oceanside","State":"CA","Zip":"92056"},{"Location":"MI AZADOR","Address":"4750 Oceanside Blvd A23","City":"Oceanside","State":"CA","Zip":"92056"},{"Location":"MIT ENGINEERING","Address":"3720 Oceanic Way 205","City":"Oceanside","State":"CA","Zip":"92056"},{"Location":"MOSSY NISSAN - CE2-1","Address":"3535 College Blvd","City":"Oceanside","State":"CA","Zip":"92056"},{"Location":"MWI INC.","Address":"4695 North Ave","City":"Oceanside","State":"CA","Zip":"92056"},{"Location":"NORTH COUNTY COSMETIC & IMPLAN","Address":"4161 Oceanside Blvd 102","City":"Oceanside","State":"CA","Zip":"92056"},{"Location":"NORTH SAN DIEGO ENDODONTICS","Address":"3601 Vista Way 202","City":"Oceanside","State":"CA","Zip":"92056"},{"Location":"NUMBER ONE NAILS","Address":"3504 College Blvd E","City":"Oceanside","State":"CA","Zip":"92056"},{"Location":"OCEANSIDE COURTYARD BAR","Address":"3501 Seagate Way","City":"Oceanside","State":"CA","Zip":"92056"},{"Location":"OCEANSIDE COURTYARD LOBB","Address":"3501 Seagate Way","City":"Oceanside","State":"CA","Zip":"92056"},{"Location":"OCEANSIDE MEDICAL CONTRO","Address":"3910 Vista Way 112","City":"Oceanside","State":"CA","Zip":"92056"},{"Location":"OCEANSIDE POLICE OFFICERS ASSC","Address":"1935 Avenida Del Oro D","City":"Oceanside","State":"CA","Zip":"92056"},{"Location":"ORTHEPEDIC SPECIALIST","Address":"3905 Waring Rd","City":"Oceanside","State":"CA","Zip":"92056"},{"Location":"PACIFIC MARINE CREDIT UNION","Address":"1278 Rocky Point Dr","City":"Oceanside","State":"CA","Zip":"92056"},{"Location":"PERFECT NAILS","Address":"4225 Oceanside Blvd J","City":"Oceanside","State":"CA","Zip":"92056"},{"Location":"PLANET FITNESS","Address":"4130 Oceanside Blvd","City":"Oceanside","State":"CA","Zip":"92056"},{"Location":"RANCHO DEL ORO CAR WASH","Address":"4101 Oceanside Blvd","City":"Oceanside","State":"CA","Zip":"92056"},{"Location":"RMC AUTOMOTIVE SPECIALTIES","Address":"4089 Oceanside Blvd G","City":"Oceanside","State":"CA","Zip":"92056"},{"Location":"RORICK & ALLEN DENTAL","Address":"4110 Oceanside Blvd","City":"Oceanside","State":"CA","Zip":"92056"},{"Location":"ROSINA ITALIAN","Address":"3613 Ocean Ranch Blvd","City":"Oceanside","State":"CA","Zip":"92056"},{"Location":"ROUND TABLE PIZZA-MARRON","Address":"3440 Marron Rd","City":"Oceanside","State":"CA","Zip":"92056"},{"Location":"SAN LUIS MEXICAN FOOD","Address":"2600 Temple Heights Dr","City":"Oceanside","State":"CA","Zip":"92056"},{"Location":"SEASIDE HELICOPTERS","Address":"2580 Jason Ct","City":"Oceanside","State":"CA","Zip":"92056"},{"Location":"SHAKEY'S PIZZA PARLOR","Address":"4141 Oceanside Blvd","City":"Oceanside","State":"CA","Zip":"92056"},{"Location":"SPORT CLIPS CA411","Address":"4259 Oceanside Blvd 102","City":"Oceanside","State":"CA","Zip":"92056"},{"Location":"TERI CAFE #2","Address":"3809 Plaza Dr 101","City":"Oceanside","State":"CA","Zip":"92056"},{"Location":"THE DRAFT","Address":"4225 Oceanside Blvd R","City":"Oceanside","State":"CA","Zip":"92056"},{"Location":"THE INSURANCE PLACE","Address":"3829 Plaza Dr 603","City":"Oceanside","State":"CA","Zip":"92056"},{"Location":"THE SUPER DENTISTS","Address":"3625 Vista Way","City":"Oceanside","State":"CA","Zip":"92056"},{"Location":"TRINITY WOODWORKS","Address":"2620 Temple Heights Dr","City":"Oceanside","State":"CA","Zip":"92056"},{"Location":"TWENTO DBA PLAZA LAUNDRY","Address":"3504 College Blvd","City":"Oceanside","State":"CA","Zip":"92056"},{"Location":"UNEAK DESIGN","Address":"2613 Temple Heights Dr F","City":"Oceanside","State":"CA","Zip":"92056"},{"Location":"VANESSA NAILS","Address":"4750 Oceanside Blvd A11","City":"Oceanside","State":"CA","Zip":"92056"},{"Location":"WILLIAM C STEVENSON DDS","Address":"3809 Plaza Dr 102","City":"Oceanside","State":"CA","Zip":"92056"}]