[{"Location":"ANOTHER ANGLE","Address":"385 Via El Centro","City":"Oceanside","State":"CA","Zip":"92058"},{"Location":"CALIGERMAN PARTNERS  LLC","Address":"3375 Mission Ave K","City":"Oceanside","State":"CA","Zip":"92058"},{"Location":"CITY KUTZ","Address":"3870 Mission Ave D2","City":"Oceanside","State":"CA","Zip":"92058"},{"Location":"CITY OF OCEANSIDE","Address":"3950 N River Rd","City":"Oceanside","State":"CA","Zip":"92058"},{"Location":"CNS PRODUCTS","Address":"102 Copperwood Way D","City":"Oceanside","State":"CA","Zip":"92058"},{"Location":"COPPERWOOD BARBERSHOP","Address":"3375 Mission Ave B","City":"Oceanside","State":"CA","Zip":"92058"},{"Location":"EXTREME POWER GYM","Address":"3375 Mission Ave E","City":"Oceanside","State":"CA","Zip":"92058"},{"Location":"FLETCHER","Address":"612 Los Arbolitos Blvd Ofc","City":"Oceanside","State":"CA","Zip":"92058"},{"Location":"HYDRANAUTICS","Address":"401 Jones Rd","City":"Oceanside","State":"CA","Zip":"92058"},{"Location":"KILLER PFM INC","Address":"3772 Mission Ave 127","City":"Oceanside","State":"CA","Zip":"92058"},{"Location":"LEGACY BREWING","Address":"363 Airport Rd","City":"Oceanside","State":"CA","Zip":"92058"},{"Location":"LENS AUTO BODY","Address":"510 Jones Rd","City":"Oceanside","State":"CA","Zip":"92058"},{"Location":"MARY HARRIS BARBER SHOP","Address":"164 Roymar Rd","City":"Oceanside","State":"CA","Zip":"92058"},{"Location":"MISSION ASIA(UNLIMITED TRAVEL)","Address":"3320 Mission Ave L","City":"Oceanside","State":"CA","Zip":"92058"},{"Location":"NELLIES BEAUTY SALON","Address":"1927 Mission Ave","City":"Oceanside","State":"CA","Zip":"92058"},{"Location":"NEW SONG COMMUNITY CHURCH","Address":"3985 Mission Ave","City":"Oceanside","State":"CA","Zip":"92058"},{"Location":"NORTH COUNTY TRANSIT DISTRICT","Address":"305 Via Del Norte","City":"Oceanside","State":"CA","Zip":"92058"},{"Location":"NORTH COUNTY TRANST DIST","Address":"303 Via Del Norte","City":"Oceanside","State":"CA","Zip":"92058"},{"Location":"OCEANSIDE FAMILY DENTAL CARE","Address":"3753 Misson Ave #116","City":"Oceanside","State":"CA","Zip":"92058"},{"Location":"OCEANSIDE POLICE DEPARTMENT","Address":"3855 Mission Ave","City":"Oceanside","State":"CA","Zip":"92058"},{"Location":"OCEANSIDE SWAP MEET LLC","Address":"3480 Mission Ave","City":"Oceanside","State":"CA","Zip":"92058"},{"Location":"OG LLC OCEANSIDE GC","Address":"825 Douglas Dr","City":"Oceanside","State":"CA","Zip":"92058"},{"Location":"ONE MORE THATS IT","Address":"231 Airport Rd","City":"Oceanside","State":"CA","Zip":"92058"},{"Location":"REACH AIR MED","Address":"480 Airport Rd","City":"Oceanside","State":"CA","Zip":"92058"},{"Location":"RICHELE D JEMIOLA","Address":"3965 Mission Ave 7","City":"Oceanside","State":"CA","Zip":"92058"},{"Location":"RUBI BEAUTY SALON","Address":"409 San Diego St","City":"Oceanside","State":"CA","Zip":"92058"},{"Location":"SAN DIEGO HUMANE SOCIETY","Address":"2905 San Luis Rey Rd","City":"Oceanside","State":"CA","Zip":"92058"},{"Location":"SDHS AIRPORT ROAD","Address":"576 Airport Rd","City":"Oceanside","State":"CA","Zip":"92058"},{"Location":"SMOKE DEPOT","Address":"3772 Mission Ave 131","City":"Oceanside","State":"CA","Zip":"92058"},{"Location":"TAP THAT","Address":"3207 Roymar Rd E","City":"Oceanside","State":"CA","Zip":"92058"},{"Location":"TEDS TIRE & TOTAL CAR CA","Address":"3598 Mission Ave","City":"Oceanside","State":"CA","Zip":"92058"},{"Location":"TERRY'S AUTO BODY","Address":"1408 Mission Ave","City":"Oceanside","State":"CA","Zip":"92058"}]