[{"Location":"PALA BAND MISSION","Address":"2003 Pala Mission Cir","City":"Pala","State":"CA","Zip":"92059"},{"Location":"PALA BAND MISSION INDIANS 2","Address":"34884 Lilac Extension Rd","City":"Pala","State":"CA","Zip":"92059"},{"Location":"PALA BAND OF MISSION INDIANS","Address":"12196 Pala Temelula Rd","City":"Pala","State":"CA","Zip":"92059"},{"Location":"PALA BAND OF MISSION INDIANS 1","Address":"34884 Lilac Extension Rd","City":"Pala","State":"CA","Zip":"92059"},{"Location":"PALA CASINO","Address":"11154 Highway 76","City":"Pala","State":"CA","Zip":"92059"},{"Location":"PALA CASINO SPA RESORT","Address":"11154 Highway 76","City":"Pala","State":"CA","Zip":"92059"},{"Location":"PALA FITNESS CENTER","Address":"12194 Pala Mission Rd","City":"Pala","State":"CA","Zip":"92059"},{"Location":"PALA FLEET DEPARTMENT","Address":"11805 A Robles Road","City":"Pala","State":"CA","Zip":"92059"},{"Location":"PALA STORE","Address":"3000 E Pala Msn","City":"Pala","State":"CA","Zip":"92059"},{"Location":"PALA TUBBS","Address":"2992 Pala Mission Rd","City":"Pala","State":"CA","Zip":"92059"},{"Location":"SCTCA","Address":"10975 Pala Rd","City":"Pala","State":"CA","Zip":"92059"},{"Location":"SOUTHERN CALI TRIBAL CHAIR","Address":"36146 Pala Temecula Rd A","City":"Pala","State":"CA","Zip":"92059"},{"Location":"SOUTHERN CALI TRIBAL CHAIRMAN","Address":"36146 Pala Temecula Rd G","City":"Pala","State":"CA","Zip":"92059"},{"Location":"SOUTHERN CALI TRIBAL CHAIRMAN","Address":"36146 Pala Temecula Rd I","City":"Pala","State":"CA","Zip":"92059"},{"Location":"SOUTHERN CALI TRIBAL CHAIRMEN","Address":"36146 Pala Temecula Rd L","City":"Pala","State":"CA","Zip":"92059"},{"Location":"SOUTHERN CALI TRIBAL HR","Address":"36146 Pala Temecula Rd H","City":"Pala","State":"CA","Zip":"92059"},{"Location":"SOUTHERN CALI TRIBAL PALA ANNE","Address":"36146 Pala Temecula Rd D","City":"Pala","State":"CA","Zip":"92059"},{"Location":"SOUTHERN CALI TRIBAL PALA PRIN","Address":"36146 Pala Temecula Rd J","City":"Pala","State":"CA","Zip":"92059"}]