[{"Location":"ALDILA","Address":"14145 Danielson St B","City":"Poway","State":"CA","Zip":"92064"},{"Location":"ALIBERTOS  TACO SHOP","Address":"14829 Pomerado Rd","City":"Poway","State":"CA","Zip":"92064"},{"Location":"AMWINS TRANSPORTATION INC","Address":"13025 Danielson St 105","City":"Poway","State":"CA","Zip":"92064"},{"Location":"ANYTIME FITNESS","Address":"12222 Poway Rd 7","City":"Poway","State":"CA","Zip":"92064"},{"Location":"APRICORN INC","Address":"12191 Kirkham Rd","City":"Poway","State":"CA","Zip":"92064"},{"Location":"BAY CITY ELECTRIC WORKS","Address":"13625 Danielson St","City":"Poway","State":"CA","Zip":"92064"},{"Location":"BENCHMARK LANDSCAPE","Address":"12575 Stowe Dr","City":"Poway","State":"CA","Zip":"92064"},{"Location":"BGRIGANTINE POWAY","Address":"13445 Poway Rd","City":"Poway","State":"CA","Zip":"92064"},{"Location":"BONGIORNOS PIZZA","Address":"13332 Poway Rd","City":"Poway","State":"CA","Zip":"92064"},{"Location":"BRACES BY HENRY","Address":"15525 Pomerado Rd C4","City":"Poway","State":"CA","Zip":"92064"},{"Location":"BRUSKI POWAY","Address":"12622 Poway Rd A","City":"Poway","State":"CA","Zip":"92064"},{"Location":"CBT SYSTEMS INC","Address":"12585 Kirkham Ct","City":"Poway","State":"CA","Zip":"92064"},{"Location":"CHCT PROPERTIES%2C LLC","Address":"13955 Stowe Dr","City":"Poway","State":"CA","Zip":"92064"},{"Location":"CHIEFS REGENT","Address":"12462 Poway Rd","City":"Poway","State":"CA","Zip":"92064"},{"Location":"CHROME COLLISION","Address":"13175 Gregg St","City":"Poway","State":"CA","Zip":"92064"},{"Location":"COMPANY PUB AND KITCHEN","Address":"13670 Poway Rd 110","City":"Poway","State":"CA","Zip":"92064"},{"Location":"COTIXAN","Address":"12612 Poway Rd","City":"Poway","State":"CA","Zip":"92064"},{"Location":"CRAWFORD & COMPANY","Address":"13370 Kirkham Way","City":"Poway","State":"CA","Zip":"92064"},{"Location":"DAPHNES GREEK REST.","Address":"13487 Poway Rd","City":"Poway","State":"CA","Zip":"92064"},{"Location":"DENTAL MAANGEMENT CARE I","Address":"12620 Monte Vista Rd D","City":"Poway","State":"CA","Zip":"92064"},{"Location":"DEPUTY SHERRIFS ASSOCIATION","Address":"13881 Danielson St","City":"Poway","State":"CA","Zip":"92064"},{"Location":"EAGLE PAVING","Address":"12700 Stowe Dr 200","City":"Poway","State":"CA","Zip":"92064"},{"Location":"EAT YOUR HEART OUT DELI","Address":"12600 Stowe Dr","City":"Poway","State":"CA","Zip":"92064"},{"Location":"ELECTRONIC CONTROL SYSTEMS","Address":"12575 Kirkham Ct 1","City":"Poway","State":"CA","Zip":"92064"},{"Location":"EXPRESS TIRE","Address":"12619 Poway Rd","City":"Poway","State":"CA","Zip":"92064"},{"Location":"FANCY NAIL & SPA","Address":"13533 Poway Rd 1507","City":"Poway","State":"CA","Zip":"92064"},{"Location":"GAINES MANUFACTURING INC","Address":"12200 Kirkham Rd","City":"Poway","State":"CA","Zip":"92064"},{"Location":"GAME DAY SPORT","Address":"14767 Pomerado Rd","City":"Poway","State":"CA","Zip":"92064"},{"Location":"GASE","Address":"15546 Pomerado Rd","City":"Poway","State":"CA","Zip":"92064"},{"Location":"GATEWAY DENTISTRY","Address":"15725 Pomerado Rd 204","City":"Poway","State":"CA","Zip":"92064"},{"Location":"GEICO DIRECT","Address":"14111 Danielson St","City":"Poway","State":"CA","Zip":"92064"},{"Location":"HIDDEN VALLEY RANCH","Address":"17150 Old Coach Rd","City":"Poway","State":"CA","Zip":"92064"},{"Location":"HME","Address":"14110 Stowe Dr","City":"Poway","State":"CA","Zip":"92064"},{"Location":"I PO BBQ","Address":"12370 Poway Rd","City":"Poway","State":"CA","Zip":"92064"},{"Location":"ICHIZEN","Address":"13307 Poway Rd","City":"Poway","State":"CA","Zip":"92064"},{"Location":"JAKKS PACIFIC INC","Address":"12120 Kear Pl","City":"Poway","State":"CA","Zip":"92064"},{"Location":"JAPER ELECTRONICS","Address":"12255 Kirkham Rd","City":"Poway","State":"CA","Zip":"92064"},{"Location":"JEFFERSON CORPORATION","Address":"12350 Oak Knoll Rd","City":"Poway","State":"CA","Zip":"92064"},{"Location":"JUERGEN LANGENBACH DMD","Address":"15725 Pomerado Rd 104","City":"Poway","State":"CA","Zip":"92064"},{"Location":"KAI SUSHI RESTAURANT","Address":"13425 Poway Rd C","City":"Poway","State":"CA","Zip":"92064"},{"Location":"KAMINSKI'S BAR B QUE","Address":"12735 Poway Rd","City":"Poway","State":"CA","Zip":"92064"},{"Location":"KENNETH AND BERRIN DDS INC","Address":"13132 Poway Rd B","City":"Poway","State":"CA","Zip":"92064"},{"Location":"KONTRON AMERICA INC","Address":"14118 Stowe Dr","City":"Poway","State":"CA","Zip":"92064"},{"Location":"L 3 COMMUNICATIONS","Address":"12131 Community Rd A","City":"Poway","State":"CA","Zip":"92064"},{"Location":"LA FITNESS #66","Address":"12648 Poway Rd","City":"Poway","State":"CA","Zip":"92064"},{"Location":"LUKES BISTRO","Address":"12642 Poway Rd 18","City":"Poway","State":"CA","Zip":"92064"},{"Location":"LUMPIA HOUSE","Address":"14897 Pomerado Rd","City":"Poway","State":"CA","Zip":"92064"},{"Location":"MADERAS GOLF CLUB","Address":"17704 Old Coach Rd","City":"Poway","State":"CA","Zip":"92064"},{"Location":"MADERAS GOLF CLUB","Address":"17750 Old Coach Rd","City":"Poway","State":"CA","Zip":"92064"},{"Location":"MAINSTREAM BAR AND GRILL","Address":"13385 Poway Rd","City":"Poway","State":"CA","Zip":"92064"},{"Location":"MARK COLLINS DENTISTRY","Address":"12285 Scripps Poway Pkwy 102","City":"Poway","State":"CA","Zip":"92064"},{"Location":"MEXICOCINA RESTAURANT & TEQUIL","Address":"12213 Poway Rd","City":"Poway","State":"CA","Zip":"92064"},{"Location":"MITCHELL 1","Address":"14145 Danielson St","City":"Poway","State":"CA","Zip":"92064"},{"Location":"MJNA HOLDINGS","Address":"12975 Brookprinter Pl 180","City":"Poway","State":"CA","Zip":"92064"},{"Location":"MOSSY NISSAN POWAY","Address":"14100 Poway Rd","City":"Poway","State":"CA","Zip":"92064"},{"Location":"NEW YORK JOE'S PLACE","Address":"12821 Poway Rd","City":"Poway","State":"CA","Zip":"92064"},{"Location":"NEWMANS SPORTS BAR","Address":"12440 Poway Rd","City":"Poway","State":"CA","Zip":"92064"},{"Location":"NORTH COUNTY SOCCER PARK","Address":"14530 Espola Rd","City":"Poway","State":"CA","Zip":"92064"},{"Location":"NWK HOLDINGS LLC","Address":"13715 Stowe Dr","City":"Poway","State":"CA","Zip":"92064"},{"Location":"ODM","Address":"13840 Stowe Dr","City":"Poway","State":"CA","Zip":"92064"},{"Location":"OGDENS CLEANERS & VALET","Address":"12654 Poway Rd","City":"Poway","State":"CA","Zip":"92064"},{"Location":"OUTBACK STEAKHOUSE #0555","Address":"14701 Pomerado Rd","City":"Poway","State":"CA","Zip":"92064"},{"Location":"PACIFIC BARBER SHOP","Address":"12642 Poway Rd 10","City":"Poway","State":"CA","Zip":"92064"},{"Location":"PAPA DUKES DELI AND GRILL","Address":"12169 Kirkham Rd","City":"Poway","State":"CA","Zip":"92064"},{"Location":"PATRICKS IRISH PUB","Address":"13314 Poway Road","City":"Poway","State":"CA","Zip":"92064"},{"Location":"PHO POWAY","Address":"12316 Poway Rd","City":"Poway","State":"CA","Zip":"92064"},{"Location":"PLAYERS POWAY","Address":"13437 Community Rd","City":"Poway","State":"CA","Zip":"92064"},{"Location":"POELMAN DDS INC","Address":"15525 Palmerado Rd D 6","City":"Poway","State":"CA","Zip":"92064"},{"Location":"POMERADO LEASING NO 6","Address":"13029 Danielson St 130","City":"Poway","State":"CA","Zip":"92064"},{"Location":"POWAY ALTERATION CENTRE","Address":"12323 Poway Rd","City":"Poway","State":"CA","Zip":"92064"},{"Location":"POWAY FUN BOWL","Address":"12941 Poway Rd","City":"Poway","State":"CA","Zip":"92064"},{"Location":"POWAY IRISH PUB","Address":"13316 Poway Rd","City":"Poway","State":"CA","Zip":"92064"},{"Location":"POWAY POOR BOY SUBS","Address":"13432 Poway Rd","City":"Poway","State":"CA","Zip":"92064"},{"Location":"POWAY SUSHI","Address":"13132 Poway Rd","City":"Poway","State":"CA","Zip":"92064"},{"Location":"RAFI SARDI","Address":"14713 Pomerado Rd","City":"Poway","State":"CA","Zip":"92064"},{"Location":"RIGOBERTOS TACO SHOP 1","Address":"16961 Platinum Place","City":"Poway","State":"CA","Zip":"92064"},{"Location":"ROUND TABLE","Address":"13510 Poway Rd","City":"Poway","State":"CA","Zip":"92064"},{"Location":"SCRIPPS POWAY CORPORATE","Address":"13475 Danielson St","City":"Poway","State":"CA","Zip":"92064"},{"Location":"SHIC","Address":"13475 Danielson St 110","City":"Poway","State":"CA","Zip":"92064"},{"Location":"SPORTSPLEX  USA","Address":"12349 Mcivers Ct","City":"Poway","State":"CA","Zip":"92064"},{"Location":"STAR STATION SNOKE CHECK","Address":"13556 Poway Rd","City":"Poway","State":"CA","Zip":"92064"},{"Location":"STONERIDGE COUNTRY CLUB1","Address":"17166 Stoneridge Country Club L","City":"Poway","State":"CA","Zip":"92064"},{"Location":"SYSCO FOODS","Address":"12180 Kirkham Rd","City":"Poway","State":"CA","Zip":"92064"},{"Location":"TARGET","Address":"14823 Pomerado Rd","City":"Poway","State":"CA","Zip":"92064"},{"Location":"TEKWORKS","Address":"13000 Gregg St B","City":"Poway","State":"CA","Zip":"92064"},{"Location":"TLC HOMES","Address":"13436 Poway Rd","City":"Poway","State":"CA","Zip":"92064"},{"Location":"VILLA CAPRI RISTORANTE","Address":"14771 Pomerado Rd","City":"Poway","State":"CA","Zip":"92064"},{"Location":"DENALIS","Address":"13158 Poway Rd","City":"Poway Rd","State":"CA","Zip":"92064"},{"Location":"DFIT SUBS 1","Address":"12285 Scripts Highway Pkway","City":"Toway","State":"CA","Zip":"92064"}]