[{"Location":"SAN DIEGO NATIONAL BANK","Address":"16083 San Dieuito Rd","City":"Racho Santa Fe","State":"CA","Zip":"92067"},{"Location":"FAIRBANKS RANCH COUNTRY","Address":"15150 San Dieguito Rd","City":"Rancho Sant Fe","State":"CA","Zip":"92067"},{"Location":"BANC OF CALIFORNIA","Address":"16975 Avenida De Acacius%2C Suite","City":"Rancho Santa Fe","State":"CA","Zip":"92067"},{"Location":"BLACK ROCK THOROUGHBREDS LLLP","Address":"17872 Via De Fortuna","City":"Rancho Santa Fe","State":"CA","Zip":"92067"},{"Location":"BRISTRORANCHO SANTA FE","Address":"6024 Paseo Delicias C","City":"Rancho Santa Fe","State":"CA","Zip":"92067"},{"Location":"CLEAR SPRING FARM","Address":"17575 Rancho La Noria","City":"Rancho Santa Fe","State":"CA","Zip":"92067"},{"Location":"CRS TEMPORARY HOUSING","Address":"17116 Paseo Hermosa","City":"Rancho Santa Fe","State":"CA","Zip":"92067"},{"Location":"CULVER AND ASSOCIATES","Address":"6046 El Tordo St  #b1","City":"Rancho Santa Fe","State":"CA","Zip":"92067"},{"Location":"DACHA LLC","Address":"6177 El Tordo","City":"Rancho Santa Fe","State":"CA","Zip":"92067"},{"Location":"GENERAL RENEW ENGLAND ASSET","Address":"16908 Viade Santa Fe","City":"Rancho Santa Fe","State":"CA","Zip":"92067"},{"Location":"HORIZON CHRISTIAN FELLOWSHIP","Address":"6365 El Apajo","City":"Rancho Santa Fe","State":"CA","Zip":"92067"},{"Location":"INN AT RANCHO SANTA FE","Address":"5951 Linea Del Cielo 95","City":"Rancho Santa Fe","State":"CA","Zip":"92067"},{"Location":"MARCO POLO INCORPORATED","Address":"6893 Spyglass Lane","City":"Rancho Santa Fe","State":"CA","Zip":"92067"},{"Location":"MORGAN STANLEY 100206","Address":"6006 El Torodo","City":"Rancho Santa Fe","State":"CA","Zip":"92067"},{"Location":"RANCHO SANTA FE GOLF","Address":"Po Box A","City":"Rancho Santa Fe","State":"CA","Zip":"92067"},{"Location":"RANCHO SANTAFE BARBER SALON","Address":"6024 La Granada Rd","City":"Rancho Santa Fe","State":"CA","Zip":"92067"},{"Location":"RANCHO VALENCIA RESORT &","Address":"5921 Valencia Circle","City":"Rancho Santa Fe","State":"CA","Zip":"92067"},{"Location":"RANCHO VALENCIA RESORT%2FPONY RM","Address":"5921 Valencia Cir","City":"Rancho Santa Fe","State":"CA","Zip":"92067"},{"Location":"RANCHO VALENCIA RESRT%2FWINE CAV","Address":"5921 Valencia Cir","City":"Rancho Santa Fe","State":"CA","Zip":"92067"},{"Location":"RANCHO VALENCIA REST&SPA","Address":"5921 Valencia Cir","City":"Rancho Santa Fe","State":"CA","Zip":"92067"},{"Location":"SANTA FE IRRIGATION DISTRICT","Address":"5920 Linea Del Cielo","City":"Rancho Santa Fe","State":"CA","Zip":"92067"},{"Location":"SANTE FE WATER DISTRICT","Address":"18535 Aliso Canyon Rd","City":"Rancho Santa Fe","State":"CA","Zip":"92067"},{"Location":"SCRIPPS FAMILY ENERPRISES INC","Address":"16975 Avenida De Acacais","City":"Rancho Santa Fe","State":"CA","Zip":"92067"},{"Location":"TRANQUILITY PROPERTY MAN INC","Address":"16701 Comeno Sierra Del Sur","City":"Rancho Santa Fe","State":"CA","Zip":"92067"},{"Location":"UNETUI","Address":"15815 Bella Siena","City":"Rancho Santa Fe","State":"CA","Zip":"92067"},{"Location":"WEALTH ADVISORS INC","Address":"16909 Via De Santa Fe 202","City":"Rancho Santa Fe","State":"CA","Zip":"92067"},{"Location":"WESTERN ENERGY PRODUCTION LLC","Address":"16909 Via De Santa Fe","City":"Rancho Santa Fe","State":"CA","Zip":"92067"},{"Location":"WILLOW CREEK RANCH","Address":"6451 El Sicomoro St","City":"Rancho Santa Fe","State":"CA","Zip":"92067"},{"Location":"BANK OF AMERICA","Address":"6002 El Tordo 1","City":"Rancho Sante Fe","State":"CA","Zip":"92067"},{"Location":"SAN DIEGO NATIONAL BANK","Address":"16083 San Dieuito Rd","City":"Racho Santa Fe","State":"CA","Zip":"92067"},{"Location":"FAIRBANKS RANCH COUNTRY","Address":"15150 San Dieguito Rd","City":"Rancho Sant Fe","State":"CA","Zip":"92067"},{"Location":"BANC OF CALIFORNIA","Address":"16975 Avenida De Acacius%2C Suite","City":"Rancho Santa Fe","State":"CA","Zip":"92067"},{"Location":"BLACK ROCK THOROUGHBREDS LLLP","Address":"17872 Via De Fortuna","City":"Rancho Santa Fe","State":"CA","Zip":"92067"},{"Location":"BRISTRORANCHO SANTA FE","Address":"6024 Paseo Delicias C","City":"Rancho Santa Fe","State":"CA","Zip":"92067"},{"Location":"CLEAR SPRING FARM","Address":"17575 Rancho La Noria","City":"Rancho Santa Fe","State":"CA","Zip":"92067"},{"Location":"CRS TEMPORARY HOUSING","Address":"17116 Paseo Hermosa","City":"Rancho Santa Fe","State":"CA","Zip":"92067"},{"Location":"CULVER AND ASSOCIATES","Address":"6046 El Tordo St  #b1","City":"Rancho Santa Fe","State":"CA","Zip":"92067"},{"Location":"DACHA LLC","Address":"6177 El Tordo","City":"Rancho Santa Fe","State":"CA","Zip":"92067"},{"Location":"GENERAL RENEW ENGLAND ASSET","Address":"16908 Viade Santa Fe","City":"Rancho Santa Fe","State":"CA","Zip":"92067"},{"Location":"HORIZON CHRISTIAN FELLOWSHIP","Address":"6365 El Apajo","City":"Rancho Santa Fe","State":"CA","Zip":"92067"},{"Location":"INN AT RANCHO SANTA FE","Address":"5951 Linea Del Cielo 95","City":"Rancho Santa Fe","State":"CA","Zip":"92067"},{"Location":"MARCO POLO INCORPORATED","Address":"6893 Spyglass Lane","City":"Rancho Santa Fe","State":"CA","Zip":"92067"},{"Location":"MORGAN STANLEY 100206","Address":"6006 El Torodo","City":"Rancho Santa Fe","State":"CA","Zip":"92067"},{"Location":"RANCHO SANTA FE GOLF","Address":"Po Box A","City":"Rancho Santa Fe","State":"CA","Zip":"92067"},{"Location":"RANCHO SANTAFE BARBER SALON","Address":"6024 La Granada Rd","City":"Rancho Santa Fe","State":"CA","Zip":"92067"},{"Location":"RANCHO VALENCIA RESORT &","Address":"5921 Valencia Circle","City":"Rancho Santa Fe","State":"CA","Zip":"92067"},{"Location":"RANCHO VALENCIA RESORT%2FPONY RM","Address":"5921 Valencia Cir","City":"Rancho Santa Fe","State":"CA","Zip":"92067"},{"Location":"RANCHO VALENCIA RESRT%2FWINE CAV","Address":"5921 Valencia Cir","City":"Rancho Santa Fe","State":"CA","Zip":"92067"},{"Location":"RANCHO VALENCIA REST&SPA","Address":"5921 Valencia Cir","City":"Rancho Santa Fe","State":"CA","Zip":"92067"},{"Location":"SANTA FE IRRIGATION DISTRICT","Address":"5920 Linea Del Cielo","City":"Rancho Santa Fe","State":"CA","Zip":"92067"},{"Location":"SANTE FE WATER DISTRICT","Address":"18535 Aliso Canyon Rd","City":"Rancho Santa Fe","State":"CA","Zip":"92067"},{"Location":"SCRIPPS FAMILY ENERPRISES INC","Address":"16975 Avenida De Acacais","City":"Rancho Santa Fe","State":"CA","Zip":"92067"},{"Location":"TRANQUILITY PROPERTY MAN INC","Address":"16701 Comeno Sierra Del Sur","City":"Rancho Santa Fe","State":"CA","Zip":"92067"},{"Location":"UNETUI","Address":"15815 Bella Siena","City":"Rancho Santa Fe","State":"CA","Zip":"92067"},{"Location":"WEALTH ADVISORS INC","Address":"16909 Via De Santa Fe 202","City":"Rancho Santa Fe","State":"CA","Zip":"92067"},{"Location":"WESTERN ENERGY PRODUCTION LLC","Address":"16909 Via De Santa Fe","City":"Rancho Santa Fe","State":"CA","Zip":"92067"},{"Location":"WILLOW CREEK RANCH","Address":"6451 El Sicomoro St","City":"Rancho Santa Fe","State":"CA","Zip":"92067"},{"Location":"BANK OF AMERICA","Address":"6002 El Tordo 1","City":"Rancho Sante Fe","State":"CA","Zip":"92067"}]