[{"Location":"AMERICAS FINEST CARPET","Address":"1144 Los Vallecitos Blvd","City":"San Marcos","State":"CA","Zip":"92069"},{"Location":"BETTY & WALTER REIDS CAM","Address":"910 Armorlite Dr","City":"San Marcos","State":"CA","Zip":"92069"},{"Location":"CITY OF SAN MARCOS","Address":"1 Civic Center Dr","City":"San Marcos","State":"CA","Zip":"92069"},{"Location":"CLASSIC RESTORATION","Address":"968 Rancheros Dr R","City":"San Marcos","State":"CA","Zip":"92069"},{"Location":"DAVITA #2261 SAN MARCOS","Address":"2135 Montiel Rd B","City":"San Marcos","State":"CA","Zip":"92069"},{"Location":"DOWNSTOWN INC","Address":"155 Cassou Rd","City":"San Marcos","State":"CA","Zip":"92069"},{"Location":"HOOTERS SAN MARCOS","Address":"775 Center Dr","City":"San Marcos","State":"CA","Zip":"92069"},{"Location":"INTERFAITH COMMUNITY SERVICES","Address":"1597 Indian Summer Rd","City":"San Marcos","State":"CA","Zip":"92069"},{"Location":"JEROMES FURNITURE","Address":"780 Los Vallecitos Blvd","City":"San Marcos","State":"CA","Zip":"92069"},{"Location":"JERSEY MIKES SUBS","Address":"730 Nordahl Rd 105","City":"San Marcos","State":"CA","Zip":"92069"},{"Location":"JIBRAN CONSTRUCTION","Address":"133 N Pacific St C","City":"San Marcos","State":"CA","Zip":"92069"},{"Location":"JUMP SAN MARCOS","Address":"860 Los Vallecitos Blvd","City":"San Marcos","State":"CA","Zip":"92069"},{"Location":"JUMPING TURTLE","Address":"1660 Capalina Rd","City":"San Marcos","State":"CA","Zip":"92069"},{"Location":"K & D MACHNE","Address":"139 N Pacific St","City":"San Marcos","State":"CA","Zip":"92069"},{"Location":"LA FITNESS #79","Address":"125 N Twin Oaks Valley Rd","City":"San Marcos","State":"CA","Zip":"92069"},{"Location":"MANNA BBQ SAN MARCOS","Address":"740 Nordahl Rd 116","City":"San Marcos","State":"CA","Zip":"92069"},{"Location":"MJ FLOORING CTR","Address":"1122 Los Vallecitos Blvd C","City":"San Marcos","State":"CA","Zip":"92069"},{"Location":"MOBILE HOME SUPPLY INC","Address":"861 Rancheros Dr B","City":"San Marcos","State":"CA","Zip":"92069"},{"Location":"NEW AGE SCREEN AND GRAPH","Address":"960 Rancheros Dr","City":"San Marcos","State":"CA","Zip":"92069"},{"Location":"NGALE ASSISTED LIVING CT","Address":"1255 Adventure Ln","City":"San Marcos","State":"CA","Zip":"92069"},{"Location":"NICOLLE MILLER DDS","Address":"197 Woodland Pkwy 100","City":"San Marcos","State":"CA","Zip":"92069"},{"Location":"PACIFIC TACO SHOP NO. 2","Address":"630 Nordahl Rd Q","City":"San Marcos","State":"CA","Zip":"92069"},{"Location":"PALOMAR COLLEGE PLANETARIUM","Address":"1140 W Mission Rd","City":"San Marcos","State":"CA","Zip":"92069"},{"Location":"PALOMAR COLLEGE POLICE DEPT","Address":"1140 W Mission Rd","City":"San Marcos","State":"CA","Zip":"92069"},{"Location":"PALOMAR COM COLLEGE","Address":"1140 W Mission Rd","City":"San Marcos","State":"CA","Zip":"92069"},{"Location":"PAN ASIA BUFFET","Address":"707 Center Dr","City":"San Marcos","State":"CA","Zip":"92069"},{"Location":"PITAS MEDITERRANEAN GRILL","Address":"763 Center Dr.","City":"San Marcos","State":"CA","Zip":"92069"},{"Location":"PIZZA NOVA SM LLC","Address":"141 N Twin Oaks Valley Rd 120","City":"San Marcos","State":"CA","Zip":"92069"},{"Location":"RES INN SAN MARCOS","Address":"1245 Los Vallecitos Blvd","City":"San Marcos","State":"CA","Zip":"92069"},{"Location":"RIGOBERTO TACO SHOP","Address":"1310 E Mission Rd","City":"San Marcos","State":"CA","Zip":"92069"},{"Location":"SAN DIEGO GRILL PROS","Address":"2085 Montiel Rd","City":"San Marcos","State":"CA","Zip":"92069"},{"Location":"SLATERS 5050 SAN MARCOS","Address":"110 Knoll Rd","City":"San Marcos","State":"CA","Zip":"92069"},{"Location":"SMILES OF SAN MARCOS","Address":"630 Nordahl Rd","City":"San Marcos","State":"CA","Zip":"92069"},{"Location":"SOLA SALON","Address":"2055 Montiel Rd 109","City":"San Marcos","State":"CA","Zip":"92069"},{"Location":"SOMBRERO MEXICAN FOOD","Address":"133 N Twin Oaks Valley Rd","City":"San Marcos","State":"CA","Zip":"92069"},{"Location":"SOUTH END RESTARAUNTE","Address":"739 E Mission Rd","City":"San Marcos","State":"CA","Zip":"92069"},{"Location":"ST PETKA","Address":"1854 Knob Hill Rd","City":"San Marcos","State":"CA","Zip":"92069"},{"Location":"STACHOWSKI FARM","Address":"3154 Lady Bug Ln Barn","City":"San Marcos","State":"CA","Zip":"92069"},{"Location":"STATION PIZZA","Address":"1531 W Mission Rd B","City":"San Marcos","State":"CA","Zip":"92069"},{"Location":"SUSHIYA SAN MARCOS","Address":"751 Center Dr","City":"San Marcos","State":"CA","Zip":"92069"},{"Location":"TAQUERIA","Address":"740 Nordahl Rd 118","City":"San Marcos","State":"CA","Zip":"92069"},{"Location":"THE MATRESS CENTER LLC","Address":"960 Los Vallecitos Blvd","City":"San Marcos","State":"CA","Zip":"92069"},{"Location":"THE PORT BREWERY","Address":"155 Mata Way 104","City":"San Marcos","State":"CA","Zip":"92069"},{"Location":"UMAI JAPANESE RESTAURANT","Address":"730 Nordahl Rd 109","City":"San Marcos","State":"CA","Zip":"92069"},{"Location":"VALLECITOS WATER DISTRICT","Address":"201 Vallecitos De Oro","City":"San Marcos","State":"CA","Zip":"92069"},{"Location":"VFW 3795","Address":"212 W Mission Rd","City":"San Marcos","State":"CA","Zip":"92069"},{"Location":"WESTCOAST BARBECUQ","Address":"763 Center Dr 103","City":"San Marcos","State":"CA","Zip":"92069"}]