[{"Location":"ADOBE ANIMAL HOSPITAL","Address":"218 Etcheverry St","City":"Ramona","State":"CA","Zip":"92065"},{"Location":"BANK OF SOUTHERN CALIFORNIA","Address":"1315 Main St","City":"Ramona","State":"CA","Zip":"92065"},{"Location":"BOLL WEEVIL RAMONA","Address":"2548 Main St","City":"Ramona","State":"CA","Zip":"92065"},{"Location":"CAL FIRE","Address":"2498 Montecito Rd","City":"Ramona","State":"CA","Zip":"92065"},{"Location":"CHEERS OF RAMONA","Address":"2475 Main St","City":"Ramona","State":"CA","Zip":"92065"},{"Location":"CHUCKALEK INDEP BREWERS","Address":"2330 Main St C","City":"Ramona","State":"CA","Zip":"92065"},{"Location":"DANNYS TRUCK AND AUTO","Address":"729 D St","City":"Ramona","State":"CA","Zip":"92065"},{"Location":"KMART 3678A","Address":"1855 Main St","City":"Ramona","State":"CA","Zip":"92065"},{"Location":"LA COCINA","Address":"681 Main St","City":"Ramona","State":"CA","Zip":"92065"},{"Location":"MOLLY MALONES","Address":"1270 Main St","City":"Ramona","State":"CA","Zip":"92065"},{"Location":"NUEVO GRILL AND CANTINA","Address":"1413 Main St","City":"Ramona","State":"CA","Zip":"92065"},{"Location":"PEMARROW RECOVERY CENTER","Address":"1482 Kings Villa Rd","City":"Ramona","State":"CA","Zip":"92065"},{"Location":"PEPES INTERPRICE MARKET & REST","Address":"907 Main St","City":"Ramona","State":"CA","Zip":"92065"},{"Location":"RAMONA FAMILY DENTISTRY","Address":"425 10th St B","City":"Ramona","State":"CA","Zip":"92065"},{"Location":"RAMONA LISA PIZZA","Address":"23670 San Vicente Rd","City":"Ramona","State":"CA","Zip":"92065"},{"Location":"RAMONA VALLEY GRILL","Address":"344 Main St","City":"Ramona","State":"CA","Zip":"92065"},{"Location":"RONS TIRE AND BRAKE INC","Address":"2560 Main St","City":"Ramona","State":"CA","Zip":"92065"},{"Location":"RRR INVESTMENTS","Address":"2493 Montecito Rd","City":"Ramona","State":"CA","Zip":"92065"},{"Location":"SAN DIEGO COUNTRY ESTATES","Address":"24157 San Vicente Rd","City":"Ramona","State":"CA","Zip":"92065"},{"Location":"SAN DIEGO COUNTY SHERIFFS","Address":"1424 Montecito Rd","City":"Ramona","State":"CA","Zip":"92065"},{"Location":"SAN DIEGO G AND E ROMONA","Address":"110 14th St","City":"Ramona","State":"CA","Zip":"92065"},{"Location":"TURKEY INN","Address":"716 Main St","City":"Ramona","State":"CA","Zip":"92065"},{"Location":"US FOREST SERVICE","Address":"1634 Black Canyon Rd","City":"Ramona","State":"CA","Zip":"92065"}]