[{"Location":"BEST NAILS","Address":"633 S Rancho Sanat Fe","City":"San Diego","State":"CA","Zip":"92078"},{"Location":"LA FE TORTILLERIA INC.","Address":"1514 Linda V","City":"San Marco","State":"CA","Zip":"92078"},{"Location":"24 HOUR FITNESS #181","Address":"641 S Rancho Santa Fe Rd","City":"San Marcos","State":"CA","Zip":"92078"},{"Location":"55 YARD LINE","Address":"1020 W San Marcos Blvd 114","City":"San Marcos","State":"CA","Zip":"92078"},{"Location":"ACAPULCO 37","Address":"1020 W San Marcos Blvd 50","City":"San Marcos","State":"CA","Zip":"92078"},{"Location":"ALPHA PHYSICAL THERAPY","Address":"310 S Twin Oaks Valley Rd 108","City":"San Marcos","State":"CA","Zip":"92078"},{"Location":"AMADOR PORRAS","Address":"1785 La Costa Meadows Dr","City":"San Marcos","State":"CA","Zip":"92078"},{"Location":"AMF EAGLE LANES #148","Address":"945 W San Marcos Blvd","City":"San Marcos","State":"CA","Zip":"92078"},{"Location":"ANHEUSER-BUSCH WHLSLR #10403","Address":"505 S Pacific St","City":"San Marcos","State":"CA","Zip":"92078"},{"Location":"APPLEBEE'S #2150029","Address":"573 Grand Ave","City":"San Marcos","State":"CA","Zip":"92078"},{"Location":"ARA LEBANESE GRILL","Address":"997 W San Marcos Blvd","City":"San Marcos","State":"CA","Zip":"92078"},{"Location":"BACK ALLEY GRILL","Address":"925 W San Marcos Blvd","City":"San Marcos","State":"CA","Zip":"92078"},{"Location":"BLIND SQUIRREL  LLC","Address":"1020 W San Marcos Blvd 124","City":"San Marcos","State":"CA","Zip":"92078"},{"Location":"CAL ST UNIV SAN MARCOS","Address":"425 La Moree Rd","City":"San Marcos","State":"CA","Zip":"92078"},{"Location":"CARMELA CUCINA","Address":"823 Grand Ave","City":"San Marcos","State":"CA","Zip":"92078"},{"Location":"CEKO RESTAURANTS INC","Address":"1020 W San Marcos Blvd 118","City":"San Marcos","State":"CA","Zip":"92078"},{"Location":"CHECK  CENTERS","Address":"902a W San Marcos Blvd","City":"San Marcos","State":"CA","Zip":"92078"},{"Location":"COCINA DEL CHARRO","Address":"1020 W San Marcos Blvd 110","City":"San Marcos","State":"CA","Zip":"92078"},{"Location":"COMMERCEWEST BANK","Address":"338 Via Vera Cruz","City":"San Marcos","State":"CA","Zip":"92078"},{"Location":"DAB CITY SMOKE SHOP","Address":"940 W San Marcos Blvd","City":"San Marcos","State":"CA","Zip":"92078"},{"Location":"DAILY CUISINE INK","Address":"101 S Las Posas Rd","City":"San Marcos","State":"CA","Zip":"92078"},{"Location":"DAPHNES GREEK","Address":"595 Grand Ave 105","City":"San Marcos","State":"CA","Zip":"92078"},{"Location":"DOS DESPERADOS","Address":"1241 Linda Vista Dr","City":"San Marcos","State":"CA","Zip":"92078"},{"Location":"DR JOE CZVIK","Address":"1635 Lake San Marcos Dr","City":"San Marcos","State":"CA","Zip":"92078"},{"Location":"EDCO WASTE","Address":"224 S Las Posas Rd","City":"San Marcos","State":"CA","Zip":"92078"},{"Location":"ELEPHANT BAR SAN MARCOS PST BK","Address":"105 S Las Posas Rd","City":"San Marcos","State":"CA","Zip":"92078"},{"Location":"EMILYS NAILS AND SPA","Address":"940 W San Marcos Blvd C","City":"San Marcos","State":"CA","Zip":"92078"},{"Location":"EMMANUEL DELAGRAMMATICAS DDS","Address":"1145 San Marino Dr 303","City":"San Marcos","State":"CA","Zip":"92078"},{"Location":"FCI INC","Address":"1770 La Costa Meadows Dr","City":"San Marcos","State":"CA","Zip":"92078"},{"Location":"FILIPINO MARKET","Address":"1001 W San Marcos Blvd 135","City":"San Marcos","State":"CA","Zip":"92078"},{"Location":"FIRST NATIONAL BANK OF SOUTH","Address":"1110 San Marino Dr","City":"San Marcos","State":"CA","Zip":"92078"},{"Location":"FLIPPIN PIZZA","Address":"342 S Twin Oaks Valley Rd","City":"San Marcos","State":"CA","Zip":"92078"},{"Location":"FREEDOM FINANCIAL SERVIC","Address":"1557 Grand Ave A","City":"San Marcos","State":"CA","Zip":"92078"},{"Location":"FROYO LOVE","Address":"300 S Twi S Twin Oaks Valley Rd St","City":"San Marcos","State":"CA","Zip":"92078"},{"Location":"HERBERT J LOWE DDS","Address":"1595 Grand Ave 108","City":"San Marcos","State":"CA","Zip":"92078"},{"Location":"HP PRECISION","Address":"548 S Pacific St","City":"San Marcos","State":"CA","Zip":"92078"},{"Location":"HUNTER INDUSTRIES","Address":"1940 Diamond St","City":"San Marcos","State":"CA","Zip":"92078"},{"Location":"HYUGA SUSHI","Address":"844 W San Marcos Blvd Suite","City":"San Marcos","State":"CA","Zip":"92078"},{"Location":"INLAND TAVERN","Address":"1101 W San Marcos Blvd 195","City":"San Marcos","State":"CA","Zip":"92078"},{"Location":"INVASION LASER TAG","Address":"1290 W San Marcos Blvd 101","City":"San Marcos","State":"CA","Zip":"92078"},{"Location":"J J NAILS & SPA","Address":"731 W San Marcos Blvd 212","City":"San Marcos","State":"CA","Zip":"92078"},{"Location":"KATSU RESTAURANT","Address":"1020 W San Marcos Blvd","City":"San Marcos","State":"CA","Zip":"92078"},{"Location":"KNIGHTS AUTOMOTIVE","Address":"230 Pawnee St","City":"San Marcos","State":"CA","Zip":"92078"},{"Location":"LAKEHOUSE RESORT","Address":"1025 La Bonita Dr","City":"San Marcos","State":"CA","Zip":"92078"},{"Location":"LONGS DRUGS","Address":"320 S Twin Oaks Valley Rd","City":"San Marcos","State":"CA","Zip":"92078"},{"Location":"LOS PRIMOS MEXICAN REST 35","Address":"801 S Twin Oaks Valley Rd 10","City":"San Marcos","State":"CA","Zip":"92078"},{"Location":"LUCKYS PIZZA","Address":"1691 Melrose Dr 195","City":"San Marcos","State":"CA","Zip":"92078"},{"Location":"MALK LTD","Address":"906 Boardwalk B","City":"San Marcos","State":"CA","Zip":"92078"},{"Location":"MARK CRANDALL","Address":"1570 Linda Vista Dr","City":"San Marcos","State":"CA","Zip":"92078"},{"Location":"MDLK DEVELOPMENT LLC","Address":"1520 E Barham Dr","City":"San Marcos","State":"CA","Zip":"92078"},{"Location":"MEADOR MANAGEMENT INC","Address":"1523 San Elijo Rd S 109","City":"San Marcos","State":"CA","Zip":"92078"},{"Location":"MEXICO VIEJO RESTAURANT","Address":"1693 Melrose Dr 150","City":"San Marcos","State":"CA","Zip":"92078"},{"Location":"MIKES PIZZERIA","Address":"1158 W San Marcos Blvd 103","City":"San Marcos","State":"CA","Zip":"92078"},{"Location":"MODERN BUILDERS SUPPLY","Address":"852 Grand Ave","City":"San Marcos","State":"CA","Zip":"92078"},{"Location":"NAILS 4 YOU","Address":"844 W San Marcos Blvd 111","City":"San Marcos","State":"CA","Zip":"92078"},{"Location":"NATTIYA THAI RESTAURANT","Address":"727 W San Marcos Blvd Apt 1","City":"San Marcos","State":"CA","Zip":"92078"},{"Location":"NORDSTROM RACK","Address":"173 S Las Posas Rd","City":"San Marcos","State":"CA","Zip":"92078"},{"Location":"NORI SUSHI","Address":"695 S Rancho Santa Fe Rd","City":"San Marcos","State":"CA","Zip":"92078"},{"Location":"PACIFIC DENTAL #273","Address":"145 S Las Posas Rd 162","City":"San Marcos","State":"CA","Zip":"92078"},{"Location":"PACIFIC TRUST BANK","Address":"1642 W San Marcos Blvd","City":"San Marcos","State":"CA","Zip":"92078"},{"Location":"PHIL ASIAN MARKET","Address":"853 W San Marcos Blvd","City":"San Marcos","State":"CA","Zip":"92078"},{"Location":"PHILLY FRANKS","Address":"151 S Rancho Santa Fe Rd","City":"San Marcos","State":"CA","Zip":"92078"},{"Location":"PHILS BBQ","Address":"579 Grand Ave","City":"San Marcos","State":"CA","Zip":"92078"},{"Location":"PHO 4 QUEEN","Address":"159 S Rancho Santa Fe Rd","City":"San Marcos","State":"CA","Zip":"92078"},{"Location":"PHO SAN MARCOS","Address":"700 S Rancho Santa Fe Rd","City":"San Marcos","State":"CA","Zip":"92078"},{"Location":"PLAYERS SPORTS BAR","Address":"328 S Twin Oaks Valley Rd","City":"San Marcos","State":"CA","Zip":"92078"},{"Location":"PUBTOPIA  LLC","Address":"887 W San Marcos Blvd","City":"San Marcos","State":"CA","Zip":"92078"},{"Location":"QC POWERSWEEP","Address":"1275 Stone Dr B","City":"San Marcos","State":"CA","Zip":"92078"},{"Location":"RA-KA-DE-KA","Address":"810 S Twin Oaks Valley Rd%2C St","City":"San Marcos","State":"CA","Zip":"92078"},{"Location":"RAMPAGE BREWING LLC","Address":"1325 Grand Ave 100","City":"San Marcos","State":"CA","Zip":"92078"},{"Location":"ROSSI PIZZA","Address":"156 S Rancho Santa Fe Rd","City":"San Marcos","State":"CA","Zip":"92078"},{"Location":"SAINT MARK GOLF BAR","Address":"1750 San Pablo Dr","City":"San Marcos","State":"CA","Zip":"92078"},{"Location":"SAINT MARK GOLF LLC","Address":"1750 San Pablo Dr","City":"San Marcos","State":"CA","Zip":"92078"},{"Location":"SAN MARCOS BREWERY","Address":"1080 W San Marcos Blvd 108","City":"San Marcos","State":"CA","Zip":"92078"},{"Location":"SAVE MARK EXECUTIVE C","Address":"1556 Camino Del Arroyo","City":"San Marcos","State":"CA","Zip":"92078"},{"Location":"SCOTTY CAMERON PUTTER STUDIO","Address":"1707 La Costa Meadows Dr","City":"San Marcos","State":"CA","Zip":"92078"},{"Location":"SOAPY JOES CAR WASH","Address":"740 W San Marcos Blvd","City":"San Marcos","State":"CA","Zip":"92078"},{"Location":"SOCAL ATHLETICS  INC.","Address":"1482 La Mirada Dr","City":"San Marcos","State":"CA","Zip":"92078"},{"Location":"SPORT CLIPS CA418","Address":"310 S Twin Oaks Valley Rd 103","City":"San Marcos","State":"CA","Zip":"92078"},{"Location":"STRECH U","Address":"1691 Melrose Dr 180","City":"San Marcos","State":"CA","Zip":"92078"},{"Location":"SUSHI HUKU","Address":"727 W San Marcos Blvd 208","City":"San Marcos","State":"CA","Zip":"92078"},{"Location":"SUSHI STATION","Address":"1915 W San Marcos Blvd","City":"San Marcos","State":"CA","Zip":"92078"},{"Location":"TOMS EXPRESS","Address":"1205 W San Marcos Blvd","City":"San Marcos","State":"CA","Zip":"92078"},{"Location":"TOTAL MAINTENANCE","Address":"1046 Commerce St J","City":"San Marcos","State":"CA","Zip":"92078"},{"Location":"WINE COUNTRY","Address":"1099 W San Marcos Blvd","City":"San Marcos","State":"CA","Zip":"92078"},{"Location":"BEST NAILS","Address":"633 S Rancho Sanat Fe","City":"San Diego","State":"CA","Zip":"92078"},{"Location":"LA FE TORTILLERIA INC.","Address":"1514 Linda V","City":"San Marco","State":"CA","Zip":"92078"},{"Location":"24 HOUR FITNESS #181","Address":"641 S Rancho Santa Fe Rd","City":"San Marcos","State":"CA","Zip":"92078"},{"Location":"55 YARD LINE","Address":"1020 W San Marcos Blvd 114","City":"San Marcos","State":"CA","Zip":"92078"},{"Location":"ACAPULCO 37","Address":"1020 W San Marcos Blvd 50","City":"San Marcos","State":"CA","Zip":"92078"},{"Location":"ALPHA PHYSICAL THERAPY","Address":"310 S Twin Oaks Valley Rd 108","City":"San Marcos","State":"CA","Zip":"92078"},{"Location":"AMADOR PORRAS","Address":"1785 La Costa Meadows Dr","City":"San Marcos","State":"CA","Zip":"92078"},{"Location":"AMF EAGLE LANES #148","Address":"945 W San Marcos Blvd","City":"San Marcos","State":"CA","Zip":"92078"},{"Location":"ANHEUSER-BUSCH WHLSLR #10403","Address":"505 S Pacific St","City":"San Marcos","State":"CA","Zip":"92078"},{"Location":"APPLEBEE'S #2150029","Address":"573 Grand Ave","City":"San Marcos","State":"CA","Zip":"92078"},{"Location":"ARA LEBANESE GRILL","Address":"997 W San Marcos Blvd","City":"San Marcos","State":"CA","Zip":"92078"},{"Location":"BACK ALLEY GRILL","Address":"925 W San Marcos Blvd","City":"San Marcos","State":"CA","Zip":"92078"},{"Location":"BLIND SQUIRREL  LLC","Address":"1020 W San Marcos Blvd 124","City":"San Marcos","State":"CA","Zip":"92078"},{"Location":"CAL ST UNIV SAN MARCOS","Address":"425 La Moree Rd","City":"San Marcos","State":"CA","Zip":"92078"},{"Location":"CARMELA CUCINA","Address":"823 Grand Ave","City":"San Marcos","State":"CA","Zip":"92078"},{"Location":"CEKO RESTAURANTS INC","Address":"1020 W San Marcos Blvd 118","City":"San Marcos","State":"CA","Zip":"92078"},{"Location":"CHECK  CENTERS","Address":"902a W San Marcos Blvd","City":"San Marcos","State":"CA","Zip":"92078"},{"Location":"COCINA DEL CHARRO","Address":"1020 W San Marcos Blvd 110","City":"San Marcos","State":"CA","Zip":"92078"},{"Location":"COMMERCEWEST BANK","Address":"338 Via Vera Cruz","City":"San Marcos","State":"CA","Zip":"92078"},{"Location":"DAB CITY SMOKE SHOP","Address":"940 W San Marcos Blvd","City":"San Marcos","State":"CA","Zip":"92078"},{"Location":"DAILY CUISINE INK","Address":"101 S Las Posas Rd","City":"San Marcos","State":"CA","Zip":"92078"},{"Location":"DAPHNES GREEK","Address":"595 Grand Ave 105","City":"San Marcos","State":"CA","Zip":"92078"},{"Location":"DOS DESPERADOS","Address":"1241 Linda Vista Dr","City":"San Marcos","State":"CA","Zip":"92078"},{"Location":"DR JOE CZVIK","Address":"1635 Lake San Marcos Dr","City":"San Marcos","State":"CA","Zip":"92078"},{"Location":"EDCO WASTE","Address":"224 S Las Posas Rd","City":"San Marcos","State":"CA","Zip":"92078"},{"Location":"ELEPHANT BAR SAN MARCOS PST BK","Address":"105 S Las Posas Rd","City":"San Marcos","State":"CA","Zip":"92078"},{"Location":"EMILYS NAILS AND SPA","Address":"940 W San Marcos Blvd C","City":"San Marcos","State":"CA","Zip":"92078"},{"Location":"EMMANUEL DELAGRAMMATICAS DDS","Address":"1145 San Marino Dr 303","City":"San Marcos","State":"CA","Zip":"92078"},{"Location":"FCI INC","Address":"1770 La Costa Meadows Dr","City":"San Marcos","State":"CA","Zip":"92078"},{"Location":"FILIPINO MARKET","Address":"1001 W San Marcos Blvd 135","City":"San Marcos","State":"CA","Zip":"92078"},{"Location":"FIRST NATIONAL BANK OF SOUTH","Address":"1110 San Marino Dr","City":"San Marcos","State":"CA","Zip":"92078"},{"Location":"FLIPPIN PIZZA","Address":"342 S Twin Oaks Valley Rd","City":"San Marcos","State":"CA","Zip":"92078"},{"Location":"FREEDOM FINANCIAL SERVIC","Address":"1557 Grand Ave A","City":"San Marcos","State":"CA","Zip":"92078"},{"Location":"FROYO LOVE","Address":"300 S Twi S Twin Oaks Valley Rd St","City":"San Marcos","State":"CA","Zip":"92078"},{"Location":"HERBERT J LOWE DDS","Address":"1595 Grand Ave 108","City":"San Marcos","State":"CA","Zip":"92078"},{"Location":"HP PRECISION","Address":"548 S Pacific St","City":"San Marcos","State":"CA","Zip":"92078"},{"Location":"HUNTER INDUSTRIES","Address":"1940 Diamond St","City":"San Marcos","State":"CA","Zip":"92078"},{"Location":"HYUGA SUSHI","Address":"844 W San Marcos Blvd Suite","City":"San Marcos","State":"CA","Zip":"92078"},{"Location":"INLAND TAVERN","Address":"1101 W San Marcos Blvd 195","City":"San Marcos","State":"CA","Zip":"92078"},{"Location":"INVASION LASER TAG","Address":"1290 W San Marcos Blvd 101","City":"San Marcos","State":"CA","Zip":"92078"},{"Location":"J J NAILS & SPA","Address":"731 W San Marcos Blvd 212","City":"San Marcos","State":"CA","Zip":"92078"},{"Location":"KATSU RESTAURANT","Address":"1020 W San Marcos Blvd","City":"San Marcos","State":"CA","Zip":"92078"},{"Location":"KNIGHTS AUTOMOTIVE","Address":"230 Pawnee St","City":"San Marcos","State":"CA","Zip":"92078"},{"Location":"LAKEHOUSE RESORT","Address":"1025 La Bonita Dr","City":"San Marcos","State":"CA","Zip":"92078"},{"Location":"LONGS DRUGS","Address":"320 S Twin Oaks Valley Rd","City":"San Marcos","State":"CA","Zip":"92078"},{"Location":"LOS PRIMOS MEXICAN REST 35","Address":"801 S Twin Oaks Valley Rd 10","City":"San Marcos","State":"CA","Zip":"92078"},{"Location":"LUCKYS PIZZA","Address":"1691 Melrose Dr 195","City":"San Marcos","State":"CA","Zip":"92078"},{"Location":"MALK LTD","Address":"906 Boardwalk B","City":"San Marcos","State":"CA","Zip":"92078"},{"Location":"MARK CRANDALL","Address":"1570 Linda Vista Dr","City":"San Marcos","State":"CA","Zip":"92078"},{"Location":"MDLK DEVELOPMENT LLC","Address":"1520 E Barham Dr","City":"San Marcos","State":"CA","Zip":"92078"},{"Location":"MEADOR MANAGEMENT INC","Address":"1523 San Elijo Rd S 109","City":"San Marcos","State":"CA","Zip":"92078"},{"Location":"MEXICO VIEJO RESTAURANT","Address":"1693 Melrose Dr 150","City":"San Marcos","State":"CA","Zip":"92078"},{"Location":"MIKES PIZZERIA","Address":"1158 W San Marcos Blvd 103","City":"San Marcos","State":"CA","Zip":"92078"},{"Location":"MODERN BUILDERS SUPPLY","Address":"852 Grand Ave","City":"San Marcos","State":"CA","Zip":"92078"},{"Location":"NAILS 4 YOU","Address":"844 W San Marcos Blvd 111","City":"San Marcos","State":"CA","Zip":"92078"},{"Location":"NATTIYA THAI RESTAURANT","Address":"727 W San Marcos Blvd Apt 1","City":"San Marcos","State":"CA","Zip":"92078"},{"Location":"NORDSTROM RACK","Address":"173 S Las Posas Rd","City":"San Marcos","State":"CA","Zip":"92078"},{"Location":"NORI SUSHI","Address":"695 S Rancho Santa Fe Rd","City":"San Marcos","State":"CA","Zip":"92078"},{"Location":"PACIFIC DENTAL #273","Address":"145 S Las Posas Rd 162","City":"San Marcos","State":"CA","Zip":"92078"},{"Location":"PACIFIC TRUST BANK","Address":"1642 W San Marcos Blvd","City":"San Marcos","State":"CA","Zip":"92078"},{"Location":"PHIL ASIAN MARKET","Address":"853 W San Marcos Blvd","City":"San Marcos","State":"CA","Zip":"92078"},{"Location":"PHILLY FRANKS","Address":"151 S Rancho Santa Fe Rd","City":"San Marcos","State":"CA","Zip":"92078"},{"Location":"PHILS BBQ","Address":"579 Grand Ave","City":"San Marcos","State":"CA","Zip":"92078"},{"Location":"PHO 4 QUEEN","Address":"159 S Rancho Santa Fe Rd","City":"San Marcos","State":"CA","Zip":"92078"},{"Location":"PHO SAN MARCOS","Address":"700 S Rancho Santa Fe Rd","City":"San Marcos","State":"CA","Zip":"92078"},{"Location":"PLAYERS SPORTS BAR","Address":"328 S Twin Oaks Valley Rd","City":"San Marcos","State":"CA","Zip":"92078"},{"Location":"PUBTOPIA  LLC","Address":"887 W San Marcos Blvd","City":"San Marcos","State":"CA","Zip":"92078"},{"Location":"QC POWERSWEEP","Address":"1275 Stone Dr B","City":"San Marcos","State":"CA","Zip":"92078"},{"Location":"RA-KA-DE-KA","Address":"810 S Twin Oaks Valley Rd%2C St","City":"San Marcos","State":"CA","Zip":"92078"},{"Location":"RAMPAGE BREWING LLC","Address":"1325 Grand Ave 100","City":"San Marcos","State":"CA","Zip":"92078"},{"Location":"ROSSI PIZZA","Address":"156 S Rancho Santa Fe Rd","City":"San Marcos","State":"CA","Zip":"92078"},{"Location":"SAINT MARK GOLF BAR","Address":"1750 San Pablo Dr","City":"San Marcos","State":"CA","Zip":"92078"},{"Location":"SAINT MARK GOLF LLC","Address":"1750 San Pablo Dr","City":"San Marcos","State":"CA","Zip":"92078"},{"Location":"SAN MARCOS BREWERY","Address":"1080 W San Marcos Blvd 108","City":"San Marcos","State":"CA","Zip":"92078"},{"Location":"SAVE MARK EXECUTIVE C","Address":"1556 Camino Del Arroyo","City":"San Marcos","State":"CA","Zip":"92078"},{"Location":"SCOTTY CAMERON PUTTER STUDIO","Address":"1707 La Costa Meadows Dr","City":"San Marcos","State":"CA","Zip":"92078"},{"Location":"SOAPY JOES CAR WASH","Address":"740 W San Marcos Blvd","City":"San Marcos","State":"CA","Zip":"92078"},{"Location":"SOCAL ATHLETICS  INC.","Address":"1482 La Mirada Dr","City":"San Marcos","State":"CA","Zip":"92078"},{"Location":"SPORT CLIPS CA418","Address":"310 S Twin Oaks Valley Rd 103","City":"San Marcos","State":"CA","Zip":"92078"},{"Location":"STRECH U","Address":"1691 Melrose Dr 180","City":"San Marcos","State":"CA","Zip":"92078"},{"Location":"SUSHI HUKU","Address":"727 W San Marcos Blvd 208","City":"San Marcos","State":"CA","Zip":"92078"},{"Location":"SUSHI STATION","Address":"1915 W San Marcos Blvd","City":"San Marcos","State":"CA","Zip":"92078"},{"Location":"TOMS EXPRESS","Address":"1205 W San Marcos Blvd","City":"San Marcos","State":"CA","Zip":"92078"},{"Location":"TOTAL MAINTENANCE","Address":"1046 Commerce St J","City":"San Marcos","State":"CA","Zip":"92078"},{"Location":"WINE COUNTRY","Address":"1099 W San Marcos Blvd","City":"San Marcos","State":"CA","Zip":"92078"}]