[{"Location":"24 HOUR FITNESS #104","Address":"9906 Mission Gorge Rd","City":"Santee","State":"CA","Zip":"92071"},{"Location":"ADVANCED AUTOMATIC TRANSMISSIO","Address":"10659 Prospect Ave A","City":"Santee","State":"CA","Zip":"92071"},{"Location":"ALL PRO BAIL BONDS INC","Address":"10503 Mission Gorge Rd","City":"Santee","State":"CA","Zip":"92071"},{"Location":"ALS MODIFIES","Address":"10925 Wheatlands Ave","City":"Santee","State":"CA","Zip":"92071"},{"Location":"ALS SANTEE BARBER SHOP","Address":"8781 Cuyamaca St","City":"Santee","State":"CA","Zip":"92071"},{"Location":"AUGMENT INC.","Address":"9840 N Magnolia Ave","City":"Santee","State":"CA","Zip":"92071"},{"Location":"AYMAR ENGINEERING","Address":"9434 Abraham Way 1","City":"Santee","State":"CA","Zip":"92071"},{"Location":"BANK OF THE WEST","Address":"8867 Cuyamaca St","City":"Santee","State":"CA","Zip":"92071"},{"Location":"BNS BREWING DISTILLING CO","Address":"10960 Wheatlands Ave Suite","City":"Santee","State":"CA","Zip":"92071"},{"Location":"BOLL WEEVIL","Address":"9621 Mission Gorge Rd","City":"Santee","State":"CA","Zip":"92071"},{"Location":"BUFFALO WILD WINGS #0347","Address":"254 Town Center Pkwy","City":"Santee","State":"CA","Zip":"92071"},{"Location":"BUMPER DOC","Address":"8711 N Magnolia Ave 100","City":"Santee","State":"CA","Zip":"92071"},{"Location":"CARLTON OAKS CASA BLANCA CAFE","Address":"9200 Inwood Dr","City":"Santee","State":"CA","Zip":"92071"},{"Location":"CERTIFIED TIRE","Address":"9535 Mission Gorge Rd M","City":"Santee","State":"CA","Zip":"92071"},{"Location":"CHALLENGER SHEET METAL2","Address":"9353 Abraham Way","City":"Santee","State":"CA","Zip":"92071"},{"Location":"CHILI'S #0799","Address":"9804 Mission Gorge Rd","City":"Santee","State":"CA","Zip":"92071"},{"Location":"CHUZE FITNESS SANTEE","Address":"215 Town Center Pkwy","City":"Santee","State":"CA","Zip":"92071"},{"Location":"CNM MANUFACTURING","Address":"10215 Buena Vista Ave A","City":"Santee","State":"CA","Zip":"92071"},{"Location":"CUYAMACA HOSPITAL","Address":"8802 Cuyamaca St","City":"Santee","State":"CA","Zip":"92071"},{"Location":"DAPHNES GREEK","Address":"9828 Mission Gorge Rd B","City":"Santee","State":"CA","Zip":"92071"},{"Location":"DELICIOUS","Address":"19025 Hartley Rd B","City":"Santee","State":"CA","Zip":"92071"},{"Location":"DISCFLO CORP","Address":"10850 Hartley Rd","City":"Santee","State":"CA","Zip":"92071"},{"Location":"DOMO SUSHI","Address":"9625 Mission Gorge Rd D","City":"Santee","State":"CA","Zip":"92071"},{"Location":"DS FIBERTECH","Address":"11015 Mission Park Ct","City":"Santee","State":"CA","Zip":"92071"},{"Location":"E Z OUT BAIL BONDS","Address":"10438 Mission Gorge Rd","City":"Santee","State":"CA","Zip":"92071"},{"Location":"EAGLES CLUB","Address":"9317 Shadow Hill Rd","City":"Santee","State":"CA","Zip":"92071"},{"Location":"EAST COUNTY ALIGNMENT","Address":"10741 Woodside Ave","City":"Santee","State":"CA","Zip":"92071"},{"Location":"ESTRADAS MEXICANFOOD","Address":"9292 Carlton Hills Blvd B","City":"Santee","State":"CA","Zip":"92071"},{"Location":"EXPRESS PERFORMANCE CENTER","Address":"8711 N Magnolia Ave 400","City":"Santee","State":"CA","Zip":"92071"},{"Location":"FIREHOUSE SUBS SANTEE","Address":"214 Town Center Pkwy 2","City":"Santee","State":"CA","Zip":"92071"},{"Location":"FIRESTONE #016705","Address":"9763 Mission Gorge Rd","City":"Santee","State":"CA","Zip":"92071"},{"Location":"FOREVER HAIR & NAILS","Address":"9155 Mission Gorge Rd","City":"Santee","State":"CA","Zip":"92071"},{"Location":"GRAB N GO SUBS","Address":"9862 Mission Gorge Rd S","City":"Santee","State":"CA","Zip":"92071"},{"Location":"GTM DISCOUNT GENERAL STORES","Address":"8967 Carlton Hills Blvd","City":"Santee","State":"CA","Zip":"92071"},{"Location":"HD HARDWARE","Address":"101 Riverview Pkwy","City":"Santee","State":"CA","Zip":"92071"},{"Location":"L AND M TIRE COMPANY INC 56","Address":"9135 Mission Gorge Rd","City":"Santee","State":"CA","Zip":"92071"},{"Location":"LUCKY CHINESE FOOD","Address":"9740 Mission Gorge Rd B","City":"Santee","State":"CA","Zip":"92071"},{"Location":"MARGARITAS MEXICAN FOOD","Address":"10757 Woodside Ave","City":"Santee","State":"CA","Zip":"92071"},{"Location":"OGGIS SANTEE","Address":"9828 Mission George A","City":"Santee","State":"CA","Zip":"92071"},{"Location":"OLIVE GARDEN #1581","Address":"9800 Mission Gorge Rd","City":"Santee","State":"CA","Zip":"92071"},{"Location":"PACIFIC DENTAL #403","Address":"9331 Mission Gorge Rd 105","City":"Santee","State":"CA","Zip":"92071"},{"Location":"PHILLIP THEARLE AUTOWERK","Address":"8809 Mission Gorge Rd","City":"Santee","State":"CA","Zip":"92071"},{"Location":"PHILS BBQ SANTEE","Address":"9816 Mission Gorge Rd","City":"Santee","State":"CA","Zip":"92071"},{"Location":"PHO SANTEE","Address":"8790 Cuyamaca St K","City":"Santee","State":"CA","Zip":"92071"},{"Location":"PSYCHIATRIC OFF. MGT LLC","Address":"8772 Cuyamaca St","City":"Santee","State":"CA","Zip":"92071"},{"Location":"RED LOTUS","Address":"9888 N Magnolia Ave","City":"Santee","State":"CA","Zip":"92071"},{"Location":"RL FICK N SON PLUMBING","Address":"10740 Kenney St 405","City":"Santee","State":"CA","Zip":"92071"},{"Location":"ROUND TABLE PIZZA","Address":"9824 N Magnolia Ave","City":"Santee","State":"CA","Zip":"92071"},{"Location":"RUDOLPH E ROMAN DMD INC","Address":"9510 Cuyamaca St","City":"Santee","State":"CA","Zip":"92071"},{"Location":"SAN DIEGO NATIONAL","Address":"9355 Mission Gorge Rd","City":"Santee","State":"CA","Zip":"92071"},{"Location":"SANTEE LEGAL CENTER","Address":"9225 Carlton Hills Blvd 27","City":"Santee","State":"CA","Zip":"92071"},{"Location":"SANTES SPORTS BAR","Address":"9261 Mission Geoge Rd","City":"Santee","State":"CA","Zip":"92071"},{"Location":"SCOTTS BARBER SHOP","Address":"8928 Carlton Hills Blvd","City":"Santee","State":"CA","Zip":"92071"},{"Location":"SPORTSPLEX USA OF SANTEE","Address":"9951 Riverwalk Dr","City":"Santee","State":"CA","Zip":"92071"},{"Location":"SYCAMORE LAND FILL","Address":"8514 Mast Blvd","City":"Santee","State":"CA","Zip":"92071"},{"Location":"TAKKA SUSHI","Address":"9535 Mission Gorge Rd","City":"Santee","State":"CA","Zip":"92071"},{"Location":"TARGET","Address":"9846 Mission Gorge Rd","City":"Santee","State":"CA","Zip":"92071"},{"Location":"TC CONSTRUCTION INC","Address":"10540 Prospect Ave","City":"Santee","State":"CA","Zip":"92071"},{"Location":"THE HARTFORD","Address":"101 Civic Center Dr","City":"Santee","State":"CA","Zip":"92071"},{"Location":"TOYOTA CERTIFIED OF SANTEE","Address":"8871 Fanita Dr","City":"Santee","State":"CA","Zip":"92071"},{"Location":"VFW POST 9327","Address":"8790 Cuyamaca St","City":"Santee","State":"CA","Zip":"92071"},{"Location":"VITAMIN WAREHOUSE2","Address":"235 Town Center Pkwy C","City":"Santee","State":"CA","Zip":"92071"},{"Location":"WENDYS 3672","Address":"9655 Mission Gorge Rd","City":"Santee","State":"CA","Zip":"92071"},{"Location":"WING N IT SANTEE","Address":"9331 Mission Gorge Rd","City":"Santee","State":"CA","Zip":"92071"},{"Location":"YE VILLAGE INN","Address":"8929 Carlton Hills Blvd","City":"Santee","State":"CA","Zip":"92071"}]