[{"Location":"24 HOUR FITNESS #174","Address":"975 Lomas Santa Fe Dr","City":"Solana Beach","State":"CA","Zip":"92075"},{"Location":"BON BON HOME AND GARDEN","Address":"301 N Highway 101","City":"Solana Beach","State":"CA","Zip":"92075"},{"Location":"BONGIORNO'S","Address":"524 Stevens Ave","City":"Solana Beach","State":"CA","Zip":"92075"},{"Location":"BURTON ASSOCIATES","Address":"307 S Cedros Ave","City":"Solana Beach","State":"CA","Zip":"92075"},{"Location":"CALIFORNIA PIZZA KITCHEN #25","Address":"437 S Highway 101","City":"Solana Beach","State":"CA","Zip":"92075"},{"Location":"CAMPBELL TERSOLO & ASSOCIATES","Address":"462 Stevens Ave 103","City":"Solana Beach","State":"CA","Zip":"92075"},{"Location":"CE 2 CAPITAL","Address":"155 S Highway 101 7","City":"Solana Beach","State":"CA","Zip":"92075"},{"Location":"CHIEF'S BURGERS & BREW","Address":"124 Lomas Santa Fe Dr 108","City":"Solana Beach","State":"CA","Zip":"92075"},{"Location":"COURTYARD BY MARRIOTT","Address":"717 S Highway 101","City":"Solana Beach","State":"CA","Zip":"92075"},{"Location":"DAVID F. URICH DDS","Address":"125 W Plaza St","City":"Solana Beach","State":"CA","Zip":"92075"},{"Location":"JERSEY MIKES","Address":"915 Lomas Santa Fe Dr","City":"Solana Beach","State":"CA","Zip":"92075"},{"Location":"LOMAS SANTA FE CC","Address":"1505 Santa Fe Dr","City":"Solana Beach","State":"CA","Zip":"92075"},{"Location":"LOS PRIMOS MEXICAN REST.","Address":"919 Lomas Santa Fe Dr","City":"Solana Beach","State":"CA","Zip":"92075"},{"Location":"M AND J FLOORING AND DESIGN","Address":"139 Lomas Santa Fe Dr 220","City":"Solana Beach","State":"CA","Zip":"92075"},{"Location":"MILAGROS FITNESS","Address":"427 S Cedros Ave 102","City":"Solana Beach","State":"CA","Zip":"92075"},{"Location":"PAMPLEMOUSSE GRILLE","Address":"514 Via De La Valle 100","City":"Solana Beach","State":"CA","Zip":"92075"},{"Location":"PARIOLI BISTRO","Address":"647 S Highway 101","City":"Solana Beach","State":"CA","Zip":"92075"},{"Location":"PILLBOX TAVERN AND GRILL","Address":"117 W Plaza St","City":"Solana Beach","State":"CA","Zip":"92075"},{"Location":"PIZZA NOVA","Address":"945 Lomas Santa Fe Dr","City":"Solana Beach","State":"CA","Zip":"92075"},{"Location":"PIZZA PORT - SOLANA BEACH","Address":"135 N Highway 101","City":"Solana Beach","State":"CA","Zip":"92075"},{"Location":"PLAZA DENTAL GROUP","Address":"116 W Plaza St B","City":"Solana Beach","State":"CA","Zip":"92075"},{"Location":"PROFESSIONAL NAILS","Address":"689 Lomas Santa Fe Dr","City":"Solana Beach","State":"CA","Zip":"92075"},{"Location":"REAL FOOD AND SPIRITS","Address":"124 S Solana Hills Dr","City":"Solana Beach","State":"CA","Zip":"92075"},{"Location":"RED TRACTONS","Address":"550 Via De La Varre","City":"Solana Beach","State":"CA","Zip":"92075"},{"Location":"RUDYS TACO SHOP","Address":"524 Stevens Ave","City":"Solana Beach","State":"CA","Zip":"92075"},{"Location":"RUSHALL RYDAL AND RANDALL","Address":"400 2 Sierra Ave 200","City":"Solana Beach","State":"CA","Zip":"92075"},{"Location":"SADDLE BAR","Address":"123 W Plaza St","City":"Solana Beach","State":"CA","Zip":"92075"},{"Location":"SENIOR RESOURCE GROUP LLC","Address":"500 Stevens Ave 100","City":"Solana Beach","State":"CA","Zip":"92075"},{"Location":"SOLANA BEACH FISH HOUSE","Address":"124 Lomas Santa Fe Dr 209","City":"Solana Beach","State":"CA","Zip":"92075"},{"Location":"SOLANA BEACH TOWN CENTER","Address":"440 Stevens Ave","City":"Solana Beach","State":"CA","Zip":"92075"},{"Location":"SOLANO BEACH BARBERSHOP","Address":"665 San Rodolfo Dr","City":"Solana Beach","State":"CA","Zip":"92075"},{"Location":"STATION SUSHI","Address":"125 N Highway 101","City":"Solana Beach","State":"CA","Zip":"92075"},{"Location":"TIDEWATER BAR & GRILL","Address":"221 N Highway 101","City":"Solana Beach","State":"CA","Zip":"92075"},{"Location":"TRILOGY INVESTMENT GRP","Address":"512 Via De La Valle","City":"Solana Beach","State":"CA","Zip":"92075"},{"Location":"UPTOWN NEW YORK STYLE","Address":"524 Stevens Ave 9","City":"Solana Beach","State":"CA","Zip":"92075"},{"Location":"WEDBUSH SECURITIES","Address":"201 Lomas Santa Fe Dr 500","City":"Solana Beach","State":"CA","Zip":"92075"},{"Location":"WILL STAR 8","Address":"440 Stevens Ave 260","City":"Solana Beach","State":"CA","Zip":"92075"}]