[{"Location":"7607581120","Address":"1658 Anza Ave","City":"Vista","State":"CA","Zip":"92084"},{"Location":"ACCESS UNLIMITED INC","Address":"1591 E Vista Way B","City":"Vista","State":"CA","Zip":"92084"},{"Location":"ALL AMERICAN BARBER SHOP","Address":"1367 E Vista Way","City":"Vista","State":"CA","Zip":"92084"},{"Location":"ALL AUTOS SMOG","Address":"2244 S Santa Fe Ave C1","City":"Vista","State":"CA","Zip":"92084"},{"Location":"AMERICAN LEGION 365","Address":"1234 S Santa Fe Ave","City":"Vista","State":"CA","Zip":"92084"},{"Location":"BISTRO 760","Address":"959 E Vista Way","City":"Vista","State":"CA","Zip":"92084"},{"Location":"BOTTLE BIN LIQUOR","Address":"810 E Vista Way","City":"Vista","State":"CA","Zip":"92084"},{"Location":"DECADE PLUMBING COMPANY","Address":"759 Osborne St","City":"Vista","State":"CA","Zip":"92084"},{"Location":"DOWNSTOWN INC","Address":"2808 Foothill Dr","City":"Vista","State":"CA","Zip":"92084"},{"Location":"EL RANCHERO","Address":"1565 N Sante Fe Ave","City":"Vista","State":"CA","Zip":"92084"},{"Location":"ELKS LODGE","Address":"1947 E Vista Way","City":"Vista","State":"CA","Zip":"92084"},{"Location":"EZ EXPRESS LAUNDRY","Address":"1461 N Sante Fe Av 105","City":"Vista","State":"CA","Zip":"92084"},{"Location":"JIM'S VISTA LOUNGE","Address":"1587 E Vista Way","City":"Vista","State":"CA","Zip":"92084"},{"Location":"JOINT MEDICAL","Address":"410 S Santa Fe Ave 210","City":"Vista","State":"CA","Zip":"92084"},{"Location":"LA PERLA COCINA MEXICANA","Address":"962 S Santa Fe Ave","City":"Vista","State":"CA","Zip":"92084"},{"Location":"MAC CABINET","Address":"2464 S Santa Fe Ave","City":"Vista","State":"CA","Zip":"92084"},{"Location":"MARISCO EL PACIFICO","Address":"702 S Santa Fe Ave","City":"Vista","State":"CA","Zip":"92084"},{"Location":"MOTHER EARTH BREW CO","Address":"206 Main St","City":"Vista","State":"CA","Zip":"92084"},{"Location":"MRS TACO MEXICAN N SEAFO","Address":"1385 E Vista Way","City":"Vista","State":"CA","Zip":"92084"},{"Location":"NAIL FIRST AND SPA","Address":"240 Main St","City":"Vista","State":"CA","Zip":"92084"},{"Location":"NO VACANCY TRANSPORT INC","Address":"2492 South Sante Fe Ave  #a","City":"Vista","State":"CA","Zip":"92084"},{"Location":"NORTH COUNTY DENTAL CARE","Address":"1000 E Vista Way","City":"Vista","State":"CA","Zip":"92084"},{"Location":"PIZZAMANIA","Address":"1461 N Santa Fe Ave","City":"Vista","State":"CA","Zip":"92084"},{"Location":"PRIME INVESTORS CORP","Address":"640 Civic Center Dr 110","City":"Vista","State":"CA","Zip":"92084"},{"Location":"PROHIBITION BREWING COMP","Address":"2004 E Vista Way","City":"Vista","State":"CA","Zip":"92084"},{"Location":"ROCKSTAR RIDES INC","Address":"1036 S Santa Fe Ave","City":"Vista","State":"CA","Zip":"92084"},{"Location":"SCOTLAND YARD","Address":"837 Williamston St","City":"Vista","State":"CA","Zip":"92084"},{"Location":"SHOE PLAZA","Address":"830 E Vista Way 119","City":"Vista","State":"CA","Zip":"92084"},{"Location":"SNAP FITNESS #363","Address":"950 E Vista Way","City":"Vista","State":"CA","Zip":"92084"},{"Location":"URBAN PIZZA","Address":"203 Main St","City":"Vista","State":"CA","Zip":"92084"},{"Location":"VISITA FLOWER SHOP","Address":"102 Eucalyptus Ave A","City":"Vista","State":"CA","Zip":"92084"},{"Location":"VISTA DENTAL CARE & SPECIALTY","Address":"138 Civic Center Dr","City":"Vista","State":"CA","Zip":"92084"},{"Location":"VISTA VALLEY COUNTRY CLU","Address":"29354 Vista Valley Dr","City":"Vista","State":"CA","Zip":"92084"},{"Location":"VISTA VILLAGE PUB","Address":"224 Main St","City":"Vista","State":"CA","Zip":"92084"}]