[{"Location":"ARVISO MOBILEHOME PARK","Address":"40 Claudina Lane","City":"Rincon Indian Resv Valley Ctr","State":"CA","Zip":"92082"},{"Location":"BAND AID TRUST","Address":"33516 Couser Canyon Rd","City":"Valley Center","State":"CA","Zip":"92082"},{"Location":"BAND AID TRUST 1","Address":"33516 Couser Canyon Rd","City":"Valley Center","State":"CA","Zip":"92082"},{"Location":"CALIFORNIA FAMILY LIFE CENTER","Address":"13876 Charlan Rd","City":"Valley Center","State":"CA","Zip":"92082"},{"Location":"CALIFORNIA FAMILY LIFE CENTER","Address":"14950 Ranch Creek Ln","City":"Valley Center","State":"CA","Zip":"92082"},{"Location":"FAT IVOR'S RIB RACK","Address":"27961 Valley Center Rd","City":"Valley Center","State":"CA","Zip":"92082"},{"Location":"FIRE STATION","Address":"16150 Kumeyaay Way","City":"Valley Center","State":"CA","Zip":"92082"},{"Location":"HI CALIBER COTTAGE","Address":"11223 Calle Oro Verde","City":"Valley Center","State":"CA","Zip":"92082"},{"Location":"HI CALIBER HORSE RESCUE","Address":"11223 Calle Oro Verde","City":"Valley Center","State":"CA","Zip":"92082"},{"Location":"RANCHO DEL SOL","Address":"16390 Dia Del Sol","City":"Valley Center","State":"CA","Zip":"92082"},{"Location":"RINCON CASINO","Address":"33750 Valley Center Rd","City":"Valley Center","State":"CA","Zip":"92082"},{"Location":"RINCON TRIBAL GOVERNMENT","Address":"33485 Valley Center Rd","City":"Valley Center","State":"CA","Zip":"92082"},{"Location":"SAN PASQUAL BAND OF INDIANS","Address":"27458 N Lake Wohlford Rd","City":"Valley Center","State":"CA","Zip":"92082"},{"Location":"SAN PASQUAL HR","Address":"16400 Kumeyaay Way","City":"Valley Center","State":"CA","Zip":"92082"},{"Location":"SHAIN FITNESS CENTER","Address":"27350 Valley Center Rd A","City":"Valley Center","State":"CA","Zip":"92082"},{"Location":"THE CORNER SKILLET","Address":"27356 County Highway S6","City":"Valley Center","State":"CA","Zip":"92082"},{"Location":"VALLEY CENTER WATER DISTRICT","Address":"29300 Valley Center Rd","City":"Valley Center","State":"CA","Zip":"92082"},{"Location":"VALLEY VIEW CASINO","Address":"16300 Nyemii Pass Rd Zynsk","City":"Valley Center","State":"CA","Zip":"92082"},{"Location":"WOODS VALLEY GOLF CLUB","Address":"14616 Woods Valley Rd","City":"Valley Center","State":"CA","Zip":"92082"},{"Location":"WOODS VALLEY KAMP GROUND","Address":"15236 Woods Valley Rd","City":"Valley Center","State":"CA","Zip":"92082"},{"Location":"YOUGART STOP","Address":"28958 Lilac Rd 6","City":"Valley Center","State":"CA","Zip":"92082"}]