[{"Location":"24 HOUR FITNESS #868","Address":"324 Sycamore Ave","City":"Vista","State":"CA","Zip":"92083"},{"Location":"ALADDIN BB DEPT 715","Address":"575 W Vista Way D","City":"Vista","State":"CA","Zip":"92083"},{"Location":"BOOMERS","Address":"1525 W Vista Way","City":"Vista","State":"CA","Zip":"92083"},{"Location":"BOWLERS  ADVANTAGE","Address":"435 W Vista Way","City":"Vista","State":"CA","Zip":"92083"},{"Location":"BPSR VISTA","Address":"550 W Vista Way 407","City":"Vista","State":"CA","Zip":"92083"},{"Location":"CHECKS CENTERS","Address":"836 N Santa Fe Ave","City":"Vista","State":"CA","Zip":"92083"},{"Location":"CHILI'S #0784","Address":"255 Vista Village Dr","City":"Vista","State":"CA","Zip":"92083"},{"Location":"CREATIVE SMILES","Address":"730 Sycamore Ave Ab","City":"Vista","State":"CA","Zip":"92083"},{"Location":"DAVID B JENKINS DDS APC","Address":"161 Thunder Dr","City":"Vista","State":"CA","Zip":"92083"},{"Location":"DEPARTMENT OF RADIOLOGY","Address":"2095 W Vista Way","City":"Vista","State":"CA","Zip":"92083"},{"Location":"EL CHARRO BARBER SHOP","Address":"1318 N Santa Fe Ave","City":"Vista","State":"CA","Zip":"92083"},{"Location":"ELBERTOS MEXICAN FOOD","Address":"901 S Santa Fe Ave","City":"Vista","State":"CA","Zip":"92083"},{"Location":"FAMOUS DAVE'S #3152","Address":"303 Vista Village Dr","City":"Vista","State":"CA","Zip":"92083"},{"Location":"FELICCIAS DELI","Address":"1011 S Sante Fe Ave  #c","City":"Vista","State":"CA","Zip":"92083"},{"Location":"FIRESTONE #306091","Address":"1762 University Dr","City":"Vista","State":"CA","Zip":"92083"},{"Location":"FRANCISCAN COIN LAUNDRYS","Address":"931 S Santa Fe Ave","City":"Vista","State":"CA","Zip":"92083"},{"Location":"FRONTIER CONCRETE","Address":"717 Mercantile St","City":"Vista","State":"CA","Zip":"92083"},{"Location":"GE OSMONICS - VISTA","Address":"760 Shadowridge Dr","City":"Vista","State":"CA","Zip":"92083"},{"Location":"LA GORDITA MEXICAN FOOD","Address":"1275 S Santa Fe Ave","City":"Vista","State":"CA","Zip":"92083"},{"Location":"LAMPPOST PIZZA","Address":"15 Main St 100","City":"Vista","State":"CA","Zip":"92083"},{"Location":"LAS PUPUSAS MAMA LITA","Address":"1450 N Santa Fe Ave E","City":"Vista","State":"CA","Zip":"92083"},{"Location":"LIFE CHRISTIAN CHURCH","Address":"1132 N Melrose Dr","City":"Vista","State":"CA","Zip":"92083"},{"Location":"NEW LOOK HAIR & FASHION","Address":"995 Postal Way 112","City":"Vista","State":"CA","Zip":"92083"},{"Location":"OFFROAD VW DESIGN 1","Address":"724 Rincon St","City":"Vista","State":"CA","Zip":"92083"},{"Location":"PARTAKE","Address":"721 South Santfe Ave","City":"Vista","State":"CA","Zip":"92083"},{"Location":"PICKERING INSURANCE INC","Address":"1365 W Vista Way 200","City":"Vista","State":"CA","Zip":"92083"},{"Location":"PIZZA ON TAP","Address":"1825 W Vista Way","City":"Vista","State":"CA","Zip":"92083"},{"Location":"SALUD ES RIQUESA","Address":"512 W Vista Way","City":"Vista","State":"CA","Zip":"92083"},{"Location":"STAGE COACH INN","Address":"1865 W Vista Way","City":"Vista","State":"CA","Zip":"92083"},{"Location":"TARGET 1040","Address":"1751 University Dr","City":"Vista","State":"CA","Zip":"92083"},{"Location":"TIME OUT CAFE","Address":"1011 S Santa Fe Av Apta","City":"Vista","State":"CA","Zip":"92083"},{"Location":"V&J UPHOLSTERY","Address":"2253 S Santa Fe Ave D","City":"Vista","State":"CA","Zip":"92083"},{"Location":"VISTA ENTERTAINMENT CENTER","Address":"435 W Vista Way","City":"Vista","State":"CA","Zip":"92083"},{"Location":"WINET%2C PATRICK & WEAVER LAW CO","Address":"1215 W Vista Way","City":"Vista","State":"CA","Zip":"92083"},{"Location":"WINGS N THINGS","Address":"35 Main St C140","City":"Vista","State":"CA","Zip":"92083"},{"Location":"24 HOUR FITNESS #868","Address":"324 Sycamore Ave","City":"Vista","State":"CA","Zip":"92083"},{"Location":"ALADDIN BB DEPT 715","Address":"575 W Vista Way D","City":"Vista","State":"CA","Zip":"92083"},{"Location":"BOOMERS","Address":"1525 W Vista Way","City":"Vista","State":"CA","Zip":"92083"},{"Location":"BOWLERS  ADVANTAGE","Address":"435 W Vista Way","City":"Vista","State":"CA","Zip":"92083"},{"Location":"BPSR VISTA","Address":"550 W Vista Way 407","City":"Vista","State":"CA","Zip":"92083"},{"Location":"CHECKS CENTERS","Address":"836 N Santa Fe Ave","City":"Vista","State":"CA","Zip":"92083"},{"Location":"CHILI'S #0784","Address":"255 Vista Village Dr","City":"Vista","State":"CA","Zip":"92083"},{"Location":"CREATIVE SMILES","Address":"730 Sycamore Ave Ab","City":"Vista","State":"CA","Zip":"92083"},{"Location":"DAVID B JENKINS DDS APC","Address":"161 Thunder Dr","City":"Vista","State":"CA","Zip":"92083"},{"Location":"DEPARTMENT OF RADIOLOGY","Address":"2095 W Vista Way","City":"Vista","State":"CA","Zip":"92083"},{"Location":"EL CHARRO BARBER SHOP","Address":"1318 N Santa Fe Ave","City":"Vista","State":"CA","Zip":"92083"},{"Location":"ELBERTOS MEXICAN FOOD","Address":"901 S Santa Fe Ave","City":"Vista","State":"CA","Zip":"92083"},{"Location":"FAMOUS DAVE'S #3152","Address":"303 Vista Village Dr","City":"Vista","State":"CA","Zip":"92083"},{"Location":"FELICCIAS DELI","Address":"1011 S Sante Fe Ave  #c","City":"Vista","State":"CA","Zip":"92083"},{"Location":"FIRESTONE #306091","Address":"1762 University Dr","City":"Vista","State":"CA","Zip":"92083"},{"Location":"FRANCISCAN COIN LAUNDRYS","Address":"931 S Santa Fe Ave","City":"Vista","State":"CA","Zip":"92083"},{"Location":"FRONTIER CONCRETE","Address":"717 Mercantile St","City":"Vista","State":"CA","Zip":"92083"},{"Location":"GE OSMONICS - VISTA","Address":"760 Shadowridge Dr","City":"Vista","State":"CA","Zip":"92083"},{"Location":"LA GORDITA MEXICAN FOOD","Address":"1275 S Santa Fe Ave","City":"Vista","State":"CA","Zip":"92083"},{"Location":"LAMPPOST PIZZA","Address":"15 Main St 100","City":"Vista","State":"CA","Zip":"92083"},{"Location":"LAS PUPUSAS MAMA LITA","Address":"1450 N Santa Fe Ave E","City":"Vista","State":"CA","Zip":"92083"},{"Location":"LIFE CHRISTIAN CHURCH","Address":"1132 N Melrose Dr","City":"Vista","State":"CA","Zip":"92083"},{"Location":"NEW LOOK HAIR & FASHION","Address":"995 Postal Way 112","City":"Vista","State":"CA","Zip":"92083"},{"Location":"OFFROAD VW DESIGN 1","Address":"724 Rincon St","City":"Vista","State":"CA","Zip":"92083"},{"Location":"PARTAKE","Address":"721 South Santfe Ave","City":"Vista","State":"CA","Zip":"92083"},{"Location":"PICKERING INSURANCE INC","Address":"1365 W Vista Way 200","City":"Vista","State":"CA","Zip":"92083"},{"Location":"PIZZA ON TAP","Address":"1825 W Vista Way","City":"Vista","State":"CA","Zip":"92083"},{"Location":"SALUD ES RIQUESA","Address":"512 W Vista Way","City":"Vista","State":"CA","Zip":"92083"},{"Location":"STAGE COACH INN","Address":"1865 W Vista Way","City":"Vista","State":"CA","Zip":"92083"},{"Location":"TARGET 1040","Address":"1751 University Dr","City":"Vista","State":"CA","Zip":"92083"},{"Location":"TIME OUT CAFE","Address":"1011 S Santa Fe Av Apta","City":"Vista","State":"CA","Zip":"92083"},{"Location":"V&J UPHOLSTERY","Address":"2253 S Santa Fe Ave D","City":"Vista","State":"CA","Zip":"92083"},{"Location":"VISTA ENTERTAINMENT CENTER","Address":"435 W Vista Way","City":"Vista","State":"CA","Zip":"92083"},{"Location":"WINET%2C PATRICK & WEAVER LAW CO","Address":"1215 W Vista Way","City":"Vista","State":"CA","Zip":"92083"},{"Location":"WINGS N THINGS","Address":"35 Main St C140","City":"Vista","State":"CA","Zip":"92083"}]