[{"Location":"ACCESS CHILDRENS DENTAL","Address":"1944 Via Ctr","City":"Vista","State":"CA","Zip":"92081"},{"Location":"ALL PRO BAILBONDS","Address":"530 Hacienda Dr 104d","City":"Vista","State":"CA","Zip":"92081"},{"Location":"AMERICAN IRON RACING","Address":"2478 Grand Ave","City":"Vista","State":"CA","Zip":"92081"},{"Location":"APERIO TECHNOLOGIES","Address":"1360 Park Center Dr","City":"Vista","State":"CA","Zip":"92081"},{"Location":"AVOYA TRAVEL","Address":"1830 Hacienda Dr 10","City":"Vista","State":"CA","Zip":"92081"},{"Location":"AZTEC BREWING COMPANY","Address":"2330 La Mirada Dr 300","City":"Vista","State":"CA","Zip":"92081"},{"Location":"B & D NUTRITIONAL INGREDIENTS","Address":"961 Park Center Dr","City":"Vista","State":"CA","Zip":"92081"},{"Location":"BARREL HARBOR BREWING CO","Address":"2575 Pioneer Ave 104","City":"Vista","State":"CA","Zip":"92081"},{"Location":"BEACH COMBER HOT TUBS","Address":"1204 Park Center Dr","City":"Vista","State":"CA","Zip":"92081"},{"Location":"BMW OF VISTA","Address":"1715 Hacienda Dr","City":"Vista","State":"CA","Zip":"92081"},{"Location":"COLIMAS MEXICAN FOOD","Address":"1850 Hacienda Dr 22","City":"Vista","State":"CA","Zip":"92081"},{"Location":"COUNTY OF SAN DIEGO PD 1","Address":"410 S Melrose Dr","City":"Vista","State":"CA","Zip":"92081"},{"Location":"CYBERKNIFE","Address":"902 Sycamore Ave 100","City":"Vista","State":"CA","Zip":"92081"},{"Location":"DC LABS INC","Address":"2350 Oakridgeway","City":"Vista","State":"CA","Zip":"92081"},{"Location":"DEI HOLDINGS","Address":"1 Viper Way","City":"Vista","State":"CA","Zip":"92081"},{"Location":"DJ ORTHOPEDICS","Address":"1325 Sycamore Ave","City":"Vista","State":"CA","Zip":"92081"},{"Location":"DJO GLOBAL","Address":"3151 Scott St","City":"Vista","State":"CA","Zip":"92081"},{"Location":"DJO LLC","Address":"1430 Decision St","City":"Vista","State":"CA","Zip":"92081"},{"Location":"EARTHLITE MASSAGE TABLES","Address":"3210 Executive Rdg","City":"Vista","State":"CA","Zip":"92081"},{"Location":"ELECTRICAL SALES","Address":"2300 La Mirada Dr","City":"Vista","State":"CA","Zip":"92081"},{"Location":"EXPRESS TIRE","Address":"2030 Hacienda Dr","City":"Vista","State":"CA","Zip":"92081"},{"Location":"FERRO","Address":"1395 Aspen Way","City":"Vista","State":"CA","Zip":"92081"},{"Location":"FMC 93820000","Address":"950 Hacienda Dr","City":"Vista","State":"CA","Zip":"92081"},{"Location":"FOOTHILL LAUNDRY INC","Address":"2020 Hacienda Dr Q","City":"Vista","State":"CA","Zip":"92081"},{"Location":"FULL SERVICE TRAVEL%2C INC","Address":"1890 Hacienda Dr","City":"Vista","State":"CA","Zip":"92081"},{"Location":"HUNGRY BEAR DELI INC","Address":"2205 S Melrose Dr 103","City":"Vista","State":"CA","Zip":"92081"},{"Location":"HYATT PLACE VISTAT (70470)","Address":"2645 S Melrose Dr","City":"Vista","State":"CA","Zip":"92081"},{"Location":"INDIAN JOE BREWING","Address":"2379 La Mirada Dr","City":"Vista","State":"CA","Zip":"92081"},{"Location":"ISLANDS RESTAURANT #019","Address":"240 S Melrose Dr","City":"Vista","State":"CA","Zip":"92081"},{"Location":"JAMES A. HENNENHOEFER%2C APC","Address":"316 S Melrose Dr","City":"Vista","State":"CA","Zip":"92081"},{"Location":"JERSEY MIKES SUBS","Address":"620 Hacienda Dr 103","City":"Vista","State":"CA","Zip":"92081"},{"Location":"KING STAHLMAN BAIL BONDS","Address":"620 Hacienda Dr","City":"Vista","State":"CA","Zip":"92081"},{"Location":"LA FITNESS #48","Address":"680 Hacienda Dr","City":"Vista","State":"CA","Zip":"92081"},{"Location":"LAW OFFICES","Address":"400 S Melrose Dr 109","City":"Vista","State":"CA","Zip":"92081"},{"Location":"MEXICO VIEJO","Address":"3265 Business Park Dr B","City":"Vista","State":"CA","Zip":"92081"},{"Location":"MRS TACO","Address":"2215 S Melrose Dr","City":"Vista","State":"CA","Zip":"92081"},{"Location":"NORTH COUNTY'S HOUSE OF MOTOR","Address":"1725 Hacienda Dr","City":"Vista","State":"CA","Zip":"92081"},{"Location":"OGGIS PIZZA & BREWHOUSE","Address":"425 S Melrose Dr","City":"Vista","State":"CA","Zip":"92081"},{"Location":"ONCOLOGY THERAPIST OF VISTA","Address":"916 Sycamore Ave","City":"Vista","State":"CA","Zip":"92081"},{"Location":"PALOMAR PIZZA","Address":"3265 Business Park Dr A","City":"Vista","State":"CA","Zip":"92081"},{"Location":"RANCHO PHYSICAL THERAPY","Address":"1922 Hacienda Dr","City":"Vista","State":"CA","Zip":"92081"},{"Location":"RANCHO VISTA CAR WASH","Address":"600 Hacienda Dr","City":"Vista","State":"CA","Zip":"92081"},{"Location":"RES COM SERVICES INC","Address":"2575 Fortune Way E","City":"Vista","State":"CA","Zip":"92081"},{"Location":"RICE KING","Address":"3265 Business Park Dr C","City":"Vista","State":"CA","Zip":"92081"},{"Location":"RIGHTWAY GATE","Address":"3220 Executive Rdg","City":"Vista","State":"CA","Zip":"92081"},{"Location":"ROSAS KITCHEN","Address":"530 Hacienda Dr","City":"Vista","State":"CA","Zip":"92081"},{"Location":"SHADOWRIDGE CC","Address":"1980 Gateway Dr","City":"Vista","State":"CA","Zip":"92081"},{"Location":"STEWART CHANG DDS","Address":"1920 Dia Centre St  #a","City":"Vista","State":"CA","Zip":"92081"},{"Location":"STIX HOLDINGS 768","Address":"251 S Melrose Dr 303","City":"Vista","State":"CA","Zip":"92081"},{"Location":"SUSHI ON THE EDGE","Address":"1611 S Melrose Dr P","City":"Vista","State":"CA","Zip":"92081"},{"Location":"THAI ONE ON","Address":"485 S Melrose Dr","City":"Vista","State":"CA","Zip":"92081"},{"Location":"THE ROYAL WINGS INC.","Address":"510 Hacienda Dr 113","City":"Vista","State":"CA","Zip":"92081"},{"Location":"TOOLBOX BREWING COMPANY LLC","Address":"1495 Poinsettia Ave 148","City":"Vista","State":"CA","Zip":"92081"},{"Location":"TRI CITY PETCT LLC","Address":"902 Sycamore Ave 120","City":"Vista","State":"CA","Zip":"92081"},{"Location":"UNITE EURO THERAPY","Address":"1255 Keystone Way F","City":"Vista","State":"CA","Zip":"92081"},{"Location":"US FOOD SERVICE","Address":"1201 Park Center Dr","City":"Vista","State":"CA","Zip":"92081"},{"Location":"VERIZON VISTA","Address":"2430 Business Park Dr","City":"Vista","State":"CA","Zip":"92081"},{"Location":"VIA SICILLA","Address":"631 S Melrose Dr 101","City":"Vista","State":"CA","Zip":"92081"},{"Location":"VISTA IRRIGATION DISTRIC","Address":"1391 Engineer St","City":"Vista","State":"CA","Zip":"92081"},{"Location":"WESTERN AMERICAN SPECIAL","Address":"2880 Scott St 101","City":"Vista","State":"CA","Zip":"92081"},{"Location":"YOUNGDALE MFG. CORP.","Address":"1216 Liberty Way B","City":"Vista","State":"CA","Zip":"92081"},{"Location":"ACCESS CHILDRENS DENTAL","Address":"1944 Via Ctr","City":"Vista","State":"CA","Zip":"92081"},{"Location":"ALL PRO BAILBONDS","Address":"530 Hacienda Dr 104d","City":"Vista","State":"CA","Zip":"92081"},{"Location":"AMERICAN IRON RACING","Address":"2478 Grand Ave","City":"Vista","State":"CA","Zip":"92081"},{"Location":"APERIO TECHNOLOGIES","Address":"1360 Park Center Dr","City":"Vista","State":"CA","Zip":"92081"},{"Location":"AVOYA TRAVEL","Address":"1830 Hacienda Dr 10","City":"Vista","State":"CA","Zip":"92081"},{"Location":"AZTEC BREWING COMPANY","Address":"2330 La Mirada Dr 300","City":"Vista","State":"CA","Zip":"92081"},{"Location":"B & D NUTRITIONAL INGREDIENTS","Address":"961 Park Center Dr","City":"Vista","State":"CA","Zip":"92081"},{"Location":"BARREL HARBOR BREWING CO","Address":"2575 Pioneer Ave 104","City":"Vista","State":"CA","Zip":"92081"},{"Location":"BEACH COMBER HOT TUBS","Address":"1204 Park Center Dr","City":"Vista","State":"CA","Zip":"92081"},{"Location":"BMW OF VISTA","Address":"1715 Hacienda Dr","City":"Vista","State":"CA","Zip":"92081"},{"Location":"COLIMAS MEXICAN FOOD","Address":"1850 Hacienda Dr 22","City":"Vista","State":"CA","Zip":"92081"},{"Location":"COUNTY OF SAN DIEGO PD 1","Address":"410 S Melrose Dr","City":"Vista","State":"CA","Zip":"92081"},{"Location":"COUNTY OF SAN DIEGO PD 1","Address":"400 S Melrose Dr","City":"Vista","State":"CA","Zip":"92081"},{"Location":"CYBERKNIFE","Address":"902 Sycamore Ave 100","City":"Vista","State":"CA","Zip":"92081"},{"Location":"DC LABS INC","Address":"2350 Oakridgeway","City":"Vista","State":"CA","Zip":"92081"},{"Location":"DEI HOLDINGS","Address":"1 Viper Way","City":"Vista","State":"CA","Zip":"92081"},{"Location":"DJ ORTHOPEDICS","Address":"1325 Sycamore Ave","City":"Vista","State":"CA","Zip":"92081"},{"Location":"DJO GLOBAL","Address":"3151 Scott St","City":"Vista","State":"CA","Zip":"92081"},{"Location":"DJO LLC","Address":"1430 Decision St","City":"Vista","State":"CA","Zip":"92081"},{"Location":"EARTHLITE MASSAGE TABLES","Address":"3210 Executive Rdg","City":"Vista","State":"CA","Zip":"92081"},{"Location":"ELECTRICAL SALES","Address":"2300 La Mirada Dr","City":"Vista","State":"CA","Zip":"92081"},{"Location":"EXPRESS TIRE","Address":"2030 Hacienda Dr","City":"Vista","State":"CA","Zip":"92081"},{"Location":"FERRO","Address":"1395 Aspen Way","City":"Vista","State":"CA","Zip":"92081"},{"Location":"FMC 93820000","Address":"950 Hacienda Dr","City":"Vista","State":"CA","Zip":"92081"},{"Location":"FOOTHILL LAUNDRY INC","Address":"2020 Hacienda Dr Q","City":"Vista","State":"CA","Zip":"92081"},{"Location":"FULL SERVICE TRAVEL%2C INC","Address":"1890 Hacienda Dr","City":"Vista","State":"CA","Zip":"92081"},{"Location":"HUNGRY BEAR DELI INC","Address":"2205 S Melrose Dr 103","City":"Vista","State":"CA","Zip":"92081"},{"Location":"HYATT PLACE VISTAT (70470)","Address":"2645 S Melrose Dr","City":"Vista","State":"CA","Zip":"92081"},{"Location":"INDIAN JOE BREWING","Address":"2379 La Mirada Dr","City":"Vista","State":"CA","Zip":"92081"},{"Location":"ISLANDS RESTAURANT #019","Address":"240 S Melrose Dr","City":"Vista","State":"CA","Zip":"92081"},{"Location":"JAMES A. HENNENHOEFER%2C APC","Address":"316 S Melrose Dr","City":"Vista","State":"CA","Zip":"92081"},{"Location":"JERSEY MIKES SUBS","Address":"620 Hacienda Dr 103","City":"Vista","State":"CA","Zip":"92081"},{"Location":"KING STAHLMAN BAIL BONDS","Address":"620 Hacienda Dr","City":"Vista","State":"CA","Zip":"92081"},{"Location":"LA FITNESS #48","Address":"680 Hacienda Dr","City":"Vista","State":"CA","Zip":"92081"},{"Location":"LAW OFFICES","Address":"400 S Melrose Dr 109","City":"Vista","State":"CA","Zip":"92081"},{"Location":"MEXICO VIEJO","Address":"3265 Business Park Dr B","City":"Vista","State":"CA","Zip":"92081"},{"Location":"MRS TACO","Address":"2215 S Melrose Dr","City":"Vista","State":"CA","Zip":"92081"},{"Location":"NORTH COUNTY'S HOUSE OF MOTOR","Address":"1725 Hacienda Dr","City":"Vista","State":"CA","Zip":"92081"},{"Location":"OGGIS PIZZA & BREWHOUSE","Address":"425 S Melrose Dr","City":"Vista","State":"CA","Zip":"92081"},{"Location":"ONCOLOGY THERAPIST OF VISTA","Address":"916 Sycamore Ave","City":"Vista","State":"CA","Zip":"92081"},{"Location":"PALOMAR PIZZA","Address":"3265 Business Park Dr A","City":"Vista","State":"CA","Zip":"92081"},{"Location":"RANCHO PHYSICAL THERAPY","Address":"1922 Hacienda Dr","City":"Vista","State":"CA","Zip":"92081"},{"Location":"RANCHO VISTA CAR WASH","Address":"600 Hacienda Dr","City":"Vista","State":"CA","Zip":"92081"},{"Location":"RES COM SERVICES INC","Address":"2575 Fortune Way E","City":"Vista","State":"CA","Zip":"92081"},{"Location":"RICE KING","Address":"3265 Business Park Dr C","City":"Vista","State":"CA","Zip":"92081"},{"Location":"RIGHTWAY GATE","Address":"3220 Executive Rdg","City":"Vista","State":"CA","Zip":"92081"},{"Location":"ROSAS KITCHEN","Address":"530 Hacienda Dr","City":"Vista","State":"CA","Zip":"92081"},{"Location":"SHADOWRIDGE CC","Address":"1980 Gateway Dr","City":"Vista","State":"CA","Zip":"92081"},{"Location":"STEWART CHANG DDS","Address":"1920 Dia Centre St  #a","City":"Vista","State":"CA","Zip":"92081"},{"Location":"STIX HOLDINGS 768","Address":"251 S Melrose Dr 303","City":"Vista","State":"CA","Zip":"92081"},{"Location":"SUSHI ON THE EDGE","Address":"1611 S Melrose Dr P","City":"Vista","State":"CA","Zip":"92081"},{"Location":"THAI ONE ON","Address":"485 S Melrose Dr","City":"Vista","State":"CA","Zip":"92081"},{"Location":"THE ROYAL WINGS INC.","Address":"510 Hacienda Dr 113","City":"Vista","State":"CA","Zip":"92081"},{"Location":"TOOLBOX BREWING COMPANY LLC","Address":"1495 Poinsettia Ave 148","City":"Vista","State":"CA","Zip":"92081"},{"Location":"TRI CITY PETCT LLC","Address":"902 Sycamore Ave 120","City":"Vista","State":"CA","Zip":"92081"},{"Location":"UNITE EURO THERAPY","Address":"1255 Keystone Way F","City":"Vista","State":"CA","Zip":"92081"},{"Location":"US FOOD SERVICE","Address":"1201 Park Center Dr","City":"Vista","State":"CA","Zip":"92081"},{"Location":"VERIZON VISTA","Address":"2430 Business Park Dr","City":"Vista","State":"CA","Zip":"92081"},{"Location":"VIA SICILLA","Address":"631 S Melrose Dr 101","City":"Vista","State":"CA","Zip":"92081"},{"Location":"VISTA IRRIGATION DISTRIC","Address":"1391 Engineer St","City":"Vista","State":"CA","Zip":"92081"},{"Location":"WESTERN AMERICAN SPECIAL","Address":"2880 Scott St 101","City":"Vista","State":"CA","Zip":"92081"},{"Location":"YOUNGDALE MFG. CORP.","Address":"1216 Liberty Way B","City":"Vista","State":"CA","Zip":"92081"}]