[{"Location":"RAGLAN PUBLIC HOUSE","Address":"1851 Bacon St","City":"Ocean Beach","State":"CA","Zip":"92107"},{"Location":"A FINE BAR INC.","Address":"5034 Newport Ave","City":"San Diego","State":"CA","Zip":"92107"},{"Location":"ARIZONA CAFE","Address":"1925 Bacon St","City":"San Diego","State":"CA","Zip":"92107"},{"Location":"BLIND WINSTONS LLC","Address":"1921 Bacon St","City":"San Diego","State":"CA","Zip":"92107"},{"Location":"BRAVOS MEXICAN BISTRO&CA","Address":"5001 Newport Ave","City":"San Diego","State":"CA","Zip":"92107"},{"Location":"CATALINA LOUNGE","Address":"4202 Voltaire St","City":"San Diego","State":"CA","Zip":"92107"},{"Location":"CHESWICKS WEST","Address":"5038 1%2F2 Newport Ave","City":"San Diego","State":"CA","Zip":"92107"},{"Location":"GALLAGHER'S PUB","Address":"5046 Newport Ave","City":"San Diego","State":"CA","Zip":"92107"},{"Location":"HOZIES CLUB VOLTAIRE","Address":"4745 Voltaire St","City":"San Diego","State":"CA","Zip":"92107"},{"Location":"HUNGRY LUS ITALIAN DELI","Address":"4920 Voltaire St","City":"San Diego","State":"CA","Zip":"92107"},{"Location":"LUCY'S TAVERN","Address":"4906 Voltaire St","City":"San Diego","State":"CA","Zip":"92107"},{"Location":"MARGARITAS","Address":"4955 Newport Ave","City":"San Diego","State":"CA","Zip":"92107"},{"Location":"MOTHERS OCEAN BEACH","Address":"2228 Bacon St","City":"San Diego","State":"CA","Zip":"92107"},{"Location":"O'BISTRO CAFE","Address":"4934 Voltaire St","City":"San Diego","State":"CA","Zip":"92107"},{"Location":"OB KABOB INC","Address":"4994 Newport Ave A","City":"San Diego","State":"CA","Zip":"92107"},{"Location":"OB NOODLE HOUSE BAR 1502","Address":"4993 Niagara Ave","City":"San Diego","State":"CA","Zip":"92107"},{"Location":"OB SUSHI","Address":"4967 Newport Ave 17","City":"San Diego","State":"CA","Zip":"92107"},{"Location":"OB WAREHOUSE","Address":"4839 Newport Ave","City":"San Diego","State":"CA","Zip":"92107"},{"Location":"OCEAN BEACH INTER HOSTEL","Address":"4961 Newport Ave","City":"San Diego","State":"CA","Zip":"92107"},{"Location":"PIZZA PORT","Address":"1956 Bacon St","City":"San Diego","State":"CA","Zip":"92107"},{"Location":"REUNION BAR","Address":"2205 Mendocino Blvd","City":"San Diego","State":"CA","Zip":"92107"},{"Location":"ROBB FITNESS CLUB","Address":"2525 Bacon St","City":"San Diego","State":"CA","Zip":"92107"},{"Location":"SESSIONS PUBLIC","Address":"4204 Voltaire St","City":"San Diego","State":"CA","Zip":"92107"},{"Location":"SOUTH BEACH BAR & GRILL","Address":"5059 Newport Ave 104","City":"San Diego","State":"CA","Zip":"92107"},{"Location":"TAKKA SUSHI","Address":"4953 Newport Ave","City":"San Diego","State":"CA","Zip":"92107"},{"Location":"THE ALE HOUSE","Address":"5050 Newport Ave","City":"San Diego","State":"CA","Zip":"92107"},{"Location":"THE HARP","Address":"4935 Newport Ave","City":"San Diego","State":"CA","Zip":"92107"},{"Location":"THE TILTED STICK 2","Address":"4714 Saratoga Ave","City":"San Diego","State":"CA","Zip":"92107"},{"Location":"TILTED STICK","Address":"4970 Voltaire St","City":"San Diego","State":"CA","Zip":"92107"},{"Location":"WONDERLAND","Address":"5083 Santa Monica Ave 2c","City":"San Diego","State":"CA","Zip":"92107"},{"Location":"YOU ARE MY INC.","Address":"5028 Newport Ave","City":"San Diego","State":"CA","Zip":"92107"}]