[{"Location":"24 HOUR FITNESS #109","Address":"5885 Rancho Mission Rd","City":"San Diego","State":"CA","Zip":"92108"},{"Location":"24 HOUR FITNESS #67","Address":"1640 Camino Del Rio N 315","City":"San Diego","State":"CA","Zip":"92108"},{"Location":"APPLEBEE'S #2150031","Address":"7510 Hazard Center Dr 407","City":"San Diego","State":"CA","Zip":"92108"},{"Location":"BENIHANA #1010 SAN DIEGO","Address":"477 Camino Rio S","City":"San Diego","State":"CA","Zip":"92108"},{"Location":"BJ'S RESTAURATS #544","Address":"1370 Frazee Rd","City":"San Diego","State":"CA","Zip":"92108"},{"Location":"BLOOMINGDALE'S","Address":"7057 Friars Rd","City":"San Diego","State":"CA","Zip":"92108"},{"Location":"BROKEN YOLK CAFE","Address":"1760 Del Rio","City":"San Diego","State":"CA","Zip":"92108"},{"Location":"BUFFALO WILD WINGS #0476","Address":"1640 Camino Del Rio N","City":"San Diego","State":"CA","Zip":"92108"},{"Location":"BULLY'S EAST","Address":"2401 Camino Del Rio S","City":"San Diego","State":"CA","Zip":"92108"},{"Location":"BYUNG SUN YOO DDS INC","Address":"2221 Camino Del Rio S","City":"San Diego","State":"CA","Zip":"92108"},{"Location":"CALIF. ORTHOPAEDIC INST.","Address":"7485 Mission Valley Rd 104a","City":"San Diego","State":"CA","Zip":"92108"},{"Location":"CHIBA RESTAURANT INC","Address":"10435 San Diego Mission Rd","City":"San Diego","State":"CA","Zip":"92108"},{"Location":"CHICAGO BROS PIZZERIA","Address":"10423 San Diego Mission Rd","City":"San Diego","State":"CA","Zip":"92108"},{"Location":"CHILI'S #0076","Address":"4252 Camino Del Rio N","City":"San Diego","State":"CA","Zip":"92108"},{"Location":"CHOW HOUND INC","Address":"5608 Mission Center Rd 901","City":"San Diego","State":"CA","Zip":"92108"},{"Location":"CHUZE FITNESS","Address":"1233 Camino Del Rio S","City":"San Diego","State":"CA","Zip":"92108"},{"Location":"CNL BISTRO CORP","Address":"2408 Northside Dr","City":"San Diego","State":"CA","Zip":"92108"},{"Location":"CONCORDE CONSULTING GROUP LLC","Address":"3505 Camino Del Rio S 332","City":"San Diego","State":"CA","Zip":"92108"},{"Location":"CONTINENTAL CASUALTY CO","Address":"1455 Frazee Rd 300","City":"San Diego","State":"CA","Zip":"92108"},{"Location":"COURTESY CHEVROLET CENTER","Address":"750 Camino Del Rio N","City":"San Diego","State":"CA","Zip":"92108"},{"Location":"COURTYARD (0005370)","Address":"595 Hotel Cir S","City":"San Diego","State":"CA","Zip":"92108"},{"Location":"DAVE AND BUSTER'S #27","Address":"2931 Camino Del Rio N","City":"San Diego","State":"CA","Zip":"92108"},{"Location":"DESTINATION XL 9870","Address":"1640 Camino Del Rio N Fc1","City":"San Diego","State":"CA","Zip":"92108"},{"Location":"DOUBLETREE (0014270)","Address":"1515 Hotel Cir S","City":"San Diego","State":"CA","Zip":"92108"},{"Location":"DRAGON RESTAURANT","Address":"2169 Senton Parkway #102","City":"San Diego","State":"CA","Zip":"92108"},{"Location":"EPN - LYLAN REYES","Address":"2727 Camino Del Rio S Ste.2","City":"San Diego","State":"CA","Zip":"92108"},{"Location":"FIDELITY INVESTMENTS 154","Address":"7676 Hazard Center Dr 210","City":"San Diego","State":"CA","Zip":"92108"},{"Location":"FIRESTONE #029971","Address":"6977 Friars Rd 104a","City":"San Diego","State":"CA","Zip":"92108"},{"Location":"FSI WEALTH MANAGEMENT","Address":"1455 Frazee Rd 804","City":"San Diego","State":"CA","Zip":"92108"},{"Location":"FUDDRUCKERS #3433","Address":"891 Camino De La Reina","City":"San Diego","State":"CA","Zip":"92108"},{"Location":"GOLFSMITH #056","Address":"836 Camino Del Rio N","City":"San Diego","State":"CA","Zip":"92108"},{"Location":"GORDON BIERSCH #4610","Address":"5010 Mission Center Rd","City":"San Diego","State":"CA","Zip":"92108"},{"Location":"GRAHAM SIMPSON DDS","Address":"2333 Camino Del Rio S","City":"San Diego","State":"CA","Zip":"92108"},{"Location":"HILTON - MISSION VALLEY","Address":"901 Camino Del Rio S","City":"San Diego","State":"CA","Zip":"92108"},{"Location":"HILTON SD (0004830)","Address":"901 Camino Del Rio S","City":"San Diego","State":"CA","Zip":"92108"},{"Location":"HOLLYWOOD TANS","Address":"1400 Camino De La Reina 121","City":"San Diego","State":"CA","Zip":"92108"},{"Location":"HOOTERS MISSION VALLEY MVW103","Address":"1400 Camino De La Reina","City":"San Diego","State":"CA","Zip":"92108"},{"Location":"IKEA US WEST%2CINC # 166","Address":"2149 Fenton Pkwy","City":"San Diego","State":"CA","Zip":"92108"},{"Location":"INNOVA SYSTEMS","Address":"2385 Northside Dr 300","City":"San Diego","State":"CA","Zip":"92108"},{"Location":"INSTYLE NAILS","Address":"10439 San Diego Mission Rd","City":"San Diego","State":"CA","Zip":"92108"},{"Location":"ISLANDS RESTAURANTS #031","Address":"2441 Fenton Pkwy","City":"San Diego","State":"CA","Zip":"92108"},{"Location":"JCS #0652 - SAN DIEGO","Address":"7610 Hazard Center Dr 703","City":"San Diego","State":"CA","Zip":"92108"},{"Location":"KATI THAI CUISINE","Address":"10467 San Diego Mission Rd","City":"San Diego","State":"CA","Zip":"92108"},{"Location":"KSON KIFM AND KBZT","Address":"1615 Murray Canyon Rd 710","City":"San Diego","State":"CA","Zip":"92108"},{"Location":"LIBERTY MUTUAL INS","Address":"1615 Murray Canyon Rd Ste30","City":"San Diego","State":"CA","Zip":"92108"},{"Location":"LIVING SPACES SD","Address":"8730 Rio San Diego Dr","City":"San Diego","State":"CA","Zip":"92108"},{"Location":"LPL FINANCIAL SERVICES","Address":"1450 Frazee Rd 610","City":"San Diego","State":"CA","Zip":"92108"},{"Location":"MACY'S WEST 544 BR","Address":"7017 Friars Rd","City":"San Diego","State":"CA","Zip":"92108"},{"Location":"MACY'S WEST 553 BR","Address":"1702 Camino Del Rio N","City":"San Diego","State":"CA","Zip":"92108"},{"Location":"MACY'S WEST 556","Address":"556 Mission Valley","City":"San Diego","State":"CA","Zip":"92108"},{"Location":"MANCHESTER FINACIAL GROUP","Address":"350 Camino De La Reina","City":"San Diego","State":"CA","Zip":"92108"},{"Location":"MARRIOTT MISSION VALLEY SAN DI","Address":"8757 Rio San Diego Dr","City":"San Diego","State":"CA","Zip":"92108"},{"Location":"MARRIOTT MVP BAR","Address":"8757 Rio San Diego Dr","City":"San Diego","State":"CA","Zip":"92108"},{"Location":"MARRIOTT MVP BQTS","Address":"8757 Rio San Diego Dr A","City":"San Diego","State":"CA","Zip":"92108"},{"Location":"MARRIOTT MVP LOBBY","Address":"8757 Rio San Diego Dr","City":"San Diego","State":"CA","Zip":"92108"},{"Location":"MARRIOTT MVP POOL)","Address":"8757 Rio San Diego Dr","City":"San Diego","State":"CA","Zip":"92108"},{"Location":"MCCARTHY AND HOLTHUS","Address":"2763 Camino Del Rio S","City":"San Diego","State":"CA","Zip":"92108"},{"Location":"MCGREGOR'S GRILL & ALE","Address":"10475 San Diego Mission Rd","City":"San Diego","State":"CA","Zip":"92108"},{"Location":"MEN'S WEARHOUSE #2302","Address":"5171 Mission Center Rd B","City":"San Diego","State":"CA","Zip":"92108"},{"Location":"METLIFE","Address":"3131 Camino Del Rio N 1200","City":"San Diego","State":"CA","Zip":"92108"},{"Location":"METRO NETWORKS","Address":"591 Camino De La Reina","City":"San Diego","State":"CA","Zip":"92108"},{"Location":"MICROSOFT-SAN DIEGO","Address":"7007 Friars Rd 324","City":"San Diego","State":"CA","Zip":"92108"},{"Location":"MIDWAY CHRYSLER DODGE JEEPRAM","Address":"777 Camino Del Rio S","City":"San Diego","State":"CA","Zip":"92108"},{"Location":"MISSION VALLEY  LP","Address":"8590 Rio San Diego Dr 101","City":"San Diego","State":"CA","Zip":"92108"},{"Location":"MISSION VALLEY CAFE","Address":"967 Camino Del Rio S","City":"San Diego","State":"CA","Zip":"92108"},{"Location":"MISSION VALLEY RESORT & TAVERN","Address":"875 Hotel Cir S","City":"San Diego","State":"CA","Zip":"92108"},{"Location":"MISSION VALLEY SMILES","Address":"2221 Camins Del Rio S 206","City":"San Diego","State":"CA","Zip":"92108"},{"Location":"MISSION VLY.HTS.SURGERY","Address":"7485 Mission Valley Rd 106","City":"San Diego","State":"CA","Zip":"92108"},{"Location":"MR PEABODYS","Address":"6110 Friars Rd 108","City":"San Diego","State":"CA","Zip":"92108"},{"Location":"NAVARRO & ASSOCIATES  IN","Address":"2375 Northside Dr 320","City":"San Diego","State":"CA","Zip":"92108"},{"Location":"NBIS","Address":"1450 Frazee Rd 414","City":"San Diego","State":"CA","Zip":"92108"},{"Location":"NEIGHBORHOOD MARKET","Address":"7050 Friars Rd Up","City":"San Diego","State":"CA","Zip":"92108"},{"Location":"NIKE INC","Address":"7007 Friars Rd 770","City":"San Diego","State":"CA","Zip":"92108"},{"Location":"NORDSTROM","Address":"1640 Camino Del Rio N","City":"San Diego","State":"CA","Zip":"92108"},{"Location":"NORDSTROM FASHION VALLEY","Address":"6997 Friars Rd","City":"San Diego","State":"CA","Zip":"92108"},{"Location":"OASIS DENTISTRY","Address":"2020 Camino Del Rio N 108","City":"San Diego","State":"CA","Zip":"92108"},{"Location":"OGGI'S PIZZA & BREWING CO.","Address":"2245 Fenton Pkwy 101","City":"San Diego","State":"CA","Zip":"92108"},{"Location":"OLIDA RISTORANTE","Address":"6110 Friars Rd 111","City":"San Diego","State":"CA","Zip":"92108"},{"Location":"ON THE BORDER","Address":"1770 Camino De La Reina","City":"San Diego","State":"CA","Zip":"92108"},{"Location":"ONAMI RESTOURANT","Address":"1640 Camino Del Rio N 206","City":"San Diego","State":"CA","Zip":"92108"},{"Location":"OSAKA JAPANESE FOOD AND SUSHI","Address":"4242 Camino Del Rio N 26","City":"San Diego","State":"CA","Zip":"92108"},{"Location":"OUTBACK STEAKHOUSE #0578","Address":"1640 Camino Del Rio N","City":"San Diego","State":"CA","Zip":"92108"},{"Location":"PACIFIC DENTAL #270","Address":"5638 Mission Center Rd 107","City":"San Diego","State":"CA","Zip":"92108"},{"Location":"PF CHANG'S #7200","Address":"7077 Friars Rd","City":"San Diego","State":"CA","Zip":"92108"},{"Location":"PLAYA GRILL & MARGARITA BAR","Address":"2401 Fenton Pkwy 104","City":"San Diego","State":"CA","Zip":"92108"},{"Location":"POOCH HOTEL #5906","Address":"2120 Camino Del Rio N","City":"San Diego","State":"CA","Zip":"92108"},{"Location":"PRESTIGE NAIL AND SPA","Address":"1660 Camino De La Reina B","City":"San Diego","State":"CA","Zip":"92108"},{"Location":"QF CIRCA 37","Address":"7800 Westside Dr 108","City":"San Diego","State":"CA","Zip":"92108"},{"Location":"R AND P RESTURANT GROUP LLC","Address":"5618 Mission Center Rd 1002","City":"San Diego","State":"CA","Zip":"92108"},{"Location":"REGUS","Address":"1455 Frazee Rd 500","City":"San Diego","State":"CA","Zip":"92108"},{"Location":"RESIDENCE INN (0054700)","Address":"1865 Hotel Cir S","City":"San Diego","State":"CA","Zip":"92108"},{"Location":"RESIDENCE INN SAN DIEGO","Address":"1865 Hotel Cir S","City":"San Diego","State":"CA","Zip":"92108"},{"Location":"RIO VISTA FAMILY DENTISTRY","Address":"8590 Rio San Diego Dr 110","City":"San Diego","State":"CA","Zip":"92108"},{"Location":"RSM MCGLADREY","Address":"1455 Frazee Rd 6fl","City":"San Diego","State":"CA","Zip":"92108"},{"Location":"RUBYS DINER","Address":"1640 Camino Del Rio N 360p","City":"San Diego","State":"CA","Zip":"92108"},{"Location":"SAN DIEGO COMMUNITY COL POLICE","Address":"1536 Frazee Rd","City":"San Diego","State":"CA","Zip":"92108"},{"Location":"SAN DIEGO COMPREHENSIVE","Address":"3703 Camino Del Rio S 210","City":"San Diego","State":"CA","Zip":"92108"},{"Location":"SAN DIEGO GAS AND ELECTRIC","Address":"9060 Friars Rd","City":"San Diego","State":"CA","Zip":"92108"},{"Location":"SAN DIEGO GAS AND ELECTRIC","Address":"9060 Friars Rd A","City":"San Diego","State":"CA","Zip":"92108"},{"Location":"SAN DIEGO ZOO GLOBAL","Address":"1455 Frazee Rd 200","City":"San Diego","State":"CA","Zip":"92108"},{"Location":"SAN SAI JAPANESE GRILL","Address":"7710 Hazard Center Dr D","City":"San Diego","State":"CA","Zip":"92108"},{"Location":"SANTANA MEXICAN FOOD","Address":"10443 San Diego Mission Rd","City":"San Diego","State":"CA","Zip":"92108"},{"Location":"SOMBRERO MEXICAN FOOD","Address":"8590 Rio San Diego Dr","City":"San Diego","State":"CA","Zip":"92108"},{"Location":"SPORT CLIPS CA409","Address":"2169 Fenton Pkwy A107","City":"San Diego","State":"CA","Zip":"92108"},{"Location":"SPORTS AUTHORITY 781","Address":"8550 Rio San Diego Dr","City":"San Diego","State":"CA","Zip":"92108"},{"Location":"SPORTS FAN","Address":"1640 Camino Del Rio N 131","City":"San Diego","State":"CA","Zip":"92108"},{"Location":"STACKED - FASHION VALLEY","Address":"7007 Friars Rd 356","City":"San Diego","State":"CA","Zip":"92108"},{"Location":"STIX HOLDINGS 737","Address":"2019 Camino Del Este","City":"San Diego","State":"CA","Zip":"92108"},{"Location":"TARGET CORP","Address":"1288 Camino Del Rio N","City":"San Diego","State":"CA","Zip":"92108"},{"Location":"TGI FRIDAY'S #1902","Address":"403 Camino Del Rio S","City":"San Diego","State":"CA","Zip":"92108"},{"Location":"THE CHEESECAKE FACTORY 0028","Address":"7067 Friars Rd","City":"San Diego","State":"CA","Zip":"92108"},{"Location":"THE HILTON SAN DIEGO","Address":"404 Camino Del Rio S 500","City":"San Diego","State":"CA","Zip":"92108"},{"Location":"THE LAZY DOG SAN DIEGO","Address":"1202 Camino Del Rio N","City":"San Diego","State":"CA","Zip":"92108"},{"Location":"TILTED KILT - MISSION VALLEY","Address":"1640 Camino Del Rio N 341","City":"San Diego","State":"CA","Zip":"92108"},{"Location":"TRAVILLI9ON  INVEISS & D","Address":"1455 Frazee Rd 650","City":"San Diego","State":"CA","Zip":"92108"},{"Location":"TRUE FOOD KITCHEN","Address":"7007 Friars Rd","City":"San Diego","State":"CA","Zip":"92108"},{"Location":"UFCW LOCAL ONE THREE FIVE","Address":"2001 Camino Del Rio S","City":"San Diego","State":"CA","Zip":"92108"},{"Location":"UNION BANK","Address":"8954 Rio San Diego Dr 500","City":"San Diego","State":"CA","Zip":"92108"},{"Location":"USA ENDURANCE EVENTS","Address":"7850 Mission Center Ct 208","City":"San Diego","State":"CA","Zip":"92108"},{"Location":"WESTFIELD SHOPPING TOWN","Address":"1640 Camino Del Rio N 351","City":"San Diego","State":"CA","Zip":"92108"},{"Location":"WINDOWS LOUNGE","Address":"7450 Hazard Center Dr","City":"San Diego","State":"CA","Zip":"92108"},{"Location":"WITT LINCOLN MERCURY","Address":"588 Camino Del Rio N","City":"San Diego","State":"CA","Zip":"92108"},{"Location":"YEF SHOE REPAIR","Address":"5664 Mission Center Rd","City":"San Diego","State":"CA","Zip":"92108"}]