[{"Location":"A-MARK SUPERIOR SEAFOODS INC","Address":"2803 Emerson St","City":"San Diego","State":"CA","Zip":"92106"},{"Location":"BAY CLUB HOTEL AND MARINA","Address":"2131 Shelter Island Dr","City":"San Diego","State":"CA","Zip":"92106"},{"Location":"CAPTAIN FISH INC.","Address":"2558 Laning Rd C103","City":"San Diego","State":"CA","Zip":"92106"},{"Location":"D AND V BOAT","Address":"1551 Shelter Island Dr","City":"San Diego","State":"CA","Zip":"92106"},{"Location":"DEPT OF VETERAN AFFAIRS","Address":"2790 Truxtun Rd 130","City":"San Diego","State":"CA","Zip":"92106"},{"Location":"ETM 4 SPECIAL","Address":"2330 Shelter Island Dr","City":"San Diego","State":"CA","Zip":"92106"},{"Location":"EUROPEAN CAKE GALLERY1","Address":"3661 Voltaire St","City":"San Diego","State":"CA","Zip":"92106"},{"Location":"HARBOR POLICE","Address":"1401 Shelter Island Dr","City":"San Diego","State":"CA","Zip":"92106"},{"Location":"HARBOR TOWN","Address":"1125 Rosecrans St","City":"San Diego","State":"CA","Zip":"92106"},{"Location":"HOMEWOOD SUITE HOTELS","Address":"2576 Laning Rd","City":"San Diego","State":"CA","Zip":"92106"},{"Location":"INTREPID SPORT FISHING","Address":"1403 Scott St","City":"San Diego","State":"CA","Zip":"92106"},{"Location":"JEFFREY HOERR","Address":"2071 Shelter Island Dr","City":"San Diego","State":"CA","Zip":"92106"},{"Location":"JIMMYS FAMOUS AMERICAN T","Address":"4990 N Harbor Dr","City":"San Diego","State":"CA","Zip":"92106"},{"Location":"K J LEWIS ENTERPRISE","Address":"2743 Shelter Island Dr","City":"San Diego","State":"CA","Zip":"92106"},{"Location":"KONA KAI RESORT AND SPA","Address":"1551 Shelter Island Dr","City":"San Diego","State":"CA","Zip":"92106"},{"Location":"LIBERTY STATION HHGLP","Address":"2592 Laning Rd","City":"San Diego","State":"CA","Zip":"92106"},{"Location":"LOS PRIMOS MEXICAN REST.","Address":"2556 Laning Rd","City":"San Diego","State":"CA","Zip":"92106"},{"Location":"MWR THE HUB","Address":"140 Sylvester Rd 546","City":"San Diego","State":"CA","Zip":"92106"},{"Location":"OGGIS PIZZA & BREWING CO-LBRTY","Address":"2562 Laning Rd","City":"San Diego","State":"CA","Zip":"92106"},{"Location":"PIERSIDE ON THE POINT","Address":"140 Sylvester Rd 546","City":"San Diego","State":"CA","Zip":"92106"},{"Location":"PNHD INC","Address":"5050 N Harbor Dr","City":"San Diego","State":"CA","Zip":"92106"},{"Location":"POINT LOMA NAZARENE UNIV","Address":"3900 Lomaland Dr","City":"San Diego","State":"CA","Zip":"92106"},{"Location":"RL BERTOS MEXICAN","Address":"1868 Rosecrans St","City":"San Diego","State":"CA","Zip":"92106"},{"Location":"SLATERS 5050","Address":"2750 Dewey Rd 193","City":"San Diego","State":"CA","Zip":"92106"},{"Location":"SS BUS PASS LLC","Address":"4980 N Harbor Dr 201","City":"San Diego","State":"CA","Zip":"92106"},{"Location":"STUTZ ARTIANO SHINOFFI HOLTZ","Address":"2488 Historic Decatur Rd 200","City":"San Diego","State":"CA","Zip":"92106"},{"Location":"SUSHI JAPANESE RESTAURANT","Address":"2806 Shelter Island Dr","City":"San Diego","State":"CA","Zip":"92106"},{"Location":"THORYK ARCHITECTURE INC","Address":"1235 Shafter St","City":"San Diego","State":"CA","Zip":"92106"},{"Location":"TSA SAN","Address":"2305 Historic Decatur Rd","City":"San Diego","State":"CA","Zip":"92106"},{"Location":"TWR","Address":"140 Sylvester Rd","City":"San Diego","State":"CA","Zip":"92106"},{"Location":"USN FLEET INDUS SUPPLY","Address":"Bldg 633  Point Loma","City":"San Diego","State":"CA","Zip":"92106"},{"Location":"USNS CEASAR CHAVEZ","Address":"140 Sylvester Rd B570","City":"San Diego","State":"CA","Zip":"92106"},{"Location":"WESTYS ANTIQUES & TAVERN","Address":"1029 Rosecrans St","City":"San Diego","State":"CA","Zip":"92106"}]