[{"Location":"619 BARBERSHOP","Address":"3964 30th St","City":"San Diego","State":"CA","Zip":"92104"},{"Location":"A&K NAILS AND SPA","Address":"2502 University Ave","City":"San Diego","State":"CA","Zip":"92104"},{"Location":"AL REEF HOOKAHOUNGE","Address":"2835 University Ave","City":"San Diego","State":"CA","Zip":"92104"},{"Location":"BAR PINK","Address":"3829 30th St","City":"San Diego","State":"CA","Zip":"92104"},{"Location":"BELCHING BEAVER BREWERY","Address":"4223 30th St","City":"San Diego","State":"CA","Zip":"92104"},{"Location":"BERKELEY PIZZA","Address":"3934 30th St","City":"San Diego","State":"CA","Zip":"92104"},{"Location":"BLUE FOOT BAR AND LOUNGE","Address":"3404 30th St","City":"San Diego","State":"CA","Zip":"92104"},{"Location":"COIN-OP INVESTMENTS INC.","Address":"2350 University Ave","City":"San Diego","State":"CA","Zip":"92104"},{"Location":"CRICKETS PUB","Address":"3339 El Cajon Blvd","City":"San Diego","State":"CA","Zip":"92104"},{"Location":"EL UNO","Address":"3412 University Ave","City":"San Diego","State":"CA","Zip":"92104"},{"Location":"ENDZONE PUB & GRILL","Address":"2859 University Ave","City":"San Diego","State":"CA","Zip":"92104"},{"Location":"FARMERS LIQUOR","Address":"2045 University Ave","City":"San Diego","State":"CA","Zip":"92104"},{"Location":"FIRE HORSE 2","Address":"3023 Juniper St","City":"San Diego","State":"CA","Zip":"92104"},{"Location":"GENIE SPA","Address":"3395 El Cajon Blvd","City":"San Diego","State":"CA","Zip":"92104"},{"Location":"GILLY'S BAR","Address":"2306 El Cajon Blvd","City":"San Diego","State":"CA","Zip":"92104"},{"Location":"JUNZ TERRIYAKI BBQ","Address":"3010 University Ave","City":"San Diego","State":"CA","Zip":"92104"},{"Location":"KIMS NAILS","Address":"4114 30th St","City":"San Diego","State":"CA","Zip":"92104"},{"Location":"L BAR AND GRILL","Address":"2223 El Cajon Blvd","City":"San Diego","State":"CA","Zip":"92104"},{"Location":"LIL B","Address":"2611 El Cajon Blvd","City":"San Diego","State":"CA","Zip":"92104"},{"Location":"MEASURED REACTION  LLC","Address":"3228 Gregory St","City":"San Diego","State":"CA","Zip":"92104"},{"Location":"MEDIA ARTS CENTER","Address":"2921 El Cahon Blvd","City":"San Diego","State":"CA","Zip":"92104"},{"Location":"MINI SPA","Address":"2029 El Cajon Blvd","City":"San Diego","State":"CA","Zip":"92104"},{"Location":"NORTH PARK SUSHI","Address":"3021 University Ave","City":"San Diego","State":"CA","Zip":"92104"},{"Location":"NORTH PARK SUSHI & GRILL","Address":"3021 University Ave","City":"San Diego","State":"CA","Zip":"92104"},{"Location":"NORTHPARK NUTRITION","Address":"3118 University Ave B","City":"San Diego","State":"CA","Zip":"92104"},{"Location":"OLD MILL CAFE","Address":"3949 Ohio St","City":"San Diego","State":"CA","Zip":"92104"},{"Location":"PALOMAR CARD CLUB","Address":"2724 El Cajon Blvd","City":"San Diego","State":"CA","Zip":"92104"},{"Location":"RIP CURRENT NORTH PARK","Address":"4101 30th St A","City":"San Diego","State":"CA","Zip":"92104"},{"Location":"SAN DIEGO BEAUTY COLLEGE","Address":"3501 El Cajon Blvd","City":"San Diego","State":"CA","Zip":"92104"},{"Location":"SD OBSERVATORY LLC","Address":"2895 University Ave","City":"San Diego","State":"CA","Zip":"92104"},{"Location":"SDISD NORTH PARK LLC","Address":"2829 El Cajon Blvd","City":"San Diego","State":"CA","Zip":"92104"},{"Location":"SEVEN GRAND SAN DIEGO","Address":"3054 University Ave","City":"San Diego","State":"CA","Zip":"92104"},{"Location":"SIRKE BROTHERS INC","Address":"2884 El Cajon Blvd","City":"San Diego","State":"CA","Zip":"92104"},{"Location":"TABBACO RODDAS","Address":"2591 University Ave","City":"San Diego","State":"CA","Zip":"92104"},{"Location":"THE BALBOA CORPORATION","Address":"2221 Morley Field Dr","City":"San Diego","State":"CA","Zip":"92104"},{"Location":"THE BARN","Address":"2850 El Cajon Blvd 3","City":"San Diego","State":"CA","Zip":"92104"},{"Location":"THE SAFE HOUSE","Address":"2930 University Ave","City":"San Diego","State":"CA","Zip":"92104"},{"Location":"TRUE NORTH TAVERN","Address":"3815 30th St","City":"San Diego","State":"CA","Zip":"92104"},{"Location":"U-31","Address":"3112 University Ave","City":"San Diego","State":"CA","Zip":"92104"},{"Location":"URBANBODY GYM","Address":"3148 University Ave","City":"San Diego","State":"CA","Zip":"92104"},{"Location":"WAY POINT PUBLIC","Address":"3794 30th St","City":"San Diego","State":"CA","Zip":"92104"},{"Location":"WING STOP","Address":"1901 El Cajon Blvd","City":"San Diego","State":"CA","Zip":"92104"},{"Location":"619 BARBERSHOP","Address":"3964 30th St","City":"San Diego","State":"CA","Zip":"92104"},{"Location":"A&K NAILS AND SPA","Address":"2502 University Ave","City":"San Diego","State":"CA","Zip":"92104"},{"Location":"AL REEF HOOKAHOUNGE","Address":"2835 University Ave","City":"San Diego","State":"CA","Zip":"92104"},{"Location":"BAR PINK","Address":"3829 30th St","City":"San Diego","State":"CA","Zip":"92104"},{"Location":"BELCHING BEAVER BREWERY","Address":"4223 30th St","City":"San Diego","State":"CA","Zip":"92104"},{"Location":"BERKELEY PIZZA","Address":"3934 30th St","City":"San Diego","State":"CA","Zip":"92104"},{"Location":"BLUE FOOT BAR AND LOUNGE","Address":"3404 30th St","City":"San Diego","State":"CA","Zip":"92104"},{"Location":"COIN-OP INVESTMENTS INC.","Address":"2350 University Ave","City":"San Diego","State":"CA","Zip":"92104"},{"Location":"CRICKETS PUB","Address":"3339 El Cajon Blvd","City":"San Diego","State":"CA","Zip":"92104"},{"Location":"EL UNO","Address":"3412 University Ave","City":"San Diego","State":"CA","Zip":"92104"},{"Location":"ENDZONE PUB & GRILL","Address":"2859 University Ave","City":"San Diego","State":"CA","Zip":"92104"},{"Location":"FARMERS LIQUOR","Address":"2045 University Ave","City":"San Diego","State":"CA","Zip":"92104"},{"Location":"FIRE HORSE 2","Address":"3023 Juniper St","City":"San Diego","State":"CA","Zip":"92104"},{"Location":"GENIE SPA","Address":"3395 El Cajon Blvd","City":"San Diego","State":"CA","Zip":"92104"},{"Location":"GILLY'S BAR","Address":"2306 El Cajon Blvd","City":"San Diego","State":"CA","Zip":"92104"},{"Location":"JUNZ TERRIYAKI BBQ","Address":"3010 University Ave","City":"San Diego","State":"CA","Zip":"92104"},{"Location":"KIMS NAILS","Address":"4114 30th St","City":"San Diego","State":"CA","Zip":"92104"},{"Location":"L BAR AND GRILL","Address":"2223 El Cajon Blvd","City":"San Diego","State":"CA","Zip":"92104"},{"Location":"LIL B","Address":"2611 El Cajon Blvd","City":"San Diego","State":"CA","Zip":"92104"},{"Location":"MEASURED REACTION  LLC","Address":"3228 Gregory St","City":"San Diego","State":"CA","Zip":"92104"},{"Location":"MEDIA ARTS CENTER","Address":"2921 El Cahon Blvd","City":"San Diego","State":"CA","Zip":"92104"},{"Location":"MINI SPA","Address":"2029 El Cajon Blvd","City":"San Diego","State":"CA","Zip":"92104"},{"Location":"NORTH PARK SUSHI","Address":"3021 University Ave","City":"San Diego","State":"CA","Zip":"92104"},{"Location":"NORTH PARK SUSHI & GRILL","Address":"3021 University Ave","City":"San Diego","State":"CA","Zip":"92104"},{"Location":"NORTHPARK NUTRITION","Address":"3118 University Ave B","City":"San Diego","State":"CA","Zip":"92104"},{"Location":"OLD MILL CAFE","Address":"3949 Ohio St","City":"San Diego","State":"CA","Zip":"92104"},{"Location":"PALOMAR CARD CLUB","Address":"2724 El Cajon Blvd","City":"San Diego","State":"CA","Zip":"92104"},{"Location":"RIP CURRENT NORTH PARK","Address":"4101 30th St A","City":"San Diego","State":"CA","Zip":"92104"},{"Location":"SAN DIEGO BEAUTY COLLEGE","Address":"3501 El Cajon Blvd","City":"San Diego","State":"CA","Zip":"92104"},{"Location":"SD OBSERVATORY LLC","Address":"2895 University Ave","City":"San Diego","State":"CA","Zip":"92104"},{"Location":"SDISD NORTH PARK LLC","Address":"2829 El Cajon Blvd","City":"San Diego","State":"CA","Zip":"92104"},{"Location":"SEVEN GRAND SAN DIEGO","Address":"3054 University Ave","City":"San Diego","State":"CA","Zip":"92104"},{"Location":"SIRKE BROTHERS INC","Address":"2884 El Cajon Blvd","City":"San Diego","State":"CA","Zip":"92104"},{"Location":"TABBACO RODDAS","Address":"2591 University Ave","City":"San Diego","State":"CA","Zip":"92104"},{"Location":"THE BALBOA CORPORATION","Address":"2221 Morley Field Dr","City":"San Diego","State":"CA","Zip":"92104"},{"Location":"THE SAFE HOUSE","Address":"2930 University Ave","City":"San Diego","State":"CA","Zip":"92104"},{"Location":"TRUE NORTH TAVERN","Address":"3815 30th St","City":"San Diego","State":"CA","Zip":"92104"},{"Location":"U-31","Address":"3112 University Ave","City":"San Diego","State":"CA","Zip":"92104"},{"Location":"URBANBODY GYM","Address":"3148 University Ave","City":"San Diego","State":"CA","Zip":"92104"},{"Location":"WAY POINT PUBLIC","Address":"3794 30th St","City":"San Diego","State":"CA","Zip":"92104"},{"Location":"WING STOP","Address":"1901 El Cajon Blvd","City":"San Diego","State":"CA","Zip":"92104"}]