[{"Location":"ANTOJITOS COLOMBIANOS","Address":"2851 Imperial Ave","City":"San Diego","State":"CA","Zip":"92102"},{"Location":"CAMPESINO UNIDOS","Address":"885 Gateway Center Way 103","City":"San Diego","State":"CA","Zip":"92102"},{"Location":"DAVITA #3210 SAN DIEGO","Address":"995 Gateway Center Way 101","City":"San Diego","State":"CA","Zip":"92102"},{"Location":"DELLO AND COMPANY","Address":"5075 Federal Blvd","City":"San Diego","State":"CA","Zip":"92102"},{"Location":"EL AMIGO TIRES INC","Address":"2995 Imperial Ave","City":"San Diego","State":"CA","Zip":"92102"},{"Location":"EL PAISA MEXICAN GRILL","Address":"2494 Imperial Ave","City":"San Diego","State":"CA","Zip":"92102"},{"Location":"ENE CONTROLS DISTRIBUTION","Address":"3285 Market St","City":"San Diego","State":"CA","Zip":"92102"},{"Location":"FERGUSON #0667","Address":"3280 Market St","City":"San Diego","State":"CA","Zip":"92102"},{"Location":"FLACO SPORTS BAR & RES","Address":"2249 Imperial Ave","City":"San Diego","State":"CA","Zip":"92102"},{"Location":"FMC 19850000","Address":"720 Gateway Center Dr","City":"San Diego","State":"CA","Zip":"92102"},{"Location":"FMC 26230000","Address":"995 Gateway Center Way","City":"San Diego","State":"CA","Zip":"92102"},{"Location":"GINA BEAUTY SALON","Address":"110 47th St","City":"San Diego","State":"CA","Zip":"92102"},{"Location":"HAMILTON TAVERN","Address":"1521 30th St","City":"San Diego","State":"CA","Zip":"92102"},{"Location":"HEALTH AND HUMAN SERVICES","Address":"4588 Market St","City":"San Diego","State":"CA","Zip":"92102"},{"Location":"LOS LIZ SHOP","Address":"1553 Altadena Ave","City":"San Diego","State":"CA","Zip":"92102"},{"Location":"LSG SKY CHEFS","Address":"675 Gateway Center Dr C","City":"San Diego","State":"CA","Zip":"92102"},{"Location":"MLV COIN LAUDRY","Address":"1015 25th St","City":"San Diego","State":"CA","Zip":"92102"},{"Location":"MONTELEAU AND ASSOCIATES","Address":"555 Raven St","City":"San Diego","State":"CA","Zip":"92102"},{"Location":"SAN DIEGO G AND E METRO","Address":"735 33rd St","City":"San Diego","State":"CA","Zip":"92102"},{"Location":"SAN DIEGO GAS & ELECTRIC","Address":"701 33rd St B","City":"San Diego","State":"CA","Zip":"92102"},{"Location":"SOUTH PARK BAR AND GRILL","Address":"1946 Fern St","City":"San Diego","State":"CA","Zip":"92102"},{"Location":"SOUTH PARK BREWING CO","Address":"1521 30th St","City":"San Diego","State":"CA","Zip":"92102"},{"Location":"SUNRISE MARKET & GAS INC","Address":"4689 Market St","City":"San Diego","State":"CA","Zip":"92102"},{"Location":"TWENTO INC DBA POSH WASH","Address":"1525 Fern St","City":"San Diego","State":"CA","Zip":"92102"},{"Location":"UNIFIRST INC 2","Address":"4041 Market St","City":"San Diego","State":"CA","Zip":"92102"},{"Location":"WESTECH METAL FABRICATION","Address":"3420 E St","City":"San Diego","State":"CA","Zip":"92102"},{"Location":"WINDSOR GARDENS","Address":"1201 34th St","City":"San Diego","State":"CA","Zip":"92102"}]