[{"Location":"710 BEACH CLUB","Address":"708-10 Garnot Ave","City":"San Diego","State":"CA","Zip":"92109"},{"Location":"817 SAN JOSE PLACE LLC","Address":"817 San Jose Pl","City":"San Diego","State":"CA","Zip":"92109"},{"Location":"ANHEUSER-BUSCH WHLSLR #10475","Address":"5959 Santa Fe St","City":"San Diego","State":"CA","Zip":"92109"},{"Location":"ANI DEVELOPMENT","Address":"4439 Lamont St","City":"San Diego","State":"CA","Zip":"92109"},{"Location":"AVENUE","Address":"1060 Garnet Ave","City":"San Diego","State":"CA","Zip":"92109"},{"Location":"BACKYARD KITCHEN","Address":"826 Garnet Ave","City":"San Diego","State":"CA","Zip":"92109"},{"Location":"BAJA BEACH CAFE","Address":"701 Thomas Ave","City":"San Diego","State":"CA","Zip":"92109"},{"Location":"BARE BACK GRILL","Address":"4640 Mission Blvd","City":"San Diego","State":"CA","Zip":"92109"},{"Location":"BAREFOOT BAR AND GRILL","Address":"1404 Vacation Rd","City":"San Diego","State":"CA","Zip":"92109"},{"Location":"BARREL REPUBLIC","Address":"1261 Garnet Ave","City":"San Diego","State":"CA","Zip":"92109"},{"Location":"BAYSIDE LANDING","Address":"3780 Ingraham St","City":"San Diego","State":"CA","Zip":"92109"},{"Location":"BEACH & BAY BEVERAGE CO","Address":"1200 Garnet Ave","City":"San Diego","State":"CA","Zip":"92109"},{"Location":"BEACHCOMBER","Address":"2901 Mission Blvd","City":"San Diego","State":"CA","Zip":"92109"},{"Location":"BEACHCOMBER SHORES LLC","Address":"907 Turquoise St","City":"San Diego","State":"CA","Zip":"92109"},{"Location":"BIG BERTHA'S FISH JOINT","Address":"1165 Garnet Ave","City":"San Diego","State":"CA","Zip":"92109"},{"Location":"BUB'S BAR & GRILL","Address":"1030 Garnet Ave","City":"San Diego","State":"CA","Zip":"92109"},{"Location":"CABO CANTINA-PACIFIC BEACH","Address":"1050 Garnet Ave","City":"San Diego","State":"CA","Zip":"92109"},{"Location":"CALIBER COLLISION CENTER","Address":"2280 Garnet Ave","City":"San Diego","State":"CA","Zip":"92109"},{"Location":"CALIFORNIA KEBAB AND BEER","Address":"4150 Mission Blvd 208","City":"San Diego","State":"CA","Zip":"92109"},{"Location":"CANNON BALL","Address":"3105 Ocean Front Walk","City":"San Diego","State":"CA","Zip":"92109"},{"Location":"CASS ST BAR & GRILL","Address":"4612 Cass St","City":"San Diego","State":"CA","Zip":"92109"},{"Location":"CHARMAN  REAL ESTATE","Address":"3411 Mission Blvd","City":"San Diego","State":"CA","Zip":"92109"},{"Location":"COASTER SALOON","Address":"744 Ventura Pl","City":"San Diego","State":"CA","Zip":"92109"},{"Location":"COSTA BRAVA","Address":"1653 Garnet Ave","City":"San Diego","State":"CA","Zip":"92109"},{"Location":"COYOTE LOGISTICS","Address":"2620 Ingraham St 150","City":"San Diego","State":"CA","Zip":"92109"},{"Location":"DAVES TAVERN","Address":"2263 Garnet Ave","City":"San Diego","State":"CA","Zip":"92109"},{"Location":"DENNYS RESTAURANT","Address":"4505 Mission Blvd","City":"San Diego","State":"CA","Zip":"92109"},{"Location":"DIELMAN INVESTMENTS LLC","Address":"1616 Beryl St","City":"San Diego","State":"CA","Zip":"92109"},{"Location":"DIRTY BIRDS","Address":"4656 Mission Blvd","City":"San Diego","State":"CA","Zip":"92109"},{"Location":"DR JANELLE BACINO","Address":"4747 Mission Blvd 2","City":"San Diego","State":"CA","Zip":"92109"},{"Location":"DRAFT MISSION BEACH","Address":"3105 Ocean Front Walk","City":"San Diego","State":"CA","Zip":"92109"},{"Location":"FAT FISH RESTAURANT","Address":"4474 Mission Blvd","City":"San Diego","State":"CA","Zip":"92109"},{"Location":"FAT SALS PACIFIC BEACH","Address":"956 Garnet Ave","City":"San Diego","State":"CA","Zip":"92109"},{"Location":"FIREFLY AT THE DANA","Address":"1710 W Mission Bay Dr","City":"San Diego","State":"CA","Zip":"92109"},{"Location":"FIRESTONE #015644","Address":"1245 Garnet Ave","City":"San Diego","State":"CA","Zip":"92109"},{"Location":"FITNESS WEST","Address":"1880 Garnet Ave","City":"San Diego","State":"CA","Zip":"92109"},{"Location":"GREAT PLAZA BUFFET","Address":"1840 Garnet Ave","City":"San Diego","State":"CA","Zip":"92109"},{"Location":"GUAVA BEACH BAR & GRILL","Address":"3714 Mission Blvd","City":"San Diego","State":"CA","Zip":"92109"},{"Location":"HILTON SAN DIEGO (0050798)","Address":"1775 E Mission Bay Dr","City":"San Diego","State":"CA","Zip":"92109"},{"Location":"HOBOKEN PIZZA","Address":"1459 Garnet Ave","City":"San Diego","State":"CA","Zip":"92109"},{"Location":"IRON PIG ALE HOUSE","Address":"1520 Garnet Ave","City":"San Diego","State":"CA","Zip":"92109"},{"Location":"IVANHOE RANCH PARTNERSHIP1","Address":"3485 Ocean Front Walk","City":"San Diego","State":"CA","Zip":"92109"},{"Location":"JCS #0671 - PACIFIC BEACH","Address":"4325 Ocean Blvd","City":"San Diego","State":"CA","Zip":"92109"},{"Location":"JERSEY MIKES","Address":"1975 Garnet Ave","City":"San Diego","State":"CA","Zip":"92109"},{"Location":"JOHNNYS V","Address":"945 Garnet Ave","City":"San Diego","State":"CA","Zip":"92109"},{"Location":"L AND M TIRE COMPANY INC 52","Address":"1011 Grand Ave","City":"San Diego","State":"CA","Zip":"92109"},{"Location":"LAHAINA BEACH  HOUSE CE2","Address":"710 Oliver Ave","City":"San Diego","State":"CA","Zip":"92109"},{"Location":"LATITUDE 32 PUB","Address":"5019 Cass St","City":"San Diego","State":"CA","Zip":"92109"},{"Location":"LONDONS WEST END","Address":"5157 Lajolla Blvd","City":"San Diego","State":"CA","Zip":"92109"},{"Location":"LUIGI'S AT THE BEACH","Address":"3210 Mission Blvd","City":"San Diego","State":"CA","Zip":"92109"},{"Location":"LUV SURF BRANDS LLC2","Address":"724 Zanzibar Ct","City":"San Diego","State":"CA","Zip":"92109"},{"Location":"LUV SURF ISLAND COURT","Address":"816 Island Ct","City":"San Diego","State":"CA","Zip":"92109"},{"Location":"LUV SURF JAMAICA","Address":"814 Jamaica Ct","City":"San Diego","State":"CA","Zip":"92109"},{"Location":"LUV SURF JAMAICA16","Address":"816 Jamaica Ct","City":"San Diego","State":"CA","Zip":"92109"},{"Location":"LUV SURF SAN RAFAEL","Address":"812 San Rafael Pl","City":"San Diego","State":"CA","Zip":"92109"},{"Location":"LUV SURF WINDEMERE","Address":"737 Windemere Ct","City":"San Diego","State":"CA","Zip":"92109"},{"Location":"LUV SURF YARMOUTH","Address":"750 Yarmouth Ct","City":"San Diego","State":"CA","Zip":"92109"},{"Location":"LUV-SURF LLS REDONDO","Address":"816 Redondo Ct","City":"San Diego","State":"CA","Zip":"92109"},{"Location":"M%2FV TRIBUTE","Address":"1717 Quivira Rd","City":"San Diego","State":"CA","Zip":"92109"},{"Location":"MISSION BAY HARBOR RESORT","Address":"2727 De Anza Rd","City":"San Diego","State":"CA","Zip":"92109"},{"Location":"MISSION BAY YACHT CLUB","Address":"1215 El Carmel Pl","City":"San Diego","State":"CA","Zip":"92109"},{"Location":"MORAY LOUNGE %40 CATAMARAN","Address":"3999 Mission Blvd","City":"San Diego","State":"CA","Zip":"92109"},{"Location":"MOSSY TOYOTA","Address":"4555 Mission Bay Dr","City":"San Diego","State":"CA","Zip":"92109"},{"Location":"MUPAST LLC DBA STARKYS","Address":"3231 Mission Blvd","City":"San Diego","State":"CA","Zip":"92109"},{"Location":"MUSTOP DELI","Address":"1146 Garnet Ave","City":"San Diego","State":"CA","Zip":"92109"},{"Location":"P B PUB","Address":"4471 Gresham St","City":"San Diego","State":"CA","Zip":"92109"},{"Location":"P.B. FISH SHOP","Address":"1775 Garnet Ave","City":"San Diego","State":"CA","Zip":"92109"},{"Location":"PACIFIC BEACH ALE HOUSE","Address":"721 Grand Ave","City":"San Diego","State":"CA","Zip":"92109"},{"Location":"PACIFIC BEACH BAR & GRILL","Address":"860 Garnet Ave","City":"San Diego","State":"CA","Zip":"92109"},{"Location":"PACIFIC BEACH SHORE CLUB","Address":"4343 Ocean Blvd","City":"San Diego","State":"CA","Zip":"92109"},{"Location":"PACIFIC BEACH VAPE SHOP","Address":"1477 Darnett Ave","City":"San Diego","State":"CA","Zip":"92109"},{"Location":"PATENAUDE WEALTH MANAGEMENT","Address":"4425 Bayard St 110","City":"San Diego","State":"CA","Zip":"92109"},{"Location":"PB CANTINA","Address":"1466 Garnet Ave","City":"San Diego","State":"CA","Zip":"92109"},{"Location":"PB SMILES DENTISTRY #67","Address":"1975 Garnet Ave E","City":"San Diego","State":"CA","Zip":"92109"},{"Location":"PB SUSHI","Address":"1203 Garnet Ave Yong","City":"San Diego","State":"CA","Zip":"92109"},{"Location":"PERFECT NAIL SPA","Address":"1837 Garnet Ave 3","City":"San Diego","State":"CA","Zip":"92109"},{"Location":"PHARAOHS CAFE AND LOUNGE","Address":"976 Garnet Ave","City":"San Diego","State":"CA","Zip":"92109"},{"Location":"PHO TIME","Address":"1820 Garnet Ave","City":"San Diego","State":"CA","Zip":"92109"},{"Location":"PIZZERIA UNO","Address":"4465 Mission Blvd","City":"San Diego","State":"CA","Zip":"92109"},{"Location":"PROMISCUOUS FORK PB","Address":"3801 Ingraham St","City":"San Diego","State":"CA","Zip":"92109"},{"Location":"PSYCHIC INNERVISIONS","Address":"1330 Garnet Ave","City":"San Diego","State":"CA","Zip":"92109"},{"Location":"RED MARLIN","Address":"1441 Quivira Rd","City":"San Diego","State":"CA","Zip":"92109"},{"Location":"ROCKY'S CROWN PUB","Address":"3786 Ingraham St","City":"San Diego","State":"CA","Zip":"92109"},{"Location":"SAN DIEGO G AND E BEACH CITY","Address":"4848 Santa Fe St","City":"San Diego","State":"CA","Zip":"92109"},{"Location":"SAN DIEGO MISSION BAY BOAT","Address":"2606 N Mission Bay Dr","City":"San Diego","State":"CA","Zip":"92109"},{"Location":"SANDBAR GRILL","Address":"718 Ventura Pl","City":"San Diego","State":"CA","Zip":"92109"},{"Location":"SANDBOX PIZZA","Address":"1014 Grand Ave","City":"San Diego","State":"CA","Zip":"92109"},{"Location":"SANTEE HAIR AND NAILS SP","Address":"955 Garnet Ave","City":"San Diego","State":"CA","Zip":"92109"},{"Location":"SASKA'S RESTAURANT","Address":"3768 Mission Blvd","City":"San Diego","State":"CA","Zip":"92109"},{"Location":"SATELLITE INC","Address":"5111 Santa Fe St F","City":"San Diego","State":"CA","Zip":"92109"},{"Location":"SEAWORLD OF CALIFORNIA","Address":"500 Sea World Dr","City":"San Diego","State":"CA","Zip":"92109"},{"Location":"SINBAD CAFE","Address":"1050 Garnet Ave B","City":"San Diego","State":"CA","Zip":"92109"},{"Location":"SINGLE FIN","Address":"3844 Mission Blvd","City":"San Diego","State":"CA","Zip":"92109"},{"Location":"SPORTSMENS SEAFOODS","Address":"1617 Quivira Rd","City":"San Diego","State":"CA","Zip":"92109"},{"Location":"SUSHI LIPS","Address":"4475 Mission Blvd C","City":"San Diego","State":"CA","Zip":"92109"},{"Location":"SWIM BAR","Address":"1441 Quivira Rd","City":"San Diego","State":"CA","Zip":"92109"},{"Location":"TACOS SURF","Address":"4657 Mission Blvd","City":"San Diego","State":"CA","Zip":"92109"},{"Location":"TANGIER BAR %40 BAHIA","Address":"998 W Mission Bay Dr","City":"San Diego","State":"CA","Zip":"92109"},{"Location":"THE BAR KEY","Address":"954 Turquoise St","City":"San Diego","State":"CA","Zip":"92109"},{"Location":"THE BEACHWOOD","Address":"4190 Mission Blvd","City":"San Diego","State":"CA","Zip":"92109"},{"Location":"THE BROKEN YOLK CAFE","Address":"1851 Garnet Ave","City":"San Diego","State":"CA","Zip":"92109"},{"Location":"THE DANA HOTEL","Address":"1710 W Mission Bay Dr","City":"San Diego","State":"CA","Zip":"92109"},{"Location":"THE DOG","Address":"4479 Everts St","City":"San Diego","State":"CA","Zip":"92109"},{"Location":"THE DUCK DIVE","Address":"4650 Mission Blvd","City":"San Diego","State":"CA","Zip":"92109"},{"Location":"THE LOCAL PACIFIC BEACH","Address":"809 Thomas Ave","City":"San Diego","State":"CA","Zip":"92109"},{"Location":"THE OPEN BAR","Address":"4302 Mission Blvd","City":"San Diego","State":"CA","Zip":"92109"},{"Location":"THE PACIFIC TERRACE HOTEL","Address":"610 Diamond St","City":"San Diego","State":"CA","Zip":"92109"},{"Location":"THE PATIO","Address":"4445 Lamont St","City":"San Diego","State":"CA","Zip":"92109"},{"Location":"THE PENNANT","Address":"2893 Mission Blvd","City":"San Diego","State":"CA","Zip":"92109"},{"Location":"THE SILVER FOX","Address":"1833 Garnet Ave","City":"San Diego","State":"CA","Zip":"92109"},{"Location":"THE TAP ROOM","Address":"1269 Garnet Ave","City":"San Diego","State":"CA","Zip":"92109"},{"Location":"THRUSTER'S LOUNGE","Address":"4633 Mission Blvd","City":"San Diego","State":"CA","Zip":"92109"},{"Location":"TOKYO  HOUSE SUSHI","Address":"980 Garnet Ave","City":"San Diego","State":"CA","Zip":"92109"},{"Location":"TONY ROMAS","Address":"4110 Mission Blvd","City":"San Diego","State":"CA","Zip":"92109"},{"Location":"TROPICAL POOL BAR","Address":"1710 W Mission Bay Dr","City":"San Diego","State":"CA","Zip":"92109"},{"Location":"TRUCKSTOP","Address":"4150 Mission Blvd 121","City":"San Diego","State":"CA","Zip":"92109"},{"Location":"TWEETY THAI","Address":"1768 Garnet Ave","City":"San Diego","State":"CA","Zip":"92109"},{"Location":"VAIDA AVERY%2C DDS INC.","Address":"2036 Hornblend St A","City":"San Diego","State":"CA","Zip":"92109"},{"Location":"VISTA BAHIA LLC","Address":"4205 Noyes St","City":"San Diego","State":"CA","Zip":"92109"},{"Location":"WAVEHOUSE","Address":"3125 Ocean Front Walk","City":"San Diego","State":"CA","Zip":"92109"},{"Location":"WHICH WICH","Address":"1001 Garnet Ave","City":"San Diego","State":"CA","Zip":"92109"},{"Location":"WOODSTOCK'S PIZZA","Address":"1221 Garnet Ave","City":"San Diego","State":"CA","Zip":"92109"},{"Location":"WOODWARD LOGISTICS","Address":"2610 Ingraham St","City":"San Diego","State":"CA","Zip":"92109"},{"Location":"WORLD GYM","Address":"2949 Garnet Ave","City":"San Diego","State":"CA","Zip":"92109"},{"Location":"ZANZIBAR COURT LLC","Address":"715 Santa Rita Pl","City":"San Diego","State":"CA","Zip":"92109"},{"Location":"ZANZIBAR CT LLC","Address":"718 Zanzibar Ct","City":"San Diego","State":"CA","Zip":"92109"}]