[{"Location":"100PERCENT SPEEDLAB","Address":"205 16th St","City":"San Diego","State":"CA","Zip":"92101"},{"Location":"57 DEGREES","Address":"1735 Hancock St","City":"San Diego","State":"CA","Zip":"92101"},{"Location":"A AND D NIGHTCLUB LLC","Address":"420 E St","City":"San Diego","State":"CA","Zip":"92101"},{"Location":"AIRPORT STATION","Address":"3698 Pacific Hwy","City":"San Diego","State":"CA","Zip":"92101"},{"Location":"AIRPORT VAN RENTALS INC","Address":"904 W Grape St","City":"San Diego","State":"CA","Zip":"92101"},{"Location":"ALADDIN BB DEPT 720","Address":"1400 Front St","City":"San Diego","State":"CA","Zip":"92101"},{"Location":"ALFIERE RESTAURANT","Address":"1590 Harbor Island Dr","City":"San Diego","State":"CA","Zip":"92101"},{"Location":"ALL PRO BAIL BONDS","Address":"109 W C St E","City":"San Diego","State":"CA","Zip":"92101"},{"Location":"ALL STAR SPORTS BAR","Address":"524 Island Ave","City":"San Diego","State":"CA","Zip":"92101"},{"Location":"ALLIANCE RESIDENTIAL GYM","Address":"1980 Kettner Blvd","City":"San Diego","State":"CA","Zip":"92101"},{"Location":"AMERICAN EAGLE AIRLINES","Address":"3225 N Harbor Dr 109","City":"San Diego","State":"CA","Zip":"92101"},{"Location":"ANALOG MUSIC & BURGER BAR","Address":"801 5th Ave","City":"San Diego","State":"CA","Zip":"92101"},{"Location":"ANDAZ FITNESS","Address":"600 F St Fitness","City":"San Diego","State":"CA","Zip":"92101"},{"Location":"ANDAZ SAN DIEGO","Address":"600 F St","City":"San Diego","State":"CA","Zip":"92101"},{"Location":"ANN MARIES COFFEE CHOP","Address":"1 Market Pl","City":"San Diego","State":"CA","Zip":"92101"},{"Location":"ANTHONY'S FISH GROTTO","Address":"1360 N Harbor Dr","City":"San Diego","State":"CA","Zip":"92101"},{"Location":"ARC","Address":"1200 4th Ave","City":"San Diego","State":"CA","Zip":"92101"},{"Location":"ARETA CROWELL BPSR CENTER","Address":"1963 4th Ave","City":"San Diego","State":"CA","Zip":"92101"},{"Location":"ATHENS MARKET","Address":"109 W F St","City":"San Diego","State":"CA","Zip":"92101"},{"Location":"ATRIA COMMUNITY ASSN","Address":"101 Market St","City":"San Diego","State":"CA","Zip":"92101"},{"Location":"B ST. CRUISE SHIP TERMIN","Address":"1140 N Harbor Dr","City":"San Diego","State":"CA","Zip":"92101"},{"Location":"BAIL NOW BAIL BONDS","Address":"1067 Front St","City":"San Diego","State":"CA","Zip":"92101"},{"Location":"BANKERS HILL DENTAL","Address":"2333 1st Ave 207","City":"San Diego","State":"CA","Zip":"92101"},{"Location":"BARCADIA EL CAMINO","Address":"2400 India St","City":"San Diego","State":"CA","Zip":"92101"},{"Location":"BASHA CA ONE LIMITED","Address":"1446 Front St 201","City":"San Diego","State":"CA","Zip":"92101"},{"Location":"BERKELEY PIZZA","Address":"539 Island Ave","City":"San Diego","State":"CA","Zip":"92101"},{"Location":"BIG BRICKS TRAINING","Address":"740 13th St","City":"San Diego","State":"CA","Zip":"92101"},{"Location":"BLARNEYSTONE","Address":"502 5th Ave","City":"San Diego","State":"CA","Zip":"92101"},{"Location":"BOOTLEGGER","Address":"804 Market St","City":"San Diego","State":"CA","Zip":"92101"},{"Location":"BORTON PETRINI","Address":"1320 Columbia St 210","City":"San Diego","State":"CA","Zip":"92101"},{"Location":"BUBS ATB","Address":"715 J St 102","City":"San Diego","State":"CA","Zip":"92101"},{"Location":"BUCA DI BEPPO #508","Address":"705 6th Ave","City":"San Diego","State":"CA","Zip":"92101"},{"Location":"BUDGET CAR RENTAL","Address":"3125 Pacific Hwy","City":"San Diego","State":"CA","Zip":"92101"},{"Location":"BUSTER'S BEACH HOUSE","Address":"807 W Harbor Dr","City":"San Diego","State":"CA","Zip":"92101"},{"Location":"CALIFORNIA INTERNATIONAL","Address":"520 W Ash St","City":"San Diego","State":"CA","Zip":"92101"},{"Location":"CAPS PIZZA AND BAR","Address":"1428 1st Ave","City":"San Diego","State":"CA","Zip":"92101"},{"Location":"CHEE CHEE CLUB","Address":"929 Broadway","City":"San Diego","State":"CA","Zip":"92101"},{"Location":"CHERRY BOMB","Address":"2237 1st Ave","City":"San Diego","State":"CA","Zip":"92101"},{"Location":"CHIANTI RESTAURANT","Address":"644 5th Ave","City":"San Diego","State":"CA","Zip":"92101"},{"Location":"CHIEF'S MESS","Address":"2710 N Harbor Dr","City":"San Diego","State":"CA","Zip":"92101"},{"Location":"CIRO'S PIZZEIRA BEER HOUSE","Address":"536 Market St","City":"San Diego","State":"CA","Zip":"92101"},{"Location":"CO'S CONFRENCE ROOM","Address":"2710 N Harbor Dr","City":"San Diego","State":"CA","Zip":"92101"},{"Location":"COYOTE UGLY SALOON","Address":"820 5th Ave","City":"San Diego","State":"CA","Zip":"92101"},{"Location":"CPA LAW OFFICES","Address":"101 W Broadway 1","City":"San Diego","State":"CA","Zip":"92101"},{"Location":"CRAB HUT II INC","Address":"1007 5th Ave 101","City":"San Diego","State":"CA","Zip":"92101"},{"Location":"CUBAN CIGAR FACTORY","Address":"551 5th Ave","City":"San Diego","State":"CA","Zip":"92101"},{"Location":"CURRANT RESTAURANT","Address":"140 W Broadway","City":"San Diego","State":"CA","Zip":"92101"},{"Location":"DARBAND","Address":"1556 5th Ave","City":"San Diego","State":"CA","Zip":"92101"},{"Location":"DE MEDICI RESTAURANT","Address":"815 5th Ave","City":"San Diego","State":"CA","Zip":"92101"},{"Location":"DICKS LAST RESORT","Address":"345 4th Ave","City":"San Diego","State":"CA","Zip":"92101"},{"Location":"DOWNTOWN JOHNNY BROWN'S","Address":"1220 3rd Ave","City":"San Diego","State":"CA","Zip":"92101"},{"Location":"DRAGONS DEN","Address":"315 10th Ave","City":"San Diego","State":"CA","Zip":"92101"},{"Location":"DUBLIN SQUARE IRISH PUB","Address":"554 4th Ave","City":"San Diego","State":"CA","Zip":"92101"},{"Location":"EAST VILLAGE TAVERN","Address":"930 Market St","City":"San Diego","State":"CA","Zip":"92101"},{"Location":"EDDIE V'S #8514","Address":"789 W Harbor Dr 158","City":"San Diego","State":"CA","Zip":"92101"},{"Location":"EDGEWATER GRILL","Address":"861 W Harbor Dr","City":"San Diego","State":"CA","Zip":"92101"},{"Location":"EL PULPO","Address":"415 Market St","City":"San Diego","State":"CA","Zip":"92101"},{"Location":"ENOTECA STYLE","Address":"1445 India St","City":"San Diego","State":"CA","Zip":"92101"},{"Location":"ENZO CAFE","Address":"836 5th Ave","City":"San Diego","State":"CA","Zip":"92101"},{"Location":"FAIRWAY GOLF","Address":"2431 Pacific Hwy","City":"San Diego","State":"CA","Zip":"92101"},{"Location":"FAMILY LAW BUILDING","Address":"1501 6th Ave","City":"San Diego","State":"CA","Zip":"92101"},{"Location":"FIREFLY CR","Address":"1120 W Laurel St","City":"San Diego","State":"CA","Zip":"92101"},{"Location":"FIRESTONE #010901","Address":"1136 C St","City":"San Diego","State":"CA","Zip":"92101"},{"Location":"FIRST REPUBLIC BANK","Address":"1280 4th Ave","City":"San Diego","State":"CA","Zip":"92101"},{"Location":"FOGO DE CHAO SAN DIEGO","Address":"668 6th Ave","City":"San Diego","State":"CA","Zip":"92101"},{"Location":"FOX SPORTS GRILL","Address":"1 Park Blvd","City":"San Diego","State":"CA","Zip":"92101"},{"Location":"FREDS MEXICAN CAFE","Address":"535 5th Ave","City":"San Diego","State":"CA","Zip":"92101"},{"Location":"FRESH UP BARBER SHOP LLC","Address":"324 Horton Plz 538","City":"San Diego","State":"CA","Zip":"92101"},{"Location":"FUMARI","Address":"330 G St","City":"San Diego","State":"CA","Zip":"92101"},{"Location":"FUNKY GARCIA'S","Address":"421 Market St","City":"San Diego","State":"CA","Zip":"92101"},{"Location":"GASLAMP QUARTER HOTEL","Address":"417 Market St","City":"San Diego","State":"CA","Zip":"92101"},{"Location":"GASLAMP STRIP CLUB","Address":"340 5th Ave","City":"San Diego","State":"CA","Zip":"92101"},{"Location":"GASLAMP UKT","Address":"333 5th Ave","City":"San Diego","State":"CA","Zip":"92101"},{"Location":"GRAND LOBBY BAR%2FHYATT","Address":"1 Market Pl","City":"San Diego","State":"CA","Zip":"92101"},{"Location":"GREYSTONE-THE STEAKHOUSE","Address":"658 5th Ave","City":"San Diego","State":"CA","Zip":"92101"},{"Location":"HARBOR HOUSE RESTAURANT","Address":"831 W Harbor Dr","City":"San Diego","State":"CA","Zip":"92101"},{"Location":"HENNESSEY'S","Address":"708 4th Ave","City":"San Diego","State":"CA","Zip":"92101"},{"Location":"HENRY'S PUB","Address":"618 5th Ave","City":"San Diego","State":"CA","Zip":"92101"},{"Location":"HERTZ RENT A CAR","Address":"3202 N Harbor Dr","City":"San Diego","State":"CA","Zip":"92101"},{"Location":"HILTON SAN DIEGO (0060962)","Address":"1 Park Blvd","City":"San Diego","State":"CA","Zip":"92101"},{"Location":"HILTON SAN DIEGO AIR (0003560)","Address":"1960 Harbor Island Dr Dt","City":"San Diego","State":"CA","Zip":"92101"},{"Location":"HILTON SAN DIEGO HARBOR","Address":"1960 Harbor Island Dr","City":"San Diego","State":"CA","Zip":"92101"},{"Location":"HILTON WORLDWIDE SAN DIEGO DT","Address":"1646 Front St","City":"San Diego","State":"CA","Zip":"92101"},{"Location":"HMSHOST%2FCRAFTBREW","Address":"3665 N Harbor Dr","City":"San Diego","State":"CA","Zip":"92101"},{"Location":"HOLIDAY INN (0057905)","Address":"1355 N Harbor Dr","City":"San Diego","State":"CA","Zip":"92101"},{"Location":"HOME PLATE","Address":"415 Laurel St 406","City":"San Diego","State":"CA","Zip":"92101"},{"Location":"HOOTERS GASLAMP GWL102","Address":"410 Market St","City":"San Diego","State":"CA","Zip":"92101"},{"Location":"HOTEL OCCIDENTAL","Address":"410 Elm St","City":"San Diego","State":"CA","Zip":"92101"},{"Location":"HUB MARKET","Address":"748 6th Ave","City":"San Diego","State":"CA","Zip":"92101"},{"Location":"HUGHES MARINO INC","Address":"1450 Front St","City":"San Diego","State":"CA","Zip":"92101"},{"Location":"HYATT ANDAZ","Address":"600 F St","City":"San Diego","State":"CA","Zip":"92101"},{"Location":"JCS #0173 - ROWING CLUB","Address":"525 E Harbor Dr","City":"San Diego","State":"CA","Zip":"92101"},{"Location":"JET BLUE AIRPORT","Address":"3835 N Harbor Dr 108","City":"San Diego","State":"CA","Zip":"92101"},{"Location":"JIMMY LOVES","Address":"672 5th Ave","City":"San Diego","State":"CA","Zip":"92101"},{"Location":"JOLT'N JOE'S","Address":"379 4th Ave","City":"San Diego","State":"CA","Zip":"92101"},{"Location":"KAMIKAZE 7","Address":"411 Market St","City":"San Diego","State":"CA","Zip":"92101"},{"Location":"KANSAS CITY BBQ","Address":"600 West Hardor Dr","City":"San Diego","State":"CA","Zip":"92101"},{"Location":"KARL STRAUSS BREWARY","Address":"1157 Columbia St","City":"San Diego","State":"CA","Zip":"92101"},{"Location":"KERRY ARMSTRONG LAW OFC","Address":"1501 5th Ave 20","City":"San Diego","State":"CA","Zip":"92101"},{"Location":"KETTNER EXCHANGE","Address":"2001 Kettner Blvd","City":"San Diego","State":"CA","Zip":"92101"},{"Location":"KINGS SEAFOOD COMPANY","Address":"615 J St","City":"San Diego","State":"CA","Zip":"92101"},{"Location":"KNOTTY BARREL","Address":"844 Market St","City":"San Diego","State":"CA","Zip":"92101"},{"Location":"KNSD-TV","Address":"225 Broadway 100","City":"San Diego","State":"CA","Zip":"92101"},{"Location":"LA FIESTA LOUNGE AND BAR","Address":"628 5th Ave","City":"San Diego","State":"CA","Zip":"92101"},{"Location":"LA PUERTA","Address":"560 4th Ave","City":"San Diego","State":"CA","Zip":"92101"},{"Location":"LANGUAGE STUDIES INTERNATIONAL","Address":"1706 5th Ave 300","City":"San Diego","State":"CA","Zip":"92101"},{"Location":"LAS HADAS INC","Address":"558 4th Ave","City":"San Diego","State":"CA","Zip":"92101"},{"Location":"LAW OFFICE OF GRETCHEN VON","Address":"105 W F St 3","City":"San Diego","State":"CA","Zip":"92101"},{"Location":"LOGISTICS CONFERENCE ROOM","Address":"2710 N Harbor Dr","City":"San Diego","State":"CA","Zip":"92101"},{"Location":"LUCKY BASTARD SALOON","Address":"840 5th Ave","City":"San Diego","State":"CA","Zip":"92101"},{"Location":"M-5","Address":"600 Convention Way","City":"San Diego","State":"CA","Zip":"92101"},{"Location":"M%2FY ARTIMIS","Address":"955 Harbor Island Dr L23","City":"San Diego","State":"CA","Zip":"92101"},{"Location":"MACARTHY AND HOLTHUS","Address":"411 Ivy St","City":"San Diego","State":"CA","Zip":"92101"},{"Location":"MACY'S WEST 551","Address":"160 Horton Plz","City":"San Diego","State":"CA","Zip":"92101"},{"Location":"MAD CAFE","Address":"1352 5th Ave","City":"San Diego","State":"CA","Zip":"92101"},{"Location":"MADGE BRADLEY LAW","Address":"1409 4th Ave","City":"San Diego","State":"CA","Zip":"92101"},{"Location":"MAGNOLIA BAR AND GRILL","Address":"624 E St","City":"San Diego","State":"CA","Zip":"92101"},{"Location":"MALONEYS TAVERN","Address":"777 5th Ave","City":"San Diego","State":"CA","Zip":"92101"},{"Location":"MANCHESTER GRAND HYATT SAN DIE","Address":"1 Market Pl","City":"San Diego","State":"CA","Zip":"92101"},{"Location":"MARINA KITCHEN","Address":"333 W Harbor Dr","City":"San Diego","State":"CA","Zip":"92101"},{"Location":"MARIONS FISH MARKET","Address":"879 W Harbor Dr F","City":"San Diego","State":"CA","Zip":"92101"},{"Location":"MARRIOTT MARQUIS (0064630)","Address":"333 W Harbor Dr","City":"San Diego","State":"CA","Zip":"92101"},{"Location":"MCFADDENS RESTAURANT","Address":"731 5th Ave","City":"San Diego","State":"CA","Zip":"92101"},{"Location":"MIDWAY CAR RENTAL","Address":"2263 Pacific Hwy","City":"San Diego","State":"CA","Zip":"92101"},{"Location":"MINT DOWNTOWN THAI","Address":"732 4th Ave","City":"San Diego","State":"CA","Zip":"92101"},{"Location":"MITCHELL AND GILLEON","Address":"1320 Columbia St 200","City":"San Diego","State":"CA","Zip":"92101"},{"Location":"MONKEY PAW","Address":"807 16th St","City":"San Diego","State":"CA","Zip":"92101"},{"Location":"MOONSHINE FLATS","Address":"344 7th Ave","City":"San Diego","State":"CA","Zip":"92101"},{"Location":"MORGAN STANLEY 100249","Address":"101 W Broadway 1800","City":"San Diego","State":"CA","Zip":"92101"},{"Location":"NATIONAL CAR RENTAL","Address":"3280 N Harbor Dr","City":"San Diego","State":"CA","Zip":"92101"},{"Location":"OCEAN ROOM BAR AND LOUNGE","Address":"630 5th Ave","City":"San Diego","State":"CA","Zip":"92101"},{"Location":"OGAWASHI","Address":"1100 5th Ave","City":"San Diego","State":"CA","Zip":"92101"},{"Location":"OLD GALERY HOUSE","Address":"641 B St","City":"San Diego","State":"CA","Zip":"92101"},{"Location":"OSETRA","Address":"904 5th Ave","City":"San Diego","State":"CA","Zip":"92101"},{"Location":"PACIFIC FISH COMPANY","Address":"601 Pacific Hwy","City":"San Diego","State":"CA","Zip":"92101"},{"Location":"PANACH LLC","Address":"1450 Harbor Island Dr","City":"San Diego","State":"CA","Zip":"92101"},{"Location":"PAPANANI'S","Address":"1450 Harbor Island Dr 104","City":"San Diego","State":"CA","Zip":"92101"},{"Location":"PAYLESS CAR RENTAL","Address":"3346 Kettner Blvd","City":"San Diego","State":"CA","Zip":"92101"},{"Location":"PEGGY L CURTIS%2C DDS","Address":"2312 6th Ave","City":"San Diego","State":"CA","Zip":"92101"},{"Location":"PHO NOODLE & SUSHI BAR","Address":"550 Cedar St 103","City":"San Diego","State":"CA","Zip":"92101"},{"Location":"PHO NOODLE & SUSHI BAR","Address":"550 Cedar Street Suite 103","City":"San Diego","State":"CA","Zip":"92101"},{"Location":"PHO XPRESS CORP","Address":"1125 6th Ave","City":"San Diego","State":"CA","Zip":"92101"},{"Location":"POWER BAIL BONDS","Address":"1353 6th Ave","City":"San Diego","State":"CA","Zip":"92101"},{"Location":"PREMIER MART & DELI","Address":"428 G St","City":"San Diego","State":"CA","Zip":"92101"},{"Location":"PREMIERE YACHT CHARTERS","Address":"1450 Harbor Island Dr","City":"San Diego","State":"CA","Zip":"92101"},{"Location":"PRINCESS PUB & GRILL","Address":"1665 India St","City":"San Diego","State":"CA","Zip":"92101"},{"Location":"PUERTO LA BOCA","Address":"2060 India St","City":"San Diego","State":"CA","Zip":"92101"},{"Location":"PUESTO","Address":"789 West Harbor Drive%2C Suitee","City":"San Diego","State":"CA","Zip":"92101"},{"Location":"QUALITY LOAN SERVICE","Address":"2141 5th Ave","City":"San Diego","State":"CA","Zip":"92101"},{"Location":"QUEENS TOWN PUBLIC HOUSE","Address":"1557 Columbia St","City":"San Diego","State":"CA","Zip":"92101"},{"Location":"QUINN'S AT THE SHERATON","Address":"1380 Harbor Island Dr","City":"San Diego","State":"CA","Zip":"92101"},{"Location":"RED FIELD'S","Address":"1 Market Pl","City":"San Diego","State":"CA","Zip":"92101"},{"Location":"ROCKIN BAJA LOBSTER GL","Address":"310 5th Ave","City":"San Diego","State":"CA","Zip":"92101"},{"Location":"ROSAS","Address":"1152 7th Ave","City":"San Diego","State":"CA","Zip":"92101"},{"Location":"ROY'S #2507","Address":"333 W Harbor Dr","City":"San Diego","State":"CA","Zip":"92101"},{"Location":"RUSTY BREWERY LLC","Address":"420 3rd Ave","City":"San Diego","State":"CA","Zip":"92101"},{"Location":"RUTH'S CHRIS STEAK HOUSE","Address":"1355 N Harbor Dr","City":"San Diego","State":"CA","Zip":"92101"},{"Location":"S D C R A A","Address":"3225 N Harbor Dr","City":"San Diego","State":"CA","Zip":"92101"},{"Location":"S D C R A A","Address":"3707 N Harbor Dr","City":"San Diego","State":"CA","Zip":"92101"},{"Location":"SADAF RESTAURANT","Address":"828 5th Ave","City":"San Diego","State":"CA","Zip":"92101"},{"Location":"SALLY'S","Address":"1 Market Pl","City":"San Diego","State":"CA","Zip":"92101"},{"Location":"SAN DIEGO BAIL BONDS","Address":"125 W C St","City":"San Diego","State":"CA","Zip":"92101"},{"Location":"SAN DIEGO BEER CO","Address":"602 Broadway","City":"San Diego","State":"CA","Zip":"92101"},{"Location":"SAN DIEGO HARBOR EXCURSION","Address":"1050 N Harbor Dr","City":"San Diego","State":"CA","Zip":"92101"},{"Location":"SAN DIEGO HARBOR POLICE","Address":"2710 N Harbor Dr","City":"San Diego","State":"CA","Zip":"92101"},{"Location":"SAN DIEGO INT'L AIRPORT","Address":"3225 N Harbor Dr","City":"San Diego","State":"CA","Zip":"92101"},{"Location":"SAN DIEGO PEIR CAFE","Address":"885 W Harbor Dr","City":"San Diego","State":"CA","Zip":"92101"},{"Location":"SAN DIEGO POLICE DEPT","Address":"1401 Broadway Mf749","City":"San Diego","State":"CA","Zip":"92101"},{"Location":"SAN DIEGO UNIFIED PORT D","Address":"1000 N Harbor Dr","City":"San Diego","State":"CA","Zip":"92101"},{"Location":"SAN DIEGO UNIFIED PORT DISTRIC","Address":"3165 Pacific Hwy","City":"San Diego","State":"CA","Zip":"92101"},{"Location":"SD AIRPORT 1 BLK BOX","Address":"3225 N Harbor Dr","City":"San Diego","State":"CA","Zip":"92101"},{"Location":"SD AIRPORT 2 BLK BOX","Address":"3225 N Harbor Dr","City":"San Diego","State":"CA","Zip":"92101"},{"Location":"SD AIRPORT 3 BLK BOX","Address":"3225 N Harbor Dr","City":"San Diego","State":"CA","Zip":"92101"},{"Location":"SD AIRPORT 4 BLK BOX","Address":"3225 N Harbor Dr","City":"San Diego","State":"CA","Zip":"92101"},{"Location":"SD AIRPORT 5 BLK BOX","Address":"3225 N Harbor Dr","City":"San Diego","State":"CA","Zip":"92101"},{"Location":"SD AIRPORT 6 BLK BOX","Address":"3225 N Harbor Dr","City":"San Diego","State":"CA","Zip":"92101"},{"Location":"SD AIRPORT 7 BLK BOX","Address":"3225 N Harbor Dr","City":"San Diego","State":"CA","Zip":"92101"},{"Location":"SD AIRPORT 8 BLK BOX","Address":"3225 N Harbor Dr","City":"San Diego","State":"CA","Zip":"92101"},{"Location":"SDFD URBAN SEARCH%2FRESCUE","Address":"4347 N Harbor Dr 557","City":"San Diego","State":"CA","Zip":"92101"},{"Location":"SEASONS 52 #4541","Address":"789 W Harbor Dr #134","City":"San Diego","State":"CA","Zip":"92101"},{"Location":"SK CUISINE CORP","Address":"926 5th Ave","City":"San Diego","State":"CA","Zip":"92101"},{"Location":"SOCIAL DINING INC.","Address":"639 J St","City":"San Diego","State":"CA","Zip":"92101"},{"Location":"SOLAR PURCHASING-SERA","Address":"2200 Pacific Hwy","City":"San Diego","State":"CA","Zip":"92101"},{"Location":"SOLAR TRBINES EXEC OFFIC","Address":"2200 Pacific Hwy","City":"San Diego","State":"CA","Zip":"92101"},{"Location":"SOLAR TURBINES INCORPORATED","Address":"2200 Pacific Hwy","City":"San Diego","State":"CA","Zip":"92101"},{"Location":"SOLE LUNA CAFE","Address":"702 Ash St E","City":"San Diego","State":"CA","Zip":"92101"},{"Location":"SPORTS HEADQUARTERS","Address":"863 W Harbor Dr","City":"San Diego","State":"CA","Zip":"92101"},{"Location":"SRO COCKTAIL LOUNGE","Address":"1807 5th Ave","City":"San Diego","State":"CA","Zip":"92101"},{"Location":"SSP AMERICA RE-BAR 9","Address":"3665 N Harbor Dr 221","City":"San Diego","State":"CA","Zip":"92101"},{"Location":"STAR BAR","Address":"423 E St","City":"San Diego","State":"CA","Zip":"92101"},{"Location":"STELLA PUBLIC HOUSE","Address":"1429 Island Ave","City":"San Diego","State":"CA","Zip":"92101"},{"Location":"STOUT PUBLIC HOUSE","Address":"1125 6th Ave","City":"San Diego","State":"CA","Zip":"92101"},{"Location":"SUNROAD MARINA PAVILION","Address":"955 Harbor Island Dr 100","City":"San Diego","State":"CA","Zip":"92101"},{"Location":"SUNSHINE LAUNDRY","Address":"2235 1st Ave","City":"San Diego","State":"CA","Zip":"92101"},{"Location":"SUNSTAR HOTELS","Address":"421 W B St","City":"San Diego","State":"CA","Zip":"92101"},{"Location":"SURMOUNT INSURANCE SERVI","Address":"925 B St 604","City":"San Diego","State":"CA","Zip":"92101"},{"Location":"SUSHI DELI 2","Address":"135 Broadway","City":"San Diego","State":"CA","Zip":"92101"},{"Location":"SWVP MANAGEMENT CO. INC","Address":"600 B St 2240","City":"San Diego","State":"CA","Zip":"92101"},{"Location":"TASTE AND THIRST","Address":"715 4th Ave","City":"San Diego","State":"CA","Zip":"92101"},{"Location":"TEQUILA BAR","Address":"333 W Harbor Dr","City":"San Diego","State":"CA","Zip":"92101"},{"Location":"TGI FRIDAY'S #1950","Address":"743 5th Ave","City":"San Diego","State":"CA","Zip":"92101"},{"Location":"THE BOATHOUSE%2C LLC.","Address":"2040 Harbor Island Dr","City":"San Diego","State":"CA","Zip":"92101"},{"Location":"THE CHEESECAKE FACTORY","Address":"789 W Harbor Dr #132","City":"San Diego","State":"CA","Zip":"92101"},{"Location":"THE CHEESECAKE FACTORY #0169","Address":"501 Pacific Coast","City":"San Diego","State":"CA","Zip":"92101"},{"Location":"THE COMMONS","Address":"901 4th Ave","City":"San Diego","State":"CA","Zip":"92101"},{"Location":"THE FIELD IRISH PUB","Address":"544 5th Ave","City":"San Diego","State":"CA","Zip":"92101"},{"Location":"THE FISH MARKET RESTAURANT","Address":"750 N Harbor Dr","City":"San Diego","State":"CA","Zip":"92101"},{"Location":"THE GARAGE SD","Address":"655 4th Ave","City":"San Diego","State":"CA","Zip":"92101"},{"Location":"THE NEW YORKER","Address":"535 4th Ave","City":"San Diego","State":"CA","Zip":"92101"},{"Location":"THE SALVATION ARMY","Address":"2320 5th Ave","City":"San Diego","State":"CA","Zip":"92101"},{"Location":"THE SOFIA HOTEL","Address":"150 W Broadway","City":"San Diego","State":"CA","Zip":"92101"},{"Location":"THE TIME OUT SPORTS BAR","Address":"634 Broadway","City":"San Diego","State":"CA","Zip":"92101"},{"Location":"THE TIN FISH","Address":"170 6th Ave","City":"San Diego","State":"CA","Zip":"92101"},{"Location":"THE WATERFRONT","Address":"2044 Kettner Blvd","City":"San Diego","State":"CA","Zip":"92101"},{"Location":"TILTED KILT - SAN DIEGO","Address":"310 10th Ave","City":"San Diego","State":"CA","Zip":"92101"},{"Location":"TIN ROOF SAN DIEGO","Address":"401 G St","City":"San Diego","State":"CA","Zip":"92101"},{"Location":"TIPSY CROW","Address":"770 5th Ave","City":"San Diego","State":"CA","Zip":"92101"},{"Location":"TOM HAMS LIGHTHOUSE","Address":"2150 Harbor Island Dr","City":"San Diego","State":"CA","Zip":"92101"},{"Location":"U.S. COAST GUARD HANGER 2","Address":"2710 N Harbor Dr B","City":"San Diego","State":"CA","Zip":"92101"},{"Location":"UA- SAN GQ","Address":"2375 Airlane Rd","City":"San Diego","State":"CA","Zip":"92101"},{"Location":"UNDISPUTED DOWNTOWN","Address":"320 16th St","City":"San Diego","State":"CA","Zip":"92101"},{"Location":"UNITED STATES COAST GUARD","Address":"2710 N Harbor Dr","City":"San Diego","State":"CA","Zip":"92101"},{"Location":"URBAN INDIA","Address":"1041 4th Ave","City":"San Diego","State":"CA","Zip":"92101"},{"Location":"US AIRWAYS","Address":"3835 N Harbor Dr 128","City":"San Diego","State":"CA","Zip":"92101"},{"Location":"US COAST GUARD","Address":"2710 N Harbor Dr C17","City":"San Diego","State":"CA","Zip":"92101"},{"Location":"US COAST GUARD ACTIVITIES","Address":"2710 N Harbor Dr","City":"San Diego","State":"CA","Zip":"92101"},{"Location":"US CUSTOMS & BORDER PROT","Address":"3835 N Harbor Dr","City":"San Diego","State":"CA","Zip":"92101"},{"Location":"US POSTAL INSPECTION SERVICE","Address":"815 E St Flr2","City":"San Diego","State":"CA","Zip":"92101"},{"Location":"USA HOSTELS%2C INC.","Address":"726 5th Ave","City":"San Diego","State":"CA","Zip":"92101"},{"Location":"USCG NAVY HARBOR DR. PUB","Address":"2710 N Harbor Dr","City":"San Diego","State":"CA","Zip":"92101"},{"Location":"USCG SECTOR SAN  DIEGO","Address":"2710 N Harbor Dr","City":"San Diego","State":"CA","Zip":"92101"},{"Location":"USCG STATION SAN DIEGO","Address":"2710 N Harbor Dr","City":"San Diego","State":"CA","Zip":"92101"},{"Location":"USCG SUPPLY","Address":"2710 N Harbor Dr","City":"San Diego","State":"CA","Zip":"92101"},{"Location":"USCGC PETREL","Address":"2710 N Harbor Dr","City":"San Diego","State":"CA","Zip":"92101"},{"Location":"USCGC SECTOR SANDIEGO","Address":"2710 N Harbor Dr","City":"San Diego","State":"CA","Zip":"92101"},{"Location":"USS MAKIN ISLAND","Address":"1199 E St","City":"San Diego","State":"CA","Zip":"92101"},{"Location":"VIP PEDI CAB","Address":"1434 Island Ave","City":"San Diego","State":"CA","Zip":"92101"},{"Location":"WEREWOLF","Address":"627 4th Ave","City":"San Diego","State":"CA","Zip":"92101"},{"Location":"WHISKEY GIRL","Address":"702 5th Ave","City":"San Diego","State":"CA","Zip":"92101"},{"Location":"YARD HOUSE #8305","Address":"1023 4th Ave","City":"San Diego","State":"CA","Zip":"92101"}]