[{"Location":"ALIBI","Address":"1403 University Ave","City":"San Diego","State":"CA","Zip":"92103"},{"Location":"BAR DYNAMITE INC","Address":"1808 W Washington St","City":"San Diego","State":"CA","Zip":"92103"},{"Location":"BRAZEN BBQ SMOKEHOUSE","Address":"441 Washington St","City":"San Diego","State":"CA","Zip":"92103"},{"Location":"BROADSTONE BALBOA FITNESS","Address":"3288 5th Ave 100","City":"San Diego","State":"CA","Zip":"92103"},{"Location":"C J'S LOUNGE","Address":"222 W Washington St","City":"San Diego","State":"CA","Zip":"92103"},{"Location":"CASCADE SPA","Address":"3785 6th Ave 100a","City":"San Diego","State":"CA","Zip":"92103"},{"Location":"CENTER FOR ORAL & FACIAL SURGE","Address":"306 Walnut Ave 26","City":"San Diego","State":"CA","Zip":"92103"},{"Location":"DR. STEPHEN WARD","Address":"3500 5th Ave Suite","City":"San Diego","State":"CA","Zip":"92103"},{"Location":"EBAS LOUNGE AND BISTRO","Address":"142 University Ave C","City":"San Diego","State":"CA","Zip":"92103"},{"Location":"EL CUERVO TACO SHOP","Address":"110 W Washington St","City":"San Diego","State":"CA","Zip":"92103"},{"Location":"EL INDIO SHOPS INC","Address":"3695 India St","City":"San Diego","State":"CA","Zip":"92103"},{"Location":"EMPIRE HOUSE","Address":"127 University Ave","City":"San Diego","State":"CA","Zip":"92103"},{"Location":"FIESTA CANTINA","Address":"142 University Ave G","City":"San Diego","State":"CA","Zip":"92103"},{"Location":"FLICKS","Address":"1017 University Ave","City":"San Diego","State":"CA","Zip":"92103"},{"Location":"FLOYD S 99 BARBER SHOP","Address":"407 W Washington St","City":"San Diego","State":"CA","Zip":"92103"},{"Location":"FOUNDATIONS RECOVERY NET","Address":"3930 4th Ave","City":"San Diego","State":"CA","Zip":"92103"},{"Location":"GOLDFINCH","Address":"4020 Goldfinch St","City":"San Diego","State":"CA","Zip":"92103"},{"Location":"GR EIGHT CUTZ","Address":"3906 Park Blvd","City":"San Diego","State":"CA","Zip":"92103"},{"Location":"JIMMY CARTERS CAFE","Address":"3172 5th Ave","City":"San Diego","State":"CA","Zip":"92103"},{"Location":"KATO SUSHI","Address":"1045 University Ave","City":"San Diego","State":"CA","Zip":"92103"},{"Location":"KIKI SUSHI","Address":"600 University Ave","City":"San Diego","State":"CA","Zip":"92103"},{"Location":"LAMPLIGHTER","Address":"817 W Washington St","City":"San Diego","State":"CA","Zip":"92103"},{"Location":"LEFTYS CHICAGO PIZZERIA","Address":"4030 Goldfinch St","City":"San Diego","State":"CA","Zip":"92103"},{"Location":"LOCO HABIT","Address":"3827 5th Ave","City":"San Diego","State":"CA","Zip":"92103"},{"Location":"MARCOS ORTEGA DDS","Address":"306 Walnut Ave 25","City":"San Diego","State":"CA","Zip":"92103"},{"Location":"NUNUS","Address":"3537 5th Ave","City":"San Diego","State":"CA","Zip":"92103"},{"Location":"OSCAR WILDE","Address":"1440 University Ave","City":"San Diego","State":"CA","Zip":"92103"},{"Location":"OSTERIA ORIGIANO INC","Address":"3605 5th Ave 103","City":"San Diego","State":"CA","Zip":"92103"},{"Location":"OUAN","Address":"3882 4th Ave","City":"San Diego","State":"CA","Zip":"92103"},{"Location":"QUESNELL","Address":"1000 W Washington St","City":"San Diego","State":"CA","Zip":"92103"},{"Location":"SALLY AND HENRYS DOGHOUSE","Address":"3515 5th Ave","City":"San Diego","State":"CA","Zip":"92103"},{"Location":"SALT & CLEAVER","Address":"3805 5th Ave","City":"San Diego","State":"CA","Zip":"92103"},{"Location":"SAN DIEGO ORTHOPAEDIC ASSOC","Address":"4060 4th Ave 700","City":"San Diego","State":"CA","Zip":"92103"},{"Location":"SAUSAGE & MEAT","Address":"4130 Park Blvd","City":"San Diego","State":"CA","Zip":"92103"},{"Location":"SHAKESPEAR PUB & GRILL","Address":"3701 India St","City":"San Diego","State":"CA","Zip":"92103"},{"Location":"SODEXO","Address":"3033 5th Ave 410","City":"San Diego","State":"CA","Zip":"92103"},{"Location":"SUBWAY #52338","Address":"440 W Washington St","City":"San Diego","State":"CA","Zip":"92103"},{"Location":"SUSHI DELI","Address":"228 W Washington St","City":"San Diego","State":"CA","Zip":"92103"},{"Location":"T DELI","Address":"1469 University Ave","City":"San Diego","State":"CA","Zip":"92103"},{"Location":"THE BRASS RAIL","Address":"3796 5th Ave","City":"San Diego","State":"CA","Zip":"92103"},{"Location":"THE REGAL BEAGLE","Address":"3659 India St","City":"San Diego","State":"CA","Zip":"92103"},{"Location":"UCSD MEDICAL CENTER","Address":"330 Lewis St","City":"San Diego","State":"CA","Zip":"92103"},{"Location":"UPTOWN DENTAL DESIGNS","Address":"3703 4th Ave","City":"San Diego","State":"CA","Zip":"92103"},{"Location":"UPTOWN TAVERN","Address":"1236 University Ave","City":"San Diego","State":"CA","Zip":"92103"},{"Location":"WASH O MAT","Address":"131 Washington St","City":"San Diego","State":"CA","Zip":"92103"},{"Location":"WHOLE FOODS","Address":"711 University Ave","City":"San Diego","State":"CA","Zip":"92103"}]