[{"Location":"BIGBOYZ BARBERSHOP","Address":"3883 El Cajon Blvd","City":"San Diego","State":"CA","Zip":"92105"},{"Location":"CHECK  CENTERS","Address":"1722 Euclid Ave 200","City":"San Diego","State":"CA","Zip":"92105"},{"Location":"CIGARETTE MARK PLUS","Address":"4142 University Ave","City":"San Diego","State":"CA","Zip":"92105"},{"Location":"EL COQUI GRILL","Address":"4286 University Ave","City":"San Diego","State":"CA","Zip":"92105"},{"Location":"GOODFELLAS SMOKE SHOP","Address":"4247 El Cajon Blvd","City":"San Diego","State":"CA","Zip":"92105"},{"Location":"LA SALSA MARKET","Address":"3702 Euclid Ave","City":"San Diego","State":"CA","Zip":"92105"},{"Location":"LABORERS UNION LOCAL 89","Address":"4161 Home Ave","City":"San Diego","State":"CA","Zip":"92105"},{"Location":"MAGIC LUBE AND AUTO REPAIR","Address":"1759 Euclid Ave","City":"San Diego","State":"CA","Zip":"92105"},{"Location":"NHA HANG QUE HUONG SEAFO","Address":"4134 University Ave","City":"San Diego","State":"CA","Zip":"92105"},{"Location":"NORTH GATE MARKETS","Address":"5405 University Ave","City":"San Diego","State":"CA","Zip":"92105"},{"Location":"PHO VAN HOA 54","Address":"4016 54th St","City":"San Diego","State":"CA","Zip":"92105"},{"Location":"PUERTO NUEVO","Address":"3780 El Cajon Blvd","City":"San Diego","State":"CA","Zip":"92105"},{"Location":"WINGSTOP","Address":"4403 University Ave 400","City":"San Diego","State":"CA","Zip":"92105"}]