[{"Location":"147 NATIONAL GUARD","Address":"7288 Convoy Ter","City":"San Diego","State":"CA","Zip":"92111"},{"Location":"24 HOUR FITNESS #892","Address":"7715 Balboa Ave","City":"San Diego","State":"CA","Zip":"92111"},{"Location":"ABILITY CENTER","Address":"4797 Ruffner St","City":"San Diego","State":"CA","Zip":"92111"},{"Location":"ALL AMERICAN PAINT AND BODY","Address":"8315 Buckhorn St","City":"San Diego","State":"CA","Zip":"92111"},{"Location":"ALLIED WASTE SERVICES","Address":"8364 Clairemont Mesa Blvd","City":"San Diego","State":"CA","Zip":"92111"},{"Location":"ALLSTAR HAIR CUT","Address":"7039 Linda Vista Rd","City":"San Diego","State":"CA","Zip":"92111"},{"Location":"AMBIANCE HAIR & NAILS SA","Address":"4645 Ruffner St B","City":"San Diego","State":"CA","Zip":"92111"},{"Location":"AMERICAN LEGION POST 731","Address":"7245 Linda Vista Rd","City":"San Diego","State":"CA","Zip":"92111"},{"Location":"AMERICAN TIRE DEPOT","Address":"4183 Convoy St","City":"San Diego","State":"CA","Zip":"92111"},{"Location":"AMERICAS FINEST CARPET","Address":"7475 Clairemont Mesa Blvd","City":"San Diego","State":"CA","Zip":"92111"},{"Location":"APPLEBEE'S #2150019","Address":"7677 Balboa Ave","City":"San Diego","State":"CA","Zip":"92111"},{"Location":"AQUA DAY SPA","Address":"4637 Convoy St 105","City":"San Diego","State":"CA","Zip":"92111"},{"Location":"BBCN BANK","Address":"4428 Convoy St A200","City":"San Diego","State":"CA","Zip":"92111"},{"Location":"BLARNEY STONE PUB","Address":"5617 Balboa Ave","City":"San Diego","State":"CA","Zip":"92111"},{"Location":"BLUE KOREA HOUSE","Address":"4620 Convoy St A","City":"San Diego","State":"CA","Zip":"92111"},{"Location":"BOSTON DENTAL GROUP","Address":"7612 Linda Vista Rd 112","City":"San Diego","State":"CA","Zip":"92111"},{"Location":"BULLPEN","Address":"8199 Clairemont Mesa Blvd","City":"San Diego","State":"CA","Zip":"92111"},{"Location":"C & M CHEVROLET","Address":"7978 Balboa Ave","City":"San Diego","State":"CA","Zip":"92111"},{"Location":"C 3 CHURCH","Address":"7620 Balboa Ave","City":"San Diego","State":"CA","Zip":"92111"},{"Location":"CA 954 INC 1","Address":"5604 Balboa Ave 105","City":"San Diego","State":"CA","Zip":"92111"},{"Location":"CABLE COMN INDUSTRIES INC","Address":"7198 Convoy Ct","City":"San Diego","State":"CA","Zip":"92111"},{"Location":"CAFE HUE","Address":"3860 Convoy St 106","City":"San Diego","State":"CA","Zip":"92111"},{"Location":"CALIBER COLLISION CENTERS","Address":"7515 Dagget St","City":"San Diego","State":"CA","Zip":"92111"},{"Location":"CALIFORNIA HIGHWAY PATROL","Address":"7183 Opportunity Rd","City":"San Diego","State":"CA","Zip":"92111"},{"Location":"CARMAX #7653 KEARNY MESA","Address":"7766 Balboa Ave","City":"San Diego","State":"CA","Zip":"92111"},{"Location":"CARRIAGE HOUSE COCKTAILS","Address":"7945 Balboa Ave","City":"San Diego","State":"CA","Zip":"92111"},{"Location":"CERTIFIED TIRE SERVICE CENTER","Address":"8303 Clairemont Mesa Blvd 108","City":"San Diego","State":"CA","Zip":"92111"},{"Location":"CHEF CHIN","Address":"4433 Convoy St","City":"San Diego","State":"CA","Zip":"92111"},{"Location":"CHICKEN CHARLIE","Address":"5505 Balboa Ave","City":"San Diego","State":"CA","Zip":"92111"},{"Location":"CHINA MAX","Address":"4698 Convoy St C101","City":"San Diego","State":"CA","Zip":"92111"},{"Location":"CHOPSTIX","Address":"4633 Convoy St","City":"San Diego","State":"CA","Zip":"92111"},{"Location":"CHOPSTIX TOO SUSHI","Address":"4380 Kearny Mesa Rd","City":"San Diego","State":"CA","Zip":"92111"},{"Location":"CHORUS CAFE","Address":"4428 Convoy St","City":"San Diego","State":"CA","Zip":"92111"},{"Location":"CHUNGS BARBER SHOP","Address":"4681 Convoy St F","City":"San Diego","State":"CA","Zip":"92111"},{"Location":"CLARIEMONT EQUIPMENT","Address":"7651 Ronson Rd","City":"San Diego","State":"CA","Zip":"92111"},{"Location":"CLUB LEGEND","Address":"4690 Convoy St 113","City":"San Diego","State":"CA","Zip":"92111"},{"Location":"COLLEGE SOURCE INC","Address":"8090 Engineer Rd B","City":"San Diego","State":"CA","Zip":"92111"},{"Location":"CONVOY TOFU HOUSE","Address":"4229 Convoy St","City":"San Diego","State":"CA","Zip":"92111"},{"Location":"CRAB HUT","Address":"4646 Convoy St 106a","City":"San Diego","State":"CA","Zip":"92111"},{"Location":"CRAB TOWN","Address":"8050 Clairemont Mesa Blvd","City":"San Diego","State":"CA","Zip":"92111"},{"Location":"CRICKET COMMUNICATIONS HEADQUA","Address":"5887 Copley Dr","City":"San Diego","State":"CA","Zip":"92111"},{"Location":"CUBIC TRANS","Address":"5650 Kearny Mesa Rd","City":"San Diego","State":"CA","Zip":"92111"},{"Location":"CUSTOM LOGOS INC","Address":"7889 Clairemont Mesa Blvd","City":"San Diego","State":"CA","Zip":"92111"},{"Location":"DAE JANG GEUM BBQ","Address":"7905 Engineer Rd","City":"San Diego","State":"CA","Zip":"92111"},{"Location":"DDURIBA","Address":"4425 Convoy St 217","City":"San Diego","State":"CA","Zip":"92111"},{"Location":"DEFENSE CONTRACT MANAGEMENT","Address":"7675 Dagget St 200","City":"San Diego","State":"CA","Zip":"92111"},{"Location":"DR DULCE VARGAS","Address":"7878 Clairemont Mesa Blvd E","City":"San Diego","State":"CA","Zip":"92111"},{"Location":"DRIVEN BODY","Address":"7924 Ronson Rd J","City":"San Diego","State":"CA","Zip":"92111"},{"Location":"DUMPLING INN","Address":"4625 Convoy St","City":"San Diego","State":"CA","Zip":"92111"},{"Location":"DVD & GOLIATH","Address":"5101 Convoy St","City":"San Diego","State":"CA","Zip":"92111"},{"Location":"EL PORTAL MEXICAN GRILL","Address":"4101 Genesee Ave","City":"San Diego","State":"CA","Zip":"92111"},{"Location":"EXCALIBER TOBACO","Address":"8199 Clairemont Mesa Blvd","City":"San Diego","State":"CA","Zip":"92111"},{"Location":"FAIRWAY GOLF","Address":"5040 Convoy St","City":"San Diego","State":"CA","Zip":"92111"},{"Location":"FARMERS INSURANCE GROUP","Address":"7380 Clairemont Mesa Blvd 200","City":"San Diego","State":"CA","Zip":"92111"},{"Location":"FF SAN DIEGO SUPERMARKET","Address":"6935 Linda Vista Rd","City":"San Diego","State":"CA","Zip":"92111"},{"Location":"FIFTH AXIS","Address":"7140 Engineer Rd","City":"San Diego","State":"CA","Zip":"92111"},{"Location":"FINAL CUT HAIR STUDIO","Address":"7841 Balboa Ave 101","City":"San Diego","State":"CA","Zip":"92111"},{"Location":"FIRESTONE #025550","Address":"4161 Convoy St","City":"San Diego","State":"CA","Zip":"92111"},{"Location":"FMC 68850000","Address":"7927 Ostrow St","City":"San Diego","State":"CA","Zip":"92111"},{"Location":"FOX 5 SAN DIEGO","Address":"7191 Engineer Rd","City":"San Diego","State":"CA","Zip":"92111"},{"Location":"FRIARS VILLAGE HOA","Address":"1190 Camino Copete","City":"San Diego","State":"CA","Zip":"92111"},{"Location":"GENTLE TOUCH CAR WASH","Address":"7215 Clairemont Mesa Blvd","City":"San Diego","State":"CA","Zip":"92111"},{"Location":"GIOVANNI'S RESTAURANT","Address":"6133 Balboa Ave","City":"San Diego","State":"CA","Zip":"92111"},{"Location":"GLAMOUR NAILS","Address":"5635 Balboa Ave","City":"San Diego","State":"CA","Zip":"92111"},{"Location":"GLOBAL LC INC.","Address":"4647 Convoy St 105","City":"San Diego","State":"CA","Zip":"92111"},{"Location":"GRAB AND GO SUBS","Address":"4488 Convoy St","City":"San Diego","State":"CA","Zip":"92111"},{"Location":"GRAHAM ENTERPRISES INC","Address":"7993 Balboa Ave 100","City":"San Diego","State":"CA","Zip":"92111"},{"Location":"GREGORY DAVIS DDS INC","Address":"4626 Mercury St A","City":"San Diego","State":"CA","Zip":"92111"},{"Location":"HEALTHCARE PLUS","Address":"5911 Balboa Ave","City":"San Diego","State":"CA","Zip":"92111"},{"Location":"INSINI TEA","Address":"4690 Convoy St 111","City":"San Diego","State":"CA","Zip":"92111"},{"Location":"ISLANDS RESTAURANT #015","Address":"7637 Balboa Ave","City":"San Diego","State":"CA","Zip":"92111"},{"Location":"JEON JU HOUSE","Address":"4373 Convoy St","City":"San Diego","State":"CA","Zip":"92111"},{"Location":"JEONG WON","Address":"4690 Convoy St 104","City":"San Diego","State":"CA","Zip":"92111"},{"Location":"JERSEY MIKES","Address":"7420 Clairemont Mesa Blvd 106","City":"San Diego","State":"CA","Zip":"92111"},{"Location":"JERSEY MIKES SUBS 20143","Address":"5657 Balboa Ave","City":"San Diego","State":"CA","Zip":"92111"},{"Location":"JOSUN KOREAN BBQ","Address":"4681 Convoy St B","City":"San Diego","State":"CA","Zip":"92111"},{"Location":"JR CONSTRUCTION","Address":"8123 Engineer Rd","City":"San Diego","State":"CA","Zip":"92111"},{"Location":"K SANDWICHES INC","Address":"7604 Linda Vista Rd","City":"San Diego","State":"CA","Zip":"92111"},{"Location":"K-CUISINE","Address":"4688 Convoy St","City":"San Diego","State":"CA","Zip":"92111"},{"Location":"KEARNEY MESA MARKET","Address":"7641 Linda Vista Rd","City":"San Diego","State":"CA","Zip":"92111"},{"Location":"KEARNY MESA ACURA","Address":"5202 Kearny Mesa Rd","City":"San Diego","State":"CA","Zip":"92111"},{"Location":"KEARNY MESA BOWL","Address":"7585 Clairemont Mesa Blvd","City":"San Diego","State":"CA","Zip":"92111"},{"Location":"KEARNY MESA VFW 3788","Address":"7785 Othello Ave","City":"San Diego","State":"CA","Zip":"92111"},{"Location":"KFMB 8 SPORTS","Address":"7677 Engineer Rd","City":"San Diego","State":"CA","Zip":"92111"},{"Location":"KLEIN FIELDER","Address":"5761 Copley Dr 100","City":"San Diego","State":"CA","Zip":"92111"},{"Location":"KOHL'S #1377","Address":"5505 Balboa Ave","City":"San Diego","State":"CA","Zip":"92111"},{"Location":"KOON","Address":"3860 Conroy St #102","City":"San Diego","State":"CA","Zip":"92111"},{"Location":"KP ONCALL LLC","Address":"5855 Copley Dr 250","City":"San Diego","State":"CA","Zip":"92111"},{"Location":"KP&K INTERNATIONAL","Address":"4367 Convoy St","City":"San Diego","State":"CA","Zip":"92111"},{"Location":"L & M TIRE COMPANY INC.","Address":"4464 Convoy St","City":"San Diego","State":"CA","Zip":"92111"},{"Location":"LA FITNESS #53","Address":"4984 Shawline St","City":"San Diego","State":"CA","Zip":"92111"},{"Location":"LAST CALL BEVERAGE  INC","Address":"4365 Convoy St","City":"San Diego","State":"CA","Zip":"92111"},{"Location":"LEXUS KEARNY MESA","Address":"4970 Kearny Mesa Rd","City":"San Diego","State":"CA","Zip":"92111"},{"Location":"LIBERTY","Address":"7341 Clairemont Mesa Blvd","City":"San Diego","State":"CA","Zip":"92111"},{"Location":"LILCYN INC","Address":"7636 Clairemont Mesa Blvd","City":"San Diego","State":"CA","Zip":"92111"},{"Location":"LOLITAS MEXICAN FOOD","Address":"7305 Clairemont Mesa Blvd","City":"San Diego","State":"CA","Zip":"92111"},{"Location":"LUPES TACO SHOP INC","Address":"7621 Linda Vista Rd 101","City":"San Diego","State":"CA","Zip":"92111"},{"Location":"MAIDO BILLIARDS SPORT","Address":"4184 Convoy St","City":"San Diego","State":"CA","Zip":"92111"},{"Location":"MANNA BBQ","Address":"4428 Convoy St 210","City":"San Diego","State":"CA","Zip":"92111"},{"Location":"MASAGE OASIS","Address":"4344 Convoy St","City":"San Diego","State":"CA","Zip":"92111"},{"Location":"MERCEDES BENZ OF SAN DIEGO","Address":"7860 Balboa Ave","City":"San Diego","State":"CA","Zip":"92111"},{"Location":"MICHELLE S YOUN","Address":"7420 Clairemont Mesa Blvd 101","City":"San Diego","State":"CA","Zip":"92111"},{"Location":"MIDAS CONVOY","Address":"3855 Convoy St","City":"San Diego","State":"CA","Zip":"92111"},{"Location":"MIGNON PHO & GRILL","Address":"3860 Convoy St 116","City":"San Diego","State":"CA","Zip":"92111"},{"Location":"MIN SOK CHON","Address":"4620 Convoy St 0","City":"San Diego","State":"CA","Zip":"92111"},{"Location":"MINGI KIM DDS INC","Address":"7750 Dagget St 104","City":"San Diego","State":"CA","Zip":"92111"},{"Location":"MOSSY CORP.","Address":"4625 Brinnell St","City":"San Diego","State":"CA","Zip":"92111"},{"Location":"MOSSY NISSAN","Address":"8104 Clairemont Mesa Blvd","City":"San Diego","State":"CA","Zip":"92111"},{"Location":"MOSSY NISSAN KEARNY MESA","Address":"8118 Clairemont Mesa Blvd","City":"San Diego","State":"CA","Zip":"92111"},{"Location":"MUZEN KARAOKE","Address":"7770 Vickers St","City":"San Diego","State":"CA","Zip":"92111"},{"Location":"MYUNG IN DUMPLINGS","Address":"4344 Convoy St","City":"San Diego","State":"CA","Zip":"92111"},{"Location":"NEIGHBORHOOD HOUSE ASSOC 2","Address":"5660 Copley Dr","City":"San Diego","State":"CA","Zip":"92111"},{"Location":"NHA%2FHS ADMINISTRATION OFFICE","Address":"5660 Copley Dr","City":"San Diego","State":"CA","Zip":"92111"},{"Location":"NOLBU POCHA","Address":"4633 Convoy St 102","City":"San Diego","State":"CA","Zip":"92111"},{"Location":"NOZOMI NOODLES&TERIYAKI","Address":"4637 Convoy St 104","City":"San Diego","State":"CA","Zip":"92111"},{"Location":"O'BRIEN'S","Address":"4646 Convoy St 117","City":"San Diego","State":"CA","Zip":"92111"},{"Location":"OTOTO SUSHI CO.","Address":"5651 Balboa Ave","City":"San Diego","State":"CA","Zip":"92111"},{"Location":"PACIFIC DENTAL #240","Address":"5675 Balboa Ave","City":"San Diego","State":"CA","Zip":"92111"},{"Location":"PACIFIC HONDA SERVICE","Address":"4760 Convoy St","City":"San Diego","State":"CA","Zip":"92111"},{"Location":"PARADISE SPA","Address":"4237 Convoy St","City":"San Diego","State":"CA","Zip":"92111"},{"Location":"PHO FUSION","Address":"8038 Clairemont Mesa Blvd","City":"San Diego","State":"CA","Zip":"92111"},{"Location":"PHO HOA LINDA VISTA","Address":"6921 Linda Vista Rd","City":"San Diego","State":"CA","Zip":"92111"},{"Location":"PHO PARADISE","Address":"3904 Convoy St 101","City":"San Diego","State":"CA","Zip":"92111"},{"Location":"PHYSIOTHERAPY ASSOCIATES","Address":"7625a Mesa College Dr 101-a","City":"San Diego","State":"CA","Zip":"92111"},{"Location":"PRIME CAPITAL SOURCE","Address":"8334 Clairemont Mesa Blvd 101","City":"San Diego","State":"CA","Zip":"92111"},{"Location":"PRO SHOT PRODUCTIONS","Address":"8253 Ronson Rd","City":"San Diego","State":"CA","Zip":"92111"},{"Location":"PRO SPECIALTIES","Address":"4863 Shawline St D","City":"San Diego","State":"CA","Zip":"92111"},{"Location":"PURE PLATINUM","Address":"4000 Kearny Mesa Rd","City":"San Diego","State":"CA","Zip":"92111"},{"Location":"RANCHO CHYSLER JEEP DODGE","Address":"8010 Balboa Ave","City":"San Diego","State":"CA","Zip":"92111"},{"Location":"REI","Address":"5556 Copley Dr","City":"San Diego","State":"CA","Zip":"92111"},{"Location":"RESIDENCE INN - MARRIOTT","Address":"5400 Kearny Mesa Rd","City":"San Diego","State":"CA","Zip":"92111"},{"Location":"SAN DIEGO ASSOCIATES","Address":"8388 Vickers St","City":"San Diego","State":"CA","Zip":"92111"},{"Location":"SAN DIEGO ASSOSICATION OF REAL","Address":"4845 Ronson Ct","City":"San Diego","State":"CA","Zip":"92111"},{"Location":"SAN DIEGO AUTO FINDER","Address":"4606 Convoy St","City":"San Diego","State":"CA","Zip":"92111"},{"Location":"SAN DIEGO BARBER SHOP","Address":"8199 Clairemont Mesa Blvd Q","City":"San Diego","State":"CA","Zip":"92111"},{"Location":"SAN DIEGO COIN","Address":"7420 Clairemont Mesa Blvd 113","City":"San Diego","State":"CA","Zip":"92111"},{"Location":"SAN DIEGO EUROPEAN","Address":"4531 Convoy St","City":"San Diego","State":"CA","Zip":"92111"},{"Location":"SAN DIEGO EUROPEAN 2","Address":"7820 Balboa Ave","City":"San Diego","State":"CA","Zip":"92111"},{"Location":"SAN DIEGO EUROPEAN 3","Address":"4595 Convoy St","City":"San Diego","State":"CA","Zip":"92111"},{"Location":"SAN DIEGO SPINE CENTER AMC","Address":"3760 Convoy St 114","City":"San Diego","State":"CA","Zip":"92111"},{"Location":"SAN DIEGO UNIFIED SCHOOL DIST","Address":"4710 Cardin St","City":"San Diego","State":"CA","Zip":"92111"},{"Location":"SAN DIEGO VOLVO","Address":"5350 Kearny Mesa Rd","City":"San Diego","State":"CA","Zip":"92111"},{"Location":"SAND DUEAN THAI","Address":"3904 Convoy St 112","City":"San Diego","State":"CA","Zip":"92111"},{"Location":"SAND STRAND SERVICES","Address":"4858 Ronson Ct B","City":"San Diego","State":"CA","Zip":"92111"},{"Location":"SANDIEGO HARLEY DAVIDSON","Address":"5600 Kearny Mesa Rd","City":"San Diego","State":"CA","Zip":"92111"},{"Location":"SCOTT P LEARY MD INC","Address":"7625 Mesa College Dr 305","City":"San Diego","State":"CA","Zip":"92111"},{"Location":"SEIU LOCAL","Address":"4004 Kearny Mesa Rd","City":"San Diego","State":"CA","Zip":"92111"},{"Location":"SHABU SHABU HOUSE","Address":"4646 Convoy St 107","City":"San Diego","State":"CA","Zip":"92111"},{"Location":"SHABU SHABU WORLD","Address":"3904 Convoy St 117","City":"San Diego","State":"CA","Zip":"92111"},{"Location":"SKATE WORLD","Address":"6907 Linda Vista Rd","City":"San Diego","State":"CA","Zip":"92111"},{"Location":"SMITH STUDIOS","Address":"7875 Convoy Ct 4","City":"San Diego","State":"CA","Zip":"92111"},{"Location":"SOMBRERO MEXICAN FOOD","Address":"7740 Copley Park Pl","City":"San Diego","State":"CA","Zip":"92111"},{"Location":"SPORTS AUTHORITY 639","Address":"7725 Balboa Ave","City":"San Diego","State":"CA","Zip":"92111"},{"Location":"STRETCHU LLC","Address":"4411 Mercury St 108","City":"San Diego","State":"CA","Zip":"92111"},{"Location":"SUNBELT MANAGEMENT COMPANY","Address":"8095 Othello Ave","City":"San Diego","State":"CA","Zip":"92111"},{"Location":"SUNRISE SUPER BUFFET","Address":"3860 Convoy St 121","City":"San Diego","State":"CA","Zip":"92111"},{"Location":"SUSHI DELI 3","Address":"7986 Armour St","City":"San Diego","State":"CA","Zip":"92111"},{"Location":"SUSHI YARO","Address":"7905 Engineer Rd","City":"San Diego","State":"CA","Zip":"92111"},{"Location":"T-SHIRTS MART BALBOA","Address":"7763 Balboa Ave","City":"San Diego","State":"CA","Zip":"92111"},{"Location":"TAEGUKGI","Address":"7655 Clairemont Mesa Blvd 501","City":"San Diego","State":"CA","Zip":"92111"},{"Location":"TAJIMA RESTAURANT 1","Address":"4681 Convoy St 1","City":"San Diego","State":"CA","Zip":"92111"},{"Location":"TAJIMA RESTAURANT 2","Address":"4411 Mercury St 111","City":"San Diego","State":"CA","Zip":"92111"},{"Location":"TAPESTRY SOLUTIONS INC","Address":"5643 Copley Dr","City":"San Diego","State":"CA","Zip":"92111"},{"Location":"TARGET","Address":"8001 Othello Ave","City":"San Diego","State":"CA","Zip":"92111"},{"Location":"TARGET","Address":"5680 Balboa Ave","City":"San Diego","State":"CA","Zip":"92111"},{"Location":"TEA STATION","Address":"7315 Clairemont Mesa Blvd","City":"San Diego","State":"CA","Zip":"92111"},{"Location":"THE GUN RANGE SAN DIEGO","Address":"7853 Balboa Ave","City":"San Diego","State":"CA","Zip":"92111"},{"Location":"THE SWITCH SD","Address":"4853 Convoy St","City":"San Diego","State":"CA","Zip":"92111"},{"Location":"UP2YOU CAFE","Address":"7770 Vickers St 101","City":"San Diego","State":"CA","Zip":"92111"},{"Location":"VEHICLE SECURITY","Address":"5640 Kearny Mesa Rd L","City":"San Diego","State":"CA","Zip":"92111"},{"Location":"VERIZON SAN DIEGO MTSO","Address":"4777 Mercury St","City":"San Diego","State":"CA","Zip":"92111"},{"Location":"VIBE ASIAN FUSION","Address":"4428 Convoy St 338","City":"San Diego","State":"CA","Zip":"92111"},{"Location":"VOLKSWAGEN KEARNY MESA","Address":"8040 Balboa Ave","City":"San Diego","State":"CA","Zip":"92111"},{"Location":"WINGS N THINGS KM","Address":"3904 Convoy St 100","City":"San Diego","State":"CA","Zip":"92111"},{"Location":"WOORI HOSPITAL","Address":"7825 Engineer Rd 101","City":"San Diego","State":"CA","Zip":"92111"},{"Location":"YESENIAS MEX & SEAFOOD","Address":"8199 Clairemont Mesa Blvd C","City":"San Diego","State":"CA","Zip":"92111"},{"Location":"ZION MARKETPLACE","Address":"7655 Clairemont Mesa Blvd","City":"San Diego","State":"CA","Zip":"92111"}]