[{"Location":"ASIA WOK","Address":"342 Euclid Ave 405","City":"San Diego","State":"CA","Zip":"92114"},{"Location":"CARRIBBEAN PLACE","Address":"6171 Imperial Ave","City":"San Diego","State":"CA","Zip":"92114"},{"Location":"CORNER STONE BARBER","Address":"6921 Lisbon St","City":"San Diego","State":"CA","Zip":"92114"},{"Location":"GIANT PIZZA KING","Address":"6230 Federal Blvd","City":"San Diego","State":"CA","Zip":"92114"},{"Location":"IMPERIAL BARBER SHOP","Address":"6733 Imperial Ave","City":"San Diego","State":"CA","Zip":"92114"},{"Location":"IMPERIAL FISH MARKET","Address":"894 S Euclid Ave","City":"San Diego","State":"CA","Zip":"92114"},{"Location":"LA CANADA","Address":"940 Cardiff St","City":"San Diego","State":"CA","Zip":"92114"},{"Location":"MISTER CS BARBERSHOP","Address":"5839 Market St","City":"San Diego","State":"CA","Zip":"92114"},{"Location":"THE BUFFALO SPOT 2","Address":"220 Euclid Ave 180","City":"San Diego","State":"CA","Zip":"92114"},{"Location":"ASIA WOK","Address":"342 Euclid Ave 405","City":"San Diego","State":"CA","Zip":"92114"},{"Location":"CARRIBBEAN PLACE","Address":"6171 Imperial Ave","City":"San Diego","State":"CA","Zip":"92114"},{"Location":"CORNER STONE BARBER","Address":"6921 Lisbon St","City":"San Diego","State":"CA","Zip":"92114"},{"Location":"GIANT PIZZA KING","Address":"6230 Federal Blvd","City":"San Diego","State":"CA","Zip":"92114"},{"Location":"IMPERIAL BARBER SHOP","Address":"6733 Imperial Ave","City":"San Diego","State":"CA","Zip":"92114"},{"Location":"IMPERIAL FISH MARKET","Address":"894 S Euclid Ave","City":"San Diego","State":"CA","Zip":"92114"},{"Location":"LA CANADA","Address":"940 Cardiff St","City":"San Diego","State":"CA","Zip":"92114"},{"Location":"MISTER CS BARBERSHOP","Address":"5839 Market St","City":"San Diego","State":"CA","Zip":"92114"},{"Location":"THE BUFFALO SPOT 2","Address":"220 Euclid Ave 180","City":"San Diego","State":"CA","Zip":"92114"}]