[{"Location":"BAY PARK DENTAL GROUP","Address":"2619 Clairemont Dr","City":"San Diego","State":"CA","Zip":"92117"},{"Location":"BOOMERANG GOURMET BURGER","Address":"4577 Clairemont Dr","City":"San Diego","State":"CA","Zip":"92117"},{"Location":"BUGA KOREAN BBQ","Address":"5580 Clairemont Mesa Blvd","City":"San Diego","State":"CA","Zip":"92117"},{"Location":"CARMENS","Address":"4937 Diane Ave","City":"San Diego","State":"CA","Zip":"92117"},{"Location":"CHAMPS LOUNGE","Address":"3050 Clairemont Dr","City":"San Diego","State":"CA","Zip":"92117"},{"Location":"CHILI'S #1082","Address":"4060 Clairemont Mesa Blvd","City":"San Diego","State":"CA","Zip":"92117"},{"Location":"CLAIREMONT LIQUOR","Address":"3949 Clairemont Dr","City":"San Diego","State":"CA","Zip":"92117"},{"Location":"CLAIRMONT FAMILY DENTAL","Address":"3670 Clairemont Dr 14","City":"San Diego","State":"CA","Zip":"92117"},{"Location":"CUCINA ITALIANA","Address":"4705 Clairemont Dr A","City":"San Diego","State":"CA","Zip":"92117"},{"Location":"DINOS GYROS","Address":"4705 Clairemont Dr D","City":"San Diego","State":"CA","Zip":"92117"},{"Location":"DON DIEGO TACO BAR","Address":"4421 Genesee Ave","City":"San Diego","State":"CA","Zip":"92117"},{"Location":"DOUGLAS N CHRISTIANSEN","Address":"3737 Moraga Ave B400","City":"San Diego","State":"CA","Zip":"92117"},{"Location":"EMERITUS AT CLAIREMONT","Address":"5219 Clairemont Mesa Blvd 245","City":"San Diego","State":"CA","Zip":"92117"},{"Location":"EXTREME PIZZA","Address":"4705 Clairemont Dr","City":"San Diego","State":"CA","Zip":"92117"},{"Location":"HAPPY BARBER","Address":"4684 Clairemont Mesa Blvd","City":"San Diego","State":"CA","Zip":"92117"},{"Location":"HARLEY DAVIDSON SAN DIEGO","Address":"4645 Morena Blvd","City":"San Diego","State":"CA","Zip":"92117"},{"Location":"HERRING BROADCASTING","Address":"4757 Morena Blvd","City":"San Diego","State":"CA","Zip":"92117"},{"Location":"ISA BELLA","Address":"4013 Avati Dr","City":"San Diego","State":"CA","Zip":"92117"},{"Location":"JD MACHINE TECH","Address":"4170 Morena Blvd A","City":"San Diego","State":"CA","Zip":"92117"},{"Location":"JOHNS SHOE REPAIR","Address":"3007 Clairemont Dr H","City":"San Diego","State":"CA","Zip":"92117"},{"Location":"KAZ A NEWMAN DDS","Address":"3065 Clairemont Dr C","City":"San Diego","State":"CA","Zip":"92117"},{"Location":"KING BISTRO INC","Address":"4957 Diane Ave","City":"San Diego","State":"CA","Zip":"92117"},{"Location":"KWIK N KLEEN CAR WASH","Address":"4315 Genesee Ave","City":"San Diego","State":"CA","Zip":"92117"},{"Location":"LIGHTNING JACKS BBQ","Address":"4705 Clairemont Dr","City":"San Diego","State":"CA","Zip":"92117"},{"Location":"MOUNTAIN MIKES PIZZA","Address":"3089 Clairemont Dr","City":"San Diego","State":"CA","Zip":"92117"},{"Location":"NATHANS BARBER & BEAUTY SALON","Address":"4965 Diane Ave","City":"San Diego","State":"CA","Zip":"92117"},{"Location":"NAZCA GRILL","Address":"4310 Genesee Ave","City":"San Diego","State":"CA","Zip":"92117"},{"Location":"OASIS RESTAURANT AND LOUNGE","Address":"4033 Avati Dr","City":"San Diego","State":"CA","Zip":"92117"},{"Location":"OUTBACK STEAKHOUSE #0553","Address":"4196 Clairemont Mesa Blvd","City":"San Diego","State":"CA","Zip":"92117"},{"Location":"PAPAS PIZZA","Address":"4388 Moraga Ave","City":"San Diego","State":"CA","Zip":"92117"},{"Location":"PETER D'S","Address":"5149 Clairemont Mesa Blvd","City":"San Diego","State":"CA","Zip":"92117"},{"Location":"REGAN RECYCLING","Address":"4731 Clairemont Dr F","City":"San Diego","State":"CA","Zip":"92117"},{"Location":"SAKE SUSHI JAPANESE RESTAURANT","Address":"5430 Clairemont Mesa Blvd G","City":"San Diego","State":"CA","Zip":"92117"},{"Location":"SKY BOX RESTAURANT","Address":"3065 Clairemont Dr","City":"San Diego","State":"CA","Zip":"92117"},{"Location":"SOFT TOUCH DENTAL","Address":"3735 Clairemont Mesa Blvd","City":"San Diego","State":"CA","Zip":"92117"},{"Location":"SPORT CLIPS CA402","Address":"4839 Clairemont Dr E","City":"San Diego","State":"CA","Zip":"92117"},{"Location":"STIX HOLDINGS 709","Address":"4961 Clairemont Dr B","City":"San Diego","State":"CA","Zip":"92117"},{"Location":"THE EXPERIENCE OF TASTE INC","Address":"4575 Clairemont Dr","City":"San Diego","State":"CA","Zip":"92117"},{"Location":"THE LACROIX LAW GROUP","Address":"4241 Jutland Dr 315","City":"San Diego","State":"CA","Zip":"92117"},{"Location":"TONYS GIANT PIZZERIA","Address":"4973 Diane Ave","City":"San Diego","State":"CA","Zip":"92117"},{"Location":"TWH SAN DIEGO","Address":"4766 Clairemont Mesa Blvd","City":"San Diego","State":"CA","Zip":"92117"}]