[{"Location":"AMAR CAPITAL 1","Address":"171 C Ave C","City":"Coronado","State":"CA","Zip":"92118"},{"Location":"BARNEYS INVESTMENTS LLC","Address":"1528 Glorietta Blvd","City":"Coronado","State":"CA","Zip":"92118"},{"Location":"BIG HORN VENTURES LLC","Address":"5 The Inlt","City":"Coronado","State":"CA","Zip":"92118"},{"Location":"BLUE WATER GRILL","Address":"1701 Strand Way","City":"Coronado","State":"CA","Zip":"92118"},{"Location":"BOW TIES & HAIR CUTS","Address":"1106 10th St","City":"Coronado","State":"CA","Zip":"92118"},{"Location":"CANDELAS ON THE BAY","Address":"1201 1st St 115","City":"Coronado","State":"CA","Zip":"92118"},{"Location":"CARRIER STRIKE GROUP","Address":"1456 Read Rd","City":"Coronado","State":"CA","Zip":"92118"},{"Location":"CHEZ LOMA","Address":"1132 Loma Ave","City":"Coronado","State":"CA","Zip":"92118"},{"Location":"CORNADO MARRIOT ISLAND II","Address":"2000 2nd St","City":"Coronado","State":"CA","Zip":"92118"},{"Location":"CORONADO BAYSIDE GRILL","Address":"2000 Visalia Row","City":"Coronado","State":"CA","Zip":"92118"},{"Location":"CORONADO BREWING COMPANY","Address":"170 Orange Ave","City":"Coronado","State":"CA","Zip":"92118"},{"Location":"CORONADO CAYS YACHT CLUB","Address":"30 Caribe Cay Blvd N","City":"Coronado","State":"CA","Zip":"92118"},{"Location":"CORONADO ISLAND%2F MARRIOTT%2FSPA","Address":"2000 2nd St","City":"Coronado","State":"CA","Zip":"92118"},{"Location":"CORONADO ISLANDS MARRIOT-BAR","Address":"2000 2nd St","City":"Coronado","State":"CA","Zip":"92118"},{"Location":"CORONADO YACHT CLUB","Address":"1631 Strand Way","City":"Coronado","State":"CA","Zip":"92118"},{"Location":"COSTA AZUL","Address":"1031 Orange Ave","City":"Coronado","State":"CA","Zip":"92118"},{"Location":"CROWN BARBER SHOP","Address":"947 Orange Ave","City":"Coronado","State":"CA","Zip":"92118"},{"Location":"DELUXE DOGS","Address":"943 Orange Ave","City":"Coronado","State":"CA","Zip":"92118"},{"Location":"DR ALEAXANDER CORONDONI","Address":"1001 B Ave 111","City":"Coronado","State":"CA","Zip":"92118"},{"Location":"DR DAN HUTCHISON","Address":"120 C Ave 100","City":"Coronado","State":"CA","Zip":"92118"},{"Location":"DR. MICHAEL B. COPP  DDS","Address":"120 C Ave 150","City":"Coronado","State":"CA","Zip":"92118"},{"Location":"HOTEL DEL CORONADO","Address":"1500 Orange Ave","City":"Coronado","State":"CA","Zip":"92118"},{"Location":"HRS MARINE","Address":"1715 Strand Way","City":"Coronado","State":"CA","Zip":"92118"},{"Location":"IL FORNAIO CORONADO","Address":"1333 1st St","City":"Coronado","State":"CA","Zip":"92118"},{"Location":"ISLAND PASTA","Address":"1202 Orange Ave","City":"Coronado","State":"CA","Zip":"92118"},{"Location":"LAS PALMAS TOWER #3 ASSOCIATIO","Address":"1760 Avenida Del Mundo","City":"Coronado","State":"CA","Zip":"92118"},{"Location":"LEROYS KITCHEN AND LOUNGE","Address":"1015 Orange Ave","City":"Coronado","State":"CA","Zip":"92118"},{"Location":"LITTLE CLUB TAVERN","Address":"132 Orange Ave","City":"Coronado","State":"CA","Zip":"92118"},{"Location":"LOEWS CORONADO RESORT (0037179","Address":"4000 Coronado Bay Rd","City":"Coronado","State":"CA","Zip":"92118"},{"Location":"MARRIOTT CORONADO ISLAND FIT","Address":"2000 2nd St","City":"Coronado","State":"CA","Zip":"92118"},{"Location":"MCP'S IRISH PUB & GRILL","Address":"1107 Orange Ave","City":"Coronado","State":"CA","Zip":"92118"},{"Location":"MIGUEL'S","Address":"1351 Orange Ave","City":"Coronado","State":"CA","Zip":"92118"},{"Location":"NICKY ROTTENS","Address":"100 Orange Ave","City":"Coronado","State":"CA","Zip":"92118"},{"Location":"NIGHT AND DAY CAFE","Address":"847 Orange Ave","City":"Coronado","State":"CA","Zip":"92118"},{"Location":"PEOHE'S","Address":"1201 1st St","City":"Coronado","State":"CA","Zip":"92118"},{"Location":"PRIMA VERA REST","Address":"932 Orange Ave","City":"Coronado","State":"CA","Zip":"92118"},{"Location":"SPIROS GYROS","Address":"1201 1st St","City":"Coronado","State":"CA","Zip":"92118"},{"Location":"STAKE CHOP HOUSE AND BAR","Address":"1309 Orange Ave","City":"Coronado","State":"CA","Zip":"92118"},{"Location":"TAVERN CORONADO","Address":"1310 Orange Ave","City":"Coronado","State":"CA","Zip":"92118"},{"Location":"THE BRIGANTINE REST","Address":"1333 Orange Ave","City":"Coronado","State":"CA","Zip":"92118"},{"Location":"THE CORONADO ISLAND MARRIOTT","Address":"2000 2nd St 1","City":"Coronado","State":"CA","Zip":"92118"},{"Location":"THE FISH COMPANY","Address":"1007 C Ave","City":"Coronado","State":"CA","Zip":"92118"},{"Location":"VFW POST 2422","Address":"557 Orange Ave","City":"Coronado","State":"CA","Zip":"92118"},{"Location":"YUMMY SUSHI","Address":"1330 Orange Ave 280","City":"Coronado","State":"CA","Zip":"92118"},{"Location":"BARLEYMASH","Address":"600 5th St","City":"San Diego","State":"CA","Zip":"92118"},{"Location":"SAN DIEGO BLENDERS","Address":"4242 Camino De Rio N #20","City":"San Diego","State":"CA","Zip":"92118"},{"Location":"USNS HENRY J KAISER T-A0187","Address":"Pier O%2Fp Naval Air Station N Islan","City":"San Diego","State":"CA","Zip":"92118"}]