[{"Location":"AIR CONDITIONED LOUNGE","Address":"4673 30th St","City":"San Diego","State":"CA","Zip":"92116"},{"Location":"AMERICAN TIRE DEPOT","Address":"3189 Adams Ave","City":"San Diego","State":"CA","Zip":"92116"},{"Location":"BUDS LIQUORS","Address":"4597 Park Blvd","City":"San Diego","State":"CA","Zip":"92116"},{"Location":"CARILLOS AUTO","Address":"3074 Adams Ave","City":"San Diego","State":"CA","Zip":"92116"},{"Location":"CASA ADAMS","Address":"3038 Adams Ave","City":"San Diego","State":"CA","Zip":"92116"},{"Location":"CONGRESSWOMAN SUSAN DAVIS","Address":"2700 Adams Ave 102","City":"San Diego","State":"CA","Zip":"92116"},{"Location":"CWF HOLDINGS LLC","Address":"4494 30th St","City":"San Diego","State":"CA","Zip":"92116"},{"Location":"EL ZARABE","Address":"3201 Adams Ave","City":"San Diego","State":"CA","Zip":"92116"},{"Location":"FENA CORP.","Address":"3498 Adams Ave","City":"San Diego","State":"CA","Zip":"92116"},{"Location":"KENSINGTON CLUB","Address":"4077 Adams Ave","City":"San Diego","State":"CA","Zip":"92116"},{"Location":"LIQUID VAPOR LOUNGE","Address":"4443 30th St 200","City":"San Diego","State":"CA","Zip":"92116"},{"Location":"NORTH PARK MEDICAL CTR","Address":"2045 Adams Ave","City":"San Diego","State":"CA","Zip":"92116"},{"Location":"PARKHOUSE EATERY","Address":"4574 Park Blvd","City":"San Diego","State":"CA","Zip":"92116"},{"Location":"PARKPLACESCREENANDGLASS","Address":"3580 Adams Ave","City":"San Diego","State":"CA","Zip":"92116"},{"Location":"RED HOUSE PIZZA","Address":"4615 Park Blvd","City":"San Diego","State":"CA","Zip":"92116"},{"Location":"ROSIE O'GRADY'S","Address":"3402 Adams Ave","City":"San Diego","State":"CA","Zip":"92116"},{"Location":"SWEET DREAMS SMOKE","Address":"1732 1%2F2 Madison Ave","City":"San Diego","State":"CA","Zip":"92116"},{"Location":"SYCAMORE DEN","Address":"3391 Adams Ave","City":"San Diego","State":"CA","Zip":"92116"},{"Location":"THE ANTIQUE ROW CAFE","Address":"3002 Adams Ave","City":"San Diego","State":"CA","Zip":"92116"},{"Location":"THE BLIND LADY","Address":"3416 Adams Ave","City":"San Diego","State":"CA","Zip":"92116"},{"Location":"THE OLD SOD","Address":"3373 Adams Ave","City":"San Diego","State":"CA","Zip":"92116"},{"Location":"THE RABBIT HOLE","Address":"3377 Adams Ave","City":"San Diego","State":"CA","Zip":"92116"},{"Location":"TRIPLE CROWN PUB","Address":"3221 Adams Ave","City":"San Diego","State":"CA","Zip":"92116"}]