[{"Location":"24 HOUR FITNESS #872","Address":"4345 Imperial Ave","City":"San Diego","State":"CA","Zip":"92113"},{"Location":"ACE MUFFLER","Address":"2260 National Ave","City":"San Diego","State":"CA","Zip":"92113"},{"Location":"ALPHA PROJECT","Address":"3070 Ocean View Blvd","City":"San Diego","State":"CA","Zip":"92113"},{"Location":"ANDREW SHAMOUN","Address":"3676 Ocean View Blvd","City":"San Diego","State":"CA","Zip":"92113"},{"Location":"ANGELOS TOWING","Address":"1177 S 26th St","City":"San Diego","State":"CA","Zip":"92113"},{"Location":"BARBER SHOP","Address":"4973 Imperial Ave","City":"San Diego","State":"CA","Zip":"92113"},{"Location":"BUDGET TIRES","Address":"3698 Main St","City":"San Diego","State":"CA","Zip":"92113"},{"Location":"CALIFORNIA MARINE CLEANA","Address":"2049 Main St","City":"San Diego","State":"CA","Zip":"92113"},{"Location":"CASA DE MILAGROS","Address":"1127 S 38th St","City":"San Diego","State":"CA","Zip":"92113"},{"Location":"CONTINENTAL MARITIME","Address":"1995 Bay Front St","City":"San Diego","State":"CA","Zip":"92113"},{"Location":"CRAWFORD DENTAL GROUP","Address":"5060 Logan Ave","City":"San Diego","State":"CA","Zip":"92113"},{"Location":"DERDEN VEHICLE SERVICES","Address":"5075 Logan Ave","City":"San Diego","State":"CA","Zip":"92113"},{"Location":"GAGGO BROTHERS CHECK CASHING","Address":"425 S 30th St","City":"San Diego","State":"CA","Zip":"92113"},{"Location":"IGLESIA DE CRISTO ELIM","Address":"5065 Logan Ave","City":"San Diego","State":"CA","Zip":"92113"},{"Location":"K1  SPEED SAN DIEGO","Address":"1709 Main St","City":"San Diego","State":"CA","Zip":"92113"},{"Location":"KING OPTICAL","Address":"2960 National Ave","City":"San Diego","State":"CA","Zip":"92113"},{"Location":"LAVANDERIA LLC","Address":"1460 S 43rd St","City":"San Diego","State":"CA","Zip":"92113"},{"Location":"LOUISIANA FRIED CHICKEN","Address":"2580 National Ave","City":"San Diego","State":"CA","Zip":"92113"},{"Location":"MONARA INC","Address":"840 S 47th St","City":"San Diego","State":"CA","Zip":"92113"},{"Location":"NASSCO","Address":"2798 Harbor Dr","City":"San Diego","State":"CA","Zip":"92113"},{"Location":"NORTHGATE MARKET","Address":"1950 Main St","City":"San Diego","State":"CA","Zip":"92113"},{"Location":"RYAN  BROTHERS COFFEE","Address":"1894 Main St","City":"San Diego","State":"CA","Zip":"92113"},{"Location":"STROZZI SOCAL ITALIAN","Address":"1805 Newton Ave","City":"San Diego","State":"CA","Zip":"92113"},{"Location":"SUSHI ON A ROLL","Address":"1620 National Ave","City":"San Diego","State":"CA","Zip":"92113"},{"Location":"THE LOVE CENTERS LLC","Address":"4252 Alpha St C","City":"San Diego","State":"CA","Zip":"92113"},{"Location":"TRANSIT AMERICA SERVICES","Address":"1601 Newton Ave","City":"San Diego","State":"CA","Zip":"92113"},{"Location":"USNS JOHN GLENN MLP 2","Address":"2798 Harbor Dr 15","City":"San Diego","State":"CA","Zip":"92113"},{"Location":"VALENCIA MARKET","Address":"5061 Churchward St","City":"San Diego","State":"CA","Zip":"92113"}]