[{"Location":"AGC MISSION TRAILS","Address":"7380 Golfcrest Pl","City":"San Diego","State":"CA","Zip":"92119"},{"Location":"ALEX CORONDONI DDS","Address":"7424 Jackson Dr 2","City":"San Diego","State":"CA","Zip":"92119"},{"Location":"BASIL THAI BASIL","Address":"8680 Navajo Rd 104","City":"San Diego","State":"CA","Zip":"92119"},{"Location":"DENTAL EXPRESSIONS","Address":"8505 Navajo Rd","City":"San Diego","State":"CA","Zip":"92119"},{"Location":"EAST SAN DIEGO MASONIC","Address":"7849 Tommy Dr","City":"San Diego","State":"CA","Zip":"92119"},{"Location":"ELKS LODGE 168","Address":"7430 Jackson Dr","City":"San Diego","State":"CA","Zip":"92119"},{"Location":"HONEST 1 AUTO CARE","Address":"7375 Jackson Dr C","City":"San Diego","State":"CA","Zip":"92119"},{"Location":"LA FITNESS #62","Address":"8876 Navajo Rd","City":"San Diego","State":"CA","Zip":"92119"},{"Location":"LOS PRIMOS MEXICAN REST.","Address":"7343 Jackson Dr","City":"San Diego","State":"CA","Zip":"92119"},{"Location":"MALDINI'S PIZZERIA","Address":"8734 Lake Murray Blvd","City":"San Diego","State":"CA","Zip":"92119"},{"Location":"MALDINIS PIZZERIA","Address":"8734 Lake Murray Blvd","City":"San Diego","State":"CA","Zip":"92119"},{"Location":"MCCARTERS BAR AND GRILL","Address":"8622 Lake Murray Blvd","City":"San Diego","State":"CA","Zip":"92119"},{"Location":"MOUNTAIN MIKES PIZZA","Address":"7377 Jackson Dr","City":"San Diego","State":"CA","Zip":"92119"},{"Location":"NAVAJO LIVE","Address":"8515 Navajo Rd","City":"San Diego","State":"CA","Zip":"92119"},{"Location":"NICOLOSIS ITALIAN RESTAURANT","Address":"7005 Navajo Rd","City":"San Diego","State":"CA","Zip":"92119"},{"Location":"POSTNET","Address":"6977 Navajo Rd","City":"San Diego","State":"CA","Zip":"92119"},{"Location":"SEI SUSHI","Address":"8862 Navajo Rd","City":"San Diego","State":"CA","Zip":"92119"},{"Location":"TRAILS EATERY","Address":"7389 Jackson Dr","City":"San Diego","State":"CA","Zip":"92119"},{"Location":"UFC GYM","Address":"7439 Jackson Dr","City":"San Diego","State":"CA","Zip":"92119"}]