[{"Location":"24 HOUR FITNESS #103","Address":"3675 Midway Dr","City":"San Diego","State":"CA","Zip":"92110"},{"Location":"ACOUSTIC ALES BREWING","Address":"2120 W Washington St","City":"San Diego","State":"CA","Zip":"92110"},{"Location":"BACI","Address":"1955 Morena Blvd","City":"San Diego","State":"CA","Zip":"92110"},{"Location":"BARNETT AVENUE ADULT SUPERSTOR","Address":"3610 Barnett Ave","City":"San Diego","State":"CA","Zip":"92110"},{"Location":"BAY PARK FISH COMPANY","Address":"4121 Ashton St","City":"San Diego","State":"CA","Zip":"92110"},{"Location":"BROKEN YOLK CAFE","Address":"3577 Midway Dr","City":"San Diego","State":"CA","Zip":"92110"},{"Location":"BROTHERS AUTO REPAIR","Address":"3467 Kurtz St","City":"San Diego","State":"CA","Zip":"92110"},{"Location":"BUFFALO WILD WINGS #0488","Address":"3615 Midway Dr","City":"San Diego","State":"CA","Zip":"92110"},{"Location":"BULLS SMOKIN BBQ","Address":"1127 W Morena Blvd","City":"San Diego","State":"CA","Zip":"92110"},{"Location":"CAFE COYOTE CANTINA","Address":"2461 San Diego Ave 200","City":"San Diego","State":"CA","Zip":"92110"},{"Location":"CALTRANS","Address":"4050 Taylor St","City":"San Diego","State":"CA","Zip":"92110"},{"Location":"CERTIFIED TIRE 36","Address":"3778 Rosecrans St","City":"San Diego","State":"CA","Zip":"92110"},{"Location":"CHANS WATERHOLE","Address":"2221 Morena Blvd","City":"San Diego","State":"CA","Zip":"92110"},{"Location":"CHILI'S #0952","Address":"3494 Sports Arena Blvd","City":"San Diego","State":"CA","Zip":"92110"},{"Location":"COLEMAN MOVING SYSTEMS I","Address":"3045 Rosecrans St 202","City":"San Diego","State":"CA","Zip":"92110"},{"Location":"CONTRACT BRIDGE FORUM","Address":"2254 Moore St 109","City":"San Diego","State":"CA","Zip":"92110"},{"Location":"CORONADO BREWING","Address":"1205 Knoxville St","City":"San Diego","State":"CA","Zip":"92110"},{"Location":"DAN DIEGOS","Address":"2415 Morena Blvd","City":"San Diego","State":"CA","Zip":"92110"},{"Location":"DEJA VU","Address":"2720 Midway Dr","City":"San Diego","State":"CA","Zip":"92110"},{"Location":"DESIS BAR AND GRILL","Address":"2734 Lytton St","City":"San Diego","State":"CA","Zip":"92110"},{"Location":"DICK'S SPORTING GOODS #1026","Address":"3265 Sports Arena Blvd","City":"San Diego","State":"CA","Zip":"92110"},{"Location":"EVENT MOTORING","Address":"4109 Sports Arena Blvd","City":"San Diego","State":"CA","Zip":"92110"},{"Location":"EXPRESS TIRE","Address":"3112 Midway Dr","City":"San Diego","State":"CA","Zip":"92110"},{"Location":"FEDEX RAMP LOCATION","Address":"2221 W Washington St","City":"San Diego","State":"CA","Zip":"92110"},{"Location":"FORMULA PR","Address":"1215 Cushman Ave","City":"San Diego","State":"CA","Zip":"92110"},{"Location":"FRANKS LOUNGE","Address":"5998 Alcala Park","City":"San Diego","State":"CA","Zip":"92110"},{"Location":"FRED'S MEXICAN CAFE","Address":"2470 San Diego Ave","City":"San Diego","State":"CA","Zip":"92110"},{"Location":"GENIE CAR WASH","Address":"3949 W Point Loma Blvd","City":"San Diego","State":"CA","Zip":"92110"},{"Location":"HABAU'S CAFFE","Address":"3111 Hancock St","City":"San Diego","State":"CA","Zip":"92110"},{"Location":"HAMMER LOCK CONSTRUCT CORP","Address":"1108 Morena Blvd","City":"San Diego","State":"CA","Zip":"92110"},{"Location":"HOME BREW MART","Address":"5401 Linda Vista Rd 406","City":"San Diego","State":"CA","Zip":"92110"},{"Location":"HOME N AWAY","Address":"2222 San Diego Ave","City":"San Diego","State":"CA","Zip":"92110"},{"Location":"J MORGENSTERN OFFICE","Address":"2785 Kurtz St 10","City":"San Diego","State":"CA","Zip":"92110"},{"Location":"JEROMES FURNITURE SD1","Address":"1190 W Morena Blvd","City":"San Diego","State":"CA","Zip":"92110"},{"Location":"JERSEY MIKE'S","Address":"3670 Rosecrans St","City":"San Diego","State":"CA","Zip":"92110"},{"Location":"JOHNATHAN SCOTT PROMOTIONS","Address":"3333 Midway Dr 202","City":"San Diego","State":"CA","Zip":"92110"},{"Location":"JVS MEXICAN FOOD","Address":"1112 Morena Blvd","City":"San Diego","State":"CA","Zip":"92110"},{"Location":"KIMIYA SUSHI","Address":"3555 Rosecrans #104","City":"San Diego","State":"CA","Zip":"92110"},{"Location":"KIWI CUSTOM DESIGN","Address":"1011 Buenos Ave A","City":"San Diego","State":"CA","Zip":"92110"},{"Location":"KRISTY'S MVP SPORTS BAR","Address":"3225 Midway Dr","City":"San Diego","State":"CA","Zip":"92110"},{"Location":"LITTLE ITALY PIZZARIA","Address":"4085 Pacific Hwy","City":"San Diego","State":"CA","Zip":"92110"},{"Location":"LIVING ROOM CAFE AND BISTRO","Address":"2541 San Diego Ave","City":"San Diego","State":"CA","Zip":"92110"},{"Location":"LOS LOCOS","Address":"2502 San Diego Ave","City":"San Diego","State":"CA","Zip":"92110"},{"Location":"LUCE BAR & KITCHEN","Address":"1959 Morena Blvd","City":"San Diego","State":"CA","Zip":"92110"},{"Location":"LUZAZUL INC. DBA TIO LEO","Address":"5302 Napa St","City":"San Diego","State":"CA","Zip":"92110"},{"Location":"MAINTENX","Address":"2775 Kurtz St","City":"San Diego","State":"CA","Zip":"92110"},{"Location":"MATADOR MEXICAN GRILL","Address":"5201 Linda Vista Rd B102","City":"San Diego","State":"CA","Zip":"92110"},{"Location":"MAX L PERLATTI AND ASSOCIATES","Address":"3750 Sports Arena Blvd 1","City":"San Diego","State":"CA","Zip":"92110"},{"Location":"MISSION VALLEY YMCA","Address":"5505 Friars Rd","City":"San Diego","State":"CA","Zip":"92110"},{"Location":"MO CLUB LLC","Address":"1319 Morena Blvd","City":"San Diego","State":"CA","Zip":"92110"},{"Location":"MOCERI FOOD & BEVERAGE INC","Address":"5235 Lovelock St","City":"San Diego","State":"CA","Zip":"92110"},{"Location":"O'HUNGRY'S","Address":"2547 San Diego Ave","City":"San Diego","State":"CA","Zip":"92110"},{"Location":"O'TOOLES","Address":"5998 Alcala Park","City":"San Diego","State":"CA","Zip":"92110"},{"Location":"OFF SHORE TAVERN","Address":"2253 Morena Blvd","City":"San Diego","State":"CA","Zip":"92110"},{"Location":"OLD TOWN EATERY","Address":"3941 Mason St","City":"San Diego","State":"CA","Zip":"92110"},{"Location":"OLD TOWN MEXICAN CAFE","Address":"2489 San Diego Ave","City":"San Diego","State":"CA","Zip":"92110"},{"Location":"OLD TOWN TEQUILA FACTORY","Address":"2467 Juan St","City":"San Diego","State":"CA","Zip":"92110"},{"Location":"OWNERGUARD","Address":"1785 Hancock St 100","City":"San Diego","State":"CA","Zip":"92110"},{"Location":"PACERS","Address":"3334 Midway Dr","City":"San Diego","State":"CA","Zip":"92110"},{"Location":"PARADISE GRILL","Address":"2732 Midway Dr","City":"San Diego","State":"CA","Zip":"92110"},{"Location":"PERRY GLANDING CORPORATI","Address":"3625 Midway Dr","City":"San Diego","State":"CA","Zip":"92110"},{"Location":"PHIL'S BBQ","Address":"3750 Sports Arena Blvd D11","City":"San Diego","State":"CA","Zip":"92110"},{"Location":"PHIL'S MEETING PLACE","Address":"3740 Sports Arena Blvd 10-12","City":"San Diego","State":"CA","Zip":"92110"},{"Location":"PHO POINT LOMA & GRILL","Address":"2788 Midway Dr","City":"San Diego","State":"CA","Zip":"92110"},{"Location":"POINT LOMA COVALESCENT HOSPITA","Address":"3202 Duke St","City":"San Diego","State":"CA","Zip":"92110"},{"Location":"POINT LOMA TENNIS CLUB","Address":"2650 Worden St","City":"San Diego","State":"CA","Zip":"92110"},{"Location":"PRO BUILD","Address":"3250 Sports Arena Blvd","City":"San Diego","State":"CA","Zip":"92110"},{"Location":"PROFESSIONAL MAINTANCE SYSTEM","Address":"4904 Naples Pl","City":"San Diego","State":"CA","Zip":"92110"},{"Location":"PROGRESSIVE RESULTS","Address":"1510 Marina Blvd  #a","City":"San Diego","State":"CA","Zip":"92110"},{"Location":"RED LOBSTER #0519","Address":"3780 Sports Arena Blvd","City":"San Diego","State":"CA","Zip":"92110"},{"Location":"RIVERIA LIQUOR HOUSE","Address":"4114 W Point Loma Blvd","City":"San Diego","State":"CA","Zip":"92110"},{"Location":"ROCKIN BAJA LOBSTER OT","Address":"3890 Twiggs St","City":"San Diego","State":"CA","Zip":"92110"},{"Location":"ROYAL GREEK KABOB","Address":"3145 Rosecrans Pl A","City":"San Diego","State":"CA","Zip":"92110"},{"Location":"SAN DIEGO COUNTY PSYCHIATRIC","Address":"3853 Rosecrans St","City":"San Diego","State":"CA","Zip":"92110"},{"Location":"SAN DIEGO OLD TOWN COURTYARD","Address":"2435 Jefferson St","City":"San Diego","State":"CA","Zip":"92110"},{"Location":"SARDINAS REST & BAR","Address":"1129 Morena Blvd","City":"San Diego","State":"CA","Zip":"92110"},{"Location":"SD AIRPORT PARKING COMPANY","Address":"2771 Kurtz St","City":"San Diego","State":"CA","Zip":"92110"},{"Location":"SDHS - SHERMAN","Address":"887 Sherman St","City":"San Diego","State":"CA","Zip":"92110"},{"Location":"SIDECAR","Address":"1310 Morena Blvd","City":"San Diego","State":"CA","Zip":"92110"},{"Location":"SOCIAL LOUNG","Address":"5255 Linda Vista Rd","City":"San Diego","State":"CA","Zip":"92110"},{"Location":"STEREO UNLIMITED","Address":"3191 Sports Arena Blvd C","City":"San Diego","State":"CA","Zip":"92110"},{"Location":"STIX HOLDINGS 745","Address":"3365 Rosecrans St 10d","City":"San Diego","State":"CA","Zip":"92110"},{"Location":"SW PIPELINE","Address":"5050 Somam Ave","City":"San Diego","State":"CA","Zip":"92110"},{"Location":"T-SHIRTS MART SPRT ARENA","Address":"3171 Sports Arena Blvd","City":"San Diego","State":"CA","Zip":"92110"},{"Location":"THE BODY SHOP","Address":"3776 Riley St","City":"San Diego","State":"CA","Zip":"92110"},{"Location":"THE BRICKYARD CAGES","Address":"5355 Grant St","City":"San Diego","State":"CA","Zip":"92110"},{"Location":"THE GOURMET BAGGER","Address":"3357 Rosecrans St","City":"San Diego","State":"CA","Zip":"92110"},{"Location":"THE HIGH DIVE","Address":"1801 Morena Blvd","City":"San Diego","State":"CA","Zip":"92110"},{"Location":"THE LIGHTHOUSE","Address":"3880 Rosecrans St","City":"San Diego","State":"CA","Zip":"92110"},{"Location":"THE PHO SHOP","Address":"3760 Sports Arena Blvd 3","City":"San Diego","State":"CA","Zip":"92110"},{"Location":"THE UNIVERSITY OF SAN DIEGO","Address":"1475 Cushman Ave","City":"San Diego","State":"CA","Zip":"92110"},{"Location":"TODD PIPE AND SUPPLY","Address":"1004 Cudahy Pl","City":"San Diego","State":"CA","Zip":"92110"},{"Location":"TRIPLE A AUTOBODY","Address":"1420 Morena Blvd B","City":"San Diego","State":"CA","Zip":"92110"},{"Location":"UC SAN DIEGO","Address":"1899 Mckee St 200","City":"San Diego","State":"CA","Zip":"92110"},{"Location":"UFG SPORTS ARENA","Address":"4030 Sports Arena Blvd","City":"San Diego","State":"CA","Zip":"92110"},{"Location":"UNIV OF SAN DIEGO ATHLETICS","Address":"5998 Alcala Park","City":"San Diego","State":"CA","Zip":"92110"},{"Location":"UNIVERSITY OF SAN DIEGO","Address":"5998 Alcala Park Uc205","City":"San Diego","State":"CA","Zip":"92110"},{"Location":"UNIVERSITY OF SAN DIEGO","Address":"5998 Alcala Park","City":"San Diego","State":"CA","Zip":"92110"},{"Location":"UNIVERSITY OF SAN DIEGO 2","Address":"5998 Alcala Park","City":"San Diego","State":"CA","Zip":"92110"},{"Location":"USCG RECRUITING OFFICE","Address":"3663 Midway Dr E","City":"San Diego","State":"CA","Zip":"92110"},{"Location":"USS WAYNE E MEYERS DDG-1","Address":"5665 Friars Rd 237","City":"San Diego","State":"CA","Zip":"92110"},{"Location":"VIETNAM VETERANS OF SAN DIEGO","Address":"2061 Kurtz St","City":"San Diego","State":"CA","Zip":"92110"},{"Location":"WAHOO'S FISH TACOS","Address":"3944 W Point Loma Blvd A","City":"San Diego","State":"CA","Zip":"92110"},{"Location":"WD-40 COMPANY","Address":"1061 Cudahy Pl","City":"San Diego","State":"CA","Zip":"92110"},{"Location":"WING STOP","Address":"3365 Rosecrans St B","City":"San Diego","State":"CA","Zip":"92110"},{"Location":"WINGS N THINGS SA","Address":"3194 Midway Dr","City":"San Diego","State":"CA","Zip":"92110"},{"Location":"YUMMY BUFFET","Address":"2855 Midway Dr","City":"San Diego","State":"CA","Zip":"92110"},{"Location":"24 HOUR FITNESS #103","Address":"3675 Midway Dr","City":"San Diego","State":"CA","Zip":"92110"},{"Location":"ACOUSTIC ALES BREWING","Address":"2120 W Washington St","City":"San Diego","State":"CA","Zip":"92110"},{"Location":"BACI","Address":"1955 Morena Blvd","City":"San Diego","State":"CA","Zip":"92110"},{"Location":"BARNETT AVENUE ADULT SUPERSTOR","Address":"3610 Barnett Ave","City":"San Diego","State":"CA","Zip":"92110"},{"Location":"BAY PARK FISH COMPANY","Address":"4121 Ashton St","City":"San Diego","State":"CA","Zip":"92110"},{"Location":"BROKEN YOLK CAFE","Address":"3577 Midway Dr","City":"San Diego","State":"CA","Zip":"92110"},{"Location":"BROTHERS AUTO REPAIR","Address":"3467 Kurtz St","City":"San Diego","State":"CA","Zip":"92110"},{"Location":"BUFFALO WILD WINGS #0488","Address":"3615 Midway Dr","City":"San Diego","State":"CA","Zip":"92110"},{"Location":"BULLS SMOKIN BBQ","Address":"1127 W Morena Blvd","City":"San Diego","State":"CA","Zip":"92110"},{"Location":"CAFE COYOTE CANTINA","Address":"2461 San Diego Ave 200","City":"San Diego","State":"CA","Zip":"92110"},{"Location":"CALTRANS","Address":"4050 Taylor St","City":"San Diego","State":"CA","Zip":"92110"},{"Location":"CERTIFIED TIRE 36","Address":"3778 Rosecrans St","City":"San Diego","State":"CA","Zip":"92110"},{"Location":"CHANS WATERHOLE","Address":"2221 Morena Blvd","City":"San Diego","State":"CA","Zip":"92110"},{"Location":"CHILI'S #0952","Address":"3494 Sports Arena Blvd","City":"San Diego","State":"CA","Zip":"92110"},{"Location":"COLEMAN MOVING SYSTEMS I","Address":"3045 Rosecrans St 202","City":"San Diego","State":"CA","Zip":"92110"},{"Location":"CONTRACT BRIDGE FORUM","Address":"2254 Moore St 109","City":"San Diego","State":"CA","Zip":"92110"},{"Location":"CORONADO BREWING","Address":"1205 Knoxville St","City":"San Diego","State":"CA","Zip":"92110"},{"Location":"DAN DIEGOS","Address":"2415 Morena Blvd","City":"San Diego","State":"CA","Zip":"92110"},{"Location":"DEJA VU","Address":"2720 Midway Dr","City":"San Diego","State":"CA","Zip":"92110"},{"Location":"DESIS BAR AND GRILL","Address":"2734 Lytton St","City":"San Diego","State":"CA","Zip":"92110"},{"Location":"DICK'S SPORTING GOODS #1026","Address":"3265 Sports Arena Blvd","City":"San Diego","State":"CA","Zip":"92110"},{"Location":"EVENT MOTORING","Address":"4109 Sports Arena Blvd","City":"San Diego","State":"CA","Zip":"92110"},{"Location":"EXPRESS TIRE","Address":"3112 Midway Dr","City":"San Diego","State":"CA","Zip":"92110"},{"Location":"FEDEX RAMP LOCATION","Address":"2221 W Washington St","City":"San Diego","State":"CA","Zip":"92110"},{"Location":"FORMULA PR","Address":"1215 Cushman Ave","City":"San Diego","State":"CA","Zip":"92110"},{"Location":"FRANKS LOUNGE","Address":"5998 Alcala Park","City":"San Diego","State":"CA","Zip":"92110"},{"Location":"FRED'S MEXICAN CAFE","Address":"2470 San Diego Ave","City":"San Diego","State":"CA","Zip":"92110"},{"Location":"GENIE CAR WASH","Address":"3949 W Point Loma Blvd","City":"San Diego","State":"CA","Zip":"92110"},{"Location":"HABAU'S CAFFE","Address":"3111 Hancock St","City":"San Diego","State":"CA","Zip":"92110"},{"Location":"HAMMER LOCK CONSTRUCT CORP","Address":"1108 Morena Blvd","City":"San Diego","State":"CA","Zip":"92110"},{"Location":"HOME BREW MART","Address":"5401 Linda Vista Rd 406","City":"San Diego","State":"CA","Zip":"92110"},{"Location":"HOME N AWAY","Address":"2222 San Diego Ave","City":"San Diego","State":"CA","Zip":"92110"},{"Location":"J MORGENSTERN OFFICE","Address":"2785 Kurtz St 10","City":"San Diego","State":"CA","Zip":"92110"},{"Location":"JEROMES FURNITURE SD1","Address":"1190 W Morena Blvd","City":"San Diego","State":"CA","Zip":"92110"},{"Location":"JERSEY MIKE'S","Address":"3670 Rosecrans St","City":"San Diego","State":"CA","Zip":"92110"},{"Location":"JOHNATHAN SCOTT PROMOTIONS","Address":"3333 Midway Dr 202","City":"San Diego","State":"CA","Zip":"92110"},{"Location":"JVS MEXICAN FOOD","Address":"1112 Morena Blvd","City":"San Diego","State":"CA","Zip":"92110"},{"Location":"Kimiya Sushi","Address":"3555 Rosecrans #104","City":"San Diego","State":"CA","Zip":"92110"},{"Location":"KIWI CUSTOM DESIGN","Address":"1011 Buenos Ave A","City":"San Diego","State":"CA","Zip":"92110"},{"Location":"KRISTY'S MVP SPORTS BAR","Address":"3225 Midway Dr","City":"San Diego","State":"CA","Zip":"92110"},{"Location":"LITTLE ITALY PIZZARIA","Address":"4085 Pacific Hwy","City":"San Diego","State":"CA","Zip":"92110"},{"Location":"LIVING ROOM CAFE AND BISTRO","Address":"2541 San Diego Ave","City":"San Diego","State":"CA","Zip":"92110"},{"Location":"LOS LOCOS","Address":"2502 San Diego Ave","City":"San Diego","State":"CA","Zip":"92110"},{"Location":"LUCE BAR & KITCHEN","Address":"1959 Morena Blvd","City":"San Diego","State":"CA","Zip":"92110"},{"Location":"LUZAZUL INC. DBA TIO LEO","Address":"5302 Napa St","City":"San Diego","State":"CA","Zip":"92110"},{"Location":"MAINTENX","Address":"2775 Kurtz St","City":"San Diego","State":"CA","Zip":"92110"},{"Location":"MATADOR MEXICAN GRILL","Address":"5201 Linda Vista Rd B102","City":"San Diego","State":"CA","Zip":"92110"},{"Location":"MAX L PERLATTI AND ASSOCIATES","Address":"3750 Sports Arena Blvd 1","City":"San Diego","State":"CA","Zip":"92110"},{"Location":"MISSION VALLEY YMCA","Address":"5505 Friars Rd","City":"San Diego","State":"CA","Zip":"92110"},{"Location":"MO CLUB LLC","Address":"1319 Morena Blvd","City":"San Diego","State":"CA","Zip":"92110"},{"Location":"MOCERI FOOD & BEVERAGE INC","Address":"5235 Lovelock St","City":"San Diego","State":"CA","Zip":"92110"},{"Location":"O'HUNGRY'S","Address":"2547 San Diego Ave","City":"San Diego","State":"CA","Zip":"92110"},{"Location":"O'TOOLES","Address":"5998 Alcala Park","City":"San Diego","State":"CA","Zip":"92110"},{"Location":"OFF SHORE TAVERN","Address":"2253 Morena Blvd","City":"San Diego","State":"CA","Zip":"92110"},{"Location":"OLD TOWN EATERY","Address":"3941 Mason St","City":"San Diego","State":"CA","Zip":"92110"},{"Location":"OLD TOWN MEXICAN CAFE","Address":"2489 San Diego Ave","City":"San Diego","State":"CA","Zip":"92110"},{"Location":"OLD TOWN TEQUILA FACTORY","Address":"2467 Juan St","City":"San Diego","State":"CA","Zip":"92110"},{"Location":"OWNERGUARD","Address":"1785 Hancock St 100","City":"San Diego","State":"CA","Zip":"92110"},{"Location":"PACERS","Address":"3334 Midway Dr","City":"San Diego","State":"CA","Zip":"92110"},{"Location":"PARADISE GRILL","Address":"2732 Midway Dr","City":"San Diego","State":"CA","Zip":"92110"},{"Location":"PERRY GLANDING CORPORATI","Address":"3625 Midway Dr","City":"San Diego","State":"CA","Zip":"92110"},{"Location":"PHIL'S BBQ","Address":"3750 Sports Arena Blvd D11","City":"San Diego","State":"CA","Zip":"92110"},{"Location":"PHIL'S MEETING PLACE","Address":"3740 Sports Arena Blvd 10-12","City":"San Diego","State":"CA","Zip":"92110"},{"Location":"PHO POINT LOMA & GRILL","Address":"2788 Midway Dr","City":"San Diego","State":"CA","Zip":"92110"},{"Location":"POINT LOMA COVALESCENT HOSPITA","Address":"3202 Duke St","City":"San Diego","State":"CA","Zip":"92110"},{"Location":"POINT LOMA TENNIS CLUB","Address":"2650 Worden St","City":"San Diego","State":"CA","Zip":"92110"},{"Location":"PRO BUILD","Address":"3250 Sports Arena Blvd","City":"San Diego","State":"CA","Zip":"92110"},{"Location":"PROFESSIONAL MAINTANCE SYSTEM","Address":"4904 Naples Pl","City":"San Diego","State":"CA","Zip":"92110"},{"Location":"PROGRESSIVE RESULTS","Address":"1510 Marina Blvd  #a","City":"San Diego","State":"CA","Zip":"92110"},{"Location":"RED LOBSTER #0519","Address":"3780 Sports Arena Blvd","City":"San Diego","State":"CA","Zip":"92110"},{"Location":"RIVERIA LIQUOR HOUSE","Address":"4114 W Point Loma Blvd","City":"San Diego","State":"CA","Zip":"92110"},{"Location":"ROCKIN BAJA LOBSTER OT","Address":"3890 Twiggs St","City":"San Diego","State":"CA","Zip":"92110"},{"Location":"ROYAL GREEK KABOB","Address":"3145 Rosecrans Pl A","City":"San Diego","State":"CA","Zip":"92110"},{"Location":"SAN DIEGO COUNTY PSYCHIATRIC","Address":"3853 Rosecrans St","City":"San Diego","State":"CA","Zip":"92110"},{"Location":"SAN DIEGO OLD TOWN COURTYARD","Address":"2435 Jefferson St","City":"San Diego","State":"CA","Zip":"92110"},{"Location":"SARDINAS REST & BAR","Address":"1129 Morena Blvd","City":"San Diego","State":"CA","Zip":"92110"},{"Location":"SD AIRPORT PARKING COMPANY","Address":"2771 Kurtz St","City":"San Diego","State":"CA","Zip":"92110"},{"Location":"SDHS - SHERMAN","Address":"887 Sherman St","City":"San Diego","State":"CA","Zip":"92110"},{"Location":"SIDECAR","Address":"1310 Morena Blvd","City":"San Diego","State":"CA","Zip":"92110"},{"Location":"SOCIAL LOUNG","Address":"5255 Linda Vista Rd","City":"San Diego","State":"CA","Zip":"92110"},{"Location":"STIX HOLDINGS 745","Address":"3365 Rosecrans St 10d","City":"San Diego","State":"CA","Zip":"92110"},{"Location":"SW PIPELINE","Address":"5050 Somam Ave","City":"San Diego","State":"CA","Zip":"92110"},{"Location":"T-SHIRTS MART SPRT ARENA","Address":"3171 Sports Arena Blvd","City":"San Diego","State":"CA","Zip":"92110"},{"Location":"THE BODY SHOP","Address":"3776 Riley St","City":"San Diego","State":"CA","Zip":"92110"},{"Location":"THE BRICKYARD CAGES","Address":"5355 Grant St","City":"San Diego","State":"CA","Zip":"92110"},{"Location":"THE GOURMET BAGGER","Address":"3357 Rosecrans St","City":"San Diego","State":"CA","Zip":"92110"},{"Location":"THE HIGH DIVE","Address":"1801 Morena Blvd","City":"San Diego","State":"CA","Zip":"92110"},{"Location":"THE LIGHTHOUSE","Address":"3880 Rosecrans St","City":"San Diego","State":"CA","Zip":"92110"},{"Location":"THE PHO SHOP","Address":"3760 Sports Arena Blvd 3","City":"San Diego","State":"CA","Zip":"92110"},{"Location":"THE UNIVERSITY OF SAN DIEGO","Address":"1475 Cushman Ave","City":"San Diego","State":"CA","Zip":"92110"},{"Location":"TODD PIPE AND SUPPLY","Address":"1004 Cudahy Pl","City":"San Diego","State":"CA","Zip":"92110"},{"Location":"TRIPLE A AUTOBODY","Address":"1420 Morena Blvd B","City":"San Diego","State":"CA","Zip":"92110"},{"Location":"UC SAN DIEGO","Address":"1899 Mckee St 200","City":"San Diego","State":"CA","Zip":"92110"},{"Location":"UFG SPORTS ARENA","Address":"4030 Sports Arena Blvd","City":"San Diego","State":"CA","Zip":"92110"},{"Location":"UNIV OF SAN DIEGO ATHLETICS","Address":"5998 Alcala Park","City":"San Diego","State":"CA","Zip":"92110"},{"Location":"UNIVERSITY OF SAN DIEGO","Address":"5998 Alcala Park","City":"San Diego","State":"CA","Zip":"92110"},{"Location":"UNIVERSITY OF SAN DIEGO","Address":"5998 Alcala Park Uc205","City":"San Diego","State":"CA","Zip":"92110"},{"Location":"UNIVERSITY OF SAN DIEGO 2","Address":"5998 Alcala Park","City":"San Diego","State":"CA","Zip":"92110"},{"Location":"USCG RECRUITING OFFICE","Address":"3663 Midway Dr E","City":"San Diego","State":"CA","Zip":"92110"},{"Location":"USS WAYNE E MEYERS DDG-1","Address":"5665 Friars Rd 237","City":"San Diego","State":"CA","Zip":"92110"},{"Location":"VIETNAM VETERANS OF SAN DIEGO","Address":"2061 Kurtz St","City":"San Diego","State":"CA","Zip":"92110"},{"Location":"WAHOO'S FISH TACOS","Address":"3944 W Point Loma Blvd A","City":"San Diego","State":"CA","Zip":"92110"},{"Location":"WD-40 COMPANY","Address":"1061 Cudahy Pl","City":"San Diego","State":"CA","Zip":"92110"},{"Location":"WING STOP","Address":"3365 Rosecrans St B","City":"San Diego","State":"CA","Zip":"92110"},{"Location":"WINGS N THINGS SA","Address":"3194 Midway Dr","City":"San Diego","State":"CA","Zip":"92110"},{"Location":"YUMMY BUFFET","Address":"2855 Midway Dr","City":"San Diego","State":"CA","Zip":"92110"}]