[{"Location":"102 CAFE","Address":"5416 El Cajon Blvd","City":"San Diego","State":"CA","Zip":"92115"},{"Location":"24 HOUR FITNESS #057","Address":"6348 College Grove Way","City":"San Diego","State":"CA","Zip":"92115"},{"Location":"ALLSTAR BARBER AND BEAUTY","Address":"5476 El Cajon Blvd","City":"San Diego","State":"CA","Zip":"92115"},{"Location":"AMERICAN TIRE AND BRAKE","Address":"4501 El Cajon Blvd","City":"San Diego","State":"CA","Zip":"92115"},{"Location":"BANGKOK POCO RESTAURANT","Address":"5157 College Ave A","City":"San Diego","State":"CA","Zip":"92115"},{"Location":"BLUE PLANET LAUNDRY","Address":"6145 El Cajon Blvd","City":"San Diego","State":"CA","Zip":"92115"},{"Location":"BLVD","Address":"6949 El Cajon Blvd","City":"San Diego","State":"CA","Zip":"92115"},{"Location":"BOND","Address":"7215 El Cajon Blvd","City":"San Diego","State":"CA","Zip":"92115"},{"Location":"BRIDGES","Address":"6390 El Cajon Blvd","City":"San Diego","State":"CA","Zip":"92115"},{"Location":"C C'S PIZZA","Address":"5801 University Ave B2","City":"San Diego","State":"CA","Zip":"92115"},{"Location":"CAFE BIEN","Address":"5389 El Cajon Blvd","City":"San Diego","State":"CA","Zip":"92115"},{"Location":"CHELTOS RESTAURANT","Address":"7149 El Cajon Blvd","City":"San Diego","State":"CA","Zip":"92115"},{"Location":"COLLEGE BILLIARD AND CAFE","Address":"5303 El Cajon Blvd","City":"San Diego","State":"CA","Zip":"92115"},{"Location":"COMTAM 75 INC","Address":"5420 El Cajon Blvd","City":"San Diego","State":"CA","Zip":"92115"},{"Location":"CROWN COFFEE AND HOOKAH","Address":"7059 El Cajon Blvd","City":"San Diego","State":"CA","Zip":"92115"},{"Location":"CRYSTAL NAILS","Address":"5961 University Ave 313","City":"San Diego","State":"CA","Zip":"92115"},{"Location":"DAVITA #1409 SAN DIEGO","Address":"6402 El Cajon Blvd 100","City":"San Diego","State":"CA","Zip":"92115"},{"Location":"EFFINS PUB","Address":"6164 El Cajon Blvd","City":"San Diego","State":"CA","Zip":"92115"},{"Location":"GO LOUNGE","Address":"7123 El Cajon Blvd","City":"San Diego","State":"CA","Zip":"92115"},{"Location":"GRANADA ON HARDY","Address":"5525 Hardy Ave 409","City":"San Diego","State":"CA","Zip":"92115"},{"Location":"GRANADA ON HARDY 2","Address":"5525 Hardy Ave","City":"San Diego","State":"CA","Zip":"92115"},{"Location":"HABIBIS CAFE AND HOOKAH LOUNGE","Address":"6512 El Cajon Blvd G","City":"San Diego","State":"CA","Zip":"92115"},{"Location":"HAWAIIAN BBQ","Address":"6083 El Cajon Blvd","City":"San Diego","State":"CA","Zip":"92115"},{"Location":"HOAMY","Address":"4644 El Cajon Blvd","City":"San Diego","State":"CA","Zip":"92115"},{"Location":"ISLAND AUTO BUYING SERVICE INC","Address":"7304 El Cajon Blvd","City":"San Diego","State":"CA","Zip":"92115"},{"Location":"JABTAB 1 LLC","Address":"6512 El Cajon Blvd K","City":"San Diego","State":"CA","Zip":"92115"},{"Location":"JERSEY MIKES","Address":"6083 El Cajon Blvd A","City":"San Diego","State":"CA","Zip":"92115"},{"Location":"KOHL'S #1359","Address":"3450 College Ave","City":"San Diego","State":"CA","Zip":"92115"},{"Location":"LA INSURANCE AGENCY","Address":"6074c El Cajon Blvd","City":"San Diego","State":"CA","Zip":"92115"},{"Location":"LAST CALL","Address":"4977 El Cajon Blvd","City":"San Diego","State":"CA","Zip":"92115"},{"Location":"LUCKY LADY SPORTS BAR","Address":"5522 El Cajon Blvd","City":"San Diego","State":"CA","Zip":"92115"},{"Location":"LYNDA BEAUTY SALON","Address":"6435 El Cajon Blvd","City":"San Diego","State":"CA","Zip":"92115"},{"Location":"MAXIMS SEAFOOD REST.","Address":"4616 El Cason Blvd 1","City":"San Diego","State":"CA","Zip":"92115"},{"Location":"MESKEREM ETHOPIAN AND ER","Address":"4979 El Cajon Blvd","City":"San Diego","State":"CA","Zip":"92115"},{"Location":"MILOS","Address":"6686 El Cajon Blvd D","City":"San Diego","State":"CA","Zip":"92115"},{"Location":"NHATRANG RESTURANT","Address":"4419 Euclid Ave 101","City":"San Diego","State":"CA","Zip":"92115"},{"Location":"NHU Y RESTAURANT","Address":"4712 El Cajon Blvd A","City":"San Diego","State":"CA","Zip":"92115"},{"Location":"NORTHEAST FAMILY RESOURCE","Address":"5001 73rd St","City":"San Diego","State":"CA","Zip":"92115"},{"Location":"ORIENTAL CHI SPA","Address":"6786 University Ave","City":"San Diego","State":"CA","Zip":"92115"},{"Location":"PAPA ALEX PSYCHIC","Address":"6957 El Cajor Blvd 106","City":"San Diego","State":"CA","Zip":"92115"},{"Location":"PHO CA DAO RESTAURANT","Address":"5223 El Cajon Blvd","City":"San Diego","State":"CA","Zip":"92115"},{"Location":"PLATT COLLEGE SAN DIEGO","Address":"6250 El Cajon Blvd","City":"San Diego","State":"CA","Zip":"92115"},{"Location":"PURE HOOKAH LOUNGE","Address":"5953 El Cajon Blvd","City":"San Diego","State":"CA","Zip":"92115"},{"Location":"RB SUSHI","Address":"5943 El Cajon Blvd","City":"San Diego","State":"CA","Zip":"92115"},{"Location":"SALA THAI","Address":"6161 El Cajon Blvd A","City":"San Diego","State":"CA","Zip":"92115"},{"Location":"SAM'S BARBERSHOP","Address":"5871 University Ave 332","City":"San Diego","State":"CA","Zip":"92115"},{"Location":"SAN DIEGO K CUTZ BARBER SHOP","Address":"6461 University Ave","City":"San Diego","State":"CA","Zip":"92115"},{"Location":"SANTANA MEXICAN FOOD","Address":"5330 El Cajon Blvd","City":"San Diego","State":"CA","Zip":"92115"},{"Location":"SOCIAL LIFE PIZZA","Address":"6011 El Cajon Blvd A","City":"San Diego","State":"CA","Zip":"92115"},{"Location":"STYLES UNLIMITED","Address":"6231 University Ave","City":"San Diego","State":"CA","Zip":"92115"},{"Location":"TARGET","Address":"3424 College Ave","City":"San Diego","State":"CA","Zip":"92115"},{"Location":"TERRA AMERICA BISTRO INC","Address":"7091 El Cajon Blvd","City":"San Diego","State":"CA","Zip":"92115"},{"Location":"THE HUNS OF SOUTH WEST","Address":"4159 Cartagena Dr","City":"San Diego","State":"CA","Zip":"92115"},{"Location":"THE VIOLATORS MC","Address":"4156 Cartagena Dr","City":"San Diego","State":"CA","Zip":"92115"},{"Location":"THEODRE OFFICE","Address":"5875 El Cajon Blvd 102","City":"San Diego","State":"CA","Zip":"92115"},{"Location":"TOKYO SUSHI","Address":"6502 El Cajon Blvd","City":"San Diego","State":"CA","Zip":"92115"},{"Location":"TOP TEN RENTALS","Address":"6165 El Cajon Blvd A","City":"San Diego","State":"CA","Zip":"92115"},{"Location":"TRUJILLOS TACO SHOP ONE","Address":"6450 El Cajon Blvd","City":"San Diego","State":"CA","Zip":"92115"},{"Location":"TRUJILLOS TACO SHOP TWO","Address":"5119 College Ave","City":"San Diego","State":"CA","Zip":"92115"},{"Location":"UGLY DOG","Address":"6344 El Cajon Blvd","City":"San Diego","State":"CA","Zip":"92115"},{"Location":"USNS SIOUX (T-ATF 171)","Address":"5531 Dorothy Dr","City":"San Diego","State":"CA","Zip":"92115"},{"Location":"VESUVIOS PIZZERIA","Address":"6663 El Cajon Blvd G","City":"San Diego","State":"CA","Zip":"92115"},{"Location":"VPOP BIDA","Address":"4904 El Cajon Blvd","City":"San Diego","State":"CA","Zip":"92115"},{"Location":"WIE SPA","Address":"6244 El Cajon Blvd 30","City":"San Diego","State":"CA","Zip":"92115"},{"Location":"WINGS N THINGS COLLEGE","Address":"6715 El Cajon Blvd","City":"San Diego","State":"CA","Zip":"92115"},{"Location":"WOODSTOCK'S PIZZA","Address":"6145 El Cajon Blvd 3p","City":"San Diego","State":"CA","Zip":"92115"},{"Location":"ZEN COFFEE & DELI","Address":"5231 El Cajon Blvd","City":"San Diego","State":"CA","Zip":"92115"},{"Location":"ZODIAK HOOKAH LOUNGE","Address":"6455 El Cajon Blvd","City":"San Diego","State":"CA","Zip":"92115"}]