[{"Location":"24 HOUR FITNESS #888","Address":"4425 La Jolla Village Dr","City":"San Diego","State":"CA","Zip":"92122"},{"Location":"5484 RENAISSANCE","Address":"5484 Renaissance Ave","City":"San Diego","State":"CA","Zip":"92122"},{"Location":"AHI SUSHI","Address":"3949 Governor Dr","City":"San Diego","State":"CA","Zip":"92122"},{"Location":"CAFE JAPENGO","Address":"3777 La Jolla Village Dr","City":"San Diego","State":"CA","Zip":"92122"},{"Location":"CERTIFIED TIRE","Address":"4335 La Jolla Village Dr","City":"San Diego","State":"CA","Zip":"92122"},{"Location":"CHAPARRAL LAND COMPANY","Address":"5075 Shoreham Pl 240","City":"San Diego","State":"CA","Zip":"92122"},{"Location":"COZYMEL'S #0034","Address":"4303 La Jolla Village Dr","City":"San Diego","State":"CA","Zip":"92122"},{"Location":"CRAGE TOKYO SUSHI","Address":"4305 La Jolla Village Dr","City":"San Diego","State":"CA","Zip":"92122"},{"Location":"DONOVANS STEAK & CHOP HO","Address":"4340 La Jolla Village Dr","City":"San Diego","State":"CA","Zip":"92122"},{"Location":"DPR CONSTRUCTION","Address":"5010 Shoreham Pl","City":"San Diego","State":"CA","Zip":"92122"},{"Location":"EDO SUSHI UTC","Address":"8895 Towne Centre Dr 100a","City":"San Diego","State":"CA","Zip":"92122"},{"Location":"EMBASSY LA JOLLA","Address":"4550 La Jolla Village Dr","City":"San Diego","State":"CA","Zip":"92122"},{"Location":"EUREKA BURGER","Address":"4353 La Jolla Village Dr H35","City":"San Diego","State":"CA","Zip":"92122"},{"Location":"FINANCIAL DESIGNS%2C LTD.","Address":"5075 Shoreham Pl 200","City":"San Diego","State":"CA","Zip":"92122"},{"Location":"FLEMING'S #1502","Address":"8970 University Center Ln","City":"San Diego","State":"CA","Zip":"92122"},{"Location":"ILLUMINA FITNESS CENTER","Address":"5200 Illumina Way Bld 5","City":"San Diego","State":"CA","Zip":"92122"},{"Location":"JK BURGERS","Address":"8935 Towne Centre Dr 109","City":"San Diego","State":"CA","Zip":"92122"},{"Location":"LA JOLLA ICE TOWN INC","Address":"4545 La Jolla Drive","City":"San Diego","State":"CA","Zip":"92122"},{"Location":"LA JOLLA STRIP CLUB","Address":"4282 Esplanade Ct","City":"San Diego","State":"CA","Zip":"92122"},{"Location":"LOS PRIMOS MEXICAN REST.","Address":"7770 Regents Rd","City":"San Diego","State":"CA","Zip":"92122"},{"Location":"MACY'S WEST 547","Address":"4333 La Jolla Village Dr","City":"San Diego","State":"CA","Zip":"92122"},{"Location":"MACY'S WEST 547 BR","Address":"4333 La Jolla Village Dr","City":"San Diego","State":"CA","Zip":"92122"},{"Location":"MATSUGAWA SUSHI","Address":"3324 Governor Dr","City":"San Diego","State":"CA","Zip":"92122"},{"Location":"MCDONALDS 11181","Address":"4260 Nobel Dr","City":"San Diego","State":"CA","Zip":"92122"},{"Location":"MEN'S WEARHOUSE #2305","Address":"8650 Genesee Ave 224","City":"San Diego","State":"CA","Zip":"92122"},{"Location":"MICHEALS LOUNGE","Address":"3777 La Jolla Village Dr","City":"San Diego","State":"CA","Zip":"92122"},{"Location":"NORDSTROM%2FLA JOLLA","Address":"4321 La Jolla Village Dr","City":"San Diego","State":"CA","Zip":"92122"},{"Location":"PARTNERS URGENT CARE UTC","Address":"4085 Governor Dr","City":"San Diego","State":"CA","Zip":"92122"},{"Location":"PF CHANG'S #1300","Address":"4540 La Jolla Village Dr","City":"San Diego","State":"CA","Zip":"92122"},{"Location":"PHO UTC & GRILL","Address":"8915 Towne Centre Dr 100","City":"San Diego","State":"CA","Zip":"92122"},{"Location":"PIRCH INC","Address":"4545 La Jolla Village Dr","City":"San Diego","State":"CA","Zip":"92122"},{"Location":"RED ROBIN #34","Address":"4545 Lajolla Village Drive G12","City":"San Diego","State":"CA","Zip":"92122"},{"Location":"REMO PARTNERS LLC","Address":"4553 La Jolla Village Dr H30","City":"San Diego","State":"CA","Zip":"92122"},{"Location":"RETAIL OPPORTUNITY INVES","Address":"8905 Towne Centre Dr 108","City":"San Diego","State":"CA","Zip":"92122"},{"Location":"RETIREMENT BENEFITS GROU","Address":"6165 Greenwich Dr 240","City":"San Diego","State":"CA","Zip":"92122"},{"Location":"ROUND TABLE PIZZA","Address":"3250 Governor Dr","City":"San Diego","State":"CA","Zip":"92122"},{"Location":"ROY'S #2502","Address":"8670 Genesee Ave","City":"San Diego","State":"CA","Zip":"92122"},{"Location":"SAMMYS WOODFIRED PIZZA","Address":"3650 Genesee Ave","City":"San Diego","State":"CA","Zip":"92122"},{"Location":"SEASONS 52 #4529","Address":"4505 La Jolla Village Dr C-1","City":"San Diego","State":"CA","Zip":"92122"},{"Location":"SPRINGS AT PACIFIC REGENT","Address":"3884 Nobel Dr","City":"San Diego","State":"CA","Zip":"92122"},{"Location":"ST TROPEZ BISTRO","Address":"8935 Towne Centre Dr 110","City":"San Diego","State":"CA","Zip":"92122"},{"Location":"STAY FIT HEALTH CLUB","Address":"3777 La Jolla Village Dr","City":"San Diego","State":"CA","Zip":"92122"},{"Location":"STELLA ITALIAN FARE","Address":"8935 Towne Centre Dr 113","City":"San Diego","State":"CA","Zip":"92122"},{"Location":"SUBARASHI","Address":"7728 Regents Rd 501","City":"San Diego","State":"CA","Zip":"92122"},{"Location":"TAPIOCA EXPRESS","Address":"7770 Regents Rd 101","City":"San Diego","State":"CA","Zip":"92122"},{"Location":"THE BITE OF BOSTON","Address":"3202 Governor Dr 112","City":"San Diego","State":"CA","Zip":"92122"},{"Location":"THE BOXING CLUB","Address":"8650 Genesee Ave 206","City":"San Diego","State":"CA","Zip":"92122"}]