[{"Location":"94TH AERO SQUADRON","Address":"8885 Balboa Ave","City":"San Diego","State":"CA","Zip":"92123"},{"Location":"ABBEYS BBQ","Address":"9353 Clairemont Mesa Blvd","City":"San Diego","State":"CA","Zip":"92123"},{"Location":"AERO AUTO REPAIR","Address":"9756 Aero Dr","City":"San Diego","State":"CA","Zip":"92123"},{"Location":"AHERN INSURANCE","Address":"9655 Granite Ridge Dr 500","City":"San Diego","State":"CA","Zip":"92123"},{"Location":"AIR METHOD CORPORATION","Address":"3753 John J Montgomery Dr 31b","City":"San Diego","State":"CA","Zip":"92123"},{"Location":"AMBULATORY CARE","Address":"5225 Kearny Villa Way","City":"San Diego","State":"CA","Zip":"92123"},{"Location":"AMERICA RED CROSS","Address":"4229 Ponderosa Ave C","City":"San Diego","State":"CA","Zip":"92123"},{"Location":"AMERICAN COUNCIL ON EXERCISE","Address":"4851 Paramount Dr","City":"San Diego","State":"CA","Zip":"92123"},{"Location":"AMERICAN RED CROSS","Address":"3950 Calle Fortunada","City":"San Diego","State":"CA","Zip":"92123"},{"Location":"ANDERSON AUDIO VISUAL","Address":"5735 Kearny Villa Rd 114","City":"San Diego","State":"CA","Zip":"92123"},{"Location":"ANDTECH CORP SD","Address":"5250 Murphy Canyon Rd","City":"San Diego","State":"CA","Zip":"92123"},{"Location":"ANTI DEFMANTION LEAGUE","Address":"4950 Murphy Canyon Rd 250","City":"San Diego","State":"CA","Zip":"92123"},{"Location":"ARDEN REALTY INC","Address":"9444 Balboa Ave 145","City":"San Diego","State":"CA","Zip":"92123"},{"Location":"ART OF 8 LLC","Address":"8623 Spectrum Center Blvd","City":"San Diego","State":"CA","Zip":"92123"},{"Location":"ASSET RECOV. SPECIALISTS","Address":"9707 Aero Dr","City":"San Diego","State":"CA","Zip":"92123"},{"Location":"AVID CENTER","Address":"9246 Lightwave Ave 200","City":"San Diego","State":"CA","Zip":"92123"},{"Location":"BERGER AIRES CORP","Address":"8008 Frost St 300","City":"San Diego","State":"CA","Zip":"92123"},{"Location":"BOLL WEEVIL RESTAURANT #21","Address":"9330 Clairemont Mesa Blvd E","City":"San Diego","State":"CA","Zip":"92123"},{"Location":"BRAKE STOP AND AUTO REPAIR","Address":"9726 Aero Dr","City":"San Diego","State":"CA","Zip":"92123"},{"Location":"BRDSTONE CORSAIR FIT CTR","Address":"8583 Aero Dr","City":"San Diego","State":"CA","Zip":"92123"},{"Location":"BROADCASTING","Address":"4575 Viewridge Ave 2","City":"San Diego","State":"CA","Zip":"92123"},{"Location":"BUREAU OF ALCOHOL TOBACCO FIRE","Address":"9449 Balboa Ave 200","City":"San Diego","State":"CA","Zip":"92123"},{"Location":"CABRILLO DENTAL GROUP","Address":"7695 Cardinal Ct 300","City":"San Diego","State":"CA","Zip":"92123"},{"Location":"CALIFORNIA BURRITOS","Address":"7754 Starling Dr","City":"San Diego","State":"CA","Zip":"92123"},{"Location":"CALIFORNIA HWY PATROL","Address":"9330 Farnham St","City":"San Diego","State":"CA","Zip":"92123"},{"Location":"CAMP MOUNTAIN CHAI","Address":"4950 Murphy Canyon Rd","City":"San Diego","State":"CA","Zip":"92123"},{"Location":"CARINET INC","Address":"8929 Complex Dr","City":"San Diego","State":"CA","Zip":"92123"},{"Location":"CASK LLC","Address":"9350 Waxie Way 210","City":"San Diego","State":"CA","Zip":"92123"},{"Location":"CED GREENTECH SD","Address":"5445 Ruffin Rd","City":"San Diego","State":"CA","Zip":"92123"},{"Location":"CHANNEL ONE","Address":"3232 Greyling Dr","City":"San Diego","State":"CA","Zip":"92123"},{"Location":"CHARGERS FOOTBALL CAMP LLC","Address":"4020 Murphy Canyon Rd","City":"San Diego","State":"CA","Zip":"92123"},{"Location":"CLAIREMONT HEALTHCARE","Address":"8060 Frost St","City":"San Diego","State":"CA","Zip":"92123"},{"Location":"CLAIREMONT VILLA  ADULT DAY","Address":"5150 Murphy Canyon Rd","City":"San Diego","State":"CA","Zip":"92123"},{"Location":"CLEAR CHANNEL","Address":"9660 Granite Ridge Dr","City":"San Diego","State":"CA","Zip":"92123"},{"Location":"CLIENT BENEFIT INSURANCE","Address":"5675 Ruffin Rd 150","City":"San Diego","State":"CA","Zip":"92123"},{"Location":"COAST GUARD INVESTIGATIVE SER","Address":"9665 Chesapeake Dr 350","City":"San Diego","State":"CA","Zip":"92123"},{"Location":"COAST SURGERY CENTER","Address":"3444 Kearny Villa Rd 100","City":"San Diego","State":"CA","Zip":"92123"},{"Location":"COLEMAN UNIVERSITY","Address":"8888 Balboa Ave","City":"San Diego","State":"CA","Zip":"92123"},{"Location":"COLOR NAIL AND SPA","Address":"3464 Murphy Canyon Rd","City":"San Diego","State":"CA","Zip":"92123"},{"Location":"COMPLEX DRIVE LLC","Address":"8949 Complex Dr","City":"San Diego","State":"CA","Zip":"92123"},{"Location":"CONCEP SALON","Address":"9353 Clairemont Mesa Blvd","City":"San Diego","State":"CA","Zip":"92123"},{"Location":"CONSOLIDATED ELEC","Address":"5457 Ruffin Rd","City":"San Diego","State":"CA","Zip":"92123"},{"Location":"COTIXAN","Address":"3250 Greyling Dr","City":"San Diego","State":"CA","Zip":"92123"},{"Location":"COUNTY OF SAN DIEGO DA","Address":"9444 Balboa Ave 200","City":"San Diego","State":"CA","Zip":"92123"},{"Location":"COURTYARD MARRIOTT-KEARNY MESA","Address":"8651 Spectrum Center Blvd","City":"San Diego","State":"CA","Zip":"92123"},{"Location":"CROWNAIR AVIATION","Address":"3753 John J Montgomery Dr","City":"San Diego","State":"CA","Zip":"92123"},{"Location":"CRUNCH FITNESS SERRA MES","Address":"3270 Greyling Dr","City":"San Diego","State":"CA","Zip":"92123"},{"Location":"CSA TRAVEL PROTECTION","Address":"4181 Ruffin Rd 150","City":"San Diego","State":"CA","Zip":"92123"},{"Location":"CUBIC CORPORATION","Address":"9333 Balboa Ave","City":"San Diego","State":"CA","Zip":"92123"},{"Location":"DR. BERGER","Address":"808 Frost St 311","City":"San Diego","State":"CA","Zip":"92123"},{"Location":"DRUCKER SUBWAY DT INC","Address":"5375 Kearny Villa Rd","City":"San Diego","State":"CA","Zip":"92123"},{"Location":"DRUG ENFORCEMENT ADMIN.","Address":"4560 Viewridge Ave","City":"San Diego","State":"CA","Zip":"92123"},{"Location":"ECP COMMERCIAL","Address":"4455 Murphy Canyon Rd 200","City":"San Diego","State":"CA","Zip":"92123"},{"Location":"ELBOW ROOM","Address":"5225 Kearny Villa Rd","City":"San Diego","State":"CA","Zip":"92123"},{"Location":"ENDZONE BARBER SHOP","Address":"9353 Clairemont Mesa Blvd Q1","City":"San Diego","State":"CA","Zip":"92123"},{"Location":"EPSILON SOLUTIONS INC","Address":"9242 Lightwave Ave","City":"San Diego","State":"CA","Zip":"92123"},{"Location":"EVENT NETWORK","Address":"9606 Aero Dr 1000","City":"San Diego","State":"CA","Zip":"92123"},{"Location":"EXPOSE","Address":"5520 Kearny Villa Rd","City":"San Diego","State":"CA","Zip":"92123"},{"Location":"FED EX EXPRESS","Address":"9192 Kearny Villa Ct","City":"San Diego","State":"CA","Zip":"92123"},{"Location":"FREELANCE PROJECT","Address":"8865 Balboa Ave H","City":"San Diego","State":"CA","Zip":"92123"},{"Location":"GERDAU","Address":"3880 Murphy Canyon Rd 100","City":"San Diego","State":"CA","Zip":"92123"},{"Location":"GIOVANNI'S","Address":"9353 Clairemont Mesa Blvd","City":"San Diego","State":"CA","Zip":"92123"},{"Location":"GO STAFF","Address":"8798 Complex Dr","City":"San Diego","State":"CA","Zip":"92123"},{"Location":"GOLDEN CITY","Address":"5375 Kearny Villa Rd 107a","City":"San Diego","State":"CA","Zip":"92123"},{"Location":"GREEK PALACE","Address":"8878 Clairemont Mesa Blvd A","City":"San Diego","State":"CA","Zip":"92123"},{"Location":"HALDEMAN INC1","Address":"5750 Kearny Villa Rd","City":"San Diego","State":"CA","Zip":"92123"},{"Location":"HAPPY BARBER","Address":"3236 Greyling Dr","City":"San Diego","State":"CA","Zip":"92123"},{"Location":"HAYES AND CUNNINGHAM","Address":"5925 Kearny Villa Rd 201","City":"San Diego","State":"CA","Zip":"92123"},{"Location":"HDR INC","Address":"8690 Balboa Ave 200","City":"San Diego","State":"CA","Zip":"92123"},{"Location":"ICAC TASK FORCE","Address":"9444 Balboa Ave 375","City":"San Diego","State":"CA","Zip":"92123"},{"Location":"INTELICARE DIRECT","Address":"9596 Chesapeake Dr A","City":"San Diego","State":"CA","Zip":"92123"},{"Location":"JACK IN THE BOX INC.","Address":"9330 Balboa Ave","City":"San Diego","State":"CA","Zip":"92123"},{"Location":"JACK IN THE BOX INCORPORATED","Address":"9357 Spectrum Center Blvd","City":"San Diego","State":"CA","Zip":"92123"},{"Location":"JERSEY MIKES","Address":"9211 Clairemont Mesa Blvd 104","City":"San Diego","State":"CA","Zip":"92123"},{"Location":"JOHN BOGGS & ASSOC. INC.","Address":"5675 Ruffin Rd 350","City":"San Diego","State":"CA","Zip":"92123"},{"Location":"JOHNSON CATERINT","Address":"9341 Ruffin Ct","City":"San Diego","State":"CA","Zip":"92123"},{"Location":"KAISER PERMANENTE CSC","Address":"3840 Murphy Canyon Rd","City":"San Diego","State":"CA","Zip":"92123"},{"Location":"KBNT CHANNEL 17","Address":"5770 Ruffin Rd","City":"San Diego","State":"CA","Zip":"92123"},{"Location":"KEITH MILES","Address":"9163 Chesapeake Dr","City":"San Diego","State":"CA","Zip":"92123"},{"Location":"KHAN CAVE GRILL AND TAVE","Address":"9350 Clairemont Mesa Blvd F","City":"San Diego","State":"CA","Zip":"92123"},{"Location":"KNL ENTERPRISES","Address":"3929 Calle Fortunada Steb","City":"San Diego","State":"CA","Zip":"92123"},{"Location":"KOGI BBQ","Address":"5447 Kearny Villa Rd A","City":"San Diego","State":"CA","Zip":"92123"},{"Location":"KYOCERA","Address":"8611 Balboa Ave","City":"San Diego","State":"CA","Zip":"92123"},{"Location":"LA FUENTE MEXICAN FOOD","Address":"8690 Aero Dr 120","City":"San Diego","State":"CA","Zip":"92123"},{"Location":"LONG ISLAND MP","Address":"5250 Murphy Canyon Rd 116","City":"San Diego","State":"CA","Zip":"92123"},{"Location":"LOS PRIMOS MEXICAN FOOD","Address":"9211 Clairemont Mesa Blvd","City":"San Diego","State":"CA","Zip":"92123"},{"Location":"LUXURY AUTO BODY","Address":"9660 Aero Dr","City":"San Diego","State":"CA","Zip":"92123"},{"Location":"MAIN ELECTRIC SUPPLY CO","Address":"9540 Chesapeake Dr","City":"San Diego","State":"CA","Zip":"92123"},{"Location":"MATTHEWS LAW GROUP","Address":"3870 Murphy Canyon Rd","City":"San Diego","State":"CA","Zip":"92123"},{"Location":"MAXWELL TECHNOLOGIES","Address":"3888 Calle Fortunada","City":"San Diego","State":"CA","Zip":"92123"},{"Location":"MAZZIKA HOOKAH LOUNGE","Address":"8690 Aero Dr 101","City":"San Diego","State":"CA","Zip":"92123"},{"Location":"MERCURY INS - SAN DIEGO","Address":"9635 Granite Ridge Dr 200","City":"San Diego","State":"CA","Zip":"92123"},{"Location":"MIDLAND CREDIT MANAGEMENT","Address":"8875 Aero Dr 200","City":"San Diego","State":"CA","Zip":"92123"},{"Location":"MILITARY SEALIFT COMMAND PAC","Address":"9284 Balboa Ave","City":"San Diego","State":"CA","Zip":"92123"},{"Location":"MOOSE LODGE","Address":"3636 Ruffin Rd","City":"San Diego","State":"CA","Zip":"92123"},{"Location":"MURPHY'S CANON MARKET","Address":"5250 Murphy Canyon Rd","City":"San Diego","State":"CA","Zip":"92123"},{"Location":"NEX CABRILLO","Address":"3292      Afton Rd","City":"San Diego","State":"CA","Zip":"92123"},{"Location":"OASIS SURGERY CENTER","Address":"6471 Keamy Villa Rd 100","City":"San Diego","State":"CA","Zip":"92123"},{"Location":"OCS LIGHTING AND CONTROL","Address":"5797 Chesapeake Ct 200","City":"San Diego","State":"CA","Zip":"92123"},{"Location":"OTIS ELEVATOR COMPANY","Address":"4949 Viewridge Ave","City":"San Diego","State":"CA","Zip":"92123"},{"Location":"PACIFIC STEEL GROUP","Address":"4805 Murphy Canyon Rd","City":"San Diego","State":"CA","Zip":"92123"},{"Location":"PALMIER","Address":"9655 Granite Ridge Dr","City":"San Diego","State":"CA","Zip":"92123"},{"Location":"PALOMINOS","Address":"9353 Clairemont Mesa Blvd I","City":"San Diego","State":"CA","Zip":"92123"},{"Location":"PAMPAS BAR & GRILL","Address":"8690 Aero Dr 105","City":"San Diego","State":"CA","Zip":"92123"},{"Location":"PAT JITTAYASA","Address":"9119 Clairemont Mesa Blvd H","City":"San Diego","State":"CA","Zip":"92123"},{"Location":"PCI","Address":"3912 Calle Fortunada","City":"San Diego","State":"CA","Zip":"92123"},{"Location":"PINNACLE REALTY","Address":"8745 Aero Dr","City":"San Diego","State":"CA","Zip":"92123"},{"Location":"PRATT AND WHITNEY","Address":"4400 Ruffin Rd","City":"San Diego","State":"CA","Zip":"92123"},{"Location":"PROGRESSIVE INS SD","Address":"4141 Ruffin Rd","City":"San Diego","State":"CA","Zip":"92123"},{"Location":"RAYO GRILL","Address":"3805 Murphy Canyon Rd","City":"San Diego","State":"CA","Zip":"92123"},{"Location":"RAYTHEON COMPANY","Address":"8650 Balboa Ave","City":"San Diego","State":"CA","Zip":"92123"},{"Location":"REDWOOD INTERNATIONAL","Address":"8913 Complex Dr","City":"San Diego","State":"CA","Zip":"92123"},{"Location":"REM SLEEP LABS","Address":"4909 Murphy Canyon Rd","City":"San Diego","State":"CA","Zip":"92123"},{"Location":"RENOVATION REALTY","Address":"4830 Viewridge Ave D","City":"San Diego","State":"CA","Zip":"92123"},{"Location":"RESMED CORP","Address":"9001 Spectrum Center Blvd","City":"San Diego","State":"CA","Zip":"92123"},{"Location":"ROBERT J BEY DDS INC","Address":"8787 Complex Dr 100","City":"San Diego","State":"CA","Zip":"92123"},{"Location":"RTS","Address":"8979 Complex Dr","City":"San Diego","State":"CA","Zip":"92123"},{"Location":"SAIC MARINE OPERATIONS","Address":"4211 Ponderosa Ave","City":"San Diego","State":"CA","Zip":"92123"},{"Location":"SAN DIEGO CO SHERIFF","Address":"9335 Hazard Way 100","City":"San Diego","State":"CA","Zip":"92123"},{"Location":"SAN DIEGO COLLISION REPAIR","Address":"5233 Murphy Canyon Rd","City":"San Diego","State":"CA","Zip":"92123"},{"Location":"SAN DIEGO COUNTY PROBATION DEP","Address":"9444 Balboa Ave 500","City":"San Diego","State":"CA","Zip":"92123"},{"Location":"SAN DIEGO GAS & ELECTRIC","Address":"8330 Century Park Ct 3fl","City":"San Diego","State":"CA","Zip":"92123"},{"Location":"SAN DIEGO GAS AND ELCTRIC","Address":"5488 Overland Ave","City":"San Diego","State":"CA","Zip":"92123"},{"Location":"SAN DIEGO GAS AND ELECTRIC","Address":"8690 Balboa Ave 101","City":"San Diego","State":"CA","Zip":"92123"},{"Location":"SAN DIEGO GAS AND ELECTRIC 2","Address":"8330 Century Park Ct","City":"San Diego","State":"CA","Zip":"92123"},{"Location":"SAN DIEGO GAS AND ELECTRIC 3","Address":"8335 Century Park Ct","City":"San Diego","State":"CA","Zip":"92123"},{"Location":"SAN DIEGO HAND SPECIALIS","Address":"8008 Frost St 403","City":"San Diego","State":"CA","Zip":"92123"},{"Location":"SAN DIEGO METROPOLITAN CREDIT","Address":"9212 Balboa Ave","City":"San Diego","State":"CA","Zip":"92123"},{"Location":"SAN DIEGO SHERIFFS DEPT","Address":"9620 Chesapeake Dr 100d","City":"San Diego","State":"CA","Zip":"92123"},{"Location":"SAN DIEGO SHERIFFS DEPT OFFICE","Address":"9621 Ridgehaven Ct","City":"San Diego","State":"CA","Zip":"92123"},{"Location":"SAN DIEGO SPINE AND REHA","Address":"9610 Granite Ridge Dr C","City":"San Diego","State":"CA","Zip":"92123"},{"Location":"SANDIEGO GAS & ELECTRIC FUEL","Address":"8315 Century Park Ct","City":"San Diego","State":"CA","Zip":"92123"},{"Location":"SD INTERSTATE ENTERPRISE","Address":"9620 Ridgehaven Ct B","City":"San Diego","State":"CA","Zip":"92123"},{"Location":"SD MEPS","Address":"4181 Ruffin Rd B","City":"San Diego","State":"CA","Zip":"92123"},{"Location":"SD-LECC%2FRTTAC 2","Address":"4181 Ruffin Rd","City":"San Diego","State":"CA","Zip":"92123"},{"Location":"SD-LECC%2FRTTAC 3","Address":"4181 Ruffin Rd","City":"San Diego","State":"CA","Zip":"92123"},{"Location":"SD-LECC%2FRTTAC ONE","Address":"4181 Ruffin Rd","City":"San Diego","State":"CA","Zip":"92123"},{"Location":"SDG&E EMERGENCY SERVICES","Address":"8326 Century Park Ct","City":"San Diego","State":"CA","Zip":"92123"},{"Location":"SDISD KMESA LLC","Address":"5247 Kearny Villa Rd","City":"San Diego","State":"CA","Zip":"92123"},{"Location":"SDLA","Address":"9295 Farnham St","City":"San Diego","State":"CA","Zip":"92123"},{"Location":"SEAPOINT PROPERTIES LLC","Address":"4909 Murphy Canyon Rd","City":"San Diego","State":"CA","Zip":"92123"},{"Location":"SERRA MESA LAUNDRY","Address":"3263 Greyling Dr","City":"San Diego","State":"CA","Zip":"92123"},{"Location":"SHARP & CHILDRENS MRI","Address":"7910 Frost St 110","City":"San Diego","State":"CA","Zip":"92123"},{"Location":"SHARP HEALTH PLAN","Address":"8520 Tech Way","City":"San Diego","State":"CA","Zip":"92123"},{"Location":"SHARP HEALTHCARE","Address":"4000 Ruffin Rd","City":"San Diego","State":"CA","Zip":"92123"},{"Location":"SHARP HEALTHCARE ASSOCIATION","Address":"3571 Corporate Ct C","City":"San Diego","State":"CA","Zip":"92123"},{"Location":"SHARP HEALTHCARE FOR SHARP MEM","Address":"7901 Frost St","City":"San Diego","State":"CA","Zip":"92123"},{"Location":"SHARP KIDNEY TRANSPLANT","Address":"7910 Frost St 230","City":"San Diego","State":"CA","Zip":"92123"},{"Location":"SHOGUN  KOBE","Address":"5451 Kearny Villa Rd","City":"San Diego","State":"CA","Zip":"92123"},{"Location":"SIZZLER #891","Address":"3755 Murphy Canyon Rd S","City":"San Diego","State":"CA","Zip":"92123"},{"Location":"SOLAR TURBINES","Address":"4200 Ruffin Rd","City":"San Diego","State":"CA","Zip":"92123"},{"Location":"SOUTHERN CALFORNIA PAINT & WEL","Address":"3444 Kearny Villa Rd 305","City":"San Diego","State":"CA","Zip":"92123"},{"Location":"STADIUM GOLF CENTER","Address":"2990 Murphy Canyon Rd","City":"San Diego","State":"CA","Zip":"92123"},{"Location":"STALWART COMMUNICATIONS","Address":"9635 Granite Ridge Dr","City":"San Diego","State":"CA","Zip":"92123"},{"Location":"STAR STATION SNOKE CHECK","Address":"3690 Murphy Cayon Rd 102","City":"San Diego","State":"CA","Zip":"92123"},{"Location":"STIX HOLDINGS 739","Address":"3737 Murphy Canyon Rd","City":"San Diego","State":"CA","Zip":"92123"},{"Location":"STUDIO DINER","Address":"4701 Ruffin Rd","City":"San Diego","State":"CA","Zip":"92123"},{"Location":"SUBWAY","Address":"9363 Clairemont Mesa Blvd","City":"San Diego","State":"CA","Zip":"92123"},{"Location":"SUPERCUTS","Address":"3675 Murphy Canyon Rd","City":"San Diego","State":"CA","Zip":"92123"},{"Location":"SYNERGY RESOURCES","Address":"3939 Ruffin Rd","City":"San Diego","State":"CA","Zip":"92123"},{"Location":"THE ARCH ACADEMY","Address":"9445 Farnham St 101","City":"San Diego","State":"CA","Zip":"92123"},{"Location":"THE BUTCHER SHOP RESTAURANT","Address":"5255 Kearny Villa Rd","City":"San Diego","State":"CA","Zip":"92123"},{"Location":"TOBY WELLS FAMILY YMCA","Address":"5105 Overland Ave","City":"San Diego","State":"CA","Zip":"92123"},{"Location":"TONY G CHAMMAS DMD","Address":"7910 Frost St 160","City":"San Diego","State":"CA","Zip":"92123"},{"Location":"TONY'S SUSHI","Address":"3755 Murphy Canyon Rd E","City":"San Diego","State":"CA","Zip":"92123"},{"Location":"TORREY PINES BANK","Address":"9280 Clairemont Mesa Blvd","City":"San Diego","State":"CA","Zip":"92123"},{"Location":"TOWARD MAXIMUM INDEPENDENCE IN","Address":"4740 Murphy Canyon Rd 300","City":"San Diego","State":"CA","Zip":"92123"},{"Location":"UNIQUE DELI","Address":"8865 Balboa Ave","City":"San Diego","State":"CA","Zip":"92123"},{"Location":"UNITED DEVELOPMENT GROUP INC","Address":"9252 Chesapeake Dr 100","City":"San Diego","State":"CA","Zip":"92123"},{"Location":"USNS AMELIA EARHART","Address":"9284 Balboa Ave","City":"San Diego","State":"CA","Zip":"92123"},{"Location":"USNS MATHEW PERRY AKE9","Address":"9284 Balboa Ave Wrehs","City":"San Diego","State":"CA","Zip":"92123"},{"Location":"USNS NAVAJO T-ATF 169-MSC BATS","Address":"9284 Balboa Ave","City":"San Diego","State":"CA","Zip":"92123"},{"Location":"USNS RAINIER (T-AOE 7)","Address":"9284 Balboa Ave","City":"San Diego","State":"CA","Zip":"92123"},{"Location":"USNS YUKON T-AO 202 #1","Address":"9284 Balboa Ave 992","City":"San Diego","State":"CA","Zip":"92123"},{"Location":"VINCENT DEPHILIPPI INC","Address":"5353 Kearny Villa Rd","City":"San Diego","State":"CA","Zip":"92123"},{"Location":"W I S INTERNATIONAL","Address":"9265 Sky Park Ct 100","City":"San Diego","State":"CA","Zip":"92123"},{"Location":"WA SUSHI","Address":"9340 Clairemont Mesa Blvd B","City":"San Diego","State":"CA","Zip":"92123"},{"Location":"WAXIE","Address":"9353 Waxie Way","City":"San Diego","State":"CA","Zip":"92123"},{"Location":"WORLDWIDE CREDIT CORP","Address":"9089 Clairemont Mesa Blvd 307","City":"San Diego","State":"CA","Zip":"92123"}]