[{"Location":"24 HOUR FITNESS #94","Address":"9550 Miramar Rd","City":"San Diego","State":"CA","Zip":"92126"},{"Location":"8183353485","Address":"7975 Dunbrook Rd D","City":"San Diego","State":"CA","Zip":"92126"},{"Location":"A-1 LIQUIDATORS INC","Address":"9530 Cabot Dr","City":"San Diego","State":"CA","Zip":"92126"},{"Location":"ADVANCED REHABILITAION","Address":"7950 Dunbrook Rd","City":"San Diego","State":"CA","Zip":"92126"},{"Location":"APPLEBEE'S #2150012","Address":"9480 Mira Mesa Blvd","City":"San Diego","State":"CA","Zip":"92126"},{"Location":"AT EASE GAMES LLC","Address":"8990 Miramar Rd 140","City":"San Diego","State":"CA","Zip":"92126"},{"Location":"AUDI SAN DIEGO","Address":"9010 Miramar Rd","City":"San Diego","State":"CA","Zip":"92126"},{"Location":"AURIC ELEMENTAL INC","Address":"8670 Miramar Rd F","City":"San Diego","State":"CA","Zip":"92126"},{"Location":"BA LE","Address":"9396 Mira Mesa Blvd","City":"San Diego","State":"CA","Zip":"92126"},{"Location":"BEST PIZZA MIRA MESA","Address":"9172 Mira Mesa Blvd","City":"San Diego","State":"CA","Zip":"92126"},{"Location":"BID CONSTRUCTION","Address":"9400 Activity Rd G","City":"San Diego","State":"CA","Zip":"92126"},{"Location":"BIRIYANI FACTORY","Address":"9474 Back Mountain Rd  #e","City":"San Diego","State":"CA","Zip":"92126"},{"Location":"BLACK MOUNTAIN EUROPEAN AUTO","Address":"9513 Black Mountain Rd A","City":"San Diego","State":"CA","Zip":"92126"},{"Location":"BM NOBLE CO","Address":"8480 Miralani Dr","City":"San Diego","State":"CA","Zip":"92126"},{"Location":"BOBALICIOUS","Address":"8155 Mira Mesa Blvd 4","City":"San Diego","State":"CA","Zip":"92126"},{"Location":"BOILING CRAB SANDIEGO LLC","Address":"9015 Mira Mesa Blvd","City":"San Diego","State":"CA","Zip":"92126"},{"Location":"BUCA DI BEPPO #521","Address":"10749 Westview Pkwy","City":"San Diego","State":"CA","Zip":"92126"},{"Location":"BULLDOG GARAGE DOORS","Address":"7915 Silverton Ave 311","City":"San Diego","State":"CA","Zip":"92126"},{"Location":"BUTSKO UTILITY DESIGN IN","Address":"8470 Redwood Creek Ln 200","City":"San Diego","State":"CA","Zip":"92126"},{"Location":"CA WING VENTURES INC.","Address":"9174 Mira Mesa Blvd","City":"San Diego","State":"CA","Zip":"92126"},{"Location":"CALLAHAN'S PUB & BREWERY","Address":"8111 Mira Mesa Blvd","City":"San Diego","State":"CA","Zip":"92126"},{"Location":"CAPE TOWN","Address":"7580 Miramar Rd","City":"San Diego","State":"CA","Zip":"92126"},{"Location":"CARPENTERS CONTRACTORS CORP","Address":"8595 Miralani Dr C","City":"San Diego","State":"CA","Zip":"92126"},{"Location":"CHIN'S SEAFOOD & GRILL","Address":"9335 Kearny Mesa Rd","City":"San Diego","State":"CA","Zip":"92126"},{"Location":"COFFMAN SPECIALTIES","Address":"9685 Via Excelencia 200","City":"San Diego","State":"CA","Zip":"92126"},{"Location":"CORT BUSINESS SERVICES","Address":"9404 Cabot Dr","City":"San Diego","State":"CA","Zip":"92126"},{"Location":"DAPHNES","Address":"10728 Westview Pkwy 305","City":"San Diego","State":"CA","Zip":"92126"},{"Location":"DAVID BOWIE","Address":"9750 Miramar Rd 133","City":"San Diego","State":"CA","Zip":"92126"},{"Location":"DR. ERIC B. FERRER DENTISTRY","Address":"9373 Mira Mesa Blvd","City":"San Diego","State":"CA","Zip":"92126"},{"Location":"DSOTOS TACO SHACK","Address":"9272 Miramar Rd 19","City":"San Diego","State":"CA","Zip":"92126"},{"Location":"EL TORITO 7181","Address":"8223 Mira Mesa Blvd","City":"San Diego","State":"CA","Zip":"92126"},{"Location":"FINGERONE  INC","Address":"8660 Miramar Rd F","City":"San Diego","State":"CA","Zip":"92126"},{"Location":"FIRESTONE #020451","Address":"9690 Reagan Rd","City":"San Diego","State":"CA","Zip":"92126"},{"Location":"FUDDRUCKERS #3081","Address":"8285 Mira Mesa Blvd","City":"San Diego","State":"CA","Zip":"92126"},{"Location":"FUSION HOOKA LOUNGE","Address":"11229 Camino Ruiz F","City":"San Diego","State":"CA","Zip":"92126"},{"Location":"GO GO SUSHI","Address":"9430 Mira Mesa Blvd 5c","City":"San Diego","State":"CA","Zip":"92126"},{"Location":"GOLDFINGERS","Address":"8660 Miramar Rd F","City":"San Diego","State":"CA","Zip":"92126"},{"Location":"GRACIA LUMANG DMD","Address":"10737 Camino Ruiz 145","City":"San Diego","State":"CA","Zip":"92126"},{"Location":"GRILL HOUSE CAFE","Address":"9494 Black Mountain Rd G","City":"San Diego","State":"CA","Zip":"92126"},{"Location":"HUONG DO","Address":"8991 Mira Mesa Blvd","City":"San Diego","State":"CA","Zip":"92126"},{"Location":"ISLANDS RESTAURANT #030","Address":"10669 Westview Pkwy","City":"San Diego","State":"CA","Zip":"92126"},{"Location":"IVEY ENGINEERING","Address":"8330 Juniper Creek Ln","City":"San Diego","State":"CA","Zip":"92126"},{"Location":"JEANNIES SALON","Address":"8961 Mira Mesa Blvd","City":"San Diego","State":"CA","Zip":"92126"},{"Location":"JEFF MERCADO INC","Address":"9212 Mira Este Ct","City":"San Diego","State":"CA","Zip":"92126"},{"Location":"JERSEY MIKES","Address":"10764 Westview Pkwy","City":"San Diego","State":"CA","Zip":"92126"},{"Location":"JULIE'S DESSERT & BAKERY","Address":"10550 Camino Ruiz D","City":"San Diego","State":"CA","Zip":"92126"},{"Location":"KOHL'S #1369","Address":"8140 Mira Mesa Blvd","City":"San Diego","State":"CA","Zip":"92126"},{"Location":"LA MEXICA FIESTA","Address":"11259 Camino Ruiz","City":"San Diego","State":"CA","Zip":"92126"},{"Location":"LAND ROVER MIRAMAR","Address":"9455 Clayton Dr","City":"San Diego","State":"CA","Zip":"92126"},{"Location":"LUXURY AUTOBODY OF MIRAMAR","Address":"9450 Camino Ruiz","City":"San Diego","State":"CA","Zip":"92126"},{"Location":"MANILA FAST FOOD AND DESSERTS","Address":"8979 Mira Mesa Blvd","City":"San Diego","State":"CA","Zip":"92126"},{"Location":"MANNA BBQ","Address":"8188 Mira Mesa Blvd","City":"San Diego","State":"CA","Zip":"92126"},{"Location":"MARAZZI TILE AND STONE","Address":"9020 Activity Rd B","City":"San Diego","State":"CA","Zip":"92126"},{"Location":"MARSHAWN INC.","Address":"8250 Mira Mesa Blvd A","City":"San Diego","State":"CA","Zip":"92126"},{"Location":"MEN'S WEARHOUSE #2301","Address":"10761 Westview Pkwy","City":"San Diego","State":"CA","Zip":"92126"},{"Location":"MILITARY AUTO CENTER","Address":"9323 Activity Rd","City":"San Diego","State":"CA","Zip":"92126"},{"Location":"MIRA MESA  LP","Address":"10673 Westview Pkwy","City":"San Diego","State":"CA","Zip":"92126"},{"Location":"MIRA MESA BARBER SHOP","Address":"8155 Mira Mesa Blvd 1","City":"San Diego","State":"CA","Zip":"92126"},{"Location":"MIRA MESA BOWL","Address":"8610 Mira Mesa Blvd","City":"San Diego","State":"CA","Zip":"92126"},{"Location":"MIRAMAR SPEED CIRCUIT","Address":"8123 Miralani Dr","City":"San Diego","State":"CA","Zip":"92126"},{"Location":"MM7 TRAINING CENTER1","Address":"7949 Stromesa Ct A","City":"San Diego","State":"CA","Zip":"92126"},{"Location":"MOOSE LODGE 2108","Address":"8670 Miramar Rd T","City":"San Diego","State":"CA","Zip":"92126"},{"Location":"MSJ DELIVERY LLC","Address":"8221 Arjons Dr","City":"San Diego","State":"CA","Zip":"92126"},{"Location":"NY GIANTS PIZZA","Address":"9388 Mira Mesa Blvd C","City":"San Diego","State":"CA","Zip":"92126"},{"Location":"ON THE BORDER","Address":"10789 Westview Pkwy","City":"San Diego","State":"CA","Zip":"92126"},{"Location":"PACIFIC DENTAL","Address":"9330 Mira Mesa Blvd B","City":"San Diego","State":"CA","Zip":"92126"},{"Location":"PBC","Address":"8680 Miralani Dr","City":"San Diego","State":"CA","Zip":"92126"},{"Location":"PHO COW CALI","Address":"9170 Mira Mesa Blvd","City":"San Diego","State":"CA","Zip":"92126"},{"Location":"PICKETFENCE DESIGNS","Address":"9220 Trade Pl","City":"San Diego","State":"CA","Zip":"92126"},{"Location":"PIONEER PORSHE 2","Address":"9020 Miramar Rd","City":"San Diego","State":"CA","Zip":"92126"},{"Location":"POE ADVERTISING INC","Address":"8996 Miramar Rd 310","City":"San Diego","State":"CA","Zip":"92126"},{"Location":"PRESTON SURATI MART INC.","Address":"9494 Black Mountain Rd D","City":"San Diego","State":"CA","Zip":"92126"},{"Location":"PRIMETIME BARBERSHOP","Address":"9176 Mira Mesa Blvd","City":"San Diego","State":"CA","Zip":"92126"},{"Location":"PSO CA DAO","Address":"8373 Mira Mesa Blvd","City":"San Diego","State":"CA","Zip":"92126"},{"Location":"R&B FILIPINO CUISINE","Address":"11257 Camino Ruiz","City":"San Diego","State":"CA","Zip":"92126"},{"Location":"RADIO GRAPHIC EQUIPMENT INC","Address":"8320 Juniper Creek Ln","City":"San Diego","State":"CA","Zip":"92126"},{"Location":"RED LOBSTER #0520","Address":"8330 Mira Mesa Blvd","City":"San Diego","State":"CA","Zip":"92126"},{"Location":"ROBERT A MEYERSON DDS","Address":"10737 Camino Ruiz 120","City":"San Diego","State":"CA","Zip":"92126"},{"Location":"RUSH TRUCK CENTERS 1","Address":"8464 Miramar Rd","City":"San Diego","State":"CA","Zip":"92126"},{"Location":"SAFELITE AUTO GLASS","Address":"7880 Dunbrook Rd","City":"San Diego","State":"CA","Zip":"92126"},{"Location":"SCRIPPS WEST DENTAL","Address":"94200 Mira Mesa Blvd","City":"San Diego","State":"CA","Zip":"92126"},{"Location":"SHAMIR INSIGHT","Address":"9938 Via Pasar","City":"San Diego","State":"CA","Zip":"92126"},{"Location":"SIA ZOL INC","Address":"9330 Mira Mesa Blvd F","City":"San Diego","State":"CA","Zip":"92126"},{"Location":"SISSYS ENTERTAINMENT INC","Address":"9522 Miramar Rd","City":"San Diego","State":"CA","Zip":"92126"},{"Location":"SKY HIGH SPTS","Address":"8190 Miralani Dr","City":"San Diego","State":"CA","Zip":"92126"},{"Location":"SNR","Address":"9630 Black Mountain Rd J","City":"San Diego","State":"CA","Zip":"92126"},{"Location":"SOUTHERN CALIFORNIA TRACON","Address":"9175 Kearny Villa Rd","City":"San Diego","State":"CA","Zip":"92126"},{"Location":"STIX HOLDINGS 736","Address":"10712 Westview Pkwy","City":"San Diego","State":"CA","Zip":"92126"},{"Location":"SW REG CNCL OF CARPENTER","Address":"8595 Miralani Dr","City":"San Diego","State":"CA","Zip":"92126"},{"Location":"TARGET #305","Address":"8251 Mira Mesa Blvd","City":"San Diego","State":"CA","Zip":"92126"},{"Location":"THE KENA GROUP","Address":"9400 Activity Rd N","City":"San Diego","State":"CA","Zip":"92126"},{"Location":"THE VILLAGE GREEN","Address":"10771 Black Mountain Rd","City":"San Diego","State":"CA","Zip":"92126"},{"Location":"TOM-CAT BAR & GRILL","Address":"9388 Mira Mesa Blvd B","City":"San Diego","State":"CA","Zip":"92126"},{"Location":"TRAN","Address":"9555 Black Mountain Rd","City":"San Diego","State":"CA","Zip":"92126"},{"Location":"VALERIOS CITY BAKERY","Address":"9396 Mira Mesa Blvd E","City":"San Diego","State":"CA","Zip":"92126"},{"Location":"VAPEROO OF SAN DIEGO","Address":"9467 Black Mountain Rd","City":"San Diego","State":"CA","Zip":"92126"},{"Location":"WHITE LABS","Address":"9495 Candida St","City":"San Diego","State":"CA","Zip":"92126"},{"Location":"WOODS MOBILE","Address":"10770 Black Mountain Rd","City":"San Diego","State":"CA","Zip":"92126"},{"Location":"24 HOUR FITNESS #94","Address":"9550 Miramar Rd","City":"San Diego","State":"CA","Zip":"92126"},{"Location":"8183353485","Address":"7975 Dunbrook Rd D","City":"San Diego","State":"CA","Zip":"92126"},{"Location":"A-1 LIQUIDATORS INC","Address":"9530 Cabot Dr","City":"San Diego","State":"CA","Zip":"92126"},{"Location":"ADVANCED REHABILITAION","Address":"7950 Dunbrook Rd","City":"San Diego","State":"CA","Zip":"92126"},{"Location":"APPLEBEE'S #2150012","Address":"9480 Mira Mesa Blvd","City":"San Diego","State":"CA","Zip":"92126"},{"Location":"AT EASE GAMES LLC","Address":"8990 Miramar Rd 140","City":"San Diego","State":"CA","Zip":"92126"},{"Location":"AUDI SAN DIEGO","Address":"9010 Miramar Rd","City":"San Diego","State":"CA","Zip":"92126"},{"Location":"AURIC ELEMENTAL INC","Address":"8670 Miramar Rd F","City":"San Diego","State":"CA","Zip":"92126"},{"Location":"BA LE","Address":"9396 Mira Mesa Blvd","City":"San Diego","State":"CA","Zip":"92126"},{"Location":"BEST PIZZA MIRA MESA","Address":"9172 Mira Mesa Blvd","City":"San Diego","State":"CA","Zip":"92126"},{"Location":"BID CONSTRUCTION","Address":"9400 Activity Rd G","City":"San Diego","State":"CA","Zip":"92126"},{"Location":"BIRIYANI FACTORY","Address":"9474 Back Mountain Rd  #e","City":"San Diego","State":"CA","Zip":"92126"},{"Location":"BLACK MOUNTAIN EUROPEAN AUTO","Address":"9513 Black Mountain Rd A","City":"San Diego","State":"CA","Zip":"92126"},{"Location":"BM NOBLE CO","Address":"8480 Miralani Dr","City":"San Diego","State":"CA","Zip":"92126"},{"Location":"BOBALICIOUS","Address":"8155 Mira Mesa Blvd 4","City":"San Diego","State":"CA","Zip":"92126"},{"Location":"BOILING CRAB SANDIEGO LLC","Address":"9015 Mira Mesa Blvd","City":"San Diego","State":"CA","Zip":"92126"},{"Location":"BUCA DI BEPPO #521","Address":"10749 Westview Pkwy","City":"San Diego","State":"CA","Zip":"92126"},{"Location":"BULLDOG GARAGE DOORS","Address":"7915 Silverton Ave 311","City":"San Diego","State":"CA","Zip":"92126"},{"Location":"BUTSKO UTILITY DESIGN IN","Address":"8470 Redwood Creek Ln 200","City":"San Diego","State":"CA","Zip":"92126"},{"Location":"CA WING VENTURES INC.","Address":"9174 Mira Mesa Blvd","City":"San Diego","State":"CA","Zip":"92126"},{"Location":"CALLAHAN'S PUB & BREWERY","Address":"8111 Mira Mesa Blvd","City":"San Diego","State":"CA","Zip":"92126"},{"Location":"CAPE TOWN","Address":"7580 Miramar Rd","City":"San Diego","State":"CA","Zip":"92126"},{"Location":"CARPENTERS CONTRACTORS CORP","Address":"8595 Miralani Dr C","City":"San Diego","State":"CA","Zip":"92126"},{"Location":"CHIN'S SEAFOOD & GRILL","Address":"9335 Kearny Mesa Rd","City":"San Diego","State":"CA","Zip":"92126"},{"Location":"COFFMAN SPECIALTIES","Address":"9685 Via Excelencia 200","City":"San Diego","State":"CA","Zip":"92126"},{"Location":"CORT BUSINESS SERVICES","Address":"9404 Cabot Dr","City":"San Diego","State":"CA","Zip":"92126"},{"Location":"DAPHNES","Address":"10728 Westview Pkwy 305","City":"San Diego","State":"CA","Zip":"92126"},{"Location":"DAVID BOWIE","Address":"9750 Miramar Rd 133","City":"San Diego","State":"CA","Zip":"92126"},{"Location":"DR. ERIC B. FERRER DENTISTRY","Address":"9373 Mira Mesa Blvd","City":"San Diego","State":"CA","Zip":"92126"},{"Location":"DSOTOS TACO SHACK","Address":"9272 Miramar Rd 19","City":"San Diego","State":"CA","Zip":"92126"},{"Location":"EL TORITO 7181","Address":"8223 Mira Mesa Blvd","City":"San Diego","State":"CA","Zip":"92126"},{"Location":"FINGERONE  INC","Address":"8660 Miramar Rd F","City":"San Diego","State":"CA","Zip":"92126"},{"Location":"FIRESTONE #020451","Address":"9690 Reagan Rd","City":"San Diego","State":"CA","Zip":"92126"},{"Location":"FUDDRUCKERS #3081","Address":"8285 Mira Mesa Blvd","City":"San Diego","State":"CA","Zip":"92126"},{"Location":"FUSION HOOKA LOUNGE","Address":"11229 Camino Ruiz F","City":"San Diego","State":"CA","Zip":"92126"},{"Location":"GO GO SUSHI","Address":"9430 Mira Mesa Blvd 5c","City":"San Diego","State":"CA","Zip":"92126"},{"Location":"GOLDFINGERS","Address":"8660 Miramar Rd F","City":"San Diego","State":"CA","Zip":"92126"},{"Location":"GRACIA LUMANG DMD","Address":"10737 Camino Ruiz 145","City":"San Diego","State":"CA","Zip":"92126"},{"Location":"GRILL HOUSE CAFE","Address":"9494 Black Mountain Rd G","City":"San Diego","State":"CA","Zip":"92126"},{"Location":"HUONG DO","Address":"8991 Mira Mesa Blvd","City":"San Diego","State":"CA","Zip":"92126"},{"Location":"ISLANDS RESTAURANT #030","Address":"10669 Westview Pkwy","City":"San Diego","State":"CA","Zip":"92126"},{"Location":"IVEY ENGINEERING","Address":"8330 Juniper Creek Ln","City":"San Diego","State":"CA","Zip":"92126"},{"Location":"JEANNIES SALON","Address":"8961 Mira Mesa Blvd","City":"San Diego","State":"CA","Zip":"92126"},{"Location":"JEFF MERCADO INC","Address":"9212 Mira Este Ct","City":"San Diego","State":"CA","Zip":"92126"},{"Location":"JERSEY MIKES","Address":"10764 Westview Pkwy","City":"San Diego","State":"CA","Zip":"92126"},{"Location":"JULIE'S DESSERT & BAKERY","Address":"10550 Camino Ruiz D","City":"San Diego","State":"CA","Zip":"92126"},{"Location":"KOHL'S #1369","Address":"8140 Mira Mesa Blvd","City":"San Diego","State":"CA","Zip":"92126"},{"Location":"LA MEXICA FIESTA","Address":"11259 Camino Ruiz","City":"San Diego","State":"CA","Zip":"92126"},{"Location":"LAND ROVER MIRAMAR","Address":"9455 Clayton Dr","City":"San Diego","State":"CA","Zip":"92126"},{"Location":"LUXURY AUTOBODY OF MIRAMAR","Address":"9450 Camino Ruiz","City":"San Diego","State":"CA","Zip":"92126"},{"Location":"MANILA FAST FOOD AND DESSERTS","Address":"8979 Mira Mesa Blvd","City":"San Diego","State":"CA","Zip":"92126"},{"Location":"MANNA BBQ","Address":"8188 Mira Mesa Blvd","City":"San Diego","State":"CA","Zip":"92126"},{"Location":"MARAZZI TILE AND STONE","Address":"9020 Activity Rd B","City":"San Diego","State":"CA","Zip":"92126"},{"Location":"MARSHAWN INC.","Address":"8250 Mira Mesa Blvd A","City":"San Diego","State":"CA","Zip":"92126"},{"Location":"MEN'S WEARHOUSE #2301","Address":"10761 Westview Pkwy","City":"San Diego","State":"CA","Zip":"92126"},{"Location":"MILITARY AUTO CENTER","Address":"9323 Activity Rd","City":"San Diego","State":"CA","Zip":"92126"},{"Location":"MIRA MESA  LP","Address":"10673 Westview Pkwy","City":"San Diego","State":"CA","Zip":"92126"},{"Location":"MIRA MESA BARBER SHOP","Address":"8155 Mira Mesa Blvd 1","City":"San Diego","State":"CA","Zip":"92126"},{"Location":"MIRA MESA BOWL","Address":"8610 Mira Mesa Blvd","City":"San Diego","State":"CA","Zip":"92126"},{"Location":"MIRAMAR SPEED CIRCUIT","Address":"8123 Miralani Dr","City":"San Diego","State":"CA","Zip":"92126"},{"Location":"MM7 TRAINING CENTER1","Address":"7949 Stromesa Ct A","City":"San Diego","State":"CA","Zip":"92126"},{"Location":"MOOSE LODGE 2108","Address":"8670 Miramar Rd T","City":"San Diego","State":"CA","Zip":"92126"},{"Location":"MSJ DELIVERY LLC","Address":"8221 Arjons Dr","City":"San Diego","State":"CA","Zip":"92126"},{"Location":"NY GIANTS PIZZA","Address":"9388 Mira Mesa Blvd C","City":"San Diego","State":"CA","Zip":"92126"},{"Location":"ON THE BORDER","Address":"10789 Westview Pkwy","City":"San Diego","State":"CA","Zip":"92126"},{"Location":"PACIFIC DENTAL","Address":"9330 Mira Mesa Blvd B","City":"San Diego","State":"CA","Zip":"92126"},{"Location":"PBC","Address":"8680 Miralani Dr","City":"San Diego","State":"CA","Zip":"92126"},{"Location":"PHO COW CALI","Address":"9170 Mira Mesa Blvd","City":"San Diego","State":"CA","Zip":"92126"},{"Location":"PICKETFENCE DESIGNS","Address":"9220 Trade Pl","City":"San Diego","State":"CA","Zip":"92126"},{"Location":"PIONEER PORSHE 2","Address":"9020 Miramar Rd","City":"San Diego","State":"CA","Zip":"92126"},{"Location":"POE ADVERTISING INC","Address":"8996 Miramar Rd 310","City":"San Diego","State":"CA","Zip":"92126"},{"Location":"PRESTON SURATI MART INC.","Address":"9494 Black Mountain Rd D","City":"San Diego","State":"CA","Zip":"92126"},{"Location":"PRIMETIME BARBERSHOP","Address":"9176 Mira Mesa Blvd","City":"San Diego","State":"CA","Zip":"92126"},{"Location":"PSO CA DAO","Address":"8373 Mira Mesa Blvd","City":"San Diego","State":"CA","Zip":"92126"},{"Location":"R&B FILIPINO CUISINE","Address":"11257 Camino Ruiz","City":"San Diego","State":"CA","Zip":"92126"},{"Location":"RADIO GRAPHIC EQUIPMENT INC","Address":"8320 Juniper Creek Ln","City":"San Diego","State":"CA","Zip":"92126"},{"Location":"RED LOBSTER #0520","Address":"8330 Mira Mesa Blvd","City":"San Diego","State":"CA","Zip":"92126"},{"Location":"ROBERT A MEYERSON DDS","Address":"10737 Camino Ruiz 120","City":"San Diego","State":"CA","Zip":"92126"},{"Location":"RUSH TRUCK CENTERS 1","Address":"8464 Miramar Rd","City":"San Diego","State":"CA","Zip":"92126"},{"Location":"SAFELITE AUTO GLASS","Address":"7880 Dunbrook Rd","City":"San Diego","State":"CA","Zip":"92126"},{"Location":"SCRIPPS WEST DENTAL","Address":"94200 Mira Mesa Blvd","City":"San Diego","State":"CA","Zip":"92126"},{"Location":"SHAMIR INSIGHT","Address":"9938 Via Pasar","City":"San Diego","State":"CA","Zip":"92126"},{"Location":"SIA ZOL INC","Address":"9330 Mira Mesa Blvd F","City":"San Diego","State":"CA","Zip":"92126"},{"Location":"SISSYS ENTERTAINMENT INC","Address":"9522 Miramar Rd","City":"San Diego","State":"CA","Zip":"92126"},{"Location":"SKY HIGH SPTS","Address":"8190 Miralani Dr","City":"San Diego","State":"CA","Zip":"92126"},{"Location":"SNR","Address":"9630 Black Mountain Rd J","City":"San Diego","State":"CA","Zip":"92126"},{"Location":"SOUTHERN CALIFORNIA TRACON","Address":"9175 Kearny Villa Rd","City":"San Diego","State":"CA","Zip":"92126"},{"Location":"STIX HOLDINGS 736","Address":"10712 Westview Pkwy","City":"San Diego","State":"CA","Zip":"92126"},{"Location":"SW REG CNCL OF CARPENTER","Address":"8595 Miralani Dr","City":"San Diego","State":"CA","Zip":"92126"},{"Location":"TARGET #305","Address":"8251 Mira Mesa Blvd","City":"San Diego","State":"CA","Zip":"92126"},{"Location":"TARV INC","Address":"9350 Trade Pl E","City":"San Diego","State":"CA","Zip":"92126"},{"Location":"THE KENA GROUP","Address":"9400 Activity Rd N","City":"San Diego","State":"CA","Zip":"92126"},{"Location":"THE VILLAGE GREEN","Address":"10771 Black Mountain Rd","City":"San Diego","State":"CA","Zip":"92126"},{"Location":"TOM-CAT BAR & GRILL","Address":"9388 Mira Mesa Blvd B","City":"San Diego","State":"CA","Zip":"92126"},{"Location":"TRAN","Address":"9555 Black Mountain Rd","City":"San Diego","State":"CA","Zip":"92126"},{"Location":"VALERIOS CITY BAKERY","Address":"9396 Mira Mesa Blvd E","City":"San Diego","State":"CA","Zip":"92126"},{"Location":"VAPEROO OF SAN DIEGO","Address":"9467 Black Mountain Rd","City":"San Diego","State":"CA","Zip":"92126"},{"Location":"WHITE LABS","Address":"9495 Candida St","City":"San Diego","State":"CA","Zip":"92126"},{"Location":"WOODS MOBILE","Address":"10770 Black Mountain Rd","City":"San Diego","State":"CA","Zip":"92126"},{"Location":"YOGURT SWIRL","Address":"9168 Mira Mesa Blvd","City":"San Diego","State":"CA","Zip":"92126"}]