[{"Location":"32 NORTH BREWING COMPANY","Address":"8655 Production Ave","City":"San Diego","State":"CA","Zip":"92121"},{"Location":"4FIZER INC","Address":"10646 Science Center Dr Cd4","City":"San Diego","State":"CA","Zip":"92121"},{"Location":"A TASTE OF LEBANON","Address":"6780 Miramar Rd","City":"San Diego","State":"CA","Zip":"92121"},{"Location":"ABIDE THERAPUTICS","Address":"10835 Road To The Cure 250","City":"San Diego","State":"CA","Zip":"92121"},{"Location":"ACE RELOCATION SYSTEMS INC","Address":"5608 Eastgate Dr","City":"San Diego","State":"CA","Zip":"92121"},{"Location":"ADH  LLC","Address":"11011 Torreyana Rd","City":"San Diego","State":"CA","Zip":"92121"},{"Location":"ALI BABBA CAVE","Address":"10920 Roselle St","City":"San Diego","State":"CA","Zip":"92121"},{"Location":"AMERICAN SPECIALTY HEALTH","Address":"10221 Wateridge Cir","City":"San Diego","State":"CA","Zip":"92121"},{"Location":"AMERICANA CARWASH","Address":"9510 Scranton Rd","City":"San Diego","State":"CA","Zip":"92121"},{"Location":"AMYLIN LLC","Address":"9625 Towne Centre Dr","City":"San Diego","State":"CA","Zip":"92121"},{"Location":"ANIMAL ACUPUNCTURE AND R","Address":"10441 Roselle St D","City":"San Diego","State":"CA","Zip":"92121"},{"Location":"ARDEN REALTY INC","Address":"4510 Executive Dr 220","City":"San Diego","State":"CA","Zip":"92121"},{"Location":"ARE - 3535%2F3565","Address":"3535 General Atomics Ct","City":"San Diego","State":"CA","Zip":"92121"},{"Location":"ARE SD REGION NO.25  LLC","Address":"6275 Nancy Ridge Dr","City":"San Diego","State":"CA","Zip":"92121"},{"Location":"ARENA PHARMACEUTICAL INC","Address":"6154 Nancy Ridge Dr","City":"San Diego","State":"CA","Zip":"92121"},{"Location":"ARENA PHARMACEUTICALS","Address":"6118 Nancy Ridge Dr","City":"San Diego","State":"CA","Zip":"92121"},{"Location":"AUTO WORLD UNLIMITED","Address":"8575 Miramar Pl","City":"San Diego","State":"CA","Zip":"92121"},{"Location":"AVI SYSTEMS INC.","Address":"7270 Trade St 102","City":"San Diego","State":"CA","Zip":"92121"},{"Location":"BALLAST POINT","Address":"9045 Carroll Way","City":"San Diego","State":"CA","Zip":"92121"},{"Location":"BEAR DATA SOLUTIONS INC","Address":"11189 Sorrento Valley Rd 103","City":"San Diego","State":"CA","Zip":"92121"},{"Location":"BELVILLE ENTERPRISES INC","Address":"6225 Nancy Ridge Dr 225","City":"San Diego","State":"CA","Zip":"92121"},{"Location":"BENJAMIN PENA","Address":"6904 Miramar Rd 104","City":"San Diego","State":"CA","Zip":"92121"},{"Location":"BIOLEGEND INC","Address":"9727 Pacific Heights Blvd","City":"San Diego","State":"CA","Zip":"92121"},{"Location":"BONE BUILDERS MEDICAL CL","Address":"4510 Executive Dr 125","City":"San Diego","State":"CA","Zip":"92121"},{"Location":"BORDER CONSTRUCTION SPECIALTIE","Address":"5601 Eastgate Dr","City":"San Diego","State":"CA","Zip":"92121"},{"Location":"BP BIOFUELS GTC","Address":"4955 Directors Pl","City":"San Diego","State":"CA","Zip":"92121"},{"Location":"BRAILLE INSTITUTE","Address":"4555 Executive Dr","City":"San Diego","State":"CA","Zip":"92121"},{"Location":"BROADCAST CO OF THE AMERICAS","Address":"6160 Cornerstone Ct E 100","City":"San Diego","State":"CA","Zip":"92121"},{"Location":"CADILLIAC GM SPECIALIST","Address":"7382 Trade St","City":"San Diego","State":"CA","Zip":"92121"},{"Location":"CALIFORNIA BAITING COMPANY","Address":"4110 Sorrento Valley Blvd C","City":"San Diego","State":"CA","Zip":"92121"},{"Location":"CALIFORNIA PROTON TREATM","Address":"9730 Summers Ridge Rd","City":"San Diego","State":"CA","Zip":"92121"},{"Location":"CAREFUSION","Address":"10020 Pacific Mesa Blvd","City":"San Diego","State":"CA","Zip":"92121"},{"Location":"CELULA INC","Address":"11011 Torreyana Rd","City":"San Diego","State":"CA","Zip":"92121"},{"Location":"CERTIFIED CAR CARE","Address":"8360 Miramar Pl","City":"San Diego","State":"CA","Zip":"92121"},{"Location":"CERTIFIED TIRE","Address":"6660 Miramar Rd","City":"San Diego","State":"CA","Zip":"92121"},{"Location":"CHANDLER ASSET MANAGEMENT","Address":"6225 Lusk Blvd","City":"San Diego","State":"CA","Zip":"92121"},{"Location":"CHASING FITNESS","Address":"6915 Flanders Dr H","City":"San Diego","State":"CA","Zip":"92121"},{"Location":"CHILI'S #0172","Address":"5969 Lusk Blvd","City":"San Diego","State":"CA","Zip":"92121"},{"Location":"CHURCHES CIGAR LOUNGE","Address":"7094 Miriam Rd 113","City":"San Diego","State":"CA","Zip":"92121"},{"Location":"CLASSICAL INTERIORS","Address":"8525 Camino Santa Fe G","City":"San Diego","State":"CA","Zip":"92121"},{"Location":"CLICK ON FLOORS","Address":"6906 Miramar Rd A","City":"San Diego","State":"CA","Zip":"92121"},{"Location":"CMS UNITARY INC","Address":"7348 Trade St A","City":"San Diego","State":"CA","Zip":"92121"},{"Location":"COAST VOLLEYBALL CLUB","Address":"11526 Sorrento Valley Rd N","City":"San Diego","State":"CA","Zip":"92121"},{"Location":"COMPASS RADIO","Address":"9710 Scranton Rd 200","City":"San Diego","State":"CA","Zip":"92121"},{"Location":"COMPETITOR GROUP","Address":"9477 Waples St 150","City":"San Diego","State":"CA","Zip":"92121"},{"Location":"CORREIA AND ASSOCIATES","Address":"4350 Executive Dr 230","City":"San Diego","State":"CA","Zip":"92121"},{"Location":"CORTI GILCHREST PARTNERSHIP","Address":"5465 Morehouse Dr 265","City":"San Diego","State":"CA","Zip":"92121"},{"Location":"COUNTRY INN SAN DIEGO NO","Address":"5975 Lusk Blvd","City":"San Diego","State":"CA","Zip":"92121"},{"Location":"CR LAURENCE COMPANY INC","Address":"10280 Camino Santa Fe","City":"San Diego","State":"CA","Zip":"92121"},{"Location":"CSC INVESTMENT GROUP","Address":"10951 Sorrento Valley Rd 2c","City":"San Diego","State":"CA","Zip":"92121"},{"Location":"CULVER CAREERS","Address":"6610 Flanders Dr","City":"San Diego","State":"CA","Zip":"92121"},{"Location":"CUSHMAN AND WAKEFIELD","Address":"6465 Nancy Ridge Dr","City":"San Diego","State":"CA","Zip":"92121"},{"Location":"D E X C O M","Address":"6310 Sequence Dr","City":"San Diego","State":"CA","Zip":"92121"},{"Location":"DANIELS INSURANCE","Address":"5665 Oberlin Dr 102","City":"San Diego","State":"CA","Zip":"92121"},{"Location":"DENNYS 7856","Address":"6908 Miramar Rd","City":"San Diego","State":"CA","Zip":"92121"},{"Location":"DEXCOM","Address":"6340 Sequence Dr","City":"San Diego","State":"CA","Zip":"92121"},{"Location":"DEXCOM","Address":"6290 Sequence Dr","City":"San Diego","State":"CA","Zip":"92121"},{"Location":"DLK INVESTMENT MANAGEMENT","Address":"6020 Cornerstone Ct W 220","City":"San Diego","State":"CA","Zip":"92121"},{"Location":"DMG","Address":"7408 Trade St","City":"San Diego","State":"CA","Zip":"92121"},{"Location":"DUKE INSURANCE BENEFITS GROUP","Address":"10225 Barnes Canyon Rd A210","City":"San Diego","State":"CA","Zip":"92121"},{"Location":"DUNHAM & ASSOCIATES","Address":"10251 Vista Sorrento Pkwy 200","City":"San Diego","State":"CA","Zip":"92121"},{"Location":"EASTGATE CROSSFIT","Address":"5360 Eastgate Mall D","City":"San Diego","State":"CA","Zip":"92121"},{"Location":"ENGINEERED COMPONENT & S","Address":"8830 Rehco Rd B","City":"San Diego","State":"CA","Zip":"92121"},{"Location":"EP WATERIDGE LLC","Address":"10201 Wateridge Cir St175","City":"San Diego","State":"CA","Zip":"92121"},{"Location":"EPSILON","Address":"9525 Towne Centre Dr","City":"San Diego","State":"CA","Zip":"92121"},{"Location":"EQUITY OFFICE","Address":"9450 Scranton Rd","City":"San Diego","State":"CA","Zip":"92121"},{"Location":"ERNEST WONG DDS","Address":"4520 Executive Dr 200","City":"San Diego","State":"CA","Zip":"92121"},{"Location":"ETC BUILDING & DESIGN INC","Address":"6805 Nancy Ridge Dr","City":"San Diego","State":"CA","Zip":"92121"},{"Location":"EVOLVE PHYSICAL THERAPY","Address":"11468 Sorrento Valley Rd","City":"San Diego","State":"CA","Zip":"92121"},{"Location":"FBI - SAN DIEGO","Address":"10385 Vista Sorrento Pkwy","City":"San Diego","State":"CA","Zip":"92121"},{"Location":"FEDEX EXPRESS","Address":"10585 Heater Ct","City":"San Diego","State":"CA","Zip":"92121"},{"Location":"FEDEX EXPRESS","Address":"9999 Olson Dr 101","City":"San Diego","State":"CA","Zip":"92121"},{"Location":"FENWAY PROPERTIES LLC","Address":"10525 Vista Sorrento Pkwy 310","City":"San Diego","State":"CA","Zip":"92121"},{"Location":"FREDRICKSON MAZEIKA AND GRANT","Address":"5720 Oberlin Dr","City":"San Diego","State":"CA","Zip":"92121"},{"Location":"FROZEN ROPES DEL MAR","Address":"11436 Sorrento Valley Rd D4","City":"San Diego","State":"CA","Zip":"92121"},{"Location":"FUSA INC","Address":"11555 Sorrento Valley Rd 201","City":"San Diego","State":"CA","Zip":"92121"},{"Location":"G B SALES","Address":"7720 Kenamar Ct","City":"San Diego","State":"CA","Zip":"92121"},{"Location":"GAFCON","Address":"5960 Cornerstone Ct W 100","City":"San Diego","State":"CA","Zip":"92121"},{"Location":"GEN PROBE INC","Address":"10210 Genetic Center Dr","City":"San Diego","State":"CA","Zip":"92121"},{"Location":"GENERAL COATINGS CORP","Address":"6711 Nancy Ridge Dr","City":"San Diego","State":"CA","Zip":"92121"},{"Location":"GENOMICS INSTITUTE","Address":"10675 John J Hopkins Dr","City":"San Diego","State":"CA","Zip":"92121"},{"Location":"GINO'S PIZZERIA","Address":"6904 Miramar Rd 207","City":"San Diego","State":"CA","Zip":"92121"},{"Location":"GREEN ACRES","Address":"10300 Campus Point Dr","City":"San Diego","State":"CA","Zip":"92121"},{"Location":"H G MOTOR SPORTS","Address":"4122 Sorrento Valley Blvd 101","City":"San Diego","State":"CA","Zip":"92121"},{"Location":"HANAYA SUSHI CAFE","Address":"10066 Pacific Heights Blvd","City":"San Diego","State":"CA","Zip":"92121"},{"Location":"HARBOR DISTRIBUTION SD","Address":"8870 Liquid Ct","City":"San Diego","State":"CA","Zip":"92121"},{"Location":"HARSCH INVESTMENT CORP","Address":"10509 Vista Sorrento Pkwy 210","City":"San Diego","State":"CA","Zip":"92121"},{"Location":"HCPI SORRENTO LLC","Address":"7473 Lusk Blvd","City":"San Diego","State":"CA","Zip":"92121"},{"Location":"HELIX ELECTRIC","Address":"6795 Flanders Dr","City":"San Diego","State":"CA","Zip":"92121"},{"Location":"HINES","Address":"4747 Executive Dr 2","City":"San Diego","State":"CA","Zip":"92121"},{"Location":"HOWARD DIXON DDS","Address":"5627 Oberlin Dr 100","City":"San Diego","State":"CA","Zip":"92121"},{"Location":"I MORTGAGE","Address":"4690 Executive Dr 150","City":"San Diego","State":"CA","Zip":"92121"},{"Location":"IBEW LOCAL 465","Address":"7444 Trade St","City":"San Diego","State":"CA","Zip":"92121"},{"Location":"ILLUMINA","Address":"9885 Towne Centre Dr","City":"San Diego","State":"CA","Zip":"92121"},{"Location":"ILLUMINA  INC","Address":"9440 Carroll Park Dr","City":"San Diego","State":"CA","Zip":"92121"},{"Location":"INVERNESS MED INNOVATIONS NA","Address":"5995 Pacific Center Blvd 107-8","City":"San Diego","State":"CA","Zip":"92121"},{"Location":"IRVINE COMPANY","Address":"9530 Towne Centre Dr 100","City":"San Diego","State":"CA","Zip":"92121"},{"Location":"J & J PRD","Address":"3210 Merryfield Row","City":"San Diego","State":"CA","Zip":"92121"},{"Location":"JEFFREY BERNICKER MD","Address":"4510 Executive Dr 100","City":"San Diego","State":"CA","Zip":"92121"},{"Location":"JONES LANG & LASALLE","Address":"4161 Campus Point Ct Blde","City":"San Diego","State":"CA","Zip":"92121"},{"Location":"KARL STRAUSS BREWERY","Address":"9675 Scranton Rd","City":"San Diego","State":"CA","Zip":"92121"},{"Location":"KNOCK OUT PIZZA","Address":"6755 Mira Mesa Blvd 119","City":"San Diego","State":"CA","Zip":"92121"},{"Location":"KPMG","Address":"4747 Executive Dr 600","City":"San Diego","State":"CA","Zip":"92121"},{"Location":"KYRIBA","Address":"9620 Towne Centre Dr","City":"San Diego","State":"CA","Zip":"92121"},{"Location":"LA FITNESS #59","Address":"10535 Heater Ct","City":"San Diego","State":"CA","Zip":"92121"},{"Location":"LA JOLLA SCRIPPS OB%2FGYN CLINIC","Address":"9333 Genesee Ave 170","City":"San Diego","State":"CA","Zip":"92121"},{"Location":"LAI CHEN RESTAURANT","Address":"6780 Miramar Rd 104","City":"San Diego","State":"CA","Zip":"92121"},{"Location":"LAJOLLA AUTO TECH","Address":"5770 Miramar Rd","City":"San Diego","State":"CA","Zip":"92121"},{"Location":"LAUNCHBOX","Address":"11839 Sorrento Valley Rd","City":"San Diego","State":"CA","Zip":"92121"},{"Location":"LEGACY BREWG TAP & KITN","Address":"7060 Miramar Rd","City":"San Diego","State":"CA","Zip":"92121"},{"Location":"LEIDOS INC","Address":"4161 Campus Point Ct","City":"San Diego","State":"CA","Zip":"92121"},{"Location":"LIFE SCIENCE LEARNING CE","Address":"5286 Eastgate Mall B","City":"San Diego","State":"CA","Zip":"92121"},{"Location":"LOCAL MEDIA SAN DIEGO","Address":"6160 Cornerstone Ct E 150","City":"San Diego","State":"CA","Zip":"92121"},{"Location":"LOMBARDI CONTRACTING","Address":"7744 Formula Pl","City":"San Diego","State":"CA","Zip":"92121"},{"Location":"MAD ENGINE INC","Address":"6740 Cobra Way 100","City":"San Diego","State":"CA","Zip":"92121"},{"Location":"MARRIOT COURTYARD SORRENTO","Address":"9650 Scranton Rd","City":"San Diego","State":"CA","Zip":"92121"},{"Location":"MAXIS LUNCHEONETTE","Address":"10068 Pacific Heights Blvd","City":"San Diego","State":"CA","Zip":"92121"},{"Location":"MCDONALDS 11180","Address":"9440 Scranton Rd","City":"San Diego","State":"CA","Zip":"92121"},{"Location":"MICHAEL WALL ENGINEERING INC","Address":"4115 Sorrento Valley Blvd","City":"San Diego","State":"CA","Zip":"92121"},{"Location":"MIRAMAR TRANSMISSION","Address":"6594 Miramar Rd","City":"San Diego","State":"CA","Zip":"92121"},{"Location":"MISSION FEDERAL CREDIT UNION","Address":"5785 Oberlin Dr 101","City":"San Diego","State":"CA","Zip":"92121"},{"Location":"MISSION GORGE CAFE","Address":"7128 Miramar Rd 8","City":"San Diego","State":"CA","Zip":"92121"},{"Location":"NASEEMS BAKERY & KABOB","Address":"10066 Pacific Heights Blvd 108","City":"San Diego","State":"CA","Zip":"92121"},{"Location":"NATIONAL FUNDING","Address":"9820 Towne Centre Dr 200","City":"San Diego","State":"CA","Zip":"92121"},{"Location":"NEWLAND COMMUNITIES","Address":"9820 Towne Centre Dr","City":"San Diego","State":"CA","Zip":"92121"},{"Location":"NUVASIVE INC","Address":"7475 Lusk Blvd","City":"San Diego","State":"CA","Zip":"92121"},{"Location":"ONE REVERSE MORTGAGE LLC","Address":"9920 Pacific Heights Boulveard 350","City":"San Diego","State":"CA","Zip":"92121"},{"Location":"ONESOURCE","Address":"9235 Brown Deer Rd","City":"San Diego","State":"CA","Zip":"92121"},{"Location":"ONLY YESTERDAY CLASSIC AUTOS","Address":"10343 Roselle St","City":"San Diego","State":"CA","Zip":"92121"},{"Location":"ORACLE","Address":"9515 Towne Centre Dr","City":"San Diego","State":"CA","Zip":"92121"},{"Location":"PACIFIC AMBULANCE","Address":"5550 Oberlin Dr","City":"San Diego","State":"CA","Zip":"92121"},{"Location":"PARALLEL CAPITAL PARTNERS INC","Address":"4105 Sorrento Valley Blvd","City":"San Diego","State":"CA","Zip":"92121"},{"Location":"PARTY PALS CENTER","Address":"10427 Roselle St","City":"San Diego","State":"CA","Zip":"92121"},{"Location":"PASTALINI 1","Address":"7190 Miramar Rd 109","City":"San Diego","State":"CA","Zip":"92121"},{"Location":"PAULY'S PIZZA JOINT","Address":"6780 Miramar Rd 105","City":"San Diego","State":"CA","Zip":"92121"},{"Location":"PERFECT FOODS RESEARCH CORP","Address":"5360 Eastgate Mall A","City":"San Diego","State":"CA","Zip":"92121"},{"Location":"PETCO","Address":"9125 Rehco Rd","City":"San Diego","State":"CA","Zip":"92121"},{"Location":"PHARMATEK","Address":"7330 Carroll Rd 200","City":"San Diego","State":"CA","Zip":"92121"},{"Location":"PHO HA NOI","Address":"6904 Miramar Rd","City":"San Diego","State":"CA","Zip":"92121"},{"Location":"PHOTON RESEARCH ASSOCIATES INC","Address":"9985 Pacific Heights Blvd 200","City":"San Diego","State":"CA","Zip":"92121"},{"Location":"PICO DIGITAL","Address":"8880 Rehco Rd","City":"San Diego","State":"CA","Zip":"92121"},{"Location":"PIRCH INC","Address":"9620 Towne Centre Dr 100","City":"San Diego","State":"CA","Zip":"92121"},{"Location":"PLAZA HOME MORTGAGE INC","Address":"4820 Eastgate Mall 110","City":"San Diego","State":"CA","Zip":"92121"},{"Location":"POLLY NOMA","Address":"11230 Sorrento Valley Rd 215","City":"San Diego","State":"CA","Zip":"92121"},{"Location":"PRIVATE ASSET","Address":"5348 Carroll Canyon Rd","City":"San Diego","State":"CA","Zip":"92121"},{"Location":"PRN PHYSICAL THERAPY","Address":"4435 Eastgate Mall 120","City":"San Diego","State":"CA","Zip":"92121"},{"Location":"PROMETHEUS LABORATORIES INC","Address":"9410 Carroll Park Dr","City":"San Diego","State":"CA","Zip":"92121"},{"Location":"PROUD MOTORS INC","Address":"6910 Niramar Rd #102","City":"San Diego","State":"CA","Zip":"92121"},{"Location":"PUNJABI TANDOR","Address":"5424 Morehouse Dr","City":"San Diego","State":"CA","Zip":"92121"},{"Location":"QUALCOMM INC.","Address":"10185 Mckellar Ct","City":"San Diego","State":"CA","Zip":"92121"},{"Location":"QUICK PLAY MEDIA","Address":"4875 Eastgate Mall","City":"San Diego","State":"CA","Zip":"92121"},{"Location":"QUIDEL CO","Address":"10165 Mckellar Ct","City":"San Diego","State":"CA","Zip":"92121"},{"Location":"QUINT GALLERY","Address":"11211 Sorrento Valley Rd E","City":"San Diego","State":"CA","Zip":"92121"},{"Location":"RECEPTOS  INC","Address":"3033 Science Park Rd 300","City":"San Diego","State":"CA","Zip":"92121"},{"Location":"REGUS","Address":"9920 Pacific Heights Blvd 150","City":"San Diego","State":"CA","Zip":"92121"},{"Location":"REGUS","Address":"4445 Eastgate Mall 200","City":"San Diego","State":"CA","Zip":"92121"},{"Location":"REHAB UNITED","Address":"3323 Carmel Mountain Rd","City":"San Diego","State":"CA","Zip":"92121"},{"Location":"RIGOBERTOS TACO SHOP2","Address":"7094 Miramar Rd 119","City":"San Diego","State":"CA","Zip":"92121"},{"Location":"ROCKET FUNDING LLC","Address":"11230 Sorrento Valley Rd 221","City":"San Diego","State":"CA","Zip":"92121"},{"Location":"ROI MEDIA DIRECT","Address":"3560 Dunhill St 120","City":"San Diego","State":"CA","Zip":"92121"},{"Location":"RON","Address":"11535 Sorrento Valley Rd 408","City":"San Diego","State":"CA","Zip":"92121"},{"Location":"ROUGH DRAFT BREWING CO","Address":"8830 Rehco Rd D","City":"San Diego","State":"CA","Zip":"92121"},{"Location":"RPR PARTNERS","Address":"10525 Vista Sorrento Pkwy 200","City":"San Diego","State":"CA","Zip":"92121"},{"Location":"RSR LAW OFFICES","Address":"5330 Carroll Canyon Rd","City":"San Diego","State":"CA","Zip":"92121"},{"Location":"RUG OUTLET","Address":"7050 Miramar Rd 103","City":"San Diego","State":"CA","Zip":"92121"},{"Location":"SAIC - FITNESS CENTER","Address":"4161 Campus Point Ct","City":"San Diego","State":"CA","Zip":"92121"},{"Location":"SAIC 4325200960","Address":"10260 Campus Point Dr","City":"San Diego","State":"CA","Zip":"92121"},{"Location":"SAIC BCP OIA OFFICE","Address":"10260 Campus Point Dr","City":"San Diego","State":"CA","Zip":"92121"},{"Location":"SAIC BLD E","Address":"4161 Campus Point Ct Blde","City":"San Diego","State":"CA","Zip":"92121"},{"Location":"SALIENT FEDERAL SOLUTION","Address":"10431 Wateridge Cir 210","City":"San Diego","State":"CA","Zip":"92121"},{"Location":"SAMSUNG INTERNATIONAL INC","Address":"4921 Directors Pl 200","City":"San Diego","State":"CA","Zip":"92121"},{"Location":"SAMUMED","Address":"9381 Judicial Dr 160","City":"San Diego","State":"CA","Zip":"92121"},{"Location":"SAN DIEGO COUNTY CREDIT","Address":"6545 Sequence Dr","City":"San Diego","State":"CA","Zip":"92121"},{"Location":"SAN DIEGO DIVERS","Address":"11211 Sorrento Valley Rd P","City":"San Diego","State":"CA","Zip":"92121"},{"Location":"SAN DIEGO FOOD BANK","Address":"9850 Distribution Ave","City":"San Diego","State":"CA","Zip":"92121"},{"Location":"SAN DIEGO SQUASH","Address":"9370 Waples St","City":"San Diego","State":"CA","Zip":"92121"},{"Location":"SANTANAS GRILL INC","Address":"7122 Miramar Rd","City":"San Diego","State":"CA","Zip":"92121"},{"Location":"SAPPHIRE ENERGY","Address":"3115 Merryfield Row","City":"San Diego","State":"CA","Zip":"92121"},{"Location":"SCOTT PETERS OFFICE","Address":"4350 Executive Dr 105","City":"San Diego","State":"CA","Zip":"92121"},{"Location":"SDRC RACEWAY 2","Address":"8575 Production Ave","City":"San Diego","State":"CA","Zip":"92121"},{"Location":"SENIOR QUOTE INSURANCE","Address":"3377 Carmel Mountain Rd 200","City":"San Diego","State":"CA","Zip":"92121"},{"Location":"SENOMYX INC","Address":"4767 Nexus Center Dr","City":"San Diego","State":"CA","Zip":"92121"},{"Location":"SHEFFIELD PLATERS","Address":"9850 Waples St","City":"San Diego","State":"CA","Zip":"92121"},{"Location":"SHELL TRADING","Address":"4445 Eastgate Mall 100","City":"San Diego","State":"CA","Zip":"92121"},{"Location":"SHERE PUNJAB","Address":"9254 Scranton Rd 102","City":"San Diego","State":"CA","Zip":"92121"},{"Location":"SLS VENTURES INC","Address":"5790 Miramar Rd 209","City":"San Diego","State":"CA","Zip":"92121"},{"Location":"SNUG PET RESORT AND ANIMAL HOS","Address":"11339 Sorrento Valley Rd","City":"San Diego","State":"CA","Zip":"92121"},{"Location":"SOAPY JOES SORRENTO VALLEY INC","Address":"6609 Mira Mesa Blvd","City":"San Diego","State":"CA","Zip":"92121"},{"Location":"SONY COMPUTER INTERTAINMETN AM","Address":"10075 Barnes Canyon Rd","City":"San Diego","State":"CA","Zip":"92121"},{"Location":"SORRENTO VALLEY DENTAL","Address":"5915 Mira Mesa Blvd B","City":"San Diego","State":"CA","Zip":"92121"},{"Location":"SORRENTO VALLEY RACKETBALL","Address":"10999 Sorrento Valley Rd","City":"San Diego","State":"CA","Zip":"92121"},{"Location":"STRIPPS HEALTH","Address":"4275 Campus Point Ct","City":"San Diego","State":"CA","Zip":"92121"},{"Location":"SUJA LIFE","Address":"8360 Camino Santa Fe A","City":"San Diego","State":"CA","Zip":"92121"},{"Location":"SUJA LIFE LLC","Address":"9151 Rehco Rd B","City":"San Diego","State":"CA","Zip":"92121"},{"Location":"SUNGATE ENERGY SOLUTION","Address":"8445 Camino Santa Fe 104","City":"San Diego","State":"CA","Zip":"92121"},{"Location":"TAKEDA SAN DEIGO%2C INC.","Address":"10410 Science Center Dr","City":"San Diego","State":"CA","Zip":"92121"},{"Location":"TAKEDA SAN DIEGO INC.","Address":"10275 Science Center Dr","City":"San Diego","State":"CA","Zip":"92121"},{"Location":"TARR INC","Address":"9225 Brown Deer Rd","City":"San Diego","State":"CA","Zip":"92121"},{"Location":"TD AMERITRADE","Address":"5010 Wateridge Vista Dr","City":"San Diego","State":"CA","Zip":"92121"},{"Location":"TECH INTERGRATION GROUP","Address":"10247 Flanders Ct","City":"San Diego","State":"CA","Zip":"92121"},{"Location":"TELECOM LEASE ADVISOR","Address":"10509 Vista Sorrento Pkwy 310","City":"San Diego","State":"CA","Zip":"92121"},{"Location":"TEXAS BBQ","Address":"6904 Miramar Rd","City":"San Diego","State":"CA","Zip":"92121"},{"Location":"TEXAS HOLD'EM LLC","Address":"11199 Sorrento Valley Rd 207","City":"San Diego","State":"CA","Zip":"92121"},{"Location":"THE ARGEN CORPORATION","Address":"5855 Oberlin Dr","City":"San Diego","State":"CA","Zip":"92121"},{"Location":"THE BINDING SITE","Address":"5889 Oberlin Dr 101","City":"San Diego","State":"CA","Zip":"92121"},{"Location":"THE CENTURY CLUB OF SD","Address":"6155 Cornerstone Ct E 100","City":"San Diego","State":"CA","Zip":"92121"},{"Location":"THE GRILL AND MARKET","Address":"10066 Pacific Heights Blvd 116","City":"San Diego","State":"CA","Zip":"92121"},{"Location":"THE IRVINE CO","Address":"9540 Towne Centre Dr","City":"San Diego","State":"CA","Zip":"92121"},{"Location":"TOMARCO","Address":"6490 Marindustry Dr C","City":"San Diego","State":"CA","Zip":"92121"},{"Location":"TRANSTAR PIPELINE INC","Address":"10467 Roselle St","City":"San Diego","State":"CA","Zip":"92121"},{"Location":"TRI TECH SOFTWARE SYSTEM","Address":"9477 Waples St 100","City":"San Diego","State":"CA","Zip":"92121"},{"Location":"TRILINK","Address":"9955 Mesa Rim Rd","City":"San Diego","State":"CA","Zip":"92121"},{"Location":"TRITON LOGISTICS INC","Address":"6780 Miramar Rd 200b","City":"San Diego","State":"CA","Zip":"92121"},{"Location":"TRUCK COVERS USA","Address":"8970 Crestmar Pt","City":"San Diego","State":"CA","Zip":"92121"},{"Location":"UNION BANK","Address":"9855 Towne Centre Dr","City":"San Diego","State":"CA","Zip":"92121"},{"Location":"UNION BANK-SAN DIEGO","Address":"9865 Towne Centre Dr","City":"San Diego","State":"CA","Zip":"92121"},{"Location":"US ARMY","Address":"11620 Sorrento Rd","City":"San Diego","State":"CA","Zip":"92121"},{"Location":"US BANK","Address":"4747 Executive Dr 8thfl","City":"San Diego","State":"CA","Zip":"92121"},{"Location":"USE CREDIT UNION","Address":"10120 Pacific Heights Blvd 690","City":"San Diego","State":"CA","Zip":"92121"},{"Location":"VERAISON CAPITAL MGMT","Address":"8860 Kenamar Dr 304","City":"San Diego","State":"CA","Zip":"92121"},{"Location":"VERENIUM CORP","Address":"3550 John Hopkins Ct","City":"San Diego","State":"CA","Zip":"92121"},{"Location":"VERTEX","Address":"11010 Torreyana Rd","City":"San Diego","State":"CA","Zip":"92121"},{"Location":"VICTORS AUTOMOTIVE CENTE","Address":"7052 Carroll Rd","City":"San Diego","State":"CA","Zip":"92121"},{"Location":"VILLAGE PROPERTY SYSTEMS","Address":"11760 Sorrento Valley Rd A","City":"San Diego","State":"CA","Zip":"92121"},{"Location":"VIRTUS FITNESS TRAINING","Address":"10064 Mesa Ridge Ct 210","City":"San Diego","State":"CA","Zip":"92121"},{"Location":"WEB SERVICE COMPANY","Address":"9455 Waples St 150","City":"San Diego","State":"CA","Zip":"92121"},{"Location":"WEST COAST DRY AND PAINT","Address":"6550 Nancy Ridge Dr","City":"San Diego","State":"CA","Zip":"92121"},{"Location":"WEST COAST IPM & MOVE","Address":"6496 Marindustry Dr D","City":"San Diego","State":"CA","Zip":"92121"},{"Location":"WESTPAK INC","Address":"10326 Roselle St","City":"San Diego","State":"CA","Zip":"92121"},{"Location":"WN SHANASHTA LLC","Address":"7094 Miramar Rd 111","City":"San Diego","State":"CA","Zip":"92121"},{"Location":"WOODYS BURGERS","Address":"7070 Miramar Rd","City":"San Diego","State":"CA","Zip":"92121"},{"Location":"YOSHI SUSHI","Address":"6755 Mira Mesa Blvd","City":"San Diego","State":"CA","Zip":"92121"},{"Location":"ZIRBEL ENTERPRISES","Address":"6790 Top Gun St 5","City":"San Diego","State":"CA","Zip":"92121"}]