[{"Location":"4S RANCH GASOLINE & CARWASH","Address":"16629 Dove Canyon Rd","City":"San Diego","State":"CA","Zip":"92127"},{"Location":"ABNORMAL COMPANY INC","Address":"16990 Via Tazon 123","City":"San Diego","State":"CA","Zip":"92127"},{"Location":"BAE SYSTEMS MISSION SOLUTIONS","Address":"10920 Technology Pl","City":"San Diego","State":"CA","Zip":"92127"},{"Location":"CALIBER HOME LOANS","Address":"16745 W Bernardo Dr","City":"San Diego","State":"CA","Zip":"92127"},{"Location":"CAPRI BLU","Address":"10436 Craftsman Way 120","City":"San Diego","State":"CA","Zip":"92127"},{"Location":"CHARM THAI KITCHEN","Address":"11627 Duenda Rd","City":"San Diego","State":"CA","Zip":"92127"},{"Location":"CLEAR EXPECTATIONS","Address":"11315 Rancho Bernardo Rd 133","City":"San Diego","State":"CA","Zip":"92127"},{"Location":"CYMER INC","Address":"17075 Thornmint Ct","City":"San Diego","State":"CA","Zip":"92127"},{"Location":"DENTISTRY AT 4S RANCH","Address":"10432 Reserve Dr 110","City":"San Diego","State":"CA","Zip":"92127"},{"Location":"ENVISO CAPITAL%2C LLC.","Address":"10920 Via Frontera 520","City":"San Diego","State":"CA","Zip":"92127"},{"Location":"FROZEN ROPES","Address":"10710 Thornmint Rd","City":"San Diego","State":"CA","Zip":"92127"},{"Location":"FULL SWING GOLF%2C INC.","Address":"10890 Thornmint Rd","City":"San Diego","State":"CA","Zip":"92127"},{"Location":"GARDEN FRESH RESTAURANT.","Address":"15822 Bernardo Center Dr A","City":"San Diego","State":"CA","Zip":"92127"},{"Location":"GAVIN HOLDINGS","Address":"16728 Calle Hermosa","City":"San Diego","State":"CA","Zip":"92127"},{"Location":"GENESIS LOGISTICS","Address":"11045 Technology Pl","City":"San Diego","State":"CA","Zip":"92127"},{"Location":"GREAT CLIPS","Address":"10531 4s Commons Dr 167","City":"San Diego","State":"CA","Zip":"92127"},{"Location":"HEWLETT PACKARD CO.","Address":"16399 W Bernardo Dr","City":"San Diego","State":"CA","Zip":"92127"},{"Location":"INSTANT REPLAY","Address":"11681 Duenda Rd","City":"San Diego","State":"CA","Zip":"92127"},{"Location":"JEROMES FURNITURE","Address":"16960 Mesamint St","City":"San Diego","State":"CA","Zip":"92127"},{"Location":"KARL STRAUSS","Address":"10448 Reserve Dr","City":"San Diego","State":"CA","Zip":"92127"},{"Location":"KONOSKE AKIYAMA AND BRUST","Address":"16880 W Bernardo Dr 250","City":"San Diego","State":"CA","Zip":"92127"},{"Location":"LA FITNESS #74","Address":"16913 Dove Canyon Rd","City":"San Diego","State":"CA","Zip":"92127"},{"Location":"LONGS DRUG","Address":"11655 Duenda Rd","City":"San Diego","State":"CA","Zip":"92127"},{"Location":"LOS PRIMOS MEXICAN REST.","Address":"16621 Dove Canyon Rd 111","City":"San Diego","State":"CA","Zip":"92127"},{"Location":"MILLENNIUM LABORTORIES","Address":"16981 Via Tazon","City":"San Diego","State":"CA","Zip":"92127"},{"Location":"MORGAN STANLEY 100262","Address":"16644 W Bernardo Dr 400","City":"San Diego","State":"CA","Zip":"92127"},{"Location":"NORTHOP GRUMMAN","Address":"17066 Goldentop Rd","City":"San Diego","State":"CA","Zip":"92127"},{"Location":"NORTHROP GRUMMAN","Address":"16710 Viadel Campo Court","City":"San Diego","State":"CA","Zip":"92127"},{"Location":"NORTHROP GRUMMAN","Address":"16550 W Bernardo Dr 1038","City":"San Diego","State":"CA","Zip":"92127"},{"Location":"NORTHROP GRUMMAN","Address":"16550 W Bernardo Dr 1076","City":"San Diego","State":"CA","Zip":"92127"},{"Location":"NORTHROP GRUMMAN","Address":"16765 W Bernardo Dr","City":"San Diego","State":"CA","Zip":"92127"},{"Location":"NORTHROP GRUMMAN 2","Address":"16550 W Bernardo Dr 1647","City":"San Diego","State":"CA","Zip":"92127"},{"Location":"NORTHROP GRUMMAN CORP.","Address":"16765 W Bernardo Dr","City":"San Diego","State":"CA","Zip":"92127"},{"Location":"NORTHROP GRUMMAN RB 6","Address":"16710 Via Del Campo Ct","City":"San Diego","State":"CA","Zip":"92127"},{"Location":"NORTHROP GRUMMAN RB 7","Address":"16765 W Bernardo Dr","City":"San Diego","State":"CA","Zip":"92127"},{"Location":"NORTHROP GRUMMAN RB1","Address":"17066 Goldentop Rd","City":"San Diego","State":"CA","Zip":"92127"},{"Location":"NORTHROP GRUMMAN.","Address":"16550 W Bernardo Dr 1532","City":"San Diego","State":"CA","Zip":"92127"},{"Location":"POUR SPORTS LLC","Address":"15817 Bernardo Center Dr 113","City":"San Diego","State":"CA","Zip":"92127"},{"Location":"PUPLAVA FINANCIAL SERVICES","Address":"10809 Thornmint Rd 2","City":"San Diego","State":"CA","Zip":"92127"},{"Location":"ROSINAS ITALIAN RESTAURANT","Address":"14701 Via Bettona","City":"San Diego","State":"CA","Zip":"92127"},{"Location":"SALON DE CLAUDE","Address":"16621 Dove Canyon Rd 112","City":"San Diego","State":"CA","Zip":"92127"},{"Location":"SDG&E BU EOC (SEMPRA ENERGY)","Address":"10975 Technology Pl","City":"San Diego","State":"CA","Zip":"92127"},{"Location":"SEMPRA","Address":"10975 Technology Pl","City":"San Diego","State":"CA","Zip":"92127"},{"Location":"SHAZAM ENTERTAINMENT","Address":"16955 Via Del Campo 108","City":"San Diego","State":"CA","Zip":"92127"},{"Location":"SHUSTERMAN FINANCIAL SERVICES","Address":"11545 W Bernardo Ct 202","City":"San Diego","State":"CA","Zip":"92127"},{"Location":"SONY ELECTRONICS INC.","Address":"16530 Via Esprillo","City":"San Diego","State":"CA","Zip":"92127"},{"Location":"SONY ELECTRONICS%2C INC BLDG 1","Address":"16535 Via Esprillo","City":"San Diego","State":"CA","Zip":"92127"},{"Location":"SPORT CLIPS CA415","Address":"16615 Dove Canyon Rd","City":"San Diego","State":"CA","Zip":"92127"},{"Location":"STANDARD PACIFIC HOMES","Address":"16010 Camino Del Sur","City":"San Diego","State":"CA","Zip":"92127"},{"Location":"SUSHI ON THE ROCK","Address":"16625 Dove Canyon Rd 108","City":"San Diego","State":"CA","Zip":"92127"},{"Location":"Sushi On The Rock","Address":"16625 Dove Canyon Rd","City":"San Diego","State":"CA","Zip":"92127"},{"Location":"SWINERTON BUILDERS II","Address":"16798 W Bernardo Dr","City":"San Diego","State":"CA","Zip":"92127"},{"Location":"TARANTINO PROPERTRY MANAGEMENT","Address":"17150 Via Del Campo 307","City":"San Diego","State":"CA","Zip":"92127"},{"Location":"TERADATA","Address":"17095 Via Del Campo","City":"San Diego","State":"CA","Zip":"92127"},{"Location":"THE SANTALUZ CLUB","Address":"8293 Santaluz Village Green E","City":"San Diego","State":"CA","Zip":"92127"},{"Location":"THE SANTALUZ CLUB 2","Address":"8293 Santaluz Village Green Ea","City":"San Diego","State":"CA","Zip":"92127"},{"Location":"THE WHEAT GROUP INC","Address":"17075 Camino San Bernardo","City":"San Diego","State":"CA","Zip":"92127"},{"Location":"USMC RECRUITING STATION","Address":"16644 W Bernardo Dr 440","City":"San Diego","State":"CA","Zip":"92127"},{"Location":"WINDERMERE SANTALUZ","Address":"14677 Via Bettona 120","City":"San Diego","State":"CA","Zip":"92127"},{"Location":"WREATH EQUITY LLC","Address":"10562 Craftsman Way 192","City":"San Diego","State":"CA","Zip":"92127"}]