[{"Location":"ARCH HEALTH PARTNERS","Address":"9878 Carmel Mountain Rd B","City":"San Diego","State":"CA","Zip":"92129"},{"Location":"BILLY'S HAIRCUT PLACE","Address":"9923 Carmel Mountain Road","City":"San Diego","State":"CA","Zip":"92129"},{"Location":"CHEERS BAR AND GRILL","Address":"9995 Carmel Mountain Rd 1","City":"San Diego","State":"CA","Zip":"92129"},{"Location":"COTIJAS PENASQUITOS INC","Address":"9335 Paseo Montalban","City":"San Diego","State":"CA","Zip":"92129"},{"Location":"DAVITA #3569 CARMEL MTN","Address":"9850 Carmel Mountain Rd","City":"San Diego","State":"CA","Zip":"92129"},{"Location":"DOUBLETREE GOLF RESORT","Address":"14455 Penasquitos Dr","City":"San Diego","State":"CA","Zip":"92129"},{"Location":"ERA - EAGLE ESTATES - 03090","Address":"9906 Carmel Mountain Rd","City":"San Diego","State":"CA","Zip":"92129"},{"Location":"FRESCO PIZZA AND GRILL","Address":"13350 Camino Del Sur 3a","City":"San Diego","State":"CA","Zip":"92129"},{"Location":"GOLDEN RICE EXPRESS","Address":"9995 Carmel Mountain Rd B6","City":"San Diego","State":"CA","Zip":"92129"},{"Location":"GREAT CUTS ETC","Address":"13175 Black Mountain Rd 3c","City":"San Diego","State":"CA","Zip":"92129"},{"Location":"HANA H&H  INC","Address":"9869 Carmel Mountain Rd","City":"San Diego","State":"CA","Zip":"92129"},{"Location":"HEALTHY NAILS","Address":"13173 Black Mountain Rd","City":"San Diego","State":"CA","Zip":"92129"},{"Location":"INTUIT INC #2","Address":"7535 Torrey Santa Fe Rd","City":"San Diego","State":"CA","Zip":"92129"},{"Location":"INTUIT INC #3","Address":"7545 Torrey Santa Fe Rd","City":"San Diego","State":"CA","Zip":"92129"},{"Location":"INTUIT%2C INC. #4","Address":"7555 Torrey Santa Fe Rd","City":"San Diego","State":"CA","Zip":"92129"},{"Location":"JERSEY MIKES","Address":"13173 Black Mountain Rd","City":"San Diego","State":"CA","Zip":"92129"},{"Location":"JERSEY MIKES SUBS","Address":"13173 Black Mountain Rd 6","City":"San Diego","State":"CA","Zip":"92129"},{"Location":"LUNA GRILL","Address":"7825 Highland Village Pl","City":"San Diego","State":"CA","Zip":"92129"},{"Location":"MI RANCHITO","Address":"12812 Rancho Penasquitos Blvd","City":"San Diego","State":"CA","Zip":"92129"},{"Location":"NY GIANT PIZZA2","Address":"12812 Rancho Penasquitos Blvd","City":"San Diego","State":"CA","Zip":"92129"},{"Location":"ORIENT VALLEY ALIPINO CUISINE","Address":"9951 Carmel Mountain Rd","City":"San Diego","State":"CA","Zip":"92129"},{"Location":"PENASQUITOS DENTAL","Address":"9912 Carmel Mountain Rd B","City":"San Diego","State":"CA","Zip":"92129"},{"Location":"PHO SAIGON AND GRILL","Address":"9975 Carmel Mountain Rd G1","City":"San Diego","State":"CA","Zip":"92129"},{"Location":"PITCHERS","Address":"9926 Carmel Mountain Rd","City":"San Diego","State":"CA","Zip":"92129"},{"Location":"RANCHO FAMILY YMCA","Address":"9410 Fairgrove Ln","City":"San Diego","State":"CA","Zip":"92129"},{"Location":"RODRIGOS TACO SHOP","Address":"9926 Carmel Mountain Rd","City":"San Diego","State":"CA","Zip":"92129"},{"Location":"ROUND TABLE","Address":"13292 Black Mountain Rd","City":"San Diego","State":"CA","Zip":"92129"},{"Location":"SAN DIEGO HOME COOKING INC","Address":"13211 Black Mountain Rd","City":"San Diego","State":"CA","Zip":"92129"},{"Location":"SUSHI HANA","Address":"9869 Carmel Mountain Road","City":"San Diego","State":"CA","Zip":"92129"},{"Location":"TEO BARBERSHOP 1","Address":"9888 Carmel Mountain Rd","City":"San Diego","State":"CA","Zip":"92129"},{"Location":"THE DELI STOP","Address":"13173 Black Mountain Rd 5","City":"San Diego","State":"CA","Zip":"92129"},{"Location":"THERESA SHAY & ASSOCIATE","Address":"13289 Black Mountain Rd 6","City":"San Diego","State":"CA","Zip":"92129"},{"Location":"TWISTED VINE","Address":"7845 Highland Village Pl 101","City":"San Diego","State":"CA","Zip":"92129"},{"Location":"VAPE YOSI","Address":"9926 Parmel Mountain Rd  #e","City":"San Diego","State":"CA","Zip":"92129"},{"Location":"VITORRIO'S","Address":"7875 Highland Village Pl","City":"San Diego","State":"CA","Zip":"92129"},{"Location":"VITTORIO'S","Address":"7875 Highland Village Pl","City":"San Diego","State":"CA","Zip":"92129"},{"Location":"WONDERFUL SUSHI","Address":"13185 Black Mountain Rd","City":"San Diego","State":"CA","Zip":"92129"}]