[{"Location":"GOLFTEC","Address":"16779 Bernardo Center Dr","City":"Rancho Bernardo","State":"CA","Zip":"92128"},{"Location":"24 HOUR FITNESS #160","Address":"17170 Bernardo Center Dr","City":"San Diego","State":"CA","Zip":"92128"},{"Location":"ARDEN REALTY INC","Address":"15373 Innovation Dr 160","City":"San Diego","State":"CA","Zip":"92128"},{"Location":"ASHFORD UNIVERSITY","Address":"13500 Evening Creek Dr N 600","City":"San Diego","State":"CA","Zip":"92128"},{"Location":"ATA ENGINEERING","Address":"13290 Evening Creek Dr S","City":"San Diego","State":"CA","Zip":"92128"},{"Location":"BERNARDO RESTAURANT","Address":"12457 Rancho Bernardo Rd","City":"San Diego","State":"CA","Zip":"92128"},{"Location":"BIOMED REALTY TRUST","Address":"17190 Bernado Center Dr","City":"San Diego","State":"CA","Zip":"92128"},{"Location":"BITE OF BOSTON","Address":"15721 Bernado Heights Pkwy","City":"San Diego","State":"CA","Zip":"92128"},{"Location":"BOTO SUSHI","Address":"11835 Carmel Mountain Rd 1305","City":"San Diego","State":"CA","Zip":"92128"},{"Location":"BRE PROPERTIES BERNARDO CREST","Address":"11820 Paseo Lucido","City":"San Diego","State":"CA","Zip":"92128"},{"Location":"BRIDGE POINT EDUCATION","Address":"13480 Evening Creek Dr","City":"San Diego","State":"CA","Zip":"92128"},{"Location":"BROKEN YOLK CAFE","Address":"11630 Carmel Mountain Rd","City":"San Diego","State":"CA","Zip":"92128"},{"Location":"CAFASSO MEATBALL COMPANY","Address":"12075 Carmel Mountain Rd","City":"San Diego","State":"CA","Zip":"92128"},{"Location":"CAFE LUNA","Address":"11040 Rancho Carmel Dr 2","City":"San Diego","State":"CA","Zip":"92128"},{"Location":"CAFE LUNA","Address":"11040 Rancho Carmel Dr","City":"San Diego","State":"CA","Zip":"92128"},{"Location":"CARVERS","Address":"11940 Bernardo Plaza Dr","City":"San Diego","State":"CA","Zip":"92128"},{"Location":"CC OF RANCHO BERNARDO","Address":"12280 Greens East Rd","City":"San Diego","State":"CA","Zip":"92128"},{"Location":"CHEF CHINS RANCHO BERNARDO","Address":"11828 Rancho Bernardo Rd","City":"San Diego","State":"CA","Zip":"92128"},{"Location":"CHUZE FITNESS","Address":"11985 Bernardo Plaza Dr","City":"San Diego","State":"CA","Zip":"92128"},{"Location":"CLAIM JUMPER #11","Address":"12384 Carmel Mountain Rd","City":"San Diego","State":"CA","Zip":"92128"},{"Location":"CLARK HENDERSON DENTAL","Address":"16959 Bernardo Center Dr 103","City":"San Diego","State":"CA","Zip":"92128"},{"Location":"CLUB ONE LLC #2","Address":"12171 World Trade Dr","City":"San Diego","State":"CA","Zip":"92128"},{"Location":"CONWAYS IRISH PUB","Address":"11040 Rancho Carmel Dr 3","City":"San Diego","State":"CA","Zip":"92128"},{"Location":"CORAM INFUSION SERVICES","Address":"12310 World Trade Dr 100","City":"San Diego","State":"CA","Zip":"92128"},{"Location":"CRES INSURANCE SERVICES","Address":"15010 Avenue Of Science 100","City":"San Diego","State":"CA","Zip":"92128"},{"Location":"DENNYS","Address":"16686 Bernardo Center Dr","City":"San Diego","State":"CA","Zip":"92128"},{"Location":"DENTAL CARE OF RANCHO BE","Address":"12120 Alta Carmel Ct 410c","City":"San Diego","State":"CA","Zip":"92128"},{"Location":"DIXON & THURSTON","Address":"11616 Iberia Pl","City":"San Diego","State":"CA","Zip":"92128"},{"Location":"EUROPEAN AUTO-CARE","Address":"11639 Iberia Pl","City":"San Diego","State":"CA","Zip":"92128"},{"Location":"FIDELITY INVESTMENTS 354","Address":"16656 Bernardo Center Dr","City":"San Diego","State":"CA","Zip":"92128"},{"Location":"FIRESTONE #021784","Address":"16646 Bernardo Center Dr","City":"San Diego","State":"CA","Zip":"92128"},{"Location":"FISH DISTRICT INC.","Address":"12002 Carmel Mountain Rd 268","City":"San Diego","State":"CA","Zip":"92128"},{"Location":"FIT ATHLETIC CMAR LLC","Address":"12171 World Trade Dr","City":"San Diego","State":"CA","Zip":"92128"},{"Location":"FITNESS TOGETHER","Address":"16389 Bernardo Center Dr","City":"San Diego","State":"CA","Zip":"92128"},{"Location":"GOLF GALAXY 3084","Address":"11485 Carmel Mountain Rd","City":"San Diego","State":"CA","Zip":"92128"},{"Location":"HARCOURTS ELITE RESIDENTIAL","Address":"11828 Rancho Bernardo Rd 201","City":"San Diego","State":"CA","Zip":"92128"},{"Location":"HARDIE ORTHODONTICS","Address":"16776 Bernardo Center Dr 103","City":"San Diego","State":"CA","Zip":"92128"},{"Location":"HAYWOOOD'S UNLIMITED PROMOTION","Address":"10155 Rancho Carmel Dr","City":"San Diego","State":"CA","Zip":"92128"},{"Location":"HIBACHI BUFFET","Address":"16785 Bernardo Center Dr","City":"San Diego","State":"CA","Zip":"92128"},{"Location":"HILTON GARDEN INN SAN DI","Address":"17240 Bernardo Center Dr","City":"San Diego","State":"CA","Zip":"92128"},{"Location":"HITACHI DATA SYSTEMS","Address":"15231 Ave Of Science","City":"San Diego","State":"CA","Zip":"92128"},{"Location":"HOLLYWOOD TANS","Address":"11465 Carmel Mountain Rd","City":"San Diego","State":"CA","Zip":"92128"},{"Location":"HOPE UNITED METHODIST CHURCH","Address":"16550 Bernardo Heights Pkwy","City":"San Diego","State":"CA","Zip":"92128"},{"Location":"ID ANALYTICS 1","Address":"15253 Avenue Of Science","City":"San Diego","State":"CA","Zip":"92128"},{"Location":"ISLANDS RESTAURANT #014","Address":"12224 Carmel Mountain Rd","City":"San Diego","State":"CA","Zip":"92128"},{"Location":"JAPANESE AUTO-CARE","Address":"11649 Iberia Pl","City":"San Diego","State":"CA","Zip":"92128"},{"Location":"KILROY SABRE SPRINGS","Address":"13520 Evening Creek Dr N 120","City":"San Diego","State":"CA","Zip":"92128"},{"Location":"L & M TIRE COMPANY INC.","Address":"16556 Bernardo Center Dr","City":"San Diego","State":"CA","Zip":"92128"},{"Location":"LAB CORP","Address":"13112 Evening Creek Dr S","City":"San Diego","State":"CA","Zip":"92128"},{"Location":"LOS PRIMOS MEXICAN REST.","Address":"16711 Bernardo Center Dr","City":"San Diego","State":"CA","Zip":"92128"},{"Location":"LUCIA MANAGEMENT COMPANY","Address":"13520 Evening Creek Dr N 300","City":"San Diego","State":"CA","Zip":"92128"},{"Location":"M & M RESTAURANT LLC","Address":"12045 Carmel Mountain Rd","City":"San Diego","State":"CA","Zip":"92128"},{"Location":"MARSHAL N CARL FINANCIAL","Address":"11956 Bernardo Plaza Dr","City":"San Diego","State":"CA","Zip":"92128"},{"Location":"MEN'S WEARHOUSE #2391","Address":"11950 Carmel Mountain Rd","City":"San Diego","State":"CA","Zip":"92128"},{"Location":"MERRILL LYNCH CA0-813-01-00","Address":"11811 Bernardo Plaza Ct","City":"San Diego","State":"CA","Zip":"92128"},{"Location":"NATIONAL ASSET DIRECT","Address":"13520 Evening Creek Dr N 400","City":"San Diego","State":"CA","Zip":"92128"},{"Location":"NORDSTROM RACK CARMEL MT","Address":"11940 Carmel Mountain Rd 100","City":"San Diego","State":"CA","Zip":"92128"},{"Location":"OAK   LEAF   INSURANCE","Address":"16776 Bernardo Center Dr 203","City":"San Diego","State":"CA","Zip":"92128"},{"Location":"OHARLEYS BREW HOUSE","Address":"12165 Alta Carmel Ct 110","City":"San Diego","State":"CA","Zip":"92128"},{"Location":"PACIFIC TRUST BANK","Address":"16840 Bernardo Center Dr 100","City":"San Diego","State":"CA","Zip":"92128"},{"Location":"PHILEAS FOGG'S","Address":"11385 Poway Rd 100","City":"San Diego","State":"CA","Zip":"92128"},{"Location":"PHO CA DAO","Address":"11808 Rancho Bernardo Rd 100","City":"San Diego","State":"CA","Zip":"92128"},{"Location":"PHO KIM","Address":"16769 Bernardo Center Dr K9","City":"San Diego","State":"CA","Zip":"92128"},{"Location":"PRO BARBER","Address":"16485 Bernardo Center Dr","City":"San Diego","State":"CA","Zip":"92128"},{"Location":"R B SUSHI","Address":"16405        Bernado Center Dr","City":"San Diego","State":"CA","Zip":"92128"},{"Location":"RANCHO BERNADO SHOE REPAIR","Address":"16763 Bernado Center Dr N3","City":"San Diego","State":"CA","Zip":"92128"},{"Location":"RANCHO BERNARDO INN","Address":"17550 Bernardo Oaks Dr","City":"San Diego","State":"CA","Zip":"92128"},{"Location":"RANCHO BERNARDO INN (0034264)","Address":"17550 Bernardo Oaks Dr","City":"San Diego","State":"CA","Zip":"92128"},{"Location":"RANCHO BERNARDO SURGERY CENTER","Address":"17190 Bernardo Center Dr","City":"San Diego","State":"CA","Zip":"92128"},{"Location":"RANCHO BERNARDO SWIM & T","Address":"16955 Bernardo Oaks Dr","City":"San Diego","State":"CA","Zip":"92128"},{"Location":"RAYMOND CARPENTER DDS","Address":"16766 Bernardo Center Dr 212","City":"San Diego","State":"CA","Zip":"92128"},{"Location":"RB TIRE BRAKE1","Address":"11645 Iberia Pl","City":"San Diego","State":"CA","Zip":"92128"},{"Location":"REDZONE","Address":"15373 Innovation Dr 230","City":"San Diego","State":"CA","Zip":"92128"},{"Location":"RESIDENCE INN (0065035)","Address":"11002 Rancho Carmel Dr","City":"San Diego","State":"CA","Zip":"92128"},{"Location":"ROBERT FOLK DDS","Address":"11777 Bernardo Plaza Ct 209","City":"San Diego","State":"CA","Zip":"92128"},{"Location":"ROGER NEDROW","Address":"11610 Iberia Pl 200","City":"San Diego","State":"CA","Zip":"92128"},{"Location":"ROUND TABLE","Address":"16761 Bernardo Center Dr","City":"San Diego","State":"CA","Zip":"92128"},{"Location":"SAN RAFAEL PARISH","Address":"17252 Bernardo Center Dr","City":"San Diego","State":"CA","Zip":"92128"},{"Location":"SAN RAFAEL PASTORAL CTR","Address":"17250 Bernardo Center Dr","City":"San Diego","State":"CA","Zip":"92128"},{"Location":"SCOTTRADE 04C","Address":"11740 Carmel Mountain Rd","City":"San Diego","State":"CA","Zip":"92128"},{"Location":"SEACOAST COMMERCE BANK","Address":"11939 Rancho Bernardo Rd 200","City":"San Diego","State":"CA","Zip":"92128"},{"Location":"SERENITY NAILS AND SPA","Address":"16588 Bernardo Center Dr 130","City":"San Diego","State":"CA","Zip":"92128"},{"Location":"SOMBRERO MEXICAN FOOD","Address":"11040 Rancho Carmel Dr","City":"San Diego","State":"CA","Zip":"92128"},{"Location":"SPORTS AUTHORITY 644","Address":"11690 Carmel Mountain Rd","City":"San Diego","State":"CA","Zip":"92128"},{"Location":"STIR FRESH","Address":"17120 Bernardo Center Dr","City":"San Diego","State":"CA","Zip":"92128"},{"Location":"THE BARREL ROOM","Address":"16765 Bernardo Center Dr 1","City":"San Diego","State":"CA","Zip":"92128"},{"Location":"TOTAL VISION CARE","Address":"11717 Bernardo Plaza Ct","City":"San Diego","State":"CA","Zip":"92128"},{"Location":"TRADE  SERVICE  COMPANY","Address":"13280 Evening Creek Dr S 200","City":"San Diego","State":"CA","Zip":"92128"},{"Location":"UNIONBANC","Address":"16880 Bernardo Center Dr","City":"San Diego","State":"CA","Zip":"92128"},{"Location":"URGE AMERICAN GASTRO PUB","Address":"16761 Bernardo Center Dr M1","City":"San Diego","State":"CA","Zip":"92128"},{"Location":"WINDERMERE HOMES ESTATES","Address":"16783 Bernardo Center Dr","City":"San Diego","State":"CA","Zip":"92128"},{"Location":"WINDERMERE THE PLAZA","Address":"16777 Bernardo Center Dr","City":"San Diego","State":"CA","Zip":"92128"},{"Location":"WINGS N THINGS CM","Address":"12075 Carmel Mountain Rd 201","City":"San Diego","State":"CA","Zip":"92128"},{"Location":"GOLFTEC","Address":"16779 Bernardo Center Dr","City":"Rancho Bernardo","State":"CA","Zip":"92128"},{"Location":"24 HOUR FITNESS #160","Address":"17170 Bernardo Center Dr","City":"San Diego","State":"CA","Zip":"92128"},{"Location":"ARDEN REALTY INC","Address":"15373 Innovation Dr 160","City":"San Diego","State":"CA","Zip":"92128"},{"Location":"ASHFORD UNIVERSITY","Address":"13500 Evening Creek Dr N 600","City":"San Diego","State":"CA","Zip":"92128"},{"Location":"ATA ENGINEERING","Address":"13290 Evening Creek Dr S","City":"San Diego","State":"CA","Zip":"92128"},{"Location":"BERNARDO RESTAURANT","Address":"12457 Rancho Bernardo Rd","City":"San Diego","State":"CA","Zip":"92128"},{"Location":"BIOMED REALTY TRUST","Address":"17190 Bernado Center Dr","City":"San Diego","State":"CA","Zip":"92128"},{"Location":"BITE OF BOSTON","Address":"15721 Bernado Heights Pkwy","City":"San Diego","State":"CA","Zip":"92128"},{"Location":"BOTO SUSHI","Address":"11835 Carmel Mountain Rd 1305","City":"San Diego","State":"CA","Zip":"92128"},{"Location":"BRE PROPERTIES BERNARDO CREST","Address":"11820 Paseo Lucido","City":"San Diego","State":"CA","Zip":"92128"},{"Location":"BRIDGE POINT EDUCATION","Address":"13480 Evening Creek Dr","City":"San Diego","State":"CA","Zip":"92128"},{"Location":"BROKEN YOLK CAFE","Address":"11630 Carmel Mountain Rd","City":"San Diego","State":"CA","Zip":"92128"},{"Location":"CAFASSO MEATBALL COMPANY","Address":"12075 Carmel Mountain Rd","City":"San Diego","State":"CA","Zip":"92128"},{"Location":"CAFE LUNA","Address":"11040 Rancho Carmel Dr","City":"San Diego","State":"CA","Zip":"92128"},{"Location":"CAFE LUNA","Address":"11040 Rancho Carmel Dr 2","City":"San Diego","State":"CA","Zip":"92128"},{"Location":"CARVERS","Address":"11940 Bernardo Plaza Dr","City":"San Diego","State":"CA","Zip":"92128"},{"Location":"CC OF RANCHO BERNARDO","Address":"12280 Greens East Rd","City":"San Diego","State":"CA","Zip":"92128"},{"Location":"CHEF CHINS RANCHO BERNARDO","Address":"11828 Rancho Bernardo Rd","City":"San Diego","State":"CA","Zip":"92128"},{"Location":"CHUZE FITNESS","Address":"11985 Bernardo Plaza Dr","City":"San Diego","State":"CA","Zip":"92128"},{"Location":"CLAIM JUMPER #11","Address":"12384 Carmel Mountain Rd","City":"San Diego","State":"CA","Zip":"92128"},{"Location":"CLARK HENDERSON DENTAL","Address":"16959 Bernardo Center Dr 103","City":"San Diego","State":"CA","Zip":"92128"},{"Location":"CLUB ONE LLC #2","Address":"12171 World Trade Dr","City":"San Diego","State":"CA","Zip":"92128"},{"Location":"CONWAYS IRISH PUB","Address":"11040 Rancho Carmel Dr 3","City":"San Diego","State":"CA","Zip":"92128"},{"Location":"CORAM INFUSION SERVICES","Address":"12310 World Trade Dr 100","City":"San Diego","State":"CA","Zip":"92128"},{"Location":"CRES INSURANCE SERVICES","Address":"15010 Avenue Of Science 100","City":"San Diego","State":"CA","Zip":"92128"},{"Location":"DENNYS","Address":"16686 Bernardo Center Dr","City":"San Diego","State":"CA","Zip":"92128"},{"Location":"DENTAL CARE OF RANCHO BE","Address":"12120 Alta Carmel Ct 410c","City":"San Diego","State":"CA","Zip":"92128"},{"Location":"DIXON & THURSTON","Address":"11616 Iberia Pl","City":"San Diego","State":"CA","Zip":"92128"},{"Location":"EUROPEAN AUTO-CARE","Address":"11639 Iberia Pl","City":"San Diego","State":"CA","Zip":"92128"},{"Location":"FIDELITY INVESTMENTS 354","Address":"16656 Bernardo Center Dr","City":"San Diego","State":"CA","Zip":"92128"},{"Location":"FIRESTONE #021784","Address":"16646 Bernardo Center Dr","City":"San Diego","State":"CA","Zip":"92128"},{"Location":"FISH DISTRICT INC.","Address":"12002 Carmel Mountain Rd 268","City":"San Diego","State":"CA","Zip":"92128"},{"Location":"FIT ATHLETIC CMAR LLC","Address":"12171 World Trade Dr","City":"San Diego","State":"CA","Zip":"92128"},{"Location":"FITNESS TOGETHER","Address":"16389 Bernardo Center Dr","City":"San Diego","State":"CA","Zip":"92128"},{"Location":"GOLF GALAXY 3084","Address":"11485 Carmel Mountain Rd","City":"San Diego","State":"CA","Zip":"92128"},{"Location":"HARCOURTS ELITE RESIDENTIAL","Address":"11828 Rancho Bernardo Rd 201","City":"San Diego","State":"CA","Zip":"92128"},{"Location":"HARDIE ORTHODONTICS","Address":"16776 Bernardo Center Dr 103","City":"San Diego","State":"CA","Zip":"92128"},{"Location":"HAYWOOOD'S UNLIMITED PROMOTION","Address":"10155 Rancho Carmel Dr","City":"San Diego","State":"CA","Zip":"92128"},{"Location":"HIBACHI BUFFET","Address":"16785 Bernardo Center Dr","City":"San Diego","State":"CA","Zip":"92128"},{"Location":"HILTON GARDEN INN SAN DI","Address":"17240 Bernardo Center Dr","City":"San Diego","State":"CA","Zip":"92128"},{"Location":"HITACHI DATA SYSTEMS","Address":"15231 Ave Of Science","City":"San Diego","State":"CA","Zip":"92128"},{"Location":"HOLLYWOOD TANS","Address":"11465 Carmel Mountain Rd","City":"San Diego","State":"CA","Zip":"92128"},{"Location":"HOPE UNITED METHODIST CHURCH","Address":"16550 Bernardo Heights Pkwy","City":"San Diego","State":"CA","Zip":"92128"},{"Location":"ID ANALYTICS 1","Address":"15253 Avenue Of Science","City":"San Diego","State":"CA","Zip":"92128"},{"Location":"ISLANDS RESTAURANT #014","Address":"12224 Carmel Mountain Rd","City":"San Diego","State":"CA","Zip":"92128"},{"Location":"JAPANESE AUTO-CARE","Address":"11649 Iberia Pl","City":"San Diego","State":"CA","Zip":"92128"},{"Location":"KILROY SABRE SPRINGS","Address":"13520 Evening Creek Dr N 120","City":"San Diego","State":"CA","Zip":"92128"},{"Location":"L & M TIRE COMPANY INC.","Address":"16556 Bernardo Center Dr","City":"San Diego","State":"CA","Zip":"92128"},{"Location":"LAB CORP","Address":"13112 Evening Creek Dr S","City":"San Diego","State":"CA","Zip":"92128"},{"Location":"LOS PRIMOS MEXICAN REST.","Address":"16711 Bernardo Center Dr","City":"San Diego","State":"CA","Zip":"92128"},{"Location":"LUCIA MANAGEMENT COMPANY","Address":"13520 Evening Creek Dr N 300","City":"San Diego","State":"CA","Zip":"92128"},{"Location":"M & M RESTAURANT LLC","Address":"12045 Carmel Mountain Rd","City":"San Diego","State":"CA","Zip":"92128"},{"Location":"MARSHAL N CARL FINANCIAL","Address":"11956 Bernardo Plaza Dr","City":"San Diego","State":"CA","Zip":"92128"},{"Location":"MEN'S WEARHOUSE #2391","Address":"11950 Carmel Mountain Rd","City":"San Diego","State":"CA","Zip":"92128"},{"Location":"MERRILL LYNCH CA0-813-01-00","Address":"11811 Bernardo Plaza Ct","City":"San Diego","State":"CA","Zip":"92128"},{"Location":"NATIONAL ASSET DIRECT","Address":"13520 Evening Creek Dr N 400","City":"San Diego","State":"CA","Zip":"92128"},{"Location":"NORDSTROM RACK CARMEL MT","Address":"11940 Carmel Mountain Rd 100","City":"San Diego","State":"CA","Zip":"92128"},{"Location":"OAK   LEAF   INSURANCE","Address":"16776 Bernardo Center Dr 203","City":"San Diego","State":"CA","Zip":"92128"},{"Location":"OHARLEYS BREW HOUSE","Address":"12165 Alta Carmel Ct 110","City":"San Diego","State":"CA","Zip":"92128"},{"Location":"PACIFIC TRUST BANK","Address":"16840 Bernardo Center Dr 100","City":"San Diego","State":"CA","Zip":"92128"},{"Location":"PHILEAS FOGG'S","Address":"11385 Poway Rd 100","City":"San Diego","State":"CA","Zip":"92128"},{"Location":"PHO CA DAO","Address":"11808 Rancho Bernardo Rd 100","City":"San Diego","State":"CA","Zip":"92128"},{"Location":"PHO KIM","Address":"16769 Bernardo Center Dr K9","City":"San Diego","State":"CA","Zip":"92128"},{"Location":"PRO BARBER","Address":"16485 Bernardo Center Dr","City":"San Diego","State":"CA","Zip":"92128"},{"Location":"R B FINANCIAL GROUP","Address":"16766 Bernardo Center Dr","City":"San Diego","State":"CA","Zip":"92128"},{"Location":"R B SUSHI","Address":"16405        Bernado Center Dr","City":"San Diego","State":"CA","Zip":"92128"},{"Location":"RANCHO BERNADO SHOE REPAIR","Address":"16763 Bernado Center Dr N3","City":"San Diego","State":"CA","Zip":"92128"},{"Location":"RANCHO BERNARDO INN","Address":"17550 Bernardo Oaks Dr","City":"San Diego","State":"CA","Zip":"92128"},{"Location":"RANCHO BERNARDO INN (0034264)","Address":"17550 Bernardo Oaks Dr","City":"San Diego","State":"CA","Zip":"92128"},{"Location":"RANCHO BERNARDO SURGERY CENTER","Address":"17190 Bernardo Center Dr","City":"San Diego","State":"CA","Zip":"92128"},{"Location":"RANCHO BERNARDO SWIM & T","Address":"16955 Bernardo Oaks Dr","City":"San Diego","State":"CA","Zip":"92128"},{"Location":"RAYMOND CARPENTER DDS","Address":"16766 Bernardo Center Dr 212","City":"San Diego","State":"CA","Zip":"92128"},{"Location":"RB TIRE BRAKE1","Address":"11645 Iberia Pl","City":"San Diego","State":"CA","Zip":"92128"},{"Location":"REDZONE","Address":"15373 Innovation Dr 230","City":"San Diego","State":"CA","Zip":"92128"},{"Location":"RESIDENCE INN (0065035)","Address":"11002 Rancho Carmel Dr","City":"San Diego","State":"CA","Zip":"92128"},{"Location":"ROBERT FOLK DDS","Address":"11777 Bernardo Plaza Ct 209","City":"San Diego","State":"CA","Zip":"92128"},{"Location":"ROGER NEDROW","Address":"11610 Iberia Pl 200","City":"San Diego","State":"CA","Zip":"92128"},{"Location":"ROUND TABLE","Address":"16761 Bernardo Center Dr","City":"San Diego","State":"CA","Zip":"92128"},{"Location":"SAN RAFAEL PARISH","Address":"17252 Bernardo Center Dr","City":"San Diego","State":"CA","Zip":"92128"},{"Location":"SAN RAFAEL PASTORAL CTR","Address":"17250 Bernardo Center Dr","City":"San Diego","State":"CA","Zip":"92128"},{"Location":"SCOTTRADE 04C","Address":"11740 Carmel Mountain Rd","City":"San Diego","State":"CA","Zip":"92128"},{"Location":"SEACOAST COMMERCE BANK","Address":"11939 Rancho Bernardo Rd 200","City":"San Diego","State":"CA","Zip":"92128"},{"Location":"SERENITY NAILS AND SPA","Address":"16588 Bernardo Center Dr 130","City":"San Diego","State":"CA","Zip":"92128"},{"Location":"SOMBRERO MEXICAN FOOD","Address":"11040 Rancho Carmel Dr","City":"San Diego","State":"CA","Zip":"92128"},{"Location":"SPORTS AUTHORITY 644","Address":"11690 Carmel Mountain Rd","City":"San Diego","State":"CA","Zip":"92128"},{"Location":"STIR FRESH","Address":"17120 Bernardo Center Dr","City":"San Diego","State":"CA","Zip":"92128"},{"Location":"THE BARREL ROOM","Address":"16765 Bernardo Center Dr 1","City":"San Diego","State":"CA","Zip":"92128"},{"Location":"TOTAL VISION CARE","Address":"11717 Bernardo Plaza Ct","City":"San Diego","State":"CA","Zip":"92128"},{"Location":"TRADE  SERVICE  COMPANY","Address":"13280 Evening Creek Dr S 200","City":"San Diego","State":"CA","Zip":"92128"},{"Location":"UNIONBANC","Address":"16880 Bernardo Center Dr","City":"San Diego","State":"CA","Zip":"92128"},{"Location":"URGE AMERICAN GASTRO PUB","Address":"16761 Bernardo Center Dr M1","City":"San Diego","State":"CA","Zip":"92128"},{"Location":"WINDERMERE HOMES ESTATES","Address":"16783 Bernardo Center Dr","City":"San Diego","State":"CA","Zip":"92128"},{"Location":"WINDERMERE THE PLAZA","Address":"16777 Bernardo Center Dr","City":"San Diego","State":"CA","Zip":"92128"},{"Location":"WINGS N THINGS CM","Address":"12075 Carmel Mountain Rd 201","City":"San Diego","State":"CA","Zip":"92128"}]