[{"Location":"ANDIAMO","Address":"5950 Santo Rd A","City":"San Diego","State":"CA","Zip":"92124"},{"Location":"CAL BANK & TRUST - SD","Address":"9775 Clairemont Mesa Blvd","City":"San Diego","State":"CA","Zip":"92124"},{"Location":"CHAMPION FIELD","Address":"10492 Clairemont Mesa Blvd","City":"San Diego","State":"CA","Zip":"92124"},{"Location":"CHIBA II RESTAURANT","Address":"10645 Tierrasanta Blvd H","City":"San Diego","State":"CA","Zip":"92124"},{"Location":"CHILE PEPPERS MEXICAN EATERY","Address":"10425 Tierrasanta Blvd 107","City":"San Diego","State":"CA","Zip":"92124"},{"Location":"EDA MAMI JAPANESE FUSION SUSHI","Address":"5950 Santo Rd G","City":"San Diego","State":"CA","Zip":"92124"},{"Location":"JP'S PUB","Address":"10436 Clairemont Mesa Blvd","City":"San Diego","State":"CA","Zip":"92124"},{"Location":"NEX MURPHY CANYON","Address":"3401 Santo Rd","City":"San Diego","State":"CA","Zip":"92124"},{"Location":"PACIFIC COAST COMMERCIAL","Address":"6050 Santo Rd","City":"San Diego","State":"CA","Zip":"92124"},{"Location":"ROUND TABLE PIZZA","Address":"10415 Tierrasanta Blvd","City":"San Diego","State":"CA","Zip":"92124"},{"Location":"SANTO SUSHI","Address":"10428 Clairemont Mesa Blvd","City":"San Diego","State":"CA","Zip":"92124"},{"Location":"TIERRASANTA BARBER","Address":"10464 Clairemont Mesa Blvd","City":"San Diego","State":"CA","Zip":"92124"},{"Location":"TIERRASANTA VISION CENTER","Address":"5990 Santo Rd","City":"San Diego","State":"CA","Zip":"92124"}]