[{"Location":"A & M INVESTMENT MANAGEMENT","Address":"12121 Scripps Summit Dr 350","City":"San Diego","State":"CA","Zip":"92131"},{"Location":"A COMPANY INTEL SUPPORT BAT","Address":"9955 Pomerado Rd 20302","City":"San Diego","State":"CA","Zip":"92131"},{"Location":"ARROW SAN DIEGO OFFICE","Address":"10089 Willow Creek Rd 250","City":"San Diego","State":"CA","Zip":"92131"},{"Location":"AUSGAR TECHNOLOGIES","Address":"10721 Treena St","City":"San Diego","State":"CA","Zip":"92131"},{"Location":"BALLAST POINT BREWING","Address":"10051 Old Grove Rd B","City":"San Diego","State":"CA","Zip":"92131"},{"Location":"BEST NAILS AND SPA","Address":"12030 Scripps Summit Dr","City":"San Diego","State":"CA","Zip":"92131"},{"Location":"BOARD AND BREW SR","Address":"9880 Hibert St E3","City":"San Diego","State":"CA","Zip":"92131"},{"Location":"BRE PROPERTIES","Address":"10776 Scripps Ranch Blvd","City":"San Diego","State":"CA","Zip":"92131"},{"Location":"BRUSKI LLP","Address":"9844 Hibert St G10","City":"San Diego","State":"CA","Zip":"92131"},{"Location":"CALIBANZO","Address":"9880 Hibert St E2","City":"San Diego","State":"CA","Zip":"92131"},{"Location":"CALIFORNIA DEPARTMENT OF INSUR","Address":"10021 Willow Creek Rd 100","City":"San Diego","State":"CA","Zip":"92131"},{"Location":"CARL ZEISS VISION","Address":"12121 Scripps Summit Dr 400","City":"San Diego","State":"CA","Zip":"92131"},{"Location":"CHILI'S #0701","Address":"10184 Scripps Poway Parkway","City":"San Diego","State":"CA","Zip":"92131"},{"Location":"COLLIERS INTERNATIONAL","Address":"9820 Willow Creek Rd 300","City":"San Diego","State":"CA","Zip":"92131"},{"Location":"CORE CONSULTING GROUP INC","Address":"10660 Scripps Ranch Blvd 200","City":"San Diego","State":"CA","Zip":"92131"},{"Location":"CORELOGIC SOLUTIONS","Address":"10277 Scripps Ranch Blvd","City":"San Diego","State":"CA","Zip":"92131"},{"Location":"COSTCO FIRE PROTECTION","Address":"10695 Treena St 105","City":"San Diego","State":"CA","Zip":"92131"},{"Location":"DART NEUROSCIENCE","Address":"12278 Scripps Summit Dr","City":"San Diego","State":"CA","Zip":"92131"},{"Location":"DR CHRISTOPHER MAULIK","Address":"12112 Scripps Summit Dr F","City":"San Diego","State":"CA","Zip":"92131"},{"Location":"DYE PRECISION","Address":"10637 Scripps Summit Ct","City":"San Diego","State":"CA","Zip":"92131"},{"Location":"EF INTERNATIONAL","Address":"10455 Pomerado Rd","City":"San Diego","State":"CA","Zip":"92131"},{"Location":"ESCAPE AT TIFFANY NAIL SALON 2","Address":"9910 Mira Mesa Blvd","City":"San Diego","State":"CA","Zip":"92131"},{"Location":"FILIPPIS PIZZA GROTTO","Address":"9969 Mira Mesa Blvd","City":"San Diego","State":"CA","Zip":"92131"},{"Location":"FITNESS QUEST 10","Address":"9972 Scripps Ranch Blvd","City":"San Diego","State":"CA","Zip":"92131"},{"Location":"HAPPY NAIL & SPA","Address":"10755 Scripps Poway Pkwy C","City":"San Diego","State":"CA","Zip":"92131"},{"Location":"HD SUPPLY FACILITIES MAINT","Address":"10641 Scripps Summit Ct","City":"San Diego","State":"CA","Zip":"92131"},{"Location":"HEILIND ELECTRONICS","Address":"10636 Scripps Summit Ct 200","City":"San Diego","State":"CA","Zip":"92131"},{"Location":"INTEL CORPORATION","Address":"12220 Scripps Summit Dr","City":"San Diego","State":"CA","Zip":"92131"},{"Location":"JB INC","Address":"11397 Swan Canyon Rd","City":"San Diego","State":"CA","Zip":"92131"},{"Location":"JEROMES FURNITURE","Address":"10724 Treena St","City":"San Diego","State":"CA","Zip":"92131"},{"Location":"JUST TENNIS","Address":"9984 Scripps Ranch Blvd","City":"San Diego","State":"CA","Zip":"92131"},{"Location":"KAPPA SUSHI","Address":"9870 Hibert St D13","City":"San Diego","State":"CA","Zip":"92131"},{"Location":"LA BASTIDE BISTRO","Address":"10006 Scripps Ranch Blvd 104","City":"San Diego","State":"CA","Zip":"92131"},{"Location":"LG ELECTRONICS MOBILE CO","Address":"10225 Willow Creek Rd","City":"San Diego","State":"CA","Zip":"92131"},{"Location":"MEDICAL BATTALION","Address":"9955 Pomerado Rd","City":"San Diego","State":"CA","Zip":"92131"},{"Location":"MEDIMPACT","Address":"10181 Scripps Gateway Ct","City":"San Diego","State":"CA","Zip":"92131"},{"Location":"MORRIS SULLIVAN LAW","Address":"9915 Mira Mesa Blvd 300","City":"San Diego","State":"CA","Zip":"92131"},{"Location":"NOSC SAN DIEGO","Address":"9955 Pomeoado Rd","City":"San Diego","State":"CA","Zip":"92131"},{"Location":"O SULLIVAN BROS BREWING CO","Address":"9879 Hibert St F","City":"San Diego","State":"CA","Zip":"92131"},{"Location":"PAZZOS INC","Address":"10299 Scripps Trl I","City":"San Diego","State":"CA","Zip":"92131"},{"Location":"PIZZA REV","Address":"10393 Spring Canyon Rd","City":"San Diego","State":"CA","Zip":"92131"},{"Location":"PLAY IT AGAIN SPORTS","Address":"9841 Mira Mesa Blvd","City":"San Diego","State":"CA","Zip":"92131"},{"Location":"SAN DIEGO GAMES AND COMI","Address":"9910 Mira Mesa Blvd C","City":"San Diego","State":"CA","Zip":"92131"},{"Location":"SAN DIEGO NATIONAL BANK","Address":"10020 Scripps Ranch Blvd","City":"San Diego","State":"CA","Zip":"92131"},{"Location":"SANCTUARY LOUNGE","Address":"12090 Scripps Summit Dr","City":"San Diego","State":"CA","Zip":"92131"},{"Location":"SANSAI JAPANESE GRILL","Address":"10545 Scripps Poway Pkwy","City":"San Diego","State":"CA","Zip":"92131"},{"Location":"SANTANAS GRILL ICN","Address":"12010 Scripps Summit Dr D","City":"San Diego","State":"CA","Zip":"92131"},{"Location":"SANTORINI AND MORE","Address":"10545 Scripps Poway Pkwy D","City":"San Diego","State":"CA","Zip":"92131"},{"Location":"SCRIPPS MESA FAMILY &","Address":"9999 Mira Mesa Blvd 105","City":"San Diego","State":"CA","Zip":"92131"},{"Location":"SCRIPPS POWAY DENTAL CARE","Address":"10549 Scripps Poway Pkwy I","City":"San Diego","State":"CA","Zip":"92131"},{"Location":"SCRIPPS RANCH FAMILY DENTISTY","Address":"10299 Scripps Trl F","City":"San Diego","State":"CA","Zip":"92131"},{"Location":"SEASIDE PED. DENTISTRY","Address":"12036 Scripps Highlands Dr 100","City":"San Diego","State":"CA","Zip":"92131"},{"Location":"SHINA DINESH PATEL DDS","Address":"10672 Wexford St 285","City":"San Diego","State":"CA","Zip":"92131"},{"Location":"SHOZEN & MANPO","Address":"9906 Mira Mesa Blvd A","City":"San Diego","State":"CA","Zip":"92131"},{"Location":"SIEMENS INDUSTRIES","Address":"10100 Willow Creek Rd","City":"San Diego","State":"CA","Zip":"92131"},{"Location":"SOMBRERO MEXICAN FOOD","Address":"12090 Scripps Summit Dr","City":"San Diego","State":"CA","Zip":"92131"},{"Location":"SPORT CLIPS CA412","Address":"10549 Scripps Poway Pkwy 100","City":"San Diego","State":"CA","Zip":"92131"},{"Location":"STANDARD PACIFIC HOMES","Address":"15781 Bacara Ct","City":"San Diego","State":"CA","Zip":"92131"},{"Location":"STIX HOLDINGS 756","Address":"10755 Scripps Poway Pkwy 8i","City":"San Diego","State":"CA","Zip":"92131"},{"Location":"SUPERCUTS","Address":"9872 Hibert St D3","City":"San Diego","State":"CA","Zip":"92131"},{"Location":"THE TAILHOOK ASSOC","Address":"9696 Businesspark Ave","City":"San Diego","State":"CA","Zip":"92131"},{"Location":"TIRE KINGDOM B-5817","Address":"12093 Scripps Summit Dr","City":"San Diego","State":"CA","Zip":"92131"},{"Location":"TODO SUSHI","Address":"9823 Carroll Canyon Rd","City":"San Diego","State":"CA","Zip":"92131"},{"Location":"WALTERS WHOLESALE","Address":"10031 Old Grove Rd","City":"San Diego","State":"CA","Zip":"92131"},{"Location":"WHICH WICH SUPERIOR SANDWICH","Address":"10549 Scripps Poway Pkwy B2","City":"San Diego","State":"CA","Zip":"92131"},{"Location":"Y H  INC","Address":"12010 Scripps Summit Dr B","City":"San Diego","State":"CA","Zip":"92131"},{"Location":"YAMADA SCOPE USA CORP","Address":"9844 Hibert St G1","City":"San Diego","State":"CA","Zip":"92131"},{"Location":"A & M INVESTMENT MANAGEMENT","Address":"12121 Scripps Summit Dr 350","City":"San Diego","State":"CA","Zip":"92131"},{"Location":"A COMPANY INTEL SUPPORT BAT","Address":"9955 Pomerado Rd 20302","City":"San Diego","State":"CA","Zip":"92131"},{"Location":"ARROW SAN DIEGO OFFICE","Address":"10089 Willow Creek Rd 250","City":"San Diego","State":"CA","Zip":"92131"},{"Location":"AUSGAR TECHNOLOGIES","Address":"10721 Treena St","City":"San Diego","State":"CA","Zip":"92131"},{"Location":"BALLAST POINT BREWING","Address":"10051 Old Grove Rd B","City":"San Diego","State":"CA","Zip":"92131"},{"Location":"BEST NAILS AND SPA","Address":"12030 Scripps Summit Dr","City":"San Diego","State":"CA","Zip":"92131"},{"Location":"BOARD AND BREW SR","Address":"9880 Hibert St E3","City":"San Diego","State":"CA","Zip":"92131"},{"Location":"BRE PROPERTIES","Address":"10776 Scripps Ranch Blvd","City":"San Diego","State":"CA","Zip":"92131"},{"Location":"BRUSKI LLP","Address":"9844 Hibert St G10","City":"San Diego","State":"CA","Zip":"92131"},{"Location":"CALIBANZO","Address":"9880 Hibert St E2","City":"San Diego","State":"CA","Zip":"92131"},{"Location":"CALIFORNIA DEPARTMENT OF INSUR","Address":"10021 Willow Creek Rd 100","City":"San Diego","State":"CA","Zip":"92131"},{"Location":"CARL ZEISS VISION","Address":"12121 Scripps Summit Dr 400","City":"San Diego","State":"CA","Zip":"92131"},{"Location":"CHILI'S #0701","Address":"10184 Scripps Poway Parkway","City":"San Diego","State":"CA","Zip":"92131"},{"Location":"COLLIERS INTERNATIONAL","Address":"9820 Willow Creek Rd 300","City":"San Diego","State":"CA","Zip":"92131"},{"Location":"CORE CONSULTING GROUP INC","Address":"10660 Scripps Ranch Blvd 200","City":"San Diego","State":"CA","Zip":"92131"},{"Location":"CORELOGIC SOLUTIONS","Address":"10277 Scripps Ranch Blvd","City":"San Diego","State":"CA","Zip":"92131"},{"Location":"COSTCO FIRE PROTECTION","Address":"10695 Treena St 105","City":"San Diego","State":"CA","Zip":"92131"},{"Location":"DART NEUROSCIENCE","Address":"12278 Scripps Summit Dr","City":"San Diego","State":"CA","Zip":"92131"},{"Location":"DR CHRISTOPHER MAULIK","Address":"12112 Scripps Summit Dr F","City":"San Diego","State":"CA","Zip":"92131"},{"Location":"DYE PRECISION","Address":"10637 Scripps Summit Ct","City":"San Diego","State":"CA","Zip":"92131"},{"Location":"EF INTERNATIONAL","Address":"10455 Pomerado Rd","City":"San Diego","State":"CA","Zip":"92131"},{"Location":"ESCAPE AT TIFFANY NAIL SALON 2","Address":"9910 Mira Mesa Blvd","City":"San Diego","State":"CA","Zip":"92131"},{"Location":"FILIPPIS PIZZA GROTTO","Address":"9969 Mira Mesa Blvd","City":"San Diego","State":"CA","Zip":"92131"},{"Location":"FITNESS QUEST 10","Address":"9972 Scripps Ranch Blvd","City":"San Diego","State":"CA","Zip":"92131"},{"Location":"HAPPY NAIL & SPA","Address":"10755 Scripps Poway Pkwy C","City":"San Diego","State":"CA","Zip":"92131"},{"Location":"HD SUPPLY FACILITIES MAINT","Address":"10641 Scripps Summit Ct","City":"San Diego","State":"CA","Zip":"92131"},{"Location":"HEILIND ELECTRONICS","Address":"10636 Scripps Summit Ct 200","City":"San Diego","State":"CA","Zip":"92131"},{"Location":"INTEL CORPORATION","Address":"12220 Scripps Summit Dr","City":"San Diego","State":"CA","Zip":"92131"},{"Location":"JB INC","Address":"11397 Swan Canyon Rd","City":"San Diego","State":"CA","Zip":"92131"},{"Location":"JEROMES FURNITURE","Address":"10724 Treena St","City":"San Diego","State":"CA","Zip":"92131"},{"Location":"JUST TENNIS","Address":"9984 Scripps Ranch Blvd","City":"San Diego","State":"CA","Zip":"92131"},{"Location":"KAPPA SUSHI","Address":"9870 Hibert St D13","City":"San Diego","State":"CA","Zip":"92131"},{"Location":"LA BASTIDE BISTRO","Address":"10006 Scripps Ranch Blvd 104","City":"San Diego","State":"CA","Zip":"92131"},{"Location":"LG ELECTRONICS MOBILE CO","Address":"10225 Willow Creek Rd","City":"San Diego","State":"CA","Zip":"92131"},{"Location":"MEDICAL BATTALION","Address":"9955 Pomerado Rd","City":"San Diego","State":"CA","Zip":"92131"},{"Location":"MEDIMPACT","Address":"10181 Scripps Gateway Ct","City":"San Diego","State":"CA","Zip":"92131"},{"Location":"MORRIS SULLIVAN LAW","Address":"9915 Mira Mesa Blvd 300","City":"San Diego","State":"CA","Zip":"92131"},{"Location":"NOSC SAN DIEGO","Address":"9955 Pomeoado Rd","City":"San Diego","State":"CA","Zip":"92131"},{"Location":"O SULLIVAN BROS BREWING CO","Address":"9879 Hibert St F","City":"San Diego","State":"CA","Zip":"92131"},{"Location":"PAZZOS INC","Address":"10299 Scripps Trl I","City":"San Diego","State":"CA","Zip":"92131"},{"Location":"PIZZA REV","Address":"10393 Spring Canyon Rd","City":"San Diego","State":"CA","Zip":"92131"},{"Location":"PLAY IT AGAIN SPORTS","Address":"9841 Mira Mesa Blvd","City":"San Diego","State":"CA","Zip":"92131"},{"Location":"SAN DIEGO GAMES AND COMI","Address":"9910 Mira Mesa Blvd C","City":"San Diego","State":"CA","Zip":"92131"},{"Location":"SAN DIEGO NATIONAL BANK","Address":"10020 Scripps Ranch Blvd","City":"San Diego","State":"CA","Zip":"92131"},{"Location":"SANCTUARY LOUNGE","Address":"12090 Scripps Summit Dr","City":"San Diego","State":"CA","Zip":"92131"},{"Location":"SANSAI JAPANESE GRILL","Address":"10545 Scripps Poway Pkwy","City":"San Diego","State":"CA","Zip":"92131"},{"Location":"SANTANAS GRILL ICN","Address":"12010 Scripps Summit Dr D","City":"San Diego","State":"CA","Zip":"92131"},{"Location":"SANTORINI AND MORE","Address":"10545 Scripps Poway Pkwy D","City":"San Diego","State":"CA","Zip":"92131"},{"Location":"SCRIPPS MESA FAMILY &","Address":"9999 Mira Mesa Blvd 105","City":"San Diego","State":"CA","Zip":"92131"},{"Location":"SCRIPPS POWAY DENTAL CARE","Address":"10549 Scripps Poway Pkwy I","City":"San Diego","State":"CA","Zip":"92131"},{"Location":"SCRIPPS RANCH FAMILY DENTISTY","Address":"10299 Scripps Trl F","City":"San Diego","State":"CA","Zip":"92131"},{"Location":"SEASIDE PED. DENTISTRY","Address":"12036 Scripps Highlands Dr 100","City":"San Diego","State":"CA","Zip":"92131"},{"Location":"SHINA DINESH PATEL DDS","Address":"10672 Wexford St 285","City":"San Diego","State":"CA","Zip":"92131"},{"Location":"SHOZEN & MANPO","Address":"9906 Mira Mesa Blvd A","City":"San Diego","State":"CA","Zip":"92131"},{"Location":"SIEMENS INDUSTRIES","Address":"10100 Willow Creek Rd","City":"San Diego","State":"CA","Zip":"92131"},{"Location":"SOMBRERO MEXICAN FOOD","Address":"12090 Scripps Summit Dr","City":"San Diego","State":"CA","Zip":"92131"},{"Location":"SPORT CLIPS CA412","Address":"10549 Scripps Poway Pkwy 100","City":"San Diego","State":"CA","Zip":"92131"},{"Location":"STANDARD PACIFIC HOMES","Address":"15781 Bacara Ct","City":"San Diego","State":"CA","Zip":"92131"},{"Location":"STIX HOLDINGS 756","Address":"10755 Scripps Poway Pkwy 8i","City":"San Diego","State":"CA","Zip":"92131"},{"Location":"SUPERCUTS","Address":"9872 Hibert St D3","City":"San Diego","State":"CA","Zip":"92131"},{"Location":"THE TAILHOOK ASSOC","Address":"9696 Businesspark Ave","City":"San Diego","State":"CA","Zip":"92131"},{"Location":"TIRE KINGDOM B-5817","Address":"12093 Scripps Summit Dr","City":"San Diego","State":"CA","Zip":"92131"},{"Location":"TODO SUSHI","Address":"9823 Carroll Canyon Rd","City":"San Diego","State":"CA","Zip":"92131"},{"Location":"WALTERS WHOLESALE","Address":"10031 Old Grove Rd","City":"San Diego","State":"CA","Zip":"92131"},{"Location":"WHICH WICH SUPERIOR SANDWICH","Address":"10549 Scripps Poway Pkwy B2","City":"San Diego","State":"CA","Zip":"92131"},{"Location":"Y H  INC","Address":"12010 Scripps Summit Dr B","City":"San Diego","State":"CA","Zip":"92131"},{"Location":"YAMADA SCOPE USA CORP","Address":"9844 Hibert St G1","City":"San Diego","State":"CA","Zip":"92131"}]