[{"Location":"ADMIRAL ROBINSON BOWLING CAFE","Address":"2355 Vesta St 3223","City":"San Diego","State":"CA","Zip":"92136"},{"Location":"CENATNSF SAN DIEGO","Address":"3975 Norman Scott Rd","City":"San Diego","State":"CA","Zip":"92136"},{"Location":"COMDESRON23E","Address":"3325 Senn Rd","City":"San Diego","State":"CA","Zip":"92136"},{"Location":"CSCS DET SAN DIEGO","Address":"3975 Norman Scott Rd Deck4","City":"San Diego","State":"CA","Zip":"92136"},{"Location":"EL CENTRO MIRAGE CLUB%2C C","Address":"B Street Bldg 227 Code1","City":"San Diego","State":"CA","Zip":"92136"},{"Location":"NAVAL BASE GOLF COURSE","Address":"2375 Recreation Way","City":"San Diego","State":"CA","Zip":"92136"},{"Location":"NAVAL CRIMINAL INVESTI. SERV.","Address":"3405 Welles St 1","City":"San Diego","State":"CA","Zip":"92136"},{"Location":"NAVAL SUPPLY SYSTEMS COM","Address":"3985 Cummings Rd 239","City":"San Diego","State":"CA","Zip":"92136"},{"Location":"NAVY EXCHANGE","Address":"2260      Callagan Hwy","City":"San Diego","State":"CA","Zip":"92136"},{"Location":"NAVY EXCHANGE AUTO PARTS","Address":"Norman Scott Rd","City":"San Diego","State":"CA","Zip":"92136"},{"Location":"NEX Q MART","Address":"3657      Norman Scott Rd","City":"San Diego","State":"CA","Zip":"92136"},{"Location":"RECYARD","Address":"Norman Scott 221","City":"San Diego","State":"CA","Zip":"92136"},{"Location":"US NAVY","Address":"3975 Norman Scott Rd","City":"San Diego","State":"CA","Zip":"92136"},{"Location":"US NAVY","Address":"5255 Womble St 5535","City":"San Diego","State":"CA","Zip":"92136"},{"Location":"US NAVY ESG-3","Address":"3205 Senn Rd 73","City":"San Diego","State":"CA","Zip":"92136"},{"Location":"USCGC BOUTWELL","Address":"2680 Woden St","City":"San Diego","State":"CA","Zip":"92136"},{"Location":"USS CHANCELLORSVILLE CG-62","Address":"2680 Woden St 3304","City":"San Diego","State":"CA","Zip":"92136"},{"Location":"USS KIDD (DDG-100)","Address":"3985 Cummings Rd","City":"San Diego","State":"CA","Zip":"92136"},{"Location":"USS MOBILE BAY CG 53","Address":"Po Box 96672-1173 Fleet","City":"San Diego","State":"CA","Zip":"92136"},{"Location":"USS SAN DIEGO LPD 22","Address":"3581 Cummings Rd","City":"San Diego","State":"CA","Zip":"92136"},{"Location":"USS STOCKDALE(DDG 106)","Address":"Fpoap 96678 1205","City":"San Diego","State":"CA","Zip":"92136"}]