[{"Location":"USNS GRASP","Address":"Bld 77 Nas North Island","City":"North Island","State":"CA","Zip":"92135"},{"Location":"NAVY EXCHANGE","Address":"Nex Subase Blding 542","City":"Pointloma","State":"CA","Zip":"92135"},{"Location":"USS CARL VINSON","Address":"Uss Carl Vinson 77","City":"Quay Road","State":"CA","Zip":"92135"},{"Location":"TOUCH N GO MINIMART","Address":"Bldg 244","City":"Sam Diego","State":"CA","Zip":"92135"},{"Location":"CARRIER STRIKE GROUP 15","Address":"Naval Base Corondo  #245","City":"San Diego","State":"CA","Zip":"92135"},{"Location":"CSC SCORE DIVISION","Address":"Nas North Island Bld 1479","City":"San Diego","State":"CA","Zip":"92135"},{"Location":"DEPARTMENT OF THE NAVY","Address":"Quenten Roosevelt  #11","City":"San Diego","State":"CA","Zip":"92135"},{"Location":"FACS FAC","Address":"1 Naval Air Station 93","City":"San Diego","State":"CA","Zip":"92135"},{"Location":"FACSFAC","Address":"Code 153 Naval Air Station N Islan 93","City":"San Diego","State":"CA","Zip":"92135"},{"Location":"MWR SEA AND AIR","Address":"Bldg 772 Rogers Road 92","City":"San Diego","State":"CA","Zip":"92135"},{"Location":"MWR THE SALTY CRAB","Address":"6012 -7 Naval Landing","City":"San Diego","State":"CA","Zip":"92135"},{"Location":"NALF SCI ISLAND REC COM","Address":"502 Bldg Quentin Roosevelt Bl","City":"San Diego","State":"CA","Zip":"92135"},{"Location":"NCIS STAAT PAC","Address":"Bldng 91 Roosevelt","City":"San Diego","State":"CA","Zip":"92135"},{"Location":"NEX NORTH ISLAND","Address":"Bldg 2017 North Island","City":"San Diego","State":"CA","Zip":"92135"},{"Location":"US NAVY","Address":"Building 1456  1456  145","City":"San Diego","State":"CA","Zip":"92135"},{"Location":"US NAVY HSM 71","Address":"Buildling 1456 Naval Air","City":"San Diego","State":"CA","Zip":"92135"},{"Location":"USS RONALD REAGAN (CVN-76)","Address":"Building 1 Quay Road Cvn76","City":"San Diego","State":"CA","Zip":"92135"}]