[{"Location":"AMN HEALTHCARE","Address":"12400 High Bluff Dr","City":"San Diego","State":"CA","Zip":"92130"},{"Location":"ARDEN REALTY LIMITED PAR","Address":"12750 High Bluff Dr Gym","City":"San Diego","State":"CA","Zip":"92130"},{"Location":"ARDEN REALTY LIMITED PARTNERSH","Address":"12770 High Bluff Dr 215","City":"San Diego","State":"CA","Zip":"92130"},{"Location":"ARTERRAS LOUNGE MARRIOT HOTEL","Address":"11966 El Camino Real","City":"San Diego","State":"CA","Zip":"92130"},{"Location":"BANK OF AMERICA CA0-907-04-01","Address":"12340 El Camino Real 425","City":"San Diego","State":"CA","Zip":"92130"},{"Location":"BBQ REPUBLIC","Address":"4645 Carmel Mountain Rd 202","City":"San Diego","State":"CA","Zip":"92130"},{"Location":"BELLISARIOS","Address":"2648 Del Mar Heights Rd","City":"San Diego","State":"CA","Zip":"92130"},{"Location":"BERKELEY RESEARCH GROUP","Address":"12636 High Bluff Dr 400","City":"San Diego","State":"CA","Zip":"92130"},{"Location":"BERMAN & RIEDEL LLP","Address":"12264 El Camino Real 300","City":"San Diego","State":"CA","Zip":"92130"},{"Location":"BOSLEY","Address":"12264 El Camino Real 404","City":"San Diego","State":"CA","Zip":"92130"},{"Location":"BRAIN CORP","Address":"3611 Valley Centre Dr 400","City":"San Diego","State":"CA","Zip":"92130"},{"Location":"BROOKFIELD HOMES","Address":"12265 El Camino Real 180","City":"San Diego","State":"CA","Zip":"92130"},{"Location":"CAPRI CONCEPT RESTAURANT","Address":"3870 Valley Centre Dr 301","City":"San Diego","State":"CA","Zip":"92130"},{"Location":"CAREFUSION","Address":"3750 Torrey View Ct","City":"San Diego","State":"CA","Zip":"92130"},{"Location":"CARMEL HEIGHTS DENTISTRY","Address":"12750 Carmel Country Rd 209","City":"San Diego","State":"CA","Zip":"92130"},{"Location":"CARMEL VLY TENNIS CLUB","Address":"3777 Townsgate Dr","City":"San Diego","State":"CA","Zip":"92130"},{"Location":"CASA SOL Y MAR","Address":"12865 El Camino Real","City":"San Diego","State":"CA","Zip":"92130"},{"Location":"CCI","Address":"12905 El Camino Real","City":"San Diego","State":"CA","Zip":"92130"},{"Location":"CONCIERGE DEN","Address":"11966 El Camino Real","City":"San Diego","State":"CA","Zip":"92130"},{"Location":"CRUST PIZZERIA","Address":"4653 Carmel Mountain Rd 311","City":"San Diego","State":"CA","Zip":"92130"},{"Location":"CV- SHELL CAR WASH","Address":"3861 Valley Centre Dr","City":"San Diego","State":"CA","Zip":"92130"},{"Location":"DAPHNES GREEK","Address":"4639 Carmel Mountain Rd 103","City":"San Diego","State":"CA","Zip":"92130"},{"Location":"DEL MAR CORPORATE PLAZA","Address":"12671 High Bluff Dr","City":"San Diego","State":"CA","Zip":"92130"},{"Location":"DEL MAR HEIGHT CHIROPRACTIC GR","Address":"12264 El Camino Real 108","City":"San Diego","State":"CA","Zip":"92130"},{"Location":"DEL MAR LAW GROUP LLP","Address":"12250 El Camino Real 120","City":"San Diego","State":"CA","Zip":"92130"},{"Location":"DISCOVERY PRACTICE MANAGEMENT","Address":"4421 Carmel Valley Rd","City":"San Diego","State":"CA","Zip":"92130"},{"Location":"DOLCI MANGO","Address":"555 Broadway 123","City":"San Diego","State":"CA","Zip":"92130"},{"Location":"DOUBLE TREE","Address":"11915 El Camino Real","City":"San Diego","State":"CA","Zip":"92130"},{"Location":"DOWLING & YAHNKE%2C INC.","Address":"12340 El Camino Real 450","City":"San Diego","State":"CA","Zip":"92130"},{"Location":"ENERGY CAPITAL PARTNERS","Address":"11943 El Camino Real 220","City":"San Diego","State":"CA","Zip":"92130"},{"Location":"FIDELITY INVESTMENTS 233","Address":"11943 El Camino Real","City":"San Diego","State":"CA","Zip":"92130"},{"Location":"FIRST REPUBLIC BANK","Address":"12626 High Bluff Dr","City":"San Diego","State":"CA","Zip":"92130"},{"Location":"FISH & RICHARDSON","Address":"12390 El Camino Real","City":"San Diego","State":"CA","Zip":"92130"},{"Location":"GAMI SUSHI","Address":"3870 Valley Centre Dr 302","City":"San Diego","State":"CA","Zip":"92130"},{"Location":"GLAMOUR NAILS","Address":"3485 Delmar Height  #a6","City":"San Diego","State":"CA","Zip":"92130"},{"Location":"GRAND DEL MAR WAY","Address":"5300 Grand Del Mar Ct","City":"San Diego","State":"CA","Zip":"92130"},{"Location":"GREATCALL%2FCORP OFFICE","Address":"10935 Vista Sorrento Pkwy 200","City":"San Diego","State":"CA","Zip":"92130"},{"Location":"GUPTA WEALTH MGT. LLC","Address":"12760 High Bluff Dr 120","City":"San Diego","State":"CA","Zip":"92130"},{"Location":"HAMPTON INN SAN DIEGO(0012448)","Address":"11920 El Cambino Real","City":"San Diego","State":"CA","Zip":"92130"},{"Location":"HIGHTOWER ADVISORS","Address":"12760 High Bluff Dr 110","City":"San Diego","State":"CA","Zip":"92130"},{"Location":"HILTON GARDEN INN DEL MAR","Address":"3939 Ocean Bluff Ave","City":"San Diego","State":"CA","Zip":"92130"},{"Location":"HOMEWOOD SUITES DEL MAR","Address":"11025 Vista Sorrento Pkwy","City":"San Diego","State":"CA","Zip":"92130"},{"Location":"IDEAL FITNESS TRAINING CLUB","Address":"12264 El Camino Real 60","City":"San Diego","State":"CA","Zip":"92130"},{"Location":"INCREDIBLE SMILES","Address":"4765 Carmel Mountain Rd 203","City":"San Diego","State":"CA","Zip":"92130"},{"Location":"INDEPENDENT FINANCIAL GR","Address":"12671 High Bluff Dr 200","City":"San Diego","State":"CA","Zip":"92130"},{"Location":"INTENSITY CORPORATION","Address":"12730 High Bluff Dr 300","City":"San Diego","State":"CA","Zip":"92130"},{"Location":"JESSY SIDHU","Address":"12925 El Camino Real J22","City":"San Diego","State":"CA","Zip":"92130"},{"Location":"JSDM","Address":"12340 El Camino Real 300","City":"San Diego","State":"CA","Zip":"92130"},{"Location":"KATANA SUSHI","Address":"12750 Carmel Country Rd 107","City":"San Diego","State":"CA","Zip":"92130"},{"Location":"KELLY INVESTMENT GROUP","Address":"12730 High Bluff Dr 250","City":"San Diego","State":"CA","Zip":"92130"},{"Location":"KILROY REAL","Address":"3721 Valley Centre Dr 550","City":"San Diego","State":"CA","Zip":"92130"},{"Location":"KILROY REALTY","Address":"3611 Valley Centre Dr 550","City":"San Diego","State":"CA","Zip":"92130"},{"Location":"KILROY REALTY","Address":"3661 Valley Centre Dr","City":"San Diego","State":"CA","Zip":"92130"},{"Location":"KPI LOGISTICS","Address":"12730 High Bluff Dr 130","City":"San Diego","State":"CA","Zip":"92130"},{"Location":"LEIBL AND KIRKWOOD","Address":"12250 El Camino Real 350","City":"San Diego","State":"CA","Zip":"92130"},{"Location":"LINDSAY A BANCROFT DDS INC","Address":"12750 Carmel Country Rd 206","City":"San Diego","State":"CA","Zip":"92130"},{"Location":"MANCHESTER FINANCIAL GROUP","Address":"5186 Grand Del Mar Ct","City":"San Diego","State":"CA","Zip":"92130"},{"Location":"MIA FRANCESCA-DEL MAR","Address":"12955 El Camino Real G4","City":"San Diego","State":"CA","Zip":"92130"},{"Location":"MICHAEL HYAT%2FDAVID JACKS","Address":"12760 High Bluff Dr 240","City":"San Diego","State":"CA","Zip":"92130"},{"Location":"MIGUEL GRILLO DMD INC","Address":"12364 El Camino Real","City":"San Diego","State":"CA","Zip":"92130"},{"Location":"MODERN DENTISTRY","Address":"4765 Carmel Mountain Rd 208","City":"San Diego","State":"CA","Zip":"92130"},{"Location":"MOORE SCHULMAN & MOORE","Address":"12636 High Bluff Dr 200","City":"San Diego","State":"CA","Zip":"92130"},{"Location":"MVP AMERICAN SECURITIES","Address":"12730 High Bluff Dr 110","City":"San Diego","State":"CA","Zip":"92130"},{"Location":"NICOS1","Address":"3860 Valley Centre Dr 404","City":"San Diego","State":"CA","Zip":"92130"},{"Location":"OGGIES PIZZA & BREWING CO.","Address":"12840 Carmel Country Rd","City":"San Diego","State":"CA","Zip":"92130"},{"Location":"PACIFIC WEALTH MGMNT","Address":"12544 High Bluff Dr 440","City":"San Diego","State":"CA","Zip":"92130"},{"Location":"PILLSBURY WINTHROP SHAW PITTMA","Address":"12255 El Camino Real 300","City":"San Diego","State":"CA","Zip":"92130"},{"Location":"POWA TECHNOLOGY","Address":"12760 High Bluff Dr 310","City":"San Diego","State":"CA","Zip":"92130"},{"Location":"PREMIER BUSINESS CENTERS","Address":"12636 High Bluff Dr 400","City":"San Diego","State":"CA","Zip":"92130"},{"Location":"RANDOLPH F ALEXANDER DOS MS","Address":"12395 El Camino Real 104","City":"San Diego","State":"CA","Zip":"92130"},{"Location":"RAYMOND JAMES","Address":"12707 High Bluff Dr 226","City":"San Diego","State":"CA","Zip":"92130"},{"Location":"REALTY INCOME CORP.","Address":"11995 El Camino Real","City":"San Diego","State":"CA","Zip":"92130"},{"Location":"RETROPHIN INC","Address":"12255 El Camino Real 250","City":"San Diego","State":"CA","Zip":"92130"},{"Location":"RIMEL S","Address":"12955 El Camino Real G2","City":"San Diego","State":"CA","Zip":"92130"},{"Location":"RUTH'S CHRIS STEAK HOUSE","Address":"11582 El Camino Real","City":"San Diego","State":"CA","Zip":"92130"},{"Location":"SAN DIEGO MARRIOTT DEL(0051500","Address":"11966 El Camino Real","City":"San Diego","State":"CA","Zip":"92130"},{"Location":"SEARSUCKER DEL MAR RESTAURANT","Address":"12995 El Camino Real","City":"San Diego","State":"CA","Zip":"92130"},{"Location":"SHEPPARD%2CMULLIN RICHTER & HAMP","Address":"12275 El Camino Real 200","City":"San Diego","State":"CA","Zip":"92130"},{"Location":"SNOOZE","Address":"3435 Del Mar Heights Rd D3","City":"San Diego","State":"CA","Zip":"92130"},{"Location":"SPAWAR SYSTEM CENTER","Address":"Nots Pier Dr Bldg 60222","City":"San Diego","State":"CA","Zip":"92130"},{"Location":"STRATOS WEALTH PARTNERS","Address":"12340 El Camino Real 300","City":"San Diego","State":"CA","Zip":"92130"},{"Location":"SUSHIYA DELMAR","Address":"12995 El Camino Real 22","City":"San Diego","State":"CA","Zip":"92130"},{"Location":"TATRO & ZAMOYSKI","Address":"12760 High Bluff Dr 210","City":"San Diego","State":"CA","Zip":"92130"},{"Location":"TAVERNA BLU","Address":"12873 El Camino Real M1","City":"San Diego","State":"CA","Zip":"92130"},{"Location":"THE MOHR GROUP","Address":"12555 High Bluff Dr 205","City":"San Diego","State":"CA","Zip":"92130"},{"Location":"THE SUPER DENTISTS","Address":"11943 El Camino Real 200","City":"San Diego","State":"CA","Zip":"92130"},{"Location":"THIBIANT BEVERLY HILLS","Address":"12626 High Bluff Dr 330","City":"San Diego","State":"CA","Zip":"92130"},{"Location":"THRIVENT FINANCIAL","Address":"12760 High Bluff Dr 300","City":"San Diego","State":"CA","Zip":"92130"},{"Location":"TIO LEOS IV","Address":"3510 Valley Centre Dr","City":"San Diego","State":"CA","Zip":"92130"},{"Location":"TORRE PINES HIGH  MENS BASKETB","Address":"3710 Del Mar Hieghts Rd","City":"San Diego","State":"CA","Zip":"92130"},{"Location":"TORREY PINES BANK","Address":"12220 El Camino Real 100","City":"San Diego","State":"CA","Zip":"92130"},{"Location":"TORREY PINES ORTHODONTICS","Address":"12264 El Camino Real","City":"San Diego","State":"CA","Zip":"92130"},{"Location":"TOWERS WATSON","Address":"10955 Vista Sorrento Pkwy 300","City":"San Diego","State":"CA","Zip":"92130"},{"Location":"TREA PACIFIC PLAZA","Address":"10947 Vista Sorrento Pkwy","City":"San Diego","State":"CA","Zip":"92130"},{"Location":"UNITED CAPITAL","Address":"12770 High Bluff Dr 270","City":"San Diego","State":"CA","Zip":"92130"},{"Location":"WILSON SOWSINI GOODRICH","Address":"12235 El Camino Real 200","City":"San Diego","State":"CA","Zip":"92130"},{"Location":"WIND RIVER","Address":"12770 High Bluff Dr 300","City":"San Diego","State":"CA","Zip":"92130"},{"Location":"WJ BRADLEY MORTGAGE CAP","Address":"12750 High Bluff Dr 215","City":"San Diego","State":"CA","Zip":"92130"},{"Location":"ZIP FUSION","Address":"11130 E Ocean Air Dr 101","City":"San Diego","State":"CA","Zip":"92130"}]