[{"Location":"BEHAIVORAL HEALTH","Address":"Elrod Ave 2274","City":"San Diego","State":"CA","Zip":"92145"},{"Location":"CONSOLIDATED BACHELOR","Address":"19920 Schilt Ave 4312","City":"San Diego","State":"CA","Zip":"92145"},{"Location":"DEFENSE COMMISSIONARY AGENCY","Address":"Mcas Miramar 2661","City":"San Diego","State":"CA","Zip":"92145"},{"Location":"DENNYS MCAS MIRAMAR","Address":"3485 Building Golf","City":"San Diego","State":"CA","Zip":"92145"},{"Location":"FITNESS CENTER","Address":"Marine Corps Air Sta 2002","City":"San Diego","State":"CA","Zip":"92145"},{"Location":"FLIGHT LINE BARBER SHOP","Address":"Miramar Base","City":"San Diego","State":"CA","Zip":"92145"},{"Location":"FLIGHT LINE FOOD CT","Address":"Boyington Rd 8600","City":"San Diego","State":"CA","Zip":"92145"},{"Location":"GONSALVES MARINE MART","Address":"Lily Gutierres Bldg 2662","City":"San Diego","State":"CA","Zip":"92145"},{"Location":"GREAT ESCAPE","Address":"Bldg 5509","City":"San Diego","State":"CA","Zip":"92145"},{"Location":"HATHCOCK RIFLE RANGE COM","Address":"23101 Rifle Range Rd","City":"San Diego","State":"CA","Zip":"92145"},{"Location":"LEGENDS DOMINOS %40 HUB","Address":"Desiree Sulter 5305","City":"San Diego","State":"CA","Zip":"92145"},{"Location":"MAG 16","Address":"6001 Mcas Miramar","City":"San Diego","State":"CA","Zip":"92145"},{"Location":"MAG 16 3","Address":"7550 Mitscher Way","City":"San Diego","State":"CA","Zip":"92145"},{"Location":"MARINE CORP EOD","Address":"21020 Eod Ln","City":"San Diego","State":"CA","Zip":"92145"},{"Location":"MCAS FAMILY TEAM BULIDING","Address":"Mcas 2525","City":"San Diego","State":"CA","Zip":"92145"},{"Location":"MCAS MIR  BHOPE THEATER","Address":"Bldg Apt 2242","City":"San Diego","State":"CA","Zip":"92145"},{"Location":"MCAS MIRAMAR","Address":"Pless Ave 4","City":"San Diego","State":"CA","Zip":"92145"},{"Location":"MCAS MIRAMAR MCX WAREHOUSE","Address":"Camp Elliot 21133","City":"San Diego","State":"CA","Zip":"92145"},{"Location":"MCAS MIRAMAR PMO OFFICE","Address":"7117 Miramar Way","City":"San Diego","State":"CA","Zip":"92145"},{"Location":"MCAS US MARINE CORP BASE","Address":"Maxam Ave 6001","City":"San Diego","State":"CA","Zip":"92145"},{"Location":"MCCS ADMIN","Address":"Bldg 2273 Mccs%2Cmcas Miramar","City":"San Diego","State":"CA","Zip":"92145"},{"Location":"MCCS DEPARTMENT LIBRARY","Address":"Mirmar Rd 5305","City":"San Diego","State":"CA","Zip":"92145"},{"Location":"MCCS DEPT MCAS MIRAMAR","Address":"45233 Antares Dr 2660","City":"San Diego","State":"CA","Zip":"92145"},{"Location":"MCCS GOLF PRO SHOP","Address":"Apt 3750 3750","City":"San Diego","State":"CA","Zip":"92145"},{"Location":"MCCS MARINE MART","Address":"Mcas 2499","City":"San Diego","State":"CA","Zip":"92145"},{"Location":"MCX EXCHANGE FOOD CT","Address":"Mcas Miramr 2660","City":"San Diego","State":"CA","Zip":"92145"},{"Location":"MIRAMAR MAIN BARBER SHOP","Address":"Miramar Base","City":"San Diego","State":"CA","Zip":"92145"},{"Location":"MIRAMAR YOUTH CENTER","Address":"2700      Elrod Avenue","City":"San Diego","State":"CA","Zip":"92145"},{"Location":"MIRMAR EXCHANGE AMNEX","Address":"Mcas Mirmar Bldg 2660","City":"San Diego","State":"CA","Zip":"92145"},{"Location":"MWCS #38","Address":"45249 Miramar Way 7515","City":"San Diego","State":"CA","Zip":"92145"},{"Location":"OFFICER'S CLUB","Address":"Marine Corps Air Stati 4472","City":"San Diego","State":"CA","Zip":"92145"},{"Location":"SHERRIFS DEPARTMENT","Address":"East Miramar Air Station","City":"San Diego","State":"CA","Zip":"92145"},{"Location":"SPORTS CENTER","Address":"Marine Corps Air Stati 2471","City":"San Diego","State":"CA","Zip":"92145"},{"Location":"THE BARN ANNEX - FITNESS","Address":"Marine Corps Air Sta 7115","City":"San Diego","State":"CA","Zip":"92145"},{"Location":"US NAVY MIRA MAR %2F CHAPEL","Address":"46141 Miramar Way","City":"San Diego","State":"CA","Zip":"92145"},{"Location":"USMC #1","Address":"Mcas Mirmar 7515 173","City":"San Diego","State":"CA","Zip":"92145"},{"Location":"USMC JOSE MURILLO","Address":"Mcas Miramar 7133","City":"San Diego","State":"CA","Zip":"92145"},{"Location":"USMC MCAS MIRAMAR HS3 SUPPLY 1","Address":"21021 Green Farm Rd","City":"San Diego","State":"CA","Zip":"92145"},{"Location":"USMC MCAS MIRAMAR HS3 SUPPLY 2","Address":"6004 Mcas Mirmar","City":"San Diego","State":"CA","Zip":"92145"},{"Location":"VMFAT101","Address":"Taylor Evans Hanger 3 3","City":"San Diego","State":"CA","Zip":"92145"},{"Location":"BEHAIVORAL HEALTH","Address":"Elrod Ave 2274","City":"San Diego","State":"CA","Zip":"92145"},{"Location":"CONSOLIDATED BACHELOR","Address":"19920 Schilt Ave 4312","City":"San Diego","State":"CA","Zip":"92145"},{"Location":"DEFENSE COMMISSIONARY AGENCY","Address":"Mcas Miramar 2661","City":"San Diego","State":"CA","Zip":"92145"},{"Location":"DENNYS MCAS MIRAMAR","Address":"3485 Building Golf","City":"San Diego","State":"CA","Zip":"92145"},{"Location":"FITNESS CENTER","Address":"Marine Corps Air Sta 2002","City":"San Diego","State":"CA","Zip":"92145"},{"Location":"FLIGHT LINE BARBER SHOP","Address":"Miramar Base","City":"San Diego","State":"CA","Zip":"92145"},{"Location":"FLIGHT LINE FOOD CT","Address":"Boyington Rd 8600","City":"San Diego","State":"CA","Zip":"92145"},{"Location":"GONSALVES MARINE MART","Address":"Lily Gutierres Bldg 2662","City":"San Diego","State":"CA","Zip":"92145"},{"Location":"GREAT ESCAPE","Address":"Bldg 5509","City":"San Diego","State":"CA","Zip":"92145"},{"Location":"HATHCOCK RIFLE RANGE COM","Address":"23101 Rifle Range Rd","City":"San Diego","State":"CA","Zip":"92145"},{"Location":"LEGENDS DOMINOS %40 HUB","Address":"Desiree Sulter 5305","City":"San Diego","State":"CA","Zip":"92145"},{"Location":"MAG 16","Address":"6001 Mcas Miramar","City":"San Diego","State":"CA","Zip":"92145"},{"Location":"MAG 16 3","Address":"7550 Mitscher Way","City":"San Diego","State":"CA","Zip":"92145"},{"Location":"MARINE CORP EOD","Address":"21020 Eod Ln","City":"San Diego","State":"CA","Zip":"92145"},{"Location":"MCAS FAMILY TEAM BULIDING","Address":"Mcas 2525","City":"San Diego","State":"CA","Zip":"92145"},{"Location":"MCAS MIR  BHOPE THEATER","Address":"Bldg Apt 2242","City":"San Diego","State":"CA","Zip":"92145"},{"Location":"MCAS MIRAMAR","Address":"Pless Ave 4","City":"San Diego","State":"CA","Zip":"92145"},{"Location":"MCAS MIRAMAR MCX WAREHOUSE","Address":"Camp Elliot 21133","City":"San Diego","State":"CA","Zip":"92145"},{"Location":"MCAS MIRAMAR PMO OFFICE","Address":"7117 Miramar Way","City":"San Diego","State":"CA","Zip":"92145"},{"Location":"MCAS US MARINE CORP BASE","Address":"Maxam Ave 6001","City":"San Diego","State":"CA","Zip":"92145"},{"Location":"MCCS ADMIN","Address":"Bldg 2273 Mccs%2Cmcas Miramar","City":"San Diego","State":"CA","Zip":"92145"},{"Location":"MCCS DEPARTMENT LIBRARY","Address":"Mirmar Rd 5305","City":"San Diego","State":"CA","Zip":"92145"},{"Location":"MCCS DEPT MCAS MIRAMAR","Address":"45233 Antares Dr 2660","City":"San Diego","State":"CA","Zip":"92145"},{"Location":"MCCS GOLF PRO SHOP","Address":"Apt 3750 3750","City":"San Diego","State":"CA","Zip":"92145"},{"Location":"MCCS MARINE MART","Address":"Mcas 2499","City":"San Diego","State":"CA","Zip":"92145"},{"Location":"MCX EXCHANGE FOOD CT","Address":"Mcas Miramr 2660","City":"San Diego","State":"CA","Zip":"92145"},{"Location":"MIRAMAR MAIN BARBER SHOP","Address":"Miramar Base","City":"San Diego","State":"CA","Zip":"92145"},{"Location":"MIRAMAR YOUTH CENTER","Address":"2700      Elrod Avenue","City":"San Diego","State":"CA","Zip":"92145"},{"Location":"MIRMAR EXCHANGE AMNEX","Address":"Mcas Mirmar Bldg 2660","City":"San Diego","State":"CA","Zip":"92145"},{"Location":"MWCS #38","Address":"45249 Miramar Way 7515","City":"San Diego","State":"CA","Zip":"92145"},{"Location":"OFFICER'S CLUB","Address":"Marine Corps Air Stati 4472","City":"San Diego","State":"CA","Zip":"92145"},{"Location":"SHERRIFS DEPARTMENT","Address":"East Miramar Air Station","City":"San Diego","State":"CA","Zip":"92145"},{"Location":"SPORTS CENTER","Address":"Marine Corps Air Stati 2471","City":"San Diego","State":"CA","Zip":"92145"},{"Location":"THE BARN ANNEX - FITNESS","Address":"Marine Corps Air Sta 7115","City":"San Diego","State":"CA","Zip":"92145"},{"Location":"US NAVY MIRA MAR %2F CHAPEL","Address":"46141 Miramar Way","City":"San Diego","State":"CA","Zip":"92145"},{"Location":"USMC #1","Address":"Mcas Mirmar 7515 173","City":"San Diego","State":"CA","Zip":"92145"},{"Location":"USMC JOSE MURILLO","Address":"Mcas Miramar 7133","City":"San Diego","State":"CA","Zip":"92145"},{"Location":"USMC MCAS MIRAMAR HS3 SUPPLY 1","Address":"21021 Green Farm Rd","City":"San Diego","State":"CA","Zip":"92145"},{"Location":"USMC MCAS MIRAMAR HS3 SUPPLY 2","Address":"6004 Mcas Mirmar","City":"San Diego","State":"CA","Zip":"92145"},{"Location":"VMFAT101","Address":"Taylor Evans Hanger 3 3","City":"San Diego","State":"CA","Zip":"92145"}]