[{"Location":"MCCS MCRD DISCOVERY","Address":"3800 Chosin Ave","City":"San Diego","State":"CA","Zip":"92140"},{"Location":"MCCS SAN DIEGO","Address":"3800 Chosin Ave 5e","City":"San Diego","State":"CA","Zip":"92140"},{"Location":"U.S. COAST GUARD PACTACLET","Address":"34000 Guadalcanal Ave 426","City":"San Diego","State":"CA","Zip":"92140"},{"Location":"USCG PACTALET ADMIN OFFICES","Address":"34000 Guadalcanal Ave 426","City":"San Diego","State":"CA","Zip":"92140"},{"Location":"USMC RECR BILLETING OFFICE","Address":"3800 Chosin Ave 312","City":"San Diego","State":"CA","Zip":"92140"},{"Location":"MCCS MCRD DISCOVERY","Address":"3800 Chosin Ave","City":"San Diego","State":"CA","Zip":"92140"},{"Location":"MCCS SAN DIEGO","Address":"3800 Chosin Ave 5e","City":"San Diego","State":"CA","Zip":"92140"},{"Location":"U.S. COAST GUARD PACTACLET","Address":"34000 Guadalcanal Ave 426","City":"San Diego","State":"CA","Zip":"92140"},{"Location":"USCG PACTALET ADMIN OFFICES","Address":"34000 Guadalcanal Ave 426","City":"San Diego","State":"CA","Zip":"92140"},{"Location":"USMC RECR BILLETING OFFICE","Address":"3800 Chosin Ave 312","City":"San Diego","State":"CA","Zip":"92140"}]