[{"Location":"GEORGE BAILEY DETENTION","Address":"446 Alta Rd 5300","City":"San Diego","State":"CA","Zip":"92158"},{"Location":"GEORGE BAILEY DETENTION FACILI","Address":"446 Alta Rd 5300","City":"San Diego","State":"CA","Zip":"92158"},{"Location":"SAN DIEGO COUNTY SHERIFFS DEPT","Address":"446 Alta Rd 5200","City":"San Diego","State":"CA","Zip":"92158"},{"Location":"SAN DIEGO PROBATION EMJDF","Address":"446 Alta Rd 6100","City":"San Diego","State":"CA","Zip":"92158"},{"Location":"SAN DIEGO REGIONAL FIREARMS C","Address":"440 Alta Rd","City":"San Diego","State":"CA","Zip":"92158"},{"Location":"SAN DIEGO RURAL FIRE DEP","Address":"446 Alta Rd","City":"San Diego","State":"CA","Zip":"92158"},{"Location":"GEORGE BAILEY DETENTION","Address":"446 Alta Rd 5300","City":"San Diego","State":"CA","Zip":"92158"},{"Location":"GEORGE BAILEY DETENTION FACILI","Address":"446 Alta Rd 5300","City":"San Diego","State":"CA","Zip":"92158"},{"Location":"LAIDLAW","Address":"446 Alta Rd 200","City":"San Diego","State":"CA","Zip":"92158"},{"Location":"SAN DIEGO COUNTY SHERIFFS DEPT","Address":"446 Alta Rd 5200","City":"San Diego","State":"CA","Zip":"92158"},{"Location":"SAN DIEGO PROBATION EMJDF","Address":"446 Alta Rd 6100","City":"San Diego","State":"CA","Zip":"92158"},{"Location":"SAN DIEGO REGIONAL FIREARMS C","Address":"440 Alta Rd","City":"San Diego","State":"CA","Zip":"92158"},{"Location":"SAN DIEGO RURAL FIRE DEP","Address":"446 Alta Rd","City":"San Diego","State":"CA","Zip":"92158"}]