[{"Location":"ABEEC CHILDCARE 1","Address":"470 Island Breeze Ln","City":"San Diego","State":"CA","Zip":"92154"},{"Location":"ADESA SAN DIEGO","Address":"2175 Cactus Rd","City":"San Diego","State":"CA","Zip":"92154"},{"Location":"ALL AMERICAN SANDWICHES & PIZZ","Address":"685 Saturn Blvd","City":"San Diego","State":"CA","Zip":"92154"},{"Location":"ALL AMERICAN SANDWICHES & PIZZA","Address":"685 Saturn Blvd","City":"San Diego","State":"CA","Zip":"92154"},{"Location":"ALTOR","Address":"9775 Marconi Dr H","City":"San Diego","State":"CA","Zip":"92154"},{"Location":"AM MEX INTERNATIONAL","Address":"8690 Kerns St 110","City":"San Diego","State":"CA","Zip":"92154"},{"Location":"ANDREW & WILLIAMSON SALES CO","Address":"9940 Marconi Dr","City":"San Diego","State":"CA","Zip":"92154"},{"Location":"BAJA BEST DISTRIBUTING","Address":"9925 Airway Rd","City":"San Diego","State":"CA","Zip":"92154"},{"Location":"BOLL WEEVIL #26","Address":"695 Saturn Blvd G","City":"San Diego","State":"CA","Zip":"92154"},{"Location":"BRIDGESTONE AMERICAS","Address":"1411 Air Wing Rd","City":"San Diego","State":"CA","Zip":"92154"},{"Location":"BUREAU OF CUSTOMS AND BORDER","Address":"2500 Paseo Intl Rd","City":"San Diego","State":"CA","Zip":"92154"},{"Location":"CAROLINA TRUCKING INC","Address":"1243 La Media Rd Guard","City":"San Diego","State":"CA","Zip":"92154"},{"Location":"CHURCH OF HIS KINGDOM","Address":"950 Garland Dr","City":"San Diego","State":"CA","Zip":"92154"},{"Location":"CUSTOMS AND BORDER PROTECTION","Address":"9777 Via De La Amistad","City":"San Diego","State":"CA","Zip":"92154"},{"Location":"CUSTOMS BORDER PROTECTION","Address":"7680 Pogo Row","City":"San Diego","State":"CA","Zip":"92154"},{"Location":"DAVITA #3456 SAN YSIDRO","Address":"1445 30th St","City":"San Diego","State":"CA","Zip":"92154"},{"Location":"DEPT OF HOMELAND SECURITY 3","Address":"7560 Britannia Ct","City":"San Diego","State":"CA","Zip":"92154"},{"Location":"DHS%2FICE","Address":"2297 Niels Bohr Ct 110","City":"San Diego","State":"CA","Zip":"92154"},{"Location":"EAGLE SCIENTIFIC PRODUCTS","Address":"6960 Camino Maquiladora A","City":"San Diego","State":"CA","Zip":"92154"},{"Location":"ESTRA BROTHERS FRUIT AND VEG C","Address":"1425 30th St","City":"San Diego","State":"CA","Zip":"92154"},{"Location":"FAMILY GYM","Address":"2295 Manya St","City":"San Diego","State":"CA","Zip":"92154"},{"Location":"FMC 19840000","Address":"2252 Verus St","City":"San Diego","State":"CA","Zip":"92154"},{"Location":"FMC 19900000","Address":"3010 Del Sol Blvd","City":"San Diego","State":"CA","Zip":"92154"},{"Location":"FRESH PAC","Address":"1476 Corporate Center Dr","City":"San Diego","State":"CA","Zip":"92154"},{"Location":"GABBYS BARBERSHOP","Address":"4370 Palm Ave","City":"San Diego","State":"CA","Zip":"92154"},{"Location":"HONEYWELL SAFTEY PRODUCTS","Address":"7828 Waterville Rd","City":"San Diego","State":"CA","Zip":"92154"},{"Location":"JALISCO CAFE","Address":"1669 Palm Ave","City":"San Diego","State":"CA","Zip":"92154"},{"Location":"JOHN GIES RECREATIONAL","Address":"1334 Pequena St","City":"San Diego","State":"CA","Zip":"92154"},{"Location":"JOSE EL LOPEZ DDA INC","Address":"3490 Palm Ave","City":"San Diego","State":"CA","Zip":"92154"},{"Location":"LA PALAPA NAYARIT","Address":"1873 Palm Ave","City":"San Diego","State":"CA","Zip":"92154"},{"Location":"LUKITEL INC","Address":"2360 Michael Faraday Dr","City":"San Diego","State":"CA","Zip":"92154"},{"Location":"LUZITA'S","Address":"2933 Beyer Blvd","City":"San Diego","State":"CA","Zip":"92154"},{"Location":"MIKES GIANT NY PIZZA","Address":"1144 Hollister St","City":"San Diego","State":"CA","Zip":"92154"},{"Location":"MIRAWA RESTAURANT","Address":"3702 Del Sol Blvd C","City":"San Diego","State":"CA","Zip":"92154"},{"Location":"MY NAILS AND SPA","Address":"1840 Coronado Ave D","City":"San Diego","State":"CA","Zip":"92154"},{"Location":"NAVY EXCHANGE IMPERIAL BEACH","Address":"Olf Imperial Beach Bldg36","City":"San Diego","State":"CA","Zip":"92154"},{"Location":"NORTHGATE GONZALEZ LLC","Address":"2909 Coronado Ave","City":"San Diego","State":"CA","Zip":"92154"},{"Location":"OPERATION ALLIANCE","Address":"2255 Niels Bohr Ct","City":"San Diego","State":"CA","Zip":"92154"},{"Location":"PCL1","Address":"688 Hollister St","City":"San Diego","State":"CA","Zip":"92154"},{"Location":"PILOT FLYING J 34300","Address":"1497 Piper Ranch Rd","City":"San Diego","State":"CA","Zip":"92154"},{"Location":"PINNACLE INDUSTRIAL SUPP","Address":"6975 Camino Maquiladora","City":"San Diego","State":"CA","Zip":"92154"},{"Location":"PINOS PRODUCE","Address":"1710 Dornoch Ct","City":"San Diego","State":"CA","Zip":"92154"},{"Location":"PIZZA HUT","Address":"1808 Coronado Ave","City":"San Diego","State":"CA","Zip":"92154"},{"Location":"SANYO CORP","Address":"2055 Sanyo Ave","City":"San Diego","State":"CA","Zip":"92154"},{"Location":"SANYO MANUFACTURING CORP","Address":"2001 Sanyo Ave","City":"San Diego","State":"CA","Zip":"92154"},{"Location":"SELECT TRUCK PARTS","Address":"7144 Otay Mesa Rd","City":"San Diego","State":"CA","Zip":"92154"},{"Location":"SILK HOOKAH LOUNGE 2","Address":"1555 Palm Ave K","City":"San Diego","State":"CA","Zip":"92154"},{"Location":"SOUTHBAY LOUNGE","Address":"1463 Palm Ave","City":"San Diego","State":"CA","Zip":"92154"},{"Location":"SOUTHLAND PLAZA DENTAL","Address":"655 Saturn Blvd G","City":"San Diego","State":"CA","Zip":"92154"},{"Location":"STATE OF CALIFORNIA HIGHWAY PA","Address":"2335 Enrico Fermi Dr","City":"San Diego","State":"CA","Zip":"92154"},{"Location":"SUAREZ BROKERAGE INC","Address":"6995 Calle De Linea 101","City":"San Diego","State":"CA","Zip":"92154"},{"Location":"SULTAN 2","Address":"1280 Picador Blvd","City":"San Diego","State":"CA","Zip":"92154"},{"Location":"SWIFT TRANSPORTATION","Address":"6933 Calle De Linea","City":"San Diego","State":"CA","Zip":"92154"},{"Location":"TAPIOCA EXPRESS","Address":"4370 Palm Ave Q","City":"San Diego","State":"CA","Zip":"92154"},{"Location":"TERESITAS FRUTERIA","Address":"4370 Palm Ave S","City":"San Diego","State":"CA","Zip":"92154"},{"Location":"THE LANDING STRIP","Address":"1424 Continental St","City":"San Diego","State":"CA","Zip":"92154"},{"Location":"TOMODACHI SUSHI BAR","Address":"4390 Palm Ave B","City":"San Diego","State":"CA","Zip":"92154"},{"Location":"TRUCK.NET LLC","Address":"8490 Avenida De La Fuente","City":"San Diego","State":"CA","Zip":"92154"},{"Location":"UNITRIM","Address":"1840 Coronado Ave","City":"San Diego","State":"CA","Zip":"92154"},{"Location":"YAQUI AUTO RECYCLING","Address":"6400 Datsun St","City":"San Diego","State":"CA","Zip":"92154"}]