[{"Location":"CNSWG-1%2FLOGSU","Address":"3632 Guadalcanal Rd 165w","City":"San Diego","State":"CA","Zip":"92155"},{"Location":"COMTACGRU ONE","Address":"3603 Tarawa Rd 150","City":"San Diego","State":"CA","Zip":"92155"},{"Location":"LOGSU1 CSSD","Address":"2424 Rendova Rd 251","City":"San Diego","State":"CA","Zip":"92155"},{"Location":"LOGSUPP MEDICAL","Address":"2000 Trident Way 600","City":"San Diego","State":"CA","Zip":"92155"},{"Location":"MARITIME SCI-2","Address":"3632 Guadalcanal Rd","City":"San Diego","State":"CA","Zip":"92155"},{"Location":"NAB CORONADO","Address":"3604 Guadacanal Rd 3","City":"San Diego","State":"CA","Zip":"92155"},{"Location":"NAVAL SPECIAL WARFARE COMMAND","Address":"2546 Trident Way 633","City":"San Diego","State":"CA","Zip":"92155"},{"Location":"NAVSEALS 60067","Address":"2446 Trident Way 60067","City":"San Diego","State":"CA","Zip":"92155"},{"Location":"NAVSEALS 637","Address":"2446 Trident Way 637","City":"San Diego","State":"CA","Zip":"92155"},{"Location":"NAVY EXCHANGE NAVAL AMPHIBIOUS","Address":"3228 Bioadoloanal Rd","City":"San Diego","State":"CA","Zip":"92155"},{"Location":"NAVYSEALS #617","Address":"2446 Trident Way 617","City":"San Diego","State":"CA","Zip":"92155"},{"Location":"NSWG","Address":"2424 Rendova Rd 156","City":"San Diego","State":"CA","Zip":"92155"},{"Location":"NSWG-1 RANGE SCI","Address":"3632 Guadalcanal Rd","City":"San Diego","State":"CA","Zip":"92155"},{"Location":"SEAL TEAM 17","Address":"3423 Guadalcanal Rd 401","City":"San Diego","State":"CA","Zip":"92155"},{"Location":"SUPPLY OFFICER ACU-1","Address":"3226 Tarawa Rd 108","City":"San Diego","State":"CA","Zip":"92155"},{"Location":"TACRON 12","Address":"2378 Rendova Rd 159","City":"San Diego","State":"CA","Zip":"92155"},{"Location":"US NAVY NSWC 603A%2FB","Address":"2000 Trident Way 603am","City":"San Diego","State":"CA","Zip":"92155"}]