[{"Location":"BAJA FISH MART","Address":"2036 Dairy Rd","City":"San Ysidro","State":"CA","Zip":"92173"},{"Location":"CIRCUS MAAM","Address":"137 Virginia Ave","City":"San Ysidro","State":"CA","Zip":"92173"},{"Location":"DUTY FREE CITY","Address":"601 E San Ysidro Blvd","City":"San Ysidro","State":"CA","Zip":"92173"},{"Location":"GATE WAY PARKING","Address":"701 E San Ysidro Blvd","City":"San Ysidro","State":"CA","Zip":"92173"},{"Location":"HUERTA & ASOCIADOS","Address":"4635 Border Village Rd","City":"San Ysidro","State":"CA","Zip":"92173"},{"Location":"INTERCAM FINANCIAL SERVI","Address":"364 E San Ysidro Blvd","City":"San Ysidro","State":"CA","Zip":"92173"},{"Location":"LAVANDERIA LLC","Address":"2036 Dairy Mart Rd","City":"San Ysidro","State":"CA","Zip":"92173"},{"Location":"LOS CARVONES","Address":"4310 Camino De La Plz","City":"San Ysidro","State":"CA","Zip":"92173"},{"Location":"LUPITA G  FERNANDEZ ASSCOIATE","Address":"492 W San Ysidro Blvd","City":"San Ysidro","State":"CA","Zip":"92173"},{"Location":"NIKE INC","Address":"4445 Camino De La Plz 350","City":"San Ysidro","State":"CA","Zip":"92173"},{"Location":"NOVEX ART","Address":"494 W Calle Primera 91391","City":"San Ysidro","State":"CA","Zip":"92173"}]