[{"Location":"AMERICAN MEDICAL RESPONSE","Address":"78078 Country Club Dr 206","City":"Bermuda Dunes","State":"CA","Zip":"92203"},{"Location":"BIG O TIRES","Address":"42098 Washington St","City":"Bermuda Dunes","State":"CA","Zip":"92203"},{"Location":"CHEF GEORGES","Address":"40100 Washington St 125","City":"Bermuda Dunes","State":"CA","Zip":"92203"},{"Location":"JACOBSSON ENGINEERING INC","Address":"79301 Country Club Dr 103","City":"Bermuda Dunes","State":"CA","Zip":"92203"},{"Location":"JB SPORTS AND VARSITY JA","Address":"41800 Washington St 101b","City":"Bermuda Dunes","State":"CA","Zip":"92203"},{"Location":"JOE'S SUSHI","Address":"40100 Washington St 131","City":"Bermuda Dunes","State":"CA","Zip":"92203"},{"Location":"MURPHS GASLIGHT RESTAURA","Address":"79860 Avenue 42","City":"Bermuda Dunes","State":"CA","Zip":"92203"},{"Location":"PATHWAY INC","Address":"79741 Avenue 42","City":"Bermuda Dunes","State":"CA","Zip":"92203"},{"Location":"PIZZA HUT","Address":"40100 Washington St 109","City":"Bermuda Dunes","State":"CA","Zip":"92203"},{"Location":"WIENERSCHNITZEL","Address":"42092 Washington St","City":"Bermuda Dunes","State":"CA","Zip":"92203"},{"Location":"AIR AND HOSE SOURCE INC","Address":"42750 Aegean St","City":"Indio","State":"CA","Zip":"92203"},{"Location":"CA HIGHWAY PATROL","Address":"79650 Varner Rd","City":"Indio","State":"CA","Zip":"92203"},{"Location":"CABAZON COMMAND CENTER","Address":"84245 Indio Springs Pkwy","City":"Indio","State":"CA","Zip":"92203"},{"Location":"CABAZON INDIANS","Address":"84245 Indio Springs Pkwy 1","City":"Indio","State":"CA","Zip":"92203"},{"Location":"CABAZON PLANNING","Address":"84245 Indio Springs Pkwy","City":"Indio","State":"CA","Zip":"92203"},{"Location":"CHARLI MARRONES","Address":"42250 Jackson St B","City":"Indio","State":"CA","Zip":"92203"},{"Location":"DESERT MOVING COMPANY LLC","Address":"82585 Showcase Pkwy","City":"Indio","State":"CA","Zip":"92203"},{"Location":"FANTASY SPRINGS CASINO","Address":"84245 Indio Springs Dr","City":"Indio","State":"CA","Zip":"92203"},{"Location":"I-10 TOYOTA","Address":"78980 Varner Rd","City":"Indio","State":"CA","Zip":"92203"},{"Location":"I-10 TOYOTA 2","Address":"78650 Varner Rd","City":"Indio","State":"CA","Zip":"92203"},{"Location":"LA CASITA MEX REST","Address":"42250 Jackson St B107","City":"Indio","State":"CA","Zip":"92203"},{"Location":"RAMONA TIRE","Address":"42150 Jackson St F","City":"Indio","State":"CA","Zip":"92203"},{"Location":"RANCHO CASA BLANCA OWNER ASS","Address":"84136 Avenue 44","City":"Indio","State":"CA","Zip":"92203"},{"Location":"SUPER TARGET","Address":"42625 Jackson St","City":"Indio","State":"CA","Zip":"92203"}]