[{"Location":"INTERNATIONAL SCHOOL OF BEAUTY","Address":"81695 Us Highway 111 1","City":"Chiriaco Smt","State":"CA","Zip":"92201"},{"Location":"ABADILLA FAMILY DENTISTRY","Address":"81840 Avenue 46 105","City":"Indio","State":"CA","Zip":"92201"},{"Location":"ACE ALTENATOR","Address":"83509 Us Highway 111","City":"Indio","State":"CA","Zip":"92201"},{"Location":"ADVENTURES ON WHEELS INC","Address":"83386 Us Highway 111","City":"Indio","State":"CA","Zip":"92201"},{"Location":"ALADDIN BB DEPT 704","Address":"82 65 Hwy 111 1","City":"Indio","State":"CA","Zip":"92201"},{"Location":"ALATORRE DDS ALICE G","Address":"82013 Dr Carreon Blvd D","City":"Indio","State":"CA","Zip":"92201"},{"Location":"ALKOBAR GRILL","Address":"82590 Us Highway 111 Suite","City":"Indio","State":"CA","Zip":"92201"},{"Location":"AMERICAN LEGION","Address":"44200 Sun Gold St","City":"Indio","State":"CA","Zip":"92201"},{"Location":"ANHEUSER-BUSCH WHLSLR #00434","Address":"82851 Avenue 45","City":"Indio","State":"CA","Zip":"92201"},{"Location":"ANYTIME FITNESS","Address":"44100 Jefferson St 503","City":"Indio","State":"CA","Zip":"92201"},{"Location":"APPLEBEE'S #7806","Address":"82894 Us Highway 111","City":"Indio","State":"CA","Zip":"92201"},{"Location":"BALL AUTOMOTIVE LLC","Address":"83500 Us Highway 111","City":"Indio","State":"CA","Zip":"92201"},{"Location":"BARBERS EDGE","Address":"82013 Dr Carreon Blvd J","City":"Indio","State":"CA","Zip":"92201"},{"Location":"BOBS TWIN KITCHEN","Address":"44325 Jackson St","City":"Indio","State":"CA","Zip":"92201"},{"Location":"CABALLERO","Address":"82204 Us Highway 111","City":"Indio","State":"CA","Zip":"92201"},{"Location":"CACTUS JACKS BAR","Address":"82347 Us Highway 111","City":"Indio","State":"CA","Zip":"92201"},{"Location":"CAL BANK & TRUST","Address":"250 Highway 111 101c","City":"Indio","State":"CA","Zip":"92201"},{"Location":"CALIBER COLLISION","Address":"82 279 Avenue 44","City":"Indio","State":"CA","Zip":"92201"},{"Location":"CARDENAS MARKET 17","Address":"82266 Us Highway 111","City":"Indio","State":"CA","Zip":"92201"},{"Location":"CIRO ITALIAN RESTAURANT","Address":"81963 Us Highway 111","City":"Indio","State":"CA","Zip":"92201"},{"Location":"CLUB 5 BAR","Address":"82971 Bliss Ave","City":"Indio","State":"CA","Zip":"92201"},{"Location":"CLUB PANCHOS","Address":"44731 Jackson St","City":"Indio","State":"CA","Zip":"92201"},{"Location":"COACHELLA VALLEY MOSQUITO","Address":"43420 Trader Pl","City":"Indio","State":"CA","Zip":"92201"},{"Location":"CORONADO GARDENS","Address":"81736 Avenue 48","City":"Indio","State":"CA","Zip":"92201"},{"Location":"DESERT SECURITY SERVICES","Address":"81824 Trader Pl C4","City":"Indio","State":"CA","Zip":"92201"},{"Location":"DFC TAX CENTER 2","Address":"81711 Us Highway 111","City":"Indio","State":"CA","Zip":"92201"},{"Location":"EL MOLCAJETE","Address":"81096 Us Highway 111","City":"Indio","State":"CA","Zip":"92201"},{"Location":"EL TAPATIO","Address":"83161 Indio Blvd","City":"Indio","State":"CA","Zip":"92201"},{"Location":"ELECTRONIC RAPID TAX SERVICE","Address":"82204 Us Highway 111 B","City":"Indio","State":"CA","Zip":"92201"},{"Location":"FIRESTONE #011169","Address":"82323 Highway 111 Indio","City":"Indio","State":"CA","Zip":"92201"},{"Location":"FIVE STAR NAILS","Address":"81713 Us Highway 111 D","City":"Indio","State":"CA","Zip":"92201"},{"Location":"G & C SMOG AND AUTO","Address":"83420 Indio Blvd B","City":"Indio","State":"CA","Zip":"92201"},{"Location":"GILLISPIE MARK A","Address":"82227 Us Highway 111 10","City":"Indio","State":"CA","Zip":"92201"},{"Location":"INDIO MEDICAL CLINIC","Address":"82360 Us Highway 111 E","City":"Indio","State":"CA","Zip":"92201"},{"Location":"INDIO MOOSE LODGE","Address":"46459 Monroe St","City":"Indio","State":"CA","Zip":"92201"},{"Location":"LA HACIENDA APARTMENTS","Address":"82495 Miles Ave","City":"Indio","State":"CA","Zip":"92201"},{"Location":"LA PALMA RESTAURANT","Address":"48630 Monroe St","City":"Indio","State":"CA","Zip":"92201"},{"Location":"LEONS GYM AND PERSONAL TRAININ","Address":"83535 Peach St","City":"Indio","State":"CA","Zip":"92201"},{"Location":"LIONEL SAPETTO","Address":"45902 Oasis St A","City":"Indio","State":"CA","Zip":"92201"},{"Location":"LM ROJAS DENTAL","Address":"44200 Monroe St","City":"Indio","State":"CA","Zip":"92201"},{"Location":"MACARIOS GRILL","Address":"80783 Indio Blvd","City":"Indio","State":"CA","Zip":"92201"},{"Location":"MARIOS ITALIAN CAFE%2C INC","Address":"81939 Us Highway 111","City":"Indio","State":"CA","Zip":"92201"},{"Location":"MEX AMER ENT GROUP","Address":"44250 Monroe St 2","City":"Indio","State":"CA","Zip":"92201"},{"Location":"MEX AMER ENT GROUP","Address":"44250 Monroe St","City":"Indio","State":"CA","Zip":"92201"},{"Location":"MEX AMERICAN TAX SERVICE","Address":"44250 Monroe St","City":"Indio","State":"CA","Zip":"92201"},{"Location":"MEX-AMERICAN ENT GROUP","Address":"44250 Monroe St 1","City":"Indio","State":"CA","Zip":"92201"},{"Location":"MIDAS AUTO SERVICE EXPER","Address":"80962 Us Highway 111","City":"Indio","State":"CA","Zip":"92201"},{"Location":"MONROE DENTAL GROUP","Address":"81106 Us Highway 111 C","City":"Indio","State":"CA","Zip":"92201"},{"Location":"MOYA","Address":"81405 Us Highway 111","City":"Indio","State":"CA","Zip":"92201"},{"Location":"NAILS FOR YOU","Address":"82204 Us Highway 111","City":"Indio","State":"CA","Zip":"92201"},{"Location":"NEIL'S LOUNGE","Address":"80956 Us Highway 111","City":"Indio","State":"CA","Zip":"92201"},{"Location":"OASIS REHAB CENTER","Address":"8180 Avenue 46 106","City":"Indio","State":"CA","Zip":"92201"},{"Location":"PHILLIPS","Address":"82451 Us Highway 111 D101","City":"Indio","State":"CA","Zip":"92201"},{"Location":"PUEBLO VIEJO GRILL 1","Address":"81931 Us Highway 111","City":"Indio","State":"CA","Zip":"92201"},{"Location":"QUE MANGO","Address":"46845 Monroe St 5","City":"Indio","State":"CA","Zip":"92201"},{"Location":"ROSAMARILLO'S RESTAURANT","Address":"49990 Jefferson St 120","City":"Indio","State":"CA","Zip":"92201"},{"Location":"RUBOBANK 1107","Address":"81%2F790 Us Highway 111","City":"Indio","State":"CA","Zip":"92201"},{"Location":"SANTA MARIA DENTAL CENTE","Address":"82204 Us Highway 111","City":"Indio","State":"CA","Zip":"92201"},{"Location":"SIZZLER 412","Address":"81760 Us Highway 111","City":"Indio","State":"CA","Zip":"92201"},{"Location":"SLOANS BKFST LUNCH AND DINNER","Address":"81539 Us Highway 111","City":"Indio","State":"CA","Zip":"92201"},{"Location":"SMS TRANSPORTATION","Address":"83900 Avenue 45 C","City":"Indio","State":"CA","Zip":"92201"},{"Location":"SOUTHERN PAC PIZZA INC","Address":"81850 Avenue 46","City":"Indio","State":"CA","Zip":"92201"},{"Location":"SPARKLEAN LAWNTREE INDIO","Address":"81106 Us Highway 111 D","City":"Indio","State":"CA","Zip":"92201"},{"Location":"SUSHI KITO","Address":"44100 Jefferson St C307","City":"Indio","State":"CA","Zip":"92201"},{"Location":"TAQUERIA JALISCO","Address":"43501 Monroe St","City":"Indio","State":"CA","Zip":"92201"},{"Location":"THE GOLF CONNECTION1","Address":"49906 Jefferson St 100","City":"Indio","State":"CA","Zip":"92201"},{"Location":"THE JACKALOPE RANCH RESTAURANT","Address":"80400 Us Highway 111","City":"Indio","State":"CA","Zip":"92201"},{"Location":"THE PLANTATION GOLF CLUB","Address":"50994 Monroe St","City":"Indio","State":"CA","Zip":"92201"},{"Location":"THE TACK ROOM TAVERN","Address":"81900 Avenue 51","City":"Indio","State":"CA","Zip":"92201"},{"Location":"TRIANGLE BAR FARMS","Address":"81301 Avenue 50","City":"Indio","State":"CA","Zip":"92201"},{"Location":"UNITED STATES BORDER PATROL","Address":"45620 Commerce St","City":"Indio","State":"CA","Zip":"92201"},{"Location":"US BANK","Address":"82118 Us Highway 111","City":"Indio","State":"CA","Zip":"92201"},{"Location":"US CUSTOMS & BORDER PATR","Address":"45620 Commerce St","City":"Indio","State":"CA","Zip":"92201"},{"Location":"VALLEY BARBER SHOP","Address":"45596 Fargo St 1","City":"Indio","State":"CA","Zip":"92201"},{"Location":"VIP NAILS","Address":"49950 Jefferson St 140","City":"Indio","State":"CA","Zip":"92201"},{"Location":"WORLDWIDE GOLF ENT","Address":"80555 Us Highway 111","City":"Indio","State":"CA","Zip":"92201"}]