[{"Location":"ALDAPE CROSSFIT","Address":"42280 Beacon Hl D6","City":"Palm Desert","State":"CA","Zip":"92211"},{"Location":"APPLEBEE'S #9891","Address":"74999 Frank Sinatra Dr","City":"Palm Desert","State":"CA","Zip":"92211"},{"Location":"AQUATIC PUMP SERVICES","Address":"75686 Dolmar Ct","City":"Palm Desert","State":"CA","Zip":"92211"},{"Location":"BACK NINE GREENS","Address":"75061 Mediterranean","City":"Palm Desert","State":"CA","Zip":"92211"},{"Location":"BERGER FDN%2FBELLATRIX REST","Address":"75200 Classic Club Blvd","City":"Palm Desert","State":"CA","Zip":"92211"},{"Location":"BERGER FOUNDATION","Address":"75200 Classic Club Blvd","City":"Palm Desert","State":"CA","Zip":"92211"},{"Location":"BILLY QS","Address":"36901 Cook St 7","City":"Palm Desert","State":"CA","Zip":"92211"},{"Location":"CARDINAL PROMOTIONS","Address":"73605 Dinah Shore Dr 600f","City":"Palm Desert","State":"CA","Zip":"92211"},{"Location":"CLARO 001","Address":"42161 Beacon Hl","City":"Palm Desert","State":"CA","Zip":"92211"},{"Location":"COACHELLA VALLEY ORTHOPE","Address":"75150 Sheryl Ave","City":"Palm Desert","State":"CA","Zip":"92211"},{"Location":"COLT BUILDERS CORP","Address":"77777 Country Club Dr 138","City":"Palm Desert","State":"CA","Zip":"92211"},{"Location":"D'S PAINT AND BODY","Address":"39249 Leopard St","City":"Palm Desert","State":"CA","Zip":"92211"},{"Location":"DA VI NAILS","Address":"34500 Monterey Ave","City":"Palm Desert","State":"CA","Zip":"92211"},{"Location":"DAVITA #2495 BERMUDA DUNES","Address":"78030 Wildcat Dr","City":"Palm Desert","State":"CA","Zip":"92211"},{"Location":"ERMANNO MILTI ARTISTRY","Address":"77777 Country Club Dr 101","City":"Palm Desert","State":"CA","Zip":"92211"},{"Location":"FIRST BANK","Address":"39580 Washington St","City":"Palm Desert","State":"CA","Zip":"92211"},{"Location":"GARY OKAMOTO DMD PROF CORP","Address":"77564 Country Club Dr 190a","City":"Palm Desert","State":"CA","Zip":"92211"},{"Location":"GOLD'S GYM #358","Address":"77900 Country Club Dr","City":"Palm Desert","State":"CA","Zip":"92211"},{"Location":"GOLF ALLEY","Address":"42829 Cook St 101","City":"Palm Desert","State":"CA","Zip":"92211"},{"Location":"GOLFSMITH #088","Address":"72700 Dinah Shore Dr 200","City":"Palm Desert","State":"CA","Zip":"92211"},{"Location":"I MORTGAGE 2","Address":"41990 Cook St C302","City":"Palm Desert","State":"CA","Zip":"92211"},{"Location":"KEYTECH SOLUTIONS LLC","Address":"77682 Country Club Dr F2","City":"Palm Desert","State":"CA","Zip":"92211"},{"Location":"KOHL'S #1187","Address":"34940 Monterey Ave","City":"Palm Desert","State":"CA","Zip":"92211"},{"Location":"LA QUINTA BREWING COMPANY","Address":"77917 Wildcat Dr","City":"Palm Desert","State":"CA","Zip":"92211"},{"Location":"LADHAR GROUP  INC. 1287","Address":"34300 Monterey Ave 103","City":"Palm Desert","State":"CA","Zip":"92211"},{"Location":"LC LIGHTING ELECTRIC","Address":"41905 Boardwalk E","City":"Palm Desert","State":"CA","Zip":"92211"},{"Location":"LEGENDS & ICONS","Address":"78152 Varner Rd","City":"Palm Desert","State":"CA","Zip":"92211"},{"Location":"LOMA LINDA UNIVERSITY","Address":"34280 Gateway Dr G","City":"Palm Desert","State":"CA","Zip":"92211"},{"Location":"MARINA LEVITAN","Address":"42185 Washington St","City":"Palm Desert","State":"CA","Zip":"92211"},{"Location":"MARIOS ITALIAN","Address":"78152 Varner Rd H","City":"Palm Desert","State":"CA","Zip":"92211"},{"Location":"MARRIOTT SHADOW RIDGE GOLF","Address":"9002 Shadow Ridge Rd","City":"Palm Desert","State":"CA","Zip":"92211"},{"Location":"MARRIOTT'S SHADOW RIDGE M&S","Address":"9000 Shadow Ridge Rd","City":"Palm Desert","State":"CA","Zip":"92211"},{"Location":"MATRIX FITNESS AND PERFORMANCE","Address":"75175 Merle Dr 150","City":"Palm Desert","State":"CA","Zip":"92211"},{"Location":"MOUNTAIN VIEW TIRE AND SERVICE","Address":"34700 Monterey Ave","City":"Palm Desert","State":"CA","Zip":"92211"},{"Location":"PALM DESERT COUNTRY CLUB","Address":"77200 California Dr","City":"Palm Desert","State":"CA","Zip":"92211"},{"Location":"PALM DESERT COUNTRY CLUB","Address":"39205 Palm Valley Dr","City":"Palm Desert","State":"CA","Zip":"92211"},{"Location":"PALM VALLEY COUNTRY CLUB","Address":"39205 Palm Valley Dr","City":"Palm Desert","State":"CA","Zip":"92211"},{"Location":"PASSION NAILS","Address":"36891 Cook St 5","City":"Palm Desert","State":"CA","Zip":"92211"},{"Location":"PAULA SALON","Address":"42215 Washington St F","City":"Palm Desert","State":"CA","Zip":"92211"},{"Location":"PENTA BUILDING GROUP","Address":"36917 Cook St 102","City":"Palm Desert","State":"CA","Zip":"92211"},{"Location":"PIZZERIA VILLAGIO","Address":"37029 Cook St 101","City":"Palm Desert","State":"CA","Zip":"92211"},{"Location":"PUEBLO VIEJO GRILL","Address":"36901 Cook St 4","City":"Palm Desert","State":"CA","Zip":"92211"},{"Location":"ROCK'S FIREHOUSE GRILL","Address":"36891 Cook St 10","City":"Palm Desert","State":"CA","Zip":"92211"},{"Location":"SHADOWRIDGE MARRIOTT","Address":"9003 Shadow Ridge Rd","City":"Palm Desert","State":"CA","Zip":"92211"},{"Location":"STEWART BATTERIES LLC","Address":"34300 Monterey Ave","City":"Palm Desert","State":"CA","Zip":"92211"},{"Location":"SUPERIOR RIDE LIMO","Address":"42005 Cook St 100","City":"Palm Desert","State":"CA","Zip":"92211"},{"Location":"THE 19TH HOLE%2C INC - MLB","Address":"42305 Washington St A","City":"Palm Desert","State":"CA","Zip":"92211"},{"Location":"TJS","Address":"40205 Washington St 2","City":"Palm Desert","State":"CA","Zip":"92211"},{"Location":"US BANK","Address":"36975 Cook St","City":"Palm Desert","State":"CA","Zip":"92211"},{"Location":"WEST COAST  CLOTHING","Address":"73700 Dinah Shore Dr","City":"Palm Desert","State":"CA","Zip":"92211"}]