[{"Location":"COLDWELL BANKER","Address":"45000 Club Dr","City":"Indian Wells","State":"CA","Zip":"92210"},{"Location":"EL DORADO COUNTRY CLUB","Address":"46000 Fairway Dr","City":"Indian Wells","State":"CA","Zip":"92210"},{"Location":"EUREKA- INDIAN WELLS","Address":"74985 State Hwy. 111","City":"Indian Wells","State":"CA","Zip":"92210"},{"Location":"HYATT REGENCY INDIAN (0064250)","Address":"44600 Indian Wells Ln","City":"Indian Wells","State":"CA","Zip":"92210"},{"Location":"INDIAM WELLS GOLF RESORT","Address":"44500 Indian Wells Ln","City":"Indian Wells","State":"CA","Zip":"92210"},{"Location":"INDIAN WELLS GOLF RESORT","Address":"44500 Indian Wells Ln","City":"Indian Wells","State":"CA","Zip":"92210"},{"Location":"PIANISSIMO RESTAURANT & BAR","Address":"44600 Indian Wells Ln","City":"Indian Wells","State":"CA","Zip":"92210"},{"Location":"ROADRUNNER CAFE","Address":"44600 Indian Wells Ln","City":"Indian Wells","State":"CA","Zip":"92210"},{"Location":"SCOTTRADE 04R","Address":"74950 Us Highway 111","City":"Indian Wells","State":"CA","Zip":"92210"},{"Location":"THE RESERVE CLUB","Address":"74001 Reserve Dr","City":"Indian Wells","State":"CA","Zip":"92210"},{"Location":"THE RESERVE CLUB","Address":"49400 Desert Butte Trl","City":"Indian Wells","State":"CA","Zip":"92210"},{"Location":"THE VINTAGE CLUB","Address":"75001 Vintage Club Dr W","City":"Indian Wells","State":"CA","Zip":"92210"},{"Location":"TOSCANA COUNTRY CLUB","Address":"76009 Via Club Villa","City":"Indian Wells","State":"CA","Zip":"92210"},{"Location":"TOSCANA COUNTRY CLUB INC","Address":"76009 Via Club Villa","City":"Indian Wells","State":"CA","Zip":"92210"},{"Location":"COLDWELL BANKER","Address":"45000 Club Dr","City":"Indian Wells","State":"CA","Zip":"92210"},{"Location":"EL DORADO COUNTRY CLUB","Address":"46000 Fairway Dr","City":"Indian Wells","State":"CA","Zip":"92210"},{"Location":"EUREKA- INDIAN WELLS","Address":"74985 State Hwy. 111","City":"Indian Wells","State":"CA","Zip":"92210"},{"Location":"HYATT REGENCY INDIAN (0064250)","Address":"44600 Indian Wells Ln","City":"Indian Wells","State":"CA","Zip":"92210"},{"Location":"INDIAM WELLS GOLF RESORT","Address":"44500 Indian Wells Ln","City":"Indian Wells","State":"CA","Zip":"92210"},{"Location":"INDIAN WELLS GOLF RESORT","Address":"44500 Indian Wells Ln","City":"Indian Wells","State":"CA","Zip":"92210"},{"Location":"PIANISSIMO RESTAURANT & BAR","Address":"44600 Indian Wells Ln","City":"Indian Wells","State":"CA","Zip":"92210"},{"Location":"ROADRUNNER CAFE","Address":"44600 Indian Wells Ln","City":"Indian Wells","State":"CA","Zip":"92210"},{"Location":"SCOTTRADE 04R","Address":"74950 Us Highway 111","City":"Indian Wells","State":"CA","Zip":"92210"},{"Location":"THE RESERVE CLUB","Address":"49400 Desert Butte Trl","City":"Indian Wells","State":"CA","Zip":"92210"},{"Location":"THE RESERVE CLUB","Address":"74001 Reserve Dr","City":"Indian Wells","State":"CA","Zip":"92210"},{"Location":"THE VINTAGE CLUB","Address":"75001 Vintage Club Dr W","City":"Indian Wells","State":"CA","Zip":"92210"},{"Location":"TOSCANA COUNTRY CLUB","Address":"76009 Via Club Villa","City":"Indian Wells","State":"CA","Zip":"92210"},{"Location":"TOSCANA COUNTRY CLUB INC","Address":"76009 Via Club Villa","City":"Indian Wells","State":"CA","Zip":"92210"}]