[{"Location":"AMERICAN LEGIONS II","Address":"509 G St","City":"Brawley","State":"CA","Zip":"92227"},{"Location":"ASSAGGIO'S","Address":"538 E St","City":"Brawley","State":"CA","Zip":"92227"},{"Location":"BOARDMANVILLE LLC","Address":"4400 Ted Kipf Rd","City":"Brawley","State":"CA","Zip":"92227"},{"Location":"BRAWLEY EXPRESS","Address":"897 Shank Rd","City":"Brawley","State":"CA","Zip":"92227"},{"Location":"BRAWLEY PIZZA FACTORY","Address":"996 G St","City":"Brawley","State":"CA","Zip":"92227"},{"Location":"BRAWLLEY FIRE STATION 2","Address":"1501 Jones St","City":"Brawley","State":"CA","Zip":"92227"},{"Location":"C & F TIRE COMPANY","Address":"790 B St F","City":"Brawley","State":"CA","Zip":"92227"},{"Location":"CAMPESINOS UNIDOS INC","Address":"1005 C St","City":"Brawley","State":"CA","Zip":"92227"},{"Location":"CANERGY LLC","Address":"888 Cherry Ct","City":"Brawley","State":"CA","Zip":"92227"},{"Location":"DEL RIO CC","Address":"102 E Del Rio Rd","City":"Brawley","State":"CA","Zip":"92227"},{"Location":"EMPERIAL COUNTY SHERIFF","Address":"1050 N Eastern Ave","City":"Brawley","State":"CA","Zip":"92227"},{"Location":"FIVE CROWNS INC","Address":"551 W Main St 2","City":"Brawley","State":"CA","Zip":"92227"},{"Location":"GLAMIS WEATHER.COM","Address":"5775 E Us Highway 78","City":"Brawley","State":"CA","Zip":"92227"},{"Location":"HACIENDA MARKET","Address":"941 K St","City":"Brawley","State":"CA","Zip":"92227"},{"Location":"HIDALGO SOCIETY INC","Address":"410 S Cesar Chavez St","City":"Brawley","State":"CA","Zip":"92227"},{"Location":"INFERNO","Address":"505 Main St","City":"Brawley","State":"CA","Zip":"92227"},{"Location":"JORDAN CENTRAL IMPLEMENT","Address":"1280 Main St","City":"Brawley","State":"CA","Zip":"92227"},{"Location":"LAS CHABELAS","Address":"749 S Brawley Ave","City":"Brawley","State":"CA","Zip":"92227"},{"Location":"NEUROSPINE & HEADACHE PA","Address":"195 W Legion Rd","City":"Brawley","State":"CA","Zip":"92227"},{"Location":"SEQUOIA PRODUCE SALES","Address":"275 Marjorie Ave","City":"Brawley","State":"CA","Zip":"92227"},{"Location":"SNAP FITNESS","Address":"435 W Main St A","City":"Brawley","State":"CA","Zip":"92227"},{"Location":"TC CONSTRUCTION","Address":"1201 Duarte St","City":"Brawley","State":"CA","Zip":"92227"},{"Location":"TERRY ROBERTSON INC","Address":"1643 River Dr","City":"Brawley","State":"CA","Zip":"92227"},{"Location":"TRIPLE S FARMS","Address":"180 Marjorie Ave","City":"Brawley","State":"CA","Zip":"92227"},{"Location":"WAVES RESTAURANT","Address":"621 S Brawley Avenue","City":"Brawley","State":"CA","Zip":"92227"}]