[{"Location":"AHA QUIN RESORT","Address":"Hc 20 Box 2400","City":"Blythe","State":"CA","Zip":"92225"},{"Location":"ANHEUSER-BUSCH WHLSLR #00415","Address":"390 N Eucalyptus Ave","City":"Blythe","State":"CA","Zip":"92225"},{"Location":"COFFEE SHOP","Address":"800 W Hobsonway","City":"Blythe","State":"CA","Zip":"92225"},{"Location":"DELTACO 139","Address":"120 S Lovekin Blvd","City":"Blythe","State":"CA","Zip":"92225"},{"Location":"DESERT VIEW MEDICAL CENTER","Address":"205 N 1st St A","City":"Blythe","State":"CA","Zip":"92225"},{"Location":"EL SOLANO HOTEL","Address":"170 S Spring St","City":"Blythe","State":"CA","Zip":"92225"},{"Location":"ELKS LODGE","Address":"244 W Hobson Way","City":"Blythe","State":"CA","Zip":"92225"},{"Location":"FARRAGE REALTY","Address":"248 W Hobsonway","City":"Blythe","State":"CA","Zip":"92225"},{"Location":"FIRST SOLAR DESERT CENTER","Address":"1990 Dracker Rd","City":"Blythe","State":"CA","Zip":"92225"},{"Location":"FMC 15250000","Address":"737 W Hobsonway","City":"Blythe","State":"CA","Zip":"92225"},{"Location":"FRYE CHAPELE","Address":"633 N 7th St","City":"Blythe","State":"CA","Zip":"92225"},{"Location":"JORGES BARBERSHOP","Address":"721 E Hobsonway","City":"Blythe","State":"CA","Zip":"92225"},{"Location":"LA CASITA DOS LLC","Address":"830 W Rice St","City":"Blythe","State":"CA","Zip":"92225"},{"Location":"LALOS MEXICANFOOD","Address":"1843 E Hobsonway","City":"Blythe","State":"CA","Zip":"92225"},{"Location":"LEONEL RODRIGUEZ MD","Address":"205 N 1st St","City":"Blythe","State":"CA","Zip":"92225"},{"Location":"REBEL BBQ","Address":"181 S Lovekin Blvd","City":"Blythe","State":"CA","Zip":"92225"},{"Location":"RED CACTUS BAR GRILL","Address":"320 S Lovekin Blvd","City":"Blythe","State":"CA","Zip":"92225"},{"Location":"RFD STATION 44","Address":"13987 S Main St","City":"Blythe","State":"CA","Zip":"92225"},{"Location":"RIVERBOTTOM FARMS","Address":"31550 S Arrowhead Blvd","City":"Blythe","State":"CA","Zip":"92225"},{"Location":"ROSITAS RESTAURANT","Address":"611 W Hobson Way","City":"Blythe","State":"CA","Zip":"92225"},{"Location":"SAINT JOAN OF ARC","Address":"875 E Chanslor Way","City":"Blythe","State":"CA","Zip":"92225"},{"Location":"SHORT STOP LIQUOR","Address":"300 E Hobsonway","City":"Blythe","State":"CA","Zip":"92225"},{"Location":"SIZZLER 0171","Address":"1101 W Hobsonway","City":"Blythe","State":"CA","Zip":"92225"},{"Location":"STUDIO TEN","Address":"803 E Hobson Way","City":"Blythe","State":"CA","Zip":"92225"},{"Location":"SUBWAY","Address":"650 W Donlon St","City":"Blythe","State":"CA","Zip":"92225"},{"Location":"THE HOLT GROUP","Address":"201 E Hobson Way","City":"Blythe","State":"CA","Zip":"92225"},{"Location":"VFW ASSOCIATION","Address":"148 N 1st St","City":"Blythe","State":"CA","Zip":"92225"},{"Location":"AHA QUIN RESORT","Address":"Hc 20 Box 2400","City":"Blythe","State":"CA","Zip":"92225"},{"Location":"ANHEUSER-BUSCH WHLSLR #00415","Address":"390 N Eucalyptus Ave","City":"Blythe","State":"CA","Zip":"92225"},{"Location":"COFFEE SHOP","Address":"800 W Hobsonway","City":"Blythe","State":"CA","Zip":"92225"},{"Location":"DELTACO 139","Address":"120 S Lovekin Blvd","City":"Blythe","State":"CA","Zip":"92225"},{"Location":"DESERT VIEW MEDICAL CENTER","Address":"205 N 1st St A","City":"Blythe","State":"CA","Zip":"92225"},{"Location":"EL SOLANO HOTEL","Address":"170 S Spring St","City":"Blythe","State":"CA","Zip":"92225"},{"Location":"ELKS LODGE","Address":"244 W Hobson Way","City":"Blythe","State":"CA","Zip":"92225"},{"Location":"FARRAGE REALTY","Address":"248 W Hobsonway","City":"Blythe","State":"CA","Zip":"92225"},{"Location":"FIRST SOLAR DESERT CENTER","Address":"1990 Dracker Rd","City":"Blythe","State":"CA","Zip":"92225"},{"Location":"FMC 15250000","Address":"737 W Hobsonway","City":"Blythe","State":"CA","Zip":"92225"},{"Location":"FRYE CHAPELE","Address":"633 N 7th St","City":"Blythe","State":"CA","Zip":"92225"},{"Location":"JORGES BARBERSHOP","Address":"721 E Hobsonway","City":"Blythe","State":"CA","Zip":"92225"},{"Location":"LA CASITA DOS LLC","Address":"830 W Rice St","City":"Blythe","State":"CA","Zip":"92225"},{"Location":"LALOS MEXICANFOOD","Address":"1843 E Hobsonway","City":"Blythe","State":"CA","Zip":"92225"},{"Location":"LEONEL RODRIGUEZ MD","Address":"205 N 1st St","City":"Blythe","State":"CA","Zip":"92225"},{"Location":"REBEL BBQ","Address":"181 S Lovekin Blvd","City":"Blythe","State":"CA","Zip":"92225"},{"Location":"RED CACTUS BAR GRILL","Address":"320 S Lovekin Blvd","City":"Blythe","State":"CA","Zip":"92225"},{"Location":"RFD STATION 44","Address":"13987 S Main St","City":"Blythe","State":"CA","Zip":"92225"},{"Location":"RIVERBOTTOM FARMS","Address":"31550 S Arrowhead Blvd","City":"Blythe","State":"CA","Zip":"92225"},{"Location":"ROSITAS RESTAURANT","Address":"611 W Hobson Way","City":"Blythe","State":"CA","Zip":"92225"},{"Location":"SAINT JOAN OF ARC","Address":"875 E Chanslor Way","City":"Blythe","State":"CA","Zip":"92225"},{"Location":"SHORT STOP LIQUOR","Address":"300 E Hobsonway","City":"Blythe","State":"CA","Zip":"92225"},{"Location":"SIZZLER 0171","Address":"1101 W Hobsonway","City":"Blythe","State":"CA","Zip":"92225"},{"Location":"STUDIO TEN","Address":"803 E Hobson Way","City":"Blythe","State":"CA","Zip":"92225"},{"Location":"SUBWAY","Address":"650 W Donlon St","City":"Blythe","State":"CA","Zip":"92225"},{"Location":"THE HOLT GROUP","Address":"201 E Hobson Way","City":"Blythe","State":"CA","Zip":"92225"},{"Location":"VFW ASSOCIATION","Address":"148 N 1st St","City":"Blythe","State":"CA","Zip":"92225"}]