[{"Location":"ALL AMERICAN TOWING","Address":"2671 W Lincoln St","City":"Banning","State":"CA","Zip":"92220"},{"Location":"BANNING AUTOMOTIVE","Address":"4097 W Ramsey St","City":"Banning","State":"CA","Zip":"92220"},{"Location":"BANNING FAMILY DENTISTRY","Address":"1035 W Ramsey St 2","City":"Banning","State":"CA","Zip":"92220"},{"Location":"BANNING NAILS","Address":"6350 W Ramsey St C","City":"Banning","State":"CA","Zip":"92220"},{"Location":"BANNING RV DISCOUNTS CENTER","Address":"2424 W Ramsey St","City":"Banning","State":"CA","Zip":"92220"},{"Location":"BANNING SUITES","Address":"3911 W Ramsey St 103","City":"Banning","State":"CA","Zip":"92220"},{"Location":"BOONDOCKS","Address":"4296 W Ramsey St","City":"Banning","State":"CA","Zip":"92220"},{"Location":"CALIFORNIA HIGHWAY PATROL","Address":"47250 Interstate 10","City":"Banning","State":"CA","Zip":"92220"},{"Location":"CALIFORNIA HIGHWAY PATROL 1","Address":"47250 Interstate 10","City":"Banning","State":"CA","Zip":"92220"},{"Location":"CASA CRUZ","Address":"2579 W Ramsey St","City":"Banning","State":"CA","Zip":"92220"},{"Location":"CERTIFIED TIRE","Address":"1820 W Ramsey St","City":"Banning","State":"CA","Zip":"92220"},{"Location":"CITY OF BANNING","Address":"321 W Ramsey St","City":"Banning","State":"CA","Zip":"92220"},{"Location":"CRUZ INDUSTRIAL TRUCK INC","Address":"313 S Gallaher Way","City":"Banning","State":"CA","Zip":"92220"},{"Location":"CS BEAUTY AND BARBER SHOP","Address":"50 S 1st St","City":"Banning","State":"CA","Zip":"92220"},{"Location":"DAVITA #2571 BANNING","Address":"6090 W Ramsey St","City":"Banning","State":"CA","Zip":"92220"},{"Location":"DONUT DE LITE","Address":"6350 W Ramsey St H","City":"Banning","State":"CA","Zip":"92220"},{"Location":"FAUSTOS BAIL BONDS","Address":"422 E Ramsey St","City":"Banning","State":"CA","Zip":"92220"},{"Location":"FISHERMANS MARKET & GRIL","Address":"2271 W Ramsey St","City":"Banning","State":"CA","Zip":"92220"},{"Location":"GOLDEN VIEW GUEST HOMES","Address":"5466 W Wilson St","City":"Banning","State":"CA","Zip":"92220"},{"Location":"GUYS ITALIAN RESTAURANT","Address":"5970 W Ramsey St","City":"Banning","State":"CA","Zip":"92220"},{"Location":"JAPANESE MASSAGE","Address":"3559 W Ramsey St D4","City":"Banning","State":"CA","Zip":"92220"},{"Location":"LG TRUCKING","Address":"42850 Hill Top Dr","City":"Banning","State":"CA","Zip":"92220"},{"Location":"NIKE INC","Address":"378 W Lincoln St","City":"Banning","State":"CA","Zip":"92220"},{"Location":"NUTRITION INK","Address":"3164 W Ramsey St","City":"Banning","State":"CA","Zip":"92220"},{"Location":"PADDY O'REILLY'S","Address":"41 W Ramsey St","City":"Banning","State":"CA","Zip":"92220"},{"Location":"PATEL","Address":"80 761  Hwy 111","City":"Banning","State":"CA","Zip":"92220"},{"Location":"PIZZA HUT 502","Address":"1860 W Ramsey St","City":"Banning","State":"CA","Zip":"92220"},{"Location":"RFD STATION 63","Address":"49575 Orchard Rd","City":"Banning","State":"CA","Zip":"92220"},{"Location":"RIVERSIDE CO.SHERIFF","Address":"1627 S Hargrave St","City":"Banning","State":"CA","Zip":"92220"},{"Location":"RIVERSIDE SHERIFF","Address":"155 E Hays St","City":"Banning","State":"CA","Zip":"92220"},{"Location":"RIVERSIDE SHERIFF SITE B","Address":"1627 S Hargrave St","City":"Banning","State":"CA","Zip":"92220"},{"Location":"RIVERSIDE SHERIFF-ODR","Address":"1627 S Hargrave St","City":"Banning","State":"CA","Zip":"92220"},{"Location":"ROSAS PATIENT SERVICES","Address":"1035 W Ramsey St C2","City":"Banning","State":"CA","Zip":"92220"},{"Location":"SAN BERNARDINO NATIONAL FOREST","Address":"10045 Gilman St","City":"Banning","State":"CA","Zip":"92220"},{"Location":"SENORIAL MEXICAN REST","Address":"1675 W Ramsey St","City":"Banning","State":"CA","Zip":"92220"},{"Location":"SGMH AUX THRIFT STORE","Address":"3453 W Ramsey St C","City":"Banning","State":"CA","Zip":"92220"},{"Location":"SHOPPING BASKET","Address":"2217 W Ramsey St","City":"Banning","State":"CA","Zip":"92220"},{"Location":"SUNSET MARKET","Address":"3181 W Ramsey St","City":"Banning","State":"CA","Zip":"92220"},{"Location":"THAI ORCHID RESTAURANT","Address":"6350 W Ramsey St I","City":"Banning","State":"CA","Zip":"92220"},{"Location":"THE AMERICAN LEGION","Address":"70 S 1st St","City":"Banning","State":"CA","Zip":"92220"},{"Location":"TWIN VIEW MOBILE ESTATES AA","Address":"721 N Sunset Ave","City":"Banning","State":"CA","Zip":"92220"},{"Location":"USDA FOREST SERVICE","Address":"21157 Us Highway 243","City":"Banning","State":"CA","Zip":"92220"},{"Location":"WALL CHINESE FOOD AND DRIVE TH","Address":"1935 W Ramsey St","City":"Banning","State":"CA","Zip":"92220"},{"Location":"ZEREBNY FINANCIAL","Address":"3092 W Ramsey St","City":"Banning","State":"CA","Zip":"92220"}]