[{"Location":"AGGY FURNITURE","Address":"150 E 6th St","City":"Beaumont","State":"CA","Zip":"92223"},{"Location":"APPLEBEE'S BEAUMONT","Address":"1585 E 6th St","City":"Beaumont","State":"CA","Zip":"92223"},{"Location":"BANK OF HEMET","Address":"1540 E 6th St C","City":"Beaumont","State":"CA","Zip":"92223"},{"Location":"BEAUMONT BARBER SHOP","Address":"1012 Beaumont Ave","City":"Beaumont","State":"CA","Zip":"92223"},{"Location":"BEAUMONT RV INC","Address":"910 Weste Rn Knolls Ave","City":"Beaumont","State":"CA","Zip":"92223"},{"Location":"CASA PALACIOS MEXICAN","Address":"410 E 6th St","City":"Beaumont","State":"CA","Zip":"92223"},{"Location":"CHILI'S #1333","Address":"1490 E 2nd St","City":"Beaumont","State":"CA","Zip":"92223"},{"Location":"CITY BEAUMONT","Address":"550 E 6th St","City":"Beaumont","State":"CA","Zip":"92223"},{"Location":"CITY BEAUMONT","Address":"1310 Oak Valley Pkwy","City":"Beaumont","State":"CA","Zip":"92223"},{"Location":"DOMENICO'S ITALIAN RESTAURANT","Address":"890 Oak Valley Pkwy A&b","City":"Beaumont","State":"CA","Zip":"92223"},{"Location":"EDDY'S BARBER SHOP","Address":"705 Beaumont Ave","City":"Beaumont","State":"CA","Zip":"92223"},{"Location":"FAIRWAY CANYON COMMUNITY ASSOC","Address":"36189 Champions Dr","City":"Beaumont","State":"CA","Zip":"92223"},{"Location":"FMC 71950000","Address":"1536 E 6th St","City":"Beaumont","State":"CA","Zip":"92223"},{"Location":"HALA HOOKA LOUNGE","Address":"174 Beaumont Ave","City":"Beaumont","State":"CA","Zip":"92223"},{"Location":"HIGHLAND SPRINGS AUTOMOTIVE","Address":"655 Highland Springs Ave B","City":"Beaumont","State":"CA","Zip":"92223"},{"Location":"INSHAPE MEDICAL CLINIC","Address":"795 E 6th St","City":"Beaumont","State":"CA","Zip":"92223"},{"Location":"KOHL'S #1186","Address":"1479 E 2nd St","City":"Beaumont","State":"CA","Zip":"92223"},{"Location":"LANDEROS FURNITURE","Address":"1482 E 2nd St","City":"Beaumont","State":"CA","Zip":"92223"},{"Location":"LIVING CANVAS","Address":"800 E 6th St","City":"Beaumont","State":"CA","Zip":"92223"},{"Location":"LOWES","Address":"864 W 4th St","City":"Beaumont","State":"CA","Zip":"92223"},{"Location":"MARLA'S RESTAURANT","Address":"1310 E 6th St","City":"Beaumont","State":"CA","Zip":"92223"},{"Location":"MENTAL HEALTH SYSTEMS","Address":"210 W 6th St","City":"Beaumont","State":"CA","Zip":"92223"},{"Location":"OAK VALLEY PLAZA DENTAL GROUP","Address":"892 Oak Valley Pkwy","City":"Beaumont","State":"CA","Zip":"92223"},{"Location":"PACIFIC FLOORING INSTALL","Address":"450 W 4th St","City":"Beaumont","State":"CA","Zip":"92223"},{"Location":"PALM GROVE HEALTHCARE","Address":"1665 E 8th St","City":"Beaumont","State":"CA","Zip":"92223"},{"Location":"PERSALL MASONRY INC","Address":"252 W 4th St E","City":"Beaumont","State":"CA","Zip":"92223"},{"Location":"PLAYERS LOUNGE","Address":"758 Beaumont Ave","City":"Beaumont","State":"CA","Zip":"92223"},{"Location":"QUEEN NAILS & SPA","Address":"1440 Beaumont Ave A3","City":"Beaumont","State":"CA","Zip":"92223"},{"Location":"RAMONAS MEXICAN RESTAURANT","Address":"251 W 6th St","City":"Beaumont","State":"CA","Zip":"92223"},{"Location":"ROYAL NAILS & SPA","Address":"1620 E 2nd St H","City":"Beaumont","State":"CA","Zip":"92223"},{"Location":"ROYAL NAILS & SPA 2","Address":"890 Oak Valley Pkwy F","City":"Beaumont","State":"CA","Zip":"92223"},{"Location":"THE SANDTRAP","Address":"892 Oak Valley Pkwy","City":"Beaumont","State":"CA","Zip":"92223"},{"Location":"TRANSIT YARD","Address":"550 N California Ave","City":"Beaumont","State":"CA","Zip":"92223"},{"Location":"TUKWET CANYON GOLF","Address":"36211 Champions Dr","City":"Beaumont","State":"CA","Zip":"92223"},{"Location":"U.S. BANK","Address":"1410 Beaumont Ave D3","City":"Beaumont","State":"CA","Zip":"92223"},{"Location":"VALEROS CLEANERS AND LAUNDRY","Address":"890 Oak Valley Pkwy","City":"Beaumont","State":"CA","Zip":"92223"},{"Location":"WENDYS 9415","Address":"525 Highland Springs Ave","City":"Beaumont","State":"CA","Zip":"92223"},{"Location":"WINGSTOP","Address":"1668 E 2nd St Market #kl","City":"Beaumont","State":"CA","Zip":"92223"},{"Location":"CITY SUSHI AND GRILL","Address":"10370 Beaumont Ave","City":"Cherry Valley","State":"CA","Zip":"92223"},{"Location":"GRAND OAKS STEAKHOUSE","Address":"10600 Highland Springs Ave","City":"Cherry Valley","State":"CA","Zip":"92223"},{"Location":"SUSH HIRO","Address":"10151 Beaumont Ave","City":"Cherry Valley","State":"CA","Zip":"92223"},{"Location":"AGGY FURNITURE","Address":"150 E 6th St","City":"Beaumont","State":"CA","Zip":"92223"},{"Location":"APPLEBEE'S BEAUMONT","Address":"1585 E 6th St","City":"Beaumont","State":"CA","Zip":"92223"},{"Location":"BANK OF HEMET","Address":"1540 E 6th St C","City":"Beaumont","State":"CA","Zip":"92223"},{"Location":"BEAUMONT BARBER SHOP","Address":"1012 Beaumont Ave","City":"Beaumont","State":"CA","Zip":"92223"},{"Location":"BEAUMONT RV INC","Address":"910 Weste Rn Knolls Ave","City":"Beaumont","State":"CA","Zip":"92223"},{"Location":"CASA PALACIOS MEXICAN","Address":"410 E 6th St","City":"Beaumont","State":"CA","Zip":"92223"},{"Location":"CHILI'S #1333","Address":"1490 E 2nd St","City":"Beaumont","State":"CA","Zip":"92223"},{"Location":"CITY BEAUMONT","Address":"1310 Oak Valley Pkwy","City":"Beaumont","State":"CA","Zip":"92223"},{"Location":"CITY BEAUMONT","Address":"550 E 6th St","City":"Beaumont","State":"CA","Zip":"92223"},{"Location":"DOMENICO'S ITALIAN RESTAURANT","Address":"890 Oak Valley Pkwy A&b","City":"Beaumont","State":"CA","Zip":"92223"},{"Location":"EDDYS BARBER SHOP","Address":"705 Beaumont Ave","City":"Beaumont","State":"CA","Zip":"92223"},{"Location":"FAIRWAY CANYON COMMUNITY ASSOC","Address":"36189 Champions Dr","City":"Beaumont","State":"CA","Zip":"92223"},{"Location":"FMC 71950000","Address":"1536 E 6th St","City":"Beaumont","State":"CA","Zip":"92223"},{"Location":"HALA HOOKA LOUNGE","Address":"174 Beaumont Ave","City":"Beaumont","State":"CA","Zip":"92223"},{"Location":"HIGHLAND SPRINGS AUTOMOTIVE","Address":"655 Highland Springs Ave B","City":"Beaumont","State":"CA","Zip":"92223"},{"Location":"INSHAPE MEDICAL CLINIC","Address":"795 E 6th St","City":"Beaumont","State":"CA","Zip":"92223"},{"Location":"KOHL'S #1186","Address":"1479 E 2nd St","City":"Beaumont","State":"CA","Zip":"92223"},{"Location":"LANDEROS FURNITURE","Address":"1482 E 2nd St","City":"Beaumont","State":"CA","Zip":"92223"},{"Location":"LIVING CANVAS","Address":"800 E 6th St","City":"Beaumont","State":"CA","Zip":"92223"},{"Location":"LOWES","Address":"864 W 4th St","City":"Beaumont","State":"CA","Zip":"92223"},{"Location":"MARLA'S RESTAURANT","Address":"1310 E 6th St","City":"Beaumont","State":"CA","Zip":"92223"},{"Location":"MENTAL HEALTH SYSTEMS","Address":"210 W 6th St","City":"Beaumont","State":"CA","Zip":"92223"},{"Location":"OAK VALLEY PLAZA DENTAL GROUP","Address":"892 Oak Valley Pkwy","City":"Beaumont","State":"CA","Zip":"92223"},{"Location":"PACIFIC FLOORING INSTALL","Address":"450 W 4th St","City":"Beaumont","State":"CA","Zip":"92223"},{"Location":"PALM GROVE HEALTHCARE","Address":"1665 E 8th St","City":"Beaumont","State":"CA","Zip":"92223"},{"Location":"PERSALL MASONRY INC","Address":"252 W 4th St E","City":"Beaumont","State":"CA","Zip":"92223"},{"Location":"PLAYERS LOUNGE","Address":"758 Beaumont Ave","City":"Beaumont","State":"CA","Zip":"92223"},{"Location":"QUEEN NAILS & SPA","Address":"1440 Beaumont Ave A3","City":"Beaumont","State":"CA","Zip":"92223"},{"Location":"RAMONAS MEXICAN RESTAURANT","Address":"251 W 6th St","City":"Beaumont","State":"CA","Zip":"92223"},{"Location":"ROYAL NAILS & SPA","Address":"1620 E 2nd St H","City":"Beaumont","State":"CA","Zip":"92223"},{"Location":"ROYAL NAILS & SPA 2","Address":"890 Oak Valley Pkwy F","City":"Beaumont","State":"CA","Zip":"92223"},{"Location":"THE SANDTRAP","Address":"892 Oak Valley Pkwy","City":"Beaumont","State":"CA","Zip":"92223"},{"Location":"TRANSIT YARD","Address":"550 N California Ave","City":"Beaumont","State":"CA","Zip":"92223"},{"Location":"TUKWET CANYON GOLF","Address":"36211 Champions Dr","City":"Beaumont","State":"CA","Zip":"92223"},{"Location":"U.S. BANK","Address":"1410 Beaumont Ave D3","City":"Beaumont","State":"CA","Zip":"92223"},{"Location":"VALEROS CLEANERS AND LAUNDRY","Address":"890 Oak Valley Pkwy","City":"Beaumont","State":"CA","Zip":"92223"},{"Location":"WENDYS 9415","Address":"525 Highland Springs Ave","City":"Beaumont","State":"CA","Zip":"92223"},{"Location":"WINGSTOP","Address":"1668 E 2nd St Market #kl","City":"Beaumont","State":"CA","Zip":"92223"},{"Location":"CITY SUSHI AND GRILL","Address":"10370 Beaumont Ave","City":"Cherry Valley","State":"CA","Zip":"92223"},{"Location":"GRAND OAKS STEAKHOUSE","Address":"10600 Highland Springs Ave","City":"Cherry Valley","State":"CA","Zip":"92223"},{"Location":"SUSH HIRO","Address":"10151 Beaumont Ave","City":"Cherry Valley","State":"CA","Zip":"92223"}]