[{"Location":"ALDOS FRESH MEXICAN FOOD","Address":"49255 Grapefruit Blvd","City":"Coachella","State":"CA","Zip":"92236"},{"Location":"ANDYS NO 5 BURGERS","Address":"49950 Grapefruit Blvd","City":"Coachella","State":"CA","Zip":"92236"},{"Location":"ANTHONY VINEYARDS","Address":"52301 Enterprise Way","City":"Coachella","State":"CA","Zip":"92236"},{"Location":"AUGUSTINE BAND OF CAHUILLA IND","Address":"84481 Avenue 54","City":"Coachella","State":"CA","Zip":"92236"},{"Location":"AUGUSTINE CASINO","Address":"84001 Avenue 54","City":"Coachella","State":"CA","Zip":"92236"},{"Location":"CARDENAS MARKET 18","Address":"50037 Harrison St","City":"Coachella","State":"CA","Zip":"92236"},{"Location":"CITY OF COACHELLA","Address":"53462 Enterprise Way","City":"Coachella","State":"CA","Zip":"92236"},{"Location":"COACHELLA HEALTH CLINIC","Address":"49-111 Hwy 111 4","City":"Coachella","State":"CA","Zip":"92236"},{"Location":"COCA COLA","Address":"86375 Industrial Way","City":"Coachella","State":"CA","Zip":"92236"},{"Location":"CULICHI TOWN COORPORATION INC","Address":"46156 Dillon Rd","City":"Coachella","State":"CA","Zip":"92236"},{"Location":"DELARA TOWING","Address":"48050 Harrison St","City":"Coachella","State":"CA","Zip":"92236"},{"Location":"DESERT VALLEY SERVICES","Address":"53603 Polk St","City":"Coachella","State":"CA","Zip":"92236"},{"Location":"DON MARIOS HAIR SALON","Address":"49261 Grapefruit Blvd 1","City":"Coachella","State":"CA","Zip":"92236"},{"Location":"EAGLES LODGE","Address":"46425 Tyler St","City":"Coachella","State":"CA","Zip":"92236"},{"Location":"ERNIE BALL","Address":"53973 Polk St","City":"Coachella","State":"CA","Zip":"92236"},{"Location":"ESTERLINE ARMTEC","Address":"85901 Avenue 53","City":"Coachella","State":"CA","Zip":"92236"},{"Location":"FOREST LAWN MEMORIAL PARK","Address":"51990 Jackson St","City":"Coachella","State":"CA","Zip":"92236"},{"Location":"FUENTE DE PAZ","Address":"52664 Harrison St","City":"Coachella","State":"CA","Zip":"92236"},{"Location":"GILLISPIE DR MARK A","Address":"52565 Harrison St 105","City":"Coachella","State":"CA","Zip":"92236"},{"Location":"LA MARIAS LAUNDRY","Address":"49869 Harrison St","City":"Coachella","State":"CA","Zip":"92236"},{"Location":"MARIOS         ITALIAN CAFE","Address":"83103 Avenue 48 1c","City":"Coachella","State":"CA","Zip":"92236"},{"Location":"OCEAN MIST #2","Address":"52300 Enterprise Way","City":"Coachella","State":"CA","Zip":"92236"},{"Location":"OCEAN MIST FARMS","Address":"52300 Enterprise Way","City":"Coachella","State":"CA","Zip":"92236"},{"Location":"PADILLA TIRE AUTO SERVICE","Address":"84967 Bagdad Ave","City":"Coachella","State":"CA","Zip":"92236"},{"Location":"PIZZA HUT","Address":"49954 Harrison St","City":"Coachella","State":"CA","Zip":"92236"},{"Location":"SOL SPORTS RESAURANT","Address":"49291 Grapefruit Blvd 2","City":"Coachella","State":"CA","Zip":"92236"},{"Location":"SPOTLIGHT 29 CASINO","Address":"46200 Harrison Pl","City":"Coachella","State":"CA","Zip":"92236"},{"Location":"SPOTLIGHT29 TRIBAL OFFIC","Address":"46200 Harrison Pl","City":"Coachella","State":"CA","Zip":"92236"},{"Location":"SUDZ","Address":"52669 Harrison St","City":"Coachella","State":"CA","Zip":"92236"},{"Location":"SUPERIOR MEDICAL CLINIC","Address":"49617 Harrison St","City":"Coachella","State":"CA","Zip":"92236"},{"Location":"TCA 041 COACHELLA","Address":"46155 Dillon Rd","City":"Coachella","State":"CA","Zip":"92236"},{"Location":"TRAN","Address":"49271 Grapefruit Blvd 1","City":"Coachella","State":"CA","Zip":"92236"},{"Location":"TRIANGLE BAR  FARMS INC","Address":"52995 Calhoun St","City":"Coachella","State":"CA","Zip":"92236"},{"Location":"TRIPLE A STORAGE OF COACHELLA","Address":"53301 Us Highway 111","City":"Coachella","State":"CA","Zip":"92236"}]