[{"Location":"3102611465","Address":"2360 Martin Luther King Dr","City":"Calexico","State":"CA","Zip":"92231"},{"Location":"APPLEBEE'S #9800","Address":"2505 Scaroni Ave","City":"Calexico","State":"CA","Zip":"92231"},{"Location":"BULLDOG BARBERSHOP","Address":"840 S Imperial Ave","City":"Calexico","State":"CA","Zip":"92231"},{"Location":"BULLDOGS MARKET","Address":"230 Blair Ave","City":"Calexico","State":"CA","Zip":"92231"},{"Location":"CALIFORNIA SUPERMARKET","Address":"363 W 2nd St","City":"Calexico","State":"CA","Zip":"92231"},{"Location":"CHP CALEXICO","Address":"1700 E Car Rd","City":"Calexico","State":"CA","Zip":"92231"},{"Location":"CON WAY INC","Address":"298 Rood Rd","City":"Calexico","State":"CA","Zip":"92231"},{"Location":"D POLY MEXICAN FOOD","Address":"601 E 2nd St","City":"Calexico","State":"CA","Zip":"92231"},{"Location":"DS DONUT SHOP","Address":"114 W Birch St","City":"Calexico","State":"CA","Zip":"92231"},{"Location":"ESTRADA FOOD & SERVICE L","Address":"300 E Cole Blvd","City":"Calexico","State":"CA","Zip":"92231"},{"Location":"FARMACIA DEL PUEBLO","Address":"801 E Birch St","City":"Calexico","State":"CA","Zip":"92231"},{"Location":"FIESTA RESTAURANT","Address":"219 E 3rd St","City":"Calexico","State":"CA","Zip":"92231"},{"Location":"FLAUTAS Y SOPES","Address":"715 Cesar Chavez Blvd","City":"Calexico","State":"CA","Zip":"92231"},{"Location":"FMC 18390000","Address":"408 E 3rd St A","City":"Calexico","State":"CA","Zip":"92231"},{"Location":"LG ELECTRONICS","Address":"2401 Porpeco Boulevard","City":"Calexico","State":"CA","Zip":"92231"},{"Location":"MC DONALDS RESTAURANT","Address":"720 S Imperial Ave","City":"Calexico","State":"CA","Zip":"92231"},{"Location":"NATIONAL OILWELL OF VARCO AP","Address":"220 Weakley St","City":"Calexico","State":"CA","Zip":"92231"},{"Location":"NIKE","Address":"700 E 2nd St J100","City":"Calexico","State":"CA","Zip":"92231"},{"Location":"RABOBANK","Address":"25 E 3rd St","City":"Calexico","State":"CA","Zip":"92231"},{"Location":"RAMIREZ","Address":"305 Rockwood Ave Suite","City":"Calexico","State":"CA","Zip":"92231"},{"Location":"RICOS TACO SHOP","Address":"221 Avenica Tampillo","City":"Calexico","State":"CA","Zip":"92231"},{"Location":"ROSAS PLANE FOOD","Address":"805 W 2nd St","City":"Calexico","State":"CA","Zip":"92231"},{"Location":"SNAP FITNESS","Address":"438 Grant St","City":"Calexico","State":"CA","Zip":"92231"},{"Location":"TONYS MARKET","Address":"502 Encinas Ave","City":"Calexico","State":"CA","Zip":"92231"},{"Location":"TRANSPORTES INTERCALIFOR","Address":"348 E 2nd St D","City":"Calexico","State":"CA","Zip":"92231"},{"Location":"US BORDER PATROL","Address":"536 Barbara Worth Rd","City":"Calexico","State":"CA","Zip":"92231"},{"Location":"US NAIL","Address":"2451 Rockwood Ave","City":"Calexico","State":"CA","Zip":"92231"},{"Location":"VILLA REAL FOODS LLC","Address":"445 S Imperial Ave","City":"Calexico","State":"CA","Zip":"92231"},{"Location":"YUM YUM CHINESE FOOD","Address":"528 S Imperial Ave","City":"Calexico","State":"CA","Zip":"92231"}]