[{"Location":"ACCENT LOVING CARE TWO","Address":"67852 Reed Cir","City":"Cathedral City","State":"CA","Zip":"92234"},{"Location":"ALEXANDRA UPHOLSTERY 1","Address":"68703 Perez Rd A11","City":"Cathedral City","State":"CA","Zip":"92234"},{"Location":"APONGS PHILLY LLC","Address":"68444 Perez Rd","City":"Cathedral City","State":"CA","Zip":"92234"},{"Location":"APPLEBEE'S CATHEDRAL CITY#9288","Address":"32400 Date Palm Dr","City":"Cathedral City","State":"CA","Zip":"92234"},{"Location":"BASRA ENTERTAINMENT","Address":"68444 Perez Rd","City":"Cathedral City","State":"CA","Zip":"92234"},{"Location":"BIG LEAGUE DREAMS","Address":"33700 Date Palm Dr","City":"Cathedral City","State":"CA","Zip":"92234"},{"Location":"CARDENAS MARKET 25","Address":"31655 Date Palm Dr","City":"Cathedral City","State":"CA","Zip":"92234"},{"Location":"CASTROL PREMIUM LUBE & S","Address":"35800 Date Palm Dr","City":"Cathedral City","State":"CA","Zip":"92234"},{"Location":"CATHEDRAL MEDICAL CLINIC","Address":"31755 Date Palm Dr M","City":"Cathedral City","State":"CA","Zip":"92234"},{"Location":"CICCHI'S SPORTS SHACK","Address":"68955 Ramon Rd 7","City":"Cathedral City","State":"CA","Zip":"92234"},{"Location":"DAVITA #4456 CATHEDRAL CITY","Address":"30885 Date Palm Dr","City":"Cathedral City","State":"CA","Zip":"92234"},{"Location":"DESERT BARBER AND BEAUTY","Address":"67850 Vista Chino","City":"Cathedral City","State":"CA","Zip":"92234"},{"Location":"DESERT LEXUS","Address":"68068 Kyle Rd","City":"Cathedral City","State":"CA","Zip":"92234"},{"Location":"DESERT PRINCESS COUNTRY","Address":"28555 Landau Blvd","City":"Cathedral City","State":"CA","Zip":"92234"},{"Location":"DESSERT CRANE SERVICE","Address":"68365 Perez Rd","City":"Cathedral City","State":"CA","Zip":"92234"},{"Location":"DRAGON SUSHI","Address":"68369 E Palm Canyon Dr","City":"Cathedral City","State":"CA","Zip":"92234"},{"Location":"FERNANDOS UPOLSTERY","Address":"35688 Cathedral Canyon Dr 119","City":"Cathedral City","State":"CA","Zip":"92234"},{"Location":"FIL AM ORIENTAL MART","Address":"34010 Date Palm Dr","City":"Cathedral City","State":"CA","Zip":"92234"},{"Location":"GRILL","Address":"68100 Ramon Rd C6","City":"Cathedral City","State":"CA","Zip":"92234"},{"Location":"HILLSBORO PROPERTIES","Address":"34400 Cathedral Canyon Dr","City":"Cathedral City","State":"CA","Zip":"92234"},{"Location":"HOUSE OF SILOG","Address":"34091 Date Palm Dr B","City":"Cathedral City","State":"CA","Zip":"92234"},{"Location":"IN SHAPE 177 CATHEDRAL C","Address":"35935 Date Palm Dr","City":"Cathedral City","State":"CA","Zip":"92234"},{"Location":"IVIE MCNEILL AND WYATT","Address":"69801 Via Del Norte","City":"Cathedral City","State":"CA","Zip":"92234"},{"Location":"JARDIN DE LEONES","Address":"69130 Gerald Ford Dr","City":"Cathedral City","State":"CA","Zip":"92234"},{"Location":"JOES SUSHI","Address":"68655 Ramon Rd A","City":"Cathedral City","State":"CA","Zip":"92234"},{"Location":"JORGE VELARDE INC","Address":"36444 Auto Park Dr","City":"Cathedral City","State":"CA","Zip":"92234"},{"Location":"KBI INC.","Address":"36123 Cathedral Canyon Dr 1","City":"Cathedral City","State":"CA","Zip":"92234"},{"Location":"NICOLINOS ITALIAN RSTRNT","Address":"35325 Date Palm Dr 111","City":"Cathedral City","State":"CA","Zip":"92234"},{"Location":"OPERATION SAFEHOUSE","Address":"31355 Neuma Dr","City":"Cathedral City","State":"CA","Zip":"92234"},{"Location":"OUTPOST TAVERN","Address":"68170 Ramon Rd","City":"Cathedral City","State":"CA","Zip":"92234"},{"Location":"PALM SPRINGS KIA","Address":"68130 Kyle Rd","City":"Cathedral City","State":"CA","Zip":"92234"},{"Location":"PALM SPRINGS NISSAN","Address":"68177 Kyle Rd","City":"Cathedral City","State":"CA","Zip":"92234"},{"Location":"PSM - QUICK LANE","Address":"69200 E Us Highway 111","City":"Cathedral City","State":"CA","Zip":"92234"},{"Location":"ROUND TABLE PIZZA","Address":"31775 Date Palm Dr","City":"Cathedral City","State":"CA","Zip":"92234"},{"Location":"RUBEN MENDEZ DDS","Address":"68100 Ramon Rd A4","City":"Cathedral City","State":"CA","Zip":"92234"},{"Location":"SANTO TOMAS DENTAL OFFICE","Address":"69195 Ramon Rd C3","City":"Cathedral City","State":"CA","Zip":"92234"},{"Location":"SARITAS HAIR SALON","Address":"68200 Ramon Rd","City":"Cathedral City","State":"CA","Zip":"92234"},{"Location":"SHOWGIRLS GENTLEMENS CLUB","Address":"68444 Perez Rd","City":"Cathedral City","State":"CA","Zip":"92234"},{"Location":"SOUTHERN PAC PIZZA LLC","Address":"34401 Date Palm Dr","City":"Cathedral City","State":"CA","Zip":"92234"},{"Location":"STETTLER GEORGE","Address":"31855 Date Palm Dr 6","City":"Cathedral City","State":"CA","Zip":"92234"},{"Location":"STONEHOUSE TILE","Address":"68449 Perez Rd","City":"Cathedral City","State":"CA","Zip":"92234"},{"Location":"STUDIO ONE 11","Address":"68929 Perez Rd Stej","City":"Cathedral City","State":"CA","Zip":"92234"},{"Location":"STUDIO ONE 11","Address":"67555 E Palm Conyon Dr 104","City":"Cathedral City","State":"CA","Zip":"92234"},{"Location":"SUN LIFE VAPORS","Address":"68100 Ramon Rd","City":"Cathedral City","State":"CA","Zip":"92234"},{"Location":"TARGET","Address":"67750 E Palm Canyon Dr","City":"Cathedral City","State":"CA","Zip":"92234"},{"Location":"THE WELK RESORT","Address":"34567 Cathedral Canyon Dr","City":"Cathedral City","State":"CA","Zip":"92234"},{"Location":"TOYOTA OF THE DESERT","Address":"68105 Kyle Rd","City":"Cathedral City","State":"CA","Zip":"92234"},{"Location":"TRAVIS GROVE","Address":"36640 Perez Rd","City":"Cathedral City","State":"CA","Zip":"92234"},{"Location":"ULTRA STAR CATHEDRAL CTY","Address":"68510 E Palm Canyon Drive","City":"Cathedral City","State":"CA","Zip":"92234"},{"Location":"US BANK","Address":"35950 Date Palm Dr","City":"Cathedral City","State":"CA","Zip":"92234"},{"Location":"US NAILS","Address":"68030 Vista Chino D101","City":"Cathedral City","State":"CA","Zip":"92234"},{"Location":"VALLEY SMOG & AUTO REPAIR","Address":"36641 Perez Rd","City":"Cathedral City","State":"CA","Zip":"92234"},{"Location":"VOLKSWAGON OF PALM SPRINGS","Address":"67909 E Palm Canyon Dr","City":"Cathedral City","State":"CA","Zip":"92234"},{"Location":"WANG CHINESE CUSINE","Address":"35300 Date Palm Dr","City":"Cathedral City","State":"CA","Zip":"92234"},{"Location":"WELK RESORT SALES DEPT","Address":"34567 Cathedral Canyon Dr","City":"Cathedral City","State":"CA","Zip":"92234"},{"Location":"CARPET EMPIRE PLUS","Address":"68307 E Palm Canyon Dr","City":"Cathedral Cty","State":"CA","Zip":"92234"},{"Location":"CASABLANCA","Address":"35850 Date Palm Dr","City":"Cathedral Cty","State":"CA","Zip":"92234"},{"Location":"CATHEDRAL CITY FIRE DEPT","Address":"32100 Desert Vista Rd","City":"Cathedral Cty","State":"CA","Zip":"92234"},{"Location":"FAMILY MEDICAL CLINIC","Address":"34131 Date Palm Dr F2","City":"Cathedral Cty","State":"CA","Zip":"92234"},{"Location":"LOWEST COMPETITIVE INS","Address":"68945 Vista Chino B","City":"Cathedral Cty","State":"CA","Zip":"92234"},{"Location":"NOE ANGULO","Address":"27900 Date Palm Dr","City":"Cathedral Cty","State":"CA","Zip":"92234"},{"Location":"ROLAX ALIGMENT AND AUTOM","Address":"31510 San Luis Rey Dr","City":"Cathedral Cty","State":"CA","Zip":"92234"},{"Location":"DESERT HONDA","Address":"68 025 Kyle Rd","City":"Catherdral City","State":"CA","Zip":"92234"}]