[{"Location":"AMERICAN LEGIONS","Address":"569 Broadway St","City":"El Centro","State":"CA","Zip":"92243"},{"Location":"APPLEBEE'S #9843","Address":"2421 Cottonwood Dr","City":"El Centro","State":"CA","Zip":"92243"},{"Location":"BRUNSWICK ZONE XL #807","Address":"950 N Imperial Ave","City":"El Centro","State":"CA","Zip":"92243"},{"Location":"BURGERS AND BEER","Address":"3451 S Dogwood Rd","City":"El Centro","State":"CA","Zip":"92243"},{"Location":"BURGERS AND BEER #2","Address":"260 N Imperial Ave","City":"El Centro","State":"CA","Zip":"92243"},{"Location":"CARDENAS SUPERMARKET 23","Address":"1620 N Imperial Ave","City":"El Centro","State":"CA","Zip":"92243"},{"Location":"CARINO'S #1615","Address":"3203 S Dogwood Rd","City":"El Centro","State":"CA","Zip":"92243"},{"Location":"CENTRAL BARBER SHOP","Address":"1502 W Euclid Ave","City":"El Centro","State":"CA","Zip":"92243"},{"Location":"CHAT 1","Address":"123 W Main St","City":"El Centro","State":"CA","Zip":"92243"},{"Location":"CHILI'S #1084","Address":"3303 S Dogwood Rd","City":"El Centro","State":"CA","Zip":"92243"},{"Location":"COUNTY MOTOR PARTS","Address":"803 E Main St","City":"El Centro","State":"CA","Zip":"92243"},{"Location":"DESERT COMMERCIAL BANK","Address":"1599 W Main St","City":"El Centro","State":"CA","Zip":"92243"},{"Location":"DIRECT AUTO PLAZA HONDA","Address":"664 Thomas Ln","City":"El Centro","State":"CA","Zip":"92243"},{"Location":"DOGWOOD SPORTS BAR AND GRILL","Address":"3603 S Dogwood Rd","City":"El Centro","State":"CA","Zip":"92243"},{"Location":"EL CENTRO FIRE FIREFIGHT","Address":"1910 N Waterman Ave","City":"El Centro","State":"CA","Zip":"92243"},{"Location":"EL CENTRO SNAP FITNESS","Address":"1692 S 4th St","City":"El Centro","State":"CA","Zip":"92243"},{"Location":"EXOTIC THAI BISTRO","Address":"1461 S 4th St","City":"El Centro","State":"CA","Zip":"92243"},{"Location":"FAMOUS DAVE'S #3098","Address":"3103 S Dogwood Rd","City":"El Centro","State":"CA","Zip":"92243"},{"Location":"FMC 37840000","Address":"200 Wake Ave","City":"El Centro","State":"CA","Zip":"92243"},{"Location":"FORTUNE HOUSE","Address":"1627 W Main St","City":"El Centro","State":"CA","Zip":"92243"},{"Location":"FRATERNAL ORDER OF EAGLES","Address":"661 W State St","City":"El Centro","State":"CA","Zip":"92243"},{"Location":"GUADALAJARAS RESTAURANT","Address":"1427 Adams Ave","City":"El Centro","State":"CA","Zip":"92243"},{"Location":"HOLIDAY INN EXPRESS","Address":"350 Smoketree Dr","City":"El Centro","State":"CA","Zip":"92243"},{"Location":"HOLT  GROUP","Address":"1601 N Imperial Ave","City":"El Centro","State":"CA","Zip":"92243"},{"Location":"ICE IERO","Address":"2051 N Waterman Ave","City":"El Centro","State":"CA","Zip":"92243"},{"Location":"IMMIGRATIONS CUSTOMS","Address":"2051 N Waterman Ave","City":"El Centro","State":"CA","Zip":"92243"},{"Location":"IMPERIAL COUNTY WORK TRAINING","Address":"210 Wake Ave","City":"El Centro","State":"CA","Zip":"92243"},{"Location":"INTERNATIONAL FARM SERVICE","Address":"802 Industry Way","City":"El Centro","State":"CA","Zip":"92243"},{"Location":"ITALIANOS LLC","Address":"1523 W Main St","City":"El Centro","State":"CA","Zip":"92243"},{"Location":"JORDAN CENTRAL IMPLIMENT COMPA","Address":"950 S Dogwood Rd","City":"El Centro","State":"CA","Zip":"92243"},{"Location":"KENNEDYS CARNE INC","Address":"1560 Ocotillo Dr K","City":"El Centro","State":"CA","Zip":"92243"},{"Location":"KOHL'S #1434","Address":"808 E Danenberg Dr","City":"El Centro","State":"CA","Zip":"92243"},{"Location":"LA RESACA","Address":"201 N. Imperial Ave","City":"El Centro","State":"CA","Zip":"92243"},{"Location":"LA RESACA","Address":"201 N Imperial Ave","City":"El Centro","State":"CA","Zip":"92243"},{"Location":"LABELLA PIZZARIA","Address":"612 W Main St","City":"El Centro","State":"CA","Zip":"92243"},{"Location":"LORMIK","Address":"459 W Main St","City":"El Centro","State":"CA","Zip":"92243"},{"Location":"MABB EL CENTRO 1","Address":"1605 3rd St Bldg2","City":"El Centro","State":"CA","Zip":"92243"},{"Location":"MABB EL CENTRO 2","Address":"1605 3rd St Bldg2","City":"El Centro","State":"CA","Zip":"92243"},{"Location":"MACY'S WEST 554","Address":"3551 S Dogwood Rd","City":"El Centro","State":"CA","Zip":"92243"},{"Location":"MACY'S WEST 554 BR","Address":"3551 Dogwood Ave","City":"El Centro","State":"CA","Zip":"92243"},{"Location":"MAHS KITCHEN","Address":"290 N Imperial Ave","City":"El Centro","State":"CA","Zip":"92243"},{"Location":"MANOS","Address":"1455 Ocotillo Dr","City":"El Centro","State":"CA","Zip":"92243"},{"Location":"MIRAGE BAR & GRILL","Address":"2354 S 4th St","City":"El Centro","State":"CA","Zip":"92243"},{"Location":"MISS B HAVEN","Address":"476 W Main St","City":"El Centro","State":"CA","Zip":"92243"},{"Location":"NAVY EXCHANGE EL CENTRO","Address":"201 Bennett Rd","City":"El Centro","State":"CA","Zip":"92243"},{"Location":"NENAS BEAUTY SALON","Address":"653 W Main St 101","City":"El Centro","State":"CA","Zip":"92243"},{"Location":"OLIVE GARDEN #4450","Address":"504 E Danenberg Dr","City":"El Centro","State":"CA","Zip":"92243"},{"Location":"RASPADOS CUCHIS","Address":"502 Adams Ave","City":"El Centro","State":"CA","Zip":"92243"},{"Location":"RODRIGUEZ","Address":"516 W Main St","City":"El Centro","State":"CA","Zip":"92243"},{"Location":"STERLING MEDICAL","Address":"1600 S Imperial Ave 1","City":"El Centro","State":"CA","Zip":"92243"},{"Location":"STYLES AND SMILES","Address":"1802 N Imperial Ave A","City":"El Centro","State":"CA","Zip":"92243"},{"Location":"SUSHI PARK","Address":"550 Wake Ave","City":"El Centro","State":"CA","Zip":"92243"},{"Location":"TARGET","Address":"2295 N Imperial Ave","City":"El Centro","State":"CA","Zip":"92243"},{"Location":"THE ABBY THE PERFECT PINT","Address":"601 W Main St","City":"El Centro","State":"CA","Zip":"92243"},{"Location":"THE BROKEN YOLK CAFE","Address":"3049 N Imperial Ave","City":"El Centro","State":"CA","Zip":"92243"},{"Location":"THE COURT ROOM","Address":"841 W Main St","City":"El Centro","State":"CA","Zip":"92243"},{"Location":"TRIO EQUIPMENT CO","Address":"1603 Silsbee Rd","City":"El Centro","State":"CA","Zip":"92243"},{"Location":"UNITED STATES MARSHAL SERVICES","Address":"2003 W Adams Ave 210","City":"El Centro","State":"CA","Zip":"92243"},{"Location":"US IMMIGRATION AND CUSTOMS","Address":"1111 N Imperial Ave","City":"El Centro","State":"CA","Zip":"92243"},{"Location":"VALLEY PSYCH CENTER","Address":"1850 W Main St B","City":"El Centro","State":"CA","Zip":"92243"},{"Location":"WILLIS LAW FIRM","Address":"1130 S 8th St","City":"El Centro","State":"CA","Zip":"92243"}]