[{"Location":"ALEJANDRA HAIR SALON","Address":"14208 Palm Dr A1","City":"Desert Hot Springs","State":"CA","Zip":"92240"},{"Location":"CAN LINES","Address":"10680 Ambrosio Dr","City":"Desert Hot Springs","State":"CA","Zip":"92240"},{"Location":"DESERT DUNES GOLF COURSE MGMT","Address":"19300 Palm Dr","City":"Desert Hot Springs","State":"CA","Zip":"92240"},{"Location":"DESERT WILLOWS","Address":"65565 Acoma Ave","City":"Desert Hot Springs","State":"CA","Zip":"92240"},{"Location":"EMERALD","Address":"68055 Club Circle Dr","City":"Desert Hot Springs","State":"CA","Zip":"92240"},{"Location":"GOODY'S","Address":"13997 Palm Dr","City":"Desert Hot Springs","State":"CA","Zip":"92240"},{"Location":"HIDDEN SPRINGS COUNTRY CLUB","Address":"15500 Bubbling Wells Rd","City":"Desert Hot Springs","State":"CA","Zip":"92240"},{"Location":"HIRAN SHODAN","Address":"11213 Palm Dr","City":"Desert Hot Springs","State":"CA","Zip":"92240"},{"Location":"JUST GINAS HAIR AND NAIL SALON","Address":"12230 Palm Dr","City":"Desert Hot Springs","State":"CA","Zip":"92240"},{"Location":"LUCYS BEAUTY SALON","Address":"13144 Palm Dr","City":"Desert Hot Springs","State":"CA","Zip":"92240"},{"Location":"MIRACLE MANOR","Address":"12589 Reposo Way","City":"Desert Hot Springs","State":"CA","Zip":"92240"},{"Location":"PALMS SPA","Address":"67485 Hacienda Ave","City":"Desert Hot Springs","State":"CA","Zip":"92240"},{"Location":"PIZZA HUT","Address":"14577 Palm Dr","City":"Desert Hot Springs","State":"CA","Zip":"92240"},{"Location":"PLAYOFFS","Address":"12105 Palm Dr","City":"Desert Hot Springs","State":"CA","Zip":"92240"},{"Location":"SAHARA MANAGEMENT INC","Address":"66700 5th St 1","City":"Desert Hot Springs","State":"CA","Zip":"92240"},{"Location":"SIDEWINDER GRILL","Address":"66121 Pierson Blvd","City":"Desert Hot Springs","State":"CA","Zip":"92240"},{"Location":"SPECTRUM CUSTOM DESIGN INC","Address":"65242 San Jacinto Ln","City":"Desert Hot Springs","State":"CA","Zip":"92240"},{"Location":"THE DHS SPA HOTEL","Address":"10805 Palm Dr","City":"Desert Hot Springs","State":"CA","Zip":"92240"},{"Location":"TIRE KINGDOM B-5788","Address":"14010 Palm Dr","City":"Desert Hot Springs","State":"CA","Zip":"92240"},{"Location":"TUSCAN SPRINGS HOTEL AND SPA","Address":"68187 Club Circle Dr","City":"Desert Hot Springs","State":"CA","Zip":"92240"},{"Location":"TWO BUNCH PALMS RESORT","Address":"67425 Two Bunch Palms Trl","City":"Desert Hot Springs","State":"CA","Zip":"92240"},{"Location":"VISTA MONTANA","Address":"15300 Vista Montana Gym","City":"Desert Hot Springs","State":"CA","Zip":"92240"},{"Location":"YK RESORT AND SPA","Address":"13060 La Salle Rd","City":"Desert Hot Springs","State":"CA","Zip":"92240"}]