[{"Location":"AARON ADAME","Address":"77935 Calle Tampico St203","City":"La Quinta","State":"CA","Zip":"92253"},{"Location":"ADOBE GRILL","Address":"49499 Eisenhower Dr","City":"La Quinta","State":"CA","Zip":"92253"},{"Location":"APPLEBEE'S LA QUINTA #7629","Address":"45305 Seeley Dr","City":"La Quinta","State":"CA","Zip":"92253"},{"Location":"ARNOLD PALMER","Address":"78164 Avenue 52","City":"La Quinta","State":"CA","Zip":"92253"},{"Location":"BLOOD BANK OF SAN BERNARDINO","Address":"79215 Corporate Center Dr","City":"La Quinta","State":"CA","Zip":"92253"},{"Location":"BOBBYS DETROIT CONEY","Address":"79630 Highway 111","City":"La Quinta","State":"CA","Zip":"92253"},{"Location":"BROKEN YOLK PALM SPRINGS","Address":"78430 Highway 111","City":"La Quinta","State":"CA","Zip":"92253"},{"Location":"BURGERS & BEER LA QUINTA","Address":"79815 Highway 111 101","City":"La Quinta","State":"CA","Zip":"92253"},{"Location":"CARMEL CHURCH  LLC","Address":"53055 Avenida Juarez","City":"La Quinta","State":"CA","Zip":"92253"},{"Location":"CLIFFHOUSE GRILL AND BAR","Address":"78250 Highway 111","City":"La Quinta","State":"CA","Zip":"92253"},{"Location":"COUNTRY CLUB NAILS","Address":"50855 Washington St","City":"La Quinta","State":"CA","Zip":"92253"},{"Location":"CRAB POT","Address":"78121 Avenida Lafonda","City":"La Quinta","State":"CA","Zip":"92253"},{"Location":"DEERWOOD HOLDINGS LLC","Address":"49484 Avenida Obregon","City":"La Quinta","State":"CA","Zip":"92253"},{"Location":"EFRUIT","Address":"77935 Calle Tampico 103","City":"La Quinta","State":"CA","Zip":"92253"},{"Location":"EL RANCHITO RESTAURANT","Address":"78039 Calle Estado","City":"La Quinta","State":"CA","Zip":"92253"},{"Location":"ERNIES BAR AND GRILL","Address":"56 150 Pga Blvd","City":"La Quinta","State":"CA","Zip":"92253"},{"Location":"FALTO CIGAR CLUB","Address":"78575 Highway 111 400","City":"La Quinta","State":"CA","Zip":"92253"},{"Location":"FANCY NAILS","Address":"79800 Highway 111 110","City":"La Quinta","State":"CA","Zip":"92253"},{"Location":"FISHERMANS MARKET GRILL INC","Address":"78575 Highway 111 100","City":"La Quinta","State":"CA","Zip":"92253"},{"Location":"HIDEAWAY GOLF CLUB","Address":"80440 Hideaway Club Ct","City":"La Quinta","State":"CA","Zip":"92253"},{"Location":"HOM SOUTHEBY","Address":"78015 Main St 205","City":"La Quinta","State":"CA","Zip":"92253"},{"Location":"HOMEWOOD SUITES (0056019)","Address":"45200 Washington St","City":"La Quinta","State":"CA","Zip":"92253"},{"Location":"JOHN FORD STATE FARM","Address":"79440 Corporate Center Dr 104","City":"La Quinta","State":"CA","Zip":"92253"},{"Location":"KOHL'S #677","Address":"78950 Hwy 11","City":"La Quinta","State":"CA","Zip":"92253"},{"Location":"LA BRASSERIE","Address":"78477 Highway 111","City":"La Quinta","State":"CA","Zip":"92253"},{"Location":"LA CASITA MEX REST","Address":"78790 Highway 111","City":"La Quinta","State":"CA","Zip":"92253"},{"Location":"LA QUINTA COUNTRY CLUB","Address":"77750 Avenue 50 Th","City":"La Quinta","State":"CA","Zip":"92253"},{"Location":"LA QUINTA EAR NOSE","Address":"47647 Caleo Bay Dr 280","City":"La Quinta","State":"CA","Zip":"92253"},{"Location":"LA QUINTA FITNESS CTR","Address":"77865 Avenida Montezuma","City":"La Quinta","State":"CA","Zip":"92253"},{"Location":"LA QUINTA RESORT","Address":"49499 Eisenhower Dr","City":"La Quinta","State":"CA","Zip":"92253"},{"Location":"LA QUINTA RESORT & CLUB","Address":"49499 Eisenhower Dr","City":"La Quinta","State":"CA","Zip":"92253"},{"Location":"LA QUINTA RESORT AND SPA","Address":"55955 Pga Blvd","City":"La Quinta","State":"CA","Zip":"92253"},{"Location":"LAMPPOST PIZZA","Address":"78772 Highway 111","City":"La Quinta","State":"CA","Zip":"92253"},{"Location":"LAVENDER BISTRO","Address":"78073 Calle Barcelona","City":"La Quinta","State":"CA","Zip":"92253"},{"Location":"LOUISES PANTRY","Address":"47150 Washington St","City":"La Quinta","State":"CA","Zip":"92253"},{"Location":"MADISON CLUB","Address":"53035 Meriwether Way","City":"La Quinta","State":"CA","Zip":"92253"},{"Location":"MARU","Address":"78702 Highway 111","City":"La Quinta","State":"CA","Zip":"92253"},{"Location":"MD GRILL","Address":"50200 Avenida Vista Bonita","City":"La Quinta","State":"CA","Zip":"92253"},{"Location":"MEDPOST URGENT CARE","Address":"78965 Highway 111","City":"La Quinta","State":"CA","Zip":"92253"},{"Location":"MOUNTAIN VIEW TIRE 79265","Address":"79265 Highway 111","City":"La Quinta","State":"CA","Zip":"92253"},{"Location":"OLD TOWN NAIL SALON","Address":"78010 Calle Tampico","City":"La Quinta","State":"CA","Zip":"92253"},{"Location":"RED ROBIN #243","Address":"78722 Highway 111","City":"La Quinta","State":"CA","Zip":"92253"},{"Location":"STUFT PIZZA BAR & GRILL","Address":"78015 Main St 100","City":"La Quinta","State":"CA","Zip":"92253"},{"Location":"TAMPICO MEAT MARKET","Address":"78100 Calle Tampico","City":"La Quinta","State":"CA","Zip":"92253"},{"Location":"TD DESERT DEVELOPMENT LP2","Address":"81825 Andalusia","City":"La Quinta","State":"CA","Zip":"92253"},{"Location":"TD DESERT DEVELOPMENT LP3","Address":"81845 Andalusia","City":"La Quinta","State":"CA","Zip":"92253"},{"Location":"TD DESERT DVELOPMENT LP","Address":"81805 Andalusia","City":"La Quinta","State":"CA","Zip":"92253"},{"Location":"THE BEER HUNTER","Address":"78483 Highway 111","City":"La Quinta","State":"CA","Zip":"92253"},{"Location":"THE GRILL ON MAIN","Address":"78065 Main St 104","City":"La Quinta","State":"CA","Zip":"92253"},{"Location":"THE WINE BAR BISTRO","Address":"78085 Avenida La Fonda","City":"La Quinta","State":"CA","Zip":"92253"},{"Location":"TRILOGY OF LA QUITA","Address":"60800 Trilogy Pkwy","City":"La Quinta","State":"CA","Zip":"92253"},{"Location":"TWENTY 6","Address":"49499 Eisenhower Dr","City":"La Quinta","State":"CA","Zip":"92253"},{"Location":"VILLAGE PARK ANIMAL HOSPITAL","Address":"51230 Eisenhower Dr","City":"La Quinta","State":"CA","Zip":"92253"},{"Location":"WINDOW WONDERS","Address":"54140 Avenida Diaz","City":"La Quinta","State":"CA","Zip":"92253"},{"Location":"EMAGINE U AT PLAY","Address":"Elsworth St 106","City":"Moreno Valley","State":"CA","Zip":"92253"}]