[{"Location":"CROSSROADS RANCH LLC","Address":"2142 Snyder Rd","City":"Holtville","State":"CA","Zip":"92250"},{"Location":"IMPERIAL PALM RESORT BAR","Address":"2050 Country Club Dr","City":"Holtville","State":"CA","Zip":"92250"},{"Location":"SWISS CLUB","Address":"1585 Worthington Rd 3a","City":"Holtville","State":"CA","Zip":"92250"},{"Location":"VESSEY AND COMPANY INC","Address":"1605 Zenos Rd","City":"Holtville","State":"CA","Zip":"92250"},{"Location":"VICS AIR CONDITIONING","Address":"317 E 5th St","City":"Holtville","State":"CA","Zip":"92250"},{"Location":"CROSSROADS RANCH LLC","Address":"2142 Snyder Rd","City":"Holtville","State":"CA","Zip":"92250"},{"Location":"IMPERIAL PALM RESORT BAR","Address":"2050 Country Club Dr","City":"Holtville","State":"CA","Zip":"92250"},{"Location":"SWISS CLUB","Address":"1585 Worthington Rd 3a","City":"Holtville","State":"CA","Zip":"92250"},{"Location":"VESSEY AND COMPANY INC","Address":"1605 Zenos Rd","City":"Holtville","State":"CA","Zip":"92250"},{"Location":"VICS AIR CONDITIONING","Address":"317 E 5th St","City":"Holtville","State":"CA","Zip":"92250"}]