[{"Location":"IMPERIAL COUNTY FIRE DEPT","Address":"1157 N Imperial Hwy","City":"Ocotillo","State":"CA","Zip":"92259"},{"Location":"LAZY LIZARD","Address":"1194 N Imperial Hwy","City":"Ocotillo","State":"CA","Zip":"92259"},{"Location":"NIELSEN CONSTRUCTION","Address":"1185 Seminole Av","City":"Ocotillo","State":"CA","Zip":"92259"},{"Location":"OCOTILLO PARK","Address":"14 East Agate Rd","City":"Ocotillo","State":"CA","Zip":"92259"},{"Location":"OCOTILLO TRAILER PARK","Address":"14 East Agate Road #1","City":"Ocotillo","State":"CA","Zip":"92259"},{"Location":"OSTERKAMP TRUCKING INC","Address":"3810 Evan Hewes Hwy","City":"Plaster","State":"CA","Zip":"92259"},{"Location":"IMPERIAL COUNTY FIRE DEPT","Address":"1157 N Imperial Hwy","City":"Ocotillo","State":"CA","Zip":"92259"},{"Location":"LAZY LIZARD","Address":"1194 N Imperial Hwy","City":"Ocotillo","State":"CA","Zip":"92259"},{"Location":"NIELSEN CONSTRUCTION","Address":"1185 Seminole Av","City":"Ocotillo","State":"CA","Zip":"92259"},{"Location":"OCOTILLO PARK","Address":"14 East Agate Rd","City":"Ocotillo","State":"CA","Zip":"92259"},{"Location":"OCOTILLO TRAILER PARK","Address":"14 East Agate Road #1","City":"Ocotillo","State":"CA","Zip":"92259"},{"Location":"OSTERKAMP TRUCKING INC","Address":"3810 Evan Hewes Hwy","City":"Plaster","State":"CA","Zip":"92259"}]