[{"Location":"ANHEUSER-BUSCH WHLSLR#30414","Address":"344 Crown Ct","City":"Imperial","State":"CA","Zip":"92251"},{"Location":"CUSTOMS AND BORDER PATROL","Address":"516 Industry Way A","City":"Imperial","State":"CA","Zip":"92251"},{"Location":"DEPT OF JUSTICE ATF","Address":"2437 Enterprise Trl","City":"Imperial","State":"CA","Zip":"92251"},{"Location":"FED EX EXPRESS","Address":"2451 Access Way","City":"Imperial","State":"CA","Zip":"92251"},{"Location":"IMP MASONIC BUILDING ASSOC","Address":"115 E Barioni Blvd","City":"Imperial","State":"CA","Zip":"92251"},{"Location":"IMPERIAL IRRIGATION DISTRICT","Address":"333 E Barioni Blvd","City":"Imperial","State":"CA","Zip":"92251"},{"Location":"IMPERIAL PREMIX","Address":"422 E Barioni Blvd","City":"Imperial","State":"CA","Zip":"92251"},{"Location":"MA LUPES RESTAURANT","Address":"390 W Aten Rd","City":"Imperial","State":"CA","Zip":"92251"},{"Location":"MOOSE LODGE 1033","Address":"2310 Myrtle Rd","City":"Imperial","State":"CA","Zip":"92251"},{"Location":"RICOCHET REC CENTER","Address":"450 W Aten Rd","City":"Imperial","State":"CA","Zip":"92251"},{"Location":"THE HAIR PORT","Address":"388 W Aten Rd A","City":"Imperial","State":"CA","Zip":"92251"},{"Location":"TSA IMPERIAL COUNTY AIRPORT","Address":"1099 A Airport Rd","City":"Imperial","State":"CA","Zip":"92251"},{"Location":"US BORDER PATROL","Address":"221 W Aten Rd","City":"Imperial","State":"CA","Zip":"92251"},{"Location":"ANHEUSER-BUSCH WHLSLR#30414","Address":"344 Crown Ct","City":"Imperial","State":"CA","Zip":"92251"},{"Location":"CUSTOMS AND BORDER PATROL","Address":"516 Industry Way A","City":"Imperial","State":"CA","Zip":"92251"},{"Location":"DEPT OF JUSTICE ATF","Address":"2437 Enterprise Trl","City":"Imperial","State":"CA","Zip":"92251"},{"Location":"FED EX EXPRESS","Address":"2451 Access Way","City":"Imperial","State":"CA","Zip":"92251"},{"Location":"IMP MASONIC BUILDING ASSOC","Address":"115 E Barioni Blvd","City":"Imperial","State":"CA","Zip":"92251"},{"Location":"IMPERIAL IRRIGATION DISTRICT","Address":"333 E Barioni Blvd","City":"Imperial","State":"CA","Zip":"92251"},{"Location":"IMPERIAL PREMIX","Address":"422 E Barioni Blvd","City":"Imperial","State":"CA","Zip":"92251"},{"Location":"MA LUPES RESTAURANT","Address":"390 W Aten Rd","City":"Imperial","State":"CA","Zip":"92251"},{"Location":"MOOSE LODGE 1033","Address":"2310 Myrtle Rd","City":"Imperial","State":"CA","Zip":"92251"},{"Location":"RICOCHET REC CENTER","Address":"450 W Aten Rd","City":"Imperial","State":"CA","Zip":"92251"},{"Location":"THE HAIR PORT","Address":"388 W Aten Rd A","City":"Imperial","State":"CA","Zip":"92251"},{"Location":"TSA IMPERIAL COUNTY AIRPORT","Address":"1099 A Airport Rd","City":"Imperial","State":"CA","Zip":"92251"},{"Location":"US BORDER PATROL","Address":"221 W Aten Rd","City":"Imperial","State":"CA","Zip":"92251"}]