[{"Location":"AGUA CALIENTE","Address":"5401 Dinah Shore Dr","City":"Palm Springs","State":"CA","Zip":"92264"},{"Location":"AIRPORT CARWASH","Address":"4144 E Ramon Rd","City":"Palm Springs","State":"CA","Zip":"92264"},{"Location":"ALLEN TIRE CO","Address":"675 S Palm Canyon Dr","City":"Palm Springs","State":"CA","Zip":"92264"},{"Location":"ARROYO","Address":"6181 Arroyo Rd 3","City":"Palm Springs","State":"CA","Zip":"92264"},{"Location":"BEST WESTERN","Address":"1633 S Palm Canyon Dr","City":"Palm Springs","State":"CA","Zip":"92264"},{"Location":"CANYON HEIGHTS HOA","Address":"2901 S Palm Canyon Dr","City":"Palm Springs","State":"CA","Zip":"92264"},{"Location":"COMFORT AIR","Address":"4803 E Sunny Dunes Rd","City":"Palm Springs","State":"CA","Zip":"92264"},{"Location":"DENNIS J NORHEIM DDS","Address":"1000 S Palm Canyon Dr 202","City":"Palm Springs","State":"CA","Zip":"92264"},{"Location":"DESERT 100 CAR WASH","Address":"645 S Palm Canyon Dr","City":"Palm Springs","State":"CA","Zip":"92264"},{"Location":"DESERT WATER AGENCY","Address":"1200 S Gene Autry Trl","City":"Palm Springs","State":"CA","Zip":"92264"},{"Location":"EISENHOWER HEALTH CENTER","Address":"1555 S Palm Canyon Dr","City":"Palm Springs","State":"CA","Zip":"92264"},{"Location":"EISENHOWER MED RIMROCK","Address":"47011 East Palm Canyon","City":"Palm Springs","State":"CA","Zip":"92264"},{"Location":"FIRESIDE LOUNGE","Address":"696 S Oleander Rd","City":"Palm Springs","State":"CA","Zip":"92264"},{"Location":"FIRST STUDENT","Address":"5006 E Calle San Raphael","City":"Palm Springs","State":"CA","Zip":"92264"},{"Location":"GOLD'S GYM","Address":"4070 Airport Center Dr","City":"Palm Springs","State":"CA","Zip":"92264"},{"Location":"HACIENDA CANTINA","Address":"1555 S Palm Canyon Dr","City":"Palm Springs","State":"CA","Zip":"92264"},{"Location":"HAJOCA CORPORATION","Address":"682 S Eugene Rd","City":"Palm Springs","State":"CA","Zip":"92264"},{"Location":"HAPPY NAILS","Address":"1574 S Palm Canyon Dr","City":"Palm Springs","State":"CA","Zip":"92264"},{"Location":"HOMECO HBC INC","Address":"560 S Williams Rd","City":"Palm Springs","State":"CA","Zip":"92264"},{"Location":"INDIAN CANYONS GOLF RESORT","Address":"1100 E Murray Canyon Dr","City":"Palm Springs","State":"CA","Zip":"92264"},{"Location":"MACK CUSTOM DESIGN","Address":"525 S Camino Real 7","City":"Palm Springs","State":"CA","Zip":"92264"},{"Location":"NATIVE MADE TOBACCO SHOP","Address":"559 S Palm Canyon Dr B110","City":"Palm Springs","State":"CA","Zip":"92264"},{"Location":"P S SMOG","Address":"4633 E Ramon Rd","City":"Palm Springs","State":"CA","Zip":"92264"},{"Location":"P S SMOG","Address":"4633 E Ramon Road","City":"Palm Springs","State":"CA","Zip":"92264"},{"Location":"PACIFIC PREMIER BANK","Address":"1711 Calm Canyon Dr","City":"Palm Springs","State":"CA","Zip":"92264"},{"Location":"PACOS AUTOBODY","Address":"375 E Sunny Dunes Rd","City":"Palm Springs","State":"CA","Zip":"92264"},{"Location":"PAULS TRANSMISSION","Address":"661 S Williams Rd 1","City":"Palm Springs","State":"CA","Zip":"92264"},{"Location":"PETE'S HIDEAWAY","Address":"665 S Palm Canyon Dr","City":"Palm Springs","State":"CA","Zip":"92264"},{"Location":"RABOBANK%2C N.A.","Address":"500 S Palm Canyon Dr 115","City":"Palm Springs","State":"CA","Zip":"92264"},{"Location":"SMOKIN' BURGERS","Address":"1775 E Palm Canyon Dr 220","City":"Palm Springs","State":"CA","Zip":"92264"},{"Location":"SOUTHERN PAC PIZZA LLC","Address":"1180 S Palm Canyon Dr","City":"Palm Springs","State":"CA","Zip":"92264"},{"Location":"SPORT CLIP #602","Address":"5001 E Ramon Rd 102","City":"Palm Springs","State":"CA","Zip":"92264"},{"Location":"STAR AUTO PARTS INC","Address":"5055 E Calle San Raphael","City":"Palm Springs","State":"CA","Zip":"92264"},{"Location":"STUDIO M SALON AND SPA","Address":"2465 E Palm Canyon Dr 1025","City":"Palm Springs","State":"CA","Zip":"92264"},{"Location":"TAHQITZ CREEK GOLF RESORT","Address":"1885 Golf Club Dr","City":"Palm Springs","State":"CA","Zip":"92264"},{"Location":"THE NEW YORK COMPANY","Address":"1260 S Palm Canyon Dr","City":"Palm Springs","State":"CA","Zip":"92264"},{"Location":"THE TOOL SHED","Address":"600 E Sunny Dunes Rd","City":"Palm Springs","State":"CA","Zip":"92264"},{"Location":"THE VILLAS AT PALM SPRINGS","Address":"1650 S Calle Palo Fierro","City":"Palm Springs","State":"CA","Zip":"92264"},{"Location":"THRIFTY WASH COIN LAUNDRY","Address":"4781 E Palm Canyon Dr","City":"Palm Springs","State":"CA","Zip":"92264"},{"Location":"TK NAIL SALON","Address":"1775 E Palm Canyon Dr 130","City":"Palm Springs","State":"CA","Zip":"92264"},{"Location":"TWIN PALMS BISTRO LOUNGE","Address":"1201 E Palm Canyon Dr","City":"Palm Springs","State":"CA","Zip":"92264"},{"Location":"US BANK","Address":"1793 E Palm Canyon Dr","City":"Palm Springs","State":"CA","Zip":"92264"},{"Location":"VERIZON","Address":"950 S Williams Rd","City":"Palm Springs","State":"CA","Zip":"92264"}]