[{"Location":"ART WORKS GALLERY","Address":"74405 State Highway 111","City":"Pal Desert","State":"CA","Zip":"92260"},{"Location":"AB&G INC","Address":"73260 El Paseo 1a","City":"Palm Desert","State":"CA","Zip":"92260"},{"Location":"ABRACADABRA GARAGE DOOR","Address":"73714 State Highway 111","City":"Palm Desert","State":"CA","Zip":"92260"},{"Location":"AGAVE","Address":"75 Willow Rdg","City":"Palm Desert","State":"CA","Zip":"92260"},{"Location":"ANNS NAILS","Address":"44491 Town Center Way C","City":"Palm Desert","State":"CA","Zip":"92260"},{"Location":"BACH ENTERPRISES LLC","Address":"72785 State Highway 111 Suite","City":"Palm Desert","State":"CA","Zip":"92260"},{"Location":"BIGHORN GOLF CLUB","Address":"255 Palowet Dr","City":"Palm Desert","State":"CA","Zip":"92260"},{"Location":"BIGHORN GOLF CLUB","Address":"312 Caynon Dr","City":"Palm Desert","State":"CA","Zip":"92260"},{"Location":"BIGHORN SPA","Address":"256 Palowet Dr","City":"Palm Desert","State":"CA","Zip":"92260"},{"Location":"BOBBY MAOS","Address":"72840 Highway 111 W400","City":"Palm Desert","State":"CA","Zip":"92260"},{"Location":"BUFFALO WILD WINGS #0456","Address":"72920 Highway 111","City":"Palm Desert","State":"CA","Zip":"92260"},{"Location":"CACTUS JACKS BAR","Address":"74450 Highway 111","City":"Palm Desert","State":"CA","Zip":"92260"},{"Location":"CAL BANK & TRUST","Address":"73 -301 Highway Iii","City":"Palm Desert","State":"CA","Zip":"92260"},{"Location":"CALAMARO","Address":"40827 Hovley Ct","City":"Palm Desert","State":"CA","Zip":"92260"},{"Location":"CALIFORNIA PIZZA KITCHEN #30","Address":"73080 El Paseo","City":"Palm Desert","State":"CA","Zip":"92260"},{"Location":"CAMBRIA","Address":"73520 El Paseo","City":"Palm Desert","State":"CA","Zip":"92260"},{"Location":"CARTWRIGHT TERMITE CONTROL","Address":"74804 Joni Dr 11a","City":"Palm Desert","State":"CA","Zip":"92260"},{"Location":"CASA LARREA INN","Address":"73771 Larrea Inn","City":"Palm Desert","State":"CA","Zip":"92260"},{"Location":"CASTELLIS","Address":"73098 Highway 111","City":"Palm Desert","State":"CA","Zip":"92260"},{"Location":"CITI WOK","Address":"74970 Country Club Dr","City":"Palm Desert","State":"CA","Zip":"92260"},{"Location":"COACHELLA VALLEY NECK AND BACK","Address":"72650 Fred Waring Dr 110b","City":"Palm Desert","State":"CA","Zip":"92260"},{"Location":"COLLEGE GOLF CENTEN","Address":"73450 Fred Waring Dr","City":"Palm Desert","State":"CA","Zip":"92260"},{"Location":"DESERT DENTAL ASSOCIATES","Address":"72210 Highway 111 E-1","City":"Palm Desert","State":"CA","Zip":"92260"},{"Location":"DESERT EYEWORK","Address":"7311 Country Club Dr #b3","City":"Palm Desert","State":"CA","Zip":"92260"},{"Location":"DESERT PEARL DENTISTRY","Address":"73925 Highway 111","City":"Palm Desert","State":"CA","Zip":"92260"},{"Location":"DESTINATION XL 9744","Address":"72840 Highway 111","City":"Palm Desert","State":"CA","Zip":"92260"},{"Location":"DICK'S SPORTING GOODS 1126","Address":"72840 Highway 111 B","City":"Palm Desert","State":"CA","Zip":"92260"},{"Location":"EL PASEO MAIN BRANCH","Address":"74175 El Paseo","City":"Palm Desert","State":"CA","Zip":"92260"},{"Location":"FAMILYHEALTHSUPNET","Address":"74426 Alessandro Dr","City":"Palm Desert","State":"CA","Zip":"92260"},{"Location":"FANZZ PALM DESERT","Address":"72840 Highway 111","City":"Palm Desert","State":"CA","Zip":"92260"},{"Location":"FIDELITY INVESTMENTS 334","Address":"73575 El Paseo C2300","City":"Palm Desert","State":"CA","Zip":"92260"},{"Location":"FISHERMANS LANDING","Address":"74855 Country Club Dr B","City":"Palm Desert","State":"CA","Zip":"92260"},{"Location":"FIT AND FLEX BY ANGI","Address":"72990 El Paseo 2","City":"Palm Desert","State":"CA","Zip":"92260"},{"Location":"FLAMBUYAN","Address":"73925 State Highway 111 B","City":"Palm Desert","State":"CA","Zip":"92260"},{"Location":"FMC 71870000","Address":"41501 Corporate Way","City":"Palm Desert","State":"CA","Zip":"92260"},{"Location":"GALLOWAY ELECTRIC","Address":"72375 Upper Way W","City":"Palm Desert","State":"CA","Zip":"92260"},{"Location":"GIANCARLO HAIR INTERNATI","Address":"73200 El Paseo 3c","City":"Palm Desert","State":"CA","Zip":"92260"},{"Location":"GOLF STONE EAGLE","Address":"72450 Stone Eagle Dr","City":"Palm Desert","State":"CA","Zip":"92260"},{"Location":"GRILL A BURGER","Address":"73091 Country Club Dr A","City":"Palm Desert","State":"CA","Zip":"92260"},{"Location":"HAIR BY RINA","Address":"45275 Prickley Pear Ln","City":"Palm Desert","State":"CA","Zip":"92260"},{"Location":"HEARTH STONE","Address":"44500 San Pasqual Ave","City":"Palm Desert","State":"CA","Zip":"92260"},{"Location":"HOLIDAY INN EXPRESS (0006780)","Address":"74675 Highway 111","City":"Palm Desert","State":"CA","Zip":"92260"},{"Location":"IL CORSO RESTAURANT","Address":"73520 El Paseo B","City":"Palm Desert","State":"CA","Zip":"92260"},{"Location":"ISLANDS RESTAURANT #021","Address":"72%2F353 Highway 111","City":"Palm Desert","State":"CA","Zip":"92260"},{"Location":"JW MARRIOTT","Address":"74855 Country Club Dr","City":"Palm Desert","State":"CA","Zip":"92260"},{"Location":"KADEN","Address":"72286 Highway 111 J-3","City":"Palm Desert","State":"CA","Zip":"92260"},{"Location":"KENNETH H JESSER MD","Address":"44530 San Pablo Ave","City":"Palm Desert","State":"CA","Zip":"92260"},{"Location":"LUXE ELECTRIC CAR","Address":"74125 Highway 111","City":"Palm Desert","State":"CA","Zip":"92260"},{"Location":"M KYRRO FOODS INC","Address":"72393 Highway 111","City":"Palm Desert","State":"CA","Zip":"92260"},{"Location":"MACY'S BR WEST # 542","Address":"72780 Highway 111","City":"Palm Desert","State":"CA","Zip":"92260"},{"Location":"MACY'S WEST 534","Address":"72780 Highway 111","City":"Palm Desert","State":"CA","Zip":"92260"},{"Location":"MACY'S WEST 534 BR","Address":"72780 Highway 111","City":"Palm Desert","State":"CA","Zip":"92260"},{"Location":"MAISON FELICE","Address":"73960 El Paseo","City":"Palm Desert","State":"CA","Zip":"92260"},{"Location":"MANHATTAN IN THE DESERT","Address":"74225 Highway 111 B","City":"Palm Desert","State":"CA","Zip":"92260"},{"Location":"MARES MENSWEAR OF EL PAS","Address":"73255 El Paseo Ste4","City":"Palm Desert","State":"CA","Zip":"92260"},{"Location":"MARIOS ITALIAN CAFE","Address":"73155 Highway 111","City":"Palm Desert","State":"CA","Zip":"92260"},{"Location":"MASTROS PALM DESERT","Address":"73405 El Paseo","City":"Palm Desert","State":"CA","Zip":"92260"},{"Location":"MEN'S WEARHOUSE #2746","Address":"72290 State Highway 111","City":"Palm Desert","State":"CA","Zip":"92260"},{"Location":"MIMMOS ITALIAN REST AND","Address":"73540 State Highway 111","City":"Palm Desert","State":"CA","Zip":"92260"},{"Location":"MITCHS PRIME SEAFOOD","Address":"73951 El Paseo","City":"Palm Desert","State":"CA","Zip":"92260"},{"Location":"MORTON'S PALM DESERT","Address":"74880 Country Club Dr","City":"Palm Desert","State":"CA","Zip":"92260"},{"Location":"MOUNTAIN VIEW TIRE SERVICE","Address":"44420 Town Center Way","City":"Palm Desert","State":"CA","Zip":"92260"},{"Location":"MTC DISTRIBUTING","Address":"46035 Portola Ave 14","City":"Palm Desert","State":"CA","Zip":"92260"},{"Location":"NAIL LUV","Address":"72-221 Highway 111%2C Suige A-8","City":"Palm Desert","State":"CA","Zip":"92260"},{"Location":"NAIL LUV","Address":"72-221 Highway 111%2C Suite A-8","City":"Palm Desert","State":"CA","Zip":"92260"},{"Location":"NORDSTROM RACK","Address":"44449 Town Center Way","City":"Palm Desert","State":"CA","Zip":"92260"},{"Location":"OUT OF THE BOX GOLD STOR","Address":"73185 Highway 111","City":"Palm Desert","State":"CA","Zip":"92260"},{"Location":"OUT OF THE CLOSET","Address":"73200 El Pacio  #4b","City":"Palm Desert","State":"CA","Zip":"92260"},{"Location":"OUTBACK STEAKHOUSE","Address":"72220 Highway 111","City":"Palm Desert","State":"CA","Zip":"92260"},{"Location":"PALMS TO PINES AUTOMOTIVE","Address":"74725 Joni Dr","City":"Palm Desert","State":"CA","Zip":"92260"},{"Location":"PIZZA HUT","Address":"72310 Highway 111","City":"Palm Desert","State":"CA","Zip":"92260"},{"Location":"PRAXIS WEALTH MANAGEMENT INC","Address":"73271 Fred Waring Dr 103","City":"Palm Desert","State":"CA","Zip":"92260"},{"Location":"PRESAGE LLC","Address":"73811 El Paseo","City":"Palm Desert","State":"CA","Zip":"92260"},{"Location":"PRETTY NAILS & HAIR","Address":"73655 El Paseo Stea","City":"Palm Desert","State":"CA","Zip":"92260"},{"Location":"PUEBLO VIEJO GRILL","Address":"72620 El Paseo","City":"Palm Desert","State":"CA","Zip":"92260"},{"Location":"Q NAILS","Address":"73587 Highway 111","City":"Palm Desert","State":"CA","Zip":"92260"},{"Location":"RD HUBBARD ENTERPRISES INC","Address":"72650 Fred Waring Dr 202","City":"Palm Desert","State":"CA","Zip":"92260"},{"Location":"RED BARN","Address":"73290 Highway 111","City":"Palm Desert","State":"CA","Zip":"92260"},{"Location":"RED LOBSTER #6378","Address":"72291 Highway 111","City":"Palm Desert","State":"CA","Zip":"92260"},{"Location":"RENNICKBARRETT RECRUITIN","Address":"74818 Velie Way 10","City":"Palm Desert","State":"CA","Zip":"92260"},{"Location":"RODEO CAFE","Address":"44820 San Pablo Ave","City":"Palm Desert","State":"CA","Zip":"92260"},{"Location":"SALON 111","Address":"73925 El Paseo 2ba","City":"Palm Desert","State":"CA","Zip":"92260"},{"Location":"SLEEP EZZEE","Address":"72261 Highway 111 121a","City":"Palm Desert","State":"CA","Zip":"92260"},{"Location":"SPA ONE ELEVEN","Address":"73280 State Hwy 111 101","City":"Palm Desert","State":"CA","Zip":"92260"},{"Location":"STAR NAILS SALON","Address":"73925 Highway 111 E","City":"Palm Desert","State":"CA","Zip":"92260"},{"Location":"STUFT PIZZA","Address":"72840 Highway 111 V465","City":"Palm Desert","State":"CA","Zip":"92260"},{"Location":"SULLIVAN'S STEAKHOUSE #8570","Address":"73505 El Paseo 2600","City":"Palm Desert","State":"CA","Zip":"92260"},{"Location":"SUN OPTICS","Address":"73400 El Paseo","City":"Palm Desert","State":"CA","Zip":"92260"},{"Location":"TARGET STORE","Address":"72549 Highway 111","City":"Palm Desert","State":"CA","Zip":"92260"},{"Location":"THAI SMILE","Address":"73725 El Paseo B","City":"Palm Desert","State":"CA","Zip":"92260"},{"Location":"THE CHAPARRAL COUNTRY CLUB 1","Address":"100 Chaparral Dr","City":"Palm Desert","State":"CA","Zip":"92260"},{"Location":"THE DONAHUE GROUP","Address":"73130 El Paseo P","City":"Palm Desert","State":"CA","Zip":"92260"},{"Location":"THE HITTING ZONE","Address":"74824 Lennon Pl","City":"Palm Desert","State":"CA","Zip":"92260"},{"Location":"THE HOOD BAR","Address":"74360 Highway 111","City":"Palm Desert","State":"CA","Zip":"92260"},{"Location":"THE PASTRY SWAN BAKERY","Address":"73580 El Paseo","City":"Palm Desert","State":"CA","Zip":"92260"},{"Location":"THE REAL ITALIAN DELI","Address":"44795 San Pablo Ave","City":"Palm Desert","State":"CA","Zip":"92260"},{"Location":"TILTED KILT DESERT","Address":"72191 Highway 111","City":"Palm Desert","State":"CA","Zip":"92260"},{"Location":"TROY K. VIGIL%2C CPA","Address":"73700 State Highway 111 1","City":"Palm Desert","State":"CA","Zip":"92260"},{"Location":"US BANK","Address":"74010 El Paseo","City":"Palm Desert","State":"CA","Zip":"92260"},{"Location":"WELLNESS DENTAL CARE INC","Address":"73260 Elpaseo 2d","City":"Palm Desert","State":"CA","Zip":"92260"},{"Location":"WESTIN DESERT WILLOW","Address":"75 Willow Rdg","City":"Palm Desert","State":"CA","Zip":"92260"},{"Location":"WHOLE FOODS MARKET","Address":"44459 Town Center Way","City":"Palm Desert","State":"CA","Zip":"92260"},{"Location":"WIN 4 HIM INC","Address":"44227 Monterey Ave","City":"Palm Desert","State":"CA","Zip":"92260"},{"Location":"WOLFGANG PUCK PIZZA BAR","Address":"73130 El Paseo I","City":"Palm Desert","State":"CA","Zip":"92260"}]