[{"Location":"","Address":"2580 E Tahquitz Canyon Way 309","City":"Palm Springs","State":"CA","Zip":"92262"},{"Location":"ALICANTE","Address":"140 S Palm Canyon Dr","City":"Palm Springs","State":"CA","Zip":"92262"},{"Location":"ALLEN AND ASSOCIATES","Address":"1111 E Tahquitz Canyon Way","City":"Palm Springs","State":"CA","Zip":"92262"},{"Location":"AMERICAN LEGION","Address":"400 N Belardo Rd","City":"Palm Springs","State":"CA","Zip":"92262"},{"Location":"AMERICAN MEDICAL RESPONSE","Address":"1111 Montalvo Way","City":"Palm Springs","State":"CA","Zip":"92262"},{"Location":"BEST WESTERN LAS BRISAS","Address":"222 S Indian Canyon Dr","City":"Palm Springs","State":"CA","Zip":"92262"},{"Location":"CAREFUSION","Address":"1100 Bird Center Dr","City":"Palm Springs","State":"CA","Zip":"92262"},{"Location":"CHILL BAR","Address":"224 East Arenas Blvd","City":"Palm Springs","State":"CA","Zip":"92262"},{"Location":"CHRIS SAHLIN ARCHITECTS","Address":"121 S Palm Canyon Dr 229","City":"Palm Springs","State":"CA","Zip":"92262"},{"Location":"CNBC NEWS","Address":"3400 E Tahquitz Canyon Way 13","City":"Palm Springs","State":"CA","Zip":"92262"},{"Location":"COLONY PALMS HOTEL","Address":"572 N Indian Canyon Dr","City":"Palm Springs","State":"CA","Zip":"92262"},{"Location":"CULLEN 111 INVESTMENTS LLC","Address":"217 E Arenas Rd","City":"Palm Springs","State":"CA","Zip":"92262"},{"Location":"DAVITA #3067 PALM SPRINGS","Address":"1061 N Indian Canyon Dr","City":"Palm Springs","State":"CA","Zip":"92262"},{"Location":"DESERT ADVANCED IMAGING","Address":"2601 E Tahquitz Canyon Way","City":"Palm Springs","State":"CA","Zip":"92262"},{"Location":"DESERT OASIS HEALTH CARE","Address":"255 N El Cielo Rd","City":"Palm Springs","State":"CA","Zip":"92262"},{"Location":"DESERT OASIS HEALTHCARE","Address":"265 N El Cielo Rd A","City":"Palm Springs","State":"CA","Zip":"92262"},{"Location":"DESERT OASIS HEALTHCARE.","Address":"265 N El Cielo Rd B","City":"Palm Springs","State":"CA","Zip":"92262"},{"Location":"DICKIE O'NEAL'S IRISH PUB","Address":"2155 N Palm Canyon Dr","City":"Palm Springs","State":"CA","Zip":"92262"},{"Location":"DICO AIR CONDITIONING","Address":"840 N Avenida Caballeros","City":"Palm Springs","State":"CA","Zip":"92262"},{"Location":"DOWNTOWN BARBERS","Address":"333 N Palm Cannyon #205","City":"Palm Springs","State":"CA","Zip":"92262"},{"Location":"EL SALVADOR CAFE","Address":"1751 N Sunrise Way F2","City":"Palm Springs","State":"CA","Zip":"92262"},{"Location":"ELECTRONIC ENTRY SYSTEMS","Address":"3580 Del Sol Rd","City":"Palm Springs","State":"CA","Zip":"92262"},{"Location":"FAME TOBACCONIST","Address":"155 S Palm Canyon Dr. Ste #3","City":"Palm Springs","State":"CA","Zip":"92262"},{"Location":"FAME TOBACCONIST INC","Address":"155 S Palm Canyon Dr A-3","City":"Palm Springs","State":"CA","Zip":"92262"},{"Location":"FISHERMAN'S MARKET & GRILL","Address":"235 S Indian Canyon Dr","City":"Palm Springs","State":"CA","Zip":"92262"},{"Location":"GPSI","Address":"333 N Palm Canyon Dr","City":"Palm Springs","State":"CA","Zip":"92262"},{"Location":"GRACE APOSTOLIC CHURCH","Address":"61595 Garnet Ave","City":"Palm Springs","State":"CA","Zip":"92262"},{"Location":"GRIND BURGER BAR","Address":"262 S Palm Canyon Dr","City":"Palm Springs","State":"CA","Zip":"92262"},{"Location":"HAIR OF THE DOG","Address":"238 N Palm Canyon Dr","City":"Palm Springs","State":"CA","Zip":"92262"},{"Location":"HMS HOST PSPDCE1A","Address":"3400 E Tahquitz Canyon Way","City":"Palm Springs","State":"CA","Zip":"92262"},{"Location":"HMS HOST PSPGSD1A","Address":"3400 E Tahquitz Canyon Way 8","City":"Palm Springs","State":"CA","Zip":"92262"},{"Location":"HMS HOST PSPLBB1A","Address":"3400 E Tahquitz Canyon Way","City":"Palm Springs","State":"CA","Zip":"92262"},{"Location":"HNM INVESTMENTS","Address":"181 S Civic Dr 1","City":"Palm Springs","State":"CA","Zip":"92262"},{"Location":"HUNTER'S PALM SPRINGS","Address":"302 E Arenas Rd","City":"Palm Springs","State":"CA","Zip":"92262"},{"Location":"J J S","Address":"1550 N Palm Canyon Dr","City":"Palm Springs","State":"CA","Zip":"92262"},{"Location":"JAKES READY TO EAT","Address":"664 N Palm Canyon Dr A","City":"Palm Springs","State":"CA","Zip":"92262"},{"Location":"JOHNNY COSTA'S","Address":"440 S Palm Canyon Dr","City":"Palm Springs","State":"CA","Zip":"92262"},{"Location":"JRP DISTRIBUTORS INC","Address":"3540 N Anza Rd","City":"Palm Springs","State":"CA","Zip":"92262"},{"Location":"KAISER GRILLE RESTAURANT","Address":"205 S Palm Canyon Dr","City":"Palm Springs","State":"CA","Zip":"92262"},{"Location":"LADY OF FORTUNE","Address":"230 N Palm Canyon Dr","City":"Palm Springs","State":"CA","Zip":"92262"},{"Location":"LAPLAZA SHOE REPAIR","Address":"128 Laplaza  #b","City":"Palm Springs","State":"CA","Zip":"92262"},{"Location":"MERC","Address":"440 S El Cielo Rd 4","City":"Palm Springs","State":"CA","Zip":"92262"},{"Location":"MORGAN","Address":"1080 N Indian Canyon Dr 200","City":"Palm Springs","State":"CA","Zip":"92262"},{"Location":"NEW YORK PIZZA DELIVERY","Address":"260 N Palm Canyon Dr","City":"Palm Springs","State":"CA","Zip":"92262"},{"Location":"NICOLINOS","Address":"440 S El Cielo Rd 15","City":"Palm Springs","State":"CA","Zip":"92262"},{"Location":"OSCARS","Address":"125 E Tahquitz Canyon Way 108","City":"Palm Springs","State":"CA","Zip":"92262"},{"Location":"PACIFIC PREMIER BANK","Address":"901 E Tahquitz Canyon Way","City":"Palm Springs","State":"CA","Zip":"92262"},{"Location":"PALM HOUSE","Address":"450 S Palm Canyon Dr","City":"Palm Springs","State":"CA","Zip":"92262"},{"Location":"PALM SPRINGS","Address":"173 N Luring Dr","City":"Palm Springs","State":"CA","Zip":"92262"},{"Location":"PALM SPRINGS AERIAL TRAMWAY","Address":"1 Tramway Rd","City":"Palm Springs","State":"CA","Zip":"92262"},{"Location":"PALM SPRINGS DENTAL PRACTICE","Address":"2150 E Tahquitz Canyon Way 2","City":"Palm Springs","State":"CA","Zip":"92262"},{"Location":"PALM SPRINGS INT AIRPORT","Address":"3400 E Tahquitz Canyon Way","City":"Palm Springs","State":"CA","Zip":"92262"},{"Location":"PALM SPRINGS TOBACCO","Address":"1717 E Vista Chino A6","City":"Palm Springs","State":"CA","Zip":"92262"},{"Location":"PARADISE NAILS AND SPA","Address":"180 S Sunrise Way","City":"Palm Springs","State":"CA","Zip":"92262"},{"Location":"PEABODYS CAFE","Address":"134 S Palm Canyon Dr","City":"Palm Springs","State":"CA","Zip":"92262"},{"Location":"POMME FRITE","Address":"256 S Palm Canyon Dr","City":"Palm Springs","State":"CA","Zip":"92262"},{"Location":"POWER OF FITNESS","Address":"170 S Sunrise Way","City":"Palm Springs","State":"CA","Zip":"92262"},{"Location":"RAMLA USA INC","Address":"105 S Palm Canyon Dr","City":"Palm Springs","State":"CA","Zip":"92262"},{"Location":"RICKS DESERT GRILL I","Address":"1596 N Palm Canyon Dr","City":"Palm Springs","State":"CA","Zip":"92262"},{"Location":"RIVIERA REINCARNATE LLC","Address":"1600 N Indian Canyon Dr","City":"Palm Springs","State":"CA","Zip":"92262"},{"Location":"RUBEN OZZYS OYSTER BAR","Address":"241 E Tahquitz Canyon Way","City":"Palm Springs","State":"CA","Zip":"92262"},{"Location":"SAFELITE AUTO","Address":"3700 E Tachevah Dr 110","City":"Palm Springs","State":"CA","Zip":"92262"},{"Location":"SAMMY GS","Address":"285 S Palm Canyon Dr","City":"Palm Springs","State":"CA","Zip":"92262"},{"Location":"SHAKEY'S","Address":"155 S Avenida Caballeros","City":"Palm Springs","State":"CA","Zip":"92262"},{"Location":"SHAKEY'S PIZZA PARLOR","Address":"155 S Avenida Caballeros","City":"Palm Springs","State":"CA","Zip":"92262"},{"Location":"SHANGHAI RED'S","Address":"233 S Indian Canyon Dr","City":"Palm Springs","State":"CA","Zip":"92262"},{"Location":"SIGNATURE PALM SPRINGS","Address":"250 N El Cielo Rd","City":"Palm Springs","State":"CA","Zip":"92262"},{"Location":"SONEWALL GARDENS","Address":"2150 N Palm Canyon Dr","City":"Palm Springs","State":"CA","Zip":"92262"},{"Location":"SPA RESORT CASINO","Address":"401 E Amado Rd","City":"Palm Springs","State":"CA","Zip":"92262"},{"Location":"SPA RESORT CASINO HOTEL","Address":"100 N Indian Canyon Dr","City":"Palm Springs","State":"CA","Zip":"92262"},{"Location":"SURF CULTURE CLOTHING CO LTD","Address":"155 S Palm Canyon Dr A-1","City":"Palm Springs","State":"CA","Zip":"92262"},{"Location":"SWEET WILLIAM E","Address":"400 S Farrell Dr B101","City":"Palm Springs","State":"CA","Zip":"92262"},{"Location":"TAHQUITZ DENTAL GROUP","Address":"1921 E Tahquitz Canyon Way","City":"Palm Springs","State":"CA","Zip":"92262"},{"Location":"THAI SMILE","Address":"100 S Indian Canyon Dr","City":"Palm Springs","State":"CA","Zip":"92262"},{"Location":"THE CHOP HOUSE","Address":"262 S Palm Canyon Dr","City":"Palm Springs","State":"CA","Zip":"92262"},{"Location":"THE GOLDEN BLADE","Address":"333 S Indian Canyon Dr C","City":"Palm Springs","State":"CA","Zip":"92262"},{"Location":"THE SANDALWOOD APARTMENTS","Address":"1339 N Indian Canyon Dr","City":"Palm Springs","State":"CA","Zip":"92262"},{"Location":"THE TINDER BOX 114","Address":"200 N Palm Canyon Dr","City":"Palm Springs","State":"CA","Zip":"92262"},{"Location":"TSA PSP","Address":"3400 E Tahquitz Canyon Way","City":"Palm Springs","State":"CA","Zip":"92262"},{"Location":"VILLAGE PUB","Address":"266 S Palm Canyon Dr","City":"Palm Springs","State":"CA","Zip":"92262"},{"Location":"WHITE CROSS PHARMACY","Address":"1445 N Sunrise Way 100","City":"Palm Springs","State":"CA","Zip":"92262"},{"Location":"GUTHY-RENKER AVIATION","Address":"145 S Gene Autry Trail","City":"Palm Sprins","State":"CA","Zip":"92262"}]