[{"Location":"RAD WHEEL","Address":"73731 Amboy Rd C","City":"29 Palms","State":"CA","Zip":"92277"},{"Location":"29 PALM FAMILY FITNESS CENTER","Address":"73782 Two Mile Rd","City":"Twentynine Palms","State":"CA","Zip":"92277"},{"Location":"29 PALMS RV PARK & RESORT","Address":"4949 Desert Knoll Ave","City":"Twentynine Palms","State":"CA","Zip":"92277"},{"Location":"29 PALMS RV PARK & RESORT 2","Address":"4949 Desert Knoll Ave","City":"Twentynine Palms","State":"CA","Zip":"92277"},{"Location":"AAA      CLEANING","Address":"5678 Adobe Rd","City":"Twentynine Palms","State":"CA","Zip":"92277"},{"Location":"AMERICAS FINEST CARPET","Address":"72021 29 Palms Hwy","City":"Twentynine Palms","State":"CA","Zip":"92277"},{"Location":"BLESSED SACRAMENT CHURCH","Address":"6785 Sage Ave","City":"Twentynine Palms","State":"CA","Zip":"92277"},{"Location":"BOWLADIUM","Address":"73768 Gorgonio Dr","City":"Twentynine Palms","State":"CA","Zip":"92277"},{"Location":"BREAK N RUN BILLIARDS","Address":"72143 Twentynine Palms Hwy B","City":"Twentynine Palms","State":"CA","Zip":"92277"},{"Location":"EDCHADAS MEXICAN RESTURANT","Address":"73502 29 Palms Hwy","City":"Twentynine Palms","State":"CA","Zip":"92277"},{"Location":"EXPRESS NAILS","Address":"5984 Adobe Rd B","City":"Twentynine Palms","State":"CA","Zip":"92277"},{"Location":"FLOWER GARDEN","Address":"5690 The Plaza","City":"Twentynine Palms","State":"CA","Zip":"92277"},{"Location":"HAPPY BARBER","Address":"3668 Adobe Rd L","City":"Twentynine Palms","State":"CA","Zip":"92277"},{"Location":"JAPANESE MASSAGE","Address":"6464 Adobe Rd","City":"Twentynine Palms","State":"CA","Zip":"92277"},{"Location":"KEYSTONE REAL ESTATE","Address":"73817 Crestview Dr","City":"Twentynine Palms","State":"CA","Zip":"92277"},{"Location":"MOES","Address":"4966 Adobe Rd","City":"Twentynine Palms","State":"CA","Zip":"92277"},{"Location":"OKINAWA MASSAGE","Address":"73554 29 Palms Hwy","City":"Twentynine Palms","State":"CA","Zip":"92277"},{"Location":"PALM KABOB","Address":"6341 Adobe Rd","City":"Twentynine Palms","State":"CA","Zip":"92277"},{"Location":"PFF BANK AND TRUST US BANK","Address":"6325 Adobe Rd","City":"Twentynine Palms","State":"CA","Zip":"92277"},{"Location":"PIZZA HUT","Address":"72526 29 Palms Hwy","City":"Twentynine Palms","State":"CA","Zip":"92277"},{"Location":"R AND R BARBER SHOP","Address":"71747 29th Palms Hwy  #b","City":"Twentynine Palms","State":"CA","Zip":"92277"},{"Location":"REALIST TATTOO","Address":"6362 Adobe Rd B","City":"Twentynine Palms","State":"CA","Zip":"92277"},{"Location":"RIOFRIO","Address":"73741 Palm Hwy 27","City":"Twentynine Palms","State":"CA","Zip":"92277"},{"Location":"SOLID TATTOO","Address":"6219 Adobe Rd","City":"Twentynine Palms","State":"CA","Zip":"92277"},{"Location":"STUD CUTS","Address":"6767 Adobe Rd","City":"Twentynine Palms","State":"CA","Zip":"92277"},{"Location":"THE BELLAGIO NAILS AND SPA","Address":"73501 Twentynine Palms Hwy #c","City":"Twentynine Palms","State":"CA","Zip":"92277"},{"Location":"THE RIB CO","Address":"72183 29 Palms Hwy","City":"Twentynine Palms","State":"CA","Zip":"92277"},{"Location":"TORTOISE ROCK CASINO","Address":"73829 Baseline Rd","City":"Twentynine Palms","State":"CA","Zip":"92277"},{"Location":"TWENTYNINE PALMS RV RESO","Address":"4949 Desert Knoll Ave","City":"Twentynine Palms","State":"CA","Zip":"92277"},{"Location":"ELKS LODGE 2134","Address":"6501 Elk Trail","City":"Twnetynine Palms","State":"CA","Zip":"92277"}]