[{"Location":"TERAS RESOURCES LTD USA","Address":"2493 Shore Isle Ave","City":"Salton City","State":"CA","Zip":"92274"},{"Location":"AIR METHODS CORP","Address":"86675 Airport Blvd","City":"Thermal","State":"CA","Zip":"92274"},{"Location":"ANACAPA PROPERTY MANGEMENT1","Address":"68555 Harrison Street","City":"Thermal","State":"CA","Zip":"92274"},{"Location":"CA HIGHWAY PATROL","Address":"56855 Liberator Ln","City":"Thermal","State":"CA","Zip":"92274"},{"Location":"CAPTAIN JIM'S LOUNGE","Address":"2108 Salton St","City":"Thermal","State":"CA","Zip":"92274"},{"Location":"CHAPALA MARKET","Address":"66351 Harrison St","City":"Thermal","State":"CA","Zip":"92274"},{"Location":"GL GAYLER CONSTRUCTION","Address":"61550 Polk St #b","City":"Thermal","State":"CA","Zip":"92274"},{"Location":"MOJAVEO GOLD","Address":"74100 Fillmore St","City":"Thermal","State":"CA","Zip":"92274"},{"Location":"OASIS PALMS RV RESORT","Address":"90123 81st Ave","City":"Thermal","State":"CA","Zip":"92274"},{"Location":"RED EARTH CASINO 1","Address":"3089 Norm Niver Rd","City":"Thermal","State":"CA","Zip":"92274"},{"Location":"RFD STATION 39","Address":"86911 58th Ave","City":"Thermal","State":"CA","Zip":"92274"},{"Location":"RFD STATION 42","Address":"76800 Harrison Street","City":"Thermal","State":"CA","Zip":"92274"},{"Location":"SIGNATURE FLIGHT SUPPORT","Address":"56850 Higgins Dr","City":"Thermal","State":"CA","Zip":"92274"},{"Location":"THE JEWEL DATE CO","Address":"84675 Ave 60","City":"Thermal","State":"CA","Zip":"92274"},{"Location":"THE THERMAL CLUB","Address":"86030 62nd Ave","City":"Thermal","State":"CA","Zip":"92274"},{"Location":"THE THERMAL CLUB 2","Address":"86030 62nd Ave","City":"Thermal","State":"CA","Zip":"92274"},{"Location":"TRADITION AVIATION","Address":"86400 Lightning St","City":"Thermal","State":"CA","Zip":"92274"},{"Location":"TRIANGLE BAR FARMS","Address":"83615 Avenue 54","City":"Thermal","State":"CA","Zip":"92274"}]