[{"Location":"COMBAT CENTER FIRE DEPARTMENT","Address":"13th Street  #2080","City":"Twentynine Palms","State":"CA","Zip":"92278"},{"Location":"DI CARLOS ITALIAN CAFFE","Address":"Marine Corr Air Ground C","City":"Twentynine Palms","State":"CA","Zip":"92278"},{"Location":"DOMINOES PIZZA","Address":"1532 Twenty Nine Palms","City":"Twentynine Palms","State":"CA","Zip":"92278"},{"Location":"MCCS STAFF NCO CLUB","Address":"6th Street  #1531","City":"Twentynine Palms","State":"CA","Zip":"92278"},{"Location":"MCTOG 2","Address":"1982r1 11sth St.","City":"Twentynine Palms","State":"CA","Zip":"92278"},{"Location":"MERCY AIR","Address":"Building 1569 T1  5th An","City":"Twentynine Palms","State":"CA","Zip":"92278"},{"Location":"UNITED STATES MARINE","Address":"1757 8th Street 29 Palms","City":"Twentynine Palms","State":"CA","Zip":"92278"},{"Location":"MCTOG 1","Address":"1982r1 11th St.","City":"Twentyninepalms","State":"CA","Zip":"92278"},{"Location":"COMBAT CENTER FIRE DEPARTMENT","Address":"13th Street  #2080","City":"Twentynine Palms","State":"CA","Zip":"92278"},{"Location":"DI CARLOS ITALIAN CAFFE","Address":"Marine Corr Air Ground C","City":"Twentynine Palms","State":"CA","Zip":"92278"},{"Location":"DOMINOES PIZZA","Address":"1532 Twenty Nine Palms","City":"Twentynine Palms","State":"CA","Zip":"92278"},{"Location":"MCCS STAFF NCO CLUB","Address":"6th Street  #1531","City":"Twentynine Palms","State":"CA","Zip":"92278"},{"Location":"MCTOG 2","Address":"1982r1 11sth St.","City":"Twentynine Palms","State":"CA","Zip":"92278"},{"Location":"MERCY AIR","Address":"Building 1569 T1  5th An","City":"Twentynine Palms","State":"CA","Zip":"92278"},{"Location":"UNITED STATES MARINE","Address":"1757 8th Street 29 Palms","City":"Twentynine Palms","State":"CA","Zip":"92278"},{"Location":"MCTOG 1","Address":"1982r1 11th St.","City":"Twentyninepalms","State":"CA","Zip":"92278"}]