[{"Location":"ANTHONYS READY MIX AND BLDG","Address":"72049 Petland Pl","City":"Thousand Palms","State":"CA","Zip":"92276"},{"Location":"BEAUTY ESSENCE","Address":"72170 Dunham Way","City":"Thousand Palms","State":"CA","Zip":"92276"},{"Location":"COACHELLA VALLEY BREWING","Address":"30640 Gunther St","City":"Thousand Palms","State":"CA","Zip":"92276"},{"Location":"DEROSSETT ENTERPRISES","Address":"72215 Woburn Ct","City":"Thousand Palms","State":"CA","Zip":"92276"},{"Location":"DESERT SHELTER","Address":"72050 Petland Pl","City":"Thousand Palms","State":"CA","Zip":"92276"},{"Location":"GOODYS CAFE 7 INC","Address":"72246 Varner Rd","City":"Thousand Palms","State":"CA","Zip":"92276"},{"Location":"HALUM MOTORSPORTS","Address":"72080 Woburn Ct 4","City":"Thousand Palms","State":"CA","Zip":"92276"},{"Location":"HI GRADE MATERIALS2","Address":"72470 Varner Rd","City":"Thousand Palms","State":"CA","Zip":"92276"},{"Location":"I-10 COLLISION CENTER","Address":"31248 Dunham Way","City":"Thousand Palms","State":"CA","Zip":"92276"},{"Location":"INNOVATIVE EXPO","Address":"72242 Watt Ct","City":"Thousand Palms","State":"CA","Zip":"92276"},{"Location":"MACO INC","Address":"31250 Reserve Dr","City":"Thousand Palms","State":"CA","Zip":"92276"},{"Location":"METRO K9 SECURITY","Address":"72078 Corporate Way 101","City":"Thousand Palms","State":"CA","Zip":"92276"},{"Location":"PALM SPRINGS FILM FACTOR","Address":"31385 Plantation Dr Steb","City":"Thousand Palms","State":"CA","Zip":"92276"},{"Location":"PERFORMANCE CYCLES","Address":"72088 Northshore St C","City":"Thousand Palms","State":"CA","Zip":"92276"},{"Location":"PET LAND PLACE","Address":"72450 Ramon Rd 10","City":"Thousand Palms","State":"CA","Zip":"92276"},{"Location":"PILOT FLYING J #76500","Address":"72235 Varner Rd","City":"Thousand Palms","State":"CA","Zip":"92276"},{"Location":"PLUMBEREX SPECIALTY PRODUCTS","Address":"72170 Dunham Way","City":"Thousand Palms","State":"CA","Zip":"92276"},{"Location":"SA RECYCLING","Address":"29250 Rio Del Sol","City":"Thousand Palms","State":"CA","Zip":"92276"},{"Location":"SAMALOT","Address":"72049 Petland Pl C","City":"Thousand Palms","State":"CA","Zip":"92276"},{"Location":"STONECREST MARBLE AND GRANITE","Address":"72320 Varner Rd","City":"Thousand Palms","State":"CA","Zip":"92276"},{"Location":"SUNLINE TRANSIT AGENCY","Address":"32505 Harry Oliver Trl","City":"Thousand Palms","State":"CA","Zip":"92276"},{"Location":"SUNSHINE LANDSCAPE","Address":"72203 Adelaid St","City":"Thousand Palms","State":"CA","Zip":"92276"},{"Location":"TNS HOIST & RIGGING INC","Address":"72133 Corporate Way","City":"Thousand Palms","State":"CA","Zip":"92276"}]