[{"Location":"MARIO'S ITALIAN CAFE","Address":"78152 Varner Rd","City":"Palm Desert","State":"CA","Zip":"92270"},{"Location":"","Address":"1 Stanford Dr","City":"Rancho Mirage","State":"CA","Zip":"92270"},{"Location":"","Address":"98 Lake Shore Dr","City":"Rancho Mirage","State":"CA","Zip":"92270"},{"Location":"ALBERTOS","Address":"71416 Highway 111","City":"Rancho Mirage","State":"CA","Zip":"92270"},{"Location":"ANGELA HAMILTON","Address":"113 Via Santo Tomas","City":"Rancho Mirage","State":"CA","Zip":"92270"},{"Location":"ANNENBERG FOUNDATION TRUST","Address":"37977 Bob Hope Dr","City":"Rancho Mirage","State":"CA","Zip":"92270"},{"Location":"ANNENBERG FOUNDATION TRUST","Address":"71231 Tamarisk Ln","City":"Rancho Mirage","State":"CA","Zip":"92270"},{"Location":"APPLEBEE'S RANCHO MIRAGE","Address":"71740 Highway 111","City":"Rancho Mirage","State":"CA","Zip":"92270"},{"Location":"AQUA CALIENTE RESORT(0063048)","Address":"32250 Bob Hope Dr","City":"Rancho Mirage","State":"CA","Zip":"92270"},{"Location":"BURGERS AND BEER","Address":"72-773 Di Nah Shore Dr","City":"Rancho Mirage","State":"CA","Zip":"92270"},{"Location":"BUTSKI","Address":"72074 State Highway 111 D","City":"Rancho Mirage","State":"CA","Zip":"92270"},{"Location":"CALIFORNIA STAT LAB","Address":"72067 Highway 111","City":"Rancho Mirage","State":"CA","Zip":"92270"},{"Location":"DESERT OASIS HEALTHCARE","Address":"71777 San Jacinto Dr","City":"Rancho Mirage","State":"CA","Zip":"92270"},{"Location":"DESERT VILLAGE HOA","Address":"71 100 Eleanora Lane","City":"Rancho Mirage","State":"CA","Zip":"92270"},{"Location":"EL PASEO BANKS","Address":"40101 Monterey Ave H","City":"Rancho Mirage","State":"CA","Zip":"92270"},{"Location":"ELECTRIC CAR DISTRIBUTORS LLC","Address":"71441 Highway 111","City":"Rancho Mirage","State":"CA","Zip":"92270"},{"Location":"FLEMINGS 1503","Address":"71800 Highway 111","City":"Rancho Mirage","State":"CA","Zip":"92270"},{"Location":"FRANCISCOS CAFE","Address":"72047 Dinah Shore Dr C1","City":"Rancho Mirage","State":"CA","Zip":"92270"},{"Location":"GOODYS CAFE","Address":"40101 Monterey Ave F4","City":"Rancho Mirage","State":"CA","Zip":"92270"},{"Location":"HOM SOUTHEBY","Address":"70380 Highway 111","City":"Rancho Mirage","State":"CA","Zip":"92270"},{"Location":"HOT HEADZ HAIR DESIGN","Address":"72037 Dinah Shore Dr B2","City":"Rancho Mirage","State":"CA","Zip":"92270"},{"Location":"JOHNNY ROCKETS","Address":"71885 State Highway","City":"Rancho Mirage","State":"CA","Zip":"92270"},{"Location":"KLIPPERS SALON","Address":"72-877 Dinah Shore Drive Suite 102","City":"Rancho Mirage","State":"CA","Zip":"92270"},{"Location":"M%2FY NOVA SPIRIT","Address":"70588 Frank Sinatra Dr","City":"Rancho Mirage","State":"CA","Zip":"92270"},{"Location":"MAIN STREET MANAGEMENT","Address":"27 Avenida Las Palmas","City":"Rancho Mirage","State":"CA","Zip":"92270"},{"Location":"MARACAS MEXICAN RESTAURANT","Address":"72775 Dinah Shore Dr","City":"Rancho Mirage","State":"CA","Zip":"92270"},{"Location":"MICHAEL P MILLIGAN MD INC","Address":"35200 Bob Hope Dr","City":"Rancho Mirage","State":"CA","Zip":"92270"},{"Location":"MIDORI JAPANESE RESTAURANT","Address":"36101 Bob Hope Dr","City":"Rancho Mirage","State":"CA","Zip":"92270"},{"Location":"MILAUSKAS EYE INSTITUTE","Address":"72057 Dinah Shore Dr D","City":"Rancho Mirage","State":"CA","Zip":"92270"},{"Location":"MIRAGE CENTER ORAL SURG","Address":"39935 Vista Del Sol 102","City":"Rancho Mirage","State":"CA","Zip":"92270"},{"Location":"MISSION HILLS CLUBHOUSE","Address":"34600 Mission Hills Dr","City":"Rancho Mirage","State":"CA","Zip":"92270"},{"Location":"MISSION HILLS GOLF","Address":"70705 Ramon Rd","City":"Rancho Mirage","State":"CA","Zip":"92270"},{"Location":"MISSION HILLS GYM","Address":"3 Racquet Club Dr","City":"Rancho Mirage","State":"CA","Zip":"92270"},{"Location":"MISSION HILLS HEALTH CLU","Address":"34600 Mission Hills Dr","City":"Rancho Mirage","State":"CA","Zip":"92270"},{"Location":"MISSION HILLS MAINTENANC","Address":"72201 Dinah Shore Dr","City":"Rancho Mirage","State":"CA","Zip":"92270"},{"Location":"MISSION HILLS TENNIS CLB","Address":"3 Racquet Club Dr","City":"Rancho Mirage","State":"CA","Zip":"92270"},{"Location":"MOR FURNITURE 7","Address":"72115 Highway 111","City":"Rancho Mirage","State":"CA","Zip":"92270"},{"Location":"OMNI RANCHO LAS PALMAS LLC","Address":"41000 Bob Hope Dr","City":"Rancho Mirage","State":"CA","Zip":"92270"},{"Location":"PINZIMINI RESTAURANT","Address":"71333 Dinah Shore Dr","City":"Rancho Mirage","State":"CA","Zip":"92270"},{"Location":"PIRCH INC","Address":"71905 Highway 111 B","City":"Rancho Mirage","State":"CA","Zip":"92270"},{"Location":"PORCUPINE PROPERTIES","Address":"42765 Dunes View Rd","City":"Rancho Mirage","State":"CA","Zip":"92270"},{"Location":"QUICK N CLEAN","Address":"69800 Highway 111","City":"Rancho Mirage","State":"CA","Zip":"92270"},{"Location":"RANCHO LAS COUNTRY CLUB","Address":"42000 Bob Hope Dr","City":"Rancho Mirage","State":"CA","Zip":"92270"},{"Location":"RED ROBIN #253","Address":"72797 Dinah Shore Dr","City":"Rancho Mirage","State":"CA","Zip":"92270"},{"Location":"ROYS RESTAURANT INC","Address":"71959 Highway 111","City":"Rancho Mirage","State":"CA","Zip":"92270"},{"Location":"SEASONS","Address":"71777 Dinah Shore Dr","City":"Rancho Mirage","State":"CA","Zip":"92270"},{"Location":"SHANG HA INN","Address":"40101 Monterey Ave A3","City":"Rancho Mirage","State":"CA","Zip":"92270"},{"Location":"SIBON RESTAURANT","Address":"40101 Monterey Ave E5","City":"Rancho Mirage","State":"CA","Zip":"92270"},{"Location":"SLICE","Address":"72775 Dinah Shore Dr","City":"Rancho Mirage","State":"CA","Zip":"92270"},{"Location":"SUSAN QUARDT MD","Address":"70017 State Hwy 111 1","City":"Rancho Mirage","State":"CA","Zip":"92270"},{"Location":"THE CHEESECAKE FACTORY 0081","Address":"71800 Highway 111 D101","City":"Rancho Mirage","State":"CA","Zip":"92270"},{"Location":"THE CLUB AT MORNINGSIDE","Address":"39033 Morningside Dr","City":"Rancho Mirage","State":"CA","Zip":"92270"},{"Location":"THE FIRESIDE LOUNGE","Address":"71333 Dinah Shore Dr","City":"Rancho Mirage","State":"CA","Zip":"92270"},{"Location":"THE OLD SPAGHETTI FACTORY","Address":"71743 Highway 111 A","City":"Rancho Mirage","State":"CA","Zip":"92270"},{"Location":"TOLERANCE EDUCATION CENTER","Address":"35147 Landy Ln","City":"Rancho Mirage","State":"CA","Zip":"92270"},{"Location":"WESTIN MISSION HILLS","Address":"71333 Dinah Shore Dr","City":"Rancho Mirage","State":"CA","Zip":"92270"},{"Location":"WESTIN MISSION HILLS (0031568)","Address":"71333 Dinah Shore Dr","City":"Rancho Mirage","State":"CA","Zip":"92270"},{"Location":"YARD HOUSE #8304","Address":"71800 Highway 111 B101","City":"Rancho Mirage","State":"CA","Zip":"92270"}]