[{"Location":"21 CENTURY ONCOLOGY","Address":"58295 29 Palms Hwy","City":"Yucca Valley","State":"CA","Zip":"92284"},{"Location":"5 DOLLAR PIZZA PLACE","Address":"282 Old Woman Springs Rd","City":"Yucca Valley","State":"CA","Zip":"92284"},{"Location":"APPLEBEE'S YUCCA VALLEY #9955","Address":"57796 29 Palms Hwy","City":"Yucca Valley","State":"CA","Zip":"92284"},{"Location":"ASPEN VC","Address":"56524 Antelope Trl","City":"Yucca Valley","State":"CA","Zip":"92284"},{"Location":"BIG O TIRES","Address":"57672 29 Palms Hwy","City":"Yucca Valley","State":"CA","Zip":"92284"},{"Location":"BILLS TRANNY","Address":"7192 Mohawk Trl","City":"Yucca Valley","State":"CA","Zip":"92284"},{"Location":"BLAIRS WHOLESALE APPLIANCE","Address":"55827 29 Palms Hwy","City":"Yucca Valley","State":"CA","Zip":"92284"},{"Location":"BRUST AUTO PARTS","Address":"4181 Old Woman Springs Rd","City":"Yucca Valley","State":"CA","Zip":"92284"},{"Location":"COUNTRY CLUB MOBILE HOME","Address":"54999 Martinez Trl","City":"Yucca Valley","State":"CA","Zip":"92284"},{"Location":"DAVITA #2568 HI-DESERT","Address":"58457 29 Palms Hwy 102","City":"Yucca Valley","State":"CA","Zip":"92284"},{"Location":"DESERT MOTOR","Address":"4197 Old Woman Springs Rd","City":"Yucca Valley","State":"CA","Zip":"92284"},{"Location":"DIAMOND AUTOMOTIVE","Address":"55761 29 Palms Hwy","City":"Yucca Valley","State":"CA","Zip":"92284"},{"Location":"ELK LODGE 2314","Address":"55946 Yucca Trl","City":"Yucca Valley","State":"CA","Zip":"92284"},{"Location":"ESTATE SALE MARKETPLACE","Address":"55288 29 Palms Hwy","City":"Yucca Valley","State":"CA","Zip":"92284"},{"Location":"FOSTERS SPORTS BAR LLC","Address":"57564 29 Palms Hwy","City":"Yucca Valley","State":"CA","Zip":"92284"},{"Location":"GARCIA","Address":"57154 29 Palms Hwy","City":"Yucca Valley","State":"CA","Zip":"92284"},{"Location":"GREAT CLIPS","Address":"58080 29 Palms Hwy D104","City":"Yucca Valley","State":"CA","Zip":"92284"},{"Location":"JOSE MEXICAN RESTARAUNT","Address":"57113 Highway 62","City":"Yucca Valley","State":"CA","Zip":"92284"},{"Location":"PACIFIC CLINIC","Address":"58945 Business Center Dr","City":"Yucca Valley","State":"CA","Zip":"92284"},{"Location":"PIZZA HUT","Address":"58012 29 Palms Hwy","City":"Yucca Valley","State":"CA","Zip":"92284"},{"Location":"RARICK & ASSOCIATES","Address":"56913 Yucca Trl A","City":"Yucca Valley","State":"CA","Zip":"92284"},{"Location":"RON ESPINOZA","Address":"57434 Aviation Dr","City":"Yucca Valley","State":"CA","Zip":"92284"},{"Location":"SALVATION ARMY","Address":"56659 29 Palms Hwy F","City":"Yucca Valley","State":"CA","Zip":"92284"},{"Location":"SEIP JEFFREY MD","Address":"57402 29 Palms Hwy","City":"Yucca Valley","State":"CA","Zip":"92284"},{"Location":"SHERIC PROPERTY MANAGEMENT","Address":"56155 29 Palms Hwy B","City":"Yucca Valley","State":"CA","Zip":"92284"},{"Location":"SOMSEE","Address":"7500 Camino Del Cielo Trl","City":"Yucca Valley","State":"CA","Zip":"92284"},{"Location":"SOUTHERN CALIFORNIA EDISON","Address":"6999 Old Woman Springs Rd","City":"Yucca Valley","State":"CA","Zip":"92284"},{"Location":"TELECARE CORPORATION","Address":"55475 Santa Fe Trl 100","City":"Yucca Valley","State":"CA","Zip":"92284"},{"Location":"THE FAMILY DOCTOR","Address":"57370 29 Palms Hwy 201","City":"Yucca Valley","State":"CA","Zip":"92284"},{"Location":"VALLEY HEART PHYSICIANS","Address":"58457 29th Palms Hwy 200","City":"Yucca Valley","State":"CA","Zip":"92284"},{"Location":"VALLEY MARKET AND LIQUOR","Address":"55555 29 Palms Hwy","City":"Yucca Valley","State":"CA","Zip":"92284"},{"Location":"WINE & ROSES LOUNGE","Address":"57360 Aviation Dr","City":"Yucca Valley","State":"CA","Zip":"92284"},{"Location":"YUCCA FAMILY MEDICAL CARE","Address":"57675 29 Palms Hwy 111","City":"Yucca Valley","State":"CA","Zip":"92284"},{"Location":"YUCCA VALLEY CHRYSLER","Address":"57909 29 Palms Hwy","City":"Yucca Valley","State":"CA","Zip":"92284"}]