[{"Location":"AMYS","Address":"18768 Hwy 18 170","City":"Apple Valley","State":"CA","Zip":"92307"},{"Location":"APPLE VALLEY NAIL","Address":"20200 Us Highway 18 C","City":"Apple Valley","State":"CA","Zip":"92307"},{"Location":"APPLE VALLEY PROTECTION1","Address":"22400 Headquarters Ave","City":"Apple Valley","State":"CA","Zip":"92307"},{"Location":"APPLE VALLEY PROTECTION2","Address":"18857 Us Highway 18","City":"Apple Valley","State":"CA","Zip":"92307"},{"Location":"APPLE VALLEY PROTECTION6","Address":"19235 Yucca Loma Rd","City":"Apple Valley","State":"CA","Zip":"92307"},{"Location":"BLOCK BY BLOCK","Address":"23652 Pala Ln","City":"Apple Valley","State":"CA","Zip":"92307"},{"Location":"CADILLAC RANCH SALOON","Address":"22581 Outer Hwy 18","City":"Apple Valley","State":"CA","Zip":"92307"},{"Location":"CALIFORNIA HIGHWAY PATROL","Address":"21605 Corwin Rd","City":"Apple Valley","State":"CA","Zip":"92307"},{"Location":"CAROL VOLL MFT","Address":"18231 Highway 18 8","City":"Apple Valley","State":"CA","Zip":"92307"},{"Location":"CERTIFIED TIRE","Address":"18878 Tao Rd","City":"Apple Valley","State":"CA","Zip":"92307"},{"Location":"CHEVOS MEXICAN RESTAURANT","Address":"21749 Us Highway 18","City":"Apple Valley","State":"CA","Zip":"92307"},{"Location":"DAVITA #3009 VICTOR VALLEY","Address":"16049 Kamana Rd","City":"Apple Valley","State":"CA","Zip":"92307"},{"Location":"DI NAPOLI'S FIREHOUSE","Address":"17856 Us Highway 18","City":"Apple Valley","State":"CA","Zip":"92307"},{"Location":"EL PORTAL","Address":"22120 Outer Hwy 18","City":"Apple Valley","State":"CA","Zip":"92307"},{"Location":"FAT JACKS BAR AND GRILL1","Address":"19123 Outer Hwy 18","City":"Apple Valley","State":"CA","Zip":"92307"},{"Location":"FIDEL BARBER SHOP","Address":"21607 Yucca Loma Rd","City":"Apple Valley","State":"CA","Zip":"92307"},{"Location":"FROGEE'S COCKTAIL","Address":"21820 Us Highway 18","City":"Apple Valley","State":"CA","Zip":"92307"},{"Location":"HARBANS SINGH MD","Address":"16041 Kamana Rd A","City":"Apple Valley","State":"CA","Zip":"92307"},{"Location":"HIGH DESERT FOOD LLC","Address":"21600 Corwin Rd","City":"Apple Valley","State":"CA","Zip":"92307"},{"Location":"HIGH DESERT JUVENILE DETENTION","Address":"21101 Dale Evans Pkwy","City":"Apple Valley","State":"CA","Zip":"92307"},{"Location":"HIGH DESERT ORTHOPEDIC SPORTS","Address":"18145 Us Highway 18 D","City":"Apple Valley","State":"CA","Zip":"92307"},{"Location":"JIFFY LUBE 2970","Address":"18737 Us Highway 18","City":"Apple Valley","State":"CA","Zip":"92307"},{"Location":"JONICHO GRAPHICS","Address":"21809 Us Highway 18","City":"Apple Valley","State":"CA","Zip":"92307"},{"Location":"LA ZACATECANA MARKET","Address":"21937 Us Highway 18","City":"Apple Valley","State":"CA","Zip":"92307"},{"Location":"LOS DOMINGOS","Address":"17790 Wika Rd F1","City":"Apple Valley","State":"CA","Zip":"92307"},{"Location":"MILITTARY SUPPLIES","Address":"18335 Us Highway 18","City":"Apple Valley","State":"CA","Zip":"92307"},{"Location":"NEUMANN APTS","Address":"20465 Zuni Rd","City":"Apple Valley","State":"CA","Zip":"92307"},{"Location":"NINJA SUSHI","Address":"15840 Apple Valley Rd 116","City":"Apple Valley","State":"CA","Zip":"92307"},{"Location":"OASIS LANES","Address":"20410 Us Highway 18","City":"Apple Valley","State":"CA","Zip":"92307"},{"Location":"PALA CARE CENTER","Address":"24830 Pala Ln","City":"Apple Valley","State":"CA","Zip":"92307"},{"Location":"PARADISE WATER","Address":"21603 Yucca Loma Rd","City":"Apple Valley","State":"CA","Zip":"92307"},{"Location":"ROUND TABLE-DALE EVANS","Address":"14898 Dale Evans Pkwy","City":"Apple Valley","State":"CA","Zip":"92307"},{"Location":"SHEPHARD SHOPPE INC","Address":"14898 Dale Evans Pkwy","City":"Apple Valley","State":"CA","Zip":"92307"},{"Location":"SMOKE CLUB 21","Address":"21735 Us Highway 18 2","City":"Apple Valley","State":"CA","Zip":"92307"},{"Location":"ST JOESPH HEALTH ST MARY","Address":"18144 Us Highway 18","City":"Apple Valley","State":"CA","Zip":"92307"},{"Location":"TARGET STORES","Address":"20288 Us Highway 18","City":"Apple Valley","State":"CA","Zip":"92307"},{"Location":"VICENTE MD INC","Address":"16133 Kamana Rd","City":"Apple Valley","State":"CA","Zip":"92307"},{"Location":"VIVA MARIA RESTAURANT","Address":"20162 Us Highway 18 F","City":"Apple Valley","State":"CA","Zip":"92307"},{"Location":"WALMART STORES INC","Address":"21101 Johnson Rd","City":"Apple Valley","State":"CA","Zip":"92307"}]