[{"Location":"24 HOUR FITNESS #871","Address":"18825 Bear Valley Rd","City":"Apple Valley","State":"CA","Zip":"92308"},{"Location":"ADVANCED TOWING","Address":"13630 Tonikan Rd","City":"Apple Valley","State":"CA","Zip":"92308"},{"Location":"AMERICAN MEDICAL RESPONS","Address":"20604 Standing Rock","City":"Apple Valley","State":"CA","Zip":"92308"},{"Location":"AMR","Address":"19305 Jess Ranch Pkwy","City":"Apple Valley","State":"CA","Zip":"92308"},{"Location":"APPLE VALLEY CHRISTIAN COVE","Address":"11959 Apple Valley Rd","City":"Apple Valley","State":"CA","Zip":"92308"},{"Location":"APPLE VALLEY PROTECTION4","Address":"12143 Kiowa Rd","City":"Apple Valley","State":"CA","Zip":"92308"},{"Location":"APPLE VALLEY PROTECTION7","Address":"19305 Jess Ranch Pkwy","City":"Apple Valley","State":"CA","Zip":"92308"},{"Location":"APPLEBEE'S #2150036","Address":"19201 Bear Valley Rd F","City":"Apple Valley","State":"CA","Zip":"92308"},{"Location":"AV TOWN & COUNTRY TIRES","Address":"21068 Bear Valley Rd","City":"Apple Valley","State":"CA","Zip":"92308"},{"Location":"BEAR  VALLEY ANIMAL HOSPITAL","Address":"20991 Bear Valley Rd","City":"Apple Valley","State":"CA","Zip":"92308"},{"Location":"BEGGIN 4 MORE PET SALON","Address":"13692 Apple Valley Rd 110","City":"Apple Valley","State":"CA","Zip":"92308"},{"Location":"BLESSING NAIL","Address":"20783 Bear Vailley Rd #4i","City":"Apple Valley","State":"CA","Zip":"92308"},{"Location":"BUFFALO WILD WINGS #3421","Address":"18965 Bear Valley Rd","City":"Apple Valley","State":"CA","Zip":"92308"},{"Location":"BURGERLICIOUS","Address":"21044 Bear Valley Rd","City":"Apple Valley","State":"CA","Zip":"92308"},{"Location":"CAREMORE HEALTH PLAN","Address":"19059 Bear Valley Rd","City":"Apple Valley","State":"CA","Zip":"92308"},{"Location":"CARMENS PONDEROSA GUEST","Address":"9544 Kiowa Rd","City":"Apple Valley","State":"CA","Zip":"92308"},{"Location":"CHINA WOK","Address":"12218 Apple Valley Rd 108","City":"Apple Valley","State":"CA","Zip":"92308"},{"Location":"CONCO CONSTRUCTION","Address":"22276 Ottawa Rd Sut3","City":"Apple Valley","State":"CA","Zip":"92308"},{"Location":"ELITE DENTAL SERVICES","Address":"12291 Apple Valley Rd","City":"Apple Valley","State":"CA","Zip":"92308"},{"Location":"EUPHORIA NAIL SALON","Address":"19059 Bear Valley Rd E","City":"Apple Valley","State":"CA","Zip":"92308"},{"Location":"GATORS","Address":"21041 Bear Valley Rd","City":"Apple Valley","State":"CA","Zip":"92308"},{"Location":"GIBBS PIZZA LLC","Address":"12218 Apple Valley Rd 107","City":"Apple Valley","State":"CA","Zip":"92308"},{"Location":"GREEN BURRITO","Address":"20785 Bear Valley Rd 7","City":"Apple Valley","State":"CA","Zip":"92308"},{"Location":"HIGH ADOBE","Address":"9544 Kiowa Rd C","City":"Apple Valley","State":"CA","Zip":"92308"},{"Location":"JESS RANCH DENTAL","Address":"18805 Bear Belly Rd  #4","City":"Apple Valley","State":"CA","Zip":"92308"},{"Location":"JIFFY LUBE 3277","Address":"20754 Bear Valley Rd","City":"Apple Valley","State":"CA","Zip":"92308"},{"Location":"JOHNNIE DS RESTAURANT","Address":"19250 Bear Valley Rd","City":"Apple Valley","State":"CA","Zip":"92308"},{"Location":"KID'S KUTS & GROWN UPS","Address":"13534 Navajo Road","City":"Apple Valley","State":"CA","Zip":"92308"},{"Location":"LINKO SUSHI II","Address":"12115 Apple Valley Rd","City":"Apple Valley","State":"CA","Zip":"92308"},{"Location":"LONE WOLF COLONY INC","Address":"23200 Bear Valley Rd","City":"Apple Valley","State":"CA","Zip":"92308"},{"Location":"LOVE APPLE SUSHI","Address":"19179 Bear Valley Rd 9","City":"Apple Valley","State":"CA","Zip":"92308"},{"Location":"MARCELINOS MEXICAN REST","Address":"21510 Bear Valley Rd","City":"Apple Valley","State":"CA","Zip":"92308"},{"Location":"OGGIS PIZZA & BREWERY","Address":"19201 Bear Valley Rd D","City":"Apple Valley","State":"CA","Zip":"92308"},{"Location":"PFF BANK AND TRUST","Address":"19201 Bear Valley Rd E","City":"Apple Valley","State":"CA","Zip":"92308"},{"Location":"PIZZA FACTORY","Address":"12275 Apple Valley Rd","City":"Apple Valley","State":"CA","Zip":"92308"},{"Location":"POLLOS EL COMPA","Address":"21530 Bear Valley Rd","City":"Apple Valley","State":"CA","Zip":"92308"},{"Location":"RED ROBIN #589","Address":"18999 Bear Valley Rd","City":"Apple Valley","State":"CA","Zip":"92308"},{"Location":"SOUND BYTE","Address":"21460 Bear Valley Rd","City":"Apple Valley","State":"CA","Zip":"92308"},{"Location":"SUPERCUTS 80660","Address":"12218 Apple Valley Rd 303","City":"Apple Valley","State":"CA","Zip":"92308"},{"Location":"TARGET T0939","Address":"19208 Bear Valley Rd","City":"Apple Valley","State":"CA","Zip":"92308"},{"Location":"VISTA DEL ROSA","Address":"22241 Nisqually Rd","City":"Apple Valley","State":"CA","Zip":"92308"},{"Location":"YE OLD TYME BARBER","Address":"20783 Bear Valley Rd G","City":"Apple Valley","State":"CA","Zip":"92308"}]