[{"Location":"ADELITAS TAMALES RESTAUR","Address":"11965 Cactus Rd","City":"Adelanto","State":"CA","Zip":"92301"},{"Location":"AMERICAN LEGION POST","Address":"11382 Lawson Ave","City":"Adelanto","State":"CA","Zip":"92301"},{"Location":"ANHEUSER-BUSCH WHLSLR #00406","Address":"17500 Adelanto Rd","City":"Adelanto","State":"CA","Zip":"92301"},{"Location":"APEX BULK COMMODITIES","Address":"12531 Violet Rd","City":"Adelanto","State":"CA","Zip":"92301"},{"Location":"BARGINS R US","Address":"11328 Bartlett Ave","City":"Adelanto","State":"CA","Zip":"92301"},{"Location":"BRAVO BURGERS","Address":"16800 Sportsman Ctr","City":"Adelanto","State":"CA","Zip":"92301"},{"Location":"CAGECO INC","Address":"16225 Beaver Rd","City":"Adelanto","State":"CA","Zip":"92301"},{"Location":"CITY OF ADELANTO","Address":"11600 Air Expy","City":"Adelanto","State":"CA","Zip":"92301"},{"Location":"CITY OF ADELANTO PUBLIC WORKS","Address":"17451 Racoon Ave","City":"Adelanto","State":"CA","Zip":"92301"},{"Location":"DHS ICE","Address":"10400 Rancho Rd","City":"Adelanto","State":"CA","Zip":"92301"},{"Location":"EL PALOMO MEXICAN FOOD","Address":"11965 Cactus Rd","City":"Adelanto","State":"CA","Zip":"92301"},{"Location":"HERNANDEZ TRANSPORTATION","Address":"9248 Holly Rd","City":"Adelanto","State":"CA","Zip":"92301"},{"Location":"HIGH DESERT DETENTION","Address":"9438 Commerce Way","City":"Adelanto","State":"CA","Zip":"92301"},{"Location":"HIGH DESERT DETENTION CENTER","Address":"9438 Commerce Way","City":"Adelanto","State":"CA","Zip":"92301"},{"Location":"HIGH DESERT MAVERICKS","Address":"12000 Stadium Rd","City":"Adelanto","State":"CA","Zip":"92301"},{"Location":"LA FIESTA PIZZA","Address":"17760 Adelanto Rd","City":"Adelanto","State":"CA","Zip":"92301"},{"Location":"MIGUELITO RESTAURANT","Address":"17664 Adelanto Rd 2","City":"Adelanto","State":"CA","Zip":"92301"},{"Location":"R & A CORES INC","Address":"9331 Commerce Way","City":"Adelanto","State":"CA","Zip":"92301"},{"Location":"SBC FIRE STATION","Address":"10370 Rancho Rd","City":"Adelanto","State":"CA","Zip":"92301"},{"Location":"U.S. BANK","Address":"11994 Palmdale Rd","City":"Adelanto","State":"CA","Zip":"92301"},{"Location":"USA SERVICES","Address":"12191 Violet Rd","City":"Adelanto","State":"CA","Zip":"92301"},{"Location":"X-PRESSION BEAUTY","Address":"11336 Bartlett Ave 2","City":"Adelanto","State":"CA","Zip":"92301"}]