[{"Location":"ABC MONGOLIAN BBQ","Address":"22417 Barton Rd Stec","City":"Grand Terrace","State":"CA","Zip":"92313"},{"Location":"CALIFORNIA ROOFING COMPANY","Address":"22791 Vista Grande Way","City":"Grand Terrace","State":"CA","Zip":"92313"},{"Location":"CHILLS FROZEN YOGURT","Address":"22488 Barton Rd 101","City":"Grand Terrace","State":"CA","Zip":"92313"},{"Location":"FLASHBACKS 2","Address":"22400 Barton Rd 23","City":"Grand Terrace","State":"CA","Zip":"92313"},{"Location":"HAIR COUTURE","Address":"22545 Barton Rd 113","City":"Grand Terrace","State":"CA","Zip":"92313"},{"Location":"I E ROLLER SPORTS","Address":"22080 Commerce Way","City":"Grand Terrace","State":"CA","Zip":"92313"},{"Location":"ONESOURCE DISTRIBUTORS","Address":"22075 Commerce Way","City":"Grand Terrace","State":"CA","Zip":"92313"},{"Location":"RFCR   INLAND","Address":"22840 Van Buren St","City":"Grand Terrace","State":"CA","Zip":"92313"},{"Location":"SHORT CUTS","Address":"22545 Barton Rd 101","City":"Grand Terrace","State":"CA","Zip":"92313"},{"Location":"TACO VILLAGE","Address":"22488 Barton Rd","City":"Grand Terrace","State":"CA","Zip":"92313"},{"Location":"THAI KITCHEN","Address":"22411 Barton Rd","City":"Grand Terrace","State":"CA","Zip":"92313"},{"Location":"THE ROMAN CATHOLIC BISHOP","Address":"12770 Oriole Ave","City":"Grand Terrace","State":"CA","Zip":"92313"},{"Location":"WC PLASTICS EQUIP AND KNIFE","Address":"21935 Van Buren St 26","City":"Grand Terrace","State":"CA","Zip":"92313"},{"Location":"WILDEN PUMP AND ENGINEERING","Address":"22069 Van Buren St","City":"Grand Terrace","State":"CA","Zip":"92313"}]