[{"Location":"","Address":"26340 Community Blvd","City":"Barstow","State":"CA","Zip":"92311"},{"Location":"AMIGO TECH","Address":"190 Cal Ave F","City":"Barstow","State":"CA","Zip":"92311"},{"Location":"BAE & JANG DDS INC","Address":"912 E Main St","City":"Barstow","State":"CA","Zip":"92311"},{"Location":"BARSTOW CARE DENTAL INC","Address":"1352 E Main St","City":"Barstow","State":"CA","Zip":"92311"},{"Location":"BARSTOW CARWASH","Address":"1401 E Main St","City":"Barstow","State":"CA","Zip":"92311"},{"Location":"BARSTOW CREDIT UNION","Address":"222 E Main St 210","City":"Barstow","State":"CA","Zip":"92311"},{"Location":"BARSTOW PAWN SHOP","Address":"1336 E Main St","City":"Barstow","State":"CA","Zip":"92311"},{"Location":"BARSTOW SURGICAL INC","Address":"705 E Virginia Way B","City":"Barstow","State":"CA","Zip":"92311"},{"Location":"BARSTOW TIME BRAKE INC","Address":"100 W Main St","City":"Barstow","State":"CA","Zip":"92311"},{"Location":"BARSTOW TOWING  INC","Address":"2241 W Main St","City":"Barstow","State":"CA","Zip":"92311"},{"Location":"BETHEL COMMUNITY OF BARSTOW","Address":"850 E Main St","City":"Barstow","State":"CA","Zip":"92311"},{"Location":"BJD SERVICES","Address":"501 W Buena Vista St","City":"Barstow","State":"CA","Zip":"92311"},{"Location":"BURRTEC WASTE","Address":"2340 W Main St","City":"Barstow","State":"CA","Zip":"92311"},{"Location":"CAFE PUPUSAS","Address":"224 N 7th Ave","City":"Barstow","State":"CA","Zip":"92311"},{"Location":"CHILI'S #1478","Address":"2808 Lenwood Rd","City":"Barstow","State":"CA","Zip":"92311"},{"Location":"CITY TIRE  AND TOWING","Address":"28764 Us Highway 58","City":"Barstow","State":"CA","Zip":"92311"},{"Location":"CORDOVA LLC","Address":"1605 State St 7","City":"Barstow","State":"CA","Zip":"92311"},{"Location":"DAVIS FAMILY FASHION MER","Address":"102 Avenue E","City":"Barstow","State":"CA","Zip":"92311"},{"Location":"DENNYS RESTAURANT","Address":"2611 Fisher Blvd","City":"Barstow","State":"CA","Zip":"92311"},{"Location":"DESERT AMBULANCE SERVICES INC","Address":"831 W Main St","City":"Barstow","State":"CA","Zip":"92311"},{"Location":"DINAPOLIS FIRE HOUSE","Address":"1358 E Main St","City":"Barstow","State":"CA","Zip":"92311"},{"Location":"ENTREPRENEUR CAFE","Address":"1520 Armory Rd","City":"Barstow","State":"CA","Zip":"92311"},{"Location":"FAMILY FISH MARKET","Address":"901 Armory Rd","City":"Barstow","State":"CA","Zip":"92311"},{"Location":"FAT BURGER","Address":"2843 Lenwood Rd Stea","City":"Barstow","State":"CA","Zip":"92311"},{"Location":"HERITAGE MEDICAL GROUP","Address":"801 E Mountain View St E","City":"Barstow","State":"CA","Zip":"92311"},{"Location":"HI DESERT BEAUTY SUPPLY","Address":"1875 E Main St","City":"Barstow","State":"CA","Zip":"92311"},{"Location":"HIGH NOON SALOON","Address":"30386 Us Highway 58","City":"Barstow","State":"CA","Zip":"92311"},{"Location":"HOOZ ON FIRST","Address":"218 N 1st Ave","City":"Barstow","State":"CA","Zip":"92311"},{"Location":"IDLE SPURS STEAK HOUSE","Address":"690 Old Highway 58","City":"Barstow","State":"CA","Zip":"92311"},{"Location":"IN AND OUT TRUCK REPAIR","Address":"2951 Lenwood Rd","City":"Barstow","State":"CA","Zip":"92311"},{"Location":"KNIGHTS OF COLUMBUS","Address":"580 Victor Ave","City":"Barstow","State":"CA","Zip":"92311"},{"Location":"LENWOOD OIL CO","Address":"2795 Lenwood Rd","City":"Barstow","State":"CA","Zip":"92311"},{"Location":"LITTLE SISTER'S TRUCK WASH","Address":"2960 Lenwood Rd","City":"Barstow","State":"CA","Zip":"92311"},{"Location":"LOS DOMINGOS","Address":"1520 E Main St","City":"Barstow","State":"CA","Zip":"92311"},{"Location":"MALLAM MD%2C MMOHAN","Address":"303 E Buena Vista St","City":"Barstow","State":"CA","Zip":"92311"},{"Location":"MARINE     CORE LOGISTICS BASE","Address":"Transit Living Facilit","City":"Barstow","State":"CA","Zip":"92311"},{"Location":"MARINE CORE LOGISITICS","Address":"Transit Living 185","City":"Barstow","State":"CA","Zip":"92311"},{"Location":"MARINE CORE LOGISTICS BASE","Address":"Transit Living Facilit 114","City":"Barstow","State":"CA","Zip":"92311"},{"Location":"MARINE CORP COMMUNITY SERVICES","Address":"38 General James El Day","City":"Barstow","State":"CA","Zip":"92311"},{"Location":"MCLB FIRE DEPT","Address":"Marine Corp Logistics Base 18","City":"Barstow","State":"CA","Zip":"92311"},{"Location":"MCLB FIRE DIVISION","Address":"236 East End","City":"Barstow","State":"CA","Zip":"92311"},{"Location":"MOJAVE AUTO GROUP NORTH","Address":"631 W Main St","City":"Barstow","State":"CA","Zip":"92311"},{"Location":"MOJAVE AUTO GROUP SOUTH 002","Address":"1010 W Main St","City":"Barstow","State":"CA","Zip":"92311"},{"Location":"MOLLIES PUB","Address":"1309 E Main St","City":"Barstow","State":"CA","Zip":"92311"},{"Location":"NIKE INC","Address":"2769 Tanger Way 218","City":"Barstow","State":"CA","Zip":"92311"},{"Location":"PILOT FLYING J #61400","Address":"2611 Fisher Blvd","City":"Barstow","State":"CA","Zip":"92311"},{"Location":"PILOT FLYING J 028200","Address":"2591 Commerce Pkwy","City":"Barstow","State":"CA","Zip":"92311"},{"Location":"PIT STOP","Address":"560 Victor Ave","City":"Barstow","State":"CA","Zip":"92311"},{"Location":"PIZZA HUT","Address":"481 Armory Rd","City":"Barstow","State":"CA","Zip":"92311"},{"Location":"RAMIN ASHTIAN MD%2C PROF CORP","Address":"600 E Williams St","City":"Barstow","State":"CA","Zip":"92311"},{"Location":"RED BARON PIZZA","Address":"951 Armory Rd","City":"Barstow","State":"CA","Zip":"92311"},{"Location":"REVOLUTIONS BARSTOW BOWL","Address":"750 E Main St","City":"Barstow","State":"CA","Zip":"92311"},{"Location":"ROSITAS","Address":"540 W Main St","City":"Barstow","State":"CA","Zip":"92311"},{"Location":"ROUTE 66 PIZZA PALACE","Address":"2046 W Main St","City":"Barstow","State":"CA","Zip":"92311"},{"Location":"SAN BERNARDINO COUNTY SH","Address":"255 E Mountain View","City":"Barstow","State":"CA","Zip":"92311"},{"Location":"SANCHOS TACOS & CANTINA","Address":"1807 E Main St","City":"Barstow","State":"CA","Zip":"92311"},{"Location":"SLIM CASSIDY BARBER SHOP","Address":"118 W Main St","City":"Barstow","State":"CA","Zip":"92311"},{"Location":"SO CAL EDISON","Address":"1820 Rimrock Rd","City":"Barstow","State":"CA","Zip":"92311"},{"Location":"STARIN LINE UP","Address":"117 S 1st Ave","City":"Barstow","State":"CA","Zip":"92311"},{"Location":"STATEWIDE STORAGE","Address":"1500 State St","City":"Barstow","State":"CA","Zip":"92311"},{"Location":"TANGER OUTLET CENTER","Address":"2796 Tanger Way 100","City":"Barstow","State":"CA","Zip":"92311"},{"Location":"TCA 227 BARSTOW","Address":"2930 Lenwood Rd","City":"Barstow","State":"CA","Zip":"92311"},{"Location":"THE NEW VERNON TRUCK WASH","Address":"2351 W Main St","City":"Barstow","State":"CA","Zip":"92311"},{"Location":"UPTOWNER BARBERSHOP","Address":"134 E Main St","City":"Barstow","State":"CA","Zip":"92311"},{"Location":"","Address":"26340 Community Blvd","City":"Barstow","State":"CA","Zip":"92311"},{"Location":"AMIGO TECH","Address":"190 Cal Ave F","City":"Barstow","State":"CA","Zip":"92311"},{"Location":"BAE & JANG DDS INC","Address":"912 E Main St","City":"Barstow","State":"CA","Zip":"92311"},{"Location":"BARSTOW CARE DENTAL INC","Address":"1352 E Main St","City":"Barstow","State":"CA","Zip":"92311"},{"Location":"BARSTOW CARWASH","Address":"1401 E Main St","City":"Barstow","State":"CA","Zip":"92311"},{"Location":"BARSTOW CREDIT UNION","Address":"222 E Main St 210","City":"Barstow","State":"CA","Zip":"92311"},{"Location":"BARSTOW PAWN SHOP","Address":"1336 E Main St","City":"Barstow","State":"CA","Zip":"92311"},{"Location":"BARSTOW SURGICAL INC","Address":"705 E Virginia Way B","City":"Barstow","State":"CA","Zip":"92311"},{"Location":"BARSTOW TIME BRAKE INC","Address":"100 W Main St","City":"Barstow","State":"CA","Zip":"92311"},{"Location":"BARSTOW TOWING  INC","Address":"2241 W Main St","City":"Barstow","State":"CA","Zip":"92311"},{"Location":"BETHEL COMMUNITY OF BARSTOW","Address":"850 E Main St","City":"Barstow","State":"CA","Zip":"92311"},{"Location":"BJD SERVICES","Address":"501 W Buena Vista St","City":"Barstow","State":"CA","Zip":"92311"},{"Location":"BURRTEC WASTE","Address":"2340 W Main St","City":"Barstow","State":"CA","Zip":"92311"},{"Location":"CAFE PUPUSAS","Address":"224 N 7th Ave","City":"Barstow","State":"CA","Zip":"92311"},{"Location":"CHILI'S #1478","Address":"2808 Lenwood Rd","City":"Barstow","State":"CA","Zip":"92311"},{"Location":"CITY TIRE  AND TOWING","Address":"28764 Us Highway 58","City":"Barstow","State":"CA","Zip":"92311"},{"Location":"CORDOVA LLC","Address":"1605 State St 7","City":"Barstow","State":"CA","Zip":"92311"},{"Location":"DAVIS FAMILY FASHION MER","Address":"102 Avenue E","City":"Barstow","State":"CA","Zip":"92311"},{"Location":"DENNYS RESTAURANT","Address":"2611 Fisher Blvd","City":"Barstow","State":"CA","Zip":"92311"},{"Location":"DESERT AMBULANCE SERVICES INC","Address":"831 W Main St","City":"Barstow","State":"CA","Zip":"92311"},{"Location":"DINAPOLIS FIRE HOUSE","Address":"1358 E Main St","City":"Barstow","State":"CA","Zip":"92311"},{"Location":"ENTREPRENEUR CAFE","Address":"1520 Armory Rd","City":"Barstow","State":"CA","Zip":"92311"},{"Location":"FAMILY FISH MARKET","Address":"901 Armory Rd","City":"Barstow","State":"CA","Zip":"92311"},{"Location":"FAT BURGER","Address":"2843 Lenwood Rd Stea","City":"Barstow","State":"CA","Zip":"92311"},{"Location":"HERITAGE MEDICAL GROUP","Address":"801 E Mountain View St E","City":"Barstow","State":"CA","Zip":"92311"},{"Location":"HI DESERT BEAUTY SUPPLY","Address":"1875 E Main St","City":"Barstow","State":"CA","Zip":"92311"},{"Location":"HIGH NOON SALOON","Address":"30386 Us Highway 58","City":"Barstow","State":"CA","Zip":"92311"},{"Location":"HOOZ ON FIRST","Address":"218 N 1st Ave","City":"Barstow","State":"CA","Zip":"92311"},{"Location":"IDLE SPURS STEAK HOUSE","Address":"690 Old Highway 58","City":"Barstow","State":"CA","Zip":"92311"},{"Location":"IN AND OUT TRUCK REPAIR","Address":"2951 Lenwood Rd","City":"Barstow","State":"CA","Zip":"92311"},{"Location":"KNIGHTS OF COLUMBUS","Address":"580 Victor Ave","City":"Barstow","State":"CA","Zip":"92311"},{"Location":"LENWOOD OIL CO","Address":"2795 Lenwood Rd","City":"Barstow","State":"CA","Zip":"92311"},{"Location":"LITTLE SISTER'S TRUCK WASH","Address":"2960 Lenwood Rd","City":"Barstow","State":"CA","Zip":"92311"},{"Location":"LOS DOMINGOS","Address":"1520 E Main St","City":"Barstow","State":"CA","Zip":"92311"},{"Location":"MALLAM MD%2C MMOHAN","Address":"303 E Buena Vista St","City":"Barstow","State":"CA","Zip":"92311"},{"Location":"MARINE     CORE LOGISTICS BASE","Address":"Transit Living Facilit","City":"Barstow","State":"CA","Zip":"92311"},{"Location":"MARINE CORE LOGISITICS","Address":"Transit Living 185","City":"Barstow","State":"CA","Zip":"92311"},{"Location":"MARINE CORE LOGISTICS BASE","Address":"Transit Living Facilit 114","City":"Barstow","State":"CA","Zip":"92311"},{"Location":"MARINE CORP COMMUNITY SERVICES","Address":"38 General James El Day","City":"Barstow","State":"CA","Zip":"92311"},{"Location":"MCLB FIRE DEPT","Address":"Marine Corp Logistics Base 18","City":"Barstow","State":"CA","Zip":"92311"},{"Location":"MCLB FIRE DIVISION","Address":"236 East End","City":"Barstow","State":"CA","Zip":"92311"},{"Location":"MOJAVE AUTO GROUP NORTH","Address":"631 W Main St","City":"Barstow","State":"CA","Zip":"92311"},{"Location":"MOJAVE AUTO GROUP SOUTH 002","Address":"1010 W Main St","City":"Barstow","State":"CA","Zip":"92311"},{"Location":"MOLLIES PUB","Address":"1309 E Main St","City":"Barstow","State":"CA","Zip":"92311"},{"Location":"NIKE INC","Address":"2769 Tanger Way 218","City":"Barstow","State":"CA","Zip":"92311"},{"Location":"PILOT FLYING J #61400","Address":"2611 Fisher Blvd","City":"Barstow","State":"CA","Zip":"92311"},{"Location":"PILOT FLYING J 028200","Address":"2591 Commerce Pkwy","City":"Barstow","State":"CA","Zip":"92311"},{"Location":"PIT STOP","Address":"560 Victor Ave","City":"Barstow","State":"CA","Zip":"92311"},{"Location":"PIZZA HUT","Address":"481 Armory Rd","City":"Barstow","State":"CA","Zip":"92311"},{"Location":"RAMIN ASHTIAN MD%2C PROF CORP","Address":"600 E Williams St","City":"Barstow","State":"CA","Zip":"92311"},{"Location":"RED BARON PIZZA","Address":"951 Armory Rd","City":"Barstow","State":"CA","Zip":"92311"},{"Location":"REVOLUTIONS BARSTOW BOWL","Address":"750 E Main St","City":"Barstow","State":"CA","Zip":"92311"},{"Location":"ROSITAS","Address":"540 W Main St","City":"Barstow","State":"CA","Zip":"92311"},{"Location":"ROUTE 66 PIZZA PALACE","Address":"2046 W Main St","City":"Barstow","State":"CA","Zip":"92311"},{"Location":"SAN BERNARDINO COUNTY SH","Address":"255 E Mountain View","City":"Barstow","State":"CA","Zip":"92311"},{"Location":"SANCHOS TACOS & CANTINA","Address":"1807 E Main St","City":"Barstow","State":"CA","Zip":"92311"},{"Location":"SLIM CASSIDY BARBER SHOP","Address":"118 W Main St","City":"Barstow","State":"CA","Zip":"92311"},{"Location":"SO CAL EDISON","Address":"1820 Rimrock Rd","City":"Barstow","State":"CA","Zip":"92311"},{"Location":"STARIN LINE UP","Address":"117 S 1st Ave","City":"Barstow","State":"CA","Zip":"92311"},{"Location":"STATEWIDE STORAGE","Address":"1500 State St","City":"Barstow","State":"CA","Zip":"92311"},{"Location":"TANGER OUTLET CENTER","Address":"2796 Tanger Way 100","City":"Barstow","State":"CA","Zip":"92311"},{"Location":"TCA 227 BARSTOW","Address":"2930 Lenwood Rd","City":"Barstow","State":"CA","Zip":"92311"},{"Location":"THE NEW VERNON TRUCK WASH","Address":"2351 W Main St","City":"Barstow","State":"CA","Zip":"92311"},{"Location":"UPTOWNER BARBERSHOP","Address":"134 E Main St","City":"Barstow","State":"CA","Zip":"92311"}]