[{"Location":"LANDMARK INN","Address":"39 Inner Loop Rd","City":"Fort Erwin","State":"CA","Zip":"92310"},{"Location":"11TH ACR 254","Address":"Building 254","City":"Fort Irwin","State":"CA","Zip":"92310"},{"Location":"11TH ACR 301","Address":"Building 301","City":"Fort Irwin","State":"CA","Zip":"92310"},{"Location":"557TH MAINTENANCE","Address":"Building 273","City":"Fort Irwin","State":"CA","Zip":"92310"},{"Location":"699TH MAINTENANCE","Address":"Building 275","City":"Fort Irwin","State":"CA","Zip":"92310"},{"Location":"AAFESTACO BELL FOOD COURT","Address":"Bldg 21 Langford Lake Rd","City":"Fort Irwin","State":"CA","Zip":"92310"},{"Location":"AG CUSTOMER SERVICE OFFICE 561","Address":"Building 561","City":"Fort Irwin","State":"CA","Zip":"92310"},{"Location":"AG PROCCESSING 312","Address":"Building 312","City":"Fort Irwin","State":"CA","Zip":"92310"},{"Location":"AG REPLACEMENT 412-A","Address":"Building 412-a","City":"Fort Irwin","State":"CA","Zip":"92310"},{"Location":"AID STATION","Address":"Building 29","City":"Fort Irwin","State":"CA","Zip":"92310"},{"Location":"DAGGET 20","Address":"Building 20","City":"Fort Irwin","State":"CA","Zip":"92310"},{"Location":"DCA 361","Address":"Building 361","City":"Fort Irwin","State":"CA","Zip":"92310"},{"Location":"DCA-128","Address":"Building 128","City":"Fort Irwin","State":"CA","Zip":"92310"},{"Location":"DEPT OF ARMY- FT. IRWIN","Address":"Bldg 988","City":"Fort Irwin","State":"CA","Zip":"92310"},{"Location":"DMWR","Address":"14 Barstow Rd","City":"Fort Irwin","State":"CA","Zip":"92310"},{"Location":"DPW 385","Address":"Building 385","City":"Fort Irwin","State":"CA","Zip":"92310"},{"Location":"EAB 507","Address":"Building 507","City":"Fort Irwin","State":"CA","Zip":"92310"},{"Location":"FC 362","Address":"Building 362","City":"Fort Irwin","State":"CA","Zip":"92310"},{"Location":"FORT IRWIN DEPT 412","Address":"6101 S Loop Road","City":"Fort Irwin","State":"CA","Zip":"92310"},{"Location":"FT IRWIN HHT 11TH ACR","Address":"Building 261","City":"Fort Irwin","State":"CA","Zip":"92310"},{"Location":"FT IRWIN-NTC POST HQ","Address":"Building 237","City":"Fort Irwin","State":"CA","Zip":"92310"},{"Location":"G8-152 PROTOCOL","Address":"Building 152","City":"Fort Irwin","State":"CA","Zip":"92310"},{"Location":"G8-156","Address":"Building 156","City":"Fort Irwin","State":"CA","Zip":"92310"},{"Location":"G8-158","Address":"Building 158","City":"Fort Irwin","State":"CA","Zip":"92310"},{"Location":"G8-182","Address":"Building 182","City":"Fort Irwin","State":"CA","Zip":"92310"},{"Location":"G8-184","Address":"Building 184","City":"Fort Irwin","State":"CA","Zip":"92310"},{"Location":"G8-185","Address":"Building 185","City":"Fort Irwin","State":"CA","Zip":"92310"},{"Location":"G8-186","Address":"Building 186","City":"Fort Irwin","State":"CA","Zip":"92310"},{"Location":"G8-188","Address":"Building 188","City":"Fort Irwin","State":"CA","Zip":"92310"},{"Location":"G8-189","Address":"Building 189","City":"Fort Irwin","State":"CA","Zip":"92310"},{"Location":"G8-217","Address":"Building 217","City":"Fort Irwin","State":"CA","Zip":"92310"},{"Location":"G8-230","Address":"Building 230","City":"Fort Irwin","State":"CA","Zip":"92310"},{"Location":"G8-237","Address":"Building 237","City":"Fort Irwin","State":"CA","Zip":"92310"},{"Location":"G8-255","Address":"Building 255","City":"Fort Irwin","State":"CA","Zip":"92310"},{"Location":"G8-256 B","Address":"Building 256","City":"Fort Irwin","State":"CA","Zip":"92310"},{"Location":"G8-256 C","Address":"Building 256","City":"Fort Irwin","State":"CA","Zip":"92310"},{"Location":"G8-256 D","Address":"Building 256","City":"Fort Irwin","State":"CA","Zip":"92310"},{"Location":"G8-256 E","Address":"Building 256","City":"Fort Irwin","State":"CA","Zip":"92310"},{"Location":"G8-256A","Address":"Building 256","City":"Fort Irwin","State":"CA","Zip":"92310"},{"Location":"G8-257A","Address":"Building 257a","City":"Fort Irwin","State":"CA","Zip":"92310"},{"Location":"G8-257B","Address":"Building 257b","City":"Fort Irwin","State":"CA","Zip":"92310"},{"Location":"G8-257C","Address":"Building 257c","City":"Fort Irwin","State":"CA","Zip":"92310"},{"Location":"G8-257D","Address":"Building 257d","City":"Fort Irwin","State":"CA","Zip":"92310"},{"Location":"G8-257E","Address":"Building 257e","City":"Fort Irwin","State":"CA","Zip":"92310"},{"Location":"G8-276","Address":"Building 276","City":"Fort Irwin","State":"CA","Zip":"92310"},{"Location":"G8-278","Address":"Building 278","City":"Fort Irwin","State":"CA","Zip":"92310"},{"Location":"G8-280","Address":"Building 280","City":"Fort Irwin","State":"CA","Zip":"92310"},{"Location":"G8-281","Address":"Building 281","City":"Fort Irwin","State":"CA","Zip":"92310"},{"Location":"G8-288","Address":"Building 288","City":"Fort Irwin","State":"CA","Zip":"92310"},{"Location":"G8-452","Address":"Building 452","City":"Fort Irwin","State":"CA","Zip":"92310"},{"Location":"G8-500","Address":"Building 500","City":"Fort Irwin","State":"CA","Zip":"92310"},{"Location":"G8-653","Address":"Building 653","City":"Fort Irwin","State":"CA","Zip":"92310"},{"Location":"GARCIA","Address":"918 Langford Lake Rd","City":"Fort Irwin","State":"CA","Zip":"92310"},{"Location":"HHT 11TH ACR BILLETS 262","Address":"Building 262","City":"Fort Irwin","State":"CA","Zip":"92310"},{"Location":"HHT 11TH ACR BILLETS 264","Address":"Building 264","City":"Fort Irwin","State":"CA","Zip":"92310"},{"Location":"HHT 11TH ACR BILLETS 265","Address":"Building 265","City":"Fort Irwin","State":"CA","Zip":"92310"},{"Location":"IMA 226","Address":"Building 226","City":"Fort Irwin","State":"CA","Zip":"92310"},{"Location":"IMA 986","Address":"600 Commerce Way 986","City":"Fort Irwin","State":"CA","Zip":"92310"},{"Location":"IMA-425","Address":"Building 425","City":"Fort Irwin","State":"CA","Zip":"92310"},{"Location":"ITT INDUSTRIES SYSTEMS DIVISIO","Address":"93 Goldstone Rd","City":"Fort Irwin","State":"CA","Zip":"92310"},{"Location":"JIEDDO 851C","Address":"60 Commerce Way","City":"Fort Irwin","State":"CA","Zip":"92310"},{"Location":"JIEDDO 930","Address":"60 Commerce Way","City":"Fort Irwin","State":"CA","Zip":"92310"},{"Location":"KSPAN 241","Address":"Bldg 241","City":"Fort Irwin","State":"CA","Zip":"92310"},{"Location":"MEDDAC 136","Address":"Building 136","City":"Fort Irwin","State":"CA","Zip":"92310"},{"Location":"MEDDAC 171","Address":"Building 171","City":"Fort Irwin","State":"CA","Zip":"92310"},{"Location":"MEDDAC 172","Address":"Building 172","City":"Fort Irwin","State":"CA","Zip":"92310"},{"Location":"MEDDAC 174","Address":"Building 174","City":"Fort Irwin","State":"CA","Zip":"92310"},{"Location":"OPS 130","Address":"Building 130","City":"Fort Irwin","State":"CA","Zip":"92310"},{"Location":"OPS 582","Address":"Building 582","City":"Fort Irwin","State":"CA","Zip":"92310"},{"Location":"OPS 584","Address":"Building 584","City":"Fort Irwin","State":"CA","Zip":"92310"},{"Location":"OPS 585","Address":"Building 585","City":"Fort Irwin","State":"CA","Zip":"92310"},{"Location":"OPS 590","Address":"Building 590","City":"Fort Irwin","State":"CA","Zip":"92310"},{"Location":"OPS 591","Address":"Building 591","City":"Fort Irwin","State":"CA","Zip":"92310"},{"Location":"OPS 592","Address":"Building 592","City":"Fort Irwin","State":"CA","Zip":"92310"},{"Location":"OPS 594","Address":"Building 594","City":"Fort Irwin","State":"CA","Zip":"92310"},{"Location":"OPS 598","Address":"Building 598","City":"Fort Irwin","State":"CA","Zip":"92310"},{"Location":"OPS 601","Address":"Building 601","City":"Fort Irwin","State":"CA","Zip":"92310"},{"Location":"OPS 648","Address":"Building 648","City":"Fort Irwin","State":"CA","Zip":"92310"},{"Location":"OPS 653","Address":"Building 653","City":"Fort Irwin","State":"CA","Zip":"92310"},{"Location":"OPS 655","Address":"Building 655","City":"Fort Irwin","State":"CA","Zip":"92310"},{"Location":"OPS 658","Address":"Building 658","City":"Fort Irwin","State":"CA","Zip":"92310"},{"Location":"PIZZA HUT","Address":"Bldg 81  Goldstone Rd","City":"Fort Irwin","State":"CA","Zip":"92310"},{"Location":"PUBLIC AFFAIRS OFFICE 983","Address":"Building 983","City":"Fort Irwin","State":"CA","Zip":"92310"},{"Location":"REGGIE'S BEVERAGE CO","Address":"Bldg 37 Goldstone Rd","City":"Fort Irwin","State":"CA","Zip":"92310"},{"Location":"REGIMENTAL OFFICE 271","Address":"Building 271","City":"Fort Irwin","State":"CA","Zip":"92310"},{"Location":"RETENTION OFFICE 340","Address":"Building 340","City":"Fort Irwin","State":"CA","Zip":"92310"},{"Location":"SHOCKWAVE","Address":"Building 272 7th St","City":"Fort Irwin","State":"CA","Zip":"92310"},{"Location":"TSC-1034","Address":"Building 1034","City":"Fort Irwin","State":"CA","Zip":"92310"},{"Location":"12 COMBAT TRAINING SQUAD USAF","Address":"7th St An Barstow  Bldg 661","City":"Ft Irwin","State":"CA","Zip":"92310"},{"Location":"AAFES","Address":"979 Inner Loop Rd","City":"Ft Irwin","State":"CA","Zip":"92310"},{"Location":"STRIKE ZONE BOWLING CENTER","Address":"Bldg 905 Lanford Lake Rd","City":"Ft Irwin","State":"CA","Zip":"92310"}]