[{"Location":"A N C COLD STORAGE CONST","Address":"10525 Spruce Ave","City":"Bloomington","State":"CA","Zip":"92316"},{"Location":"AIR AND HOSE SOURCE","Address":"18324 Valley Blvd","City":"Bloomington","State":"CA","Zip":"92316"},{"Location":"AMERICAN LEIGON POST 497","Address":"9980 Cedar Ave","City":"Bloomington","State":"CA","Zip":"92316"},{"Location":"BEST MASSAGE","Address":"9980 Bloomington Ave","City":"Bloomington","State":"CA","Zip":"92316"},{"Location":"CAL-DUCT BLOOMINGTON","Address":"2625 S Lilac Ave","City":"Bloomington","State":"CA","Zip":"92316"},{"Location":"CRUZ CONTAINERS INC","Address":"2761 S Lilac Ave","City":"Bloomington","State":"CA","Zip":"92316"},{"Location":"CUMMINS CAL PACIFIC","Address":"3061 S Riverside Ave","City":"Bloomington","State":"CA","Zip":"92316"},{"Location":"EXEL","Address":"305 Resource Dr","City":"Bloomington","State":"CA","Zip":"92316"},{"Location":"FED EX","Address":"3255 S Cactus Ave","City":"Bloomington","State":"CA","Zip":"92316"},{"Location":"FED EX2","Address":"3255 S Cactus Ave","City":"Bloomington","State":"CA","Zip":"92316"},{"Location":"FILTER RECYCLING SERVICES","Address":"2230 S Riverside Ave","City":"Bloomington","State":"CA","Zip":"92316"},{"Location":"HYDRAULIC SHOP","Address":"2753 S Vista Ave","City":"Bloomington","State":"CA","Zip":"92316"},{"Location":"HYDRAULIC SHOP ONE","Address":"2763 S Vista Ave","City":"Bloomington","State":"CA","Zip":"92316"},{"Location":"INLAND MARKET","Address":"11436 Cedar Ave","City":"Bloomington","State":"CA","Zip":"92316"},{"Location":"KANE","Address":"2304 S Lilac Ave","City":"Bloomington","State":"CA","Zip":"92316"},{"Location":"LEE YOUTH AND FAMILY1","Address":"11282 Spruce Ave","City":"Bloomington","State":"CA","Zip":"92316"},{"Location":"M & M BURGERS","Address":"11515 Cedar Ave A","City":"Bloomington","State":"CA","Zip":"92316"},{"Location":"RB AUTOMOTIVE","Address":"3180 Industrial Dr","City":"Bloomington","State":"CA","Zip":"92316"},{"Location":"SHELL OIL","Address":"2307 S Riverside Ave","City":"Bloomington","State":"CA","Zip":"92316"},{"Location":"SUPERIOR  TOWING","Address":"3121 S Riverside Ave","City":"Bloomington","State":"CA","Zip":"92316"},{"Location":"SYSTEM TWT TRANSPORT","Address":"2549 S Willow Ave","City":"Bloomington","State":"CA","Zip":"92316"},{"Location":"TACOS EL PRIMO","Address":"993 W Valley Blvd 115","City":"Bloomington","State":"CA","Zip":"92316"},{"Location":"TAQUERIA LA MEXICANA","Address":"18596 Valley Blvd","City":"Bloomington","State":"CA","Zip":"92316"},{"Location":"U R BRIGHT MOBILE POLISHING","Address":"993 W Valley Blvd 417","City":"Bloomington","State":"CA","Zip":"92316"},{"Location":"UNION PACIFIC RAILROAD","Address":"19100 Slover Ave","City":"Bloomington","State":"CA","Zip":"92316"},{"Location":"VOLLARO MARKETING GROUP","Address":"139 W Mindanao St","City":"Bloomington","State":"CA","Zip":"92316"}]