[{"Location":"BEARVALLEY BIKES","Address":"40298 Big Bear Blvd","City":"Big Bear","State":"CA","Zip":"92315"},{"Location":"AV- BAR","Address":"664 Pine Knot Ave","City":"Big Bear Lake","State":"CA","Zip":"92315"},{"Location":"AZTECA GRILL MEXICAN","Address":"40199 Big Bear Blvd","City":"Big Bear Lake","State":"CA","Zip":"92315"},{"Location":"BBL ELKS LODGE 1787","Address":"40611 Village Dr","City":"Big Bear Lake","State":"CA","Zip":"92315"},{"Location":"BEAR MTN JR MARKET DELI","Address":"40517 Big Bear Blvd","City":"Big Bear Lake","State":"CA","Zip":"92315"},{"Location":"BIG  BEAR PAINT CENTER","Address":"42118 Big Bear Blvd","City":"Big Bear Lake","State":"CA","Zip":"92315"},{"Location":"BIG BEAR FURNITURE","Address":"42126 Big Bear Blvd E","City":"Big Bear Lake","State":"CA","Zip":"92315"},{"Location":"BIG BEAR LAKE BREWING CO","Address":"40827 Stone Rd","City":"Big Bear Lake","State":"CA","Zip":"92315"},{"Location":"BIG BEAR MOUNTAIN BREWERY","Address":"40260 Big Bear Blvd","City":"Big Bear Lake","State":"CA","Zip":"92315"},{"Location":"BLACK DIAMOND TAVERN","Address":"42172 Moonridge Rd.","City":"Big Bear Lake","State":"CA","Zip":"92315"},{"Location":"BS  BOATHOUSE","Address":"350 Alden Rd","City":"Big Bear Lake","State":"CA","Zip":"92315"},{"Location":"CAMP SKY MEADOW","Address":"3191 Radford Road","City":"Big Bear Lake","State":"CA","Zip":"92315"},{"Location":"CHAD'S PLACE","Address":"40824 Big Bear Blvd","City":"Big Bear Lake","State":"CA","Zip":"92315"},{"Location":"CHADS PLACE","Address":"40824 Big Bear Blvd","City":"Big Bear Lake","State":"CA","Zip":"92315"},{"Location":"COWBOY EXPRESS STAKE","Address":"40433 Lakeview Dr","City":"Big Bear Lake","State":"CA","Zip":"92315"},{"Location":"EL JACALITO","Address":"535 Pine Knot","City":"Big Bear Lake","State":"CA","Zip":"92315"},{"Location":"FUJI","Address":"41025 Big Bear Blvd","City":"Big Bear Lake","State":"CA","Zip":"92315"},{"Location":"HACIENDA GRILL","Address":"41787 Big Bear Blvd","City":"Big Bear Lake","State":"CA","Zip":"92315"},{"Location":"LE DOLCE VITA","Address":"40645 Village Dr 1","City":"Big Bear Lake","State":"CA","Zip":"92315"},{"Location":"MORENO CHRISTIAN ASSEMBLY","Address":"39823 Crocus Dr","City":"Big Bear Lake","State":"CA","Zip":"92315"},{"Location":"MURPHYS BARBER SHOP","Address":"587 Bonanza Trl","City":"Big Bear Lake","State":"CA","Zip":"92315"},{"Location":"MURRAYS SALOON AND EATERY","Address":"672 Cottage Lane","City":"Big Bear Lake","State":"CA","Zip":"92315"},{"Location":"OAK KNOLL LODGE","Address":"949 Tulip Lane","City":"Big Bear Lake","State":"CA","Zip":"92315"},{"Location":"PAOLIS ITALIAN","Address":"40821 Village Drive","City":"Big Bear Lake","State":"CA","Zip":"92315"},{"Location":"PINE KNOT CABINS","Address":"908 Pine Knot Avenue","City":"Big Bear Lake","State":"CA","Zip":"92315"},{"Location":"PINE KNOT CABINS 4","Address":"908 Pine Knot Avenue","City":"Big Bear Lake","State":"CA","Zip":"92315"},{"Location":"PINE KNOT CABINS2","Address":"908 Pine Knot Avenue","City":"Big Bear Lake","State":"CA","Zip":"92315"},{"Location":"PINE KNOT CABINS3","Address":"908 Pine Knot Avenue","City":"Big Bear Lake","State":"CA","Zip":"92315"},{"Location":"RED BARON PIZZA","Address":"42173 1%2F2 Big Bear Blvd","City":"Big Bear Lake","State":"CA","Zip":"92315"},{"Location":"SANDY'S SPORTS BAR","Address":"40951 Big Bear Blvd","City":"Big Bear Lake","State":"CA","Zip":"92315"},{"Location":"STILLWELLS LOUNGE","Address":"40650 Village Dr","City":"Big Bear Lake","State":"CA","Zip":"92315"},{"Location":"THE BOWLING BARN","Address":"40625 Lakeview Dr","City":"Big Bear Lake","State":"CA","Zip":"92315"},{"Location":"THE CARPET BARN","Address":"41460 Big Bear Blvd","City":"Big Bear Lake","State":"CA","Zip":"92315"},{"Location":"THE DAILY VAPE","Address":"42011 Big Bear Blvd","City":"Big Bear Lake","State":"CA","Zip":"92315"},{"Location":"THE GRIND AND GRILL CAFE","Address":"42011 Big Bear Blvd","City":"Big Bear Lake","State":"CA","Zip":"92315"},{"Location":"THE PINES LAKEFRONT","Address":"350 Alden Road","City":"Big Bear Lake","State":"CA","Zip":"92315"},{"Location":"TOP SHELF COMPASSIONATE GROUP","Address":"836 Tehama Dr","City":"Big Bear Lake","State":"CA","Zip":"92315"},{"Location":"WHISKEY DAVES","Address":"40740 Village Dr","City":"Big Bear Lake","State":"CA","Zip":"92315"},{"Location":"BEARVALLEY BIKES","Address":"40298 Big Bear Blvd","City":"Big Bear","State":"CA","Zip":"92315"},{"Location":"AV- BAR","Address":"664 Pine Knot Ave","City":"Big Bear Lake","State":"CA","Zip":"92315"},{"Location":"AZTECA GRILL MEXICAN","Address":"40199 Big Bear Blvd","City":"Big Bear Lake","State":"CA","Zip":"92315"},{"Location":"BBL ELKS LODGE 1787","Address":"40611 Village Dr","City":"Big Bear Lake","State":"CA","Zip":"92315"},{"Location":"BEAR MTN JR MARKET DELI","Address":"40517 Big Bear Blvd","City":"Big Bear Lake","State":"CA","Zip":"92315"},{"Location":"BIG  BEAR PAINT CENTER","Address":"42118 Big Bear Blvd","City":"Big Bear Lake","State":"CA","Zip":"92315"},{"Location":"BIG BEAR FURNITURE","Address":"42126 Big Bear Blvd E","City":"Big Bear Lake","State":"CA","Zip":"92315"},{"Location":"BIG BEAR LAKE BREWING CO","Address":"40827 Stone Rd","City":"Big Bear Lake","State":"CA","Zip":"92315"},{"Location":"BIG BEAR MOUNTAIN BREWERY","Address":"40260 Big Bear Blvd","City":"Big Bear Lake","State":"CA","Zip":"92315"},{"Location":"BLACK DIAMOND TAVERN","Address":"42172 Moonridge Rd.","City":"Big Bear Lake","State":"CA","Zip":"92315"},{"Location":"BS  BOATHOUSE","Address":"350 Alden Rd","City":"Big Bear Lake","State":"CA","Zip":"92315"},{"Location":"CAMP SKY MEADOW","Address":"3191 Radford Road","City":"Big Bear Lake","State":"CA","Zip":"92315"},{"Location":"CHAD'S PLACE","Address":"40824 Big Bear Blvd","City":"Big Bear Lake","State":"CA","Zip":"92315"},{"Location":"Chads Place","Address":"40824 Big Bear Blvd","City":"Big Bear Lake","State":"CA","Zip":"92315"},{"Location":"COWBOY EXPRESS STAKE","Address":"40433 Lakeview Dr","City":"Big Bear Lake","State":"CA","Zip":"92315"},{"Location":"EL JACALITO","Address":"535 Pine Knot","City":"Big Bear Lake","State":"CA","Zip":"92315"},{"Location":"FUJI","Address":"41025 Big Bear Blvd","City":"Big Bear Lake","State":"CA","Zip":"92315"},{"Location":"HACIENDA GRILL","Address":"41787 Big Bear Blvd","City":"Big Bear Lake","State":"CA","Zip":"92315"},{"Location":"LE DOLCE VITA","Address":"40645 Village Dr 1","City":"Big Bear Lake","State":"CA","Zip":"92315"},{"Location":"MORENO CHRISTIAN ASSEMBLY","Address":"39823 Crocus Dr","City":"Big Bear Lake","State":"CA","Zip":"92315"},{"Location":"MURPHYS BARBER SHOP","Address":"587 Bonanza Trl","City":"Big Bear Lake","State":"CA","Zip":"92315"},{"Location":"MURRAYS SALOON AND EATERY","Address":"672 Cottage Lane","City":"Big Bear Lake","State":"CA","Zip":"92315"},{"Location":"OAK KNOLL LODGE","Address":"949 Tulip Lane","City":"Big Bear Lake","State":"CA","Zip":"92315"},{"Location":"PAOLIS ITALIAN","Address":"40821 Village Drive","City":"Big Bear Lake","State":"CA","Zip":"92315"},{"Location":"PINE KNOT CABINS","Address":"908 Pine Knot Avenue","City":"Big Bear Lake","State":"CA","Zip":"92315"},{"Location":"PINE KNOT CABINS 4","Address":"908 Pine Knot Avenue","City":"Big Bear Lake","State":"CA","Zip":"92315"},{"Location":"PINE KNOT CABINS2","Address":"908 Pine Knot Avenue","City":"Big Bear Lake","State":"CA","Zip":"92315"},{"Location":"PINE KNOT CABINS3","Address":"908 Pine Knot Avenue","City":"Big Bear Lake","State":"CA","Zip":"92315"},{"Location":"RED BARON PIZZA","Address":"42173 1%2F2 Big Bear Blvd","City":"Big Bear Lake","State":"CA","Zip":"92315"},{"Location":"SANDY'S SPORTS BAR","Address":"40951 Big Bear Blvd","City":"Big Bear Lake","State":"CA","Zip":"92315"},{"Location":"STILLWELLS LOUNGE","Address":"40650 Village Dr","City":"Big Bear Lake","State":"CA","Zip":"92315"},{"Location":"THE BOWLING BARN","Address":"40625 Lakeview Dr","City":"Big Bear Lake","State":"CA","Zip":"92315"},{"Location":"THE CARPET BARN","Address":"41460 Big Bear Blvd","City":"Big Bear Lake","State":"CA","Zip":"92315"},{"Location":"THE DAILY VAPE","Address":"42011 Big Bear Blvd","City":"Big Bear Lake","State":"CA","Zip":"92315"},{"Location":"THE GRIND AND GRILL CAFE","Address":"42011 Big Bear Blvd","City":"Big Bear Lake","State":"CA","Zip":"92315"},{"Location":"THE PINES LAKEFRONT","Address":"350 Alden Road","City":"Big Bear Lake","State":"CA","Zip":"92315"},{"Location":"TOP SHELF COMPASSIONATE GROUP","Address":"836 Tehama Dr","City":"Big Bear Lake","State":"CA","Zip":"92315"},{"Location":"WHISKEY DAVES","Address":"40740 Village Dr","City":"Big Bear Lake","State":"CA","Zip":"92315"}]