[{"Location":"ROADHOUSE PIZZA","Address":"565 Forest Shade Rd A","City":"Crestlane","State":"CA","Zip":"92325"},{"Location":"BILLS CRESTLINE GARAGE","Address":"23471 Crestline Garage","City":"Crestline","State":"CA","Zip":"92325"},{"Location":"CALIFORNIA BANK & TRUST","Address":"23840 Lake Drive","City":"Crestline","State":"CA","Zip":"92325"},{"Location":"CALIFORNIA LEARNS INC","Address":"24620 Lake Dr","City":"Crestline","State":"CA","Zip":"92325"},{"Location":"CHRISTMAS VILLAGE","Address":"23998 Strightway C-4","City":"Crestline","State":"CA","Zip":"92325"},{"Location":"CRESTLINE","Address":"23755 Lake Drive","City":"Crestline","State":"CA","Zip":"92325"},{"Location":"CRESTLINE NAIL AND SPA","Address":"23815 Lake Dr 2710","City":"Crestline","State":"CA","Zip":"92325"},{"Location":"PAZZOS","Address":"23476 Crest Forest Dr 1","City":"Crestline","State":"CA","Zip":"92325"},{"Location":"PILOT ROCK CAMP","Address":"6 Miles N Of Crest Line Hwy 138","City":"Crestline","State":"CA","Zip":"92325"},{"Location":"THE BEAR CLAW","Address":"24087 Lake Dr","City":"Crestline","State":"CA","Zip":"92325"},{"Location":"VALLYVIEW VISTA LLC","Address":"23476 Crest Forrest Dr","City":"Crestline","State":"CA","Zip":"92325"}]