[{"Location":"AAVIS PLUMBING HEATING  AIR","Address":"600 E Valley Blvd","City":"Colton","State":"CA","Zip":"92324"},{"Location":"ACUPRESSURE CLINIC","Address":"1280 E Cooley Dr 25","City":"Colton","State":"CA","Zip":"92324"},{"Location":"ALBERT SIMPKINS JR MD","Address":"1550 E Washington St 101","City":"Colton","State":"CA","Zip":"92324"},{"Location":"AMAPOLA RICO TACO","Address":"291 E Valley Blvd","City":"Colton","State":"CA","Zip":"92324"},{"Location":"AMERICAN HONDA MOTOR CO INC","Address":"1301 Via Venito","City":"Colton","State":"CA","Zip":"92324"},{"Location":"AMERICAN MEDICAL RESPONSE","Address":"898 Via Lata F","City":"Colton","State":"CA","Zip":"92324"},{"Location":"ARMC FACILITIES MGMT","Address":"400 N Pepper Ave","City":"Colton","State":"CA","Zip":"92324"},{"Location":"ARTISTICALLY YOURS BARBE","Address":"1705 E Washington St","City":"Colton","State":"CA","Zip":"92324"},{"Location":"ASHLEY FURNITURE","Address":"1601 Ashley Way","City":"Colton","State":"CA","Zip":"92324"},{"Location":"ASHLEY FURNITURE HOMESTORE","Address":"855 Ashley Way","City":"Colton","State":"CA","Zip":"92324"},{"Location":"ASHLEY FURNITURE HOMESTORE INC","Address":"1601 E Cooley Dr","City":"Colton","State":"CA","Zip":"92324"},{"Location":"BBCN BANK","Address":"1040 S Mount Vernon Ave A","City":"Colton","State":"CA","Zip":"92324"},{"Location":"BUFFET STAR","Address":"1141 S Mt Vernon Ave","City":"Colton","State":"CA","Zip":"92324"},{"Location":"CANYON COTTAGE RESTAURANT","Address":"2671 Reche Canyon Rd","City":"Colton","State":"CA","Zip":"92324"},{"Location":"CARDENAS MARKET 10","Address":"1067 N Mount Vernon Ave","City":"Colton","State":"CA","Zip":"92324"},{"Location":"CARL 'S JR RESTAURANT","Address":"1180 S Mount Vernon Ave","City":"Colton","State":"CA","Zip":"92324"},{"Location":"CASTLE AND COOK","Address":"21700 Barton Rd","City":"Colton","State":"CA","Zip":"92324"},{"Location":"COLTON COUNTRY CLUB","Address":"1901 W Valley Blvd","City":"Colton","State":"CA","Zip":"92324"},{"Location":"COLTON CUTS","Address":"632 West Valley Boulevard Suit","City":"Colton","State":"CA","Zip":"92324"},{"Location":"COLTON CUTS","Address":"632 West Valley Boulevard Suite 102","City":"Colton","State":"CA","Zip":"92324"},{"Location":"COLTON OFFICE 155","Address":"1401 Veterans Way","City":"Colton","State":"CA","Zip":"92324"},{"Location":"COLTON POLICE DEPT","Address":"1220 E Washington St","City":"Colton","State":"CA","Zip":"92324"},{"Location":"CORTEZ CUSTOM CABINETS INC","Address":"316 W D St D","City":"Colton","State":"CA","Zip":"92324"},{"Location":"CR ENGLAND TRUCKING","Address":"2250 S Riverside Ave","City":"Colton","State":"CA","Zip":"92324"},{"Location":"CULITHITOWN CORPORATION INC","Address":"1462 N La Cadena Dr","City":"Colton","State":"CA","Zip":"92324"},{"Location":"CWA LOCAL NINE FIVE EIGHT EIGH","Address":"190 W G St","City":"Colton","State":"CA","Zip":"92324"},{"Location":"DAVITA #5267 COLTON RANCH","Address":"1405 W Valley Blvd 1","City":"Colton","State":"CA","Zip":"92324"},{"Location":"DE PARMA PIZZA","Address":"1091 S Mount Vernon Ave #e","City":"Colton","State":"CA","Zip":"92324"},{"Location":"DELLS","Address":"531 S La Cadena Dr","City":"Colton","State":"CA","Zip":"92324"},{"Location":"DEVRY UNIVERSITY","Address":"1090 E Washington St H","City":"Colton","State":"CA","Zip":"92324"},{"Location":"DOMINOS PIZZA","Address":"229 W Valley Blvd","City":"Colton","State":"CA","Zip":"92324"},{"Location":"EL AGURLA REAL","Address":"865 N Rancho Ave","City":"Colton","State":"CA","Zip":"92324"},{"Location":"EL SOMBRERO BANQUET","Address":"354 S 7th St","City":"Colton","State":"CA","Zip":"92324"},{"Location":"ESALEM ACUPRESSURE","Address":"1091 S Mount Vernon Ave F","City":"Colton","State":"CA","Zip":"92324"},{"Location":"EXECUTIVE MEDICAL INC","Address":"900 E Washington St 300","City":"Colton","State":"CA","Zip":"92324"},{"Location":"FALCON RADIATOR","Address":"455 E Valley Blvd","City":"Colton","State":"CA","Zip":"92324"},{"Location":"FANTASY THEATER","Address":"1091 S La Cadena Dr","City":"Colton","State":"CA","Zip":"92324"},{"Location":"FELIPE PEREZ","Address":"2731 S Security Ave","City":"Colton","State":"CA","Zip":"92324"},{"Location":"FMC 71930000","Address":"1275 W C St","City":"Colton","State":"CA","Zip":"92324"},{"Location":"GEORGES BURGERS","Address":"1320 E Washington St","City":"Colton","State":"CA","Zip":"92324"},{"Location":"GOODYS","Address":"551 S Hunts Ln","City":"Colton","State":"CA","Zip":"92324"},{"Location":"GRAZIANO'S COLTON INC","Address":"1080 E Washington St G","City":"Colton","State":"CA","Zip":"92324"},{"Location":"HAND CAR WASH USA","Address":"1340 E Washington St","City":"Colton","State":"CA","Zip":"92324"},{"Location":"HEALING CENTER","Address":"1705 E Washington St 100","City":"Colton","State":"CA","Zip":"92324"},{"Location":"HELM AND SONS AMUSEMENT","Address":"480 Agua Mansa Rd","City":"Colton","State":"CA","Zip":"92324"},{"Location":"INLAND COLD STORAGE BLD TWO","Address":"280 Deberry St","City":"Colton","State":"CA","Zip":"92324"},{"Location":"INTREPID COLLISION","Address":"1206 Via Roma","City":"Colton","State":"CA","Zip":"92324"},{"Location":"JIFFY LUBE 3185","Address":"1701 E Washington St 100","City":"Colton","State":"CA","Zip":"92324"},{"Location":"JOES MEX RESTAURANT","Address":"1431 E Washington St A","City":"Colton","State":"CA","Zip":"92324"},{"Location":"KARNAIR HVAC SUPPLY","Address":"2279 La Crosse Ave","City":"Colton","State":"CA","Zip":"92324"},{"Location":"LEE & YOO DENTAL CORP","Address":"1139 N Mount Vernon Ave","City":"Colton","State":"CA","Zip":"92324"},{"Location":"LIAMS","Address":"1087 S Mount Vernon Ave","City":"Colton","State":"CA","Zip":"92324"},{"Location":"LINEAGE LOGISTICS","Address":"2063 West Miguel Bustamante Pk","City":"Colton","State":"CA","Zip":"92324"},{"Location":"LINEAGE LOGISTICS ICM LLC","Address":"21700 Barton Rd","City":"Colton","State":"CA","Zip":"92324"},{"Location":"LINEAGE LOGISTICS-SANDS","Address":"2063 W Miguel Bustamante Pk","City":"Colton","State":"CA","Zip":"92324"},{"Location":"LINKOS COCKTAILS","Address":"188 E Valley Blvd","City":"Colton","State":"CA","Zip":"92324"},{"Location":"LIVING SPACES","Address":"3994 S Riverside Ave","City":"Colton","State":"CA","Zip":"92324"},{"Location":"MANILA FOOD EXPRESS","Address":"1080 E Washington St E","City":"Colton","State":"CA","Zip":"92324"},{"Location":"MARISCO ENSENADA 6","Address":"889 E Valley Blvd","City":"Colton","State":"CA","Zip":"92324"},{"Location":"MEASUREMENT PLUS LLC","Address":"671 E Cooley Dr","City":"Colton","State":"CA","Zip":"92324"},{"Location":"MIKE THOMPSON RV","Address":"920 Rv Center Dr","City":"Colton","State":"CA","Zip":"92324"},{"Location":"NICKELODEON PIZZA","Address":"1411 E Washington St","City":"Colton","State":"CA","Zip":"92324"},{"Location":"P&G BURGERS","Address":"190 W Valley Blvd","City":"Colton","State":"CA","Zip":"92324"},{"Location":"PIZZADILLY","Address":"194 E Valley Blvd","City":"Colton","State":"CA","Zip":"92324"},{"Location":"RANCHO MEDITERRANIA","Address":"700 E Washington St","City":"Colton","State":"CA","Zip":"92324"},{"Location":"RECHE CANYON CLUB HOUSE","Address":"2751 Reche Canyon Rd","City":"Colton","State":"CA","Zip":"92324"},{"Location":"RES ENVIROMENTAL INC","Address":"865 Via Lata","City":"Colton","State":"CA","Zip":"92324"},{"Location":"RESTAURANTE SALVADORENO","Address":"182 E Valley Blvd","City":"Colton","State":"CA","Zip":"92324"},{"Location":"SAYAKA JAPANESE REST","Address":"1060 S Mount Vernon Ave","City":"Colton","State":"CA","Zip":"92324"},{"Location":"SHOGA SUSHI TERIYAKI","Address":"1000 E Washington St C","City":"Colton","State":"CA","Zip":"92324"},{"Location":"SMC GREASE SPECIALIST","Address":"1600 W Pellisier Rd","City":"Colton","State":"CA","Zip":"92324"},{"Location":"SQUIRES LUMBER INC","Address":"370 N 9th St","City":"Colton","State":"CA","Zip":"92324"},{"Location":"ST PATRICK   DENTAL","Address":"1200 E Washington St F2","City":"Colton","State":"CA","Zip":"92324"},{"Location":"SUMMIT CAREER","Address":"1461 S Cooley Dr Ste 270","City":"Colton","State":"CA","Zip":"92324"},{"Location":"SUSHI MIGUEL STYLE.","Address":"291 E Valley Blvd B","City":"Colton","State":"CA","Zip":"92324"},{"Location":"TACOS DON CHENTE","Address":"1498 N Mount Vernon Ave","City":"Colton","State":"CA","Zip":"92324"},{"Location":"TAQUERIA ZABALA","Address":"610 W Valley Blvd","City":"Colton","State":"CA","Zip":"92324"},{"Location":"TNT REBAR CORP","Address":"336 W E St","City":"Colton","State":"CA","Zip":"92324"},{"Location":"TOMAS RODRIGUEZ","Address":"831 W Valley Blvd 202","City":"Colton","State":"CA","Zip":"92324"},{"Location":"VFW","Address":"1789 N 8th St","City":"Colton","State":"CA","Zip":"92324"},{"Location":"WENDYS 11525","Address":"1110 S Mount Vernon Ave","City":"Colton","State":"CA","Zip":"92324"},{"Location":"WINBATH AND KITCHEN","Address":"2185 La Crosse Ave","City":"Colton","State":"CA","Zip":"92324"}]