[{"Location":"24 HOUR FITNESS #907","Address":"15310 Summit Ave","City":"Fontana","State":"CA","Zip":"92336"},{"Location":"ANDERSON & ASSOCIATES","Address":"8127 Foothill Blvd","City":"Fontana","State":"CA","Zip":"92336"},{"Location":"ANDERSON T SERVICE","Address":"5975 Sierra Ave","City":"Fontana","State":"CA","Zip":"92336"},{"Location":"APPLEBEE'S #2150034","Address":"16867 Sierra Lakes Pkwy","City":"Fontana","State":"CA","Zip":"92336"},{"Location":"BELLA ITALIA RESTAURANT","Address":"7337 East Ave Suite","City":"Fontana","State":"CA","Zip":"92336"},{"Location":"CAFE LAS PUPUSAS","Address":"17070 Walnut Village Pkwy A","City":"Fontana","State":"CA","Zip":"92336"},{"Location":"CHILI'S #1077","Address":"15252 Summit Ave","City":"Fontana","State":"CA","Zip":"92336"},{"Location":"CHINA ONE","Address":"15268 Summit Ave 200","City":"Fontana","State":"CA","Zip":"92336"},{"Location":"CLUB PED NAILS AND SPA","Address":"13518 Baseline Ave B","City":"Fontana","State":"CA","Zip":"92336"},{"Location":"COSTCO","Address":"16505 Sierra Lakes Pkwy","City":"Fontana","State":"CA","Zip":"92336"},{"Location":"CROSSFIT FONTANA","Address":"7898 Cherry Ave H","City":"Fontana","State":"CA","Zip":"92336"},{"Location":"CUCAMONGA VALLEY MEDICAL","Address":"16465 Sierra Lakes Pkwy 300","City":"Fontana","State":"CA","Zip":"92336"},{"Location":"DAVIS","Address":"7373 East Ave A","City":"Fontana","State":"CA","Zip":"92336"},{"Location":"DICKEY'S BARBECUE PIT","Address":"16391 Sierra Lakes Pkwy 140","City":"Fontana","State":"CA","Zip":"92336"},{"Location":"DONALD M DAVIS CO","Address":"14985 Hilton Dr","City":"Fontana","State":"CA","Zip":"92336"},{"Location":"DOOR COMPONENT CORP","Address":"7980 Redwood Ave","City":"Fontana","State":"CA","Zip":"92336"},{"Location":"EL RANCHERO","Address":"16155 Sierra Lakes Pkwy 100","City":"Fontana","State":"CA","Zip":"92336"},{"Location":"ESKL INC","Address":"16927 Sierra Lakes Pwky","City":"Fontana","State":"CA","Zip":"92336"},{"Location":"ETTILEE HOMES","Address":"7637 Citrus Ave","City":"Fontana","State":"CA","Zip":"92336"},{"Location":"EVERETT CHARLES TECHNOLOGIES","Address":"14570 Meyer Canyon Dr","City":"Fontana","State":"CA","Zip":"92336"},{"Location":"FANTASTIC SAMS","Address":"16155 Sierra Lakes Pkwy 150","City":"Fontana","State":"CA","Zip":"92336"},{"Location":"FANTASTIC SAMS","Address":"7360 Cherry Ave","City":"Fontana","State":"CA","Zip":"92336"},{"Location":"FITNESS 19-FONTANA","Address":"7426 Cherry Ave 160","City":"Fontana","State":"CA","Zip":"92336"},{"Location":"FONTANA WEIGHT CONTROL","Address":"7470 Cherry Ave","City":"Fontana","State":"CA","Zip":"92336"},{"Location":"GRAZIANOS","Address":"7426 Cherry Ave","City":"Fontana","State":"CA","Zip":"92336"},{"Location":"KEYRICOS BEAUTY & BARBER","Address":"7470 Cherry Ave 110","City":"Fontana","State":"CA","Zip":"92336"},{"Location":"KOHL'S #602","Address":"14960 Summit Ave","City":"Fontana","State":"CA","Zip":"92336"},{"Location":"KYOUNG","Address":"15218 Summit Ave 500","City":"Fontana","State":"CA","Zip":"92336"},{"Location":"LA FITNESS #78","Address":"16289 Sierra Lakes Pkwy","City":"Fontana","State":"CA","Zip":"92336"},{"Location":"LIQOUR PLUS","Address":"13451 Baseline Ave A","City":"Fontana","State":"CA","Zip":"92336"},{"Location":"LOGAN'S ROADHOUSE","Address":"13480 Baseline Ave","City":"Fontana","State":"CA","Zip":"92336"},{"Location":"LUXURY HAIR EXTENSIONS & SALON","Address":"16049 Baseline Ave 2","City":"Fontana","State":"CA","Zip":"92336"},{"Location":"MANILA WOK","Address":"7337 East Ave","City":"Fontana","State":"CA","Zip":"92336"},{"Location":"MARTIN MURILLO LLC","Address":"16023 Baseline Ave 1","City":"Fontana","State":"CA","Zip":"92336"},{"Location":"MEC HOLDING COMPANY","Address":"16444 S Highland Ave","City":"Fontana","State":"CA","Zip":"92336"},{"Location":"MOUNTAIN VIEW TIRE","Address":"14373 Baseline Ave","City":"Fontana","State":"CA","Zip":"92336"},{"Location":"NUTRI SHOP INC","Address":"16135 Sierra Lakes Pkwy 230","City":"Fontana","State":"CA","Zip":"92336"},{"Location":"OMAKASE SUSHI","Address":"16635 Sierra Lakes Pkwy","City":"Fontana","State":"CA","Zip":"92336"},{"Location":"PICANTE MEXICAN FOOD","Address":"7330 Cherry Ave","City":"Fontana","State":"CA","Zip":"92336"},{"Location":"POPEYES  11584","Address":"16205 Sierra Lakes Pkwy","City":"Fontana","State":"CA","Zip":"92336"},{"Location":"RED BRICK PIZZA #611","Address":"16155 Sierra Lakes Pkwy 140","City":"Fontana","State":"CA","Zip":"92336"},{"Location":"ROCK HONDA","Address":"16570 S Highland Ave","City":"Fontana","State":"CA","Zip":"92336"},{"Location":"ROLLER CITY PLUS","Address":"7209 East Ave","City":"Fontana","State":"CA","Zip":"92336"},{"Location":"ROTOLO CHEVROLET INC","Address":"16666 S Highland Ave","City":"Fontana","State":"CA","Zip":"92336"},{"Location":"ROUND TABLE PIZZA 2","Address":"15002 Summit Ave","City":"Fontana","State":"CA","Zip":"92336"},{"Location":"S I M P L E X","Address":"14500 Miller Ave","City":"Fontana","State":"CA","Zip":"92336"},{"Location":"SIERRA URGENT CARE","Address":"16465 Sierra Lakes Pkwy 100a","City":"Fontana","State":"CA","Zip":"92336"},{"Location":"ST BERNADINE URGENT CARRE CENT","Address":"17051 Sierra Lakes Pkwy 102","City":"Fontana","State":"CA","Zip":"92336"},{"Location":"STAR NAILS & SPA","Address":"15032 Summit Ave 430","City":"Fontana","State":"CA","Zip":"92336"},{"Location":"SUMMIT ORTHODONTICS","Address":"15258 Summit Ave 300","City":"Fontana","State":"CA","Zip":"92336"},{"Location":"SUPREME FORCE SERVICES","Address":"7470 Cherry Ave 112","City":"Fontana","State":"CA","Zip":"92336"},{"Location":"TARGET","Address":"14750 Miller Ave","City":"Fontana","State":"CA","Zip":"92336"},{"Location":"TIERRA CUSTOM HYDRAULIC","Address":"6183 Sierra Ave","City":"Fontana","State":"CA","Zip":"92336"},{"Location":"TIOS MEXICAN REST.","Address":"16953 Sierra Lakes Pkwy","City":"Fontana","State":"CA","Zip":"92336"},{"Location":"TOTAL BLESSED HAIR SALON","Address":"7672 Sierra Ave","City":"Fontana","State":"CA","Zip":"92336"},{"Location":"TU IMAGEN","Address":"7993 Sierra Ave","City":"Fontana","State":"CA","Zip":"92336"},{"Location":"U S BANK","Address":"7400 Cherry Ave","City":"Fontana","State":"CA","Zip":"92336"},{"Location":"WABA GRILL TERIYAKI HOUSE","Address":"16637 Sierra Lakes Pkwy","City":"Fontana","State":"CA","Zip":"92336"},{"Location":"WEILANDS POOL SERVICE","Address":"7898 Cherry Ave F","City":"Fontana","State":"CA","Zip":"92336"},{"Location":"WELCH MANAGEMENT CORP","Address":"15032 Summit Ave 450","City":"Fontana","State":"CA","Zip":"92336"},{"Location":"WEST POINT MEDICAL CENTER","Address":"7774 Cherry Ave","City":"Fontana","State":"CA","Zip":"92336"}]