[{"Location":"ABUELAS KITCHEN","Address":"16951 Foothill Blvd B","City":"Fontana","State":"CA","Zip":"92335"},{"Location":"ADVANCED STEEL RECOVERY LLC","Address":"14349 Whittram Ave","City":"Fontana","State":"CA","Zip":"92335"},{"Location":"ALADDIN BB DEPT 707","Address":"8127 Mulberry Ave 104","City":"Fontana","State":"CA","Zip":"92335"},{"Location":"ALBERTOS TRUCKING","Address":"10198 Live Oak Ave","City":"Fontana","State":"CA","Zip":"92335"},{"Location":"ALFATEERS SERVICE CENTER","Address":"14620 Rancho Vista Dr","City":"Fontana","State":"CA","Zip":"92335"},{"Location":"ALL-STAR BARBER SHOP","Address":"8990 Sierra Avenue Suite L","City":"Fontana","State":"CA","Zip":"92335"},{"Location":"ALLSTAR BARBERSHOP","Address":"8990 Sierra Ave","City":"Fontana","State":"CA","Zip":"92335"},{"Location":"ALVAROS SMOG CHECK","Address":"16414 Foothill Blvd","City":"Fontana","State":"CA","Zip":"92335"},{"Location":"AMERICAN LEGION POST 772","Address":"16767 Spring St","City":"Fontana","State":"CA","Zip":"92335"},{"Location":"AMERICAN LEGION-FONTANA","Address":"15840 Foothill Blvd","City":"Fontana","State":"CA","Zip":"92335"},{"Location":"AMERICAN MEDICAL RESPONSE","Address":"8558 Wheeler Ave","City":"Fontana","State":"CA","Zip":"92335"},{"Location":"ANGEL TEST ONLY STATION","Address":"16309 Merrill Ave C","City":"Fontana","State":"CA","Zip":"92335"},{"Location":"ANOTHER MOBILE FLEET SERVICE","Address":"9743 Cherry Ave","City":"Fontana","State":"CA","Zip":"92335"},{"Location":"ANTONIA CID","Address":"16120 Valley Blvd 4","City":"Fontana","State":"CA","Zip":"92335"},{"Location":"ARROW LAUNDRY","Address":"17480 Arrow Blvd","City":"Fontana","State":"CA","Zip":"92335"},{"Location":"ARROW TRUCK SALES","Address":"10175 Cherry Ave","City":"Fontana","State":"CA","Zip":"92335"},{"Location":"AUTOMOTIVE PAINT SUPPLY","Address":"16484 Ceres Ave","City":"Fontana","State":"CA","Zip":"92335"},{"Location":"B R INCOME TAX SERVICES","Address":"8922 Beech Ave D","City":"Fontana","State":"CA","Zip":"92335"},{"Location":"BANAUE","Address":"13819 Foothill Blvd","City":"Fontana","State":"CA","Zip":"92335"},{"Location":"BILLY J'S RESTAURANT","Address":"9976 Sierra Ave A","City":"Fontana","State":"CA","Zip":"92335"},{"Location":"BOBADILLA INSURANCE SERV","Address":"16981 Foothill Blvd L","City":"Fontana","State":"CA","Zip":"92335"},{"Location":"BUDS PIZZA","Address":"9673 Sierra Ave G","City":"Fontana","State":"CA","Zip":"92335"},{"Location":"BURRTEC WASTE INDUSTRIES","Address":"9890 Cherry Ave","City":"Fontana","State":"CA","Zip":"92335"},{"Location":"BUSCADOS RESTAURANT","Address":"14765 Foothill Blvd","City":"Fontana","State":"CA","Zip":"92335"},{"Location":"CALI CUTS","Address":"14755 Foothill Blvd J","City":"Fontana","State":"CA","Zip":"92335"},{"Location":"CALIFORNIA SPEEDWAY  CORP","Address":"9300 Cherry Ave","City":"Fontana","State":"CA","Zip":"92335"},{"Location":"CALIFORNIA SPEEDWAY CORP","Address":"9300 Cherry Ave","City":"Fontana","State":"CA","Zip":"92335"},{"Location":"CALIFORNIA STEEL IND INC","Address":"14000 San Bernardino Ave","City":"Fontana","State":"CA","Zip":"92335"},{"Location":"CARDENAS MARKET 15","Address":"16212 Foothill Blvd","City":"Fontana","State":"CA","Zip":"92335"},{"Location":"CARDENAS MARKET 21","Address":"8963 Sierra Ave","City":"Fontana","State":"CA","Zip":"92335"},{"Location":"CARDENAS MARKET 7","Address":"16721 Valley Blvd","City":"Fontana","State":"CA","Zip":"92335"},{"Location":"CARLOS INCOME TAX","Address":"16056 Valley Blvd C","City":"Fontana","State":"CA","Zip":"92335"},{"Location":"CARZONE DEPOT","Address":"8960 Sierra Ave","City":"Fontana","State":"CA","Zip":"92335"},{"Location":"CASA BARRETO","Address":"8574 Kaiser Ave","City":"Fontana","State":"CA","Zip":"92335"},{"Location":"CASA BARRETO RESTAURANT TAQUERIA","Address":"8541 Sierra Ave","City":"Fontana","State":"CA","Zip":"92335"},{"Location":"CASA BARRETO RESTAURANTTAQUERIA","Address":"8541 Sierra Ave","City":"Fontana","State":"CA","Zip":"92335"},{"Location":"CASA JIMENEZ RESTAURANT","Address":"17151 Foothill Blvd B","City":"Fontana","State":"CA","Zip":"92335"},{"Location":"CENTER STAGE THEATER","Address":"8463 Sierra Ave","City":"Fontana","State":"CA","Zip":"92335"},{"Location":"CERTIFIED TIRE","Address":"17067 Foothill Blvd","City":"Fontana","State":"CA","Zip":"92335"},{"Location":"CHEFS COUNTRY CAFE","Address":"17039 Valley Blvd","City":"Fontana","State":"CA","Zip":"92335"},{"Location":"CHERPS COCKTAILS","Address":"8627 Sierra Ave","City":"Fontana","State":"CA","Zip":"92335"},{"Location":"CITY OF FONTANA","Address":"17005 Upland Ave","City":"Fontana","State":"CA","Zip":"92335"},{"Location":"CITY OF FONTANA MILLER FITNESS","Address":"17004 Arrow Blvd","City":"Fontana","State":"CA","Zip":"92335"},{"Location":"CLAUDIA'S BARBER & BEAUTY","Address":"8671 Sierra Ave","City":"Fontana","State":"CA","Zip":"92335"},{"Location":"COMMUNITY BANK","Address":"9699 Sierra Ave","City":"Fontana","State":"CA","Zip":"92335"},{"Location":"CONTINENTAL RADIATORS","Address":"15376 Valley Blvd 1","City":"Fontana","State":"CA","Zip":"92335"},{"Location":"DADDYS SMOKE SHOP","Address":"17264 Foothill Blvd D","City":"Fontana","State":"CA","Zip":"92335"},{"Location":"DAVITA #4005 FONTANA","Address":"16655 Foothill Blvd","City":"Fontana","State":"CA","Zip":"92335"},{"Location":"DEL MAR INC","Address":"17509 Foothill Blvd","City":"Fontana","State":"CA","Zip":"92335"},{"Location":"DIESEL TRUCK INC","Address":"9823 Cherry Ave","City":"Fontana","State":"CA","Zip":"92335"},{"Location":"DISCOTEA LA TAPATIA","Address":"8188 Sierra Ave D","City":"Fontana","State":"CA","Zip":"92335"},{"Location":"DONA TIMOS MEX GRILL","Address":"8836 Sierra Ave","City":"Fontana","State":"CA","Zip":"92335"},{"Location":"DORAL JUVENILE GROUP","Address":"9950 Calabash Ave","City":"Fontana","State":"CA","Zip":"92335"},{"Location":"DWIGHT BERG","Address":"15882 Arrow Blvd","City":"Fontana","State":"CA","Zip":"92335"},{"Location":"ECONOKUBE MEINKE","Address":"9439 Sierra Ave","City":"Fontana","State":"CA","Zip":"92335"},{"Location":"EL CARMEN MEDICAL CLINIC","Address":"16980 Foothill Blvd E","City":"Fontana","State":"CA","Zip":"92335"},{"Location":"EL GALLO GIRO","Address":"10161 Sierra Ave","City":"Fontana","State":"CA","Zip":"92335"},{"Location":"EL TORITO MARKET","Address":"17658 Foothill Blvd","City":"Fontana","State":"CA","Zip":"92335"},{"Location":"EQUIHUA THRIFT STORE","Address":"17389 Arrow Blvd","City":"Fontana","State":"CA","Zip":"92335"},{"Location":"EXEL COMPANY","Address":"9211 Kaiser Way","City":"Fontana","State":"CA","Zip":"92335"},{"Location":"EXTENSIONS HAIR GALLERIA","Address":"14189 Foothill Blvd 104","City":"Fontana","State":"CA","Zip":"92335"},{"Location":"FALKEN TIRE CORPORATION","Address":"13649 Valley Blvd","City":"Fontana","State":"CA","Zip":"92335"},{"Location":"FAMILY DENTAL GUADALUPANA","Address":"16701 Valley Blvd Cd","City":"Fontana","State":"CA","Zip":"92335"},{"Location":"FAST 5 PIZZA","Address":"16385 Merrill Ave B100","City":"Fontana","State":"CA","Zip":"92335"},{"Location":"FLAME BROILER - FONTANA","Address":"8137 Sierra Ave","City":"Fontana","State":"CA","Zip":"92335"},{"Location":"FONTANA AERIE 2561","Address":"17729 Arrow Blvd","City":"Fontana","State":"CA","Zip":"92335"},{"Location":"FONTANA BARBERSHOP","Address":"17080 Foothill Blvd","City":"Fontana","State":"CA","Zip":"92335"},{"Location":"FONTANA CLINICA MEDICA FAMILI","Address":"17695 Arrow Blvd","City":"Fontana","State":"CA","Zip":"92335"},{"Location":"FONTANA COIN LAUNDRY","Address":"9293 Sierra Ave","City":"Fontana","State":"CA","Zip":"92335"},{"Location":"FONTANA MATERNITY FAMILY MEDIC","Address":"8990 Sierra Ave","City":"Fontana","State":"CA","Zip":"92335"},{"Location":"FONTANA PHO","Address":"9820 Sierra Avenue #b","City":"Fontana","State":"CA","Zip":"92335"},{"Location":"FONTANA PHO RESTAURANT","Address":"9820 Sierra Ave B","City":"Fontana","State":"CA","Zip":"92335"},{"Location":"FONTANA RADIATIOR","Address":"17635 Arrow Blvd","City":"Fontana","State":"CA","Zip":"92335"},{"Location":"GEORGES BURGERS","Address":"17510 Foothill Blvd","City":"Fontana","State":"CA","Zip":"92335"},{"Location":"GEORGES SHELL","Address":"9684 Sierra Ave","City":"Fontana","State":"CA","Zip":"92335"},{"Location":"GOLDEN","Address":"17218 Foothill Blvd","City":"Fontana","State":"CA","Zip":"92335"},{"Location":"GOLDEN COAST DENTAL","Address":"15034 Foothill Blvd A","City":"Fontana","State":"CA","Zip":"92335"},{"Location":"GOLDEN SHEAR BARBER SHOP","Address":"9358 Sierra Avenue","City":"Fontana","State":"CA","Zip":"92335"},{"Location":"GOLDEN WEST DENTISTRY","Address":"9922 Sierra Ave","City":"Fontana","State":"CA","Zip":"92335"},{"Location":"GREATWIDE DISTRIBUTION LLC","Address":"9415 Kaiser Way","City":"Fontana","State":"CA","Zip":"92335"},{"Location":"GUS JR","Address":"17095 Foothill Blvd","City":"Fontana","State":"CA","Zip":"92335"},{"Location":"GUZMAN AND ASSOCIATES","Address":"16838 Ivy Ave","City":"Fontana","State":"CA","Zip":"92335"},{"Location":"HAIR AWARE","Address":"10008 Sierra Avenue","City":"Fontana","State":"CA","Zip":"92335"},{"Location":"HAIR AWARE","Address":"10008 Sierra Ave","City":"Fontana","State":"CA","Zip":"92335"},{"Location":"HAWKEYE EQUIPMENT RENTALS","Address":"9440 Resenda Ave","City":"Fontana","State":"CA","Zip":"92335"},{"Location":"HAWKEYE EQUIPMENT RENTALS 3","Address":"14650 Hawthorne Ave","City":"Fontana","State":"CA","Zip":"92335"},{"Location":"HIS AND HERS","Address":"16056 Valley Blvd B","City":"Fontana","State":"CA","Zip":"92335"},{"Location":"HOUSE OF BEAUTY","Address":"16184 Foothill Blvd J","City":"Fontana","State":"CA","Zip":"92335"},{"Location":"INK MY BODY","Address":"17284 Soothill Blvd B","City":"Fontana","State":"CA","Zip":"92335"},{"Location":"INLAND  KENWORTH","Address":"9730 Cherry Ave","City":"Fontana","State":"CA","Zip":"92335"},{"Location":"INLAND BODY AND PAINT","Address":"15445 Valencia Ave","City":"Fontana","State":"CA","Zip":"92335"},{"Location":"INLAND VALLEY TOOL & SUPPLY","Address":"14526 Manzanita Dr","City":"Fontana","State":"CA","Zip":"92335"},{"Location":"JACKS WHOLESALE DIVISION","Address":"14688 El Molino St","City":"Fontana","State":"CA","Zip":"92335"},{"Location":"JALISCO","Address":"8188 Sierra Ave","City":"Fontana","State":"CA","Zip":"92335"},{"Location":"JB BARBER SHOP","Address":"15074 Foothill Blvd C","City":"Fontana","State":"CA","Zip":"92335"},{"Location":"JIFFY LUBE 0539","Address":"8893 Sierra Ave","City":"Fontana","State":"CA","Zip":"92335"},{"Location":"JIMMYS FOOD AND LIQUOR","Address":"16405 Merrill Ave C","City":"Fontana","State":"CA","Zip":"92335"},{"Location":"JUST DO IT FOR LESS","Address":"14976 Foothill Blvd 900","City":"Fontana","State":"CA","Zip":"92335"},{"Location":"KAILE BARBER SHOP","Address":"16106 Ceres Ave 106","City":"Fontana","State":"CA","Zip":"92335"},{"Location":"KAISER PERMANENTE","Address":"9961 Sierra Ave","City":"Fontana","State":"CA","Zip":"92335"},{"Location":"KHUNYAI ASIAN GRILL","Address":"16981 Foothill Blvd H","City":"Fontana","State":"CA","Zip":"92335"},{"Location":"KICKS SPORTS PUB","Address":"16788 Arrow Blvd","City":"Fontana","State":"CA","Zip":"92335"},{"Location":"LA CASCADA","Address":"14832 Valley Blvd","City":"Fontana","State":"CA","Zip":"92335"},{"Location":"LA REYNA MARKET","Address":"16120 Valley Blvd 5","City":"Fontana","State":"CA","Zip":"92335"},{"Location":"LA TRANS WEST TRUCK CTR","Address":"10150 Cherry Ave","City":"Fontana","State":"CA","Zip":"92335"},{"Location":"LAW OFFICES OF RUBEN SALAZAR","Address":"8689 Sierra Ave A","City":"Fontana","State":"CA","Zip":"92335"},{"Location":"LETYS PARTY RENTALS","Address":"14765 Foothill Blvd L","City":"Fontana","State":"CA","Zip":"92335"},{"Location":"LOS ANGELES FREIGHTLINER","Address":"13800 Valley Blvd","City":"Fontana","State":"CA","Zip":"92335"},{"Location":"LOS MOLCAJETES RESTAURANT","Address":"8822 Sierra Ave","City":"Fontana","State":"CA","Zip":"92335"},{"Location":"LPFR 2","Address":"16491 Valley Blvd","City":"Fontana","State":"CA","Zip":"92335"},{"Location":"MARIA C GONZALEZ DDS","Address":"16184 Foothill Blvd K","City":"Fontana","State":"CA","Zip":"92335"},{"Location":"MARIAS WAREHOUSE","Address":"8409 Cherry Ave A","City":"Fontana","State":"CA","Zip":"92335"},{"Location":"MARIO'S PIZZA","Address":"9733 Sierra Ave","City":"Fontana","State":"CA","Zip":"92335"},{"Location":"MARISCOF DEL PACIFICO","Address":"17500 Foothill Blvd A6a","City":"Fontana","State":"CA","Zip":"92335"},{"Location":"MAYERS  INCOME TAX SERVICE","Address":"8456 Citrus Ave","City":"Fontana","State":"CA","Zip":"92335"},{"Location":"MERRILL SMOG","Address":"16600 Merrill Ave","City":"Fontana","State":"CA","Zip":"92335"},{"Location":"MI OFICINA INCOME TAX","Address":"8990 Sierra Ave E","City":"Fontana","State":"CA","Zip":"92335"},{"Location":"MOOSE LODGE EIGHTSIXTHREE","Address":"8463 Nuevo Ave","City":"Fontana","State":"CA","Zip":"92335"},{"Location":"MR JS BURGER","Address":"16471 Foothill Blvd","City":"Fontana","State":"CA","Zip":"92335"},{"Location":"MY NEW YORK PIZZA","Address":"15034 Foothill Blvd","City":"Fontana","State":"CA","Zip":"92335"},{"Location":"NAVARS WHOLESALE","Address":"8181 Sierra Ave B","City":"Fontana","State":"CA","Zip":"92335"},{"Location":"NELLYS BEAUTY SALON","Address":"16120 Valley Blvd 1","City":"Fontana","State":"CA","Zip":"92335"},{"Location":"NEW STYLZ","Address":"17851 Foothill Blvd","City":"Fontana","State":"CA","Zip":"92335"},{"Location":"NEXT LEVEL","Address":"17264 Foothill Blvd G","City":"Fontana","State":"CA","Zip":"92335"},{"Location":"ONTARIO VINEYARD SURGERY","Address":"9961 Sierra Ave","City":"Fontana","State":"CA","Zip":"92335"},{"Location":"ORIGINAL AUTO CENTER","Address":"17855 Foothill Blvd","City":"Fontana","State":"CA","Zip":"92335"},{"Location":"PADILLA TIRE AND AUTO REPAIR","Address":"15808 Foothill Blvd","City":"Fontana","State":"CA","Zip":"92335"},{"Location":"POLLO ALEGRE","Address":"8922 Beech Ave K","City":"Fontana","State":"CA","Zip":"92335"},{"Location":"PUPSERIA EL CHALET","Address":"8689 Sierra Ave C","City":"Fontana","State":"CA","Zip":"92335"},{"Location":"R AND B AUTO CTR INC","Address":"16020 Foothill Blvd","City":"Fontana","State":"CA","Zip":"92335"},{"Location":"RENES TIRE SERVICE","Address":"10007 Cherry Ave","City":"Fontana","State":"CA","Zip":"92335"},{"Location":"RING CONTAINER TECHNOLOGIES","Address":"8275 Almeria Ave","City":"Fontana","State":"CA","Zip":"92335"},{"Location":"RUSH TRUCK LEASING","Address":"9727 Cherry Ave","City":"Fontana","State":"CA","Zip":"92335"},{"Location":"SA RECYLING","Address":"15615 Arrow Blvd","City":"Fontana","State":"CA","Zip":"92335"},{"Location":"SABER FITNESS FONTANA LLC","Address":"10200 Juniper Ave","City":"Fontana","State":"CA","Zip":"92335"},{"Location":"SANCHEZ INK","Address":"14451 Foothill Blvd","City":"Fontana","State":"CA","Zip":"92335"},{"Location":"SELECTRUCKS OF LA","Address":"13750 Valley Blvd","City":"Fontana","State":"CA","Zip":"92335"},{"Location":"SIERRA ANIMAL HOSPITAL","Address":"16736 Arrow Blvd","City":"Fontana","State":"CA","Zip":"92335"},{"Location":"SIERRA FAMILY DENTISTRY","Address":"9870 Sierra Ave B","City":"Fontana","State":"CA","Zip":"92335"},{"Location":"SPEED WAY GRILL","Address":"8922 Beech Ave","City":"Fontana","State":"CA","Zip":"92335"},{"Location":"SPORTS AUTHORITY","Address":"13053 San Bernardino Ave","City":"Fontana","State":"CA","Zip":"92335"},{"Location":"STAY FADED","Address":"17725 Foothill Blvd 100","City":"Fontana","State":"CA","Zip":"92335"},{"Location":"STERLING USA","Address":"14189 Foothill Blvd 103","City":"Fontana","State":"CA","Zip":"92335"},{"Location":"STORAGE","Address":"14959 Valley Blvd","City":"Fontana","State":"CA","Zip":"92335"},{"Location":"TAQUERIA EL PRIMO 2","Address":"16602 Foothill Blvd","City":"Fontana","State":"CA","Zip":"92335"},{"Location":"TAQUERIA LOS PAISANOS","Address":"9097 Sierra Ave","City":"Fontana","State":"CA","Zip":"92335"},{"Location":"TDC FLEET SERVICE","Address":"15376 Valley Blvd","City":"Fontana","State":"CA","Zip":"92335"},{"Location":"TEC OF CALIFORNIA INCORPORATED","Address":"14085 Valley Blvd","City":"Fontana","State":"CA","Zip":"92335"},{"Location":"THAT PLACE","Address":"16405 Merrill Ave A","City":"Fontana","State":"CA","Zip":"92335"},{"Location":"THE JARA MEXICAN FOOD","Address":"10210 Juniper Ave","City":"Fontana","State":"CA","Zip":"92335"},{"Location":"TIJUANA TACOS","Address":"9260 Sierra Ave","City":"Fontana","State":"CA","Zip":"92335"},{"Location":"TORTAS SINALOA II","Address":"9765 Sierra Ave A2","City":"Fontana","State":"CA","Zip":"92335"},{"Location":"TURN N HEADS","Address":"13819 Foothill Blvd","City":"Fontana","State":"CA","Zip":"92335"},{"Location":"US XPRESS","Address":"9813 Almond Ave","City":"Fontana","State":"CA","Zip":"92335"},{"Location":"VILLAGE LAUNDRY","Address":"8262 Sierra Ave","City":"Fontana","State":"CA","Zip":"92335"},{"Location":"VISION COMMUNICATIONS","Address":"14554 Valencia Ave","City":"Fontana","State":"CA","Zip":"92335"},{"Location":"VIVA VILLA FRESH GRILL","Address":"17284 Foothill Blvd F","City":"Fontana","State":"CA","Zip":"92335"},{"Location":"VIVA VILLA TAQUERIA","Address":"9585 Sierra Ave","City":"Fontana","State":"CA","Zip":"92335"},{"Location":"WABA GRILL TERIYAKI","Address":"9870 Sierra Ave D","City":"Fontana","State":"CA","Zip":"92335"},{"Location":"WALLMART FONTANA","Address":"17251 Foothill Blvd","City":"Fontana","State":"CA","Zip":"92335"},{"Location":"WEST LUBE N TUNE UP","Address":"16319 Foothill Blvd","City":"Fontana","State":"CA","Zip":"92335"},{"Location":"WESTERN PACIFIC CRANE","Address":"8600 Calabash Ave","City":"Fontana","State":"CA","Zip":"92335"},{"Location":"ZIGGYS COCKTAIL LOUNGE INC","Address":"8471 Cherry Ave","City":"Fontana","State":"CA","Zip":"92335"}]