[{"Location":"24 HOUR FITNESS #923","Address":"17204 Slover Ave","City":"Fontana","State":"CA","Zip":"92337"},{"Location":"A BETTER WAY REAL ESTATE","Address":"14050 Cherry Ave","City":"Fontana","State":"CA","Zip":"92337"},{"Location":"ACDELCO","Address":"11900 Cabernet Dr","City":"Fontana","State":"CA","Zip":"92337"},{"Location":"ADVANTAGE UNLIMITED","Address":"14388 Santa Ana Ave","City":"Fontana","State":"CA","Zip":"92337"},{"Location":"AEROMARINE LLC","Address":"13052 Dahlia St","City":"Fontana","State":"CA","Zip":"92337"},{"Location":"ALLIED WEST PAPER CORP","Address":"11101 Etiwanda Ave","City":"Fontana","State":"CA","Zip":"92337"},{"Location":"AMERICAN HOTEL REGISTER CO","Address":"11754 Cabernet Dr","City":"Fontana","State":"CA","Zip":"92337"},{"Location":"AMERICAN MEDICAL RESPONSE","Address":"10557 Juniper Ave H2","City":"Fontana","State":"CA","Zip":"92337"},{"Location":"ANDRUS TRANSPORTATION THREE","Address":"15777 Slover Ave","City":"Fontana","State":"CA","Zip":"92337"},{"Location":"APEX BULK COMMODITIES","Address":"14080 Slover Ave","City":"Fontana","State":"CA","Zip":"92337"},{"Location":"AUCTION DETAIL SERVICES","Address":"10750 Hemlock Ave","City":"Fontana","State":"CA","Zip":"92337"},{"Location":"BDI INC.","Address":"17132 Slover Ave","City":"Fontana","State":"CA","Zip":"92337"},{"Location":"BOCKTING TRANSPORTATION","Address":"10905 Hemlock Ave","City":"Fontana","State":"CA","Zip":"92337"},{"Location":"CELADON TRUCKING","Address":"14251 Slover Ave","City":"Fontana","State":"CA","Zip":"92337"},{"Location":"DANIELS ELECTRICAL CONST.","Address":"10881 Business Dr","City":"Fontana","State":"CA","Zip":"92337"},{"Location":"DSM & T COMPANY","Address":"10609 Business Dr","City":"Fontana","State":"CA","Zip":"92337"},{"Location":"EATON","Address":"13201 Dahlia St 300","City":"Fontana","State":"CA","Zip":"92337"},{"Location":"EATON CORPORATION","Address":"13201 Dahlia St","City":"Fontana","State":"CA","Zip":"92337"},{"Location":"EIGHT POINT TRAILER","Address":"14770 Slover Ave","City":"Fontana","State":"CA","Zip":"92337"},{"Location":"EL CHILITOS MEXICAN RESTAURANT","Address":"11251 Sierra Ave C2","City":"Fontana","State":"CA","Zip":"92337"},{"Location":"FEMIE'S CAFE","Address":"10700 Beech Ave","City":"Fontana","State":"CA","Zip":"92337"},{"Location":"FLEET REFINISHING","Address":"15875 Santa Ana Ave","City":"Fontana","State":"CA","Zip":"92337"},{"Location":"FMC 71940000","Address":"10557 Juniper Ave","City":"Fontana","State":"CA","Zip":"92337"},{"Location":"GENTLEMENS BARBER CLUB","Address":"10986 Sierra Avenue%2C Suite 100","City":"Fontana","State":"CA","Zip":"92337"},{"Location":"GENTLEMENS BARBER CLUB","Address":"10986 Sierra Ave Sut10","City":"Fontana","State":"CA","Zip":"92337"},{"Location":"GUPTA DENTAL","Address":"11623 Cherry Ave B2","City":"Fontana","State":"CA","Zip":"92337"},{"Location":"HILTON GARDEN INN FONTANA","Address":"10543 Sierra Ave","City":"Fontana","State":"CA","Zip":"92337"},{"Location":"HOME SHOPPING NETWORK","Address":"13423 Santa Ana Ave","City":"Fontana","State":"CA","Zip":"92337"},{"Location":"HREM INC","Address":"15642 Boyle Ave","City":"Fontana","State":"CA","Zip":"92337"},{"Location":"INTERSTATE DISTRIBUTING CO","Address":"11128 Hemlock Ave","City":"Fontana","State":"CA","Zip":"92337"},{"Location":"JAMES HARDIE BUILDING PRODUCTS","Address":"10901 Elm Ave","City":"Fontana","State":"CA","Zip":"92337"},{"Location":"JAMES HARDIE RESEARCH USA","Address":"10901 Elm Ave","City":"Fontana","State":"CA","Zip":"92337"},{"Location":"KAISER FOUNDATION HEALTH","Address":"17284 Slover Ave","City":"Fontana","State":"CA","Zip":"92337"},{"Location":"KENT H LANDSBERG CO","Address":"13397 Marlay Ave A","City":"Fontana","State":"CA","Zip":"92337"},{"Location":"LACHIQUITA TACOS","Address":"10543 Cherry Ave","City":"Fontana","State":"CA","Zip":"92337"},{"Location":"LEE YOUTH AND FAMILY","Address":"13942 Jurupa Ave","City":"Fontana","State":"CA","Zip":"92337"},{"Location":"LTL EXPRESS","Address":"11081 Cherry Ave","City":"Fontana","State":"CA","Zip":"92337"},{"Location":"MANHEIM SOUTHERN CALIFORNIA","Address":"10700 Beech Ave","City":"Fontana","State":"CA","Zip":"92337"},{"Location":"MCCABE'S QUALITY FOODS","Address":"13250 Philadelphia Ave","City":"Fontana","State":"CA","Zip":"92337"},{"Location":"MIKE BUBALO CONSTRUCTION CO","Address":"14074 Rancho Ct","City":"Fontana","State":"CA","Zip":"92337"},{"Location":"NISAMEX LLC STORE 20154","Address":"10515 Sierra Ave 300","City":"Fontana","State":"CA","Zip":"92337"},{"Location":"ON TRAC - FONTANA","Address":"10746 Commerce Way","City":"Fontana","State":"CA","Zip":"92337"},{"Location":"PACIFIC FORGE INC","Address":"10641 Etiwanda Ave","City":"Fontana","State":"CA","Zip":"92337"},{"Location":"PANCHO VILLA'S #2","Address":"14050 Cherry Ave","City":"Fontana","State":"CA","Zip":"92337"},{"Location":"PERFECT TEN","Address":"10837 Commerce Way","City":"Fontana","State":"CA","Zip":"92337"},{"Location":"ROUND TABLE PIZZA","Address":"11617 Cherry Ave 2","City":"Fontana","State":"CA","Zip":"92337"},{"Location":"RUSH TRUCK CENTER","Address":"14490 Slover Ave","City":"Fontana","State":"CA","Zip":"92337"},{"Location":"SHAKEY'S FONTANA","Address":"16940 Slover Ave 2b","City":"Fontana","State":"CA","Zip":"92337"},{"Location":"SHRIMP HOUSE","Address":"10664 Sierra Ave","City":"Fontana","State":"CA","Zip":"92337"},{"Location":"SOUTH WIRE CO","Address":"11695 Pacific Ave","City":"Fontana","State":"CA","Zip":"92337"},{"Location":"SPECIALIZED WOOD MOLDINGS","Address":"10330 Elm Ave","City":"Fontana","State":"CA","Zip":"92337"},{"Location":"STARLITE","Address":"11225 Mulberry Ave","City":"Fontana","State":"CA","Zip":"92337"},{"Location":"SUBARU OF AMERICA 4","Address":"13083 Slover Ave","City":"Fontana","State":"CA","Zip":"92337"},{"Location":"TECH DATA","Address":"13472 Marlay Ave","City":"Fontana","State":"CA","Zip":"92337"},{"Location":"THE COMPLETE LOGISTICS COMPANY","Address":"13831 Slover Ave","City":"Fontana","State":"CA","Zip":"92337"},{"Location":"THE JARA MEXICAN FOOD","Address":"15092 Slover Ave","City":"Fontana","State":"CA","Zip":"92337"},{"Location":"THE ORIGINAL GOLDEN SHEARS","Address":"17122 Slover Ave%2C Ste K-104","City":"Fontana","State":"CA","Zip":"92337"},{"Location":"THE ORIGINAL GOLDEN SHEARS","Address":"17122 Slover Avenue%2C Suite K-104","City":"Fontana","State":"CA","Zip":"92337"},{"Location":"THE ULTIMATE HAIRCUTS","Address":"14050 Sherry Ave  #f","City":"Fontana","State":"CA","Zip":"92337"},{"Location":"THOMPSON BUILDING MATERIAL","Address":"11027 Cherry Ave","City":"Fontana","State":"CA","Zip":"92337"},{"Location":"TRANSPORT AMERICA INC","Address":"10784 Calabash Ave","City":"Fontana","State":"CA","Zip":"92337"},{"Location":"TRANSPORTATIONS SOLUTIONS","Address":"10887 Commerce Way","City":"Fontana","State":"CA","Zip":"92337"},{"Location":"UNITED FACILITIES","Address":"11618 Mulberry Ave","City":"Fontana","State":"CA","Zip":"92337"},{"Location":"USF BESTWAY","Address":"10661 Etiwanda Ave","City":"Fontana","State":"CA","Zip":"92337"},{"Location":"WALTERS TRUCK REPAIR","Address":"10400 Banana Ave","City":"Fontana","State":"CA","Zip":"92337"},{"Location":"ZIDLIYMILES INC","Address":"14050 Cherry Ave O","City":"Fontana","State":"CA","Zip":"92337"},{"Location":"24 HOUR FITNESS #923","Address":"17204 Slover Ave","City":"Fontana","State":"CA","Zip":"92337"},{"Location":"A BETTER WAY REAL ESTATE","Address":"14050 Cherry Ave","City":"Fontana","State":"CA","Zip":"92337"},{"Location":"ACDELCO","Address":"11900 Cabernet Dr","City":"Fontana","State":"CA","Zip":"92337"},{"Location":"ADVANTAGE UNLIMITED","Address":"14388 Santa Ana Ave","City":"Fontana","State":"CA","Zip":"92337"},{"Location":"AEROMARINE LLC","Address":"13052 Dahlia St","City":"Fontana","State":"CA","Zip":"92337"},{"Location":"ALLIED WEST PAPER CORP","Address":"11101 Etiwanda Ave","City":"Fontana","State":"CA","Zip":"92337"},{"Location":"AMERICAN HOTEL REGISTER CO","Address":"11754 Cabernet Dr","City":"Fontana","State":"CA","Zip":"92337"},{"Location":"AMERICAN MEDICAL RESPONSE","Address":"10557 Juniper Ave H2","City":"Fontana","State":"CA","Zip":"92337"},{"Location":"ANDRUS TRANSPORTATION THREE","Address":"15777 Slover Ave","City":"Fontana","State":"CA","Zip":"92337"},{"Location":"APEX BULK COMMODITIES","Address":"14080 Slover Ave","City":"Fontana","State":"CA","Zip":"92337"},{"Location":"AUCTION DETAIL SERVICES","Address":"10750 Hemlock Ave","City":"Fontana","State":"CA","Zip":"92337"},{"Location":"BDI INC.","Address":"17132 Slover Ave","City":"Fontana","State":"CA","Zip":"92337"},{"Location":"BOCKTING TRANSPORTATION","Address":"10905 Hemlock Ave","City":"Fontana","State":"CA","Zip":"92337"},{"Location":"CELADON TRUCKING","Address":"14251 Slover Ave","City":"Fontana","State":"CA","Zip":"92337"},{"Location":"DANIELS ELECTRICAL CONST.","Address":"10881 Business Dr","City":"Fontana","State":"CA","Zip":"92337"},{"Location":"DSM & T COMPANY","Address":"10609 Business Dr","City":"Fontana","State":"CA","Zip":"92337"},{"Location":"EATON","Address":"13201 Dahlia St 300","City":"Fontana","State":"CA","Zip":"92337"},{"Location":"EATON CORPORATION","Address":"13201 Dahlia St","City":"Fontana","State":"CA","Zip":"92337"},{"Location":"EIGHT POINT TRAILER","Address":"14770 Slover Ave","City":"Fontana","State":"CA","Zip":"92337"},{"Location":"EL CHILITOS MEXICAN RESTAURANT","Address":"11251 Sierra Ave C2","City":"Fontana","State":"CA","Zip":"92337"},{"Location":"FEMIE'S CAFE","Address":"10700 Beech Ave","City":"Fontana","State":"CA","Zip":"92337"},{"Location":"FLEET REFINISHING","Address":"15875 Santa Ana Ave","City":"Fontana","State":"CA","Zip":"92337"},{"Location":"FMC 71940000","Address":"10557 Juniper Ave","City":"Fontana","State":"CA","Zip":"92337"},{"Location":"GENTLEMENS BARBER CLUB","Address":"10986 Sierra Ave Sut10","City":"Fontana","State":"CA","Zip":"92337"},{"Location":"GENTLEMENS BARBER CLUB","Address":"10986 Sierra Avenue%2C Suite 100","City":"Fontana","State":"CA","Zip":"92337"},{"Location":"GUPTA DENTAL","Address":"11623 Cherry Ave B2","City":"Fontana","State":"CA","Zip":"92337"},{"Location":"HILTON GARDEN INN FONTANA","Address":"10543 Sierra Ave","City":"Fontana","State":"CA","Zip":"92337"},{"Location":"HOME SHOPPING NETWORK","Address":"13423 Santa Ana Ave","City":"Fontana","State":"CA","Zip":"92337"},{"Location":"HREM INC","Address":"15642 Boyle Ave","City":"Fontana","State":"CA","Zip":"92337"},{"Location":"INTERSTATE DISTRIBUTING CO","Address":"11128 Hemlock Ave","City":"Fontana","State":"CA","Zip":"92337"},{"Location":"JAMES HARDIE BUILDING PRODUCTS","Address":"10901 Elm Ave","City":"Fontana","State":"CA","Zip":"92337"},{"Location":"JAMES HARDIE RESEARCH USA","Address":"10901 Elm Ave","City":"Fontana","State":"CA","Zip":"92337"},{"Location":"KAISER FOUNDATION HEALTH","Address":"17284 Slover Ave","City":"Fontana","State":"CA","Zip":"92337"},{"Location":"KENT H LANDSBERG CO","Address":"13397 Marlay Ave A","City":"Fontana","State":"CA","Zip":"92337"},{"Location":"LACHIQUITA TACOS","Address":"10543 Cherry Ave","City":"Fontana","State":"CA","Zip":"92337"},{"Location":"LEE YOUTH AND FAMILY","Address":"13942 Jurupa Ave","City":"Fontana","State":"CA","Zip":"92337"},{"Location":"LTL EXPRESS","Address":"11081 Cherry Ave","City":"Fontana","State":"CA","Zip":"92337"},{"Location":"MANHEIM SOUTHERN CALIFORNIA","Address":"10700 Beech Ave","City":"Fontana","State":"CA","Zip":"92337"},{"Location":"MCCABE'S QUALITY FOODS","Address":"13250 Philadelphia Ave","City":"Fontana","State":"CA","Zip":"92337"},{"Location":"MIKE BUBALO CONSTRUCTION CO","Address":"14074 Rancho Ct","City":"Fontana","State":"CA","Zip":"92337"},{"Location":"NISAMEX LLC STORE 20154","Address":"10515 Sierra Ave 300","City":"Fontana","State":"CA","Zip":"92337"},{"Location":"ON TRAC - FONTANA","Address":"10746 Commerce Way","City":"Fontana","State":"CA","Zip":"92337"},{"Location":"PACIFIC FORGE INC","Address":"10641 Etiwanda Ave","City":"Fontana","State":"CA","Zip":"92337"},{"Location":"PANCHO VILLA'S #2","Address":"14050 Cherry Ave","City":"Fontana","State":"CA","Zip":"92337"},{"Location":"PERFECT TEN","Address":"10837 Commerce Way","City":"Fontana","State":"CA","Zip":"92337"},{"Location":"ROUND TABLE PIZZA","Address":"11617 Cherry Ave 2","City":"Fontana","State":"CA","Zip":"92337"},{"Location":"RUSH TRUCK CENTER","Address":"14490 Slover Ave","City":"Fontana","State":"CA","Zip":"92337"},{"Location":"SHAKEY'S FONTANA","Address":"16940 Slover Ave 2b","City":"Fontana","State":"CA","Zip":"92337"},{"Location":"SHRIMP HOUSE","Address":"10664 Sierra Ave","City":"Fontana","State":"CA","Zip":"92337"},{"Location":"SOUTH WIRE CO","Address":"11695 Pacific Ave","City":"Fontana","State":"CA","Zip":"92337"},{"Location":"SPECIALIZED WOOD MOLDINGS","Address":"10330 Elm Ave","City":"Fontana","State":"CA","Zip":"92337"},{"Location":"STARLITE","Address":"11225 Mulberry Ave","City":"Fontana","State":"CA","Zip":"92337"},{"Location":"SUBARU OF AMERICA 4","Address":"13083 Slover Ave","City":"Fontana","State":"CA","Zip":"92337"},{"Location":"TECH DATA","Address":"13472 Marlay Ave","City":"Fontana","State":"CA","Zip":"92337"},{"Location":"THE COMPLETE LOGISTICS COMPANY","Address":"13831 Slover Ave","City":"Fontana","State":"CA","Zip":"92337"},{"Location":"THE JARA MEXICAN FOOD","Address":"15092 Slover Ave","City":"Fontana","State":"CA","Zip":"92337"},{"Location":"THE ORIGINAL GOLDEN SHEARS","Address":"17122 Slover Avenue%2C Suite K-104","City":"Fontana","State":"CA","Zip":"92337"},{"Location":"The Original Golden Shears","Address":"17122 Slover Ave%2C Ste K-104","City":"Fontana","State":"CA","Zip":"92337"},{"Location":"THE ULTIMATE HAIRCUTS","Address":"14050 Sherry Ave  #f","City":"Fontana","State":"CA","Zip":"92337"},{"Location":"THOMPSON BUILDING MATERIAL","Address":"11027 Cherry Ave","City":"Fontana","State":"CA","Zip":"92337"},{"Location":"TRANSPORT AMERICA INC","Address":"10784 Calabash Ave","City":"Fontana","State":"CA","Zip":"92337"},{"Location":"TRANSPORTATIONS SOLUTIONS","Address":"10887 Commerce Way","City":"Fontana","State":"CA","Zip":"92337"},{"Location":"UNITED FACILITIES","Address":"11618 Mulberry Ave","City":"Fontana","State":"CA","Zip":"92337"},{"Location":"USF BESTWAY","Address":"10661 Etiwanda Ave","City":"Fontana","State":"CA","Zip":"92337"},{"Location":"WALTERS TRUCK REPAIR","Address":"10400 Banana Ave","City":"Fontana","State":"CA","Zip":"92337"},{"Location":"ZIDLIYMILES INC","Address":"14050 Cherry Ave O","City":"Fontana","State":"CA","Zip":"92337"}]