[{"Location":"5 STAR NAIL AND SPA","Address":"12721 Main St","City":"Hesperia","State":"CA","Zip":"92345"},{"Location":"A STAR TIRE","Address":"11126 I Ave 1","City":"Hesperia","State":"CA","Zip":"92345"},{"Location":"A-1 GRILL TERIYAKI ROLLS","Address":"15061 Bear Valley Rd","City":"Hesperia","State":"CA","Zip":"92345"},{"Location":"A-TECH TRANSMISSION","Address":"10675 Hesperia Rd","City":"Hesperia","State":"CA","Zip":"92345"},{"Location":"A1 PORTABLES","Address":"17491 Lilac St","City":"Hesperia","State":"CA","Zip":"92345"},{"Location":"ABUNDANT L FAMILY CHURCH A","Address":"17555 Mauna Loa St","City":"Hesperia","State":"CA","Zip":"92345"},{"Location":"ABUNDANT L FAMILY CHURCH B","Address":"17555 Mauna Loa St","City":"Hesperia","State":"CA","Zip":"92345"},{"Location":"ADULT AND CAREER ED CENTER","Address":"16527 Lemon St","City":"Hesperia","State":"CA","Zip":"92345"},{"Location":"ADULT CAREER ED CENTER MAINT","Address":"11107 Santa Fe Ave E","City":"Hesperia","State":"CA","Zip":"92345"},{"Location":"ADVANCED MOBILE AUTO REPAIR","Address":"10825 G Ave","City":"Hesperia","State":"CA","Zip":"92345"},{"Location":"AIR","Address":"7070 Summit Valley Rd","City":"Hesperia","State":"CA","Zip":"92345"},{"Location":"ALL MEDICAL SUPPLIES","Address":"16225 Walnut St 2","City":"Hesperia","State":"CA","Zip":"92345"},{"Location":"APEX BULK COMMODITIES INC","Address":"11741 Santa Fe Ave E","City":"Hesperia","State":"CA","Zip":"92345"},{"Location":"APPEARANCE QUALITY HOME","Address":"10752 Oakwood Ave","City":"Hesperia","State":"CA","Zip":"92345"},{"Location":"BEEF O'BRADY'S #546","Address":"12728 Main St","City":"Hesperia","State":"CA","Zip":"92345"},{"Location":"BRAKE MASTERS 1","Address":"16893 Main St","City":"Hesperia","State":"CA","Zip":"92345"},{"Location":"BROADWAY RADIATOR","Address":"16788 Smoketree St A","City":"Hesperia","State":"CA","Zip":"92345"},{"Location":"CALIFORNIA SOUND","Address":"14665 Bear Valley Rd","City":"Hesperia","State":"CA","Zip":"92345"},{"Location":"CAR AUDIO XPRESS","Address":"14747 Bear Valley Rd","City":"Hesperia","State":"CA","Zip":"92345"},{"Location":"CARDEAS MARKET 19","Address":"15555 Main St","City":"Hesperia","State":"CA","Zip":"92345"},{"Location":"CAREMORE MEDICAL LLC","Address":"17083 Main St","City":"Hesperia","State":"CA","Zip":"92345"},{"Location":"CASEYS TIRE","Address":"17395 Darwin Ave","City":"Hesperia","State":"CA","Zip":"92345"},{"Location":"CHINA PALACE RESTAURANT","Address":"15555 Main St F","City":"Hesperia","State":"CA","Zip":"92345"},{"Location":"CITORI INC","Address":"15963 Main St","City":"Hesperia","State":"CA","Zip":"92345"},{"Location":"CITY DENTAL CARE","Address":"15555 Main St C3","City":"Hesperia","State":"CA","Zip":"92345"},{"Location":"COLLISION CRAFT AUTO BODY","Address":"10891 E Ave","City":"Hesperia","State":"CA","Zip":"92345"},{"Location":"CONCORD AUTOMOTIVE","Address":"15162 Main St B","City":"Hesperia","State":"CA","Zip":"92345"},{"Location":"COREWORLD","Address":"17320 Eucalyptus St C4","City":"Hesperia","State":"CA","Zip":"92345"},{"Location":"CORRAL FAMILY RESTRAUNT","Address":"15550 Main St 14","City":"Hesperia","State":"CA","Zip":"92345"},{"Location":"COTTONWOOD STATION","Address":"20575 Us Highway 138","City":"Hesperia","State":"CA","Zip":"92345"},{"Location":"DAVES AUTOMOTIVE REPAIR","Address":"15940 Walnut St","City":"Hesperia","State":"CA","Zip":"92345"},{"Location":"DAVI NAILS 4340","Address":"13401 Main St","City":"Hesperia","State":"CA","Zip":"92345"},{"Location":"DAVITA #2278 HESPERIA","Address":"14135 Main St 501","City":"Hesperia","State":"CA","Zip":"92345"},{"Location":"DELS DISTRIBUTING COMPAN","Address":"11794 Mariposa Road","City":"Hesperia","State":"CA","Zip":"92345"},{"Location":"DIS & DAT SOUL FOOD  MORE","Address":"14747 Bear Valley Rd","City":"Hesperia","State":"CA","Zip":"92345"},{"Location":"DREAMCARS ENTERPRISES","Address":"16675 Walnut St A","City":"Hesperia","State":"CA","Zip":"92345"},{"Location":"DUNN RITE DRIVING TRAFFIC","Address":"14312 Main St","City":"Hesperia","State":"CA","Zip":"92345"},{"Location":"EL TORITO","Address":"12027 Hesperia Rd K","City":"Hesperia","State":"CA","Zip":"92345"},{"Location":"EPIC HAIR SALON & BARBER","Address":"16061 Bear Valley Road Suite 5","City":"Hesperia","State":"CA","Zip":"92345"},{"Location":"EPIC HAIR SALON & BARBER","Address":"16061 Bear Valley Road","City":"Hesperia","State":"CA","Zip":"92345"},{"Location":"EPIC HAIR SALON AND BARBER","Address":"16061 Bear Valley Rd 5","City":"Hesperia","State":"CA","Zip":"92345"},{"Location":"EXECUTIVE IMAGE HESPERIA","Address":"16057 Main St","City":"Hesperia","State":"CA","Zip":"92345"},{"Location":"FAMILY HAIRCUTS","Address":"9892 I Ave","City":"Hesperia","State":"CA","Zip":"92345"},{"Location":"FASHION NAILS SPA PEDICU","Address":"15747 Main St","City":"Hesperia","State":"CA","Zip":"92345"},{"Location":"FINAS-GIUSEPPES","Address":"15555 Main St","City":"Hesperia","State":"CA","Zip":"92345"},{"Location":"FIRESTONE #028541","Address":"17320 Main St","City":"Hesperia","State":"CA","Zip":"92345"},{"Location":"FIRESTONE TIRES","Address":"14737 Bear Valley Rd","City":"Hesperia","State":"CA","Zip":"92345"},{"Location":"FITNESS 19 HESPERIA","Address":"15555 Main St","City":"Hesperia","State":"CA","Zip":"92345"},{"Location":"FLORAL CREATIONS BY GINA","Address":"17189 Bear Valley Rd 100","City":"Hesperia","State":"CA","Zip":"92345"},{"Location":"GATORS SPORTS BAR","Address":"15918 Walnut St","City":"Hesperia","State":"CA","Zip":"92345"},{"Location":"GENTLE DENTAL","Address":"16455 Main St","City":"Hesperia","State":"CA","Zip":"92345"},{"Location":"GIBBS PIZZA LLC","Address":"17003 Bear Valley Rd C","City":"Hesperia","State":"CA","Zip":"92345"},{"Location":"GOLDEN NAIL & SPA","Address":"16061 Bear Valley Rd 6","City":"Hesperia","State":"CA","Zip":"92345"},{"Location":"GOT SPORTS","Address":"11146 Hesperia Rd 205","City":"Hesperia","State":"CA","Zip":"92345"},{"Location":"H D R C INDOOR RACEWAYS","Address":"17205 Eucalyptus St A1","City":"Hesperia","State":"CA","Zip":"92345"},{"Location":"HAIR CUTS & COLORS","Address":"9648 9th Ave 7","City":"Hesperia","State":"CA","Zip":"92345"},{"Location":"HARRELLS BARBEQUE","Address":"17146 Main St","City":"Hesperia","State":"CA","Zip":"92345"},{"Location":"HESPERIA CHEVRON","Address":"15933 Main St","City":"Hesperia","State":"CA","Zip":"92345"},{"Location":"HESPERIA CLINICA MEDICA","Address":"15888 Main St 112b","City":"Hesperia","State":"CA","Zip":"92345"},{"Location":"HESPERIA COUNTRY CLUB INN 1","Address":"17990 Bangor Ave","City":"Hesperia","State":"CA","Zip":"92345"},{"Location":"HESPERIA COUNTRY CLUB INN 2","Address":"17990 Bangor Ave","City":"Hesperia","State":"CA","Zip":"92345"},{"Location":"HESPERIA POLICE DEPT","Address":"15840 Smoketree St","City":"Hesperia","State":"CA","Zip":"92345"},{"Location":"HESPERIA TAQUERIA","Address":"17014 Smoketree St","City":"Hesperia","State":"CA","Zip":"92345"},{"Location":"HESPERIA TRANSMISSION","Address":"9461 E Ave","City":"Hesperia","State":"CA","Zip":"92345"},{"Location":"HESPERIA VETENARY SERVICE","Address":"11011 Santa Fe Ave E","City":"Hesperia","State":"CA","Zip":"92345"},{"Location":"HI-TEK NAILS","Address":"14466 Main St 105","City":"Hesperia","State":"CA","Zip":"92345"},{"Location":"HIGH DESERT POSTAL AND MOREE","Address":"17133 Main St","City":"Hesperia","State":"CA","Zip":"92345"},{"Location":"HIGH DESERT TRUCK AND TRAILER","Address":"8995 Threeflags Ave","City":"Hesperia","State":"CA","Zip":"92345"},{"Location":"HINTIN AND JOHNNY COLLECTIBLES","Address":"11650 I Ave","City":"Hesperia","State":"CA","Zip":"92345"},{"Location":"HOLE IN ONE DONUTS","Address":"14665 Bear Valley Rd A","City":"Hesperia","State":"CA","Zip":"92345"},{"Location":"HOUGH PRECIOUS METALS","Address":"16816 Main St D","City":"Hesperia","State":"CA","Zip":"92345"},{"Location":"ILINK BUSINESS MGT","Address":"9648 9th Ave 10","City":"Hesperia","State":"CA","Zip":"92345"},{"Location":"JIFFY LUBE 2968","Address":"16701 Main St","City":"Hesperia","State":"CA","Zip":"92345"},{"Location":"JIFFY LUBE 2969","Address":"17177 Bear Valley Rd","City":"Hesperia","State":"CA","Zip":"92345"},{"Location":"JIMENEZ RADIATOR & TIRES","Address":"16093 Main St","City":"Hesperia","State":"CA","Zip":"92345"},{"Location":"JOSHUA INN","Address":"6224 Arrowhead Lake Rd","City":"Hesperia","State":"CA","Zip":"92345"},{"Location":"JULIOUS CELLULAR INC","Address":"15555 Main St A5","City":"Hesperia","State":"CA","Zip":"92345"},{"Location":"KING OF CUTS BARBERSHOP","Address":"15928 Main St 100","City":"Hesperia","State":"CA","Zip":"92345"},{"Location":"KMART","Address":"16968 Main St","City":"Hesperia","State":"CA","Zip":"92345"},{"Location":"LA CASITA CAFE","Address":"17289 Main St","City":"Hesperia","State":"CA","Zip":"92345"},{"Location":"LA FLOR BLANCA DE SANCHEZ","Address":"15055 Bear Valley Rd","City":"Hesperia","State":"CA","Zip":"92345"},{"Location":"LOPEZ PARTY SUPPLIES","Address":"15555 Main St A3","City":"Hesperia","State":"CA","Zip":"92345"},{"Location":"LOUSIANA CAJUN SEAFOOD","Address":"14466 Main St 103","City":"Hesperia","State":"CA","Zip":"92345"},{"Location":"LOVE HESPERIA","Address":"12719 Main St 400","City":"Hesperia","State":"CA","Zip":"92345"},{"Location":"MAGIC AUTO SALES","Address":"14721 Main St 2","City":"Hesperia","State":"CA","Zip":"92345"},{"Location":"MAIN STREET PUB","Address":"17122 Main St","City":"Hesperia","State":"CA","Zip":"92345"},{"Location":"MARTINEZ MEATS%2FTAQUERIA","Address":"16069 Main St","City":"Hesperia","State":"CA","Zip":"92345"},{"Location":"MAYOLAS SOUL FOOD","Address":"14747 Bear Valley Rd Ste6","City":"Hesperia","State":"CA","Zip":"92345"},{"Location":"MEDRANOS PAVING CO","Address":"16950 Smoketree St","City":"Hesperia","State":"CA","Zip":"92345"},{"Location":"MISORA SUSHI","Address":"14073 Main St 109","City":"Hesperia","State":"CA","Zip":"92345"},{"Location":"MONICAS TACOS","Address":"11430 I Ave","City":"Hesperia","State":"CA","Zip":"92345"},{"Location":"MONICAS TACOS","Address":"8104 I Ave","City":"Hesperia","State":"CA","Zip":"92345"},{"Location":"MY BEST NAILS","Address":"15664 Main St 160","City":"Hesperia","State":"CA","Zip":"92345"},{"Location":"NAIL BY ORIENTAL","Address":"15555 Main St A12","City":"Hesperia","State":"CA","Zip":"92345"},{"Location":"NEW LOOK BEAUTY SALON","Address":"16967 Main St 103","City":"Hesperia","State":"CA","Zip":"92345"},{"Location":"NEWBYS BARBER SHOP","Address":"16294 Main St","City":"Hesperia","State":"CA","Zip":"92345"},{"Location":"NEWSTEP FLOORING","Address":"16190 Main St","City":"Hesperia","State":"CA","Zip":"92345"},{"Location":"PACIFIC DENTAL #61","Address":"16868 Main St","City":"Hesperia","State":"CA","Zip":"92345"},{"Location":"PARADISE HOOKAB LOUNGE","Address":"14466 Main St 104","City":"Hesperia","State":"CA","Zip":"92345"},{"Location":"PARIS NAILS","Address":"17356 Main St","City":"Hesperia","State":"CA","Zip":"92345"},{"Location":"PASCOS PIZZA","Address":"17348 Main St","City":"Hesperia","State":"CA","Zip":"92345"},{"Location":"PIZZA FACTORY HESPERIA","Address":"14135 Main St 101","City":"Hesperia","State":"CA","Zip":"92345"},{"Location":"POST 2924","Address":"10184 Hesperia Rd","City":"Hesperia","State":"CA","Zip":"92345"},{"Location":"RANGE RV","Address":"11626 Mariposa Rd","City":"Hesperia","State":"CA","Zip":"92345"},{"Location":"RUDYS BODYSHOP","Address":"11098 I Ave D","City":"Hesperia","State":"CA","Zip":"92345"},{"Location":"SAFETY CARE TRANSPORTATION INC","Address":"10180 I Ave C","City":"Hesperia","State":"CA","Zip":"92345"},{"Location":"SAN BERNARDINO COUNTY ADMIN","Address":"15900 Smoketree St","City":"Hesperia","State":"CA","Zip":"92345"},{"Location":"SIGNATURE%2C 2 AUTO COLLISION","Address":"10180 E Ave","City":"Hesperia","State":"CA","Zip":"92345"},{"Location":"SILVER WOOD SUSHI & GRIL","Address":"13910 State Highway 138","City":"Hesperia","State":"CA","Zip":"92345"},{"Location":"SKY NAILS","Address":"14073 Main St 102","City":"Hesperia","State":"CA","Zip":"92345"},{"Location":"SUN SPA","Address":"9648 9th Ave 8","City":"Hesperia","State":"CA","Zip":"92345"},{"Location":"SUPERIOR QUALITY INSURANCE AGE","Address":"11910 Hesperia Rd","City":"Hesperia","State":"CA","Zip":"92345"},{"Location":"TARGET #2468","Address":"12795 Main St","City":"Hesperia","State":"CA","Zip":"92345"},{"Location":"US BANK","Address":"14075 Main St","City":"Hesperia","State":"CA","Zip":"92345"},{"Location":"VAPE TOWN","Address":"12055 Mariposa Rd G","City":"Hesperia","State":"CA","Zip":"92345"},{"Location":"VENUS ARO","Address":"17273 Main St","City":"Hesperia","State":"CA","Zip":"92345"},{"Location":"VICTOR VALLEY MOOSE LODGE","Address":"10230 E Ave","City":"Hesperia","State":"CA","Zip":"92345"},{"Location":"VOCATIONAL IMPROVEMENT P","Address":"17292 Eucalyptus St","City":"Hesperia","State":"CA","Zip":"92345"},{"Location":"WHISKEY BARREL","Address":"12055 Mariposa Rd 2","City":"Hesperia","State":"CA","Zip":"92345"},{"Location":"WILLOW OAKS PARK LLC","Address":"12550 Main St","City":"Hesperia","State":"CA","Zip":"92345"},{"Location":"WINGSTOP #725","Address":"13259 Main St","City":"Hesperia","State":"CA","Zip":"92345"},{"Location":"YOSHIS JAPANESE CUISINE","Address":"17005 Bear Valley Rd B","City":"Hesperia","State":"CA","Zip":"92345"},{"Location":"5 STAR NAIL AND SPA","Address":"12721 Main St","City":"Hesperia","State":"CA","Zip":"92345"},{"Location":"A STAR TIRE","Address":"11126 I Ave 1","City":"Hesperia","State":"CA","Zip":"92345"},{"Location":"A-1 GRILL TERIYAKI ROLLS","Address":"15061 Bear Valley Rd","City":"Hesperia","State":"CA","Zip":"92345"},{"Location":"A-TECH TRANSMISSION","Address":"10675 Hesperia Rd","City":"Hesperia","State":"CA","Zip":"92345"},{"Location":"A1 PORTABLES","Address":"17491 Lilac St","City":"Hesperia","State":"CA","Zip":"92345"},{"Location":"ABUNDANT L FAMILY CHURCH A","Address":"17555 Mauna Loa St","City":"Hesperia","State":"CA","Zip":"92345"},{"Location":"ABUNDANT L FAMILY CHURCH B","Address":"17555 Mauna Loa St","City":"Hesperia","State":"CA","Zip":"92345"},{"Location":"ADULT AND CAREER ED CENTER","Address":"16527 Lemon St","City":"Hesperia","State":"CA","Zip":"92345"},{"Location":"ADULT CAREER ED CENTER MAINT","Address":"11107 Santa Fe Ave E","City":"Hesperia","State":"CA","Zip":"92345"},{"Location":"ADVANCED MOBILE AUTO REPAIR","Address":"10825 G Ave","City":"Hesperia","State":"CA","Zip":"92345"},{"Location":"AIR","Address":"7070 Summit Valley Rd","City":"Hesperia","State":"CA","Zip":"92345"},{"Location":"ALL MEDICAL SUPPLIES","Address":"16225 Walnut St 2","City":"Hesperia","State":"CA","Zip":"92345"},{"Location":"APEX BULK COMMODITIES INC","Address":"11741 Santa Fe Ave E","City":"Hesperia","State":"CA","Zip":"92345"},{"Location":"APPEARANCE QUALITY HOME","Address":"10752 Oakwood Ave","City":"Hesperia","State":"CA","Zip":"92345"},{"Location":"BEEF O'BRADY'S #546","Address":"12728 Main St","City":"Hesperia","State":"CA","Zip":"92345"},{"Location":"BRAKE MASTERS 1","Address":"16893 Main St","City":"Hesperia","State":"CA","Zip":"92345"},{"Location":"BROADWAY RADIATOR","Address":"16788 Smoketree St A","City":"Hesperia","State":"CA","Zip":"92345"},{"Location":"CALIFORNIA SOUND","Address":"14665 Bear Valley Rd","City":"Hesperia","State":"CA","Zip":"92345"},{"Location":"CAR AUDIO XPRESS","Address":"14747 Bear Valley Rd","City":"Hesperia","State":"CA","Zip":"92345"},{"Location":"CARDEAS MARKET 19","Address":"15555 Main St","City":"Hesperia","State":"CA","Zip":"92345"},{"Location":"CAREMORE MEDICAL LLC","Address":"17083 Main St","City":"Hesperia","State":"CA","Zip":"92345"},{"Location":"CASEYS TIRE","Address":"17395 Darwin Ave","City":"Hesperia","State":"CA","Zip":"92345"},{"Location":"CHINA PALACE RESTAURANT","Address":"15555 Main St F","City":"Hesperia","State":"CA","Zip":"92345"},{"Location":"CITORI INC","Address":"15963 Main St","City":"Hesperia","State":"CA","Zip":"92345"},{"Location":"CITY DENTAL CARE","Address":"15555 Main St C3","City":"Hesperia","State":"CA","Zip":"92345"},{"Location":"COLLISION CRAFT AUTO BODY","Address":"10891 E Ave","City":"Hesperia","State":"CA","Zip":"92345"},{"Location":"CONCORD AUTOMOTIVE","Address":"15162 Main St B","City":"Hesperia","State":"CA","Zip":"92345"},{"Location":"COREWORLD","Address":"17320 Eucalyptus St C4","City":"Hesperia","State":"CA","Zip":"92345"},{"Location":"CORRAL FAMILY RESTRAUNT","Address":"15550 Main St 14","City":"Hesperia","State":"CA","Zip":"92345"},{"Location":"COTTONWOOD STATION","Address":"20575 Us Highway 138","City":"Hesperia","State":"CA","Zip":"92345"},{"Location":"DAVES AUTOMOTIVE REPAIR","Address":"15940 Walnut St","City":"Hesperia","State":"CA","Zip":"92345"},{"Location":"DAVI NAILS 4340","Address":"13401 Main St","City":"Hesperia","State":"CA","Zip":"92345"},{"Location":"DAVITA #2278 HESPERIA","Address":"14135 Main St 501","City":"Hesperia","State":"CA","Zip":"92345"},{"Location":"DELS DISTRIBUTING COMPAN","Address":"11794 Mariposa Road","City":"Hesperia","State":"CA","Zip":"92345"},{"Location":"DIS & DAT SOUL FOOD  MORE","Address":"14747 Bear Valley Rd","City":"Hesperia","State":"CA","Zip":"92345"},{"Location":"DREAMCARS ENTERPRISES","Address":"16675 Walnut St A","City":"Hesperia","State":"CA","Zip":"92345"},{"Location":"DUNN RITE DRIVING TRAFFIC","Address":"14312 Main St","City":"Hesperia","State":"CA","Zip":"92345"},{"Location":"EL TORITO","Address":"12027 Hesperia Rd K","City":"Hesperia","State":"CA","Zip":"92345"},{"Location":"Epic Hair Salon & Barber","Address":"16061 Bear Valley Road Suite 5","City":"Hesperia","State":"CA","Zip":"92345"},{"Location":"EPIC HAIR SALON & BARBER","Address":"16061 Bear Valley Road","City":"Hesperia","State":"CA","Zip":"92345"},{"Location":"EPIC HAIR SALON AND BARBER","Address":"16061 Bear Valley Rd 5","City":"Hesperia","State":"CA","Zip":"92345"},{"Location":"EXECUTIVE IMAGE HESPERIA","Address":"16057 Main St","City":"Hesperia","State":"CA","Zip":"92345"},{"Location":"FAMILY HAIRCUTS","Address":"9892 I Ave","City":"Hesperia","State":"CA","Zip":"92345"},{"Location":"FASHION NAILS SPA PEDICU","Address":"15747 Main St","City":"Hesperia","State":"CA","Zip":"92345"},{"Location":"FINAS-GIUSEPPES","Address":"15555 Main St","City":"Hesperia","State":"CA","Zip":"92345"},{"Location":"FIRESTONE #028541","Address":"17320 Main St","City":"Hesperia","State":"CA","Zip":"92345"},{"Location":"FIRESTONE TIRES","Address":"14737 Bear Valley Rd","City":"Hesperia","State":"CA","Zip":"92345"},{"Location":"FITNESS 19 HESPERIA","Address":"15555 Main St","City":"Hesperia","State":"CA","Zip":"92345"},{"Location":"FLORAL CREATIONS BY GINA","Address":"17189 Bear Valley Rd 100","City":"Hesperia","State":"CA","Zip":"92345"},{"Location":"GATORS SPORTS BAR","Address":"15918 Walnut St","City":"Hesperia","State":"CA","Zip":"92345"},{"Location":"GENTLE DENTAL","Address":"16455 Main St","City":"Hesperia","State":"CA","Zip":"92345"},{"Location":"GIBBS PIZZA LLC","Address":"17003 Bear Valley Rd C","City":"Hesperia","State":"CA","Zip":"92345"},{"Location":"GOLDEN NAIL & SPA","Address":"16061 Bear Valley Rd 6","City":"Hesperia","State":"CA","Zip":"92345"},{"Location":"GOT SPORTS","Address":"11146 Hesperia Rd 205","City":"Hesperia","State":"CA","Zip":"92345"},{"Location":"H D R C INDOOR RACEWAYS","Address":"17205 Eucalyptus St A1","City":"Hesperia","State":"CA","Zip":"92345"},{"Location":"HAIR CUTS & COLORS","Address":"9648 9th Ave 7","City":"Hesperia","State":"CA","Zip":"92345"},{"Location":"HARRELLS BARBEQUE","Address":"17146 Main St","City":"Hesperia","State":"CA","Zip":"92345"},{"Location":"HESPERIA CHEVRON","Address":"15933 Main St","City":"Hesperia","State":"CA","Zip":"92345"},{"Location":"HESPERIA CLINICA MEDICA","Address":"15888 Main St 112b","City":"Hesperia","State":"CA","Zip":"92345"},{"Location":"HESPERIA COUNTRY CLUB INN 1","Address":"17990 Bangor Ave","City":"Hesperia","State":"CA","Zip":"92345"},{"Location":"HESPERIA COUNTRY CLUB INN 2","Address":"17990 Bangor Ave","City":"Hesperia","State":"CA","Zip":"92345"},{"Location":"HESPERIA POLICE DEPT","Address":"15840 Smoketree St","City":"Hesperia","State":"CA","Zip":"92345"},{"Location":"HESPERIA TAQUERIA","Address":"17014 Smoketree St","City":"Hesperia","State":"CA","Zip":"92345"},{"Location":"HESPERIA TRANSMISSION","Address":"9461 E Ave","City":"Hesperia","State":"CA","Zip":"92345"},{"Location":"HESPERIA VETENARY SERVICE","Address":"11011 Santa Fe Ave E","City":"Hesperia","State":"CA","Zip":"92345"},{"Location":"HI-TEK NAILS","Address":"14466 Main St 105","City":"Hesperia","State":"CA","Zip":"92345"},{"Location":"HIGH DESERT POSTAL AND MOREE","Address":"17133 Main St","City":"Hesperia","State":"CA","Zip":"92345"},{"Location":"HIGH DESERT TRUCK AND TRAILER","Address":"8995 Threeflags Ave","City":"Hesperia","State":"CA","Zip":"92345"},{"Location":"HINTIN AND JOHNNY COLLECTIBLES","Address":"11650 I Ave","City":"Hesperia","State":"CA","Zip":"92345"},{"Location":"HOLE IN ONE DONUTS","Address":"14665 Bear Valley Rd A","City":"Hesperia","State":"CA","Zip":"92345"},{"Location":"HOUGH PRECIOUS METALS","Address":"16816 Main St D","City":"Hesperia","State":"CA","Zip":"92345"},{"Location":"ILINK BUSINESS MGT","Address":"9648 9th Ave 10","City":"Hesperia","State":"CA","Zip":"92345"},{"Location":"JIFFY LUBE 2968","Address":"16701 Main St","City":"Hesperia","State":"CA","Zip":"92345"},{"Location":"JIFFY LUBE 2969","Address":"17177 Bear Valley Rd","City":"Hesperia","State":"CA","Zip":"92345"},{"Location":"JIMENEZ RADIATOR & TIRES","Address":"16093 Main St","City":"Hesperia","State":"CA","Zip":"92345"},{"Location":"JOSHUA INN","Address":"6224 Arrowhead Lake Rd","City":"Hesperia","State":"CA","Zip":"92345"},{"Location":"JULIOUS CELLULAR INC","Address":"15555 Main St A5","City":"Hesperia","State":"CA","Zip":"92345"},{"Location":"KING OF CUTS BARBERSHOP","Address":"15928 Main St 100","City":"Hesperia","State":"CA","Zip":"92345"},{"Location":"KMART","Address":"16968 Main St","City":"Hesperia","State":"CA","Zip":"92345"},{"Location":"LA CASITA CAFE","Address":"17289 Main St","City":"Hesperia","State":"CA","Zip":"92345"},{"Location":"LOPEZ PARTY SUPPLIES","Address":"15555 Main St A3","City":"Hesperia","State":"CA","Zip":"92345"},{"Location":"LOUSIANA CAJUN SEAFOOD","Address":"14466 Main St 103","City":"Hesperia","State":"CA","Zip":"92345"},{"Location":"LOVE HESPERIA","Address":"12719 Main St 400","City":"Hesperia","State":"CA","Zip":"92345"},{"Location":"MAGIC AUTO SALES","Address":"14721 Main St 2","City":"Hesperia","State":"CA","Zip":"92345"},{"Location":"MAIN STREET PUB","Address":"17122 Main St","City":"Hesperia","State":"CA","Zip":"92345"},{"Location":"MARTINEZ MEATS%2FTAQUERIA","Address":"16069 Main St","City":"Hesperia","State":"CA","Zip":"92345"},{"Location":"MAYOLAS SOUL FOOD","Address":"14747 Bear Valley Rd Ste6","City":"Hesperia","State":"CA","Zip":"92345"},{"Location":"MEDRANOS PAVING CO","Address":"16950 Smoketree St","City":"Hesperia","State":"CA","Zip":"92345"},{"Location":"MISORA SUSHI","Address":"14073 Main St 109","City":"Hesperia","State":"CA","Zip":"92345"},{"Location":"MONICAS TACOS","Address":"8104 I Ave","City":"Hesperia","State":"CA","Zip":"92345"},{"Location":"MONICAS TACOS","Address":"11430 I Ave","City":"Hesperia","State":"CA","Zip":"92345"},{"Location":"MY BEST NAILS","Address":"15664 Main St 160","City":"Hesperia","State":"CA","Zip":"92345"},{"Location":"NAIL BY ORIENTAL","Address":"15555 Main St A12","City":"Hesperia","State":"CA","Zip":"92345"},{"Location":"NEW LOOK BEAUTY SALON","Address":"16967 Main St 103","City":"Hesperia","State":"CA","Zip":"92345"},{"Location":"NEWBYS BARBER SHOP","Address":"16294 Main St","City":"Hesperia","State":"CA","Zip":"92345"},{"Location":"NEWSTEP FLOORING","Address":"16190 Main St","City":"Hesperia","State":"CA","Zip":"92345"},{"Location":"PACIFIC DENTAL #61","Address":"16868 Main St","City":"Hesperia","State":"CA","Zip":"92345"},{"Location":"PARADISE HOOKAB LOUNGE","Address":"14466 Main St 104","City":"Hesperia","State":"CA","Zip":"92345"},{"Location":"PARIS NAILS","Address":"17356 Main St","City":"Hesperia","State":"CA","Zip":"92345"},{"Location":"PASCOS PIZZA","Address":"17348 Main St","City":"Hesperia","State":"CA","Zip":"92345"},{"Location":"PIZZA FACTORY HESPERIA","Address":"14135 Main St 101","City":"Hesperia","State":"CA","Zip":"92345"},{"Location":"POST 2924","Address":"10184 Hesperia Rd","City":"Hesperia","State":"CA","Zip":"92345"},{"Location":"RANGE RV","Address":"11626 Mariposa Rd","City":"Hesperia","State":"CA","Zip":"92345"},{"Location":"RUDYS BODYSHOP","Address":"11098 I Ave D","City":"Hesperia","State":"CA","Zip":"92345"},{"Location":"SAFETY CARE TRANSPORTATION INC","Address":"10180 I Ave C","City":"Hesperia","State":"CA","Zip":"92345"},{"Location":"SAN BERNARDINO COUNTY ADMIN","Address":"15900 Smoketree St","City":"Hesperia","State":"CA","Zip":"92345"},{"Location":"SIGNATURE%2C 2 AUTO COLLISION","Address":"10180 E Ave","City":"Hesperia","State":"CA","Zip":"92345"},{"Location":"SILVER WOOD SUSHI & GRIL","Address":"13910 State Highway 138","City":"Hesperia","State":"CA","Zip":"92345"},{"Location":"SKY NAILS","Address":"14073 Main St 102","City":"Hesperia","State":"CA","Zip":"92345"},{"Location":"SUN SPA","Address":"9648 9th Ave 8","City":"Hesperia","State":"CA","Zip":"92345"},{"Location":"SUPERIOR QUALITY INSURANCE AGE","Address":"11910 Hesperia Rd","City":"Hesperia","State":"CA","Zip":"92345"},{"Location":"TARGET #2468","Address":"12795 Main St","City":"Hesperia","State":"CA","Zip":"92345"},{"Location":"US BANK","Address":"14075 Main St","City":"Hesperia","State":"CA","Zip":"92345"},{"Location":"VAPE TOWN","Address":"12055 Mariposa Rd G","City":"Hesperia","State":"CA","Zip":"92345"},{"Location":"VENUS ARO","Address":"17273 Main St","City":"Hesperia","State":"CA","Zip":"92345"},{"Location":"VICTOR VALLEY MOOSE LODGE","Address":"10230 E Ave","City":"Hesperia","State":"CA","Zip":"92345"},{"Location":"VOCATIONAL IMPROVEMENT P","Address":"17292 Eucalyptus St","City":"Hesperia","State":"CA","Zip":"92345"},{"Location":"WHISKEY BARREL","Address":"12055 Mariposa Rd 2","City":"Hesperia","State":"CA","Zip":"92345"},{"Location":"WILLOW OAKS PARK LLC","Address":"12550 Main St","City":"Hesperia","State":"CA","Zip":"92345"},{"Location":"WINGSTOP #725","Address":"13259 Main St","City":"Hesperia","State":"CA","Zip":"92345"},{"Location":"YOSHIS JAPANESE CUISINE","Address":"17005 Bear Valley Rd B","City":"Hesperia","State":"CA","Zip":"92345"}]