[{"Location":"ACE OF VAPES","Address":"3545 Highland Ave H","City":"Highland","State":"CA","Zip":"92346"},{"Location":"ALEXIS BARBER AND BEAUTY SHOP","Address":"3545 Highland Ave","City":"Highland","State":"CA","Zip":"92346"},{"Location":"AMAPOLA RICO TACO","Address":"27627 Baseline St","City":"Highland","State":"CA","Zip":"92346"},{"Location":"AMBER APARTMENTS","Address":"26694 Ward St","City":"Highland","State":"CA","Zip":"92346"},{"Location":"ANTHONY TAYLOR","Address":"7920 Webster St Bc","City":"Highland","State":"CA","Zip":"92346"},{"Location":"APPLEBEE'S #2150014","Address":"4070 Highland Ave","City":"Highland","State":"CA","Zip":"92346"},{"Location":"BRIGHTWATER SENIOR","Address":"28807 Baseline St","City":"Highland","State":"CA","Zip":"92346"},{"Location":"CANDYS","Address":"26998 3rd St","City":"Highland","State":"CA","Zip":"92346"},{"Location":"CARNITAS LINDO MICHOACAN","Address":"26498 Baseline Street # F","City":"Highland","State":"CA","Zip":"92346"},{"Location":"CHOP AND STACH BARBER","Address":"7354 Stoney Creek Dr B8","City":"Highland","State":"CA","Zip":"92346"},{"Location":"CITY OF HIGHLAND","Address":"26985 Baseline St","City":"Highland","State":"CA","Zip":"92346"},{"Location":"COIN LAUNDRY","Address":"3679 Highland Ave","City":"Highland","State":"CA","Zip":"92346"},{"Location":"DAVITA #2475 HIGHLAND RANCH","Address":"7223 Church St A14","City":"Highland","State":"CA","Zip":"92346"},{"Location":"DICKEYS BBQ PIT HIGHLAND","Address":"27949 Greenspot Rd","City":"Highland","State":"CA","Zip":"92346"},{"Location":"EAST VALLEY WATER DISTRICT HQ","Address":"31111 Greenspot Rd","City":"Highland","State":"CA","Zip":"92346"},{"Location":"FANTASTIC NAILS","Address":"3693 Highland Ave A","City":"Highland","State":"CA","Zip":"92346"},{"Location":"FITNESS 19","Address":"7354 Stoney Creek Dr 1","City":"Highland","State":"CA","Zip":"92346"},{"Location":"FIVE TOOL PLUS LLC 2","Address":"27320 Meines Ct","City":"Highland","State":"CA","Zip":"92346"},{"Location":"FRAZEE COMMUNITY CENTER","Address":"7178 Palm Ave","City":"Highland","State":"CA","Zip":"92346"},{"Location":"HIGHLANDS HAND CAR WASH","Address":"3706 Highland Ave","City":"Highland","State":"CA","Zip":"92346"},{"Location":"HUYNH","Address":"7223 Church St A2","City":"Highland","State":"CA","Zip":"92346"},{"Location":"I LOVE SUSHI","Address":"7750 Palm Avenue Suite #5","City":"Highland","State":"CA","Zip":"92346"},{"Location":"INLAND DENTAL","Address":"6982 Boulder Ave","City":"Highland","State":"CA","Zip":"92346"},{"Location":"JAMFAR KNOUSE","Address":"27266 Baseline St","City":"Highland","State":"CA","Zip":"92346"},{"Location":"JENNYS DINNER","Address":"7750 Palm Ave R","City":"Highland","State":"CA","Zip":"92346"},{"Location":"JJ SPA","Address":"26630 Baseline St","City":"Highland","State":"CA","Zip":"92346"},{"Location":"JOHNNYS GRILL","Address":"27224 Baseline St","City":"Highland","State":"CA","Zip":"92346"},{"Location":"KAYS CAFE","Address":"27245 Baseline St","City":"Highland","State":"CA","Zip":"92346"},{"Location":"KCB TOWERS INC","Address":"27260 Meines St","City":"Highland","State":"CA","Zip":"92346"},{"Location":"LA FITNESS #90","Address":"28015 Greenspot Rd","City":"Highland","State":"CA","Zip":"92346"},{"Location":"LEES MASSAGE SPA","Address":"26531 Baseline St","City":"Highland","State":"CA","Zip":"92346"},{"Location":"LUXURY NAILS","Address":"27194 Baseline St F","City":"Highland","State":"CA","Zip":"92346"},{"Location":"LUXURY NAILS & SPA","Address":"27194 Baseline St F","City":"Highland","State":"CA","Zip":"92346"},{"Location":"MANUELS EXPRESS OIL CHAN","Address":"7356 Stoney Creek Dr","City":"Highland","State":"CA","Zip":"92346"},{"Location":"MI COCINA MEXICAN RESTAURANT","Address":"27961 Highland Ave A","City":"Highland","State":"CA","Zip":"92346"},{"Location":"MOO & BREW STEAKHOUSE","Address":"7955 Webster St","City":"Highland","State":"CA","Zip":"92346"},{"Location":"PETAS CAR CARE","Address":"27177 5th St","City":"Highland","State":"CA","Zip":"92346"},{"Location":"SAN MANUEL BAND FIRE DEPT","Address":"26540 Indian Service Rd","City":"Highland","State":"CA","Zip":"92346"},{"Location":"SAN MANUEL BAND OF MISSION","Address":"26569 Community Center Dr","City":"Highland","State":"CA","Zip":"92346"},{"Location":"SAN MANUEL BAND OF MISSION IND","Address":"101 Pure Water Ln","City":"Highland","State":"CA","Zip":"92346"},{"Location":"SAN MANUEL INDIAN BINGO & CASI","Address":"777 San Manuel Blvd","City":"Highland","State":"CA","Zip":"92346"},{"Location":"SAN MANUEL INDIAN CASINO","Address":"777 San Manuel Blvd","City":"Highland","State":"CA","Zip":"92346"},{"Location":"SAN MANUEL PLANNING","Address":"101 Pure Water Ln","City":"Highland","State":"CA","Zip":"92346"},{"Location":"SEEDS INC 1","Address":"27141 Baseline St","City":"Highland","State":"CA","Zip":"92346"},{"Location":"SIERRA VISTA REHABILITAT #1546","Address":"3455 Highland Ave","City":"Highland","State":"CA","Zip":"92346"},{"Location":"SILVER CREEK MOBILE ESTA","Address":"26245 E Baseline Rd","City":"Highland","State":"CA","Zip":"92346"},{"Location":"SOUTHERN  CALIFORNIA EDISON","Address":"7865 Santa Ana Canyon Rd","City":"Highland","State":"CA","Zip":"92346"},{"Location":"SUPERCUTS 8924","Address":"4130 Highland Ave","City":"Highland","State":"CA","Zip":"92346"},{"Location":"SURREAL SALON AND DAY SPA","Address":"7920 Webster St","City":"Highland","State":"CA","Zip":"92346"},{"Location":"SUSHI MAC","Address":"7243 Boulder Ave","City":"Highland","State":"CA","Zip":"92346"},{"Location":"TARTAN","Address":"27141 Baseline St 11","City":"Highland","State":"CA","Zip":"92346"},{"Location":"THE GREEN FROG","Address":"7750 Palm Ave K","City":"Highland","State":"CA","Zip":"92346"},{"Location":"TWO GUYS PASTA AND PIZZA","Address":"2566 Highland Ave","City":"Highland","State":"CA","Zip":"92346"},{"Location":"URGENT CARE CENTER HIGHL","Address":"27925 Highland Ave","City":"Highland","State":"CA","Zip":"92346"},{"Location":"VICTORIA DEVELOPMENT CO","Address":"27995 Highland Ave","City":"Highland","State":"CA","Zip":"92346"},{"Location":"WABA GRILL","Address":"27923 Greenspot Rd","City":"Highland","State":"CA","Zip":"92346"},{"Location":"YMCA","Address":"7793 Central Ave","City":"Highland","State":"CA","Zip":"92346"},{"Location":"ZAPATA TIRE SHOP 1","Address":"26383 Baseline St","City":"Highland","State":"CA","Zip":"92346"},{"Location":"ZAPATA TIRE SHOP 2","Address":"27085 5th St","City":"Highland","State":"CA","Zip":"92346"},{"Location":"ACE OF VAPES","Address":"3545 Highland Ave H","City":"Highland","State":"CA","Zip":"92346"},{"Location":"ALEXIS BARBER AND BEAUTY SHOP","Address":"3545 Highland Ave","City":"Highland","State":"CA","Zip":"92346"},{"Location":"AMAPOLA RICO TACO","Address":"27627 Baseline St","City":"Highland","State":"CA","Zip":"92346"},{"Location":"AMBER APARTMENTS","Address":"26694 Ward St","City":"Highland","State":"CA","Zip":"92346"},{"Location":"ANTHONY TAYLOR","Address":"7920 Webster St Bc","City":"Highland","State":"CA","Zip":"92346"},{"Location":"APPLEBEE'S #2150014","Address":"4070 Highland Ave","City":"Highland","State":"CA","Zip":"92346"},{"Location":"BRIGHTWATER SENIOR","Address":"28807 Baseline St","City":"Highland","State":"CA","Zip":"92346"},{"Location":"CANDYS","Address":"26998 3rd St","City":"Highland","State":"CA","Zip":"92346"},{"Location":"CARNITAS LINDO MICHOACAN","Address":"26498 Baseline Street # F","City":"Highland","State":"CA","Zip":"92346"},{"Location":"CHOP AND STACH BARBER","Address":"7354 Stoney Creek Dr B8","City":"Highland","State":"CA","Zip":"92346"},{"Location":"CITY OF HIGHLAND","Address":"26985 Baseline St","City":"Highland","State":"CA","Zip":"92346"},{"Location":"COIN LAUNDRY","Address":"3679 Highland Ave","City":"Highland","State":"CA","Zip":"92346"},{"Location":"DAVITA #2475 HIGHLAND RANCH","Address":"7223 Church St A14","City":"Highland","State":"CA","Zip":"92346"},{"Location":"DICKEYS BBQ PIT HIGHLAND","Address":"27949 Greenspot Rd","City":"Highland","State":"CA","Zip":"92346"},{"Location":"EAST VALLEY WATER DISTRICT HQ","Address":"31111 Greenspot Rd","City":"Highland","State":"CA","Zip":"92346"},{"Location":"FANTASTIC NAILS","Address":"3693 Highland Ave A","City":"Highland","State":"CA","Zip":"92346"},{"Location":"FITNESS 19","Address":"7354 Stoney Creek Dr 1","City":"Highland","State":"CA","Zip":"92346"},{"Location":"FIVE TOOL PLUS LLC 2","Address":"27320 Meines Ct","City":"Highland","State":"CA","Zip":"92346"},{"Location":"FRAZEE COMMUNITY CENTER","Address":"7178 Palm Ave","City":"Highland","State":"CA","Zip":"92346"},{"Location":"HIGHLANDS HAND CAR WASH","Address":"3706 Highland Ave","City":"Highland","State":"CA","Zip":"92346"},{"Location":"HUYNH","Address":"7223 Church St A2","City":"Highland","State":"CA","Zip":"92346"},{"Location":"I Love Sushi","Address":"7750 Palm Avenue Suite #5","City":"Highland","State":"CA","Zip":"92346"},{"Location":"INLAND DENTAL","Address":"6982 Boulder Ave","City":"Highland","State":"CA","Zip":"92346"},{"Location":"JAMFAR KNOUSE","Address":"27266 Baseline St","City":"Highland","State":"CA","Zip":"92346"},{"Location":"JENNYS DINNER","Address":"7750 Palm Ave R","City":"Highland","State":"CA","Zip":"92346"},{"Location":"JJ SPA","Address":"26630 Baseline St","City":"Highland","State":"CA","Zip":"92346"},{"Location":"JOHNNYS GRILL","Address":"27224 Baseline St","City":"Highland","State":"CA","Zip":"92346"},{"Location":"KAYS CAFE","Address":"27245 Baseline St","City":"Highland","State":"CA","Zip":"92346"},{"Location":"KCB TOWERS INC","Address":"27260 Meines St","City":"Highland","State":"CA","Zip":"92346"},{"Location":"LA FITNESS #90","Address":"28015 Greenspot Rd","City":"Highland","State":"CA","Zip":"92346"},{"Location":"LEES MASSAGE SPA","Address":"26531 Baseline St","City":"Highland","State":"CA","Zip":"92346"},{"Location":"LUXURY NAILS","Address":"27194 Baseline St F","City":"Highland","State":"CA","Zip":"92346"},{"Location":"LUXURY NAILS & SPA","Address":"27194 Baseline St F","City":"Highland","State":"CA","Zip":"92346"},{"Location":"MANUELS EXPRESS OIL CHAN","Address":"7356 Stoney Creek Dr","City":"Highland","State":"CA","Zip":"92346"},{"Location":"MI COCINA MEXICAN RESTAURANT","Address":"27961 Highland Ave A","City":"Highland","State":"CA","Zip":"92346"},{"Location":"MOO & BREW STEAKHOUSE","Address":"7955 Webster St","City":"Highland","State":"CA","Zip":"92346"},{"Location":"PETAS CAR CARE","Address":"27177 5th St","City":"Highland","State":"CA","Zip":"92346"},{"Location":"SAN MANUEL BAND FIRE DEPT","Address":"26540 Indian Service Rd","City":"Highland","State":"CA","Zip":"92346"},{"Location":"SAN MANUEL BAND OF MISSION","Address":"26569 Community Center Dr","City":"Highland","State":"CA","Zip":"92346"},{"Location":"SAN MANUEL BAND OF MISSION IND","Address":"101 Pure Water Ln","City":"Highland","State":"CA","Zip":"92346"},{"Location":"SAN MANUEL INDIAN BINGO & CASI","Address":"777 San Manuel Blvd","City":"Highland","State":"CA","Zip":"92346"},{"Location":"SAN MANUEL INDIAN CASINO","Address":"777 San Manuel Blvd","City":"Highland","State":"CA","Zip":"92346"},{"Location":"SAN MANUEL PLANNING","Address":"101 Pure Water Ln","City":"Highland","State":"CA","Zip":"92346"},{"Location":"SEEDS INC 1","Address":"27141 Baseline St","City":"Highland","State":"CA","Zip":"92346"},{"Location":"SIERRA VISTA REHABILITAT #1546","Address":"3455 Highland Ave","City":"Highland","State":"CA","Zip":"92346"},{"Location":"SILVER CREEK MOBILE ESTA","Address":"26245 E Baseline Rd","City":"Highland","State":"CA","Zip":"92346"},{"Location":"SOUTHERN  CALIFORNIA EDISON","Address":"7865 Santa Ana Canyon Rd","City":"Highland","State":"CA","Zip":"92346"},{"Location":"SUPERCUTS 8924","Address":"4130 Highland Ave","City":"Highland","State":"CA","Zip":"92346"},{"Location":"SURREAL SALON AND DAY SPA","Address":"7920 Webster St","City":"Highland","State":"CA","Zip":"92346"},{"Location":"SUSHI MAC","Address":"7243 Boulder Ave","City":"Highland","State":"CA","Zip":"92346"},{"Location":"TARTAN","Address":"27141 Baseline St 11","City":"Highland","State":"CA","Zip":"92346"},{"Location":"THE GREEN FROG","Address":"7750 Palm Ave K","City":"Highland","State":"CA","Zip":"92346"},{"Location":"TWO GUYS PASTA AND PIZZA","Address":"2566 Highland Ave","City":"Highland","State":"CA","Zip":"92346"},{"Location":"URGENT CARE CENTER HIGHL","Address":"27925 Highland Ave","City":"Highland","State":"CA","Zip":"92346"},{"Location":"VICTORIA DEVELOPMENT CO","Address":"27995 Highland Ave","City":"Highland","State":"CA","Zip":"92346"},{"Location":"WABA GRILL","Address":"27923 Greenspot Rd","City":"Highland","State":"CA","Zip":"92346"},{"Location":"YMCA","Address":"7793 Central Ave","City":"Highland","State":"CA","Zip":"92346"},{"Location":"ZAPATA TIRE SHOP 1","Address":"26383 Baseline St","City":"Highland","State":"CA","Zip":"92346"},{"Location":"ZAPATA TIRE SHOP 2","Address":"27085 5th St","City":"Highland","State":"CA","Zip":"92346"}]