[{"Location":"DEMPSEYS PUB","Address":"15444 Vista Rd A","City":"Helendale","State":"CA","Zip":"92342"},{"Location":"FRATELLIS PIZZERIA","Address":"15065 Vista Rd","City":"Helendale","State":"CA","Zip":"92342"},{"Location":"JJS KOUNTRY KAFE 2","Address":"15075 Vista Rd","City":"Helendale","State":"CA","Zip":"92342"},{"Location":"LAKE SIDE SPORTS BAR","Address":"26814 Blue Water Rd","City":"Helendale","State":"CA","Zip":"92342"},{"Location":"MANGO GRILL","Address":"27170 Lakeview Dr 500","City":"Helendale","State":"CA","Zip":"92342"},{"Location":"MARGARITAS MEXICAN REST.","Address":"15055 Vista Rd A9","City":"Helendale","State":"CA","Zip":"92342"},{"Location":"SAN BERNARDINO COUNTY","Address":"27089 Helendale Rd","City":"Helendale","State":"CA","Zip":"92342"},{"Location":"SILVER LAKES ASSOCIATION","Address":"14818 Clubhouse Dr","City":"Helendale","State":"CA","Zip":"92342"},{"Location":"SILVER LAKES ASSOCIATION","Address":"27925 Helendale Rd","City":"Helendale","State":"CA","Zip":"92342"},{"Location":"SILVER LAKES ASSOCIATION II","Address":"27801 Mountain Springs Road","City":"Helendale","State":"CA","Zip":"92342"},{"Location":"SILVER LAKES SUSHI","Address":"27170 Lakeview Dr","City":"Helendale","State":"CA","Zip":"92342"},{"Location":"SILVERLAKES HARDWARE","Address":"15065 Vista Rd B1","City":"Helendale","State":"CA","Zip":"92342"},{"Location":"SMILEMAKERS","Address":"27170 Lakeview Dr 203","City":"Helendale","State":"CA","Zip":"92342"},{"Location":"TWISTED CHICKEN LLC","Address":"27170 Lakeview Dr 402","City":"Helendale","State":"CA","Zip":"92342"},{"Location":"DEMPSEYS PUB","Address":"15444 Vista Rd A","City":"Helendale","State":"CA","Zip":"92342"},{"Location":"FRATELLIS PIZZERIA","Address":"15065 Vista Rd","City":"Helendale","State":"CA","Zip":"92342"},{"Location":"JJS KOUNTRY KAFE 2","Address":"15075 Vista Rd","City":"Helendale","State":"CA","Zip":"92342"},{"Location":"LAKE SIDE SPORTS BAR","Address":"26814 Blue Water Rd","City":"Helendale","State":"CA","Zip":"92342"},{"Location":"MANGO GRILL","Address":"27170 Lakeview Dr 500","City":"Helendale","State":"CA","Zip":"92342"},{"Location":"MARGARITAS MEXICAN REST.","Address":"15055 Vista Rd A9","City":"Helendale","State":"CA","Zip":"92342"},{"Location":"SAN BERNARDINO COUNTY","Address":"27089 Helendale Rd","City":"Helendale","State":"CA","Zip":"92342"},{"Location":"SILVER LAKES ASSOCIATION","Address":"14818 Clubhouse Dr","City":"Helendale","State":"CA","Zip":"92342"},{"Location":"SILVER LAKES ASSOCIATION","Address":"27925 Helendale Rd","City":"Helendale","State":"CA","Zip":"92342"},{"Location":"SILVER LAKES ASSOCIATION II","Address":"27801 Mountain Springs Road","City":"Helendale","State":"CA","Zip":"92342"},{"Location":"SILVER LAKES SUSHI","Address":"27170 Lakeview Dr","City":"Helendale","State":"CA","Zip":"92342"},{"Location":"SILVERLAKES HARDWARE","Address":"15065 Vista Rd B1","City":"Helendale","State":"CA","Zip":"92342"},{"Location":"SMILEMAKERS","Address":"27170 Lakeview Dr 203","City":"Helendale","State":"CA","Zip":"92342"},{"Location":"TWISTED CHICKEN LLC","Address":"27170 Lakeview Dr 402","City":"Helendale","State":"CA","Zip":"92342"}]