[{"Location":"CPES CALIFORNIA","Address":"9427 Joshua Rd","City":"Hesperia","State":"CA","Zip":"92344"},{"Location":"FIREHOUSE 305","Address":"8331 Caliente","City":"Hesperia","State":"CA","Zip":"92344"},{"Location":"LIONEL HOLYFIELD DOLL BROWN","Address":"9161 Ravenswood Ave","City":"Hesperia","State":"CA","Zip":"92344"},{"Location":"LITTLE SISTERS TRUCK WASH","Address":"8899 Three Flags Ave","City":"Hesperia","State":"CA","Zip":"92344"},{"Location":"RANCHO TAX SERVICE","Address":"9328 Nolina Dr","City":"Hesperia","State":"CA","Zip":"92344"},{"Location":"SAN JOAQUIN VALLEY","Address":"9329 Mariposa Rd","City":"Hesperia","State":"CA","Zip":"92344"},{"Location":"SAN JOAQUIN VALLEY COLLEGE","Address":"9331 Mariposa Rd","City":"Hesperia","State":"CA","Zip":"92344"},{"Location":"STRAIGHT EDGE PAINTING","Address":"13118 Woodland Ct","City":"Hesperia","State":"CA","Zip":"92344"},{"Location":"B AND B PIZZERIA","Address":"13312 Ranchero Rd","City":"Oak Hills","State":"CA","Zip":"92344"},{"Location":"BEST LUBE","Address":"8853 Three Flags Ave C","City":"Oak Hills","State":"CA","Zip":"92344"},{"Location":"OUTPOST CAFE","Address":"8685 Us Highway 395","City":"Oak Hills","State":"CA","Zip":"92344"},{"Location":"OUTPOST HAIR CUTS","Address":"8853 Three Flags Ave D3","City":"Oak Hills","State":"CA","Zip":"92344"},{"Location":"PILOT FLYING J 38130","Address":"8701 Us Highway 395","City":"Oak Hills","State":"CA","Zip":"92344"},{"Location":"CPES CALIFORNIA","Address":"9427 Joshua Rd","City":"Hesperia","State":"CA","Zip":"92344"},{"Location":"FIREHOUSE 305","Address":"8331 Caliente","City":"Hesperia","State":"CA","Zip":"92344"},{"Location":"LIONEL HOLYFIELD DOLL BROWN","Address":"9161 Ravenswood Ave","City":"Hesperia","State":"CA","Zip":"92344"},{"Location":"LITTLE SISTERS TRUCK WASH","Address":"8899 Three Flags Ave","City":"Hesperia","State":"CA","Zip":"92344"},{"Location":"RANCHO TAX SERVICE","Address":"9328 Nolina Dr","City":"Hesperia","State":"CA","Zip":"92344"},{"Location":"SAN JOAQUIN VALLEY","Address":"9329 Mariposa Rd","City":"Hesperia","State":"CA","Zip":"92344"},{"Location":"SAN JOAQUIN VALLEY COLLEGE","Address":"9331 Mariposa Rd","City":"Hesperia","State":"CA","Zip":"92344"},{"Location":"STRAIGHT EDGE PAINTING","Address":"13118 Woodland Ct","City":"Hesperia","State":"CA","Zip":"92344"},{"Location":"B AND B PIZZERIA","Address":"13312 Ranchero Rd","City":"Oak Hills","State":"CA","Zip":"92344"},{"Location":"BEST LUBE","Address":"8853 Three Flags Ave C","City":"Oak Hills","State":"CA","Zip":"92344"},{"Location":"OUTPOST CAFE","Address":"8685 Us Highway 395","City":"Oak Hills","State":"CA","Zip":"92344"},{"Location":"OUTPOST HAIR CUTS","Address":"8853 Three Flags Ave D3","City":"Oak Hills","State":"CA","Zip":"92344"},{"Location":"PILOT FLYING J 38130","Address":"8701 Us Highway 395","City":"Oak Hills","State":"CA","Zip":"92344"}]