[{"Location":"CALIFORNIA BANK & TRUST","Address":"28200 Lake Arrowhead%2C Ca-189","City":"Arrowhead","State":"CA","Zip":"92352"},{"Location":"ARROWHEAD BAR","Address":"28200 Highway 189 R210","City":"Lake Arrowhead","State":"CA","Zip":"92352"},{"Location":"JEANNINES INTERIOR DESIG","Address":"28200 Highway 189 100","City":"Lake Arrowhead","State":"CA","Zip":"92352"},{"Location":"LAKE ARROW HEAD CSD2","Address":"27166 Bernina Dr","City":"Lake Arrowhead","State":"CA","Zip":"92352"},{"Location":"LAKE ARROW HEAD CSD3","Address":"840 Willow Creek Rd","City":"Lake Arrowhead","State":"CA","Zip":"92352"},{"Location":"LAKE ARROW HEAD CSD4","Address":"27000 Pilot Rock Rd","City":"Lake Arrowhead","State":"CA","Zip":"92352"},{"Location":"LAKER ARROWHEAD VILLEGE PIZZA","Address":"28200 State Hyw 189","City":"Lake Arrowhead","State":"CA","Zip":"92352"},{"Location":"PAPAGAYOS MEXICAN RESTAU","Address":"28200 Hwy","City":"Lake Arrowhead","State":"CA","Zip":"92352"},{"Location":"SERENITY LODGE","Address":"985 Meadowbrook Rd","City":"Lake Arrowhead","State":"CA","Zip":"92352"},{"Location":"US FOREST SERVICE STN 13","Address":"1305 N Hwy 173","City":"Lake Arrowhead","State":"CA","Zip":"92352"},{"Location":"VETOL WEST","Address":"28200 Highway 189","City":"Lake Arrowhead","State":"CA","Zip":"92352"}]