[{"Location":"BENEJ PEDIATRICS INC","Address":"11306 Mountain View Ave Stee","City":"Loma Linda","State":"CA","Zip":"92354"},{"Location":"BINHS BEAUTY SALON","Address":"11275 Mountain View Ave 28","City":"Loma Linda","State":"CA","Zip":"92354"},{"Location":"CAR DOCTORS OF LOMA LIND","Address":"24732 Redlands Blvd","City":"Loma Linda","State":"CA","Zip":"92354"},{"Location":"CAR DOCTORS OF LOMA LINDA","Address":"24927 Redlands Blvd","City":"Loma Linda","State":"CA","Zip":"92354"},{"Location":"DIVINE HOME CARE","Address":"25937 Lawton Ave","City":"Loma Linda","State":"CA","Zip":"92354"},{"Location":"DON MARTINS 2","Address":"24735 Redlands Blvd","City":"Loma Linda","State":"CA","Zip":"92354"},{"Location":"ELITE CARPET & TILE","Address":"24530 Redlands Blvd","City":"Loma Linda","State":"CA","Zip":"92354"},{"Location":"FAMILY DENTISTRY","Address":"25227 Redlands Blvd D","City":"Loma Linda","State":"CA","Zip":"92354"},{"Location":"FIVE STAR AUTO REPAIR","Address":"24565 Redlands Blvd","City":"Loma Linda","State":"CA","Zip":"92354"},{"Location":"HAIR CUTS ETC.","Address":"25655 Redlands Blvd","City":"Loma Linda","State":"CA","Zip":"92354"},{"Location":"INLAND EMPIRE ELECTRIC","Address":"24735 Redlands Blvd H","City":"Loma Linda","State":"CA","Zip":"92354"},{"Location":"INSHAPE MEDICAL","Address":"24769 Redlands Blvd I","City":"Loma Linda","State":"CA","Zip":"92354"},{"Location":"INTERGRATED MIND INSTITU","Address":"24949 Prospect Ave","City":"Loma Linda","State":"CA","Zip":"92354"},{"Location":"KEN WILLIAMS STATE FARM","Address":"11155 Mountiew Ave #103","City":"Loma Linda","State":"CA","Zip":"92354"},{"Location":"KEYVIEW","Address":"11346 Mountain View Ave A","City":"Loma Linda","State":"CA","Zip":"92354"},{"Location":"LADHAR & SIDHU GROUP INC.","Address":"25713 Barton Rd","City":"Loma Linda","State":"CA","Zip":"92354"},{"Location":"LOMA LINDA FAMILY DENTISTRY","Address":"11346 Mountain View Ave D","City":"Loma Linda","State":"CA","Zip":"92354"},{"Location":"LOMA LINDA FOOT AND ANKLE CENT","Address":"11332 Mountian View Ave","City":"Loma Linda","State":"CA","Zip":"92354"},{"Location":"LOMA LINDA SMOKE CHECK","Address":"25153 Redlands Blvd","City":"Loma Linda","State":"CA","Zip":"92354"},{"Location":"MAKI YAKI 22","Address":"25227 Redlands Blvd F-g","City":"Loma Linda","State":"CA","Zip":"92354"},{"Location":"MANILENO1","Address":"24950 Redlands Blvd","City":"Loma Linda","State":"CA","Zip":"92354"},{"Location":"MI CASITA AND GRILL","Address":"25227 Redlands Blvd E","City":"Loma Linda","State":"CA","Zip":"92354"},{"Location":"NAPOLI ITALIAN RESTAURAN","Address":"24960 Redlands Blvd","City":"Loma Linda","State":"CA","Zip":"92354"},{"Location":"NCHS","Address":"24747 Redlands Blvd B","City":"Loma Linda","State":"CA","Zip":"92354"},{"Location":"OASIS TOWNHOMES","Address":"25590 Prospect Ave","City":"Loma Linda","State":"CA","Zip":"92354"},{"Location":"QUAID HARLEY DAVIDSON","Address":"25160 Redlands Blvd","City":"Loma Linda","State":"CA","Zip":"92354"},{"Location":"RED HOT KITCHEN","Address":"24950 Redlands Blvd A","City":"Loma Linda","State":"CA","Zip":"92354"},{"Location":"RENU MULTANI","Address":"11306 Mountain View Ave A","City":"Loma Linda","State":"CA","Zip":"92354"},{"Location":"RUSNAK AUTO OUTLET","Address":"25072 Redlands Blvd","City":"Loma Linda","State":"CA","Zip":"92354"},{"Location":"SAVE MORE MARKET","Address":"24950 Redlands Blvd K","City":"Loma Linda","State":"CA","Zip":"92354"},{"Location":"SKY NAILS","Address":"24950 Redlands Blvd","City":"Loma Linda","State":"CA","Zip":"92354"},{"Location":"SPECIAL CARE CLINIC","Address":"25815 Barton Rd C102","City":"Loma Linda","State":"CA","Zip":"92354"},{"Location":"ST JOSPEH THE WORKER","Address":"10816 Mountain View Ave","City":"Loma Linda","State":"CA","Zip":"92354"},{"Location":"THAI BOWL CAFE","Address":"25069 Redlands Blvd A","City":"Loma Linda","State":"CA","Zip":"92354"},{"Location":"THAI OCHA","Address":"25596 Barton Rd","City":"Loma Linda","State":"CA","Zip":"92354"},{"Location":"THE TINT FACTORY","Address":"24554 Redlands Blvd","City":"Loma Linda","State":"CA","Zip":"92354"},{"Location":"TINT CITY","Address":"24654 Redlands Blvd","City":"Loma Linda","State":"CA","Zip":"92354"},{"Location":"UNIVERSITY MOBILE HOME","Address":"24414 University Ave","City":"Loma Linda","State":"CA","Zip":"92354"},{"Location":"WABA GRILL","Address":"25717 Barton Rd 106","City":"Loma Linda","State":"CA","Zip":"92354"}]