[{"Location":"","Address":"32815 Topaz Rd","City":"Lucerne Valley","State":"CA","Zip":"92356"},{"Location":"CASA COLINA","Address":"11981 Midway Ave 1","City":"Lucerne Valley","State":"CA","Zip":"92356"},{"Location":"EL COYOTE LOCO","Address":"31455 State Highway 18","City":"Lucerne Valley","State":"CA","Zip":"92356"},{"Location":"HERTS TRUCKING","Address":"33924 Old Woman Springs Rd","City":"Lucerne Valley","State":"CA","Zip":"92356"},{"Location":"LOYAL ORDER OF MOOSE LODGES","Address":"31878 Laramie St","City":"Lucerne Valley","State":"CA","Zip":"92356"},{"Location":"LUCERNE VALLEY LIQUOR","Address":"32800 Old Woman Springs Rd","City":"Lucerne Valley","State":"CA","Zip":"92356"},{"Location":"PACIFIC CLINICS","Address":"32770 Old Woman Springs Rd","City":"Lucerne Valley","State":"CA","Zip":"92356"},{"Location":"VFW POST 5551","Address":"31861 Hwy 18","City":"Lucerne Valley","State":"CA","Zip":"92356"},{"Location":"Y SALOON","Address":"32743 State Highway 18","City":"Lucerne Valley","State":"CA","Zip":"92356"}]