[{"Location":"ADVANTAGE AUTO CENTER","Address":"32007 Outer Highway 10","City":"Redlands","State":"CA","Zip":"92373"},{"Location":"AMERICAN MEDICAL RESPONSE","Address":"600 Iowa St","City":"Redlands","State":"CA","Zip":"92373"},{"Location":"ANGELS NAILS AND SPA","Address":"1971 W Redlands Blvd","City":"Redlands","State":"CA","Zip":"92373"},{"Location":"APPLEBEE'S #2150015","Address":"2046 Redlands Blvd","City":"Redlands","State":"CA","Zip":"92373"},{"Location":"BENJARONG","Address":"1001 W Park Ave","City":"Redlands","State":"CA","Zip":"92373"},{"Location":"BRAVO BURGERS","Address":"1911 W Redlands Blvd","City":"Redlands","State":"CA","Zip":"92373"},{"Location":"BRENNA HAMRICK STOTTS INC","Address":"1150 Brookside Ave T","City":"Redlands","State":"CA","Zip":"92373"},{"Location":"CHURCHWEST INSURANCE SERVICES","Address":"201 Cajon St","City":"Redlands","State":"CA","Zip":"92373"},{"Location":"CLINTON BROWN","Address":"104 E State St B","City":"Redlands","State":"CA","Zip":"92373"},{"Location":"COMMUNITY ACTION EAP","Address":"1481 Ford St 201","City":"Redlands","State":"CA","Zip":"92373"},{"Location":"COMMUNITY BANK","Address":"200 E Citrus Ave","City":"Redlands","State":"CA","Zip":"92373"},{"Location":"CUCAS MEXICAN RESTAURANT 6","Address":"11221 California St","City":"Redlands","State":"CA","Zip":"92373"},{"Location":"DARBYS AMERICAN CANTINA","Address":"1 E State St","City":"Redlands","State":"CA","Zip":"92373"},{"Location":"DEYOUNG POWER SYSTEMS","Address":"2011 W Park Ave","City":"Redlands","State":"CA","Zip":"92373"},{"Location":"DISCOUNT TIRE CENTER","Address":"1647 W Redlands Blvd","City":"Redlands","State":"CA","Zip":"92373"},{"Location":"DISTRICT VAPOR LOUNGE","Address":"19 E Citrus Ave 101","City":"Redlands","State":"CA","Zip":"92373"},{"Location":"FIRESTONE #014524","Address":"300 W Redlands Blvd","City":"Redlands","State":"CA","Zip":"92373"},{"Location":"FISHERMANS RETREAT","Address":"32300 San Timoteo Canyon Rd","City":"Redlands","State":"CA","Zip":"92373"},{"Location":"GERRARDS MARKET","Address":"705 W Cypress Ave","City":"Redlands","State":"CA","Zip":"92373"},{"Location":"GOODYEAR 4842","Address":"2068 W Redlands Blvd","City":"Redlands","State":"CA","Zip":"92373"},{"Location":"HALO  RESORT","Address":"32300 San Timoteo Canyon Rd","City":"Redlands","State":"CA","Zip":"92373"},{"Location":"HARTNELL LISTER & MOORE","Address":"25757 Redlands Blvd","City":"Redlands","State":"CA","Zip":"92373"},{"Location":"HATFIELD AUTOMOTVE INC","Address":"301 E Redlands Blvd","City":"Redlands","State":"CA","Zip":"92373"},{"Location":"HICKORY FARMS","Address":"1740 Howard Pl","City":"Redlands","State":"CA","Zip":"92373"},{"Location":"INLAND SURGERY CENTER","Address":"1620 Laurel Ave","City":"Redlands","State":"CA","Zip":"92373"},{"Location":"JD LEGISTIC","Address":"133 E Vine St","City":"Redlands","State":"CA","Zip":"92373"},{"Location":"L CURTI TRUCK EQUIPMENT","Address":"452 Cajon St","City":"Redlands","State":"CA","Zip":"92373"},{"Location":"LEE YOUTH AND FAMILY","Address":"28721 Live Oak Canyon Rd","City":"Redlands","State":"CA","Zip":"92373"},{"Location":"MEDICAL CLINIC OF REDLANDS","Address":"255 Terracina Blvd 101","City":"Redlands","State":"CA","Zip":"92373"},{"Location":"MICRO TECHNICAL LABRATORY","Address":"325 Alabama St","City":"Redlands","State":"CA","Zip":"92373"},{"Location":"MORGAN STANLEY 100208","Address":"101 E Redlands Blvd 170","City":"Redlands","State":"CA","Zip":"92373"},{"Location":"ONE STOP LANDSCAPE SUPPLY","Address":"13024 San Timoteo Canyon Rd","City":"Redlands","State":"CA","Zip":"92373"},{"Location":"PHI HOUSE","Address":"1824 W Redlands Blvd","City":"Redlands","State":"CA","Zip":"92373"},{"Location":"REDLANDS AUTO SPA AND DE","Address":"2051 W Redlands Blvd","City":"Redlands","State":"CA","Zip":"92373"},{"Location":"REDLANDS COMMUNITY HOSPI","Address":"350 Terracina Blvd","City":"Redlands","State":"CA","Zip":"92373"},{"Location":"REDLANDS COUNTRY CLUB","Address":"1749 Garden St","City":"Redlands","State":"CA","Zip":"92373"},{"Location":"REDLANDS TIRE PROS","Address":"525 W Redlands Blvd","City":"Redlands","State":"CA","Zip":"92373"},{"Location":"REPO DEPO","Address":"31937 Outer Highway 10","City":"Redlands","State":"CA","Zip":"92373"},{"Location":"SAFELIGHT AUTO GLASS","Address":"560 Nevada St A","City":"Redlands","State":"CA","Zip":"92373"},{"Location":"SECURITY BANK","Address":"201 E State St","City":"Redlands","State":"CA","Zip":"92373"},{"Location":"SIZZLER 480","Address":"110 W Redlands Blvd","City":"Redlands","State":"CA","Zip":"92373"},{"Location":"SMILE BRIGHT  DENTAL","Address":"414 Tennessee St K1","City":"Redlands","State":"CA","Zip":"92373"},{"Location":"SOUTHERN CA EDISON","Address":"287 Tennessee St","City":"Redlands","State":"CA","Zip":"92373"},{"Location":"SOUTHERN CALIFORNIA EDISON","Address":"298 Kansas St","City":"Redlands","State":"CA","Zip":"92373"},{"Location":"SPA NAIL FASHION","Address":"2072 W Redlands Blvd","City":"Redlands","State":"CA","Zip":"92373"},{"Location":"T AND T HELLO SUSHI  INC.","Address":"1630 W Redlands Blvd","City":"Redlands","State":"CA","Zip":"92373"},{"Location":"TACO SHACK","Address":"510 E State St","City":"Redlands","State":"CA","Zip":"92373"},{"Location":"TAYLORS BAR AND GRILL","Address":"26787 Barton Rd","City":"Redlands","State":"CA","Zip":"92373"},{"Location":"THE FLAME BROILER INC","Address":"1599 W Redlands Blvd","City":"Redlands","State":"CA","Zip":"92373"},{"Location":"THE ROYAL FALCONER","Address":"106 Orange St","City":"Redlands","State":"CA","Zip":"92373"},{"Location":"THE TARTAN RESTAURANT","Address":"24 E Redlands Blvd","City":"Redlands","State":"CA","Zip":"92373"},{"Location":"TOKOYO JAPANES RESTAURANT","Address":"660 E Redlands Blvd","City":"Redlands","State":"CA","Zip":"92373"},{"Location":"TOM BELLS AUTO CENTER","Address":"500 W Redlands Blvd","City":"Redlands","State":"CA","Zip":"92373"},{"Location":"TOP DOGS SPORTS BAR","Address":"31567 Outer Highway 10 1","City":"Redlands","State":"CA","Zip":"92373"},{"Location":"TUTTLE ENGINEERING","Address":"1445 N Redlands Blvd A","City":"Redlands","State":"CA","Zip":"92373"},{"Location":"VILLAGE BARBERSHOP","Address":"601 W State St D","City":"Redlands","State":"CA","Zip":"92373"},{"Location":"WILSON CLASSIC BARBERSHO","Address":"109 Cajon St","City":"Redlands","State":"CA","Zip":"92373"},{"Location":"WRIGHT BROS CUSTOM","Address":"31789 Outer Highway 10 A","City":"Redlands","State":"CA","Zip":"92373"},{"Location":"YMCA EAST VALLEY","Address":"500 E Citrus Ave","City":"Redlands","State":"CA","Zip":"92373"},{"Location":"YUCAIPA PHYSICAL THEROAPY","Address":"1630 W Redlands Blvd L","City":"Redlands","State":"CA","Zip":"92373"}]