[{"Location":"5 POINTS NAILS","Address":"509 S Riverside Ave","City":"Rialto","State":"CA","Zip":"92376"},{"Location":"A BETTER PRINTING SVC","Address":"227 N Riverside Ave B","City":"Rialto","State":"CA","Zip":"92376"},{"Location":"A FRESH START BEAUTY","Address":"105 S Riverside Ave","City":"Rialto","State":"CA","Zip":"92376"},{"Location":"ALBERTOS MEXICAN FOOD","Address":"300 S Riverside Ave","City":"Rialto","State":"CA","Zip":"92376"},{"Location":"ALL STATE INSURANCE","Address":"1290 N Riverside Ave","City":"Rialto","State":"CA","Zip":"92376"},{"Location":"ALTADENA DAIRY","Address":"350 W Foothill Blvd","City":"Rialto","State":"CA","Zip":"92376"},{"Location":"AMERICAN HANDFORGE","Address":"165 S Spruce Ave","City":"Rialto","State":"CA","Zip":"92376"},{"Location":"AMERICAN LEGION","Address":"848 S Lilac Ave","City":"Rialto","State":"CA","Zip":"92376"},{"Location":"ANGEL BARBER SHOP","Address":"1374 W Foothill Blvd B","City":"Rialto","State":"CA","Zip":"92376"},{"Location":"ANYTIME FITNESS","Address":"1154 N Riverside Ave","City":"Rialto","State":"CA","Zip":"92376"},{"Location":"ASCENCIO ACCOUNTING & TAX SERV","Address":"649 E Foothill Blvd F","City":"Rialto","State":"CA","Zip":"92376"},{"Location":"BEN BIGGS DBA DA HAIR GAME","Address":"463 E Foothill Blvd 604","City":"Rialto","State":"CA","Zip":"92376"},{"Location":"BOTANICA TALISMAN","Address":"2715 W Foothill Blvd","City":"Rialto","State":"CA","Zip":"92376"},{"Location":"BROTHERS PIZZA","Address":"142 E Foothill Blvd","City":"Rialto","State":"CA","Zip":"92376"},{"Location":"CALIBER BODY WORKS INC","Address":"421 W Rialto Ave","City":"Rialto","State":"CA","Zip":"92376"},{"Location":"CARDENAS MARKET 9","Address":"250 W Foothill Blvd","City":"Rialto","State":"CA","Zip":"92376"},{"Location":"CARE FAMILY DENTAL","Address":"2836 W Rialto Ave A","City":"Rialto","State":"CA","Zip":"92376"},{"Location":"CHENLA MARKET","Address":"718 E Foothill Blvd","City":"Rialto","State":"CA","Zip":"92376"},{"Location":"CHIVA COCO","Address":"148 West Foothill Boulevard","City":"Rialto","State":"CA","Zip":"92376"},{"Location":"CHRISTY & ANGELS BEAUTY","Address":"2715 W Foothill Blvd 9","City":"Rialto","State":"CA","Zip":"92376"},{"Location":"CHUZE FITNESS","Address":"1521 S Riverside Ave","City":"Rialto","State":"CA","Zip":"92376"},{"Location":"CONFIRE 911 DISPATCH CENTER","Address":"1743 Miro Way","City":"Rialto","State":"CA","Zip":"92376"},{"Location":"CORTEZ BARBER SHOP","Address":"980 Bloominton Ave B","City":"Rialto","State":"CA","Zip":"92376"},{"Location":"COYS HAIR SALON","Address":"1613 S Riverside Ave","City":"Rialto","State":"CA","Zip":"92376"},{"Location":"CRISES BURGERS","Address":"765 E Foothill Blvd","City":"Rialto","State":"CA","Zip":"92376"},{"Location":"CUCAS MEX BAR AND GRILL","Address":"119 N Riverside Ave","City":"Rialto","State":"CA","Zip":"92376"},{"Location":"DIANA NAILS","Address":"1134 N Riverside Ave F","City":"Rialto","State":"CA","Zip":"92376"},{"Location":"EL PATIO RESTAURANT","Address":"333 E Foothill Blvd","City":"Rialto","State":"CA","Zip":"92376"},{"Location":"ELIM LAUNDARY INC","Address":"552 W Foothill Blvd","City":"Rialto","State":"CA","Zip":"92376"},{"Location":"ESQUIVEL AUTO DEPOT","Address":"800 W Foothill Blvd","City":"Rialto","State":"CA","Zip":"92376"},{"Location":"ESTHBRIADS","Address":"420 S Riverside Ave 201","City":"Rialto","State":"CA","Zip":"92376"},{"Location":"FERNANDO ACOSTA","Address":"1320 W Base Line Rd","City":"Rialto","State":"CA","Zip":"92376"},{"Location":"FMC 71910000","Address":"1850 N Riverside Ave 150","City":"Rialto","State":"CA","Zip":"92376"},{"Location":"FUJI ROLL SUSHI","Address":"401 S Riverside Ave","City":"Rialto","State":"CA","Zip":"92376"},{"Location":"GEORGES BURGER","Address":"334 S Riverside Ave","City":"Rialto","State":"CA","Zip":"92376"},{"Location":"GOOD SHEPHERD RESIDENTIAL CARE","Address":"238 N Riverside Ave C","City":"Rialto","State":"CA","Zip":"92376"},{"Location":"HAIR BIZ SALON","Address":"139 W Foothil Blvd","City":"Rialto","State":"CA","Zip":"92376"},{"Location":"HAIR CHIC","Address":"1244 W Base Line Rd B","City":"Rialto","State":"CA","Zip":"92376"},{"Location":"HAL HAYS CONSTRUCTION INC","Address":"2885 W Foothill Blvd","City":"Rialto","State":"CA","Zip":"92376"},{"Location":"HOLIDAYS BARBER AND BEAUTY SAL","Address":"891 E Foothill Blvd","City":"Rialto","State":"CA","Zip":"92376"},{"Location":"HOOKS FINANCIAL SERVICES","Address":"1766 N Riverside Ave B","City":"Rialto","State":"CA","Zip":"92376"},{"Location":"IE WAREHOUSE DISTRIBUTORS","Address":"1451 N Marcella Ave","City":"Rialto","State":"CA","Zip":"92376"},{"Location":"IT'S ABOUT TIME BARBER SHOP","Address":"426 West Foothill Boulevard","City":"Rialto","State":"CA","Zip":"92376"},{"Location":"JUAN M BORQUEZ","Address":"378 S Riverside Ave","City":"Rialto","State":"CA","Zip":"92376"},{"Location":"K & P LAUNDROMAT","Address":"402 E Foothill Blvd D","City":"Rialto","State":"CA","Zip":"92376"},{"Location":"K TOP","Address":"403 S Riverside Ave","City":"Rialto","State":"CA","Zip":"92376"},{"Location":"KING S  BARBER SHOP","Address":"505 S Pepper Ave","City":"Rialto","State":"CA","Zip":"92376"},{"Location":"LATABERNA BAR","Address":"655 S Riverside Ave","City":"Rialto","State":"CA","Zip":"92376"},{"Location":"LATINOS BEST TIRES","Address":"2793 W Foothill Blvd","City":"Rialto","State":"CA","Zip":"92376"},{"Location":"LAUNDRYMAT OF RIALTO","Address":"945 W Foothill Blvd","City":"Rialto","State":"CA","Zip":"92376"},{"Location":"MAJOR LEAGUES BARBERS 001","Address":"658 Bloomington Ave","City":"Rialto","State":"CA","Zip":"92376"},{"Location":"MANGOS PARADISE","Address":"204 E Foothill Blvd","City":"Rialto","State":"CA","Zip":"92376"},{"Location":"MARCELO TOLEDO DDS","Address":"326 N Riverside Ave","City":"Rialto","State":"CA","Zip":"92376"},{"Location":"MARINES TAX SERVICE","Address":"390 N Palm Ave A","City":"Rialto","State":"CA","Zip":"92376"},{"Location":"MARISCOS RIO BALSAS","Address":"943 W Foothill Blvd","City":"Rialto","State":"CA","Zip":"92376"},{"Location":"MARY STEWARTS","Address":"215 E Valley Blvd","City":"Rialto","State":"CA","Zip":"92376"},{"Location":"MI BELLA HONDURAS","Address":"755 E Foothill Blvd","City":"Rialto","State":"CA","Zip":"92376"},{"Location":"MISTY BARBER & BEAUTY","Address":"2850 W Foothill Blvd 103","City":"Rialto","State":"CA","Zip":"92376"},{"Location":"MORGAN BARBER SHOP","Address":"579 E Foothill Blvd A","City":"Rialto","State":"CA","Zip":"92376"},{"Location":"MOUNTAIN CARD LAUNDRY","Address":"1424 W Foothill Blvd G","City":"Rialto","State":"CA","Zip":"92376"},{"Location":"NISAMEX LLC JERSEY MIKES SUBS","Address":"186 E Easton St  #d","City":"Rialto","State":"CA","Zip":"92376"},{"Location":"P&S TRUCK CENTER","Address":"161 E Valley Blvd","City":"Rialto","State":"CA","Zip":"92376"},{"Location":"PACIFIC CLINICS","Address":"1501 S Riverside Ave","City":"Rialto","State":"CA","Zip":"92376"},{"Location":"PACIFIC GLASS COMPANY","Address":"474 S Yucca Ave","City":"Rialto","State":"CA","Zip":"92376"},{"Location":"PROFESSIONAL ANSWER","Address":"300 S Sycamore Ave","City":"Rialto","State":"CA","Zip":"92376"},{"Location":"PUPUSAS BEER","Address":"599 E Foothill Blvd","City":"Rialto","State":"CA","Zip":"92376"},{"Location":"R C CUTZ","Address":"710 E Foothill Blvd","City":"Rialto","State":"CA","Zip":"92376"},{"Location":"RAINBOW NAILS","Address":"583 E Foothill Blvd","City":"Rialto","State":"CA","Zip":"92376"},{"Location":"RIALITO CLINICA MEDICA FAMILIA","Address":"436 S Riverside Ave","City":"Rialto","State":"CA","Zip":"92376"},{"Location":"RIALTO DENTAL CARE","Address":"579 E Foothill Blvd","City":"Rialto","State":"CA","Zip":"92376"},{"Location":"RIALTO FISH","Address":"244 W Base Line Rd","City":"Rialto","State":"CA","Zip":"92376"},{"Location":"RIALTO LAUNDRY","Address":"473 W Base Line Rd","City":"Rialto","State":"CA","Zip":"92376"},{"Location":"ROYAL SMOKE SHOP","Address":"548 W Foothill Blvd","City":"Rialto","State":"CA","Zip":"92376"},{"Location":"SEAY'S INCOME TAX SERVICE","Address":"420 S Riverside Ave","City":"Rialto","State":"CA","Zip":"92376"},{"Location":"SHOWBIZ","Address":"141 W Foothill Blvd","City":"Rialto","State":"CA","Zip":"92376"},{"Location":"SIZZLER RESTAURANT","Address":"1236 N Riverside Ave","City":"Rialto","State":"CA","Zip":"92376"},{"Location":"SO CAL STRUCTURAL STELL FAB","Address":"130 S Spruce Ave","City":"Rialto","State":"CA","Zip":"92376"},{"Location":"SOO PAI","Address":"402 E Foothill Blvd F","City":"Rialto","State":"CA","Zip":"92376"},{"Location":"SOUTHERN CALIFORNIA EDISON","Address":"2885 W Foothill Blvd","City":"Rialto","State":"CA","Zip":"92376"},{"Location":"SOUTHERN CALIFORNIA EDISON","Address":"300 N Pepper Ave","City":"Rialto","State":"CA","Zip":"92376"},{"Location":"SPEED WASH LAUNDRY","Address":"210 W Foothill Blvd","City":"Rialto","State":"CA","Zip":"92376"},{"Location":"SSI EXPRESS","Address":"150 S Larch Ave","City":"Rialto","State":"CA","Zip":"92376"},{"Location":"STAPLES SOUTHWEST DISTRIBUTION","Address":"450 S Cactus Ave","City":"Rialto","State":"CA","Zip":"92376"},{"Location":"T & M NAILS","Address":"1424 W Foothill Blvd B","City":"Rialto","State":"CA","Zip":"92376"},{"Location":"TAMS BURGERS","Address":"180 E Base Line Rd","City":"Rialto","State":"CA","Zip":"92376"},{"Location":"TAQUERIA LA VACA Y EL BUEY","Address":"2872 W Rialto Ave","City":"Rialto","State":"CA","Zip":"92376"},{"Location":"TEAMSTERS","Address":"379 W Valley Blvd","City":"Rialto","State":"CA","Zip":"92376"},{"Location":"TOYS R US 2","Address":"1110 W Merrill Ave","City":"Rialto","State":"CA","Zip":"92376"},{"Location":"UNDER ARMOR","Address":"2510 W Walnut Ave","City":"Rialto","State":"CA","Zip":"92376"},{"Location":"UNDER ARMOR1","Address":"2510 W Walnut Ave","City":"Rialto","State":"CA","Zip":"92376"},{"Location":"UNDER ARMOR2","Address":"2510 W Walnut Ave","City":"Rialto","State":"CA","Zip":"92376"},{"Location":"UNDER ARMOR3","Address":"2510 W Walnut Ave","City":"Rialto","State":"CA","Zip":"92376"},{"Location":"UNDER ARMOR4","Address":"2510 W Walnut Ave","City":"Rialto","State":"CA","Zip":"92376"},{"Location":"VIVA TACOS LA ESTRELLA","Address":"271 E Foothill Blvd","City":"Rialto","State":"CA","Zip":"92376"},{"Location":"WASH N CLEAN","Address":"565 S Riverside Ave","City":"Rialto","State":"CA","Zip":"92376"},{"Location":"WESTSIDE PIT-B-QUE","Address":"519 W Foothill Blvd H","City":"Rialto","State":"CA","Zip":"92376"},{"Location":"WINGSTOP","Address":"186 E Easton Ave #e","City":"Rialto","State":"CA","Zip":"92376"}]