[{"Location":"24 HOUR FITNESS #926","Address":"27495 San Bernardino","City":"Redlands","State":"CA","Zip":"92374"},{"Location":"A B A FITNESS","Address":"500 Orange St","City":"Redlands","State":"CA","Zip":"92374"},{"Location":"ALTERNATIVE GROUP","Address":"1902 Orange Tree Ln 150","City":"Redlands","State":"CA","Zip":"92374"},{"Location":"AMAZON ONT9","Address":"2125 W San Bernardino Ave","City":"Redlands","State":"CA","Zip":"92374"},{"Location":"AMERICAN LEGION POST 106","Address":"814 W Colton Ave","City":"Redlands","State":"CA","Zip":"92374"},{"Location":"AMERICAN LEGION POST 650","Address":"1532 Church St","City":"Redlands","State":"CA","Zip":"92374"},{"Location":"ANTONIOUS PIZZA","Address":"30 W Colton Ave","City":"Redlands","State":"CA","Zip":"92374"},{"Location":"ARROWHEAD ORTHOPEDIC","Address":"1901 W Lugonia Ave 230","City":"Redlands","State":"CA","Zip":"92374"},{"Location":"BANNER MATTRESS AND UP","Address":"606 Texas St","City":"Redlands","State":"CA","Zip":"92374"},{"Location":"BECTON DICKINSON AND CO","Address":"2200 W San Bernardino Ave","City":"Redlands","State":"CA","Zip":"92374"},{"Location":"BRIGHT NOW DENTAL REDLAND","Address":"1285 Alabama St","City":"Redlands","State":"CA","Zip":"92374"},{"Location":"BURLINGTON STORES INC","Address":"27582 Pioneer Ave","City":"Redlands","State":"CA","Zip":"92374"},{"Location":"CBDM DBA LIBRARY GENTS CLUB","Address":"1331 W Colton Ave","City":"Redlands","State":"CA","Zip":"92374"},{"Location":"CHILI'S #1364","Address":"10000 Alabama St","City":"Redlands","State":"CA","Zip":"92374"},{"Location":"COLLECTIVE BRANDS","Address":"26811 Palmetto Ave","City":"Redlands","State":"CA","Zip":"92374"},{"Location":"COMFORT SUITES","Address":"1230 W Colton Ave","City":"Redlands","State":"CA","Zip":"92374"},{"Location":"COUNTRY INN","Address":"1260 Alabama St","City":"Redlands","State":"CA","Zip":"92374"},{"Location":"CUCA S MEXICAN FOOD","Address":"1752 E Lugonia Ave 121","City":"Redlands","State":"CA","Zip":"92374"},{"Location":"CVS CAREMARK","Address":"1127 Bryn Mawr Ave","City":"Redlands","State":"CA","Zip":"92374"},{"Location":"DESIGN IT INC","Address":"1460 Mountain View Ave","City":"Redlands","State":"CA","Zip":"92374"},{"Location":"DIVERSIFIED PACIFIC DEVLP GROU","Address":"1901 Orange Tree Ln","City":"Redlands","State":"CA","Zip":"92374"},{"Location":"DONKEY PUNCH BREWERY","Address":"2351 W Lugonia Ave G","City":"Redlands","State":"CA","Zip":"92374"},{"Location":"DSC LOGISTICS","Address":"1895 Marigold Ave","City":"Redlands","State":"CA","Zip":"92374"},{"Location":"DYNASTY SUITES REDLONDS","Address":"1235 W Colton Ave","City":"Redlands","State":"CA","Zip":"92374"},{"Location":"ECONO WASH","Address":"938 Orange St","City":"Redlands","State":"CA","Zip":"92374"},{"Location":"ELLIS CIGAR LOUNGE","Address":"732 Tennesee Street","City":"Redlands","State":"CA","Zip":"92374"},{"Location":"EMPIRE BOWL INC","Address":"940 W Colton Ave","City":"Redlands","State":"CA","Zip":"92374"},{"Location":"EUREKA BURGER","Address":"345 Pearl Ave 130","City":"Redlands","State":"CA","Zip":"92374"},{"Location":"EXEL CLOROX","Address":"2300 W San Bernardino Ave","City":"Redlands","State":"CA","Zip":"92374"},{"Location":"FAMOUS DAVE'S BBQ REDLANDS3135","Address":"27500 W Lugonia Ave","City":"Redlands","State":"CA","Zip":"92374"},{"Location":"FARROWS ADVENTURE PARK A","Address":"1101 California St","City":"Redlands","State":"CA","Zip":"92374"},{"Location":"FLAMINGO","Address":"338 Orange St","City":"Redlands","State":"CA","Zip":"92374"},{"Location":"FMC 71840000","Address":"1210 Indiana Ct","City":"Redlands","State":"CA","Zip":"92374"},{"Location":"HANGAR 24 CRAFT BREWERY LLC","Address":"1710 Sessums Dr","City":"Redlands","State":"CA","Zip":"92374"},{"Location":"HANGER PNO","Address":"1177 Idahoe St #101","City":"Redlands","State":"CA","Zip":"92374"},{"Location":"HAPPINESS NAILS","Address":"10010 Alabama St C","City":"Redlands","State":"CA","Zip":"92374"},{"Location":"HITTERS CHOICE BATTING CAGES","Address":"10446 Enterprise Dr","City":"Redlands","State":"CA","Zip":"92374"},{"Location":"HOME DEPOT","Address":"27352 River Bluff Ave","City":"Redlands","State":"CA","Zip":"92374"},{"Location":"JCI","Address":"1711 Plum Ln C","City":"Redlands","State":"CA","Zip":"92374"},{"Location":"JERSEY MIKES SUBS","Address":"10040 Alabama St D","City":"Redlands","State":"CA","Zip":"92374"},{"Location":"JOHNNY'S TACOS & SPORTS","Address":"1756 E Lugonia Ave 108","City":"Redlands","State":"CA","Zip":"92374"},{"Location":"KAISER PERMANENTE","Address":"1301 California St","City":"Redlands","State":"CA","Zip":"92374"},{"Location":"KOHL'S #631","Address":"27540 W Lugonia Ave","City":"Redlands","State":"CA","Zip":"92374"},{"Location":"LA FITNESS #56","Address":"1035 Parkford Dr","City":"Redlands","State":"CA","Zip":"92374"},{"Location":"LINDSEY FINANCIAL INC","Address":"1980 Orange Tree Ln","City":"Redlands","State":"CA","Zip":"92374"},{"Location":"MACARONI GRILL 1324","Address":"27490 W Lugonia Ave","City":"Redlands","State":"CA","Zip":"92374"},{"Location":"MANSFIELD OIL COMPANY","Address":"25814 Business Center Dr B","City":"Redlands","State":"CA","Zip":"92374"},{"Location":"MARCIS SALON","Address":"800 Lugonia St E","City":"Redlands","State":"CA","Zip":"92374"},{"Location":"MEDLINE","Address":"1455 Research Dr","City":"Redlands","State":"CA","Zip":"92374"},{"Location":"MEN'S WEARHOUSE #2744","Address":"9990 Alabama St","City":"Redlands","State":"CA","Zip":"92374"},{"Location":"MEN'S WEARHOUSE #2773","Address":"27530 W Lugonia Ave 87","City":"Redlands","State":"CA","Zip":"92374"},{"Location":"MILK CREEK DRIVE THRU","Address":"2087 Orange Tree Ln","City":"Redlands","State":"CA","Zip":"92374"},{"Location":"MOMMY AND ME MEDICAL GROUP 3","Address":"1711 Orange St","City":"Redlands","State":"CA","Zip":"92374"},{"Location":"PACIFIC DENTAL #74","Address":"422 Orange St","City":"Redlands","State":"CA","Zip":"92374"},{"Location":"RED ROBIN #598","Address":"27476 W Lugonia Ave","City":"Redlands","State":"CA","Zip":"92374"},{"Location":"REDLANDS UNIFIED SCHOOL","Address":"250 Church St","City":"Redlands","State":"CA","Zip":"92374"},{"Location":"ROMANOS - REDLANDS","Address":"330 Orange St","City":"Redlands","State":"CA","Zip":"92374"},{"Location":"SCHENKER LOGISTICS INC","Address":"1901 California St","City":"Redlands","State":"CA","Zip":"92374"},{"Location":"SCHOOLS FIRST CREDIT UNION","Address":"411 6th St","City":"Redlands","State":"CA","Zip":"92374"},{"Location":"SCOTTRADE 54A","Address":"410 Orange St 2b","City":"Redlands","State":"CA","Zip":"92374"},{"Location":"SHAKEY'S PIZZA RESTAURANT","Address":"836 W Colton Ave","City":"Redlands","State":"CA","Zip":"92374"},{"Location":"SOUTHERN CALIFORNIA GAS COMP","Address":"1981 W Lugonia Ave","City":"Redlands","State":"CA","Zip":"92374"},{"Location":"TARGET","Address":"27320 W Lugonia Ave","City":"Redlands","State":"CA","Zip":"92374"},{"Location":"TATTOO REVOLUTION","Address":"724 Tennesse St","City":"Redlands","State":"CA","Zip":"92374"},{"Location":"THE 10 BARBER SHOP","Address":"1399 W Colton Ave Ste8","City":"Redlands","State":"CA","Zip":"92374"},{"Location":"THE OLD SPAGHETTI FACTORY","Address":"1635 Industrial Park Ave","City":"Redlands","State":"CA","Zip":"92374"},{"Location":"TORTUGA DAY SPA AND SALON","Address":"2079 Orange Tree Ln","City":"Redlands","State":"CA","Zip":"92374"},{"Location":"TOYOTA OF REDLANDS","Address":"921 New York St","City":"Redlands","State":"CA","Zip":"92374"},{"Location":"TWO BROKE GUYS LLC","Address":"1235 Indiana Ct 109","City":"Redlands","State":"CA","Zip":"92374"},{"Location":"UNIVERSITY BARBER SHOP","Address":"800 E Lugonia Ave","City":"Redlands","State":"CA","Zip":"92374"},{"Location":"UNIVERSITY OF REDLAND FITNESS","Address":"1219 E Brockton Ave","City":"Redlands","State":"CA","Zip":"92374"},{"Location":"UNIVERSITY OF REDLANDS","Address":"1200 E Colton Ave","City":"Redlands","State":"CA","Zip":"92374"},{"Location":"VICTORIA NAIL","Address":"1785 E Lugonia Ave","City":"Redlands","State":"CA","Zip":"92374"},{"Location":"SEAY'S INCOME TAX SERVICES","Address":"420 Riverside Suite # 205","City":"Rialto","State":"CA","Zip":"92374"}]