[{"Location":"ALS LIQUOR MARKET","Address":"4202 Phelan Rd C","City":"Phelan","State":"CA","Zip":"92371"},{"Location":"ARTUROS BAR AND GRILL","Address":"4264 Phelan Rd","City":"Phelan","State":"CA","Zip":"92371"},{"Location":"CALTRANS","Address":"14757 Us Highway 138","City":"Phelan","State":"CA","Zip":"92371"},{"Location":"MANGO GRILL","Address":"4037 Phelan Rd","City":"Phelan","State":"CA","Zip":"92371"},{"Location":"MORMON ROCKS STATION","Address":"7601 Us Highway 138","City":"Phelan","State":"CA","Zip":"92371"},{"Location":"MY HERO SUBS","Address":"4190 Phelan Rd","City":"Phelan","State":"CA","Zip":"92371"},{"Location":"PHELAN NAILS","Address":"4188 Phelan Rd T","City":"Phelan","State":"CA","Zip":"92371"},{"Location":"PHELAN PIZZA FACTORY","Address":"3936 Phelan Rd B17","City":"Phelan","State":"CA","Zip":"92371"},{"Location":"RICKS AUTO","Address":"4686 Phelan Rd","City":"Phelan","State":"CA","Zip":"92371"},{"Location":"SERRANO HIGHSCHOOL","Address":"9292 Sheep Creek Rd","City":"Phelan","State":"CA","Zip":"92371"},{"Location":"SUMMERTIME INC.","Address":"9599 Sheep Creek Rd","City":"Phelan","State":"CA","Zip":"92371"},{"Location":"VIVA TACOS LA ESTRELLA","Address":"3724 Phelan Rd Suite","City":"Phelan","State":"CA","Zip":"92371"}]