[{"Location":"FITNESS 19 - 236","Address":"2019 N Riverside Ave 7","City":"Rialto","State":"CA","Zip":"92377"},{"Location":"J&R TRANSITIONAL LIVING","Address":"2662 W Dawnview Dr","City":"Rialto","State":"CA","Zip":"92377"},{"Location":"KTI INC","Address":"3011 N Laurel Ave","City":"Rialto","State":"CA","Zip":"92377"},{"Location":"MONIER LIFETILE","Address":"3511 N Riverside Ave","City":"Rialto","State":"CA","Zip":"92377"},{"Location":"SMITTYS DIESEL REPAIR","Address":"2020 Lowell St","City":"Rialto","State":"CA","Zip":"92377"},{"Location":"THE GENEVA HOUSE LLC","Address":"3782 N Veronica Ave","City":"Rialto","State":"CA","Zip":"92377"},{"Location":"FITNESS 19 - 236","Address":"2019 N Riverside Ave 7","City":"Rialto","State":"CA","Zip":"92377"},{"Location":"J&R TRANSITIONAL LIVING","Address":"2662 W Dawnview Dr","City":"Rialto","State":"CA","Zip":"92377"},{"Location":"KTI INC","Address":"3011 N Laurel Ave","City":"Rialto","State":"CA","Zip":"92377"},{"Location":"MONIER LIFETILE","Address":"3511 N Riverside Ave","City":"Rialto","State":"CA","Zip":"92377"},{"Location":"SMITTYS DIESEL REPAIR","Address":"2020 Lowell St","City":"Rialto","State":"CA","Zip":"92377"},{"Location":"THE GENEVA HOUSE LLC","Address":"3782 N Veronica Ave","City":"Rialto","State":"CA","Zip":"92377"}]