[{"Location":"DEEP CREEK DRIVEIN","Address":"32890 Hilltop Bl","City":"Arrowbear Lake","State":"CA","Zip":"92382"},{"Location":"","Address":"2551 Whispering Pines Dr","City":"Running Springs","State":"CA","Zip":"92382"},{"Location":"ARROWHEAD LIQUOR & DELI","Address":"32861 Hilltop Blvd","City":"Running Springs","State":"CA","Zip":"92382"},{"Location":"CAMP PONDO","Address":"31324 Green Valley Lake Rd","City":"Running Springs","State":"CA","Zip":"92382"},{"Location":"NEOS PIZZA HOUSE","Address":"32000 Hilltop Blvd","City":"Running Springs","State":"CA","Zip":"92382"},{"Location":"RUSTIQUE FURNITURE","Address":"2483 Hunsaker","City":"Running Springs","State":"CA","Zip":"92382"},{"Location":"SNOW VALLEY SKI RESORT","Address":"35100 Hwy 18","City":"Running Springs","State":"CA","Zip":"92382"},{"Location":"DEEP CREEK DRIVEIN","Address":"32890 Hilltop Bl","City":"Arrowbear Lake","State":"CA","Zip":"92382"},{"Location":"","Address":"2551 Whispering Pines Dr","City":"Running Springs","State":"CA","Zip":"92382"},{"Location":"ARROWHEAD LIQUOR & DELI","Address":"32861 Hilltop Blvd","City":"Running Springs","State":"CA","Zip":"92382"},{"Location":"CAMP PONDO","Address":"31324 Green Valley Lake Rd","City":"Running Springs","State":"CA","Zip":"92382"},{"Location":"NEOS PIZZA HOUSE","Address":"32000 Hilltop Blvd","City":"Running Springs","State":"CA","Zip":"92382"},{"Location":"RUSTIQUE FURNITURE","Address":"2483 Hunsaker","City":"Running Springs","State":"CA","Zip":"92382"},{"Location":"SNOW VALLEY SKI RESORT","Address":"35100 Hwy 18","City":"Running Springs","State":"CA","Zip":"92382"}]