[{"Location":"395 TRUCK","Address":"15655 Us Highway 395","City":"Victorville","State":"CA","Zip":"92394"},{"Location":"AMERICAN BOTTLING CO","Address":"18180 Gateway Dr","City":"Victorville","State":"CA","Zip":"92394"},{"Location":"BLUE WATER","Address":"15207 Hook Blvd 4","City":"Victorville","State":"CA","Zip":"92394"},{"Location":"BURNS SEPTIC","Address":"17496 Turner Rd","City":"Victorville","State":"CA","Zip":"92394"},{"Location":"BURRTEC WASTE INDUSTRIES INC","Address":"17080 Stoddard Wells Rd","City":"Victorville","State":"CA","Zip":"92394"},{"Location":"DRAGON SMOKE SHOP","Address":"14890 El Evado Rd 107","City":"Victorville","State":"CA","Zip":"92394"},{"Location":"EXEL INC.","Address":"13133 Innovation Way 100","City":"Victorville","State":"CA","Zip":"92394"},{"Location":"GE AVIATION","Address":"1800 Phantom West Dr","City":"Victorville","State":"CA","Zip":"92394"},{"Location":"GG ENTERPRISES","Address":"15667 Roy Rogers Dr 109","City":"Victorville","State":"CA","Zip":"92394"},{"Location":"HIGH DESERT VET CENTER","Address":"15095 Amargosa Rd 107","City":"Victorville","State":"CA","Zip":"92394"},{"Location":"JOSE ENRIQUES","Address":"17061 N D St","City":"Victorville","State":"CA","Zip":"92394"},{"Location":"LA VILLA RESTAURANT","Address":"15570 Mojave Dr H","City":"Victorville","State":"CA","Zip":"92394"},{"Location":"LEADING EDGE AVIATION","Address":"13516 Phantom St","City":"Victorville","State":"CA","Zip":"92394"},{"Location":"MILLION AIR VICTORVILLE","Address":"18590 Readiness St","City":"Victorville","State":"CA","Zip":"92394"},{"Location":"PAPA JOHNS PIZZA","Address":"15683 Roy Rogers Dr C","City":"Victorville","State":"CA","Zip":"92394"},{"Location":"PEACE OF MIND LLC","Address":"14890 El Levado Rd","City":"Victorville","State":"CA","Zip":"92394"},{"Location":"PLASTIPAK PACKAGING","Address":"13415 Sabre Blvd","City":"Victorville","State":"CA","Zip":"92394"},{"Location":"SOUTHERN CALIFORNIA GAS CO","Address":"17071 Gasline Rd","City":"Victorville","State":"CA","Zip":"92394"}]