[{"Location":"ALADDIN MOBILE HOME ESTATES","Address":"12813 7th St","City":"Yucaipa","State":"CA","Zip":"92399"},{"Location":"AMERICAN MEDICAL RESPONSE","Address":"12047 4th St","City":"Yucaipa","State":"CA","Zip":"92399"},{"Location":"AMERICAN ROAD TRIP","Address":"33960 Yucaipa Blvd","City":"Yucaipa","State":"CA","Zip":"92399"},{"Location":"ARTISTIC ELEMENT TATTOO","Address":"34185 Yucaipa Blvd","City":"Yucaipa","State":"CA","Zip":"92399"},{"Location":"BOTTOMS UP","Address":"12131 14th St","City":"Yucaipa","State":"CA","Zip":"92399"},{"Location":"BRASWELLS  YUCAIPA VALLEY","Address":"35253 Avenue H 304c","City":"Yucaipa","State":"CA","Zip":"92399"},{"Location":"BRASWELLS MEDITERRANEAN GARDEN","Address":"12295 4th St","City":"Yucaipa","State":"CA","Zip":"92399"},{"Location":"BRASWELLS YUCAIPA LEISURE AND","Address":"32195 Avenue E","City":"Yucaipa","State":"CA","Zip":"92399"},{"Location":"BREW REBELLION","Address":"13444 California St B","City":"Yucaipa","State":"CA","Zip":"92399"},{"Location":"CASA TREJO","Address":"34636 County Line Rd 15","City":"Yucaipa","State":"CA","Zip":"92399"},{"Location":"CHINA BOWL","Address":"33676 Yucaipa Blvd 7","City":"Yucaipa","State":"CA","Zip":"92399"},{"Location":"COUNTRY BEAR HAIR BOUTIQUE","Address":"12137 5th St","City":"Yucaipa","State":"CA","Zip":"92399"},{"Location":"DAVITA #2094 YUCAIPA","Address":"33487 Yucaipa Blvd","City":"Yucaipa","State":"CA","Zip":"92399"},{"Location":"DAYSTAR TELEVISION NETWORK","Address":"41571 Manzanita Dr","City":"Yucaipa","State":"CA","Zip":"92399"},{"Location":"EAST VALLEY PAWN","Address":"31250 Hampton Rd","City":"Yucaipa","State":"CA","Zip":"92399"},{"Location":"ELKS LODGE 2389","Address":"12165 2nd St","City":"Yucaipa","State":"CA","Zip":"92399"},{"Location":"FANTASTIC SAMS","Address":"33676 Yucaipa Blvd","City":"Yucaipa","State":"CA","Zip":"92399"},{"Location":"FIRESTONE #325547","Address":"33433 Yucaipa Blvd","City":"Yucaipa","State":"CA","Zip":"92399"},{"Location":"FOUR SEASON'S SMORGASBOARD INC","Address":"32971 Yucaipa Blvd","City":"Yucaipa","State":"CA","Zip":"92399"},{"Location":"GENESIS BEAUTY SALON","Address":"34052 County Line Rd","City":"Yucaipa","State":"CA","Zip":"92399"},{"Location":"HP MEDICAL","Address":"13046 California St","City":"Yucaipa","State":"CA","Zip":"92399"},{"Location":"IRIS GARDENS HOA","Address":"12253 Tulip Ln","City":"Yucaipa","State":"CA","Zip":"92399"},{"Location":"JAKE ITALIAN BISTRO&BREW","Address":"12170 4th St","City":"Yucaipa","State":"CA","Zip":"92399"},{"Location":"JERSEY MIKES SUBS","Address":"33423 Yucaipa Blvd","City":"Yucaipa","State":"CA","Zip":"92399"},{"Location":"JOHN PHILLYS STEAK","Address":"34215 Yucaipa Blvd","City":"Yucaipa","State":"CA","Zip":"92399"},{"Location":"JOSE'S MEXICAN FOOD","Address":"33527 Yucaipa Blvd C7","City":"Yucaipa","State":"CA","Zip":"92399"},{"Location":"LAS FUENTZ","Address":"33946 Yucaipa Blvd","City":"Yucaipa","State":"CA","Zip":"92399"},{"Location":"LAS TORTAS","Address":"32999 Yucaipa Blvd","City":"Yucaipa","State":"CA","Zip":"92399"},{"Location":"LOPEZ TACOS RESTAURANT","Address":"34993 Yucaipa Blvd","City":"Yucaipa","State":"CA","Zip":"92399"},{"Location":"OAK GLEN CAMP","Address":"41100 Pine Bench Rd","City":"Yucaipa","State":"CA","Zip":"92399"},{"Location":"OAK TREE APPLE ANNIES","Address":"38480 Oak Glen Rd","City":"Yucaipa","State":"CA","Zip":"92399"},{"Location":"PEDRINO HOME REMODELING","Address":"12124 California St","City":"Yucaipa","State":"CA","Zip":"92399"},{"Location":"PFF BANK AND TRUST","Address":"33700 Yucaipa Blvd","City":"Yucaipa","State":"CA","Zip":"92399"},{"Location":"PINNACLE MEDICAL GROUP","Address":"34845 Yucaipa Blvd","City":"Yucaipa","State":"CA","Zip":"92399"},{"Location":"RANCHO DEL SOL","Address":"12361 4th St","City":"Yucaipa","State":"CA","Zip":"92399"},{"Location":"RICKS BARBERSHOP","Address":"35063 Yucaipa Blvd","City":"Yucaipa","State":"CA","Zip":"92399"},{"Location":"SHELL RAPID LUBE","Address":"33333 Yucaipa Blvd","City":"Yucaipa","State":"CA","Zip":"92399"},{"Location":"SORENSON CORP","Address":"32020 Dunlap Blvd","City":"Yucaipa","State":"CA","Zip":"92399"},{"Location":"SUPER CUTS","Address":"33423 Yucaipa Blvd","City":"Yucaipa","State":"CA","Zip":"92399"},{"Location":"TERRACINA MEDICAL CLINIC INC","Address":"34636 County Line Rd 32","City":"Yucaipa","State":"CA","Zip":"92399"},{"Location":"THE FOE 4199","Address":"12015 4th St","City":"Yucaipa","State":"CA","Zip":"92399"},{"Location":"THE ORIGINAL TACO VILLAG","Address":"33490 Oak Glen Rd B","City":"Yucaipa","State":"CA","Zip":"92399"},{"Location":"THE PIZZA CHALET","Address":"34299 Yucaipa Blvd","City":"Yucaipa","State":"CA","Zip":"92399"},{"Location":"THE WOOD PLANTER HUT","Address":"12059 1st St","City":"Yucaipa","State":"CA","Zip":"92399"},{"Location":"TIME OUT SPORTS BAR AND","Address":"33490 Oak Glen Rd H","City":"Yucaipa","State":"CA","Zip":"92399"},{"Location":"VAPE ATTIC","Address":"31608 Yucaipa Blvd 303","City":"Yucaipa","State":"CA","Zip":"92399"},{"Location":"VETERANS OF FOREIGN WARS 7347","Address":"12235 California St","City":"Yucaipa","State":"CA","Zip":"92399"},{"Location":"W.S.K. AND SONS  INC","Address":"34455 Sunlight Dr","City":"Yucaipa","State":"CA","Zip":"92399"},{"Location":"WABA GRILL","Address":"33492 Oak Glen Rd L","City":"Yucaipa","State":"CA","Zip":"92399"},{"Location":"WHISKEY BUSINESS","Address":"34536 Yucaipa Blvd","City":"Yucaipa","State":"CA","Zip":"92399"},{"Location":"YUCAIPA VALLEY INN","Address":"34055 Yucaipa Blvd 1","City":"Yucaipa","State":"CA","Zip":"92399"},{"Location":"YUCAPA PHYSICAL THERAPY","Address":"33492 Oak Glen Rd H","City":"Yucaipa","State":"CA","Zip":"92399"},{"Location":"LA MEXICANA RESTAURANT","Address":"31608 Yucaita Blvd","City":"Yucaita","State":"CA","Zip":"92399"}]