[{"Location":"ADVANCED HEARING SYSTEMS","Address":"14201 Kentwood Blvd 2","City":"Victorville","State":"CA","Zip":"92392"},{"Location":"ALMOND ROCK","Address":"12875 Bear Valley Rd","City":"Victorville","State":"CA","Zip":"92392"},{"Location":"ALTIMATE WILL INC","Address":"15322 Anacapa Rd A","City":"Victorville","State":"CA","Zip":"92392"},{"Location":"AMERICAN MEDICAL RESPONSE","Address":"13086 Amethyst Rd","City":"Victorville","State":"CA","Zip":"92392"},{"Location":"APPLEBEE'S #2150026","Address":"12044 Amargosa Rd","City":"Victorville","State":"CA","Zip":"92392"},{"Location":"ARCHIBALDS VICTORVILLE","Address":"14321 Bear Valley Rd","City":"Victorville","State":"CA","Zip":"92392"},{"Location":"B&B CYCLES","Address":"13815 Park Ave","City":"Victorville","State":"CA","Zip":"92392"},{"Location":"BRUMBLE & ASSOCIATES","Address":"15435 Anacapa Rd","City":"Victorville","State":"CA","Zip":"92392"},{"Location":"CAPITAL DEVELOPMENT","Address":"13849 Amargosa Rd 101","City":"Victorville","State":"CA","Zip":"92392"},{"Location":"CARINO'S #1607","Address":"11920 Amargosa Rd","City":"Victorville","State":"CA","Zip":"92392"},{"Location":"CERTIFIED TIRE","Address":"12084 Dunia Rd","City":"Victorville","State":"CA","Zip":"92392"},{"Location":"CHILI'S #0896","Address":"11910 Amargosa Rd","City":"Victorville","State":"CA","Zip":"92392"},{"Location":"CYBER CALL 888","Address":"15329 Palmdale Rd L","City":"Victorville","State":"CA","Zip":"92392"},{"Location":"DICK'S SPORTING GOODS #1111","Address":"14500 Bear Valley Rd 1111","City":"Victorville","State":"CA","Zip":"92392"},{"Location":"DOMINOS PIZZA","Address":"12274 Palmdale Rd 5","City":"Victorville","State":"CA","Zip":"92392"},{"Location":"DYNAMIC COLLISION CENTER","Address":"15247 Anacapa Rd","City":"Victorville","State":"CA","Zip":"92392"},{"Location":"EL TIO PEPE MEXICAN RESTAURANT","Address":"12100 Amargosa Rd","City":"Victorville","State":"CA","Zip":"92392"},{"Location":"F B I","Address":"14011 Park Ave","City":"Victorville","State":"CA","Zip":"92392"},{"Location":"FITNESS 19 VICTORVILLE","Address":"13605 Bear Valley Rd C","City":"Victorville","State":"CA","Zip":"92392"},{"Location":"FRANKLIN TRUCK PARTS","Address":"14215 Talmdale Rd","City":"Victorville","State":"CA","Zip":"92392"},{"Location":"FRESH QUALITY FOOD","Address":"11620 Amargosa Rd","City":"Victorville","State":"CA","Zip":"92392"},{"Location":"GOLDEN TRIANGLE SOCIAL","Address":"13410 Amargosa Rd","City":"Victorville","State":"CA","Zip":"92392"},{"Location":"HATTRIX","Address":"15330 Anacapa Rd 4","City":"Victorville","State":"CA","Zip":"92392"},{"Location":"HOLLY NAILS","Address":"13622 Bear Valley Rd 3","City":"Victorville","State":"CA","Zip":"92392"},{"Location":"J & R SUPER DISCOUNT","Address":"14084 Amargosa Rd 240","City":"Victorville","State":"CA","Zip":"92392"},{"Location":"J AND L UPHOLSTERY","Address":"15354 Anacapa Rd D","City":"Victorville","State":"CA","Zip":"92392"},{"Location":"J THURMAN TAX SERVICE","Address":"14176 Amargosa Rd J","City":"Victorville","State":"CA","Zip":"92392"},{"Location":"JCPENNEY 0217","Address":"14370 Bear Valley Rd","City":"Victorville","State":"CA","Zip":"92392"},{"Location":"JOCKOS PUB & SPORTS BAR","Address":"13622 Bear Valley Rd 13","City":"Victorville","State":"CA","Zip":"92392"},{"Location":"JUICE IT UP","Address":"14329 Bear Valley Rd 4","City":"Victorville","State":"CA","Zip":"92392"},{"Location":"KAMI M ERICKSON DDS INC","Address":"14309 Bear Valley Rd 1a","City":"Victorville","State":"CA","Zip":"92392"},{"Location":"KOHL'S #636","Address":"14305 Bear Valley Rd","City":"Victorville","State":"CA","Zip":"92392"},{"Location":"MACY'S WEST 557","Address":"14580 Bear Valley Rd","City":"Victorville","State":"CA","Zip":"92392"},{"Location":"MACY'S WEST 557 BR","Address":"14580 Bear Valley Rd","City":"Victorville","State":"CA","Zip":"92392"},{"Location":"MOLLIE'S","Address":"13680 Bear Valley Rd E5","City":"Victorville","State":"CA","Zip":"92392"},{"Location":"NENA SALON AND BARBER SHOP","Address":"15329 Palmdale Rd H","City":"Victorville","State":"CA","Zip":"92392"},{"Location":"ORIGINAL ROADHOUSE GRILL","Address":"11940 Amargosa Rd","City":"Victorville","State":"CA","Zip":"92392"},{"Location":"OUTBACK STEAKHOUSE #0580","Address":"12400 Amargosa Rd","City":"Victorville","State":"CA","Zip":"92392"},{"Location":"PIZZA HUT","Address":"14582 Palmdale Rd","City":"Victorville","State":"CA","Zip":"92392"},{"Location":"PLANNED PARENTHOOD","Address":"15403 Park Ave E","City":"Victorville","State":"CA","Zip":"92392"},{"Location":"PLATINUM AUTO GROUP","Address":"15180 Palmdale Rd 101","City":"Victorville","State":"CA","Zip":"92392"},{"Location":"RED LOBSTER #0608","Address":"12180 Amargosa Rd","City":"Victorville","State":"CA","Zip":"92392"},{"Location":"RED ROBIN #71A","Address":"14400 Bear Valley Rd","City":"Victorville","State":"CA","Zip":"92392"},{"Location":"SAFE LITE AUTO GLASS","Address":"15375 Anacapa Rd","City":"Victorville","State":"CA","Zip":"92392"},{"Location":"SAN BERNARDINO SHERIFF","Address":"14455 Civic Dr","City":"Victorville","State":"CA","Zip":"92392"},{"Location":"SAN BERNARDINOSTATION 22","Address":"12398 Victorville","City":"Victorville","State":"CA","Zip":"92392"},{"Location":"SCHOOL FIRST CREDIT UNION","Address":"13605 Bear Valley Rd","City":"Victorville","State":"CA","Zip":"92392"},{"Location":"SEMPER FI INSURANCE","Address":"13741 Linda St","City":"Victorville","State":"CA","Zip":"92392"},{"Location":"SIGNATURE BARBERING","Address":"15433 W Sand St","City":"Victorville","State":"CA","Zip":"92392"},{"Location":"SMOKE WAGON SALON","Address":"13070 Palmdale Rd","City":"Victorville","State":"CA","Zip":"92392"},{"Location":"SUPERCUTS 8348","Address":"14329 Bear Valley Rd 3","City":"Victorville","State":"CA","Zip":"92392"},{"Location":"SYMMETRY PHYSICAL THERAP","Address":"13890 Palmdale Rd","City":"Victorville","State":"CA","Zip":"92392"},{"Location":"THAI DAWN BISTRO","Address":"14317 Bear Valley Rd 2","City":"Victorville","State":"CA","Zip":"92392"},{"Location":"THE NAIL STUDIO","Address":"12384 Palmdale Rd","City":"Victorville","State":"CA","Zip":"92392"},{"Location":"THE RISING BUNS","Address":"12384 Palmdale Rd 106","City":"Victorville","State":"CA","Zip":"92392"},{"Location":"TOKYO STEAK","Address":"14317 Bear Valley Rd 1","City":"Victorville","State":"CA","Zip":"92392"},{"Location":"TOP IT OFF","Address":"14084 Amargosa Rd 260","City":"Victorville","State":"CA","Zip":"92392"},{"Location":"TOWN & COUNTRY TIRES","Address":"15013 Palmdale Rd","City":"Victorville","State":"CA","Zip":"92392"},{"Location":"TRITON MANAGEMENT SERV LLC","Address":"14440 Civic Dr 150","City":"Victorville","State":"CA","Zip":"92392"},{"Location":"VICTORVILLE POLICE DEPART","Address":"14200 Amargosa Rd","City":"Victorville","State":"CA","Zip":"92392"},{"Location":"WOODALL GROUP INC","Address":"14359 Amargosa Rd G","City":"Victorville","State":"CA","Zip":"92392"},{"Location":"YOSHI SUSHI","Address":"14177 Kentwood Blvd","City":"Victorville","State":"CA","Zip":"92392"}]