[{"Location":"24 HOUR FITNESS #168","Address":"16200 Bear Valley Rd","City":"Victorville","State":"CA","Zip":"92395"},{"Location":"ABRIGHT","Address":"17142 Eureka St","City":"Victorville","State":"CA","Zip":"92395"},{"Location":"ASHVIN BHUTWALA","Address":"17199 Yuma St","City":"Victorville","State":"CA","Zip":"92395"},{"Location":"AURORA SHOE OUTLET","Address":"15291 Seventh St","City":"Victorville","State":"CA","Zip":"92395"},{"Location":"BELWOOD PHO","Address":"15632 Bear Valley Rd 104","City":"Victorville","State":"CA","Zip":"92395"},{"Location":"BLAZING SCISSORS","Address":"13728 Hesperia Rd 10","City":"Victorville","State":"CA","Zip":"92395"},{"Location":"BPO ELKS","Address":"14041 Hesperia Rd","City":"Victorville","State":"CA","Zip":"92395"},{"Location":"BRAVO BURGERS VICTORVILLE","Address":"14508 Valley Center Dr","City":"Victorville","State":"CA","Zip":"92395"},{"Location":"BROKEN SADDLE SALOON","Address":"14562 7th St","City":"Victorville","State":"CA","Zip":"92395"},{"Location":"CERTIFIED TIRE","Address":"14918 Seventh St","City":"Victorville","State":"CA","Zip":"92395"},{"Location":"CHI SPA 1","Address":"14464 7th St D","City":"Victorville","State":"CA","Zip":"92395"},{"Location":"CHO","Address":"17260 Bear Valley Rd 108","City":"Victorville","State":"CA","Zip":"92395"},{"Location":"CHOICE LENDING CORP","Address":"12640 Hesperia Rd D","City":"Victorville","State":"CA","Zip":"92395"},{"Location":"CHOICES FOR BETTER LIVING","Address":"14252 Saint Andrews Dr 5","City":"Victorville","State":"CA","Zip":"92395"},{"Location":"CLINICA MEDICA LAROSS","Address":"15381 7th St 23","City":"Victorville","State":"CA","Zip":"92395"},{"Location":"COLE VOCATIONAL SERVICES","Address":"16519 Victor St 101","City":"Victorville","State":"CA","Zip":"92395"},{"Location":"COSTCO WHOLESALE","Address":"14555 Valley Center Dr","City":"Victorville","State":"CA","Zip":"92395"},{"Location":"COYOTE HOBBIES","Address":"12248 Industrial Blvd B","City":"Victorville","State":"CA","Zip":"92395"},{"Location":"CRUTCHFIELD THRIFT STORE","Address":"15351 7th St","City":"Victorville","State":"CA","Zip":"92395"},{"Location":"DALTON  ASSOCIATES","Address":"16200 Bear Valley Rd 111","City":"Victorville","State":"CA","Zip":"92395"},{"Location":"DAVITA #5070 BEAR VALLEY","Address":"17207 Jasmine St","City":"Victorville","State":"CA","Zip":"92395"},{"Location":"DE PORT DU BELLE SALON","Address":"15370 Bear Valley Rd 3","City":"Victorville","State":"CA","Zip":"92395"},{"Location":"DENTURE RELINES & REPAIR","Address":"15165 7th St","City":"Victorville","State":"CA","Zip":"92395"},{"Location":"DESERT MASSAGE","Address":"15028 7th St 4","City":"Victorville","State":"CA","Zip":"92395"},{"Location":"DESERT VALLEY HOSPITAL","Address":"16850 Bear Valley Rd","City":"Victorville","State":"CA","Zip":"92395"},{"Location":"DOC STAR SERVICE","Address":"17260 Bear Valley Rd 110","City":"Victorville","State":"CA","Zip":"92395"},{"Location":"DR HATTAR DENTAL 2","Address":"15366 11th St F","City":"Victorville","State":"CA","Zip":"92395"},{"Location":"EDGARD M VERA","Address":"17207 Jasmine St 2","City":"Victorville","State":"CA","Zip":"92395"},{"Location":"EZZAT NASHED","Address":"16200 Bear Valley Rd 102","City":"Victorville","State":"CA","Zip":"92395"},{"Location":"FAMILY FISH","Address":"14928 7th St C","City":"Victorville","State":"CA","Zip":"92395"},{"Location":"FED EX EXPRESS 2","Address":"12212 Industrial Blvd","City":"Victorville","State":"CA","Zip":"92395"},{"Location":"FILIPINO FOOD AND MORE","Address":"15080 7th St 9","City":"Victorville","State":"CA","Zip":"92395"},{"Location":"FINISH LINE TIRE AND AUTO","Address":"12932 Hesperia Rd A","City":"Victorville","State":"CA","Zip":"92395"},{"Location":"FIRST MISSIONARRY BAPTIS","Address":"15740 1st St","City":"Victorville","State":"CA","Zip":"92395"},{"Location":"FRATELLIS PIZZERIA","Address":"13718 Hesperia Rd 2","City":"Victorville","State":"CA","Zip":"92395"},{"Location":"GALENO HEALTHCARE MANAGE","Address":"14960 Bear Valley Rd Stea","City":"Victorville","State":"CA","Zip":"92395"},{"Location":"GATEWAY MEDICAL BUILDING","Address":"12760 Hesperia Rd A","City":"Victorville","State":"CA","Zip":"92395"},{"Location":"GATORS II","Address":"12449 Hesperia Rd","City":"Victorville","State":"CA","Zip":"92395"},{"Location":"GOLD AND SILVER EXCHANGE","Address":"12209 Hesperia Rd 2","City":"Victorville","State":"CA","Zip":"92395"},{"Location":"GOODYEAR 9376","Address":"14596 7th St","City":"Victorville","State":"CA","Zip":"92395"},{"Location":"GRIDIRON PIZZA","Address":"15080 7th St 1b","City":"Victorville","State":"CA","Zip":"92395"},{"Location":"GV HENRY INC","Address":"14464 Atstar Dr 210","City":"Victorville","State":"CA","Zip":"92395"},{"Location":"HARLEY DAVIDSON OF VICTORVILLE","Address":"14522 Valley Center Dr","City":"Victorville","State":"CA","Zip":"92395"},{"Location":"HI DESERT COMMUNICATIONS","Address":"17181 Jasmine St","City":"Victorville","State":"CA","Zip":"92395"},{"Location":"HI DESERT TROPHY & AWARD","Address":"14683 7th St","City":"Victorville","State":"CA","Zip":"92395"},{"Location":"HIGH DESERT FOOT AND ANKLE","Address":"15366 11th St A","City":"Victorville","State":"CA","Zip":"92395"},{"Location":"HOME DEPOT 0665","Address":"15150 Bear Valley Rd","City":"Victorville","State":"CA","Zip":"92395"},{"Location":"HUDSON FAMILY DENTISTRY","Address":"12120 Ridgecrest Rd 203","City":"Victorville","State":"CA","Zip":"92395"},{"Location":"IN SHAPE VICTORVILLE","Address":"14601 Valley Center Dr","City":"Victorville","State":"CA","Zip":"92395"},{"Location":"INCOME TAX & ACCT PROF","Address":"14847 7th St","City":"Victorville","State":"CA","Zip":"92395"},{"Location":"INCREDIBLE PIZZA","Address":"14766 Bear Valley Rd","City":"Victorville","State":"CA","Zip":"92395"},{"Location":"J AND E MUFFLERS AND BRAKES2","Address":"14896 7th St","City":"Victorville","State":"CA","Zip":"92395"},{"Location":"JABEZ JC","Address":"14464 Seventh St","City":"Victorville","State":"CA","Zip":"92395"},{"Location":"JERSCHEIDS MENS APPAREL","Address":"12120 Ridgecrest Rd 103","City":"Victorville","State":"CA","Zip":"92395"},{"Location":"JIFFY LUBE 2981","Address":"15180 Bear Valley Rd","City":"Victorville","State":"CA","Zip":"92395"},{"Location":"JJDS ELECTRONIC CIG","Address":"12130 Hesperia Rd B","City":"Victorville","State":"CA","Zip":"92395"},{"Location":"JOHNNY FINGERS","Address":"15863 Lorene Dr","City":"Victorville","State":"CA","Zip":"92395"},{"Location":"JUAN POLLO","Address":"12190 Hesperia Rd","City":"Victorville","State":"CA","Zip":"92395"},{"Location":"KENNEDYS PUB","Address":"14513 7th St","City":"Victorville","State":"CA","Zip":"92395"},{"Location":"KOBE PHO","Address":"15208 Bear Valley Rd A300","City":"Victorville","State":"CA","Zip":"92395"},{"Location":"La Cabana Mex Country Cafe","Address":"15215 7th St","City":"Victorville","State":"CA","Zip":"92395"},{"Location":"LETITIA ALEXANDER","Address":"15028 7th St 11","City":"Victorville","State":"CA","Zip":"92395"},{"Location":"MARIE CALLENDER'S #117","Address":"12180 Mariposa Rd","City":"Victorville","State":"CA","Zip":"92395"},{"Location":"MARINA LOUNGE","Address":"13295 Spring Valley Pkwy","City":"Victorville","State":"CA","Zip":"92395"},{"Location":"MARISCOS CALIMAR","Address":"14845 7th St","City":"Victorville","State":"CA","Zip":"92395"},{"Location":"MCKAYS FAMILY FUNERAL HOME LLC","Address":"14444 Seventh St","City":"Victorville","State":"CA","Zip":"92395"},{"Location":"MICHAEL M FANOUS DPM INC","Address":"15366 11th St D","City":"Victorville","State":"CA","Zip":"92395"},{"Location":"MIGUELS BAJA GRILL","Address":"14480 Outer 7th St","City":"Victorville","State":"CA","Zip":"92395"},{"Location":"MIRACLES HAIR STUDIO","Address":"14270 7th St 6","City":"Victorville","State":"CA","Zip":"92395"},{"Location":"MODERN NAILS","Address":"14689 Valley Center Dr 102","City":"Victorville","State":"CA","Zip":"92395"},{"Location":"MY BAKED BUNS","Address":"15505 7th St","City":"Victorville","State":"CA","Zip":"92395"},{"Location":"NAILS","Address":"16137 Green Tree Blvd","City":"Victorville","State":"CA","Zip":"92395"},{"Location":"NANCYS HAIR & NAILS","Address":"15208 7th St","City":"Victorville","State":"CA","Zip":"92395"},{"Location":"NK JEWELERS","Address":"12351 Mariposa Rd 2b","City":"Victorville","State":"CA","Zip":"92395"},{"Location":"PENTECOSTAL CHURCH OF GO","Address":"12152 Cottonwood Rd","City":"Victorville","State":"CA","Zip":"92395"},{"Location":"PIZZA HUT #509","Address":"12183 Hesperia Rd","City":"Victorville","State":"CA","Zip":"92395"},{"Location":"PKS KEYS SERGIO","Address":"12351 Mariposa Rd G","City":"Victorville","State":"CA","Zip":"92395"},{"Location":"POPEYES CHICKEN","Address":"12951 Hesperia Rd","City":"Victorville","State":"CA","Zip":"92395"},{"Location":"QUALITY WINDOW TINT & AU","Address":"14856 7th St","City":"Victorville","State":"CA","Zip":"92395"},{"Location":"RAVINS DONUTS","Address":"14664 7th St","City":"Victorville","State":"CA","Zip":"92395"},{"Location":"RICHIES AMERICAN DINER","Address":"14236 Valley Center Dr","City":"Victorville","State":"CA","Zip":"92395"},{"Location":"RICKYS","Address":"13728 Hesperia Rd 12","City":"Victorville","State":"CA","Zip":"92395"},{"Location":"RUSTIC TAVERN OF VICTORVILLE","Address":"14519 Hesperia Rd","City":"Victorville","State":"CA","Zip":"92395"},{"Location":"SBCS","Address":"12474 Cottonwood St A","City":"Victorville","State":"CA","Zip":"92395"},{"Location":"SET FREE CHURCH","Address":"16947 S D St","City":"Victorville","State":"CA","Zip":"92395"},{"Location":"SOUTHERN SIDE","Address":"16137 Green Tree Blvd 7","City":"Victorville","State":"CA","Zip":"92395"},{"Location":"SOYA VICTORVILLE","Address":"12209 Hesperia Rd 2f","City":"Victorville","State":"CA","Zip":"92395"},{"Location":"SPRING VALLEY COUNTRYCLU","Address":"13229 Spring Valley Parkway","City":"Victorville","State":"CA","Zip":"92395"},{"Location":"SPRING VALLEY LAKE COUNTRY CLU","Address":"13229 Spring Valley Pkwy","City":"Victorville","State":"CA","Zip":"92395"},{"Location":"SWIFT APPEARANCE","Address":"12180 Ridgecrest Rd 306","City":"Victorville","State":"CA","Zip":"92395"},{"Location":"TAQUERIA LOS HERMANOS","Address":"14297 7th St","City":"Victorville","State":"CA","Zip":"92395"},{"Location":"THE NEW ENVY HAIR","Address":"14425 7th St C","City":"Victorville","State":"CA","Zip":"92395"},{"Location":"THORNYS","Address":"13261 Spring Valley Parkway","City":"Victorville","State":"CA","Zip":"92395"},{"Location":"TIKAL EXPRESS","Address":"12353 Mariposa Rd F","City":"Victorville","State":"CA","Zip":"92395"},{"Location":"TILTED KILT","Address":"12409 Mariposa Rd","City":"Victorville","State":"CA","Zip":"92395"},{"Location":"TSHIRTS WAREHOUSE OUTLET","Address":"15208 Bear Valley Rd B350","City":"Victorville","State":"CA","Zip":"92395"},{"Location":"TWENTYEIGHTH DAA","Address":"14800 7th St","City":"Victorville","State":"CA","Zip":"92395"},{"Location":"VALLARTA SUPERMARKETS #22","Address":"12351 Mariposa Rd","City":"Victorville","State":"CA","Zip":"92395"},{"Location":"VERIZON COMMUNICATIONS","Address":"16461 Mojave Dr B","City":"Victorville","State":"CA","Zip":"92395"},{"Location":"VICTORVILLE JEWELRY  LOAN","Address":"14507 7th St","City":"Victorville","State":"CA","Zip":"92395"},{"Location":"VIDEO MEXICO","Address":"14829 7th St","City":"Victorville","State":"CA","Zip":"92395"},{"Location":"WELL BEING TOFU HOUSE","Address":"15024 Bear Valley Rd G","City":"Victorville","State":"CA","Zip":"92395"},{"Location":"WEST COAST GAME MANAGEMENT","Address":"12234 Hesperia Rd","City":"Victorville","State":"CA","Zip":"92395"},{"Location":"WIENERSCHNITZEL 555","Address":"15040 Bear Valley Rd","City":"Victorville","State":"CA","Zip":"92395"}]