[{"Location":"CANYON CREEK INN","Address":"Po Box 342","City":"Wrightwood","State":"CA","Zip":"92397"},{"Location":"CLARENCE RIGALI","Address":"1754 Betty St","City":"Wrightwood","State":"CA","Zip":"92397"},{"Location":"DREAM FORCE INVESTMENTS INC","Address":"6020 Park Dr","City":"Wrightwood","State":"CA","Zip":"92397"},{"Location":"MOUNTAIN HIGH RESORT","Address":"24512 State Hwy 2","City":"Wrightwood","State":"CA","Zip":"92397"},{"Location":"MOUNTAIN VIEW","Address":"1098 State Hwy 2","City":"Wrightwood","State":"CA","Zip":"92397"},{"Location":"THE RACOON SALOON","Address":"1269 Evergreen Road","City":"Wrightwood","State":"CA","Zip":"92397"},{"Location":"THE YODELER","Address":"6046 Park Dr","City":"Wrightwood","State":"CA","Zip":"92397"},{"Location":"US FOREST SERVICE","Address":"24414 Big Pine Highway","City":"Wrightwood","State":"CA","Zip":"92397"},{"Location":"US FOREST SERVICE 2","Address":"24414 Big Pine Highway  #2","City":"Wrightwood","State":"CA","Zip":"92397"},{"Location":"WRIGHTWOOD INN","Address":"1350 Highway 2 Ste E","City":"Wrightwood","State":"CA","Zip":"92397"}]