[{"Location":"SAIGON BILLIARDS","Address":"365 E Mill Street 17","City":"San Bernadino","State":"CA","Zip":"92408"},{"Location":"24 HOUR FITNESS #133","Address":"295 E Caroline St","City":"San Bernardino","State":"CA","Zip":"92408"},{"Location":"A PLUS TIRE & SERVICE","Address":"446 Orange Show Ln","City":"San Bernardino","State":"CA","Zip":"92408"},{"Location":"AERO ENTERPRISES","Address":"379 S Sierra Way A","City":"San Bernardino","State":"CA","Zip":"92408"},{"Location":"ALLSTAR KIA SAN BERN","Address":"735 Showcase Dr N","City":"San Bernardino","State":"CA","Zip":"92408"},{"Location":"AMF ARROWHEAD LANES","Address":"299 W Orange Show Rd","City":"San Bernardino","State":"CA","Zip":"92408"},{"Location":"ARROWHEAD AUTO REPAIR &","Address":"427 S Arrowhead Ave","City":"San Bernardino","State":"CA","Zip":"92408"},{"Location":"AUTO SMOG TEST ONLY","Address":"738 S Waterman Ave","City":"San Bernardino","State":"CA","Zip":"92408"},{"Location":"BJS RESTAURANT #434","Address":"1059 Harriman Pl","City":"San Bernardino","State":"CA","Zip":"92408"},{"Location":"BLOOD BANK OF SAN BERNARDINO","Address":"384 W Orange Show Rd","City":"San Bernardino","State":"CA","Zip":"92408"},{"Location":"BNSF RAILWAY","Address":"740 Carnegie Dr","City":"San Bernardino","State":"CA","Zip":"92408"},{"Location":"BOND SERVICES OF CALIFOR","Address":"290 W Orange Show Rd","City":"San Bernardino","State":"CA","Zip":"92408"},{"Location":"BRS ROOFING INC","Address":"777 S Lugo Ave","City":"San Bernardino","State":"CA","Zip":"92408"},{"Location":"BRUNICK MCELHANEY AND BECKETT","Address":"1839 Commerce Center W","City":"San Bernardino","State":"CA","Zip":"92408"},{"Location":"BUFFALO WILD WINGS #3705","Address":"690 E Hospitality Ln","City":"San Bernardino","State":"CA","Zip":"92408"},{"Location":"BUMBLE BEE BUILDING","Address":"680 S Waterman Ave","City":"San Bernardino","State":"CA","Zip":"92408"},{"Location":"BURLINGTON STORE INC 2","Address":"570 E Mill St","City":"San Bernardino","State":"CA","Zip":"92408"},{"Location":"CALIFORNIA SOUND INC","Address":"740 S E St","City":"San Bernardino","State":"CA","Zip":"92408"},{"Location":"CASTON INC","Address":"354 S Allen St","City":"San Bernardino","State":"CA","Zip":"92408"},{"Location":"CHILI'S #0064","Address":"475 E Hospitality Ln","City":"San Bernardino","State":"CA","Zip":"92408"},{"Location":"CLAIM JUMPER #1","Address":"1905 S Commerce Center East","City":"San Bernardino","State":"CA","Zip":"92408"},{"Location":"COUNTY OF SAN BERNANDINO","Address":"1425 S D St","City":"San Bernardino","State":"CA","Zip":"92408"},{"Location":"DAVITA #2086 CITRUS VALLEY","Address":"894 Hardt St 2083","City":"San Bernardino","State":"CA","Zip":"92408"},{"Location":"DAVITA #5477 SAN BERNARDINO","Address":"966 E Hospitality Ln","City":"San Bernardino","State":"CA","Zip":"92408"},{"Location":"DELHI PALCE CUISINE OF I","Address":"2001 S Diners Ctr","City":"San Bernardino","State":"CA","Zip":"92408"},{"Location":"DR AHMED","Address":"1535 S D St","City":"San Bernardino","State":"CA","Zip":"92408"},{"Location":"EL RICO POLLO","Address":"2013 Diners Ct","City":"San Bernardino","State":"CA","Zip":"92408"},{"Location":"EL TORITO 7146","Address":"118 E Hospitality Ln","City":"San Bernardino","State":"CA","Zip":"92408"},{"Location":"ELI STEREO","Address":"596 S E St","City":"San Bernardino","State":"CA","Zip":"92408"},{"Location":"EMPIRE WHOLESALE FLOWERS","Address":"199 E Central Ave","City":"San Bernardino","State":"CA","Zip":"92408"},{"Location":"EPN - WELLINGTON HILTON","Address":"225 E Airport Dr S.210","City":"San Bernardino","State":"CA","Zip":"92408"},{"Location":"FLESH SHOWGIRLS","Address":"100 W Hospitality Ln","City":"San Bernardino","State":"CA","Zip":"92408"},{"Location":"FMC 27240000","Address":"636 E Brier Dr 150","City":"San Bernardino","State":"CA","Zip":"92408"},{"Location":"FMC 61320000","Address":"269 E Caroline St","City":"San Bernardino","State":"CA","Zip":"92408"},{"Location":"GATE CITY BEVERAGE","Address":"2505 Steele Rd","City":"San Bernardino","State":"CA","Zip":"92408"},{"Location":"GIRARDI AND KEESE","Address":"155 W Hospitality Ln","City":"San Bernardino","State":"CA","Zip":"92408"},{"Location":"GOLDEN STATE  MAIN LOBBY","Address":"2020 E Central Ave","City":"San Bernardino","State":"CA","Zip":"92408"},{"Location":"GOLDEN STATE BREAK 1","Address":"1910 E Central Ave","City":"San Bernardino","State":"CA","Zip":"92408"},{"Location":"GOLDEN STATE BREAK 2","Address":"1910 E Central Ave","City":"San Bernardino","State":"CA","Zip":"92408"},{"Location":"GOLDEN STATE BREAK 3","Address":"1910 E Central Ave","City":"San Bernardino","State":"CA","Zip":"92408"},{"Location":"GOLDEN STATE BREAK 4","Address":"1910 E Central Ave","City":"San Bernardino","State":"CA","Zip":"92408"},{"Location":"GOLDEN STATE BREAK 5","Address":"1910 E Central Ave","City":"San Bernardino","State":"CA","Zip":"92408"},{"Location":"GOLDEN STATE LLC SEASONAL","Address":"2020 E Central Ave","City":"San Bernardino","State":"CA","Zip":"92408"},{"Location":"GREATER VICTORY CHURCH","Address":"255 W Mill St","City":"San Bernardino","State":"CA","Zip":"92408"},{"Location":"HENDRIK J DE JAGER MD","Address":"1850 S Waterman Ave A","City":"San Bernardino","State":"CA","Zip":"92408"},{"Location":"HITON GARDEN INN SAN (0066755)","Address":"1755 S Waterman Ave","City":"San Bernardino","State":"CA","Zip":"92408"},{"Location":"HOSPITALITY SLEEP","Address":"107 E Rialto Ave","City":"San Bernardino","State":"CA","Zip":"92408"},{"Location":"HOUSING AUTHORITY S BERNARDINO","Address":"715 E Brier Dr","City":"San Bernardino","State":"CA","Zip":"92408"},{"Location":"IERC","Address":"1817 Riverview Dr A","City":"San Bernardino","State":"CA","Zip":"92408"},{"Location":"INTERSTATE BATTERY OF CA","Address":"1730 S E St","City":"San Bernardino","State":"CA","Zip":"92408"},{"Location":"ITT TECHNICAL INSTITUTE","Address":"670 Carnegie Dr","City":"San Bernardino","State":"CA","Zip":"92408"},{"Location":"JASSAN BANQUET","Address":"1560 S E St A","City":"San Bernardino","State":"CA","Zip":"92408"},{"Location":"JOHN MUIR CHARTER SCHOOL","Address":"1824 Commercenter Cir","City":"San Bernardino","State":"CA","Zip":"92408"},{"Location":"KENCO LOGISTICS SERVICES","Address":"675 E Central Ave","City":"San Bernardino","State":"CA","Zip":"92408"},{"Location":"KINGSLY  DENTISTRY LYN GLADEN","Address":"1060 Harriman Pl 3","City":"San Bernardino","State":"CA","Zip":"92408"},{"Location":"KOHL'S #65200","Address":"825 E Central Ave","City":"San Bernardino","State":"CA","Zip":"92408"},{"Location":"KOHLS DISTRIBUTION CENTER","Address":"890 E Mill St","City":"San Bernardino","State":"CA","Zip":"92408"},{"Location":"LA CURACAO","Address":"885 Harriman Pl","City":"San Bernardino","State":"CA","Zip":"92408"},{"Location":"LA NAILS","Address":"985 S E St","City":"San Bernardino","State":"CA","Zip":"92408"},{"Location":"LABORS LOCAL 783","Address":"104 W Benedict Rd","City":"San Bernardino","State":"CA","Zip":"92408"},{"Location":"LAW OFFICES OF WILLIAM D SHAPI","Address":"893 E Brier Dr","City":"San Bernardino","State":"CA","Zip":"92408"},{"Location":"LIFESTREAM","Address":"384 W Orange Show Rd","City":"San Bernardino","State":"CA","Zip":"92408"},{"Location":"LUIS G VARGAS DENTAL CORP","Address":"965 S E St N","City":"San Bernardino","State":"CA","Zip":"92408"},{"Location":"MACY'S WEST 538 BR","Address":"400 Inland Ctr","City":"San Bernardino","State":"CA","Zip":"92408"},{"Location":"MAGNUM ABRASIVES","Address":"758 S Allen St","City":"San Bernardino","State":"CA","Zip":"92408"},{"Location":"MARGARITA BEACH GRILL & CANT","Address":"1987 Diners Ct","City":"San Bernardino","State":"CA","Zip":"92408"},{"Location":"MATTEL","Address":"1456 E Harry Shepard Blvd","City":"San Bernardino","State":"CA","Zip":"92408"},{"Location":"MAXIMUM TURBINE SUPPORT INC","Address":"705 S Lugo Ave","City":"San Bernardino","State":"CA","Zip":"92408"},{"Location":"MC SPORTS AND PRINTING","Address":"293 E Redlands Blvd","City":"San Bernardino","State":"CA","Zip":"92408"},{"Location":"MCDONNELL","Address":"339 S Sierra Way","City":"San Bernardino","State":"CA","Zip":"92408"},{"Location":"MED LINE INDUSTRIES","Address":"1089 E Mill St","City":"San Bernardino","State":"CA","Zip":"92408"},{"Location":"METROPOLITAN AUTO","Address":"535 Tennis Court Ln","City":"San Bernardino","State":"CA","Zip":"92408"},{"Location":"N&N AUTO REPAIR","Address":"595 E Mill St","City":"San Bernardino","State":"CA","Zip":"92408"},{"Location":"N2 GRAPHIX","Address":"775 S Gifford Ave 26","City":"San Bernardino","State":"CA","Zip":"92408"},{"Location":"NATIONAL  ORANGE SHOW","Address":"689 S E St","City":"San Bernardino","State":"CA","Zip":"92408"},{"Location":"NATIONAL ORANGE SHOW","Address":"930 S Arrowhead Ave","City":"San Bernardino","State":"CA","Zip":"92408"},{"Location":"NEW MILLENNIUM DENTAL GR","Address":"599 Inland Center Dr","City":"San Bernardino","State":"CA","Zip":"92408"},{"Location":"NEW YORK INS CO","Address":"451 E Vanderbilt Way 400","City":"San Bernardino","State":"CA","Zip":"92408"},{"Location":"NISSAN OF SAN BERNARDINO","Address":"735 Showcase Dr S","City":"San Bernardino","State":"CA","Zip":"92408"},{"Location":"NTL ORANGE SHOW EVENTS","Address":"930 S Arrowhead Ave","City":"San Bernardino","State":"CA","Zip":"92408"},{"Location":"O.I. INC.","Address":"268 W Hospitality Ln 425","City":"San Bernardino","State":"CA","Zip":"92408"},{"Location":"OMEGA POLYGRAPH ORANGE","Address":"394 Orange Show Ln","City":"San Bernardino","State":"CA","Zip":"92408"},{"Location":"OPTIVUS PROTON THERAPY","Address":"1475 Victoria Ct","City":"San Bernardino","State":"CA","Zip":"92408"},{"Location":"OUTBACK STEAKHOUSE #0563","Address":"620 E Hospitality Ln","City":"San Bernardino","State":"CA","Zip":"92408"},{"Location":"PACTIV CORP","Address":"786 E Central Ave A","City":"San Bernardino","State":"CA","Zip":"92408"},{"Location":"PARSONS BRINKERHOFF","Address":"451 E Vanderbilt Way 200","City":"San Bernardino","State":"CA","Zip":"92408"},{"Location":"PBB","Address":"631 E Rialto Ave 1","City":"San Bernardino","State":"CA","Zip":"92408"},{"Location":"PHO 77","Address":"1760 S Tippecanoe Ave","City":"San Bernardino","State":"CA","Zip":"92408"},{"Location":"PHO HA RESTAURANT","Address":"385 E Mill St 5","City":"San Bernardino","State":"CA","Zip":"92408"},{"Location":"PHO MAI","Address":"433 S Waterman Ave A","City":"San Bernardino","State":"CA","Zip":"92408"},{"Location":"PREMIER HEALTH CARE","Address":"650 E Hospitality Ln 100","City":"San Bernardino","State":"CA","Zip":"92408"},{"Location":"RED LOBSTER #0516","Address":"195 E Hospitality Ln","City":"San Bernardino","State":"CA","Zip":"92408"},{"Location":"ROBERSON GET SUM GAME","Address":"357 S Arrowhead Ave 6","City":"San Bernardino","State":"CA","Zip":"92408"},{"Location":"ROMULO DELEON  DDS INC","Address":"1849 Commercenter E","City":"San Bernardino","State":"CA","Zip":"92408"},{"Location":"SAN BERNADENO HEALTH","Address":"1102 S Arrowhead Ave","City":"San Bernardino","State":"CA","Zip":"92408"},{"Location":"SAN BERNARDINO COUNTY SCHOOLS","Address":"760 E Brier Dr","City":"San Bernardino","State":"CA","Zip":"92408"},{"Location":"SAN BERNARDINO COUNTY SUPERINT","Address":"760 E Brier Dr","City":"San Bernardino","State":"CA","Zip":"92408"},{"Location":"SAN BERNARDINO GOLF","Address":"1494 S Waterman Ave","City":"San Bernardino","State":"CA","Zip":"92408"},{"Location":"SAN BERNARDINO INDUSTRIAL","Address":"236 W Orange Show Rd 114","City":"San Bernardino","State":"CA","Zip":"92408"},{"Location":"SAN BERNARDINO NATIONAL FOREST","Address":"602 S Tippecanoe Ave","City":"San Bernardino","State":"CA","Zip":"92408"},{"Location":"SAN BERNARDINO OPEN MRI","Address":"1884 Business Center Dr","City":"San Bernardino","State":"CA","Zip":"92408"},{"Location":"SB RACE WAY","Address":"217 E Club Center Dr B","City":"San Bernardino","State":"CA","Zip":"92408"},{"Location":"SBCERA","Address":"348 W Hospitality Ln 3","City":"San Bernardino","State":"CA","Zip":"92408"},{"Location":"SECURITY BANK","Address":"1955 Hunts Ln","City":"San Bernardino","State":"CA","Zip":"92408"},{"Location":"SHIKI SUSHI","Address":"996 E Hospitality Ln","City":"San Bernardino","State":"CA","Zip":"92408"},{"Location":"SHORETT PRINTING INC","Address":"250 W Rialto Ave","City":"San Bernardino","State":"CA","Zip":"92408"},{"Location":"SIZZLER RESTAURANT","Address":"1800 S Waterman Ave","City":"San Bernardino","State":"CA","Zip":"92408"},{"Location":"SOUTH SIDE SALOON","Address":"495 E Redlands Blvd","City":"San Bernardino","State":"CA","Zip":"92408"},{"Location":"STINGERS BAR & NIGHTCLUB","Address":"194 W Club Center Dr","City":"San Bernardino","State":"CA","Zip":"92408"},{"Location":"SURFERS JOE","Address":"251 E Redlands Blvd","City":"San Bernardino","State":"CA","Zip":"92408"},{"Location":"TABS","Address":"155 W Hospitality Ln 123","City":"San Bernardino","State":"CA","Zip":"92408"},{"Location":"TARGET STORES #188","Address":"499 E Orange Show Rd","City":"San Bernardino","State":"CA","Zip":"92408"},{"Location":"TASK FORCE SECURITY","Address":"2015 Diners Ct","City":"San Bernardino","State":"CA","Zip":"92408"},{"Location":"TAURIAN        #1050","Address":"290 E Hospitality Ln","City":"San Bernardino","State":"CA","Zip":"92408"},{"Location":"TELESIS TAX ACCOUNTING","Address":"1881 Commercenter E 102","City":"San Bernardino","State":"CA","Zip":"92408"},{"Location":"TGI FRIDAY'S #1917","Address":"390 E Hospitality Ln","City":"San Bernardino","State":"CA","Zip":"92408"},{"Location":"THE DREAM CUT","Address":"2160 S Waterman Ave","City":"San Bernardino","State":"CA","Zip":"92408"},{"Location":"THE JARA MEXICAN RESTAURANT","Address":"1250 S E St","City":"San Bernardino","State":"CA","Zip":"92408"},{"Location":"THE POOL","Address":"1946 S E St","City":"San Bernardino","State":"CA","Zip":"92408"},{"Location":"THE US FOREST SERVICE","Address":"602 Pippecanoe Ave","City":"San Bernardino","State":"CA","Zip":"92408"},{"Location":"TODD L DREYER","Address":"348 W Hospitality Ln 112","City":"San Bernardino","State":"CA","Zip":"92408"},{"Location":"TOTALLY NAIL AND SPA","Address":"1078 E Hospitality Ln E","City":"San Bernardino","State":"CA","Zip":"92408"},{"Location":"TRITON MANAGEMENT SERVICES%2CLLC","Address":"138 E Redlands Blvd","City":"San Bernardino","State":"CA","Zip":"92408"},{"Location":"U HAUL CO","Address":"891 S Arrowhead Ave","City":"San Bernardino","State":"CA","Zip":"92408"},{"Location":"UNITED STATES FOREST SERVICE","Address":"2065 E Perimeter Rd","City":"San Bernardino","State":"CA","Zip":"92408"},{"Location":"UNIVERSAL CORE INC","Address":"450 E Parkcenter Cir N","City":"San Bernardino","State":"CA","Zip":"92408"},{"Location":"US CIS","Address":"995 Hardt St","City":"San Bernardino","State":"CA","Zip":"92408"},{"Location":"USDA FOREST SERVICE","Address":"2065 E Perimeter Rd","City":"San Bernardino","State":"CA","Zip":"92408"},{"Location":"VALLEY STAR COMM SERVICES","Address":"1585 S D St 101","City":"San Bernardino","State":"CA","Zip":"92408"},{"Location":"VOLKSWAGEN OF SANBERNARDINO","Address":"1600 Camino Real","City":"San Bernardino","State":"CA","Zip":"92408"},{"Location":"WELLS FARGO","Address":"1003 E Brier Dr","City":"San Bernardino","State":"CA","Zip":"92408"},{"Location":"WESTBOUND COMMUNICATIONS","Address":"1505 S D St 201","City":"San Bernardino","State":"CA","Zip":"92408"},{"Location":"WORSHIPPING TRUTH","Address":"1520 S E St A","City":"San Bernardino","State":"CA","Zip":"92408"},{"Location":"CHINTANA LUKE","Address":"1850 S Waterman Ave B","City":"Sn Bernrdno","State":"CA","Zip":"92408"},{"Location":"MATICH CORP","Address":"1596 E Harry Shepard Blvd","City":"Sn Bernrdno","State":"CA","Zip":"92408"},{"Location":"NEMO S & JACK S DISCOUNT","Address":"280 S Arrowhead Ave","City":"Sn Bernrdno","State":"CA","Zip":"92408"}]