[{"Location":"215 BARBERSHOP","Address":"181 N E St","City":"San Bernardino","State":"CA","Zip":"92401"},{"Location":"ARROWHEAD FAMILY DENISTRY","Address":"407 S E St","City":"San Bernardino","State":"CA","Zip":"92401"},{"Location":"BRANDIN IRON","Address":"320 S E St","City":"San Bernardino","State":"CA","Zip":"92401"},{"Location":"CENTRAL CITY DENTAL","Address":"189 N E St","City":"San Bernardino","State":"CA","Zip":"92401"},{"Location":"CITY OF SAN BERNARDINO","Address":"195 N D St","City":"San Bernardino","State":"CA","Zip":"92401"},{"Location":"CLASSIC WINDOW TINT","Address":"299 S E St","City":"San Bernardino","State":"CA","Zip":"92401"},{"Location":"COURT STREET JEWELRY AND LOAN","Address":"361 N E St","City":"San Bernardino","State":"CA","Zip":"92401"},{"Location":"DOWN TOWN AUTO CENTER","Address":"460 W 9th St","City":"San Bernardino","State":"CA","Zip":"92401"},{"Location":"EXPRESS QUALITY HAND WASH","Address":"101 N E St","City":"San Bernardino","State":"CA","Zip":"92401"},{"Location":"INLAND BEHAVORIAL AND HEALTH S","Address":"665 N D St","City":"San Bernardino","State":"CA","Zip":"92401"},{"Location":"INLAND EMPIRE FAMILY OUTREACH","Address":"280 S E St","City":"San Bernardino","State":"CA","Zip":"92401"},{"Location":"JOYCE HOLCOMB ATTORNEY AT LAW","Address":"215 N D St 305","City":"San Bernardino","State":"CA","Zip":"92401"},{"Location":"KNAPP  & ASSOCIATES","Address":"408 S Stoddard Ave","City":"San Bernardino","State":"CA","Zip":"92401"},{"Location":"LARRY CUNNINGHAM","Address":"401 W 4th St","City":"San Bernardino","State":"CA","Zip":"92401"},{"Location":"LAS CONCHITAS","Address":"168 S E St Ef","City":"San Bernardino","State":"CA","Zip":"92401"},{"Location":"LATINO SERVICE","Address":"108 N E St","City":"San Bernardino","State":"CA","Zip":"92401"},{"Location":"LAW OFFICES OF MICHAELSCAFIDDI","Address":"432 N Arrowhead Ave","City":"San Bernardino","State":"CA","Zip":"92401"},{"Location":"MOLLYS CAFE","Address":"350 N D St","City":"San Bernardino","State":"CA","Zip":"92401"},{"Location":"POST 14","Address":"863 N D St","City":"San Bernardino","State":"CA","Zip":"92401"},{"Location":"REGINALD E ALBERTS","Address":"825 N D St","City":"San Bernardino","State":"CA","Zip":"92401"},{"Location":"RLC PROPERTY  MANAGEMENT","Address":"168 S E St A","City":"San Bernardino","State":"CA","Zip":"92401"},{"Location":"SAN BERNARDINO GLAS &","Address":"167 S D St","City":"San Bernardino","State":"CA","Zip":"92401"},{"Location":"SAN BERNARDINO MEDICAL","Address":"404 W 9th St","City":"San Bernardino","State":"CA","Zip":"92401"},{"Location":"SECURITY BANK OF CALIFORNIA","Address":"344 W 2nd St","City":"San Bernardino","State":"CA","Zip":"92401"},{"Location":"SUPER ACTIVE NUTRITION","Address":"360 W Court St 202","City":"San Bernardino","State":"CA","Zip":"92401"},{"Location":"TANYI%2C RUTH DR INC DBA","Address":"577 N D St 101","City":"San Bernardino","State":"CA","Zip":"92401"},{"Location":"THE OFFICE SALOON","Address":"123 N E St","City":"San Bernardino","State":"CA","Zip":"92401"},{"Location":"WORDNET PRODUCTIONS","Address":"532 N D St","City":"San Bernardino","State":"CA","Zip":"92401"},{"Location":"COUSSOULIS DEV CO.","Address":"341 W 2nd St 1","City":"Sn Bernrdno","State":"CA","Zip":"92401"},{"Location":"215 BARBERSHOP","Address":"181 N E St","City":"San Bernardino","State":"CA","Zip":"92401"},{"Location":"ARROWHEAD FAMILY DENISTRY","Address":"407 S E St","City":"San Bernardino","State":"CA","Zip":"92401"},{"Location":"BRANDIN IRON","Address":"320 S E St","City":"San Bernardino","State":"CA","Zip":"92401"},{"Location":"CENTRAL CITY DENTAL","Address":"189 N E St","City":"San Bernardino","State":"CA","Zip":"92401"},{"Location":"CITY OF SAN BERNARDINO","Address":"195 N D St","City":"San Bernardino","State":"CA","Zip":"92401"},{"Location":"CLASSIC WINDOW TINT","Address":"299 S E St","City":"San Bernardino","State":"CA","Zip":"92401"},{"Location":"COURT STREET JEWELRY AND LOAN","Address":"361 N E St","City":"San Bernardino","State":"CA","Zip":"92401"},{"Location":"DOWN TOWN AUTO CENTER","Address":"460 W 9th St","City":"San Bernardino","State":"CA","Zip":"92401"},{"Location":"EXPRESS QUALITY HAND WASH","Address":"101 N E St","City":"San Bernardino","State":"CA","Zip":"92401"},{"Location":"INLAND BEHAVORIAL AND HEALTH S","Address":"665 N D St","City":"San Bernardino","State":"CA","Zip":"92401"},{"Location":"INLAND EMPIRE FAMILY OUTREACH","Address":"280 S E St","City":"San Bernardino","State":"CA","Zip":"92401"},{"Location":"JOYCE HOLCOMB ATTORNEY AT LAW","Address":"215 N D St 305","City":"San Bernardino","State":"CA","Zip":"92401"},{"Location":"KNAPP  & ASSOCIATES","Address":"408 S Stoddard Ave","City":"San Bernardino","State":"CA","Zip":"92401"},{"Location":"LARRY CUNNINGHAM","Address":"401 W 4th St","City":"San Bernardino","State":"CA","Zip":"92401"},{"Location":"LAS CONCHITAS","Address":"168 S E St Ef","City":"San Bernardino","State":"CA","Zip":"92401"},{"Location":"LATINO SERVICE","Address":"108 N E St","City":"San Bernardino","State":"CA","Zip":"92401"},{"Location":"LAW OFFICES OF MICHAELSCAFIDDI","Address":"432 N Arrowhead Ave","City":"San Bernardino","State":"CA","Zip":"92401"},{"Location":"MOLLYS CAFE","Address":"350 N D St","City":"San Bernardino","State":"CA","Zip":"92401"},{"Location":"POST 14","Address":"863 N D St","City":"San Bernardino","State":"CA","Zip":"92401"},{"Location":"REGINALD E ALBERTS","Address":"825 N D St","City":"San Bernardino","State":"CA","Zip":"92401"},{"Location":"RLC PROPERTY  MANAGEMENT","Address":"168 S E St A","City":"San Bernardino","State":"CA","Zip":"92401"},{"Location":"SAN BERNARDINO DENTAL GROUP","Address":"575 W 5th St","City":"San Bernardino","State":"CA","Zip":"92401"},{"Location":"SAN BERNARDINO GLAS &","Address":"167 S D St","City":"San Bernardino","State":"CA","Zip":"92401"},{"Location":"SAN BERNARDINO MEDICAL","Address":"404 W 9th St","City":"San Bernardino","State":"CA","Zip":"92401"},{"Location":"SECURITY BANK OF CALIFORNIA","Address":"344 W 2nd St","City":"San Bernardino","State":"CA","Zip":"92401"},{"Location":"SUPER ACTIVE NUTRITION","Address":"360 W Court St 202","City":"San Bernardino","State":"CA","Zip":"92401"},{"Location":"TANYI%2C RUTH DR INC DBA","Address":"577 N D St 101","City":"San Bernardino","State":"CA","Zip":"92401"},{"Location":"THE OFFICE SALOON","Address":"123 N E St","City":"San Bernardino","State":"CA","Zip":"92401"},{"Location":"WORDNET PRODUCTIONS","Address":"532 N D St","City":"San Bernardino","State":"CA","Zip":"92401"},{"Location":"COUSSOULIS DEV CO.","Address":"341 W 2nd St 1","City":"Sn Bernrdno","State":"CA","Zip":"92401"}]