[{"Location":"ALBERTOS MEXICAN FOOD","Address":"1008 W Highland Ave","City":"San Bernardino","State":"CA","Zip":"92405"},{"Location":"BRAID GALLERY","Address":"484 West Highland Avenue","City":"San Bernardino","State":"CA","Zip":"92405"},{"Location":"CE WIRELESS","Address":"3271 N E St","City":"San Bernardino","State":"CA","Zip":"92405"},{"Location":"EL FARALLON BAR","Address":"1227 N Sierra Way","City":"San Bernardino","State":"CA","Zip":"92405"},{"Location":"GREEN SHACK MARKET PLACE","Address":"163 W Highland Ave","City":"San Bernardino","State":"CA","Zip":"92405"},{"Location":"INLAND BEHAVORIAL AND HEALTH","Address":"1963 N E St","City":"San Bernardino","State":"CA","Zip":"92405"},{"Location":"MAHOGNY'S BARBER SHOP","Address":"464 W Highland Ave","City":"San Bernardino","State":"CA","Zip":"92405"},{"Location":"MI CASITA TAQUERIA","Address":"150 W Highland Ave","City":"San Bernardino","State":"CA","Zip":"92405"},{"Location":"MI OFICINA","Address":"723 W Highland Ave","City":"San Bernardino","State":"CA","Zip":"92405"},{"Location":"SAN BERNARDINO HEALTH PA","Address":"1370 N E St","City":"San Bernardino","State":"CA","Zip":"92405"},{"Location":"SAN BERNARDINO SEW AND VAC","Address":"1255 N E St","City":"San Bernardino","State":"CA","Zip":"92405"},{"Location":"SHANDIN HILLS","Address":"3380 Little Mountain Dr","City":"San Bernardino","State":"CA","Zip":"92405"},{"Location":"STONES & CHINS JAMAICAN","Address":"763 W Highland Ave","City":"San Bernardino","State":"CA","Zip":"92405"},{"Location":"UNITED MEDICAL CENTER","Address":"1966 N D St","City":"San Bernardino","State":"CA","Zip":"92405"},{"Location":"WHATS HAPPENING NOW","Address":"349 W Highland Ave","City":"San Bernardino","State":"CA","Zip":"92405"},{"Location":"WIFI CAFE INC","Address":"1235 N E St","City":"San Bernardino","State":"CA","Zip":"92405"},{"Location":"YUM YUM DONUTS","Address":"932 W Highland Ave","City":"San Bernardino","State":"CA","Zip":"92405"},{"Location":"ELGIN & FAGIN","Address":"336 W Highland Ave","City":"Sn Bernrdno","State":"CA","Zip":"92405"}]