[{"Location":"LANDRYMAT A","Address":"4399 N Sierra Way","City":"Arrowhead Farms","State":"CA","Zip":"92407"},{"Location":"A1 LIST","Address":"4342 N Sierra Way","City":"San Bernardino","State":"CA","Zip":"92407"},{"Location":"BURRTEC WASTE INDUSTRIES INC","Address":"5455 Industrial Pkwy","City":"San Bernardino","State":"CA","Zip":"92407"},{"Location":"CALI MEDICATED","Address":"4372 N Sierra Way","City":"San Bernardino","State":"CA","Zip":"92407"},{"Location":"CARDENAS MARKET 24","Address":"140 W 40th St","City":"San Bernardino","State":"CA","Zip":"92407"},{"Location":"CELEBRITIES BAR & GRILL","Address":"127 W 40th St","City":"San Bernardino","State":"CA","Zip":"92407"},{"Location":"DAVITA #882 MOUNTAIN VISTA","Address":"4041 University Pkwy","City":"San Bernardino","State":"CA","Zip":"92407"},{"Location":"DOLLAR TREE","Address":"1651 Interchange Dr","City":"San Bernardino","State":"CA","Zip":"92407"},{"Location":"DOLLAR TREE STORES","Address":"1761 Interchange Dr","City":"San Bernardino","State":"CA","Zip":"92407"},{"Location":"DON MARTIN","Address":"1970 Ostrems Way","City":"San Bernardino","State":"CA","Zip":"92407"},{"Location":"HAIR TO THE MAX","Address":"967 Kendall Dr I","City":"San Bernardino","State":"CA","Zip":"92407"},{"Location":"HARVEY HOUSE","Address":"3527 Nolan St","City":"San Bernardino","State":"CA","Zip":"92407"},{"Location":"HARVEY HOUSE1","Address":"2096 W 1st Ave","City":"San Bernardino","State":"CA","Zip":"92407"},{"Location":"HARVEY HOUSE2","Address":"3239 N California St","City":"San Bernardino","State":"CA","Zip":"92407"},{"Location":"HAUTELOOK1","Address":"17335 Glen Helen Pkwy","City":"San Bernardino","State":"CA","Zip":"92407"},{"Location":"IHOP","Address":"4023 University Pkwy","City":"San Bernardino","State":"CA","Zip":"92407"},{"Location":"JIFFY LUBE 3184","Address":"4304 University Pkwy","City":"San Bernardino","State":"CA","Zip":"92407"},{"Location":"KENDALL NAILS","Address":"967 Kendall Dr G","City":"San Bernardino","State":"CA","Zip":"92407"},{"Location":"LA OFICINA BAR","Address":"2122 W Highland Ave","City":"San Bernardino","State":"CA","Zip":"92407"},{"Location":"MARS PETCARE US","Address":"2765 Lexington Way","City":"San Bernardino","State":"CA","Zip":"92407"},{"Location":"MARY IMPRESSION","Address":"1050 Kendall Dr","City":"San Bernardino","State":"CA","Zip":"92407"},{"Location":"MCLANE","Address":"4472 Georgia Blvd","City":"San Bernardino","State":"CA","Zip":"92407"},{"Location":"MCLANE","Address":"2612 Shenandoah Way","City":"San Bernardino","State":"CA","Zip":"92407"},{"Location":"MCLANE LUNCH ROOM","Address":"4472 Georgia Blvd","City":"San Bernardino","State":"CA","Zip":"92407"},{"Location":"MORENOS RICO TACO","Address":"4276 N Sierra Way","City":"San Bernardino","State":"CA","Zip":"92407"},{"Location":"NORMAS HAIR SALON","Address":"1331 Kendall Dr 9","City":"San Bernardino","State":"CA","Zip":"92407"},{"Location":"P&A NAILS","Address":"1357 Kendall Dr 14","City":"San Bernardino","State":"CA","Zip":"92407"},{"Location":"PARADISE NAILS","Address":"3205 Kendall Dr 2b","City":"San Bernardino","State":"CA","Zip":"92407"},{"Location":"REC SPORTS","Address":"5500 University Pkwy","City":"San Bernardino","State":"CA","Zip":"92407"},{"Location":"RED BRICK PIZZA","Address":"5244 University Pkwy H","City":"San Bernardino","State":"CA","Zip":"92407"},{"Location":"RESTAURANT CASTAWAY","Address":"670 Kendall Dr","City":"San Bernardino","State":"CA","Zip":"92407"},{"Location":"SAN BERNADINO SHERIFFS","Address":"18000 Institution Rd","City":"San Bernardino","State":"CA","Zip":"92407"},{"Location":"SAN BERNARDINO","Address":"4370 Hallmark Pkwy 105","City":"San Bernardino","State":"CA","Zip":"92407"},{"Location":"SHANDIN HILLS 1545","Address":"4164 N 4th Ave","City":"San Bernardino","State":"CA","Zip":"92407"},{"Location":"SHINY OCEAN INC","Address":"985 Kendall Dr D","City":"San Bernardino","State":"CA","Zip":"92407"},{"Location":"SUSHI TOMO","Address":"4275 University Pkwy 103","City":"San Bernardino","State":"CA","Zip":"92407"},{"Location":"TAURUS TRANSPORT","Address":"20330 5th Ave","City":"San Bernardino","State":"CA","Zip":"92407"},{"Location":"THE SPICY MEXICAN","Address":"3550 Cajon Blvd","City":"San Bernardino","State":"CA","Zip":"92407"},{"Location":"TREVOR'S RUSTIC INN","Address":"800 Kendall Dr","City":"San Bernardino","State":"CA","Zip":"92407"},{"Location":"US FOREST SERVICES","Address":"17280 Glen Helen Pkwy","City":"San Bernardino","State":"CA","Zip":"92407"},{"Location":"VETERANS SUCCESS CENTER","Address":"5000 University Pkwy","City":"San Bernardino","State":"CA","Zip":"92407"},{"Location":"WALMART","Address":"4001 Hallmark Pkwy","City":"San Bernardino","State":"CA","Zip":"92407"},{"Location":"WOODEN NICKEL","Address":"842 Kendall Dr","City":"San Bernardino","State":"CA","Zip":"92407"},{"Location":"V I P ENTERPRISES","Address":"5055 Hallmark Pkwy E","City":"Sn Bernrdno","State":"CA","Zip":"92407"}]