[{"Location":"98 CENT STORE","Address":"2388 Arden Ave","City":"San Bernardino","State":"CA","Zip":"92404"},{"Location":"A LIST NAIL & SPA","Address":"1631 E Highland Ave Stef","City":"San Bernardino","State":"CA","Zip":"92404"},{"Location":"ABC MOTHER NUTRITION STORE","Address":"1618 E Highland Ave","City":"San Bernardino","State":"CA","Zip":"92404"},{"Location":"ALL STAR PIZZA","Address":"2601 Del Rosa Ave 100","City":"San Bernardino","State":"CA","Zip":"92404"},{"Location":"AMERICAN LEGION POST777","Address":"194 E 40th St","City":"San Bernardino","State":"CA","Zip":"92404"},{"Location":"AMERICAN MEDICAL RESPONSE","Address":"2601 Del Rosa Ave 108","City":"San Bernardino","State":"CA","Zip":"92404"},{"Location":"ANCHOR MEDICAL GROUP","Address":"401 E Highland Ave","City":"San Bernardino","State":"CA","Zip":"92404"},{"Location":"ARDEN NAILS","Address":"2388 Arden Ave B","City":"San Bernardino","State":"CA","Zip":"92404"},{"Location":"ARROW HEAD COUNTRY CLUB","Address":"3433 Parkside Dr","City":"San Bernardino","State":"CA","Zip":"92404"},{"Location":"ARROWHEAD ORTHOPAEDICS","Address":"2131 Elks Dr 200","City":"San Bernardino","State":"CA","Zip":"92404"},{"Location":"ARTISTICALLY YOURS BARBE","Address":"157 E Highland Ave","City":"San Bernardino","State":"CA","Zip":"92404"},{"Location":"BCA DEL ROSA LANES","Address":"1499 E Highland Ave","City":"San Bernardino","State":"CA","Zip":"92404"},{"Location":"BEEMANS HIHGLAND PHARMACY","Address":"399 E Highland Ave 103","City":"San Bernardino","State":"CA","Zip":"92404"},{"Location":"BLACK VOICE NEWS","Address":"1580 N Waterman Ave","City":"San Bernardino","State":"CA","Zip":"92404"},{"Location":"CALIZ FINEST TWERK FINGE","Address":"2990 Del Rosa Ave G","City":"San Bernardino","State":"CA","Zip":"92404"},{"Location":"CATHEDRAL OF PRAISE","Address":"3030 Del Rosa Ave","City":"San Bernardino","State":"CA","Zip":"92404"},{"Location":"CHINESE & HAWAIIAN RES.","Address":"2075 E Highland Ave E","City":"San Bernardino","State":"CA","Zip":"92404"},{"Location":"COINLESS LAUNDRYMAT","Address":"2102 E Highland Ave","City":"San Bernardino","State":"CA","Zip":"92404"},{"Location":"COMPLETE LOGISTICS LLC","Address":"1225 E Lynwood Dr","City":"San Bernardino","State":"CA","Zip":"92404"},{"Location":"CONVALESCENT MEDICAL CENTER","Address":"467 E Gilbert St","City":"San Bernardino","State":"CA","Zip":"92404"},{"Location":"DEALS R US","Address":"176 E 40th St","City":"San Bernardino","State":"CA","Zip":"92404"},{"Location":"E CAFE SHOP","Address":"399 E Highland Ave Ab","City":"San Bernardino","State":"CA","Zip":"92404"},{"Location":"ELITE NAILS","Address":"1644 E Highland Ave 103","City":"San Bernardino","State":"CA","Zip":"92404"},{"Location":"EXECUTIVE COLLECTIVE WEL","Address":"1435 N Waterman Ave C","City":"San Bernardino","State":"CA","Zip":"92404"},{"Location":"FAMILY PRACTICE MEDICAL GROUP","Address":"1369 E Highland Ave","City":"San Bernardino","State":"CA","Zip":"92404"},{"Location":"FANTASTIC NAILS","Address":"1566 E Highland Ave","City":"San Bernardino","State":"CA","Zip":"92404"},{"Location":"FIRESTONE #011231","Address":"271 E Highland Ave","City":"San Bernardino","State":"CA","Zip":"92404"},{"Location":"FISCALINI FIELD","Address":"1107 E Highland Ave","City":"San Bernardino","State":"CA","Zip":"92404"},{"Location":"FMC 71850000","Address":"1500 N Waterman Ave","City":"San Bernardino","State":"CA","Zip":"92404"},{"Location":"FROM THE HEART","Address":"2020 N Waterman Ave","City":"San Bernardino","State":"CA","Zip":"92404"},{"Location":"GEORGES BURGERS","Address":"256 E 40th St","City":"San Bernardino","State":"CA","Zip":"92404"},{"Location":"GOODYEAR","Address":"2333 Sterling Ave","City":"San Bernardino","State":"CA","Zip":"92404"},{"Location":"GRAND MELIN GROUP","Address":"2434 Old Waterman Canyon Rd","City":"San Bernardino","State":"CA","Zip":"92404"},{"Location":"GREENBRIAR LOUNGE","Address":"1259 Lynwood Ave","City":"San Bernardino","State":"CA","Zip":"92404"},{"Location":"HAIR SAYS IT ALL","Address":"2990 Del Rosa Ave E","City":"San Bernardino","State":"CA","Zip":"92404"},{"Location":"HEART CARE CLINIC","Address":"401 E 21st St","City":"San Bernardino","State":"CA","Zip":"92404"},{"Location":"INLAND HEART AND VASC","Address":"399 E Highland Ave","City":"San Bernardino","State":"CA","Zip":"92404"},{"Location":"JJ'S SPORTS BAR AND GRILL","Address":"127 E Highland Ave","City":"San Bernardino","State":"CA","Zip":"92404"},{"Location":"JOHN DAI VO MD","Address":"355 E 21st St D","City":"San Bernardino","State":"CA","Zip":"92404"},{"Location":"JOSEPH VANDERLINDEN MD","Address":"399 E Highland Ave 319","City":"San Bernardino","State":"CA","Zip":"92404"},{"Location":"KAISER PERMANENTE","Address":"1717 E Date Pl","City":"San Bernardino","State":"CA","Zip":"92404"},{"Location":"KINGS CORNER","Address":"1270 N Waterman Ave","City":"San Bernardino","State":"CA","Zip":"92404"},{"Location":"LASALA%2C SALVADOR MD MEDICAL","Address":"355 E 21st St L","City":"San Bernardino","State":"CA","Zip":"92404"},{"Location":"LOS DIABLITOS RASPADOS","Address":"1734 E Highland Ave","City":"San Bernardino","State":"CA","Zip":"92404"},{"Location":"MEXICO CAFE","Address":"892 E Highland Ave","City":"San Bernardino","State":"CA","Zip":"92404"},{"Location":"MODERN MEAT INC","Address":"1427 E Highland Ave","City":"San Bernardino","State":"CA","Zip":"92404"},{"Location":"NATIVE SONS GOLDENWEST","Address":"2701 Del Rosa Ave","City":"San Bernardino","State":"CA","Zip":"92404"},{"Location":"NDI INSURANCE","Address":"1246 Canyon Rd","City":"San Bernardino","State":"CA","Zip":"92404"},{"Location":"NEW BLESSENS BARBER","Address":"2388 Arden Ave A","City":"San Bernardino","State":"CA","Zip":"92404"},{"Location":"ONE LOVE BARBER SHOP","Address":"2035 E Highland Ave G","City":"San Bernardino","State":"CA","Zip":"92404"},{"Location":"PACIFIC PREMIER BANK","Address":"1598 E Highland Ave","City":"San Bernardino","State":"CA","Zip":"92404"},{"Location":"PHO ELIMINATE","Address":"2035 E Highland Ave C","City":"San Bernardino","State":"CA","Zip":"92404"},{"Location":"PIZZA PLUS PROPERTIES","Address":"1470 E Highland Ave C","City":"San Bernardino","State":"CA","Zip":"92404"},{"Location":"PIZZA PLUS PROPERTIES","Address":"1624 E Highland Ave","City":"San Bernardino","State":"CA","Zip":"92404"},{"Location":"PLANET FITNESS","Address":"2041 E Highland Ave","City":"San Bernardino","State":"CA","Zip":"92404"},{"Location":"RADNET INC","Address":"800 E Highland Ave","City":"San Bernardino","State":"CA","Zip":"92404"},{"Location":"RIBS","Address":"2360a Sterling Ave","City":"San Bernardino","State":"CA","Zip":"92404"},{"Location":"ROYAL NAILS","Address":"2116 E Highland Ave","City":"San Bernardino","State":"CA","Zip":"92404"},{"Location":"SAN BERNADINO FISH","Address":"1635 E Highland Ave","City":"San Bernardino","State":"CA","Zip":"92404"},{"Location":"SAN BERNADINO POOL SUPPLY","Address":"258 E Highland Ave","City":"San Bernardino","State":"CA","Zip":"92404"},{"Location":"SB FOOT CLINIC","Address":"2095 N Waterman Ave","City":"San Bernardino","State":"CA","Zip":"92404"},{"Location":"SILVER Q BILLIARDS","Address":"1120 E Highland Ave","City":"San Bernardino","State":"CA","Zip":"92404"},{"Location":"SMOG PLUS","Address":"1900 E Highland Ave","City":"San Bernardino","State":"CA","Zip":"92404"},{"Location":"SOTERRY NAIL","Address":"164 E Highland Ave","City":"San Bernardino","State":"CA","Zip":"92404"},{"Location":"ST BERNADINE MED CENTER IMAGIN","Address":"401 E Highland Ave 100","City":"San Bernardino","State":"CA","Zip":"92404"},{"Location":"ST BERNADINE WOUND CENTER","Address":"1690 N Waterman Ave","City":"San Bernardino","State":"CA","Zip":"92404"},{"Location":"ST BERNADINE'S MEDICAL CENTER","Address":"2101 N Waterman Ave","City":"San Bernardino","State":"CA","Zip":"92404"},{"Location":"ST BERNARDINE MED CTR","Address":"399 E Highland Ave 125","City":"San Bernardino","State":"CA","Zip":"92404"},{"Location":"SUSHI TRAIN","Address":"2344 Sterling Ave","City":"San Bernardino","State":"CA","Zip":"92404"},{"Location":"TACOS ARANDAS","Address":"2075 E Highland Ave K","City":"San Bernardino","State":"CA","Zip":"92404"},{"Location":"TARGET T0297","Address":"2380 Sterling Ave","City":"San Bernardino","State":"CA","Zip":"92404"},{"Location":"TASTE OF THAI","Address":"1180 E Highland Ave","City":"San Bernardino","State":"CA","Zip":"92404"},{"Location":"THE STARTING FIVE","Address":"2348 Sterling Ave","City":"San Bernardino","State":"CA","Zip":"92404"},{"Location":"THE TARTAN BAR & GRILL","Address":"1602 E Highland Ave","City":"San Bernardino","State":"CA","Zip":"92404"},{"Location":"TRENDSETTER SALON AND DAY SP","Address":"1454 E Highland Ave","City":"San Bernardino","State":"CA","Zip":"92404"},{"Location":"UNITED PALETERIA Y NEVRIA","Address":"2035 E Highland Ave I","City":"San Bernardino","State":"CA","Zip":"92404"},{"Location":"UNITED STATES FOREST SERVICE","Address":"23525 Hillview Rd","City":"San Bernardino","State":"CA","Zip":"92404"},{"Location":"YASER A SLAYYEN MD","Address":"399 E Highland Ave 215","City":"San Bernardino","State":"CA","Zip":"92404"},{"Location":"YE OLD LAMPLIGHTER","Address":"255 E 40th St","City":"San Bernardino","State":"CA","Zip":"92404"}]