[{"Location":"ILLUSIONS AUTO BODY","Address":"740 N Mill St D","City":"San Bernadino","State":"CA","Zip":"92410"},{"Location":"MIYAGI SUSHI","Address":"228 E Baseline Street","City":"San Bernardeno","State":"CA","Zip":"92410"},{"Location":"96 PLUS DISCOUNT STORE","Address":"1014 N Waterman Ave E","City":"San Bernardino","State":"CA","Zip":"92410"},{"Location":"A & R TRANSPORT","Address":"194 N Rancho Ave","City":"San Bernardino","State":"CA","Zip":"92410"},{"Location":"ADELANTO PAWN SHOP","Address":"685 W Base Line St E","City":"San Bernardino","State":"CA","Zip":"92410"},{"Location":"ARTE LEO INC","Address":"1035 E Base Line St","City":"San Bernardino","State":"CA","Zip":"92410"},{"Location":"BELL ROOF COMPANY INC","Address":"636 S I St","City":"San Bernardino","State":"CA","Zip":"92410"},{"Location":"BERNADINO CITY UN SCHL DIS","Address":"536 W Base Line St","City":"San Bernardino","State":"CA","Zip":"92410"},{"Location":"CALIBER COLLISION CENTER","Address":"1197 E 3rd St","City":"San Bernardino","State":"CA","Zip":"92410"},{"Location":"CHOLS LAUNDRY","Address":"2035 W Mill St","City":"San Bernardino","State":"CA","Zip":"92410"},{"Location":"DANGS FRESH WOK","Address":"624 W 4th St 3","City":"San Bernardino","State":"CA","Zip":"92410"},{"Location":"DEPT OF HOMELAND SECURITY","Address":"655 W Rialto Ave","City":"San Bernardino","State":"CA","Zip":"92410"},{"Location":"DHS%2FICE","Address":"655 W Rialto Ave","City":"San Bernardino","State":"CA","Zip":"92410"},{"Location":"EAGLES CLUB","Address":"895 E 9th St","City":"San Bernardino","State":"CA","Zip":"92410"},{"Location":"ECO THRIFT1","Address":"961 N E St","City":"San Bernardino","State":"CA","Zip":"92410"},{"Location":"EL CACHANILLA MEX REST","Address":"652 W Base Line St","City":"San Bernardino","State":"CA","Zip":"92410"},{"Location":"EL HUARACHE MEXICAN FOOD","Address":"1014 N Waterman Ave A","City":"San Bernardino","State":"CA","Zip":"92410"},{"Location":"FAIRVIEW FORD","Address":"292 N G St","City":"San Bernardino","State":"CA","Zip":"92410"},{"Location":"FITNESS PLANET","Address":"570 S Mount Vernon Ave D","City":"San Bernardino","State":"CA","Zip":"92410"},{"Location":"FIVE STAR AUTOMOTIVE","Address":"909 W 2nd St","City":"San Bernardino","State":"CA","Zip":"92410"},{"Location":"FRAZEE COMMUNITY CENTER","Address":"951 N Crescent Ave A","City":"San Bernardino","State":"CA","Zip":"92410"},{"Location":"FRIENDLY TAX SERVICE","Address":"459 W Base Line St","City":"San Bernardino","State":"CA","Zip":"92410"},{"Location":"GEORGES BURGERS","Address":"479 S Mount Vernon Ave","City":"San Bernardino","State":"CA","Zip":"92410"},{"Location":"GINAS BARGAIN THRIFT","Address":"1639 E Base Line St","City":"San Bernardino","State":"CA","Zip":"92410"},{"Location":"GINAS BARGAIN THRIFT","Address":"945 E Base Line St","City":"San Bernardino","State":"CA","Zip":"92410"},{"Location":"GOODWILL-SB","Address":"8120 Palm Ln","City":"San Bernardino","State":"CA","Zip":"92410"},{"Location":"GREYHOUND LINES","Address":"596 N G St","City":"San Bernardino","State":"CA","Zip":"92410"},{"Location":"GUS JUNIOR","Address":"695 W Base Line St","City":"San Bernardino","State":"CA","Zip":"92410"},{"Location":"HORTENCIAS HAIR SALON","Address":"25775 Base Line St","City":"San Bernardino","State":"CA","Zip":"92410"},{"Location":"HOUSE OF BEAUTY","Address":"1353 W Mill St 112","City":"San Bernardino","State":"CA","Zip":"92410"},{"Location":"HUB CONSTRUCTION SPECIALTYS","Address":"379 S I St","City":"San Bernardino","State":"CA","Zip":"92410"},{"Location":"IWC MOTOR SPORTS","Address":"640 W Mill St","City":"San Bernardino","State":"CA","Zip":"92410"},{"Location":"JB AUTO SALES","Address":"1010 N E St","City":"San Bernardino","State":"CA","Zip":"92410"},{"Location":"JB HUNT 1680","Address":"1680 Santa Fe Way","City":"San Bernardino","State":"CA","Zip":"92410"},{"Location":"KNIGHTS OF COLUMBUS","Address":"1729 E Base Line St","City":"San Bernardino","State":"CA","Zip":"92410"},{"Location":"LANDEROS BASELINE FURNITURE","Address":"290 W Base Line St","City":"San Bernardino","State":"CA","Zip":"92410"},{"Location":"LARAS AUTO","Address":"631 W Base Line St","City":"San Bernardino","State":"CA","Zip":"92410"},{"Location":"LEE W SULAEMAN FAMILY DENTISTR","Address":"25054 Base Line St","City":"San Bernardino","State":"CA","Zip":"92410"},{"Location":"LOTUS RESTAURANT","Address":"258 E Base Line St","City":"San Bernardino","State":"CA","Zip":"92410"},{"Location":"LULUS HIDEOUT","Address":"1958 W Rialto Ave","City":"San Bernardino","State":"CA","Zip":"92410"},{"Location":"MARISCOS EL CORITA","Address":"25570 Base Line St","City":"San Bernardino","State":"CA","Zip":"92410"},{"Location":"MIYAGI INC","Address":"223 E Base Line St","City":"San Bernardino","State":"CA","Zip":"92410"},{"Location":"MJ  INC","Address":"1180 E 9th St A5","City":"San Bernardino","State":"CA","Zip":"92410"},{"Location":"MOZA CAF GRILL","Address":"668 W 4th St C","City":"San Bernardino","State":"CA","Zip":"92410"},{"Location":"MT VERNON SOCIAL SERVICES","Address":"507 S Mount Vernon Ave","City":"San Bernardino","State":"CA","Zip":"92410"},{"Location":"PARTY  DOLL LOUNGE","Address":"25461 Base Line St","City":"San Bernardino","State":"CA","Zip":"92410"},{"Location":"QUIEL BROTHERS","Address":"272 S I St","City":"San Bernardino","State":"CA","Zip":"92410"},{"Location":"ROLLINGS AUTOMOTIVE SERVICE","Address":"1139 N E St C","City":"San Bernardino","State":"CA","Zip":"92410"},{"Location":"SECOND COINLESSS LAUNDRY","Address":"815 W 2nd St A","City":"San Bernardino","State":"CA","Zip":"92410"},{"Location":"STAR CERTIFIED","Address":"1180 E 9th St 3","City":"San Bernardino","State":"CA","Zip":"92410"},{"Location":"SUPER BIONICOS","Address":"570 S Mount Vernon Ave","City":"San Bernardino","State":"CA","Zip":"92410"},{"Location":"T SHIRT WAREHOUSE","Address":"328 E Base Line St","City":"San Bernardino","State":"CA","Zip":"92410"},{"Location":"THANHTAM2","Address":"1033 N Waterman Ave","City":"San Bernardino","State":"CA","Zip":"92410"},{"Location":"THE MONKEYS SPORTS BAR","Address":"25082 Base Line St","City":"San Bernardino","State":"CA","Zip":"92410"},{"Location":"THE WELLNESS CENTER","Address":"1177 N E St","City":"San Bernardino","State":"CA","Zip":"92410"},{"Location":"VFW POST8737","Address":"2018 Foothill Blvd","City":"San Bernardino","State":"CA","Zip":"92410"},{"Location":"VIDA MEDICAL CENTER","Address":"570 S Mount Vernon Ave G","City":"San Bernardino","State":"CA","Zip":"92410"},{"Location":"YOLANDAS TAX SERVICE","Address":"416 N H St 6","City":"San Bernardino","State":"CA","Zip":"92410"},{"Location":"YYD INC.","Address":"908 W Mill St","City":"San Bernardino","State":"CA","Zip":"92410"},{"Location":"AMERIMATS","Address":"866 W Baseline St","City":"San Bernardion","State":"CA","Zip":"92410"},{"Location":"WEST COAST WHEEL AND RIM","Address":"197 S I St","City":"Sn Bernrdno","State":"CA","Zip":"92410"}]