[{"Location":"COURT SERVICES ADMIN","Address":"157 W 5th St","City":"San Bernardino","State":"CA","Zip":"92415"},{"Location":"DEPARTMENT OF PUBLIC HEA","Address":"247 S Boyd St 3","City":"San Bernardino","State":"CA","Zip":"92415"},{"Location":"PROBATION DEPARTMENT","Address":"175 W 4th St","City":"San Bernardino","State":"CA","Zip":"92415"},{"Location":"PROBATION DEPT-COUNTY OF SAN","Address":"250 S Lena Rd","City":"San Bernardino","State":"CA","Zip":"92415"},{"Location":"SAN BERNADINO CNTY SUPERINTEND","Address":"601 N E St","City":"San Bernardino","State":"CA","Zip":"92415"},{"Location":"SAN BERNADINO PROBATION","Address":"175 W 5th St 4","City":"San Bernardino","State":"CA","Zip":"92415"},{"Location":"SAN BERNARDINO CNTY. TREASURER","Address":"172 W 3rd St 1","City":"San Bernardino","State":"CA","Zip":"92415"},{"Location":"SAN BERNARDINO COUNTY FIRE","Address":"157 W 5th St Flr 2","City":"San Bernardino","State":"CA","Zip":"92415"},{"Location":"SAN BERNARDINO COUNTY IS","Address":"670 E Gilbert St","City":"San Bernardino","State":"CA","Zip":"92415"},{"Location":"SAN BERNARDINO COUNTY SHERIFF","Address":"655 E 3rd St","City":"San Bernardino","State":"CA","Zip":"92415"},{"Location":"SAN BERNARDINO COUNTY SHERIFFS","Address":"655 E 3rd St","City":"San Bernardino","State":"CA","Zip":"92415"},{"Location":"SAN BERNARDINO INFO SERV","Address":"385 N Arrowhead Ave","City":"San Bernardino","State":"CA","Zip":"92415"},{"Location":"SAN BERNARDINO PROBATION","Address":"401 N Arrowhead Ave 1","City":"San Bernardino","State":"CA","Zip":"92415"},{"Location":"SAN BERNARDINO PROBATION","Address":"740 E Gilbert St","City":"San Bernardino","State":"CA","Zip":"92415"},{"Location":"SBC PROBATION 1862","Address":"900 E Gilbert St","City":"San Bernardino","State":"CA","Zip":"92415"},{"Location":"SBCSD SED SWAT","Address":"808 E Mill St","City":"San Bernardino","State":"CA","Zip":"92415"}]