[{"Location":"ADELS BEAUTY & BARBER","Address":"1338 W 5th St 103","City":"San Bernardino","State":"CA","Zip":"92411"},{"Location":"AMAPOLA","Address":"1167 N Mount Vernon Ave","City":"San Bernardino","State":"CA","Zip":"92411"},{"Location":"AQUA WATER","Address":"1784 W Highland Ave","City":"San Bernardino","State":"CA","Zip":"92411"},{"Location":"ARROW ELKS LODGE","Address":"1073 N Mount Vernon Ave","City":"San Bernardino","State":"CA","Zip":"92411"},{"Location":"BARAJAS FEED SUPPLY","Address":"1007 N Mount Vernon Ave","City":"San Bernardino","State":"CA","Zip":"92411"},{"Location":"BIRRIA FOOD","Address":"601 N Mount Vernon Ave","City":"San Bernardino","State":"CA","Zip":"92411"},{"Location":"CASA MERCED 2","Address":"1490 W 6th St","City":"San Bernardino","State":"CA","Zip":"92411"},{"Location":"CASA MERCED III","Address":"1464 W Victoria St","City":"San Bernardino","State":"CA","Zip":"92411"},{"Location":"CLUB TRINIDAD","Address":"1562 W 5th St","City":"San Bernardino","State":"CA","Zip":"92411"},{"Location":"COMM HOSPITAL OF SAN BERNARDIN","Address":"1805 Medical Center Dr","City":"San Bernardino","State":"CA","Zip":"92411"},{"Location":"COMM HOSPITAL OF SAN BERNARDIN","Address":"1800 Medical Center Dr","City":"San Bernardino","State":"CA","Zip":"92411"},{"Location":"EL OSITO NUTRITIONAL","Address":"631 N Mount Vernon Ave","City":"San Bernardino","State":"CA","Zip":"92411"},{"Location":"GARCAIS HEALTH START","Address":"1455 W Highland Ave 109","City":"San Bernardino","State":"CA","Zip":"92411"},{"Location":"HAPPY PLACE","Address":"1285 W 5th St","City":"San Bernardino","State":"CA","Zip":"92411"},{"Location":"HARPREET GILL","Address":"1584 W Base Line St 103","City":"San Bernardino","State":"CA","Zip":"92411"},{"Location":"JUAN POLLO","Address":"1258 W 5th St","City":"San Bernardino","State":"CA","Zip":"92411"},{"Location":"KNIGHTS OF COLUMBUS","Address":"2392 Western Ave","City":"San Bernardino","State":"CA","Zip":"92411"},{"Location":"MILTAS CAFE","Address":"602 N Mount Vernon Ave","City":"San Bernardino","State":"CA","Zip":"92411"},{"Location":"NEW BREED BARBER","Address":"1655 W Base Line St","City":"San Bernardino","State":"CA","Zip":"92411"},{"Location":"OMNI TRANS PO#4500011974","Address":"1700 W 5th St","City":"San Bernardino","State":"CA","Zip":"92411"},{"Location":"OUR LADY OF GUADALUPE CHURCH","Address":"1430 W 5th St","City":"San Bernardino","State":"CA","Zip":"92411"},{"Location":"PUENA COIN LAUNDRY","Address":"1338 W 5th St","City":"San Bernardino","State":"CA","Zip":"92411"},{"Location":"SOUTH WESTERN MOTORS","Address":"791 N Mount Vernon Ave","City":"San Bernardino","State":"CA","Zip":"92411"},{"Location":"TAQUERIA EL GUERO","Address":"840 Medical Center Dr","City":"San Bernardino","State":"CA","Zip":"92411"},{"Location":"THE KING TACO","Address":"900 N Mount Vernon Ave","City":"San Bernardino","State":"CA","Zip":"92411"},{"Location":"THE MUG","Address":"1588 W Highland Ave","City":"San Bernardino","State":"CA","Zip":"92411"},{"Location":"VERONICAS HOME OF MERCY","Address":"1495 W Victoria St","City":"San Bernardino","State":"CA","Zip":"92411"},{"Location":"VERONICAS HOME OF MERCY 1","Address":"1476 W 6th St","City":"San Bernardino","State":"CA","Zip":"92411"}]