[{"Location":"AAA INVESTMENT INC","Address":"16810 Van Buren Blvd","City":"Riverside","State":"CA","Zip":"92504"},{"Location":"ADKAN ENGINEERS","Address":"6879 Airport Dr","City":"Riverside","State":"CA","Zip":"92504"},{"Location":"AVALON RIVERSIDE 264 LLC","Address":"4655 Sierra Vista%2C Sales2","City":"Riverside","State":"CA","Zip":"92504"},{"Location":"BETTER LIFE MOBILITY","Address":"7239 Indiana Ave","City":"Riverside","State":"CA","Zip":"92504"},{"Location":"BLANCHARD SIGNS","Address":"6750 Central Ave A","City":"Riverside","State":"CA","Zip":"92504"},{"Location":"BMW OF RIVERSIDE","Address":"3060 Adams St","City":"Riverside","State":"CA","Zip":"92504"},{"Location":"CAL BAPTIST - BRISCOS","Address":"8432 Magnolia Ave","City":"Riverside","State":"CA","Zip":"92504"},{"Location":"CAL BAPTIST - LANCER","Address":"8432 Magnolia Ave","City":"Riverside","State":"CA","Zip":"92504"},{"Location":"CAL BAPTIST - REC CNTR","Address":"8432 Magnolia Ave","City":"Riverside","State":"CA","Zip":"92504"},{"Location":"CAL BAPTIST - YEAGER","Address":"8432 Magnolia Ave","City":"Riverside","State":"CA","Zip":"92504"},{"Location":"CAL BAPTIST ATHLETICS","Address":"8432 Magnolia Ave","City":"Riverside","State":"CA","Zip":"92504"},{"Location":"CAL BAPTIST ATHLETICS 2","Address":"8432 Magnolia Ave","City":"Riverside","State":"CA","Zip":"92504"},{"Location":"CAL BAPTIST ATHLETICS 3","Address":"8432 Magnolia Ave","City":"Riverside","State":"CA","Zip":"92504"},{"Location":"CAL BAPTIST AVIATION","Address":"6865 Airport Dr","City":"Riverside","State":"CA","Zip":"92504"},{"Location":"CAL BAPTIST-CHICK-FIL-A","Address":"8432 Magnolia Ave","City":"Riverside","State":"CA","Zip":"92504"},{"Location":"CAL BAPTIST-WANDAS CAFE","Address":"8432 Magnolia Ave","City":"Riverside","State":"CA","Zip":"92504"},{"Location":"CARMAX #7196 RIVERSIDE","Address":"7980 Auto Dr","City":"Riverside","State":"CA","Zip":"92504"},{"Location":"CERTIFIED TIRE","Address":"7341 Indiana Ave","City":"Riverside","State":"CA","Zip":"92504"},{"Location":"CHARLEY ROKKS  BBQ","Address":"5145 Jurupa Ave","City":"Riverside","State":"CA","Zip":"92504"},{"Location":"CITY OF RIVER SIDE","Address":"2911 Adams St","City":"Riverside","State":"CA","Zip":"92504"},{"Location":"CITY OF RIVERSIDE","Address":"5901 Payton Ave","City":"Riverside","State":"CA","Zip":"92504"},{"Location":"CITY OF RIVERSIDE","Address":"8095 Lincoln Ave","City":"Riverside","State":"CA","Zip":"92504"},{"Location":"CITY OF RIVERSIDE CALIFORNIA","Address":"2911 Adams St","City":"Riverside","State":"CA","Zip":"92504"},{"Location":"CITY OF RIVERSIDE PUBLIC UTILI","Address":"8095 Lincoln Ave","City":"Riverside","State":"CA","Zip":"92504"},{"Location":"CITY OF RIVERSIDE%2FPUB.SEWER","Address":"5950 Acorn St","City":"Riverside","State":"CA","Zip":"92504"},{"Location":"COMMUNITY ACCESS NETWORK","Address":"16542 Tava Ln","City":"Riverside","State":"CA","Zip":"92504"},{"Location":"DORYS VINER","Address":"17136 Van Buren Blvd","City":"Riverside","State":"CA","Zip":"92504"},{"Location":"DUTTON MOTOR COMPANY","Address":"8201 Auto Dr","City":"Riverside","State":"CA","Zip":"92504"},{"Location":"ECO MEDICAL CLINIC","Address":"4900 Arlington Ave","City":"Riverside","State":"CA","Zip":"92504"},{"Location":"EVE BARBER SHOP","Address":"5218 Arlington Ave","City":"Riverside","State":"CA","Zip":"92504"},{"Location":"FIRST CLASS CYCLE","Address":"6760 Central Ave C","City":"Riverside","State":"CA","Zip":"92504"},{"Location":"GRECH MOTORS","Address":"6915 Arlington Dr","City":"Riverside","State":"CA","Zip":"92504"},{"Location":"HARVEST CHRISTIAN FELLOWSHIP","Address":"6115 Arlington Ave","City":"Riverside","State":"CA","Zip":"92504"},{"Location":"HHH FOODS","Address":"5821 Wilderness Ave","City":"Riverside","State":"CA","Zip":"92504"},{"Location":"IE AUTOBODY & PAINT","Address":"6411 Industrial Ave A","City":"Riverside","State":"CA","Zip":"92504"},{"Location":"IG DIEGO","Address":"5850 Griffith St","City":"Riverside","State":"CA","Zip":"92504"},{"Location":"JACK AKMAKJIAN GENERAL O","Address":"7300 Magnolia Ave","City":"Riverside","State":"CA","Zip":"92504"},{"Location":"JACKS BOX AND CRATES","Address":"6301 Industrial Ave","City":"Riverside","State":"CA","Zip":"92504"},{"Location":"JK NAILS & SPA","Address":"5959 Arlington Ave C","City":"Riverside","State":"CA","Zip":"92504"},{"Location":"KOKO INVESTMENTS INC","Address":"16810 Van Buren Blvd 102","City":"Riverside","State":"CA","Zip":"92504"},{"Location":"LINDSEYS NAILS & SPA","Address":"5383 Arlington Ave","City":"Riverside","State":"CA","Zip":"92504"},{"Location":"LUXURY NAILS & SPA RIVER","Address":"4024 Madison St","City":"Riverside","State":"CA","Zip":"92504"},{"Location":"METAL CONTAINER CORPORATION","Address":"7155 Central Ave","City":"Riverside","State":"CA","Zip":"92504"},{"Location":"MEXICAN KITCHEN","Address":"17030 Van Buren Blvd","City":"Riverside","State":"CA","Zip":"92504"},{"Location":"MFI RECOVERY CENTER","Address":"4882 Appleton St","City":"Riverside","State":"CA","Zip":"92504"},{"Location":"MFI RECOVERY CENTER","Address":"5870 Arlington Ave","City":"Riverside","State":"CA","Zip":"92504"},{"Location":"MICAH MOONEY CORP DBA F","Address":"5300 Arlington Ave C","City":"Riverside","State":"CA","Zip":"92504"},{"Location":"MOSS BROS CDJR RIVERSIDE","Address":"8151 Auto Dr","City":"Riverside","State":"CA","Zip":"92504"},{"Location":"NORMA VASQUEZ DDS","Address":"4060 Madison St","City":"Riverside","State":"CA","Zip":"92504"},{"Location":"PACKINGHOUSE BREWING CO","Address":"6421 Central Ave A","City":"Riverside","State":"CA","Zip":"92504"},{"Location":"PAPAJOESPIZZA&MORE","Address":"5115 Jurupa Ave B3","City":"Riverside","State":"CA","Zip":"92504"},{"Location":"PRCSD SPECIAL TRANSIT","Address":"8095 Lincoln Ave A","City":"Riverside","State":"CA","Zip":"92504"},{"Location":"PRCSE SPECIAL TRANSIT2","Address":"8095 Lincoln Ave A","City":"Riverside","State":"CA","Zip":"92504"},{"Location":"QUICKWASH","Address":"5168 Arlington Ave","City":"Riverside","State":"CA","Zip":"92504"},{"Location":"RIVERSIDE AUTO AUCTION","Address":"6446 Fremont St","City":"Riverside","State":"CA","Zip":"92504"},{"Location":"RIVERSIDE AUTO AUCTION","Address":"6446 Fremont St B","City":"Riverside","State":"CA","Zip":"92504"},{"Location":"RIVERSIDE AUTO AUCTION","Address":"6446 Fremont St C","City":"Riverside","State":"CA","Zip":"92504"},{"Location":"RIVERSIDE AUTO AUCTION3","Address":"6446 Fremont St","City":"Riverside","State":"CA","Zip":"92504"},{"Location":"RIVERSIDE ENDODONTIC OFFICE","Address":"4959 Arlington Ave I","City":"Riverside","State":"CA","Zip":"92504"},{"Location":"RIVERSIDE FIRE OEM","Address":"3085 St Lawrence St","City":"Riverside","State":"CA","Zip":"92504"},{"Location":"RIVERSIDE HYUNDAI","Address":"8001 Auto Dr","City":"Riverside","State":"CA","Zip":"92504"},{"Location":"RIVERSIDE POLICE OFFICERS ASSN","Address":"8181 Lincoln Ave","City":"Riverside","State":"CA","Zip":"92504"},{"Location":"RPU CUST SERVICE","Address":"3025 Madison St","City":"Riverside","State":"CA","Zip":"92504"},{"Location":"RRT LOGISTICS INC","Address":"16781 Van Buren Blvd E","City":"Riverside","State":"CA","Zip":"92504"},{"Location":"RSCR INLAND","Address":"8368 Verbena Dr","City":"Riverside","State":"CA","Zip":"92504"},{"Location":"SALON WELLNESS","Address":"16801 Van Buren Blvd 2","City":"Riverside","State":"CA","Zip":"92504"},{"Location":"SATURN OF RIVERSIDE","Address":"8101 Auto Dr","City":"Riverside","State":"CA","Zip":"92504"},{"Location":"SEARS","Address":"5265 Arlington Ave","City":"Riverside","State":"CA","Zip":"92504"},{"Location":"SEARS","Address":"5261 Arlington Ave","City":"Riverside","State":"CA","Zip":"92504"},{"Location":"SINGH CHEVROLET","Address":"8200 Auto Dr","City":"Riverside","State":"CA","Zip":"92504"},{"Location":"SINGH SUBARU","Address":"8069 Indiana Ave","City":"Riverside","State":"CA","Zip":"92504"},{"Location":"SKY DIVE LOUNGE","Address":"6775 Arlington Ave","City":"Riverside","State":"CA","Zip":"92504"},{"Location":"SUSHI OK","Address":"5228 Arlington Ave","City":"Riverside","State":"CA","Zip":"92504"},{"Location":"TOYOTA OF RIVERSIDE","Address":"7870 Indiana Ave","City":"Riverside","State":"CA","Zip":"92504"},{"Location":"TOYOTA RIVERSIDE INC","Address":"7850 Indiana Ave","City":"Riverside","State":"CA","Zip":"92504"},{"Location":"WEST COAST CAR","Address":"7207 Indiana Ave","City":"Riverside","State":"CA","Zip":"92504"}]