[{"Location":"JOSES MEXICAN FOOD INC","Address":"10255 Mission Blvd F","City":"Glen Avon","State":"CA","Zip":"92505"},{"Location":"ALLEN TIRE CO","Address":"10976 Hole Ave","City":"Riverside","State":"CA","Zip":"92505"},{"Location":"AMANDAS BEAUTY SALON","Address":"10393 Hole Ave","City":"Riverside","State":"CA","Zip":"92505"},{"Location":"AMYS CAFE","Address":"10635 Magnolia Ave","City":"Riverside","State":"CA","Zip":"92505"},{"Location":"ANCHOS SOUTHWEST GRILLE","Address":"10773 Hole Ave","City":"Riverside","State":"CA","Zip":"92505"},{"Location":"ARROWHEAD ORTHOPEDIC 3","Address":"4235 Riverwalk Pkwy 200","City":"Riverside","State":"CA","Zip":"92505"},{"Location":"ASCR  INLAND","Address":"5475 College Ave","City":"Riverside","State":"CA","Zip":"92505"},{"Location":"BENJAMIN CHUNG MD","Address":"4244 Riverwalk Pkwy 200","City":"Riverside","State":"CA","Zip":"92505"},{"Location":"BIG FISH TUNA","Address":"4270 Riverwalk Pkwy","City":"Riverside","State":"CA","Zip":"92505"},{"Location":"BOLIVAR","Address":"10600 Magnolia Ave","City":"Riverside","State":"CA","Zip":"92505"},{"Location":"CENTRAL COMMUNICATIONS","Address":"11830 Pierce St 100","City":"Riverside","State":"CA","Zip":"92505"},{"Location":"CORONA RIVERSIDE HEALTH CLINC","Address":"3950 Pierce St J","City":"Riverside","State":"CA","Zip":"92505"},{"Location":"COUNTY OF RIVERSIDE","Address":"4210 Riverwalk Pkwy","City":"Riverside","State":"CA","Zip":"92505"},{"Location":"DAVID O MEDINA DDS INC 1","Address":"10925 Magnolia Ave","City":"Riverside","State":"CA","Zip":"92505"},{"Location":"DAVITA #2012 MAGNOLIA W","Address":"11161 Magnolia Ave","City":"Riverside","State":"CA","Zip":"92505"},{"Location":"DIAZ GEORGE DDS DENTIST","Address":"3845 La Sierra Ave 100","City":"Riverside","State":"CA","Zip":"92505"},{"Location":"EL TORITO 7134","Address":"3740 Park Sierra Dr","City":"Riverside","State":"CA","Zip":"92505"},{"Location":"EVENTS SPORTS GRILL","Address":"10560 Magnolia Ave A","City":"Riverside","State":"CA","Zip":"92505"},{"Location":"FIRST CLASS PIZZA","Address":"4290 Riverwalk Pkwy 310","City":"Riverside","State":"CA","Zip":"92505"},{"Location":"FRUITSIE RASPADO RIVERSIDE","Address":"11090 Magnolia Ave","City":"Riverside","State":"CA","Zip":"92505"},{"Location":"GOL BRAZILLAN RESTURANT","Address":"10436 Magnolia Ave","City":"Riverside","State":"CA","Zip":"92505"},{"Location":"HAIR SALON SHOP","Address":"4581 La Sierra Ave","City":"Riverside","State":"CA","Zip":"92505"},{"Location":"HAVEN TECHNOLOGY","Address":"4130 Flat Rock Dr 170","City":"Riverside","State":"CA","Zip":"92505"},{"Location":"HAWKINS COSMETIC DENTISTRY","Address":"3814 La Sierra Ave","City":"Riverside","State":"CA","Zip":"92505"},{"Location":"HOLISTIC IMAGE SALON","Address":"4781 La Sierra Ave","City":"Riverside","State":"CA","Zip":"92505"},{"Location":"JIFFY LUBE 2337","Address":"3693 La Sierra Ave","City":"Riverside","State":"CA","Zip":"92505"},{"Location":"JOES BAR AND GRILL","Address":"10909 Magnolia Ave","City":"Riverside","State":"CA","Zip":"92505"},{"Location":"JOSE DON MEX REST","Address":"3848 La Sierra Ave","City":"Riverside","State":"CA","Zip":"92505"},{"Location":"KAISER PERMANENTE MED CENTER","Address":"10800 Magnolia Ave","City":"Riverside","State":"CA","Zip":"92505"},{"Location":"KAWA DAY SPA","Address":"3828 La Sierra Ave","City":"Riverside","State":"CA","Zip":"92505"},{"Location":"KEVIN JACOBS CPA","Address":"4187 Flat Rock Dr 300","City":"Riverside","State":"CA","Zip":"92505"},{"Location":"KINGSTONE RIVERWALK","Address":"4889 Streambay Ct","City":"Riverside","State":"CA","Zip":"92505"},{"Location":"LA FITNESS","Address":"10988 Magnolia Ave","City":"Riverside","State":"CA","Zip":"92505"},{"Location":"LA SIERRA DENTAL","Address":"10458 Magnolia Ave","City":"Riverside","State":"CA","Zip":"92505"},{"Location":"LOTA KITCHEN & CATERING","Address":"10759 Magnolia Ave","City":"Riverside","State":"CA","Zip":"92505"},{"Location":"MARISCO PARRAL RESTAURAN","Address":"10330 Arlington Ave 1","City":"Riverside","State":"CA","Zip":"92505"},{"Location":"MARISCOS EL CALENTANO","Address":"10390 Arlington Ave","City":"Riverside","State":"CA","Zip":"92505"},{"Location":"MILLENNIUM NAILS & SPA","Address":"3950 Pierce St F","City":"Riverside","State":"CA","Zip":"92505"},{"Location":"MORENOS AUTO REPAIR","Address":"4791 Doane Ave","City":"Riverside","State":"CA","Zip":"92505"},{"Location":"MUCH LOVE BARBER SHOP","Address":"3950 Pierce St E","City":"Riverside","State":"CA","Zip":"92505"},{"Location":"MUCH LOVE BARBER SHOP","Address":"3950 Pierce Street Suite E","City":"Riverside","State":"CA","Zip":"92505"},{"Location":"NARA SUSHI","Address":"10380 Magnolia Ave","City":"Riverside","State":"CA","Zip":"92505"},{"Location":"NEW AMERICAN FUNDING","Address":"11820 Pierce St 200","City":"Riverside","State":"CA","Zip":"92505"},{"Location":"ORIGINAL BARBER SHOP","Address":"11151 Pierce St","City":"Riverside","State":"CA","Zip":"92505"},{"Location":"PACIFIC PULMONARY MED GROUP","Address":"4234 Riverwalk Pkwy","City":"Riverside","State":"CA","Zip":"92505"},{"Location":"PALM TERRACE","Address":"11162 Palm Terrace Ln","City":"Riverside","State":"CA","Zip":"92505"},{"Location":"PHO 99","Address":"4557 La Sierra Ave","City":"Riverside","State":"CA","Zip":"92505"},{"Location":"Pho 99 Vietnamese Restaurant","Address":"4557 La Sierra Ave","City":"Riverside","State":"CA","Zip":"92505"},{"Location":"PITZMORR INC.","Address":"3765 La Sierra Ave","City":"Riverside","State":"CA","Zip":"92505"},{"Location":"PIZZA HUT","Address":"4750 La Sierra Ave","City":"Riverside","State":"CA","Zip":"92505"},{"Location":"PUPUSERIA RESTAURANT","Address":"4505 La Sierra Ave","City":"Riverside","State":"CA","Zip":"92505"},{"Location":"RED LOBSTER #0523","Address":"3700 Park Sierra Dr","City":"Riverside","State":"CA","Zip":"92505"},{"Location":"REGUS MANAGEMENT GROUP RIVERSD","Address":"11801 Pierce St 201","City":"Riverside","State":"CA","Zip":"92505"},{"Location":"RESTAURANT SALVADORENO","Address":"4650 La Sierra Ave","City":"Riverside","State":"CA","Zip":"92505"},{"Location":"RIVERSIDE MEADOWS","Address":"4000 Pierce St","City":"Riverside","State":"CA","Zip":"92505"},{"Location":"SOUTHEASTERN CALIFORNIA CONFER","Address":"11330 Pierce St","City":"Riverside","State":"CA","Zip":"92505"},{"Location":"TACO HUT","Address":"10947 Magnolia Ave","City":"Riverside","State":"CA","Zip":"92505"},{"Location":"TAO MASSAGE","Address":"4571 La Sierra Ave","City":"Riverside","State":"CA","Zip":"92505"},{"Location":"TERRI B BARBER SHOP","Address":"4726 La Sierra Ave","City":"Riverside","State":"CA","Zip":"92505"},{"Location":"THE FLAME BROILER","Address":"10303 Magnolia Ave","City":"Riverside","State":"CA","Zip":"92505"},{"Location":"THE PASEOS AT MAGNOLIA","Address":"11520 Magnolia Ave","City":"Riverside","State":"CA","Zip":"92505"},{"Location":"VAPE CASTLE","Address":"10485 Magnolia Ave 3","City":"Riverside","State":"CA","Zip":"92505"},{"Location":"VFW POST 9223","Address":"10303 Arlington Ave","City":"Riverside","State":"CA","Zip":"92505"},{"Location":"WATER AND ICE","Address":"10354 Arlington Ave","City":"Riverside","State":"CA","Zip":"92505"},{"Location":"WING STOP","Address":"4290 Riverwalk Pkwy 300","City":"Riverside","State":"CA","Zip":"92505"},{"Location":"WOK&GRILL","Address":"4294 Riverwalk Pkwy","City":"Riverside","State":"CA","Zip":"92505"}]