[{"Location":"1 CANYON CREST COUNTRY CLUB","Address":"975 Country Club Dr","City":"Riverside","State":"CA","Zip":"92506"},{"Location":"2 CANYON CREST COUNTRY CLUB","Address":"975 Country Club Dr","City":"Riverside","State":"CA","Zip":"92506"},{"Location":"AUTO MTV SVC TECHS","Address":"3399 Arlington Ave","City":"Riverside","State":"CA","Zip":"92506"},{"Location":"BR4 BBQ  INC.","Address":"3540 Riverside Plaza Dr 314","City":"Riverside","State":"CA","Zip":"92506"},{"Location":"BRIGHT NOW DENTAL","Address":"3560 Arlington Ave","City":"Riverside","State":"CA","Zip":"92506"},{"Location":"CALIFORNIA PIZZA KITCHEN #228","Address":"3540 Riverside Plaza Dr","City":"Riverside","State":"CA","Zip":"92506"},{"Location":"CLINICAL INNOVATIONS","Address":"5700 Division St","City":"Riverside","State":"CA","Zip":"92506"},{"Location":"CLUBB GRADING","Address":"1111 Coronet Dr","City":"Riverside","State":"CA","Zip":"92506"},{"Location":"CREST COUNTRY CLUB","Address":"975 Country Club Dr","City":"Riverside","State":"CA","Zip":"92506"},{"Location":"DALENAS NAILS & SPA","Address":"7028 Magnolia Ave","City":"Riverside","State":"CA","Zip":"92506"},{"Location":"DEMATTEO'S PIZZA","Address":"7030 Magnolia Ave","City":"Riverside","State":"CA","Zip":"92506"},{"Location":"EBONY CREST","Address":"3772 Arlington Ave 4","City":"Riverside","State":"CA","Zip":"92506"},{"Location":"EL TORITO 7254","Address":"3639 Riverside Plz","City":"Riverside","State":"CA","Zip":"92506"},{"Location":"EXTENSIVE HABITS BARBERSHOP","Address":"3630 Central Ave 7","City":"Riverside","State":"CA","Zip":"92506"},{"Location":"FADE AWAY","Address":"6637 Magnolia Ave","City":"Riverside","State":"CA","Zip":"92506"},{"Location":"FIRST NATIONAL BANK OF SC","Address":"3727 Arlington Ave","City":"Riverside","State":"CA","Zip":"92506"},{"Location":"GENTLE DENTAL","Address":"3630 Central Ave","City":"Riverside","State":"CA","Zip":"92506"},{"Location":"GIULIANOS TRATTORIA","Address":"6060 Magnolia Ave","City":"Riverside","State":"CA","Zip":"92506"},{"Location":"HOT NAILS","Address":"3671 Sunnyside Dr","City":"Riverside","State":"CA","Zip":"92506"},{"Location":"ISLANDS RESTAURANT #039","Address":"3645 Central Ave","City":"Riverside","State":"CA","Zip":"92506"},{"Location":"IVYS MEDICAL WEIGHT LOSS CTR","Address":"6809 Magnolia Ave 1b","City":"Riverside","State":"CA","Zip":"92506"},{"Location":"KIDWORLD CHILDREN DENTIS","Address":"7001 Indiana Ave Ste 9","City":"Riverside","State":"CA","Zip":"92506"},{"Location":"LA FITNESS #91","Address":"3437 Arlington Ave","City":"Riverside","State":"CA","Zip":"92506"},{"Location":"LLUHC PLASTIC SURGERY","Address":"3762 Tibbetts St","City":"Riverside","State":"CA","Zip":"92506"},{"Location":"LOUNGE 33","Address":"3639 Riverside Plaza Dr","City":"Riverside","State":"CA","Zip":"92506"},{"Location":"MARIE CALLENDERS PIE SHOP","Address":"3505 Merrill Ave","City":"Riverside","State":"CA","Zip":"92506"},{"Location":"MERLIN RICH REALTY","Address":"3724 Mccray St","City":"Riverside","State":"CA","Zip":"92506"},{"Location":"NAILS BY TINA","Address":"6939 Indiana Ave C","City":"Riverside","State":"CA","Zip":"92506"},{"Location":"NEGEEN ZAREH%2C DMD","Address":"6926 Brockton Ave 3","City":"Riverside","State":"CA","Zip":"92506"},{"Location":"NORDSTROM RACK RIVERSIDE","Address":"3635 Riverside Plaza Dr 120","City":"Riverside","State":"CA","Zip":"92506"},{"Location":"OISHII SUSHI","Address":"6133 Magnolia Ave","City":"Riverside","State":"CA","Zip":"92506"},{"Location":"PEPITOS MEXICAN","Address":"6539 Magnolia Ave","City":"Riverside","State":"CA","Zip":"92506"},{"Location":"PERFORMANCE CHIROPRACTIC","Address":"6876 Magnolia Ave C","City":"Riverside","State":"CA","Zip":"92506"},{"Location":"RIVERSIDE MEDICAL CLINIC","Address":"7150 Brockton Ave 104","City":"Riverside","State":"CA","Zip":"92506"},{"Location":"RIVERSIDE TARGET","Address":"3333 Arlington Ave","City":"Riverside","State":"CA","Zip":"92506"},{"Location":"SCOTTRADE 04M","Address":"3639 Riverside Plaza Dr 520","City":"Riverside","State":"CA","Zip":"92506"},{"Location":"SIRE'S BAR","Address":"6440 Magnolia Ave","City":"Riverside","State":"CA","Zip":"92506"},{"Location":"STAR DENTAL GROUP INC","Address":"6071 Magnolia Ave","City":"Riverside","State":"CA","Zip":"92506"},{"Location":"SUPER MEX 1","Address":"3444 Arlington Ave","City":"Riverside","State":"CA","Zip":"92506"},{"Location":"TAPESTRY HAIR SALON","Address":"3773 Tibbetts St B","City":"Riverside","State":"CA","Zip":"92506"},{"Location":"THE FLAME BROILERS","Address":"6059 Magnolia Ave","City":"Riverside","State":"CA","Zip":"92506"},{"Location":"USKO","Address":"6794 Brockton Ave","City":"Riverside","State":"CA","Zip":"92506"},{"Location":"VICTORIA CLUB","Address":"2521 Arroyo Dr","City":"Riverside","State":"CA","Zip":"92506"},{"Location":"WENDYS 9783","Address":"3565 Central Ave","City":"Riverside","State":"CA","Zip":"92506"},{"Location":"ZELLERBACH FAMILY DENTAL","Address":"6886 Indiana Ave 2","City":"Riverside","State":"CA","Zip":"92506"}]