[{"Location":"ALPHA MATERIALS INC.","Address":"6170 20th St","City":"Riverside","State":"CA","Zip":"92509"},{"Location":"ALPHA MATERIALS INC2","Address":"6170 20th St","City":"Riverside","State":"CA","Zip":"92509"},{"Location":"AMERICAN TECHNOLOGY","Address":"1175 Hall Ave","City":"Riverside","State":"CA","Zip":"92509"},{"Location":"ARMANDOS RADIATOR","Address":"9712 Jurupa Rd","City":"Riverside","State":"CA","Zip":"92509"},{"Location":"ATOMIC BARBER SHOP","Address":"8989 Limonite Ave B","City":"Riverside","State":"CA","Zip":"92509"},{"Location":"CASA JIMENEZ RESTAURANT","Address":"2964 Rubidoux Blvd","City":"Riverside","State":"CA","Zip":"92509"},{"Location":"CASTLE AND COOK","Address":"2356 Fleetwood Dr","City":"Riverside","State":"CA","Zip":"92509"},{"Location":"CDC","Address":"9346 Galena St H","City":"Riverside","State":"CA","Zip":"92509"},{"Location":"CERTIFIED TIRES","Address":"6072 Camino Real","City":"Riverside","State":"CA","Zip":"92509"},{"Location":"CLASSIC BARBERSHOP","Address":"8668 Limonite Ave A","City":"Riverside","State":"CA","Zip":"92509"},{"Location":"COLE EQUIPMENT INC","Address":"2830 Rubidoux Blvd","City":"Riverside","State":"CA","Zip":"92509"},{"Location":"COPINA DONUTS","Address":"9007 Mission Blvd","City":"Riverside","State":"CA","Zip":"92509"},{"Location":"CREST STEEL","Address":"6580 General Rd","City":"Riverside","State":"CA","Zip":"92509"},{"Location":"CRST%2C INC.","Address":"5350 Wilson St","City":"Riverside","State":"CA","Zip":"92509"},{"Location":"CRUNCH FITNESS 1","Address":"7960 Limonite Ave","City":"Riverside","State":"CA","Zip":"92509"},{"Location":"DE ANZA   CONTRACTORS INC","Address":"8550 Limonite Ave","City":"Riverside","State":"CA","Zip":"92509"},{"Location":"ENGELAUF","Address":"5610 Market St","City":"Riverside","State":"CA","Zip":"92509"},{"Location":"EXCEL ORGANIC COOPERATIVE INC","Address":"1736 Container Cir","City":"Riverside","State":"CA","Zip":"92509"},{"Location":"FIRESTONE #307884","Address":"8360 Limonite Ave","City":"Riverside","State":"CA","Zip":"92509"},{"Location":"HAIR ART STUDIO","Address":"4955 Felspar St B","City":"Riverside","State":"CA","Zip":"92509"},{"Location":"HERITAGE CONTAINER","Address":"4777 Felspar St","City":"Riverside","State":"CA","Zip":"92509"},{"Location":"HORSESHOE LOUNGE","Address":"4620 Galena St Def","City":"Riverside","State":"CA","Zip":"92509"},{"Location":"INDIAN HILLS GOLF CLUB","Address":"5700 Club House Dr","City":"Riverside","State":"CA","Zip":"92509"},{"Location":"KIMS","Address":"2994 Rubidoux Blvd","City":"Riverside","State":"CA","Zip":"92509"},{"Location":"LIFE CHAPEL","Address":"3349 Rubidoux Blvd","City":"Riverside","State":"CA","Zip":"92509"},{"Location":"LIFE CHURCH OF GOD IN  CHRIST","Address":"3349 Rubidoux Blvd","City":"Riverside","State":"CA","Zip":"92509"},{"Location":"LTL UNITED INC","Address":"5190 Wilson St","City":"Riverside","State":"CA","Zip":"92509"},{"Location":"M & T SMOG CHECK","Address":"9802 Mission Boulevard","City":"Riverside","State":"CA","Zip":"92509"},{"Location":"MAGIC HAIR BEAUTY SALON","Address":"5552 Mission Blvd","City":"Riverside","State":"CA","Zip":"92509"},{"Location":"MILESTONE MX PRO SHOP","Address":"12685 Holly St Bldgb","City":"Riverside","State":"CA","Zip":"92509"},{"Location":"MR TACO FRESH MEXICAN GRILL","Address":"8304 Limonite Ave A","City":"Riverside","State":"CA","Zip":"92509"},{"Location":"MR YOU CHINESE FOOD","Address":"10255 Mission Blvd B","City":"Riverside","State":"CA","Zip":"92509"},{"Location":"OAK QUARRY GOLF CLUB","Address":"7151 Sierra Ave","City":"Riverside","State":"CA","Zip":"92509"},{"Location":"P & S SANCHEZ","Address":"3852 Opal St","City":"Riverside","State":"CA","Zip":"92509"},{"Location":"PACIFIC TANK LINES","Address":"5230 Wilson St 230","City":"Riverside","State":"CA","Zip":"92509"},{"Location":"PACIFICA LIVING1","Address":"6280 Clay St","City":"Riverside","State":"CA","Zip":"92509"},{"Location":"PACIFICA LIVING2","Address":"6280 Clay St","City":"Riverside","State":"CA","Zip":"92509"},{"Location":"PACIFICA LIVING3","Address":"6280 Clay St","City":"Riverside","State":"CA","Zip":"92509"},{"Location":"PACIFICA LIVING4","Address":"6280 Clay St","City":"Riverside","State":"CA","Zip":"92509"},{"Location":"PACIFICA LIVING5","Address":"6280 Clay St","City":"Riverside","State":"CA","Zip":"92509"},{"Location":"PACIFICA LIVING6","Address":"6280 Clay St","City":"Riverside","State":"CA","Zip":"92509"},{"Location":"PACIFICA LIVING7","Address":"6280 Clay St","City":"Riverside","State":"CA","Zip":"92509"},{"Location":"PEREZ MARKET","Address":"9790 Jurupa Rd","City":"Riverside","State":"CA","Zip":"92509"},{"Location":"QUICK WASH 2 LLC","Address":"6324 Mission Blvd","City":"Riverside","State":"CA","Zip":"92509"},{"Location":"RIVERSIDE MED - JURUPA","Address":"6250 Clay St","City":"Riverside","State":"CA","Zip":"92509"},{"Location":"RIVIERA FAMILY RESTAURANT","Address":"5633 Mission Blvd","City":"Riverside","State":"CA","Zip":"92509"},{"Location":"ROUND TABLE-LIMONITE AVE","Address":"7732 Limonite Ave","City":"Riverside","State":"CA","Zip":"92509"},{"Location":"RUBIDOUX TIRE AND BRAKE","Address":"5949 Mission Blvd","City":"Riverside","State":"CA","Zip":"92509"},{"Location":"RVAS-DISASTER","Address":"6851 Van Buren Blvd","City":"Riverside","State":"CA","Zip":"92509"},{"Location":"SALON EL TUZADERO","Address":"8943 Limonite Ave","City":"Riverside","State":"CA","Zip":"92509"},{"Location":"SIMPSON STRONG TIE","Address":"12246 Holly St","City":"Riverside","State":"CA","Zip":"92509"},{"Location":"SIZZLER 030","Address":"6631 Clay St","City":"Riverside","State":"CA","Zip":"92509"},{"Location":"SKANSKA USA CIVIL W CALIF DIST","Address":"1995 Agua Mansa Rd","City":"Riverside","State":"CA","Zip":"92509"},{"Location":"SOBER LIVING BY SEA 2","Address":"6690 Limonite Frontage Rd","City":"Riverside","State":"CA","Zip":"92509"},{"Location":"SOBER LIVING BY THE SEA","Address":"6690 Limonite Frontage Rd","City":"Riverside","State":"CA","Zip":"92509"},{"Location":"SPORT LOUNGE BAR","Address":"9608 Mission Blvd","City":"Riverside","State":"CA","Zip":"92509"},{"Location":"THE BEACH","Address":"8022 Limonite Ave 113","City":"Riverside","State":"CA","Zip":"92509"},{"Location":"VICKYS RESTAURANT","Address":"8320 Limonite Ave","City":"Riverside","State":"CA","Zip":"92509"},{"Location":"VISION PLUS CHURCH","Address":"4318 Pyrite St","City":"Riverside","State":"CA","Zip":"92509"},{"Location":"WEDGEWOOD BANQUET CENTER","Address":"5700 Club House Dr","City":"Riverside","State":"CA","Zip":"92509"},{"Location":"WESTERN RIVERSIDE ANIMAL","Address":"6851 Van Buren Blvd","City":"Riverside","State":"CA","Zip":"92509"},{"Location":"ALPHA MATERIALS INC.","Address":"6170 20th St","City":"Riverside","State":"CA","Zip":"92509"},{"Location":"ALPHA MATERIALS INC2","Address":"6170 20th St","City":"Riverside","State":"CA","Zip":"92509"},{"Location":"AMERICAN TECHNOLOGY","Address":"1175 Hall Ave","City":"Riverside","State":"CA","Zip":"92509"},{"Location":"ARMANDOS RADIATOR","Address":"9712 Jurupa Rd","City":"Riverside","State":"CA","Zip":"92509"},{"Location":"ATOMIC BARBER SHOP","Address":"8989 Limonite Ave B","City":"Riverside","State":"CA","Zip":"92509"},{"Location":"CASA JIMENEZ RESTAURANT","Address":"2964 Rubidoux Blvd","City":"Riverside","State":"CA","Zip":"92509"},{"Location":"CASTLE AND COOK","Address":"2356 Fleetwood Dr","City":"Riverside","State":"CA","Zip":"92509"},{"Location":"CDC","Address":"9346 Galena St H","City":"Riverside","State":"CA","Zip":"92509"},{"Location":"CERTIFIED TIRES","Address":"6072 Camino Real","City":"Riverside","State":"CA","Zip":"92509"},{"Location":"CLASSIC BARBERSHOP","Address":"8668 Limonite Ave A","City":"Riverside","State":"CA","Zip":"92509"},{"Location":"COLE EQUIPMENT INC","Address":"2830 Rubidoux Blvd","City":"Riverside","State":"CA","Zip":"92509"},{"Location":"COPINA DONUTS","Address":"9007 Mission Blvd","City":"Riverside","State":"CA","Zip":"92509"},{"Location":"CREST STEEL","Address":"6580 General Rd","City":"Riverside","State":"CA","Zip":"92509"},{"Location":"CRST%2C INC.","Address":"5350 Wilson St","City":"Riverside","State":"CA","Zip":"92509"},{"Location":"CRUNCH FITNESS 1","Address":"7960 Limonite Ave","City":"Riverside","State":"CA","Zip":"92509"},{"Location":"DE ANZA   CONTRACTORS INC","Address":"8550 Limonite Ave","City":"Riverside","State":"CA","Zip":"92509"},{"Location":"ENGELAUF","Address":"5610 Market St","City":"Riverside","State":"CA","Zip":"92509"},{"Location":"EXCEL ORGANIC COOPERATIVE INC","Address":"1736 Container Cir","City":"Riverside","State":"CA","Zip":"92509"},{"Location":"FIRESTONE #307884","Address":"8360 Limonite Ave","City":"Riverside","State":"CA","Zip":"92509"},{"Location":"HAIR ART STUDIO","Address":"4955 Felspar St B","City":"Riverside","State":"CA","Zip":"92509"},{"Location":"HERITAGE CONTAINER","Address":"4777 Felspar St","City":"Riverside","State":"CA","Zip":"92509"},{"Location":"HORSESHOE LOUNGE","Address":"4620 Galena St Def","City":"Riverside","State":"CA","Zip":"92509"},{"Location":"INDIAN HILLS GOLF CLUB","Address":"5700 Club House Dr","City":"Riverside","State":"CA","Zip":"92509"},{"Location":"KIMS","Address":"2994 Rubidoux Blvd","City":"Riverside","State":"CA","Zip":"92509"},{"Location":"LIFE CHAPEL","Address":"3349 Rubidoux Blvd","City":"Riverside","State":"CA","Zip":"92509"},{"Location":"LIFE CHURCH OF GOD IN  CHRIST","Address":"3349 Rubidoux Blvd","City":"Riverside","State":"CA","Zip":"92509"},{"Location":"LTL UNITED INC","Address":"5190 Wilson St","City":"Riverside","State":"CA","Zip":"92509"},{"Location":"M & T Smog Check","Address":"9802 Mission Boulevard","City":"Riverside","State":"CA","Zip":"92509"},{"Location":"MAGIC HAIR BEAUTY SALON","Address":"5552 Mission Blvd","City":"Riverside","State":"CA","Zip":"92509"},{"Location":"MILESTONE MX PRO SHOP","Address":"12685 Holly St Bldgb","City":"Riverside","State":"CA","Zip":"92509"},{"Location":"MR TACO FRESH MEXICAN GRILL","Address":"8304 Limonite Ave A","City":"Riverside","State":"CA","Zip":"92509"},{"Location":"MR YOU CHINESE FOOD","Address":"10255 Mission Blvd B","City":"Riverside","State":"CA","Zip":"92509"},{"Location":"OAK QUARRY GOLF CLUB","Address":"7151 Sierra Ave","City":"Riverside","State":"CA","Zip":"92509"},{"Location":"P & S SANCHEZ","Address":"3852 Opal St","City":"Riverside","State":"CA","Zip":"92509"},{"Location":"PACIFIC TANK LINES","Address":"5230 Wilson St 230","City":"Riverside","State":"CA","Zip":"92509"},{"Location":"PACIFICA LIVING1","Address":"6280 Clay St","City":"Riverside","State":"CA","Zip":"92509"},{"Location":"PACIFICA LIVING2","Address":"6280 Clay St","City":"Riverside","State":"CA","Zip":"92509"},{"Location":"PACIFICA LIVING3","Address":"6280 Clay St","City":"Riverside","State":"CA","Zip":"92509"},{"Location":"PACIFICA LIVING4","Address":"6280 Clay St","City":"Riverside","State":"CA","Zip":"92509"},{"Location":"PACIFICA LIVING5","Address":"6280 Clay St","City":"Riverside","State":"CA","Zip":"92509"},{"Location":"PACIFICA LIVING6","Address":"6280 Clay St","City":"Riverside","State":"CA","Zip":"92509"},{"Location":"PACIFICA LIVING7","Address":"6280 Clay St","City":"Riverside","State":"CA","Zip":"92509"},{"Location":"PEREZ MARKET","Address":"9790 Jurupa Rd","City":"Riverside","State":"CA","Zip":"92509"},{"Location":"QUICK WASH 2 LLC","Address":"6324 Mission Blvd","City":"Riverside","State":"CA","Zip":"92509"},{"Location":"RIVERSIDE MED - JURUPA","Address":"6250 Clay St","City":"Riverside","State":"CA","Zip":"92509"},{"Location":"RIVIERA FAMILY RESTAURANT","Address":"5633 Mission Blvd","City":"Riverside","State":"CA","Zip":"92509"},{"Location":"ROUND TABLE-LIMONITE AVE","Address":"7732 Limonite Ave","City":"Riverside","State":"CA","Zip":"92509"},{"Location":"RUBIDOUX TIRE AND BRAKE","Address":"5949 Mission Blvd","City":"Riverside","State":"CA","Zip":"92509"},{"Location":"RVAS-DISASTER","Address":"6851 Van Buren Blvd","City":"Riverside","State":"CA","Zip":"92509"},{"Location":"SALON EL TUZADERO","Address":"8943 Limonite Ave","City":"Riverside","State":"CA","Zip":"92509"},{"Location":"SIMPSON STRONG TIE","Address":"12246 Holly St","City":"Riverside","State":"CA","Zip":"92509"},{"Location":"SIZZLER 030","Address":"6631 Clay St","City":"Riverside","State":"CA","Zip":"92509"},{"Location":"SKANSKA USA CIVIL W CALIF DIST","Address":"1995 Agua Mansa Rd","City":"Riverside","State":"CA","Zip":"92509"},{"Location":"SOBER LIVING BY SEA 2","Address":"6690 Limonite Frontage Rd","City":"Riverside","State":"CA","Zip":"92509"},{"Location":"SOBER LIVING BY THE SEA","Address":"6690 Limonite Frontage Rd","City":"Riverside","State":"CA","Zip":"92509"},{"Location":"SPORT LOUNGE BAR","Address":"9608 Mission Blvd","City":"Riverside","State":"CA","Zip":"92509"},{"Location":"THE BEACH","Address":"8022 Limonite Ave 113","City":"Riverside","State":"CA","Zip":"92509"},{"Location":"VICKYS RESTAURANT","Address":"8320 Limonite Ave","City":"Riverside","State":"CA","Zip":"92509"},{"Location":"VISION PLUS CHURCH","Address":"4318 Pyrite St","City":"Riverside","State":"CA","Zip":"92509"},{"Location":"WEDGEWOOD BANQUET CENTER","Address":"5700 Club House Dr","City":"Riverside","State":"CA","Zip":"92509"},{"Location":"WESTERN RIVERSIDE ANIMAL","Address":"6851 Van Buren Blvd","City":"Riverside","State":"CA","Zip":"92509"}]