[{"Location":"ALADDIN BB DEPT 701","Address":"3639 10th St","City":"Riverside","State":"CA","Zip":"92501"},{"Location":"ALL PRO BAIL BONDS1","Address":"3774 10th St","City":"Riverside","State":"CA","Zip":"92501"},{"Location":"American Barber Shop","Address":"3956 University Avenue","City":"Riverside","State":"CA","Zip":"92501"},{"Location":"AMERICAN LEGION POST 79","Address":"2979 Dexter Dr","City":"Riverside","State":"CA","Zip":"92501"},{"Location":"ANTONIUS PIZZA CAFE","Address":"3737 Main St","City":"Riverside","State":"CA","Zip":"92501"},{"Location":"ARTS BAR AND GRILL","Address":"3357 University Ave","City":"Riverside","State":"CA","Zip":"92501"},{"Location":"ATT MOBILITY","Address":"4735 Garner Rd","City":"Riverside","State":"CA","Zip":"92501"},{"Location":"BANK OF AMERICA CA6-129-01-01","Address":"3650 14th St","City":"Riverside","State":"CA","Zip":"92501"},{"Location":"BEST AND KRIEGER","Address":"3390 University Ave","City":"Riverside","State":"CA","Zip":"92501"},{"Location":"BEST BEST AND KRIEGER","Address":"3750 University Ave 125","City":"Riverside","State":"CA","Zip":"92501"},{"Location":"BOB MAZZOLINI RACING","Address":"3199 Columbia Ave","City":"Riverside","State":"CA","Zip":"92501"},{"Location":"BUREAU OF ALCOHOL TOBACCO","Address":"3801 University Ave 670","City":"Riverside","State":"CA","Zip":"92501"},{"Location":"CENTRAL PRO INSURANCE","Address":"4010 Mission Inn Ave","City":"Riverside","State":"CA","Zip":"92501"},{"Location":"CHRISTIAN CENTER ACADEMY","Address":"4252 Mission Inn Ave","City":"Riverside","State":"CA","Zip":"92501"},{"Location":"CITY OF RIVERSIDE","Address":"3435 14th St","City":"Riverside","State":"CA","Zip":"92501"},{"Location":"CITY OF RIVERSIDE PUBLIC","Address":"3750 University Ave","City":"Riverside","State":"CA","Zip":"92501"},{"Location":"COLLISION CENTER OF RIVERSIDE","Address":"2523 Main St","City":"Riverside","State":"CA","Zip":"92501"},{"Location":"COMPASSIONATE CANCER CARE","Address":"4500 Brockton Ave 107","City":"Riverside","State":"CA","Zip":"92501"},{"Location":"COUNTRY VILLA HEALTHCARE","Address":"4646 Pine St","City":"Riverside","State":"CA","Zip":"92501"},{"Location":"DAVITA #1407","Address":"4100 Latham St A","City":"Riverside","State":"CA","Zip":"92501"},{"Location":"DAVITA #880 RIVERSIDE","Address":"4361 Latham St 100","City":"Riverside","State":"CA","Zip":"92501"},{"Location":"DDOGS","Address":"3557 University Ave","City":"Riverside","State":"CA","Zip":"92501"},{"Location":"DHALLA ORTHO CENTER","Address":"4343 Market St","City":"Riverside","State":"CA","Zip":"92501"},{"Location":"FELIX MEDICAL GROUP INC","Address":"4343 Market St C","City":"Riverside","State":"CA","Zip":"92501"},{"Location":"FIRESTONE #011061","Address":"4199 Market St","City":"Riverside","State":"CA","Zip":"92501"},{"Location":"FIRST LEGAL SUPPORT","Address":"3600 Lime St 626","City":"Riverside","State":"CA","Zip":"92501"},{"Location":"HDR INC","Address":"2280 Market St 100","City":"Riverside","State":"CA","Zip":"92501"},{"Location":"HEROES","Address":"3397 Mission Inn Ave","City":"Riverside","State":"CA","Zip":"92501"},{"Location":"HISTORIC MISSION INN","Address":"3649 Mission Inn Ave","City":"Riverside","State":"CA","Zip":"92501"},{"Location":"HYATT PLACE RIVERSIDE DO","Address":"3500 Market St","City":"Riverside","State":"CA","Zip":"92501"},{"Location":"JAMES GRAY MANAGEMENT","Address":"4545 Allstate Dr","City":"Riverside","State":"CA","Zip":"92501"},{"Location":"LAKE ALICE TRADING CO","Address":"3616 University Ave","City":"Riverside","State":"CA","Zip":"92501"},{"Location":"MARIOS PLACE","Address":"3646 Mission Inn Ave","City":"Riverside","State":"CA","Zip":"92501"},{"Location":"MARRIOTT RIVERSIDE","Address":"3400 Market St","City":"Riverside","State":"CA","Zip":"92501"},{"Location":"MAXI FOODS MART","Address":"4050 University Ave","City":"Riverside","State":"CA","Zip":"92501"},{"Location":"MCGUIRE RESTAURANT GROUP INC","Address":"3597 Main St","City":"Riverside","State":"CA","Zip":"92501"},{"Location":"MEZCAL CACINA & CANTINA","Address":"3737 Main St 100","City":"Riverside","State":"CA","Zip":"92501"},{"Location":"MFI RECOVERY CENTER","Address":"4440 University Ave","City":"Riverside","State":"CA","Zip":"92501"},{"Location":"MISSION GALLERIA CAFE","Address":"3700 Main St","City":"Riverside","State":"CA","Zip":"92501"},{"Location":"MISSION TOBACCO LOUNGE","Address":"3630 University Ave","City":"Riverside","State":"CA","Zip":"92501"},{"Location":"MORGAN STANLEY 100040","Address":"3750 University Ave 600","City":"Riverside","State":"CA","Zip":"92501"},{"Location":"MR TACO FOODS","Address":"2435 Main St","City":"Riverside","State":"CA","Zip":"92501"},{"Location":"MVP PROFESSIONAL CENTER","Address":"4049 Almond St","City":"Riverside","State":"CA","Zip":"92501"},{"Location":"O'REILLY PUBLIC RELATIONS","Address":"3403 10th St 110","City":"Riverside","State":"CA","Zip":"92501"},{"Location":"PIXELS","Address":"3535 University Ave","City":"Riverside","State":"CA","Zip":"92501"},{"Location":"PLAYAS ENSENADA","Address":"4093 University Ave","City":"Riverside","State":"CA","Zip":"92501"},{"Location":"PROMOTIONAL DESIGNS CO 1","Address":"1049 W La Cadena Dr","City":"Riverside","State":"CA","Zip":"92501"},{"Location":"REID AND HELLYER LLC","Address":"3880 Lemon St 5","City":"Riverside","State":"CA","Zip":"92501"},{"Location":"RIVERSIDE COMMUNITY HOSPITAL","Address":"4445 Magnolia Ave","City":"Riverside","State":"CA","Zip":"92501"},{"Location":"RIVERSIDE CONSTRUCTION CO","Address":"4225 Garner Rd","City":"Riverside","State":"CA","Zip":"92501"},{"Location":"RIVERSIDE COUNTY DOCUMEN","Address":"3393 14th St C","City":"Riverside","State":"CA","Zip":"92501"},{"Location":"RIVERSIDE COUNTY FLOOD CONTROL","Address":"1995 Market St","City":"Riverside","State":"CA","Zip":"92501"},{"Location":"RIVERSIDE COUNTY SHERIFF'S DPT","Address":"4095 Lemon St","City":"Riverside","State":"CA","Zip":"92501"},{"Location":"RIVERSIDE COUNTY TREASURER","Address":"4080 Lemon St 4flr","City":"Riverside","State":"CA","Zip":"92501"},{"Location":"RIVERSIDE COURT OFFICE","Address":"3760 12th St","City":"Riverside","State":"CA","Zip":"92501"},{"Location":"RIVERSIDE HEALTHCARE LP","Address":"4500 Brockton Ave 101","City":"Riverside","State":"CA","Zip":"92501"},{"Location":"RIVERSIDE TRANSPLANTATIO","Address":"4500 Brockton Ave 306","City":"Riverside","State":"CA","Zip":"92501"},{"Location":"ROYAL TOWING INC","Address":"590 Main St","City":"Riverside","State":"CA","Zip":"92501"},{"Location":"ROYAL WHOLESALE ELECTRIC","Address":"3200 Russell St","City":"Riverside","State":"CA","Zip":"92501"},{"Location":"RPU-CUSTOMER SERVICE","Address":"3460 Orange St","City":"Riverside","State":"CA","Zip":"92501"},{"Location":"SAFE LITE","Address":"555 Main St","City":"Riverside","State":"CA","Zip":"92501"},{"Location":"SALTED PIG","Address":"4205 Main St","City":"Riverside","State":"CA","Zip":"92501"},{"Location":"SECURITY BANK OF CALIFORNIA","Address":"3403 10th St 830","City":"Riverside","State":"CA","Zip":"92501"},{"Location":"SPRINGBOARD","Address":"4351 Latham St","City":"Riverside","State":"CA","Zip":"92501"},{"Location":"STRONG HOLD ENGINEERING","Address":"2000 Market St","City":"Riverside","State":"CA","Zip":"92501"},{"Location":"TACO STATION","Address":"4088 Mission Inn Ave","City":"Riverside","State":"CA","Zip":"92501"},{"Location":"THE BAIL HOTLINE BAIL BONDS","Address":"3601 University Ave","City":"Riverside","State":"CA","Zip":"92501"},{"Location":"THE CASTLE RESTAURANT","Address":"287 W La Cadena Dr","City":"Riverside","State":"CA","Zip":"92501"},{"Location":"THE GEORGE BROWN FEDERAL CH","Address":"3470 12th St","City":"Riverside","State":"CA","Zip":"92501"},{"Location":"THE MENAGERIE","Address":"3581 University Ave","City":"Riverside","State":"CA","Zip":"92501"},{"Location":"TOWER OF PIZZA","Address":"3948 University Ave","City":"Riverside","State":"CA","Zip":"92501"},{"Location":"TRI-CITY SELF STORAGE","Address":"485 W La Cadena Dr 316","City":"Riverside","State":"CA","Zip":"92501"},{"Location":"UDWA","Address":"3600 Lime St","City":"Riverside","State":"CA","Zip":"92501"},{"Location":"UNITED STATES MARSHAL  SERVICE","Address":"3470 12th St G122","City":"Riverside","State":"CA","Zip":"92501"},{"Location":"US CUSTOMS SVC","Address":"3403 10th St 600","City":"Riverside","State":"CA","Zip":"92501"},{"Location":"US DISTRICT COURT","Address":"3470 12th St","City":"Riverside","State":"CA","Zip":"92501"},{"Location":"WADELL REED FINANCIAL ADVISORS","Address":"3685 Main St 300","City":"Riverside","State":"CA","Zip":"92501"}]