[{"Location":"REFLECTIONS","Address":"5005 Lamart Dr 109","City":"Riverdide","State":"CA","Zip":"92507"},{"Location":"A PLUS CNC ENGINEERING","Address":"3626 Presley Ave","City":"Riverside","State":"CA","Zip":"92507"},{"Location":"ALOHA PIZZA PASTA","Address":"755 W Blaine St","City":"Riverside","State":"CA","Zip":"92507"},{"Location":"AMERICAN EAGLE WINE MAKING COM","Address":"5225 Canyon Crest Dr","City":"Riverside","State":"CA","Zip":"92507"},{"Location":"ANHEUSER-BUSCH WHLSLR #60400","Address":"1400 Marlborough Ave","City":"Riverside","State":"CA","Zip":"92507"},{"Location":"APPLEBEE'S #2150017","Address":"3820 Mulberry St","City":"Riverside","State":"CA","Zip":"92507"},{"Location":"ARLINGTON LANES","Address":"7100 Arlignton Ave","City":"Riverside","State":"CA","Zip":"92507"},{"Location":"AUTO INSURANCE SPECIALIST","Address":"1600 Iowa Ave 100","City":"Riverside","State":"CA","Zip":"92507"},{"Location":"BELFOR USA","Address":"3443 Durahart St","City":"Riverside","State":"CA","Zip":"92507"},{"Location":"BIG 5 SPORTING GOODS CORP","Address":"6125 Sycamore Canyon Blvd","City":"Riverside","State":"CA","Zip":"92507"},{"Location":"BLUE BANNER CO FRUIT EXCHANGE","Address":"2601 3rd St","City":"Riverside","State":"CA","Zip":"92507"},{"Location":"BUREAU OF INDIAN AFFAIRS","Address":"1451 Research Park Dr","City":"Riverside","State":"CA","Zip":"92507"},{"Location":"BURGER BOSS","Address":"2585 Canyon Springs Pkwy E","City":"Riverside","State":"CA","Zip":"92507"},{"Location":"BURKES AUTO REPAIR","Address":"3757 Comer Ave","City":"Riverside","State":"CA","Zip":"92507"},{"Location":"BURRITO","Address":"2721 Canyon Springs Pkwy 6102","City":"Riverside","State":"CA","Zip":"92507"},{"Location":"CANYON CREST ATHLETIC CLUB INC","Address":"5225 Canyon Crest Dr 18","City":"Riverside","State":"CA","Zip":"92507"},{"Location":"CANYON CREST CAFE","Address":"5225 Canyon Crest Dr 40","City":"Riverside","State":"CA","Zip":"92507"},{"Location":"CANYON CREST DENTAL","Address":"5225 Canyon Crest Dr 209","City":"Riverside","State":"CA","Zip":"92507"},{"Location":"CARQUEST%2C INC.","Address":"795 Columbia Ave","City":"Riverside","State":"CA","Zip":"92507"},{"Location":"CENTRAL LABOR COUNCIL","Address":"1074 E La Cadena Dr 1","City":"Riverside","State":"CA","Zip":"92507"},{"Location":"CERTIFIED TIRE AND SERVICE","Address":"1875 Iowa Ave","City":"Riverside","State":"CA","Zip":"92507"},{"Location":"CHAMPION LUMBER COMPANY","Address":"1313 Chicago Ave 100","City":"Riverside","State":"CA","Zip":"92507"},{"Location":"CHRISTIE DIGITAL SYSTEMS","Address":"1080 Citrus St","City":"Riverside","State":"CA","Zip":"92507"},{"Location":"CIRCLE COMPUTER RESOURCES INC","Address":"3613 Canyon Crest Dr","City":"Riverside","State":"CA","Zip":"92507"},{"Location":"CITY OF RIVERSIDE PUBLIC","Address":"3920 Mulberry St","City":"Riverside","State":"CA","Zip":"92507"},{"Location":"COMPLETE COACH WORKS","Address":"1863 Service Ct","City":"Riverside","State":"CA","Zip":"92507"},{"Location":"COMPUTER UPGRADE CORPORATION","Address":"2220 Eastridge Ave T","City":"Riverside","State":"CA","Zip":"92507"},{"Location":"COUNTY OF RIVERSIDE 3","Address":"2081 Iowa Ave","City":"Riverside","State":"CA","Zip":"92507"},{"Location":"COURTYARD RIVERSIDE CA","Address":"1510 University Ave","City":"Riverside","State":"CA","Zip":"92507"},{"Location":"DUKES BAR & GRILL","Address":"3221 Iowa Ave","City":"Riverside","State":"CA","Zip":"92507"},{"Location":"EASTSIDE HEALTH CENTER","Address":"1970 University Ave","City":"Riverside","State":"CA","Zip":"92507"},{"Location":"EURO NAIL SPA","Address":"2692 Canyon Springs Pkwy B","City":"Riverside","State":"CA","Zip":"92507"},{"Location":"EXECUTIVE IMAGE RIVERSIDE","Address":"156 E La Cadena Dr","City":"Riverside","State":"CA","Zip":"92507"},{"Location":"F & C SYSTEMS","Address":"2850 University Ave","City":"Riverside","State":"CA","Zip":"92507"},{"Location":"FIRE STATION # 13","Address":"6490 Sycamore Canyon Blvd","City":"Riverside","State":"CA","Zip":"92507"},{"Location":"FRESH AND EASY PRODUCE","Address":"1730 Eastridge Ave","City":"Riverside","State":"CA","Zip":"92507"},{"Location":"GARDEN FRESH RESTAURANT CORP","Address":"6800 Sycamore Canyon Blvd","City":"Riverside","State":"CA","Zip":"92507"},{"Location":"GETAWAY CAFE","Address":"3615 Canyon Crest Dr","City":"Riverside","State":"CA","Zip":"92507"},{"Location":"GIA SOCCER","Address":"4135 Chicago Ave C5","City":"Riverside","State":"CA","Zip":"92507"},{"Location":"HAMPTON INDOOR TENNIS CENTER","Address":"6250 Sycamore Canyon Blvd 200","City":"Riverside","State":"CA","Zip":"92507"},{"Location":"HANGAR 18 EAST RIVERSIDE","Address":"2111 Iowa Ave A","City":"Riverside","State":"CA","Zip":"92507"},{"Location":"HANNA BROPHY","Address":"1500 Iowa Ave 220","City":"Riverside","State":"CA","Zip":"92507"},{"Location":"HELIOS CIGAR LOUNGE","Address":"5225 Canyon Crest Dr 25","City":"Riverside","State":"CA","Zip":"92507"},{"Location":"HOOTERS MORENO VALLEY","Address":"6225 Valley Springs Pkwy 17","City":"Riverside","State":"CA","Zip":"92507"},{"Location":"HOUSE OF BEAUTY","Address":"4018 Chicago Ave","City":"Riverside","State":"CA","Zip":"92507"},{"Location":"IN THE CUT","Address":"1377 University Ave","City":"Riverside","State":"CA","Zip":"92507"},{"Location":"INLAND CRACKDOWN ALLIED AGENCY","Address":"829 Marlborough Ave","City":"Riverside","State":"CA","Zip":"92507"},{"Location":"JEFFERSON TRANSITIONAL PROGRAM","Address":"2800 Hulen Pl","City":"Riverside","State":"CA","Zip":"92507"},{"Location":"JERSEY MIKES","Address":"1201 University Ave","City":"Riverside","State":"CA","Zip":"92507"},{"Location":"JOHN'S INCREDIBLE PIZZA","Address":"6187 Valley Springs Pkwy","City":"Riverside","State":"CA","Zip":"92507"},{"Location":"JUICE IT UP","Address":"2721 Canyon Springs Pkwy 103","City":"Riverside","State":"CA","Zip":"92507"},{"Location":"KINGSTONE 10TH","Address":"1821 10th St","City":"Riverside","State":"CA","Zip":"92507"},{"Location":"KRETZSCHMAR STEEL","Address":"1504 Columbia Ave","City":"Riverside","State":"CA","Zip":"92507"},{"Location":"KROGER RIVERSIDE","Address":"1500 Eastridge Ave","City":"Riverside","State":"CA","Zip":"92507"},{"Location":"LA FITNESS #77","Address":"2600 Canyon Springs Pkwy","City":"Riverside","State":"CA","Zip":"92507"},{"Location":"LOLLICUP","Address":"3740 Iowa Ave 103","City":"Riverside","State":"CA","Zip":"92507"},{"Location":"LOTSHAW AIRCONDITIONING","Address":"1492 Palmyrita Ave","City":"Riverside","State":"CA","Zip":"92507"},{"Location":"MAGNUSON TIRE","Address":"1555 University Ave","City":"Riverside","State":"CA","Zip":"92507"},{"Location":"MARTIAL ARTS INTERNATION","Address":"6596 Box Springs Blvd","City":"Riverside","State":"CA","Zip":"92507"},{"Location":"MBM CORP RIVERSIDE","Address":"1050 Palmyrita Ave","City":"Riverside","State":"CA","Zip":"92507"},{"Location":"MBM FOODSERVICE","Address":"6300 Sycamore Canyon Blvd","City":"Riverside","State":"CA","Zip":"92507"},{"Location":"MEXICALI   BAR AND GRILL","Address":"1690 Spruce St","City":"Riverside","State":"CA","Zip":"92507"},{"Location":"MI OFICINA","Address":"4069 Chicago Avenue%2C Ste 112","City":"Riverside","State":"CA","Zip":"92507"},{"Location":"MI OFICINA","Address":"4069 Chicago Avenue","City":"Riverside","State":"CA","Zip":"92507"},{"Location":"MOMMY AND ME MEDICAL GRO","Address":"4190 Chicago Ave","City":"Riverside","State":"CA","Zip":"92507"},{"Location":"MONGOLIAN BBQ","Address":"1242 University Ave","City":"Riverside","State":"CA","Zip":"92507"},{"Location":"MORGAN BARBER SHOP","Address":"3355 Iowa Ave D","City":"Riverside","State":"CA","Zip":"92507"},{"Location":"MORGAN BARBER SHOP","Address":"178 Iowa Ave","City":"Riverside","State":"CA","Zip":"92507"},{"Location":"MORGAN'S BARBER SHOP","Address":"2308 University Avenue","City":"Riverside","State":"CA","Zip":"92507"},{"Location":"MOS SMOKE SHOP 1","Address":"405 Iowa Ave","City":"Riverside","State":"CA","Zip":"92507"},{"Location":"MSG","Address":"5225 Canyon Crest Dr 301b","City":"Riverside","State":"CA","Zip":"92507"},{"Location":"OPTI","Address":"5053 Lamart Dr 101","City":"Riverside","State":"CA","Zip":"92507"},{"Location":"ORTHOPEDIC MEDICAL GROUP","Address":"6485 Day St 301","City":"Riverside","State":"CA","Zip":"92507"},{"Location":"ORTIZ BAKERY","Address":"421 1%2F2 Iowa Ave","City":"Riverside","State":"CA","Zip":"92507"},{"Location":"PHENIX SALON SUITE","Address":"6165 Valley Springs Pkwy","City":"Riverside","State":"CA","Zip":"92507"},{"Location":"PHOENIX SALON SUITES","Address":"6165 Valley Springs Pkwy","City":"Riverside","State":"CA","Zip":"92507"},{"Location":"PIPPITAILS","Address":"6236 River Crest Dr","City":"Riverside","State":"CA","Zip":"92507"},{"Location":"R & S CHINESE FOOD%2C INC.","Address":"3852 Chicago Ave","City":"Riverside","State":"CA","Zip":"92507"},{"Location":"RACE WAY FORD","Address":"5800 Sycamore Canyon Blvd","City":"Riverside","State":"CA","Zip":"92507"},{"Location":"RACEWAY FORD","Address":"5900 Sycamore Canyon Blvd","City":"Riverside","State":"CA","Zip":"92507"},{"Location":"RACEWAY NISSAN","Address":"6030 Sycamore Canyon Blvd","City":"Riverside","State":"CA","Zip":"92507"},{"Location":"RALPHS","Address":"1500 Eastridge Ave","City":"Riverside","State":"CA","Zip":"92507"},{"Location":"RANCH 1","Address":"1201 University Ave 110b","City":"Riverside","State":"CA","Zip":"92507"},{"Location":"RAYS PIZZA","Address":"1201 University Ave 116","City":"Riverside","State":"CA","Zip":"92507"},{"Location":"REYNOLDS SPORTS MGMT","Address":"3850 Vine St 230","City":"Riverside","State":"CA","Zip":"92507"},{"Location":"RICH GROVE CO","Address":"2509 3rd St","City":"Riverside","State":"CA","Zip":"92507"},{"Location":"RIVERSIDE MED CLINIC","Address":"6405 Day St","City":"Riverside","State":"CA","Zip":"92507"},{"Location":"RIVERSIDE MED CLINIC SVC","Address":"6405 Day St","City":"Riverside","State":"CA","Zip":"92507"},{"Location":"RIVERSIDE SCRAP IRON & METAL","Address":"2993 6th St","City":"Riverside","State":"CA","Zip":"92507"},{"Location":"ROMANO'S ITALIAN RESTAURANT","Address":"5225 Canyon Crest Dr 58","City":"Riverside","State":"CA","Zip":"92507"},{"Location":"ROUND TABLE- RIVERSIDE","Address":"2585 Canyon Springs Pkwy A","City":"Riverside","State":"CA","Zip":"92507"},{"Location":"RSCR INLAND","Address":"5091 Chapala Dr","City":"Riverside","State":"CA","Zip":"92507"},{"Location":"SCHOOLS FIRST FCU","Address":"209 University Ave","City":"Riverside","State":"CA","Zip":"92507"},{"Location":"SEEKERS CHURCH","Address":"1271 Columbia Ave F8","City":"Riverside","State":"CA","Zip":"92507"},{"Location":"SOUTHWEST HOTEL 2","Address":"1680 Eastridge Ave","City":"Riverside","State":"CA","Zip":"92507"},{"Location":"SPRING BOARD SOLUTIONS","Address":"1695 Spruce St","City":"Riverside","State":"CA","Zip":"92507"},{"Location":"SPRINGBOARD SOLUTIONS","Address":"1605 Spruce St","City":"Riverside","State":"CA","Zip":"92507"},{"Location":"STANDARD TEXTILE","Address":"6980 Sycamore Canyon Blvd","City":"Riverside","State":"CA","Zip":"92507"},{"Location":"STARFIAH SUSHI","Address":"5225 Canyon Crest Dr 55","City":"Riverside","State":"CA","Zip":"92507"},{"Location":"SUMMER INFANT","Address":"6255 Sycamore Canyon Blvd","City":"Riverside","State":"CA","Zip":"92507"},{"Location":"SUNRISE CUSTOM STORAGE","Address":"3084 10th St","City":"Riverside","State":"CA","Zip":"92507"},{"Location":"TARGET","Address":"2755 Canyon Springs Pkwy","City":"Riverside","State":"CA","Zip":"92507"},{"Location":"TEEN CHALLENGE","Address":"5445 Chicago Ave","City":"Riverside","State":"CA","Zip":"92507"},{"Location":"THE OLD SPAGHETTI FACTORY #22","Address":"3191 Mission Inn Ave","City":"Riverside","State":"CA","Zip":"92507"},{"Location":"THE PRESS ENTERPRISE  2","Address":"1825 Chicago Ave 100","City":"Riverside","State":"CA","Zip":"92507"},{"Location":"THE SMOKE GALLERY INC","Address":"570 E.lacagena Dr.  #1h","City":"Riverside","State":"CA","Zip":"92507"},{"Location":"THE SPOT SPORTS BAR","Address":"1223 University Ave 140","City":"Riverside","State":"CA","Zip":"92507"},{"Location":"THE TANNING SPA INC","Address":"5225 Canyon Crest Dr 203","City":"Riverside","State":"CA","Zip":"92507"},{"Location":"THOMAS N JACOBSON LAW OFFICES","Address":"1650 Iowa Ave 190","City":"Riverside","State":"CA","Zip":"92507"},{"Location":"TKE ENGINEERING","Address":"2305 Chicago Ave","City":"Riverside","State":"CA","Zip":"92507"},{"Location":"TODD PIPE AND SUPPLY LLC","Address":"1886 Spruce St","City":"Riverside","State":"CA","Zip":"92507"},{"Location":"TRADEMARK PLASTIC","Address":"807 Palmyrita Ave","City":"Riverside","State":"CA","Zip":"92507"},{"Location":"UCR PHYSICAL PLANT","Address":"3401 Watkins Dr","City":"Riverside","State":"CA","Zip":"92507"},{"Location":"VOODOO LOUNGE","Address":"1546 7th St B","City":"Riverside","State":"CA","Zip":"92507"},{"Location":"W E LOSEE ENTERPRISES","Address":"1504 Columbia Ave 5","City":"Riverside","State":"CA","Zip":"92507"},{"Location":"WEST COAST DRYWALL AND PAINT","Address":"1610 W Linden St","City":"Riverside","State":"CA","Zip":"92507"},{"Location":"WIENERSCHNITZEL","Address":"6247 Day St","City":"Riverside","State":"CA","Zip":"92507"},{"Location":"WILSONS FRAME UP","Address":"1860 Chicago Ave Suite","City":"Riverside","State":"CA","Zip":"92507"},{"Location":"WINDEMERE GYM","Address":"5952 Sycamore Canyon Blvd","City":"Riverside","State":"CA","Zip":"92507"},{"Location":"ZORBA'S RESTAURANT","Address":"450 Iowa Ave","City":"Riverside","State":"CA","Zip":"92507"}]