[{"Location":"1 HOUR AIR CONDITIONING","Address":"3030 Myers St","City":"Riverside","State":"CA","Zip":"92503"},{"Location":"108 PERFORMANCE ACADAMEY","Address":"7408 Morris St","City":"Riverside","State":"CA","Zip":"92503"},{"Location":"ALBERTOS MEXICAN FOOD","Address":"3400 La Sierra Ave D","City":"Riverside","State":"CA","Zip":"92503"},{"Location":"ALL IN CRAB","Address":"11860 Magnolia Ave Uv","City":"Riverside","State":"CA","Zip":"92503"},{"Location":"AMAYA","Address":"3775 Tyler St 3b","City":"Riverside","State":"CA","Zip":"92503"},{"Location":"AMERICAN LEGION POST 289","Address":"4151 Buchanan Ave","City":"Riverside","State":"CA","Zip":"92503"},{"Location":"AMF RIVERSIDE LANES 267","Address":"10781 Indiana Ave","City":"Riverside","State":"CA","Zip":"92503"},{"Location":"ARLANZA FAMILY HEALTH CENTER","Address":"8856 Arlington Ave","City":"Riverside","State":"CA","Zip":"92503"},{"Location":"ASC SECURITY","Address":"3751 Merced Dr B","City":"Riverside","State":"CA","Zip":"92503"},{"Location":"ASC SECURITY USA","Address":"11731 Sterling Ave K","City":"Riverside","State":"CA","Zip":"92503"},{"Location":"AUTO EXPRESS","Address":"11850 Magnolia Ave","City":"Riverside","State":"CA","Zip":"92503"},{"Location":"BABES SPORTS BAR","Address":"3834 Megginson Ln","City":"Riverside","State":"CA","Zip":"92503"},{"Location":"BEAUTY ON A BUDGET","Address":"4808 Tyler St","City":"Riverside","State":"CA","Zip":"92503"},{"Location":"BODY TAN SALON & SPA","Address":"10136 Indiana Ave","City":"Riverside","State":"CA","Zip":"92503"},{"Location":"BRANDONS DINNER","Address":"10271 Magnolia Ave","City":"Riverside","State":"CA","Zip":"92503"},{"Location":"BRENTS SALON BY DESIGN","Address":"3432 La Sierra Ave B","City":"Riverside","State":"CA","Zip":"92503"},{"Location":"BROTHERS AUTO SALES","Address":"10194 Arlington Ave","City":"Riverside","State":"CA","Zip":"92503"},{"Location":"BUFFALO WILD WINGS #0531","Address":"3775 Tyler St","City":"Riverside","State":"CA","Zip":"92503"},{"Location":"CAPONE PIZZA","Address":"7201 Arlington Ave Stee","City":"Riverside","State":"CA","Zip":"92503"},{"Location":"CARDENAS MARKET 11","Address":"6350 Van Buren Blvd","City":"Riverside","State":"CA","Zip":"92503"},{"Location":"CERTIFIED TIRES","Address":"3863 Tyler St","City":"Riverside","State":"CA","Zip":"92503"},{"Location":"CLINICA DENTAL MAGNOLIA","Address":"9939 Magnolia Ave","City":"Riverside","State":"CA","Zip":"92503"},{"Location":"COUNTY    OF RIVERSIDE","Address":"4065 County Circle Dr","City":"Riverside","State":"CA","Zip":"92503"},{"Location":"COUNTY OF RIVERSIDE OF SHERMAN","Address":"3900 Sherman Dr","City":"Riverside","State":"CA","Zip":"92503"},{"Location":"CRUNCH FITNESS","Address":"10125 Hole Ave","City":"Riverside","State":"CA","Zip":"92503"},{"Location":"CYPRESS GARDENS CONVALESCENT","Address":"9025 Colorado Ave","City":"Riverside","State":"CA","Zip":"92503"},{"Location":"DESTROYER AUTOMOTIVE","Address":"10200 Hole Ave","City":"Riverside","State":"CA","Zip":"92503"},{"Location":"EDDY S SHEA DDS","Address":"9402 Magnolia Ave","City":"Riverside","State":"CA","Zip":"92503"},{"Location":"ENZO'S PIZZA","Address":"10170 Indiana Ave","City":"Riverside","State":"CA","Zip":"92503"},{"Location":"FAMOUS DAVES","Address":"1299 Galleria At Tyler","City":"Riverside","State":"CA","Zip":"92503"},{"Location":"FANZZ %40 GALLERIA TYLER","Address":"1299 Galleria At Tyler","City":"Riverside","State":"CA","Zip":"92503"},{"Location":"FIESTA PIZZA","Address":"6110 Van Buren Blvd","City":"Riverside","State":"CA","Zip":"92503"},{"Location":"FIRESTONE #014532","Address":"10091 Magnolia Ave","City":"Riverside","State":"CA","Zip":"92503"},{"Location":"FITNESS 19 - 255","Address":"3480 La Sierra Ave B","City":"Riverside","State":"CA","Zip":"92503"},{"Location":"FMC 23770000","Address":"3470 La Sierra Ave E","City":"Riverside","State":"CA","Zip":"92503"},{"Location":"GENERAL GROWTH PROPERTIE","Address":"1299 Galleria At Tyler","City":"Riverside","State":"CA","Zip":"92503"},{"Location":"GENTLE DENTAL","Address":"10168 Indiana Ave","City":"Riverside","State":"CA","Zip":"92503"},{"Location":"GEORGE THE GREEK","Address":"10020 Arlington Ave","City":"Riverside","State":"CA","Zip":"92503"},{"Location":"GEYSER EQUIPMENT LLC","Address":"3280 Call Dr","City":"Riverside","State":"CA","Zip":"92503"},{"Location":"GOODYS KITCHEN","Address":"5665 Van Buren Blvd A","City":"Riverside","State":"CA","Zip":"92503"},{"Location":"GOTHIC LANDSCAPE","Address":"3110 Myers St","City":"Riverside","State":"CA","Zip":"92503"},{"Location":"GRAHAM LITTLE","Address":"9710 Arlington Ave","City":"Riverside","State":"CA","Zip":"92503"},{"Location":"GUS JR 19","Address":"5980 Van Buren Blvd","City":"Riverside","State":"CA","Zip":"92503"},{"Location":"HAMBLINS BODY AND PAINT","Address":"7590 Cypress Ave","City":"Riverside","State":"CA","Zip":"92503"},{"Location":"INLAND GRACE ADULT","Address":"10150 Indiana Ave","City":"Riverside","State":"CA","Zip":"92503"},{"Location":"J AND A PALLETS","Address":"6607 Doolittle Ave A","City":"Riverside","State":"CA","Zip":"92503"},{"Location":"JERLS MUFFLER AND BREAK","Address":"9431 Indiana Ave","City":"Riverside","State":"CA","Zip":"92503"},{"Location":"JOES SUSHI","Address":"9555 Magnolia Ave","City":"Riverside","State":"CA","Zip":"92503"},{"Location":"K D DISTRIBUTIONS","Address":"9363 Narnia Dr","City":"Riverside","State":"CA","Zip":"92503"},{"Location":"KMOG LLC","Address":"16641 Pinnacle Peak Ct","City":"Riverside","State":"CA","Zip":"92503"},{"Location":"KOHL'S #1390","Address":"3520 Tyler St","City":"Riverside","State":"CA","Zip":"92503"},{"Location":"LAKE HILLS CHRISTIAN CENTER","Address":"12500 Indiana Ave","City":"Riverside","State":"CA","Zip":"92503"},{"Location":"LAWS","Address":"9640 Indiana Ave","City":"Riverside","State":"CA","Zip":"92503"},{"Location":"LOS CABOS TACOS","Address":"11840 Magnolia Avenue Suite F","City":"Riverside","State":"CA","Zip":"92503"},{"Location":"LOS CABOS TACOS","Address":"11840 Magnolia Ave%2C Suite F","City":"Riverside","State":"CA","Zip":"92503"},{"Location":"MACY'S WEST 536","Address":"3500 Galleria At Tyler","City":"Riverside","State":"CA","Zip":"92503"},{"Location":"MAGNOLIA DENTAL CARE","Address":"9789 Magnolia Ave","City":"Riverside","State":"CA","Zip":"92503"},{"Location":"MAGNOLIA SKIN CARE","Address":"9939 Magnolia Ave","City":"Riverside","State":"CA","Zip":"92503"},{"Location":"MAMA MIA","Address":"5537 Van Buren Blvd","City":"Riverside","State":"CA","Zip":"92503"},{"Location":"MARCELLA'S BARBERSHOP","Address":"7107 Arlington Ave F","City":"Riverside","State":"CA","Zip":"92503"},{"Location":"MEN'S WEARHOUSE #2705","Address":"3764 Tyler St","City":"Riverside","State":"CA","Zip":"92503"},{"Location":"MFI RECOVERY CENTER","Address":"8804 Haskell St","City":"Riverside","State":"CA","Zip":"92503"},{"Location":"MI LINDO APAZINGAN 2","Address":"9948 Magnolia Ave","City":"Riverside","State":"CA","Zip":"92503"},{"Location":"MISSION DENTAL","Address":"5515 Van Buren Blvd","City":"Riverside","State":"CA","Zip":"92503"},{"Location":"MISSION ORNAMENTAL IRON","Address":"9609 Rudicill St","City":"Riverside","State":"CA","Zip":"92503"},{"Location":"MONKEY DOOZ","Address":"1321 Galleria At Tyler E121","City":"Riverside","State":"CA","Zip":"92503"},{"Location":"MPD RACING","Address":"11731 Sterling Ave I","City":"Riverside","State":"CA","Zip":"92503"},{"Location":"NEW ERA 9245","Address":"1246 Galleria At Tyler G110","City":"Riverside","State":"CA","Zip":"92503"},{"Location":"NORDSTROM TYLER","Address":"3601 The Galleria At Tyler","City":"Riverside","State":"CA","Zip":"92503"},{"Location":"NORDSTROM TYLER 2","Address":"3601 Tyler St","City":"Riverside","State":"CA","Zip":"92503"},{"Location":"OLIVE GARDEN #1735","Address":"3650 Tyler St","City":"Riverside","State":"CA","Zip":"92503"},{"Location":"OLIVIAS MEXICAN RESTAUANT","Address":"9447 Magnolia Ave","City":"Riverside","State":"CA","Zip":"92503"},{"Location":"ORIGINAL ROADHOUSE GRILL","Address":"3838 Tyler St","City":"Riverside","State":"CA","Zip":"92503"},{"Location":"ORKIN","Address":"12710 Magnolia Ave","City":"Riverside","State":"CA","Zip":"92503"},{"Location":"PARKVIEW COMMUNITY HOSPITAL","Address":"3865 Jackson St","City":"Riverside","State":"CA","Zip":"92503"},{"Location":"PARKVIEW OUTPATIENT MEDICAL GR","Address":"9041 Magnolia Ave 107","City":"Riverside","State":"CA","Zip":"92503"},{"Location":"PARKVIEW OUTPATIENT RADIOLOGY","Address":"9041 Magnolia Ave 101","City":"Riverside","State":"CA","Zip":"92503"},{"Location":"PENHALL COMPANY","Address":"3050 Myers St","City":"Riverside","State":"CA","Zip":"92503"},{"Location":"PF CHANG'S #9991","Address":"3475 Tyler St","City":"Riverside","State":"CA","Zip":"92503"},{"Location":"PHO HA RIVERSIDE LLC","Address":"10185 Magnolia Ave","City":"Riverside","State":"CA","Zip":"92503"},{"Location":"PRECISION FITNESS","Address":"3847 Pierce St J","City":"Riverside","State":"CA","Zip":"92503"},{"Location":"QUES SPORTS BAR AND GRILL","Address":"9364 Magnolia Ave","City":"Riverside","State":"CA","Zip":"92503"},{"Location":"R CAR","Address":"7200 Arlington Ave","City":"Riverside","State":"CA","Zip":"92503"},{"Location":"R&R CONCRETE INC","Address":"2940 Myers St","City":"Riverside","State":"CA","Zip":"92503"},{"Location":"RACERS PUB","Address":"3847 Pierce St Op","City":"Riverside","State":"CA","Zip":"92503"},{"Location":"RANCHO LA PEARLA","Address":"3700 Van Buren Blvd 109","City":"Riverside","State":"CA","Zip":"92503"},{"Location":"RC AUTO REPAIR","Address":"10180 Hole Ave 400","City":"Riverside","State":"CA","Zip":"92503"},{"Location":"RED ROBIN #670","Address":"1370 Galleria At Tyler G130","City":"Riverside","State":"CA","Zip":"92503"},{"Location":"RENAISSANCE RADIOLOGY MED GROU","Address":"9041 Magnolia Ave 101","City":"Riverside","State":"CA","Zip":"92503"},{"Location":"RIVERSIDE COUNTY","Address":"16453 El Sobrante Rd","City":"Riverside","State":"CA","Zip":"92503"},{"Location":"RIVERSIDE MARKET CLINIC","Address":"6200 Van Buren Blvd 1","City":"Riverside","State":"CA","Zip":"92503"},{"Location":"ROBINS BROTHERS","Address":"3775 Tyler St 1a","City":"Riverside","State":"CA","Zip":"92503"},{"Location":"RSCR   INLAND","Address":"6760 Olympia Dr","City":"Riverside","State":"CA","Zip":"92503"},{"Location":"RUBENS TACOS","Address":"7107 Arlington Ave D","City":"Riverside","State":"CA","Zip":"92503"},{"Location":"SEAFOOD AND CRAWFISH","Address":"10173 Magnolia Ave","City":"Riverside","State":"CA","Zip":"92503"},{"Location":"SHENANIGAN'S HAIR LOUNGE","Address":"3845 Pierce St E","City":"Riverside","State":"CA","Zip":"92503"},{"Location":"SHENANIGANS HAIR LOUNGE","Address":"3845 Pierce Street Suite E","City":"Riverside","State":"CA","Zip":"92503"},{"Location":"SHOOTERS","Address":"10226 Indiana Ave","City":"Riverside","State":"CA","Zip":"92503"},{"Location":"SINH HOAC GIA DINH","Address":"6595 Dorinda Dr","City":"Riverside","State":"CA","Zip":"92503"},{"Location":"STAR BURGERS","Address":"7201 Arlington Ave A","City":"Riverside","State":"CA","Zip":"92503"},{"Location":"STAR CRAB LLC","Address":"10051 Magnolia Ave","City":"Riverside","State":"CA","Zip":"92503"},{"Location":"STARBUZZ HOOKAH LOUNGE #2","Address":"10193 Hole Ave","City":"Riverside","State":"CA","Zip":"92503"},{"Location":"SUPER CUTS1","Address":"10183 Magnolia Ave","City":"Riverside","State":"CA","Zip":"92503"},{"Location":"SUSHI ASAHI","Address":"2955 Van Buren Blvd D2d3","City":"Riverside","State":"CA","Zip":"92503"},{"Location":"T&L NAILS AND SPA","Address":"10072 Magnolia Ave","City":"Riverside","State":"CA","Zip":"92503"},{"Location":"TACO AL CARBON","Address":"5701 Van Buren Blvd","City":"Riverside","State":"CA","Zip":"92503"},{"Location":"TACOS LA BUFADORA #5","Address":"5652 Van Buren Blvd","City":"Riverside","State":"CA","Zip":"92503"},{"Location":"TGI FRIDAY'S #2177","Address":"3487 Tyler St","City":"Riverside","State":"CA","Zip":"92503"},{"Location":"THE CHEESECAKE FACTORY 0123","Address":"3525 Tyler St","City":"Riverside","State":"CA","Zip":"92503"},{"Location":"TJ NAIL AND SPA","Address":"1079 Magnolia Ave","City":"Riverside","State":"CA","Zip":"92503"},{"Location":"TOMO 7","Address":"5519 Van Buren Blvd","City":"Riverside","State":"CA","Zip":"92503"},{"Location":"VILLAGE MARKET AND LIQUOR","Address":"3812 Pierce St","City":"Riverside","State":"CA","Zip":"92503"},{"Location":"VINCENT","Address":"10248 Hole Ave","City":"Riverside","State":"CA","Zip":"92503"},{"Location":"WALMART","Address":"5200 Van Buren Blvd","City":"Riverside","State":"CA","Zip":"92503"},{"Location":"WESTERN MUNICIPAL WATER","Address":"16451 El Sobrante Rd","City":"Riverside","State":"CA","Zip":"92503"},{"Location":"WICKS BREWING COMPANY","Address":"11620 Sterling Ave C","City":"Riverside","State":"CA","Zip":"92503"},{"Location":"YARD HOUSE 8318","Address":"3775 Tyler St 2a","City":"Riverside","State":"CA","Zip":"92503"}]