[{"Location":"AKINA SUSHI TEPPAN RESTA","Address":"195 E Alessandro Blvd","City":"Riverside","State":"CA","Zip":"92508"},{"Location":"AMTRAK WRSCC","Address":"7920 Lindbergh Dr","City":"Riverside","State":"CA","Zip":"92508"},{"Location":"CACTUS CANTINA","Address":"151 E Alessandro Blvd","City":"Riverside","State":"CA","Zip":"92508"},{"Location":"CARDIOVASCULAR PLUS INC","Address":"7893 7893   #b Mi","City":"Riverside","State":"CA","Zip":"92508"},{"Location":"CARLOS BARBERSHOP","Address":"18560 Vanburen Blvd #1d","City":"Riverside","State":"CA","Zip":"92508"},{"Location":"CERTIFIED TIRE","Address":"8994 Trautwein Rd","City":"Riverside","State":"CA","Zip":"92508"},{"Location":"CHILI'S #1463","Address":"499 E Alessandro Blvd","City":"Riverside","State":"CA","Zip":"92508"},{"Location":"FITNESS MANIA","Address":"19069 Van Buren Blvd 108","City":"Riverside","State":"CA","Zip":"92508"},{"Location":"FURNITURE MATTRESS","Address":"2150 E Alessandro Blvd","City":"Riverside","State":"CA","Zip":"92508"},{"Location":"GLESS RANCH INC","Address":"19985 Van Buren Blvd","City":"Riverside","State":"CA","Zip":"92508"},{"Location":"HEAVELY HAIR AND BARBER SALON","Address":"1015 E Alessandro Blvd","City":"Riverside","State":"CA","Zip":"92508"},{"Location":"HOLLYWOOD TANS","Address":"19069 Van Buren Blvd 112","City":"Riverside","State":"CA","Zip":"92508"},{"Location":"IN 2 IT NUTRITION","Address":"19348 Van Buren Blvd 110","City":"Riverside","State":"CA","Zip":"92508"},{"Location":"JERSEY MIKES SUBS","Address":"497 E Alejandro Blvd","City":"Riverside","State":"CA","Zip":"92508"},{"Location":"KOHL'S #603","Address":"19260 Van Buren Blvd","City":"Riverside","State":"CA","Zip":"92508"},{"Location":"LA FITNESS #67","Address":"19531 Mission Village Dr","City":"Riverside","State":"CA","Zip":"92508"},{"Location":"LIL ABNERS WOODCREST LOUNGE","Address":"17960 Van Buren Blvd","City":"Riverside","State":"CA","Zip":"92508"},{"Location":"MARNYS TAX SERVICE","Address":"18690 Van Buren Blvd","City":"Riverside","State":"CA","Zip":"92508"},{"Location":"METROPLITAN WATER DISTRICT","Address":"550 E Alessandro Blvd","City":"Riverside","State":"CA","Zip":"92508"},{"Location":"MFI RECOVERY CENTER","Address":"17270 Roosevelt St","City":"Riverside","State":"CA","Zip":"92508"},{"Location":"MISSION GROVE 11-369","Address":"7450 Northrop Dr 369","City":"Riverside","State":"CA","Zip":"92508"},{"Location":"MR TACO FRESH MEXICAN GRILL","Address":"18590 Van Buren Blvd 2e","City":"Riverside","State":"CA","Zip":"92508"},{"Location":"NAIL STAR","Address":"19510 Van Buren Blvd F4","City":"Riverside","State":"CA","Zip":"92508"},{"Location":"ORANGE CREST FAMILY DENTISTRY","Address":"19348 Van Buren Blvd 117","City":"Riverside","State":"CA","Zip":"92508"},{"Location":"ORANGECREST DENTAL GROUP","Address":"19510 Van Buren Blvd F5","City":"Riverside","State":"CA","Zip":"92508"},{"Location":"RAMONA TIRE","Address":"18580 Van Buren Blvd","City":"Riverside","State":"CA","Zip":"92508"},{"Location":"ROMANO'S CHICAGO PIZZERIA","Address":"285 E Alessandro Blvd 7h","City":"Riverside","State":"CA","Zip":"92508"},{"Location":"SAPPHIRE BAR & LOUNGE","Address":"285 E Alessandro Blvd","City":"Riverside","State":"CA","Zip":"92508"},{"Location":"SPOILED","Address":"2634 E Alessandro Blvd","City":"Riverside","State":"CA","Zip":"92508"},{"Location":"SUPPORTING UNLIMITED POSS","Address":"15055 Chicago Ave","City":"Riverside","State":"CA","Zip":"92508"},{"Location":"SUSHI STATION","Address":"19029 Van Buren Blvd","City":"Riverside","State":"CA","Zip":"92508"},{"Location":"THAI GRAPOW RESTAURANT","Address":"497 E Alessandro Blvd D","City":"Riverside","State":"CA","Zip":"92508"},{"Location":"THE ORIGINAL PIZZA TIME","Address":"18955 Van Buren Blvd","City":"Riverside","State":"CA","Zip":"92508"},{"Location":"US BANK","Address":"19059 Van Buren Blvd","City":"Riverside","State":"CA","Zip":"92508"},{"Location":"VICTORIA CLEANER","Address":"1015 E Alessandro Blvd 180","City":"Riverside","State":"CA","Zip":"92508"},{"Location":"WIENERSCHIZTER","Address":"7460 Mission Grove Pkwy S","City":"Riverside","State":"CA","Zip":"92508"},{"Location":"WINGSTOP","Address":"18560 Van Buren Blvd 1a","City":"Riverside","State":"CA","Zip":"92508"},{"Location":"AKINA SUSHI TEPPAN RESTA","Address":"195 E Alessandro Blvd","City":"Riverside","State":"CA","Zip":"92508"},{"Location":"AMTRAK WRSCC","Address":"7920 Lindbergh Dr","City":"Riverside","State":"CA","Zip":"92508"},{"Location":"CACTUS CANTINA","Address":"151 E Alessandro Blvd","City":"Riverside","State":"CA","Zip":"92508"},{"Location":"CARDIOVASCULAR PLUS INC","Address":"7893 7893   #b Mi","City":"Riverside","State":"CA","Zip":"92508"},{"Location":"CARLOS BARBERSHOP","Address":"18560 Vanburen Blvd #1d","City":"Riverside","State":"CA","Zip":"92508"},{"Location":"CERTIFIED TIRE","Address":"8994 Trautwein Rd","City":"Riverside","State":"CA","Zip":"92508"},{"Location":"CHICKEN RUN","Address":"2646 E Alessandro Blvd B","City":"Riverside","State":"CA","Zip":"92508"},{"Location":"CHILI'S #1463","Address":"499 E Alessandro Blvd","City":"Riverside","State":"CA","Zip":"92508"},{"Location":"FITNESS MANIA","Address":"19069 Van Buren Blvd 108","City":"Riverside","State":"CA","Zip":"92508"},{"Location":"FURNITURE MATTRESS","Address":"2150 E Alessandro Blvd","City":"Riverside","State":"CA","Zip":"92508"},{"Location":"GLESS RANCH INC","Address":"19985 Van Buren Blvd","City":"Riverside","State":"CA","Zip":"92508"},{"Location":"HEAVELY HAIR AND BARBER SALON","Address":"1015 E Alessandro Blvd","City":"Riverside","State":"CA","Zip":"92508"},{"Location":"HOLLYWOOD TANS","Address":"19069 Van Buren Blvd 112","City":"Riverside","State":"CA","Zip":"92508"},{"Location":"IN 2 IT NUTRITION","Address":"19348 Van Buren Blvd 110","City":"Riverside","State":"CA","Zip":"92508"},{"Location":"JERSEY MIKES SUBS","Address":"497 E Alejandro Blvd","City":"Riverside","State":"CA","Zip":"92508"},{"Location":"KOHL'S #603","Address":"19260 Van Buren Blvd","City":"Riverside","State":"CA","Zip":"92508"},{"Location":"LA FITNESS #67","Address":"19531 Mission Village Dr","City":"Riverside","State":"CA","Zip":"92508"},{"Location":"LIL ABNERS WOODCREST LOUNGE","Address":"17960 Van Buren Blvd","City":"Riverside","State":"CA","Zip":"92508"},{"Location":"MARNYS TAX SERVICE","Address":"18690 Van Buren Blvd","City":"Riverside","State":"CA","Zip":"92508"},{"Location":"METROPLITAN WATER DISTRICT","Address":"550 E Alessandro Blvd","City":"Riverside","State":"CA","Zip":"92508"},{"Location":"MFI RECOVERY CENTER","Address":"17270 Roosevelt St","City":"Riverside","State":"CA","Zip":"92508"},{"Location":"MISSION GROVE 11-369","Address":"7450 Northrop Dr 369","City":"Riverside","State":"CA","Zip":"92508"},{"Location":"MR TACO FRESH MEXICAN GRILL","Address":"18590 Van Buren Blvd 2e","City":"Riverside","State":"CA","Zip":"92508"},{"Location":"NAIL STAR","Address":"19510 Van Buren Blvd F4","City":"Riverside","State":"CA","Zip":"92508"},{"Location":"ORANGE CREST FAMILY DENTISTRY","Address":"19348 Van Buren Blvd 117","City":"Riverside","State":"CA","Zip":"92508"},{"Location":"ORANGECREST DENTAL GROUP","Address":"19510 Van Buren Blvd F5","City":"Riverside","State":"CA","Zip":"92508"},{"Location":"RAMONA TIRE","Address":"18580 Van Buren Blvd","City":"Riverside","State":"CA","Zip":"92508"},{"Location":"ROMANO'S CHICAGO PIZZERIA","Address":"285 E Alessandro Blvd 7h","City":"Riverside","State":"CA","Zip":"92508"},{"Location":"SAPPHIRE BAR & LOUNGE","Address":"285 E Alessandro Blvd","City":"Riverside","State":"CA","Zip":"92508"},{"Location":"SPOILED","Address":"2634 E Alessandro Blvd","City":"Riverside","State":"CA","Zip":"92508"},{"Location":"SUPPORTING UNLIMITED POSS","Address":"15055 Chicago Ave","City":"Riverside","State":"CA","Zip":"92508"},{"Location":"SUSHI STATION","Address":"19029 Van Buren Blvd","City":"Riverside","State":"CA","Zip":"92508"},{"Location":"THAI GRAPOW RESTAURANT","Address":"497 E Alessandro Blvd D","City":"Riverside","State":"CA","Zip":"92508"},{"Location":"THE ORIGINAL PIZZA TIME","Address":"18955 Van Buren Blvd","City":"Riverside","State":"CA","Zip":"92508"},{"Location":"US BANK","Address":"19059 Van Buren Blvd","City":"Riverside","State":"CA","Zip":"92508"},{"Location":"VICTORIA CLEANER","Address":"1015 E Alessandro Blvd 180","City":"Riverside","State":"CA","Zip":"92508"},{"Location":"WIENERSCHIZTER","Address":"7460 Mission Grove Pkwy S","City":"Riverside","State":"CA","Zip":"92508"},{"Location":"WINGSTOP","Address":"18560 Van Buren Blvd 1a","City":"Riverside","State":"CA","Zip":"92508"}]