[{"Location":"US AIR FORCE 362RCS","Address":"14560 2nd St Bld2641","City":"March Air Reserve Ba","State":"CA","Zip":"92518"},{"Location":"144FW%2FDET 1","Address":"1587 Graeber St","City":"March Air Reserve Base","State":"CA","Zip":"92518"},{"Location":"AIR MARINE  OPERATION CENTER","Address":"1355 Customs Way","City":"March Air Reserve Base","State":"CA","Zip":"92518"},{"Location":"AVANQUEST","Address":"15001 Meridian Pkwy A","City":"March Air Reserve Base","State":"CA","Zip":"92518"},{"Location":"CA AIR NATIONAL GUARD","Address":"5237 Air Guard Way 23","City":"March Air Reserve Base","State":"CA","Zip":"92518"},{"Location":"CALIFORNIA HIGHWAY PATROL","Address":"16791 Davis Ave 106","City":"March Air Reserve Base","State":"CA","Zip":"92518"},{"Location":"FEDERAL EDGE INC","Address":"14427 Meridian Pkwy E","City":"March Air Reserve Base","State":"CA","Zip":"92518"},{"Location":"GENERAL OLD GOLF COURSE","Address":"16700 Village West Dr","City":"March Air Reserve Base","State":"CA","Zip":"92518"},{"Location":"GENEVA JEWERLY REPAIR","Address":"23640 N St","City":"March Air Reserve Base","State":"CA","Zip":"92518"},{"Location":"MARB HAP ARNOLD CLUB","Address":"870 Adams Ave 110","City":"March Air Reserve Base","State":"CA","Zip":"92518"},{"Location":"MARCH ARB","Address":"670 Meyer Dr 2404","City":"March Air Reserve Base","State":"CA","Zip":"92518"},{"Location":"MARCH ARB 452 AMW","Address":"2867 Graeber St 1212","City":"March Air Reserve Base","State":"CA","Zip":"92518"},{"Location":"MCCLANE FOOD SERVICE","Address":"14813 Meridian Pkwy","City":"March Air Reserve Base","State":"CA","Zip":"92518"},{"Location":"RIVERSIDE COUNTY CHA INNOVATIO","Address":"14589 Innovation Dr","City":"March Air Reserve Base","State":"CA","Zip":"92518"},{"Location":"US CUSTOMS SERVICE","Address":"373 Graeber St","City":"March Air Reserve Base","State":"CA","Zip":"92518"},{"Location":"304TH SUSTAINMENT BRIGAD","Address":"14940 Riverside Dr 2605","City":"Riverside","State":"CA","Zip":"92518"},{"Location":"FRESH AND EASY","Address":"14950 Innovation Dr","City":"Riverside","State":"CA","Zip":"92518"},{"Location":"MARCH JOINT POWERS AUTHORITY","Address":"23555 Meyer Dr","City":"Riverside","State":"CA","Zip":"92518"},{"Location":"MOBIS PARTS AMERICA","Address":"15001 Meridian Pkwy","City":"Riverside","State":"CA","Zip":"92518"},{"Location":"RIVERSIDE COUNTY FIRE","Address":"3423 Davis Ave 3407","City":"Riverside","State":"CA","Zip":"92518"},{"Location":"SYSCO RIVERSIDE","Address":"15750 Meridian Pkwy","City":"Riverside","State":"CA","Zip":"92518"},{"Location":"US AIR FORCE 362RCS","Address":"14560 2nd St Bld2641","City":"March Air Reserve Ba","State":"CA","Zip":"92518"},{"Location":"144FW%2FDET 1","Address":"1587 Graeber St","City":"March Air Reserve Base","State":"CA","Zip":"92518"},{"Location":"AIR MARINE  OPERATION CENTER","Address":"1355 Customs Way","City":"March Air Reserve Base","State":"CA","Zip":"92518"},{"Location":"AVANQUEST","Address":"15001 Meridian Pkwy A","City":"March Air Reserve Base","State":"CA","Zip":"92518"},{"Location":"CA AIR NATIONAL GUARD","Address":"5237 Air Guard Way 23","City":"March Air Reserve Base","State":"CA","Zip":"92518"},{"Location":"CALIFORNIA HIGHWAY PATROL","Address":"16791 Davis Ave 106","City":"March Air Reserve Base","State":"CA","Zip":"92518"},{"Location":"FEDERAL EDGE INC","Address":"14427 Meridian Pkwy E","City":"March Air Reserve Base","State":"CA","Zip":"92518"},{"Location":"GENERAL OLD GOLF COURSE","Address":"16700 Village West Dr","City":"March Air Reserve Base","State":"CA","Zip":"92518"},{"Location":"GENEVA JEWERLY REPAIR","Address":"23640 N St","City":"March Air Reserve Base","State":"CA","Zip":"92518"},{"Location":"MARB HAP ARNOLD CLUB","Address":"870 Adams Ave 110","City":"March Air Reserve Base","State":"CA","Zip":"92518"},{"Location":"MARCH ARB","Address":"670 Meyer Dr 2404","City":"March Air Reserve Base","State":"CA","Zip":"92518"},{"Location":"MARCH ARB 452 AMW","Address":"2867 Graeber St 1212","City":"March Air Reserve Base","State":"CA","Zip":"92518"},{"Location":"MCCLANE FOOD SERVICE","Address":"14813 Meridian Pkwy","City":"March Air Reserve Base","State":"CA","Zip":"92518"},{"Location":"RIVERSIDE COUNTY CHA INNOVATIO","Address":"14589 Innovation Dr","City":"March Air Reserve Base","State":"CA","Zip":"92518"},{"Location":"US CUSTOMS SERVICE","Address":"373 Graeber St","City":"March Air Reserve Base","State":"CA","Zip":"92518"},{"Location":"304TH SUSTAINMENT BRIGAD","Address":"14940 Riverside Dr 2605","City":"Riverside","State":"CA","Zip":"92518"},{"Location":"FRESH AND EASY","Address":"14950 Innovation Dr","City":"Riverside","State":"CA","Zip":"92518"},{"Location":"MARCH JOINT POWERS AUTHORITY","Address":"23555 Meyer Dr","City":"Riverside","State":"CA","Zip":"92518"},{"Location":"MOBIS PARTS AMERICA","Address":"15001 Meridian Pkwy","City":"Riverside","State":"CA","Zip":"92518"},{"Location":"RIVERSIDE COUNTY FIRE","Address":"3423 Davis Ave 3407","City":"Riverside","State":"CA","Zip":"92518"},{"Location":"SYSCO RIVERSIDE","Address":"15750 Meridian Pkwy","City":"Riverside","State":"CA","Zip":"92518"}]