[{"Location":"AJS FISH MARKET","Address":"16776 Lakeshore Dr B","City":"Lake Elsinore","State":"CA","Zip":"92530"},{"Location":"ALL STAR AUTOMOTIVE","Address":"158 Campbell St A","City":"Lake Elsinore","State":"CA","Zip":"92530"},{"Location":"AZTECA TAXES AND AUTO","Address":"16645 Lakeshore Dr","City":"Lake Elsinore","State":"CA","Zip":"92530"},{"Location":"BAS-JOHN INC","Address":"500 Chaney St B","City":"Lake Elsinore","State":"CA","Zip":"92530"},{"Location":"BEROS MEXICAN FOOD","Address":"31724 Mission Trl","City":"Lake Elsinore","State":"CA","Zip":"92530"},{"Location":"BIG O TIRES #5843","Address":"150 Campbell St A","City":"Lake Elsinore","State":"CA","Zip":"92530"},{"Location":"BRAKE MASTERS","Address":"31760 Mission Trl A","City":"Lake Elsinore","State":"CA","Zip":"92530"},{"Location":"CALIFORNIA MOBILE HOME SVS INC","Address":"600 Central Ave","City":"Lake Elsinore","State":"CA","Zip":"92530"},{"Location":"CARDENAS MARKET 31","Address":"31952 Mission Trl","City":"Lake Elsinore","State":"CA","Zip":"92530"},{"Location":"COLLISION PROS","Address":"18425 Pasadena St","City":"Lake Elsinore","State":"CA","Zip":"92530"},{"Location":"DALIA PARTY SUPPLY","Address":"130 N Main St","City":"Lake Elsinore","State":"CA","Zip":"92530"},{"Location":"DON JOSE","Address":"31712 Casino Dr 4","City":"Lake Elsinore","State":"CA","Zip":"92530"},{"Location":"DONUT STAR","Address":"16738 Lakeshore Dr L","City":"Lake Elsinore","State":"CA","Zip":"92530"},{"Location":"DR KHALED EISSA%2C DDS%2C INC.","Address":"31737 Riverside Dr","City":"Lake Elsinore","State":"CA","Zip":"92530"},{"Location":"EL CARISO HOTSHOT","Address":"32353 Ortega Hwy","City":"Lake Elsinore","State":"CA","Zip":"92530"},{"Location":"EL COMAL","Address":"32410 Mission Trl","City":"Lake Elsinore","State":"CA","Zip":"92530"},{"Location":"EL DIEGOS VIDEO","Address":"134 N Main St","City":"Lake Elsinore","State":"CA","Zip":"92530"},{"Location":"ELSINORE VALLEY MUNICIPAL","Address":"31315 Chaney St","City":"Lake Elsinore","State":"CA","Zip":"92530"},{"Location":"EXPRESS TIRE","Address":"300 Diamond Dr","City":"Lake Elsinore","State":"CA","Zip":"92530"},{"Location":"FAMILY CHOICE FOODS","Address":"31877 Corydon St 160","City":"Lake Elsinore","State":"CA","Zip":"92530"},{"Location":"FIRESTONE #013889","Address":"31748 Mission Trl","City":"Lake Elsinore","State":"CA","Zip":"92530"},{"Location":"FLOOR MAX INC","Address":"592 Crane St","City":"Lake Elsinore","State":"CA","Zip":"92530"},{"Location":"FROYO CAFE","Address":"16738 Lakeshore Dr B","City":"Lake Elsinore","State":"CA","Zip":"92530"},{"Location":"HAKES SASH & DOOR","Address":"31945 Corydon St","City":"Lake Elsinore","State":"CA","Zip":"92530"},{"Location":"HELL'S KITCHEN","Address":"32685 Ortega Hwy 100","City":"Lake Elsinore","State":"CA","Zip":"92530"},{"Location":"IE CONCRETE","Address":"18273 Grand Ave 9","City":"Lake Elsinore","State":"CA","Zip":"92530"},{"Location":"IN OUT VEHICLE","Address":"31900 Mission Trl 120","City":"Lake Elsinore","State":"CA","Zip":"92530"},{"Location":"KOKORO JAPANESE RESTAURANT","Address":"32251 Mission Trl","City":"Lake Elsinore","State":"CA","Zip":"92530"},{"Location":"L E R LLC","Address":"20930 Malaga Rd","City":"Lake Elsinore","State":"CA","Zip":"92530"},{"Location":"LA UNICA RESTAURANT","Address":"110 North Main Street","City":"Lake Elsinore","State":"CA","Zip":"92530"},{"Location":"LAKE ELSINORE FORD","Address":"31500 Auto Center Dr","City":"Lake Elsinore","State":"CA","Zip":"92530"},{"Location":"LAKE ELSINORE HOTEL & CASINO","Address":"20930 Malaga Rd","City":"Lake Elsinore","State":"CA","Zip":"92530"},{"Location":"LAKE ELSINORE MOOSE LODGE","Address":"32391 Riverside Dr 367","City":"Lake Elsinore","State":"CA","Zip":"92530"},{"Location":"LAKESHORE FAMILY DENTISTRY","Address":"16738 Lakeshore Dr D","City":"Lake Elsinore","State":"CA","Zip":"92530"},{"Location":"LANDING ZONE GRILL2","Address":"19980 Grand Ave","City":"Lake Elsinore","State":"CA","Zip":"92530"},{"Location":"LAS PALMAS MEXICAN REST","Address":"16779 Lakeshore Dr","City":"Lake Elsinore","State":"CA","Zip":"92530"},{"Location":"LEUSD FOOD SERVICES","Address":"550 Birch St","City":"Lake Elsinore","State":"CA","Zip":"92530"},{"Location":"LINKS AT SUMMERLY","Address":"29381 Village Pkwy","City":"Lake Elsinore","State":"CA","Zip":"92530"},{"Location":"LOS OANCHOS MARKET","Address":"17941 Grand Ave","City":"Lake Elsinore","State":"CA","Zip":"92530"},{"Location":"LUCKYS TAVERN","Address":"31091 Riverside Dr","City":"Lake Elsinore","State":"CA","Zip":"92530"},{"Location":"LYLAS PANADERIA","Address":"31735 Riverside Dr H","City":"Lake Elsinore","State":"CA","Zip":"92530"},{"Location":"MARISCOS NAYARIT","Address":"31733 Riverside Dr A","City":"Lake Elsinore","State":"CA","Zip":"92530"},{"Location":"MOLD VISION INC","Address":"18351 Pasadena St","City":"Lake Elsinore","State":"CA","Zip":"92530"},{"Location":"MY BUDDIES PIZZA","Address":"2503 E Lakeshore Dr A","City":"Lake Elsinore","State":"CA","Zip":"92530"},{"Location":"NIKE INC","Address":"17600 Collier Ave B118","City":"Lake Elsinore","State":"CA","Zip":"92530"},{"Location":"NORAS HAIR SALON","Address":"101 S Main St C","City":"Lake Elsinore","State":"CA","Zip":"92530"},{"Location":"ON DEMAND","Address":"31461 Riverside Dr A","City":"Lake Elsinore","State":"CA","Zip":"92530"},{"Location":"PANDA PALACE","Address":"16665 Lakeshore Dr D","City":"Lake Elsinore","State":"CA","Zip":"92530"},{"Location":"PINS N POCKETS","Address":"32250 Mission Trl","City":"Lake Elsinore","State":"CA","Zip":"92530"},{"Location":"PINTS AND QUARTS GASTRO","Address":"17600 Collier Ave F147a","City":"Lake Elsinore","State":"CA","Zip":"92530"},{"Location":"PIZZA HUT #029201","Address":"31736 Casino Dr","City":"Lake Elsinore","State":"CA","Zip":"92530"},{"Location":"PK ROADHOUSE","Address":"15573 Grand Ave","City":"Lake Elsinore","State":"CA","Zip":"92530"},{"Location":"RED BOWL","Address":"30850 Riverside Dr A1","City":"Lake Elsinore","State":"CA","Zip":"92530"},{"Location":"RIVERSIDE COUNTY FIRE 51","Address":"32353 Ortega Hwy","City":"Lake Elsinore","State":"CA","Zip":"92530"},{"Location":"ROSES RECOLLECTIONS","Address":"101 S Main St A","City":"Lake Elsinore","State":"CA","Zip":"92530"},{"Location":"SANATA","Address":"202 N Main St","City":"Lake Elsinore","State":"CA","Zip":"92530"},{"Location":"SEWELL","Address":"21190 Sedco Blvd","City":"Lake Elsinore","State":"CA","Zip":"92530"},{"Location":"SMOKE & GIFT SHOP","Address":"31739 Riverside Dr L","City":"Lake Elsinore","State":"CA","Zip":"92530"},{"Location":"SPEED TIRES & WHEELS","Address":"18211 Grand Ave","City":"Lake Elsinore","State":"CA","Zip":"92530"},{"Location":"SPORTS PIZZA","Address":"16746 Lakeshore Dr","City":"Lake Elsinore","State":"CA","Zip":"92530"},{"Location":"STEVE'S TOWING","Address":"609 Collier Ave","City":"Lake Elsinore","State":"CA","Zip":"92530"},{"Location":"TACOS ELSINOR","Address":"16331 Lakeshore Dr","City":"Lake Elsinore","State":"CA","Zip":"92530"},{"Location":"TACOS NAYARIT","Address":"31735 Riverside Dr D","City":"Lake Elsinore","State":"CA","Zip":"92530"},{"Location":"TARGET","Address":"18287 Collier Ave","City":"Lake Elsinore","State":"CA","Zip":"92530"},{"Location":"TDC CONSTRUCTION","Address":"18530 Pasadena St","City":"Lake Elsinore","State":"CA","Zip":"92530"},{"Location":"THE ALLIGATOR PIT","Address":"31731 Riverside Dr","City":"Lake Elsinore","State":"CA","Zip":"92530"},{"Location":"THE RIVERSIDE","Address":"31502 Riverside Dr","City":"Lake Elsinore","State":"CA","Zip":"92530"},{"Location":"TRUE TOUCH NAILS AND SPA","Address":"18285 Collier Ave","City":"Lake Elsinore","State":"CA","Zip":"92530"},{"Location":"URBAN CONCRETE INC","Address":"29190 Riverside Dr","City":"Lake Elsinore","State":"CA","Zip":"92530"},{"Location":"WEST COAST INDUSTRIAL SUPPLY","Address":"17995 Collier Ave","City":"Lake Elsinore","State":"CA","Zip":"92530"},{"Location":"WILCYNS FITNESS","Address":"19980 Grand Ave K","City":"Lake Elsinore","State":"CA","Zip":"92530"},{"Location":"P4L FITNESS","Address":"28780 Single Oak Dr 110","City":"Temeoula","State":"CA","Zip":"92530"}]