[{"Location":"ARCHIBALD ELSINORE","Address":"29285 Central Ave","City":"Lake Elsinore","State":"CA","Zip":"92532"},{"Location":"CENTRAL NAIL AND SPA","Address":"29280 Central Ave H","City":"Lake Elsinore","State":"CA","Zip":"92532"},{"Location":"CHILI'S #1169","Address":"29233 Central Ave","City":"Lake Elsinore","State":"CA","Zip":"92532"},{"Location":"CIRCLE K SHELL","Address":"31587 Canyon Estates Dr","City":"Lake Elsinore","State":"CA","Zip":"92532"},{"Location":"JERSEY MIKES SUBS","Address":"31800 Grape St B","City":"Lake Elsinore","State":"CA","Zip":"92532"},{"Location":"JIFFY LUBE 2681","Address":"311 Summerhill Dr","City":"Lake Elsinore","State":"CA","Zip":"92532"},{"Location":"LA CONQUISTA MEXICAN GRI","Address":"29280 Central Ave G","City":"Lake Elsinore","State":"CA","Zip":"92532"},{"Location":"LA FITNESS #82","Address":"18550 Dexter Ave","City":"Lake Elsinore","State":"CA","Zip":"92532"},{"Location":"LAKE NAILS & SPA","Address":"31810 Grape St","City":"Lake Elsinore","State":"CA","Zip":"92532"},{"Location":"LONE STAR STKHOUSE 6506","Address":"18601 Dexter Ave","City":"Lake Elsinore","State":"CA","Zip":"92532"},{"Location":"MANUEL GUILIN  INSURANCE","Address":"371 Railroad Canyon Rd D","City":"Lake Elsinore","State":"CA","Zip":"92532"},{"Location":"MAUI HAWAIIAN BBQ","Address":"29263 Central Ave","City":"Lake Elsinore","State":"CA","Zip":"92532"},{"Location":"PEOMY CHINESE CUSINIE","Address":"31810 Grape St C","City":"Lake Elsinore","State":"CA","Zip":"92532"},{"Location":"RIVERSIDE COUNTY FIRE STA 94","Address":"22770 Railroad Canyon Rd","City":"Lake Elsinore","State":"CA","Zip":"92532"},{"Location":"SUSHI ZEN","Address":"31500 Grape St 1","City":"Lake Elsinore","State":"CA","Zip":"92532"}]