[{"Location":"1000 TRAILS IDYLLWILD","Address":"24400 Canyon Trail Road","City":"Idyllwild","State":"CA","Zip":"92549"},{"Location":"ALHETTI RESORT","Address":"23551 Hwy 243","City":"Idyllwild","State":"CA","Zip":"92549"},{"Location":"BELLA DINNER HOUSE","Address":"26290 Hwy 243","City":"Idyllwild","State":"CA","Zip":"92549"},{"Location":"FIRE STATION 621","Address":"54160 Maranatha Dr","City":"Idyllwild","State":"CA","Zip":"92549"},{"Location":"GUIDED DISCOVERY ASTRO CAMP","Address":"26800 Saunders Meadow Rd","City":"Idyllwild","State":"CA","Zip":"92549"},{"Location":"IDYLLWILD PIZZA COMPANY","Address":"54391 Village Center Dr","City":"Idyllwild","State":"CA","Zip":"92549"},{"Location":"IDYLLWILD POST","Address":"54360 Marion View","City":"Idyllwild","State":"CA","Zip":"92549"},{"Location":"JO'ANS BAR AND RESTAURANT INC","Address":"54265 Village Center Dr","City":"Idyllwild","State":"CA","Zip":"92549"},{"Location":"MEANT TO BE FIT","Address":"54445 N Circle Drive #f","City":"Idyllwild","State":"CA","Zip":"92549"},{"Location":"OMAS  EUORPEON RESTAURAN","Address":"54241 Ridge View Dr","City":"Idyllwild","State":"CA","Zip":"92549"},{"Location":"STRAWBERRY CREEK BUNKHOUSE","Address":"26370 Highway 243","City":"Idyllwild","State":"CA","Zip":"92549"},{"Location":"STRAWBERRY CREEK BUNKHOUSE 2","Address":"25525 Highway 243","City":"Idyllwild","State":"CA","Zip":"92549"},{"Location":"VILLAGE MARKET","Address":"26000 State Highway 243","City":"Idyllwild","State":"CA","Zip":"92549"},{"Location":"1000 TRAILS IDYLLWILD","Address":"24400 Canyon Trail Road","City":"Idyllwild","State":"CA","Zip":"92549"},{"Location":"ALHETTI RESORT","Address":"23551 Hwy 243","City":"Idyllwild","State":"CA","Zip":"92549"},{"Location":"BELLA DINNER HOUSE","Address":"26290 Hwy 243","City":"Idyllwild","State":"CA","Zip":"92549"},{"Location":"FIRE STATION 621","Address":"54160 Maranatha Dr","City":"Idyllwild","State":"CA","Zip":"92549"},{"Location":"GUIDED DISCOVERY ASTRO CAMP","Address":"26800 Saunders Meadow Rd","City":"Idyllwild","State":"CA","Zip":"92549"},{"Location":"IDYLLWILD PIZZA COMPANY","Address":"54391 Village Center Dr","City":"Idyllwild","State":"CA","Zip":"92549"},{"Location":"IDYLLWILD POST","Address":"54360 Marion View","City":"Idyllwild","State":"CA","Zip":"92549"},{"Location":"JO'ANS BAR AND RESTAURANT INC","Address":"54265 Village Center Dr","City":"Idyllwild","State":"CA","Zip":"92549"},{"Location":"MEANT TO BE FIT","Address":"54445 N Circle Drive #f","City":"Idyllwild","State":"CA","Zip":"92549"},{"Location":"OMAS  EUORPEON RESTAURAN","Address":"54241 Ridge View Dr","City":"Idyllwild","State":"CA","Zip":"92549"},{"Location":"STRAWBERRY CREEK BUNKHOUSE","Address":"26370 Highway 243","City":"Idyllwild","State":"CA","Zip":"92549"},{"Location":"STRAWBERRY CREEK BUNKHOUSE 2","Address":"25525 Highway 243","City":"Idyllwild","State":"CA","Zip":"92549"},{"Location":"VILLAGE MARKET","Address":"26000 State Highway 243","City":"Idyllwild","State":"CA","Zip":"92549"}]