[{"Location":"AFTER 5","Address":"133 N Harvard St","City":"Hemet","State":"CA","Zip":"92543"},{"Location":"ALEX DENTAL LAB","Address":"560 N San Jacinto St B","City":"Hemet","State":"CA","Zip":"92543"},{"Location":"ALL SMOG","Address":"231 N State St C","City":"Hemet","State":"CA","Zip":"92543"},{"Location":"ALPHA WEALTH MANAGEMENT","Address":"220 N San Jacinto St","City":"Hemet","State":"CA","Zip":"92543"},{"Location":"BIG DADDYS CHEESE STEAK","Address":"199 N State St","City":"Hemet","State":"CA","Zip":"92543"},{"Location":"BURGER RUSH","Address":"475 W Stetson Ave","City":"Hemet","State":"CA","Zip":"92543"},{"Location":"CALIF CONTRUCTION AND CO","Address":"1449 Mesa View St","City":"Hemet","State":"CA","Zip":"92543"},{"Location":"CERTIFIED TIRES HEMET","Address":"1000 W Florida Ave","City":"Hemet","State":"CA","Zip":"92543"},{"Location":"CHAPPIES OF HEMET","Address":"229 E Florida Ave","City":"Hemet","State":"CA","Zip":"92543"},{"Location":"CITY OF HEMET","Address":"510 E Florida Ave","City":"Hemet","State":"CA","Zip":"92543"},{"Location":"CITY OF HEMET POLICE DEP","Address":"450 E Latham Ave","City":"Hemet","State":"CA","Zip":"92543"},{"Location":"COOPER PRYSICAL THERAPY","Address":"235 N Gilbert St","City":"Hemet","State":"CA","Zip":"92543"},{"Location":"COUNTY OF RIVERSIDE","Address":"749 N State St","City":"Hemet","State":"CA","Zip":"92543"},{"Location":"CRUNCH FITNESS","Address":"1287 S State St","City":"Hemet","State":"CA","Zip":"92543"},{"Location":"CURTIS R LOEFFLER CHIROP","Address":"902 E Acacia Ave","City":"Hemet","State":"CA","Zip":"92543"},{"Location":"DAVITA #1606 DIAMOND VALLEY","Address":"1030 E Florida Ave","City":"Hemet","State":"CA","Zip":"92543"},{"Location":"DE'WRIGHT FISH MARKET","Address":"1027 W Florida Ave","City":"Hemet","State":"CA","Zip":"92543"},{"Location":"DEEZ RIGHT TOUCH","Address":"210 W Florida Ave A","City":"Hemet","State":"CA","Zip":"92543"},{"Location":"DEVONSHIRE DOWNS","Address":"260 N Lyon Ave","City":"Hemet","State":"CA","Zip":"92543"},{"Location":"DEVONSHIRE DOWNS 2","Address":"260 N Lyon Ave 5","City":"Hemet","State":"CA","Zip":"92543"},{"Location":"DIAMOND VALLEY GOLF CLUB","Address":"31220 Sage Rd","City":"Hemet","State":"CA","Zip":"92543"},{"Location":"DR RICHARD HAAS","Address":"760 W Acacia Ave 117","City":"Hemet","State":"CA","Zip":"92543"},{"Location":"EARLY BIRD CAFE","Address":"220 S Lyon Ave","City":"Hemet","State":"CA","Zip":"92543"},{"Location":"EASTLAKE MOBILE PARK","Address":"1355 S Lyon Ave 203","City":"Hemet","State":"CA","Zip":"92543"},{"Location":"ELITE BAR AND LOUNGE","Address":"118 N Harvard St","City":"Hemet","State":"CA","Zip":"92543"},{"Location":"ELKS LODGE HEMET","Address":"1305 W Florida Ave","City":"Hemet","State":"CA","Zip":"92543"},{"Location":"EXPRESS YOURSELF","Address":"475 W Stetson Ave M","City":"Hemet","State":"CA","Zip":"92543"},{"Location":"FADED BARBERSHOP","Address":"292 N San Jacinto St","City":"Hemet","State":"CA","Zip":"92543"},{"Location":"FIRESTONE #028487","Address":"350 W Florida Ave","City":"Hemet","State":"CA","Zip":"92543"},{"Location":"FLORIDA MASSAGE","Address":"705 E Florida Ave","City":"Hemet","State":"CA","Zip":"92543"},{"Location":"FM LOCK AND SAFE","Address":"410 N State St","City":"Hemet","State":"CA","Zip":"92543"},{"Location":"FRANKLINS LIQUOR","Address":"540 N San Jacinto St R","City":"Hemet","State":"CA","Zip":"92543"},{"Location":"FRATERNAL ORDER OF EAGLES","Address":"1269 S State St","City":"Hemet","State":"CA","Zip":"92543"},{"Location":"GREAT SHOT BILLIARDS AND","Address":"130 E Kimball Ave","City":"Hemet","State":"CA","Zip":"92543"},{"Location":"HEMET AUTO AC & RADIATOR","Address":"186 S Western Ave","City":"Hemet","State":"CA","Zip":"92543"},{"Location":"HEMET RADIOLOGY MEDICAL GROUP","Address":"1001 E Latham Ave F","City":"Hemet","State":"CA","Zip":"92543"},{"Location":"HEMET TRAILER SUPPLY","Address":"1371 W Acacia Ave","City":"Hemet","State":"CA","Zip":"92543"},{"Location":"INLAND PSYCHIATRIC MEDICAL GRO","Address":"1001 E Latham Ave D","City":"Hemet","State":"CA","Zip":"92543"},{"Location":"JAMES A KEATING MD","Address":"760 W Acacia Ave 101","City":"Hemet","State":"CA","Zip":"92543"},{"Location":"JOES LIQUOR","Address":"475 W Stetson Ave P&q","City":"Hemet","State":"CA","Zip":"92543"},{"Location":"LA CASA VIEJA","Address":"828 W Florida Ave","City":"Hemet","State":"CA","Zip":"92543"},{"Location":"LA MORELIANA","Address":"1287 E Florida Ave","City":"Hemet","State":"CA","Zip":"92543"},{"Location":"LOS ALTOS MEAT MARKET","Address":"126 N Carmalita St","City":"Hemet","State":"CA","Zip":"92543"},{"Location":"MAIL PLUS MORE","Address":"475 W Stetson Ave T","City":"Hemet","State":"CA","Zip":"92543"},{"Location":"ME AUTO REPAIR","Address":"341 W Esplanade Ave","City":"Hemet","State":"CA","Zip":"92543"},{"Location":"MEGA BITES","Address":"1153 S State St","City":"Hemet","State":"CA","Zip":"92543"},{"Location":"MILANOS","Address":"269 E Stetson Ave","City":"Hemet","State":"CA","Zip":"92543"},{"Location":"MODEL NAILS","Address":"199 Northstae Street 105","City":"Hemet","State":"CA","Zip":"92543"},{"Location":"OFFICE LOUNGE","Address":"1107 W Florida Ave","City":"Hemet","State":"CA","Zip":"92543"},{"Location":"PHOENIX CENTRO","Address":"2190 S State St","City":"Hemet","State":"CA","Zip":"92543"},{"Location":"PIZZA HUT #508","Address":"120 E Stetson Ave","City":"Hemet","State":"CA","Zip":"92543"},{"Location":"REST EZ MATTRESS CO","Address":"265 E Stetson Ave","City":"Hemet","State":"CA","Zip":"92543"},{"Location":"SAN JACINTO HEALTHCARE","Address":"275 N San Jacinto St","City":"Hemet","State":"CA","Zip":"92543"},{"Location":"SHOOTERS","Address":"121 E Florida Ave","City":"Hemet","State":"CA","Zip":"92543"},{"Location":"SMITTYS AUTO PAINTS OF","Address":"427 E Oakland Ave","City":"Hemet","State":"CA","Zip":"92543"},{"Location":"STETSON FAMILY DENTAL","Address":"475 W Stetson Ave Sut-l","City":"Hemet","State":"CA","Zip":"92543"},{"Location":"STUDIO ONEXTREME","Address":"483 W Esplanade Ave","City":"Hemet","State":"CA","Zip":"92543"},{"Location":"TAX ASSOCIATES","Address":"1201 E Florida Ave","City":"Hemet","State":"CA","Zip":"92543"}]