[{"Location":"ALL DISCOUNT INSURANCE","Address":"1900 E Florida Ave","City":"Hemet","State":"CA","Zip":"92544"},{"Location":"ANCHOR VENTURES INC.","Address":"2524 E Florida Ave","City":"Hemet","State":"CA","Zip":"92544"},{"Location":"BAUTISTA CAMP","Address":"33015 Bautista Rd","City":"Hemet","State":"CA","Zip":"92544"},{"Location":"BURGER RUSH JR","Address":"41995 Florida Ave","City":"Hemet","State":"CA","Zip":"92544"},{"Location":"CAL FIRE CDF","Address":"35655 Sage Rd","City":"Hemet","State":"CA","Zip":"92544"},{"Location":"DATTILO RISTORANTE","Address":"2288 E Florida Ave","City":"Hemet","State":"CA","Zip":"92544"},{"Location":"DIVINE HAIR","Address":"25115 Sansome St","City":"Hemet","State":"CA","Zip":"92544"},{"Location":"EL PATRON MEXICAN GRILL","Address":"41525 Florida Ave","City":"Hemet","State":"CA","Zip":"92544"},{"Location":"EL RANCHITO TACO SHOP","Address":"2117 E Florida Ave","City":"Hemet","State":"CA","Zip":"92544"},{"Location":"FAMILY AUTO SALES","Address":"3634 E Florida Ave","City":"Hemet","State":"CA","Zip":"92544"},{"Location":"FAMILY HAIR SHOP","Address":"1312 E Florida Ave","City":"Hemet","State":"CA","Zip":"92544"},{"Location":"FARAH ADVISORY SERVICES","Address":"39345 San Ignacio Rd","City":"Hemet","State":"CA","Zip":"92544"},{"Location":"GEORGES PIZZA","Address":"2920 E Florida Ave 105","City":"Hemet","State":"CA","Zip":"92544"},{"Location":"INLAND PHYSICIANS BILLIN","Address":"1510 E El Nita Ln","City":"Hemet","State":"CA","Zip":"92544"},{"Location":"JIMS BARBER SHOP","Address":"4410 E Florida Ave","City":"Hemet","State":"CA","Zip":"92544"},{"Location":"JUAN POLLO","Address":"1380 1%2F2 E Florida Ave","City":"Hemet","State":"CA","Zip":"92544"},{"Location":"KINGSTONE HEMET","Address":"25967 Yale St","City":"Hemet","State":"CA","Zip":"92544"},{"Location":"MOUNTAINVIEW FAMILY DENT","Address":"43430 E Florida Ave A","City":"Hemet","State":"CA","Zip":"92544"},{"Location":"MR YOU CHINESE FOOD","Address":"1382 E Florida Ave","City":"Hemet","State":"CA","Zip":"92544"},{"Location":"MR YOU DONUTS","Address":"1360 E Florida Ave","City":"Hemet","State":"CA","Zip":"92544"},{"Location":"PARADISE LIQUOR EXPRESS","Address":"41007 Florida Ave A","City":"Hemet","State":"CA","Zip":"92544"},{"Location":"PERFORMANCE PUMPING","Address":"45654 State Highway 74","City":"Hemet","State":"CA","Zip":"92544"},{"Location":"SHEAR CLASS","Address":"2920 E Florida Ave","City":"Hemet","State":"CA","Zip":"92544"},{"Location":"SOUTHERN PAC PIZZA%2C LLC","Address":"25795 Stanford St","City":"Hemet","State":"CA","Zip":"92544"},{"Location":"STEVES JR BURGER","Address":"3320 E Florida Ave","City":"Hemet","State":"CA","Zip":"92544"},{"Location":"SUPPORTING UNLIMITED POSSIB","Address":"40678 Mayberry Ave","City":"Hemet","State":"CA","Zip":"92544"},{"Location":"TRAIL  TOO PUB","Address":"41823 Florida Ave","City":"Hemet","State":"CA","Zip":"92544"},{"Location":"US NAIL","Address":"43384 Florida Ave D","City":"Hemet","State":"CA","Zip":"92544"},{"Location":"WHITES DISCOUNT CARPETS","Address":"41421 Florida Ave","City":"Hemet","State":"CA","Zip":"92544"}]