[{"Location":"ALLEN TIRE COMPANY","Address":"1772 W Florida Ave","City":"Hemet","State":"CA","Zip":"92545"},{"Location":"AMERICAN MEDICAL RESPONSE","Address":"175 N Cawston Ave 155","City":"Hemet","State":"CA","Zip":"92545"},{"Location":"APPLEBEE'S #2150030","Address":"2515 W Florida Ave","City":"Hemet","State":"CA","Zip":"92545"},{"Location":"ARROWHEAD ORTHOPAEDICS 5","Address":"3889 W Stetson Ave 100","City":"Hemet","State":"CA","Zip":"92545"},{"Location":"BG  THOROUGHBRED FARM","Address":"3001 W Esplanade Ave","City":"Hemet","State":"CA","Zip":"92545"},{"Location":"BUFFALO WILD WINGS #0455","Address":"3575 W Stetson Ave","City":"Hemet","State":"CA","Zip":"92545"},{"Location":"CHILI'S #1093","Address":"2100 W Florida Ave","City":"Hemet","State":"CA","Zip":"92545"},{"Location":"CIGZONE","Address":"3221 W Florida Ave","City":"Hemet","State":"CA","Zip":"92545"},{"Location":"COLORTYME HEMET","Address":"3000 W Florida Ave","City":"Hemet","State":"CA","Zip":"92545"},{"Location":"CULLINS CORPRATICE","Address":"2940 W Florida Ave B","City":"Hemet","State":"CA","Zip":"92545"},{"Location":"DAVITA #878 HEMET","Address":"3050 W Florida Ave","City":"Hemet","State":"CA","Zip":"92545"},{"Location":"DIAMOND VALLEY HONDA","Address":"300 Carriage Cir","City":"Hemet","State":"CA","Zip":"92545"},{"Location":"DICKEYS BARBECUE PIT","Address":"1127 S Sanderson Ave","City":"Hemet","State":"CA","Zip":"92545"},{"Location":"FITNESS 19 HEMET","Address":"1970 W Florida Ave","City":"Hemet","State":"CA","Zip":"92545"},{"Location":"FRESH AND YUMMY","Address":"3112 W Florida Ave","City":"Hemet","State":"CA","Zip":"92545"},{"Location":"HEMET DENTAL","Address":"2721 W Florida Ave","City":"Hemet","State":"CA","Zip":"92545"},{"Location":"HEMET UNIFIED SCHOOL DISTRICT","Address":"2085 W Acacia Ave","City":"Hemet","State":"CA","Zip":"92545"},{"Location":"JENNIE'S DONUTS","Address":"3228 W Florida Ave","City":"Hemet","State":"CA","Zip":"92545"},{"Location":"JERSEY MIKES SUBS","Address":"719 S Sanderson Ave","City":"Hemet","State":"CA","Zip":"92545"},{"Location":"JIFFY LUBE 3187","Address":"330 N Sanderson Ave","City":"Hemet","State":"CA","Zip":"92545"},{"Location":"JUST FOR FUN","Address":"1111 S Sanderson Ave","City":"Hemet","State":"CA","Zip":"92545"},{"Location":"LA FITNESS #88","Address":"220 W. Sanderson Ave","City":"Hemet","State":"CA","Zip":"92545"},{"Location":"LA FOGATA MEXICAN RESTAURANT","Address":"2940 W Florida Ave","City":"Hemet","State":"CA","Zip":"92545"},{"Location":"LOS VAQUEROS","Address":"3909 W Florida Ave","City":"Hemet","State":"CA","Zip":"92545"},{"Location":"MARIE CALLENDARS","Address":"3969 W Florida Ave","City":"Hemet","State":"CA","Zip":"92545"},{"Location":"MCDONALDS","Address":"2321 W Florida Ave","City":"Hemet","State":"CA","Zip":"92545"},{"Location":"NO LIMIT CASINO EVENTS","Address":"1489 Hummingbird Way","City":"Hemet","State":"CA","Zip":"92545"},{"Location":"PEP BOYS","Address":"2050 W Florida Ave","City":"Hemet","State":"CA","Zip":"92545"},{"Location":"RAMONA AUTO BODY","Address":"3800 Wentworth Dr","City":"Hemet","State":"CA","Zip":"92545"},{"Location":"RAMONA TIRE","Address":"2350 W Menlo Ave","City":"Hemet","State":"CA","Zip":"92545"},{"Location":"RAZORS N BARBERS","Address":"155 N Cawston Ave","City":"Hemet","State":"CA","Zip":"92545"},{"Location":"RED ROBIN #592","Address":"1990 W Florida Ave","City":"Hemet","State":"CA","Zip":"92545"},{"Location":"RIVERSIDE TRANSIT AGENCY HEMET","Address":"700 Scaramella Cir","City":"Hemet","State":"CA","Zip":"92545"},{"Location":"SEARS AUTO CENTER","Address":"2200 W Florida Ave","City":"Hemet","State":"CA","Zip":"92545"},{"Location":"SPICY SUSHI","Address":"3353 W Florida Ave","City":"Hemet","State":"CA","Zip":"92545"},{"Location":"STEER N STEIN RESTAURANT","Address":"3104 W Florida Ave","City":"Hemet","State":"CA","Zip":"92545"},{"Location":"STEVES BURGERS WEST","Address":"240 S Sanderson Ave","City":"Hemet","State":"CA","Zip":"92545"},{"Location":"SUPPORTING UNLIMITED","Address":"33708 Catlin Ave","City":"Hemet","State":"CA","Zip":"92545"},{"Location":"SUPPORTING UNLIMITED POSSIBLIT","Address":"26245 White Ave","City":"Hemet","State":"CA","Zip":"92545"},{"Location":"TELEMONTEZ","Address":"1721 W Florida Ave","City":"Hemet","State":"CA","Zip":"92545"},{"Location":"THE PRESS ENTERPRISE","Address":"3400 Wentworth Dr","City":"Hemet","State":"CA","Zip":"92545"},{"Location":"VIP AUTOS","Address":"4291 W Florida Ave","City":"Hemet","State":"CA","Zip":"92545"},{"Location":"WWFEED","Address":"26120 Cordoba Dr","City":"Hemet","State":"CA","Zip":"92545"},{"Location":"ALLEN TIRE COMPANY","Address":"1772 W Florida Ave","City":"Hemet","State":"CA","Zip":"92545"},{"Location":"AMERICAN MEDICAL RESPONSE","Address":"175 N Cawston Ave 155","City":"Hemet","State":"CA","Zip":"92545"},{"Location":"APPLEBEE'S #2150030","Address":"2515 W Florida Ave","City":"Hemet","State":"CA","Zip":"92545"},{"Location":"ARROWHEAD ORTHOPAEDICS 5","Address":"3889 W Stetson Ave 100","City":"Hemet","State":"CA","Zip":"92545"},{"Location":"BG  THOROUGHBRED FARM","Address":"3001 W Esplanade Ave","City":"Hemet","State":"CA","Zip":"92545"},{"Location":"BUFFALO WILD WINGS #0455","Address":"3575 W Stetson Ave","City":"Hemet","State":"CA","Zip":"92545"},{"Location":"CHILI'S #1093","Address":"2100 W Florida Ave","City":"Hemet","State":"CA","Zip":"92545"},{"Location":"CIGZONE","Address":"3221 W Florida Ave","City":"Hemet","State":"CA","Zip":"92545"},{"Location":"COLORTYME HEMET","Address":"3000 W Florida Ave","City":"Hemet","State":"CA","Zip":"92545"},{"Location":"CULLINS CORPRATICE","Address":"2940 W Florida Ave B","City":"Hemet","State":"CA","Zip":"92545"},{"Location":"DAVITA #878 HEMET","Address":"3050 W Florida Ave","City":"Hemet","State":"CA","Zip":"92545"},{"Location":"DIAMOND VALLEY HONDA","Address":"300 Carriage Cir","City":"Hemet","State":"CA","Zip":"92545"},{"Location":"DICKEYS BARBECUE PIT","Address":"1127 S Sanderson Ave","City":"Hemet","State":"CA","Zip":"92545"},{"Location":"FITNESS 19 HEMET","Address":"1970 W Florida Ave","City":"Hemet","State":"CA","Zip":"92545"},{"Location":"FRESH AND YUMMY","Address":"3112 W Florida Ave","City":"Hemet","State":"CA","Zip":"92545"},{"Location":"HEMET DENTAL","Address":"2721 W Florida Ave","City":"Hemet","State":"CA","Zip":"92545"},{"Location":"HEMET UNIFIED SCHOOL DISTRICT","Address":"2085 W Acacia Ave","City":"Hemet","State":"CA","Zip":"92545"},{"Location":"JENNIE'S DONUTS","Address":"3228 W Florida Ave","City":"Hemet","State":"CA","Zip":"92545"},{"Location":"JERSEY MIKES SUBS","Address":"719 S Sanderson Ave","City":"Hemet","State":"CA","Zip":"92545"},{"Location":"JIFFY LUBE 3187","Address":"330 N Sanderson Ave","City":"Hemet","State":"CA","Zip":"92545"},{"Location":"JUST FOR FUN","Address":"1111 S Sanderson Ave","City":"Hemet","State":"CA","Zip":"92545"},{"Location":"LA FITNESS #88","Address":"220 W. Sanderson Ave","City":"Hemet","State":"CA","Zip":"92545"},{"Location":"LA FOGATA MEXICAN RESTAURANT","Address":"2940 W Florida Ave","City":"Hemet","State":"CA","Zip":"92545"},{"Location":"LOS VAQUEROS","Address":"3909 W Florida Ave","City":"Hemet","State":"CA","Zip":"92545"},{"Location":"MARIE CALLENDARS","Address":"3969 W Florida Ave","City":"Hemet","State":"CA","Zip":"92545"},{"Location":"MCDONALDS","Address":"2321 W Florida Ave","City":"Hemet","State":"CA","Zip":"92545"},{"Location":"NO LIMIT CASINO EVENTS","Address":"1489 Hummingbird Way","City":"Hemet","State":"CA","Zip":"92545"},{"Location":"PEP BOYS","Address":"2050 W Florida Ave","City":"Hemet","State":"CA","Zip":"92545"},{"Location":"RAMONA AUTO BODY","Address":"3800 Wentworth Dr","City":"Hemet","State":"CA","Zip":"92545"},{"Location":"RAMONA TIRE","Address":"2350 W Menlo Ave","City":"Hemet","State":"CA","Zip":"92545"},{"Location":"RED ROBIN #592","Address":"1990 W Florida Ave","City":"Hemet","State":"CA","Zip":"92545"},{"Location":"RIVERSIDE TRANSIT AGENCY HEMET","Address":"700 Scaramella Cir","City":"Hemet","State":"CA","Zip":"92545"},{"Location":"SEARS AUTO CENTER","Address":"2200 W Florida Ave","City":"Hemet","State":"CA","Zip":"92545"},{"Location":"SPICY SUSHI","Address":"3353 W Florida Ave","City":"Hemet","State":"CA","Zip":"92545"},{"Location":"STEER N STEIN RESTAURANT","Address":"3104 W Florida Ave","City":"Hemet","State":"CA","Zip":"92545"},{"Location":"STEVES BURGERS WEST","Address":"240 S Sanderson Ave","City":"Hemet","State":"CA","Zip":"92545"},{"Location":"SUPPORTING UNLIMITED","Address":"33708 Catlin Ave","City":"Hemet","State":"CA","Zip":"92545"},{"Location":"SUPPORTING UNLIMITED POSSIBLIT","Address":"26245 White Ave","City":"Hemet","State":"CA","Zip":"92545"},{"Location":"TELEMONTEZ","Address":"1721 W Florida Ave","City":"Hemet","State":"CA","Zip":"92545"},{"Location":"THE PRESS ENTERPRISE","Address":"3400 Wentworth Dr","City":"Hemet","State":"CA","Zip":"92545"},{"Location":"VIP AUTOS","Address":"4291 W Florida Ave","City":"Hemet","State":"CA","Zip":"92545"},{"Location":"WWFEED","Address":"26120 Cordoba Dr","City":"Hemet","State":"CA","Zip":"92545"}]