[{"Location":"TAQUERIA FUENTES","Address":"22574 Alexander Blvd","City":"La Quinta","State":"CA","Zip":"92553"},{"Location":"24 HOUR FITNESS #131","Address":"23750 Alessandro Blvd","City":"Moreno Valley","State":"CA","Zip":"92553"},{"Location":"24 HOUR FITNESS #925","Address":"12660 Day St","City":"Moreno Valley","State":"CA","Zip":"92553"},{"Location":"3 BROS TATTOO","Address":"24725 Alessandro Blvd 153","City":"Moreno Valley","State":"CA","Zip":"92553"},{"Location":"ACAPULCO 0068","Address":"12625 Frederick St T","City":"Moreno Valley","State":"CA","Zip":"92553"},{"Location":"AHALENA HOOKA LOUNGE","Address":"24150 Alessandro Blvd B4","City":"Moreno Valley","State":"CA","Zip":"92553"},{"Location":"ALESSANDRO AUTO SPA INC","Address":"23615 Alessandro Blvd","City":"Moreno Valley","State":"CA","Zip":"92553"},{"Location":"ALEXIS BARBER AND BEAUTY SHOP","Address":"24490 Sunnymead Blvd 104","City":"Moreno Valley","State":"CA","Zip":"92553"},{"Location":"ALL DISCOUNT INSURANCE","Address":"22484 Alessandro Blvd","City":"Moreno Valley","State":"CA","Zip":"92553"},{"Location":"ALLSTATE INSURANCE COMPA","Address":"25652 Alessandro Blvd","City":"Moreno Valley","State":"CA","Zip":"92553"},{"Location":"AMERICAN LEGION POST #574","Address":"13876 Old 215 Frontage Rd","City":"Moreno Valley","State":"CA","Zip":"92553"},{"Location":"AMML CORP","Address":"23330 Sunnymead Blvd","City":"Moreno Valley","State":"CA","Zip":"92553"},{"Location":"APPLEBEE'S #2150035","Address":"12600 Day St","City":"Moreno Valley","State":"CA","Zip":"92553"},{"Location":"ARTISTICALLY YOURS BARBE","Address":"24150 Alessandro Blvd 1","City":"Moreno Valley","State":"CA","Zip":"92553"},{"Location":"AYERS HOTEL SPA","Address":"12631 Memorial Way","City":"Moreno Valley","State":"CA","Zip":"92553"},{"Location":"BAHAMA MAMA'S","Address":"24801 Sunnymead Blvd","City":"Moreno Valley","State":"CA","Zip":"92553"},{"Location":"BANIG FILIPINO RESTAURANT","Address":"23962 Alessandro Blvd D","City":"Moreno Valley","State":"CA","Zip":"92553"},{"Location":"BAS RECYCLING INC","Address":"14050 Day St","City":"Moreno Valley","State":"CA","Zip":"92553"},{"Location":"BIG GUY'S","Address":"24735 Alessandro Blvd","City":"Moreno Valley","State":"CA","Zip":"92553"},{"Location":"BIG O TIRES","Address":"23930 Sunnymead Blvd","City":"Moreno Valley","State":"CA","Zip":"92553"},{"Location":"BJS RESTAURANT #441","Address":"22920 Centerpoint Dr","City":"Moreno Valley","State":"CA","Zip":"92553"},{"Location":"BRANDONS DINER INC","Address":"24626 Sunnymead Blvd","City":"Moreno Valley","State":"CA","Zip":"92553"},{"Location":"BRIGHT NOW DENTAL","Address":"12420 Day St B4","City":"Moreno Valley","State":"CA","Zip":"92553"},{"Location":"BRUNSWICK #871","Address":"24666 Sunnymead Blvd","City":"Moreno Valley","State":"CA","Zip":"92553"},{"Location":"BUDS MORENO VALLEY TIRE PROS","Address":"22510 Alessandro Blvd","City":"Moreno Valley","State":"CA","Zip":"92553"},{"Location":"BUFFALO WILD WINGS #3511","Address":"12450 Day St","City":"Moreno Valley","State":"CA","Zip":"92553"},{"Location":"BYRON CHAVEZ","Address":"24170 Sunnymead Blvd B","City":"Moreno Valley","State":"CA","Zip":"92553"},{"Location":"CALI NAIL","Address":"12625 Frederick St E4","City":"Moreno Valley","State":"CA","Zip":"92553"},{"Location":"CALIENTE BAR & GRILL","Address":"23040 Alessandro Blvd","City":"Moreno Valley","State":"CA","Zip":"92553"},{"Location":"CARDENAS MARKET","Address":"25065 Sunnymead Blvd","City":"Moreno Valley","State":"CA","Zip":"92553"},{"Location":"CARDENAS MARKET 22","Address":"14930 Perris Blvd","City":"Moreno Valley","State":"CA","Zip":"92553"},{"Location":"CERTIFIED TIRE","Address":"23920 Alessandro Blvd A","City":"Moreno Valley","State":"CA","Zip":"92553"},{"Location":"CHILI'S #0169","Address":"12525a Frederick St","City":"Moreno Valley","State":"CA","Zip":"92553"},{"Location":"CHRISTINE ZAPANTA DDS","Address":"24021 Alessandro Blvd A120","City":"Moreno Valley","State":"CA","Zip":"92553"},{"Location":"CHUYITAS","Address":"24021 Alessandro Blvd 101","City":"Moreno Valley","State":"CA","Zip":"92553"},{"Location":"CLEANING SERVICE","Address":"7169 Old 215 Frontage Rd 15","City":"Moreno Valley","State":"CA","Zip":"92553"},{"Location":"CONTROL INSURANCE SERVICES","Address":"25030 Alessandro Blvd H","City":"Moreno Valley","State":"CA","Zip":"92553"},{"Location":"D.A.S.S. BARBER SHOP","Address":"24090 Sunnymead Boulevard%2C Suite A","City":"Moreno Valley","State":"CA","Zip":"92553"},{"Location":"D.A.S.S. BARBER SHOP","Address":"24090 Sunnymead Boulevard%2C Sui","City":"Moreno Valley","State":"CA","Zip":"92553"},{"Location":"DAVITA #2285 CANYON SPRINGS","Address":"22555 Alessandro Blvd","City":"Moreno Valley","State":"CA","Zip":"92553"},{"Location":"DAVITA #5787 MORENO VALLEY","Address":"22620 Goldencrest Dr","City":"Moreno Valley","State":"CA","Zip":"92553"},{"Location":"DOTSON ADVERTISING","Address":"24090 Sunnymead Blvd A","City":"Moreno Valley","State":"CA","Zip":"92553"},{"Location":"EMPIRES BARBER SHOP","Address":"24557 Alessandro Blvd","City":"Moreno Valley","State":"CA","Zip":"92553"},{"Location":"ESTHER ALVAREZ BARBERSHOP","Address":"24072 Postal Ave","City":"Moreno Valley","State":"CA","Zip":"92553"},{"Location":"FAMILY DENTAL OFFICE","Address":"24760 Sunnymead Blvd 103","City":"Moreno Valley","State":"CA","Zip":"92553"},{"Location":"FAMILY DENTISTRY","Address":"23962 Alexendro R","City":"Moreno Valley","State":"CA","Zip":"92553"},{"Location":"FEDERAL MOGUL 4","Address":"22750 March Memorial Dr","City":"Moreno Valley","State":"CA","Zip":"92553"},{"Location":"FIRESTONE #023116","Address":"24673 Alessandro Blvd","City":"Moreno Valley","State":"CA","Zip":"92553"},{"Location":"FLAVA BARBER SHOP & HAIR SHOP","Address":"24150 Allessandro Boulevard Su","City":"Moreno Valley","State":"CA","Zip":"92553"},{"Location":"FLAVA BARBER SHOP & HAIR SHOP","Address":"24150 Allessandro Boulevard Suite B-1","City":"Moreno Valley","State":"CA","Zip":"92553"},{"Location":"GENTLE DENTAL MV","Address":"12800 Heacock St A1","City":"Moreno Valley","State":"CA","Zip":"92553"},{"Location":"GONZALEZ BEAUTY SALON","Address":"24173 Postal Ave","City":"Moreno Valley","State":"CA","Zip":"92553"},{"Location":"HAIR CREATIONS","Address":"23623 Sunnymead Blvd B","City":"Moreno Valley","State":"CA","Zip":"92553"},{"Location":"HAIR PROFESSIONAL BARBER","Address":"24320 Sunnymead Blvd 104a","City":"Moreno Valley","State":"CA","Zip":"92553"},{"Location":"HARBOR FREIGHT TOOLS","Address":"23400 March Memorial Dr","City":"Moreno Valley","State":"CA","Zip":"92553"},{"Location":"HIGHWAY CHURCH","Address":"13958 Old Frontage Road","City":"Moreno Valley","State":"CA","Zip":"92553"},{"Location":"HOGGS GOURMET GRILL","Address":"12625 Frederick St E9","City":"Moreno Valley","State":"CA","Zip":"92553"},{"Location":"HP NAILS AND SPA","Address":"23871 Sunnymead Blvd","City":"Moreno Valley","State":"CA","Zip":"92553"},{"Location":"HUARACHES OJO DE AGUA","Address":"14920 Perris Blvd 1","City":"Moreno Valley","State":"CA","Zip":"92553"},{"Location":"IMMANUEL  SOBRIETY","Address":"23760 Betts Pl","City":"Moreno Valley","State":"CA","Zip":"92553"},{"Location":"JAZMINE BEAUTY SALOON","Address":"22790 Alessandro Blvd A","City":"Moreno Valley","State":"CA","Zip":"92553"},{"Location":"JCPENNY","Address":"22450 Town Cir","City":"Moreno Valley","State":"CA","Zip":"92553"},{"Location":"JERSEY MIKES SUBS","Address":"12625 Frederick St 103","City":"Moreno Valley","State":"CA","Zip":"92553"},{"Location":"JOHNS BARBER SHOP","Address":"22405 Alessandro Blvd 101a","City":"Moreno Valley","State":"CA","Zip":"92553"},{"Location":"KEYSTONE MORENO VALLEY","Address":"24419 Myers Ave","City":"Moreno Valley","State":"CA","Zip":"92553"},{"Location":"KOUROUMA","Address":"12595 Heacock St","City":"Moreno Valley","State":"CA","Zip":"92553"},{"Location":"LA BELLA DIVA HAIR SALON","Address":"23663 Sunnymead Blvd B","City":"Moreno Valley","State":"CA","Zip":"92553"},{"Location":"LA BUENA MARKET","Address":"21942 Allessandro Boulevare","City":"Moreno Valley","State":"CA","Zip":"92553"},{"Location":"LA NAILS","Address":"25155 Sunnymead Blvd G8","City":"Moreno Valley","State":"CA","Zip":"92553"},{"Location":"LENNYS AUTO REPAIR","Address":"24320 Sunnymead Blvd 105","City":"Moreno Valley","State":"CA","Zip":"92553"},{"Location":"LIMON JOSE M A PROFESSIONAL","Address":"22635 Alessandro Blvd A","City":"Moreno Valley","State":"CA","Zip":"92553"},{"Location":"LITTLE BEIJING","Address":"24875 Alessandro Blvd 1","City":"Moreno Valley","State":"CA","Zip":"92553"},{"Location":"LOCKER ROOM BY LIDS 8192","Address":"22500 Town Cir","City":"Moreno Valley","State":"CA","Zip":"92553"},{"Location":"LUCKY GREEK","Address":"23887 Sunnymead Blvd A","City":"Moreno Valley","State":"CA","Zip":"92553"},{"Location":"MACY'S WEST 540 BR","Address":"22400 Town Gate Cir","City":"Moreno Valley","State":"CA","Zip":"92553"},{"Location":"MARSHALLS SCOTT STATE FARM INS","Address":"23020 Atlantic Cir","City":"Moreno Valley","State":"CA","Zip":"92553"},{"Location":"MORENO FISH","Address":"13373 Perris Blvd 414","City":"Moreno Valley","State":"CA","Zip":"92553"},{"Location":"MORENO VALLEY CMF","Address":"23080 Alessandro Blvd 202","City":"Moreno Valley","State":"CA","Zip":"92553"},{"Location":"MORENO VALLEY FIRST","Address":"24084 Postal Ave","City":"Moreno Valley","State":"CA","Zip":"92553"},{"Location":"MYERS ACRES APARTMENTS","Address":"24196 Myers Ave 1","City":"Moreno Valley","State":"CA","Zip":"92553"},{"Location":"NAILS TJ INC","Address":"22500 Town Cir 1189","City":"Moreno Valley","State":"CA","Zip":"92553"},{"Location":"NEW BURGERTOWN","Address":"23260 Sunnymead Blvd","City":"Moreno Valley","State":"CA","Zip":"92553"},{"Location":"NGUYEN","Address":"24905 Sunnymead Blvd D","City":"Moreno Valley","State":"CA","Zip":"92553"},{"Location":"OLIVEWOOD PLAZA DENTAL","Address":"23318 Olive Wood Plaza Dr Ab","City":"Moreno Valley","State":"CA","Zip":"92553"},{"Location":"OUR PLACE RESTAURANT","Address":"23935 Sunnymead Blvd","City":"Moreno Valley","State":"CA","Zip":"92553"},{"Location":"OUTBACK STEAKHOUSE - MORENO","Address":"22680 Centerpoint Dr","City":"Moreno Valley","State":"CA","Zip":"92553"},{"Location":"PAPAYA VALLEY THAI","Address":"24528 Sunnymead Blvd K","City":"Moreno Valley","State":"CA","Zip":"92553"},{"Location":"PARIS NAILS","Address":"24905 Sunnymead Boulevard%2C Suite D","City":"Moreno Valley","State":"CA","Zip":"92553"},{"Location":"PARIS NAILS","Address":"24905 Sunnymead Boulevard%2C Sui","City":"Moreno Valley","State":"CA","Zip":"92553"},{"Location":"PEP BOYS","Address":"23470 Sunnymead Blvd","City":"Moreno Valley","State":"CA","Zip":"92553"},{"Location":"PLANET MV LLC","Address":"12625 Frederick St D","City":"Moreno Valley","State":"CA","Zip":"92553"},{"Location":"PLAZA DENTAL","Address":"23767 Sunnymead Blvd D","City":"Moreno Valley","State":"CA","Zip":"92553"},{"Location":"PURPOSELY CHOSEN INC","Address":"25030 Ocotillo Ave","City":"Moreno Valley","State":"CA","Zip":"92553"},{"Location":"QUICK STOP SUBS","Address":"14420 Elsworth St # 117","City":"Moreno Valley","State":"CA","Zip":"92553"},{"Location":"RICE & SPICE","Address":"22720 Alessandro Blvd","City":"Moreno Valley","State":"CA","Zip":"92553"},{"Location":"ROUND 1","Address":"22500 Town Cir 2030","City":"Moreno Valley","State":"CA","Zip":"92553"},{"Location":"SONORA GRILL","Address":"23962 Alessandro Blvd V","City":"Moreno Valley","State":"CA","Zip":"92553"},{"Location":"SPORTS AUTHORITY 645","Address":"12500 Day St","City":"Moreno Valley","State":"CA","Zip":"92553"},{"Location":"SUPPORTING UNLIMITED INC","Address":"14161 Elsworth St","City":"Moreno Valley","State":"CA","Zip":"92553"},{"Location":"SUPPORTING UNLIMITED INC1","Address":"14137 Business Center Dr","City":"Moreno Valley","State":"CA","Zip":"92553"},{"Location":"THE FLAMMING GRILL","Address":"22420 March Memorial Dr 104","City":"Moreno Valley","State":"CA","Zip":"92553"},{"Location":"THE RAIDERS IMAGE #947","Address":"22500 Town Cir 1075","City":"Moreno Valley","State":"CA","Zip":"92553"},{"Location":"TIJUANAS TACOS","Address":"24578 Sunnymead Blvd F","City":"Moreno Valley","State":"CA","Zip":"92553"},{"Location":"TUSCANY VILLAGE","Address":"25055 Delphinium Ave","City":"Moreno Valley","State":"CA","Zip":"92553"},{"Location":"UNFI","Address":"22150 Goldencrest Dr","City":"Moreno Valley","State":"CA","Zip":"92553"},{"Location":"US LAUNDRY","Address":"24775 Alessandro Blvd 4","City":"Moreno Valley","State":"CA","Zip":"92553"},{"Location":"V.T. REALTY & FINANCIAL SERVICES","Address":"24371 Sunnymead Boulevard","City":"Moreno Valley","State":"CA","Zip":"92553"},{"Location":"VAL HAIR BARBER & NAIL","Address":"12774 Perris Blvd B","City":"Moreno Valley","State":"CA","Zip":"92553"},{"Location":"VFW","Address":"22616 Alessandro Blvd","City":"Moreno Valley","State":"CA","Zip":"92553"},{"Location":"VIETNAM DELI RESTAURANT","Address":"23715 Sunnymead Blvd B","City":"Moreno Valley","State":"CA","Zip":"92553"},{"Location":"VT REALTY FINANCIAL SERVICES","Address":"24371 Sunnymead Blvd","City":"Moreno Valley","State":"CA","Zip":"92553"},{"Location":"WELLS FARGO HOME MORTGAGE","Address":"23883 Sunnymead Blvd","City":"Moreno Valley","State":"CA","Zip":"92553"},{"Location":"WILLHITE","Address":"23031 Sunnymead Blvd B","City":"Moreno Valley","State":"CA","Zip":"92553"},{"Location":"WINGSTOP","Address":"24825 Alessandro Blvd 1","City":"Moreno Valley","State":"CA","Zip":"92553"},{"Location":"XCLUSIVE CUTZ BARBER SHOP","Address":"23962 Alessandro Blvd H","City":"Moreno Valley","State":"CA","Zip":"92553"},{"Location":"YOGENDRA PATEL","Address":"12980 Frederick St Stej","City":"Moreno Valley","State":"CA","Zip":"92553"},{"Location":"YOUTH OPPORTUNITY CENTER","Address":"22635 Alessandro Blvd","City":"Moreno Valley","State":"CA","Zip":"92553"},{"Location":"ZAPATAS","Address":"13373 Perris Blvd","City":"Moreno Valley","State":"CA","Zip":"92553"}]