[{"Location":"ALBERTITAS MEXICAN FOOD","Address":"12256 Perris Blvd A","City":"Moreno Valley","State":"CA","Zip":"92557"},{"Location":"ANGELA NAILS & SPA","Address":"23940 Ironwood Ave F","City":"Moreno Valley","State":"CA","Zip":"92557"},{"Location":"CERTIFIED TIRES","Address":"23135 Hemlock Ave","City":"Moreno Valley","State":"CA","Zip":"92557"},{"Location":"CROSS WORD CHRISTIAN CHURCH","Address":"21401 Box Springs Rd","City":"Moreno Valley","State":"CA","Zip":"92557"},{"Location":"CROSSWORD CHRISTIAN CHURCH","Address":"21405 Box Springs Rd","City":"Moreno Valley","State":"CA","Zip":"92557"},{"Location":"FITNESS 19 MORENO VALLEY","Address":"12220 Perris Blvd B","City":"Moreno Valley","State":"CA","Zip":"92557"},{"Location":"GREEN ONION MEXICAN RESTAURANT","Address":"12125 Day St V208","City":"Moreno Valley","State":"CA","Zip":"92557"},{"Location":"HIBACHI BUFFET","Address":"12125 Day St M415","City":"Moreno Valley","State":"CA","Zip":"92557"},{"Location":"JOSE MEXICAN FOOD","Address":"11875 Pigeon Pass Rd","City":"Moreno Valley","State":"CA","Zip":"92557"},{"Location":"LIVING WAY CHRISTIAN FELLOWSHI","Address":"12125 Day St U101","City":"Moreno Valley","State":"CA","Zip":"92557"},{"Location":"LORENZO'S PIZZA","Address":"23960 Ironwood Ave E","City":"Moreno Valley","State":"CA","Zip":"92557"},{"Location":"NUMBER 1 NAILS","Address":"12190 Perris Blvd","City":"Moreno Valley","State":"CA","Zip":"92557"},{"Location":"NV HAIR STUDIOS","Address":"23940 Ironwood Ave G","City":"Moreno Valley","State":"CA","Zip":"92557"},{"Location":"PORKYS PIZZA","Address":"12235 Heacock St G","City":"Moreno Valley","State":"CA","Zip":"92557"},{"Location":"S BAR AND GRILL","Address":"23579 Sunnymead Road Pkwy 119","City":"Moreno Valley","State":"CA","Zip":"92557"},{"Location":"SAGE COLLEGE","Address":"12125 Day St Bldgc","City":"Moreno Valley","State":"CA","Zip":"92557"},{"Location":"STATUS NIGHTCLUB","Address":"12125 Day St","City":"Moreno Valley","State":"CA","Zip":"92557"},{"Location":"THE ARBORS APARTMENTS","Address":"22985 Climbing Rose Dr 100","City":"Moreno Valley","State":"CA","Zip":"92557"},{"Location":"THE BENEVOLENT #2697","Address":"12125 Day St","City":"Moreno Valley","State":"CA","Zip":"92557"},{"Location":"TW FASSIONS","Address":"23185 Hemlock Ave","City":"Moreno Valley","State":"CA","Zip":"92557"},{"Location":"UNITED DJJ MMA SCHOOL","Address":"12125 Day St","City":"Moreno Valley","State":"CA","Zip":"92557"},{"Location":"VALLEY NAILS","Address":"12220 Pigeon Pass Rd","City":"Moreno Valley","State":"CA","Zip":"92557"},{"Location":"WATSON TAX & FINANCIAL","Address":"12199 Heacock St 1","City":"Moreno Valley","State":"CA","Zip":"92557"},{"Location":"WILLIAMS & WILLIAMS INCO","Address":"12244 Orchid Ln D","City":"Moreno Valley","State":"CA","Zip":"92557"}]