[{"Location":"","Address":"28786 Brodiaea Ave","City":"Moreno Valley","State":"CA","Zip":"92555"},{"Location":"CAFE GOSSIP","Address":"26150 Iris Ave","City":"Moreno Valley","State":"CA","Zip":"92555"},{"Location":"CHILI'S #1428","Address":"27050 Fir Ave","City":"Moreno Valley","State":"CA","Zip":"92555"},{"Location":"COUNTY OF RIVERSIDE","Address":"14375 Nason St 207","City":"Moreno Valley","State":"CA","Zip":"92555"},{"Location":"DAVITA #879 VALLEY VIEW","Address":"26900 Cactus Ave","City":"Moreno Valley","State":"CA","Zip":"92555"},{"Location":"FMC 90750000","Address":"27300 Iris Ave","City":"Moreno Valley","State":"CA","Zip":"92555"},{"Location":"JERSEY MIKES SUBS2","Address":"26150 Iris Ave 3","City":"Moreno Valley","State":"CA","Zip":"92555"},{"Location":"KAISER MV MOB 1","Address":"27300 Iris Ave","City":"Moreno Valley","State":"CA","Zip":"92555"},{"Location":"KAISER PERMANENTE MOB","Address":"27200 Iris Ave","City":"Moreno Valley","State":"CA","Zip":"92555"},{"Location":"KOHL'S #1125","Address":"27200 Eucalyptus Ave","City":"Moreno Valley","State":"CA","Zip":"92555"},{"Location":"LA FITNESS #6152","Address":"27610 Eucalyptus Ave","City":"Moreno Valley","State":"CA","Zip":"92555"},{"Location":"MAIN STREET FISH","Address":"27130 Eucalyptus Ave","City":"Moreno Valley","State":"CA","Zip":"92555"},{"Location":"MICHAEL COUSINS","Address":"26755 Ironwood Ave","City":"Moreno Valley","State":"CA","Zip":"92555"},{"Location":"MOSS BROS BUICK","Address":"12675 Auto Mall Dr","City":"Moreno Valley","State":"CA","Zip":"92555"},{"Location":"MOSS BROS CHEVROLET","Address":"12625 Auto Mall Dr","City":"Moreno Valley","State":"CA","Zip":"92555"},{"Location":"MOSS BROS CHRYSTER JEEP DODGE","Address":"27810 Eucalyptus Ave","City":"Moreno Valley","State":"CA","Zip":"92555"},{"Location":"MOSS BROS HONDA","Address":"27990 Eucalyptus Ave","City":"Moreno Valley","State":"CA","Zip":"92555"},{"Location":"MOSS BROS TOYOTA","Address":"12630 Motor Way","City":"Moreno Valley","State":"CA","Zip":"92555"},{"Location":"MOSS BROTHERS VOLKSWAGON","Address":"27750 Eucalyptus Ave","City":"Moreno Valley","State":"CA","Zip":"92555"},{"Location":"MOUNTAIN VIEW COMMUNITY ASOC","Address":"28855 Rainier Way","City":"Moreno Valley","State":"CA","Zip":"92555"},{"Location":"NCADD LONG BEACH 2","Address":"28231 Brodiaea Ave","City":"Moreno Valley","State":"CA","Zip":"92555"},{"Location":"ROUND TABLE-EUCALYPTUS","Address":"27140 Eucalyptus Ave A","City":"Moreno Valley","State":"CA","Zip":"92555"},{"Location":"SCHOOLS FIRST FEDERAL CREDIT U","Address":"12831 Moreno Beach Dr","City":"Moreno Valley","State":"CA","Zip":"92555"},{"Location":"SKECHERS USA DIST. CTR.","Address":"29800 Eucalyptus St","City":"Moreno Valley","State":"CA","Zip":"92555"},{"Location":"SOUTHERN CALIFORNIA LANDSCAPE","Address":"17520 Bridge St","City":"Moreno Valley","State":"CA","Zip":"92555"},{"Location":"SUSHI KINOYA","Address":"26150 Iris Ave 4","City":"Moreno Valley","State":"CA","Zip":"92555"},{"Location":"US  BANK","Address":"27020 Fir Ave","City":"Moreno Valley","State":"CA","Zip":"92555"},{"Location":"WAHID KARAS","Address":"26150 Iris Ave","City":"Moreno Valley","State":"CA","Zip":"92555"},{"Location":"","Address":"28786 Brodiaea Ave","City":"Moreno Valley","State":"CA","Zip":"92555"},{"Location":"CAFE GOSSIP","Address":"26150 Iris Ave","City":"Moreno Valley","State":"CA","Zip":"92555"},{"Location":"CHILI'S #1428","Address":"27050 Fir Ave","City":"Moreno Valley","State":"CA","Zip":"92555"},{"Location":"COUNTY OF RIVERSIDE","Address":"14375 Nason St 207","City":"Moreno Valley","State":"CA","Zip":"92555"},{"Location":"DAVITA #879 VALLEY VIEW","Address":"26900 Cactus Ave","City":"Moreno Valley","State":"CA","Zip":"92555"},{"Location":"FMC 90750000","Address":"27300 Iris Ave","City":"Moreno Valley","State":"CA","Zip":"92555"},{"Location":"JERSEY MIKES SUBS2","Address":"26150 Iris Ave 3","City":"Moreno Valley","State":"CA","Zip":"92555"},{"Location":"KAISER MV MOB 1","Address":"27300 Iris Ave","City":"Moreno Valley","State":"CA","Zip":"92555"},{"Location":"KAISER PERMANENTE MOB","Address":"27200 Iris Ave","City":"Moreno Valley","State":"CA","Zip":"92555"},{"Location":"KOHL'S #1125","Address":"27200 Eucalyptus Ave","City":"Moreno Valley","State":"CA","Zip":"92555"},{"Location":"LA FITNESS #6152","Address":"27610 Eucalyptus Ave","City":"Moreno Valley","State":"CA","Zip":"92555"},{"Location":"MAIN STREET FISH","Address":"27130 Eucalyptus Ave","City":"Moreno Valley","State":"CA","Zip":"92555"},{"Location":"MICHAEL COUSINS","Address":"26755 Ironwood Ave","City":"Moreno Valley","State":"CA","Zip":"92555"},{"Location":"MOSS BROS BUICK","Address":"12675 Auto Mall Dr","City":"Moreno Valley","State":"CA","Zip":"92555"},{"Location":"MOSS BROS CHEVROLET","Address":"12625 Auto Mall Dr","City":"Moreno Valley","State":"CA","Zip":"92555"},{"Location":"MOSS BROS CHRYSTER JEEP DODGE","Address":"27810 Eucalyptus Ave","City":"Moreno Valley","State":"CA","Zip":"92555"},{"Location":"MOSS BROS HONDA","Address":"27990 Eucalyptus Ave","City":"Moreno Valley","State":"CA","Zip":"92555"},{"Location":"MOSS BROS TOYOTA","Address":"12630 Motor Way","City":"Moreno Valley","State":"CA","Zip":"92555"},{"Location":"MOSS BROTHERS VOLKSWAGON","Address":"27750 Eucalyptus Ave","City":"Moreno Valley","State":"CA","Zip":"92555"},{"Location":"MOUNTAIN VIEW COMMUNITY ASOC","Address":"28855 Rainier Way","City":"Moreno Valley","State":"CA","Zip":"92555"},{"Location":"NCADD LONG BEACH 2","Address":"28231 Brodiaea Ave","City":"Moreno Valley","State":"CA","Zip":"92555"},{"Location":"ROUND TABLE-EUCALYPTUS","Address":"27140 Eucalyptus Ave A","City":"Moreno Valley","State":"CA","Zip":"92555"},{"Location":"SCHOOLS FIRST FEDERAL CREDIT U","Address":"12831 Moreno Beach Dr","City":"Moreno Valley","State":"CA","Zip":"92555"},{"Location":"SKECHERS USA DIST. CTR.","Address":"29800 Eucalyptus St","City":"Moreno Valley","State":"CA","Zip":"92555"},{"Location":"SOUTHERN CALIFORNIA LANDSCAPE","Address":"17520 Bridge St","City":"Moreno Valley","State":"CA","Zip":"92555"},{"Location":"SUSHI KINOYA","Address":"26150 Iris Ave 4","City":"Moreno Valley","State":"CA","Zip":"92555"},{"Location":"WAHID KARAS","Address":"26150 Iris Ave","City":"Moreno Valley","State":"CA","Zip":"92555"}]