[{"Location":"AMAZON 3","Address":"24208 San Michele Rd","City":"Moreno Valley","State":"CA","Zip":"92551"},{"Location":"BIG GUYS PIZZA%2CPASTA & SPORTS","Address":"27435 Alessandro Blvd","City":"Moreno Valley","State":"CA","Zip":"92551"},{"Location":"CERTIFIED TIRE","Address":"16190 Perris Blvd","City":"Moreno Valley","State":"CA","Zip":"92551"},{"Location":"EL RANCHO RESTAURANT","Address":"15928 Perris Blvd","City":"Moreno Valley","State":"CA","Zip":"92551"},{"Location":"FIRST IMPRESSION BARBERS","Address":"25025 Red Maple Ln 104","City":"Moreno Valley","State":"CA","Zip":"92551"},{"Location":"FITNESS 19","Address":"16080 Perris Blvd","City":"Moreno Valley","State":"CA","Zip":"92551"},{"Location":"GOLDEN STATE FC LLC","Address":"24300 Nandina Ave","City":"Moreno Valley","State":"CA","Zip":"92551"},{"Location":"HARBOR FREIGHT TOOLS2","Address":"24870 Mandina Ave","City":"Moreno Valley","State":"CA","Zip":"92551"},{"Location":"LAKESIDE DENTAL GROUP","Address":"25920 Iris Ave 14a","City":"Moreno Valley","State":"CA","Zip":"92551"},{"Location":"LOWES CHF 1450","Address":"16850 Heacock St","City":"Moreno Valley","State":"CA","Zip":"92551"},{"Location":"PHASE TWO","Address":"25435 Mariposa Ave","City":"Moreno Valley","State":"CA","Zip":"92551"},{"Location":"PIZZA FACTORY","Address":"25970 Iris Ave 1b","City":"Moreno Valley","State":"CA","Zip":"92551"},{"Location":"PROCTER  GAMBLE","Address":"16110 Cosmos St","City":"Moreno Valley","State":"CA","Zip":"92551"},{"Location":"RENE RESTAURANT","Address":"25020 Filaree Ave","City":"Moreno Valley","State":"CA","Zip":"92551"},{"Location":"ROSS DRESS FOR LESS","Address":"17800 Perris Blvd","City":"Moreno Valley","State":"CA","Zip":"92551"},{"Location":"RYDER","Address":"24950 Grove View Rd","City":"Moreno Valley","State":"CA","Zip":"92551"},{"Location":"RYDER INTEGRATED LOGISTICS","Address":"25300 Globe St","City":"Moreno Valley","State":"CA","Zip":"92551"},{"Location":"STATE FARM INSURANCE","Address":"15952 Perris Blvd","City":"Moreno Valley","State":"CA","Zip":"92551"},{"Location":"SUPER TARGET","Address":"27100 Eucalytpus St","City":"Moreno Valley","State":"CA","Zip":"92551"},{"Location":"VALLEY WIDE TOWING","Address":"24850 Rivard Rd","City":"Moreno Valley","State":"CA","Zip":"92551"},{"Location":"WALGREENS","Address":"17500 Perris Blvd","City":"Moreno Valley","State":"CA","Zip":"92551"},{"Location":"AMAZON 3","Address":"24208 San Michele Rd","City":"Moreno Valley","State":"CA","Zip":"92551"},{"Location":"BIG GUYS PIZZA%2CPASTA & SPORTS","Address":"27435 Alessandro Blvd","City":"Moreno Valley","State":"CA","Zip":"92551"},{"Location":"CERTIFIED TIRE","Address":"16190 Perris Blvd","City":"Moreno Valley","State":"CA","Zip":"92551"},{"Location":"EL RANCHO RESTAURANT","Address":"15928 Perris Blvd","City":"Moreno Valley","State":"CA","Zip":"92551"},{"Location":"FIRST IMPRESSION BARBERS","Address":"25025 Red Maple Ln 104","City":"Moreno Valley","State":"CA","Zip":"92551"},{"Location":"FITNESS 19","Address":"16080 Perris Blvd","City":"Moreno Valley","State":"CA","Zip":"92551"},{"Location":"GOLDEN STATE FC LLC","Address":"24300 Nandina Ave","City":"Moreno Valley","State":"CA","Zip":"92551"},{"Location":"HARBOR FREIGHT TOOLS2","Address":"24870 Mandina Ave","City":"Moreno Valley","State":"CA","Zip":"92551"},{"Location":"LAKESIDE DENTAL GROUP","Address":"25920 Iris Ave 14a","City":"Moreno Valley","State":"CA","Zip":"92551"},{"Location":"LOWES CHF 1450","Address":"16850 Heacock St","City":"Moreno Valley","State":"CA","Zip":"92551"},{"Location":"PHASE TWO","Address":"25435 Mariposa Ave","City":"Moreno Valley","State":"CA","Zip":"92551"},{"Location":"PIZZA FACTORY","Address":"25970 Iris Ave 1b","City":"Moreno Valley","State":"CA","Zip":"92551"},{"Location":"RENE RESTAURANT","Address":"25020 Filaree Ave","City":"Moreno Valley","State":"CA","Zip":"92551"},{"Location":"ROSS DRESS FOR LESS","Address":"17800 Perris Blvd","City":"Moreno Valley","State":"CA","Zip":"92551"},{"Location":"RYDER","Address":"24950 Grove View Rd","City":"Moreno Valley","State":"CA","Zip":"92551"},{"Location":"RYDER INTEGRATED LOGISTICS","Address":"25300 Globe St","City":"Moreno Valley","State":"CA","Zip":"92551"},{"Location":"STATE FARM INSURANCE","Address":"15952 Perris Blvd","City":"Moreno Valley","State":"CA","Zip":"92551"},{"Location":"SUPER TARGET","Address":"27100 Eucalytpus St","City":"Moreno Valley","State":"CA","Zip":"92551"},{"Location":"VALLEY WIDE TOWING","Address":"24850 Rivard Rd","City":"Moreno Valley","State":"CA","Zip":"92551"},{"Location":"WALGREENS","Address":"17500 Perris Blvd","City":"Moreno Valley","State":"CA","Zip":"92551"}]