[{"Location":"MOUNTAIN CENTER CAFE","Address":"29470 Us Highway 243","City":"Mountain Center","State":"CA","Zip":"92561"},{"Location":"RFD STATION 30","Address":"70080 State Highway 74","City":"Mountain Center","State":"CA","Zip":"92561"},{"Location":"RFD STATION 53","Address":"Po Box 2 Box 2","City":"Mountain Center","State":"CA","Zip":"92561"},{"Location":"SANTA ROSA CAHUILLA INDIANS","Address":"65200 State Highway 74","City":"Mountain Center","State":"CA","Zip":"92561"},{"Location":"US DEPARTMENT OF AGRICULTURE","Address":"28500 Hwy 243","City":"Mountain Center","State":"CA","Zip":"92561"},{"Location":"MOUNTAIN CENTER CAFE","Address":"29470 Us Highway 243","City":"Mountain Center","State":"CA","Zip":"92561"},{"Location":"RFD STATION 30","Address":"70080 State Highway 74","City":"Mountain Center","State":"CA","Zip":"92561"},{"Location":"RFD STATION 53","Address":"Po Box 2 Box 2","City":"Mountain Center","State":"CA","Zip":"92561"},{"Location":"SANTA ROSA CAHUILLA INDIANS","Address":"65200 State Highway 74","City":"Mountain Center","State":"CA","Zip":"92561"},{"Location":"US DEPARTMENT OF AGRICULTURE","Address":"28500 Hwy 243","City":"Mountain Center","State":"CA","Zip":"92561"}]