[{"Location":"1ST CLASS COLLISION","Address":"41729 Eastman Dr","City":"Murrieta","State":"CA","Zip":"92562"},{"Location":"A  &  A GAMES","Address":"40635 California Oaks Rd D","City":"Murrieta","State":"CA","Zip":"92562"},{"Location":"A CARINIS","Address":"25135 Madison Ave 105","City":"Murrieta","State":"CA","Zip":"92562"},{"Location":"A PLUS WALKIN URGENT CARE","Address":"41880 Kalmia St 100","City":"Murrieta","State":"CA","Zip":"92562"},{"Location":"APPLEBEE'S #2150032","Address":"24872 Madison Ave","City":"Murrieta","State":"CA","Zip":"92562"},{"Location":"ASHLEY FURNITURE","Address":"25125 Madison Ave 106","City":"Murrieta","State":"CA","Zip":"92562"},{"Location":"AUTO & TRUCK SERVICESINC","Address":"26871 Hobie Cir A3","City":"Murrieta","State":"CA","Zip":"92562"},{"Location":"BANC OF CALIFORNIA","Address":"25220 Hancock Ave Suite","City":"Murrieta","State":"CA","Zip":"92562"},{"Location":"BEAR CREEK GOLF CLUB","Address":"22640 Bear Creek Dr N","City":"Murrieta","State":"CA","Zip":"92562"},{"Location":"BEAR CREEK GOLF CLUB INC","Address":"33725 Sky High Dr","City":"Murrieta","State":"CA","Zip":"92562"},{"Location":"BMW OF MURRIETA","Address":"26825 Auto Mall Pkwy","City":"Murrieta","State":"CA","Zip":"92562"},{"Location":"BODY WORKS","Address":"26871 Hobie Cir","City":"Murrieta","State":"CA","Zip":"92562"},{"Location":"BRUNSWICK #869 CAL OAKS","Address":"40440 California Oaks Rd","City":"Murrieta","State":"CA","Zip":"92562"},{"Location":"BULLDOG BREWERY","Address":"41379 Date St","City":"Murrieta","State":"CA","Zip":"92562"},{"Location":"CARDENAS MARKET 32","Address":"25310 Madison Ave","City":"Murrieta","State":"CA","Zip":"92562"},{"Location":"CARNITAS 3 MURRIETA","Address":"25030 Hancock Ave 102","City":"Murrieta","State":"CA","Zip":"92562"},{"Location":"CHILI'S #1167","Address":"41070 California Oaks Rd","City":"Murrieta","State":"CA","Zip":"92562"},{"Location":"CITY OF MURRIETA","Address":"24701 Jefferson Ave","City":"Murrieta","State":"CA","Zip":"92562"},{"Location":"CITY OF MURRIETA PD","Address":"2 Town Sq","City":"Murrieta","State":"CA","Zip":"92562"},{"Location":"COPAN DIAGNOSTICS","Address":"26055 Jefferson Ave","City":"Murrieta","State":"CA","Zip":"92562"},{"Location":"CROWN MEDICAL GROUP","Address":"25470 Medical Center Dr 204","City":"Murrieta","State":"CA","Zip":"92562"},{"Location":"CRYOQUIP","Address":"25720 Jefferson Ave","City":"Murrieta","State":"CA","Zip":"92562"},{"Location":"DAVITA #1607-1 MURRIETA","Address":"27602 Clinton Keith Rd","City":"Murrieta","State":"CA","Zip":"92562"},{"Location":"ENDOSCOPY%2C CENTER OF INLAND EM","Address":"40404 California Oaks Rd","City":"Murrieta","State":"CA","Zip":"92562"},{"Location":"FAITH QUALITY AUTO BUT INC","Address":"41130 Nick Ln","City":"Murrieta","State":"CA","Zip":"92562"},{"Location":"FLOORS DIRECT","Address":"26685 Madison Ave","City":"Murrieta","State":"CA","Zip":"92562"},{"Location":"GOLDEN TRIANGLE DENT","Address":"25460 Medical Center Dr 202","City":"Murrieta","State":"CA","Zip":"92562"},{"Location":"ICORE","Address":"41548 Eastman Dr C","City":"Murrieta","State":"CA","Zip":"92562"},{"Location":"INLAND AUTO","Address":"26500 Jefferson Ave A","City":"Murrieta","State":"CA","Zip":"92562"},{"Location":"JERSEY MIKES SUBS","Address":"25359 Madison Ave 109","City":"Murrieta","State":"CA","Zip":"92562"},{"Location":"JERSEYS","Address":"40557c California Oaks Rd H","City":"Murrieta","State":"CA","Zip":"92562"},{"Location":"JOANNIES CANTINA","Address":"24750 Washington Ave","City":"Murrieta","State":"CA","Zip":"92562"},{"Location":"JOHN K GUNDERSON DDS","Address":"25109 Jefferson Ave 310","City":"Murrieta","State":"CA","Zip":"92562"},{"Location":"KINGS SCREW PRODUCTS","Address":"25807 Jefferson Ave 110","City":"Murrieta","State":"CA","Zip":"92562"},{"Location":"KOHL'S #585","Address":"24661 Madison Ave","City":"Murrieta","State":"CA","Zip":"92562"},{"Location":"L & M TIRE COMPANY INC.","Address":"40615 California Oaks Rd","City":"Murrieta","State":"CA","Zip":"92562"},{"Location":"LA FITNESS #55","Address":"40985 California Oaks Rd","City":"Murrieta","State":"CA","Zip":"92562"},{"Location":"LEER TRUCK ACCESSORIES","Address":"26540 Jefferson Ave E","City":"Murrieta","State":"CA","Zip":"92562"},{"Location":"LOS PRIMOS MEXICAN FOOD","Address":"40981 Calif Oaks Rd","City":"Murrieta","State":"CA","Zip":"92562"},{"Location":"MARK L PLEDGER DDS INC","Address":"14011 California Oaks Rd 102","City":"Murrieta","State":"CA","Zip":"92562"},{"Location":"MAXX'S PIZZA COMPANY","Address":"41539 Kalmia St 109","City":"Murrieta","State":"CA","Zip":"92562"},{"Location":"MEDICAL CONCEPTS INC","Address":"26690 Madison Ave 102","City":"Murrieta","State":"CA","Zip":"92562"},{"Location":"MEDICAL LAB SERVICE LLC","Address":"25470 Medical Center Dr 105","City":"Murrieta","State":"CA","Zip":"92562"},{"Location":"MEDIROS","Address":"26871 Hobie Cir B6","City":"Murrieta","State":"CA","Zip":"92562"},{"Location":"MEGA TOMS BURGERS","Address":"25201 Madison Ave","City":"Murrieta","State":"CA","Zip":"92562"},{"Location":"MOUNTAIN VIEW TIRE SERVICE","Address":"27584 Clinton Keith Rd","City":"Murrieta","State":"CA","Zip":"92562"},{"Location":"MURRIETA DAY SPA","Address":"41885 Ivy St","City":"Murrieta","State":"CA","Zip":"92562"},{"Location":"MURRIETA TIRE & AUTO","Address":"41991 Ivy St","City":"Murrieta","State":"CA","Zip":"92562"},{"Location":"MURRIETA VALLEY GOLF RANGE","Address":"24515 Washington Ave","City":"Murrieta","State":"CA","Zip":"92562"},{"Location":"MURRIETA VALLEY UNIFIED SCHOOL","Address":"41870 Mcalby Ct","City":"Murrieta","State":"CA","Zip":"92562"},{"Location":"MURRIETTA CHUYS","Address":"25401 Madison Ave","City":"Murrieta","State":"CA","Zip":"92562"},{"Location":"OAK GROVE CENTER","Address":"24275 Jefferson Ave","City":"Murrieta","State":"CA","Zip":"92562"},{"Location":"OAK GROVE CENTER 2","Address":"24275 Jefferson Ave","City":"Murrieta","State":"CA","Zip":"92562"},{"Location":"OAK GROVE INSTITUTE FOUNDATION","Address":"24275 Jefferson Ave","City":"Murrieta","State":"CA","Zip":"92562"},{"Location":"ORANGE PSYC MURRIETA","Address":"41670 Ivy St D","City":"Murrieta","State":"CA","Zip":"92562"},{"Location":"P H INDUSTRIES LLC","Address":"41570 Reagan Way","City":"Murrieta","State":"CA","Zip":"92562"},{"Location":"PACIFIC WESTERN BANK","Address":"41381 Kalmia St","City":"Murrieta","State":"CA","Zip":"92562"},{"Location":"PALADIN INDUSTRIES","Address":"25807 Jefferson Ave 130","City":"Murrieta","State":"CA","Zip":"92562"},{"Location":"PLAZA PIZZA","Address":"39872 Los Alamos Rd","City":"Murrieta","State":"CA","Zip":"92562"},{"Location":"POLE POSITION RACEWAY","Address":"41810 Mcalby Ct","City":"Murrieta","State":"CA","Zip":"92562"},{"Location":"POWER HOUSE GYM MARRIETA","Address":"25389 Madison Ave 101","City":"Murrieta","State":"CA","Zip":"92562"},{"Location":"PRECISION TUNE AUTO CARE","Address":"26586 Jefferson Ave A","City":"Murrieta","State":"CA","Zip":"92562"},{"Location":"R J'S SIZZLIN STEER","Address":"41401 Kalmia St","City":"Murrieta","State":"CA","Zip":"92562"},{"Location":"RAMONA TIRES","Address":"25013 Madison Ave","City":"Murrieta","State":"CA","Zip":"92562"},{"Location":"RANCHO ENDODONTIC","Address":"25460 Medical Center Dr 200","City":"Murrieta","State":"CA","Zip":"92562"},{"Location":"RED PERSIMMON NAIL & SPA","Address":"40711 Murrieta Hot Springs Rd","City":"Murrieta","State":"CA","Zip":"92562"},{"Location":"RFD STATION 75","Address":"38900 Clinton Keith Rd","City":"Murrieta","State":"CA","Zip":"92562"},{"Location":"RIGHT CHOICE RESOURCE","Address":"41146 Elm St C","City":"Murrieta","State":"CA","Zip":"92562"},{"Location":"ROBERT D MITCHELL DDS MS INC","Address":"40680 California Oaks Rd 1b","City":"Murrieta","State":"CA","Zip":"92562"},{"Location":"RYANS COMICS","Address":"25021 Madison Ave 101","City":"Murrieta","State":"CA","Zip":"92562"},{"Location":"SAFELITE","Address":"26881 Jefferson Ave A","City":"Murrieta","State":"CA","Zip":"92562"},{"Location":"SCOTTRADE W04","Address":"40675 Murrieta Hot Springs Rd","City":"Murrieta","State":"CA","Zip":"92562"},{"Location":"SIDELINE SPORTS BAR AND GRILL","Address":"24910 Washington Ave","City":"Murrieta","State":"CA","Zip":"92562"},{"Location":"SIGGYS RESTURANT INC","Address":"26820 Jefferson Ave","City":"Murrieta","State":"CA","Zip":"92562"},{"Location":"SPELLY'S PUB AND GRILLE","Address":"40675 Murrieta Hot Springs Rd B1","City":"Murrieta","State":"CA","Zip":"92562"},{"Location":"SPORTS AUTHORITY 651","Address":"24490 Village Walk Pl","City":"Murrieta","State":"CA","Zip":"92562"},{"Location":"STEWS BARBER SHOP","Address":"40770 California Oaks Rd C","City":"Murrieta","State":"CA","Zip":"92562"},{"Location":"SUPER FLOOR STORE","Address":"26019 Jefferson Ave Unitc","City":"Murrieta","State":"CA","Zip":"92562"},{"Location":"TARGET #2499","Address":"27818 Clinton Keith Rd","City":"Murrieta","State":"CA","Zip":"92562"},{"Location":"TEMECCIA COPIES INC","Address":"26855 Jefferson Ave 102","City":"Murrieta","State":"CA","Zip":"92562"},{"Location":"TEMECULA MOTORSPORTS","Address":"26860 Jefferson Ave","City":"Murrieta","State":"CA","Zip":"92562"},{"Location":"TEMECULA VALLEY DAY SURGERY","Address":"25495 Medical Center Dr 10m","City":"Murrieta","State":"CA","Zip":"92562"},{"Location":"THE ARBORS AT CA OAKS","Address":"24375 Jackson Ave","City":"Murrieta","State":"CA","Zip":"92562"},{"Location":"THE MILLS","Address":"24690 Washington Ave","City":"Murrieta","State":"CA","Zip":"92562"},{"Location":"THE OAKS SURGERY CENTER","Address":"40740 California Oaks Rd","City":"Murrieta","State":"CA","Zip":"92562"},{"Location":"TIRE KINGDOM B-5813","Address":"40420 California Oaks Rd","City":"Murrieta","State":"CA","Zip":"92562"},{"Location":"TYLER AND ASSOCIATES","Address":"24910 Las Brisas Rd 110","City":"Murrieta","State":"CA","Zip":"92562"},{"Location":"VAAPESCAPE","Address":"39840 Los Alamos Rd D6","City":"Murrieta","State":"CA","Zip":"92562"},{"Location":"VALLEY VETERINARY CLINIC","Address":"25100 Hancock Ave 116","City":"Murrieta","State":"CA","Zip":"92562"},{"Location":"VAPE KRAVE","Address":"40685 California Oaks Rd B","City":"Murrieta","State":"CA","Zip":"92562"},{"Location":"VCA CAL OAKS ANIMAL HOSPITAL","Address":"40575 California Oaks Rd D7","City":"Murrieta","State":"CA","Zip":"92562"},{"Location":"VINTAGE DESIGN","Address":"41633 Eastman Dr","City":"Murrieta","State":"CA","Zip":"92562"},{"Location":"VOLKSWAGEN OF MURRIETA","Address":"41300 Date St","City":"Murrieta","State":"CA","Zip":"92562"},{"Location":"WAGNER","Address":"26175 Jefferson Ave 203","City":"Murrieta","State":"CA","Zip":"92562"},{"Location":"WEST GASTROENTEROLOGY MEDICAL","Address":"25495 Medical Center Dr","City":"Murrieta","State":"CA","Zip":"92562"},{"Location":"WINGS N THINGS MURR.","Address":"40942 Californis Oaks Rd","City":"Murrieta","State":"CA","Zip":"92562"},{"Location":"ZEPEDA PLUMBING","Address":"41755 Elm St","City":"Murrieta","State":"CA","Zip":"92562"}]