[{"Location":"A AND WHEELS AND TIRES","Address":"1122 S G St Bldgb","City":"Perris","State":"CA","Zip":"92570"},{"Location":"ALEXA HAIR SALON","Address":"440 E 4th St 23","City":"Perris","State":"CA","Zip":"92570"},{"Location":"ALL STARS SKILLS FACILIT","Address":"21366 Harvill Ave 1","City":"Perris","State":"CA","Zip":"92570"},{"Location":"AMERICAN LEGION POST 595","Address":"600 S D St","City":"Perris","State":"CA","Zip":"92570"},{"Location":"AOC","Address":"19991 Seaton Ave","City":"Perris","State":"CA","Zip":"92570"},{"Location":"CAL PREMIUM TREATS","Address":"20343 Harvill Ave","City":"Perris","State":"CA","Zip":"92570"},{"Location":"CAR TUNE AUTO REPAIR","Address":"23900 State Highway 74 B","City":"Perris","State":"CA","Zip":"92570"},{"Location":"CARTIER CONSTRUCTION","Address":"21446 Harvill Ave 3","City":"Perris","State":"CA","Zip":"92570"},{"Location":"CASA JIMENEZ","Address":"411 Wilkerson Ave","City":"Perris","State":"CA","Zip":"92570"},{"Location":"DSC LOGISTICS - PERRIS","Address":"17789 Harvill Ave","City":"Perris","State":"CA","Zip":"92570"},{"Location":"EL DORADO SENIOR HOME CARE","Address":"19465 Eldorado Rd","City":"Perris","State":"CA","Zip":"92570"},{"Location":"EXEL INC","Address":"18310 Harvill Ave","City":"Perris","State":"CA","Zip":"92570"},{"Location":"EXPRESS FENCE CO","Address":"23615 Rider St","City":"Perris","State":"CA","Zip":"92570"},{"Location":"FANTASTIC SAMS","Address":"3150 Case Rd M2","City":"Perris","State":"CA","Zip":"92570"},{"Location":"GENERATION CYCLE","Address":"24740 State Highway 74","City":"Perris","State":"CA","Zip":"92570"},{"Location":"GLOBAL P E T INC","Address":"145 Malbert Rd","City":"Perris","State":"CA","Zip":"92570"},{"Location":"JAUREGI","Address":"333 Wilerson Ave","City":"Perris","State":"CA","Zip":"92570"},{"Location":"JIFFY LUBE 3361","Address":"3150 Case Rd J","City":"Perris","State":"CA","Zip":"92570"},{"Location":"JOHNNY EDWARDS","Address":"164 Malbert St","City":"Perris","State":"CA","Zip":"92570"},{"Location":"JUST TIRES #4843","Address":"3150 Case Rd","City":"Perris","State":"CA","Zip":"92570"},{"Location":"LADY D BEAUTY SALON","Address":"391 Wilkerson Ave G","City":"Perris","State":"CA","Zip":"92570"},{"Location":"LAWLER WOODCREST SERVICE INC","Address":"144 Malbert Rd C","City":"Perris","State":"CA","Zip":"92570"},{"Location":"LOS PRIMOS MEXICAN FOOD","Address":"3150 Case Rd","City":"Perris","State":"CA","Zip":"92570"},{"Location":"MANDE EXPRESS","Address":"440 E 4th St Sp1b","City":"Perris","State":"CA","Zip":"92570"},{"Location":"MARYS PROFESSIONAL A","Address":"440 East Fort Street","City":"Perris","State":"CA","Zip":"92570"},{"Location":"MEADOWBROOK MARKET","Address":"27215 West Highway 74","City":"Perris","State":"CA","Zip":"92570"},{"Location":"MI FAMILA BARBERSHOP","Address":"802 Navajo Rd L","City":"Perris","State":"CA","Zip":"92570"},{"Location":"MR YOU CHINESE FOOD","Address":"406 E 4th St","City":"Perris","State":"CA","Zip":"92570"},{"Location":"NAIL DESIGN NUMBER 1","Address":"546 Indian Hills Cir E","City":"Perris","State":"CA","Zip":"92570"},{"Location":"PERRIS FAMILY DENTISTRY","Address":"391 Wilkerson Ave A","City":"Perris","State":"CA","Zip":"92570"},{"Location":"PERRIS VALLEY AUTO CENTER","Address":"707a E 4th St","City":"Perris","State":"CA","Zip":"92570"},{"Location":"RIVERSIDE COUNTY FD","Address":"210 W San Jacinto Ave","City":"Perris","State":"CA","Zip":"92570"},{"Location":"SAHARA SCAFFOLDING","Address":"4414 Markham St","City":"Perris","State":"CA","Zip":"92570"},{"Location":"SALVATION ARMY RIVERSIDE COUNT","Address":"24201 Orange Ave","City":"Perris","State":"CA","Zip":"92570"},{"Location":"SO MUCH STYLE BARBER SHOP","Address":"247 E 3rd St C","City":"Perris","State":"CA","Zip":"92570"},{"Location":"STRECH FORMING CORP","Address":"804 S Redlands Ave","City":"Perris","State":"CA","Zip":"92570"},{"Location":"SUPPORTING UNLIMITED POSSIBITY","Address":"21800 Mack St","City":"Perris","State":"CA","Zip":"92570"},{"Location":"SWEDISH SPEED","Address":"21462 Harvill Ave 1","City":"Perris","State":"CA","Zip":"92570"},{"Location":"TARASCO RESTAURANT","Address":"539 S D St Perris Ca","City":"Perris","State":"CA","Zip":"92570"},{"Location":"TRANS & AUTO REPAIR","Address":"28 Wilkerson Ave","City":"Perris","State":"CA","Zip":"92570"},{"Location":"VFW POST 888","Address":"623a S D St","City":"Perris","State":"CA","Zip":"92570"},{"Location":"WILTEL COMMUNICATIONS","Address":"20021 Santa Rosa Mine Rd","City":"Perris","State":"CA","Zip":"92570"},{"Location":"YOUTH OPPORTUNITY","Address":"351 Wilkerson Ave F","City":"Perris","State":"CA","Zip":"92570"},{"Location":"NARA%2FPACIFIC REGION","Address":"23123 Cajaico Rd","City":"Riverside","State":"CA","Zip":"92570"}]