[{"Location":"BIG LEAGE DREAMS","Address":"2155 Trumble Rd","City":"Perris","State":"CA","Zip":"92571"},{"Location":"BILLIARDS SPORT BAR LLC","Address":"4164 N Perris Blvd G","City":"Perris","State":"CA","Zip":"92571"},{"Location":"CARDENAS MARKET 4","Address":"256 N Perris Blvd","City":"Perris","State":"CA","Zip":"92571"},{"Location":"COLIMAS WIRELESS","Address":"2560 N Perris Blvd","City":"Perris","State":"CA","Zip":"92571"},{"Location":"DANICORP INC","Address":"5156 Western Way","City":"Perris","State":"CA","Zip":"92571"},{"Location":"DAVITA #5068 SUN CITY MENIFEE","Address":"1702 Illinois Ave","City":"Perris","State":"CA","Zip":"92571"},{"Location":"DIVINE FASHION OUTLET","Address":"2131 N Perris Blvd C6","City":"Perris","State":"CA","Zip":"92571"},{"Location":"FAMILY A FAIR INC","Address":"18700 Lake Perris Dr","City":"Perris","State":"CA","Zip":"92571"},{"Location":"GENTLE DENTAL","Address":"2560 N Perris Blvd F1","City":"Perris","State":"CA","Zip":"92571"},{"Location":"GOLDEN WEST HOMES","Address":"3100 N Perris Blvd","City":"Perris","State":"CA","Zip":"92571"},{"Location":"HAIR LOFT","Address":"780 Ramona Expy Stec","City":"Perris","State":"CA","Zip":"92571"},{"Location":"HANESBRANDS INC II","Address":"3700 Indian Ave","City":"Perris","State":"CA","Zip":"92571"},{"Location":"HARRYS CAFE","Address":"748 Ramona Expy","City":"Perris","State":"CA","Zip":"92571"},{"Location":"HOME DEPOT","Address":"350 West Marcom Street","City":"Perris","State":"CA","Zip":"92571"},{"Location":"JEFF'S PLACE","Address":"2055 N Perris Blvd # C6","City":"Perris","State":"CA","Zip":"92571"},{"Location":"JEFF'S PLACE","Address":"2055 C-6 Perris Blvd","City":"Perris","State":"CA","Zip":"92571"},{"Location":"JIFFY LUBE 3294","Address":"118 Ramona Expy","City":"Perris","State":"CA","Zip":"92571"},{"Location":"JUST TIRES #4840","Address":"2055 N Perris Blvd","City":"Perris","State":"CA","Zip":"92571"},{"Location":"KINGDOM VISION FELLOWSHIP INC","Address":"920 Regency St","City":"Perris","State":"CA","Zip":"92571"},{"Location":"LAKE PERRIS SPORTS PAVILLION","Address":"18700 Lake Perris Dr","City":"Perris","State":"CA","Zip":"92571"},{"Location":"LOWES RDC 966","Address":"3984 Indian Ave","City":"Perris","State":"CA","Zip":"92571"},{"Location":"NARA HOOKAH LOUNGE","Address":"780 Ramona Expy E","City":"Perris","State":"CA","Zip":"92571"},{"Location":"PERRIS VALLEY YOUTH ASSOC SPOR","Address":"525 Marietta Rd","City":"Perris","State":"CA","Zip":"92571"},{"Location":"PIZZA HUT #510","Address":"1675 N Perris Blvd E","City":"Perris","State":"CA","Zip":"92571"},{"Location":"PULLAN CORPORATION DBA","Address":"99 Business Park Dr","City":"Perris","State":"CA","Zip":"92571"},{"Location":"QUALITY DRIVE AWAY","Address":"1452 W Oleander Ave","City":"Perris","State":"CA","Zip":"92571"},{"Location":"ROSS DRESS FOR LESS","Address":"4378 N Perris Blvd","City":"Perris","State":"CA","Zip":"92571"},{"Location":"ROSS STORES INC SWDC","Address":"3404 Indian Ave","City":"Perris","State":"CA","Zip":"92571"},{"Location":"STATE OF CA SURCOM","Address":"17801 Lake Perris Dr","City":"Perris","State":"CA","Zip":"92571"},{"Location":"TACO'S LA BUFADORA #3","Address":"2560 N Paris Blvd F4","City":"Perris","State":"CA","Zip":"92571"},{"Location":"THE UNDERGROUND EXCLUSIV","Address":"136 W Nuevo Rd","City":"Perris","State":"CA","Zip":"92571"},{"Location":"THUNDER PLUMBING INC 2","Address":"1654 Illinois Ave 5","City":"Perris","State":"CA","Zip":"92571"},{"Location":"VAL VERDE RISK MGMT","Address":"975 Morgan St B","City":"Perris","State":"CA","Zip":"92571"},{"Location":"VAL VERDE USD ED SERV","Address":"975 Morgan St","City":"Perris","State":"CA","Zip":"92571"},{"Location":"VALENTINOS PIZZA AND BBQ","Address":"780 Ramona Expy","City":"Perris","State":"CA","Zip":"92571"},{"Location":"WINGSTOP #607","Address":"1688 N Perris Blvd","City":"Perris","State":"CA","Zip":"92571"}]