[{"Location":"APPLEBEES #2150045","Address":"27750 Newport Rd","City":"Menifee","State":"CA","Zip":"92584"},{"Location":"BIG O TIRES","Address":"26920 Newport Rd 13","City":"Menifee","State":"CA","Zip":"92584"},{"Location":"BJ'S RESTAURANT #531","Address":"30208 Haun Rd","City":"Menifee","State":"CA","Zip":"92584"},{"Location":"CARNITA'S 1 MENIFEE","Address":"26900 Newport Rd 117","City":"Menifee","State":"CA","Zip":"92584"},{"Location":"FITNESS 19 MENIFEE","Address":"26100 Newport Rd 140","City":"Menifee","State":"CA","Zip":"92584"},{"Location":"HANA SUSHI","Address":"30098 Haun Rd 300","City":"Menifee","State":"CA","Zip":"92584"},{"Location":"KARL SCANLAN COMPANY INC.","Address":"33291 Bailey Park Blvd","City":"Menifee","State":"CA","Zip":"92584"},{"Location":"KOHL'S #1282","Address":"30252 Haun Rd","City":"Menifee","State":"CA","Zip":"92584"},{"Location":"LIVING SPACES FURNITURE","Address":"30251 Antelope Rd","City":"Menifee","State":"CA","Zip":"92584"},{"Location":"LOS PRIMOS MEXICA FOOD","Address":"26825 Newport Rd","City":"Menifee","State":"CA","Zip":"92584"},{"Location":"MENIFEE PIZZA FACTORY","Address":"25908 Newport Rd G","City":"Menifee","State":"CA","Zip":"92584"},{"Location":"PATRICIA JONES LLC","Address":"31792 Whitfield St","City":"Menifee","State":"CA","Zip":"92584"},{"Location":"PITSTOP PUB SPORTS BAR & GRILL","Address":"26900 Newport Rd 101","City":"Menifee","State":"CA","Zip":"92584"},{"Location":"POWERS DENTISTRY","Address":"27701 Scott Rd D107","City":"Menifee","State":"CA","Zip":"92584"},{"Location":"RED ROBIN #594","Address":"30142 Haun Rd","City":"Menifee","State":"CA","Zip":"92584"},{"Location":"TARGET #2471","Address":"30340 Haun Rd","City":"Menifee","State":"CA","Zip":"92584"},{"Location":"THE BEER HUNTER - MENIFE","Address":"30080 Haun Rd 350","City":"Menifee","State":"CA","Zip":"92584"},{"Location":"ZGOLF FOOD BEVERANGE SRVS LLC","Address":"29875 Menifee Lakes Dr","City":"Menifee","State":"CA","Zip":"92584"}]