[{"Location":"ALEX DENES MD INC","Address":"31630 Railroad Canyon Rd Ste6","City":"Canyon Lake","State":"CA","Zip":"92587"},{"Location":"BECK AND GREER ATTORNEYS","Address":"31580 Railroad Canyon Rd","City":"Canyon Lake","State":"CA","Zip":"92587"},{"Location":"CANYON LAKE COUNTRY CLUB","Address":"32001 Railroad Canyon Rd","City":"Canyon Lake","State":"CA","Zip":"92587"},{"Location":"CANYON LAKE HOA LODGE","Address":"22200 Canyon Club Dr","City":"Canyon Lake","State":"CA","Zip":"92587"},{"Location":"CG ACOUSTICS","Address":"31528 Railroad Canyon Rd B","City":"Canyon Lake","State":"CA","Zip":"92587"},{"Location":"CHERYL L JOHNSTON DMD","Address":"31506 Railroad Canyon Rd","City":"Canyon Lake","State":"CA","Zip":"92587"},{"Location":"KONG MOTOR SPORTS INC","Address":"22280 Whirlaway Ct","City":"Canyon Lake","State":"CA","Zip":"92587"},{"Location":"PEPE'S MEXICAN RESTAURANT","Address":"31780 Railroad Canyon Rd","City":"Canyon Lake","State":"CA","Zip":"92587"},{"Location":"ROUND UP JR MART","Address":"24370 Canyon Lake Dr N","City":"Canyon Lake","State":"CA","Zip":"92587"},{"Location":"SLOAN","Address":"31682 Railroadcanyon Rd Ste 6","City":"Canyon Lake","State":"CA","Zip":"92587"},{"Location":"SPORTS STOP PUB & GRILL","Address":"31586 Railroad Canyon Rd","City":"Canyon Lake","State":"CA","Zip":"92587"},{"Location":"SUPERIOR OFFICE SERVICES","Address":"31570 Railroad Canyon Rd","City":"Canyon Lake","State":"CA","Zip":"92587"},{"Location":"RUBENS COMPLETE AUTOMOTIVE","Address":"27895 Goetz Rd","City":"Menifee","State":"CA","Zip":"92587"},{"Location":"RFD STATION 5","Address":"28971 Goetz Rd","City":"Sun City","State":"CA","Zip":"92587"}]