[{"Location":"AMERICAN MEDICAL RESPONSE","Address":"950 N Ramona Blvd 10","City":"San Jacinto","State":"CA","Zip":"92582"},{"Location":"BRADLEY GARDENS CONVALESCENT","Address":"980 W 7th St","City":"San Jacinto","State":"CA","Zip":"92582"},{"Location":"FIRE DEPARTMENT SOBOBA","Address":"24099  Soboba Rd","City":"San Jacinto","State":"CA","Zip":"92582"},{"Location":"FORMAN  FARMS","Address":"34480 Marvin Rd","City":"San Jacinto","State":"CA","Zip":"92582"},{"Location":"FORMAN FARMS 1","Address":"34480 Marvin Rd","City":"San Jacinto","State":"CA","Zip":"92582"},{"Location":"JUAN'S ROTISSERIE CHICKEN","Address":"2241 W Esplanade Ave 101c","City":"San Jacinto","State":"CA","Zip":"92582"},{"Location":"RIVERSIDE COUNTY FIRE DEPT","Address":"2450 Cottonwood Ave","City":"San Jacinto","State":"CA","Zip":"92582"},{"Location":"STADIUM PIZZA","Address":"701 W Esplanade Ave","City":"San Jacinto","State":"CA","Zip":"92582"},{"Location":"AMERICAN MEDICAL RESPONSE","Address":"950 N Ramona Blvd 10","City":"San Jacinto","State":"CA","Zip":"92582"},{"Location":"BRADLEY GARDENS CONVALESCENT","Address":"980 W 7th St","City":"San Jacinto","State":"CA","Zip":"92582"},{"Location":"FIRE DEPARTMENT SOBOBA","Address":"24099  Soboba Rd","City":"San Jacinto","State":"CA","Zip":"92582"},{"Location":"FORMAN  FARMS","Address":"34480 Marvin Rd","City":"San Jacinto","State":"CA","Zip":"92582"},{"Location":"FORMAN FARMS 1","Address":"34480 Marvin Rd","City":"San Jacinto","State":"CA","Zip":"92582"},{"Location":"JUAN'S ROTISSERIE CHICKEN","Address":"2241 W Esplanade Ave 101c","City":"San Jacinto","State":"CA","Zip":"92582"},{"Location":"RIVERSIDE COUNTY FIRE DEPT","Address":"2450 Cottonwood Ave","City":"San Jacinto","State":"CA","Zip":"92582"},{"Location":"STADIUM PIZZA","Address":"701 W Esplanade Ave","City":"San Jacinto","State":"CA","Zip":"92582"}]