[{"Location":"BARQUERO SHOE STORE","Address":"710 S San Jacinto Ave","City":"San Jacinto","State":"CA","Zip":"92583"},{"Location":"CARDENAS MARKET 13","Address":"1475 S San Jacinto Ave","City":"San Jacinto","State":"CA","Zip":"92583"},{"Location":"COUNTRY CLUB AT SOBOBA SPRINGS","Address":"1020 Soboba Rd","City":"San Jacinto","State":"CA","Zip":"92583"},{"Location":"EMILIOS RESTAURANT","Address":"2340 S San Jacinto Ave","City":"San Jacinto","State":"CA","Zip":"92583"},{"Location":"GEP APARTMENTS","Address":"19625 Gilman Springs Rd","City":"San Jacinto","State":"CA","Zip":"92583"},{"Location":"GEP%2FG'S & EXERCISE BUILDING","Address":"19625 Gilman Springs Rd","City":"San Jacinto","State":"CA","Zip":"92583"},{"Location":"GEP%2FLODGES","Address":"19625 Gilman Springs Rd","City":"San Jacinto","State":"CA","Zip":"92583"},{"Location":"GEP%2FMANUFACTURING BUILDING","Address":"19625 Gilman Springs Rd","City":"San Jacinto","State":"CA","Zip":"92583"},{"Location":"HECTOR PEREZ TIRES & WHEEL","Address":"2475 S San Jacinto Ave","City":"San Jacinto","State":"CA","Zip":"92583"},{"Location":"HEMET MOOSE LODGE","Address":"188 W Main St","City":"San Jacinto","State":"CA","Zip":"92583"},{"Location":"HIBACHI GRILL & SUPER BU","Address":"2599 S San Jacinto Ave","City":"San Jacinto","State":"CA","Zip":"92583"},{"Location":"HORIZON WATER","Address":"1371 S Santa Fe Ave","City":"San Jacinto","State":"CA","Zip":"92583"},{"Location":"HOT WOK","Address":"480 N State St L","City":"San Jacinto","State":"CA","Zip":"92583"},{"Location":"JIFFY LUBE 3186","Address":"635 S State St","City":"San Jacinto","State":"CA","Zip":"92583"},{"Location":"MFI RECOVERY CENTER","Address":"2220 Girard St","City":"San Jacinto","State":"CA","Zip":"92583"},{"Location":"PFF BANK AND TRUST","Address":"1251 N State St","City":"San Jacinto","State":"CA","Zip":"92583"},{"Location":"PROFESSIONAL NAIL AND SPA","Address":"1821 S San Jacinto Ave C","City":"San Jacinto","State":"CA","Zip":"92583"},{"Location":"Q NAILS & SPA","Address":"1281 N State St","City":"San Jacinto","State":"CA","Zip":"92583"},{"Location":"RANCHO PHYSICAL THERAPY","Address":"1695 S San Jacinto Ave C","City":"San Jacinto","State":"CA","Zip":"92583"},{"Location":"RIVERSIDE CHILD SUPPORT","Address":"1370 S State St A","City":"San Jacinto","State":"CA","Zip":"92583"},{"Location":"RIVERSIDE DCSS 4","Address":"1370 S State St","City":"San Jacinto","State":"CA","Zip":"92583"},{"Location":"ROSA JUICE","Address":"1489 S San Jacinto Ave","City":"San Jacinto","State":"CA","Zip":"92583"},{"Location":"S J MEDICALS","Address":"1695 S San Jacinto Ave","City":"San Jacinto","State":"CA","Zip":"92583"},{"Location":"SAN JACINTO BARBER SHOP","Address":"1470 South San Jacinto Street # B","City":"San Jacinto","State":"CA","Zip":"92583"},{"Location":"SAN JACINTO BARBER SHOP","Address":"1470 South San Jacinto Street","City":"San Jacinto","State":"CA","Zip":"92583"},{"Location":"SAN JACINTO FAMILY DENTISTRY","Address":"480 N State St","City":"San Jacinto","State":"CA","Zip":"92583"},{"Location":"SIMPSON NEAL MD","Address":"1695 S San Jacinto Ave K","City":"San Jacinto","State":"CA","Zip":"92583"},{"Location":"SOBOBA CASINO","Address":"23333 Soboba Rd","City":"San Jacinto","State":"CA","Zip":"92583"},{"Location":"SOUTHERN PAC PIZZA","Address":"490 N State St","City":"San Jacinto","State":"CA","Zip":"92583"},{"Location":"THE VALLEYS ADULT DAY","Address":"433 S State St","City":"San Jacinto","State":"CA","Zip":"92583"},{"Location":"TUMBLETIME LAUNDROMAT","Address":"480 N State St B","City":"San Jacinto","State":"CA","Zip":"92583"},{"Location":"VFW POST 2266","Address":"1891 S Santa Fe Ave","City":"San Jacinto","State":"CA","Zip":"92583"},{"Location":"WALLEYS DONUTS","Address":"728 S San Jacinto Ave","City":"San Jacinto","State":"CA","Zip":"92583"},{"Location":"BARQUERO SHOE STORE","Address":"710 S San Jacinto Ave","City":"San Jacinto","State":"CA","Zip":"92583"},{"Location":"CARDENAS MARKET 13","Address":"1475 S San Jacinto Ave","City":"San Jacinto","State":"CA","Zip":"92583"},{"Location":"COUNTRY CLUB AT SOBOBA SPRINGS","Address":"1020 Soboba Rd","City":"San Jacinto","State":"CA","Zip":"92583"},{"Location":"EMILIOS RESTAURANT","Address":"2340 S San Jacinto Ave","City":"San Jacinto","State":"CA","Zip":"92583"},{"Location":"GEP APARTMENTS","Address":"19625 Gilman Springs Rd","City":"San Jacinto","State":"CA","Zip":"92583"},{"Location":"GEP%2FG'S & EXERCISE BUILDING","Address":"19625 Gilman Springs Rd","City":"San Jacinto","State":"CA","Zip":"92583"},{"Location":"GEP%2FLODGES","Address":"19625 Gilman Springs Rd","City":"San Jacinto","State":"CA","Zip":"92583"},{"Location":"GEP%2FMANUFACTURING BUILDING","Address":"19625 Gilman Springs Rd","City":"San Jacinto","State":"CA","Zip":"92583"},{"Location":"HECTOR PEREZ TIRES & WHEEL","Address":"2475 S San Jacinto Ave","City":"San Jacinto","State":"CA","Zip":"92583"},{"Location":"HEMET MOOSE LODGE","Address":"188 W Main St","City":"San Jacinto","State":"CA","Zip":"92583"},{"Location":"HIBACHI GRILL & SUPER BU","Address":"2599 S San Jacinto Ave","City":"San Jacinto","State":"CA","Zip":"92583"},{"Location":"HORIZON WATER","Address":"1371 S Santa Fe Ave","City":"San Jacinto","State":"CA","Zip":"92583"},{"Location":"HOT WOK","Address":"480 N State St L","City":"San Jacinto","State":"CA","Zip":"92583"},{"Location":"JIFFY LUBE 3186","Address":"635 S State St","City":"San Jacinto","State":"CA","Zip":"92583"},{"Location":"MFI RECOVERY CENTER","Address":"2220 Girard St","City":"San Jacinto","State":"CA","Zip":"92583"},{"Location":"PFF BANK AND TRUST","Address":"1251 N State St","City":"San Jacinto","State":"CA","Zip":"92583"},{"Location":"PROFESSIONAL NAIL AND SPA","Address":"1821 S San Jacinto Ave C","City":"San Jacinto","State":"CA","Zip":"92583"},{"Location":"Q NAILS & SPA","Address":"1281 N State St","City":"San Jacinto","State":"CA","Zip":"92583"},{"Location":"RANCHO PHYSICAL THERAPY","Address":"1695 S San Jacinto Ave C","City":"San Jacinto","State":"CA","Zip":"92583"},{"Location":"RIVERSIDE CHILD SUPPORT","Address":"1370 S State St A","City":"San Jacinto","State":"CA","Zip":"92583"},{"Location":"RIVERSIDE DCSS 4","Address":"1370 S State St","City":"San Jacinto","State":"CA","Zip":"92583"},{"Location":"ROSA JUICE","Address":"1489 S San Jacinto Ave","City":"San Jacinto","State":"CA","Zip":"92583"},{"Location":"S J MEDICALS","Address":"1695 S San Jacinto Ave","City":"San Jacinto","State":"CA","Zip":"92583"},{"Location":"San Jacinto Barber Shop","Address":"1470 South San Jacinto Street","City":"San Jacinto","State":"CA","Zip":"92583"},{"Location":"SAN JACINTO BARBER SHOP","Address":"1470 South San Jacinto Street # B","City":"San Jacinto","State":"CA","Zip":"92583"},{"Location":"SAN JACINTO FAMILY DENTISTRY","Address":"480 N State St","City":"San Jacinto","State":"CA","Zip":"92583"},{"Location":"SIMPSON NEAL MD","Address":"1695 S San Jacinto Ave K","City":"San Jacinto","State":"CA","Zip":"92583"},{"Location":"SOBOBA CASINO","Address":"23333 Soboba Rd","City":"San Jacinto","State":"CA","Zip":"92583"},{"Location":"SOUTHERN PAC PIZZA","Address":"490 N State St","City":"San Jacinto","State":"CA","Zip":"92583"},{"Location":"THE VALLEYS ADULT DAY","Address":"433 S State St","City":"San Jacinto","State":"CA","Zip":"92583"},{"Location":"TUMBLETIME LAUNDROMAT","Address":"480 N State St B","City":"San Jacinto","State":"CA","Zip":"92583"},{"Location":"VFW POST 2266","Address":"1891 S Santa Fe Ave","City":"San Jacinto","State":"CA","Zip":"92583"},{"Location":"WALLEYS DONUTS","Address":"728 S San Jacinto Ave","City":"San Jacinto","State":"CA","Zip":"92583"}]