[{"Location":"IT TELECOM INC","Address":"28115 Bradley Rd 6","City":"Menifee","State":"CA","Zip":"92586"},{"Location":"MASON JAR BREWERY COMPAN","Address":"29683 New Hub Dr A","City":"Menifee","State":"CA","Zip":"92586"},{"Location":"NEWPORT TAN AND DAY SPA","Address":"29966 Haun Road","City":"Menifee","State":"CA","Zip":"92586"},{"Location":"TEXAS ROADHOUSE #2338","Address":"29860 Haun Rd","City":"Menifee","State":"CA","Zip":"92586"},{"Location":"A PLUS WALK IN URGENTQ","Address":"26926 Cherry Hills Blvd A","City":"Sun City","State":"CA","Zip":"92586"},{"Location":"ALS JEWELERS","Address":"26802 Cherry Hills Blvd","City":"Sun City","State":"CA","Zip":"92586"},{"Location":"CALIFORNIA GOLF AND ART","Address":"26583 Cherry Hills Blvd","City":"Sun City","State":"CA","Zip":"92586"},{"Location":"JAMES R MASUHR DDS","Address":"26840 Cherry Hills Blvd","City":"Sun City","State":"CA","Zip":"92586"},{"Location":"JOHNSON AND JOHNSON HEARING AI","Address":"26916 Cherry Hills Blvd","City":"Sun City","State":"CA","Zip":"92586"},{"Location":"LTS FINANCIAL SERVICES","Address":"28005 Bradley Rd C","City":"Sun City","State":"CA","Zip":"92586"},{"Location":"M. V. A. C.","Address":"29700 Bradley Rd","City":"Sun City","State":"CA","Zip":"92586"},{"Location":"MCCALL DENTAL PRACTICE","Address":"28115 Bradley Rd 3","City":"Sun City","State":"CA","Zip":"92586"},{"Location":"NORTH GOLF COURSE INC","Address":"26660 Mccall Blvd","City":"Sun City","State":"CA","Zip":"92586"},{"Location":"PONDEROSA","Address":"27126 Shadel Rd","City":"Sun City","State":"CA","Zip":"92586"},{"Location":"PROVECHO GRILL","Address":"26862 Cherry Hills Blvd","City":"Sun City","State":"CA","Zip":"92586"},{"Location":"RIVERSIDE COUNTY FIRE DEPT","Address":"27860 Bradley Rd","City":"Sun City","State":"CA","Zip":"92586"},{"Location":"SANTANAS MEXICAN FOOD","Address":"28005 Bradley Rd","City":"Sun City","State":"CA","Zip":"92586"},{"Location":"SIDES AUTO REPAIR INC","Address":"29750 Bradley Rd","City":"Sun City","State":"CA","Zip":"92586"},{"Location":"ST VINCENT FERRER","Address":"27911 Niagara Ct","City":"Sun City","State":"CA","Zip":"92586"},{"Location":"SUN CITY MEDICAL A","Address":"27830 Bradley Rd","City":"Sun City","State":"CA","Zip":"92586"}]