[{"Location":"1909","Address":"28656 Old Town Front St","City":"Temecula","State":"CA","Zip":"92590"},{"Location":"ACCLAIM COMPANY","Address":"42225 Remington Ave 13","City":"Temecula","State":"CA","Zip":"92590"},{"Location":"ALCOHOLICS ANONYMOUS","Address":"28636 Old Town Front St 106","City":"Temecula","State":"CA","Zip":"92590"},{"Location":"ALL VALLEY COIN","Address":"28480 Old Town Front St B","City":"Temecula","State":"CA","Zip":"92590"},{"Location":"AROMA SPA","Address":"41892 Enterprise Cir S","City":"Temecula","State":"CA","Zip":"92590"},{"Location":"AUNTY CORAS BAKERY AND RESTAUR","Address":"28290 Front St","City":"Temecula","State":"CA","Zip":"92590"},{"Location":"BANZAI SUSHI","Address":"27533 Jefferson Ave","City":"Temecula","State":"CA","Zip":"92590"},{"Location":"BARNEYS TIRE  WHEEL","Address":"27584 Commerce Center Dr","City":"Temecula","State":"CA","Zip":"92590"},{"Location":"BIRD FAMILY TIRE AND AUTO","Address":"27886 Del Rio Rd","City":"Temecula","State":"CA","Zip":"92590"},{"Location":"BLACK MARKET BREWERY","Address":"41470 Enterprise Circle","City":"Temecula","State":"CA","Zip":"92590"},{"Location":"BLACKBIRD","Address":"41958 5th St","City":"Temecula","State":"CA","Zip":"92590"},{"Location":"C & S AUTO REPAIR","Address":"28127 Jefferson Ave","City":"Temecula","State":"CA","Zip":"92590"},{"Location":"CHINS GOURMET","Address":"27464 Jefferson Ave","City":"Temecula","State":"CA","Zip":"92590"},{"Location":"CJM COMPANY","Address":"42122 Rio Nedo 109","City":"Temecula","State":"CA","Zip":"92590"},{"Location":"CNC PUMA CORP","Address":"28645 Old Town Front St","City":"Temecula","State":"CA","Zip":"92590"},{"Location":"COLLISION CTR OF TEMECUL","Address":"27590 Commerce Center Dr","City":"Temecula","State":"CA","Zip":"92590"},{"Location":"COMMUNITY LITTLE BOOK","Address":"27430 Enterprise Cir W","City":"Temecula","State":"CA","Zip":"92590"},{"Location":"CONTOUR","Address":"41964 Main St","City":"Temecula","State":"CA","Zip":"92590"},{"Location":"COVER STORY COMMUNICATIONS","Address":"28465 Old Town Front St 211","City":"Temecula","State":"CA","Zip":"92590"},{"Location":"CROSS CREEK GOLF CLUB","Address":"43860 Glenn Meadows Rd","City":"Temecula","State":"CA","Zip":"92590"},{"Location":"DAN HENDERSONS ATHLETIC","Address":"27901 Jefferson Ave","City":"Temecula","State":"CA","Zip":"92590"},{"Location":"DAVIS FAMILY INSURANCE AGENCY","Address":"27645 Jefferson Ave 113","City":"Temecula","State":"CA","Zip":"92590"},{"Location":"DR WILL AND KAHUNA AUTO REPAIR","Address":"28069 Diaz Rd F","City":"Temecula","State":"CA","Zip":"92590"},{"Location":"EL DORADO MEXICAN FOOD","Address":"29000 Old Town Front St","City":"Temecula","State":"CA","Zip":"92590"},{"Location":"FERGUSON #0633","Address":"43244 Rancho Way","City":"Temecula","State":"CA","Zip":"92590"},{"Location":"FIRST WIND ENERGY","Address":"42015 Remington Ave 101","City":"Temecula","State":"CA","Zip":"92590"},{"Location":"FRONT STREET PLAZA EX SU","Address":"28693 Old Town Front St 300","City":"Temecula","State":"CA","Zip":"92590"},{"Location":"GARAGE BREWING INC","Address":"29095 Old Town Front St","City":"Temecula","State":"CA","Zip":"92590"},{"Location":"GRANNYS ATTIC","Address":"28450 Felix Valdez Ave","City":"Temecula","State":"CA","Zip":"92590"},{"Location":"GREENBEE","Address":"28910 Rancho California Rd","City":"Temecula","State":"CA","Zip":"92590"},{"Location":"HAMPTON INN & SUITES","Address":"28190 Jefferson Ave","City":"Temecula","State":"CA","Zip":"92590"},{"Location":"HELEN H IM DDS APC","Address":"28780 Single Oak Dr 150","City":"Temecula","State":"CA","Zip":"92590"},{"Location":"INDEPENDENT ELECTRIC SUPPLY","Address":"41437 Buecking Dr","City":"Temecula","State":"CA","Zip":"92590"},{"Location":"INLAND VALLEY RETINA","Address":"41900 Winchester Rd 201","City":"Temecula","State":"CA","Zip":"92590"},{"Location":"INLAND VALLEY SURGERY CENTER","Address":"41900 Winchester Rd 102","City":"Temecula","State":"CA","Zip":"92590"},{"Location":"INTEGRITY AUTOMOTIVE","Address":"28730 Via Montezuma 103","City":"Temecula","State":"CA","Zip":"92590"},{"Location":"INTERNATIONAL RECTIFIER","Address":"41915 Business Park Dr","City":"Temecula","State":"CA","Zip":"92590"},{"Location":"ITS TABU SUSHI BAR","Address":"28693 Old Town Front St","City":"Temecula","State":"CA","Zip":"92590"},{"Location":"KAREN MCCOY","Address":"41964 Main St E","City":"Temecula","State":"CA","Zip":"92590"},{"Location":"LUKES","Address":"28693 Old Town Front St 402","City":"Temecula","State":"CA","Zip":"92590"},{"Location":"MEDICAL WEIGHT LOSS","Address":"27521 Commerce Center Dr B","City":"Temecula","State":"CA","Zip":"92590"},{"Location":"METALOGRAPHY INC","Address":"28900 Old Town Front St 106","City":"Temecula","State":"CA","Zip":"92590"},{"Location":"MG AVIATION","Address":"42409 Winchester Rd","City":"Temecula","State":"CA","Zip":"92590"},{"Location":"MISSION PRODUCE INC","Address":"28071 Diaz Rd","City":"Temecula","State":"CA","Zip":"92590"},{"Location":"NITZAS PIZZA","Address":"42072 5th St 106","City":"Temecula","State":"CA","Zip":"92590"},{"Location":"OAK PARK BLDG.","Address":"28581 Old Town Front St","City":"Temecula","State":"CA","Zip":"92590"},{"Location":"OLD TOWN PUB N GRUB","Address":"28677 Old Town Front St","City":"Temecula","State":"CA","Zip":"92590"},{"Location":"OPENJAR CONCEPTS","Address":"27710 Jefferson Ave 302","City":"Temecula","State":"CA","Zip":"92590"},{"Location":"OREQ CORPORATION","Address":"42306 Remington Ave","City":"Temecula","State":"CA","Zip":"92590"},{"Location":"PANCON ACQUISITION CORP","Address":"42136 Avenida Alvarado","City":"Temecula","State":"CA","Zip":"92590"},{"Location":"PENFOLD'S CAFE & BAKERY","Address":"28250 Old Town Front St","City":"Temecula","State":"CA","Zip":"92590"},{"Location":"PINK PINEAPPLE BOUTIQUE","Address":"28636 Old Town Front St 104","City":"Temecula","State":"CA","Zip":"92590"},{"Location":"PIZZARIA DE MILANO","Address":"28276 Old Town Front St","City":"Temecula","State":"CA","Zip":"92590"},{"Location":"PMM ENGINEERING","Address":"43176 Business Park Dr 102","City":"Temecula","State":"CA","Zip":"92590"},{"Location":"PRECISION STORAGE CONCEP","Address":"28061 Diaz Rd","City":"Temecula","State":"CA","Zip":"92590"},{"Location":"PREMIER BARRIACDES","Address":"28441 Felix Valdez Ave","City":"Temecula","State":"CA","Zip":"92590"},{"Location":"PROFESSIONAL HOSPITAL","Address":"42500 Winchester Rd","City":"Temecula","State":"CA","Zip":"92590"},{"Location":"PROFESSIONAL HOSPITAL SUPPLY","Address":"42500 Winchester Rd","City":"Temecula","State":"CA","Zip":"92590"},{"Location":"QUAD HARLEY","Address":"28897 Old Town Front St","City":"Temecula","State":"CA","Zip":"92590"},{"Location":"QUAID HARLEY DAVIDSON","Address":"28964 Old Town Front St","City":"Temecula","State":"CA","Zip":"92590"},{"Location":"RANCHO FAMILY MEDICAL GROUP","Address":"28780 Single Oak Dr 160","City":"Temecula","State":"CA","Zip":"92590"},{"Location":"REFUGE BREWERY","Address":"43040 Rancho Way 200","City":"Temecula","State":"CA","Zip":"92590"},{"Location":"RELIABLE FAMILY AUTO REPAIR","Address":"43094 Via Dos Picos D","City":"Temecula","State":"CA","Zip":"92590"},{"Location":"RICHARD","Address":"41593 Winchester Rd","City":"Temecula","State":"CA","Zip":"92590"},{"Location":"ROSAS CANTINA","Address":"28636 Old Town Front St 109","City":"Temecula","State":"CA","Zip":"92590"},{"Location":"RV SUPER CENTER","Address":"27941 Jefferson Ave","City":"Temecula","State":"CA","Zip":"92590"},{"Location":"SIERRA PACIFIC FARMS","Address":"27120 Avenida Del Oro","City":"Temecula","State":"CA","Zip":"92590"},{"Location":"SORO'S MEDITERIAN","Address":"28464 Old Town Front St","City":"Temecula","State":"CA","Zip":"92590"},{"Location":"STRAIGHT LINE GLASS AND MIRROR","Address":"28125 Jefferson Ave","City":"Temecula","State":"CA","Zip":"92590"},{"Location":"SWING INN CAFE","Address":"28676 Old Town Front St","City":"Temecula","State":"CA","Zip":"92590"},{"Location":"TC PIZZA CORP","Address":"27314 Jefferson Ave 1","City":"Temecula","State":"CA","Zip":"92590"},{"Location":"TEMECULA AUTO REPAIR","Address":"43191 Rancho Way","City":"Temecula","State":"CA","Zip":"92590"},{"Location":"TEMECULA BEVERAGE  LLC","Address":"27423 Jefferson Ave","City":"Temecula","State":"CA","Zip":"92590"},{"Location":"TEMECULA FOOD COURT","Address":"29105 Front St","City":"Temecula","State":"CA","Zip":"92590"},{"Location":"TEMECULA LANES","Address":"27475 Jefferson Ave","City":"Temecula","State":"CA","Zip":"92590"},{"Location":"TEMECULA ORTHODONTIC GROUP","Address":"41593 Winchester Rd 214","City":"Temecula","State":"CA","Zip":"92590"},{"Location":"TEMECULA PSYCHIC","Address":"28464 Old Town Front St C","City":"Temecula","State":"CA","Zip":"92590"},{"Location":"TEMECULA STAMPEED INC","Address":"28721 Old Town Front St","City":"Temecula","State":"CA","Zip":"92590"},{"Location":"TEMECULA VALLEY ALANO CLUB","Address":"27470 Commerce Center Dr C","City":"Temecula","State":"CA","Zip":"92590"},{"Location":"TEMECULA VALLEY EVENT CENTER","Address":"27345 Jefferson Ave","City":"Temecula","State":"CA","Zip":"92590"},{"Location":"TEMECULA VALLEY PIPE","Address":"28074 Del Rio Rd","City":"Temecula","State":"CA","Zip":"92590"},{"Location":"TEMECULA WINE GARDEN","Address":"28464 Old Town Front St","City":"Temecula","State":"CA","Zip":"92590"},{"Location":"TEXAS LIL'S MESQUITE","Address":"28495 Front St C","City":"Temecula","State":"CA","Zip":"92590"},{"Location":"THE GAMBLING COWBOY CHOPHOUSE","Address":"42072 5th St 3rdfl","City":"Temecula","State":"CA","Zip":"92590"},{"Location":"THE PRESS-ENTERPRISE","Address":"27740 Jefferson Ave 320","City":"Temecula","State":"CA","Zip":"92590"},{"Location":"THE PUBLIC HOUSE","Address":"41971 Main St","City":"Temecula","State":"CA","Zip":"92590"},{"Location":"THOMAS WIGGINS MD","Address":"28900 Old Town Front St 103","City":"Temecula","State":"CA","Zip":"92590"},{"Location":"THRIVENT FINANCIAL FOR","Address":"28780 Single Oak Dr 250","City":"Temecula","State":"CA","Zip":"92590"},{"Location":"TOWN AND COUNTRY TOWING","Address":"42250 Baldaray Cir B","City":"Temecula","State":"CA","Zip":"92590"},{"Location":"UPTOWN TAVERN","Address":"27911 Jefferson Ave 104","City":"Temecula","State":"CA","Zip":"92590"},{"Location":"VAIL RANCH STEAKHOUSE","Address":"27600 Jefferson Ave","City":"Temecula","State":"CA","Zip":"92590"},{"Location":"VCA EL RANCHO ANIMAL HOSPITAL","Address":"41670 Winchester Rd B","City":"Temecula","State":"CA","Zip":"92590"},{"Location":"VEROS MEXICAN FOOD","Address":"27911 Jefferson Ave 101","City":"Temecula","State":"CA","Zip":"92590"},{"Location":"VFW POST 4089","Address":"28075 Diaz Rd","City":"Temecula","State":"CA","Zip":"92590"},{"Location":"VINCES SPAGHETTI EXPRESS","Address":"28145 Jefferson Ave","City":"Temecula","State":"CA","Zip":"92590"},{"Location":"WEST COAST FLOORING CENTER","Address":"28011 Jefferson Ave","City":"Temecula","State":"CA","Zip":"92590"},{"Location":"WIENS BREWINGS COMPANY","Address":"27941 Diaz Rd A","City":"Temecula","State":"CA","Zip":"92590"},{"Location":"WINE ON THE DIME","Address":"28061 Jefferson Ave 5","City":"Temecula","State":"CA","Zip":"92590"},{"Location":"ZARKA PRIVATE CIGAR LOUNGE","Address":"28120 Jefferson Ave B202","City":"Temecula","State":"CA","Zip":"92590"}]