[{"Location":"BUM STEER BAR AND GRILL","Address":"33040 Simpson Rd","City":"Winchester","State":"CA","Zip":"92596"},{"Location":"CAMP PENDLETON","Address":"37312 Pourroy Rd","City":"Winchester","State":"CA","Zip":"92596"},{"Location":"CRUNCH FITNESS TEMECULA","Address":"36580 Penfield Ln","City":"Winchester","State":"CA","Zip":"92596"},{"Location":"HORIZON PET SUPPLY","Address":"30688 Benton Rd B103","City":"Winchester","State":"CA","Zip":"92596"},{"Location":"LOS PRIMOS MEXICAN REST.","Address":"30628 Benton Rd 205","City":"Winchester","State":"CA","Zip":"92596"},{"Location":"MOUNTAIN VIEW GOODYEAR","Address":"30664 Benton Rd","City":"Winchester","State":"CA","Zip":"92596"},{"Location":"PIZZA FACTORY","Address":"30676 Benton Rd 400","City":"Winchester","State":"CA","Zip":"92596"},{"Location":"SKYBOX GRILL & TAVERN","Address":"30724 Benton Rd C308","City":"Winchester","State":"CA","Zip":"92596"},{"Location":"WINCHESTER INN","Address":"28314 Winchester Rd","City":"Winchester","State":"CA","Zip":"92596"},{"Location":"BUM STEER BAR AND GRILL","Address":"33040 Simpson Rd","City":"Winchester","State":"CA","Zip":"92596"},{"Location":"CAMP PENDLETON","Address":"37312 Pourroy Rd","City":"Winchester","State":"CA","Zip":"92596"},{"Location":"CRUNCH FITNESS TEMECULA","Address":"36580 Penfield Ln","City":"Winchester","State":"CA","Zip":"92596"},{"Location":"HORIZON PET SUPPLY","Address":"30688 Benton Rd B103","City":"Winchester","State":"CA","Zip":"92596"},{"Location":"LOS PRIMOS MEXICAN REST.","Address":"30628 Benton Rd 205","City":"Winchester","State":"CA","Zip":"92596"},{"Location":"MOUNTAIN VIEW GOODYEAR","Address":"30664 Benton Rd","City":"Winchester","State":"CA","Zip":"92596"},{"Location":"PIZZA FACTORY","Address":"30676 Benton Rd 400","City":"Winchester","State":"CA","Zip":"92596"},{"Location":"SKYBOX GRILL & TAVERN","Address":"30724 Benton Rd C308","City":"Winchester","State":"CA","Zip":"92596"},{"Location":"WINCHESTER INN","Address":"28314 Winchester Rd","City":"Winchester","State":"CA","Zip":"92596"}]