[{"Location":"BEAR CREEK EYE CARE 1","Address":"32100 Clinton Keith Rd F","City":"Wildomar","State":"CA","Zip":"92595"},{"Location":"CITY OF WILDOMAR","Address":"23873 Clinton Keith Rd 111","City":"Wildomar","State":"CA","Zip":"92595"},{"Location":"D CANTERS WINE BAR AND GRILL","Address":"32100 Clinton Keith Rd","City":"Wildomar","State":"CA","Zip":"92595"},{"Location":"DON PANCHOS","Address":"32475 Clinton Keith Rd 113","City":"Wildomar","State":"CA","Zip":"92595"},{"Location":"FITNESS 19","Address":"23877 Clinton Keith Rd","City":"Wildomar","State":"CA","Zip":"92595"},{"Location":"FREDDYS TACOS","Address":"21465 Palomar St 2","City":"Wildomar","State":"CA","Zip":"92595"},{"Location":"FS HAIR","Address":"23905 Clinton Keith Rd 110","City":"Wildomar","State":"CA","Zip":"92595"},{"Location":"GREASE MONKEY","Address":"32120 Clinton Keith Rd","City":"Wildomar","State":"CA","Zip":"92595"},{"Location":"HORIZON PET SUPPLY","Address":"36068 Hidden Springs Rd E","City":"Wildomar","State":"CA","Zip":"92595"},{"Location":"INLAND URGENT CARE","Address":"36320 Inland Valley Dr 307","City":"Wildomar","State":"CA","Zip":"92595"},{"Location":"JIFFY LUBE WINDOMAR","Address":"32374 Clinton Keith Rd","City":"Wildomar","State":"CA","Zip":"92595"},{"Location":"LOS REYES RESTAURANT","Address":"23865 Clinton Keith Rd 2","City":"Wildomar","State":"CA","Zip":"92595"},{"Location":"PIZZA FACTORY","Address":"34830 Monte Vista Dr 101","City":"Wildomar","State":"CA","Zip":"92595"},{"Location":"RUBYS ANTIQUES AND THRIF","Address":"32020 Corydon Rd","City":"Wildomar","State":"CA","Zip":"92595"},{"Location":"S CALIFORNIA EDISON","Address":"24487 Prielipp Rd","City":"Wildomar","State":"CA","Zip":"92595"},{"Location":"SAKE SUSHI","Address":"36068 Hidden Springs Rd K","City":"Wildomar","State":"CA","Zip":"92595"},{"Location":"SERV PRO","Address":"22135 Corazza St","City":"Wildomar","State":"CA","Zip":"92595"},{"Location":"STADIUM PIZZA","Address":"32278 Clinton Keith Rd 100","City":"Wildomar","State":"CA","Zip":"92595"},{"Location":"TACOS TIJUANA MEXICAN GRILL","Address":"32100 Clinton Keith Rd I","City":"Wildomar","State":"CA","Zip":"92595"},{"Location":"TEAKWOODS BAR VS GRILL","Address":"23971 Clinton Keith Rd A101","City":"Wildomar","State":"CA","Zip":"92595"},{"Location":"TESORO ITLAIAN CRUZINE","Address":"32475 Clinton Keith Rd 11","City":"Wildomar","State":"CA","Zip":"92595"},{"Location":"TRESINOS","Address":"36068 Hidden Springs Rd L","City":"Wildomar","State":"CA","Zip":"92595"},{"Location":"VETERIANS POST 1508","Address":"21181 Waite St","City":"Wildomar","State":"CA","Zip":"92595"},{"Location":"WONDER NAILS & SPA","Address":"36004 Hidden Springs Rd B","City":"Wildomar","State":"CA","Zip":"92595"}]