[{"Location":"24 HOUR FITNESS #853","Address":"27520 Ynez Rd","City":"Temecula","State":"CA","Zip":"92591"},{"Location":"ACTION FUEL  LLC","Address":"29073 Overland Dr 111","City":"Temecula","State":"CA","Zip":"92591"},{"Location":"AMERICAS FINEST CARPETS","Address":"40705 Winchester Rd 10310","City":"Temecula","State":"CA","Zip":"92591"},{"Location":"ANYTIME FITNESS TEMECULA","Address":"30520 Rancho California Rd 108","City":"Temecula","State":"CA","Zip":"92591"},{"Location":"ATL WINGS YOUR WAY1","Address":"42197 Margarita Rd","City":"Temecula","State":"CA","Zip":"92591"},{"Location":"BEL VINO","Address":"33515 Rancho California Rd","City":"Temecula","State":"CA","Zip":"92591"},{"Location":"BELVINO WINERY","Address":"33515 Rancho California Rd","City":"Temecula","State":"CA","Zip":"92591"},{"Location":"BJ'S RESTAURANT #456","Address":"26500 Ynez Rd","City":"Temecula","State":"CA","Zip":"92591"},{"Location":"BLUE WATER GRILL","Address":"26700 Ynez Ct","City":"Temecula","State":"CA","Zip":"92591"},{"Location":"BROKEN YOLK TEMECULA","Address":"26495 Ynez Rd","City":"Temecula","State":"CA","Zip":"92591"},{"Location":"BURGERS & BEER TEMECULA","Address":"41577 Margarita Rd","City":"Temecula","State":"CA","Zip":"92591"},{"Location":"BURRITO SANTANA","Address":"41125 Winchester Rd B8","City":"Temecula","State":"CA","Zip":"92591"},{"Location":"CHILI'S #0282","Address":"27645 Ynez Rd","City":"Temecula","State":"CA","Zip":"92591"},{"Location":"CLAIM JUMPER #10","Address":"29540 Rancho California Rd","City":"Temecula","State":"CA","Zip":"92591"},{"Location":"COSI","Address":"41493 Margarita Rd G109","City":"Temecula","State":"CA","Zip":"92591"},{"Location":"COUNTRYWIDE CA6-923-01-01","Address":"27546 Ynez Rd P2a","City":"Temecula","State":"CA","Zip":"92591"},{"Location":"DAPHNES GREEK","Address":"27644 Ynez Rd M13","City":"Temecula","State":"CA","Zip":"92591"},{"Location":"DAVITA #883 TEMECULA","Address":"40945 County Center Dr G","City":"Temecula","State":"CA","Zip":"92591"},{"Location":"DCH ACURA OF TEMECULA","Address":"26705 Ynez Rd","City":"Temecula","State":"CA","Zip":"92591"},{"Location":"DCH HONDA TEMECULA","Address":"26755 Ynez Rd","City":"Temecula","State":"CA","Zip":"92591"},{"Location":"DESTINATION XL 9828","Address":"40620 Winchester Rd","City":"Temecula","State":"CA","Zip":"92591"},{"Location":"DICKEYS TEMECULA  568","Address":"40315 Winchester Rd","City":"Temecula","State":"CA","Zip":"92591"},{"Location":"EL LIMONCITO","Address":"27529 Ynez Rd","City":"Temecula","State":"CA","Zip":"92591"},{"Location":"EL TORITO 7247","Address":"40517 Magarita Rd","City":"Temecula","State":"CA","Zip":"92591"},{"Location":"FAMOUS DAVE'S #3171","Address":"26478 Ynez Rd","City":"Temecula","State":"CA","Zip":"92591"},{"Location":"FANTASTIC SAM","Address":"31867 Rancho California Rd 300","City":"Temecula","State":"CA","Zip":"92591"},{"Location":"GILMORE AUTOMOTIVE GROUP INC","Address":"27420 Ynez Rd","City":"Temecula","State":"CA","Zip":"92591"},{"Location":"GIN SUSHI","Address":"26489 Ynez Rd D","City":"Temecula","State":"CA","Zip":"92591"},{"Location":"GOLD'S GYM","Address":"31795 Rancho California Rd 700","City":"Temecula","State":"CA","Zip":"92591"},{"Location":"GREEN IVY NAILS AND SPA","Address":"41785 Nicole Ln A2","City":"Temecula","State":"CA","Zip":"92591"},{"Location":"H HOLLANDER INS","Address":"27403 Ynez Rd 110","City":"Temecula","State":"CA","Zip":"92591"},{"Location":"HANA SUSHI TEMECULA","Address":"27576 Ynez Rd","City":"Temecula","State":"CA","Zip":"92591"},{"Location":"HITECH WIRELESS","Address":"29760 Rancho California Rd","City":"Temecula","State":"CA","Zip":"92591"},{"Location":"ICHIBAN SUSHI","Address":"41915 Motor Car Pkwy D","City":"Temecula","State":"CA","Zip":"92591"},{"Location":"ISLANDS RESTAURANT #046","Address":"40497 Margarita Rd","City":"Temecula","State":"CA","Zip":"92591"},{"Location":"IVY NAILS & SPA","Address":"26487 Ynez Rd E","City":"Temecula","State":"CA","Zip":"92591"},{"Location":"JIFFY LUBE 1878","Address":"30690 Rancho California Rd","City":"Temecula","State":"CA","Zip":"92591"},{"Location":"JOHN HINE TEMECULA SUBARU","Address":"42050 Dlr Dr B","City":"Temecula","State":"CA","Zip":"92591"},{"Location":"KARL STRAUSS TEMECULA","Address":"40868 Winchester Rd","City":"Temecula","State":"CA","Zip":"92591"},{"Location":"KITCHEN FANTSAY","Address":"27576 Ynez Rd H1","City":"Temecula","State":"CA","Zip":"92591"},{"Location":"L & M TIRE COMPANY INC.","Address":"40915 Winchester Rd","City":"Temecula","State":"CA","Zip":"92591"},{"Location":"LA BELLA VITA","Address":"39738 Winchester Rd","City":"Temecula","State":"CA","Zip":"92591"},{"Location":"LA CRAWFISH","Address":"40788 Winchester Rd C","City":"Temecula","State":"CA","Zip":"92591"},{"Location":"LA FITNESS #73","Address":"39716 Winchester Rd","City":"Temecula","State":"CA","Zip":"92591"},{"Location":"LAZY DOG CAFE","Address":"40754 Winchester Rd","City":"Temecula","State":"CA","Zip":"92591"},{"Location":"LEGENDS GOLF CLUB","Address":"41687 Temeku Dr","City":"Temecula","State":"CA","Zip":"92591"},{"Location":"LOS PRIMOS MEXICAN FOOD","Address":"40720 Winchester Rd","City":"Temecula","State":"CA","Zip":"92591"},{"Location":"LUCILLE'S SMOKEHOUSE BBQ #27","Address":"40748 Winchester Rd","City":"Temecula","State":"CA","Zip":"92591"},{"Location":"LUNADAS CORPORATION","Address":"31915 Rancho California Rd 30","City":"Temecula","State":"CA","Zip":"92591"},{"Location":"MACARONI GRILL #1251","Address":"41221a Margarita Rd","City":"Temecula","State":"CA","Zip":"92591"},{"Location":"MACY'S WEST 535","Address":"40780 Winchester Rd","City":"Temecula","State":"CA","Zip":"92591"},{"Location":"MACY'S WEST 535","Address":"40900 Winchester Rd","City":"Temecula","State":"CA","Zip":"92591"},{"Location":"MACY'S WEST 535 BR","Address":"40900 Winchester Rd","City":"Temecula","State":"CA","Zip":"92591"},{"Location":"MARGARITA ESTHETICS","Address":"29049 Overland Dr C","City":"Temecula","State":"CA","Zip":"92591"},{"Location":"MEN'S WEARHOUSE #2737","Address":"40788 Winchester Rd A","City":"Temecula","State":"CA","Zip":"92591"},{"Location":"MERCEDES BENZ TEMECULA","Address":"40910 Temecula Center Dr","City":"Temecula","State":"CA","Zip":"92591"},{"Location":"MONTE DE ORO","Address":"35820 Rancho California Rd","City":"Temecula","State":"CA","Zip":"92591"},{"Location":"MY YOU EXPRESS","Address":"31795 Rancho California Rd 10","City":"Temecula","State":"CA","Zip":"92591"},{"Location":"NORDSTROM RACK - TEMECULA","Address":"40450 Winchester Rd C","City":"Temecula","State":"CA","Zip":"92591"},{"Location":"NORM REEVES DODGE","Address":"26845 Ynez Rd","City":"Temecula","State":"CA","Zip":"92591"},{"Location":"OASIS DENTAL","Address":"41278 Margarita Rd 101","City":"Temecula","State":"CA","Zip":"92591"},{"Location":"OFELIA ERVIN","Address":"26439 Ynez Rd 111","City":"Temecula","State":"CA","Zip":"92591"},{"Location":"OISHI JAPAN REST","Address":"27507 Ynez Rd B","City":"Temecula","State":"CA","Zip":"92591"},{"Location":"OLIVE GARDEN #1678","Address":"29025 Overland Dr","City":"Temecula","State":"CA","Zip":"92591"},{"Location":"ONE STOP SHOPPE","Address":"30520 Rancho California Rd A103","City":"Temecula","State":"CA","Zip":"92591"},{"Location":"OUTBACK STEAKHOUSE","Address":"40275 Winchester Rd","City":"Temecula","State":"CA","Zip":"92591"},{"Location":"OVERLAND DENTAL","Address":"41653 Margarita Rd 107","City":"Temecula","State":"CA","Zip":"92591"},{"Location":"PANCHA THAI","Address":"41125 Winchester Rd B9","City":"Temecula","State":"CA","Zip":"92591"},{"Location":"PARADISE AUTO","Address":"27360 Ynez Rd","City":"Temecula","State":"CA","Zip":"92591"},{"Location":"PARADISE AUTO SALES","Address":"27360 Ynez Rd A","City":"Temecula","State":"CA","Zip":"92591"},{"Location":"PARADISE CHEVROLET","Address":"27360 Ynez Rd","City":"Temecula","State":"CA","Zip":"92591"},{"Location":"PAT & OSCARS PM","Address":"29375 Rancho California Rd","City":"Temecula","State":"CA","Zip":"92591"},{"Location":"PF CHANG'S #9862","Address":"40762 Winchester Rd","City":"Temecula","State":"CA","Zip":"92591"},{"Location":"PHO NOMENON","Address":"41797 Nicole Ln","City":"Temecula","State":"CA","Zip":"92591"},{"Location":"PHO THO","Address":"27644 Ynez Road #m11-9","City":"Temecula","State":"CA","Zip":"92591"},{"Location":"PHO THO #2","Address":"27644 Ynez Rd M11-9","City":"Temecula","State":"CA","Zip":"92591"},{"Location":"PIE STOP MC","Address":"29363 Rancho California Rd","City":"Temecula","State":"CA","Zip":"92591"},{"Location":"PONTE VINEYARD BAR","Address":"35053 Rancho California Rd","City":"Temecula","State":"CA","Zip":"92591"},{"Location":"PONTE WINERY","Address":"35053 Rancho California Rd","City":"Temecula","State":"CA","Zip":"92591"},{"Location":"PROMINADE OPTOMETRY","Address":"40764 Winchester Rd","City":"Temecula","State":"CA","Zip":"92591"},{"Location":"RANCHO DENTAL","Address":"29746 Rancho California Rd","City":"Temecula","State":"CA","Zip":"92591"},{"Location":"RANCHO FORD LINCOLN-MERCURY","Address":"26895 Ynez Rd","City":"Temecula","State":"CA","Zip":"92591"},{"Location":"RBF CONSULTING #2","Address":"40810 County Center Dr","City":"Temecula","State":"CA","Zip":"92591"},{"Location":"RED LOBSTER #6313","Address":"41649 Margarita Rd","City":"Temecula","State":"CA","Zip":"92591"},{"Location":"RED ROBIN #158","Address":"40820 Winchester Rd 1070","City":"Temecula","State":"CA","Zip":"92591"},{"Location":"ROCKAFELLAS FAMOUS DELI","Address":"40335 Winchester Rd K","City":"Temecula","State":"CA","Zip":"92591"},{"Location":"RODRIGOS MEXICAN GRILL","Address":"39562 Winchester Rd","City":"Temecula","State":"CA","Zip":"92591"},{"Location":"ROSATIS TEM.LLC","Address":"30680 Rancho California Rd M2","City":"Temecula","State":"CA","Zip":"92591"},{"Location":"ROUND TABLE PIZZA-YNES RD","Address":"27644 Ynes Road","City":"Temecula","State":"CA","Zip":"92591"},{"Location":"SEOUL GALBI","Address":"41925 Motor Car Pkwy G","City":"Temecula","State":"CA","Zip":"92591"},{"Location":"SHAKEY'S PIZZA PARLOR #29","Address":"26479 Ynoz Rd C","City":"Temecula","State":"CA","Zip":"92591"},{"Location":"SORREL BISTRO  INC","Address":"41377 Margarita Rd 108","City":"Temecula","State":"CA","Zip":"92591"},{"Location":"SOUTHERN PAC PIZZA LLC","Address":"27267 Nicolas Rd 104","City":"Temecula","State":"CA","Zip":"92591"},{"Location":"SPORT CLIPS CA633","Address":"40335 Winchester Rd A","City":"Temecula","State":"CA","Zip":"92591"},{"Location":"SUITES BAR","Address":"29345 Rancho California Rd","City":"Temecula","State":"CA","Zip":"92591"},{"Location":"SURF TORTAS Y TACOS","Address":"29760 Rancho California Rd D115","City":"Temecula","State":"CA","Zip":"92591"},{"Location":"SUSHI LOVEBOAT","Address":"26480 Ynez Rd","City":"Temecula","State":"CA","Zip":"92591"},{"Location":"TAURIAN BA LLC #1100","Address":"27735 Ynez Rd","City":"Temecula","State":"CA","Zip":"92591"},{"Location":"TEMECULA DENTAL","Address":"39804 Winchester Rd B","City":"Temecula","State":"CA","Zip":"92591"},{"Location":"TEMECULA MAZDA","Address":"42050 Dlr Dr","City":"Temecula","State":"CA","Zip":"92591"},{"Location":"TEMECULA NISSAN","Address":"41895 Motor Car Pkwy","City":"Temecula","State":"CA","Zip":"92591"},{"Location":"TEMECULA SMOG","Address":"26673 Ynez Rd","City":"Temecula","State":"CA","Zip":"92591"},{"Location":"TEMECULA VETERAN CENTER","Address":"40935 County Center Dr","City":"Temecula","State":"CA","Zip":"92591"},{"Location":"TEN PERFECT NAILS","Address":"40820 Winchester Rd 2100","City":"Temecula","State":"CA","Zip":"92591"},{"Location":"TGI FRIDAY'S #1947","Address":"40830 Winchester Rd","City":"Temecula","State":"CA","Zip":"92591"},{"Location":"THE GREEN BURRITO","Address":"30680 Rancho California Rd M6","City":"Temecula","State":"CA","Zip":"92591"},{"Location":"TILTED KILT PUB & EATERY","Address":"26520 Ynez Rd","City":"Temecula","State":"CA","Zip":"92591"},{"Location":"TIRE KINGDOM B-5820","Address":"40525 Winchester Rd","City":"Temecula","State":"CA","Zip":"92591"},{"Location":"TOWN CENTER LAUNDRY","Address":"27468 Ynez Rd B11","City":"Temecula","State":"CA","Zip":"92591"},{"Location":"TRULY MADLY SWEETLY","Address":"40754 Winchester Rd 300","City":"Temecula","State":"CA","Zip":"92591"},{"Location":"VALLE D BRUNE","Address":"41413 Margarita Rd 101","City":"Temecula","State":"CA","Zip":"92591"},{"Location":"VEIN AND LIPOSCULPTURE CENTER","Address":"40573 Margarita Rd","City":"Temecula","State":"CA","Zip":"92591"},{"Location":"WESTERN EAGLE FOUNDATION","Address":"409 County Center Dr","City":"Temecula","State":"CA","Zip":"92591"},{"Location":"WILSON CREEK WINERY","Address":"35960 Rancho California Rd","City":"Temecula","State":"CA","Zip":"92591"},{"Location":"WINGS N THINGS TEM","Address":"39650 Winchester Rd B","City":"Temecula","State":"CA","Zip":"92591"},{"Location":"YARD HOUSE #8322","Address":"40770 Winchester Rd 750","City":"Temecula","State":"CA","Zip":"92591"},{"Location":"YOGURT FACTURY","Address":"39694 Winchester Rd A","City":"Temecula","State":"CA","Zip":"92591"},{"Location":"24 HOUR FITNESS #853","Address":"27520 Ynez Rd","City":"Temecula","State":"CA","Zip":"92591"},{"Location":"ACTION FUEL  LLC","Address":"29073 Overland Dr 111","City":"Temecula","State":"CA","Zip":"92591"},{"Location":"AMERICAS FINEST CARPETS","Address":"40705 Winchester Rd 10310","City":"Temecula","State":"CA","Zip":"92591"},{"Location":"ANYTIME FITNESS TEMECULA","Address":"30520 Rancho California Rd 108","City":"Temecula","State":"CA","Zip":"92591"},{"Location":"ATL WINGS YOUR WAY1","Address":"42197 Margarita Rd","City":"Temecula","State":"CA","Zip":"92591"},{"Location":"BEL VINO","Address":"33515 Rancho California Rd","City":"Temecula","State":"CA","Zip":"92591"},{"Location":"BELVINO WINERY","Address":"33515 Rancho California Rd","City":"Temecula","State":"CA","Zip":"92591"},{"Location":"BJ'S RESTAURANT #456","Address":"26500 Ynez Rd","City":"Temecula","State":"CA","Zip":"92591"},{"Location":"BLUE WATER GRILL","Address":"26700 Ynez Ct","City":"Temecula","State":"CA","Zip":"92591"},{"Location":"BROKEN YOLK TEMECULA","Address":"26495 Ynez Rd","City":"Temecula","State":"CA","Zip":"92591"},{"Location":"BURGERS & BEER TEMECULA","Address":"41577 Margarita Rd","City":"Temecula","State":"CA","Zip":"92591"},{"Location":"BURRITO SANTANA","Address":"41125 Winchester Rd B8","City":"Temecula","State":"CA","Zip":"92591"},{"Location":"CHILI'S #0282","Address":"27645 Ynez Rd","City":"Temecula","State":"CA","Zip":"92591"},{"Location":"CLAIM JUMPER #10","Address":"29540 Rancho California Rd","City":"Temecula","State":"CA","Zip":"92591"},{"Location":"COSI","Address":"41493 Margarita Rd G109","City":"Temecula","State":"CA","Zip":"92591"},{"Location":"COUNTRYWIDE CA6-923-01-01","Address":"27546 Ynez Rd P2a","City":"Temecula","State":"CA","Zip":"92591"},{"Location":"DAPHNES GREEK","Address":"27644 Ynez Rd M13","City":"Temecula","State":"CA","Zip":"92591"},{"Location":"DAVITA #883 TEMECULA","Address":"40945 County Center Dr G","City":"Temecula","State":"CA","Zip":"92591"},{"Location":"DCH ACURA OF TEMECULA","Address":"26705 Ynez Rd","City":"Temecula","State":"CA","Zip":"92591"},{"Location":"DCH HONDA TEMECULA","Address":"26755 Ynez Rd","City":"Temecula","State":"CA","Zip":"92591"},{"Location":"DESTINATION XL 9828","Address":"40620 Winchester Rd","City":"Temecula","State":"CA","Zip":"92591"},{"Location":"DICKEYS TEMECULA  568","Address":"40315 Winchester Rd","City":"Temecula","State":"CA","Zip":"92591"},{"Location":"EL LIMONCITO","Address":"27529 Ynez Rd","City":"Temecula","State":"CA","Zip":"92591"},{"Location":"EL TORITO 7247","Address":"40517 Magarita Rd","City":"Temecula","State":"CA","Zip":"92591"},{"Location":"FAMOUS DAVE'S #3171","Address":"26478 Ynez Rd","City":"Temecula","State":"CA","Zip":"92591"},{"Location":"FANTASTIC SAM","Address":"31867 Rancho California Rd 300","City":"Temecula","State":"CA","Zip":"92591"},{"Location":"GILMORE AUTOMOTIVE GROUP INC","Address":"27420 Ynez Rd","City":"Temecula","State":"CA","Zip":"92591"},{"Location":"GIN SUSHI","Address":"26489 Ynez Rd D","City":"Temecula","State":"CA","Zip":"92591"},{"Location":"GOLD'S GYM","Address":"31795 Rancho California Rd 700","City":"Temecula","State":"CA","Zip":"92591"},{"Location":"GREEN IVY NAILS AND SPA","Address":"41785 Nicole Ln A2","City":"Temecula","State":"CA","Zip":"92591"},{"Location":"H HOLLANDER INS","Address":"27403 Ynez Rd 110","City":"Temecula","State":"CA","Zip":"92591"},{"Location":"HANA SUSHI TEMECULA","Address":"27576 Ynez Rd","City":"Temecula","State":"CA","Zip":"92591"},{"Location":"HITECH WIRELESS","Address":"29760 Rancho California Rd","City":"Temecula","State":"CA","Zip":"92591"},{"Location":"ICHIBAN SUSHI","Address":"41915 Motor Car Pkwy D","City":"Temecula","State":"CA","Zip":"92591"},{"Location":"ISLANDS RESTAURANT #046","Address":"40497 Margarita Rd","City":"Temecula","State":"CA","Zip":"92591"},{"Location":"IVY NAILS & SPA","Address":"26487 Ynez Rd E","City":"Temecula","State":"CA","Zip":"92591"},{"Location":"JIFFY LUBE 1878","Address":"30690 Rancho California Rd","City":"Temecula","State":"CA","Zip":"92591"},{"Location":"JOHN HINE TEMECULA SUBARU","Address":"42050 Dlr Dr B","City":"Temecula","State":"CA","Zip":"92591"},{"Location":"KARL STRAUSS TEMECULA","Address":"40868 Winchester Rd","City":"Temecula","State":"CA","Zip":"92591"},{"Location":"KITCHEN FANTSAY","Address":"27576 Ynez Rd H1","City":"Temecula","State":"CA","Zip":"92591"},{"Location":"L & M TIRE COMPANY INC.","Address":"40915 Winchester Rd","City":"Temecula","State":"CA","Zip":"92591"},{"Location":"LA BELLA VITA","Address":"39738 Winchester Rd","City":"Temecula","State":"CA","Zip":"92591"},{"Location":"LA CRAWFISH","Address":"40788 Winchester Rd C","City":"Temecula","State":"CA","Zip":"92591"},{"Location":"LA FITNESS #73","Address":"39716 Winchester Rd","City":"Temecula","State":"CA","Zip":"92591"},{"Location":"LAZY DOG CAFE","Address":"40754 Winchester Rd","City":"Temecula","State":"CA","Zip":"92591"},{"Location":"LEGENDS GOLF CLUB","Address":"41687 Temeku Dr","City":"Temecula","State":"CA","Zip":"92591"},{"Location":"LOS PRIMOS MEXICAN FOOD","Address":"40720 Winchester Rd","City":"Temecula","State":"CA","Zip":"92591"},{"Location":"LUCILLE'S SMOKEHOUSE BBQ #27","Address":"40748 Winchester Rd","City":"Temecula","State":"CA","Zip":"92591"},{"Location":"LUNADAS CORPORATION","Address":"31915 Rancho California Rd 30","City":"Temecula","State":"CA","Zip":"92591"},{"Location":"MACARONI GRILL #1251","Address":"41221a Margarita Rd","City":"Temecula","State":"CA","Zip":"92591"},{"Location":"MACY'S WEST 535","Address":"40780 Winchester Rd","City":"Temecula","State":"CA","Zip":"92591"},{"Location":"MACY'S WEST 535","Address":"40900 Winchester Rd","City":"Temecula","State":"CA","Zip":"92591"},{"Location":"MACY'S WEST 535 BR","Address":"40900 Winchester Rd","City":"Temecula","State":"CA","Zip":"92591"},{"Location":"MARGARITA ESTHETICS","Address":"29049 Overland Dr C","City":"Temecula","State":"CA","Zip":"92591"},{"Location":"MEN'S WEARHOUSE #2737","Address":"40788 Winchester Rd A","City":"Temecula","State":"CA","Zip":"92591"},{"Location":"MERCEDES BENZ TEMECULA","Address":"40910 Temecula Center Dr","City":"Temecula","State":"CA","Zip":"92591"},{"Location":"MONTE DE ORO","Address":"35820 Rancho California Rd","City":"Temecula","State":"CA","Zip":"92591"},{"Location":"MY YOU EXPRESS","Address":"31795 Rancho California Rd 10","City":"Temecula","State":"CA","Zip":"92591"},{"Location":"NORDSTROM RACK - TEMECULA","Address":"40450 Winchester Rd C","City":"Temecula","State":"CA","Zip":"92591"},{"Location":"NORM REEVES DODGE","Address":"26845 Ynez Rd","City":"Temecula","State":"CA","Zip":"92591"},{"Location":"OASIS DENTAL","Address":"41278 Margarita Rd 101","City":"Temecula","State":"CA","Zip":"92591"},{"Location":"OFELIA ERVIN","Address":"26439 Ynez Rd 111","City":"Temecula","State":"CA","Zip":"92591"},{"Location":"OISHI JAPAN REST","Address":"27507 Ynez Rd B","City":"Temecula","State":"CA","Zip":"92591"},{"Location":"OLIVE GARDEN #1678","Address":"29025 Overland Dr","City":"Temecula","State":"CA","Zip":"92591"},{"Location":"ONE STOP SHOPPE","Address":"30520 Rancho California Rd A103","City":"Temecula","State":"CA","Zip":"92591"},{"Location":"OUTBACK STEAKHOUSE","Address":"40275 Winchester Rd","City":"Temecula","State":"CA","Zip":"92591"},{"Location":"OVERLAND DENTAL","Address":"41653 Margarita Rd 107","City":"Temecula","State":"CA","Zip":"92591"},{"Location":"PANCHA THAI","Address":"41125 Winchester Rd B9","City":"Temecula","State":"CA","Zip":"92591"},{"Location":"PARADISE AUTO","Address":"27360 Ynez Rd","City":"Temecula","State":"CA","Zip":"92591"},{"Location":"PARADISE AUTO SALES","Address":"27360 Ynez Rd A","City":"Temecula","State":"CA","Zip":"92591"},{"Location":"PARADISE CHEVROLET","Address":"27360 Ynez Rd","City":"Temecula","State":"CA","Zip":"92591"},{"Location":"PAT & OSCARS PM","Address":"29375 Rancho California Rd","City":"Temecula","State":"CA","Zip":"92591"},{"Location":"PF CHANG'S #9862","Address":"40762 Winchester Rd","City":"Temecula","State":"CA","Zip":"92591"},{"Location":"PHO NOMENON","Address":"41797 Nicole Ln","City":"Temecula","State":"CA","Zip":"92591"},{"Location":"Pho Tho","Address":"27644 Ynez Road #m11-9","City":"Temecula","State":"CA","Zip":"92591"},{"Location":"PHO THO #2","Address":"27644 Ynez Rd M11-9","City":"Temecula","State":"CA","Zip":"92591"},{"Location":"PIE STOP MC","Address":"29363 Rancho California Rd","City":"Temecula","State":"CA","Zip":"92591"},{"Location":"PONTE VINEYARD BAR","Address":"35053 Rancho California Rd","City":"Temecula","State":"CA","Zip":"92591"},{"Location":"PONTE WINERY","Address":"35053 Rancho California Rd","City":"Temecula","State":"CA","Zip":"92591"},{"Location":"PROMINADE OPTOMETRY","Address":"40764 Winchester Rd","City":"Temecula","State":"CA","Zip":"92591"},{"Location":"RANCHO DENTAL","Address":"29746 Rancho California Rd","City":"Temecula","State":"CA","Zip":"92591"},{"Location":"RANCHO FORD LINCOLN-MERCURY","Address":"26895 Ynez Rd","City":"Temecula","State":"CA","Zip":"92591"},{"Location":"RBF CONSULTING #2","Address":"40810 County Center Dr","City":"Temecula","State":"CA","Zip":"92591"},{"Location":"RED LOBSTER #6313","Address":"41649 Margarita Rd","City":"Temecula","State":"CA","Zip":"92591"},{"Location":"RED ROBIN #158","Address":"40820 Winchester Rd 1070","City":"Temecula","State":"CA","Zip":"92591"},{"Location":"ROCKAFELLAS FAMOUS DELI","Address":"40335 Winchester Rd K","City":"Temecula","State":"CA","Zip":"92591"},{"Location":"RODRIGOS MEXICAN GRILL","Address":"39562 Winchester Rd","City":"Temecula","State":"CA","Zip":"92591"},{"Location":"ROSATIS TEM.LLC","Address":"30680 Rancho California Rd M2","City":"Temecula","State":"CA","Zip":"92591"},{"Location":"ROUND TABLE PIZZA-YNES RD","Address":"27644 Ynes Road","City":"Temecula","State":"CA","Zip":"92591"},{"Location":"SEOUL GALBI","Address":"41925 Motor Car Pkwy G","City":"Temecula","State":"CA","Zip":"92591"},{"Location":"SHAKEY'S PIZZA PARLOR #29","Address":"26479 Ynoz Rd C","City":"Temecula","State":"CA","Zip":"92591"},{"Location":"SORREL BISTRO  INC","Address":"41377 Margarita Rd 108","City":"Temecula","State":"CA","Zip":"92591"},{"Location":"SOUTHERN PAC PIZZA LLC","Address":"27267 Nicolas Rd 104","City":"Temecula","State":"CA","Zip":"92591"},{"Location":"SPORT CLIPS CA633","Address":"40335 Winchester Rd A","City":"Temecula","State":"CA","Zip":"92591"},{"Location":"SUITES BAR","Address":"29345 Rancho California Rd","City":"Temecula","State":"CA","Zip":"92591"},{"Location":"SURF TORTAS Y TACOS","Address":"29760 Rancho California Rd D115","City":"Temecula","State":"CA","Zip":"92591"},{"Location":"SUSHI LOVEBOAT","Address":"26480 Ynez Rd","City":"Temecula","State":"CA","Zip":"92591"},{"Location":"TAURIAN BA LLC #1100","Address":"27735 Ynez Rd","City":"Temecula","State":"CA","Zip":"92591"},{"Location":"TEMECULA DENTAL","Address":"39804 Winchester Rd B","City":"Temecula","State":"CA","Zip":"92591"},{"Location":"TEMECULA MAZDA","Address":"42050 Dlr Dr","City":"Temecula","State":"CA","Zip":"92591"},{"Location":"TEMECULA NISSAN","Address":"41895 Motor Car Pkwy","City":"Temecula","State":"CA","Zip":"92591"},{"Location":"TEMECULA SMOG","Address":"26673 Ynez Rd","City":"Temecula","State":"CA","Zip":"92591"},{"Location":"TEMECULA VETERAN CENTER","Address":"40935 County Center Dr","City":"Temecula","State":"CA","Zip":"92591"},{"Location":"TEN PERFECT NAILS","Address":"40820 Winchester Rd 2100","City":"Temecula","State":"CA","Zip":"92591"},{"Location":"TGI FRIDAY'S #1947","Address":"40830 Winchester Rd","City":"Temecula","State":"CA","Zip":"92591"},{"Location":"THE GREEN BURRITO","Address":"30680 Rancho California Rd M6","City":"Temecula","State":"CA","Zip":"92591"},{"Location":"TILTED KILT PUB & EATERY","Address":"26520 Ynez Rd","City":"Temecula","State":"CA","Zip":"92591"},{"Location":"TIRE KINGDOM B-5820","Address":"40525 Winchester Rd","City":"Temecula","State":"CA","Zip":"92591"},{"Location":"TOWN CENTER LAUNDRY","Address":"27468 Ynez Rd B11","City":"Temecula","State":"CA","Zip":"92591"},{"Location":"TRULY MADLY SWEETLY","Address":"40754 Winchester Rd 300","City":"Temecula","State":"CA","Zip":"92591"},{"Location":"VALLE D BRUNE","Address":"41413 Margarita Rd 101","City":"Temecula","State":"CA","Zip":"92591"},{"Location":"VEIN AND LIPOSCULPTURE CENTER","Address":"40573 Margarita Rd","City":"Temecula","State":"CA","Zip":"92591"},{"Location":"WESTERN EAGLE FOUNDATION","Address":"409 County Center Dr","City":"Temecula","State":"CA","Zip":"92591"},{"Location":"WILSON CREEK WINERY","Address":"35960 Rancho California Rd","City":"Temecula","State":"CA","Zip":"92591"},{"Location":"WINGS N THINGS TEM","Address":"39650 Winchester Rd B","City":"Temecula","State":"CA","Zip":"92591"},{"Location":"YARD HOUSE #8322","Address":"40770 Winchester Rd 750","City":"Temecula","State":"CA","Zip":"92591"},{"Location":"YOGURT FACTURY","Address":"39694 Winchester Rd A","City":"Temecula","State":"CA","Zip":"92591"}]