[{"Location":"686 CLUB","Address":"47950 N B I-15","City":"Temecula","State":"CA","Zip":"92592"},{"Location":"ALLIANCE PROPANE","Address":"46848 Pala Rd","City":"Temecula","State":"CA","Zip":"92592"},{"Location":"APPLEBEE'S #2150028","Address":"32175 Temecula Pkwy","City":"Temecula","State":"CA","Zip":"92592"},{"Location":"BAJA CACTUS MEXICAN FOOD","Address":"31285 Temecula Pkwy 100","City":"Temecula","State":"CA","Zip":"92592"},{"Location":"BELLA VISTA WINERY OF TEMECULA","Address":"41220 Calle Contento","City":"Temecula","State":"CA","Zip":"92592"},{"Location":"BEST CITY NAIL 2 CORPORATION","Address":"32240 Temecula Pkwy","City":"Temecula","State":"CA","Zip":"92592"},{"Location":"BIG HORSE FEED AND MERCANTILE","Address":"33320 Temecula Pkwy","City":"Temecula","State":"CA","Zip":"92592"},{"Location":"COMPASSION HEART CORP","Address":"32965 Temecula Pkwy","City":"Temecula","State":"CA","Zip":"92592"},{"Location":"COUGAR VINYARD AND WINERY","Address":"39870 De Portola Rd","City":"Temecula","State":"CA","Zip":"92592"},{"Location":"CROWN HILL PIZZA","Address":"43053 Margarita Rd","City":"Temecula","State":"CA","Zip":"92592"},{"Location":"DANZA DEL SOL WINERY","Address":"39050 De Portola Rd","City":"Temecula","State":"CA","Zip":"92592"},{"Location":"DENNIS L HUSTON DDS INC","Address":"31285 Highway 79 205","City":"Temecula","State":"CA","Zip":"92592"},{"Location":"DUKES MESQUITE BROILER","Address":"31940 Temecula Pkwy C1","City":"Temecula","State":"CA","Zip":"92592"},{"Location":"EXPRESS TIRE","Address":"44092 Margarita Rd","City":"Temecula","State":"CA","Zip":"92592"},{"Location":"FIRKIN CHEERS INC","Address":"32475 Temecula Pkwy","City":"Temecula","State":"CA","Zip":"92592"},{"Location":"FITNESS 19","Address":"32655 Temecula Pkwy","City":"Temecula","State":"CA","Zip":"92592"},{"Location":"FRANCESCAS ITALIAN KITCHEN","Address":"31165 Temecula Pkwy","City":"Temecula","State":"CA","Zip":"92592"},{"Location":"GOLDEN BOWL","Address":"31069 Highway 79 C5","City":"Temecula","State":"CA","Zip":"92592"},{"Location":"GRAYBILL MEDICAL GROUP","Address":"31537 Rancho Pueblo Rd 102","City":"Temecula","State":"CA","Zip":"92592"},{"Location":"GREAT PANDA","Address":"31940 Temecula Pkwy C3","City":"Temecula","State":"CA","Zip":"92592"},{"Location":"HANA SUSHI","Address":"31805 Temecula Pkwy 3","City":"Temecula","State":"CA","Zip":"92592"},{"Location":"HI-TOFU","Address":"32459 Temecula Pkwy D1","City":"Temecula","State":"CA","Zip":"92592"},{"Location":"IMANI TEMPLE OF TEMECULA","Address":"34590 Calle Arnaz","City":"Temecula","State":"CA","Zip":"92592"},{"Location":"INLAND URGENT CARE","Address":"31565 Rancho Pueblo Rd 102","City":"Temecula","State":"CA","Zip":"92592"},{"Location":"JILBERTOS MEXICAN FOOD","Address":"30571 Temecula Pkwy B","City":"Temecula","State":"CA","Zip":"92592"},{"Location":"JILLS ZOO","Address":"41390 Via Anita","City":"Temecula","State":"CA","Zip":"92592"},{"Location":"KAY","Address":"31045 Temecula Pkwy 207","City":"Temecula","State":"CA","Zip":"92592"},{"Location":"KOHL'S #606","Address":"32085 Redhawk Pkwy","City":"Temecula","State":"CA","Zip":"92592"},{"Location":"LA COCINA BAR & GRILL","Address":"32459 Temecula Pkwy","City":"Temecula","State":"CA","Zip":"92592"},{"Location":"LEONNESS CELLARS","Address":"38311 De Portola Rd","City":"Temecula","State":"CA","Zip":"92592"},{"Location":"LIBERTY TAX SERVICE","Address":"30724 Burton Rd 305","City":"Temecula","State":"CA","Zip":"92592"},{"Location":"MARIOS PIZZA","Address":"33321 Temecula Pkwy 103","City":"Temecula","State":"CA","Zip":"92592"},{"Location":"MARISCOS EL CUARTE 1","Address":"32459 Temecula Pkwy D107","City":"Temecula","State":"CA","Zip":"92592"},{"Location":"OLIVERA'S COFFEE SHOP","Address":"43049 Margarita Rd","City":"Temecula","State":"CA","Zip":"92592"},{"Location":"ORANGE PSYC TEMECULA","Address":"31493 Rancho Pueblo Rd 203","City":"Temecula","State":"CA","Zip":"92592"},{"Location":"PECHANGA DEVELOPMENT CORP.","Address":"45000 Pechanga Pkwy","City":"Temecula","State":"CA","Zip":"92592"},{"Location":"PECHANGA FIRE DEPT 2","Address":"12705 Pechanga Road","City":"Temecula","State":"CA","Zip":"92592"},{"Location":"PECHANGA FIRE DEPT NO. 1","Address":"48240 Pechanga Rd","City":"Temecula","State":"CA","Zip":"92592"},{"Location":"PECHANGA INDIAN RESERVAT","Address":"12705 Pechanga Rd","City":"Temecula","State":"CA","Zip":"92592"},{"Location":"PECHANGA RESORT & CASINO","Address":"45000 Pechanga Pkwy","City":"Temecula","State":"CA","Zip":"92592"},{"Location":"PECHANGA RESORT AND CASINO","Address":"45000 Pechanga Pkwy","City":"Temecula","State":"CA","Zip":"92592"},{"Location":"PF INDUSTRIES LLC","Address":"31725 Temecula Pkwy D","City":"Temecula","State":"CA","Zip":"92592"},{"Location":"POSTAL ANNEX","Address":"33175 Temecula Pkwy A","City":"Temecula","State":"CA","Zip":"92592"},{"Location":"POWER PROS FITNESS INC","Address":"32832 Wolf Store Rd","City":"Temecula","State":"CA","Zip":"92592"},{"Location":"RAYNE ENTERPRISES LLC","Address":"43810 Butterfield Stage Rd 102","City":"Temecula","State":"CA","Zip":"92592"},{"Location":"RED  HAWK VISION CENTER","Address":"31685 Temecula Pkwy","City":"Temecula","State":"CA","Zip":"92592"},{"Location":"REDHAWK FAMILY DENTISTRY","Address":"44274 George Cushman Ct 205","City":"Temecula","State":"CA","Zip":"92592"},{"Location":"REDHAWK LUBE AUTO REPAIR","Address":"44260 Apis Rd C","City":"Temecula","State":"CA","Zip":"92592"},{"Location":"RENZONI VINEYARDS","Address":"37350 De Portola Rd","City":"Temecula","State":"CA","Zip":"92592"},{"Location":"REVSHARE","Address":"32836 Wolf Store Rd","City":"Temecula","State":"CA","Zip":"92592"},{"Location":"RIVERSIDE COUNTY FIRE","Address":"37700 Glenoaks Rd","City":"Temecula","State":"CA","Zip":"92592"},{"Location":"ROBERT WITEK DDS","Address":"31309 Temecula Pkwy 100","City":"Temecula","State":"CA","Zip":"92592"},{"Location":"ROCKIN RAMEN","Address":"31805 Temecula Pkwy 9","City":"Temecula","State":"CA","Zip":"92592"},{"Location":"RONCONE ORTHODONTICS","Address":"32140 Highway 79 201","City":"Temecula","State":"CA","Zip":"92592"},{"Location":"SCOTT TREASURE COAST RECOVERY","Address":"39140 Gray Squirrel Rd","City":"Temecula","State":"CA","Zip":"92592"},{"Location":"SELF AND ASSOCIATES INC","Address":"31093 Temecula Pkwy D2","City":"Temecula","State":"CA","Zip":"92592"},{"Location":"SIGGYS RESTAURANT","Address":"31970 Temecula Pkwy","City":"Temecula","State":"CA","Zip":"92592"},{"Location":"SOMEDAY SOMEWHERE RANCH","Address":"44155 De Portola Rd","City":"Temecula","State":"CA","Zip":"92592"},{"Location":"SPORT CLIPS","Address":"32068 Temecula Pkwy 400","City":"Temecula","State":"CA","Zip":"92592"},{"Location":"SPORTS AUTHORITY 646","Address":"32413 Temecula Pkwy 400","City":"Temecula","State":"CA","Zip":"92592"},{"Location":"STADIUM PIZZA","Address":"31950 Temecula Pkwy B-1","City":"Temecula","State":"CA","Zip":"92592"},{"Location":"STADIUM SNACK SHACK","Address":"32380 Deer Hollow Way","City":"Temecula","State":"CA","Zip":"92592"},{"Location":"STIX HOLDING 761","Address":"32240 State Highway 79 D","City":"Temecula","State":"CA","Zip":"92592"},{"Location":"SUNSHINE DENTAL","Address":"31493 Rancho Pueblo Rd","City":"Temecula","State":"CA","Zip":"92592"},{"Location":"SUSHI LOVEBOAT KAISEN","Address":"33215 State Highway 79 E","City":"Temecula","State":"CA","Zip":"92592"},{"Location":"TEMECULA DENTAL","Address":"30571 Temecula Pkwy D","City":"Temecula","State":"CA","Zip":"92592"},{"Location":"THE BARBER SHOP","Address":"31725 Temecula Pkwy","City":"Temecula","State":"CA","Zip":"92592"},{"Location":"TINOU T RONCONE DDS MS","Address":"31493 Rancho Pueblo Rd 101","City":"Temecula","State":"CA","Zip":"92592"},{"Location":"TREASURE COAST RECOVERY","Address":"38880 Green Meadow Rd","City":"Temecula","State":"CA","Zip":"92592"},{"Location":"URBAN PARK CONCESSIONAIRES","Address":"38000 Temecula Pkwy","City":"Temecula","State":"CA","Zip":"92592"},{"Location":"VILLAGE FAMILY DENTAL","Address":"32140 Temecula Pkwy 203","City":"Temecula","State":"CA","Zip":"92592"},{"Location":"WHISPERING MEADOWS","Address":"41605 De Portola Rd","City":"Temecula","State":"CA","Zip":"92592"},{"Location":"WINGWORKS","Address":"31045 Temecula Pkwy 104","City":"Temecula","State":"CA","Zip":"92592"},{"Location":"686 CLUB","Address":"47950 N B I-15","City":"Temecula","State":"CA","Zip":"92592"},{"Location":"ALLIANCE PROPANE","Address":"46848 Pala Rd","City":"Temecula","State":"CA","Zip":"92592"},{"Location":"APPLEBEE'S #2150028","Address":"32175 Temecula Pkwy","City":"Temecula","State":"CA","Zip":"92592"},{"Location":"BAJA CACTUS MEXICAN FOOD","Address":"31285 Temecula Pkwy 100","City":"Temecula","State":"CA","Zip":"92592"},{"Location":"BELLA VISTA WINERY OF TEMECULA","Address":"41220 Calle Contento","City":"Temecula","State":"CA","Zip":"92592"},{"Location":"BEST CITY NAIL 2 CORPORATION","Address":"32240 Temecula Pkwy","City":"Temecula","State":"CA","Zip":"92592"},{"Location":"BIG HORSE FEED AND MERCANTILE","Address":"33320 Temecula Pkwy","City":"Temecula","State":"CA","Zip":"92592"},{"Location":"COMPASSION HEART CORP","Address":"32965 Temecula Pkwy","City":"Temecula","State":"CA","Zip":"92592"},{"Location":"COUGAR VINYARD AND WINERY","Address":"39870 De Portola Rd","City":"Temecula","State":"CA","Zip":"92592"},{"Location":"CROWN HILL PIZZA","Address":"43053 Margarita Rd","City":"Temecula","State":"CA","Zip":"92592"},{"Location":"DANZA DEL SOL WINERY","Address":"39050 De Portola Rd","City":"Temecula","State":"CA","Zip":"92592"},{"Location":"DENNIS L HUSTON DDS INC","Address":"31285 Highway 79 205","City":"Temecula","State":"CA","Zip":"92592"},{"Location":"DL & SW VENTURES  LLC","Address":"43810 Butterfield Stage Rd 102","City":"Temecula","State":"CA","Zip":"92592"},{"Location":"DUKES MESQUITE BROILER","Address":"31940 Temecula Pkwy C1","City":"Temecula","State":"CA","Zip":"92592"},{"Location":"EXPRESS TIRE","Address":"44092 Margarita Rd","City":"Temecula","State":"CA","Zip":"92592"},{"Location":"FIRKIN CHEERS INC","Address":"32475 Temecula Pkwy","City":"Temecula","State":"CA","Zip":"92592"},{"Location":"FITNESS 19","Address":"32655 Temecula Pkwy","City":"Temecula","State":"CA","Zip":"92592"},{"Location":"FRANCESCAS ITALIAN KITCHEN","Address":"31165 Temecula Pkwy","City":"Temecula","State":"CA","Zip":"92592"},{"Location":"GOLDEN BOWL","Address":"31069 Highway 79 C5","City":"Temecula","State":"CA","Zip":"92592"},{"Location":"GRAYBILL MEDICAL GROUP","Address":"31537 Rancho Pueblo Rd 102","City":"Temecula","State":"CA","Zip":"92592"},{"Location":"GREAT PANDA","Address":"31940 Temecula Pkwy C3","City":"Temecula","State":"CA","Zip":"92592"},{"Location":"HANA SUSHI","Address":"31805 Temecula Pkwy 3","City":"Temecula","State":"CA","Zip":"92592"},{"Location":"HI-TOFU","Address":"32459 Temecula Pkwy D1","City":"Temecula","State":"CA","Zip":"92592"},{"Location":"IMANI TEMPLE OF TEMECULA","Address":"34590 Calle Arnaz","City":"Temecula","State":"CA","Zip":"92592"},{"Location":"INLAND URGENT CARE","Address":"31565 Rancho Pueblo Rd 102","City":"Temecula","State":"CA","Zip":"92592"},{"Location":"JILBERTOS MEXICAN FOOD","Address":"30571 Temecula Pkwy B","City":"Temecula","State":"CA","Zip":"92592"},{"Location":"JILLS ZOO","Address":"41390 Via Anita","City":"Temecula","State":"CA","Zip":"92592"},{"Location":"KAY","Address":"31045 Temecula Pkwy 207","City":"Temecula","State":"CA","Zip":"92592"},{"Location":"KOHL'S #606","Address":"32085 Redhawk Pkwy","City":"Temecula","State":"CA","Zip":"92592"},{"Location":"LA COCINA BAR & GRILL","Address":"32459 Temecula Pkwy","City":"Temecula","State":"CA","Zip":"92592"},{"Location":"LEONNESS CELLARS","Address":"38311 De Portola Rd","City":"Temecula","State":"CA","Zip":"92592"},{"Location":"LIBERTY TAX SERVICE","Address":"30724 Burton Rd 305","City":"Temecula","State":"CA","Zip":"92592"},{"Location":"MARIOS PIZZA","Address":"33321 Temecula Pkwy 103","City":"Temecula","State":"CA","Zip":"92592"},{"Location":"MARISCOS EL CUARTE 1","Address":"32459 Temecula Pkwy D107","City":"Temecula","State":"CA","Zip":"92592"},{"Location":"OLIVERA'S COFFEE SHOP","Address":"43049 Margarita Rd","City":"Temecula","State":"CA","Zip":"92592"},{"Location":"ORANGE PSYC TEMECULA","Address":"31493 Rancho Pueblo Rd 203","City":"Temecula","State":"CA","Zip":"92592"},{"Location":"PECHANGA DEVELOPMENT CORP.","Address":"45000 Pechanga Pkwy","City":"Temecula","State":"CA","Zip":"92592"},{"Location":"PECHANGA FIRE DEPT 2","Address":"12705 Pechanga Road","City":"Temecula","State":"CA","Zip":"92592"},{"Location":"PECHANGA FIRE DEPT NO. 1","Address":"48240 Pechanga Rd","City":"Temecula","State":"CA","Zip":"92592"},{"Location":"PECHANGA INDIAN RESERVAT","Address":"12705 Pechanga Rd","City":"Temecula","State":"CA","Zip":"92592"},{"Location":"PECHANGA RESORT & CASINO","Address":"45000 Pechanga Pkwy","City":"Temecula","State":"CA","Zip":"92592"},{"Location":"PECHANGA RESORT AND CASINO","Address":"45000 Pechanga Pkwy","City":"Temecula","State":"CA","Zip":"92592"},{"Location":"PF INDUSTRIES LLC","Address":"31725 Temecula Pkwy D","City":"Temecula","State":"CA","Zip":"92592"},{"Location":"POSTAL ANNEX","Address":"33175 Temecula Pkwy A","City":"Temecula","State":"CA","Zip":"92592"},{"Location":"POWER PROS FITNESS INC","Address":"32832 Wolf Store Rd","City":"Temecula","State":"CA","Zip":"92592"},{"Location":"RAYNE ENTERPRISES LLC","Address":"43810 Butterfield Stage Rd 102","City":"Temecula","State":"CA","Zip":"92592"},{"Location":"RED  HAWK VISION CENTER","Address":"31685 Temecula Pkwy","City":"Temecula","State":"CA","Zip":"92592"},{"Location":"REDHAWK FAMILY DENTISTRY","Address":"44274 George Cushman Ct 205","City":"Temecula","State":"CA","Zip":"92592"},{"Location":"REDHAWK LUBE AUTO REPAIR","Address":"44260 Apis Rd C","City":"Temecula","State":"CA","Zip":"92592"},{"Location":"RENZONI VINEYARDS","Address":"37350 De Portola Rd","City":"Temecula","State":"CA","Zip":"92592"},{"Location":"REVSHARE","Address":"32836 Wolf Store Rd","City":"Temecula","State":"CA","Zip":"92592"},{"Location":"RIVERSIDE COUNTY FIRE","Address":"37700 Glenoaks Rd","City":"Temecula","State":"CA","Zip":"92592"},{"Location":"ROBERT WITEK DDS","Address":"31309 Temecula Pkwy 100","City":"Temecula","State":"CA","Zip":"92592"},{"Location":"ROCKIN RAMEN","Address":"31805 Temecula Pkwy 9","City":"Temecula","State":"CA","Zip":"92592"},{"Location":"RONCONE ORTHODONTICS","Address":"32140 Highway 79 201","City":"Temecula","State":"CA","Zip":"92592"},{"Location":"SCOTT TREASURE COAST RECOVERY","Address":"39140 Gray Squirrel Rd","City":"Temecula","State":"CA","Zip":"92592"},{"Location":"SELF AND ASSOCIATES INC","Address":"31093 Temecula Pkwy D2","City":"Temecula","State":"CA","Zip":"92592"},{"Location":"SIGGYS RESTAURANT","Address":"31970 Temecula Pkwy","City":"Temecula","State":"CA","Zip":"92592"},{"Location":"SOMEDAY SOMEWHERE RANCH","Address":"44155 De Portola Rd","City":"Temecula","State":"CA","Zip":"92592"},{"Location":"SPORT CLIPS","Address":"32068 Temecula Pkwy 400","City":"Temecula","State":"CA","Zip":"92592"},{"Location":"SPORTS AUTHORITY 646","Address":"32413 Temecula Pkwy 400","City":"Temecula","State":"CA","Zip":"92592"},{"Location":"STADIUM PIZZA","Address":"31950 Temecula Pkwy B-1","City":"Temecula","State":"CA","Zip":"92592"},{"Location":"STADIUM SNACK SHACK","Address":"32380 Deer Hollow Way","City":"Temecula","State":"CA","Zip":"92592"},{"Location":"STIX HOLDING 761","Address":"32240 State Highway 79 D","City":"Temecula","State":"CA","Zip":"92592"},{"Location":"SUNSHINE DENTAL","Address":"31493 Rancho Pueblo Rd","City":"Temecula","State":"CA","Zip":"92592"},{"Location":"SUSHI CAMP","Address":"32240 Temecula Pkwy B104","City":"Temecula","State":"CA","Zip":"92592"},{"Location":"SUSHI LOVEBOAT KAISEN","Address":"33215 State Highway 79 E","City":"Temecula","State":"CA","Zip":"92592"},{"Location":"TEMECULA DENTAL","Address":"30571 Temecula Pkwy D","City":"Temecula","State":"CA","Zip":"92592"},{"Location":"THE BARBER SHOP","Address":"31725 Temecula Pkwy","City":"Temecula","State":"CA","Zip":"92592"},{"Location":"TINOU T RONCONE DDS MS","Address":"31493 Rancho Pueblo Rd 101","City":"Temecula","State":"CA","Zip":"92592"},{"Location":"TREASURE COAST RECOVERY","Address":"38880 Green Meadow Rd","City":"Temecula","State":"CA","Zip":"92592"},{"Location":"URBAN PARK CONCESSIONAIRES","Address":"38000 Temecula Pkwy","City":"Temecula","State":"CA","Zip":"92592"},{"Location":"VILLAGE FAMILY DENTAL","Address":"32140 Temecula Pkwy 203","City":"Temecula","State":"CA","Zip":"92592"},{"Location":"WHISPERING MEADOWS","Address":"41605 De Portola Rd","City":"Temecula","State":"CA","Zip":"92592"},{"Location":"WINGWORKS","Address":"31045 Temecula Pkwy 104","City":"Temecula","State":"CA","Zip":"92592"}]