[{"Location":"24 HOUR FITNESS #884","Address":"13752 Jamboree Rd","City":"Irvine","State":"CA","Zip":"92602"},{"Location":"BJS RESTAURANT #421","Address":"13130 Jamboree Rd","City":"Irvine","State":"CA","Zip":"92602"},{"Location":"COUNTY OF OC PARKS","Address":"13042 Old Myford Rd","City":"Irvine","State":"CA","Zip":"92602"},{"Location":"DAPHNES","Address":"13250 Jamboree Rd 113","City":"Irvine","State":"CA","Zip":"92602"},{"Location":"DESTINATION XL 9723","Address":"13766 Jamboree Rd","City":"Irvine","State":"CA","Zip":"92602"},{"Location":"GEN","Address":"3957 Irvine Blvd","City":"Irvine","State":"CA","Zip":"92602"},{"Location":"HDR INC","Address":"3230 El Comino Real 200","City":"Irvine","State":"CA","Zip":"92602"},{"Location":"ISLANDS RESTAURANT #66","Address":"13762 Jamboree Rd","City":"Irvine","State":"CA","Zip":"92602"},{"Location":"JERRY'S DOGS","Address":"13786 Jamboree Rd C","City":"Irvine","State":"CA","Zip":"92602"},{"Location":"LAZY DOG CAFE","Address":"13290 Jamboree Rd","City":"Irvine","State":"CA","Zip":"92602"},{"Location":"MACARONI GRILL #1148","Address":"13652 Jamboree Rd","City":"Irvine","State":"CA","Zip":"92602"},{"Location":"MATCH POINT TENNIS ACADM","Address":"718 Whispering Trl","City":"Irvine","State":"CA","Zip":"92602"},{"Location":"ORANGE COUNTY FIRE AUTHORITY","Address":"1 Fire Authority Rd","City":"Irvine","State":"CA","Zip":"92602"},{"Location":"TACO ROSA 2","Address":"13792 Jamboree Rd","City":"Irvine","State":"CA","Zip":"92602"},{"Location":"TARGET","Address":"13200 Jamboree Rd","City":"Irvine","State":"CA","Zip":"92602"},{"Location":"WASA SUSHI","Address":"13124 Jamboree Rd","City":"Irvine","State":"CA","Zip":"92602"},{"Location":"ZOVS IRVINE","Address":"3915 Portola Pkwy","City":"Irvine","State":"CA","Zip":"92602"},{"Location":"24 HOUR FITNESS #884","Address":"13752 Jamboree Rd","City":"Irvine","State":"CA","Zip":"92602"},{"Location":"BJS RESTAURANT #421","Address":"13130 Jamboree Rd","City":"Irvine","State":"CA","Zip":"92602"},{"Location":"COUNTY OF OC PARKS","Address":"13042 Old Myford Rd","City":"Irvine","State":"CA","Zip":"92602"},{"Location":"DAPHNES","Address":"13250 Jamboree Rd 113","City":"Irvine","State":"CA","Zip":"92602"},{"Location":"DESTINATION XL 9723","Address":"13766 Jamboree Rd","City":"Irvine","State":"CA","Zip":"92602"},{"Location":"GEN","Address":"3957 Irvine Blvd","City":"Irvine","State":"CA","Zip":"92602"},{"Location":"HDR INC","Address":"3230 El Comino Real 200","City":"Irvine","State":"CA","Zip":"92602"},{"Location":"ISLANDS RESTAURANT #66","Address":"13762 Jamboree Rd","City":"Irvine","State":"CA","Zip":"92602"},{"Location":"JERRY'S DOGS","Address":"13786 Jamboree Rd C","City":"Irvine","State":"CA","Zip":"92602"},{"Location":"LAZY DOG CAFE","Address":"13290 Jamboree Rd","City":"Irvine","State":"CA","Zip":"92602"},{"Location":"MACARONI GRILL #1148","Address":"13652 Jamboree Rd","City":"Irvine","State":"CA","Zip":"92602"},{"Location":"MATCH POINT TENNIS ACADM","Address":"718 Whispering Trl","City":"Irvine","State":"CA","Zip":"92602"},{"Location":"ORANGE COUNTY FIRE AUTHORITY","Address":"1 Fire Authority Rd","City":"Irvine","State":"CA","Zip":"92602"},{"Location":"TACO ROSA 2","Address":"13792 Jamboree Rd","City":"Irvine","State":"CA","Zip":"92602"},{"Location":"TARGET","Address":"13200 Jamboree Rd","City":"Irvine","State":"CA","Zip":"92602"},{"Location":"WASA SUSHI","Address":"13124 Jamboree Rd","City":"Irvine","State":"CA","Zip":"92602"},{"Location":"ZOVS IRVINE","Address":"3915 Portola Pkwy","City":"Irvine","State":"CA","Zip":"92602"}]