[{"Location":"ADAPTIVE MEDIA","Address":"16795 Von Karman Ave 240","City":"Irvine","State":"CA","Zip":"92606"},{"Location":"BALBOA TECHNOLOGIES LLC","Address":"16842 Von Karman Ave","City":"Irvine","State":"CA","Zip":"92606"},{"Location":"BASCOM GROUP","Address":"26 Corporate Park 200","City":"Irvine","State":"CA","Zip":"92606"},{"Location":"BBQ CHICKEN","Address":"2750 Alton Pkwy 111","City":"Irvine","State":"CA","Zip":"92606"},{"Location":"C 2 WIRELESS","Address":"1842 Barranca Pkwy","City":"Irvine","State":"CA","Zip":"92606"},{"Location":"CALI FISH GRILL IRVING","Address":"3988 Barranca Pkwy B","City":"Irvine","State":"CA","Zip":"92606"},{"Location":"CHILI'S #0440","Address":"3745 Alton Pkwy","City":"Irvine","State":"CA","Zip":"92606"},{"Location":"CHROMATIC PRODUCTIONS INC","Address":"16782 Von Karman Ave 33","City":"Irvine","State":"CA","Zip":"92606"},{"Location":"CISCEL CORPORATION","Address":"16525 Von Karman Ave G","City":"Irvine","State":"CA","Zip":"92606"},{"Location":"EIGHTEEN EIGHT MENS CARE AND G","Address":"3995 Alton Pkwy C","City":"Irvine","State":"CA","Zip":"92606"},{"Location":"INDUSTRIAL METAL SUPPLY A","Address":"2481 Alton Pkwy","City":"Irvine","State":"CA","Zip":"92606"},{"Location":"IRVINE FAMILY SPA","Address":"2332 Barranca Pkwy","City":"Irvine","State":"CA","Zip":"92606"},{"Location":"IRVINE POLICE-MOBILE COM%2FMCCV","Address":"1 Civic Center Plz","City":"Irvine","State":"CA","Zip":"92606"},{"Location":"KRING CHUNG","Address":"38 Corporate Park","City":"Irvine","State":"CA","Zip":"92606"},{"Location":"LA FITNESS #65","Address":"2880 Michelle","City":"Irvine","State":"CA","Zip":"92606"},{"Location":"LA FITNESS #97","Address":"3960 Barranca Pkwy","City":"Irvine","State":"CA","Zip":"92606"},{"Location":"LEISURE TIME PACKAGING","Address":"1692 Deere Ave","City":"Irvine","State":"CA","Zip":"92606"},{"Location":"MARK IV CAPITAL 62","Address":"41 Corporate Park","City":"Irvine","State":"CA","Zip":"92606"},{"Location":"MARK IV CAPITAL PROPERTIES","Address":"62 Corporate Park","City":"Irvine","State":"CA","Zip":"92606"},{"Location":"MCNIB CORP","Address":"16811 Hale Ave B","City":"Irvine","State":"CA","Zip":"92606"},{"Location":"MEN'S WEARHOUSE #2709","Address":"3730 Barranca Pkwy","City":"Irvine","State":"CA","Zip":"92606"},{"Location":"MISSION LAND SCAPE COMPANY","Address":"16672 Millikan Ave","City":"Irvine","State":"CA","Zip":"92606"},{"Location":"MIYAKO","Address":"92 Corporate Park H","City":"Irvine","State":"CA","Zip":"92606"},{"Location":"NEWPORT MEAT COMPANY","Address":"16691 Hale Ave","City":"Irvine","State":"CA","Zip":"92606"},{"Location":"NORTH AMERICAN RESORT PROPERTY","Address":"3500 Barranca Pkwy","City":"Irvine","State":"CA","Zip":"92606"},{"Location":"O'NEILL CLOTHING","Address":"14350 Myford Rd","City":"Irvine","State":"CA","Zip":"92606"},{"Location":"PDSI INC","Address":"50 Corporate Park","City":"Irvine","State":"CA","Zip":"92606"},{"Location":"PHO KOBE","Address":"92 Corporate Park Suite","City":"Irvine","State":"CA","Zip":"92606"},{"Location":"PLUSH","Address":"2710 Alton Pkwy 203","City":"Irvine","State":"CA","Zip":"92606"},{"Location":"PRIMAL JUSTICE","Address":"16782 Hale Ave A","City":"Irvine","State":"CA","Zip":"92606"},{"Location":"ROCKING CRAWFISH","Address":"2740 Alton Pkwy","City":"Irvine","State":"CA","Zip":"92606"},{"Location":"SCOTT RAYO","Address":"16842 Von Karman Ave 450","City":"Irvine","State":"CA","Zip":"92606"},{"Location":"SPARE CHANGE VENDING","Address":"16281 Construction Cir W","City":"Irvine","State":"CA","Zip":"92606"},{"Location":"SSF IMPORTED AUTO PARTS","Address":"14250 Myford Rd","City":"Irvine","State":"CA","Zip":"92606"},{"Location":"SUPER COLOR DIGITAL LLC","Address":"16761 Hale Ave","City":"Irvine","State":"CA","Zip":"92606"},{"Location":"SWSH SHABU SHABU","Address":"2710 Alton Pkwy 213","City":"Irvine","State":"CA","Zip":"92606"},{"Location":"THE OUTSOURCE GROUP 2","Address":"16800 Aston","City":"Irvine","State":"CA","Zip":"92606"},{"Location":"TOKYO TABLE","Address":"2710 Alton Pkwy 101","City":"Irvine","State":"CA","Zip":"92606"},{"Location":"URBAN SEOUL","Address":"2750 Alton Pkwy 131","City":"Irvine","State":"CA","Zip":"92606"},{"Location":"WESIERSKI AND ZUREK","Address":"1 Corporate Park","City":"Irvine","State":"CA","Zip":"92606"},{"Location":"WESTLAND IRVINE LLC","Address":"16812 Millikan Ave","City":"Irvine","State":"CA","Zip":"92606"},{"Location":"WINGSTOP IRVINE","Address":"3972 F1 Barranca Parkwy","City":"Irvine","State":"CA","Zip":"92606"},{"Location":"WORLDNET SHIPPING","Address":"16902 Von Karman Ave A","City":"Irvine","State":"CA","Zip":"92606"},{"Location":"YIGAH","Address":"2750 Alton Pkwy 105","City":"Irvine","State":"CA","Zip":"92606"},{"Location":"MORGAN STANLEY 100206","Address":"6037 La Flecha","City":"Rancho Santa Fe","State":"CA","Zip":"92606"}]