[{"Location":"24 HOUR FITNESS #150","Address":"15315 Culver Dr 165","City":"Irvine","State":"CA","Zip":"92604"},{"Location":"ARIRANG BARBEQUE","Address":"4595 Barranca Pkwy","City":"Irvine","State":"CA","Zip":"92604"},{"Location":"ASSAL PASTRY","Address":"14130 Culver Dr","City":"Irvine","State":"CA","Zip":"92604"},{"Location":"BUFFALO WILD WINGS #3347","Address":"14110 Culver Dr","City":"Irvine","State":"CA","Zip":"92604"},{"Location":"CASPIAN CATERING INC.","Address":"14100 Culver Dr","City":"Irvine","State":"CA","Zip":"92604"},{"Location":"CG RESTAURANT GROUP","Address":"5365 Alton Pkwy D","City":"Irvine","State":"CA","Zip":"92604"},{"Location":"DAE MYOUNG OK","Address":"14250 Culver Dr B","City":"Irvine","State":"CA","Zip":"92604"},{"Location":"HOUSE SHABU SHABU","Address":"5394 Walnut Ave","City":"Irvine","State":"CA","Zip":"92604"},{"Location":"IRVINE AUTO WASH","Address":"4550 Barranca Pkwy","City":"Irvine","State":"CA","Zip":"92604"},{"Location":"ISLANDS RESTAURANTS #006","Address":"4020 Barranca Pkwy","City":"Irvine","State":"CA","Zip":"92604"},{"Location":"LAMPPOST PIZZA","Address":"4230 Barranca Pkwy","City":"Irvine","State":"CA","Zip":"92604"},{"Location":"LAMPPOST PIZZA","Address":"14450 Culver Dr","City":"Irvine","State":"CA","Zip":"92604"},{"Location":"LITTLE SHEEP MONGOLIAN","Address":"15361 Culver Dr","City":"Irvine","State":"CA","Zip":"92604"},{"Location":"MAHYAR MAHBOUB DDS","Address":"4902 Irvine Center Dr 202","City":"Irvine","State":"CA","Zip":"92604"},{"Location":"MOOYAH RESTURANT","Address":"5365 Alton Pkwy A2","City":"Irvine","State":"CA","Zip":"92604"},{"Location":"MYUNGGA HEALTH SERVICE","Address":"5365 Alton Pkwy","City":"Irvine","State":"CA","Zip":"92604"},{"Location":"OUTBACK STEAKHOUSE #0568","Address":"15433 Culver Dr","City":"Irvine","State":"CA","Zip":"92604"},{"Location":"PENNYVISION LLC.","Address":"14431 Culver Dr","City":"Irvine","State":"CA","Zip":"92604"},{"Location":"PHILLY'S BEST","Address":"4250 Barranca Pkwy R","City":"Irvine","State":"CA","Zip":"92604"},{"Location":"ROOSTER MNS GROOMING CTR","Address":"5405 Alton Pkwy D","City":"Irvine","State":"CA","Zip":"92604"},{"Location":"SALEM RADIO NETWORK","Address":"4752 Barranca Pkwy","City":"Irvine","State":"CA","Zip":"92604"},{"Location":"SARANG PARTNERS LLC","Address":"4482 Barranca Pkwy 100","City":"Irvine","State":"CA","Zip":"92604"},{"Location":"SHOOLMAN","Address":"5408 Walnut Ave C","City":"Irvine","State":"CA","Zip":"92604"},{"Location":"SOLA SALON CULVER PLAZA","Address":"15333 Culver Dr 200","City":"Irvine","State":"CA","Zip":"92604"},{"Location":"STIX HOLDINGS 724","Address":"5365 Alton Pkwy H","City":"Irvine","State":"CA","Zip":"92604"},{"Location":"SUN & J MANAGEMENT","Address":"5408 Walnut Ave G","City":"Irvine","State":"CA","Zip":"92604"},{"Location":"TASTY GARDEN IRVINE","Address":"15315 Culver Dr 140","City":"Irvine","State":"CA","Zip":"92604"},{"Location":"UNION BANK 610","Address":"5365 Alton Pkwy P","City":"Irvine","State":"CA","Zip":"92604"},{"Location":"UNITED DENTAL IRVINECORP","Address":"15315 Culver Dr","City":"Irvine","State":"CA","Zip":"92604"}]