[{"Location":"ARAMARK%40UCI-MESA COMMONS","Address":"4079 Mesa Rd 4079","City":"Irvine","State":"CA","Zip":"92617"},{"Location":"MITCHELL INTERNATIONAL","Address":"110 Theory","City":"Irvine","State":"CA","Zip":"92617"},{"Location":"RIMROCK CAPITAL MANAGEMENT","Address":"100 Innovation Dr","City":"Irvine","State":"CA","Zip":"92617"},{"Location":"TIGER WOODS FOUNDATION%2C INC.","Address":"121 Innovation Dr 150","City":"Irvine","State":"CA","Zip":"92617"},{"Location":"UC IRVINE ATHLETICS","Address":"1003 W Peltason Dr","City":"Irvine","State":"CA","Zip":"92617"},{"Location":"UC IRVINE CAMPUS VILLAGE","Address":"1066 W Peltason Dr","City":"Irvine","State":"CA","Zip":"92617"},{"Location":"UC IRVINE%2FEDUCATIONAL","Address":"836       Health Sciences Room","City":"Irvine","State":"CA","Zip":"92617"},{"Location":"UCI - GHEI","Address":"1051 Health Sciences Rd","City":"Irvine","State":"CA","Zip":"92617"},{"Location":"ARAMARK%40UCI-MESA COMMONS","Address":"4079 Mesa Rd 4079","City":"Irvine","State":"CA","Zip":"92617"},{"Location":"MITCHELL INTERNATIONAL","Address":"110 Theory","City":"Irvine","State":"CA","Zip":"92617"},{"Location":"RIMROCK CAPITAL MANAGEMENT","Address":"100 Innovation Dr","City":"Irvine","State":"CA","Zip":"92617"},{"Location":"TIGER WOODS FOUNDATION%2C INC.","Address":"121 Innovation Dr 150","City":"Irvine","State":"CA","Zip":"92617"},{"Location":"UC IRVINE ATHLETICS","Address":"1003 W Peltason Dr","City":"Irvine","State":"CA","Zip":"92617"},{"Location":"UC IRVINE CAMPUS VILLAGE","Address":"1066 W Peltason Dr","City":"Irvine","State":"CA","Zip":"92617"},{"Location":"UC IRVINE%2FEDUCATIONAL","Address":"836       Health Sciences Room","City":"Irvine","State":"CA","Zip":"92617"},{"Location":"UCI - GHEI","Address":"1051 Health Sciences Rd","City":"Irvine","State":"CA","Zip":"92617"}]