[{"Location":"24 HOUR FITNESS #149","Address":"4255 Campus Drive","City":"Irvine","State":"CA","Zip":"92614"},{"Location":"3M ESPE","Address":"2111 Mcgaw Ave","City":"Irvine","State":"CA","Zip":"92614"},{"Location":"511 TACTICALE","Address":"1360 Reynolds Ave 101","City":"Irvine","State":"CA","Zip":"92614"},{"Location":"ADVANCED THERMAL PRODUCTS","Address":"17365 Daimler St","City":"Irvine","State":"CA","Zip":"92614"},{"Location":"AGORA CHURRASCARIA","Address":"1830 Main St","City":"Irvine","State":"CA","Zip":"92614"},{"Location":"AKIN GUMP","Address":"4 Park Plz 1900","City":"Irvine","State":"CA","Zip":"92614"},{"Location":"AMERIPRISE","Address":"2 Park Plz 1100","City":"Irvine","State":"CA","Zip":"92614"},{"Location":"ANDERSON & HOWARD ELECTRIC","Address":"1791 Reynolds Ave","City":"Irvine","State":"CA","Zip":"92614"},{"Location":"ANTECH DIAGNOSTICS","Address":"17672 Cowan B","City":"Irvine","State":"CA","Zip":"92614"},{"Location":"ARGENT MANAGEMENT LLC","Address":"2392 Morse Ave","City":"Irvine","State":"CA","Zip":"92614"},{"Location":"ARIA GROUP INC","Address":"17395 Daimler St","City":"Irvine","State":"CA","Zip":"92614"},{"Location":"BANK OF AMERICA CA6-503-03-00","Address":"5 Park Plz","City":"Irvine","State":"CA","Zip":"92614"},{"Location":"BEYOND MARKETING GROUP LLC","Address":"17461 Derian Ave 106","City":"Irvine","State":"CA","Zip":"92614"},{"Location":"BIG RENTZ","Address":"1063 Mcgaw Ave","City":"Irvine","State":"CA","Zip":"92614"},{"Location":"BODY WISE INTERNATIONAL","Address":"17101 Armstrong Ave","City":"Irvine","State":"CA","Zip":"92614"},{"Location":"BOYLE OGATA BREGMAN","Address":"17461 Derian Ave 202","City":"Irvine","State":"CA","Zip":"92614"},{"Location":"BSH HOME APPLIANCES","Address":"17911 Von Karman Ave","City":"Irvine","State":"CA","Zip":"92614"},{"Location":"CALIFORNIA UNITED BANK","Address":"17901 Von Karman Ave","City":"Irvine","State":"CA","Zip":"92614"},{"Location":"CARSMETICS","Address":"3060 Main St","City":"Irvine","State":"CA","Zip":"92614"},{"Location":"CENTURY LINK","Address":"17836 Gillette Ave","City":"Irvine","State":"CA","Zip":"92614"},{"Location":"CIG FINANCIAL","Address":"6 Executive Cir 100","City":"Irvine","State":"CA","Zip":"92614"},{"Location":"CITADEL LAW OFFICE LLC","Address":"2372 Morse Ave","City":"Irvine","State":"CA","Zip":"92614"},{"Location":"CLAUSEN MILLER","Address":"17901 Von Karman Ave 650","City":"Irvine","State":"CA","Zip":"92614"},{"Location":"COAST LINE MICRO","Address":"1811 Kaiser Ave","City":"Irvine","State":"CA","Zip":"92614"},{"Location":"CROUTONS","Address":"17927 Macarthur Blvd","City":"Irvine","State":"CA","Zip":"92614"},{"Location":"DEVRIES INTERNATIONAL","Address":"17671 Armstrong Ave","City":"Irvine","State":"CA","Zip":"92614"},{"Location":"DIMENSIONS","Address":"17462 Von Karman Ave","City":"Irvine","State":"CA","Zip":"92614"},{"Location":"DUTCH GARDEN SUPPLIES","Address":"17831 Sky Park Cir","City":"Irvine","State":"CA","Zip":"92614"},{"Location":"EDWARD'S LIFESCIENCES","Address":"1 Edwards Way","City":"Irvine","State":"CA","Zip":"92614"},{"Location":"EL TORITO 7185","Address":"1910 Main St","City":"Irvine","State":"CA","Zip":"92614"},{"Location":"ELITE AVIATION PRODUCTS INC","Address":"1645 Reynolds Ave","City":"Irvine","State":"CA","Zip":"92614"},{"Location":"EMBASSY SUITES ORANGE COUNTY A","Address":"2120 Main St","City":"Irvine","State":"CA","Zip":"92614"},{"Location":"ENTREPRENEUR MEDIA","Address":"18061 Fitch","City":"Irvine","State":"CA","Zip":"92614"},{"Location":"FANTASTIC SAMS","Address":"17655 Harvard Ave","City":"Irvine","State":"CA","Zip":"92614"},{"Location":"FASHION INSTITUTE OF DESIGN","Address":"17590 Gillette Ave","City":"Irvine","State":"CA","Zip":"92614"},{"Location":"FEDEX","Address":"2601 Main St 11","City":"Irvine","State":"CA","Zip":"92614"},{"Location":"FINANCIAL WEST GROUP","Address":"17755 Sky Park Cir 103","City":"Irvine","State":"CA","Zip":"92614"},{"Location":"FIRST CHOICE HEALTHCARE","Address":"17993 Cowan","City":"Irvine","State":"CA","Zip":"92614"},{"Location":"FIRST CHOICE STAFFING","Address":"17775 Main St C","City":"Irvine","State":"CA","Zip":"92614"},{"Location":"FLAME & WAX INC","Address":"2900 Mccabe Way","City":"Irvine","State":"CA","Zip":"92614"},{"Location":"FLIPPIN PIZZA","Address":"17933 Macarthur Blvd","City":"Irvine","State":"CA","Zip":"92614"},{"Location":"FREE CHAPEL ORANGE COUNTY","Address":"2777 Mcgaw Ave","City":"Irvine","State":"CA","Zip":"92614"},{"Location":"FUNCTINAL SPORTS PERFORMANCE","Address":"2004 Mcgaw Ave","City":"Irvine","State":"CA","Zip":"92614"},{"Location":"FUTUREADS","Address":"2010 Main St 900","City":"Irvine","State":"CA","Zip":"92614"},{"Location":"GLOBAL RESULTS COMMUNICATIONS","Address":"2405 Mccabe Way 210","City":"Irvine","State":"CA","Zip":"92614"},{"Location":"GRAYSE","Address":"2532 White Rd","City":"Irvine","State":"CA","Zip":"92614"},{"Location":"GREYSTAR","Address":"17885 Von Karman Ave 450","City":"Irvine","State":"CA","Zip":"92614"},{"Location":"HANSEN FITNESS COMPANY","Address":"17175 Von Karman Ave 104","City":"Irvine","State":"CA","Zip":"92614"},{"Location":"HOTEL IRVINE JAMBOREE","Address":"17900 Jamboree Rd","City":"Irvine","State":"CA","Zip":"92614"},{"Location":"IBMC","Address":"18010 Sky Park Cir 290","City":"Irvine","State":"CA","Zip":"92614"},{"Location":"INTECHRITY INC","Address":"1212 Mcgaw Ave","City":"Irvine","State":"CA","Zip":"92614"},{"Location":"INTERIOR OFFICE SOLUTIONS","Address":"17800 Mitchell N","City":"Irvine","State":"CA","Zip":"92614"},{"Location":"JERSEY MIKES SUBS","Address":"17917 Macarthur Blvd","City":"Irvine","State":"CA","Zip":"92614"},{"Location":"JONES LANG LASALLE","Address":"17900 Von Karman Ave","City":"Irvine","State":"CA","Zip":"92614"},{"Location":"JOSEPH COMPANY","Address":"1711 Langley Ave","City":"Irvine","State":"CA","Zip":"92614"},{"Location":"JUNIES TOUCH","Address":"17779 Main St G","City":"Irvine","State":"CA","Zip":"92614"},{"Location":"JUST HAIR","Address":"17922 Sky Park Cir C","City":"Irvine","State":"CA","Zip":"92614"},{"Location":"K1 SPEED IRVINE LLC","Address":"17221 Von Karman Ave","City":"Irvine","State":"CA","Zip":"92614"},{"Location":"LATISYS IRVINE","Address":"17400 Von Karman Ave","City":"Irvine","State":"CA","Zip":"92614"},{"Location":"LMS INC","Address":"17551 Von Karman Ave","City":"Irvine","State":"CA","Zip":"92614"},{"Location":"MAIN STREET PLAZA","Address":"2540 Main St","City":"Irvine","State":"CA","Zip":"92614"},{"Location":"MARRIOT IRVINE JOHN WAYNE A%2FH","Address":"2701 Main St","City":"Irvine","State":"CA","Zip":"92614"},{"Location":"MAXXMOBILE INC","Address":"2010 Main St 170","City":"Irvine","State":"CA","Zip":"92614"},{"Location":"MCCORMICK & SCHMICK'S","Address":"2000 Main St","City":"Irvine","State":"CA","Zip":"92614"},{"Location":"MCKINLEY EQUIPMENT CORPORATION","Address":"17611 Armstrong Ave","City":"Irvine","State":"CA","Zip":"92614"},{"Location":"MEGUIAR'S INC.","Address":"17991 Mitchell S","City":"Irvine","State":"CA","Zip":"92614"},{"Location":"MORNINGSIDE RECOVERY","Address":"1400 Reynolds Ave","City":"Irvine","State":"CA","Zip":"92614"},{"Location":"NEWPORT STATIONERS","Address":"17681 Mitchell N","City":"Irvine","State":"CA","Zip":"92614"},{"Location":"NEXT LEVEL FITNESS","Address":"17811 Sky Park Cir E","City":"Irvine","State":"CA","Zip":"92614"},{"Location":"NMG GEOTECHNICAL INC","Address":"17991 Fitch","City":"Irvine","State":"CA","Zip":"92614"},{"Location":"NOEVIR USA INC","Address":"1095 Main St","City":"Irvine","State":"CA","Zip":"92614"},{"Location":"NORTH AMERICAN TITLE COMPANY","Address":"2100 Main St 450","City":"Irvine","State":"CA","Zip":"92614"},{"Location":"OC INDOOR GOLF","Address":"17145 Von Karman Ave 104","City":"Irvine","State":"CA","Zip":"92614"},{"Location":"ORACLE","Address":"17901 Von Karman Ave","City":"Irvine","State":"CA","Zip":"92614"},{"Location":"ORANGE COUNTY MATTRESS IRV","Address":"17401 Eastman","City":"Irvine","State":"CA","Zip":"92614"},{"Location":"PACIFIC DENTAL #11","Address":"17000 Red Hill Ave","City":"Irvine","State":"CA","Zip":"92614"},{"Location":"PACIFIC PREMIER BANK","Address":"17901 Von Karman Ave 1200","City":"Irvine","State":"CA","Zip":"92614"},{"Location":"PARADISE CAFE","Address":"17941 Von Karman Ave","City":"Irvine","State":"CA","Zip":"92614"},{"Location":"PARADISE CLEANERS","Address":"17595 Harvard Ave H","City":"Irvine","State":"CA","Zip":"92614"},{"Location":"PASTERNACK ENTERPRISES LLC","Address":"17802 Fitch","City":"Irvine","State":"CA","Zip":"92614"},{"Location":"PBMC","Address":"18010 Sky Park Cir 225","City":"Irvine","State":"CA","Zip":"92614"},{"Location":"PEDEGO","Address":"1751 Langley Ave","City":"Irvine","State":"CA","Zip":"92614"},{"Location":"PETRO DIAMOND INC","Address":"1100 Main St 2","City":"Irvine","State":"CA","Zip":"92614"},{"Location":"RD OLSON CONSTRUCTION","Address":"2955 Main St Fl3","City":"Irvine","State":"CA","Zip":"92614"},{"Location":"REGUS","Address":"17901 Von Karman Ave 600","City":"Irvine","State":"CA","Zip":"92614"},{"Location":"RESOURCES","Address":"17101 Armstrong Ave 201","City":"Irvine","State":"CA","Zip":"92614"},{"Location":"RESOURCES GLOBAL PROFESSIONALS","Address":"17101 Armstrong Ave","City":"Irvine","State":"CA","Zip":"92614"},{"Location":"RESTORATION MEDIA INC","Address":"17666 Fitch","City":"Irvine","State":"CA","Zip":"92614"},{"Location":"ROAD BIKE 4 U","Address":"17985 Sky Park Cir G","City":"Irvine","State":"CA","Zip":"92614"},{"Location":"ROYALTY CARPET MILLS","Address":"17111 Red Hill Ave","City":"Irvine","State":"CA","Zip":"92614"},{"Location":"S & B CONTRACTING","Address":"17731 Mitchell N 200","City":"Irvine","State":"CA","Zip":"92614"},{"Location":"SAGEVIEW ADVISORY","Address":"1920 Main St 800","City":"Irvine","State":"CA","Zip":"92614"},{"Location":"SAVVIS%2CINC","Address":"17836 Gillette Ave","City":"Irvine","State":"CA","Zip":"92614"},{"Location":"SCI","Address":"1881 Mcgaw Ave","City":"Irvine","State":"CA","Zip":"92614"},{"Location":"SCOTT BORAS CORP","Address":"2100 Main St","City":"Irvine","State":"CA","Zip":"92614"},{"Location":"SCOTTRADE 04A","Address":"17935 Macarthur Blvd","City":"Irvine","State":"CA","Zip":"92614"},{"Location":"SIGNATURE ESTATE","Address":"2010 Main St 220","City":"Irvine","State":"CA","Zip":"92614"},{"Location":"SO. CAL VETERINARY SURG","Address":"1371 Reynolds Ave","City":"Irvine","State":"CA","Zip":"92614"},{"Location":"SPECTRUM GROUP","Address":"1063 Mcgaw Ave 250","City":"Irvine","State":"CA","Zip":"92614"},{"Location":"SPORTY CUTS","Address":"17777 Main St C","City":"Irvine","State":"CA","Zip":"92614"},{"Location":"ST JOHN KNITS","Address":"17422 Derian Ave","City":"Irvine","State":"CA","Zip":"92614"},{"Location":"ST JOHN KNITS","Address":"17421 Derian Ave","City":"Irvine","State":"CA","Zip":"92614"},{"Location":"ST JOHN KNITS INC.","Address":"17522 Armstrong Ave","City":"Irvine","State":"CA","Zip":"92614"},{"Location":"ST. JOHN KNITS CE2-1","Address":"17622 Armstrong Ave","City":"Irvine","State":"CA","Zip":"92614"},{"Location":"STEVEN ENTERPRISES","Address":"17952 Sky Park Cir E","City":"Irvine","State":"CA","Zip":"92614"},{"Location":"STIX HOLDINGS 774","Address":"17585 Harvard Ave F","City":"Irvine","State":"CA","Zip":"92614"},{"Location":"SURECO","Address":"2405 Mccabe Way","City":"Irvine","State":"CA","Zip":"92614"},{"Location":"SWETT & CRAWFORD","Address":"17901 Von Karman Ave 4thfl","City":"Irvine","State":"CA","Zip":"92614"},{"Location":"TD AMERITRADE #05008","Address":"17901 Macarthur Blvd","City":"Irvine","State":"CA","Zip":"92614"},{"Location":"TEAM MAKENA","Address":"17461 Derian Ave 200","City":"Irvine","State":"CA","Zip":"92614"},{"Location":"THE AYCO COMPANY","Address":"17885 Von Karman Ave 300","City":"Irvine","State":"CA","Zip":"92614"},{"Location":"THE DOT PRINTER","Address":"2424 Mcgaw Ave","City":"Irvine","State":"CA","Zip":"92614"},{"Location":"THE EDGE FUNCTIONAL FITNESS","Address":"18218 Mcdurmott E F","City":"Irvine","State":"CA","Zip":"92614"},{"Location":"THE FLAME BROILER","Address":"17929 Macarthur Blvd","City":"Irvine","State":"CA","Zip":"92614"},{"Location":"TOGOS","Address":"17585 Harvard Ave D","City":"Irvine","State":"CA","Zip":"92614"},{"Location":"TOWERS WATSON","Address":"2010 Main St 305","City":"Irvine","State":"CA","Zip":"92614"},{"Location":"TOWERS WATSON","Address":"2010 Main St 1050","City":"Irvine","State":"CA","Zip":"92614"},{"Location":"UNIVERSAL HAIR SALONS","Address":"17911 Sky Park Cir K","City":"Irvine","State":"CA","Zip":"92614"},{"Location":"UP FRONT CONSULTANTS","Address":"1400 Reynolds Ave 111","City":"Irvine","State":"CA","Zip":"92614"},{"Location":"US BEST REPAIR SERVICE INC","Address":"2004 Mcgaw Ave","City":"Irvine","State":"CA","Zip":"92614"},{"Location":"US HEALTH WORKS","Address":"2362 Morse Ave","City":"Irvine","State":"CA","Zip":"92614"},{"Location":"VXI TECHNOLOGY INC","Address":"2031 Main St","City":"Irvine","State":"CA","Zip":"92614"},{"Location":"WALMART","Address":"9 Executive Cir 150","City":"Irvine","State":"CA","Zip":"92614"},{"Location":"WESTERN NATIONAL GROUP","Address":"8 Executive Cir","City":"Irvine","State":"CA","Zip":"92614"},{"Location":"WILLIAMS & RIVERA LITIGA","Address":"2100 Main St 350","City":"Irvine","State":"CA","Zip":"92614"},{"Location":"WYNDHAM IRVINE ORANGE COUNTY","Address":"17941 Von Karman Ave","City":"Irvine","State":"CA","Zip":"92614"},{"Location":"XELLERATION","Address":"2355 Main St 240","City":"Irvine","State":"CA","Zip":"92614"},{"Location":"YOGURTLAND FRANCHISING","Address":"17801 Cartwright Rd","City":"Irvine","State":"CA","Zip":"92614"},{"Location":"Z PIZZA","Address":"17655 Harvard Ave","City":"Irvine","State":"CA","Zip":"92614"}]