[{"Location":"24 HOUR FITNESS #196","Address":"8697 Irvine Center Dr","City":"Irvine","State":"CA","Zip":"92618"},{"Location":"8 E 6 TECHNOLOGIES","Address":"8845 Irvine Center Dr","City":"Irvine","State":"CA","Zip":"92618"},{"Location":"ACD HOLDINGS LLC","Address":"9581 Irvine Center Dr","City":"Irvine","State":"CA","Zip":"92618"},{"Location":"ADIDAS","Address":"71 Fortune Dr 920","City":"Irvine","State":"CA","Zip":"92618"},{"Location":"ADVANCED STERILIZATION","Address":"29 Technology Dr A","City":"Irvine","State":"CA","Zip":"92618"},{"Location":"ADVANCED STERILIZATION PRODUCT","Address":"33 Technology Dr 31","City":"Irvine","State":"CA","Zip":"92618"},{"Location":"ADVANCED STERILIZATION PRODUCT","Address":"29b Technology Dr 200","City":"Irvine","State":"CA","Zip":"92618"},{"Location":"ALCONE MARKETING GROUP","Address":"4 Studebaker","City":"Irvine","State":"CA","Zip":"92618"},{"Location":"AMERICAN HANDFORGE","Address":"16160 Scientific","City":"Irvine","State":"CA","Zip":"92618"},{"Location":"AMTRAN LOGISTICS INC","Address":"9 Goddard","City":"Irvine","State":"CA","Zip":"92618"},{"Location":"ARTHROCARE","Address":"15279 Alton Pkwy 400","City":"Irvine","State":"CA","Zip":"92618"},{"Location":"ARTHROCARE","Address":"15285 Alton Pkwy 200","City":"Irvine","State":"CA","Zip":"92618"},{"Location":"ASICS AMERICAN CORP","Address":"80 Technology Dr","City":"Irvine","State":"CA","Zip":"92618"},{"Location":"ASPEN MEDICAL PRODUCTS","Address":"6481 Oak Cyn","City":"Irvine","State":"CA","Zip":"92618"},{"Location":"ASPEN MEDICAL PRODUCTS 1","Address":"6485 Oak Cyn","City":"Irvine","State":"CA","Zip":"92618"},{"Location":"AUCTIONDOTCOM","Address":"1 Mauchly","City":"Irvine","State":"CA","Zip":"92618"},{"Location":"AXIOM MEMORY SOLUTIONS","Address":"15 Chrysler","City":"Irvine","State":"CA","Zip":"92618"},{"Location":"BACK BAY GROUP","Address":"20 Pacifica 1000","City":"Irvine","State":"CA","Zip":"92618"},{"Location":"BDS MARKETING #1","Address":"10 Holland","City":"Irvine","State":"CA","Zip":"92618"},{"Location":"BEDLINERS PLUS","Address":"15791 Rockfield Blvd L","City":"Irvine","State":"CA","Zip":"92618"},{"Location":"BIG O TIRES IRV","Address":"8767 Irvine Center Dr A","City":"Irvine","State":"CA","Zip":"92618"},{"Location":"BLIZZARD ENTERTAINMENT","Address":"16245 Laguna Canyon Rd","City":"Irvine","State":"CA","Zip":"92618"},{"Location":"BLIZZARD ENTERTAINMENT","Address":"153 Technology Dr","City":"Irvine","State":"CA","Zip":"92618"},{"Location":"BLIZZARD ENTERTAINMENT","Address":"16215 Alton Pkwy","City":"Irvine","State":"CA","Zip":"92618"},{"Location":"BLIZZARD ENTERTAINMENT I","Address":"16215 Alton Pkwy","City":"Irvine","State":"CA","Zip":"92618"},{"Location":"BLIZZARD ENTERTAINMENT INC","Address":"16215 Alton Pkwy","City":"Irvine","State":"CA","Zip":"92618"},{"Location":"BOOST MOBILE%2FSPRINT","Address":"6591 Irvine Center Dr","City":"Irvine","State":"CA","Zip":"92618"},{"Location":"BRIO TUSCAN GRILLE #114","Address":"620 Spectrum Center Dr","City":"Irvine","State":"CA","Zip":"92618"},{"Location":"CALIBER COLLISION","Address":"7 Oldfield","City":"Irvine","State":"CA","Zip":"92618"},{"Location":"CAPITAL","Address":"85 Fortune Dr 329","City":"Irvine","State":"CA","Zip":"92618"},{"Location":"CARMAX #7195","Address":"9501 Research Dr","City":"Irvine","State":"CA","Zip":"92618"},{"Location":"CHEVROLET OF IRVINE","Address":"21 Auto Center Dr","City":"Irvine","State":"CA","Zip":"92618"},{"Location":"CHRIST OUR REDEEMER CHURCH","Address":"45 Tesla","City":"Irvine","State":"CA","Zip":"92618"},{"Location":"CITIBANK","Address":"20 Pacifica 3","City":"Irvine","State":"CA","Zip":"92618"},{"Location":"COASTEL BUSINESS GROUP","Address":"16150 Scientific","City":"Irvine","State":"CA","Zip":"92618"},{"Location":"COOL CLUBS","Address":"1 Golf Club Dr","City":"Irvine","State":"CA","Zip":"92618"},{"Location":"CUSTOM BUSINESS SOLUTIONS","Address":"12 Morgan","City":"Irvine","State":"CA","Zip":"92618"},{"Location":"DAPHNES","Address":"5643 Alton Pkwy","City":"Irvine","State":"CA","Zip":"92618"},{"Location":"DAVE AND BUSTER'S #14","Address":"361 Spectrum Center Dr","City":"Irvine","State":"CA","Zip":"92618"},{"Location":"DAVITA #2896 THE GROVE","Address":"15253 Bake Pkwy","City":"Irvine","State":"CA","Zip":"92618"},{"Location":"DAVITA #2896-1C THE GROVE","Address":"15271 Laguna Canyon Rd","City":"Irvine","State":"CA","Zip":"92618"},{"Location":"DOUBLETREE IRVINE SPECTRUM","Address":"90 Pacifica","City":"Irvine","State":"CA","Zip":"92618"},{"Location":"DOYLE MOORE AND SCHAFER","Address":"8105 Irvine Center Dr 520","City":"Irvine","State":"CA","Zip":"92618"},{"Location":"DRAPER'S & DAMONS","Address":"9 Pasteur 200","City":"Irvine","State":"CA","Zip":"92618"},{"Location":"DYNAMIC SOLUTIONS","Address":"9209 Research Dr","City":"Irvine","State":"CA","Zip":"92618"},{"Location":"EARTH WISE PACKAGING","Address":"12 Goddard","City":"Irvine","State":"CA","Zip":"92618"},{"Location":"ENDOLOGIX","Address":"11 Studebaker","City":"Irvine","State":"CA","Zip":"92618"},{"Location":"ENDOLOGIX","Address":"2 Musick","City":"Irvine","State":"CA","Zip":"92618"},{"Location":"ENDOLOGIX1","Address":"35 Hammond","City":"Irvine","State":"CA","Zip":"92618"},{"Location":"ENVOY GROUP LLC","Address":"34 Tesla 200","City":"Irvine","State":"CA","Zip":"92618"},{"Location":"FED EX EXPRESS","Address":"7000 Barranca Pkwy","City":"Irvine","State":"CA","Zip":"92618"},{"Location":"GENESYS","Address":"2 Venture 340","City":"Irvine","State":"CA","Zip":"92618"},{"Location":"GETAC","Address":"43 Tesla","City":"Irvine","State":"CA","Zip":"92618"},{"Location":"GOLFSMITH #090","Address":"16181 Lake Forest Dr","City":"Irvine","State":"CA","Zip":"92618"},{"Location":"IMPERIO NISSAN OF IRVINE","Address":"32 Auto Center Dr","City":"Irvine","State":"CA","Zip":"92618"},{"Location":"IMPROV","Address":"71 Fortune Dr 841","City":"Irvine","State":"CA","Zip":"92618"},{"Location":"INKAS","Address":"16277 Laguna Canyon Rd A","City":"Irvine","State":"CA","Zip":"92618"},{"Location":"INTELLIAN TECH","Address":"9261 Irvine Blvd","City":"Irvine","State":"CA","Zip":"92618"},{"Location":"INTERACT","Address":"114 Pacifica 370","City":"Irvine","State":"CA","Zip":"92618"},{"Location":"IRVINE IMPROV","Address":"31 Fortune Dr 216","City":"Irvine","State":"CA","Zip":"92618"},{"Location":"IRVINE MINI","Address":"9829 Research Dr","City":"Irvine","State":"CA","Zip":"92618"},{"Location":"IRVINE SPECTRUM CENTER","Address":"71 Fortune Dr 970","City":"Irvine","State":"CA","Zip":"92618"},{"Location":"IRVINE VALLEY COLLEGE PD","Address":"5500 Irvine Center Dr","City":"Irvine","State":"CA","Zip":"92618"},{"Location":"JAMES HAWKINS    AP LC","Address":"9880a Research Dr 200a","City":"Irvine","State":"CA","Zip":"92618"},{"Location":"JEAN & CO","Address":"5625 Alton Pkwy","City":"Irvine","State":"CA","Zip":"92618"},{"Location":"JHA ENVIRONMENTAL INC","Address":"15375 Barranca Pkwy J101","City":"Irvine","State":"CA","Zip":"92618"},{"Location":"KATZ YOON","Address":"111 Pacifica 230","City":"Irvine","State":"CA","Zip":"92618"},{"Location":"KAWASAKI MOTORS CORP USA","Address":"9950 Jeronimo Rd","City":"Irvine","State":"CA","Zip":"92618"},{"Location":"KIA OF IRVINE","Address":"45 Oldfield","City":"Irvine","State":"CA","Zip":"92618"},{"Location":"KNOWLWOOD ENTERPRISES INCORP","Address":"14952 Sand Canyon Ave","City":"Irvine","State":"CA","Zip":"92618"},{"Location":"LEXUS WESTERN AREA","Address":"209 Technology Dr","City":"Irvine","State":"CA","Zip":"92618"},{"Location":"LIDS LOCKER ROOM 8072","Address":"71 Fortune Dr","City":"Irvine","State":"CA","Zip":"92618"},{"Location":"LIVING SPACES FURNITURE","Address":"95 Technology Dr","City":"Irvine","State":"CA","Zip":"92618"},{"Location":"LRG","Address":"7 Holland","City":"Irvine","State":"CA","Zip":"92618"},{"Location":"MACY'S WEST 530","Address":"93 Fortune Dr","City":"Irvine","State":"CA","Zip":"92618"},{"Location":"MACY'S WEST 530 BR","Address":"93 Fortune Dr","City":"Irvine","State":"CA","Zip":"92618"},{"Location":"MAIZURAU JAPANESE RESTAURANT","Address":"5623 Alton Pkwy","City":"Irvine","State":"CA","Zip":"92618"},{"Location":"MAIZURU JAPANESE RESTAURAN","Address":"5623 Alton Pkwy","City":"Irvine","State":"CA","Zip":"92618"},{"Location":"MARK IV CAPITAL","Address":"101 Pacifica","City":"Irvine","State":"CA","Zip":"92618"},{"Location":"METRO FOR MEN","Address":"15382 Alton Pkwy","City":"Irvine","State":"CA","Zip":"92618"},{"Location":"MIYABI","Address":"15439 Jeffrey Rd 119","City":"Irvine","State":"CA","Zip":"92618"},{"Location":"NEW ERA CAP","Address":"8945 Research Dr","City":"Irvine","State":"CA","Zip":"92618"},{"Location":"NEWPORT AUTO CENTER","Address":"9101 Research Dr","City":"Irvine","State":"CA","Zip":"92618"},{"Location":"NISSAN NORTH AMERICA","Address":"20 Pacifica 1200","City":"Irvine","State":"CA","Zip":"92618"},{"Location":"NORDSTROM IRVINE SPECTRUM","Address":"101 Fortune Dr","City":"Irvine","State":"CA","Zip":"92618"},{"Location":"OC FINANCIAL","Address":"3 Whatney 200","City":"Irvine","State":"CA","Zip":"92618"},{"Location":"OCB REPROGRAPHICS","Address":"9803 Research Dr","City":"Irvine","State":"CA","Zip":"92618"},{"Location":"OPEN TEXT INCORPORATED","Address":"8717 Research Dr 100","City":"Irvine","State":"CA","Zip":"92618"},{"Location":"PARKER HANNIFIN AEROSPACE GROU","Address":"14300 Alton Pkwy","City":"Irvine","State":"CA","Zip":"92618"},{"Location":"PF CHANG'S #1400","Address":"61 Fortune Dr","City":"Irvine","State":"CA","Zip":"92618"},{"Location":"PHO  FACTORY","Address":"15455 Jeffrey Rd 300","City":"Irvine","State":"CA","Zip":"92618"},{"Location":"PM AMERICAN GRILL","Address":"31 Fortune Dr 302","City":"Irvine","State":"CA","Zip":"92618"},{"Location":"PPF HALL OF FAMERS IRVINE","Address":"71 Fortune Dr 848","City":"Irvine","State":"CA","Zip":"92618"},{"Location":"RBF CONSULTING","Address":"14725 Alton Pkwy","City":"Irvine","State":"CA","Zip":"92618"},{"Location":"RED ROBIN #69","Address":"83 Fortune Dr 201","City":"Irvine","State":"CA","Zip":"92618"},{"Location":"RESTOR PHYSICAL THERAPY","Address":"6865 Alton Pkwy 110","City":"Irvine","State":"CA","Zip":"92618"},{"Location":"RHI INVESTMENTS LLC","Address":"30 Muller 213","City":"Irvine","State":"CA","Zip":"92618"},{"Location":"RHINO TRAINING CENTER","Address":"60 Post","City":"Irvine","State":"CA","Zip":"92618"},{"Location":"ROBERT MAYER COPORATION","Address":"8951 Research Dr","City":"Irvine","State":"CA","Zip":"92618"},{"Location":"SAFELITE","Address":"3 Faraday B","City":"Irvine","State":"CA","Zip":"92618"},{"Location":"SAMPLING INTERNATIONAL","Address":"28 Hammond C","City":"Irvine","State":"CA","Zip":"92618"},{"Location":"SHATFORD LAW","Address":"16491 Scientific","City":"Irvine","State":"CA","Zip":"92618"},{"Location":"SHIMANO","Address":"2 Holland","City":"Irvine","State":"CA","Zip":"92618"},{"Location":"SOUTH WEST DEALER SERVICES","Address":"18 Bunsen","City":"Irvine","State":"CA","Zip":"92618"},{"Location":"SOUTHERN CALIFORNIA EDISON","Address":"14155 Bake Pkwy","City":"Irvine","State":"CA","Zip":"92618"},{"Location":"SPECIALTY SURGICAL CENTER","Address":"15825 Laguna Canyon Rd 200","City":"Irvine","State":"CA","Zip":"92618"},{"Location":"ST JUDE MEDICAL","Address":"100 Technology Dr","City":"Irvine","State":"CA","Zip":"92618"},{"Location":"SUPREME FITNESS","Address":"15435 Jeffrey Rd 137","City":"Irvine","State":"CA","Zip":"92618"},{"Location":"SVB FINANCIAL GROUP","Address":"38 Technology Dr 150","City":"Irvine","State":"CA","Zip":"92618"},{"Location":"TACO BELL CORP","Address":"1 Glen Bell Way 5thfl","City":"Irvine","State":"CA","Zip":"92618"},{"Location":"TACO BELL CORP 1ST FLOOR","Address":"1 Glen Bell Way","City":"Irvine","State":"CA","Zip":"92618"},{"Location":"TACO BELL CORP 4TH FLR","Address":"1 Glen Bell Way 4thfl","City":"Irvine","State":"CA","Zip":"92618"},{"Location":"TACO BELL FITNESS CENTER","Address":"1 Glen Bell Way","City":"Irvine","State":"CA","Zip":"92618"},{"Location":"TARGET","Address":"115 Fortune Dr","City":"Irvine","State":"CA","Zip":"92618"},{"Location":"THAI SPICE","Address":"15455 Jeffrey Rd 315","City":"Irvine","State":"CA","Zip":"92618"},{"Location":"THE CHEESECAKE FACTORY 0025","Address":"71 Fortune Dr","City":"Irvine","State":"CA","Zip":"92618"},{"Location":"THE MEADOWS IN IRVINE","Address":"14851 Jeffrey Rd","City":"Irvine","State":"CA","Zip":"92618"},{"Location":"THE TOLL ROADS","Address":"125 Pacifica 100","City":"Irvine","State":"CA","Zip":"92618"},{"Location":"TIERRA VERDE INDUSTRIES","Address":"7913 Marine Way   Bldg #96","City":"Irvine","State":"CA","Zip":"92618"},{"Location":"TLT FOOD","Address":"405 Spectrum Center Dr","City":"Irvine","State":"CA","Zip":"92618"},{"Location":"TOYOTA MOTOR SALES USA","Address":"2 Banting","City":"Irvine","State":"CA","Zip":"92618"},{"Location":"TRUST COMMERCE","Address":"9850 Irvine Center Dr","City":"Irvine","State":"CA","Zip":"92618"},{"Location":"TS69282030000000XXAOXX3LAXTVXX","Address":"2 Wrigley","City":"Irvine","State":"CA","Zip":"92618"},{"Location":"UBIQUITY BROADCASTING CORP","Address":"9801 Research Dr","City":"Irvine","State":"CA","Zip":"92618"},{"Location":"URBAN SEOUL","Address":"81 Fortune Dr 155","City":"Irvine","State":"CA","Zip":"92618"},{"Location":"US HEALTHWORKS","Address":"15751 Rockfield Blvd","City":"Irvine","State":"CA","Zip":"92618"},{"Location":"VALLEY CREST DESIGN1","Address":"8 Hughes","City":"Irvine","State":"CA","Zip":"92618"},{"Location":"VERIZON WIRELESS","Address":"15505 Sand Canyon Ave B","City":"Irvine","State":"CA","Zip":"92618"},{"Location":"VERIZON WIRELESS","Address":"15505 Sand Canyon Ave Bldge","City":"Irvine","State":"CA","Zip":"92618"},{"Location":"VERIZON WIRELESS","Address":"15505 Sand Canyon Ave","City":"Irvine","State":"CA","Zip":"92618"},{"Location":"VICTOR INSTRUMENTS INC","Address":"50 Bunsen","City":"Irvine","State":"CA","Zip":"92618"},{"Location":"VILLAGE MARKET AND CAFE","Address":"310 Gitano","City":"Irvine","State":"CA","Zip":"92618"},{"Location":"VIZIO","Address":"35 Tesla","City":"Irvine","State":"CA","Zip":"92618"},{"Location":"VIZIO%2CINC","Address":"39 Tesla","City":"Irvine","State":"CA","Zip":"92618"},{"Location":"VL GROUP","Address":"216 Technology Dr F","City":"Irvine","State":"CA","Zip":"92618"},{"Location":"WARRIOR CUSTOM GOLF","Address":"15 Mason","City":"Irvine","State":"CA","Zip":"92618"},{"Location":"WARRIOR CUSTOM GOLF 1","Address":"10 Mason","City":"Irvine","State":"CA","Zip":"92618"},{"Location":"WASA SUSHI","Address":"59 Fortune Dr 340","City":"Irvine","State":"CA","Zip":"92618"},{"Location":"WATG","Address":"8001 Irvine Center Dr 500","City":"Irvine","State":"CA","Zip":"92618"},{"Location":"WHOLE VENDING INC.","Address":"6671 Marine Way","City":"Irvine","State":"CA","Zip":"92618"},{"Location":"WILSON AND OSKAM LLP","Address":"9110 Irvine Center Dr","City":"Irvine","State":"CA","Zip":"92618"},{"Location":"WL BUTLER CONSTRUCTION INC","Address":"3 Mason","City":"Irvine","State":"CA","Zip":"92618"},{"Location":"WOOD RANCH BBQ & GRILL","Address":"57 Fortune Dr 230","City":"Irvine","State":"CA","Zip":"92618"},{"Location":"YARD HOUSE 8303","Address":"71 Fortune Dr 802","City":"Irvine","State":"CA","Zip":"92618"}]