[{"Location":"24 HOUR FITNESS #189","Address":"18007 Von Karman Ave","City":"Irvine","State":"CA","Zip":"92612"},{"Location":"ALLIED SERVICES","Address":"2151 Michelson Dr 265","City":"Irvine","State":"CA","Zip":"92612"},{"Location":"APEX PARKS GROUP LLC","Address":"3405 Michelson Dr","City":"Irvine","State":"CA","Zip":"92612"},{"Location":"BARETAN","Address":"2967 Michelson Dr E","City":"Irvine","State":"CA","Zip":"92612"},{"Location":"BISTANGO RESTAURANT","Address":"19100 Von Karman Ave 100","City":"Irvine","State":"CA","Zip":"92612"},{"Location":"CALIFORNIA BEVERAGE PARTNERS","Address":"19752 Macarthur Blvd 240","City":"Irvine","State":"CA","Zip":"92612"},{"Location":"CALIFORNIA GOGI","Address":"4237 Campus Dr B157","City":"Irvine","State":"CA","Zip":"92612"},{"Location":"CHAMBERLAIN GROUP","Address":"2301 Duport Drive 460","City":"Irvine","State":"CA","Zip":"92612"},{"Location":"CIP REAL ESTATE","Address":"19762 Macarthur Blvd 300","City":"Irvine","State":"CA","Zip":"92612"},{"Location":"CONDOS ETC INC","Address":"2152 Dupont Dr 130","City":"Irvine","State":"CA","Zip":"92612"},{"Location":"CONGREGATION SHIR HA MA'ALOT","Address":"3652 Michelson Dr","City":"Irvine","State":"CA","Zip":"92612"},{"Location":"CULVER CARWASH","Address":"18011 Culver Dr","City":"Irvine","State":"CA","Zip":"92612"},{"Location":"DEPT OF HOMELAND SECURITY","Address":"18881 Von Karman Ave 1800","City":"Irvine","State":"CA","Zip":"92612"},{"Location":"DOCTORS AMBULANCE","Address":"2070 Business Center Dr","City":"Irvine","State":"CA","Zip":"92612"},{"Location":"EL TORITO 7158","Address":"18512 Macarthur Blvd","City":"Irvine","State":"CA","Zip":"92612"},{"Location":"EUREKA IRVINE LLC","Address":"4143 Campus Dr C193","City":"Irvine","State":"CA","Zip":"92612"},{"Location":"FINANCE 500","Address":"19762 Macarthur Blvd 200","City":"Irvine","State":"CA","Zip":"92612"},{"Location":"FUNDING USA COM","Address":"2081 Business Center Dr 180","City":"Irvine","State":"CA","Zip":"92612"},{"Location":"GATTEN SUSHI","Address":"4517 Campus Dr","City":"Irvine","State":"CA","Zip":"92612"},{"Location":"GINA'S PIZZA & PASTARIA","Address":"4533 Campus Dr","City":"Irvine","State":"CA","Zip":"92612"},{"Location":"GOLDEN STATE FOODS","Address":"18301 Von Karman Ave 600","City":"Irvine","State":"CA","Zip":"92612"},{"Location":"GREENLAW PARTNERS","Address":"18301 Von Karman Ave 250","City":"Irvine","State":"CA","Zip":"92612"},{"Location":"HARVEST CHRISTIAN FELLOWSHIP","Address":"2727 Campus Dr","City":"Irvine","State":"CA","Zip":"92612"},{"Location":"HEN HOUSE GRILL","Address":"18040 Culver Dr A","City":"Irvine","State":"CA","Zip":"92612"},{"Location":"HILTON IRVINE HOTEL","Address":"18800 Macarthur Blvd","City":"Irvine","State":"CA","Zip":"92612"},{"Location":"HOUSTON'S RESTAURANT","Address":"2991 Michelson Dr","City":"Irvine","State":"CA","Zip":"92612"},{"Location":"IL FORNAIO IRVINE","Address":"18051 Von Karman Ave","City":"Irvine","State":"CA","Zip":"92612"},{"Location":"IRVINE LANES","Address":"3415 Michelson Dr","City":"Irvine","State":"CA","Zip":"92612"},{"Location":"IRVINE RANCH WATER DISTRICT","Address":"3512 Michelson Dr","City":"Irvine","State":"CA","Zip":"92612"},{"Location":"KOBA TOFU GRILL","Address":"4501 Campus Dr","City":"Irvine","State":"CA","Zip":"92612"},{"Location":"LA FITNESS #06148","Address":"3021 Michelson Dr","City":"Irvine","State":"CA","Zip":"92612"},{"Location":"LBA REALTY","Address":"3347 Michelson Dr 1150","City":"Irvine","State":"CA","Zip":"92612"},{"Location":"LUTRON ELECTRONICS","Address":"2458 Dupont Dr","City":"Irvine","State":"CA","Zip":"92612"},{"Location":"MALCOM CISNEROS LAW","Address":"2112 Business Center Dr","City":"Irvine","State":"CA","Zip":"92612"},{"Location":"MARRIOTT%2FCHAMPIONS","Address":"18000 Von Karman Ave","City":"Irvine","State":"CA","Zip":"92612"},{"Location":"MIZUKI INC","Address":"2981 Michelson Dr E","City":"Irvine","State":"CA","Zip":"92612"},{"Location":"OC DAILY DOSE","Address":"2963 Michelson Dr","City":"Irvine","State":"CA","Zip":"92612"},{"Location":"OC WINE MART","Address":"2272 Michelson Dr","City":"Irvine","State":"CA","Zip":"92612"},{"Location":"PANINI CAFE","Address":"3041 Michelson Dr","City":"Irvine","State":"CA","Zip":"92612"},{"Location":"PERFORMANCE HEALTH","Address":"2737 Campus Dr","City":"Irvine","State":"CA","Zip":"92612"},{"Location":"PREGO RISTORANTE","Address":"18420 Von Karman Ave","City":"Irvine","State":"CA","Zip":"92612"},{"Location":"PREMIER BUSINESS CENTER LLC","Address":"2600 Michelson Dr","City":"Irvine","State":"CA","Zip":"92612"},{"Location":"PRIORITY BUSINESS SERVICES INC","Address":"19712 Macarthur Blvd 110","City":"Irvine","State":"CA","Zip":"92612"},{"Location":"QBE FIRST","Address":"3349 Michelson Dr 200","City":"Irvine","State":"CA","Zip":"92612"},{"Location":"RAQUET CLUB OF IRVINE","Address":"5 Ethel Coplen Way","City":"Irvine","State":"CA","Zip":"92612"},{"Location":"RESIDENTIAL FIRST MORTGAGE","Address":"18831 Von Karman Ave 380","City":"Irvine","State":"CA","Zip":"92612"},{"Location":"RUTH'S CHRIS","Address":"2961 Michelson Dr A","City":"Irvine","State":"CA","Zip":"92612"},{"Location":"SARES-REGIS GROUP","Address":"18802 Bardeen Ave","City":"Irvine","State":"CA","Zip":"92612"},{"Location":"SMITH ELLISON","Address":"18881 Von Karman Ave 960","City":"Irvine","State":"CA","Zip":"92612"},{"Location":"STEADFAST","Address":"18100 Von Karman Ave 500","City":"Irvine","State":"CA","Zip":"92612"},{"Location":"STRAWBERRY FARMS GOLF COURSE","Address":"11 Strawberry Farm Rd","City":"Irvine","State":"CA","Zip":"92612"},{"Location":"SURE FIRE USA","Address":"2102 Business Center Dr 220c","City":"Irvine","State":"CA","Zip":"92612"},{"Location":"THE COUNTER PARK PLACE","Address":"2981 Michelson Dr C","City":"Irvine","State":"CA","Zip":"92612"},{"Location":"THE MELTING POT1","Address":"2646 Dupont Dr","City":"Irvine","State":"CA","Zip":"92612"},{"Location":"THE TANNING SPA 2","Address":"2626 Dupont Dr 60","City":"Irvine","State":"CA","Zip":"92612"},{"Location":"THOMSON STONE AQUISITION","Address":"2301 Campus Dr Ste11","City":"Irvine","State":"CA","Zip":"92612"},{"Location":"TRAN SON","Address":"2636 Dupont Dr","City":"Irvine","State":"CA","Zip":"92612"},{"Location":"TWENTY EIGHT","Address":"19530 Jamboree Rd","City":"Irvine","State":"CA","Zip":"92612"},{"Location":"U.S. FOOD AND DRUG ADMIN","Address":"19701 Fairchild","City":"Irvine","State":"CA","Zip":"92612"},{"Location":"UNITED AMERICAN MORTGAGE","Address":"19782 Macarthur Blvd 250","City":"Irvine","State":"CA","Zip":"92612"},{"Location":"WESTERN MUTUAL INS","Address":"2172 Dupont Dr 230","City":"Irvine","State":"CA","Zip":"92612"},{"Location":"WORLDWIDE KABOB","Address":"2222 Michelson Dr 200","City":"Irvine","State":"CA","Zip":"92612"},{"Location":"WRIGHT RESTAURANT GROUP","Address":"6060 Scholarship","City":"Irvine","State":"CA","Zip":"92612"},{"Location":"24 HOUR FITNESS #189","Address":"18007 Von Karman Ave","City":"Irvine","State":"CA","Zip":"92612"},{"Location":"ALLIED SERVICES","Address":"2151 Michelson Dr 265","City":"Irvine","State":"CA","Zip":"92612"},{"Location":"APEX PARKS GROUP LLC","Address":"3405 Michelson Dr","City":"Irvine","State":"CA","Zip":"92612"},{"Location":"BARETAN","Address":"2967 Michelson Dr E","City":"Irvine","State":"CA","Zip":"92612"},{"Location":"BISTANGO RESTAURANT","Address":"19100 Von Karman Ave 100","City":"Irvine","State":"CA","Zip":"92612"},{"Location":"CALIFORNIA BEVERAGE PARTNERS","Address":"19752 Macarthur Blvd 240","City":"Irvine","State":"CA","Zip":"92612"},{"Location":"CALIFORNIA GOGI","Address":"4237 Campus Dr B157","City":"Irvine","State":"CA","Zip":"92612"},{"Location":"CHAMBERLAIN GROUP","Address":"2301 Duport Drive 460","City":"Irvine","State":"CA","Zip":"92612"},{"Location":"CIP REAL ESTATE","Address":"19762 Macarthur Blvd 300","City":"Irvine","State":"CA","Zip":"92612"},{"Location":"CITIZEN  PAINE","Address":"19000 Macarthur Blvd 800","City":"Irvine","State":"CA","Zip":"92612"},{"Location":"CONDOS ETC INC","Address":"2152 Dupont Dr 130","City":"Irvine","State":"CA","Zip":"92612"},{"Location":"CONGREGATION SHIR HA MA'ALOT","Address":"3652 Michelson Dr","City":"Irvine","State":"CA","Zip":"92612"},{"Location":"CULVER CARWASH","Address":"18011 Culver Dr","City":"Irvine","State":"CA","Zip":"92612"},{"Location":"DEPT OF HOMELAND SECURITY","Address":"18881 Von Karman Ave 1800","City":"Irvine","State":"CA","Zip":"92612"},{"Location":"DOCTORS AMBULANCE","Address":"2070 Business Center Dr","City":"Irvine","State":"CA","Zip":"92612"},{"Location":"EL TORITO 7158","Address":"18512 Macarthur Blvd","City":"Irvine","State":"CA","Zip":"92612"},{"Location":"EUREKA IRVINE LLC","Address":"4143 Campus Dr C193","City":"Irvine","State":"CA","Zip":"92612"},{"Location":"FINANCE 500","Address":"19762 Macarthur Blvd 200","City":"Irvine","State":"CA","Zip":"92612"},{"Location":"FUNDING USA COM","Address":"2081 Business Center Dr 180","City":"Irvine","State":"CA","Zip":"92612"},{"Location":"GATTEN SUSHI","Address":"4517 Campus Dr","City":"Irvine","State":"CA","Zip":"92612"},{"Location":"GINA'S PIZZA & PASTARIA","Address":"4533 Campus Dr","City":"Irvine","State":"CA","Zip":"92612"},{"Location":"GOLDEN STATE FOODS","Address":"18301 Von Karman Ave 600","City":"Irvine","State":"CA","Zip":"92612"},{"Location":"GREENLAW PARTNERS","Address":"18301 Von Karman Ave 250","City":"Irvine","State":"CA","Zip":"92612"},{"Location":"HARVEST CHRISTIAN FELLOWSHIP","Address":"2727 Campus Dr","City":"Irvine","State":"CA","Zip":"92612"},{"Location":"HEN HOUSE GRILL","Address":"18040 Culver Dr A","City":"Irvine","State":"CA","Zip":"92612"},{"Location":"HILTON IRVINE HOTEL","Address":"18800 Macarthur Blvd","City":"Irvine","State":"CA","Zip":"92612"},{"Location":"HOUSTON'S RESTAURANT","Address":"2991 Michelson Dr","City":"Irvine","State":"CA","Zip":"92612"},{"Location":"IL FORNAIO IRVINE","Address":"18051 Von Karman Ave","City":"Irvine","State":"CA","Zip":"92612"},{"Location":"IRVINE LANES","Address":"3415 Michelson Dr","City":"Irvine","State":"CA","Zip":"92612"},{"Location":"IRVINE RANCH WATER DISTRICT","Address":"3512 Michelson Dr","City":"Irvine","State":"CA","Zip":"92612"},{"Location":"KOBA TOFU GRILL","Address":"4501 Campus Dr","City":"Irvine","State":"CA","Zip":"92612"},{"Location":"LA FITNESS #06148","Address":"3021 Michelson Dr","City":"Irvine","State":"CA","Zip":"92612"},{"Location":"LBA REALTY","Address":"3347 Michelson Dr 1150","City":"Irvine","State":"CA","Zip":"92612"},{"Location":"LUTRON ELECTRONICS","Address":"2458 Dupont Dr","City":"Irvine","State":"CA","Zip":"92612"},{"Location":"MALCOM CISNEROS LAW","Address":"2112 Business Center Dr","City":"Irvine","State":"CA","Zip":"92612"},{"Location":"MARRIOTT%2FCHAMPIONS","Address":"18000 Von Karman Ave","City":"Irvine","State":"CA","Zip":"92612"},{"Location":"MIZUKI INC","Address":"2981 Michelson Dr E","City":"Irvine","State":"CA","Zip":"92612"},{"Location":"OC DAILY DOSE","Address":"2963 Michelson Dr","City":"Irvine","State":"CA","Zip":"92612"},{"Location":"OC WINE MART","Address":"2272 Michelson Dr","City":"Irvine","State":"CA","Zip":"92612"},{"Location":"PANINI CAFE","Address":"3041 Michelson Dr","City":"Irvine","State":"CA","Zip":"92612"},{"Location":"PERFORMANCE HEALTH","Address":"2737 Campus Dr","City":"Irvine","State":"CA","Zip":"92612"},{"Location":"Prego Ristorante","Address":"18420 Von Karman Ave","City":"Irvine","State":"CA","Zip":"92612"},{"Location":"PREMIER BUSINESS CENTER LLC","Address":"2600 Michelson Dr","City":"Irvine","State":"CA","Zip":"92612"},{"Location":"PRIORITY BUSINESS SERVICES INC","Address":"19712 Macarthur Blvd 110","City":"Irvine","State":"CA","Zip":"92612"},{"Location":"QBE FIRST","Address":"3349 Michelson Dr 200","City":"Irvine","State":"CA","Zip":"92612"},{"Location":"RAQUET CLUB OF IRVINE","Address":"5 Ethel Coplen Way","City":"Irvine","State":"CA","Zip":"92612"},{"Location":"RESIDENTIAL FIRST MORTGAGE","Address":"18831 Von Karman Ave 380","City":"Irvine","State":"CA","Zip":"92612"},{"Location":"RUTH'S CHRIS","Address":"2961 Michelson Dr A","City":"Irvine","State":"CA","Zip":"92612"},{"Location":"SARES-REGIS GROUP","Address":"18802 Bardeen Ave","City":"Irvine","State":"CA","Zip":"92612"},{"Location":"SMITH ELLISON","Address":"18881 Von Karman Ave 960","City":"Irvine","State":"CA","Zip":"92612"},{"Location":"STEADFAST","Address":"18100 Von Karman Ave 500","City":"Irvine","State":"CA","Zip":"92612"},{"Location":"STRAWBERRY FARMS GOLF COURSE","Address":"11 Strawberry Farm Rd","City":"Irvine","State":"CA","Zip":"92612"},{"Location":"THE COUNTER PARK PLACE","Address":"2981 Michelson Dr C","City":"Irvine","State":"CA","Zip":"92612"},{"Location":"THE MELTING POT1","Address":"2646 Dupont Dr","City":"Irvine","State":"CA","Zip":"92612"},{"Location":"THE TANNING SPA 2","Address":"2626 Dupont Dr 60","City":"Irvine","State":"CA","Zip":"92612"},{"Location":"THOMSON STONE AQUISITION","Address":"2301 Campus Dr Ste11","City":"Irvine","State":"CA","Zip":"92612"},{"Location":"TRAN SON","Address":"2636 Dupont Dr","City":"Irvine","State":"CA","Zip":"92612"},{"Location":"TWENTY EIGHT","Address":"19530 Jamboree Rd","City":"Irvine","State":"CA","Zip":"92612"},{"Location":"U.S. FOOD AND DRUG ADMIN","Address":"19701 Fairchild","City":"Irvine","State":"CA","Zip":"92612"},{"Location":"UNITED AMERICAN MORTGAGE","Address":"19782 Macarthur Blvd 250","City":"Irvine","State":"CA","Zip":"92612"},{"Location":"WESTERN MUTUAL INS","Address":"2172 Dupont Dr 230","City":"Irvine","State":"CA","Zip":"92612"},{"Location":"WORLDWIDE KABOB","Address":"2222 Michelson Dr 200","City":"Irvine","State":"CA","Zip":"92612"},{"Location":"WRIGHT RESTAURANT GROUP","Address":"6060 Scholarship","City":"Irvine","State":"CA","Zip":"92612"}]