[{"Location":"AHI AHI SUSHI BAR","Address":"45 Auto Center Dr","City":"Foothill Ranch","State":"CA","Zip":"92610"},{"Location":"ARBYS 6533","Address":"26801 Portola Pkwy","City":"Foothill Ranch","State":"CA","Zip":"92610"},{"Location":"ARROW ELECTRONIC ORANGE COUNTY","Address":"26632 Towne Centre Dr 100","City":"Foothill Ranch","State":"CA","Zip":"92610"},{"Location":"CALI FISH GRILL FOOTHILL","Address":"41 Auto Center Dr 113","City":"Foothill Ranch","State":"CA","Zip":"92610"},{"Location":"CHILI'S #0399","Address":"26782 Portola Pkwy","City":"Foothill Ranch","State":"CA","Zip":"92610"},{"Location":"CLUB NAILS SPA","Address":"26746 Portola Pkwy D","City":"Foothill Ranch","State":"CA","Zip":"92610"},{"Location":"CUCAS MEXICAN FOOD","Address":"26676 Portola Pkwy E","City":"Foothill Ranch","State":"CA","Zip":"92610"},{"Location":"DA LUAU","Address":"41 Auto Center Dr 101","City":"Foothill Ranch","State":"CA","Zip":"92610"},{"Location":"DAPHNES GREEK","Address":"26612 Towne Centre Dr 1","City":"Foothill Ranch","State":"CA","Zip":"92610"},{"Location":"ELEVEN46 KITCHEN","Address":"45 Auto Center Dr","City":"Foothill Ranch","State":"CA","Zip":"92610"},{"Location":"FIRST CLASS PIZZA","Address":"45 Auto Center Dr 106","City":"Foothill Ranch","State":"CA","Zip":"92610"},{"Location":"INKA MAMAS","Address":"26676 Portola Pkwy","City":"Foothill Ranch","State":"CA","Zip":"92610"},{"Location":"ISLANDS RESTAURANT #028","Address":"26582 Towne Centre Dr","City":"Foothill Ranch","State":"CA","Zip":"92610"},{"Location":"JAVA & COFFEE HOUSE","Address":"26741 Portola Pkwy 1a","City":"Foothill Ranch","State":"CA","Zip":"92610"},{"Location":"JJ ZEN INC","Address":"26612 Towne Centre Dr E","City":"Foothill Ranch","State":"CA","Zip":"92610"},{"Location":"LA PERLITA RESTAURANT","Address":"26771 Portola Pkwy 3b","City":"Foothill Ranch","State":"CA","Zip":"92610"},{"Location":"LOVELY NAILS","Address":"26761 Portola Pkwy 2e","City":"Foothill Ranch","State":"CA","Zip":"92610"},{"Location":"MIGUEL'S CA MEXICAN COCINA","Address":"26592 Towne Centre Dr","City":"Foothill Ranch","State":"CA","Zip":"92610"},{"Location":"NIKE TEAM SPORTS","Address":"20001 Ellipse","City":"Foothill Ranch","State":"CA","Zip":"92610"},{"Location":"OAKLEY","Address":"1 Icon","City":"Foothill Ranch","State":"CA","Zip":"92610"},{"Location":"OAKLEY ELLIPSE GYM","Address":"20081 Ellipse","City":"Foothill Ranch","State":"CA","Zip":"92610"},{"Location":"OAKLEY INC","Address":"20081 Ellipse","City":"Foothill Ranch","State":"CA","Zip":"92610"},{"Location":"OAKLEY RETAIL","Address":"94 Icon","City":"Foothill Ranch","State":"CA","Zip":"92610"},{"Location":"P ITALIAN GROTTO","Address":"26612 Towne Centre Dr","City":"Foothill Ranch","State":"CA","Zip":"92610"},{"Location":"PACIFIC DENTAL #140","Address":"45 Auto Center Dr 110","City":"Foothill Ranch","State":"CA","Zip":"92610"},{"Location":"QUANDIS INC.","Address":"27442 Portola Pkwy 350","City":"Foothill Ranch","State":"CA","Zip":"92610"},{"Location":"ROQUE ORTHOLAV","Address":"27072 Burbank","City":"Foothill Ranch","State":"CA","Zip":"92610"},{"Location":"SPORT CLIPS CA521","Address":"26761 Portola Pkwy","City":"Foothill Ranch","State":"CA","Zip":"92610"},{"Location":"TARGET FOOTHILL RANCH","Address":"26762 Portola Pkwy","City":"Foothill Ranch","State":"CA","Zip":"92610"},{"Location":"THAI GARDEN","Address":"27472 Portola Pkwy 206","City":"Foothill Ranch","State":"CA","Zip":"92610"},{"Location":"VS BARBERSHOP","Address":"41 Auto Center Dr 111","City":"Foothill Ranch","State":"CA","Zip":"92610"},{"Location":"RED ROBIN #595","Address":"26522 Towne Centre Dr","City":"Lake Forest","State":"CA","Zip":"92610"}]