[{"Location":"12 LLC","Address":"140 E 17th St B","City":"Costa Mesa","State":"CA","Zip":"92627"},{"Location":"12 WFC FITNESS CENTER","Address":"140 E 17th St B","City":"Costa Mesa","State":"CA","Zip":"92627"},{"Location":"24 HOUR FITNESS #185","Address":"555 W 19th St","City":"Costa Mesa","State":"CA","Zip":"92627"},{"Location":"24 HOUR FITNESS #891","Address":"1870 Harbor Blvd B4","City":"Costa Mesa","State":"CA","Zip":"92627"},{"Location":"A WORLD OF BEAUTY1","Address":"401 E 17th St A","City":"Costa Mesa","State":"CA","Zip":"92627"},{"Location":"ACCESSORIES GROUP","Address":"938 W 17th St","City":"Costa Mesa","State":"CA","Zip":"92627"},{"Location":"ADVANCED AUTO CARE","Address":"1934 Newport Blvd","City":"Costa Mesa","State":"CA","Zip":"92627"},{"Location":"AL'S NEW YORK CAFE","Address":"1673 Irvine Ave","City":"Costa Mesa","State":"CA","Zip":"92627"},{"Location":"ALLENS ADVERTISING","Address":"1991 Newport Blvd 49","City":"Costa Mesa","State":"CA","Zip":"92627"},{"Location":"AMERICAN CAREER","Address":"1690 Placentia Ave F","City":"Costa Mesa","State":"CA","Zip":"92627"},{"Location":"AMORELIA MEXICAN CAFE","Address":"2200 Harbor Blvd C110","City":"Costa Mesa","State":"CA","Zip":"92627"},{"Location":"AUTO GALLERY INC","Address":"1805 Placentia Ave","City":"Costa Mesa","State":"CA","Zip":"92627"},{"Location":"BABLOT INVESTMENTS","Address":"1733 Monrovia Ave V","City":"Costa Mesa","State":"CA","Zip":"92627"},{"Location":"BACK BAY INC","Address":"2675 Irvine Ave F","City":"Costa Mesa","State":"CA","Zip":"92627"},{"Location":"BACK STREET HAIR SALON","Address":"147 Broadway","City":"Costa Mesa","State":"CA","Zip":"92627"},{"Location":"BAJA FISH TACOS","Address":"171 E 17th St","City":"Costa Mesa","State":"CA","Zip":"92627"},{"Location":"BANNON","Address":"2177 Harbor Blvd","City":"Costa Mesa","State":"CA","Zip":"92627"},{"Location":"BEACH CITY CAR WASH INC","Address":"1645 Superior Ave","City":"Costa Mesa","State":"CA","Zip":"92627"},{"Location":"BEACH HUT DELI","Address":"488 E 17th St","City":"Costa Mesa","State":"CA","Zip":"92627"},{"Location":"BEST KEPT SECRET","Address":"485 E 17th St 400","City":"Costa Mesa","State":"CA","Zip":"92627"},{"Location":"BIG BELLY DELI INC","Address":"814 W 19th St","City":"Costa Mesa","State":"CA","Zip":"92627"},{"Location":"BIG O TIRES 5837","Address":"322 E 17th St","City":"Costa Mesa","State":"CA","Zip":"92627"},{"Location":"BILLY INTERNATIONAL","Address":"1945 Placentia Ave G","City":"Costa Mesa","State":"CA","Zip":"92627"},{"Location":"BLONDER SALON","Address":"462 E 17th St","City":"Costa Mesa","State":"CA","Zip":"92627"},{"Location":"BLUE COLLAR TATTOO","Address":"2204 Newport Blvd","City":"Costa Mesa","State":"CA","Zip":"92627"},{"Location":"BODY WISE FITNESS","Address":"640 Terminal Way","City":"Costa Mesa","State":"CA","Zip":"92627"},{"Location":"BRADLEY C BOYLE","Address":"760 W 16th St C","City":"Costa Mesa","State":"CA","Zip":"92627"},{"Location":"BRANDON STUMP","Address":"234 E 17th St 206","City":"Costa Mesa","State":"CA","Zip":"92627"},{"Location":"BUY NUEZ DE LA INDIA","Address":"188 E 17th St 201","City":"Costa Mesa","State":"CA","Zip":"92627"},{"Location":"CALIFORNIA PORSCHES","Address":"1638 Babcock St A","City":"Costa Mesa","State":"CA","Zip":"92627"},{"Location":"CARMART","Address":"671 W 17th St 1","City":"Costa Mesa","State":"CA","Zip":"92627"},{"Location":"CASA CAPRI","Address":"271 16th Pl","City":"Costa Mesa","State":"CA","Zip":"92627"},{"Location":"CATALINA FISH KITCHEN","Address":"670 W 17th St G8","City":"Costa Mesa","State":"CA","Zip":"92627"},{"Location":"CAVEMANITY INC1","Address":"1835 Newport Blvd D150","City":"Costa Mesa","State":"CA","Zip":"92627"},{"Location":"CDM GROOMING LLC","Address":"1673 Irvine Ave F","City":"Costa Mesa","State":"CA","Zip":"92627"},{"Location":"CHIXY NATURAL","Address":"488 E 17th St B104","City":"Costa Mesa","State":"CA","Zip":"92627"},{"Location":"CHRISTOPHER BALL COMPANY","Address":"1650 Babcock St","City":"Costa Mesa","State":"CA","Zip":"92627"},{"Location":"CM-WING STOP","Address":"1781 Newport Blvd","City":"Costa Mesa","State":"CA","Zip":"92627"},{"Location":"COAST JEWELRY","Address":"1836 Newport Blvd","City":"Costa Mesa","State":"CA","Zip":"92627"},{"Location":"COLLEGE HOSPITAL COSTA MESA","Address":"301 Victoria St","City":"Costa Mesa","State":"CA","Zip":"92627"},{"Location":"COOL SOLUTION INC","Address":"1958 Placentia Ave F","City":"Costa Mesa","State":"CA","Zip":"92627"},{"Location":"COSTA BRAVA RESTAURANT","Address":"727 1%2F2 W 19th St","City":"Costa Mesa","State":"CA","Zip":"92627"},{"Location":"COSTA MESA 55 TAVERN &","Address":"1875 Newport Blvd 111","City":"Costa Mesa","State":"CA","Zip":"92627"},{"Location":"COSTA MESA ALANOCLUB","Address":"2040 Placentia Ave","City":"Costa Mesa","State":"CA","Zip":"92627"},{"Location":"COSTA MESA ANIMAL HOSPITAL","Address":"480 E 17th St","City":"Costa Mesa","State":"CA","Zip":"92627"},{"Location":"COSTA MESA TATTOO","Address":"788 W 19th St","City":"Costa Mesa","State":"CA","Zip":"92627"},{"Location":"COSTELLO","Address":"1719 Monrovia Ave C","City":"Costa Mesa","State":"CA","Zip":"92627"},{"Location":"CRESCENT HEALTH CARE","Address":"1640 Newport Blvd 435","City":"Costa Mesa","State":"CA","Zip":"92627"},{"Location":"CUCINA ROMAN","Address":"1773 Newport Blvd","City":"Costa Mesa","State":"CA","Zip":"92627"},{"Location":"DAINESE USA INC","Address":"1645 Superior Ave","City":"Costa Mesa","State":"CA","Zip":"92627"},{"Location":"DARBARI PERSIAN GRILL","Address":"1866 Newport Blvd","City":"Costa Mesa","State":"CA","Zip":"92627"},{"Location":"DG BBQ SHACK LLC","Address":"1676 Tustin Ave","City":"Costa Mesa","State":"CA","Zip":"92627"},{"Location":"DICK CHURCES RESTAURANT","Address":"2698 Newport Blvd","City":"Costa Mesa","State":"CA","Zip":"92627"},{"Location":"EDWARD JONES","Address":"485 E 17th St 100","City":"Costa Mesa","State":"CA","Zip":"92627"},{"Location":"EL MATADOR","Address":"1768 Newport Blvd","City":"Costa Mesa","State":"CA","Zip":"92627"},{"Location":"ESTANCIA HIGH SCHOOL","Address":"2323 Placentia Ave","City":"Costa Mesa","State":"CA","Zip":"92627"},{"Location":"FAIRVIEW CLEANERS","Address":"2263 Fairview Rd M","City":"Costa Mesa","State":"CA","Zip":"92627"},{"Location":"FAMILIES UNITED NOW FUND LLC","Address":"2515 Elden Ave","City":"Costa Mesa","State":"CA","Zip":"92627"},{"Location":"FAMILIES UNITED NOW FUND LLC E","Address":"2515 Elden Ave","City":"Costa Mesa","State":"CA","Zip":"92627"},{"Location":"FILOMENAS","Address":"2400 Newport Blvd A4","City":"Costa Mesa","State":"CA","Zip":"92627"},{"Location":"FIRESTONE #650153","Address":"475 E 17th St","City":"Costa Mesa","State":"CA","Zip":"92627"},{"Location":"FIRST STEP RECOVERY PLUM","Address":"681 Plumer St","City":"Costa Mesa","State":"CA","Zip":"92627"},{"Location":"FLETCHER JONES MOTOR COMPANY","Address":"750 W 17th St A","City":"Costa Mesa","State":"CA","Zip":"92627"},{"Location":"FORMA","Address":"230 E 17th St 202","City":"Costa Mesa","State":"CA","Zip":"92627"},{"Location":"FRANKS PHILLADELPHIA","Address":"2244 Fairview Rd","City":"Costa Mesa","State":"CA","Zip":"92627"},{"Location":"FUSION SUSHI","Address":"427 E 17th St","City":"Costa Mesa","State":"CA","Zip":"92627"},{"Location":"GAMES PLUS","Address":"518 W 19th St","City":"Costa Mesa","State":"CA","Zip":"92627"},{"Location":"GARDUNOS CUISINE","Address":"298 E 17th St","City":"Costa Mesa","State":"CA","Zip":"92627"},{"Location":"GENERAL SEALANTS","Address":"760 W 16th St K","City":"Costa Mesa","State":"CA","Zip":"92627"},{"Location":"GLOBAL STICKY NETWORK 1","Address":"1954 Placentia Ave 108","City":"Costa Mesa","State":"CA","Zip":"92627"},{"Location":"GLOBE DELI","Address":"1928 Harbor Blvd","City":"Costa Mesa","State":"CA","Zip":"92627"},{"Location":"GOAT HILL TAVERN","Address":"1830 Newport Blvd","City":"Costa Mesa","State":"CA","Zip":"92627"},{"Location":"GOLDEN TRUFFLE","Address":"1767 Newport Blvd","City":"Costa Mesa","State":"CA","Zip":"92627"},{"Location":"GREAT MEX","Address":"2360 Newport Blvd A","City":"Costa Mesa","State":"CA","Zip":"92627"},{"Location":"GREEK TOWN GRILL","Address":"279 E 17th St","City":"Costa Mesa","State":"CA","Zip":"92627"},{"Location":"H2O SUSHI & IZAKAYA","Address":"1870 Harbor Blvd 100","City":"Costa Mesa","State":"CA","Zip":"92627"},{"Location":"HAMILTON HOUSE","Address":"2025 Charle St","City":"Costa Mesa","State":"CA","Zip":"92627"},{"Location":"HARBOR VIEW DEVELOPMENT","Address":"711 W 17th St G6","City":"Costa Mesa","State":"CA","Zip":"92627"},{"Location":"HARTMAN FIBERGLASS","Address":"741 Ohms Way","City":"Costa Mesa","State":"CA","Zip":"92627"},{"Location":"HAWLEYWOODS BARBERSHOP","Address":"1806 Newport Blvd","City":"Costa Mesa","State":"CA","Zip":"92627"},{"Location":"HEATHER PULLIS","Address":"488 E 17th St A104","City":"Costa Mesa","State":"CA","Zip":"92627"},{"Location":"HERITAGE COACH WORKS","Address":"1760 Monrovia Ave B1","City":"Costa Mesa","State":"CA","Zip":"92627"},{"Location":"HOT HEADZ","Address":"1652 Newport Blvd","City":"Costa Mesa","State":"CA","Zip":"92627"},{"Location":"HURLEY INTL","Address":"1945 Placentia Ave C","City":"Costa Mesa","State":"CA","Zip":"92627"},{"Location":"IL DOLCE","Address":"1902 Harbor Blvd","City":"Costa Mesa","State":"CA","Zip":"92627"},{"Location":"J AND R MOTOR SPORTS","Address":"760 W 16th St E","City":"Costa Mesa","State":"CA","Zip":"92627"},{"Location":"JEEPSTER AUTO SALES","Address":"2100 Harbor Blvd","City":"Costa Mesa","State":"CA","Zip":"92627"},{"Location":"JUMPING JACK SHOES","Address":"686 W 19th St","City":"Costa Mesa","State":"CA","Zip":"92627"},{"Location":"KETCHEM AND TACKLE","Address":"103 E 17th St 2","City":"Costa Mesa","State":"CA","Zip":"92627"},{"Location":"KH INDUSTRIES","Address":"174 Costa Mesa St A","City":"Costa Mesa","State":"CA","Zip":"92627"},{"Location":"KURA SUSHI","Address":"212 E 17th St","City":"Costa Mesa","State":"CA","Zip":"92627"},{"Location":"LA BOXING","Address":"103 E 17th St 1","City":"Costa Mesa","State":"CA","Zip":"92627"},{"Location":"LA COCINA DE ISABEL","Address":"841 W 19th St Suite","City":"Costa Mesa","State":"CA","Zip":"92627"},{"Location":"LA VIDA CANTINA","Address":"1870 Harbor Blvd","City":"Costa Mesa","State":"CA","Zip":"92627"},{"Location":"LILY HOME & FOUND OBJECT","Address":"427 E 17th St B","City":"Costa Mesa","State":"CA","Zip":"92627"},{"Location":"M H HOWARTH & ASSOCIATES","Address":"918 Sunset Dr","City":"Costa Mesa","State":"CA","Zip":"92627"},{"Location":"MADELEINE","Address":"103 Santa Isabel Ave","City":"Costa Mesa","State":"CA","Zip":"92627"},{"Location":"MADISON NEWPORT","Address":"2345 Newport Blvd","City":"Costa Mesa","State":"CA","Zip":"92627"},{"Location":"MARINERS FUND","Address":"436 E 17th St","City":"Costa Mesa","State":"CA","Zip":"92627"},{"Location":"MARKO FOAM","Address":"1640 Pomona Ave","City":"Costa Mesa","State":"CA","Zip":"92627"},{"Location":"MI CASA RESTAURANT","Address":"296 E 17th St","City":"Costa Mesa","State":"CA","Zip":"92627"},{"Location":"MIMIS NAIL AND SPA","Address":"218 E 17th St","City":"Costa Mesa","State":"CA","Zip":"92627"},{"Location":"MITRA TALEBI","Address":"1733 Monrovia Ave T","City":"Costa Mesa","State":"CA","Zip":"92627"},{"Location":"MODERN NAILS","Address":"1673 Irvine Ave J","City":"Costa Mesa","State":"CA","Zip":"92627"},{"Location":"MORNINGSIDE RECOVERY LLC","Address":"1769 Anaheim Ave A","City":"Costa Mesa","State":"CA","Zip":"92627"},{"Location":"MORNINGSIDE RECOVERY LLC 2","Address":"1769 Anaheim Ave B","City":"Costa Mesa","State":"CA","Zip":"92627"},{"Location":"NAPA VALLEY PIZZA & PASTA","Address":"2278 Newport Blvd","City":"Costa Mesa","State":"CA","Zip":"92627"},{"Location":"NATIONAL THERAPEUTIC SERVICES","Address":"1040 W 17th St","City":"Costa Mesa","State":"CA","Zip":"92627"},{"Location":"NEW IMAGE PROMOTIONS","Address":"1601 Monrovia Ave","City":"Costa Mesa","State":"CA","Zip":"92627"},{"Location":"NEWPORT CHILDREN'S MEDICAL GRP","Address":"1640 Newport Blvd 210","City":"Costa Mesa","State":"CA","Zip":"92627"},{"Location":"NEWPORT COLLISION","Address":"720 W 17th St","City":"Costa Mesa","State":"CA","Zip":"92627"},{"Location":"NEWPORT RIB CO.","Address":"2196 Harbor Blvd","City":"Costa Mesa","State":"CA","Zip":"92627"},{"Location":"NIKE INC","Address":"1945 Placentia Ave D","City":"Costa Mesa","State":"CA","Zip":"92627"},{"Location":"NO EXCUSE FITNESS","Address":"474 E 17th St 104","City":"Costa Mesa","State":"CA","Zip":"92627"},{"Location":"NORMONDY METAL REFINISHERS","Address":"1603 Superior Ave","City":"Costa Mesa","State":"CA","Zip":"92627"},{"Location":"ORANGE COUNTY ARCHERY","Address":"2112 Harbor Blvd","City":"Costa Mesa","State":"CA","Zip":"92627"},{"Location":"ORANGE COUNTY CIGAR","Address":"2470 Newport Blvd","City":"Costa Mesa","State":"CA","Zip":"92627"},{"Location":"ORANGE COUNTY MATTRESS","Address":"1600 Newport Blvd","City":"Costa Mesa","State":"CA","Zip":"92627"},{"Location":"OUTBACK STEAKHOUSE #0570","Address":"1670 Newport Blvd","City":"Costa Mesa","State":"CA","Zip":"92627"},{"Location":"PACIFIC BREAST CARE","Address":"1640 Newport Blvd 200","City":"Costa Mesa","State":"CA","Zip":"92627"},{"Location":"PACIFIC MEDICAL PLAZA","Address":"1640 Newport Blvd 250","City":"Costa Mesa","State":"CA","Zip":"92627"},{"Location":"PACIFIC PARK II APARTMENTS","Address":"665 Park Dr","City":"Costa Mesa","State":"CA","Zip":"92627"},{"Location":"PITFIRE ARTISIAN PIZZA","Address":"353 E 17th St","City":"Costa Mesa","State":"CA","Zip":"92627"},{"Location":"PP&C","Address":"1858 Newport Blvd","City":"Costa Mesa","State":"CA","Zip":"92627"},{"Location":"PRECISION FITNESS","Address":"179 E 17th St E","City":"Costa Mesa","State":"CA","Zip":"92627"},{"Location":"PSA FUND LLC","Address":"330 E 17th St","City":"Costa Mesa","State":"CA","Zip":"92627"},{"Location":"R D CREATIONS INC","Address":"729 W 16th St A1","City":"Costa Mesa","State":"CA","Zip":"92627"},{"Location":"RAW RECOVERY","Address":"327 Cabrillo St D","City":"Costa Mesa","State":"CA","Zip":"92627"},{"Location":"RAW RECOVERY LLC","Address":"321 Cabrillo St","City":"Costa Mesa","State":"CA","Zip":"92627"},{"Location":"REFLECTIONS RECOVERY LL2","Address":"337 16th Pl","City":"Costa Mesa","State":"CA","Zip":"92627"},{"Location":"REFLECTIONS RECOVERY LLC","Address":"335 16th Pl","City":"Costa Mesa","State":"CA","Zip":"92627"},{"Location":"REGAL  ESTATES","Address":"1845 Monrovia Ave 54","City":"Costa Mesa","State":"CA","Zip":"92627"},{"Location":"REGAL ESTATES","Address":"1845 Monrovia Ave","City":"Costa Mesa","State":"CA","Zip":"92627"},{"Location":"RITZ NAILS","Address":"275 E 17th St","City":"Costa Mesa","State":"CA","Zip":"92627"},{"Location":"SABER FITNESS COSTA MESA LLC","Address":"2200 Harbor Blvd H","City":"Costa Mesa","State":"CA","Zip":"92627"},{"Location":"SADDLE RANCH CM","Address":"1870 Harbor Blvd A210","City":"Costa Mesa","State":"CA","Zip":"92627"},{"Location":"SALON LA","Address":"2400 Newport Blvd A2","City":"Costa Mesa","State":"CA","Zip":"92627"},{"Location":"SANTA MONICA SEA FOOD","Address":"154 E 17th St","City":"Costa Mesa","State":"CA","Zip":"92627"},{"Location":"SEPULVEDA BUILDERS","Address":"790 Newton Way","City":"Costa Mesa","State":"CA","Zip":"92627"},{"Location":"SGB HOLDINGS LLC","Address":"485 E 17th St 500","City":"Costa Mesa","State":"CA","Zip":"92627"},{"Location":"SIGNATURE GLASS TINTING","Address":"670 W 17th St G3","City":"Costa Mesa","State":"CA","Zip":"92627"},{"Location":"SILVERADO SENIOR LIVING","Address":"350 W Bay St","City":"Costa Mesa","State":"CA","Zip":"92627"},{"Location":"SKOSH MONAHAN'S","Address":"2000 Newport Blvd","City":"Costa Mesa","State":"CA","Zip":"92627"},{"Location":"SOCIAL CM","Address":"512 W 19th St","City":"Costa Mesa","State":"CA","Zip":"92627"},{"Location":"SOUHTERN ELECTRIC","Address":"817 W 17th St 18","City":"Costa Mesa","State":"CA","Zip":"92627"},{"Location":"SOUTH COAST PIZZA PALOR","Address":"410 E 17th St","City":"Costa Mesa","State":"CA","Zip":"92627"},{"Location":"SOUTH COAST TOYOTA","Address":"1966 Harbor Blvd","City":"Costa Mesa","State":"CA","Zip":"92627"},{"Location":"SPORT CLIPS CA518","Address":"179 E 17th St D","City":"Costa Mesa","State":"CA","Zip":"92627"},{"Location":"SUBWAY","Address":"2263 Fairview Rd C","City":"Costa Mesa","State":"CA","Zip":"92627"},{"Location":"SUITE SWEAT","Address":"488 E 17th St A103","City":"Costa Mesa","State":"CA","Zip":"92627"},{"Location":"SUPER POLLO","Address":"1731 Superior Ave A","City":"Costa Mesa","State":"CA","Zip":"92627"},{"Location":"SUPERCUTS #9126","Address":"270 E 17th St 3b","City":"Costa Mesa","State":"CA","Zip":"92627"},{"Location":"SURE HAVEN","Address":"394 Hamilton St C","City":"Costa Mesa","State":"CA","Zip":"92627"},{"Location":"SURE HAVEN","Address":"2068 Wallace Ave A","City":"Costa Mesa","State":"CA","Zip":"92627"},{"Location":"SURE HAVEN 18","Address":"271 Walnut St","City":"Costa Mesa","State":"CA","Zip":"92627"},{"Location":"SURE HAVEN 382","Address":"382 Hamilton St","City":"Costa Mesa","State":"CA","Zip":"92627"},{"Location":"SURE HAVEN 396 A","Address":"396 Hamilton St A","City":"Costa Mesa","State":"CA","Zip":"92627"},{"Location":"SURE HAVEN 396B","Address":"396 Hamilton St B","City":"Costa Mesa","State":"CA","Zip":"92627"},{"Location":"SURE HAVEN 396B","Address":"394 Hamilton St B","City":"Costa Mesa","State":"CA","Zip":"92627"},{"Location":"SURE HAVEN 396C","Address":"396 Hamilton St C","City":"Costa Mesa","State":"CA","Zip":"92627"},{"Location":"SURE HAVEN B","Address":"2068 Wallace Ave B","City":"Costa Mesa","State":"CA","Zip":"92627"},{"Location":"SURE HAVEN INC 5","Address":"2190 Placentia Ave B","City":"Costa Mesa","State":"CA","Zip":"92627"},{"Location":"SURE HAVEN INC 6","Address":"697 Plumer St","City":"Costa Mesa","State":"CA","Zip":"92627"},{"Location":"SUSHI SHO JAPANESE RESTA","Address":"2263 Fairview Rd","City":"Costa Mesa","State":"CA","Zip":"92627"},{"Location":"TABU SHABU","Address":"333 E 17th St 19","City":"Costa Mesa","State":"CA","Zip":"92627"},{"Location":"TACO MESA COSTA MESA","Address":"647 W 19th St","City":"Costa Mesa","State":"CA","Zip":"92627"},{"Location":"TAG UR IT","Address":"1789 Whittier Ave","City":"Costa Mesa","State":"CA","Zip":"92627"},{"Location":"TAYLOR","Address":"735 Farad St","City":"Costa Mesa","State":"CA","Zip":"92627"},{"Location":"TEK SALON AND SPA","Address":"230 E 17th St 120","City":"Costa Mesa","State":"CA","Zip":"92627"},{"Location":"TERN INN","Address":"2154 Newport Blvd","City":"Costa Mesa","State":"CA","Zip":"92627"},{"Location":"THE ANCHOR","Address":"2675 Irvine Ave D","City":"Costa Mesa","State":"CA","Zip":"92627"},{"Location":"THE BLACK KNIGHT","Address":"1870 Harbor Blvd A211","City":"Costa Mesa","State":"CA","Zip":"92627"},{"Location":"THE BOULEVARD","Address":"1824 Newport Blvd","City":"Costa Mesa","State":"CA","Zip":"92627"},{"Location":"THE GRANT BOYS","Address":"1750 Newport Blvd","City":"Costa Mesa","State":"CA","Zip":"92627"},{"Location":"THE HARP INN","Address":"130 E 17th St","City":"Costa Mesa","State":"CA","Zip":"92627"},{"Location":"THE HUB","Address":"1749 Newport Blvd","City":"Costa Mesa","State":"CA","Zip":"92627"},{"Location":"THE NUTRITION COACH","Address":"1835 Newport Blvd B121","City":"Costa Mesa","State":"CA","Zip":"92627"},{"Location":"THE TREE HOUSE","Address":"613 Plumer St","City":"Costa Mesa","State":"CA","Zip":"92627"},{"Location":"THE TREE HOUSE 3","Address":"609 Plumer St","City":"Costa Mesa","State":"CA","Zip":"92627"},{"Location":"THE TURNIP ROSE","Address":"1901 Newport Blvd","City":"Costa Mesa","State":"CA","Zip":"92627"},{"Location":"THE WAYFARER","Address":"843 W 19th St","City":"Costa Mesa","State":"CA","Zip":"92627"},{"Location":"THE WINEY GUYS","Address":"629 Terminal Way 11","City":"Costa Mesa","State":"CA","Zip":"92627"},{"Location":"TIKI BAR","Address":"1700 Placentia Ave","City":"Costa Mesa","State":"CA","Zip":"92627"},{"Location":"TODAY BARBER","Address":"2075 Newport Blvd","City":"Costa Mesa","State":"CA","Zip":"92627"},{"Location":"TONYS PLACE","Address":"2052 Newport Blvd","City":"Costa Mesa","State":"CA","Zip":"92627"},{"Location":"TREE HOUSE 2","Address":"613 Plumer St","City":"Costa Mesa","State":"CA","Zip":"92627"},{"Location":"TURNERS PUB 33","Address":"1562 Newport Blvd","City":"Costa Mesa","State":"CA","Zip":"92627"},{"Location":"UCI","Address":"1640 Newport Blvd","City":"Costa Mesa","State":"CA","Zip":"92627"},{"Location":"UCI NEWPORT CANCER CTR","Address":"1640 Newport Blvd 200","City":"Costa Mesa","State":"CA","Zip":"92627"},{"Location":"UCI WOMENS HEALTH CARE","Address":"1640 Newport Blvd 340","City":"Costa Mesa","State":"CA","Zip":"92627"},{"Location":"VAPING INDUSTRIES LLC","Address":"333 E 17th St 21","City":"Costa Mesa","State":"CA","Zip":"92627"},{"Location":"VILLA ROSA","Address":"2619 Orange Ave","City":"Costa Mesa","State":"CA","Zip":"92627"},{"Location":"VIOLENT GENTLEMEN","Address":"1032 W 18th St B1","City":"Costa Mesa","State":"CA","Zip":"92627"},{"Location":"VISTA BARBERS","Address":"809 W 19th St","City":"Costa Mesa","State":"CA","Zip":"92627"},{"Location":"VIVANTE ON THE COAST","Address":"1640 Monrovia Ave","City":"Costa Mesa","State":"CA","Zip":"92627"},{"Location":"Y & K COFFEE INC","Address":"615 W 19th St","City":"Costa Mesa","State":"CA","Zip":"92627"},{"Location":"YARD HOUSE #8302","Address":"1875 A-1219 Newport Blvd","City":"Costa Mesa","State":"CA","Zip":"92627"},{"Location":"ZIMMERMAN INC","Address":"333 E 17th St 4","City":"Costa Mesa","State":"CA","Zip":"92627"}]