[{"Location":"24 HOUR FITNESS #121","Address":"1600 Adams Ave","City":"Costa Mesa","State":"CA","Zip":"92626"},{"Location":"24 HOUR FITNESS #78","Address":"589 Anton Blvd","City":"Costa Mesa","State":"CA","Zip":"92626"},{"Location":"27 SEVENTY FIVE CLUBHOUSE","Address":"1555 Mesa Verde Dr E","City":"Costa Mesa","State":"CA","Zip":"92626"},{"Location":"ABSOLUTLEY FABULOUS EVENTS","Address":"2940 College Ave B","City":"Costa Mesa","State":"CA","Zip":"92626"},{"Location":"ACAPULCO 0016","Address":"1262 Bristol St","City":"Costa Mesa","State":"CA","Zip":"92626"},{"Location":"ACAPULCO 0055","Address":"1565 Adams Ave","City":"Costa Mesa","State":"CA","Zip":"92626"},{"Location":"ADVANCED DENTAL CARE INC","Address":"3033 Bristol St Aa","City":"Costa Mesa","State":"CA","Zip":"92626"},{"Location":"ALBERT SUKUT%2CDDS","Address":"2900 Bristol St C","City":"Costa Mesa","State":"CA","Zip":"92626"},{"Location":"AMERICAS CUP","Address":"2300 Harbor Blvd N6","City":"Costa Mesa","State":"CA","Zip":"92626"},{"Location":"AMX WEST","Address":"3187 Red Hill Ave","City":"Costa Mesa","State":"CA","Zip":"92626"},{"Location":"ANQI RESTURANT","Address":"3333 Bristol St","City":"Costa Mesa","State":"CA","Zip":"92626"},{"Location":"ARCHITECTURAL CONSTRUCTION SVC","Address":"1122 Bristol St","City":"Costa Mesa","State":"CA","Zip":"92626"},{"Location":"ARNEL COMMERCIAL","Address":"949 S Coast Dr 6","City":"Costa Mesa","State":"CA","Zip":"92626"},{"Location":"ARRIBA BAJA GRILLS INC","Address":"901 S Coast Dr C160","City":"Costa Mesa","State":"CA","Zip":"92626"},{"Location":"ASPEN MARKETING SERVICES","Address":"3070 Bristol St 3","City":"Costa Mesa","State":"CA","Zip":"92626"},{"Location":"AUTO CLUB OF SO CAL","Address":"3333 Fairview Rd","City":"Costa Mesa","State":"CA","Zip":"92626"},{"Location":"AUTOMOBILE CLUB  OF SO. CALIFO","Address":"3333 Fairview Rd A210","City":"Costa Mesa","State":"CA","Zip":"92626"},{"Location":"AUTOMOBILE CLUB OF SOUTHERN CA","Address":"3333 Fairview Rd A294","City":"Costa Mesa","State":"CA","Zip":"92626"},{"Location":"BARLEY FORGE","Address":"2957 Randolph Ave B","City":"Costa Mesa","State":"CA","Zip":"92626"},{"Location":"BAY EQ","Address":"3200 Bristol St 640","City":"Costa Mesa","State":"CA","Zip":"92626"},{"Location":"BECKER TIRE 2","Address":"375 Bristol St","City":"Costa Mesa","State":"CA","Zip":"92626"},{"Location":"BLAKE BRETT INDUSTRIES LLC","Address":"3036 Enterprise St","City":"Costa Mesa","State":"CA","Zip":"92626"},{"Location":"BLOOMINGDALES SOUTH COAST","Address":"3333 Bristol St","City":"Costa Mesa","State":"CA","Zip":"92626"},{"Location":"BRAND ID LLC","Address":"3185 Airway Ave A","City":"Costa Mesa","State":"CA","Zip":"92626"},{"Location":"BRISTOL PALMS","Address":"3050 Bristol St","City":"Costa Mesa","State":"CA","Zip":"92626"},{"Location":"BRISTOL RESTAURANT & BAR","Address":"688 Baker St 10","City":"Costa Mesa","State":"CA","Zip":"92626"},{"Location":"BROOKFEILD","Address":"3080 Bristol St 200","City":"Costa Mesa","State":"CA","Zip":"92626"},{"Location":"BROOKFIELD HOMES","Address":"3090 Bristol St 2","City":"Costa Mesa","State":"CA","Zip":"92626"},{"Location":"BROOKHOLLOW MANAGEMENT COMPANY","Address":"151 Kalmus Dr F1f","City":"Costa Mesa","State":"CA","Zip":"92626"},{"Location":"CAFE INTERNATIONAL","Address":"3198 H2a Airport Loop Dr","City":"Costa Mesa","State":"CA","Zip":"92626"},{"Location":"CAJUN GRILLED FISH","Address":"1534 Adams Ave D","City":"Costa Mesa","State":"CA","Zip":"92626"},{"Location":"CALIFORNIA BEEMERS","Address":"2845 Harbor Blvd","City":"Costa Mesa","State":"CA","Zip":"92626"},{"Location":"CARDFLEX INC","Address":"2900 Bristol St F","City":"Costa Mesa","State":"CA","Zip":"92626"},{"Location":"CARMAX #7297 COSTA MESA","Address":"3200 Harbor Blvd","City":"Costa Mesa","State":"CA","Zip":"92626"},{"Location":"CARSMETICS","Address":"2861 Harbor Blvd","City":"Costa Mesa","State":"CA","Zip":"92626"},{"Location":"CASANOVA PENDRILL","Address":"275 Mccormick Ave A100","City":"Costa Mesa","State":"CA","Zip":"92626"},{"Location":"CASSO ENTERPRISE LLC","Address":"891 Baker St A18","City":"Costa Mesa","State":"CA","Zip":"92626"},{"Location":"CCT SOLUTIONS","Address":"3505 Cadillac Ave","City":"Costa Mesa","State":"CA","Zip":"92626"},{"Location":"CG MARKETING GROUP","Address":"3050 Pullman St","City":"Costa Mesa","State":"CA","Zip":"92626"},{"Location":"CHARLIE PALMERS","Address":"3333 Bristol St","City":"Costa Mesa","State":"CA","Zip":"92626"},{"Location":"CHAYA JAPANESE GRILL","Address":"3030 Bristol St","City":"Costa Mesa","State":"CA","Zip":"92626"},{"Location":"CLAIM JUMPER #33","Address":"3333 Bristol St 2078","City":"Costa Mesa","State":"CA","Zip":"92626"},{"Location":"CLARKE MARINE INSURANCE AGENCY","Address":"245 Fischer Ave D8","City":"Costa Mesa","State":"CA","Zip":"92626"},{"Location":"COAST AUTOMOTIVE","Address":"2951 Grace Ln A","City":"Costa Mesa","State":"CA","Zip":"92626"},{"Location":"COAST AUTOMOTIVE 2","Address":"2971 Grace Ln A","City":"Costa Mesa","State":"CA","Zip":"92626"},{"Location":"CONPANION MANAGEMENT","Address":"3200 Park Center Dr 1250","City":"Costa Mesa","State":"CA","Zip":"92626"},{"Location":"CORNER OFFICE","Address":"580 Anton Blvd 201","City":"Costa Mesa","State":"CA","Zip":"92626"},{"Location":"COSTA MESA","Address":"555 Anton Blvd 800","City":"Costa Mesa","State":"CA","Zip":"92626"},{"Location":"COSTA MESA MARRIOTT","Address":"500 Anton Blvd","City":"Costa Mesa","State":"CA","Zip":"92626"},{"Location":"COVIDIEN","Address":"1620 Sunflower Ave","City":"Costa Mesa","State":"CA","Zip":"92626"},{"Location":"CREATIVE NAIL & SPA","Address":"3033 Bristol St 1","City":"Costa Mesa","State":"CA","Zip":"92626"},{"Location":"CREATIVE RESOURCE TECHNOLOGY G","Address":"151 Kalmus Dr L4","City":"Costa Mesa","State":"CA","Zip":"92626"},{"Location":"CREVIER CLASSIC CARS","Address":"365 Clinton St B","City":"Costa Mesa","State":"CA","Zip":"92626"},{"Location":"CRISP   ENTERPRISES","Address":"3180 Pullman St","City":"Costa Mesa","State":"CA","Zip":"92626"},{"Location":"CUESTA CONSTRUCTION CO","Address":"3195 Airport Loop Dr A","City":"Costa Mesa","State":"CA","Zip":"92626"},{"Location":"CYCLE TECH INC","Address":"1215 Baker St A","City":"Costa Mesa","State":"CA","Zip":"92626"},{"Location":"DAPHNES GREEK","Address":"3030 Harbor Blvd H1","City":"Costa Mesa","State":"CA","Zip":"92626"},{"Location":"DAVID AUGUST INC","Address":"3140 Airway Ave","City":"Costa Mesa","State":"CA","Zip":"92626"},{"Location":"DAVITA #3614 COSTA MESA","Address":"1590 Scenic Ave","City":"Costa Mesa","State":"CA","Zip":"92626"},{"Location":"DELIVERY AGENT","Address":"3186 Pullman St","City":"Costa Mesa","State":"CA","Zip":"92626"},{"Location":"DELOITTE & TOUCHE","Address":"695 Town Center Dr Fl4","City":"Costa Mesa","State":"CA","Zip":"92626"},{"Location":"DESAI LAW FIRM","Address":"3200 Bristol St 650","City":"Costa Mesa","State":"CA","Zip":"92626"},{"Location":"DONAHUE SCHRIBER","Address":"200 Baker St E 100","City":"Costa Mesa","State":"CA","Zip":"92626"},{"Location":"DONAHUE SCHRIBER GYM","Address":"200 Baker St E 100","City":"Costa Mesa","State":"CA","Zip":"92626"},{"Location":"DOUG WETTON PROPERTIES","Address":"151 Kalmus Dr M4","City":"Costa Mesa","State":"CA","Zip":"92626"},{"Location":"DRAGADOS USA","Address":"3200 Park Center Dr 600","City":"Costa Mesa","State":"CA","Zip":"92626"},{"Location":"DURTY NELLYS","Address":"2915 Red Hill Ave","City":"Costa Mesa","State":"CA","Zip":"92626"},{"Location":"E TRADE FINANCIAL","Address":"3200 Bristol St","City":"Costa Mesa","State":"CA","Zip":"92626"},{"Location":"EASTSIDE KITCHEN LLC","Address":"350 Clinton St A","City":"Costa Mesa","State":"CA","Zip":"92626"},{"Location":"ECCO RESTAURANT","Address":"2937 Bristol St A103","City":"Costa Mesa","State":"CA","Zip":"92626"},{"Location":"ELESCO","Address":"170 Mccormick Ave","City":"Costa Mesa","State":"CA","Zip":"92626"},{"Location":"EMILIO FRANCISCO","Address":"250 Fischer Ave","City":"Costa Mesa","State":"CA","Zip":"92626"},{"Location":"EN4ORM OFFICE INTERIORS","Address":"3200 Bristol St 180","City":"Costa Mesa","State":"CA","Zip":"92626"},{"Location":"ENZO MILANO","Address":"3188 Airway Ave J","City":"Costa Mesa","State":"CA","Zip":"92626"},{"Location":"EPD SCIENTIFIC","Address":"3303 Harbor Blvd B4","City":"Costa Mesa","State":"CA","Zip":"92626"},{"Location":"EURO HAIR INSTITUTE","Address":"3140 Bear St","City":"Costa Mesa","State":"CA","Zip":"92626"},{"Location":"EURO WEST ROVERS INC","Address":"375 Bristol St 70","City":"Costa Mesa","State":"CA","Zip":"92626"},{"Location":"FABINAN WEALTH","Address":"3070 Bristol St 6","City":"Costa Mesa","State":"CA","Zip":"92626"},{"Location":"FARO INTERNATIONAL","Address":"151 Kalmus Dr M6","City":"Costa Mesa","State":"CA","Zip":"92626"},{"Location":"FED EX1","Address":"1650 Sunflower Ave","City":"Costa Mesa","State":"CA","Zip":"92626"},{"Location":"FERRARI OF NEW PORT BEACH 2","Address":"2980 Red Hill Ave","City":"Costa Mesa","State":"CA","Zip":"92626"},{"Location":"FIRE STATION THIRTY THREE","Address":"374 Paularino Ave","City":"Costa Mesa","State":"CA","Zip":"92626"},{"Location":"FIRST CHOICE","Address":"959 S Coast Dr 490","City":"Costa Mesa","State":"CA","Zip":"92626"},{"Location":"FLAGSTAR BANK","Address":"949 S Coast Dr 100","City":"Costa Mesa","State":"CA","Zip":"92626"},{"Location":"FMC 62130000","Address":"1175 Baker St B","City":"Costa Mesa","State":"CA","Zip":"92626"},{"Location":"FOOD SALES WEST","Address":"235 Baker St E","City":"Costa Mesa","State":"CA","Zip":"92626"},{"Location":"FOREVER NAILS & SPA","Address":"1514 Baker St","City":"Costa Mesa","State":"CA","Zip":"92626"},{"Location":"FRANK BERRY DESIGNS","Address":"3190 Airport Loop Dr","City":"Costa Mesa","State":"CA","Zip":"92626"},{"Location":"FRESCA'S COSTA MESA INC","Address":"20060 Santa Ana Ave","City":"Costa Mesa","State":"CA","Zip":"92626"},{"Location":"FROME INVESTMENTS","Address":"151 Kalmus Dr F2","City":"Costa Mesa","State":"CA","Zip":"92626"},{"Location":"FRUITTHIES","Address":"545 Anton Blvd 102","City":"Costa Mesa","State":"CA","Zip":"92626"},{"Location":"GAMBINO AND WASSON","Address":"151 Kalmus Dr D104","City":"Costa Mesa","State":"CA","Zip":"92626"},{"Location":"GAP MANAGERS INC","Address":"3151 Airway Ave P2","City":"Costa Mesa","State":"CA","Zip":"92626"},{"Location":"GARFS SPORTS LOUNGE","Address":"3046 Bristol St","City":"Costa Mesa","State":"CA","Zip":"92626"},{"Location":"GBI TILE AND STONE","Address":"3120 Airway Ave","City":"Costa Mesa","State":"CA","Zip":"92626"},{"Location":"GE RETAIL FINANCE COSTA MESA","Address":"2995 Red Hill Ave","City":"Costa Mesa","State":"CA","Zip":"92626"},{"Location":"GENSPRING FAMILY OFFICES LLC","Address":"151 Kalmus Dr J1","City":"Costa Mesa","State":"CA","Zip":"92626"},{"Location":"GOODYEAR 8651","Address":"3005 Harbor Blvd","City":"Costa Mesa","State":"CA","Zip":"92626"},{"Location":"GREAT MEX GRILL","Address":"1525 Mesa Verde Dr E 117","City":"Costa Mesa","State":"CA","Zip":"92626"},{"Location":"HANK LLOYDS","Address":"880 Junipero Dr","City":"Costa Mesa","State":"CA","Zip":"92626"},{"Location":"HANKS MEXICAN FOOD","Address":"1087 Baker St","City":"Costa Mesa","State":"CA","Zip":"92626"},{"Location":"HARBOUR MESSA DENTAL","Address":"1525 Mesa Verde Dr E 105","City":"Costa Mesa","State":"CA","Zip":"92626"},{"Location":"HARRISON ACCOUNTANTS","Address":"2850 Mesa Verde Dr E 101","City":"Costa Mesa","State":"CA","Zip":"92626"},{"Location":"HASHIGO TOFU","Address":"3033 Bristol St M","City":"Costa Mesa","State":"CA","Zip":"92626"},{"Location":"HAUS OF PIZZA","Address":"1500 Adams Ave 108","City":"Costa Mesa","State":"CA","Zip":"92626"},{"Location":"HEALTHCARE SERVICES","Address":"151 Kalmus Dr K1","City":"Costa Mesa","State":"CA","Zip":"92626"},{"Location":"HEAT TECHNOLOGIES PRODUCTS","Address":"2950 Airway Ave C3","City":"Costa Mesa","State":"CA","Zip":"92626"},{"Location":"HENRY SEGERSTROM","Address":"3545 Harbor Gtwy S","City":"Costa Mesa","State":"CA","Zip":"92626"},{"Location":"HOLIDAY INN COSTA MESA","Address":"3131 Bristol St","City":"Costa Mesa","State":"CA","Zip":"92626"},{"Location":"HOOTERS COSTA MESA CMW107","Address":"1507 S Coast Dr","City":"Costa Mesa","State":"CA","Zip":"92626"},{"Location":"HOTTIES PIZZA","Address":"440 Fair Dr B","City":"Costa Mesa","State":"CA","Zip":"92626"},{"Location":"HOWARD BUILDING CORPORATION","Address":"3184 Airway Ave K","City":"Costa Mesa","State":"CA","Zip":"92626"},{"Location":"IMPACT LLC","Address":"130 Mccormick Ave 104","City":"Costa Mesa","State":"CA","Zip":"92626"},{"Location":"INCA GRILL","Address":"260 Bristol St","City":"Costa Mesa","State":"CA","Zip":"92626"},{"Location":"INNOVATE ENTERPRISE","Address":"3187 Airway Ave C","City":"Costa Mesa","State":"CA","Zip":"92626"},{"Location":"IRVINE CO","Address":"3200 Park Center Dr 1150","City":"Costa Mesa","State":"CA","Zip":"92626"},{"Location":"JERRY'S DOGS","Address":"1510 Adams Ave B","City":"Costa Mesa","State":"CA","Zip":"92626"},{"Location":"JERSEY MIKE SUBS 20068","Address":"2300 Harper Blvd #n2","City":"Costa Mesa","State":"CA","Zip":"92626"},{"Location":"JOHN DAHLBERG","Address":"3187 Airway Ave E","City":"Costa Mesa","State":"CA","Zip":"92626"},{"Location":"JON SWEDLUND","Address":"1240 Logan Ave A","City":"Costa Mesa","State":"CA","Zip":"92626"},{"Location":"JTW","Address":"940 S Coast Dr 190","City":"Costa Mesa","State":"CA","Zip":"92626"},{"Location":"JURY IMPACT INC","Address":"3525 Hyland Ave 240","City":"Costa Mesa","State":"CA","Zip":"92626"},{"Location":"KINGS SEAFOOD CORP OFFICE","Address":"3185 Airway Ave J","City":"Costa Mesa","State":"CA","Zip":"92626"},{"Location":"KOCE 50%2FLTB","Address":"3080 Bristol St","City":"Costa Mesa","State":"CA","Zip":"92626"},{"Location":"KS MICRO-BREWERY","Address":"901 S Coast Dr","City":"Costa Mesa","State":"CA","Zip":"92626"},{"Location":"LABPATH ADVISERS","Address":"3186 Airway Ave C","City":"Costa Mesa","State":"CA","Zip":"92626"},{"Location":"LAND HOME FINANCIAL SERVICES","Address":"3330 Harbor Blvd 3","City":"Costa Mesa","State":"CA","Zip":"92626"},{"Location":"LANGFORD DESIGNS INC","Address":"2915 Red Hill Ave B105","City":"Costa Mesa","State":"CA","Zip":"92626"},{"Location":"LAWRYS CARVERY","Address":"3333 Bristol St 2601","City":"Costa Mesa","State":"CA","Zip":"92626"},{"Location":"LDJ MANAGEMENT","Address":"151 Kalmus Dr H10","City":"Costa Mesa","State":"CA","Zip":"92626"},{"Location":"LE CAFE","Address":"3070 Bristol St 170","City":"Costa Mesa","State":"CA","Zip":"92626"},{"Location":"LEADING EDGE AVIATION","Address":"3132 Airway Ave","City":"Costa Mesa","State":"CA","Zip":"92626"},{"Location":"LYNN FREHNER","Address":"959 S Coast Dr 210","City":"Costa Mesa","State":"CA","Zip":"92626"},{"Location":"M G E UPS SYSTEMS","Address":"1660 Scenic Ave","City":"Costa Mesa","State":"CA","Zip":"92626"},{"Location":"MACY'S WEST 523","Address":"3333 Bristol St","City":"Costa Mesa","State":"CA","Zip":"92626"},{"Location":"MACY'S WEST 531","Address":"3333 Bear St","City":"Costa Mesa","State":"CA","Zip":"92626"},{"Location":"MACY'S WEST 531 BR","Address":"3333 Bear St","City":"Costa Mesa","State":"CA","Zip":"92626"},{"Location":"MAGGIANO'S #0081","Address":"3333 Bristol St","City":"Costa Mesa","State":"CA","Zip":"92626"},{"Location":"MARU SUSHI","Address":"1500 Adams Ave Ste10","City":"Costa Mesa","State":"CA","Zip":"92626"},{"Location":"MASERATTI NORTH AMERICA","Address":"2915 Red Hill Ave 2","City":"Costa Mesa","State":"CA","Zip":"92626"},{"Location":"MASTRO'S STEAKHOUSE","Address":"633 Anton Blvd","City":"Costa Mesa","State":"CA","Zip":"92626"},{"Location":"MATTSON RESOURCES","Address":"959 S Coast Dr 3","City":"Costa Mesa","State":"CA","Zip":"92626"},{"Location":"MDRX","Address":"675 Anton Blvd","City":"Costa Mesa","State":"CA","Zip":"92626"},{"Location":"MEHNER CPAS","Address":"3189 Pullman St","City":"Costa Mesa","State":"CA","Zip":"92626"},{"Location":"MESA","Address":"725 Baker St","City":"Costa Mesa","State":"CA","Zip":"92626"},{"Location":"MESA VERDE CONSULTING INC","Address":"2850 Mesa Verde Dr E 114","City":"Costa Mesa","State":"CA","Zip":"92626"},{"Location":"MESA VERDE COUNTRY CLUB","Address":"3000 Club House Rd","City":"Costa Mesa","State":"CA","Zip":"92626"},{"Location":"MICHAEL DIMEO","Address":"185 Paularino Ave C102","City":"Costa Mesa","State":"CA","Zip":"92626"},{"Location":"MICHAEL REESE ENT","Address":"350 Clinton St F","City":"Costa Mesa","State":"CA","Zip":"92626"},{"Location":"MICHAEL REESE ENT","Address":"350 Clinton St B","City":"Costa Mesa","State":"CA","Zip":"92626"},{"Location":"MICROSOFT - COSTA MESA","Address":"3333 Bristol St 1249","City":"Costa Mesa","State":"CA","Zip":"92626"},{"Location":"MISSION VEJO PATEADORES","Address":"151 Kalmus Dr F5","City":"Costa Mesa","State":"CA","Zip":"92626"},{"Location":"MN CAPITAL","Address":"949 S Coast Dr 260","City":"Costa Mesa","State":"CA","Zip":"92626"},{"Location":"MURRAY HOME THEATER","Address":"151 Kalmus Dr D230","City":"Costa Mesa","State":"CA","Zip":"92626"},{"Location":"NATIONAL APPRAISAL GUIDE","Address":"3186 Airway Ave K","City":"Costa Mesa","State":"CA","Zip":"92626"},{"Location":"NATIONAL URGENT CARE HOL","Address":"3195 Harbor Blvd 5","City":"Costa Mesa","State":"CA","Zip":"92626"},{"Location":"NAVITAS UTILITY CORP","Address":"3186 Airway Ave D","City":"Costa Mesa","State":"CA","Zip":"92626"},{"Location":"NELLO CUCINA","Address":"3333 Bear St 118","City":"Costa Mesa","State":"CA","Zip":"92626"},{"Location":"NEW VENTURE MOTORS LLC","Address":"350 Mccormick Ave","City":"Costa Mesa","State":"CA","Zip":"92626"},{"Location":"NEWPORT BAY DENTAL","Address":"270 Bristol St 106","City":"Costa Mesa","State":"CA","Zip":"92626"},{"Location":"NEWPORT FERRARI","Address":"2975 Airway Ave","City":"Costa Mesa","State":"CA","Zip":"92626"},{"Location":"NEWPORT VILLAGE APARTMENTS","Address":"635 Baker St","City":"Costa Mesa","State":"CA","Zip":"92626"},{"Location":"NICK'S PIZZA","Address":"2300 Harbor Blvd","City":"Costa Mesa","State":"CA","Zip":"92626"},{"Location":"NIKE INC","Address":"3333 Bear St 324","City":"Costa Mesa","State":"CA","Zip":"92626"},{"Location":"NIKO NIKO COSTA MESA","Address":"2300 Harbor Blvd N5","City":"Costa Mesa","State":"CA","Zip":"92626"},{"Location":"NIMMARN THAI CUISINE","Address":"1450 Baker St C","City":"Costa Mesa","State":"CA","Zip":"92626"},{"Location":"NORDSTROM RACK","Address":"901 S Coast Dr D100","City":"Costa Mesa","State":"CA","Zip":"92626"},{"Location":"NORDSTROM SOUTHCOAST PLAZA","Address":"3333 Bristol St","City":"Costa Mesa","State":"CA","Zip":"92626"},{"Location":"NUVIS","Address":"3151 Airway Ave J3","City":"Costa Mesa","State":"CA","Zip":"92626"},{"Location":"NWP SERVICE INC","Address":"535 Anton Blvd 1100","City":"Costa Mesa","State":"CA","Zip":"92626"},{"Location":"OC FAIR","Address":"88 Fair Dr","City":"Costa Mesa","State":"CA","Zip":"92626"},{"Location":"OC MOTORSPORTS","Address":"2524 Harbor Blvd","City":"Costa Mesa","State":"CA","Zip":"92626"},{"Location":"OC SUN DEVILS FIELD","Address":"3370 Harbor Blvd","City":"Costa Mesa","State":"CA","Zip":"92626"},{"Location":"ONOTRIA","Address":"2831 Bristol St A","City":"Costa Mesa","State":"CA","Zip":"92626"},{"Location":"ORANGE COAST BUICK GMC","Address":"2626 Harbor Blvd","City":"Costa Mesa","State":"CA","Zip":"92626"},{"Location":"ORANGE COAST CHRYSLER JEEP","Address":"2929 Harbor Blvd","City":"Costa Mesa","State":"CA","Zip":"92626"},{"Location":"ORANGE COAST COLLEGE PE & ATH","Address":"2701 Fairview Rd","City":"Costa Mesa","State":"CA","Zip":"92626"},{"Location":"ORANGE COUNTY COMPONENTS","Address":"3184 Airway Ave C","City":"Costa Mesa","State":"CA","Zip":"92626"},{"Location":"ORANGE COUNTY MONSTER CARTS","Address":"3303 Harbor Blvd K1","City":"Costa Mesa","State":"CA","Zip":"92626"},{"Location":"ORANGE COUNTY SHERIFFS DEPT","Address":"361 Paularino Ave 25","City":"Costa Mesa","State":"CA","Zip":"92626"},{"Location":"ORCHID RESTAURANT","Address":"3033 Bristol St","City":"Costa Mesa","State":"CA","Zip":"92626"},{"Location":"PACIFIC BANC","Address":"3070 Bristol St 400","City":"Costa Mesa","State":"CA","Zip":"92626"},{"Location":"PACIFIC MERCANTILE BANK","Address":"949 S Coast Dr 300","City":"Costa Mesa","State":"CA","Zip":"92626"},{"Location":"PACIFIC WHEY CAFE","Address":"3333 Bear St","City":"Costa Mesa","State":"CA","Zip":"92626"},{"Location":"PACIFICA NEWPORT","Address":"2891 Bear St","City":"Costa Mesa","State":"CA","Zip":"92626"},{"Location":"PAMELA FAMILY  TRUST","Address":"151 Kalmus Dr","City":"Costa Mesa","State":"CA","Zip":"92626"},{"Location":"PATRICK'S PUB","Address":"2645 Harbor Blvd","City":"Costa Mesa","State":"CA","Zip":"92626"},{"Location":"PAUL HASTINGS LLP","Address":"695 Town Center Dr 17th","City":"Costa Mesa","State":"CA","Zip":"92626"},{"Location":"PERC WATER CORPORATION","Address":"959 S Coast Dr 315","City":"Costa Mesa","State":"CA","Zip":"92626"},{"Location":"PHYSIOTHERAPY ASSOCIATES","Address":"2777 Bristol St C","City":"Costa Mesa","State":"CA","Zip":"92626"},{"Location":"PINNACLE CUSTOM HOMES INC","Address":"151 Kalmus Dr B160","City":"Costa Mesa","State":"CA","Zip":"92626"},{"Location":"PINOT PROVENCE","Address":"686 Anton Blvd","City":"Costa Mesa","State":"CA","Zip":"92626"},{"Location":"PIRCH INC","Address":"3303 Hyland Ave","City":"Costa Mesa","State":"CA","Zip":"92626"},{"Location":"PIVOT INTERIORS","Address":"3200 Park Center Dr 100","City":"Costa Mesa","State":"CA","Zip":"92626"},{"Location":"PIZZA DORO","Address":"1145 Baker St","City":"Costa Mesa","State":"CA","Zip":"92626"},{"Location":"POWERONE CORP","Address":"3151 Airway Ave K230","City":"Costa Mesa","State":"CA","Zip":"92626"},{"Location":"PRESTIGE MEDICAL IMAGING","Address":"3198 Airport Loop Dr Bf","City":"Costa Mesa","State":"CA","Zip":"92626"},{"Location":"PRIMARY COLOR","Address":"265 Briggs Ave","City":"Costa Mesa","State":"CA","Zip":"92626"},{"Location":"PRIVATE ASSET MANAGEMENT","Address":"3200 Bristol St 625","City":"Costa Mesa","State":"CA","Zip":"92626"},{"Location":"PSOMAS","Address":"3187 Red Hill Ave 250","City":"Costa Mesa","State":"CA","Zip":"92626"},{"Location":"QUATTRO CAFE","Address":"3333 Bristol St 1201","City":"Costa Mesa","State":"CA","Zip":"92626"},{"Location":"R. ZEBULON LAW","Address":"3070 Bristol St 190","City":"Costa Mesa","State":"CA","Zip":"92626"},{"Location":"RANCES CHICAGO PIZZA","Address":"1420 Baker St B","City":"Costa Mesa","State":"CA","Zip":"92626"},{"Location":"RBB PROPERTIES","Address":"151 Kalmus Dr J3","City":"Costa Mesa","State":"CA","Zip":"92626"},{"Location":"RCS SAFTEY  COMPANY","Address":"88 Fair Dr","City":"Costa Mesa","State":"CA","Zip":"92626"},{"Location":"REAL EASTE TECONLOGY","Address":"3199 Airport Loop Dr","City":"Costa Mesa","State":"CA","Zip":"92626"},{"Location":"RED SIREN LLC","Address":"2701 Harbor Blvd D4","City":"Costa Mesa","State":"CA","Zip":"92626"},{"Location":"RES CARE ORANGE COUNTY","Address":"2508 Christopher Ln 170b","City":"Costa Mesa","State":"CA","Zip":"92626"},{"Location":"RES CARE ORANGE COUNTY","Address":"2520 Mark Ln","City":"Costa Mesa","State":"CA","Zip":"92626"},{"Location":"RESCARE ORANGE COUNTY","Address":"2528 Mark Ln","City":"Costa Mesa","State":"CA","Zip":"92626"},{"Location":"REST CARE ORANGE COUNTY","Address":"2513 Christopher Ln","City":"Costa Mesa","State":"CA","Zip":"92626"},{"Location":"ROD ALAN LLC","Address":"3001 Red Hill Ave","City":"Costa Mesa","State":"CA","Zip":"92626"},{"Location":"ROUND TABLE PIZZA","Address":"1175 Baker St A1","City":"Costa Mesa","State":"CA","Zip":"92626"},{"Location":"SAGE  ASSOCIATE","Address":"2941 Grace Ln D","City":"Costa Mesa","State":"CA","Zip":"92626"},{"Location":"SANDANCE","Address":"890 Baker St","City":"Costa Mesa","State":"CA","Zip":"92626"},{"Location":"SCHIFFER &BUSS APC","Address":"3070 Bristol St 530","City":"Costa Mesa","State":"CA","Zip":"92626"},{"Location":"SCHOOLS FIRST CREDIT UNION","Address":"2300 Harbor Blvd H1","City":"Costa Mesa","State":"CA","Zip":"92626"},{"Location":"SCOTTS RESTAURANT AND BAR","Address":"3300 Bristol St","City":"Costa Mesa","State":"CA","Zip":"92626"},{"Location":"SEASONS 52 #4513","Address":"3333 Bristol St 2802","City":"Costa Mesa","State":"CA","Zip":"92626"},{"Location":"SITE CREW INC","Address":"3185 Airway Ave G","City":"Costa Mesa","State":"CA","Zip":"92626"},{"Location":"SONOMA","Address":"3070 Bristol St 640","City":"Costa Mesa","State":"CA","Zip":"92626"},{"Location":"SOUTH COAST ACURA","Address":"2925 Harbor Blvd","City":"Costa Mesa","State":"CA","Zip":"92626"},{"Location":"SOUTH COAST AUTO CLINIC","Address":"3191 Airport Loop Dr B","City":"Costa Mesa","State":"CA","Zip":"92626"},{"Location":"SOUTH COAST MATIAL ARTS","Address":"2990 Grace Ln","City":"Costa Mesa","State":"CA","Zip":"92626"},{"Location":"SOUTH COAST SUBURU","Address":"2927 Harbor Blvd","City":"Costa Mesa","State":"CA","Zip":"92626"},{"Location":"STIX HOLDINGS 710","Address":"2701 Harbor Blvd D7","City":"Costa Mesa","State":"CA","Zip":"92626"},{"Location":"SUPER ANTOJITOS REST","Address":"2949 Fairview Rd","City":"Costa Mesa","State":"CA","Zip":"92626"},{"Location":"SURE HAVEN","Address":"13741 Olympic Ave","City":"Costa Mesa","State":"CA","Zip":"92626"},{"Location":"SURE HAVEN 14","Address":"3004 Coolidge Ave","City":"Costa Mesa","State":"CA","Zip":"92626"},{"Location":"SURE HAVEN 15","Address":"2900 Bristol St C206","City":"Costa Mesa","State":"CA","Zip":"92626"},{"Location":"SURE HAVEN 16","Address":"3129 Pierce Ave","City":"Costa Mesa","State":"CA","Zip":"92626"},{"Location":"SURE HAVEN 17","Address":"2822 Monterey Ave","City":"Costa Mesa","State":"CA","Zip":"92626"},{"Location":"SURE HAVEN 3","Address":"1017 Damascus Cir","City":"Costa Mesa","State":"CA","Zip":"92626"},{"Location":"SURE HAVEN B301","Address":"2900 Bristol St B301","City":"Costa Mesa","State":"CA","Zip":"92626"},{"Location":"SURE HAVEN INC","Address":"3145 Boston Way","City":"Costa Mesa","State":"CA","Zip":"92626"},{"Location":"SURE HAVEN INC8","Address":"2829 La Salle Ave","City":"Costa Mesa","State":"CA","Zip":"92626"},{"Location":"SURE HAVEN12","Address":"1252 Conway Ave","City":"Costa Mesa","State":"CA","Zip":"92626"},{"Location":"SURE HAVEN4","Address":"924 Dahlia Ave","City":"Costa Mesa","State":"CA","Zip":"92626"},{"Location":"SWAT","Address":"245 Fischer Ave D2","City":"Costa Mesa","State":"CA","Zip":"92626"},{"Location":"TACO ASYLUM","Address":"2937 Bristol St B102","City":"Costa Mesa","State":"CA","Zip":"92626"},{"Location":"TARGET","Address":"3030 Harbor Blvd","City":"Costa Mesa","State":"CA","Zip":"92626"},{"Location":"TEAM DETROIT","Address":"3200 Bristol St 2","City":"Costa Mesa","State":"CA","Zip":"92626"},{"Location":"TESLA MOTORS","Address":"3020 Pullman St","City":"Costa Mesa","State":"CA","Zip":"92626"},{"Location":"TGI FRIDAY'S #1903","Address":"601 Anton Blvd","City":"Costa Mesa","State":"CA","Zip":"92626"},{"Location":"THE BONE ADVENTURE","Address":"2700 Bristol St","City":"Costa Mesa","State":"CA","Zip":"92626"},{"Location":"THE BRESSETTE COMPANIES","Address":"949 S Coast Dr 175","City":"Costa Mesa","State":"CA","Zip":"92626"},{"Location":"THE CAPITAL GRILLE #8044","Address":"3333 Bristol St 3802","City":"Costa Mesa","State":"CA","Zip":"92626"},{"Location":"THE FLAME BROILER","Address":"580 Anton Blvd B209","City":"Costa Mesa","State":"CA","Zip":"92626"},{"Location":"THE HUDDLE","Address":"741 Baker St","City":"Costa Mesa","State":"CA","Zip":"92626"},{"Location":"THE IRON PRESS","Address":"3321 Hyland Ave A","City":"Costa Mesa","State":"CA","Zip":"92626"},{"Location":"THE SHARK CLUB","Address":"841 Baker St","City":"Costa Mesa","State":"CA","Zip":"92626"},{"Location":"THE WAVE EQUITY PARTNERS","Address":"361 Paularino Ave 1","City":"Costa Mesa","State":"CA","Zip":"92626"},{"Location":"TIPPETT MOORHEAD FINANC","Address":"3200 Bristol St 600","City":"Costa Mesa","State":"CA","Zip":"92626"},{"Location":"TK BURGERS III","Address":"2966 Bristol St","City":"Costa Mesa","State":"CA","Zip":"92626"},{"Location":"TOCA TRAINING CENTERS","Address":"2777 Bristol St A","City":"Costa Mesa","State":"CA","Zip":"92626"},{"Location":"TOP END MOTOR WERKS","Address":"3189 Red Hill Ave A","City":"Costa Mesa","State":"CA","Zip":"92626"},{"Location":"TOYOTA RACING DEVELOPMENT","Address":"335 Baker St E","City":"Costa Mesa","State":"CA","Zip":"92626"},{"Location":"TOYOTA RACING DEVELOPMENT INC","Address":"335 Fischer Ave","City":"Costa Mesa","State":"CA","Zip":"92626"},{"Location":"TOYOTA TRD","Address":"335 Baker St E","City":"Costa Mesa","State":"CA","Zip":"92626"},{"Location":"TRINITY  BROADCASTING","Address":"3131 Tara","City":"Costa Mesa","State":"CA","Zip":"92626"},{"Location":"TRINITY BROADCASTING","Address":"3150 Bear St","City":"Costa Mesa","State":"CA","Zip":"92626"},{"Location":"TRIOMPHE DESIGN","Address":"3090 Bristol St 160","City":"Costa Mesa","State":"CA","Zip":"92626"},{"Location":"TRU SPEED MOTOR CARS LLC","Address":"365 Clinton St A","City":"Costa Mesa","State":"CA","Zip":"92626"},{"Location":"TTM TECHNOLOGIES INC","Address":"1665 Scenic Ave 250","City":"Costa Mesa","State":"CA","Zip":"92626"},{"Location":"TURNIP ROSE - COSTA MESA","Address":"1570 Scenic Ave","City":"Costa Mesa","State":"CA","Zip":"92626"},{"Location":"ULTRA MOBILE","Address":"3195 Red Hill Ave A","City":"Costa Mesa","State":"CA","Zip":"92626"},{"Location":"UNIRE REAL ESTATE GROUP","Address":"3186 Airway Ave H","City":"Costa Mesa","State":"CA","Zip":"92626"},{"Location":"UNITED AMERICAN MORTGAG CORP 2","Address":"3184 Airway Ave D","City":"Costa Mesa","State":"CA","Zip":"92626"},{"Location":"UNITED POLYCHEM","Address":"3070 Bristol St 520","City":"Costa Mesa","State":"CA","Zip":"92626"},{"Location":"UNIVERSAL MOTION COMPONENTS","Address":"2920 Airway Ave","City":"Costa Mesa","State":"CA","Zip":"92626"},{"Location":"URBAN ARENA","Address":"3195 Red Hill Ave F","City":"Costa Mesa","State":"CA","Zip":"92626"},{"Location":"VALASSIS","Address":"1575 Corporate Dr","City":"Costa Mesa","State":"CA","Zip":"92626"},{"Location":"VANGUARD UNIVERSITY","Address":"55 Fair Dr","City":"Costa Mesa","State":"CA","Zip":"92626"},{"Location":"VANGUARD UNIVERSITY WOMENS BAS","Address":"55 Fair Dr","City":"Costa Mesa","State":"CA","Zip":"92626"},{"Location":"VANTAGE POINT TITLE","Address":"3070 Bristol St 655","City":"Costa Mesa","State":"CA","Zip":"92626"},{"Location":"VELOCITY SPORTS TRAINING","Address":"2777 Bristol St B","City":"Costa Mesa","State":"CA","Zip":"92626"},{"Location":"WAYFARE","Address":"270 Baker St E","City":"Costa Mesa","State":"CA","Zip":"92626"},{"Location":"WCRX","Address":"3190 Airport Loop Dr A","City":"Costa Mesa","State":"CA","Zip":"92626"},{"Location":"WEST COAST PORT & PAIN  CENTER","Address":"1700 Adams Ave 107","City":"Costa Mesa","State":"CA","Zip":"92626"},{"Location":"WEST ELECTRONIC SALES","Address":"959 S Coast Dr 400","City":"Costa Mesa","State":"CA","Zip":"92626"},{"Location":"WESTIN SOUTH COAST PLAZA","Address":"686 Anton Blvd","City":"Costa Mesa","State":"CA","Zip":"92626"},{"Location":"WESTYE GROUP WEST","Address":"151 Kalmus Dr L3","City":"Costa Mesa","State":"CA","Zip":"92626"},{"Location":"WHITTIER LAW SCHOOL","Address":"3333 Harbor Blvd","City":"Costa Mesa","State":"CA","Zip":"92626"},{"Location":"WINGNUTS","Address":"3030 Harbor Blvd H3","City":"Costa Mesa","State":"CA","Zip":"92626"},{"Location":"WIRED DISTRIBUTING","Address":"3136 Airway Ave","City":"Costa Mesa","State":"CA","Zip":"92626"},{"Location":"WYNDHAM LOBBY%2FBAR","Address":"3350 Avenue Of The Arts","City":"Costa Mesa","State":"CA","Zip":"92626"},{"Location":"Z CAFE","Address":"3333 Bear St 316","City":"Costa Mesa","State":"CA","Zip":"92626"},{"Location":"Z TEJAS","Address":"3333 Bristol St 1876","City":"Costa Mesa","State":"CA","Zip":"92626"}]