[{"Location":"COLLINS HOLDINGS","Address":"34700 Pacific Coast Hwy 107","City":"Capistrano Beach","State":"CA","Zip":"92624"},{"Location":"DANA POINT AUTO GALLERY","Address":"25812 Las Vegas Ave","City":"Capistrano Beach","State":"CA","Zip":"92624"},{"Location":"DESIGN NAIL SPA","Address":"34117 Boseny","City":"Capistrano Beach","State":"CA","Zip":"92624"},{"Location":"DOHENY CAR WASH","Address":"34241 Doheny Park Rd","City":"Capistrano Beach","State":"CA","Zip":"92624"},{"Location":"DOHENY SALOON","Address":"34125 Doheny Park Rd","City":"Capistrano Beach","State":"CA","Zip":"92624"},{"Location":"DOUBLE TREE GUEST SUITES DOHEN","Address":"34402 Pacific Coast Hwy","City":"Capistrano Beach","State":"CA","Zip":"92624"},{"Location":"GANAHL LUMBER","Address":"34162 Bohemy Park Rd","City":"Capistrano Beach","State":"CA","Zip":"92624"},{"Location":"SURFIN COWBOY","Address":"34235 Doheny Park Rd","City":"Capistrano Beach","State":"CA","Zip":"92624"},{"Location":"VANITY","Address":"34112 Doheny Park Rd","City":"Capistrano Beach","State":"CA","Zip":"92624"},{"Location":"YORK SUTCH AND ASSOICIATE","Address":"26863 Calle Hermosa","City":"Capistrano Beach","State":"CA","Zip":"92624"},{"Location":"COLLINS HOLDINGS","Address":"34700 Pacific Coast Hwy 107","City":"Capistrano Beach","State":"CA","Zip":"92624"},{"Location":"DANA POINT AUTO GALLERY","Address":"25812 Las Vegas Ave","City":"Capistrano Beach","State":"CA","Zip":"92624"},{"Location":"DESIGN NAIL SPA","Address":"34117 Boseny","City":"Capistrano Beach","State":"CA","Zip":"92624"},{"Location":"DOHENY CAR WASH","Address":"34241 Doheny Park Rd","City":"Capistrano Beach","State":"CA","Zip":"92624"},{"Location":"DOHENY SALOON","Address":"34125 Doheny Park Rd","City":"Capistrano Beach","State":"CA","Zip":"92624"},{"Location":"DOUBLE TREE GUEST SUITES DOHEN","Address":"34402 Pacific Coast Hwy","City":"Capistrano Beach","State":"CA","Zip":"92624"},{"Location":"GANAHL LUMBER","Address":"34162 Bohemy Park Rd","City":"Capistrano Beach","State":"CA","Zip":"92624"},{"Location":"SURFIN COWBOY","Address":"34235 Doheny Park Rd","City":"Capistrano Beach","State":"CA","Zip":"92624"},{"Location":"VANITY","Address":"34112 Doheny Park Rd","City":"Capistrano Beach","State":"CA","Zip":"92624"},{"Location":"YORK SUTCH AND ASSOICIATE","Address":"26863 Calle Hermosa","City":"Capistrano Beach","State":"CA","Zip":"92624"}]