[{"Location":"BEACH HUT DELI","Address":"2 Ritz Carlton Dr 102","City":"Dana Point","State":"CA","Zip":"92629"},{"Location":"BIKE RELIGION","Address":"34150 Pacific Coast Hwy","City":"Dana Point","State":"CA","Zip":"92629"},{"Location":"BUBBA KAHUNA'S SPORTS TIME PIZ","Address":"34320 Pacific Coast Hwy H","City":"Dana Point","State":"CA","Zip":"92629"},{"Location":"CARLOS MEXICAN REST.","Address":"34224 Pacific Coast Hwy","City":"Dana Point","State":"CA","Zip":"92629"},{"Location":"CHART HOUSE DANA POINT","Address":"34442 Green Lantern St","City":"Dana Point","State":"CA","Zip":"92629"},{"Location":"CHOYA JAPANESE CUISINE","Address":"32545 Golden Lantern St","City":"Dana Point","State":"CA","Zip":"92629"},{"Location":"DANA POINT YACHT CLUB","Address":"24399 Dana Dr","City":"Dana Point","State":"CA","Zip":"92629"},{"Location":"DANA WHARF SPORTFISHING","Address":"34675 Golden Lantern St","City":"Dana Point","State":"CA","Zip":"92629"},{"Location":"DONG KYUNG INC","Address":"24050 Camino Del Avion","City":"Dana Point","State":"CA","Zip":"92629"},{"Location":"EL TORITO 7155","Address":"34521 Street Of The Golden Lan","City":"Dana Point","State":"CA","Zip":"92629"},{"Location":"ENVIROWOOD","Address":"33796 Bridgehampton Dr","City":"Dana Point","State":"CA","Zip":"92629"},{"Location":"FIGHTING IRISH DANA LLC","Address":"34512 Embarcadero Pl","City":"Dana Point","State":"CA","Zip":"92629"},{"Location":"GEMMELL","Address":"34471 Golden Lantern St","City":"Dana Point","State":"CA","Zip":"92629"},{"Location":"HARBOR HOUSE CAFE","Address":"34157 Pacific Coast Hwy","City":"Dana Point","State":"CA","Zip":"92629"},{"Location":"HENNESSEY'S FISH BUCKET","Address":"34091 La Plz","City":"Dana Point","State":"CA","Zip":"92629"},{"Location":"HENNESSEYS TAVERN","Address":"34111 La Plz","City":"Dana Point","State":"CA","Zip":"92629"},{"Location":"ICHI BIRI","Address":"16 Monarch Bay Plz","City":"Dana Point","State":"CA","Zip":"92629"},{"Location":"JPC MARKETING","Address":"34072 Amber Lantern St B","City":"Dana Point","State":"CA","Zip":"92629"},{"Location":"MARRIOTT LAGUNA CLIFFS (38926)","Address":"25135 Park Lantern","City":"Dana Point","State":"CA","Zip":"92629"},{"Location":"NEWPORTER INDUSTRIES","Address":"33585 Del Obispo St D","City":"Dana Point","State":"CA","Zip":"92629"},{"Location":"OCEAN RANCH CHIROPRAC","Address":"32585 Golden Lantern St H","City":"Dana Point","State":"CA","Zip":"92629"},{"Location":"PAC HARBOR HOSPITALITY GROUP","Address":"34661 Golden Lantern St","City":"Dana Point","State":"CA","Zip":"92629"},{"Location":"PCH AUTO SPORTS","Address":"34090 Pacific Coast Hwy","City":"Dana Point","State":"CA","Zip":"92629"},{"Location":"PROUD MARYS RESTAURANT","Address":"34689 Golden Lantern St","City":"Dana Point","State":"CA","Zip":"92629"},{"Location":"RADO FITNESS","Address":"24470 Del Prado","City":"Dana Point","State":"CA","Zip":"92629"},{"Location":"RITZ CARLTON LAGUNA NIGUEL","Address":"1 Ritz Carlton Dr","City":"Dana Point","State":"CA","Zip":"92629"},{"Location":"RTP DANA POINT","Address":"32525 Golden Lantern St B","City":"Dana Point","State":"CA","Zip":"92629"},{"Location":"RUBENS IMPORTS","Address":"34134 Pacific Coast Hwy","City":"Dana Point","State":"CA","Zip":"92629"},{"Location":"SEYCHELLES REEF  2","Address":"24961 Dana Point Harbor Dr","City":"Dana Point","State":"CA","Zip":"92629"},{"Location":"SMOKEYS DANA POINT LLC","Address":"32860 Pacific Coast Hwy 4","City":"Dana Point","State":"CA","Zip":"92629"},{"Location":"ST REGIS MONARCH BEA","Address":"500 Monarch Bay Dr","City":"Dana Point","State":"CA","Zip":"92629"},{"Location":"STELLA'S","Address":"17 Monarch Bay Plz","City":"Dana Point","State":"CA","Zip":"92629"},{"Location":"STILLWATER","Address":"24701 Del Prado","City":"Dana Point","State":"CA","Zip":"92629"},{"Location":"STIX HOLDINGS 711","Address":"32525 Golden Lantern St De","City":"Dana Point","State":"CA","Zip":"92629"},{"Location":"TALBOTT","Address":"31144 Silva Rd 207","City":"Dana Point","State":"CA","Zip":"92629"},{"Location":"TAVERN AT THE POINT","Address":"34212 Pacific Coast Hwy A","City":"Dana Point","State":"CA","Zip":"92629"},{"Location":"TENNIS CLUB AT MONARCH BEACH","Address":"33080 Niguel Rd","City":"Dana Point","State":"CA","Zip":"92629"},{"Location":"THE BRIG RESTAURANT","Address":"34461 Golden Lantern St","City":"Dana Point","State":"CA","Zip":"92629"},{"Location":"THE POINT","Address":"34085 Pacific Coast Hwy 201","City":"Dana Point","State":"CA","Zip":"92629"},{"Location":"THE SHWACK","Address":"24502 Del Prado","City":"Dana Point","State":"CA","Zip":"92629"},{"Location":"TOP NAILS AND HAIR1","Address":"33611 Del Obispo St","City":"Dana Point","State":"CA","Zip":"92629"},{"Location":"TURKS","Address":"34683 Golden Lantern St","City":"Dana Point","State":"CA","Zip":"92629"},{"Location":"WATERFRONT REST 1","Address":"34699 Golden Lantern St","City":"Dana Point","State":"CA","Zip":"92629"},{"Location":"WATERFRONT REST 2","Address":"34555 Golden Lantern St","City":"Dana Point","State":"CA","Zip":"92629"},{"Location":"CAL BANK & TRUST","Address":"24034 Camino Del Avion","City":"Monarch Beach","State":"CA","Zip":"92629"},{"Location":"MORGAN STANLEY 100259","Address":"2 Ritz Carlton Dr","City":"Monarch Beach","State":"CA","Zip":"92629"}]