[{"Location":"1ST CLASS PIZZA","Address":"6420 Irvine Blvd","City":"Irvine","State":"CA","Zip":"92620"},{"Location":"CUSTOM BODIES","Address":"4880 Irvine Blvd 102","City":"Irvine","State":"CA","Zip":"92620"},{"Location":"DOCTORS AMBULANCE","Address":"4200 Trabuco Rd 250","City":"Irvine","State":"CA","Zip":"92620"},{"Location":"DOORE KOREAN RESTAURANT","Address":"4790 Irvine Blvd 106","City":"Irvine","State":"CA","Zip":"92620"},{"Location":"JEFF ROBERTSON DDS","Address":"4940 Irvine Blvd 101","City":"Irvine","State":"CA","Zip":"92620"},{"Location":"KOHL'S #598","Address":"14101 Jeffrey Rd","City":"Irvine","State":"CA","Zip":"92620"},{"Location":"LA FITNESS #84","Address":"6400 Irvine Blvd","City":"Irvine","State":"CA","Zip":"92620"},{"Location":"NIKO NIKO SUSHI","Address":"6384 Irvine Blvd","City":"Irvine","State":"CA","Zip":"92620"},{"Location":"NORTHWOOD PIZZA","Address":"4900 Irvine Blvd 105","City":"Irvine","State":"CA","Zip":"92620"},{"Location":"ROCKN ROAD CYCLERY","Address":"6282 Irvine Blvd","City":"Irvine","State":"CA","Zip":"92620"},{"Location":"SAMCHULLY AMERICA CORP","Address":"840 Roosevelt","City":"Irvine","State":"CA","Zip":"92620"},{"Location":"SPORT CLIPS CA501","Address":"6274 Irvine Blvd","City":"Irvine","State":"CA","Zip":"92620"},{"Location":"SUBWAY #49096","Address":"14161 Jeffrey Rd","City":"Irvine","State":"CA","Zip":"92620"},{"Location":"TANG 190","Address":"14121 Jeffrey Rd","City":"Irvine","State":"CA","Zip":"92620"},{"Location":"THE COUNTER IRVINE","Address":"6416 Irvine Blvd","City":"Irvine","State":"CA","Zip":"92620"},{"Location":"TOMIKAWA SUSHI","Address":"14191 Jeffrey Rd","City":"Irvine","State":"CA","Zip":"92620"},{"Location":"1ST CLASS PIZZA","Address":"6420 Irvine Blvd","City":"Irvine","State":"CA","Zip":"92620"},{"Location":"CUSTOM BODIES","Address":"4880 Irvine Blvd 102","City":"Irvine","State":"CA","Zip":"92620"},{"Location":"DOCTORS AMBULANCE","Address":"4200 Trabuco Rd 250","City":"Irvine","State":"CA","Zip":"92620"},{"Location":"DOORE KOREAN RESTAURANT","Address":"4790 Irvine Blvd 106","City":"Irvine","State":"CA","Zip":"92620"},{"Location":"JEFF ROBERTSON DDS","Address":"4940 Irvine Blvd 101","City":"Irvine","State":"CA","Zip":"92620"},{"Location":"KOHL'S #598","Address":"14101 Jeffrey Rd","City":"Irvine","State":"CA","Zip":"92620"},{"Location":"LA FITNESS #84","Address":"6400 Irvine Blvd","City":"Irvine","State":"CA","Zip":"92620"},{"Location":"NIKO NIKO SUSHI","Address":"6384 Irvine Blvd","City":"Irvine","State":"CA","Zip":"92620"},{"Location":"NORTHWOOD PIZZA","Address":"4900 Irvine Blvd 105","City":"Irvine","State":"CA","Zip":"92620"},{"Location":"ROCKN ROAD CYCLERY","Address":"6282 Irvine Blvd","City":"Irvine","State":"CA","Zip":"92620"},{"Location":"SAMCHULLY AMERICA CORP","Address":"840 Roosevelt","City":"Irvine","State":"CA","Zip":"92620"},{"Location":"SPORT CLIPS CA501","Address":"6274 Irvine Blvd","City":"Irvine","State":"CA","Zip":"92620"},{"Location":"SUBWAY #49096","Address":"14161 Jeffrey Rd","City":"Irvine","State":"CA","Zip":"92620"},{"Location":"TANG 190","Address":"14121 Jeffrey Rd","City":"Irvine","State":"CA","Zip":"92620"},{"Location":"THE COUNTER IRVINE","Address":"6416 Irvine Blvd","City":"Irvine","State":"CA","Zip":"92620"},{"Location":"TOMIKAWA SUSHI","Address":"14191 Jeffrey Rd","City":"Irvine","State":"CA","Zip":"92620"}]