[{"Location":"AVILAS MEXICAN REST","Address":"2515 E Coast Hwy","City":"Corona Del Mar","State":"CA","Zip":"92625"},{"Location":"BAJA FRESH CDM","Address":"3050 E Coast Hwy","City":"Corona Del Mar","State":"CA","Zip":"92625"},{"Location":"BUNGALO RESTAURANT","Address":"2441 E Coast Hwy","City":"Corona Del Mar","State":"CA","Zip":"92625"},{"Location":"CAFFE PANINI","Address":"2333 E Coast Hwy","City":"Corona Del Mar","State":"CA","Zip":"92625"},{"Location":"EL CHOLO","Address":"3520 E Coast Hwy","City":"Corona Del Mar","State":"CA","Zip":"92625"},{"Location":"FIRST CUT SPA","Address":"2614 E Coast Hwy","City":"Corona Del Mar","State":"CA","Zip":"92625"},{"Location":"FIRST REPUBLIC BANK","Address":"2800 E Coast Hwy","City":"Corona Del Mar","State":"CA","Zip":"92625"},{"Location":"FIVE CROWNS","Address":"3801 E Coast Hwy","City":"Corona Del Mar","State":"CA","Zip":"92625"},{"Location":"FRESH BROTHERS","Address":"1616 San Miguel Dr","City":"Corona Del Mar","State":"CA","Zip":"92625"},{"Location":"GABRIELS TAILORING","Address":"3800 E Coast Hwy 4","City":"Corona Del Mar","State":"CA","Zip":"92625"},{"Location":"HOBIE SPORTS","Address":"3140 E Coast Hwy","City":"Corona Del Mar","State":"CA","Zip":"92625"},{"Location":"JOHNNYS NEW YORK PIZZA","Address":"2756 E Coast Hwy","City":"Corona Del Mar","State":"CA","Zip":"92625"},{"Location":"LAI CONSULTING","Address":"3000 E Coast Hwy","City":"Corona Del Mar","State":"CA","Zip":"92625"},{"Location":"M%2FY OUR TIME","Address":"1137 Bayside Dr","City":"Corona Del Mar","State":"CA","Zip":"92625"},{"Location":"ORANGE COUNTY SHERIFF'S HARBOR","Address":"1901 Bayside Dr","City":"Corona Del Mar","State":"CA","Zip":"92625"},{"Location":"PIROZZI","Address":"2929 E Coast Hwy","City":"Corona Del Mar","State":"CA","Zip":"92625"},{"Location":"SOFA U LOVE","Address":"2846 E Coast Hwy","City":"Corona Del Mar","State":"CA","Zip":"92625"},{"Location":"SOTA","Address":"3344 E Coast Hwy","City":"Corona Del Mar","State":"CA","Zip":"92625"},{"Location":"STONEHILLL CONSTRUCTION AND DE","Address":"2816 E Coast Hwy F","City":"Corona Del Mar","State":"CA","Zip":"92625"},{"Location":"TAKE 2 DIRECT","Address":"2435 E Coast Hwy 8","City":"Corona Del Mar","State":"CA","Zip":"92625"},{"Location":"THE BOUTIQUE REALESTATE GROUP","Address":"3653 E Coast Hwy","City":"Corona Del Mar","State":"CA","Zip":"92625"},{"Location":"THE CROW BAR AND KITCHEN","Address":"2325 E Coast Hwy","City":"Corona Del Mar","State":"CA","Zip":"92625"},{"Location":"THE PLACE","Address":"2920 E Coast Hwy","City":"Corona Del Mar","State":"CA","Zip":"92625"},{"Location":"THE PORT THEATER","Address":"2905 E Coast Hwy","City":"Corona Del Mar","State":"CA","Zip":"92625"},{"Location":"US COAST GUARD - CDM","Address":"1911 Bayside Dr","City":"Corona Del Mar","State":"CA","Zip":"92625"},{"Location":"WINE GALLERY","Address":"2411 E Coast Hwy 250","City":"Corona Del Mar","State":"CA","Zip":"92625"},{"Location":"AVILAS MEXICAN REST","Address":"2515 E Coast Hwy","City":"Corona Del Mar","State":"CA","Zip":"92625"},{"Location":"BAJA FRESH CDM","Address":"3050 E Coast Hwy","City":"Corona Del Mar","State":"CA","Zip":"92625"},{"Location":"BUNGALO RESTAURANT","Address":"2441 E Coast Hwy","City":"Corona Del Mar","State":"CA","Zip":"92625"},{"Location":"CAFFE PANINI","Address":"2333 E Coast Hwy","City":"Corona Del Mar","State":"CA","Zip":"92625"},{"Location":"EL CHOLO","Address":"3520 E Coast Hwy","City":"Corona Del Mar","State":"CA","Zip":"92625"},{"Location":"FIRST CUT SPA","Address":"2614 E Coast Hwy","City":"Corona Del Mar","State":"CA","Zip":"92625"},{"Location":"FIRST REPUBLIC BANK","Address":"2800 E Coast Hwy","City":"Corona Del Mar","State":"CA","Zip":"92625"},{"Location":"FIVE CROWNS","Address":"3801 E Coast Hwy","City":"Corona Del Mar","State":"CA","Zip":"92625"},{"Location":"FRESH BROTHERS","Address":"1616 San Miguel Dr","City":"Corona Del Mar","State":"CA","Zip":"92625"},{"Location":"GABRIELS TAILORING","Address":"3800 E Coast Hwy 4","City":"Corona Del Mar","State":"CA","Zip":"92625"},{"Location":"HOBIE SPORTS","Address":"3140 E Coast Hwy","City":"Corona Del Mar","State":"CA","Zip":"92625"},{"Location":"JOHNNYS NEW YORK PIZZA","Address":"2756 E Coast Hwy","City":"Corona Del Mar","State":"CA","Zip":"92625"},{"Location":"LAI CONSULTING","Address":"3000 E Coast Hwy","City":"Corona Del Mar","State":"CA","Zip":"92625"},{"Location":"M%2FY OUR TIME","Address":"1137 Bayside Dr","City":"Corona Del Mar","State":"CA","Zip":"92625"},{"Location":"ORANGE COUNTY SHERIFF'S HARBOR","Address":"1901 Bayside Dr","City":"Corona Del Mar","State":"CA","Zip":"92625"},{"Location":"PIROZZI","Address":"2929 E Coast Hwy","City":"Corona Del Mar","State":"CA","Zip":"92625"},{"Location":"SOFA U LOVE","Address":"2846 E Coast Hwy","City":"Corona Del Mar","State":"CA","Zip":"92625"},{"Location":"SOTA","Address":"3344 E Coast Hwy","City":"Corona Del Mar","State":"CA","Zip":"92625"},{"Location":"STONEHILLL CONSTRUCTION AND DE","Address":"2816 E Coast Hwy F","City":"Corona Del Mar","State":"CA","Zip":"92625"},{"Location":"TAKE 2 DIRECT","Address":"2435 E Coast Hwy 8","City":"Corona Del Mar","State":"CA","Zip":"92625"},{"Location":"THE BOUTIQUE REALESTATE GROUP","Address":"3653 E Coast Hwy","City":"Corona Del Mar","State":"CA","Zip":"92625"},{"Location":"THE CROW BAR AND KITCHEN","Address":"2325 E Coast Hwy","City":"Corona Del Mar","State":"CA","Zip":"92625"},{"Location":"THE PLACE","Address":"2920 E Coast Hwy","City":"Corona Del Mar","State":"CA","Zip":"92625"},{"Location":"THE PORT THEATER","Address":"2905 E Coast Hwy","City":"Corona Del Mar","State":"CA","Zip":"92625"},{"Location":"US COAST GUARD - CDM","Address":"1911 Bayside Dr","City":"Corona Del Mar","State":"CA","Zip":"92625"},{"Location":"WINE GALLERY","Address":"2411 E Coast Hwy 250","City":"Corona Del Mar","State":"CA","Zip":"92625"}]