[{"Location":"ALISO VIEJO COUNTRY CLUB","Address":"23152 Via Campo Verde","City":"Laguna Woods","State":"CA","Zip":"92637"},{"Location":"ANIMAL CRACKERS PET RESCUE","Address":"24310 Moulton Pkwy P","City":"Laguna Woods","State":"CA","Zip":"92637"},{"Location":"FIRE STATION 22","Address":"24001 Paseo De Valencia","City":"Laguna Woods","State":"CA","Zip":"92637"},{"Location":"FIREHOUSE SUBS","Address":"24100 El Toro Rd B","City":"Laguna Woods","State":"CA","Zip":"92637"},{"Location":"JPKS INC","Address":"24338 El Toro Rd","City":"Laguna Woods","State":"CA","Zip":"92637"},{"Location":"LAGUNA CAFE","Address":"24310 Moulton Pkwy L","City":"Laguna Woods","State":"CA","Zip":"92637"},{"Location":"MARK IV CAPITAL 24331","Address":"24331 El Toro Rd","City":"Laguna Woods","State":"CA","Zip":"92637"},{"Location":"THAITANIUM","Address":"24371 El Toro Rd Cd","City":"Laguna Woods","State":"CA","Zip":"92637"},{"Location":"THE REGENCY PRIVATE OFFI","Address":"24441 Calle Sonora Facil","City":"Laguna Woods","State":"CA","Zip":"92637"},{"Location":"ALISO VIEJO COUNTRY CLUB","Address":"23152 Via Campo Verde","City":"Laguna Woods","State":"CA","Zip":"92637"},{"Location":"ANIMAL CRACKERS PET RESCUE","Address":"24310 Moulton Pkwy P","City":"Laguna Woods","State":"CA","Zip":"92637"},{"Location":"FIRE STATION 22","Address":"24001 Paseo De Valencia","City":"Laguna Woods","State":"CA","Zip":"92637"},{"Location":"FIREHOUSE SUBS","Address":"24100 El Toro Rd B","City":"Laguna Woods","State":"CA","Zip":"92637"},{"Location":"JPKS INC","Address":"24338 El Toro Rd","City":"Laguna Woods","State":"CA","Zip":"92637"},{"Location":"LAGUNA CAFE","Address":"24310 Moulton Pkwy L","City":"Laguna Woods","State":"CA","Zip":"92637"},{"Location":"MARK IV CAPITAL 24331","Address":"24331 El Toro Rd","City":"Laguna Woods","State":"CA","Zip":"92637"},{"Location":"THAITANIUM","Address":"24371 El Toro Rd Cd","City":"Laguna Woods","State":"CA","Zip":"92637"},{"Location":"THE REGENCY PRIVATE OFFI","Address":"24441 Calle Sonora Facil","City":"Laguna Woods","State":"CA","Zip":"92637"}]