[{"Location":"DISCOTECA LOS AMIGOS","Address":"24368 Muirlands Blvd","City":"El Toro","State":"CA","Zip":"92630"},{"Location":"QUAKES BASEBALL ACADEMY","Address":"25332 Jeronimo Rd","City":"El Toro","State":"CA","Zip":"92630"},{"Location":"24 HOUR FITNESS #73","Address":"26781 Rancho Pkwy","City":"Lake Forest","State":"CA","Zip":"92630"},{"Location":"AD THAI CORP","Address":"22611 Lake Forest Dr C2","City":"Lake Forest","State":"CA","Zip":"92630"},{"Location":"ADVANCED AUTO BODY","Address":"23141 Orange Ave L","City":"Lake Forest","State":"CA","Zip":"92630"},{"Location":"ADVANCED ESTHETICS DENTAL LAB","Address":"22706 Aspan St 306","City":"Lake Forest","State":"CA","Zip":"92630"},{"Location":"ANGELOS TERMITE AND CONST","Address":"20532 Crescent Bay Dr 106","City":"Lake Forest","State":"CA","Zip":"92630"},{"Location":"APG ENTERPRISES","Address":"26242 Dimension Dr 140","City":"Lake Forest","State":"CA","Zip":"92630"},{"Location":"ARB INCORPORATED","Address":"26000 Commercecenter","City":"Lake Forest","State":"CA","Zip":"92630"},{"Location":"AVALON NAILS & SPA","Address":"20025 Lake Forest Dr 107","City":"Lake Forest","State":"CA","Zip":"92630"},{"Location":"BAGEL SHACK","Address":"23653 El Toro Rd","City":"Lake Forest","State":"CA","Zip":"92630"},{"Location":"BIG O TIRES 5834","Address":"20742 Lake Forest Dr C3","City":"Lake Forest","State":"CA","Zip":"92630"},{"Location":"BIG SHOTS BILLIARDS","Address":"23512 El Toro Rd","City":"Lake Forest","State":"CA","Zip":"92630"},{"Location":"BOLAND COMMUNICATIONS","Address":"16 Rancho Cir","City":"Lake Forest","State":"CA","Zip":"92630"},{"Location":"BOSCOES SPORTS GRILL","Address":"23364 El Toro Rd","City":"Lake Forest","State":"CA","Zip":"92630"},{"Location":"BRENNAN INDUSTRIES","Address":"20411 Barents Sea Cir","City":"Lake Forest","State":"CA","Zip":"92630"},{"Location":"BRIZIO PIZZA","Address":"21771 Lake Forest Dr","City":"Lake Forest","State":"CA","Zip":"92630"},{"Location":"BRU GRILL & MARKET","Address":"23730 El Toro Rd","City":"Lake Forest","State":"CA","Zip":"92630"},{"Location":"BUFFALO WILD WINGS #3419","Address":"23600 Rockfield Blvd","City":"Lake Forest","State":"CA","Zip":"92630"},{"Location":"CALI FISH GRILL LAKE FOREST","Address":"23704 El Toro Rd S5e","City":"Lake Forest","State":"CA","Zip":"92630"},{"Location":"CAN SOLUTIONS","Address":"23161 Lake Center Dr 203","City":"Lake Forest","State":"CA","Zip":"92630"},{"Location":"CARSMEDICS LAKE FOREST","Address":"25252 Geronimo Rd","City":"Lake Forest","State":"CA","Zip":"92630"},{"Location":"CCNA ENTERPRISES INC","Address":"23626 El Toro Rd","City":"Lake Forest","State":"CA","Zip":"92630"},{"Location":"CHILE FRESCOCAN GRILL","Address":"23624 El Toro Rd A","City":"Lake Forest","State":"CA","Zip":"92630"},{"Location":"CHILLIE CHUTNEY REST","Address":"24301 Muirlands Blvd A","City":"Lake Forest","State":"CA","Zip":"92630"},{"Location":"CLUB AFICIONADO CIGAR  LOUNGE","Address":"23825 El Toro Rd","City":"Lake Forest","State":"CA","Zip":"92630"},{"Location":"CREF PAC VIS LLC FITNESS","Address":"25520 Commercentre Dr 175","City":"Lake Forest","State":"CA","Zip":"92630"},{"Location":"DELICIAS PERUANAS RESTAURANT","Address":"24354 Muirlands Blvd","City":"Lake Forest","State":"CA","Zip":"92630"},{"Location":"DELICIOUS INC","Address":"20651 Lake Forest Dr","City":"Lake Forest","State":"CA","Zip":"92630"},{"Location":"DESIGN HAIR AND NAILS","Address":"23768 Mercury Rd","City":"Lake Forest","State":"CA","Zip":"92630"},{"Location":"DIMENSION LIQUOR","Address":"20761 Lake Forest Dr J","City":"Lake Forest","State":"CA","Zip":"92630"},{"Location":"EL CONEJITO MEXICAN FOOD","Address":"24331 Muirlands Blvd 9","City":"Lake Forest","State":"CA","Zip":"92630"},{"Location":"EL RANCHITO","Address":"24406 Muirlands Blvd","City":"Lake Forest","State":"CA","Zip":"92630"},{"Location":"EMPANADA MAN INC","Address":"20761 Lake Forest Dr A","City":"Lake Forest","State":"CA","Zip":"92630"},{"Location":"FIRESTONE #017523","Address":"24421 Rockfield Blvd","City":"Lake Forest","State":"CA","Zip":"92630"},{"Location":"FOCUS INDUSTRIES INC","Address":"25301 Commercentre Dr","City":"Lake Forest","State":"CA","Zip":"92630"},{"Location":"FOREST LANES","Address":"22771 Centre Dr","City":"Lake Forest","State":"CA","Zip":"92630"},{"Location":"FUDDRUCKERS #3032","Address":"23621 El Toro Rd","City":"Lake Forest","State":"CA","Zip":"92630"},{"Location":"GENERAL MONITORS","Address":"26776 Simpatica Cir","City":"Lake Forest","State":"CA","Zip":"92630"},{"Location":"GENGHIS KHAM MONGOLIAN","Address":"23615 El Toro Rd P","City":"Lake Forest","State":"CA","Zip":"92630"},{"Location":"GERALD LUCERO&ASSOCIATE","Address":"2265 Lambert 105","City":"Lake Forest","State":"CA","Zip":"92630"},{"Location":"HERBALIFE MANUFACTURING","Address":"20481 Crescent Bay Dr","City":"Lake Forest","State":"CA","Zip":"92630"},{"Location":"HERBALIFE MANUFACTURING 2","Address":"25392 Commercecenter Drive  #b","City":"Lake Forest","State":"CA","Zip":"92630"},{"Location":"HOLIDAY INN LAKE FOREST","Address":"23131 Lake Center Dr","City":"Lake Forest","State":"CA","Zip":"92630"},{"Location":"INKA GRILL","Address":"23600 Rockfield Blvd","City":"Lake Forest","State":"CA","Zip":"92630"},{"Location":"INVENSYS","Address":"26521 Rancho Pkwy S","City":"Lake Forest","State":"CA","Zip":"92630"},{"Location":"INVENSYS","Address":"26561 Rancho Pkwy S","City":"Lake Forest","State":"CA","Zip":"92630"},{"Location":"INVENSYS","Address":"10 Orchard 200","City":"Lake Forest","State":"CA","Zip":"92630"},{"Location":"JERSEY MIKES SUBS","Address":"23572 El Toro Rd B","City":"Lake Forest","State":"CA","Zip":"92630"},{"Location":"JIN JAPANES RESTAURANT","Address":"21212 Bake Pkwy B","City":"Lake Forest","State":"CA","Zip":"92630"},{"Location":"KAMP LAUNDRY","Address":"23532 Eltoro Rd Suite 8","City":"Lake Forest","State":"CA","Zip":"92630"},{"Location":"KOKORO SUSHI","Address":"23775 El Toro Rd A","City":"Lake Forest","State":"CA","Zip":"92630"},{"Location":"KOUROSH RAHIMPOUR DDS PC","Address":"23532 El Toro Rd 4","City":"Lake Forest","State":"CA","Zip":"92630"},{"Location":"LA COCINA DE RICARDO","Address":"23532 El Toro Rd 11","City":"Lake Forest","State":"CA","Zip":"92630"},{"Location":"LA FITNESS #50","Address":"29400 Portola Pkwy","City":"Lake Forest","State":"CA","Zip":"92630"},{"Location":"LAKE FOREST GOLF AND PRACTICE","Address":"23308 Cherry Ave","City":"Lake Forest","State":"CA","Zip":"92630"},{"Location":"LAMPPOST PIZZA","Address":"22421 El Toro Rd M","City":"Lake Forest","State":"CA","Zip":"92630"},{"Location":"LAWRENCE","Address":"24844 Muirlands Blvd","City":"Lake Forest","State":"CA","Zip":"92630"},{"Location":"LEE & ASSOCIATES LAKEFOREST","Address":"26501 Rancho Pkwy S 104","City":"Lake Forest","State":"CA","Zip":"92630"},{"Location":"LF-WING STOP","Address":"22611 Lake Forest Dr","City":"Lake Forest","State":"CA","Zip":"92630"},{"Location":"LOS CABOS CANTINA","Address":"20702 Lake Forest Dr A3","City":"Lake Forest","State":"CA","Zip":"92630"},{"Location":"LUCILLE'S SMOKEHOUSE #23","Address":"23760 El Toro Rd","City":"Lake Forest","State":"CA","Zip":"92630"},{"Location":"MAINSTREET TRADING","Address":"25391 Commercentre Dr 100","City":"Lake Forest","State":"CA","Zip":"92630"},{"Location":"MAKI YAKI 3","Address":"20761 Lake Forest Dr B","City":"Lake Forest","State":"CA","Zip":"92630"},{"Location":"MANILLA KUSINA","Address":"54601 Raymond Way 10","City":"Lake Forest","State":"CA","Zip":"92630"},{"Location":"MASSAGE ENVY","Address":"23635 El Toro Rd A","City":"Lake Forest","State":"CA","Zip":"92630"},{"Location":"MEN'S WEARHOUSE #2721","Address":"23700 El Toro Rd A","City":"Lake Forest","State":"CA","Zip":"92630"},{"Location":"MICHAEL'S COFFE HOUSE","Address":"29200 Portola Pkwy E","City":"Lake Forest","State":"CA","Zip":"92630"},{"Location":"MIDAS","Address":"22752 Centre Dr","City":"Lake Forest","State":"CA","Zip":"92630"},{"Location":"MINATO SUSHI","Address":"23505 El Toro Rd","City":"Lake Forest","State":"CA","Zip":"92630"},{"Location":"ML BOXING LLC","Address":"24320 Swartz Dr","City":"Lake Forest","State":"CA","Zip":"92630"},{"Location":"MOLINO DE ORO","Address":"23532 El Toro Rd","City":"Lake Forest","State":"CA","Zip":"92630"},{"Location":"MONTROSS COMPANY","Address":"22512 Aspan St","City":"Lake Forest","State":"CA","Zip":"92630"},{"Location":"MOON&MOON","Address":"22331 El Toro Rd D","City":"Lake Forest","State":"CA","Zip":"92630"},{"Location":"MOUNTAIN MIKES PIZZA","Address":"22942 Ridge Route Dr 100","City":"Lake Forest","State":"CA","Zip":"92630"},{"Location":"MR PICKLES","Address":"23591 Rockfield Blvd H","City":"Lake Forest","State":"CA","Zip":"92630"},{"Location":"P ITALIAN GROTTO","Address":"23600 Rockfield Blvd","City":"Lake Forest","State":"CA","Zip":"92630"},{"Location":"PANASONIC AVIONICS CORPORATION","Address":"26200 Enterprise Way","City":"Lake Forest","State":"CA","Zip":"92630"},{"Location":"PATOGH HOOKAH LOUNGE","Address":"23600 Rockfield Blvd 2j","City":"Lake Forest","State":"CA","Zip":"92630"},{"Location":"PEANUTS PUB AND DELI","Address":"22722 Centre Dr","City":"Lake Forest","State":"CA","Zip":"92630"},{"Location":"PENBENBIZ","Address":"23716 Birtcher Dr","City":"Lake Forest","State":"CA","Zip":"92630"},{"Location":"PHO HA NOI","Address":"23624 El Toro Rd B","City":"Lake Forest","State":"CA","Zip":"92630"},{"Location":"PHO MAJESTIC VIETNAMESE","Address":"21771 Lake Forest Dr 114","City":"Lake Forest","State":"CA","Zip":"92630"},{"Location":"PINOY PAMS BEST","Address":"23635 El Toro Rd G","City":"Lake Forest","State":"CA","Zip":"92630"},{"Location":"PRO AM","Address":"22551 Shannon Cir","City":"Lake Forest","State":"CA","Zip":"92630"},{"Location":"PSB INC","Address":"26012 Atlantic Ocean Dr","City":"Lake Forest","State":"CA","Zip":"92630"},{"Location":"PURE VAPOR SPOT","Address":"24531 Trabuco Rd","City":"Lake Forest","State":"CA","Zip":"92630"},{"Location":"QUELLA GROUP INC","Address":"21212 Bake Pkwy","City":"Lake Forest","State":"CA","Zip":"92630"},{"Location":"REIGN TRAINNING","Address":"22600 Lambert St 1201f","City":"Lake Forest","State":"CA","Zip":"92630"},{"Location":"RP MENS GROOMING","Address":"22641 Lake Forest Dr B10","City":"Lake Forest","State":"CA","Zip":"92630"},{"Location":"RUDYS PUB & GRILL","Address":"26771 Rancho Pkwy","City":"Lake Forest","State":"CA","Zip":"92630"},{"Location":"SAFEWAY MOVE IN AND STORES","Address":"25200 Commercentre Dr 200","City":"Lake Forest","State":"CA","Zip":"92630"},{"Location":"SAMMYS ORIGINAL","Address":"23221 Lake Center Dr","City":"Lake Forest","State":"CA","Zip":"92630"},{"Location":"SEA COUNTRY TOWING","Address":"20611 Prism Pl","City":"Lake Forest","State":"CA","Zip":"92630"},{"Location":"SERVICE MASTER AAA RESTORATION","Address":"28 Rancho Cir","City":"Lake Forest","State":"CA","Zip":"92630"},{"Location":"SHIVAS RESTAURANT","Address":"20651 Lake Forest Dr A101a","City":"Lake Forest","State":"CA","Zip":"92630"},{"Location":"SLATERS 50%2F50 LAKE FOREST","Address":"24356 Swartz Dr","City":"Lake Forest","State":"CA","Zip":"92630"},{"Location":"SPORT CLIPS CA510","Address":"23647 El Toro Rd","City":"Lake Forest","State":"CA","Zip":"92630"},{"Location":"STATEWIDE LABOR CORP","Address":"23522 El Toro Rd 200","City":"Lake Forest","State":"CA","Zip":"92630"},{"Location":"STONEGATE MTG","Address":"25520 Commercentre Dr","City":"Lake Forest","State":"CA","Zip":"92630"},{"Location":"SUBARU","Address":"23663 Rockfield Blvd","City":"Lake Forest","State":"CA","Zip":"92630"},{"Location":"SUBWAY","Address":"23342 El Toro Rd","City":"Lake Forest","State":"CA","Zip":"92630"},{"Location":"SUSHI WAZEN","Address":"22641 Lake Forest Dr B7","City":"Lake Forest","State":"CA","Zip":"92630"},{"Location":"TALLYS LANDING","Address":"24301 Muirlands Blvd Yx","City":"Lake Forest","State":"CA","Zip":"92630"},{"Location":"THAI CORNER 2","Address":"22371 El Toro Rd","City":"Lake Forest","State":"CA","Zip":"92630"},{"Location":"THE FINAL TOUCH BEAU","Address":"23352 El Toro Rd","City":"Lake Forest","State":"CA","Zip":"92630"},{"Location":"THE MENS QUARTERS","Address":"25411 Trabuco Rd 111","City":"Lake Forest","State":"CA","Zip":"92630"},{"Location":"THE NAIL STORY","Address":"22621 Lake Forest Dr","City":"Lake Forest","State":"CA","Zip":"92630"},{"Location":"THE PUB LAKE FOREST","Address":"23862 Bridger Rd","City":"Lake Forest","State":"CA","Zip":"92630"},{"Location":"TOBACCO BARN","Address":"23532 El Toro Rd","City":"Lake Forest","State":"CA","Zip":"92630"},{"Location":"TRUE SUSHI N FISH","Address":"23702 El Toro Rd A","City":"Lake Forest","State":"CA","Zip":"92630"},{"Location":"UOKO JAPANESE CUISINE","Address":"23600 Rockfield Blvd 2i","City":"Lake Forest","State":"CA","Zip":"92630"},{"Location":"UOKO JAPANESE CUISINE","Address":"23600 Rockfield Blvd # 2i","City":"Lake Forest","State":"CA","Zip":"92630"},{"Location":"URASAKIS PLACE","Address":"23798 Mercury Rd","City":"Lake Forest","State":"CA","Zip":"92630"},{"Location":"VINTAGE VAPOURS","Address":"23708 El Toro Rd S8c","City":"Lake Forest","State":"CA","Zip":"92630"},{"Location":"VISHIONS","Address":"24412 Muirlands Blvd D","City":"Lake Forest","State":"CA","Zip":"92630"},{"Location":"XARA SOCCER INC","Address":"26832 Vista Ter","City":"Lake Forest","State":"CA","Zip":"92630"},{"Location":"YOGIS GRILL","Address":"22331 El Toro Rd","City":"Lake Forest","State":"CA","Zip":"92630"},{"Location":"YOOWOONG","Address":"24531 Trabuco Rd J","City":"Lake Forest","State":"CA","Zip":"92630"},{"Location":"YOUR BACK YARD","Address":"23811 Bridger Rd","City":"Lake Forest","State":"CA","Zip":"92630"},{"Location":"YXZ INTERNATIONAL CORP","Address":"24531 Trabuco Rd F","City":"Lake Forest","State":"CA","Zip":"92630"},{"Location":"ZEN SUSHI","Address":"24301 Muirlands Blvd U","City":"Lake Forest","State":"CA","Zip":"92630"}]