[{"Location":"ADVANCED CONSTRUCTORS","Address":"15906 Chemical Ln","City":"Huntingtn Bch","State":"CA","Zip":"92649"},{"Location":"24 HOUR FITNESS #105","Address":"5858 Warner Ave","City":"Huntington Beach","State":"CA","Zip":"92649"},{"Location":"AAE AEROSPACE","Address":"5382 Argosy Ave","City":"Huntington Beach","State":"CA","Zip":"92649"},{"Location":"ANGELUS","Address":"5731 Mcfadden Ave","City":"Huntington Beach","State":"CA","Zip":"92649"},{"Location":"APPLIED COMPUTER SOLUTIONS","Address":"15461 Springdale St","City":"Huntington Beach","State":"CA","Zip":"92649"},{"Location":"APPLIED COMPUTER SOLUTIONS","Address":"15572 Computer Ln","City":"Huntington Beach","State":"CA","Zip":"92649"},{"Location":"AUTO RITE","Address":"5002 Warner Ave","City":"Huntington Beach","State":"CA","Zip":"92649"},{"Location":"BENT MANUFACTURING INC","Address":"15442 Chemical Ln","City":"Huntington Beach","State":"CA","Zip":"92649"},{"Location":"BP COKE","Address":"5761 Mcfadden Ave","City":"Huntington Beach","State":"CA","Zip":"92649"},{"Location":"BRIAN COATS FABRICATION","Address":"15902 Manufacture Ln","City":"Huntington Beach","State":"CA","Zip":"92649"},{"Location":"BRIDGES BLINDES","Address":"15635 Commerce Ln","City":"Huntington Beach","State":"CA","Zip":"92649"},{"Location":"BUON GUSTO","Address":"4911 Warner Ave 109","City":"Huntington Beach","State":"CA","Zip":"92649"},{"Location":"CAFE PELICAN","Address":"16400 Pacific Coast Hwy","City":"Huntington Beach","State":"CA","Zip":"92649"},{"Location":"CERTIFIED TIRES","Address":"5062 Warner Ave","City":"Huntington Beach","State":"CA","Zip":"92649"},{"Location":"CLARKE MASONARY","Address":"15611 Product Ln B1","City":"Huntington Beach","State":"CA","Zip":"92649"},{"Location":"COASTLINE CONSTRUCION","Address":"5742 Research Dr","City":"Huntington Beach","State":"CA","Zip":"92649"},{"Location":"CRUNCH FITNESS","Address":"5894 Edinger Ave","City":"Huntington Beach","State":"CA","Zip":"92649"},{"Location":"DAVITA #3059 HUNTINGTON BEACH","Address":"16892 Bolsa Chica St 100","City":"Huntington Beach","State":"CA","Zip":"92649"},{"Location":"DON THE BEACHCOMBER","Address":"16278 Pacific Coast Hwy","City":"Huntington Beach","State":"CA","Zip":"92649"},{"Location":"EDWARD JONES","Address":"16454 Bolsa Chica St","City":"Huntington Beach","State":"CA","Zip":"92649"},{"Location":"ELECTRONIC WAVEFORM LAB","Address":"5702 Bolsa Ave","City":"Huntington Beach","State":"CA","Zip":"92649"},{"Location":"ENHANCED VISION","Address":"5882 Machine Dr","City":"Huntington Beach","State":"CA","Zip":"92649"},{"Location":"EPN - ERIC GARCIA","Address":"15151 Springdale St","City":"Huntington Beach","State":"CA","Zip":"92649"},{"Location":"FISH CAMP","Address":"16600 Pacific Coast Hwy","City":"Huntington Beach","State":"CA","Zip":"92649"},{"Location":"FITNESS SOLUTIONS","Address":"16561 Bolsa Chica St 106","City":"Huntington Beach","State":"CA","Zip":"92649"},{"Location":"FRITZAN KOTTER'S DELI","Address":"5936 Warner Ave","City":"Huntington Beach","State":"CA","Zip":"92649"},{"Location":"GAMETE MUSIC INC","Address":"15561 Product Ln D13","City":"Huntington Beach","State":"CA","Zip":"92649"},{"Location":"GREEN STREET CAFE","Address":"4911 Warner Ave 102","City":"Huntington Beach","State":"CA","Zip":"92649"},{"Location":"GREGG DRILLING AND TESTING","Address":"5312 System Dr","City":"Huntington Beach","State":"CA","Zip":"92649"},{"Location":"GREGORY L JOHNSON DDS","Address":"16901 Algonquin St","City":"Huntington Beach","State":"CA","Zip":"92649"},{"Location":"HANGOUT TOO","Address":"16446 Bolsa Chica St","City":"Huntington Beach","State":"CA","Zip":"92649"},{"Location":"HIGHMARK SMART RELIABLE","Address":"5559 Mcfadden Ave","City":"Huntington Beach","State":"CA","Zip":"92649"},{"Location":"HOAG URGENT CARE","Address":"5355 Warner Ave 102","City":"Huntington Beach","State":"CA","Zip":"92649"},{"Location":"HOT AND SPICY RESTAURANT","Address":"16561 Bolsa Chica St 108","City":"Huntington Beach","State":"CA","Zip":"92649"},{"Location":"HOT OFF THE GRILL","Address":"16522 Bolsa Chica St","City":"Huntington Beach","State":"CA","Zip":"92649"},{"Location":"HOUSE OF BREWS","Address":"16903 Algonquin St","City":"Huntington Beach","State":"CA","Zip":"92649"},{"Location":"HUNTINGTON BEACH BICYCLES","Address":"15862 Springdale St","City":"Huntington Beach","State":"CA","Zip":"92649"},{"Location":"HY ROY'S","Address":"5050 Heil Ave","City":"Huntington Beach","State":"CA","Zip":"92649"},{"Location":"IMPERIAL STEEL AND TUBE","Address":"16281 Typhoon Ln","City":"Huntington Beach","State":"CA","Zip":"92649"},{"Location":"INDUCTOR SUPPLY INC","Address":"5362 Oceanus Dr A","City":"Huntington Beach","State":"CA","Zip":"92649"},{"Location":"ISABELLA FINE JEWELRY","Address":"16917 Algonquin St C","City":"Huntington Beach","State":"CA","Zip":"92649"},{"Location":"JANG GUN INC","Address":"16561 Bolsa Chica St","City":"Huntington Beach","State":"CA","Zip":"92649"},{"Location":"JERRY ROBERTS SALON","Address":"4911 Warner Ave 107","City":"Huntington Beach","State":"CA","Zip":"92649"},{"Location":"JOY SUSHI","Address":"16482 Bolsa Chica St","City":"Huntington Beach","State":"CA","Zip":"92649"},{"Location":"KEITH KING AND ASSOCIATES","Address":"5731 Mcfadden Ave A","City":"Huntington Beach","State":"CA","Zip":"92649"},{"Location":"KIMBERLY JOB SP","Address":"16872 Bolsa Chica St 200","City":"Huntington Beach","State":"CA","Zip":"92649"},{"Location":"KOCH APPRAISAL SERVICE","Address":"4911 Warner Ave 220","City":"Huntington Beach","State":"CA","Zip":"92649"},{"Location":"MAIN ELECTRIC SUPPLY COMP","Address":"5381 Production Dr","City":"Huntington Beach","State":"CA","Zip":"92649"},{"Location":"MARLIN B&G HB","Address":"5874 Edinger Ave","City":"Huntington Beach","State":"CA","Zip":"92649"},{"Location":"MEADOWLARK GOLF COURSE","Address":"16782 Graham St","City":"Huntington Beach","State":"CA","Zip":"92649"},{"Location":"MEG TECHNOLOGIES","Address":"15381 Assembly Ln","City":"Huntington Beach","State":"CA","Zip":"92649"},{"Location":"MILCO WIRE EDM INC","Address":"15221 Connector Ln","City":"Huntington Beach","State":"CA","Zip":"92649"},{"Location":"MV KNOT TOO SHABBY","Address":"16302 Niantic Cir","City":"Huntington Beach","State":"CA","Zip":"92649"},{"Location":"MY PLACE UNLIMITED","Address":"5452 Commercial Dr","City":"Huntington Beach","State":"CA","Zip":"92649"},{"Location":"NELSON CHIROPRACTIC","Address":"16101 Bolsa Chica St A","City":"Huntington Beach","State":"CA","Zip":"92649"},{"Location":"NIYA RESTAURANT","Address":"5910 Warner Ave","City":"Huntington Beach","State":"CA","Zip":"92649"},{"Location":"OBRECHTS SOLID SURFACE","Address":"15916 Manufacture Ln","City":"Huntington Beach","State":"CA","Zip":"92649"},{"Location":"OC RC RACEWAY","Address":"15282 Jason Cir","City":"Huntington Beach","State":"CA","Zip":"92649"},{"Location":"OLIVE PIT GRILL","Address":"16365 Bolsa Chica St","City":"Huntington Beach","State":"CA","Zip":"92649"},{"Location":"ONCOLOGY HEMATOLOGY CONSULTANT","Address":"5882 Bolsa Ave 100","City":"Huntington Beach","State":"CA","Zip":"92649"},{"Location":"PETERS LANDING ATHLECTIC CLUB","Address":"16400 Pacific Coast Hwy 120","City":"Huntington Beach","State":"CA","Zip":"92649"},{"Location":"QUE PASTA ITALIA","Address":"5205 Warner Ave","City":"Huntington Beach","State":"CA","Zip":"92649"},{"Location":"QUIK CHANGE LUBE  OIL","Address":"5841 Warner Ave","City":"Huntington Beach","State":"CA","Zip":"92649"},{"Location":"QUIK SILVER","Address":"5600 Argosy Ave 100","City":"Huntington Beach","State":"CA","Zip":"92649"},{"Location":"QUIKSILVER AMERICAS","Address":"15202 Graham St","City":"Huntington Beach","State":"CA","Zip":"92649"},{"Location":"QUIKSILVER INC","Address":"15202 Graham St","City":"Huntington Beach","State":"CA","Zip":"92649"},{"Location":"SACKIN MEDALS INC","Address":"15201 Transistor Ln","City":"Huntington Beach","State":"CA","Zip":"92649"},{"Location":"SHO AIR INTERNATIONAL","Address":"5401 Argosy Ave","City":"Huntington Beach","State":"CA","Zip":"92649"},{"Location":"SLICE OF NEW YORK PIZZA","Address":"16821 Algonquin St 101","City":"Huntington Beach","State":"CA","Zip":"92649"},{"Location":"SOUTH COAST ATHLETIC CLUB","Address":"15132 Bolsa Chica St","City":"Huntington Beach","State":"CA","Zip":"92649"},{"Location":"SPORTMODE","Address":"15473 Chemical Ln","City":"Huntington Beach","State":"CA","Zip":"92649"},{"Location":"SPRING DALE BARBERSHOP","Address":"15792 Springdale St","City":"Huntington Beach","State":"CA","Zip":"92649"},{"Location":"ST BONAVENTURE","Address":"16400 Springdale St","City":"Huntington Beach","State":"CA","Zip":"92649"},{"Location":"STONE AND CERAMIC SURFACE","Address":"5401 Commercial Dr","City":"Huntington Beach","State":"CA","Zip":"92649"},{"Location":"STONE AND CERAMIC SURFACE","Address":"5381 Commercial Dr","City":"Huntington Beach","State":"CA","Zip":"92649"},{"Location":"SUNSET VAPOR","Address":"17212a Pacific Coast Hwy A","City":"Huntington Beach","State":"CA","Zip":"92649"},{"Location":"SUPER MEX","Address":"17210 Pacific Coast Hwy","City":"Huntington Beach","State":"CA","Zip":"92649"},{"Location":"SURF DOGS SPORTS GRILL","Address":"5932 Warner Ave","City":"Huntington Beach","State":"CA","Zip":"92649"},{"Location":"TEACHER CREATED MATERIALS","Address":"5301 Oceanus Dr","City":"Huntington Beach","State":"CA","Zip":"92649"},{"Location":"TEACHER CREATED MATERIALS TWO","Address":"5482 Argosy Ave","City":"Huntington Beach","State":"CA","Zip":"92649"},{"Location":"THE NAILS & SPA COMPANY","Address":"5215 Warner Ave","City":"Huntington Beach","State":"CA","Zip":"92649"},{"Location":"THE WORKOUT","Address":"4911 Warner Ave","City":"Huntington Beach","State":"CA","Zip":"92649"},{"Location":"UCA TAN","Address":"5926 Warner Ave","City":"Huntington Beach","State":"CA","Zip":"92649"},{"Location":"UNIVERSAL FLOORING","Address":"15573 Commerce Ln","City":"Huntington Beach","State":"CA","Zip":"92649"},{"Location":"VALUE  MANDER","Address":"5501 Engineer Dr","City":"Huntington Beach","State":"CA","Zip":"92649"},{"Location":"VITORIOS ITALIAN","Address":"5921 Warner Ave","City":"Huntington Beach","State":"CA","Zip":"92649"},{"Location":"W AND J INSTALLATION","Address":"5481 Commercial Dr A","City":"Huntington Beach","State":"CA","Zip":"92649"},{"Location":"WESTNET INC","Address":"15542 Chemical Ln","City":"Huntington Beach","State":"CA","Zip":"92649"},{"Location":"WILDER","Address":"5561 Engineer Dr","City":"Huntington Beach","State":"CA","Zip":"92649"},{"Location":"YOUR ANIMALS BEST FRIEND","Address":"15392 Assembly Ln A","City":"Huntington Beach","State":"CA","Zip":"92649"}]