[{"Location":"P A POON & SON INC","Address":"18862 Beach Blvd 103","City":"Huntingtn Bch","State":"CA","Zip":"92648"},{"Location":"GALLAGHER'S PUB & GRILL","Address":"300 Pch Blvd 113","City":"Huntington Bch","State":"CA","Zip":"92648"},{"Location":"17TH ST BOARD SHOP","Address":"414 17th St","City":"Huntington Beach","State":"CA","Zip":"92648"},{"Location":"24 HOUR FITNESS #177","Address":"303 3rd St","City":"Huntington Beach","State":"CA","Zip":"92648"},{"Location":"25 DEGREES HBLP","Address":"412 Walnut Ave","City":"Huntington Beach","State":"CA","Zip":"92648"},{"Location":"ALLEN TIRES","Address":"18455 Beach Blvd","City":"Huntington Beach","State":"CA","Zip":"92648"},{"Location":"ANGUS PETROLEUM CORP","Address":"1901 California St Const","City":"Huntington Beach","State":"CA","Zip":"92648"},{"Location":"AVILLAS EL RANCHITO%2FHB","Address":"318 Main St","City":"Huntington Beach","State":"CA","Zip":"92648"},{"Location":"BAJA SHARKEEZ","Address":"211 Main St","City":"Huntington Beach","State":"CA","Zip":"92648"},{"Location":"BEACH BLVD PIZZA","Address":"19750 Beach Blvd","City":"Huntington Beach","State":"CA","Zip":"92648"},{"Location":"BEACHFRONT 301","Address":"301 Main St 101","City":"Huntington Beach","State":"CA","Zip":"92648"},{"Location":"BERNADETTES AT THE BEACH","Address":"714 Adams Ave 103","City":"Huntington Beach","State":"CA","Zip":"92648"},{"Location":"BEST WESTERN REGENCY INN","Address":"19360 Beach Blvd","City":"Huntington Beach","State":"CA","Zip":"92648"},{"Location":"BETTER CHOICE DEBT SETTLEMENT","Address":"200 Main St","City":"Huntington Beach","State":"CA","Zip":"92648"},{"Location":"BIG O TIRES 5833","Address":"19411 Beach Blvd","City":"Huntington Beach","State":"CA","Zip":"92648"},{"Location":"BJS RESTAURANT #409","Address":"200 Main St","City":"Huntington Beach","State":"CA","Zip":"92648"},{"Location":"BLACK WATCH PUB OF HB","Address":"204 E Adams Ave A","City":"Huntington Beach","State":"CA","Zip":"92648"},{"Location":"BLACKBULL CHOP HOUSE","Address":"300 Pacific Coast Hwy 112","City":"Huntington Beach","State":"CA","Zip":"92648"},{"Location":"BOAT HOUSE","Address":"200 Main St 101a","City":"Huntington Beach","State":"CA","Zip":"92648"},{"Location":"BULLDOG PRIVATE LOUNGE 2","Address":"18822 Beach Blvd U109","City":"Huntington Beach","State":"CA","Zip":"92648"},{"Location":"CAR PROS KIA HUNINGTON BEACH","Address":"18835 Beach Blvd","City":"Huntington Beach","State":"CA","Zip":"92648"},{"Location":"CAR PROS KIA HUNTINGTON","Address":"18801 Beach Blvd","City":"Huntington Beach","State":"CA","Zip":"92648"},{"Location":"CARRIAGE COLLISION","Address":"18042 Gothard St","City":"Huntington Beach","State":"CA","Zip":"92648"},{"Location":"CENTRAL NET FIRE TRAINING CTR","Address":"18301 Gothard St","City":"Huntington Beach","State":"CA","Zip":"92648"},{"Location":"CHRONIC INDUSTRIES OFFICE","Address":"328 11th St A","City":"Huntington Beach","State":"CA","Zip":"92648"},{"Location":"COACHS RESTURAUNT","Address":"200 Main St 105","City":"Huntington Beach","State":"CA","Zip":"92648"},{"Location":"COASTAL AUTO SALES INC.","Address":"19131 Beach Blvd","City":"Huntington Beach","State":"CA","Zip":"92648"},{"Location":"COZY HOOKAH LOUNGE","Address":"714 Adams Ave 102","City":"Huntington Beach","State":"CA","Zip":"92648"},{"Location":"D & P CLASSIC CHEVY","Address":"18331 Enterprise Ln","City":"Huntington Beach","State":"CA","Zip":"92648"},{"Location":"DEVILLE BAR","Address":"424 Olive Ave","City":"Huntington Beach","State":"CA","Zip":"92648"},{"Location":"DIAMONDROCK HB  LLC","Address":"500 Pacific Coast Hwy","City":"Huntington Beach","State":"CA","Zip":"92648"},{"Location":"DOS TOROS","Address":"221 Main St","City":"Huntington Beach","State":"CA","Zip":"92648"},{"Location":"DUKES SURF CITY RESTAURANT","Address":"317 Pacific Coast Hwy","City":"Huntington Beach","State":"CA","Zip":"92648"},{"Location":"FED EX","Address":"2601 Main St 10th Flr 330","City":"Huntington Beach","State":"CA","Zip":"92648"},{"Location":"FITNESS 19 HUNTINGTON","Address":"19107 Beach Blvd","City":"Huntington Beach","State":"CA","Zip":"92648"},{"Location":"FIVE POINTS SENIORS","Address":"18561 Florida St","City":"Huntington Beach","State":"CA","Zip":"92648"},{"Location":"FRED'S MEXICAN CAFE","Address":"300 Pacific Coast Hwy 201","City":"Huntington Beach","State":"CA","Zip":"92648"},{"Location":"FROGS EXPRESSS WASH","Address":"20012 Beach Blvd","City":"Huntington Beach","State":"CA","Zip":"92648"},{"Location":"GAETANO HARDWOOD FLOORS INC","Address":"7071 Kearny Dr","City":"Huntington Beach","State":"CA","Zip":"92648"},{"Location":"GKD SPORTS INC","Address":"18352 Beach Blvd","City":"Huntington Beach","State":"CA","Zip":"92648"},{"Location":"GMHW EKHARDT CORP","Address":"7461 Talbert Ave","City":"Huntington Beach","State":"CA","Zip":"92648"},{"Location":"GRUPO GALLEGOS","Address":"300 Pacific Coast Hwy 200","City":"Huntington Beach","State":"CA","Zip":"92648"},{"Location":"H B ULTIMATE TRAINING CE","Address":"19240 Beach Blvd","City":"Huntington Beach","State":"CA","Zip":"92648"},{"Location":"HBPD AIR SUPPORT","Address":"18401 Gothard St","City":"Huntington Beach","State":"CA","Zip":"92648"},{"Location":"HULA GRILL","Address":"221 Main St","City":"Huntington Beach","State":"CA","Zip":"92648"},{"Location":"HUNTINGTON BEACH BEER COMPANY","Address":"201 Main St E","City":"Huntington Beach","State":"CA","Zip":"92648"},{"Location":"HUNTINGTON BEACH ELKS LODGE","Address":"7711 Talbert Ave","City":"Huntington Beach","State":"CA","Zip":"92648"},{"Location":"HUNTINGTON BEACH JUNIOR","Address":"103 Pacific Coast Hwy","City":"Huntington Beach","State":"CA","Zip":"92648"},{"Location":"HUNTINGTON BEACH PD","Address":"2000 Main St","City":"Huntington Beach","State":"CA","Zip":"92648"},{"Location":"HUNTINGTON BEACH POLICE DEPT","Address":"205 5th St","City":"Huntington Beach","State":"CA","Zip":"92648"},{"Location":"HUNTINGTON SUITES","Address":"7971 Yorktown Ave","City":"Huntington Beach","State":"CA","Zip":"92648"},{"Location":"HUNTINING BEACH POLICE DEPT","Address":"2000 Main St","City":"Huntington Beach","State":"CA","Zip":"92648"},{"Location":"HURRICANES BAR & GRILL","Address":"200 Main St 201","City":"Huntington Beach","State":"CA","Zip":"92648"},{"Location":"HYATT REGENCY HUNTINGTON BEACH","Address":"21500 Pacific Coast Hwy","City":"Huntington Beach","State":"CA","Zip":"92648"},{"Location":"IHOP #954","Address":"200 Main St 116","City":"Huntington Beach","State":"CA","Zip":"92648"},{"Location":"IKEDA","Address":"18900 Beach Blvd 112","City":"Huntington Beach","State":"CA","Zip":"92648"},{"Location":"INNOCEAN","Address":"180 5th St","City":"Huntington Beach","State":"CA","Zip":"92648"},{"Location":"INNOCEAN WORLDWIDE","Address":"180 5th St 140","City":"Huntington Beach","State":"CA","Zip":"92648"},{"Location":"ISSUEV INC","Address":"7021 Kearny Dr","City":"Huntington Beach","State":"CA","Zip":"92648"},{"Location":"JACK CLAPP","Address":"201 Pacific Coast Hwy","City":"Huntington Beach","State":"CA","Zip":"92648"},{"Location":"JERSEY MIKES SUBS","Address":"21004 Beach Blvd","City":"Huntington Beach","State":"CA","Zip":"92648"},{"Location":"KILLARNEY PUB","Address":"209 Main St","City":"Huntington Beach","State":"CA","Zip":"92648"},{"Location":"KIT'S PLACE","Address":"19476 Beach Blvd","City":"Huntington Beach","State":"CA","Zip":"92648"},{"Location":"LA CAPILLA","Address":"807 Adams Ave","City":"Huntington Beach","State":"CA","Zip":"92648"},{"Location":"LAS BARCAS","Address":"21032 Beach Blvd","City":"Huntington Beach","State":"CA","Zip":"92648"},{"Location":"LAYLA'S","Address":"21094 Beach Blvd","City":"Huntington Beach","State":"CA","Zip":"92648"},{"Location":"LONGBOARD RESTAURANT & P-2FHW1","Address":"217 Main St","City":"Huntington Beach","State":"CA","Zip":"92648"},{"Location":"MARIOS MEXICAN REST","Address":"18603 Main St","City":"Huntington Beach","State":"CA","Zip":"92648"},{"Location":"MATSU JAPANESE RESTAURANT","Address":"18035 Beach Blvd","City":"Huntington Beach","State":"CA","Zip":"92648"},{"Location":"MAXS SPORTS BAR","Address":"18862 Beach Blvd 114","City":"Huntington Beach","State":"CA","Zip":"92648"},{"Location":"MENU MANS","Address":"7402 Mount Joy Dr","City":"Huntington Beach","State":"CA","Zip":"92648"},{"Location":"MFI CREDIT SOLUTIONS","Address":"7181 Garfield Ave","City":"Huntington Beach","State":"CA","Zip":"92648"},{"Location":"MORAN DEVELOPMENT CORP","Address":"7352 Autopark Dr","City":"Huntington Beach","State":"CA","Zip":"92648"},{"Location":"MULLIGAN & JOHNSON","Address":"117 Main St","City":"Huntington Beach","State":"CA","Zip":"92648"},{"Location":"NEW LIFE SPIRIT","Address":"727 Owen Dr","City":"Huntington Beach","State":"CA","Zip":"92648"},{"Location":"NEW LIFE SPIRIT INC","Address":"723 Owen Dr B2f","City":"Huntington Beach","State":"CA","Zip":"92648"},{"Location":"NEW LIFE SPIRIT INC 2","Address":"719 Owen Dr","City":"Huntington Beach","State":"CA","Zip":"92648"},{"Location":"NEW RUBY PALACE","Address":"18330 Beach Blvd","City":"Huntington Beach","State":"CA","Zip":"92648"},{"Location":"NO KA OI LLC","Address":"215 Main St","City":"Huntington Beach","State":"CA","Zip":"92648"},{"Location":"OLD MALAYA GRILL","Address":"19072 Beach Blvd F","City":"Huntington Beach","State":"CA","Zip":"92648"},{"Location":"ORANGE COUNTY BARBER PARLOR","Address":"417 Main St 102","City":"Huntington Beach","State":"CA","Zip":"92648"},{"Location":"PACIFIC DENTAL 71","Address":"19720 Beach Blvd B","City":"Huntington Beach","State":"CA","Zip":"92648"},{"Location":"PACIFIC SHORES MEDICAL GROUP","Address":"19582 Beach Blvd 212","City":"Huntington Beach","State":"CA","Zip":"92648"},{"Location":"PIZZA LOUNGE","Address":"301 Main St 107","City":"Huntington Beach","State":"CA","Zip":"92648"},{"Location":"PIZZARO","Address":"301 Main St 101","City":"Huntington Beach","State":"CA","Zip":"92648"},{"Location":"QUALITY CRAFT AUTO BODY","Address":"18091 Redondo Cir G","City":"Huntington Beach","State":"CA","Zip":"92648"},{"Location":"RA SUSHI #3020 HUNTINGTON","Address":"155 5th St 183","City":"Huntington Beach","State":"CA","Zip":"92648"},{"Location":"REDZ JUKE JOINT","Address":"424 17th St","City":"Huntington Beach","State":"CA","Zip":"92648"},{"Location":"RITTERS SKC  LLC","Address":"180 5th St Ste13","City":"Huntington Beach","State":"CA","Zip":"92648"},{"Location":"RR MEDIA INC","Address":"18377 Beach Blvd 330","City":"Huntington Beach","State":"CA","Zip":"92648"},{"Location":"SANCHOS%2C LLC","Address":"602 Pacific Coast Hwy","City":"Huntington Beach","State":"CA","Zip":"92648"},{"Location":"SEALEGS WINE","Address":"21022 Beach Blvd 105","City":"Huntington Beach","State":"CA","Zip":"92648"},{"Location":"SEAMIST MEDICAL WEIGHT LOST","Address":"18055 Beach Blvd","City":"Huntington Beach","State":"CA","Zip":"92648"},{"Location":"SHOOTER SPORTS BAR","Address":"18582 Beach Blvd 20","City":"Huntington Beach","State":"CA","Zip":"92648"},{"Location":"SHOREBREAK HOTEL CA","Address":"500 Pacific Coast Hwy","City":"Huntington Beach","State":"CA","Zip":"92648"},{"Location":"SILVERAS RESTAURANT LLC","Address":"126 Main St","City":"Huntington Beach","State":"CA","Zip":"92648"},{"Location":"SLAP FISH","Address":"19696 Beach Blvd","City":"Huntington Beach","State":"CA","Zip":"92648"},{"Location":"SO CAL HOLDING INC","Address":"20101 Goldenwest St","City":"Huntington Beach","State":"CA","Zip":"92648"},{"Location":"SPORT CLIPS CA502","Address":"19710 Beach Blvd","City":"Huntington Beach","State":"CA","Zip":"92648"},{"Location":"STIX HOLDINGS 720","Address":"7041 Yorktown Ave 106","City":"Huntington Beach","State":"CA","Zip":"92648"},{"Location":"SUPER HERO'S PUB","Address":"714 Adams Ave 101","City":"Huntington Beach","State":"CA","Zip":"92648"},{"Location":"SURE HAVEN 308","Address":"308 22nd St","City":"Huntington Beach","State":"CA","Zip":"92648"},{"Location":"SURF CITY ENTERPRISES LLC","Address":"19025 Beach Blvd","City":"Huntington Beach","State":"CA","Zip":"92648"},{"Location":"SURF CITY TSP","Address":"315 Pacific Coast Hwy","City":"Huntington Beach","State":"CA","Zip":"92648"},{"Location":"TATTOO GALLERY","Address":"19921 Beach Blvd","City":"Huntington Beach","State":"CA","Zip":"92648"},{"Location":"THE PEN","Address":"19901 Beach Blvd","City":"Huntington Beach","State":"CA","Zip":"92648"},{"Location":"THOMAS GOODHEART MD INC","Address":"19582 Beach Blvd 319","City":"Huntington Beach","State":"CA","Zip":"92648"},{"Location":"TK BURGERS II","Address":"110 Pacific Coast Hwy","City":"Huntington Beach","State":"CA","Zip":"92648"},{"Location":"TOTAL CAR CARE","Address":"7322 Autopark Dr","City":"Huntington Beach","State":"CA","Zip":"92648"},{"Location":"TOYOTA OF HUNTINGTON BEACH","Address":"18881 Beach Blvd","City":"Huntington Beach","State":"CA","Zip":"92648"},{"Location":"UDR - BEACH AND OCEAN","Address":"19890 Beach Blvd","City":"Huntington Beach","State":"CA","Zip":"92648"},{"Location":"UNIQUE INVESTMENT CORP","Address":"7028 Kearny Dr","City":"Huntington Beach","State":"CA","Zip":"92648"},{"Location":"US TACOS LLC","Address":"150 5th St 110","City":"Huntington Beach","State":"CA","Zip":"92648"},{"Location":"USA WATER POLO","Address":"2124 Main St","City":"Huntington Beach","State":"CA","Zip":"92648"},{"Location":"VENUE","Address":"18582 Beach Blvd 121","City":"Huntington Beach","State":"CA","Zip":"92648"},{"Location":"WATERFRONT BEACH RESORT","Address":"21100 Pacific Coast Hwy","City":"Huntington Beach","State":"CA","Zip":"92648"},{"Location":"WHAT A LOT A PIZZA","Address":"18362 Beach Blvd","City":"Huntington Beach","State":"CA","Zip":"92648"},{"Location":"WINGS N THINGS","Address":"18302 Beach Blvd","City":"Huntington Beach","State":"CA","Zip":"92648"},{"Location":"Z PIZZAS","Address":"19035 Goldenwest St 102","City":"Huntington Beach","State":"CA","Zip":"92648"},{"Location":"ZACKS PIER PLAZA","Address":"405 Pacific Coast Hwy","City":"Huntington Beach","State":"CA","Zip":"92648"}]