[{"Location":"HUDSON WELLNESS CENTER","Address":"9025 Atlanta Ave","City":"Huntingtn Bch","State":"CA","Zip":"92646"},{"Location":"TOMGIRL   BAKING  COMPANY","Address":"9048 Adams Ave","City":"Huntingtn Bch","State":"CA","Zip":"92646"},{"Location":"AAA  ANIMAL  HOSPITAL INC","Address":"21632 Newland St","City":"Huntington Beach","State":"CA","Zip":"92646"},{"Location":"ALBERTOS MEXICAN FOOD","Address":"9142 Garfield Ave","City":"Huntington Beach","State":"CA","Zip":"92646"},{"Location":"BEACH FAMILY DOCTORS","Address":"9131 Adams Ave","City":"Huntington Beach","State":"CA","Zip":"92646"},{"Location":"BOONYANUDH JIYAROM","Address":"9921 Hamilton Ave","City":"Huntington Beach","State":"CA","Zip":"92646"},{"Location":"CASA JIMENEZ","Address":"19171 Magnolia St 6","City":"Huntington Beach","State":"CA","Zip":"92646"},{"Location":"CASTLEGATE VENTURES LLC","Address":"20782 Skimmer Ln","City":"Huntington Beach","State":"CA","Zip":"92646"},{"Location":"CENTER OF REHAB EXCELLENCE","Address":"10162 Adams Ave","City":"Huntington Beach","State":"CA","Zip":"92646"},{"Location":"CERTIFIED LIQUOR","Address":"22007 Bushard St","City":"Huntington Beach","State":"CA","Zip":"92646"},{"Location":"CISCEL CORPORATION","Address":"10035 Adams Ave 111","City":"Huntington Beach","State":"CA","Zip":"92646"},{"Location":"CORVELO","Address":"19881 Brookhurst St A","City":"Huntington Beach","State":"CA","Zip":"92646"},{"Location":"CURVES FOR WOMEN","Address":"9120 Adams Ave","City":"Huntington Beach","State":"CA","Zip":"92646"},{"Location":"DA HAWIIAN KITCHEN","Address":"9842 Adams Ave","City":"Huntington Beach","State":"CA","Zip":"92646"},{"Location":"DON JOSE RESTAURANT","Address":"9093 Adams Ave","City":"Huntington Beach","State":"CA","Zip":"92646"},{"Location":"FORKERT E&S INC","Address":"22311 Brookhurst St 203","City":"Huntington Beach","State":"CA","Zip":"92646"},{"Location":"GREAT CLIPS HUNTINGTON BEACH","Address":"9842 Adams Ave 105","City":"Huntington Beach","State":"CA","Zip":"92646"},{"Location":"HAMBONES INC","Address":"10056 Adams Ave","City":"Huntington Beach","State":"CA","Zip":"92646"},{"Location":"HAPPY NAILS","Address":"10111 Adams Ave 113","City":"Huntington Beach","State":"CA","Zip":"92646"},{"Location":"HB PITA GRIL","Address":"19893 Brookhurst St","City":"Huntington Beach","State":"CA","Zip":"92646"},{"Location":"HUNTINGTON BEACH FOOTBALL","Address":"21400 Magnolia St","City":"Huntington Beach","State":"CA","Zip":"92646"},{"Location":"KMG BAR & GRILL LLC","Address":"19171 Magnolia St","City":"Huntington Beach","State":"CA","Zip":"92646"},{"Location":"KOHL'S #1365","Address":"9811 Adams Ave","City":"Huntington Beach","State":"CA","Zip":"92646"},{"Location":"LA JOLIE NAILS","Address":"9842 Adams Ave 103","City":"Huntington Beach","State":"CA","Zip":"92646"},{"Location":"LAMPPOST PIZZA","Address":"10084 Adams Ave","City":"Huntington Beach","State":"CA","Zip":"92646"},{"Location":"MAGNOLIA PHYSICAL THERAPY","Address":"19032 Magnolia St","City":"Huntington Beach","State":"CA","Zip":"92646"},{"Location":"MOUNTAIN VIEW TIRE HUNTINGTON","Address":"19131 Brookhurst St","City":"Huntington Beach","State":"CA","Zip":"92646"},{"Location":"MR BARBER","Address":"19461 Brookhurst St","City":"Huntington Beach","State":"CA","Zip":"92646"},{"Location":"O'CONNELL'S","Address":"19047 Bushard St","City":"Huntington Beach","State":"CA","Zip":"92646"},{"Location":"OUT OF BOUNDS","Address":"21022 Brookhurst St","City":"Huntington Beach","State":"CA","Zip":"92646"},{"Location":"PACIFIC CRUST SANDWICHES","Address":"21451 Brookhurst St","City":"Huntington Beach","State":"CA","Zip":"92646"},{"Location":"PACIFIC PREMIER BANK","Address":"19011 Magnolia St 103","City":"Huntington Beach","State":"CA","Zip":"92646"},{"Location":"PERRYS PIZZA","Address":"21411 Brookhurst St","City":"Huntington Beach","State":"CA","Zip":"92646"},{"Location":"PIZZA D' ORO","Address":"8468 Indianapolis Ave","City":"Huntington Beach","State":"CA","Zip":"92646"},{"Location":"RICHARD H BALDWIN DMD","Address":"8951 Atlanta Ave","City":"Huntington Beach","State":"CA","Zip":"92646"},{"Location":"ROCKING CREPES","Address":"8943 Atlanta Ave","City":"Huntington Beach","State":"CA","Zip":"92646"},{"Location":"RONALD WRIGHT DDS INC","Address":"20932 Brookhurst St 204","City":"Huntington Beach","State":"CA","Zip":"92646"},{"Location":"RW ELECTRIC","Address":"21592 Surveyor Cir","City":"Huntington Beach","State":"CA","Zip":"92646"},{"Location":"RX PHYSICAL TRAINING","Address":"21501 Brookhurst St F","City":"Huntington Beach","State":"CA","Zip":"92646"},{"Location":"SAKURAI JAPANESE GRILL","Address":"19881 Brookhurst St D","City":"Huntington Beach","State":"CA","Zip":"92646"},{"Location":"SHIMA JAPANESE RESTAURANT","Address":"10076 Adams Ave","City":"Huntington Beach","State":"CA","Zip":"92646"},{"Location":"SLATER 50%2F50","Address":"8082 Adams Ave","City":"Huntington Beach","State":"CA","Zip":"92646"},{"Location":"STRIKE THREE HOSPITALITY","Address":"8052 Adams Ave","City":"Huntington Beach","State":"CA","Zip":"92646"},{"Location":"SURF CITY BARBER","Address":"9944 Hamilton Ave","City":"Huntington Beach","State":"CA","Zip":"92646"},{"Location":"TARGET #2051","Address":"9882 Adams Ave","City":"Huntington Beach","State":"CA","Zip":"92646"},{"Location":"THAI FIX RESTAURANT","Address":"8935 Atlanta Ave","City":"Huntington Beach","State":"CA","Zip":"92646"},{"Location":"THE CORNER","Address":"8961 Adams Ave","City":"Huntington Beach","State":"CA","Zip":"92646"},{"Location":"WOODYS HB","Address":"10136 Adams Ave","City":"Huntington Beach","State":"CA","Zip":"92646"},{"Location":"ZUBIE'S DRY DOCK","Address":"9059 Adams Ave","City":"Huntington Beach","State":"CA","Zip":"92646"}]