[{"Location":"24 HOUR FITNESS #851","Address":"7887 Center Ave","City":"Huntington Beach","State":"CA","Zip":"92647"},{"Location":"ACHIOTE GRILL","Address":"16691 Gothard St","City":"Huntington Beach","State":"CA","Zip":"92647"},{"Location":"AIRTECH INTERNATIONAL INC","Address":"5700 Skylab Rd","City":"Huntington Beach","State":"CA","Zip":"92647"},{"Location":"AKITA BONZAI NURSERY","Address":"8641 Warner Av","City":"Huntington Beach","State":"CA","Zip":"92647"},{"Location":"ALURE","Address":"16552 Gemini Ln","City":"Huntington Beach","State":"CA","Zip":"92647"},{"Location":"AMERICAN NAIL & SPA","Address":"15471 Edwards St B","City":"Huntington Beach","State":"CA","Zip":"92647"},{"Location":"AZTECA'S","Address":"17491 Beach Blvd","City":"Huntington Beach","State":"CA","Zip":"92647"},{"Location":"BEACH CITY BREWERY","Address":"7631 Woodwind Dr","City":"Huntington Beach","State":"CA","Zip":"92647"},{"Location":"BELLATERRA CAR WASH","Address":"16061 Beach Blvd","City":"Huntington Beach","State":"CA","Zip":"92647"},{"Location":"BENZ TEK","Address":"17082 Palmdale Ln B","City":"Huntington Beach","State":"CA","Zip":"92647"},{"Location":"BIGGER FARTHER FASTER","Address":"14520 Delta Ln 105","City":"Huntington Beach","State":"CA","Zip":"92647"},{"Location":"BISTRO LIQUOR INC","Address":"6441 Edinger Ave","City":"Huntington Beach","State":"CA","Zip":"92647"},{"Location":"BJ'S RESTAURANT INC","Address":"7755 Center Ave 300","City":"Huntington Beach","State":"CA","Zip":"92647"},{"Location":"BJS RESTAURANT #419","Address":"16060 Beach Blvd","City":"Huntington Beach","State":"CA","Zip":"92647"},{"Location":"BODY WORKS EXCERCISE EQUIPMENT","Address":"16732 Beach Blvd B","City":"Huntington Beach","State":"CA","Zip":"92647"},{"Location":"BOEING CALIFORNIA EMPLOYEE","Address":"14600 Bolsa Chica Street","City":"Huntington Beach","State":"CA","Zip":"92647"},{"Location":"BOEING NORTH AMERICAN%2CINC.","Address":"5301 Bolsa Ave","City":"Huntington Beach","State":"CA","Zip":"92647"},{"Location":"BREW BAKERS 1","Address":"7242 Heil Ave","City":"Huntington Beach","State":"CA","Zip":"92647"},{"Location":"BUCA DI BEPPO #516","Address":"7979 Center Ave","City":"Huntington Beach","State":"CA","Zip":"92647"},{"Location":"BUDS DIESEL SHOP","Address":"16861 Beach Blvd","City":"Huntington Beach","State":"CA","Zip":"92647"},{"Location":"BUFFALO WILD WINGS #3593","Address":"7811 Edinger Ave 124","City":"Huntington Beach","State":"CA","Zip":"92647"},{"Location":"C AND D ZODIAC","Address":"5701 Bolsa Ave","City":"Huntington Beach","State":"CA","Zip":"92647"},{"Location":"CA REHAB AND SPORTS THERAPY","Address":"6930 Warner Ave","City":"Huntington Beach","State":"CA","Zip":"92647"},{"Location":"CALIFORNIA PIZZA KITCHEN #215","Address":"7851 Edinger Ave","City":"Huntington Beach","State":"CA","Zip":"92647"},{"Location":"CENTERFIELD SPORTS BAR & GRILL","Address":"17296 Beach Blvd","City":"Huntington Beach","State":"CA","Zip":"92647"},{"Location":"CHARLES W. JACKSON%2C MD%2C INC.","Address":"17122 Beach Blvd 102","City":"Huntington Beach","State":"CA","Zip":"92647"},{"Location":"CHERRY ON TOP YOGURT","Address":"7011 Warner Ave N","City":"Huntington Beach","State":"CA","Zip":"92647"},{"Location":"CHERRY STONE IT","Address":"7632 Woodwind Dr 101","City":"Huntington Beach","State":"CA","Zip":"92647"},{"Location":"CHILI'S #0059","Address":"17071 Beach Blvd","City":"Huntington Beach","State":"CA","Zip":"92647"},{"Location":"CHRONIC TACOS HUNTINGTON","Address":"7621 Edinger Ave","City":"Huntington Beach","State":"CA","Zip":"92647"},{"Location":"CLEVELAND GOLF","Address":"5601 Skylab Rd","City":"Huntington Beach","State":"CA","Zip":"92647"},{"Location":"CMK BARBER","Address":"8452 Edinger Ave","City":"Huntington Beach","State":"CA","Zip":"92647"},{"Location":"CORNERSTONE","Address":"16612 Burke Ln","City":"Huntington Beach","State":"CA","Zip":"92647"},{"Location":"CROWNS BARBERSHOP","Address":"6411 Edinger Ave","City":"Huntington Beach","State":"CA","Zip":"92647"},{"Location":"DELTON SCIENTIFIC INC","Address":"7454 Lorge Cir","City":"Huntington Beach","State":"CA","Zip":"92647"},{"Location":"DICK'S SPORTING GOODS #1025","Address":"7542 Edinger Ave","City":"Huntington Beach","State":"CA","Zip":"92647"},{"Location":"DIGITAL PROJECTION INC","Address":"17882 Sampson Ln A","City":"Huntington Beach","State":"CA","Zip":"92647"},{"Location":"DISTRACTIONS LOUNGE","Address":"16612 Beach Blvd C","City":"Huntington Beach","State":"CA","Zip":"92647"},{"Location":"DJM CORP","Address":"7777 Edinger Ave","City":"Huntington Beach","State":"CA","Zip":"92647"},{"Location":"DON  RAMONES","Address":"16961 Golden West","City":"Huntington Beach","State":"CA","Zip":"92647"},{"Location":"EAT AT JOE'S","Address":"7120 Edinger Ave","City":"Huntington Beach","State":"CA","Zip":"92647"},{"Location":"ERIC WIESS","Address":"7411 Belva Dr","City":"Huntington Beach","State":"CA","Zip":"92647"},{"Location":"EUREKA BURGER-HNTINGBEACH","Address":"7631 Edinger Ave Suite","City":"Huntington Beach","State":"CA","Zip":"92647"},{"Location":"FIRESTONE #650137","Address":"16171 Beach Blvd","City":"Huntington Beach","State":"CA","Zip":"92647"},{"Location":"FIRING LINE","Address":"17921 Jamestown Ln","City":"Huntington Beach","State":"CA","Zip":"92647"},{"Location":"FOOSE  DOUGLAS","Address":"17811 Sampson Ln","City":"Huntington Beach","State":"CA","Zip":"92647"},{"Location":"FRESCA'S MEXICAN GRILL","Address":"16062 Goldenwest St","City":"Huntington Beach","State":"CA","Zip":"92647"},{"Location":"FUZION","Address":"7227 Edinger Ave","City":"Huntington Beach","State":"CA","Zip":"92647"},{"Location":"G AND M OIL","Address":"16911 A Ln","City":"Huntington Beach","State":"CA","Zip":"92647"},{"Location":"G&M OIL COMPANY INCORPORTED","Address":"16944 Beach Blvd","City":"Huntington Beach","State":"CA","Zip":"92647"},{"Location":"GEORGES MEXICAN FOOD","Address":"6581 Edinger Ave","City":"Huntington Beach","State":"CA","Zip":"92647"},{"Location":"GOLDEN W COLLEGE%2F STUDENT ACT","Address":"15744 Goldenwest St","City":"Huntington Beach","State":"CA","Zip":"92647"},{"Location":"GREENLEAF ENGINEERING","Address":"16652 Burke Ln","City":"Huntington Beach","State":"CA","Zip":"92647"},{"Location":"GRINDERZ","Address":"7561 Center Ave","City":"Huntington Beach","State":"CA","Zip":"92647"},{"Location":"HARBOR DISTRIBUTING HB","Address":"5901 Bolsa Ave","City":"Huntington Beach","State":"CA","Zip":"92647"},{"Location":"HARRYS CAFE","Address":"6041 Bolsa Ave","City":"Huntington Beach","State":"CA","Zip":"92647"},{"Location":"HARVEY'S STEAKHOUSE","Address":"6060 Warner Ave","City":"Huntington Beach","State":"CA","Zip":"92647"},{"Location":"HB HITS","Address":"16331 Gothard St","City":"Huntington Beach","State":"CA","Zip":"92647"},{"Location":"HB LIQUOR LIQUOR","Address":"6937 Warner Ave","City":"Huntington Beach","State":"CA","Zip":"92647"},{"Location":"HB SMOG","Address":"17281 Beach Blvd Steb","City":"Huntington Beach","State":"CA","Zip":"92647"},{"Location":"HERBST MOTORSPORTS","Address":"14422 Astronautics Ln","City":"Huntington Beach","State":"CA","Zip":"92647"},{"Location":"HERITAGE WINDOW COVERINGS","Address":"17902 Georgetown Ln","City":"Huntington Beach","State":"CA","Zip":"92647"},{"Location":"HUNGINTON BEACH MAZDA","Address":"16800 Beach Blvd","City":"Huntington Beach","State":"CA","Zip":"92647"},{"Location":"HUNTINGTON BEACH CHRYSLER","Address":"16555 Beach Blvd","City":"Huntington Beach","State":"CA","Zip":"92647"},{"Location":"HUNTINGTON BEACH CHRYSLER JEEP","Address":"16701 Beach Blvd","City":"Huntington Beach","State":"CA","Zip":"92647"},{"Location":"HUNTINGTON BEACH HOSPITAL","Address":"17772 Beach Blvd","City":"Huntington Beach","State":"CA","Zip":"92647"},{"Location":"HUNTINGTON BEACH MITSUBISHI","Address":"16751 Beach Blvd","City":"Huntington Beach","State":"CA","Zip":"92647"},{"Location":"I-MAR","Address":"5150 Rancho Rd","City":"Huntington Beach","State":"CA","Zip":"92647"},{"Location":"IDEAL DRAWER BOX INC","Address":"7461 Lorge Cir","City":"Huntington Beach","State":"CA","Zip":"92647"},{"Location":"IMPERIAL AUTO BODY & PAINT INC","Address":"7700 Slater Ave","City":"Huntington Beach","State":"CA","Zip":"92647"},{"Location":"ISLANDS RESTAURANTS #49","Address":"7861 Edinger Ave","City":"Huntington Beach","State":"CA","Zip":"92647"},{"Location":"JERSEY MIKES SUBS","Address":"6041 Bolsa Ave 5","City":"Huntington Beach","State":"CA","Zip":"92647"},{"Location":"JOE'S SUSHI JAPANESE RESTAURAN","Address":"6973 Warner Ave","City":"Huntington Beach","State":"CA","Zip":"92647"},{"Location":"JOHNNYS SALOON","Address":"17428 Beach Blvd","City":"Huntington Beach","State":"CA","Zip":"92647"},{"Location":"KABUKI JAPANESE RESTAURANT","Address":"7801 Edinger Ave 114","City":"Huntington Beach","State":"CA","Zip":"92647"},{"Location":"KING'S FISH HOUSE","Address":"7691 Edinger Ave","City":"Huntington Beach","State":"CA","Zip":"92647"},{"Location":"KOHL'S #654","Address":"7777 Edinger Ave 140","City":"Huntington Beach","State":"CA","Zip":"92647"},{"Location":"LA BOXING HUNTINGTON BEA","Address":"7362 Edinger Ave A","City":"Huntington Beach","State":"CA","Zip":"92647"},{"Location":"LAMPPOST PIZZA","Address":"7071 Warner Ave A","City":"Huntington Beach","State":"CA","Zip":"92647"},{"Location":"LANZINI BODYWORKS INC","Address":"17901 Sampson Ln","City":"Huntington Beach","State":"CA","Zip":"92647"},{"Location":"LIFELETICS","Address":"16702 Burke Ln","City":"Huntington Beach","State":"CA","Zip":"92647"},{"Location":"LIFESTYLE FIXTURES","Address":"15087 Goldenwest St","City":"Huntington Beach","State":"CA","Zip":"92647"},{"Location":"LINKWAY CORPORATION","Address":"17791 Georgetown Ln","City":"Huntington Beach","State":"CA","Zip":"92647"},{"Location":"LIVING SPACES","Address":"6912 Edinger Ave","City":"Huntington Beach","State":"CA","Zip":"92647"},{"Location":"LONGBOARD RESTAURANT PUB","Address":"14892 Springdale St","City":"Huntington Beach","State":"CA","Zip":"92647"},{"Location":"LOWS LIQUOR","Address":"14928 Springdale St","City":"Huntington Beach","State":"CA","Zip":"92647"},{"Location":"MACARONI GRILL #1120","Address":"7901 Edinger Ave","City":"Huntington Beach","State":"CA","Zip":"92647"},{"Location":"MANE MOVES & BODY WORKS","Address":"7171 Warner Ave E","City":"Huntington Beach","State":"CA","Zip":"92647"},{"Location":"MARIO'S FAMILY BARBERS","Address":"14900 Springdale Bolce","City":"Huntington Beach","State":"CA","Zip":"92647"},{"Location":"MAY TIRE SERVICE","Address":"8071 Warner Ave","City":"Huntington Beach","State":"CA","Zip":"92647"},{"Location":"MEDICAL WEIGHT CONTROL","Address":"6953 Warner Ave","City":"Huntington Beach","State":"CA","Zip":"92647"},{"Location":"MEN'S WEARHOUSE #2701","Address":"7738 Edinger Ave","City":"Huntington Beach","State":"CA","Zip":"92647"},{"Location":"MIKES AUTO SERVICE","Address":"17662 Metzler Ln A","City":"Huntington Beach","State":"CA","Zip":"92647"},{"Location":"MIRAGE BUILDERS","Address":"17901 Jamestown Ln","City":"Huntington Beach","State":"CA","Zip":"92647"},{"Location":"NORDSTROM RACK - EDINGER","Address":"7532 Edinger Ave","City":"Huntington Beach","State":"CA","Zip":"92647"},{"Location":"NUVISION FINANCIAL CREDIT UNIO","Address":"7812 Edinger Ave","City":"Huntington Beach","State":"CA","Zip":"92647"},{"Location":"OAKWOOD CORP HOUSING","Address":"7622 Woodwind Dr 82429","City":"Huntington Beach","State":"CA","Zip":"92647"},{"Location":"OCEAN MEDIA","Address":"17011 Beach Blvd 1400","City":"Huntington Beach","State":"CA","Zip":"92647"},{"Location":"OCEAN STORE EDGE LLC.","Address":"17851 Georgetown Ln","City":"Huntington Beach","State":"CA","Zip":"92647"},{"Location":"OLD WORLD GERMAN RESTAURANT","Address":"7561 Center Ave 49","City":"Huntington Beach","State":"CA","Zip":"92647"},{"Location":"OLIVE GARDEN #1653","Address":"16811 Beach Blvd","City":"Huntington Beach","State":"CA","Zip":"92647"},{"Location":"ORANGE COUNTY MATTRESS","Address":"7362 Edinger Ave","City":"Huntington Beach","State":"CA","Zip":"92647"},{"Location":"ORANGE COUNTY TEACHERS FEDERAL","Address":"7251 Warner Ave A","City":"Huntington Beach","State":"CA","Zip":"92647"},{"Location":"P A POON AND SON GYM","Address":"6100 Edinger Ave","City":"Huntington Beach","State":"CA","Zip":"92647"},{"Location":"PACIFIC CAFE HOLDINGS","Address":"6041 Bolsa Ave 7","City":"Huntington Beach","State":"CA","Zip":"92647"},{"Location":"PACIFIC CARPETS INC","Address":"17752 Metzler Ln","City":"Huntington Beach","State":"CA","Zip":"92647"},{"Location":"PACIFIC DENTAL #283","Address":"16071 Goldenwest St","City":"Huntington Beach","State":"CA","Zip":"92647"},{"Location":"PERRYS PIZZA","Address":"6501 Edinger Ave","City":"Huntington Beach","State":"CA","Zip":"92647"},{"Location":"PIZZA HUT 24838","Address":"17342 Beach Blvd","City":"Huntington Beach","State":"CA","Zip":"92647"},{"Location":"PRIMO POWDER COATING","Address":"17592 Gothard St","City":"Huntington Beach","State":"CA","Zip":"92647"},{"Location":"RC PERFORMANCE INC","Address":"17552 Metzler Ln C","City":"Huntington Beach","State":"CA","Zip":"92647"},{"Location":"RICHARD CASTANON MD","Address":"17732 Beach Blvd C","City":"Huntington Beach","State":"CA","Zip":"92647"},{"Location":"RODRIGOS MEXICAN GRILL","Address":"15101 Goldenwest St","City":"Huntington Beach","State":"CA","Zip":"92647"},{"Location":"ROYALL M RACING CORP","Address":"6001 Edinger Ave","City":"Huntington Beach","State":"CA","Zip":"92647"},{"Location":"SAKURA RESTAURANT","Address":"16871 Beach Blvd","City":"Huntington Beach","State":"CA","Zip":"92647"},{"Location":"SCOTTRADE Z04","Address":"7012 Edinger Ave 103","City":"Huntington Beach","State":"CA","Zip":"92647"},{"Location":"SOL COCINA","Address":"7631 Edinger Ave 1508","City":"Huntington Beach","State":"CA","Zip":"92647"},{"Location":"SPIN PIZZA HB 103","Address":"7511 Edinger Ave 101","City":"Huntington Beach","State":"CA","Zip":"92647"},{"Location":"ST GEORGE PIZZA","Address":"8454 Edinger Ave","City":"Huntington Beach","State":"CA","Zip":"92647"},{"Location":"SUBWAY 29955","Address":"17211 Beach Blvd","City":"Huntington Beach","State":"CA","Zip":"92647"},{"Location":"SUNNYS WAFFLE HOUSE","Address":"7148 Edinger Ave","City":"Huntington Beach","State":"CA","Zip":"92647"},{"Location":"SURF CITY DENTAL INC","Address":"7171 Warner Ave C","City":"Huntington Beach","State":"CA","Zip":"92647"},{"Location":"SURF CITY NISSAN","Address":"17331 Beach Blvd","City":"Huntington Beach","State":"CA","Zip":"92647"},{"Location":"SURF CITY TOURNEY INC","Address":"16792 Gothard St","City":"Huntington Beach","State":"CA","Zip":"92647"},{"Location":"SYNERGY PHYSICAL THERAPY","Address":"7451 Warner Ave A","City":"Huntington Beach","State":"CA","Zip":"92647"},{"Location":"TACO DE OJO","Address":"7811 Edinger Ave 110","City":"Huntington Beach","State":"CA","Zip":"92647"},{"Location":"THE BEE HIVE","Address":"6431 Edinger Ave","City":"Huntington Beach","State":"CA","Zip":"92647"},{"Location":"THE CHEESECAKE FACTORY 0108","Address":"7871 Edinger Ave","City":"Huntington Beach","State":"CA","Zip":"92647"},{"Location":"THE GIRL CAVE","Address":"16897 Beach Blvd","City":"Huntington Beach","State":"CA","Zip":"92647"},{"Location":"TRAVISMATHEW","Address":"14520 Delta Ln 104","City":"Huntington Beach","State":"CA","Zip":"92647"},{"Location":"TSCM","Address":"17791 Jamestown Ln","City":"Huntington Beach","State":"CA","Zip":"92647"},{"Location":"TWO BROTHERS PIZZA","Address":"6841 Warner Ave","City":"Huntington Beach","State":"CA","Zip":"92647"},{"Location":"VAN DYNE ENGINEERING","Address":"17696 Metzler Ln","City":"Huntington Beach","State":"CA","Zip":"92647"},{"Location":"WAHOOS FISH TACOS","Address":"7891 Warner Ave","City":"Huntington Beach","State":"CA","Zip":"92647"},{"Location":"WEP INC","Address":"17472 Apex Cir","City":"Huntington Beach","State":"CA","Zip":"92647"},{"Location":"WHOLE FOODS","Address":"7881 Edinger Ave","City":"Huntington Beach","State":"CA","Zip":"92647"}]