[{"Location":"24 HOUR FITNESS #158","Address":"27141 Aliso Creek Rd","City":"Aliso Viejo","State":"CA","Zip":"92656"},{"Location":"ACE TUBE BENDING","Address":"14 Journey","City":"Aliso Viejo","State":"CA","Zip":"92656"},{"Location":"ALISO VIEJO P.T.","Address":"27432 Aliso Creek Rd 100","City":"Aliso Viejo","State":"CA","Zip":"92656"},{"Location":"ALISO VIEJO RESTAURANT","Address":"26611 Aliso Creek Rd A","City":"Aliso Viejo","State":"CA","Zip":"92656"},{"Location":"BEARING ENGINEERS","Address":"27 Argonaut","City":"Aliso Viejo","State":"CA","Zip":"92656"},{"Location":"BERRYMORE PROPERTIES LLC","Address":"90 Summerland Cir","City":"Aliso Viejo","State":"CA","Zip":"92656"},{"Location":"BEYOND THAI CUISINE","Address":"26841 Aliso Creek Rd D","City":"Aliso Viejo","State":"CA","Zip":"92656"},{"Location":"BIG O TIRES 5838","Address":"27812 Aliso Creek Rd E100","City":"Aliso Viejo","State":"CA","Zip":"92656"},{"Location":"BORAS SPORTS TRAINING","Address":"1 University Dr","City":"Aliso Viejo","State":"CA","Zip":"92656"},{"Location":"BRUEGGERS #515","Address":"26921 Aliso Creek Rd","City":"Aliso Viejo","State":"CA","Zip":"92656"},{"Location":"BUFFALO WILD WINGS #3558","Address":"26711 Aliso Creek Rd 100b","City":"Aliso Viejo","State":"CA","Zip":"92656"},{"Location":"CAREMERIDIAN","Address":"18a Journey 200","City":"Aliso Viejo","State":"CA","Zip":"92656"},{"Location":"CARRINGTON MH","Address":"25 Enterprise 500","City":"Aliso Viejo","State":"CA","Zip":"92656"},{"Location":"CARRINGTON MH 15 ENTER","Address":"15 Enterprise","City":"Aliso Viejo","State":"CA","Zip":"92656"},{"Location":"CHILI'S #0495","Address":"26631 Aliso Creek Rd","City":"Aliso Viejo","State":"CA","Zip":"92656"},{"Location":"CIGAR OASIS LOUNGE","Address":"26731 Aliso Creek Rd","City":"Aliso Viejo","State":"CA","Zip":"92656"},{"Location":"COSMOS ITALIAN KITCHEN","Address":"23411 Aliso Viejo Pkwy A","City":"Aliso Viejo","State":"CA","Zip":"92656"},{"Location":"EL DORADO HAND CAR WASH","Address":"26815 La Paz Rd","City":"Aliso Viejo","State":"CA","Zip":"92656"},{"Location":"FIRST CLASS GLASS","Address":"35 Brookline","City":"Aliso Viejo","State":"CA","Zip":"92656"},{"Location":"HERTIGE FIELDS EL TORO LLC 1","Address":"25 Enterprise 400","City":"Aliso Viejo","State":"CA","Zip":"92656"},{"Location":"INKA MAMAS","Address":"26741 Aliso Creek Rd E","City":"Aliso Viejo","State":"CA","Zip":"92656"},{"Location":"JMJ FINANCIAL","Address":"26800 Aliso Viejo Pkwy 201","City":"Aliso Viejo","State":"CA","Zip":"92656"},{"Location":"JUNE&JAY INC","Address":"26952 La Paz Rd F","City":"Aliso Viejo","State":"CA","Zip":"92656"},{"Location":"MACARONI GRILL #1145","Address":"26641 Aliso Creek Rd","City":"Aliso Viejo","State":"CA","Zip":"92656"},{"Location":"NAGOYA SUSHI","Address":"27792 Aliso Creek Rd B130","City":"Aliso Viejo","State":"CA","Zip":"92656"},{"Location":"NELSON BROTHERS PROPERTY","Address":"16b Journey","City":"Aliso Viejo","State":"CA","Zip":"92656"},{"Location":"NUTRA SHOP","Address":"26705 Aliso Creek Rd D","City":"Aliso Viejo","State":"CA","Zip":"92656"},{"Location":"PACIFIC FIN KITCHEN4","Address":"26811 Aliso Creek Rd","City":"Aliso Viejo","State":"CA","Zip":"92656"},{"Location":"PACIFIC FINANCIAL PLANNERS","Address":"27001 Moulton Pkwy 200","City":"Aliso Viejo","State":"CA","Zip":"92656"},{"Location":"PEPPINOS PIZZERIA","Address":"26952 La Paz Rd A","City":"Aliso Viejo","State":"CA","Zip":"92656"},{"Location":"QUEST SOFTWARE","Address":"6 Journey 100","City":"Aliso Viejo","State":"CA","Zip":"92656"},{"Location":"RENAISSANCE CLUBSPORT","Address":"50 Enterprise","City":"Aliso Viejo","State":"CA","Zip":"92656"},{"Location":"RENASANCE CLUBSPORT POOL","Address":"50 Enterprise","City":"Aliso Viejo","State":"CA","Zip":"92656"},{"Location":"STADIUM BREWING COMPANY","Address":"26731 Aliso Creek Rd C","City":"Aliso Viejo","State":"CA","Zip":"92656"},{"Location":"SUSHI KANPAI","Address":"26601 Aliso Creek Rd A","City":"Aliso Viejo","State":"CA","Zip":"92656"},{"Location":"TARGET STORES","Address":"26932 La Paz Rd","City":"Aliso Viejo","State":"CA","Zip":"92656"},{"Location":"TELOGIS INC","Address":"20 Enterprise 100","City":"Aliso Viejo","State":"CA","Zip":"92656"},{"Location":"THE CENTER STAGE STUDIO","Address":"27101 Aliso Creek Rd 136","City":"Aliso Viejo","State":"CA","Zip":"92656"},{"Location":"UPS","Address":"22 Brookline","City":"Aliso Viejo","State":"CA","Zip":"92656"},{"Location":"VALLI ARCHITECTUAL GROUP","Address":"12 Journey 270","City":"Aliso Viejo","State":"CA","Zip":"92656"},{"Location":"WREATH EQUITY LLC","Address":"26611 Aliso Creek Rd C","City":"Aliso Viejo","State":"CA","Zip":"92656"},{"Location":"ZEN","Address":"26952 La Paz Rd B","City":"Aliso Viejo","State":"CA","Zip":"92656"},{"Location":"24 HOUR FITNESS #158","Address":"27141 Aliso Creek Rd","City":"Aliso Viejo","State":"CA","Zip":"92656"},{"Location":"ACE TUBE BENDING","Address":"14 Journey","City":"Aliso Viejo","State":"CA","Zip":"92656"},{"Location":"ALISO VIEJO P.T.","Address":"27432 Aliso Creek Rd 100","City":"Aliso Viejo","State":"CA","Zip":"92656"},{"Location":"ALISO VIEJO RESTAURANT","Address":"26611 Aliso Creek Rd A","City":"Aliso Viejo","State":"CA","Zip":"92656"},{"Location":"BEARING ENGINEERS","Address":"27 Argonaut","City":"Aliso Viejo","State":"CA","Zip":"92656"},{"Location":"BERRYMORE PROPERTIES LLC","Address":"90 Summerland Cir","City":"Aliso Viejo","State":"CA","Zip":"92656"},{"Location":"BEYOND THAI CUISINE","Address":"26841 Aliso Creek Rd D","City":"Aliso Viejo","State":"CA","Zip":"92656"},{"Location":"BIG O TIRES 5838","Address":"27812 Aliso Creek Rd E100","City":"Aliso Viejo","State":"CA","Zip":"92656"},{"Location":"BORAS SPORTS TRAINING","Address":"1 University Dr","City":"Aliso Viejo","State":"CA","Zip":"92656"},{"Location":"BRUEGGERS #515","Address":"26921 Aliso Creek Rd","City":"Aliso Viejo","State":"CA","Zip":"92656"},{"Location":"BUFFALO WILD WINGS #3558","Address":"26711 Aliso Creek Rd 100b","City":"Aliso Viejo","State":"CA","Zip":"92656"},{"Location":"CAREMERIDIAN","Address":"18a Journey 200","City":"Aliso Viejo","State":"CA","Zip":"92656"},{"Location":"CARRINGTON MH","Address":"25 Enterprise 500","City":"Aliso Viejo","State":"CA","Zip":"92656"},{"Location":"CARRINGTON MH 15 ENTER","Address":"15 Enterprise","City":"Aliso Viejo","State":"CA","Zip":"92656"},{"Location":"CHILI'S #0495","Address":"26631 Aliso Creek Rd","City":"Aliso Viejo","State":"CA","Zip":"92656"},{"Location":"CIGAR OASIS LOUNGE","Address":"26731 Aliso Creek Rd","City":"Aliso Viejo","State":"CA","Zip":"92656"},{"Location":"COSMOS ITALIAN KITCHEN","Address":"23411 Aliso Viejo Pkwy A","City":"Aliso Viejo","State":"CA","Zip":"92656"},{"Location":"EL DORADO HAND CAR WASH","Address":"26815 La Paz Rd","City":"Aliso Viejo","State":"CA","Zip":"92656"},{"Location":"FIRST CLASS GLASS","Address":"35 Brookline","City":"Aliso Viejo","State":"CA","Zip":"92656"},{"Location":"HERTIGE FIELDS EL TORO LLC 1","Address":"25 Enterprise 400","City":"Aliso Viejo","State":"CA","Zip":"92656"},{"Location":"INKA MAMAS","Address":"26741 Aliso Creek Rd E","City":"Aliso Viejo","State":"CA","Zip":"92656"},{"Location":"JMJ FINANCIAL","Address":"26800 Aliso Viejo Pkwy 201","City":"Aliso Viejo","State":"CA","Zip":"92656"},{"Location":"JUNE&JAY INC","Address":"26952 La Paz Rd F","City":"Aliso Viejo","State":"CA","Zip":"92656"},{"Location":"MACARONI GRILL #1145","Address":"26641 Aliso Creek Rd","City":"Aliso Viejo","State":"CA","Zip":"92656"},{"Location":"NAGOYA SUSHI","Address":"27792 Aliso Creek Rd B130","City":"Aliso Viejo","State":"CA","Zip":"92656"},{"Location":"NELSON BROTHERS PROPERTY","Address":"16b Journey","City":"Aliso Viejo","State":"CA","Zip":"92656"},{"Location":"NUTRA SHOP","Address":"26705 Aliso Creek Rd D","City":"Aliso Viejo","State":"CA","Zip":"92656"},{"Location":"PACIFIC FIN KITCHEN4","Address":"26811 Aliso Creek Rd","City":"Aliso Viejo","State":"CA","Zip":"92656"},{"Location":"PACIFIC FINANCIAL PLANNERS","Address":"27001 Moulton Pkwy 200","City":"Aliso Viejo","State":"CA","Zip":"92656"},{"Location":"PEPPINOS PIZZERIA","Address":"26952 La Paz Rd A","City":"Aliso Viejo","State":"CA","Zip":"92656"},{"Location":"QUEST SOFTWARE","Address":"6 Journey 100","City":"Aliso Viejo","State":"CA","Zip":"92656"},{"Location":"RENAISSANCE CLUBSPORT","Address":"50 Enterprise","City":"Aliso Viejo","State":"CA","Zip":"92656"},{"Location":"RENASANCE CLUBSPORT POOL","Address":"50 Enterprise","City":"Aliso Viejo","State":"CA","Zip":"92656"},{"Location":"STADIUM BREWING COMPANY","Address":"26731 Aliso Creek Rd C","City":"Aliso Viejo","State":"CA","Zip":"92656"},{"Location":"SUSHI KANPAI","Address":"26601 Aliso Creek Rd A","City":"Aliso Viejo","State":"CA","Zip":"92656"},{"Location":"TARGET STORES","Address":"26932 La Paz Rd","City":"Aliso Viejo","State":"CA","Zip":"92656"},{"Location":"TELOGIS INC","Address":"20 Enterprise 100","City":"Aliso Viejo","State":"CA","Zip":"92656"},{"Location":"THE CENTER STAGE STUDIO","Address":"27101 Aliso Creek Rd 136","City":"Aliso Viejo","State":"CA","Zip":"92656"},{"Location":"UPS","Address":"22 Brookline","City":"Aliso Viejo","State":"CA","Zip":"92656"},{"Location":"VALLI ARCHITECTUAL GROUP","Address":"12 Journey 270","City":"Aliso Viejo","State":"CA","Zip":"92656"},{"Location":"WREATH EQUITY LLC","Address":"26611 Aliso Creek Rd C","City":"Aliso Viejo","State":"CA","Zip":"92656"},{"Location":"ZEN","Address":"26952 La Paz Rd B","City":"Aliso Viejo","State":"CA","Zip":"92656"}]