[{"Location":"MEHRENS INVESTMENTS  INC","Address":"26548 Moulton Pkwy M","City":"Aliso Viejo","State":"CA","Zip":"92653"},{"Location":"SIGN WORLD","Address":"26081 Merit Cir 102","City":"Laguna Beach","State":"CA","Zip":"92653"},{"Location":"24 HOUR FITNESS #124","Address":"25252 Mcintyre St","City":"Laguna Hills","State":"CA","Zip":"92653"},{"Location":"ACTIVE CAPTIVE MGMT","Address":"24422 Avenida De La Carlota","City":"Laguna Hills","State":"CA","Zip":"92653"},{"Location":"ADVANCED PHYSICAL THERAPY","Address":"24422 Aveinda De La Carolta","City":"Laguna Hills","State":"CA","Zip":"92653"},{"Location":"ALICIA AUTO SPA","Address":"24795 Alicia Pkwy 200","City":"Laguna Hills","State":"CA","Zip":"92653"},{"Location":"ALICIAS SURGERY CENTER","Address":"25211 Paseo De Lucia","City":"Laguna Hills","State":"CA","Zip":"92653"},{"Location":"ANGEL SPA NAILS","Address":"24401 Ridge Route Dr 106","City":"Laguna Hills","State":"CA","Zip":"92653"},{"Location":"AUTO REPAIR","Address":"23221 Peralta Dr","City":"Laguna Hills","State":"CA","Zip":"92653"},{"Location":"BAJA FISH TACOS","Address":"23020 Lake Forest Dr 130","City":"Laguna Hills","State":"CA","Zip":"92653"},{"Location":"BJS RESTAURANT #438","Address":"24032 El Toro Rd","City":"Laguna Hills","State":"CA","Zip":"92653"},{"Location":"CALIFORNIA PIZZA KITCHEN #45","Address":"24155 Laguna Hills Mall 100","City":"Laguna Hills","State":"CA","Zip":"92653"},{"Location":"CENTURY TRANSPORTATION","Address":"26071 Merit Cir","City":"Laguna Hills","State":"CA","Zip":"92653"},{"Location":"COLUMBIA ALISO LLC","Address":"23091 Mill Creek Dr","City":"Laguna Hills","State":"CA","Zip":"92653"},{"Location":"COOL TEC","Address":"25811 Maple View Dr","City":"Laguna Hills","State":"CA","Zip":"92653"},{"Location":"CORNER 3 CORPORATION","Address":"22701 Granite Way B","City":"Laguna Hills","State":"CA","Zip":"92653"},{"Location":"DAVITA #2079 LAGUNA HILLS","Address":"25332 Cabot Rd","City":"Laguna Hills","State":"CA","Zip":"92653"},{"Location":"DAVITA #4061 SADDLEBACK","Address":"23141 Plaza Pointe Dr","City":"Laguna Hills","State":"CA","Zip":"92653"},{"Location":"DND FOODS INC","Address":"24422 Avenida De La Carlota 215","City":"Laguna Hills","State":"CA","Zip":"92653"},{"Location":"DORIS SAUNDERS","Address":"25401 Grissom Rd","City":"Laguna Hills","State":"CA","Zip":"92653"},{"Location":"DR ROTHS OFFICE","Address":"24741 Alicia Pkwy A","City":"Laguna Hills","State":"CA","Zip":"92653"},{"Location":"E-CIG GALLERY","Address":"24781 Alicia Pkwy","City":"Laguna Hills","State":"CA","Zip":"92653"},{"Location":"EL TORITO 7043","Address":"24301 Avenida De La Carlota","City":"Laguna Hills","State":"CA","Zip":"92653"},{"Location":"ELTORO WATER DISTRICT","Address":"23452 Moulton Pkwy","City":"Laguna Hills","State":"CA","Zip":"92653"},{"Location":"FARMERS AND MERCHANTS BANK","Address":"24300 Paseo De Valencia","City":"Laguna Hills","State":"CA","Zip":"92653"},{"Location":"FINEST EURO CLASSICS","Address":"23502 Commerce Center Dr","City":"Laguna Hills","State":"CA","Zip":"92653"},{"Location":"FIRESTONE #650145","Address":"24196 Laguna Hills Mall","City":"Laguna Hills","State":"CA","Zip":"92653"},{"Location":"FLAMINGOS MEXICAN GRILL","Address":"25342 Mcintyre St","City":"Laguna Hills","State":"CA","Zip":"92653"},{"Location":"FLOORING RESTORATION INC","Address":"23541 Ridge Route Dr C","City":"Laguna Hills","State":"CA","Zip":"92653"},{"Location":"G E PACKAGING INC","Address":"22982 La Cadena Dr 217","City":"Laguna Hills","State":"CA","Zip":"92653"},{"Location":"GOODYEAR 8662","Address":"24099 Laguna Hills Mall","City":"Laguna Hills","State":"CA","Zip":"92653"},{"Location":"GRILL CAFE INC","Address":"24781 Alicia Pkwy B","City":"Laguna Hills","State":"CA","Zip":"92653"},{"Location":"JCTEES.COM CORPORATION","Address":"23112 Alcalde Dr B","City":"Laguna Hills","State":"CA","Zip":"92653"},{"Location":"JEROMES LAGUNA HILLS","Address":"23401 Avenida De La Carlota","City":"Laguna Hills","State":"CA","Zip":"92653"},{"Location":"JOSE DON MEX REST","Address":"23972 Avenida De La Carlota","City":"Laguna Hills","State":"CA","Zip":"92653"},{"Location":"KING'S FISH HOUSE","Address":"24001 Avenida De La Carlota","City":"Laguna Hills","State":"CA","Zip":"92653"},{"Location":"L V O A","Address":"23300 Santa Victoria","City":"Laguna Hills","State":"CA","Zip":"92653"},{"Location":"LAGUNA HILL AUTO SPA","Address":"25172 Cabot Rd","City":"Laguna Hills","State":"CA","Zip":"92653"},{"Location":"LAGUNA HILLS HEALTH","Address":"24452 Health Center Dr","City":"Laguna Hills","State":"CA","Zip":"92653"},{"Location":"LINCOLN PROPERTY MGT","Address":"24422 Avenida De La Carlota 270","City":"Laguna Hills","State":"CA","Zip":"92653"},{"Location":"LONESTAR STEAKHOUSE #9003-TRP","Address":"24231 Avenida De La Carlota","City":"Laguna Hills","State":"CA","Zip":"92653"},{"Location":"MACY'S WEST 529","Address":"24100 Laguna Hills Mall","City":"Laguna Hills","State":"CA","Zip":"92653"},{"Location":"MACY'S WEST 529 BR","Address":"24100 Laguna Hills Mall","City":"Laguna Hills","State":"CA","Zip":"92653"},{"Location":"MARDIS JEWERLY DESIGN","Address":"25620 Alicia  Pwky","City":"Laguna Hills","State":"CA","Zip":"92653"},{"Location":"MDS PRODUCTS","Address":"22991 La Cadena Dr","City":"Laguna Hills","State":"CA","Zip":"92653"},{"Location":"MOUNTAIN MIKES PIZZA LAGUNA","Address":"25292 Mcintyre St A","City":"Laguna Hills","State":"CA","Zip":"92653"},{"Location":"MVP SPORTS CARDS","Address":"24881 Alicia Pkwy J","City":"Laguna Hills","State":"CA","Zip":"92653"},{"Location":"NATRAJ COUSINE OF INDIA","Address":"24861 Alicia Pkwy","City":"Laguna Hills","State":"CA","Zip":"92653"},{"Location":"NELLIE GAIL RANCH","Address":"25202 Nellie Gail Rd","City":"Laguna Hills","State":"CA","Zip":"92653"},{"Location":"NELLY GAIL RANCH","Address":"25211 Empty Saddle Dr","City":"Laguna Hills","State":"CA","Zip":"92653"},{"Location":"NORDSTROM RACK","Address":"23541 Calle De La Louisa","City":"Laguna Hills","State":"CA","Zip":"92653"},{"Location":"OFF THE VINE","Address":"26651 Cabot Rd","City":"Laguna Hills","State":"CA","Zip":"92653"},{"Location":"OOMBA INC","Address":"24155 Laguna Hills Mall 1520","City":"Laguna Hills","State":"CA","Zip":"92653"},{"Location":"OUTBACK STEAKHOUSE #0562","Address":"25322 Cabot Rd","City":"Laguna Hills","State":"CA","Zip":"92653"},{"Location":"PARMENTIER CONSULTING","Address":"23192 Verdugo Dr C","City":"Laguna Hills","State":"CA","Zip":"92653"},{"Location":"PENNYVISION LLC","Address":"25481 Alicia Pkwy","City":"Laguna Hills","State":"CA","Zip":"92653"},{"Location":"PITA PITA","Address":"23052 Lake Forest Dr","City":"Laguna Hills","State":"CA","Zip":"92653"},{"Location":"PIZZA 900","Address":"23020 Lake Forest Dr","City":"Laguna Hills","State":"CA","Zip":"92653"},{"Location":"PIZZA STORE AND MORE","Address":"25610 Alicia Pkwy","City":"Laguna Hills","State":"CA","Zip":"92653"},{"Location":"PLAYERS SPORTS GRILL","Address":"24401 Ridge Route Dr B105","City":"Laguna Hills","State":"CA","Zip":"92653"},{"Location":"PROFESSIONAL NAIL & SPA","Address":"25292 Mcintyre St B","City":"Laguna Hills","State":"CA","Zip":"92653"},{"Location":"ROMANO CUCINA","Address":"25214 Cabot Rd","City":"Laguna Hills","State":"CA","Zip":"92653"},{"Location":"SADDLEBACK DENTISTRY","Address":"24012 Avenida De La Carlota","City":"Laguna Hills","State":"CA","Zip":"92653"},{"Location":"SATELLITE DIALYISIS -LH","Address":"25251 Paseo De Alicia","City":"Laguna Hills","State":"CA","Zip":"92653"},{"Location":"SLEEP 4 LESS","Address":"23034 Lake Forest Dr A","City":"Laguna Hills","State":"CA","Zip":"92653"},{"Location":"TACO STAR","Address":"24012 Avenida De La Carlota","City":"Laguna Hills","State":"CA","Zip":"92653"},{"Location":"TERRA MIA PIZZARIA","Address":"24731 Alicia Pkwy E","City":"Laguna Hills","State":"CA","Zip":"92653"},{"Location":"UNIQUE GIFTS 4 LESS","Address":"23200 Del Lago Dr","City":"Laguna Hills","State":"CA","Zip":"92653"},{"Location":"UNITED PARCEL SERVICE","Address":"25201 Paseo De Alicia 200","City":"Laguna Hills","State":"CA","Zip":"92653"},{"Location":"VALOR HEALTH CARE","Address":"25292 Mcintyre St K","City":"Laguna Hills","State":"CA","Zip":"92653"},{"Location":"VILLAROMA","Address":"25254 La Paz Rd","City":"Laguna Hills","State":"CA","Zip":"92653"},{"Location":"WIENERSCHNITZEL","Address":"25202 Cabot Rd","City":"Laguna Hills","State":"CA","Zip":"92653"},{"Location":"WOODY'S DINER","Address":"24321 Avenida De La Carlota H1","City":"Laguna Hills","State":"CA","Zip":"92653"}]