[{"Location":"MASTROS OCEAN CLUB","Address":"8112 E Coast Hwy","City":"Newport Beach","State":"CA","Zip":"92657"},{"Location":"PRIME A INVESTMENTS LLC","Address":"12 Skyridge","City":"Newport Beach","State":"CA","Zip":"92657"},{"Location":"CIC TRUST","Address":"1 Barrington Ct","City":"Newport Coast","State":"CA","Zip":"92657"},{"Location":"NEWPORT FUSION SUSHI","Address":"21135 Newport Coast Dr","City":"Newport Coast","State":"CA","Zip":"92657"},{"Location":"PACIFIC FIN KITCHEN INC","Address":"21119 Newport Coast Dr","City":"Newport Coast","State":"CA","Zip":"92657"},{"Location":"PAVILIONS","Address":"21181 Newport Coast Dr","City":"Newport Coast","State":"CA","Zip":"92657"},{"Location":"PELCIAN HILL RESORT","Address":"5700 E Coast Hwy","City":"Newport Coast","State":"CA","Zip":"92657"},{"Location":"RESORT AT PELICAN HILL","Address":"22701 Pelican Hill Rd S","City":"Newport Coast","State":"CA","Zip":"92657"},{"Location":"SALON BELLAGGIO INC","Address":"21165 Newport Coast Dr","City":"Newport Coast","State":"CA","Zip":"92657"},{"Location":"ZOVS NEWPORT COAST","Address":"21123 Newport Coast Dr","City":"Newport Coast","State":"CA","Zip":"92657"},{"Location":"MASTROS OCEAN CLUB","Address":"8112 E Coast Hwy","City":"Newport Beach","State":"CA","Zip":"92657"},{"Location":"PRIME A INVESTMENTS LLC","Address":"12 Skyridge","City":"Newport Beach","State":"CA","Zip":"92657"},{"Location":"CIC TRUST","Address":"1 Barrington Ct","City":"Newport Coast","State":"CA","Zip":"92657"},{"Location":"NEWPORT FUSION SUSHI","Address":"21135 Newport Coast Dr","City":"Newport Coast","State":"CA","Zip":"92657"},{"Location":"PACIFIC FIN KITCHEN INC","Address":"21119 Newport Coast Dr","City":"Newport Coast","State":"CA","Zip":"92657"},{"Location":"PAVILIONS","Address":"21181 Newport Coast Dr","City":"Newport Coast","State":"CA","Zip":"92657"},{"Location":"PELCIAN HILL RESORT","Address":"5700 E Coast Hwy","City":"Newport Coast","State":"CA","Zip":"92657"},{"Location":"RESORT AT PELICAN HILL","Address":"22701 Pelican Hill Rd S","City":"Newport Coast","State":"CA","Zip":"92657"},{"Location":"SALON BELLAGGIO INC","Address":"21165 Newport Coast Dr","City":"Newport Coast","State":"CA","Zip":"92657"},{"Location":"ZOVS NEWPORT COAST","Address":"21123 Newport Coast Dr","City":"Newport Coast","State":"CA","Zip":"92657"}]