[{"Location":"2 BELLA INC","Address":"260 Forest Ave","City":"Laguna Beach","State":"CA","Zip":"92651"},{"Location":"ALESSA LAGUNA BEACH","Address":"234 Forest Ave","City":"Laguna Beach","State":"CA","Zip":"92651"},{"Location":"ALISO CREEK INN GOLF COURSE","Address":"31106 Coast Hwy","City":"Laguna Beach","State":"CA","Zip":"92651"},{"Location":"ART SELLERS","Address":"1294 S Coast Hwy B","City":"Laguna Beach","State":"CA","Zip":"92651"},{"Location":"BELO BLOW DRY BAR LLC","Address":"302 Forest Ave","City":"Laguna Beach","State":"CA","Zip":"92651"},{"Location":"BJ'S RESTAURANT #404","Address":"280 S Coast Hwy","City":"Laguna Beach","State":"CA","Zip":"92651"},{"Location":"BROADWAY","Address":"328 Glenneyre St","City":"Laguna Beach","State":"CA","Zip":"92651"},{"Location":"CALIFORNIA HOTELS","Address":"384 Forest Ave 26","City":"Laguna Beach","State":"CA","Zip":"92651"},{"Location":"CITY CLEANERS","Address":"224 Ocean Ave","City":"Laguna Beach","State":"CA","Zip":"92651"},{"Location":"COAST MOTOR SPORTS","Address":"32342 Coast Hwy","City":"Laguna Beach","State":"CA","Zip":"92651"},{"Location":"COYOTE GRILL","Address":"31621 Coast Hwy","City":"Laguna Beach","State":"CA","Zip":"92651"},{"Location":"GINAS PIZZA","Address":"610 N Coast Hwy","City":"Laguna Beach","State":"CA","Zip":"92651"},{"Location":"HENNESSEYS TAVERN INC","Address":"213 Ocean Ave","City":"Laguna Beach","State":"CA","Zip":"92651"},{"Location":"HOTEL LAGUNA BAR","Address":"425 S Coast Hwy","City":"Laguna Beach","State":"CA","Zip":"92651"},{"Location":"HOUSE OF BIG FISH","Address":"540 S Coast Hwy 200","City":"Laguna Beach","State":"CA","Zip":"92651"},{"Location":"LAGUNA ASSET MANAGMENT LLC","Address":"465 Panorama Dr","City":"Laguna Beach","State":"CA","Zip":"92651"},{"Location":"LAS BRISAS","Address":"361 Cliff Dr","City":"Laguna Beach","State":"CA","Zip":"92651"},{"Location":"LUQUNA BEACH BATTING CAGES","Address":"2003 Laguna Canyon Rd","City":"Laguna Beach","State":"CA","Zip":"92651"},{"Location":"MARE CULINARY LOUNGE","Address":"696 S Coast Hwy","City":"Laguna Beach","State":"CA","Zip":"92651"},{"Location":"MARINE ROOM TAVERN","Address":"214 Ocean Ave","City":"Laguna Beach","State":"CA","Zip":"92651"},{"Location":"MC AVILAS INC","Address":"1305 S Coast Hwy","City":"Laguna Beach","State":"CA","Zip":"92651"},{"Location":"MONTAGE RESORT (0055055)","Address":"30801 Coast Hwy","City":"Laguna Beach","State":"CA","Zip":"92651"},{"Location":"MOZAMBIQUE STEAK HOUSE","Address":"1740 S Coast Hwy","City":"Laguna Beach","State":"CA","Zip":"92651"},{"Location":"NEAPOLITAN RESTAURANT","Address":"31542 Coast Hwy","City":"Laguna Beach","State":"CA","Zip":"92651"},{"Location":"O FINE JAPANESE CUISINE","Address":"30872 Coast Hwy","City":"Laguna Beach","State":"CA","Zip":"92651"},{"Location":"OKURA","Address":"858 S Coast Hwy","City":"Laguna Beach","State":"CA","Zip":"92651"},{"Location":"PALESTRA LLC","Address":"250 Brooks St","City":"Laguna Beach","State":"CA","Zip":"92651"},{"Location":"PIZZA LOUNGE","Address":"397 S Coast Hwy","City":"Laguna Beach","State":"CA","Zip":"92651"},{"Location":"RKW LEGACY PARTNERS","Address":"30802 Coast Hwy H3","City":"Laguna Beach","State":"CA","Zip":"92651"},{"Location":"SELANNES STEAK TAVERN","Address":"1464 S Coast Hwy","City":"Laguna Beach","State":"CA","Zip":"92651"},{"Location":"SEVEN 4 ONE","Address":"741 S Coast Hwy","City":"Laguna Beach","State":"CA","Zip":"92651"},{"Location":"SUPERIOR WALL SYSTEM","Address":"43 Lagunita Dr","City":"Laguna Beach","State":"CA","Zip":"92651"},{"Location":"SUSHI LAGUNA","Address":"231 Ocean Ave","City":"Laguna Beach","State":"CA","Zip":"92651"},{"Location":"THE CLIFF RESTAURANT A","Address":"577 S Coast Hwy","City":"Laguna Beach","State":"CA","Zip":"92651"},{"Location":"THE SALOON","Address":"446 S Coast Hwy","City":"Laguna Beach","State":"CA","Zip":"92651"},{"Location":"THE WHITE HOUSE","Address":"340 S Coast Hwy","City":"Laguna Beach","State":"CA","Zip":"92651"},{"Location":"TOES ON THE NOES","Address":"276 S Coast Hwy","City":"Laguna Beach","State":"CA","Zip":"92651"},{"Location":"TORTILLA REPUBLIC","Address":"480 S Coast Hwy","City":"Laguna Beach","State":"CA","Zip":"92651"},{"Location":"TPURCELL","Address":"214 Ocean Ave A7","City":"Laguna Beach","State":"CA","Zip":"92651"},{"Location":"WHOLE FOODS MARKET","Address":"283 Broadway","City":"Laguna Beach","State":"CA","Zip":"92651"},{"Location":"WILLIAM F FLYNN AND ASSOC INC","Address":"801 Glenneyre St A","City":"Laguna Beach","State":"CA","Zip":"92651"},{"Location":"Z PIZZA","Address":"30822 Pacific Coast Highway","City":"Laguna Beach","State":"CA","Zip":"92651"},{"Location":"ZEYTUNE","Address":"412 N Coast Hwy","City":"Laguna Beach","State":"CA","Zip":"92651"}]