[{"Location":"3 THIRTY 3 WATERFRONT","Address":"333 Bayside Dr","City":"Newport Beach","State":"CA","Zip":"92660"},{"Location":"AEROCOM","Address":"20341 Irvine Ave D","City":"Newport Beach","State":"CA","Zip":"92660"},{"Location":"AIKIDO SHIN DO KAN","Address":"2018 Quail St","City":"Newport Beach","State":"CA","Zip":"92660"},{"Location":"ANDREW L YOUNGQUIST CONSTRUCTI","Address":"1851 Braemar Way","City":"Newport Beach","State":"CA","Zip":"92660"},{"Location":"AVALONBAY COMMUNITIES INC","Address":"4440 Von Karman Ave 300","City":"Newport Beach","State":"CA","Zip":"92660"},{"Location":"BACK BAY MEDICAL","Address":"20311 Sw Acacia St 100","City":"Newport Beach","State":"CA","Zip":"92660"},{"Location":"BANK DIRECT CAPITAL FINA","Address":"660 Newport Center Dr 1050","City":"Newport Beach","State":"CA","Zip":"92660"},{"Location":"BARBERY COAST HAIR STUDIO","Address":"4255 Martingale Way B","City":"Newport Beach","State":"CA","Zip":"92660"},{"Location":"BEAR BRAND RANCH COMPANY","Address":"1 Upper Newport Plz","City":"Newport Beach","State":"CA","Zip":"92660"},{"Location":"BEECH  STREET CAPITAL","Address":"660 Newport Center Dr 1240","City":"Newport Beach","State":"CA","Zip":"92660"},{"Location":"BENIHANA #1014 NEWPORT BEACH","Address":"4250 Birch St","City":"Newport Beach","State":"CA","Zip":"92660"},{"Location":"BIG CANYON CC AUDIO","Address":"1 Big Canyon Dr","City":"Newport Beach","State":"CA","Zip":"92660"},{"Location":"BIG CANYON CC GYM","Address":"1 Big Canyon Dr","City":"Newport Beach","State":"CA","Zip":"92660"},{"Location":"BIG CANYON COUNTRY CLUB","Address":"1 Big Canyon Dr","City":"Newport Beach","State":"CA","Zip":"92660"},{"Location":"BLOOMINGDALES","Address":"701 Newport Center Dr","City":"Newport Beach","State":"CA","Zip":"92660"},{"Location":"BLUE GIRL MOVING AND STORAGE","Address":"519 Promontory Dr E","City":"Newport Beach","State":"CA","Zip":"92660"},{"Location":"BODY DESIGN","Address":"210 Newport Center Dr 3","City":"Newport Beach","State":"CA","Zip":"92660"},{"Location":"BOSC INC - NEWPORT BEACH","Address":"1301 Dove St 350","City":"Newport Beach","State":"CA","Zip":"92660"},{"Location":"BOSSCAT KITCHEN","Address":"4647 Macarthur Blvd","City":"Newport Beach","State":"CA","Zip":"92660"},{"Location":"BREMER WHYTE BROWN &OMEAA LLP","Address":"20320 Sw Birch St 2","City":"Newport Beach","State":"CA","Zip":"92660"},{"Location":"CABO RENTALS INC","Address":"20291 Sw Cypress St","City":"Newport Beach","State":"CA","Zip":"92660"},{"Location":"CANALETTO NEWPORT BEACH","Address":"545 Newport Center Dr","City":"Newport Beach","State":"CA","Zip":"92660"},{"Location":"CBRE","Address":"5000 Birch St 2300","City":"Newport Beach","State":"CA","Zip":"92660"},{"Location":"CDM CLEANERS","Address":"1628 San Miguel Dr","City":"Newport Beach","State":"CA","Zip":"92660"},{"Location":"CHAMPAGNES DELI & GRILL","Address":"1260 Bison Ave D3","City":"Newport Beach","State":"CA","Zip":"92660"},{"Location":"CHORD ADVISORS","Address":"3300 Irvine Ave 350","City":"Newport Beach","State":"CA","Zip":"92660"},{"Location":"CHRONIC TACOS","Address":"1120 Irvine Ave","City":"Newport Beach","State":"CA","Zip":"92660"},{"Location":"CLUB NAILS","Address":"1000 Bristol St N 16","City":"Newport Beach","State":"CA","Zip":"92660"},{"Location":"CNB - NEWPORT BEACH","Address":"4040 Macarthur Blvd 100","City":"Newport Beach","State":"CA","Zip":"92660"},{"Location":"COMMERCEWEST BANK","Address":"4440 Von Karman Ave","City":"Newport Beach","State":"CA","Zip":"92660"},{"Location":"COUNTER BURGER","Address":"1104 Irvine Ave","City":"Newport Beach","State":"CA","Zip":"92660"},{"Location":"CROWELL WEEDON","Address":"660 Newport Center Dr 5","City":"Newport Beach","State":"CA","Zip":"92660"},{"Location":"CUCINA ENOTECA NEWPORT","Address":"951 Newport Center Dr","City":"Newport Beach","State":"CA","Zip":"92660"},{"Location":"CUMMINS & WHITE LLP","Address":"2424 Se Bristol St 300","City":"Newport Beach","State":"CA","Zip":"92660"},{"Location":"CURTIS PROPERTIES","Address":"20321 Sw Acacia St 100","City":"Newport Beach","State":"CA","Zip":"92660"},{"Location":"D WONG ASCO","Address":"1200 Quail St 235","City":"Newport Beach","State":"CA","Zip":"92660"},{"Location":"DAPHNES","Address":"1330 Bison Ave L","City":"Newport Beach","State":"CA","Zip":"92660"},{"Location":"DAVITA #5383 NEWPORT IRVINE","Address":"4300 Von Karman Ave","City":"Newport Beach","State":"CA","Zip":"92660"},{"Location":"DICK'S SPORTING GOODS #936","Address":"435 Newport Center Dr","City":"Newport Beach","State":"CA","Zip":"92660"},{"Location":"DON WILSON BUILDERS","Address":"4220 Von Karman Ave 120","City":"Newport Beach","State":"CA","Zip":"92660"},{"Location":"FIDELITY INVESTMENTS 295","Address":"660 Newport Center Dr 700","City":"Newport Beach","State":"CA","Zip":"92660"},{"Location":"FIRST REPUBLIC BANK","Address":"3991 Macarthur Blvd","City":"Newport Beach","State":"CA","Zip":"92660"},{"Location":"FLEMING'S STEAKHOUSE #1501","Address":"455 Newport Center Dr","City":"Newport Beach","State":"CA","Zip":"92660"},{"Location":"FLETCHER JONES MOTOR CARS","Address":"2172 Se Bristol St","City":"Newport Beach","State":"CA","Zip":"92660"},{"Location":"FORTUNA MEDICAL TECHNOLO","Address":"4500 Campus Dr 645","City":"Newport Beach","State":"CA","Zip":"92660"},{"Location":"FOUNTAINHEAD RESTUARANT","Address":"1000 Bristol St N 11","City":"Newport Beach","State":"CA","Zip":"92660"},{"Location":"FUGI GRILL","Address":"4341 Macarthur Blvd","City":"Newport Beach","State":"CA","Zip":"92660"},{"Location":"FYKE FINANCIAL SERVICES","Address":"4001 Macarthur Blvd 101","City":"Newport Beach","State":"CA","Zip":"92660"},{"Location":"GELSON'S MARKET","Address":"1660 San Miguel Dr","City":"Newport Beach","State":"CA","Zip":"92660"},{"Location":"HACKETT MANAGMENT CORP","Address":"3 Upper Newport Plz 2fl","City":"Newport Beach","State":"CA","Zip":"92660"},{"Location":"HERTZ RENTAL CAR","Address":"4000 Campus Dr","City":"Newport Beach","State":"CA","Zip":"92660"},{"Location":"HOGUE BARMICHAELS","Address":"3950 Campus Dr","City":"Newport Beach","State":"CA","Zip":"92660"},{"Location":"HOWSER & BROWN","Address":"4340 Campus Dr 100","City":"Newport Beach","State":"CA","Zip":"92660"},{"Location":"HYATT NEWPORTER","Address":"1107 Jamboree Rd","City":"Newport Beach","State":"CA","Zip":"92660"},{"Location":"IMORTGAGE.COM","Address":"1301 Dove St 101","City":"Newport Beach","State":"CA","Zip":"92660"},{"Location":"INSIGHTFUL MINDS INC","Address":"3300 Irvine Ave 261","City":"Newport Beach","State":"CA","Zip":"92660"},{"Location":"INTEGRAL PARTNERS LLC","Address":"888 San Clemente Dr 100","City":"Newport Beach","State":"CA","Zip":"92660"},{"Location":"INTERCOMMUNICATIONS","Address":"1375 Dove St 200","City":"Newport Beach","State":"CA","Zip":"92660"},{"Location":"INTERVENTIONAL PAIN MEDI","Address":"1601 Dove St 170","City":"Newport Beach","State":"CA","Zip":"92660"},{"Location":"IRVINE CO FASHION ISLAND","Address":"401 Newport Center Dr 125","City":"Newport Beach","State":"CA","Zip":"92660"},{"Location":"ISLAND HOTEL NEWPORT BCH","Address":"690 Newport Center Dr","City":"Newport Beach","State":"CA","Zip":"92660"},{"Location":"ISLANDS RESTAURANT #041","Address":"1380 Bison Ave","City":"Newport Beach","State":"CA","Zip":"92660"},{"Location":"ISTAR FINANCIAL","Address":"4350 Von Karman Ave 225","City":"Newport Beach","State":"CA","Zip":"92660"},{"Location":"J PATRICK MURPHY CORP","Address":"366 San Miguel Dr 307","City":"Newport Beach","State":"CA","Zip":"92660"},{"Location":"JAYS CAFE","Address":"1301 Dove St","City":"Newport Beach","State":"CA","Zip":"92660"},{"Location":"JCH INSURANCE AGENCY INC","Address":"3300 Irvine Ave 220","City":"Newport Beach","State":"CA","Zip":"92660"},{"Location":"JERSEY MIKES SUBS","Address":"1318 Bison Ave","City":"Newport Beach","State":"CA","Zip":"92660"},{"Location":"JOHNNYS REAL NY PIZZA","Address":"1320 Bison Ave","City":"Newport Beach","State":"CA","Zip":"92660"},{"Location":"KAOS","Address":"2025 Port Bristol Cir","City":"Newport Beach","State":"CA","Zip":"92660"},{"Location":"KGD SYSTEMS","Address":"20251 Sw Acacia St 210","City":"Newport Beach","State":"CA","Zip":"92660"},{"Location":"LADY LILA LLC","Address":"4141 Macarthur Blvd","City":"Newport Beach","State":"CA","Zip":"92660"},{"Location":"LAND ROVER NEW PORT BEACH","Address":"1540 Jamboree Rd","City":"Newport Beach","State":"CA","Zip":"92660"},{"Location":"LANDROVER NEWPORT BEACHSERVICE","Address":"2101 Dove St","City":"Newport Beach","State":"CA","Zip":"92660"},{"Location":"LAW OFFICES OF JEFF TATCH","Address":"4425 Jamboree Rd R","City":"Newport Beach","State":"CA","Zip":"92660"},{"Location":"LBS FINANCIAL INC","Address":"1401 Quail St","City":"Newport Beach","State":"CA","Zip":"92660"},{"Location":"LIFESCAPES","Address":"4930 Campus Dr","City":"Newport Beach","State":"CA","Zip":"92660"},{"Location":"LIOLIOS GROUP","Address":"20371 Irvine Ave A100","City":"Newport Beach","State":"CA","Zip":"92660"},{"Location":"LUTHER  BURBANK MORTGAGE","Address":"660 Newport Center Dr 1030","City":"Newport Beach","State":"CA","Zip":"92660"},{"Location":"LUXE LABATORIES LLC","Address":"21 Pine Valley Ln","City":"Newport Beach","State":"CA","Zip":"92660"},{"Location":"MA II SERVICES LLC","Address":"4141 Macarthur Blvd","City":"Newport Beach","State":"CA","Zip":"92660"},{"Location":"MACY'S WEST 528","Address":"101 Newport Beach Center Dr","City":"Newport Beach","State":"CA","Zip":"92660"},{"Location":"MCARTHUR VENTURES LLC","Address":"4647 Macarthur Blvd","City":"Newport Beach","State":"CA","Zip":"92660"},{"Location":"MEYER PROPERTIES","Address":"4320 Von Karman Ave","City":"Newport Beach","State":"CA","Zip":"92660"},{"Location":"MJR MARKETING  INC","Address":"4540 Campus Dr 140","City":"Newport Beach","State":"CA","Zip":"92660"},{"Location":"MOBILITIE","Address":"2220 University Dr","City":"Newport Beach","State":"CA","Zip":"92660"},{"Location":"MON ARCH BAY SERCURITIES","Address":"5000 Birch St 4800","City":"Newport Beach","State":"CA","Zip":"92660"},{"Location":"MORGAN STANLEY 100253","Address":"800 Newport Center Dr 500","City":"Newport Beach","State":"CA","Zip":"92660"},{"Location":"MOZAMBIQUE PERI PERI","Address":"1332 Bison Ave","City":"Newport Beach","State":"CA","Zip":"92660"},{"Location":"MULDOONS IRISH PUB","Address":"202 Newport Center Dr","City":"Newport Beach","State":"CA","Zip":"92660"},{"Location":"NBAC CAFE LLC","Address":"1367 Avocado Ave","City":"Newport Beach","State":"CA","Zip":"92660"},{"Location":"NEIMAN MARCUS 1011","Address":"601 Newport Center Dr","City":"Newport Beach","State":"CA","Zip":"92660"},{"Location":"NEWMEYER & DILLION LLP","Address":"895 Dove St 5","City":"Newport Beach","State":"CA","Zip":"92660"},{"Location":"NEWPORT AUTO CENTER","Address":"445 E Pacific Coast Hwy","City":"Newport Beach","State":"CA","Zip":"92660"},{"Location":"NEWPORT BEACH GOLF","Address":"3100 Irvine Ave","City":"Newport Beach","State":"CA","Zip":"92660"},{"Location":"NEWPORT BEACH YACHT CLUB","Address":"1099 Bayside Dr","City":"Newport Beach","State":"CA","Zip":"92660"},{"Location":"NEWPORT CAR WASH","Address":"3767 Birch St","City":"Newport Beach","State":"CA","Zip":"92660"},{"Location":"NEWPORT CENTER ANIMAL HOSPITAL","Address":"1333 Avocado Ave","City":"Newport Beach","State":"CA","Zip":"92660"},{"Location":"NEWPORT DENTAL ARTS","Address":"2382 Se Bristol St A","City":"Newport Beach","State":"CA","Zip":"92660"},{"Location":"NEWPORT DUNES MARINA","Address":"1131 Back Bay Dr","City":"Newport Beach","State":"CA","Zip":"92660"},{"Location":"NEWPORT DUNES RESORT","Address":"1131 Back Bay Dr","City":"Newport Beach","State":"CA","Zip":"92660"},{"Location":"NEWPORT DUNES RESORT & BISTRO","Address":"1131 Back Bay Dr","City":"Newport Beach","State":"CA","Zip":"92660"},{"Location":"NEWPORT EXECUTIVE CENTER","Address":"260 Newport Center Dr","City":"Newport Beach","State":"CA","Zip":"92660"},{"Location":"NEWPORT LEXUS","Address":"3901 Macarthur Blvd","City":"Newport Beach","State":"CA","Zip":"92660"},{"Location":"NEWPORT MARRIOTT BAYVIEW","Address":"500 Bayview Cir","City":"Newport Beach","State":"CA","Zip":"92660"},{"Location":"NEWPORT NAILS","Address":"1048 Bayside Dr","City":"Newport Beach","State":"CA","Zip":"92660"},{"Location":"NEWPORT NAILS 2","Address":"1132 Irvine Ave","City":"Newport Beach","State":"CA","Zip":"92660"},{"Location":"NEWPORT PMB","Address":"5000 Birch St 2200","City":"Newport Beach","State":"CA","Zip":"92660"},{"Location":"NEWPORT SERVICE CORP.","Address":"4910 Birch St","City":"Newport Beach","State":"CA","Zip":"92660"},{"Location":"NEWPORT URGENT CARE","Address":"1000 Bristol St N 1b","City":"Newport Beach","State":"CA","Zip":"92660"},{"Location":"NIKE INC","Address":"363 Newport Center Dr","City":"Newport Beach","State":"CA","Zip":"92660"},{"Location":"NORDSTROM FASHION ISLAND","Address":"901 Newport Center Dr","City":"Newport Beach","State":"CA","Zip":"92660"},{"Location":"ONLY CREMETION","Address":"4263 Birch St","City":"Newport Beach","State":"CA","Zip":"92660"},{"Location":"OPTIMUM MEDICAL CLINICS","Address":"20072 Sw Birch St 100","City":"Newport Beach","State":"CA","Zip":"92660"},{"Location":"ORANGE COUNTY BAR ASSC.","Address":"4101 Westerly Pl","City":"Newport Beach","State":"CA","Zip":"92660"},{"Location":"ORTHOPEDIC SURGERY CENTER","Address":"22 Corporate Plaza Dr 150","City":"Newport Beach","State":"CA","Zip":"92660"},{"Location":"PACIFIC PREMIER BANK","Address":"4667 Macarthur Blvd 100","City":"Newport Beach","State":"CA","Zip":"92660"},{"Location":"PALISADES TENNIS CLUB","Address":"1171 Jamboree Rd","City":"Newport Beach","State":"CA","Zip":"92660"},{"Location":"PF CHANGS 1","Address":"1145 Newport Center Dr","City":"Newport Beach","State":"CA","Zip":"92660"},{"Location":"PITA JUNGLE","Address":"1200 Bison Ave C1","City":"Newport Beach","State":"CA","Zip":"92660"},{"Location":"PREMIER FITNESS","Address":"3928 Campus Dr","City":"Newport Beach","State":"CA","Zip":"92660"},{"Location":"PRO SPORT PHYSICAL THERAPY","Address":"1000 Bristol St N 28","City":"Newport Beach","State":"CA","Zip":"92660"},{"Location":"PRO SPORT PHYSICAL THERAPY","Address":"1000 Bristol St N 25","City":"Newport Beach","State":"CA","Zip":"92660"},{"Location":"PROVENANCE RESTAURANT2","Address":"2531 Eastbluff Dr","City":"Newport Beach","State":"CA","Zip":"92660"},{"Location":"R & D KITCHEN","Address":"555 Newport Center Dr","City":"Newport Beach","State":"CA","Zip":"92660"},{"Location":"RA LOTTER INSURANCE MARKETING","Address":"6 Upper Newport Plz","City":"Newport Beach","State":"CA","Zip":"92660"},{"Location":"RADISSON - NEWPORT BEACH","Address":"4545 Macarthur Blvd","City":"Newport Beach","State":"CA","Zip":"92660"},{"Location":"RADISSON HOTEL","Address":"4545 Macarthur Blvd","City":"Newport Beach","State":"CA","Zip":"92660"},{"Location":"RCRSD INC","Address":"19 Corporate Plaza Dr","City":"Newport Beach","State":"CA","Zip":"92660"},{"Location":"RED O RESTAURANT","Address":"143 Newport Center Dr","City":"Newport Beach","State":"CA","Zip":"92660"},{"Location":"ROLLS ROYCE MOTOR CARS","Address":"4040 Campus Dr","City":"Newport Beach","State":"CA","Zip":"92660"},{"Location":"ROTH CAPITAL PARTNERS","Address":"888 San Clemente Dr","City":"Newport Beach","State":"CA","Zip":"92660"},{"Location":"ROY'S #2504","Address":"453 Newport Center Dr","City":"Newport Beach","State":"CA","Zip":"92660"},{"Location":"RUSTICA","Address":"1133 Newport Center Dr","City":"Newport Beach","State":"CA","Zip":"92660"},{"Location":"SAGE INNOVATIONS","Address":"610 Newport Center Dr 800","City":"Newport Beach","State":"CA","Zip":"92660"},{"Location":"SAM AND HARRYS LOUNGE","Address":"900 Newport Center Dr","City":"Newport Beach","State":"CA","Zip":"92660"},{"Location":"SAUNDERS PROPERTY CO","Address":"4040 Macarthur Blvd","City":"Newport Beach","State":"CA","Zip":"92660"},{"Location":"SCHIEFER MEDIA INC","Address":"20361 Irvine Ave B1","City":"Newport Beach","State":"CA","Zip":"92660"},{"Location":"SCOTT BORAS CORP","Address":"18 Corporate Plaza Dr","City":"Newport Beach","State":"CA","Zip":"92660"},{"Location":"SCOTTRADE J04","Address":"1280 Bison Ave B2","City":"Newport Beach","State":"CA","Zip":"92660"},{"Location":"SERGEANT PEPPERONI","Address":"2300 Se Bristol St F","City":"Newport Beach","State":"CA","Zip":"92660"},{"Location":"SHAHRAM SALIMY DDS INC","Address":"1220 Bison Ave A2","City":"Newport Beach","State":"CA","Zip":"92660"},{"Location":"SHOGUN","Address":"4141 Macarthur Blvd","City":"Newport Beach","State":"CA","Zip":"92660"},{"Location":"SOL","Address":"251 E Coast Hwy","City":"Newport Beach","State":"CA","Zip":"92660"},{"Location":"STEGMEIR AND GELBART LLP","Address":"20320 Sw Birch St 3","City":"Newport Beach","State":"CA","Zip":"92660"},{"Location":"STIFEL FINANCIAL","Address":"895 Dove St 400","City":"Newport Beach","State":"CA","Zip":"92660"},{"Location":"STIX HOLDINGS 719","Address":"1614 San Miguel Dr","City":"Newport Beach","State":"CA","Zip":"92660"},{"Location":"STIX HOLDINGS 769","Address":"1112 Irvine Ave","City":"Newport Beach","State":"CA","Zip":"92660"},{"Location":"SUBS COSTA MESA","Address":"2590 Park Newport","City":"Newport Beach","State":"CA","Zip":"92660"},{"Location":"SURE HAVEN 40","Address":"1 Troon Dr","City":"Newport Beach","State":"CA","Zip":"92660"},{"Location":"TACO ROSA","Address":"2632 San Miguel Dr","City":"Newport Beach","State":"CA","Zip":"92660"},{"Location":"TAJA KATAYAMA","Address":"101 Bayview Pl","City":"Newport Beach","State":"CA","Zip":"92660"},{"Location":"TANGRAM","Address":"1375 Dove St","City":"Newport Beach","State":"CA","Zip":"92660"},{"Location":"TAX AND FINANCIAL GROUP","Address":"4001 Macarthur Blvd 300","City":"Newport Beach","State":"CA","Zip":"92660"},{"Location":"THE BAY SIDE","Address":"900 Bayside Dr","City":"Newport Beach","State":"CA","Zip":"92660"},{"Location":"THE CHEESECAKE FACTORY 0006","Address":"1141 Newport Center Dr","City":"Newport Beach","State":"CA","Zip":"92660"},{"Location":"THE CLASSIC Q","Address":"4251 Macarthur Blvd","City":"Newport Beach","State":"CA","Zip":"92660"},{"Location":"THE PACIFIC CLUB","Address":"4110 Macarthur Blvd","City":"Newport Beach","State":"CA","Zip":"92660"},{"Location":"THE RULE GROUP","Address":"3620 Birch St","City":"Newport Beach","State":"CA","Zip":"92660"},{"Location":"THE TEE ROOM","Address":"3100 Irvine Ave","City":"Newport Beach","State":"CA","Zip":"92660"},{"Location":"TOMMY BAHAMA","Address":"854 Avocado Ave","City":"Newport Beach","State":"CA","Zip":"92660"},{"Location":"TOUCHDOWN CLUB","Address":"2101 Eastbluff Dr","City":"Newport Beach","State":"CA","Zip":"92660"},{"Location":"TRAVISMATHEW FASHION ISL","Address":"401 Newport Center Dr 1059","City":"Newport Beach","State":"CA","Zip":"92660"},{"Location":"TRINITY CHRISTIAN CENTER","Address":"1 Yorkshire","City":"Newport Beach","State":"CA","Zip":"92660"},{"Location":"UNIREGISTRY INC","Address":"2161 San Joaquin Hills Rd","City":"Newport Beach","State":"CA","Zip":"92660"},{"Location":"WELLS FARGO PRIVATE CLIENT","Address":"5000 Birch St 600","City":"Newport Beach","State":"CA","Zip":"92660"},{"Location":"WHITAKER WELLNESS INSTITUTE","Address":"4321 Birch St","City":"Newport Beach","State":"CA","Zip":"92660"},{"Location":"WHITECROSS","Address":"1100 Newport Center Dr 110","City":"Newport Beach","State":"CA","Zip":"92660"},{"Location":"WILDFISH SEAFOOD #8503","Address":"1370 Bison Ave 130","City":"Newport Beach","State":"CA","Zip":"92660"},{"Location":"WILLIAM LYON PROPERTIES MGMT","Address":"4901 Birch St","City":"Newport Beach","State":"CA","Zip":"92660"},{"Location":"YARD HOUSE #8317","Address":"849 Newport Center Dr","City":"Newport Beach","State":"CA","Zip":"92660"},{"Location":"YMCA","Address":"2300 University Dr","City":"Newport Beach","State":"CA","Zip":"92660"},{"Location":"Z PIZZA","Address":"2549 Eastbluff Dr","City":"Newport Beach","State":"CA","Zip":"92660"}]