[{"Location":"A RESTAURANTS","Address":"3334 Pacific Coast Hwy","City":"Newport Beach","State":"CA","Zip":"92663"},{"Location":"A.E.R. 4  LLC","Address":"2800 Newport Blvd","City":"Newport Beach","State":"CA","Zip":"92663"},{"Location":"AMAREES","Address":"2241 W Coast Hwy","City":"Newport Beach","State":"CA","Zip":"92663"},{"Location":"AMARR STUDIOS","Address":"2429 W Coast Hwy","City":"Newport Beach","State":"CA","Zip":"92663"},{"Location":"AMERICAN JUNKIE","Address":"2406 Newport Blvd","City":"Newport Beach","State":"CA","Zip":"92663"},{"Location":"AMERICAN LEGION POST 291","Address":"215 E 15th St","City":"Newport Beach","State":"CA","Zip":"92663"},{"Location":"ART BROOKS SEA CO","Address":"3101 W Coast Hwy","City":"Newport Beach","State":"CA","Zip":"92663"},{"Location":"BABIC CONSTRUCTION","Address":"513 Superior Ave","City":"Newport Beach","State":"CA","Zip":"92663"},{"Location":"BALBOA BAY CLUB (36010)","Address":"1221 West Pacific Coast Hwy","City":"Newport Beach","State":"CA","Zip":"92663"},{"Location":"BALBOA BAY CLUB (A & O)","Address":"1221 W Coast Hwy","City":"Newport Beach","State":"CA","Zip":"92663"},{"Location":"BALBOA BAY MEMBERS GRILL","Address":"1221 W Coast Hwy","City":"Newport Beach","State":"CA","Zip":"92663"},{"Location":"BALBOA FITNESS","Address":"2000 W Balboa Blvd","City":"Newport Beach","State":"CA","Zip":"92663"},{"Location":"BAY POINT CAPTL PARTNERS","Address":"2901 W Coast Hwy 213","City":"Newport Beach","State":"CA","Zip":"92663"},{"Location":"BEAR FLAG FISH CO","Address":"3421 Via Lido","City":"Newport Beach","State":"CA","Zip":"92663"},{"Location":"BIG BELLY DELI","Address":"6310 W Coast Hwy","City":"Newport Beach","State":"CA","Zip":"92663"},{"Location":"BILLYS AT THE BEACH","Address":"2751 West Pacific Coast Hwy","City":"Newport Beach","State":"CA","Zip":"92663"},{"Location":"BLACKIES BY THE SEA","Address":"2118 W Oceanfront","City":"Newport Beach","State":"CA","Zip":"92663"},{"Location":"BLUE BEET CAFE","Address":"107 21st Pl","City":"Newport Beach","State":"CA","Zip":"92663"},{"Location":"BLUE WATER GRILL","Address":"630 Lido Park Dr","City":"Newport Beach","State":"CA","Zip":"92663"},{"Location":"BLYTHE GLOBAL ADVISIORS","Address":"2727 W Coast Hwy C","City":"Newport Beach","State":"CA","Zip":"92663"},{"Location":"BR COATINGS","Address":"3708 Channel Pl","City":"Newport Beach","State":"CA","Zip":"92663"},{"Location":"CASSIDYS","Address":"2603 Newport Blvd","City":"Newport Beach","State":"CA","Zip":"92663"},{"Location":"CHARLIE AND ME","Address":"410 W Coast Hwy C","City":"Newport Beach","State":"CA","Zip":"92663"},{"Location":"CHARTER YACHTS OF NEWPORT","Address":"2527 W Coast Hwy","City":"Newport Beach","State":"CA","Zip":"92663"},{"Location":"COLORS INTERNATIONAL","Address":"3315 Newport Blvd","City":"Newport Beach","State":"CA","Zip":"92663"},{"Location":"CP RESTAURANT","Address":"2800 W Coast Hwy","City":"Newport Beach","State":"CA","Zip":"92663"},{"Location":"CREATIVE PRODUCTIONS","Address":"2901 W Coast Hwy 212","City":"Newport Beach","State":"CA","Zip":"92663"},{"Location":"CROWBURGERKITCHEN","Address":"3107 Newport Blvd","City":"Newport Beach","State":"CA","Zip":"92663"},{"Location":"DANIEL MACBETH","Address":"1539 Monrovia Ave 11","City":"Newport Beach","State":"CA","Zip":"92663"},{"Location":"DAVID NIEMIEC DDS INC","Address":"601 Dover Dr 12","City":"Newport Beach","State":"CA","Zip":"92663"},{"Location":"DAVID WIRTA MD INC","Address":"1501 Superior Ave 303","City":"Newport Beach","State":"CA","Zip":"92663"},{"Location":"DAVIS MERCHANDISING","Address":"2901 W Coast Hwy 350","City":"Newport Beach","State":"CA","Zip":"92663"},{"Location":"DBAC INC","Address":"101 Shipyard Way","City":"Newport Beach","State":"CA","Zip":"92663"},{"Location":"DORY DELI","Address":"2108 34 W Oceanfront","City":"Newport Beach","State":"CA","Zip":"92663"},{"Location":"DOUGHBOY DONUTS","Address":"4535 W Coast Hwy","City":"Newport Beach","State":"CA","Zip":"92663"},{"Location":"DUCS","Address":"879 W 16th St","City":"Newport Beach","State":"CA","Zip":"92663"},{"Location":"ELKS LODGE 1767","Address":"3456 Via Oporto","City":"Newport Beach","State":"CA","Zip":"92663"},{"Location":"FERGUSON MEDICAL GROUP","Address":"201 Shipyard Way A","City":"Newport Beach","State":"CA","Zip":"92663"},{"Location":"FERRARI OF NEW PORT BEACH","Address":"1000 W Coast Hwy","City":"Newport Beach","State":"CA","Zip":"92663"},{"Location":"FIRST MIDWEST SECURITIES","Address":"2901 W Coast Hwy 252","City":"Newport Beach","State":"CA","Zip":"92663"},{"Location":"FLAME BROILER","Address":"4525 W Coast Hwy B","City":"Newport Beach","State":"CA","Zip":"92663"},{"Location":"FLINN WEST","Address":"2439 W Coast Hwy 200","City":"Newport Beach","State":"CA","Zip":"92663"},{"Location":"FLY N FISH","Address":"2304 W Oceanfront","City":"Newport Beach","State":"CA","Zip":"92663"},{"Location":"FMC 247700000","Address":"3333 W Coast Hwy","City":"Newport Beach","State":"CA","Zip":"92663"},{"Location":"FMC 86400000","Address":"510 Superior Ave 150","City":"Newport Beach","State":"CA","Zip":"92663"},{"Location":"FMSI","Address":"2901 W Coast Hwy 275","City":"Newport Beach","State":"CA","Zip":"92663"},{"Location":"FOOTBALL OFF NEWPORT HRBR HIGH","Address":"600 Irvine Ave","City":"Newport Beach","State":"CA","Zip":"92663"},{"Location":"FOSMOND ENTERPRIZES","Address":"2122 W Oceanfront","City":"Newport Beach","State":"CA","Zip":"92663"},{"Location":"FRAMEWORKS CUSTOM ART INC","Address":"1609 Babcock St","City":"Newport Beach","State":"CA","Zip":"92663"},{"Location":"FRIED MUTTER GROUP","Address":"1221 W Coast Hwy","City":"Newport Beach","State":"CA","Zip":"92663"},{"Location":"GARLIC JO S","Address":"2332 W Coast Hwy","City":"Newport Beach","State":"CA","Zip":"92663"},{"Location":"GINAS PIZZA","Address":"3142 W Balboa Blvd","City":"Newport Beach","State":"CA","Zip":"92663"},{"Location":"HAIR WEST SALON","Address":"2817 Villa Way","City":"Newport Beach","State":"CA","Zip":"92663"},{"Location":"HB ENTERPRISES","Address":"2721 W Coast Hwy","City":"Newport Beach","State":"CA","Zip":"92663"},{"Location":"HEALTHWORKS MEDICAL","Address":"3333 W Coast Hwy 500","City":"Newport Beach","State":"CA","Zip":"92663"},{"Location":"HEALTHZONE INC","Address":"507 29th St B","City":"Newport Beach","State":"CA","Zip":"92663"},{"Location":"HIGH SEAS YACHT CHARTERS","Address":"1910 W Balboa Blvd","City":"Newport Beach","State":"CA","Zip":"92663"},{"Location":"HOAG MEMORIAL HOSPITAL","Address":"520 Superior Ave 140","City":"Newport Beach","State":"CA","Zip":"92663"},{"Location":"HRC FERTILITY","Address":"500 Superior Ave 130","City":"Newport Beach","State":"CA","Zip":"92663"},{"Location":"HUNTINGTON BEACH INTERNAL","Address":"1501 Superior Ave 111","City":"Newport Beach","State":"CA","Zip":"92663"},{"Location":"IRON FINANCIAL","Address":"215 Riverside Ave","City":"Newport Beach","State":"CA","Zip":"92663"},{"Location":"ISLAND AUTO REPAIR","Address":"1577 Monrovia Ave","City":"Newport Beach","State":"CA","Zip":"92663"},{"Location":"JACK SHRIMP","Address":"2400 W Coast Hwy 16","City":"Newport Beach","State":"CA","Zip":"92663"},{"Location":"JCS #0027 - NEWPORT","Address":"2607 W Coast Hwy","City":"Newport Beach","State":"CA","Zip":"92663"},{"Location":"JEFF ALTMAN MD","Address":"355 Placentia Ave","City":"Newport Beach","State":"CA","Zip":"92663"},{"Location":"LAVENTINAS","Address":"2819 Newport Blvd B","City":"Newport Beach","State":"CA","Zip":"92663"},{"Location":"LCB CONSULTING","Address":"2901 W Coast Hwy 233","City":"Newport Beach","State":"CA","Zip":"92663"},{"Location":"LFR NEWPORT  LLC","Address":"3305 Newport Blvd","City":"Newport Beach","State":"CA","Zip":"92663"},{"Location":"LIDO CONSIGNMENT","Address":"2700 W Coast Hwy 100","City":"Newport Beach","State":"CA","Zip":"92663"},{"Location":"LIDO LIVE 2","Address":"3471 Via Lido 206","City":"Newport Beach","State":"CA","Zip":"92663"},{"Location":"LIDO PENINSULA COMPANY LLC","Address":"717 Lido Park Dr","City":"Newport Beach","State":"CA","Zip":"92663"},{"Location":"MAIL BOXES LIDO","Address":"3419 Via Lido","City":"Newport Beach","State":"CA","Zip":"92663"},{"Location":"MALARKY'S IRISH PUB","Address":"3011 Newport Blvd","City":"Newport Beach","State":"CA","Zip":"92663"},{"Location":"MCDONALD'S","Address":"700 W Coast Hwy","City":"Newport Beach","State":"CA","Zip":"92663"},{"Location":"MCLAREN NEWPORT BEACH","Address":"2540 W Coast Hwy","City":"Newport Beach","State":"CA","Zip":"92663"},{"Location":"MDC","Address":"3333 W Coast Hwy 400","City":"Newport Beach","State":"CA","Zip":"92663"},{"Location":"MUTT LYNCH","Address":"2300 W Oceanfront","City":"Newport Beach","State":"CA","Zip":"92663"},{"Location":"NALN","Address":"3388 Via Lido 200","City":"Newport Beach","State":"CA","Zip":"92663"},{"Location":"NB BREWCO INC.","Address":"2920 Newport Blvd","City":"Newport Beach","State":"CA","Zip":"92663"},{"Location":"NB WEALTH MANAGEMENT","Address":"2901 W Coast Hwy 370","City":"Newport Beach","State":"CA","Zip":"92663"},{"Location":"NESAI RESTAURANT","Address":"215 Riverside Ave","City":"Newport Beach","State":"CA","Zip":"92663"},{"Location":"NEWPORT BAY HOSPITAL","Address":"1501 E 16th St","City":"Newport Beach","State":"CA","Zip":"92663"},{"Location":"NEWPORT BEACH VETERINARY HOSP","Address":"1610 W Coast Hwy B","City":"Newport Beach","State":"CA","Zip":"92663"},{"Location":"NEWPORT NAILS 1","Address":"3117 Newport Blvd","City":"Newport Beach","State":"CA","Zip":"92663"},{"Location":"NEWPORT PONTOONS","Address":"3101 W Coast Hwy","City":"Newport Beach","State":"CA","Zip":"92663"},{"Location":"NORTHSHORE SHAVE ICE","Address":"2200 W Oceanfront","City":"Newport Beach","State":"CA","Zip":"92663"},{"Location":"OCEAN RECOVERY","Address":"1601 W Balboa Blvd","City":"Newport Beach","State":"CA","Zip":"92663"},{"Location":"ORIGINAL PIZZA","Address":"2121 W Balboa Blvd","City":"Newport Beach","State":"CA","Zip":"92663"},{"Location":"PACIFIC LIFE","Address":"2801 W Coast Hwy 250","City":"Newport Beach","State":"CA","Zip":"92663"},{"Location":"PAW SPA PET SALON THE","Address":"2905 Newport Blvd","City":"Newport Beach","State":"CA","Zip":"92663"},{"Location":"PERFIT FITNESS","Address":"833 Dover Dr 1","City":"Newport Beach","State":"CA","Zip":"92663"},{"Location":"PIPELINE","Address":"2010 W Oceanfront","City":"Newport Beach","State":"CA","Zip":"92663"},{"Location":"PIZZA NOVA NB","Address":"2601 W Coast Hwy","City":"Newport Beach","State":"CA","Zip":"92663"},{"Location":"PORT SECURITIES","Address":"2717 W Coast Hwy","City":"Newport Beach","State":"CA","Zip":"92663"},{"Location":"RANCHO VISTA MORTGAGE","Address":"2901 W Coast Hwy 350","City":"Newport Beach","State":"CA","Zip":"92663"},{"Location":"REGIS SALONS","Address":"3136 W Balboa Blvd","City":"Newport Beach","State":"CA","Zip":"92663"},{"Location":"ROYAL THAI CUISINE","Address":"4001 W Coast Hwy","City":"Newport Beach","State":"CA","Zip":"92663"},{"Location":"RUDY'S PUB AND GRILL","Address":"3110 Newport Blvd","City":"Newport Beach","State":"CA","Zip":"92663"},{"Location":"RUSTY PELICAN","Address":"2735 W Coast Hwy","City":"Newport Beach","State":"CA","Zip":"92663"},{"Location":"SABATINOS PIZZA DELI2","Address":"406 32nd St","City":"Newport Beach","State":"CA","Zip":"92663"},{"Location":"SALON LIDO","Address":"3441 Via Lido H","City":"Newport Beach","State":"CA","Zip":"92663"},{"Location":"SAMBAZON RESTAURANT GROU","Address":"3138 W Balboa Blvd","City":"Newport Beach","State":"CA","Zip":"92663"},{"Location":"SAN DIEGO BLOOD BANK","Address":"510 Superior Ave","City":"Newport Beach","State":"CA","Zip":"92663"},{"Location":"SANCHOS TACOS","Address":"3014 W Balboa Blvd","City":"Newport Beach","State":"CA","Zip":"92663"},{"Location":"SHAMROCK BAR","Address":"2633 W Coast Hwy","City":"Newport Beach","State":"CA","Zip":"92663"},{"Location":"SHARKEEZ","Address":"114 Mcfadden Pl","City":"Newport Beach","State":"CA","Zip":"92663"},{"Location":"SLEEP CENTER","Address":"510 Superior Ave","City":"Newport Beach","State":"CA","Zip":"92663"},{"Location":"SOBER LIVING BY THE SEA","Address":"2800 Lafayette Rd","City":"Newport Beach","State":"CA","Zip":"92663"},{"Location":"SOBER LIVING BY THE SEA","Address":"4142 Patrice Rd","City":"Newport Beach","State":"CA","Zip":"92663"},{"Location":"SOBER LIVING BY THE SEA2","Address":"4711 Seashore Dr","City":"Newport Beach","State":"CA","Zip":"92663"},{"Location":"SOBER LIVING BY THE SEA3","Address":"4711 Seashore Dr A1","City":"Newport Beach","State":"CA","Zip":"92663"},{"Location":"SOBERLIVING BY THE SEA 5","Address":"5004 Neptune Ave B","City":"Newport Beach","State":"CA","Zip":"92663"},{"Location":"SOBERLIVING BY THE SEA 6","Address":"6111 Seashore Dr","City":"Newport Beach","State":"CA","Zip":"92663"},{"Location":"SOBERLIVING BY THE SEA 7","Address":"6110 W Oceanfront","City":"Newport Beach","State":"CA","Zip":"92663"},{"Location":"SOBERLIVING BY THE SEA 8","Address":"4138 Patrice Rd","City":"Newport Beach","State":"CA","Zip":"92663"},{"Location":"SOBERLIVING BY THE SEA4","Address":"5004 Neptune Ave A","City":"Newport Beach","State":"CA","Zip":"92663"},{"Location":"SOHONI ACUPUNTURE","Address":"425 Old Newport Blvd","City":"Newport Beach","State":"CA","Zip":"92663"},{"Location":"SOLO DESIGN","Address":"503 31st St","City":"Newport Beach","State":"CA","Zip":"92663"},{"Location":"SOUTHERN CALIFORNIA","Address":"1501 Superior Ave 202","City":"Newport Beach","State":"CA","Zip":"92663"},{"Location":"ST ANDREWS PREBYTERIAN CHURCH","Address":"600 Saint Andrews Rd","City":"Newport Beach","State":"CA","Zip":"92663"},{"Location":"ST ANDREWS PRESBYTERIAN CHURCH","Address":"600 Saint Andrews Rd","City":"Newport Beach","State":"CA","Zip":"92663"},{"Location":"STEINBERG SPORTS","Address":"2901 W Coast Hwy 358","City":"Newport Beach","State":"CA","Zip":"92663"},{"Location":"STUFT SURFER CAFE","Address":"101 E 15th St","City":"Newport Beach","State":"CA","Zip":"92663"},{"Location":"SUSHI SAKEE","Address":"123 23rd St","City":"Newport Beach","State":"CA","Zip":"92663"},{"Location":"THE ALLEY RESTAURANT","Address":"4501 W Coast Hwy","City":"Newport Beach","State":"CA","Zip":"92663"},{"Location":"THE BEACH BALL","Address":"2116 W Oceanfront","City":"Newport Beach","State":"CA","Zip":"92663"},{"Location":"THE CANNERY RESTAURANT","Address":"3010 Lafayette Rd","City":"Newport Beach","State":"CA","Zip":"92663"},{"Location":"THE CAR SPA","Address":"1200 W Coast Hwy","City":"Newport Beach","State":"CA","Zip":"92663"},{"Location":"THE OLD SPAGHETTI FACTORY","Address":"2110 Newport Blvd","City":"Newport Beach","State":"CA","Zip":"92663"},{"Location":"THE PORCH","Address":"508 29th St","City":"Newport Beach","State":"CA","Zip":"92663"},{"Location":"THE SANDAL MAN","Address":"511 Superior Ave","City":"Newport Beach","State":"CA","Zip":"92663"},{"Location":"THE STAGG HOTEL","Address":"121 Mcfadden Pl","City":"Newport Beach","State":"CA","Zip":"92663"},{"Location":"THE TINT PROS","Address":"881 W 16th St","City":"Newport Beach","State":"CA","Zip":"92663"},{"Location":"THE WINERY L.P.","Address":"3131 W Coast Hwy","City":"Newport Beach","State":"CA","Zip":"92663"},{"Location":"TK BURGERS I","Address":"2119 W Balboa Blvd","City":"Newport Beach","State":"CA","Zip":"92663"},{"Location":"TWENTY ONE OCEAN FRONT","Address":"2100 W Oceanfront","City":"Newport Beach","State":"CA","Zip":"92663"},{"Location":"US WEST","Address":"878 W 16th St","City":"Newport Beach","State":"CA","Zip":"92663"},{"Location":"VACASA LLC","Address":"4821 River Ave B","City":"Newport Beach","State":"CA","Zip":"92663"},{"Location":"VAPE  SPOT","Address":"363 Old Newport Blvd","City":"Newport Beach","State":"CA","Zip":"92663"},{"Location":"VAPING INDUSTRIES II LLC","Address":"436 32nd St","City":"Newport Beach","State":"CA","Zip":"92663"},{"Location":"VOIT DEVELOPMENT COM","Address":"101 Shipyard Way M","City":"Newport Beach","State":"CA","Zip":"92663"},{"Location":"WATCH EXPO","Address":"2902 W Coast Hwy","City":"Newport Beach","State":"CA","Zip":"92663"},{"Location":"WATERFRONT NEWPORT BEACH LLC","Address":"2901 W Coast Hwy 200","City":"Newport Beach","State":"CA","Zip":"92663"},{"Location":"WILD TACO","Address":"407 31st St","City":"Newport Beach","State":"CA","Zip":"92663"},{"Location":"WILLIAM CONNORS","Address":"1221 W Coast Hwy","City":"Newport Beach","State":"CA","Zip":"92663"},{"Location":"WILLIAM TORBITT LLC","Address":"2715 W Coast Hwy","City":"Newport Beach","State":"CA","Zip":"92663"},{"Location":"WOODY'S","Address":"3461 Via Lido","City":"Newport Beach","State":"CA","Zip":"92663"},{"Location":"WOODY'S WHARF","Address":"2318 Newport Blvd","City":"Newport Beach","State":"CA","Zip":"92663"},{"Location":"Z PIZZA","Address":"3423 Via Lido","City":"Newport Beach","State":"CA","Zip":"92663"}]