[{"Location":"ALEXS FASHION CENTER","Address":"214 Marine Ave","City":"Newport Beach","State":"CA","Zip":"92662"},{"Location":"CLK ISLAND","Address":"127 Marine Ave","City":"Newport Beach","State":"CA","Zip":"92662"},{"Location":"JACOBSON FAMILY PROPERTIES LP","Address":"1308 S Bayfront","City":"Newport Beach","State":"CA","Zip":"92662"},{"Location":"JP MAXWELL","Address":"204 Marine Ave","City":"Newport Beach","State":"CA","Zip":"92662"},{"Location":"NEWPORT BEACH FIRE DEPT","Address":"124 Marine Ave","City":"Newport Beach","State":"CA","Zip":"92662"},{"Location":"WILMAS PATIO","Address":"203 Marine Ave","City":"Newport Beach","State":"CA","Zip":"92662"},{"Location":"ALEXS FASHION CENTER","Address":"214 Marine Ave","City":"Newport Beach","State":"CA","Zip":"92662"},{"Location":"CLK ISLAND","Address":"127 Marine Ave","City":"Newport Beach","State":"CA","Zip":"92662"},{"Location":"JACOBSON FAMILY PROPERTIES LP","Address":"1308 S Bayfront","City":"Newport Beach","State":"CA","Zip":"92662"},{"Location":"JP MAXWELL","Address":"204 Marine Ave","City":"Newport Beach","State":"CA","Zip":"92662"},{"Location":"NEWPORT BEACH FIRE DEPT","Address":"124 Marine Ave","City":"Newport Beach","State":"CA","Zip":"92662"},{"Location":"WILMAS PATIO","Address":"203 Marine Ave","City":"Newport Beach","State":"CA","Zip":"92662"}]