[{"Location":"2361 NEWPORT LLC","Address":"314 E Oceanfront","City":"Newport Beach","State":"CA","Zip":"92661"},{"Location":"BALBOA HOTEL","Address":"105 Main St","City":"Newport Beach","State":"CA","Zip":"92661"},{"Location":"BALBOA SALOON","Address":"700 E Bay Ave","City":"Newport Beach","State":"CA","Zip":"92661"},{"Location":"BARBIE Q","Address":"600 E Bay Ave A7","City":"Newport Beach","State":"CA","Zip":"92661"},{"Location":"BJ'S RESTAURANT #402","Address":"106 Main St","City":"Newport Beach","State":"CA","Zip":"92661"},{"Location":"CABO CANTINA","Address":"100 Main St","City":"Newport Beach","State":"CA","Zip":"92661"},{"Location":"CINNAMON TEAL CORP","Address":"209 Palm St","City":"Newport Beach","State":"CA","Zip":"92661"},{"Location":"COLONY HG","Address":"107 Palm St","City":"Newport Beach","State":"CA","Zip":"92661"},{"Location":"CRUISER PIZZA BAR & GRILL","Address":"801 E Balboa Blvd","City":"Newport Beach","State":"CA","Zip":"92661"},{"Location":"GREAT MEX","Address":"703 E Balboa Blvd","City":"Newport Beach","State":"CA","Zip":"92661"},{"Location":"HARBORSIDE RESTAURANT","Address":"400 Main St","City":"Newport Beach","State":"CA","Zip":"92661"},{"Location":"IL BARONE RISTORANTE","Address":"705 E Balboa Blvd 1","City":"Newport Beach","State":"CA","Zip":"92661"},{"Location":"MAVERICKS GASTROPUB","Address":"111 Palm St","City":"Newport Beach","State":"CA","Zip":"92661"},{"Location":"MC EWENS INC","Address":"2036 E Ocean Blvd","City":"Newport Beach","State":"CA","Zip":"92661"},{"Location":"MERMAID COFFEE BAR","Address":"309 Palm St B","City":"Newport Beach","State":"CA","Zip":"92661"},{"Location":"MINT LEAF THAI CUISINE","Address":"712 E Balboa Blvd","City":"Newport Beach","State":"CA","Zip":"92661"},{"Location":"NEWPORT HARBOUR YACHT CLUB","Address":"720 W Bay Ave","City":"Newport Beach","State":"CA","Zip":"92661"},{"Location":"NEWPORT LANDING","Address":"503 E Edgewater Ave","City":"Newport Beach","State":"CA","Zip":"92661"},{"Location":"OCEAN RECOVERY","Address":"1115 W Balboa Blvd","City":"Newport Beach","State":"CA","Zip":"92661"},{"Location":"PATTY MACS","Address":"209 Palm St","City":"Newport Beach","State":"CA","Zip":"92661"},{"Location":"SANSHIGO","Address":"205 Main St","City":"Newport Beach","State":"CA","Zip":"92661"},{"Location":"SPARKY'S","Address":"209 Palm St","City":"Newport Beach","State":"CA","Zip":"92661"},{"Location":"UNITY BIKES LLC 2","Address":"303 Main St","City":"Newport Beach","State":"CA","Zip":"92661"},{"Location":"2361 NEWPORT LLC","Address":"314 E Oceanfront","City":"Newport Beach","State":"CA","Zip":"92661"},{"Location":"BALBOA HOTEL","Address":"105 Main St","City":"Newport Beach","State":"CA","Zip":"92661"},{"Location":"BALBOA SALOON","Address":"700 E Bay Ave","City":"Newport Beach","State":"CA","Zip":"92661"},{"Location":"BARBIE Q","Address":"600 E Bay Ave A7","City":"Newport Beach","State":"CA","Zip":"92661"},{"Location":"BJ'S RESTAURANT #402","Address":"106 Main St","City":"Newport Beach","State":"CA","Zip":"92661"},{"Location":"CABO CANTINA","Address":"100 Main St","City":"Newport Beach","State":"CA","Zip":"92661"},{"Location":"CINNAMON TEAL CORP","Address":"209 Palm St","City":"Newport Beach","State":"CA","Zip":"92661"},{"Location":"COLONY HG","Address":"107 Palm St","City":"Newport Beach","State":"CA","Zip":"92661"},{"Location":"CRUISER PIZZA BAR & GRILL","Address":"801 E Balboa Blvd","City":"Newport Beach","State":"CA","Zip":"92661"},{"Location":"GREAT MEX","Address":"703 E Balboa Blvd","City":"Newport Beach","State":"CA","Zip":"92661"},{"Location":"HARBORSIDE RESTAURANT","Address":"400 Main St","City":"Newport Beach","State":"CA","Zip":"92661"},{"Location":"IL BARONE RISTORANTE","Address":"705 E Balboa Blvd 1","City":"Newport Beach","State":"CA","Zip":"92661"},{"Location":"MAVERICKS GASTROPUB","Address":"111 Palm St","City":"Newport Beach","State":"CA","Zip":"92661"},{"Location":"MC EWENS INC","Address":"2036 E Ocean Blvd","City":"Newport Beach","State":"CA","Zip":"92661"},{"Location":"MERMAID COFFEE BAR","Address":"309 Palm St B","City":"Newport Beach","State":"CA","Zip":"92661"},{"Location":"MINT LEAF THAI CUISINE","Address":"712 E Balboa Blvd","City":"Newport Beach","State":"CA","Zip":"92661"},{"Location":"NEWPORT HARBOUR YACHT CLUB","Address":"720 W Bay Ave","City":"Newport Beach","State":"CA","Zip":"92661"},{"Location":"NEWPORT LANDING","Address":"503 E Edgewater Ave","City":"Newport Beach","State":"CA","Zip":"92661"},{"Location":"OCEAN RECOVERY","Address":"1115 W Balboa Blvd","City":"Newport Beach","State":"CA","Zip":"92661"},{"Location":"PATTY MACS","Address":"209 Palm St","City":"Newport Beach","State":"CA","Zip":"92661"},{"Location":"SANSHIGO","Address":"205 Main St","City":"Newport Beach","State":"CA","Zip":"92661"},{"Location":"SPARKY'S","Address":"209 Palm St","City":"Newport Beach","State":"CA","Zip":"92661"},{"Location":"UNITY BIKES LLC 2","Address":"303 Main St","City":"Newport Beach","State":"CA","Zip":"92661"}]