[{"Location":"24 HOUR FITNESS #143","Address":"27131 Aclle Arroyo","City":"San Juan Capistrano","State":"CA","Zip":"92675"},{"Location":"5ON5 FOOTBALL","Address":"32236 Paseo Adelanto","City":"San Juan Capistrano","State":"CA","Zip":"92675"},{"Location":"A TEAM ENTERPRISES","Address":"31952 Del Obispo St","City":"San Juan Capistrano","State":"CA","Zip":"92675"},{"Location":"AGUSTIN MEXICAN FOOD","Address":"32382 Del Obispo St B6","City":"San Juan Capistrano","State":"CA","Zip":"92675"},{"Location":"AMERICAN PANDA","Address":"31654 Rancho Viejo Rd C","City":"San Juan Capistrano","State":"CA","Zip":"92675"},{"Location":"ARROYO TRABUCO GOLF CLUB","Address":"29222 Trabuco Creek Rd","City":"San Juan Capistrano","State":"CA","Zip":"92675"},{"Location":"B BURGERS","Address":"31724 Rancho Viejo Rd","City":"San Juan Capistrano","State":"CA","Zip":"92675"},{"Location":"BAD TO THE BONE","Address":"31738 Rancho Viejo Rd E","City":"San Juan Capistrano","State":"CA","Zip":"92675"},{"Location":"BALL PARK PIZZA","Address":"31654 Rancho Viejo Rd H","City":"San Juan Capistrano","State":"CA","Zip":"92675"},{"Location":"CALIBER COLLISION CENTERS","Address":"26442 Via De Anza","City":"San Juan Capistrano","State":"CA","Zip":"92675"},{"Location":"CALIFORNIA SUPERSPORT AUTO","Address":"33081 Camino Capistrano","City":"San Juan Capistrano","State":"CA","Zip":"92675"},{"Location":"CAPISTRAN0 TIRE AND BRAKE","Address":"32201 Camino Capistrano","City":"San Juan Capistrano","State":"CA","Zip":"92675"},{"Location":"EL MAGUEY RESTAURANT","Address":"31481 Camino Capistrano","City":"San Juan Capistrano","State":"CA","Zip":"92675"},{"Location":"FIVE VINES WINE BAR","Address":"31761 Camino Capistrano","City":"San Juan Capistrano","State":"CA","Zip":"92675"},{"Location":"FRANCISCAN GARDENS","Address":"31815 Camino Capistrano","City":"San Juan Capistrano","State":"CA","Zip":"92675"},{"Location":"HANSONS MARKET","Address":"32382 Del Obispo St","City":"San Juan Capistrano","State":"CA","Zip":"92675"},{"Location":"HARLOS","Address":"31111 Rancho Viejo Rd A","City":"San Juan Capistrano","State":"CA","Zip":"92675"},{"Location":"HIRSCH PIPE AND SUPPLY","Address":"31920 Dell Obispo","City":"San Juan Capistrano","State":"CA","Zip":"92675"},{"Location":"IP ACCESS INTERNATIONAL","Address":"31831 Camino Capistrano 300","City":"San Juan Capistrano","State":"CA","Zip":"92675"},{"Location":"JSERRA CATHOLIC HS PRIVA","Address":"26351 Junipero Serra Rd","City":"San Juan Capistrano","State":"CA","Zip":"92675"},{"Location":"LAGUANA NIGEL FLOWERS AND GIFT","Address":"27184 Ortega Hwy","City":"San Juan Capistrano","State":"CA","Zip":"92675"},{"Location":"MARIE CALLENDAR'S SAN JUAN","Address":"31791 Del Obispo St","City":"San Juan Capistrano","State":"CA","Zip":"92675"},{"Location":"MISSION GRILL","Address":"317121 Camino Capistrano","City":"San Juan Capistrano","State":"CA","Zip":"92675"},{"Location":"OEESHI JAPANESS GRILL","Address":"31882 Del Obispo St 157","City":"San Juan Capistrano","State":"CA","Zip":"92675"},{"Location":"ORTEGA ANIMAL CARE CENTER","Address":"27341 Ortega Hwy","City":"San Juan Capistrano","State":"CA","Zip":"92675"},{"Location":"PARADISE AUTOMOTIVE GROUP","Address":"32592 Valle Rd","City":"San Juan Capistrano","State":"CA","Zip":"92675"},{"Location":"QUEST DIAGNOSTICS","Address":"33608 Ortega Hwy","City":"San Juan Capistrano","State":"CA","Zip":"92675"},{"Location":"REGENCY SAN JUAN CAPISTRANO","Address":"26762 Verdugo St","City":"San Juan Capistrano","State":"CA","Zip":"92675"},{"Location":"RICARDO''S PLACE","Address":"32082 Camino Capistrano","City":"San Juan Capistrano","State":"CA","Zip":"92675"},{"Location":"RUBY'S DINER","Address":"31781 Camino Capistrano","City":"San Juan Capistrano","State":"CA","Zip":"92675"},{"Location":"SAN JUAN HILLS GOLF CLUB","Address":"32120 San Juan Creek Rd","City":"San Juan Capistrano","State":"CA","Zip":"92675"},{"Location":"SARDUCCI'S","Address":"26701 Verdugo St","City":"San Juan Capistrano","State":"CA","Zip":"92675"},{"Location":"SPORT SCIENCE LAB","Address":"26351 Junipero Serra Rd","City":"San Juan Capistrano","State":"CA","Zip":"92675"},{"Location":"ST MARGARET EPISCOPAL","Address":"31641 La Novia Ave","City":"San Juan Capistrano","State":"CA","Zip":"92675"},{"Location":"SUN DRIED TOMATO","Address":"31781 Camino Capistrano","City":"San Juan Capistrano","State":"CA","Zip":"92675"},{"Location":"TANNINS RESTAURANT","Address":"27211 Ortega Hwy","City":"San Juan Capistrano","State":"CA","Zip":"92675"},{"Location":"THAI THAT INC","Address":"31878 Del Obispo St","City":"San Juan Capistrano","State":"CA","Zip":"92675"},{"Location":"THE PALM RESTAURANT","Address":"27211 Ortega Hwy B","City":"San Juan Capistrano","State":"CA","Zip":"92675"},{"Location":"TITAN'S PHO ASIAN BISTRO","Address":"31654 Rancho Viejo Rd Ste C","City":"San Juan Capistrano","State":"CA","Zip":"92675"},{"Location":"TITAN%3FS PHO ASIAN BISTRO","Address":"31654 Rancho Viejo Rd Ste D","City":"San Juan Capistrano","State":"CA","Zip":"92675"},{"Location":"UNITED STATES FORREST SERVICE","Address":"35505 Ortega Hwy","City":"San Juan Capistrano","State":"CA","Zip":"92675"},{"Location":"WEST COAST GOODYEAR","Address":"33171 Camino Capistrano","City":"San Juan Capistrano","State":"CA","Zip":"92675"},{"Location":"TOUCH OF EXELANT","Address":"30240 Rancho Viejo Rd","City":"San Juan Capo","State":"CA","Zip":"92675"}]