[{"Location":"EASTCOAST BAGEL SHOP","Address":"28121 Crown Valley Pkwy","City":"Laguna Beach","State":"CA","Zip":"92677"},{"Location":"","Address":"67 Marseille","City":"Laguna Niguel","State":"CA","Zip":"92677"},{"Location":"24 HOUR FITNESS #085","Address":"32451 Golden Lantern","City":"Laguna Niguel","State":"CA","Zip":"92677"},{"Location":"24 HOUR FITNESS #862","Address":"27921 La Paz Rd","City":"Laguna Niguel","State":"CA","Zip":"92677"},{"Location":"ACACIO FERTILITY CENTER%2C INC","Address":"27882 Forbes Rd 200","City":"Laguna Niguel","State":"CA","Zip":"92677"},{"Location":"ALAN H NGUYEN DDS INC","Address":"27882 Forbes Rd 204","City":"Laguna Niguel","State":"CA","Zip":"92677"},{"Location":"ALLEN GMC","Address":"28332 Camino Capistrano","City":"Laguna Niguel","State":"CA","Zip":"92677"},{"Location":"ATAL GLOBAL INC","Address":"28121 Crown Valley Pkwy E","City":"Laguna Niguel","State":"CA","Zip":"92677"},{"Location":"AVILAS REST INC%2F LN","Address":"27941 La Paz Rd","City":"Laguna Niguel","State":"CA","Zip":"92677"},{"Location":"BAJA FISH TACOS","Address":"30242 Crown Valley Pkwy B5","City":"Laguna Niguel","State":"CA","Zip":"92677"},{"Location":"BAJA FRESH LN","Address":"30231 Golden Lantern","City":"Laguna Niguel","State":"CA","Zip":"92677"},{"Location":"BALLPARK PIZZA","Address":"30120 Town Center Dr","City":"Laguna Niguel","State":"CA","Zip":"92677"},{"Location":"BANK OF AMERICA","Address":"30211 Golden Lantern","City":"Laguna Niguel","State":"CA","Zip":"92677"},{"Location":"BIG WALLYS","Address":"28991 Golden Lantern","City":"Laguna Niguel","State":"CA","Zip":"92677"},{"Location":"CALIFORNIA CINEMA INVESTMENTS","Address":"32401 Golden Lantern","City":"Laguna Niguel","State":"CA","Zip":"92677"},{"Location":"CEASARS APPLIANCE","Address":"28052 Camino Capistrano 110","City":"Laguna Niguel","State":"CA","Zip":"92677"},{"Location":"CELEBRITY CLEANERS","Address":"28221 Crown Valley Pkwy","City":"Laguna Niguel","State":"CA","Zip":"92677"},{"Location":"CHELAS MEXICAN GRILL","Address":"29975 Alicia Pkwy","City":"Laguna Niguel","State":"CA","Zip":"92677"},{"Location":"CHERRY ON TOP","Address":"27020 Alicia Pkwy","City":"Laguna Niguel","State":"CA","Zip":"92677"},{"Location":"CHRISTIAN MISSION CHURCH","Address":"27812 Forbes Rd","City":"Laguna Niguel","State":"CA","Zip":"92677"},{"Location":"DEEMERS AMERICAN GRILL","Address":"27221 La Paz Rd E","City":"Laguna Niguel","State":"CA","Zip":"92677"},{"Location":"DOCTORS AMBULANCE","Address":"26083 Getty Dr","City":"Laguna Niguel","State":"CA","Zip":"92677"},{"Location":"ECONO LUBE N TUNE","Address":"27912 Forbes Rd A","City":"Laguna Niguel","State":"CA","Zip":"92677"},{"Location":"EL CORTEZ","Address":"28971 Golden Lantern","City":"Laguna Niguel","State":"CA","Zip":"92677"},{"Location":"EL NIGUEL COUNTRY CLUB","Address":"23700 Clubhouse Dr B","City":"Laguna Niguel","State":"CA","Zip":"92677"},{"Location":"EL NIGUEL COUNTRY CLUB","Address":"23700 Clubhouse Dr","City":"Laguna Niguel","State":"CA","Zip":"92677"},{"Location":"FREDS MEXICAN CAFE","Address":"32431 Golden Lantern","City":"Laguna Niguel","State":"CA","Zip":"92677"},{"Location":"GREAT SUBS SC V LLC","Address":"24006 Aliso Creek Rd A-18","City":"Laguna Niguel","State":"CA","Zip":"92677"},{"Location":"HASSAN & SONS%2C INC.","Address":"25991 Crown Valley Pkwy 32","City":"Laguna Niguel","State":"CA","Zip":"92677"},{"Location":"ICON MOTORING","Address":"28162 Camino Capistrano","City":"Laguna Niguel","State":"CA","Zip":"92677"},{"Location":"INTERNAL REVENUE SERVICE","Address":"24000 Avila Rd 3504","City":"Laguna Niguel","State":"CA","Zip":"92677"},{"Location":"KALEYARD","Address":"31341 Niguel Rd E","City":"Laguna Niguel","State":"CA","Zip":"92677"},{"Location":"KARMANS","Address":"26022 Cape Dr C","City":"Laguna Niguel","State":"CA","Zip":"92677"},{"Location":"KOHL'S #618","Address":"27380 Heather Ridge Rd","City":"Laguna Niguel","State":"CA","Zip":"92677"},{"Location":"LAGUNA FRATELLOS","Address":"31371 Niguel Rd A","City":"Laguna Niguel","State":"CA","Zip":"92677"},{"Location":"LAGUNA NIGUEL CAR WASH","Address":"30081 Crown Valley Pkwy","City":"Laguna Niguel","State":"CA","Zip":"92677"},{"Location":"LAGUNA NIGUEL RAQUET CLUB","Address":"23500 Clubhouse Dr","City":"Laguna Niguel","State":"CA","Zip":"92677"},{"Location":"LE NAILS","Address":"30012 Crown Valley Pkwy","City":"Laguna Niguel","State":"CA","Zip":"92677"},{"Location":"LIFE TIME ATHLETIC LAGUNA","Address":"25600 Rancho Niguel Rd","City":"Laguna Niguel","State":"CA","Zip":"92677"},{"Location":"LJS BISTRO","Address":"29971 Alicia Pkwy","City":"Laguna Niguel","State":"CA","Zip":"92677"},{"Location":"LUGUNA NIGUEL SURGERY CENTER","Address":"27882 Forbes Rd 203","City":"Laguna Niguel","State":"CA","Zip":"92677"},{"Location":"M%2FV HAZEL MARIE","Address":"36 New Hvn","City":"Laguna Niguel","State":"CA","Zip":"92677"},{"Location":"MANGIA BENE CUCINA","Address":"27281 La Paz Rd","City":"Laguna Niguel","State":"CA","Zip":"92677"},{"Location":"MCGRIFF","Address":"28052 Camino Capistrano 105","City":"Laguna Niguel","State":"CA","Zip":"92677"},{"Location":"MILLERS INFATUENCE LAB","Address":"63 Fleurance St","City":"Laguna Niguel","State":"CA","Zip":"92677"},{"Location":"MUGS AWAY SALOON","Address":"27324 Camino Capistrano 101","City":"Laguna Niguel","State":"CA","Zip":"92677"},{"Location":"NFT BODY SCIENCE","Address":"27932 Lapaz Rd  #h","City":"Laguna Niguel","State":"CA","Zip":"92677"},{"Location":"PACIFIC DENTAL-LAGUNA NIGUEL","Address":"27901 La Paz Rd Std","City":"Laguna Niguel","State":"CA","Zip":"92677"},{"Location":"PARHAM CHROPRACTIC","Address":"27601 Forbes Rd","City":"Laguna Niguel","State":"CA","Zip":"92677"},{"Location":"PATSY IRISH PUB","Address":"28971 Golden Lantern A107","City":"Laguna Niguel","State":"CA","Zip":"92677"},{"Location":"PRECISION AUTO COLLISION","Address":"27882 Camino Capistrano","City":"Laguna Niguel","State":"CA","Zip":"92677"},{"Location":"REGENCY RANCHO NIGUEL","Address":"25471 Rancho Niguel Rd","City":"Laguna Niguel","State":"CA","Zip":"92677"},{"Location":"RESTAURANT GRILL C","Address":"30271 Golden Lantern E","City":"Laguna Niguel","State":"CA","Zip":"92677"},{"Location":"ROBERT A OWENS CPA","Address":"27792 El Lazo","City":"Laguna Niguel","State":"CA","Zip":"92677"},{"Location":"ROCCOS PIZZERIA","Address":"30012 Crown Valley Pkwy Stel","City":"Laguna Niguel","State":"CA","Zip":"92677"},{"Location":"ROCK'N ROAD CYCLERY","Address":"27281 La Paz Rd N","City":"Laguna Niguel","State":"CA","Zip":"92677"},{"Location":"ROMEO CUCINA","Address":"28241 Crown Valley Pkwy H","City":"Laguna Niguel","State":"CA","Zip":"92677"},{"Location":"SADDLEBACK VALLEY CENTER","Address":"28202 Cabot Rd","City":"Laguna Niguel","State":"CA","Zip":"92677"},{"Location":"SCOTTRADE 54W","Address":"32411 Golden Lantern H&i","City":"Laguna Niguel","State":"CA","Zip":"92677"},{"Location":"SEA BREEZE CLEANERS","Address":"27901 Lapaz Rd C","City":"Laguna Niguel","State":"CA","Zip":"92677"},{"Location":"SIGNATURE SPORTS BAR","Address":"30100 Town Center Dr A","City":"Laguna Niguel","State":"CA","Zip":"92677"},{"Location":"SMP COMMERCIAL PROPERTIES","Address":"30101 Town Center Dr 106","City":"Laguna Niguel","State":"CA","Zip":"92677"},{"Location":"SOCAL TMS","Address":"30101 Town Center Dr 213","City":"Laguna Niguel","State":"CA","Zip":"92677"},{"Location":"SOUTH COUNTY BRAKES","Address":"27942 Forbes Rd","City":"Laguna Niguel","State":"CA","Zip":"92677"},{"Location":"SOUTHERN CALIFORNIA SKIN AND L","Address":"27020 Alicia Pkwy G","City":"Laguna Niguel","State":"CA","Zip":"92677"},{"Location":"SPIKES FISH HOUSE","Address":"27020 Alicia Pkwy","City":"Laguna Niguel","State":"CA","Zip":"92677"},{"Location":"SPORT CLIPS CA516","Address":"27311 La Paz Rd","City":"Laguna Niguel","State":"CA","Zip":"92677"},{"Location":"STIX HOLDINGS 702","Address":"27000 Alicia Pkwy","City":"Laguna Niguel","State":"CA","Zip":"92677"},{"Location":"SUB MARINA","Address":"28051 Greenfield Dr G","City":"Laguna Niguel","State":"CA","Zip":"92677"},{"Location":"TASTES OF GREECE","Address":"30012 Crown Valley Pkwy","City":"Laguna Niguel","State":"CA","Zip":"92677"},{"Location":"TED PLACE","Address":"23990 Aliso Creek Rd","City":"Laguna Niguel","State":"CA","Zip":"92677"},{"Location":"TGI FRIDAY'S #1915","Address":"28141 Crown Valley Pkwy","City":"Laguna Niguel","State":"CA","Zip":"92677"},{"Location":"THE CROSS TRAINING CLUB","Address":"27601 Forbes Rd 38","City":"Laguna Niguel","State":"CA","Zip":"92677"},{"Location":"TONY PEPPERONI PIZZERIA","Address":"27000 Alicia Pkwy B","City":"Laguna Niguel","State":"CA","Zip":"92677"},{"Location":"US DEPT OF HOMELAND SEC","Address":"24000 Avila Rd 1552","City":"Laguna Niguel","State":"CA","Zip":"92677"},{"Location":"US DEPT OF HOMELAND SEC 2","Address":"24000 Avila Rd 6120","City":"Laguna Niguel","State":"CA","Zip":"92677"},{"Location":"VCA CROWN VALLEY ANIMAL HOSPIT","Address":"28892 Crown Valley Pkwy","City":"Laguna Niguel","State":"CA","Zip":"92677"},{"Location":"WABA GRILL TERIYAKI HOUSE","Address":"30190 Town Center Dr C","City":"Laguna Niguel","State":"CA","Zip":"92677"},{"Location":"WEST COAST RADIOLOGY CENTERS","Address":"27882 Forbes Rd 120","City":"Laguna Niguel","State":"CA","Zip":"92677"},{"Location":"WHOLE FOODS MARKET","Address":"23932 Aliso Creek Rd","City":"Laguna Niguel","State":"CA","Zip":"92677"},{"Location":"WOMAN FITNESS ELITE","Address":"31271 Niguel Rd J","City":"Laguna Niguel","State":"CA","Zip":"92677"},{"Location":"ZAKURA","Address":"30100 Town Center Dr Y-z","City":"Laguna Niguel","State":"CA","Zip":"92677"}]