[{"Location":"24 HOUR FITNESS #845","Address":"110 Avenida La Pata","City":"San Clemente","State":"CA","Zip":"92673"},{"Location":"ALTAVEST WORLDWIDE TRDG","Address":"905 Calle Amanecer 160","City":"San Clemente","State":"CA","Zip":"92673"},{"Location":"BALL PARK PIZZA TALEGA","Address":"831 Via Suerte 101","City":"San Clemente","State":"CA","Zip":"92673"},{"Location":"BELLA COLLINA TOWNE AND GOLF","Address":"200 Avenida La Pata","City":"San Clemente","State":"CA","Zip":"92673"},{"Location":"BOARD AND BREW","Address":"979 Avenida Pico","City":"San Clemente","State":"CA","Zip":"92673"},{"Location":"CROSS SECTION VENTURES","Address":"940 Calle Negocio 175","City":"San Clemente","State":"CA","Zip":"92673"},{"Location":"FITNESS ELITE","Address":"638 Camino De Los Mares E220","City":"San Clemente","State":"CA","Zip":"92673"},{"Location":"FITNESS ELITE FOR WOMEN","Address":"638 Camino De Los Mares E220","City":"San Clemente","State":"CA","Zip":"92673"},{"Location":"FRATELLOS","Address":"638 Camino De Los Mares E200","City":"San Clemente","State":"CA","Zip":"92673"},{"Location":"ICU MEDICAL INC","Address":"951 Calle Amanecer","City":"San Clemente","State":"CA","Zip":"92673"},{"Location":"INKA MAMAS","Address":"821 Via Suerte 104","City":"San Clemente","State":"CA","Zip":"92673"},{"Location":"LEFT COAST BREWING CO","Address":"1251 Puerta Del Sol","City":"San Clemente","State":"CA","Zip":"92673"},{"Location":"LIGHTING TECH","Address":"970 Calle Negocio","City":"San Clemente","State":"CA","Zip":"92673"},{"Location":"LUX NAILS SPA","Address":"1001 Avenida Pico","City":"San Clemente","State":"CA","Zip":"92673"},{"Location":"MR WABA GRILL","Address":"1011 Avenida Pico C","City":"San Clemente","State":"CA","Zip":"92673"},{"Location":"PALEGA NAIL LOUNGE","Address":"979 Avenida Pico Suite","City":"San Clemente","State":"CA","Zip":"92673"},{"Location":"PHILLYS BEST","Address":"638 Camino De Los Mares F10","City":"San Clemente","State":"CA","Zip":"92673"},{"Location":"SDGE SAN CLEMENTE","Address":"662 Camino De Los Mares","City":"San Clemente","State":"CA","Zip":"92673"},{"Location":"SERENITY NAIL AND SPA","Address":"802 Avenida Talega 102","City":"San Clemente","State":"CA","Zip":"92673"},{"Location":"STEWART AND ASSOCIATES","Address":"1000 Calle Negocio","City":"San Clemente","State":"CA","Zip":"92673"},{"Location":"SUN  DRIED  TOMATO","Address":"821 Via Suerte","City":"San Clemente","State":"CA","Zip":"92673"},{"Location":"TARGET 1","Address":"990 Avenida Vista Hermosa","City":"San Clemente","State":"CA","Zip":"92673"},{"Location":"TRAFFIX DEVICES INC","Address":"160 Lapata","City":"San Clemente","State":"CA","Zip":"92673"},{"Location":"WINGSTOP SAN CLEMENTE","Address":"800 Avenida Pico U","City":"San Clemente","State":"CA","Zip":"92673"},{"Location":"WREATH EQUITY LLC","Address":"979 Avenida Pico F","City":"San Clemente","State":"CA","Zip":"92673"},{"Location":"24 HOUR FITNESS #845","Address":"110 Avenida La Pata","City":"San Clemente","State":"CA","Zip":"92673"},{"Location":"ALTAVEST WORLDWIDE TRDG","Address":"905 Calle Amanecer 160","City":"San Clemente","State":"CA","Zip":"92673"},{"Location":"BALL PARK PIZZA TALEGA","Address":"831 Via Suerte 101","City":"San Clemente","State":"CA","Zip":"92673"},{"Location":"BELLA COLLINA TOWNE AND GOLF","Address":"200 Avenida La Pata","City":"San Clemente","State":"CA","Zip":"92673"},{"Location":"BOARD AND BREW","Address":"979 Avenida Pico","City":"San Clemente","State":"CA","Zip":"92673"},{"Location":"CROSS SECTION VENTURES","Address":"940 Calle Negocio 175","City":"San Clemente","State":"CA","Zip":"92673"},{"Location":"FITNESS ELITE","Address":"638 Camino De Los Mares E220","City":"San Clemente","State":"CA","Zip":"92673"},{"Location":"FITNESS ELITE FOR WOMEN","Address":"638 Camino De Los Mares E220","City":"San Clemente","State":"CA","Zip":"92673"},{"Location":"FRATELLOS","Address":"638 Camino De Los Mares E200","City":"San Clemente","State":"CA","Zip":"92673"},{"Location":"ICU MEDICAL INC","Address":"951 Calle Amanecer","City":"San Clemente","State":"CA","Zip":"92673"},{"Location":"INKA MAMAS","Address":"821 Via Suerte 104","City":"San Clemente","State":"CA","Zip":"92673"},{"Location":"LEFT COAST BREWING CO","Address":"1251 Puerta Del Sol","City":"San Clemente","State":"CA","Zip":"92673"},{"Location":"LIGHTING TECH","Address":"970 Calle Negocio","City":"San Clemente","State":"CA","Zip":"92673"},{"Location":"LUX NAILS SPA","Address":"1001 Avenida Pico","City":"San Clemente","State":"CA","Zip":"92673"},{"Location":"MR WABA GRILL","Address":"1011 Avenida Pico C","City":"San Clemente","State":"CA","Zip":"92673"},{"Location":"PALEGA NAIL LOUNGE","Address":"979 Avenida Pico Suite","City":"San Clemente","State":"CA","Zip":"92673"},{"Location":"PHILLYS BEST","Address":"638 Camino De Los Mares F10","City":"San Clemente","State":"CA","Zip":"92673"},{"Location":"SDGE SAN CLEMENTE","Address":"662 Camino De Los Mares","City":"San Clemente","State":"CA","Zip":"92673"},{"Location":"SERENITY NAIL AND SPA","Address":"802 Avenida Talega 102","City":"San Clemente","State":"CA","Zip":"92673"},{"Location":"STEWART AND ASSOCIATES","Address":"1000 Calle Negocio","City":"San Clemente","State":"CA","Zip":"92673"},{"Location":"SUN  DRIED  TOMATO","Address":"821 Via Suerte","City":"San Clemente","State":"CA","Zip":"92673"},{"Location":"TARGET 1","Address":"990 Avenida Vista Hermosa","City":"San Clemente","State":"CA","Zip":"92673"},{"Location":"TRAFFIX DEVICES INC","Address":"160 Lapata","City":"San Clemente","State":"CA","Zip":"92673"},{"Location":"WINGSTOP SAN CLEMENTE","Address":"800 Avenida Pico U","City":"San Clemente","State":"CA","Zip":"92673"},{"Location":"WREATH EQUITY LLC","Address":"979 Avenida Pico F","City":"San Clemente","State":"CA","Zip":"92673"}]