[{"Location":"COTO DE CAZA GOLF CLUB","Address":"25291 Vista Del Verde","City":"Coto De Caza","State":"CA","Zip":"92679"},{"Location":"COOKS CORNER","Address":"19026 Live Oak Canyon Rd","City":"Trabuco Canyon","State":"CA","Zip":"92679"},{"Location":"M&C GRILL SPORTS BAR","Address":"31911 Dove Canyon Dr","City":"Trabuco Canyon","State":"CA","Zip":"92679"},{"Location":"TRABUCO CANYON WATER DISTRICT","Address":"21397 Heritage Dr","City":"Trabuco Canyon","State":"CA","Zip":"92679"},{"Location":"TRABUCO CANYON WATER DISTRICT","Address":"32003 Dove Canyon Dr","City":"Trabuco Canyon","State":"CA","Zip":"92679"},{"Location":"COTO DE CAZA GOLF CLUB","Address":"25291 Vista Del Verde","City":"Coto De Caza","State":"CA","Zip":"92679"},{"Location":"COOKS CORNER","Address":"19026 Live Oak Canyon Rd","City":"Trabuco Canyon","State":"CA","Zip":"92679"},{"Location":"M&C GRILL SPORTS BAR","Address":"31911 Dove Canyon Dr","City":"Trabuco Canyon","State":"CA","Zip":"92679"},{"Location":"TRABUCO CANYON WATER DISTRICT","Address":"32003 Dove Canyon Dr","City":"Trabuco Canyon","State":"CA","Zip":"92679"},{"Location":"TRABUCO CANYON WATER DISTRICT","Address":"21397 Heritage Dr","City":"Trabuco Canyon","State":"CA","Zip":"92679"}]