[{"Location":"4 STEL ENGINEERING","Address":"109 E Escalones","City":"San Clemente","State":"CA","Zip":"92672"},{"Location":"ALLURE NAILS AND SPA","Address":"460 Camino De Estrella","City":"San Clemente","State":"CA","Zip":"92672"},{"Location":"ALTERNATIVES MIND COMCEP","Address":"401 S El Camino Real G","City":"San Clemente","State":"CA","Zip":"92672"},{"Location":"AVILAS  MEXICAN REST INC","Address":"204 Avenida Del Mar","City":"San Clemente","State":"CA","Zip":"92672"},{"Location":"B AND M AUTOBODY","Address":"1520 Avenida De La Estrella","City":"San Clemente","State":"CA","Zip":"92672"},{"Location":"BEACH CATERING & GRILL","Address":"204 Avenida Del Mar D","City":"San Clemente","State":"CA","Zip":"92672"},{"Location":"BEACHCOMBER BARBERSHOP","Address":"430 N El Camino Real","City":"San Clemente","State":"CA","Zip":"92672"},{"Location":"BEAUTY NAILS & SPA","Address":"415 E Avenida Pico","City":"San Clemente","State":"CA","Zip":"92672"},{"Location":"BIG HELYN'S LLC","Address":"3317 S El Camino Real","City":"San Clemente","State":"CA","Zip":"92672"},{"Location":"BIGGIES BURGERS","Address":"1017 S El Camino Real","City":"San Clemente","State":"CA","Zip":"92672"},{"Location":"BRICK PIZZERIA","Address":"216 N El Camino Real","City":"San Clemente","State":"CA","Zip":"92672"},{"Location":"BURGER JUNKIES","Address":"415 E Avenida Pico N2","City":"San Clemente","State":"CA","Zip":"92672"},{"Location":"CAL BANK & TRUST- SAN CL","Address":"115 Via Pico Plz","City":"San Clemente","State":"CA","Zip":"92672"},{"Location":"CALIFORNIA COASTAL PROP","Address":"520 Avenida Victoria","City":"San Clemente","State":"CA","Zip":"92672"},{"Location":"CALIFORNIA COASTAL PROP1","Address":"524 Avenida Victoria","City":"San Clemente","State":"CA","Zip":"92672"},{"Location":"CALIFORNIA COASTAL PROPE","Address":"522 Avenida Victoria","City":"San Clemente","State":"CA","Zip":"92672"},{"Location":"CHRONIC TACOS","Address":"415 E Avenida Pico Le","City":"San Clemente","State":"CA","Zip":"92672"},{"Location":"COOK ENTERPRISES INC","Address":"304 Avenida De La Estrella","City":"San Clemente","State":"CA","Zip":"92672"},{"Location":"CYPRUS COVE ASSOCIATION","Address":"264 Avenida Vista Del Oceano","City":"San Clemente","State":"CA","Zip":"92672"},{"Location":"DEL MAR WATCH AND CLOCK","Address":"217 Avenida Del Mar","City":"San Clemente","State":"CA","Zip":"92672"},{"Location":"DOWNTOWN BARBERSHOP","Address":"113 S El Camino Real","City":"San Clemente","State":"CA","Zip":"92672"},{"Location":"DUKES","Address":"204 S El Camino Real","City":"San Clemente","State":"CA","Zip":"92672"},{"Location":"EMERALD CITY JEWELERS INC","Address":"166 Avenida Del Mar","City":"San Clemente","State":"CA","Zip":"92672"},{"Location":"FITNESS 19--CA 105","Address":"93 Via Pico Plz A","City":"San Clemente","State":"CA","Zip":"92672"},{"Location":"FOROGH MOZAFFARI","Address":"75 Via Pico Plz","City":"San Clemente","State":"CA","Zip":"92672"},{"Location":"FRANKS AUTO COLLISION","Address":"1510 Avenida De La Estrella","City":"San Clemente","State":"CA","Zip":"92672"},{"Location":"GOODY'S TAVERN","Address":"206 S El Camino Real","City":"San Clemente","State":"CA","Zip":"92672"},{"Location":"GREATER GOOD FOODS LLC","Address":"2727 Via Cascadita Stef","City":"San Clemente","State":"CA","Zip":"92672"},{"Location":"HAMPTON INN- SAN CLEMENT","Address":"2481 S El Camino Real","City":"San Clemente","State":"CA","Zip":"92672"},{"Location":"HANSONS MARKET","Address":"415 Abenida Pico","City":"San Clemente","State":"CA","Zip":"92672"},{"Location":"ICHI BIRI","Address":"1814 N El Camino Real","City":"San Clemente","State":"CA","Zip":"92672"},{"Location":"IVA LEES SOUTHERN DINNER","Address":"555 N El Camino Real E","City":"San Clemente","State":"CA","Zip":"92672"},{"Location":"IZZA PIZZA","Address":"376-378 Camino De Estrella","City":"San Clemente","State":"CA","Zip":"92672"},{"Location":"JAQUELINE NAZARIAN","Address":"2720 Camino Capistrano","City":"San Clemente","State":"CA","Zip":"92672"},{"Location":"KNUCKLEHEADS","Address":"1717 N El Camino Real","City":"San Clemente","State":"CA","Zip":"92672"},{"Location":"LA COCINA DE RICARDOS","Address":"401 S El Camino Real B","City":"San Clemente","State":"CA","Zip":"92672"},{"Location":"LA ROCCO'S PIZZERIA","Address":"113 S El Camino Real","City":"San Clemente","State":"CA","Zip":"92672"},{"Location":"LA SIESTA","Address":"920 N El Camino Real","City":"San Clemente","State":"CA","Zip":"92672"},{"Location":"LAROCCOS SAN CLEMENTE","Address":"113b S El Camino Real","City":"San Clemente","State":"CA","Zip":"92672"},{"Location":"MRK PUBLIC LLC","Address":"1402 S El Camino Real","City":"San Clemente","State":"CA","Zip":"92672"},{"Location":"MULLIGAN'S SPORTS BUNKER","Address":"1401 Calle Valle","City":"San Clemente","State":"CA","Zip":"92672"},{"Location":"NEPTUNES DEN SALON FOR MEN","Address":"2720 Camino Capistrano B","City":"San Clemente","State":"CA","Zip":"92672"},{"Location":"O C TAVERN","Address":"2369 S El Camino Real","City":"San Clemente","State":"CA","Zip":"92672"},{"Location":"OLE'S TAVERN","Address":"127 S El Camino Real","City":"San Clemente","State":"CA","Zip":"92672"},{"Location":"ORANGE COUNTY MATTRESS","Address":"416 E Avenida Pico","City":"San Clemente","State":"CA","Zip":"92672"},{"Location":"OUTRIGGER TAVERN","Address":"1920 S El Camino Real","City":"San Clemente","State":"CA","Zip":"92672"},{"Location":"PEERSIDE","Address":"610 Avenida Victoria","City":"San Clemente","State":"CA","Zip":"92672"},{"Location":"PIZZA PORT - SAN CLEMENTE","Address":"301 N El Camino Real Rt","City":"San Clemente","State":"CA","Zip":"92672"},{"Location":"RANDY MERRITT","Address":"209 Aveniba Del Mar","City":"San Clemente","State":"CA","Zip":"92672"},{"Location":"RAYS BARBER PLACE","Address":"400 S El Camino Real","City":"San Clemente","State":"CA","Zip":"92672"},{"Location":"RESTAURANT ROCCOS","Address":"203 N El Camino Real","City":"San Clemente","State":"CA","Zip":"92672"},{"Location":"SAN CLEMENTE SELMAS","Address":"218 Avenida Del Mar","City":"San Clemente","State":"CA","Zip":"92672"},{"Location":"SAN CLEMENTE SHORECLIFFS BEACH","Address":"2771 Coast Hwy","City":"San Clemente","State":"CA","Zip":"92672"},{"Location":"SAN CLEMENTE SPORTS","Address":"105 Calle De Los Molinos","City":"San Clemente","State":"CA","Zip":"92672"},{"Location":"SAN CLEMENTE WINE","Address":"212 1%2F2 Avenida Del Mar","City":"San Clemente","State":"CA","Zip":"92672"},{"Location":"SAN CLEMENTES FITNESS INC","Address":"123 S El Camino Real","City":"San Clemente","State":"CA","Zip":"92672"},{"Location":"SAN ONOFRE NUCLEAR","Address":"14300 Mesa  Rd Aws","City":"San Clemente","State":"CA","Zip":"92672"},{"Location":"SCHLOTZSKYS BAKERY AND CAFE","Address":"Building 51096 Basilone","City":"San Clemente","State":"CA","Zip":"92672"},{"Location":"SENOR BARBER","Address":"401 S El Camino Real F","City":"San Clemente","State":"CA","Zip":"92672"},{"Location":"SHORECLIFFS CC","Address":"501 Avenida Vaquero","City":"San Clemente","State":"CA","Zip":"92672"},{"Location":"SOFA BY DESIGN","Address":"308 Avenida De La Estrella","City":"San Clemente","State":"CA","Zip":"92672"},{"Location":"SONANCE CORPOATION","Address":"212 Avenida Fabricante","City":"San Clemente","State":"CA","Zip":"92672"},{"Location":"SPECIAL BOAT TEAM 12","Address":"Sbt12 Facility","City":"San Clemente","State":"CA","Zip":"92672"},{"Location":"STEVE JULIUS CONSTRUCTION","Address":"230 Calle Pintoresco","City":"San Clemente","State":"CA","Zip":"92672"},{"Location":"STIX HOLDINGS 751","Address":"415 E Avenida Pico A1","City":"San Clemente","State":"CA","Zip":"92672"},{"Location":"SUNSET GLOW NAIL SPA","Address":"1450 N El Camino Real C","City":"San Clemente","State":"CA","Zip":"92672"},{"Location":"SURE HAVEN 42","Address":"216 Avenida La Cuesta","City":"San Clemente","State":"CA","Zip":"92672"},{"Location":"T&G MANAGEMENT","Address":"2391 South El Camino A1","City":"San Clemente","State":"CA","Zip":"92672"},{"Location":"THE FISHERMANS RESTAURANT","Address":"611 Avenida Victoria","City":"San Clemente","State":"CA","Zip":"92672"},{"Location":"THE RED FOX LOUNGE","Address":"220 S El Camino Real","City":"San Clemente","State":"CA","Zip":"92672"},{"Location":"THE RIDERS CLUB CAFE","Address":"1701 N El Camino Real","City":"San Clemente","State":"CA","Zip":"92672"},{"Location":"TIRE KINGDOM B-5816","Address":"927 N El Camino Real","City":"San Clemente","State":"CA","Zip":"92672"},{"Location":"TOMMYS","Address":"1409 El Camino Real","City":"San Clemente","State":"CA","Zip":"92672"},{"Location":"US BORDER PATROL","Address":"I5 North Bound Checkpoin","City":"San Clemente","State":"CA","Zip":"92672"},{"Location":"VINE","Address":"211 N El Camino Real","City":"San Clemente","State":"CA","Zip":"92672"},{"Location":"WEDGEWOOD BANQUET CENTER","Address":"150 E Avenida Magdalena","City":"San Clemente","State":"CA","Zip":"92672"},{"Location":"WINTHROP TAYLOR FINANCIAL","Address":"241 Avenida Del Mar","City":"San Clemente","State":"CA","Zip":"92672"},{"Location":"YU AND HL INC","Address":"305 S El Camino Real 102","City":"San Clemente","State":"CA","Zip":"92672"},{"Location":"4 STEL ENGINEERING","Address":"109 E Escalones","City":"San Clemente","State":"CA","Zip":"92672"},{"Location":"ALLURE NAILS AND SPA","Address":"460 Camino De Estrella","City":"San Clemente","State":"CA","Zip":"92672"},{"Location":"ALTERNATIVES MIND COMCEP","Address":"401 S El Camino Real G","City":"San Clemente","State":"CA","Zip":"92672"},{"Location":"AVILAS  MEXICAN REST INC","Address":"204 Avenida Del Mar","City":"San Clemente","State":"CA","Zip":"92672"},{"Location":"B AND M AUTOBODY","Address":"1520 Avenida De La Estrella","City":"San Clemente","State":"CA","Zip":"92672"},{"Location":"BEACH CATERING & GRILL","Address":"204 Avenida Del Mar D","City":"San Clemente","State":"CA","Zip":"92672"},{"Location":"BEACHCOMBER BARBERSHOP","Address":"430 N El Camino Real","City":"San Clemente","State":"CA","Zip":"92672"},{"Location":"BEAUTY NAILS & SPA","Address":"415 E Avenida Pico","City":"San Clemente","State":"CA","Zip":"92672"},{"Location":"BIG HELYN'S LLC","Address":"3317 S El Camino Real","City":"San Clemente","State":"CA","Zip":"92672"},{"Location":"BIGGIES BURGERS","Address":"1017 S El Camino Real","City":"San Clemente","State":"CA","Zip":"92672"},{"Location":"BRICK PIZZERIA","Address":"216 N El Camino Real","City":"San Clemente","State":"CA","Zip":"92672"},{"Location":"BURGER JUNKIES","Address":"415 E Avenida Pico N2","City":"San Clemente","State":"CA","Zip":"92672"},{"Location":"CAL BANK & TRUST- SAN CL","Address":"115 Via Pico Plz","City":"San Clemente","State":"CA","Zip":"92672"},{"Location":"CALIFORNIA COASTAL PROP","Address":"520 Avenida Victoria","City":"San Clemente","State":"CA","Zip":"92672"},{"Location":"CALIFORNIA COASTAL PROP1","Address":"524 Avenida Victoria","City":"San Clemente","State":"CA","Zip":"92672"},{"Location":"CALIFORNIA COASTAL PROPE","Address":"522 Avenida Victoria","City":"San Clemente","State":"CA","Zip":"92672"},{"Location":"CHRONIC TACOS","Address":"415 E Avenida Pico Le","City":"San Clemente","State":"CA","Zip":"92672"},{"Location":"COOK ENTERPRISES INC","Address":"304 Avenida De La Estrella","City":"San Clemente","State":"CA","Zip":"92672"},{"Location":"CYPRUS COVE ASSOCIATION","Address":"264 Avenida Vista Del Oceano","City":"San Clemente","State":"CA","Zip":"92672"},{"Location":"DEL MAR WATCH AND CLOCK","Address":"217 Avenida Del Mar","City":"San Clemente","State":"CA","Zip":"92672"},{"Location":"DOWNTOWN BARBERSHOP","Address":"113 S El Camino Real","City":"San Clemente","State":"CA","Zip":"92672"},{"Location":"DUKES","Address":"204 S El Camino Real","City":"San Clemente","State":"CA","Zip":"92672"},{"Location":"EMERALD CITY JEWELERS INC","Address":"166 Avenida Del Mar","City":"San Clemente","State":"CA","Zip":"92672"},{"Location":"FITNESS 19--CA 105","Address":"93 Via Pico Plz A","City":"San Clemente","State":"CA","Zip":"92672"},{"Location":"FOROGH MOZAFFARI","Address":"75 Via Pico Plz","City":"San Clemente","State":"CA","Zip":"92672"},{"Location":"FRANKS AUTO COLLISION","Address":"1510 Avenida De La Estrella","City":"San Clemente","State":"CA","Zip":"92672"},{"Location":"GOODY'S TAVERN","Address":"206 S El Camino Real","City":"San Clemente","State":"CA","Zip":"92672"},{"Location":"GREATER GOOD FOODS LLC","Address":"2727 Via Cascadita Stef","City":"San Clemente","State":"CA","Zip":"92672"},{"Location":"HAMPTON INN- SAN CLEMENT","Address":"2481 S El Camino Real","City":"San Clemente","State":"CA","Zip":"92672"},{"Location":"HANSONS MARKET","Address":"415 Abenida Pico","City":"San Clemente","State":"CA","Zip":"92672"},{"Location":"ICHI BIRI","Address":"1814 N El Camino Real","City":"San Clemente","State":"CA","Zip":"92672"},{"Location":"IVA LEES SOUTHERN DINNER","Address":"555 N El Camino Real E","City":"San Clemente","State":"CA","Zip":"92672"},{"Location":"IZZA PIZZA","Address":"376-378 Camino De Estrella","City":"San Clemente","State":"CA","Zip":"92672"},{"Location":"JAQUELINE NAZARIAN","Address":"2720 Camino Capistrano","City":"San Clemente","State":"CA","Zip":"92672"},{"Location":"KNUCKLEHEADS","Address":"1717 N El Camino Real","City":"San Clemente","State":"CA","Zip":"92672"},{"Location":"LA COCINA DE RICARDOS","Address":"401 S El Camino Real B","City":"San Clemente","State":"CA","Zip":"92672"},{"Location":"LA ROCCO'S PIZZERIA","Address":"113 S El Camino Real","City":"San Clemente","State":"CA","Zip":"92672"},{"Location":"LA SIESTA","Address":"920 N El Camino Real","City":"San Clemente","State":"CA","Zip":"92672"},{"Location":"LAROCCOS SAN CLEMENTE","Address":"113b S El Camino Real","City":"San Clemente","State":"CA","Zip":"92672"},{"Location":"MRK PUBLIC LLC","Address":"1402 S El Camino Real","City":"San Clemente","State":"CA","Zip":"92672"},{"Location":"MULLIGAN'S SPORTS BUNKER","Address":"1401 Calle Valle","City":"San Clemente","State":"CA","Zip":"92672"},{"Location":"NEPTUNES DEN SALON FOR MEN","Address":"2720 Camino Capistrano B","City":"San Clemente","State":"CA","Zip":"92672"},{"Location":"O C TAVERN","Address":"2369 S El Camino Real","City":"San Clemente","State":"CA","Zip":"92672"},{"Location":"OLE'S TAVERN","Address":"127 S El Camino Real","City":"San Clemente","State":"CA","Zip":"92672"},{"Location":"ORANGE COUNTY MATTRESS","Address":"416 E Avenida Pico","City":"San Clemente","State":"CA","Zip":"92672"},{"Location":"OUTRIGGER TAVERN","Address":"1920 S El Camino Real","City":"San Clemente","State":"CA","Zip":"92672"},{"Location":"PEERSIDE","Address":"610 Avenida Victoria","City":"San Clemente","State":"CA","Zip":"92672"},{"Location":"PIZZA PORT - SAN CLEMENTE","Address":"301 N El Camino Real Rt","City":"San Clemente","State":"CA","Zip":"92672"},{"Location":"RANDY MERRITT","Address":"209 Aveniba Del Mar","City":"San Clemente","State":"CA","Zip":"92672"},{"Location":"RAYS BARBER PLACE","Address":"400 S El Camino Real","City":"San Clemente","State":"CA","Zip":"92672"},{"Location":"RESTAURANT ROCCOS","Address":"203 N El Camino Real","City":"San Clemente","State":"CA","Zip":"92672"},{"Location":"SAN CLEMENTE SELMAS","Address":"218 Avenida Del Mar","City":"San Clemente","State":"CA","Zip":"92672"},{"Location":"SAN CLEMENTE SHORECLIFFS BEACH","Address":"2771 Coast Hwy","City":"San Clemente","State":"CA","Zip":"92672"},{"Location":"SAN CLEMENTE SPORTS","Address":"105 Calle De Los Molinos","City":"San Clemente","State":"CA","Zip":"92672"},{"Location":"SAN CLEMENTE WINE","Address":"212 1%2F2 Avenida Del Mar","City":"San Clemente","State":"CA","Zip":"92672"},{"Location":"SAN CLEMENTES FITNESS INC","Address":"123 S El Camino Real","City":"San Clemente","State":"CA","Zip":"92672"},{"Location":"SAN ONOFRE NUCLEAR","Address":"14300 Mesa  Rd Aws","City":"San Clemente","State":"CA","Zip":"92672"},{"Location":"SCHLOTZSKYS BAKERY AND CAFE","Address":"Building 51096 Basilone","City":"San Clemente","State":"CA","Zip":"92672"},{"Location":"SENOR BARBER","Address":"401 S El Camino Real F","City":"San Clemente","State":"CA","Zip":"92672"},{"Location":"SHORECLIFFS CC","Address":"501 Avenida Vaquero","City":"San Clemente","State":"CA","Zip":"92672"},{"Location":"SOFA BY DESIGN","Address":"308 Avenida De La Estrella","City":"San Clemente","State":"CA","Zip":"92672"},{"Location":"SONANCE CORPOATION","Address":"212 Avenida Fabricante","City":"San Clemente","State":"CA","Zip":"92672"},{"Location":"SPECIAL BOAT TEAM 12","Address":"Sbt12 Facility","City":"San Clemente","State":"CA","Zip":"92672"},{"Location":"STEVE JULIUS CONSTRUCTION","Address":"230 Calle Pintoresco","City":"San Clemente","State":"CA","Zip":"92672"},{"Location":"STIX HOLDINGS 751","Address":"415 E Avenida Pico A1","City":"San Clemente","State":"CA","Zip":"92672"},{"Location":"SUNSET GLOW NAIL SPA","Address":"1450 N El Camino Real C","City":"San Clemente","State":"CA","Zip":"92672"},{"Location":"SURE HAVEN 42","Address":"216 Avenida La Cuesta","City":"San Clemente","State":"CA","Zip":"92672"},{"Location":"T&G MANAGEMENT","Address":"2391 South El Camino A1","City":"San Clemente","State":"CA","Zip":"92672"},{"Location":"THE FISHERMANS RESTAURANT","Address":"611 Avenida Victoria","City":"San Clemente","State":"CA","Zip":"92672"},{"Location":"THE RED FOX LOUNGE","Address":"220 S El Camino Real","City":"San Clemente","State":"CA","Zip":"92672"},{"Location":"THE RIDERS CLUB CAFE","Address":"1701 N El Camino Real","City":"San Clemente","State":"CA","Zip":"92672"},{"Location":"TIRE KINGDOM B-5816","Address":"927 N El Camino Real","City":"San Clemente","State":"CA","Zip":"92672"},{"Location":"TOMMYS","Address":"1409 El Camino Real","City":"San Clemente","State":"CA","Zip":"92672"},{"Location":"US BORDER PATROL","Address":"I5 North Bound Checkpoin","City":"San Clemente","State":"CA","Zip":"92672"},{"Location":"VINE","Address":"211 N El Camino Real","City":"San Clemente","State":"CA","Zip":"92672"},{"Location":"WEDGEWOOD BANQUET CENTER","Address":"150 E Avenida Magdalena","City":"San Clemente","State":"CA","Zip":"92672"},{"Location":"WINTHROP TAYLOR FINANCIAL","Address":"241 Avenida Del Mar","City":"San Clemente","State":"CA","Zip":"92672"},{"Location":"YU AND HL INC","Address":"305 S El Camino Real 102","City":"San Clemente","State":"CA","Zip":"92672"}]