[{"Location":"ARTIST RESTAURANT","Address":"14281 Brookhurst","City":"Westminister","State":"CA","Zip":"92683"},{"Location":"20 20 VISION","Address":"15622 Brookhurst St","City":"Westminster","State":"CA","Zip":"92683"},{"Location":"24 HOUR FITNESS #864","Address":"6731 Westminster Blvd 113","City":"Westminster","State":"CA","Zip":"92683"},{"Location":"ALAMITOS ANIMAL HOSPITAL","Address":"7122 Garden Grove Blvd","City":"Westminster","State":"CA","Zip":"92683"},{"Location":"ALL SPORT SPORTS BAR","Address":"7132 Garden Grove Blvd","City":"Westminster","State":"CA","Zip":"92683"},{"Location":"ANYTMIE FITNESS","Address":"524 Westminster Mall","City":"Westminster","State":"CA","Zip":"92683"},{"Location":"BEACH GIRLS","Address":"15549 Beach Blvd","City":"Westminster","State":"CA","Zip":"92683"},{"Location":"BLEU","Address":"14160 Beach Blvd","City":"Westminster","State":"CA","Zip":"92683"},{"Location":"BLUE OCEAN","Address":"14541 Brookhurst St A3","City":"Westminster","State":"CA","Zip":"92683"},{"Location":"BOLSA B.B.Q.","Address":"8938 Bolsa Ave","City":"Westminster","State":"CA","Zip":"92683"},{"Location":"BOLSA MEDICAL GROUP","Address":"10362 Bolsa Ave","City":"Westminster","State":"CA","Zip":"92683"},{"Location":"BUN BO HUE #1","Address":"15450 Brookhurst St","City":"Westminster","State":"CA","Zip":"92683"},{"Location":"CAFE ANH DAO","Address":"9550 Bolsa Ave 129","City":"Westminster","State":"CA","Zip":"92683"},{"Location":"CAFE DANG","Address":"7771 Westminster Blvd","City":"Westminster","State":"CA","Zip":"92683"},{"Location":"CAFE PICASSO","Address":"15619 Brookhurst St","City":"Westminster","State":"CA","Zip":"92683"},{"Location":"CAFE THAO","Address":"8095 Westminster Blvd","City":"Westminster","State":"CA","Zip":"92683"},{"Location":"CAFE WESTMINSTER","Address":"6260 Westminster Blvd","City":"Westminster","State":"CA","Zip":"92683"},{"Location":"CARMEDIC SERVICE REPAIR","Address":"15081 Moran St K","City":"Westminster","State":"CA","Zip":"92683"},{"Location":"CEST SI BON","Address":"6640 Westminster Blvd","City":"Westminster","State":"CA","Zip":"92683"},{"Location":"CHP","Address":"13200 Goldenwest St","City":"Westminster","State":"CA","Zip":"92683"},{"Location":"CHRISTOPHER H NGUYEN","Address":"15628 Brookhurst St","City":"Westminster","State":"CA","Zip":"92683"},{"Location":"CHUZE FITNESS","Address":"1025 Westminster Mall 2027a","City":"Westminster","State":"CA","Zip":"92683"},{"Location":"COM GA NAM AN","Address":"15562 Brookhurst St","City":"Westminster","State":"CA","Zip":"92683"},{"Location":"DAVITA #3545 WESTMINSTER","Address":"14014 Magnolia St","City":"Westminster","State":"CA","Zip":"92683"},{"Location":"DL AUTO LUX INC.","Address":"6850 Westminster Blvd Stea","City":"Westminster","State":"CA","Zip":"92683"},{"Location":"DVS SHOE COMPANY 2","Address":"7171 Fenwick Ln","City":"Westminster","State":"CA","Zip":"92683"},{"Location":"EL PICO DE GALLO","Address":"7051 Westminster Blvd","City":"Westminster","State":"CA","Zip":"92683"},{"Location":"EL TORITO 7018","Address":"15042 Goldenwest Ave","City":"Westminster","State":"CA","Zip":"92683"},{"Location":"ELMORE TOYOTA","Address":"15300 Beach Blvd","City":"Westminster","State":"CA","Zip":"92683"},{"Location":"FANTASTIC CA WESTMINSTER","Address":"5062 Westminster Blvd","City":"Westminster","State":"CA","Zip":"92683"},{"Location":"FASHION NAILS","Address":"15066 Goldenwest St","City":"Westminster","State":"CA","Zip":"92683"},{"Location":"FINANCIAL CREDIT UNION","Address":"5505 Garden Grove Blvd","City":"Westminster","State":"CA","Zip":"92683"},{"Location":"FMC 71710000","Address":"209 Hospital Cir","City":"Westminster","State":"CA","Zip":"92683"},{"Location":"FMC 71800000","Address":"15330 Goldenwest St","City":"Westminster","State":"CA","Zip":"92683"},{"Location":"FRANKS BIG O","Address":"5944 Westminster Blvd","City":"Westminster","State":"CA","Zip":"92683"},{"Location":"FUSION 11","Address":"14580 Brookhurst St","City":"Westminster","State":"CA","Zip":"92683"},{"Location":"GOLDEN WEST TRANSMISSION","Address":"13082 Goldenwest St A","City":"Westminster","State":"CA","Zip":"92683"},{"Location":"GREEN GIRL SALOON","Address":"14341 Beach Blvd","City":"Westminster","State":"CA","Zip":"92683"},{"Location":"HERITAGE MOBILE HOMES","Address":"14971 Chestnut St J","City":"Westminster","State":"CA","Zip":"92683"},{"Location":"HUDSON CHIROPRACTIC","Address":"15201 Beach Blvd","City":"Westminster","State":"CA","Zip":"92683"},{"Location":"HUYNH","Address":"15420 Brookhurst St","City":"Westminster","State":"CA","Zip":"92683"},{"Location":"ILLUSION CYCLES","Address":"14726 Goldenwest St F","City":"Westminster","State":"CA","Zip":"92683"},{"Location":"INDIAN MOTORCYCLE OF ORANGE","Address":"13031 Goldenwest St","City":"Westminster","State":"CA","Zip":"92683"},{"Location":"INTERNATIONAL BILLIARDS","Address":"6328 Westminster Blvd","City":"Westminster","State":"CA","Zip":"92683"},{"Location":"JERSEY MIKES SUBS","Address":"16470 Beach Blvd","City":"Westminster","State":"CA","Zip":"92683"},{"Location":"JIFFY LUBE 1579","Address":"6011 Westminster Blvd","City":"Westminster","State":"CA","Zip":"92683"},{"Location":"JIN LOUNGE","Address":"9191 Bolsa Ave 12212","City":"Westminster","State":"CA","Zip":"92683"},{"Location":"JOHNSON ELECTRIC","Address":"5326 Charing Cross Rd","City":"Westminster","State":"CA","Zip":"92683"},{"Location":"KATIE JUICE","Address":"10161 Bolsa Ave 109a","City":"Westminster","State":"CA","Zip":"92683"},{"Location":"KICKING CRAB","Address":"15496 Magnolia St 101","City":"Westminster","State":"CA","Zip":"92683"},{"Location":"KIMBERLY SKIN","Address":"15191 Beach Blvd","City":"Westminster","State":"CA","Zip":"92683"},{"Location":"KOOGAI SALON","Address":"15632 Brookhurst St","City":"Westminster","State":"CA","Zip":"92683"},{"Location":"LA RESTAURANT","Address":"8461 Westminster Blvd","City":"Westminster","State":"CA","Zip":"92683"},{"Location":"LESTER B LIM DDS","Address":"230 Hospital Cir","City":"Westminster","State":"CA","Zip":"92683"},{"Location":"LOS ALISOS","Address":"5772 Garden Grove Blvd","City":"Westminster","State":"CA","Zip":"92683"},{"Location":"LOS ALISOS RANCH COMPANY","Address":"13100 Melanie Ln","City":"Westminster","State":"CA","Zip":"92683"},{"Location":"LOS ALISOS RANCH COMPANY","Address":"13070 Old Bolsa Chica Rd","City":"Westminster","State":"CA","Zip":"92683"},{"Location":"LTD SANDWICH","Address":"15380 Beach Blvd B","City":"Westminster","State":"CA","Zip":"92683"},{"Location":"M. WESTLAND","Address":"13100 Melanie Ln","City":"Westminster","State":"CA","Zip":"92683"},{"Location":"MACY'S WEST 525","Address":"300 Westminster Mall","City":"Westminster","State":"CA","Zip":"92683"},{"Location":"MACY'S WEST 525 BR","Address":"300 Westminster Mall","City":"Westminster","State":"CA","Zip":"92683"},{"Location":"MANDT BROS","Address":"14450 Hoover St","City":"Westminster","State":"CA","Zip":"92683"},{"Location":"MARIE CALLENDER'S #139","Address":"16390 Beach Blvd","City":"Westminster","State":"CA","Zip":"92683"},{"Location":"MARITATO","Address":"6152 Garden Grove Blvd","City":"Westminster","State":"CA","Zip":"92683"},{"Location":"MARU SUSHI","Address":"15362 Goldenwest St","City":"Westminster","State":"CA","Zip":"92683"},{"Location":"MATSUYAMA","Address":"13531 Beach Blvd","City":"Westminster","State":"CA","Zip":"92683"},{"Location":"MICHAEL'S SPORTS PUB & GRILL","Address":"15192 Goldenwest St","City":"Westminster","State":"CA","Zip":"92683"},{"Location":"MIDCITY SANITARY DIST","Address":"14451 Cedarwood St","City":"Westminster","State":"CA","Zip":"92683"},{"Location":"MILAN HAIR SALON","Address":"9657 Bolsa Ave","City":"Westminster","State":"CA","Zip":"92683"},{"Location":"MODERN BEAUTY SALON","Address":"9550 Bolsa Ave","City":"Westminster","State":"CA","Zip":"92683"},{"Location":"MOONLIGHT RESTAURANT & B","Address":"15440 Beach Blvd 118","City":"Westminster","State":"CA","Zip":"92683"},{"Location":"MT ZION BARBERSHOP","Address":"13089 Springarden Ln","City":"Westminster","State":"CA","Zip":"92683"},{"Location":"MT ZION BARBERSHOP 2","Address":"7138 Garden Grove Blvd","City":"Westminster","State":"CA","Zip":"92683"},{"Location":"NEIGHBORS CONSTRUCTION","Address":"14382 Hoover St A19","City":"Westminster","State":"CA","Zip":"92683"},{"Location":"NGUOI VIET NEWS INC 1","Address":"14771 Moran St","City":"Westminster","State":"CA","Zip":"92683"},{"Location":"ONE STOP LIQUOR","Address":"14062 Springdale St","City":"Westminster","State":"CA","Zip":"92683"},{"Location":"OUTBACK STEAKHOUSE #0587","Address":"549 Westminster Mall","City":"Westminster","State":"CA","Zip":"92683"},{"Location":"PASSION 8","Address":"10161 Bolsa Ave 107a","City":"Westminster","State":"CA","Zip":"92683"},{"Location":"PATRICK KHA LEE%2C DMD","Address":"9900 Mcfadden Ave 101","City":"Westminster","State":"CA","Zip":"92683"},{"Location":"PHO NGUYEN HUE  2","Address":"10487 Bolsa Ave","City":"Westminster","State":"CA","Zip":"92683"},{"Location":"PHO VEM","Address":"10161 Bolsa Ave","City":"Westminster","State":"CA","Zip":"92683"},{"Location":"PL MACHINE SHOP","Address":"7110 Fenwick Ln","City":"Westminster","State":"CA","Zip":"92683"},{"Location":"POSSE BAR  INC","Address":"13093 Springdale St","City":"Westminster","State":"CA","Zip":"92683"},{"Location":"QUAN 9999","Address":"15440 Brookhurst St","City":"Westminster","State":"CA","Zip":"92683"},{"Location":"S RESTAURANT INC","Address":"545 Westminster Mall","City":"Westminster","State":"CA","Zip":"92683"},{"Location":"SAFELITE AUTO GLASS","Address":"7501 Suzi Ln","City":"Westminster","State":"CA","Zip":"92683"},{"Location":"SCI HOLDING","Address":"15891 Mills Cir","City":"Westminster","State":"CA","Zip":"92683"},{"Location":"SEAFOOD PALACE","Address":"6731 Westminster Blvd 122","City":"Westminster","State":"CA","Zip":"92683"},{"Location":"SERRANITO INC","Address":"8442 Westminster Blvd","City":"Westminster","State":"CA","Zip":"92683"},{"Location":"SHINABU SHABU","Address":"15226 Goldenwest St","City":"Westminster","State":"CA","Zip":"92683"},{"Location":"SL FOOD","Address":"14831 Moran St","City":"Westminster","State":"CA","Zip":"92683"},{"Location":"SO CAL CUSTOM SHEET","Address":"14086 Willow Ln","City":"Westminster","State":"CA","Zip":"92683"},{"Location":"SOUTHERN CALIFORNIA EDISON","Address":"7333 Bolsa Ave","City":"Westminster","State":"CA","Zip":"92683"},{"Location":"SPORTS TREASURES","Address":"2085 Westminster Mall","City":"Westminster","State":"CA","Zip":"92683"},{"Location":"SUNDOWNER","Address":"8568 Westminster Blvd","City":"Westminster","State":"CA","Zip":"92683"},{"Location":"T M GENERATION INC 2","Address":"15556 Brookhurst St B","City":"Westminster","State":"CA","Zip":"92683"},{"Location":"TACO SURF%2F WEST.","Address":"6061 Westminster Blvd","City":"Westminster","State":"CA","Zip":"92683"},{"Location":"TARGET 2304","Address":"200 Westminster Mall","City":"Westminster","State":"CA","Zip":"92683"},{"Location":"TASTY GARDEN","Address":"9433 Bolsa Ave","City":"Westminster","State":"CA","Zip":"92683"},{"Location":"TEN LEI YEN","Address":"9741 Bolsa Ave 107","City":"Westminster","State":"CA","Zip":"92683"},{"Location":"TGI FRIDAY'S #2474","Address":"1025 Westminster Mall 2050b","City":"Westminster","State":"CA","Zip":"92683"},{"Location":"THE KICKIN CRAB","Address":"6777 Westminster Blvd","City":"Westminster","State":"CA","Zip":"92683"},{"Location":"THE LAZY DOG CAFE","Address":"16310 Beach Blvd","City":"Westminster","State":"CA","Zip":"92683"},{"Location":"THE LIBRARY","Address":"7000 Garden Grove Blvd","City":"Westminster","State":"CA","Zip":"92683"},{"Location":"THUY NGA","Address":"14882 Moran St","City":"Westminster","State":"CA","Zip":"92683"},{"Location":"UNCLE PETES","Address":"14276 Beach Blvd","City":"Westminster","State":"CA","Zip":"92683"},{"Location":"VIRTUOSOS RUSSIAN MUSIC","Address":"8990 Westminster Blvd Floor","City":"Westminster","State":"CA","Zip":"92683"},{"Location":"WALTERS WHOLESALE ELECTR","Address":"7100 Fenwick Ln","City":"Westminster","State":"CA","Zip":"92683"},{"Location":"ZE THUONG CAFE","Address":"14044 Magnolia St 12324","City":"Westminster","State":"CA","Zip":"92683"},{"Location":"ZIGGYS SMOKE SHOP","Address":"15451 Beach Blvd","City":"Westminster","State":"CA","Zip":"92683"}]