[{"Location":"24 HOUR FITNESS #171","Address":"22331 El Paseo","City":"Rancho Santa Margarita","State":"CA","Zip":"92688"},{"Location":"ALNAZ DHALLA INC.","Address":"30622 Santa Margarita Pkwy D106","City":"Rancho Santa Margarita","State":"CA","Zip":"92688"},{"Location":"AMAZING GRAPES","Address":"29911 Aventura","City":"Rancho Santa Margarita","State":"CA","Zip":"92688"},{"Location":"ARIGATO","Address":"31441 Santa Margarita Pkwy","City":"Rancho Santa Margarita","State":"CA","Zip":"92688"},{"Location":"ATHLETES CHOICE","Address":"23252 Arroyo Vis","City":"Rancho Santa Margarita","State":"CA","Zip":"92688"},{"Location":"BARNETT & COMPANY","Address":"30212 Tomas 200","City":"Rancho Santa Margarita","State":"CA","Zip":"92688"},{"Location":"BJS RESTAURANT #512","Address":"2022 El Paseo","City":"Rancho Santa Margarita","State":"CA","Zip":"92688"},{"Location":"BOARD AND BREWS","Address":"22411 Antonio Pkwy C180","City":"Rancho Santa Margarita","State":"CA","Zip":"92688"},{"Location":"BRUEGGER'S #450648","Address":"22361 Antonio Pkwy","City":"Rancho Santa Margarita","State":"CA","Zip":"92688"},{"Location":"CALIFORNIA CINEMA INVSTMNTS","Address":"30632 Santa Margarita Pkwy","City":"Rancho Santa Margarita","State":"CA","Zip":"92688"},{"Location":"CANYON FIRESIDE GRILL","Address":"22312 El Paseo A","City":"Rancho Santa Margarita","State":"CA","Zip":"92688"},{"Location":"CAP ALTERNATIVE THEAPY","Address":"22391 Gilberto B","City":"Rancho Santa Margarita","State":"CA","Zip":"92688"},{"Location":"CELINDAS MEXICAN REST","Address":"29941 Aventura O","City":"Rancho Santa Margarita","State":"CA","Zip":"92688"},{"Location":"CISMONTANE BREWING","Address":"29851 Aventura","City":"Rancho Santa Margarita","State":"CA","Zip":"92688"},{"Location":"COSMOS","Address":"28562 Oso Pkwy","City":"Rancho Santa Margarita","State":"CA","Zip":"92688"},{"Location":"COTTI FOODS","Address":"29889 Santa Margarita Pkwy","City":"Rancho Santa Margarita","State":"CA","Zip":"92688"},{"Location":"DAILY'S SPORTS GRILL","Address":"29881 Aventura","City":"Rancho Santa Margarita","State":"CA","Zip":"92688"},{"Location":"DEKRA SMOG CITY","Address":"23071 Antonio Pkwy D","City":"Rancho Santa Margarita","State":"CA","Zip":"92688"},{"Location":"EL FENIX CARNICERIA","Address":"21941 Aventura #gh Gh","City":"Rancho Santa Margarita","State":"CA","Zip":"92688"},{"Location":"GEORGE VALDOVINOS","Address":"22332 El Paseo","City":"Rancho Santa Margarita","State":"CA","Zip":"92688"},{"Location":"HABANOS DEL LAGO","Address":"31431 Santa Margarita Pkwy G","City":"Rancho Santa Margarita","State":"CA","Zip":"92688"},{"Location":"HANNA'S RESTAURANT","Address":"22195 El Paseo 110","City":"Rancho Santa Margarita","State":"CA","Zip":"92688"},{"Location":"HO","Address":"22195 El Paseo Suit1","City":"Rancho Santa Margarita","State":"CA","Zip":"92688"},{"Location":"KOHL'S #548","Address":"22215 El Paseo","City":"Rancho Santa Margarita","State":"CA","Zip":"92688"},{"Location":"LA FIESTA MEXICAN GRILL","Address":"22441 Antonio Pkwy","City":"Rancho Santa Margarita","State":"CA","Zip":"92688"},{"Location":"LIANG","Address":"22342 El Paseo Stea","City":"Rancho Santa Margarita","State":"CA","Zip":"92688"},{"Location":"MCDONALDS RSM","Address":"30672 Santa Margarita Pkwy","City":"Rancho Santa Margarita","State":"CA","Zip":"92688"},{"Location":"MI CASA RSM  LLC","Address":"22322 El Paseo","City":"Rancho Santa Margarita","State":"CA","Zip":"92688"},{"Location":"MICHAELS FINE WOOD","Address":"29716 Ave De Las Bndra","City":"Rancho Santa Margarita","State":"CA","Zip":"92688"},{"Location":"MIZU SUSHI BAR","Address":"22431 Antonio Pkwy","City":"Rancho Santa Margarita","State":"CA","Zip":"92688"},{"Location":"NIKO NIKO SUSHI","Address":"22245 El Paseo B","City":"Rancho Santa Margarita","State":"CA","Zip":"92688"},{"Location":"PARAGON GLOBAL RESOURCES","Address":"30071 Tomas 200","City":"Rancho Santa Margarita","State":"CA","Zip":"92688"},{"Location":"PENNYVISION LLC.","Address":"29870 Santa Margarita Pkwy","City":"Rancho Santa Margarita","State":"CA","Zip":"92688"},{"Location":"PHILLYS BEST","Address":"30461 Avenida De Las Flores","City":"Rancho Santa Margarita","State":"CA","Zip":"92688"},{"Location":"PROFESSIONAL SERVS CONSTRUCT","Address":"30422 Esperanza","City":"Rancho Santa Margarita","State":"CA","Zip":"92688"},{"Location":"RKW LEGACY PARTNERS","Address":"29881 Santa Margarita Pkwy","City":"Rancho Santa Margarita","State":"CA","Zip":"92688"},{"Location":"RSM-WING STOP","Address":"22195 El Paseo","City":"Rancho Santa Margarita","State":"CA","Zip":"92688"},{"Location":"SANTA MARGARITA WATER DISTRICT","Address":"26111 Antonio Pkwy","City":"Rancho Santa Margarita","State":"CA","Zip":"92688"},{"Location":"SELMAS CHICAGO PIZZERIA","Address":"30461 Avenida De Las Flores","City":"Rancho Santa Margarita","State":"CA","Zip":"92688"},{"Location":"SPIKES FISH HOUSE","Address":"30465 Avenida De Las Flores C","City":"Rancho Santa Margarita","State":"CA","Zip":"92688"},{"Location":"STIX HOLDINGS 732","Address":"28562 Oso Pkwy Suite","City":"Rancho Santa Margarita","State":"CA","Zip":"92688"},{"Location":"STIX HOLDINGS 748","Address":"30461 Avenida De Las Flores A","City":"Rancho Santa Margarita","State":"CA","Zip":"92688"},{"Location":"STONE CREEK COMPANY","Address":"30212 Tomas 300","City":"Rancho Santa Margarita","State":"CA","Zip":"92688"},{"Location":"TAPAS AND BEER","Address":"22307 El Paseo C","City":"Rancho Santa Margarita","State":"CA","Zip":"92688"},{"Location":"THAI GARDEN 2","Address":"30486 Avenida De Las Banberas","City":"Rancho Santa Margarita","State":"CA","Zip":"92688"},{"Location":"THAI SMILE","Address":"29851 Aventura F","City":"Rancho Santa Margarita","State":"CA","Zip":"92688"},{"Location":"THE BLIND PIG","Address":"31431 Santa Margarita Pkwy M","City":"Rancho Santa Margarita","State":"CA","Zip":"92688"},{"Location":"WENDYS 8061","Address":"30471 Avenida De Las Flores","City":"Rancho Santa Margarita","State":"CA","Zip":"92688"},{"Location":"WOOD RANCH BBQ & GRILL","Address":"22352 El Paseo","City":"Rancho Santa Margarita","State":"CA","Zip":"92688"}]