[{"Location":"BREN EVENTS CENTER","Address":"100 Bren Events Ctr","City":"Irvine","State":"CA","Zip":"92697"},{"Location":"CRAWFORD HALL","Address":"903       West Peltason","City":"Irvine","State":"CA","Zip":"92697"},{"Location":"MERAGE SCHOOL OF BUSINESS","Address":"Mpaa E110","City":"Irvine","State":"CA","Zip":"92697"},{"Location":"MERAGE SCHOOL OF BUSINESS","Address":"Apt 221 221","City":"Irvine","State":"CA","Zip":"92697"},{"Location":"NEWKIRK ALUMNI CENTER","Address":"450 Alumni Ct","City":"Irvine","State":"CA","Zip":"92697"},{"Location":"PALO VERDE","Address":"500       Housing Adminis","City":"Irvine","State":"CA","Zip":"92697"},{"Location":"UC IRVINE","Address":"Engineering Hall Buildin 308","City":"Irvine","State":"CA","Zip":"92697"},{"Location":"UC IRVINE ATHLETICS COAC","Address":"903       W Peltason Driv","City":"Irvine","State":"CA","Zip":"92697"},{"Location":"UC IRVINE ATHLETICS MESA","Address":"903 Peltason Dr","City":"Irvine","State":"CA","Zip":"92697"},{"Location":"UC IRVINE FACILITIES MGMT","Address":"201       Interim Office","City":"Irvine","State":"CA","Zip":"92697"},{"Location":"UCI DINING","Address":"8323       Student Center","City":"Irvine","State":"CA","Zip":"92697"},{"Location":"UCI SCH BUSINESS BU1","Address":"4293 Pereira Dr 3213","City":"Irvine","State":"CA","Zip":"92697"},{"Location":"UCI SCHOOL OF LAW","Address":"401       E Peltason Dr 1000","City":"Irvine","State":"CA","Zip":"92697"},{"Location":"UNIVER OF CALIFORNIA IRVINE","Address":"4600      Bison Ave","City":"Irvine","State":"CA","Zip":"92697"}]