[{"Location":"2 PUFFS DISTRIBUTION LLC","Address":"23891 Via Fabricante","City":"Mission Viejo","State":"CA","Zip":"92691"},{"Location":"24 HOUR FITNESS #157","Address":"23166 Los Alisos Blvd 146","City":"Mission Viejo","State":"CA","Zip":"92691"},{"Location":"ADVANCED PHYSICAL THERAPY","Address":"26034 Acero","City":"Mission Viejo","State":"CA","Zip":"92691"},{"Location":"ALL STAR PIZZA","Address":"22902 Los Alisos Blvd","City":"Mission Viejo","State":"CA","Zip":"92691"},{"Location":"ALLEN TIRE CO","Address":"23854 Via Fabricante E2","City":"Mission Viejo","State":"CA","Zip":"92691"},{"Location":"ALOHA BBQ","Address":"24000 Alicia Pkwy 4","City":"Mission Viejo","State":"CA","Zip":"92691"},{"Location":"AMERICAN TIRE & BRAKE","Address":"23652 Via Fabricante","City":"Mission Viejo","State":"CA","Zip":"92691"},{"Location":"B.M. CANAORI  INC","Address":"24188 Alicia Pkwy","City":"Mission Viejo","State":"CA","Zip":"92691"},{"Location":"BAJA FISH TACOS","Address":"27755 Santa Margarita Pkwy","City":"Mission Viejo","State":"CA","Zip":"92691"},{"Location":"BEACH HUT DELI MV","Address":"26051 La Paz Rd","City":"Mission Viejo","State":"CA","Zip":"92691"},{"Location":"BERLA TAQUERIA","Address":"25222 Charlinda Dr B","City":"Mission Viejo","State":"CA","Zip":"92691"},{"Location":"BRIGHT NOW DENTAL","Address":"23482 Alicia Pkwy","City":"Mission Viejo","State":"CA","Zip":"92691"},{"Location":"BUFFALO WILD WINGS #3514","Address":"27741 Crown Valley Pkwy 303","City":"Mission Viejo","State":"CA","Zip":"92691"},{"Location":"CHILI'S #0187","Address":"27407 Bellogente","City":"Mission Viejo","State":"CA","Zip":"92691"},{"Location":"CICEROS","Address":"26861 Trabuco Rd B","City":"Mission Viejo","State":"CA","Zip":"92691"},{"Location":"CLAIM JUMPER #21","Address":"27845 Santa Margarita Pkwy","City":"Mission Viejo","State":"CA","Zip":"92691"},{"Location":"COCOS STORE120","Address":"27750 Crown Valley Pkwy","City":"Mission Viejo","State":"CA","Zip":"92691"},{"Location":"COMMUNITY MERCHANT SLTNS","Address":"27201 Puerta Real 120","City":"Mission Viejo","State":"CA","Zip":"92691"},{"Location":"COSTELLO N GARMAN LLC","Address":"27567 Puerta Real","City":"Mission Viejo","State":"CA","Zip":"92691"},{"Location":"DENTIST  4 U","Address":"26137 La Paz Rd 260","City":"Mission Viejo","State":"CA","Zip":"92691"},{"Location":"DR LOVINGIER & JD DELORME DDS","Address":"26302 La Paz Rd 114","City":"Mission Viejo","State":"CA","Zip":"92691"},{"Location":"DUBLIN 4 GASTROPUB","Address":"26342 Oso Pkwy 102","City":"Mission Viejo","State":"CA","Zip":"92691"},{"Location":"ELEGANT NAILS","Address":"27525 Puerta Real 400","City":"Mission Viejo","State":"CA","Zip":"92691"},{"Location":"EXECUTINT INC","Address":"24002 Via Fabricante 408","City":"Mission Viejo","State":"CA","Zip":"92691"},{"Location":"F  DIC","Address":"27261 Las Ramblas 150","City":"Mission Viejo","State":"CA","Zip":"92691"},{"Location":"FAIRFIELD INN (0008760)","Address":"26328 Oso Pkwy","City":"Mission Viejo","State":"CA","Zip":"92691"},{"Location":"FIDELITY INVESTMENTS 338","Address":"27101 Puerta Real 160","City":"Mission Viejo","State":"CA","Zip":"92691"},{"Location":"FLAME BROILER","Address":"24451 Alicia Pkwy 3","City":"Mission Viejo","State":"CA","Zip":"92691"},{"Location":"FLIPPIN PIZZA 2","Address":"27659 Santa Margarita Pkwy B","City":"Mission Viejo","State":"CA","Zip":"92691"},{"Location":"FREDRIC H RUBEL JEWELERS","Address":"924 The Shops At Mission Viej","City":"Mission Viejo","State":"CA","Zip":"92691"},{"Location":"GANDOLFOS NEW YORK DELI","Address":"23981 Alicia Pkwy 120","City":"Mission Viejo","State":"CA","Zip":"92691"},{"Location":"GRILL HUT","Address":"27755 Santa Margarita Pkwy A","City":"Mission Viejo","State":"CA","Zip":"92691"},{"Location":"HACIENDA LA JOYA","Address":"25542 Jeronimo Rd","City":"Mission Viejo","State":"CA","Zip":"92691"},{"Location":"HIGH PARK TAP HOUSE","Address":"23641 Via Linda","City":"Mission Viejo","State":"CA","Zip":"92691"},{"Location":"ISLANDS RESTAURANTS #027","Address":"27741 Crown Valley Pkwy P15","City":"Mission Viejo","State":"CA","Zip":"92691"},{"Location":"JACTAN TRUONG","Address":"26861 Trabuco Rd D","City":"Mission Viejo","State":"CA","Zip":"92691"},{"Location":"LA FITNESS #94","Address":"24491 Alicia Pkwy","City":"Mission Viejo","State":"CA","Zip":"92691"},{"Location":"LA FITNESS #99","Address":"27741 Crown Valley Pkwy 101","City":"Mission Viejo","State":"CA","Zip":"92691"},{"Location":"LAW OFFICES OF SAWYER","Address":"26691 Plaza","City":"Mission Viejo","State":"CA","Zip":"92691"},{"Location":"LOS ALISOS VILLAGE CLEANERS","Address":"22922 Los Alisos Blvd K","City":"Mission Viejo","State":"CA","Zip":"92691"},{"Location":"LUIS A. CHANES","Address":"27871 Medical Center Rd 120","City":"Mission Viejo","State":"CA","Zip":"92691"},{"Location":"MACY'S WEST 526","Address":"200 The Shops At Mission Viej","City":"Mission Viejo","State":"CA","Zip":"92691"},{"Location":"MACY'S WEST 526","Address":"27000 Crown Valley Pkwy","City":"Mission Viejo","State":"CA","Zip":"92691"},{"Location":"MAYAINN MEXICAN RESTAURANT","Address":"25571 Jeronimo Rd 8","City":"Mission Viejo","State":"CA","Zip":"92691"},{"Location":"MEN'S WEARHOUSE #2739","Address":"27632 Crown Valley Pkwy","City":"Mission Viejo","State":"CA","Zip":"92691"},{"Location":"MICROSOFT - MISSION VIEJO","Address":"578 The Shops At Mission Viej","City":"Mission Viejo","State":"CA","Zip":"92691"},{"Location":"MIDWAY PROPERTY HOLDINGS LLC","Address":"26440 La Alameda 370","City":"Mission Viejo","State":"CA","Zip":"92691"},{"Location":"MISSION POOL AND SPA INC","Address":"24186 Alicia Pkwy","City":"Mission Viejo","State":"CA","Zip":"92691"},{"Location":"MISSION VIEJO CNTRY CLUB","Address":"26200 Country Club Dr","City":"Mission Viejo","State":"CA","Zip":"92691"},{"Location":"MULLEADY'S SPORTS PUB & GRILL","Address":"27695 Santa Margarita Pkwy B","City":"Mission Viejo","State":"CA","Zip":"92691"},{"Location":"MV BRAVO BURGERS","Address":"22710 La Paz Rd","City":"Mission Viejo","State":"CA","Zip":"92691"},{"Location":"MVCC TENNIS CLUB","Address":"26200 Country Club Dr A","City":"Mission Viejo","State":"CA","Zip":"92691"},{"Location":"NORDSTROM - MISSION VIEJ","Address":"27000 Crown Valley Parkway 100","City":"Mission Viejo","State":"CA","Zip":"92691"},{"Location":"OC SMILE CORP","Address":"26137 La Paz Rd 150","City":"Mission Viejo","State":"CA","Zip":"92691"},{"Location":"OISHII","Address":"25542 Jeronimo Rd","City":"Mission Viejo","State":"CA","Zip":"92691"},{"Location":"OSO MARGUARITE DENTAL","Address":"26932 Oso Pkwy 280","City":"Mission Viejo","State":"CA","Zip":"92691"},{"Location":"PATTY'S IRISH PUB","Address":"25571 Jeronimo Rd 6","City":"Mission Viejo","State":"CA","Zip":"92691"},{"Location":"PF CHANG'S #7800","Address":"800 Shops Of Mission Viejo","City":"Mission Viejo","State":"CA","Zip":"92691"},{"Location":"PIZZERIA ROCCO","Address":"27741 Crown Valley Pkwy","City":"Mission Viejo","State":"CA","Zip":"92691"},{"Location":"PRIMERUS FINANCIAL SERVI","Address":"26440 La Alameda 350","City":"Mission Viejo","State":"CA","Zip":"92691"},{"Location":"PRO PT","Address":"27725 Santa Margarita Pkwy 210","City":"Mission Viejo","State":"CA","Zip":"92691"},{"Location":"PUB THIRTY TWO","Address":"23962 Alicia Pkwy 207","City":"Mission Viejo","State":"CA","Zip":"92691"},{"Location":"RAMONA TIRE","Address":"27865 Santa Margarita Pkwy","City":"Mission Viejo","State":"CA","Zip":"92691"},{"Location":"REBORN BEAUTY BAT CAGES","Address":"23322 Madero","City":"Mission Viejo","State":"CA","Zip":"92691"},{"Location":"RIPTIDE ROCKIN SUSHI & GRILL","Address":"27741 Crown Valley Pkwy 325","City":"Mission Viejo","State":"CA","Zip":"92691"},{"Location":"RITAS MISSION VIEJO","Address":"27741 Crown Valley Pkwy 319","City":"Mission Viejo","State":"CA","Zip":"92691"},{"Location":"SADDLEBACK MEMORIAL MED","Address":"26137 La Paz Rd 120","City":"Mission Viejo","State":"CA","Zip":"92691"},{"Location":"SCHOOLS FIRST FCU","Address":"27825 Santa Margarita Pkwy C","City":"Mission Viejo","State":"CA","Zip":"92691"},{"Location":"SECRETS HAIR & NAILS","Address":"24000 Alicia Pkwy 8","City":"Mission Viejo","State":"CA","Zip":"92691"},{"Location":"SOLA SALONS","Address":"27741 Crown Valley Pkwy 201","City":"Mission Viejo","State":"CA","Zip":"92691"},{"Location":"SOUTH COUNTY VAPORS","Address":"23891 Via Fabricante 611","City":"Mission Viejo","State":"CA","Zip":"92691"},{"Location":"SOVEREIGN HEALTHCARE","Address":"27271 Las Ramblas 350","City":"Mission Viejo","State":"CA","Zip":"92691"},{"Location":"SPORTS AUTHORITY 648","Address":"25462 El Paseo","City":"Mission Viejo","State":"CA","Zip":"92691"},{"Location":"STIX HOLDINGS 738","Address":"26861 Trabuco Rd D","City":"Mission Viejo","State":"CA","Zip":"92691"},{"Location":"SURFIN DONUTS","Address":"24451 Alicia Pkwy C5","City":"Mission Viejo","State":"CA","Zip":"92691"},{"Location":"SURFIN DONUTS","Address":"26861 Trabuco Rd","City":"Mission Viejo","State":"CA","Zip":"92691"},{"Location":"SUTTON AND MURPHY","Address":"26056 Acero","City":"Mission Viejo","State":"CA","Zip":"92691"},{"Location":"SWISS WATCH GALLERY","Address":"940 The Shops At Mission Viej","City":"Mission Viejo","State":"CA","Zip":"92691"},{"Location":"TARGET","Address":"25601 Jeronimo Rd","City":"Mission Viejo","State":"CA","Zip":"92691"},{"Location":"TARGET","Address":"24500 Alicia Pkwy","City":"Mission Viejo","State":"CA","Zip":"92691"},{"Location":"THE CHEESECAKE FACTORY 0033","Address":"42 Shops At Mission Viejo","City":"Mission Viejo","State":"CA","Zip":"92691"},{"Location":"THE SHOPS AT MISSION VIEJO","Address":"555 The Shops At Mission Viej","City":"Mission Viejo","State":"CA","Zip":"92691"},{"Location":"TK BURGERS V","Address":"24902 Chrisanta Dr","City":"Mission Viejo","State":"CA","Zip":"92691"},{"Location":"TOP NAILS","Address":"27740 Santa Margarita Pkwy","City":"Mission Viejo","State":"CA","Zip":"92691"},{"Location":"TRABUCO HILLS DENTISTRY","Address":"27775 Santa Margarita Pkwy","City":"Mission Viejo","State":"CA","Zip":"92691"},{"Location":"V VISIONS","Address":"23612 Alambre","City":"Mission Viejo","State":"CA","Zip":"92691"},{"Location":"VIEJO LIQUOR","Address":"26063 La Paz Rd","City":"Mission Viejo","State":"CA","Zip":"92691"},{"Location":"WINE WORKS FOR EVERYONE","Address":"26342 Oso Pkwy","City":"Mission Viejo","State":"CA","Zip":"92691"}]