[{"Location":"ALPHA EXPORT","Address":"24511 Tabuenca","City":"Mission Viejo","State":"CA","Zip":"92692"},{"Location":"ARGENT RETAIL ADVISOR","Address":"27762 Vista Del Lago A11","City":"Mission Viejo","State":"CA","Zip":"92692"},{"Location":"BALL PARK PIZZA","Address":"28813 Los Alisos Blvd","City":"Mission Viejo","State":"CA","Zip":"92692"},{"Location":"CALIFORNIA PIZZA KITCHEN #72","Address":"25513 Marguerite Pkwy","City":"Mission Viejo","State":"CA","Zip":"92692"},{"Location":"CROWN VALLEY MARKET","Address":"27771 Center Dr","City":"Mission Viejo","State":"CA","Zip":"92692"},{"Location":"DAVITA #2564 MISSION VIEJO","Address":"27640 Marguite  Pkwy","City":"Mission Viejo","State":"CA","Zip":"92692"},{"Location":"DIVA NAIL","Address":"27230 La Paz Rd K","City":"Mission Viejo","State":"CA","Zip":"92692"},{"Location":"E CIG CITY","Address":"27500 Marguerite Pkwy","City":"Mission Viejo","State":"CA","Zip":"92692"},{"Location":"El Chile Relleno Mexican Grill","Address":"25098 Marguerite Pkwy # D","City":"Mission Viejo","State":"CA","Zip":"92692"},{"Location":"FIRST AMERICAN FUNDING","Address":"25342 Fairgreen","City":"Mission Viejo","State":"CA","Zip":"92692"},{"Location":"FITNESS 19 CA 138 LLC","Address":"27742 Vista Del Lago J4","City":"Mission Viejo","State":"CA","Zip":"92692"},{"Location":"FREEWAY AUTO SUPPLY","Address":"28752 Marguerite Pkwy 1","City":"Mission Viejo","State":"CA","Zip":"92692"},{"Location":"GOLF CLUB CASTA","Address":"27601 Casta Del Sol","City":"Mission Viejo","State":"CA","Zip":"92692"},{"Location":"GOURMET DEGREE GRILL","Address":"25380 Marguerite Pkwy F","City":"Mission Viejo","State":"CA","Zip":"92692"},{"Location":"GREAT SUBS","Address":"25280 Marguerite Pkwy","City":"Mission Viejo","State":"CA","Zip":"92692"},{"Location":"H STUDIO SALON","Address":"27660 Marguerite Pkwy H","City":"Mission Viejo","State":"CA","Zip":"92692"},{"Location":"HACIENDA ON THE LAKE","Address":"27792 Vista Del Lago","City":"Mission Viejo","State":"CA","Zip":"92692"},{"Location":"HALO CUTS AND STYLE","Address":"25482 Marguerite Pkwy","City":"Mission Viejo","State":"CA","Zip":"92692"},{"Location":"JACK IN THE BOX","Address":"28651 Marguerite Pkwy","City":"Mission Viejo","State":"CA","Zip":"92692"},{"Location":"KING DONUTS","Address":"25100 Marguerite Pkwy C","City":"Mission Viejo","State":"CA","Zip":"92692"},{"Location":"LEXUS OF MISSION VIEJO","Address":"28242 Marguerite Pkwy","City":"Mission Viejo","State":"CA","Zip":"92692"},{"Location":"LEXUS OF MISSION VIEJO","Address":"28400 Marguerite Pkwy","City":"Mission Viejo","State":"CA","Zip":"92692"},{"Location":"LI","Address":"28719 Los Alisos Blvd","City":"Mission Viejo","State":"CA","Zip":"92692"},{"Location":"MASSAGE ENVY","Address":"27620 Marguerite Pkwy A","City":"Mission Viejo","State":"CA","Zip":"92692"},{"Location":"MISSION TIRE CENTER","Address":"28992 Via Escolar","City":"Mission Viejo","State":"CA","Zip":"92692"},{"Location":"MISSION VIEJO DENTAL","Address":"25522 Marguerite Pkwy 100","City":"Mission Viejo","State":"CA","Zip":"92692"},{"Location":"MISSION VIEJO JAGUAR","Address":"28701 Marguerite Pkwy","City":"Mission Viejo","State":"CA","Zip":"92692"},{"Location":"MITCHELL ANTHONY SALON","Address":"25290 Marguerite Pkwy F","City":"Mission Viejo","State":"CA","Zip":"92692"},{"Location":"NEW TOP NAIL","Address":"25108 Marguerite Pkwy C","City":"Mission Viejo","State":"CA","Zip":"92692"},{"Location":"RAMONA TIRE","Address":"27210 La Paz Rd A","City":"Mission Viejo","State":"CA","Zip":"92692"},{"Location":"ROUND PIZZA","Address":"25290 Marguerite Pkwy","City":"Mission Viejo","State":"CA","Zip":"92692"},{"Location":"SADDLEBACK COMM COLLEGE ATHLET","Address":"28000 Marguerite Pkwy","City":"Mission Viejo","State":"CA","Zip":"92692"},{"Location":"SADDLEBACK RANGE","Address":"28000 Marguerite Pkwy","City":"Mission Viejo","State":"CA","Zip":"92692"},{"Location":"SAMURAI SUSHI","Address":"27230 Lapaz Rd 1","City":"Mission Viejo","State":"CA","Zip":"92692"},{"Location":"SANTORAS HOTWINGS","Address":"28251 Marguerite Pkwy Ih","City":"Mission Viejo","State":"CA","Zip":"92692"},{"Location":"SASHIMI OK INC.","Address":"28771 Los Alisos Blvd D4","City":"Mission Viejo","State":"CA","Zip":"92692"},{"Location":"SHOOTERS COCKTAILS AND BILLARD","Address":"28752 Marguerite Pkwy 9","City":"Mission Viejo","State":"CA","Zip":"92692"},{"Location":"SMART BREAKFAST LLC","Address":"28621 Marguerite Pkwy B-1","City":"Mission Viejo","State":"CA","Zip":"92692"},{"Location":"SO CAL RECREATION  INC.","Address":"25402 Marguerite Pkwy","City":"Mission Viejo","State":"CA","Zip":"92692"},{"Location":"SOUTH MISSION VIEJO","Address":"22556 Olympiad Rd","City":"Mission Viejo","State":"CA","Zip":"92692"},{"Location":"SOUTHERN CALIFORNIA PIZZA","Address":"25102 Marguerite Pkwy","City":"Mission Viejo","State":"CA","Zip":"92692"},{"Location":"SPICY CUTS","Address":"28715 Los Alisos Blvd L6","City":"Mission Viejo","State":"CA","Zip":"92692"},{"Location":"SUSHI PLANTATION","Address":"28601 Marguerite Pkwy A","City":"Mission Viejo","State":"CA","Zip":"92692"},{"Location":"TD AMERITRADE #05044","Address":"28311 Marguerite Pkwy","City":"Mission Viejo","State":"CA","Zip":"92692"},{"Location":"VINTAGE AL BUILDING","Address":"27783 Center Dr","City":"Mission Viejo","State":"CA","Zip":"92692"},{"Location":"VINTAGE RECOLLECTION BUI","Address":"27783 Center Dr","City":"Mission Viejo","State":"CA","Zip":"92692"},{"Location":"WHITE LOTUS MASSAGE INC","Address":"28815 Los Alisos Blvd D","City":"Mission Viejo","State":"CA","Zip":"92692"},{"Location":"YAMA GRILL","Address":"27782 Vista Del Lago C-22","City":"Mission Viejo","State":"CA","Zip":"92692"},{"Location":"Z PIZZA","Address":"25522 Marguerite Pkwy 101","City":"Mission Viejo","State":"CA","Zip":"92692"}]