[{"Location":"24 HOUR FITNESS #53","Address":"200 Corporate Dr","City":"Ladera Ranch","State":"CA","Zip":"92694"},{"Location":"BRUEGGER'S #635","Address":"27702 Crown Valley Pkwy","City":"Ladera Ranch","State":"CA","Zip":"92694"},{"Location":"CASA RANCHERO","Address":"25606 Crown Valley Pkwy K2","City":"Ladera Ranch","State":"CA","Zip":"92694"},{"Location":"CHOYA JAPANESE CUISINE","Address":"25612 Crown Valley Pkwy 1","City":"Ladera Ranch","State":"CA","Zip":"92694"},{"Location":"FINEST NAILS & SPA","Address":"27642 Antonio Pkwy H4","City":"Ladera Ranch","State":"CA","Zip":"92694"},{"Location":"HAPPY NAILS","Address":"27702 Crown Valley Pkwy D3","City":"Ladera Ranch","State":"CA","Zip":"92694"},{"Location":"JALAPEOS MEXICAN FOOD","Address":"27602 Antonio Pkwy","City":"Ladera Ranch","State":"CA","Zip":"92694"},{"Location":"JERRY'S DOGS","Address":"1701 Corporate Dr","City":"Ladera Ranch","State":"CA","Zip":"92694"},{"Location":"KOHL'S #597","Address":"27702 Antonio Pkwy","City":"Ladera Ranch","State":"CA","Zip":"92694"},{"Location":"MANDYS PIZZA AND MORE","Address":"27742 Antonio Pkwy K7","City":"Ladera Ranch","State":"CA","Zip":"92694"},{"Location":"RANCH SPORTS GRILL","Address":"27412 Antonio Pkwy","City":"Ladera Ranch","State":"CA","Zip":"92694"},{"Location":"SELMA'S PIZZERIA","Address":"27702 Crown Valley Pkwy E1","City":"Ladera Ranch","State":"CA","Zip":"92694"},{"Location":"SPORT CLIPS CA506","Address":"27412 Antonio Pkwy 3","City":"Ladera Ranch","State":"CA","Zip":"92694"},{"Location":"TACO MESA LADERA RANCH","Address":"27702 Crown Valley Pkwy F1","City":"Ladera Ranch","State":"CA","Zip":"92694"},{"Location":"TIPS & TOES SPA","Address":"25612 Crown Valley Pkwy L6","City":"Ladera Ranch","State":"CA","Zip":"92694"},{"Location":"ZHOYA JAPANSE CUISINE","Address":"25612 Crown Valley Pkwy L1","City":"Ladera Ranch","State":"CA","Zip":"92694"},{"Location":"VIP NAILS SALON AND SPA","Address":"25632 Crown Valley Pkwy B5","City":"Mission Viejo","State":"CA","Zip":"92694"}]