[{"Location":"CECO","Address":"1310 E Borchard Ave","City":"Cowan Heights","State":"CA","Zip":"92705"},{"Location":"1ST CLASS PIZZA","Address":"2757 N Grand Ave","City":"Santa Ana","State":"CA","Zip":"92705"},{"Location":"911 COMPUTER REPAIR","Address":"1833 E 17th St","City":"Santa Ana","State":"CA","Zip":"92705"},{"Location":"A & A TOOL & DIE","Address":"1266 S Lyon St","City":"Santa Ana","State":"CA","Zip":"92705"},{"Location":"ADALBERTOS","Address":"2429 N Tustin Ave","City":"Santa Ana","State":"CA","Zip":"92705"},{"Location":"ADVANCED MEDICIAL OPTICS","Address":"1700 E Saint Andrew Pl","City":"Santa Ana","State":"CA","Zip":"92705"},{"Location":"ADVANTAGE SALES AND MARKET","Address":"1700 Carnegie Ave 250","City":"Santa Ana","State":"CA","Zip":"92705"},{"Location":"ALLEN TIRE CO","Address":"2401 N Tustin Ave","City":"Santa Ana","State":"CA","Zip":"92705"},{"Location":"AMERICAN TRAINING RESOURCES","Address":"2912 Daimler St","City":"Santa Ana","State":"CA","Zip":"92705"},{"Location":"AMI SUSHI","Address":"1804 N Tustin Ave C","City":"Santa Ana","State":"CA","Zip":"92705"},{"Location":"AMP INC","Address":"1317 E Edinger Ave","City":"Santa Ana","State":"CA","Zip":"92705"},{"Location":"AMWINS INSURANCE BROKERA","Address":"1551 N Tustin Ave Suite","City":"Santa Ana","State":"CA","Zip":"92705"},{"Location":"APPLEBEE'S #2150041","Address":"2800 N Main St 868","City":"Santa Ana","State":"CA","Zip":"92705"},{"Location":"ATHLETIC REPUBLIC","Address":"2100 E Wilshire Ave B","City":"Santa Ana","State":"CA","Zip":"92705"},{"Location":"AVILA REST INC%2F SA","Address":"2201 E 1st St","City":"Santa Ana","State":"CA","Zip":"92705"},{"Location":"BARA VENTURES LLC","Address":"1820 E 1st St 120","City":"Santa Ana","State":"CA","Zip":"92705"},{"Location":"BARBERS BOXING INC","Address":"2428 N Grand Ave F","City":"Santa Ana","State":"CA","Zip":"92705"},{"Location":"BELLA MARRIS RISTORANTE","Address":"1631 E 17th St I","City":"Santa Ana","State":"CA","Zip":"92705"},{"Location":"BENJIE'S RESTAURANT","Address":"1828 N Tustin Ave","City":"Santa Ana","State":"CA","Zip":"92705"},{"Location":"BENTHALE MCKIBBIN MCKNIGHT","Address":"540 N Golden Circle Dr 305","City":"Santa Ana","State":"CA","Zip":"92705"},{"Location":"BIG O TIRES 5836","Address":"1302 E 17th St","City":"Santa Ana","State":"CA","Zip":"92705"},{"Location":"BOB HARRIS","Address":"1306 E Edinger Ave C","City":"Santa Ana","State":"CA","Zip":"92705"},{"Location":"BODY WISE LLC","Address":"2185 S Grand Ave","City":"Santa Ana","State":"CA","Zip":"92705"},{"Location":"BREAKAWAYS","Address":"2106 N Tustin Ave","City":"Santa Ana","State":"CA","Zip":"92705"},{"Location":"C S T CONSTRUCTION","Address":"2113 S Santa Fe St","City":"Santa Ana","State":"CA","Zip":"92705"},{"Location":"CALIBER COLLISION CENTER","Address":"1620 E Mcfadden Ave","City":"Santa Ana","State":"CA","Zip":"92705"},{"Location":"CALIFORNIA INSURANCE SPECIALIS","Address":"400 N Tustin Ave","City":"Santa Ana","State":"CA","Zip":"92705"},{"Location":"CALIFORNIA MOTORS DIRECT","Address":"2345 N Grand Ave","City":"Santa Ana","State":"CA","Zip":"92705"},{"Location":"CALIFORNIA PIZZA KITCHEN #57","Address":"2800 N Main St","City":"Santa Ana","State":"CA","Zip":"92705"},{"Location":"CAREHOUSE CENTER","Address":"1800 Old Tustin Ave","City":"Santa Ana","State":"CA","Zip":"92705"},{"Location":"CAREMORE","Address":"1945 E 17th St 101","City":"Santa Ana","State":"CA","Zip":"92705"},{"Location":"CHANGES FOR RECOVERY","Address":"302 N Tuftin Ave Ste 100","City":"Santa Ana","State":"CA","Zip":"92705"},{"Location":"CHINESE MASSAGE","Address":"17221 E 17th St D","City":"Santa Ana","State":"CA","Zip":"92705"},{"Location":"CITY OF ANGELS INC","Address":"2822 Willis St","City":"Santa Ana","State":"CA","Zip":"92705"},{"Location":"CITY OF ORANGE HEALTH CARE AGY","Address":"2228 Ritchey St","City":"Santa Ana","State":"CA","Zip":"92705"},{"Location":"CLAIM JUMPER #4","Address":"2250 E 17th St","City":"Santa Ana","State":"CA","Zip":"92705"},{"Location":"CLASSY HAIR AND NAILS","Address":"310 N Tustin Ave C","City":"Santa Ana","State":"CA","Zip":"92705"},{"Location":"COLLISION REPAIR & PAINT","Address":"1343 E Borchard Ave","City":"Santa Ana","State":"CA","Zip":"92705"},{"Location":"COMMONWEALTH AUDI","Address":"1425 Auto Mall Dr","City":"Santa Ana","State":"CA","Zip":"92705"},{"Location":"COMMONWEALTH VW","Address":"1350 Auto Mall Dr","City":"Santa Ana","State":"CA","Zip":"92705"},{"Location":"COUNTY CIRCUIT BREAKERS","Address":"1834 S Grand Ave","City":"Santa Ana","State":"CA","Zip":"92705"},{"Location":"CRC INSURANCE SOLUTIONS OP CA","Address":"1551 N Tustin Ave 450","City":"Santa Ana","State":"CA","Zip":"92705"},{"Location":"CREVIER BMW","Address":"1500 Auto Mall Dr","City":"Santa Ana","State":"CA","Zip":"92705"},{"Location":"CREVIER BMW1","Address":"1500 Auto Mall Dr","City":"Santa Ana","State":"CA","Zip":"92705"},{"Location":"CUNNINGHAM DOORS WINDOWS","Address":"1940 E Edinger Ave","City":"Santa Ana","State":"CA","Zip":"92705"},{"Location":"DAVITA #2019 TUSTIN","Address":"2090 N Tustin Ave 100","City":"Santa Ana","State":"CA","Zip":"92705"},{"Location":"DAVITA #875 SANTA ANA","Address":"1820 E Deere Ave","City":"Santa Ana","State":"CA","Zip":"92705"},{"Location":"DECKSIDE POOL SERVICE 2","Address":"1616 S Lyon St","City":"Santa Ana","State":"CA","Zip":"92705"},{"Location":"DEKEN POWER INC","Address":"1402 Ritchey St","City":"Santa Ana","State":"CA","Zip":"92705"},{"Location":"DIAMOND MEDICAL MGMT","Address":"999 N Tustin Ave 23","City":"Santa Ana","State":"CA","Zip":"92705"},{"Location":"DIAMOND SPORTS","Address":"1880 E Saint Andrew Pl","City":"Santa Ana","State":"CA","Zip":"92705"},{"Location":"DISTINCTIVE RESOURCE SOLUTIONS","Address":"550 Parkcenter Dr 202","City":"Santa Ana","State":"CA","Zip":"92705"},{"Location":"DRIVEN TECHNOLOGIES","Address":"2807 Catherine Way","City":"Santa Ana","State":"CA","Zip":"92705"},{"Location":"DRUG ENFORCEMENT ADMINISTRATIO","Address":"1900 E 1st St","City":"Santa Ana","State":"CA","Zip":"92705"},{"Location":"DUPLO USA","Address":"3050 Daimler St","City":"Santa Ana","State":"CA","Zip":"92705"},{"Location":"EAST EDINGER INDUSTRIAL URGENT","Address":"1530 E Edinger Ave","City":"Santa Ana","State":"CA","Zip":"92705"},{"Location":"EL CORAL","Address":"1701 E Mcfadden Ave","City":"Santa Ana","State":"CA","Zip":"92705"},{"Location":"EL ENSENADA","Address":"2501 N Grand Ave","City":"Santa Ana","State":"CA","Zip":"92705"},{"Location":"EMBASSY SUITES HOTEL OCA NORTH","Address":"1325 E Dyer Rd","City":"Santa Ana","State":"CA","Zip":"92705"},{"Location":"EMPIRE BUILDING SERVICE","Address":"1570 E Edinger Ave C","City":"Santa Ana","State":"CA","Zip":"92705"},{"Location":"ETECO  INC","Address":"1000 S Linwood Ave","City":"Santa Ana","State":"CA","Zip":"92705"},{"Location":"EXECUTIVE CONSULTANTS GROUP","Address":"1936 E Deere Ave 215","City":"Santa Ana","State":"CA","Zip":"92705"},{"Location":"EXPRESS OFFICE ENVIRO","Address":"1800 E Garry Ave 215","City":"Santa Ana","State":"CA","Zip":"92705"},{"Location":"FAR BELOW RETAIL","Address":"1414 E Wilshire Ave","City":"Santa Ana","State":"CA","Zip":"92705"},{"Location":"FARMERS AND MERCHANTS BANK","Address":"1750 E 17th St","City":"Santa Ana","State":"CA","Zip":"92705"},{"Location":"FATHERS 1  LLC","Address":"13912 Ponderosa St L","City":"Santa Ana","State":"CA","Zip":"92705"},{"Location":"FIREHOUSE SUBS","Address":"2266 E 17th St","City":"Santa Ana","State":"CA","Zip":"92705"},{"Location":"FIRESTONE #023884","Address":"2005 N Tustin Ave","City":"Santa Ana","State":"CA","Zip":"92705"},{"Location":"FORMULATORS","Address":"1790 Boyd St","City":"Santa Ana","State":"CA","Zip":"92705"},{"Location":"FREDS CUSTOM DRAPERIES L","Address":"2017 Ritchey St","City":"Santa Ana","State":"CA","Zip":"92705"},{"Location":"FREEWAY HONDA","Address":"1505 Auto Mall Dr","City":"Santa Ana","State":"CA","Zip":"92705"},{"Location":"FUGI GRILL","Address":"1945 E 17th St","City":"Santa Ana","State":"CA","Zip":"92705"},{"Location":"GIBSON AND HUGHES","Address":"1551 N Tustin Ave","City":"Santa Ana","State":"CA","Zip":"92705"},{"Location":"GOLDS GYM","Address":"1945 E 17th St 103","City":"Santa Ana","State":"CA","Zip":"92705"},{"Location":"GOODWILL FITNESS","Address":"1601 E Saint Andrew Pl","City":"Santa Ana","State":"CA","Zip":"92705"},{"Location":"GPS PAINTING AND WALL COVERING","Address":"1307 E Saint Gertrude Pl C","City":"Santa Ana","State":"CA","Zip":"92705"},{"Location":"HARFLEX INTERNATIONAL","Address":"1533 E Mcfadden Ave A","City":"Santa Ana","State":"CA","Zip":"92705"},{"Location":"HEART RATE INC","Address":"1411 E Wilshire Ave","City":"Santa Ana","State":"CA","Zip":"92705"},{"Location":"HIGH TECH COATINGS","Address":"1724 S Santa Fe St","City":"Santa Ana","State":"CA","Zip":"92705"},{"Location":"HOLIDAY INN","Address":"2726 S Grand Ave","City":"Santa Ana","State":"CA","Zip":"92705"},{"Location":"INGRAM MICRO","Address":"1600 E Saint Andrew Pl","City":"Santa Ana","State":"CA","Zip":"92705"},{"Location":"INTEGRITY METAL INC","Address":"926 S Lyon St","City":"Santa Ana","State":"CA","Zip":"92705"},{"Location":"IRON BODIES GYM","Address":"1300 E Edinger Ave B","City":"Santa Ana","State":"CA","Zip":"92705"},{"Location":"ITT CANNON","Address":"666 E Dyer Rd","City":"Santa Ana","State":"CA","Zip":"92705"},{"Location":"JCS SANTA ANA INC DBA BK 4552","Address":"601 E Dyer Rd","City":"Santa Ana","State":"CA","Zip":"92705"},{"Location":"JERRY'S DOGS","Address":"2276 E 17th St","City":"Santa Ana","State":"CA","Zip":"92705"},{"Location":"JIFFY LUBE","Address":"2025 N Tustin Ave","City":"Santa Ana","State":"CA","Zip":"92705"},{"Location":"JL DESIGNS ENTERPRISES","Address":"1821 Newport Cir","City":"Santa Ana","State":"CA","Zip":"92705"},{"Location":"JOHN AYERS STUDIO","Address":"1601 S Grand Ave B","City":"Santa Ana","State":"CA","Zip":"92705"},{"Location":"JOHN G ALEVIZOS D.O.INC","Address":"800 N Tustin Ave Suite","City":"Santa Ana","State":"CA","Zip":"92705"},{"Location":"JOHNNY ROCKETS","Address":"2800 N Main St","City":"Santa Ana","State":"CA","Zip":"92705"},{"Location":"KIRBY INDUSTRIES","Address":"2109 S Lyon St","City":"Santa Ana","State":"CA","Zip":"92705"},{"Location":"KUSH BOTTLES","Address":"1800 Newport Cir","City":"Santa Ana","State":"CA","Zip":"92705"},{"Location":"LA FITNESS #68","Address":"1501 N Tustin Ave","City":"Santa Ana","State":"CA","Zip":"92705"},{"Location":"LAW OFFICES RICHARD A JONES","Address":"1820 E 17th St","City":"Santa Ana","State":"CA","Zip":"92705"},{"Location":"LEGAL AID SOCIETY OF ORANGE C","Address":"2101 N Tustin Ave","City":"Santa Ana","State":"CA","Zip":"92705"},{"Location":"LIBERTY TAX SERVICE 1","Address":"2441 N Tustin Ave B","City":"Santa Ana","State":"CA","Zip":"92705"},{"Location":"LPL FINANCIAL","Address":"1450 N Tustin Ave 115","City":"Santa Ana","State":"CA","Zip":"92705"},{"Location":"MACY'S WEST 527","Address":"2850 N Main St","City":"Santa Ana","State":"CA","Zip":"92705"},{"Location":"MACY'S WEST 527 BR","Address":"2810 N Main St","City":"Santa Ana","State":"CA","Zip":"92705"},{"Location":"MALONES","Address":"604 E Dyer Rd","City":"Santa Ana","State":"CA","Zip":"92705"},{"Location":"MARISCOS HECTOR SPORTS GRILL","Address":"1208 E Mcfadden Ave","City":"Santa Ana","State":"CA","Zip":"92705"},{"Location":"MAVERICK III%2C LLC","Address":"12802 Panorama Crst","City":"Santa Ana","State":"CA","Zip":"92705"},{"Location":"MORGAN STANLEY 100242","Address":"2677 N Main St","City":"Santa Ana","State":"CA","Zip":"92705"},{"Location":"NATIONAL ELECTRONIC ALLOY","Address":"1335 E Warner Ave","City":"Santa Ana","State":"CA","Zip":"92705"},{"Location":"NATURES HOLISTIC ALTERNA","Address":"810 E Dyer Rd B","City":"Santa Ana","State":"CA","Zip":"92705"},{"Location":"NEKTER JUICE BAR","Address":"1844 Carnegie Ave","City":"Santa Ana","State":"CA","Zip":"92705"},{"Location":"NORDSTROM","Address":"2820 N Main St","City":"Santa Ana","State":"CA","Zip":"92705"},{"Location":"NORTH MURRAY AND ASSOC INS SVC","Address":"1971 E 4th St 290","City":"Santa Ana","State":"CA","Zip":"92705"},{"Location":"NORWOOD REALTY","Address":"2323 N Tustin Ave N","City":"Santa Ana","State":"CA","Zip":"92705"},{"Location":"OCDE ACCESS 2","Address":"1001 S Grand Ave","City":"Santa Ana","State":"CA","Zip":"92705"},{"Location":"ORANGE   CTY RADIATION","Address":"1100 N Tustin Ave","City":"Santa Ana","State":"CA","Zip":"92705"},{"Location":"ORANGE CO SHERIFF CORONER DEPT","Address":"2651 Hotel Ter","City":"Santa Ana","State":"CA","Zip":"92705"},{"Location":"ORANGE COUNTY FIRE DEPT. NO.79","Address":"1320 E Warner Ave","City":"Santa Ana","State":"CA","Zip":"92705"},{"Location":"ORANGE COUNTY MATTRESS","Address":"2120 Ritchey St","City":"Santa Ana","State":"CA","Zip":"92705"},{"Location":"ORANGE COUNTY'S CREDIT UNION","Address":"1701 E Saint Andrew Pl","City":"Santa Ana","State":"CA","Zip":"92705"},{"Location":"OUTLAW OFF ROAD","Address":"1701 Carnegie Ave","City":"Santa Ana","State":"CA","Zip":"92705"},{"Location":"PAC TRUST BANK","Address":"1403 N Tustin Ave 250","City":"Santa Ana","State":"CA","Zip":"92705"},{"Location":"PACIFIC LIGHTING REGGIE SABOUR","Address":"1570 E Edinger Ave 3","City":"Santa Ana","State":"CA","Zip":"92705"},{"Location":"PACIFIC RIM MECHANICAL","Address":"1701 E Edinger Ave","City":"Santa Ana","State":"CA","Zip":"92705"},{"Location":"PANINI CAFE","Address":"2800 N Main St 1180","City":"Santa Ana","State":"CA","Zip":"92705"},{"Location":"PAR CONSULTING LLC","Address":"1231 E Dyer Rd 268","City":"Santa Ana","State":"CA","Zip":"92705"},{"Location":"PHILLYS BEST","Address":"1804 N Tustin Ave B","City":"Santa Ana","State":"CA","Zip":"92705"},{"Location":"PLANNED PARENTHOOD OSBC","Address":"1421 E 17th St","City":"Santa Ana","State":"CA","Zip":"92705"},{"Location":"PRAXAIR","Address":"1545 E Edinger Ave","City":"Santa Ana","State":"CA","Zip":"92705"},{"Location":"PRECISION OCCUPATIONAL","Address":"1809 E Dyer Rd 110","City":"Santa Ana","State":"CA","Zip":"92705"},{"Location":"PRIDEMARK EVEREST INSURANCE","Address":"1820 E 1st St 500","City":"Santa Ana","State":"CA","Zip":"92705"},{"Location":"PRO  BALL","Address":"2668 S Grand Ave","City":"Santa Ana","State":"CA","Zip":"92705"},{"Location":"QUANTUM SPHERE INC","Address":"2905 Tech Ctr","City":"Santa Ana","State":"CA","Zip":"92705"},{"Location":"RE%2FMAX REAL ESTATE ONE","Address":"12341 Newport Ave A100","City":"Santa Ana","State":"CA","Zip":"92705"},{"Location":"REGENT","Address":"2740 N Grand Ave","City":"Santa Ana","State":"CA","Zip":"92705"},{"Location":"REGISTRAR OF VOTERS","Address":"1300 S Grand Ave C","City":"Santa Ana","State":"CA","Zip":"92705"},{"Location":"RELIABLE MOBILE SCREENS","Address":"1560 E Edinger Ave A","City":"Santa Ana","State":"CA","Zip":"92705"},{"Location":"RITZ NAILS","Address":"1935 E 17th St B","City":"Santa Ana","State":"CA","Zip":"92705"},{"Location":"ROYAL  SUBWAY INC","Address":"2321 E 4th St","City":"Santa Ana","State":"CA","Zip":"92705"},{"Location":"S2S PRODUCTIONS","Address":"200 N Tustin Ave 200","City":"Santa Ana","State":"CA","Zip":"92705"},{"Location":"SAFELITE AUTO GLASS1","Address":"1715 E Wilshire Ave 721","City":"Santa Ana","State":"CA","Zip":"92705"},{"Location":"SBR SPORT INC","Address":"1959 Blair Ave","City":"Santa Ana","State":"CA","Zip":"92705"},{"Location":"SERVICE MASTER ONE CALL","Address":"1721 Newport Cir","City":"Santa Ana","State":"CA","Zip":"92705"},{"Location":"SHABUCHABU BAR","Address":"1945 E 17th St 108","City":"Santa Ana","State":"CA","Zip":"92705"},{"Location":"SLED DOG LLC","Address":"2800 N Main St 197","City":"Santa Ana","State":"CA","Zip":"92705"},{"Location":"SOCAL COMPASSION","Address":"1651 E Edinger Ave 205","City":"Santa Ana","State":"CA","Zip":"92705"},{"Location":"SOCIAL SERVICE AGENCY","Address":"1505 E Warner Ave","City":"Santa Ana","State":"CA","Zip":"92705"},{"Location":"SOUTHERN CA EDISON 2","Address":"1327 S Grand Ave","City":"Santa Ana","State":"CA","Zip":"92705"},{"Location":"SOUTHERN CALIF EDISON","Address":"1327 S Grand Ave C","City":"Santa Ana","State":"CA","Zip":"92705"},{"Location":"SOUTHERN CALIFORNIA","Address":"1241 S Grand Ave","City":"Santa Ana","State":"CA","Zip":"92705"},{"Location":"SPARK DENTAL","Address":"2001 E 4th St 102","City":"Santa Ana","State":"CA","Zip":"92705"},{"Location":"SPOONS GRILL & BAR #3014","Address":"2601 Hotel Ter","City":"Santa Ana","State":"CA","Zip":"92705"},{"Location":"SPORTS FEVER","Address":"2800 N Main St 602","City":"Santa Ana","State":"CA","Zip":"92705"},{"Location":"SRS LABS INC","Address":"2909 Daimler St","City":"Santa Ana","State":"CA","Zip":"92705"},{"Location":"SUNRISE OF TUSTIN","Address":"12291 Newport Ave","City":"Santa Ana","State":"CA","Zip":"92705"},{"Location":"SURE HAVEN 37","Address":"18781 Deep Well Rd","City":"Santa Ana","State":"CA","Zip":"92705"},{"Location":"SURPLUS TWO WAY RADIOS","Address":"1512 S Grand Ave","City":"Santa Ana","State":"CA","Zip":"92705"},{"Location":"SWEET LIFE ENTERPRISES INC","Address":"2350 Pullman St","City":"Santa Ana","State":"CA","Zip":"92705"},{"Location":"T K BURGERS","Address":"2210 S Lyon St","City":"Santa Ana","State":"CA","Zip":"92705"},{"Location":"TAIT & ASSOCIATES%2C INC","Address":"701 Park Center Dr","City":"Santa Ana","State":"CA","Zip":"92705"},{"Location":"TAP TO EAT","Address":"1740 E Garry Ave 117","City":"Santa Ana","State":"CA","Zip":"92705"},{"Location":"TAURIAN BA%2C LLC #1039","Address":"1350 N Tustin Ave","City":"Santa Ana","State":"CA","Zip":"92705"},{"Location":"THE FANTASTIC CAFE SANTA ANA","Address":"1727 E 17th St","City":"Santa Ana","State":"CA","Zip":"92705"},{"Location":"THE FLING COCKTAIL LOUNGE","Address":"2370 N Tustin Ave","City":"Santa Ana","State":"CA","Zip":"92705"},{"Location":"THE FOSTER PRINTING COMPANY","Address":"700 E Alton Ave","City":"Santa Ana","State":"CA","Zip":"92705"},{"Location":"THE WINE SHOP","Address":"1431 Village Way","City":"Santa Ana","State":"CA","Zip":"92705"},{"Location":"THOMAS KERNS MCKNIGHT","Address":"1251 E Dyer Rd 220","City":"Santa Ana","State":"CA","Zip":"92705"},{"Location":"TK BURGER","Address":"2212 S Lyon St","City":"Santa Ana","State":"CA","Zip":"92705"},{"Location":"TOP TIP NAIL AND SPA","Address":"1730 E 17th St","City":"Santa Ana","State":"CA","Zip":"92705"},{"Location":"TORO BURGER","Address":"2321 E 4th St","City":"Santa Ana","State":"CA","Zip":"92705"},{"Location":"TRI STAR MEDICAL","Address":"999 N Tustin Ave","City":"Santa Ana","State":"CA","Zip":"92705"},{"Location":"TRIUMPH PROCESSING-EMBEE DIVI","Address":"2158 S Hathaway St","City":"Santa Ana","State":"CA","Zip":"92705"},{"Location":"TSC PRECISION","Address":"1311 E Saint Gertrude Pl","City":"Santa Ana","State":"CA","Zip":"92705"},{"Location":"TUSTIN HILLS RACQUET CLUB","Address":"11782 Simon Ranch Rd","City":"Santa Ana","State":"CA","Zip":"92705"},{"Location":"TUTTA BELLA","Address":"2222 E 17th St","City":"Santa Ana","State":"CA","Zip":"92705"},{"Location":"UG FRANCHISE OPERATIONS%2C LLC","Address":"1241 E Dyer Rd 100","City":"Santa Ana","State":"CA","Zip":"92705"},{"Location":"ULTIMATE FACIAL","Address":"2441 N Tustin Ave","City":"Santa Ana","State":"CA","Zip":"92705"},{"Location":"UNIVERSAL PROTECTION SERVICE","Address":"1551 N Tustin Ave 650","City":"Santa Ana","State":"CA","Zip":"92705"},{"Location":"URS CORPORATION","Address":"2020 E 1st St 400","City":"Santa Ana","State":"CA","Zip":"92705"},{"Location":"VALERIA QUAN","Address":"2323 N Tustin Ave B","City":"Santa Ana","State":"CA","Zip":"92705"},{"Location":"VOLVO OF ORANGE COUNTY","Address":"1400 S Dan Gurney Dr","City":"Santa Ana","State":"CA","Zip":"92705"},{"Location":"WARREN PARK","Address":"1500 Warren St","City":"Santa Ana","State":"CA","Zip":"92705"},{"Location":"WAX ON WAX","Address":"2550 N Grand Ave","City":"Santa Ana","State":"CA","Zip":"92705"},{"Location":"WEST COAST RADIOLOGY CENTER","Address":"1100 N Tustin Ave","City":"Santa Ana","State":"CA","Zip":"92705"},{"Location":"WESTFIELD KIDS LOBBY","Address":"2800 N Main St 775","City":"Santa Ana","State":"CA","Zip":"92705"},{"Location":"WESTFIELD SHOPPINGTOWN MAIN PL","Address":"2800 N Main St 775","City":"Santa Ana","State":"CA","Zip":"92705"},{"Location":"WHICH WICH #44","Address":"1945 E 17th St 106","City":"Santa Ana","State":"CA","Zip":"92705"},{"Location":"WILLIAM HEZMALHALCH ARCHITECTS","Address":"2850 Red Hill Ave 200","City":"Santa Ana","State":"CA","Zip":"92705"},{"Location":"YOUR DOG TRAINER","Address":"1451 E Mcfadden Ave","City":"Santa Ana","State":"CA","Zip":"92705"},{"Location":"YUM YUM DONUTS","Address":"2441 N Tustin Ave","City":"Santa Ana","State":"CA","Zip":"92705"},{"Location":"ZIEGLER CUSTOM","Address":"1323 E Saint Gertrude Pl","City":"Santa Ana","State":"CA","Zip":"92705"}]