[{"Location":"1 STOP AUTO MART","Address":"510 N Harbor Blvd","City":"Santa Ana","State":"CA","Zip":"92703"},{"Location":"99 SUPER DISCOUNT","Address":"903 S Bristol St E","City":"Santa Ana","State":"CA","Zip":"92703"},{"Location":"ANTOJITOS DON CHEPE","Address":"1904 W 1st St","City":"Santa Ana","State":"CA","Zip":"92703"},{"Location":"BEST CUTS SALON","Address":"1525 W 1st St C","City":"Santa Ana","State":"CA","Zip":"92703"},{"Location":"BM AUTO SELECT INC","Address":"4320 Westminster Ave","City":"Santa Ana","State":"CA","Zip":"92703"},{"Location":"BOTANICA CRISTY","Address":"1220 N Bristol St A","City":"Santa Ana","State":"CA","Zip":"92703"},{"Location":"CAFE LA ME","Address":"5407 W 1st St","City":"Santa Ana","State":"CA","Zip":"92703"},{"Location":"CAFE THUY","Address":"5425 W 1st St","City":"Santa Ana","State":"CA","Zip":"92703"},{"Location":"CALIFORNIA SYSTEMS","Address":"411 N Sullivan St","City":"Santa Ana","State":"CA","Zip":"92703"},{"Location":"CITY OF SANTA ANA","Address":"220 S Daisy Ave","City":"Santa Ana","State":"CA","Zip":"92703"},{"Location":"CLEAR AD","Address":"2410 W 3rd St","City":"Santa Ana","State":"CA","Zip":"92703"},{"Location":"CLINTON MOBILE ESTATES CLUB","Address":"1300 Clinton St 1","City":"Santa Ana","State":"CA","Zip":"92703"},{"Location":"COOPER FELLOWSHIP11 INC","Address":"401 N Cooper St","City":"Santa Ana","State":"CA","Zip":"92703"},{"Location":"COOPER FELLOWSHIP12 INC","Address":"405 N Cooper St","City":"Santa Ana","State":"CA","Zip":"92703"},{"Location":"COOPER FELLOWSHIP13 INC","Address":"409 N Cooper St","City":"Santa Ana","State":"CA","Zip":"92703"},{"Location":"COOPER FELLOWSHIP14 INC","Address":"413 N Cooper St","City":"Santa Ana","State":"CA","Zip":"92703"},{"Location":"COOPER FELLOWSHIP15 INC","Address":"417 N Cooper St","City":"Santa Ana","State":"CA","Zip":"92703"},{"Location":"COOPER FELLOWSHIP16 INC","Address":"421 N Cooper St","City":"Santa Ana","State":"CA","Zip":"92703"},{"Location":"COOPER FELLOWSHIP17 INC","Address":"410 N Cooper St","City":"Santa Ana","State":"CA","Zip":"92703"},{"Location":"COOPER FELLOWSHIP18 INC","Address":"414 N Cooper St","City":"Santa Ana","State":"CA","Zip":"92703"},{"Location":"COOPER FELLOWSHIP19 INC","Address":"5422 W 5th St","City":"Santa Ana","State":"CA","Zip":"92703"},{"Location":"COOPER FELLOWSHIP21 INC","Address":"5421 W 4th St","City":"Santa Ana","State":"CA","Zip":"92703"},{"Location":"DINH THEING RESTAURANT","Address":"5126 Westminster Ave","City":"Santa Ana","State":"CA","Zip":"92703"},{"Location":"DONOVAN GOLF COURSE MGMT","Address":"3017 W 5th St","City":"Santa Ana","State":"CA","Zip":"92703"},{"Location":"El Cabrito","Address":"1604 W 1st St","City":"Santa Ana","State":"CA","Zip":"92703"},{"Location":"EL CARNAVAL","Address":"2026 W 5th St","City":"Santa Ana","State":"CA","Zip":"92703"},{"Location":"EL INDIO TORTILLAS","Address":"1502 W 5th St","City":"Santa Ana","State":"CA","Zip":"92703"},{"Location":"EL REY DEL MARISCO","Address":"501 N Harbor Blvd","City":"Santa Ana","State":"CA","Zip":"92703"},{"Location":"ENVIRONMENT ASSOCIATES INC","Address":"2300 Cape Cod Way","City":"Santa Ana","State":"CA","Zip":"92703"},{"Location":"ESMERALDA BAKERY","Address":"903 S Bristol St D","City":"Santa Ana","State":"CA","Zip":"92703"},{"Location":"FIRST STREET REALIEF","Address":"3411 W 1st St C","City":"Santa Ana","State":"CA","Zip":"92703"},{"Location":"GALAXY CAFE","Address":"414 N Euclid St","City":"Santa Ana","State":"CA","Zip":"92703"},{"Location":"HARBOR SMOG CHECK","Address":"980 N Harbor Blvd C","City":"Santa Ana","State":"CA","Zip":"92703"},{"Location":"HDMM ENTERPRISES INC","Address":"3825 W 1st St","City":"Santa Ana","State":"CA","Zip":"92703"},{"Location":"HIDALGO POOL HALL INC","Address":"1808 W 4th St","City":"Santa Ana","State":"CA","Zip":"92703"},{"Location":"IGLESIA CRISTO","Address":"2829 W 1st St","City":"Santa Ana","State":"CA","Zip":"92703"},{"Location":"INFINITIF AUTO SALES","Address":"925 N Harbor Blvd","City":"Santa Ana","State":"CA","Zip":"92703"},{"Location":"JLT ENTERPRISES","Address":"1435 W 1st St 205","City":"Santa Ana","State":"CA","Zip":"92703"},{"Location":"JUGOS VALLARTA","Address":"1312 W 1st St","City":"Santa Ana","State":"CA","Zip":"92703"},{"Location":"LA NUEVA CARNICERIA","Address":"2231 W 5th St E","City":"Santa Ana","State":"CA","Zip":"92703"},{"Location":"LAN HUONG","Address":"5110 Westminster Ave A","City":"Santa Ana","State":"CA","Zip":"92703"},{"Location":"LO OF STEVEN AFONANI","Address":"429 S Bristol St 6","City":"Santa Ana","State":"CA","Zip":"92703"},{"Location":"MARISCOS ENTENADA","Address":"3622 W 5th St","City":"Santa Ana","State":"CA","Zip":"92703"},{"Location":"MAYRAS BEAUTY SALON","Address":"3839 W 1st St B2","City":"Santa Ana","State":"CA","Zip":"92703"},{"Location":"MEXICANISIMO","Address":"2323 W 1st St","City":"Santa Ana","State":"CA","Zip":"92703"},{"Location":"NORTHGATE GONZALEZ LLC STORE 9","Address":"230 N Harbor Blvd","City":"Santa Ana","State":"CA","Zip":"92703"},{"Location":"ONE STOP AUTO MART","Address":"1206 N Harbor Blvd","City":"Santa Ana","State":"CA","Zip":"92703"},{"Location":"ORANGE COUNTY SHERIFFS DEPT","Address":"550 N Flower St","City":"Santa Ana","State":"CA","Zip":"92703"},{"Location":"PACIFIC AUTO RETAIL","Address":"3638 W 1st St","City":"Santa Ana","State":"CA","Zip":"92703"},{"Location":"PHAN TASTIK COFFE","Address":"511 N Harbor Blvd C","City":"Santa Ana","State":"CA","Zip":"92703"},{"Location":"PHO BINH RESTAURANT","Address":"3839 W 1st St","City":"Santa Ana","State":"CA","Zip":"92703"},{"Location":"POPULAR MEDICAL CLINIC","Address":"420 S Bristol St","City":"Santa Ana","State":"CA","Zip":"92703"},{"Location":"QUAN MAY","Address":"3710 Westminster Ave F","City":"Santa Ana","State":"CA","Zip":"92703"},{"Location":"RESTAURANT EL CABRITO","Address":"1604 W 1st St","City":"Santa Ana","State":"CA","Zip":"92703"},{"Location":"SA RECYCLING","Address":"2006 W 5th St","City":"Santa Ana","State":"CA","Zip":"92703"},{"Location":"SPARKS","Address":"1000 N Harbor Blvd C","City":"Santa Ana","State":"CA","Zip":"92703"},{"Location":"ST FRANCIS HOME","Address":"1718 W 6th St","City":"Santa Ana","State":"CA","Zip":"92703"},{"Location":"SUBWAY #48057","Address":"3835 W 1st St D1","City":"Santa Ana","State":"CA","Zip":"92703"},{"Location":"SUOI TIEN CAFE","Address":"4524 W 1st St","City":"Santa Ana","State":"CA","Zip":"92703"},{"Location":"SURE HAVEN","Address":"1230 W Santa Ana Blvd","City":"Santa Ana","State":"CA","Zip":"92703"},{"Location":"SURE HAVEN 1241","Address":"1241 W Myrtle St","City":"Santa Ana","State":"CA","Zip":"92703"},{"Location":"SURE HAVEN 41","Address":"1218 W Santa Ana Blvd","City":"Santa Ana","State":"CA","Zip":"92703"},{"Location":"TOWN & COUNTRY VILLA","Address":"3929 W 5th St","City":"Santa Ana","State":"CA","Zip":"92703"},{"Location":"TRIEU CHAU RESTAURANT","Address":"4401 W 1st St","City":"Santa Ana","State":"CA","Zip":"92703"},{"Location":"U VAPE","Address":"3629 W 5th St","City":"Santa Ana","State":"CA","Zip":"92703"},{"Location":"UNIQUE CLEANERS","Address":"1245 W Santa Ana Blvd","City":"Santa Ana","State":"CA","Zip":"92703"},{"Location":"VICTORIAS BAKERY","Address":"709 N Bristol St J","City":"Santa Ana","State":"CA","Zip":"92703"},{"Location":"VTJ CAFE","Address":"908 N Harbor Blvd","City":"Santa Ana","State":"CA","Zip":"92703"},{"Location":"WILEY L KIMBROUGH LODGE","Address":"1403 W 5th St","City":"Santa Ana","State":"CA","Zip":"92703"},{"Location":"WINDOW RESTAURANT","Address":"4702 W 1st St F","City":"Santa Ana","State":"CA","Zip":"92703"}]