[{"Location":"24 HOUR FITNESS #048","Address":"18305 Brookhurst St","City":"Fountain Valley","State":"CA","Zip":"92708"},{"Location":"A 1 APARTMENT SUPPLY INC","Address":"18120 Mount Washington St","City":"Fountain Valley","State":"CA","Zip":"92708"},{"Location":"APPLEBEE'S #2150018","Address":"18279 Brookhurst St","City":"Fountain Valley","State":"CA","Zip":"92708"},{"Location":"ASAP SEMI CONDUCTOR","Address":"16600 Harbor Blvd C","City":"Fountain Valley","State":"CA","Zip":"92708"},{"Location":"AUDIO DESIGN EXPERTS INC","Address":"17835 Newhope St","City":"Fountain Valley","State":"CA","Zip":"92708"},{"Location":"BLACK ANGUS","Address":"17920 Brookhurst St","City":"Fountain Valley","State":"CA","Zip":"92708"},{"Location":"BLARNEY STONE","Address":"11761 Edinger Ave","City":"Fountain Valley","State":"CA","Zip":"92708"},{"Location":"BOOMERS FOUNTAIN VALLEY","Address":"16800 Magnolia St","City":"Fountain Valley","State":"CA","Zip":"92708"},{"Location":"C&M KITCHEN CABINETS","Address":"11661 Martens River Cir K","City":"Fountain Valley","State":"CA","Zip":"92708"},{"Location":"CALIFORNIA SHABU SHABU","Address":"18908 Brookhurst St","City":"Fountain Valley","State":"CA","Zip":"92708"},{"Location":"CANCUN FRESH MEXICAN GRI","Address":"18010 Newhope St B","City":"Fountain Valley","State":"CA","Zip":"92708"},{"Location":"CF DAVID L BAKER ARCIS LLC","Address":"10410 Edinger Ave","City":"Fountain Valley","State":"CA","Zip":"92708"},{"Location":"CLAIM JUMPER #3","Address":"18050 Brookhurst St","City":"Fountain Valley","State":"CA","Zip":"92708"},{"Location":"COASTLINE COMMUNITY COLLEGE","Address":"11460 Warner Ave","City":"Fountain Valley","State":"CA","Zip":"92708"},{"Location":"COLORFUL NAILS","Address":"8560 Warner Ave","City":"Fountain Valley","State":"CA","Zip":"92708"},{"Location":"COMPLETE AUTO SPA","Address":"16650 Harbor Blvd","City":"Fountain Valley","State":"CA","Zip":"92708"},{"Location":"CROWN CLEANERS","Address":"18583 Brookhurst St","City":"Fountain Valley","State":"CA","Zip":"92708"},{"Location":"DANIEL T. STEIN%2C M.D.","Address":"11160 Warner Ave 311","City":"Fountain Valley","State":"CA","Zip":"92708"},{"Location":"DAVITA #5791 FOUNTAIN VALLEY","Address":"17150 Euclid St B111","City":"Fountain Valley","State":"CA","Zip":"92708"},{"Location":"DEAD CROW TATTOO AND PIERCING","Address":"17431 Brookhurst St K","City":"Fountain Valley","State":"CA","Zip":"92708"},{"Location":"EBISU RAMEN RESTAURANT","Address":"18924 Brookhurst St A","City":"Fountain Valley","State":"CA","Zip":"92708"},{"Location":"ED'S STUMBLE IN","Address":"8896 Warner Ave","City":"Fountain Valley","State":"CA","Zip":"92708"},{"Location":"EPE INDUSTRIES USA","Address":"17654 Newhope St A","City":"Fountain Valley","State":"CA","Zip":"92708"},{"Location":"ES THREE","Address":"17835 Newhope St","City":"Fountain Valley","State":"CA","Zip":"92708"},{"Location":"FIRESTONE #019992","Address":"17975 Magnolia St","City":"Fountain Valley","State":"CA","Zip":"92708"},{"Location":"FIRST CLASS PIZZA","Address":"18675 Brookhurst St","City":"Fountain Valley","State":"CA","Zip":"92708"},{"Location":"FMC 71700000","Address":"17197 Newhope St A","City":"Fountain Valley","State":"CA","Zip":"92708"},{"Location":"FORTUNE COOKIE REST.","Address":"18774 Brookhurst St","City":"Fountain Valley","State":"CA","Zip":"92708"},{"Location":"FOUNTAIN BOWL","Address":"17110 Brookhurst St","City":"Fountain Valley","State":"CA","Zip":"92708"},{"Location":"FOUNTAIN VALLEY REGIONAL","Address":"17100 Euclid St","City":"Fountain Valley","State":"CA","Zip":"92708"},{"Location":"FOUNTAIN VALLEY SKATING","Address":"9105 Recreation Cir","City":"Fountain Valley","State":"CA","Zip":"92708"},{"Location":"FROGS BOUNCE HOUSE","Address":"16121 Brookhurst St","City":"Fountain Valley","State":"CA","Zip":"92708"},{"Location":"G BURGER","Address":"18120 Brookhurst St","City":"Fountain Valley","State":"CA","Zip":"92708"},{"Location":"GARVIN AND IWM PARTNERS","Address":"9550 Warner Ave 300","City":"Fountain Valley","State":"CA","Zip":"92708"},{"Location":"GEORGES BURGERS","Address":"17991 Euclid St","City":"Fountain Valley","State":"CA","Zip":"92708"},{"Location":"GREEN FARM MARKET","Address":"16042 Magnolia St","City":"Fountain Valley","State":"CA","Zip":"92708"},{"Location":"GYNTLE CARE","Address":"17080 Newhope St","City":"Fountain Valley","State":"CA","Zip":"92708"},{"Location":"HONG HAI DINING","Address":"18041 Magnolia St","City":"Fountain Valley","State":"CA","Zip":"92708"},{"Location":"HOT N JUICY CRAWFISH","Address":"15972 Euclid St D","City":"Fountain Valley","State":"CA","Zip":"92708"},{"Location":"HOT OFF THE GRILL","Address":"9945 Warner Ave","City":"Fountain Valley","State":"CA","Zip":"92708"},{"Location":"HUNTINGTON VALLEY","Address":"18255 Brookhurst St 102","City":"Fountain Valley","State":"CA","Zip":"92708"},{"Location":"HYUNDAI MOTOR AMERICA","Address":"10550 Talbert Ave","City":"Fountain Valley","State":"CA","Zip":"92708"},{"Location":"I LEGEND","Address":"17331 Newhope St","City":"Fountain Valley","State":"CA","Zip":"92708"},{"Location":"INCA CANTINA","Address":"18279 Brookhurst St 4","City":"Fountain Valley","State":"CA","Zip":"92708"},{"Location":"ISLANDS RESTAURANTS #005","Address":"18621 Brookhurst St","City":"Fountain Valley","State":"CA","Zip":"92708"},{"Location":"JACK JACOUB  MD","Address":"9940 Talbert Ave","City":"Fountain Valley","State":"CA","Zip":"92708"},{"Location":"JERSHEY MIKES SUBS","Address":"18120 Brookhurst St 7","City":"Fountain Valley","State":"CA","Zip":"92708"},{"Location":"JMG SECURITY SYSTEMS%2C INC","Address":"17150 Newhope St 109","City":"Fountain Valley","State":"CA","Zip":"92708"},{"Location":"JOEY LUPARELLO'S PIZZA","Address":"9037 Garfield Ave","City":"Fountain Valley","State":"CA","Zip":"92708"},{"Location":"KAPAMILYA RESTAURANT","Address":"10964 Warner Ave","City":"Fountain Valley","State":"CA","Zip":"92708"},{"Location":"KINGSTON TECHNOLOGY","Address":"17650 Newhope St","City":"Fountain Valley","State":"CA","Zip":"92708"},{"Location":"KOBE SUSHI","Address":"10585 Slater Ave","City":"Fountain Valley","State":"CA","Zip":"92708"},{"Location":"KOKORO","Address":"16353 Harbor Blvd","City":"Fountain Valley","State":"CA","Zip":"92708"},{"Location":"LA CURACAO","Address":"16111 Harbor Blvd","City":"Fountain Valley","State":"CA","Zip":"92708"},{"Location":"LA FITNESS #39","Address":"10115 Talbert Ave","City":"Fountain Valley","State":"CA","Zip":"92708"},{"Location":"LAMPPOST PIZZA","Address":"10130 Warner Ave H","City":"Fountain Valley","State":"CA","Zip":"92708"},{"Location":"LIFE SOURCE WATER","Address":"11221 Slater Ave","City":"Fountain Valley","State":"CA","Zip":"92708"},{"Location":"M & D EYEBROW THREADING","Address":"18279 Brookhurst St 3","City":"Fountain Valley","State":"CA","Zip":"92708"},{"Location":"MANNA DOUGHNUTS","Address":"16377 Harbor Blvd","City":"Fountain Valley","State":"CA","Zip":"92708"},{"Location":"MARIE CALLENDAR'S #47","Address":"18889 Brookhurst St","City":"Fountain Valley","State":"CA","Zip":"92708"},{"Location":"MEDICAL  SAFETY MANAGEMENT","Address":"18283 Mount Baldy Cir","City":"Fountain Valley","State":"CA","Zip":"92708"},{"Location":"MEDL MOBILE","Address":"18475 Bandilier Cir","City":"Fountain Valley","State":"CA","Zip":"92708"},{"Location":"MI A DONG","Address":"16175 Brookhurst St","City":"Fountain Valley","State":"CA","Zip":"92708"},{"Location":"MILE SQUARE GOLF COURSE","Address":"10401 Warner Ave","City":"Fountain Valley","State":"CA","Zip":"92708"},{"Location":"MUA RUNG","Address":"16027 Brookhurst St H","City":"Fountain Valley","State":"CA","Zip":"92708"},{"Location":"OFFICE BRUCE S HARRIS DDS","Address":"9092 Talbert Ave 14","City":"Fountain Valley","State":"CA","Zip":"92708"},{"Location":"ON DECK","Address":"17925 Magnolia St","City":"Fountain Valley","State":"CA","Zip":"92708"},{"Location":"ORANGE COUNTY CARDIO","Address":"17150 Euclid St 306","City":"Fountain Valley","State":"CA","Zip":"92708"},{"Location":"ORANGE COUNTY SANITATION #1","Address":"10844 Ellis Ave","City":"Fountain Valley","State":"CA","Zip":"92708"},{"Location":"PACE","Address":"17520 Newhope St 200","City":"Fountain Valley","State":"CA","Zip":"92708"},{"Location":"PAN PACIFIC MECHANICAL","Address":"18250 Euclid St","City":"Fountain Valley","State":"CA","Zip":"92708"},{"Location":"PAPA ZS","Address":"9121 Garfield Ave","City":"Fountain Valley","State":"CA","Zip":"92708"},{"Location":"PARADISE DANCEWEAR","Address":"18589 Brookhurst St","City":"Fountain Valley","State":"CA","Zip":"92708"},{"Location":"PARTNERS SPECIFIC OPTOMETRY","Address":"10130 Warner Ave J","City":"Fountain Valley","State":"CA","Zip":"92708"},{"Location":"PHILLIPS TIRE CO","Address":"16650 Harbor Blvd A1","City":"Fountain Valley","State":"CA","Zip":"92708"},{"Location":"PHONG DIEN INVESTMENT","Address":"17290 Newhope St A","City":"Fountain Valley","State":"CA","Zip":"92708"},{"Location":"PIZZADORO","Address":"10585 Slater Ave","City":"Fountain Valley","State":"CA","Zip":"92708"},{"Location":"PRE PRESS SUPPLY INC","Address":"17336 Mount Wynne Cir","City":"Fountain Valley","State":"CA","Zip":"92708"},{"Location":"PRO NAIL AND SPA","Address":"8876 Warner Ave","City":"Fountain Valley","State":"CA","Zip":"92708"},{"Location":"RESTOR PHYSICAL THERAPY INC","Address":"17272 Newhope St G","City":"Fountain Valley","State":"CA","Zip":"92708"},{"Location":"ROUND TABLE PIZZA","Address":"11095 Warner Ave","City":"Fountain Valley","State":"CA","Zip":"92708"},{"Location":"SAN SALVADOR RESTAURANTE","Address":"16540 Harbor Blvd K","City":"Fountain Valley","State":"CA","Zip":"92708"},{"Location":"SHIMURA RESTAURANT","Address":"18906 Brookhurst St","City":"Fountain Valley","State":"CA","Zip":"92708"},{"Location":"SILKY SULLIVAN'S","Address":"10201 Slater Ave","City":"Fountain Valley","State":"CA","Zip":"92708"},{"Location":"SOUND MATRIX STUDIOS","Address":"1125 Condor Avenue","City":"Fountain Valley","State":"CA","Zip":"92708"},{"Location":"SPECIALIZED CATERING IDE","Address":"18943 Magnolia St","City":"Fountain Valley","State":"CA","Zip":"92708"},{"Location":"SPORTS AUTHORITY 632","Address":"9069 Warner Ave","City":"Fountain Valley","State":"CA","Zip":"92708"},{"Location":"STARFISH RESTAURUNT","Address":"16525 Brookhurst St","City":"Fountain Valley","State":"CA","Zip":"92708"},{"Location":"STATE FARM INSURANCE","Address":"17195 Newhope St 104","City":"Fountain Valley","State":"CA","Zip":"92708"},{"Location":"STIX HOLDINGS 779","Address":"18030 Brookhurst St A","City":"Fountain Valley","State":"CA","Zip":"92708"},{"Location":"SURE HAVEN INC3","Address":"11851 Wisteria Ave","City":"Fountain Valley","State":"CA","Zip":"92708"},{"Location":"SUSHI KOTO","Address":"18225 Brookhurst St 7","City":"Fountain Valley","State":"CA","Zip":"92708"},{"Location":"SUSHI ON FIRE","Address":"17431 Brookhurst St Sua","City":"Fountain Valley","State":"CA","Zip":"92708"},{"Location":"TEA PARTY LOUNGE","Address":"16173 Brookhurst St","City":"Fountain Valley","State":"CA","Zip":"92708"},{"Location":"TEAM AMERICA FITNESS","Address":"10619 Lawson River Ave","City":"Fountain Valley","State":"CA","Zip":"92708"},{"Location":"THE TENNIS RACQUET","Address":"9084 Edinger Ave","City":"Fountain Valley","State":"CA","Zip":"92708"},{"Location":"TIP TOP KITCHEN","Address":"16129 Brookhurst St","City":"Fountain Valley","State":"CA","Zip":"92708"},{"Location":"TOM FERRARO INSURANCE","Address":"18892 Brookhurst St","City":"Fountain Valley","State":"CA","Zip":"92708"},{"Location":"TREN RESTAURANT","Address":"16161 Brookhurst St","City":"Fountain Valley","State":"CA","Zip":"92708"},{"Location":"VALLEYCREST COMPANYS","Address":"11555 Coley River Cir A","City":"Fountain Valley","State":"CA","Zip":"92708"},{"Location":"VIEWPOINT ELECTRONICS","Address":"17150 Newhope St 213","City":"Fountain Valley","State":"CA","Zip":"92708"},{"Location":"5 STARZ VIETNAMESE RESTA","Address":"16086 Harbor Blvd","City":"Fountain Vly","State":"CA","Zip":"92708"},{"Location":"FANTASTIC SAM","Address":"17037 Brookhurst St","City":"Fountain Vly","State":"CA","Zip":"92708"},{"Location":"NGUYEN","Address":"17037 Brookhurst St 5","City":"Fountain Vly","State":"CA","Zip":"92708"},{"Location":"ON THE WAY LIQUOR","Address":"10150 Warner Ave A","City":"Fountain Vly","State":"CA","Zip":"92708"},{"Location":"ROSE DDS MS INC","Address":"17900 Brookhurst St C","City":"Fountain Vly","State":"CA","Zip":"92708"},{"Location":"PREMIER HEALTH ADVISORS","Address":"650 E  Hospitality Lane 306","City":"San Diego","State":"CA","Zip":"92708"}]