[{"Location":"8 STEERS","Address":"3751 S Harbor Blvd C","City":"Santa Ana","State":"CA","Zip":"92704"},{"Location":"ABLE SERVICES","Address":"3300 W Macarthur Blvd","City":"Santa Ana","State":"CA","Zip":"92704"},{"Location":"ACE HEATING SOLUTIONS%2C LLC","Address":"2701 S Harbor Blvd","City":"Santa Ana","State":"CA","Zip":"92704"},{"Location":"ACTION PACKAGING","Address":"3605 W Macarthur Blvd 709","City":"Santa Ana","State":"CA","Zip":"92704"},{"Location":"ADORE DAY SPA AND NAILS","Address":"3941 S Bristol St A","City":"Santa Ana","State":"CA","Zip":"92704"},{"Location":"AGM METALS","Address":"2610 S Coddy Way Unit K","City":"Santa Ana","State":"CA","Zip":"92704"},{"Location":"ALOHA HAWAIIAN BBQ","Address":"3814 S Bristol St B","City":"Santa Ana","State":"CA","Zip":"92704"},{"Location":"ALPINE BANKCARD","Address":"2880 S Fairview St 101","City":"Santa Ana","State":"CA","Zip":"92704"},{"Location":"ALTAMED HELP SERVICE 2","Address":"2720 S Bristol St","City":"Santa Ana","State":"CA","Zip":"92704"},{"Location":"ANL-USL(AMERICA)","Address":"3601 S Harbor Blvd 200","City":"Santa Ana","State":"CA","Zip":"92704"},{"Location":"ANTONELLO RESTAURANT","Address":"1611 W Sunflower Ave","City":"Santa Ana","State":"CA","Zip":"92704"},{"Location":"ARMENIAN CULTERAL FOUNDAITION","Address":"5305 W Mcfadden Ave","City":"Santa Ana","State":"CA","Zip":"92704"},{"Location":"ART TOP NAIL& HAIR","Address":"2860 S Bristol St","City":"Santa Ana","State":"CA","Zip":"92704"},{"Location":"AUDIO SOUNDS","Address":"2604 S Bristol St","City":"Santa Ana","State":"CA","Zip":"92704"},{"Location":"AUDIO VISUAL SOLUTIONS","Address":"3401 W Macarthur Blvd","City":"Santa Ana","State":"CA","Zip":"92704"},{"Location":"BAJA FISH TACOS","Address":"3664 S Bristol St","City":"Santa Ana","State":"CA","Zip":"92704"},{"Location":"BAJA GRILL","Address":"1501 W Macarthur Blvd","City":"Santa Ana","State":"CA","Zip":"92704"},{"Location":"BANKER'S MORTGAGE","Address":"3080 S Harbor Blvd","City":"Santa Ana","State":"CA","Zip":"92704"},{"Location":"BAR LAS VEGAS","Address":"2343 S Bristol St","City":"Santa Ana","State":"CA","Zip":"92704"},{"Location":"BEHR PAINT","Address":"3400 W Garry Ave","City":"Santa Ana","State":"CA","Zip":"92704"},{"Location":"BEHR PROCESS","Address":"1603 W Alton Ave","City":"Santa Ana","State":"CA","Zip":"92704"},{"Location":"BEHR PROCESS","Address":"3500 W Segerstrom Ave","City":"Santa Ana","State":"CA","Zip":"92704"},{"Location":"BEHR PROCESS CORPORATION","Address":"3100 S Harbor Blvd 310","City":"Santa Ana","State":"CA","Zip":"92704"},{"Location":"BELLA CUBA RESTAURANT","Address":"3940 S Bristol St 114","City":"Santa Ana","State":"CA","Zip":"92704"},{"Location":"BEND TEK","Address":"3431 W Maywood Ave","City":"Santa Ana","State":"CA","Zip":"92704"},{"Location":"BEST COIN LAUNDRY","Address":"1401 W Warner Ave","City":"Santa Ana","State":"CA","Zip":"92704"},{"Location":"BIG O TIRES 5835","Address":"3365 S Bristol St","City":"Santa Ana","State":"CA","Zip":"92704"},{"Location":"BIZ SUPPORT INC","Address":"3941 S Bristol St D","City":"Santa Ana","State":"CA","Zip":"92704"},{"Location":"BOILING CRAB","Address":"1500 W Macarthur Blvd","City":"Santa Ana","State":"CA","Zip":"92704"},{"Location":"BRANJESSA","Address":"3611 S Bristol St C","City":"Santa Ana","State":"CA","Zip":"92704"},{"Location":"BRISTOL BARBER","Address":"1118 S Bristol St","City":"Santa Ana","State":"CA","Zip":"92704"},{"Location":"BUDGET FENCE AND GATES","Address":"3629 W Macarthur Blvd 20","City":"Santa Ana","State":"CA","Zip":"92704"},{"Location":"BUFFALO WILD WINGS #0530","Address":"3811 S Bristol St","City":"Santa Ana","State":"CA","Zip":"92704"},{"Location":"CAFE LU 1","Address":"636 S Harbor Blvd","City":"Santa Ana","State":"CA","Zip":"92704"},{"Location":"CALIFORNIA OFFICE SYSTEMS","Address":"3520 W Warner Ave","City":"Santa Ana","State":"CA","Zip":"92704"},{"Location":"CDS INC","Address":"2926 W Pendleton Ave","City":"Santa Ana","State":"CA","Zip":"92704"},{"Location":"CECYS BEAUTY SHOP","Address":"2100 S Bristol St F","City":"Santa Ana","State":"CA","Zip":"92704"},{"Location":"CHICKEN MAISON","Address":"3332 S Bristol St","City":"Santa Ana","State":"CA","Zip":"92704"},{"Location":"CHILDREN'S DENTAL GROUP S. ANA","Address":"2144 S Bristol St","City":"Santa Ana","State":"CA","Zip":"92704"},{"Location":"COASTAL COMMUNITIES HOSPITAL","Address":"2701 S Bristol St","City":"Santa Ana","State":"CA","Zip":"92704"},{"Location":"COASTLINE SURGERY CENTER","Address":"3200 S Bristol St","City":"Santa Ana","State":"CA","Zip":"92704"},{"Location":"COLLINS RACING SERVICES","Address":"3303 W Harvard St","City":"Santa Ana","State":"CA","Zip":"92704"},{"Location":"DARYA RESTAURANT","Address":"1611 W Sunflower Ave B59","City":"Santa Ana","State":"CA","Zip":"92704"},{"Location":"DENTAL OFFICE","Address":"3640 S Bristol St","City":"Santa Ana","State":"CA","Zip":"92704"},{"Location":"DODINH & THYTHY DANCE SCHOOL","Address":"5127 W Edinger Ave D","City":"Santa Ana","State":"CA","Zip":"92704"},{"Location":"DOMOYA","Address":"2841 W Macarthur Blvd B","City":"Santa Ana","State":"CA","Zip":"92704"},{"Location":"DUY NGUYEN","Address":"2140 S Yale St A","City":"Santa Ana","State":"CA","Zip":"92704"},{"Location":"ERIC SCHMIDT CONSTRUCTION","Address":"2315 S Otis St","City":"Santa Ana","State":"CA","Zip":"92704"},{"Location":"EVANS ROOFING","Address":"2020 S Yale St","City":"Santa Ana","State":"CA","Zip":"92704"},{"Location":"FADED BARBER","Address":"2222 S Bristol St","City":"Santa Ana","State":"CA","Zip":"92704"},{"Location":"FAMOUS DAVE'S SANTA ANA","Address":"3608 S Bristol St","City":"Santa Ana","State":"CA","Zip":"92704"},{"Location":"FIRESTONE #018716","Address":"3733 S Bristol St","City":"Santa Ana","State":"CA","Zip":"92704"},{"Location":"FIRST BARBERSHOP","Address":"120 S Harbor Blvd E","City":"Santa Ana","State":"CA","Zip":"92704"},{"Location":"FIVE STAR WATER STORE","Address":"2710 W Edinger Ave","City":"Santa Ana","State":"CA","Zip":"92704"},{"Location":"FMC 73080000","Address":"2740 S Bristol St 110","City":"Santa Ana","State":"CA","Zip":"92704"},{"Location":"FOOD SERVICE OF AMERICA","Address":"404 S Sullivan St","City":"Santa Ana","State":"CA","Zip":"92704"},{"Location":"GEORGES THAI BISTRO","Address":"3732 S Bristol St","City":"Santa Ana","State":"CA","Zip":"92704"},{"Location":"GLOBAL MOTORSPORTS GROUP","Address":"3210 S Shannon St","City":"Santa Ana","State":"CA","Zip":"92704"},{"Location":"HARBOR BARBER","Address":"740 S Harbor Bld","City":"Santa Ana","State":"CA","Zip":"92704"},{"Location":"HARBOR DISTRIBUTING LLC","Address":"3100 W Segerstrom Ave","City":"Santa Ana","State":"CA","Zip":"92704"},{"Location":"HYBRID STUDIOS LLC","Address":"3021 S Shannon St","City":"Santa Ana","State":"CA","Zip":"92704"},{"Location":"I ASSOCIATES OF ORANGE COUNTY","Address":"2621 S Bristol St 205","City":"Santa Ana","State":"CA","Zip":"92704"},{"Location":"INKA MAMAS","Address":"3930 S Bristol St 107","City":"Santa Ana","State":"CA","Zip":"92704"},{"Location":"JASPERS BAR & GRILL","Address":"3672 S Bristol St","City":"Santa Ana","State":"CA","Zip":"92704"},{"Location":"JERSEY MIKES SUBS","Address":"3941 S Bristol St G","City":"Santa Ana","State":"CA","Zip":"92704"},{"Location":"JILLSON ROBERTS","Address":"3300 W Castor St","City":"Santa Ana","State":"CA","Zip":"92704"},{"Location":"JONES LANG LASALLE 3","Address":"3110 W Lake Center Dr","City":"Santa Ana","State":"CA","Zip":"92704"},{"Location":"JONES LANG LASALLE 4","Address":"3120 W Lake Center Dr","City":"Santa Ana","State":"CA","Zip":"92704"},{"Location":"KAGA INCORPORATED","Address":"2620 S Susan St","City":"Santa Ana","State":"CA","Zip":"92704"},{"Location":"KAISAN","Address":"3855 S Bristol St","City":"Santa Ana","State":"CA","Zip":"92704"},{"Location":"KLUZ INTERNATIONAL","Address":"3400 W Warner Ave J","City":"Santa Ana","State":"CA","Zip":"92704"},{"Location":"KWVE RADIO STATION","Address":"3000 W Macarthur Blvd 500","City":"Santa Ana","State":"CA","Zip":"92704"},{"Location":"LA PACHANGA CANTINA  GRILL","Address":"2513 W Edinger Ave","City":"Santa Ana","State":"CA","Zip":"92704"},{"Location":"LBL INSURANCE SERVICES INC","Address":"3631 S Harbor Blvd","City":"Santa Ana","State":"CA","Zip":"92704"},{"Location":"LEE SANDWICHES","Address":"3350 S Bristol St","City":"Santa Ana","State":"CA","Zip":"92704"},{"Location":"LIBERTY TAX SERVICE","Address":"1212 S Bristol St","City":"Santa Ana","State":"CA","Zip":"92704"},{"Location":"LIBERTY TAX SERVICE","Address":"509 S Harbor Blvd","City":"Santa Ana","State":"CA","Zip":"92704"},{"Location":"LUCERO DENTAL CLINIC","Address":"2740 S Bristol St 206","City":"Santa Ana","State":"CA","Zip":"92704"},{"Location":"MAIN ELECTRIC","Address":"3600 W Segerstrom Ave","City":"Santa Ana","State":"CA","Zip":"92704"},{"Location":"MARISCOS LOS PORTALES","Address":"1400 W Mcfadden Ave 5","City":"Santa Ana","State":"CA","Zip":"92704"},{"Location":"MEN'S WEARHOUSE #2707","Address":"3930 S Bristol St 101","City":"Santa Ana","State":"CA","Zip":"92704"},{"Location":"MORTON'S SANTA ANA","Address":"1641 W Sunflower Ave","City":"Santa Ana","State":"CA","Zip":"92704"},{"Location":"MR CROWN","Address":"2901 W Pendleton Ave","City":"Santa Ana","State":"CA","Zip":"92704"},{"Location":"NAILS PLUS","Address":"120 S Harbor Blvd","City":"Santa Ana","State":"CA","Zip":"92704"},{"Location":"NEXT NAILS SPA","Address":"3315 S Bristol St","City":"Santa Ana","State":"CA","Zip":"92704"},{"Location":"NORDSTROM FSB","Address":"3501 W Sunflower Ave","City":"Santa Ana","State":"CA","Zip":"92704"},{"Location":"OC DENTAL CENTER","Address":"2700 S Bristol St","City":"Santa Ana","State":"CA","Zip":"92704"},{"Location":"OCTA 4","Address":"4301 W Macarthur Blvd","City":"Santa Ana","State":"CA","Zip":"92704"},{"Location":"ORANGE COUNTY HEART INSTITUTE","Address":"2621 S Bristol St 204","City":"Santa Ana","State":"CA","Zip":"92704"},{"Location":"ORANGE COURIER","Address":"3731 W Warner Ave","City":"Santa Ana","State":"CA","Zip":"92704"},{"Location":"PACIFIC SUNDANCE CON","Address":"3501 S Harbor Blvd","City":"Santa Ana","State":"CA","Zip":"92704"},{"Location":"PACIFIC WESTERN","Address":"4044 W Garry Ave","City":"Santa Ana","State":"CA","Zip":"92704"},{"Location":"PANERIA LA CHAPINA","Address":"2230 W Edinger Ave","City":"Santa Ana","State":"CA","Zip":"92704"},{"Location":"PENNYVISION LLC.","Address":"3317 S Bristol St","City":"Santa Ana","State":"CA","Zip":"92704"},{"Location":"PIZZAREV","Address":"3605 S Bristol St D","City":"Santa Ana","State":"CA","Zip":"92704"},{"Location":"PORSCHE MOTOR SPORT","Address":"3202 S Shannon St","City":"Santa Ana","State":"CA","Zip":"92704"},{"Location":"PROMOTIONAL SIGNS INC","Address":"3301 S Susan St","City":"Santa Ana","State":"CA","Zip":"92704"},{"Location":"R & B WIRE PRODUCTS","Address":"2902 W Garry Ave","City":"Santa Ana","State":"CA","Zip":"92704"},{"Location":"RED ROBIN #21","Address":"1307 W Sunflower Ave","City":"Santa Ana","State":"CA","Zip":"92704"},{"Location":"RITTERS SKC 2","Address":"1421 W Macarthur Blvd G","City":"Santa Ana","State":"CA","Zip":"92704"},{"Location":"RODRIGUEZ TIRES & WHEELS","Address":"125 S Harbor Blvd","City":"Santa Ana","State":"CA","Zip":"92704"},{"Location":"ROYAL KHYBER","Address":"1621 W Sunflower Ave","City":"Santa Ana","State":"CA","Zip":"92704"},{"Location":"SANTA ANA","Address":"2941 W Central Ave H","City":"Santa Ana","State":"CA","Zip":"92704"},{"Location":"SARAS BEAUTY SALON","Address":"2204 W Edinger Ave","City":"Santa Ana","State":"CA","Zip":"92704"},{"Location":"SASSI CAFE","Address":"5015 W Edinger Ave E","City":"Santa Ana","State":"CA","Zip":"92704"},{"Location":"SOUTH COAST NAILS","Address":"3930 S Bristol St 105","City":"Santa Ana","State":"CA","Zip":"92704"},{"Location":"SOUTHCOAST FAMILY DENTAL","Address":"2781 W Macarthur Blvd","City":"Santa Ana","State":"CA","Zip":"92704"},{"Location":"SOVEREIGN FLAVORS","Address":"4020 W Chandler Ave","City":"Santa Ana","State":"CA","Zip":"92704"},{"Location":"SPORTS AUTHORITY 634","Address":"3900 S Bristol St","City":"Santa Ana","State":"CA","Zip":"92704"},{"Location":"STANGCO INDUSTRIAL EQUIPMENT","Address":"3330 W Castor St","City":"Santa Ana","State":"CA","Zip":"92704"},{"Location":"STIX HOLDINGS 755","Address":"2801 W Macarthur Blvd D","City":"Santa Ana","State":"CA","Zip":"92704"},{"Location":"STORSTAD AUTO SPORTS LLC","Address":"3031 S Shannon St","City":"Santa Ana","State":"CA","Zip":"92704"},{"Location":"SUNFLOWER GARDENS","Address":"3730 S Greenville St","City":"Santa Ana","State":"CA","Zip":"92704"},{"Location":"SUPER ANTOJITOS","Address":"3305 S Bristol St","City":"Santa Ana","State":"CA","Zip":"92704"},{"Location":"SURE HAVEN 38","Address":"3126 S Rene Dr","City":"Santa Ana","State":"CA","Zip":"92704"},{"Location":"SURE HAVEN 39","Address":"2534 S Deegan Dr","City":"Santa Ana","State":"CA","Zip":"92704"},{"Location":"SURE HAVEN INC4","Address":"2062 S Rene Dr","City":"Santa Ana","State":"CA","Zip":"92704"},{"Location":"SURE HAVEN INC7","Address":"2902 S Rene Dr","City":"Santa Ana","State":"CA","Zip":"92704"},{"Location":"SURE HAVEN INC9","Address":"2038 S Artesia St","City":"Santa Ana","State":"CA","Zip":"92704"},{"Location":"SURE HAVEN44","Address":"3011 S Rene Dr","City":"Santa Ana","State":"CA","Zip":"92704"},{"Location":"TACOS Y BIRRIA EL GUERO","Address":"2330 W Edindger Ave Suita","City":"Santa Ana","State":"CA","Zip":"92704"},{"Location":"TAPIOCA EXPRESS","Address":"1441 W Macarthur Blvd C","City":"Santa Ana","State":"CA","Zip":"92704"},{"Location":"TAQUERIA EL JACALITO","Address":"1013 S Fairview St","City":"Santa Ana","State":"CA","Zip":"92704"},{"Location":"TAQUERIA GUERRERO","Address":"4009 W Crystal Ln","City":"Santa Ana","State":"CA","Zip":"92704"},{"Location":"TARGET-SANTA ANA","Address":"3300 S Bristol St","City":"Santa Ana","State":"CA","Zip":"92704"},{"Location":"TEKCETERA INC","Address":"2770 S Harbor Blvd A","City":"Santa Ana","State":"CA","Zip":"92704"},{"Location":"TEMPTATION CAFE","Address":"111 S Harbor Blvd","City":"Santa Ana","State":"CA","Zip":"92704"},{"Location":"TFN ARCHITECTURAL SIGNAGE","Address":"3415 W Lake Center Dr","City":"Santa Ana","State":"CA","Zip":"92704"},{"Location":"THE ART INSTITUTE OF CA","Address":"3601 W Sunflower Ave","City":"Santa Ana","State":"CA","Zip":"92704"},{"Location":"THE UPS STORE","Address":"3843 S Bristol St","City":"Santa Ana","State":"CA","Zip":"92704"},{"Location":"THREAT MANAGEMENT AND PROTECTI","Address":"2740 S Harbor Blvd","City":"Santa Ana","State":"CA","Zip":"92704"},{"Location":"TORTAS SINALOA","Address":"701 S Harbor Blvd Rear","City":"Santa Ana","State":"CA","Zip":"92704"},{"Location":"TRAIL RITE II","Address":"3120 W Central Ave","City":"Santa Ana","State":"CA","Zip":"92704"},{"Location":"TRAINING CONSULTANTS","Address":"3621 S Harbor Blvd 225","City":"Santa Ana","State":"CA","Zip":"92704"},{"Location":"TTM TECHNOLOGIES INC","Address":"2630 S Harbor Blvd","City":"Santa Ana","State":"CA","Zip":"92704"},{"Location":"TWEDDELLS INC","Address":"1900 S Susan St","City":"Santa Ana","State":"CA","Zip":"92704"},{"Location":"UNITED GREENHOUSE LLC","Address":"3605 W Pendleton Ave","City":"Santa Ana","State":"CA","Zip":"92704"},{"Location":"USD PRODUCTS","Address":"2910 W Garry Ave","City":"Santa Ana","State":"CA","Zip":"92704"},{"Location":"VALENCI PI","Address":"2300 S Bristol St","City":"Santa Ana","State":"CA","Zip":"92704"},{"Location":"VALLEY LIQUOR","Address":"2429 W Edinger Ave","City":"Santa Ana","State":"CA","Zip":"92704"},{"Location":"VAPOR WORKZ","Address":"2760 S Harbor Blvd H","City":"Santa Ana","State":"CA","Zip":"92704"},{"Location":"VERIZON SANTA ANA MTSO","Address":"3011 W Warner Ave","City":"Santa Ana","State":"CA","Zip":"92704"},{"Location":"VINTAGE CIGARS","Address":"3734 S Bristol St","City":"Santa Ana","State":"CA","Zip":"92704"},{"Location":"WIENERSCHNITZEL-348","Address":"1401 W Macarthur Blvd","City":"Santa Ana","State":"CA","Zip":"92704"},{"Location":"WINGSTOP","Address":"2801 W Macarthur Blvd C","City":"Santa Ana","State":"CA","Zip":"92704"},{"Location":"WINGSTOP%2FFAR WEST RESTUARANT","Address":"3720 S Susan St 120","City":"Santa Ana","State":"CA","Zip":"92704"},{"Location":"YES4ALL LLC","Address":"3602 W Central Ave","City":"Santa Ana","State":"CA","Zip":"92704"},{"Location":"Z PIZZA","Address":"3941 S Bristol St F2","City":"Santa Ana","State":"CA","Zip":"92704"}]