[{"Location":"ADALFOS LIQUOR","Address":"2734 N Bristol St","City":"Santa Ana","State":"CA","Zip":"92706"},{"Location":"AGUILARS INCOME TAX","Address":"2709 Westminster Ave","City":"Santa Ana","State":"CA","Zip":"92706"},{"Location":"ALOHA HAWAIIAN BBQ","Address":"2729 N Bristol St B1","City":"Santa Ana","State":"CA","Zip":"92706"},{"Location":"AQUA MOTEL","Address":"317 E 17th St","City":"Santa Ana","State":"CA","Zip":"92706"},{"Location":"CAFE HEAVEN","Address":"2271 N Fairview St","City":"Santa Ana","State":"CA","Zip":"92706"},{"Location":"CHARLES PARK DDS","Address":"2709 Westminster Ave J","City":"Santa Ana","State":"CA","Zip":"92706"},{"Location":"COSTA AZUL RESTAURANT","Address":"800 W 17th St","City":"Santa Ana","State":"CA","Zip":"92706"},{"Location":"CREDIT ONE","Address":"2333 N Broadway 400","City":"Santa Ana","State":"CA","Zip":"92706"},{"Location":"EL PICO DE GALLO","Address":"901 W 17th St","City":"Santa Ana","State":"CA","Zip":"92706"},{"Location":"ELD RINCON CHILANGO REST","Address":"1133 W 17th St","City":"Santa Ana","State":"CA","Zip":"92706"},{"Location":"GOOD FELLAZ BARBERSHOP","Address":"617 W 17th St","City":"Santa Ana","State":"CA","Zip":"92706"},{"Location":"HEIN VOUNG RESTAURANT1","Address":"2525 Westminster Ave H","City":"Santa Ana","State":"CA","Zip":"92706"},{"Location":"INSURANCE PARTNERS","Address":"2107 N Broadway 108","City":"Santa Ana","State":"CA","Zip":"92706"},{"Location":"INTERNET LOCAL LISTINGS","Address":"1600 N Broadway 750","City":"Santa Ana","State":"CA","Zip":"92706"},{"Location":"J & M DIVERSIFIED","Address":"2107 N Broadway 102","City":"Santa Ana","State":"CA","Zip":"92706"},{"Location":"KOHL'S #754","Address":"1351 W 17th St","City":"Santa Ana","State":"CA","Zip":"92706"},{"Location":"LAW OFFICE OF JEREMY ALBERT","Address":"1600 N Broadway 1010","City":"Santa Ana","State":"CA","Zip":"92706"},{"Location":"LIBERTY  TAX  SERVICE","Address":"1702 N Main St 101","City":"Santa Ana","State":"CA","Zip":"92706"},{"Location":"LJS FITNESS LLC","Address":"2725 N Bristol St","City":"Santa Ana","State":"CA","Zip":"92706"},{"Location":"MARISCOS LOS CORALES","Address":"2629 Westminster Ave","City":"Santa Ana","State":"CA","Zip":"92706"},{"Location":"NORTHGATE GONZALEZ LLC","Address":"1623 W 17th St 7","City":"Santa Ana","State":"CA","Zip":"92706"},{"Location":"OCDE%2FRIO CONTIGUO HIGH SCHOOL","Address":"3030 N Hesperian St","City":"Santa Ana","State":"CA","Zip":"92706"},{"Location":"ORANGE COUNTY PROBATION DEPT","Address":"3030 N Hesperian St","City":"Santa Ana","State":"CA","Zip":"92706"},{"Location":"PUERTO MADERO","Address":"1225 W 17th St","City":"Santa Ana","State":"CA","Zip":"92706"},{"Location":"RAINBOW SOUND","Address":"2426 W 17th St","City":"Santa Ana","State":"CA","Zip":"92706"},{"Location":"RMB ESCROW","Address":"2119 N Main St","City":"Santa Ana","State":"CA","Zip":"92706"},{"Location":"SCHOOL FIRST FCU","Address":"2115 N Broadway","City":"Santa Ana","State":"CA","Zip":"92706"},{"Location":"SCHOOLS FIRST FEDERAL CR UNION","Address":"2115 N Broadway","City":"Santa Ana","State":"CA","Zip":"92706"},{"Location":"SOPHIAS BEAUTY SALON","Address":"2010 N Bristol St","City":"Santa Ana","State":"CA","Zip":"92706"},{"Location":"SOUTH COAST MEDICAL","Address":"2703 N Bristol St H1","City":"Santa Ana","State":"CA","Zip":"92706"},{"Location":"STATE FARM","Address":"2723 N Bristol St","City":"Santa Ana","State":"CA","Zip":"92706"},{"Location":"STATION 71","Address":"1029 W 17th St","City":"Santa Ana","State":"CA","Zip":"92706"},{"Location":"STEVEN SCHROEDER","Address":"2107 N Broadway 204","City":"Santa Ana","State":"CA","Zip":"92706"},{"Location":"SUBWAY #1679","Address":"1702 N Bristol St E","City":"Santa Ana","State":"CA","Zip":"92706"},{"Location":"TAQUERIA EL AMIGO1","Address":"1936 W 17th St","City":"Santa Ana","State":"CA","Zip":"92706"},{"Location":"TARGET 1936","Address":"1441 W 17th St","City":"Santa Ana","State":"CA","Zip":"92706"},{"Location":"THE OLDE SHIPS","Address":"1120 W 17th St","City":"Santa Ana","State":"CA","Zip":"92706"},{"Location":"TOWN AND COUNTRY MANOR","Address":"555 E Memory Ln","City":"Santa Ana","State":"CA","Zip":"92706"},{"Location":"UNITED DENTAL GROUP","Address":"1227 W 17th St","City":"Santa Ana","State":"CA","Zip":"92706"},{"Location":"UNO FREE PIZZA","Address":"2525 W 17th St I","City":"Santa Ana","State":"CA","Zip":"92706"}]