[{"Location":"500 CLUB","Address":"500 S Main St","City":"Santa Ana","State":"CA","Zip":"92701"},{"Location":"ALLIED BUILDING PRODUCTS","Address":"111 S Minnie St","City":"Santa Ana","State":"CA","Zip":"92701"},{"Location":"ALOHA COMMUNITYCOLLECTIVE","Address":"1615 French St 101","City":"Santa Ana","State":"CA","Zip":"92701"},{"Location":"AMERICAN BARBERSHOP","Address":"320 E 4th St A","City":"Santa Ana","State":"CA","Zip":"92701"},{"Location":"AMIS","Address":"1117 N Main St","City":"Santa Ana","State":"CA","Zip":"92701"},{"Location":"APOTECA MODERTA LLC.","Address":"302 N Broadway","City":"Santa Ana","State":"CA","Zip":"92701"},{"Location":"ART LOMELI DBS","Address":"415 N Sycamore St 300","City":"Santa Ana","State":"CA","Zip":"92701"},{"Location":"AUSTIN HARDWOODS","Address":"610 N Santiago St","City":"Santa Ana","State":"CA","Zip":"92701"},{"Location":"AUTO INTERNATIONAL INSURANCE","Address":"1508 N Main St","City":"Santa Ana","State":"CA","Zip":"92701"},{"Location":"BARI PASTA & PIZZA","Address":"1640 E 1st St A","City":"Santa Ana","State":"CA","Zip":"92701"},{"Location":"BREJHON BEAUTY","Address":"217 N Broadway","City":"Santa Ana","State":"CA","Zip":"92701"},{"Location":"BUREAU OF ATF","Address":"34 Civic Center Plz 6121","City":"Santa Ana","State":"CA","Zip":"92701"},{"Location":"BURGERKING","Address":"701 N Main St","City":"Santa Ana","State":"CA","Zip":"92701"},{"Location":"C4 DELI","Address":"200 N Broadway","City":"Santa Ana","State":"CA","Zip":"92701"},{"Location":"CHAPTER ONE","Address":"227 N Broadway","City":"Santa Ana","State":"CA","Zip":"92701"},{"Location":"CHARLIES BEST","Address":"140 S Grand Ave","City":"Santa Ana","State":"CA","Zip":"92701"},{"Location":"CHEF ROBERTS LLC","Address":"214 S Grand Ave","City":"Santa Ana","State":"CA","Zip":"92701"},{"Location":"CRAVE RESTAURANT GROUP LLC","Address":"410 W 4th St","City":"Santa Ana","State":"CA","Zip":"92701"},{"Location":"DEPT OF CHILD SUPPT-1015","Address":"1015 N Main St","City":"Santa Ana","State":"CA","Zip":"92701"},{"Location":"DEPT OF CHILD SUPTT-1055","Address":"1055 N Main St","City":"Santa Ana","State":"CA","Zip":"92701"},{"Location":"DGWB ADVERTISING","Address":"217 N Main St 200","City":"Santa Ana","State":"CA","Zip":"92701"},{"Location":"DJ PACHANGA & MUSIC","Address":"210 W 4th St","City":"Santa Ana","State":"CA","Zip":"92701"},{"Location":"DR ASSAD MICHAEL MOHEIMA","Address":"902 N Grand Ave 100","City":"Santa Ana","State":"CA","Zip":"92701"},{"Location":"DYNAMIC GARAGE DOOR","Address":"1104 E Chestnut Ave","City":"Santa Ana","State":"CA","Zip":"92701"},{"Location":"E & S SMOKE SHOP","Address":"904 E 1st St","City":"Santa Ana","State":"CA","Zip":"92701"},{"Location":"EL CARBONERO","Address":"803 S Main St","City":"Santa Ana","State":"CA","Zip":"92701"},{"Location":"EXPRESS COIN LAUNDRY A","Address":"908 E 1st St","City":"Santa Ana","State":"CA","Zip":"92701"},{"Location":"FIRE SAFETY FIRST","Address":"1170 E Fruit St","City":"Santa Ana","State":"CA","Zip":"92701"},{"Location":"FIRESTONE #016748","Address":"101 S Main St","City":"Santa Ana","State":"CA","Zip":"92701"},{"Location":"FRENCH PARK CARE","Address":"600 E Washington Ave","City":"Santa Ana","State":"CA","Zip":"92701"},{"Location":"GOSA TOY","Address":"1002 E Chestnut Ave","City":"Santa Ana","State":"CA","Zip":"92701"},{"Location":"GWENIS DOLL HOUSE","Address":"1002 E 17th St","City":"Santa Ana","State":"CA","Zip":"92701"},{"Location":"HD SUPPLY REPAIR REMODEL 6727","Address":"1044 E 4th St","City":"Santa Ana","State":"CA","Zip":"92701"},{"Location":"HSM ELECTRONIC PROTECTION SERV","Address":"514 S Lyon St","City":"Santa Ana","State":"CA","Zip":"92701"},{"Location":"HUD","Address":"34 Civic Center Plz 800","City":"Santa Ana","State":"CA","Zip":"92701"},{"Location":"IZALCO","Address":"300 W 5th St","City":"Santa Ana","State":"CA","Zip":"92701"},{"Location":"J AND C EQUIPMENT RENTAL","Address":"1014 E Pine St","City":"Santa Ana","State":"CA","Zip":"92701"},{"Location":"JANNEY AND JANNEY ATTORNEY SVC","Address":"840 N Birch St","City":"Santa Ana","State":"CA","Zip":"92701"},{"Location":"JOSE TACOS AND MORE","Address":"209 W 4th St","City":"Santa Ana","State":"CA","Zip":"92701"},{"Location":"LABOR LOCAL 652","Address":"1532 E Chestnut Ave","City":"Santa Ana","State":"CA","Zip":"92701"},{"Location":"LAVENDERIA","Address":"419 N Grand Ave","City":"Santa Ana","State":"CA","Zip":"92701"},{"Location":"LAW OFFICE OF GENE GOLDSMAN","Address":"501 W Civic Center Dr","City":"Santa Ana","State":"CA","Zip":"92701"},{"Location":"LAW OFFICE OF KENNETH RE","Address":"406 W 4th St","City":"Santa Ana","State":"CA","Zip":"92701"},{"Location":"LIBERTY TAX SERVICE","Address":"431 E 1st St 4d","City":"Santa Ana","State":"CA","Zip":"92701"},{"Location":"LITTLE SPARROW","Address":"300 N Main St","City":"Santa Ana","State":"CA","Zip":"92701"},{"Location":"LOISE RIVERIA MD","Address":"2220 E Fruit St 217","City":"Santa Ana","State":"CA","Zip":"92701"},{"Location":"LUCKY GUYS BURGERS","Address":"401 S Main St","City":"Santa Ana","State":"CA","Zip":"92701"},{"Location":"MAIN STEET PRENATAL CLINIC","Address":"520 N Main St 100","City":"Santa Ana","State":"CA","Zip":"92701"},{"Location":"MARILYNS BEAUTY SALON","Address":"828 E 4th St","City":"Santa Ana","State":"CA","Zip":"92701"},{"Location":"MARISCOS EL CANGREJO NIC","Address":"819 S Main St","City":"Santa Ana","State":"CA","Zip":"92701"},{"Location":"MERCY     HOUSE","Address":"1505 N Bush St","City":"Santa Ana","State":"CA","Zip":"92701"},{"Location":"MERCY HOUSE","Address":"1507 N Bush St","City":"Santa Ana","State":"CA","Zip":"92701"},{"Location":"NATIVE SON ALEHOUSE","Address":"305 E 4th St 200","City":"Santa Ana","State":"CA","Zip":"92701"},{"Location":"OC COURTHOUSE","Address":"700 W Civic Center Dr","City":"Santa Ana","State":"CA","Zip":"92701"},{"Location":"ORANGE COUNTY CLERK RECORDER","Address":"630 N Broadway Rm101","City":"Santa Ana","State":"CA","Zip":"92701"},{"Location":"ORANGE COUNTY SHERRIFS","Address":"909 N Main St","City":"Santa Ana","State":"CA","Zip":"92701"},{"Location":"ORIGINAL MIKE'S RESTAURANT","Address":"100 S Main St","City":"Santa Ana","State":"CA","Zip":"92701"},{"Location":"PACIFIC DENTAL CLINIC","Address":"1217 E 17th St","City":"Santa Ana","State":"CA","Zip":"92701"},{"Location":"PHOENIX HOUSE","Address":"1207 E Fruit St","City":"Santa Ana","State":"CA","Zip":"92701"},{"Location":"PLAYGROUND BURGERS","Address":"220 E 4th St","City":"Santa Ana","State":"CA","Zip":"92701"},{"Location":"PRIDE DENTAL INC","Address":"902 E 1st St","City":"Santa Ana","State":"CA","Zip":"92701"},{"Location":"RANCHO DE MENDOZA","Address":"104 E 4th St","City":"Santa Ana","State":"CA","Zip":"92701"},{"Location":"REPUBLIC OF FOOD AND ART","Address":"211 W 2nd St","City":"Santa Ana","State":"CA","Zip":"92701"},{"Location":"RICARDOS AUTO REPAIR","Address":"119 N Bush St A1","City":"Santa Ana","State":"CA","Zip":"92701"},{"Location":"SAHUAYO DENTAL","Address":"520 N Main St 120","City":"Santa Ana","State":"CA","Zip":"92701"},{"Location":"SAMANO","Address":"106 W 2nd St D","City":"Santa Ana","State":"CA","Zip":"92701"},{"Location":"SANTA ANA ELK'S LODGE #0794","Address":"212 S Elk Ln","City":"Santa Ana","State":"CA","Zip":"92701"},{"Location":"SANTA ANA LEGAL","Address":"600 W Santa Ana Blvd 101","City":"Santa Ana","State":"CA","Zip":"92701"},{"Location":"SAPOA","Address":"1607 N Sycamore St","City":"Santa Ana","State":"CA","Zip":"92701"},{"Location":"SEIU LOCAL 721","Address":"1651 E 4th St 120","City":"Santa Ana","State":"CA","Zip":"92701"},{"Location":"SERVE THE PEOPLE CHC","Address":"1206 E 17th St","City":"Santa Ana","State":"CA","Zip":"92701"},{"Location":"SIHILLING METAL POLISHING","Address":"1018 E Chestnut Ave C","City":"Santa Ana","State":"CA","Zip":"92701"},{"Location":"SOUTH COAST PATIENT CENT","Address":"1202 E 17th St 200","City":"Santa Ana","State":"CA","Zip":"92701"},{"Location":"SUZUKI DEPOT","Address":"909 N Grand Ave","City":"Santa Ana","State":"CA","Zip":"92701"},{"Location":"SWING TECH","Address":"1327 N Main St","City":"Santa Ana","State":"CA","Zip":"92701"},{"Location":"TAQUERIA DEANDA","Address":"1029 E 4th St","City":"Santa Ana","State":"CA","Zip":"92701"},{"Location":"TAQUERIAS GUADALAJARA","Address":"305 E 4th St 101","City":"Santa Ana","State":"CA","Zip":"92701"},{"Location":"THE BARREL ROOM","Address":"324 W 4th St B","City":"Santa Ana","State":"CA","Zip":"92701"},{"Location":"THE GUARANTY CHEVROLET MOTORS","Address":"711 E 17th St","City":"Santa Ana","State":"CA","Zip":"92701"},{"Location":"THE LAWYERS GROUP","Address":"902 N Grand Ave 201","City":"Santa Ana","State":"CA","Zip":"92701"},{"Location":"THE NORTH LEFT","Address":"400 N Broadway","City":"Santa Ana","State":"CA","Zip":"92701"},{"Location":"THE QUILL LOUNGE","Address":"1630 Mabury St","City":"Santa Ana","State":"CA","Zip":"92701"},{"Location":"THE ROBBINS NEST","Address":"207 W 2nd St B","City":"Santa Ana","State":"CA","Zip":"92701"},{"Location":"THE SALVATION ARMY","Address":"818 E 3rd St","City":"Santa Ana","State":"CA","Zip":"92701"},{"Location":"TIENDA EL SALVADOR","Address":"801 S Main St","City":"Santa Ana","State":"CA","Zip":"92701"},{"Location":"TONYS AUTO DETAILING","Address":"1316 N Grand Ave","City":"Santa Ana","State":"CA","Zip":"92701"},{"Location":"TRITON MANAGEMENT SERVICES LLC","Address":"801 N Ross St","City":"Santa Ana","State":"CA","Zip":"92701"},{"Location":"US DEPT OF JUSTICE (SANTA ANA)","Address":"411 W 4th St","City":"Santa Ana","State":"CA","Zip":"92701"},{"Location":"US MARSHALS SERVICE","Address":"411 W 4th St","City":"Santa Ana","State":"CA","Zip":"92701"},{"Location":"US SECRET SERVICE","Address":"200 W Santa Ana Blvd 500","City":"Santa Ana","State":"CA","Zip":"92701"},{"Location":"UTILITY WORKERS UNION LO","Address":"525 Cabrillo Park Dr 200","City":"Santa Ana","State":"CA","Zip":"92701"},{"Location":"VELVET LOUNGE","Address":"416 W 4th St","City":"Santa Ana","State":"CA","Zip":"92701"},{"Location":"W.Y. MANUFACTURING INC.","Address":"1037 Fuller St","City":"Santa Ana","State":"CA","Zip":"92701"},{"Location":"WMC INSURANCE CO","Address":"322 W 3rd St","City":"Santa Ana","State":"CA","Zip":"92701"},{"Location":"GEORGES BARBERSHOP","Address":"13912 Poderosa St Unita","City":"Santa Anna","State":"CA","Zip":"92701"}]