[{"Location":"JOHN WAYNE AIRPORT","Address":"18601 Airway Way 41","City":"Costa Mesa","State":"CA","Zip":"92707"},{"Location":"201","Address":"1 Macarthur Pl 120","City":"Santa Ana","State":"CA","Zip":"92707"},{"Location":"AIG","Address":"1 Macarthur Pl 600","City":"Santa Ana","State":"CA","Zip":"92707"},{"Location":"ALVARADOSMITH","Address":"1 Macarthur Pl 200","City":"Santa Ana","State":"CA","Zip":"92707"},{"Location":"AMERICAN AIRLINES ADMIRALS CLU","Address":"18601 Airport Way 340","City":"Santa Ana","State":"CA","Zip":"92707"},{"Location":"AOG JET SUPPORT INC","Address":"19531 Campus Dr 11","City":"Santa Ana","State":"CA","Zip":"92707"},{"Location":"ATLANTIC AVIATION SNA","Address":"19711 Campus Dr 100","City":"Santa Ana","State":"CA","Zip":"92707"},{"Location":"BODY MASTERS AUTO CENTER","Address":"2431 S Broadway","City":"Santa Ana","State":"CA","Zip":"92707"},{"Location":"CARL SPELIC COMPANY","Address":"202 E Stevens Ave D","City":"Santa Ana","State":"CA","Zip":"92707"},{"Location":"CASA DEL REY","Address":"230 W Warner Ave","City":"Santa Ana","State":"CA","Zip":"92707"},{"Location":"CB RICHARD ELLIS","Address":"3 Hutton Centre Dr","City":"Santa Ana","State":"CA","Zip":"92707"},{"Location":"CLEMENTE SEAFOOD","Address":"124 W Macarthur Blvd","City":"Santa Ana","State":"CA","Zip":"92707"},{"Location":"CNBC","Address":"18601 Airport Way","City":"Santa Ana","State":"CA","Zip":"92707"},{"Location":"CULINART","Address":"501 W Dyer Rd","City":"Santa Ana","State":"CA","Zip":"92707"},{"Location":"DAN GURNEY'S ALL AMER. RACERS","Address":"2334 S Broadway","City":"Santa Ana","State":"CA","Zip":"92707"},{"Location":"DELTA AIRLINES","Address":"18601 Airport Way 211","City":"Santa Ana","State":"CA","Zip":"92707"},{"Location":"DJ COMMERCE INC.","Address":"2 Hutton Centre Dr","City":"Santa Ana","State":"CA","Zip":"92707"},{"Location":"DOUBLE TREE HOTEL","Address":"201 E Macarthur Blvd","City":"Santa Ana","State":"CA","Zip":"92707"},{"Location":"EDINGER DENTAL","Address":"616 W Edinger Ave","City":"Santa Ana","State":"CA","Zip":"92707"},{"Location":"EL BORREGO SAGRADO","Address":"1307 S Main St","City":"Santa Ana","State":"CA","Zip":"92707"},{"Location":"ESTETICA ERIKA","Address":"1632 S Standard Ave","City":"Santa Ana","State":"CA","Zip":"92707"},{"Location":"FAMILY DENTAL CARE","Address":"204 E Warner Ave 104","City":"Santa Ana","State":"CA","Zip":"92707"},{"Location":"FEDEX EXPRESS - SNAR","Address":"19103 Airport Way","City":"Santa Ana","State":"CA","Zip":"92707"},{"Location":"FRESH GRILL LLC","Address":"316 E Dyer Rd B","City":"Santa Ana","State":"CA","Zip":"92707"},{"Location":"FURNISHING AMERICA","Address":"301 E Stevens Ave","City":"Santa Ana","State":"CA","Zip":"92707"},{"Location":"GRANTS LANSCAPE SERVICES","Address":"3046 Orange Ave","City":"Santa Ana","State":"CA","Zip":"92707"},{"Location":"HILTON WORLDWIDE ORANGE CTY","Address":"7 Hutton Centre Dr","City":"Santa Ana","State":"CA","Zip":"92707"},{"Location":"HMS HOST SNACPK01","Address":"18601 Airport Way","City":"Santa Ana","State":"CA","Zip":"92707"},{"Location":"HMS HOST SNAJAV01","Address":"18601 Airport Way 135","City":"Santa Ana","State":"CA","Zip":"92707"},{"Location":"HUDSON GROUP","Address":"18601 Airport Way A1432","City":"Santa Ana","State":"CA","Zip":"92707"},{"Location":"IMPACT ADVERTISING","Address":"320 E Dyer Rd","City":"Santa Ana","State":"CA","Zip":"92707"},{"Location":"JOSE RODRIGUEZ DBA","Address":"1756 S Main St","City":"Santa Ana","State":"CA","Zip":"92707"},{"Location":"KING DRIVERS TRANSPORTATION","Address":"230 W Wagner Ave","City":"Santa Ana","State":"CA","Zip":"92707"},{"Location":"LAKESIDE PARTNERS HUTTON%2C LLC","Address":"4 Hutton Centre Dr","City":"Santa Ana","State":"CA","Zip":"92707"},{"Location":"LO RESTAURANT","Address":"110 W Macarthur Blvd","City":"Santa Ana","State":"CA","Zip":"92707"},{"Location":"LOS CRYSTALES SPORTS BAR","Address":"1638 S Standard Ave","City":"Santa Ana","State":"CA","Zip":"92707"},{"Location":"MARISCOS HECTOR","Address":"1801 S Main St","City":"Santa Ana","State":"CA","Zip":"92707"},{"Location":"MARISCOS SAGUAYO","Address":"1717 S Main St","City":"Santa Ana","State":"CA","Zip":"92707"},{"Location":"Nate'S Corner","Address":"3960 S Main Street Unit #c","City":"Santa Ana","State":"CA","Zip":"92707"},{"Location":"NOROTOS","Address":"201 E Alton Ave","City":"Santa Ana","State":"CA","Zip":"92707"},{"Location":"ORANGE COUNTY FLIGHT CENTER","Address":"19531 Campus Dr 4","City":"Santa Ana","State":"CA","Zip":"92707"},{"Location":"ORANGE METAL SPINNING","Address":"2601 Orange Ave","City":"Santa Ana","State":"CA","Zip":"92707"},{"Location":"PACIFIC UNION FINANCIAL","Address":"3 Macarthur Pl 500","City":"Santa Ana","State":"CA","Zip":"92707"},{"Location":"PARADISE  DRINKING WATERS","Address":"2502 S Broadway","City":"Santa Ana","State":"CA","Zip":"92707"},{"Location":"REAL ESTATE REPAIRS","Address":"529 E Alton Ave","City":"Santa Ana","State":"CA","Zip":"92707"},{"Location":"RESIDENTIAL ELECTRIC","Address":"3031 Orange Ave A","City":"Santa Ana","State":"CA","Zip":"92707"},{"Location":"RESTAURANT MARY","Address":"1819 S Main St","City":"Santa Ana","State":"CA","Zip":"92707"},{"Location":"SACC TAVERN 1901","Address":"20382 Newport Blvd T1901","City":"Santa Ana","State":"CA","Zip":"92707"},{"Location":"SANTA ANA COUNTRY CLUB","Address":"20382 Newport Blvd","City":"Santa Ana","State":"CA","Zip":"92707"},{"Location":"SANTA ANA MAIN STREET PA","Address":"2104 S Main St","City":"Santa Ana","State":"CA","Zip":"92707"},{"Location":"SEARS HOME DELIVERY","Address":"500 W Warner Ave 28","City":"Santa Ana","State":"CA","Zip":"92707"},{"Location":"SIGNATURE FLIGHT SUPPORT","Address":"19301 Campus Dr 100","City":"Santa Ana","State":"CA","Zip":"92707"},{"Location":"SOUTHWEST AIRLINES CO","Address":"18601 Airport Way 239","City":"Santa Ana","State":"CA","Zip":"92707"},{"Location":"STAGE COACH","Address":"1215 E Pomona St","City":"Santa Ana","State":"CA","Zip":"92707"},{"Location":"STEARNS","Address":"4 Hutton Centre Dr 10th","City":"Santa Ana","State":"CA","Zip":"92707"},{"Location":"STRONG KIDS MED GRP","Address":"2222 S Main St","City":"Santa Ana","State":"CA","Zip":"92707"},{"Location":"SUNRISE AVIATION","Address":"19531 Campus Dr 7","City":"Santa Ana","State":"CA","Zip":"92707"},{"Location":"SURE HAVEN1","Address":"1231 W Saint Gertrude Pl","City":"Santa Ana","State":"CA","Zip":"92707"},{"Location":"SYNERGY DIRECT RESPONSE","Address":"130 E Alton Ave","City":"Santa Ana","State":"CA","Zip":"92707"},{"Location":"TAQUERIA ZANORA","Address":"3121 S Main St","City":"Santa Ana","State":"CA","Zip":"92707"},{"Location":"THAI SPICE","Address":"2 Hutton Centre Dr 204","City":"Santa Ana","State":"CA","Zip":"92707"},{"Location":"THE HEALING ANGELS","Address":"230 W Warner Ave","City":"Santa Ana","State":"CA","Zip":"92707"},{"Location":"THE MARKE LEASING","Address":"110 Macartur Blvd","City":"Santa Ana","State":"CA","Zip":"92707"},{"Location":"TRI INCOME TAX","Address":"1903 S Main St","City":"Santa Ana","State":"CA","Zip":"92707"},{"Location":"TSA JOHN WAYNE AIRPORT","Address":"18601 Airport Way","City":"Santa Ana","State":"CA","Zip":"92707"},{"Location":"UREMET CORP","Address":"3026 Orange Ave","City":"Santa Ana","State":"CA","Zip":"92707"},{"Location":"VIP LIMOUSINES & COACHES  CE2","Address":"420 W Central Ave","City":"Santa Ana","State":"CA","Zip":"92707"},{"Location":"WEST COAST CHARTERS","Address":"19711 Campus Dr 150","City":"Santa Ana","State":"CA","Zip":"92707"}]