[{"Location":"ACKILA INC","Address":"17731 Irvine Blvd 203","City":"Tustin","State":"CA","Zip":"92780"},{"Location":"ADVANCED MEASUREMENT LABS","Address":"1571 Parkway Loop F","City":"Tustin","State":"CA","Zip":"92780"},{"Location":"ALL HANDS CARWASH","Address":"3091 Edinger Ave","City":"Tustin","State":"CA","Zip":"92780"},{"Location":"ALPUNTO ADVERTISING","Address":"730 El Camino Way 200","City":"Tustin","State":"CA","Zip":"92780"},{"Location":"AM SOLUTIONS GROUP","Address":"13891 Newport Ave 260","City":"Tustin","State":"CA","Zip":"92780"},{"Location":"AMECI PIZZA KITCHEN","Address":"648 E 1st St","City":"Tustin","State":"CA","Zip":"92780"},{"Location":"ARCHAIC CRAFT B & C","Address":"140 E Main St","City":"Tustin","State":"CA","Zip":"92780"},{"Location":"ARIAN SUB","Address":"1631 Edinger Ave","City":"Tustin","State":"CA","Zip":"92780"},{"Location":"ASSOCIATED VOLUME BUYERS","Address":"17542 17th St 250","City":"Tustin","State":"CA","Zip":"92780"},{"Location":"AUTO MAX SERVICE","Address":"14401 Franklin Ave","City":"Tustin","State":"CA","Zip":"92780"},{"Location":"AUTO RELOCATION PLUS","Address":"1382 Valencia Ave C","City":"Tustin","State":"CA","Zip":"92780"},{"Location":"AWSI","Address":"17542 17th St 330","City":"Tustin","State":"CA","Zip":"92780"},{"Location":"BACK NINE GREEN","Address":"15551 Red Hill Ave A","City":"Tustin","State":"CA","Zip":"92780"},{"Location":"BASTIEN AND ASSOCIATES","Address":"15661 Red Hill Ave 150","City":"Tustin","State":"CA","Zip":"92780"},{"Location":"BEL MOTOR","Address":"140 W 1st St","City":"Tustin","State":"CA","Zip":"92780"},{"Location":"BELACAN GRILL","Address":"17460 17th St","City":"Tustin","State":"CA","Zip":"92780"},{"Location":"BELLA DENTAL GROUP","Address":"14122 Red Hill Ave","City":"Tustin","State":"CA","Zip":"92780"},{"Location":"BENTLEY SALON AND SPA","Address":"14061 Prospect Ave","City":"Tustin","State":"CA","Zip":"92780"},{"Location":"BI-SEARCH INC.","Address":"15131 Woodlawn Ave","City":"Tustin","State":"CA","Zip":"92780"},{"Location":"BIG O TIRES #5825","Address":"131 E 1st St","City":"Tustin","State":"CA","Zip":"92780"},{"Location":"BLUE SKY LLC","Address":"15991 Red Hill Ave 101","City":"Tustin","State":"CA","Zip":"92780"},{"Location":"BLUE SKY LLC 1","Address":"15991 Red Hill Ave 200","City":"Tustin","State":"CA","Zip":"92780"},{"Location":"BREATHE MEDICAL","Address":"1322 Bell Ave 1e","City":"Tustin","State":"CA","Zip":"92780"},{"Location":"BRIAN DENTAL CARE","Address":"12721 Newport Ave 1","City":"Tustin","State":"CA","Zip":"92780"},{"Location":"BRIGGS ELECTRIC","Address":"14381 Franklin Ave","City":"Tustin","State":"CA","Zip":"92780"},{"Location":"BROKER SOLUTIONS INC","Address":"14511 Myford Rd","City":"Tustin","State":"CA","Zip":"92780"},{"Location":"BRONX SANDWICH CO","Address":"13041 Newport Ave","City":"Tustin","State":"CA","Zip":"92780"},{"Location":"BURGER KING 12396","Address":"14601 Red Hill Ave","City":"Tustin","State":"CA","Zip":"92780"},{"Location":"CALIFORNIA BANK & TRUST","Address":"17752 17th St","City":"Tustin","State":"CA","Zip":"92780"},{"Location":"CALIFORNIA WEEKLY EXPLORE","Address":"15052 Red Hill Ave G","City":"Tustin","State":"CA","Zip":"92780"},{"Location":"CAPITAL SOURCE BANK","Address":"18231 Irvine Blvd 110","City":"Tustin","State":"CA","Zip":"92780"},{"Location":"CD PHOTO COPIES SERVICE","Address":"17371 Ervine Bld","City":"Tustin","State":"CA","Zip":"92780"},{"Location":"CERTIFIED TIRES","Address":"14511 Red Hill Ave","City":"Tustin","State":"CA","Zip":"92780"},{"Location":"CLASSIC BURGERS","Address":"15712 Tustin Village Way","City":"Tustin","State":"CA","Zip":"92780"},{"Location":"CLAUS REALTY ADVISORS","Address":"14751 Plaza Dr B","City":"Tustin","State":"CA","Zip":"92780"},{"Location":"COAST COLLISION CENTERS","Address":"15622 Mosher Ave","City":"Tustin","State":"CA","Zip":"92780"},{"Location":"COMPLETE FIRE SERVICE","Address":"1582 Parkway Loop K","City":"Tustin","State":"CA","Zip":"92780"},{"Location":"CORP OFFICE INT TUSTIN","Address":"1432 Edinger Ave 220","City":"Tustin","State":"CA","Zip":"92780"},{"Location":"CRAIG C THIEDE DDS","Address":"13132 Newport Ave 230","City":"Tustin","State":"CA","Zip":"92780"},{"Location":"CRANBROOK","Address":"1262 Bryan Ave","City":"Tustin","State":"CA","Zip":"92780"},{"Location":"CRUNCH FITNESS TUSTIN","Address":"502 E 1st St B","City":"Tustin","State":"CA","Zip":"92780"},{"Location":"DEVA'S","Address":"672 El Camino Real","City":"Tustin","State":"CA","Zip":"92780"},{"Location":"DOCTORS AMBULANCE","Address":"14771 Plaza Dr G","City":"Tustin","State":"CA","Zip":"92780"},{"Location":"DON JOSES MEXICAN RESTAURANTS","Address":"14882 Holt Ave","City":"Tustin","State":"CA","Zip":"92780"},{"Location":"DONAHOO & ASSOCIATES","Address":"440 W 1st St 101","City":"Tustin","State":"CA","Zip":"92780"},{"Location":"DR ELMER YOSHIDA","Address":"137 W 1st St B2","City":"Tustin","State":"CA","Zip":"92780"},{"Location":"EL CAMINO CAFE INC","Address":"195 El Camino Real 102","City":"Tustin","State":"CA","Zip":"92780"},{"Location":"EL TORITO 7026","Address":"17420 17th St","City":"Tustin","State":"CA","Zip":"92780"},{"Location":"ELITE MUSTARD","Address":"2512 Walnut Ave 5","City":"Tustin","State":"CA","Zip":"92780"},{"Location":"ENZOANI","Address":"1382 Valencia Ave E","City":"Tustin","State":"CA","Zip":"92780"},{"Location":"EPICURE CIGARS SHOP","Address":"17480 17th St 103","City":"Tustin","State":"CA","Zip":"92780"},{"Location":"ETAIL NETWORK","Address":"1422 Edinger Ave 230","City":"Tustin","State":"CA","Zip":"92780"},{"Location":"FAMILY HAIR & NAIL SALON","Address":"14001 Newport Ave D","City":"Tustin","State":"CA","Zip":"92780"},{"Location":"FINANCIAL ADVISORS NETWORK INC","Address":"1432 Edinger Ave 200","City":"Tustin","State":"CA","Zip":"92780"},{"Location":"FIRST ALLIED SECURITIES","Address":"15145 Woodlawn Ave 100","City":"Tustin","State":"CA","Zip":"92780"},{"Location":"FMC 71730000","Address":"535 E 1st St","City":"Tustin","State":"CA","Zip":"92780"},{"Location":"FRANKS MENS WEAR","Address":"17350 17th St M","City":"Tustin","State":"CA","Zip":"92780"},{"Location":"FRESCAS ACQ INC TUSTIN","Address":"1621 Edinger Ave","City":"Tustin","State":"CA","Zip":"92780"},{"Location":"GEN KOREAN BBQ","Address":"13741 Newport Ave","City":"Tustin","State":"CA","Zip":"92780"},{"Location":"GEORGE TAVERNA","Address":"151 N Tustin Ave","City":"Tustin","State":"CA","Zip":"92780"},{"Location":"GODFATHER'S","Address":"420 E 1st St","City":"Tustin","State":"CA","Zip":"92780"},{"Location":"GOHAN SUSHI","Address":"138942 Newport Ave C","City":"Tustin","State":"CA","Zip":"92780"},{"Location":"GOODYEAR 8664","Address":"3097 Edinger Ave E","City":"Tustin","State":"CA","Zip":"92780"},{"Location":"GRAPE LEAF MEDITERRANEAN GRILL","Address":"17582 17th St 105","City":"Tustin","State":"CA","Zip":"92780"},{"Location":"HAIR AND NAIL CONNECTION","Address":"13564 Newport Ave","City":"Tustin","State":"CA","Zip":"92780"},{"Location":"HMWCCPAS BUSINESS & ADVISORS","Address":"17501 17th St 100","City":"Tustin","State":"CA","Zip":"92780"},{"Location":"I CAPITAL I","Address":"1382 Valencia Ave F","City":"Tustin","State":"CA","Zip":"92780"},{"Location":"INNOVATIVE AUTO XCHANGE LLC","Address":"1371 Warner Ave B","City":"Tustin","State":"CA","Zip":"92780"},{"Location":"INTEGRIUM","Address":"14351 Myford Rd B","City":"Tustin","State":"CA","Zip":"92780"},{"Location":"IRVINE AUTO CARE","Address":"3097 Edinger Ave C","City":"Tustin","State":"CA","Zip":"92780"},{"Location":"ITALIAN EXPRESS","Address":"18331 Irvine Blvd B","City":"Tustin","State":"CA","Zip":"92780"},{"Location":"ITHACA INVESTMENTS","Address":"650 El Camino Real","City":"Tustin","State":"CA","Zip":"92780"},{"Location":"JACK QUINN","Address":"1183 Warner Ave","City":"Tustin","State":"CA","Zip":"92780"},{"Location":"JALAPENOS","Address":"450 E 1st St","City":"Tustin","State":"CA","Zip":"92780"},{"Location":"JAX KNEPPERS ASSOCIATES","Address":"2552 Walnut Ave","City":"Tustin","State":"CA","Zip":"92780"},{"Location":"JERSEY MIKES SUBS","Address":"13681 Newport Ave 13","City":"Tustin","State":"CA","Zip":"92780"},{"Location":"JEWELRY EXCHANGE","Address":"15732 Tustin Village Way","City":"Tustin","State":"CA","Zip":"92780"},{"Location":"JOHNS PLACE","Address":"171 E 1st St","City":"Tustin","State":"CA","Zip":"92780"},{"Location":"JORGENSEN AND SALBERG LLP","Address":"15137 Woodlawn Ave","City":"Tustin","State":"CA","Zip":"92780"},{"Location":"JTJ SALES","Address":"17411 Irvine Blvd M","City":"Tustin","State":"CA","Zip":"92780"},{"Location":"KOHL'S #1382","Address":"18182 Irvine Blvd","City":"Tustin","State":"CA","Zip":"92780"},{"Location":"KOKIS TEPPAN YAKI GRILLE","Address":"1061 E Main St","City":"Tustin","State":"CA","Zip":"92780"},{"Location":"LA GALLERIA","Address":"17390 17th St A","City":"Tustin","State":"CA","Zip":"92780"},{"Location":"LABEL NAILS","Address":"135 W 1st St Ad","City":"Tustin","State":"CA","Zip":"92780"},{"Location":"LAMPOST PIZZA","Address":"17391 17th St","City":"Tustin","State":"CA","Zip":"92780"},{"Location":"LANG LANG AND COMPANY","Address":"191 E Main St 2b","City":"Tustin","State":"CA","Zip":"92780"},{"Location":"LARGO CONCRETE INC","Address":"2741 Walnut Ave 110","City":"Tustin","State":"CA","Zip":"92780"},{"Location":"LARIIN SQUARE DENTISTRY","Address":"604 E 1st St","City":"Tustin","State":"CA","Zip":"92780"},{"Location":"LGARDE","Address":"15181 Woodlawn Ave","City":"Tustin","State":"CA","Zip":"92780"},{"Location":"LOGO MARK","Address":"1201 Bell Ave","City":"Tustin","State":"CA","Zip":"92780"},{"Location":"MAKI ZUSHI","Address":"1641 Edinger Ave 101","City":"Tustin","State":"CA","Zip":"92780"},{"Location":"MARTYS BAR & GRILL","Address":"14401 Newport Ave","City":"Tustin","State":"CA","Zip":"92780"},{"Location":"MATLES AND ASSOCS","Address":"17662 Irvine Blvd 18","City":"Tustin","State":"CA","Zip":"92780"},{"Location":"MC LLC","Address":"1422 Edinger Ave 150","City":"Tustin","State":"CA","Zip":"92780"},{"Location":"MCLURE INSURANCE","Address":"17671 Irvine Blvd 101","City":"Tustin","State":"CA","Zip":"92780"},{"Location":"MEDICAL EDUCATION SPEAKER NET","Address":"100 W Main St 6","City":"Tustin","State":"CA","Zip":"92780"},{"Location":"MERIDIAN GRAPHICS","Address":"2652 Dow Ave","City":"Tustin","State":"CA","Zip":"92780"},{"Location":"MICHAEL J PAQUETTE DDS INC","Address":"381 E 1st St","City":"Tustin","State":"CA","Zip":"92780"},{"Location":"MOBILE LINE COMMUNICATION","Address":"1402 Morgan Cir","City":"Tustin","State":"CA","Zip":"92780"},{"Location":"MODERN BARBER","Address":"139 W 1st St","City":"Tustin","State":"CA","Zip":"92780"},{"Location":"MONICAS DAY CARE","Address":"13895 Browning Ave","City":"Tustin","State":"CA","Zip":"92780"},{"Location":"MONSTER SUSHI LLC","Address":"13832 Red Hill Ave","City":"Tustin","State":"CA","Zip":"92780"},{"Location":"MOUNTAIN VIEW TIRE","Address":"135 S Prospect Ave","City":"Tustin","State":"CA","Zip":"92780"},{"Location":"MPV AGENCY","Address":"15445 Red Hill Ave F","City":"Tustin","State":"CA","Zip":"92780"},{"Location":"N C HARBOUR LLC","Address":"1422 Edinger Ave 150","City":"Tustin","State":"CA","Zip":"92780"},{"Location":"NAIL EXPO","Address":"624 E 1st St","City":"Tustin","State":"CA","Zip":"92780"},{"Location":"NANCY MOSTAAN DDS","Address":"17400 Irvine Blvd A","City":"Tustin","State":"CA","Zip":"92780"},{"Location":"NATIONAL OFICE LIQUIDATO","Address":"15171 Del Amo Ave","City":"Tustin","State":"CA","Zip":"92780"},{"Location":"NEW AGE VAPOR","Address":"1631 Edinger Ave 105","City":"Tustin","State":"CA","Zip":"92780"},{"Location":"NEW YORK CUTS SALON","Address":"1165 Irvine Blvd","City":"Tustin","State":"CA","Zip":"92780"},{"Location":"NEW YORK PIZZA FACTORY","Address":"13842 Newport Ave B","City":"Tustin","State":"CA","Zip":"92780"},{"Location":"NEWPORT ACCEPTANCE CORP","Address":"13522 Newport Ave 109","City":"Tustin","State":"CA","Zip":"92780"},{"Location":"NO LIMITS TUSTIN CA","Address":"2872 Walnut Ave B","City":"Tustin","State":"CA","Zip":"92780"},{"Location":"NUTRAWISE","Address":"1111 Bell Ave","City":"Tustin","State":"CA","Zip":"92780"},{"Location":"NUTRI SHOP","Address":"17582 17th St 107","City":"Tustin","State":"CA","Zip":"92780"},{"Location":"OBAND INC","Address":"14642 Newport Ave 100","City":"Tustin","State":"CA","Zip":"92780"},{"Location":"OGGIS PIZZA & BREWING","Address":"13612 Newport Ave","City":"Tustin","State":"CA","Zip":"92780"},{"Location":"OKI DOKI JAPANESE CUISINE","Address":"13681 Newport Ave 9","City":"Tustin","State":"CA","Zip":"92780"},{"Location":"OMGA DRIVE IN","Address":"14551 Newport Ave","City":"Tustin","State":"CA","Zip":"92780"},{"Location":"ONO ONO","Address":"17582 17th St 104","City":"Tustin","State":"CA","Zip":"92780"},{"Location":"ORANGE COUNTY RESEARCH CENTER","Address":"14351 Myford Rd B","City":"Tustin","State":"CA","Zip":"92780"},{"Location":"OSCARS DELI AND GRILL","Address":"17602 17th St","City":"Tustin","State":"CA","Zip":"92780"},{"Location":"PACIFIC TRUST BANK","Address":"13031 Newport Ave","City":"Tustin","State":"CA","Zip":"92780"},{"Location":"PATRIOTS FEDERAL CREDIT UNION1","Address":"1754 17th Street","City":"Tustin","State":"CA","Zip":"92780"},{"Location":"PENNYVISION LLC.","Address":"14531 Red Hill Ave","City":"Tustin","State":"CA","Zip":"92780"},{"Location":"PETERS GOUUMADE GRILL","Address":"14311 Newport Ave","City":"Tustin","State":"CA","Zip":"92780"},{"Location":"PH SALOON & GRILL","Address":"654 E 1st St","City":"Tustin","State":"CA","Zip":"92780"},{"Location":"PHO HUNG VUONG","Address":"14182 Newport Ave","City":"Tustin","State":"CA","Zip":"92780"},{"Location":"PHYSICAL THERAPY CENTER OF TUS","Address":"18102 Irvine Blvd 207","City":"Tustin","State":"CA","Zip":"92780"},{"Location":"PRO HEALTH NUTRITION LLC","Address":"2882 Walnut Ave","City":"Tustin","State":"CA","Zip":"92780"},{"Location":"PRUSSAK WELCH & AVILA","Address":"175 S C St 2ndf","City":"Tustin","State":"CA","Zip":"92780"},{"Location":"PS PIZZA","Address":"14201 Red Hill Ave","City":"Tustin","State":"CA","Zip":"92780"},{"Location":"PVP ADVANCED EO SYSTEMS INC","Address":"14312 Franklin Ave 100","City":"Tustin","State":"CA","Zip":"92780"},{"Location":"QUEST PRESERVATION","Address":"1167 Warner Ave","City":"Tustin","State":"CA","Zip":"92780"},{"Location":"QUINN'S OLD TOWN GRILL","Address":"405 El Camino Real","City":"Tustin","State":"CA","Zip":"92780"},{"Location":"R STAR RESTURANT","Address":"1222 Irvine Blvd","City":"Tustin","State":"CA","Zip":"92780"},{"Location":"RACK UM UP SPORTS BAR","Address":"14258 Newport Ave","City":"Tustin","State":"CA","Zip":"92780"},{"Location":"RAMTEK","Address":"1382 Valencia Ave M","City":"Tustin","State":"CA","Zip":"92780"},{"Location":"REM SLEEP LABS","Address":"14642 Newport Ave 260","City":"Tustin","State":"CA","Zip":"92780"},{"Location":"RESIDENCE INN","Address":"15011 Newport Avwe","City":"Tustin","State":"CA","Zip":"92780"},{"Location":"RESIDENTS TEAM","Address":"15181 Newport Ave","City":"Tustin","State":"CA","Zip":"92780"},{"Location":"RINOS & MARTIN","Address":"17822 17th St 401","City":"Tustin","State":"CA","Zip":"92780"},{"Location":"RJN INVESTIGATIONS","Address":"17371 Irvine Blvd","City":"Tustin","State":"CA","Zip":"92780"},{"Location":"ROCKWELL COLLINS","Address":"14101 Myford Rd","City":"Tustin","State":"CA","Zip":"92780"},{"Location":"ROMA D'ITALIA","Address":"611 El Camino Real","City":"Tustin","State":"CA","Zip":"92780"},{"Location":"RONCO PLASTICS","Address":"15022 Parkway Loop B","City":"Tustin","State":"CA","Zip":"92780"},{"Location":"ROUND TABLE PIZZA","Address":"13771 Newport Ave Unit1","City":"Tustin","State":"CA","Zip":"92780"},{"Location":"SAKE 2 ME SUSHI","Address":"13951 Carroll Way A","City":"Tustin","State":"CA","Zip":"92780"},{"Location":"SALON TM2","Address":"3037 Edinger Ave B","City":"Tustin","State":"CA","Zip":"92780"},{"Location":"SALON.CALM","Address":"14771 Plaza Dr","City":"Tustin","State":"CA","Zip":"92780"},{"Location":"SCHOOLS FIRST","Address":"1200 Edinger Ave","City":"Tustin","State":"CA","Zip":"92780"},{"Location":"SCHOOLS FIRST CREDIT UNION","Address":"15222 Del Amo Ave","City":"Tustin","State":"CA","Zip":"92780"},{"Location":"SCHOOLSFIRST FEDERAL CREDIT","Address":"15442 Newport Ave","City":"Tustin","State":"CA","Zip":"92780"},{"Location":"SECURED INCOME GROUP","Address":"17592 17th St 100","City":"Tustin","State":"CA","Zip":"92780"},{"Location":"SIERRA PRODUCE","Address":"1422 Edinger Ave 130","City":"Tustin","State":"CA","Zip":"92780"},{"Location":"SILVERADO SENIOR LIVING","Address":"240 E 3rd St","City":"Tustin","State":"CA","Zip":"92780"},{"Location":"SMART SOURCE HOME CENTER","Address":"13951 Carroll Way D","City":"Tustin","State":"CA","Zip":"92780"},{"Location":"SONIC CARE INC","Address":"690 S B St","City":"Tustin","State":"CA","Zip":"92780"},{"Location":"SOUTHERN CALI REALSTATE SERV","Address":"15901 Red Hill Ave 205","City":"Tustin","State":"CA","Zip":"92780"},{"Location":"SPIRES RESTAURANT","Address":"13451 Newport Ave","City":"Tustin","State":"CA","Zip":"92780"},{"Location":"SPORT CLIPS CA523","Address":"1078 Irvine Blvd","City":"Tustin","State":"CA","Zip":"92780"},{"Location":"STATE FARM","Address":"210 W Main St 103","City":"Tustin","State":"CA","Zip":"92780"},{"Location":"STERLING COLLISION CENTER","Address":"1111 Bell Ave","City":"Tustin","State":"CA","Zip":"92780"},{"Location":"SUPER ANTOJITOS 1","Address":"341 E 1st St","City":"Tustin","State":"CA","Zip":"92780"},{"Location":"SWINGING DOOR","Address":"355 El Camino Real","City":"Tustin","State":"CA","Zip":"92780"},{"Location":"TAX RESOLUTION SPECIALIST","Address":"14511 Franklin Ave 200","City":"Tustin","State":"CA","Zip":"92780"},{"Location":"TCG INTERNATIONAL  INC","Address":"1382 Valencia Ave L","City":"Tustin","State":"CA","Zip":"92780"},{"Location":"THAI WAVE BISTRO","Address":"137 W 1st St","City":"Tustin","State":"CA","Zip":"92780"},{"Location":"THE AUTO EXCHANGE","Address":"14352 Franklin Ave 200","City":"Tustin","State":"CA","Zip":"92780"},{"Location":"THE BLACK MARLIN","Address":"560 El Camino Real A","City":"Tustin","State":"CA","Zip":"92780"},{"Location":"THE BREAD BASKET","Address":"15471 Red Hill Ave C","City":"Tustin","State":"CA","Zip":"92780"},{"Location":"THE CALLAS GROUP","Address":"3002 Dow Ave 412","City":"Tustin","State":"CA","Zip":"92780"},{"Location":"THE CITRUS CAFE","Address":"1481 Edinger Ave","City":"Tustin","State":"CA","Zip":"92780"},{"Location":"THE MAIDS","Address":"14712 Franklin Ave E","City":"Tustin","State":"CA","Zip":"92780"},{"Location":"THE MOORE GROUP","Address":"515 Pacific St","City":"Tustin","State":"CA","Zip":"92780"},{"Location":"THE REGAL GROUP","Address":"17632 Irvine Blvd D","City":"Tustin","State":"CA","Zip":"92780"},{"Location":"THE ZTHER INTERACTIVE LLC","Address":"18141 Irvine Blvd","City":"Tustin","State":"CA","Zip":"92780"},{"Location":"TOGOS","Address":"556 E 1st St","City":"Tustin","State":"CA","Zip":"92780"},{"Location":"TOSHIBA MEDICAL SYSTEMS","Address":"2441 Michelle Dr","City":"Tustin","State":"CA","Zip":"92780"},{"Location":"TURBO DATA SYSTEMS INC","Address":"18302 Irvine Blvd 200","City":"Tustin","State":"CA","Zip":"92780"},{"Location":"TURNKEY AUTO GROUP","Address":"15641 Red Hill Ave","City":"Tustin","State":"CA","Zip":"92780"},{"Location":"TUSTIN AUTOSPA","Address":"1501 Nisson Rd","City":"Tustin","State":"CA","Zip":"92780"},{"Location":"TUSTIN BREWING CO%2C INC.","Address":"13011 Newport Ave 100","City":"Tustin","State":"CA","Zip":"92780"},{"Location":"TUSTIN CARE CENTER","Address":"1051 Bryan Ave","City":"Tustin","State":"CA","Zip":"92780"},{"Location":"TUSTIN INN","Address":"440 E 1st St","City":"Tustin","State":"CA","Zip":"92780"},{"Location":"TUSTIN LANES INC","Address":"1091 Old Irving Rd","City":"Tustin","State":"CA","Zip":"92780"},{"Location":"TWR  LLC","Address":"1060 Walnut Ave E","City":"Tustin","State":"CA","Zip":"92780"},{"Location":"UOKO JAPANESE CUISINE","Address":"17582 17th St 103","City":"Tustin","State":"CA","Zip":"92780"},{"Location":"US BANK","Address":"17851 17th St","City":"Tustin","State":"CA","Zip":"92780"},{"Location":"USSC-UHIOC","Address":"2895 Edinger Ave","City":"Tustin","State":"CA","Zip":"92780"},{"Location":"USTIN REHABILITATION HOSIPTAL","Address":"14851 Yorba St","City":"Tustin","State":"CA","Zip":"92780"},{"Location":"VAUGHN INVESTMENT ADVISO","Address":"17621 Irvine Blvd 104","City":"Tustin","State":"CA","Zip":"92780"},{"Location":"VCA ORANGE COUNTY VET SPEC","Address":"3021 Edinger Ave","City":"Tustin","State":"CA","Zip":"92780"},{"Location":"VERIZON SINCLAIR","Address":"14712 Sinclair Cir A","City":"Tustin","State":"CA","Zip":"92780"},{"Location":"VERIZON TUSTIN","Address":"2792 Walnut Ave","City":"Tustin","State":"CA","Zip":"92780"},{"Location":"VIP NAILS","Address":"14147 Red Hill Ave","City":"Tustin","State":"CA","Zip":"92780"},{"Location":"WEBER PLYWOOD LUMBER CO","Address":"15501 Mosher Ave","City":"Tustin","State":"CA","Zip":"92780"},{"Location":"WENDYS 8057","Address":"13922 Red Hill Ave","City":"Tustin","State":"CA","Zip":"92780"},{"Location":"WILLIAM TAJIMA","Address":"2852 Walnut Ave J","City":"Tustin","State":"CA","Zip":"92780"},{"Location":"WINDAWI & ASSOC","Address":"1422 Edinger Ave 220","City":"Tustin","State":"CA","Zip":"92780"},{"Location":"YE DANG KOREAN RESTAURANT","Address":"2512 Walnut Ave 1","City":"Tustin","State":"CA","Zip":"92780"},{"Location":"YOGIS TERIYAKI","Address":"1108 Irvine Blvd","City":"Tustin","State":"CA","Zip":"92780"},{"Location":"YOSEMITE CAPITAL MANAGEMENT","Address":"17501 17th St 100","City":"Tustin","State":"CA","Zip":"92780"},{"Location":"YOUNGS MARKET COMPANY","Address":"14402 Franklin Ave","City":"Tustin","State":"CA","Zip":"92780"},{"Location":"ZITO'S BAR AND GRILL","Address":"17320 17th St","City":"Tustin","State":"CA","Zip":"92780"},{"Location":"ZOU'S BISTRO","Address":"17440 17th St","City":"Tustin","State":"CA","Zip":"92780"}]