[{"Location":"AMF LANES TUSTIN","Address":"2405 Park Ave","City":"Tustin","State":"CA","Zip":"92782"},{"Location":"BLUE WATER GRILL","Address":"2409 Parkave","City":"Tustin","State":"CA","Zip":"92782"},{"Location":"BONEFISH GRILL #6506","Address":"3040 El Camino Real","City":"Tustin","State":"CA","Zip":"92782"},{"Location":"CFR ENTERPRISES","Address":"2833 Park Ave","City":"Tustin","State":"CA","Zip":"92782"},{"Location":"DAPHNES GREEK CUISINE","Address":"2360 Park Ave 9h","City":"Tustin","State":"CA","Zip":"92782"},{"Location":"DCH TUSTIN ACURA","Address":"9 Auto Center Dr","City":"Tustin","State":"CA","Zip":"92782"},{"Location":"DICK'S SPORTING GOODS #927","Address":"2771 El Camino Real","City":"Tustin","State":"CA","Zip":"92782"},{"Location":"F&M BANK","Address":"2691 Park Ave","City":"Tustin","State":"CA","Zip":"92782"},{"Location":"GRAIN AND VINE","Address":"2493 Park Ave","City":"Tustin","State":"CA","Zip":"92782"},{"Location":"HOAG URGENT CARE TUSTIN","Address":"2560 Bryan Ave A","City":"Tustin","State":"CA","Zip":"92782"},{"Location":"JOHNNY ROCKETS","Address":"2427 Park Ave","City":"Tustin","State":"CA","Zip":"92782"},{"Location":"JT SCHMID'S RESTAURANT","Address":"2415 Park Ave","City":"Tustin","State":"CA","Zip":"92782"},{"Location":"LUCILLE'S SMOKEHOUSE BBQ # 24","Address":"2550 Park Ave","City":"Tustin","State":"CA","Zip":"92782"},{"Location":"MANNYS FAMILY HAND","Address":"2762 El Camino Real","City":"Tustin","State":"CA","Zip":"92782"},{"Location":"MIZU SUSHI BAR AND GRILL","Address":"2881 El Camino Real","City":"Tustin","State":"CA","Zip":"92782"},{"Location":"MOBTOWN PIZZA","Address":"2455 Park Ave","City":"Tustin","State":"CA","Zip":"92782"},{"Location":"OC SHERIFFS ACADEMY","Address":"15991 Armstrong Ave","City":"Tustin","State":"CA","Zip":"92782"},{"Location":"PACIFIC FIN KITCHEN2","Address":"2463 Park Ave","City":"Tustin","State":"CA","Zip":"92782"},{"Location":"RA SUSHI #3015 TUSTIN","Address":"2401 Park Ave","City":"Tustin","State":"CA","Zip":"92782"},{"Location":"RED ROBIN #671","Address":"2667 Park Ave","City":"Tustin","State":"CA","Zip":"92782"},{"Location":"RITZ NAIL","Address":"2201 Park Ave","City":"Tustin","State":"CA","Zip":"92782"},{"Location":"SCOTTRADE 54M","Address":"13209 Jamboree Rd","City":"Tustin","State":"CA","Zip":"92782"},{"Location":"SPORTS    TREASURES","Address":"2554 Park Ave","City":"Tustin","State":"CA","Zip":"92782"},{"Location":"STIX HOLDINGS 765","Address":"13289 Jamboree Rd","City":"Tustin","State":"CA","Zip":"92782"},{"Location":"TARGET STORE #2151","Address":"2300 Park Ave","City":"Tustin","State":"CA","Zip":"92782"},{"Location":"THAI BAMBOO SPECIAL","Address":"2417 Park Ave","City":"Tustin","State":"CA","Zip":"92782"},{"Location":"THE AULD DUBLINER","Address":"2497 Park Ave","City":"Tustin","State":"CA","Zip":"92782"},{"Location":"THE DENIM LAB","Address":"2439 Park Ave","City":"Tustin","State":"CA","Zip":"92782"},{"Location":"THE KETTLE BAR","Address":"2493 Park Ave","City":"Tustin","State":"CA","Zip":"92782"},{"Location":"THE KROFT","Address":"2493 Park Ave 2","City":"Tustin","State":"CA","Zip":"92782"},{"Location":"THE ORANGE COUNTY RESCUE","Address":"1 Hope Dr","City":"Tustin","State":"CA","Zip":"92782"},{"Location":"THE WINERY RESTAURANT","Address":"2647 Park Ave","City":"Tustin","State":"CA","Zip":"92782"},{"Location":"TUSTIN BUICK PONTIAC GMC","Address":"1 Auto Center Dr","City":"Tustin","State":"CA","Zip":"92782"},{"Location":"TUSTIN CADILLAC","Address":"50 50 Auto Center Drive","City":"Tustin","State":"CA","Zip":"92782"},{"Location":"TUSTIN RANCH CLEANERS","Address":"13313 Jamboree Rd","City":"Tustin","State":"CA","Zip":"92782"},{"Location":"TUSTIN RANCH GOLF CLUB","Address":"12442 Tustin Ranch Rd","City":"Tustin","State":"CA","Zip":"92782"},{"Location":"TUSTIN RANCH TIRE AND AUTO CEN","Address":"2541 El Camino Real","City":"Tustin","State":"CA","Zip":"92782"},{"Location":"TUSTIN TOYOTA","Address":"36 Auto Center Dr","City":"Tustin","State":"CA","Zip":"92782"},{"Location":"WHOLE FOODS MARKET","Address":"2847 Park Ave","City":"Tustin","State":"CA","Zip":"92782"}]