[{"Location":"AMERICAN SPORTS CENTER","Address":"1500 S Anaheim Blvd 110","City":"Anaheim","State":"CA","Zip":"92805"},{"Location":"ANAHEIM GLASS","Address":"542 S Anaheim Blvd","City":"Anaheim","State":"CA","Zip":"92805"},{"Location":"ANAHEIM MARKET","Address":"1440 S Anaheim Blvd","City":"Anaheim","State":"CA","Zip":"92805"},{"Location":"ANAHEIM MOOSE LODGE 1853","Address":"317 W Cerritos Ave","City":"Anaheim","State":"CA","Zip":"92805"},{"Location":"ANAHEIM POLICE ASSOC","Address":"508 N Anaheim Blvd","City":"Anaheim","State":"CA","Zip":"92805"},{"Location":"ANAHEIM POLICE DEPT OPERATION","Address":"425 S Harbor Blvd","City":"Anaheim","State":"CA","Zip":"92805"},{"Location":"ANAHEIM SHAKEYS 52","Address":"1027 S Harbor Blvd","City":"Anaheim","State":"CA","Zip":"92805"},{"Location":"ANAHEIM WIRE INC","Address":"1009 E Vermont Ave","City":"Anaheim","State":"CA","Zip":"92805"},{"Location":"ARBOR DISTRIBUTING LLC","Address":"1625 S Lewis St","City":"Anaheim","State":"CA","Zip":"92805"},{"Location":"BARBEER  LLC","Address":"165 W Center Promenade","City":"Anaheim","State":"CA","Zip":"92805"},{"Location":"BROWNCO CONSTRUCTION INC","Address":"1000 E Katella Ave","City":"Anaheim","State":"CA","Zip":"92805"},{"Location":"BRUXIE LLC","Address":"1295 S Lewis St","City":"Anaheim","State":"CA","Zip":"92805"},{"Location":"CAFFE PRIMO","Address":"195 W Center Street Promenade","City":"Anaheim","State":"CA","Zip":"92805"},{"Location":"CENTER OF UNIVERSE LLC","Address":"201 W Center Street Promenade","City":"Anaheim","State":"CA","Zip":"92805"},{"Location":"CFW ANAHEIM","Address":"947 S Anaheim Blvd 240","City":"Anaheim","State":"CA","Zip":"92805"},{"Location":"CHAMPION PAVING","Address":"1426 S Allec St","City":"Anaheim","State":"CA","Zip":"92805"},{"Location":"CHAU MAR RESTAURANTS INC","Address":"735 N Anaheim Blvd","City":"Anaheim","State":"CA","Zip":"92805"},{"Location":"CHIROSPA","Address":"600 S Harbor Blvd","City":"Anaheim","State":"CA","Zip":"92805"},{"Location":"COMMITTEE LORETTA SANCHEZ","Address":"605 N Anaheim Blvd","City":"Anaheim","State":"CA","Zip":"92805"},{"Location":"CONTIKI HOLIDAYS","Address":"801 E Katella Ave","City":"Anaheim","State":"CA","Zip":"92805"},{"Location":"DISNEY CERRITOS FACILITY","Address":"1601 E Cerritos Ave","City":"Anaheim","State":"CA","Zip":"92805"},{"Location":"DIVERSIFIED INTL LLC","Address":"1000 E Cerritos Ave","City":"Anaheim","State":"CA","Zip":"92805"},{"Location":"DOLTON ENTERPRISES INC","Address":"555 S Rose St","City":"Anaheim","State":"CA","Zip":"92805"},{"Location":"EL MERCADITO PRODUCTS","Address":"1440 S Anaheim Blvd","City":"Anaheim","State":"CA","Zip":"92805"},{"Location":"EXTRON","Address":"1001 E Ball Rd","City":"Anaheim","State":"CA","Zip":"92805"},{"Location":"EXTRON","Address":"1025 E Ball Rd","City":"Anaheim","State":"CA","Zip":"92805"},{"Location":"EXTRON 2","Address":"1025 E Ball Rd","City":"Anaheim","State":"CA","Zip":"92805"},{"Location":"EXTRON ELECTRONICS","Address":"1045 S East St","City":"Anaheim","State":"CA","Zip":"92805"},{"Location":"FERCEN AUTO SALES","Address":"804 N Anaheim Blvd","City":"Anaheim","State":"CA","Zip":"92805"},{"Location":"FIRST TRANSIT","Address":"1354 S Anaheim Blvd","City":"Anaheim","State":"CA","Zip":"92805"},{"Location":"FLAMINGO SHOWGIRLS","Address":"618 Ball Rd","City":"Anaheim","State":"CA","Zip":"92805"},{"Location":"FREEDOM COMMUNICATIONS","Address":"1771 S Lewis St","City":"Anaheim","State":"CA","Zip":"92805"},{"Location":"FRITZ THATS TOO","Address":"710 E Katella Ave","City":"Anaheim","State":"CA","Zip":"92805"},{"Location":"GIS HEALTHCARE","Address":"285 W Cerritos Ave","City":"Anaheim","State":"CA","Zip":"92805"},{"Location":"GOLDENWEST VB CLUB","Address":"1500 S Anaheim Blvd 130a","City":"Anaheim","State":"CA","Zip":"92805"},{"Location":"GYPSY DEN","Address":"211 W Center Street Promenade","City":"Anaheim","State":"CA","Zip":"92805"},{"Location":"HARBOR DISTRIBUTING WHSE","Address":"1629 S Lewis St","City":"Anaheim","State":"CA","Zip":"92805"},{"Location":"INTEGRA  ELECTRONICS","Address":"1363 S Lewis St","City":"Anaheim","State":"CA","Zip":"92805"},{"Location":"INVESTLINC WEALTH SERVICES","Address":"300 S Harbor Blvd 1000","City":"Anaheim","State":"CA","Zip":"92805"},{"Location":"ITX CONSTUCTION CONSULTANTS IN","Address":"1285 S Lewis St","City":"Anaheim","State":"CA","Zip":"92805"},{"Location":"JARVI TOOL LLC","Address":"780 E Debra Ln","City":"Anaheim","State":"CA","Zip":"92805"},{"Location":"JUAGUAR LITHO INC","Address":"1735 S Claudina Way","City":"Anaheim","State":"CA","Zip":"92805"},{"Location":"KONSTANTIN HOCKEY SCHOOL","Address":"1570 S Lewis St","City":"Anaheim","State":"CA","Zip":"92805"},{"Location":"KYA STREET FARE","Address":"1221 S Harbor Blvd","City":"Anaheim","State":"CA","Zip":"92805"},{"Location":"L3 IEC","Address":"602 E Vermont Ave","City":"Anaheim","State":"CA","Zip":"92805"},{"Location":"LA REINA MARKET","Address":"508 N East St","City":"Anaheim","State":"CA","Zip":"92805"},{"Location":"LA TAXQUENA","Address":"1440 S Anaheim Blvd G30","City":"Anaheim","State":"CA","Zip":"92805"},{"Location":"LATIN KITCHEN","Address":"440 S Anaheim Blvd H8","City":"Anaheim","State":"CA","Zip":"92805"},{"Location":"LAW OFFICE OF DAVID STON","Address":"300 S Harbor Blvd 900","City":"Anaheim","State":"CA","Zip":"92805"},{"Location":"LCG RESTAURANT II","Address":"1201 W Lincoln Ave","City":"Anaheim","State":"CA","Zip":"92805"},{"Location":"LEGEND BEVERAGE INC","Address":"1301 S Lewis St","City":"Anaheim","State":"CA","Zip":"92805"},{"Location":"LINCOLN FAMILY DENTAL GROUP","Address":"1959 E Lincoln Ave","City":"Anaheim","State":"CA","Zip":"92805"},{"Location":"LOPEZ & LEFTY'S SPORTS CANTINA","Address":"1759 S Claudina Way","City":"Anaheim","State":"CA","Zip":"92805"},{"Location":"LOUIE & STETTLER","Address":"300 S Harbor Blvd","City":"Anaheim","State":"CA","Zip":"92805"},{"Location":"MARBOLIS INC","Address":"240 E Palais Rd","City":"Anaheim","State":"CA","Zip":"92805"},{"Location":"MARISCOCS LA PLAYITA","Address":"1513 E La Palma Ave","City":"Anaheim","State":"CA","Zip":"92805"},{"Location":"MUNDIAL TRAVEL","Address":"1517 E La Palma Ave","City":"Anaheim","State":"CA","Zip":"92805"},{"Location":"MYRA C LUNA DDS INC A","Address":"50 S Anaheim Blvd 86","City":"Anaheim","State":"CA","Zip":"92805"},{"Location":"NORTHGATE GONZALEZ LLC STORE 3","Address":"1150 N East St","City":"Anaheim","State":"CA","Zip":"92805"},{"Location":"OCDE ACCESS","Address":"305 W Cerritos Ave","City":"Anaheim","State":"CA","Zip":"92805"},{"Location":"OCDE ACCESS 3","Address":"160 W Cerritos Ave 4","City":"Anaheim","State":"CA","Zip":"92805"},{"Location":"OLIVE CARE INC","Address":"122 S Olive St","City":"Anaheim","State":"CA","Zip":"92805"},{"Location":"OPEN GYM","Address":"1500 S Anaheim Blvd","City":"Anaheim","State":"CA","Zip":"92805"},{"Location":"OSTIONERIA SIETE MARES","Address":"1440 S Anaheim Blvd","City":"Anaheim","State":"CA","Zip":"92805"},{"Location":"OTIS ELEVATOR","Address":"711 E Ball Rd 200","City":"Anaheim","State":"CA","Zip":"92805"},{"Location":"PACIFIC WEST ASSOCIATION","Address":"1601 E Orangewood Ave","City":"Anaheim","State":"CA","Zip":"92805"},{"Location":"PIERRE'S PIZZA & JUICE","Address":"1142 N East St","City":"Anaheim","State":"CA","Zip":"92805"},{"Location":"PIERRES PIZZA AND JUICE","Address":"142 N East St","City":"Anaheim","State":"CA","Zip":"92805"},{"Location":"PMOSSP","Address":"707a E Vermont Ave","City":"Anaheim","State":"CA","Zip":"92805"},{"Location":"PRODUCTS FOR MEDICINE","Address":"1201 E Ball Rd H","City":"Anaheim","State":"CA","Zip":"92805"},{"Location":"RINCON SUTBOLERO","Address":"1440 S Anaheim Blvd H2","City":"Anaheim","State":"CA","Zip":"92805"},{"Location":"SALVATION ARMY ADULT REH","Address":"1320 S Lewis St","City":"Anaheim","State":"CA","Zip":"92805"},{"Location":"SI INC","Address":"1440 S Allec St","City":"Anaheim","State":"CA","Zip":"92805"},{"Location":"SOCAL FRAMING INC","Address":"1145 E Stanford Ct","City":"Anaheim","State":"CA","Zip":"92805"},{"Location":"SPORTS AND FAMILY CHIRO","Address":"50 S Anaheim Blvd 250","City":"Anaheim","State":"CA","Zip":"92805"},{"Location":"STADIUM LOFTS - FITNESS","Address":"1799 E Katella Ave 1007","City":"Anaheim","State":"CA","Zip":"92805"},{"Location":"STARS LLC","Address":"1500 S Anaheim Blvd 200","City":"Anaheim","State":"CA","Zip":"92805"},{"Location":"SUPERIOR PLATING INC","Address":"1901 E Cerritos Ave","City":"Anaheim","State":"CA","Zip":"92805"},{"Location":"TACO BOYS","Address":"725 N Anaheim Blvd","City":"Anaheim","State":"CA","Zip":"92805"},{"Location":"TAQUERIAS GUADALAJARA","Address":"520 N Anaheim Blvd","City":"Anaheim","State":"CA","Zip":"92805"},{"Location":"TED'S BURGERS","Address":"899 S Anaheim Blvd","City":"Anaheim","State":"CA","Zip":"92805"},{"Location":"THE JUKE JOINT BAR","Address":"735 N Anaheim Blvd","City":"Anaheim","State":"CA","Zip":"92805"},{"Location":"TONYS DELI","Address":"613 S Anaheim Blvd","City":"Anaheim","State":"CA","Zip":"92805"},{"Location":"U S SHOP TOOLS","Address":"1340 S Allec St","City":"Anaheim","State":"CA","Zip":"92805"},{"Location":"UMAMI BURGER","Address":"338 S Anaheim Blvd","City":"Anaheim","State":"CA","Zip":"92805"},{"Location":"UNITED PARCEL SERVICE","Address":"1331 S Vernon St","City":"Anaheim","State":"CA","Zip":"92805"},{"Location":"UPS","Address":"1331 S Vernon St","City":"Anaheim","State":"CA","Zip":"92805"},{"Location":"US AIR CONDITIONING","Address":"1304 S Claudina St","City":"Anaheim","State":"CA","Zip":"92805"},{"Location":"VFS FIRE AND SECURITY SERVICES","Address":"1011 E Lacy Ave","City":"Anaheim","State":"CA","Zip":"92805"},{"Location":"WALT DISNEY TRAVEL CO","Address":"190 W Center Street Promenade","City":"Anaheim","State":"CA","Zip":"92805"},{"Location":"WORLD CUP SOCCER LEAGUE","Address":"951 E Ball Rd","City":"Anaheim","State":"CA","Zip":"92805"},{"Location":"ZOVS ANAHEIM","Address":"1801 E Katella Ave 1001","City":"Anaheim","State":"CA","Zip":"92805"}]