[{"Location":"24 HOUR FITNESS #64","Address":"1430 N Lemon St","City":"Anaheim","State":"CA","Zip":"92801"},{"Location":"3C TOBACCO & GIFTS","Address":"903 N Euclid St","City":"Anaheim","State":"CA","Zip":"92801"},{"Location":"3F FILIP.INO MARKET","Address":"2528 W Lincoln Ave","City":"Anaheim","State":"CA","Zip":"92801"},{"Location":"ACRI PHASE 1","Address":"1081 N Harbor Blvd","City":"Anaheim","State":"CA","Zip":"92801"},{"Location":"ADVANCED CLINICAL RESEARCH","Address":"1085 N Harbor Blvd","City":"Anaheim","State":"CA","Zip":"92801"},{"Location":"ADVANCED UROLOGY MED CTR","Address":"1211 W La Palma Ave 502","City":"Anaheim","State":"CA","Zip":"92801"},{"Location":"ALLIED BUILDING PRODUCTS","Address":"1244 N Anaheim Blvd","City":"Anaheim","State":"CA","Zip":"92801"},{"Location":"ANAHEIM SMOKE HOUSE","Address":"947 N Euclid St","City":"Anaheim","State":"CA","Zip":"92801"},{"Location":"ANAHEIM SURGICENTER","Address":"1211 W La Palma Ave 604","City":"Anaheim","State":"CA","Zip":"92801"},{"Location":"ANAHEIM UROLOGIC MEDICAL","Address":"1211 W La Palma Ave 307","City":"Anaheim","State":"CA","Zip":"92801"},{"Location":"ANHEIM MEMORIAL MEDICAL CENTER","Address":"1111 W La Palma Ave","City":"Anaheim","State":"CA","Zip":"92801"},{"Location":"ANTHOLOGY","Address":"1275 N Patt St","City":"Anaheim","State":"CA","Zip":"92801"},{"Location":"APPLIED POWER CONCEPT","Address":"411 E Julianna St","City":"Anaheim","State":"CA","Zip":"92801"},{"Location":"AUTO REGIO INC","Address":"1617 W Lincoln Ave","City":"Anaheim","State":"CA","Zip":"92801"},{"Location":"BLANCA  B HAMPTON MD","Address":"1110 W La Palma Ave 1","City":"Anaheim","State":"CA","Zip":"92801"},{"Location":"BLESSINGS CAR WASH","Address":"2217 W Lincoln Ave","City":"Anaheim","State":"CA","Zip":"92801"},{"Location":"CADOR PARTY","Address":"2524 W Lincoln Ave","City":"Anaheim","State":"CA","Zip":"92801"},{"Location":"CAFE MISORA","Address":"2633 W Woodland Dr","City":"Anaheim","State":"CA","Zip":"92801"},{"Location":"CAMARENA","Address":"231 N Euclid Way C","City":"Anaheim","State":"CA","Zip":"92801"},{"Location":"CAREMORE","Address":"1182 N Euclid St","City":"Anaheim","State":"CA","Zip":"92801"},{"Location":"CARL KARCHER ENTERPRISES INC","Address":"1325 N Anaheim Blvd","City":"Anaheim","State":"CA","Zip":"92801"},{"Location":"CARSMETICS ANAHEIM","Address":"94 E Orangethorpe Ave","City":"Anaheim","State":"CA","Zip":"92801"},{"Location":"CHAMPIONSHIP GOLF SERVICES INC","Address":"430 N Gilbert St","City":"Anaheim","State":"CA","Zip":"92801"},{"Location":"CIM GROUP","Address":"960 E Discovery Ln","City":"Anaheim","State":"CA","Zip":"92801"},{"Location":"COSTA RICA RESTAURANT","Address":"2500 W Lincoln Ave","City":"Anaheim","State":"CA","Zip":"92801"},{"Location":"DAVITA #2485 ANAHEIM WEST","Address":"1821 W Lincoln Ave","City":"Anaheim","State":"CA","Zip":"92801"},{"Location":"DO CIRCLE INC","Address":"2544 W Woodland Dr","City":"Anaheim","State":"CA","Zip":"92801"},{"Location":"DON JOSE MEX REST","Address":"2681 W La Palma Ave","City":"Anaheim","State":"CA","Zip":"92801"},{"Location":"DX VIDEO","Address":"2637 W Lincoln Ave","City":"Anaheim","State":"CA","Zip":"92801"},{"Location":"EL PATIO DRIVE IN","Address":"1001 N Magnolia Ave","City":"Anaheim","State":"CA","Zip":"92801"},{"Location":"ENRIQUEZ AND PADILLA INC","Address":"30 E Orangethorpe Ave","City":"Anaheim","State":"CA","Zip":"92801"},{"Location":"ENSENADA MARKET","Address":"1827 W La Palma Ave","City":"Anaheim","State":"CA","Zip":"92801"},{"Location":"FED EX GROUND","Address":"590 E Orangethorpe Ave","City":"Anaheim","State":"CA","Zip":"92801"},{"Location":"FED EX GROUNDS","Address":"590 E Orangethorpe Ave","City":"Anaheim","State":"CA","Zip":"92801"},{"Location":"FELIPES BAR & GRILL","Address":"27581 W Lincoln Av","City":"Anaheim","State":"CA","Zip":"92801"},{"Location":"FMC 25770000","Address":"511 N Brookhurst St","City":"Anaheim","State":"CA","Zip":"92801"},{"Location":"FMC 86650000","Address":"3150 W Lincoln Ave 102","City":"Anaheim","State":"CA","Zip":"92801"},{"Location":"GARAGE FISH","Address":"2717 W Lincoln Ave","City":"Anaheim","State":"CA","Zip":"92801"},{"Location":"GENTLE DENTAL","Address":"2170 W Lincoln Ave","City":"Anaheim","State":"CA","Zip":"92801"},{"Location":"HATAM RESTURANT","Address":"1112 N Brookhurst St","City":"Anaheim","State":"CA","Zip":"92801"},{"Location":"HIGH SUSHI TERIYAKI","Address":"730 N Brookhurst St","City":"Anaheim","State":"CA","Zip":"92801"},{"Location":"IN HUR MD","Address":"1801 W Romneya Dr 607","City":"Anaheim","State":"CA","Zip":"92801"},{"Location":"INDIAN GARDEN","Address":"2632 W La Palma Ave","City":"Anaheim","State":"CA","Zip":"92801"},{"Location":"INTOUCH WIRELESS","Address":"1940 W Corporate Way","City":"Anaheim","State":"CA","Zip":"92801"},{"Location":"JCS ANHEIM INC","Address":"814 N Brookhurst St","City":"Anaheim","State":"CA","Zip":"92801"},{"Location":"JIFFY LUBE 2340","Address":"2181 W Lincoln Ave","City":"Anaheim","State":"CA","Zip":"92801"},{"Location":"JIN COIN LAUNDRY","Address":"1151 N Euclid St","City":"Anaheim","State":"CA","Zip":"92801"},{"Location":"JULIES HAIR AFFAIR","Address":"3070 W Lincoln Ave L","City":"Anaheim","State":"CA","Zip":"92801"},{"Location":"KAPIT BAHAY FILIPINO FAST FOOD","Address":"615 N Euclid St","City":"Anaheim","State":"CA","Zip":"92801"},{"Location":"KENOS PLACE","Address":"2661 W La Palma Ave","City":"Anaheim","State":"CA","Zip":"92801"},{"Location":"KENYAN CAFE CUISINE","Address":"2626 W La Palma Ave","City":"Anaheim","State":"CA","Zip":"92801"},{"Location":"LA CURACAO","Address":"1520 N Lemon St","City":"Anaheim","State":"CA","Zip":"92801"},{"Location":"LA PALMA ROYALE","Address":"525 W La Palma Ave","City":"Anaheim","State":"CA","Zip":"92801"},{"Location":"LEES SANDWICHES","Address":"659 N Euclid St","City":"Anaheim","State":"CA","Zip":"92801"},{"Location":"LINBROOK FAMILY BILLARD","Address":"2220 W Lincoln Ave","City":"Anaheim","State":"CA","Zip":"92801"},{"Location":"LOS CHILANGOS RESTAURANT","Address":"1830 W Lincoln Ave","City":"Anaheim","State":"CA","Zip":"92801"},{"Location":"MADE IN AMERICA VAP","Address":"2401 W Lincoln Ave","City":"Anaheim","State":"CA","Zip":"92801"},{"Location":"MARIE CALLENDAR'S","Address":"540 N Euclid St","City":"Anaheim","State":"CA","Zip":"92801"},{"Location":"MARISCOS PERLAS DEL MAR","Address":"1755 W La Palma Ave","City":"Anaheim","State":"CA","Zip":"92801"},{"Location":"MARISCOS PLAYA AZUL","Address":"1071 N Harbor Blvd","City":"Anaheim","State":"CA","Zip":"92801"},{"Location":"MATIKI BBQ","Address":"3070 W Lincoln Ave","City":"Anaheim","State":"CA","Zip":"92801"},{"Location":"MCKENZIES PERFORMANCE PRODUCTS","Address":"807 E Orangethorpe Ave A","City":"Anaheim","State":"CA","Zip":"92801"},{"Location":"MD GYOJA ANAHEIM","Address":"1001 N Euclid St","City":"Anaheim","State":"CA","Zip":"92801"},{"Location":"MILLER TOYOTA OF ANAHEIM","Address":"1331 N Euclid St","City":"Anaheim","State":"CA","Zip":"92801"},{"Location":"MODERN WIRELESS INC","Address":"1163 N Patt St","City":"Anaheim","State":"CA","Zip":"92801"},{"Location":"MOTIVE ENERGY","Address":"125 E Commercial St B","City":"Anaheim","State":"CA","Zip":"92801"},{"Location":"NORTHGATE  GONZALES MARKET","Address":"1201 N Magnolia Ave","City":"Anaheim","State":"CA","Zip":"92801"},{"Location":"OLD MEXICO","Address":"2970 W Lincoln Ave","City":"Anaheim","State":"CA","Zip":"92801"},{"Location":"ONE STAR PIZZA & CHICKEN","Address":"821 N Euclid St B","City":"Anaheim","State":"CA","Zip":"92801"},{"Location":"ORANGE COAST TITLE","Address":"2411 W La Palma Ave 300","City":"Anaheim","State":"CA","Zip":"92801"},{"Location":"PENHALL COMPANY","Address":"1801 W Penhall Way","City":"Anaheim","State":"CA","Zip":"92801"},{"Location":"PERU PERU GRILL","Address":"2415 W Lincoln Ave","City":"Anaheim","State":"CA","Zip":"92801"},{"Location":"PREMIER STEEL","Address":"1330 Fourth Knollwood Circle","City":"Anaheim","State":"CA","Zip":"92801"},{"Location":"PREMIERE ENGINEERING","Address":"980 E Discovery Ln","City":"Anaheim","State":"CA","Zip":"92801"},{"Location":"RSI HOME PRODUCTS","Address":"400 E Orangethorpe Ave","City":"Anaheim","State":"CA","Zip":"92801"},{"Location":"SA-RANG COMMUNITY CHURCH","Address":"1111 N Brookhurst St","City":"Anaheim","State":"CA","Zip":"92801"},{"Location":"SANTA ROSA DENTAL OFC","Address":"2364 W Lincoln Ave","City":"Anaheim","State":"CA","Zip":"92801"},{"Location":"SAPPHIRE CHANDELIER","Address":"174 E Liberty Ave","City":"Anaheim","State":"CA","Zip":"92801"},{"Location":"SCHOOLS FIRST FEDERAL CREDIT U","Address":"590 N Euclid St","City":"Anaheim","State":"CA","Zip":"92801"},{"Location":"SENSE RESTAURANT","Address":"2871 W Lincoln Ave","City":"Anaheim","State":"CA","Zip":"92801"},{"Location":"SERVITE HIGH SCHOOL","Address":"1952 W La Palma Ave","City":"Anaheim","State":"CA","Zip":"92801"},{"Location":"SERVITE HIGH SCHOOL LLC","Address":"1952 W La Palma Ave","City":"Anaheim","State":"CA","Zip":"92801"},{"Location":"SERVITE HS ATHLETIC DEPT","Address":"1952 W La Palma Ave","City":"Anaheim","State":"CA","Zip":"92801"},{"Location":"SHOWGIRLS","Address":"2640 W Woodland Dr","City":"Anaheim","State":"CA","Zip":"92801"},{"Location":"SLATEN","Address":"501 N Brookhurst St 318","City":"Anaheim","State":"CA","Zip":"92801"},{"Location":"SMMS INC","Address":"1112 N Brookhurst St 8","City":"Anaheim","State":"CA","Zip":"92801"},{"Location":"SPARKLEAN LAUNDRY","Address":"1061 N Harbor Blvd","City":"Anaheim","State":"CA","Zip":"92801"},{"Location":"SPIN CYCLE ANAHEIM","Address":"909 N Euclid St","City":"Anaheim","State":"CA","Zip":"92801"},{"Location":"SPORT MEDICINE","Address":"1736 W Medical Center Dr B","City":"Anaheim","State":"CA","Zip":"92801"},{"Location":"ST JOSEPH CATHOLIC BOOKS","Address":"2829 W Lincoln Ave","City":"Anaheim","State":"CA","Zip":"92801"},{"Location":"TACOS OF ANAHEIM","Address":"3060 W Lincoln Ave","City":"Anaheim","State":"CA","Zip":"92801"},{"Location":"TANA ETHIOPIAN RESTAURANT","Address":"2622 W La Palma Ave","City":"Anaheim","State":"CA","Zip":"92801"},{"Location":"TELECARE CORPORATION","Address":"2531 W Woodland Dr","City":"Anaheim","State":"CA","Zip":"92801"},{"Location":"THE MATYAS GROUP","Address":"801 N Loara St 245","City":"Anaheim","State":"CA","Zip":"92801"},{"Location":"TODD H KATZMAN MD INC","Address":"1211 W La Palma Ave 506","City":"Anaheim","State":"CA","Zip":"92801"},{"Location":"TONY DO DDS INC","Address":"1132 N Brookhurst St Steb","City":"Anaheim","State":"CA","Zip":"92801"},{"Location":"TOP NOODLE RESTAURANT","Address":"2235 W Lincoln Ave","City":"Anaheim","State":"CA","Zip":"92801"},{"Location":"VALLARTA SUPERMARKETS 37","Address":"2394 W Lincoln Ave","City":"Anaheim","State":"CA","Zip":"92801"},{"Location":"VEGA IRON WORK INC","Address":"1848 N Orangethorpe Park","City":"Anaheim","State":"CA","Zip":"92801"},{"Location":"VILA DEL SOL","Address":"2828 W Lincoln Ave","City":"Anaheim","State":"CA","Zip":"92801"},{"Location":"WALSH MEDICAL GROUP","Address":"1110 W La Palma Ave 6","City":"Anaheim","State":"CA","Zip":"92801"},{"Location":"WENDYS 7556","Address":"680 N Euclid St","City":"Anaheim","State":"CA","Zip":"92801"},{"Location":"WESTERN EXTERMINATOR","Address":"305 N Crescent Way","City":"Anaheim","State":"CA","Zip":"92801"},{"Location":"WINGER AIM","Address":"501 N Brookhurst St 214","City":"Anaheim","State":"CA","Zip":"92801"},{"Location":"WONG CHUNG","Address":"1199 N Euclid St","City":"Anaheim","State":"CA","Zip":"92801"},{"Location":"XCLUSIV CUTZ","Address":"801 N Loara St 18","City":"Anaheim","State":"CA","Zip":"92801"},{"Location":"YOUNGJO TABACCO","Address":"2520 W Lincoln Ave","City":"Anaheim","State":"CA","Zip":"92801"}]