[{"Location":"ADD2NET%2CINC","Address":"1360 N Hancock St","City":"Anaheim","State":"CA","Zip":"92807"},{"Location":"ANAHEIM  CUSTOM  EXTRUDERS","Address":"4640 E La Palma Ave","City":"Anaheim","State":"CA","Zip":"92807"},{"Location":"ANAHEIM FIRE STATION 9","Address":"6300 E Nohl Ranch Rd","City":"Anaheim","State":"CA","Zip":"92807"},{"Location":"ANAHEIM HILLS CHIROPRATIC","Address":"5769 E Santa Ana Canyon Rd","City":"Anaheim","State":"CA","Zip":"92807"},{"Location":"ANAHEIM HILLS GOLF COURSE","Address":"6501 E Nohl Ranch Rd","City":"Anaheim","State":"CA","Zip":"92807"},{"Location":"ANHEUSER-BUSCH WHLSLR #70470","Address":"4633 E La Palma Ave","City":"Anaheim","State":"CA","Zip":"92807"},{"Location":"BAYFRONT YOUTH FAM SVS","Address":"4151 E. Fountain","City":"Anaheim","State":"CA","Zip":"92807"},{"Location":"BEARON HR","Address":"5500 E Santa Ana Canyon Rd 20","City":"Anaheim","State":"CA","Zip":"92807"},{"Location":"BERT HOWE & ASSOCIATES","Address":"5415 E La Palma Ave","City":"Anaheim","State":"CA","Zip":"92807"},{"Location":"BISCO INDUSTRIES","Address":"1500 N Lakeview Ave","City":"Anaheim","State":"CA","Zip":"92807"},{"Location":"BLAKE AIR CONDITIONING & SVS","Address":"1175 N Osprey Cir","City":"Anaheim","State":"CA","Zip":"92807"},{"Location":"BODIES    BY   US","Address":"6507 E Serrano Ave Ab","City":"Anaheim","State":"CA","Zip":"92807"},{"Location":"BYBLOS MEDITERRANEAN GRI","Address":"1071 N Tustin Ave","City":"Anaheim","State":"CA","Zip":"92807"},{"Location":"CALI FISH GRILL ANAHEIM","Address":"5675 E La Palma Ave 195","City":"Anaheim","State":"CA","Zip":"92807"},{"Location":"CALIFORNIA AUTO FINANCE","Address":"5255 E Hunter Ave","City":"Anaheim","State":"CA","Zip":"92807"},{"Location":"CALIFORNIA IMPACT PATROL","Address":"5130 E La Palma Ave 205","City":"Anaheim","State":"CA","Zip":"92807"},{"Location":"CALIFORNIA IMPACT PATROL","Address":"500 S Van Buren","City":"Anaheim","State":"CA","Zip":"92807"},{"Location":"CANYON VIEW DENTAL","Address":"5475 E La Palma Ave 101","City":"Anaheim","State":"CA","Zip":"92807"},{"Location":"CCF","Address":"4130 E La Palma Ave","City":"Anaheim","State":"CA","Zip":"92807"},{"Location":"CHAMPIONSHIP GOLF SERVICES INC","Address":"6501 E Knoll Ranch Road","City":"Anaheim","State":"CA","Zip":"92807"},{"Location":"COAST PNEUMATICS","Address":"8055 E Crystal Dr","City":"Anaheim","State":"CA","Zip":"92807"},{"Location":"COASTAL VAPS","Address":"5589 E Santa Ana Canyon Rd","City":"Anaheim","State":"CA","Zip":"92807"},{"Location":"CORBAN FINANCIAL SERVICES","Address":"1100 N Tustin Ave","City":"Anaheim","State":"CA","Zip":"92807"},{"Location":"CPAC INC","Address":"4749 E Wesley Dr","City":"Anaheim","State":"CA","Zip":"92807"},{"Location":"CSS","Address":"970 N Tustin Ave A","City":"Anaheim","State":"CA","Zip":"92807"},{"Location":"CURVES ANAHEIM HILLS","Address":"5557 E Santa Ana Canyon Rd 101","City":"Anaheim","State":"CA","Zip":"92807"},{"Location":"CYPRESS DISTRIBUTORS","Address":"5100 E La Palma Ave 114","City":"Anaheim","State":"CA","Zip":"92807"},{"Location":"D&K FASHION LLC","Address":"5769 E Santa Ana Canyon Rd K","City":"Anaheim","State":"CA","Zip":"92807"},{"Location":"DAVITA #5789 ANAHEIM HILLS","Address":"4201 E La Palma Ave","City":"Anaheim","State":"CA","Zip":"92807"},{"Location":"DELLAS HAIR AND NAIL CO","Address":"5789 E La Palma Ave","City":"Anaheim","State":"CA","Zip":"92807"},{"Location":"DON JOSE MEX REST","Address":"5665 E Santa Ana Canyon Rd","City":"Anaheim","State":"CA","Zip":"92807"},{"Location":"DON ROBERTOS CARNITAS","Address":"5031 E Orangethorpe Ave","City":"Anaheim","State":"CA","Zip":"92807"},{"Location":"DR VASCO","Address":"5779 E La Palma Ave","City":"Anaheim","State":"CA","Zip":"92807"},{"Location":"EAT LITE ONE INC","Address":"412 N Lakeview Ave","City":"Anaheim","State":"CA","Zip":"92807"},{"Location":"FAYEZ GENADRY","Address":"4875 E La Palma Ave 603","City":"Anaheim","State":"CA","Zip":"92807"},{"Location":"FINDLEY ASSOCIATES","Address":"3808 E La Palma Ave","City":"Anaheim","State":"CA","Zip":"92807"},{"Location":"FMG INTERNATIONAL LLC","Address":"5510 E La Palma Ave","City":"Anaheim","State":"CA","Zip":"92807"},{"Location":"FOXFIRE RESTAURANT","Address":"5717 E Santa Ana Canyon Rd","City":"Anaheim","State":"CA","Zip":"92807"},{"Location":"GALLOS ITALIAN DELI","Address":"5731 E Santa Ana Canyon Rd Suite","City":"Anaheim","State":"CA","Zip":"92807"},{"Location":"HAPPY NAILS OF CANYON PLAZA","Address":"5769 E Santa Ana Canyon Rd B","City":"Anaheim","State":"CA","Zip":"92807"},{"Location":"HOAG URGENT CARE-A.HILLS","Address":"5630 E Santa Ana Canyon Rd 100","City":"Anaheim","State":"CA","Zip":"92807"},{"Location":"HONDA WEIR CANYON","Address":"8323 E La Palma Ave","City":"Anaheim","State":"CA","Zip":"92807"},{"Location":"ICE BULB LLC","Address":"1018 N Tustin Ave","City":"Anaheim","State":"CA","Zip":"92807"},{"Location":"INNOVATIVE MEDICAL MANAGEMENT","Address":"4175 E La Palma Ave 215","City":"Anaheim","State":"CA","Zip":"92807"},{"Location":"J HOCK POOL PLASTERING","Address":"4780 E Wesley Dr","City":"Anaheim","State":"CA","Zip":"92807"},{"Location":"JACK RINGER DDS","Address":"5765 E S E Santa Ana Canyon Rd St Ste A","City":"Anaheim","State":"CA","Zip":"92807"},{"Location":"JAGUAR LAND ROVER ANAHEIM HILL","Address":"5425 E La Palma Ave","City":"Anaheim","State":"CA","Zip":"92807"},{"Location":"JD & SONS","Address":"4875 E La Palma Ave 602","City":"Anaheim","State":"CA","Zip":"92807"},{"Location":"JEROMES FURNITURE","Address":"1021 N Tustin Ave","City":"Anaheim","State":"CA","Zip":"92807"},{"Location":"K.NAILS","Address":"5642 E La Palma Ave","City":"Anaheim","State":"CA","Zip":"92807"},{"Location":"KENO'S RESTAURANT","Address":"5760 E La Palma Ave","City":"Anaheim","State":"CA","Zip":"92807"},{"Location":"KIYONNA CLOTHING INC","Address":"1315 N Brasher St","City":"Anaheim","State":"CA","Zip":"92807"},{"Location":"LA FITNESS #37","Address":"5757 E Santa Ana Canyon Rd","City":"Anaheim","State":"CA","Zip":"92807"},{"Location":"LLOYD COTTON RPT","Address":"6326 E Santa Ana Canyon Rd","City":"Anaheim","State":"CA","Zip":"92807"},{"Location":"MARIE CALENDER #83","Address":"5711 E La Palma Ave","City":"Anaheim","State":"CA","Zip":"92807"},{"Location":"MASSAGE ENVY","Address":"5769 E Santa Ana Canyon Rd","City":"Anaheim","State":"CA","Zip":"92807"},{"Location":"MATRIX SERVICES","Address":"5449 E La Palma Ave","City":"Anaheim","State":"CA","Zip":"92807"},{"Location":"MEDCO PRODUCTS INC","Address":"3863 E Eagle Dr","City":"Anaheim","State":"CA","Zip":"92807"},{"Location":"MEXICO RESTAURANT","Address":"6300 E Santa Ana Canyon Rd","City":"Anaheim","State":"CA","Zip":"92807"},{"Location":"MORPHOTRAK","Address":"1250 N Tustin Ave","City":"Anaheim","State":"CA","Zip":"92807"},{"Location":"MV MARKETING","Address":"1133 N Tustin Ave","City":"Anaheim","State":"CA","Zip":"92807"},{"Location":"OC HILLS COMPANY","Address":"3514 E Enterprise Dr","City":"Anaheim","State":"CA","Zip":"92807"},{"Location":"OUT OF THE PARK PIZZA","Address":"5638 E La Palma Ave","City":"Anaheim","State":"CA","Zip":"92807"},{"Location":"PACIFIC DECORATING CENTERS","Address":"3811 E La Palma Ave","City":"Anaheim","State":"CA","Zip":"92807"},{"Location":"PACIFIC TRANSFORMER CORP","Address":"5399 E Hunter Ave","City":"Anaheim","State":"CA","Zip":"92807"},{"Location":"PACIFIC UTILITY INSTALLATION","Address":"1585 N Harmony Cir","City":"Anaheim","State":"CA","Zip":"92807"},{"Location":"PACIFIC WESTERN TECHNOLOGY","Address":"1510 N Lakeview Ave","City":"Anaheim","State":"CA","Zip":"92807"},{"Location":"PETROMAX INC","Address":"5650 E La Palma Ave","City":"Anaheim","State":"CA","Zip":"92807"},{"Location":"PLANTATION CLEANER","Address":"5031 E Orangethorpe Ave F","City":"Anaheim","State":"CA","Zip":"92807"},{"Location":"PON INTERNATIONAL SALON","Address":"5655 E La Palma Ave","City":"Anaheim","State":"CA","Zip":"92807"},{"Location":"PREFERRED TRANSPORTATION","Address":"970 N Tustin Ave 203","City":"Anaheim","State":"CA","Zip":"92807"},{"Location":"REMART OVERSTOCK","Address":"1011 N Tustin Ave","City":"Anaheim","State":"CA","Zip":"92807"},{"Location":"REUNION KITCHEN","Address":"5775 E Santa Ana Canyon Rd","City":"Anaheim","State":"CA","Zip":"92807"},{"Location":"ROBERT J MARRIOT MED COR","Address":"5475 E La Palma Ave Ste20","City":"Anaheim","State":"CA","Zip":"92807"},{"Location":"ROCKN ROAD CYCLERY","Address":"5701 E Santa Ana Canyon Rd F","City":"Anaheim","State":"CA","Zip":"92807"},{"Location":"RUSNAK AUTO GROUP","Address":"5401 E La Palma Ave","City":"Anaheim","State":"CA","Zip":"92807"},{"Location":"S AND E SYSTEMS INC","Address":"1215 N Tustin Ave","City":"Anaheim","State":"CA","Zip":"92807"},{"Location":"S M K HEATING AND AIR INC","Address":"1505 N Harmony Cir","City":"Anaheim","State":"CA","Zip":"92807"},{"Location":"SAMMYS BAR AND GRILL","Address":"5645 E La Palma Ave","City":"Anaheim","State":"CA","Zip":"92807"},{"Location":"SCOTTS BARBER SHOP","Address":"5031 E Orangethorpe Ave","City":"Anaheim","State":"CA","Zip":"92807"},{"Location":"SLATER'S 50 50","Address":"6362 E Santa Ana Canyon Rd","City":"Anaheim","State":"CA","Zip":"92807"},{"Location":"SMITH EMERY LABORTORY","Address":"1197 N Tustin Ave","City":"Anaheim","State":"CA","Zip":"92807"},{"Location":"STIX HOLDINGS 781","Address":"5576 E Santa Ana Canyon Rd","City":"Anaheim","State":"CA","Zip":"92807"},{"Location":"SUITE 115","Address":"115 E La Palma","City":"Anaheim","State":"CA","Zip":"92807"},{"Location":"SUPERIOR POOL PRODUCTS LLC","Address":"4900 E Landon Dr","City":"Anaheim","State":"CA","Zip":"92807"},{"Location":"SUSHI %40 SUSHI","Address":"414 N Lakeview Ave","City":"Anaheim","State":"CA","Zip":"92807"},{"Location":"SYNMAR ASSOCIATES","Address":"4222 E La Palma Ave","City":"Anaheim","State":"CA","Zip":"92807"},{"Location":"THAI LINGO","Address":"118 N Tustin Ave","City":"Anaheim","State":"CA","Zip":"92807"},{"Location":"THE OFFICE","Address":"4411 E Palma Ave","City":"Anaheim","State":"CA","Zip":"92807"},{"Location":"TITAN POOLS INC","Address":"5765 Santa Ana Cayna Road B","City":"Anaheim","State":"CA","Zip":"92807"},{"Location":"TOMS PLACE","Address":"4477 E La Palma Ave","City":"Anaheim","State":"CA","Zip":"92807"},{"Location":"TOP CLASS PIZZA","Address":"1026 N Tustin Ave","City":"Anaheim","State":"CA","Zip":"92807"},{"Location":"TOTAL RECON SOLUTIONS","Address":"1320 N Tustin Ave","City":"Anaheim","State":"CA","Zip":"92807"},{"Location":"VINCE MURACA","Address":"4245 E La Palma Ave","City":"Anaheim","State":"CA","Zip":"92807"},{"Location":"VISIONS TINT INC","Address":"1024 N Tustin Ave","City":"Anaheim","State":"CA","Zip":"92807"},{"Location":"WEIR CANYON ACURA","Address":"8375 E La Palma Ave","City":"Anaheim","State":"CA","Zip":"92807"},{"Location":"WESCOM CREDIT UNION","Address":"5601 E La Palma Ave","City":"Anaheim","State":"CA","Zip":"92807"},{"Location":"WESTERN WELL TOOL INC","Address":"1150 N Tustin Ave","City":"Anaheim","State":"CA","Zip":"92807"},{"Location":"YAGI JAPANESE RESTAURANT","Address":"6324 E Santa Ana Canyon Rd","City":"Anaheim","State":"CA","Zip":"92807"},{"Location":"YVES BISTRO","Address":"5753 E Santa Ana Canyon Rd A","City":"Anaheim","State":"CA","Zip":"92807"},{"Location":"Z PIZZA","Address":"5745 E Santa Ana Canyon Rd","City":"Anaheim","State":"CA","Zip":"92807"},{"Location":"ZITO'S PIZZA","Address":"5572 E Santa Ana Canyon Rd","City":"Anaheim","State":"CA","Zip":"92807"},{"Location":"PACIFIC DENTAL-ANAHEIM HILLS","Address":"5731 E Santa Ana Canyon Rd A","City":"Anaheim Hills","State":"CA","Zip":"92807"},{"Location":"PEPPERONI'S PIZZA #2","Address":"6304 E Santa Canyon Rd","City":"Anaheim Hills","State":"CA","Zip":"92807"},{"Location":"ADD2NET%2CINC","Address":"1360 N Hancock St","City":"Anaheim","State":"CA","Zip":"92807"},{"Location":"ANAHEIM  CUSTOM  EXTRUDERS","Address":"4640 E La Palma Ave","City":"Anaheim","State":"CA","Zip":"92807"},{"Location":"ANAHEIM FIRE STATION 9","Address":"6300 E Nohl Ranch Rd","City":"Anaheim","State":"CA","Zip":"92807"},{"Location":"ANAHEIM HILLS CHIROPRATIC","Address":"5769 E Santa Ana Canyon Rd","City":"Anaheim","State":"CA","Zip":"92807"},{"Location":"ANAHEIM HILLS GOLF COURSE","Address":"6501 E Nohl Ranch Rd","City":"Anaheim","State":"CA","Zip":"92807"},{"Location":"ANHEUSER-BUSCH WHLSLR #70470","Address":"4633 E La Palma Ave","City":"Anaheim","State":"CA","Zip":"92807"},{"Location":"BAYFRONT YOUTH FAM SVS","Address":"4151 E. Fountain","City":"Anaheim","State":"CA","Zip":"92807"},{"Location":"BEARON HR","Address":"5500 E Santa Ana Canyon Rd 20","City":"Anaheim","State":"CA","Zip":"92807"},{"Location":"BERT HOWE & ASSOCIATES","Address":"5415 E La Palma Ave","City":"Anaheim","State":"CA","Zip":"92807"},{"Location":"BISCO INDUSTRIES","Address":"1500 N Lakeview Ave","City":"Anaheim","State":"CA","Zip":"92807"},{"Location":"BLAKE AIR CONDITIONING & SVS","Address":"1175 N Osprey Cir","City":"Anaheim","State":"CA","Zip":"92807"},{"Location":"BODIES    BY   US","Address":"6507 E Serrano Ave Ab","City":"Anaheim","State":"CA","Zip":"92807"},{"Location":"BYBLOS MEDITERRANEAN GRI","Address":"1071 N Tustin Ave","City":"Anaheim","State":"CA","Zip":"92807"},{"Location":"CALI FISH GRILL ANAHEIM","Address":"5675 E La Palma Ave 195","City":"Anaheim","State":"CA","Zip":"92807"},{"Location":"CALIFORNIA AUTO FINANCE","Address":"5255 E Hunter Ave","City":"Anaheim","State":"CA","Zip":"92807"},{"Location":"CALIFORNIA IMPACT PATROL","Address":"5130 E La Palma Ave 205","City":"Anaheim","State":"CA","Zip":"92807"},{"Location":"CALIFORNIA IMPACT PATROL","Address":"500 S Van Buren","City":"Anaheim","State":"CA","Zip":"92807"},{"Location":"CANYON VIEW DENTAL","Address":"5475 E La Palma Ave 101","City":"Anaheim","State":"CA","Zip":"92807"},{"Location":"CCF","Address":"4130 E La Palma Ave","City":"Anaheim","State":"CA","Zip":"92807"},{"Location":"CHAMPIONSHIP GOLF SERVICES INC","Address":"6501 E Knoll Ranch Road","City":"Anaheim","State":"CA","Zip":"92807"},{"Location":"COAST PNEUMATICS","Address":"8055 E Crystal Dr","City":"Anaheim","State":"CA","Zip":"92807"},{"Location":"COASTAL VAPS","Address":"5589 E Santa Ana Canyon Rd","City":"Anaheim","State":"CA","Zip":"92807"},{"Location":"CORBAN FINANCIAL SERVICES","Address":"1100 N Tustin Ave","City":"Anaheim","State":"CA","Zip":"92807"},{"Location":"CPAC INC","Address":"4749 E Wesley Dr","City":"Anaheim","State":"CA","Zip":"92807"},{"Location":"CSS","Address":"970 N Tustin Ave A","City":"Anaheim","State":"CA","Zip":"92807"},{"Location":"CURVES ANAHEIM HILLS","Address":"5557 E Santa Ana Canyon Rd 101","City":"Anaheim","State":"CA","Zip":"92807"},{"Location":"CYPRESS DISTRIBUTORS","Address":"5100 E La Palma Ave 114","City":"Anaheim","State":"CA","Zip":"92807"},{"Location":"D&K FASHION LLC","Address":"5769 E Santa Ana Canyon Rd K","City":"Anaheim","State":"CA","Zip":"92807"},{"Location":"DAVITA #5789 ANAHEIM HILLS","Address":"4201 E La Palma Ave","City":"Anaheim","State":"CA","Zip":"92807"},{"Location":"DELLAS HAIR AND NAIL CO","Address":"5789 E La Palma Ave","City":"Anaheim","State":"CA","Zip":"92807"},{"Location":"DON JOSE MEX REST","Address":"5665 E Santa Ana Canyon Rd","City":"Anaheim","State":"CA","Zip":"92807"},{"Location":"DON ROBERTOS CARNITAS","Address":"5031 E Orangethorpe Ave","City":"Anaheim","State":"CA","Zip":"92807"},{"Location":"DR VASCO","Address":"5779 E La Palma Ave","City":"Anaheim","State":"CA","Zip":"92807"},{"Location":"EAT LITE ONE INC","Address":"412 N Lakeview Ave","City":"Anaheim","State":"CA","Zip":"92807"},{"Location":"FAYEZ GENADRY","Address":"4875 E La Palma Ave 603","City":"Anaheim","State":"CA","Zip":"92807"},{"Location":"FINDLEY ASSOCIATES","Address":"3808 E La Palma Ave","City":"Anaheim","State":"CA","Zip":"92807"},{"Location":"FMG INTERNATIONAL LLC","Address":"5510 E La Palma Ave","City":"Anaheim","State":"CA","Zip":"92807"},{"Location":"FOXFIRE RESTAURANT","Address":"5717 E Santa Ana Canyon Rd","City":"Anaheim","State":"CA","Zip":"92807"},{"Location":"GALLOS ITALIAN DELI","Address":"5731 E Santa Ana Canyon Rd Suite","City":"Anaheim","State":"CA","Zip":"92807"},{"Location":"HAPPY NAILS OF CANYON PLAZA","Address":"5769 E Santa Ana Canyon Rd B","City":"Anaheim","State":"CA","Zip":"92807"},{"Location":"HOAG URGENT CARE-A.HILLS","Address":"5630 E Santa Ana Canyon Rd 100","City":"Anaheim","State":"CA","Zip":"92807"},{"Location":"HONDA WEIR CANYON","Address":"8323 E La Palma Ave","City":"Anaheim","State":"CA","Zip":"92807"},{"Location":"ICE BULB LLC","Address":"1018 N Tustin Ave","City":"Anaheim","State":"CA","Zip":"92807"},{"Location":"INNOVATIVE MEDICAL MANAGEMENT","Address":"4175 E La Palma Ave 215","City":"Anaheim","State":"CA","Zip":"92807"},{"Location":"J HOCK POOL PLASTERING","Address":"4780 E Wesley Dr","City":"Anaheim","State":"CA","Zip":"92807"},{"Location":"JACK RINGER DDS","Address":"5765 E S E Santa Ana Canyon Rd St Ste A","City":"Anaheim","State":"CA","Zip":"92807"},{"Location":"JAGUAR LAND ROVER ANAHEIM HILL","Address":"5425 E La Palma Ave","City":"Anaheim","State":"CA","Zip":"92807"},{"Location":"JD & SONS","Address":"4875 E La Palma Ave 602","City":"Anaheim","State":"CA","Zip":"92807"},{"Location":"JEROMES FURNITURE","Address":"1021 N Tustin Ave","City":"Anaheim","State":"CA","Zip":"92807"},{"Location":"K.NAILS","Address":"5642 E La Palma Ave","City":"Anaheim","State":"CA","Zip":"92807"},{"Location":"KENO'S RESTAURANT","Address":"5760 E La Palma Ave","City":"Anaheim","State":"CA","Zip":"92807"},{"Location":"KIYONNA CLOTHING INC","Address":"1315 N Brasher St","City":"Anaheim","State":"CA","Zip":"92807"},{"Location":"LA FITNESS #37","Address":"5757 E Santa Ana Canyon Rd","City":"Anaheim","State":"CA","Zip":"92807"},{"Location":"LLOYD COTTON RPT","Address":"6326 E Santa Ana Canyon Rd","City":"Anaheim","State":"CA","Zip":"92807"},{"Location":"MARIE CALENDER #83","Address":"5711 E La Palma Ave","City":"Anaheim","State":"CA","Zip":"92807"},{"Location":"MASSAGE ENVY","Address":"5769 E Santa Ana Canyon Rd","City":"Anaheim","State":"CA","Zip":"92807"},{"Location":"MATRIX SERVICES","Address":"5449 E La Palma Ave","City":"Anaheim","State":"CA","Zip":"92807"},{"Location":"MEDCO PRODUCTS INC","Address":"3863 E Eagle Dr","City":"Anaheim","State":"CA","Zip":"92807"},{"Location":"MEXICO RESTAURANT","Address":"6300 E Santa Ana Canyon Rd","City":"Anaheim","State":"CA","Zip":"92807"},{"Location":"MORPHOTRAK","Address":"1250 N Tustin Ave","City":"Anaheim","State":"CA","Zip":"92807"},{"Location":"MV MARKETING","Address":"1133 N Tustin Ave","City":"Anaheim","State":"CA","Zip":"92807"},{"Location":"OC HILLS COMPANY","Address":"3514 E Enterprise Dr","City":"Anaheim","State":"CA","Zip":"92807"},{"Location":"OUT OF THE PARK PIZZA","Address":"5638 E La Palma Ave","City":"Anaheim","State":"CA","Zip":"92807"},{"Location":"PACIFIC DECORATING CENTERS","Address":"3811 E La Palma Ave","City":"Anaheim","State":"CA","Zip":"92807"},{"Location":"PACIFIC TRANSFORMER CORP","Address":"5399 E Hunter Ave","City":"Anaheim","State":"CA","Zip":"92807"},{"Location":"PACIFIC UTILITY INSTALLATION","Address":"1585 N Harmony Cir","City":"Anaheim","State":"CA","Zip":"92807"},{"Location":"PACIFIC WESTERN TECHNOLOGY","Address":"1510 N Lakeview Ave","City":"Anaheim","State":"CA","Zip":"92807"},{"Location":"PETROMAX INC","Address":"5650 E La Palma Ave","City":"Anaheim","State":"CA","Zip":"92807"},{"Location":"PLANTATION CLEANER","Address":"5031 E Orangethorpe Ave F","City":"Anaheim","State":"CA","Zip":"92807"},{"Location":"PON INTERNATIONAL SALON","Address":"5655 E La Palma Ave","City":"Anaheim","State":"CA","Zip":"92807"},{"Location":"PREFERRED TRANSPORTATION","Address":"970 N Tustin Ave 203","City":"Anaheim","State":"CA","Zip":"92807"},{"Location":"REMART OVERSTOCK","Address":"1011 N Tustin Ave","City":"Anaheim","State":"CA","Zip":"92807"},{"Location":"REUNION KITCHEN","Address":"5775 E Santa Ana Canyon Rd","City":"Anaheim","State":"CA","Zip":"92807"},{"Location":"ROBERT J MARRIOT MED COR","Address":"5475 E La Palma Ave Ste20","City":"Anaheim","State":"CA","Zip":"92807"},{"Location":"ROCKN ROAD CYCLERY","Address":"5701 E Santa Ana Canyon Rd F","City":"Anaheim","State":"CA","Zip":"92807"},{"Location":"RUSNAK AUTO GROUP","Address":"5401 E La Palma Ave","City":"Anaheim","State":"CA","Zip":"92807"},{"Location":"S AND E SYSTEMS INC","Address":"1215 N Tustin Ave","City":"Anaheim","State":"CA","Zip":"92807"},{"Location":"S M K HEATING AND AIR INC","Address":"1505 N Harmony Cir","City":"Anaheim","State":"CA","Zip":"92807"},{"Location":"SAMMYS BAR AND GRILL","Address":"5645 E La Palma Ave","City":"Anaheim","State":"CA","Zip":"92807"},{"Location":"SCOTTS BARBER SHOP","Address":"5031 E Orangethorpe Ave","City":"Anaheim","State":"CA","Zip":"92807"},{"Location":"SLATER'S 50 50","Address":"6362 E Santa Ana Canyon Rd","City":"Anaheim","State":"CA","Zip":"92807"},{"Location":"SMITH EMERY LABORTORY","Address":"1197 N Tustin Ave","City":"Anaheim","State":"CA","Zip":"92807"},{"Location":"STIX HOLDINGS 781","Address":"5576 E Santa Ana Canyon Rd","City":"Anaheim","State":"CA","Zip":"92807"},{"Location":"SUITE 115","Address":"115 E La Palma","City":"Anaheim","State":"CA","Zip":"92807"},{"Location":"SUPERIOR POOL PRODUCTS LLC","Address":"4900 E Landon Dr","City":"Anaheim","State":"CA","Zip":"92807"},{"Location":"SUSHI %40 SUSHI","Address":"414 N Lakeview Ave","City":"Anaheim","State":"CA","Zip":"92807"},{"Location":"SYNMAR ASSOCIATES","Address":"4222 E La Palma Ave","City":"Anaheim","State":"CA","Zip":"92807"},{"Location":"THAI LINGO","Address":"118 N Tustin Ave","City":"Anaheim","State":"CA","Zip":"92807"},{"Location":"THE OFFICE","Address":"4411 E Palma Ave","City":"Anaheim","State":"CA","Zip":"92807"},{"Location":"TITAN POOLS INC","Address":"5765 Santa Ana Cayna Road B","City":"Anaheim","State":"CA","Zip":"92807"},{"Location":"TOMS PLACE","Address":"4477 E La Palma Ave","City":"Anaheim","State":"CA","Zip":"92807"},{"Location":"TOP CLASS PIZZA","Address":"1026 N Tustin Ave","City":"Anaheim","State":"CA","Zip":"92807"},{"Location":"TOTAL RECON SOLUTIONS","Address":"1320 N Tustin Ave","City":"Anaheim","State":"CA","Zip":"92807"},{"Location":"VINCE MURACA","Address":"4245 E La Palma Ave","City":"Anaheim","State":"CA","Zip":"92807"},{"Location":"VISIONS TINT INC","Address":"1024 N Tustin Ave","City":"Anaheim","State":"CA","Zip":"92807"},{"Location":"WEIR CANYON ACURA","Address":"8375 E La Palma Ave","City":"Anaheim","State":"CA","Zip":"92807"},{"Location":"WESCOM CREDIT UNION","Address":"5601 E La Palma Ave","City":"Anaheim","State":"CA","Zip":"92807"},{"Location":"WESTERN WELL TOOL INC","Address":"1150 N Tustin Ave","City":"Anaheim","State":"CA","Zip":"92807"},{"Location":"YAGI JAPANESE RESTAURANT","Address":"6324 E Santa Ana Canyon Rd","City":"Anaheim","State":"CA","Zip":"92807"},{"Location":"YVES BISTRO","Address":"5753 E Santa Ana Canyon Rd A","City":"Anaheim","State":"CA","Zip":"92807"},{"Location":"Z PIZZA","Address":"5745 E Santa Ana Canyon Rd","City":"Anaheim","State":"CA","Zip":"92807"},{"Location":"ZESTY THAI BISTRO INC","Address":"430 S Anaheim Hills Rd","City":"Anaheim","State":"CA","Zip":"92807"},{"Location":"ZITO'S PIZZA","Address":"5572 E Santa Ana Canyon Rd","City":"Anaheim","State":"CA","Zip":"92807"},{"Location":"PACIFIC DENTAL-ANAHEIM HILLS","Address":"5731 E Santa Ana Canyon Rd A","City":"Anaheim Hills","State":"CA","Zip":"92807"},{"Location":"PEPPERONI'S PIZZA #2","Address":"6304 E Santa Canyon Rd","City":"Anaheim Hills","State":"CA","Zip":"92807"}]