[{"Location":"24 HOUR FITNESS #195","Address":"300 S Festival Dr","City":"Anaheim","State":"CA","Zip":"92808"},{"Location":"AJ  HOO CORPORATION","Address":"8257 E Santa Ana Canyon Rd A","City":"Anaheim","State":"CA","Zip":"92808"},{"Location":"BJS RESTAURANT #518","Address":"8188 E Santa Ana Canyon Rd","City":"Anaheim","State":"CA","Zip":"92808"},{"Location":"BOMEL CONSTRUCTION","Address":"701 Paloma Airport Rd 270","City":"Anaheim","State":"CA","Zip":"92808"},{"Location":"BOMEL CONSTRUCTION CO%2C INC.","Address":"8195 E Kaiser Blvd","City":"Anaheim","State":"CA","Zip":"92808"},{"Location":"CAFE MAIZ","Address":"8200 E Santa Ana Canyon Rd","City":"Anaheim","State":"CA","Zip":"92808"},{"Location":"CANNON AND NELMS","Address":"160 S Old Springs Rd 200","City":"Anaheim","State":"CA","Zip":"92808"},{"Location":"DOMO SUSHI","Address":"8285 E Santa Ana Canyon Rd 120","City":"Anaheim","State":"CA","Zip":"92808"},{"Location":"EMBELLISH NAILS & SPA","Address":"144 S Fairmont Blvd","City":"Anaheim","State":"CA","Zip":"92808"},{"Location":"FUSION SUSHI","Address":"8086 E Santa Ana Canyon Rd","City":"Anaheim","State":"CA","Zip":"92808"},{"Location":"HEALTHY ACCUPUNTER CENTER","Address":"902 S Dylan Way","City":"Anaheim","State":"CA","Zip":"92808"},{"Location":"HOMELOAN SOLUTIONS","Address":"8175 E Kaiser Blvd 204","City":"Anaheim","State":"CA","Zip":"92808"},{"Location":"ISLANDS RESTAURANT #048","Address":"105 S Festival Dr","City":"Anaheim","State":"CA","Zip":"92808"},{"Location":"KERRY FIELDS","Address":"115 S Chaparral Ct","City":"Anaheim","State":"CA","Zip":"92808"},{"Location":"MACARONI GRILL #1257","Address":"8150 E Santa Ana Canyon Rd","City":"Anaheim","State":"CA","Zip":"92808"},{"Location":"MCGRAW INSURANCE","Address":"8185 E Kaiser Blvd 3","City":"Anaheim","State":"CA","Zip":"92808"},{"Location":"NATIONAL URGENT CARE HOL","Address":"751 S Weir Canyon Rd","City":"Anaheim","State":"CA","Zip":"92808"},{"Location":"OC MULTI SPECIALTY SVC CTR","Address":"145 S Chaparral Ct 101","City":"Anaheim","State":"CA","Zip":"92808"},{"Location":"ORANGE PSYC CORONA","Address":"841 S Orchid Ln","City":"Anaheim","State":"CA","Zip":"92808"},{"Location":"PARSEC AUTOMATION CORP","Address":"180 N Riverview Dr 300","City":"Anaheim","State":"CA","Zip":"92808"},{"Location":"POWERS CAPITAL INVESTMENTS","Address":"8141 E Kaiser Blvd 300","City":"Anaheim","State":"CA","Zip":"92808"},{"Location":"SCHOOLS FIRST FED CRED UNION2","Address":"8160 E Santa Ana Canyon Rd 18","City":"Anaheim","State":"CA","Zip":"92808"},{"Location":"SENOR BAJA","Address":"701 S Weir Canyon Rd 107","City":"Anaheim","State":"CA","Zip":"92808"},{"Location":"STRONG INVESTMENT MGMT","Address":"8101 E Kaiser Blvd 100","City":"Anaheim","State":"CA","Zip":"92808"},{"Location":"TARGET STORE 677","Address":"8148 E Santa Ana Canyon Rd","City":"Anaheim","State":"CA","Zip":"92808"},{"Location":"WOOD RANCH BBQ & GRILL","Address":"8022 E Santa Ana Canyon Rd","City":"Anaheim","State":"CA","Zip":"92808"},{"Location":"COLOR ME","Address":"8018 E Santa Ana Canyon Rd","City":"Anaheim Hills","State":"CA","Zip":"92808"},{"Location":"24 HOUR FITNESS #195","Address":"300 S Festival Dr","City":"Anaheim","State":"CA","Zip":"92808"},{"Location":"AJ  HOO CORPORATION","Address":"8257 E Santa Ana Canyon Rd A","City":"Anaheim","State":"CA","Zip":"92808"},{"Location":"BJS RESTAURANT #518","Address":"8188 E Santa Ana Canyon Rd","City":"Anaheim","State":"CA","Zip":"92808"},{"Location":"BOMEL CONSTRUCTION","Address":"701 Paloma Airport Rd 270","City":"Anaheim","State":"CA","Zip":"92808"},{"Location":"BOMEL CONSTRUCTION CO%2C INC.","Address":"8195 E Kaiser Blvd","City":"Anaheim","State":"CA","Zip":"92808"},{"Location":"CAFE MAIZ","Address":"8200 E Santa Ana Canyon Rd","City":"Anaheim","State":"CA","Zip":"92808"},{"Location":"CANNON AND NELMS","Address":"160 S Old Springs Rd 200","City":"Anaheim","State":"CA","Zip":"92808"},{"Location":"DOMO SUSHI","Address":"8285 E Santa Ana Canyon Rd 120","City":"Anaheim","State":"CA","Zip":"92808"},{"Location":"EMBELLISH NAILS & SPA","Address":"144 S Fairmont Blvd","City":"Anaheim","State":"CA","Zip":"92808"},{"Location":"FUSION SUSHI","Address":"8086 E Santa Ana Canyon Rd","City":"Anaheim","State":"CA","Zip":"92808"},{"Location":"HEALTHY ACCUPUNTER CENTER","Address":"902 S Dylan Way","City":"Anaheim","State":"CA","Zip":"92808"},{"Location":"HOMELOAN SOLUTIONS","Address":"8175 E Kaiser Blvd 204","City":"Anaheim","State":"CA","Zip":"92808"},{"Location":"ISLANDS RESTAURANT #048","Address":"105 S Festival Dr","City":"Anaheim","State":"CA","Zip":"92808"},{"Location":"KERRY FIELDS","Address":"115 S Chaparral Ct","City":"Anaheim","State":"CA","Zip":"92808"},{"Location":"MACARONI GRILL #1257","Address":"8150 E Santa Ana Canyon Rd","City":"Anaheim","State":"CA","Zip":"92808"},{"Location":"MCGRAW INSURANCE","Address":"8185 E Kaiser Blvd 3","City":"Anaheim","State":"CA","Zip":"92808"},{"Location":"NATIONAL URGENT CARE HOL","Address":"751 S Weir Canyon Rd","City":"Anaheim","State":"CA","Zip":"92808"},{"Location":"OC MULTI SPECIALTY SVC CTR","Address":"145 S Chaparral Ct 101","City":"Anaheim","State":"CA","Zip":"92808"},{"Location":"ORANGE PSYC CORONA","Address":"841 S Orchid Ln","City":"Anaheim","State":"CA","Zip":"92808"},{"Location":"PARSEC AUTOMATION CORP","Address":"180 N Riverview Dr 300","City":"Anaheim","State":"CA","Zip":"92808"},{"Location":"POWERS CAPITAL INVESTMENTS","Address":"8141 E Kaiser Blvd 300","City":"Anaheim","State":"CA","Zip":"92808"},{"Location":"SCHOOLS FIRST FED CRED UNION2","Address":"8160 E Santa Ana Canyon Rd 18","City":"Anaheim","State":"CA","Zip":"92808"},{"Location":"SENOR BAJA","Address":"701 S Weir Canyon Rd 107","City":"Anaheim","State":"CA","Zip":"92808"},{"Location":"STRONG INVESTMENT MGMT","Address":"8101 E Kaiser Blvd 100","City":"Anaheim","State":"CA","Zip":"92808"},{"Location":"TARGET STORE 677","Address":"8148 E Santa Ana Canyon Rd","City":"Anaheim","State":"CA","Zip":"92808"},{"Location":"WOOD RANCH BBQ & GRILL","Address":"8022 E Santa Ana Canyon Rd","City":"Anaheim","State":"CA","Zip":"92808"},{"Location":"COLOR ME","Address":"8018 E Santa Ana Canyon Rd","City":"Anaheim Hills","State":"CA","Zip":"92808"}]