[{"Location":"A LIGHTING BY DESIGN","Address":"2912 E Blue Star St","City":"Anaheim","State":"CA","Zip":"92806"},{"Location":"ACCURATE INDUSTRIAL CONSTRU","Address":"1140 N Van Horne Way","City":"Anaheim","State":"CA","Zip":"92806"},{"Location":"ADAMS STEEL","Address":"3200 E Frontera St","City":"Anaheim","State":"CA","Zip":"92806"},{"Location":"ADVANTAGE SALES & MARKETING","Address":"1400 S Douglass Rd 200","City":"Anaheim","State":"CA","Zip":"92806"},{"Location":"AFA CLAIMS SERVICES","Address":"2390 E Orangewood Ave 250","City":"Anaheim","State":"CA","Zip":"92806"},{"Location":"ALBUS KEEFE AND ASSOICATES INC","Address":"1011 N Armando St","City":"Anaheim","State":"CA","Zip":"92806"},{"Location":"ALEA CAFE","Address":"3371 E Miraloma Ave","City":"Anaheim","State":"CA","Zip":"92806"},{"Location":"ALL MET","Address":"1401 N Miller St","City":"Anaheim","State":"CA","Zip":"92806"},{"Location":"AMERICAN TEAM MANAGEMENT","Address":"1030 N Armando St","City":"Anaheim","State":"CA","Zip":"92806"},{"Location":"ANAHEIM MITSUBISHI","Address":"1300 S Auto Center Dr","City":"Anaheim","State":"CA","Zip":"92806"},{"Location":"ANAHEIM TENNIS CENTER","Address":"975 S State College Blvd","City":"Anaheim","State":"CA","Zip":"92806"},{"Location":"ANAHEIM WHEEL TIRE","Address":"3421 E La Palma Ave","City":"Anaheim","State":"CA","Zip":"92806"},{"Location":"ANGELOS HAMBURGERS","Address":"511 S State College Blvd","City":"Anaheim","State":"CA","Zip":"92806"},{"Location":"ANGELS  SPORTS BAR AND GRILL","Address":"3020 E Coronado St","City":"Anaheim","State":"CA","Zip":"92806"},{"Location":"ANGELS AD SALES DEPT","Address":"2000 E Gene Autry Way","City":"Anaheim","State":"CA","Zip":"92806"},{"Location":"ANGELS BASEBALL","Address":"2000 E Gene Autry Way","City":"Anaheim","State":"CA","Zip":"92806"},{"Location":"ANGELS BASEBALL LP 2","Address":"2000 E Gene Autry Way","City":"Anaheim","State":"CA","Zip":"92806"},{"Location":"ANGELS BASEBALL%2FDENNIS KUHL","Address":"2000 E Gene Autry Way","City":"Anaheim","State":"CA","Zip":"92806"},{"Location":"ANGELS BB VIDEO CONTROL","Address":"2000 E Gene Autry Way","City":"Anaheim","State":"CA","Zip":"92806"},{"Location":"ANGELS STADIUM-COORS BAR","Address":"2000 E Gene Autry Way","City":"Anaheim","State":"CA","Zip":"92806"},{"Location":"ARCHITECTURAL FINISHING","Address":"1230 N La Loma Cir","City":"Anaheim","State":"CA","Zip":"92806"},{"Location":"ARTWORK BY Q","Address":"1161 N Cosby Way J","City":"Anaheim","State":"CA","Zip":"92806"},{"Location":"ASTROPACKAGING","Address":"3845 E Miraloma Ave A","City":"Anaheim","State":"CA","Zip":"92806"},{"Location":"AUTOCRAFT AUTO BODY","Address":"2880 E Miraloma Ave","City":"Anaheim","State":"CA","Zip":"92806"},{"Location":"BECKER TIRE","Address":"1281 N Kraemer Blvd","City":"Anaheim","State":"CA","Zip":"92806"},{"Location":"BELMONT CAPETS & WOODFLOOR","Address":"1310 S State College Blvd","City":"Anaheim","State":"CA","Zip":"92806"},{"Location":"BENCHMARK WEALTH MANAGEM","Address":"2300 E Katella Ave 400","City":"Anaheim","State":"CA","Zip":"92806"},{"Location":"BENIHANA #1020 ANAHEIM","Address":"2100 E Ball Rd","City":"Anaheim","State":"CA","Zip":"92806"},{"Location":"BETTER OPTIONS 1","Address":"1725 S Douglass Rd E","City":"Anaheim","State":"CA","Zip":"92806"},{"Location":"BIG O TIRE","Address":"2021 E La Palma Ave","City":"Anaheim","State":"CA","Zip":"92806"},{"Location":"BISTRO 3100","Address":"3100 E Frontera St","City":"Anaheim","State":"CA","Zip":"92806"},{"Location":"BLAKES PLACE CAFE AND CATERING","Address":"2905 E Miraloma Ave 3","City":"Anaheim","State":"CA","Zip":"92806"},{"Location":"BRIANNAS ICE CREAM","Address":"2107 E Ball Rd","City":"Anaheim","State":"CA","Zip":"92806"},{"Location":"BUNZL","Address":"3310 E Miraloma Ave","City":"Anaheim","State":"CA","Zip":"92806"},{"Location":"BURGER BOY","Address":"1650 S State College Blvd","City":"Anaheim","State":"CA","Zip":"92806"},{"Location":"BUTLER CHEMICALS INC","Address":"3070 E Ceena Ct","City":"Anaheim","State":"CA","Zip":"92806"},{"Location":"BUY LOW MARKET","Address":"1086 N State College Blvd","City":"Anaheim","State":"CA","Zip":"92806"},{"Location":"CALIVINO WINE PUB","Address":"2410 E Katella Ave","City":"Anaheim","State":"CA","Zip":"92806"},{"Location":"CAP GEMINI BUSINES SERVICES US","Address":"2099 S State College Blvd 600","City":"Anaheim","State":"CA","Zip":"92806"},{"Location":"CASH CALL","Address":"1900 S State College Blvd 600","City":"Anaheim","State":"CA","Zip":"92806"},{"Location":"CCDA WATERS LLC","Address":"2121 E Winston Rd","City":"Anaheim","State":"CA","Zip":"92806"},{"Location":"CENTAURUS FINANCIAL INC","Address":"2300 E Katella Ave 200","City":"Anaheim","State":"CA","Zip":"92806"},{"Location":"CHATTERTON & ASSOCIATES","Address":"3061 E La Palma Ave","City":"Anaheim","State":"CA","Zip":"92806"},{"Location":"CHILDREN'S DENTAL GROUP","Address":"2156 E Lincoln Ave","City":"Anaheim","State":"CA","Zip":"92806"},{"Location":"CHUNG HO USA","Address":"1240 N Simon Cir A","City":"Anaheim","State":"CA","Zip":"92806"},{"Location":"CLEANCUT TECHNOLOGIES","Address":"1145 N Ocean Cir","City":"Anaheim","State":"CA","Zip":"92806"},{"Location":"CLIPS AND FASTENERS INC","Address":"3162 E La Palma Ave B","City":"Anaheim","State":"CA","Zip":"92806"},{"Location":"COMMERCIAL FLOORING INSTALL","Address":"3315 E Miraloma Ave 120","City":"Anaheim","State":"CA","Zip":"92806"},{"Location":"CONCOURSE FAMILY BOWLING","Address":"3364 E La Palma Ave","City":"Anaheim","State":"CA","Zip":"92806"},{"Location":"CP PRODUCTS","Address":"2700 E Regal Park Dr","City":"Anaheim","State":"CA","Zip":"92806"},{"Location":"CTM WELDING","Address":"1345 N Dynamics St","City":"Anaheim","State":"CA","Zip":"92806"},{"Location":"DALTILE","Address":"1600 S Page Ct","City":"Anaheim","State":"CA","Zip":"92806"},{"Location":"DISPLAY FABRICATION GROUP","Address":"1231 N Miller St 100","City":"Anaheim","State":"CA","Zip":"92806"},{"Location":"DOCTOR JOHNS","Address":"1161 N Cosby Way C","City":"Anaheim","State":"CA","Zip":"92806"},{"Location":"DRETLOH AIRCRAFT SUPPLY","Address":"2830 Lecresta Ave","City":"Anaheim","State":"CA","Zip":"92806"},{"Location":"DRIVER SPG","Address":"1501 S Harris Ct","City":"Anaheim","State":"CA","Zip":"92806"},{"Location":"DTR SOFTWARE","Address":"1729 S Douglass Rd B","City":"Anaheim","State":"CA","Zip":"92806"},{"Location":"EASTSIDE CHRISTIAN CHURCH","Address":"3330 E Miraloma Ave","City":"Anaheim","State":"CA","Zip":"92806"},{"Location":"EL GAUCHO MEAT MARKET","Address":"847 S State College Blvd","City":"Anaheim","State":"CA","Zip":"92806"},{"Location":"EL TORITO 7036","Address":"2020 E Ball Rd","City":"Anaheim","State":"CA","Zip":"92806"},{"Location":"ELECTRO METAL FINISHING","Address":"1194 N Grove St","City":"Anaheim","State":"CA","Zip":"92806"},{"Location":"ELEGANZA TILES","Address":"3125 E Coronado St","City":"Anaheim","State":"CA","Zip":"92806"},{"Location":"ELITE MEDICAL MANAGEMENT","Address":"685 N Shepard St","City":"Anaheim","State":"CA","Zip":"92806"},{"Location":"EPN - JESUS GONALEZ","Address":"1475 S State College Blvd 118","City":"Anaheim","State":"CA","Zip":"92806"},{"Location":"EVERLAST CARPET CLEANING","Address":"1040 N Grove St Q","City":"Anaheim","State":"CA","Zip":"92806"},{"Location":"EXPRESS  CARPET","Address":"1440 S State College Blvd 6b","City":"Anaheim","State":"CA","Zip":"92806"},{"Location":"FLIGHTDECK AIR COMBAT CE","Address":"1650 S Sinclair St","City":"Anaheim","State":"CA","Zip":"92806"},{"Location":"FRESCA'S MEXICAN GRILL","Address":"2085 E Katella Ave","City":"Anaheim","State":"CA","Zip":"92806"},{"Location":"FRIEND METALS COMPANY INC","Address":"1160 N Cosby Way","City":"Anaheim","State":"CA","Zip":"92806"},{"Location":"FULLERTON DIGITAL","Address":"1515 N Kraemer Blvd C","City":"Anaheim","State":"CA","Zip":"92806"},{"Location":"GE INTERNATIONAL INC.","Address":"3601 E La Palma Ave","City":"Anaheim","State":"CA","Zip":"92806"},{"Location":"GRANADA SQUARE BARBERS","Address":"1090 N State College Blvd","City":"Anaheim","State":"CA","Zip":"92806"},{"Location":"GRANADA SQUARE BARBERS 2","Address":"2103 E Ball Rd","City":"Anaheim","State":"CA","Zip":"92806"},{"Location":"GRANITE TRANSFORMATION","Address":"2990 E La Palma Ave","City":"Anaheim","State":"CA","Zip":"92806"},{"Location":"GREAT AMERICAN REFINERY","Address":"1020 N Armando St","City":"Anaheim","State":"CA","Zip":"92806"},{"Location":"GREAT TASTE INC","Address":"1009 N State College Blvd","City":"Anaheim","State":"CA","Zip":"92806"},{"Location":"GRETTA INDUSTRIAL PARK","Address":"2860 E Gretta Ln A","City":"Anaheim","State":"CA","Zip":"92806"},{"Location":"HARDIN BUICK GMC","Address":"1321 S Auto Center Dr","City":"Anaheim","State":"CA","Zip":"92806"},{"Location":"HARDIN HONDA 1","Address":"1381 S Auto Center Dr","City":"Anaheim","State":"CA","Zip":"92806"},{"Location":"HARDIN HYUNDAI","Address":"1271 S Auto Center Dr","City":"Anaheim","State":"CA","Zip":"92806"},{"Location":"HO TOYS WK  INC","Address":"1177 S State College Blvd A5","City":"Anaheim","State":"CA","Zip":"92806"},{"Location":"HONEYCUTT TEAR-OFF","Address":"2815 E Coronado St","City":"Anaheim","State":"CA","Zip":"92806"},{"Location":"HOOTERS ANAHEIM","Address":"2438 E Katella Ave","City":"Anaheim","State":"CA","Zip":"92806"},{"Location":"IDEAL FASTENERS","Address":"3860 E Miraloma Ave","City":"Anaheim","State":"CA","Zip":"92806"},{"Location":"IMORTGAGE","Address":"2400 E Katella Ave 150","City":"Anaheim","State":"CA","Zip":"92806"},{"Location":"INB FLOORING INC","Address":"1220 N La Loma Cir","City":"Anaheim","State":"CA","Zip":"92806"},{"Location":"J S BARBER","Address":"1023 S State College Blvd","City":"Anaheim","State":"CA","Zip":"92806"},{"Location":"J.T.SCHMID'S BREWHOUSE","Address":"2610 E Katella Ave","City":"Anaheim","State":"CA","Zip":"92806"},{"Location":"JB BOSTICK","Address":"2870 E La Cresta Ave","City":"Anaheim","State":"CA","Zip":"92806"},{"Location":"JIFFY LUBE 1903","Address":"2505 E Lincoln Ave","City":"Anaheim","State":"CA","Zip":"92806"},{"Location":"K1 SPEED ANAHEIM","Address":"1000 N Edward Ct","City":"Anaheim","State":"CA","Zip":"92806"},{"Location":"KDC CONSTRUCTION","Address":"2570 E Cerritos Ave","City":"Anaheim","State":"CA","Zip":"92806"},{"Location":"KENNEDY BASEBALL LLC","Address":"1351 N Kraemer Blvd","City":"Anaheim","State":"CA","Zip":"92806"},{"Location":"KIM RIO VISTA LIQUOR","Address":"2829 E Lincoln Ave","City":"Anaheim","State":"CA","Zip":"92806"},{"Location":"KINETIC PERSONNEL GROUP","Address":"2099 S State College Blvd","City":"Anaheim","State":"CA","Zip":"92806"},{"Location":"KING PIN'S","Address":"3364 E La Palma Ave 1","City":"Anaheim","State":"CA","Zip":"92806"},{"Location":"KLH MARKETING INC","Address":"2120 E Winston Rd","City":"Anaheim","State":"CA","Zip":"92806"},{"Location":"KML ENTERPRISES","Address":"1900 S State College Blvd","City":"Anaheim","State":"CA","Zip":"92806"},{"Location":"LINDLEY FIRE PROTECTION","Address":"2220 E Via Burton","City":"Anaheim","State":"CA","Zip":"92806"},{"Location":"LITHOCRAFT","Address":"1201 N Miller St","City":"Anaheim","State":"CA","Zip":"92806"},{"Location":"LUIGS  DE ITALIA","Address":"801 S State College Blvd","City":"Anaheim","State":"CA","Zip":"92806"},{"Location":"MAJOR LEAGUE BARBERS","Address":"510 S State College Blvd","City":"Anaheim","State":"CA","Zip":"92806"},{"Location":"MALCO MAINTENANCE INC","Address":"3703 E Melville Way","City":"Anaheim","State":"CA","Zip":"92806"},{"Location":"MARAZZI DISTRIBUTION INC","Address":"1340 S State College Blvd","City":"Anaheim","State":"CA","Zip":"92806"},{"Location":"MARISCOS LOS PRIMOS","Address":"1821 S State College Blvd","City":"Anaheim","State":"CA","Zip":"92806"},{"Location":"MARK BEAMISH WATERPROOFING","Address":"2980 E La Jolla St","City":"Anaheim","State":"CA","Zip":"92806"},{"Location":"MASA ROOFING","Address":"2550 E Miraloma Way 100","City":"Anaheim","State":"CA","Zip":"92806"},{"Location":"MCDANIEL CONSTRUCTION","Address":"2899 E Coronado St","City":"Anaheim","State":"CA","Zip":"92806"},{"Location":"MCDONNELL ROOFING INC","Address":"1440 S State College Blvd 2e","City":"Anaheim","State":"CA","Zip":"92806"},{"Location":"MCPA","Address":"1442 N Hundley St","City":"Anaheim","State":"CA","Zip":"92806"},{"Location":"MCPEEKS DODGE OF ANAHEIM","Address":"1221 S Auto Center Dr","City":"Anaheim","State":"CA","Zip":"92806"},{"Location":"MERCURY INS - ANAHEIM","Address":"2121 S Towne Centre Pl 200","City":"Anaheim","State":"CA","Zip":"92806"},{"Location":"MERCY HOUSE","Address":"2543 E Terrace St","City":"Anaheim","State":"CA","Zip":"92806"},{"Location":"MIGHTY DUCKS OF ANAHEIM","Address":"2695 E Katella Ave","City":"Anaheim","State":"CA","Zip":"92806"},{"Location":"MODERN ORTHO","Address":"1601 S Sinclair St L","City":"Anaheim","State":"CA","Zip":"92806"},{"Location":"NACE SHEET METAL COMPANY","Address":"1384 N Hundley St","City":"Anaheim","State":"CA","Zip":"92806"},{"Location":"NEW AMERICAN FUNDING","Address":"2099 S State College Blvd 102","City":"Anaheim","State":"CA","Zip":"92806"},{"Location":"NOBLE ALE WORKS","Address":"1621 S Sinclair St","City":"Anaheim","State":"CA","Zip":"92806"},{"Location":"OC WELDING SERVICES","Address":"1370 N Dynamics St F","City":"Anaheim","State":"CA","Zip":"92806"},{"Location":"ODYSSEY POWER","Address":"625 N Shepard St","City":"Anaheim","State":"CA","Zip":"92806"},{"Location":"OLYMPIA GLASS AND METAL","Address":"2841 E Coronado St","City":"Anaheim","State":"CA","Zip":"92806"},{"Location":"ORANGE COUNTY CIRCUIT BREAKERS","Address":"1015 N Armando St","City":"Anaheim","State":"CA","Zip":"92806"},{"Location":"PACIFIC SUNWEAR","Address":"3450 E Miraloma Ave","City":"Anaheim","State":"CA","Zip":"92806"},{"Location":"PARKER HOME IMPROVEMENT SOURCE","Address":"2935 E Ricker Way","City":"Anaheim","State":"CA","Zip":"92806"},{"Location":"PARTS SOURCE INC","Address":"2911 E La Palma Ave","City":"Anaheim","State":"CA","Zip":"92806"},{"Location":"PATRICK MARTIN","Address":"1911 E Wright Cir","City":"Anaheim","State":"CA","Zip":"92806"},{"Location":"PETERSENDEAN ROOFING","Address":"2210 S Dupont Dr","City":"Anaheim","State":"CA","Zip":"92806"},{"Location":"PIZZA PEPPERO","Address":"726 S State College Blvd","City":"Anaheim","State":"CA","Zip":"92806"},{"Location":"PLATINUM","Address":"1355 S State College Blvd","City":"Anaheim","State":"CA","Zip":"92806"},{"Location":"PRTNERS FED CREDIT UNION","Address":"2401 E Katella Ave","City":"Anaheim","State":"CA","Zip":"92806"},{"Location":"PSS IMAGING  INC.","Address":"1630 S Sunkist St S","City":"Anaheim","State":"CA","Zip":"92806"},{"Location":"PURRFECT AUTO SERVICE","Address":"2222 E Lincoln Ave","City":"Anaheim","State":"CA","Zip":"92806"},{"Location":"REBORN CABINETS","Address":"2981 E La Palma Ave","City":"Anaheim","State":"CA","Zip":"92806"},{"Location":"REFRIGERATION TECHNOLOGIES","Address":"1111 N Armando St","City":"Anaheim","State":"CA","Zip":"92806"},{"Location":"REPTILE INC","Address":"2125 E Howell Ave I","City":"Anaheim","State":"CA","Zip":"92806"},{"Location":"RIO VISTA INN","Address":"200 S Rio Vista St","City":"Anaheim","State":"CA","Zip":"92806"},{"Location":"ROJAS MOTORSPORTS","Address":"1412 N Hundley St","City":"Anaheim","State":"CA","Zip":"92806"},{"Location":"RUBIO'S #194","Address":"2406 E Katella Ave","City":"Anaheim","State":"CA","Zip":"92806"},{"Location":"S A RECYCLING","Address":"3200 E Frontera St","City":"Anaheim","State":"CA","Zip":"92806"},{"Location":"S&W GOLF","Address":"14893 Ball Rd","City":"Anaheim","State":"CA","Zip":"92806"},{"Location":"SECURITAS SECURITY SEVICES USA","Address":"2100 S State College Blvd","City":"Anaheim","State":"CA","Zip":"92806"},{"Location":"SHAMROCK SUPPLY COMPANY","Address":"3366 E La Palma Ave","City":"Anaheim","State":"CA","Zip":"92806"},{"Location":"SLIM DOWN MEDICAL WEIGHT","Address":"716 S State College Blvd","City":"Anaheim","State":"CA","Zip":"92806"},{"Location":"SOUTHERN CALIFORNIA GAS","Address":"1919 S State College Blvd","City":"Anaheim","State":"CA","Zip":"92806"},{"Location":"SPORTS TRAINING COMPLEX","Address":"1590 S Sinclair St","City":"Anaheim","State":"CA","Zip":"92806"},{"Location":"STEEL CASTLE CAPITAL","Address":"2400 E Katella Ave 370","City":"Anaheim","State":"CA","Zip":"92806"},{"Location":"STUBHUB","Address":"2400 E Katella Ave 160","City":"Anaheim","State":"CA","Zip":"92806"},{"Location":"STYLES FOR LESS","Address":"1205 N Miller St","City":"Anaheim","State":"CA","Zip":"92806"},{"Location":"SYNTHETIC GRASS WAREHOUSE","Address":"1400 N Daly St","City":"Anaheim","State":"CA","Zip":"92806"},{"Location":"T AND J SAUSAGE KITCHEN INC","Address":"2831 E Miraloma Ave","City":"Anaheim","State":"CA","Zip":"92806"},{"Location":"TABOO GENTLEMENS","Address":"3025 E La Mesa St","City":"Anaheim","State":"CA","Zip":"92806"},{"Location":"TAQUERIA ESCALANTE","Address":"1107 N State College Blvd","City":"Anaheim","State":"CA","Zip":"92806"},{"Location":"TARGUS","Address":"1211 N Miller St","City":"Anaheim","State":"CA","Zip":"92806"},{"Location":"TEAM SAHARA","Address":"1210 S State College Blvd C","City":"Anaheim","State":"CA","Zip":"92806"},{"Location":"THE BRUERY","Address":"1174 N Grove St","City":"Anaheim","State":"CA","Zip":"92806"},{"Location":"THE CATCH  RESTAURANT","Address":"2100 E Katella Ave","City":"Anaheim","State":"CA","Zip":"92806"},{"Location":"THE FLAME BROILER","Address":"2100 E Katella Ave 100","City":"Anaheim","State":"CA","Zip":"92806"},{"Location":"THE GROVE OF ANAHEIM","Address":"2200 E Katella Ave","City":"Anaheim","State":"CA","Zip":"92806"},{"Location":"THE PHOENIX CLUB","Address":"1340 S Sanderson Ave","City":"Anaheim","State":"CA","Zip":"92806"},{"Location":"THE WILLARD MARINE INC","Address":"1250 N Grove St","City":"Anaheim","State":"CA","Zip":"92806"},{"Location":"TODD PIPE AND SUPPLY","Address":"1005 N Edward Ct","City":"Anaheim","State":"CA","Zip":"92806"},{"Location":"TOP OF THE LINE TICKETS","Address":"2620 E Katella Ave A","City":"Anaheim","State":"CA","Zip":"92806"},{"Location":"TOTAL ENVIRONMENTAL MANAGEMENT","Address":"1415 N Burton Pl","City":"Anaheim","State":"CA","Zip":"92806"},{"Location":"TRI STAR CONSTRUCTION INC","Address":"1270 N La Loma Cir","City":"Anaheim","State":"CA","Zip":"92806"},{"Location":"TRUFORM CONSTRUCTION CORP","Address":"1041 N Shepard St","City":"Anaheim","State":"CA","Zip":"92806"},{"Location":"TUMMY STUFFER SANDWICHES","Address":"3192 E La Palma Ave","City":"Anaheim","State":"CA","Zip":"92806"},{"Location":"TURNER CONSTRUCTION","Address":"1900 S State College Blvd","City":"Anaheim","State":"CA","Zip":"92806"},{"Location":"UPRITE ELECTRIC","Address":"1161 N Kraemer Blvd","City":"Anaheim","State":"CA","Zip":"92806"},{"Location":"VERIZON WIRELESS","Address":"1641 S Sunkist St","City":"Anaheim","State":"CA","Zip":"92806"},{"Location":"VICAL METALS","Address":"1400 N Baxter St","City":"Anaheim","State":"CA","Zip":"92806"},{"Location":"VIP TACOS","Address":"2790 E Lincoln Ave","City":"Anaheim","State":"CA","Zip":"92806"},{"Location":"WABA GRILL","Address":"2016 E Lincoln Ave","City":"Anaheim","State":"CA","Zip":"92806"},{"Location":"WESTPORT DENTAL","Address":"420 S State College Blvd","City":"Anaheim","State":"CA","Zip":"92806"},{"Location":"WICKOFF RACING","Address":"2352 E Orangethorpe Ave","City":"Anaheim","State":"CA","Zip":"92806"}]