[{"Location":"ANAHEIM WEST CAR WASH 1","Address":"10802 Katella Ave","City":"Anaheim","State":"CA","Zip":"92804"},{"Location":"C & C","Address":"9880 Katella Ave","City":"Anaheim","State":"CA","Zip":"92804"},{"Location":"CAFE GAMINO","Address":"1228 S Brookhurst St","City":"Anaheim","State":"CA","Zip":"92804"},{"Location":"CALIFORNIA GIRLS","Address":"815 S Brookhurst St","City":"Anaheim","State":"CA","Zip":"92804"},{"Location":"CALIFORNIAS GRILL","Address":"499 S Brookhurst St","City":"Anaheim","State":"CA","Zip":"92804"},{"Location":"CARNICERIA GUERRERO","Address":"9041 Cerritos Ave","City":"Anaheim","State":"CA","Zip":"92804"},{"Location":"CHIN G. KIM M. D.","Address":"3400 W Ball Rd 208","City":"Anaheim","State":"CA","Zip":"92804"},{"Location":"CORTINA FOODS INC","Address":"2175 W Orange Ave","City":"Anaheim","State":"CA","Zip":"92804"},{"Location":"DREAM CAFE","Address":"830 S Brookhurst St","City":"Anaheim","State":"CA","Zip":"92804"},{"Location":"EDWARD M. KRAMER MD","Address":"3055 W Orange Ave 207","City":"Anaheim","State":"CA","Zip":"92804"},{"Location":"EL CARBONERO","Address":"9516 Katella Ave","City":"Anaheim","State":"CA","Zip":"92804"},{"Location":"EL CAVALIER CANTINA","Address":"417 S Brookhurst St","City":"Anaheim","State":"CA","Zip":"92804"},{"Location":"EL-TATA MEXICAN","Address":"1867 W Katella Ave","City":"Anaheim","State":"CA","Zip":"92804"},{"Location":"FIFTEENS","Address":"8901 Katella Ave","City":"Anaheim","State":"CA","Zip":"92804"},{"Location":"FIRESTONE #592811","Address":"1200 S Magnolia Ave","City":"Anaheim","State":"CA","Zip":"92804"},{"Location":"GAREYS 1 STOP AUTO INC","Address":"8971 Katella Ave","City":"Anaheim","State":"CA","Zip":"92804"},{"Location":"GUERRERO MEXICAN GRILL","Address":"720 S Beach Blvd","City":"Anaheim","State":"CA","Zip":"92804"},{"Location":"HIDDEN CAFE","Address":"642 S Brookhurst St","City":"Anaheim","State":"CA","Zip":"92804"},{"Location":"JIFFY LUBE 1028","Address":"2400 W Ball Rd","City":"Anaheim","State":"CA","Zip":"92804"},{"Location":"KST STREET INC%2FGOOD OL BOY SAL","Address":"10624 Katella Ave","City":"Anaheim","State":"CA","Zip":"92804"},{"Location":"LIN BROOK BOWL","Address":"201 S Brookhurst St","City":"Anaheim","State":"CA","Zip":"92804"},{"Location":"LITTLE DRAGON EXPRESS","Address":"2966 W Ball Rd","City":"Anaheim","State":"CA","Zip":"92804"},{"Location":"LOS ALAZANES MEXICAN FOO","Address":"980 S Knott Ave","City":"Anaheim","State":"CA","Zip":"92804"},{"Location":"MAMA COZZA'S","Address":"2170 W Ball Rd","City":"Anaheim","State":"CA","Zip":"92804"},{"Location":"MD MEDICAL CORP","Address":"3010 W Orange Ave 201","City":"Anaheim","State":"CA","Zip":"92804"},{"Location":"MEXICO LINDO","Address":"10962 Magnolia Ave","City":"Anaheim","State":"CA","Zip":"92804"},{"Location":"MJS PINOY FIESTA","Address":"2806 W Ball Rd","City":"Anaheim","State":"CA","Zip":"92804"},{"Location":"NICE NAILS","Address":"3450 W Orange Ave","City":"Anaheim","State":"CA","Zip":"92804"},{"Location":"NOEMI TAGUINOD DENTAL CORP","Address":"408 S Beach Blvd 113","City":"Anaheim","State":"CA","Zip":"92804"},{"Location":"NOGUCHUI NELSON MD","Address":"3055 W Orange Ave 203","City":"Anaheim","State":"CA","Zip":"92804"},{"Location":"NONAHAL DENT CORP","Address":"8516 Katella Ave","City":"Anaheim","State":"CA","Zip":"92804"},{"Location":"OASIS BAR","Address":"10488 Knott Ave","City":"Anaheim","State":"CA","Zip":"92804"},{"Location":"ORANGE COUNTY ORTHOPEDICS","Address":"3010 W Orange Ave 507","City":"Anaheim","State":"CA","Zip":"92804"},{"Location":"PARK ANAHEIM HEALTHCARE CENTER","Address":"3435 W Ball Rd","City":"Anaheim","State":"CA","Zip":"92804"},{"Location":"PIZZA HUT #024839","Address":"301 S Magnolia Ave","City":"Anaheim","State":"CA","Zip":"92804"},{"Location":"PIZZA PEPPERO","Address":"646 S Brookhurst St","City":"Anaheim","State":"CA","Zip":"92804"},{"Location":"RONDA RAE PRESCHOOL","Address":"900 S Knott Ave","City":"Anaheim","State":"CA","Zip":"92804"},{"Location":"STATION 11","Address":"3078 W Orange Ave","City":"Anaheim","State":"CA","Zip":"92804"},{"Location":"TAKE 5","Address":"10570 Magnolia Ave","City":"Anaheim","State":"CA","Zip":"92804"},{"Location":"THE ABBY PAVILION","Address":"3415 W Ball Rd","City":"Anaheim","State":"CA","Zip":"92804"},{"Location":"THE CORONADO","Address":"1274 S Magnolia Ave","City":"Anaheim","State":"CA","Zip":"92804"},{"Location":"THE CUT","Address":"9774 Katella Ave","City":"Anaheim","State":"CA","Zip":"92804"},{"Location":"THREE FIVES INVESTMENTS","Address":"2822 W Ball Rd","City":"Anaheim","State":"CA","Zip":"92804"},{"Location":"UNTOUCHABLES BARBER SHOP","Address":"586 S Brookhurst St","City":"Anaheim","State":"CA","Zip":"92804"},{"Location":"VAPE20","Address":"2601 W Ball Rd 204","City":"Anaheim","State":"CA","Zip":"92804"},{"Location":"WEST ANAHEIM MEDICAL CENTER","Address":"3033 W Orange Ave","City":"Anaheim","State":"CA","Zip":"92804"},{"Location":"YOGI TERIYAKI","Address":"107 S Brookhurst St","City":"Anaheim","State":"CA","Zip":"92804"},{"Location":"ANAHEIM WEST CAR WASH 1","Address":"10802 Katella Ave","City":"Anaheim","State":"CA","Zip":"92804"},{"Location":"C & C","Address":"9880 Katella Ave","City":"Anaheim","State":"CA","Zip":"92804"},{"Location":"CAFE GAMINO","Address":"1228 S Brookhurst St","City":"Anaheim","State":"CA","Zip":"92804"},{"Location":"CALIFORNIA GIRLS","Address":"815 S Brookhurst St","City":"Anaheim","State":"CA","Zip":"92804"},{"Location":"CALIFORNIAS GRILL","Address":"499 S Brookhurst St","City":"Anaheim","State":"CA","Zip":"92804"},{"Location":"CARNICERIA GUERRERO","Address":"9041 Cerritos Ave","City":"Anaheim","State":"CA","Zip":"92804"},{"Location":"CHIN G. KIM M. D.","Address":"3400 W Ball Rd 208","City":"Anaheim","State":"CA","Zip":"92804"},{"Location":"CORTINA FOODS INC","Address":"2175 W Orange Ave","City":"Anaheim","State":"CA","Zip":"92804"},{"Location":"DREAM CAFE","Address":"830 S Brookhurst St","City":"Anaheim","State":"CA","Zip":"92804"},{"Location":"EDWARD M. KRAMER MD","Address":"3055 W Orange Ave 207","City":"Anaheim","State":"CA","Zip":"92804"},{"Location":"EL CARBONERO","Address":"9516 Katella Ave","City":"Anaheim","State":"CA","Zip":"92804"},{"Location":"EL CAVALIER CANTINA","Address":"417 S Brookhurst St","City":"Anaheim","State":"CA","Zip":"92804"},{"Location":"EL-TATA MEXICAN","Address":"1867 W Katella Ave","City":"Anaheim","State":"CA","Zip":"92804"},{"Location":"FIFTEENS","Address":"8901 Katella Ave","City":"Anaheim","State":"CA","Zip":"92804"},{"Location":"FIRESTONE #592811","Address":"1200 S Magnolia Ave","City":"Anaheim","State":"CA","Zip":"92804"},{"Location":"GAREYS 1 STOP AUTO INC","Address":"8971 Katella Ave","City":"Anaheim","State":"CA","Zip":"92804"},{"Location":"GUERRERO MEXICAN GRILL","Address":"720 S Beach Blvd","City":"Anaheim","State":"CA","Zip":"92804"},{"Location":"HIDDEN CAFE","Address":"642 S Brookhurst St","City":"Anaheim","State":"CA","Zip":"92804"},{"Location":"JIFFY LUBE 1028","Address":"2400 W Ball Rd","City":"Anaheim","State":"CA","Zip":"92804"},{"Location":"KST STREET INC%2FGOOD OL BOY SAL","Address":"10624 Katella Ave","City":"Anaheim","State":"CA","Zip":"92804"},{"Location":"LIN BROOK BOWL","Address":"201 S Brookhurst St","City":"Anaheim","State":"CA","Zip":"92804"},{"Location":"LITTLE DRAGON EXPRESS","Address":"2966 W Ball Rd","City":"Anaheim","State":"CA","Zip":"92804"},{"Location":"LOS ALAZANES MEXICAN FOO","Address":"980 S Knott Ave","City":"Anaheim","State":"CA","Zip":"92804"},{"Location":"MAMA COZZA'S","Address":"2170 W Ball Rd","City":"Anaheim","State":"CA","Zip":"92804"},{"Location":"MD MEDICAL CORP","Address":"3010 W Orange Ave 201","City":"Anaheim","State":"CA","Zip":"92804"},{"Location":"MEXICO LINDO","Address":"10962 Magnolia Ave","City":"Anaheim","State":"CA","Zip":"92804"},{"Location":"MJS PINOY FIESTA","Address":"2806 W Ball Rd","City":"Anaheim","State":"CA","Zip":"92804"},{"Location":"NICE NAILS","Address":"3450 W Orange Ave","City":"Anaheim","State":"CA","Zip":"92804"},{"Location":"NOEMI TAGUINOD DENTAL CORP","Address":"408 S Beach Blvd 113","City":"Anaheim","State":"CA","Zip":"92804"},{"Location":"NOGUCHUI NELSON MD","Address":"3055 W Orange Ave 203","City":"Anaheim","State":"CA","Zip":"92804"},{"Location":"NONAHAL DENT CORP","Address":"8516 Katella Ave","City":"Anaheim","State":"CA","Zip":"92804"},{"Location":"OASIS BAR","Address":"10488 Knott Ave","City":"Anaheim","State":"CA","Zip":"92804"},{"Location":"ORANGE COUNTY ORTHOPEDICS","Address":"3010 W Orange Ave 507","City":"Anaheim","State":"CA","Zip":"92804"},{"Location":"PARK ANAHEIM HEALTHCARE CENTER","Address":"3435 W Ball Rd","City":"Anaheim","State":"CA","Zip":"92804"},{"Location":"PIZZA HUT #024839","Address":"301 S Magnolia Ave","City":"Anaheim","State":"CA","Zip":"92804"},{"Location":"PIZZA PEPPERO","Address":"646 S Brookhurst St","City":"Anaheim","State":"CA","Zip":"92804"},{"Location":"RONDA RAE PRESCHOOL","Address":"900 S Knott Ave","City":"Anaheim","State":"CA","Zip":"92804"},{"Location":"STATION 11","Address":"3078 W Orange Ave","City":"Anaheim","State":"CA","Zip":"92804"},{"Location":"TAKE 5","Address":"10570 Magnolia Ave","City":"Anaheim","State":"CA","Zip":"92804"},{"Location":"THE ABBY PAVILION","Address":"3415 W Ball Rd","City":"Anaheim","State":"CA","Zip":"92804"},{"Location":"THE CORONADO","Address":"1274 S Magnolia Ave","City":"Anaheim","State":"CA","Zip":"92804"},{"Location":"THE CUT","Address":"9774 Katella Ave","City":"Anaheim","State":"CA","Zip":"92804"},{"Location":"THREE FIVES INVESTMENTS","Address":"2822 W Ball Rd","City":"Anaheim","State":"CA","Zip":"92804"},{"Location":"UNTOUCHABLES BARBER SHOP","Address":"586 S Brookhurst St","City":"Anaheim","State":"CA","Zip":"92804"},{"Location":"VAPE20","Address":"2601 W Ball Rd 204","City":"Anaheim","State":"CA","Zip":"92804"},{"Location":"WEST ANAHEIM MEDICAL CENTER","Address":"3033 W Orange Ave","City":"Anaheim","State":"CA","Zip":"92804"},{"Location":"YOGI TERIYAKI","Address":"107 S Brookhurst St","City":"Anaheim","State":"CA","Zip":"92804"}]