[{"Location":"1857 PARLOR","Address":"1671 W Katella Ave 121","City":"Anaheim","State":"CA","Zip":"92802"},{"Location":"AMF ANAHEIM 638","Address":"400 W Disney Way 85","City":"Anaheim","State":"CA","Zip":"92802"},{"Location":"ANAHEIM RESIDENCE INN","Address":"1700 S Clementine St","City":"Anaheim","State":"CA","Zip":"92802"},{"Location":"AUTO REPAIR SHOP","Address":"1427 W Central Park Ave N","City":"Anaheim","State":"CA","Zip":"92802"},{"Location":"BUBBA GUMP SHRIMP CO","Address":"321 W Katella Ave 101","City":"Anaheim","State":"CA","Zip":"92802"},{"Location":"CALI STYLE BARBERSHOP","Address":"1504 S Euclid St","City":"Anaheim","State":"CA","Zip":"92802"},{"Location":"CALIFORNIA PIZZA KITCHEN #268","Address":"321 W Katella Ave 104","City":"Anaheim","State":"CA","Zip":"92802"},{"Location":"CHARLEYS GRILLED SUBS","Address":"265 S Euclid St","City":"Anaheim","State":"CA","Zip":"92802"},{"Location":"CLANCYS CLUBHOUSE","Address":"2191 S Harbor Blvd","City":"Anaheim","State":"CA","Zip":"92802"},{"Location":"COUNTRY FAMILY CAFE","Address":"1736 S Euclid St","City":"Anaheim","State":"CA","Zip":"92802"},{"Location":"COURTYARD AT DISNEY RES","Address":"2045 S Harbor Blvd","City":"Anaheim","State":"CA","Zip":"92802"},{"Location":"COVENTRY COURT HEALTH CENTER","Address":"2040 S Euclid St","City":"Anaheim","State":"CA","Zip":"92802"},{"Location":"CUSA PCSTC%2C LLC","Address":"2001 S Manchester Ave","City":"Anaheim","State":"CA","Zip":"92802"},{"Location":"DAVITA #11161 ANAHEIM SPRINGS","Address":"1324 S Euclid St","City":"Anaheim","State":"CA","Zip":"92802"},{"Location":"DEGREES LOUNGE","Address":"700 W Convention Way","City":"Anaheim","State":"CA","Zip":"92802"},{"Location":"DISNEY WONDER%2FDISNEY CRUISELN","Address":"1313 S Harbor Blvd","City":"Anaheim","State":"CA","Zip":"92802"},{"Location":"DISNEYLAND RESORT","Address":"1717 S Disneyland Dr","City":"Anaheim","State":"CA","Zip":"92802"},{"Location":"DOLPHINS RESORT","Address":"465 W Orangewood Ave","City":"Anaheim","State":"CA","Zip":"92802"},{"Location":"DOUBLETREE (0058770)","Address":"2085 S Harbor Blvd","City":"Anaheim","State":"CA","Zip":"92802"},{"Location":"EOC","Address":"1313 S Harbor Blvd","City":"Anaheim","State":"CA","Zip":"92802"},{"Location":"ESPN ZONE - ANAHEIM","Address":"1545 S Disneyland Dr","City":"Anaheim","State":"CA","Zip":"92802"},{"Location":"FAIRFIELD INN (0065227)","Address":"1460 S Harbor Blvd","City":"Anaheim","State":"CA","Zip":"92802"},{"Location":"FIRE AND ICE","Address":"321 W Katella Ave 315","City":"Anaheim","State":"CA","Zip":"92802"},{"Location":"HACIENDA INN & SUITE","Address":"2176 S Harbor Blvd","City":"Anaheim","State":"CA","Zip":"92802"},{"Location":"HARVEY'S SPORTS BAR","Address":"1732 S Euclid St","City":"Anaheim","State":"CA","Zip":"92802"},{"Location":"HARVEYS SPORTS BAR","Address":"1728 S Euclid St","City":"Anaheim","State":"CA","Zip":"92802"},{"Location":"HILTON ANAHEIM","Address":"777 W Convention Way","City":"Anaheim","State":"CA","Zip":"92802"},{"Location":"HILTON ANAHEIM (0050861)","Address":"777 W Convention Way","City":"Anaheim","State":"CA","Zip":"92802"},{"Location":"HILTON ANAHEIM HOTEL","Address":"777 W Convention Way","City":"Anaheim","State":"CA","Zip":"92802"},{"Location":"HIT IT HARD INDUSTRIES","Address":"1620 S Clementine St","City":"Anaheim","State":"CA","Zip":"92802"},{"Location":"HOLIDAY INN & SUITES ANA","Address":"1240 S Walnut St","City":"Anaheim","State":"CA","Zip":"92802"},{"Location":"INFINITY INTERNATIONAL HEALTH","Address":"1531 W Broadway","City":"Anaheim","State":"CA","Zip":"92802"},{"Location":"LA CABANA","Address":"628 W Orangewood Ave","City":"Anaheim","State":"CA","Zip":"92802"},{"Location":"LA CASA GARCIA","Address":"531 W Chapman Ave","City":"Anaheim","State":"CA","Zip":"92802"},{"Location":"LE CHATEAU","Address":"1670 W Broadway","City":"Anaheim","State":"CA","Zip":"92802"},{"Location":"LOCAL BAR","Address":"316 S Euclid St","City":"Anaheim","State":"CA","Zip":"92802"},{"Location":"M 3 LIVE BAR","Address":"2232 S Harbor Blvd","City":"Anaheim","State":"CA","Zip":"92802"},{"Location":"MCCORMICK  SCHMICKS","Address":"321 W Katella Ave","City":"Anaheim","State":"CA","Zip":"92802"},{"Location":"MCFADDENS","Address":"321 W Katella Ave 212","City":"Anaheim","State":"CA","Zip":"92802"},{"Location":"MORTON'S ANAHEIM","Address":"1895 S Harbor Blvd","City":"Anaheim","State":"CA","Zip":"92802"},{"Location":"NEW YORK BUFFALO WINGS","Address":"909 S Euclid St","City":"Anaheim","State":"CA","Zip":"92802"},{"Location":"OFF LIMITS COCKTAIL LOUNGE","Address":"819 S Euclid St","City":"Anaheim","State":"CA","Zip":"92802"},{"Location":"PF CHANG'S #9841","Address":"321 W Katella Ave 120","City":"Anaheim","State":"CA","Zip":"92802"},{"Location":"PLANET FITNESS ANAHEIM","Address":"1620 W Katella Ave","City":"Anaheim","State":"CA","Zip":"92802"},{"Location":"RAINFOREST CAFE #0477","Address":"1515 S Disneyland Dr","City":"Anaheim","State":"CA","Zip":"92802"},{"Location":"RED LION HOTEL CORP","Address":"1850 S Harbor Blvd","City":"Anaheim","State":"CA","Zip":"92802"},{"Location":"ROY'S RESTAURANT #2508","Address":"321 W Katella Ave","City":"Anaheim","State":"CA","Zip":"92802"},{"Location":"RUTHS CHRIS STEAK HOUSE","Address":"2041 S Harbor Blvd","City":"Anaheim","State":"CA","Zip":"92802"},{"Location":"SHERATON PARK FITNESS CT","Address":"1855 S Harbor Blvd","City":"Anaheim","State":"CA","Zip":"92802"},{"Location":"SHERATON PARK HOTEL","Address":"1855 S Harbor Blvd","City":"Anaheim","State":"CA","Zip":"92802"},{"Location":"SPRINGHILL SUITES","Address":"1801 S Harbor Blvd","City":"Anaheim","State":"CA","Zip":"92802"},{"Location":"SUNRISE FOUNTAINS","Address":"2104 S Lewis St","City":"Anaheim","State":"CA","Zip":"92802"},{"Location":"SUPERIOR FENCE","Address":"524 S Central Park Ave W","City":"Anaheim","State":"CA","Zip":"92802"},{"Location":"TANGERINE GRILL","Address":"1030 W Katella Ave","City":"Anaheim","State":"CA","Zip":"92802"},{"Location":"TARGET","Address":"101 S Euclid St","City":"Anaheim","State":"CA","Zip":"92802"},{"Location":"THE CHEESECAKE FACTORY 0127","Address":"321 W Katella Ave 100","City":"Anaheim","State":"CA","Zip":"92802"},{"Location":"THE LOST BAR -FOOD & BEVERAG.","Address":"1150 W Magic Way","City":"Anaheim","State":"CA","Zip":"92802"},{"Location":"THE WALT DISNEY","Address":"1313 S Harbor Blvd","City":"Anaheim","State":"CA","Zip":"92802"},{"Location":"THE WALT DISNEY 2","Address":"1313 S Harbor Blvd","City":"Anaheim","State":"CA","Zip":"92802"},{"Location":"VAPOR SOLUTIONS BY JULIE","Address":"2060 S Euclid St B","City":"Anaheim","State":"CA","Zip":"92802"},{"Location":"VINTAGE VAPE","Address":"910 S Euclid St D","City":"Anaheim","State":"CA","Zip":"92802"},{"Location":"WEST COUNTY TIRE & AUTO","Address":"421 W Chapman Ave","City":"Anaheim","State":"CA","Zip":"92802"}]