[{"Location":"24 HOUR FITNESS #159","Address":"965 E Birch St","City":"Brea","State":"CA","Zip":"92821"},{"Location":"A SYMMETRIC HAIR SALON","Address":"2822 E Imperial Hwy","City":"Brea","State":"CA","Zip":"92821"},{"Location":"ADVANCED MAITNENCE CONCEPTS","Address":"333 N Berry St","City":"Brea","State":"CA","Zip":"92821"},{"Location":"AIG DIRECT.COM","Address":"1800 E Imperial Hwy 100","City":"Brea","State":"CA","Zip":"92821"},{"Location":"AIR TREATMENT CORP","Address":"640 N Puente St","City":"Brea","State":"CA","Zip":"92821"},{"Location":"ALBERTSON INC","Address":"200 N Puente St","City":"Brea","State":"CA","Zip":"92821"},{"Location":"ALBERTSON'S","Address":"200 N Puente St","City":"Brea","State":"CA","Zip":"92821"},{"Location":"ALBERTSONS","Address":"200 N Puente St","City":"Brea","State":"CA","Zip":"92821"},{"Location":"ALTA RESOURCES","Address":"975 W Imperial Hwy 200","City":"Brea","State":"CA","Zip":"92821"},{"Location":"ALVACO INC","Address":"253 N Berry St","City":"Brea","State":"CA","Zip":"92821"},{"Location":"AMY S BLACK CPA","Address":"451 W Lambert Rd 215","City":"Brea","State":"CA","Zip":"92821"},{"Location":"APOLLO ELECTRIC","Address":"330 N Basse Ln","City":"Brea","State":"CA","Zip":"92821"},{"Location":"ARBYS 6802","Address":"2525 E Imperial Hwy","City":"Brea","State":"CA","Zip":"92821"},{"Location":"ARROW INDUSTRIES","Address":"465 N Berry St","City":"Brea","State":"CA","Zip":"92821"},{"Location":"ARROWHEAD WATER","Address":"3230 E Imperial Hwy","City":"Brea","State":"CA","Zip":"92821"},{"Location":"B&I DEPANYAKI","Address":"101 W Imperial Hwy D","City":"Brea","State":"CA","Zip":"92821"},{"Location":"BAE SYSTEMS","Address":"1095 Columbia St","City":"Brea","State":"CA","Zip":"92821"},{"Location":"BEDARD MACHINE","Address":"141 Viking Ave","City":"Brea","State":"CA","Zip":"92821"},{"Location":"BIG O TIRES","Address":"210 N Brea Blvd","City":"Brea","State":"CA","Zip":"92821"},{"Location":"BJS RESTAURANT #412","Address":"600 Brea Mall","City":"Brea","State":"CA","Zip":"92821"},{"Location":"BREA AUTO REPAIR","Address":"291 N Orange Ave","City":"Brea","State":"CA","Zip":"92821"},{"Location":"BREA CREEK GOLF COURSE","Address":"501 W Fir St","City":"Brea","State":"CA","Zip":"92821"},{"Location":"BREA DENTAL CERAMICS","Address":"1280 W Lambert Rd N2","City":"Brea","State":"CA","Zip":"92821"},{"Location":"BREA FAMILY DENTAL CENTE","Address":"903 S Brea Blvd","City":"Brea","State":"CA","Zip":"92821"},{"Location":"BREA GLENBROOK CLUB","Address":"1821 Greenbriar Ln","City":"Brea","State":"CA","Zip":"92821"},{"Location":"BREA IMPROV","Address":"120 S Brea Blvd","City":"Brea","State":"CA","Zip":"92821"},{"Location":"BREA URGENT CARE","Address":"395 W Central Ave","City":"Brea","State":"CA","Zip":"92821"},{"Location":"BREA VETERANS CLUB","Address":"735 S Brea Blvd","City":"Brea","State":"CA","Zip":"92821"},{"Location":"BREA WEST CHRIOPRACTIC","Address":"451 W Lambert Rd 200","City":"Brea","State":"CA","Zip":"92821"},{"Location":"BREAWOOD APARTMENTS","Address":"195 W Centrail","City":"Brea","State":"CA","Zip":"92821"},{"Location":"BRIANS BARBER SHOP","Address":"2870 E Imperial Hwy","City":"Brea","State":"CA","Zip":"92821"},{"Location":"BRUEGGER'S #450611","Address":"2435 E Imperial Hwy","City":"Brea","State":"CA","Zip":"92821"},{"Location":"BUCA DI BEPPO #509","Address":"1609 E Imperial Hwy","City":"Brea","State":"CA","Zip":"92821"},{"Location":"BUFFALO WILD WINGS #3499","Address":"240 S Brea Blvd","City":"Brea","State":"CA","Zip":"92821"},{"Location":"BUILDING BRIDGES FINANCIAL","Address":"520 E Lambert Rd","City":"Brea","State":"CA","Zip":"92821"},{"Location":"BURNS AND MCDONNELL","Address":"1 Pointe Dr 580","City":"Brea","State":"CA","Zip":"92821"},{"Location":"CA FISH GRILL BREA","Address":"419 S Associated Rd","City":"Brea","State":"CA","Zip":"92821"},{"Location":"CALI FISH GRILL CORPORATE","Address":"315 S Puente St","City":"Brea","State":"CA","Zip":"92821"},{"Location":"CALIFORNIA PIZZA KITCHEN #170","Address":"1065 Brea Mall","City":"Brea","State":"CA","Zip":"92821"},{"Location":"CAPITAL SOURCE BANK","Address":"130 S State College Blvd","City":"Brea","State":"CA","Zip":"92821"},{"Location":"CAREMORE HEALTHPLAN","Address":"420 South Central Ave  #a A","City":"Brea","State":"CA","Zip":"92821"},{"Location":"CAROLINA LIQUID CHEMISTRIES","Address":"510 W Central Ave C","City":"Brea","State":"CA","Zip":"92821"},{"Location":"CARPELLO WISHART","Address":"324 S Brea Blvd","City":"Brea","State":"CA","Zip":"92821"},{"Location":"CB RICHARD ELLIS","Address":"3151 E Imperial Hwy","City":"Brea","State":"CA","Zip":"92821"},{"Location":"CENTRAL DELI & GRILL","Address":"379 W Central Ave A","City":"Brea","State":"CA","Zip":"92821"},{"Location":"CHEVRON IT -","Address":"145 S State College Blvd 400","City":"Brea","State":"CA","Zip":"92821"},{"Location":"CLAIM JUMPER #14","Address":"190 S State College Blvd","City":"Brea","State":"CA","Zip":"92821"},{"Location":"CML WEALTH MANAGEMENT","Address":"10 Pointe Dr","City":"Brea","State":"CA","Zip":"92821"},{"Location":"CMRE FINANCIAL SERVICES","Address":"3075 E Imperial Hwy 200","City":"Brea","State":"CA","Zip":"92821"},{"Location":"CNA","Address":"675 Placentia Ave","City":"Brea","State":"CA","Zip":"92821"},{"Location":"COMMUNITY TIRE PROS","Address":"290 N Brea Blvd","City":"Brea","State":"CA","Zip":"92821"},{"Location":"DAVIS LABORATORIES","Address":"611 Lunar Ave","City":"Brea","State":"CA","Zip":"92821"},{"Location":"DAVITA #876 BREA","Address":"595 Tamarack Ave A","City":"Brea","State":"CA","Zip":"92821"},{"Location":"DDR ENTERPRISE LLC.","Address":"2850 Saturn St","City":"Brea","State":"CA","Zip":"92821"},{"Location":"DE BREA NAILS","Address":"955 E Birch St D","City":"Brea","State":"CA","Zip":"92821"},{"Location":"DESTINATION  MATERNITY","Address":"215 S Brea Blvd 101","City":"Brea","State":"CA","Zip":"92821"},{"Location":"DESTINATION XL 9866","Address":"429 S Associated Rd","City":"Brea","State":"CA","Zip":"92821"},{"Location":"DEVINE DESIGNS","Address":"957 E Birch St C112","City":"Brea","State":"CA","Zip":"92821"},{"Location":"DIAMONDS BILLIARD CLUB","Address":"910 E Birch St","City":"Brea","State":"CA","Zip":"92821"},{"Location":"DICKEYS YORBALINA 632","Address":"2435 E Imperial Hwy","City":"Brea","State":"CA","Zip":"92821"},{"Location":"DOBRIK HEARING CARE INC","Address":"440 S Brea Blvd A","City":"Brea","State":"CA","Zip":"92821"},{"Location":"DSS STAFFING INC","Address":"1800 E Lambert Rd 100","City":"Brea","State":"CA","Zip":"92821"},{"Location":"EASTER SEALS","Address":"500 W Central Ave A","City":"Brea","State":"CA","Zip":"92821"},{"Location":"EL TORITO 7141","Address":"555 Pointe Dr","City":"Brea","State":"CA","Zip":"92821"},{"Location":"ELITE BARBER","Address":"860 W Imperial Hwy A","City":"Brea","State":"CA","Zip":"92821"},{"Location":"EMBASSY CIGARS","Address":"407 W Imperial Hwy A","City":"Brea","State":"CA","Zip":"92821"},{"Location":"EMBASSY SUITES","Address":"900 E Birch St","City":"Brea","State":"CA","Zip":"92821"},{"Location":"EMERGENCY AMBULANCE SERV","Address":"3200 E Birch St A","City":"Brea","State":"CA","Zip":"92821"},{"Location":"EMS ANALYTICAL LABS INC","Address":"2735 Saturn St","City":"Brea","State":"CA","Zip":"92821"},{"Location":"ENERTECH","Address":"2950 E Birch St","City":"Brea","State":"CA","Zip":"92821"},{"Location":"ENERTECH","Address":"260 Ranger Ave","City":"Brea","State":"CA","Zip":"92821"},{"Location":"EXTRA EXPRESS","Address":"3050 Enterprise St","City":"Brea","State":"CA","Zip":"92821"},{"Location":"FAMOUS BURGER","Address":"1485 W Imperial Hwy","City":"Brea","State":"CA","Zip":"92821"},{"Location":"FIDELITY INVESTMENTS 115","Address":"815 E Birch St","City":"Brea","State":"CA","Zip":"92821"},{"Location":"FIRESTONE 020591","Address":"891 E Imperial Hwy","City":"Brea","State":"CA","Zip":"92821"},{"Location":"FITNESS EXPRESS","Address":"706 E Imperial Hwy","City":"Brea","State":"CA","Zip":"92821"},{"Location":"FLYING PIG PRODUCTIONS LLC","Address":"2951 Saturn St D","City":"Brea","State":"CA","Zip":"92821"},{"Location":"FOOTAGE BY THE COOLSHOES","Address":"580 W Lambert Rd","City":"Brea","State":"CA","Zip":"92821"},{"Location":"FRESCA'S MEXICAN GRILL","Address":"275 W Birch St","City":"Brea","State":"CA","Zip":"92821"},{"Location":"GIOVANNIELLO LAW GROUP","Address":"1 Pointe Dr 300","City":"Brea","State":"CA","Zip":"92821"},{"Location":"GLOWZONE INC","Address":"620 Lunar Ave","City":"Brea","State":"CA","Zip":"92821"},{"Location":"GOLDEN STATE BUSINESS","Address":"403 W Imperial Hwy D","City":"Brea","State":"CA","Zip":"92821"},{"Location":"GOLFSMITH #092","Address":"835 E Birch St","City":"Brea","State":"CA","Zip":"92821"},{"Location":"GREAT EARTH VITAMINS","Address":"2872 E Imperial Hwy","City":"Brea","State":"CA","Zip":"92821"},{"Location":"GRIFFITH COMPANY","Address":"3050 E Birch St","City":"Brea","State":"CA","Zip":"92821"},{"Location":"GRILL CANTINA","Address":"301 N Brea Blvd","City":"Brea","State":"CA","Zip":"92821"},{"Location":"GYU-KAKU BREA","Address":"120 S Brea Blvd 1","City":"Brea","State":"CA","Zip":"92821"},{"Location":"H-BLING","Address":"1027 E Imperial Hwy D5","City":"Brea","State":"CA","Zip":"92821"},{"Location":"HOF'S BAR & GRILL","Address":"1639 E Imperial Hwy","City":"Brea","State":"CA","Zip":"92821"},{"Location":"HUNTER DONALDSON LLC","Address":"3060 Saturn St","City":"Brea","State":"CA","Zip":"92821"},{"Location":"IAC INDUSTRIES","Address":"895 Beacon St","City":"Brea","State":"CA","Zip":"92821"},{"Location":"IATN INTERNATIONAL AUTOMOTIVE","Address":"640 W Lambert Rd","City":"Brea","State":"CA","Zip":"92821"},{"Location":"ICHIBAN RESTAURANT","Address":"1015 E Im Perial Hwy C3","City":"Brea","State":"CA","Zip":"92821"},{"Location":"IMPERIAL HEALTH CENTER","Address":"649 W Imperial Hwy A2","City":"Brea","State":"CA","Zip":"92821"},{"Location":"INSELS 3 LLC%2CRED BRICK PIZZA","Address":"215 W Birch St 3","City":"Brea","State":"CA","Zip":"92821"},{"Location":"INTEGRITY BUILDERS","Address":"1220 Pioneer St","City":"Brea","State":"CA","Zip":"92821"},{"Location":"INTELEX ENTERPRISES","Address":"530 N Puente St","City":"Brea","State":"CA","Zip":"92821"},{"Location":"IRTEC","Address":"590 W Central Ave C","City":"Brea","State":"CA","Zip":"92821"},{"Location":"ISLAND CIGAR LOUNGE","Address":"101 W Central Ave","City":"Brea","State":"CA","Zip":"92821"},{"Location":"ISLANDS RESTAURANT #011","Address":"250 S State College Blvd","City":"Brea","State":"CA","Zip":"92821"},{"Location":"ISYS SOLUTIONS INC","Address":"2601 Saturn St 302","City":"Brea","State":"CA","Zip":"92821"},{"Location":"JAPANESERESTAURANT SHARK","Address":"724 N Brea Blvd B","City":"Brea","State":"CA","Zip":"92821"},{"Location":"JCPENNY","Address":"400 Brea Mall","City":"Brea","State":"CA","Zip":"92821"},{"Location":"JERSEY MIKE'S SUBS","Address":"955 E Birch St J","City":"Brea","State":"CA","Zip":"92821"},{"Location":"JOES LIQUOR","Address":"710 N Brea Blvd","City":"Brea","State":"CA","Zip":"92821"},{"Location":"JOHNS PLACE","Address":"1201 W Central Ave","City":"Brea","State":"CA","Zip":"92821"},{"Location":"JOJOS","Address":"120 S Brea Blvd","City":"Brea","State":"CA","Zip":"92821"},{"Location":"JOJOS PIZZA KITCHEN","Address":"120 S Brea Blvd 6","City":"Brea","State":"CA","Zip":"92821"},{"Location":"KABUKI JAPANESE REST","Address":"975 E Birch St Stek","City":"Brea","State":"CA","Zip":"92821"},{"Location":"KNP  INC.","Address":"1617 E Imperial Hwy","City":"Brea","State":"CA","Zip":"92821"},{"Location":"KYOTO BUFFET AND GRILL","Address":"200 S State College Blvd","City":"Brea","State":"CA","Zip":"92821"},{"Location":"LA CASA BREA APARTMENTS","Address":"755 E Date St","City":"Brea","State":"CA","Zip":"92821"},{"Location":"LARRY SCHUBER AND COMPANY","Address":"261 N Berry St","City":"Brea","State":"CA","Zip":"92821"},{"Location":"LAS CARIS","Address":"2445 E Imperial Hwy Steg","City":"Brea","State":"CA","Zip":"92821"},{"Location":"LASCARIS PIZZA","Address":"1060 E Imperial Hwy","City":"Brea","State":"CA","Zip":"92821"},{"Location":"LEGACY CAPITOL MGT","Address":"1 Pointe Dr 355","City":"Brea","State":"CA","Zip":"92821"},{"Location":"LILLIES Q","Address":"240 S Brea Blvd","City":"Brea","State":"CA","Zip":"92821"},{"Location":"LOMELI ITALIAN RESTAURANT","Address":"600 S Brea Blvd","City":"Brea","State":"CA","Zip":"92821"},{"Location":"MACALLANS IRISH PUB","Address":"330 W Birch St","City":"Brea","State":"CA","Zip":"92821"},{"Location":"MACY'S WEST 524","Address":"200 Brea Mall","City":"Brea","State":"CA","Zip":"92821"},{"Location":"MACY'S WEST 524","Address":"300 Brea Mall","City":"Brea","State":"CA","Zip":"92821"},{"Location":"MACY'S WEST 524 BR","Address":"200 Brea Mall","City":"Brea","State":"CA","Zip":"92821"},{"Location":"MAMMALUCCO'S","Address":"2500 E Imperial Hwy 100","City":"Brea","State":"CA","Zip":"92821"},{"Location":"MANE FRAME HAIR SALON","Address":"2500 Emperial Drive","City":"Brea","State":"CA","Zip":"92821"},{"Location":"MAUI HAWAIIAN BBQ","Address":"105 W Imperial Hwy C","City":"Brea","State":"CA","Zip":"92821"},{"Location":"MEN'S WEARHOUSE #2706","Address":"985 E Birch St","City":"Brea","State":"CA","Zip":"92821"},{"Location":"MERCURY INS - BREA","Address":"1700 Greenbriar Ln","City":"Brea","State":"CA","Zip":"92821"},{"Location":"MERCURY INS - BREA - DATA","Address":"555 W Imperial Hwy","City":"Brea","State":"CA","Zip":"92821"},{"Location":"MERCURY INSURANCE SERVS LLC","Address":"975 W Imperial Hwy 110","City":"Brea","State":"CA","Zip":"92821"},{"Location":"MERRILL LYNCH","Address":"145 S State College Blvd","City":"Brea","State":"CA","Zip":"92821"},{"Location":"METLIFE","Address":"135 S State College Blvd 110","City":"Brea","State":"CA","Zip":"92821"},{"Location":"MILLER GIANGRANDE LLP","Address":"915 W Imperial Hwy 110","City":"Brea","State":"CA","Zip":"92821"},{"Location":"MINMETALS INC","Address":"135 S State College Blvd 25","City":"Brea","State":"CA","Zip":"92821"},{"Location":"MORAVEK BIOCHEMCAL INC","Address":"561 Mercury Ln","City":"Brea","State":"CA","Zip":"92821"},{"Location":"MORGAN STANLEY 1000014","Address":"10 Pointe Dr 400","City":"Brea","State":"CA","Zip":"92821"},{"Location":"NATIONAL URGENT CARE HOLDINGS","Address":"2415 E Imperial Hwy","City":"Brea","State":"CA","Zip":"92821"},{"Location":"NATURES BEST","Address":"6 Pointe Dr 300","City":"Brea","State":"CA","Zip":"92821"},{"Location":"NEVELL GROUP INC","Address":"3001 Enterprise St 200","City":"Brea","State":"CA","Zip":"92821"},{"Location":"NEW CENTURY HEALTH","Address":"675 Placentia Ave 300","City":"Brea","State":"CA","Zip":"92821"},{"Location":"NEW YORK LIFE","Address":"675 Placentia Ave 250","City":"Brea","State":"CA","Zip":"92821"},{"Location":"NORDSTROM","Address":"500 Brea Mall","City":"Brea","State":"CA","Zip":"92821"},{"Location":"NUTRA SHOP","Address":"955 E Birch St","City":"Brea","State":"CA","Zip":"92821"},{"Location":"OBRIENS RESPONSE MGMT","Address":"2929 E Imperial Hwy 290","City":"Brea","State":"CA","Zip":"92821"},{"Location":"OC LEASING1","Address":"195 Arovista Cir","City":"Brea","State":"CA","Zip":"92821"},{"Location":"OCTOPUS JAPANESE FUSION RESTAU","Address":"375 W Birch St 3","City":"Brea","State":"CA","Zip":"92821"},{"Location":"OCTOPUS JAPANESE FUSION RESTAURANT","Address":"375 W Birch St Suite #2","City":"Brea","State":"CA","Zip":"92821"},{"Location":"OFFICE OF SENATOR BOB HUFF","Address":"1800 E Lambert Rd 150","City":"Brea","State":"CA","Zip":"92821"},{"Location":"OLIVE PIT","Address":"2445 E Imperial Hwy","City":"Brea","State":"CA","Zip":"92821"},{"Location":"ON THE HOOK GROUP  LLC","Address":"2445 E Imperial Hwy M","City":"Brea","State":"CA","Zip":"92821"},{"Location":"OUTBACK STEAKHOUSE #0558","Address":"30 Pointe Dr","City":"Brea","State":"CA","Zip":"92821"},{"Location":"PACIFIC WESTERN SALES","Address":"2980 Enterprise St A","City":"Brea","State":"CA","Zip":"92821"},{"Location":"PAWLACK INC","Address":"601 W Lambert Rd","City":"Brea","State":"CA","Zip":"92821"},{"Location":"PEPES MEXICAN RESTURANT","Address":"655 S Brea Blvd","City":"Brea","State":"CA","Zip":"92821"},{"Location":"PHO HA","Address":"1619 E Imperial Hwy","City":"Brea","State":"CA","Zip":"92821"},{"Location":"PIZZA CORNER","Address":"580 S Brea Blvd B","City":"Brea","State":"CA","Zip":"92821"},{"Location":"PL PARTNERS  INC","Address":"3 Pointe Dr 102","City":"Brea","State":"CA","Zip":"92821"},{"Location":"PROFORCE","Address":"655 N Berry St H","City":"Brea","State":"CA","Zip":"92821"},{"Location":"QUEEN NAILS","Address":"2445 E Imperial Hwy E","City":"Brea","State":"CA","Zip":"92821"},{"Location":"RAINCROSS ESCROW INC","Address":"3230 E Imperial Hwy","City":"Brea","State":"CA","Zip":"92821"},{"Location":"RAJ QSAR","Address":"3000 E Birch St 102b","City":"Brea","State":"CA","Zip":"92821"},{"Location":"RED LOBSTER #0510","Address":"250 Brea Mall","City":"Brea","State":"CA","Zip":"92821"},{"Location":"RED ROBIN #47","Address":"1080 Brea Mall","City":"Brea","State":"CA","Zip":"92821"},{"Location":"REGUS","Address":"135 S State Ollege Blvd 200","City":"Brea","State":"CA","Zip":"92821"},{"Location":"RETIREMENT SPECIALISTS INC","Address":"512 E Imperial Hwy","City":"Brea","State":"CA","Zip":"92821"},{"Location":"ROUND TABLE PIZZA","Address":"732 N Brea Blvd","City":"Brea","State":"CA","Zip":"92821"},{"Location":"SAKES PIZZA RESTAURANT","Address":"330 N Brea Blvd L","City":"Brea","State":"CA","Zip":"92821"},{"Location":"SANTA ROSA DENTAL","Address":"745 N Brea Blvd","City":"Brea","State":"CA","Zip":"92821"},{"Location":"SCHMITT CONTRACTING","Address":"343 N Berry St","City":"Brea","State":"CA","Zip":"92821"},{"Location":"SEMINARY CLEANERS","Address":"351 S State College Blvd","City":"Brea","State":"CA","Zip":"92821"},{"Location":"SHADY NOOK","Address":"151 S Kraemer Blvd C2","City":"Brea","State":"CA","Zip":"92821"},{"Location":"SO CAL EDISON","Address":"6 Pointe Dr 4fl","City":"Brea","State":"CA","Zip":"92821"},{"Location":"ST. JUDE HERITAGE HEALTH","Address":"500 W Central Ave B","City":"Brea","State":"CA","Zip":"92821"},{"Location":"ST. JUDE MEDICAL CENTER","Address":"2767 E Imperial Hwy","City":"Brea","State":"CA","Zip":"92821"},{"Location":"STAR CHASERS OKLAHOMA INC","Address":"3050 Saturn St 102","City":"Brea","State":"CA","Zip":"92821"},{"Location":"STATE FARM INSURANCE","Address":"765 E Birch St","City":"Brea","State":"CA","Zip":"92821"},{"Location":"STRAIT UP BARBER SHOP","Address":"337 S Brea Blvd","City":"Brea","State":"CA","Zip":"92821"},{"Location":"SULLY MILLER","Address":"135 S State College Blvd St400","City":"Brea","State":"CA","Zip":"92821"},{"Location":"SUN MAR HEALTHCARE","Address":"3050 Saturn St 201","City":"Brea","State":"CA","Zip":"92821"},{"Location":"SUPERWASH & DRY","Address":"295 W Central Ave","City":"Brea","State":"CA","Zip":"92821"},{"Location":"SUSHI IN MOTION","Address":"2445 E Imperial Hwy H","City":"Brea","State":"CA","Zip":"92821"},{"Location":"TAPS FISH HOUSE & BREWERY","Address":"101 E Imperial Hwy","City":"Brea","State":"CA","Zip":"92821"},{"Location":"TAURUS TERMITES","Address":"2950 Saturn St D","City":"Brea","State":"CA","Zip":"92821"},{"Location":"TGI FRIDAY'S #2302","Address":"935 E Birch St","City":"Brea","State":"CA","Zip":"92821"},{"Location":"THE CEDAR CREEK INN","Address":"20 Pointe Dr","City":"Brea","State":"CA","Zip":"92821"},{"Location":"THE CHEESECAKE FACTORY 0088","Address":"120 Brea Mall","City":"Brea","State":"CA","Zip":"92821"},{"Location":"THE GRAND","Address":"445 S Associated Rd","City":"Brea","State":"CA","Zip":"92821"},{"Location":"THE LAZY DOG - BREA","Address":"240 S State College Blvd","City":"Brea","State":"CA","Zip":"92821"},{"Location":"THE LOFT","Address":"1027 E Imperial Hwy D3","City":"Brea","State":"CA","Zip":"92821"},{"Location":"THE NORDSTROM RACK","Address":"2345 E Imperial Hwy","City":"Brea","State":"CA","Zip":"92821"},{"Location":"THE WAY A PRAISE CHAPEL","Address":"471 W Lambert Rd 112","City":"Brea","State":"CA","Zip":"92821"},{"Location":"TRI SPAN INC","Address":"591 Explorer St","City":"Brea","State":"CA","Zip":"92821"},{"Location":"UBS FINANCIAL SERVICES INC.","Address":"555 Pointe Dr 1-140","City":"Brea","State":"CA","Zip":"92821"},{"Location":"UNION BANK","Address":"3151 E Imperial Hwy","City":"Brea","State":"CA","Zip":"92821"},{"Location":"URIMAN INC","Address":"650 N Puente St","City":"Brea","State":"CA","Zip":"92821"},{"Location":"VENTURA FOODS LLC","Address":"40 Pointe Dr","City":"Brea","State":"CA","Zip":"92821"},{"Location":"VETERINARY PET INSURANCE","Address":"1800 E Emperial Hwy 145","City":"Brea","State":"CA","Zip":"92821"},{"Location":"VIEWSONIC CORPORATION","Address":"10 Pointe Dr 2","City":"Brea","State":"CA","Zip":"92821"},{"Location":"WADDELL AND REED","Address":"1 Pointe Dr 210","City":"Brea","State":"CA","Zip":"92821"},{"Location":"WAMS","Address":"135 S State College Blvd","City":"Brea","State":"CA","Zip":"92821"},{"Location":"WARREN J SCHOLTS DDS","Address":"1220 E Birch St 101","City":"Brea","State":"CA","Zip":"92821"},{"Location":"WASHINGTON WEALTH MGMT","Address":"3 Pointe Dr 107","City":"Brea","State":"CA","Zip":"92821"},{"Location":"WELLS FARGO HOME MORTGAGE","Address":"675 Placentia Ave 325","City":"Brea","State":"CA","Zip":"92821"},{"Location":"WEST COAST GASKET","Address":"300 Ranger Ave","City":"Brea","State":"CA","Zip":"92821"},{"Location":"WEST COAST PRIME MEAT","Address":"344 Cliffwood Park St","City":"Brea","State":"CA","Zip":"92821"},{"Location":"WET BURRITO","Address":"1235 W Central Ave","City":"Brea","State":"CA","Zip":"92821"},{"Location":"XEPIX CORPORATION","Address":"910 Columbia St","City":"Brea","State":"CA","Zip":"92821"},{"Location":"YARD HOUSE 8313","Address":"160 S Brea Blvd","City":"Brea","State":"CA","Zip":"92821"},{"Location":"Z PIZZA","Address":"421 S Associated Rd","City":"Brea","State":"CA","Zip":"92821"},{"Location":"ZUBI ADVERTISING SERVICE","Address":"10 Pointe Dr 125","City":"Brea","State":"CA","Zip":"92821"}]