[{"Location":"601 BAR AND GRILL","Address":"601 S Raymond Ave","City":"Fullerton","State":"CA","Zip":"92831"},{"Location":"ASSOCIATED STUDENTS%2C CSUF INC","Address":"800 N State College Blvd","City":"Fullerton","State":"CA","Zip":"92831"},{"Location":"BIGS","Address":"323 N State College Blvd","City":"Fullerton","State":"CA","Zip":"92831"},{"Location":"BRIAN'S BEER & BILLIARDS","Address":"1944 N Placentia Ave","City":"Fullerton","State":"CA","Zip":"92831"},{"Location":"CAL STATE FULLERTON","Address":"2600 Nutwood Ave 810","City":"Fullerton","State":"CA","Zip":"92831"},{"Location":"CRITTENON SERVICES","Address":"901 E Chapman Ave","City":"Fullerton","State":"CA","Zip":"92831"},{"Location":"CRITTENTON SERVICES","Address":"801 E Chapman Ave 106","City":"Fullerton","State":"CA","Zip":"92831"},{"Location":"CUSTOM BARBERS","Address":"121 N Raymond Ave","City":"Fullerton","State":"CA","Zip":"92831"},{"Location":"DAVITA #2112 CROSSROADS","Address":"3214 Yorba Linda Blvd","City":"Fullerton","State":"CA","Zip":"92831"},{"Location":"DISCOUNT CAB FARES","Address":"751 S State College Blvd","City":"Fullerton","State":"CA","Zip":"92831"},{"Location":"DON JOSE'S MEX REST #6","Address":"1725 N Placentia Ave","City":"Fullerton","State":"CA","Zip":"92831"},{"Location":"DOUGLAS MACHINE COMPANY","Address":"1004 E Walnut Ave B","City":"Fullerton","State":"CA","Zip":"92831"},{"Location":"E SHELVING STORE","Address":"2478 Fender Ave H","City":"Fullerton","State":"CA","Zip":"92831"},{"Location":"FEDEX","Address":"2500 Kimberly Ave","City":"Fullerton","State":"CA","Zip":"92831"},{"Location":"FIRESTONE #650196","Address":"1933 N Placentia Ave","City":"Fullerton","State":"CA","Zip":"92831"},{"Location":"FULLER LABORATORIES","Address":"1312 E Valencia Dr","City":"Fullerton","State":"CA","Zip":"92831"},{"Location":"FULLERTON CLUB","Address":"1535 Deerpark Dr","City":"Fullerton","State":"CA","Zip":"92831"},{"Location":"FULLERTON GARDENS","Address":"1510 E Commonwealth Ave","City":"Fullerton","State":"CA","Zip":"92831"},{"Location":"FULLERTON GLASS","Address":"601 Sally Pl","City":"Fullerton","State":"CA","Zip":"92831"},{"Location":"GRAPHIC TECH LLC","Address":"1600 E Valencia Dr","City":"Fullerton","State":"CA","Zip":"92831"},{"Location":"GRILL BOY","Address":"2401 E Orangethorpe Ave","City":"Fullerton","State":"CA","Zip":"92831"},{"Location":"HOANG","Address":"737 N Placentia Ave","City":"Fullerton","State":"CA","Zip":"92831"},{"Location":"HOPE INTERNATIONAL 141","Address":"651 Titan Dr 141","City":"Fullerton","State":"CA","Zip":"92831"},{"Location":"HOPE INTERNATIONAL UNIV","Address":"601 Titan Dr","City":"Fullerton","State":"CA","Zip":"92831"},{"Location":"HOPE INTERNATIONAL UNIVER","Address":"651 Titan Dr","City":"Fullerton","State":"CA","Zip":"92831"},{"Location":"HOPE INTERNATIONAL UNIVERSITY","Address":"640 Titan Dr","City":"Fullerton","State":"CA","Zip":"92831"},{"Location":"HOPE INTL UNIVERSITY-651","Address":"651 Titan Dr","City":"Fullerton","State":"CA","Zip":"92831"},{"Location":"HOPE INTL. UNIVERSITY-2500","Address":"2500 Nutwood Ave","City":"Fullerton","State":"CA","Zip":"92831"},{"Location":"HOPE INTL. UNIVERSITY-601","Address":"601 Titan Dr","City":"Fullerton","State":"CA","Zip":"92831"},{"Location":"JB MACHINING","Address":"2425 E Fender Ave #d","City":"Fullerton","State":"CA","Zip":"92831"},{"Location":"JBJ DISTRIBUTING","Address":"1518 E Valencia Dr","City":"Fullerton","State":"CA","Zip":"92831"},{"Location":"JIMENEZ IRON FORGE INC","Address":"2478 Fender Ave Unitd","City":"Fullerton","State":"CA","Zip":"92831"},{"Location":"KOHL'S #1362","Address":"3204 Yorba Linda Blvd","City":"Fullerton","State":"CA","Zip":"92831"},{"Location":"KRAFT FULLERTON FOODS","Address":"1500 E Walnut Ave Wil","City":"Fullerton","State":"CA","Zip":"92831"},{"Location":"LEAD BELLY BBQ","Address":"711 N Placentia Ave A","City":"Fullerton","State":"CA","Zip":"92831"},{"Location":"LEONARDOS RESTAURANT","Address":"2425 E Orangethorpe Ave","City":"Fullerton","State":"CA","Zip":"92831"},{"Location":"MARRIOTT FULLERTON (0063522)","Address":"2701 Nutwood Ave","City":"Fullerton","State":"CA","Zip":"92831"},{"Location":"MAX RPM CONSTRUCTION","Address":"701 S Raymond Ave 1","City":"Fullerton","State":"CA","Zip":"92831"},{"Location":"MICHELANGELOS","Address":"1331 E Chapman Ave","City":"Fullerton","State":"CA","Zip":"92831"},{"Location":"MIKE COMSTOCK","Address":"1009 E Elm Ave","City":"Fullerton","State":"CA","Zip":"92831"},{"Location":"MR BBQ","Address":"305 N State College Blvd","City":"Fullerton","State":"CA","Zip":"92831"},{"Location":"OGGIS","Address":"2595 E Chapman Ave","City":"Fullerton","State":"CA","Zip":"92831"},{"Location":"ONE WAY AUTO","Address":"1220 E Orangethorpe Ave","City":"Fullerton","State":"CA","Zip":"92831"},{"Location":"PACIFIC COAST PUMP INC","Address":"1010 E Elm Ave","City":"Fullerton","State":"CA","Zip":"92831"},{"Location":"PARADISE CLEANERS","Address":"3218 Yorba Linda Blvd","City":"Fullerton","State":"CA","Zip":"92831"},{"Location":"PATRIOT ENVIRONMENTAL","Address":"1041 S Placentia Ave","City":"Fullerton","State":"CA","Zip":"92831"},{"Location":"PCC","Address":"1621 E Orangethorpe Ave","City":"Fullerton","State":"CA","Zip":"92831"},{"Location":"PLASTICOLOR MOLDED PRODUCTS","Address":"801 S Acacia Ave","City":"Fullerton","State":"CA","Zip":"92831"},{"Location":"PREGO RISTORANTE #4009","Address":"1304 E Valencia Dr","City":"Fullerton","State":"CA","Zip":"92831"},{"Location":"PREMIER MOUNTS","Address":"1321 S State College Blvd","City":"Fullerton","State":"CA","Zip":"92831"},{"Location":"QUICK N CLEAN","Address":"3175 Yorba Linda Blvd","City":"Fullerton","State":"CA","Zip":"92831"},{"Location":"ROUND TABLE FT","Address":"2506 E Chapman Ave","City":"Fullerton","State":"CA","Zip":"92831"},{"Location":"SCHREIBER FOODS","Address":"1901 Via Burton","City":"Fullerton","State":"CA","Zip":"92831"},{"Location":"SHORTYZ","Address":"1631 N Placentia Ave","City":"Fullerton","State":"CA","Zip":"92831"},{"Location":"SPEC CERAMICS","Address":"851 Enterprise Way","City":"Fullerton","State":"CA","Zip":"92831"},{"Location":"STIX HOLDINGS 717","Address":"501 N State College Blvd","City":"Fullerton","State":"CA","Zip":"92831"},{"Location":"TARGET 0293","Address":"2920 Yorba Linda Blvd","City":"Fullerton","State":"CA","Zip":"92831"},{"Location":"TED SYSTEMS INC","Address":"1110 E Wilshire Ave 510","City":"Fullerton","State":"CA","Zip":"92831"},{"Location":"TERRA UNIVERSAL INC","Address":"800 S Raymond Ave","City":"Fullerton","State":"CA","Zip":"92831"},{"Location":"THE BENCH SPORTS BAR","Address":"3159 Yorba Linda Blvd","City":"Fullerton","State":"CA","Zip":"92831"},{"Location":"THE SWIG","Address":"2466 Fender Ave","City":"Fullerton","State":"CA","Zip":"92831"},{"Location":"TRUE FITNESS","Address":"1101 S Placentia Ave","City":"Fullerton","State":"CA","Zip":"92831"},{"Location":"UNIVERSITY OF CA MEDICAL CTR","Address":"1331 S State College Blvd","City":"Fullerton","State":"CA","Zip":"92831"},{"Location":"USA WHEEL AND TIRE OUTLET","Address":"1301 Burton St","City":"Fullerton","State":"CA","Zip":"92831"},{"Location":"VAPE CITI INC","Address":"2485 E Chapman Ave","City":"Fullerton","State":"CA","Zip":"92831"},{"Location":"VICTORY OUTREACH CHURCH","Address":"824 E Commonwealth Ave","City":"Fullerton","State":"CA","Zip":"92831"},{"Location":"VIVINT INC 2","Address":"2477 E Orangethorpe Ave","City":"Fullerton","State":"CA","Zip":"92831"}]