[{"Location":"2 JS COCKTAILS","Address":"120 W Houston Ave","City":"Fullerton","State":"CA","Zip":"92832"},{"Location":"8 EIGHTY EIGHT","Address":"118 W Wilshire Ave","City":"Fullerton","State":"CA","Zip":"92832"},{"Location":"AMERICAN MARTIAL ARTS ACADEMY","Address":"1027 Harbor Blv","City":"Fullerton","State":"CA","Zip":"92832"},{"Location":"BOURBON ST BAR & GRILL","Address":"110 E Commonwealth Ave","City":"Fullerton","State":"CA","Zip":"92832"},{"Location":"BRANAGAN'S IRISH PUB","Address":"213 N Harbor Blvd","City":"Fullerton","State":"CA","Zip":"92832"},{"Location":"BURGER KING 6062","Address":"1329 S Harbor Blvd","City":"Fullerton","State":"CA","Zip":"92832"},{"Location":"BURGER PARLOR","Address":"204 N Harbor Blvd","City":"Fullerton","State":"CA","Zip":"92832"},{"Location":"CAFE HIDALGO","Address":"305 N Harbor Blvd","City":"Fullerton","State":"CA","Zip":"92832"},{"Location":"CF FULLERTON ENTERPRISES","Address":"133 W Chapman Ave 101","City":"Fullerton","State":"CA","Zip":"92832"},{"Location":"CHA2O","Address":"100 S Harbor Blvd B","City":"Fullerton","State":"CA","Zip":"92832"},{"Location":"CHEF KS GOURMET","Address":"506 S Euclid St","City":"Fullerton","State":"CA","Zip":"92832"},{"Location":"CHOMP SUSHI","Address":"181 E Commonwealth Ave","City":"Fullerton","State":"CA","Zip":"92832"},{"Location":"CHOPPIN MOPS","Address":"122 N Harbor Vld 109","City":"Fullerton","State":"CA","Zip":"92832"},{"Location":"CLASSIC BARBERS","Address":"121 Ave Ecommonwealth Ave","City":"Fullerton","State":"CA","Zip":"92832"},{"Location":"COMBOS PIZZA","Address":"757 W Commonwealth Ave","City":"Fullerton","State":"CA","Zip":"92832"},{"Location":"COMMONWEALTH AVE CORP","Address":"136 E Commonwealth Ave","City":"Fullerton","State":"CA","Zip":"92832"},{"Location":"CONTINENTAL ROOM","Address":"115 W Sante Fe Ave","City":"Fullerton","State":"CA","Zip":"92832"},{"Location":"CRITTENTON SERV FOR CHILDEREN","Address":"602 N Harbor Blvd","City":"Fullerton","State":"CA","Zip":"92832"},{"Location":"CRITTENTON SERV FOR CHILDREN","Address":"600 N Harbor Blvd","City":"Fullerton","State":"CA","Zip":"92832"},{"Location":"CUCINA ROMA-FULLERTON","Address":"211 N Harbor Blvd","City":"Fullerton","State":"CA","Zip":"92832"},{"Location":"DARU & G INC.","Address":"133 W Chapman Ave 103","City":"Fullerton","State":"CA","Zip":"92832"},{"Location":"DAVITA #3058 FULLERTON","Address":"238 Orangefair Mall","City":"Fullerton","State":"CA","Zip":"92832"},{"Location":"DEAN REITER ASSOCIATES","Address":"727 N Harbor Blvd","City":"Fullerton","State":"CA","Zip":"92832"},{"Location":"EDEN CAFE","Address":"124 W Wilshire Ave A1","City":"Fullerton","State":"CA","Zip":"92832"},{"Location":"EL AMERIKANO","Address":"100 S Harbor Blvd D","City":"Fullerton","State":"CA","Zip":"92832"},{"Location":"EL TORITO 7178","Address":"101 E Orangethorpe Ave","City":"Fullerton","State":"CA","Zip":"92832"},{"Location":"FAMOUS DELI","Address":"116 W Commonwealth Ave","City":"Fullerton","State":"CA","Zip":"92832"},{"Location":"FARMERS AND MERCHANTS BANK","Address":"315 N Harbor Blvd","City":"Fullerton","State":"CA","Zip":"92832"},{"Location":"FAROLITO","Address":"310 N Harbor Blvd 103","City":"Fullerton","State":"CA","Zip":"92832"},{"Location":"FCLO MUSIC THEATER","Address":"218 W Commonwealth Ave","City":"Fullerton","State":"CA","Zip":"92832"},{"Location":"FLORENTINE'S","Address":"102 N Harbor Blvd","City":"Fullerton","State":"CA","Zip":"92832"},{"Location":"FULLERTON ROSEWOOD","Address":"411 E Commonwealth Ave 1","City":"Fullerton","State":"CA","Zip":"92832"},{"Location":"FUOCO PIZZERIA","Address":"101 N Harbor Blvd","City":"Fullerton","State":"CA","Zip":"92832"},{"Location":"GANDOLFOS NEW YORK DELI","Address":"444 N Harbor Blvd 104","City":"Fullerton","State":"CA","Zip":"92832"},{"Location":"HARBOR RIBS%2C LLC","Address":"1300 S Harbor Blvd","City":"Fullerton","State":"CA","Zip":"92832"},{"Location":"HEROES","Address":"125 W Santa Fe Ave","City":"Fullerton","State":"CA","Zip":"92832"},{"Location":"IMMACULATE AUTO INSURANCE","Address":"711 S Euclid St","City":"Fullerton","State":"CA","Zip":"92832"},{"Location":"JHF LLC DBA UFC GYM-FULLERTON","Address":"1170 S Harbor Blvd","City":"Fullerton","State":"CA","Zip":"92832"},{"Location":"JOES","Address":"124 W Commonwealth Ave","City":"Fullerton","State":"CA","Zip":"92832"},{"Location":"JP 23 RESTAURANTS INC","Address":"101 S Harbor Blvd A","City":"Fullerton","State":"CA","Zip":"92832"},{"Location":"KENTRO GREEK KITCHEN","Address":"100 S Harbor Blvd A","City":"Fullerton","State":"CA","Zip":"92832"},{"Location":"KNOWLWOOD","Address":"150 S Harbor Blvd","City":"Fullerton","State":"CA","Zip":"92832"},{"Location":"KUNG PAO HOUSE","Address":"217 N Euclid St","City":"Fullerton","State":"CA","Zip":"92832"},{"Location":"LARRY'S PIZZA & SPORTS BAR","Address":"926 W Orangethorpe Ave F","City":"Fullerton","State":"CA","Zip":"92832"},{"Location":"LUCKY JOHN'S #4 INC","Address":"1310 S Euclid St","City":"Fullerton","State":"CA","Zip":"92832"},{"Location":"MATADOR CANTINA","Address":"111 N Harbor Blvd","City":"Fullerton","State":"CA","Zip":"92832"},{"Location":"MOON WOK","Address":"114 W Commonwealth Ave","City":"Fullerton","State":"CA","Zip":"92832"},{"Location":"MULBERRY ST RESTAURANT","Address":"114 W Wilshire Ave","City":"Fullerton","State":"CA","Zip":"92832"},{"Location":"NORTH JUSTICE CENTER","Address":"1275 N Berkeley Ave","City":"Fullerton","State":"CA","Zip":"92832"},{"Location":"ORANGE COUNTY CLERK","Address":"201 N Harbor Blvd","City":"Fullerton","State":"CA","Zip":"92832"},{"Location":"PACIFIC DENTAL #191","Address":"1573 S Harbor Blvd","City":"Fullerton","State":"CA","Zip":"92832"},{"Location":"PHILLYS BEST FULLERTON","Address":"133 W Chapman Ave","City":"Fullerton","State":"CA","Zip":"92832"},{"Location":"PIE DOGS","Address":"229 E Commonwealth Ave A","City":"Fullerton","State":"CA","Zip":"92832"},{"Location":"RAINBOW KIDS","Address":"127 W Orangethorpe Ave","City":"Fullerton","State":"CA","Zip":"92832"},{"Location":"REEKSTIN ENTERPRISES","Address":"1027 N Harbor Blvd B","City":"Fullerton","State":"CA","Zip":"92832"},{"Location":"RENICK CADILLAC","Address":"1100 S Euclid St","City":"Fullerton","State":"CA","Zip":"92832"},{"Location":"RESTAURANT TWISTED VINE","Address":"127 W Commonwealth Ave","City":"Fullerton","State":"CA","Zip":"92832"},{"Location":"RICHMOND GARDENS","Address":"317 N Richman Ave","City":"Fullerton","State":"CA","Zip":"92832"},{"Location":"RIO NILO","Address":"1401 S Lemon St","City":"Fullerton","State":"CA","Zip":"92832"},{"Location":"RONIN AUTOMOTIVE","Address":"621 W Valencia Dr A","City":"Fullerton","State":"CA","Zip":"92832"},{"Location":"SALON TECHNIQUE","Address":"101 N Harbor Blvd 140","City":"Fullerton","State":"CA","Zip":"92832"},{"Location":"SAMURAI CHICKEN AND SUSHI","Address":"1158 S Harbor Blvd","City":"Fullerton","State":"CA","Zip":"92832"},{"Location":"SANTA FE EXPRESS CAFE","Address":"136 E Santa Fe Ave","City":"Fullerton","State":"CA","Zip":"92832"},{"Location":"SLIDEBAR CAFE","Address":"122 E Commonwealth Ave","City":"Fullerton","State":"CA","Zip":"92832"},{"Location":"SO CAL BOYS","Address":"124 W Commonwealth Ave 200","City":"Fullerton","State":"CA","Zip":"92832"},{"Location":"SOUTHERN CALIFORNIA AUTO SALES","Address":"1331 S Euclid St","City":"Fullerton","State":"CA","Zip":"92832"},{"Location":"SOUTHERN CALIFORNIA GRP.","Address":"201 N Harbor Blvd 205","City":"Fullerton","State":"CA","Zip":"92832"},{"Location":"STADIUM TAVERN","Address":"305 N Harbor Blvd 128","City":"Fullerton","State":"CA","Zip":"92832"},{"Location":"STASHHOUSE BARBERSHOP","Address":"511 S Harbor Blvd","City":"Fullerton","State":"CA","Zip":"92832"},{"Location":"STUBRIKS STEAKHOUSE","Address":"118 E Commonwealth Ave","City":"Fullerton","State":"CA","Zip":"92832"},{"Location":"SUPERMEX RESTAURANT","Address":"250 W Orangethorpe Ave","City":"Fullerton","State":"CA","Zip":"92832"},{"Location":"SUSHI JOINT","Address":"600 S Harbor Blvd","City":"Fullerton","State":"CA","Zip":"92832"},{"Location":"SUSHI POP INC","Address":"1105 S Euclid St I","City":"Fullerton","State":"CA","Zip":"92832"},{"Location":"TAQUERIA DE ANDA","Address":"300 W Valencia Dr","City":"Fullerton","State":"CA","Zip":"92832"},{"Location":"TARGET","Address":"200 W Orangethorpe Ave","City":"Fullerton","State":"CA","Zip":"92832"},{"Location":"TEKBORN","Address":"122 S Harbor Blvd 209","City":"Fullerton","State":"CA","Zip":"92832"},{"Location":"THE BIG SLICE","Address":"523 N Harbor Blvd","City":"Fullerton","State":"CA","Zip":"92832"},{"Location":"THE OLD SPAGHETTI FACTORY","Address":"110 E Santa Fe Ave","City":"Fullerton","State":"CA","Zip":"92832"},{"Location":"THE PATIO","Address":"128 W Wilshire Ave","City":"Fullerton","State":"CA","Zip":"92832"},{"Location":"THE PINT HOUSE","Address":"136 W Wilshire Ave","City":"Fullerton","State":"CA","Zip":"92832"},{"Location":"TINK BOBA","Address":"109 W Orangethorpe Ave","City":"Fullerton","State":"CA","Zip":"92832"},{"Location":"TUSCANY CLUB","Address":"102 N Harbor Blvd","City":"Fullerton","State":"CA","Zip":"92832"},{"Location":"TWO SAUCY BROADS","Address":"108 S Highland Ave","City":"Fullerton","State":"CA","Zip":"92832"},{"Location":"US DENTAL LAB","Address":"137 W Chapman Ave C","City":"Fullerton","State":"CA","Zip":"92832"},{"Location":"VINO NOSTRA","Address":"123 E Commonwealth Ave","City":"Fullerton","State":"CA","Zip":"92832"},{"Location":"WABA GRILL","Address":"1105 S Euclid St G","City":"Fullerton","State":"CA","Zip":"92832"},{"Location":"WINGSTOP","Address":"1119 N Harbor Blvd B","City":"Fullerton","State":"CA","Zip":"92832"},{"Location":"WOODS CALIFORNIA BAR","Address":"120 W Wilshire Ave","City":"Fullerton","State":"CA","Zip":"92832"},{"Location":"ZETA TAU ALPHA","Address":"1101 N Lemon St","City":"Fullerton","State":"CA","Zip":"92832"},{"Location":"ZIINGS BISTRO AND BAR","Address":"209 N Harbor Blvd","City":"Fullerton","State":"CA","Zip":"92832"},{"Location":"ZIINGS TAO","Address":"207 N Harbor Blvd","City":"Fullerton","State":"CA","Zip":"92832"}]