[{"Location":"ACCRETIVE LAGOONA PARTNERS","Address":"1950 Sunnycrest Dr","City":"Fullerton","State":"CA","Zip":"92835"},{"Location":"ASSOC HEAD AND NECK SURGEONS","Address":"1950 Sunnycrest Dr 3800","City":"Fullerton","State":"CA","Zip":"92835"},{"Location":"BANC OF CALIFORNIA","Address":"100 Laguna Rd","City":"Fullerton","State":"CA","Zip":"92835"},{"Location":"CLEM AND YEN DDS","Address":"130 Laguna Rd","City":"Fullerton","State":"CA","Zip":"92835"},{"Location":"CONSOLIDATED MEDICAL BIO","Address":"1950 Sunnycrest Dr 1600","City":"Fullerton","State":"CA","Zip":"92835"},{"Location":"COYOTE HILLS GOLF COURSE  TRP","Address":"1440 E Bastanchury Rd","City":"Fullerton","State":"CA","Zip":"92835"},{"Location":"DAVITA #5396 SUNNY CREST","Address":"1950 Sunnycrest Dr 1300","City":"Fullerton","State":"CA","Zip":"92835"},{"Location":"ERIC MEYER DDS","Address":"2720 N Harbor Blvd 110","City":"Fullerton","State":"CA","Zip":"92835"},{"Location":"FIRST EVANGELICAL","Address":"2801 Brea Blvd","City":"Fullerton","State":"CA","Zip":"92835"},{"Location":"FULLERTON ELKS LODGE 1993","Address":"1400 Elks View Ln","City":"Fullerton","State":"CA","Zip":"92835"},{"Location":"FULLERTON GOLF COURSE","Address":"2700 N Harbor Blvd","City":"Fullerton","State":"CA","Zip":"92835"},{"Location":"FULLERTON ORTHOPAEDIC SURGERY","Address":"101 Laguna Rd A","City":"Fullerton","State":"CA","Zip":"92835"},{"Location":"GENERATION NAIL2","Address":"2900 Brea Blvd","City":"Fullerton","State":"CA","Zip":"92835"},{"Location":"GINZA SUSHI","Address":"1068 E Bastanchury Rd","City":"Fullerton","State":"CA","Zip":"92835"},{"Location":"HOOPER HEALTHCARE","Address":"1370 Brea Blvd 218","City":"Fullerton","State":"CA","Zip":"92835"},{"Location":"HPA REALITY INC","Address":"1460 N Harbor Blvd","City":"Fullerton","State":"CA","Zip":"92835"},{"Location":"HUB GROUP INC","Address":"1400 N Harbor Blvd 300","City":"Fullerton","State":"CA","Zip":"92835"},{"Location":"IMPERIAL SPA","Address":"1885 N Euclid St","City":"Fullerton","State":"CA","Zip":"92835"},{"Location":"MIDORI JAPANESE GRILL","Address":"4090 N Harbor Blvd","City":"Fullerton","State":"CA","Zip":"92835"},{"Location":"NORTH ORANGE COUNTY YMCA","Address":"2000 Youth Way","City":"Fullerton","State":"CA","Zip":"92835"},{"Location":"OC SMILE","Address":"1950 Sunnycrest Dr 1100","City":"Fullerton","State":"CA","Zip":"92835"},{"Location":"PHANS 55 VIETNAMESE & BISTRO","Address":"1981 Sunnycrest Dr 100","City":"Fullerton","State":"CA","Zip":"92835"},{"Location":"PREMIER SLEEP MEDICINE","Address":"100 Laguna Rd 205","City":"Fullerton","State":"CA","Zip":"92835"},{"Location":"REALTY EXECUTIVES","Address":"3261 N Harbor Blvd","City":"Fullerton","State":"CA","Zip":"92835"},{"Location":"REMAX NORTH ORANGE COUNTY","Address":"1441 Brea Blvd","City":"Fullerton","State":"CA","Zip":"92835"},{"Location":"RIO FULLERTON","Address":"130 Laguna Rd A","City":"Fullerton","State":"CA","Zip":"92835"},{"Location":"SIZZLER 466","Address":"1401 N Harbor Blvd","City":"Fullerton","State":"CA","Zip":"92835"},{"Location":"SPORT CLIPS CA519","Address":"1060 E Bastanchury Rd","City":"Fullerton","State":"CA","Zip":"92835"},{"Location":"ST JUDE HERITAGE","Address":"1950 Sunnycrest Dr 2600","City":"Fullerton","State":"CA","Zip":"92835"},{"Location":"ST JUDE HERITAGE GROUP","Address":"1847 Sunnycrest Dr","City":"Fullerton","State":"CA","Zip":"92835"},{"Location":"ST JUDE HERITAGE HEALTH","Address":"2720 N Harbor Blvd 130","City":"Fullerton","State":"CA","Zip":"92835"},{"Location":"ST JUDE WOMENS CENTER","Address":"1950 Sunnycrest Dr 2800","City":"Fullerton","State":"CA","Zip":"92835"},{"Location":"SUMMIT HOUSE RESTURANT","Address":"2000 E Bastanchury Rd","City":"Fullerton","State":"CA","Zip":"92835"},{"Location":"SUNNYCREST","Address":"1925 Fullerton Road Theater","City":"Fullerton","State":"CA","Zip":"92835"},{"Location":"SUSHI FOR YOU","Address":"4090 N Harbor Blvd","City":"Fullerton","State":"CA","Zip":"92835"},{"Location":"TERRY EYE INSTITUTE","Address":"270 Laguna Rd 100","City":"Fullerton","State":"CA","Zip":"92835"},{"Location":"WELLS FARGO HM","Address":"1400 N Harbor Blvd 300","City":"Fullerton","State":"CA","Zip":"92835"},{"Location":"ACCRETIVE LAGOONA PARTNERS","Address":"1950 Sunnycrest Dr","City":"Fullerton","State":"CA","Zip":"92835"},{"Location":"ASSOC HEAD AND NECK SURGEONS","Address":"1950 Sunnycrest Dr 3800","City":"Fullerton","State":"CA","Zip":"92835"},{"Location":"BANC OF CALIFORNIA","Address":"100 Laguna Rd","City":"Fullerton","State":"CA","Zip":"92835"},{"Location":"CLEM AND YEN DDS","Address":"130 Laguna Rd","City":"Fullerton","State":"CA","Zip":"92835"},{"Location":"CONSOLIDATED MEDICAL BIO","Address":"1950 Sunnycrest Dr 1600","City":"Fullerton","State":"CA","Zip":"92835"},{"Location":"COYOTE HILLS GOLF COURSE  TRP","Address":"1440 E Bastanchury Rd","City":"Fullerton","State":"CA","Zip":"92835"},{"Location":"DAVITA #5396 SUNNY CREST","Address":"1950 Sunnycrest Dr 1300","City":"Fullerton","State":"CA","Zip":"92835"},{"Location":"ERIC MEYER DDS","Address":"2720 N Harbor Blvd 110","City":"Fullerton","State":"CA","Zip":"92835"},{"Location":"FIRST EVANGELICAL","Address":"2801 Brea Blvd","City":"Fullerton","State":"CA","Zip":"92835"},{"Location":"FULLERTON ELKS LODGE 1993","Address":"1400 Elks View Ln","City":"Fullerton","State":"CA","Zip":"92835"},{"Location":"FULLERTON GOLF COURSE","Address":"2700 N Harbor Blvd","City":"Fullerton","State":"CA","Zip":"92835"},{"Location":"FULLERTON ORTHOPAEDIC SURGERY","Address":"101 Laguna Rd A","City":"Fullerton","State":"CA","Zip":"92835"},{"Location":"GENERATION NAIL2","Address":"2900 Brea Blvd","City":"Fullerton","State":"CA","Zip":"92835"},{"Location":"GINZA SUSHI","Address":"1068 E Bastanchury Rd","City":"Fullerton","State":"CA","Zip":"92835"},{"Location":"HOOPER HEALTHCARE","Address":"1370 Brea Blvd 218","City":"Fullerton","State":"CA","Zip":"92835"},{"Location":"HPA REALITY INC","Address":"1460 N Harbor Blvd","City":"Fullerton","State":"CA","Zip":"92835"},{"Location":"HUB GROUP INC","Address":"1400 N Harbor Blvd 300","City":"Fullerton","State":"CA","Zip":"92835"},{"Location":"IMPERIAL SPA","Address":"1885 N Euclid St","City":"Fullerton","State":"CA","Zip":"92835"},{"Location":"Midori Japanese Grill","Address":"4090 N Harbor Blvd","City":"Fullerton","State":"CA","Zip":"92835"},{"Location":"NORTH ORANGE COUNTY YMCA","Address":"2000 Youth Way","City":"Fullerton","State":"CA","Zip":"92835"},{"Location":"OC SMILE","Address":"1950 Sunnycrest Dr 1100","City":"Fullerton","State":"CA","Zip":"92835"},{"Location":"PHANS 55 VIETNAMESE & BISTRO","Address":"1981 Sunnycrest Dr 100","City":"Fullerton","State":"CA","Zip":"92835"},{"Location":"PREMIER SLEEP MEDICINE","Address":"100 Laguna Rd 205","City":"Fullerton","State":"CA","Zip":"92835"},{"Location":"REALTY EXECUTIVES","Address":"3261 N Harbor Blvd","City":"Fullerton","State":"CA","Zip":"92835"},{"Location":"REMAX NORTH ORANGE COUNTY","Address":"1441 Brea Blvd","City":"Fullerton","State":"CA","Zip":"92835"},{"Location":"RIO FULLERTON","Address":"130 Laguna Rd A","City":"Fullerton","State":"CA","Zip":"92835"},{"Location":"SIZZLER 466","Address":"1401 N Harbor Blvd","City":"Fullerton","State":"CA","Zip":"92835"},{"Location":"SPORT CLIPS CA519","Address":"1060 E Bastanchury Rd","City":"Fullerton","State":"CA","Zip":"92835"},{"Location":"ST JUDE HERITAGE","Address":"1950 Sunnycrest Dr 2600","City":"Fullerton","State":"CA","Zip":"92835"},{"Location":"ST JUDE HERITAGE GROUP","Address":"1847 Sunnycrest Dr","City":"Fullerton","State":"CA","Zip":"92835"},{"Location":"ST JUDE HERITAGE HEALTH","Address":"2720 N Harbor Blvd 130","City":"Fullerton","State":"CA","Zip":"92835"},{"Location":"ST JUDE WOMENS CENTER","Address":"1950 Sunnycrest Dr 2800","City":"Fullerton","State":"CA","Zip":"92835"},{"Location":"SUMMIT HOUSE RESTURANT","Address":"2000 E Bastanchury Rd","City":"Fullerton","State":"CA","Zip":"92835"},{"Location":"SUNNYCREST","Address":"1925 Fullerton Road Theater","City":"Fullerton","State":"CA","Zip":"92835"},{"Location":"SUSHI FOR YOU","Address":"4090 N Harbor Blvd","City":"Fullerton","State":"CA","Zip":"92835"},{"Location":"TERRY EYE INSTITUTE","Address":"270 Laguna Rd 100","City":"Fullerton","State":"CA","Zip":"92835"},{"Location":"WELLS FARGO HM","Address":"1400 N Harbor Blvd 300","City":"Fullerton","State":"CA","Zip":"92835"}]