[{"Location":"A AND D CONTRACTORS","Address":"1531 W Commonwealth Ave","City":"Fullerton","State":"CA","Zip":"92833"},{"Location":"ALLURE NAILS","Address":"1971 W Malvern Ave E","City":"Fullerton","State":"CA","Zip":"92833"},{"Location":"BBCN BANK - ORANGETHORPE","Address":"1667 W Orangethorpe Ave","City":"Fullerton","State":"CA","Zip":"92833"},{"Location":"BBQ VENTURES","Address":"1941 W Malvern Ave Q","City":"Fullerton","State":"CA","Zip":"92833"},{"Location":"BURGER TOWN","Address":"2720 W Orangethorpe Ave","City":"Fullerton","State":"CA","Zip":"92833"},{"Location":"CARDINAL AIR SERVICE INC","Address":"3710 Artesia Ave","City":"Fullerton","State":"CA","Zip":"92833"},{"Location":"DAPHNES GREEK","Address":"1919 W Malvern Ave","City":"Fullerton","State":"CA","Zip":"92833"},{"Location":"DYNAMEX","Address":"2051 Raymer Ave","City":"Fullerton","State":"CA","Zip":"92833"},{"Location":"ENDRIES INTERNATIONAL INC","Address":"640 N Gilbert St","City":"Fullerton","State":"CA","Zip":"92833"},{"Location":"FENDER BENDER AND COLLISION","Address":"4355 Artesia Ave","City":"Fullerton","State":"CA","Zip":"92833"},{"Location":"FMC 83790000","Address":"1401 S Brookhurst Rd","City":"Fullerton","State":"CA","Zip":"92833"},{"Location":"FULLERTON MEDICAL PHARAMACY","Address":"1401 S Brookhurst Rd","City":"Fullerton","State":"CA","Zip":"92833"},{"Location":"GOLD'S GYM FULLERTON","Address":"1973 W Malvern Ave","City":"Fullerton","State":"CA","Zip":"92833"},{"Location":"GRACE KOREAN CHURCH","Address":"1645 W Valencia Dr","City":"Fullerton","State":"CA","Zip":"92833"},{"Location":"HYDRAFLOW","Address":"1881 W Malvern Ave","City":"Fullerton","State":"CA","Zip":"92833"},{"Location":"ISLANDS RESTAURANT #036","Address":"2201 W Malvern Ave","City":"Fullerton","State":"CA","Zip":"92833"},{"Location":"J M GLOBAL USA","Address":"428 Adlena Dr","City":"Fullerton","State":"CA","Zip":"92833"},{"Location":"KOBA TOFU & GRILL","Address":"1993 W Malvern Ave B","City":"Fullerton","State":"CA","Zip":"92833"},{"Location":"LA CASCADA BAR 1","Address":"1814 W Valencia Dr","City":"Fullerton","State":"CA","Zip":"92833"},{"Location":"LOMAH LLC","Address":"1925 W Malvern Ave","City":"Fullerton","State":"CA","Zip":"92833"},{"Location":"MANDARIN PALACE","Address":"1645 W Orangethorpe Ave","City":"Fullerton","State":"CA","Zip":"92833"},{"Location":"MARISCOS CLEMENTE","Address":"2300 W Orangethorpe Ave B","City":"Fullerton","State":"CA","Zip":"92833"},{"Location":"MERCY AIR FOUR","Address":"3710 Artesia Ave C","City":"Fullerton","State":"CA","Zip":"92833"},{"Location":"MIRAK","Address":"1056 S Brookhurst Rd","City":"Fullerton","State":"CA","Zip":"92833"},{"Location":"MULCA SALCITAS","Address":"307 S Brookhurst Rd","City":"Fullerton","State":"CA","Zip":"92833"},{"Location":"PHILLIPS TIRES","Address":"1123 W Commonwealth Ave","City":"Fullerton","State":"CA","Zip":"92833"},{"Location":"PHO HANA RESTURANT","Address":"1945 W Malvern Ave","City":"Fullerton","State":"CA","Zip":"92833"},{"Location":"PHYSICIAN SALES  SERVICE II","Address":"1938 W Malvern Ave","City":"Fullerton","State":"CA","Zip":"92833"},{"Location":"PSS WORLD MEDICAL","Address":"1930 W Malvern Ave","City":"Fullerton","State":"CA","Zip":"92833"},{"Location":"ROLL N GRILL","Address":"2226 W Orangethorpe Ave","City":"Fullerton","State":"CA","Zip":"92833"},{"Location":"SALT & PEPPER RESTAURANT","Address":"1849 W Orangethorpe Ave","City":"Fullerton","State":"CA","Zip":"92833"},{"Location":"SOUTHERN CALIFORNIA EDISON","Address":"1851 W Valencia Dr","City":"Fullerton","State":"CA","Zip":"92833"},{"Location":"SPECIALITY MEDICAL CENTER","Address":"1401 S Brookhurst Rd 100","City":"Fullerton","State":"CA","Zip":"92833"},{"Location":"STAGE ONE","Address":"1821 W Commonwealth Ave","City":"Fullerton","State":"CA","Zip":"92833"},{"Location":"STANDARD PAC AMERIGE HTS","Address":"1153 Cusick Dr","City":"Fullerton","State":"CA","Zip":"92833"},{"Location":"SUBWAY #49853","Address":"1993 W Malvern Ave C","City":"Fullerton","State":"CA","Zip":"92833"},{"Location":"TARGET","Address":"1893 W Malvern Ave","City":"Fullerton","State":"CA","Zip":"92833"},{"Location":"TOP CLASS PIZZA","Address":"1927 W Malvern Ave","City":"Fullerton","State":"CA","Zip":"92833"},{"Location":"UNITED DENTAL GROUP","Address":"1961 W Malvern Ave G","City":"Fullerton","State":"CA","Zip":"92833"},{"Location":"URIVES HOME INTERIORS","Address":"1611 W Commonwealth Ave","City":"Fullerton","State":"CA","Zip":"92833"},{"Location":"VAULT","Address":"333 Brookhurst St","City":"Fullerton","State":"CA","Zip":"92833"},{"Location":"ZILLER SINGING RESTAURAN","Address":"1050 W Valencia Dr","City":"Fullerton","State":"CA","Zip":"92833"},{"Location":"A AND D CONTRACTORS","Address":"1531 W Commonwealth Ave","City":"Fullerton","State":"CA","Zip":"92833"},{"Location":"ALLURE NAILS","Address":"1971 W Malvern Ave E","City":"Fullerton","State":"CA","Zip":"92833"},{"Location":"BBCN BANK - ORANGETHORPE","Address":"1667 W Orangethorpe Ave","City":"Fullerton","State":"CA","Zip":"92833"},{"Location":"BBQ VENTURES","Address":"1941 W Malvern Ave Q","City":"Fullerton","State":"CA","Zip":"92833"},{"Location":"BURGER TOWN","Address":"2720 W Orangethorpe Ave","City":"Fullerton","State":"CA","Zip":"92833"},{"Location":"CARDINAL AIR SERVICE INC","Address":"3710 Artesia Ave","City":"Fullerton","State":"CA","Zip":"92833"},{"Location":"DAPHNES GREEK","Address":"1919 W Malvern Ave","City":"Fullerton","State":"CA","Zip":"92833"},{"Location":"DYNAMEX","Address":"2051 Raymer Ave","City":"Fullerton","State":"CA","Zip":"92833"},{"Location":"ENDRIES INTERNATIONAL INC","Address":"640 N Gilbert St","City":"Fullerton","State":"CA","Zip":"92833"},{"Location":"FENDER BENDER AND COLLISION","Address":"4355 Artesia Ave","City":"Fullerton","State":"CA","Zip":"92833"},{"Location":"FMC 83790000","Address":"1401 S Brookhurst Rd","City":"Fullerton","State":"CA","Zip":"92833"},{"Location":"FULLERTON MEDICAL PHARAMACY","Address":"1401 S Brookhurst Rd","City":"Fullerton","State":"CA","Zip":"92833"},{"Location":"GOLD'S GYM FULLERTON","Address":"1973 W Malvern Ave","City":"Fullerton","State":"CA","Zip":"92833"},{"Location":"GRACE KOREAN CHURCH","Address":"1645 W Valencia Dr","City":"Fullerton","State":"CA","Zip":"92833"},{"Location":"HYDRAFLOW","Address":"1881 W Malvern Ave","City":"Fullerton","State":"CA","Zip":"92833"},{"Location":"ISLANDS RESTAURANT #036","Address":"2201 W Malvern Ave","City":"Fullerton","State":"CA","Zip":"92833"},{"Location":"J M GLOBAL USA","Address":"428 Adlena Dr","City":"Fullerton","State":"CA","Zip":"92833"},{"Location":"KOBA TOFU & GRILL","Address":"1993 W Malvern Ave B","City":"Fullerton","State":"CA","Zip":"92833"},{"Location":"LA CASCADA BAR 1","Address":"1814 W Valencia Dr","City":"Fullerton","State":"CA","Zip":"92833"},{"Location":"LOMAH LLC","Address":"1925 W Malvern Ave","City":"Fullerton","State":"CA","Zip":"92833"},{"Location":"MANDARIN PALACE","Address":"1645 W Orangethorpe Ave","City":"Fullerton","State":"CA","Zip":"92833"},{"Location":"MARISCOS CLEMENTE","Address":"2300 W Orangethorpe Ave B","City":"Fullerton","State":"CA","Zip":"92833"},{"Location":"MERCY AIR FOUR","Address":"3710 Artesia Ave C","City":"Fullerton","State":"CA","Zip":"92833"},{"Location":"MIRAK","Address":"1056 S Brookhurst Rd","City":"Fullerton","State":"CA","Zip":"92833"},{"Location":"MULCA SALCITAS","Address":"307 S Brookhurst Rd","City":"Fullerton","State":"CA","Zip":"92833"},{"Location":"PHILLIPS TIRES","Address":"1123 W Commonwealth Ave","City":"Fullerton","State":"CA","Zip":"92833"},{"Location":"PHO HANA RESTURANT","Address":"1945 W Malvern Ave","City":"Fullerton","State":"CA","Zip":"92833"},{"Location":"PHYSICIAN SALES  SERVICE II","Address":"1938 W Malvern Ave","City":"Fullerton","State":"CA","Zip":"92833"},{"Location":"PSS WORLD MEDICAL","Address":"1930 W Malvern Ave","City":"Fullerton","State":"CA","Zip":"92833"},{"Location":"ROLL N GRILL","Address":"2226 W Orangethorpe Ave","City":"Fullerton","State":"CA","Zip":"92833"},{"Location":"SALT & PEPPER RESTAURANT","Address":"1849 W Orangethorpe Ave","City":"Fullerton","State":"CA","Zip":"92833"},{"Location":"SOUTHERN CALIFORNIA EDISON","Address":"1851 W Valencia Dr","City":"Fullerton","State":"CA","Zip":"92833"},{"Location":"SPECIALITY MEDICAL CENTER","Address":"1401 S Brookhurst Rd 100","City":"Fullerton","State":"CA","Zip":"92833"},{"Location":"STAGE ONE","Address":"1821 W Commonwealth Ave","City":"Fullerton","State":"CA","Zip":"92833"},{"Location":"STANDARD PAC AMERIGE HTS","Address":"1153 Cusick Dr","City":"Fullerton","State":"CA","Zip":"92833"},{"Location":"SUBWAY #49853","Address":"1993 W Malvern Ave C","City":"Fullerton","State":"CA","Zip":"92833"},{"Location":"TARGET","Address":"1893 W Malvern Ave","City":"Fullerton","State":"CA","Zip":"92833"},{"Location":"TOP CLASS PIZZA","Address":"1927 W Malvern Ave","City":"Fullerton","State":"CA","Zip":"92833"},{"Location":"UNITED DENTAL GROUP","Address":"1961 W Malvern Ave G","City":"Fullerton","State":"CA","Zip":"92833"},{"Location":"URIVES HOME INTERIORS","Address":"1611 W Commonwealth Ave","City":"Fullerton","State":"CA","Zip":"92833"},{"Location":"VAULT","Address":"333 Brookhurst St","City":"Fullerton","State":"CA","Zip":"92833"},{"Location":"ZILLER SINGING RESTAURAN","Address":"1050 W Valencia Dr","City":"Fullerton","State":"CA","Zip":"92833"}]