[{"Location":"AIRES DEL PERU","Address":"13008 Chapman Ave","City":"Garden Grove","State":"CA","Zip":"92840"},{"Location":"ANDTECH CORP-L%2FP","Address":"12908 Haster St","City":"Garden Grove","State":"CA","Zip":"92840"},{"Location":"ASIAN WEST MASSAGE THERA","Address":"12570 Brookhurst St 3","City":"Garden Grove","State":"CA","Zip":"92840"},{"Location":"AZTEC LOUNGE","Address":"12911 Main St B","City":"Garden Grove","State":"CA","Zip":"92840"},{"Location":"AZTEC MEXICAN","Address":"12911 Main St","City":"Garden Grove","State":"CA","Zip":"92840"},{"Location":"BUCA DI BEPPO #518","Address":"11757 Harbor Blvd","City":"Garden Grove","State":"CA","Zip":"92840"},{"Location":"CAROLINAS ITALIAN CUISINE","Address":"12045 Chapman Ave","City":"Garden Grove","State":"CA","Zip":"92840"},{"Location":"CAY SI CASE","Address":"12178 Brookhurst St","City":"Garden Grove","State":"CA","Zip":"92840"},{"Location":"CHUZE FITNESS","Address":"12145 Brookhurst St","City":"Garden Grove","State":"CA","Zip":"92840"},{"Location":"CITY OF GARDEN GROVE","Address":"11301 Acacia Pkwy","City":"Garden Grove","State":"CA","Zip":"92840"},{"Location":"CLAWS","Address":"12125 Brookhurst St E","City":"Garden Grove","State":"CA","Zip":"92840"},{"Location":"COFFEE LOVERS","Address":"12842 Brookhurst St","City":"Garden Grove","State":"CA","Zip":"92840"},{"Location":"CONGRESS WOMAN LORRETTA SANCHE","Address":"12397 Lewis St 101","City":"Garden Grove","State":"CA","Zip":"92840"},{"Location":"CRAZY GRILL","Address":"12401 Haster St","City":"Garden Grove","State":"CA","Zip":"92840"},{"Location":"CROWN PLAZA-ANAHEIM","Address":"12021 Harbor Blvd","City":"Garden Grove","State":"CA","Zip":"92840"},{"Location":"CRYSTAL CAR WASH","Address":"12592 Chapman Ave","City":"Garden Grove","State":"CA","Zip":"92840"},{"Location":"DOUGS DOWNTOWN GRILL","Address":"12900 Main St","City":"Garden Grove","State":"CA","Zip":"92840"},{"Location":"ESSIE SALON","Address":"12901 Harbor Blvd A4","City":"Garden Grove","State":"CA","Zip":"92840"},{"Location":"FIESTA TIME","Address":"12371 Haster St","City":"Garden Grove","State":"CA","Zip":"92840"},{"Location":"FIRESTONE #010979","Address":"10081 Chapman Ave","City":"Garden Grove","State":"CA","Zip":"92840"},{"Location":"FMC 71740000","Address":"12761 Harbor Blvd","City":"Garden Grove","State":"CA","Zip":"92840"},{"Location":"GARDEN GROVE FD STATION 1","Address":"11301 Acacia Pkwy","City":"Garden Grove","State":"CA","Zip":"92840"},{"Location":"GARDEN GROVE FD STATION 6","Address":"12111 Chapman Ave","City":"Garden Grove","State":"CA","Zip":"92840"},{"Location":"GENIE DEN","Address":"12531 Harbor Blvd","City":"Garden Grove","State":"CA","Zip":"92840"},{"Location":"GUZMAN CABINETS","Address":"12826 Nutwood St","City":"Garden Grove","State":"CA","Zip":"92840"},{"Location":"HAMBLIN ENTERPRISES INC","Address":"10601 Acacia Ave","City":"Garden Grove","State":"CA","Zip":"92840"},{"Location":"HANANARU","Address":"11915 Euclid St","City":"Garden Grove","State":"CA","Zip":"92840"},{"Location":"HAUS OF PIZZA","Address":"12912 Harbor Blvd","City":"Garden Grove","State":"CA","Zip":"92840"},{"Location":"HENRY HOF BRAU","Address":"10549 Stanford Ave","City":"Garden Grove","State":"CA","Zip":"92840"},{"Location":"HYATT REGENCY - OC","Address":"11999 Harbor Blvd","City":"Garden Grove","State":"CA","Zip":"92840"},{"Location":"JCS #0711 - GARDEN GROVE","Address":"12011 Harbor Blvd","City":"Garden Grove","State":"CA","Zip":"92840"},{"Location":"KINDNESS CONSTRUCTION COMPANY","Address":"12891 Nelson St","City":"Garden Grove","State":"CA","Zip":"92840"},{"Location":"LAKEVIEW VILLAGE CORP","Address":"12879 Harbor Blvd N1","City":"Garden Grove","State":"CA","Zip":"92840"},{"Location":"LANDMARK HOSPITALITY BAR","Address":"12015 Harbor Blvd","City":"Garden Grove","State":"CA","Zip":"92840"},{"Location":"LORENA MAAE INSURANCE","Address":"12913 Harbor Blvd Q3","City":"Garden Grove","State":"CA","Zip":"92840"},{"Location":"LOUIE'S ON MAIN","Address":"12942 Main St","City":"Garden Grove","State":"CA","Zip":"92840"},{"Location":"LUCERO DENTAL CLINIC","Address":"12833 Harvard Blvd Ste F3","City":"Garden Grove","State":"CA","Zip":"92840"},{"Location":"M AND TOI RESTAURANT","Address":"12172 Brookhurst St","City":"Garden Grove","State":"CA","Zip":"92840"},{"Location":"MARISCOS CHAMIZAL","Address":"12455 Haster St","City":"Garden Grove","State":"CA","Zip":"92840"},{"Location":"MEAGHER REALTY INC","Address":"12882 Main St","City":"Garden Grove","State":"CA","Zip":"92840"},{"Location":"MOTOR SPORT CAFE","Address":"12908 Main St","City":"Garden Grove","State":"CA","Zip":"92840"},{"Location":"MR POLLO","Address":"12563 Harbor Blvd","City":"Garden Grove","State":"CA","Zip":"92840"},{"Location":"NOH","Address":"11291 Bixler Dr","City":"Garden Grove","State":"CA","Zip":"92840"},{"Location":"OGGIS PIZZA AND BREWING","Address":"12362 Chapman Ave","City":"Garden Grove","State":"CA","Zip":"92840"},{"Location":"OUTBACK STEAKHOUSE #0577","Address":"12001 Harbor Blvd","City":"Garden Grove","State":"CA","Zip":"92840"},{"Location":"PANCHITOS TAQUERIA","Address":"13048 Chapman Ave","City":"Garden Grove","State":"CA","Zip":"92840"},{"Location":"PIERRES PIZZA","Address":"12879 Harbor Blvd N3","City":"Garden Grove","State":"CA","Zip":"92840"},{"Location":"RED LOBSTER #0518","Address":"12892 Harbor Blvd","City":"Garden Grove","State":"CA","Zip":"92840"},{"Location":"RED ROBIN #146","Address":"12007 Harbor Blvd","City":"Garden Grove","State":"CA","Zip":"92840"},{"Location":"RESIDENCE INN (0054699)","Address":"11931 Harbor Blvd","City":"Garden Grove","State":"CA","Zip":"92840"},{"Location":"RESIDENCE INN GARDEN GROVE","Address":"11931 Harbor Blvd","City":"Garden Grove","State":"CA","Zip":"92840"},{"Location":"SAIGON 9 RESTAURANT","Address":"12801 Harbor Blvd H4","City":"Garden Grove","State":"CA","Zip":"92840"},{"Location":"SCOTT TAX ASSOCIATES","Address":"12952 Main St","City":"Garden Grove","State":"CA","Zip":"92840"},{"Location":"SPICE GARDEN","Address":"12093 Brookhurst St E","City":"Garden Grove","State":"CA","Zip":"92840"},{"Location":"SUGARS","Address":"12792 Brookhurst St","City":"Garden Grove","State":"CA","Zip":"92840"},{"Location":"SUMALEE PORNPRATAN1","Address":"11891 Euclid St","City":"Garden Grove","State":"CA","Zip":"92840"},{"Location":"SURGICAL CENTER GG","Address":"12894 Harbor Blvd","City":"Garden Grove","State":"CA","Zip":"92840"},{"Location":"THAI TANGERINE RESTURANT","Address":"12541 Harbor Blvd","City":"Garden Grove","State":"CA","Zip":"92840"},{"Location":"THE BOILER ROOM","Address":"12332 Brookhurst St","City":"Garden Grove","State":"CA","Zip":"92840"},{"Location":"THE BRICKHOUSE ON MAIN","Address":"12941 Main St","City":"Garden Grove","State":"CA","Zip":"92840"},{"Location":"THE GLOBE","Address":"12926 Main St","City":"Garden Grove","State":"CA","Zip":"92840"},{"Location":"THE RED POT","Address":"12119 Brookhurst St","City":"Garden Grove","State":"CA","Zip":"92840"},{"Location":"THE TARTAN ROOM","Address":"13062 Chapman Ave","City":"Garden Grove","State":"CA","Zip":"92840"},{"Location":"TOP STAR HAIR AND NAILS","Address":"12811 Harbor Blvd H3","City":"Garden Grove","State":"CA","Zip":"92840"},{"Location":"UNIVERSAL CARE","Address":"12511 Brookhurst St","City":"Garden Grove","State":"CA","Zip":"92840"},{"Location":"WATERS FAMILY LIMITED","Address":"10321 Geneva Ln","City":"Garden Grove","State":"CA","Zip":"92840"},{"Location":"WHEEL WORKS","Address":"12787 Nutwood St","City":"Garden Grove","State":"CA","Zip":"92840"}]