[{"Location":"166 CAFE","Address":"10552 Mcfadden Ave","City":"Garden Grove","State":"CA","Zip":"92843"},{"Location":"808 INVESTMENTS LLC","Address":"13888 Harbor Blvd 8a","City":"Garden Grove","State":"CA","Zip":"92843"},{"Location":"A&D ADJUSTERS","Address":"13932 Seaboard Cir","City":"Garden Grove","State":"CA","Zip":"92843"},{"Location":"ANNAHANG TATTOO","Address":"13071 Brookhurst St 225","City":"Garden Grove","State":"CA","Zip":"92843"},{"Location":"BEHR DETAILING","Address":"14300 Clinton St 175","City":"Garden Grove","State":"CA","Zip":"92843"},{"Location":"BO 7 MON THIEN AN","Address":"13518 Harbor Blvd A6","City":"Garden Grove","State":"CA","Zip":"92843"},{"Location":"BOILING CRAB TO GO","Address":"13908 Brookhurst St #b","City":"Garden Grove","State":"CA","Zip":"92843"},{"Location":"C3 PATIENT ASSOCIATION","Address":"12644 Westminster Ave","City":"Garden Grove","State":"CA","Zip":"92843"},{"Location":"CAFE 166","Address":"10552 Mcfadden Ave","City":"Garden Grove","State":"CA","Zip":"92843"},{"Location":"CAFE 168","Address":"13959 Harbor Blvd","City":"Garden Grove","State":"CA","Zip":"92843"},{"Location":"CAFE CHI CHI","Address":"14282 Brookhurst St 4","City":"Garden Grove","State":"CA","Zip":"92843"},{"Location":"CAFE DA LAT","Address":"14241 Euclid St 108","City":"Garden Grove","State":"CA","Zip":"92843"},{"Location":"CAFE DI VANG","Address":"14221 Euclid St Ab","City":"Garden Grove","State":"CA","Zip":"92843"},{"Location":"CAFE EDEN","Address":"10900 Westminster Ave","City":"Garden Grove","State":"CA","Zip":"92843"},{"Location":"CAFE LANET","Address":"13916 Brookhurst St A","City":"Garden Grove","State":"CA","Zip":"92843"},{"Location":"CUONGS RESTAURANT","Address":"10572 Mcfadden Ave","City":"Garden Grove","State":"CA","Zip":"92843"},{"Location":"CVN68","Address":"10947 Westminster Ave","City":"Garden Grove","State":"CA","Zip":"92843"},{"Location":"DAVITA #1469","Address":"12555 Garden Grove Blvd 200","City":"Garden Grove","State":"CA","Zip":"92843"},{"Location":"DAVITA #2264 GARDEN GROVE","Address":"13054 Harbor Blvd","City":"Garden Grove","State":"CA","Zip":"92843"},{"Location":"DELICIA DE MEXICO","Address":"13466 Harbor Blvd","City":"Garden Grove","State":"CA","Zip":"92843"},{"Location":"DVLD 2015 LLC","Address":"10592 Garden Grove Blvd","City":"Garden Grove","State":"CA","Zip":"92843"},{"Location":"FIRESTONE #024856","Address":"13961 Brookhurst St","City":"Garden Grove","State":"CA","Zip":"92843"},{"Location":"FIRST CLASS WINDOWS","Address":"10422 Trask Ave","City":"Garden Grove","State":"CA","Zip":"92843"},{"Location":"FMC 71760000","Address":"12555 Garden Grove Blvd 100","City":"Garden Grove","State":"CA","Zip":"92843"},{"Location":"FRONT LINE MOTOR CARS","Address":"13631 Harbor Blvd B","City":"Garden Grove","State":"CA","Zip":"92843"},{"Location":"FURIWA","Address":"13826 Brookhurst St","City":"Garden Grove","State":"CA","Zip":"92843"},{"Location":"GARD GRVE FIRE STATION 3","Address":"12132 Trask Ave","City":"Garden Grove","State":"CA","Zip":"92843"},{"Location":"GARDEN GROVE ELKS LODGE","Address":"11551 Trask Ave","City":"Garden Grove","State":"CA","Zip":"92843"},{"Location":"GOODYEAR 8650","Address":"14040 Brookhurst St","City":"Garden Grove","State":"CA","Zip":"92843"},{"Location":"HAI KY MI GIA","Address":"10141 Westminster Ave N","City":"Garden Grove","State":"CA","Zip":"92843"},{"Location":"HALF TIME RESTAURANT","Address":"13187 Brookhurst St","City":"Garden Grove","State":"CA","Zip":"92843"},{"Location":"HARBOR FAMILY DENTAL","Address":"13945 Harbor Blvd","City":"Garden Grove","State":"CA","Zip":"92843"},{"Location":"HOA BINH RESTAURANT","Address":"14472 Brookhurst St","City":"Garden Grove","State":"CA","Zip":"92843"},{"Location":"I4 CAFE INC","Address":"10212 Westminster Ave","City":"Garden Grove","State":"CA","Zip":"92843"},{"Location":"JIN CAFE","Address":"14331 Euclid St 107","City":"Garden Grove","State":"CA","Zip":"92843"},{"Location":"JULIES BARBERSHOP","Address":"10515 Mcfadden Ave","City":"Garden Grove","State":"CA","Zip":"92843"},{"Location":"KOBE SUSHI AND STEAK","Address":"10752 Westminster Ave","City":"Garden Grove","State":"CA","Zip":"92843"},{"Location":"KOREAN BBQ INCHEONWON","Address":"13321 Brookhurst St","City":"Garden Grove","State":"CA","Zip":"92843"},{"Location":"KYM CAFE","Address":"10240 Westminster Ave 104","City":"Garden Grove","State":"CA","Zip":"92843"},{"Location":"LAM PRECISION INC","Address":"13901 Seaboard Cir","City":"Garden Grove","State":"CA","Zip":"92843"},{"Location":"LIBERTY TAX SERVICE 2","Address":"13281 Harbor Blvd","City":"Garden Grove","State":"CA","Zip":"92843"},{"Location":"LR COLLECTIBLES","Address":"11611 Salinaz Ave Q","City":"Garden Grove","State":"CA","Zip":"92843"},{"Location":"LU","Address":"10161 Westminster Ave","City":"Garden Grove","State":"CA","Zip":"92843"},{"Location":"MAI PAY HIEN","Address":"10567 Bolsa Ave","City":"Garden Grove","State":"CA","Zip":"92843"},{"Location":"MARIE CALLENDER'S","Address":"13252 Brookhurst St","City":"Garden Grove","State":"CA","Zip":"92843"},{"Location":"MDN RESTAURANT INC","Address":"10141 Westminster Ave","City":"Garden Grove","State":"CA","Zip":"92843"},{"Location":"MIDAS VAPE LLC","Address":"10537 Garden Grove Blvd","City":"Garden Grove","State":"CA","Zip":"92843"},{"Location":"NICHOLAS CHEVROLET","Address":"10150 Trask Ave","City":"Garden Grove","State":"CA","Zip":"92843"},{"Location":"OCTA","Address":"11800 Woodbury Rd","City":"Garden Grove","State":"CA","Zip":"92843"},{"Location":"OCTA 2","Address":"11800 Woodbury Rd","City":"Garden Grove","State":"CA","Zip":"92843"},{"Location":"OCTA 3","Address":"11800 Woodbury Rd","City":"Garden Grove","State":"CA","Zip":"92843"},{"Location":"PALOMA MUNOZ","Address":"13129 Harbor Blvd 19","City":"Garden Grove","State":"CA","Zip":"92843"},{"Location":"PHUONG HOANG RESTURANT","Address":"10557 Bolsa Ave","City":"Garden Grove","State":"CA","Zip":"92843"},{"Location":"PICO DE GALLO","Address":"13470 Harbor Blvd","City":"Garden Grove","State":"CA","Zip":"92843"},{"Location":"QUAN GIO","Address":"14241 Euclid St C111","City":"Garden Grove","State":"CA","Zip":"92843"},{"Location":"QUAN HOA AN LLC","Address":"14291 Euclid St D101","City":"Garden Grove","State":"CA","Zip":"92843"},{"Location":"REGINAS RESTAURANT","Address":"11025 Westminster Ave","City":"Garden Grove","State":"CA","Zip":"92843"},{"Location":"REX LOUNGE","Address":"10212 Westminster Ave","City":"Garden Grove","State":"CA","Zip":"92843"},{"Location":"ROYAL CAPITOL SEA FOOD","Address":"10911 Westminster Ave","City":"Garden Grove","State":"CA","Zip":"92843"},{"Location":"SAIGON BAKERY1","Address":"13861 Brookhurst St","City":"Garden Grove","State":"CA","Zip":"92843"},{"Location":"SANCHEZ RESTAURANT","Address":"11906 Garden Grove Blvd","City":"Garden Grove","State":"CA","Zip":"92843"},{"Location":"SBTN","Address":"10501 Garden Grove Blvd","City":"Garden Grove","State":"CA","Zip":"92843"},{"Location":"SCHOOLS FIRST FEDERAL CREDIT U","Address":"13008 Harbor Blvd","City":"Garden Grove","State":"CA","Zip":"92843"},{"Location":"STRONG KIDS MEDICAL GROU","Address":"12665 Garden Grove Blvd 713","City":"Garden Grove","State":"CA","Zip":"92843"},{"Location":"SUBWAY","Address":"13841 Euclid St F","City":"Garden Grove","State":"CA","Zip":"92843"},{"Location":"SUBWAY 30013","Address":"13961 Harbor Blvd","City":"Garden Grove","State":"CA","Zip":"92843"},{"Location":"T M GENARATION INC","Address":"13916 Brookhurst St Be","City":"Garden Grove","State":"CA","Zip":"92843"},{"Location":"TAQUERIA MEXICO","Address":"13217 Harbor Blvd","City":"Garden Grove","State":"CA","Zip":"92843"},{"Location":"THANH TAM BILLIARDS","Address":"10902 Westminster Ave","City":"Garden Grove","State":"CA","Zip":"92843"},{"Location":"THE ALLEY OF FAR EAST","Address":"13904 Brookhurst St","City":"Garden Grove","State":"CA","Zip":"92843"},{"Location":"THE BOILING CRAB","Address":"13892 Brookhurst St","City":"Garden Grove","State":"CA","Zip":"92843"},{"Location":"THE BOILING CRAB","Address":"14241 Euclid St C116","City":"Garden Grove","State":"CA","Zip":"92843"},{"Location":"THE BOILING CRAB TO GO","Address":"13908 Brookhurst St B","City":"Garden Grove","State":"CA","Zip":"92843"},{"Location":"THE CRAWFISH HOUSE","Address":"10112 Westminster Ave","City":"Garden Grove","State":"CA","Zip":"92843"},{"Location":"THE GLEN BAR & GRILL","Address":"13132 Garden Grove Blvd B","City":"Garden Grove","State":"CA","Zip":"92843"},{"Location":"TIP TOP SANDWICHES","Address":"14094 Brookhurst St","City":"Garden Grove","State":"CA","Zip":"92843"},{"Location":"TRAM CHIM RESTAURANT","Address":"10131 Westminster Ave","City":"Garden Grove","State":"CA","Zip":"92843"},{"Location":"TU DO RESTAURANT","Address":"10284 Westminster Ave","City":"Garden Grove","State":"CA","Zip":"92843"},{"Location":"UNITED DOMESTIC WORKERS","Address":"13252 Garden Grove Blvd 180","City":"Garden Grove","State":"CA","Zip":"92843"},{"Location":"VAN PHONG THE XANH","Address":"10141 Westminster Ave 6","City":"Garden Grove","State":"CA","Zip":"92843"},{"Location":"VELVET RESTAURANT","Address":"10592 Garden Grove Blvd","City":"Garden Grove","State":"CA","Zip":"92843"},{"Location":"VIENTIANE RESTAURANT","Address":"10262 Westminster Ave","City":"Garden Grove","State":"CA","Zip":"92843"},{"Location":"VU","Address":"10947 Westminster Ave","City":"Garden Grove","State":"CA","Zip":"92843"},{"Location":"YUMMY SEAFOOD INC","Address":"13289 Brookhurst St","City":"Garden Grove","State":"CA","Zip":"92843"},{"Location":"166 Cafe","Address":"10552 Mcfadden Ave","City":"Garden Grove","State":"CA","Zip":"92843"},{"Location":"808 INVESTMENTS LLC","Address":"13888 Harbor Blvd 8a","City":"Garden Grove","State":"CA","Zip":"92843"},{"Location":"A&D ADJUSTERS","Address":"13932 Seaboard Cir","City":"Garden Grove","State":"CA","Zip":"92843"},{"Location":"ANNAHANG TATTOO","Address":"13071 Brookhurst St 225","City":"Garden Grove","State":"CA","Zip":"92843"},{"Location":"BEHR DETAILING","Address":"14300 Clinton St 175","City":"Garden Grove","State":"CA","Zip":"92843"},{"Location":"BO 7 MON THIEN AN","Address":"13518 Harbor Blvd A6","City":"Garden Grove","State":"CA","Zip":"92843"},{"Location":"Boiling Crab To Go","Address":"13908 Brookhurst St #b","City":"Garden Grove","State":"CA","Zip":"92843"},{"Location":"C3 PATIENT ASSOCIATION","Address":"12644 Westminster Ave","City":"Garden Grove","State":"CA","Zip":"92843"},{"Location":"CAFE 166","Address":"10552 Mcfadden Ave","City":"Garden Grove","State":"CA","Zip":"92843"},{"Location":"CAFE 168","Address":"13959 Harbor Blvd","City":"Garden Grove","State":"CA","Zip":"92843"},{"Location":"CAFE CHI CHI","Address":"14282 Brookhurst St 4","City":"Garden Grove","State":"CA","Zip":"92843"},{"Location":"CAFE DA LAT","Address":"14241 Euclid St 108","City":"Garden Grove","State":"CA","Zip":"92843"},{"Location":"CAFE DI VANG","Address":"14221 Euclid St Ab","City":"Garden Grove","State":"CA","Zip":"92843"},{"Location":"CAFE EDEN","Address":"10900 Westminster Ave","City":"Garden Grove","State":"CA","Zip":"92843"},{"Location":"CAFE LANET","Address":"13916 Brookhurst St A","City":"Garden Grove","State":"CA","Zip":"92843"},{"Location":"CUONGS RESTAURANT","Address":"10572 Mcfadden Ave","City":"Garden Grove","State":"CA","Zip":"92843"},{"Location":"CVN68","Address":"10947 Westminster Ave","City":"Garden Grove","State":"CA","Zip":"92843"},{"Location":"DAVITA #1469","Address":"12555 Garden Grove Blvd 200","City":"Garden Grove","State":"CA","Zip":"92843"},{"Location":"DAVITA #2264 GARDEN GROVE","Address":"13054 Harbor Blvd","City":"Garden Grove","State":"CA","Zip":"92843"},{"Location":"DELICIA DE MEXICO","Address":"13466 Harbor Blvd","City":"Garden Grove","State":"CA","Zip":"92843"},{"Location":"FIRESTONE #024856","Address":"13961 Brookhurst St","City":"Garden Grove","State":"CA","Zip":"92843"},{"Location":"FIRST CLASS WINDOWS","Address":"10422 Trask Ave","City":"Garden Grove","State":"CA","Zip":"92843"},{"Location":"FMC 71760000","Address":"12555 Garden Grove Blvd 100","City":"Garden Grove","State":"CA","Zip":"92843"},{"Location":"FRONT LINE MOTOR CARS","Address":"13631 Harbor Blvd B","City":"Garden Grove","State":"CA","Zip":"92843"},{"Location":"FURIWA","Address":"13826 Brookhurst St","City":"Garden Grove","State":"CA","Zip":"92843"},{"Location":"GARD GRVE FIRE STATION 3","Address":"12132 Trask Ave","City":"Garden Grove","State":"CA","Zip":"92843"},{"Location":"GARDEN GROVE ELKS LODGE","Address":"11551 Trask Ave","City":"Garden Grove","State":"CA","Zip":"92843"},{"Location":"GOODYEAR 8650","Address":"14040 Brookhurst St","City":"Garden Grove","State":"CA","Zip":"92843"},{"Location":"HAI KY MI GIA","Address":"10141 Westminster Ave N","City":"Garden Grove","State":"CA","Zip":"92843"},{"Location":"HALF TIME RESTAURANT","Address":"13187 Brookhurst St","City":"Garden Grove","State":"CA","Zip":"92843"},{"Location":"HARBOR FAMILY DENTAL","Address":"13945 Harbor Blvd","City":"Garden Grove","State":"CA","Zip":"92843"},{"Location":"HOA BINH RESTAURANT","Address":"14472 Brookhurst St","City":"Garden Grove","State":"CA","Zip":"92843"},{"Location":"I4 CAFE INC","Address":"10212 Westminster Ave","City":"Garden Grove","State":"CA","Zip":"92843"},{"Location":"JIN CAFE","Address":"14331 Euclid St 107","City":"Garden Grove","State":"CA","Zip":"92843"},{"Location":"JULIES BARBERSHOP","Address":"10515 Mcfadden Ave","City":"Garden Grove","State":"CA","Zip":"92843"},{"Location":"KOBE SUSHI AND STEAK","Address":"10752 Westminster Ave","City":"Garden Grove","State":"CA","Zip":"92843"},{"Location":"KOREAN BBQ INCHEONWON","Address":"13321 Brookhurst St","City":"Garden Grove","State":"CA","Zip":"92843"},{"Location":"KYM CAFE","Address":"10240 Westminster Ave 104","City":"Garden Grove","State":"CA","Zip":"92843"},{"Location":"LAM PRECISION INC","Address":"13901 Seaboard Cir","City":"Garden Grove","State":"CA","Zip":"92843"},{"Location":"LIBERTY TAX SERVICE 2","Address":"13281 Harbor Blvd","City":"Garden Grove","State":"CA","Zip":"92843"},{"Location":"LR COLLECTIBLES","Address":"11611 Salinaz Ave Q","City":"Garden Grove","State":"CA","Zip":"92843"},{"Location":"LU","Address":"10161 Westminster Ave","City":"Garden Grove","State":"CA","Zip":"92843"},{"Location":"MAI PAY HIEN","Address":"10567 Bolsa Ave","City":"Garden Grove","State":"CA","Zip":"92843"},{"Location":"MARIE CALLENDER'S","Address":"13252 Brookhurst St","City":"Garden Grove","State":"CA","Zip":"92843"},{"Location":"MDN RESTUARANT 2","Address":"10141 Westminster Ave","City":"Garden Grove","State":"CA","Zip":"92843"},{"Location":"MIDAS VAPE LLC","Address":"10537 Garden Grove Blvd","City":"Garden Grove","State":"CA","Zip":"92843"},{"Location":"NICHOLAS CHEVROLET","Address":"10150 Trask Ave","City":"Garden Grove","State":"CA","Zip":"92843"},{"Location":"OCTA","Address":"11800 Woodbury Rd","City":"Garden Grove","State":"CA","Zip":"92843"},{"Location":"OCTA 2","Address":"11800 Woodbury Rd","City":"Garden Grove","State":"CA","Zip":"92843"},{"Location":"OCTA 3","Address":"11800 Woodbury Rd","City":"Garden Grove","State":"CA","Zip":"92843"},{"Location":"PALOMA MUNOZ","Address":"13129 Harbor Blvd 19","City":"Garden Grove","State":"CA","Zip":"92843"},{"Location":"PHUONG HOANG RESTURANT","Address":"10557 Bolsa Ave","City":"Garden Grove","State":"CA","Zip":"92843"},{"Location":"PICO DE GALLO","Address":"13470 Harbor Blvd","City":"Garden Grove","State":"CA","Zip":"92843"},{"Location":"QUAN GIO","Address":"14241 Euclid St C111","City":"Garden Grove","State":"CA","Zip":"92843"},{"Location":"QUAN HOA AN LLC","Address":"14291 Euclid St D101","City":"Garden Grove","State":"CA","Zip":"92843"},{"Location":"REGINAS RESTAURANT","Address":"11025 Westminster Ave","City":"Garden Grove","State":"CA","Zip":"92843"},{"Location":"REX LOUNGE","Address":"10212 Westminster Ave","City":"Garden Grove","State":"CA","Zip":"92843"},{"Location":"ROYAL CAPITOL SEA FOOD","Address":"10911 Westminster Ave","City":"Garden Grove","State":"CA","Zip":"92843"},{"Location":"SAIGON BAKERY1","Address":"13861 Brookhurst St","City":"Garden Grove","State":"CA","Zip":"92843"},{"Location":"SANCHEZ RESTAURANT","Address":"11906 Garden Grove Blvd","City":"Garden Grove","State":"CA","Zip":"92843"},{"Location":"SBTN","Address":"10501 Garden Grove Blvd","City":"Garden Grove","State":"CA","Zip":"92843"},{"Location":"SCHOOLS FIRST FEDERAL CREDIT U","Address":"13008 Harbor Blvd","City":"Garden Grove","State":"CA","Zip":"92843"},{"Location":"STRONG KIDS MEDICAL GROU","Address":"12665 Garden Grove Blvd 713","City":"Garden Grove","State":"CA","Zip":"92843"},{"Location":"SUBWAY","Address":"13841 Euclid St F","City":"Garden Grove","State":"CA","Zip":"92843"},{"Location":"SUBWAY 30013","Address":"13961 Harbor Blvd","City":"Garden Grove","State":"CA","Zip":"92843"},{"Location":"T M GENARATION INC","Address":"13916 Brookhurst St Be","City":"Garden Grove","State":"CA","Zip":"92843"},{"Location":"TAQUERIA MEXICO","Address":"13217 Harbor Blvd","City":"Garden Grove","State":"CA","Zip":"92843"},{"Location":"THANH TAM BILLIARDS","Address":"10902 Westminster Ave","City":"Garden Grove","State":"CA","Zip":"92843"},{"Location":"THE ALLEY OF FAR EAST","Address":"13904 Brookhurst St","City":"Garden Grove","State":"CA","Zip":"92843"},{"Location":"THE BOILING CRAB","Address":"13892 Brookhurst St","City":"Garden Grove","State":"CA","Zip":"92843"},{"Location":"THE BOILING CRAB","Address":"14241 Euclid St C116","City":"Garden Grove","State":"CA","Zip":"92843"},{"Location":"THE BOILING CRAB TO GO","Address":"13908 Brookhurst St B","City":"Garden Grove","State":"CA","Zip":"92843"},{"Location":"THE CRAWFISH HOUSE","Address":"10112 Westminster Ave","City":"Garden Grove","State":"CA","Zip":"92843"},{"Location":"THE GLEN BAR & GRILL","Address":"13132 Garden Grove Blvd B","City":"Garden Grove","State":"CA","Zip":"92843"},{"Location":"TIP TOP SANDWICHES","Address":"14094 Brookhurst St","City":"Garden Grove","State":"CA","Zip":"92843"},{"Location":"TRAM CHIM RESTAURANT","Address":"10131 Westminster Ave","City":"Garden Grove","State":"CA","Zip":"92843"},{"Location":"TU DO RESTAURANT","Address":"10284 Westminster Ave","City":"Garden Grove","State":"CA","Zip":"92843"},{"Location":"UNITED DOMESTIC WORKERS","Address":"13252 Garden Grove Blvd 180","City":"Garden Grove","State":"CA","Zip":"92843"},{"Location":"VAN PHONG THE XANH","Address":"10141 Westminster Ave 6","City":"Garden Grove","State":"CA","Zip":"92843"},{"Location":"VELVET RESTAURANT","Address":"10592 Garden Grove Blvd","City":"Garden Grove","State":"CA","Zip":"92843"},{"Location":"VIENTIANE RESTAURANT","Address":"10262 Westminster Ave","City":"Garden Grove","State":"CA","Zip":"92843"},{"Location":"VU","Address":"10947 Westminster Ave","City":"Garden Grove","State":"CA","Zip":"92843"},{"Location":"YUMMY SEAFOOD INC","Address":"13289 Brookhurst St","City":"Garden Grove","State":"CA","Zip":"92843"}]