[{"Location":"24 HOUR FITNESS #156","Address":"9561 Chapman Ave","City":"Garden Grove","State":"CA","Zip":"92841"},{"Location":"ADVANTAGE DENTAL LABRATORY","Address":"7441 Garden Grove Blvd H","City":"Garden Grove","State":"CA","Zip":"92841"},{"Location":"ARABISC","Address":"9562 Chapman Ave","City":"Garden Grove","State":"CA","Zip":"92841"},{"Location":"BART'S PUB & GRILL","Address":"7052 Orangewood Ave","City":"Garden Grove","State":"CA","Zip":"92841"},{"Location":"C AND D ZODIAC","Address":"7330 Lincoln Way","City":"Garden Grove","State":"CA","Zip":"92841"},{"Location":"CALIFORNIA RELOCATION SERVICES","Address":"7361 Doig Dr","City":"Garden Grove","State":"CA","Zip":"92841"},{"Location":"CAPITOL ONE AUTOMOTIVE","Address":"7231 Garden Grove Blvd K","City":"Garden Grove","State":"CA","Zip":"92841"},{"Location":"CERTIFIED TIRE","Address":"9572 Chapman Ave","City":"Garden Grove","State":"CA","Zip":"92841"},{"Location":"CHAMBER SERVICES INC","Address":"11521 Monarch St","City":"Garden Grove","State":"CA","Zip":"92841"},{"Location":"CHAPMAN CAR WASH","Address":"9732 Chapman Ave","City":"Garden Grove","State":"CA","Zip":"92841"},{"Location":"D LOUNGE AND RESTAURANT","Address":"12921 Fern St","City":"Garden Grove","State":"CA","Zip":"92841"},{"Location":"ECONOMY TIRES","Address":"12848 Western Ave","City":"Garden Grove","State":"CA","Zip":"92841"},{"Location":"ETREBY COMPUTER COMPANY","Address":"7861 Garden Grove Blvd","City":"Garden Grove","State":"CA","Zip":"92841"},{"Location":"FINAL ASSEMBLY INC","Address":"11652 Monarch St","City":"Garden Grove","State":"CA","Zip":"92841"},{"Location":"G BROTHERS CONSTRUCTION","Address":"7070 Patterson Dr","City":"Garden Grove","State":"CA","Zip":"92841"},{"Location":"GARDEN GROVE FIRE STN 5","Address":"12751 Western Ave","City":"Garden Grove","State":"CA","Zip":"92841"},{"Location":"GARRETT BIGGS 1","Address":"12921 Fern St F","City":"Garden Grove","State":"CA","Zip":"92841"},{"Location":"HAN WOO RI","Address":"12942 Galway St B","City":"Garden Grove","State":"CA","Zip":"92841"},{"Location":"INSIGHT INVESMENTS","Address":"7012 Belgrave Ave","City":"Garden Grove","State":"CA","Zip":"92841"},{"Location":"INSTALLATION PARTNERS","Address":"7089 Belgrave Ave","City":"Garden Grove","State":"CA","Zip":"92841"},{"Location":"JHM PRINTING","Address":"11562 Knott St 3","City":"Garden Grove","State":"CA","Zip":"92841"},{"Location":"JIM HASKETT CONSTRUCTION INC","Address":"7600 Acacia Ave","City":"Garden Grove","State":"CA","Zip":"92841"},{"Location":"KYOPORI","Address":"9789 Chapman Ave","City":"Garden Grove","State":"CA","Zip":"92841"},{"Location":"LOGISTICARE1","Address":"7441 Lincoln Way 200","City":"Garden Grove","State":"CA","Zip":"92841"},{"Location":"LOYAL ORDER OF MOOSE","Address":"9901 Bixby Ave","City":"Garden Grove","State":"CA","Zip":"92841"},{"Location":"MICROSEMI","Address":"11861 Western Ave","City":"Garden Grove","State":"CA","Zip":"92841"},{"Location":"MITCHEL DEAN COLLINS CON","Address":"12771 Monarch St B","City":"Garden Grove","State":"CA","Zip":"92841"},{"Location":"MITSUBISHI ELECTRIC AUTO AMER","Address":"7345 Orangewood Ave","City":"Garden Grove","State":"CA","Zip":"92841"},{"Location":"MODERN HC PHARMACY","Address":"7441 Lincoln Way","City":"Garden Grove","State":"CA","Zip":"92841"},{"Location":"NAIL  SPA","Address":"9571 Chapman Ave","City":"Garden Grove","State":"CA","Zip":"92841"},{"Location":"OFFICE MAX INC","Address":"7300 Chapman Ave","City":"Garden Grove","State":"CA","Zip":"92841"},{"Location":"PACIFIC ENVIRONMENT","Address":"12821 Western Ave D","City":"Garden Grove","State":"CA","Zip":"92841"},{"Location":"PRIEM PROPERTIES","Address":"12012 Knott St A-2","City":"Garden Grove","State":"CA","Zip":"92841"},{"Location":"PROGRESSIVE PHYSICAL","Address":"7461 Garden Grove Blvd","City":"Garden Grove","State":"CA","Zip":"92841"},{"Location":"QUALITY FIRE STONE","Address":"12042 Knott St","City":"Garden Grove","State":"CA","Zip":"92841"},{"Location":"REVOLUTION SUPPLY COMPANY","Address":"7421 Anaconda Ave","City":"Garden Grove","State":"CA","Zip":"92841"},{"Location":"ROYAL PACKAGING","Address":"12637 Hoover St","City":"Garden Grove","State":"CA","Zip":"92841"},{"Location":"SAINT GOBAIN PPL","Address":"7301 Orangewood Ave","City":"Garden Grove","State":"CA","Zip":"92841"},{"Location":"SOCAL JRS VVC INC","Address":"11651 Markon Dr","City":"Garden Grove","State":"CA","Zip":"92841"},{"Location":"SOUTHLAND INDUSTRIES","Address":"7390 Lincoln Way","City":"Garden Grove","State":"CA","Zip":"92841"},{"Location":"SOYOKAZE","Address":"9542 Chapman Ave","City":"Garden Grove","State":"CA","Zip":"92841"},{"Location":"TACOS LA LAGUNILLA","Address":"11012 Magnolia St","City":"Garden Grove","State":"CA","Zip":"92841"},{"Location":"TALSCO INC","Address":"7101 Papperson Dr","City":"Garden Grove","State":"CA","Zip":"92841"},{"Location":"TEKNOPRINT","Address":"11612 Knott St 9","City":"Garden Grove","State":"CA","Zip":"92841"},{"Location":"TELETRAC","Address":"7391 Lincoln Way","City":"Garden Grove","State":"CA","Zip":"92841"},{"Location":"TOBACCO TAVERN","Address":"12072 Knott St C","City":"Garden Grove","State":"CA","Zip":"92841"},{"Location":"VETERANS FIRST","Address":"12781 Josephine St","City":"Garden Grove","State":"CA","Zip":"92841"},{"Location":"VILLA CAPRI ESTATES","Address":"8111 Stanford Ave 86","City":"Garden Grove","State":"CA","Zip":"92841"},{"Location":"VMI INC","Address":"11258 Monarch St A","City":"Garden Grove","State":"CA","Zip":"92841"},{"Location":"WESTERN AIR LIMBACH","Address":"12442 Knott St","City":"Garden Grove","State":"CA","Zip":"92841"},{"Location":"24 HOUR FITNESS #156","Address":"9561 Chapman Ave","City":"Garden Grove","State":"CA","Zip":"92841"},{"Location":"ADVANTAGE DENTAL LABRATORY","Address":"7441 Garden Grove Blvd H","City":"Garden Grove","State":"CA","Zip":"92841"},{"Location":"ARABISC","Address":"9562 Chapman Ave","City":"Garden Grove","State":"CA","Zip":"92841"},{"Location":"BART'S PUB & GRILL","Address":"7052 Orangewood Ave","City":"Garden Grove","State":"CA","Zip":"92841"},{"Location":"C AND D ZODIAC","Address":"7330 Lincoln Way","City":"Garden Grove","State":"CA","Zip":"92841"},{"Location":"CALIFORNIA RELOCATION SERVICES","Address":"7361 Doig Dr","City":"Garden Grove","State":"CA","Zip":"92841"},{"Location":"CAPITOL ONE AUTOMOTIVE","Address":"7231 Garden Grove Blvd K","City":"Garden Grove","State":"CA","Zip":"92841"},{"Location":"CERTIFIED TIRE","Address":"9572 Chapman Ave","City":"Garden Grove","State":"CA","Zip":"92841"},{"Location":"CHAMBER SERVICES INC","Address":"11521 Monarch St","City":"Garden Grove","State":"CA","Zip":"92841"},{"Location":"CHAPMAN CAR WASH","Address":"9732 Chapman Ave","City":"Garden Grove","State":"CA","Zip":"92841"},{"Location":"D LOUNGE AND RESTAURANT","Address":"12921 Fern St","City":"Garden Grove","State":"CA","Zip":"92841"},{"Location":"ECONOMY TIRES","Address":"12848 Western Ave","City":"Garden Grove","State":"CA","Zip":"92841"},{"Location":"ETREBY COMPUTER COMPANY","Address":"7861 Garden Grove Blvd","City":"Garden Grove","State":"CA","Zip":"92841"},{"Location":"FINAL ASSEMBLY INC","Address":"11652 Monarch St","City":"Garden Grove","State":"CA","Zip":"92841"},{"Location":"G BROTHERS CONSTRUCTION","Address":"7070 Patterson Dr","City":"Garden Grove","State":"CA","Zip":"92841"},{"Location":"GARDEN GROVE FIRE STN 5","Address":"12751 Western Ave","City":"Garden Grove","State":"CA","Zip":"92841"},{"Location":"GARRETT BIGGS 1","Address":"12921 Fern St F","City":"Garden Grove","State":"CA","Zip":"92841"},{"Location":"HAN WOO RI","Address":"12942 Galway St B","City":"Garden Grove","State":"CA","Zip":"92841"},{"Location":"INSIGHT INVESMENTS","Address":"7012 Belgrave Ave","City":"Garden Grove","State":"CA","Zip":"92841"},{"Location":"INSTALLATION PARTNERS","Address":"7089 Belgrave Ave","City":"Garden Grove","State":"CA","Zip":"92841"},{"Location":"JHM PRINTING","Address":"11562 Knott St 3","City":"Garden Grove","State":"CA","Zip":"92841"},{"Location":"JIM HASKETT CONSTRUCTION INC","Address":"7600 Acacia Ave","City":"Garden Grove","State":"CA","Zip":"92841"},{"Location":"KYOPORI","Address":"9789 Chapman Ave","City":"Garden Grove","State":"CA","Zip":"92841"},{"Location":"LOGISTICARE1","Address":"7441 Lincoln Way 200","City":"Garden Grove","State":"CA","Zip":"92841"},{"Location":"LOYAL ORDER OF MOOSE","Address":"9901 Bixby Ave","City":"Garden Grove","State":"CA","Zip":"92841"},{"Location":"MICROSEMI","Address":"11861 Western Ave","City":"Garden Grove","State":"CA","Zip":"92841"},{"Location":"MITCHEL DEAN COLLINS CON","Address":"12771 Monarch St B","City":"Garden Grove","State":"CA","Zip":"92841"},{"Location":"MITSUBISHI ELECTRIC AUTO AMER","Address":"7345 Orangewood Ave","City":"Garden Grove","State":"CA","Zip":"92841"},{"Location":"MODERN HC PHARMACY","Address":"7441 Lincoln Way","City":"Garden Grove","State":"CA","Zip":"92841"},{"Location":"NAIL  SPA","Address":"9571 Chapman Ave","City":"Garden Grove","State":"CA","Zip":"92841"},{"Location":"OFFICE MAX INC","Address":"7300 Chapman Ave","City":"Garden Grove","State":"CA","Zip":"92841"},{"Location":"PACIFIC ENVIRONMENT","Address":"12821 Western Ave D","City":"Garden Grove","State":"CA","Zip":"92841"},{"Location":"PRIEM PROPERTIES","Address":"12012 Knott St A-2","City":"Garden Grove","State":"CA","Zip":"92841"},{"Location":"PROGRESSIVE PHYSICAL","Address":"7461 Garden Grove Blvd","City":"Garden Grove","State":"CA","Zip":"92841"},{"Location":"QUALITY FIRE STONE","Address":"12042 Knott St","City":"Garden Grove","State":"CA","Zip":"92841"},{"Location":"REVOLUTION SUPPLY COMPANY","Address":"7421 Anaconda Ave","City":"Garden Grove","State":"CA","Zip":"92841"},{"Location":"ROYAL PACKAGING","Address":"12637 Hoover St","City":"Garden Grove","State":"CA","Zip":"92841"},{"Location":"SAINT GOBAIN PPL","Address":"7301 Orangewood Ave","City":"Garden Grove","State":"CA","Zip":"92841"},{"Location":"SOCAL JRS VVC INC","Address":"11651 Markon Dr","City":"Garden Grove","State":"CA","Zip":"92841"},{"Location":"SOUTHLAND INDUSTRIES","Address":"7390 Lincoln Way","City":"Garden Grove","State":"CA","Zip":"92841"},{"Location":"SOYOKAZE","Address":"9542 Chapman Ave","City":"Garden Grove","State":"CA","Zip":"92841"},{"Location":"TACOS LA LAGUNILLA","Address":"11012 Magnolia St","City":"Garden Grove","State":"CA","Zip":"92841"},{"Location":"TALSCO INC","Address":"7101 Papperson Dr","City":"Garden Grove","State":"CA","Zip":"92841"},{"Location":"TEKNOPRINT","Address":"11612 Knott St 9","City":"Garden Grove","State":"CA","Zip":"92841"},{"Location":"TELETRAC","Address":"7391 Lincoln Way","City":"Garden Grove","State":"CA","Zip":"92841"},{"Location":"TOBACCO TAVERN","Address":"12072 Knott St C","City":"Garden Grove","State":"CA","Zip":"92841"},{"Location":"VETERANS FIRST","Address":"12781 Josephine St","City":"Garden Grove","State":"CA","Zip":"92841"},{"Location":"VILLA CAPRI ESTATES","Address":"8111 Stanford Ave 86","City":"Garden Grove","State":"CA","Zip":"92841"},{"Location":"VMI INC","Address":"11258 Monarch St A","City":"Garden Grove","State":"CA","Zip":"92841"},{"Location":"WESTERN AIR LIMBACH","Address":"12442 Knott St","City":"Garden Grove","State":"CA","Zip":"92841"}]