[{"Location":"ALANO CLUB OF GARDEN GRO","Address":"9845 Belfast Dr","City":"Garden Grove","State":"CA","Zip":"92844"},{"Location":"ALARM ENGINEERING SERVIC","Address":"13867 Magnolia St","City":"Garden Grove","State":"CA","Zip":"92844"},{"Location":"ANZA INC","Address":"8295 Garden Grove Blvd 104","City":"Garden Grove","State":"CA","Zip":"92844"},{"Location":"BBCN BANK","Address":"9580 Garden Grove Blvd 100","City":"Garden Grove","State":"CA","Zip":"92844"},{"Location":"CHICKEN PLUS","Address":"8891 Garden Grove Blvd","City":"Garden Grove","State":"CA","Zip":"92844"},{"Location":"CHO TAM BIEN","Address":"9906 Westminster Ave B","City":"Garden Grove","State":"CA","Zip":"92844"},{"Location":"CHUNGS HAIR STUDIO","Address":"8281 Garden Grove Blvd Bla","City":"Garden Grove","State":"CA","Zip":"92844"},{"Location":"COFFEE MARU","Address":"9760 Garden Grove Blvd","City":"Garden Grove","State":"CA","Zip":"92844"},{"Location":"DIEM HEN RESTAURANT","Address":"9754 Garden Grove Blvd","City":"Garden Grove","State":"CA","Zip":"92844"},{"Location":"EARTH CO","Address":"9011 Westminster Ave","City":"Garden Grove","State":"CA","Zip":"92844"},{"Location":"EAST WEST SHABU SHABU","Address":"10130 Garden Grove Blvd 133","City":"Garden Grove","State":"CA","Zip":"92844"},{"Location":"FLOWER PIG","Address":"8303 Garden Grove Blvd","City":"Garden Grove","State":"CA","Zip":"92844"},{"Location":"GARDEN GROVE FD STATION 7","Address":"14162 Forsyth Ln","City":"Garden Grove","State":"CA","Zip":"92844"},{"Location":"GARDEN GROVE HYUNDAI","Address":"9898 Trask Ave","City":"Garden Grove","State":"CA","Zip":"92844"},{"Location":"GARDEN GROVE KIA","Address":"10081 Garden Grove Blvd","City":"Garden Grove","State":"CA","Zip":"92844"},{"Location":"GARRETT BIGGS","Address":"8209 Garden Grove Blvd","City":"Garden Grove","State":"CA","Zip":"92844"},{"Location":"GAYNORS LOUNGE","Address":"9902 Westminster Ave","City":"Garden Grove","State":"CA","Zip":"92844"},{"Location":"GO GOO RYEO","Address":"8851 Garden Grove Blvd 112","City":"Garden Grove","State":"CA","Zip":"92844"},{"Location":"GREEN CLINIC","Address":"9764 Garden Grove Blvd","City":"Garden Grove","State":"CA","Zip":"92844"},{"Location":"GZ CAFE","Address":"10130 Garden Grove Blvd 127","City":"Garden Grove","State":"CA","Zip":"92844"},{"Location":"HARAE JAPANESE RESTURANT","Address":"8516 Garden Grove Blvd","City":"Garden Grove","State":"CA","Zip":"92844"},{"Location":"HSBC BANK #819288","Address":"9622 Garden Grove Blvd 101","City":"Garden Grove","State":"CA","Zip":"92844"},{"Location":"HYANG CHON","Address":"9735 Garden Grove Blvd A","City":"Garden Grove","State":"CA","Zip":"92844"},{"Location":"IMPERIO NISSAN OF GARDEN GROVE","Address":"9222 Trask Ave","City":"Garden Grove","State":"CA","Zip":"92844"},{"Location":"JPHAN%2C INC.","Address":"9924 Garden Grove Blvd","City":"Garden Grove","State":"CA","Zip":"92844"},{"Location":"KANSAI JAPANESE RESTAURANT","Address":"9738 Garden Grove Blvd 2","City":"Garden Grove","State":"CA","Zip":"92844"},{"Location":"LA CATERING","Address":"9848 Garden Grove Blvd","City":"Garden Grove","State":"CA","Zip":"92844"},{"Location":"LAM","Address":"9622 Garden Grove Blvd 102","City":"Garden Grove","State":"CA","Zip":"92844"},{"Location":"MISOYA SUSHI","Address":"8893 Garden Grove Blvd","City":"Garden Grove","State":"CA","Zip":"92844"},{"Location":"MO RAN GAK","Address":"9651 Garden Grove Blvd","City":"Garden Grove","State":"CA","Zip":"92844"},{"Location":"NEW SEOUL BBQ BUFFET","Address":"9902 Garden Grove Blvd","City":"Garden Grove","State":"CA","Zip":"92844"},{"Location":"OC LAU RESTAURANT","Address":"10130 Garden Grove Blvd 111","City":"Garden Grove","State":"CA","Zip":"92844"},{"Location":"ONDAL","Address":"9240 Garden Grove Blvd","City":"Garden Grove","State":"CA","Zip":"92844"},{"Location":"PHO 86","Address":"8871 Garden Grove Blvd","City":"Garden Grove","State":"CA","Zip":"92844"},{"Location":"POJANG MACHA","Address":"9732 Garden Grove Blvd","City":"Garden Grove","State":"CA","Zip":"92844"},{"Location":"ROYAL SAUNA","Address":"9858 Garden Grove Blvd","City":"Garden Grove","State":"CA","Zip":"92844"},{"Location":"SAIGON BILLARDS","Address":"10035 Garden Grove Blvd","City":"Garden Grove","State":"CA","Zip":"92844"},{"Location":"SANG LEE & DEUK OH DDS INC","Address":"9618 Garden Grove Blvd 208","City":"Garden Grove","State":"CA","Zip":"92844"},{"Location":"SPA IMPERIAL","Address":"8251 Garden Grove Blvd","City":"Garden Grove","State":"CA","Zip":"92844"},{"Location":"SUBMARINE CRAB1","Address":"10130 Garden Grove Blvd 129","City":"Garden Grove","State":"CA","Zip":"92844"},{"Location":"THE PINE","Address":"8902 Garden Grove Blvd","City":"Garden Grove","State":"CA","Zip":"92844"},{"Location":"THE WILD CRAB","Address":"9730 Garden Grove Blvd","City":"Garden Grove","State":"CA","Zip":"92844"},{"Location":"TOYOTA OF GARDEN GROVE","Address":"9444 Trask Ave","City":"Garden Grove","State":"CA","Zip":"92844"},{"Location":"VOLCANOE TEA HOUSE","Address":"10130 Garden Grove Blvd 107","City":"Garden Grove","State":"CA","Zip":"92844"},{"Location":"ALANO CLUB OF GARDEN GRO","Address":"9845 Belfast Dr","City":"Garden Grove","State":"CA","Zip":"92844"},{"Location":"ALARM ENGINEERING SERVIC","Address":"13867 Magnolia St","City":"Garden Grove","State":"CA","Zip":"92844"},{"Location":"ANZA INC","Address":"8295 Garden Grove Blvd 104","City":"Garden Grove","State":"CA","Zip":"92844"},{"Location":"BBCN BANK","Address":"9580 Garden Grove Blvd 100","City":"Garden Grove","State":"CA","Zip":"92844"},{"Location":"CHICKEN PLUS","Address":"8891 Garden Grove Blvd","City":"Garden Grove","State":"CA","Zip":"92844"},{"Location":"CHO TAM BIEN","Address":"9906 Westminster Ave B","City":"Garden Grove","State":"CA","Zip":"92844"},{"Location":"CHUNGS HAIR STUDIO","Address":"8281 Garden Grove Blvd Bla","City":"Garden Grove","State":"CA","Zip":"92844"},{"Location":"COFFEE MARU","Address":"9760 Garden Grove Blvd","City":"Garden Grove","State":"CA","Zip":"92844"},{"Location":"DIEM HEN RESTAURANT","Address":"9754 Garden Grove Blvd","City":"Garden Grove","State":"CA","Zip":"92844"},{"Location":"EARTH CO","Address":"9011 Westminster Ave","City":"Garden Grove","State":"CA","Zip":"92844"},{"Location":"EAST WEST SHABU SHABU","Address":"10130 Garden Grove Blvd 133","City":"Garden Grove","State":"CA","Zip":"92844"},{"Location":"FLOWER PIG","Address":"8303 Garden Grove Blvd","City":"Garden Grove","State":"CA","Zip":"92844"},{"Location":"GARDEN GROVE FD STATION 7","Address":"14162 Forsyth Ln","City":"Garden Grove","State":"CA","Zip":"92844"},{"Location":"GARDEN GROVE HYUNDAI","Address":"9898 Trask Ave","City":"Garden Grove","State":"CA","Zip":"92844"},{"Location":"GARDEN GROVE KIA","Address":"10081 Garden Grove Blvd","City":"Garden Grove","State":"CA","Zip":"92844"},{"Location":"GARRETT BIGGS","Address":"8209 Garden Grove Blvd","City":"Garden Grove","State":"CA","Zip":"92844"},{"Location":"GAYNORS LOUNGE","Address":"9902 Westminster Ave","City":"Garden Grove","State":"CA","Zip":"92844"},{"Location":"GO GOO RYEO","Address":"8851 Garden Grove Blvd 112","City":"Garden Grove","State":"CA","Zip":"92844"},{"Location":"GREEN CLINIC","Address":"9764 Garden Grove Blvd","City":"Garden Grove","State":"CA","Zip":"92844"},{"Location":"GZ CAFE","Address":"10130 Garden Grove Blvd 127","City":"Garden Grove","State":"CA","Zip":"92844"},{"Location":"HARAE JAPANESE RESTURANT","Address":"8516 Garden Grove Blvd","City":"Garden Grove","State":"CA","Zip":"92844"},{"Location":"HSBC BANK #819288","Address":"9622 Garden Grove Blvd 101","City":"Garden Grove","State":"CA","Zip":"92844"},{"Location":"HYANG CHON","Address":"9735 Garden Grove Blvd A","City":"Garden Grove","State":"CA","Zip":"92844"},{"Location":"HYUNDAI BILLIARD","Address":"9766 Garden Grove Blvd","City":"Garden Grove","State":"CA","Zip":"92844"},{"Location":"IMPERIO NISSAN OF GARDEN GROVE","Address":"9222 Trask Ave","City":"Garden Grove","State":"CA","Zip":"92844"},{"Location":"JPHAN%2C INC.","Address":"9924 Garden Grove Blvd","City":"Garden Grove","State":"CA","Zip":"92844"},{"Location":"KANSAI JAPANESE RESTAURANT","Address":"9738 Garden Grove Blvd 2","City":"Garden Grove","State":"CA","Zip":"92844"},{"Location":"LA CATERING","Address":"9848 Garden Grove Blvd","City":"Garden Grove","State":"CA","Zip":"92844"},{"Location":"LAM","Address":"9622 Garden Grove Blvd 102","City":"Garden Grove","State":"CA","Zip":"92844"},{"Location":"MISOYA SUSHI","Address":"8893 Garden Grove Blvd","City":"Garden Grove","State":"CA","Zip":"92844"},{"Location":"MO RAN GAK","Address":"9651 Garden Grove Blvd","City":"Garden Grove","State":"CA","Zip":"92844"},{"Location":"NEW SEOUL BBQ BUFFET","Address":"9902 Garden Grove Blvd","City":"Garden Grove","State":"CA","Zip":"92844"},{"Location":"OC LAU RESTAURANT","Address":"10130 Garden Grove Blvd 111","City":"Garden Grove","State":"CA","Zip":"92844"},{"Location":"ONDAL","Address":"9240 Garden Grove Blvd","City":"Garden Grove","State":"CA","Zip":"92844"},{"Location":"PHO 86","Address":"8871 Garden Grove Blvd","City":"Garden Grove","State":"CA","Zip":"92844"},{"Location":"POJANG MACHA","Address":"9732 Garden Grove Blvd","City":"Garden Grove","State":"CA","Zip":"92844"},{"Location":"ROYAL SAUNA","Address":"9858 Garden Grove Blvd","City":"Garden Grove","State":"CA","Zip":"92844"},{"Location":"SAIGON BILLARDS","Address":"10035 Garden Grove Blvd","City":"Garden Grove","State":"CA","Zip":"92844"},{"Location":"SANG LEE & DEUK OH DDS INC","Address":"9618 Garden Grove Blvd 208","City":"Garden Grove","State":"CA","Zip":"92844"},{"Location":"SPA IMPERIAL","Address":"8251 Garden Grove Blvd","City":"Garden Grove","State":"CA","Zip":"92844"},{"Location":"SUBMARINE CRAB1","Address":"10130 Garden Grove Blvd 129","City":"Garden Grove","State":"CA","Zip":"92844"},{"Location":"THE PINE","Address":"8902 Garden Grove Blvd","City":"Garden Grove","State":"CA","Zip":"92844"},{"Location":"THE WILD CRAB","Address":"9730 Garden Grove Blvd","City":"Garden Grove","State":"CA","Zip":"92844"},{"Location":"TOYOTA OF GARDEN GROVE","Address":"9444 Trask Ave","City":"Garden Grove","State":"CA","Zip":"92844"},{"Location":"VOLCANOE TEA HOUSE","Address":"10130 Garden Grove Blvd 107","City":"Garden Grove","State":"CA","Zip":"92844"}]