[{"Location":"A BITE OF JERSEY","Address":"5244 Lampson Ave","City":"Garden Grove","State":"CA","Zip":"92845"},{"Location":"AMF #284 VALLEY VIEW LANES","Address":"45474 Valley View Stre","City":"Garden Grove","State":"CA","Zip":"92845"},{"Location":"LA FITNESS #58","Address":"11932 Valley View St","City":"Garden Grove","State":"CA","Zip":"92845"},{"Location":"MAKI YAKI GRILL","Address":"12451 Valley View St","City":"Garden Grove","State":"CA","Zip":"92845"},{"Location":"MIKA SUSHI","Address":"11879 Valley View St # B","City":"Garden Grove","State":"CA","Zip":"92845"},{"Location":"MIKA SUSHI GARDEN GROVE","Address":"11897 Valley View St","City":"Garden Grove","State":"CA","Zip":"92845"},{"Location":"ON THE ROCKS","Address":"12752 Valley View St","City":"Garden Grove","State":"CA","Zip":"92845"},{"Location":"ON THE ROCKS OFFICE","Address":"12752 Valley View St","City":"Garden Grove","State":"CA","Zip":"92845"},{"Location":"ONE STOP COMPLETE AUTO CARE","Address":"6961 Chapman Ave","City":"Garden Grove","State":"CA","Zip":"92845"},{"Location":"ORANGE COUNTY DOCTORS PHS","Address":"12558 Valley View St","City":"Garden Grove","State":"CA","Zip":"92845"},{"Location":"PERRYS PIZZA & ITALIAN RESTAUR","Address":"6937 Chapman Ave Rear","City":"Garden Grove","State":"CA","Zip":"92845"},{"Location":"SPARKY'S CHEESE STEAKS","Address":"11879 Valley View St A","City":"Garden Grove","State":"CA","Zip":"92845"},{"Location":"VALLEY VIEW GARDENS","Address":"11848 Valley View St","City":"Garden Grove","State":"CA","Zip":"92845"}]