[{"Location":"1 800 RADIATOR","Address":"369 W Grove Ave","City":"Orange","State":"CA","Zip":"92865"},{"Location":"24 HOUR FITNESS #922","Address":"2100 N Tustin St","City":"Orange","State":"CA","Zip":"92865"},{"Location":"ADAIR ENTERPRISES","Address":"2390 N American Way","City":"Orange","State":"CA","Zip":"92865"},{"Location":"ADDICTION INC","Address":"1502 E Lincoln Ave","City":"Orange","State":"CA","Zip":"92865"},{"Location":"ALLIANCE DIRECT LENDING INC","Address":"1301 E Lincoln Ave","City":"Orange","State":"CA","Zip":"92865"},{"Location":"ALLURE DENTAL LAB","Address":"2284 N Glassell St","City":"Orange","State":"CA","Zip":"92865"},{"Location":"AMERICAN CONTRACTORS INC","Address":"404 W Blueridge Ave","City":"Orange","State":"CA","Zip":"92865"},{"Location":"AMERICAN PRODUCT COATINGS","Address":"377 W Grove Ave","City":"Orange","State":"CA","Zip":"92865"},{"Location":"AMERICAN RESOURCES","Address":"2341 N Pacific St","City":"Orange","State":"CA","Zip":"92865"},{"Location":"AMERICAN TECHNOLOGIES INC","Address":"210 W Baywood Ave","City":"Orange","State":"CA","Zip":"92865"},{"Location":"BOBBY DS MEXICAN RESTAURANT","Address":"2139 N Tustin St","City":"Orange","State":"CA","Zip":"92865"},{"Location":"CALCLEAN INC","Address":"1790 N Case St","City":"Orange","State":"CA","Zip":"92865"},{"Location":"CALIFORNIA ANALITICAL INSTRUME","Address":"1312 W Grove Ave","City":"Orange","State":"CA","Zip":"92865"},{"Location":"CHALLENGE FINANCIAL","Address":"1004 W Taft Ave 100","City":"Orange","State":"CA","Zip":"92865"},{"Location":"CHATTERTON ASSOCIATES","Address":"3061 E La Palma","City":"Orange","State":"CA","Zip":"92865"},{"Location":"COKE COLA","Address":"700 W Grove Ave","City":"Orange","State":"CA","Zip":"92865"},{"Location":"CORRUGATED MACHNINARY SPCLST","Address":"2310 N Glassell St","City":"Orange","State":"CA","Zip":"92865"},{"Location":"CUSTOM METAL FABRICATORS","Address":"1317 W Grove Ave","City":"Orange","State":"CA","Zip":"92865"},{"Location":"DATA AIRE INC","Address":"230 W Blueridge Ave","City":"Orange","State":"CA","Zip":"92865"},{"Location":"DAVID WILSONS VILLA FORD","Address":"2550 N Tustin St","City":"Orange","State":"CA","Zip":"92865"},{"Location":"DELATORRE COMMERICAL INTERIORS","Address":"134 W Lincoln Ave","City":"Orange","State":"CA","Zip":"92865"},{"Location":"DESHLERS COLLISION INC","Address":"1133 W Taft Ave","City":"Orange","State":"CA","Zip":"92865"},{"Location":"DREAM DENTAL","Address":"1518 E Lincoln Ave","City":"Orange","State":"CA","Zip":"92865"},{"Location":"EXCEL BODYSHOP","Address":"2328 N Batavia St 113","City":"Orange","State":"CA","Zip":"92865"},{"Location":"FIFTY 50 LOUNGE","Address":"2022 N Tustin St","City":"Orange","State":"CA","Zip":"92865"},{"Location":"GENIUNE FAMILY DENTISTRY","Address":"1122 E Lincoln Ave 115","City":"Orange","State":"CA","Zip":"92865"},{"Location":"GUTIERREZ","Address":"3111 N Tustin St 105","City":"Orange","State":"CA","Zip":"92865"},{"Location":"HOLLYWOOD TIRE INC","Address":"2301 N Tustin St","City":"Orange","State":"CA","Zip":"92865"},{"Location":"HOME FRANCHISE CONCEPTS","Address":"1927 N Glassell St","City":"Orange","State":"CA","Zip":"92865"},{"Location":"JAM GROUP DBA TARTAN ROOM","Address":"2652 N Tustin St","City":"Orange","State":"CA","Zip":"92865"},{"Location":"JEFFS","Address":"1904 N Tustin St","City":"Orange","State":"CA","Zip":"92865"},{"Location":"JH GREEN PARADISE","Address":"740 E Grove Ave","City":"Orange","State":"CA","Zip":"92865"},{"Location":"JMC DISCOUNT TIRES","Address":"420 W Lincoln Ave","City":"Orange","State":"CA","Zip":"92865"},{"Location":"JTI MILLWORK","Address":"1934 N Enterprise St","City":"Orange","State":"CA","Zip":"92865"},{"Location":"JUGERIA Y WATERIA","Address":"1977 N Tustin St","City":"Orange","State":"CA","Zip":"92865"},{"Location":"KING LOBSTER PALACE","Address":"2045 N Tustin St","City":"Orange","State":"CA","Zip":"92865"},{"Location":"KMACK CONSTRUCTION INC","Address":"1814 N Neville St","City":"Orange","State":"CA","Zip":"92865"},{"Location":"LITEHOUSE SERVICES","Address":"135 W Lincoln Ave","City":"Orange","State":"CA","Zip":"92865"},{"Location":"MARTYS SPORTS BAR","Address":"1766 N Tustin St","City":"Orange","State":"CA","Zip":"92865"},{"Location":"MJB AGENCY FARMERS","Address":"1912 N Batavia St C","City":"Orange","State":"CA","Zip":"92865"},{"Location":"OFFICE TEK","Address":"1755 N Batavia St","City":"Orange","State":"CA","Zip":"92865"},{"Location":"OLIVE GARDEN #1389","Address":"2330 N Tustin St","City":"Orange","State":"CA","Zip":"92865"},{"Location":"ORANG TREE DELI","Address":"124 E Lincoln Ave","City":"Orange","State":"CA","Zip":"92865"},{"Location":"ORANGE TREE DELI","Address":"124 E Lincoln Ave","City":"Orange","State":"CA","Zip":"92865"},{"Location":"PAPER MART","Address":"2164 N Batavia St","City":"Orange","State":"CA","Zip":"92865"},{"Location":"PARADIGM HOLDINGS GROUP","Address":"385 W Grove Ave","City":"Orange","State":"CA","Zip":"92865"},{"Location":"PHO OH TASTY","Address":"2024 N Tustin St","City":"Orange","State":"CA","Zip":"92865"},{"Location":"POLKA DELI","Address":"1710 N Tustin St","City":"Orange","State":"CA","Zip":"92865"},{"Location":"PREFERRED AUTOBODY%2C INC","Address":"1821 N Glassell St","City":"Orange","State":"CA","Zip":"92865"},{"Location":"RC EUBY PUBLISHING","Address":"2583 N Dunbar St","City":"Orange","State":"CA","Zip":"92865"},{"Location":"RED ROBIN #45","Address":"2199 N Orange Mall","City":"Orange","State":"CA","Zip":"92865"},{"Location":"S A RECYCLING","Address":"2411 N Glassell St","City":"Orange","State":"CA","Zip":"92865"},{"Location":"SCOPE PACKAGING INC.","Address":"240 W Fletcher Ave","City":"Orange","State":"CA","Zip":"92865"},{"Location":"SCRUMPTIOUS WEDDING AND SPECIA","Address":"1722 N Tustin St","City":"Orange","State":"CA","Zip":"92865"},{"Location":"SEARS AUTO CENTER","Address":"2100 N Tustin St","City":"Orange","State":"CA","Zip":"92865"},{"Location":"SIMPLE FOODS INC","Address":"2139 N Tustin St 7","City":"Orange","State":"CA","Zip":"92865"},{"Location":"SOWSKI","Address":"2294 N Batavia St E","City":"Orange","State":"CA","Zip":"92865"},{"Location":"SUPER SPORTS GOLF AND RACK","Address":"2190 N Canal St","City":"Orange","State":"CA","Zip":"92865"},{"Location":"SYSTECHS","Address":"249 W Baywood Ave","City":"Orange","State":"CA","Zip":"92865"},{"Location":"TD FOODS LLC%2FOGGIS EXPRE","Address":"1500 E Village Way 2197","City":"Orange","State":"CA","Zip":"92865"},{"Location":"THE OLIVE PIT","Address":"834 E Lincoln Ave","City":"Orange","State":"CA","Zip":"92865"},{"Location":"THOMPSON DESIGN CENTER","Address":"1716 N Case St","City":"Orange","State":"CA","Zip":"92865"},{"Location":"VALIANT BREWING CO","Address":"2294 N Batavia St C","City":"Orange","State":"CA","Zip":"92865"},{"Location":"VOLT INFORMATION SERVICES","Address":"2421 N Glassell St","City":"Orange","State":"CA","Zip":"92865"},{"Location":"WAIKIKI HAWAIIAN GRILL","Address":"2094 N Tustin St A2","City":"Orange","State":"CA","Zip":"92865"},{"Location":"WESTERN WELL & CEILING CONTRAC","Address":"1910 N Lime St","City":"Orange","State":"CA","Zip":"92865"},{"Location":"ZITO'S PIZZA","Address":"2036 N Tustin St","City":"Orange","State":"CA","Zip":"92865"}]