[{"Location":"ALLIED BUILDING PRODUCTS","Address":"1606 Hamner Ave","City":"Norco","State":"CA","Zip":"92860"},{"Location":"AMERICAN LEGION","Address":"3888 Old Hamner Rd","City":"Norco","State":"CA","Zip":"92860"},{"Location":"AMI HACIENDA","Address":"1680 Hamner Ave 26","City":"Norco","State":"CA","Zip":"92860"},{"Location":"AMY'S SPORTS BAR","Address":"1950 S Four Wheel Dr","City":"Norco","State":"CA","Zip":"92860"},{"Location":"ATS PRECISION MACHINING","Address":"1850 5th St","City":"Norco","State":"CA","Zip":"92860"},{"Location":"Babes Sports Bar","Address":"1180 6th Street","City":"Norco","State":"CA","Zip":"92860"},{"Location":"BADLANDS BBQ 2","Address":"120 Hidden Valley Pkwy","City":"Norco","State":"CA","Zip":"92860"},{"Location":"BAJA FISH TACOS RESTAURANT","Address":"2335 Hamner Ave","City":"Norco","State":"CA","Zip":"92860"},{"Location":"BOBS BIG BOY","Address":"3521 Hamner Ave","City":"Norco","State":"CA","Zip":"92860"},{"Location":"BRUNSWICK #878 CLASSIC LANES","Address":"1800 Hamner Ave","City":"Norco","State":"CA","Zip":"92860"},{"Location":"BSB  LLC NORCO","Address":"1178 6th St","City":"Norco","State":"CA","Zip":"92860"},{"Location":"BURGER CITY GRILL","Address":"994 Hamner Ave","City":"Norco","State":"CA","Zip":"92860"},{"Location":"CALIBUR COLLISION","Address":"2000 S Four Wheel Dr","City":"Norco","State":"CA","Zip":"92860"},{"Location":"CAR SPA INC. CE2-1","Address":"996 Mountain Ave","City":"Norco","State":"CA","Zip":"92860"},{"Location":"COWBOYS JOE SPORTS SALOON","Address":"3230 Hamner Ave","City":"Norco","State":"CA","Zip":"92860"},{"Location":"CRAZY BROTHER SUSHI CORP","Address":"3699 Hamner Ave D","City":"Norco","State":"CA","Zip":"92860"},{"Location":"CREATIVE CUTS","Address":"2658 Hamner Ave","City":"Norco","State":"CA","Zip":"92860"},{"Location":"CREST HOME FOR THE ELDER","Address":"4460 Crestview Dr","City":"Norco","State":"CA","Zip":"92860"},{"Location":"DAVITA #2011 NORCO","Address":"1901 Town And Country Dr 100","City":"Norco","State":"CA","Zip":"92860"},{"Location":"DFI PREFERRED INSURANCE","Address":"2027 Hamner Ave","City":"Norco","State":"CA","Zip":"92860"},{"Location":"ELITE HAIR NAILS","Address":"3591 Hamner Ave C","City":"Norco","State":"CA","Zip":"92860"},{"Location":"Empire Vape","Address":"1825 Hamner Ave%2C Suite F","City":"Norco","State":"CA","Zip":"92860"},{"Location":"FILIPPI'S PIZZA","Address":"1192 6th St","City":"Norco","State":"CA","Zip":"92860"},{"Location":"FLOOR AND DECOR INC","Address":"200 Hidden Valley Pkwy","City":"Norco","State":"CA","Zip":"92860"},{"Location":"FOUR PAWS","Address":"343 6th St G","City":"Norco","State":"CA","Zip":"92860"},{"Location":"GATEWAY CHIROPRACTIC","Address":"2641 206 Hamner  Ave","City":"Norco","State":"CA","Zip":"92860"},{"Location":"GENTLE DENTAL","Address":"1260 Hamner Ave","City":"Norco","State":"CA","Zip":"92860"},{"Location":"GLOBAL ESTATES SERVICES","Address":"2641 Hamner Ave 202","City":"Norco","State":"CA","Zip":"92860"},{"Location":"GORGEOUN NAIL HAIR & SPA","Address":"960 6th St 103a","City":"Norco","State":"CA","Zip":"92860"},{"Location":"GUY YOCOM CONSTRUCTIONS INC","Address":"3299 Horseless Carriage Dr","City":"Norco","State":"CA","Zip":"92860"},{"Location":"HIDDEN VALLEY GOLF CLUB","Address":"10 Clubhouse Dr","City":"Norco","State":"CA","Zip":"92860"},{"Location":"HIDDEN VALLEY GOLF CLUB 2","Address":"10 Clubhouse Dr","City":"Norco","State":"CA","Zip":"92860"},{"Location":"J BRENLIN DESIGN","Address":"2054 Tandem","City":"Norco","State":"CA","Zip":"92860"},{"Location":"JEHOVAHS WITNESSES","Address":"1001k Parkridge Ave","City":"Norco","State":"CA","Zip":"92860"},{"Location":"JERSEY MIKES","Address":"1411 Hamner Ave 104","City":"Norco","State":"CA","Zip":"92860"},{"Location":"JIFFY LUBE 3011","Address":"2925 Hamner Ave","City":"Norco","State":"CA","Zip":"92860"},{"Location":"JT KNOWLTON","Address":"1825 Hamner Ave Ae","City":"Norco","State":"CA","Zip":"92860"},{"Location":"K NAILS","Address":"1411 Hamner Ave","City":"Norco","State":"CA","Zip":"92860"},{"Location":"KARAS FOOD INC","Address":"1325 Hamner Ave","City":"Norco","State":"CA","Zip":"92860"},{"Location":"KELLY LAM DDS INC","Address":"2488 Hamner Ave 100","City":"Norco","State":"CA","Zip":"92860"},{"Location":"KING BARRELL","Address":"2185 Del Mar Rd","City":"Norco","State":"CA","Zip":"92860"},{"Location":"LA FITNESS #42","Address":"1377 Hamner Ave","City":"Norco","State":"CA","Zip":"92860"},{"Location":"MAVERICKS","Address":"3841 Old Hamner Rd","City":"Norco","State":"CA","Zip":"92860"},{"Location":"MOUNTAIN VIEW TIRE NORCO","Address":"2935 Hamner Ave","City":"Norco","State":"CA","Zip":"92860"},{"Location":"NAVY FITNESS CENTER","Address":"1999 4th St","City":"Norco","State":"CA","Zip":"92860"},{"Location":"NORCO MEDICAL GROUP","Address":"1901 Town And Country Dr 104","City":"Norco","State":"CA","Zip":"92860"},{"Location":"ORIGINAL PANCACK HOUSE","Address":"1750 Hamner Ave","City":"Norco","State":"CA","Zip":"92860"},{"Location":"PIZZA CORRAL","Address":"960 6th St 105a","City":"Norco","State":"CA","Zip":"92860"},{"Location":"RANCHO TACO SHOP","Address":"2057 River Rd","City":"Norco","State":"CA","Zip":"92860"},{"Location":"RODEO BURGER%2C INC","Address":"940 6th St","City":"Norco","State":"CA","Zip":"92860"},{"Location":"SADDLE SORE SALOON & EAT","Address":"343 6th St","City":"Norco","State":"CA","Zip":"92860"},{"Location":"SLAM DUNK #2","Address":"2854 Hamner Ave","City":"Norco","State":"CA","Zip":"92860"},{"Location":"SLAM DUNK NORCO","Address":"2854 Hamner Ave","City":"Norco","State":"CA","Zip":"92860"},{"Location":"SLICKS BILLARDS","Address":"1825 Hamner Ave J","City":"Norco","State":"CA","Zip":"92860"},{"Location":"SMOKERS HEAVEN","Address":"140 Hidden Valley Pkwy","City":"Norco","State":"CA","Zip":"92860"},{"Location":"SMOKERS HEAVEN SMOKE AND VAPE SHOP","Address":"140 Hidden Valley Parkway Suite B","City":"Norco","State":"CA","Zip":"92860"},{"Location":"Smokers Heaven Smoke And Vape Shop","Address":"140 Hidden Valley Pkwy%2C Ste B","City":"Norco","State":"CA","Zip":"92860"},{"Location":"SONS OF LIBERTY L WORKS","Address":"1780 Cown Country Drive","City":"Norco","State":"CA","Zip":"92860"},{"Location":"SPEARMINT RHINO CORPORATE","Address":"1875 Tandem","City":"Norco","State":"CA","Zip":"92860"},{"Location":"SPORTS NUT PIZZA","Address":"1820 Hamner Ave","City":"Norco","State":"CA","Zip":"92860"},{"Location":"SPS PERFOMANCE","Address":"2743 Hamner Ave","City":"Norco","State":"CA","Zip":"92860"},{"Location":"SR MACHINE","Address":"640 Parkridge Ave","City":"Norco","State":"CA","Zip":"92860"},{"Location":"SSI EXPRESS","Address":"2191 5th St 204","City":"Norco","State":"CA","Zip":"92860"},{"Location":"SWEET BASIL THAI BISTRO","Address":"1670 Hamner Ave 9","City":"Norco","State":"CA","Zip":"92860"},{"Location":"TACO STATION","Address":"3370 Hamner Ave","City":"Norco","State":"CA","Zip":"92860"},{"Location":"TARGET","Address":"1290 Hamner Ave","City":"Norco","State":"CA","Zip":"92860"},{"Location":"THE VACANT SECTION","Address":"2743 Hamner Ave","City":"Norco","State":"CA","Zip":"92860"},{"Location":"TRUE TOUCH NAIL","Address":"140 Hidden Valley Pkwy","City":"Norco","State":"CA","Zip":"92860"},{"Location":"TRUE TOUCH NAIL 2","Address":"3699 Hamner Ave","City":"Norco","State":"CA","Zip":"92860"},{"Location":"UKANI DENTAL","Address":"1540 Hamner Ave 102","City":"Norco","State":"CA","Zip":"92860"},{"Location":"WATER WHEEL","Address":"980 6th St","City":"Norco","State":"CA","Zip":"92860"},{"Location":"WHEELS AND DEALS AUTO SALES","Address":"942 Hamner Ave","City":"Norco","State":"CA","Zip":"92860"},{"Location":"WING STOP","Address":"140 Hidden Valley Pkwy","City":"Norco","State":"CA","Zip":"92860"},{"Location":"ZAKYS KABOB","Address":"3699 Hamner Ave","City":"Norco","State":"CA","Zip":"92860"}]