[{"Location":"AMERICAN VISION WINDOWS INC","Address":"548 W Katella Ave","City":"Orange","State":"CA","Zip":"92867"},{"Location":"ANYTIME FITNESS","Address":"2688 N Santiago Blvd","City":"Orange","State":"CA","Zip":"92867"},{"Location":"APPRAISAL SOLUTION PRODUCTS","Address":"1045 W Katella Ave 370","City":"Orange","State":"CA","Zip":"92867"},{"Location":"ARMS SPECIALTY AND TOOL","Address":"1014 N Parker St","City":"Orange","State":"CA","Zip":"92867"},{"Location":"AWA COLLECTIONS","Address":"1045 W Katella Ave","City":"Orange","State":"CA","Zip":"92867"},{"Location":"B.B. GRAHAM & CO INC","Address":"1700 W Katella Ave","City":"Orange","State":"CA","Zip":"92867"},{"Location":"BEACON MARKETING GROUP","Address":"1101 W Struck Ave","City":"Orange","State":"CA","Zip":"92867"},{"Location":"BIG O TIRES #5824","Address":"1825 E Katella Ave","City":"Orange","State":"CA","Zip":"92867"},{"Location":"BIOMAT USA","Address":"612 W Katella Ave","City":"Orange","State":"CA","Zip":"92867"},{"Location":"BREW HAWG BBQ BREWING","Address":"665 N Tustin St","City":"Orange","State":"CA","Zip":"92867"},{"Location":"CAL PAC PAINTING","Address":"1411 N Batavia St","City":"Orange","State":"CA","Zip":"92867"},{"Location":"CALIFORNIA HIGHWAY PATROL","Address":"1744 W Katella Ave 230","City":"Orange","State":"CA","Zip":"92867"},{"Location":"CAPITAL CONTROL SERVICES","Address":"1085 N Main St","City":"Orange","State":"CA","Zip":"92867"},{"Location":"CAPRI RESTAURANT INC","Address":"320 E Katella Ave A","City":"Orange","State":"CA","Zip":"92867"},{"Location":"CHALLENGE FINANCIAL SERV","Address":"1095 N Main St A","City":"Orange","State":"CA","Zip":"92867"},{"Location":"CHILI'S #0562","Address":"1411 W Katella Ave","City":"Orange","State":"CA","Zip":"92867"},{"Location":"CHINA TERRANCE","Address":"1192 N Tustin St","City":"Orange","State":"CA","Zip":"92867"},{"Location":"CHINS KITCHEN","Address":"1009 N Tustin St","City":"Orange","State":"CA","Zip":"92867"},{"Location":"CHP - KATELLA FACILITY #2","Address":"1744 W Katella Ave","City":"Orange","State":"CA","Zip":"92867"},{"Location":"CITRUS STREET LLC","Address":"1130 N Citrus St","City":"Orange","State":"CA","Zip":"92867"},{"Location":"CJACKS AUTOS","Address":"815 E Katella Ave","City":"Orange","State":"CA","Zip":"92867"},{"Location":"CLARION COACH INC #2","Address":"1667 N Odonnell Way","City":"Orange","State":"CA","Zip":"92867"},{"Location":"CLARION COACH INC.","Address":"1667 N Odonnell Way","City":"Orange","State":"CA","Zip":"92867"},{"Location":"COSMOS MAKE UP ACADEMY","Address":"665 N Tustin St T","City":"Orange","State":"CA","Zip":"92867"},{"Location":"CRANE RENTAL SERVICE INC","Address":"1901 W Collins Ave","City":"Orange","State":"CA","Zip":"92867"},{"Location":"CRAZY 8 MOTEL","Address":"1300 E Katella Ave","City":"Orange","State":"CA","Zip":"92867"},{"Location":"DANNY K'S","Address":"1096 N Main St","City":"Orange","State":"CA","Zip":"92867"},{"Location":"DAVID WILSON'S FORD OF ORANGE","Address":"1350 W Katella Ave","City":"Orange","State":"CA","Zip":"92867"},{"Location":"DEIGO MARTINEZ","Address":"518 W Katella Ave","City":"Orange","State":"CA","Zip":"92867"},{"Location":"EL NUEVO MARIACHI INC","Address":"650 N Tustin St","City":"Orange","State":"CA","Zip":"92867"},{"Location":"ENGINEERED MACHINING SOLUTIONS","Address":"967 N Eckhoff St","City":"Orange","State":"CA","Zip":"92867"},{"Location":"FABTEX INC","Address":"1202 W Struck Ave","City":"Orange","State":"CA","Zip":"92867"},{"Location":"FIRESTONE #016020","Address":"1690 N Tustin St","City":"Orange","State":"CA","Zip":"92867"},{"Location":"FITNESS 19 - 202","Address":"1845 E Chapman Ave","City":"Orange","State":"CA","Zip":"92867"},{"Location":"FLAPPY JACKS","Address":"2848 N Santiago Blvd","City":"Orange","State":"CA","Zip":"92867"},{"Location":"FOUNDATION BUILDING MATERIALS","Address":"1431 N Main St","City":"Orange","State":"CA","Zip":"92867"},{"Location":"GOODYEAR 4820","Address":"410 N Tustin St","City":"Orange","State":"CA","Zip":"92867"},{"Location":"GREEN CHINA","Address":"595 N Tustin St","City":"Orange","State":"CA","Zip":"92867"},{"Location":"HEIDARI","Address":"980 N Tustin St","City":"Orange","State":"CA","Zip":"92867"},{"Location":"HOLIDAY SKATE","Address":"175 N Wayfield St","City":"Orange","State":"CA","Zip":"92867"},{"Location":"HONDA YAKI","Address":"934 N Tustin St","City":"Orange","State":"CA","Zip":"92867"},{"Location":"HUTTO DEAN AND COMPANY","Address":"1590 N Batavia St 3","City":"Orange","State":"CA","Zip":"92867"},{"Location":"ISLANDS RESTAURANT #004","Address":"550 N Tustin St","City":"Orange","State":"CA","Zip":"92867"},{"Location":"J N SONS HEADLIGHTS","Address":"1140 N Lemon St","City":"Orange","State":"CA","Zip":"92867"},{"Location":"JAPANESE PLAZA TERIYAKI","Address":"526 W Katella Ave","City":"Orange","State":"CA","Zip":"92867"},{"Location":"JERSEY MIKE'S SUBS","Address":"1545 E Katella Ave","City":"Orange","State":"CA","Zip":"92867"},{"Location":"JIFFY LUBE","Address":"433 W Katella Ave","City":"Orange","State":"CA","Zip":"92867"},{"Location":"JIMMY BONES","Address":"1815 E Chapman Ave","City":"Orange","State":"CA","Zip":"92867"},{"Location":"K AND D GRAPHICS","Address":"1432 N Main St C","City":"Orange","State":"CA","Zip":"92867"},{"Location":"KATELLA FAMILY GRILL","Address":"1325 W Katella Ave","City":"Orange","State":"CA","Zip":"92867"},{"Location":"KERBER BROTHERS POOL PLASTERIN","Address":"1148 N Lemon St","City":"Orange","State":"CA","Zip":"92867"},{"Location":"KING FISH HOUSE","Address":"1521 W Katella Ave","City":"Orange","State":"CA","Zip":"92867"},{"Location":"KOYAMA","Address":"806 W Katella Ave","City":"Orange","State":"CA","Zip":"92867"},{"Location":"LAMPOST PIZZA","Address":"1829 E Chapman Avenue","City":"Orange","State":"CA","Zip":"92867"},{"Location":"LAMPPOST PIZZA","Address":"1829 E Chapman Ave","City":"Orange","State":"CA","Zip":"92867"},{"Location":"LID GARD AND ASSOCIATES","Address":"2592 N Santiago Blvd","City":"Orange","State":"CA","Zip":"92867"},{"Location":"LINDA'S NAILS & SKINCARE","Address":"665 N Tustin St C","City":"Orange","State":"CA","Zip":"92867"},{"Location":"LIVE WIRE ENERGY","Address":"1115 W Collins Ave","City":"Orange","State":"CA","Zip":"92867"},{"Location":"LOGIC TECHNOLOGY GROUP","Address":"1748 W Business Center Dr","City":"Orange","State":"CA","Zip":"92867"},{"Location":"LOS CABOS MEXICAN REST","Address":"843 N Tustin St","City":"Orange","State":"CA","Zip":"92867"},{"Location":"MARIE CALLENDERS","Address":"307 E Katella Ave","City":"Orange","State":"CA","Zip":"92867"},{"Location":"MARISCOS MOCORITO","Address":"320 E Katella Ave H","City":"Orange","State":"CA","Zip":"92867"},{"Location":"MARRIS PIZZA","Address":"2658 N Santiago Bld","City":"Orange","State":"CA","Zip":"92867"},{"Location":"MATRIX AV GROUP","Address":"1015 W Hoover Ave","City":"Orange","State":"CA","Zip":"92867"},{"Location":"MCDES CONCRETE PUMPING","Address":"1018 W Collins Ave","City":"Orange","State":"CA","Zip":"92867"},{"Location":"MICHAEL J PERROTTI INC","Address":"201 N Wayfield St 74","City":"Orange","State":"CA","Zip":"92867"},{"Location":"MILLER ENVIRONMENTAL","Address":"1130 W Trenton Ave","City":"Orange","State":"CA","Zip":"92867"},{"Location":"MOTORCYCLE TIRE CENTER","Address":"982 N Batavia St 1","City":"Orange","State":"CA","Zip":"92867"},{"Location":"NORMANS PAINTING","Address":"1739 W Katella Ave","City":"Orange","State":"CA","Zip":"92867"},{"Location":"NUCARE PHARMACEUTICALS","Address":"622 W Katella Ave","City":"Orange","State":"CA","Zip":"92867"},{"Location":"OC & C CONSTRUCTION","Address":"941 N Elm St F","City":"Orange","State":"CA","Zip":"92867"},{"Location":"OC SHERIFFS TRAINING DIVISION","Address":"1900 W Katella Ave","City":"Orange","State":"CA","Zip":"92867"},{"Location":"OC SPORTS EXCHANGE","Address":"1016 N Tustin St","City":"Orange","State":"CA","Zip":"92867"},{"Location":"OLD ORANGE BREWING COMPANY","Address":"1444 N Batavia St","City":"Orange","State":"CA","Zip":"92867"},{"Location":"ORANGE COUNTY MATRESS","Address":"914 E Katella Ave","City":"Orange","State":"CA","Zip":"92867"},{"Location":"ORANGE COUNTY STRENGTH","Address":"1251 W Katella Ave","City":"Orange","State":"CA","Zip":"92867"},{"Location":"ORANGE MICRON ENDODONTICS","Address":"1500 E Katella Ave","City":"Orange","State":"CA","Zip":"92867"},{"Location":"ORANGE POLICE DEPARTMENT","Address":"1107 N Batavia St","City":"Orange","State":"CA","Zip":"92867"},{"Location":"PACIFIC COAST TERMITE","Address":"1211 N Batavia St","City":"Orange","State":"CA","Zip":"92867"},{"Location":"PACIFIC SPORTS LLC","Address":"1590 N Batavia St 2","City":"Orange","State":"CA","Zip":"92867"},{"Location":"PADILLA CONSTRUCTION","Address":"1130 W Trenton Ave","City":"Orange","State":"CA","Zip":"92867"},{"Location":"PANCHO'S","Address":"131 E Collins Ave","City":"Orange","State":"CA","Zip":"92867"},{"Location":"PARTY TIME LIQUOR MARKET","Address":"1131 N Tustin St","City":"Orange","State":"CA","Zip":"92867"},{"Location":"PINT HOUSE  ORANGE","Address":"1547 W Katella Ave 102","City":"Orange","State":"CA","Zip":"92867"},{"Location":"PLAZA REAL LIQUOR","Address":"810 E Katella Ave","City":"Orange","State":"CA","Zip":"92867"},{"Location":"PRECAST INNOVATIONS INC","Address":"1670 N Main St","City":"Orange","State":"CA","Zip":"92867"},{"Location":"PRIME CUT CAFE & BAR LLC","Address":"1547 W Katella Ave","City":"Orange","State":"CA","Zip":"92867"},{"Location":"QUEST ACCEPTANCE CORP","Address":"1855 W Katella Ave 325","City":"Orange","State":"CA","Zip":"92867"},{"Location":"RED HEAD TRANSPORT","Address":"965 N Eckhoff St","City":"Orange","State":"CA","Zip":"92867"},{"Location":"RG APPRAISAL MANAGEMENT","Address":"1401 N Batavia St 202","City":"Orange","State":"CA","Zip":"92867"},{"Location":"RICARDOS","Address":"1230 E Katella Ave","City":"Orange","State":"CA","Zip":"92867"},{"Location":"ROUND TABLE PIZZA","Address":"1737 E Katella Ave","City":"Orange","State":"CA","Zip":"92867"},{"Location":"SAFFRON GRILL","Address":"720 E Katella Ave","City":"Orange","State":"CA","Zip":"92867"},{"Location":"SALT FISH & SHIPS","Address":"597 N Tustin St","City":"Orange","State":"CA","Zip":"92867"},{"Location":"SAS RETAIL MERCHANDISING","Address":"1575 N Main St","City":"Orange","State":"CA","Zip":"92867"},{"Location":"SC FUELS","Address":"1800 W Katella Ave","City":"Orange","State":"CA","Zip":"92867"},{"Location":"SCSA","Address":"930 N Elm St 10","City":"Orange","State":"CA","Zip":"92867"},{"Location":"SECURITY BANK OF CALIFOR","Address":"1249 E Katella Ave","City":"Orange","State":"CA","Zip":"92867"},{"Location":"SELMAN CHEVROLET","Address":"1800 E Chapman Ave","City":"Orange","State":"CA","Zip":"92867"},{"Location":"SHIKI RESTAURANT","Address":"1936 E Katella Ave","City":"Orange","State":"CA","Zip":"92867"},{"Location":"SHIN KOISAN SUSHI","Address":"1132 E Katella Ave A11","City":"Orange","State":"CA","Zip":"92867"},{"Location":"SMOKEYS FREDS BBQ","Address":"129 E Collins Ave","City":"Orange","State":"CA","Zip":"92867"},{"Location":"SOCALXFIT","Address":"750 E Katella Ave","City":"Orange","State":"CA","Zip":"92867"},{"Location":"SOFTBALL CENTRAL","Address":"1250 N Parker St A","City":"Orange","State":"CA","Zip":"92867"},{"Location":"SPAFAX","Address":"1507 W Yale Ave","City":"Orange","State":"CA","Zip":"92867"},{"Location":"SPIN PIZZA  ORANGE CA","Address":"1623 W Katella Ave 102","City":"Orange","State":"CA","Zip":"92867"},{"Location":"SPORT CLIPS CA520","Address":"1549 E Katella Ave B","City":"Orange","State":"CA","Zip":"92867"},{"Location":"SPORTS TREASURES","Address":"1040 N Batavia St","City":"Orange","State":"CA","Zip":"92867"},{"Location":"STYLES BEAUTY SALON","Address":"1099 N Glassell St","City":"Orange","State":"CA","Zip":"92867"},{"Location":"TA BIJI","Address":"665 N Tustin St","City":"Orange","State":"CA","Zip":"92867"},{"Location":"TERRY HUFFT ART","Address":"1400 E Katella Ave 212","City":"Orange","State":"CA","Zip":"92867"},{"Location":"THE CHERRY PIT","Address":"749 W Katella Ave","City":"Orange","State":"CA","Zip":"92867"},{"Location":"THE FISCHER GROUP","Address":"1636 N Brian St","City":"Orange","State":"CA","Zip":"92867"},{"Location":"THE LAZY DOG CAFE","Address":"1623 W Katella Ave","City":"Orange","State":"CA","Zip":"92867"},{"Location":"THE SALTY DAWG","Address":"1214 N Parker St","City":"Orange","State":"CA","Zip":"92867"},{"Location":"THE VAPOR LOFT","Address":"1001 N Main St","City":"Orange","State":"CA","Zip":"92867"},{"Location":"TILTED KILT","Address":"1625 W Katella Ave","City":"Orange","State":"CA","Zip":"92867"},{"Location":"TOYOTA OF ORANGE #2","Address":"1400 N Tustin St","City":"Orange","State":"CA","Zip":"92867"},{"Location":"TOYOTA OF ORANGE 1","Address":"1485 N Tustin St","City":"Orange","State":"CA","Zip":"92867"},{"Location":"TULSA RIB COMPANY","Address":"220 E Katella Ave","City":"Orange","State":"CA","Zip":"92867"},{"Location":"UFC GYM ORANGE","Address":"1605 E Collins Ave","City":"Orange","State":"CA","Zip":"92867"},{"Location":"UNIQUE NAILS & SPA","Address":"1440 E Katella Ave","City":"Orange","State":"CA","Zip":"92867"},{"Location":"UPPER CASE INC","Address":"1580 N Batavia St 1","City":"Orange","State":"CA","Zip":"92867"},{"Location":"VALENTINOS PIZZERIA 2","Address":"513 N Tustin St","City":"Orange","State":"CA","Zip":"92867"},{"Location":"VOLKSWAGON OF ORANGE","Address":"210 W Katella Ave","City":"Orange","State":"CA","Zip":"92867"},{"Location":"WABA GRILL KATELLA","Address":"1521 E Katella Ave","City":"Orange","State":"CA","Zip":"92867"},{"Location":"WELLS FARGO HOME MORTGAGE","Address":"1132 E Katella Ave A7","City":"Orange","State":"CA","Zip":"92867"},{"Location":"WENDYS 3622","Address":"1237 N Tustin St","City":"Orange","State":"CA","Zip":"92867"},{"Location":"WHO SONG & LARRY'S","Address":"1535 W Katella Ave","City":"Orange","State":"CA","Zip":"92867"},{"Location":"WINGSTOP #625 ORANGE","Address":"1541 E Katella Ave","City":"Orange","State":"CA","Zip":"92867"}]