[{"Location":"149 GRILLE","Address":"149 N Glassell St","City":"Orange","State":"CA","Zip":"92866"},{"Location":"ADOBE","Address":"121 N Lemon St","City":"Orange","State":"CA","Zip":"92866"},{"Location":"ALVAREZ BROTHERS INC","Address":"131 S Glassell St","City":"Orange","State":"CA","Zip":"92866"},{"Location":"ARPAJAIN ENTERPRISES","Address":"207 W Chapman Ave","City":"Orange","State":"CA","Zip":"92866"},{"Location":"ASHMORE CONSTRUCTION","Address":"1413 E Chapman Ave","City":"Orange","State":"CA","Zip":"92866"},{"Location":"AVILAS MEXICAN REST. INC","Address":"182 S Orange St","City":"Orange","State":"CA","Zip":"92866"},{"Location":"CAMBRIDGE FOOT AND ANKLE","Address":"1038 E Chapman Ave","City":"Orange","State":"CA","Zip":"92866"},{"Location":"CARNITAS LOS REYES","Address":"273 S Tustin St","City":"Orange","State":"CA","Zip":"92866"},{"Location":"CAUDILL ASSOCIATES","Address":"1334 E Chapman Ave","City":"Orange","State":"CA","Zip":"92866"},{"Location":"CENTENNIEL HOMES1","Address":"1509 E Chapman Ave","City":"Orange","State":"CA","Zip":"92866"},{"Location":"CHAPMAN     UNIVERSITY","Address":"349 N Olive St","City":"Orange","State":"CA","Zip":"92866"},{"Location":"CHAPMAN FUNERAL CARE","Address":"1342 E Chapman Ave","City":"Orange","State":"CA","Zip":"92866"},{"Location":"CHAPMAN HOUSE IN","Address":"1412 E Chapman Ave","City":"Orange","State":"CA","Zip":"92866"},{"Location":"CHAPMAN U HUTTON CENTER","Address":"1 University Dr","City":"Orange","State":"CA","Zip":"92866"},{"Location":"CHAPMAN UNIVERSITY","Address":"386 N Center St","City":"Orange","State":"CA","Zip":"92866"},{"Location":"CHAPMAN UNIVERSITY","Address":"323 N Center St","City":"Orange","State":"CA","Zip":"92866"},{"Location":"CHAPMAN UNIVERSITY 1","Address":"1 University Dr","City":"Orange","State":"CA","Zip":"92866"},{"Location":"CITRUS GRILLE ORANGE","Address":"122 N Glassell St","City":"Orange","State":"CA","Zip":"92866"},{"Location":"CITY OF ORANGE FD","Address":"176 S Grand St","City":"Orange","State":"CA","Zip":"92866"},{"Location":"DANIEL J CARLBERG PHD CHFC","Address":"550 E Chapman Ave","City":"Orange","State":"CA","Zip":"92866"},{"Location":"DISTRIC LOUNGE OR.","Address":"223 W Chapman Ave","City":"Orange","State":"CA","Zip":"92866"},{"Location":"DOCTOR VAPOR","Address":"111 N Olive St","City":"Orange","State":"CA","Zip":"92866"},{"Location":"ELEGANTE CIGARS","Address":"42 Plaza Sq","City":"Orange","State":"CA","Zip":"92866"},{"Location":"ELKS LODGE #1475","Address":"211 E Chapman Ave","City":"Orange","State":"CA","Zip":"92866"},{"Location":"FOWLER GUN ROOM","Address":"358 S Tustin St","City":"Orange","State":"CA","Zip":"92866"},{"Location":"HAVEN HOSPITALITY GP INC","Address":"190 S Glassell St","City":"Orange","State":"CA","Zip":"92866"},{"Location":"JALEPENOS RESTUARANT","Address":"154 N Glassell St","City":"Orange","State":"CA","Zip":"92866"},{"Location":"JENNYS WIG CENTER","Address":"384 S Tuscin St","City":"Orange","State":"CA","Zip":"92866"},{"Location":"LAW OFFICE OF WILLIAM WARNE","Address":"400 E Chapman Ave","City":"Orange","State":"CA","Zip":"92866"},{"Location":"LLR GROUP LLC","Address":"152 N Glassell St B","City":"Orange","State":"CA","Zip":"92866"},{"Location":"MAXWELLS FOR HAIR","Address":"823 S Tustin St","City":"Orange","State":"CA","Zip":"92866"},{"Location":"NOTARY ASAP INC","Address":"114 N Olive St","City":"Orange","State":"CA","Zip":"92866"},{"Location":"OHARA'S PUB","Address":"150 N Glassell St","City":"Orange","State":"CA","Zip":"92866"},{"Location":"PLANNED PARENTHOOD OSBE","Address":"700 S Tustin St","City":"Orange","State":"CA","Zip":"92866"},{"Location":"PROVISIONS MARKET","Address":"143 N Glassell St","City":"Orange","State":"CA","Zip":"92866"},{"Location":"REAL ESTATE ESTABLISHMENT","Address":"550 E Chapman Ave B","City":"Orange","State":"CA","Zip":"92866"},{"Location":"REEKSTIN ENTERPRISE","Address":"1026 E Chapman Ave B","City":"Orange","State":"CA","Zip":"92866"},{"Location":"RUBYS DINER","Address":"186 N Atchison St","City":"Orange","State":"CA","Zip":"92866"},{"Location":"SEAMONT FINANCIAL GROUP","Address":"738 E Chapman Ave","City":"Orange","State":"CA","Zip":"92866"},{"Location":"SMOQUED BBQ ORANGE LLC","Address":"128 N Glassell St","City":"Orange","State":"CA","Zip":"92866"},{"Location":"TOKOYO CAFE","Address":"161 N Glassell St","City":"Orange","State":"CA","Zip":"92866"},{"Location":"TRAIM QUIL NAIL SPA","Address":"227 E Chapman Ave B","City":"Orange","State":"CA","Zip":"92866"},{"Location":"ZITO'S PIZZA","Address":"156 N Glassell St","City":"Orange","State":"CA","Zip":"92866"}]