[{"Location":"24 HOUR FITNESS #63","Address":"3600 W Orangewood Ave","City":"Orange","State":"CA","Zip":"92868"},{"Location":"AIRCON & REFRIG INDUSTRY FUNDS","Address":"3500 W Orangewood Ave","City":"Orange","State":"CA","Zip":"92868"},{"Location":"ALLIANCE FUNDING GROUP","Address":"3745 W Chapman Ave 200","City":"Orange","State":"CA","Zip":"92868"},{"Location":"ALLSTATE","Address":"500 S Main St 103","City":"Orange","State":"CA","Zip":"92868"},{"Location":"AMERICAN SLEEP MEDICINE","Address":"1937 W Chapman Ave 230","City":"Orange","State":"CA","Zip":"92868"},{"Location":"ASSOC OF CALI CITY - OC","Address":"500 S Main St 410","City":"Orange","State":"CA","Zip":"92868"},{"Location":"BJ'S RESTAURANT #545","Address":"450 The City Dr S","City":"Orange","State":"CA","Zip":"92868"},{"Location":"BUFFALO WILD WINGS #3575","Address":"20 City Blvd W","City":"Orange","State":"CA","Zip":"92868"},{"Location":"CAFE TU TU TANGO","Address":"20 City Blvd W","City":"Orange","State":"CA","Zip":"92868"},{"Location":"CAL OPTIMA","Address":"505 City Pkwy W","City":"Orange","State":"CA","Zip":"92868"},{"Location":"CAL WEST MACHINING1","Address":"1734 W Sequoia Ave","City":"Orange","State":"CA","Zip":"92868"},{"Location":"CALIBER SALES AND MARKETING","Address":"820 W Town And Country Rd C","City":"Orange","State":"CA","Zip":"92868"},{"Location":"CALIFORNIA PITA GRILL","Address":"3070 W Chapman Ave B","City":"Orange","State":"CA","Zip":"92868"},{"Location":"CARE AMBULANCE","Address":"1517 W Braden Ct","City":"Orange","State":"CA","Zip":"92868"},{"Location":"CARE AMBULANCE","Address":"1449 W Braden Ct","City":"Orange","State":"CA","Zip":"92868"},{"Location":"CB RICHARD ELLIS","Address":"840 The City Dr S","City":"Orange","State":"CA","Zip":"92868"},{"Location":"CENTER WC AND PAINT INC","Address":"640 N Eckhoff St","City":"Orange","State":"CA","Zip":"92868"},{"Location":"CHILDRENS HOSPITAL OF ORANGE","Address":"505 S Main St","City":"Orange","State":"CA","Zip":"92868"},{"Location":"COHEN SOUTH ORANGE SANDWICHES2","Address":"424 S Main St A","City":"Orange","State":"CA","Zip":"92868"},{"Location":"CROWN CAPITAL","Address":"725 W Town And Country Rd 530","City":"Orange","State":"CA","Zip":"92868"},{"Location":"CRYSTAL CLEAR CLEANERS","Address":"356 S Main St","City":"Orange","State":"CA","Zip":"92868"},{"Location":"CS NERO SURGERY","Address":"1010 W.laveta Ave Ste 710","City":"Orange","State":"CA","Zip":"92868"},{"Location":"CUSTOM PACK INC","Address":"630 N Eckhoff St","City":"Orange","State":"CA","Zip":"92868"},{"Location":"DAVE AND BUSTER'S #16","Address":"20 City Blvd W G1","City":"Orange","State":"CA","Zip":"92868"},{"Location":"DAVIS PARTNERS LLC","Address":"333 S Anita Dr 730","City":"Orange","State":"CA","Zip":"92868"},{"Location":"DAVITA #884 MAINPLACE","Address":"972 W Town And Country Rd","City":"Orange","State":"CA","Zip":"92868"},{"Location":"DC3   MUSIC GROUP","Address":"630 The City Dr S D","City":"Orange","State":"CA","Zip":"92868"},{"Location":"DEPT HOMELAND SECURITY ICE","Address":"501 City Dr S","City":"Orange","State":"CA","Zip":"92868"},{"Location":"DEPT OF INSURANCE FRAUD DIVISI","Address":"333 S Anita Dr 450","City":"Orange","State":"CA","Zip":"92868"},{"Location":"DEPT. OF HOMELAND SEC.","Address":"600 City Pkwy W 320","City":"Orange","State":"CA","Zip":"92868"},{"Location":"DONDE ADELA","Address":"1707 W Chapman Ave","City":"Orange","State":"CA","Zip":"92868"},{"Location":"EL TORITO 7226","Address":"3520 The City Way E","City":"Orange","State":"CA","Zip":"92868"},{"Location":"FBI - OCRA","Address":"4000 W Metropolitan Dr 200","City":"Orange","State":"CA","Zip":"92868"},{"Location":"FBI LOS ANGELES","Address":"3800 W Chapman Ave 800","City":"Orange","State":"CA","Zip":"92868"},{"Location":"FENIX CONSULTING GROUP","Address":"265 S Anita Dr 130","City":"Orange","State":"CA","Zip":"92868"},{"Location":"FINANCIAL PARTNERS CREDI","Address":"1409 W Chapman Ave A","City":"Orange","State":"CA","Zip":"92868"},{"Location":"GRANCELL%2C ET AL","Address":"600 S Main St 1000","City":"Orange","State":"CA","Zip":"92868"},{"Location":"GRAPHIC FINISHERS INC.","Address":"635 W Angus Ave","City":"Orange","State":"CA","Zip":"92868"},{"Location":"HANNA CONSTRUCTION","Address":"1203 W Shelley Ct","City":"Orange","State":"CA","Zip":"92868"},{"Location":"HH DELI","Address":"368 Main St","City":"Orange","State":"CA","Zip":"92868"},{"Location":"HILTON SUITES ANAHEIM (0053520","Address":"400 N State College Blvd","City":"Orange","State":"CA","Zip":"92868"},{"Location":"HOUSE OF DVDS","Address":"4033 W Chapman Ave","City":"Orange","State":"CA","Zip":"92868"},{"Location":"IBEW LOCAL","Address":"309 N Rampart St M","City":"Orange","State":"CA","Zip":"92868"},{"Location":"INTERFRESH INC","Address":"2019 W Orangewood Ave","City":"Orange","State":"CA","Zip":"92868"},{"Location":"INTERNATIONAL CITY MORTG","Address":"333 S Anita Dr 300","City":"Orange","State":"CA","Zip":"92868"},{"Location":"IRMA HAIR SALON","Address":"1525 W Chapman Ave","City":"Orange","State":"CA","Zip":"92868"},{"Location":"ITT TECHNICAL INSTITUTE","Address":"4000 W Metropolitan Dr 100","City":"Orange","State":"CA","Zip":"92868"},{"Location":"JACK IN THE BOX","Address":"3050 W Chapman Ave","City":"Orange","State":"CA","Zip":"92868"},{"Location":"JERSEY MIKES SUBS","Address":"763 S Main St 190","City":"Orange","State":"CA","Zip":"92868"},{"Location":"JOHN KIMBALL","Address":"1835 W La Veta Ave","City":"Orange","State":"CA","Zip":"92868"},{"Location":"JOSEFINA ROBLES DMD","Address":"1307 W Stewart Dr","City":"Orange","State":"CA","Zip":"92868"},{"Location":"KIMLEY HORN","Address":"765 The City Dr S","City":"Orange","State":"CA","Zip":"92868"},{"Location":"KOTANA","Address":"130 S Main St G","City":"Orange","State":"CA","Zip":"92868"},{"Location":"L B SPURRIER INS AGENCY","Address":"333 S Anita Dr 850","City":"Orange","State":"CA","Zip":"92868"},{"Location":"LA FITNESS #38","Address":"3901 W Metropolitan Dr","City":"Orange","State":"CA","Zip":"92868"},{"Location":"LAMOREAUX JUSTICE CENTER","Address":"341 The City Dr S","City":"Orange","State":"CA","Zip":"92868"},{"Location":"LEWIS CONSULTING GROUP","Address":"1914 W Orangewood Ave 201","City":"Orange","State":"CA","Zip":"92868"},{"Location":"LPL FINANCIAL","Address":"500 N State College Blvd 1205","City":"Orange","State":"CA","Zip":"92868"},{"Location":"LUCILLE'S SMOKEHOUSE BBQ #7","Address":"4050 W Chapman Ave","City":"Orange","State":"CA","Zip":"92868"},{"Location":"LUCKY STRIKE LANES ORANGE","Address":"20 City Blvd W","City":"Orange","State":"CA","Zip":"92868"},{"Location":"M LOGICA","Address":"1835 W Orangewood Ave 200","City":"Orange","State":"CA","Zip":"92868"},{"Location":"MAIN AUTO CARE","Address":"193 S Main St","City":"Orange","State":"CA","Zip":"92868"},{"Location":"MANHATTAN STEAK & SEAFOO","Address":"202 S Main St","City":"Orange","State":"CA","Zip":"92868"},{"Location":"MEGAMEX FOODS","Address":"333 S Anita Dr 1000","City":"Orange","State":"CA","Zip":"92868"},{"Location":"MEGASYS INC","Address":"500 City Pkwy W 350","City":"Orange","State":"CA","Zip":"92868"},{"Location":"MEN'S WEARHOUSE #2736","Address":"745 S Main St","City":"Orange","State":"CA","Zip":"92868"},{"Location":"MI CASA","Address":"1231 W Chapman Ave","City":"Orange","State":"CA","Zip":"92868"},{"Location":"MIKA SUSHI","Address":"691 S Main St 140","City":"Orange","State":"CA","Zip":"92868"},{"Location":"MILLYS BEAUTY SALON","Address":"13045 Chapman Ave","City":"Orange","State":"CA","Zip":"92868"},{"Location":"MODEL FINANCE","Address":"1068 W Town And Country Rd","City":"Orange","State":"CA","Zip":"92868"},{"Location":"NATIONAL CHIROPRATIC COU","Address":"1100 W Town And Country Rd 1400","City":"Orange","State":"CA","Zip":"92868"},{"Location":"NATIONAL OIL WELL VARCO","Address":"748 Ab North Poplar","City":"Orange","State":"CA","Zip":"92868"},{"Location":"NATIONAL OIL WELL VARCO6","Address":"749 N Poplar St","City":"Orange","State":"CA","Zip":"92868"},{"Location":"NATIONAL OILWELL VARCO","Address":"759 N Eckhoff St","City":"Orange","State":"CA","Zip":"92868"},{"Location":"NATIONAL OILWELL VARCO THREE","Address":"1701 W Sequoia Ave","City":"Orange","State":"CA","Zip":"92868"},{"Location":"NATIONAL OILWELL VARCO TWO","Address":"752 N Poplar St","City":"Orange","State":"CA","Zip":"92868"},{"Location":"NEIMAN MARCUS 2214","Address":"20 City Blvd W","City":"Orange","State":"CA","Zip":"92868"},{"Location":"NIKE INC","Address":"20 City Blvd W 617","City":"Orange","State":"CA","Zip":"92868"},{"Location":"NORDSTROM RACK - OUTLETS","Address":"20 City Blvd W","City":"Orange","State":"CA","Zip":"92868"},{"Location":"NUTRI SHOP","Address":"1447 W Chapman Ave","City":"Orange","State":"CA","Zip":"92868"},{"Location":"OC ANIMAL CARE","Address":"561 The City Dr S","City":"Orange","State":"CA","Zip":"92868"},{"Location":"OC SHERIFF DEPT THEO LACY FAC","Address":"501 The City Dr S","City":"Orange","State":"CA","Zip":"92868"},{"Location":"OCDE FISHER SCHOOL","Address":"331 City Dr South 1","City":"Orange","State":"CA","Zip":"92868"},{"Location":"OCDE%2FFISHER SCHOOL BLDG 2","Address":"331 City Dr S","City":"Orange","State":"CA","Zip":"92868"},{"Location":"OCDE%2FFISHER SCHOOL BLDG 3","Address":"331 City Dr S","City":"Orange","State":"CA","Zip":"92868"},{"Location":"OCTA","Address":"600 S Main St","City":"Orange","State":"CA","Zip":"92868"},{"Location":"ORANGE COUNTY LABOR FEDERATION","Address":"309 N Rampart St A","City":"Orange","State":"CA","Zip":"92868"},{"Location":"ORANGE COUNTY PROBATION DEPT","Address":"301 City Dr","City":"Orange","State":"CA","Zip":"92868"},{"Location":"ORANGE COUNTY REALTY INVESTORS","Address":"500 S Main St 550","City":"Orange","State":"CA","Zip":"92868"},{"Location":"ORTHOPAEDIC SPECIALTY","Address":"280 S Main St 200","City":"Orange","State":"CA","Zip":"92868"},{"Location":"OSTIONERA SIETE MARES","Address":"540 W Chapman Ave","City":"Orange","State":"CA","Zip":"92868"},{"Location":"PACIFICO IRVINE  INC","Address":"745 S Main St 170","City":"Orange","State":"CA","Zip":"92868"},{"Location":"PASTA CONNECTION 1","Address":"2145 W Chapman Ave","City":"Orange","State":"CA","Zip":"92868"},{"Location":"PHILLYS BEST ORANGE","Address":"1409 W Chapman Ave","City":"Orange","State":"CA","Zip":"92868"},{"Location":"PIZZA STORE","Address":"380 S Main St","City":"Orange","State":"CA","Zip":"92868"},{"Location":"POST FACTORY","Address":"630 The City Dr S 100","City":"Orange","State":"CA","Zip":"92868"},{"Location":"PROGRESSIVE   PHYSICAL","Address":"894 W Town And Country Rd","City":"Orange","State":"CA","Zip":"92868"},{"Location":"PSF INC","Address":"455 S Main St","City":"Orange","State":"CA","Zip":"92868"},{"Location":"PUMP ROOM","Address":"1532 W Chapman Ave","City":"Orange","State":"CA","Zip":"92868"},{"Location":"RC ELECTRONICS","Address":"931 W Barkley Ave","City":"Orange","State":"CA","Zip":"92868"},{"Location":"RED PERMISSION NAILS","Address":"1445 W Chapman Ave","City":"Orange","State":"CA","Zip":"92868"},{"Location":"RESTAURANT FUJI GRILL","Address":"1515 W Chapman Ave","City":"Orange","State":"CA","Zip":"92868"},{"Location":"ROBERT FAULKNER","Address":"1835 W La Veta Ave 508b","City":"Orange","State":"CA","Zip":"92868"},{"Location":"ROTH STAFFING COMPANIES","Address":"500 N State College Blvd 1300","City":"Orange","State":"CA","Zip":"92868"},{"Location":"SADDLE RANCH ORANGE","Address":"20 City Blvd W","City":"Orange","State":"CA","Zip":"92868"},{"Location":"SATELLITE DIALYSIS  ORAN","Address":"1518 W La Veta Ave","City":"Orange","State":"CA","Zip":"92868"},{"Location":"SCOTTRADE 04K","Address":"655 S Main St 240","City":"Orange","State":"CA","Zip":"92868"},{"Location":"SDS CLINICAL TRIALS","Address":"756 W Town And Country Rd","City":"Orange","State":"CA","Zip":"92868"},{"Location":"SECOND BASE BAR & GRILL","Address":"1535 W Chapman Ave","City":"Orange","State":"CA","Zip":"92868"},{"Location":"SISTERS OF ST JOSEPHS","Address":"480 S Batavia St","City":"Orange","State":"CA","Zip":"92868"},{"Location":"SLEEP INSITUTE OF ORANGE","Address":"922 W Town And Country Rd","City":"Orange","State":"CA","Zip":"92868"},{"Location":"SOUTH COAST HAIR","Address":"171 S Anita Dr","City":"Orange","State":"CA","Zip":"92868"},{"Location":"SPIGAS BAKERY & CAFE","Address":"1643 W Chapman Ave","City":"Orange","State":"CA","Zip":"92868"},{"Location":"SPORTS AUTHORITY 764","Address":"20 City Blvd W","City":"Orange","State":"CA","Zip":"92868"},{"Location":"SPORTS TREAURES","Address":"20 City Blvd W 912","City":"Orange","State":"CA","Zip":"92868"},{"Location":"STATE CRANE LLC","Address":"1645 W Orangewood Ave","City":"Orange","State":"CA","Zip":"92868"},{"Location":"TALLEY AND CO.","Address":"600 City Pkwy W 650","City":"Orange","State":"CA","Zip":"92868"},{"Location":"TD SERVICE FINANCIAL CORP","Address":"4000 W Metropolitan Dr 400","City":"Orange","State":"CA","Zip":"92868"},{"Location":"TGI FRIDAY'S #1912","Address":"3339 W Entertainment Ave","City":"Orange","State":"CA","Zip":"92868"},{"Location":"THE BLOCK AT ORANGE","Address":"20 City Blvd W C5","City":"Orange","State":"CA","Zip":"92868"},{"Location":"THE PLAZA CAFE","Address":"500 S Main St","City":"Orange","State":"CA","Zip":"92868"},{"Location":"THE WORD NETWORK","Address":"630 The City Dr S 150","City":"Orange","State":"CA","Zip":"92868"},{"Location":"TOWN AND COUNTRY CAFE","Address":"1100 W Town And Country Rd","City":"Orange","State":"CA","Zip":"92868"},{"Location":"TRI CENTER #1","Address":"333 S Anita Dr","City":"Orange","State":"CA","Zip":"92868"},{"Location":"TRI CENTER #2","Address":"333 S Anita Dr","City":"Orange","State":"CA","Zip":"92868"},{"Location":"TRINITY CAFE BISTRO","Address":"333 S Anita Dr C","City":"Orange","State":"CA","Zip":"92868"},{"Location":"UCI MEDICAL CTR","Address":"200 S Manchester Ave B100","City":"Orange","State":"CA","Zip":"92868"},{"Location":"UNITED AUTOMOTIVE SERVICE","Address":"777 N Main St","City":"Orange","State":"CA","Zip":"92868"},{"Location":"WABA GRILL","Address":"3070 W Chapman Ave A","City":"Orange","State":"CA","Zip":"92868"},{"Location":"WESTERN DENTAL","Address":"500 S Main St 800","City":"Orange","State":"CA","Zip":"92868"},{"Location":"WESTERN DENTAL SERVICES INC","Address":"530 S Main St 600","City":"Orange","State":"CA","Zip":"92868"},{"Location":"YANEZ LAW","Address":"625 The City Dr S 490","City":"Orange","State":"CA","Zip":"92868"},{"Location":"ZITOS PIZZA CHAPMAN","Address":"1716 W Chapman Ave","City":"Orange","State":"CA","Zip":"92868"}]