[{"Location":"24 HOUR FITNESS #127","Address":"3521 E Chapman Ave","City":"Orange","State":"CA","Zip":"92869"},{"Location":"ARTISTIC SMILES","Address":"2606 E Chapman Ave","City":"Orange","State":"CA","Zip":"92869"},{"Location":"BAGEL ME","Address":"3533 E Chapman Ave A","City":"Orange","State":"CA","Zip":"92869"},{"Location":"BROKEN YOLK CAFE","Address":"2810 E Chapman Ave","City":"Orange","State":"CA","Zip":"92869"},{"Location":"CHAPMAN HOSPITAL","Address":"2011 E Chapman Ave","City":"Orange","State":"CA","Zip":"92869"},{"Location":"CHRONIC TACOS ORANGE","Address":"7520 E Chapman Ave","City":"Orange","State":"CA","Zip":"92869"},{"Location":"EL CHEF TACOS","Address":"3009 E Chapman Ave","City":"Orange","State":"CA","Zip":"92869"},{"Location":"EL PRESIDENTE MARKET","Address":"11922 Earlham St","City":"Orange","State":"CA","Zip":"92869"},{"Location":"EMPORIO SUSHI Y MARISCO","Address":"150 S Hewes St","City":"Orange","State":"CA","Zip":"92869"},{"Location":"FABIAN GRASSINI TENNIS ACADEMY","Address":"3120 E Chapman Ave","City":"Orange","State":"CA","Zip":"92869"},{"Location":"FANTASTIC SAMS","Address":"8420 E Chapman Ave","City":"Orange","State":"CA","Zip":"92869"},{"Location":"FISH HOUSE MARKET & GRILL","Address":"7626 E Chapman Ave","City":"Orange","State":"CA","Zip":"92869"},{"Location":"GAURD SHACK","Address":"5215 E Chapman Ave 45","City":"Orange","State":"CA","Zip":"92869"},{"Location":"HAPPY NAILS","Address":"8510 E Chapman Ave","City":"Orange","State":"CA","Zip":"92869"},{"Location":"HERCULES BURGERS NUMBER 3","Address":"3221 E Chapman Ave","City":"Orange","State":"CA","Zip":"92869"},{"Location":"JANGMIN INC","Address":"2610 E Chapman Ave","City":"Orange","State":"CA","Zip":"92869"},{"Location":"JERSEY MIKES SUBS 20082","Address":"3428 E Chapman Ave","City":"Orange","State":"CA","Zip":"92869"},{"Location":"JOHNNY REBS","Address":"2940 E Chapman Ave","City":"Orange","State":"CA","Zip":"92869"},{"Location":"JOHNS PLACE","Address":"8400 E Chapman Ave","City":"Orange","State":"CA","Zip":"92869"},{"Location":"MARK J MROCH DDS","Address":"112 N Mcpherson Rd","City":"Orange","State":"CA","Zip":"92869"},{"Location":"MAXAMAR CIGARS","Address":"3774 E Chapman Ave","City":"Orange","State":"CA","Zip":"92869"},{"Location":"MOUNTAIN VIEW TIRE","Address":"4935 E Chapman Ave","City":"Orange","State":"CA","Zip":"92869"},{"Location":"NAIL STAR","Address":"7608 E Chapman Ave","City":"Orange","State":"CA","Zip":"92869"},{"Location":"NEW YORK SUBS","Address":"3041 E Chapman Ave","City":"Orange","State":"CA","Zip":"92869"},{"Location":"OC VAPOR CHAMBER","Address":"3122 E Chapman Ave","City":"Orange","State":"CA","Zip":"92869"},{"Location":"OPUS RESTAURANT","Address":"3538 E Chapman Ave","City":"Orange","State":"CA","Zip":"92869"},{"Location":"ORANGE COUNTY SHERIFF DEPT.","Address":"8525 E Fort Rd","City":"Orange","State":"CA","Zip":"92869"},{"Location":"ORANGE HILL DENTAL GROUP","Address":"3138 E Chapman Ave","City":"Orange","State":"CA","Zip":"92869"},{"Location":"ORANGE HOAG URGENT CARE","Address":"7630 E Chapman Ave B","City":"Orange","State":"CA","Zip":"92869"},{"Location":"ORANGE PARK HEIGHTS","Address":"340 N Newport Blvd","City":"Orange","State":"CA","Zip":"92869"},{"Location":"ORANGE- SNAP FITNESS","Address":"8412 E Chapman Ave","City":"Orange","State":"CA","Zip":"92869"},{"Location":"PANDA MONGOLIAN BBQ","Address":"3544 E Chapman Ave","City":"Orange","State":"CA","Zip":"92869"},{"Location":"REDHILL LIQUOR","Address":"3302 E Chapman Ave","City":"Orange","State":"CA","Zip":"92869"},{"Location":"RMDA LLC","Address":"5312 E Ryals Ln","City":"Orange","State":"CA","Zip":"92869"},{"Location":"SANTIAGO CANYON  LIBRARY","Address":"8045 E Chapman Ave","City":"Orange","State":"CA","Zip":"92869"},{"Location":"SANTIAGO CANYON COLLEGE","Address":"8045 E Chapman Ave","City":"Orange","State":"CA","Zip":"92869"},{"Location":"SHO AIR INTERNATIONAL 1","Address":"8530 E Chapman Ave","City":"Orange","State":"CA","Zip":"92869"},{"Location":"SUSHI BOOM","Address":"2815 E Chapman Ave","City":"Orange","State":"CA","Zip":"92869"},{"Location":"TACO MESA ORANGE","Address":"3533 E Chapman Ave","City":"Orange","State":"CA","Zip":"92869"},{"Location":"THE RIB TRADER","Address":"2710 E Chapman Ave","City":"Orange","State":"CA","Zip":"92869"},{"Location":"TOWN & COUNTRY HAND CAR WASH","Address":"2747 E Chapman Ave","City":"Orange","State":"CA","Zip":"92869"},{"Location":"TRU BRU INC","Address":"7626 E Chapman Ave D","City":"Orange","State":"CA","Zip":"92869"},{"Location":"VALENTINOS PIZZERIA 1","Address":"4911 E Chapman Ave","City":"Orange","State":"CA","Zip":"92869"},{"Location":"VIVA MEXICO RESTURANT","Address":"3702 E Chapman Ave A","City":"Orange","State":"CA","Zip":"92869"},{"Location":"WISE GUYS PIZZARIA","Address":"7606 E Chapman Ave","City":"Orange","State":"CA","Zip":"92869"},{"Location":"YUN JAPANESE RESTAURANT","Address":"3505 E Chapman Ave E","City":"Orange","State":"CA","Zip":"92869"},{"Location":"24 HOUR FITNESS #127","Address":"3521 E Chapman Ave","City":"Orange","State":"CA","Zip":"92869"},{"Location":"ARTISTIC SMILES","Address":"2606 E Chapman Ave","City":"Orange","State":"CA","Zip":"92869"},{"Location":"BAGEL ME","Address":"3533 E Chapman Ave A","City":"Orange","State":"CA","Zip":"92869"},{"Location":"BROKEN YOLK CAFE","Address":"2810 E Chapman Ave","City":"Orange","State":"CA","Zip":"92869"},{"Location":"CHAPMAN HOSPITAL","Address":"2011 E Chapman Ave","City":"Orange","State":"CA","Zip":"92869"},{"Location":"CHRONIC TACOS ORANGE","Address":"7520 E Chapman Ave","City":"Orange","State":"CA","Zip":"92869"},{"Location":"EL CHEF TACOS","Address":"3009 E Chapman Ave","City":"Orange","State":"CA","Zip":"92869"},{"Location":"EL PRESIDENTE MARKET","Address":"11922 Earlham St","City":"Orange","State":"CA","Zip":"92869"},{"Location":"EMPORIO SUSHI Y MARISCO","Address":"150 S Hewes St","City":"Orange","State":"CA","Zip":"92869"},{"Location":"FABIAN GRASSINI TENNIS ACADEMY","Address":"3120 E Chapman Ave","City":"Orange","State":"CA","Zip":"92869"},{"Location":"FANTASTIC SAMS","Address":"8420 E Chapman Ave","City":"Orange","State":"CA","Zip":"92869"},{"Location":"FISH HOUSE MARKET & GRILL","Address":"7626 E Chapman Ave","City":"Orange","State":"CA","Zip":"92869"},{"Location":"GAURD SHACK","Address":"5215 E Chapman Ave 45","City":"Orange","State":"CA","Zip":"92869"},{"Location":"HAPPY NAILS","Address":"8510 E Chapman Ave","City":"Orange","State":"CA","Zip":"92869"},{"Location":"HERCULES BURGERS NUMBER 3","Address":"3221 E Chapman Ave","City":"Orange","State":"CA","Zip":"92869"},{"Location":"JANGMIN INC","Address":"2610 E Chapman Ave","City":"Orange","State":"CA","Zip":"92869"},{"Location":"JERSEY MIKES SUBS 20082","Address":"3428 E Chapman Ave","City":"Orange","State":"CA","Zip":"92869"},{"Location":"JOHNNY REBS","Address":"2940 E Chapman Ave","City":"Orange","State":"CA","Zip":"92869"},{"Location":"JOHNS PLACE","Address":"8400 E Chapman Ave","City":"Orange","State":"CA","Zip":"92869"},{"Location":"MARK J MROCH DDS","Address":"112 N Mcpherson Rd","City":"Orange","State":"CA","Zip":"92869"},{"Location":"MAXAMAR CIGARS","Address":"3774 E Chapman Ave","City":"Orange","State":"CA","Zip":"92869"},{"Location":"MOUNTAIN VIEW TIRE","Address":"4935 E Chapman Ave","City":"Orange","State":"CA","Zip":"92869"},{"Location":"NAIL STAR","Address":"7608 E Chapman Ave","City":"Orange","State":"CA","Zip":"92869"},{"Location":"NEW YORK SUBS","Address":"3041 E Chapman Ave","City":"Orange","State":"CA","Zip":"92869"},{"Location":"OC VAPOR CHAMBER","Address":"3122 E Chapman Ave","City":"Orange","State":"CA","Zip":"92869"},{"Location":"OPUS RESTAURANT","Address":"3538 E Chapman Ave","City":"Orange","State":"CA","Zip":"92869"},{"Location":"ORANGE COUNTY SHERIFF DEPT.","Address":"8525 E Fort Rd","City":"Orange","State":"CA","Zip":"92869"},{"Location":"ORANGE HILL DENTAL GROUP","Address":"3138 E Chapman Ave","City":"Orange","State":"CA","Zip":"92869"},{"Location":"ORANGE HOAG URGENT CARE","Address":"7630 E Chapman Ave B","City":"Orange","State":"CA","Zip":"92869"},{"Location":"ORANGE PARK HEIGHTS","Address":"340 N Newport Blvd","City":"Orange","State":"CA","Zip":"92869"},{"Location":"ORANGE- SNAP FITNESS","Address":"8412 E Chapman Ave","City":"Orange","State":"CA","Zip":"92869"},{"Location":"PANDA MONGOLIAN BBQ","Address":"3544 E Chapman Ave","City":"Orange","State":"CA","Zip":"92869"},{"Location":"REDHILL LIQUOR","Address":"3302 E Chapman Ave","City":"Orange","State":"CA","Zip":"92869"},{"Location":"RMDA LLC","Address":"5312 E Ryals Ln","City":"Orange","State":"CA","Zip":"92869"},{"Location":"SANTIAGO CANYON  LIBRARY","Address":"8045 E Chapman Ave","City":"Orange","State":"CA","Zip":"92869"},{"Location":"SANTIAGO CANYON COLLEGE","Address":"8045 E Chapman Ave","City":"Orange","State":"CA","Zip":"92869"},{"Location":"SHO AIR INTERNATIONAL 1","Address":"8530 E Chapman Ave","City":"Orange","State":"CA","Zip":"92869"},{"Location":"SUSHI BOOM","Address":"2815 E Chapman Ave","City":"Orange","State":"CA","Zip":"92869"},{"Location":"TACO MESA ORANGE","Address":"3533 E Chapman Ave","City":"Orange","State":"CA","Zip":"92869"},{"Location":"THE RIB TRADER","Address":"2710 E Chapman Ave","City":"Orange","State":"CA","Zip":"92869"},{"Location":"TOWN & COUNTRY HAND CAR WASH","Address":"2747 E Chapman Ave","City":"Orange","State":"CA","Zip":"92869"},{"Location":"TRU BRU INC","Address":"7626 E Chapman Ave D","City":"Orange","State":"CA","Zip":"92869"},{"Location":"VALENTINOS PIZZERIA 1","Address":"4911 E Chapman Ave","City":"Orange","State":"CA","Zip":"92869"},{"Location":"VIVA MEXICO RESTURANT","Address":"3702 E Chapman Ave A","City":"Orange","State":"CA","Zip":"92869"},{"Location":"WISE GUYS PIZZARIA","Address":"7606 E Chapman Ave","City":"Orange","State":"CA","Zip":"92869"},{"Location":"YUN JAPANESE RESTAURANT","Address":"3505 E Chapman Ave E","City":"Orange","State":"CA","Zip":"92869"}]