[{"Location":"ALTA VISTA COUNTRY CLUB","Address":"777 Alta Vista St","City":"Placentia","State":"CA","Zip":"92870"},{"Location":"AMERICAN LEGION","Address":"230 S Bradford Ave","City":"Placentia","State":"CA","Zip":"92870"},{"Location":"ARBOR ROSE","Address":"4931 Carthage St","City":"Placentia","State":"CA","Zip":"92870"},{"Location":"ARLON GRAPHICS","Address":"200 Boysenberry Ln","City":"Placentia","State":"CA","Zip":"92870"},{"Location":"ARNOLD ELECTRONICS","Address":"1907 Nancita Cir","City":"Placentia","State":"CA","Zip":"92870"},{"Location":"ATP","Address":"1055 Ortega Way C","City":"Placentia","State":"CA","Zip":"92870"},{"Location":"BELMONT EQPUIPMENT","Address":"1011 Segovia Cir","City":"Placentia","State":"CA","Zip":"92870"},{"Location":"BIG SKY TRANSPORT INC","Address":"213a S Lakeview Ave","City":"Placentia","State":"CA","Zip":"92870"},{"Location":"BIMBO BAKERY","Address":"500 S Placentia Ave","City":"Placentia","State":"CA","Zip":"92870"},{"Location":"BROWN CONSULTING AND CONSTRUCT","Address":"1961 E Miraloma Ave C","City":"Placentia","State":"CA","Zip":"92870"},{"Location":"BUSINESS & HEALTH INSURA","Address":"1206 E Yorba Linda Blvd","City":"Placentia","State":"CA","Zip":"92870"},{"Location":"CIG STORE","Address":"171 E Yorba Linda Blvd","City":"Placentia","State":"CA","Zip":"92870"},{"Location":"COATS PRODUCTS","Address":"1049 S Melrose St A","City":"Placentia","State":"CA","Zip":"92870"},{"Location":"COBBLESTONE BARBERSHOP","Address":"2081 E Orangethorpe Ave","City":"Placentia","State":"CA","Zip":"92870"},{"Location":"CONTEMPORARY HEATING AND AIR","Address":"1750 E Miraloma Ave","City":"Placentia","State":"CA","Zip":"92870"},{"Location":"CRAFTSMAN WOOD FIRE","Address":"148 E Yorba Linda Blvd","City":"Placentia","State":"CA","Zip":"92870"},{"Location":"DENNYS RESTAURANT","Address":"108 E Orangethorpe Ave","City":"Placentia","State":"CA","Zip":"92870"},{"Location":"DONUT PLACE","Address":"901 E Yorba Linda Blvd","City":"Placentia","State":"CA","Zip":"92870"},{"Location":"EL CANTARITO INC","Address":"120 W Santa Fe Ave","City":"Placentia","State":"CA","Zip":"92870"},{"Location":"EL FAROLITO","Address":"201 S Bradford Ave","City":"Placentia","State":"CA","Zip":"92870"},{"Location":"EL TORITO 7032","Address":"1474 N Kraemer Blvd","City":"Placentia","State":"CA","Zip":"92870"},{"Location":"ELICKER ENTERPRISES INC","Address":"2053 E Orangethorpe Ave","City":"Placentia","State":"CA","Zip":"92870"},{"Location":"EMERGENCY AMBULANCE SERV 1","Address":"120 S Bradford Ave","City":"Placentia","State":"CA","Zip":"92870"},{"Location":"ESTHERS TACO HOUSE","Address":"2001 E Orangethorpe Ave G","City":"Placentia","State":"CA","Zip":"92870"},{"Location":"EXCLUSIVE MOTORS","Address":"1961 E Miraloma Ave","City":"Placentia","State":"CA","Zip":"92870"},{"Location":"FIRESTATION THIRTY FOUR","Address":"1530 Valencia Ave","City":"Placentia","State":"CA","Zip":"92870"},{"Location":"FLANGE WIZARD INC","Address":"1950 Estelle Ln","City":"Placentia","State":"CA","Zip":"92870"},{"Location":"GD HEIL INC","Address":"1031 Segovia Cir","City":"Placentia","State":"CA","Zip":"92870"},{"Location":"GENA MARIAS PIZZERIA","Address":"1525 N Placentia Ave","City":"Placentia","State":"CA","Zip":"92870"},{"Location":"GROUP THERAPY","Address":"1265 E Imperial Hwy","City":"Placentia","State":"CA","Zip":"92870"},{"Location":"HARTWELL CORPORATION","Address":"900 Richfield Rd","City":"Placentia","State":"CA","Zip":"92870"},{"Location":"HARVEST CUBE LLC","Address":"712 Dunn Way","City":"Placentia","State":"CA","Zip":"92870"},{"Location":"JOHN P & DAVID J ALLEY DDS","Address":"300 E Yorba Linda Blvd E","City":"Placentia","State":"CA","Zip":"92870"},{"Location":"KELLY'S KORNER TAVERN","Address":"909 E Yorba Linda Blvd","City":"Placentia","State":"CA","Zip":"92870"},{"Location":"KK NAIL & SPA","Address":"13430 Newport Ave","City":"Placentia","State":"CA","Zip":"92870"},{"Location":"LA FAMILIA LAVENDERIA","Address":"720 W Chapman Ave","City":"Placentia","State":"CA","Zip":"92870"},{"Location":"LINDBY CUSTOM INC","Address":"320 E Crowther Ave","City":"Placentia","State":"CA","Zip":"92870"},{"Location":"MAIN STREET REALTOR","Address":"201 S Lakeview Ave A","City":"Placentia","State":"CA","Zip":"92870"},{"Location":"MAKIYAKI SUSHI","Address":"1490 N Kraemer Blvd","City":"Placentia","State":"CA","Zip":"92870"},{"Location":"MARIE CALENDERS #48","Address":"126 E Yorba Linda Blvd","City":"Placentia","State":"CA","Zip":"92870"},{"Location":"MEAT UP BBQ","Address":"1450 N Kraemer Blvd","City":"Placentia","State":"CA","Zip":"92870"},{"Location":"MED POST URGENT CARE","Address":"858 N Rose Dr","City":"Placentia","State":"CA","Zip":"92870"},{"Location":"MERICLE MECHANICAL INC","Address":"1664 Sierra Madre Cir","City":"Placentia","State":"CA","Zip":"92870"},{"Location":"MICHAEL S LYONS DDS MS INC","Address":"300 E Yorra Linda Blvd H","City":"Placentia","State":"CA","Zip":"92870"},{"Location":"MIGUELS MAR","Address":"1855 N Kraemer Blvd","City":"Placentia","State":"CA","Zip":"92870"},{"Location":"MSM","Address":"134 Santa  Fe Ave","City":"Placentia","State":"CA","Zip":"92870"},{"Location":"NEIGHBORHOOD  PAWN INC","Address":"608 W Chapman Ave","City":"Placentia","State":"CA","Zip":"92870"},{"Location":"NO LIMITS PERSONAL TRAIN","Address":"980 S Via Rodeo","City":"Placentia","State":"CA","Zip":"92870"},{"Location":"NORTHGATE GONZALEZ STORE 34","Address":"710 W Chapman Ave","City":"Placentia","State":"CA","Zip":"92870"},{"Location":"OISHI SUSHI","Address":"1041 E Imperial Hwy","City":"Placentia","State":"CA","Zip":"92870"},{"Location":"OSSCIM INC","Address":"172 E Orangethorpe Ave","City":"Placentia","State":"CA","Zip":"92870"},{"Location":"PASTALLERIA BRAVO","Address":"1226 E Yorba Linda Blvd","City":"Placentia","State":"CA","Zip":"92870"},{"Location":"PEPZ PIZZA","Address":"732 N Rose Dr","City":"Placentia","State":"CA","Zip":"92870"},{"Location":"PHILLY'S BEST","Address":"198 E Yorba Linda Blvd","City":"Placentia","State":"CA","Zip":"92870"},{"Location":"PIZZA STORE THE","Address":"2091 E Orangethorpe Ave","City":"Placentia","State":"CA","Zip":"92870"},{"Location":"PLACENTIA BAKERY CORP","Address":"111 W Santa Fe Ave","City":"Placentia","State":"CA","Zip":"92870"},{"Location":"PLACENTIA POLICE DEPT","Address":"401 E Chapman Ave","City":"Placentia","State":"CA","Zip":"92870"},{"Location":"PLACENTIA PRESBYTRN","Address":"907 N Bradford Ave","City":"Placentia","State":"CA","Zip":"92870"},{"Location":"PREMIER CHRYSLER JEEP","Address":"777 W Orangethorpe Ave","City":"Placentia","State":"CA","Zip":"92870"},{"Location":"PRIMA CREATIONS INC","Address":"1150 Las Brisas Pl","City":"Placentia","State":"CA","Zip":"92870"},{"Location":"REMBRANDTS RESTAURANT","Address":"909 E Yorba Linda Blvd","City":"Placentia","State":"CA","Zip":"92870"},{"Location":"RESIDENCE INN MARRIOTT","Address":"700 W Kimberly Ave","City":"Placentia","State":"CA","Zip":"92870"},{"Location":"RONDELL HOMES","Address":"1249 E Imperial Hwy A","City":"Placentia","State":"CA","Zip":"92870"},{"Location":"SAIGON NOODLE HOUSE CORP","Address":"1486 N Kraemer Blvd","City":"Placentia","State":"CA","Zip":"92870"},{"Location":"SERVICE KING PAINT AND BODY LL","Address":"750 Monroe Way","City":"Placentia","State":"CA","Zip":"92870"},{"Location":"STIX HOLDINGS 778","Address":"187 E Yorba Linda Blvd","City":"Placentia","State":"CA","Zip":"92870"},{"Location":"SUSHI SAKE","Address":"850 N Rose Dr A","City":"Placentia","State":"CA","Zip":"92870"},{"Location":"THE BRUERY","Address":"715 Dunn Way","City":"Placentia","State":"CA","Zip":"92870"},{"Location":"THE JEWELERS TOUCH","Address":"1215 E Imperial Hwy","City":"Placentia","State":"CA","Zip":"92870"},{"Location":"TLAQUEPAQUE REST.","Address":"101 W Santa Fe Ave","City":"Placentia","State":"CA","Zip":"92870"},{"Location":"TMG LIMITED","Address":"1630 E Miraloma Ave","City":"Placentia","State":"CA","Zip":"92870"},{"Location":"TNT NAIL","Address":"132 N Bradford Ave","City":"Placentia","State":"CA","Zip":"92870"},{"Location":"TOKOYO AUTO REPAIR","Address":"380 E Orangethorpe Ave","City":"Placentia","State":"CA","Zip":"92870"},{"Location":"TOMS PLACE RESTAURANT","Address":"221 W Orangethorpe Ave","City":"Placentia","State":"CA","Zip":"92870"},{"Location":"TONY'S LITTLE ITALY PIZZA","Address":"1808 N Placentia Ave B","City":"Placentia","State":"CA","Zip":"92870"},{"Location":"TURN MARKETING","Address":"1007 S Melrose St","City":"Placentia","State":"CA","Zip":"92870"},{"Location":"UHAUL COMPANY","Address":"862 S Placentia Ave","City":"Placentia","State":"CA","Zip":"92870"},{"Location":"WALSHS 2ND HAND","Address":"1878 N Placentia Ave","City":"Placentia","State":"CA","Zip":"92870"},{"Location":"WRAP AIR","Address":"1970 Estelle Ln","City":"Placentia","State":"CA","Zip":"92870"},{"Location":"ALTA VISTA COUNTRY CLUB","Address":"777 Alta Vista St","City":"Placentia","State":"CA","Zip":"92870"},{"Location":"AMERICAN LEGION","Address":"230 S Bradford Ave","City":"Placentia","State":"CA","Zip":"92870"},{"Location":"ARBOR ROSE","Address":"4931 Carthage St","City":"Placentia","State":"CA","Zip":"92870"},{"Location":"ARLON GRAPHICS","Address":"200 Boysenberry Ln","City":"Placentia","State":"CA","Zip":"92870"},{"Location":"ARNOLD ELECTRONICS","Address":"1907 Nancita Cir","City":"Placentia","State":"CA","Zip":"92870"},{"Location":"ATP","Address":"1055 Ortega Way C","City":"Placentia","State":"CA","Zip":"92870"},{"Location":"BELMONT EQPUIPMENT","Address":"1011 Segovia Cir","City":"Placentia","State":"CA","Zip":"92870"},{"Location":"BIG SKY TRANSPORT INC","Address":"213a S Lakeview Ave","City":"Placentia","State":"CA","Zip":"92870"},{"Location":"BIMBO BAKERY","Address":"500 S Placentia Ave","City":"Placentia","State":"CA","Zip":"92870"},{"Location":"BROWN CONSULTING AND CONSTRUCT","Address":"1961 E Miraloma Ave C","City":"Placentia","State":"CA","Zip":"92870"},{"Location":"BUSINESS & HEALTH INSURA","Address":"1206 E Yorba Linda Blvd","City":"Placentia","State":"CA","Zip":"92870"},{"Location":"CIG STORE","Address":"171 E Yorba Linda Blvd","City":"Placentia","State":"CA","Zip":"92870"},{"Location":"COATS PRODUCTS","Address":"1049 S Melrose St A","City":"Placentia","State":"CA","Zip":"92870"},{"Location":"COBBLESTONE BARBERSHOP","Address":"2081 E Orangethorpe Ave","City":"Placentia","State":"CA","Zip":"92870"},{"Location":"CONTEMPORARY HEATING AND AIR","Address":"1750 E Miraloma Ave","City":"Placentia","State":"CA","Zip":"92870"},{"Location":"CRAFTSMAN WOOD FIRE","Address":"148 E Yorba Linda Blvd","City":"Placentia","State":"CA","Zip":"92870"},{"Location":"DENNYS RESTAURANT","Address":"108 E Orangethorpe Ave","City":"Placentia","State":"CA","Zip":"92870"},{"Location":"DONUT PLACE","Address":"901 E Yorba Linda Blvd","City":"Placentia","State":"CA","Zip":"92870"},{"Location":"EL CANTARITO INC","Address":"120 W Santa Fe Ave","City":"Placentia","State":"CA","Zip":"92870"},{"Location":"EL FAROLITO","Address":"201 S Bradford Ave","City":"Placentia","State":"CA","Zip":"92870"},{"Location":"EL TORITO 7032","Address":"1474 N Kraemer Blvd","City":"Placentia","State":"CA","Zip":"92870"},{"Location":"ELICKER ENTERPRISES INC","Address":"2053 E Orangethorpe Ave","City":"Placentia","State":"CA","Zip":"92870"},{"Location":"EMERGENCY AMBULANCE SERV 1","Address":"120 S Bradford Ave","City":"Placentia","State":"CA","Zip":"92870"},{"Location":"ESTHERS TACO HOUSE","Address":"2001 E Orangethorpe Ave G","City":"Placentia","State":"CA","Zip":"92870"},{"Location":"EXCLUSIVE MOTORS","Address":"1961 E Miraloma Ave","City":"Placentia","State":"CA","Zip":"92870"},{"Location":"FIRESTATION THIRTY FOUR","Address":"1530 Valencia Ave","City":"Placentia","State":"CA","Zip":"92870"},{"Location":"FLANGE WIZARD INC","Address":"1950 Estelle Ln","City":"Placentia","State":"CA","Zip":"92870"},{"Location":"GD HEIL INC","Address":"1031 Segovia Cir","City":"Placentia","State":"CA","Zip":"92870"},{"Location":"GENA MARIAS PIZZERIA","Address":"1525 N Placentia Ave","City":"Placentia","State":"CA","Zip":"92870"},{"Location":"GROUP THERAPY","Address":"1265 E Imperial Hwy","City":"Placentia","State":"CA","Zip":"92870"},{"Location":"HARTWELL CORPORATION","Address":"900 Richfield Rd","City":"Placentia","State":"CA","Zip":"92870"},{"Location":"HARVEST CUBE LLC","Address":"712 Dunn Way","City":"Placentia","State":"CA","Zip":"92870"},{"Location":"JOHN P & DAVID J ALLEY DDS","Address":"300 E Yorba Linda Blvd E","City":"Placentia","State":"CA","Zip":"92870"},{"Location":"KELLY'S KORNER TAVERN","Address":"909 E Yorba Linda Blvd","City":"Placentia","State":"CA","Zip":"92870"},{"Location":"KK NAIL & SPA","Address":"13430 Newport Ave","City":"Placentia","State":"CA","Zip":"92870"},{"Location":"LA FAMILIA LAVENDERIA","Address":"720 W Chapman Ave","City":"Placentia","State":"CA","Zip":"92870"},{"Location":"LINDBY CUSTOM INC","Address":"320 E Crowther Ave","City":"Placentia","State":"CA","Zip":"92870"},{"Location":"MAIN STREET REALTOR","Address":"201 S Lakeview Ave A","City":"Placentia","State":"CA","Zip":"92870"},{"Location":"MAKIYAKI SUSHI","Address":"1490 N Kraemer Blvd","City":"Placentia","State":"CA","Zip":"92870"},{"Location":"MARIE CALENDERS #48","Address":"126 E Yorba Linda Blvd","City":"Placentia","State":"CA","Zip":"92870"},{"Location":"MEAT UP BBQ","Address":"1450 N Kraemer Blvd","City":"Placentia","State":"CA","Zip":"92870"},{"Location":"MED POST URGENT CARE","Address":"858 N Rose Dr","City":"Placentia","State":"CA","Zip":"92870"},{"Location":"MERICLE MECHANICAL INC","Address":"1664 Sierra Madre Cir","City":"Placentia","State":"CA","Zip":"92870"},{"Location":"MICHAEL S LYONS DDS MS INC","Address":"300 E Yorra Linda Blvd H","City":"Placentia","State":"CA","Zip":"92870"},{"Location":"MIGUELS MAR","Address":"1855 N Kraemer Blvd","City":"Placentia","State":"CA","Zip":"92870"},{"Location":"MSM","Address":"134 Santa  Fe Ave","City":"Placentia","State":"CA","Zip":"92870"},{"Location":"NEIGHBORHOOD  PAWN INC","Address":"608 W Chapman Ave","City":"Placentia","State":"CA","Zip":"92870"},{"Location":"NO LIMITS PERSONAL TRAIN","Address":"980 S Via Rodeo","City":"Placentia","State":"CA","Zip":"92870"},{"Location":"NORTHGATE GONZALEZ STORE 34","Address":"710 W Chapman Ave","City":"Placentia","State":"CA","Zip":"92870"},{"Location":"OISHI SUSHI","Address":"1041 E Imperial Hwy","City":"Placentia","State":"CA","Zip":"92870"},{"Location":"OSSCIM INC","Address":"172 E Orangethorpe Ave","City":"Placentia","State":"CA","Zip":"92870"},{"Location":"PASTALLERIA BRAVO","Address":"1226 E Yorba Linda Blvd","City":"Placentia","State":"CA","Zip":"92870"},{"Location":"PEPZ PIZZA","Address":"732 N Rose Dr","City":"Placentia","State":"CA","Zip":"92870"},{"Location":"PHILLY'S BEST","Address":"198 E Yorba Linda Blvd","City":"Placentia","State":"CA","Zip":"92870"},{"Location":"PIZZA STORE THE","Address":"2091 E Orangethorpe Ave","City":"Placentia","State":"CA","Zip":"92870"},{"Location":"PLACENTIA BAKERY CORP","Address":"111 W Santa Fe Ave","City":"Placentia","State":"CA","Zip":"92870"},{"Location":"PLACENTIA POLICE DEPT","Address":"401 E Chapman Ave","City":"Placentia","State":"CA","Zip":"92870"},{"Location":"PLACENTIA PRESBYTRN","Address":"907 N Bradford Ave","City":"Placentia","State":"CA","Zip":"92870"},{"Location":"PREMIER CHRYSLER JEEP","Address":"777 W Orangethorpe Ave","City":"Placentia","State":"CA","Zip":"92870"},{"Location":"PRIMA CREATIONS INC","Address":"1150 Las Brisas Pl","City":"Placentia","State":"CA","Zip":"92870"},{"Location":"REMBRANDTS RESTAURANT","Address":"909 E Yorba Linda Blvd","City":"Placentia","State":"CA","Zip":"92870"},{"Location":"RESIDENCE INN MARRIOTT","Address":"700 W Kimberly Ave","City":"Placentia","State":"CA","Zip":"92870"},{"Location":"RONDELL HOMES","Address":"1249 E Imperial Hwy A","City":"Placentia","State":"CA","Zip":"92870"},{"Location":"Saigon Noodle House Corp","Address":"1486 N Kraemer Blvd","City":"Placentia","State":"CA","Zip":"92870"},{"Location":"STERLING COLLISION CENTERS INC","Address":"750 Monroe Way","City":"Placentia","State":"CA","Zip":"92870"},{"Location":"STIX HOLDINGS 778","Address":"187 E Yorba Linda Blvd","City":"Placentia","State":"CA","Zip":"92870"},{"Location":"SUSHI SAKE","Address":"850 N Rose Dr A","City":"Placentia","State":"CA","Zip":"92870"},{"Location":"THE BRUERY","Address":"715 Dunn Way","City":"Placentia","State":"CA","Zip":"92870"},{"Location":"THE JEWELERS TOUCH","Address":"1215 E Imperial Hwy","City":"Placentia","State":"CA","Zip":"92870"},{"Location":"TLAQUEPAQUE REST.","Address":"101 W Santa Fe Ave","City":"Placentia","State":"CA","Zip":"92870"},{"Location":"TMG LIMITED","Address":"1630 E Miraloma Ave","City":"Placentia","State":"CA","Zip":"92870"},{"Location":"TNT NAIL","Address":"132 N Bradford Ave","City":"Placentia","State":"CA","Zip":"92870"},{"Location":"TOKOYO AUTO REPAIR","Address":"380 E Orangethorpe Ave","City":"Placentia","State":"CA","Zip":"92870"},{"Location":"TOMS PLACE RESTAURANT","Address":"221 W Orangethorpe Ave","City":"Placentia","State":"CA","Zip":"92870"},{"Location":"TONY'S LITTLE ITALY PIZZA","Address":"1808 N Placentia Ave B","City":"Placentia","State":"CA","Zip":"92870"},{"Location":"TURN MARKETING","Address":"1007 S Melrose St","City":"Placentia","State":"CA","Zip":"92870"},{"Location":"UHAUL COMPANY","Address":"862 S Placentia Ave","City":"Placentia","State":"CA","Zip":"92870"},{"Location":"WALSHS 2ND HAND","Address":"1878 N Placentia Ave","City":"Placentia","State":"CA","Zip":"92870"},{"Location":"WRAP AIR","Address":"1970 Estelle Ln","City":"Placentia","State":"CA","Zip":"92870"}]