[{"Location":"LUXURY NAILS AND SPA","Address":"18545 Yoba Linda Blvd","City":"Yoba Linda","State":"CA","Zip":"92886"},{"Location":"24 HOUR FITNESS #125","Address":"18200 Yorba Linda Blvd","City":"Yorba Linda","State":"CA","Zip":"92886"},{"Location":"24 HOUR FITNESS #896","Address":"4848 Valley View Ave","City":"Yorba Linda","State":"CA","Zip":"92886"},{"Location":"ALLEN TIRES","Address":"17151 Imperial Hwy","City":"Yorba Linda","State":"CA","Zip":"92886"},{"Location":"AMECI PIZZA & PASTA","Address":"18521 Yorba Linda Blvd","City":"Yorba Linda","State":"CA","Zip":"92886"},{"Location":"ANAHEIM HILLS TIRE","Address":"19721 Esperanza Rd","City":"Yorba Linda","State":"CA","Zip":"92886"},{"Location":"AQ ELECTRONIC ASSEMBLY","Address":"3910 Prospect Ave L","City":"Yorba Linda","State":"CA","Zip":"92886"},{"Location":"BARI BARA JAPANESE STEAK HOUSE","Address":"19677 Yorba Linda Blvd","City":"Yorba Linda","State":"CA","Zip":"92886"},{"Location":"BIG O TIRES","Address":"17111 Imperial Hwy","City":"Yorba Linda","State":"CA","Zip":"92886"},{"Location":"BLUE AGAVE%2F CALIENTE","Address":"18601 Yorba Linda Blvd","City":"Yorba Linda","State":"CA","Zip":"92886"},{"Location":"CADUCEUS MEDICAL GROUP","Address":"18210 Yorba Linda Blvd","City":"Yorba Linda","State":"CA","Zip":"92886"},{"Location":"CANYON INN SPORTS BAR","Address":"6821 Fairlynn Blvd Uintd","City":"Yorba Linda","State":"CA","Zip":"92886"},{"Location":"CHILI'S #0133","Address":"18380 Yorba Linda Blvd","City":"Yorba Linda","State":"CA","Zip":"92886"},{"Location":"CHRONIC TACOS","Address":"18220 Yorba Linda Blvd 302","City":"Yorba Linda","State":"CA","Zip":"92886"},{"Location":"COUNTRY CLUB BARBER","Address":"19609 Yorba Linda Blvd","City":"Yorba Linda","State":"CA","Zip":"92886"},{"Location":"DAIRYSMART","Address":"3900 Prospect Ave C","City":"Yorba Linda","State":"CA","Zip":"92886"},{"Location":"DR JOHN   MOLOIAN CORP II","Address":"18340 Yorba Linda Blvd","City":"Yorba Linda","State":"CA","Zip":"92886"},{"Location":"EPIC NOODLE","Address":"17401 Bastanchury Rd 102","City":"Yorba Linda","State":"CA","Zip":"92886"},{"Location":"FIRESTONE #024899","Address":"18500 Yorba Linda Blvd","City":"Yorba Linda","State":"CA","Zip":"92886"},{"Location":"FIRST CHOICE PHYSICIAN","Address":"16671 Yorba Linda Blvd","City":"Yorba Linda","State":"CA","Zip":"92886"},{"Location":"FREINDSHIP BAPTIST CHURCH","Address":"17145 Bastanchury Rd","City":"Yorba Linda","State":"CA","Zip":"92886"},{"Location":"FRIENDS CHURCH","Address":"18637 Yorba Linda Blvd","City":"Yorba Linda","State":"CA","Zip":"92886"},{"Location":"GOLF CLUB","Address":"1 Black Gold Dr","City":"Yorba Linda","State":"CA","Zip":"92886"},{"Location":"GOODYEAR 4889","Address":"17005 Imperial Hwy","City":"Yorba Linda","State":"CA","Zip":"92886"},{"Location":"HAPPY BAGEL","Address":"20461 Yorba Linda Blvd","City":"Yorba Linda","State":"CA","Zip":"92886"},{"Location":"IMPERIAL NAILS & SPA","Address":"17499 Imperial Hwy","City":"Yorba Linda","State":"CA","Zip":"92886"},{"Location":"JAL USA","Address":"18220 Yorba Linda Blvd 310","City":"Yorba Linda","State":"CA","Zip":"92886"},{"Location":"KNOLL FAMILY DENISTRY","Address":"19851 Yorba Linda Blvd 201","City":"Yorba Linda","State":"CA","Zip":"92886"},{"Location":"LA FITNESS #43","Address":"16951 Imperial Hwy","City":"Yorba Linda","State":"CA","Zip":"92886"},{"Location":"LAMPPOST PIZZA - 2FHW2","Address":"17568 Yorba Linda Blvd","City":"Yorba Linda","State":"CA","Zip":"92886"},{"Location":"MAGUROYA RESTAURANT","Address":"18242 Imperial Hwy","City":"Yorba Linda","State":"CA","Zip":"92886"},{"Location":"MCKINNEY TRAILERS","Address":"6041 Grandview Ave","City":"Yorba Linda","State":"CA","Zip":"92886"},{"Location":"MEDPOST URGENT CARE","Address":"20635 Yorba Linda Blvd","City":"Yorba Linda","State":"CA","Zip":"92886"},{"Location":"METROPOLITAN WATER DISTRICT","Address":"3972 Valley View Ave","City":"Yorba Linda","State":"CA","Zip":"92886"},{"Location":"MODERN IMAGE","Address":"20525 Yorba Linda Blvd","City":"Yorba Linda","State":"CA","Zip":"92886"},{"Location":"OCEAN & EARTH RESTAURANT","Address":"20305 Yorba Linda Blvd","City":"Yorba Linda","State":"CA","Zip":"92886"},{"Location":"PIZZA PEPPERO","Address":"20355 Yorba Linda Blvd","City":"Yorba Linda","State":"CA","Zip":"92886"},{"Location":"ROUND TABLE PIZZA - YL","Address":"18518 Yorba Linda Blvd","City":"Yorba Linda","State":"CA","Zip":"92886"},{"Location":"SALON ROUKOZ 2","Address":"18452 Yorba Linda Blvd E","City":"Yorba Linda","State":"CA","Zip":"92886"},{"Location":"SANCHEZ REST LLC","Address":"18452 Yorba Linda Blvd","City":"Yorba Linda","State":"CA","Zip":"92886"},{"Location":"SCOTTRADE 54Q","Address":"18450 Yorba Linda Blvd","City":"Yorba Linda","State":"CA","Zip":"92886"},{"Location":"SPORT CLIPS CA515","Address":"17476 Yorba Linda Blvd","City":"Yorba Linda","State":"CA","Zip":"92886"},{"Location":"ST MARTIN DE PORRES","Address":"19767 Yorba Linda Blvd","City":"Yorba Linda","State":"CA","Zip":"92886"},{"Location":"SUSHI & ROLL","Address":"20355 Yorba Linda Blvd C","City":"Yorba Linda","State":"CA","Zip":"92886"},{"Location":"TACOS SAN PEDRO","Address":"17475 Imperial Hwy","City":"Yorba Linda","State":"CA","Zip":"92886"},{"Location":"TAXES BY CONTRACT","Address":"20425 Yorba Linda Blvd","City":"Yorba Linda","State":"CA","Zip":"92886"},{"Location":"THE RANCH ENCHILADA 2","Address":"4965 Valley View Ave C","City":"Yorba Linda","State":"CA","Zip":"92886"},{"Location":"THOMAS THOMPSON DDS","Address":"17300 Yorba Linda Blvd A","City":"Yorba Linda","State":"CA","Zip":"92886"},{"Location":"TOSH HAIR LOUNGE LLC","Address":"18340 Yorba Linda Blvd 103","City":"Yorba Linda","State":"CA","Zip":"92886"},{"Location":"US BANK","Address":"19750 Yorba Linda Blvd","City":"Yorba Linda","State":"CA","Zip":"92886"},{"Location":"VALENTINOS PIZZA","Address":"18340 Yorba Linda Blvd 104","City":"Yorba Linda","State":"CA","Zip":"92886"},{"Location":"VOGUE NAILS","Address":"18232 Imperial Hwy","City":"Yorba Linda","State":"CA","Zip":"92886"},{"Location":"WINERY AT MAIN STREET","Address":"4861 Main St","City":"Yorba Linda","State":"CA","Zip":"92886"},{"Location":"YLCC","Address":"19400 Mountain View Ave","City":"Yorba Linda","State":"CA","Zip":"92886"},{"Location":"YORBA LINDA DENTAL GROUP","Address":"18432 Yorba Linda Blvd","City":"Yorba Linda","State":"CA","Zip":"92886"},{"Location":"YORBA LINDA FITNESS SUCCESS","Address":"20539 Yorba Linda Blvd","City":"Yorba Linda","State":"CA","Zip":"92886"},{"Location":"YORBA LINDA KNOLLS HOA2","Address":"4794 Carmonita Ln","City":"Yorba Linda","State":"CA","Zip":"92886"},{"Location":"YORBA LINDA SMILES","Address":"16691 Yorba Linda Blvd","City":"Yorba Linda","State":"CA","Zip":"92886"}]