[{"Location":"ALBETOS MEXICAN FOOD","Address":"416 W 6th St","City":"Corona","State":"CA","Zip":"92882"},{"Location":"AMA LACY MD","Address":"760 Washburn Ave 8a","City":"Corona","State":"CA","Zip":"92882"},{"Location":"AMERICAN LEGION CORONA","Address":"1557 Yorba St","City":"Corona","State":"CA","Zip":"92882"},{"Location":"AUTO INSURANCE SOLUTION","Address":"1130 W 6th St","City":"Corona","State":"CA","Zip":"92882"},{"Location":"AVID INK","Address":"231 N Sherman Ave","City":"Corona","State":"CA","Zip":"92882"},{"Location":"BURGER BASKETS","Address":"1058 W 6th St","City":"Corona","State":"CA","Zip":"92882"},{"Location":"CARDENAS MARKET 14","Address":"301 S Lincoln Ave","City":"Corona","State":"CA","Zip":"92882"},{"Location":"CBS CORPRATE","Address":"1426 W 6th St 210","City":"Corona","State":"CA","Zip":"92882"},{"Location":"CIRCLE CITY FOODS","Address":"150 Depot Dr","City":"Corona","State":"CA","Zip":"92882"},{"Location":"COIN LAUNDRY","Address":"1520 W 6th St 105","City":"Corona","State":"CA","Zip":"92882"},{"Location":"CORODATA","Address":"2621 Research Dr 102","City":"Corona","State":"CA","Zip":"92882"},{"Location":"CORONA REGIONAL MEDICAL STAFF","Address":"800 S Main St","City":"Corona","State":"CA","Zip":"92882"},{"Location":"CRESCENT SOLUTIONS","Address":"1247 Pomona Rd 106","City":"Corona","State":"CA","Zip":"92882"},{"Location":"DR NANAYAKKARA MD","Address":"760 Washburn Ave 9","City":"Corona","State":"CA","Zip":"92882"},{"Location":"EL SOL MEXICAN REST. INC","Address":"1112 W 6th St 101","City":"Corona","State":"CA","Zip":"92882"},{"Location":"ENDEAVOR WOOD PRODUCTS INC","Address":"232 N Sherman Ave C","City":"Corona","State":"CA","Zip":"92882"},{"Location":"FITNESS 19 CORONA","Address":"1190 W 6th St","City":"Corona","State":"CA","Zip":"92882"},{"Location":"FOOTHILL INDEPENDENT BANK","Address":"1050 W 6th St","City":"Corona","State":"CA","Zip":"92882"},{"Location":"FOREVER CUTS","Address":"80 W Grand Blvd 110","City":"Corona","State":"CA","Zip":"92882"},{"Location":"GENTLE DENTAL","Address":"1074 W 6th St","City":"Corona","State":"CA","Zip":"92882"},{"Location":"GOODYEAR 8655","Address":"185 Washburn Cir","City":"Corona","State":"CA","Zip":"92882"},{"Location":"HIBIKI SUSHI","Address":"1380 W 6th St 100","City":"Corona","State":"CA","Zip":"92882"},{"Location":"JERRYS BRAKE ALIGNMENT","Address":"1011 W 6th St","City":"Corona","State":"CA","Zip":"92882"},{"Location":"JOES BARBER SHOP","Address":"1009 W 6th St","City":"Corona","State":"CA","Zip":"92882"},{"Location":"LGM CONSTRUCTION","Address":"1141 Pomona Rd","City":"Corona","State":"CA","Zip":"92882"},{"Location":"LHM AUTO","Address":"1700 W 6th St","City":"Corona","State":"CA","Zip":"92882"},{"Location":"MARG & GINA LIVE HAIR","Address":"1307 W 6th St 129","City":"Corona","State":"CA","Zip":"92882"},{"Location":"MCDONALDS OFFICE","Address":"1307 W 6th St C144","City":"Corona","State":"CA","Zip":"92882"},{"Location":"MEGA DENTAL INC","Address":"80 W Grand Blvd 111","City":"Corona","State":"CA","Zip":"92882"},{"Location":"MICHELLE'S BAR","Address":"1330 W 6th St","City":"Corona","State":"CA","Zip":"92882"},{"Location":"MIGUEL'S & CATINA","Address":"1920 Frontage Rd","City":"Corona","State":"CA","Zip":"92882"},{"Location":"MOSTAFA KHATTAB DDS","Address":"807 W Grand Blvd B","City":"Corona","State":"CA","Zip":"92882"},{"Location":"MOUNTAIN MIKES PIZZA","Address":"140 W Ontario Ave 104","City":"Corona","State":"CA","Zip":"92882"},{"Location":"NAVAS BARBER SHOP","Address":"1510 W 6th St 103","City":"Corona","State":"CA","Zip":"92882"},{"Location":"ONQ AUTO GROUP INC","Address":"402 W 6th St","City":"Corona","State":"CA","Zip":"92882"},{"Location":"ORETJE CASA TAQUITO","Address":"2721 Green River Rd 106","City":"Corona","State":"CA","Zip":"92882"},{"Location":"PANKAEW","Address":"725 W 6th St","City":"Corona","State":"CA","Zip":"92882"},{"Location":"PESCADERIA EL GOLFO 2","Address":"1252 W 6th St","City":"Corona","State":"CA","Zip":"92882"},{"Location":"PIZZAZ Y MASS","Address":"1530 W 6th St 107","City":"Corona","State":"CA","Zip":"92882"},{"Location":"PRECISION IMPORT AUTO REP","Address":"1545 Yorba St","City":"Corona","State":"CA","Zip":"92882"},{"Location":"PREMIER HEALTH ADVISORS","Address":"200 S Main St 120","City":"Corona","State":"CA","Zip":"92882"},{"Location":"PRESTIGE AUTO","Address":"2683 Wardlow Rd","City":"Corona","State":"CA","Zip":"92882"},{"Location":"PRO-TIRE & WHEELS","Address":"50 W Grand Blvd","City":"Corona","State":"CA","Zip":"92882"},{"Location":"PROFFESSIONAL WOUND CARE","Address":"2815 S Main St 215","City":"Corona","State":"CA","Zip":"92882"},{"Location":"SAKURA BUFFETT","Address":"1210 W 6th St","City":"Corona","State":"CA","Zip":"92882"},{"Location":"STIX HOLDINGS 759","Address":"360 W Foothill Pkwy 102","City":"Corona","State":"CA","Zip":"92882"},{"Location":"SUBS GALORE","Address":"2721 Green River Rd","City":"Corona","State":"CA","Zip":"92882"},{"Location":"TIRE KINGDOM B-5804","Address":"1002 W 6th St","City":"Corona","State":"CA","Zip":"92882"},{"Location":"TORRES","Address":"1390 W 6th St 112","City":"Corona","State":"CA","Zip":"92882"},{"Location":"TORTAS SINALOA","Address":"1520 W 6th St 108","City":"Corona","State":"CA","Zip":"92882"},{"Location":"TRICOUNTY EYE LASER VISION CTR","Address":"1124 S Main St 102","City":"Corona","State":"CA","Zip":"92882"},{"Location":"UNIVERSAL METALS CO","Address":"1020 Railroad St","City":"Corona","State":"CA","Zip":"92882"},{"Location":"VIP TRANSPORT","Address":"2703 Wardlow Rd","City":"Corona","State":"CA","Zip":"92882"},{"Location":"WHOLE SALE TIRE AUTO.","Address":"1443 W 6th St 313","City":"Corona","State":"CA","Zip":"92882"},{"Location":"WINNERS CIRCLE ATHLETICS","Address":"1026 Railroad St","City":"Corona","State":"CA","Zip":"92882"}]