[{"Location":"10 STAR RESTORATION","Address":"24601 Glen Ivy Rd 307","City":"Corona","State":"CA","Zip":"92883"},{"Location":"CHAMPIONS CLUB","Address":"8007 Soft Winds Dr","City":"Corona","State":"CA","Zip":"92883"},{"Location":"CITRUS CITY CORONA","Address":"2765 Lakeshore Dr","City":"Corona","State":"CA","Zip":"92883"},{"Location":"CORONA CLIPPER INC","Address":"22440 Temescal Canyon Rd","City":"Corona","State":"CA","Zip":"92883"},{"Location":"DOS LAGOS GOLF CLUB","Address":"4507 Cabot Dr","City":"Corona","State":"CA","Zip":"92883"},{"Location":"EAGLE GLEN DENTAL GROUP","Address":"3811 Bedford Canyon Rd 105","City":"Corona","State":"CA","Zip":"92883"},{"Location":"FANTASTIC SAMS","Address":"11882 De Palma Rd 2c","City":"Corona","State":"CA","Zip":"92883"},{"Location":"FST SAND & GRAVEL INC","Address":"21780 Temescal Canyon Rd","City":"Corona","State":"CA","Zip":"92883"},{"Location":"GRACE RETREAT CENTER","Address":"11985 Indian Truck Trl","City":"Corona","State":"CA","Zip":"92883"},{"Location":"KEYSTONE AUTOMOTIVE","Address":"22420 Temsco Cyn Rd","City":"Corona","State":"CA","Zip":"92883"},{"Location":"LA MESITA MEXICAN FOOD","Address":"2279 Eagle Glen Pkwy Ste 101","City":"Corona","State":"CA","Zip":"92883"},{"Location":"LIVE FROM MEMPHIS","Address":"2795 Cabot Dr 180","City":"Corona","State":"CA","Zip":"92883"},{"Location":"MIGUELS CATINA","Address":"2715 Lakeshore Dr","City":"Corona","State":"CA","Zip":"92883"},{"Location":"MTL DISTRIBTUION","Address":"23167 Temescal Canyon Rd","City":"Corona","State":"CA","Zip":"92883"},{"Location":"NAVCOM DEFENSE ELECTRONICS INC","Address":"9129 Stellar Ct","City":"Corona","State":"CA","Zip":"92883"},{"Location":"P I B","Address":"24601 Glen Ivy Rd","City":"Corona","State":"CA","Zip":"92883"},{"Location":"RA SUSHI #3012 CORONA","Address":"2785 Cabot Dr 101","City":"Corona","State":"CA","Zip":"92883"},{"Location":"RIVERSIDE COUNTY FIRE STA #64","Address":"26425 Horsethief Canyon Rd","City":"Corona","State":"CA","Zip":"92883"},{"Location":"SHADY GROVE","Address":"4321 Owens St","City":"Corona","State":"CA","Zip":"92883"},{"Location":"TAMESCAL DRIVING RANGE","Address":"23100 Temescal Canyon Rd","City":"Corona","State":"CA","Zip":"92883"},{"Location":"TAPS FISHHOUSE & BREWERY","Address":"2745 Lakeshore Dr","City":"Corona","State":"CA","Zip":"92883"},{"Location":"TEAKWOODS BAR VS GRILL","Address":"11882 De Palma Rd","City":"Corona","State":"CA","Zip":"92883"},{"Location":"TGI FRIDAY'S #2086","Address":"2795 Cabot Dr 155","City":"Corona","State":"CA","Zip":"92883"},{"Location":"THE BUCKET CRAB AND CRAWFISH1","Address":"2279 Eagle Glen Pkwy","City":"Corona","State":"CA","Zip":"92883"},{"Location":"THE SPORTSMANS BAR","Address":"21779 Temescal Canyon Rd","City":"Corona","State":"CA","Zip":"92883"},{"Location":"TOKAI SUSHI","Address":"2279 Eagle Glen Pkwy","City":"Corona","State":"CA","Zip":"92883"},{"Location":"TOMS FARMS FURNITURE","Address":"23900 Temescal Canyon Rd","City":"Corona","State":"CA","Zip":"92883"},{"Location":"TOMS FARMS MEX RESTAURANT","Address":"23800 Temescal Canyon Rd","City":"Corona","State":"CA","Zip":"92883"},{"Location":"TRILOGY  GOLF CLUB","Address":"24400 Trilogy Pkwy","City":"Corona","State":"CA","Zip":"92883"},{"Location":"TRILOGY AT GLEN IVY MAINTANCE","Address":"24503 Trilogy Pkwy","City":"Corona","State":"CA","Zip":"92883"},{"Location":"TRILOGY AT GLEN IVY MAINTENANC","Address":"24491 Trilogy Pkwy","City":"Corona","State":"CA","Zip":"92883"},{"Location":"TRILOGY AT GLENN IVY","Address":"24477 Trilogy Pkwy","City":"Corona","State":"CA","Zip":"92883"},{"Location":"UNITED SCREENING CRUSHING INC","Address":"4205 Windspring St 104","City":"Corona","State":"CA","Zip":"92883"},{"Location":"USCNF FIRE DPT","Address":"24530 Temescal Canyon Rd B","City":"Corona","State":"CA","Zip":"92883"},{"Location":"WEDGEWOOD WEDDING AND BANQUET","Address":"24400 Trilogy Pkwy","City":"Corona","State":"CA","Zip":"92883"},{"Location":"WERNER CORP","Address":"25555 Maitri Rd","City":"Corona","State":"CA","Zip":"92883"},{"Location":"WHOLESALE CAPITAL CORP.","Address":"4160 Temescal Canyon Rd 406","City":"Corona","State":"CA","Zip":"92883"},{"Location":"WOOD RANCH BBQ & GRILL","Address":"2785 Lakeshore Dr","City":"Corona","State":"CA","Zip":"92883"}]