[{"Location":"AIRCRAFT SPRUCE AND SPECIALTY","Address":"225 Airport Cir","City":"Corona","State":"CA","Zip":"92880"},{"Location":"AIRMARK INTL","Address":"1771 Railroad St","City":"Corona","State":"CA","Zip":"92880"},{"Location":"ALL MOBILE BAIL BONDS","Address":"312 N Cota St","City":"Corona","State":"CA","Zip":"92880"},{"Location":"ALL RISE RECORDS","Address":"3175 Palisades Dr","City":"Corona","State":"CA","Zip":"92880"},{"Location":"AMERICAN ELECTRIC","Address":"1872 Pomona Rd","City":"Corona","State":"CA","Zip":"92880"},{"Location":"AMERICAN MEDICAL RESPONSE","Address":"16756 Chino Corona Rd","City":"Corona","State":"CA","Zip":"92880"},{"Location":"ASEPTIC SOLUTIONS USA LLC","Address":"484 Alcoa Cir","City":"Corona","State":"CA","Zip":"92880"},{"Location":"AW ASSOICATES INC","Address":"312 N Cota St E","City":"Corona","State":"CA","Zip":"92880"},{"Location":"BIG ALS PIZZA","Address":"4300 Green River Rd 111","City":"Corona","State":"CA","Zip":"92880"},{"Location":"BOUDRAEU CORP","Address":"463 N Smith Ave","City":"Corona","State":"CA","Zip":"92880"},{"Location":"BOYTOR SWINE FARM","Address":"14811 Chandler St","City":"Corona","State":"CA","Zip":"92880"},{"Location":"BRANDONS DINER GREEN RIV","Address":"4714 Green River Rd","City":"Corona","State":"CA","Zip":"92880"},{"Location":"CERTIFIED TIRES","Address":"624 N Main St","City":"Corona","State":"CA","Zip":"92880"},{"Location":"CORE SUPPLY","Address":"1816 Railroad St","City":"Corona","State":"CA","Zip":"92880"},{"Location":"CORONA FAMILY DENTISTRY","Address":"782 N Main St E","City":"Corona","State":"CA","Zip":"92880"},{"Location":"CURRIE ENTERPRISES","Address":"382 N Smith Ave","City":"Corona","State":"CA","Zip":"92880"},{"Location":"DEMPSEYS SPORTS BAR AND GRILL","Address":"511 N Main St 105","City":"Corona","State":"CA","Zip":"92880"},{"Location":"DR HORTON INC","Address":"2280 Wardlow Cir St100","City":"Corona","State":"CA","Zip":"92880"},{"Location":"ESL POWER SYSTEMS","Address":"2800 Palisades Dr","City":"Corona","State":"CA","Zip":"92880"},{"Location":"ESPARZA","Address":"440 River Rd B","City":"Corona","State":"CA","Zip":"92880"},{"Location":"FAITH FELLOWSHIP BIBLE CHURCH","Address":"4225 Prado Rd 105","City":"Corona","State":"CA","Zip":"92880"},{"Location":"FENDER MUSICAL INSTRUMENTS","Address":"311 Cessna Cir","City":"Corona","State":"CA","Zip":"92880"},{"Location":"FIRESTONE #015032","Address":"522 N Main St","City":"Corona","State":"CA","Zip":"92880"},{"Location":"GOLDEN STATE CALABRATION","Address":"1560 Commerce St G","City":"Corona","State":"CA","Zip":"92880"},{"Location":"GRACE'S LIGHTHOUSE RESOURCE C","Address":"13661 Lowell St","City":"Corona","State":"CA","Zip":"92880"},{"Location":"GREEN RIVER GOLF CLUB","Address":"5215 Green River Rd","City":"Corona","State":"CA","Zip":"92880"},{"Location":"HAIR SENSATIONZ","Address":"629 N Main St C1","City":"Corona","State":"CA","Zip":"92880"},{"Location":"J SUSHI","Address":"4300 Green River Rd 107","City":"Corona","State":"CA","Zip":"92880"},{"Location":"JURUPA COMMUNITY SERVICE","Address":"13820 Schleisman Rd","City":"Corona","State":"CA","Zip":"92880"},{"Location":"LEXANI WHEEL CORP","Address":"2380 Railroad St 101","City":"Corona","State":"CA","Zip":"92880"},{"Location":"LOUISANNA FAMOUS FRIED CHICKEN","Address":"635 N Main St B4","City":"Corona","State":"CA","Zip":"92880"},{"Location":"LUCAS OIL PRODUCTS RENEGADE","Address":"302 N Sheridan St","City":"Corona","State":"CA","Zip":"92880"},{"Location":"MAV TV","Address":"302 N Sheridan St","City":"Corona","State":"CA","Zip":"92880"},{"Location":"MEC JETCO TRAILER","Address":"550 Monica Cir 201","City":"Corona","State":"CA","Zip":"92880"},{"Location":"MEC RACE #1","Address":"550 Monica Cir 201","City":"Corona","State":"CA","Zip":"92880"},{"Location":"MEC RACE TRAILER 2","Address":"550 Monica Cir 201","City":"Corona","State":"CA","Zip":"92880"},{"Location":"MEC SHOW HAULER 759","Address":"550 Monica Cir 201","City":"Corona","State":"CA","Zip":"92880"},{"Location":"MEC SHOW HAULER 784","Address":"550 Monica Cir 201","City":"Corona","State":"CA","Zip":"92880"},{"Location":"MEC WESTERN STAR","Address":"550 Monica Cir 201","City":"Corona","State":"CA","Zip":"92880"},{"Location":"MILTON GIBBS","Address":"1727 Commerce St C","City":"Corona","State":"CA","Zip":"92880"},{"Location":"MISSION FINANCIAL SERVIC","Address":"4222 Green River Rd","City":"Corona","State":"CA","Zip":"92880"},{"Location":"MISSION PROPERTY PARTNERS LLC","Address":"1661 Railroad St","City":"Corona","State":"CA","Zip":"92880"},{"Location":"NGUYEN","Address":"6987 Hamner Ave 6","City":"Corona","State":"CA","Zip":"92880"},{"Location":"OG SUPPLY INC","Address":"150 Vander St","City":"Corona","State":"CA","Zip":"92880"},{"Location":"ONE ON ONE FITNESS CONSU","Address":"357 W. Sheraton St. 130a","City":"Corona","State":"CA","Zip":"92880"},{"Location":"PEPBOYS 0778","Address":"581 N Main St","City":"Corona","State":"CA","Zip":"92880"},{"Location":"PIZZA HUT- EASTVALE","Address":"7056 Archibald St 108","City":"Corona","State":"CA","Zip":"92880"},{"Location":"PONINOS PIZZARENA","Address":"12768 Limonite Ave 101","City":"Corona","State":"CA","Zip":"92880"},{"Location":"PROCESS EQUIPMENT","Address":"1751 Jenks Dr","City":"Corona","State":"CA","Zip":"92880"},{"Location":"PROFESSIONAILS  & SPA","Address":"12648 Limonite Ave A","City":"Corona","State":"CA","Zip":"92880"},{"Location":"PUISSANCE INTERNATIONAL CORP","Address":"4180 Green River Rd","City":"Corona","State":"CA","Zip":"92880"},{"Location":"REVOL NAIL SPA","Address":"7084 Archibald St","City":"Corona","State":"CA","Zip":"92880"},{"Location":"RINCON BUSINESS CENTER","Address":"556 Malloy Ct","City":"Corona","State":"CA","Zip":"92880"},{"Location":"RIVERSIDE COUNTY FIRE STN 27","Address":"7067 Hamner Ave","City":"Corona","State":"CA","Zip":"92880"},{"Location":"RIVERSIDE MED EASTVALE","Address":"12742 Limonite Ave","City":"Corona","State":"CA","Zip":"92880"},{"Location":"ROCK TENN","Address":"185 N Smith Ave","City":"Corona","State":"CA","Zip":"92880"},{"Location":"RODRIGOS MEXICAN GRILL","Address":"150 W Parkridge Ave","City":"Corona","State":"CA","Zip":"92880"},{"Location":"ROUND TABLE PIZZA #649","Address":"813 N Main St","City":"Corona","State":"CA","Zip":"92880"},{"Location":"RUBEN TACOS","Address":"430 River Rd D","City":"Corona","State":"CA","Zip":"92880"},{"Location":"RUBICON GEAR","Address":"225 Citation Cir","City":"Corona","State":"CA","Zip":"92880"},{"Location":"SCHAMBER ELECTRIC","Address":"1674 Railroad St","City":"Corona","State":"CA","Zip":"92880"},{"Location":"SECTION 8 CYCLE","Address":"1540 Commerce St F","City":"Corona","State":"CA","Zip":"92880"},{"Location":"SPRITE INDUSTRIES","Address":"1791 Railroad St","City":"Corona","State":"CA","Zip":"92880"},{"Location":"STERIGENICS","Address":"344 Bonnie Cir","City":"Corona","State":"CA","Zip":"92880"},{"Location":"SUPERCUTS","Address":"12672 Limonite Ave 105","City":"Corona","State":"CA","Zip":"92880"},{"Location":"TALCO PLASTICS","Address":"1000 W Rincon St","City":"Corona","State":"CA","Zip":"92880"},{"Location":"THE FLAME BROILER","Address":"440 River Rd H","City":"Corona","State":"CA","Zip":"92880"},{"Location":"THE LUCKY GREEK","Address":"2490 Wardlow Rd","City":"Corona","State":"CA","Zip":"92880"},{"Location":"TWR ENTERPRISES INC.","Address":"1661 Railroad St","City":"Corona","State":"CA","Zip":"92880"},{"Location":"VEG FRESH FARMS 2 LLC","Address":"1400 W Rincon St","City":"Corona","State":"CA","Zip":"92880"},{"Location":"WATSON LABS","Address":"2455 Wardlow Rd","City":"Corona","State":"CA","Zip":"92880"},{"Location":"WENDYS 10818","Address":"12614 Limonite Ave","City":"Eastvale","State":"CA","Zip":"92880"}]