[{"Location":"AMERICAN GEOTECHNICAL","Address":"22725 Old Canal Rd","City":"Yorba Linda","State":"CA","Zip":"92887"},{"Location":"BANK OF AMERICA CA7-517-01-03","Address":"22840 Savi Ranch Pkwy","City":"Yorba Linda","State":"CA","Zip":"92887"},{"Location":"CA SPA NAILS","Address":"22226 La Palma Ave","City":"Yorba Linda","State":"CA","Zip":"92887"},{"Location":"CACEGA CORP","Address":"23030 Eastpark Dr","City":"Yorba Linda","State":"CA","Zip":"92887"},{"Location":"CANYON PIZZA","Address":"23621 La Palma Ave H","City":"Yorba Linda","State":"CA","Zip":"92887"},{"Location":"CHEESEHEAD APPAREL","Address":"21720 Feather Ave","City":"Yorba Linda","State":"CA","Zip":"92887"},{"Location":"CORTECH ENGINEERING","Address":"22785 Savi Ranch Pkwy","City":"Yorba Linda","State":"CA","Zip":"92887"},{"Location":"CRYSTAL IMAGE CLEANERS","Address":"22224 La Palma Ave B","City":"Yorba Linda","State":"CA","Zip":"92887"},{"Location":"DICK'S SPORTING GOODS #929","Address":"23081 Savi Ranch Pkwy","City":"Yorba Linda","State":"CA","Zip":"92887"},{"Location":"EL TORITO 7217","Address":"22699 Oakcrest Cir","City":"Yorba Linda","State":"CA","Zip":"92887"},{"Location":"FANATICS ATHLETIC CLUB","Address":"22222 La Palma Ave","City":"Yorba Linda","State":"CA","Zip":"92887"},{"Location":"FELIZ AND ASSOCIATES","Address":"22415 La Palma Ave","City":"Yorba Linda","State":"CA","Zip":"92887"},{"Location":"FLOOR PLANS CONSTRUCTION","Address":"22609 La Palma Ave 202","City":"Yorba Linda","State":"CA","Zip":"92887"},{"Location":"GLOBAL CONVERSIONS","Address":"22835 Savi Ranch Pkwy D","City":"Yorba Linda","State":"CA","Zip":"92887"},{"Location":"GOOD GUYS AUTOMOTIVE","Address":"22929 Savi Ranch Rkwy","City":"Yorba Linda","State":"CA","Zip":"92887"},{"Location":"J AND H ASSET PROPERTY MAN","Address":"22880 Savi Ranch Pkwy","City":"Yorba Linda","State":"CA","Zip":"92887"},{"Location":"JOHN FORCE RACING","Address":"22722 Old Canal Rd","City":"Yorba Linda","State":"CA","Zip":"92887"},{"Location":"KOHL'S #755","Address":"23001 Savi Ranch Pkwy","City":"Yorba Linda","State":"CA","Zip":"92887"},{"Location":"LAMPPOST PIZZA","Address":"21480 Yorba Linda Blvd D","City":"Yorba Linda","State":"CA","Zip":"92887"},{"Location":"MANAGED DIRECT RESPONSE","Address":"22845 Savi Ranch Pkwy","City":"Yorba Linda","State":"CA","Zip":"92887"},{"Location":"NOBEL BIO CARE","Address":"22725 Savi Ranch Pkwy","City":"Yorba Linda","State":"CA","Zip":"92887"},{"Location":"NOBEL BIOCARE","Address":"22715 Savi Ranch Pkwy","City":"Yorba Linda","State":"CA","Zip":"92887"},{"Location":"OC WINEMART AND DELI","Address":"4925 Yorba Ranch Rd","City":"Yorba Linda","State":"CA","Zip":"92887"},{"Location":"ONE FIGUEROA CORPORATION","Address":"24835 La Palma Ave B","City":"Yorba Linda","State":"CA","Zip":"92887"},{"Location":"ORANGE COUNTY FIRESTATION#32","Address":"20990 Yorba Linda Blvd","City":"Yorba Linda","State":"CA","Zip":"92887"},{"Location":"PAPA'S TACO HOUSE & CANTINA","Address":"23741 La Palma Ave F","City":"Yorba Linda","State":"CA","Zip":"92887"},{"Location":"SERVICE CHAMPIONS","Address":"22911 Savi Ranch Pkwy","City":"Yorba Linda","State":"CA","Zip":"92887"},{"Location":"SHARP FREIGHT SYSTEM","Address":"22707 La Palma Ave","City":"Yorba Linda","State":"CA","Zip":"92887"},{"Location":"SPORT CLIPS CA514","Address":"21480 Yorba Linda Blvd C1","City":"Yorba Linda","State":"CA","Zip":"92887"},{"Location":"SUNNY SLOPE TREES","Address":"22345 La Palma Ave 107","City":"Yorba Linda","State":"CA","Zip":"92887"},{"Location":"SUPATRA'S THAI BISTRO","Address":"21560 Yorba Linda Blvd E","City":"Yorba Linda","State":"CA","Zip":"92887"},{"Location":"TGI FRIDAY'S #1948","Address":"23040 Eastpark Dr","City":"Yorba Linda","State":"CA","Zip":"92887"},{"Location":"THE RED THAI ROOM","Address":"4905 Yorba Ranch Rd","City":"Yorba Linda","State":"CA","Zip":"92887"},{"Location":"UFC GYM YORBA BELINDA","Address":"23701 La Palma Ave","City":"Yorba Linda","State":"CA","Zip":"92887"},{"Location":"WABA GRILL","Address":"21480 Yorba Linda Blvd B","City":"Yorba Linda","State":"CA","Zip":"92887"},{"Location":"WERLINGER AND ASSOCIATES INC","Address":"23671 Via Del Rio","City":"Yorba Linda","State":"CA","Zip":"92887"},{"Location":"WORKERS COMP RESOLUTION","Address":"22875 Savi Ranch Pkwy C","City":"Yorba Linda","State":"CA","Zip":"92887"},{"Location":"YORK MEDICAL PHYSICS","Address":"23810 Via Del Rio B","City":"Yorba Linda","State":"CA","Zip":"92887"},{"Location":"ZETTEK INC","Address":"22951 La Palma Ave","City":"Yorba Linda","State":"CA","Zip":"92887"}]