[{"Location":"26 DEGREES","Address":"1535 E Ontario Ave 101","City":"Corona","State":"CA","Zip":"92881"},{"Location":"AMERICAN BARBERSHOP CORONA","Address":"1551 E Ontario Ave 104","City":"Corona","State":"CA","Zip":"92881"},{"Location":"BJS RESTAURANT #444","Address":"2520 Tuscany St","City":"Corona","State":"CA","Zip":"92881"},{"Location":"BUFFALO WILD WINGS #0454","Address":"2670 Tuscany St 101","City":"Corona","State":"CA","Zip":"92881"},{"Location":"CHILI'S #0898","Address":"3579 Grand Oaks","City":"Corona","State":"CA","Zip":"92881"},{"Location":"CORONA CAGES","Address":"1148 California Ave","City":"Corona","State":"CA","Zip":"92881"},{"Location":"CORONA SUSHI ZEN INC","Address":"1525 E Ontario Ave 108","City":"Corona","State":"CA","Zip":"92881"},{"Location":"DAVITA #877 1-C CORONA","Address":"2057 Compton Ave 6","City":"Corona","State":"CA","Zip":"92881"},{"Location":"DREAM CORONA","Address":"1561 E Ontario Ave 101","City":"Corona","State":"CA","Zip":"92881"},{"Location":"El Tapatio Markets","Address":"1212 Magnolia Ave","City":"Corona","State":"CA","Zip":"92881"},{"Location":"ESSENCE HAIR SALON","Address":"2363 California Ave 104","City":"Corona","State":"CA","Zip":"92881"},{"Location":"ESSO TUTTO BENE","Address":"2363 California Ave 105","City":"Corona","State":"CA","Zip":"92881"},{"Location":"FLAME BROILERONE","Address":"1297 E Ontario Ave 103","City":"Corona","State":"CA","Zip":"92881"},{"Location":"GOLDEN WEST SURPLUS","Address":"1121 California Ave","City":"Corona","State":"CA","Zip":"92881"},{"Location":"GOODMAN DISTRIBUTION","Address":"1900 Compton Ave 102","City":"Corona","State":"CA","Zip":"92881"},{"Location":"GRAEBEL VAN LINE INC","Address":"2095 California Ave","City":"Corona","State":"CA","Zip":"92881"},{"Location":"HALLO UNLIMITED","Address":"1867 California Ave 101","City":"Corona","State":"CA","Zip":"92881"},{"Location":"HEALTH MANAGMENT","Address":"2083 Compton Ave 202","City":"Corona","State":"CA","Zip":"92881"},{"Location":"HOLSTROM SISSUNG MARKS&A","Address":"1897 California Ave 102","City":"Corona","State":"CA","Zip":"92881"},{"Location":"INLAND VALLEY RETNA","Address":"1810 Fullerton Ave 206","City":"Corona","State":"CA","Zip":"92881"},{"Location":"JEECIM INVESTMENTS","Address":"1501 Rimpau Ave 108","City":"Corona","State":"CA","Zip":"92881"},{"Location":"JEROMES FURNITURE","Address":"3615 Grand Oaks","City":"Corona","State":"CA","Zip":"92881"},{"Location":"JERSEY MIKES SUBS","Address":"2150 California Ave 112","City":"Corona","State":"CA","Zip":"92881"},{"Location":"JIFFY LUBE 3360","Address":"1600 E Ontario Ave","City":"Corona","State":"CA","Zip":"92881"},{"Location":"JUANCHOS","Address":"19619 Temescal Canyon Rd","City":"Corona","State":"CA","Zip":"92881"},{"Location":"KAISER PERMANENTE","Address":"1830 Califorina Ave","City":"Corona","State":"CA","Zip":"92881"},{"Location":"KING'S FISH HOUSE-CORONA","Address":"2530 Tuscany St","City":"Corona","State":"CA","Zip":"92881"},{"Location":"KOHL'S #592","Address":"2620 Cajalco Rd","City":"Corona","State":"CA","Zip":"92881"},{"Location":"LA FITNESS #57","Address":"2355 Compton Ave","City":"Corona","State":"CA","Zip":"92881"},{"Location":"MACARONI GRILL #1294","Address":"3591 Grand Oaks","City":"Corona","State":"CA","Zip":"92881"},{"Location":"MARUI SUSHI","Address":"2347 California Ave 101","City":"Corona","State":"CA","Zip":"92881"},{"Location":"MEN'S WEARHOUSE #2743","Address":"2690 Tuscany St 110","City":"Corona","State":"CA","Zip":"92881"},{"Location":"MOMO SUSHI","Address":"1511 Rimpau Ave","City":"Corona","State":"CA","Zip":"92881"},{"Location":"MOUNTAINVIEW TIRE","Address":"1630 E Ontario Ave","City":"Corona","State":"CA","Zip":"92881"},{"Location":"PRIMARY PROVIDER","Address":"2115 Compton Ave","City":"Corona","State":"CA","Zip":"92881"},{"Location":"ROSEN ELECTRONICS","Address":"1120 California Ave","City":"Corona","State":"CA","Zip":"92881"},{"Location":"SDIR CORONA LLC","Address":"1202 Magnolia Ave","City":"Corona","State":"CA","Zip":"92881"},{"Location":"SOMBRERO MEXICAN FOOD-CO","Address":"1535 E Ontario Ave 105","City":"Corona","State":"CA","Zip":"92881"},{"Location":"SOUTH CORONA VET HOSPITAL","Address":"1551 E Ontario Ave 101","City":"Corona","State":"CA","Zip":"92881"},{"Location":"SUPER CUTS CA 81053","Address":"2690 Tuscany St D-104","City":"Corona","State":"CA","Zip":"92881"},{"Location":"SUSHI ZEN","Address":"1525 E Ontario Ave 108","City":"Corona","State":"CA","Zip":"92881"},{"Location":"TARGET CORONA","Address":"2615 Tuscany St","City":"Corona","State":"CA","Zip":"92881"},{"Location":"THAI SEVEN SEA","Address":"1525 E Ontario Ave 107","City":"Corona","State":"CA","Zip":"92881"},{"Location":"THE OUTSOURCE GROUP","Address":"1801 California Ave","City":"Corona","State":"CA","Zip":"92881"},{"Location":"TRUE TOUCH NAIL AND SPA","Address":"2363 California Ave 103","City":"Corona","State":"CA","Zip":"92881"},{"Location":"UNDERGROUND SERVICE ALERT","Address":"1379 Pico St 101","City":"Corona","State":"CA","Zip":"92881"},{"Location":"VISTA MEDICAL GROUP","Address":"2071 Compton Ave 102","City":"Corona","State":"CA","Zip":"92881"},{"Location":"WELLINGTON FOODS","Address":"1930 California Ave","City":"Corona","State":"CA","Zip":"92881"},{"Location":"WIRELESS INFASTRUCTURE SERVICE","Address":"1837 California Ave","City":"Corona","State":"CA","Zip":"92881"}]