[{"Location":"BELLA VISTA","Address":"1724 Tansen","City":"Covina","State":"CA","Zip":"93003"},{"Location":"CROWELL WEEDON AND COMPANY","Address":"5740 Ralson St 301","City":"San Buenaventura","State":"CA","Zip":"93003"},{"Location":"5 POINTS CAR WASH","Address":"2912 Telegraph Rd","City":"Ventura","State":"CA","Zip":"93003"},{"Location":"AFFORDABLE TAX SERVICES","Address":"5700 Ralston St 211","City":"Ventura","State":"CA","Zip":"93003"},{"Location":"ALL ROOFING SUPPLY","Address":"1435 Walter St","City":"Ventura","State":"CA","Zip":"93003"},{"Location":"ALL STAR NAILS","Address":"2833 E Main St B","City":"Ventura","State":"CA","Zip":"93003"},{"Location":"ALL VAC VACUUM SALES SERVICE","Address":"3619 Telegraph Rd","City":"Ventura","State":"CA","Zip":"93003"},{"Location":"ALLIED BEVERAGES 2","Address":"5801 Nicolle St","City":"Ventura","State":"CA","Zip":"93003"},{"Location":"ANACAPA SEAFOODS","Address":"4147 Transport St","City":"Ventura","State":"CA","Zip":"93003"},{"Location":"ANACAPA SURGICAL ASSOCIATES","Address":"3170 Loma Vista Rd","City":"Ventura","State":"CA","Zip":"93003"},{"Location":"ANYTIME POWER PARTNERS L","Address":"2950 Johnson Dr 107","City":"Ventura","State":"CA","Zip":"93003"},{"Location":"ARP","Address":"1863 Eastman Ave","City":"Ventura","State":"CA","Zip":"93003"},{"Location":"BARBER RV","Address":"6660 Auto Center Dr","City":"Ventura","State":"CA","Zip":"93003"},{"Location":"BARNETT TOOL & ENGINEERING","Address":"2238 Palma Dr","City":"Ventura","State":"CA","Zip":"93003"},{"Location":"BIKER BAILBONDS","Address":"51 S Victoria Ave","City":"Ventura","State":"CA","Zip":"93003"},{"Location":"BUENA LANES","Address":"1788 Mesa Verde Ave","City":"Ventura","State":"CA","Zip":"93003"},{"Location":"C L K ENGINEERING","Address":"4350 Transport St","City":"Ventura","State":"CA","Zip":"93003"},{"Location":"CANDELARIA","Address":"1363 Donlon St 13","City":"Ventura","State":"CA","Zip":"93003"},{"Location":"CBC CREDIT UNION","Address":"3636 Dean Dr","City":"Ventura","State":"CA","Zip":"93003"},{"Location":"CENTER FAMILY HEALTH ASHWOOD","Address":"120 N Ashwood Ave","City":"Ventura","State":"CA","Zip":"93003"},{"Location":"CHICAGOS FINEST INC","Address":"1780 S Victoria Ave C","City":"Ventura","State":"CA","Zip":"93003"},{"Location":"CHILLAX HOOKAH LOUNGE 1","Address":"4239 Telegraph Rd","City":"Ventura","State":"CA","Zip":"93003"},{"Location":"CJ WILSON MAZDA OF VENTURA","Address":"6500 Auto Center Dr","City":"Ventura","State":"CA","Zip":"93003"},{"Location":"COASTAL CONTRACT PACKAGING INC","Address":"2976 Golf Course Dr","City":"Ventura","State":"CA","Zip":"93003"},{"Location":"COASTAL STATES INSURANCE","Address":"1986 S Victoria Ave","City":"Ventura","State":"CA","Zip":"93003"},{"Location":"COMMUNITY MEMORIAL HEALTH SYST","Address":"2705 Loma Vista Rd 206","City":"Ventura","State":"CA","Zip":"93003"},{"Location":"COMMUNITY MEMORIAL HOSPITAL","Address":"147 N Brent St","City":"Ventura","State":"CA","Zip":"93003"},{"Location":"CONTRACTS  WAREHOUSE","Address":"2625 Johnson Dr","City":"Ventura","State":"CA","Zip":"93003"},{"Location":"CPM  INC","Address":"6411 Ventura Blvd","City":"Ventura","State":"CA","Zip":"93003"},{"Location":"CRANFORD JOSHUA","Address":"4572 Telephone Rd","City":"Ventura","State":"CA","Zip":"93003"},{"Location":"CRONIES SPORTS GRILL","Address":"2855 Johnson Dr","City":"Ventura","State":"CA","Zip":"93003"},{"Location":"CROWN DODGE","Address":"6300 King Dr","City":"Ventura","State":"CA","Zip":"93003"},{"Location":"DAVITA #5548 VENTURA","Address":"2705 Loma Vista Rd","City":"Ventura","State":"CA","Zip":"93003"},{"Location":"DCOR LLC","Address":"290 Maple Ct 290","City":"Ventura","State":"CA","Zip":"93003"},{"Location":"DEPARTMENT OF HOMELAND","Address":"5500 Telegraph Rd 161","City":"Ventura","State":"CA","Zip":"93003"},{"Location":"DICKEYS BARBECUE PIT","Address":"6100 Telegraph Rd F","City":"Ventura","State":"CA","Zip":"93003"},{"Location":"DOGGIN AROUND DAYCARE1","Address":"3222 Bunsen Ave A","City":"Ventura","State":"CA","Zip":"93003"},{"Location":"ERA CUSICK REALTY","Address":"4732 Telephone Rd","City":"Ventura","State":"CA","Zip":"93003"},{"Location":"FARM CREDIT VENTURA","Address":"2031 Knoll Dr","City":"Ventura","State":"CA","Zip":"93003"},{"Location":"FARMERS INSURANCE","Address":"5700 Ralston St","City":"Ventura","State":"CA","Zip":"93003"},{"Location":"FBI VENTURA RA","Address":"2125 Knoll Dr","City":"Ventura","State":"CA","Zip":"93003"},{"Location":"FEDCOM PROPERTIES","Address":"2300 Knoll Dr A","City":"Ventura","State":"CA","Zip":"93003"},{"Location":"FJ HAIR COMPANY INC","Address":"2308 E Main St","City":"Ventura","State":"CA","Zip":"93003"},{"Location":"FMC 17110000","Address":"4567 Telephone Rd 101","City":"Ventura","State":"CA","Zip":"93003"},{"Location":"FORD OF VENTURA","Address":"3440 E Main St","City":"Ventura","State":"CA","Zip":"93003"},{"Location":"GIGIS COCKTAIL LOUNGE","Address":"2493 Grand Ave","City":"Ventura","State":"CA","Zip":"93003"},{"Location":"GOLD COAST ACURA","Address":"3195 Perkin Ave","City":"Ventura","State":"CA","Zip":"93003"},{"Location":"GOLD COAST CABINETS","Address":"2968 Bunsen Ave K","City":"Ventura","State":"CA","Zip":"93003"},{"Location":"GONE WEST CELLARS","Address":"5963 Olivas Park Dr A","City":"Ventura","State":"CA","Zip":"93003"},{"Location":"GPA TECHNOLOGIES","Address":"2368 Eastman Ave 8","City":"Ventura","State":"CA","Zip":"93003"},{"Location":"GREAT CLIPS","Address":"6048 Telegraph Rd A","City":"Ventura","State":"CA","Zip":"93003"},{"Location":"HOLLAND ELECTRONICS  LLC","Address":"2935 Golf Course Dr","City":"Ventura","State":"CA","Zip":"93003"},{"Location":"HOUSE OF DANCE","Address":"3007 Bunsen Ave E","City":"Ventura","State":"CA","Zip":"93003"},{"Location":"IBEW LOCAL NO 952","Address":"3994 E Main St","City":"Ventura","State":"CA","Zip":"93003"},{"Location":"JAGUAR LANDROVER VENTURA","Address":"3190 Perkin Ave","City":"Ventura","State":"CA","Zip":"93003"},{"Location":"JAKES WAYBACK BURGERS","Address":"4960 Telephone Rd 102","City":"Ventura","State":"CA","Zip":"93003"},{"Location":"JBD INVESTMENT INC","Address":"4020 E Main St B62","City":"Ventura","State":"CA","Zip":"93003"},{"Location":"JDM PLUMBING","Address":"2300 Knoll Dr J","City":"Ventura","State":"CA","Zip":"93003"},{"Location":"JENNINGS PHYSICAL THERAPY","Address":"3875 Telegraph Rd C","City":"Ventura","State":"CA","Zip":"93003"},{"Location":"JERSEY MIKE'S SUBS","Address":"1145 S Victoria Ave","City":"Ventura","State":"CA","Zip":"93003"},{"Location":"JERSEY MIKES SUBS","Address":"3301 E Main St 1516","City":"Ventura","State":"CA","Zip":"93003"},{"Location":"JOHN T MCKINNEY","Address":"1259 Callens Rd B","City":"Ventura","State":"CA","Zip":"93003"},{"Location":"JOHNSONFAMILY DENTAL","Address":"103 S Mills Rd 101","City":"Ventura","State":"CA","Zip":"93003"},{"Location":"KAISER ONCOLOGY DEPT","Address":"2601 E Main St","City":"Ventura","State":"CA","Zip":"93003"},{"Location":"KIA OF VENTURA","Address":"6424 Auto Center Dr","City":"Ventura","State":"CA","Zip":"93003"},{"Location":"KIBO SUSHI","Address":"2695 E Thompson Blvd","City":"Ventura","State":"CA","Zip":"93003"},{"Location":"KIRBY SUBARU OF VENTURA","Address":"6404 Auto Center Dr","City":"Ventura","State":"CA","Zip":"93003"},{"Location":"KOHL'S #583","Address":"4950 Telephone Rd","City":"Ventura","State":"CA","Zip":"93003"},{"Location":"KOI SUSHI","Address":"5795 Walker St","City":"Ventura","State":"CA","Zip":"93003"},{"Location":"KOJYO SUSHI","Address":"1437 S Victoria Ave E","City":"Ventura","State":"CA","Zip":"93003"},{"Location":"LA FITNESS #60","Address":"1760 S Victoria Ave","City":"Ventura","State":"CA","Zip":"93003"},{"Location":"LAFFA","Address":"1780 S Victoria Ave D","City":"Ventura","State":"CA","Zip":"93003"},{"Location":"LAUNDER LAND","Address":"5722 Telephone Rd 5","City":"Ventura","State":"CA","Zip":"93003"},{"Location":"LAW OFFICES OF ADAM PEARLMAN","Address":"5740 Ralston St 202","City":"Ventura","State":"CA","Zip":"93003"},{"Location":"LAW OFFICES OF JARROD WILFERT","Address":"5700 Ralston St 309","City":"Ventura","State":"CA","Zip":"93003"},{"Location":"M 2 REALESTATE INVESTMENT","Address":"1656 Walter St","City":"Ventura","State":"CA","Zip":"93003"},{"Location":"MACARONI GRILL #1260","Address":"4880 Telephone Rd","City":"Ventura","State":"CA","Zip":"93003"},{"Location":"MACERICH PROPERTIES INC","Address":"3301 E Main St Ste 1","City":"Ventura","State":"CA","Zip":"93003"},{"Location":"MACY'S WEST 494 BR","Address":"477 S Mills Rd","City":"Ventura","State":"CA","Zip":"93003"},{"Location":"MAGNA CLASSICS","Address":"1990 Knoll Dr B","City":"Ventura","State":"CA","Zip":"93003"},{"Location":"MARBLE NAIL AND SPA","Address":"1795 S Victoria Ave 101b","City":"Ventura","State":"CA","Zip":"93003"},{"Location":"MARK A. BABBITT%2CD.D.S INC.","Address":"3088 Telegraph Rd C","City":"Ventura","State":"CA","Zip":"93003"},{"Location":"MARSHALLS BODACIOUS BBQ","Address":"6353 Ventura Blvd","City":"Ventura","State":"CA","Zip":"93003"},{"Location":"MARTINEZ BODY SHOP","Address":"1622 Walter St F","City":"Ventura","State":"CA","Zip":"93003"},{"Location":"MAVERICKS GYM","Address":"5171 Telegraph Rd","City":"Ventura","State":"CA","Zip":"93003"},{"Location":"MEINKE CAR CARE","Address":"4519 Telephone Rd","City":"Ventura","State":"CA","Zip":"93003"},{"Location":"MICHAEL MORRIFFETTE DDS","Address":"2749 Loma Vista Rd","City":"Ventura","State":"CA","Zip":"93003"},{"Location":"MINI-FLEX CORPORATION","Address":"2472 Eastman Ave 29","City":"Ventura","State":"CA","Zip":"93003"},{"Location":"MONGOLIAN BBQ","Address":"2835 E Main St","City":"Ventura","State":"CA","Zip":"93003"},{"Location":"MONTECITO BANK AND TRUST","Address":"4730 Telephone Rd","City":"Ventura","State":"CA","Zip":"93003"},{"Location":"MORTON PITS","Address":"2950 Johnson Dr 101","City":"Ventura","State":"CA","Zip":"93003"},{"Location":"MOUNTAIN VIEW TIRES","Address":"477 S Mills Rd B","City":"Ventura","State":"CA","Zip":"93003"},{"Location":"NASO  INDUSTRIES","Address":"3007 Bunsen Ave Q","City":"Ventura","State":"CA","Zip":"93003"},{"Location":"NORTH BANK PLAZA PARTNER","Address":"2950 Johnson Dr","City":"Ventura","State":"CA","Zip":"93003"},{"Location":"OCEAN HONDA OF VENTURA","Address":"6450 Auto Center Dr","City":"Ventura","State":"CA","Zip":"93003"},{"Location":"OCEAN PRIDE SEAFOOD","Address":"2894 Bunsen Ave B","City":"Ventura","State":"CA","Zip":"93003"},{"Location":"OLEARYS SIDEBAR","Address":"6555 Telephone Rd 7","City":"Ventura","State":"CA","Zip":"93003"},{"Location":"PACIFIC DENTAL-MAIN STREET DEN","Address":"4360 E Main St C","City":"Ventura","State":"CA","Zip":"93003"},{"Location":"PANADERIA LA VICTORIA","Address":"1437 S Victoria Ave A","City":"Ventura","State":"CA","Zip":"93003"},{"Location":"PARADISE CHEVROLET","Address":"6350 Leland St","City":"Ventura","State":"CA","Zip":"93003"},{"Location":"PARADISE PROPERTY MANAGE","Address":"2419 E Main St","City":"Ventura","State":"CA","Zip":"93003"},{"Location":"PERSONAL COURT REPORTERS","Address":"1363 Donlon St 8","City":"Ventura","State":"CA","Zip":"93003"},{"Location":"PHILLIP NGUYEN","Address":"1413 S Victoria Ave A","City":"Ventura","State":"CA","Zip":"93003"},{"Location":"PRO IMAGE - CEND-1","Address":"3301 E Main St 1036","City":"Ventura","State":"CA","Zip":"93003"},{"Location":"PSI","Address":"3000 Bunsen Ave K","City":"Ventura","State":"CA","Zip":"93003"},{"Location":"QUALITY PLUMBING","Address":"3172 Bunsen Ave C","City":"Ventura","State":"CA","Zip":"93003"},{"Location":"RADNET 5","Address":"4516 Market St","City":"Ventura","State":"CA","Zip":"93003"},{"Location":"RED BRICK PIZZA","Address":"4990 Telephone Rd 100","City":"Ventura","State":"CA","Zip":"93003"},{"Location":"RED ROBIN #248","Address":"3301 E Main St","City":"Ventura","State":"CA","Zip":"93003"},{"Location":"REMAX","Address":"5720 Ralston St","City":"Ventura","State":"CA","Zip":"93003"},{"Location":"RH WEALTH ADVISORS INC","Address":"5700 Ralston St 102","City":"Ventura","State":"CA","Zip":"93003"},{"Location":"RINCON VOLLEYBALL CLUB","Address":"3040 Sherwin Ave","City":"Ventura","State":"CA","Zip":"93003"},{"Location":"ROBERT SKAAR","Address":"3319 Telegraph Rd 101","City":"Ventura","State":"CA","Zip":"93003"},{"Location":"ROBERT WILLIAM COMPANY LLC","Address":"2953 Telegraph Rd","City":"Ventura","State":"CA","Zip":"93003"},{"Location":"ROUND TABLE PIZZA-MAIN ST","Address":"4255 E Main St","City":"Ventura","State":"CA","Zip":"93003"},{"Location":"ROYAL BARBER SHOP","Address":"2785 E Thompson Blvd","City":"Ventura","State":"CA","Zip":"93003"},{"Location":"SAILS GROUP LA 5050","Address":"3185 Breaker Dr","City":"Ventura","State":"CA","Zip":"93003"},{"Location":"SANTA BARBARA CHICKEN RA","Address":"4020 E Main St B10","City":"Ventura","State":"CA","Zip":"93003"},{"Location":"SANTINO'S PIZZA PARLOR","Address":"4231 Telegraph Rd","City":"Ventura","State":"CA","Zip":"93003"},{"Location":"SEARS AUTOMOTIVE","Address":"3310 Telegraph Rd","City":"Ventura","State":"CA","Zip":"93003"},{"Location":"SEND ROVER ON OVER INC","Address":"1255 Callens Rd E","City":"Ventura","State":"CA","Zip":"93003"},{"Location":"SHEET METAL WORKERS","Address":"1794 Goodyear Ave","City":"Ventura","State":"CA","Zip":"93003"},{"Location":"SILVER GLIDE TRAILER COMPANY","Address":"1645 Donlon St 103","City":"Ventura","State":"CA","Zip":"93003"},{"Location":"SNAPPER JACK'S TACO SHACK","Address":"5100 Telegraph Rd F&g","City":"Ventura","State":"CA","Zip":"93003"},{"Location":"SPORTS AUTHORITY 647","Address":"4870 Telephone Rd","City":"Ventura","State":"CA","Zip":"93003"},{"Location":"STACY M SCHMITT DDS","Address":"3400 Loma Vista Rd 8","City":"Ventura","State":"CA","Zip":"93003"},{"Location":"STEPHEN S MARKET AND GRILL LLC","Address":"2632 E Main St","City":"Ventura","State":"CA","Zip":"93003"},{"Location":"STIX HOLDINGS 776","Address":"4990 Telephone Rd 101","City":"Ventura","State":"CA","Zip":"93003"},{"Location":"STUDIO K","Address":"2510 E Main St","City":"Ventura","State":"CA","Zip":"93003"},{"Location":"STUDIO STORE DIRECT","Address":"6019 Olivas Park Dr B","City":"Ventura","State":"CA","Zip":"93003"},{"Location":"SUBWAY #23740","Address":"2199 S Victoria Ave","City":"Ventura","State":"CA","Zip":"93003"},{"Location":"SUMO VENTURA","Address":"1730 S Victoria Ave A","City":"Ventura","State":"CA","Zip":"93003"},{"Location":"TACOS MENDOZA","Address":"6336 Bristol Rd","City":"Ventura","State":"CA","Zip":"93003"},{"Location":"TAFTELECTRIC","Address":"1694 Eastman Ave","City":"Ventura","State":"CA","Zip":"93003"},{"Location":"TARGET","Address":"245 S Mills Rd","City":"Ventura","State":"CA","Zip":"93003"},{"Location":"TARGET","Address":"4200 E Main St","City":"Ventura","State":"CA","Zip":"93003"},{"Location":"TAURIAN BA LLC #1073","Address":"4718 Telephone Rd","City":"Ventura","State":"CA","Zip":"93003"},{"Location":"TEAMSTERS UNION 186","Address":"1534 Eastman Ave B","City":"Ventura","State":"CA","Zip":"93003"},{"Location":"TERRY FARMS INC","Address":"5156 Mcgrath St","City":"Ventura","State":"CA","Zip":"93003"},{"Location":"THE BUNKER","Address":"1891 Goodyear Ave","City":"Ventura","State":"CA","Zip":"93003"},{"Location":"THE COUNTY OF VENTURA DA OFC","Address":"646 County Square Dr","City":"Ventura","State":"CA","Zip":"93003"},{"Location":"THE COUNTY OF VENTURA DA OFC","Address":"5720 Ralston St 300","City":"Ventura","State":"CA","Zip":"93003"},{"Location":"THE DELICATE ART OF DENTISTRY","Address":"1437 S Victoria Ave C","City":"Ventura","State":"CA","Zip":"93003"},{"Location":"THE LAW OFFICES OF DON COCQUYT","Address":"2020 S Victoria Ave","City":"Ventura","State":"CA","Zip":"93003"},{"Location":"THE LUNCH BOX","Address":"1605 Morse Ave","City":"Ventura","State":"CA","Zip":"93003"},{"Location":"THE PLAYERS RESTAURANT","Address":"6580 Auto Center Dr","City":"Ventura","State":"CA","Zip":"93003"},{"Location":"TOPPERS PIZZA PLACE","Address":"3940 E Main St","City":"Ventura","State":"CA","Zip":"93003"},{"Location":"TREACY VILLA1","Address":"3482 Loma Dista Road","City":"Ventura","State":"CA","Zip":"93003"},{"Location":"TRITON MANAGEMENT SERVICES%2CLLC","Address":"2020 S Victoria Ave 100","City":"Ventura","State":"CA","Zip":"93003"},{"Location":"UNITED BLOOD SERVICES","Address":"2223 Eastman Ave A","City":"Ventura","State":"CA","Zip":"93003"},{"Location":"USFWS","Address":"2493 Portola Rd B","City":"Ventura","State":"CA","Zip":"93003"},{"Location":"VENTURA BAPTIST CHURCH","Address":"5415 Ralston St","City":"Ventura","State":"CA","Zip":"93003"},{"Location":"VENTURA COUNTRY HEALTH CARE AG","Address":"2323 Knoll Dr 412","City":"Ventura","State":"CA","Zip":"93003"},{"Location":"VENTURA COUNTY CREDIT UNION","Address":"6026 Telephone Rd","City":"Ventura","State":"CA","Zip":"93003"},{"Location":"VENTURA COUNTY DEPUTY SHERIFFS","Address":"981 S Victoria Ave","City":"Ventura","State":"CA","Zip":"93003"},{"Location":"VENTURA COUNTY MEDICAL CENTER","Address":"3291 Loma Vista Rd","City":"Ventura","State":"CA","Zip":"93003"},{"Location":"VENTURA ELKS LODGE","Address":"2126 Knoll Dr","City":"Ventura","State":"CA","Zip":"93003"},{"Location":"VENTURA FAMILY BRANCH YMCA","Address":"3760 Telegraph Rd","City":"Ventura","State":"CA","Zip":"93003"},{"Location":"VENTURA POLICE AND FIRE","Address":"1425 Dowell Dr","City":"Ventura","State":"CA","Zip":"93003"},{"Location":"VENTURA SPAGHETTI","Address":"2686 Loma Vista Rd","City":"Ventura","State":"CA","Zip":"93003"},{"Location":"VENTURA TOYOTA","Address":"6360 Auto Center Dr","City":"Ventura","State":"CA","Zip":"93003"},{"Location":"VENTURA URGENT CARE","Address":"5725 Ralston St 101","City":"Ventura","State":"CA","Zip":"93003"},{"Location":"VENTURA VOLKSWAGEN","Address":"3650 E Main St","City":"Ventura","State":"CA","Zip":"93003"},{"Location":"VFW POST 1679","Address":"3801 Market St","City":"Ventura","State":"CA","Zip":"93003"},{"Location":"VICTORIA PUB AND GRILL","Address":"1413 S Victoria Ave","City":"Ventura","State":"CA","Zip":"93003"},{"Location":"VTO CO HUMAN SERVICES AGENCY","Address":"855 Partridge Dr","City":"Ventura","State":"CA","Zip":"93003"},{"Location":"WEDGEWOOD BANQUET","Address":"5880 Olivas Park Dr","City":"Ventura","State":"CA","Zip":"93003"},{"Location":"WEST COAST VASCULAR","Address":"100 N Brent St 201","City":"Ventura","State":"CA","Zip":"93003"},{"Location":"WOOD RANCH BBQ AND GRILL","Address":"3449 E Main St","City":"Ventura","State":"CA","Zip":"93003"},{"Location":"WOOD RANCH BBQ& GRILL-VENTURA","Address":"3449 S. Main Street","City":"Ventura","State":"CA","Zip":"93003"},{"Location":"YOLANDAS OF VENTURA","Address":"2753 E Main St","City":"Ventura","State":"CA","Zip":"93003"},{"Location":"YORKS CORE &  FITNESS","Address":"3000 Bunsen Ave N","City":"Ventura","State":"CA","Zip":"93003"},{"Location":"YOUNG LIGHTING AGENCY","Address":"4532 Telephone Rd","City":"Ventura","State":"CA","Zip":"93003"}]