[{"Location":"2 TREES CAFE","Address":"7822 Telegraph Rd","City":"Ventura","State":"CA","Zip":"93004"},{"Location":"A1 TRUCK AND EQUIPMENT","Address":"1588 Los Angeles Ave","City":"Ventura","State":"CA","Zip":"93004"},{"Location":"BRAIN INJURY HOMES","Address":"50 Banner Ave","City":"Ventura","State":"CA","Zip":"93004"},{"Location":"CIG STORE","Address":"9292 Telephone Rd","City":"Ventura","State":"CA","Zip":"93004"},{"Location":"CITRUS NORTH VENTURE LLC","Address":"11111 Citrus Dr 101","City":"Ventura","State":"CA","Zip":"93004"},{"Location":"CLINICAS DEL CAMINO REAL","Address":"200 S Wells Rd","City":"Ventura","State":"CA","Zip":"93004"},{"Location":"INCORPORATION OF HISMEH","Address":"9410 Telephone Rd A","City":"Ventura","State":"CA","Zip":"93004"},{"Location":"JN LIQUOR STORE","Address":"9356 Telephone Rd","City":"Ventura","State":"CA","Zip":"93004"},{"Location":"KYOTO SUSHI","Address":"7880 Telegraph Rd A","City":"Ventura","State":"CA","Zip":"93004"},{"Location":"LOS TAMALES MEXICAN FOOD","Address":"11012 Violeta St","City":"Ventura","State":"CA","Zip":"93004"},{"Location":"MARS'TED","Address":"11175 Nardo St","City":"Ventura","State":"CA","Zip":"93004"},{"Location":"MATT WALLACE DDS","Address":"9290 Telephone Rd","City":"Ventura","State":"CA","Zip":"93004"},{"Location":"PIZZA CHIEF","Address":"7770 Telegraph Rd G","City":"Ventura","State":"CA","Zip":"93004"},{"Location":"SAILS LOS ANGELES CERRIT","Address":"187 El Cerrito Cir","City":"Ventura","State":"CA","Zip":"93004"},{"Location":"SATICOY REGIONAL GOLF COURSE","Address":"1025 S Wells Rd","City":"Ventura","State":"CA","Zip":"93004"},{"Location":"SCE","Address":"10060 Telegraph Rd","City":"Ventura","State":"CA","Zip":"93004"},{"Location":"SOUTHERN CALIFORNIA EDISON","Address":"10060 Telegraph Rd B","City":"Ventura","State":"CA","Zip":"93004"},{"Location":"STANDARD INDUSTRIES","Address":"1905 Lirio Ave","City":"Ventura","State":"CA","Zip":"93004"},{"Location":"STATE READY MIX INC","Address":"11011 Azahar St 4","City":"Ventura","State":"CA","Zip":"93004"},{"Location":"SUBWAY #6057","Address":"7770 Telegraph Rd C","City":"Ventura","State":"CA","Zip":"93004"},{"Location":"VENTURA MOOSE LODGE","Address":"10269 Telephone Rd","City":"Ventura","State":"CA","Zip":"93004"},{"Location":"2 TREES CAFE","Address":"7822 Telegraph Rd","City":"Ventura","State":"CA","Zip":"93004"},{"Location":"A1 TRUCK AND EQUIPMENT","Address":"1588 Los Angeles Ave","City":"Ventura","State":"CA","Zip":"93004"},{"Location":"BRAIN INJURY HOMES","Address":"50 Banner Ave","City":"Ventura","State":"CA","Zip":"93004"},{"Location":"CIG STORE","Address":"9292 Telephone Rd","City":"Ventura","State":"CA","Zip":"93004"},{"Location":"CITRUS NORTH VENTURE LLC","Address":"11111 Citrus Dr 101","City":"Ventura","State":"CA","Zip":"93004"},{"Location":"CLINICAS DEL CAMINO REAL","Address":"200 S Wells Rd","City":"Ventura","State":"CA","Zip":"93004"},{"Location":"INCORPORATION OF HISMEH","Address":"9410 Telephone Rd A","City":"Ventura","State":"CA","Zip":"93004"},{"Location":"JN LIQUOR STORE","Address":"9356 Telephone Rd","City":"Ventura","State":"CA","Zip":"93004"},{"Location":"KYOTO SUSHI","Address":"7880 Telegraph Rd A","City":"Ventura","State":"CA","Zip":"93004"},{"Location":"LOS TAMALES MEXICAN FOOD","Address":"11012 Violeta St","City":"Ventura","State":"CA","Zip":"93004"},{"Location":"MARS'TED","Address":"11175 Nardo St","City":"Ventura","State":"CA","Zip":"93004"},{"Location":"MATT WALLACE DDS","Address":"9290 Telephone Rd","City":"Ventura","State":"CA","Zip":"93004"},{"Location":"PIZZA CHIEF","Address":"7770 Telegraph Rd G","City":"Ventura","State":"CA","Zip":"93004"},{"Location":"SAILS LOS ANGELES CERRIT","Address":"187 El Cerrito Cir","City":"Ventura","State":"CA","Zip":"93004"},{"Location":"SATICOY REGIONAL GOLF COURSE","Address":"1025 S Wells Rd","City":"Ventura","State":"CA","Zip":"93004"},{"Location":"SCE","Address":"10060 Telegraph Rd","City":"Ventura","State":"CA","Zip":"93004"},{"Location":"SOUTHERN CALIFORNIA EDISON","Address":"10060 Telegraph Rd B","City":"Ventura","State":"CA","Zip":"93004"},{"Location":"STANDARD INDUSTRIES","Address":"1905 Lirio Ave","City":"Ventura","State":"CA","Zip":"93004"},{"Location":"STATE READY MIX INC","Address":"11011 Azahar St 4","City":"Ventura","State":"CA","Zip":"93004"},{"Location":"SUBWAY #6057","Address":"7770 Telegraph Rd C","City":"Ventura","State":"CA","Zip":"93004"},{"Location":"VENTURA MOOSE LODGE","Address":"10269 Telephone Rd","City":"Ventura","State":"CA","Zip":"93004"}]