[{"Location":"ADRIAS SEAFOOD","Address":"1449 Spinnaker Dr","City":"Ventura","State":"CA","Zip":"93001"},{"Location":"AERA ENERGY LLC","Address":"1800 School Canyon Rd","City":"Ventura","State":"CA","Zip":"93001"},{"Location":"ALLEN CAMP","Address":"1294 E Main St","City":"Ventura","State":"CA","Zip":"93001"},{"Location":"ALOHA STEAKHOUSE","Address":"364 S California St","City":"Ventura","State":"CA","Zip":"93001"},{"Location":"AMIGOS","Address":"546 E Main St","City":"Ventura","State":"CA","Zip":"93001"},{"Location":"ANACAPA BREWING COMPANY","Address":"472 E Main St","City":"Ventura","State":"CA","Zip":"93001"},{"Location":"ANCHOS MEXICAN FOOD INC","Address":"185 E Santa Clara St","City":"Ventura","State":"CA","Zip":"93001"},{"Location":"ANDY RANDY LLC","Address":"1559 Spinnaker Dr","City":"Ventura","State":"CA","Zip":"93001"},{"Location":"BARRELHOUSE 101","Address":"545 E Thompson Blvd","City":"Ventura","State":"CA","Zip":"93001"},{"Location":"BOATYARD CAFE INC","Address":"1583 Spinnaker Dr 109","City":"Ventura","State":"CA","Zip":"93001"},{"Location":"BOMBAY BAR & GRILL","Address":"143 S California St","City":"Ventura","State":"CA","Zip":"93001"},{"Location":"BROPHY BROS RESTAURANT","Address":"1559 Spinnaker Dr","City":"Ventura","State":"CA","Zip":"93001"},{"Location":"BUENA VENTURA CLUB","Address":"343 E Main St","City":"Ventura","State":"CA","Zip":"93001"},{"Location":"CAFE FIORE","Address":"66 S California St","City":"Ventura","State":"CA","Zip":"93001"},{"Location":"CALIFORNIA STATE PARK CH COAST","Address":"911 San Pedro St","City":"Ventura","State":"CA","Zip":"93001"},{"Location":"CANDLELIGHT BAR","Address":"211 E Santa Clara St","City":"Ventura","State":"CA","Zip":"93001"},{"Location":"CARROWS 198","Address":"2401 Harbor Blvd","City":"Ventura","State":"CA","Zip":"93001"},{"Location":"CHILLAX HOOKAH LOUNGE 2","Address":"434 E Main St","City":"Ventura","State":"CA","Zip":"93001"},{"Location":"CORDELLOS PIZZA","Address":"1700 E Thompson Blvd","City":"Ventura","State":"CA","Zip":"93001"},{"Location":"CP VENTURA AQUALOUNGE","Address":"450 Harbor Blvd","City":"Ventura","State":"CA","Zip":"93001"},{"Location":"DARGANS IRISH PUB","Address":"593 E Main St","City":"Ventura","State":"CA","Zip":"93001"},{"Location":"DISCOVERY VENTURA LP","Address":"1888 E Thompson Blvd","City":"Ventura","State":"CA","Zip":"93001"},{"Location":"DUKES VENTURA INC","Address":"1124 S Seaward Ave","City":"Ventura","State":"CA","Zip":"93001"},{"Location":"EL REY CANTINA","Address":"294 E Main St C","City":"Ventura","State":"CA","Zip":"93001"},{"Location":"EL SITIO","Address":"2271 N Ventura Ave","City":"Ventura","State":"CA","Zip":"93001"},{"Location":"EXCELLENT DEAL","Address":"2186 E Thompson Blvd","City":"Ventura","State":"CA","Zip":"93001"},{"Location":"FIRESTONE #011142","Address":"200 S California St","City":"Ventura","State":"CA","Zip":"93001"},{"Location":"GP REAL ESTATE COMPANY","Address":"554 E Main St","City":"Ventura","State":"CA","Zip":"93001"},{"Location":"GRAPES AND HOPS","Address":"454 E Main St","City":"Ventura","State":"CA","Zip":"93001"},{"Location":"HOLLYWOOD FITNESS","Address":"410 E Main St","City":"Ventura","State":"CA","Zip":"93001"},{"Location":"HONG KONG INN","Address":"435 E Thompson Blvd","City":"Ventura","State":"CA","Zip":"93001"},{"Location":"JCS #0166 - VENTURA","Address":"567 San Jon Rd","City":"Ventura","State":"CA","Zip":"93001"},{"Location":"JIFFY LUBE 1324","Address":"1098 E Thompson Blvd","City":"Ventura","State":"CA","Zip":"93001"},{"Location":"KLEAN KUTS BARBERSHOP","Address":"2040 E Main St C","City":"Ventura","State":"CA","Zip":"93001"},{"Location":"LURE FISH HOUSE","Address":"60 South Cailfornia St","City":"Ventura","State":"CA","Zip":"93001"},{"Location":"MAIS CAFE","Address":"1967 E Main St","City":"Ventura","State":"CA","Zip":"93001"},{"Location":"MARGARITA VILLA","Address":"1567 Spinnaker Dr 200","City":"Ventura","State":"CA","Zip":"93001"},{"Location":"MIMIKO MASSAGE","Address":"1887 E Thompson Blvd","City":"Ventura","State":"CA","Zip":"93001"},{"Location":"NEW LIFE MASSAGE CLINIC","Address":"1763 E Thompson Blvd","City":"Ventura","State":"CA","Zip":"93001"},{"Location":"NICE CUTS","Address":"1700 E Thompson Blvd","City":"Ventura","State":"CA","Zip":"93001"},{"Location":"OCEAN GUARDIAN","Address":"1644 Anchors Way Dr A2","City":"Ventura","State":"CA","Zip":"93001"},{"Location":"OCEAN SCOUT","Address":"1644 Anchors Way Dr A1","City":"Ventura","State":"CA","Zip":"93001"},{"Location":"OCEAN SENTINEL","Address":"1644 Anchors Way Dr A4","City":"Ventura","State":"CA","Zip":"93001"},{"Location":"OLD WASH LAUNDRY","Address":"1700 E Thompson Blvd","City":"Ventura","State":"CA","Zip":"93001"},{"Location":"OLIVAS LINKS","Address":"3750 Olivas Park Dr","City":"Ventura","State":"CA","Zip":"93001"},{"Location":"ORIENTAL HEALTH SPA","Address":"1653 E Main St","City":"Ventura","State":"CA","Zip":"93001"},{"Location":"ORIENTAL SPA","Address":"885 E Main St","City":"Ventura","State":"CA","Zip":"93001"},{"Location":"PATAGONIA WORKS","Address":"9458 Santa Ana Rd","City":"Ventura","State":"CA","Zip":"93001"},{"Location":"PEIRANOS","Address":"204 E Main St","City":"Ventura","State":"CA","Zip":"93001"},{"Location":"PIERPONT","Address":"1491 Vista Del Mar Dr","City":"Ventura","State":"CA","Zip":"93001"},{"Location":"PIERPONT RACQUET CLUB","Address":"500 San Jon Rd","City":"Ventura","State":"CA","Zip":"93001"},{"Location":"PLT MANAGEMENT","Address":"2055 E Main St","City":"Ventura","State":"CA","Zip":"93001"},{"Location":"PRIME STEAKHOUSE","Address":"2009 E Thompson Blvd","City":"Ventura","State":"CA","Zip":"93001"},{"Location":"RICE BY MAMA INC","Address":"419 E Main St A","City":"Ventura","State":"CA","Zip":"93001"},{"Location":"ROOKEES SPORTS BAR LOUNGE & GR","Address":"419 E Main St","City":"Ventura","State":"CA","Zip":"93001"},{"Location":"SAM BOOK","Address":"632 E Main St","City":"Ventura","State":"CA","Zip":"93001"},{"Location":"SANTA CRUZ MARKET","Address":"1947 E Main St","City":"Ventura","State":"CA","Zip":"93001"},{"Location":"SEAWARD SURF AND SPORT","Address":"1082 S Seaward Ave","City":"Ventura","State":"CA","Zip":"93001"},{"Location":"SNAPPER JACKS TACO SHACK","Address":"533 E Main St","City":"Ventura","State":"CA","Zip":"93001"},{"Location":"SOCIAL TAP VENTURA","Address":"1105 S Seaward Ave","City":"Ventura","State":"CA","Zip":"93001"},{"Location":"SPENCER MAKENZIES FISH","Address":"806 E Thompson Blvd","City":"Ventura","State":"CA","Zip":"93001"},{"Location":"STAR LOUNGE","Address":"343 E Main St","City":"Ventura","State":"CA","Zip":"93001"},{"Location":"SUN COAST REAL ESTATE DOWNTOWN","Address":"31 S California St","City":"Ventura","State":"CA","Zip":"93001"},{"Location":"SUSHI MARINA","Address":"120 S California St","City":"Ventura","State":"CA","Zip":"93001"},{"Location":"SUSHI MARU INC","Address":"1575 Spinnaker Dr 103","City":"Ventura","State":"CA","Zip":"93001"},{"Location":"TAQUERIA LA TAPATIA","Address":"1700 E Thompson Blvd","City":"Ventura","State":"CA","Zip":"93001"},{"Location":"TAQUERIA TEPATITLAN","Address":"362 N Ventura Ave","City":"Ventura","State":"CA","Zip":"93001"},{"Location":"TGH ENTERPRISES","Address":"78 N Ash St","City":"Ventura","State":"CA","Zip":"93001"},{"Location":"THE BENCH WARMER","Address":"1855 E Main St","City":"Ventura","State":"CA","Zip":"93001"},{"Location":"THE PARLOR","Address":"1583 Spinnaker Dr 104","City":"Ventura","State":"CA","Zip":"93001"},{"Location":"THE SALOON BBQ COMPANY","Address":"456 E Main St","City":"Ventura","State":"CA","Zip":"93001"},{"Location":"THOMPSON SMOG TEST ONLY","Address":"2222 E Thompson Blvd","City":"Ventura","State":"CA","Zip":"93001"},{"Location":"TIPPS THAI","Address":"512 E Main St","City":"Ventura","State":"CA","Zip":"93001"},{"Location":"TIPPS THAI CUISINE","Address":"512 E Main Street","City":"Ventura","State":"CA","Zip":"93001"},{"Location":"US FORCE SERVICE","Address":"3333 Casitas Pass Rd","City":"Ventura","State":"CA","Zip":"93001"},{"Location":"VAPOR CONNOISEUR","Address":"2020 E Main St","City":"Ventura","State":"CA","Zip":"93001"},{"Location":"VENTURA LODGE 201 IOOF","Address":"516 E Main St","City":"Ventura","State":"CA","Zip":"93001"},{"Location":"WATERMARK RESTAURANT","Address":"598 E Main St","City":"Ventura","State":"CA","Zip":"93001"},{"Location":"YOLIES FRESH MEXICAN GRILL","Address":"138 West Main Street","City":"Ventura","State":"CA","Zip":"93001"},{"Location":"YOLIES MEXICAN GRILL","Address":"26 S Garden St","City":"Ventura","State":"CA","Zip":"93001"}]