[{"Location":"A PLUS SERVICE COMPANY","Address":"250 E Telegraph Rd 18","City":"Fillmore","State":"CA","Zip":"93015"},{"Location":"ABC RHUBARB FARM INC","Address":"770 E Telegraph Rd","City":"Fillmore","State":"CA","Zip":"93015"},{"Location":"AMECI PIZZA","Address":"151 W Ventura St","City":"Fillmore","State":"CA","Zip":"93015"},{"Location":"BODY IMAGE","Address":"455 A St","City":"Fillmore","State":"CA","Zip":"93015"},{"Location":"CENTER FOR FAMILY HEALTH FILLM","Address":"852 W Ventura St","City":"Fillmore","State":"CA","Zip":"93015"},{"Location":"CENTRAL STATION INC","Address":"345 Central Ave","City":"Fillmore","State":"CA","Zip":"93015"},{"Location":"EL PESCADOR","Address":"1305 W Ventura St","City":"Fillmore","State":"CA","Zip":"93015"},{"Location":"ELDORADO MOBILE ESTATES","Address":"250 E Telegraph Rd","City":"Fillmore","State":"CA","Zip":"93015"},{"Location":"ELKINS RANCH GOLF COURSE","Address":"1386 Chambersburg Rd","City":"Fillmore","State":"CA","Zip":"93015"},{"Location":"FANCY NAILS","Address":"644 W Ventura St","City":"Fillmore","State":"CA","Zip":"93015"},{"Location":"FILLMORE  RENTALS","Address":"955 W Ventura St","City":"Fillmore","State":"CA","Zip":"93015"},{"Location":"FILLMORE GAZETTE","Address":"408 Orchard St","City":"Fillmore","State":"CA","Zip":"93015"},{"Location":"MARGARETS COCINA DRIVE-IN","Address":"446 W Ventura St","City":"Fillmore","State":"CA","Zip":"93015"},{"Location":"PHILLMORE COIN LAUNDRY","Address":"648 W Ventura St","City":"Fillmore","State":"CA","Zip":"93015"},{"Location":"STATE FARM INSURANCE","Address":"502 Central Ave","City":"Fillmore","State":"CA","Zip":"93015"},{"Location":"SUPER A FOODS 12","Address":"725 Ventura St","City":"Fillmore","State":"CA","Zip":"93015"},{"Location":"THOMPSON OIL COMPANY INC","Address":"1700 Grimes Canyon Rd","City":"Fillmore","State":"CA","Zip":"93015"},{"Location":"VALLEY CREST TREE COMPANY","Address":"3200 W Telegraph Rd","City":"Fillmore","State":"CA","Zip":"93015"},{"Location":"WML MORRIS CHEVROLET","Address":"1024 W Ventura St","City":"Fillmore","State":"CA","Zip":"93015"},{"Location":"YANNIS BEST","Address":"736 W Ventura St","City":"Fillmore","State":"CA","Zip":"93015"},{"Location":"A PLUS SERVICE COMPANY","Address":"250 E Telegraph Rd 18","City":"Fillmore","State":"CA","Zip":"93015"},{"Location":"ABC RHUBARB FARM INC","Address":"770 E Telegraph Rd","City":"Fillmore","State":"CA","Zip":"93015"},{"Location":"AMECI PIZZA","Address":"151 W Ventura St","City":"Fillmore","State":"CA","Zip":"93015"},{"Location":"BODY IMAGE","Address":"455 A St","City":"Fillmore","State":"CA","Zip":"93015"},{"Location":"CENTER FOR FAMILY HEALTH FILLM","Address":"852 W Ventura St","City":"Fillmore","State":"CA","Zip":"93015"},{"Location":"CENTRAL STATION INC","Address":"345 Central Ave","City":"Fillmore","State":"CA","Zip":"93015"},{"Location":"EL PESCADOR","Address":"1305 W Ventura St","City":"Fillmore","State":"CA","Zip":"93015"},{"Location":"ELDORADO MOBILE ESTATES","Address":"250 E Telegraph Rd","City":"Fillmore","State":"CA","Zip":"93015"},{"Location":"ELKINS RANCH GOLF COURSE","Address":"1386 Chambersburg Rd","City":"Fillmore","State":"CA","Zip":"93015"},{"Location":"FANCY NAILS","Address":"644 W Ventura St","City":"Fillmore","State":"CA","Zip":"93015"},{"Location":"FILLMORE  RENTALS","Address":"955 W Ventura St","City":"Fillmore","State":"CA","Zip":"93015"},{"Location":"FILLMORE GAZETTE","Address":"408 Orchard St","City":"Fillmore","State":"CA","Zip":"93015"},{"Location":"MARGARETS COCINA DRIVE-IN","Address":"446 W Ventura St","City":"Fillmore","State":"CA","Zip":"93015"},{"Location":"PHILLMORE COIN LAUNDRY","Address":"648 W Ventura St","City":"Fillmore","State":"CA","Zip":"93015"},{"Location":"STATE FARM INSURANCE","Address":"502 Central Ave","City":"Fillmore","State":"CA","Zip":"93015"},{"Location":"SUPER A FOODS 12","Address":"725 Ventura St","City":"Fillmore","State":"CA","Zip":"93015"},{"Location":"THOMPSON OIL COMPANY INC","Address":"1700 Grimes Canyon Rd","City":"Fillmore","State":"CA","Zip":"93015"},{"Location":"VALLEY CREST TREE COMPANY","Address":"3200 W Telegraph Rd","City":"Fillmore","State":"CA","Zip":"93015"},{"Location":"WML MORRIS CHEVROLET","Address":"1024 W Ventura St","City":"Fillmore","State":"CA","Zip":"93015"},{"Location":"YANNIS BEST","Address":"736 W Ventura St","City":"Fillmore","State":"CA","Zip":"93015"}]