[{"Location":"24 HOUR FITNESS #98","Address":"453 Carmen Dr","City":"Camarillo","State":"CA","Zip":"93010"},{"Location":"AIR 7 LLC","Address":"575 Aviation Dr","City":"Camarillo","State":"CA","Zip":"93010"},{"Location":"ANACAPA PROPERTY MANGEMENT","Address":"1312 Del Norte Rd","City":"Camarillo","State":"CA","Zip":"93010"},{"Location":"ANIMAL REGULATION","Address":"600 Aviation Dr","City":"Camarillo","State":"CA","Zip":"93010"},{"Location":"APPLEBEE'S #2150040","Address":"291 W Ventura Blvd","City":"Camarillo","State":"CA","Zip":"93010"},{"Location":"ARATA SUSHI INC","Address":"2001 Ventura Blvd","City":"Camarillo","State":"CA","Zip":"93010"},{"Location":"BANDITS GRILL &BAR","Address":"1980 Ventura Blvd","City":"Camarillo","State":"CA","Zip":"93010"},{"Location":"BEST IN SHOW REALTY","Address":"72 Daily Dr","City":"Camarillo","State":"CA","Zip":"93010"},{"Location":"BONE DEEP TATTOO","Address":"2545 Ventura Blvd","City":"Camarillo","State":"CA","Zip":"93010"},{"Location":"BP INNOVATIONS","Address":"760 Las Posas Rd B4","City":"Camarillo","State":"CA","Zip":"93010"},{"Location":"BRENDANS CAMARILLO","Address":"1755 E Daily Dr","City":"Camarillo","State":"CA","Zip":"93010"},{"Location":"CAMARILLO COIN LAUNDRY","Address":"383 Carmen Dr","City":"Camarillo","State":"CA","Zip":"93010"},{"Location":"CAMARILLO LODGE #2047","Address":"341 Arneill Rd A","City":"Camarillo","State":"CA","Zip":"93010"},{"Location":"CAMARILLO POLICE DEPARTMENT","Address":"3701 Las Posas Rd","City":"Camarillo","State":"CA","Zip":"93010"},{"Location":"CASAMBA INC","Address":"50 Durley Ave B","City":"Camarillo","State":"CA","Zip":"93010"},{"Location":"CBRE%2C INC.","Address":"771 E Daily Dr 300","City":"Camarillo","State":"CA","Zip":"93010"},{"Location":"CENTER FOR FAMILY HEALTH","Address":"422 Arneill Rd B","City":"Camarillo","State":"CA","Zip":"93010"},{"Location":"CHILI PEPPERS","Address":"601 Mobil Ave Jk","City":"Camarillo","State":"CA","Zip":"93010"},{"Location":"CHILLI PEPPERS","Address":"4421 Las Posas Rd","City":"Camarillo","State":"CA","Zip":"93010"},{"Location":"CHUY'S","Address":"311 Carmen Dr","City":"Camarillo","State":"CA","Zip":"93010"},{"Location":"CITY OF CAMARILLO","Address":"283 S Glenn Dr","City":"Camarillo","State":"CA","Zip":"93010"},{"Location":"CK NAILS AND SPA","Address":"330 N Lantana St 29","City":"Camarillo","State":"CA","Zip":"93010"},{"Location":"CLUBHOUSE SPORTS BAR","Address":"369 Arneill Rd","City":"Camarillo","State":"CA","Zip":"93010"},{"Location":"CRONIES SPORTS GRILL","Address":"370 N Lantana St 20","City":"Camarillo","State":"CA","Zip":"93010"},{"Location":"DAVITA #5531 CAMARILLO","Address":"2438 N Ponderosa Dr 101","City":"Camarillo","State":"CA","Zip":"93010"},{"Location":"DHS-ICE","Address":"770 Paseo Camarillo","City":"Camarillo","State":"CA","Zip":"93010"},{"Location":"DR MICHAEL GLAZER","Address":"1200 Paseo Camarillo 245","City":"Camarillo","State":"CA","Zip":"93010"},{"Location":"EL REY CANTINA","Address":"2302 Ventura Blvd","City":"Camarillo","State":"CA","Zip":"93010"},{"Location":"FIRESTONE #011150","Address":"261 Arneill Rd","City":"Camarillo","State":"CA","Zip":"93010"},{"Location":"FMC 14230000","Address":"3801 Las Posas Rd","City":"Camarillo","State":"CA","Zip":"93010"},{"Location":"FRESH CONCEPTS LLC","Address":"325 Durley Ave","City":"Camarillo","State":"CA","Zip":"93010"},{"Location":"G&M OIL COMPANY","Address":"100 S Las Posas Rd","City":"Camarillo","State":"CA","Zip":"93010"},{"Location":"HAMPTON INN & SUITES (54371)","Address":"50 W Daily Dr","City":"Camarillo","State":"CA","Zip":"93010"},{"Location":"HUESTON ENTERPRISES INC1","Address":"601 Mobil Ave F","City":"Camarillo","State":"CA","Zip":"93010"},{"Location":"JACK IN THE BOX","Address":"4901 Verough Way","City":"Camarillo","State":"CA","Zip":"93010"},{"Location":"JERSEY MIKE'S SUBS","Address":"370 N Lantana St H16","City":"Camarillo","State":"CA","Zip":"93010"},{"Location":"JESSICA'S CAFE","Address":"596 Mobil Ave A&b","City":"Camarillo","State":"CA","Zip":"93010"},{"Location":"JIFFY LUBE 3264","Address":"55 W Daily Dr","City":"Camarillo","State":"CA","Zip":"93010"},{"Location":"LAMPLIGHTER SPORTS BAR","Address":"1936 Ventura Blvd","City":"Camarillo","State":"CA","Zip":"93010"},{"Location":"LEIGH A MULLER CPA","Address":"340 Rosewood Ave L","City":"Camarillo","State":"CA","Zip":"93010"},{"Location":"LURE FISH HOUSE","Address":"259 W Ventura Blvd","City":"Camarillo","State":"CA","Zip":"93010"},{"Location":"MASA SUSHI","Address":"63 E Daily Dr","City":"Camarillo","State":"CA","Zip":"93010"},{"Location":"ME N ED'S PIZZERIA","Address":"2390 Las Posadas Rd J","City":"Camarillo","State":"CA","Zip":"93010"},{"Location":"MICHAEL CZUBIAK DDS","Address":"92 Palm Dr","City":"Camarillo","State":"CA","Zip":"93010"},{"Location":"MINI OF CAMARILLO","Address":"311 E Daily Dr","City":"Camarillo","State":"CA","Zip":"93010"},{"Location":"MONGOLIAN BAR B Q","Address":"2123 Ventura Blvd","City":"Camarillo","State":"CA","Zip":"93010"},{"Location":"MOUNTAIN VIEW TIRE","Address":"57 W Daily Dr","City":"Camarillo","State":"CA","Zip":"93010"},{"Location":"NAIL PERFECTION SPA","Address":"556 Las Posas Rd","City":"Camarillo","State":"CA","Zip":"93010"},{"Location":"NEIMAN MARCUS 2212","Address":"600 Ventura Blvd","City":"Camarillo","State":"CA","Zip":"93010"},{"Location":"NIKE INC","Address":"990 Camarillo Center Dr 1030","City":"Camarillo","State":"CA","Zip":"93010"},{"Location":"OXNARD COLLEGE","Address":"104 Durley Ave","City":"Camarillo","State":"CA","Zip":"93010"},{"Location":"PALM DENTAL CARE","Address":"2177 Ventura Blvd","City":"Camarillo","State":"CA","Zip":"93010"},{"Location":"PONDEROSA VILLAGE APARTM","Address":"2105 E Ponderosa Dr","City":"Camarillo","State":"CA","Zip":"93010"},{"Location":"RIC'S RESTAURANT","Address":"2500 Las Posas Rd A","City":"Camarillo","State":"CA","Zip":"93010"},{"Location":"RICHARD RICHARDS","Address":"266 Mobil Ave 103","City":"Camarillo","State":"CA","Zip":"93010"},{"Location":"ROUND TABLE PIZZA-ARNEILL","Address":"880 Arneill Rd","City":"Camarillo","State":"CA","Zip":"93010"},{"Location":"RUSS MERRICK & ASSOC.","Address":"340 Rosewood Ave H","City":"Camarillo","State":"CA","Zip":"93010"},{"Location":"SHARKYS CAMARILLO","Address":"191 W Ventura Blvd","City":"Camarillo","State":"CA","Zip":"93010"},{"Location":"SHCC  LLC","Address":"999 Crestview Ave","City":"Camarillo","State":"CA","Zip":"93010"},{"Location":"SHEAR PLATINUM STYLEZ","Address":"75 S Glenn Dr","City":"Camarillo","State":"CA","Zip":"93010"},{"Location":"SILVERSCREEN AVIATION","Address":"555 Airport Way C2","City":"Camarillo","State":"CA","Zip":"93010"},{"Location":"SPANISH HILLS DENTISTRY","Address":"70 Daily Dr","City":"Camarillo","State":"CA","Zip":"93010"},{"Location":"SPORT CLIPS CA752","Address":"391 Carmen Dr","City":"Camarillo","State":"CA","Zip":"93010"},{"Location":"SPORTSMAN RESTAURANT","Address":"4426 Central Ave","City":"Camarillo","State":"CA","Zip":"93010"},{"Location":"STERLING HILLS GOLF CLUB","Address":"901 Sterling Hills Dr","City":"Camarillo","State":"CA","Zip":"93010"},{"Location":"STIX HOLDINGS 783","Address":"660 Ventura Blvd 300","City":"Camarillo","State":"CA","Zip":"93010"},{"Location":"SUMO SUSHI","Address":"1490 E Daily Dr","City":"Camarillo","State":"CA","Zip":"93010"},{"Location":"SUSHI FRESH1","Address":"2115 Pickwick Dr","City":"Camarillo","State":"CA","Zip":"93010"},{"Location":"TAKE FIVE","Address":"2244 Pickwick Dr","City":"Camarillo","State":"CA","Zip":"93010"},{"Location":"TEXAS CATTLE CO","Address":"710 Arneill Rd","City":"Camarillo","State":"CA","Zip":"93010"},{"Location":"THE LIQUOR STORE","Address":"2277 Las Posas Rd","City":"Camarillo","State":"CA","Zip":"93010"},{"Location":"THE TEMCO GROUP","Address":"295 Willis Ave C","City":"Camarillo","State":"CA","Zip":"93010"},{"Location":"THRIVENT FINANCIAL","Address":"771 E Daily Dr 310","City":"Camarillo","State":"CA","Zip":"93010"},{"Location":"TOPPERS PIZZA PLACE","Address":"520 Arneill Rd","City":"Camarillo","State":"CA","Zip":"93010"},{"Location":"US NAIL SPA","Address":"1877 E Daily Dr C2","City":"Camarillo","State":"CA","Zip":"93010"},{"Location":"USA AG SUPPLIES INC","Address":"4110 E Ventura Blvd","City":"Camarillo","State":"CA","Zip":"93010"},{"Location":"VENTURA COUNTY FD 54","Address":"2160 Pickwick Dr","City":"Camarillo","State":"CA","Zip":"93010"},{"Location":"VENTURA COUNTY FIRE DEPARTMENT","Address":"189 S Las Posas Rd","City":"Camarillo","State":"CA","Zip":"93010"},{"Location":"VENTURA COUNTY FIRE DEPT","Address":"102 Durley Ave","City":"Camarillo","State":"CA","Zip":"93010"},{"Location":"VENTURA COUNTY FIRE DEPT","Address":"160 Durley Ave","City":"Camarillo","State":"CA","Zip":"93010"},{"Location":"VENTURA COUNTY FIRE DEPT.","Address":"165 Durley Ave","City":"Camarillo","State":"CA","Zip":"93010"},{"Location":"VENTURA COUNTY PROBATION","Address":"500 Eubanks St","City":"Camarillo","State":"CA","Zip":"93010"},{"Location":"VENTURA COUNTY STAR","Address":"550 Camarillo Center Dr","City":"Camarillo","State":"CA","Zip":"93010"},{"Location":"VENTURA Y. CORRECTIONAL","Address":"3100 Wright Rd","City":"Camarillo","State":"CA","Zip":"93010"},{"Location":"VENTURA Y. CORRECTIONAL","Address":"3100 Wright Rd Em","City":"Camarillo","State":"CA","Zip":"93010"},{"Location":"VENTURA Y. CORRECTIONAL","Address":"3100 Wright Rd Alb","City":"Camarillo","State":"CA","Zip":"93010"},{"Location":"VENTURA Y. CORRECTIONAL","Address":"3100 Wright Rd Ml","City":"Camarillo","State":"CA","Zip":"93010"},{"Location":"VENTURA Y. CORRECTIONAL","Address":"3100 Wright Rd Mc","City":"Camarillo","State":"CA","Zip":"93010"},{"Location":"VENTURA Y. CORRECTIONAL","Address":"3100 Wright Rd Clc","City":"Camarillo","State":"CA","Zip":"93010"},{"Location":"VENTURA Y. CORRECTIONAL","Address":"3100 Wright Rd Bv","City":"Camarillo","State":"CA","Zip":"93010"},{"Location":"VENTURA Y. CORRECTIONAL","Address":"3100 Wright Rd Mv","City":"Camarillo","State":"CA","Zip":"93010"},{"Location":"VENTURA YOUTH CORRECTIONAL","Address":"3100 Wright Rd","City":"Camarillo","State":"CA","Zip":"93010"},{"Location":"VENTURE CONSERVATION COMPANY","Address":"2800 Wright Rd","City":"Camarillo","State":"CA","Zip":"93010"},{"Location":"WEDGEWOOD STERLING HILLS","Address":"901 Sterling Hills Dr","City":"Camarillo","State":"CA","Zip":"93010"},{"Location":"WESTERN ONION SALES","Address":"295 Willis Ave D","City":"Camarillo","State":"CA","Zip":"93010"},{"Location":"WOOD RANCH CAMARILLO LLC","Address":"1101 E Daily Dr","City":"Camarillo","State":"CA","Zip":"93010"},{"Location":"YOLANDAS OF CAMARILLO","Address":"86 E Daily Dr","City":"Camarillo","State":"CA","Zip":"93010"},{"Location":"24 HOUR FITNESS #98","Address":"453 Carmen Dr","City":"Camarillo","State":"CA","Zip":"93010"},{"Location":"AIR 7 LLC","Address":"575 Aviation Dr","City":"Camarillo","State":"CA","Zip":"93010"},{"Location":"ANACAPA PROPERTY MANGEMENT","Address":"1312 Del Norte Rd","City":"Camarillo","State":"CA","Zip":"93010"},{"Location":"ANIMAL REGULATION","Address":"600 Aviation Dr","City":"Camarillo","State":"CA","Zip":"93010"},{"Location":"APPLEBEE'S #2150040","Address":"291 W Ventura Blvd","City":"Camarillo","State":"CA","Zip":"93010"},{"Location":"ARATA SUSHI INC","Address":"2001 Ventura Blvd","City":"Camarillo","State":"CA","Zip":"93010"},{"Location":"BEST IN SHOW REALTY","Address":"72 Daily Dr","City":"Camarillo","State":"CA","Zip":"93010"},{"Location":"BONE DEEP TATTOO","Address":"2545 Ventura Blvd","City":"Camarillo","State":"CA","Zip":"93010"},{"Location":"BP INNOVATIONS","Address":"760 Las Posas Rd B4","City":"Camarillo","State":"CA","Zip":"93010"},{"Location":"BRENDANS CAMARILLO","Address":"1755 E Daily Dr","City":"Camarillo","State":"CA","Zip":"93010"},{"Location":"CAMARILLO COIN LAUNDRY","Address":"383 Carmen Dr","City":"Camarillo","State":"CA","Zip":"93010"},{"Location":"CAMARILLO LODGE #2047","Address":"341 Arneill Rd A","City":"Camarillo","State":"CA","Zip":"93010"},{"Location":"CAMARILLO POLICE DEPARTMENT","Address":"3701 Las Posas Rd","City":"Camarillo","State":"CA","Zip":"93010"},{"Location":"CASAMBA INC","Address":"50 Durley Ave B","City":"Camarillo","State":"CA","Zip":"93010"},{"Location":"CBRE%2C INC.","Address":"771 E Daily Dr 300","City":"Camarillo","State":"CA","Zip":"93010"},{"Location":"CENTER FOR FAMILY HEALTH","Address":"422 Arneill Rd B","City":"Camarillo","State":"CA","Zip":"93010"},{"Location":"CHILI PEPPERS","Address":"601 Mobil Ave Jk","City":"Camarillo","State":"CA","Zip":"93010"},{"Location":"CHILLI PEPPERS","Address":"4421 Las Posas Rd","City":"Camarillo","State":"CA","Zip":"93010"},{"Location":"CHUY'S","Address":"311 Carmen Dr","City":"Camarillo","State":"CA","Zip":"93010"},{"Location":"CITY OF CAMARILLO","Address":"283 S Glenn Dr","City":"Camarillo","State":"CA","Zip":"93010"},{"Location":"CK NAILS AND SPA","Address":"330 N Lantana St 29","City":"Camarillo","State":"CA","Zip":"93010"},{"Location":"CLUBHOUSE SPORTS BAR","Address":"369 Arneill Rd","City":"Camarillo","State":"CA","Zip":"93010"},{"Location":"CRONIES SPORTS GRILL","Address":"370 N Lantana St 20","City":"Camarillo","State":"CA","Zip":"93010"},{"Location":"DAVITA #5531 CAMARILLO","Address":"2438 N Ponderosa Dr 101","City":"Camarillo","State":"CA","Zip":"93010"},{"Location":"DHS-ICE","Address":"770 Paseo Camarillo","City":"Camarillo","State":"CA","Zip":"93010"},{"Location":"DR MICHAEL GLAZER","Address":"1200 Paseo Camarillo 245","City":"Camarillo","State":"CA","Zip":"93010"},{"Location":"EL REY CANTINA","Address":"2302 Ventura Blvd","City":"Camarillo","State":"CA","Zip":"93010"},{"Location":"FIRESTONE #011150","Address":"261 Arneill Rd","City":"Camarillo","State":"CA","Zip":"93010"},{"Location":"FMC 14230000","Address":"3801 Las Posas Rd","City":"Camarillo","State":"CA","Zip":"93010"},{"Location":"FRESH CONCEPTS LLC","Address":"325 Durley Ave","City":"Camarillo","State":"CA","Zip":"93010"},{"Location":"G&M OIL COMPANY","Address":"100 S Las Posas Rd","City":"Camarillo","State":"CA","Zip":"93010"},{"Location":"HAMPTON INN & SUITES (54371)","Address":"50 W Daily Dr","City":"Camarillo","State":"CA","Zip":"93010"},{"Location":"HUESTON ENTERPRISES INC1","Address":"601 Mobil Ave F","City":"Camarillo","State":"CA","Zip":"93010"},{"Location":"JACK IN THE BOX","Address":"4901 Verough Way","City":"Camarillo","State":"CA","Zip":"93010"},{"Location":"JERSEY MIKE'S SUBS","Address":"370 N Lantana St H16","City":"Camarillo","State":"CA","Zip":"93010"},{"Location":"JESSICA'S CAFE","Address":"596 Mobil Ave A&b","City":"Camarillo","State":"CA","Zip":"93010"},{"Location":"JIFFY LUBE 3264","Address":"55 W Daily Dr","City":"Camarillo","State":"CA","Zip":"93010"},{"Location":"LAMPLIGHTER SPORTS BAR","Address":"1936 Ventura Blvd","City":"Camarillo","State":"CA","Zip":"93010"},{"Location":"LEIGH A MULLER CPA","Address":"340 Rosewood Ave L","City":"Camarillo","State":"CA","Zip":"93010"},{"Location":"LURE FISH HOUSE","Address":"259 W Ventura Blvd","City":"Camarillo","State":"CA","Zip":"93010"},{"Location":"MASA SUSHI","Address":"63 E Daily Dr","City":"Camarillo","State":"CA","Zip":"93010"},{"Location":"ME N ED'S PIZZERIA","Address":"2390 Las Posadas Rd J","City":"Camarillo","State":"CA","Zip":"93010"},{"Location":"MICHAEL CZUBIAK DDS","Address":"92 Palm Dr","City":"Camarillo","State":"CA","Zip":"93010"},{"Location":"MINI OF CAMARILLO","Address":"311 E Daily Dr","City":"Camarillo","State":"CA","Zip":"93010"},{"Location":"MONGOLIAN BAR B Q","Address":"2123 Ventura Blvd","City":"Camarillo","State":"CA","Zip":"93010"},{"Location":"MOUNTAIN VIEW TIRE","Address":"57 W Daily Dr","City":"Camarillo","State":"CA","Zip":"93010"},{"Location":"NAIL PERFECTION SPA","Address":"556 Las Posas Rd","City":"Camarillo","State":"CA","Zip":"93010"},{"Location":"NEIMAN MARCUS 2212","Address":"600 Ventura Blvd","City":"Camarillo","State":"CA","Zip":"93010"},{"Location":"NIKE INC","Address":"990 Camarillo Center Dr 1030","City":"Camarillo","State":"CA","Zip":"93010"},{"Location":"OXNARD COLLEGE","Address":"104 Durley Ave","City":"Camarillo","State":"CA","Zip":"93010"},{"Location":"PALM DENTAL CARE","Address":"2177 Ventura Blvd","City":"Camarillo","State":"CA","Zip":"93010"},{"Location":"PONDEROSA VILLAGE APARTM","Address":"2105 E Ponderosa Dr","City":"Camarillo","State":"CA","Zip":"93010"},{"Location":"RIC'S RESTAURANT","Address":"2500 Las Posas Rd A","City":"Camarillo","State":"CA","Zip":"93010"},{"Location":"RICHARD RICHARDS","Address":"266 Mobil Ave 103","City":"Camarillo","State":"CA","Zip":"93010"},{"Location":"ROUND TABLE PIZZA-ARNEILL","Address":"880 Arneill Rd","City":"Camarillo","State":"CA","Zip":"93010"},{"Location":"RUSS MERRICK & ASSOC.","Address":"340 Rosewood Ave H","City":"Camarillo","State":"CA","Zip":"93010"},{"Location":"SHARKYS CAMARILLO","Address":"191 W Ventura Blvd","City":"Camarillo","State":"CA","Zip":"93010"},{"Location":"SHCC  LLC","Address":"999 Crestview Ave","City":"Camarillo","State":"CA","Zip":"93010"},{"Location":"SHEAR PLATINUM STYLEZ","Address":"75 S Glenn Dr","City":"Camarillo","State":"CA","Zip":"93010"},{"Location":"SILVERSCREEN AVIATION","Address":"555 Airport Way C2","City":"Camarillo","State":"CA","Zip":"93010"},{"Location":"SPANISH HILLS DENTISTRY","Address":"70 Daily Dr","City":"Camarillo","State":"CA","Zip":"93010"},{"Location":"SPORT CLIPS CA752","Address":"391 Carmen Dr","City":"Camarillo","State":"CA","Zip":"93010"},{"Location":"SPORTSMAN RESTAURANT","Address":"4426 Central Ave","City":"Camarillo","State":"CA","Zip":"93010"},{"Location":"STERLING HILLS GOLF CLUB","Address":"901 Sterling Hills Dr","City":"Camarillo","State":"CA","Zip":"93010"},{"Location":"STIX HOLDINGS 783","Address":"660 Ventura Blvd 300","City":"Camarillo","State":"CA","Zip":"93010"},{"Location":"SUMO SUSHI","Address":"1490 E Daily Dr","City":"Camarillo","State":"CA","Zip":"93010"},{"Location":"SUSHI FRESH1","Address":"2115 Pickwick Dr","City":"Camarillo","State":"CA","Zip":"93010"},{"Location":"TAKE FIVE","Address":"2244 Pickwick Dr","City":"Camarillo","State":"CA","Zip":"93010"},{"Location":"TEXAS CATTLE CO","Address":"710 Arneill Rd","City":"Camarillo","State":"CA","Zip":"93010"},{"Location":"THE LIQUOR STORE","Address":"2277 Las Posas Rd","City":"Camarillo","State":"CA","Zip":"93010"},{"Location":"THE TEMCO GROUP","Address":"295 Willis Ave C","City":"Camarillo","State":"CA","Zip":"93010"},{"Location":"THRIVENT FINANCIAL","Address":"771 E Daily Dr 310","City":"Camarillo","State":"CA","Zip":"93010"},{"Location":"TOPPERS PIZZA PLACE","Address":"520 Arneill Rd","City":"Camarillo","State":"CA","Zip":"93010"},{"Location":"US NAIL SPA","Address":"1877 E Daily Dr C2","City":"Camarillo","State":"CA","Zip":"93010"},{"Location":"USA AG SUPPLIES INC","Address":"4110 E Ventura Blvd","City":"Camarillo","State":"CA","Zip":"93010"},{"Location":"VENTURA COUNTY FD 54","Address":"2160 Pickwick Dr","City":"Camarillo","State":"CA","Zip":"93010"},{"Location":"VENTURA COUNTY FIRE DEPARTMENT","Address":"189 S Las Posas Rd","City":"Camarillo","State":"CA","Zip":"93010"},{"Location":"VENTURA COUNTY FIRE DEPT","Address":"102 Durley Ave","City":"Camarillo","State":"CA","Zip":"93010"},{"Location":"VENTURA COUNTY FIRE DEPT","Address":"160 Durley Ave","City":"Camarillo","State":"CA","Zip":"93010"},{"Location":"VENTURA COUNTY FIRE DEPT.","Address":"165 Durley Ave","City":"Camarillo","State":"CA","Zip":"93010"},{"Location":"VENTURA COUNTY PROBATION","Address":"500 Eubanks St","City":"Camarillo","State":"CA","Zip":"93010"},{"Location":"VENTURA COUNTY STAR","Address":"550 Camarillo Center Dr","City":"Camarillo","State":"CA","Zip":"93010"},{"Location":"VENTURA Y. CORRECTIONAL","Address":"3100 Wright Rd Bv","City":"Camarillo","State":"CA","Zip":"93010"},{"Location":"VENTURA Y. CORRECTIONAL","Address":"3100 Wright Rd Ml","City":"Camarillo","State":"CA","Zip":"93010"},{"Location":"VENTURA Y. CORRECTIONAL","Address":"3100 Wright Rd Em","City":"Camarillo","State":"CA","Zip":"93010"},{"Location":"VENTURA Y. CORRECTIONAL","Address":"3100 Wright Rd Alb","City":"Camarillo","State":"CA","Zip":"93010"},{"Location":"VENTURA Y. CORRECTIONAL","Address":"3100 Wright Rd Mv","City":"Camarillo","State":"CA","Zip":"93010"},{"Location":"VENTURA Y. CORRECTIONAL","Address":"3100 Wright Rd Mc","City":"Camarillo","State":"CA","Zip":"93010"},{"Location":"VENTURA Y. CORRECTIONAL","Address":"3100 Wright Rd Clc","City":"Camarillo","State":"CA","Zip":"93010"},{"Location":"VENTURA Y. CORRECTIONAL","Address":"3100 Wright Rd","City":"Camarillo","State":"CA","Zip":"93010"},{"Location":"VENTURA YOUTH CORRECTIONAL","Address":"3100 Wright Rd","City":"Camarillo","State":"CA","Zip":"93010"},{"Location":"VENTURE CONSERVATION COMPANY","Address":"2800 Wright Rd","City":"Camarillo","State":"CA","Zip":"93010"},{"Location":"VERTICT RESOURCES","Address":"396 West Ventura Bld","City":"Camarillo","State":"CA","Zip":"93010"},{"Location":"WEDGEWOOD STERLING HILLS","Address":"901 Sterling Hills Dr","City":"Camarillo","State":"CA","Zip":"93010"},{"Location":"WESTERN ONION SALES","Address":"295 Willis Ave D","City":"Camarillo","State":"CA","Zip":"93010"},{"Location":"WOOD RANCH CAMARILLO LLC","Address":"1101 E Daily Dr","City":"Camarillo","State":"CA","Zip":"93010"},{"Location":"YOLANDAS OF CAMARILLO","Address":"86 E Daily Dr","City":"Camarillo","State":"CA","Zip":"93010"}]