[{"Location":"ARMAND HAMMER FOUNDATION","Address":"3501 Via Real","City":"Carpinteria","State":"CA","Zip":"93013"},{"Location":"BEACH BOWL","Address":"901 Linden Ave","City":"Carpinteria","State":"CA","Zip":"93013"},{"Location":"CARL KARCHER ENTERPRISES INC","Address":"6307 Carpinteria Ave A","City":"Carpinteria","State":"CA","Zip":"93013"},{"Location":"CARPINTERIA AND LINDEN P","Address":"4954 Carpinteria Ave","City":"Carpinteria","State":"CA","Zip":"93013"},{"Location":"CHANNEL ISLAND SURF BOARDS","Address":"1160 Mark Ave","City":"Carpinteria","State":"CA","Zip":"93013"},{"Location":"CLEAN SEAS","Address":"5751a Carpinteria Ave","City":"Carpinteria","State":"CA","Zip":"93013"},{"Location":"FOSTERS FREEZE DRIVE IN","Address":"5205 Carpinteria Ave","City":"Carpinteria","State":"CA","Zip":"93013"},{"Location":"GALLUP AND STRIBLING ORCHIDS","Address":"4711 Foothill Rd","City":"Carpinteria","State":"CA","Zip":"93013"},{"Location":"GALLUP AND STRIBLING ORCHIDS 1","Address":"3450 Via Real","City":"Carpinteria","State":"CA","Zip":"93013"},{"Location":"GIRLS INC OF CARPINTERIA","Address":"5315 Foothill Rd","City":"Carpinteria","State":"CA","Zip":"93013"},{"Location":"JACKS BISTRO","Address":"5050 Carpinteria Ave","City":"Carpinteria","State":"CA","Zip":"93013"},{"Location":"JAGGED VENTURES LLC","Address":"3357 Padaro Ln","City":"Carpinteria","State":"CA","Zip":"93013"},{"Location":"NUTBELLY PIZZA & DELI","Address":"915 Linden Ave","City":"Carpinteria","State":"CA","Zip":"93013"},{"Location":"PALMS RESTAURANT","Address":"701 Linden Ave 1","City":"Carpinteria","State":"CA","Zip":"93013"},{"Location":"RINCON BREWERY INC","Address":"5065 Carpinteria Ave","City":"Carpinteria","State":"CA","Zip":"93013"},{"Location":"SUSHI TERI","Address":"970 Linden Ave","City":"Carpinteria","State":"CA","Zip":"93013"},{"Location":"T TIME","Address":"5885 Carpinteria Ave","City":"Carpinteria","State":"CA","Zip":"93013"},{"Location":"THE FOOD LIAISON","Address":"1033 Casitas Pass Rd","City":"Carpinteria","State":"CA","Zip":"93013"},{"Location":"TONYS RESTAURANT","Address":"699 Linden Ave","City":"Carpinteria","State":"CA","Zip":"93013"},{"Location":"WESTLAND FLORAL CO","Address":"6030 Casitas Pass Rd","City":"Carpinteria","State":"CA","Zip":"93013"},{"Location":"WESTLAND FLORAL COMPANY2","Address":"1400 Cravens Ln","City":"Carpinteria","State":"CA","Zip":"93013"}]