[{"Location":"ADOLFO AUTO CARE INC","Address":"4035 Adolfo Rd L","City":"Camarillo","State":"CA","Zip":"93012"},{"Location":"ALIENCE UNITED INSURANCE","Address":"5300 Adolfo Rd","City":"Camarillo","State":"CA","Zip":"93012"},{"Location":"ALIMO INC","Address":"2911 Petit St","City":"Camarillo","State":"CA","Zip":"93012"},{"Location":"AMERICON","Address":"900 Flynn Rd","City":"Camarillo","State":"CA","Zip":"93012"},{"Location":"BAT-R-UP","Address":"487 Dawson Dr","City":"Camarillo","State":"CA","Zip":"93012"},{"Location":"BURGER BARN ENTERPRISES","Address":"5000 Santa Rosa Rd","City":"Camarillo","State":"CA","Zip":"93012"},{"Location":"C & R MEDICAL INC","Address":"3200 Corte Malpaso 101","City":"Camarillo","State":"CA","Zip":"93012"},{"Location":"CAL TRANS","Address":"4821 Adohr Ln","City":"Camarillo","State":"CA","Zip":"93012"},{"Location":"CALVARY NEXUS","Address":"300 S Lewis Rd M","City":"Camarillo","State":"CA","Zip":"93012"},{"Location":"CAMARILLO SPRINGS RANCH","Address":"202 Camarillo Grove Rd","City":"Camarillo","State":"CA","Zip":"93012"},{"Location":"CARDSERVICE LEADERS LLC","Address":"725 Via Alondra","City":"Camarillo","State":"CA","Zip":"93012"},{"Location":"CARRUTHERS","Address":"4700 Calle Carga","City":"Camarillo","State":"CA","Zip":"93012"},{"Location":"CASA PACIFICA","Address":"1722 S Lewis Rd","City":"Camarillo","State":"CA","Zip":"93012"},{"Location":"CASA PACIFICA 4","Address":"1728 S Lewis Rd","City":"Camarillo","State":"CA","Zip":"93012"},{"Location":"CASA PACIFICA 5","Address":"1730 S Lewis Rd","City":"Camarillo","State":"CA","Zip":"93012"},{"Location":"CASAPACIFICA REC OFFICE","Address":"1722 S Lewis Rd 2","City":"Camarillo","State":"CA","Zip":"93012"},{"Location":"CK TECHNOLOGIES INC.","Address":"3629 Vista Mercado","City":"Camarillo","State":"CA","Zip":"93012"},{"Location":"COACH PATTIES SCHOOL GYMNASTIC","Address":"300 S Lewis Rd E","City":"Camarillo","State":"CA","Zip":"93012"},{"Location":"COUNTY OF VENTURA%2FRAIN PROJECT","Address":"1732 S Lewis Rd","City":"Camarillo","State":"CA","Zip":"93012"},{"Location":"CPI MALIBU DIVISION","Address":"3760 Calle Tecate Ste-a","City":"Camarillo","State":"CA","Zip":"93012"},{"Location":"CSU CHANNEL ISLANDS","Address":"1 University Dr E150","City":"Camarillo","State":"CA","Zip":"93012"},{"Location":"DARRYL'S COUCH","Address":"795 Camarillo Springs Rd E","City":"Camarillo","State":"CA","Zip":"93012"},{"Location":"DEPARTMENT OF HOMELAND","Address":"321 Cortez Cir","City":"Camarillo","State":"CA","Zip":"93012"},{"Location":"HOUSE OF TRANSITION","Address":"1756 S Lewis Rd House","City":"Camarillo","State":"CA","Zip":"93012"},{"Location":"HOUWELINGS NURSERY","Address":"645 Laguna Rd","City":"Camarillo","State":"CA","Zip":"93012"},{"Location":"INFAB","Address":"3651 Via Pescador","City":"Camarillo","State":"CA","Zip":"93012"},{"Location":"LJM PROPERTIES","Address":"5999 Ridge View St","City":"Camarillo","State":"CA","Zip":"93012"},{"Location":"LTA MACHINING","Address":"1071 Avenida Acaso C","City":"Camarillo","State":"CA","Zip":"93012"},{"Location":"MEDICAL PACKAGING CORP","Address":"941 Avenida Caso","City":"Camarillo","State":"CA","Zip":"93012"},{"Location":"MERCURY INSURANCE","Address":"5300 Adolfo Rd 250","City":"Camarillo","State":"CA","Zip":"93012"},{"Location":"MISSION OAKS CAFE INC","Address":"5227 Mission Oaks Blvd","City":"Camarillo","State":"CA","Zip":"93012"},{"Location":"NORTH AMERICAN IMAGING","Address":"924 Via Alondra","City":"Camarillo","State":"CA","Zip":"93012"},{"Location":"ODUUSA","Address":"4010 Adolfo Rd","City":"Camarillo","State":"CA","Zip":"93012"},{"Location":"ONLINE MANAGEMENT SYSTEMS LLC","Address":"815 Camarillo Springs Rd B","City":"Camarillo","State":"CA","Zip":"93012"},{"Location":"PACIFIC CASUAL","Address":"1060 Avenida Acaso","City":"Camarillo","State":"CA","Zip":"93012"},{"Location":"POWER ONE INC","Address":"740 Calle Plano","City":"Camarillo","State":"CA","Zip":"93012"},{"Location":"PROFESSIONAL SERVICES CONSTRU","Address":"3952 Camino Ranchero","City":"Camarillo","State":"CA","Zip":"93012"},{"Location":"RECOVERY     STARSHIP","Address":"1760 S Lewis Rd","City":"Camarillo","State":"CA","Zip":"93012"},{"Location":"RETAIL CONSTRUCTION GROU","Address":"5995 Worth Way","City":"Camarillo","State":"CA","Zip":"93012"},{"Location":"SAALEX SOLUTIONS INC","Address":"811 Camarillo Springs Rd A","City":"Camarillo","State":"CA","Zip":"93012"},{"Location":"SAFELITE AUTO GLASS","Address":"3316 Maya Linda B","City":"Camarillo","State":"CA","Zip":"93012"},{"Location":"SEMTECH CORPORATION","Address":"200 Flynn Rd","City":"Camarillo","State":"CA","Zip":"93012"},{"Location":"SITAR","Address":"45 Rincon Dr 104c","City":"Camarillo","State":"CA","Zip":"93012"},{"Location":"SNAPPER JACK'S TACO SHACK","Address":"4850 Verdugo Way","City":"Camarillo","State":"CA","Zip":"93012"},{"Location":"THE MANHATTAN","Address":"5800 Santa Rosa Rd 140","City":"Camarillo","State":"CA","Zip":"93012"},{"Location":"TITAN MEDICAL","Address":"803 Camarillo Springs Rd R","City":"Camarillo","State":"CA","Zip":"93012"},{"Location":"UNIVERSITY GLEN CORP 2","Address":"71 Camarillo St","City":"Camarillo","State":"CA","Zip":"93012"},{"Location":"UNIVERSITY GLEN CORPORATION","Address":"45 Rincon Dr 101b","City":"Camarillo","State":"CA","Zip":"93012"},{"Location":"VILLA CALLEGUAS INC","Address":"1742 S Lewis Rd","City":"Camarillo","State":"CA","Zip":"93012"},{"Location":"WATER RECLAMATION PLANT","Address":"150 Howard Rd","City":"Camarillo","State":"CA","Zip":"93012"},{"Location":"WHITE CRYSTAL NAILS","Address":"795 Camarillo Springs Rd","City":"Camarillo","State":"CA","Zip":"93012"},{"Location":"YOMAMA SUSHI THOUSAND OAKS2","Address":"4900 Verdudo Way Drive  #b","City":"Camarillo","State":"CA","Zip":"93012"},{"Location":"HILLMONT HOUSE","Address":"1750 S Louis Rd","City":"Oasis","State":"CA","Zip":"93012"},{"Location":"ERIKAS FLOWERS","Address":"9630 Santa Rosa Rd","City":"Santa Rosa Valley","State":"CA","Zip":"93012"},{"Location":"ADOLFO AUTO CARE INC","Address":"4035 Adolfo Rd L","City":"Camarillo","State":"CA","Zip":"93012"},{"Location":"ALIENCE UNITED INSURANCE","Address":"5300 Adolfo Rd","City":"Camarillo","State":"CA","Zip":"93012"},{"Location":"ALIMO INC","Address":"2911 Petit St","City":"Camarillo","State":"CA","Zip":"93012"},{"Location":"AMERICON","Address":"900 Flynn Rd","City":"Camarillo","State":"CA","Zip":"93012"},{"Location":"BAT-R-UP","Address":"487 Dawson Dr","City":"Camarillo","State":"CA","Zip":"93012"},{"Location":"BURGER BARN ENTERPRISES","Address":"5000 Santa Rosa Rd","City":"Camarillo","State":"CA","Zip":"93012"},{"Location":"C & R MEDICAL INC","Address":"3200 Corte Malpaso 101","City":"Camarillo","State":"CA","Zip":"93012"},{"Location":"CAL TRANS","Address":"4821 Adohr Ln","City":"Camarillo","State":"CA","Zip":"93012"},{"Location":"CALVARY NEXUS","Address":"300 S Lewis Rd M","City":"Camarillo","State":"CA","Zip":"93012"},{"Location":"CAMARILLO SPRINGS RANCH","Address":"202 Camarillo Grove Rd","City":"Camarillo","State":"CA","Zip":"93012"},{"Location":"CARDSERVICE LEADERS LLC","Address":"725 Via Alondra","City":"Camarillo","State":"CA","Zip":"93012"},{"Location":"CARRUTHERS","Address":"4700 Calle Carga","City":"Camarillo","State":"CA","Zip":"93012"},{"Location":"CASA PACIFICA","Address":"1722 S Lewis Rd","City":"Camarillo","State":"CA","Zip":"93012"},{"Location":"CASA PACIFICA 4","Address":"1728 S Lewis Rd","City":"Camarillo","State":"CA","Zip":"93012"},{"Location":"CASA PACIFICA 5","Address":"1730 S Lewis Rd","City":"Camarillo","State":"CA","Zip":"93012"},{"Location":"CASAPACIFICA REC OFFICE","Address":"1722 S Lewis Rd 2","City":"Camarillo","State":"CA","Zip":"93012"},{"Location":"CK TECHNOLOGIES INC.","Address":"3629 Vista Mercado","City":"Camarillo","State":"CA","Zip":"93012"},{"Location":"COACH PATTIES SCHOOL GYMNASTIC","Address":"300 S Lewis Rd E","City":"Camarillo","State":"CA","Zip":"93012"},{"Location":"COUNTY OF VENTURA%2FRAIN PROJECT","Address":"1732 S Lewis Rd","City":"Camarillo","State":"CA","Zip":"93012"},{"Location":"CPI MALIBU DIVISION","Address":"3760 Calle Tecate Ste-a","City":"Camarillo","State":"CA","Zip":"93012"},{"Location":"CSU CHANNEL ISLANDS","Address":"1 University Dr E150","City":"Camarillo","State":"CA","Zip":"93012"},{"Location":"DARRYL'S COUCH","Address":"795 Camarillo Springs Rd E","City":"Camarillo","State":"CA","Zip":"93012"},{"Location":"DEPARTMENT OF HOMELAND","Address":"321 Cortez Cir","City":"Camarillo","State":"CA","Zip":"93012"},{"Location":"HOUSE OF TRANSITION","Address":"1756 S Lewis Rd House","City":"Camarillo","State":"CA","Zip":"93012"},{"Location":"HOUWELINGS NURSERY","Address":"645 Laguna Rd","City":"Camarillo","State":"CA","Zip":"93012"},{"Location":"INFAB","Address":"3651 Via Pescador","City":"Camarillo","State":"CA","Zip":"93012"},{"Location":"LJM PROPERTIES","Address":"5999 Ridge View St","City":"Camarillo","State":"CA","Zip":"93012"},{"Location":"LTA MACHINING","Address":"1071 Avenida Acaso C","City":"Camarillo","State":"CA","Zip":"93012"},{"Location":"MEDICAL PACKAGING CORP","Address":"941 Avenida Caso","City":"Camarillo","State":"CA","Zip":"93012"},{"Location":"MERCURY INSURANCE","Address":"5300 Adolfo Rd 250","City":"Camarillo","State":"CA","Zip":"93012"},{"Location":"MISSION OAKS CAFE INC","Address":"5227 Mission Oaks Blvd","City":"Camarillo","State":"CA","Zip":"93012"},{"Location":"NORTH AMERICAN IMAGING","Address":"924 Via Alondra","City":"Camarillo","State":"CA","Zip":"93012"},{"Location":"ODUUSA","Address":"4010 Adolfo Rd","City":"Camarillo","State":"CA","Zip":"93012"},{"Location":"ONLINE MANAGEMENT SYSTEMS LLC","Address":"815 Camarillo Springs Rd B","City":"Camarillo","State":"CA","Zip":"93012"},{"Location":"PACIFIC CASUAL","Address":"1060 Avenida Acaso","City":"Camarillo","State":"CA","Zip":"93012"},{"Location":"POWER ONE INC","Address":"740 Calle Plano","City":"Camarillo","State":"CA","Zip":"93012"},{"Location":"PROFESSIONAL SERVICES CONSTRU","Address":"3952 Camino Ranchero","City":"Camarillo","State":"CA","Zip":"93012"},{"Location":"RECOVERY     STARSHIP","Address":"1760 S Lewis Rd","City":"Camarillo","State":"CA","Zip":"93012"},{"Location":"RETAIL CONSTRUCTION GROU","Address":"5995 Worth Way","City":"Camarillo","State":"CA","Zip":"93012"},{"Location":"SAALEX SOLUTIONS INC","Address":"811 Camarillo Springs Rd A","City":"Camarillo","State":"CA","Zip":"93012"},{"Location":"SAFELITE AUTO GLASS","Address":"3316 Maya Linda B","City":"Camarillo","State":"CA","Zip":"93012"},{"Location":"SEMTECH CORPORATION","Address":"200 Flynn Rd","City":"Camarillo","State":"CA","Zip":"93012"},{"Location":"SITAR","Address":"45 Rincon Dr 104c","City":"Camarillo","State":"CA","Zip":"93012"},{"Location":"SNAPPER JACK'S TACO SHACK","Address":"4850 Verdugo Way","City":"Camarillo","State":"CA","Zip":"93012"},{"Location":"THE MANHATTAN","Address":"5800 Santa Rosa Rd 140","City":"Camarillo","State":"CA","Zip":"93012"},{"Location":"TITAN MEDICAL","Address":"803 Camarillo Springs Rd R","City":"Camarillo","State":"CA","Zip":"93012"},{"Location":"UNIVERSITY GLEN CORP 2","Address":"71 Camarillo St","City":"Camarillo","State":"CA","Zip":"93012"},{"Location":"UNIVERSITY GLEN CORPORATION","Address":"45 Rincon Dr 101b","City":"Camarillo","State":"CA","Zip":"93012"},{"Location":"VILLA CALLEGUAS INC","Address":"1742 S Lewis Rd","City":"Camarillo","State":"CA","Zip":"93012"},{"Location":"WATER RECLAMATION PLANT","Address":"150 Howard Rd","City":"Camarillo","State":"CA","Zip":"93012"},{"Location":"WHITE CRYSTAL NAILS","Address":"795 Camarillo Springs Rd Suite B","City":"Camarillo","State":"CA","Zip":"93012"},{"Location":"YOMAMA SUSHI THOUSAND OAKS2","Address":"4900 Verdudo Way Drive  #b","City":"Camarillo","State":"CA","Zip":"93012"},{"Location":"HILLMONT HOUSE","Address":"1750 S Louis Rd","City":"Oasis","State":"CA","Zip":"93012"},{"Location":"ERIKAS FLOWERS","Address":"9630 Santa Rosa Rd","City":"Santa Rosa Valley","State":"CA","Zip":"93012"}]