[{"Location":"ABBYSON LIVING CORP","Address":"6000 Condor Dr","City":"Moorpark","State":"CA","Zip":"93021"},{"Location":"ADAM CAVALIER","Address":"885 Patriot Dr Ha","City":"Moorpark","State":"CA","Zip":"93021"},{"Location":"AIR INSTRO INC","Address":"5286 Kazuko Ct","City":"Moorpark","State":"CA","Zip":"93021"},{"Location":"AMERCAIN EXPRESS","Address":"885 Patriot Dr B","City":"Moorpark","State":"CA","Zip":"93021"},{"Location":"AMERICAN HAPKIDO INC","Address":"5260 Kazuko Ct A","City":"Moorpark","State":"CA","Zip":"93021"},{"Location":"ARJUN REYES MD AND ASSOCIATES","Address":"893 Patriot Dr A","City":"Moorpark","State":"CA","Zip":"93021"},{"Location":"ASAKUMA SUSHI","Address":"718 W Los Angeles Ave","City":"Moorpark","State":"CA","Zip":"93021"},{"Location":"BODY XCHANGE SPORTS CLUB","Address":"543 W Los Angeles Ave","City":"Moorpark","State":"CA","Zip":"93021"},{"Location":"BRICK OVEN","Address":"888 W Los Angeles Ave G","City":"Moorpark","State":"CA","Zip":"93021"},{"Location":"BURGER EXPRESS","Address":"6593 Collins Dr D2","City":"Moorpark","State":"CA","Zip":"93021"},{"Location":"BUTERA'S BILLARDS","Address":"476 W  La Ave #11","City":"Moorpark","State":"CA","Zip":"93021"},{"Location":"CARRARA PASTRIES INC","Address":"476 W Los Angeles Ave A13","City":"Moorpark","State":"CA","Zip":"93021"},{"Location":"CLINICAS DEL CAMINO REAL","Address":"4279 Tierra Rejada Rd","City":"Moorpark","State":"CA","Zip":"93021"},{"Location":"CONLON HOLDINGS","Address":"888 New Los Angeles Ave I","City":"Moorpark","State":"CA","Zip":"93021"},{"Location":"CORRIGAN'S IRISH PUB & RESTAUR","Address":"75 E High St","City":"Moorpark","State":"CA","Zip":"93021"},{"Location":"CTR LANDSCAPE SERVICES I","Address":"885 Patriot Dr Unitj","City":"Moorpark","State":"CA","Zip":"93021"},{"Location":"CUSTOM MELT","Address":"6593 Collins Dr D4","City":"Moorpark","State":"CA","Zip":"93021"},{"Location":"DAVID   CANALE DDS","Address":"165 E High St 101","City":"Moorpark","State":"CA","Zip":"93021"},{"Location":"DAVID GROSS","Address":"883 Patriot Dr B","City":"Moorpark","State":"CA","Zip":"93021"},{"Location":"DAVITA #5235 MOORPARK","Address":"883 Patriot Dr","City":"Moorpark","State":"CA","Zip":"93021"},{"Location":"DENAMU","Address":"313 W Los Angeles Ave","City":"Moorpark","State":"CA","Zip":"93021"},{"Location":"DISGUSTINGLY DELICIOUS","Address":"252 W Los Angeles Ave B","City":"Moorpark","State":"CA","Zip":"93021"},{"Location":"DON CUCO MEXICAN RESTAURANT","Address":"254 W Los Angeles Ave","City":"Moorpark","State":"CA","Zip":"93021"},{"Location":"FOUNTAINS AT MOORPARK","Address":"51 Majestic Ct 1201","City":"Moorpark","State":"CA","Zip":"93021"},{"Location":"GABYS BAKERY","Address":"419 Moorpark Ave","City":"Moorpark","State":"CA","Zip":"93021"},{"Location":"GLOBALUXE INC","Address":"331 Science Dr","City":"Moorpark","State":"CA","Zip":"93021"},{"Location":"GREAT CLIPS FOR HAIR","Address":"766 W Los Angeles Ave D","City":"Moorpark","State":"CA","Zip":"93021"},{"Location":"GRG AIRCRAFT N LEASING","Address":"357 Science Dr","City":"Moorpark","State":"CA","Zip":"93021"},{"Location":"GRINDER RESTARAUNT","Address":"1 W Los Angeles Ave","City":"Moorpark","State":"CA","Zip":"93021"},{"Location":"HIJAZ","Address":"105 E High St","City":"Moorpark","State":"CA","Zip":"93021"},{"Location":"HONG SHONG ENTERPRISES","Address":"865 Patriot Dr 103","City":"Moorpark","State":"CA","Zip":"93021"},{"Location":"IRMA VILLA DBA HAIR CUTT","Address":"530 W Los Angeles Ave 1h","City":"Moorpark","State":"CA","Zip":"93021"},{"Location":"JALISCO MEXICAN GRILL","Address":"4275 Tierra Rejada Rd","City":"Moorpark","State":"CA","Zip":"93021"},{"Location":"JAX PIZZA","Address":"530 New Los Angeles Ave 101","City":"Moorpark","State":"CA","Zip":"93021"},{"Location":"JIFFY LUBE 2888","Address":"797 W Los Angeles Ave","City":"Moorpark","State":"CA","Zip":"93021"},{"Location":"KOHL'S #600","Address":"872 New Los Angeles Ave","City":"Moorpark","State":"CA","Zip":"93021"},{"Location":"KRETEK INTERNATIONAL INC","Address":"5449 Endeavour Ct","City":"Moorpark","State":"CA","Zip":"93021"},{"Location":"LA FIESTA MEXICAN GRILL","Address":"14711 Princeton Ave 9","City":"Moorpark","State":"CA","Zip":"93021"},{"Location":"LALOS MEXICAN RESTAURANT","Address":"530 New Los Angeles Ave 110","City":"Moorpark","State":"CA","Zip":"93021"},{"Location":"LEMMOS GRILL","Address":"4227 Tierra Rejada Rd A","City":"Moorpark","State":"CA","Zip":"93021"},{"Location":"LOS ROBLES IMAGING CENTER","Address":"865 Patriot Dr","City":"Moorpark","State":"CA","Zip":"93021"},{"Location":"LOVE SUSHI HOUSE","Address":"223 W Los Angeles Ave","City":"Moorpark","State":"CA","Zip":"93021"},{"Location":"MARC 5 SERVICES","Address":"887 Patriot Dr E","City":"Moorpark","State":"CA","Zip":"93021"},{"Location":"ME N EDS PIZZERIA","Address":"144 W Los Angeles Ave","City":"Moorpark","State":"CA","Zip":"93021"},{"Location":"MIKE ROVNER CONSTRUCTION INC","Address":"5400 Tech Cir","City":"Moorpark","State":"CA","Zip":"93021"},{"Location":"MILAN NAIL SAP","Address":"252 W Los Angeles Ave #14","City":"Moorpark","State":"CA","Zip":"93021"},{"Location":"MOORPARK COLLEGE","Address":"7075 Campus Rd","City":"Moorpark","State":"CA","Zip":"93021"},{"Location":"MOORPARK COUNTRY CLUB","Address":"11800 Championship Dr","City":"Moorpark","State":"CA","Zip":"93021"},{"Location":"MOORPARK FITNESS","Address":"4209 Tierra Rejada Rd B","City":"Moorpark","State":"CA","Zip":"93021"},{"Location":"MOORPARK LAUNDRY LLC 1","Address":"11 W Los Angeles Ave","City":"Moorpark","State":"CA","Zip":"93021"},{"Location":"MOORPARK POLICE STATION","Address":"7075 Campus Rd","City":"Moorpark","State":"CA","Zip":"93021"},{"Location":"MOORPRAK FAMILY CARE","Address":"612 Spring Rd A","City":"Moorpark","State":"CA","Zip":"93021"},{"Location":"NORTH AMERICAN SERVICES","Address":"5273 N Commerce Ave 36","City":"Moorpark","State":"CA","Zip":"93021"},{"Location":"PENNYMAC","Address":"6101 Condor Dr","City":"Moorpark","State":"CA","Zip":"93021"},{"Location":"PINDLER AND PINDLER","Address":"5156 N Commerce Ave","City":"Moorpark","State":"CA","Zip":"93021"},{"Location":"PIZZA AND MORE","Address":"4223 Tierra Rejada Rd","City":"Moorpark","State":"CA","Zip":"93021"},{"Location":"POPEYES CHICKEN","Address":"520 New Los Angeles Ave","City":"Moorpark","State":"CA","Zip":"93021"},{"Location":"PROFESSIONAL DOCUMENT SERVICES","Address":"875 Patriot Dr D","City":"Moorpark","State":"CA","Zip":"93021"},{"Location":"RACHADA THAI CUSINE","Address":"525 W Los Angeles Ave A","City":"Moorpark","State":"CA","Zip":"93021"},{"Location":"RANDYS TIRE AND AUTO","Address":"460 E High St","City":"Moorpark","State":"CA","Zip":"93021"},{"Location":"RICK BORQUEZ DSS","Address":"537 New Los Angeles Ave","City":"Moorpark","State":"CA","Zip":"93021"},{"Location":"ROCK N ROLL PIZZA","Address":"13816 Princeton Ave","City":"Moorpark","State":"CA","Zip":"93021"},{"Location":"ROUND TABLE PIZZA","Address":"239 W Los Angeles Ave","City":"Moorpark","State":"CA","Zip":"93021"},{"Location":"RUSTIC CANYON GOLF COURSE","Address":"15100 Happy Camp Rd","City":"Moorpark","State":"CA","Zip":"93021"},{"Location":"SCI-TECH GLASSBLOWING","Address":"5555 Tech Cir","City":"Moorpark","State":"CA","Zip":"93021"},{"Location":"SMUERPHAK LLC","Address":"252 W Los Angeles Ave A","City":"Moorpark","State":"CA","Zip":"93021"},{"Location":"SUSHI PLANET","Address":"537 New Los Angeles Ave A","City":"Moorpark","State":"CA","Zip":"93021"},{"Location":"SVK DISTRIBUTING","Address":"11990 Hertz Ave","City":"Moorpark","State":"CA","Zip":"93021"},{"Location":"TARGET STORE #1547","Address":"800 New Los Angeles Ave","City":"Moorpark","State":"CA","Zip":"93021"},{"Location":"TELLOS MEXICAN FOOD","Address":"415 Moorpark Ave","City":"Moorpark","State":"CA","Zip":"93021"},{"Location":"TIERRA REJADA GOLF CLUB","Address":"15187 Tierra Rejada Rd","City":"Moorpark","State":"CA","Zip":"93021"},{"Location":"TOM BARBER GOLF CENTER","Address":"15186 Tierra Rejada Rd","City":"Moorpark","State":"CA","Zip":"93021"},{"Location":"VARGO PHYSICAL THERAPY","Address":"4211 Tierra Rejada Rd","City":"Moorpark","State":"CA","Zip":"93021"},{"Location":"WAREHOUSE DISCOUNT CENTER","Address":"14349 White Sage Rd","City":"Moorpark","State":"CA","Zip":"93021"},{"Location":"WELLS FARGO HOME LOANS","Address":"875 Patriot Dr C","City":"Moorpark","State":"CA","Zip":"93021"},{"Location":"WOOD RANCH MOORP","Address":"540 New Los Angeles Ave","City":"Moorpark","State":"CA","Zip":"93021"},{"Location":"XP SYSTEMS","Address":"405 Science Dr","City":"Moorpark","State":"CA","Zip":"93021"},{"Location":"ABBYSON LIVING CORP","Address":"6000 Condor Dr","City":"Moorpark","State":"CA","Zip":"93021"},{"Location":"ADAM CAVALIER","Address":"885 Patriot Dr Ha","City":"Moorpark","State":"CA","Zip":"93021"},{"Location":"AIR INSTRO INC","Address":"5286 Kazuko Ct","City":"Moorpark","State":"CA","Zip":"93021"},{"Location":"AMERCAIN EXPRESS","Address":"885 Patriot Dr B","City":"Moorpark","State":"CA","Zip":"93021"},{"Location":"AMERICAN HAPKIDO INC","Address":"5260 Kazuko Ct A","City":"Moorpark","State":"CA","Zip":"93021"},{"Location":"ARJUN REYES MD AND ASSOCIATES","Address":"893 Patriot Dr A","City":"Moorpark","State":"CA","Zip":"93021"},{"Location":"ASAKUMA SUSHI","Address":"718 W Los Angeles Ave","City":"Moorpark","State":"CA","Zip":"93021"},{"Location":"BODY XCHANGE SPORTS CLUB","Address":"543 W Los Angeles Ave","City":"Moorpark","State":"CA","Zip":"93021"},{"Location":"BRICK OVEN","Address":"888 W Los Angeles Ave G","City":"Moorpark","State":"CA","Zip":"93021"},{"Location":"BURGER EXPRESS","Address":"6593 Collins Dr D2","City":"Moorpark","State":"CA","Zip":"93021"},{"Location":"BUTERA'S BILLARDS","Address":"476 W  La Ave #11","City":"Moorpark","State":"CA","Zip":"93021"},{"Location":"CARRARA PASTRIES INC","Address":"476 W Los Angeles Ave A13","City":"Moorpark","State":"CA","Zip":"93021"},{"Location":"CLINICAS DEL CAMINO REAL","Address":"4279 Tierra Rejada Rd","City":"Moorpark","State":"CA","Zip":"93021"},{"Location":"CONLON HOLDINGS","Address":"888 New Los Angeles Ave I","City":"Moorpark","State":"CA","Zip":"93021"},{"Location":"CORRIGAN'S IRISH PUB & RESTAUR","Address":"75 E High St","City":"Moorpark","State":"CA","Zip":"93021"},{"Location":"CTR LANDSCAPE SERVICES I","Address":"885 Patriot Dr Unitj","City":"Moorpark","State":"CA","Zip":"93021"},{"Location":"CUSTOM MELT","Address":"6593 Collins Dr D4","City":"Moorpark","State":"CA","Zip":"93021"},{"Location":"DAVID   CANALE DDS","Address":"165 E High St 101","City":"Moorpark","State":"CA","Zip":"93021"},{"Location":"DAVID GROSS","Address":"883 Patriot Dr B","City":"Moorpark","State":"CA","Zip":"93021"},{"Location":"DAVITA #5235 MOORPARK","Address":"883 Patriot Dr","City":"Moorpark","State":"CA","Zip":"93021"},{"Location":"DENAMU","Address":"313 W Los Angeles Ave","City":"Moorpark","State":"CA","Zip":"93021"},{"Location":"DISGUSTINGLY DELICIOUS","Address":"252 W Los Angeles Ave B","City":"Moorpark","State":"CA","Zip":"93021"},{"Location":"DON CUCO MEXICAN RESTAURANT","Address":"254 W Los Angeles Ave","City":"Moorpark","State":"CA","Zip":"93021"},{"Location":"FOUNTAINS AT MOORPARK","Address":"51 Majestic Ct 1201","City":"Moorpark","State":"CA","Zip":"93021"},{"Location":"GABYS BAKERY","Address":"419 Moorpark Ave","City":"Moorpark","State":"CA","Zip":"93021"},{"Location":"GLOBALUXE INC","Address":"331 Science Dr","City":"Moorpark","State":"CA","Zip":"93021"},{"Location":"GREAT CLIPS FOR HAIR","Address":"766 W Los Angeles Ave D","City":"Moorpark","State":"CA","Zip":"93021"},{"Location":"GRG AIRCRAFT N LEASING","Address":"357 Science Dr","City":"Moorpark","State":"CA","Zip":"93021"},{"Location":"GRINDER RESTARAUNT","Address":"1 W Los Angeles Ave","City":"Moorpark","State":"CA","Zip":"93021"},{"Location":"HIJAZ","Address":"105 E High St","City":"Moorpark","State":"CA","Zip":"93021"},{"Location":"HONG SHONG ENTERPRISES","Address":"865 Patriot Dr 103","City":"Moorpark","State":"CA","Zip":"93021"},{"Location":"IRMA VILLA DBA HAIR CUTT","Address":"530 W Los Angeles Ave 1h","City":"Moorpark","State":"CA","Zip":"93021"},{"Location":"JALISCO MEXICAN GRILL","Address":"4275 Tierra Rejada Rd","City":"Moorpark","State":"CA","Zip":"93021"},{"Location":"JAX PIZZA","Address":"530 New Los Angeles Ave 101","City":"Moorpark","State":"CA","Zip":"93021"},{"Location":"JIFFY LUBE 2888","Address":"797 W Los Angeles Ave","City":"Moorpark","State":"CA","Zip":"93021"},{"Location":"KOHL'S #600","Address":"872 New Los Angeles Ave","City":"Moorpark","State":"CA","Zip":"93021"},{"Location":"KRETEK INTERNATIONAL INC","Address":"5449 Endeavour Ct","City":"Moorpark","State":"CA","Zip":"93021"},{"Location":"LA FIESTA MEXICAN GRILL","Address":"14711 Princeton Ave 9","City":"Moorpark","State":"CA","Zip":"93021"},{"Location":"LALOS MEXICAN RESTAURANT","Address":"530 New Los Angeles Ave 110","City":"Moorpark","State":"CA","Zip":"93021"},{"Location":"LEMMOS GRILL","Address":"4227 Tierra Rejada Rd A","City":"Moorpark","State":"CA","Zip":"93021"},{"Location":"LOS ROBLES IMAGING CENTER","Address":"865 Patriot Dr","City":"Moorpark","State":"CA","Zip":"93021"},{"Location":"LOVE SUSHI HOUSE","Address":"223 W Los Angeles Ave","City":"Moorpark","State":"CA","Zip":"93021"},{"Location":"MARC 5 SERVICES","Address":"887 Patriot Dr E","City":"Moorpark","State":"CA","Zip":"93021"},{"Location":"ME N EDS PIZZERIA","Address":"144 W Los Angeles Ave","City":"Moorpark","State":"CA","Zip":"93021"},{"Location":"MIKE ROVNER CONSTRUCTION INC","Address":"5400 Tech Cir","City":"Moorpark","State":"CA","Zip":"93021"},{"Location":"MOORPARK COLLEGE","Address":"7075 Campus Rd","City":"Moorpark","State":"CA","Zip":"93021"},{"Location":"MOORPARK COUNTRY CLUB","Address":"11800 Championship Dr","City":"Moorpark","State":"CA","Zip":"93021"},{"Location":"MOORPARK FITNESS","Address":"4209 Tierra Rejada Rd B","City":"Moorpark","State":"CA","Zip":"93021"},{"Location":"MOORPARK LAUNDRY LLC 1","Address":"11 W Los Angeles Ave","City":"Moorpark","State":"CA","Zip":"93021"},{"Location":"MOORPARK POLICE STATION","Address":"7075 Campus Rd","City":"Moorpark","State":"CA","Zip":"93021"},{"Location":"MOORPRAK FAMILY CARE","Address":"612 Spring Rd A","City":"Moorpark","State":"CA","Zip":"93021"},{"Location":"NORTH AMERICAN SERVICES","Address":"5273 N Commerce Ave 36","City":"Moorpark","State":"CA","Zip":"93021"},{"Location":"PENNYMAC","Address":"6101 Condor Dr","City":"Moorpark","State":"CA","Zip":"93021"},{"Location":"PINDLER AND PINDLER","Address":"5156 N Commerce Ave","City":"Moorpark","State":"CA","Zip":"93021"},{"Location":"PIZZA AND MORE","Address":"4223 Tierra Rejada Rd","City":"Moorpark","State":"CA","Zip":"93021"},{"Location":"POPEYES CHICKEN","Address":"520 New Los Angeles Ave","City":"Moorpark","State":"CA","Zip":"93021"},{"Location":"PROFESSIONAL DOCUMENT SERVICES","Address":"875 Patriot Dr D","City":"Moorpark","State":"CA","Zip":"93021"},{"Location":"RACHADA THAI CUSINE","Address":"525 W Los Angeles Ave A","City":"Moorpark","State":"CA","Zip":"93021"},{"Location":"RANDYS TIRE AND AUTO","Address":"460 E High St","City":"Moorpark","State":"CA","Zip":"93021"},{"Location":"RICK BORQUEZ DSS","Address":"537 New Los Angeles Ave","City":"Moorpark","State":"CA","Zip":"93021"},{"Location":"ROCK N ROLL PIZZA","Address":"13816 Princeton Ave","City":"Moorpark","State":"CA","Zip":"93021"},{"Location":"ROUND TABLE PIZZA","Address":"239 W Los Angeles Ave","City":"Moorpark","State":"CA","Zip":"93021"},{"Location":"RUSTIC CANYON GOLF COURSE","Address":"15100 Happy Camp Rd","City":"Moorpark","State":"CA","Zip":"93021"},{"Location":"SCI-TECH GLASSBLOWING","Address":"5555 Tech Cir","City":"Moorpark","State":"CA","Zip":"93021"},{"Location":"SMUERPHAK LLC","Address":"252 W Los Angeles Ave A","City":"Moorpark","State":"CA","Zip":"93021"},{"Location":"SUSHI PLANET","Address":"537 New Los Angeles Ave A","City":"Moorpark","State":"CA","Zip":"93021"},{"Location":"SVK DISTRIBUTING","Address":"11990 Hertz Ave","City":"Moorpark","State":"CA","Zip":"93021"},{"Location":"TARGET STORE #1547","Address":"800 New Los Angeles Ave","City":"Moorpark","State":"CA","Zip":"93021"},{"Location":"TELLOS MEXICAN FOOD","Address":"415 Moorpark Ave","City":"Moorpark","State":"CA","Zip":"93021"},{"Location":"TIERRA REJADA GOLF CLUB","Address":"15187 Tierra Rejada Rd","City":"Moorpark","State":"CA","Zip":"93021"},{"Location":"TOM BARBER GOLF CENTER","Address":"15186 Tierra Rejada Rd","City":"Moorpark","State":"CA","Zip":"93021"},{"Location":"VARGO PHYSICAL THERAPY","Address":"4211 Tierra Rejada Rd","City":"Moorpark","State":"CA","Zip":"93021"},{"Location":"WAREHOUSE DISCOUNT CENTER","Address":"14349 White Sage Rd","City":"Moorpark","State":"CA","Zip":"93021"},{"Location":"WELLS FARGO HOME LOANS","Address":"875 Patriot Dr C","City":"Moorpark","State":"CA","Zip":"93021"},{"Location":"WOOD RANCH MOORP","Address":"540 New Los Angeles Ave","City":"Moorpark","State":"CA","Zip":"93021"},{"Location":"XP SYSTEMS","Address":"405 Science Dr","City":"Moorpark","State":"CA","Zip":"93021"}]