[{"Location":"AGAVE MARIA","Address":"106 S Montgomery St","City":"Ojai","State":"CA","Zip":"93023"},{"Location":"AMERICAN LEGION 482","Address":"843 E Ojai Ave","City":"Ojai","State":"CA","Zip":"93023"},{"Location":"CASA  DE  LAGO","Address":"715 E Ojai Ave","City":"Ojai","State":"CA","Zip":"93023"},{"Location":"CLINICAS DEL CAMINO REAL%2C INC.","Address":"1200 Maricopa Hwy","City":"Ojai","State":"CA","Zip":"93023"},{"Location":"EMERSON LANGDON LLC","Address":"2350 Ladera Rd","City":"Ojai","State":"CA","Zip":"93023"},{"Location":"FRESH GRILL MIRAMONTE","Address":"11420 N Ventura Ave","City":"Ojai","State":"CA","Zip":"93023"},{"Location":"GIORGIO'S TAP ROOM","Address":"914 E Ojai Ave","City":"Ojai","State":"CA","Zip":"93023"},{"Location":"JERSEY MIKE'S SUBS","Address":"423 E Ojai Ave","City":"Ojai","State":"CA","Zip":"93023"},{"Location":"JIM & ROB'S FRESH GRILL","Address":"214 W Ojai Ave","City":"Ojai","State":"CA","Zip":"93023"},{"Location":"LAVENDER INN","Address":"210 E Matilija St %2F Michelle","City":"Ojai","State":"CA","Zip":"93023"},{"Location":"LEES 1 ON 1  PERSONAL TRAINING","Address":"210 Fox St","City":"Ojai","State":"CA","Zip":"93023"},{"Location":"OJAI PIZZA","Address":"331 E Ojai Ave","City":"Ojai","State":"CA","Zip":"93023"},{"Location":"OJAI POLICE","Address":"402 S Ventura St","City":"Ojai","State":"CA","Zip":"93023"},{"Location":"OJAI SPORTS GRILL","Address":"100 E Elroelar Dr  #104","City":"Ojai","State":"CA","Zip":"93023"},{"Location":"OJAI THE HUB LLC","Address":"256 E Ojai Ave","City":"Ojai","State":"CA","Zip":"93023"},{"Location":"OJAI VALLEY INN","Address":"905 Country Club Rd","City":"Ojai","State":"CA","Zip":"93023"},{"Location":"OJAI VALLEY INN & SPA","Address":"905 Country Club Rd","City":"Ojai","State":"CA","Zip":"93023"},{"Location":"OJAI VALLEY INN & SPA(0012240)","Address":"905 Country Club Rd","City":"Ojai","State":"CA","Zip":"93023"},{"Location":"OJAI VALLEY INN AND SPA","Address":"905 Country Club Rd","City":"Ojai","State":"CA","Zip":"93023"},{"Location":"OJAI VALLEY REAL ESTATE","Address":"206 E Ojai Ave","City":"Ojai","State":"CA","Zip":"93023"},{"Location":"OJAI VALLEY SCHOOL","Address":"10820 Reeves Rd","City":"Ojai","State":"CA","Zip":"93023"},{"Location":"OJAI VLLY INN - GOLF MEM","Address":"905 Country Club Rd","City":"Ojai","State":"CA","Zip":"93023"},{"Location":"OJAIO JAPANESE RESTAURANT","Address":"11400 N Ventura Ave","City":"Ojai","State":"CA","Zip":"93023"},{"Location":"PSYCHIC BOUTIQUE","Address":"900 W Ojai Ave","City":"Ojai","State":"CA","Zip":"93023"},{"Location":"RAMIRO TREVINO LLC","Address":"406 Bryant Cir","City":"Ojai","State":"CA","Zip":"93023"},{"Location":"SAKURA OJAI","Address":"219 E Matilija St","City":"Ojai","State":"CA","Zip":"93023"},{"Location":"SOULE PARK GOLF COURSE","Address":"1033 E Ojai Ave","City":"Ojai","State":"CA","Zip":"93023"},{"Location":"ST JOSEPH HEALTH & RETIREMENT","Address":"2464 E Ojai Ave","City":"Ojai","State":"CA","Zip":"93023"},{"Location":"THE MANOR OF OJAI","Address":"108 W Eucalytic St","City":"Ojai","State":"CA","Zip":"93023"},{"Location":"THE NUT FARM LLC","Address":"9342 Ojai Santa Paula Rd","City":"Ojai","State":"CA","Zip":"93023"},{"Location":"THE OJAI BEVERAGE CO TAP HOUSE","Address":"655 E Ojai Ave","City":"Ojai","State":"CA","Zip":"93023"}]