[{"Location":"A & A AUTO COLLISION","Address":"771 E Wooley Rd","City":"Oxnard","State":"CA","Zip":"93030"},{"Location":"ABSOLUTELY BEAUTIFUL HAIR","Address":"647 S Ventura Rd","City":"Oxnard","State":"CA","Zip":"93030"},{"Location":"ALL PHASE ELECTRIC SUPPLY CO","Address":"221 Lombard St","City":"Oxnard","State":"CA","Zip":"93030"},{"Location":"ALMAR CO","Address":"434 S A St B","City":"Oxnard","State":"CA","Zip":"93030"},{"Location":"ANHEUSER-BUSCH WHLSLR #30457","Address":"401 Del Norte Blvd","City":"Oxnard","State":"CA","Zip":"93030"},{"Location":"ANYTIME FITNESS","Address":"702 N Ventura Rd","City":"Oxnard","State":"CA","Zip":"93030"},{"Location":"ATENAS BOUTIQUE","Address":"645 S Oxnard Blvd","City":"Oxnard","State":"CA","Zip":"93030"},{"Location":"ATT-OXNARD","Address":"300 Kinetic Dr","City":"Oxnard","State":"CA","Zip":"93030"},{"Location":"AUSTIN MA HEMATOLOGY ONCOLOGY","Address":"1851 Lombard St 105","City":"Oxnard","State":"CA","Zip":"93030"},{"Location":"BE A HUFFINS EVANGELISTI","Address":"840 S G St","City":"Oxnard","State":"CA","Zip":"93030"},{"Location":"BETHEL AME CHURCH","Address":"855 S F St","City":"Oxnard","State":"CA","Zip":"93030"},{"Location":"BYERS FITZGERALD","Address":"405 S B St 5","City":"Oxnard","State":"CA","Zip":"93030"},{"Location":"CABO SEAFOOD & CANTINA","Address":"1042 S Oxnard Blvd","City":"Oxnard","State":"CA","Zip":"93030"},{"Location":"CABRILLO CARDIOLOGY MEDICAL","Address":"2241 Wankel Way C","City":"Oxnard","State":"CA","Zip":"93030"},{"Location":"CALIFORNIA AMPLIFIER","Address":"1401 N Rice Ave","City":"Oxnard","State":"CA","Zip":"93030"},{"Location":"CALIFORNIA BANK & TRUST","Address":"365 Esplanade Drive","City":"Oxnard","State":"CA","Zip":"93030"},{"Location":"CALIFORNIA CAR WASH","Address":"111 S Oxnard Blvd","City":"Oxnard","State":"CA","Zip":"93030"},{"Location":"CALIFORNIA PORTABLE STOR","Address":"301 S Rose Ave 104","City":"Oxnard","State":"CA","Zip":"93030"},{"Location":"CENTRAL NAIL","Address":"210 W 5th St","City":"Oxnard","State":"CA","Zip":"93030"},{"Location":"CHANNEL ISLAND SURGICENTER","Address":"2300 Wankel Way","City":"Oxnard","State":"CA","Zip":"93030"},{"Location":"CHERRY BLOSSOM SPA","Address":"653 S Ventura Rd","City":"Oxnard","State":"CA","Zip":"93030"},{"Location":"CHINALAND RESTAURANT","Address":"543 S Ventura Rd","City":"Oxnard","State":"CA","Zip":"93030"},{"Location":"CITY OF OXNARD","Address":"251 S C St","City":"Oxnard","State":"CA","Zip":"93030"},{"Location":"CJS BARBECUE","Address":"480 S Victoria Ave B","City":"Oxnard","State":"CA","Zip":"93030"},{"Location":"CLINICA MI PUEBLO 3","Address":"345 S A St","City":"Oxnard","State":"CA","Zip":"93030"},{"Location":"COASTAL  GREEN VEGETABLE","Address":"650 Buena Vista Ave","City":"Oxnard","State":"CA","Zip":"93030"},{"Location":"COMMERCIAL AUTO BODY","Address":"1285 Commercial Ave","City":"Oxnard","State":"CA","Zip":"93030"},{"Location":"COMMUNITY MEMORIAL HOSPITAL","Address":"3641 W 5th St","City":"Oxnard","State":"CA","Zip":"93030"},{"Location":"CUT MASTERS","Address":"1019 S Ventura Rd","City":"Oxnard","State":"CA","Zip":"93030"},{"Location":"DAVITA #5377 CHANNEL ISLANDS","Address":"3541 W 5th St","City":"Oxnard","State":"CA","Zip":"93030"},{"Location":"DELAGARZA","Address":"549 Pacific Ave","City":"Oxnard","State":"CA","Zip":"93030"},{"Location":"DELTA MICROWAVE","Address":"300 Del Norte Blvd","City":"Oxnard","State":"CA","Zip":"93030"},{"Location":"DIVINE HAIR DESIGN","Address":"550 S A St","City":"Oxnard","State":"CA","Zip":"93030"},{"Location":"DOMINNO PIZZA","Address":"1137 S Oxnard Blvd","City":"Oxnard","State":"CA","Zip":"93030"},{"Location":"DOWNTOWN SMILE CENTER","Address":"826 S A St","City":"Oxnard","State":"CA","Zip":"93030"},{"Location":"DREAMS DESIGN","Address":"318 S A St","City":"Oxnard","State":"CA","Zip":"93030"},{"Location":"DRUM WORKSHOP","Address":"3450 Lunar Ct","City":"Oxnard","State":"CA","Zip":"93030"},{"Location":"DUALAN AUTO BODY REPAIR","Address":"1130 Industrial Ave","City":"Oxnard","State":"CA","Zip":"93030"},{"Location":"DURHAM SCHOOL SERVICES","Address":"3151 W 5th St A","City":"Oxnard","State":"CA","Zip":"93030"},{"Location":"EL DORADO MEXICAN","Address":"601 S Oxnard Blvd","City":"Oxnard","State":"CA","Zip":"93030"},{"Location":"EL POLLO NORTENO","Address":"715 S Oxnard Blvd","City":"Oxnard","State":"CA","Zip":"93030"},{"Location":"ESTRELLA BEAUTY SALON","Address":"1133 S Oxnard Blvd","City":"Oxnard","State":"CA","Zip":"93030"},{"Location":"FIESTA LAUNDRY 1","Address":"1633 S Oxnard Blvd","City":"Oxnard","State":"CA","Zip":"93030"},{"Location":"FIESTA LIQUOR 1","Address":"1637 S Oxnard Blvd","City":"Oxnard","State":"CA","Zip":"93030"},{"Location":"FIRESTONE #011053","Address":"321 S Oxnard Blvd","City":"Oxnard","State":"CA","Zip":"93030"},{"Location":"FIVE POINT FURNITURE","Address":"119 E Wooley Rd","City":"Oxnard","State":"CA","Zip":"93030"},{"Location":"FOCIL MED INC","Address":"300 S A St","City":"Oxnard","State":"CA","Zip":"93030"},{"Location":"FUN PIGLET","Address":"140 W 4th St","City":"Oxnard","State":"CA","Zip":"93030"},{"Location":"GENMAI SUSHI","Address":"3623 W 5th St","City":"Oxnard","State":"CA","Zip":"93030"},{"Location":"GOLDEN WEST AIR TERMINALS","Address":"1601 W 5th St","City":"Oxnard","State":"CA","Zip":"93030"},{"Location":"GOLDEN WEST VEGETABLES","Address":"1278 Mercantile St","City":"Oxnard","State":"CA","Zip":"93030"},{"Location":"GUADALAJARA CAFE","Address":"166 N Hayes Ave","City":"Oxnard","State":"CA","Zip":"93030"},{"Location":"IRON MAN INCOME TAX","Address":"1243 S Oxnard Blvd","City":"Oxnard","State":"CA","Zip":"93030"},{"Location":"J AND H AUTO ELETRIC","Address":"1209 Commercial Ave","City":"Oxnard","State":"CA","Zip":"93030"},{"Location":"JACK IN THE BOX","Address":"2580 North Vineyard Ave","City":"Oxnard","State":"CA","Zip":"93030"},{"Location":"JIFFY LUBE 3098","Address":"611 S Rose Ave","City":"Oxnard","State":"CA","Zip":"93030"},{"Location":"KALSTAR ENTERPRISES","Address":"601 Kinetic Dr","City":"Oxnard","State":"CA","Zip":"93030"},{"Location":"KO BOXING & FITNESS","Address":"560 S A St","City":"Oxnard","State":"CA","Zip":"93030"},{"Location":"KOLOR IN MOTION AUTOBODY","Address":"700 Mountain View Ave D","City":"Oxnard","State":"CA","Zip":"93030"},{"Location":"LA BOTANA","Address":"506 Cooper Rd 100","City":"Oxnard","State":"CA","Zip":"93030"},{"Location":"LA DOLCE VITA","Address":"740 S B St","City":"Oxnard","State":"CA","Zip":"93030"},{"Location":"LA VEROS MEXICAN SEA FOO","Address":"231 W 5th St","City":"Oxnard","State":"CA","Zip":"93030"},{"Location":"LEADS ENGINEERING CORPORATION","Address":"3250 Camino Del Sol","City":"Oxnard","State":"CA","Zip":"93030"},{"Location":"LOPEZ","Address":"606 N Ventura Rd","City":"Oxnard","State":"CA","Zip":"93030"},{"Location":"LOS ANGELES FREIGHTLINERS DBA","Address":"2501 Camino Del Sol","City":"Oxnard","State":"CA","Zip":"93030"},{"Location":"LUPITAS MINI MKT","Address":"834 W Wooley Rd","City":"Oxnard","State":"CA","Zip":"93030"},{"Location":"MAULHARDT INDUSTRIAL CNTR","Address":"961 N Rice Ave","City":"Oxnard","State":"CA","Zip":"93030"},{"Location":"MIKES BARBER SHOP","Address":"930 S A St","City":"Oxnard","State":"CA","Zip":"93030"},{"Location":"MY NAILS","Address":"200 S Ventura Rd 292","City":"Oxnard","State":"CA","Zip":"93030"},{"Location":"NEW ERA BODY SHOP INC","Address":"1250 Mercantile St","City":"Oxnard","State":"CA","Zip":"93030"},{"Location":"OCOTLAN AUTO SALES","Address":"1529 S Oxnard Blvd","City":"Oxnard","State":"CA","Zip":"93030"},{"Location":"ONE STOP LIQUOR","Address":"1061 W Wooley Rd","City":"Oxnard","State":"CA","Zip":"93030"},{"Location":"OTANIS RESTAURANT","Address":"608 S A St","City":"Oxnard","State":"CA","Zip":"93030"},{"Location":"OXNARD CAR WASH AND LUBE","Address":"1465 W 5th St","City":"Oxnard","State":"CA","Zip":"93030"},{"Location":"OXNARD INDUSTRIAL MEDICA","Address":"735 N A St","City":"Oxnard","State":"CA","Zip":"93030"},{"Location":"OXNARD POLICE ACTIVITIES LEAGU","Address":"350 S K St","City":"Oxnard","State":"CA","Zip":"93030"},{"Location":"OXNARD SLEEP DISORDER","Address":"905 S A St 2","City":"Oxnard","State":"CA","Zip":"93030"},{"Location":"OXNARD TOWING INC","Address":"720 Mountain View Ave","City":"Oxnard","State":"CA","Zip":"93030"},{"Location":"OXNARD VACUMMS AND SEWING","Address":"221 S Oxnard Blvd","City":"Oxnard","State":"CA","Zip":"93030"},{"Location":"PACIFIC CLINICS","Address":"141 W 5th St","City":"Oxnard","State":"CA","Zip":"93030"},{"Location":"PAT HOLDENS LIQUOR %40 GIF","Address":"860 S A St","City":"Oxnard","State":"CA","Zip":"93030"},{"Location":"PILARS CAFE","Address":"746 S A St","City":"Oxnard","State":"CA","Zip":"93030"},{"Location":"PIRATES GRUB N GROG","Address":"450 S Victoria Ave","City":"Oxnard","State":"CA","Zip":"93030"},{"Location":"PLAYA AZUL","Address":"10035 South Grant Av B","City":"Oxnard","State":"CA","Zip":"93030"},{"Location":"QUALITY SWISS  PRECISION","Address":"420 Spectrum Cir","City":"Oxnard","State":"CA","Zip":"93030"},{"Location":"RAUL LIQUOR","Address":"942 E 5th St","City":"Oxnard","State":"CA","Zip":"93030"},{"Location":"REITER","Address":"730 S A St","City":"Oxnard","State":"CA","Zip":"93030"},{"Location":"RIO FARMS","Address":"1051 Pacific Ave","City":"Oxnard","State":"CA","Zip":"93030"},{"Location":"ROYAL ARMS INTERNATIONAL","Address":"1300 Graves Ave","City":"Oxnard","State":"CA","Zip":"93030"},{"Location":"RUBYS CAFE","Address":"348 S Oxnard Blvd","City":"Oxnard","State":"CA","Zip":"93030"},{"Location":"SALSA Y AGAVE","Address":"1450 S Oxnard Blvd","City":"Oxnard","State":"CA","Zip":"93030"},{"Location":"SALUD MAS VIDA HEALTH","Address":"120 W 6th St","City":"Oxnard","State":"CA","Zip":"93030"},{"Location":"SANTITOS","Address":"310 Cooper Rd","City":"Oxnard","State":"CA","Zip":"93030"},{"Location":"SANWALL PROPERITIES%2C LLC","Address":"1700 Lombard St","City":"Oxnard","State":"CA","Zip":"93030"},{"Location":"SNOOKY'S","Address":"1657 S Oxnard Blvd","City":"Oxnard","State":"CA","Zip":"93030"},{"Location":"ST JOHN'S REGIONAL IMAGING CTR","Address":"1700 N Rose Ave 110","City":"Oxnard","State":"CA","Zip":"93030"},{"Location":"SUCCESS VALLEY PRODUCE","Address":"841 Commercial Ave","City":"Oxnard","State":"CA","Zip":"93030"},{"Location":"SUGAR BEETS RESTAURANT","Address":"455 S A St","City":"Oxnard","State":"CA","Zip":"93030"},{"Location":"SYSCO FOOD SERVICES OF VENTURA","Address":"3100 Sturgis Rd","City":"Oxnard","State":"CA","Zip":"93030"},{"Location":"TENNIS MACADEY","Address":"801 Hobson Way","City":"Oxnard","State":"CA","Zip":"93030"},{"Location":"TERAPIAS ALTERN AARON INC","Address":"731 N A St","City":"Oxnard","State":"CA","Zip":"93030"},{"Location":"THE KITCHEN","Address":"529 S A St","City":"Oxnard","State":"CA","Zip":"93030"},{"Location":"TINT MAN","Address":"580 E 3rd St D","City":"Oxnard","State":"CA","Zip":"93030"},{"Location":"TORO MEAT MARKET","Address":"300 Cooper Rd","City":"Oxnard","State":"CA","Zip":"93030"},{"Location":"TS69282020000000XXAOXXOXRXTVXX","Address":"2889 W 5th St","City":"Oxnard","State":"CA","Zip":"93030"},{"Location":"US HEALTHWORKS","Address":"1851 Lombard St","City":"Oxnard","State":"CA","Zip":"93030"},{"Location":"VALLARTA SUPERMARKET #21","Address":"1050 S A St","City":"Oxnard","State":"CA","Zip":"93030"},{"Location":"VCFD WILDLAND","Address":"2471 Latigo Ave","City":"Oxnard","State":"CA","Zip":"93030"},{"Location":"VENTURA COUNTY FIRE DEPT","Address":"2451 Latigo Ave","City":"Oxnard","State":"CA","Zip":"93030"},{"Location":"VENTURA FIRE DEPT","Address":"2431 Latigo Ave","City":"Oxnard","State":"CA","Zip":"93030"},{"Location":"VENTURA KOREAN CATHOLIC","Address":"601 S D St","City":"Oxnard","State":"CA","Zip":"93030"},{"Location":"VIVA BILLIARDS","Address":"658 S A St","City":"Oxnard","State":"CA","Zip":"93030"},{"Location":"WATERWAY PLASTICS","Address":"2200 Sturgis Rd","City":"Oxnard","State":"CA","Zip":"93030"},{"Location":"WINS DRIVE-IN","Address":"310 N A St","City":"Oxnard","State":"CA","Zip":"93030"},{"Location":"A & A AUTO COLLISION","Address":"771 E Wooley Rd","City":"Oxnard","State":"CA","Zip":"93030"},{"Location":"ABSOLUTELY BEAUTIFUL HAIR","Address":"647 S Ventura Rd","City":"Oxnard","State":"CA","Zip":"93030"},{"Location":"ALL PHASE ELECTRIC SUPPLY CO","Address":"221 Lombard St","City":"Oxnard","State":"CA","Zip":"93030"},{"Location":"ALMAR CO","Address":"434 S A St B","City":"Oxnard","State":"CA","Zip":"93030"},{"Location":"ANHEUSER-BUSCH WHLSLR #30457","Address":"401 Del Norte Blvd","City":"Oxnard","State":"CA","Zip":"93030"},{"Location":"ANYTIME FITNESS","Address":"702 N Ventura Rd","City":"Oxnard","State":"CA","Zip":"93030"},{"Location":"ATENAS BOUTIQUE","Address":"645 S Oxnard Blvd","City":"Oxnard","State":"CA","Zip":"93030"},{"Location":"ATT-OXNARD","Address":"300 Kinetic Dr","City":"Oxnard","State":"CA","Zip":"93030"},{"Location":"AUSTIN MA HEMATOLOGY ONCOLOGY","Address":"1851 Lombard St 105","City":"Oxnard","State":"CA","Zip":"93030"},{"Location":"BE A HUFFINS EVANGELISTI","Address":"840 S G St","City":"Oxnard","State":"CA","Zip":"93030"},{"Location":"BETHEL AME CHURCH","Address":"855 S F St","City":"Oxnard","State":"CA","Zip":"93030"},{"Location":"BYERS FITZGERALD","Address":"405 S B St 5","City":"Oxnard","State":"CA","Zip":"93030"},{"Location":"CABO SEAFOOD & CANTINA","Address":"1042 S Oxnard Blvd","City":"Oxnard","State":"CA","Zip":"93030"},{"Location":"CABRILLO CARDIOLOGY MEDICAL","Address":"2241 Wankel Way C","City":"Oxnard","State":"CA","Zip":"93030"},{"Location":"CALIFORNIA AMPLIFIER","Address":"1401 N Rice Ave","City":"Oxnard","State":"CA","Zip":"93030"},{"Location":"CALIFORNIA BANK & TRUST","Address":"365 Esplanade Drive","City":"Oxnard","State":"CA","Zip":"93030"},{"Location":"CALIFORNIA CAR WASH","Address":"111 S Oxnard Blvd","City":"Oxnard","State":"CA","Zip":"93030"},{"Location":"CALIFORNIA PORTABLE STOR","Address":"301 S Rose Ave 104","City":"Oxnard","State":"CA","Zip":"93030"},{"Location":"CENTRAL NAIL","Address":"210 W 5th St","City":"Oxnard","State":"CA","Zip":"93030"},{"Location":"CHANNEL ISLAND SURGICENTER","Address":"2300 Wankel Way","City":"Oxnard","State":"CA","Zip":"93030"},{"Location":"CHERRY BLOSSOM SPA","Address":"653 S Ventura Rd","City":"Oxnard","State":"CA","Zip":"93030"},{"Location":"CHINALAND RESTAURANT","Address":"543 S Ventura Rd","City":"Oxnard","State":"CA","Zip":"93030"},{"Location":"CITY OF OXNARD","Address":"251 S C St","City":"Oxnard","State":"CA","Zip":"93030"},{"Location":"CJS BARBECUE","Address":"480 S Victoria Ave B","City":"Oxnard","State":"CA","Zip":"93030"},{"Location":"CLINICA MI PUEBLO 3","Address":"345 S A St","City":"Oxnard","State":"CA","Zip":"93030"},{"Location":"COASTAL  GREEN VEGETABLE","Address":"650 Buena Vista Ave","City":"Oxnard","State":"CA","Zip":"93030"},{"Location":"COMMERCIAL AUTO BODY","Address":"1285 Commercial Ave","City":"Oxnard","State":"CA","Zip":"93030"},{"Location":"COMMUNITY MEMORIAL HOSPITAL","Address":"3641 W 5th St","City":"Oxnard","State":"CA","Zip":"93030"},{"Location":"CUT MASTERS","Address":"1019 S Ventura Rd","City":"Oxnard","State":"CA","Zip":"93030"},{"Location":"DAVITA #5377 CHANNEL ISLANDS","Address":"3541 W 5th St","City":"Oxnard","State":"CA","Zip":"93030"},{"Location":"DELAGARZA","Address":"549 Pacific Ave","City":"Oxnard","State":"CA","Zip":"93030"},{"Location":"DELTA MICROWAVE","Address":"300 Del Norte Blvd","City":"Oxnard","State":"CA","Zip":"93030"},{"Location":"DIVINE HAIR DESIGN","Address":"550 S A St","City":"Oxnard","State":"CA","Zip":"93030"},{"Location":"DOMINNO PIZZA","Address":"1137 S Oxnard Blvd","City":"Oxnard","State":"CA","Zip":"93030"},{"Location":"DOWNTOWN SMILE CENTER","Address":"826 S A St","City":"Oxnard","State":"CA","Zip":"93030"},{"Location":"DREAMS DESIGN","Address":"318 S A St","City":"Oxnard","State":"CA","Zip":"93030"},{"Location":"DRUM WORKSHOP","Address":"3450 Lunar Ct","City":"Oxnard","State":"CA","Zip":"93030"},{"Location":"DUALAN AUTO BODY REPAIR","Address":"1130 Industrial Ave","City":"Oxnard","State":"CA","Zip":"93030"},{"Location":"DURHAM SCHOOL SERVICES","Address":"3151 W 5th St A","City":"Oxnard","State":"CA","Zip":"93030"},{"Location":"EL DORADO MEXICAN","Address":"601 S Oxnard Blvd","City":"Oxnard","State":"CA","Zip":"93030"},{"Location":"EL POLLO NORTENO","Address":"715 S Oxnard Blvd","City":"Oxnard","State":"CA","Zip":"93030"},{"Location":"ESTRELLA BEAUTY SALON","Address":"1133 S Oxnard Blvd","City":"Oxnard","State":"CA","Zip":"93030"},{"Location":"FIESTA LAUNDRY 1","Address":"1633 S Oxnard Blvd","City":"Oxnard","State":"CA","Zip":"93030"},{"Location":"FIESTA LIQUOR 1","Address":"1637 S Oxnard Blvd","City":"Oxnard","State":"CA","Zip":"93030"},{"Location":"FIRESTONE #011053","Address":"321 S Oxnard Blvd","City":"Oxnard","State":"CA","Zip":"93030"},{"Location":"FIVE POINT FURNITURE","Address":"119 E Wooley Rd","City":"Oxnard","State":"CA","Zip":"93030"},{"Location":"FOCIL MED INC","Address":"300 S A St","City":"Oxnard","State":"CA","Zip":"93030"},{"Location":"FUN PIGLET","Address":"140 W 4th St","City":"Oxnard","State":"CA","Zip":"93030"},{"Location":"GENMAI SUSHI","Address":"3623 W 5th St","City":"Oxnard","State":"CA","Zip":"93030"},{"Location":"GOLDEN WEST AIR TERMINALS","Address":"1601 W 5th St","City":"Oxnard","State":"CA","Zip":"93030"},{"Location":"GOLDEN WEST VEGETABLES","Address":"1278 Mercantile St","City":"Oxnard","State":"CA","Zip":"93030"},{"Location":"GUADALAJARA CAFE","Address":"166 N Hayes Ave","City":"Oxnard","State":"CA","Zip":"93030"},{"Location":"IRON MAN INCOME TAX","Address":"1243 S Oxnard Blvd","City":"Oxnard","State":"CA","Zip":"93030"},{"Location":"J AND H AUTO ELETRIC","Address":"1209 Commercial Ave","City":"Oxnard","State":"CA","Zip":"93030"},{"Location":"JACK IN THE BOX","Address":"2580 North Vineyard Ave","City":"Oxnard","State":"CA","Zip":"93030"},{"Location":"JIFFY LUBE 3098","Address":"611 S Rose Ave","City":"Oxnard","State":"CA","Zip":"93030"},{"Location":"KALSTAR ENTERPRISES","Address":"601 Kinetic Dr","City":"Oxnard","State":"CA","Zip":"93030"},{"Location":"KO BOXING & FITNESS","Address":"560 S A St","City":"Oxnard","State":"CA","Zip":"93030"},{"Location":"KOLOR IN MOTION AUTOBODY","Address":"700 Mountain View Ave D","City":"Oxnard","State":"CA","Zip":"93030"},{"Location":"LA BOTANA","Address":"506 Cooper Rd 100","City":"Oxnard","State":"CA","Zip":"93030"},{"Location":"LA DOLCE VITA","Address":"740 S B St","City":"Oxnard","State":"CA","Zip":"93030"},{"Location":"LA VEROS MEXICAN SEA FOO","Address":"231 W 5th St","City":"Oxnard","State":"CA","Zip":"93030"},{"Location":"LE NAILS","Address":"2204 Saviers Rd","City":"Oxnard","State":"CA","Zip":"93030"},{"Location":"LEADS ENGINEERING CORPORATION","Address":"3250 Camino Del Sol","City":"Oxnard","State":"CA","Zip":"93030"},{"Location":"LOPEZ","Address":"606 N Ventura Rd","City":"Oxnard","State":"CA","Zip":"93030"},{"Location":"LOS ANGELES FREIGHTLINERS DBA","Address":"2501 Camino Del Sol","City":"Oxnard","State":"CA","Zip":"93030"},{"Location":"LUPITAS MINI MKT","Address":"834 W Wooley Rd","City":"Oxnard","State":"CA","Zip":"93030"},{"Location":"MAULHARDT INDUSTRIAL CNTR","Address":"961 N Rice Ave","City":"Oxnard","State":"CA","Zip":"93030"},{"Location":"MIKES BARBER SHOP","Address":"930 S A St","City":"Oxnard","State":"CA","Zip":"93030"},{"Location":"MY NAILS","Address":"200 S Ventura Rd 292","City":"Oxnard","State":"CA","Zip":"93030"},{"Location":"NEW ERA BODY SHOP INC","Address":"1250 Mercantile St","City":"Oxnard","State":"CA","Zip":"93030"},{"Location":"OCOTLAN AUTO SALES","Address":"1529 S Oxnard Blvd","City":"Oxnard","State":"CA","Zip":"93030"},{"Location":"ONE STOP LIQUOR","Address":"1061 W Wooley Rd","City":"Oxnard","State":"CA","Zip":"93030"},{"Location":"OTANIS RESTAURANT","Address":"608 S A St","City":"Oxnard","State":"CA","Zip":"93030"},{"Location":"OXNARD CAR WASH AND LUBE","Address":"1465 W 5th St","City":"Oxnard","State":"CA","Zip":"93030"},{"Location":"OXNARD INDUSTRIAL MEDICA","Address":"735 N A St","City":"Oxnard","State":"CA","Zip":"93030"},{"Location":"OXNARD POLICE ACTIVITIES LEAGU","Address":"350 S K St","City":"Oxnard","State":"CA","Zip":"93030"},{"Location":"OXNARD SLEEP DISORDER","Address":"905 S A St 2","City":"Oxnard","State":"CA","Zip":"93030"},{"Location":"OXNARD TOWING INC","Address":"720 Mountain View Ave","City":"Oxnard","State":"CA","Zip":"93030"},{"Location":"OXNARD VACUMMS AND SEWING","Address":"221 S Oxnard Blvd","City":"Oxnard","State":"CA","Zip":"93030"},{"Location":"PACIFIC CLINICS","Address":"141 W 5th St","City":"Oxnard","State":"CA","Zip":"93030"},{"Location":"PAT HOLDENS LIQUOR %40 GIF","Address":"860 S A St","City":"Oxnard","State":"CA","Zip":"93030"},{"Location":"PILARS CAFE","Address":"746 S A St","City":"Oxnard","State":"CA","Zip":"93030"},{"Location":"PIRATES GRUB N GROG","Address":"450 S Victoria Ave","City":"Oxnard","State":"CA","Zip":"93030"},{"Location":"PLAYA AZUL","Address":"10035 South Grant Av B","City":"Oxnard","State":"CA","Zip":"93030"},{"Location":"QUALITY SWISS  PRECISION","Address":"420 Spectrum Cir","City":"Oxnard","State":"CA","Zip":"93030"},{"Location":"RAUL LIQUOR","Address":"942 E 5th St","City":"Oxnard","State":"CA","Zip":"93030"},{"Location":"REITER","Address":"730 S A St","City":"Oxnard","State":"CA","Zip":"93030"},{"Location":"RIO FARMS","Address":"1051 Pacific Ave","City":"Oxnard","State":"CA","Zip":"93030"},{"Location":"ROYAL ARMS INTERNATIONAL","Address":"1300 Graves Ave","City":"Oxnard","State":"CA","Zip":"93030"},{"Location":"RUBYS CAFE","Address":"348 S Oxnard Blvd","City":"Oxnard","State":"CA","Zip":"93030"},{"Location":"SALSA Y AGAVE","Address":"1450 S Oxnard Blvd","City":"Oxnard","State":"CA","Zip":"93030"},{"Location":"SALUD MAS VIDA HEALTH","Address":"120 W 6th St","City":"Oxnard","State":"CA","Zip":"93030"},{"Location":"SANTITOS","Address":"310 Cooper Rd","City":"Oxnard","State":"CA","Zip":"93030"},{"Location":"SANWALL PROPERITIES%2C LLC","Address":"1700 Lombard St","City":"Oxnard","State":"CA","Zip":"93030"},{"Location":"SNOOKY'S","Address":"1657 S Oxnard Blvd","City":"Oxnard","State":"CA","Zip":"93030"},{"Location":"ST JOHN'S REGIONAL IMAGING CTR","Address":"1700 N Rose Ave 110","City":"Oxnard","State":"CA","Zip":"93030"},{"Location":"SUCCESS VALLEY PRODUCE","Address":"841 Commercial Ave","City":"Oxnard","State":"CA","Zip":"93030"},{"Location":"SUGAR BEETS RESTAURANT","Address":"455 S A St","City":"Oxnard","State":"CA","Zip":"93030"},{"Location":"SYSCO FOOD SERVICES OF VENTURA","Address":"3100 Sturgis Rd","City":"Oxnard","State":"CA","Zip":"93030"},{"Location":"TENNIS MACADEY","Address":"801 Hobson Way","City":"Oxnard","State":"CA","Zip":"93030"},{"Location":"TERAPIAS ALTERN AARON INC","Address":"731 N A St","City":"Oxnard","State":"CA","Zip":"93030"},{"Location":"THE KITCHEN","Address":"529 S A St","City":"Oxnard","State":"CA","Zip":"93030"},{"Location":"TINT MAN","Address":"580 E 3rd St D","City":"Oxnard","State":"CA","Zip":"93030"},{"Location":"TORO MEAT MARKET","Address":"300 Cooper Rd","City":"Oxnard","State":"CA","Zip":"93030"},{"Location":"TS69282020000000XXAOXXOXRXTVXX","Address":"2889 W 5th St","City":"Oxnard","State":"CA","Zip":"93030"},{"Location":"US HEALTHWORKS","Address":"1851 Lombard St","City":"Oxnard","State":"CA","Zip":"93030"},{"Location":"VALLARTA SUPERMARKET #21","Address":"1050 S A St","City":"Oxnard","State":"CA","Zip":"93030"},{"Location":"VCFD WILDLAND","Address":"2471 Latigo Ave","City":"Oxnard","State":"CA","Zip":"93030"},{"Location":"VENTURA COUNTY FIRE DEPT","Address":"2451 Latigo Ave","City":"Oxnard","State":"CA","Zip":"93030"},{"Location":"VENTURA FIRE DEPT","Address":"2431 Latigo Ave","City":"Oxnard","State":"CA","Zip":"93030"},{"Location":"VENTURA KOREAN CATHOLIC","Address":"601 S D St","City":"Oxnard","State":"CA","Zip":"93030"},{"Location":"VIVA BILLIARDS","Address":"658 S A St","City":"Oxnard","State":"CA","Zip":"93030"},{"Location":"WATERWAY PLASTICS","Address":"2200 Sturgis Rd","City":"Oxnard","State":"CA","Zip":"93030"},{"Location":"WINS DRIVE-IN","Address":"310 N A St","City":"Oxnard","State":"CA","Zip":"93030"}]