[{"Location":"24 HOUR FITNESS #928","Address":"400 Town Center Dr","City":"Oxnard","State":"CA","Zip":"93036"},{"Location":"ACU THERAPY MASSAGE","Address":"824 Wagon Wheel Rd","City":"Oxnard","State":"CA","Zip":"93036"},{"Location":"AMERICAN LEGION POST 48E","Address":"2101 Auto Center Dr 150","City":"Oxnard","State":"CA","Zip":"93036"},{"Location":"AMIGOS SPORTS BAR & GRILL","Address":"2831 N Vineyard Ave","City":"Oxnard","State":"CA","Zip":"93036"},{"Location":"BJS RESTAURANT #423","Address":"461 W Esplanade Dr","City":"Oxnard","State":"CA","Zip":"93036"},{"Location":"BODEGA VAPE","Address":"220 E Ventura Blvd","City":"Oxnard","State":"CA","Zip":"93036"},{"Location":"BUFFALO WILD WINGS #0301","Address":"1600 E Gonzales Rd","City":"Oxnard","State":"CA","Zip":"93036"},{"Location":"BURGER KING #6439","Address":"2800 Paseo Mercado","City":"Oxnard","State":"CA","Zip":"93036"},{"Location":"CAFE AMRI LLC","Address":"2000 Outlet Center Dr 295","City":"Oxnard","State":"CA","Zip":"93036"},{"Location":"CARMAX #6014","Address":"2001 Lockwood St","City":"Oxnard","State":"CA","Zip":"93036"},{"Location":"CBC FERDERAL CREDIT UNION","Address":"2151 E Gonzales Rd","City":"Oxnard","State":"CA","Zip":"93036"},{"Location":"CHILI'S #0391","Address":"2221 N Rose Ave","City":"Oxnard","State":"CA","Zip":"93036"},{"Location":"COMMUNITY MEMORIAL HOSPITAL FA","Address":"2361 E Vineyard Ave","City":"Oxnard","State":"CA","Zip":"93036"},{"Location":"COURTYARD OXNARD","Address":"600 E Esplanade Dr","City":"Oxnard","State":"CA","Zip":"93036"},{"Location":"DAVITA #5557 OXNARD","Address":"1900 Outlet Center Dr","City":"Oxnard","State":"CA","Zip":"93036"},{"Location":"DCH AUDI OXNARD","Address":"1521 Auto Center Dr","City":"Oxnard","State":"CA","Zip":"93036"},{"Location":"DCH LEXUS OF OXNARD","Address":"1640 Auto Center Dr","City":"Oxnard","State":"CA","Zip":"93036"},{"Location":"DICK'S SPORTING GOODS #1033","Address":"231 W Esplanade Dr","City":"Oxnard","State":"CA","Zip":"93036"},{"Location":"E SIG CITY OXNARD","Address":"2327 N Oxnard Blvd","City":"Oxnard","State":"CA","Zip":"93036"},{"Location":"EL TORITO 7251","Address":"1720 E Ventura Blvd","City":"Oxnard","State":"CA","Zip":"93036"},{"Location":"FAMOUS DAVE'S #3214","Address":"2770 Seaglass Way","City":"Oxnard","State":"CA","Zip":"93036"},{"Location":"FMC 17540000","Address":"1801 Holser Walk 310","City":"Oxnard","State":"CA","Zip":"93036"},{"Location":"FUKUTOMI FARMS INC","Address":"1255 W Gonzales Rd","City":"Oxnard","State":"CA","Zip":"93036"},{"Location":"GIBBS TRUCK CENTERS","Address":"2200 Auto Center Dr","City":"Oxnard","State":"CA","Zip":"93036"},{"Location":"GOLDS GYM OXNARD","Address":"2251 E Gonzales Rd","City":"Oxnard","State":"CA","Zip":"93036"},{"Location":"GOLFSMITH #041","Address":"441 W Esplanade Dr","City":"Oxnard","State":"CA","Zip":"93036"},{"Location":"GREEN ENERGY HOLDINGS","Address":"2460 Auto Center Dr","City":"Oxnard","State":"CA","Zip":"93036"},{"Location":"GREENVALLEY MOTEL","Address":"831 Rosebud Dr","City":"Oxnard","State":"CA","Zip":"93036"},{"Location":"HILTON GARDEN INN OXNARD","Address":"2000 Solar Dr","City":"Oxnard","State":"CA","Zip":"93036"},{"Location":"HOMEWOOD SUITES OXNARD","Address":"1950 Solar Dr","City":"Oxnard","State":"CA","Zip":"93036"},{"Location":"HONDA OF OXNARD","Address":"1500 E Ventura Blvd","City":"Oxnard","State":"CA","Zip":"93036"},{"Location":"IMPRESSIONS SALON","Address":"2362 N Oxnard Blvd","City":"Oxnard","State":"CA","Zip":"93036"},{"Location":"JIFFY LUBE 1575","Address":"101 W Esplanade Dr","City":"Oxnard","State":"CA","Zip":"93036"},{"Location":"K & J AUTO EXCHANGE","Address":"2121 N Oxnard Blvd","City":"Oxnard","State":"CA","Zip":"93036"},{"Location":"KAMPAI BY DAIKOKU","Address":"2367 N Oxnard Blvd","City":"Oxnard","State":"CA","Zip":"93036"},{"Location":"LAGS SPINE AND SPORTS CARE","Address":"2362 N Oxnard Blvd","City":"Oxnard","State":"CA","Zip":"93036"},{"Location":"LARSENS GRILL","Address":"590 Town Center Dr","City":"Oxnard","State":"CA","Zip":"93036"},{"Location":"MAGNOLIA FAMILY MEDICAL","Address":"2240 E Gonzales Rd 100","City":"Oxnard","State":"CA","Zip":"93036"},{"Location":"MARIAS ITALIAN KITCHEN","Address":"2711 Seaglass Way","City":"Oxnard","State":"CA","Zip":"93036"},{"Location":"MARISCOS LA SIRENITA","Address":"2091 N Oxnard Blvd","City":"Oxnard","State":"CA","Zip":"93036"},{"Location":"MEINEKE ECONO LUBE","Address":"2011 N Oxnard Blvd","City":"Oxnard","State":"CA","Zip":"93036"},{"Location":"MEN'S WEARHOUSE #2710","Address":"1991 E Ventura Blvd","City":"Oxnard","State":"CA","Zip":"93036"},{"Location":"MERCEDES BENZ OF OXNARD","Address":"1511 Auto Center Dr","City":"Oxnard","State":"CA","Zip":"93036"},{"Location":"MI PUEBLO MEXICAN GRILL","Address":"150 W Vineyard Ave","City":"Oxnard","State":"CA","Zip":"93036"},{"Location":"MORGAN STANLEY 100244","Address":"300 E Esplanade Dr","City":"Oxnard","State":"CA","Zip":"93036"},{"Location":"MORGAN STANLEY 100244","Address":"300 E Esplanade Dr 10flr","City":"Oxnard","State":"CA","Zip":"93036"},{"Location":"MOUNTAIN VIEW TIRES AND SERVIC","Address":"2341 E Vineyard Ave","City":"Oxnard","State":"CA","Zip":"93036"},{"Location":"NORDSTROM RACK","Address":"261 W Esplanade Dr","City":"Oxnard","State":"CA","Zip":"93036"},{"Location":"OLIVE GARDEN #1340","Address":"1891 E Ventura Blvd 1286","City":"Oxnard","State":"CA","Zip":"93036"},{"Location":"OUTBACK STEAKHOUSE #0566","Address":"2341 Lockwood St","City":"Oxnard","State":"CA","Zip":"93036"},{"Location":"OXNARD DENTAL GROUP","Address":"2379 N Oxnard Blvd","City":"Oxnard","State":"CA","Zip":"93036"},{"Location":"OXNARD ICE SKATING CENTER","Address":"830 Wagon Wheel Rd","City":"Oxnard","State":"CA","Zip":"93036"},{"Location":"PALMS IMAGING CENTER","Address":"1901 Outlet Center Dr 120","City":"Oxnard","State":"CA","Zip":"93036"},{"Location":"PALMS IMAGING CENTER","Address":"1901 Outlet Center Dr 250","City":"Oxnard","State":"CA","Zip":"93036"},{"Location":"PIZZA MAN DANS","Address":"2736 E Vineyard Ave","City":"Oxnard","State":"CA","Zip":"93036"},{"Location":"PORTAL MEXICAN RESTAURANT","Address":"2311 N Oxnard Blvd","City":"Oxnard","State":"CA","Zip":"93036"},{"Location":"PRESTIGE BODYWORKSS","Address":"4121 Southbank Rd","City":"Oxnard","State":"CA","Zip":"93036"},{"Location":"PRIME FLORAL INC","Address":"423 Lambert St","City":"Oxnard","State":"CA","Zip":"93036"},{"Location":"Q CLUB","Address":"2362 N Oxnard Blvd 107","City":"Oxnard","State":"CA","Zip":"93036"},{"Location":"R N C LAN COVERS NURSERY","Address":"2657 Cortez St","City":"Oxnard","State":"CA","Zip":"93036"},{"Location":"RED LOBSTER #0596","Address":"1740 E Ventura Blvd","City":"Oxnard","State":"CA","Zip":"93036"},{"Location":"RESIDENCE INN RIVER RIDG","Address":"2101 W Vineyard Ave","City":"Oxnard","State":"CA","Zip":"93036"},{"Location":"RIVER PARK EXECUTIVE","Address":"1000 Town Center Dr 300","City":"Oxnard","State":"CA","Zip":"93036"},{"Location":"SCOTTRADE Q04","Address":"1660 E Gonzales Rd","City":"Oxnard","State":"CA","Zip":"93036"},{"Location":"SHINE AND SALT","Address":"2121 N Rose Ave","City":"Oxnard","State":"CA","Zip":"93036"},{"Location":"SPANISH HILLS MEDICAL GROUP","Address":"1901 Outlet Center Dr 200","City":"Oxnard","State":"CA","Zip":"93036"},{"Location":"SPEED INSURANCE","Address":"1000 Town Center Dr 100","City":"Oxnard","State":"CA","Zip":"93036"},{"Location":"SPORT CLIPS CA750","Address":"367 W Esplanade Dr","City":"Oxnard","State":"CA","Zip":"93036"},{"Location":"STIFEL NICHOLAUS & CO INC","Address":"1000 Town Center Dr 450","City":"Oxnard","State":"CA","Zip":"93036"},{"Location":"STIX HOLDINGS 742","Address":"369 W Esplanade Dr","City":"Oxnard","State":"CA","Zip":"93036"},{"Location":"TACOS DON CHENTE","Address":"2131 N Oxnard Blvd","City":"Oxnard","State":"CA","Zip":"93036"},{"Location":"TEAM INFINITI","Address":"1701 Auto Center Dr","City":"Oxnard","State":"CA","Zip":"93036"},{"Location":"TEAM NISSAN","Address":"1801 Auto Center Dr","City":"Oxnard","State":"CA","Zip":"93036"},{"Location":"TGI FRIDAY'S #1941","Address":"2181 N Rose Ave","City":"Oxnard","State":"CA","Zip":"93036"},{"Location":"THE LAZY DOG OXNARD","Address":"598 Town Center Dr","City":"Oxnard","State":"CA","Zip":"93036"},{"Location":"THE WOODWORK SHOP","Address":"255 Lambert St 5","City":"Oxnard","State":"CA","Zip":"93036"},{"Location":"TOBY KEITH'S I LOVE THIS BAR","Address":"591 Collection Blvd 4020","City":"Oxnard","State":"CA","Zip":"93036"},{"Location":"TOP NAILS","Address":"2591 E Vineyard Ave","City":"Oxnard","State":"CA","Zip":"93036"},{"Location":"TOPPERS PIZZA","Address":"111 E Gonzales Rd","City":"Oxnard","State":"CA","Zip":"93036"},{"Location":"TOPSTAR FLORAL INC","Address":"4255 W Gonzales Rd","City":"Oxnard","State":"CA","Zip":"93036"},{"Location":"TORO ENTERPRISES%2C INC.","Address":"2101 E Ventura Blvd","City":"Oxnard","State":"CA","Zip":"93036"},{"Location":"TOYOTA OF OXNARD","Address":"1631 Auto Center Dr","City":"Oxnard","State":"CA","Zip":"93036"},{"Location":"VALLARTA SUPERMARKETS1","Address":"2690 Est Vineyard Ave","City":"Oxnard","State":"CA","Zip":"93036"},{"Location":"VALOR HEALTHCARE","Address":"2000 Outlet Center Dr 225","City":"Oxnard","State":"CA","Zip":"93036"},{"Location":"VAPOR FORREST","Address":"808 Wagon Wheel Rd","City":"Oxnard","State":"CA","Zip":"93036"},{"Location":"VENTURA COUNTY EMS","Address":"2220 E Gonzales Rd 130","City":"Oxnard","State":"CA","Zip":"93036"},{"Location":"VENTURA COUNTY PUBLIC HEALTH","Address":"2240 E Gonzales Rd 210","City":"Oxnard","State":"CA","Zip":"93036"},{"Location":"VISTA FORD LINCOLN OF OXNARD","Address":"1501 Auto Center Dr","City":"Oxnard","State":"CA","Zip":"93036"},{"Location":"WHOLE FOODS MARKET","Address":"650 Town Center Dr","City":"Oxnard","State":"CA","Zip":"93036"},{"Location":"WINGSTOP","Address":"1941 N Rose Ave 700","City":"Oxnard","State":"CA","Zip":"93036"},{"Location":"YARD HOUSE 8349","Address":"501 Collection Blvd 4130","City":"Oxnard","State":"CA","Zip":"93036"},{"Location":"YOKOZUNA","Address":"2075 N Oxnard Blvd","City":"Oxnard","State":"CA","Zip":"93036"}]