[{"Location":"","Address":"3712 Saviers Rd","City":"Oxnard","State":"CA","Zip":"93033"},{"Location":"ACTION PAC","Address":"1300 Yarnell Pl","City":"Oxnard","State":"CA","Zip":"93033"},{"Location":"AMAR RANCH MARKET","Address":"1111 E Channel Islands Blvd","City":"Oxnard","State":"CA","Zip":"93033"},{"Location":"AMERICAN DENTAL OFFICE","Address":"2184 Saviers Rd None","City":"Oxnard","State":"CA","Zip":"93033"},{"Location":"AMERICAN TRAVEL","Address":"3595 Saviers Rd","City":"Oxnard","State":"CA","Zip":"93033"},{"Location":"BEST BREAKFAST","Address":"5141 Saviers Rd","City":"Oxnard","State":"CA","Zip":"93033"},{"Location":"BEST CIGARETTES1","Address":"3043 Saviers Rd","City":"Oxnard","State":"CA","Zip":"93033"},{"Location":"BMW OF NORTH AMERICA","Address":"5650 Arcturus Ave","City":"Oxnard","State":"CA","Zip":"93033"},{"Location":"BURGER KING #4518","Address":"2500 S Ventura Rd","City":"Oxnard","State":"CA","Zip":"93033"},{"Location":"CFH SAVIERS","Address":"2921 Saviers Rd","City":"Oxnard","State":"CA","Zip":"93033"},{"Location":"CLARION MANAGEMENT SOLUTIONS","Address":"2141 E Channel Islands Blvd","City":"Oxnard","State":"CA","Zip":"93033"},{"Location":"COMMERCIAL TEST ECOF #9","Address":"545 Del Sur Way","City":"Oxnard","State":"CA","Zip":"93033"},{"Location":"DAVILYN CORPORATION","Address":"1300 Pacific Ave","City":"Oxnard","State":"CA","Zip":"93033"},{"Location":"DHS CBP","Address":"720 W Hueneme Rd","City":"Oxnard","State":"CA","Zip":"93033"},{"Location":"EL MEXICANO 231","Address":"231 W Hueneme Rd","City":"Oxnard","State":"CA","Zip":"93033"},{"Location":"FIESTA AUTO INSURANCE","Address":"2825 Saviers Rd","City":"Oxnard","State":"CA","Zip":"93033"},{"Location":"FITNESS 19 NO. 253","Address":"2721 S Rose Ave","City":"Oxnard","State":"CA","Zip":"93033"},{"Location":"FMC 22790000","Address":"2679 Saviers Rd","City":"Oxnard","State":"CA","Zip":"93033"},{"Location":"FRATERNAL EAGLES LODGE","Address":"4684 Saviers Rd","City":"Oxnard","State":"CA","Zip":"93033"},{"Location":"FRED GAS AND FOOD MART","Address":"3211 Saviers Rd","City":"Oxnard","State":"CA","Zip":"93033"},{"Location":"FREEPORT MCMORAN OIL AND","Address":"760 W Hueneme Rd","City":"Oxnard","State":"CA","Zip":"93033"},{"Location":"GILBERT LLAMAS","Address":"1633 Pacific Ave 145","City":"Oxnard","State":"CA","Zip":"93033"},{"Location":"GOODES LIQUOR","Address":"1271 Saviers Rd","City":"Oxnard","State":"CA","Zip":"93033"},{"Location":"HAIR MECHANIKS","Address":"2827 Saviers Rd","City":"Oxnard","State":"CA","Zip":"93033"},{"Location":"ISLAND PLAZA DENTAL","Address":"2500 Saviers Rd","City":"Oxnard","State":"CA","Zip":"93033"},{"Location":"ISSAC AND FRIENDS","Address":"2530 Geronimo Dr","City":"Oxnard","State":"CA","Zip":"93033"},{"Location":"JERSEY  MIKES SUBS","Address":"2721 S Rose Ave A101","City":"Oxnard","State":"CA","Zip":"93033"},{"Location":"LA VERO MEXICAN FOOD","Address":"1205 Saviers Rd","City":"Oxnard","State":"CA","Zip":"93033"},{"Location":"LAS FAMILY MEDICAL GROUP","Address":"325 W Channel Islands Blvd","City":"Oxnard","State":"CA","Zip":"93033"},{"Location":"LAS ISLAS FAMILY MEDICAL GROUP","Address":"2400 S C St","City":"Oxnard","State":"CA","Zip":"93033"},{"Location":"LV NAILS AND SPA2","Address":"3450 Saviers Rd","City":"Oxnard","State":"CA","Zip":"93033"},{"Location":"M T E","Address":"720 Arcturus Ave 51","City":"Oxnard","State":"CA","Zip":"93033"},{"Location":"MAESTRO CARLOS","Address":"4045 Sabier Rd","City":"Oxnard","State":"CA","Zip":"93033"},{"Location":"MARAVILLA COMM HEALTH CTR","Address":"450 W Clara St","City":"Oxnard","State":"CA","Zip":"93033"},{"Location":"MISSION ACUPRESSURE1","Address":"2228 Saviers Rd","City":"Oxnard","State":"CA","Zip":"93033"},{"Location":"NAIL WORK","Address":"2808 S Ventura Rd","City":"Oxnard","State":"CA","Zip":"93033"},{"Location":"NAUMANN RANCH","Address":"3250 E Hueneme Rd","City":"Oxnard","State":"CA","Zip":"93033"},{"Location":"NICE CUTS","Address":"3624 Saviers Rd","City":"Oxnard","State":"CA","Zip":"93033"},{"Location":"ORIENTAL ACCUPRESSURE MASSAGE","Address":"4235 Saviers Rd","City":"Oxnard","State":"CA","Zip":"93033"},{"Location":"OXNARD FREIGHT LINE","Address":"2650 Stateham Bvld","City":"Oxnard","State":"CA","Zip":"93033"},{"Location":"OXNARD INSURANCE","Address":"434 W Pleasant Valley Rd","City":"Oxnard","State":"CA","Zip":"93033"},{"Location":"OXNARD WASTEWATER TREATMENT","Address":"6001 Perkins Rd","City":"Oxnard","State":"CA","Zip":"93033"},{"Location":"PACIFIC CAFE","Address":"1661 Pacific Ave 11","City":"Oxnard","State":"CA","Zip":"93033"},{"Location":"PACIFIC DENTAL-ROSE DENTAL GRP","Address":"2731 S Rose Ave 101","City":"Oxnard","State":"CA","Zip":"93033"},{"Location":"PANADERIA LA AZTECA","Address":"2424 Saviers Rd","City":"Oxnard","State":"CA","Zip":"93033"},{"Location":"PATRICK OROZCO","Address":"1500 Mariner Dr","City":"Oxnard","State":"CA","Zip":"93033"},{"Location":"PREMIER BARBER AND SHOP","Address":"2676 S Ventura Rd","City":"Oxnard","State":"CA","Zip":"93033"},{"Location":"PRICESS NAILS","Address":"2505 Saviers Rd","City":"Oxnard","State":"CA","Zip":"93033"},{"Location":"RAYS DONUTS","Address":"3734 Saviers Rd","City":"Oxnard","State":"CA","Zip":"93033"},{"Location":"REAL DEAL BOXING","Address":"1161 W Hemlock St","City":"Oxnard","State":"CA","Zip":"93033"},{"Location":"REITER BROTHERS INC","Address":"3404 Hailes Rd","City":"Oxnard","State":"CA","Zip":"93033"},{"Location":"ROBERT GARCIA BOXING","Address":"1451 Pacific Ave","City":"Oxnard","State":"CA","Zip":"93033"},{"Location":"SAM'S SALOON","Address":"3129 Saviers Rd","City":"Oxnard","State":"CA","Zip":"93033"},{"Location":"SANTA BARBARA CERAMIC DESIGN","Address":"1600 Pacific Ave","City":"Oxnard","State":"CA","Zip":"93033"},{"Location":"STARLITE NAILS","Address":"110 W Channel Islands Blvd","City":"Oxnard","State":"CA","Zip":"93033"},{"Location":"TACQUIRIA HERNANDEZ","Address":"3105 Saviers Rd","City":"Oxnard","State":"CA","Zip":"93033"},{"Location":"TIDE WATER MARINE","Address":"640 W Hueneme Rd","City":"Oxnard","State":"CA","Zip":"93033"},{"Location":"TIDE WATER MARINE 2","Address":"640 W Hueneme Rd Tat","City":"Oxnard","State":"CA","Zip":"93033"},{"Location":"TIFRON INC","Address":"1741 Ives Ave","City":"Oxnard","State":"CA","Zip":"93033"},{"Location":"TOP SPIN","Address":"3530 Saviers Rd","City":"Oxnard","State":"CA","Zip":"93033"},{"Location":"TOPPER PIZZA","Address":"2100 Saviers Rd","City":"Oxnard","State":"CA","Zip":"93033"},{"Location":"VAPE CAVIER","Address":"2400 Saviers Rd","City":"Oxnard","State":"CA","Zip":"93033"},{"Location":"VATH  STAN","Address":"1871 Sunkist Cir","City":"Oxnard","State":"CA","Zip":"93033"},{"Location":"VENTURA COUNTY CCOCADMIN","Address":"4000 S Rose Ave","City":"Oxnard","State":"CA","Zip":"93033"},{"Location":"VENTURA COUNTY GAME","Address":"2950 Casper Rd","City":"Oxnard","State":"CA","Zip":"93033"},{"Location":"VOCATIONAL","Address":"4225 Saviers Rd 10","City":"Oxnard","State":"CA","Zip":"93033"},{"Location":"VOCATIONAL SKILLS","Address":"549 W Hueneme Rd","City":"Oxnard","State":"CA","Zip":"93033"},{"Location":"WELL PICK BERRES","Address":"4300 Etting Rd","City":"Oxnard","State":"CA","Zip":"93033"},{"Location":"WESTSIDE STRAWBERRY FARMS","Address":"4100 Etting Rd","City":"Oxnard","State":"CA","Zip":"93033"},{"Location":"YASUBAY JAPANESE RESTAURANT","Address":"1219 Saviers Rd","City":"Oxnard","State":"CA","Zip":"93033"}]