[{"Location":"","Address":"734 Saratoga St","City":"Oxnard","State":"CA","Zip":"93035"},{"Location":"AMERICAN ESTATE AND FINANCIAL","Address":"2840 Harbor Blvd C3","City":"Oxnard","State":"CA","Zip":"93035"},{"Location":"ANABA","Address":"1171 S Victoria Ave","City":"Oxnard","State":"CA","Zip":"93035"},{"Location":"BEYOND THE LIMITS","Address":"1620 Ambrose Ave","City":"Oxnard","State":"CA","Zip":"93035"},{"Location":"BOB AND BOYD BBQ","Address":"3753 W Hemlock St","City":"Oxnard","State":"CA","Zip":"93035"},{"Location":"CGC BLACKTIP","Address":"4201 Victoria Ave","City":"Oxnard","State":"CA","Zip":"93035"},{"Location":"DR HORTON","Address":"1601 S Victoria Ave","City":"Oxnard","State":"CA","Zip":"93035"},{"Location":"DRAGON PALACE","Address":"1651 S Victoria Ave 130","City":"Oxnard","State":"CA","Zip":"93035"},{"Location":"EMBASSY SUITES (0012055)","Address":"2101 Mandalay Beach Rd","City":"Oxnard","State":"CA","Zip":"93035"},{"Location":"FRESCO II ON THE MARINA","Address":"1651 S Victoria Ave","City":"Oxnard","State":"CA","Zip":"93035"},{"Location":"HAMPTON INN OXNARD (0040940)","Address":"3231 Peninsula Rd","City":"Oxnard","State":"CA","Zip":"93035"},{"Location":"KING SPA","Address":"600 S Victoria Ave","City":"Oxnard","State":"CA","Zip":"93035"},{"Location":"MARINA VIEW DENTISTRY","Address":"1601 S Victoria Ave 280","City":"Oxnard","State":"CA","Zip":"93035"},{"Location":"MARINERS MAIL STOP","Address":"3600 Harbor Blvd","City":"Oxnard","State":"CA","Zip":"93035"},{"Location":"OCEANVIEW NAIL SPA","Address":"1601 S Victoria Ave 130","City":"Oxnard","State":"CA","Zip":"93035"},{"Location":"PEPES MEXICAN FOOD","Address":"200 Rossmore Dr","City":"Oxnard","State":"CA","Zip":"93035"},{"Location":"PIZZA MAN DANS","Address":"1601 Victoria Ave","City":"Oxnard","State":"CA","Zip":"93035"},{"Location":"PRIME","Address":"3400 Peninsula Rd","City":"Oxnard","State":"CA","Zip":"93035"},{"Location":"QUEENS PANADERIA","Address":"1045 Patterson Rd","City":"Oxnard","State":"CA","Zip":"93035"},{"Location":"QUINCY STREET LTD","Address":"2405 Roosevelt Blvd","City":"Oxnard","State":"CA","Zip":"93035"},{"Location":"RAY'S BARBER SHOP","Address":"1051 Patterson Rd","City":"Oxnard","State":"CA","Zip":"93035"},{"Location":"ROUND TABLE PIZZA","Address":"1111 S Victoria Ave","City":"Oxnard","State":"CA","Zip":"93035"},{"Location":"ROYAL KING SMOKES","Address":"1601 S Victoria Ave 110","City":"Oxnard","State":"CA","Zip":"93035"},{"Location":"RUDDER ROOM","Address":"2929 Ocean Dr","City":"Oxnard","State":"CA","Zip":"93035"},{"Location":"SEA FRESH CHANNEL ISLAND","Address":"3550 Harbor Blvd 2-101","City":"Oxnard","State":"CA","Zip":"93035"},{"Location":"STA CHANNEL ISLANDS MWR","Address":"4201 Victoria Ave","City":"Oxnard","State":"CA","Zip":"93035"},{"Location":"SURA USA","Address":"1213 S Victoria Ave","City":"Oxnard","State":"CA","Zip":"93035"},{"Location":"THE COLONY","Address":"2101 Vina Del Mar","City":"Oxnard","State":"CA","Zip":"93035"},{"Location":"THE COLONY 1","Address":"2050 San Sebastian Dr","City":"Oxnard","State":"CA","Zip":"93035"},{"Location":"THE LOOKOUT B&G%2C INC.","Address":"2800 Harbor Blvd A","City":"Oxnard","State":"CA","Zip":"93035"},{"Location":"THE SHORES RESTAURANT","Address":"1031 Harbor Blvd","City":"Oxnard","State":"CA","Zip":"93035"},{"Location":"THE WHALE'S TAIL - RS","Address":"3950 Bluefin Cir","City":"Oxnard","State":"CA","Zip":"93035"},{"Location":"TOPPERS PIZZA PLACE","Address":"2701 Peninsula Rd","City":"Oxnard","State":"CA","Zip":"93035"},{"Location":"YOLANDAS OF OXNARD","Address":"1601 S Victoria Ave","City":"Oxnard","State":"CA","Zip":"93035"}]