[{"Location":"A.I.M.D.","Address":"570 11th St 311","City":"Point Mugu Nawc","State":"CA","Zip":"93042"},{"Location":"BUPERS 1","Address":"355 Nar Rd 323","City":"Point Mugu Nawc","State":"CA","Zip":"93042"},{"Location":"CBC FEDERAL CREDIT UNION","Address":"Building  1336 Corner Of","City":"Point Mugu Nawc","State":"CA","Zip":"93042"},{"Location":"FLELOGSUPRON 55 1ST CLASS ASSN","Address":"677 11th St 34","City":"Point Mugu Nawc","State":"CA","Zip":"93042"},{"Location":"MABB POINT MUGU 1","Address":"D St Apt 6","City":"Point Mugu Nawc","State":"CA","Zip":"93042"},{"Location":"MABB POINT MUGU 2","Address":"D St Apt 1","City":"Point Mugu Nawc","State":"CA","Zip":"93042"},{"Location":"MABB SNI","Address":"570 I St","City":"Point Mugu Nawc","State":"CA","Zip":"93042"},{"Location":"MUGUS PIZZA BLDG 1159","Address":"2450 Pt Mugu Point Apt 6","City":"Point Mugu Nawc","State":"CA","Zip":"93042"},{"Location":"NAVAL AIR WARFARE CENTER","Address":"575 I St 1","City":"Point Mugu Nawc","State":"CA","Zip":"93042"},{"Location":"NAVWPNTESTRON- CODE 561000E","Address":"Vx30 Ronald Regan Blvd 372","City":"Point Mugu Nawc","State":"CA","Zip":"93042"},{"Location":"NAVY EXCHANGE","Address":"353 Mugu Rd 16","City":"Point Mugu Nawc","State":"CA","Zip":"93042"},{"Location":"PT. MUGU ATHLETICS","Address":"16 N Mugu Rd Gym","City":"Point Mugu Nawc","State":"CA","Zip":"93042"},{"Location":"A.I.M.D.","Address":"570 11th St 311","City":"Point Mugu Nawc","State":"CA","Zip":"93042"},{"Location":"BUPERS 1","Address":"355 Nar Rd 323","City":"Point Mugu Nawc","State":"CA","Zip":"93042"},{"Location":"CBC FEDERAL CREDIT UNION","Address":"Building  1336 Corner Of","City":"Point Mugu Nawc","State":"CA","Zip":"93042"},{"Location":"FLELOGSUPRON 55 1ST CLASS ASSN","Address":"677 11th St 34","City":"Point Mugu Nawc","State":"CA","Zip":"93042"},{"Location":"MABB POINT MUGU 1","Address":"D St Apt 6","City":"Point Mugu Nawc","State":"CA","Zip":"93042"},{"Location":"MABB POINT MUGU 2","Address":"D St Apt 1","City":"Point Mugu Nawc","State":"CA","Zip":"93042"},{"Location":"MABB SNI","Address":"570 I St","City":"Point Mugu Nawc","State":"CA","Zip":"93042"},{"Location":"MUGUS PIZZA BLDG 1159","Address":"2450 Pt Mugu Point Apt 6","City":"Point Mugu Nawc","State":"CA","Zip":"93042"},{"Location":"NAVAL AIR WARFARE CENTER","Address":"575 I St 1","City":"Point Mugu Nawc","State":"CA","Zip":"93042"},{"Location":"NAVWPNTESTRON- CODE 561000E","Address":"Vx30 Ronald Regan Blvd 372","City":"Point Mugu Nawc","State":"CA","Zip":"93042"},{"Location":"NAVY EXCHANGE","Address":"353 Mugu Rd 16","City":"Point Mugu Nawc","State":"CA","Zip":"93042"},{"Location":"PT. MUGU ATHLETICS","Address":"16 N Mugu Rd Gym","City":"Point Mugu Nawc","State":"CA","Zip":"93042"}]