[{"Location":"ANTONIO'S","Address":"423 E Port Hueneme Rd","City":"Port Hueneme","State":"CA","Zip":"93041"},{"Location":"CA NATIONAL GUARD","Address":"100 Mulcahey Dr","City":"Port Hueneme","State":"CA","Zip":"93041"},{"Location":"COMMUNITY MEMORIAL HOSPITAL","Address":"321 E Tort","City":"Port Hueneme","State":"CA","Zip":"93041"},{"Location":"EL BURRITO DE MEXICO","Address":"453 W Channel Islands Blvd","City":"Port Hueneme","State":"CA","Zip":"93041"},{"Location":"GENTLEMEN'S CUT","Address":"279 E Channel Islands Blvd","City":"Port Hueneme","State":"CA","Zip":"93041"},{"Location":"HOLIDAY INN EXPRESS(0012082)","Address":"350 E Hueneme Rd","City":"Port Hueneme","State":"CA","Zip":"93041"},{"Location":"INKPHILLER STUDIOS","Address":"832 N Ventura Rd","City":"Port Hueneme","State":"CA","Zip":"93041"},{"Location":"JACK IN THE BOX # 5403","Address":"814 N Ventura Rd","City":"Port Hueneme","State":"CA","Zip":"93041"},{"Location":"MANDALAY BEAUTY","Address":"605 W Channel Islands Blvd","City":"Port Hueneme","State":"CA","Zip":"93041"},{"Location":"OCEAN SPA","Address":"546 E Pleasant Valley Rd","City":"Port Hueneme","State":"CA","Zip":"93041"},{"Location":"PASSAGES SILVERSTRAND","Address":"241 Market St","City":"Port Hueneme","State":"CA","Zip":"93041"},{"Location":"PIZZAMAN DAN'S","Address":"307 E Hueneme Rd","City":"Port Hueneme","State":"CA","Zip":"93041"},{"Location":"PORT HUENEME FAMILY DENI","Address":"475 W Channel Islands Blvd 203","City":"Port Hueneme","State":"CA","Zip":"93041"},{"Location":"R&B NUTRITION INC","Address":"625 W Channel Islands Blvd","City":"Port Hueneme","State":"CA","Zip":"93041"},{"Location":"SAIGON PHO","Address":"826 N Ventura Rd","City":"Port Hueneme","State":"CA","Zip":"93041"},{"Location":"SUSHI HOLIT","Address":"669 W Channel Islands Blvd","City":"Port Hueneme","State":"CA","Zip":"93041"},{"Location":"THE OXNARD HARBOR DISTRICT","Address":"333 Ponoma St","City":"Port Hueneme","State":"CA","Zip":"93041"},{"Location":"USA CAR WASH AND DETAIL","Address":"2653 N Ventura Rd","City":"Port Hueneme","State":"CA","Zip":"93041"},{"Location":"VETERANS OF FOREIGN WARS","Address":"300 S Surfside Dr","City":"Port Hueneme","State":"CA","Zip":"93041"},{"Location":"ANTONIO'S","Address":"423 E Port Hueneme Rd","City":"Port Hueneme","State":"CA","Zip":"93041"},{"Location":"CA NATIONAL GUARD","Address":"100 Mulcahey Dr","City":"Port Hueneme","State":"CA","Zip":"93041"},{"Location":"COMMUNITY MEMORIAL HOSPITAL","Address":"321 E Tort","City":"Port Hueneme","State":"CA","Zip":"93041"},{"Location":"EL BURRITO DE MEXICO","Address":"453 W Channel Islands Blvd","City":"Port Hueneme","State":"CA","Zip":"93041"},{"Location":"GENTLEMEN'S CUT","Address":"279 E Channel Islands Blvd","City":"Port Hueneme","State":"CA","Zip":"93041"},{"Location":"HEAD HUNTERS","Address":"263 E Port Hueneme Rd","City":"Port Hueneme","State":"CA","Zip":"93041"},{"Location":"HOLIDAY INN EXPRESS(0012082)","Address":"350 E Hueneme Rd","City":"Port Hueneme","State":"CA","Zip":"93041"},{"Location":"INKPHILLER STUDIOS","Address":"832 N Ventura Rd","City":"Port Hueneme","State":"CA","Zip":"93041"},{"Location":"JACK IN THE BOX # 5403","Address":"814 N Ventura Rd","City":"Port Hueneme","State":"CA","Zip":"93041"},{"Location":"MANDALAY BEAUTY","Address":"605 W Channel Islands Blvd","City":"Port Hueneme","State":"CA","Zip":"93041"},{"Location":"OCEAN SPA","Address":"546 E Pleasant Valley Rd","City":"Port Hueneme","State":"CA","Zip":"93041"},{"Location":"PASSAGES SILVERSTRAND","Address":"241 Market St","City":"Port Hueneme","State":"CA","Zip":"93041"},{"Location":"PIZZAMAN DAN'S","Address":"307 E Hueneme Rd","City":"Port Hueneme","State":"CA","Zip":"93041"},{"Location":"PORT HUENEME FAMILY DENI","Address":"475 W Channel Islands Blvd 203","City":"Port Hueneme","State":"CA","Zip":"93041"},{"Location":"R&B NUTRITION INC","Address":"625 W Channel Islands Blvd","City":"Port Hueneme","State":"CA","Zip":"93041"},{"Location":"SAIGON PHO","Address":"826 N Ventura Rd","City":"Port Hueneme","State":"CA","Zip":"93041"},{"Location":"SUSHI HOLIT","Address":"669 W Channel Islands Blvd","City":"Port Hueneme","State":"CA","Zip":"93041"},{"Location":"THE OXNARD HARBOR DISTRICT","Address":"333 Ponoma St","City":"Port Hueneme","State":"CA","Zip":"93041"},{"Location":"USA CAR WASH AND DETAIL","Address":"2653 N Ventura Rd","City":"Port Hueneme","State":"CA","Zip":"93041"},{"Location":"VETERANS OF FOREIGN WARS","Address":"300 S Surfside Dr","City":"Port Hueneme","State":"CA","Zip":"93041"}]