[{"Location":"KNOLES MARKET","Address":"1415 Kuehner Dr","City":"Santa Susana","State":"CA","Zip":"93063"},{"Location":"24 HOUR FITNESS #903","Address":"2350 Tapo St","City":"Simi Valley","State":"CA","Zip":"93063"},{"Location":"ABM NUGGET INC","Address":"4435 Cochran St","City":"Simi Valley","State":"CA","Zip":"93063"},{"Location":"AMY NAILS","Address":"5722 E Los Angeles Ave","City":"Simi Valley","State":"CA","Zip":"93063"},{"Location":"ASHES HOOKAH","Address":"2297 Tapo St","City":"Simi Valley","State":"CA","Zip":"93063"},{"Location":"BANK OF AMERICA CA6-913-01-02","Address":"1757 Tapo Canyon Rd 1","City":"Simi Valley","State":"CA","Zip":"93063"},{"Location":"BANK OF AMERICA CA6-914-01-21","Address":"1800 Tapo Canyon Rd","City":"Simi Valley","State":"CA","Zip":"93063"},{"Location":"BAYSIDE DONUT","Address":"5820 E Los Angeles Ave B","City":"Simi Valley","State":"CA","Zip":"93063"},{"Location":"BIG Z","Address":"2428 Stearns St","City":"Simi Valley","State":"CA","Zip":"93063"},{"Location":"BILL GOULD DENTAL LAB","Address":"4615 Industrial St 1x","City":"Simi Valley","State":"CA","Zip":"93063"},{"Location":"CHANAIL NAIL SPA","Address":"4363 Township Ave","City":"Simi Valley","State":"CA","Zip":"93063"},{"Location":"CHEF BURGER 2","Address":"4379 Township Ave","City":"Simi Valley","State":"CA","Zip":"93063"},{"Location":"CHUY'S BAJA BROILER","Address":"5840 E Los Angeles Ave","City":"Simi Valley","State":"CA","Zip":"93063"},{"Location":"CLEAR IMAGE POOL MART","Address":"4368 Cochran St","City":"Simi Valley","State":"CA","Zip":"93063"},{"Location":"CUSTOM GLASS SPECIALISTS","Address":"4536 Ish Dr","City":"Simi Valley","State":"CA","Zip":"93063"},{"Location":"DANDY AMUSEMENT","Address":"4109 Guardian St","City":"Simi Valley","State":"CA","Zip":"93063"},{"Location":"DIKEYS BBQ SM VALLY","Address":"2902 Tapo Canyon Rd B","City":"Simi Valley","State":"CA","Zip":"93063"},{"Location":"DON CUCOS MEXICAN","Address":"3991 Cochran St","City":"Simi Valley","State":"CA","Zip":"93063"},{"Location":"DOUBLE TUNA II","Address":"2775 Tapo St 102","City":"Simi Valley","State":"CA","Zip":"93063"},{"Location":"EDM SERVICES","Address":"4100 Guardian St 250","City":"Simi Valley","State":"CA","Zip":"93063"},{"Location":"EL PASEO NAILS","Address":"2906 Tapo Canyon Rd","City":"Simi Valley","State":"CA","Zip":"93063"},{"Location":"EL PATIO CANTINA","Address":"1925 Tapo St","City":"Simi Valley","State":"CA","Zip":"93063"},{"Location":"ELKS SIMI VALLEY","Address":"1561 Kuehner Dr","City":"Simi Valley","State":"CA","Zip":"93063"},{"Location":"FAMILY MONGOLIAN BBQ","Address":"2321 Tapo St","City":"Simi Valley","State":"CA","Zip":"93063"},{"Location":"FERRUM ENGINEERING","Address":"4412 Ish Dr","City":"Simi Valley","State":"CA","Zip":"93063"},{"Location":"FRESH KOREA BBQ","Address":"2381 Papo St  #ab","City":"Simi Valley","State":"CA","Zip":"93063"},{"Location":"GONZALEZ DENTAL GROUP","Address":"2139 Tapo St 101","City":"Simi Valley","State":"CA","Zip":"93063"},{"Location":"GRETAS GUNS LLC","Address":"4228 E Los Angeles Ave","City":"Simi Valley","State":"CA","Zip":"93063"},{"Location":"HARLEY'S VALLEY BOWLING","Address":"5255 Cochran St","City":"Simi Valley","State":"CA","Zip":"93063"},{"Location":"HEADLINERS","Address":"3977 Cochran St B1","City":"Simi Valley","State":"CA","Zip":"93063"},{"Location":"HOTEL INTERNET SERVICES","Address":"4596 Ish Dr 200","City":"Simi Valley","State":"CA","Zip":"93063"},{"Location":"I BODY SLIM LLC","Address":"2311 Tapo St","City":"Simi Valley","State":"CA","Zip":"93063"},{"Location":"INTERSTATE VAPE SIMI","Address":"3885 Cochran St V","City":"Simi Valley","State":"CA","Zip":"93063"},{"Location":"ISLAND HELP AND FITNESS","Address":"5750 E Los Angeles Ave","City":"Simi Valley","State":"CA","Zip":"93063"},{"Location":"ITS","Address":"4100 Guardian St 110","City":"Simi Valley","State":"CA","Zip":"93063"},{"Location":"J S LLC","Address":"4610 E Los Angeles Ave C","City":"Simi Valley","State":"CA","Zip":"93063"},{"Location":"JIFFY LUBE 0682","Address":"4426 E Los Angeles Ave","City":"Simi Valley","State":"CA","Zip":"93063"},{"Location":"JM MISSION BURRITO","Address":"2161 Tapo St","City":"Simi Valley","State":"CA","Zip":"93063"},{"Location":"JUDGE ROY BEAN'S","Address":"2780 Tapo Canyon Rd B4","City":"Simi Valley","State":"CA","Zip":"93063"},{"Location":"KALBIBBQ","Address":"1970 Sequoia Ave","City":"Simi Valley","State":"CA","Zip":"93063"},{"Location":"KEN OF SUSHI","Address":"4340 Cochran St","City":"Simi Valley","State":"CA","Zip":"93063"},{"Location":"KOHL'S #605","Address":"2950 Tapo Canyon Rd","City":"Simi Valley","State":"CA","Zip":"93063"},{"Location":"LOGIX","Address":"2944 Tapo Canyon Rd","City":"Simi Valley","State":"CA","Zip":"93063"},{"Location":"LOPEZ INSURANCE","Address":"2355 Tapo St 11","City":"Simi Valley","State":"CA","Zip":"93063"},{"Location":"LUBE PIT STOP","Address":"4560 E Los Angeles Ave","City":"Simi Valley","State":"CA","Zip":"93063"},{"Location":"MACARONI GRILL #1307","Address":"2920 Tapo Canyon Rd","City":"Simi Valley","State":"CA","Zip":"93063"},{"Location":"MACHINERY MANAGEMENT INC","Address":"1650 Voyager Ave","City":"Simi Valley","State":"CA","Zip":"93063"},{"Location":"MAGNIFICENT HEALTHCARE SYSTEMS","Address":"5924 E Los Angeles Ave S","City":"Simi Valley","State":"CA","Zip":"93063"},{"Location":"MCDONALDS","Address":"2605 Yosemite Ave","City":"Simi Valley","State":"CA","Zip":"93063"},{"Location":"MOUNT SINAI #2","Address":"6150 Mount Sinai Dr","City":"Simi Valley","State":"CA","Zip":"93063"},{"Location":"MOUNTAIN GEOLOGY  INC.","Address":"5158 Cochran St","City":"Simi Valley","State":"CA","Zip":"93063"},{"Location":"NELSON CONCRETE DRILLING","Address":"4565 Industrial St","City":"Simi Valley","State":"CA","Zip":"93063"},{"Location":"NUMERO UNO PIZZA","Address":"1960 Sequoia Ave 6","City":"Simi Valley","State":"CA","Zip":"93063"},{"Location":"O2 SUSHI","Address":"2902 Tapo Canyon Rd","City":"Simi Valley","State":"CA","Zip":"93063"},{"Location":"OLD SUSANA CAFE","Address":"1555 Kuehner Dr","City":"Simi Valley","State":"CA","Zip":"93063"},{"Location":"OMEGA SUSHI","Address":"5830 E Los Angeles Ave","City":"Simi Valley","State":"CA","Zip":"93063"},{"Location":"OUR HOUSE BAR & GRILL","Address":"4250 E Los Angeles Ave","City":"Simi Valley","State":"CA","Zip":"93063"},{"Location":"PACIFIC DENTAL-SIMI VALLEY 2","Address":"2650 Tapo Canyon Rd 107","City":"Simi Valley","State":"CA","Zip":"93063"},{"Location":"PANDA BOWL","Address":"2311 Tapo St A","City":"Simi Valley","State":"CA","Zip":"93063"},{"Location":"PARTNERSHIP OF PREFERRED","Address":"5956 E Los Angeles Ave 2","City":"Simi Valley","State":"CA","Zip":"93063"},{"Location":"PASSION NAILS","Address":"5956 E Los Angeles Ave","City":"Simi Valley","State":"CA","Zip":"93063"},{"Location":"PEPPERJACS GRILL","Address":"5231 Cochran St","City":"Simi Valley","State":"CA","Zip":"93063"},{"Location":"PORT TO PORT IMPORT EXPO","Address":"3949 Heritage Oak Ct","City":"Simi Valley","State":"CA","Zip":"93063"},{"Location":"PURE WATER AND PLUMBING INC","Address":"4276 Valley Fair St","City":"Simi Valley","State":"CA","Zip":"93063"},{"Location":"PW GILLIBRAND COMPANY INC","Address":"4537 Ish Dr","City":"Simi Valley","State":"CA","Zip":"93063"},{"Location":"R AND D INC","Address":"4166 E Los Angeles Ave","City":"Simi Valley","State":"CA","Zip":"93063"},{"Location":"ROSSI LAW GROUP","Address":"3713 Alamo St 101","City":"Simi Valley","State":"CA","Zip":"93063"},{"Location":"S BARRETT INSURANCE  INC","Address":"2775 Tapo St 203","City":"Simi Valley","State":"CA","Zip":"93063"},{"Location":"SAKE 2 ME - SIMI VALLEY","Address":"3921 Cochran St","City":"Simi Valley","State":"CA","Zip":"93063"},{"Location":"SAMS LIQUOR","Address":"2395 Tapo St","City":"Simi Valley","State":"CA","Zip":"93063"},{"Location":"SEASON TICKET SPORTS BAR","Address":"5710 E Los Angeles Ave","City":"Simi Valley","State":"CA","Zip":"93063"},{"Location":"SEMI VALLEY CAR WASH","Address":"2068 Tapo St","City":"Simi Valley","State":"CA","Zip":"93063"},{"Location":"SIMI  HILLS  GOLF  COURSE","Address":"5031 Alamo St","City":"Simi Valley","State":"CA","Zip":"93063"},{"Location":"SIMI BILLIARD PLAZA","Address":"2261 Tapo St","City":"Simi Valley","State":"CA","Zip":"93063"},{"Location":"SIMI VALLEY POLICE DEPT","Address":"3901 Alamo St","City":"Simi Valley","State":"CA","Zip":"93063"},{"Location":"SIMI VALLEY ROOFING SUPPLY","Address":"4845 E Los Angeles Ave","City":"Simi Valley","State":"CA","Zip":"93063"},{"Location":"SOUTHERN CALIFORNIA SITE WORKS","Address":"4496 Industrial St","City":"Simi Valley","State":"CA","Zip":"93063"},{"Location":"STEARNS PETROLEUM","Address":"2605 Stearns St","City":"Simi Valley","State":"CA","Zip":"93063"},{"Location":"STUDIO 7","Address":"5829 E Los Angeles Ave","City":"Simi Valley","State":"CA","Zip":"93063"},{"Location":"SUKI SUSHI","Address":"5708 E Los Angeles Ave","City":"Simi Valley","State":"CA","Zip":"93063"},{"Location":"SUPERCUTS #8783","Address":"2691 Tapo Canyon Rd B","City":"Simi Valley","State":"CA","Zip":"93063"},{"Location":"SUTTERS MILL","Address":"3885 Cochran St","City":"Simi Valley","State":"CA","Zip":"93063"},{"Location":"T MOBILE 4235100084","Address":"4585 Runway St","City":"Simi Valley","State":"CA","Zip":"93063"},{"Location":"TAILORMADE DRY CLEANERS","Address":"2070 Tapo St","City":"Simi Valley","State":"CA","Zip":"93063"},{"Location":"TGI FRIDAY'S #1951","Address":"2795 Tapo Canyon Rd","City":"Simi Valley","State":"CA","Zip":"93063"},{"Location":"THAI COTTAGE","Address":"2139 Tapo St 117","City":"Simi Valley","State":"CA","Zip":"93063"},{"Location":"THAI HOUSE RESTAURANT","Address":"2311 Tapo St B","City":"Simi Valley","State":"CA","Zip":"93063"},{"Location":"THE CHOP SHOP","Address":"4351 Valley Fair St","City":"Simi Valley","State":"CA","Zip":"93063"},{"Location":"THE EAST COAST PIZZA COMPANY","Address":"2667 Tapo Canyon Rd F","City":"Simi Valley","State":"CA","Zip":"93063"},{"Location":"UNION BANK","Address":"2930 Tapo Canyon Rd","City":"Simi Valley","State":"CA","Zip":"93063"},{"Location":"US NAIL","Address":"5105 E Los Angeles Ave G","City":"Simi Valley","State":"CA","Zip":"93063"},{"Location":"VCFD STA 43 FRONT OFFICE","Address":"5874 E Los Angeles Ave","City":"Simi Valley","State":"CA","Zip":"93063"},{"Location":"VCFD STATION 43","Address":"5847 E Los Angeles Ave","City":"Simi Valley","State":"CA","Zip":"93063"},{"Location":"VFW POST 10049","Address":"4242 E Los Angeles Ave","City":"Simi Valley","State":"CA","Zip":"93063"},{"Location":"VINTAGE SIMI HILLS PO","Address":"5300 E Los Angeles Ave","City":"Simi Valley","State":"CA","Zip":"93063"},{"Location":"VJ INSURANCE SERVICES INC","Address":"2355 Tapo St 4","City":"Simi Valley","State":"CA","Zip":"93063"},{"Location":"WHITE RHINO INDUSTRIES INC","Address":"4450 Shopping Ln","City":"Simi Valley","State":"CA","Zip":"93063"},{"Location":"WINTHER AND COMPANY","Address":"3325 Cochran St","City":"Simi Valley","State":"CA","Zip":"93063"},{"Location":"ZAK DENTAL","Address":"4537 Alamo St A","City":"Simi Valley","State":"CA","Zip":"93063"},{"Location":"KNOLES MARKET","Address":"1415 Kuehner Dr","City":"Santa Susana","State":"CA","Zip":"93063"},{"Location":"24 HOUR FITNESS #903","Address":"2350 Tapo St","City":"Simi Valley","State":"CA","Zip":"93063"},{"Location":"ABM NUGGET INC","Address":"4435 Cochran St","City":"Simi Valley","State":"CA","Zip":"93063"},{"Location":"AMY NAILS","Address":"5722 E Los Angeles Ave","City":"Simi Valley","State":"CA","Zip":"93063"},{"Location":"ASHES HOOKAH","Address":"2297 Tapo St","City":"Simi Valley","State":"CA","Zip":"93063"},{"Location":"BANK OF AMERICA CA6-913-01-02","Address":"1757 Tapo Canyon Rd 1","City":"Simi Valley","State":"CA","Zip":"93063"},{"Location":"BANK OF AMERICA CA6-914-01-21","Address":"1800 Tapo Canyon Rd","City":"Simi Valley","State":"CA","Zip":"93063"},{"Location":"BAYSIDE DONUT","Address":"5820 E Los Angeles Ave B","City":"Simi Valley","State":"CA","Zip":"93063"},{"Location":"BIG Z","Address":"2428 Stearns St","City":"Simi Valley","State":"CA","Zip":"93063"},{"Location":"BILL GOULD DENTAL LAB","Address":"4615 Industrial St 1x","City":"Simi Valley","State":"CA","Zip":"93063"},{"Location":"CHANAIL NAIL SPA","Address":"4363 Township Ave","City":"Simi Valley","State":"CA","Zip":"93063"},{"Location":"CHEF BURGER 2","Address":"4379 Township Ave","City":"Simi Valley","State":"CA","Zip":"93063"},{"Location":"CHUY'S BAJA BROILER","Address":"5840 E Los Angeles Ave","City":"Simi Valley","State":"CA","Zip":"93063"},{"Location":"CLEAR IMAGE POOL MART","Address":"4368 Cochran St","City":"Simi Valley","State":"CA","Zip":"93063"},{"Location":"CUSTOM GLASS SPECIALISTS","Address":"4536 Ish Dr","City":"Simi Valley","State":"CA","Zip":"93063"},{"Location":"DANDY AMUSEMENT","Address":"4109 Guardian St","City":"Simi Valley","State":"CA","Zip":"93063"},{"Location":"DIKEYS BBQ SM VALLY","Address":"2902 Tapo Canyon Rd B","City":"Simi Valley","State":"CA","Zip":"93063"},{"Location":"DON CUCOS MEXICAN","Address":"3991 Cochran St","City":"Simi Valley","State":"CA","Zip":"93063"},{"Location":"DOUBLE TUNA II","Address":"2775 Tapo St 102","City":"Simi Valley","State":"CA","Zip":"93063"},{"Location":"EDM SERVICES","Address":"4100 Guardian St 250","City":"Simi Valley","State":"CA","Zip":"93063"},{"Location":"EL PASEO NAILS","Address":"2906 Tapo Canyon Rd","City":"Simi Valley","State":"CA","Zip":"93063"},{"Location":"EL PATIO CANTINA","Address":"1925 Tapo St","City":"Simi Valley","State":"CA","Zip":"93063"},{"Location":"ELKS SIMI VALLEY","Address":"1561 Kuehner Dr","City":"Simi Valley","State":"CA","Zip":"93063"},{"Location":"FAMILY MONGOLIAN BBQ","Address":"2321 Tapo St","City":"Simi Valley","State":"CA","Zip":"93063"},{"Location":"FERRUM ENGINEERING","Address":"4412 Ish Dr","City":"Simi Valley","State":"CA","Zip":"93063"},{"Location":"FRESH KOREA BBQ","Address":"2381 Papo St  #ab","City":"Simi Valley","State":"CA","Zip":"93063"},{"Location":"GONZALEZ DENTAL GROUP","Address":"2139 Tapo St 101","City":"Simi Valley","State":"CA","Zip":"93063"},{"Location":"GRETAS GUNS LLC","Address":"4228 E Los Angeles Ave","City":"Simi Valley","State":"CA","Zip":"93063"},{"Location":"HARLEY'S VALLEY BOWLING","Address":"5255 Cochran St","City":"Simi Valley","State":"CA","Zip":"93063"},{"Location":"HEADLINERS","Address":"3977 Cochran St B1","City":"Simi Valley","State":"CA","Zip":"93063"},{"Location":"HOTEL INTERNET SERVICES","Address":"4596 Ish Dr 200","City":"Simi Valley","State":"CA","Zip":"93063"},{"Location":"I BODY SLIM LLC","Address":"2311 Tapo St","City":"Simi Valley","State":"CA","Zip":"93063"},{"Location":"INAILS","Address":"5833 E Los Angeles Ave","City":"Simi Valley","State":"CA","Zip":"93063"},{"Location":"INTERSTATE VAPE SIMI","Address":"3885 Cochran St V","City":"Simi Valley","State":"CA","Zip":"93063"},{"Location":"ISLAND HELP AND FITNESS","Address":"5750 E Los Angeles Ave","City":"Simi Valley","State":"CA","Zip":"93063"},{"Location":"ITS","Address":"4100 Guardian St 110","City":"Simi Valley","State":"CA","Zip":"93063"},{"Location":"J S LLC","Address":"4610 E Los Angeles Ave C","City":"Simi Valley","State":"CA","Zip":"93063"},{"Location":"JIFFY LUBE 0682","Address":"4426 E Los Angeles Ave","City":"Simi Valley","State":"CA","Zip":"93063"},{"Location":"JM MISSION BURRITO","Address":"2161 Tapo St","City":"Simi Valley","State":"CA","Zip":"93063"},{"Location":"JUDGE ROY BEAN'S","Address":"2780 Tapo Canyon Rd B4","City":"Simi Valley","State":"CA","Zip":"93063"},{"Location":"KALBIBBQ","Address":"1970 Sequoia Ave","City":"Simi Valley","State":"CA","Zip":"93063"},{"Location":"KEN OF SUSHI","Address":"4340 Cochran St","City":"Simi Valley","State":"CA","Zip":"93063"},{"Location":"KOHL'S #605","Address":"2950 Tapo Canyon Rd","City":"Simi Valley","State":"CA","Zip":"93063"},{"Location":"LOGIX","Address":"2944 Tapo Canyon Rd","City":"Simi Valley","State":"CA","Zip":"93063"},{"Location":"LOPEZ INSURANCE","Address":"2355 Tapo St 11","City":"Simi Valley","State":"CA","Zip":"93063"},{"Location":"LUBE PIT STOP","Address":"4560 E Los Angeles Ave","City":"Simi Valley","State":"CA","Zip":"93063"},{"Location":"MACARONI GRILL #1307","Address":"2920 Tapo Canyon Rd","City":"Simi Valley","State":"CA","Zip":"93063"},{"Location":"MACHINERY MANAGEMENT INC","Address":"1650 Voyager Ave","City":"Simi Valley","State":"CA","Zip":"93063"},{"Location":"MAGNIFICENT HEALTHCARE SYSTEMS","Address":"5924 E Los Angeles Ave S","City":"Simi Valley","State":"CA","Zip":"93063"},{"Location":"MCDONALDS","Address":"2605 Yosemite Ave","City":"Simi Valley","State":"CA","Zip":"93063"},{"Location":"MOUNT SINAI #2","Address":"6150 Mount Sinai Dr","City":"Simi Valley","State":"CA","Zip":"93063"},{"Location":"MOUNTAIN GEOLOGY  INC.","Address":"5158 Cochran St","City":"Simi Valley","State":"CA","Zip":"93063"},{"Location":"NELSON CONCRETE DRILLING","Address":"4565 Industrial St","City":"Simi Valley","State":"CA","Zip":"93063"},{"Location":"NUMERO UNO PIZZA","Address":"1960 Sequoia Ave 6","City":"Simi Valley","State":"CA","Zip":"93063"},{"Location":"O2 SUSHI","Address":"2902 Tapo Canyon Rd","City":"Simi Valley","State":"CA","Zip":"93063"},{"Location":"OLD SUSANA CAFE","Address":"1555 Kuehner Dr","City":"Simi Valley","State":"CA","Zip":"93063"},{"Location":"OMEGA SUSHI","Address":"5830 E Los Angeles Ave","City":"Simi Valley","State":"CA","Zip":"93063"},{"Location":"OUR HOUSE BAR & GRILL","Address":"4250 E Los Angeles Ave","City":"Simi Valley","State":"CA","Zip":"93063"},{"Location":"PACIFIC DENTAL-SIMI VALLEY 2","Address":"2650 Tapo Canyon Rd 107","City":"Simi Valley","State":"CA","Zip":"93063"},{"Location":"PANDA BOWL","Address":"2311 Tapo St A","City":"Simi Valley","State":"CA","Zip":"93063"},{"Location":"PARTNERSHIP OF PREFERRED","Address":"5956 E Los Angeles Ave 2","City":"Simi Valley","State":"CA","Zip":"93063"},{"Location":"PEPPERJACS GRILL","Address":"5231 Cochran St","City":"Simi Valley","State":"CA","Zip":"93063"},{"Location":"PORT TO PORT IMPORT EXPO","Address":"3949 Heritage Oak Ct","City":"Simi Valley","State":"CA","Zip":"93063"},{"Location":"PURE WATER AND PLUMBING INC","Address":"4276 Valley Fair St","City":"Simi Valley","State":"CA","Zip":"93063"},{"Location":"PW GILLIBRAND COMPANY INC","Address":"4537 Ish Dr","City":"Simi Valley","State":"CA","Zip":"93063"},{"Location":"R AND D INC","Address":"4166 E Los Angeles Ave","City":"Simi Valley","State":"CA","Zip":"93063"},{"Location":"ROSSI LAW GROUP","Address":"3713 Alamo St 101","City":"Simi Valley","State":"CA","Zip":"93063"},{"Location":"S BARRETT INSURANCE  INC","Address":"2775 Tapo St 203","City":"Simi Valley","State":"CA","Zip":"93063"},{"Location":"SAKE 2 ME - SIMI VALLEY","Address":"3921 Cochran St","City":"Simi Valley","State":"CA","Zip":"93063"},{"Location":"SAMS LIQUOR","Address":"2395 Tapo St","City":"Simi Valley","State":"CA","Zip":"93063"},{"Location":"SEASON TICKET SPORTS BAR","Address":"5710 E Los Angeles Ave","City":"Simi Valley","State":"CA","Zip":"93063"},{"Location":"SEMI VALLEY CAR WASH","Address":"2068 Tapo St","City":"Simi Valley","State":"CA","Zip":"93063"},{"Location":"SIMI  HILLS  GOLF  COURSE","Address":"5031 Alamo St","City":"Simi Valley","State":"CA","Zip":"93063"},{"Location":"SIMI BILLIARD PLAZA","Address":"2261 Tapo St","City":"Simi Valley","State":"CA","Zip":"93063"},{"Location":"SIMI VALLEY POLICE DEPT","Address":"3901 Alamo St","City":"Simi Valley","State":"CA","Zip":"93063"},{"Location":"SIMI VALLEY ROOFING SUPPLY","Address":"4845 E Los Angeles Ave","City":"Simi Valley","State":"CA","Zip":"93063"},{"Location":"SOUTHERN CALIFORNIA SITE WORKS","Address":"4496 Industrial St","City":"Simi Valley","State":"CA","Zip":"93063"},{"Location":"STEARNS PETROLEUM","Address":"2605 Stearns St","City":"Simi Valley","State":"CA","Zip":"93063"},{"Location":"STUDIO 7","Address":"5829 E Los Angeles Ave","City":"Simi Valley","State":"CA","Zip":"93063"},{"Location":"SUKI SUSHI","Address":"5708 E Los Angeles Ave","City":"Simi Valley","State":"CA","Zip":"93063"},{"Location":"SUPERCUTS #8783","Address":"2691 Tapo Canyon Rd B","City":"Simi Valley","State":"CA","Zip":"93063"},{"Location":"SUTTERS MILL","Address":"3885 Cochran St","City":"Simi Valley","State":"CA","Zip":"93063"},{"Location":"T MOBILE 4235100084","Address":"4585 Runway St","City":"Simi Valley","State":"CA","Zip":"93063"},{"Location":"TAILORMADE DRY CLEANERS","Address":"2070 Tapo St","City":"Simi Valley","State":"CA","Zip":"93063"},{"Location":"TGI FRIDAY'S #1951","Address":"2795 Tapo Canyon Rd","City":"Simi Valley","State":"CA","Zip":"93063"},{"Location":"THAI COTTAGE","Address":"2139 Tapo St 117","City":"Simi Valley","State":"CA","Zip":"93063"},{"Location":"THAI HOUSE RESTAURANT","Address":"2311 Tapo St B","City":"Simi Valley","State":"CA","Zip":"93063"},{"Location":"THE CHOP SHOP","Address":"4351 Valley Fair St","City":"Simi Valley","State":"CA","Zip":"93063"},{"Location":"THE EAST COAST PIZZA COMPANY","Address":"2667 Tapo Canyon Rd F","City":"Simi Valley","State":"CA","Zip":"93063"},{"Location":"UNION BANK","Address":"2930 Tapo Canyon Rd","City":"Simi Valley","State":"CA","Zip":"93063"},{"Location":"US NAIL","Address":"5105 E Los Angeles Ave G","City":"Simi Valley","State":"CA","Zip":"93063"},{"Location":"VCFD STA 43 FRONT OFFICE","Address":"5874 E Los Angeles Ave","City":"Simi Valley","State":"CA","Zip":"93063"},{"Location":"VCFD STATION 43","Address":"5847 E Los Angeles Ave","City":"Simi Valley","State":"CA","Zip":"93063"},{"Location":"VFW POST 10049","Address":"4242 E Los Angeles Ave","City":"Simi Valley","State":"CA","Zip":"93063"},{"Location":"VINTAGE SIMI HILLS PO","Address":"5300 E Los Angeles Ave","City":"Simi Valley","State":"CA","Zip":"93063"},{"Location":"VJ INSURANCE SERVICES INC","Address":"2355 Tapo St 4","City":"Simi Valley","State":"CA","Zip":"93063"},{"Location":"WHITE RHINO INDUSTRIES INC","Address":"4450 Shopping Ln","City":"Simi Valley","State":"CA","Zip":"93063"},{"Location":"WINTHER AND COMPANY","Address":"3325 Cochran St","City":"Simi Valley","State":"CA","Zip":"93063"},{"Location":"ZAK DENTAL","Address":"4537 Alamo St A","City":"Simi Valley","State":"CA","Zip":"93063"}]