[{"Location":"DGI","Address":"7401 Balcom Canyon Rd","City":"Somis","State":"CA","Zip":"93066"},{"Location":"HUMPFREY GIACOPUZZI VET HOSPIT","Address":"4774 Donlon Rd","City":"Somis","State":"CA","Zip":"93066"},{"Location":"PARAMOUNT CITRUS","Address":"4381 Berylwood Rd","City":"Somis","State":"CA","Zip":"93066"},{"Location":"SATICOY COUNTRY CLUB","Address":"4450 Clubhouse Dr","City":"Somis","State":"CA","Zip":"93066"},{"Location":"SOMIS CAFE","Address":"3319 Somis Rd","City":"Somis","State":"CA","Zip":"93066"},{"Location":"TERRA BELLA FARMS","Address":"4790 Sand Canyon Rd","City":"Somis","State":"CA","Zip":"93066"},{"Location":"VENTURA WALNUT","Address":"4475 E Los Angeles Ave","City":"Somis","State":"CA","Zip":"93066"},{"Location":"DGI","Address":"7401 Balcom Canyon Rd","City":"Somis","State":"CA","Zip":"93066"},{"Location":"HUMPFREY GIACOPUZZI VET HOSPIT","Address":"4774 Donlon Rd","City":"Somis","State":"CA","Zip":"93066"},{"Location":"PARAMOUNT CITRUS","Address":"4381 Berylwood Rd","City":"Somis","State":"CA","Zip":"93066"},{"Location":"SATICOY COUNTRY CLUB","Address":"4450 Clubhouse Dr","City":"Somis","State":"CA","Zip":"93066"},{"Location":"SOMIS CAFE","Address":"3319 Somis Rd","City":"Somis","State":"CA","Zip":"93066"},{"Location":"TERRA BELLA FARMS","Address":"4790 Sand Canyon Rd","City":"Somis","State":"CA","Zip":"93066"},{"Location":"VENTURA WALNUT","Address":"4475 E Los Angeles Ave","City":"Somis","State":"CA","Zip":"93066"}]