[{"Location":"ARP","Address":"1760 E Lemonwood Dr","City":"Santa Paula","State":"CA","Zip":"93060"},{"Location":"AUTOMOTIVE RACING PRODUCTS","Address":"118 W Santa Barbara St","City":"Santa Paula","State":"CA","Zip":"93060"},{"Location":"BENDPAKINC","Address":"1645 E Lemonwood Dr","City":"Santa Paula","State":"CA","Zip":"93060"},{"Location":"CHILI HUT CAFE","Address":"817 E Main St","City":"Santa Paula","State":"CA","Zip":"93060"},{"Location":"CITY OF SANTA PAULA","Address":"970 E Ventura St","City":"Santa Paula","State":"CA","Zip":"93060"},{"Location":"CMH%2C CENTER FOR FAMILY HEALTH","Address":"242 E Harvard Blvd C","City":"Santa Paula","State":"CA","Zip":"93060"},{"Location":"DAVITA #5534 SANTA PAULA","Address":"253 March St","City":"Santa Paula","State":"CA","Zip":"93060"},{"Location":"EL PESCADORA 6","Address":"322 S Peck Rd","City":"Santa Paula","State":"CA","Zip":"93060"},{"Location":"FAMILIA DIAZ","Address":"245 S 10th St","City":"Santa Paula","State":"CA","Zip":"93060"},{"Location":"FAMOUS AUTO REPAIR","Address":"120 S Calavo St C","City":"Santa Paula","State":"CA","Zip":"93060"},{"Location":"FANTASY CUTS","Address":"594 Main St","City":"Santa Paula","State":"CA","Zip":"93060"},{"Location":"FMC 20660000","Address":"242 E Harvard Blvd","City":"Santa Paula","State":"CA","Zip":"93060"},{"Location":"FOREVER NAILS","Address":"248 W Harvard Blvd","City":"Santa Paula","State":"CA","Zip":"93060"},{"Location":"FOUR PAWS VETRERNARY CLINIC","Address":"1101 E Harvard Blvd","City":"Santa Paula","State":"CA","Zip":"93060"},{"Location":"GARMANS PUB","Address":"932 E Main St","City":"Santa Paula","State":"CA","Zip":"93060"},{"Location":"GILS FOOD MARKET","Address":"1220 Saticoy St","City":"Santa Paula","State":"CA","Zip":"93060"},{"Location":"GONZALEZ FURNITURE","Address":"1008 E Main St","City":"Santa Paula","State":"CA","Zip":"93060"},{"Location":"HARVARD DRIVE IN LIQUOR","Address":"1123 E Harvard Blvd","City":"Santa Paula","State":"CA","Zip":"93060"},{"Location":"HOZY'S GRILL","Address":"1760 E Lemonwood Dr","City":"Santa Paula","State":"CA","Zip":"93060"},{"Location":"INSTANT AUTO LUBE","Address":"743 E Harvard Blvd","City":"Santa Paula","State":"CA","Zip":"93060"},{"Location":"JACK IN BOX","Address":"306 S Palm Ave","City":"Santa Paula","State":"CA","Zip":"93060"},{"Location":"JENNYS BEAUTY SALON","Address":"125 E Harvard Blvd C","City":"Santa Paula","State":"CA","Zip":"93060"},{"Location":"JOSEPH AND SONS","Address":"12738 W Telegraph Rd","City":"Santa Paula","State":"CA","Zip":"93060"},{"Location":"JUES LIQUOR","Address":"911 W Telegraph Rd","City":"Santa Paula","State":"CA","Zip":"93060"},{"Location":"KMART","Address":"895 Faulkner Rd","City":"Santa Paula","State":"CA","Zip":"93060"},{"Location":"LIFETIME DENTAL CARE","Address":"276 E Harvard Blvd","City":"Santa Paula","State":"CA","Zip":"93060"},{"Location":"LIMONEIRA COMPANY #1","Address":"1141 Cummings Rd","City":"Santa Paula","State":"CA","Zip":"93060"},{"Location":"LIMONEIRA COMPANY #2","Address":"1141 Cummings Rd","City":"Santa Paula","State":"CA","Zip":"93060"},{"Location":"LINDA EATWELL TAXES","Address":"705 E Main St B","City":"Santa Paula","State":"CA","Zip":"93060"},{"Location":"LINDSAY EXCAVATING AND GRADING","Address":"1775 E Lemonwood Dr","City":"Santa Paula","State":"CA","Zip":"93060"},{"Location":"LUZ BEAUTY SALON","Address":"307 E Harvard Blvd","City":"Santa Paula","State":"CA","Zip":"93060"},{"Location":"MOOSE LODGE","Address":"700 E Santa Barbara St","City":"Santa Paula","State":"CA","Zip":"93060"},{"Location":"MOUNTAIN VIEW GOLF COURSE","Address":"16799 S Mountain Rd","City":"Santa Paula","State":"CA","Zip":"93060"},{"Location":"PANTOJA TRUCKLINE INC","Address":"235 Quail Ct","City":"Santa Paula","State":"CA","Zip":"93060"},{"Location":"PATRIOT ENVIRONMENTAL SERVICES","Address":"918 Mission Rock Rd E","City":"Santa Paula","State":"CA","Zip":"93060"},{"Location":"PRECISION","Address":"120 S Calavo St A","City":"Santa Paula","State":"CA","Zip":"93060"},{"Location":"RAMRIEZ TAX SERVICES INC","Address":"965 E Main St","City":"Santa Paula","State":"CA","Zip":"93060"},{"Location":"RAULS     SMOG TEST ONLY","Address":"706 W Harvard Blvd","City":"Santa Paula","State":"CA","Zip":"93060"},{"Location":"REYCON CONSTRUCTION INC","Address":"1795 E Lemonwood Dr","City":"Santa Paula","State":"CA","Zip":"93060"},{"Location":"SANTA PAULA CHEVROLET","Address":"101 W Harvard Blvd","City":"Santa Paula","State":"CA","Zip":"93060"},{"Location":"SANTA PAULA FITNESS INC","Address":"847 E Main St","City":"Santa Paula","State":"CA","Zip":"93060"},{"Location":"SANTA PAULA HOSPITAL CLI","Address":"845 N 10th St 3","City":"Santa Paula","State":"CA","Zip":"93060"},{"Location":"SANTA PAULA HOSPITAL CLINIC","Address":"254 W Harvard Blvd B","City":"Santa Paula","State":"CA","Zip":"93060"},{"Location":"SANTA PAULA SHERIFFS DEPT","Address":"600 Todd Rd","City":"Santa Paula","State":"CA","Zip":"93060"},{"Location":"SANTA PAULA SHERIFFS DEPT2","Address":"600 Todd Rd","City":"Santa Paula","State":"CA","Zip":"93060"},{"Location":"SHAFA","Address":"983 E Harvard Blvd","City":"Santa Paula","State":"CA","Zip":"93060"},{"Location":"STRYKER AIRSOFT FIELDE","Address":"17081 S Mountain Rd","City":"Santa Paula","State":"CA","Zip":"93060"},{"Location":"THOMAS AQUINAS COLLEGE","Address":"10000 Ojai Rd","City":"Santa Paula","State":"CA","Zip":"93060"},{"Location":"TLAQUEPAQUE","Address":"120 S Mill St","City":"Santa Paula","State":"CA","Zip":"93060"},{"Location":"VENTURA CO SHERIFF OFF","Address":"600 Todd Rd","City":"Santa Paula","State":"CA","Zip":"93060"},{"Location":"VINTAGE PRODUCTION CALIF","Address":"270 Quail Ct 201","City":"Santa Paula","State":"CA","Zip":"93060"},{"Location":"VIZADA","Address":"7676 Pine Grove Rd","City":"Santa Paula","State":"CA","Zip":"93060"},{"Location":"YAMAGUCHI NURSERY","Address":"18814 E Telegraph Rd","City":"Santa Paula","State":"CA","Zip":"93060"}]