[{"Location":"24 HOUR FITNESS #176","Address":"1352 Madera Rd","City":"Simi Valley","State":"CA","Zip":"93065"},{"Location":"5 STAR JEWLERY","Address":"2806 Cochran St","City":"Simi Valley","State":"CA","Zip":"93065"},{"Location":"ADVANCE COMBUTIONS TECHNOLOGY","Address":"80 W Easy St","City":"Simi Valley","State":"CA","Zip":"93065"},{"Location":"ADVENTIST HEALTH PHYSICIANS","Address":"1687 Erringer Rd 104","City":"Simi Valley","State":"CA","Zip":"93065"},{"Location":"AMERICAN MEDICAL","Address":"665 E Los Angeles Ave C","City":"Simi Valley","State":"CA","Zip":"93065"},{"Location":"AMERICAN VISION WINDOWS","Address":"2125 N Madera Rd A","City":"Simi Valley","State":"CA","Zip":"93065"},{"Location":"ANTHONY A VIRELLA","Address":"1687 Erringer Rd 206","City":"Simi Valley","State":"CA","Zip":"93065"},{"Location":"ANYTIME FITNESS","Address":"2941 Cochran St 4","City":"Simi Valley","State":"CA","Zip":"93065"},{"Location":"ARENA SPORTS BAR #1","Address":"999 Enchanted Way","City":"Simi Valley","State":"CA","Zip":"93065"},{"Location":"AUDIO CONCEPTS","Address":"1774 E Los Angeles Ave","City":"Simi Valley","State":"CA","Zip":"93065"},{"Location":"B R MERCHANT SERVICE","Address":"2658 Royal Ave","City":"Simi Valley","State":"CA","Zip":"93065"},{"Location":"BAMBOO CAFE","Address":"2792 Cochran St","City":"Simi Valley","State":"CA","Zip":"93065"},{"Location":"BANK OF AMERICA","Address":"450 American St","City":"Simi Valley","State":"CA","Zip":"93065"},{"Location":"BANK OF AMERICA CA6-920-01-07","Address":"2900 N Madera Rd","City":"Simi Valley","State":"CA","Zip":"93065"},{"Location":"BARTON'S STEAK %24 SEAFOOD","Address":"1627 E Los Angeles Ave","City":"Simi Valley","State":"CA","Zip":"93065"},{"Location":"BLUE FIN GRILL INC","Address":"1390 Madera Rd 8","City":"Simi Valley","State":"CA","Zip":"93065"},{"Location":"BODY XCHANGE HEALTH CLUB","Address":"1281 E Los Angeles Ave","City":"Simi Valley","State":"CA","Zip":"93065"},{"Location":"BURGER EXPRESS","Address":"3200 E Los Angeles Ave Suite","City":"Simi Valley","State":"CA","Zip":"93065"},{"Location":"CALIFORNIA UNITED BANK","Address":"2655 1st St 100","City":"Simi Valley","State":"CA","Zip":"93065"},{"Location":"CAMMARANOS LLC","Address":"575 Country Club Dr","City":"Simi Valley","State":"CA","Zip":"93065"},{"Location":"CATALINA SPA","Address":"3208 E Los Angeles Ave 35","City":"Simi Valley","State":"CA","Zip":"93065"},{"Location":"CHICKEN BOWL","Address":"1555 E Los Angeles Ave","City":"Simi Valley","State":"CA","Zip":"93065"},{"Location":"CHILI'S #0226","Address":"25 W Cochran St","City":"Simi Valley","State":"CA","Zip":"93065"},{"Location":"CHUY'S - SIMI VALLEY WEST","Address":"1397 E Los Angeles Ave A","City":"Simi Valley","State":"CA","Zip":"93065"},{"Location":"CIG STORE 5","Address":"660 E Los Angeles Ave","City":"Simi Valley","State":"CA","Zip":"93065"},{"Location":"CLINICAS DEL CAMINO REAL","Address":"1424 Madera Rd","City":"Simi Valley","State":"CA","Zip":"93065"},{"Location":"CLOUD 10 VAPE BAR","Address":"1464 Madera Rd L","City":"Simi Valley","State":"CA","Zip":"93065"},{"Location":"COUNTRYWIDE CA6-919-01-19","Address":"400 Countrywide Way","City":"Simi Valley","State":"CA","Zip":"93065"},{"Location":"COURTYARD BY THE MARRIOTT","Address":"191 Cochran St","City":"Simi Valley","State":"CA","Zip":"93065"},{"Location":"COVERED 6","Address":"780 Chambers Ln 210","City":"Simi Valley","State":"CA","Zip":"93065"},{"Location":"COVERED GLASS INC","Address":"771 Chambers Ln 330","City":"Simi Valley","State":"CA","Zip":"93065"},{"Location":"CRESCENT HEALTHCARE","Address":"2655 1st St 345","City":"Simi Valley","State":"CA","Zip":"93065"},{"Location":"CRONIES SPORTS GRILL","Address":"2752 Cochran St","City":"Simi Valley","State":"CA","Zip":"93065"},{"Location":"CUPID HOT DOG","Address":"2585 Cochran St G","City":"Simi Valley","State":"CA","Zip":"93065"},{"Location":"CV FAMILY ENT COPORATION","Address":"591 Country Club Dr A","City":"Simi Valley","State":"CA","Zip":"93065"},{"Location":"DAVE'S TOWING SERVICE","Address":"890 W Los Angeles Ave","City":"Simi Valley","State":"CA","Zip":"93065"},{"Location":"DE ROSE REAL ESTATE","Address":"491 Bannister Way C","City":"Simi Valley","State":"CA","Zip":"93065"},{"Location":"DEISEL MONTANA LLC","Address":"3060 Cochran St","City":"Simi Valley","State":"CA","Zip":"93065"},{"Location":"DR LAURENCE WEEKES","Address":"2650 Jones Way 2","City":"Simi Valley","State":"CA","Zip":"93065"},{"Location":"DURAN TRUCK AND AUTO REP","Address":"165 E Easy St D","City":"Simi Valley","State":"CA","Zip":"93065"},{"Location":"DURANGO BAR","Address":"1305 E Los Angeles Ave","City":"Simi Valley","State":"CA","Zip":"93065"},{"Location":"EL POLLO CORONA GRILL","Address":"1723 E Los Angeles Ave","City":"Simi Valley","State":"CA","Zip":"93065"},{"Location":"EL TACO DE MEXICO","Address":"1590 E Los Angeles Ave","City":"Simi Valley","State":"CA","Zip":"93065"},{"Location":"EL TORITO 7025","Address":"2498 Erringer Rd","City":"Simi Valley","State":"CA","Zip":"93065"},{"Location":"ENTERPRISE RENTAL CAR","Address":"983 E Easy St","City":"Simi Valley","State":"CA","Zip":"93065"},{"Location":"EXOTIC THAI BISTRO 1","Address":"1555 Simi Town Center Way 770","City":"Simi Valley","State":"CA","Zip":"93065"},{"Location":"FACEY MEDICAL","Address":"2655 1st St 325","City":"Simi Valley","State":"CA","Zip":"93065"},{"Location":"FAMOUS DAVE'S #3149","Address":"1229 Simi Town Center Way","City":"Simi Valley","State":"CA","Zip":"93065"},{"Location":"FERRETIS GRILL","Address":"3200 E Los Angeles Ave Suite","City":"Simi Valley","State":"CA","Zip":"93065"},{"Location":"FINAL TOUCH HAIR SALON","Address":"995 E Los Angeles Ave","City":"Simi Valley","State":"CA","Zip":"93065"},{"Location":"FIRE ISLAND GRILL","Address":"1230 Madera Rd","City":"Simi Valley","State":"CA","Zip":"93065"},{"Location":"FIRESTONE #013498","Address":"1256 E Los Angeles Ave","City":"Simi Valley","State":"CA","Zip":"93065"},{"Location":"FIRST STREET FAMILY REST","Address":"2025 1st St","City":"Simi Valley","State":"CA","Zip":"93065"},{"Location":"FLEMMINGS STEAK HOUSE","Address":"1555 Simi Town Center Way 565","City":"Simi Valley","State":"CA","Zip":"93065"},{"Location":"GARCIA'S COFFEE SHOP","Address":"1619 E Los Angeles Ave","City":"Simi Valley","State":"CA","Zip":"93065"},{"Location":"GO FISH SUSHI","Address":"1555 Simi Town Center Way 370","City":"Simi Valley","State":"CA","Zip":"93065"},{"Location":"GOLD'S GYM","Address":"1357 E Los Angeles Ave B","City":"Simi Valley","State":"CA","Zip":"93065"},{"Location":"GOODYEAR 4832","Address":"2135 1st St","City":"Simi Valley","State":"CA","Zip":"93065"},{"Location":"HANSEN","Address":"1987 Royal Ave","City":"Simi Valley","State":"CA","Zip":"93065"},{"Location":"HAROLD JONES LANDSCAPE INC","Address":"40 W Cochran St 206","City":"Simi Valley","State":"CA","Zip":"93065"},{"Location":"HIKARI SUSHI BAR","Address":"690 E Los Angeles Ave B","City":"Simi Valley","State":"CA","Zip":"93065"},{"Location":"HOLIDAY INN COMMON","Address":"2550 Erringer Rd","City":"Simi Valley","State":"CA","Zip":"93065"},{"Location":"HOLIDAY INN-SIMI VALLEY","Address":"2550 Erringer Rd","City":"Simi Valley","State":"CA","Zip":"93065"},{"Location":"INDIAN HEWELI","Address":"1750 E Los Angeles Ave B","City":"Simi Valley","State":"CA","Zip":"93065"},{"Location":"ISLANDS RESTAURANT #054","Address":"1213 Simi Town Center Way","City":"Simi Valley","State":"CA","Zip":"93065"},{"Location":"JERSEY MIKE'S SUBS","Address":"2790 Cochran St","City":"Simi Valley","State":"CA","Zip":"93065"},{"Location":"JIFFY LUBE 0678","Address":"1515 E Los Angeles Ave","City":"Simi Valley","State":"CA","Zip":"93065"},{"Location":"JIN RESTAURANT","Address":"690 E Los Angeles Ave","City":"Simi Valley","State":"CA","Zip":"93065"},{"Location":"JM MISSION BURRITO INC","Address":"1555 Simi Town Center Way 290","City":"Simi Valley","State":"CA","Zip":"93065"},{"Location":"JON C ELLISON DDS INC","Address":"1939 Erringer Rd","City":"Simi Valley","State":"CA","Zip":"93065"},{"Location":"JYC INC","Address":"2585 Cochran St","City":"Simi Valley","State":"CA","Zip":"93065"},{"Location":"KINETX  INC","Address":"21 W Easy St 108","City":"Simi Valley","State":"CA","Zip":"93065"},{"Location":"KINGSBRIDGE INTL","Address":"2950 N Madera Rd","City":"Simi Valley","State":"CA","Zip":"93065"},{"Location":"LEON TRANSMISSION","Address":"1880 Sinaloa Rd","City":"Simi Valley","State":"CA","Zip":"93065"},{"Location":"LEOS LIQUOR","Address":"77 Tierra Rejada Rd","City":"Simi Valley","State":"CA","Zip":"93065"},{"Location":"LIMON","Address":"1555 Simi Town Center Way 695","City":"Simi Valley","State":"CA","Zip":"93065"},{"Location":"LOCKHART CONSTRUCTION","Address":"2355 Chain Dr A","City":"Simi Valley","State":"CA","Zip":"93065"},{"Location":"LOCKHEED FEDERAL CREDIT","Address":"153 Cochran St 300","City":"Simi Valley","State":"CA","Zip":"93065"},{"Location":"LOSTACOSLOCOS","Address":"1854 Cochran St","City":"Simi Valley","State":"CA","Zip":"93065"},{"Location":"LOVE SUSHI","Address":"2941 Cochran St 10","City":"Simi Valley","State":"CA","Zip":"93065"},{"Location":"MACKEL WALLIS DEVELOPMENT","Address":"2720 Cochran St 7b","City":"Simi Valley","State":"CA","Zip":"93065"},{"Location":"MACY'S WEST 496","Address":"1657 Simi Town Center Way","City":"Simi Valley","State":"CA","Zip":"93065"},{"Location":"MACY'S WEST 496","Address":"1475 Simi Town Center Way","City":"Simi Valley","State":"CA","Zip":"93065"},{"Location":"MACY'S WEST 496 BR","Address":"1475 Simi Town Center Way","City":"Simi Valley","State":"CA","Zip":"93065"},{"Location":"MACY'S WEST 496 BR","Address":"1657 Simi Town Center Way","City":"Simi Valley","State":"CA","Zip":"93065"},{"Location":"MARIAS RESTAURANT","Address":"2521 Sycamore Dr","City":"Simi Valley","State":"CA","Zip":"93065"},{"Location":"MEGU SUSHI","Address":"2868 Cochran St","City":"Simi Valley","State":"CA","Zip":"93065"},{"Location":"MEN'S WEARHOUSE #2782","Address":"1555 Simi Town Center Way 1590","City":"Simi Valley","State":"CA","Zip":"93065"},{"Location":"MENS ROOM","Address":"2569 Sycamore Dr","City":"Simi Valley","State":"CA","Zip":"93065"},{"Location":"MEXICALI TIRES","Address":"729 E Los Angeles Ave","City":"Simi Valley","State":"CA","Zip":"93065"},{"Location":"MT SLIP COVERS","Address":"155 E Easy St C","City":"Simi Valley","State":"CA","Zip":"93065"},{"Location":"MUSASHI CUISINE SV","Address":"1555 Simi Town Center Way 395","City":"Simi Valley","State":"CA","Zip":"93065"},{"Location":"OLIVIOS TRATTORIA","Address":"585 E Los Angeles Ave","City":"Simi Valley","State":"CA","Zip":"93065"},{"Location":"ON SITE STUDIO RENTALS LLC","Address":"216 High Meadow St","City":"Simi Valley","State":"CA","Zip":"93065"},{"Location":"PACIFIC DENTAL-SIMI VALLEY","Address":"2410 Sycamore Dr A","City":"Simi Valley","State":"CA","Zip":"93065"},{"Location":"PACIFIC WEST PLUMBLING CO. INC","Address":"29 W Easy St 501","City":"Simi Valley","State":"CA","Zip":"93065"},{"Location":"PALAPA GRILL MEX FOOD","Address":"660 E Los Angeles Ave J","City":"Simi Valley","State":"CA","Zip":"93065"},{"Location":"PEP BOYS","Address":"660 E Los Angeles Ave A","City":"Simi Valley","State":"CA","Zip":"93065"},{"Location":"PHO SO 1","Address":"2837 Cochran St E","City":"Simi Valley","State":"CA","Zip":"93065"},{"Location":"PQL INC","Address":"2285 Ward Ave","City":"Simi Valley","State":"CA","Zip":"93065"},{"Location":"PREMIER TINTING","Address":"1382 E Los Angeles Ave A","City":"Simi Valley","State":"CA","Zip":"93065"},{"Location":"R & G FILTER AND SUPPLY CO","Address":"1716 Erringer Rd 108","City":"Simi Valley","State":"CA","Zip":"93065"},{"Location":"RANCHO SIMI INSURANCE AGENCY","Address":"1611 E Los Angeles Ave","City":"Simi Valley","State":"CA","Zip":"93065"},{"Location":"RED ROBIN #257","Address":"1555 Simi Town Center Way 670","City":"Simi Valley","State":"CA","Zip":"93065"},{"Location":"RESTAURANTE Y PUPUSERIA CLAVEL","Address":"3010 E Los Angeles Ave","City":"Simi Valley","State":"CA","Zip":"93065"},{"Location":"REVOLUTION EYEWEAR","Address":"997 Flower Glen St","City":"Simi Valley","State":"CA","Zip":"93065"},{"Location":"RICOH PRINTING SYSTEMS INC","Address":"2390 Ward Ave A","City":"Simi Valley","State":"CA","Zip":"93065"},{"Location":"ROCKSTAR NAIL AND SPA","Address":"2090 1st St D","City":"Simi Valley","State":"CA","Zip":"93065"},{"Location":"ROUND TABLE PIZZA","Address":"2345 Erringer Rd 100","City":"Simi Valley","State":"CA","Zip":"93065"},{"Location":"RUSTYS BAR","Address":"1368 Madera Rd","City":"Simi Valley","State":"CA","Zip":"93065"},{"Location":"RV AMERICA INSURANCE","Address":"685 Cochran St 150a","City":"Simi Valley","State":"CA","Zip":"93065"},{"Location":"SAVAGE MACHINING","Address":"2235 1st St 116","City":"Simi Valley","State":"CA","Zip":"93065"},{"Location":"SCRIBNERS INC","Address":"2280 Shasta Way 108","City":"Simi Valley","State":"CA","Zip":"93065"},{"Location":"SEA HORSE BUFFET","Address":"2022 1st St","City":"Simi Valley","State":"CA","Zip":"93065"},{"Location":"SEE ME HEALTHY","Address":"1464 Madera Rd B","City":"Simi Valley","State":"CA","Zip":"93065"},{"Location":"SENIORS WAY","Address":"4005 Snowgoose St","City":"Simi Valley","State":"CA","Zip":"93065"},{"Location":"SHARKEYS WOODFIRED","Address":"2410 Sycamore Dr","City":"Simi Valley","State":"CA","Zip":"93065"},{"Location":"SHYAMZEEN FOOD INC","Address":"2460 Sycamore Dr","City":"Simi Valley","State":"CA","Zip":"93065"},{"Location":"SIMI AUTO SPA","Address":"1144 E Los Angeles Ave","City":"Simi Valley","State":"CA","Zip":"93065"},{"Location":"SIMI BOWL","Address":"480 E Los Angeles Ave","City":"Simi Valley","State":"CA","Zip":"93065"},{"Location":"SIMI SURGERY CENTER","Address":"1920 E Los Angeles Ave","City":"Simi Valley","State":"CA","Zip":"93065"},{"Location":"SIMI SUSHI","Address":"131 Cochran St A","City":"Simi Valley","State":"CA","Zip":"93065"},{"Location":"SIMI SUSHI","Address":"1101 E Los Angeles Ave","City":"Simi Valley","State":"CA","Zip":"93065"},{"Location":"SIMI VALLEY BUICK GMC","Address":"2100 1st St","City":"Simi Valley","State":"CA","Zip":"93065"},{"Location":"SIMI VALLEY CDJR","Address":"2350 1st St","City":"Simi Valley","State":"CA","Zip":"93065"},{"Location":"SIMI VALLEY CHEVROLET","Address":"1001 Cochran St","City":"Simi Valley","State":"CA","Zip":"93065"},{"Location":"SIMI VALLEY CORP PT E.S.","Address":"2655 1st St 245","City":"Simi Valley","State":"CA","Zip":"93065"},{"Location":"SIMI VALLEY FORD","Address":"2440 1st St","City":"Simi Valley","State":"CA","Zip":"93065"},{"Location":"SIMI VALLEY GIFTS","Address":"1654 E Los Angeles Ave","City":"Simi Valley","State":"CA","Zip":"93065"},{"Location":"SOMMERSPORTS CHIROPRACTIC","Address":"2345 Erringer Rd 210","City":"Simi Valley","State":"CA","Zip":"93065"},{"Location":"SOUTHERN CALI GAS CO","Address":"977 Chambers Ln","City":"Simi Valley","State":"CA","Zip":"93065"},{"Location":"SPECIAL DEVICES  INC","Address":"2655 1st St 300","City":"Simi Valley","State":"CA","Zip":"93065"},{"Location":"SPORT CLIPS CA753","Address":"2975 Cochran St C","City":"Simi Valley","State":"CA","Zip":"93065"},{"Location":"SPORT COURT OF SOUTHERN CA","Address":"21 W Easy St","City":"Simi Valley","State":"CA","Zip":"93065"},{"Location":"SUPERCUTS #8083","Address":"2345 Erringer Rd 101","City":"Simi Valley","State":"CA","Zip":"93065"},{"Location":"SUPERCUTS #81086","Address":"2091 N Madera Rd D","City":"Simi Valley","State":"CA","Zip":"93065"},{"Location":"SUPERVISOR FOY","Address":"980 Enchanted Way","City":"Simi Valley","State":"CA","Zip":"93065"},{"Location":"SUSHI TRADITION","Address":"575 Country Club Dr D","City":"Simi Valley","State":"CA","Zip":"93065"},{"Location":"SZECHU GARDEN","Address":"1407 E Los Angeles Ave E","City":"Simi Valley","State":"CA","Zip":"93065"},{"Location":"SZECHUWAN GARDEN RESTAURANT","Address":"1407 E Los Angeles Ave","City":"Simi Valley","State":"CA","Zip":"93065"},{"Location":"TCF LUXURIES","Address":"2804 E Los Angeles Ave","City":"Simi Valley","State":"CA","Zip":"93065"},{"Location":"THAI KITCHEN","Address":"995 E Los Angeles Ave 6","City":"Simi Valley","State":"CA","Zip":"93065"},{"Location":"THE DUGOUT SPORTS GRILL","Address":"109 W Cochran St","City":"Simi Valley","State":"CA","Zip":"93065"},{"Location":"THE GREAT CENTRAL STEAK","Address":"2090 1st St B","City":"Simi Valley","State":"CA","Zip":"93065"},{"Location":"THE OGDEN GROUP INC.","Address":"1263 Simi Town Center Way H1","City":"Simi Valley","State":"CA","Zip":"93065"},{"Location":"THE SHABU","Address":"2845 Cochran St F","City":"Simi Valley","State":"CA","Zip":"93065"},{"Location":"TOMODACHI SUSHI","Address":"1407 E Los Angeles Ave O","City":"Simi Valley","State":"CA","Zip":"93065"},{"Location":"TOPAZ DISTRIBUTION","Address":"2280 Ward Ave","City":"Simi Valley","State":"CA","Zip":"93065"},{"Location":"TOPPERS PIZZA","Address":"2408 Erringer Rd","City":"Simi Valley","State":"CA","Zip":"93065"},{"Location":"TORTUGA ADVISORS","Address":"2655 1st St","City":"Simi Valley","State":"CA","Zip":"93065"},{"Location":"TRUE SPRIRIT COMMUNITY CHURCH","Address":"1492 Sinaloa Rd","City":"Simi Valley","State":"CA","Zip":"93065"},{"Location":"UNION BANK","Address":"501 Country Club Dr","City":"Simi Valley","State":"CA","Zip":"93065"},{"Location":"VALLARTA SUPERMARKET","Address":"1357 E Los Angeles Ave","City":"Simi Valley","State":"CA","Zip":"93065"},{"Location":"VALLEY VETERINARY CLINIC","Address":"845 E Los Angeles Ave","City":"Simi Valley","State":"CA","Zip":"93065"},{"Location":"VASANAS BEAUTY SALON","Address":"1855 Cochran St 103","City":"Simi Valley","State":"CA","Zip":"93065"},{"Location":"VENTURA ORTHOPEDIC MEDICAL GRP","Address":"2525 Erringer Rd","City":"Simi Valley","State":"CA","Zip":"93065"},{"Location":"VIP ALTERATIONS & TAILOR","Address":"1357 E Los Angeles Ave 1","City":"Simi Valley","State":"CA","Zip":"93065"},{"Location":"WOOD RANCH GOLF CLUB 2","Address":"555 Lake Park Dr","City":"Simi Valley","State":"CA","Zip":"93065"},{"Location":"WOODRANCH GOLF CLUB","Address":"301 Wood Ranch Pkwy","City":"Simi Valley","State":"CA","Zip":"93065"},{"Location":"YOLANDA'S OF SIMI VALLEY","Address":"590 E Los Angeles Ave","City":"Simi Valley","State":"CA","Zip":"93065"}]