[{"Location":"BUENEA TILE INC","Address":"518 E Haley St","City":"Santa Barbara","State":"CA","Zip":"93103"},{"Location":"BUENEA TILE INC 2","Address":"518 E Haley St","City":"Santa Barbara","State":"CA","Zip":"93103"},{"Location":"CESARS PLACE","Address":"712 N Milpas St","City":"Santa Barbara","State":"CA","Zip":"93103"},{"Location":"MCDONALDS 1380","Address":"29 N Milpas St","City":"Santa Barbara","State":"CA","Zip":"93103"},{"Location":"MILPAS LIQUOR AND DELI","Address":"314 N Milpas St","City":"Santa Barbara","State":"CA","Zip":"93103"},{"Location":"MKD ART","Address":"1257 Ferrelo Rd","City":"Santa Barbara","State":"CA","Zip":"93103"},{"Location":"SAMUEL MOTT","Address":"727 Bond Ave","City":"Santa Barbara","State":"CA","Zip":"93103"},{"Location":"SECOND BAPTIST CHURCH","Address":"1032 E Mason St","City":"Santa Barbara","State":"CA","Zip":"93103"},{"Location":"SONOS","Address":"415 North Salfipuedef","City":"Santa Barbara","State":"CA","Zip":"93103"},{"Location":"SUBLIME LLC","Address":"901 N Milpas St","City":"Santa Barbara","State":"CA","Zip":"93103"},{"Location":"THE FABULOUS MECCA","Address":"512 N Milpas St","City":"Santa Barbara","State":"CA","Zip":"93103"},{"Location":"THE GAS COMPANY","Address":"630 E Montecito St","City":"Santa Barbara","State":"CA","Zip":"93103"},{"Location":"BUENEA TILE INC","Address":"518 E Haley St","City":"Santa Barbara","State":"CA","Zip":"93103"},{"Location":"BUENEA TILE INC 2","Address":"518 E Haley St","City":"Santa Barbara","State":"CA","Zip":"93103"},{"Location":"CESARS PLACE","Address":"712 N Milpas St","City":"Santa Barbara","State":"CA","Zip":"93103"},{"Location":"MCDONALDS 1380","Address":"29 N Milpas St","City":"Santa Barbara","State":"CA","Zip":"93103"},{"Location":"MILPAS LIQUOR AND DELI","Address":"314 N Milpas St","City":"Santa Barbara","State":"CA","Zip":"93103"},{"Location":"MKD ART","Address":"1257 Ferrelo Rd","City":"Santa Barbara","State":"CA","Zip":"93103"},{"Location":"SAMUEL MOTT","Address":"727 Bond Ave","City":"Santa Barbara","State":"CA","Zip":"93103"},{"Location":"SECOND BAPTIST CHURCH","Address":"1032 E Mason St","City":"Santa Barbara","State":"CA","Zip":"93103"},{"Location":"SONOS","Address":"415 North Salfipuedef","City":"Santa Barbara","State":"CA","Zip":"93103"},{"Location":"SUBLIME LLC","Address":"901 N Milpas St","City":"Santa Barbara","State":"CA","Zip":"93103"},{"Location":"THE FABULOUS MECCA","Address":"512 N Milpas St","City":"Santa Barbara","State":"CA","Zip":"93103"},{"Location":"THE GAS COMPANY","Address":"630 E Montecito St","City":"Santa Barbara","State":"CA","Zip":"93103"}]