[{"Location":"AC FOUNDATION","Address":"3500 Highway 154","City":"Santa Barbara","State":"CA","Zip":"93105"},{"Location":"ARTUROS BARBER SHOP","Address":"3457 State St","City":"Santa Barbara","State":"CA","Zip":"93105"},{"Location":"CHUCKS OF HAWAII","Address":"3888 State St","City":"Santa Barbara","State":"CA","Zip":"93105"},{"Location":"DARUSH BABAI","Address":"3020 State St","City":"Santa Barbara","State":"CA","Zip":"93105"},{"Location":"DERF'S CAFE","Address":"2000 De La Vina St","City":"Santa Barbara","State":"CA","Zip":"93105"},{"Location":"EVENTS BY STELLAMARES","Address":"3302 Mccaw Ave","City":"Santa Barbara","State":"CA","Zip":"93105"},{"Location":"FIRESTONE #016047","Address":"3948 State St","City":"Santa Barbara","State":"CA","Zip":"93105"},{"Location":"HOOK BURGER","Address":"23 Hitchcock Way 109","City":"Santa Barbara","State":"CA","Zip":"93105"},{"Location":"JIMBOZ LOUNGE","Address":"2711 De La Vina St","City":"Santa Barbara","State":"CA","Zip":"93105"},{"Location":"KS TREE HOUSE RESTAURANT","Address":"3860 State St","City":"Santa Barbara","State":"CA","Zip":"93105"},{"Location":"KYOTO JAPANESE RESTAURAN","Address":"3232 State St","City":"Santa Barbara","State":"CA","Zip":"93105"},{"Location":"LA RUMBA BAR AND GRILL","Address":"3435 State St","City":"Santa Barbara","State":"CA","Zip":"93105"},{"Location":"MACY'S WEST 497 BR","Address":"3805 State St","City":"Santa Barbara","State":"CA","Zip":"93105"},{"Location":"MAGIC NAILS","Address":"3621a State St","City":"Santa Barbara","State":"CA","Zip":"93105"},{"Location":"MARMALADE CAFE SB","Address":"3825 State St E149","City":"Santa Barbara","State":"CA","Zip":"93105"},{"Location":"MCDONALDS 1556","Address":"3940 State St","City":"Santa Barbara","State":"CA","Zip":"93105"},{"Location":"MULLIGANS CAFE & BAR","Address":"3500 Mccaw Ave","City":"Santa Barbara","State":"CA","Zip":"93105"},{"Location":"NICKY D'S WOOD FIRED PIZZA","Address":"2840 De La Vina St B","City":"Santa Barbara","State":"CA","Zip":"93105"},{"Location":"PIZZA GURU","Address":"3534 State St","City":"Santa Barbara","State":"CA","Zip":"93105"},{"Location":"PIZZA MIZZA CAFE","Address":"140 S Hope Ave 102a","City":"Santa Barbara","State":"CA","Zip":"93105"},{"Location":"PLAZA LIQUOR","Address":"2840 Dela Vina St  #a","City":"Santa Barbara","State":"CA","Zip":"93105"},{"Location":"TAFFYS PIZZA","Address":"2026 De La Vina St","City":"Santa Barbara","State":"CA","Zip":"93105"},{"Location":"TD AMERITRADE #05030","Address":"3905 State St R5","City":"Santa Barbara","State":"CA","Zip":"93105"},{"Location":"TIBURON TAVERN","Address":"3116 State St","City":"Santa Barbara","State":"CA","Zip":"93105"},{"Location":"TREMBLAY FINANCIAL","Address":"3902 State St","City":"Santa Barbara","State":"CA","Zip":"93105"},{"Location":"UPTOWN LOUNGE INC","Address":"3126 State St","City":"Santa Barbara","State":"CA","Zip":"93105"},{"Location":"US FOREST SERVICE","Address":"467 San Marcos Pass Rd","City":"Santa Barbara","State":"CA","Zip":"93105"},{"Location":"WHOLE FOODS MARKET #36","Address":"3761 State St","City":"Santa Barbara","State":"CA","Zip":"93105"}]