[{"Location":"24 HOUR FITNESS #054","Address":"820 State St","City":"Santa Barbara","State":"CA","Zip":"93101"},{"Location":"805 MARKET AND DELI","Address":"135 E Carrillo St","City":"Santa Barbara","State":"CA","Zip":"93101"},{"Location":"ALAMAR CAPITAL MNGT LLC","Address":"330 E Canon Perdido St F","City":"Santa Barbara","State":"CA","Zip":"93101"},{"Location":"AR FISH","Address":"608 Anacapa St","City":"Santa Barbara","State":"CA","Zip":"93101"},{"Location":"ARLINGTON TAVERN","Address":"21 W Victoria St","City":"Santa Barbara","State":"CA","Zip":"93101"},{"Location":"ARTIFICIAL KID CENTER 2","Address":"1704b State St","City":"Santa Barbara","State":"CA","Zip":"93101"},{"Location":"BAJA SHARKEEZ SB","Address":"525 State St","City":"Santa Barbara","State":"CA","Zip":"93101"},{"Location":"BANC OF CALIFORNIA","Address":"18 W Canon Perdido St","City":"Santa Barbara","State":"CA","Zip":"93101"},{"Location":"BANK OF AMERICA CA6-113-02-04","Address":"1424 State St","City":"Santa Barbara","State":"CA","Zip":"93101"},{"Location":"BARTTLETT PRINGLE AND WOLF LLP","Address":"1123 Chapala St","City":"Santa Barbara","State":"CA","Zip":"93101"},{"Location":"BLIND TIGER","Address":"409 State St","City":"Santa Barbara","State":"CA","Zip":"93101"},{"Location":"BLUSH","Address":"630 State St","City":"Santa Barbara","State":"CA","Zip":"93101"},{"Location":"BOHENRYS","Address":"1431 San Andres St","City":"Santa Barbara","State":"CA","Zip":"93101"},{"Location":"CADARIO PIZZERIA","Address":"29 E Victoria St","City":"Santa Barbara","State":"CA","Zip":"93101"},{"Location":"CALIFORNIA PIZZA KITCHEN #23","Address":"719 Paseo Nuevo","City":"Santa Barbara","State":"CA","Zip":"93101"},{"Location":"CANARY HOTEL (0057564)","Address":"31 W Carrillo St","City":"Santa Barbara","State":"CA","Zip":"93101"},{"Location":"CASA BLANCA","Address":"330 State St D","City":"Santa Barbara","State":"CA","Zip":"93101"},{"Location":"CHARLES SCHWAB CC825","Address":"900 Chapala St 100","City":"Santa Barbara","State":"CA","Zip":"93101"},{"Location":"DARGANS IRISH PUB AND RESTAURA","Address":"18 E Ortega St","City":"Santa Barbara","State":"CA","Zip":"93101"},{"Location":"DTR SUBS INC","Address":"1213 State St A","City":"Santa Barbara","State":"CA","Zip":"93101"},{"Location":"EL TORITO 7228","Address":"29 E Cabrillo Blvd","City":"Santa Barbara","State":"CA","Zip":"93101"},{"Location":"EUREKA BURGER- SB","Address":"601 Paseo Nuevo","City":"Santa Barbara","State":"CA","Zip":"93101"},{"Location":"FIGUEROA MOUNTAIN BREWING","Address":"137 Anacapa St F","City":"Santa Barbara","State":"CA","Zip":"93101"},{"Location":"FISH HOUSE","Address":"101 E Cabrillo Blvd","City":"Santa Barbara","State":"CA","Zip":"93101"},{"Location":"FRATERNAL ORDER OF EAGLES 442","Address":"923 Bath St","City":"Santa Barbara","State":"CA","Zip":"93101"},{"Location":"GENTLE DENTAL","Address":"330 State St","City":"Santa Barbara","State":"CA","Zip":"93101"},{"Location":"GINOS PIZZERIA","Address":"12 W Figueroa St","City":"Santa Barbara","State":"CA","Zip":"93101"},{"Location":"HANGAR S B LLC","Address":"201 W Montecito St","City":"Santa Barbara","State":"CA","Zip":"93101"},{"Location":"HOFFMANN BRAT HOUSE","Address":"801 State St","City":"Santa Barbara","State":"CA","Zip":"93101"},{"Location":"HOTEL INDIGO GYM","Address":"121 State St","City":"Santa Barbara","State":"CA","Zip":"93101"},{"Location":"KILLER B'S","Address":"731 De La Guerra Plz","City":"Santa Barbara","State":"CA","Zip":"93101"},{"Location":"LA AROMA DE HAVANA","Address":"411 State St","City":"Santa Barbara","State":"CA","Zip":"93101"},{"Location":"LIFE CHRONICLES","Address":"113 W Mission St","City":"Santa Barbara","State":"CA","Zip":"93101"},{"Location":"LOYAL ORDER OF MOOSE","Address":"110 W Victoria St","City":"Santa Barbara","State":"CA","Zip":"93101"},{"Location":"MACY'S WEST 498","Address":"701 State St","City":"Santa Barbara","State":"CA","Zip":"93101"},{"Location":"MAGGIES BAR","Address":"1201 State St","City":"Santa Barbara","State":"CA","Zip":"93101"},{"Location":"MCDONALDS 21826","Address":"1213 State St B","City":"Santa Barbara","State":"CA","Zip":"93101"},{"Location":"MELS BAR AND GRILL","Address":"209 W Carrillo St","City":"Santa Barbara","State":"CA","Zip":"93101"},{"Location":"MEN'S WEARHOUSE #2717","Address":"719 State St","City":"Santa Barbara","State":"CA","Zip":"93101"},{"Location":"MOBY DICKS RESTAURANT","Address":"220 Stearns Wharf","City":"Santa Barbara","State":"CA","Zip":"93101"},{"Location":"NAIL PALACE","Address":"1427 State St","City":"Santa Barbara","State":"CA","Zip":"93101"},{"Location":"OLD KINGS ROAD","Address":"532 1%2F2 State St","City":"Santa Barbara","State":"CA","Zip":"93101"},{"Location":"OMALLEY'S","Address":"523 State St","City":"Santa Barbara","State":"CA","Zip":"93101"},{"Location":"PATCO JEWELERS","Address":"316 E Haley St","City":"Santa Barbara","State":"CA","Zip":"93101"},{"Location":"PATXIS CHICAGO PIZZA","Address":"515 State St","City":"Santa Barbara","State":"CA","Zip":"93101"},{"Location":"PETROS  SANTA BARBARA IN","Address":"1316 State St","City":"Santa Barbara","State":"CA","Zip":"93101"},{"Location":"POUR HOUSE INC","Address":"511 State St","City":"Santa Barbara","State":"CA","Zip":"93101"},{"Location":"PRESS ROOM","Address":"15 Ortega","City":"Santa Barbara","State":"CA","Zip":"93101"},{"Location":"RABOBANK NA","Address":"33 E Carrillo St","City":"Santa Barbara","State":"CA","Zip":"93101"},{"Location":"ROBERT F EGENOLF","Address":"142 E Carrillo St","City":"Santa Barbara","State":"CA","Zip":"93101"},{"Location":"SAND BAR","Address":"514 State St","City":"Santa Barbara","State":"CA","Zip":"93101"},{"Location":"SANTA BARBARA BANK AND TRUST","Address":"20 E Carrillo St","City":"Santa Barbara","State":"CA","Zip":"93101"},{"Location":"SANTA BARBARA BREWING CO","Address":"501 State St","City":"Santa Barbara","State":"CA","Zip":"93101"},{"Location":"SANTA BARBARA CIGAR&TOBA","Address":"10 W Figueroa St","City":"Santa Barbara","State":"CA","Zip":"93101"},{"Location":"SANTA BARBARA PAINT DEPOT","Address":"526 Laguna St","City":"Santa Barbara","State":"CA","Zip":"93101"},{"Location":"SANTA BARBARA TIRE PROS","Address":"401 W Carrillo St","City":"Santa Barbara","State":"CA","Zip":"93101"},{"Location":"SB KIDNEY CENTER","Address":"1704 State St","City":"Santa Barbara","State":"CA","Zip":"93101"},{"Location":"SB LAUNDRY","Address":"1015 De La Vina St A","City":"Santa Barbara","State":"CA","Zip":"93101"},{"Location":"SCOTTRADE 04I","Address":"1101 Anacapa St 150","City":"Santa Barbara","State":"CA","Zip":"93101"},{"Location":"SEVEN","Address":"224 Helena Ave","City":"Santa Barbara","State":"CA","Zip":"93101"},{"Location":"SONOS INC","Address":"419 State St","City":"Santa Barbara","State":"CA","Zip":"93101"},{"Location":"SPORTSMAN","Address":"20 W Figueroa St","City":"Santa Barbara","State":"CA","Zip":"93101"},{"Location":"STATE OF MIND HYPNOSIS","Address":"827 State St 22","City":"Santa Barbara","State":"CA","Zip":"93101"},{"Location":"STATEMYNT","Address":"519 State St","City":"Santa Barbara","State":"CA","Zip":"93101"},{"Location":"STIFEL NICOLAUS & CO","Address":"30 E Figueroa St B","City":"Santa Barbara","State":"CA","Zip":"93101"},{"Location":"THE FUND FOR THE PUBLIC INTER","Address":"1129 State St 22","City":"Santa Barbara","State":"CA","Zip":"93101"},{"Location":"THE NEIGHBORHOOD BAR 1","Address":"235 W Montecito St","City":"Santa Barbara","State":"CA","Zip":"93101"},{"Location":"UNCLE ROCCO NY PIZZA","Address":"437 State St","City":"Santa Barbara","State":"CA","Zip":"93101"},{"Location":"UNION ALE BREWING CO & GRILL","Address":"214 State St","City":"Santa Barbara","State":"CA","Zip":"93101"},{"Location":"VAN DAELE CHBE LLC","Address":"532 State St","City":"Santa Barbara","State":"CA","Zip":"93101"},{"Location":"VELVET JONES","Address":"423 State St","City":"Santa Barbara","State":"CA","Zip":"93101"},{"Location":"W B I LOBBY","Address":"306 W Cabrillo Blvd","City":"Santa Barbara","State":"CA","Zip":"93101"},{"Location":"WEST BEACH INN SONIC TAP","Address":"306 W Cabrillo Blvd","City":"Santa Barbara","State":"CA","Zip":"93101"},{"Location":"WINE CASK","Address":"813 Anacapa St","City":"Santa Barbara","State":"CA","Zip":"93101"},{"Location":"YERGEN STALL XS CARGO","Address":"101 Garden St","City":"Santa Barbara","State":"CA","Zip":"93101"},{"Location":"YUME","Address":"428 Chapala St","City":"Santa Barbara","State":"CA","Zip":"93101"}]