[{"Location":"BOATHOUSE","Address":"2981 Cliff Dr","City":"Santa Barbara","State":"CA","Zip":"93109"},{"Location":"CHRONICLE FAMILY OFFICES","Address":"800 Miramonte Dr 300","City":"Santa Barbara","State":"CA","Zip":"93109"},{"Location":"CHUCKS WATERFRONT","Address":"113 Harbor Way 180","City":"Santa Barbara","State":"CA","Zip":"93109"},{"Location":"CLIFF ROOM SPORTS LOUNGE","Address":"1828 Cliff Dr","City":"Santa Barbara","State":"CA","Zip":"93109"},{"Location":"DREIER GROUP LLC","Address":"800 Miramonte Dr","City":"Santa Barbara","State":"CA","Zip":"93109"},{"Location":"GIOVANNI'S PIZZA","Address":"1905 Cliff Dr","City":"Santa Barbara","State":"CA","Zip":"93109"},{"Location":"OCEAN ALEXANDER 860 LLC","Address":"130 Harbor Way","City":"Santa Barbara","State":"CA","Zip":"93109"},{"Location":"SAMS TO GO","Address":"315 Meigs Rd I","City":"Santa Barbara","State":"CA","Zip":"93109"},{"Location":"USCGC BLACKFIN","Address":"111 Harbor Way","City":"Santa Barbara","State":"CA","Zip":"93109"}]