[{"Location":"MONTECITO COUNTRY CLUB","Address":"920 Summit Rd","City":"Montecito","State":"CA","Zip":"93108"},{"Location":"RICHIES BARBER SHOP","Address":"1187 Coast Village Rd 6","City":"Montecito","State":"CA","Zip":"93108"},{"Location":"THE HONOR BAR","Address":"1255 Coast Village Rd 101","City":"Montecito","State":"CA","Zip":"93108"},{"Location":"BIRNAM WOOD GOLF CLUB","Address":"1941 E Valley Rd","City":"Santa Barbara","State":"CA","Zip":"93108"},{"Location":"FAIRWAY BB PROPERTIES%2C LLC","Address":"1000 Channel Dr","City":"Santa Barbara","State":"CA","Zip":"93108"},{"Location":"FINDTHEBEST","Address":"101a Innovation Pl","City":"Santa Barbara","State":"CA","Zip":"93108"},{"Location":"GIOVANNIS PIZZA","Address":"1187 Coast Village Rd 3c","City":"Santa Barbara","State":"CA","Zip":"93108"},{"Location":"LITTLE ALEXS","Address":"1024 Coast Village Rd A","City":"Santa Barbara","State":"CA","Zip":"93108"},{"Location":"MANCHESTER CAPITAL","Address":"1155 Coast Village Rd H","City":"Santa Barbara","State":"CA","Zip":"93108"},{"Location":"MERRILL LYNCH","Address":"1096 Coast Village Rd","City":"Santa Barbara","State":"CA","Zip":"93108"},{"Location":"MONTECITO FINACIAL SERVICES","Address":"1470 E Valley Rd P","City":"Santa Barbara","State":"CA","Zip":"93108"},{"Location":"MONTECITO WINE BISTRO","Address":"516 San Ysidro Rd A","City":"Santa Barbara","State":"CA","Zip":"93108"},{"Location":"PRIMA CAPITAL GROUP","Address":"1230 Coast Village Cir E","City":"Santa Barbara","State":"CA","Zip":"93108"},{"Location":"QAD","Address":"100 Innovation Pl","City":"Santa Barbara","State":"CA","Zip":"93108"},{"Location":"SAN YSDIRO","Address":"900 San Ysidro Ln","City":"Santa Barbara","State":"CA","Zip":"93108"},{"Location":"TENNIS SHOPS OF MONTECITO","Address":"1187 Coast Village Rd 4","City":"Santa Barbara","State":"CA","Zip":"93108"},{"Location":"THE CP TRUST","Address":"835 Park Ln","City":"Santa Barbara","State":"CA","Zip":"93108"},{"Location":"WESTMONT COLLEGE I","Address":"955 La Paz Rd","City":"Santa Barbara","State":"CA","Zip":"93108"},{"Location":"WESTMONT COLLEGE II","Address":"955 La Paz Rd","City":"Santa Barbara","State":"CA","Zip":"93108"},{"Location":"WESTMONT COLLEGE III","Address":"955 La Paz Rd","City":"Santa Barbara","State":"CA","Zip":"93108"},{"Location":"ZACARA LLC","Address":"1104 Channel Dr","City":"Santa Barbara","State":"CA","Zip":"93108"}]