[{"Location":"MCDONALDS 21823","Address":"6900 Market Place Dr","City":"Gaviota","State":"CA","Zip":"93117"},{"Location":"AIR REPAIR","Address":"75 Robin Hill Rd","City":"Goleta","State":"CA","Zip":"93117"},{"Location":"ALADDIN CAFE","Address":"938 Embarcadero Del Norte","City":"Goleta","State":"CA","Zip":"93117"},{"Location":"ATLANTIC AVIATION SBA","Address":"404 Moffett Pl","City":"Goleta","State":"CA","Zip":"93117"},{"Location":"BACARA RESORT AND SPA","Address":"8301 Hollister Ave","City":"Goleta","State":"CA","Zip":"93117"},{"Location":"BREAKTIME","Address":"5977 Encina Rd","City":"Goleta","State":"CA","Zip":"93117"},{"Location":"CHILI'S #0477","Address":"6950 Market Place Dr","City":"Goleta","State":"CA","Zip":"93117"},{"Location":"CIRCLE B RANCH","Address":"1800 Refugio Rd","City":"Goleta","State":"CA","Zip":"93117"},{"Location":"CITRIX","Address":"7406 Hollister Ave","City":"Goleta","State":"CA","Zip":"93117"},{"Location":"CITRIX  SYSTEMS","Address":"7402 Hollister Ave","City":"Goleta","State":"CA","Zip":"93117"},{"Location":"CITRIX SYSTEMS","Address":"7414 Hollister Ave","City":"Goleta","State":"CA","Zip":"93117"},{"Location":"CITRIX SYSTEMS","Address":"7408 Hollister Ave","City":"Goleta","State":"CA","Zip":"93117"},{"Location":"DOMINGOS CAFE","Address":"5782 Hollister Ave","City":"Goleta","State":"CA","Zip":"93117"},{"Location":"EXXON MOBIL","Address":"12000 Calle Real","City":"Goleta","State":"CA","Zip":"93117"},{"Location":"EXXON MOBIL - GOLETA  PARKING","Address":"7760 Viajero","City":"Goleta","State":"CA","Zip":"93117"},{"Location":"FIREHOUSE SUBS #1024","Address":"6530 Seville Rd","City":"Goleta","State":"CA","Zip":"93117"},{"Location":"HAMPTON INN GOLETA (0055725)","Address":"5665 Hollister Ave","City":"Goleta","State":"CA","Zip":"93117"},{"Location":"HOLIDAY INN SANTA BARBARA65229","Address":"5650 Calle Real","City":"Goleta","State":"CA","Zip":"93117"},{"Location":"HOLLISTER BREWING COMPANY","Address":"6980 Market Place Dr","City":"Goleta","State":"CA","Zip":"93117"},{"Location":"JUBILEE CHRISTIAN CHURCH","Address":"7190 Hollister Ave","City":"Goleta","State":"CA","Zip":"93117"},{"Location":"L&L HAWAIIAN BARBECUE","Address":"7127 Hollister Ave","City":"Goleta","State":"CA","Zip":"93117"},{"Location":"LAS CUMBRES OBSERVATORY","Address":"6740 Cortona Dr 102","City":"Goleta","State":"CA","Zip":"93117"},{"Location":"LENS OF SANTA BARBARA","Address":"5720 Thornwood Dr","City":"Goleta","State":"CA","Zip":"93117"},{"Location":"LIFE LIKE COSMETICS","Address":"51 Santa Felicia Dr","City":"Goleta","State":"CA","Zip":"93117"},{"Location":"LPM MANAGEMENT","Address":"12500 Calle Real","City":"Goleta","State":"CA","Zip":"93117"},{"Location":"MCDONALDS 1103","Address":"146 S Fairview Ave","City":"Goleta","State":"CA","Zip":"93117"},{"Location":"MISSION READY","Address":"5912 Olney St","City":"Goleta","State":"CA","Zip":"93117"},{"Location":"NETWORK HARDWARE RESALE","Address":"6500 Hollister Ave","City":"Goleta","State":"CA","Zip":"93117"},{"Location":"OLD TOWN TAVERN","Address":"261 Orange Ave","City":"Goleta","State":"CA","Zip":"93117"},{"Location":"OUTBACK STEAKHOUSE #0569","Address":"5690 Calle Real","City":"Goleta","State":"CA","Zip":"93117"},{"Location":"PEPES MEXICAN RESTAURANT","Address":"254 Orange Ave","City":"Goleta","State":"CA","Zip":"93117"},{"Location":"PETRINIS ITALIAN RESTAURANT","Address":"5711 Calle Real","City":"Goleta","State":"CA","Zip":"93117"},{"Location":"RAYTHEON","Address":"6380 Hollister Ave","City":"Goleta","State":"CA","Zip":"93117"},{"Location":"ROUNDIN THIRD SPORTS BAR","Address":"7398 Calle Real G","City":"Goleta","State":"CA","Zip":"93117"},{"Location":"RUDYS RESTAURANT","Address":"5764 Calle Real","City":"Goleta","State":"CA","Zip":"93117"},{"Location":"SAIGON NOODLE HOUSE","Address":"6831 Hollister Ave L","City":"Goleta","State":"CA","Zip":"93117"},{"Location":"SANTA BARBARA AUTO SALVA","Address":"891 S Kellogg Ave","City":"Goleta","State":"CA","Zip":"93117"},{"Location":"SANTA BARBARA BISCOTTI","Address":"103 Santa Felicia Dr","City":"Goleta","State":"CA","Zip":"93117"},{"Location":"SANTA BARBARA INDUSTRIAL","Address":"873 S Kellogg Ave","City":"Goleta","State":"CA","Zip":"93117"},{"Location":"SEAWARD INTERNATIONAL COMPANY","Address":"675 Glen Annie Rd","City":"Goleta","State":"CA","Zip":"93117"},{"Location":"SIGMA NU","Address":"765 Embarcadero Del Norte","City":"Goleta","State":"CA","Zip":"93117"},{"Location":"SIGMA PHI EPSILON","Address":"795 Embarcadero Del Norte","City":"Goleta","State":"CA","Zip":"93117"},{"Location":"SIGMA PI  FRATERNITY","Address":"760 Embarcadero Del Mar","City":"Goleta","State":"CA","Zip":"93117"},{"Location":"SKY NAILS AND SPA","Address":"5768 Calle Real","City":"Goleta","State":"CA","Zip":"93117"},{"Location":"SOCAL PIZZA HUT - 30974","Address":"5915 Calle Real Ste.a","City":"Goleta","State":"CA","Zip":"93117"},{"Location":"SOUTH COAST DELI","Address":"6521 Pardall Rd","City":"Goleta","State":"CA","Zip":"93117"},{"Location":"STUDIO PLAZA REC CENTER","Address":"785 Camino Del Sur","City":"Goleta","State":"CA","Zip":"93117"},{"Location":"SUPER CUCAS 3","Address":"6527 Madrid Rd","City":"Goleta","State":"CA","Zip":"93117"},{"Location":"SUSHI TERI","Address":"5746 Calle Real","City":"Goleta","State":"CA","Zip":"93117"},{"Location":"THOMAS TOWING","Address":"8 Depot Rd","City":"Goleta","State":"CA","Zip":"93117"},{"Location":"TOYOTA SANTA BARBARA","Address":"5611 Hollister Ave","City":"Goleta","State":"CA","Zip":"93117"},{"Location":"TROPICANA GARDENS","Address":"6585 El Colegio Rd","City":"Goleta","State":"CA","Zip":"93117"},{"Location":"VARSITY BIKE SHOP","Address":"6547 Pardall Rd","City":"Goleta","State":"CA","Zip":"93117"},{"Location":"WOODS STOCK PIZZA","Address":"928 Embarcadero Del Norte","City":"Goleta","State":"CA","Zip":"93117"},{"Location":"Z'S TAPHOUSE","Address":"5925 Calle Real","City":"Goleta","State":"CA","Zip":"93117"},{"Location":"ZACARA RANCH LLC","Address":"10920 Calle Real A","City":"Goleta","State":"CA","Zip":"93117"},{"Location":"ZIZZOS COFFEE 2","Address":"370 Storke Rd","City":"Goleta","State":"CA","Zip":"93117"},{"Location":"DELTA GAMMA","Address":"6509 Picasso Rd","City":"Isla Vista","State":"CA","Zip":"93117"},{"Location":"STUDY HALL","Address":"6543 Pardall Rd","City":"Isla Vista","State":"CA","Zip":"93117"},{"Location":"SIGNATURE FLIGHT SUPPORT","Address":"515 Marxmiller Pl","City":"Santa Barbara","State":"CA","Zip":"93117"},{"Location":"TS69282020000000XXAOXXSBAXTVXX","Address":"500 James Fowler Rd","City":"Santa Barbara","State":"CA","Zip":"93117"}]