[{"Location":"AMERICAN INDIAN HEALTH AND SER","Address":"4141 State St B11","City":"Santa Barbara","State":"CA","Zip":"93110"},{"Location":"COUNTY OF SANTA BARBARA","Address":"4440a Calle Real","City":"Santa Barbara","State":"CA","Zip":"93110"},{"Location":"EV GAMES","Address":"4141 State St F5","City":"Santa Barbara","State":"CA","Zip":"93110"},{"Location":"OFFICE OF EMERGENCY MGMT","Address":"4408 Cathedral Oaks Rd","City":"Santa Barbara","State":"CA","Zip":"93110"},{"Location":"THE CREEKSIDE INN","Address":"4444 Hollister Ave","City":"Santa Barbara","State":"CA","Zip":"93110"},{"Location":"UNITED BLOOD SERVICES","Address":"4213 State St 1","City":"Santa Barbara","State":"CA","Zip":"93110"},{"Location":"AMERICAN INDIAN HEALTH AND SER","Address":"4141 State St B11","City":"Santa Barbara","State":"CA","Zip":"93110"},{"Location":"COUNTY OF SANTA BARBARA","Address":"4440a Calle Real","City":"Santa Barbara","State":"CA","Zip":"93110"},{"Location":"EV GAMES","Address":"4141 State St F5","City":"Santa Barbara","State":"CA","Zip":"93110"},{"Location":"OFFICE OF EMERGENCY MGMT","Address":"4408 Cathedral Oaks Rd","City":"Santa Barbara","State":"CA","Zip":"93110"},{"Location":"THE CREEKSIDE INN","Address":"4444 Hollister Ave","City":"Santa Barbara","State":"CA","Zip":"93110"},{"Location":"UNITED BLOOD SERVICES","Address":"4213 State St 1","City":"Santa Barbara","State":"CA","Zip":"93110"}]