[{"Location":"GOLDEN EMPIRE SHELLING","Address":"20045 Tracy Ave","City":"Buttonwillow","State":"CA","Zip":"93206"},{"Location":"GRIMM WAY FARMS","Address":"4343 Shortcut Ln","City":"Buttonwillow","State":"CA","Zip":"93206"},{"Location":"TCA 160 BUTTONWILLOW","Address":"27769 Lagoon Dr","City":"Buttonwillow","State":"CA","Zip":"93206"},{"Location":"TITAS PUPUSERIA","Address":"20643 Tracy Ave","City":"Buttonwillow","State":"CA","Zip":"93206"},{"Location":"WILLOW RANCH","Address":"27770 Lagoon Dr","City":"Buttonwillow","State":"CA","Zip":"93206"},{"Location":"GOLDEN EMPIRE SHELLING","Address":"20045 Tracy Ave","City":"Buttonwillow","State":"CA","Zip":"93206"},{"Location":"GRIMM WAY FARMS","Address":"4343 Shortcut Ln","City":"Buttonwillow","State":"CA","Zip":"93206"},{"Location":"TCA 160 BUTTONWILLOW","Address":"27769 Lagoon Dr","City":"Buttonwillow","State":"CA","Zip":"93206"},{"Location":"TITAS PUPUSERIA","Address":"20643 Tracy Ave","City":"Buttonwillow","State":"CA","Zip":"93206"},{"Location":"WILLOW RANCH","Address":"27770 Lagoon Dr","City":"Buttonwillow","State":"CA","Zip":"93206"}]