[{"Location":"CATERPILLAR INC","Address":"5924 Santa Elena Dr","City":"Arvin","State":"CA","Zip":"93203"},{"Location":"DAVITA #5047 ARVIN","Address":"902 Bear Mountain Blvd","City":"Arvin","State":"CA","Zip":"93203"},{"Location":"DON PERICO FRESH","Address":"5701 Outlet At Tejon Ranch Par","City":"Arvin","State":"CA","Zip":"93203"},{"Location":"GRIMMWAY FARMS","Address":"11412 Malaga Rd","City":"Arvin","State":"CA","Zip":"93203"},{"Location":"KERN COUNTY AUTISM CENTER","Address":"14252 Sunset Blvd","City":"Arvin","State":"CA","Zip":"93203"},{"Location":"LAS FUENTES","Address":"212 Bear Mountain Blvd","City":"Arvin","State":"CA","Zip":"93203"},{"Location":"MI PUEBLO INSURANCE","Address":"341 Bear Mountain Blvd B","City":"Arvin","State":"CA","Zip":"93203"},{"Location":"NIKE TEJON RANCH","Address":"5701 Outlets At Tejon Pkwy 300","City":"Arvin","State":"CA","Zip":"93203"},{"Location":"TCA 239 WHEELER RIDGE","Address":"5552 N Wheeler Ridge Rd","City":"Arvin","State":"CA","Zip":"93203"},{"Location":"TURNING POINT","Address":"4941 David Rd","City":"Arvin","State":"CA","Zip":"93203"},{"Location":"MICROTEL","Address":"5620 Del Sol Drive","City":"Wheeler","State":"CA","Zip":"93203"},{"Location":"CATERPILLAR INC","Address":"5924 Santa Elena Dr","City":"Arvin","State":"CA","Zip":"93203"},{"Location":"DAVITA #5047 ARVIN","Address":"902 Bear Mountain Blvd","City":"Arvin","State":"CA","Zip":"93203"},{"Location":"DON PERICO FRESH","Address":"5701 Outlet At Tejon Ranch Par","City":"Arvin","State":"CA","Zip":"93203"},{"Location":"GRIMMWAY FARMS","Address":"11412 Malaga Rd","City":"Arvin","State":"CA","Zip":"93203"},{"Location":"KERN COUNTY AUTISM CENTER","Address":"14252 Sunset Blvd","City":"Arvin","State":"CA","Zip":"93203"},{"Location":"LAS FUENTES","Address":"212 Bear Mountain Blvd","City":"Arvin","State":"CA","Zip":"93203"},{"Location":"MI PUEBLO INSURANCE","Address":"341 Bear Mountain Blvd B","City":"Arvin","State":"CA","Zip":"93203"},{"Location":"NIKE TEJON RANCH","Address":"5701 Outlets At Tejon Pkwy 300","City":"Arvin","State":"CA","Zip":"93203"},{"Location":"TCA 239 WHEELER RIDGE","Address":"5552 N Wheeler Ridge Rd","City":"Arvin","State":"CA","Zip":"93203"},{"Location":"TURNING POINT","Address":"4941 David Rd","City":"Arvin","State":"CA","Zip":"93203"},{"Location":"MICROTEL","Address":"5620 Del Sol Drive","City":"Wheeler","State":"CA","Zip":"93203"}]