[{"Location":"CHEVRON%2FTEXACO 3","Address":"39405 S Derack Ave","City":"Coalinga","State":"CA","Zip":"93210"},{"Location":"COALINGIA FITNESS CENTER","Address":"191 E Forest Ave","City":"Coalinga","State":"CA","Zip":"93210"},{"Location":"DAVITA #5247 COALINGS","Address":"1147 Phelps Ave","City":"Coalinga","State":"CA","Zip":"93210"},{"Location":"FATTE ALBERT'S PIZZA","Address":"235 Coalinga Plz","City":"Coalinga","State":"CA","Zip":"93210"},{"Location":"HARRIS WOOLF CALIFORNIA ALMOND","Address":"26060 Colusa Ave","City":"Coalinga","State":"CA","Zip":"93210"},{"Location":"M SCOTT & CO INC","Address":"150 E Durian Ave","City":"Coalinga","State":"CA","Zip":"93210"},{"Location":"MCDONALDS II","Address":"25145 W Dorris Ave","City":"Coalinga","State":"CA","Zip":"93210"},{"Location":"MCDONALDS1","Address":"396 W Elm Ave","City":"Coalinga","State":"CA","Zip":"93210"},{"Location":"MOUNTAIN OYSTER STEAKHOUSE","Address":"260-270 Van Ness St","City":"Coalinga","State":"CA","Zip":"93210"},{"Location":"NET XPERTS INC","Address":"205 Cheney Ln","City":"Coalinga","State":"CA","Zip":"93210"},{"Location":"NEW CHINA RESTAURANT","Address":"186 N 5th St","City":"Coalinga","State":"CA","Zip":"93210"},{"Location":"PHILLIPS 66","Address":"256 E Polk St","City":"Coalinga","State":"CA","Zip":"93210"},{"Location":"VQ FITNESS","Address":"625 E Elm Ave","City":"Coalinga","State":"CA","Zip":"93210"},{"Location":"WEST HILLS COMMUNITY COLLEGE","Address":"9900 Cody Ave 32490","City":"Coalinga","State":"CA","Zip":"93210"}]