[{"Location":"ALS LIQUIOR STORE","Address":"914 Main St","City":"Delano","State":"CA","Zip":"93215"},{"Location":"AVIATOR CASINO","Address":"1225 Airport Dr","City":"Delano","State":"CA","Zip":"93215"},{"Location":"BILLYS BEAUTY SALON","Address":"1625 Cecil Ave C","City":"Delano","State":"CA","Zip":"93215"},{"Location":"BLANC VINEYARDS","Address":"1625 Road 160","City":"Delano","State":"CA","Zip":"93215"},{"Location":"BROWNING MANOR INC","Address":"726 Browning Rd","City":"Delano","State":"CA","Zip":"93215"},{"Location":"CARLOS PLACE 1","Address":"710 High St","City":"Delano","State":"CA","Zip":"93215"},{"Location":"COLUMBINE VINEYARDS","Address":"33787 Cecil Ave","City":"Delano","State":"CA","Zip":"93215"},{"Location":"DAVITA #4026-1C DELANO","Address":"405 Dover Park Way","City":"Delano","State":"CA","Zip":"93215"},{"Location":"DELANO COMMUNITY CORRECT","Address":"2727 W Industry Rd","City":"Delano","State":"CA","Zip":"93215"},{"Location":"DELANO FARMS","Address":"10025 Reed Rd","City":"Delano","State":"CA","Zip":"93215"},{"Location":"DELANO GROWERS GRAPE","Address":"32351 Bassett Ave","City":"Delano","State":"CA","Zip":"93215"},{"Location":"DELANO PROPANE INC","Address":"201 High St A","City":"Delano","State":"CA","Zip":"93215"},{"Location":"DR DE LOS REYES DMD","Address":"2236 Girard St","City":"Delano","State":"CA","Zip":"93215"},{"Location":"FAMILY SHOES","Address":"1032 Main St","City":"Delano","State":"CA","Zip":"93215"},{"Location":"FOUR STAR FRUIT INC","Address":"13830 Ave 24","City":"Delano","State":"CA","Zip":"93215"},{"Location":"JAGUAR FARM LABOR","Address":"Road 172 Unit162","City":"Delano","State":"CA","Zip":"93215"},{"Location":"JASMINE VINEYARDS","Address":"33319 Pond Road","City":"Delano","State":"CA","Zip":"93215"},{"Location":"JEROLD POPE JOY","Address":"1401 Garces Hwy","City":"Delano","State":"CA","Zip":"93215"},{"Location":"KERN AG LABOR MGMT","Address":"10091 Zachary Ave","City":"Delano","State":"CA","Zip":"93215"},{"Location":"LA JOLLA COLD STORAGE","Address":"3110 Schufter","City":"Delano","State":"CA","Zip":"93215"},{"Location":"LOS MUCHACANOS","Address":"1209 Jefferson St","City":"Delano","State":"CA","Zip":"93215"},{"Location":"LR'S PIZZA","Address":"707 High St","City":"Delano","State":"CA","Zip":"93215"},{"Location":"MAGOOS PIZZA 2","Address":"2240 Girard St","City":"Delano","State":"CA","Zip":"93215"},{"Location":"MAUI PHO TOO FUSION GRILL","Address":"1004 High St","City":"Delano","State":"CA","Zip":"93215"},{"Location":"MOTHER NATURE INC","Address":"1427 S Lexington St 6","City":"Delano","State":"CA","Zip":"93215"},{"Location":"NANAYS RESTURANT","Address":"1727 Cecil Ave","City":"Delano","State":"CA","Zip":"93215"},{"Location":"OCEAN CITY PIZZA INC%2FDOM","Address":"1609 Cecil Ave","City":"Delano","State":"CA","Zip":"93215"},{"Location":"PIZZA HUT- DELANO","Address":"633 Cecil Ave","City":"Delano","State":"CA","Zip":"93215"},{"Location":"POSITIVE DIRECTIONS","Address":"921 13th Ave","City":"Delano","State":"CA","Zip":"93215"},{"Location":"ROCKYS PIZZA","Address":"1017 Main St","City":"Delano","State":"CA","Zip":"93215"},{"Location":"SARTIAGUIN & ASSOCIATES","Address":"1727 Cecil Ave 2","City":"Delano","State":"CA","Zip":"93215"},{"Location":"SEARS LOGISTIC SERVICES","Address":"1700 Schuster Rd","City":"Delano","State":"CA","Zip":"93215"},{"Location":"TAQUERIA HUARACHE LOCO","Address":"1127 Main St","City":"Delano","State":"CA","Zip":"93215"},{"Location":"Taqueria Y Mariscos Tepa","Address":"401 Ellington St","City":"Delano","State":"CA","Zip":"93215"},{"Location":"THE BARBERS LOUNGE","Address":"810 10th Ave","City":"Delano","State":"CA","Zip":"93215"},{"Location":"THREE SISTERS MARKET","Address":"913 Main St","City":"Delano","State":"CA","Zip":"93215"},{"Location":"VALLARTA SUPERMARKET #23","Address":"1840 Cecil Ave","City":"Delano","State":"CA","Zip":"93215"},{"Location":"VINERIPE SALES LLC","Address":"502 County Line Rd","City":"Delano","State":"CA","Zip":"93215"},{"Location":"VZ COLD STORAGE INC","Address":"1402 Glenwood St","City":"Delano","State":"CA","Zip":"93215"},{"Location":"WILD WINGS & THINGS","Address":"550 Woollomes Ave 110","City":"Delano","State":"CA","Zip":"93215"}]