[{"Location":"CITY OF EXETER","Address":"137 N F St","City":"Exeter","State":"CA","Zip":"93221"},{"Location":"COURAGE TO CHANGE","Address":"1230 N Anderson Rd","City":"Exeter","State":"CA","Zip":"93221"},{"Location":"DAVITA #2266 EXETER","Address":"1116 W Visalia Rd 106","City":"Exeter","State":"CA","Zip":"93221"},{"Location":"DOUBLE TT INC","Address":"161 N E St","City":"Exeter","State":"CA","Zip":"93221"},{"Location":"EAGLES","Address":"555 W Visalia Rd","City":"Exeter","State":"CA","Zip":"93221"},{"Location":"EL CARRUSEL BAKERY","Address":"537 W Pine St","City":"Exeter","State":"CA","Zip":"93221"},{"Location":"EXETER ADULT ACTIVITY CE","Address":"508 N Kaweah Ave","City":"Exeter","State":"CA","Zip":"93221"},{"Location":"EXETER CHRISTIAN SERVICES","Address":"710 Lenox Ave","City":"Exeter","State":"CA","Zip":"93221"},{"Location":"EXETER HEALTH CLINIC","Address":"1014 San Juan Ave","City":"Exeter","State":"CA","Zip":"93221"},{"Location":"EXETER MOTORS INC","Address":"203 E Palm St","City":"Exeter","State":"CA","Zip":"93221"},{"Location":"EXETER MOTORS INC 2","Address":"132 N D St","City":"Exeter","State":"CA","Zip":"93221"},{"Location":"KASKAS AUTO SALES","Address":"101 2nd St","City":"Exeter","State":"CA","Zip":"93221"},{"Location":"KIRKMANS","Address":"180 E Pine St","City":"Exeter","State":"CA","Zip":"93221"},{"Location":"ME-N-EDS PIZZERIA-DIV94","Address":"1102 W Visalia Rd 102","City":"Exeter","State":"CA","Zip":"93221"},{"Location":"MK EARLY ENTERPRISES LLC","Address":"1111 W Visalia Rd","City":"Exeter","State":"CA","Zip":"93221"},{"Location":"RALPH FULLER ELECTRIC","Address":"253 W Pine St","City":"Exeter","State":"CA","Zip":"93221"},{"Location":"SPORT CUT BARBERSHOP","Address":"126 S E St","City":"Exeter","State":"CA","Zip":"93221"},{"Location":"SUN RAPT FOODS LLC","Address":"662 N Spruce Rd","City":"Exeter","State":"CA","Zip":"93221"},{"Location":"TF TIRE AND SERVICE","Address":"250 S F St","City":"Exeter","State":"CA","Zip":"93221"},{"Location":"THE STAG SALOON","Address":"115 E Pine St","City":"Exeter","State":"CA","Zip":"93221"},{"Location":"WILLITTS EQUIPMENT","Address":"30548 Road 196","City":"Exeter","State":"CA","Zip":"93221"},{"Location":"WILSONS ABBEY MEDICAB","Address":"160 N E St","City":"Exeter","State":"CA","Zip":"93221"},{"Location":"CITY OF EXETER","Address":"137 N F St","City":"Exeter","State":"CA","Zip":"93221"},{"Location":"COURAGE TO CHANGE","Address":"1230 N Anderson Rd","City":"Exeter","State":"CA","Zip":"93221"},{"Location":"DAVITA #2266 EXETER","Address":"1116 W Visalia Rd 106","City":"Exeter","State":"CA","Zip":"93221"},{"Location":"DOUBLE TT INC","Address":"161 N E St","City":"Exeter","State":"CA","Zip":"93221"},{"Location":"EAGLES","Address":"555 W Visalia Rd","City":"Exeter","State":"CA","Zip":"93221"},{"Location":"EL CARRUSEL BAKERY","Address":"537 W Pine St","City":"Exeter","State":"CA","Zip":"93221"},{"Location":"EXETER ADULT ACTIVITY CE","Address":"508 N Kaweah Ave","City":"Exeter","State":"CA","Zip":"93221"},{"Location":"EXETER CHRISTIAN SERVICES","Address":"710 Lenox Ave","City":"Exeter","State":"CA","Zip":"93221"},{"Location":"EXETER HEALTH CLINIC","Address":"1014 San Juan Ave","City":"Exeter","State":"CA","Zip":"93221"},{"Location":"EXETER MOTORS INC","Address":"203 E Palm St","City":"Exeter","State":"CA","Zip":"93221"},{"Location":"EXETER MOTORS INC 2","Address":"132 N D St","City":"Exeter","State":"CA","Zip":"93221"},{"Location":"KASKAS AUTO SALES","Address":"101 2nd St","City":"Exeter","State":"CA","Zip":"93221"},{"Location":"KIRKMANS","Address":"180 E Pine St","City":"Exeter","State":"CA","Zip":"93221"},{"Location":"ME-N-EDS PIZZERIA-DIV94","Address":"1102 W Visalia Rd 102","City":"Exeter","State":"CA","Zip":"93221"},{"Location":"MK EARLY ENTERPRISES LLC","Address":"1111 W Visalia Rd","City":"Exeter","State":"CA","Zip":"93221"},{"Location":"RALPH FULLER ELECTRIC","Address":"253 W Pine St","City":"Exeter","State":"CA","Zip":"93221"},{"Location":"SPORT CUT BARBERSHOP","Address":"126 S E St","City":"Exeter","State":"CA","Zip":"93221"},{"Location":"SUN RAPT FOODS LLC","Address":"662 N Spruce Rd","City":"Exeter","State":"CA","Zip":"93221"},{"Location":"TF TIRE AND SERVICE","Address":"250 S F St","City":"Exeter","State":"CA","Zip":"93221"},{"Location":"THE STAG SALOON","Address":"115 E Pine St","City":"Exeter","State":"CA","Zip":"93221"},{"Location":"WILLITTS EQUIPMENT","Address":"30548 Road 196","City":"Exeter","State":"CA","Zip":"93221"},{"Location":"WILSONS ABBEY MEDICAB","Address":"160 N E St","City":"Exeter","State":"CA","Zip":"93221"}]