[{"Location":"ADVENTIST HEALTH COMMUNI","Address":"11899 Shaw Pl","City":"Hanford","State":"CA","Zip":"93230"},{"Location":"ADVENTIST HEALTH IMAGING","Address":"125 Mall Dr","City":"Hanford","State":"CA","Zip":"93230"},{"Location":"ADVENTIST HEALTH PHYSICI","Address":"210 W Lacey Blvd","City":"Hanford","State":"CA","Zip":"93230"},{"Location":"ALADDIN BAIL BONDS","Address":"385 Campus Dr","City":"Hanford","State":"CA","Zip":"93230"},{"Location":"AMERICAN AMBULANCE","Address":"910 Garner Ave","City":"Hanford","State":"CA","Zip":"93230"},{"Location":"AMERICAN AMBULANCE","Address":"113 E Grangeville Blvd","City":"Hanford","State":"CA","Zip":"93230"},{"Location":"AMERICAN DREAM MOTORS LLC","Address":"971 E Lacey Blvd","City":"Hanford","State":"CA","Zip":"93230"},{"Location":"APPLEBEE'S HANFORD #2111025","Address":"1665 W Lacey Blvd","City":"Hanford","State":"CA","Zip":"93230"},{"Location":"ARROYAVE GONZALEZ LLC","Address":"901 W Lacey Blvd","City":"Hanford","State":"CA","Zip":"93230"},{"Location":"ARSENIOS MEXICAN FOOD","Address":"1695 W Lacey Blvd","City":"Hanford","State":"CA","Zip":"93230"},{"Location":"CANINE COMFORT CREEK","Address":"1285 N 10th Ave","City":"Hanford","State":"CA","Zip":"93230"},{"Location":"CARROLL'S TIRE WAREHOUSE","Address":"450 W 6th St","City":"Hanford","State":"CA","Zip":"93230"},{"Location":"CENTRAL VALLEY HOSPITAL","Address":"1524 Lacey Blvd","City":"Hanford","State":"CA","Zip":"93230"},{"Location":"CERTIFIED MEDICAL GROUP","Address":"125 Mall Dr 301","City":"Hanford","State":"CA","Zip":"93230"},{"Location":"CHILI'S #1178","Address":"119 N 12th Ave","City":"Hanford","State":"CA","Zip":"93230"},{"Location":"CHILITOS","Address":"509 E 7th St","City":"Hanford","State":"CA","Zip":"93230"},{"Location":"COLIMA RESTAURANT BAR","Address":"320 E 7th St","City":"Hanford","State":"CA","Zip":"93230"},{"Location":"COMMUNITY CARE CENTER","Address":"1122 N Harris St","City":"Hanford","State":"CA","Zip":"93230"},{"Location":"COPPER VALLEY ALL MOTORS","Address":"1800 Dali Way","City":"Hanford","State":"CA","Zip":"93230"},{"Location":"DANIEL C SALAS HARVESTING INC","Address":"125 E 7th St","City":"Hanford","State":"CA","Zip":"93230"},{"Location":"DAULTON-KING FAMILY NURS","Address":"530 Kings County Dr 107","City":"Hanford","State":"CA","Zip":"93230"},{"Location":"DAVITA #3727 HANFORD HOME","Address":"900 N Douty St","City":"Hanford","State":"CA","Zip":"93230"},{"Location":"DAVITA #3831 HANFORD","Address":"402 W 8th St","City":"Hanford","State":"CA","Zip":"93230"},{"Location":"DAVITA #5190 SEQUOIA","Address":"440 N 11th Ave","City":"Hanford","State":"CA","Zip":"93230"},{"Location":"DICKEYS BARBECUE PIT","Address":"240 N 12th Ave 111","City":"Hanford","State":"CA","Zip":"93230"},{"Location":"E&B TRUCKING","Address":"12447 12th Ave","City":"Hanford","State":"CA","Zip":"93230"},{"Location":"EL TARASCO","Address":"114 W 7th St","City":"Hanford","State":"CA","Zip":"93230"},{"Location":"FADED BARBER SHOP","Address":"314 B 7th St","City":"Hanford","State":"CA","Zip":"93230"},{"Location":"FAMILY HEALTHCARE NETWORK","Address":"329 W 8th St 101","City":"Hanford","State":"CA","Zip":"93230"},{"Location":"FANTASY NAILS","Address":"2475 N 10th Ave","City":"Hanford","State":"CA","Zip":"93230"},{"Location":"FARM CREDIT WEST","Address":"1111 W Lacey Blvd","City":"Hanford","State":"CA","Zip":"93230"},{"Location":"FIRESTONE #351021 NC","Address":"248 N 12th Ave","City":"Hanford","State":"CA","Zip":"93230"},{"Location":"FUGAZZIS","Address":"601 W 7th St","City":"Hanford","State":"CA","Zip":"93230"},{"Location":"GOLDEN 1 CREDIT UNION 8","Address":"109 W 8th St","City":"Hanford","State":"CA","Zip":"93230"},{"Location":"HANFORD ELKS","Address":"506 N Douty St","City":"Hanford","State":"CA","Zip":"93230"},{"Location":"HANFORD MOTOR CARS INC","Address":"1990 Glendale Ave","City":"Hanford","State":"CA","Zip":"93230"},{"Location":"HERITAGE PARK AT HANFORD","Address":"439 Centennial Dr","City":"Hanford","State":"CA","Zip":"93230"},{"Location":"IN SHAPE HEALTH CLUBS INC","Address":"325 N 11th Ave","City":"Hanford","State":"CA","Zip":"93230"},{"Location":"KERR OUTPATIENT CENTER SURGERY","Address":"407 Greenfield Ave","City":"Hanford","State":"CA","Zip":"93230"},{"Location":"KINGS COUNTY EDUCATION","Address":"443 Greenfield Ave","City":"Hanford","State":"CA","Zip":"93230"},{"Location":"KINGS FEDERAL CREDIT UNI","Address":"1415 W Lacey Blvd","City":"Hanford","State":"CA","Zip":"93230"},{"Location":"KOHL'S #1400","Address":"1677 W Lacey Blvd","City":"Hanford","State":"CA","Zip":"93230"},{"Location":"LA CHATITA RESTAURANT","Address":"1750 N 10th Ave","City":"Hanford","State":"CA","Zip":"93230"},{"Location":"LA FIESTA RESTAURANT 2","Address":"106 N Green St","City":"Hanford","State":"CA","Zip":"93230"},{"Location":"LABOR CONSULTANTS OF CA","Address":"422 N Douty St D","City":"Hanford","State":"CA","Zip":"93230"},{"Location":"MARTOOT AND HARDCASTLE","Address":"429 N Redington St","City":"Hanford","State":"CA","Zip":"93230"},{"Location":"ME-N-EDS PIZZERIA- DIV 02","Address":"711 W Grangeville Blvd","City":"Hanford","State":"CA","Zip":"93230"},{"Location":"ME-N-EDS PIZZERIA- DIV34","Address":"2483 N 10th Ave","City":"Hanford","State":"CA","Zip":"93230"},{"Location":"MIKES GRILL","Address":"617 E 7th St","City":"Hanford","State":"CA","Zip":"93230"},{"Location":"NUTRISHOP HANSORD","Address":"208 N 12th Ave Sut11","City":"Hanford","State":"CA","Zip":"93230"},{"Location":"PCG HOSPITALITY - ROUND","Address":"208 N 12th Ave","City":"Hanford","State":"CA","Zip":"93230"},{"Location":"PIZZA HUT HANFORD","Address":"410 N 11th Ave 107","City":"Hanford","State":"CA","Zip":"93230"},{"Location":"QUE PASA MEXICAN CAFE-HA","Address":"1675 W Lacey Blvd F1","City":"Hanford","State":"CA","Zip":"93230"},{"Location":"SHORTY'S","Address":"129 W 5th St","City":"Hanford","State":"CA","Zip":"93230"},{"Location":"SIERRA VISTA","Address":"852 E Grangeville Blvd Ofc","City":"Hanford","State":"CA","Zip":"93230"},{"Location":"STEVES WINDOW CLEANING","Address":"310 N Irwin St 22","City":"Hanford","State":"CA","Zip":"93230"},{"Location":"SU CASA VALLEY INSURANCE","Address":"116 N 11th Ave","City":"Hanford","State":"CA","Zip":"93230"},{"Location":"THE CHICKEN SHACK","Address":"913 W Lacey Blvd","City":"Hanford","State":"CA","Zip":"93230"},{"Location":"The Smoke Joint BBQ","Address":"102 W 7th St","City":"Hanford","State":"CA","Zip":"93230"},{"Location":"VICS BAR","Address":"8348 Lacey Blvd","City":"Hanford","State":"CA","Zip":"93230"},{"Location":"WALMART","Address":"13231 11th Ave","City":"Hanford","State":"CA","Zip":"93230"},{"Location":"WINDGATE","Address":"536 E Grangeville Blvd","City":"Hanford","State":"CA","Zip":"93230"}]