[{"Location":"CSFWP  N A S","Address":"1 K St 131a","City":"Lemoore","State":"CA","Zip":"93246"},{"Location":"LEMOORE NAVAL AIR","Address":"190 Reeves Blvd","City":"Lemoore","State":"CA","Zip":"93246"},{"Location":"MABB LEMOORE 1","Address":"800 Homme Richard St","City":"Lemoore","State":"CA","Zip":"93246"},{"Location":"MABB LEMOORE 2","Address":"800 Homme Richard St","City":"Lemoore","State":"CA","Zip":"93246"},{"Location":"MABB LEMOORE 3","Address":"800 Homme Richard St","City":"Lemoore","State":"CA","Zip":"93246"},{"Location":"MABB LEMOORE 4","Address":"800 Homme Richard St","City":"Lemoore","State":"CA","Zip":"93246"},{"Location":"MABB LEMOORE 5","Address":"800 Homme Richard St","City":"Lemoore","State":"CA","Zip":"93246"},{"Location":"NAVAL HOSPITAL","Address":"937 Franklin Blvd","City":"Lemoore","State":"CA","Zip":"93246"},{"Location":"US NAVY","Address":"210 Reeves Blvd 2","City":"Lemoore","State":"CA","Zip":"93246"},{"Location":"US NAVY","Address":"Mod 4 Nas Lemoore 2","City":"Lemoore","State":"CA","Zip":"93246"}]