[{"Location":"CHINAS ALLEY MEXICAN","Address":"170 N Sweetbriar Ave","City":"Lindsay","State":"CA","Zip":"93247"},{"Location":"DR QUEZADA DENTAL OFFICE","Address":"781 Sequoia Ave 4","City":"Lindsay","State":"CA","Zip":"93247"},{"Location":"FAT BOYZ SPORTS BAR AND GRILL","Address":"222 N Elmwood Ave","City":"Lindsay","State":"CA","Zip":"93247"},{"Location":"KEEPER CUSTOM WORMS","Address":"20844 Avenue 245","City":"Lindsay","State":"CA","Zip":"93247"},{"Location":"LINDSAY HEALTH CLINIC","Address":"839 Sequoia Ave","City":"Lindsay","State":"CA","Zip":"93247"},{"Location":"LINDSAY URGENT CARE","Address":"825 Sequoia Ave","City":"Lindsay","State":"CA","Zip":"93247"},{"Location":"MCDERMONT FIELD HOUSE #1","Address":"365 N Sweetbriar Ave","City":"Lindsay","State":"CA","Zip":"93247"},{"Location":"MODERMONT FIELD HOUSE #2","Address":"365 N Sweetbriar Ave","City":"Lindsay","State":"CA","Zip":"93247"},{"Location":"STRAW HAT PIZZA","Address":"268 N Highway 65","City":"Lindsay","State":"CA","Zip":"93247"},{"Location":"THE ORANGE BAR","Address":"172 W Honolulu St","City":"Lindsay","State":"CA","Zip":"93247"},{"Location":"TONYS PIZZA2","Address":"380 W Hermoza","City":"Lindsay","State":"CA","Zip":"93247"},{"Location":"TUR AMERICA TRAVEL","Address":"103 W Honolulu St","City":"Lindsay","State":"CA","Zip":"93247"},{"Location":"VIDA SANA MEDICAL GROUP","Address":"755 Sequoia Ave B","City":"Lindsay","State":"CA","Zip":"93247"},{"Location":"CHINAS ALLEY MEXICAN","Address":"170 N Sweetbriar Ave","City":"Lindsay","State":"CA","Zip":"93247"},{"Location":"DR QUEZADA DENTAL OFFICE","Address":"781 Sequoia Ave 4","City":"Lindsay","State":"CA","Zip":"93247"},{"Location":"FAT BOYZ SPORTS BAR AND GRILL","Address":"222 N Elmwood Ave","City":"Lindsay","State":"CA","Zip":"93247"},{"Location":"KEEPER CUSTOM WORMS","Address":"20844 Avenue 245","City":"Lindsay","State":"CA","Zip":"93247"},{"Location":"LINDSAY HEALTH CLINIC","Address":"839 Sequoia Ave","City":"Lindsay","State":"CA","Zip":"93247"},{"Location":"LINDSAY URGENT CARE","Address":"825 Sequoia Ave","City":"Lindsay","State":"CA","Zip":"93247"},{"Location":"MCDERMONT FIELD HOUSE #1","Address":"365 N Sweetbriar Ave","City":"Lindsay","State":"CA","Zip":"93247"},{"Location":"MODERMONT FIELD HOUSE #2","Address":"365 N Sweetbriar Ave","City":"Lindsay","State":"CA","Zip":"93247"},{"Location":"STRAW HAT PIZZA","Address":"268 N Highway 65","City":"Lindsay","State":"CA","Zip":"93247"},{"Location":"THE ORANGE BAR","Address":"172 W Honolulu St","City":"Lindsay","State":"CA","Zip":"93247"},{"Location":"TONYS PIZZA2","Address":"380 W Hermoza","City":"Lindsay","State":"CA","Zip":"93247"},{"Location":"TUR AMERICA TRAVEL","Address":"103 W Honolulu St","City":"Lindsay","State":"CA","Zip":"93247"},{"Location":"VIDA SANA MEDICAL GROUP","Address":"755 Sequoia Ave B","City":"Lindsay","State":"CA","Zip":"93247"}]