[{"Location":"RANCH HOUSE RESTAURANT","Address":"49713 Gorman Post Rd","City":"Gorman","State":"CA","Zip":"93243"},{"Location":"U.S. FOREST SERVICE","Address":"700 Hall Rd","City":"Gorman","State":"CA","Zip":"93243"},{"Location":"BEST WESTERN","Address":"5521 Dennis Mccarthy Dr","City":"Lebec","State":"CA","Zip":"93243"},{"Location":"CALIFORNIA STATE HWY PATROL","Address":"32829 Interstate 5","City":"Lebec","State":"CA","Zip":"93243"},{"Location":"DENNYS 8626","Address":"42810 Frazier Mountain Rd","City":"Lebec","State":"CA","Zip":"93243"},{"Location":"DOLLAR GENERAL","Address":"4193 Industrial Parkway Dr","City":"Lebec","State":"CA","Zip":"93243"},{"Location":"IKEA","Address":"4049b Industrial Parkway Dr","City":"Lebec","State":"CA","Zip":"93243"},{"Location":"IKEA #345","Address":"4104 Industrial Parkway Dr","City":"Lebec","State":"CA","Zip":"93243"},{"Location":"MAURICIOS GRILL AND CAN","Address":"5701 Dennis Mccarthy Dr","City":"Lebec","State":"CA","Zip":"93243"},{"Location":"PETRO 327 WHEELER RIDGE","Address":"5821 Dennis Mccarthy Dr","City":"Lebec","State":"CA","Zip":"93243"},{"Location":"PILOT FLYING J #61600","Address":"42810 Frazier Mountain Rd","City":"Lebec","State":"CA","Zip":"93243"},{"Location":"RAMADA LIMITED","Address":"9000 Country Side Ct","City":"Lebec","State":"CA","Zip":"93243"},{"Location":"TEJON RANCH COMPANY","Address":"491 Rochford Road","City":"Lebec","State":"CA","Zip":"93243"},{"Location":"THE CALIFORNIA HIGHWAY PATROL","Address":"1033 Lebec Rd","City":"Lebec","State":"CA","Zip":"93243"}]