[{"Location":"ADVENTIST - LEMOORE","Address":"812 E D St C","City":"Lemoore","State":"CA","Zip":"93245"},{"Location":"ADVENTIST HEALTH COMMUNI","Address":"810 E D St","City":"Lemoore","State":"CA","Zip":"93245"},{"Location":"ADVENTIST HEALTH COMMUNI","Address":"812 E D St","City":"Lemoore","State":"CA","Zip":"93245"},{"Location":"AGUSA INC AG USA","Address":"1055 S 19th Ave","City":"Lemoore","State":"CA","Zip":"93245"},{"Location":"AH PHYSICAL THERAPY","Address":"250 E Hanford Armona Rd C","City":"Lemoore","State":"CA","Zip":"93245"},{"Location":"BLAIR AIR AND GROUND","Address":"19101 Kent Ave","City":"Lemoore","State":"CA","Zip":"93245"},{"Location":"CENTRAL VALLEY INDIAN","Address":"16835 Alkali Dr M","City":"Lemoore","State":"CA","Zip":"93245"},{"Location":"CLUB 261 OF KINGS CO INC","Address":"788 E D St","City":"Lemoore","State":"CA","Zip":"93245"},{"Location":"DAVITA #4450 LEMOORE","Address":"1345 W Bush St","City":"Lemoore","State":"CA","Zip":"93245"},{"Location":"ECONOMY AUTO WRECKING","Address":"977 W Iona Ave","City":"Lemoore","State":"CA","Zip":"93245"},{"Location":"FILIPNIO CUSINE","Address":"352 E D St","City":"Lemoore","State":"CA","Zip":"93245"},{"Location":"IN SHAPE HEALTH CLUBS LEMOORE","Address":"1140 N Lemoore Ave","City":"Lemoore","State":"CA","Zip":"93245"},{"Location":"LEMOORE STADIUM CINEMA","Address":"400 Follett St","City":"Lemoore","State":"CA","Zip":"93245"},{"Location":"ME-N-EDS PIZZERIA-DIV16","Address":"1290 N Lemoore Ave","City":"Lemoore","State":"CA","Zip":"93245"},{"Location":"MENDES AND TOSTE DAIRY","Address":"8519 24th Ave","City":"Lemoore","State":"CA","Zip":"93245"},{"Location":"MICKYS","Address":"230 Fox St","City":"Lemoore","State":"CA","Zip":"93245"},{"Location":"NAVY   EXCHANGE","Address":"Hancock Cir Bldg 829","City":"Lemoore","State":"CA","Zip":"93245"},{"Location":"NAVY  EXCHANGE","Address":"Hancock Cir Blgd 825","City":"Lemoore","State":"CA","Zip":"93245"},{"Location":"NAVY EXCHANGE","Address":"Bldg 795 Reeves Blvd","City":"Lemoore","State":"CA","Zip":"93245"},{"Location":"PIZZA HUT - N LEMOORE","Address":"1029 N Lemoore Ave","City":"Lemoore","State":"CA","Zip":"93245"},{"Location":"REYNA'S RESTAURANT","Address":"333 E St","City":"Lemoore","State":"CA","Zip":"93245"},{"Location":"ST PETERS CHURCH","Address":"951 Murphy Dr","City":"Lemoore","State":"CA","Zip":"93245"},{"Location":"TACHI PALACE HOTEL & CASINO #1","Address":"17225 Jersey Ave","City":"Lemoore","State":"CA","Zip":"93245"},{"Location":"TERI'S FRONT STREET GRILL","Address":"219 E St","City":"Lemoore","State":"CA","Zip":"93245"},{"Location":"VINEYARD INN RESTAURANT","Address":"819 E Bush St","City":"Lemoore","State":"CA","Zip":"93245"}]