[{"Location":"FAGGART BUICK INC","Address":"133 S Main St","City":"Poplar","State":"CA","Zip":"93257"},{"Location":"FOSTER FARMS","Address":"194 W Poplar Ave","City":"Poplar","State":"CA","Zip":"93257"},{"Location":"A N B","Address":"193 S Main St","City":"Porterville","State":"CA","Zip":"93257"},{"Location":"AGUA PURIFICADA","Address":"611 W Olive Ave","City":"Porterville","State":"CA","Zip":"93257"},{"Location":"ARA PORTERVILLE","Address":"842 W Henderson Ave","City":"Porterville","State":"CA","Zip":"93257"},{"Location":"ARCOIRIS","Address":"1379 W Olive Ave D","City":"Porterville","State":"CA","Zip":"93257"},{"Location":"BD QUALITY PAINT AND BODY","Address":"983 W North Grand Ave","City":"Porterville","State":"CA","Zip":"93257"},{"Location":"BURGER KING 3383","Address":"1092 W Henderson Ave","City":"Porterville","State":"CA","Zip":"93257"},{"Location":"CARROLLS TIRE WAREHOUSE","Address":"981 W North Grand Ave","City":"Porterville","State":"CA","Zip":"93257"},{"Location":"CARROLLS TIRE WAREHOUSE 5","Address":"677 S Plano St","City":"Porterville","State":"CA","Zip":"93257"},{"Location":"CHINAS ALLEY","Address":"1377 W Henderson Ave","City":"Porterville","State":"CA","Zip":"93257"},{"Location":"COLLINS MLB","Address":"467 N Main St","City":"Porterville","State":"CA","Zip":"93257"},{"Location":"DON VINOS 2","Address":"247 N Main St","City":"Porterville","State":"CA","Zip":"93257"},{"Location":"DOYLE COLONY FIRESTATION 20","Address":"1551 E Success Dr","City":"Porterville","State":"CA","Zip":"93257"},{"Location":"DR BEHL","Address":"567 W Putnam Ave","City":"Porterville","State":"CA","Zip":"93257"},{"Location":"FAMILY HEALTHCARE NETWORK 2","Address":"323 W Putnam Ave","City":"Porterville","State":"CA","Zip":"93257"},{"Location":"FAMILY HEALTHCARE NETWORK 3","Address":"1137 W Poplar Ave","City":"Porterville","State":"CA","Zip":"93257"},{"Location":"FAMILY HEALTHCARE NETWORK 4","Address":"1107 W Poplar Ave","City":"Porterville","State":"CA","Zip":"93257"},{"Location":"FOSTER FARMS","Address":"770 N Plano St","City":"Porterville","State":"CA","Zip":"93257"},{"Location":"FOUNTAIN SPRINGS TAPATI2","Address":"29095 Avenue 56","City":"Porterville","State":"CA","Zip":"93257"},{"Location":"FRATERNAL ORDER OF EAGLES","Address":"97 E Henderson Ave","City":"Porterville","State":"CA","Zip":"93257"},{"Location":"GEORGE AND WILSONS DDS INC","Address":"380 W Putnam Ave","City":"Porterville","State":"CA","Zip":"93257"},{"Location":"GILLESPIE AG SVC%2FHANGER","Address":"1893 S Newcomb St","City":"Porterville","State":"CA","Zip":"93257"},{"Location":"HARLEYS TAVERN","Address":"1200 S Main St","City":"Porterville","State":"CA","Zip":"93257"},{"Location":"IMPERIAL AMBULANCE INC","Address":"745 North Newcome","City":"Porterville","State":"CA","Zip":"93257"},{"Location":"ISC PORTERVILLE","Address":"899 W Henderson Ave","City":"Porterville","State":"CA","Zip":"93257"},{"Location":"JAMES HART LLC","Address":"1133 W Poplar Ave","City":"Porterville","State":"CA","Zip":"93257"},{"Location":"JOSHUA LUZANILLA SOAPOPE","Address":"327 E Olive Ave","City":"Porterville","State":"CA","Zip":"93257"},{"Location":"KIKES BABER SHOP","Address":"64 S Main St","City":"Porterville","State":"CA","Zip":"93257"},{"Location":"KOHL'S #1403","Address":"1275 W Henderson Ave","City":"Porterville","State":"CA","Zip":"93257"},{"Location":"LAKE EXPRESS","Address":"28779 Highway 190","City":"Porterville","State":"CA","Zip":"93257"},{"Location":"LEONARDOS JEWELERY","Address":"113 N Main St","City":"Porterville","State":"CA","Zip":"93257"},{"Location":"LOREDO AND ASSOC","Address":"241 N Hockett St","City":"Porterville","State":"CA","Zip":"93257"},{"Location":"PAAR CENTER","Address":"509 N Elgranito","City":"Porterville","State":"CA","Zip":"93257"},{"Location":"PARR CENTER","Address":"237 W Belleview Ave","City":"Porterville","State":"CA","Zip":"93257"},{"Location":"PIZZA FACTORY","Address":"897 W Henderson Ave","City":"Porterville","State":"CA","Zip":"93257"},{"Location":"PORTERVILLE BOWLING LANES","Address":"952 W Grand Ave","City":"Porterville","State":"CA","Zip":"93257"},{"Location":"PORTERVILLE COLLISION INC","Address":"721 N Sunnyside St","City":"Porterville","State":"CA","Zip":"93257"},{"Location":"PORTERVILLE CONVALESCENT","Address":"1100 W Morton Ave","City":"Porterville","State":"CA","Zip":"93257"},{"Location":"RESEARCH FOR HIRE INC","Address":"1696 S Leggett St","City":"Porterville","State":"CA","Zip":"93257"},{"Location":"RITAS BRIDAL AND BEAUTY SALON1","Address":"185 S Main St","City":"Porterville","State":"CA","Zip":"93257"},{"Location":"RIVER ISLAND COUNTRY CLUB","Address":"31989 River Island Dr","City":"Porterville","State":"CA","Zip":"93257"},{"Location":"ROSA'S SPORTSCUTS","Address":"953 W Henderson Ave","City":"Porterville","State":"CA","Zip":"93257"},{"Location":"S.V.D.H.O.","Address":"439 W Oak Ave","City":"Porterville","State":"CA","Zip":"93257"},{"Location":"SAFEONE CREDIT UNION","Address":"680 N Prospect St","City":"Porterville","State":"CA","Zip":"93257"},{"Location":"SIERRA VIEW DISTRICT HOSPITAL","Address":"465 W Putnam Ave","City":"Porterville","State":"CA","Zip":"93257"},{"Location":"SUBWAY","Address":"460 W Vandalia Ave Ste B","City":"Porterville","State":"CA","Zip":"93257"},{"Location":"THE ANTLERS","Address":"30990 Highway 190","City":"Porterville","State":"CA","Zip":"93257"},{"Location":"THE CELLAR STEAKHOUSE","Address":"244 Main Street","City":"Porterville","State":"CA","Zip":"93257"},{"Location":"THE MECCA","Address":"170 N Main St","City":"Porterville","State":"CA","Zip":"93257"},{"Location":"THE OAK PIT","Address":"615 N Main St","City":"Porterville","State":"CA","Zip":"93257"},{"Location":"THE PAAR CENTER","Address":"242 W Belleview Ave","City":"Porterville","State":"CA","Zip":"93257"},{"Location":"THE PAAR CENTER","Address":"182 W Belleview Ave","City":"Porterville","State":"CA","Zip":"93257"},{"Location":"THE PAAR CENTER","Address":"253 W Belleview Ave","City":"Porterville","State":"CA","Zip":"93257"},{"Location":"THE PAAR CENTER","Address":"232 W Belleview Ave","City":"Porterville","State":"CA","Zip":"93257"},{"Location":"THE PAAR CENTERS","Address":"218 W Belleview Ave","City":"Porterville","State":"CA","Zip":"93257"},{"Location":"TREE OF LIFE CHURCH","Address":"15355 Road 223","City":"Porterville","State":"CA","Zip":"93257"},{"Location":"TULE RIVER AM VETS","Address":"356 N Reservation Rd","City":"Porterville","State":"CA","Zip":"93257"},{"Location":"WENDYS INTERNATIONAL","Address":"860 W Henderson Ave","City":"Porterville","State":"CA","Zip":"93257"},{"Location":"YOUNGS COMMERCIAL TRANSFER","Address":"2075 W Scranton Ave","City":"Porterville","State":"CA","Zip":"93257"}]