[{"Location":"B AND D MORRIS FARMS","Address":"31900 Whisler Rd","City":"Mc Farland","State":"CA","Zip":"93250"},{"Location":"CENTRAL VALLEY MCCF","Address":"254 Taylor Ave","City":"Mc Farland","State":"CA","Zip":"93250"},{"Location":"CENTRAL VALLEY MCCF ADMIN2","Address":"254 Taylor Ave","City":"Mc Farland","State":"CA","Zip":"93250"},{"Location":"GOLDEN STATE MCCF","Address":"611 Frontage Rd","City":"Mc Farland","State":"CA","Zip":"93250"},{"Location":"I GONZALES CONTRACTING","Address":"32380 Elmo Hwy","City":"Mc Farland","State":"CA","Zip":"93250"},{"Location":"JAKOV DULCICH AND SONS","Address":"31956 Peterson Rd","City":"Mc Farland","State":"CA","Zip":"93250"},{"Location":"LES SANDRINI FARMS","Address":"11011 Central Valley Hwy 43","City":"Mc Farland","State":"CA","Zip":"93250"},{"Location":"MACFARLAND REENTRY FACILITY","Address":"120 Taylor Ave","City":"Mc Farland","State":"CA","Zip":"93250"},{"Location":"MESA VERDE TRADING INC.","Address":"12796 Garzoli Ave","City":"Mc Farland","State":"CA","Zip":"93250"},{"Location":"R AND F DISPOSAL INC","Address":"640 Frontage Rd","City":"Mc Farland","State":"CA","Zip":"93250"}]