[{"Location":"ABES TRUCKING","Address":"380 Walker St","City":"Shafter","State":"CA","Zip":"93263"},{"Location":"BAKERSFIELD PIPE AND SUPPLY","Address":"3301 Zachary Ave","City":"Shafter","State":"CA","Zip":"93263"},{"Location":"BROOKSIDE DELI AT MINTER","Address":"145 Vultee Ave","City":"Shafter","State":"CA","Zip":"93263"},{"Location":"CENTRAL CALIFORNIA POWER","Address":"19487 Broken Ct","City":"Shafter","State":"CA","Zip":"93263"},{"Location":"CUMMINGS TRANSPORTATION","Address":"19605 Broken Ct","City":"Shafter","State":"CA","Zip":"93263"},{"Location":"DOBY HAGAR TRUCKING INC","Address":"19063 Transport Ln","City":"Shafter","State":"CA","Zip":"93263"},{"Location":"DON PERICO MEXICAN GRILL BAR","Address":"301 E Lerdo Hwy","City":"Shafter","State":"CA","Zip":"93263"},{"Location":"ELITE CHARTERS","Address":"633 Vultee St","City":"Shafter","State":"CA","Zip":"93263"},{"Location":"FIVE STAR PIZZA","Address":"210 Central Ave","City":"Shafter","State":"CA","Zip":"93263"},{"Location":"FJORDS PROCESSING INC","Address":"1320 E Los Angeles Ave","City":"Shafter","State":"CA","Zip":"93263"},{"Location":"HALL AMBULANCE","Address":"271 E Lerdo Hwy","City":"Shafter","State":"CA","Zip":"93263"},{"Location":"HFS ENTERPRISES","Address":"800 W Lerdo Hwy","City":"Shafter","State":"CA","Zip":"93263"},{"Location":"INDEPENDENT WELL SERVICES INC","Address":"19484 Shafter Ave.","City":"Shafter","State":"CA","Zip":"93263"},{"Location":"JD RUSH","Address":"5900 E Lerdo Hwy","City":"Shafter","State":"CA","Zip":"93263"},{"Location":"JOHNSON & SONS'S PROPELLER LLC","Address":"211 Aviation St","City":"Shafter","State":"CA","Zip":"93263"},{"Location":"PACIFIC TIRE","Address":"650 E Lerdo Hwy","City":"Shafter","State":"CA","Zip":"93263"},{"Location":"PERFORMANCE FOOD GROUP","Address":"255 N Driver Rd","City":"Shafter","State":"CA","Zip":"93263"},{"Location":"PREMIER PACKING INC%2FGRIMMWAY","Address":"6101 S Zerker Rd","City":"Shafter","State":"CA","Zip":"93263"},{"Location":"ROSS DRESS FOR LESS","Address":"2801 Zachary Ave","City":"Shafter","State":"CA","Zip":"93263"},{"Location":"TROOST HAY COMPANY","Address":"400 Carsen Way","City":"Shafter","State":"CA","Zip":"93263"},{"Location":"WILLIAMS SONOMA INC CA","Address":"151 Vultee Ave","City":"Shafter","State":"CA","Zip":"93263"}]