[{"Location":"AC BAR","Address":"400 Harrison St","City":"Taft","State":"CA","Zip":"93268"},{"Location":"CASA TABARES","Address":"330 Kern St","City":"Taft","State":"CA","Zip":"93268"},{"Location":"CENTRAL VALLEY GENERAL HOSPITA","Address":"501 6th St 6","City":"Taft","State":"CA","Zip":"93268"},{"Location":"CHEVRON - CVN 000053","Address":"1050 Lincoln St","City":"Taft","State":"CA","Zip":"93268"},{"Location":"EL PAISANO","Address":"1006 6th St","City":"Taft","State":"CA","Zip":"93268"},{"Location":"EXXON MOBILE","Address":"1001 Ash St","City":"Taft","State":"CA","Zip":"93268"},{"Location":"HOP STORE PIZZA","Address":"407 Finley Dr","City":"Taft","State":"CA","Zip":"93268"},{"Location":"LAGRASS GRILL","Address":"301 Harrison St","City":"Taft","State":"CA","Zip":"93268"},{"Location":"PIZZA HUT","Address":"900 Kern St C","City":"Taft","State":"CA","Zip":"93268"},{"Location":"POPEYES CHICKEN  BISCUITS","Address":"1117 Kern St","City":"Taft","State":"CA","Zip":"93268"},{"Location":"SMITH  SON TIRES","Address":"1280 Kern St","City":"Taft","State":"CA","Zip":"93268"},{"Location":"TAFT CORRECTIONAL INSTITUTE","Address":"1500 Cadet Rd","City":"Taft","State":"CA","Zip":"93268"},{"Location":"TAFT CORRECTIONAL INSTITUTION","Address":"1500 Cadet Rd","City":"Taft","State":"CA","Zip":"93268"},{"Location":"TAFT NAIL SALON","Address":"1080 Kern St","City":"Taft","State":"CA","Zip":"93268"},{"Location":"TEN PERCENT FIREARMS","Address":"1277 Kern St","City":"Taft","State":"CA","Zip":"93268"},{"Location":"THE BANK","Address":"431 North St","City":"Taft","State":"CA","Zip":"93268"},{"Location":"THE TAFT PETROLEUM CLUB","Address":"450 Petroleum Club Rd","City":"Taft","State":"CA","Zip":"93268"},{"Location":"TRC OPERATING COMPANY","Address":"805 Blackgold Ct","City":"Taft","State":"CA","Zip":"93268"},{"Location":"WESTSIDE WASTE MANAGMENT CO","Address":"274 E Cedar St","City":"Taft","State":"CA","Zip":"93268"},{"Location":"AC BAR","Address":"400 Harrison St","City":"Taft","State":"CA","Zip":"93268"},{"Location":"CASA TABARES","Address":"330 Kern St","City":"Taft","State":"CA","Zip":"93268"},{"Location":"CENTRAL VALLEY GENERAL HOSPITA","Address":"501 6th St 6","City":"Taft","State":"CA","Zip":"93268"},{"Location":"CHEVRON - CVN 000053","Address":"1050 Lincoln St","City":"Taft","State":"CA","Zip":"93268"},{"Location":"EL PAISANO","Address":"1006 6th St","City":"Taft","State":"CA","Zip":"93268"},{"Location":"EXXON MOBILE","Address":"1001 Ash St","City":"Taft","State":"CA","Zip":"93268"},{"Location":"HOP STORE PIZZA","Address":"407 Finley Dr","City":"Taft","State":"CA","Zip":"93268"},{"Location":"LAGRASS GRILL","Address":"301 Harrison St","City":"Taft","State":"CA","Zip":"93268"},{"Location":"PIZZA HUT","Address":"900 Kern St C","City":"Taft","State":"CA","Zip":"93268"},{"Location":"POPEYES CHICKEN  BISCUITS","Address":"1117 Kern St","City":"Taft","State":"CA","Zip":"93268"},{"Location":"SMITH  SON TIRES","Address":"1280 Kern St","City":"Taft","State":"CA","Zip":"93268"},{"Location":"TAFT CORRECTIONAL INSTITUTE","Address":"1500 Cadet Rd","City":"Taft","State":"CA","Zip":"93268"},{"Location":"TAFT CORRECTIONAL INSTITUTION","Address":"1500 Cadet Rd","City":"Taft","State":"CA","Zip":"93268"},{"Location":"TAFT NAIL SALON","Address":"1080 Kern St","City":"Taft","State":"CA","Zip":"93268"},{"Location":"TEN PERCENT FIREARMS","Address":"1277 Kern St","City":"Taft","State":"CA","Zip":"93268"},{"Location":"THE BANK","Address":"431 North St","City":"Taft","State":"CA","Zip":"93268"},{"Location":"THE TAFT PETROLEUM CLUB","Address":"450 Petroleum Club Rd","City":"Taft","State":"CA","Zip":"93268"},{"Location":"TRC OPERATING COMPANY","Address":"805 Blackgold Ct","City":"Taft","State":"CA","Zip":"93268"},{"Location":"WESTSIDE WASTE MANAGMENT CO","Address":"274 E Cedar St","City":"Taft","State":"CA","Zip":"93268"}]