[{"Location":"3 & 3 INVESTMENTS","Address":"5113 W Walnut Ave","City":"Visalia","State":"CA","Zip":"93277"},{"Location":"ALL PRO BAIL BOND","Address":"1345 S Mooney Blvd","City":"Visalia","State":"CA","Zip":"93277"},{"Location":"AMERICAN AMB%2FSKYLIFE","Address":"801 Hanger Way","City":"Visalia","State":"CA","Zip":"93277"},{"Location":"AMF VISALIA LANES","Address":"1740 W Caldwell Ave","City":"Visalia","State":"CA","Zip":"93277"},{"Location":"AMIRS KABOB","Address":"3129 W Noble Ave","City":"Visalia","State":"CA","Zip":"93277"},{"Location":"APPLEBEE'S MOONEY #2111022","Address":"3400 S Mooney Blvd","City":"Visalia","State":"CA","Zip":"93277"},{"Location":"AUTO OIL CHANGERS","Address":"3550 S Demaree St","City":"Visalia","State":"CA","Zip":"93277"},{"Location":"BEAUTIFUL NAILS & SPA","Address":"3833 W Caldwell Ave H","City":"Visalia","State":"CA","Zip":"93277"},{"Location":"BLACK BEAR DINER VISALIA","Address":"900 S Mooney Blvd","City":"Visalia","State":"CA","Zip":"93277"},{"Location":"BUBBLES AN BLEACH","Address":"2621 S Mooney Blvd","City":"Visalia","State":"CA","Zip":"93277"},{"Location":"BUFFALO WILD WINGS #0322","Address":"4125 S Mooney Blvd","City":"Visalia","State":"CA","Zip":"93277"},{"Location":"CALIFORNIA HIGHWAY PATROL","Address":"5025 W Noble Ave","City":"Visalia","State":"CA","Zip":"93277"},{"Location":"CALIFORNIA RETINA CONSULTANTS","Address":"5404 W Cypress Ave 101","City":"Visalia","State":"CA","Zip":"93277"},{"Location":"CASA GRANDE RESTAURANT","Address":"2131 W Whitendale Ave","City":"Visalia","State":"CA","Zip":"93277"},{"Location":"CHILI'S #1156","Address":"4015 S Mooney Blvd","City":"Visalia","State":"CA","Zip":"93277"},{"Location":"CHING FONG WU MD","Address":"1642 S Court St","City":"Visalia","State":"CA","Zip":"93277"},{"Location":"CIGNA","Address":"5300 W Tulare Ave","City":"Visalia","State":"CA","Zip":"93277"},{"Location":"CITY OF VISALIA AIRPORT","Address":"9501 W Airport Dr","City":"Visalia","State":"CA","Zip":"93277"},{"Location":"CLASSIC SOCCER","Address":"3640 S Mooney Blvd B","City":"Visalia","State":"CA","Zip":"93277"},{"Location":"DAVITA #3300 VISALIA","Address":"5429 W Cypress Ave","City":"Visalia","State":"CA","Zip":"93277"},{"Location":"DICK SPORTING GOODS #1069","Address":"3637 S Mooney Blvd","City":"Visalia","State":"CA","Zip":"93277"},{"Location":"DICKEYS BARBECUE PIT INC","Address":"4119 S Mooney Blvd","City":"Visalia","State":"CA","Zip":"93277"},{"Location":"EL ROSAL RESTAURANT","Address":"3117 W Noble Ave","City":"Visalia","State":"CA","Zip":"93277"},{"Location":"EL ROSAL RESTAURANT 2","Address":"3718 S Mooney Blvd","City":"Visalia","State":"CA","Zip":"93277"},{"Location":"EL TARASCO","Address":"2636 S Mooney Blvd","City":"Visalia","State":"CA","Zip":"93277"},{"Location":"ERIK SWANSON DMD","Address":"2310 W Whitendale Ave C","City":"Visalia","State":"CA","Zip":"93277"},{"Location":"FIRESTONE #016527","Address":"1736 S Mooney Blvd","City":"Visalia","State":"CA","Zip":"93277"},{"Location":"FITZ GERALD LUNDBERG & ROMIG","Address":"5422 W Cypress Ave","City":"Visalia","State":"CA","Zip":"93277"},{"Location":"FRUITLAND FRESH","Address":"4235 S Mooney Blvd","City":"Visalia","State":"CA","Zip":"93277"},{"Location":"HACEINDA AMIGO BANQUET HALL","Address":"5109 W Walnut Ave","City":"Visalia","State":"CA","Zip":"93277"},{"Location":"HAMPTON INN VISALIA","Address":"4747 W Noble Ave","City":"Visalia","State":"CA","Zip":"93277"},{"Location":"HOLIDAY INN HOTEL & CONF CTR","Address":"9000 W Airport Dr","City":"Visalia","State":"CA","Zip":"93277"},{"Location":"HOWIE AND SONS PIZZA","Address":"2430 S Mooney Blvd","City":"Visalia","State":"CA","Zip":"93277"},{"Location":"I&G DBA MOUNTAIN MIKES PIZZA","Address":"5103 W Walnut Ave","City":"Visalia","State":"CA","Zip":"93277"},{"Location":"IN SHAPE HEALTH CLUBS VASALIA","Address":"1313 S Mooney Blvd","City":"Visalia","State":"CA","Zip":"93277"},{"Location":"IN SHAPE VISALIA 68","Address":"3515 S Mooney Blvd","City":"Visalia","State":"CA","Zip":"93277"},{"Location":"ITS 3PM INC","Address":"3332 S Mooney Blvd","City":"Visalia","State":"CA","Zip":"93277"},{"Location":"JERRY YASUDA O D","Address":"3300 S Fairway St","City":"Visalia","State":"CA","Zip":"93277"},{"Location":"JOHN BARNES PUB LLC","Address":"3232 S Mooney Blvd","City":"Visalia","State":"CA","Zip":"93277"},{"Location":"KAWEAH MANOR CONVALESCENT","Address":"3710 W Tulare Ave","City":"Visalia","State":"CA","Zip":"93277"},{"Location":"KORSGADE&JANSMA INSURANCE","Address":"1700 W Walnut Ave A","City":"Visalia","State":"CA","Zip":"93277"},{"Location":"KREIGH SEDILLO DDS","Address":"215 E Caldwell Ave","City":"Visalia","State":"CA","Zip":"93277"},{"Location":"LA PALAPA RESTAURANT","Address":"3837 W Caldwell Ave A","City":"Visalia","State":"CA","Zip":"93277"},{"Location":"LAS PLAYAS","Address":"505 S Chinowth St","City":"Visalia","State":"CA","Zip":"93277"},{"Location":"LOVELY NAILS & SPA","Address":"3738 S Mooney Blvd","City":"Visalia","State":"CA","Zip":"93277"},{"Location":"MACY'S WEST 448 BR","Address":"2211 S Mooney Blvd","City":"Visalia","State":"CA","Zip":"93277"},{"Location":"ME-N-EDS PIZZERIA- DIV19","Address":"4124 S Mooney Blvd","City":"Visalia","State":"CA","Zip":"93277"},{"Location":"MEN'S WEARHOUSE #2281","Address":"2226 S Mooney Blvd A15","City":"Visalia","State":"CA","Zip":"93277"},{"Location":"MOR FURNITURE FOR LESS INC","Address":"3000 S Mooney Blvd","City":"Visalia","State":"CA","Zip":"93277"},{"Location":"NAVO FINANCIAL INC","Address":"2041 S Court St","City":"Visalia","State":"CA","Zip":"93277"},{"Location":"NUTRISHOP VISALIA","Address":"1229 S Mooney Blvd C","City":"Visalia","State":"CA","Zip":"93277"},{"Location":"OLIVE GARDEN #1630","Address":"4110 S Mooney Blvd","City":"Visalia","State":"CA","Zip":"93277"},{"Location":"PACIFIC DENTAL 290","Address":"4129 S Mooney Blvd B","City":"Visalia","State":"CA","Zip":"93277"},{"Location":"PEARSON REALTY","Address":"3447 S Demaree St","City":"Visalia","State":"CA","Zip":"93277"},{"Location":"PITA KABOB","Address":"5101 W Walnut Ave","City":"Visalia","State":"CA","Zip":"93277"},{"Location":"PREMIER WALKIN MEDICAL-2","Address":"4025 W Caldwell Ave A","City":"Visalia","State":"CA","Zip":"93277"},{"Location":"RED LOBSTER #0710","Address":"1545 S Mooney Blvd","City":"Visalia","State":"CA","Zip":"93277"},{"Location":"RED ROBIN #245","Address":"2015 S Mooney Blvd","City":"Visalia","State":"CA","Zip":"93277"},{"Location":"ROGERS JEWELERS","Address":"2007 W Caldwell Ave","City":"Visalia","State":"CA","Zip":"93277"},{"Location":"ROLLER TOWNE","Address":"520 S Linwood St","City":"Visalia","State":"CA","Zip":"93277"},{"Location":"ROUND TABLE-MOONEY BLVD","Address":"4035 S Mooney Blvd","City":"Visalia","State":"CA","Zip":"93277"},{"Location":"SEQUOIA PROMPT CARE AKER","Address":"820 S Akers St 100","City":"Visalia","State":"CA","Zip":"93277"},{"Location":"SOUTH COURT PHARMACY","Address":"1620 S Court St","City":"Visalia","State":"CA","Zip":"93277"},{"Location":"SPORT CLIPS CA204","Address":"3735 S Mooney Blvd","City":"Visalia","State":"CA","Zip":"93277"},{"Location":"STRINGS ITALIAN CAFE","Address":"1971 W Caldwell Ave","City":"Visalia","State":"CA","Zip":"93277"},{"Location":"SUCCESS IN RECOVERY","Address":"3424 W Packwood Ave","City":"Visalia","State":"CA","Zip":"93277"},{"Location":"SUCCESS IN RECOVERY 1","Address":"3713 W Howard Ave","City":"Visalia","State":"CA","Zip":"93277"},{"Location":"TACOS ENSENADA","Address":"3540 S Mooney Blvd A","City":"Visalia","State":"CA","Zip":"93277"},{"Location":"THERAPY SPECIALIST","Address":"820 S Akers St 202","City":"Visalia","State":"CA","Zip":"93277"},{"Location":"TOKYO GARDEN","Address":"3320 S Fairway St","City":"Visalia","State":"CA","Zip":"93277"},{"Location":"TOPS MILITARY SUPPLY","Address":"3340 S Mooney Blvd","City":"Visalia","State":"CA","Zip":"93277"},{"Location":"TRI-STAR CARWASH STNBRK","Address":"1201 W Caldwell Ave","City":"Visalia","State":"CA","Zip":"93277"},{"Location":"TRITON MANAGEMENT SERV LLC","Address":"1043 S Mooney Blvd","City":"Visalia","State":"CA","Zip":"93277"},{"Location":"TUTTI FRUTTI","Address":"3301 S Mooney Blvd","City":"Visalia","State":"CA","Zip":"93277"},{"Location":"VALLEY OAKS GOLF COURSE","Address":"1800 S Plaza St","City":"Visalia","State":"CA","Zip":"93277"},{"Location":"VISALIA UNIFIED SCHOOL DISTRIC","Address":"5000 W Cypress Ave","City":"Visalia","State":"CA","Zip":"93277"},{"Location":"WING STOP 585","Address":"2038 S Mooney Blvd","City":"Visalia","State":"CA","Zip":"93277"},{"Location":"ZEN ASIAN DINER","Address":"3233 W Noble Ave","City":"Visalia","State":"CA","Zip":"93277"}]