[{"Location":"ALPHA Y OMEGA","Address":"568 E Kern Ave","City":"Tulare","State":"CA","Zip":"93274"},{"Location":"ANAS PLACE","Address":"1075 E Rankin Rd","City":"Tulare","State":"CA","Zip":"93274"},{"Location":"ASIAN GRILL","Address":"2169 E Prosperity Ave","City":"Tulare","State":"CA","Zip":"93274"},{"Location":"BLACK BEAR DINER","Address":"1161 E Tulare Ave","City":"Tulare","State":"CA","Zip":"93274"},{"Location":"BRAVO FARMS","Address":"1691 Retherford St","City":"Tulare","State":"CA","Zip":"93274"},{"Location":"CAM-TECH AUTOMOTIVE DIAG","Address":"1112 E Batavia Ct","City":"Tulare","State":"CA","Zip":"93274"},{"Location":"CARROLL'S TIRE WAREHOUSE","Address":"2200 E Tulare Ave","City":"Tulare","State":"CA","Zip":"93274"},{"Location":"CHILI'S #1326","Address":"1292 E Prosperity Ave","City":"Tulare","State":"CA","Zip":"93274"},{"Location":"CHILITOS","Address":"727 E Prosperity Ave","City":"Tulare","State":"CA","Zip":"93274"},{"Location":"COCO LOCO","Address":"286 E Cross Ave","City":"Tulare","State":"CA","Zip":"93274"},{"Location":"COOL HAND LUKES","Address":"1470 N Cherry Ct","City":"Tulare","State":"CA","Zip":"93274"},{"Location":"CORREIA MOTOR SPORTS","Address":"1645 S O St Tulare","City":"Tulare","State":"CA","Zip":"93274"},{"Location":"CURTIMADE DAIRY INC","Address":"18337 Road 24","City":"Tulare","State":"CA","Zip":"93274"},{"Location":"D N K BROOKS","Address":"1348 E Prosperity Ave","City":"Tulare","State":"CA","Zip":"93274"},{"Location":"DANS DISCOUNT AUTO SALE","Address":"2000 E Tulare Ave","City":"Tulare","State":"CA","Zip":"93274"},{"Location":"DAVITA #3298","Address":"545 E Tulare Ave","City":"Tulare","State":"CA","Zip":"93274"},{"Location":"DR ROBERT BELL","Address":"1080 N Cherry St","City":"Tulare","State":"CA","Zip":"93274"},{"Location":"EDISON AGTAC","Address":"4175 S Laspina St","City":"Tulare","State":"CA","Zip":"93274"},{"Location":"ELKS LODGE","Address":"1535 E Bardsley Ave","City":"Tulare","State":"CA","Zip":"93274"},{"Location":"EVOLUTION FITNESS & WELLNESS","Address":"1425 E Prosperity Ave","City":"Tulare","State":"CA","Zip":"93274"},{"Location":"FISHER MFG","Address":"1900 S O St","City":"Tulare","State":"CA","Zip":"93274"},{"Location":"FITNESS EVOLUTION TULARE","Address":"180 E Cross Ave","City":"Tulare","State":"CA","Zip":"93274"},{"Location":"FOUR BROS PIZZA","Address":"1316 E Bardsley Ave","City":"Tulare","State":"CA","Zip":"93274"},{"Location":"FUGAZZIS","Address":"1441 E Prosperity Ave","City":"Tulare","State":"CA","Zip":"93274"},{"Location":"GARCIAS FAMILY PIZZA MORE","Address":"724 W Inyo Ave","City":"Tulare","State":"CA","Zip":"93274"},{"Location":"GLAMOR NAIL SPA","Address":"1233 N Cherry St","City":"Tulare","State":"CA","Zip":"93274"},{"Location":"GOLDEN STATE PAINT AND BODY","Address":"3450 S K St","City":"Tulare","State":"CA","Zip":"93274"},{"Location":"I&G INC","Address":"721 E Prosperity Ave","City":"Tulare","State":"CA","Zip":"93274"},{"Location":"INTERNATIONAL PALLET CO","Address":"1106 W Gail Ave","City":"Tulare","State":"CA","Zip":"93274"},{"Location":"LA   FIESTA RESTAURANT","Address":"1323 E Prosperity Ave","City":"Tulare","State":"CA","Zip":"93274"},{"Location":"LAS PLAYAS","Address":"1498 S K St","City":"Tulare","State":"CA","Zip":"93274"},{"Location":"LATUIA INVESTMENTS  LLC","Address":"1687 Hillman St","City":"Tulare","State":"CA","Zip":"93274"},{"Location":"LELAND WASHOUT","Address":"14220 1%2F2 Avenue 228","City":"Tulare","State":"CA","Zip":"93274"},{"Location":"MARISCOS PUERTA VALLARTA","Address":"1776 E Tulare Ave","City":"Tulare","State":"CA","Zip":"93274"},{"Location":"MARTIN MILK","Address":"978 W Walnut","City":"Tulare","State":"CA","Zip":"93274"},{"Location":"MCELMOYL REFRIGERATOR INC","Address":"165 W Cross Ave","City":"Tulare","State":"CA","Zip":"93274"},{"Location":"ME-N-EDS PIZZERIA DIV39","Address":"1217 E Prosperity Ave","City":"Tulare","State":"CA","Zip":"93274"},{"Location":"MM RESTAURANT","Address":"560 E Kern Ave","City":"Tulare","State":"CA","Zip":"93274"},{"Location":"MORNING STAR FOODS","Address":"605 N J St","City":"Tulare","State":"CA","Zip":"93274"},{"Location":"NIKE INC","Address":"1553 Retherford St C080","City":"Tulare","State":"CA","Zip":"93274"},{"Location":"OLIS FASHION","Address":"237 S K St","City":"Tulare","State":"CA","Zip":"93274"},{"Location":"PARUL GUPTA MD","Address":"979 N Gem St","City":"Tulare","State":"CA","Zip":"93274"},{"Location":"PERFECT TOUCH BARBERSHOP","Address":"116 E Kern Ave","City":"Tulare","State":"CA","Zip":"93274"},{"Location":"PERMOD KUMAR MD","Address":"858 N Cherry St B","City":"Tulare","State":"CA","Zip":"93274"},{"Location":"PITCHING WEDGE","Address":"5300 S Laspina St","City":"Tulare","State":"CA","Zip":"93274"},{"Location":"POPEYES","Address":"1346 N Cherry Ct","City":"Tulare","State":"CA","Zip":"93274"},{"Location":"QUE PASA","Address":"1594 Hillman St","City":"Tulare","State":"CA","Zip":"93274"},{"Location":"QUEST DIAGNOSTICS","Address":"919 N Blackstone St","City":"Tulare","State":"CA","Zip":"93274"},{"Location":"ROCKTENN CP%2CLLC - TULARE","Address":"701 E Continental Ave","City":"Tulare","State":"CA","Zip":"93274"},{"Location":"ROUND TABLE-CROSS AVE","Address":"150 E Cross Ave","City":"Tulare","State":"CA","Zip":"93274"},{"Location":"SALLES CAFE","Address":"2082 N J St","City":"Tulare","State":"CA","Zip":"93274"},{"Location":"SAMUEL KUO MD","Address":"1088 N Cherry St","City":"Tulare","State":"CA","Zip":"93274"},{"Location":"SILVERCREST SENIOR LIVING","Address":"350 N L St","City":"Tulare","State":"CA","Zip":"93274"},{"Location":"SOUTHERN CALIFORNIA EDIS","Address":"2425 S Blackstone St A","City":"Tulare","State":"CA","Zip":"93274"},{"Location":"SOUTHERN CALIFORNIA EDISON","Address":"2425 S Blackstone St","City":"Tulare","State":"CA","Zip":"93274"},{"Location":"STRAIGHT FADED BARBER SHOP","Address":"176 S Laspina St","City":"Tulare","State":"CA","Zip":"93274"},{"Location":"SUNDALE VINEYARDS","Address":"23631 Road 140","City":"Tulare","State":"CA","Zip":"93274"},{"Location":"SYLVIAS BEAUTY SALON","Address":"728 W Inyo Ave","City":"Tulare","State":"CA","Zip":"93274"},{"Location":"THE GROCERY STORE","Address":"536 E Cross Ave","City":"Tulare","State":"CA","Zip":"93274"},{"Location":"TIME OUT PIZZA AND FUN CENTER","Address":"110 N Mooney Blvd","City":"Tulare","State":"CA","Zip":"93274"},{"Location":"TOTALLY TANKER INTERIOR","Address":"653 E Paige Ave","City":"Tulare","State":"CA","Zip":"93274"},{"Location":"TWIN OAKS REHAB & NURSING","Address":"697 N M St","City":"Tulare","State":"CA","Zip":"93274"},{"Location":"UNITED STATES COLD STORAGE","Address":"810 E Continental Ave","City":"Tulare","State":"CA","Zip":"93274"},{"Location":"US COLD STORAGE","Address":"1021 E Walnut Ave","City":"Tulare","State":"CA","Zip":"93274"},{"Location":"VEJARS INC","Address":"1293 S K St","City":"Tulare","State":"CA","Zip":"93274"},{"Location":"WAUKENA FLYING SERVICES","Address":"2860 Waukena Dr","City":"Tulare","State":"CA","Zip":"93274"},{"Location":"WEST COAST TIRES AND AUT","Address":"1250 Hillman St","City":"Tulare","State":"CA","Zip":"93274"}]