[{"Location":"B AND N TRUCKING INC","Address":"15200 Scofield Ave","City":"Wasco","State":"CA","Zip":"93280"},{"Location":"DOLACKI MINI STORAGE","Address":"1588 G St","City":"Wasco","State":"CA","Zip":"93280"},{"Location":"ELKS LODGE #2419 BPDE","Address":"16694 Wasco Ave","City":"Wasco","State":"CA","Zip":"93280"},{"Location":"HALL AMBULANCE SERVICE2","Address":"2424 7th St","City":"Wasco","State":"CA","Zip":"93280"},{"Location":"HONG KONG REST.","Address":"912 7th St A","City":"Wasco","State":"CA","Zip":"93280"},{"Location":"LA CANASTA MARKET","Address":"1017 7th St","City":"Wasco","State":"CA","Zip":"93280"},{"Location":"LA FONDA TAQUERIA","Address":"1001 7th St","City":"Wasco","State":"CA","Zip":"93280"},{"Location":"PACIFIC GAS AND ELECTRIC","Address":"1101 12th St","City":"Wasco","State":"CA","Zip":"93280"},{"Location":"PERKOS RESTAURANT","Address":"2339 Highway 46","City":"Wasco","State":"CA","Zip":"93280"},{"Location":"PIZZA HUT","Address":"2300 Highway 46","City":"Wasco","State":"CA","Zip":"93280"},{"Location":"WASCO MEDICAL PLAZA","Address":"2300 7th St","City":"Wasco","State":"CA","Zip":"93280"},{"Location":"B AND N TRUCKING INC","Address":"15200 Scofield Ave","City":"Wasco","State":"CA","Zip":"93280"},{"Location":"DOLACKI MINI STORAGE","Address":"1588 G St","City":"Wasco","State":"CA","Zip":"93280"},{"Location":"ELKS LODGE #2419 BPDE","Address":"16694 Wasco Ave","City":"Wasco","State":"CA","Zip":"93280"},{"Location":"HALL AMBULANCE SERVICE2","Address":"2424 7th St","City":"Wasco","State":"CA","Zip":"93280"},{"Location":"HONG KONG REST.","Address":"912 7th St A","City":"Wasco","State":"CA","Zip":"93280"},{"Location":"LA CANASTA MARKET","Address":"1017 7th St","City":"Wasco","State":"CA","Zip":"93280"},{"Location":"LA FONDA TAQUERIA","Address":"1001 7th St","City":"Wasco","State":"CA","Zip":"93280"},{"Location":"PACIFIC GAS AND ELECTRIC","Address":"1101 12th St","City":"Wasco","State":"CA","Zip":"93280"},{"Location":"PERKOS RESTAURANT","Address":"2339 Highway 46","City":"Wasco","State":"CA","Zip":"93280"},{"Location":"PIZZA HUT","Address":"2300 Highway 46","City":"Wasco","State":"CA","Zip":"93280"},{"Location":"WASCO MEDICAL PLAZA","Address":"2300 7th St","City":"Wasco","State":"CA","Zip":"93280"}]