[{"Location":"AGRI LINK PLASTICS INC","Address":"296 E Wutchumna Ave","City":"Woodlake","State":"CA","Zip":"93286"},{"Location":"DEAD RAT SALOON","Address":"19414 Avenue 344","City":"Woodlake","State":"CA","Zip":"93286"},{"Location":"ICE CREAM BROTHERS","Address":"136 Valencia Blvd","City":"Woodlake","State":"CA","Zip":"93286"},{"Location":"SUBWAY #48265","Address":"159 E Antelope Ave","City":"Woodlake","State":"CA","Zip":"93286"},{"Location":"WOODLAKE HEALTH CLINIC","Address":"180 E Antelope Ave","City":"Woodlake","State":"CA","Zip":"93286"},{"Location":"AGRI LINK PLASTICS INC","Address":"296 E Wutchumna Ave","City":"Woodlake","State":"CA","Zip":"93286"},{"Location":"DEAD RAT SALOON","Address":"19414 Avenue 344","City":"Woodlake","State":"CA","Zip":"93286"},{"Location":"ICE CREAM BROTHERS","Address":"136 Valencia Blvd","City":"Woodlake","State":"CA","Zip":"93286"},{"Location":"SUBWAY #48265","Address":"159 E Antelope Ave","City":"Woodlake","State":"CA","Zip":"93286"},{"Location":"WOODLAKE HEALTH CLINIC","Address":"180 E Antelope Ave","City":"Woodlake","State":"CA","Zip":"93286"}]