[{"Location":"21 15 9 GEAR LLC","Address":"525 E Acequia Ave","City":"Visalia","State":"CA","Zip":"93292"},{"Location":"AMERICAN AMBULANCE","Address":"2017 E Noble Ave","City":"Visalia","State":"CA","Zip":"93292"},{"Location":"AUTO MD","Address":"1755 E Finni Ct","City":"Visalia","State":"CA","Zip":"93292"},{"Location":"AUTO TECH","Address":"1619 E Main St","City":"Visalia","State":"CA","Zip":"93292"},{"Location":"CAL WATER VISALIA","Address":"216 N Valley Oaks Dr","City":"Visalia","State":"CA","Zip":"93292"},{"Location":"CAL-WESTERN FARMING","Address":"16384 Avenue 264","City":"Visalia","State":"CA","Zip":"93292"},{"Location":"CARROLL'S TIRE WAREHOUSE","Address":"1143 E Main St","City":"Visalia","State":"CA","Zip":"93292"},{"Location":"CENTRAL VALLEY","Address":"1425 E Walnut Ave","City":"Visalia","State":"CA","Zip":"93292"},{"Location":"DANNS DISCOUNT AUTO SALES","Address":"900 E Center Ave","City":"Visalia","State":"CA","Zip":"93292"},{"Location":"DAVITA #2320 VISALIA VINEYARD","Address":"1140 Ben Maddox Way","City":"Visalia","State":"CA","Zip":"93292"},{"Location":"FORD SPRAYING INC","Address":"18398 Avenue 344","City":"Visalia","State":"CA","Zip":"93292"},{"Location":"FOREVER FIT EXPRESS","Address":"15309 E Noble Ave D","City":"Visalia","State":"CA","Zip":"93292"},{"Location":"FUEGO RESTAURANT AND LOUNGE","Address":"539 N Santa Fe St","City":"Visalia","State":"CA","Zip":"93292"},{"Location":"GARYS JEWLERY","Address":"15582 Avenue 296","City":"Visalia","State":"CA","Zip":"93292"},{"Location":"GEORGE ZAROUNIAN AUTOMOB","Address":"1643 E Main St","City":"Visalia","State":"CA","Zip":"93292"},{"Location":"GIANT CHEVROLET CO","Address":"1001 S Ben Maddox Way","City":"Visalia","State":"CA","Zip":"93292"},{"Location":"Green Olive","Address":"1415 E Mineral King Ave","City":"Visalia","State":"CA","Zip":"93292"},{"Location":"GROOSS AND STEVENS","Address":"1121 E Acequia Ave","City":"Visalia","State":"CA","Zip":"93292"},{"Location":"HAPPINESS NAILS","Address":"1679 E Noble Ave","City":"Visalia","State":"CA","Zip":"93292"},{"Location":"KAWEAH PUMP INC","Address":"15499 Avenue 280","City":"Visalia","State":"CA","Zip":"93292"},{"Location":"LONE OAK LARGE ANIMAL VET","Address":"35505 Road 132","City":"Visalia","State":"CA","Zip":"93292"},{"Location":"MAGNOLIA PARK ASSISTED LIVING","Address":"2950 E Douglas Ave","City":"Visalia","State":"CA","Zip":"93292"},{"Location":"ME-N-EDS PIZZERIA-DIV32","Address":"1530 N Ben Maddox Way","City":"Visalia","State":"CA","Zip":"93292"},{"Location":"MEDALLION SUPPLY","Address":"737 N Burke St","City":"Visalia","State":"CA","Zip":"93292"},{"Location":"NISSAN OF VISALIA","Address":"830 S Ben Maddox Way","City":"Visalia","State":"CA","Zip":"93292"},{"Location":"PHOENIX FIRE PROTECTION","Address":"210 S Cotta Ct","City":"Visalia","State":"CA","Zip":"93292"},{"Location":"ROUND TABLE-NOBLE AVE","Address":"1691 E Noble Ave","City":"Visalia","State":"CA","Zip":"93292"},{"Location":"SAFE 1 CREDIT UNION","Address":"1407 E Noble Ave","City":"Visalia","State":"CA","Zip":"93292"},{"Location":"SANTA FE STATION","Address":"505 E Center Ave","City":"Visalia","State":"CA","Zip":"93292"},{"Location":"SEARCEYS CAFE AND BAR","Address":"1141 E Houston Ave","City":"Visalia","State":"CA","Zip":"93292"},{"Location":"Senor Guacamole","Address":"1120 N Ben Maddox Way","City":"Visalia","State":"CA","Zip":"93292"},{"Location":"SEQUOIA PROMPT CARE","Address":"1130 S Ben Maddox Way","City":"Visalia","State":"CA","Zip":"93292"},{"Location":"SQUHAIR'Z BARBER SHOP","Address":"210 S Cain St Q","City":"Visalia","State":"CA","Zip":"93292"},{"Location":"THAI BASIL RESTAURANT","Address":"1423 E Noble Ave","City":"Visalia","State":"CA","Zip":"93292"},{"Location":"THE PLANING MILL LLC","Address":"514 E Main St A","City":"Visalia","State":"CA","Zip":"93292"},{"Location":"THE SALON AVENUE","Address":"3320 E Mineral King Ave","City":"Visalia","State":"CA","Zip":"93292"},{"Location":"THE SHOPPE","Address":"1713 E Janelli Ct","City":"Visalia","State":"CA","Zip":"93292"},{"Location":"TLC","Address":"546 E Tulare Ave","City":"Visalia","State":"CA","Zip":"93292"},{"Location":"TRI COUNTIES BANK","Address":"509 S Pinkham St","City":"Visalia","State":"CA","Zip":"93292"},{"Location":"VALLEY'S GYM","Address":"1900 E Mineral King Ave","City":"Visalia","State":"CA","Zip":"93292"},{"Location":"VISALIA KIA","Address":"825 S Ben Maddox Way","City":"Visalia","State":"CA","Zip":"93292"},{"Location":"VISALIAS BUMP HOUSE","Address":"1075 E Main St","City":"Visalia","State":"CA","Zip":"93292"}]