[{"Location":"VISALIA MEDICAL CLINIC 2","Address":"5400 W Hilldales Dr","City":"Visalaa","State":"CA","Zip":"93291"},{"Location":"3 GIRLS BBQ INC","Address":"227 E Main St","City":"Visalia","State":"CA","Zip":"93291"},{"Location":"ACAPULCO","Address":"631 W Murray Ave","City":"Visalia","State":"CA","Zip":"93291"},{"Location":"ALEJANDRAS MEXICAN REST.","Address":"314 W Main St","City":"Visalia","State":"CA","Zip":"93291"},{"Location":"ANHEUSER-BUSCH WHLSLR  #60424","Address":"2122 N Plaza Dr","City":"Visalia","State":"CA","Zip":"93291"},{"Location":"APPLEBEE'S AKERS #2111021","Address":"5325 Avenida De Los Robles","City":"Visalia","State":"CA","Zip":"93291"},{"Location":"ARTIC SILVER INC","Address":"9826 W Legacy Ave","City":"Visalia","State":"CA","Zip":"93291"},{"Location":"BAMBL AND ASSOCIATES","Address":"204 E Oak Ave","City":"Visalia","State":"CA","Zip":"93291"},{"Location":"BMW OF VISALIA","Address":"111 N Neeley St","City":"Visalia","State":"CA","Zip":"93291"},{"Location":"BRAVO FARMS SMOKEHOUSE","Address":"400 N Willis St","City":"Visalia","State":"CA","Zip":"93291"},{"Location":"BREWBAKERS BREWING COMPANY","Address":"219 E Main St","City":"Visalia","State":"CA","Zip":"93291"},{"Location":"CAFE 225","Address":"225 W Main St","City":"Visalia","State":"CA","Zip":"93291"},{"Location":"CALFORNIA GYMNASTICS","Address":"9514 W Pershing Ave","City":"Visalia","State":"CA","Zip":"93291"},{"Location":"CALIFORNIA OVERLAND SOULATIONS","Address":"610 W Acequia Ave","City":"Visalia","State":"CA","Zip":"93291"},{"Location":"CENTRAL VALLEY ONSITE","Address":"8224 W Doe Ave","City":"Visalia","State":"CA","Zip":"93291"},{"Location":"COMPASSIONATE FAMILY CARE","Address":"306 N Conyer St","City":"Visalia","State":"CA","Zip":"93291"},{"Location":"CORE PHYSICAL THERAPY OF VASAL","Address":"1138 N Chinowth St","City":"Visalia","State":"CA","Zip":"93291"},{"Location":"CORPORATE COMMODITY MGMT","Address":"609 N Akers St","City":"Visalia","State":"CA","Zip":"93291"},{"Location":"CRAW DADDYS","Address":"333 E Main St","City":"Visalia","State":"CA","Zip":"93291"},{"Location":"DAVITA #5556 VISALIA AT HOME","Address":"1120 N Chinowth St","City":"Visalia","State":"CA","Zip":"93291"},{"Location":"DAVORNS PLACE","Address":"409 N Willis St","City":"Visalia","State":"CA","Zip":"93291"},{"Location":"DG INSURANCE AGENCY","Address":"309 N Garden St","City":"Visalia","State":"CA","Zip":"93291"},{"Location":"DOCS DRIVE IN","Address":"421 W Acequia Ave","City":"Visalia","State":"CA","Zip":"93291"},{"Location":"DOUBLE \"LL\" STEAKHOUSE","Address":"401 E Center Ave","City":"Visalia","State":"CA","Zip":"93291"},{"Location":"DOWNTOWN ROOKIE","Address":"215 E Main St","City":"Visalia","State":"CA","Zip":"93291"},{"Location":"EAST TO WEST HAIR ARTIST","Address":"225 E Main St A","City":"Visalia","State":"CA","Zip":"93291"},{"Location":"EL TARASCO MEXICAN RESTAURANT","Address":"208 W Main St","City":"Visalia","State":"CA","Zip":"93291"},{"Location":"FAMILY HEALTHCARE NETWORK","Address":"305 E Center Ave","City":"Visalia","State":"CA","Zip":"93291"},{"Location":"FAMILY HEALTHCARE NETWORK","Address":"501 N Bridge St","City":"Visalia","State":"CA","Zip":"93291"},{"Location":"FAMILY HEALTHCARE NETWORK 6","Address":"401 E School Ave","City":"Visalia","State":"CA","Zip":"93291"},{"Location":"FANTASTIC FURNITURE","Address":"115 S Locust St","City":"Visalia","State":"CA","Zip":"93291"},{"Location":"FOUR SEASONS HAULING","Address":"1440 N Shirk Rd","City":"Visalia","State":"CA","Zip":"93291"},{"Location":"FRANK CONSUL SALES TRAINING","Address":"207 W Main St D","City":"Visalia","State":"CA","Zip":"93291"},{"Location":"FUGAZZIS","Address":"127 W Main St","City":"Visalia","State":"CA","Zip":"93291"},{"Location":"GOLDSTAR BARBER SHOP","Address":"110 W Main St E","City":"Visalia","State":"CA","Zip":"93291"},{"Location":"HENRY SALAZARS","Address":"123 W Main St","City":"Visalia","State":"CA","Zip":"93291"},{"Location":"HOBBS POTTS AND ASSOCIATES","Address":"1317 W Center Ave","City":"Visalia","State":"CA","Zip":"93291"},{"Location":"IN SHAPE CLUBS SPORTS","Address":"909 N Demaree St","City":"Visalia","State":"CA","Zip":"93291"},{"Location":"JACK & CHARLIES","Address":"204 E Oak Ave","City":"Visalia","State":"CA","Zip":"93291"},{"Location":"JAVI'S","Address":"129 N Court St","City":"Visalia","State":"CA","Zip":"93291"},{"Location":"JAVI'S TACO SHACK","Address":"129 N Court St","City":"Visalia","State":"CA","Zip":"93291"},{"Location":"KINGS TULARE UNISERVE","Address":"301 W School Ave","City":"Visalia","State":"CA","Zip":"93291"},{"Location":"LA FIESTA RESTAURANT","Address":"3222 N Demaree St #a","City":"Visalia","State":"CA","Zip":"93291"},{"Location":"LARRY M LEE ATTORNEY","Address":"4236 W Mineral King Ave","City":"Visalia","State":"CA","Zip":"93291"},{"Location":"LITTLE ITALY","Address":"303 W Main St","City":"Visalia","State":"CA","Zip":"93291"},{"Location":"LUM LUM'S","Address":"417 E Center Ave","City":"Visalia","State":"CA","Zip":"93291"},{"Location":"MARTIN MILK TRANSPORT","Address":"715 N Divisadero St 110","City":"Visalia","State":"CA","Zip":"93291"},{"Location":"ME-N-EDS PIZZERIA- DIV82","Address":"5105 W Goshen Ave","City":"Visalia","State":"CA","Zip":"93291"},{"Location":"MEDICAL STAFF SERVICES","Address":"400 W Mineral King Ave","City":"Visalia","State":"CA","Zip":"93291"},{"Location":"MISSION CARE GROUP","Address":"420 E Murray Ave","City":"Visalia","State":"CA","Zip":"93291"},{"Location":"MOR FURNITURE FOR LESS INC","Address":"8900 W Hurley Ave","City":"Visalia","State":"CA","Zip":"93291"},{"Location":"MORGAN STANLEY 100115","Address":"520 W Main St","City":"Visalia","State":"CA","Zip":"93291"},{"Location":"MOUNTAIN MIKE'S PIZZA","Address":"3000 N Dinuba Blvd G","City":"Visalia","State":"CA","Zip":"93291"},{"Location":"OCEAN BASKET","Address":"229 W Main St","City":"Visalia","State":"CA","Zip":"93291"},{"Location":"ORS NASCO","Address":"2243 N Plaza Dr","City":"Visalia","State":"CA","Zip":"93291"},{"Location":"OVAL LIQUOR STORE","Address":"900 N Court St","City":"Visalia","State":"CA","Zip":"93291"},{"Location":"PITA KABOB DOWNTOWN","Address":"227 N Court St","City":"Visalia","State":"CA","Zip":"93291"},{"Location":"ROSAS ITALIAN RESTAURANT","Address":"314 S Johnson St","City":"Visalia","State":"CA","Zip":"93291"},{"Location":"SARNOVA","Address":"2241 N Plaza Dr","City":"Visalia","State":"CA","Zip":"93291"},{"Location":"SEQUOIA CIGAR COMPANY","Address":"111 N Locust St","City":"Visalia","State":"CA","Zip":"93291"},{"Location":"SEQUOIA PLAZA FLOWER","Address":"601 N Willis St","City":"Visalia","State":"CA","Zip":"93291"},{"Location":"SEQUOIA SERVICE COMPANY","Address":"1116 N Chinowth St","City":"Visalia","State":"CA","Zip":"93291"},{"Location":"SHANNON VILLAGE MARKET","Address":"2118 Riggin Ave","City":"Visalia","State":"CA","Zip":"93291"},{"Location":"SLEEP DISORDERS CENTER","Address":"126 S Floral St","City":"Visalia","State":"CA","Zip":"93291"},{"Location":"SMITH AUTO","Address":"216 S Bridge St","City":"Visalia","State":"CA","Zip":"93291"},{"Location":"SP'S BURGERS","Address":"100 S Church St","City":"Visalia","State":"CA","Zip":"93291"},{"Location":"STEPHEN  MCAULIFF DDS IN","Address":"1549 W Main St","City":"Visalia","State":"CA","Zip":"93291"},{"Location":"TACHIBANA","Address":"120 W Main St","City":"Visalia","State":"CA","Zip":"93291"},{"Location":"TED PAPANICKOLAS","Address":"501 N Church St","City":"Visalia","State":"CA","Zip":"93291"},{"Location":"THE DEPOT RESTAURANT-CA","Address":"207 E Oak Ave","City":"Visalia","State":"CA","Zip":"93291"},{"Location":"THE DUGOUT","Address":"6747 W Pershing Ave","City":"Visalia","State":"CA","Zip":"93291"},{"Location":"THE JOSTENS","Address":"231 S Kelsey St","City":"Visalia","State":"CA","Zip":"93291"},{"Location":"TOMMY'S RESTAURANT","Address":"130 N Encina St","City":"Visalia","State":"CA","Zip":"93291"},{"Location":"TULARE COUNTY DISTRICT","Address":"221 S Mooney Blvd 224","City":"Visalia","State":"CA","Zip":"93291"},{"Location":"TULARE COUNTY PROBATION","Address":"11150 Avenue 368","City":"Visalia","State":"CA","Zip":"93291"},{"Location":"TULARE JUVENILE DETENTION","Address":"11200 Avenue 368","City":"Visalia","State":"CA","Zip":"93291"},{"Location":"VF OUTDOOR","Address":"2525 N Plaza Dr","City":"Visalia","State":"CA","Zip":"93291"},{"Location":"VISALIA APPL SERVICES","Address":"1414 W Goshen Ave","City":"Visalia","State":"CA","Zip":"93291"},{"Location":"VISALIA BREWING COMPANY","Address":"112 W Main St","City":"Visalia","State":"CA","Zip":"93291"},{"Location":"VISALIA CERAMIC TILE","Address":"917 N American St","City":"Visalia","State":"CA","Zip":"93291"},{"Location":"VISALIA FAMILY MEDICINE","Address":"202 W Willow Ave 502","City":"Visalia","State":"CA","Zip":"93291"},{"Location":"VISALIA MARRIOTT (0041867)","Address":"300 S Court St","City":"Visalia","State":"CA","Zip":"93291"},{"Location":"VISALIA POLICE ASSN","Address":"7400 Avenue 328","City":"Visalia","State":"CA","Zip":"93291"},{"Location":"VISALIA RAWHIDE BASEBALL","Address":"300 N Giddings St","City":"Visalia","State":"CA","Zip":"93291"},{"Location":"VWR INTERNATIONAL","Address":"8711 W Riggin Ave 312","City":"Visalia","State":"CA","Zip":"93291"},{"Location":"WESTERN ASSOCIATION SCHOOL","Address":"1100 W Main St","City":"Visalia","State":"CA","Zip":"93291"}]