[{"Location":"ALPHONFO RIVERA LLC","Address":"2515 Hughes Ln","City":"Bakersfield","State":"CA","Zip":"93304"},{"Location":"BEVERAGES INC.","Address":"1821 S Chester Ave","City":"Bakersfield","State":"CA","Zip":"93304"},{"Location":"BRUNDAGE NAILS","Address":"2217 Brundage Ln","City":"Bakersfield","State":"CA","Zip":"93304"},{"Location":"CAFE INDIA","Address":"3017 Wilson Rd","City":"Bakersfield","State":"CA","Zip":"93304"},{"Location":"CALIFORNIA WATER SERVICE","Address":"3725 S H St","City":"Bakersfield","State":"CA","Zip":"93304"},{"Location":"CAMELOT PARK","Address":"1251 Oak St","City":"Bakersfield","State":"CA","Zip":"93304"},{"Location":"CARROLLS","Address":"3001 Brundage Ln","City":"Bakersfield","State":"CA","Zip":"93304"},{"Location":"DAVITA #4425 BAKERSFIELD OAK","Address":"422 Oak St","City":"Bakersfield","State":"CA","Zip":"93304"},{"Location":"DESTINATION XL 9892","Address":"2701 Ming Ave 116","City":"Bakersfield","State":"CA","Zip":"93304"},{"Location":"DR RODRIGI AYALA DDS INC","Address":"1625 S H St","City":"Bakersfield","State":"CA","Zip":"93304"},{"Location":"EL ADOBE RESTAURANT","Address":"2620 Ming Ave","City":"Bakersfield","State":"CA","Zip":"93304"},{"Location":"FAR EAST CAFE","Address":"2501 White Ln","City":"Bakersfield","State":"CA","Zip":"93304"},{"Location":"GARLAND","Address":"2300 White Ln C","City":"Bakersfield","State":"CA","Zip":"93304"},{"Location":"KAMYA RANDLE","Address":"324 Oak St S","City":"Bakersfield","State":"CA","Zip":"93304"},{"Location":"KINGS CUT BARBERSHOP","Address":"3945 Hughes Ln B","City":"Bakersfield","State":"CA","Zip":"93304"},{"Location":"LOGAN'S ROADHOUSE","Address":"3310 California Ave","City":"Bakersfield","State":"CA","Zip":"93304"},{"Location":"LUCILLES SMOKSE BBQ 34","Address":"2701 Ming Ave 206","City":"Bakersfield","State":"CA","Zip":"93304"},{"Location":"MACY'S WEST 495","Address":"2601 Ming Ave","City":"Bakersfield","State":"CA","Zip":"93304"},{"Location":"MEN'S WEARHOUSE #2285","Address":"3006 Ming Ave A","City":"Bakersfield","State":"CA","Zip":"93304"},{"Location":"NEW YORK NAILS","Address":"2401 White Ln E","City":"Bakersfield","State":"CA","Zip":"93304"},{"Location":"QUE PASA MEXICAN CAFE","Address":"2701 Ming Ave 219","City":"Bakersfield","State":"CA","Zip":"93304"},{"Location":"R SPOT BARBER SHOP","Address":"3033 Wilson Rd","City":"Bakersfield","State":"CA","Zip":"93304"},{"Location":"ROUND TABLE PIZZA","Address":"2060 White Ln","City":"Bakersfield","State":"CA","Zip":"93304"},{"Location":"RUSTY'S PIZZA","Address":"1751 White Ln","City":"Bakersfield","State":"CA","Zip":"93304"},{"Location":"SEARS AUTO CENTER","Address":"3001 Ming Ave","City":"Bakersfield","State":"CA","Zip":"93304"},{"Location":"STUDIO 555","Address":"2215 Brundage Ln","City":"Bakersfield","State":"CA","Zip":"93304"},{"Location":"SUPER TACO 3","Address":"2525 S Chester Ave","City":"Bakersfield","State":"CA","Zip":"93304"},{"Location":"THE CORNER POCKET","Address":"3216 Ming Ave B","City":"Bakersfield","State":"CA","Zip":"93304"},{"Location":"THE ORIGINAL HACIENDA GRILL","Address":"300 Oak St","City":"Bakersfield","State":"CA","Zip":"93304"},{"Location":"U NEXT","Address":"2900 S Chester Ave","City":"Bakersfield","State":"CA","Zip":"93304"},{"Location":"WHITE LANE FAMILY DENTISTRY","Address":"2160 White Ln","City":"Bakersfield","State":"CA","Zip":"93304"}]