[{"Location":"ADVANCED DRAINAGE SYSTEMS","Address":"140 Vineland Rd","City":"Bakersfield","State":"CA","Zip":"93307"},{"Location":"ANTHONY VINEYARDS INC","Address":"5512 Valpredo Ave","City":"Bakersfield","State":"CA","Zip":"93307"},{"Location":"ANTHONYS FURNITURE","Address":"130 Union Ave","City":"Bakersfield","State":"CA","Zip":"93307"},{"Location":"BOLTHOUSE FARM","Address":"7200 E Brundage Ln","City":"Bakersfield","State":"CA","Zip":"93307"},{"Location":"BRAUN ELECTRIC","Address":"3000 E Belle Ter","City":"Bakersfield","State":"CA","Zip":"93307"},{"Location":"CALCOT LTD","Address":"1900 E Brundage Ln","City":"Bakersfield","State":"CA","Zip":"93307"},{"Location":"CALIS FINEST BARBER","Address":"6433 E Brundage Ln","City":"Bakersfield","State":"CA","Zip":"93307"},{"Location":"CARLAS CAFE","Address":"9809 S Union Ave","City":"Bakersfield","State":"CA","Zip":"93307"},{"Location":"CARMAX #7281","Address":"6801 Colony St","City":"Bakersfield","State":"CA","Zip":"93307"},{"Location":"COUNTY OF KERN DHF","Address":"100 E California Ave","City":"Bakersfield","State":"CA","Zip":"93307"},{"Location":"DENNYS RESTAURANT","Address":"2309 Panama Ln","City":"Bakersfield","State":"CA","Zip":"93307"},{"Location":"DEVOKEYA CLOTHING","Address":"830 E California Ave","City":"Bakersfield","State":"CA","Zip":"93307"},{"Location":"EL ATORON","Address":"254 White Ln","City":"Bakersfield","State":"CA","Zip":"93307"},{"Location":"EL SCORPION","Address":"3933 S Chester Ave","City":"Bakersfield","State":"CA","Zip":"93307"},{"Location":"EXPRESS APPLIANCES","Address":"622 E California Ave","City":"Bakersfield","State":"CA","Zip":"93307"},{"Location":"GEOGUIDANCE DRILLING SERVICES","Address":"200 Old Yard Dr","City":"Bakersfield","State":"CA","Zip":"93307"},{"Location":"GET FADED BARBER SHOP","Address":"1601 Panama Ln D106","City":"Bakersfield","State":"CA","Zip":"93307"},{"Location":"GOLDEN STATE PETERBILT","Address":"1450 S Union Ave","City":"Bakersfield","State":"CA","Zip":"93307"},{"Location":"GOLDEN WEST CASINO","Address":"1001 S Union Ave","City":"Bakersfield","State":"CA","Zip":"93307"},{"Location":"GRIMMWAY  FARMS","Address":"6900 Mountain View Rd","City":"Bakersfield","State":"CA","Zip":"93307"},{"Location":"KERN COUNTY FAIR","Address":"1142 S P St","City":"Bakersfield","State":"CA","Zip":"93307"},{"Location":"KNIGHTS SERVICES","Address":"5555 S Union Ave","City":"Bakersfield","State":"CA","Zip":"93307"},{"Location":"KRAZAN & ASSOCIATES INC","Address":"2205 Coy Ave","City":"Bakersfield","State":"CA","Zip":"93307"},{"Location":"LIBERTY CHRISTIAN CENTER","Address":"8801 S H St","City":"Bakersfield","State":"CA","Zip":"93307"},{"Location":"MC TOBACCO","Address":"1601 Panama Ln","City":"Bakersfield","State":"CA","Zip":"93307"},{"Location":"MCDONALDS","Address":"356 Weedpatch Hwy","City":"Bakersfield","State":"CA","Zip":"93307"},{"Location":"ML FORKLIFT & SERVICE","Address":"400 Old Yard Dr","City":"Bakersfield","State":"CA","Zip":"93307"},{"Location":"MONICA FURNITURE","Address":"360 S Union Ave","City":"Bakersfield","State":"CA","Zip":"93307"},{"Location":"MYCO ENTERPRISE","Address":"13649 Weedpatch Hwy","City":"Bakersfield","State":"CA","Zip":"93307"},{"Location":"PCL INDUSTRIAL","Address":"1500 S Union Ave","City":"Bakersfield","State":"CA","Zip":"93307"},{"Location":"PINKY'S LIQUOR","Address":"10515 S Union Ave","City":"Bakersfield","State":"CA","Zip":"93307"},{"Location":"POPEYES CHICKEN BISCUITS","Address":"1449 White Ln","City":"Bakersfield","State":"CA","Zip":"93307"},{"Location":"PSF TRUCKING INC","Address":"4510 Weedpatch Hwy","City":"Bakersfield","State":"CA","Zip":"93307"},{"Location":"RIGOS RESTAURANT","Address":"1440 Weedpatch Hwy","City":"Bakersfield","State":"CA","Zip":"93307"},{"Location":"SIERRA INTERNATIONAL","Address":"1620 E Brundage Ln","City":"Bakersfield","State":"CA","Zip":"93307"},{"Location":"THERMAL KING","Address":"234 Mount Vernon Ave","City":"Bakersfield","State":"CA","Zip":"93307"},{"Location":"TWENTY FOUR SEVEN TRAVEL PLAZA","Address":"209 Weedpatch Hwy","City":"Bakersfield","State":"CA","Zip":"93307"},{"Location":"WESTERN VALVE","Address":"201 Industrial St","City":"Bakersfield","State":"CA","Zip":"93307"},{"Location":"WILLIE YOUNGS HOME FOR MEN","Address":"1423 Quartz Hill Rd","City":"Bakersfield","State":"CA","Zip":"93307"},{"Location":"ADVANCED DRAINAGE SYSTEMS","Address":"140 Vineland Rd","City":"Bakersfield","State":"CA","Zip":"93307"},{"Location":"ANTHONY VINEYARDS INC","Address":"5512 Valpredo Ave","City":"Bakersfield","State":"CA","Zip":"93307"},{"Location":"ANTHONYS FURNITURE","Address":"130 Union Ave","City":"Bakersfield","State":"CA","Zip":"93307"},{"Location":"BOLTHOUSE FARM","Address":"7200 E Brundage Ln","City":"Bakersfield","State":"CA","Zip":"93307"},{"Location":"BRAUN ELECTRIC","Address":"3000 E Belle Ter","City":"Bakersfield","State":"CA","Zip":"93307"},{"Location":"CALCOT LTD","Address":"1900 E Brundage Ln","City":"Bakersfield","State":"CA","Zip":"93307"},{"Location":"CALIS FINEST BARBER","Address":"6433 E Brundage Ln","City":"Bakersfield","State":"CA","Zip":"93307"},{"Location":"CARLAS CAFE","Address":"9809 S Union Ave","City":"Bakersfield","State":"CA","Zip":"93307"},{"Location":"CARMAX #7281","Address":"6801 Colony St","City":"Bakersfield","State":"CA","Zip":"93307"},{"Location":"COUNTY OF KERN DHF","Address":"100 E California Ave","City":"Bakersfield","State":"CA","Zip":"93307"},{"Location":"DENNYS RESTAURANT","Address":"2309 Panama Ln","City":"Bakersfield","State":"CA","Zip":"93307"},{"Location":"DEVOKEYA CLOTHING","Address":"830 E California Ave","City":"Bakersfield","State":"CA","Zip":"93307"},{"Location":"EL ATORON","Address":"254 White Ln","City":"Bakersfield","State":"CA","Zip":"93307"},{"Location":"EL SCORPION","Address":"3933 S Chester Ave","City":"Bakersfield","State":"CA","Zip":"93307"},{"Location":"EXPRESS APPLIANCES","Address":"622 E California Ave","City":"Bakersfield","State":"CA","Zip":"93307"},{"Location":"GEOGUIDANCE DRILLING SERVICES","Address":"200 Old Yard Dr","City":"Bakersfield","State":"CA","Zip":"93307"},{"Location":"GET FADED BARBER SHOP","Address":"1601 Panama Ln D106","City":"Bakersfield","State":"CA","Zip":"93307"},{"Location":"GOLDEN STATE PETERBILT","Address":"1450 S Union Ave","City":"Bakersfield","State":"CA","Zip":"93307"},{"Location":"GOLDEN WEST CASINO","Address":"1001 S Union Ave","City":"Bakersfield","State":"CA","Zip":"93307"},{"Location":"GRIMMWAY  FARMS","Address":"6900 Mountain View Rd","City":"Bakersfield","State":"CA","Zip":"93307"},{"Location":"KERN COUNTY FAIR","Address":"1142 S P St","City":"Bakersfield","State":"CA","Zip":"93307"},{"Location":"KNIGHTS SERVICES","Address":"5555 S Union Ave","City":"Bakersfield","State":"CA","Zip":"93307"},{"Location":"KRAZAN & ASSOCIATES INC","Address":"2205 Coy Ave","City":"Bakersfield","State":"CA","Zip":"93307"},{"Location":"LIBERTY CHRISTIAN CENTER","Address":"8801 S H St","City":"Bakersfield","State":"CA","Zip":"93307"},{"Location":"MC TOBACCO","Address":"1601 Panama Ln","City":"Bakersfield","State":"CA","Zip":"93307"},{"Location":"MCDONALDS","Address":"356 Weedpatch Hwy","City":"Bakersfield","State":"CA","Zip":"93307"},{"Location":"ML FORKLIFT & SERVICE","Address":"400 Old Yard Dr","City":"Bakersfield","State":"CA","Zip":"93307"},{"Location":"MONICA FURNITURE","Address":"360 S Union Ave","City":"Bakersfield","State":"CA","Zip":"93307"},{"Location":"MYCO ENTERPRISE","Address":"13649 Weedpatch Hwy","City":"Bakersfield","State":"CA","Zip":"93307"},{"Location":"PCL INDUSTRIAL","Address":"1500 S Union Ave","City":"Bakersfield","State":"CA","Zip":"93307"},{"Location":"PINKY'S LIQUOR","Address":"10515 S Union Ave","City":"Bakersfield","State":"CA","Zip":"93307"},{"Location":"POPEYES CHICKEN BISCUITS","Address":"1449 White Ln","City":"Bakersfield","State":"CA","Zip":"93307"},{"Location":"PSF TRUCKING INC","Address":"4510 Weedpatch Hwy","City":"Bakersfield","State":"CA","Zip":"93307"},{"Location":"RIGOS RESTAURANT","Address":"1440 Weedpatch Hwy","City":"Bakersfield","State":"CA","Zip":"93307"},{"Location":"SIERRA INTERNATIONAL","Address":"1620 E Brundage Ln","City":"Bakersfield","State":"CA","Zip":"93307"},{"Location":"THERMAL KING","Address":"234 Mount Vernon Ave","City":"Bakersfield","State":"CA","Zip":"93307"},{"Location":"TWENTY FOUR SEVEN TRAVEL PLAZA","Address":"209 Weedpatch Hwy","City":"Bakersfield","State":"CA","Zip":"93307"},{"Location":"WESTERN VALVE","Address":"201 Industrial St","City":"Bakersfield","State":"CA","Zip":"93307"},{"Location":"WILLIE YOUNGS HOME FOR MEN","Address":"1423 Quartz Hill Rd","City":"Bakersfield","State":"CA","Zip":"93307"}]