[{"Location":"24 HOUR FITNESS #128","Address":"3633 Rosedale Hwy","City":"Bakersfield","State":"CA","Zip":"93308"},{"Location":"6619002652","Address":"3430 Gilmore Ave A","City":"Bakersfield","State":"CA","Zip":"93308"},{"Location":"A CUT IN TIME BARBERSHOP","Address":"6510 Norris Rd","City":"Bakersfield","State":"CA","Zip":"93308"},{"Location":"A-C ELECTRIC COMPANY","Address":"2921 Hanger Way","City":"Bakersfield","State":"CA","Zip":"93308"},{"Location":"ADVANCED FABRICATION","Address":"6304 Seven Seas Ave","City":"Bakersfield","State":"CA","Zip":"93308"},{"Location":"AIR METHODS","Address":"1801 Skyway Dr","City":"Bakersfield","State":"CA","Zip":"93308"},{"Location":"AIRPORT COLLECTIVE","Address":"1301 Airport Dr A","City":"Bakersfield","State":"CA","Zip":"93308"},{"Location":"AMERICAN FABRICATION","Address":"4940 Gilmore Ave","City":"Bakersfield","State":"CA","Zip":"93308"},{"Location":"AMERICAN TIRE DEPOT","Address":"7600 Rosedale Hwy","City":"Bakersfield","State":"CA","Zip":"93308"},{"Location":"ARSENAL EQUIPMENT RENTALS","Address":"34921 Petrol Rd","City":"Bakersfield","State":"CA","Zip":"93308"},{"Location":"BAKERSFIELD 420","Address":"3910 Alfred Harrell Hwy","City":"Bakersfield","State":"CA","Zip":"93308"},{"Location":"BAKERSFIELD MACHINE CO","Address":"5605 N Chestet Ext","City":"Bakersfield","State":"CA","Zip":"93308"},{"Location":"BBRC","Address":"1301 Skyway Dr","City":"Bakersfield","State":"CA","Zip":"93308"},{"Location":"BULLSHED BAR AND GRILL","Address":"2400 Camino Del Rio Ct","City":"Bakersfield","State":"CA","Zip":"93308"},{"Location":"CACTUS VALLEY MEXICAN REST","Address":"4215 Rosedale Hwy","City":"Bakersfield","State":"CA","Zip":"93308"},{"Location":"CALIFIA FARMS","Address":"33502 Lerdo Hwy","City":"Bakersfield","State":"CA","Zip":"93308"},{"Location":"CARPET OUTLET PLUS","Address":"4301 Rosedale Hwy","City":"Bakersfield","State":"CA","Zip":"93308"},{"Location":"CARROLL TIRE WHEREHOUSE","Address":"8018 Rosedale Hwy","City":"Bakersfield","State":"CA","Zip":"93308"},{"Location":"CENTRAL CALIFORNIA ATHLETIC","Address":"7431 Rosedale Hwy B","City":"Bakersfield","State":"CA","Zip":"93308"},{"Location":"CENTURY CALIBRATING","Address":"4100 Well Tech Way","City":"Bakersfield","State":"CA","Zip":"93308"},{"Location":"CHAMPS BBQ AND CATERING","Address":"35315 Merle Haggard Dr 110","City":"Bakersfield","State":"CA","Zip":"93308"},{"Location":"CHESTER AVENUE BRAKE","Address":"19420 Colombo St","City":"Bakersfield","State":"CA","Zip":"93308"},{"Location":"CHEVRON BUSINESS & REAL ESTATE","Address":"1546 China Grade Loop","City":"Bakersfield","State":"CA","Zip":"93308"},{"Location":"CIELO 9 BAR  LLC","Address":"4208 Rosedale Hwy 305","City":"Bakersfield","State":"CA","Zip":"93308"},{"Location":"CIGARS AND MORE","Address":"4208 Rosedale Hwy 304","City":"Bakersfield","State":"CA","Zip":"93308"},{"Location":"COMFORT SUITES","Address":"3115 Camino Del Rio Ct","City":"Bakersfield","State":"CA","Zip":"93308"},{"Location":"COMPASS ROSE RECOVERY","Address":"16851 Round Mountain Rd","City":"Bakersfield","State":"CA","Zip":"93308"},{"Location":"CONSOLIDATED FIBERGLASSES PRD","Address":"3801 Standard St","City":"Bakersfield","State":"CA","Zip":"93308"},{"Location":"DAVITA #11181 NW BAKERSFIELD","Address":"3933 Coffee Rd","City":"Bakersfield","State":"CA","Zip":"93308"},{"Location":"DELI MART","Address":"6600 Rosedale Hwy","City":"Bakersfield","State":"CA","Zip":"93308"},{"Location":"DENNYS RESTAURANTS 8571","Address":"17047 Zachary Rd","City":"Bakersfield","State":"CA","Zip":"93308"},{"Location":"DICKEYS BAKERSFIELD 596","Address":"3505 Coffee Rd A","City":"Bakersfield","State":"CA","Zip":"93308"},{"Location":"DMK CAMP AND SONS","Address":"31798 Merced Ave","City":"Bakersfield","State":"CA","Zip":"93308"},{"Location":"EPIC JET CENTER","Address":"1105 Douglas St","City":"Bakersfield","State":"CA","Zip":"93308"},{"Location":"EQUIPMENT RENTAL","Address":"3217 Patton Way","City":"Bakersfield","State":"CA","Zip":"93308"},{"Location":"ESPARZA ENTERPRIZES","Address":"3851 Fruitville Ave","City":"Bakersfield","State":"CA","Zip":"93308"},{"Location":"FABULOUS BURGERS","Address":"3004 Airport Dr","City":"Bakersfield","State":"CA","Zip":"93308"},{"Location":"FAMOUS DAVES BBQ BAKERSFIELD","Address":"7777 Rosedale Hwy","City":"Bakersfield","State":"CA","Zip":"93308"},{"Location":"FARM CREDIT WEST","Address":"19628 Industry Parkway Dr","City":"Bakersfield","State":"CA","Zip":"93308"},{"Location":"FITNESS HEALTH CLUB","Address":"3904 Coffee Rd","City":"Bakersfield","State":"CA","Zip":"93308"},{"Location":"FRED'S BARBECUE FACTORY","Address":"4208 Rosedale Hwy 308-3","City":"Bakersfield","State":"CA","Zip":"93308"},{"Location":"FREDS BARBERSHOP","Address":"4311 Rosedale Hwy","City":"Bakersfield","State":"CA","Zip":"93308"},{"Location":"GAZELLE TRANSPORTATION","Address":"34915 Gazelle Ct","City":"Bakersfield","State":"CA","Zip":"93308"},{"Location":"GCI EQUIPMENT RENTAL","Address":"6045 Rosedale Hwy","City":"Bakersfield","State":"CA","Zip":"93308"},{"Location":"HOOTERS OF BAKERSFIELD","Address":"4208 Rosedale Hwy 100","City":"Bakersfield","State":"CA","Zip":"93308"},{"Location":"IBEW 428","Address":"3921 N Sillect Ave","City":"Bakersfield","State":"CA","Zip":"93308"},{"Location":"INTERSTATE MANAGEMENT GROUP","Address":"6501 Fruitvale Ave","City":"Bakersfield","State":"CA","Zip":"93308"},{"Location":"JIMS SUPPLY COMPANY","Address":"3500 Buck Owens Blvd","City":"Bakersfield","State":"CA","Zip":"93308"},{"Location":"JOEYS EBAY SALES","Address":"6403 Seven Seas Ave 1","City":"Bakersfield","State":"CA","Zip":"93308"},{"Location":"JOHN'S INCREDIBLE PIZZA","Address":"3709 Rosedale Hwy","City":"Bakersfield","State":"CA","Zip":"93308"},{"Location":"KARENS FUR BABIES","Address":"3714 Coffee Rd C","City":"Bakersfield","State":"CA","Zip":"93308"},{"Location":"KENJEREL INTL SALON","Address":"1129 Olive Dr M","City":"Bakersfield","State":"CA","Zip":"93308"},{"Location":"KERN ASPHALT PAVING 1","Address":"2000 Norris Rd","City":"Bakersfield","State":"CA","Zip":"93308"},{"Location":"KERN CNTY FIRE FIGHTERS","Address":"3555 Landco Dr A","City":"Bakersfield","State":"CA","Zip":"93308"},{"Location":"KERN COUNTY FIRE TRAINNING","Address":"5642 Victor St","City":"Bakersfield","State":"CA","Zip":"93308"},{"Location":"KERN COUNTY SHERIFF'S DEPART","Address":"1350 Norris Rd","City":"Bakersfield","State":"CA","Zip":"93308"},{"Location":"KERN LAW ENFORCEMENT ASS","Address":"3417 Pegasus Dr","City":"Bakersfield","State":"CA","Zip":"93308"},{"Location":"KILLIAN PEST CONTROL INC","Address":"2311 Perseus Ct","City":"Bakersfield","State":"CA","Zip":"93308"},{"Location":"LA MINA CANTINA","Address":"1300 Coffee Rd","City":"Bakersfield","State":"CA","Zip":"93308"},{"Location":"LARRY J RHOADES CROSSROADS","Address":"17824 Quality Rd","City":"Bakersfield","State":"CA","Zip":"93308"},{"Location":"LINDA SANDERSON","Address":"6200 Price Way","City":"Bakersfield","State":"CA","Zip":"93308"},{"Location":"LISA ROMERO","Address":"5621 Gusher Ct","City":"Bakersfield","State":"CA","Zip":"93308"},{"Location":"LITTLE RED SCHOO","Address":"4601 Fruitvale Ave","City":"Bakersfield","State":"CA","Zip":"93308"},{"Location":"LOVE SUSHI","Address":"3940 Coffee Rd C1","City":"Bakersfield","State":"CA","Zip":"93308"},{"Location":"LYNNETTES BEAUTY SALON","Address":"816 Roberts Ln","City":"Bakersfield","State":"CA","Zip":"93308"},{"Location":"MAGOOS","Address":"1129 Olive Dr A","City":"Bakersfield","State":"CA","Zip":"93308"},{"Location":"MAGOOS PIZZA","Address":"1129 Olive Dr Ab","City":"Bakersfield","State":"CA","Zip":"93308"},{"Location":"ME-N-EDS PIZZERIA-STORE41","Address":"4550 Coffee Rd L","City":"Bakersfield","State":"CA","Zip":"93308"},{"Location":"MEADOW FIELDS","Address":"1663 Sunnyside Ct","City":"Bakersfield","State":"CA","Zip":"93308"},{"Location":"MELVILLE","Address":"1340 Roberts Ln S1","City":"Bakersfield","State":"CA","Zip":"93308"},{"Location":"MID CAL FABRICATION INC","Address":"6400 Price Way","City":"Bakersfield","State":"CA","Zip":"93308"},{"Location":"MIDWEST HOSE & SPECIALY","Address":"3202 Pegasus Dr","City":"Bakersfield","State":"CA","Zip":"93308"},{"Location":"MULYANAS FITNESS","Address":"6914 Downing Ave D","City":"Bakersfield","State":"CA","Zip":"93308"},{"Location":"OHENNINGS","Address":"1312 Airport Dr","City":"Bakersfield","State":"CA","Zip":"93308"},{"Location":"OLD WEST CAFE","Address":"1803 N Chester Ave","City":"Bakersfield","State":"CA","Zip":"93308"},{"Location":"OLD WEST SALOON","Address":"1807 N Chester Ave","City":"Bakersfield","State":"CA","Zip":"93308"},{"Location":"OLLIVIER INVESTMENTS LLC","Address":"19325 Flight Path Way","City":"Bakersfield","State":"CA","Zip":"93308"},{"Location":"PAC SEIS INC","Address":"5400 Rosedale Hwy","City":"Bakersfield","State":"CA","Zip":"93308"},{"Location":"PACE DIVERSIFIED","Address":"3518 Gilmore Ave","City":"Bakersfield","State":"CA","Zip":"93308"},{"Location":"PARADIGM STEEL INC","Address":"3510 Standard St","City":"Bakersfield","State":"CA","Zip":"93308"},{"Location":"PILOT FLYING J #61300","Address":"17047 Zachary Rd","City":"Bakersfield","State":"CA","Zip":"93308"},{"Location":"PIZZA HUT","Address":"2337 N Chester Ave","City":"Bakersfield","State":"CA","Zip":"93308"},{"Location":"POPEYES","Address":"705 Airport Dr","City":"Bakersfield","State":"CA","Zip":"93308"},{"Location":"POUR HOUSE BAR & GRILL","Address":"4041 Fruitvale Ave","City":"Bakersfield","State":"CA","Zip":"93308"},{"Location":"PRATHER DRY WALL","Address":"2222 Zeus Ct","City":"Bakersfield","State":"CA","Zip":"93308"},{"Location":"RANCHO RIO EQUESTRIAN CTR","Address":"5320 Peacock Park Ln","City":"Bakersfield","State":"CA","Zip":"93308"},{"Location":"ROBERTS LANE BARBER SHOP","Address":"231 Roberts Ln","City":"Bakersfield","State":"CA","Zip":"93308"},{"Location":"ROCK BOTTOM INC","Address":"2724 Landco Dr","City":"Bakersfield","State":"CA","Zip":"93308"},{"Location":"RODRIGUEZ","Address":"19456 Colombo St H","City":"Bakersfield","State":"CA","Zip":"93308"},{"Location":"SA CAMP COMPANIES","Address":"17878 Zerker Rd","City":"Bakersfield","State":"CA","Zip":"93308"},{"Location":"SAFELITE AUTO GLASS","Address":"3208 Pegasus Dr","City":"Bakersfield","State":"CA","Zip":"93308"},{"Location":"SC  ANDERSON","Address":"2160 Mars Ct","City":"Bakersfield","State":"CA","Zip":"93308"},{"Location":"SKY BAR AND LOUNGE","Address":"4208 Rosedale Hwy 305","City":"Bakersfield","State":"CA","Zip":"93308"},{"Location":"SOUTHWEST CONTRACTORS","Address":"3235 Unicorn Rd","City":"Bakersfield","State":"CA","Zip":"93308"},{"Location":"SPEED A WAY SMOG","Address":"5260 Rosedale Hwy","City":"Bakersfield","State":"CA","Zip":"93308"},{"Location":"STEAK AND GRAPE","Address":"4420 Coffee Rd","City":"Bakersfield","State":"CA","Zip":"93308"},{"Location":"SUSHI KATO","Address":"3631 Rosedale Hwy","City":"Bakersfield","State":"CA","Zip":"93308"},{"Location":"SYNDICATE EMPIRE LLC","Address":"2201 N Chester Ave","City":"Bakersfield","State":"CA","Zip":"93308"},{"Location":"TAURIAN BA%2C LLC #1087","Address":"3601 Rosedale Hwy","City":"Bakersfield","State":"CA","Zip":"93308"},{"Location":"TEETERS AND CARWASH AND DETAIL","Address":"3714 Coffee Rd","City":"Bakersfield","State":"CA","Zip":"93308"},{"Location":"TEJON CLUB","Address":"117 El Tejon Ave","City":"Bakersfield","State":"CA","Zip":"93308"},{"Location":"TEMPSERV","Address":"1401 Airport Dr","City":"Bakersfield","State":"CA","Zip":"93308"},{"Location":"THE DAWGHOUSE SPORTS PUB","Address":"1914 N Chester Ave","City":"Bakersfield","State":"CA","Zip":"93308"},{"Location":"THE SMILE LOUNGE","Address":"4801 Coffee Rd 200","City":"Bakersfield","State":"CA","Zip":"93308"},{"Location":"TONY'S PIZZA","Address":"4750 Coffee Rd","City":"Bakersfield","State":"CA","Zip":"93308"},{"Location":"TROUTS NIGHT CLUB","Address":"805 N Chester Ave","City":"Bakersfield","State":"CA","Zip":"93308"},{"Location":"TS69282020000000XXAQXXBFLXTVXX","Address":"3701 Wings Way","City":"Bakersfield","State":"CA","Zip":"93308"},{"Location":"WALLACE & SMITH CONTRACTORS","Address":"3325 Landco Dr","City":"Bakersfield","State":"CA","Zip":"93308"},{"Location":"WOLTZ DAWN E INSURANCE S","Address":"923 Devore Ave","City":"Bakersfield","State":"CA","Zip":"93308"},{"Location":"WOOD DUCK LLC","Address":"1401 Airport Dr","City":"Bakersfield","State":"CA","Zip":"93308"},{"Location":"WORK LOGIC HR","Address":"4029 Coffee Rd","City":"Bakersfield","State":"CA","Zip":"93308"}]