[{"Location":"ALEX BARBER SHOP","Address":"3900 Niles St 102","City":"Bakersfield","State":"CA","Zip":"93306"},{"Location":"ALIA CORPERATION","Address":"3037 Niles St","City":"Bakersfield","State":"CA","Zip":"93306"},{"Location":"ANITAS GRILL & CANTINA","Address":"10701 Highway 178","City":"Bakersfield","State":"CA","Zip":"93306"},{"Location":"ANNAS BILLARDS","Address":"2822 Niles St","City":"Bakersfield","State":"CA","Zip":"93306"},{"Location":"BAKERSFIELD COUNTRY CLUB 1","Address":"4200 Country Club Dr","City":"Bakersfield","State":"CA","Zip":"93306"},{"Location":"BAKERSFIELD MEDICAL GROUP","Address":"2935 Oswell St","City":"Bakersfield","State":"CA","Zip":"93306"},{"Location":"CATALDO'S PIZZERIA","Address":"6111 Niles St","City":"Bakersfield","State":"CA","Zip":"93306"},{"Location":"CK7 OSWELL","Address":"2641 Oswell St D","City":"Bakersfield","State":"CA","Zip":"93306"},{"Location":"COLD STONE MT. VERNON","Address":"2625 Mount Vernon Ave 104","City":"Bakersfield","State":"CA","Zip":"93306"},{"Location":"COMFORT DENTAL KIDS","Address":"2631 Fashion Pl A","City":"Bakersfield","State":"CA","Zip":"93306"},{"Location":"CRYSTAL NAILS","Address":"3122 Niles St","City":"Bakersfield","State":"CA","Zip":"93306"},{"Location":"DAVITA #3821 NORTHEAST","Address":"3761 Mall View Rd","City":"Bakersfield","State":"CA","Zip":"93306"},{"Location":"DON PERICO","Address":"2660 Oswell St 133","City":"Bakersfield","State":"CA","Zip":"93306"},{"Location":"FMC 68830000","Address":"3201 Mall View Rd","City":"Bakersfield","State":"CA","Zip":"93306"},{"Location":"GOLDEN CASTLE ASSISTED LIVING","Address":"2607 Mount Vernon Ave","City":"Bakersfield","State":"CA","Zip":"93306"},{"Location":"IN SHAPE CITY%3A BAKERSFIELD","Address":"2681 Oswell St","City":"Bakersfield","State":"CA","Zip":"93306"},{"Location":"KAISER PERMANENTE EAST","Address":"3700 Mall View Rd","City":"Bakersfield","State":"CA","Zip":"93306"},{"Location":"KERN COUNTY FIRE DEPT","Address":"2601 Panorama Dr","City":"Bakersfield","State":"CA","Zip":"93306"},{"Location":"LES SCHWAB TIRE CENTER","Address":"2512 Oswell St","City":"Bakersfield","State":"CA","Zip":"93306"},{"Location":"MAGOOS PIZZA","Address":"5600 Auburn St G","City":"Bakersfield","State":"CA","Zip":"93306"},{"Location":"MT VERNON DENTISTRY","Address":"2302 Columbus St","City":"Bakersfield","State":"CA","Zip":"93306"},{"Location":"NILES EAST MOBILE ESTATES","Address":"8500 Kern Canyon Rd","City":"Bakersfield","State":"CA","Zip":"93306"},{"Location":"PIZZA HUT- AUBURN ST","Address":"3701 Auburn St","City":"Bakersfield","State":"CA","Zip":"93306"},{"Location":"POPEYES CHICKEN BISCUITS","Address":"1221 Mount Vernon Ave","City":"Bakersfield","State":"CA","Zip":"93306"},{"Location":"RDR PRECISION TECH","Address":"11000 Kern Canyon Rd A","City":"Bakersfield","State":"CA","Zip":"93306"},{"Location":"RED PEPPER COCKTAIL","Address":"2641 Oswell St G","City":"Bakersfield","State":"CA","Zip":"93306"},{"Location":"REGENT COCK TAILS LOUNGE","Address":"2814 Niles St","City":"Bakersfield","State":"CA","Zip":"93306"},{"Location":"SS BAR","Address":"3133 Niles St","City":"Bakersfield","State":"CA","Zip":"93306"},{"Location":"TARGET STORE","Address":"3401 Mall View Rd","City":"Bakersfield","State":"CA","Zip":"93306"},{"Location":"THE WRIGHT PLACE","Address":"2695 Mount Vernon Ave G","City":"Bakersfield","State":"CA","Zip":"93306"},{"Location":"VILLA SIENNA APARTMENTS","Address":"6900 Valleyview Dr","City":"Bakersfield","State":"CA","Zip":"93306"},{"Location":"VINTAGE CUTZ BARBERSHOP","Address":"2695 Mount Vernon Ave D","City":"Bakersfield","State":"CA","Zip":"93306"},{"Location":"WINGSTOP","Address":"2600 Oswell St E","City":"Bakersfield","State":"CA","Zip":"93306"},{"Location":"YOUTH FOR CHRIST","Address":"2501 Bishop Dr","City":"Bakersfield","State":"CA","Zip":"93306"},{"Location":"ZACOALCO MEDICAL GROUP","Address":"5901 Niles St A","City":"Bakersfield","State":"CA","Zip":"93306"}]