[{"Location":"1 STOP SMOG & AUTO CARE","Address":"6561 White Ln H","City":"Bakersfield","State":"CA","Zip":"93309"},{"Location":"ANDREW CARDENAS","Address":"4800 White Ln E","City":"Bakersfield","State":"CA","Zip":"93309"},{"Location":"ANITAS  MEXICAN GRILL","Address":"4240 California Ave","City":"Bakersfield","State":"CA","Zip":"93309"},{"Location":"ASBURY KNIGHT INVESTMENTS","Address":"5120 Stockdale Hwy B","City":"Bakersfield","State":"CA","Zip":"93309"},{"Location":"AUTO PLANET SUPER STORE","Address":"4020 California Ave","City":"Bakersfield","State":"CA","Zip":"93309"},{"Location":"B. RYDERS SPORTS BAR & GRILL","Address":"7401 White Ln 8","City":"Bakersfield","State":"CA","Zip":"93309"},{"Location":"BAKERSFIELD ASSOC OF REA","Address":"2300 Bahamas Dr","City":"Bakersfield","State":"CA","Zip":"93309"},{"Location":"BARNES WEALTH MANAGMENT GROUP","Address":"5060 California Ave 1020","City":"Bakersfield","State":"CA","Zip":"93309"},{"Location":"BLACK BEAR DINER","Address":"4102 California Ave","City":"Bakersfield","State":"CA","Zip":"93309"},{"Location":"BRINKS DELLI","Address":"3803 Ming Ave","City":"Bakersfield","State":"CA","Zip":"93309"},{"Location":"CALIFORNIA SMOG TECH","Address":"6901 White Ln","City":"Bakersfield","State":"CA","Zip":"93309"},{"Location":"CATALDOS PIZZERIA","Address":"2500 New Stine Rd 4a","City":"Bakersfield","State":"CA","Zip":"93309"},{"Location":"CHARLES SCHWAB CC335","Address":"4885 Truxtun Ave C","City":"Bakersfield","State":"CA","Zip":"93309"},{"Location":"CHEERS LOUNGE","Address":"3809 Ming Ave","City":"Bakersfield","State":"CA","Zip":"93309"},{"Location":"CHEVRON - CVN 000180","Address":"5001 California Ave","City":"Bakersfield","State":"CA","Zip":"93309"},{"Location":"CHINA STAR BUFFET","Address":"4771 Planz Rd","City":"Bakersfield","State":"CA","Zip":"93309"},{"Location":"CHIPS N SALSA1","Address":"4761 Planz Rd","City":"Bakersfield","State":"CA","Zip":"93309"},{"Location":"CHUY'S","Address":"2500 New Stine Rd 102","City":"Bakersfield","State":"CA","Zip":"93309"},{"Location":"CIGAR LOUNGE","Address":"5482 California Ave","City":"Bakersfield","State":"CA","Zip":"93309"},{"Location":"CK7 GOSFORD","Address":"3700 Gosford Rd A","City":"Bakersfield","State":"CA","Zip":"93309"},{"Location":"COMPREHENSIVE BLOOD CENTER","Address":"6501 Truxtun Ave","City":"Bakersfield","State":"CA","Zip":"93309"},{"Location":"DAVID JANES COMPANY","Address":"1400 Easton Dr 105","City":"Bakersfield","State":"CA","Zip":"93309"},{"Location":"DAVITA #1921 BAKERSFIELD","Address":"5143 Office Park Dr","City":"Bakersfield","State":"CA","Zip":"93309"},{"Location":"DAVITA #1921-A BAKERSFIELD","Address":"5121 Office Park Dr","City":"Bakersfield","State":"CA","Zip":"93309"},{"Location":"DAVITA #3633 WHITE LANE","Address":"7701 White Ln D","City":"Bakersfield","State":"CA","Zip":"93309"},{"Location":"DON PEPE RESTAURANTE","Address":"3719 Wilson Rd D","City":"Bakersfield","State":"CA","Zip":"93309"},{"Location":"DR SALINS DENTAL OFFICE","Address":"5060 California Ave","City":"Bakersfield","State":"CA","Zip":"93309"},{"Location":"FASTRIP FOOD STORE","Address":"8001 White Ln","City":"Bakersfield","State":"CA","Zip":"93309"},{"Location":"FBI","Address":"4550 California Ave","City":"Bakersfield","State":"CA","Zip":"93309"},{"Location":"FIRESTONE #022705","Address":"3650 Stine Rd","City":"Bakersfield","State":"CA","Zip":"93309"},{"Location":"GOLDEN 1 BAKERSFIELD","Address":"4106 California Ave","City":"Bakersfield","State":"CA","Zip":"93309"},{"Location":"GOLDEN OX","Address":"4851 White Ln","City":"Bakersfield","State":"CA","Zip":"93309"},{"Location":"GOLDEN OX DINER","Address":"3400 Wilson Rd","City":"Bakersfield","State":"CA","Zip":"93309"},{"Location":"GRANNYS WASH AND DRY","Address":"1601 Mcdonald Way","City":"Bakersfield","State":"CA","Zip":"93309"},{"Location":"HABANERO'S MEXICAN GRILL CANTI","Address":"4646 California Ave","City":"Bakersfield","State":"CA","Zip":"93309"},{"Location":"HOCKING DENTON PALMQUIST","Address":"4885 Truxtun Ave A","City":"Bakersfield","State":"CA","Zip":"93309"},{"Location":"HUANG","Address":"2217 Ashe Rd","City":"Bakersfield","State":"CA","Zip":"93309"},{"Location":"ICON EYECARE","Address":"3880 Gosford Rd B","City":"Bakersfield","State":"CA","Zip":"93309"},{"Location":"IN SHAPE CITY BAKERSFIELD","Address":"4801 White Ln","City":"Bakersfield","State":"CA","Zip":"93309"},{"Location":"IN SHAPE CLUBS","Address":"4230 California Ave","City":"Bakersfield","State":"CA","Zip":"93309"},{"Location":"INDEPENDENT VOLVO","Address":"6801 White Ln H1","City":"Bakersfield","State":"CA","Zip":"93309"},{"Location":"JAVIER GARCIA INSURANCE AGENCY","Address":"4437 Ming Ave B","City":"Bakersfield","State":"CA","Zip":"93309"},{"Location":"KERN GASTROENTEROLOGY","Address":"5959 Truxtun Ave 200","City":"Bakersfield","State":"CA","Zip":"93309"},{"Location":"KERN RADIOLOGY","Address":"2301 Bahamas Dr","City":"Bakersfield","State":"CA","Zip":"93309"},{"Location":"KERN SCHOOL FEDERAL CREDIT","Address":"4530 Ming Ave","City":"Bakersfield","State":"CA","Zip":"93309"},{"Location":"KOREAN BBQ","Address":"6401 White Ln 101","City":"Bakersfield","State":"CA","Zip":"93309"},{"Location":"LE CORUSSE ROUGE RESTAURANT","Address":"4647 White Ln","City":"Bakersfield","State":"CA","Zip":"93309"},{"Location":"LES  SCHWAB TIRES 558","Address":"5001 Ming Ave","City":"Bakersfield","State":"CA","Zip":"93309"},{"Location":"LIBERTY PARTNERS","Address":"5060 California Ave 620","City":"Bakersfield","State":"CA","Zip":"93309"},{"Location":"MARIE CALLENDER'S","Address":"3801 California Ave","City":"Bakersfield","State":"CA","Zip":"93309"},{"Location":"MEXICALI RESTAURANT","Address":"5601 California Ave","City":"Bakersfield","State":"CA","Zip":"93309"},{"Location":"MIMIS CAFE","Address":"4025 California Ave","City":"Bakersfield","State":"CA","Zip":"93309"},{"Location":"MODERN NAILS","Address":"4478 Main Ave","City":"Bakersfield","State":"CA","Zip":"93309"},{"Location":"MOO CREAMERY","Address":"4885 Truxtun Ave","City":"Bakersfield","State":"CA","Zip":"93309"},{"Location":"MOUNTAIN MIKES PIZZA STO","Address":"5632 Stockdale Hwy","City":"Bakersfield","State":"CA","Zip":"93309"},{"Location":"OUTBACK STEAKHOUSE #0513","Address":"5051 Stockdale Hwy","City":"Bakersfield","State":"CA","Zip":"93309"},{"Location":"PACIFIC DENTAL #1031","Address":"5120 Stockdale Hwy D","City":"Bakersfield","State":"CA","Zip":"93309"},{"Location":"PETROLEUM CLUB","Address":"5060 California Ave 1200","City":"Bakersfield","State":"CA","Zip":"93309"},{"Location":"PHAT HEADS BARBER SHOP","Address":"4709 Wilson Rd","City":"Bakersfield","State":"CA","Zip":"93309"},{"Location":"PIZZA HUT- PLANZ RD","Address":"4708 Planz Rd","City":"Bakersfield","State":"CA","Zip":"93309"},{"Location":"POUR SPORTS PUB","Address":"3621 California Ave D","City":"Bakersfield","State":"CA","Zip":"93309"},{"Location":"RANCHO GRANDE","Address":"5432 Stockdale Hwy","City":"Bakersfield","State":"CA","Zip":"93309"},{"Location":"RESTAURANTE Y CUCUSERIA","Address":"3214 Stine Rd","City":"Bakersfield","State":"CA","Zip":"93309"},{"Location":"SAILS L A","Address":"1818 Westbrook Dr","City":"Bakersfield","State":"CA","Zip":"93309"},{"Location":"SAILS LA","Address":"3505 Westchester Ave","City":"Bakersfield","State":"CA","Zip":"93309"},{"Location":"SCOTTRADE X04","Address":"5550 California Ave X04","City":"Bakersfield","State":"CA","Zip":"93309"},{"Location":"SINGHA THAI RESTAURANT","Address":"5432 California Ave","City":"Bakersfield","State":"CA","Zip":"93309"},{"Location":"SMILELAND DENTAL","Address":"4104 California Ave","City":"Bakersfield","State":"CA","Zip":"93309"},{"Location":"SPORTS & SPIRITS","Address":"6633 Ming Ave","City":"Bakersfield","State":"CA","Zip":"93309"},{"Location":"SPORTS AUTHORITY 676","Address":"4821 Ming Ave","City":"Bakersfield","State":"CA","Zip":"93309"},{"Location":"STATE FARM INSURANCE","Address":"5500 Ming Ave 180","City":"Bakersfield","State":"CA","Zip":"93309"},{"Location":"STIFEL NICOLAUS","Address":"5060 California Ave 1140","City":"Bakersfield","State":"CA","Zip":"93309"},{"Location":"STOCKDALE RADIOLOGY","Address":"4000 Empire Dr","City":"Bakersfield","State":"CA","Zip":"93309"},{"Location":"THE FIREHOUSE","Address":"7701 White Ln A3","City":"Bakersfield","State":"CA","Zip":"93309"},{"Location":"THE STACHE LOUNGE","Address":"4800 White Ln E","City":"Bakersfield","State":"CA","Zip":"93309"},{"Location":"THE UPPER CUT","Address":"8040 White Ln G","City":"Bakersfield","State":"CA","Zip":"93309"},{"Location":"TONIS PIZZA","Address":"4130 California Ave","City":"Bakersfield","State":"CA","Zip":"93309"},{"Location":"TRUXTUN SURGERY CENTER","Address":"4260 Truxtun Ave 120","City":"Bakersfield","State":"CA","Zip":"93309"},{"Location":"VIP LOUNGE","Address":"5460 California Ave","City":"Bakersfield","State":"CA","Zip":"93309"},{"Location":"WEST COAST BARBERSHOP","Address":"6300 White Ln","City":"Bakersfield","State":"CA","Zip":"93309"},{"Location":"WHITE GOLD COTTON LLC","Address":"5555 Business Park S 210","City":"Bakersfield","State":"CA","Zip":"93309"},{"Location":"WINGSTOP","Address":"3880 Gosford Rd 100","City":"Bakersfield","State":"CA","Zip":"93309"}]