[{"Location":"17TH STREET CIGAR CO","Address":"1418 17th St","City":"Bakersfield","State":"CA","Zip":"93301"},{"Location":"21 CLUB LOUNGE","Address":"2022 Chester Ave","City":"Bakersfield","State":"CA","Zip":"93301"},{"Location":"A C ELECTRIC COMPANY","Address":"315 30th St","City":"Bakersfield","State":"CA","Zip":"93301"},{"Location":"ALADDIN BB DEPT 702","Address":"1308 Chester Ave","City":"Bakersfield","State":"CA","Zip":"93301"},{"Location":"AT&T BAKERSFIELD","Address":"1520 20th St","City":"Bakersfield","State":"CA","Zip":"93301"},{"Location":"BAKERSFIELD COMMUNITY HOUSE","Address":"2020 R St","City":"Bakersfield","State":"CA","Zip":"93301"},{"Location":"BJ FIVE STAR PIZZA","Address":"2543 F St","City":"Bakersfield","State":"CA","Zip":"93301"},{"Location":"BOSS PIZZA COMPANY","Address":"1517 18th St","City":"Bakersfield","State":"CA","Zip":"93301"},{"Location":"BRIMSTONE & PRAIRIE FIRE","Address":"1702 18th St","City":"Bakersfield","State":"CA","Zip":"93301"},{"Location":"CENTRAL VALLEY SURGERY","Address":"2725 16th St","City":"Bakersfield","State":"CA","Zip":"93301"},{"Location":"COFFEE SURGERY CENTER","Address":"2525 Eye St 100","City":"Bakersfield","State":"CA","Zip":"93301"},{"Location":"DANIEL V LAUNSPACH INC","Address":"3811 San Dimas St","City":"Bakersfield","State":"CA","Zip":"93301"},{"Location":"DARLING AND WILSON","Address":"1626 19th St","City":"Bakersfield","State":"CA","Zip":"93301"},{"Location":"FIRESTONE #011037","Address":"2331 Chester Ave","City":"Bakersfield","State":"CA","Zip":"93301"},{"Location":"GLOBE LOAN JEWELRY CO","Address":"1130 19th St","City":"Bakersfield","State":"CA","Zip":"93301"},{"Location":"GOOSE LOONIES CAFE","Address":"816 18th St","City":"Bakersfield","State":"CA","Zip":"93301"},{"Location":"GREEN R U S COLLECTIVE","Address":"425 19th St","City":"Bakersfield","State":"CA","Zip":"93301"},{"Location":"HALL AMBULANCE SERVICES","Address":"1001 21st St","City":"Bakersfield","State":"CA","Zip":"93301"},{"Location":"HANOVER HOLDINGS","Address":"301 Espee St B","City":"Bakersfield","State":"CA","Zip":"93301"},{"Location":"HOMELAND SEC INVESTIGATIONS","Address":"800 Truxtun Ave","City":"Bakersfield","State":"CA","Zip":"93301"},{"Location":"ITECHNOLOGY","Address":"1420 19th St B","City":"Bakersfield","State":"CA","Zip":"93301"},{"Location":"JIM BURKE FORD","Address":"2001 Oak St","City":"Bakersfield","State":"CA","Zip":"93301"},{"Location":"JOHNS BURGERS","Address":"3019 F St","City":"Bakersfield","State":"CA","Zip":"93301"},{"Location":"KAISER PERMANENTE MEDICAL GROU","Address":"3101 16th St 101","City":"Bakersfield","State":"CA","Zip":"93301"},{"Location":"KERN ENDODONTICS","Address":"1900 Truxtun Ave","City":"Bakersfield","State":"CA","Zip":"93301"},{"Location":"LIGHTSPEED GYM","Address":"1801 19th St","City":"Bakersfield","State":"CA","Zip":"93301"},{"Location":"MARTINS MEATS","Address":"801 21st St","City":"Bakersfield","State":"CA","Zip":"93301"},{"Location":"MINT BAR","Address":"1207 19th St","City":"Bakersfield","State":"CA","Zip":"93301"},{"Location":"MPWA INC","Address":"1675 Chester Ave 190","City":"Bakersfield","State":"CA","Zip":"93301"},{"Location":"O JAPANESE RESTAURANT","Address":"1419 19th St","City":"Bakersfield","State":"CA","Zip":"93301"},{"Location":"OELLEKEN ALAN MD","Address":"2725 16th St 2","City":"Bakersfield","State":"CA","Zip":"93301"},{"Location":"ON THE ROCKS","Address":"1517 18th St","City":"Bakersfield","State":"CA","Zip":"93301"},{"Location":"PACIFIC GAS AND ELECTRIC COMPA","Address":"1918 H St","City":"Bakersfield","State":"CA","Zip":"93301"},{"Location":"PHILIP CHANG","Address":"1818 L St","City":"Bakersfield","State":"CA","Zip":"93301"},{"Location":"PPMM","Address":"2633 16th St","City":"Bakersfield","State":"CA","Zip":"93301"},{"Location":"REPUBLIC BAR & LOUNGE","Address":"1919 K St","City":"Bakersfield","State":"CA","Zip":"93301"},{"Location":"RICE BOWL COCKTAIL LOUNG","Address":"1119 18th St","City":"Bakersfield","State":"CA","Zip":"93301"},{"Location":"RILEYS TAVERN","Address":"1523 19th St","City":"Bakersfield","State":"CA","Zip":"93301"},{"Location":"RUPPEL MARKETING INC","Address":"1911 17th St","City":"Bakersfield","State":"CA","Zip":"93301"},{"Location":"SAN JOAQUIN VALLEY PULMONARY","Address":"3551 Q St 100","City":"Bakersfield","State":"CA","Zip":"93301"},{"Location":"SANDRINI'S RESTAURANT","Address":"1918 1%2F2 Eye St","City":"Bakersfield","State":"CA","Zip":"93301"},{"Location":"SHIVA ENTERPRISES","Address":"601 24th St","City":"Bakersfield","State":"CA","Zip":"93301"},{"Location":"STATE FARM INSURANCE","Address":"1811 Oak St","City":"Bakersfield","State":"CA","Zip":"93301"},{"Location":"THE BAKERSFIELD CALIFORNIAN","Address":"1707 Eye St","City":"Bakersfield","State":"CA","Zip":"93301"},{"Location":"THE GENTLEMAN","Address":"1420 17th Pl","City":"Bakersfield","State":"CA","Zip":"93301"},{"Location":"THE MARK","Address":"1623 19th St","City":"Bakersfield","State":"CA","Zip":"93301"},{"Location":"THOMAS MESTMAKER","Address":"1712 K St","City":"Bakersfield","State":"CA","Zip":"93301"},{"Location":"US MARSHALS","Address":"510 19th St","City":"Bakersfield","State":"CA","Zip":"93301"},{"Location":"WEBSTER INTERIORS","Address":"921 19th St","City":"Bakersfield","State":"CA","Zip":"93301"},{"Location":"WHOS BAD SALON","Address":"615 Chester Ave","City":"Bakersfield","State":"CA","Zip":"93301"},{"Location":"YAKDAN ALQAISI MD","Address":"4040 San Dimas St","City":"Bakersfield","State":"CA","Zip":"93301"}]