[{"Location":"ACTION RESPONSE TEAM","Address":"614 Kentucky St","City":"Bakersfield","State":"CA","Zip":"93305"},{"Location":"AMESTOYS BAR","Address":"2303 River Blvd","City":"Bakersfield","State":"CA","Zip":"93305"},{"Location":"ASTROLOGA Y CONSEJERA","Address":"2105 Edison Hwy","City":"Bakersfield","State":"CA","Zip":"93305"},{"Location":"BAKER ST TATOO STUDIOS","Address":"805 Baker St","City":"Bakersfield","State":"CA","Zip":"93305"},{"Location":"BAKERSFIELD LIGHTING","Address":"1519 E 19th St","City":"Bakersfield","State":"CA","Zip":"93305"},{"Location":"BAKO WINGS LLC NILE ST","Address":"1837 Niles St","City":"Bakersfield","State":"CA","Zip":"93305"},{"Location":"BOBS AUTO GLASS","Address":"600 E 19th St","City":"Bakersfield","State":"CA","Zip":"93305"},{"Location":"CORINTHIAN GARDENS","Address":"1611 Height St 212c","City":"Bakersfield","State":"CA","Zip":"93305"},{"Location":"EL PIROLES","Address":"903 Baker St","City":"Bakersfield","State":"CA","Zip":"93305"},{"Location":"EL RANCHITO RESTAURANT","Address":"2105 Edison Hwy","City":"Bakersfield","State":"CA","Zip":"93305"},{"Location":"FERGUSON #0609","Address":"1845 Edison Hwy","City":"Bakersfield","State":"CA","Zip":"93305"},{"Location":"GC LOUNGE","Address":"1721 Columbus St","City":"Bakersfield","State":"CA","Zip":"93305"},{"Location":"GREEN EARTH REMEDIES INC","Address":"2421 Haley St 11","City":"Bakersfield","State":"CA","Zip":"93305"},{"Location":"ITZULI NAIZ  LLC","Address":"601 Sumner St","City":"Bakersfield","State":"CA","Zip":"93305"},{"Location":"KINGDOM AIR INC.","Address":"512 Butte St","City":"Bakersfield","State":"CA","Zip":"93305"},{"Location":"LA COSTA DEL SOL","Address":"615 E 18th St","City":"Bakersfield","State":"CA","Zip":"93305"},{"Location":"LOS HERMANOS UNION","Address":"3501 Union Ave","City":"Bakersfield","State":"CA","Zip":"93305"},{"Location":"MCMURPHYS IRISH PUB","Address":"14 Monterey St","City":"Bakersfield","State":"CA","Zip":"93305"},{"Location":"MUSEEDS DISCOUNT AND TOBACCO","Address":"830 Baker St","City":"Bakersfield","State":"CA","Zip":"93305"},{"Location":"NANOS BARBER SHOP","Address":"208 Baker St","City":"Bakersfield","State":"CA","Zip":"93305"},{"Location":"NARDUCCI CAFFE","Address":"622 E 21st St","City":"Bakersfield","State":"CA","Zip":"93305"},{"Location":"OUR LADY OF PERPETUAL HELP","Address":"124 Columbus St","City":"Bakersfield","State":"CA","Zip":"93305"},{"Location":"ROBO PLUMBING","Address":"406 E 18th St","City":"Bakersfield","State":"CA","Zip":"93305"},{"Location":"ROGER VARNER LTD","Address":"1239a Washington St","City":"Bakersfield","State":"CA","Zip":"93305"},{"Location":"SALAZARS BARBER SHOP","Address":"900 Niles St","City":"Bakersfield","State":"CA","Zip":"93305"},{"Location":"SPARKLEAN LAUNDRY","Address":"1135 Columbus St","City":"Bakersfield","State":"CA","Zip":"93305"},{"Location":"THE HEALTH FARM","Address":"319 E 19th St","City":"Bakersfield","State":"CA","Zip":"93305"}]