[{"Location":"CALIFORNIA HWY PATROL","Address":"29449 Stockdale Hewy","City":"Bakerfield","State":"CA","Zip":"93314"},{"Location":"AMERICAN KIDS SPORTS CTR","Address":"3622 Allen Rd","City":"Bakersfield","State":"CA","Zip":"93314"},{"Location":"AMERICAN OIL SERVICING INC","Address":"7463 Surperior Rd","City":"Bakersfield","State":"CA","Zip":"93314"},{"Location":"APSG WHOLESALE","Address":"21037 Burgess Ct","City":"Bakersfield","State":"CA","Zip":"93314"},{"Location":"B & L TRAILER RENTALS","Address":"21054 Kratzmeyer Rd","City":"Bakersfield","State":"CA","Zip":"93314"},{"Location":"B & L TRAILER RENTALS #1","Address":"21054 Kratzmeyer Rd","City":"Bakersfield","State":"CA","Zip":"93314"},{"Location":"B & L TRAILER RENTALS #2","Address":"21054 Kratzmeyer Rd","City":"Bakersfield","State":"CA","Zip":"93314"},{"Location":"B & L TRAILERS","Address":"21054 Kratzmeyer Rd","City":"Bakersfield","State":"CA","Zip":"93314"},{"Location":"CAL LOWBED","Address":"4650 Rosedale Ln","City":"Bakersfield","State":"CA","Zip":"93314"},{"Location":"CATALDOS RIVERWALK","Address":"13001 Stockdale Hwy","City":"Bakersfield","State":"CA","Zip":"93314"},{"Location":"EL PATIO GRILL","Address":"13001 Stockdale Hwy","City":"Bakersfield","State":"CA","Zip":"93314"},{"Location":"MC DONALDS","Address":"13003 Rosedale Hwy","City":"Bakersfield","State":"CA","Zip":"93314"},{"Location":"PIZZA HUT #029365","Address":"13043 Stockdale Hwy","City":"Bakersfield","State":"CA","Zip":"93314"},{"Location":"SAM'S RESTAURANT BAR MEXICAN","Address":"4236 Cannon St","City":"Bakersfield","State":"CA","Zip":"93314"},{"Location":"US IRRIGATION","Address":"3876 Allen Rd","City":"Bakersfield","State":"CA","Zip":"93314"}]