[{"Location":"ALFA ROMEL AND FIAT","Address":"2900 Cattle Dr","City":"Bakersfield","State":"CA","Zip":"93313"},{"Location":"AMERICAN TIRE DEPOT","Address":"4860 Stine Rd","City":"Bakersfield","State":"CA","Zip":"93313"},{"Location":"ANHEUSER-BUSCH WHLSLR #50410","Address":"5200 District Blvd","City":"Bakersfield","State":"CA","Zip":"93313"},{"Location":"APEX INTERGRATORS INC","Address":"5441 Aldrin Ct Sted","City":"Bakersfield","State":"CA","Zip":"93313"},{"Location":"ARREDONDO VENTURES INC","Address":"5101 Stine Rd","City":"Bakersfield","State":"CA","Zip":"93313"},{"Location":"BAKERSFIELD CHRYSLER","Address":"3101 Cattle Dr","City":"Bakersfield","State":"CA","Zip":"93313"},{"Location":"BAKERSFIELD HYUNDAI","Address":"5300 Wible Rd","City":"Bakersfield","State":"CA","Zip":"93313"},{"Location":"BAKERSFIELD RV RESORT","Address":"5025 Wible Rd","City":"Bakersfield","State":"CA","Zip":"93313"},{"Location":"BAKERSVILLE CABINET & WO","Address":"5100 Woodmere Dr","City":"Bakersfield","State":"CA","Zip":"93313"},{"Location":"BAKO WINGS  LLC PANAMA","Address":"4725 Panama Ln","City":"Bakersfield","State":"CA","Zip":"93313"},{"Location":"BARBER HONDA","Address":"4500 Wible Rd","City":"Bakersfield","State":"CA","Zip":"93313"},{"Location":"BILL WRIGHT TOYOTA","Address":"5100 Gasoline Alley Dr","City":"Bakersfield","State":"CA","Zip":"93313"},{"Location":"BMW - BAKERSFIELD","Address":"5400 Gasoline Alley Dr","City":"Bakersfield","State":"CA","Zip":"93313"},{"Location":"BMW OF BAKERSFIELD","Address":"5400 Gasoline Alley Dr","City":"Bakersfield","State":"CA","Zip":"93313"},{"Location":"BUFFALO WILD WINGS #3527","Address":"5677 Gosford Rd","City":"Bakersfield","State":"CA","Zip":"93313"},{"Location":"CARROLLS TIRE WAREHOUSE INC","Address":"4751 Wible Rd","City":"Bakersfield","State":"CA","Zip":"93313"},{"Location":"CHILI'S #1553","Address":"5443 Gosford Rd","City":"Bakersfield","State":"CA","Zip":"93313"},{"Location":"DISCOVERY CHURCH","Address":"7201 Schirra Ct Unitd","City":"Bakersfield","State":"CA","Zip":"93313"},{"Location":"DRUG ENFORCEMENT ADMIN","Address":"7400 Schirra Ct","City":"Bakersfield","State":"CA","Zip":"93313"},{"Location":"EL PATRON BAR AND GRILL","Address":"4803 Panama Ln","City":"Bakersfield","State":"CA","Zip":"93313"},{"Location":"EUROPEAN PERFORMANCE AUT","Address":"4205 Resnick Ct","City":"Bakersfield","State":"CA","Zip":"93313"},{"Location":"FERGUSON #1014","Address":"6300 District Blvd","City":"Bakersfield","State":"CA","Zip":"93313"},{"Location":"GET FADED","Address":"4004 Panama Ln 200","City":"Bakersfield","State":"CA","Zip":"93313"},{"Location":"GILLET TRUCKING","Address":"5503 Woodmere Dr","City":"Bakersfield","State":"CA","Zip":"93313"},{"Location":"GOOD SAMARITAN HOSP","Address":"5400 Aldrin Ct","City":"Bakersfield","State":"CA","Zip":"93313"},{"Location":"HADDAD DODGE","Address":"3000 Harris Rd","City":"Bakersfield","State":"CA","Zip":"93313"},{"Location":"HADDAD KIA","Address":"3000 Harris Rd","City":"Bakersfield","State":"CA","Zip":"93313"},{"Location":"HARVEST STEAK HOUSE","Address":"16020 Costajo Rd","City":"Bakersfield","State":"CA","Zip":"93313"},{"Location":"JIM BURKE LINCOLN","Address":"5300 Gasoline Alley Dr","City":"Bakersfield","State":"CA","Zip":"93313"},{"Location":"JOHNNY QUIK","Address":"2126 Taft Hwy","City":"Bakersfield","State":"CA","Zip":"93313"},{"Location":"LENGTHWISE BREWING COMPA","Address":"6720 Schirra Ct","City":"Bakersfield","State":"CA","Zip":"93313"},{"Location":"LES SCHWAB TIRE #563","Address":"6725 Panama Ln","City":"Bakersfield","State":"CA","Zip":"93313"},{"Location":"MAGOOS PIZZA","Address":"7900 District Blvd D-h","City":"Bakersfield","State":"CA","Zip":"93313"},{"Location":"MAZDA BAKERFIELDS","Address":"3201 Cattle Dr","City":"Bakersfield","State":"CA","Zip":"93313"},{"Location":"ME-N-EDS PIZZERIA DIV 98","Address":"4701 Panama Ln E1","City":"Bakersfield","State":"CA","Zip":"93313"},{"Location":"MEN'S WEARHOUSE #37870","Address":"5801 District Blvd","City":"Bakersfield","State":"CA","Zip":"93313"},{"Location":"MOTOR CITY","Address":"3101 Pacheco Rd","City":"Bakersfield","State":"CA","Zip":"93313"},{"Location":"MOTOR CITY LEXUS - SERVICE","Address":"5101 Gasoline Alley Dr","City":"Bakersfield","State":"CA","Zip":"93313"},{"Location":"MOTOR CITY LEXUS SALES","Address":"5101 Gasoline Alley Dr","City":"Bakersfield","State":"CA","Zip":"93313"},{"Location":"MOTOR CITY USED CARS","Address":"3001 Pacheco Rd","City":"Bakersfield","State":"CA","Zip":"93313"},{"Location":"MOUNTIAN MIKE'S PIZZA STORE261","Address":"5700 Stine Rd","City":"Bakersfield","State":"CA","Zip":"93313"},{"Location":"NISSAN OF BAKERFIELD","Address":"2800 Pacheco Rd","City":"Bakersfield","State":"CA","Zip":"93313"},{"Location":"OIL FIELD SAFETY ANCHOR SERVIC","Address":"5221 Woodmere Dr","City":"Bakersfield","State":"CA","Zip":"93313"},{"Location":"PACIFIC DENTAL #263","Address":"5353 Gosford Rd 103","City":"Bakersfield","State":"CA","Zip":"93313"},{"Location":"PACIFIC GAS AND ELECTRIC","Address":"4101 Wible Rd","City":"Bakersfield","State":"CA","Zip":"93313"},{"Location":"PACIFIC GAS ELECTRIC","Address":"4101 Wible Rd","City":"Bakersfield","State":"CA","Zip":"93313"},{"Location":"PACIFIC GAS ELECTRIC 1","Address":"4101 Wible Rd","City":"Bakersfield","State":"CA","Zip":"93313"},{"Location":"PACIFIC PULMONARY","Address":"7500 District Blvd A","City":"Bakersfield","State":"CA","Zip":"93313"},{"Location":"POPEYES","Address":"2700 Panama Ln","City":"Bakersfield","State":"CA","Zip":"93313"},{"Location":"QUE PASA PANAMA","Address":"3100 Panama Ln","City":"Bakersfield","State":"CA","Zip":"93313"},{"Location":"RED ZONE SPORTS BAR GRILL 1","Address":"3515 Panama Ln 350","City":"Bakersfield","State":"CA","Zip":"93313"},{"Location":"RIDGEVIEW COMMUNITY CHURCH","Address":"8420 Stine Rd","City":"Bakersfield","State":"CA","Zip":"93313"},{"Location":"ROBERT HEELY CONSTRUCTION INC","Address":"5401 Woodmere Dr","City":"Bakersfield","State":"CA","Zip":"93313"},{"Location":"ROUND TABLE PIZZA","Address":"4200 Gosford Rd","City":"Bakersfield","State":"CA","Zip":"93313"},{"Location":"SANGERA AUTOMOTIVE","Address":"5600 Gasoline Alley Dr","City":"Bakersfield","State":"CA","Zip":"93313"},{"Location":"SCP INC","Address":"4601 Griffom St","City":"Bakersfield","State":"CA","Zip":"93313"},{"Location":"SPENCERS CAFE","Address":"7800 Mcnair Ln","City":"Bakersfield","State":"CA","Zip":"93313"},{"Location":"STANDARD PAC W VILLAGE","Address":"5123 Blue Brook Way","City":"Bakersfield","State":"CA","Zip":"93313"},{"Location":"STOCKDALE CERAMIC TILE","Address":"6301 District Blvd","City":"Bakersfield","State":"CA","Zip":"93313"},{"Location":"THE VILLAGE SPORTS BAR","Address":"4837 Panama Ln","City":"Bakersfield","State":"CA","Zip":"93313"},{"Location":"THREE WAY CHEVROLET","Address":"4501 Wible Rd","City":"Bakersfield","State":"CA","Zip":"93313"},{"Location":"TMC PEST MANAGEMENT INC","Address":"5010 Lisa Marie Ct","City":"Bakersfield","State":"CA","Zip":"93313"},{"Location":"TWSI","Address":"5501 Aldrin Ct E","City":"Bakersfield","State":"CA","Zip":"93313"},{"Location":"US COLD STORAGE","Address":"6501 District Blvd","City":"Bakersfield","State":"CA","Zip":"93313"},{"Location":"VAPERY SITTY","Address":"3401 Pacheco Rd L","City":"Bakersfield","State":"CA","Zip":"93313"},{"Location":"ALFA ROMEL AND FIAT","Address":"2900 Cattle Dr","City":"Bakersfield","State":"CA","Zip":"93313"},{"Location":"AMERICAN TIRE DEPOT","Address":"4860 Stine Rd","City":"Bakersfield","State":"CA","Zip":"93313"},{"Location":"ANHEUSER-BUSCH WHLSLR #50410","Address":"5200 District Blvd","City":"Bakersfield","State":"CA","Zip":"93313"},{"Location":"APEX INTERGRATORS INC","Address":"5441 Aldrin Ct Sted","City":"Bakersfield","State":"CA","Zip":"93313"},{"Location":"ARREDONDO VENTURES INC","Address":"5101 Stine Rd","City":"Bakersfield","State":"CA","Zip":"93313"},{"Location":"BAKERSFIELD CHRYSLER","Address":"3101 Cattle Dr","City":"Bakersfield","State":"CA","Zip":"93313"},{"Location":"BAKERSFIELD HYUNDAI","Address":"5300 Wible Rd","City":"Bakersfield","State":"CA","Zip":"93313"},{"Location":"BAKERSFIELD RV RESORT","Address":"5025 Wible Rd","City":"Bakersfield","State":"CA","Zip":"93313"},{"Location":"BAKERSVILLE CABINET & WO","Address":"5100 Woodmere Dr","City":"Bakersfield","State":"CA","Zip":"93313"},{"Location":"BAKO WINGS  LLC PANAMA","Address":"4725 Panama Ln","City":"Bakersfield","State":"CA","Zip":"93313"},{"Location":"BARBER HONDA","Address":"4500 Wible Rd","City":"Bakersfield","State":"CA","Zip":"93313"},{"Location":"BILL WRIGHT TOYOTA","Address":"5100 Gasoline Alley Dr","City":"Bakersfield","State":"CA","Zip":"93313"},{"Location":"BMW - BAKERSFIELD","Address":"5400 Gasoline Alley Dr","City":"Bakersfield","State":"CA","Zip":"93313"},{"Location":"BMW OF BAKERSFIELD","Address":"5400 Gasoline Alley Dr","City":"Bakersfield","State":"CA","Zip":"93313"},{"Location":"BUFFALO WILD WINGS #3527","Address":"5677 Gosford Rd","City":"Bakersfield","State":"CA","Zip":"93313"},{"Location":"CARROLLS TIRE WAREHOUSE INC","Address":"4751 Wible Rd","City":"Bakersfield","State":"CA","Zip":"93313"},{"Location":"CHILI'S #1553","Address":"5443 Gosford Rd","City":"Bakersfield","State":"CA","Zip":"93313"},{"Location":"DISCOVERY CHURCH","Address":"7201 Schirra Ct Unitd","City":"Bakersfield","State":"CA","Zip":"93313"},{"Location":"DRUG ENFORCEMENT ADMIN","Address":"7400 Schirra Ct","City":"Bakersfield","State":"CA","Zip":"93313"},{"Location":"EL PATRON BAR AND GRILL","Address":"4803 Panama Ln","City":"Bakersfield","State":"CA","Zip":"93313"},{"Location":"EUROPEAN PERFORMANCE AUT","Address":"4205 Resnick Ct","City":"Bakersfield","State":"CA","Zip":"93313"},{"Location":"FERGUSON #1014","Address":"6300 District Blvd","City":"Bakersfield","State":"CA","Zip":"93313"},{"Location":"GET FADED","Address":"4004 Panama Ln 200","City":"Bakersfield","State":"CA","Zip":"93313"},{"Location":"GILLET TRUCKING","Address":"5503 Woodmere Dr","City":"Bakersfield","State":"CA","Zip":"93313"},{"Location":"GOOD SAMARITAN HOSP","Address":"5400 Aldrin Ct","City":"Bakersfield","State":"CA","Zip":"93313"},{"Location":"HADDAD DODGE","Address":"3000 Harris Rd","City":"Bakersfield","State":"CA","Zip":"93313"},{"Location":"HADDAD KIA","Address":"3000 Harris Rd","City":"Bakersfield","State":"CA","Zip":"93313"},{"Location":"HARVEST STEAK HOUSE","Address":"16020 Costajo Rd","City":"Bakersfield","State":"CA","Zip":"93313"},{"Location":"JIM BURKE LINCOLN","Address":"5300 Gasoline Alley Dr","City":"Bakersfield","State":"CA","Zip":"93313"},{"Location":"JOHNNY QUIK","Address":"2126 Taft Hwy","City":"Bakersfield","State":"CA","Zip":"93313"},{"Location":"LENGTHWISE BREWING COMPA","Address":"6720 Schirra Ct","City":"Bakersfield","State":"CA","Zip":"93313"},{"Location":"LES SCHWAB TIRE 563","Address":"6725 Panama Ln","City":"Bakersfield","State":"CA","Zip":"93313"},{"Location":"MAGOOS PIZZA","Address":"7900 District Blvd D-h","City":"Bakersfield","State":"CA","Zip":"93313"},{"Location":"MAZDA BAKERFIELDS","Address":"3201 Cattle Dr","City":"Bakersfield","State":"CA","Zip":"93313"},{"Location":"ME-N-EDS PIZZERIA DIV 98","Address":"4701 Panama Ln E1","City":"Bakersfield","State":"CA","Zip":"93313"},{"Location":"MEN'S WEARHOUSE #37870","Address":"5801 District Blvd","City":"Bakersfield","State":"CA","Zip":"93313"},{"Location":"MOTOR CITY","Address":"3101 Pacheco Rd","City":"Bakersfield","State":"CA","Zip":"93313"},{"Location":"MOTOR CITY LEXUS - SERVICE","Address":"5101 Gasoline Alley Dr","City":"Bakersfield","State":"CA","Zip":"93313"},{"Location":"MOTOR CITY LEXUS SALES","Address":"5101 Gasoline Alley Dr","City":"Bakersfield","State":"CA","Zip":"93313"},{"Location":"MOTOR CITY USED CARS","Address":"3001 Pacheco Rd","City":"Bakersfield","State":"CA","Zip":"93313"},{"Location":"MOUNTIAN MIKE'S PIZZA STORE261","Address":"5700 Stine Rd","City":"Bakersfield","State":"CA","Zip":"93313"},{"Location":"NISSAN OF BAKERFIELD","Address":"2800 Pacheco Rd","City":"Bakersfield","State":"CA","Zip":"93313"},{"Location":"OIL FIELD SAFETY ANCHOR SERVIC","Address":"5221 Woodmere Dr","City":"Bakersfield","State":"CA","Zip":"93313"},{"Location":"PACIFIC DENTAL #263","Address":"5353 Gosford Rd 103","City":"Bakersfield","State":"CA","Zip":"93313"},{"Location":"PACIFIC GAS AND ELECTRIC","Address":"4101 Wible Rd","City":"Bakersfield","State":"CA","Zip":"93313"},{"Location":"PACIFIC GAS ELECTRIC","Address":"4101 Wible Rd","City":"Bakersfield","State":"CA","Zip":"93313"},{"Location":"PACIFIC GAS ELECTRIC 1","Address":"4101 Wible Rd","City":"Bakersfield","State":"CA","Zip":"93313"},{"Location":"PACIFIC PULMONARY","Address":"7500 District Blvd A","City":"Bakersfield","State":"CA","Zip":"93313"},{"Location":"POPEYES","Address":"2700 Panama Ln","City":"Bakersfield","State":"CA","Zip":"93313"},{"Location":"QUE PASA PANAMA","Address":"3100 Panama Ln","City":"Bakersfield","State":"CA","Zip":"93313"},{"Location":"RED ZONE SPORTS BAR GRILL 1","Address":"3515 Panama Ln 350","City":"Bakersfield","State":"CA","Zip":"93313"},{"Location":"RIDGEVIEW COMMUNITY CHURCH","Address":"8420 Stine Rd","City":"Bakersfield","State":"CA","Zip":"93313"},{"Location":"ROBERT HEELY CONSTRUCTION INC","Address":"5401 Woodmere Dr","City":"Bakersfield","State":"CA","Zip":"93313"},{"Location":"ROUND TABLE PIZZA","Address":"4200 Gosford Rd","City":"Bakersfield","State":"CA","Zip":"93313"},{"Location":"SANGERA AUTOMOTIVE","Address":"5600 Gasoline Alley Dr","City":"Bakersfield","State":"CA","Zip":"93313"},{"Location":"SCP INC","Address":"4601 Griffom St","City":"Bakersfield","State":"CA","Zip":"93313"},{"Location":"SPENCERS CAFE","Address":"7800 Mcnair Ln","City":"Bakersfield","State":"CA","Zip":"93313"},{"Location":"STANDARD PAC W VILLAGE","Address":"5123 Blue Brook Way","City":"Bakersfield","State":"CA","Zip":"93313"},{"Location":"STOCKDALE CERAMIC TILE","Address":"6301 District Blvd","City":"Bakersfield","State":"CA","Zip":"93313"},{"Location":"THE VILLAGE SPORTS BAR","Address":"4837 Panama Ln","City":"Bakersfield","State":"CA","Zip":"93313"},{"Location":"THREE WAY CHEVROLET","Address":"4501 Wible Rd","City":"Bakersfield","State":"CA","Zip":"93313"},{"Location":"TMC PEST MANAGEMENT INC","Address":"5010 Lisa Marie Ct","City":"Bakersfield","State":"CA","Zip":"93313"},{"Location":"TWSI","Address":"5501 Aldrin Ct E","City":"Bakersfield","State":"CA","Zip":"93313"},{"Location":"US COLD STORAGE","Address":"6501 District Blvd","City":"Bakersfield","State":"CA","Zip":"93313"},{"Location":"VAPERY SITTY","Address":"3401 Pacheco Rd L","City":"Bakersfield","State":"CA","Zip":"93313"}]