[{"Location":"ATHENAS GREEK CAFE","Address":"9612 Flushing Quail Rd 202","City":"Bakersfield","State":"CA","Zip":"93312"},{"Location":"ATLAS POOL CARE INC","Address":"12420 Jomani Dr A","City":"Bakersfield","State":"CA","Zip":"93312"},{"Location":"BAJA FRESH HAGEMAN","Address":"9660 Hageman Rd A","City":"Bakersfield","State":"CA","Zip":"93312"},{"Location":"BAKERSFIELD PEST CONTROL","Address":"12150 Rosedale Hwy","City":"Bakersfield","State":"CA","Zip":"93312"},{"Location":"CHILI'S #0742","Address":"8950 Rosedale Hwy","City":"Bakersfield","State":"CA","Zip":"93312"},{"Location":"CHUYS MESQUITE BROILER","Address":"8660 Rosedale Hwy","City":"Bakersfield","State":"CA","Zip":"93312"},{"Location":"CITY AND AUTO","Address":"9611 Rosevale Highway","City":"Bakersfield","State":"CA","Zip":"93312"},{"Location":"CODE 3 UNIFORMS","Address":"2681 Calloway Dr 118","City":"Bakersfield","State":"CA","Zip":"93312"},{"Location":"COLD STONE ROSEDALE","Address":"9160 Rosedale Hwy 300","City":"Bakersfield","State":"CA","Zip":"93312"},{"Location":"DAVITA #3820 BAKERSFIELD","Address":"8501 Brimhall Rd 500","City":"Bakersfield","State":"CA","Zip":"93312"},{"Location":"DEDICATED DENTAL","Address":"9600 Rosedale Hwy","City":"Bakersfield","State":"CA","Zip":"93312"},{"Location":"DICK'S SPORTING GOODS #697","Address":"9300 Rosedale Hwy","City":"Bakersfield","State":"CA","Zip":"93312"},{"Location":"DIVA NAILS & SPA","Address":"11000 Brimhall Rd D","City":"Bakersfield","State":"CA","Zip":"93312"},{"Location":"DON PERICO","Address":"9919 Hageman Rd 300","City":"Bakersfield","State":"CA","Zip":"93312"},{"Location":"EL PORTAL CANTINA","Address":"1100 Calloway Dr 300","City":"Bakersfield","State":"CA","Zip":"93312"},{"Location":"EUGENE PARKS QUE BALL","Address":"10525 Rosedale Hwy","City":"Bakersfield","State":"CA","Zip":"93312"},{"Location":"FITNESS 19 CA104","Address":"9620 Hageman Rd","City":"Bakersfield","State":"CA","Zip":"93312"},{"Location":"FOURTH AND GOAL INVESTMENTS","Address":"9500 Brimhall Rd 301","City":"Bakersfield","State":"CA","Zip":"93312"},{"Location":"GUTIERREZ","Address":"2701 Calloway Dr 408","City":"Bakersfield","State":"CA","Zip":"93312"},{"Location":"HAIR GALLERY","Address":"9600 Retail Dr 105","City":"Bakersfield","State":"CA","Zip":"93312"},{"Location":"HALL CRITICAL CARE","Address":"1858 Art St","City":"Bakersfield","State":"CA","Zip":"93312"},{"Location":"HERM BARBERSHOP 2","Address":"10725 Rosedale Hwy","City":"Bakersfield","State":"CA","Zip":"93312"},{"Location":"J&M BAR & GRILL","Address":"10801 Rosedale Hwy","City":"Bakersfield","State":"CA","Zip":"93312"},{"Location":"JACALITO GRILL","Address":"10618 Hageman Rd A4","City":"Bakersfield","State":"CA","Zip":"93312"},{"Location":"JACALITO GRILL 3","Address":"10606 Hageman Rd","City":"Bakersfield","State":"CA","Zip":"93312"},{"Location":"JIMANO'S PIZZERIA","Address":"9510 Hageman Rd A","City":"Bakersfield","State":"CA","Zip":"93312"},{"Location":"JLH CONTRUCTION","Address":"12428 Jomani Dr","City":"Bakersfield","State":"CA","Zip":"93312"},{"Location":"KANPAI","Address":"9500 Brimhall Rd 501","City":"Bakersfield","State":"CA","Zip":"93312"},{"Location":"KOHL'S #702","Address":"9400 Rosedale Hwy","City":"Bakersfield","State":"CA","Zip":"93312"},{"Location":"LONE OAK LOUNGE","Address":"10614 Rosedale Hwy","City":"Bakersfield","State":"CA","Zip":"93312"},{"Location":"LOS HERMANOS ROSEDALE","Address":"10050 Rosedale Hwy","City":"Bakersfield","State":"CA","Zip":"93312"},{"Location":"MACARONI GRILL #1286","Address":"8850 Rosedale Hwy","City":"Bakersfield","State":"CA","Zip":"93312"},{"Location":"MOUNTAIN MIKES PIZZA","Address":"11000 Brimhall Rd A","City":"Bakersfield","State":"CA","Zip":"93312"},{"Location":"PACIFIC DENTAL-RIVER LAKES","Address":"9510 Hageman Rd B","City":"Bakersfield","State":"CA","Zip":"93312"},{"Location":"POLO VILLAS PARTNERS LLC","Address":"4201 Jewetta Ave","City":"Bakersfield","State":"CA","Zip":"93312"},{"Location":"POPEYES","Address":"9606 Rosedale Hwy","City":"Bakersfield","State":"CA","Zip":"93312"},{"Location":"PRIME CUT BAKERSFIELD INC","Address":"9500 Brimhall Rd 100","City":"Bakersfield","State":"CA","Zip":"93312"},{"Location":"QUICK ONE CHINESE CUISINE","Address":"9440 Hageman Rd B","City":"Bakersfield","State":"CA","Zip":"93312"},{"Location":"RED LOBSTER #6289","Address":"8180 Rosedale Hwy","City":"Bakersfield","State":"CA","Zip":"93312"},{"Location":"RED STONE PIZZA AND","Address":"9901 Hageman Rd 100","City":"Bakersfield","State":"CA","Zip":"93312"},{"Location":"RIVERLAKES RANCH","Address":"5201 Riverlakes Dr","City":"Bakersfield","State":"CA","Zip":"93312"},{"Location":"RJ'S %40 RIVERLAKES","Address":"9440 Hageman Rd C","City":"Bakersfield","State":"CA","Zip":"93312"},{"Location":"ROADHOUSE GRILL","Address":"8490 Rosedale Hwy","City":"Bakersfield","State":"CA","Zip":"93312"},{"Location":"ROGER'S JEWELERS","Address":"9500 Rosedale Hwy","City":"Bakersfield","State":"CA","Zip":"93312"},{"Location":"SAILS LOS ANGELES","Address":"11611 San Miniato Ave","City":"Bakersfield","State":"CA","Zip":"93312"},{"Location":"SENOR PEPE","Address":"8450 Granite Falls Dr","City":"Bakersfield","State":"CA","Zip":"93312"},{"Location":"SLICE OF ITALY","Address":"10524 Hageman Rd C1","City":"Bakersfield","State":"CA","Zip":"93312"},{"Location":"SPENCERS RESTAURANT","Address":"10437 Rosedale Hwy","City":"Bakersfield","State":"CA","Zip":"93312"},{"Location":"SPORT CLIPS CA770","Address":"9660 Hageman Rd C","City":"Bakersfield","State":"CA","Zip":"93312"},{"Location":"T WORLD","Address":"2765 Calloway Dr 110","City":"Bakersfield","State":"CA","Zip":"93312"},{"Location":"THE ELIXER CAFE","Address":"500 Calloway Dr  #b","City":"Bakersfield","State":"CA","Zip":"93312"},{"Location":"TIRE AND WHEEL OF ROSEDALE","Address":"10411 Rosedale Hwy","City":"Bakersfield","State":"CA","Zip":"93312"},{"Location":"TIRE EMPIRE","Address":"9017 Rosedale Hwy","City":"Bakersfield","State":"CA","Zip":"93312"},{"Location":"TOMMY GUNS PIZZA CO","Address":"11206 Olive Dr 106","City":"Bakersfield","State":"CA","Zip":"93312"},{"Location":"WHISKEY BARREL SALOON","Address":"2816 Calloway Dr 101","City":"Bakersfield","State":"CA","Zip":"93312"}]