[{"Location":"APPLEBEE'S BAKERSFIELD 2111028","Address":"9000 Ming Ave M","City":"Bakersfield","State":"CA","Zip":"93311"},{"Location":"ARAMARK","Address":"8901 Stockdale Hwy A","City":"Bakersfield","State":"CA","Zip":"93311"},{"Location":"AT THE OAKS PET HOSPITAL","Address":"9887 Camino Media","City":"Bakersfield","State":"CA","Zip":"93311"},{"Location":"BAJA FRESH-MING","Address":"9000 Ming Ave O2","City":"Bakersfield","State":"CA","Zip":"93311"},{"Location":"BAKO WINGS  LLC MING","Address":"9000 Ming Ave E5","City":"Bakersfield","State":"CA","Zip":"93311"},{"Location":"BASHAAR NAJDAWI","Address":"8803 Camino Media","City":"Bakersfield","State":"CA","Zip":"93311"},{"Location":"BJ'S RESTAURANT #458","Address":"10750 Stockdale Hwy","City":"Bakersfield","State":"CA","Zip":"93311"},{"Location":"CALIFORNIA STATE UNIVERSITY","Address":"9001 Stockdale Hwy","City":"Bakersfield","State":"CA","Zip":"93311"},{"Location":"COLD STONE MING","Address":"9000 Ming Ave H2","City":"Bakersfield","State":"CA","Zip":"93311"},{"Location":"EAKINS DRIVE LLC","Address":"8516 Eakins Dr","City":"Bakersfield","State":"CA","Zip":"93311"},{"Location":"ELEPHANT BAR BAKERSFIELD","Address":"10100 Stockdale Hwy","City":"Bakersfield","State":"CA","Zip":"93311"},{"Location":"EUREKA BURGER BAKERSFIELD","Address":"10520 Stockdale Hwy","City":"Bakersfield","State":"CA","Zip":"93311"},{"Location":"FLYING TIGERS FARMS","Address":"8851 Buena Vista Rd","City":"Bakersfield","State":"CA","Zip":"93311"},{"Location":"IN SHAPE 179 VILLAGE","Address":"11350 Ming Ave","City":"Bakersfield","State":"CA","Zip":"93311"},{"Location":"JERSEY MIKES SUBS","Address":"11350 Ming Ave 200","City":"Bakersfield","State":"CA","Zip":"93311"},{"Location":"JOHNNY GARLICS","Address":"9000 Ming Ave J2","City":"Bakersfield","State":"CA","Zip":"93311"},{"Location":"JOHNNY ROCKETS","Address":"9000 Ming Ave H1","City":"Bakersfield","State":"CA","Zip":"93311"},{"Location":"KEVIN BERGER","Address":"9631 Taft Hwy","City":"Bakersfield","State":"CA","Zip":"93311"},{"Location":"LENGTHWISE BREWING C","Address":"9000 Ming Ave T1","City":"Bakersfield","State":"CA","Zip":"93311"},{"Location":"LOS HERMANOS STOCKDALE","Address":"8200 Stockdale Hwy","City":"Bakersfield","State":"CA","Zip":"93311"},{"Location":"MCDONALDS","Address":"11150 Stockdale Hwy","City":"Bakersfield","State":"CA","Zip":"93311"},{"Location":"ME-N-EDS PIZZERIA- DIV77","Address":"9000 Ming Ave F1","City":"Bakersfield","State":"CA","Zip":"93311"},{"Location":"PACIFIC DENTAL #271","Address":"11120 Stockdale Highwa #103","City":"Bakersfield","State":"CA","Zip":"93311"},{"Location":"PRECISION PHARMACY","Address":"5301 Young St","City":"Bakersfield","State":"CA","Zip":"93311"},{"Location":"SPORT CLIPS CA771","Address":"11320 Ming Ave 320","City":"Bakersfield","State":"CA","Zip":"93311"},{"Location":"STANDARD PACIFIC WINDWOOD","Address":"10216 Sirretta Peak Pl","City":"Bakersfield","State":"CA","Zip":"93311"},{"Location":"STATE FARM INSURANCE","Address":"900 Old River Rd","City":"Bakersfield","State":"CA","Zip":"93311"},{"Location":"SUMMER BREEZE YOUTH HOME","Address":"9604 Valley Forest Ct","City":"Bakersfield","State":"CA","Zip":"93311"},{"Location":"TORO FUSION GRILL","Address":"9000 Ming Ave T4","City":"Bakersfield","State":"CA","Zip":"93311"},{"Location":"UBS","Address":"9201 Camino Media 230","City":"Bakersfield","State":"CA","Zip":"93311"},{"Location":"VENTURE DNA","Address":"9917 Vertrice Ave","City":"Bakersfield","State":"CA","Zip":"93311"},{"Location":"VERIZON WIRELESS","Address":"5508 Young St","City":"Bakersfield","State":"CA","Zip":"93311"}]