[{"Location":"AISURU","Address":"1023 Monterey St","City":"San Luis Obispo","State":"CA","Zip":"93401"},{"Location":"ARSENAL EQUIPMENT RENTALS LLC","Address":"1251 Prospect St","City":"San Luis Obispo","State":"CA","Zip":"93401"},{"Location":"ATTALA LAW","Address":"1502 Higuera St","City":"San Luis Obispo","State":"CA","Zip":"93401"},{"Location":"BIDDLE RANCH VINEYARDS","Address":"2060 Biddle Ranch Rd","City":"San Luis Obispo","State":"CA","Zip":"93401"},{"Location":"BLACK SHEEP BAR AND GRILL","Address":"1117 Chorro St","City":"San Luis Obispo","State":"CA","Zip":"93401"},{"Location":"BUFFALO PUB AND GRILL","Address":"717 Higuera St","City":"San Luis Obispo","State":"CA","Zip":"93401"},{"Location":"BULLS TAVERN","Address":"1040 Chorro St","City":"San Luis Obispo","State":"CA","Zip":"93401"},{"Location":"CALIFORNIA CITRUS SELECT","Address":"1150 Osos St 100","City":"San Luis Obispo","State":"CA","Zip":"93401"},{"Location":"CALIFORNIA CONSERVATION CORPS","Address":"Hwy 1 Bldg 1544","City":"San Luis Obispo","State":"CA","Zip":"93401"},{"Location":"CENTRAL COAST BREWING","Address":"1422 Monterey St B100","City":"San Luis Obispo","State":"CA","Zip":"93401"},{"Location":"CHARLES SCHWAB & COMPANY #181","Address":"733 Marsh St 100","City":"San Luis Obispo","State":"CA","Zip":"93401"},{"Location":"COAST EQUITY INC","Address":"1351 Monterey St","City":"San Luis Obispo","State":"CA","Zip":"93401"},{"Location":"CREEKSIDE MHP CLUBHOUSE","Address":"3960 S Higuera St","City":"San Luis Obispo","State":"CA","Zip":"93401"},{"Location":"CREEKY CORP","Address":"782 Higuera St","City":"San Luis Obispo","State":"CA","Zip":"93401"},{"Location":"CROSS ROADS LIQUERS","Address":"3211 Broad St 101","City":"San Luis Obispo","State":"CA","Zip":"93401"},{"Location":"CV COMMERCIAL","Address":"1326 Chorro St","City":"San Luis Obispo","State":"CA","Zip":"93401"},{"Location":"DAVITA #5601 SAN LUIS OBISPO","Address":"1043 Marsh St","City":"San Luis Obispo","State":"CA","Zip":"93401"},{"Location":"DEPARTMENT OF TRANSPORTA","Address":"50 Higuera St","City":"San Luis Obispo","State":"CA","Zip":"93401"},{"Location":"DYERS DISEL RV","Address":"255 Tank Farm Rd","City":"San Luis Obispo","State":"CA","Zip":"93401"},{"Location":"ELKS 322","Address":"222 Elks Ln","City":"San Luis Obispo","State":"CA","Zip":"93401"},{"Location":"END OF THE LINE","Address":"1150 Laurel Ln 160","City":"San Luis Obispo","State":"CA","Zip":"93401"},{"Location":"EQUILIBRIUM","Address":"3930 Broad St","City":"San Luis Obispo","State":"CA","Zip":"93401"},{"Location":"ERNIE BALL COMPANY","Address":"4117 Earthwood Ln","City":"San Luis Obispo","State":"CA","Zip":"93401"},{"Location":"ESTRADAS GYM","Address":"261 Pismo St","City":"San Luis Obispo","State":"CA","Zip":"93401"},{"Location":"EUREKA BURGER- SLO","Address":"1141 Chorro St","City":"San Luis Obispo","State":"CA","Zip":"93401"},{"Location":"EXPERTS EXCHANGE","Address":"2701 Mcmillan Ave A","City":"San Luis Obispo","State":"CA","Zip":"93401"},{"Location":"F. MCLINTOCKS","Address":"686 Higuera St","City":"San Luis Obispo","State":"CA","Zip":"93401"},{"Location":"FERGUSON #0632","Address":"4546 Broad St","City":"San Luis Obispo","State":"CA","Zip":"93401"},{"Location":"FIRESTONE GRILL","Address":"1001 Higuera St A","City":"San Luis Obispo","State":"CA","Zip":"93401"},{"Location":"FLANDERS BICYCLE","Address":"1951 Santa Barbara Ave D","City":"San Luis Obispo","State":"CA","Zip":"93401"},{"Location":"FOOD 4 LESS","Address":"3985 S Higuera St","City":"San Luis Obispo","State":"CA","Zip":"93401"},{"Location":"FRENCH HOSPITAL","Address":"1911 Johnson Ave 303","City":"San Luis Obispo","State":"CA","Zip":"93401"},{"Location":"GLENN BURDETTE INC","Address":"1150 Palm St","City":"San Luis Obispo","State":"CA","Zip":"93401"},{"Location":"GLENN NORRIS CPA","Address":"1310 Osos St","City":"San Luis Obispo","State":"CA","Zip":"93401"},{"Location":"GULFSTREAM FINANCIAL GROUP","Address":"1150 Osos St 208","City":"San Luis Obispo","State":"CA","Zip":"93401"},{"Location":"JACK HINDMARSH PLC","Address":"1065 Higuera St 300","City":"San Luis Obispo","State":"CA","Zip":"93401"},{"Location":"KRUSE INVESTMENT CO","Address":"4349 Old Santa Fe Rd B","City":"San Luis Obispo","State":"CA","Zip":"93401"},{"Location":"MARSTON'S","Address":"673 Higuera St","City":"San Luis Obispo","State":"CA","Zip":"93401"},{"Location":"MCCARTHYS IRISH PUB","Address":"600 Marsh St 200","City":"San Luis Obispo","State":"CA","Zip":"93401"},{"Location":"MIGHTY SAFE MINI STORAGE","Address":"2900 Mcmillan Ave","City":"San Luis Obispo","State":"CA","Zip":"93401"},{"Location":"MISSION STATION INC","Address":"328 Marsh St","City":"San Luis Obispo","State":"CA","Zip":"93401"},{"Location":"MO'S SMOKEHOUSE BBQ","Address":"1005 Monterey St","City":"San Luis Obispo","State":"CA","Zip":"93401"},{"Location":"MORGAN STANLEY 100212","Address":"755 Santa Rosa St","City":"San Luis Obispo","State":"CA","Zip":"93401"},{"Location":"MORRIS AND GARRITANO","Address":"1122 Laurel Ln","City":"San Luis Obispo","State":"CA","Zip":"93401"},{"Location":"MOTHERS TAVERN","Address":"725 Higuera St","City":"San Luis Obispo","State":"CA","Zip":"93401"},{"Location":"NOVO RESTURANT","Address":"726 Higuera St","City":"San Luis Obispo","State":"CA","Zip":"93401"},{"Location":"ONE WAY INDUSTRIAL SUPPLY","Address":"2705 Mcmillan Ave","City":"San Luis Obispo","State":"CA","Zip":"93401"},{"Location":"PACIFIC GAS AND ELECTRIC","Address":"1133 Kansas Ave","City":"San Luis Obispo","State":"CA","Zip":"93401"},{"Location":"PALAZZO GIUSEPPES","Address":"1010 Court St","City":"San Luis Obispo","State":"CA","Zip":"93401"},{"Location":"PALO MESA PIZZA","Address":"3536 S Higuera St 206","City":"San Luis Obispo","State":"CA","Zip":"93401"},{"Location":"PETRA 1","Address":"1210 Higuera St","City":"San Luis Obispo","State":"CA","Zip":"93401"},{"Location":"PG AND E","Address":"1250 Kendall Rd","City":"San Luis Obispo","State":"CA","Zip":"93401"},{"Location":"PG&E - SLO","Address":"4325 South Higueia St","City":"San Luis Obispo","State":"CA","Zip":"93401"},{"Location":"PHASE 2 CELLARS%2C LLC","Address":"5460 Edna Ranch Cir","City":"San Luis Obispo","State":"CA","Zip":"93401"},{"Location":"PIZZA SOLO","Address":"891 Higuera St","City":"San Luis Obispo","State":"CA","Zip":"93401"},{"Location":"PROTECTIVE WEATHER STRUCTURES","Address":"5290 Orcutt Rd","City":"San Luis Obispo","State":"CA","Zip":"93401"},{"Location":"QUAGLINOS FLOORING","Address":"2015 Santa Barbara Ave","City":"San Luis Obispo","State":"CA","Zip":"93401"},{"Location":"QUE PASA MEXICAN CAFE","Address":"1009 Monterey St","City":"San Luis Obispo","State":"CA","Zip":"93401"},{"Location":"R E WACKER ASSC","Address":"973 Higuera St","City":"San Luis Obispo","State":"CA","Zip":"93401"},{"Location":"REV SLO FITNESS LLC","Address":"755 Alphonso St","City":"San Luis Obispo","State":"CA","Zip":"93401"},{"Location":"ROSE & HENRY TAILORS","Address":"1357 Monterey St","City":"San Luis Obispo","State":"CA","Zip":"93401"},{"Location":"ROSETTA MARKETING GROUP","Address":"4800 Morabito Pl","City":"San Luis Obispo","State":"CA","Zip":"93401"},{"Location":"ROUND TABLE PIZZA","Address":"3971 S Higuera St","City":"San Luis Obispo","State":"CA","Zip":"93401"},{"Location":"SAN LUIS OBISPO VET CENTER","Address":"1070 Southwood Dr","City":"San Luis Obispo","State":"CA","Zip":"93401"},{"Location":"SLO BREWING COMPANY","Address":"1119 Garden St","City":"San Luis Obispo","State":"CA","Zip":"93401"},{"Location":"SPENCER MAKENZIES FISH COMPANY","Address":"1085 Higuera St","City":"San Luis Obispo","State":"CA","Zip":"93401"},{"Location":"SPIKE'S PUB","Address":"570 Higuera St","City":"San Luis Obispo","State":"CA","Zip":"93401"},{"Location":"SPORTS WHAREHOUSE","Address":"181 Suburban Rd","City":"San Luis Obispo","State":"CA","Zip":"93401"},{"Location":"STRAIGHT DOWN","Address":"625 Clarion Ct","City":"San Luis Obispo","State":"CA","Zip":"93401"},{"Location":"TAP IT BREWING COMPANY","Address":"675 Clarion Ct","City":"San Luis Obispo","State":"CA","Zip":"93401"},{"Location":"THE GRADUATE RESTAURANT","Address":"990 Industrial Way","City":"San Luis Obispo","State":"CA","Zip":"93401"},{"Location":"THE KILT PUB AND GRILL","Address":"1865 Monterey St","City":"San Luis Obispo","State":"CA","Zip":"93401"},{"Location":"THE NAKED FISH","Address":"857 Higuera St","City":"San Luis Obispo","State":"CA","Zip":"93401"},{"Location":"TOLOSA WINERY","Address":"4910 Edna Rd","City":"San Luis Obispo","State":"CA","Zip":"93401"},{"Location":"TS69282020000000XXAOXXSBPXTVXX","Address":"805 Aerovista Pl 205","City":"San Luis Obispo","State":"CA","Zip":"93401"},{"Location":"UNION BANK 066","Address":"1144 Morro St","City":"San Luis Obispo","State":"CA","Zip":"93401"},{"Location":"VERISTONE PRODUCTS","Address":"3428 Bullock Ln","City":"San Luis Obispo","State":"CA","Zip":"93401"},{"Location":"VIENI VAI TRATTORIA","Address":"690 Higuera St","City":"San Luis Obispo","State":"CA","Zip":"93401"},{"Location":"VILLA AUTOMOTIVE","Address":"34 South St","City":"San Luis Obispo","State":"CA","Zip":"93401"},{"Location":"WESTSIDE AUTO SUPPLY","Address":"56 Prado Rd","City":"San Luis Obispo","State":"CA","Zip":"93401"},{"Location":"WINE SHED","Address":"3590 Broad St 100","City":"San Luis Obispo","State":"CA","Zip":"93401"},{"Location":"WOODSTOCKS PIZZA","Address":"1000 Higuera St","City":"San Luis Obispo","State":"CA","Zip":"93401"}]