[{"Location":"ALADDIN BAIL BONDS","Address":"102 Santa Rosa St","City":"San Luis Obispo","State":"CA","Zip":"93405"},{"Location":"APPLEBEE'S #2108012","Address":"305 Madonna Rd","City":"San Luis Obispo","State":"CA","Zip":"93405"},{"Location":"AT&T","Address":"9401 Los Osos Valley Rd","City":"San Luis Obispo","State":"CA","Zip":"93405"},{"Location":"BUFFALO WILD WINGS #0509","Address":"309 Madonna Rd","City":"San Luis Obispo","State":"CA","Zip":"93405"},{"Location":"CCE GROUP LLC","Address":"1075 Olive St","City":"San Luis Obispo","State":"CA","Zip":"93405"},{"Location":"CENTRAL COAST PAIN MANAGMENT","Address":"10 Santa Rosa St 201","City":"San Luis Obispo","State":"CA","Zip":"93405"},{"Location":"CINCO DE MAYO","Address":"281 Santa Rosa St","City":"San Luis Obispo","State":"CA","Zip":"93405"},{"Location":"COAST BMW","Address":"12150 Los Osos Valley Rd","City":"San Luis Obispo","State":"CA","Zip":"93405"},{"Location":"CORK N BOTTLE","Address":"774 E Foothill Blvd","City":"San Luis Obispo","State":"CA","Zip":"93405"},{"Location":"COSTCO #741","Address":"1540 Froom Ranch Way","City":"San Luis Obispo","State":"CA","Zip":"93405"},{"Location":"COURTYARD  BY MARRIOT","Address":"1605 Calle Joaquin","City":"San Luis Obispo","State":"CA","Zip":"93405"},{"Location":"COWGIRL CAFE","Address":"1055 Olive St","City":"San Luis Obispo","State":"CA","Zip":"93405"},{"Location":"DAVITA #11113 CASA ST","Address":"35 Casa St 110","City":"San Luis Obispo","State":"CA","Zip":"93405"},{"Location":"DELTA CHI","Address":"1236 Monte Vista Pl","City":"San Luis Obispo","State":"CA","Zip":"93405"},{"Location":"DICK'S SPORTING GOOD #1010","Address":"11970 Los Osos Valley Rd","City":"San Luis Obispo","State":"CA","Zip":"93405"},{"Location":"EMBASSY SUITES","Address":"333 Madonna Rd","City":"San Luis Obispo","State":"CA","Zip":"93405"},{"Location":"ENERGY EDUCATION CENTER","Address":"6588 Onterio Rd","City":"San Luis Obispo","State":"CA","Zip":"93405"},{"Location":"FATTOUSH","Address":"5 Santa Rosa St","City":"San Luis Obispo","State":"CA","Zip":"93405"},{"Location":"G BROTHERS SMOKEHOUSE","Address":"885 E Foothill Blvd","City":"San Luis Obispo","State":"CA","Zip":"93405"},{"Location":"HAMPTON INN & SUITES SAN LUIS","Address":"1530 Calle Joaquin","City":"San Luis Obispo","State":"CA","Zip":"93405"},{"Location":"KOHL'S #1378","Address":"205 Madonna Rd","City":"San Luis Obispo","State":"CA","Zip":"93405"},{"Location":"KOKORO SUSHI AND GRILL","Address":"1065 Olive St","City":"San Luis Obispo","State":"CA","Zip":"93405"},{"Location":"LAGUNA BBQ & BREW","Address":"11560 Los Osos Valley Rd 110","City":"San Luis Obispo","State":"CA","Zip":"93405"},{"Location":"LEWIS","Address":"555 Chorro St D2","City":"San Luis Obispo","State":"CA","Zip":"93405"},{"Location":"MEN'S WEARHOUSE #2742","Address":"283 Madonna Rd C","City":"San Luis Obispo","State":"CA","Zip":"93405"},{"Location":"NUCCIS","Address":"785 Foothill Blvd","City":"San Luis Obispo","State":"CA","Zip":"93405"},{"Location":"OLIVE GARDEN #1888","Address":"11966 Los Osos Valley Rd","City":"San Luis Obispo","State":"CA","Zip":"93405"},{"Location":"PACIFIC GAS & ELECTRIC","Address":"1525 Kansas Ave","City":"San Luis Obispo","State":"CA","Zip":"93405"},{"Location":"PANCHO VILLAS","Address":"13 Santa Rosa St","City":"San Luis Obispo","State":"CA","Zip":"93405"},{"Location":"PERRY FORD LINCOLN MERC","Address":"12200 Los Osos Valley Rd","City":"San Luis Obispo","State":"CA","Zip":"93405"},{"Location":"RANCHO GRANDE MOTORS INC","Address":"1404 Auto Park Way","City":"San Luis Obispo","State":"CA","Zip":"93405"},{"Location":"RELAX THE BACK","Address":"445 Madonna Rd A","City":"San Luis Obispo","State":"CA","Zip":"93405"},{"Location":"SCOTTRADE 54O","Address":"285 Madonna Rd B","City":"San Luis Obispo","State":"CA","Zip":"93405"},{"Location":"SLO CHARLIES PLACE  LLC","Address":"981 E Foothill Blvd","City":"San Luis Obispo","State":"CA","Zip":"93405"},{"Location":"SLO COUNTY SHERIFF","Address":"880 Oklahoma Ave","City":"San Luis Obispo","State":"CA","Zip":"93405"},{"Location":"SPORTS AUTHORITY 765","Address":"243 Madonna Rd","City":"San Luis Obispo","State":"CA","Zip":"93405"},{"Location":"SUNNY ACRES INC","Address":"10660 Los Osos Valley Rd","City":"San Luis Obispo","State":"CA","Zip":"93405"},{"Location":"SUNSET HONDA","Address":"12250 Los Osos Valley Rd","City":"San Luis Obispo","State":"CA","Zip":"93405"},{"Location":"SUPERCUTS INC","Address":"253 Madonna Rd 130","City":"San Luis Obispo","State":"CA","Zip":"93405"},{"Location":"TACO ROCO","Address":"11560 Los Osos Valley Rd 130","City":"San Luis Obispo","State":"CA","Zip":"93405"},{"Location":"UPPER CRUST","Address":"11560 Los Osos Valley Rd 190","City":"San Luis Obispo","State":"CA","Zip":"93405"},{"Location":"VALENCIA APARTMENTS","Address":"555 Ramona Dr","City":"San Luis Obispo","State":"CA","Zip":"93405"},{"Location":"BROTHERS FOOD SERVICE LL","Address":"799 E Foothill Blvd A","City":"Sn Luis Obisp","State":"CA","Zip":"93405"}]