[{"Location":"BEACH HUT DELI SLO","Address":"1240 Los Osos Valley Rd","City":"Los Osos","State":"CA","Zip":"93402"},{"Location":"LOS OSOS FITNESS","Address":"1078 Los Osos Valley Rd","City":"Los Osos","State":"CA","Zip":"93402"},{"Location":"MERRY MAKER","Address":"1301 2nd St","City":"Los Osos","State":"CA","Zip":"93402"},{"Location":"NICHOLS PIZZA GRILL","Address":"1236 Los Osos Valley Rd A","City":"Los Osos","State":"CA","Zip":"93402"},{"Location":"OCEAN PACIFIC CHURCH","Address":"1805 11th St","City":"Los Osos","State":"CA","Zip":"93402"},{"Location":"OLD CREEK ALEHOUSE","Address":"690 Santa Maria Ave","City":"Los Osos","State":"CA","Zip":"93402"},{"Location":"PLAID LIZARD FOUNDATION","Address":"1249 13th St","City":"Los Osos","State":"CA","Zip":"93402"},{"Location":"RANTEC POWER SYSTEMS","Address":"1173 Los Olivos Ave","City":"Los Osos","State":"CA","Zip":"93402"},{"Location":"SWEET SPRING SALOON","Address":"990 Los Osos Valley Rd","City":"Los Osos","State":"CA","Zip":"93402"},{"Location":"SYLVESTERS BURGERS","Address":"1099 Santa Ynez Ave","City":"Los Osos","State":"CA","Zip":"93402"},{"Location":"THE CLUBHOUSE","Address":"250 Howard Ave","City":"Los Osos","State":"CA","Zip":"93402"},{"Location":"TOBACCO CASTLE","Address":"2179 10th St","City":"Los Osos","State":"CA","Zip":"93402"},{"Location":"VALLEY LIQUOR","Address":"2199 10th St","City":"Los Osos","State":"CA","Zip":"93402"},{"Location":"BEACH HUT DELI SLO","Address":"1240 Los Osos Valley Rd","City":"Los Osos","State":"CA","Zip":"93402"},{"Location":"LOS OSOS FITNESS","Address":"1078 Los Osos Valley Rd","City":"Los Osos","State":"CA","Zip":"93402"},{"Location":"MERRY MAKER","Address":"1301 2nd St","City":"Los Osos","State":"CA","Zip":"93402"},{"Location":"NICHOLS PIZZA GRILL","Address":"1236 Los Osos Valley Rd A","City":"Los Osos","State":"CA","Zip":"93402"},{"Location":"OCEAN PACIFIC CHURCH","Address":"1805 11th St","City":"Los Osos","State":"CA","Zip":"93402"},{"Location":"OLD CREEK ALEHOUSE","Address":"690 Santa Maria Ave","City":"Los Osos","State":"CA","Zip":"93402"},{"Location":"PLAID LIZARD FOUNDATION","Address":"1249 13th St","City":"Los Osos","State":"CA","Zip":"93402"},{"Location":"RANTEC POWER SYSTEMS","Address":"1173 Los Olivos Ave","City":"Los Osos","State":"CA","Zip":"93402"},{"Location":"SWEET SPRING SALOON","Address":"990 Los Osos Valley Rd","City":"Los Osos","State":"CA","Zip":"93402"},{"Location":"SYLVESTERS BURGERS","Address":"1099 Santa Ynez Ave","City":"Los Osos","State":"CA","Zip":"93402"},{"Location":"THE CLUBHOUSE","Address":"250 Howard Ave","City":"Los Osos","State":"CA","Zip":"93402"},{"Location":"TOBACCO CASTLE","Address":"2179 10th St","City":"Los Osos","State":"CA","Zip":"93402"},{"Location":"VALLEY LIQUOR","Address":"2199 10th St","City":"Los Osos","State":"CA","Zip":"93402"}]