[{"Location":"ASCENDANT SPIRITS","Address":"37 Industrial Way 102","City":"Buellton","State":"CA","Zip":"93427"},{"Location":"AVANT TOPAS AND WINE","Address":"35 Industrial Way","City":"Buellton","State":"CA","Zip":"93427"},{"Location":"CALIFORNIA HIGHWAY PATROL","Address":"166 Industrial Way","City":"Buellton","State":"CA","Zip":"93427"},{"Location":"FIGUEROA MOUNTAIN BREWING CO","Address":"45 Industrial Way","City":"Buellton","State":"CA","Zip":"93427"},{"Location":"FIRESTONE WALKER BREWING COMP","Address":"620 Mcmurray Rd","City":"Buellton","State":"CA","Zip":"93427"},{"Location":"JIM VREELAND AUTOMOTIVE","Address":"340 E Highway 246","City":"Buellton","State":"CA","Zip":"93427"},{"Location":"MI AMOR CAFE","Address":"234 E Highway 246 111","City":"Buellton","State":"CA","Zip":"93427"},{"Location":"MID COAST FIRE PROTECTION","Address":"84d Industrial Way","City":"Buellton","State":"CA","Zip":"93427"},{"Location":"SANTA YNEZ MARRIOTT","Address":"555 Mcmurray Rd","City":"Buellton","State":"CA","Zip":"93427"},{"Location":"SBRNET","Address":"94 Commerce Dr","City":"Buellton","State":"CA","Zip":"93427"},{"Location":"ULTIMATE NAILS","Address":"175 Mcmurray Rd 3","City":"Buellton","State":"CA","Zip":"93427"},{"Location":"WINNER CIRCLE LOUNGE","Address":"555 Mcmurray Rd","City":"Buellton","State":"CA","Zip":"93427"}]