[{"Location":"ALLOCCO'S ITALIAN BAKERY","Address":"1602 Main St","City":"Cambria","State":"CA","Zip":"93428"},{"Location":"CAMBRIA BEER COMPANY","Address":"821 Cornwall St","City":"Cambria","State":"CA","Zip":"93428"},{"Location":"CAMBRIA PINES LODGE","Address":"2905 Burton Dr","City":"Cambria","State":"CA","Zip":"93428"},{"Location":"CAMBRIA PUB & STEAKHOUSE","Address":"4090 Burton Dr 1","City":"Cambria","State":"CA","Zip":"93428"},{"Location":"EVANS AND GERST ANTIQUES","Address":"4111 Bridge St","City":"Cambria","State":"CA","Zip":"93428"},{"Location":"FOREVER WEMPLE LLC","Address":"2336 Main St B","City":"Cambria","State":"CA","Zip":"93428"},{"Location":"MAIN STREET GRILL","Address":"603 Main St","City":"Cambria","State":"CA","Zip":"93428"},{"Location":"MOZZIS SALOON","Address":"2262 Main St","City":"Cambria","State":"CA","Zip":"93428"},{"Location":"THE 9 IRON INN","Address":"6736 Moonstone Beach Dr","City":"Cambria","State":"CA","Zip":"93428"},{"Location":"WEST END BAR AND GRILL","Address":"774 Main St","City":"Cambria","State":"CA","Zip":"93428"}]