[{"Location":"AMERICAN LEGIONS 136","Address":"417 Orchard Ave","City":"Arroyo Grande","State":"CA","Zip":"93420"},{"Location":"ARROYO GRANDE LOS PADRES","Address":"460 Hi Mountain Rd","City":"Arroyo Grande","State":"CA","Zip":"93420"},{"Location":"BILL SENNAS INSURANCE","Address":"1404 E Grand Ave","City":"Arroyo Grande","State":"CA","Zip":"93420"},{"Location":"BILLS PLACE","Address":"112 E Branch St","City":"Arroyo Grande","State":"CA","Zip":"93420"},{"Location":"CASA ARROYO","Address":"425 S Elm St","City":"Arroyo Grande","State":"CA","Zip":"93420"},{"Location":"CHILI'S #1408","Address":"991 Rancho Pkwy","City":"Arroyo Grande","State":"CA","Zip":"93420"},{"Location":"CONOCOPHILLIPS","Address":"2555 Willow Rd","City":"Arroyo Grande","State":"CA","Zip":"93420"},{"Location":"CYPRESS RIDGE GOLF","Address":"1050 Cypress Ridge Pkwy","City":"Arroyo Grande","State":"CA","Zip":"93420"},{"Location":"DIVERSIFIED CAPITAL","Address":"1112 E Grand Ave","City":"Arroyo Grande","State":"CA","Zip":"93420"},{"Location":"F. MCLINTOCKS SALOON","Address":"133 Bridge St","City":"Arroyo Grande","State":"CA","Zip":"93420"},{"Location":"FITNESS 19 ARROYO GRANDE","Address":"908 Rancho Pkwy 100","City":"Arroyo Grande","State":"CA","Zip":"93420"},{"Location":"GOLDEN NAIL","Address":"904 Rancho Pkwy","City":"Arroyo Grande","State":"CA","Zip":"93420"},{"Location":"HAMPTON INN FITNESS","Address":"1400 W Branch St","City":"Arroyo Grande","State":"CA","Zip":"93420"},{"Location":"HAMPTON INN LOUNGE","Address":"1400 W Branch St","City":"Arroyo Grande","State":"CA","Zip":"93420"},{"Location":"HOLLAND AMERICAN FLOWERS","Address":"808 Albert Way","City":"Arroyo Grande","State":"CA","Zip":"93420"},{"Location":"JAFFA CAFE","Address":"206 E Branch St","City":"Arroyo Grande","State":"CA","Zip":"93420"},{"Location":"JERSEY MIKES","Address":"1540 E Grand Ave","City":"Arroyo Grande","State":"CA","Zip":"93420"},{"Location":"LAKE LOPEZ MARINA.","Address":"6820 Lopez Dr","City":"Arroyo Grande","State":"CA","Zip":"93420"},{"Location":"MASON BAR","Address":"307 E Branch St","City":"Arroyo Grande","State":"CA","Zip":"93420"},{"Location":"PALO MESA PIZZA","Address":"906 Rancho Pkwy","City":"Arroyo Grande","State":"CA","Zip":"93420"},{"Location":"ROOSTER CREEK","Address":"200 E Branch St","City":"Arroyo Grande","State":"CA","Zip":"93420"},{"Location":"ROUND TABLE PIZZA FOUR","Address":"1412 E Grand Ave","City":"Arroyo Grande","State":"CA","Zip":"93420"},{"Location":"SHIP SHAPE MOBILE RV","Address":"839 Rizal Ave","City":"Arroyo Grande","State":"CA","Zip":"93420"},{"Location":"STATION 22","Address":"2391 Willow Rd","City":"Arroyo Grande","State":"CA","Zip":"93420"},{"Location":"SUNRISE TERRACE CLUBHOUSE","Address":"345 Sunrise Terrace Drive","City":"Arroyo Grande","State":"CA","Zip":"93420"},{"Location":"THE BOSS CIGAR AND GIFTS","Address":"111 N Halcyon Rd","City":"Arroyo Grande","State":"CA","Zip":"93420"},{"Location":"THE GIRLS RESTAURANT","Address":"1237 E Grand Ave","City":"Arroyo Grande","State":"CA","Zip":"93420"},{"Location":"VCA SOUTH COUNTY HOSPITAL","Address":"205 El Camino Real","City":"Arroyo Grande","State":"CA","Zip":"93420"}]