[{"Location":"A TOWN DINER & DELI","Address":"7305 El Camino Real","City":"Atascadero","State":"CA","Zip":"93422"},{"Location":"A&W","Address":"6435 Morro Rd","City":"Atascadero","State":"CA","Zip":"93422"},{"Location":"ATASCADERO MOOSE LODGE","Address":"8507 El Camino Real","City":"Atascadero","State":"CA","Zip":"93422"},{"Location":"CAMOZZIS","Address":"5855 El Camino Real","City":"Atascadero","State":"CA","Zip":"93422"},{"Location":"CLUB SODA","Address":"8451 El Camino Real","City":"Atascadero","State":"CA","Zip":"93422"},{"Location":"COWGIRL CAFE","Address":"8300 El Camino Real","City":"Atascadero","State":"CA","Zip":"93422"},{"Location":"CRAZY SUSHI FEVER","Address":"8050 El Camino Real","City":"Atascadero","State":"CA","Zip":"93422"},{"Location":"CREEKSIDE DENTAL","Address":"8840 Morro Rd","City":"Atascadero","State":"CA","Zip":"93422"},{"Location":"DANS THE GRUB SHOP","Address":"4240 El Camino Real","City":"Atascadero","State":"CA","Zip":"93422"},{"Location":"EHINGER","Address":"6420 El Camino Real","City":"Atascadero","State":"CA","Zip":"93422"},{"Location":"FIRST ALLIED","Address":"8350 Morro Rd","City":"Atascadero","State":"CA","Zip":"93422"},{"Location":"FOOD 4 LESS","Address":"8360 El Camino Real","City":"Atascadero","State":"CA","Zip":"93422"},{"Location":"FURNITURE FACTORY CLOSEO","Address":"7440 El Camino Real","City":"Atascadero","State":"CA","Zip":"93422"},{"Location":"GARY BANG HARLEY DAVIDSON","Address":"7935 San Luis Ave","City":"Atascadero","State":"CA","Zip":"93422"},{"Location":"GIVE FITNESS","Address":"7175 El Camino Real","City":"Atascadero","State":"CA","Zip":"93422"},{"Location":"GRAHAM LOVEJOY","Address":"8420 El Camino Real B","City":"Atascadero","State":"CA","Zip":"93422"},{"Location":"GUEST HOUSE GRILL","Address":"8783 El Camino Real","City":"Atascadero","State":"CA","Zip":"93422"},{"Location":"K MART","Address":"3980 El Camino Real","City":"Atascadero","State":"CA","Zip":"93422"},{"Location":"LA MEXICANA","Address":"7495 El Camino Real","City":"Atascadero","State":"CA","Zip":"93422"},{"Location":"LARMEE","Address":"8408 El Camino Real K","City":"Atascadero","State":"CA","Zip":"93422"},{"Location":"MARINAS CONCINAS","Address":"9000 Morro Rd","City":"Atascadero","State":"CA","Zip":"93422"},{"Location":"NAIL 1ST AND SPA","Address":"7355 El Camino Real","City":"Atascadero","State":"CA","Zip":"93422"},{"Location":"NEUROTOPIA","Address":"5850 El Camino Real","City":"Atascadero","State":"CA","Zip":"93422"},{"Location":"QUE PASA MEX GRILL","Address":"6917 El Camino Real G","City":"Atascadero","State":"CA","Zip":"93422"},{"Location":"ROUND TABLE PIZZA","Address":"6915 El Camino Real","City":"Atascadero","State":"CA","Zip":"93422"},{"Location":"SOCAL PIZZA HUT - 31011","Address":"7055 El Camino Real","City":"Atascadero","State":"CA","Zip":"93422"},{"Location":"SYLVESTERS BURGERS","Address":"6455 El Camino Real","City":"Atascadero","State":"CA","Zip":"93422"},{"Location":"THE BARBER SHOP","Address":"4865 El Camino Real","City":"Atascadero","State":"CA","Zip":"93422"},{"Location":"UNION BANK 810","Address":"7199 El Camino Real","City":"Atascadero","State":"CA","Zip":"93422"},{"Location":"VFW POST2814","Address":"9555 Morro Rd","City":"Atascadero","State":"CA","Zip":"93422"},{"Location":"WOODYS OLDTIME BARBERSHO","Address":"5943 Traffic Way","City":"Atascadero","State":"CA","Zip":"93422"}]