[{"Location":"CENTRAL   COAST CASINO 2","Address":"359 W Grand Ave","City":"Grover Beach","State":"CA","Zip":"93433"},{"Location":"GET YOUR APP TOGETHER","Address":"1445 W Grand Ave E","City":"Grover Beach","State":"CA","Zip":"93433"},{"Location":"GRAND AVENUE SMILES","Address":"1461 W Grand Ave","City":"Grover Beach","State":"CA","Zip":"93433"},{"Location":"GROVER BEACH DENTAL","Address":"1558 W Grand Ave","City":"Grover Beach","State":"CA","Zip":"93433"},{"Location":"KOUTZ CHEVRON","Address":"1284 W Grand Ave","City":"Grover Beach","State":"CA","Zip":"93433"},{"Location":"MANROCK MICRO BREWERY","Address":"1750 El Camino Real A","City":"Grover Beach","State":"CA","Zip":"93433"},{"Location":"MICHAEL NAILS& SPA","Address":"175 N Oak Park Blvd","City":"Grover Beach","State":"CA","Zip":"93433"},{"Location":"MONGO'S","Address":"359 W Grand Ave","City":"Grover Beach","State":"CA","Zip":"93433"},{"Location":"RIB LINE BY THE BEACH","Address":"228 W Grand Ave","City":"Grover Beach","State":"CA","Zip":"93433"},{"Location":"RN DISCOUNTS YOU GET IT","Address":"1800 E Grand Ave F","City":"Grover Beach","State":"CA","Zip":"93433"},{"Location":"SMITH AND SONS","Address":"1290 Longbranch Ave","City":"Grover Beach","State":"CA","Zip":"93433"},{"Location":"SUSAN KURDI","Address":"1519 W Grand Ave","City":"Grover Beach","State":"CA","Zip":"93433"},{"Location":"THE SPIRO GROUP","Address":"1771 W Grand Ave","City":"Grover Beach","State":"CA","Zip":"93433"},{"Location":"TOP NAILS","Address":"1175 W Grand Ave","City":"Grover Beach","State":"CA","Zip":"93433"},{"Location":"YAMATO","Address":"1741 W Grand Ave E","City":"Grover Beach","State":"CA","Zip":"93433"},{"Location":"CENTRAL   COAST CASINO 2","Address":"359 W Grand Ave","City":"Grover Beach","State":"CA","Zip":"93433"},{"Location":"GET YOUR APP TOGETHER","Address":"1445 W Grand Ave E","City":"Grover Beach","State":"CA","Zip":"93433"},{"Location":"GRAND AVENUE SMILES","Address":"1461 W Grand Ave","City":"Grover Beach","State":"CA","Zip":"93433"},{"Location":"GROVER BEACH DENTAL","Address":"1558 W Grand Ave","City":"Grover Beach","State":"CA","Zip":"93433"},{"Location":"KOUTZ CHEVRON","Address":"1284 W Grand Ave","City":"Grover Beach","State":"CA","Zip":"93433"},{"Location":"MANROCK MICRO BREWERY","Address":"1750 El Camino Real A","City":"Grover Beach","State":"CA","Zip":"93433"},{"Location":"MICHAEL NAILS& SPA","Address":"175 N Oak Park Blvd","City":"Grover Beach","State":"CA","Zip":"93433"},{"Location":"MONGO'S","Address":"359 W Grand Ave","City":"Grover Beach","State":"CA","Zip":"93433"},{"Location":"RIB LINE BY THE BEACH","Address":"228 W Grand Ave","City":"Grover Beach","State":"CA","Zip":"93433"},{"Location":"RN DISCOUNTS YOU GET IT","Address":"1800 E Grand Ave F","City":"Grover Beach","State":"CA","Zip":"93433"},{"Location":"SMITH AND SONS","Address":"1290 Longbranch Ave","City":"Grover Beach","State":"CA","Zip":"93433"},{"Location":"SUSAN KURDI","Address":"1519 W Grand Ave","City":"Grover Beach","State":"CA","Zip":"93433"},{"Location":"THE SPIRO GROUP","Address":"1771 W Grand Ave","City":"Grover Beach","State":"CA","Zip":"93433"},{"Location":"TOP NAILS","Address":"1175 W Grand Ave","City":"Grover Beach","State":"CA","Zip":"93433"},{"Location":"YAMATO","Address":"1741 W Grand Ave E","City":"Grover Beach","State":"CA","Zip":"93433"}]