[{"Location":"ANNA MARIES BOOKKEEPING","Address":"451 Guadalupe St","City":"Guadalupe","State":"CA","Zip":"93434"},{"Location":"BEACHSIDE PRODUCE","Address":"4575 W Main St","City":"Guadalupe","State":"CA","Zip":"93434"},{"Location":"GUADALUPE CLINIC","Address":"4723 W Main St H","City":"Guadalupe","State":"CA","Zip":"93434"},{"Location":"GUADALUPE LAUNDROMAT","Address":"621 Guadalupe St","City":"Guadalupe","State":"CA","Zip":"93434"},{"Location":"GUADALUPE RESTAURANT","Address":"757 Guadalupe St","City":"Guadalupe","State":"CA","Zip":"93434"},{"Location":"OBISPO STREET COOLING","Address":"151 Obispo St","City":"Guadalupe","State":"CA","Zip":"93434"},{"Location":"PANDA STICK CHINESE REST","Address":"887 Guadalupe St","City":"Guadalupe","State":"CA","Zip":"93434"},{"Location":"PETERSON AG SERVICES","Address":"151 Obispo St","City":"Guadalupe","State":"CA","Zip":"93434"},{"Location":"ANNA MARIES BOOKKEEPING","Address":"451 Guadalupe St","City":"Guadalupe","State":"CA","Zip":"93434"},{"Location":"BEACHSIDE PRODUCE","Address":"4575 W Main St","City":"Guadalupe","State":"CA","Zip":"93434"},{"Location":"GUADALUPE CLINIC","Address":"4723 W Main St H","City":"Guadalupe","State":"CA","Zip":"93434"},{"Location":"GUADALUPE LAUNDROMAT","Address":"621 Guadalupe St","City":"Guadalupe","State":"CA","Zip":"93434"},{"Location":"GUADALUPE RESTAURANT","Address":"757 Guadalupe St","City":"Guadalupe","State":"CA","Zip":"93434"},{"Location":"OBISPO STREET COOLING","Address":"151 Obispo St","City":"Guadalupe","State":"CA","Zip":"93434"},{"Location":"PANDA STICK CHINESE REST","Address":"887 Guadalupe St","City":"Guadalupe","State":"CA","Zip":"93434"},{"Location":"PETERSON AG SERVICES","Address":"151 Obispo St","City":"Guadalupe","State":"CA","Zip":"93434"}]