[{"Location":"513 N G  LP","Address":"513 N G St","City":"Lompoc","State":"CA","Zip":"93436"},{"Location":"513 N G  LP 2","Address":"513 N G St","City":"Lompoc","State":"CA","Zip":"93436"},{"Location":"AMERICAN LEGION POST 211","Address":"636 N H St","City":"Lompoc","State":"CA","Zip":"93436"},{"Location":"ANITA 76","Address":"3705 Constellation Rd","City":"Lompoc","State":"CA","Zip":"93436"},{"Location":"APPLEBEE'S #2108016","Address":"621 W Central Ave","City":"Lompoc","State":"CA","Zip":"93436"},{"Location":"BEATTIE LEASING INC","Address":"437 N R St","City":"Lompoc","State":"CA","Zip":"93436"},{"Location":"CALIFORNIA RETINAL CONS.","Address":"611 E Ocean Ave","City":"Lompoc","State":"CA","Zip":"93436"},{"Location":"COASTHILLS FEDERAL CREDIT UNIO","Address":"3880 Constellation Rd","City":"Lompoc","State":"CA","Zip":"93436"},{"Location":"FCC LOMPOC 3","Address":"3600 Guard Rd","City":"Lompoc","State":"CA","Zip":"93436"},{"Location":"FCC LOMPOC EMPLOYEES CLUB","Address":"3600 Guard Rd","City":"Lompoc","State":"CA","Zip":"93436"},{"Location":"GRACE TEMPLE MISSIONARY BAPT","Address":"201 S H St","City":"Lompoc","State":"CA","Zip":"93436"},{"Location":"HERITAGE VILLAS LLP","Address":"300 Burton Mesa Blvd","City":"Lompoc","State":"CA","Zip":"93436"},{"Location":"JCS OCEAN AVENUE BARBERSHOP","Address":"117 E Ocean Ave","City":"Lompoc","State":"CA","Zip":"93436"},{"Location":"JOHNNY'S BAR & GRILL","Address":"321 W Ocean Ave","City":"Lompoc","State":"CA","Zip":"93436"},{"Location":"MI AMORE PIZZA","Address":"1321 N H St","City":"Lompoc","State":"CA","Zip":"93436"},{"Location":"MICHAELS PLACE","Address":"119 W Ocean Ave","City":"Lompoc","State":"CA","Zip":"93436"},{"Location":"NAILESSITY","Address":"122 E Ocean Ave","City":"Lompoc","State":"CA","Zip":"93436"},{"Location":"NIKKA FISH ENTERPRISES","Address":"825 N H St","City":"Lompoc","State":"CA","Zip":"93436"},{"Location":"OCAIRNS INN AND SUITES","Address":"940 E Ocean Ave","City":"Lompoc","State":"CA","Zip":"93436"},{"Location":"OCEAN CITY PIZZA INC%2FDOM","Address":"700 N H St","City":"Lompoc","State":"CA","Zip":"93436"},{"Location":"OCEAN OMS","Address":"1111 E Ocean Ave 9","City":"Lompoc","State":"CA","Zip":"93436"},{"Location":"PLAINS EXPLORATION AN PROD","Address":"3602 Harris Grade Rd","City":"Lompoc","State":"CA","Zip":"93436"},{"Location":"PLANET SOCCER","Address":"802 E Ocean Ave","City":"Lompoc","State":"CA","Zip":"93436"},{"Location":"PROTEK INVESTMENTS LLC","Address":"3456 E Highway 246","City":"Lompoc","State":"CA","Zip":"93436"},{"Location":"ROUND TABLE PIZZA","Address":"721 W Central Ave","City":"Lompoc","State":"CA","Zip":"93436"},{"Location":"S.B. COUNTY SHERIFFS OFF","Address":"3500 Harris Grade Rd","City":"Lompoc","State":"CA","Zip":"93436"},{"Location":"SAMANTHA'S FILIPINO AMER","Address":"910 N H St","City":"Lompoc","State":"CA","Zip":"93436"},{"Location":"SUSHI TERI","Address":"213 W Ocean Ave","City":"Lompoc","State":"CA","Zip":"93436"},{"Location":"TATE 76","Address":"719 W Laurel Ave","City":"Lompoc","State":"CA","Zip":"93436"},{"Location":"THE KAR STOP","Address":"119 W Maple Ave","City":"Lompoc","State":"CA","Zip":"93436"},{"Location":"THE PIZZA GARDEN","Address":"1017 N H St","City":"Lompoc","State":"CA","Zip":"93436"},{"Location":"THE RED FOX","Address":"143 N H St","City":"Lompoc","State":"CA","Zip":"93436"},{"Location":"TRADITIONAL PAINT COATIN","Address":"700 N H St A","City":"Lompoc","State":"CA","Zip":"93436"},{"Location":"VILLAGE COUNTRY CLUB","Address":"4300 Club House Rd","City":"Lompoc","State":"CA","Zip":"93436"},{"Location":"WILD WEST PIZZA & GRILL","Address":"1137 N H St Stee","City":"Lompoc","State":"CA","Zip":"93436"},{"Location":"WISTLE STOP BAR AND GRILL","Address":"805 W Laurel Ave","City":"Lompoc","State":"CA","Zip":"93436"},{"Location":"30 LRS%2FLGRDDO","Address":"1221 Californis Blvd 10728","City":"Vandenberg Afb","State":"CA","Zip":"93436"},{"Location":"513 N G  LP","Address":"513 N G St","City":"Lompoc","State":"CA","Zip":"93436"},{"Location":"513 N G  LP 2","Address":"513 N G St","City":"Lompoc","State":"CA","Zip":"93436"},{"Location":"AMERICAN LEGION POST 211","Address":"636 N H St","City":"Lompoc","State":"CA","Zip":"93436"},{"Location":"ANITA 76","Address":"3705 Constellation Rd","City":"Lompoc","State":"CA","Zip":"93436"},{"Location":"APPLEBEE'S #2108016","Address":"621 W Central Ave","City":"Lompoc","State":"CA","Zip":"93436"},{"Location":"BEATTIE LEASING INC","Address":"437 N R St","City":"Lompoc","State":"CA","Zip":"93436"},{"Location":"CALIFORNIA RETINAL CONS.","Address":"611 E Ocean Ave","City":"Lompoc","State":"CA","Zip":"93436"},{"Location":"COASTHILLS FEDERAL CREDIT UNIO","Address":"3880 Constellation Rd","City":"Lompoc","State":"CA","Zip":"93436"},{"Location":"FCC LOMPOC 3","Address":"3600 Guard Rd","City":"Lompoc","State":"CA","Zip":"93436"},{"Location":"FCC LOMPOC EMPLOYEES CLUB","Address":"3600 Guard Rd","City":"Lompoc","State":"CA","Zip":"93436"},{"Location":"GRACE TEMPLE MISSIONARY BAPT","Address":"201 S H St","City":"Lompoc","State":"CA","Zip":"93436"},{"Location":"HERITAGE VILLAS LLP","Address":"300 Burton Mesa Blvd","City":"Lompoc","State":"CA","Zip":"93436"},{"Location":"JCS OCEAN AVENUE BARBERSHOP","Address":"117 E Ocean Ave","City":"Lompoc","State":"CA","Zip":"93436"},{"Location":"JOHNNY'S BAR & GRILL","Address":"321 W Ocean Ave","City":"Lompoc","State":"CA","Zip":"93436"},{"Location":"MI AMORE PIZZA","Address":"1321 N H St","City":"Lompoc","State":"CA","Zip":"93436"},{"Location":"MICHAELS PLACE","Address":"119 W Ocean Ave","City":"Lompoc","State":"CA","Zip":"93436"},{"Location":"NAILESSITY","Address":"122 E Ocean Ave","City":"Lompoc","State":"CA","Zip":"93436"},{"Location":"NIKKA FISH ENTERPRISES","Address":"825 N H St","City":"Lompoc","State":"CA","Zip":"93436"},{"Location":"OCAIRNS INN AND SUITES","Address":"940 E Ocean Ave","City":"Lompoc","State":"CA","Zip":"93436"},{"Location":"OCEAN CITY PIZZA INC%2FDOM","Address":"700 N H St","City":"Lompoc","State":"CA","Zip":"93436"},{"Location":"OCEAN OMS","Address":"1111 E Ocean Ave 9","City":"Lompoc","State":"CA","Zip":"93436"},{"Location":"PLAINS EXPLORATION AN PROD","Address":"3602 Harris Grade Rd","City":"Lompoc","State":"CA","Zip":"93436"},{"Location":"PLANET SOCCER","Address":"802 E Ocean Ave","City":"Lompoc","State":"CA","Zip":"93436"},{"Location":"PROTEK INVESTMENTS LLC","Address":"3456 E Highway 246","City":"Lompoc","State":"CA","Zip":"93436"},{"Location":"ROUND TABLE PIZZA","Address":"721 W Central Ave","City":"Lompoc","State":"CA","Zip":"93436"},{"Location":"S.B. COUNTY SHERIFFS OFF","Address":"3500 Harris Grade Rd","City":"Lompoc","State":"CA","Zip":"93436"},{"Location":"SAMANTHA'S FILIPINO AMER","Address":"910 N H St","City":"Lompoc","State":"CA","Zip":"93436"},{"Location":"SUSHI TERI","Address":"213 W Ocean Ave","City":"Lompoc","State":"CA","Zip":"93436"},{"Location":"TATE 76","Address":"719 W Laurel Ave","City":"Lompoc","State":"CA","Zip":"93436"},{"Location":"THE KAR STOP","Address":"119 W Maple Ave","City":"Lompoc","State":"CA","Zip":"93436"},{"Location":"THE PIZZA GARDEN","Address":"1017 N H St","City":"Lompoc","State":"CA","Zip":"93436"},{"Location":"THE RED FOX","Address":"143 N H St","City":"Lompoc","State":"CA","Zip":"93436"},{"Location":"TRADITIONAL PAINT COATIN","Address":"700 N H St A","City":"Lompoc","State":"CA","Zip":"93436"},{"Location":"VILLAGE COUNTRY CLUB","Address":"4300 Club House Rd","City":"Lompoc","State":"CA","Zip":"93436"},{"Location":"WILD WEST PIZZA & GRILL","Address":"1137 N H St Stee","City":"Lompoc","State":"CA","Zip":"93436"},{"Location":"WISTLE STOP BAR AND GRILL","Address":"805 W Laurel Ave","City":"Lompoc","State":"CA","Zip":"93436"},{"Location":"30 LRS%2FLGRDDO","Address":"1221 Californis Blvd 10728","City":"Vandenberg Afb","State":"CA","Zip":"93436"}]