[{"Location":"VANDENBERG AIR FORCE BASE","Address":"10400 Vandenberg Air Force","City":"Lompac","State":"CA","Zip":"93437"},{"Location":"21 SOPS VAFB","Address":"21 Sops Bldg 12006","City":"Lompoc","State":"CA","Zip":"93437"},{"Location":"30TH SPACE WING PUBLIC AFFAIRS","Address":"867 Washington Ave 242-6","City":"Lompoc","State":"CA","Zip":"93437"},{"Location":"614 AOC","Address":"1521 Utah 8401","City":"Lompoc","State":"CA","Zip":"93437"},{"Location":"AAFES VANDENBERG MAIN EXCHANGE","Address":"Building 10400","City":"Lompoc","State":"CA","Zip":"93437"},{"Location":"ANTHONY'S PIZZA","Address":"10400 Vandenberg Air Force Base","City":"Lompoc","State":"CA","Zip":"93437"},{"Location":"FIRE STATION 5","Address":"1172 Iceland Ave Bldng","City":"Lompoc","State":"CA","Zip":"93437"},{"Location":"GMD OSGV","Address":"Building 1768","City":"Lompoc","State":"CA","Zip":"93437"},{"Location":"KIMBERLY NAILS & SPA","Address":"700 N St B","City":"Lompoc","State":"CA","Zip":"93437"},{"Location":"PACIFIC COAST CLUB","Address":"753 Nebraska Ave","City":"Lompoc","State":"CA","Zip":"93437"},{"Location":"TWENTY ONE SOPS   VAFB","Address":"825 Washington Ave Bldg 12006","City":"Lompoc","State":"CA","Zip":"93437"},{"Location":"IDRC BLDG 1743","Address":"344 8th Street 8317","City":"Vandenberg","State":"CA","Zip":"93437"},{"Location":"MARSHALIA RANCH GOLF","Address":"Lompoc Casmalia 1335","City":"Vandenberg","State":"CA","Zip":"93437"},{"Location":"WROCC","Address":"1602 California Blvd Bldng 702","City":"Vandenberg","State":"CA","Zip":"93437"},{"Location":"30 SW%2FHC","Address":"587 Summersill 16200","City":"Vandenberg Afb","State":"CA","Zip":"93437"},{"Location":"30LRS BLDNG 1743","Address":"355 Airfield Rd","City":"Vandenberg Afb","State":"CA","Zip":"93437"},{"Location":"30RS DET 1 BLDG 1735","Address":"325 Airfield Rd","City":"Vandenberg Afb","State":"CA","Zip":"93437"},{"Location":"EMERGENCY COMM CNTR","Address":"1172 Iceland Ave 13730","City":"Vandenberg Afb","State":"CA","Zip":"93437"},{"Location":"FIRE STATION 1","Address":"1172 Iceland Ave 1740","City":"Vandenberg Afb","State":"CA","Zip":"93437"},{"Location":"FIRE STATION 2","Address":"1172 Iceland Ave 10660","City":"Vandenberg Afb","State":"CA","Zip":"93437"},{"Location":"FIRE STATION 3","Address":"1172 Iceland Ave 1810","City":"Vandenberg Afb","State":"CA","Zip":"93437"},{"Location":"FIRE STATION 4","Address":"1172 Iceland Ave Bldng","City":"Vandenberg Afb","State":"CA","Zip":"93437"},{"Location":"FIRE STATION 6","Address":"1172 Iceland Ave Bldng","City":"Vandenberg Afb","State":"CA","Zip":"93437"},{"Location":"FLIGHT LINE","Address":"373 Airfield Rd 1746","City":"Vandenberg Afb","State":"CA","Zip":"93437"},{"Location":"GOLF COURSE","Address":"1338 East San Antonio Rd Bldng 1338","City":"Vandenberg Afb","State":"CA","Zip":"93437"},{"Location":"LOCKHEED MARTIN TECHNICAL","Address":"8th St New Mexico Ave 8310","City":"Vandenberg Afb","State":"CA","Zip":"93437"},{"Location":"LRS%2FLGRV","Address":"1221 California Blvd Bldng 107","City":"Vandenberg Afb","State":"CA","Zip":"93437"},{"Location":"SFS HEADQUARTERS%2FARMORY","Address":"108 Colorado Ave 13675","City":"Vandenberg Afb","State":"CA","Zip":"93437"},{"Location":"SFS VISITORS CENTER","Address":"17596 California Blvd","City":"Vandenberg Afb","State":"CA","Zip":"93437"},{"Location":"SPACEPORT SYSTEMS INT LP","Address":"Building 375","City":"Vandenberg Afb","State":"CA","Zip":"93437"},{"Location":"VANDENBERG AIR FORCE BAS","Address":"2530 32nd St","City":"Vandenberg Afb","State":"CA","Zip":"93437"},{"Location":"AMERICAN MEDICAL RESPONSE","Address":"Building 1701 Vardenberg Afb","City":"Vanderberg","State":"CA","Zip":"93437"}]