[{"Location":"AMROB INC","Address":"1475 Dawn Rd","City":"Nipomo","State":"CA","Zip":"93444"},{"Location":"APPLE SPA","Address":"671 W Tefft St 14","City":"Nipomo","State":"CA","Zip":"93444"},{"Location":"BLACKLAKE GOLF RESORT","Address":"1490 Golf Course Ln","City":"Nipomo","State":"CA","Zip":"93444"},{"Location":"CALI SUSHI AND TERYIK","Address":"539 W Tefft St","City":"Nipomo","State":"CA","Zip":"93444"},{"Location":"ME-N-EDS PIZZERIA","Address":"110 Mary Ave 1","City":"Nipomo","State":"CA","Zip":"93444"},{"Location":"MONARCH DUNES GOLF CLUB","Address":"1606 Trilogy Pkwy","City":"Nipomo","State":"CA","Zip":"93444"},{"Location":"PI WHOLE PIZZERIA","Address":"330 W Tefft St C","City":"Nipomo","State":"CA","Zip":"93444"},{"Location":"RANCHO NIPOMO BBQ","Address":"108 Cuyama Ln","City":"Nipomo","State":"CA","Zip":"93444"},{"Location":"SANTA MARIA BREWING CO INC","Address":"115 Cuyama Ln","City":"Nipomo","State":"CA","Zip":"93444"},{"Location":"SNAP FITNESS #1024","Address":"671 W Tefft St 4","City":"Nipomo","State":"CA","Zip":"93444"},{"Location":"TRILOGY","Address":"1645 Trilogy Pkwy","City":"Nipomo","State":"CA","Zip":"93444"},{"Location":"AMROB INC","Address":"1475 Dawn Rd","City":"Nipomo","State":"CA","Zip":"93444"},{"Location":"APPLE SPA","Address":"671 W Tefft St 14","City":"Nipomo","State":"CA","Zip":"93444"},{"Location":"BLACKLAKE GOLF RESORT","Address":"1490 Golf Course Ln","City":"Nipomo","State":"CA","Zip":"93444"},{"Location":"CALI SUSHI AND TERYIK","Address":"539 W Tefft St","City":"Nipomo","State":"CA","Zip":"93444"},{"Location":"ME-N-EDS PIZZERIA","Address":"110 Mary Ave 1","City":"Nipomo","State":"CA","Zip":"93444"},{"Location":"MONARCH DUNES GOLF CLUB","Address":"1606 Trilogy Pkwy","City":"Nipomo","State":"CA","Zip":"93444"},{"Location":"PI WHOLE PIZZERIA","Address":"330 W Tefft St C","City":"Nipomo","State":"CA","Zip":"93444"},{"Location":"RANCHO NIPOMO BBQ","Address":"108 Cuyama Ln","City":"Nipomo","State":"CA","Zip":"93444"},{"Location":"SANTA MARIA BREWING CO INC","Address":"115 Cuyama Ln","City":"Nipomo","State":"CA","Zip":"93444"},{"Location":"SNAP FITNESS #1024","Address":"671 W Tefft St 4","City":"Nipomo","State":"CA","Zip":"93444"},{"Location":"TRILOGY","Address":"1645 Trilogy Pkwy","City":"Nipomo","State":"CA","Zip":"93444"}]