[{"Location":"","Address":"6903 Foxen Cyn Rd","City":"Los Olivos","State":"CA","Zip":"93441"},{"Location":"CLAIRMONT FARM LAVENDER CO","Address":"2480 Roblar Ave","City":"Los Olivos","State":"CA","Zip":"93441"},{"Location":"DUNN SCHOOL","Address":"2555 West Highway 154","City":"Los Olivos","State":"CA","Zip":"93441"},{"Location":"DUNN SCHOOL1","Address":"2555 West Highway 154","City":"Los Olivos","State":"CA","Zip":"93441"},{"Location":"FIG MTN BREW LOS OLIVOS","Address":"2446 Alamo Pintado Ave","City":"Los Olivos","State":"CA","Zip":"93441"},{"Location":"J LUDLOW VINEYARD","Address":"2890 Grand Ave","City":"Los Olivos","State":"CA","Zip":"93441"},{"Location":"MATTEIS TAVERN LLC","Address":"2350 Railway Ave","City":"Los Olivos","State":"CA","Zip":"93441"},{"Location":"SANTA YNEZ WINE CORP","Address":"2922 Grand Ave","City":"Los Olivos","State":"CA","Zip":"93441"},{"Location":"ZINKE FAMILY WINES","Address":"2366 Alamo Pintado Ave","City":"Los Olivos","State":"CA","Zip":"93441"},{"Location":"","Address":"6903 Foxen Cyn Rd","City":"Los Olivos","State":"CA","Zip":"93441"},{"Location":"CLAIRMONT FARM LAVENDER CO","Address":"2480 Roblar Ave","City":"Los Olivos","State":"CA","Zip":"93441"},{"Location":"DUNN SCHOOL","Address":"2555 West Highway 154","City":"Los Olivos","State":"CA","Zip":"93441"},{"Location":"DUNN SCHOOL1","Address":"2555 West Highway 154","City":"Los Olivos","State":"CA","Zip":"93441"},{"Location":"FIG MTN BREW LOS OLIVOS","Address":"2446 Alamo Pintado Ave","City":"Los Olivos","State":"CA","Zip":"93441"},{"Location":"J LUDLOW VINEYARD","Address":"2890 Grand Ave","City":"Los Olivos","State":"CA","Zip":"93441"},{"Location":"MATTEIS TAVERN LLC","Address":"2350 Railway Ave","City":"Los Olivos","State":"CA","Zip":"93441"},{"Location":"SANTA YNEZ WINE CORP","Address":"2922 Grand Ave","City":"Los Olivos","State":"CA","Zip":"93441"},{"Location":"ZINKE FAMILY WINES","Address":"2366 Alamo Pintado Ave","City":"Los Olivos","State":"CA","Zip":"93441"}]