[{"Location":"PACIFIC EYE SURGEONS","Address":"220 Oak Hill Rd","City":"Adelaide","State":"CA","Zip":"93446"},{"Location":"PASO  ROBLES LAUNDROMAT","Address":"2906 Spring St","City":"Adelaide","State":"CA","Zip":"93446"},{"Location":"PASO ROBLES CHEVROLET CADILLAC","Address":"2485 Theatre Dr","City":"Adelaide","State":"CA","Zip":"93446"},{"Location":"22 HUNDRED CELLARS","Address":"460 Marquita Ave","City":"Paso Robles","State":"CA","Zip":"93446"},{"Location":"A NEW ERA BARBER SHOP","Address":"827.5 13th Street","City":"Paso Robles","State":"CA","Zip":"93446"},{"Location":"ACCESS 24 COMMUNICATIONS INC","Address":"1200 Vine St","City":"Paso Robles","State":"CA","Zip":"93446"},{"Location":"ADA'S VINEYARD #2","Address":"5253 Monterey Rd","City":"Paso Robles","State":"CA","Zip":"93446"},{"Location":"ADELAIDE WEALTH ADVISORS","Address":"517 13th St","City":"Paso Robles","State":"CA","Zip":"93446"},{"Location":"AJB PROPERTIES","Address":"3510 Las Tablas Willow Crk Rd","City":"Paso Robles","State":"CA","Zip":"93446"},{"Location":"ALAMEDA ELECTRICAL DIST","Address":"3730 Lacruz Way","City":"Paso Robles","State":"CA","Zip":"93446"},{"Location":"ALMOST MEXICO INC","Address":"1902 Creston Rd","City":"Paso Robles","State":"CA","Zip":"93446"},{"Location":"AMERICAN LEGION POST 50","Address":"240 Scott St","City":"Paso Robles","State":"CA","Zip":"93446"},{"Location":"ANGEL NAILS SPA1","Address":"1131 Creston Rd 103","City":"Paso Robles","State":"CA","Zip":"93446"},{"Location":"APPLEBEE'S #2108015","Address":"2341 Theatre Dr","City":"Paso Robles","State":"CA","Zip":"93446"},{"Location":"BARRELHOUSE BREWING COMP","Address":"3055 Limestone Way","City":"Paso Robles","State":"CA","Zip":"93446"},{"Location":"C & M HOMECARE INCORPORATED","Address":"822 Sycamore Canyon Rd","City":"Paso Robles","State":"CA","Zip":"93446"},{"Location":"CHILI'S #1252","Address":"2001 Theatre Dr","City":"Paso Robles","State":"CA","Zip":"93446"},{"Location":"CHP 708","Address":"5020 Wing Way","City":"Paso Robles","State":"CA","Zip":"93446"},{"Location":"COOL HAND LUKE'S","Address":"1111 Riverside Ave","City":"Paso Robles","State":"CA","Zip":"93446"},{"Location":"CORRIGANS BARBERSHOP","Address":"1322 Park St","City":"Paso Robles","State":"CA","Zip":"93446"},{"Location":"CREEKSIDE B&B","Address":"5325 Vineyard Dr 2","City":"Paso Robles","State":"CA","Zip":"93446"},{"Location":"CROOKED KILT","Address":"1122 Pine St","City":"Paso Robles","State":"CA","Zip":"93446"},{"Location":"DEL RIO AVIATION","Address":"5062 Wing Way","City":"Paso Robles","State":"CA","Zip":"93446"},{"Location":"DUENOW LAW OFFICE","Address":"806 9th St A","City":"Paso Robles","State":"CA","Zip":"93446"},{"Location":"FERGUSON #0596","Address":"1605 Riverside Ave","City":"Paso Robles","State":"CA","Zip":"93446"},{"Location":"FIESTA GRANDE","Address":"1215 Spring St","City":"Paso Robles","State":"CA","Zip":"93446"},{"Location":"FIRESTONE VINEYARD PASEO","Address":"2300 Airport Rd","City":"Paso Robles","State":"CA","Zip":"93446"},{"Location":"FOOD 4 LESS","Address":"1465 Creston Rd","City":"Paso Robles","State":"CA","Zip":"93446"},{"Location":"HERMAN STORY WINES","Address":"1227 Paso Robles St","City":"Paso Robles","State":"CA","Zip":"93446"},{"Location":"HIDDEN POWER CYCLE CLINIC","Address":"1333 Riverside Ave","City":"Paso Robles","State":"CA","Zip":"93446"},{"Location":"IL CORTILE RISTORANTE","Address":"608 12th St 101","City":"Paso Robles","State":"CA","Zip":"93446"},{"Location":"JIM BURKE #1","Address":"1234 Park St","City":"Paso Robles","State":"CA","Zip":"93446"},{"Location":"JOHN A. ROLISH","Address":"1100 Pine St","City":"Paso Robles","State":"CA","Zip":"93446"},{"Location":"JOSES COUNTRY KITCHEN","Address":"81 Wellsona Rd","City":"Paso Robles","State":"CA","Zip":"93446"},{"Location":"JOSLYN SUNBANK","Address":"1740 Commerce Way","City":"Paso Robles","State":"CA","Zip":"93446"},{"Location":"JUSTIN VINEYARDS & WINERY","Address":"11680 Chimney Rock Rd","City":"Paso Robles","State":"CA","Zip":"93446"},{"Location":"KOBYS KITCHEN INC","Address":"843 12th St","City":"Paso Robles","State":"CA","Zip":"93446"},{"Location":"KOHL'S #960","Address":"100 Niblick Rd","City":"Paso Robles","State":"CA","Zip":"93446"},{"Location":"KYONG DIRMEYER","Address":"1227 Pine St","City":"Paso Robles","State":"CA","Zip":"93446"},{"Location":"LA COSECHA BAR AND REST","Address":"835 12th St A","City":"Paso Robles","State":"CA","Zip":"93446"},{"Location":"LAW ESTATE WINES","Address":"3885 Peachy Canyon Rd","City":"Paso Robles","State":"CA","Zip":"93446"},{"Location":"LINDA K DUROST INC","Address":"1006 Vine St","City":"Paso Robles","State":"CA","Zip":"93446"},{"Location":"MANNYS PIZZA GRILL","Address":"2748 Spring St","City":"Paso Robles","State":"CA","Zip":"93446"},{"Location":"MERIDIAN FIRE STATION","Address":"4050 Branch Rd","City":"Paso Robles","State":"CA","Zip":"93446"},{"Location":"MISSION PIZZA","Address":"625 12th St","City":"Paso Robles","State":"CA","Zip":"93446"},{"Location":"MONTEREY LODGE","Address":"5255 Monterey Rd","City":"Paso Robles","State":"CA","Zip":"93446"},{"Location":"MOOSE LODGE","Address":"2485 Spring St","City":"Paso Robles","State":"CA","Zip":"93446"},{"Location":"NCI AFFILATES INC","Address":"496 Linne Rd","City":"Paso Robles","State":"CA","Zip":"93446"},{"Location":"NINER WINE ESTATES","Address":"2400 W Highway 46","City":"Paso Robles","State":"CA","Zip":"93446"},{"Location":"OSO LIBRE WINERY","Address":"7383 Vineyard Dr","City":"Paso Robles","State":"CA","Zip":"93446"},{"Location":"PACIFIC WINE SERVICES","Address":"2550 Dry Creek Rd","City":"Paso Robles","State":"CA","Zip":"93446"},{"Location":"PASO ROBLES","Address":"1103 Spring St","City":"Paso Robles","State":"CA","Zip":"93446"},{"Location":"PASO ROBLES ATHLETIC CLU","Address":"1131 Creston Rd 97","City":"Paso Robles","State":"CA","Zip":"93446"},{"Location":"PASO ROBLES GOLF CLUB","Address":"1600 Country Club Dr","City":"Paso Robles","State":"CA","Zip":"93446"},{"Location":"PASO ROBLES SPORTS CLUB","Address":"2975 Union Rd","City":"Paso Robles","State":"CA","Zip":"93446"},{"Location":"PEAR VALLEY","Address":"4900 Union Rd","City":"Paso Robles","State":"CA","Zip":"93446"},{"Location":"PINE STREET SALOON","Address":"1234 Pine St","City":"Paso Robles","State":"CA","Zip":"93446"},{"Location":"RED BRICK PIZZA","Address":"1145 24th St D","City":"Paso Robles","State":"CA","Zip":"93446"},{"Location":"SAMURAI SUSHI AND ROLL","Address":"1131 Creston Rd","City":"Paso Robles","State":"CA","Zip":"93446"},{"Location":"SAN LUIS BAY MOTORS","Address":"2700 Theatre Dr","City":"Paso Robles","State":"CA","Zip":"93446"},{"Location":"SUNDANCE BED AND BREAKFAST","Address":"7735 Sundance Trl","City":"Paso Robles","State":"CA","Zip":"93446"},{"Location":"THE COMUS HOUSE DENNER","Address":"2885 Willow Creek Rd","City":"Paso Robles","State":"CA","Zip":"93446"},{"Location":"THE POUR HOUSE","Address":"525 Pine St A","City":"Paso Robles","State":"CA","Zip":"93446"},{"Location":"THE SHOW","Address":"219 Easy St B","City":"Paso Robles","State":"CA","Zip":"93446"},{"Location":"THE VINES RESORT","Address":"88 Wellsona Rd","City":"Paso Robles","State":"CA","Zip":"93446"},{"Location":"THOMAS STAINBROOK LLC","Address":"1107 Paso Robles St","City":"Paso Robles","State":"CA","Zip":"93446"},{"Location":"VILLA CREEK RESTAURANT","Address":"1144 Pine St","City":"Paso Robles","State":"CA","Zip":"93446"},{"Location":"WILLOW CREEK FARM","Address":"5420 Vineyard Dr","City":"Paso Robles","State":"CA","Zip":"93446"},{"Location":"WINDFALL INVESTORS LLC","Address":"4715 Flying Paster Ln","City":"Paso Robles","State":"CA","Zip":"93446"},{"Location":"WM LYLES CO","Address":"151 Shadow Creek Ln","City":"Paso Robles","State":"CA","Zip":"93446"},{"Location":"YANAGI SUSHI PASO","Address":"1221 Park St","City":"Paso Robles","State":"CA","Zip":"93446"}]