[{"Location":"CHARLIES","Address":"185 Bell St","City":"Los Alamos","State":"CA","Zip":"93440"},{"Location":"FOUR DEER RANCH","Address":"7700 Highway 101","City":"Los Alamos","State":"CA","Zip":"93440"},{"Location":"GHOST RIDERS BAR","Address":"508  Bell St","City":"Los Alamos","State":"CA","Zip":"93440"},{"Location":"THE STATION","Address":"346 Bell St","City":"Los Alamos","State":"CA","Zip":"93440"},{"Location":"THE UNION HOTEL","Address":"362 Bell St","City":"Los Alamos","State":"CA","Zip":"93440"},{"Location":"THE W.P HOTEL","Address":"9150 Highway 101","City":"Los Alamos","State":"CA","Zip":"93440"},{"Location":"CHARLIES","Address":"185 Bell St","City":"Los Alamos","State":"CA","Zip":"93440"},{"Location":"FOUR DEER RANCH","Address":"7700 Highway 101","City":"Los Alamos","State":"CA","Zip":"93440"},{"Location":"GHOST RIDERS BAR","Address":"508  Bell St","City":"Los Alamos","State":"CA","Zip":"93440"},{"Location":"THE STATION","Address":"346 Bell St","City":"Los Alamos","State":"CA","Zip":"93440"},{"Location":"THE UNION HOTEL","Address":"362 Bell St","City":"Los Alamos","State":"CA","Zip":"93440"},{"Location":"THE W.P HOTEL","Address":"9150 Highway 101","City":"Los Alamos","State":"CA","Zip":"93440"}]