[{"Location":"BAY PINES-CLUBHOUSE","Address":"1501 Quintana Rd","City":"Morro Bay","State":"CA","Zip":"93442"},{"Location":"BUOY TAVERN","Address":"2940 Main St","City":"Morro Bay","State":"CA","Zip":"93442"},{"Location":"CHEVRON - CVN 000051","Address":"4000 Highway 1","City":"Morro Bay","State":"CA","Zip":"93442"},{"Location":"EMBARCADERO GRILL","Address":"801 Embarcadero","City":"Morro Bay","State":"CA","Zip":"93442"},{"Location":"FENNACY LAW","Address":"500 Morro Bay Blvd","City":"Morro Bay","State":"CA","Zip":"93442"},{"Location":"FIELD DOC SALOON","Address":"900 Main St","City":"Morro Bay","State":"CA","Zip":"93442"},{"Location":"GREAT AMERICAN FISH CO","Address":"1185 Embarcadero","City":"Morro Bay","State":"CA","Zip":"93442"},{"Location":"KITYYS KITCHEN","Address":"890 Main St","City":"Morro Bay","State":"CA","Zip":"93442"},{"Location":"LEGENDS","Address":"899 Main St","City":"Morro Bay","State":"CA","Zip":"93442"},{"Location":"MORROBAY AQUARIUM","Address":"595 Embarcadero","City":"Morro Bay","State":"CA","Zip":"93442"},{"Location":"OFF THE HOOK","Address":"833 Embarcadero","City":"Morro Bay","State":"CA","Zip":"93442"},{"Location":"OTTER ROCK CAFE","Address":"885 Embarcadero","City":"Morro Bay","State":"CA","Zip":"93442"},{"Location":"PIZZA PORT","Address":"787 Main St","City":"Morro Bay","State":"CA","Zip":"93442"},{"Location":"REYNEVELD ENTERPRISE INC","Address":"2217 Coral Ave","City":"Morro Bay","State":"CA","Zip":"93442"},{"Location":"ROSES  LANDING","Address":"725 Embarcadero","City":"Morro Bay","State":"CA","Zip":"93442"},{"Location":"ROUND TABLE PIZZA TWO","Address":"610 Quintana Rd","City":"Morro Bay","State":"CA","Zip":"93442"},{"Location":"SHACK","Address":"1698 Main St","City":"Morro Bay","State":"CA","Zip":"93442"},{"Location":"SUMMER EXPRESSIONS HAIR SALON","Address":"735 Napa Ave","City":"Morro Bay","State":"CA","Zip":"93442"},{"Location":"SURFSIDE PIZZA","Address":"2770 Main St","City":"Morro Bay","State":"CA","Zip":"93442"},{"Location":"THE FLYING   DUTCHMAN","Address":"701 Embarcadero","City":"Morro Bay","State":"CA","Zip":"93442"},{"Location":"THE GRILL HUT","Address":"3118 Main St","City":"Morro Bay","State":"CA","Zip":"93442"},{"Location":"THE HUNGRY FISHERMAN","Address":"399 Beach St","City":"Morro Bay","State":"CA","Zip":"93442"},{"Location":"BAY PINES-CLUBHOUSE","Address":"1501 Quintana Rd","City":"Morro Bay","State":"CA","Zip":"93442"},{"Location":"BUOY TAVERN","Address":"2940 Main St","City":"Morro Bay","State":"CA","Zip":"93442"},{"Location":"CHEVRON - CVN 000051","Address":"4000 Highway 1","City":"Morro Bay","State":"CA","Zip":"93442"},{"Location":"EMBARCADERO GRILL","Address":"801 Embarcadero","City":"Morro Bay","State":"CA","Zip":"93442"},{"Location":"FENNACY LAW","Address":"500 Morro Bay Blvd","City":"Morro Bay","State":"CA","Zip":"93442"},{"Location":"FIELD DOC SALOON","Address":"900 Main St","City":"Morro Bay","State":"CA","Zip":"93442"},{"Location":"GREAT AMERICAN FISH CO","Address":"1185 Embarcadero","City":"Morro Bay","State":"CA","Zip":"93442"},{"Location":"KITYYS KITCHEN","Address":"890 Main St","City":"Morro Bay","State":"CA","Zip":"93442"},{"Location":"LEGENDS","Address":"899 Main St","City":"Morro Bay","State":"CA","Zip":"93442"},{"Location":"MORROBAY AQUARIUM","Address":"595 Embarcadero","City":"Morro Bay","State":"CA","Zip":"93442"},{"Location":"OFF THE HOOK","Address":"833 Embarcadero","City":"Morro Bay","State":"CA","Zip":"93442"},{"Location":"OTTER ROCK CAFE","Address":"885 Embarcadero","City":"Morro Bay","State":"CA","Zip":"93442"},{"Location":"PIZZA PORT","Address":"787 Main St","City":"Morro Bay","State":"CA","Zip":"93442"},{"Location":"REYNEVELD ENTERPRISE INC","Address":"2217 Coral Ave","City":"Morro Bay","State":"CA","Zip":"93442"},{"Location":"ROSES  LANDING","Address":"725 Embarcadero","City":"Morro Bay","State":"CA","Zip":"93442"},{"Location":"ROUND TABLE PIZZA TWO","Address":"610 Quintana Rd","City":"Morro Bay","State":"CA","Zip":"93442"},{"Location":"SHACK","Address":"1698 Main St","City":"Morro Bay","State":"CA","Zip":"93442"},{"Location":"SUMMER EXPRESSIONS HAIR SALON","Address":"735 Napa Ave","City":"Morro Bay","State":"CA","Zip":"93442"},{"Location":"SURFSIDE PIZZA","Address":"2770 Main St","City":"Morro Bay","State":"CA","Zip":"93442"},{"Location":"THE FLYING   DUTCHMAN","Address":"701 Embarcadero","City":"Morro Bay","State":"CA","Zip":"93442"},{"Location":"THE GRILL HUT","Address":"3118 Main St","City":"Morro Bay","State":"CA","Zip":"93442"},{"Location":"The Hungry Fisherman","Address":"399 Beach St","City":"Morro Bay","State":"CA","Zip":"93442"}]