[{"Location":"BEACH COMBER INN","Address":"541 Cypress St","City":"Pismo Beach","State":"CA","Zip":"93449"},{"Location":"BREW HOUSE 101","Address":"1527 Shell Beach Rd","City":"Pismo Beach","State":"CA","Zip":"93449"},{"Location":"COOL CAT CAFE","Address":"198 Pomeroy Ave","City":"Pismo Beach","State":"CA","Zip":"93449"},{"Location":"GINOS PIZZA","Address":"539 Five Cities Dr","City":"Pismo Beach","State":"CA","Zip":"93449"},{"Location":"HARRYS NIGHTCLUB AND BEACH BAR","Address":"690 Cypress St","City":"Pismo Beach","State":"CA","Zip":"93449"},{"Location":"HOT SHOTS WORLD CLASS BILLIARD","Address":"250 Pomeroy Ave","City":"Pismo Beach","State":"CA","Zip":"93449"},{"Location":"JAN DEWITT","Address":"444 S Dolliver St","City":"Pismo Beach","State":"CA","Zip":"93449"},{"Location":"MEIS CHINESE RESTAURANT","Address":"1759 Shell Beach Rd","City":"Pismo Beach","State":"CA","Zip":"93449"},{"Location":"MISSION INN PISMO BEACH","Address":"601 James Way","City":"Pismo Beach","State":"CA","Zip":"93449"},{"Location":"MOOSE LODGE","Address":"180 Main St","City":"Pismo Beach","State":"CA","Zip":"93449"},{"Location":"NIKE INC","Address":"333 Five Cities Dr 142","City":"Pismo Beach","State":"CA","Zip":"93449"},{"Location":"PENNYS ALL AMERICAN CAFE","Address":"1053 Price St","City":"Pismo Beach","State":"CA","Zip":"93449"},{"Location":"PISMO COAST VILLAGE CLUBHOUSE","Address":"165 S Dolliver St","City":"Pismo Beach","State":"CA","Zip":"93449"},{"Location":"ROSAS ITALIAN RESTURANT","Address":"491 Price St","City":"Pismo Beach","State":"CA","Zip":"93449"},{"Location":"SEAVENTURE COMMON","Address":"100 Ocean View Ave","City":"Pismo Beach","State":"CA","Zip":"93449"},{"Location":"SHELL CAFE","Address":"1351 Price St","City":"Pismo Beach","State":"CA","Zip":"93449"},{"Location":"SPYGLASS","Address":"2703 Spyglass Dr","City":"Pismo Beach","State":"CA","Zip":"93449"},{"Location":"STEAMERS OF PISMO","Address":"1601 Price St","City":"Pismo Beach","State":"CA","Zip":"93449"},{"Location":"THE BOARD ROOM","Address":"160 Hinds Ave 101","City":"Pismo Beach","State":"CA","Zip":"93449"},{"Location":"THE CLIFFS","Address":"2757 Shell Beach Rd","City":"Pismo Beach","State":"CA","Zip":"93449"},{"Location":"THE CLIFFS AT SHELL BEACH","Address":"2757 Shell Beach Rd","City":"Pismo Beach","State":"CA","Zip":"93449"},{"Location":"THE MOOSE DELI AND BREW","Address":"950 Price St","City":"Pismo Beach","State":"CA","Zip":"93449"},{"Location":"TOMASKOS SALT WATER TAFF","Address":"711 Dolliver St","City":"Pismo Beach","State":"CA","Zip":"93449"},{"Location":"TOP DOG OF CALIFORNIA","Address":"753 Shell Beach Rd","City":"Pismo Beach","State":"CA","Zip":"93449"},{"Location":"VENTANA GRILL","Address":"2575 Price St St205","City":"Pismo Beach","State":"CA","Zip":"93449"},{"Location":"VIP VAPOR","Address":"649 Dolliver St","City":"Pismo Beach","State":"CA","Zip":"93449"},{"Location":"YANAGI","Address":"340 James Way","City":"Pismo Beach","State":"CA","Zip":"93449"},{"Location":"F. MCLINTOCKS","Address":"750 Mattie Rd","City":"Shell Beach","State":"CA","Zip":"93449"}]