[{"Location":"ABRO RESOURCES","Address":"1126 W Cypress St","City":"Santa Maria","State":"CA","Zip":"93458"},{"Location":"AMAVISCA CONSRTUCTION","Address":"520 Farnel Rd J","City":"Santa Maria","State":"CA","Zip":"93458"},{"Location":"AMERICAN LEGION POST 56","Address":"501 N Pine St","City":"Santa Maria","State":"CA","Zip":"93458"},{"Location":"BONITA PACKING COMPANY","Address":"1850 W Stowell Rd","City":"Santa Maria","State":"CA","Zip":"93458"},{"Location":"BUNNY CLINIC","Address":"117 W Bunny Ave","City":"Santa Maria","State":"CA","Zip":"93458"},{"Location":"CEASERS BARBER SHOP","Address":"107 W Park Ave","City":"Santa Maria","State":"CA","Zip":"93458"},{"Location":"CENTRAL COAST PACKAGING LLC","Address":"1211 Craig Dr","City":"Santa Maria","State":"CA","Zip":"93458"},{"Location":"DISCOLANDIA","Address":"415 W Main St","City":"Santa Maria","State":"CA","Zip":"93458"},{"Location":"INNOVATIVE PRODUCE","Address":"1615 W Main St","City":"Santa Maria","State":"CA","Zip":"93458"},{"Location":"IRRIGATION WEST","Address":"1320 W Main St","City":"Santa Maria","State":"CA","Zip":"93458"},{"Location":"MAHONEY ORGANICS","Address":"915 S Blosser Rd","City":"Santa Maria","State":"CA","Zip":"93458"},{"Location":"MANZANITA BERRY FARMS","Address":"1850 W Stowell Rd","City":"Santa Maria","State":"CA","Zip":"93458"},{"Location":"MOOSE LODGE 719","Address":"116 W El Camino St","City":"Santa Maria","State":"CA","Zip":"93458"},{"Location":"NISHIMORI LANDSCAPE","Address":"807 S Blosser Rd","City":"Santa Maria","State":"CA","Zip":"93458"},{"Location":"QUEEN NAIL AND SPA","Address":"321 Town Ctr W B5","City":"Santa Maria","State":"CA","Zip":"93458"},{"Location":"SANTA MARIA AUTO ELECTRIC","Address":"1021 S Blosser Rd B","City":"Santa Maria","State":"CA","Zip":"93458"},{"Location":"ST. JOHN NEUMANN","Address":"966 W Orchard St","City":"Santa Maria","State":"CA","Zip":"93458"},{"Location":"TACOS EL TIZON","Address":"241 Town Ctr W","City":"Santa Maria","State":"CA","Zip":"93458"},{"Location":"THE BILLIARD LOUNGE","Address":"1931 S Thornburg St","City":"Santa Maria","State":"CA","Zip":"93458"},{"Location":"THE SPINE CENTER","Address":"326 W Main St 120","City":"Santa Maria","State":"CA","Zip":"93458"}]