[{"Location":"DOUGHNATION","Address":"156 S Broadway St E","City":"Orcutt","State":"CA","Zip":"93455"},{"Location":"PASION RESTAURANT","Address":"165 S Broadway St","City":"Orcutt","State":"CA","Zip":"93455"},{"Location":"ROONEYS IRISH PUB","Address":"241 S Broadway St 101","City":"Orcutt","State":"CA","Zip":"93455"},{"Location":"SKYLSTAD SCHOELEN","Address":"3130 Skyway Dr 701","City":"Orcutt","State":"CA","Zip":"93455"},{"Location":"AI LOVE SUSHI","Address":"4869 S Bradley Rd 128","City":"Santa Maria","State":"CA","Zip":"93455"},{"Location":"AMERICAN MEDICAL RESPONSE","Address":"3130 Skyway Dr 702","City":"Santa Maria","State":"CA","Zip":"93455"},{"Location":"ANHEUSER-BUSCH WHLSLR #30455","Address":"900 Fairway Dr","City":"Santa Maria","State":"CA","Zip":"93455"},{"Location":"ARCTIC AIR SERVICE INC.","Address":"3820 S Blosser Rd","City":"Santa Maria","State":"CA","Zip":"93455"},{"Location":"BMW OF SANTA MARIA","Address":"2150 S College Dr","City":"Santa Maria","State":"CA","Zip":"93455"},{"Location":"BURRITO LOCAL","Address":"4869 S Bradley Rd","City":"Santa Maria","State":"CA","Zip":"93455"},{"Location":"CENTRAL COAST KIDNEY","Address":"2263 S Depot St A","City":"Santa Maria","State":"CA","Zip":"93455"},{"Location":"CENTRAL COAST KIDNEY 2","Address":"2263 S Depot St B","City":"Santa Maria","State":"CA","Zip":"93455"},{"Location":"CITY OF SANTA MARIA","Address":"3300 Skyway Dr","City":"Santa Maria","State":"CA","Zip":"93455"},{"Location":"CLARK PEST CONTROL","Address":"1220 W Betteravia Rd","City":"Santa Maria","State":"CA","Zip":"93455"},{"Location":"CULLEN GROUP","Address":"1127 Parkland Dr","City":"Santa Maria","State":"CA","Zip":"93455"},{"Location":"DB SPECIALTY FARMS","Address":"2515 Professional Pkwy","City":"Santa Maria","State":"CA","Zip":"93455"},{"Location":"DICKEYS SANTA MARIA","Address":"2212 S Bradley Rd D3","City":"Santa Maria","State":"CA","Zip":"93455"},{"Location":"DOROTHY S COUNRTY OAK","Address":"3388 Orcutt Rd","City":"Santa Maria","State":"CA","Zip":"93455"},{"Location":"ERG RESOURCES LLC","Address":"4312 Foxenwood Cir","City":"Santa Maria","State":"CA","Zip":"93455"},{"Location":"FAR WESTERN TAVERN","Address":"300 E Clark Ave","City":"Santa Maria","State":"CA","Zip":"93455"},{"Location":"FERGUSON #0612","Address":"1209 W Betteravia Rd","City":"Santa Maria","State":"CA","Zip":"93455"},{"Location":"HA","Address":"3550 Orcutt Rd","City":"Santa Maria","State":"CA","Zip":"93455"},{"Location":"HAMPTON FARMING","Address":"2515 Professional Pkwy","City":"Santa Maria","State":"CA","Zip":"93455"},{"Location":"HERRERA CORPORATION","Address":"2369 A St","City":"Santa Maria","State":"CA","Zip":"93455"},{"Location":"HONDA OF SANTA MARIA","Address":"2175 S Bradley Rd","City":"Santa Maria","State":"CA","Zip":"93455"},{"Location":"JERSEY MIKE SUBS","Address":"2358 S Bradley Rd","City":"Santa Maria","State":"CA","Zip":"93455"},{"Location":"JETTY RESTAURANT","Address":"135 E Foster Rd","City":"Santa Maria","State":"CA","Zip":"93455"},{"Location":"LEROYTAX","Address":"435 E Clark Ave","City":"Santa Maria","State":"CA","Zip":"93455"},{"Location":"LOS PADRES COMMUNICATIONS CTR","Address":"3960 Mitchell Rd","City":"Santa Maria","State":"CA","Zip":"93455"},{"Location":"LOVELY NAILS AND SPA","Address":"2880 Santa Maria Way B2","City":"Santa Maria","State":"CA","Zip":"93455"},{"Location":"NEW BEGINNINGS CHRISTIAN","Address":"1290 W Mccoy Ln","City":"Santa Maria","State":"CA","Zip":"93455"},{"Location":"O.T. MEXICAN CAFE","Address":"140 E Clark Ave","City":"Santa Maria","State":"CA","Zip":"93455"},{"Location":"REFRIGERATED TRANSPORT E","Address":"1525 W Betteravia Rd","City":"Santa Maria","State":"CA","Zip":"93455"},{"Location":"RICKYS HOUSE OF PIZZA","Address":"4869 S Bradley Rd","City":"Santa Maria","State":"CA","Zip":"93455"},{"Location":"ROTORCRAFT LEASING CO","Address":"1211 Citation Ct","City":"Santa Maria","State":"CA","Zip":"93455"},{"Location":"SAFELITE AUTO GLASS.","Address":"2220 A St","City":"Santa Maria","State":"CA","Zip":"93455"},{"Location":"SANTA MARIA COUNTRY CLUB","Address":"505 W Waller Ln","City":"Santa Maria","State":"CA","Zip":"93455"},{"Location":"SANTA MARIA PACIFIC","Address":"2811 Airpark Dr","City":"Santa Maria","State":"CA","Zip":"93455"},{"Location":"SANTA MARIA SEEDS","Address":"2390 A St","City":"Santa Maria","State":"CA","Zip":"93455"},{"Location":"STAR PHYSICAL THERAPY","Address":"2342 Professional Pkwy 110","City":"Santa Maria","State":"CA","Zip":"93455"},{"Location":"THE POLISHED PET","Address":"3850 S Us Highway 101","City":"Santa Maria","State":"CA","Zip":"93455"},{"Location":"THE SPIRO GROUP","Address":"1099 E Clark Ave","City":"Santa Maria","State":"CA","Zip":"93455"},{"Location":"TSA%2FSANTA MARIA PUBLIC AIRPORT","Address":"3249 Terminal Dr 201","City":"Santa Maria","State":"CA","Zip":"93455"},{"Location":"US FOREST SERVICE","Address":"1211 Citation Ct","City":"Santa Maria","State":"CA","Zip":"93455"},{"Location":"WOODLAND LEISHMAN","Address":"5075 S Bradley Rd 235","City":"Santa Maria","State":"CA","Zip":"93455"}]