[{"Location":"ALADDIN BB DEPT 743","Address":"611 S Broadway","City":"Santa Maria","State":"CA","Zip":"93454"},{"Location":"APPLEBEE'S #2108011","Address":"1415 S Bradley Rd","City":"Santa Maria","State":"CA","Zip":"93454"},{"Location":"CALIFORNIA HIGHWAY PATROL","Address":"1710 Carlotti Dr","City":"Santa Maria","State":"CA","Zip":"93454"},{"Location":"CLASSIC STYLES","Address":"412 N Broadway","City":"Santa Maria","State":"CA","Zip":"93454"},{"Location":"COOL HAND LUKES","Address":"1321 Nicholson Ave","City":"Santa Maria","State":"CA","Zip":"93454"},{"Location":"CORTEZ AUTO BODY","Address":"1520 E Donovan Rd B","City":"Santa Maria","State":"CA","Zip":"93454"},{"Location":"CUGINIS PIZZERIA","Address":"230 E Betteravia Rd G","City":"Santa Maria","State":"CA","Zip":"93454"},{"Location":"CUSTOM WORKOUTS","Address":"2125 S Broadway 108","City":"Santa Maria","State":"CA","Zip":"93454"},{"Location":"D AND A HAWAIIAN BBQ","Address":"1836 N Broadway","City":"Santa Maria","State":"CA","Zip":"93454"},{"Location":"DAVITA #11125","Address":"1503 E Main St Q","City":"Santa Maria","State":"CA","Zip":"93454"},{"Location":"DIGNITY HEALTH MARIAN","Address":"1400 E Church St","City":"Santa Maria","State":"CA","Zip":"93454"},{"Location":"EAGLE AERIE 1745","Address":"668 S College Dr","City":"Santa Maria","State":"CA","Zip":"93454"},{"Location":"ECONO OUBI","Address":"2258 S Broadway","City":"Santa Maria","State":"CA","Zip":"93454"},{"Location":"FRANCISCOS COUNTRY KITCHEN","Address":"1701 N Broadway","City":"Santa Maria","State":"CA","Zip":"93454"},{"Location":"IN SHAPE HEALTH CLUBS SANTA MA","Address":"1318 S Broadway","City":"Santa Maria","State":"CA","Zip":"93454"},{"Location":"KOHL'S #477","Address":"2501 S Broadway","City":"Santa Maria","State":"CA","Zip":"93454"},{"Location":"LIFESTYLE AUTO RENTAL","Address":"619 N Broadway","City":"Santa Maria","State":"CA","Zip":"93454"},{"Location":"MACY'S WEST 499 BR","Address":"302 Town Ctr E","City":"Santa Maria","State":"CA","Zip":"93454"},{"Location":"MARIAN HEALTH AND WELLNESS","Address":"1207 E Main St","City":"Santa Maria","State":"CA","Zip":"93454"},{"Location":"MARIAN REGIONAL MEDICAL CENTER","Address":"1400 E Church St","City":"Santa Maria","State":"CA","Zip":"93454"},{"Location":"MARTINEZ DC%2C ROBERT J","Address":"912 E Main St","City":"Santa Maria","State":"CA","Zip":"93454"},{"Location":"MASTER DONUT","Address":"325 E Betteravia Rd B12","City":"Santa Maria","State":"CA","Zip":"93454"},{"Location":"MATERNAL CHILD HEALTH","Address":"1510 E Main St 104","City":"Santa Maria","State":"CA","Zip":"93454"},{"Location":"ME-N-EDS PIZZERIA 112","Address":"560 E Betteravia Rd A","City":"Santa Maria","State":"CA","Zip":"93454"},{"Location":"MORGAN STANLEY 100223","Address":"2005 S Broadway","City":"Santa Maria","State":"CA","Zip":"93454"},{"Location":"OLIVE GARDEN #1404","Address":"1210 S Bradley Rd","City":"Santa Maria","State":"CA","Zip":"93454"},{"Location":"ORIGINAL ROADHOUSE GRILL","Address":"1423 S Bradley Rd","City":"Santa Maria","State":"CA","Zip":"93454"},{"Location":"PACIFIC COAST SMILES","Address":"426 Barcellus Ave 101","City":"Santa Maria","State":"CA","Zip":"93454"},{"Location":"PACIFIC EYE SURGEONS","Address":"816 E Enos Dr A","City":"Santa Maria","State":"CA","Zip":"93454"},{"Location":"PINE CANYON STATION","Address":"8145 Highway 166","City":"Santa Maria","State":"CA","Zip":"93454"},{"Location":"PREMIER SURGERY CENTER","Address":"816 E Enos Dr B","City":"Santa Maria","State":"CA","Zip":"93454"},{"Location":"RANCHO BARBERSHOP","Address":"118 E Donovan Rd","City":"Santa Maria","State":"CA","Zip":"93454"},{"Location":"RANCHO BOWL","Address":"128 E Donovan Rd","City":"Santa Maria","State":"CA","Zip":"93454"},{"Location":"RED ROBIN #247","Address":"101 Town Ctr E 200","City":"Santa Maria","State":"CA","Zip":"93454"},{"Location":"ROUND TABLE PIZZA","Address":"2508 S Broadway","City":"Santa Maria","State":"CA","Zip":"93454"},{"Location":"SAKE SUSHI","Address":"194 Town Ctr E","City":"Santa Maria","State":"CA","Zip":"93454"},{"Location":"SANTA MARIA AMBULATOR SURGERY","Address":"120 N Miller St C","City":"Santa Maria","State":"CA","Zip":"93454"},{"Location":"SANTA MARIA BBQ LAND","Address":"1975 S Broadway A","City":"Santa Maria","State":"CA","Zip":"93454"},{"Location":"SANTA MARIA BURGERS","Address":"1785 S Broadway","City":"Santa Maria","State":"CA","Zip":"93454"},{"Location":"SANTA MARIA FORD","Address":"1035 E Battles Rd","City":"Santa Maria","State":"CA","Zip":"93454"},{"Location":"SANTA MARIA HARLEY DAVIDSON","Address":"2022 Preisker Ln","City":"Santa Maria","State":"CA","Zip":"93454"},{"Location":"SANTA MARIA POA","Address":"222 E Cook St","City":"Santa Maria","State":"CA","Zip":"93454"},{"Location":"SANTA MARIA TERRACE","Address":"1405 E Main St","City":"Santa Maria","State":"CA","Zip":"93454"},{"Location":"SKY NAILS SPA","Address":"1425 S Broadway","City":"Santa Maria","State":"CA","Zip":"93454"},{"Location":"SPORT CLIPS CA780","Address":"540 E Betteravia Rd F","City":"Santa Maria","State":"CA","Zip":"93454"},{"Location":"SPORTSCARD FANTASY","Address":"371 Town Ctr E 375","City":"Santa Maria","State":"CA","Zip":"93454"},{"Location":"THE HEAD SHOP","Address":"1545 S Broadway B","City":"Santa Maria","State":"CA","Zip":"93454"},{"Location":"THE LAUNDRY ROOM","Address":"1715 S Broadway","City":"Santa Maria","State":"CA","Zip":"93454"},{"Location":"THE MARKET","Address":"345 Town Ctr E E","City":"Santa Maria","State":"CA","Zip":"93454"},{"Location":"THE SWISS RESTAURANT & BAR","Address":"516 N Broadway","City":"Santa Maria","State":"CA","Zip":"93454"},{"Location":"THE TAP ROOM","Address":"801 S Broadway","City":"Santa Maria","State":"CA","Zip":"93454"},{"Location":"TOP FEAST","Address":"800 S Broadway 105","City":"Santa Maria","State":"CA","Zip":"93454"},{"Location":"TRENDS SALON","Address":"338 E Betteravia Rd H","City":"Santa Maria","State":"CA","Zip":"93454"},{"Location":"TRES HERMANAS WINERY","Address":"9660 Foxen Canyon Rd","City":"Santa Maria","State":"CA","Zip":"93454"},{"Location":"UNION BANK 424","Address":"2340 S Broadway","City":"Santa Maria","State":"CA","Zip":"93454"},{"Location":"UNION PLAZA CORPORATION","Address":"120 N Broadway","City":"Santa Maria","State":"CA","Zip":"93454"},{"Location":"US FOREST SERVICE LOS PADRES","Address":"1616 Carlotti Dr","City":"Santa Maria","State":"CA","Zip":"93454"},{"Location":"V S Z ASIAN MARKET","Address":"105 E Mill St A","City":"Santa Maria","State":"CA","Zip":"93454"},{"Location":"VALLARTA SUPERMARKET #31","Address":"1875 N Broadway","City":"Santa Maria","State":"CA","Zip":"93454"},{"Location":"VALLEY PACIFIC PETROLEUM","Address":"1155 E Betteravia Rd","City":"Santa Maria","State":"CA","Zip":"93454"},{"Location":"WINGSTOP","Address":"560 E Betteravia Rd D","City":"Santa Maria","State":"CA","Zip":"93454"},{"Location":"YANAGI SANTA MARIA","Address":"2431 S Broadway","City":"Santa Maria","State":"CA","Zip":"93454"},{"Location":"ALADDIN BB DEPT 743","Address":"611 S Broadway","City":"Santa Maria","State":"CA","Zip":"93454"},{"Location":"APPLEBEE'S #2108011","Address":"1415 S Bradley Rd","City":"Santa Maria","State":"CA","Zip":"93454"},{"Location":"CALIFORNIA HIGHWAY PATROL","Address":"1710 Carlotti Dr","City":"Santa Maria","State":"CA","Zip":"93454"},{"Location":"CLASSIC STYLES","Address":"412 N Broadway","City":"Santa Maria","State":"CA","Zip":"93454"},{"Location":"COOL HAND LUKES","Address":"1321 Nicholson Ave","City":"Santa Maria","State":"CA","Zip":"93454"},{"Location":"CORTEZ AUTO BODY","Address":"1520 E Donovan Rd B","City":"Santa Maria","State":"CA","Zip":"93454"},{"Location":"CUGINIS PIZZERIA","Address":"230 E Betteravia Rd G","City":"Santa Maria","State":"CA","Zip":"93454"},{"Location":"CUSTOM WORKOUTS","Address":"2125 S Broadway 108","City":"Santa Maria","State":"CA","Zip":"93454"},{"Location":"D AND A HAWAIIAN BBQ","Address":"1836 N Broadway","City":"Santa Maria","State":"CA","Zip":"93454"},{"Location":"DAVITA #11125","Address":"1503 E Main St Q","City":"Santa Maria","State":"CA","Zip":"93454"},{"Location":"DIGNITY HEALTH MARIAN","Address":"1400 E Church St","City":"Santa Maria","State":"CA","Zip":"93454"},{"Location":"EAGLE AERIE 1745","Address":"668 S College Dr","City":"Santa Maria","State":"CA","Zip":"93454"},{"Location":"ECONO OUBI","Address":"2258 S Broadway","City":"Santa Maria","State":"CA","Zip":"93454"},{"Location":"FRANCISCOS COUNTRY KITCHEN","Address":"1701 N Broadway","City":"Santa Maria","State":"CA","Zip":"93454"},{"Location":"IN SHAPE HEALTH CLUBS SANTA MA","Address":"1318 S Broadway","City":"Santa Maria","State":"CA","Zip":"93454"},{"Location":"KOHL'S #477","Address":"2501 S Broadway","City":"Santa Maria","State":"CA","Zip":"93454"},{"Location":"LIFESTYLE AUTO RENTAL","Address":"619 N Broadway","City":"Santa Maria","State":"CA","Zip":"93454"},{"Location":"MACY'S WEST 499 BR","Address":"302 Town Ctr E","City":"Santa Maria","State":"CA","Zip":"93454"},{"Location":"MARIAN HEALTH AND WELLNESS","Address":"1207 E Main St","City":"Santa Maria","State":"CA","Zip":"93454"},{"Location":"MARIAN REGIONAL MEDICAL CENTER","Address":"1400 E Church St","City":"Santa Maria","State":"CA","Zip":"93454"},{"Location":"MARTINEZ DC%2C ROBERT J","Address":"912 E Main St","City":"Santa Maria","State":"CA","Zip":"93454"},{"Location":"MASTER DONUT","Address":"325 E Betteravia Rd B12","City":"Santa Maria","State":"CA","Zip":"93454"},{"Location":"MATERNAL CHILD HEALTH","Address":"1510 E Main St 104","City":"Santa Maria","State":"CA","Zip":"93454"},{"Location":"ME-N-EDS PIZZERIA 112","Address":"560 E Betteravia Rd A","City":"Santa Maria","State":"CA","Zip":"93454"},{"Location":"MORGAN STANLEY 100223","Address":"2005 S Broadway","City":"Santa Maria","State":"CA","Zip":"93454"},{"Location":"OLIVE GARDEN #1404","Address":"1210 S Bradley Rd","City":"Santa Maria","State":"CA","Zip":"93454"},{"Location":"ORIGINAL ROADHOUSE GRILL","Address":"1423 S Bradley Rd","City":"Santa Maria","State":"CA","Zip":"93454"},{"Location":"PACIFIC COAST SMILES","Address":"426 Barcellus Ave 101","City":"Santa Maria","State":"CA","Zip":"93454"},{"Location":"PACIFIC EYE SURGEONS","Address":"816 E Enos Dr A","City":"Santa Maria","State":"CA","Zip":"93454"},{"Location":"PINE CANYON STATION","Address":"8145 Highway 166","City":"Santa Maria","State":"CA","Zip":"93454"},{"Location":"PREMIER SURGERY CENTER","Address":"816 E Enos Dr B","City":"Santa Maria","State":"CA","Zip":"93454"},{"Location":"RANCHO BARBERSHOP","Address":"118 E Donovan Rd","City":"Santa Maria","State":"CA","Zip":"93454"},{"Location":"RANCHO BOWL","Address":"128 E Donovan Rd","City":"Santa Maria","State":"CA","Zip":"93454"},{"Location":"RED ROBIN #247","Address":"101 Town Ctr E 200","City":"Santa Maria","State":"CA","Zip":"93454"},{"Location":"ROUND TABLE PIZZA","Address":"2508 S Broadway","City":"Santa Maria","State":"CA","Zip":"93454"},{"Location":"SAKE SUSHI","Address":"194 Town Ctr E","City":"Santa Maria","State":"CA","Zip":"93454"},{"Location":"SANTA MARIA AMBULATOR SURGERY","Address":"120 N Miller St C","City":"Santa Maria","State":"CA","Zip":"93454"},{"Location":"SANTA MARIA BBQ LAND","Address":"1975 S Broadway A","City":"Santa Maria","State":"CA","Zip":"93454"},{"Location":"SANTA MARIA BURGERS","Address":"1785 S Broadway","City":"Santa Maria","State":"CA","Zip":"93454"},{"Location":"SANTA MARIA FORD","Address":"1035 E Battles Rd","City":"Santa Maria","State":"CA","Zip":"93454"},{"Location":"SANTA MARIA HARLEY DAVIDSON","Address":"2022 Preisker Ln","City":"Santa Maria","State":"CA","Zip":"93454"},{"Location":"SANTA MARIA POA","Address":"222 E Cook St","City":"Santa Maria","State":"CA","Zip":"93454"},{"Location":"SANTA MARIA TERRACE","Address":"1405 E Main St","City":"Santa Maria","State":"CA","Zip":"93454"},{"Location":"SKY NAILS SPA","Address":"1425 S Broadway","City":"Santa Maria","State":"CA","Zip":"93454"},{"Location":"SPORT CLIPS CA780","Address":"540 E Betteravia Rd F","City":"Santa Maria","State":"CA","Zip":"93454"},{"Location":"SPORTSCARD FANTASY","Address":"371 Town Ctr E 375","City":"Santa Maria","State":"CA","Zip":"93454"},{"Location":"THE HEAD SHOP","Address":"1545 S Broadway B","City":"Santa Maria","State":"CA","Zip":"93454"},{"Location":"THE LAUNDRY ROOM","Address":"1715 S Broadway","City":"Santa Maria","State":"CA","Zip":"93454"},{"Location":"THE MARKET","Address":"345 Town Ctr E E","City":"Santa Maria","State":"CA","Zip":"93454"},{"Location":"THE SWISS RESTAURANT & BAR","Address":"516 N Broadway","City":"Santa Maria","State":"CA","Zip":"93454"},{"Location":"THE TAP ROOM","Address":"801 S Broadway","City":"Santa Maria","State":"CA","Zip":"93454"},{"Location":"TOP FEAST","Address":"800 S Broadway 105","City":"Santa Maria","State":"CA","Zip":"93454"},{"Location":"TRENDS SALON","Address":"338 E Betteravia Rd H","City":"Santa Maria","State":"CA","Zip":"93454"},{"Location":"TRES HERMANAS WINERY","Address":"9660 Foxen Canyon Rd","City":"Santa Maria","State":"CA","Zip":"93454"},{"Location":"UNION BANK 424","Address":"2340 S Broadway","City":"Santa Maria","State":"CA","Zip":"93454"},{"Location":"UNION PLAZA CORPORATION","Address":"120 N Broadway","City":"Santa Maria","State":"CA","Zip":"93454"},{"Location":"US FOREST SERVICE LOS PADRES","Address":"1616 Carlotti Dr","City":"Santa Maria","State":"CA","Zip":"93454"},{"Location":"V S Z ASIAN MARKET","Address":"105 E Mill St A","City":"Santa Maria","State":"CA","Zip":"93454"},{"Location":"VALLARTA SUPERMARKET #31","Address":"1875 N Broadway","City":"Santa Maria","State":"CA","Zip":"93454"},{"Location":"VALLEY PACIFIC PETROLEUM","Address":"1155 E Betteravia Rd","City":"Santa Maria","State":"CA","Zip":"93454"},{"Location":"WINGSTOP","Address":"560 E Betteravia Rd D","City":"Santa Maria","State":"CA","Zip":"93454"},{"Location":"YANAGI SANTA MARIA","Address":"2431 S Broadway","City":"Santa Maria","State":"CA","Zip":"93454"}]