[{"Location":"BELLA MIA SALON","Address":"1050 Edison St Steb","City":"Santa Ynez","State":"CA","Zip":"93460"},{"Location":"BROTHERS RESTAURANT","Address":"3539 Sagunto St","City":"Santa Ynez","State":"CA","Zip":"93460"},{"Location":"CHUMASH CASINO RESORT","Address":"3400 E Highway 246","City":"Santa Ynez","State":"CA","Zip":"93460"},{"Location":"COLONIAL GREENE TRUST","Address":"1470 Count Fleet St","City":"Santa Ynez","State":"CA","Zip":"93460"},{"Location":"COLONY CAPITAL","Address":"5050 Happy Canyon Rd","City":"Santa Ynez","State":"CA","Zip":"93460"},{"Location":"DOS CARLITOS","Address":"3544 Sagunto St","City":"Santa Ynez","State":"CA","Zip":"93460"},{"Location":"ELKS CLUB","Address":"1095 Meadowdale Rd","City":"Santa Ynez","State":"CA","Zip":"93460"},{"Location":"EXECUTIVE SEARCH AND PLACEMENT","Address":"1095 Meadowvile Rd  #c","City":"Santa Ynez","State":"CA","Zip":"93460"},{"Location":"GRASSINI FAMILY VINEYARDS","Address":"5775 Genuine Risk Rd","City":"Santa Ynez","State":"CA","Zip":"93460"},{"Location":"MAVRICK SALOON","Address":"3687 Sagunto St","City":"Santa Ynez","State":"CA","Zip":"93460"},{"Location":"NEWTON GALLERY","Address":"3568 Sagunto St G","City":"Santa Ynez","State":"CA","Zip":"93460"},{"Location":"RANCH & REATA","Address":"3569 Sagunto St 101","City":"Santa Ynez","State":"CA","Zip":"93460"},{"Location":"RIGHTLEFT LLC","Address":"1395 Count Fleet St","City":"Santa Ynez","State":"CA","Zip":"93460"},{"Location":"SANTA BARBARA COUNTY SHERRIF","Address":"900 Airport Rd G9","City":"Santa Ynez","State":"CA","Zip":"93460"},{"Location":"SANTA COTA MARKET.","Address":"3570 Sagunto St","City":"Santa Ynez","State":"CA","Zip":"93460"},{"Location":"STAG CANYON LLC","Address":"2425 Stag Canyon Rd","City":"Santa Ynez","State":"CA","Zip":"93460"},{"Location":"US FORREST SERVICES","Address":"910 Airport Rd","City":"Santa Ynez","State":"CA","Zip":"93460"},{"Location":"VINEOAKS LLC","Address":"3010 Roblar Ave","City":"Santa Ynez","State":"CA","Zip":"93460"}]