[{"Location":"ARMSTRONG VINEYARDS INC","Address":"7505 York Mountain Rd","City":"Templeton","State":"CA","Zip":"93465"},{"Location":"BEYON SPEECH THERAPY","Address":"225 Posada Ln Sted","City":"Templeton","State":"CA","Zip":"93465"},{"Location":"CHP TEMPLETON AREA","Address":"101 Duncan Rd","City":"Templeton","State":"CA","Zip":"93465"},{"Location":"DAVITA #5602 TEMPLETON","Address":"1310 Las Tablas Rd 101","City":"Templeton","State":"CA","Zip":"93465"},{"Location":"MERIDIAN PACIFIC","Address":"212 S Main St 206","City":"Templeton","State":"CA","Zip":"93465"},{"Location":"MR PICKLES SANDWICH SHOP 2","Address":"1121 Rossi Rd B","City":"Templeton","State":"CA","Zip":"93465"},{"Location":"PASO ROBLES 2","Address":"1735 Las Tablas Rd","City":"Templeton","State":"CA","Zip":"93465"},{"Location":"PIER 46 SEAFOOD","Address":"1131 Rossi Rd","City":"Templeton","State":"CA","Zip":"93465"},{"Location":"TEMPLETON TENNIS RANCH","Address":"345 Championship Lane","City":"Templeton","State":"CA","Zip":"93465"},{"Location":"ARMSTRONG VINEYARDS INC","Address":"7505 York Mountain Rd","City":"Templeton","State":"CA","Zip":"93465"},{"Location":"CHP TEMPLETON AREA","Address":"101 Duncan Rd","City":"Templeton","State":"CA","Zip":"93465"},{"Location":"DAVITA #5602 TEMPLETON","Address":"1310 Las Tablas Rd 101","City":"Templeton","State":"CA","Zip":"93465"},{"Location":"MERIDIAN PACIFIC","Address":"212 S Main St 206","City":"Templeton","State":"CA","Zip":"93465"},{"Location":"MR PICKLES SANDWICH SHOP 2","Address":"1121 Rossi Rd B","City":"Templeton","State":"CA","Zip":"93465"},{"Location":"PASO ROBLES 2","Address":"1735 Las Tablas Rd","City":"Templeton","State":"CA","Zip":"93465"},{"Location":"PIER 46 SEAFOOD","Address":"1131 Rossi Rd","City":"Templeton","State":"CA","Zip":"93465"},{"Location":"TEMPLETON TENNIS RANCH","Address":"345 Championship Lane","City":"Templeton","State":"CA","Zip":"93465"}]