[{"Location":"C AND R IMPORTS","Address":"1525 Mission Dr","City":"Solvang","State":"CA","Zip":"93463"},{"Location":"CHOMP","Address":"1693 Mission Dr","City":"Solvang","State":"CA","Zip":"93463"},{"Location":"COUNTRY CUTS","Address":"1673 Fir Ave","City":"Solvang","State":"CA","Zip":"93463"},{"Location":"DESIGNS IN GOLD","Address":"1640 Copenhagen Dr","City":"Solvang","State":"CA","Zip":"93463"},{"Location":"DOWNEYS","Address":"1691 Copenhagen Dr","City":"Solvang","State":"CA","Zip":"93463"},{"Location":"DUGAN THERAPY & FITNESS","Address":"1980 Old Mission Dr C1","City":"Solvang","State":"CA","Zip":"93463"},{"Location":"ESAU COMPANY","Address":"1701 Ballard Cyn","City":"Solvang","State":"CA","Zip":"93463"},{"Location":"FAMILY  COATS OF ARMS","Address":"473 Atterdag Rd A","City":"Solvang","State":"CA","Zip":"93463"},{"Location":"GIOVANNIS PIZZERIA","Address":"1988 Old Mission Dr A","City":"Solvang","State":"CA","Zip":"93463"},{"Location":"JUST LEDLIGHTS","Address":"1210 Mission Dr 2a","City":"Solvang","State":"CA","Zip":"93463"},{"Location":"L AND J CIGARS","Address":"448 Alisal Rd","City":"Solvang","State":"CA","Zip":"93463"},{"Location":"MONTECITO BANK AND TRUST","Address":"591 Alamo Pintado Rd","City":"Solvang","State":"CA","Zip":"93463"},{"Location":"ROOT 246 RESTAURANT","Address":"420 Alisal Rd","City":"Solvang","State":"CA","Zip":"93463"},{"Location":"SANTA YNEZ","Address":"1130 Mission Dr C","City":"Solvang","State":"CA","Zip":"93463"},{"Location":"SOLVANG BREWING CO","Address":"1547 Mission Dr","City":"Solvang","State":"CA","Zip":"93463"},{"Location":"SORT THIS OUT CELLARS","Address":"1636 Copenhagen Dr","City":"Solvang","State":"CA","Zip":"93463"},{"Location":"TOWER PIZZA","Address":"436 Alisal Rd C1d","City":"Solvang","State":"CA","Zip":"93463"},{"Location":"C AND R IMPORTS","Address":"1525 Mission Dr","City":"Solvang","State":"CA","Zip":"93463"},{"Location":"CHOMP","Address":"1693 Mission Dr","City":"Solvang","State":"CA","Zip":"93463"},{"Location":"COUNTRY CUTS","Address":"1673 Fir Ave","City":"Solvang","State":"CA","Zip":"93463"},{"Location":"DESIGNS IN GOLD","Address":"1640 Copenhagen Dr","City":"Solvang","State":"CA","Zip":"93463"},{"Location":"DOWNEYS","Address":"1691 Copenhagen Dr","City":"Solvang","State":"CA","Zip":"93463"},{"Location":"DUGAN THERAPY & FITNESS","Address":"1980 Old Mission Dr C1","City":"Solvang","State":"CA","Zip":"93463"},{"Location":"ESAU COMPANY","Address":"1701 Ballard Cyn","City":"Solvang","State":"CA","Zip":"93463"},{"Location":"FAMILY  COATS OF ARMS","Address":"473 Atterdag Rd A","City":"Solvang","State":"CA","Zip":"93463"},{"Location":"GIOVANNIS PIZZERIA","Address":"1988 Old Mission Dr A","City":"Solvang","State":"CA","Zip":"93463"},{"Location":"JUST LEDLIGHTS","Address":"1210 Mission Dr 2a","City":"Solvang","State":"CA","Zip":"93463"},{"Location":"L AND J CIGARS","Address":"448 Alisal Rd","City":"Solvang","State":"CA","Zip":"93463"},{"Location":"MONTECITO BANK AND TRUST","Address":"591 Alamo Pintado Rd","City":"Solvang","State":"CA","Zip":"93463"},{"Location":"ROOT 246 RESTAURANT","Address":"420 Alisal Rd","City":"Solvang","State":"CA","Zip":"93463"},{"Location":"SANTA YNEZ","Address":"1130 Mission Dr C","City":"Solvang","State":"CA","Zip":"93463"},{"Location":"SOLVANG BREWING CO","Address":"1547 Mission Dr","City":"Solvang","State":"CA","Zip":"93463"},{"Location":"SORT THIS OUT CELLARS","Address":"1636 Copenhagen Dr","City":"Solvang","State":"CA","Zip":"93463"},{"Location":"TOWER PIZZA","Address":"436 Alisal Rd C1d","City":"Solvang","State":"CA","Zip":"93463"}]