[{"Location":"BEST WESTERN INN SUITES","Address":"10386 California City Blvd","City":"California City","State":"CA","Zip":"93505"},{"Location":"CALIFORNIA SENIOR CTR 1","Address":"10221 Heather Ave","City":"California City","State":"CA","Zip":"93505"},{"Location":"CHLOES CAKES & BAKERY","Address":"8209 California City Blvd 106","City":"California City","State":"CA","Zip":"93505"},{"Location":"GLORIA'S MEXICAN RESTAURANT","Address":"7027 California City Blvd","City":"California City","State":"CA","Zip":"93505"},{"Location":"GLORIAS MEXICAN","Address":"7027 California City Blvd","City":"California City","State":"CA","Zip":"93505"},{"Location":"GREEN TEA GARDEN","Address":"8126 California City Blvd","City":"California City","State":"CA","Zip":"93505"},{"Location":"HALL AMBULANCE SERVICE INC 1","Address":"9236 California City Blvd","City":"California City","State":"CA","Zip":"93505"},{"Location":"SILVER SADDLE RANCH & CLUB","Address":"20751 Aristotle Dr","City":"California City","State":"CA","Zip":"93505"},{"Location":"SILVER SADDLE RANCH AND CLUB","Address":"19740 Remos Court","City":"California City","State":"CA","Zip":"93505"},{"Location":"SUPPORTIVE LIVING SRVS","Address":"8016 California City Blvd 13","City":"California City","State":"CA","Zip":"93505"},{"Location":"TOP 2 BOTTOM","Address":"8134 California City Blvd","City":"California City","State":"CA","Zip":"93505"},{"Location":"VET MOBILE SERVICES","Address":"8443 California City Blvd","City":"California City","State":"CA","Zip":"93505"},{"Location":"VFW NINE THREE SEVEN FIVE","Address":"21016 Neuralia Rd","City":"California City","State":"CA","Zip":"93505"},{"Location":"WINE TAP","Address":"8116 California City Blvd 103","City":"California City","State":"CA","Zip":"93505"}]