[{"Location":"AIR METHOD","Address":"1220 Flight Line","City":"Mojave","State":"CA","Zip":"93501"},{"Location":"CALIFORNIA HIGHWAY PATROL","Address":"1313 Business Route 58 E","City":"Mojave","State":"CA","Zip":"93501"},{"Location":"CASHE CREEK INSPECTION","Address":"5951 Hwy 58","City":"Mojave","State":"CA","Zip":"93501"},{"Location":"DENNYS RESTAURANT 2","Address":"16262 Sierra Hwy","City":"Mojave","State":"CA","Zip":"93501"},{"Location":"EL JEFE BAJA GRILL","Address":"15964 Sierra Hwy","City":"Mojave","State":"CA","Zip":"93501"},{"Location":"FLIGHT RESEARCH INC","Address":"1062 Flight Line 161","City":"Mojave","State":"CA","Zip":"93501"},{"Location":"HALL AMBULANCE SERVICES","Address":"1906 Belshaw St","City":"Mojave","State":"CA","Zip":"93501"},{"Location":"INCOTEC","Address":"1347 Poole St","City":"Mojave","State":"CA","Zip":"93501"},{"Location":"MARIAH COUNTRY INC","Address":"1385 Highway 58","City":"Mojave","State":"CA","Zip":"93501"},{"Location":"MOJAVE AIRPORT","Address":"1434 Flight Line","City":"Mojave","State":"CA","Zip":"93501"},{"Location":"MS TRANSPORT CORP","Address":"15200 Sierra Hwy","City":"Mojave","State":"CA","Zip":"93501"},{"Location":"NATIONAL TEST PILOT  SCHOOL","Address":"1030 Flight Line","City":"Mojave","State":"CA","Zip":"93501"},{"Location":"USC HOSPICE INC.","Address":"2314 Inyo St B","City":"Mojave","State":"CA","Zip":"93501"},{"Location":"AIR METHOD","Address":"1220 Flight Line","City":"Mojave","State":"CA","Zip":"93501"},{"Location":"CALIFORNIA HIGHWAY PATROL","Address":"1313 Business Route 58 E","City":"Mojave","State":"CA","Zip":"93501"},{"Location":"CASHE CREEK INSPECTION","Address":"5951 Hwy 58","City":"Mojave","State":"CA","Zip":"93501"},{"Location":"DENNYS RESTAURANT 2","Address":"16262 Sierra Hwy","City":"Mojave","State":"CA","Zip":"93501"},{"Location":"EL JEFE BAJA GRILL","Address":"15964 Sierra Hwy","City":"Mojave","State":"CA","Zip":"93501"},{"Location":"FLIGHT RESEARCH INC","Address":"1062 Flight Line 161","City":"Mojave","State":"CA","Zip":"93501"},{"Location":"HALL AMBULANCE SERVICES","Address":"1906 Belshaw St","City":"Mojave","State":"CA","Zip":"93501"},{"Location":"INCOTEC","Address":"1347 Poole St","City":"Mojave","State":"CA","Zip":"93501"},{"Location":"MARIAH COUNTRY INC","Address":"1385 Highway 58","City":"Mojave","State":"CA","Zip":"93501"},{"Location":"MOJAVE AIRPORT","Address":"1434 Flight Line","City":"Mojave","State":"CA","Zip":"93501"},{"Location":"MS TRANSPORT CORP","Address":"15200 Sierra Hwy","City":"Mojave","State":"CA","Zip":"93501"},{"Location":"NATIONAL TEST PILOT  SCHOOL","Address":"1030 Flight Line","City":"Mojave","State":"CA","Zip":"93501"},{"Location":"USC HOSPICE INC.","Address":"2314 Inyo St B","City":"Mojave","State":"CA","Zip":"93501"}]