[{"Location":"AARON SCHATS ROADHOUSE","Address":"871 N Main St","City":"Bishop","State":"CA","Zip":"93514"},{"Location":"ANHEUSER-BUSCH WHLSLR# 50407","Address":"647 N Main St","City":"Bishop","State":"CA","Zip":"93514"},{"Location":"ASTORGA","Address":"2206 N Sierra Hwy","City":"Bishop","State":"CA","Zip":"93514"},{"Location":"BACK ALLEY BOWL","Address":"649 N Main St","City":"Bishop","State":"CA","Zip":"93514"},{"Location":"BISHOP FORD","Address":"1440 Us Highway 6","City":"Bishop","State":"CA","Zip":"93514"},{"Location":"CHALFANT","Address":"4750 Highway 6","City":"Bishop","State":"CA","Zip":"93514"},{"Location":"DENNYS RESTAURANT","Address":"1014 N Main St","City":"Bishop","State":"CA","Zip":"93514"},{"Location":"ELKS LODGE #1603","Address":"151 E Line St","City":"Bishop","State":"CA","Zip":"93514"},{"Location":"HING DONUTS","Address":"905 N Main St B","City":"Bishop","State":"CA","Zip":"93514"},{"Location":"MAIN STREET BARBER SHOP","Address":"234 N Main St","City":"Bishop","State":"CA","Zip":"93514"},{"Location":"MC MURRAYS","Address":"175 N Main St","City":"Bishop","State":"CA","Zip":"93514"},{"Location":"NITEOWL","Address":"209 Lawz Frontage Road","City":"Bishop","State":"CA","Zip":"93514"},{"Location":"OUR LADY PERPETUAL HELP","Address":"849 Home St","City":"Bishop","State":"CA","Zip":"93514"},{"Location":"OUR WATER WORKS CAR WASH","Address":"989 N Main St","City":"Bishop","State":"CA","Zip":"93514"},{"Location":"OVERHEAD DOORS","Address":"2278 N Sierra Hwy D","City":"Bishop","State":"CA","Zip":"93514"},{"Location":"OWENS VLY CAMP","Address":"2781 S Round Valley Rd","City":"Bishop","State":"CA","Zip":"93514"},{"Location":"PAIUTE PALACE CASINO","Address":"2742 N Sierra Hwy","City":"Bishop","State":"CA","Zip":"93514"},{"Location":"PERRY MOTORS","Address":"310 S Main St","City":"Bishop","State":"CA","Zip":"93514"},{"Location":"PIZZA 395","Address":"1339 Rocking W Dr","City":"Bishop","State":"CA","Zip":"93514"},{"Location":"PIZZA FACTORY BISHOP","Address":"970 N Main St","City":"Bishop","State":"CA","Zip":"93514"},{"Location":"ROLLINS ELECTRIC","Address":"177 Short St F","City":"Bishop","State":"CA","Zip":"93514"},{"Location":"RUSTY'S SALOON AND GRILL","Address":"112 N Main St","City":"Bishop","State":"CA","Zip":"93514"},{"Location":"SAGE","Address":"621 W Line St","City":"Bishop","State":"CA","Zip":"93514"},{"Location":"SIMPSON TIRE","Address":"1264 N Main St","City":"Bishop","State":"CA","Zip":"93514"},{"Location":"STERLING HTS","Address":"369 E Pine St","City":"Bishop","State":"CA","Zip":"93514"},{"Location":"TAQUERIA LAS PALMAS","Address":"136 E Line St","City":"Bishop","State":"CA","Zip":"93514"},{"Location":"THE PAIUTE PALACE","Address":"2742 N Sierra Hwy","City":"Bishop","State":"CA","Zip":"93514"},{"Location":"VFW","Address":"484 Short St","City":"Bishop","State":"CA","Zip":"93514"},{"Location":"YAMATANI JAPANESE RESTAURANT","Address":"635 N Main St","City":"Bishop","State":"CA","Zip":"93514"},{"Location":"GOMEZ'S RESTAURANT & CANTINA","Address":"100 Canyond Blvd 225","City":"Mammoth Lakes","State":"CA","Zip":"93514"},{"Location":"AARON SCHATS ROADHOUSE","Address":"871 N Main St","City":"Bishop","State":"CA","Zip":"93514"},{"Location":"ANHEUSER-BUSCH WHLSLR# 50407","Address":"647 N Main St","City":"Bishop","State":"CA","Zip":"93514"},{"Location":"ASTORGA","Address":"2206 N Sierra Hwy","City":"Bishop","State":"CA","Zip":"93514"},{"Location":"BACK ALLEY BOWL","Address":"649 N Main St","City":"Bishop","State":"CA","Zip":"93514"},{"Location":"BISHOP FORD","Address":"1440 Us Highway 6","City":"Bishop","State":"CA","Zip":"93514"},{"Location":"CHALFANT","Address":"4750 Highway 6","City":"Bishop","State":"CA","Zip":"93514"},{"Location":"DENNYS RESTAURANT","Address":"1014 N Main St","City":"Bishop","State":"CA","Zip":"93514"},{"Location":"ELKS LODGE #1603","Address":"151 E Line St","City":"Bishop","State":"CA","Zip":"93514"},{"Location":"HING DONUTS","Address":"905 N Main St B","City":"Bishop","State":"CA","Zip":"93514"},{"Location":"MAIN STREET BARBER SHOP","Address":"234 N Main St","City":"Bishop","State":"CA","Zip":"93514"},{"Location":"MC MURRAYS","Address":"175 N Main St","City":"Bishop","State":"CA","Zip":"93514"},{"Location":"NITEOWL","Address":"209 Lawz Frontage Road","City":"Bishop","State":"CA","Zip":"93514"},{"Location":"OUR LADY PERPETUAL HELP","Address":"849 Home St","City":"Bishop","State":"CA","Zip":"93514"},{"Location":"OUR WATER WORKS CAR WASH","Address":"989 N Main St","City":"Bishop","State":"CA","Zip":"93514"},{"Location":"OVERHEAD DOORS","Address":"2278 N Sierra Hwy D","City":"Bishop","State":"CA","Zip":"93514"},{"Location":"OWENS VLY CAMP","Address":"2781 S Round Valley Rd","City":"Bishop","State":"CA","Zip":"93514"},{"Location":"PAIUTE PALACE CASINO","Address":"2742 N Sierra Hwy","City":"Bishop","State":"CA","Zip":"93514"},{"Location":"PERRY MOTORS","Address":"310 S Main St","City":"Bishop","State":"CA","Zip":"93514"},{"Location":"PIZZA 395","Address":"1339 Rocking W Dr","City":"Bishop","State":"CA","Zip":"93514"},{"Location":"PIZZA FACTORY BISHOP","Address":"970 N Main St","City":"Bishop","State":"CA","Zip":"93514"},{"Location":"ROLLINS ELECTRIC","Address":"177 Short St F","City":"Bishop","State":"CA","Zip":"93514"},{"Location":"RUSTY'S SALOON AND GRILL","Address":"112 N Main St","City":"Bishop","State":"CA","Zip":"93514"},{"Location":"SAGE","Address":"621 W Line St","City":"Bishop","State":"CA","Zip":"93514"},{"Location":"SIMPSON TIRE","Address":"1264 N Main St","City":"Bishop","State":"CA","Zip":"93514"},{"Location":"STERLING HTS","Address":"369 E Pine St","City":"Bishop","State":"CA","Zip":"93514"},{"Location":"TAQUERIA LAS PALMAS","Address":"136 E Line St","City":"Bishop","State":"CA","Zip":"93514"},{"Location":"THE PAIUTE PALACE","Address":"2742 N Sierra Hwy","City":"Bishop","State":"CA","Zip":"93514"},{"Location":"VFW","Address":"484 Short St","City":"Bishop","State":"CA","Zip":"93514"},{"Location":"YAMATANI JAPANESE RESTAURANT","Address":"635 N Main St","City":"Bishop","State":"CA","Zip":"93514"},{"Location":"GOMEZ'S RESTAURANT & CANTINA","Address":"100 Canyond Blvd 225","City":"Mammoth Lakes","State":"CA","Zip":"93514"}]