[{"Location":"BORON POST 636","Address":"27000 Twenty Mule Team Rd","City":"Boron","State":"CA","Zip":"93516"},{"Location":"CLEAN ENERGY CALIFORNIA LNG","Address":"14436 Contractor Rd","City":"Boron","State":"CA","Zip":"93516"},{"Location":"DOMINGOS MEXICAN &","Address":"27075 Twenty Mule Team Rd","City":"Boron","State":"CA","Zip":"93516"},{"Location":"HALL AMBULANCE SERVICES","Address":"12665 Boron Ave","City":"Boron","State":"CA","Zip":"93516"},{"Location":"PILOT FLYING J 020000","Address":"5725 E State Highway 58","City":"Boron","State":"CA","Zip":"93516"},{"Location":"ROADHOUSE RESTAURANT & BAKERY","Address":"6158a Hwy 58 Kramer Junction","City":"Boron","State":"CA","Zip":"93516"},{"Location":"VFW POST 6313","Address":"13101 N Boron Ave","City":"Boron","State":"CA","Zip":"93516"},{"Location":"BORON POST 636","Address":"27000 Twenty Mule Team Rd","City":"Boron","State":"CA","Zip":"93516"},{"Location":"CLEAN ENERGY CALIFORNIA LNG","Address":"14436 Contractor Rd","City":"Boron","State":"CA","Zip":"93516"},{"Location":"DOMINGOS MEXICAN &","Address":"27075 Twenty Mule Team Rd","City":"Boron","State":"CA","Zip":"93516"},{"Location":"HALL AMBULANCE SERVICES","Address":"12665 Boron Ave","City":"Boron","State":"CA","Zip":"93516"},{"Location":"ROADHOUSE RESTAURANT & BAKERY","Address":"6158a Hwy 58 Kramer Junction","City":"Boron","State":"CA","Zip":"93516"},{"Location":"VFW POST 6313","Address":"13101 N Boron Ave","City":"Boron","State":"CA","Zip":"93516"}]