[{"Location":"49ER BAR & GRILL","Address":"31908 Crown Valley Rd","City":"Acton","State":"CA","Zip":"93510"},{"Location":"ACTON CAMP","Address":"8800 Soledad Canyon Rd","City":"Acton","State":"CA","Zip":"93510"},{"Location":"ACTON SEVENTY SIX","Address":"3807 Sierra Hwy","City":"Acton","State":"CA","Zip":"93510"},{"Location":"ALL VALLEY RV CENTER INC","Address":"1525 Sierra Hwy","City":"Acton","State":"CA","Zip":"93510"},{"Location":"ANIMALS ARE PEOPLE TOO","Address":"2670 Trails End Rd","City":"Acton","State":"CA","Zip":"93510"},{"Location":"CORINNAS BARBER SHOP","Address":"3630 Smith Ave B","City":"Acton","State":"CA","Zip":"93510"},{"Location":"ISCO MACHINERY","Address":"4796 Sierra Hwy","City":"Acton","State":"CA","Zip":"93510"},{"Location":"LA CABANA RESTAURANT","Address":"2370 Soledad Canyon Rd","City":"Acton","State":"CA","Zip":"93510"},{"Location":"MISO SUSHI","Address":"3720 Sierra Hwy","City":"Acton","State":"CA","Zip":"93510"},{"Location":"PAWS OF THE EARTH PROD LLC","Address":"32220 Cedarcroft Rd","City":"Acton","State":"CA","Zip":"93510"},{"Location":"RICHARD PAULS LLC","Address":"3807 Sierra Hwy 1","City":"Acton","State":"CA","Zip":"93510"},{"Location":"USDA FOREST SERVICE","Address":"33708 Crown Valley Rd","City":"Acton","State":"CA","Zip":"93510"},{"Location":"49ER BAR & GRILL","Address":"31908 Crown Valley Rd","City":"Acton","State":"CA","Zip":"93510"},{"Location":"ACTON CAMP","Address":"8800 Soledad Canyon Rd","City":"Acton","State":"CA","Zip":"93510"},{"Location":"ACTON SEVENTY SIX","Address":"3807 Sierra Hwy","City":"Acton","State":"CA","Zip":"93510"},{"Location":"ALL VALLEY RV CENTER INC","Address":"1525 Sierra Hwy","City":"Acton","State":"CA","Zip":"93510"},{"Location":"ANIMALS ARE PEOPLE TOO","Address":"2670 Trails End Rd","City":"Acton","State":"CA","Zip":"93510"},{"Location":"CORINNAS BARBER SHOP","Address":"3630 Smith Ave B","City":"Acton","State":"CA","Zip":"93510"},{"Location":"ISCO MACHINERY","Address":"4796 Sierra Hwy","City":"Acton","State":"CA","Zip":"93510"},{"Location":"LA CABANA RESTAURANT","Address":"2370 Soledad Canyon Rd","City":"Acton","State":"CA","Zip":"93510"},{"Location":"MISO SUSHI","Address":"3720 Sierra Hwy","City":"Acton","State":"CA","Zip":"93510"},{"Location":"PAWS OF THE EARTH PROD LLC","Address":"32220 Cedarcroft Rd","City":"Acton","State":"CA","Zip":"93510"},{"Location":"RICHARD PAULS LLC","Address":"3807 Sierra Hwy 1","City":"Acton","State":"CA","Zip":"93510"},{"Location":"USDA FOREST SERVICE","Address":"33708 Crown Valley Rd","City":"Acton","State":"CA","Zip":"93510"}]