[{"Location":"RHINO'S BAR AND GRILL","Address":"226 Main St","City":"Bridgemont","State":"CA","Zip":"93517"},{"Location":"AMERIFLEX","Address":"62 Matterhorn Dr","City":"Bridgeport","State":"CA","Zip":"93517"},{"Location":"BIG MEADOW LODGE","Address":"74878 Us Hwy 395","City":"Bridgeport","State":"CA","Zip":"93517"},{"Location":"J ON THE CORNER","Address":"241 Main St","City":"Bridgeport","State":"CA","Zip":"93517"},{"Location":"MARINE CORPS MWTC","Address":"Hc 83","City":"Bridgeport","State":"CA","Zip":"93517"},{"Location":"MCCS SMP","Address":"2002 Toiyabe","City":"Bridgeport","State":"CA","Zip":"93517"},{"Location":"MCMWTC BUILDING 2001","Address":"Mcmwtc Hc Building 2001","City":"Bridgeport","State":"CA","Zip":"93517"},{"Location":"MCMWTC BUILDING 7047","Address":"Mcmwtc Hc 83 Building 7047","City":"Bridgeport","State":"CA","Zip":"93517"},{"Location":"MONO COUNTY SHERIFFS DEPT","Address":"100 Bryant St","City":"Bridgeport","State":"CA","Zip":"93517"},{"Location":"MWTC POLICE DEPARTMENT","Address":"Mcmwtc Building 4060","City":"Bridgeport","State":"CA","Zip":"93517"},{"Location":"USMC MWTC FITNESS CENTER","Address":"Bldg 4049 Fitness Center","City":"Bridgeport","State":"CA","Zip":"93517"},{"Location":"VIRGINIA CREEK SETTLEMENT","Address":"70847 Hwy 395","City":"Bridgeport","State":"CA","Zip":"93517"},{"Location":"WALKER RIVER LODGE","Address":"100 Main St","City":"Bridgeport","State":"CA","Zip":"93517"}]