[{"Location":"BERNARDINOS RESTAURANT","Address":"6601 Inyokern Rd","City":"Inyokern","State":"CA","Zip":"93527"},{"Location":"FIVE FINGERS PUB","Address":"6537 W Inyokern","City":"Inyokern","State":"CA","Zip":"93527"},{"Location":"KERN FIRE DEPT","Address":"6919 Monache Mountain Ave","City":"Inyokern","State":"CA","Zip":"93527"},{"Location":"MAYFAIR MOTEL II","Address":"1352 2nd St","City":"Inyokern","State":"CA","Zip":"93527"},{"Location":"PROGESSIVE AMBULANCE INC","Address":"6509 Sunset Ave","City":"Inyokern","State":"CA","Zip":"93527"},{"Location":"TSA INDIAN WELLS VALLEY AIRPOR","Address":"1669 Airport Rd","City":"Inyorken","State":"CA","Zip":"93527"},{"Location":"BERNARDINOS RESTAURANT","Address":"6601 Inyokern Rd","City":"Inyokern","State":"CA","Zip":"93527"},{"Location":"FIVE FINGERS PUB","Address":"6537 W Inyokern","City":"Inyokern","State":"CA","Zip":"93527"},{"Location":"KERN FIRE DEPT","Address":"6919 Monache Mountain Ave","City":"Inyokern","State":"CA","Zip":"93527"},{"Location":"MAYFAIR MOTEL II","Address":"1352 2nd St","City":"Inyokern","State":"CA","Zip":"93527"},{"Location":"PROGESSIVE AMBULANCE INC","Address":"6509 Sunset Ave","City":"Inyokern","State":"CA","Zip":"93527"},{"Location":"TSA INDIAN WELLS VALLEY AIRPOR","Address":"1669 Airport Rd","City":"Inyorken","State":"CA","Zip":"93527"}]