[{"Location":"412 OSS","Address":"15     N  Flightline Rd","City":"Edwards","State":"CA","Zip":"93524"},{"Location":"416 FLTS","Address":"118 N Wolfe Ave","City":"Edwards","State":"CA","Zip":"93524"},{"Location":"418 TH FLTS 2","Address":"35 N Flightline Rd","City":"Edwards","State":"CA","Zip":"93524"},{"Location":"418TH FLTS%2FCCB%2CDOD","Address":"35 N Flightline Rd 1623","City":"Edwards","State":"CA","Zip":"93524"},{"Location":"95 CONS%2FPKC-FA 9301","Address":"5 S Wolfe Ave","City":"Edwards","State":"CA","Zip":"93524"},{"Location":"APRIL CARGER SP","Address":"44138 10th St W 1b","City":"Edwards","State":"CA","Zip":"93524"},{"Location":"BURGER KING","Address":"240 W Fitzgerald Blvd 6006","City":"Edwards","State":"CA","Zip":"93524"},{"Location":"CLUB MUROC","Address":"275 Doolittle Pkwy","City":"Edwards","State":"CA","Zip":"93524"},{"Location":"EDWARD AFB FIRE DEPT (STA 3)","Address":"301 Jones Rd B250","City":"Edwards","State":"CA","Zip":"93524"},{"Location":"EDWARDS AFB FIRE DEPT STA 5","Address":"81 N Base Rd","City":"Edwards","State":"CA","Zip":"93524"},{"Location":"EDWARDS AIR FORCE BASE","Address":"130 W Popson Ave","City":"Edwards","State":"CA","Zip":"93524"},{"Location":"EDWARDS AIRFORCE BASE","Address":"120 E Jones Rd","City":"Edwards","State":"CA","Zip":"93524"},{"Location":"EDWARDS AIRFORCE BASE","Address":"52222 Famcamp Dr","City":"Edwards","State":"CA","Zip":"93524"},{"Location":"EDWARDS MAIN EXCHANGE AAFES","Address":"240 W Fitzgerald Blvd 6001","City":"Edwards","State":"CA","Zip":"93524"},{"Location":"MUROCK LAKE GOLF COURSE","Address":"111 Cross Fld 5611","City":"Edwards","State":"CA","Zip":"93524"},{"Location":"NORTH BASE","Address":"90 N Base Rd","City":"Edwards","State":"CA","Zip":"93524"},{"Location":"US AIR FORCE   95MSG-LGR","Address":"2430 Edwards Afbsouth Mur 2430","City":"Edwards","State":"CA","Zip":"93524"},{"Location":"US AIR FORCE RESEARCH","Address":"2 Draco Dr 8352","City":"Edwards","State":"CA","Zip":"93524"},{"Location":"EDWARDS AFB","Address":"187 N Flightline Rd 1810","City":"Edwards Afb","State":"CA","Zip":"93524"},{"Location":"FIRESTONE 752650","Address":"395 Fitzgerald Blvd B5232","City":"Edwards Afb","State":"CA","Zip":"93524"},{"Location":"812 CES-CEXX","Address":"105 E Yeager Blvd","City":"Edwards Air Force Base","State":"CA","Zip":"93524"},{"Location":"95ABW%2FCEOSM","Address":"117 E Canis St 8407","City":"Edwards Air Force Base","State":"CA","Zip":"93524"},{"Location":"EDWARD AIRFORCE BASE GUN CLUB","Address":"210 Adams Way","City":"Edwards Air Force Base","State":"CA","Zip":"93524"},{"Location":"412 OSS","Address":"15     N  Flightline Rd","City":"Edwards","State":"CA","Zip":"93524"},{"Location":"416 FLTS","Address":"118 N Wolfe Ave","City":"Edwards","State":"CA","Zip":"93524"},{"Location":"418TH FLTS%2FCCB%2CDOD","Address":"35 N Flightline Rd 1623","City":"Edwards","State":"CA","Zip":"93524"},{"Location":"95 CONS%2FPKC-FA 9301","Address":"5 S Wolfe Ave","City":"Edwards","State":"CA","Zip":"93524"},{"Location":"APRIL CARGER SP","Address":"44138 10th St W 1b","City":"Edwards","State":"CA","Zip":"93524"},{"Location":"BURGER KING","Address":"240 W Fitzgerald Blvd 6006","City":"Edwards","State":"CA","Zip":"93524"},{"Location":"CLUB MUROC","Address":"275 Doolittle Pkwy","City":"Edwards","State":"CA","Zip":"93524"},{"Location":"EDWARD AFB FIRE DEPT (STA 3)","Address":"301 Jones Rd B250","City":"Edwards","State":"CA","Zip":"93524"},{"Location":"EDWARDS AFB FIRE DEPT STA 5","Address":"81 N Base Rd","City":"Edwards","State":"CA","Zip":"93524"},{"Location":"EDWARDS AIR FORCE BASE","Address":"130 W Popson Ave","City":"Edwards","State":"CA","Zip":"93524"},{"Location":"EDWARDS AIRFORCE BASE","Address":"120 E Jones Rd","City":"Edwards","State":"CA","Zip":"93524"},{"Location":"EDWARDS AIRFORCE BASE","Address":"52222 Famcamp Dr","City":"Edwards","State":"CA","Zip":"93524"},{"Location":"EDWARDS MAIN EXCHANGE AAFES","Address":"240 W Fitzgerald Blvd 6001","City":"Edwards","State":"CA","Zip":"93524"},{"Location":"MUROCK LAKE GOLF COURSE","Address":"111 Cross Fld 5611","City":"Edwards","State":"CA","Zip":"93524"},{"Location":"NORTH BASE","Address":"90 N Base Rd","City":"Edwards","State":"CA","Zip":"93524"},{"Location":"US AIR FORCE   95MSG-LGR","Address":"2430 Edwards Afbsouth Mur 2430","City":"Edwards","State":"CA","Zip":"93524"},{"Location":"US AIR FORCE RESEARCH","Address":"2 Draco Dr 8352","City":"Edwards","State":"CA","Zip":"93524"},{"Location":"EDWARDS AFB","Address":"187 N Flightline Rd 1810","City":"Edwards Afb","State":"CA","Zip":"93524"},{"Location":"FIRESTONE 752650","Address":"395 Fitzgerald Blvd B5232","City":"Edwards Afb","State":"CA","Zip":"93524"},{"Location":"812 CES-CEXX","Address":"105 E Yeager Blvd","City":"Edwards Air Force Base","State":"CA","Zip":"93524"},{"Location":"95ABW%2FCEOSM","Address":"117 E Canis St 8407","City":"Edwards Air Force Base","State":"CA","Zip":"93524"},{"Location":"EDWARD AIRFORCE BASE GUN CLUB","Address":"210 Adams Way","City":"Edwards Air Force Base","State":"CA","Zip":"93524"}]