[{"Location":"1 NAILS","Address":"4015 W Avenue L","City":"Lancaster","State":"CA","Zip":"93536"},{"Location":"20%2F20 HOOKAH","Address":"42815 30th St W 113","City":"Lancaster","State":"CA","Zip":"93536"},{"Location":"AMERICAN AIRPORT'S CORPORATION","Address":"4555 W Avenue G 1","City":"Lancaster","State":"CA","Zip":"93536"},{"Location":"AMERICAN MEDICAL RESPONSE 50TH","Address":"41955 50th St W 102","City":"Lancaster","State":"CA","Zip":"93536"},{"Location":"ANTELOPE VALLEY FAIR","Address":"2551 West Ave H 102","City":"Lancaster","State":"CA","Zip":"93536"},{"Location":"ANTELOPE VALLEY SURGICAL INSTI","Address":"44830 Valley Central Way 110","City":"Lancaster","State":"CA","Zip":"93536"},{"Location":"ARENA MOBILE HOME SALES","Address":"41969 50th St W","City":"Lancaster","State":"CA","Zip":"93536"},{"Location":"ATLANTIS VENTURES","Address":"8845 W Avenue E C2","City":"Lancaster","State":"CA","Zip":"93536"},{"Location":"AZTECA MEX. RESTAURANT","Address":"47904 90th St W","City":"Lancaster","State":"CA","Zip":"93536"},{"Location":"BEAUTY NAILS","Address":"42815 30th St W","City":"Lancaster","State":"CA","Zip":"93536"},{"Location":"BENEDICTO CASTILLO","Address":"3244 Ashton Pl","City":"Lancaster","State":"CA","Zip":"93536"},{"Location":"CALIF. DEPT OF VETERANS AFFAIR","Address":"45221 30th St W","City":"Lancaster","State":"CA","Zip":"93536"},{"Location":"CHALLEGER YOUTH BLDG 2","Address":"5300 W Avenue I","City":"Lancaster","State":"CA","Zip":"93536"},{"Location":"CHALLENGER YOUTH BLDG 1","Address":"5300 W Avenue I","City":"Lancaster","State":"CA","Zip":"93536"},{"Location":"CHALLENGER YOUTH BLDG 10","Address":"5300 W Avenue I","City":"Lancaster","State":"CA","Zip":"93536"},{"Location":"CHALLENGER YOUTH BLDG 11","Address":"5300 W Avenue I","City":"Lancaster","State":"CA","Zip":"93536"},{"Location":"CHALLENGER YOUTH BLDG 12","Address":"5300 W Avenue I","City":"Lancaster","State":"CA","Zip":"93536"},{"Location":"CHALLENGER YOUTH BLDG 3","Address":"5300 W Avenue I","City":"Lancaster","State":"CA","Zip":"93536"},{"Location":"CHALLENGER YOUTH BLDG 4","Address":"5300 W Avenue I","City":"Lancaster","State":"CA","Zip":"93536"},{"Location":"CHALLENGER YOUTH BLDG 5","Address":"5300 W Avenue I","City":"Lancaster","State":"CA","Zip":"93536"},{"Location":"CHALLENGER YOUTH BLDG 6","Address":"5300 W Avenue I","City":"Lancaster","State":"CA","Zip":"93536"},{"Location":"CHALLENGER YOUTH BLDG 7","Address":"5300 W Avenue I","City":"Lancaster","State":"CA","Zip":"93536"},{"Location":"CHALLENGER YOUTH BLDG 8","Address":"5300 W Avenue I","City":"Lancaster","State":"CA","Zip":"93536"},{"Location":"CHALLENGER YOUTH BLDG 9","Address":"5300 W Avenue I","City":"Lancaster","State":"CA","Zip":"93536"},{"Location":"CHARLIE LEE PSYCHIC READ","Address":"42127 50th St W","City":"Lancaster","State":"CA","Zip":"93536"},{"Location":"DAVI NAILS1","Address":"44665 Valley Central Way","City":"Lancaster","State":"CA","Zip":"93536"},{"Location":"DELUXE NAILS AND SPA","Address":"5037 W Avenue N","City":"Lancaster","State":"CA","Zip":"93536"},{"Location":"ECONO-LUBE&TUNE 4115","Address":"2101 W Avenue J","City":"Lancaster","State":"CA","Zip":"93536"},{"Location":"EVERGREEN HEALTH ALLIANCE","Address":"42335 50th St W 202","City":"Lancaster","State":"CA","Zip":"93536"},{"Location":"EXODUS AIR SERVICE","Address":"4555 W Avenue G 10","City":"Lancaster","State":"CA","Zip":"93536"},{"Location":"FMC 31040000","Address":"44950 Valley Central Way","City":"Lancaster","State":"CA","Zip":"93536"},{"Location":"FOXYS LANDING RESTAURANT","Address":"4555 W Avenue G 22","City":"Lancaster","State":"CA","Zip":"93536"},{"Location":"FUNPHONETIME LLC","Address":"2330 Mall Loop Rd 11","City":"Lancaster","State":"CA","Zip":"93536"},{"Location":"GRIFF INDUSTRIES INC","Address":"4515 Runway Dr","City":"Lancaster","State":"CA","Zip":"93536"},{"Location":"HAMPTON INN (0061505)","Address":"2300 Double Play Way","City":"Lancaster","State":"CA","Zip":"93536"},{"Location":"HAMPTON INN LANCASTER","Address":"2300 Double Play Way","City":"Lancaster","State":"CA","Zip":"93536"},{"Location":"HOMEWOOD LANCASTER","Address":"2320 Double Play Way","City":"Lancaster","State":"CA","Zip":"93536"},{"Location":"JULIANNIS ITALIAN RESTUA","Address":"44960 Valley Central Way","City":"Lancaster","State":"CA","Zip":"93536"},{"Location":"MAADARANI MOTORS","Address":"43712 47th St W","City":"Lancaster","State":"CA","Zip":"93536"},{"Location":"MARTINEZ BARBERSHOP","Address":"44768 Valley Central Way","City":"Lancaster","State":"CA","Zip":"93536"},{"Location":"MAZAZIK HOOKAH LOUNGE","Address":"44830 Valley Central Way","City":"Lancaster","State":"CA","Zip":"93536"},{"Location":"MEDRANOS","Address":"5037 W Avenue N 19","City":"Lancaster","State":"CA","Zip":"93536"},{"Location":"MH AVIATION","Address":"4555 W Avenue G 6","City":"Lancaster","State":"CA","Zip":"93536"},{"Location":"MONSTER FITNESS INC","Address":"44840 Valley Central Way 101","City":"Lancaster","State":"CA","Zip":"93536"},{"Location":"QUARTZ HILL AUTO CENTER INC","Address":"4332 W Avenue L","City":"Lancaster","State":"CA","Zip":"93536"},{"Location":"QUARTZ HILL TIRES","Address":"42254 50th St W","City":"Lancaster","State":"CA","Zip":"93536"},{"Location":"RANCHERITAS MEXICAN GRILL","Address":"44830 Valley Central Way","City":"Lancaster","State":"CA","Zip":"93536"},{"Location":"RIDERS CHOICE","Address":"2337 W Avenue I","City":"Lancaster","State":"CA","Zip":"93536"},{"Location":"RITE AID DISTRIBUTION","Address":"2801 W Avenue H","City":"Lancaster","State":"CA","Zip":"93536"},{"Location":"RODLOC SECURITY SYSTEMS","Address":"3038 W Avenue L","City":"Lancaster","State":"CA","Zip":"93536"},{"Location":"SANDYS COIN WASH","Address":"41929 50th St W","City":"Lancaster","State":"CA","Zip":"93536"},{"Location":"SANDYS COIN WASH","Address":"2863 W Avenue L","City":"Lancaster","State":"CA","Zip":"93536"},{"Location":"SATO  SUSHI","Address":"2801 W Avenue L","City":"Lancaster","State":"CA","Zip":"93536"},{"Location":"SCHOONERS","Address":"2797 W Avenue L","City":"Lancaster","State":"CA","Zip":"93536"},{"Location":"SCRAMBLEZ GRILLE&BAR","Address":"2715 W Avenue L","City":"Lancaster","State":"CA","Zip":"93536"},{"Location":"SMILE DENTAL","Address":"2014 W Avenue K","City":"Lancaster","State":"CA","Zip":"93536"},{"Location":"SPORT BAR AND GRILL","Address":"42142 50th St W","City":"Lancaster","State":"CA","Zip":"93536"},{"Location":"SUN NAIL AND TANNING","Address":"2025 W Avenue J Lancaster","City":"Lancaster","State":"CA","Zip":"93536"},{"Location":"SYGMA","Address":"46905 47th St W","City":"Lancaster","State":"CA","Zip":"93536"},{"Location":"TAQUERIA BERNARDINOS","Address":"2053 W Avenue J","City":"Lancaster","State":"CA","Zip":"93536"},{"Location":"TAURIAN BA LLC #1089","Address":"44690 Valley Central Way","City":"Lancaster","State":"CA","Zip":"93536"},{"Location":"TAYLOR MICHELLE SALON AND SPA","Address":"42001 50th St W","City":"Lancaster","State":"CA","Zip":"93536"},{"Location":"THE BARBER SHOP III","Address":"2723 W Avenue L","City":"Lancaster","State":"CA","Zip":"93536"},{"Location":"THE BROKEN BIT","Address":"41955 50th St W","City":"Lancaster","State":"CA","Zip":"93536"},{"Location":"THE BUZZ STOP","Address":"4523 W Avenue L","City":"Lancaster","State":"CA","Zip":"93536"},{"Location":"THE SILVER SPUR","Address":"5049 W Avenue M","City":"Lancaster","State":"CA","Zip":"93536"},{"Location":"THE SYGMA NETWORK","Address":"46905 47th St W","City":"Lancaster","State":"CA","Zip":"93536"},{"Location":"TORTILLA GRILL2","Address":"42815 30th St W 103","City":"Lancaster","State":"CA","Zip":"93536"},{"Location":"TOWNEPLACE LANCASTER","Address":"2024 W Avenue J8","City":"Lancaster","State":"CA","Zip":"93536"},{"Location":"US FOREST SERVICE","Address":"4503 W William Barnes","City":"Lancaster","State":"CA","Zip":"93536"},{"Location":"US FOREST SERVICE","Address":"4503 W Wm Barnes Ave","City":"Lancaster","State":"CA","Zip":"93536"},{"Location":"US FOREST SERVICE-FOXFIELD","Address":"4503 W William Barnes Ave","City":"Lancaster","State":"CA","Zip":"93536"},{"Location":"VINCES PASTA AND PIZZA","Address":"2833 W Avenue L","City":"Lancaster","State":"CA","Zip":"93536"},{"Location":"FOXYS SOUTHWESTERN STEAK","Address":"46645 60 West St","City":"Los Angeles","State":"CA","Zip":"93536"},{"Location":"CAL BANK & TRUST QUARTZ","Address":"42024 50th St W","City":"Quartz Hill","State":"CA","Zip":"93536"},{"Location":"1 NAILS","Address":"4015 W Avenue L","City":"Lancaster","State":"CA","Zip":"93536"},{"Location":"20%2F20 HOOKAH","Address":"42815 30th St W 113","City":"Lancaster","State":"CA","Zip":"93536"},{"Location":"AMERICAN AIRPORT'S CORPORATION","Address":"4555 W Avenue G 1","City":"Lancaster","State":"CA","Zip":"93536"},{"Location":"AMERICAN MEDICAL RESPONSE 50TH","Address":"41955 50th St W 102","City":"Lancaster","State":"CA","Zip":"93536"},{"Location":"ANTELOPE VALLEY FAIR","Address":"2551 West Ave H 102","City":"Lancaster","State":"CA","Zip":"93536"},{"Location":"ANTELOPE VALLEY SURGICAL INSTI","Address":"44830 Valley Central Way 110","City":"Lancaster","State":"CA","Zip":"93536"},{"Location":"ARENA MOBILE HOME SALES","Address":"41969 50th St W","City":"Lancaster","State":"CA","Zip":"93536"},{"Location":"ATLANTIS VENTURES","Address":"8845 W Avenue E C2","City":"Lancaster","State":"CA","Zip":"93536"},{"Location":"AZTECA MEX. RESTAURANT","Address":"47904 90th St W","City":"Lancaster","State":"CA","Zip":"93536"},{"Location":"BEAUTY NAILS","Address":"42815 30th St W","City":"Lancaster","State":"CA","Zip":"93536"},{"Location":"BENEDICTO CASTILLO","Address":"3244 Ashton Pl","City":"Lancaster","State":"CA","Zip":"93536"},{"Location":"CALIF. DEPT OF VETERANS AFFAIR","Address":"45221 30th St W","City":"Lancaster","State":"CA","Zip":"93536"},{"Location":"CHALLEGER YOUTH BLDG 2","Address":"5300 W Avenue I","City":"Lancaster","State":"CA","Zip":"93536"},{"Location":"CHALLENGER YOUTH BLDG 1","Address":"5300 W Avenue I","City":"Lancaster","State":"CA","Zip":"93536"},{"Location":"CHALLENGER YOUTH BLDG 10","Address":"5300 W Avenue I","City":"Lancaster","State":"CA","Zip":"93536"},{"Location":"CHALLENGER YOUTH BLDG 11","Address":"5300 W Avenue I","City":"Lancaster","State":"CA","Zip":"93536"},{"Location":"CHALLENGER YOUTH BLDG 12","Address":"5300 W Avenue I","City":"Lancaster","State":"CA","Zip":"93536"},{"Location":"CHALLENGER YOUTH BLDG 3","Address":"5300 W Avenue I","City":"Lancaster","State":"CA","Zip":"93536"},{"Location":"CHALLENGER YOUTH BLDG 4","Address":"5300 W Avenue I","City":"Lancaster","State":"CA","Zip":"93536"},{"Location":"CHALLENGER YOUTH BLDG 5","Address":"5300 W Avenue I","City":"Lancaster","State":"CA","Zip":"93536"},{"Location":"CHALLENGER YOUTH BLDG 6","Address":"5300 W Avenue I","City":"Lancaster","State":"CA","Zip":"93536"},{"Location":"CHALLENGER YOUTH BLDG 7","Address":"5300 W Avenue I","City":"Lancaster","State":"CA","Zip":"93536"},{"Location":"CHALLENGER YOUTH BLDG 8","Address":"5300 W Avenue I","City":"Lancaster","State":"CA","Zip":"93536"},{"Location":"CHALLENGER YOUTH BLDG 9","Address":"5300 W Avenue I","City":"Lancaster","State":"CA","Zip":"93536"},{"Location":"CHARLIE LEE PSYCHIC READ","Address":"42127 50th St W","City":"Lancaster","State":"CA","Zip":"93536"},{"Location":"DAVI NAILS1","Address":"44665 Valley Central Way","City":"Lancaster","State":"CA","Zip":"93536"},{"Location":"DELUXE NAILS AND SPA","Address":"5037 W Avenue N","City":"Lancaster","State":"CA","Zip":"93536"},{"Location":"ECONO-LUBE&TUNE 4115","Address":"2101 W Avenue J","City":"Lancaster","State":"CA","Zip":"93536"},{"Location":"EVERGREEN HEALTH ALLIANCE","Address":"42335 50th St W 202","City":"Lancaster","State":"CA","Zip":"93536"},{"Location":"EXODUS AIR SERVICE","Address":"4555 W Avenue G 10","City":"Lancaster","State":"CA","Zip":"93536"},{"Location":"FMC 31040000","Address":"44950 Valley Central Way","City":"Lancaster","State":"CA","Zip":"93536"},{"Location":"FOXYS LANDING RESTAURANT","Address":"4555 W Avenue G 22","City":"Lancaster","State":"CA","Zip":"93536"},{"Location":"FUNPHONETIME LLC","Address":"2330 Mall Loop Rd 11","City":"Lancaster","State":"CA","Zip":"93536"},{"Location":"GRIFF INDUSTRIES INC","Address":"4515 Runway Dr","City":"Lancaster","State":"CA","Zip":"93536"},{"Location":"HAMPTON INN (0061505)","Address":"2300 Double Play Way","City":"Lancaster","State":"CA","Zip":"93536"},{"Location":"HAMPTON INN LANCASTER","Address":"2300 Double Play Way","City":"Lancaster","State":"CA","Zip":"93536"},{"Location":"HOMEWOOD LANCASTER","Address":"2320 Double Play Way","City":"Lancaster","State":"CA","Zip":"93536"},{"Location":"JULIANNIS ITALIAN RESTUA","Address":"44960 Valley Central Way","City":"Lancaster","State":"CA","Zip":"93536"},{"Location":"MAADARANI MOTORS","Address":"43712 47th St W","City":"Lancaster","State":"CA","Zip":"93536"},{"Location":"MARTINEZ BARBERSHOP","Address":"44768 Valley Central Way","City":"Lancaster","State":"CA","Zip":"93536"},{"Location":"MAZAZIK HOOKAH LOUNGE","Address":"44830 Valley Central Way","City":"Lancaster","State":"CA","Zip":"93536"},{"Location":"MEDRANOS","Address":"5037 W Avenue N 19","City":"Lancaster","State":"CA","Zip":"93536"},{"Location":"MH AVIATION","Address":"4555 W Avenue G 6","City":"Lancaster","State":"CA","Zip":"93536"},{"Location":"MONSTER FITNESS INC","Address":"44840 Valley Central Way 101","City":"Lancaster","State":"CA","Zip":"93536"},{"Location":"QUARTZ HILL AUTO CENTER INC","Address":"4332 W Avenue L","City":"Lancaster","State":"CA","Zip":"93536"},{"Location":"QUARTZ HILL TIRES","Address":"42254 50th St W","City":"Lancaster","State":"CA","Zip":"93536"},{"Location":"RANCHERITAS MEXICAN GRILL","Address":"44830 Valley Central Way","City":"Lancaster","State":"CA","Zip":"93536"},{"Location":"RIDERS CHOICE","Address":"2337 W Avenue I","City":"Lancaster","State":"CA","Zip":"93536"},{"Location":"RITE AID DISTRIBUTION","Address":"2801 W Avenue H","City":"Lancaster","State":"CA","Zip":"93536"},{"Location":"RODLOC SECURITY SYSTEMS","Address":"3038 W Avenue L","City":"Lancaster","State":"CA","Zip":"93536"},{"Location":"SANDYS COIN WASH","Address":"41929 50th St W","City":"Lancaster","State":"CA","Zip":"93536"},{"Location":"SANDYS COIN WASH","Address":"2863 W Avenue L","City":"Lancaster","State":"CA","Zip":"93536"},{"Location":"SATO  SUSHI","Address":"2801 W Avenue L","City":"Lancaster","State":"CA","Zip":"93536"},{"Location":"SCHOONERS","Address":"2797 W Avenue L","City":"Lancaster","State":"CA","Zip":"93536"},{"Location":"SCRAMBLEZ GRILLE&BAR","Address":"2715 W Avenue L","City":"Lancaster","State":"CA","Zip":"93536"},{"Location":"SMILE DENTAL","Address":"2014 W Avenue K","City":"Lancaster","State":"CA","Zip":"93536"},{"Location":"SPORT BAR AND GRILL","Address":"42142 50th St W","City":"Lancaster","State":"CA","Zip":"93536"},{"Location":"SUN NAIL AND TANNING","Address":"2025 W Avenue J Lancaster","City":"Lancaster","State":"CA","Zip":"93536"},{"Location":"SYGMA","Address":"46905 47th St W","City":"Lancaster","State":"CA","Zip":"93536"},{"Location":"TAQUERIA BERNARDINOS","Address":"2053 W Avenue J","City":"Lancaster","State":"CA","Zip":"93536"},{"Location":"TAURIAN BA LLC #1089","Address":"44690 Valley Central Way","City":"Lancaster","State":"CA","Zip":"93536"},{"Location":"TAYLOR MICHELLE SALON AND SPA","Address":"42001 50th St W","City":"Lancaster","State":"CA","Zip":"93536"},{"Location":"THE BARBER SHOP III","Address":"2723 W Avenue L","City":"Lancaster","State":"CA","Zip":"93536"},{"Location":"THE BROKEN BIT","Address":"41955 50th St W","City":"Lancaster","State":"CA","Zip":"93536"},{"Location":"THE BUZZ STOP","Address":"4523 W Avenue L","City":"Lancaster","State":"CA","Zip":"93536"},{"Location":"THE SILVER SPUR","Address":"5049 W Avenue M","City":"Lancaster","State":"CA","Zip":"93536"},{"Location":"THE SYGMA NETWORK","Address":"46905 47th St W","City":"Lancaster","State":"CA","Zip":"93536"},{"Location":"TORTILLA GRILL2","Address":"42815 30th St W 103","City":"Lancaster","State":"CA","Zip":"93536"},{"Location":"TOWNEPLACE LANCASTER","Address":"2024 W Avenue J8","City":"Lancaster","State":"CA","Zip":"93536"},{"Location":"US FOREST SERVICE","Address":"4503 W Wm Barnes Ave","City":"Lancaster","State":"CA","Zip":"93536"},{"Location":"US FOREST SERVICE","Address":"4503 W William Barnes","City":"Lancaster","State":"CA","Zip":"93536"},{"Location":"US FOREST SERVICE-FOXFIELD","Address":"4503 W William Barnes Ave","City":"Lancaster","State":"CA","Zip":"93536"},{"Location":"VINCES PASTA AND PIZZA","Address":"2833 W Avenue L","City":"Lancaster","State":"CA","Zip":"93536"},{"Location":"FOXYS SOUTHWESTERN STEAK","Address":"46645 60 West St","City":"Los Angeles","State":"CA","Zip":"93536"},{"Location":"CAL BANK & TRUST QUARTZ","Address":"42024 50th St W","City":"Quartz Hill","State":"CA","Zip":"93536"}]