[{"Location":"LA CNTY MENDENHALL BDG 1","Address":"42230 Lake Hughes Rd","City":"Lake Hughes","State":"CA","Zip":"93532"},{"Location":"LA CNTY MENDENHALL BDG 2","Address":"42230 Lake Hughes Rd","City":"Lake Hughes","State":"CA","Zip":"93532"},{"Location":"LA CNTY MENDENHALL BDG 3","Address":"42230 Lake Hughes Rd","City":"Lake Hughes","State":"CA","Zip":"93532"},{"Location":"LA CNTY MENDENHALL BDG 4","Address":"42230 Lake Hughes Rd","City":"Lake Hughes","State":"CA","Zip":"93532"},{"Location":"LA COUNTY MUNZ BLDG 1","Address":"42220 Lake Hughes Rd","City":"Lake Hughes","State":"CA","Zip":"93532"},{"Location":"LA COUNTY MUNZ BLDG 2","Address":"42220 Lake Hughes Rd","City":"Lake Hughes","State":"CA","Zip":"93532"},{"Location":"LA COUNTY MUNZ BLDG 3","Address":"42220 Lake Hughes Rd","City":"Lake Hughes","State":"CA","Zip":"93532"},{"Location":"LUCKY DAYS COCKTAIL BAR","Address":"43840 Lake Hughes Rd","City":"Lake Hughes","State":"CA","Zip":"93532"},{"Location":"ROCK INN","Address":"17539 Elizabeth Lake Rd","City":"Lake Hughes","State":"CA","Zip":"93532"}]