[{"Location":"DESERT HAVEN INTERPRISES","Address":"43437 Copeland Cir","City":"Hi Vista","State":"CA","Zip":"93535"},{"Location":"","Address":"1044 E Nugent St","City":"Lancaster","State":"CA","Zip":"93535"},{"Location":"","Address":"1041 E Avenue J 103","City":"Lancaster","State":"CA","Zip":"93535"},{"Location":"ALWAYS TOWING","Address":"42422 8th St E 101","City":"Lancaster","State":"CA","Zip":"93535"},{"Location":"AMERICAN  MEDICAL RESPONSE","Address":"3121 E Avenue I","City":"Lancaster","State":"CA","Zip":"93535"},{"Location":"AMERICAN LEGIONS OFFICE","Address":"3986 E Avenue J","City":"Lancaster","State":"CA","Zip":"93535"},{"Location":"AMERICAN TIRE DEPOT  J","Address":"1023 E Avenue J","City":"Lancaster","State":"CA","Zip":"93535"},{"Location":"ANTELOPE AMBULANCE SERVICE","Address":"42544 6th St E","City":"Lancaster","State":"CA","Zip":"93535"},{"Location":"ANTELOPE VALLEY ALANO CLUB","Address":"104 E Avenue K4 J","City":"Lancaster","State":"CA","Zip":"93535"},{"Location":"ANTELOPE VALLEY BOYS","Address":"45404 Division St","City":"Lancaster","State":"CA","Zip":"93535"},{"Location":"AV COLLISION REPAIR","Address":"45379 Division St","City":"Lancaster","State":"CA","Zip":"93535"},{"Location":"CALI REIGN ALSTAR CHEER","Address":"229 E Avenue K8 113","City":"Lancaster","State":"CA","Zip":"93535"},{"Location":"CLASSIC BARBERSHOP","Address":"1012 E Avenue K","City":"Lancaster","State":"CA","Zip":"93535"},{"Location":"CLIENTRAINERS","Address":"1061 E Avenue J 105","City":"Lancaster","State":"CA","Zip":"93535"},{"Location":"DENTAL SPECIALTY CARE","Address":"44244 Division St","City":"Lancaster","State":"CA","Zip":"93535"},{"Location":"DESIGN FOR LIVING INC","Address":"1852 Acosta Ave B","City":"Lancaster","State":"CA","Zip":"93535"},{"Location":"DONA BLANCA RESTAURANT","Address":"848 E Avenue K","City":"Lancaster","State":"CA","Zip":"93535"},{"Location":"EAST SIDE CAR WASH","Address":"802 E Avenue J","City":"Lancaster","State":"CA","Zip":"93535"},{"Location":"EL TOREO EAST LANCASTER","Address":"1721 E Avenue J","City":"Lancaster","State":"CA","Zip":"93535"},{"Location":"FAST TRACK REGESTRATION","Address":"235 E Avenue M","City":"Lancaster","State":"CA","Zip":"93535"},{"Location":"FLETCHERS MOBILE DIESEL","Address":"42706 5th St E","City":"Lancaster","State":"CA","Zip":"93535"},{"Location":"GIBBS PIZZA INC 2","Address":"1721 E Avenue J","City":"Lancaster","State":"CA","Zip":"93535"},{"Location":"GINO PIZZERIA","Address":"44343 Challenger Way 1","City":"Lancaster","State":"CA","Zip":"93535"},{"Location":"HANES & ASSOCIATES INC","Address":"43903 Division St","City":"Lancaster","State":"CA","Zip":"93535"},{"Location":"HEADS UP BARBERSHOP","Address":"43805 Division St","City":"Lancaster","State":"CA","Zip":"93535"},{"Location":"IN SHAPE 180 LANCASTER","Address":"1800 E Avenue J","City":"Lancaster","State":"CA","Zip":"93535"},{"Location":"KARS","Address":"42635 Sierra Hwy","City":"Lancaster","State":"CA","Zip":"93535"},{"Location":"LACOUNTYOFPUB.HEAL EPRP SPA3&4","Address":"335 E Avenue K6 B","City":"Lancaster","State":"CA","Zip":"93535"},{"Location":"LIVING WATER WORSHIP CENTER","Address":"132 E Avenue I","City":"Lancaster","State":"CA","Zip":"93535"},{"Location":"LOS ANGELES FIRE DEPT","Address":"44851 30th St E","City":"Lancaster","State":"CA","Zip":"93535"},{"Location":"MICHAEL FITNESS TRAINER","Address":"211 E Avenue K6 C","City":"Lancaster","State":"CA","Zip":"93535"},{"Location":"MONTES","Address":"119 E Avenue J","City":"Lancaster","State":"CA","Zip":"93535"},{"Location":"NEW LIFE COMMUNITY CHURCH","Address":"43233 7th St E","City":"Lancaster","State":"CA","Zip":"93535"},{"Location":"PALMDALE PELICAN INN","Address":"42445 Sierra Hwy","City":"Lancaster","State":"CA","Zip":"93535"},{"Location":"PERLE LA CHATELAINE","Address":"3029 San Luis Dr","City":"Lancaster","State":"CA","Zip":"93535"},{"Location":"POWER PLUS LUBRICANTS","Address":"229 E Avenue K8 117","City":"Lancaster","State":"CA","Zip":"93535"},{"Location":"REUBENS BAR & GRILL","Address":"255 E Avenue M","City":"Lancaster","State":"CA","Zip":"93535"},{"Location":"ROCA DEL MAR RESTAURANT","Address":"1020 E Avenue K","City":"Lancaster","State":"CA","Zip":"93535"},{"Location":"ROCCOS HONDA AUTO","Address":"45239 Division St","City":"Lancaster","State":"CA","Zip":"93535"},{"Location":"SALON 1042","Address":"1042 E Avenue K","City":"Lancaster","State":"CA","Zip":"93535"},{"Location":"SALS AUTO REPAIR","Address":"44209 Division St A","City":"Lancaster","State":"CA","Zip":"93535"},{"Location":"SHELLEY","Address":"1748 E Avenue J","City":"Lancaster","State":"CA","Zip":"93535"},{"Location":"SHUTTERS BY ANGEL COMPANY","Address":"811 E Avenue M","City":"Lancaster","State":"CA","Zip":"93535"},{"Location":"SMILE DENTAL","Address":"1020 E Avenue J","City":"Lancaster","State":"CA","Zip":"93535"},{"Location":"SNOOKY'S","Address":"42653 Sierra Hwy","City":"Lancaster","State":"CA","Zip":"93535"},{"Location":"SOUTHERN CALIFORNIA GAS","Address":"44416 Division St","City":"Lancaster","State":"CA","Zip":"93535"},{"Location":"SPEEDWASH LAUNDRY","Address":"502 E Avenue K 103","City":"Lancaster","State":"CA","Zip":"93535"},{"Location":"THE TRAP","Address":"2822 E Avenue I","City":"Lancaster","State":"CA","Zip":"93535"},{"Location":"TIP TOP NAILS","Address":"1036 E Avenue K","City":"Lancaster","State":"CA","Zip":"93535"},{"Location":"TOMS SMOKE SHOP","Address":"137 E Avenue J","City":"Lancaster","State":"CA","Zip":"93535"},{"Location":"WEST COAST BAPTIST COLLEGE","Address":"4020 E Lancaster Blvd","City":"Lancaster","State":"CA","Zip":"93535"},{"Location":"WINGSTOP","Address":"1838 E Avenue J","City":"Lancaster","State":"CA","Zip":"93535"},{"Location":"YUPING BAI","Address":"1024 E Avenue K","City":"Lancaster","State":"CA","Zip":"93535"}]