[{"Location":"1331 MANAGEMENT INC","Address":"1750 W Avenue J12 108","City":"Lancaster","State":"CA","Zip":"93534"},{"Location":"24 HOUR FITNESS #878","Address":"1220 W Avenue K","City":"Lancaster","State":"CA","Zip":"93534"},{"Location":"A V DERMATOLOGY & SURGERY","Address":"44215 15th St W 309","City":"Lancaster","State":"CA","Zip":"93534"},{"Location":"ADVANCE AUTOGLASS","Address":"215 W Nugent St","City":"Lancaster","State":"CA","Zip":"93534"},{"Location":"ADVANCED SPINE INSTITUTE","Address":"42051 10th St W 109","City":"Lancaster","State":"CA","Zip":"93534"},{"Location":"ALL MY CHILDREN DAYCARE","Address":"43835 10th St W","City":"Lancaster","State":"CA","Zip":"93534"},{"Location":"ALLSTATE CURRADO INS","Address":"43713 20th St W 2","City":"Lancaster","State":"CA","Zip":"93534"},{"Location":"AM CAFE","Address":"44205 10th St W","City":"Lancaster","State":"CA","Zip":"93534"},{"Location":"AMERICAN  MEDICAL  RESPONSE 3","Address":"604 W Avenue L","City":"Lancaster","State":"CA","Zip":"93534"},{"Location":"AMERICAN MEDICAL RESPONSE","Address":"1055 W Avenue J","City":"Lancaster","State":"CA","Zip":"93534"},{"Location":"AMERICAN TIRE DEPOT","Address":"43729 15th St W","City":"Lancaster","State":"CA","Zip":"93534"},{"Location":"AMR LANCASTER","Address":"1055 W Avenue J","City":"Lancaster","State":"CA","Zip":"93534"},{"Location":"ANTELOPE VALLEY BANK","Address":"831 W Lancaster Blvd","City":"Lancaster","State":"CA","Zip":"93534"},{"Location":"ANTELOPE VALLEY CARDIOLO","Address":"43723 20th St W","City":"Lancaster","State":"CA","Zip":"93534"},{"Location":"ANTELOPE VALLEY DEALERSHIP","Address":"1160 Motor Ln","City":"Lancaster","State":"CA","Zip":"93534"},{"Location":"ANTELOPE VALLEY EYE CARE","Address":"42543 8th St W 101","City":"Lancaster","State":"CA","Zip":"93534"},{"Location":"ANTELOPE VALLEY FORD","Address":"1155 Auto Mall Dr","City":"Lancaster","State":"CA","Zip":"93534"},{"Location":"ANTELOPE VALLEY HOSPITAL","Address":"1600 W Avenue J","City":"Lancaster","State":"CA","Zip":"93534"},{"Location":"ANTELOPE VALLEY LUNG","Address":"44105 15th St W 303","City":"Lancaster","State":"CA","Zip":"93534"},{"Location":"AV CANCER CENTER","Address":"44105 15th St W 110","City":"Lancaster","State":"CA","Zip":"93534"},{"Location":"AV SUBARU","Address":"43243 Drivers Way 43243","City":"Lancaster","State":"CA","Zip":"93534"},{"Location":"AVOIC","Address":"44105 15th St W 100","City":"Lancaster","State":"CA","Zip":"93534"},{"Location":"AVORS MEDICAL GROUP 2","Address":"42135 10th St W 101","City":"Lancaster","State":"CA","Zip":"93534"},{"Location":"BELLINGHAM","Address":"1140 Commerce Center Dr F6","City":"Lancaster","State":"CA","Zip":"93534"},{"Location":"BENS CORNER","Address":"710 W Avenue L","City":"Lancaster","State":"CA","Zip":"93534"},{"Location":"BENT RIM ALLOY WHEEL REPAIR","Address":"805 W Avenue L8 F","City":"Lancaster","State":"CA","Zip":"93534"},{"Location":"BEX BAR GRILL","Address":"706 W Lancaster Blvd","City":"Lancaster","State":"CA","Zip":"93534"},{"Location":"BIG FAMILY MOTORS 2","Address":"43863 Sierra Hwy","City":"Lancaster","State":"CA","Zip":"93534"},{"Location":"BIG MIKES BARBER SHOP","Address":"44158 10th St W","City":"Lancaster","State":"CA","Zip":"93534"},{"Location":"BLESSED BARBERSHOP","Address":"1140 Commerce Center Dr","City":"Lancaster","State":"CA","Zip":"93534"},{"Location":"BOULEVARD CINEMAS","Address":"742 W Lancaster Blvd","City":"Lancaster","State":"CA","Zip":"93534"},{"Location":"BOULEVARD FLOORING EMPOR","Address":"626 W Lancaster Blvd","City":"Lancaster","State":"CA","Zip":"93534"},{"Location":"BOWERS AMBULANCE SERVICE","Address":"1105 W Columbia Way D","City":"Lancaster","State":"CA","Zip":"93534"},{"Location":"CARPETERIA","Address":"42212 10th St W","City":"Lancaster","State":"CA","Zip":"93534"},{"Location":"CASITA LOPEZ","Address":"919 W Avenue J","City":"Lancaster","State":"CA","Zip":"93534"},{"Location":"CHILI'S #1346","Address":"43510 10th St W","City":"Lancaster","State":"CA","Zip":"93534"},{"Location":"CITY OF LANCASTER","Address":"665 W Lancaster Blvd","City":"Lancaster","State":"CA","Zip":"93534"},{"Location":"COACH'S SPORTS BAR","Address":"43451 Gadsden Ave","City":"Lancaster","State":"CA","Zip":"93534"},{"Location":"COMPREHENSIVE LEGAL SERVICES 1","Address":"844 W Avenue J A","City":"Lancaster","State":"CA","Zip":"93534"},{"Location":"CONTEMPORARY INFORMATION","Address":"44404 16th St W 107b","City":"Lancaster","State":"CA","Zip":"93534"},{"Location":"CROSFIT INNER CHAMBER","Address":"42247 12th St W 101","City":"Lancaster","State":"CA","Zip":"93534"},{"Location":"DAVITA #1930 ANTELOPE VALLEY","Address":"1759 W Avenue J 102","City":"Lancaster","State":"CA","Zip":"93534"},{"Location":"DESIGN FOR LIVING","Address":"43850 Beech Ave","City":"Lancaster","State":"CA","Zip":"93534"},{"Location":"DOMINGOS MEXICAN","Address":"1324 W Avenue I","City":"Lancaster","State":"CA","Zip":"93534"},{"Location":"DON CUCOS REST 2","Address":"1106 W Avenue K","City":"Lancaster","State":"CA","Zip":"93534"},{"Location":"DOORWORKS OVERHEAD GARAGE","Address":"45029 Trevor Ave","City":"Lancaster","State":"CA","Zip":"93534"},{"Location":"DOWNTOWN GYM","Address":"757 W Avenue I","City":"Lancaster","State":"CA","Zip":"93534"},{"Location":"DR VORA","Address":"1351 W Avenue J","City":"Lancaster","State":"CA","Zip":"93534"},{"Location":"EDGEMAN","Address":"320 W Avenue J2","City":"Lancaster","State":"CA","Zip":"93534"},{"Location":"EDWARDS FEDERAL CREDIT  UNION","Address":"44288 10th St W","City":"Lancaster","State":"CA","Zip":"93534"},{"Location":"EL TOREO","Address":"830 W Avenue L 139","City":"Lancaster","State":"CA","Zip":"93534"},{"Location":"ENVISION SURGERY CENTER LLC","Address":"42442 10th St W G","City":"Lancaster","State":"CA","Zip":"93534"},{"Location":"F AND Z DEVELOPMENT","Address":"43437 Gadsden Ave","City":"Lancaster","State":"CA","Zip":"93534"},{"Location":"FED BUREAU OF INVESTIGATION","Address":"1206 W Avenue J 211","City":"Lancaster","State":"CA","Zip":"93534"},{"Location":"FIRE STATION 33","Address":"44947 Date Ave","City":"Lancaster","State":"CA","Zip":"93534"},{"Location":"FIRE STN 129","Address":"42110 6th St W","City":"Lancaster","State":"CA","Zip":"93534"},{"Location":"FIRST CITY CREDIT UNION","Address":"1104 W Avenue K","City":"Lancaster","State":"CA","Zip":"93534"},{"Location":"FLYING TIGERS","Address":"44130 10th St W","City":"Lancaster","State":"CA","Zip":"93534"},{"Location":"FRATERNAL ORDER OF THE EA#2985","Address":"232 W Newgrove St","City":"Lancaster","State":"CA","Zip":"93534"},{"Location":"G MC CUTS","Address":"1949 W Avenue L","City":"Lancaster","State":"CA","Zip":"93534"},{"Location":"GROWING VALLEY BAPTIST C","Address":"44818 20th St W","City":"Lancaster","State":"CA","Zip":"93534"},{"Location":"HANG TEN NAIL SPA","Address":"43403 10th St W B","City":"Lancaster","State":"CA","Zip":"93534"},{"Location":"HAYES FINANCIAL","Address":"1210 W Avenue J","City":"Lancaster","State":"CA","Zip":"93534"},{"Location":"HEALING TOUCH REHAB%2C INC","Address":"42220 10th St W 109","City":"Lancaster","State":"CA","Zip":"93534"},{"Location":"HOT N STUFF ACCESORIES","Address":"843 W Avenue J13","City":"Lancaster","State":"CA","Zip":"93534"},{"Location":"JANNIE HODGE INC","Address":"44655 Sierra Hwy","City":"Lancaster","State":"CA","Zip":"93534"},{"Location":"JFAM TATOO SHOP","Address":"408 W Lancaster Blvd","City":"Lancaster","State":"CA","Zip":"93534"},{"Location":"JUICE BOX","Address":"526 W Lancaster Blvd","City":"Lancaster","State":"CA","Zip":"93534"},{"Location":"KAISER - LANCASTER","Address":"615 W Avenue L","City":"Lancaster","State":"CA","Zip":"93534"},{"Location":"KAISER PERMANENTE ACCT%3A # 2","Address":"43056 15th St W","City":"Lancaster","State":"CA","Zip":"93534"},{"Location":"KAISER PERMANENTE ACCT%3A# 1","Address":"43112 15th St W","City":"Lancaster","State":"CA","Zip":"93534"},{"Location":"KIDZ ROCK CHILDCARE","Address":"1825 W Avenue J","City":"Lancaster","State":"CA","Zip":"93534"},{"Location":"KINETIC BREWING COMPANY","Address":"735 W Lancaster Blvd","City":"Lancaster","State":"CA","Zip":"93534"},{"Location":"L & S AUTOMOTIVE REPAIR","Address":"45254 Trevor Ave","City":"Lancaster","State":"CA","Zip":"93534"},{"Location":"LA BARBERIA","Address":"641 W Lancaster Blvd","City":"Lancaster","State":"CA","Zip":"93534"},{"Location":"LA COUNTY FIRE DEPARTMENT","Address":"42110 6th St W","City":"Lancaster","State":"CA","Zip":"93534"},{"Location":"LADIES FIRST FITNESS & SPA","Address":"42015 10th St W","City":"Lancaster","State":"CA","Zip":"93534"},{"Location":"LANCASTER AUTO INTERIORS","Address":"220 W Avenue I","City":"Lancaster","State":"CA","Zip":"93534"},{"Location":"LANCASTER BODY AND FRAME","Address":"44603 Trevor Ave A","City":"Lancaster","State":"CA","Zip":"93534"},{"Location":"LANCASTER FAMILY URGENT CARE","Address":"44426 10th St W A","City":"Lancaster","State":"CA","Zip":"93534"},{"Location":"LANCASTER FIRESTONE","Address":"735 W Avenue K","City":"Lancaster","State":"CA","Zip":"93534"},{"Location":"LANCASTER FLOORING","Address":"44910 Yucca Ave","City":"Lancaster","State":"CA","Zip":"93534"},{"Location":"LANCASTER HONDA","Address":"43244 Drivers Way","City":"Lancaster","State":"CA","Zip":"93534"},{"Location":"LANCASTER MITSUBISHI","Address":"1160 W. Motor Lane","City":"Lancaster","State":"CA","Zip":"93534"},{"Location":"LANCASTER RHEUMATOLOGY","Address":"44835 Date Ave","City":"Lancaster","State":"CA","Zip":"93534"},{"Location":"LEES BEES INC","Address":"45101 Yucca Ave","City":"Lancaster","State":"CA","Zip":"93534"},{"Location":"LEOS AUTO REPAIR","Address":"45003 Yucca Ave","City":"Lancaster","State":"CA","Zip":"93534"},{"Location":"LES A KURIAN DDS","Address":"1654 W Avenue J","City":"Lancaster","State":"CA","Zip":"93534"},{"Location":"LI","Address":"612 W Lancaster Blvd Stea","City":"Lancaster","State":"CA","Zip":"93534"},{"Location":"LOS COMPADRES","Address":"1235 W Avenue I","City":"Lancaster","State":"CA","Zip":"93534"},{"Location":"MACIAS BEAUTY SALON","Address":"811 W Avenue J","City":"Lancaster","State":"CA","Zip":"93534"},{"Location":"MAGIC NAIL","Address":"44232 10th St W B","City":"Lancaster","State":"CA","Zip":"93534"},{"Location":"MANE ATTRACTION HAIR","Address":"43630 10th St W","City":"Lancaster","State":"CA","Zip":"93534"},{"Location":"MARIE CALLENDER","Address":"1649 W Avenue K","City":"Lancaster","State":"CA","Zip":"93534"},{"Location":"MARKS COIN LAUNDRY","Address":"43535 Gadsden Ave","City":"Lancaster","State":"CA","Zip":"93534"},{"Location":"MAX MUSCLE OF LANCASTER","Address":"42303 10th St W","City":"Lancaster","State":"CA","Zip":"93534"},{"Location":"MAXDONS","Address":"1340 W Avenue I","City":"Lancaster","State":"CA","Zip":"93534"},{"Location":"MEDRANOS MEXICAN REST","Address":"44276 10th St W","City":"Lancaster","State":"CA","Zip":"93534"},{"Location":"MEIER","Address":"652 W Avenue L14","City":"Lancaster","State":"CA","Zip":"93534"},{"Location":"MI RANCHITO","Address":"826 W Avenue I","City":"Lancaster","State":"CA","Zip":"93534"},{"Location":"MILAS KUSINA","Address":"43633 15th St W","City":"Lancaster","State":"CA","Zip":"93534"},{"Location":"MMI MEDICAL GROUP INC","Address":"412 W Avenue J F","City":"Lancaster","State":"CA","Zip":"93534"},{"Location":"MOJAVE DESERT  BANK","Address":"43830 20th St W","City":"Lancaster","State":"CA","Zip":"93534"},{"Location":"MY LOUNGE INC","Address":"42035 10th St W 105","City":"Lancaster","State":"CA","Zip":"93534"},{"Location":"NAILPRO & SPA","Address":"1987 W Avenue L","City":"Lancaster","State":"CA","Zip":"93534"},{"Location":"NENAS BAKERY RESTAURANT","Address":"907 W Avenue J H","City":"Lancaster","State":"CA","Zip":"93534"},{"Location":"NUEVAE EFPERANZA","Address":"45216 10th St W","City":"Lancaster","State":"CA","Zip":"93534"},{"Location":"PAN DE VIDA BAKERY #2","Address":"43632 10th St W","City":"Lancaster","State":"CA","Zip":"93534"},{"Location":"PEPBOYS","Address":"44229 20th St W","City":"Lancaster","State":"CA","Zip":"93534"},{"Location":"PERFECT IMAGE SALON","Address":"44116 10th St W 107","City":"Lancaster","State":"CA","Zip":"93534"},{"Location":"PINNACLE PEAK DENTAL CTR","Address":"945 W Avenue J","City":"Lancaster","State":"CA","Zip":"93534"},{"Location":"PIZZA HUT","Address":"44836 10th St W","City":"Lancaster","State":"CA","Zip":"93534"},{"Location":"PIZZA HUT","Address":"1979 W Avenue L","City":"Lancaster","State":"CA","Zip":"93534"},{"Location":"PLATINUM JEWELRY AND LOAN","Address":"44617 Sierra Hwy","City":"Lancaster","State":"CA","Zip":"93534"},{"Location":"PREFERRED WINDOW TINTING INC","Address":"1101 W Avenue M A","City":"Lancaster","State":"CA","Zip":"93534"},{"Location":"PREMIER DENTAL CARE","Address":"43845 10th St W 1a","City":"Lancaster","State":"CA","Zip":"93534"},{"Location":"PROACTIVE SERVICES","Address":"44451 16th St W","City":"Lancaster","State":"CA","Zip":"93534"},{"Location":"QUICK LANE","Address":"1011 Auto Mall Dr","City":"Lancaster","State":"CA","Zip":"93534"},{"Location":"QUINN SHEPHERD MACHINERY","Address":"46101 Sierra Hwy","City":"Lancaster","State":"CA","Zip":"93534"},{"Location":"RAINBOW CERAMIC PAINT STUDIO","Address":"709 W Lancaster Blvd B","City":"Lancaster","State":"CA","Zip":"93534"},{"Location":"RAMI HADDAD DDS","Address":"44811 Date Ave A","City":"Lancaster","State":"CA","Zip":"93534"},{"Location":"RITEWAY INC.","Address":"45019 Yucca Ave","City":"Lancaster","State":"CA","Zip":"93534"},{"Location":"ROUNDTABLE PIZZA TWO","Address":"44204 10th St W","City":"Lancaster","State":"CA","Zip":"93534"},{"Location":"SAFELITE","Address":"43403 10th St W","City":"Lancaster","State":"CA","Zip":"93534"},{"Location":"SAKU SAKI SUSHI","Address":"1232 W Avenue K","City":"Lancaster","State":"CA","Zip":"93534"},{"Location":"SALON B NINA","Address":"1126 W Avenue K","City":"Lancaster","State":"CA","Zip":"93534"},{"Location":"SAMMYS AND MARTINEZ","Address":"44139 Sierra Hwy","City":"Lancaster","State":"CA","Zip":"93534"},{"Location":"SAMMYS RESTAURANT","Address":"44139 Sierra Hwy","City":"Lancaster","State":"CA","Zip":"93534"},{"Location":"SAN JOAQUIN VALLEY COLLEGE","Address":"42135 10th St W","City":"Lancaster","State":"CA","Zip":"93534"},{"Location":"SANDYS COIN WASH","Address":"1306 W Avenue I","City":"Lancaster","State":"CA","Zip":"93534"},{"Location":"SAVING LAND PRODUCE","Address":"1343 W Avenue J","City":"Lancaster","State":"CA","Zip":"93534"},{"Location":"SAWYER CONSTRUCTION AND ASSOC","Address":"44822 Cedar Ave","City":"Lancaster","State":"CA","Zip":"93534"},{"Location":"SHARKYS BILLIARDS","Address":"808 W Avenue L","City":"Lancaster","State":"CA","Zip":"93534"},{"Location":"SHORT CUTS","Address":"43815 15th St W","City":"Lancaster","State":"CA","Zip":"93534"},{"Location":"SIERRA FINANCIAL SERVICE","Address":"42207 6th St W 107","City":"Lancaster","State":"CA","Zip":"93534"},{"Location":"SIZZLER","Address":"44430 20th St W","City":"Lancaster","State":"CA","Zip":"93534"},{"Location":"SMOG AND TUNE UP MASTERS","Address":"1244 W Avenue I 40","City":"Lancaster","State":"CA","Zip":"93534"},{"Location":"SOUTHERN CALIFORINA EDISON","Address":"42060 10th St W","City":"Lancaster","State":"CA","Zip":"93534"},{"Location":"SPORT CLUB AV","Address":"1020 Commerce Center Dr","City":"Lancaster","State":"CA","Zip":"93534"},{"Location":"STATE  OF  CALIFORNIA","Address":"44441 16th St W 101","City":"Lancaster","State":"CA","Zip":"93534"},{"Location":"STATE OF CALIFORNIA","Address":"44441 16th St W 101","City":"Lancaster","State":"CA","Zip":"93534"},{"Location":"SUB MARINA","Address":"830 W Avenue L","City":"Lancaster","State":"CA","Zip":"93534"},{"Location":"SUBWAY #32883","Address":"728 W Avenue J 105","City":"Lancaster","State":"CA","Zip":"93534"},{"Location":"TARGET","Address":"43525 10th St W","City":"Lancaster","State":"CA","Zip":"93534"},{"Location":"TARZANA TREATMENT CENTER","Address":"44447 10th St W","City":"Lancaster","State":"CA","Zip":"93534"},{"Location":"TARZANA TREATMENT CENTERS","Address":"907 W Lancaster Blvd","City":"Lancaster","State":"CA","Zip":"93534"},{"Location":"TEAM HOSPICE INC","Address":"44300 Lowtree Ave 120","City":"Lancaster","State":"CA","Zip":"93534"},{"Location":"TEXAS CATTLE COMPANY","Address":"44206 10th St W","City":"Lancaster","State":"CA","Zip":"93534"},{"Location":"THE BARBER SHOP","Address":"1221 W Avenue I","City":"Lancaster","State":"CA","Zip":"93534"},{"Location":"THE CHOP SHOPPE","Address":"43943 Sierra Hwy","City":"Lancaster","State":"CA","Zip":"93534"},{"Location":"THE RUSTEN HOUSE","Address":"43953 15th St W","City":"Lancaster","State":"CA","Zip":"93534"},{"Location":"THE TIRE STORE","Address":"43923 Sierra Hwy","City":"Lancaster","State":"CA","Zip":"93534"},{"Location":"THEERY INC","Address":"1122 W Avenue L 101","City":"Lancaster","State":"CA","Zip":"93534"},{"Location":"TIRE PROS LANCASTER","Address":"43104 10th St W","City":"Lancaster","State":"CA","Zip":"93534"},{"Location":"TONEMAN CONCRETE CORP","Address":"620 W Avenue L","City":"Lancaster","State":"CA","Zip":"93534"},{"Location":"TOTAL HEALTH AND FITNESS","Address":"1051 W Avenue M 202","City":"Lancaster","State":"CA","Zip":"93534"},{"Location":"TRITON MANAGEMENT SERVICES%2CLLC","Address":"42029 10th St W","City":"Lancaster","State":"CA","Zip":"93534"},{"Location":"UNIVERSITY OF ANTELOPE  VAL","Address":"808 W Avenue J","City":"Lancaster","State":"CA","Zip":"93534"},{"Location":"UNIVERSITY OF ANTELOPE VALLEY","Address":"44055 Sierra Hwy","City":"Lancaster","State":"CA","Zip":"93534"},{"Location":"VALLARTA SUPERMARKET #14","Address":"1801 W Avenue I","City":"Lancaster","State":"CA","Zip":"93534"},{"Location":"VALLEY ANATOMICA PREP IN","Address":"45035 Trevor Ave","City":"Lancaster","State":"CA","Zip":"93534"},{"Location":"VEGA","Address":"42620 10th St W B","City":"Lancaster","State":"CA","Zip":"93534"},{"Location":"VIP NAILS AND SPA","Address":"43440 10th St W 107","City":"Lancaster","State":"CA","Zip":"93534"},{"Location":"WAYSIDE CHRISTIAN CHURCH","Address":"44219 10th St W","City":"Lancaster","State":"CA","Zip":"93534"},{"Location":"WELLS FARGO ADVISORS","Address":"42220 10th St W","City":"Lancaster","State":"CA","Zip":"93534"},{"Location":"WEST COAST AMBULANCE","Address":"647 W Avenue L14","City":"Lancaster","State":"CA","Zip":"93534"},{"Location":"WESTSIDE COLLISION CENTER","Address":"801 W Avenue K","City":"Lancaster","State":"CA","Zip":"93534"},{"Location":"WESTSIDE TAN 2","Address":"43557 13thstreet West","City":"Lancaster","State":"CA","Zip":"93534"},{"Location":"WHITE SURPLUS","Address":"1249 W Avenue I","City":"Lancaster","State":"CA","Zip":"93534"},{"Location":"WIP MD LOUNGE","Address":"1600 W Avenue J","City":"Lancaster","State":"CA","Zip":"93534"},{"Location":"YELLOW STAR CAB CO","Address":"45326 Trevor Ave","City":"Lancaster","State":"CA","Zip":"93534"},{"Location":"YINS TAE KWON DO ACADEMY","Address":"1148 Commerce Center Dr","City":"Lancaster","State":"CA","Zip":"93534"}]