[{"Location":"MONO SIERRA LODGE","Address":"4135 Crowley Lake Dr","City":"Crowley Lake","State":"CA","Zip":"93546"},{"Location":"JSL HOA FITNESS CENTER","Address":"4000 Meridian Blvd","City":"Mammoth","State":"CA","Zip":"93546"},{"Location":"JSL HOA LOBBY MUSIC","Address":"4000 Meridian Blvd","City":"Mammoth","State":"CA","Zip":"93546"},{"Location":"MAMMOTH HOSPITAL","Address":"235 Sierra Park","City":"Mammoth","State":"CA","Zip":"93546"},{"Location":"MMSA SHERWIN%2FMETTING","Address":"4000 Meridian Blvd","City":"Mammoth","State":"CA","Zip":"93546"},{"Location":"SOUTHERN CALIFORNIA EDISON","Address":"3001 Cheateau Rd","City":"Mammoth","State":"CA","Zip":"93546"},{"Location":"CJS GRILL","Address":"343 Old Mammoth Rd","City":"Mammoth City","State":"CA","Zip":"93546"},{"Location":"AUSTRIA HOFF LODGE","Address":"924 Canyon Blvd","City":"Mammoth Lakes","State":"CA","Zip":"93546"},{"Location":"BEAR CREAK PIZZA DEN","Address":"6201 Minaret Rd 109","City":"Mammoth Lakes","State":"CA","Zip":"93546"},{"Location":"BOARDS","Address":"1 Minnerett Rd","City":"Mammoth Lakes","State":"CA","Zip":"93546"},{"Location":"CLOCK TOWER CELLAR","Address":"6080 Minaret Rd","City":"Mammoth Lakes","State":"CA","Zip":"93546"},{"Location":"CONVICT LAKE RESORT","Address":"Hc 79","City":"Mammoth Lakes","State":"CA","Zip":"93546"},{"Location":"CONVICT LAKE RESORT INC 1","Address":"2000 Convict Lake Rd","City":"Mammoth Lakes","State":"CA","Zip":"93546"},{"Location":"COOK","Address":"3325 Main St","City":"Mammoth Lakes","State":"CA","Zip":"93546"},{"Location":"ERIC OLSON INSURANCE","Address":"148 Mountain Blvd","City":"Mammoth Lakes","State":"CA","Zip":"93546"},{"Location":"FORREST ENTERPRISES","Address":"89 Laurel Mountain Rd","City":"Mammoth Lakes","State":"CA","Zip":"93546"},{"Location":"GIOVANI PIZZERIA","Address":"437 Old Mammoth Rd A","City":"Mammoth Lakes","State":"CA","Zip":"93546"},{"Location":"GRUMPY'S SPORTS RESTAURANT","Address":"361 Old Mammoth Rd","City":"Mammoth Lakes","State":"CA","Zip":"93546"},{"Location":"HCAM  LLC","Address":"1334 Airport Rd","City":"Mammoth Lakes","State":"CA","Zip":"93546"},{"Location":"JOHNS PIZZA WORKS","Address":"3499 E Main St","City":"Mammoth Lakes","State":"CA","Zip":"93546"},{"Location":"LAKANUKI ENT","Address":"6201 Minaret Road","City":"Mammoth Lakes","State":"CA","Zip":"93546"},{"Location":"MAMMOTH COMMUNITY WATER DIST.","Address":"2315 Meridan Blvd","City":"Mammoth Lakes","State":"CA","Zip":"93546"},{"Location":"MAMMOTH HOSPITAL INC","Address":"85 Sierra Park Rd","City":"Mammoth Lakes","State":"CA","Zip":"93546"},{"Location":"MAMMOTH MOUNTAIN SKI","Address":"462 Rainbow Lane","City":"Mammoth Lakes","State":"CA","Zip":"93546"},{"Location":"MAMMOTH MOUNTAIN SKI AREA CH14","Address":"Minaret Rd","City":"Mammoth Lakes","State":"CA","Zip":"93546"},{"Location":"MAMMOTH MOUNTAIN SKIAREA","Address":"10001 Minaret Rd","City":"Mammoth Lakes","State":"CA","Zip":"93546"},{"Location":"MAMMOTH ROCK HOLDINGS LLC","Address":"3029 Chateau Rd","City":"Mammoth Lakes","State":"CA","Zip":"93546"},{"Location":"MAMMOTH TAVERN","Address":"587 Old Mammoth Road 10","City":"Mammoth Lakes","State":"CA","Zip":"93546"},{"Location":"MARZANO & SONS","Address":"22827 Highway 395","City":"Mammoth Lakes","State":"CA","Zip":"93546"},{"Location":"MAVERICK SIGNS","Address":"86 Commerce Drive  #6","City":"Mammoth Lakes","State":"CA","Zip":"93546"},{"Location":"MMSA LITTLE EAGLE","Address":"4000 Meridian Blvd","City":"Mammoth Lakes","State":"CA","Zip":"93546"},{"Location":"MMSA TUSK BAR","Address":"1 Minaret Rd","City":"Mammoth Lakes","State":"CA","Zip":"93546"},{"Location":"MMSA UNDERGROUND BAR","Address":"6201 Minaret Rd 153","City":"Mammoth Lakes","State":"CA","Zip":"93546"},{"Location":"RAFTERS RESTAURANT AND LOUNGE","Address":"202 Old Mammoth Rd","City":"Mammoth Lakes","State":"CA","Zip":"93546"},{"Location":"ROBERTO'S CAFE","Address":"271 Old Mammoth Rd","City":"Mammoth Lakes","State":"CA","Zip":"93546"},{"Location":"SHOGUN RESTAURANT","Address":"452 Old Mammoth Rd","City":"Mammoth Lakes","State":"CA","Zip":"93546"},{"Location":"SLOCUMS GRILL & BAR","Address":"3221 Main St","City":"Mammoth Lakes","State":"CA","Zip":"93546"},{"Location":"SUSHI RAY","Address":"1 Minaret Rd","City":"Mammoth Lakes","State":"CA","Zip":"93546"},{"Location":"THE BISTRO","Address":"51 Club Drive","City":"Mammoth Lakes","State":"CA","Zip":"93546"},{"Location":"THE DRY CREEK","Address":"1 Minaret Rd","City":"Mammoth Lakes","State":"CA","Zip":"93546"},{"Location":"YODELER","Address":"1 Minaret Rd","City":"Mammoth Lakes","State":"CA","Zip":"93546"}]