[{"Location":"VALCO TRANSMISSION LTD","Address":"7826 Peablossom Hwy","City":"Liitlerock","State":"CA","Zip":"93543"},{"Location":"AMERICAN MEDICAL  RESPONSE","Address":"7727 Pearblossom Hwy","City":"Littlerock","State":"CA","Zip":"93543"},{"Location":"FARMERS MARKET","Address":"8202 Pearblossom Hwy","City":"Littlerock","State":"CA","Zip":"93543"},{"Location":"LITTLEROCK LAWNMOWER SHOP","Address":"7715 Pearblossom Hwy D","City":"Littlerock","State":"CA","Zip":"93543"},{"Location":"QUE PAISA RESTAURANTE","Address":"8115 Pearblossom Hwy B","City":"Littlerock","State":"CA","Zip":"93543"},{"Location":"VALCO TRANSMISSION LTD","Address":"7826 Peablossom Hwy","City":"Liitlerock","State":"CA","Zip":"93543"},{"Location":"AMERICAN MEDICAL  RESPONSE","Address":"7727 Pearblossom Hwy","City":"Littlerock","State":"CA","Zip":"93543"},{"Location":"FARMERS MARKET","Address":"8202 Pearblossom Hwy","City":"Littlerock","State":"CA","Zip":"93543"},{"Location":"LITTLEROCK LAWNMOWER SHOP","Address":"7715 Pearblossom Hwy D","City":"Littlerock","State":"CA","Zip":"93543"},{"Location":"QUE PAISA RESTAURANTE","Address":"8115 Pearblossom Hwy B","City":"Littlerock","State":"CA","Zip":"93543"}]