[{"Location":"MARIOS TINT","Address":"38476 6th St E","City":"Lake La","State":"CA","Zip":"93550"},{"Location":"SOYA  TERRIYAKI GRILL","Address":"38404 6th St E","City":"Lake La","State":"CA","Zip":"93550"},{"Location":"MARISCOS PUERTO NUEVO","Address":"2009 E Palmdale Blvd","City":"Lake Los Angeles","State":"CA","Zip":"93550"},{"Location":"ADVANCE CELLULAR","Address":"1211 E Palmdale Blvd","City":"Palmdale","State":"CA","Zip":"93550"},{"Location":"AFFORDABLE AUTO BODY AND","Address":"39006 20th St E","City":"Palmdale","State":"CA","Zip":"93550"},{"Location":"ALICIA BEAUTY SALON","Address":"533 E Palmdale Blvd L","City":"Palmdale","State":"CA","Zip":"93550"},{"Location":"AMERICAN LEGION POST","Address":"38030 6th St E","City":"Palmdale","State":"CA","Zip":"93550"},{"Location":"AMERICAN MEDICAL RESPONSE PALM","Address":"3005 E Palmdale Blvd 6","City":"Palmdale","State":"CA","Zip":"93550"},{"Location":"ANDRES AUTO BODY","Address":"39126 3rd St E","City":"Palmdale","State":"CA","Zip":"93550"},{"Location":"ANTELOPE VALLEY BANK","Address":"1667 E Palmdale Blvd","City":"Palmdale","State":"CA","Zip":"93550"},{"Location":"ANTELOPE VALLEY BOYS & G","Address":"815 E Avenue Q6","City":"Palmdale","State":"CA","Zip":"93550"},{"Location":"AV SIERRA DENTAL CENTER","Address":"38427 20th St E","City":"Palmdale","State":"CA","Zip":"93550"},{"Location":"BILLS BARBER SHOP","Address":"1019 E Palmdale Blvd","City":"Palmdale","State":"CA","Zip":"93550"},{"Location":"BIONICOS","Address":"2270 E Palmdale Blvd","City":"Palmdale","State":"CA","Zip":"93550"},{"Location":"BONDS BILLIARDS","Address":"2015 E Palmdale Blvd","City":"Palmdale","State":"CA","Zip":"93550"},{"Location":"BOROWITZ AND CLARK","Address":"1607 E Palmdale Blvd B","City":"Palmdale","State":"CA","Zip":"93550"},{"Location":"BOTANICA VIDA","Address":"2520 E Palmdale Blvd","City":"Palmdale","State":"CA","Zip":"93550"},{"Location":"CADILLAC ACCOUNTING","Address":"235 E Palmdale Blvd B","City":"Palmdale","State":"CA","Zip":"93550"},{"Location":"CALIFORNIA SMOG CHECK CENTER","Address":"1215 E Palmdale Blvd","City":"Palmdale","State":"CA","Zip":"93550"},{"Location":"CHAVEZBROS","Address":"1817 E Avenue Q A14","City":"Palmdale","State":"CA","Zip":"93550"},{"Location":"CITY DENTAL CARE","Address":"2270 E Palmdale Blvd E","City":"Palmdale","State":"CA","Zip":"93550"},{"Location":"CLINICA MEDICA MI FAMILIA","Address":"1037 E Palmdale Blvd 101","City":"Palmdale","State":"CA","Zip":"93550"},{"Location":"COMMUNITY MORTGAGE","Address":"922 E Palmdale Blvd","City":"Palmdale","State":"CA","Zip":"93550"},{"Location":"CUT'S 'N COLORS","Address":"2728 E Palmdale Blvd","City":"Palmdale","State":"CA","Zip":"93550"},{"Location":"D-1 LIQUOR","Address":"3005 E Palmdale Blvd 20","City":"Palmdale","State":"CA","Zip":"93550"},{"Location":"DAVITA #1932 PALMDALE REGIONAL","Address":"1643 E Palmdale Blvd","City":"Palmdale","State":"CA","Zip":"93550"},{"Location":"DCMA PALMDALE","Address":"40015 Sierra Hwy B120","City":"Palmdale","State":"CA","Zip":"93550"},{"Location":"DECIBEL STUDIOS","Address":"39450 3d Street East 145","City":"Palmdale","State":"CA","Zip":"93550"},{"Location":"DESERT DELI","Address":"311 E Avenue S K8 # 125","City":"Palmdale","State":"CA","Zip":"93550"},{"Location":"DESSENCE SALON","Address":"3005 E Paldale%2C Suite11","City":"Palmdale","State":"CA","Zip":"93550"},{"Location":"DRAGON PALACE","Address":"2250 E Palmdale Blvd","City":"Palmdale","State":"CA","Zip":"93550"},{"Location":"EL BURRITO LOCO","Address":"3030 E Palmdale Blvd B","City":"Palmdale","State":"CA","Zip":"93550"},{"Location":"EL CAMARON PELAO","Address":"2542 E Palmdale Blvd","City":"Palmdale","State":"CA","Zip":"93550"},{"Location":"EL PATRON GRILL","Address":"906 E Palmdale Blvd F","City":"Palmdale","State":"CA","Zip":"93550"},{"Location":"FASHION NAILS","Address":"254 E Palmdale Blvd","City":"Palmdale","State":"CA","Zip":"93550"},{"Location":"FEDERAL AVIATION ADMIN","Address":"2555 E Avenue P","City":"Palmdale","State":"CA","Zip":"93550"},{"Location":"FURNITURE DIRECT","Address":"38535 6th St E","City":"Palmdale","State":"CA","Zip":"93550"},{"Location":"GEMINISS HAIR SALON","Address":"2720 E Palmdale Blvd","City":"Palmdale","State":"CA","Zip":"93550"},{"Location":"IRENES BURGER CAFE","Address":"2067 E Palmdale Blvd","City":"Palmdale","State":"CA","Zip":"93550"},{"Location":"IST SOLUTION","Address":"37925 6th St E 213","City":"Palmdale","State":"CA","Zip":"93550"},{"Location":"JASON BELLVILLE","Address":"39553 Sierra Hwy Suite","City":"Palmdale","State":"CA","Zip":"93550"},{"Location":"KJI PLUMPING INC","Address":"38904 Sierra Hwy","City":"Palmdale","State":"CA","Zip":"93550"},{"Location":"KWIK STOP LIQUORS","Address":"39553 Sierra Higway Stee","City":"Palmdale","State":"CA","Zip":"93550"},{"Location":"LAS CAZUELAS","Address":"2553 E Palmdale Blvd","City":"Palmdale","State":"CA","Zip":"93550"},{"Location":"LAS ISLAS PALETERIA","Address":"2133 E Palmdale Blvd","City":"Palmdale","State":"CA","Zip":"93550"},{"Location":"LEES HAIR BOUTIQUE","Address":"39553 Sierra Hwy","City":"Palmdale","State":"CA","Zip":"93550"},{"Location":"LOROCCOS RESTAURANT","Address":"1645 E Palmdale Blvd H","City":"Palmdale","State":"CA","Zip":"93550"},{"Location":"LUCKY SLS LLC","Address":"565 E Palmdale Blvd","City":"Palmdale","State":"CA","Zip":"93550"},{"Location":"MEDSTAR PHYSICAL THERAPY","Address":"1850 E Palmdale Blvd","City":"Palmdale","State":"CA","Zip":"93550"},{"Location":"MEINEKE","Address":"202 E Palmdale Blvd","City":"Palmdale","State":"CA","Zip":"93550"},{"Location":"MOOSE LODGE #507","Address":"3101 E Avenue Q","City":"Palmdale","State":"CA","Zip":"93550"},{"Location":"NANA NAIL","Address":"2552 E Palmdale Blvd","City":"Palmdale","State":"CA","Zip":"93550"},{"Location":"NATCA","Address":"2555 E Avenue P","City":"Palmdale","State":"CA","Zip":"93550"},{"Location":"NORTHROP GRUMMAN","Address":"3520 E Avenue M","City":"Palmdale","State":"CA","Zip":"93550"},{"Location":"NORTHROP GRUMMAN","Address":"3520 E Avenue M 407","City":"Palmdale","State":"CA","Zip":"93550"},{"Location":"NORTHROP GRUMMAN AIRCRAFT","Address":"3520 E Avenue M","City":"Palmdale","State":"CA","Zip":"93550"},{"Location":"NORTHROP GRUMMAN CORPORATION","Address":"3520 E Avenue M 4x","City":"Palmdale","State":"CA","Zip":"93550"},{"Location":"NUMBER 1 NAILS AND SPA","Address":"2211 E Palmdale Blvd F","City":"Palmdale","State":"CA","Zip":"93550"},{"Location":"PALETERIA CINTHYA","Address":"1817 E Avenue Q A17","City":"Palmdale","State":"CA","Zip":"93550"},{"Location":"PALMDALE FIRESTONE","Address":"2641 E Palmdale Blvd","City":"Palmdale","State":"CA","Zip":"93550"},{"Location":"PALMDALE FITNESS","Address":"2140 E Palmdale Blvd","City":"Palmdale","State":"CA","Zip":"93550"},{"Location":"PALMDALE INT'L SHOPPING MALL","Address":"2520 E Palmdale Blvd","City":"Palmdale","State":"CA","Zip":"93550"},{"Location":"PAY LOWER CAR CARE CENTER","Address":"2627 E Palmdale Blvd","City":"Palmdale","State":"CA","Zip":"93550"},{"Location":"PEP BOYS","Address":"3054 E Palmdale Blvd","City":"Palmdale","State":"CA","Zip":"93550"},{"Location":"PIZZA HUT","Address":"220 E Palmdale Blvd","City":"Palmdale","State":"CA","Zip":"93550"},{"Location":"PLANNED PARENTHOOD","Address":"533 E Palmdale Blvd A1","City":"Palmdale","State":"CA","Zip":"93550"},{"Location":"PREMIER DENTAL CARE","Address":"3005 E Palmdale Blvd 22","City":"Palmdale","State":"CA","Zip":"93550"},{"Location":"PROGRESSIVE PHYSICAL THERAPY","Address":"1605 E Palmdale Blvd A","City":"Palmdale","State":"CA","Zip":"93550"},{"Location":"PURE WATER PLUS","Address":"2270 E Palmdale Blvd","City":"Palmdale","State":"CA","Zip":"93550"},{"Location":"QUE RICOS RESTAURANT","Address":"473 E Palmdale Blvd","City":"Palmdale","State":"CA","Zip":"93550"},{"Location":"RAZOR EDGE BARBERSHOP","Address":"38434 20th St E","City":"Palmdale","State":"CA","Zip":"93550"},{"Location":"RIGHTEOUS NUTRITION","Address":"2271 E Palmdale Blvd D","City":"Palmdale","State":"CA","Zip":"93550"},{"Location":"SERENITY BEAUTY SALON","Address":"1753 E Palmdale Blvd B","City":"Palmdale","State":"CA","Zip":"93550"},{"Location":"SHANDRAS THAI CUISINE","Address":"2505 E Palmdale Blvd A","City":"Palmdale","State":"CA","Zip":"93550"},{"Location":"SMILE DENTAL%2C INC","Address":"2508 E Palmdale Blvd","City":"Palmdale","State":"CA","Zip":"93550"},{"Location":"SMOG AND MUFFLER EXPRESS","Address":"1516 E Palmdale Blvd","City":"Palmdale","State":"CA","Zip":"93550"},{"Location":"SOUTHERN CALIFORNIA EDISON","Address":"33301 Angeles Forest Hwy","City":"Palmdale","State":"CA","Zip":"93550"},{"Location":"SOUTHERN CALIFORNIA EDISON 2","Address":"33301 Angeles Forest Hwy","City":"Palmdale","State":"CA","Zip":"93550"},{"Location":"THE BARBERSHOP 2","Address":"2315 E Palmdale Blvd","City":"Palmdale","State":"CA","Zip":"93550"},{"Location":"THE BOEING COMPANY","Address":"1500 E Avenue M B145","City":"Palmdale","State":"CA","Zip":"93550"},{"Location":"TNT REAL ESTATE","Address":"38345 30th St E E7","City":"Palmdale","State":"CA","Zip":"93550"},{"Location":"TONY AUTO BODY","Address":"37824 5th St E F","City":"Palmdale","State":"CA","Zip":"93550"},{"Location":"TOP NAILS","Address":"906 E Palmdale Blvd A","City":"Palmdale","State":"CA","Zip":"93550"},{"Location":"TRI COUNTY REALTY","Address":"918 E Palmdale Blvd","City":"Palmdale","State":"CA","Zip":"93550"},{"Location":"TSCOTT HAIR STYLES","Address":"3339 Coyote Rd","City":"Palmdale","State":"CA","Zip":"93550"},{"Location":"US FOREST SERVICE","Address":"Mill Creek Summit Station","City":"Palmdale","State":"CA","Zip":"93550"},{"Location":"US FOREST SERVICE","Address":"23681 Angeles Forest Hwy","City":"Palmdale","State":"CA","Zip":"93550"},{"Location":"USAF BUILDING 560","Address":"2501 E Avenue P 560","City":"Palmdale","State":"CA","Zip":"93550"},{"Location":"USAF PLANT 42 FD 1","Address":"2503 E Avenue P Fd1","City":"Palmdale","State":"CA","Zip":"93550"},{"Location":"USAF PLANT 42 FD 2","Address":"2503 E Avenue P Fd #2","City":"Palmdale","State":"CA","Zip":"93550"},{"Location":"VINCES PASTA AND PIZZA","Address":"2311 E Avenue S F1","City":"Palmdale","State":"CA","Zip":"93550"},{"Location":"WELLS FARGO BANK","Address":"1006 E Palmdale Blvd","City":"Palmdale","State":"CA","Zip":"93550"},{"Location":"WESTERN EDGE AUTO CENTER","Address":"37957 Sierra Hwy","City":"Palmdale","State":"CA","Zip":"93550"},{"Location":"WHITE SURPLUS","Address":"1249 E Palmdale Blvd","City":"Palmdale","State":"CA","Zip":"93550"},{"Location":"WINGSTOP","Address":"2551 E Avenue S L","City":"Palmdale","State":"CA","Zip":"93550"},{"Location":"WORD OF LIFE OUTREACH","Address":"924 E Avenue Q5","City":"Palmdale","State":"CA","Zip":"93550"},{"Location":"WRIGHT SLOT CAR RACEWAY","Address":"190 Sierra Ct C2","City":"Palmdale","State":"CA","Zip":"93550"},{"Location":"YESENIAS BEAUTY SALON","Address":"906 E Palmdale Blvd C","City":"Palmdale","State":"CA","Zip":"93550"},{"Location":"YUMMY DOUGHNUTS","Address":"2270 E Palmdale Blvd J","City":"Palmdale","State":"CA","Zip":"93550"},{"Location":"Z & M PARTY RENTAL","Address":"38414 8th St E","City":"Palmdale","State":"CA","Zip":"93550"},{"Location":"MARIOS TINT","Address":"38476 6th St E","City":"Lake La","State":"CA","Zip":"93550"},{"Location":"SOYA  TERRIYAKI GRILL","Address":"38404 6th St E","City":"Lake La","State":"CA","Zip":"93550"},{"Location":"MARISCOS PUERTO NUEVO","Address":"2009 E Palmdale Blvd","City":"Lake Los Angeles","State":"CA","Zip":"93550"},{"Location":"ADVANCE CELLULAR","Address":"1211 E Palmdale Blvd","City":"Palmdale","State":"CA","Zip":"93550"},{"Location":"AFFORDABLE AUTO BODY AND","Address":"39006 20th St E","City":"Palmdale","State":"CA","Zip":"93550"},{"Location":"ALICIA BEAUTY SALON","Address":"533 E Palmdale Blvd L","City":"Palmdale","State":"CA","Zip":"93550"},{"Location":"AMERICAN LEGION POST","Address":"38030 6th St E","City":"Palmdale","State":"CA","Zip":"93550"},{"Location":"AMERICAN MEDICAL RESPONSE PALM","Address":"3005 E Palmdale Blvd 6","City":"Palmdale","State":"CA","Zip":"93550"},{"Location":"ANDRES AUTO BODY","Address":"39126 3rd St E","City":"Palmdale","State":"CA","Zip":"93550"},{"Location":"ANTELOPE VALLEY BANK","Address":"1667 E Palmdale Blvd","City":"Palmdale","State":"CA","Zip":"93550"},{"Location":"ANTELOPE VALLEY BOYS & G","Address":"815 E Avenue Q6","City":"Palmdale","State":"CA","Zip":"93550"},{"Location":"AV SIERRA DENTAL CENTER","Address":"38427 20th St E","City":"Palmdale","State":"CA","Zip":"93550"},{"Location":"BILLS BARBER SHOP","Address":"1019 E Palmdale Blvd","City":"Palmdale","State":"CA","Zip":"93550"},{"Location":"BIONICOS","Address":"2270 E Palmdale Blvd","City":"Palmdale","State":"CA","Zip":"93550"},{"Location":"BONDS BILLIARDS","Address":"2015 E Palmdale Blvd","City":"Palmdale","State":"CA","Zip":"93550"},{"Location":"BOROWITZ AND CLARK","Address":"1607 E Palmdale Blvd B","City":"Palmdale","State":"CA","Zip":"93550"},{"Location":"BOTANICA VIDA","Address":"2520 E Palmdale Blvd","City":"Palmdale","State":"CA","Zip":"93550"},{"Location":"CADILLAC ACCOUNTING","Address":"235 E Palmdale Blvd B","City":"Palmdale","State":"CA","Zip":"93550"},{"Location":"CALIFORNIA SMOG CHECK CENTER","Address":"1215 E Palmdale Blvd","City":"Palmdale","State":"CA","Zip":"93550"},{"Location":"CHAVEZBROS","Address":"1817 E Avenue Q A14","City":"Palmdale","State":"CA","Zip":"93550"},{"Location":"CITY DENTAL CARE","Address":"2270 E Palmdale Blvd E","City":"Palmdale","State":"CA","Zip":"93550"},{"Location":"CLINICA MEDICA MI FAMILIA","Address":"1037 E Palmdale Blvd 101","City":"Palmdale","State":"CA","Zip":"93550"},{"Location":"COMMUNITY MORTGAGE","Address":"922 E Palmdale Blvd","City":"Palmdale","State":"CA","Zip":"93550"},{"Location":"D-1 LIQUOR","Address":"3005 E Palmdale Blvd 20","City":"Palmdale","State":"CA","Zip":"93550"},{"Location":"DAVITA #1932 PALMDALE REGIONAL","Address":"1643 E Palmdale Blvd","City":"Palmdale","State":"CA","Zip":"93550"},{"Location":"DCMA PALMDALE","Address":"40015 Sierra Hwy B120","City":"Palmdale","State":"CA","Zip":"93550"},{"Location":"DECIBEL STUDIOS","Address":"39450 3d Street East 145","City":"Palmdale","State":"CA","Zip":"93550"},{"Location":"DESSENCE SALON","Address":"3005 E Paldale%2C Suite11","City":"Palmdale","State":"CA","Zip":"93550"},{"Location":"DRAGON PALACE","Address":"2250 E Palmdale Blvd","City":"Palmdale","State":"CA","Zip":"93550"},{"Location":"EL BURRITO LOCO","Address":"3030 E Palmdale Blvd B","City":"Palmdale","State":"CA","Zip":"93550"},{"Location":"EL CAMARON PELAO","Address":"2542 E Palmdale Blvd","City":"Palmdale","State":"CA","Zip":"93550"},{"Location":"EL PATRON GRILL","Address":"906 E Palmdale Blvd F","City":"Palmdale","State":"CA","Zip":"93550"},{"Location":"FASHION NAILS","Address":"254 E Palmdale Blvd","City":"Palmdale","State":"CA","Zip":"93550"},{"Location":"FEDERAL AVIATION ADMIN","Address":"2555 E Avenue P","City":"Palmdale","State":"CA","Zip":"93550"},{"Location":"FURNITURE DIRECT","Address":"38535 6th St E","City":"Palmdale","State":"CA","Zip":"93550"},{"Location":"GEMINISS HAIR SALON","Address":"2720 E Palmdale Blvd","City":"Palmdale","State":"CA","Zip":"93550"},{"Location":"IRENES BURGER CAFE","Address":"2067 E Palmdale Blvd","City":"Palmdale","State":"CA","Zip":"93550"},{"Location":"IST SOLUTION","Address":"37925 6th St E 213","City":"Palmdale","State":"CA","Zip":"93550"},{"Location":"JASON BELLVILLE","Address":"39553 Sierra Hwy Suite","City":"Palmdale","State":"CA","Zip":"93550"},{"Location":"KJI PLUMPING INC","Address":"38904 Sierra Hwy","City":"Palmdale","State":"CA","Zip":"93550"},{"Location":"KWIK STOP LIQUORS","Address":"39553 Sierra Higway Stee","City":"Palmdale","State":"CA","Zip":"93550"},{"Location":"LAS CAZUELAS","Address":"2553 E Palmdale Blvd","City":"Palmdale","State":"CA","Zip":"93550"},{"Location":"LAS ISLAS PALETERIA","Address":"2133 E Palmdale Blvd","City":"Palmdale","State":"CA","Zip":"93550"},{"Location":"LEES HAIR BOUTIQUE","Address":"39553 Sierra Hwy","City":"Palmdale","State":"CA","Zip":"93550"},{"Location":"LETTY'S BEAUTY SALON","Address":"2728 E Palmdale Blvd  Suite 113","City":"Palmdale","State":"CA","Zip":"93550"},{"Location":"LOROCCOS RESTAURANT","Address":"1645 E Palmdale Blvd H","City":"Palmdale","State":"CA","Zip":"93550"},{"Location":"LUCKY SLS LLC","Address":"565 E Palmdale Blvd","City":"Palmdale","State":"CA","Zip":"93550"},{"Location":"MEDSTAR PHYSICAL THERAPY","Address":"1850 E Palmdale Blvd","City":"Palmdale","State":"CA","Zip":"93550"},{"Location":"MEINEKE","Address":"202 E Palmdale Blvd","City":"Palmdale","State":"CA","Zip":"93550"},{"Location":"MOOSE LODGE #507","Address":"3101 E Avenue Q","City":"Palmdale","State":"CA","Zip":"93550"},{"Location":"NANA NAIL","Address":"2552 E Palmdale Blvd","City":"Palmdale","State":"CA","Zip":"93550"},{"Location":"NATCA","Address":"2555 E Avenue P","City":"Palmdale","State":"CA","Zip":"93550"},{"Location":"NORTHROP GRUMMAN","Address":"3520 E Avenue M 407","City":"Palmdale","State":"CA","Zip":"93550"},{"Location":"NORTHROP GRUMMAN","Address":"3520 E Avenue M","City":"Palmdale","State":"CA","Zip":"93550"},{"Location":"NORTHROP GRUMMAN AIRCRAFT","Address":"3520 E Avenue M","City":"Palmdale","State":"CA","Zip":"93550"},{"Location":"NORTHROP GRUMMAN CORPORATION","Address":"3520 E Avenue M 4x","City":"Palmdale","State":"CA","Zip":"93550"},{"Location":"NUMBER 1 NAILS AND SPA","Address":"2211 E Palmdale Blvd F","City":"Palmdale","State":"CA","Zip":"93550"},{"Location":"PALETERIA CINTHYA","Address":"1817 E Avenue Q A17","City":"Palmdale","State":"CA","Zip":"93550"},{"Location":"PALMDALE FIRESTONE","Address":"2641 E Palmdale Blvd","City":"Palmdale","State":"CA","Zip":"93550"},{"Location":"PALMDALE FITNESS","Address":"2140 E Palmdale Blvd","City":"Palmdale","State":"CA","Zip":"93550"},{"Location":"PALMDALE INT'L SHOPPING MALL","Address":"2520 E Palmdale Blvd","City":"Palmdale","State":"CA","Zip":"93550"},{"Location":"PAY LOWER CAR CARE CENTER","Address":"2627 E Palmdale Blvd","City":"Palmdale","State":"CA","Zip":"93550"},{"Location":"PEP BOYS","Address":"3054 E Palmdale Blvd","City":"Palmdale","State":"CA","Zip":"93550"},{"Location":"PIZZA HUT","Address":"220 E Palmdale Blvd","City":"Palmdale","State":"CA","Zip":"93550"},{"Location":"PLANNED PARENTHOOD","Address":"533 E Palmdale Blvd A1","City":"Palmdale","State":"CA","Zip":"93550"},{"Location":"PREMIER DENTAL CARE","Address":"3005 E Palmdale Blvd 22","City":"Palmdale","State":"CA","Zip":"93550"},{"Location":"PROGRESSIVE PHYSICAL THERAPY","Address":"1605 E Palmdale Blvd A","City":"Palmdale","State":"CA","Zip":"93550"},{"Location":"PURE WATER PLUS","Address":"2270 E Palmdale Blvd","City":"Palmdale","State":"CA","Zip":"93550"},{"Location":"QUE RICOS RESTAURANT","Address":"473 E Palmdale Blvd","City":"Palmdale","State":"CA","Zip":"93550"},{"Location":"RAZOR EDGE BARBERSHOP","Address":"38434 20th St E","City":"Palmdale","State":"CA","Zip":"93550"},{"Location":"RIGHTEOUS NUTRITION","Address":"2271 E Palmdale Blvd D","City":"Palmdale","State":"CA","Zip":"93550"},{"Location":"SERENITY BEAUTY SALON","Address":"1753 E Palmdale Blvd B","City":"Palmdale","State":"CA","Zip":"93550"},{"Location":"SHANDRAS THAI CUISINE","Address":"2505 E Palmdale Blvd A","City":"Palmdale","State":"CA","Zip":"93550"},{"Location":"SMILE DENTAL%2C INC","Address":"2508 E Palmdale Blvd","City":"Palmdale","State":"CA","Zip":"93550"},{"Location":"SMOG AND MUFFLER EXPRESS","Address":"1516 E Palmdale Blvd","City":"Palmdale","State":"CA","Zip":"93550"},{"Location":"SOUTHERN CALIFORNIA EDISON","Address":"33301 Angeles Forest Hwy","City":"Palmdale","State":"CA","Zip":"93550"},{"Location":"SOUTHERN CALIFORNIA EDISON 2","Address":"33301 Angeles Forest Hwy","City":"Palmdale","State":"CA","Zip":"93550"},{"Location":"THE BARBERSHOP 2","Address":"2315 E Palmdale Blvd","City":"Palmdale","State":"CA","Zip":"93550"},{"Location":"THE BOEING COMPANY","Address":"1500 E Avenue M B145","City":"Palmdale","State":"CA","Zip":"93550"},{"Location":"TNT REAL ESTATE","Address":"38345 30th St E E7","City":"Palmdale","State":"CA","Zip":"93550"},{"Location":"TONY AUTO BODY","Address":"37824 5th St E F","City":"Palmdale","State":"CA","Zip":"93550"},{"Location":"TOP NAILS","Address":"906 E Palmdale Blvd A","City":"Palmdale","State":"CA","Zip":"93550"},{"Location":"TRI COUNTY REALTY","Address":"918 E Palmdale Blvd","City":"Palmdale","State":"CA","Zip":"93550"},{"Location":"TSCOTT HAIR STYLES","Address":"3339 Coyote Rd","City":"Palmdale","State":"CA","Zip":"93550"},{"Location":"US FOREST SERVICE","Address":"Mill Creek Summit Station","City":"Palmdale","State":"CA","Zip":"93550"},{"Location":"US FOREST SERVICE","Address":"23681 Angeles Forest Hwy","City":"Palmdale","State":"CA","Zip":"93550"},{"Location":"USAF BUILDING 560","Address":"2501 E Avenue P 560","City":"Palmdale","State":"CA","Zip":"93550"},{"Location":"USAF PLANT 42 FD 1","Address":"2503 E Avenue P Fd1","City":"Palmdale","State":"CA","Zip":"93550"},{"Location":"USAF PLANT 42 FD 2","Address":"2503 E Avenue P Fd #2","City":"Palmdale","State":"CA","Zip":"93550"},{"Location":"VINCES PASTA AND PIZZA","Address":"2311 E Avenue S F1","City":"Palmdale","State":"CA","Zip":"93550"},{"Location":"WELLS FARGO BANK","Address":"1006 E Palmdale Blvd","City":"Palmdale","State":"CA","Zip":"93550"},{"Location":"WESTERN EDGE AUTO CENTER","Address":"37957 Sierra Hwy","City":"Palmdale","State":"CA","Zip":"93550"},{"Location":"WHITE SURPLUS","Address":"1249 E Palmdale Blvd","City":"Palmdale","State":"CA","Zip":"93550"},{"Location":"WINGSTOP","Address":"2551 E Avenue S L","City":"Palmdale","State":"CA","Zip":"93550"},{"Location":"WORD OF LIFE OUTREACH","Address":"924 E Avenue Q5","City":"Palmdale","State":"CA","Zip":"93550"},{"Location":"WRIGHT SLOT CAR RACEWAY","Address":"190 Sierra Ct C2","City":"Palmdale","State":"CA","Zip":"93550"},{"Location":"YESENIAS BEAUTY SALON","Address":"906 E Palmdale Blvd C","City":"Palmdale","State":"CA","Zip":"93550"},{"Location":"YUMMY DOUGHNUTS","Address":"2270 E Palmdale Blvd J","City":"Palmdale","State":"CA","Zip":"93550"},{"Location":"Z & M PARTY RENTAL","Address":"38414 8th St E","City":"Palmdale","State":"CA","Zip":"93550"}]