[{"Location":"HAPPY NAIL AND SPA","Address":"3053 Rancho Vista Blvd B","City":"City Ranch","State":"CA","Zip":"93551"},{"Location":"CREEKSIDE CAFE","Address":"40352 90th St W","City":"Leona Valley","State":"CA","Zip":"93551"},{"Location":"24 HOUR FITNESS #117","Address":"1335 W Avenue P","City":"Palmdale","State":"CA","Zip":"93551"},{"Location":"AERO BENDING","Address":"560 Auto Center Dr","City":"Palmdale","State":"CA","Zip":"93551"},{"Location":"AMERICAN  MEDICAL  RPNSE","Address":"38925 Trade Center Dr","City":"Palmdale","State":"CA","Zip":"93551"},{"Location":"ANGELES DENTAL","Address":"39575 Trade Center Dr D","City":"Palmdale","State":"CA","Zip":"93551"},{"Location":"ANTELOPE VALLEY NISSAN","Address":"451 Auto Center Dr","City":"Palmdale","State":"CA","Zip":"93551"},{"Location":"ANTELOPE VALLEY VOLKSWAGEN","Address":"39050 Carriage Way","City":"Palmdale","State":"CA","Zip":"93551"},{"Location":"APPLEBEE'S #2150037","Address":"39720 10th St W","City":"Palmdale","State":"CA","Zip":"93551"},{"Location":"AV AUTOGLASS.COM","Address":"41821 Pico Way","City":"Palmdale","State":"CA","Zip":"93551"},{"Location":"AV PHYSICAL THER","Address":"3167 Rancho Vista Blvd D","City":"Palmdale","State":"CA","Zip":"93551"},{"Location":"AVOIC","Address":"38925 Trade Center Dr E","City":"Palmdale","State":"CA","Zip":"93551"},{"Location":"AZTECA MEXICAN TACOS","Address":"856 W Palmdale Blvd","City":"Palmdale","State":"CA","Zip":"93551"},{"Location":"BEST BARBER SHOP","Address":"825 W Palmdale Blvd","City":"Palmdale","State":"CA","Zip":"93551"},{"Location":"BIG TUNA JAPENESE RESTAURANT","Address":"39409 10th St W A","City":"Palmdale","State":"CA","Zip":"93551"},{"Location":"BJS RESTAURANT #462","Address":"1325 W Rancho Vista Blvd","City":"Palmdale","State":"CA","Zip":"93551"},{"Location":"BSK RESTAURANT","Address":"1113 W Rancho Vista Blvd B","City":"Palmdale","State":"CA","Zip":"93551"},{"Location":"BUFFALO WILD WINGS #3403","Address":"40155 10th St W","City":"Palmdale","State":"CA","Zip":"93551"},{"Location":"BURGER KING #16563","Address":"39519 10th St W","City":"Palmdale","State":"CA","Zip":"93551"},{"Location":"CAL BANK & TRUST","Address":"748 W Rancho Vista Blvd","City":"Palmdale","State":"CA","Zip":"93551"},{"Location":"CALIF ALLERGY & ASTHMA","Address":"41230 11th St W A","City":"Palmdale","State":"CA","Zip":"93551"},{"Location":"CARINO'S #1614","Address":"1173 W Rancho Vista Blvd","City":"Palmdale","State":"CA","Zip":"93551"},{"Location":"CARPET TECH","Address":"41770 12th St W F","City":"Palmdale","State":"CA","Zip":"93551"},{"Location":"CHILI'S #0225","Address":"1021 W Avenue P","City":"Palmdale","State":"CA","Zip":"93551"},{"Location":"CHINESE RESTARANT","Address":"3135 Rancho Vista Blvd","City":"Palmdale","State":"CA","Zip":"93551"},{"Location":"CLAIM JUMPER #45","Address":"1247 W Avenue P","City":"Palmdale","State":"CA","Zip":"93551"},{"Location":"DEVRY UNIVERSITY PALMDALE","Address":"39115 Trade Center Dr 100","City":"Palmdale","State":"CA","Zip":"93551"},{"Location":"DICK'S SPORTING GOODS #1105","Address":"1301 W Rancho Vista Blvd","City":"Palmdale","State":"CA","Zip":"93551"},{"Location":"DICKEYS BARBECUE PIT","Address":"1125 West Rancho Viesta Blvd S","City":"Palmdale","State":"CA","Zip":"93551"},{"Location":"EL TORITO 7233","Address":"1161 W Avenue P","City":"Palmdale","State":"CA","Zip":"93551"},{"Location":"ELITE STUDENT ATHLETE NE","Address":"37426 Peachwood Pl","City":"Palmdale","State":"CA","Zip":"93551"},{"Location":"FAMOUS DAVE'S #3099","Address":"1205 W Rancho Vista Blvd","City":"Palmdale","State":"CA","Zip":"93551"},{"Location":"FIRE ISLAND GRILL","Address":"40117 10th St W","City":"Palmdale","State":"CA","Zip":"93551"},{"Location":"FIRST CITY CREDIT UNION","Address":"39450 10th St W","City":"Palmdale","State":"CA","Zip":"93551"},{"Location":"FRESCOS II","Address":"1311 W Rancho Vista Blvd","City":"Palmdale","State":"CA","Zip":"93551"},{"Location":"GABRIEL YEUNG","Address":"1051 W Avenue M14 A","City":"Palmdale","State":"CA","Zip":"93551"},{"Location":"GOLDFISH JAPANESE RESTAU","Address":"3135 Rancho Vista Blvd","City":"Palmdale","State":"CA","Zip":"93551"},{"Location":"HAMPTON INN PALMDALE","Address":"39428 Trade Center Dr","City":"Palmdale","State":"CA","Zip":"93551"},{"Location":"HARBOUR","Address":"39340 10th St W B","City":"Palmdale","State":"CA","Zip":"93551"},{"Location":"HIBACHI GRILL","Address":"1215 W Rancho Vista Blvd","City":"Palmdale","State":"CA","Zip":"93551"},{"Location":"I TECH ELECTRONICS","Address":"801 1%2F2 W Palmdale Blvd","City":"Palmdale","State":"CA","Zip":"93551"},{"Location":"IBEW LOCAL 11","Address":"360 Grand Cypress Ave 302","City":"Palmdale","State":"CA","Zip":"93551"},{"Location":"IN SHAPE 175 AMAGROSA","Address":"39331 10th St W","City":"Palmdale","State":"CA","Zip":"93551"},{"Location":"JERSEY MIKES","Address":"39604 10th St W","City":"Palmdale","State":"CA","Zip":"93551"},{"Location":"JIN","Address":"3115 Rancho Vista Blvd D","City":"Palmdale","State":"CA","Zip":"93551"},{"Location":"KOHL'S #753","Address":"39850 10th St W","City":"Palmdale","State":"CA","Zip":"93551"},{"Location":"LA PERK","Address":"1233 W Rancho Vista Blvd 225","City":"Palmdale","State":"CA","Zip":"93551"},{"Location":"LMV NAIL SPA","Address":"837 W Palmdale Blvd","City":"Palmdale","State":"CA","Zip":"93551"},{"Location":"LOCKHEED CREDIT UNION","Address":"1011 Lockheed Way # 12","City":"Palmdale","State":"CA","Zip":"93551"},{"Location":"LOS ARCOS MEXICAN REST","Address":"3115 Rancho Vista Blvd G","City":"Palmdale","State":"CA","Zip":"93551"},{"Location":"LOVE KOREAN BBQ","Address":"40140 10th St W","City":"Palmdale","State":"CA","Zip":"93551"},{"Location":"MACY'S WEST 414 BR","Address":"1123 W Rancho Vista Blvd","City":"Palmdale","State":"CA","Zip":"93551"},{"Location":"MATTHEW BAKER FAMILY DENTAL","Address":"868 Auto Center Dr D","City":"Palmdale","State":"CA","Zip":"93551"},{"Location":"MEN'S WEARHOUSE #2735","Address":"1201 W Avenue P","City":"Palmdale","State":"CA","Zip":"93551"},{"Location":"MMC LENDING","Address":"1008 W Avenue M4","City":"Palmdale","State":"CA","Zip":"93551"},{"Location":"MORGAN STANLEY 100255","Address":"1137 W Avenue M14 104","City":"Palmdale","State":"CA","Zip":"93551"},{"Location":"MORTGAGE MANAGEMENT CONSULTANT","Address":"1008 W Avenue M4 H","City":"Palmdale","State":"CA","Zip":"93551"},{"Location":"MULLIGAN FAMILY FUN CENTER","Address":"525 W Avenue P4","City":"Palmdale","State":"CA","Zip":"93551"},{"Location":"OASIS SURGERY CENTER","Address":"815 Auto Center Dr","City":"Palmdale","State":"CA","Zip":"93551"},{"Location":"OLIVE GARDEN #1286","Address":"1051 W Rancho Vista Blvd 1286","City":"Palmdale","State":"CA","Zip":"93551"},{"Location":"OUTBACK STEAKHOUSE #0564","Address":"1061 W Avenue P","City":"Palmdale","State":"CA","Zip":"93551"},{"Location":"PACIFIC FUNDING","Address":"39409 10th St W B","City":"Palmdale","State":"CA","Zip":"93551"},{"Location":"PALMDALE HYDROPONICS","Address":"641 W Palmdale Blvd D","City":"Palmdale","State":"CA","Zip":"93551"},{"Location":"PALMDALE URGENT CARE","Address":"38440 5th St W","City":"Palmdale","State":"CA","Zip":"93551"},{"Location":"PAMPERED POOCH FUR SALON","Address":"3135 Rancho Vista Blvd D","City":"Palmdale","State":"CA","Zip":"93551"},{"Location":"PLATNIUM GROUP OF COMPANIES","Address":"38700 5th Street West  #g","City":"Palmdale","State":"CA","Zip":"93551"},{"Location":"R R GUNITE","Address":"41129 18th St W","City":"Palmdale","State":"CA","Zip":"93551"},{"Location":"RANCHA VISTA GOLF COURSE REST.","Address":"3905 Club Rancho Dr","City":"Palmdale","State":"CA","Zip":"93551"},{"Location":"RANJIV CHOUDHARY MD INC","Address":"41210 11th St W G","City":"Palmdale","State":"CA","Zip":"93551"},{"Location":"RED LOBSTER #0577","Address":"1041 W Avenue P","City":"Palmdale","State":"CA","Zip":"93551"},{"Location":"RED ROBIN #241","Address":"1233 W Rancho Vista Blvd 301","City":"Palmdale","State":"CA","Zip":"93551"},{"Location":"REGAL NAILS 1660","Address":"40131 10th St W","City":"Palmdale","State":"CA","Zip":"93551"},{"Location":"ROBERT JACKSON MD","Address":"41250 12th St W C","City":"Palmdale","State":"CA","Zip":"93551"},{"Location":"ROUND TABLE PIZZA","Address":"39202 10th St W C","City":"Palmdale","State":"CA","Zip":"93551"},{"Location":"ROYAL NAIL AND SPA","Address":"39450 10th St W A1","City":"Palmdale","State":"CA","Zip":"93551"},{"Location":"SAMS CLUB","Address":"39940 10th St W","City":"Palmdale","State":"CA","Zip":"93551"},{"Location":"SCHOOLS FIRST FCU","Address":"1201 W Rancho Vista Blvd A","City":"Palmdale","State":"CA","Zip":"93551"},{"Location":"SCP DISTRIBUTORS","Address":"40242 La Quinta Ln 104","City":"Palmdale","State":"CA","Zip":"93551"},{"Location":"SELECT HOME FURNISHINGS","Address":"641 W Palmdale Blvd","City":"Palmdale","State":"CA","Zip":"93551"},{"Location":"SHAKEY'S PIZZA PARLOR 22","Address":"39450 10th St W A","City":"Palmdale","State":"CA","Zip":"93551"},{"Location":"SHARKYS WOODFIRED MEXICA","Address":"39532 10th St W","City":"Palmdale","State":"CA","Zip":"93551"},{"Location":"SIMMONS DENTAL CORP","Address":"1029 Elizabeth Lake Rd","City":"Palmdale","State":"CA","Zip":"93551"},{"Location":"SINFUL TREATS","Address":"40008 10th St W 103","City":"Palmdale","State":"CA","Zip":"93551"},{"Location":"SIZZLER","Address":"853 W Palmdale Blvd","City":"Palmdale","State":"CA","Zip":"93551"},{"Location":"SPEEDY JOE'S","Address":"40205 10th St W","City":"Palmdale","State":"CA","Zip":"93551"},{"Location":"SQUIRTY S COLLISION CENTER INC","Address":"40360 La Quinta Ln","City":"Palmdale","State":"CA","Zip":"93551"},{"Location":"STATE FARM INSURANCE","Address":"5022 W Avenue N Ste10","City":"Palmdale","State":"CA","Zip":"93551"},{"Location":"STATE FARM INSURANCE","Address":"445 W Palmdale Blvd G","City":"Palmdale","State":"CA","Zip":"93551"},{"Location":"TED Y.T. FANG DDS %2C APC","Address":"39178 10th St W C","City":"Palmdale","State":"CA","Zip":"93551"},{"Location":"VALLEY ORTHOPEDIC INSTITUTE","Address":"647 W Avenue Q","City":"Palmdale","State":"CA","Zip":"93551"},{"Location":"VARGO PHYSICAL THERAPY1","Address":"38656 Medical Center Dr B","City":"Palmdale","State":"CA","Zip":"93551"},{"Location":"WESTSIDE TAN3","Address":"39178 10th St W D","City":"Palmdale","State":"CA","Zip":"93551"},{"Location":"WINGSTOP","Address":"40008 10th St W D","City":"Palmdale","State":"CA","Zip":"93551"},{"Location":"YARD HOUSE 8332","Address":"1247 W Avenue P C","City":"Palmdale","State":"CA","Zip":"93551"},{"Location":"ZEN","Address":"1329 W Rancho Vista Blvd","City":"Palmdale","State":"CA","Zip":"93551"},{"Location":"HAPPY NAIL AND SPA","Address":"3053 Rancho Vista Blvd B","City":"City Ranch","State":"CA","Zip":"93551"},{"Location":"CREEKSIDE CAFE","Address":"40352 90th St W","City":"Leona Valley","State":"CA","Zip":"93551"},{"Location":"24 HOUR FITNESS #117","Address":"1335 W Avenue P","City":"Palmdale","State":"CA","Zip":"93551"},{"Location":"AERO BENDING","Address":"560 Auto Center Dr","City":"Palmdale","State":"CA","Zip":"93551"},{"Location":"AMERICAN  MEDICAL  RPNSE","Address":"38925 Trade Center Dr","City":"Palmdale","State":"CA","Zip":"93551"},{"Location":"ANGELES DENTAL","Address":"39575 Trade Center Dr D","City":"Palmdale","State":"CA","Zip":"93551"},{"Location":"ANTELOPE VALLEY NISSAN","Address":"451 Auto Center Dr","City":"Palmdale","State":"CA","Zip":"93551"},{"Location":"ANTELOPE VALLEY VOLKSWAGEN","Address":"39050 Carriage Way","City":"Palmdale","State":"CA","Zip":"93551"},{"Location":"APPLEBEE'S #2150037","Address":"39720 10th St W","City":"Palmdale","State":"CA","Zip":"93551"},{"Location":"AV AUTOGLASS.COM","Address":"41821 Pico Way","City":"Palmdale","State":"CA","Zip":"93551"},{"Location":"AV PHYSICAL THER","Address":"3167 Rancho Vista Blvd D","City":"Palmdale","State":"CA","Zip":"93551"},{"Location":"AVOIC","Address":"38925 Trade Center Dr E","City":"Palmdale","State":"CA","Zip":"93551"},{"Location":"AZTECA MEXICAN TACOS","Address":"856 W Palmdale Blvd","City":"Palmdale","State":"CA","Zip":"93551"},{"Location":"BEST BARBER SHOP","Address":"825 W Palmdale Blvd","City":"Palmdale","State":"CA","Zip":"93551"},{"Location":"BIG TUNA JAPENESE RESTAURANT","Address":"39409 10th St W A","City":"Palmdale","State":"CA","Zip":"93551"},{"Location":"BJS RESTAURANT #462","Address":"1325 W Rancho Vista Blvd","City":"Palmdale","State":"CA","Zip":"93551"},{"Location":"BSK RESTAURANT","Address":"1113 W Rancho Vista Blvd B","City":"Palmdale","State":"CA","Zip":"93551"},{"Location":"BUFFALO WILD WINGS #3403","Address":"40155 10th St W","City":"Palmdale","State":"CA","Zip":"93551"},{"Location":"BURGER KING #16563","Address":"39519 10th St W","City":"Palmdale","State":"CA","Zip":"93551"},{"Location":"CAL BANK & TRUST","Address":"748 W Rancho Vista Blvd","City":"Palmdale","State":"CA","Zip":"93551"},{"Location":"CALIF ALLERGY & ASTHMA","Address":"41230 11th St W A","City":"Palmdale","State":"CA","Zip":"93551"},{"Location":"CARINO'S #1614","Address":"1173 W Rancho Vista Blvd","City":"Palmdale","State":"CA","Zip":"93551"},{"Location":"CARPET TECH","Address":"41770 12th St W F","City":"Palmdale","State":"CA","Zip":"93551"},{"Location":"CHILI'S #0225","Address":"1021 W Avenue P","City":"Palmdale","State":"CA","Zip":"93551"},{"Location":"CHINESE RESTARANT","Address":"3135 Rancho Vista Blvd","City":"Palmdale","State":"CA","Zip":"93551"},{"Location":"CLAIM JUMPER #45","Address":"1247 W Avenue P","City":"Palmdale","State":"CA","Zip":"93551"},{"Location":"DEVRY UNIVERSITY PALMDALE","Address":"39115 Trade Center Dr 100","City":"Palmdale","State":"CA","Zip":"93551"},{"Location":"DICK'S SPORTING GOODS #1105","Address":"1301 W Rancho Vista Blvd","City":"Palmdale","State":"CA","Zip":"93551"},{"Location":"DICKEYS BARBECUE PIT","Address":"1125 West Rancho Viesta Blvd S","City":"Palmdale","State":"CA","Zip":"93551"},{"Location":"EL TORITO 7233","Address":"1161 W Avenue P","City":"Palmdale","State":"CA","Zip":"93551"},{"Location":"ELITE STUDENT ATHLETE NE","Address":"37426 Peachwood Pl","City":"Palmdale","State":"CA","Zip":"93551"},{"Location":"FAMOUS DAVE'S #3099","Address":"1205 W Rancho Vista Blvd","City":"Palmdale","State":"CA","Zip":"93551"},{"Location":"FIRE ISLAND GRILL","Address":"40117 10th St W","City":"Palmdale","State":"CA","Zip":"93551"},{"Location":"FIRST CITY CREDIT UNION","Address":"39450 10th St W","City":"Palmdale","State":"CA","Zip":"93551"},{"Location":"FRESCOS II","Address":"1311 W Rancho Vista Blvd","City":"Palmdale","State":"CA","Zip":"93551"},{"Location":"GABRIEL YEUNG","Address":"1051 W Avenue M14 A","City":"Palmdale","State":"CA","Zip":"93551"},{"Location":"GOLDFISH JAPANESE RESTAU","Address":"3135 Rancho Vista Blvd","City":"Palmdale","State":"CA","Zip":"93551"},{"Location":"HAMPTON INN PALMDALE","Address":"39428 Trade Center Dr","City":"Palmdale","State":"CA","Zip":"93551"},{"Location":"HARBOUR","Address":"39340 10th St W B","City":"Palmdale","State":"CA","Zip":"93551"},{"Location":"HIBACHI GRILL","Address":"1215 W Rancho Vista Blvd","City":"Palmdale","State":"CA","Zip":"93551"},{"Location":"I TECH ELECTRONICS","Address":"801 1%2F2 W Palmdale Blvd","City":"Palmdale","State":"CA","Zip":"93551"},{"Location":"IBEW LOCAL 11","Address":"360 Grand Cypress Ave 302","City":"Palmdale","State":"CA","Zip":"93551"},{"Location":"IN SHAPE 175 AMAGROSA","Address":"39331 10th St W","City":"Palmdale","State":"CA","Zip":"93551"},{"Location":"JERSEY MIKES","Address":"39604 10th St W","City":"Palmdale","State":"CA","Zip":"93551"},{"Location":"JIN","Address":"3115 Rancho Vista Blvd D","City":"Palmdale","State":"CA","Zip":"93551"},{"Location":"KOHL'S #753","Address":"39850 10th St W","City":"Palmdale","State":"CA","Zip":"93551"},{"Location":"LA PERK","Address":"1233 W Rancho Vista Blvd 225","City":"Palmdale","State":"CA","Zip":"93551"},{"Location":"LMV NAIL SPA","Address":"837 W Palmdale Blvd","City":"Palmdale","State":"CA","Zip":"93551"},{"Location":"LOCKHEED CREDIT UNION","Address":"1011 Lockheed Way # 12","City":"Palmdale","State":"CA","Zip":"93551"},{"Location":"LOS ARCOS MEXICAN REST","Address":"3115 Rancho Vista Blvd G","City":"Palmdale","State":"CA","Zip":"93551"},{"Location":"LOVE KOREAN BBQ","Address":"40140 10th St W","City":"Palmdale","State":"CA","Zip":"93551"},{"Location":"MACY'S WEST 414 BR","Address":"1123 W Rancho Vista Blvd","City":"Palmdale","State":"CA","Zip":"93551"},{"Location":"MATTHEW BAKER FAMILY DENTAL","Address":"868 Auto Center Dr D","City":"Palmdale","State":"CA","Zip":"93551"},{"Location":"MEN'S WEARHOUSE #2735","Address":"1201 W Avenue P","City":"Palmdale","State":"CA","Zip":"93551"},{"Location":"MMC LENDING","Address":"1008 W Avenue M4","City":"Palmdale","State":"CA","Zip":"93551"},{"Location":"MORGAN STANLEY 100255","Address":"1137 W Avenue M14 104","City":"Palmdale","State":"CA","Zip":"93551"},{"Location":"MORTGAGE MANAGEMENT CONSULTANT","Address":"1008 W Avenue M4 H","City":"Palmdale","State":"CA","Zip":"93551"},{"Location":"MULLIGAN FAMILY FUN CENTER","Address":"525 W Avenue P4","City":"Palmdale","State":"CA","Zip":"93551"},{"Location":"OASIS SURGERY CENTER","Address":"815 Auto Center Dr","City":"Palmdale","State":"CA","Zip":"93551"},{"Location":"OLIVE GARDEN #1286","Address":"1051 W Rancho Vista Blvd 1286","City":"Palmdale","State":"CA","Zip":"93551"},{"Location":"OUTBACK STEAKHOUSE #0564","Address":"1061 W Avenue P","City":"Palmdale","State":"CA","Zip":"93551"},{"Location":"PACIFIC FUNDING","Address":"39409 10th St W B","City":"Palmdale","State":"CA","Zip":"93551"},{"Location":"PALMDALE HYDROPONICS","Address":"641 W Palmdale Blvd D","City":"Palmdale","State":"CA","Zip":"93551"},{"Location":"PALMDALE URGENT CARE","Address":"38440 5th St W","City":"Palmdale","State":"CA","Zip":"93551"},{"Location":"PAMPERED POOCH FUR SALON","Address":"3135 Rancho Vista Blvd D","City":"Palmdale","State":"CA","Zip":"93551"},{"Location":"PLATNIUM GROUP","Address":"38700 5th Street West  #g","City":"Palmdale","State":"CA","Zip":"93551"},{"Location":"R R GUNITE","Address":"41129 18th St W","City":"Palmdale","State":"CA","Zip":"93551"},{"Location":"RANCHA VISTA GOLF COURSE REST.","Address":"3905 Club Rancho Dr","City":"Palmdale","State":"CA","Zip":"93551"},{"Location":"RANJIV CHOUDHARY MD INC","Address":"41210 11th St W G","City":"Palmdale","State":"CA","Zip":"93551"},{"Location":"RED LOBSTER #0577","Address":"1041 W Avenue P","City":"Palmdale","State":"CA","Zip":"93551"},{"Location":"RED ROBIN #241","Address":"1233 W Rancho Vista Blvd 301","City":"Palmdale","State":"CA","Zip":"93551"},{"Location":"REGAL NAILS 1660","Address":"40131 10th St W","City":"Palmdale","State":"CA","Zip":"93551"},{"Location":"ROBERT JACKSON MD","Address":"41250 12th St W C","City":"Palmdale","State":"CA","Zip":"93551"},{"Location":"ROUND TABLE PIZZA","Address":"39202 10th St W C","City":"Palmdale","State":"CA","Zip":"93551"},{"Location":"ROYAL NAIL AND SPA","Address":"39450 10th St W A1","City":"Palmdale","State":"CA","Zip":"93551"},{"Location":"SAMS CLUB","Address":"39940 10th St W","City":"Palmdale","State":"CA","Zip":"93551"},{"Location":"SCHOOLS FIRST FCU","Address":"1201 W Rancho Vista Blvd A","City":"Palmdale","State":"CA","Zip":"93551"},{"Location":"SCP DISTRIBUTORS","Address":"40242 La Quinta Ln 104","City":"Palmdale","State":"CA","Zip":"93551"},{"Location":"SELECT HOME FURNISHINGS","Address":"641 W Palmdale Blvd","City":"Palmdale","State":"CA","Zip":"93551"},{"Location":"SHAKEY'S PIZZA PARLOR 22","Address":"39450 10th St W A","City":"Palmdale","State":"CA","Zip":"93551"},{"Location":"SHARKYS WOODFIRED MEXICA","Address":"39532 10th St W","City":"Palmdale","State":"CA","Zip":"93551"},{"Location":"SIMMONS DENTAL CORP","Address":"1029 Elizabeth Lake Rd","City":"Palmdale","State":"CA","Zip":"93551"},{"Location":"SINFUL TREATS","Address":"40008 10th St W 103","City":"Palmdale","State":"CA","Zip":"93551"},{"Location":"SIZZLER","Address":"853 W Palmdale Blvd","City":"Palmdale","State":"CA","Zip":"93551"},{"Location":"SPEEDY JOE'S","Address":"40205 10th St W","City":"Palmdale","State":"CA","Zip":"93551"},{"Location":"SQUIRTY S COLLISION CENTER INC","Address":"40360 La Quinta Ln","City":"Palmdale","State":"CA","Zip":"93551"},{"Location":"STATE FARM INSURANCE","Address":"445 W Palmdale Blvd G","City":"Palmdale","State":"CA","Zip":"93551"},{"Location":"STATE FARM INSURANCE","Address":"5022 W Avenue N Ste10","City":"Palmdale","State":"CA","Zip":"93551"},{"Location":"TED Y.T. FANG DDS %2C APC","Address":"39178 10th St W C","City":"Palmdale","State":"CA","Zip":"93551"},{"Location":"VALLEY ORTHOPEDIC INSTITUTE","Address":"647 W Avenue Q","City":"Palmdale","State":"CA","Zip":"93551"},{"Location":"VARGO PHYSICAL THERAPY1","Address":"38656 Medical Center Dr B","City":"Palmdale","State":"CA","Zip":"93551"},{"Location":"WESTSIDE TAN3","Address":"39178 10th St W D","City":"Palmdale","State":"CA","Zip":"93551"},{"Location":"WINGSTOP","Address":"40008 10th St W D","City":"Palmdale","State":"CA","Zip":"93551"},{"Location":"YARD HOUSE 8332","Address":"1247 W Avenue P C","City":"Palmdale","State":"CA","Zip":"93551"},{"Location":"ZEN","Address":"1329 W Rancho Vista Blvd","City":"Palmdale","State":"CA","Zip":"93551"}]