[{"Location":"BLM FIRE DEPARTMENT","Address":"178 And Randsburge Wash Rd","City":"China Lake","State":"CA","Zip":"93555"},{"Location":"CHINA LAKE BOWLING CENTE","Address":"1092 King Street Bldg 01092","City":"China Lake","State":"CA","Zip":"93555"},{"Location":"CHINA LAKE FITNESS ANNEX","Address":"19 Blandy Ave","City":"China Lake","State":"CA","Zip":"93555"},{"Location":"CHINA LAKE GOLF COURSE","Address":"2693 Ticonderoga Ave","City":"China Lake","State":"CA","Zip":"93555"},{"Location":"CHINA LAKE GYM","Address":"22 Blandy","City":"China Lake","State":"CA","Zip":"93555"},{"Location":"EODTEUIDET CHINA LAKE","Address":"30867 Water Rd Air Weapon Stat","City":"China Lake","State":"CA","Zip":"93555"},{"Location":"MABB CHINA LAKE 1","Address":"1395 Hussey St","City":"China Lake","State":"CA","Zip":"93555"},{"Location":"MABB CHINA LAKE 2","Address":"1395 Hussey St","City":"China Lake","State":"CA","Zip":"93555"},{"Location":"NAVY EXCHANGE CHINA LAKE","Address":"Bldg #20149 Kwell","City":"China Lake","State":"CA","Zip":"93555"},{"Location":"NAWS LIBERTY MILITARY PROGRAM","Address":"Bldg 17","City":"China Lake","State":"CA","Zip":"93555"},{"Location":"VX 9","Address":"Naws China Lake Hangar 1","City":"China Lake","State":"CA","Zip":"93555"},{"Location":"M W R","Address":"Bldg 25  Naws","City":"Point Mugu Nawc","State":"CA","Zip":"93555"},{"Location":"AMERICAN LEGION","Address":"641 W Inyokern Rd","City":"Ridgecrest","State":"CA","Zip":"93555"},{"Location":"BETTY INC","Address":"2400 E Pilot Plant Rd","City":"Ridgecrest","State":"CA","Zip":"93555"},{"Location":"CASA CORONA TWO","Address":"1429 N China Lake Blvd","City":"Ridgecrest","State":"CA","Zip":"93555"},{"Location":"CASEYS STEAK & BBQ.","Address":"1337 N China Lake Blvd","City":"Ridgecrest","State":"CA","Zip":"93555"},{"Location":"CERRO COSO COMMUNITY","Address":"3000 College Heights Blvd","City":"Ridgecrest","State":"CA","Zip":"93555"},{"Location":"CHINA LAKE BAREFOOT BAR","Address":"1 Admin Cir","City":"Ridgecrest","State":"CA","Zip":"93555"},{"Location":"CHINA LAKE MOOSE 258 II","Address":"150 Reeves Street","City":"Ridgecrest","State":"CA","Zip":"93555"},{"Location":"DAVITA #1931 INDIAN WELLS","Address":"212 S Richmond Rd","City":"Ridgecrest","State":"CA","Zip":"93555"},{"Location":"DESERT WILLOW","Address":"1337 N El Prado Dr","City":"Ridgecrest","State":"CA","Zip":"93555"},{"Location":"DJS PUB","Address":"135 Garnet Ave","City":"Ridgecrest","State":"CA","Zip":"93555"},{"Location":"DR VASQUEZ DDS","Address":"840 N Norma St A","City":"Ridgecrest","State":"CA","Zip":"93555"},{"Location":"ELECTRONIC WARFARE ASSOCIATES","Address":"400 W Reeves Ave","City":"Ridgecrest","State":"CA","Zip":"93555"},{"Location":"EODTEU ONE TRAINING BARAKS","Address":"1 Admin Cir 1114","City":"Ridgecrest","State":"CA","Zip":"93555"},{"Location":"FAA","Address":"729 S Richmond Rd","City":"Ridgecrest","State":"CA","Zip":"93555"},{"Location":"FRATERNAL ORDER OF EAGLES","Address":"301 W Ridgecrest Blvd","City":"Ridgecrest","State":"CA","Zip":"93555"},{"Location":"FURYS","Address":"1353 W Inyokern Rd","City":"Ridgecrest","State":"CA","Zip":"93555"},{"Location":"IN SHAPE RIDGECREST 2","Address":"930 N Norma St","City":"Ridgecrest","State":"CA","Zip":"93555"},{"Location":"JOHNS PIZZA PARLOR","Address":"348 W Ridgecrest Blvd","City":"Ridgecrest","State":"CA","Zip":"93555"},{"Location":"LOEWENS","Address":"225 E Ridgecrest Blvd","City":"Ridgecrest","State":"CA","Zip":"93555"},{"Location":"LUGOS GRILL","Address":"908 N Norma St","City":"Ridgecrest","State":"CA","Zip":"93555"},{"Location":"LUGOS MEXICAN GRILL","Address":"201 S China Lake Blvd","City":"Ridgecrest","State":"CA","Zip":"93555"},{"Location":"MARINE AVIATION DETACHMENT","Address":"1 Administration Cir","City":"Ridgecrest","State":"CA","Zip":"93555"},{"Location":"MISO SUSHI","Address":"1315 N Norma St","City":"Ridgecrest","State":"CA","Zip":"93555"},{"Location":"NAIL SPA","Address":"1543 N China Lake Blvd","City":"Ridgecrest","State":"CA","Zip":"93555"},{"Location":"PERNELL'S KITCHEN","Address":"424 Drummond Ave","City":"Ridgecrest","State":"CA","Zip":"93555"},{"Location":"PIZZA HUT- RIDGECREST","Address":"1245 N China Lake Blvd","City":"Ridgecrest","State":"CA","Zip":"93555"},{"Location":"PROGRESSIVE AMBULANCE INC","Address":"101 S Mahan St","City":"Ridgecrest","State":"CA","Zip":"93555"},{"Location":"RIDGE CREST REGIONAL HOSPITAL","Address":"1011 N China Lake Blvd","City":"Ridgecrest","State":"CA","Zip":"93555"},{"Location":"RIDGE CREST REGIONAL HOSPITAL","Address":"1111 N China Lake Blvd","City":"Ridgecrest","State":"CA","Zip":"93555"},{"Location":"RIDGECREST ELKS LODGE","Address":"201 E Church Ave","City":"Ridgecrest","State":"CA","Zip":"93555"},{"Location":"RIDGECREST REGIONAL HOSPITAL","Address":"1081 N China Lake Blvd","City":"Ridgecrest","State":"CA","Zip":"93555"},{"Location":"SCHOONER  PATIO GRILL","Address":"1400 N Norma St","City":"Ridgecrest","State":"CA","Zip":"93555"},{"Location":"SOUTHERN CALIFORNIA EDISON","Address":"510 S China Lake Blvd","City":"Ridgecrest","State":"CA","Zip":"93555"},{"Location":"SOUTHERN SIERRA MEDICAL CLINIC","Address":"1041 N China Lake Blvd B","City":"Ridgecrest","State":"CA","Zip":"93555"},{"Location":"TAQUERIA BERNARDINOS  2","Address":"841 N Downs St B","City":"Ridgecrest","State":"CA","Zip":"93555"},{"Location":"THE HOME DEPOT","Address":"575 N China Lake Blvd","City":"Ridgecrest","State":"CA","Zip":"93555"},{"Location":"THE PARTNER","Address":"1033 W Inyokern Rd","City":"Ridgecrest","State":"CA","Zip":"93555"},{"Location":"TOMMY T'S","Address":"117a E Ridgecrest Blvd","City":"Ridgecrest","State":"CA","Zip":"93555"},{"Location":"UNION BAPTIST CHURCH","Address":"120 Parkview Ave","City":"Ridgecrest","State":"CA","Zip":"93555"},{"Location":"VALLEY ORTHO INSTITUTE I","Address":"1533 Downs St","City":"Ridgecrest","State":"CA","Zip":"93555"},{"Location":"VICTORY MISSIONARY CHURCH","Address":"242 Panamint Ave","City":"Ridgecrest","State":"CA","Zip":"93555"},{"Location":"WOMANS CENTER HIGH DESERT","Address":"950 E Church Ave","City":"Ridgecrest","State":"CA","Zip":"93555"},{"Location":"BLM FIRE DEPARTMENT","Address":"178 And Randsburge Wash Rd","City":"China Lake","State":"CA","Zip":"93555"},{"Location":"CHINA LAKE BOWLING CENTE","Address":"1092 King Street Bldg 01092","City":"China Lake","State":"CA","Zip":"93555"},{"Location":"CHINA LAKE FITNESS ANNEX","Address":"19 Blandy Ave","City":"China Lake","State":"CA","Zip":"93555"},{"Location":"CHINA LAKE GOLF COURSE","Address":"2693 Ticonderoga Ave","City":"China Lake","State":"CA","Zip":"93555"},{"Location":"CHINA LAKE GYM","Address":"22 Blandy","City":"China Lake","State":"CA","Zip":"93555"},{"Location":"EODTEUIDET CHINA LAKE","Address":"30867 Water Rd Air Weapon Stat","City":"China Lake","State":"CA","Zip":"93555"},{"Location":"MABB CHINA LAKE 1","Address":"1395 Hussey St","City":"China Lake","State":"CA","Zip":"93555"},{"Location":"MABB CHINA LAKE 2","Address":"1395 Hussey St","City":"China Lake","State":"CA","Zip":"93555"},{"Location":"NAVY EXCHANGE CHINA LAKE","Address":"Bldg #20149 Kwell","City":"China Lake","State":"CA","Zip":"93555"},{"Location":"NAWS LIBERTY MILITARY PROGRAM","Address":"Bldg 17","City":"China Lake","State":"CA","Zip":"93555"},{"Location":"VX 9","Address":"Naws China Lake Hangar 1","City":"China Lake","State":"CA","Zip":"93555"},{"Location":"M W R","Address":"Bldg 25  Naws","City":"Point Mugu Nawc","State":"CA","Zip":"93555"},{"Location":"AMERICAN LEGION","Address":"641 W Inyokern Rd","City":"Ridgecrest","State":"CA","Zip":"93555"},{"Location":"BETTY INC","Address":"2400 E Pilot Plant Rd","City":"Ridgecrest","State":"CA","Zip":"93555"},{"Location":"CASA CORONA TWO","Address":"1429 N China Lake Blvd","City":"Ridgecrest","State":"CA","Zip":"93555"},{"Location":"CASEYS STEAK & BBQ.","Address":"1337 N China Lake Blvd","City":"Ridgecrest","State":"CA","Zip":"93555"},{"Location":"CERRO COSO COMMUNITY","Address":"3000 College Heights Blvd","City":"Ridgecrest","State":"CA","Zip":"93555"},{"Location":"CHINA LAKE BAREFOOT BAR","Address":"1 Admin Cir","City":"Ridgecrest","State":"CA","Zip":"93555"},{"Location":"CHINA LAKE MOOSE 258 II","Address":"150 Reeves Street","City":"Ridgecrest","State":"CA","Zip":"93555"},{"Location":"DAVITA #1931 INDIAN WELLS","Address":"212 S Richmond Rd","City":"Ridgecrest","State":"CA","Zip":"93555"},{"Location":"DESERT WILLOW","Address":"1337 N El Prado Dr","City":"Ridgecrest","State":"CA","Zip":"93555"},{"Location":"DJS PUB","Address":"135 Garnet Ave","City":"Ridgecrest","State":"CA","Zip":"93555"},{"Location":"DR VASQUEZ DDS","Address":"840 N Norma St A","City":"Ridgecrest","State":"CA","Zip":"93555"},{"Location":"ELECTRONIC WARFARE ASSOCIATES","Address":"400 W Reeves Ave","City":"Ridgecrest","State":"CA","Zip":"93555"},{"Location":"EODTEU ONE TRAINING BARAKS","Address":"1 Admin Cir 1114","City":"Ridgecrest","State":"CA","Zip":"93555"},{"Location":"FAA","Address":"729 S Richmond Rd","City":"Ridgecrest","State":"CA","Zip":"93555"},{"Location":"FRATERNAL ORDER OF EAGLES","Address":"301 W Ridgecrest Blvd","City":"Ridgecrest","State":"CA","Zip":"93555"},{"Location":"FURYS","Address":"1353 W Inyokern Rd","City":"Ridgecrest","State":"CA","Zip":"93555"},{"Location":"IN SHAPE RIDGECREST 2","Address":"930 N Norma St","City":"Ridgecrest","State":"CA","Zip":"93555"},{"Location":"JOHNS PIZZA PARLOR","Address":"348 W Ridgecrest Blvd","City":"Ridgecrest","State":"CA","Zip":"93555"},{"Location":"LOEWENS","Address":"225 E Ridgecrest Blvd","City":"Ridgecrest","State":"CA","Zip":"93555"},{"Location":"LUGOS GRILL","Address":"908 N Norma St","City":"Ridgecrest","State":"CA","Zip":"93555"},{"Location":"LUGOS MEXICAN GRILL","Address":"201 S China Lake Blvd","City":"Ridgecrest","State":"CA","Zip":"93555"},{"Location":"MARINE AVIATION DETACHMENT","Address":"1 Administration Cir","City":"Ridgecrest","State":"CA","Zip":"93555"},{"Location":"MISO SUSHI","Address":"1315 N Norma St","City":"Ridgecrest","State":"CA","Zip":"93555"},{"Location":"NAIL SPA","Address":"1543 N China Lake Blvd","City":"Ridgecrest","State":"CA","Zip":"93555"},{"Location":"Pernell'S Kitchen","Address":"424 Drummond Ave","City":"Ridgecrest","State":"CA","Zip":"93555"},{"Location":"PIZZA HUT- RIDGECREST","Address":"1245 N China Lake Blvd","City":"Ridgecrest","State":"CA","Zip":"93555"},{"Location":"PROGRESSIVE AMBULANCE INC","Address":"101 S Mahan St","City":"Ridgecrest","State":"CA","Zip":"93555"},{"Location":"RIDGE CREST REGIONAL HOSPITAL","Address":"1111 N China Lake Blvd","City":"Ridgecrest","State":"CA","Zip":"93555"},{"Location":"RIDGE CREST REGIONAL HOSPITAL","Address":"1011 N China Lake Blvd","City":"Ridgecrest","State":"CA","Zip":"93555"},{"Location":"RIDGECREST ELKS LODGE","Address":"201 E Church Ave","City":"Ridgecrest","State":"CA","Zip":"93555"},{"Location":"RIDGECREST REGIONAL HOSPITAL","Address":"1081 N China Lake Blvd","City":"Ridgecrest","State":"CA","Zip":"93555"},{"Location":"SCHOONER  PATIO GRILL","Address":"1400 N Norma St","City":"Ridgecrest","State":"CA","Zip":"93555"},{"Location":"SOUTHERN CALIFORNIA EDISON","Address":"510 S China Lake Blvd","City":"Ridgecrest","State":"CA","Zip":"93555"},{"Location":"SOUTHERN SIERRA MEDICAL CLINIC","Address":"1041 N China Lake Blvd B","City":"Ridgecrest","State":"CA","Zip":"93555"},{"Location":"TAQUERIA BERNARDINOS  2","Address":"841 N Downs St B","City":"Ridgecrest","State":"CA","Zip":"93555"},{"Location":"THE HOME DEPOT","Address":"575 N China Lake Blvd","City":"Ridgecrest","State":"CA","Zip":"93555"},{"Location":"THE PARTNER","Address":"1033 W Inyokern Rd","City":"Ridgecrest","State":"CA","Zip":"93555"},{"Location":"TOMMY T'S","Address":"117a E Ridgecrest Blvd","City":"Ridgecrest","State":"CA","Zip":"93555"},{"Location":"UNION BAPTIST CHURCH","Address":"120 Parkview Ave","City":"Ridgecrest","State":"CA","Zip":"93555"},{"Location":"VALLEY ORTHO INSTITUTE I","Address":"1533 Downs St","City":"Ridgecrest","State":"CA","Zip":"93555"},{"Location":"VICTORY MISSIONARY CHURCH","Address":"242 Panamint Ave","City":"Ridgecrest","State":"CA","Zip":"93555"},{"Location":"WOMANS CENTER HIGH DESERT","Address":"950 E Church Ave","City":"Ridgecrest","State":"CA","Zip":"93555"}]