[{"Location":"BEAUTY SALON","Address":"4626 E Avenue S","City":"Palmdale","State":"CA","Zip":"93552"},{"Location":"BUFFALOS CAFE PALMDALE","Address":"4611 E Avenue S","City":"Palmdale","State":"CA","Zip":"93552"},{"Location":"GARY A FIGUEROA","Address":"37951 47th St E A8","City":"Palmdale","State":"CA","Zip":"93552"},{"Location":"IN SHAPE 172","Address":"4644 E Avenue S","City":"Palmdale","State":"CA","Zip":"93552"},{"Location":"JC SERVICES","Address":"6150 E Avenue T 71","City":"Palmdale","State":"CA","Zip":"93552"},{"Location":"KAISER PERMANENTE","Address":"4502 E Avenue S","City":"Palmdale","State":"CA","Zip":"93552"},{"Location":"LA PALMA MEXICAN RESTAURANT","Address":"5828 Pearblossom Hwy","City":"Palmdale","State":"CA","Zip":"93552"},{"Location":"MI RANCHITO MEX GRILL","Address":"4621 E Avenue S D103","City":"Palmdale","State":"CA","Zip":"93552"},{"Location":"NI HAO SUSHI DINING","Address":"38029 47th St E B","City":"Palmdale","State":"CA","Zip":"93552"},{"Location":"PIZZA EXPERIENCE","Address":"38045 47th St E I","City":"Palmdale","State":"CA","Zip":"93552"},{"Location":"RED PARISMMON","Address":"38450 47th Street East","City":"Palmdale","State":"CA","Zip":"93552"},{"Location":"SUNNY NAILS","Address":"4635 E Avenue S 104","City":"Palmdale","State":"CA","Zip":"93552"},{"Location":"TARGET","Address":"38019 47th St E","City":"Palmdale","State":"CA","Zip":"93552"},{"Location":"THE SHOP","Address":"37915 47th St E","City":"Palmdale","State":"CA","Zip":"93552"}]