[{"Location":"J. C. GRILLE & DELI CAFE INC","Address":"202 End Of Hwy","City":"Tebachipi","State":"CA","Zip":"93561"},{"Location":"BEAR VALLEY POLICE DEPT","Address":"25101 Bear Valley Rd","City":"Tehachapi","State":"CA","Zip":"93561"},{"Location":"BENZ PROPANE CO INC","Address":"1401 Goodrick Dr","City":"Tehachapi","State":"CA","Zip":"93561"},{"Location":"BIG PAPAS STEAKHOUSE","Address":"1001 W Tehachapi Blvd","City":"Tehachapi","State":"CA","Zip":"93561"},{"Location":"BORANT INC","Address":"20030 Pellisier Rd","City":"Tehachapi","State":"CA","Zip":"93561"},{"Location":"BVSA GOLF SHOP","Address":"29541 Rollingoak Dr Golf","City":"Tehachapi","State":"CA","Zip":"93561"},{"Location":"BVSA WHITING CENTER","Address":"26940 Bear Valley Rd","City":"Tehachapi","State":"CA","Zip":"93561"},{"Location":"CAMP 8","Address":"20569 Eumatilla Rd","City":"Tehachapi","State":"CA","Zip":"93561"},{"Location":"COUNTRY REAL ESTATE","Address":"107 E Tehachapi Blvd","City":"Tehachapi","State":"CA","Zip":"93561"},{"Location":"DOG HOUSE SALOON","Address":"777 W Tehachapi Blvd C","City":"Tehachapi","State":"CA","Zip":"93561"},{"Location":"DON PERICO","Address":"840 Tucker Rd","City":"Tehachapi","State":"CA","Zip":"93561"},{"Location":"DR SUSAN HALL","Address":"432 W J St 4","City":"Tehachapi","State":"CA","Zip":"93561"},{"Location":"GE POWER AND WATER","Address":"13681 Chantico Rd","City":"Tehachapi","State":"CA","Zip":"93561"},{"Location":"HALL AMBULANCE SERVICE","Address":"326 W F St","City":"Tehachapi","State":"CA","Zip":"93561"},{"Location":"HALL AMBULANCE SERVICE 2","Address":"108 Pinon St","City":"Tehachapi","State":"CA","Zip":"93561"},{"Location":"HALL AMBULANCE SERVICES","Address":"21304 Woodford Tehachapi Rd","City":"Tehachapi","State":"CA","Zip":"93561"},{"Location":"HORSETHIEF COUNTRY CLUB","Address":"28950 Horsethief Dr","City":"Tehachapi","State":"CA","Zip":"93561"},{"Location":"ICHIBAN","Address":"675 Tucker Rd","City":"Tehachapi","State":"CA","Zip":"93561"},{"Location":"JAKE'S RESTAURANT","Address":"213 S Curry St.","City":"Tehachapi","State":"CA","Zip":"93561"},{"Location":"JAKE'S STEAKHOUSE","Address":"213 S Curry St","City":"Tehachapi","State":"CA","Zip":"93561"},{"Location":"JS ARNOLD LEGACY LLC","Address":"24627 Cummings Valley Rd","City":"Tehachapi","State":"CA","Zip":"93561"},{"Location":"MICHAEL DOWNUN","Address":"550 Tucker Rd B","City":"Tehachapi","State":"CA","Zip":"93561"},{"Location":"MIDORI SUSHI","Address":"414 W Tehachapi Blvd","City":"Tehachapi","State":"CA","Zip":"93561"},{"Location":"MS TRANSPORT CORP 2","Address":"610 Bailey Ave","City":"Tehachapi","State":"CA","Zip":"93561"},{"Location":"OAK TREE COUNTRY CLUB","Address":"29500 Lower Valley Rd","City":"Tehachapi","State":"CA","Zip":"93561"},{"Location":"PAPAS PIZZA AND GRILL1","Address":"27821 Stallion Springs Dr","City":"Tehachapi","State":"CA","Zip":"93561"},{"Location":"PD GRILLE & BAR","Address":"27725 Stallion Springs Dr","City":"Tehachapi","State":"CA","Zip":"93561"},{"Location":"RUNNING GAVEL INC","Address":"20245 Tehachapi Willow Springs","City":"Tehachapi","State":"CA","Zip":"93561"},{"Location":"SOUTHERN CALIFORNIA EDISON","Address":"421 W J St A","City":"Tehachapi","State":"CA","Zip":"93561"},{"Location":"STATE FARM WILLIAM KOTZ","Address":"300 Tucker Rd B","City":"Tehachapi","State":"CA","Zip":"93561"},{"Location":"SUNNYVIEW GAS SPOT","Address":"1050 Capitol Hills Pkwy","City":"Tehachapi","State":"CA","Zip":"93561"},{"Location":"TEHACHAPI AUTO GLASS","Address":"421 N Green St G","City":"Tehachapi","State":"CA","Zip":"93561"},{"Location":"THE GARAGE","Address":"431 N Green St D","City":"Tehachapi","State":"CA","Zip":"93561"},{"Location":"THE GYM","Address":"20358 W Valley Blvd","City":"Tehachapi","State":"CA","Zip":"93561"},{"Location":"THE TEHACHAPI MOUNTAIN PUB","Address":"20717 South St","City":"Tehachapi","State":"CA","Zip":"93561"},{"Location":"VERITAS LLC","Address":"695 Tucker Rd C","City":"Tehachapi","State":"CA","Zip":"93561"},{"Location":"VFW","Address":"221 W Tehachapi Blvd","City":"Tehachapi","State":"CA","Zip":"93561"},{"Location":"WHITE OAK HOME CARE","Address":"87 White Oak Dr","City":"Tehachapi","State":"CA","Zip":"93561"}]