[{"Location":"AQUA MIRAGE","Address":"2101 W Rosamond Blvd B","City":"Rosamond","State":"CA","Zip":"93560"},{"Location":"CHAI TAI AND GARDEN","Address":"3030 Sierra Hwy","City":"Rosamond","State":"CA","Zip":"93560"},{"Location":"COMMUNITY SERVICES DISTRICT","Address":"3179 35th St W","City":"Rosamond","State":"CA","Zip":"93560"},{"Location":"CRAZY OTTOS","Address":"2635 Diamond St","City":"Rosamond","State":"CA","Zip":"93560"},{"Location":"CROSSING AT ROSAMOND","Address":"3080 Sedona St","City":"Rosamond","State":"CA","Zip":"93560"},{"Location":"DELATORRE","Address":"4001 Knox Ave","City":"Rosamond","State":"CA","Zip":"93560"},{"Location":"DIAMOND JIM'S CASINO","Address":"118 20th St W","City":"Rosamond","State":"CA","Zip":"93560"},{"Location":"HALL AMBULANCE SERVICE INC","Address":"2939 Diamond St","City":"Rosamond","State":"CA","Zip":"93560"},{"Location":"MEYERS GUIDOS PIZZA","Address":"2938 Sierra Hwy","City":"Rosamond","State":"CA","Zip":"93560"},{"Location":"NICK & DAVES THE TIRE CE","Address":"1816 W Rosamond Blvd","City":"Rosamond","State":"CA","Zip":"93560"},{"Location":"NORMAS","Address":"1315 W Rosamond Blvd","City":"Rosamond","State":"CA","Zip":"93560"},{"Location":"NORTHROP GRUMMAN","Address":"6242 Little Oak Cayon Road","City":"Rosamond","State":"CA","Zip":"93560"},{"Location":"NOT YOUR MAMAS BAR INC.","Address":"4417 W Rosamond Blvd","City":"Rosamond","State":"CA","Zip":"93560"},{"Location":"RAMONS RESTAURANT","Address":"1431 W Rosamond Blvd 9&10","City":"Rosamond","State":"CA","Zip":"93560"},{"Location":"ROBERTOS MEXICAN FOOD","Address":"4401 W Rosamond Blvd","City":"Rosamond","State":"CA","Zip":"93560"},{"Location":"SAL'S MEXICAN RESTAURANT","Address":"2701 Sierra Hwy","City":"Rosamond","State":"CA","Zip":"93560"},{"Location":"SAMS SMOKE SHOP","Address":"1431 W Rosamond Blvd 7","City":"Rosamond","State":"CA","Zip":"93560"},{"Location":"TARA ESTATES","Address":"1550 20th St W","City":"Rosamond","State":"CA","Zip":"93560"},{"Location":"WILLOW SPRING RACEWAY","Address":"3500 75th St W","City":"Rosamond","State":"CA","Zip":"93560"},{"Location":"ZEBRA","Address":"2763 Sierra Hwy","City":"Rosamond","State":"CA","Zip":"93560"}]