[{"Location":"ALL PROFRESSIONAL STAFFING LLC","Address":"40235 170th St E A","City":"Palmdale","State":"CA","Zip":"93591"},{"Location":"AMERICAN  MEDICAL  RESPONSE","Address":"40235 170th St E","City":"Palmdale","State":"CA","Zip":"93591"},{"Location":"ELOISA BEAUTY SALON","Address":"9043 E Palmdale Blvd","City":"Palmdale","State":"CA","Zip":"93591"},{"Location":"LAKE LA BURGER ING","Address":"17116 E Avenue O","City":"Palmdale","State":"CA","Zip":"93591"},{"Location":"LAKE LA SILVER","Address":"40303 170th St E A","City":"Palmdale","State":"CA","Zip":"93591"},{"Location":"ALL PROFRESSIONAL STAFFING LLC","Address":"40235 170th St E A","City":"Palmdale","State":"CA","Zip":"93591"},{"Location":"AMERICAN  MEDICAL  RESPONSE","Address":"40235 170th St E","City":"Palmdale","State":"CA","Zip":"93591"},{"Location":"ELOISA BEAUTY SALON","Address":"9043 E Palmdale Blvd","City":"Palmdale","State":"CA","Zip":"93591"},{"Location":"LAKE LA BURGER ING","Address":"17116 E Avenue O","City":"Palmdale","State":"CA","Zip":"93591"},{"Location":"LAKE LA SILVER","Address":"40303 170th St E A","City":"Palmdale","State":"CA","Zip":"93591"}]