[{"Location":"SCE","Address":"54336 Mountain Poplar","City":"Big Creek","State":"CA","Zip":"93605"},{"Location":"SCE NHD BIG CREEK","Address":"54170 Spruce Rd","City":"Big Creek","State":"CA","Zip":"93605"},{"Location":"SOUTHERN CALIF EDISON","Address":"54167 Huntington Lake Rd","City":"Big Creek","State":"CA","Zip":"93605"},{"Location":"SOUTHERN CALIFORNIA EDISON","Address":"54321 Mtn Poplar","City":"Big Creek","State":"CA","Zip":"93605"},{"Location":"SOUTHERN CALIFORNIA EDISON BC","Address":"54760 Poplar Rd","City":"Big Creek","State":"CA","Zip":"93605"},{"Location":"SOUTHERN CALIFORNIA EDISON WC","Address":"54577 Mountain Poplar","City":"Big Creek","State":"CA","Zip":"93605"},{"Location":"SCE","Address":"54336 Mountain Poplar","City":"Big Creek","State":"CA","Zip":"93605"},{"Location":"SCE NHD BIG CREEK","Address":"54170 Spruce Rd","City":"Big Creek","State":"CA","Zip":"93605"},{"Location":"SOUTHERN CALIF EDISON","Address":"54167 Huntington Lake Rd","City":"Big Creek","State":"CA","Zip":"93605"},{"Location":"SOUTHERN CALIFORNIA EDISON","Address":"54321 Mtn Poplar","City":"Big Creek","State":"CA","Zip":"93605"},{"Location":"SOUTHERN CALIFORNIA EDISON BC","Address":"54760 Poplar Rd","City":"Big Creek","State":"CA","Zip":"93605"},{"Location":"SOUTHERN CALIFORNIA EDISON WC","Address":"54577 Mountain Poplar","City":"Big Creek","State":"CA","Zip":"93605"}]