[{"Location":"GRANITE OAKS MANAGEMENT","Address":"41709 Road 600","City":"Ahwahnee","State":"CA","Zip":"93601"},{"Location":"HOMESTEAD","Address":"41110 Road 600","City":"Ahwahnee","State":"CA","Zip":"93601"},{"Location":"NATURES INN","Address":"44625 Silver Spur Trl","City":"Ahwahnee","State":"CA","Zip":"93601"},{"Location":"SIERRA MEADOWS CC","Address":"46516 Opah Dr","City":"Ahwahnee","State":"CA","Zip":"93601"},{"Location":"THE HITCHING POST","Address":"42592 Highway 49","City":"Ahwahnee","State":"CA","Zip":"93601"},{"Location":"GRANITE OAKS MANAGEMENT","Address":"41709 Road 600","City":"Ahwahnee","State":"CA","Zip":"93601"},{"Location":"HOMESTEAD","Address":"41110 Road 600","City":"Ahwahnee","State":"CA","Zip":"93601"},{"Location":"NATURES INN","Address":"44625 Silver Spur Trl","City":"Ahwahnee","State":"CA","Zip":"93601"},{"Location":"SIERRA MEADOWS CC","Address":"46516 Opah Dr","City":"Ahwahnee","State":"CA","Zip":"93601"},{"Location":"THE HITCHING POST","Address":"42592 Highway 49","City":"Ahwahnee","State":"CA","Zip":"93601"}]