[{"Location":"AVA FITNESS SPA","Address":"1505 E Robertson Blvd","City":"Chowchilla","State":"CA","Zip":"93610"},{"Location":"CAGLIA ENVIRONMENTAL LLC","Address":"21739 Road 19","City":"Chowchilla","State":"CA","Zip":"93610"},{"Location":"CORSAROS FAMILY PIZZA","Address":"1702 Robertson Blvd","City":"Chowchilla","State":"CA","Zip":"93610"},{"Location":"EL GRULLENSE","Address":"108 Carlyle Way","City":"Chowchilla","State":"CA","Zip":"93610"},{"Location":"GOLDEN YEARS SENIOR CENTER","Address":"160 S 13th St","City":"Chowchilla","State":"CA","Zip":"93610"},{"Location":"MARIPOSA HOLDING CO","Address":"Po Box 148","City":"Chowchilla","State":"CA","Zip":"93610"},{"Location":"MINTURN HULLER COOP.","Address":"9080 S Minturn Rd","City":"Chowchilla","State":"CA","Zip":"93610"},{"Location":"PERKOS CAFE","Address":"201 Carlyle Way","City":"Chowchilla","State":"CA","Zip":"93610"},{"Location":"STEVES CHEVROLET","Address":"1 Auto Park Dr","City":"Chowchilla","State":"CA","Zip":"93610"},{"Location":"ALPHA MECHANICAL INC","Address":"2380 Capri","City":"Chowchilla","State":"CA","Zip":"93610"},{"Location":"AVA FITNESS SPA","Address":"1505 E Robertson Blvd","City":"Chowchilla","State":"CA","Zip":"93610"},{"Location":"CAGLIA ENVIRONMENTAL LLC","Address":"21739 Road 19","City":"Chowchilla","State":"CA","Zip":"93610"},{"Location":"CORSAROS FAMILY PIZZA","Address":"1702 Robertson Blvd","City":"Chowchilla","State":"CA","Zip":"93610"},{"Location":"EL GRULLENSE","Address":"108 Carlyle Way","City":"Chowchilla","State":"CA","Zip":"93610"},{"Location":"GOLDEN YEARS SENIOR CENTER","Address":"160 S 13th St","City":"Chowchilla","State":"CA","Zip":"93610"},{"Location":"MARIPOSA HOLDING CO","Address":"Po Box 148","City":"Chowchilla","State":"CA","Zip":"93610"},{"Location":"MINTURN HULLER COOP.","Address":"9080 S Minturn Rd","City":"Chowchilla","State":"CA","Zip":"93610"},{"Location":"PERKOS CAFE","Address":"201 Carlyle Way","City":"Chowchilla","State":"CA","Zip":"93610"},{"Location":"STEVES CHEVROLET","Address":"1 Auto Park Dr","City":"Chowchilla","State":"CA","Zip":"93610"}]