[{"Location":"AMERICAN AMBULANCE","Address":"292 E Herndon Ave","City":"Clovis","State":"CA","Zip":"93611"},{"Location":"BETHESDA LUTHERAN COMMUNITIES","Address":"1830 Ashcroft Ave","City":"Clovis","State":"CA","Zip":"93611"},{"Location":"BETHSEDA LUTHERAN COMMUNITIES","Address":"3235 Filbert Ave","City":"Clovis","State":"CA","Zip":"93611"},{"Location":"BOBBY SALAZARS TAQUERIA","Address":"1805 Herndon Ave","City":"Clovis","State":"CA","Zip":"93611"},{"Location":"CLOVIS FIREFIGHTER ASSOCIATION","Address":"790 N Temperance Ave","City":"Clovis","State":"CA","Zip":"93611"},{"Location":"CLOVIS NAILS","Address":"3150 Fowler Ave","City":"Clovis","State":"CA","Zip":"93611"},{"Location":"COMMUNITY MEDICAL CENTER","Address":"651 Medical Center Dr W","City":"Clovis","State":"CA","Zip":"93611"},{"Location":"DICKEYS CLOVIS","Address":"1610 Herndon Ave 106","City":"Clovis","State":"CA","Zip":"93611"},{"Location":"EQUITY AG FINANCIAL INC","Address":"672 N Harvard Ave","City":"Clovis","State":"CA","Zip":"93611"},{"Location":"FRESNO BODY WORK","Address":"255 Park Creek Dr","City":"Clovis","State":"CA","Zip":"93611"},{"Location":"FRESNO COMMUNITY HOSPITAL","Address":"789 Medical Center Drive E","City":"Clovis","State":"CA","Zip":"93611"},{"Location":"GEORGE BROWN SPORT CLUB","Address":"1885 Herndon Ave Gb3","City":"Clovis","State":"CA","Zip":"93611"},{"Location":"GIUSEPPE GALLOWS","Address":"1177 N Willow Ave","City":"Clovis","State":"CA","Zip":"93611"},{"Location":"HAIRCUTS 101","Address":"1840 Shaw Ave 103","City":"Clovis","State":"CA","Zip":"93611"},{"Location":"JOHNNIE QUICK","Address":"1799 Bullard Ave","City":"Clovis","State":"CA","Zip":"93611"},{"Location":"JOHNNY QUICK FOOD STORE #187","Address":"785 Temperance Ave","City":"Clovis","State":"CA","Zip":"93611"},{"Location":"LAVERNES PLACE","Address":"3194 Laverne Ave","City":"Clovis","State":"CA","Zip":"93611"},{"Location":"LES SCHWAB TIRE #562","Address":"1635 Herndon Ave","City":"Clovis","State":"CA","Zip":"93611"},{"Location":"ME-N-EDS PIZZERIA DIV87","Address":"1077 N Willow Ave 107","City":"Clovis","State":"CA","Zip":"93611"},{"Location":"ME-N-EDS PIZZERIA DIV97","Address":"765 N Temperance Ave 105","City":"Clovis","State":"CA","Zip":"93611"},{"Location":"ME-N-EDS PIZZERIA-DIV88","Address":"3150 Fowler Aver 107","City":"Clovis","State":"CA","Zip":"93611"},{"Location":"MERIDIAN NUT GROWERS","Address":"1625 Shaw Ave 101","City":"Clovis","State":"CA","Zip":"93611"},{"Location":"MISS KITTYS LOUNGE","Address":"2220 Herndon Ave 104","City":"Clovis","State":"CA","Zip":"93611"},{"Location":"NEIGHBORS TAP & COOKHOUSE","Address":"1175 N Fowler Ave 800","City":"Clovis","State":"CA","Zip":"93611"},{"Location":"NORTHSIDE CHRISTIAN CHURCH","Address":"2709 E Nees Ave","City":"Clovis","State":"CA","Zip":"93611"},{"Location":"OFFICE BAY","Address":"2525 E Alluvial Ave","City":"Clovis","State":"CA","Zip":"93611"},{"Location":"ONE STOP CUT","Address":"1445 Shaw Ave 120","City":"Clovis","State":"CA","Zip":"93611"},{"Location":"PIZZA HUT- CLOVIS","Address":"1610 Herndon Ave 102","City":"Clovis","State":"CA","Zip":"93611"},{"Location":"PRESS BOX","Address":"1785 Herndon Ave 102","City":"Clovis","State":"CA","Zip":"93611"},{"Location":"SAMUEL RUSH LLC","Address":"684 Medical Center Dr E 105","City":"Clovis","State":"CA","Zip":"93611"},{"Location":"SCOTT","Address":"425 W Kelly Ave","City":"Clovis","State":"CA","Zip":"93611"},{"Location":"SCP","Address":"100 Park Creek Dr","City":"Clovis","State":"CA","Zip":"93611"},{"Location":"TAVISTOCK FREEBIRDS LLC CLOVIS","Address":"1755 Herndon Ave 102","City":"Clovis","State":"CA","Zip":"93611"},{"Location":"THE TREND GROUP","Address":"1486 Tollhouse Rd 101","City":"Clovis","State":"CA","Zip":"93611"},{"Location":"UNION BANK 724","Address":"1157 N Willow Ave","City":"Clovis","State":"CA","Zip":"93611"},{"Location":"UNIQUE ORTHODONTICS","Address":"427 W Nees Ave 101","City":"Clovis","State":"CA","Zip":"93611"},{"Location":"WOMENSSPECIALTY&FERTILIY","Address":"729 Medical Center Dr E 205","City":"Clovis","State":"CA","Zip":"93611"},{"Location":"AMERICAN AMBULANCE","Address":"292 E Herndon Ave","City":"Clovis","State":"CA","Zip":"93611"},{"Location":"BETHESDA LUTHERAN COMMUNITIES","Address":"1830 Ashcroft Ave","City":"Clovis","State":"CA","Zip":"93611"},{"Location":"BETHSEDA LUTHERAN COMMUNITIES","Address":"3235 Filbert Ave","City":"Clovis","State":"CA","Zip":"93611"},{"Location":"BOBBY SALAZARS TAQUERIA","Address":"1805 Herndon Ave","City":"Clovis","State":"CA","Zip":"93611"},{"Location":"CLOVIS FIREFIGHTER ASSOCIATION","Address":"790 N Temperance Ave","City":"Clovis","State":"CA","Zip":"93611"},{"Location":"CLOVIS NAILS","Address":"3150 Fowler Ave","City":"Clovis","State":"CA","Zip":"93611"},{"Location":"COMMUNITY MEDICAL CENTER","Address":"651 Medical Center Dr W","City":"Clovis","State":"CA","Zip":"93611"},{"Location":"DICKEYS CLOVIS","Address":"1610 Herndon Ave 106","City":"Clovis","State":"CA","Zip":"93611"},{"Location":"FRESNO BODY WORK","Address":"255 Park Creek Dr","City":"Clovis","State":"CA","Zip":"93611"},{"Location":"FRESNO COMMUNITY HOSPITAL","Address":"789 Medical Center Drive E","City":"Clovis","State":"CA","Zip":"93611"},{"Location":"GEORGE BROWN SPORT CLUB","Address":"1885 Herndon Ave Gb3","City":"Clovis","State":"CA","Zip":"93611"},{"Location":"GIUSEPPE GALLOWS","Address":"1177 N Willow Ave","City":"Clovis","State":"CA","Zip":"93611"},{"Location":"HAIRCUTS 101","Address":"1840 Shaw Ave 103","City":"Clovis","State":"CA","Zip":"93611"},{"Location":"JOHNNIE QUICK","Address":"1799 Bullard Ave","City":"Clovis","State":"CA","Zip":"93611"},{"Location":"JOHNNY QUICK FOOD STORE #187","Address":"785 Temperance Ave","City":"Clovis","State":"CA","Zip":"93611"},{"Location":"LAVERNES PLACE","Address":"3194 Laverne Ave","City":"Clovis","State":"CA","Zip":"93611"},{"Location":"LES SCHWAB TIRE","Address":"1635 Herndon Ave","City":"Clovis","State":"CA","Zip":"93611"},{"Location":"ME-N-EDS PIZZERIA DIV87","Address":"1077 N Willow Ave 107","City":"Clovis","State":"CA","Zip":"93611"},{"Location":"ME-N-EDS PIZZERIA DIV97","Address":"765 N Temperance Ave 105","City":"Clovis","State":"CA","Zip":"93611"},{"Location":"ME-N-EDS PIZZERIA-DIV88","Address":"3150 Fowler Aver 107","City":"Clovis","State":"CA","Zip":"93611"},{"Location":"MERIDIAN NUT GROWERS","Address":"1625 Shaw Ave 101","City":"Clovis","State":"CA","Zip":"93611"},{"Location":"MISS KITTYS LOUNGE","Address":"2220 Herndon Ave 104","City":"Clovis","State":"CA","Zip":"93611"},{"Location":"NEIGHBORS TAP & COOKHOUSE","Address":"1175 N Fowler Ave 800","City":"Clovis","State":"CA","Zip":"93611"},{"Location":"NORTHSIDE CHRISTIAN CHURCH","Address":"2709 E Nees Ave","City":"Clovis","State":"CA","Zip":"93611"},{"Location":"OFFICE BAY","Address":"2525 E Alluvial Ave","City":"Clovis","State":"CA","Zip":"93611"},{"Location":"ONE STOP CUT","Address":"1445 Shaw Ave 120","City":"Clovis","State":"CA","Zip":"93611"},{"Location":"PIZZA HUT- CLOVIS","Address":"1610 Herndon Ave 102","City":"Clovis","State":"CA","Zip":"93611"},{"Location":"PRESS BOX","Address":"1785 Herndon Ave 102","City":"Clovis","State":"CA","Zip":"93611"},{"Location":"SAMUEL RUSH LLC","Address":"684 Medical Center Dr E 105","City":"Clovis","State":"CA","Zip":"93611"},{"Location":"SCOTT","Address":"425 W Kelly Ave","City":"Clovis","State":"CA","Zip":"93611"},{"Location":"SCP","Address":"100 Park Creek Dr","City":"Clovis","State":"CA","Zip":"93611"},{"Location":"TAVISTOCK FREEBIRDS LLC CLOVIS","Address":"1755 Herndon Ave 102","City":"Clovis","State":"CA","Zip":"93611"},{"Location":"THE TREND GROUP","Address":"1486 Tollhouse Rd 101","City":"Clovis","State":"CA","Zip":"93611"},{"Location":"UNION BANK 724","Address":"1157 N Willow Ave","City":"Clovis","State":"CA","Zip":"93611"},{"Location":"UNIQUE ORTHODONTICS","Address":"427 W Nees Ave 101","City":"Clovis","State":"CA","Zip":"93611"},{"Location":"WOMENSSPECIALTY&FERTILIY","Address":"729 Medical Center Dr E 205","City":"Clovis","State":"CA","Zip":"93611"}]