[{"Location":"BEST BUY CO INC","Address":"777 Monte Vista Dr","City":"Dinuba","State":"CA","Zip":"93618"},{"Location":"CENTRAL VALLEY%2FDINUBA","Address":"444 El Monte Way","City":"Dinuba","State":"CA","Zip":"93618"},{"Location":"COCOLOCO CHIC SALON","Address":"165 E Tulare St","City":"Dinuba","State":"CA","Zip":"93618"},{"Location":"DAVITA #5330 DINUBA","Address":"510 E North Way","City":"Dinuba","State":"CA","Zip":"93618"},{"Location":"DEFINITIVE STAFFING SOLUTION 2","Address":"820 N Alta Ave D","City":"Dinuba","State":"CA","Zip":"93618"},{"Location":"DINUBA HEALTH CLINIC","Address":"355 Monte Vista Dr","City":"Dinuba","State":"CA","Zip":"93618"},{"Location":"DS DOWNTOWN","Address":"100 N L St","City":"Dinuba","State":"CA","Zip":"93618"},{"Location":"FRUIT PATCH","Address":"38773 Road 48","City":"Dinuba","State":"CA","Zip":"93618"},{"Location":"HISPANO DENTAL CARE","Address":"2108 E El Monte Way","City":"Dinuba","State":"CA","Zip":"93618"},{"Location":"LES SCHWAB TIRE CENTER","Address":"1060 W El Monte Way","City":"Dinuba","State":"CA","Zip":"93618"},{"Location":"LIVING WORD FELLOWSHIP","Address":"105 Auto Mall Dr","City":"Dinuba","State":"CA","Zip":"93618"},{"Location":"LOREN FRIESEN STATE FARM INS","Address":"688 N Alta Ave","City":"Dinuba","State":"CA","Zip":"93618"},{"Location":"MARIA SOLIS","Address":"125 N K St","City":"Dinuba","State":"CA","Zip":"93618"},{"Location":"MARISCOS LOS COMPADRES","Address":"376 W Tulare St","City":"Dinuba","State":"CA","Zip":"93618"},{"Location":"ME-N-EDS PIZZERIA-DIV25","Address":"1583 E El Monte Way","City":"Dinuba","State":"CA","Zip":"93618"},{"Location":"PATTERSON LOGISTICS","Address":"800 Monte Vista Dr","City":"Dinuba","State":"CA","Zip":"93618"},{"Location":"PIZZA HUT #022936","Address":"1540 E El Monte Way","City":"Dinuba","State":"CA","Zip":"93618"},{"Location":"PRIME HARVEST","Address":"200 N Uruatan Way","City":"Dinuba","State":"CA","Zip":"93618"},{"Location":"PUPPY CUTS","Address":"324 E Tulare St","City":"Dinuba","State":"CA","Zip":"93618"},{"Location":"RIDGE CREEK GOLF CLUB","Address":"3018 Ridge Creek Dr","City":"Dinuba","State":"CA","Zip":"93618"},{"Location":"SAFARI MEXICAN RESTAURANT","Address":"337 W Tulare St","City":"Dinuba","State":"CA","Zip":"93618"},{"Location":"XCELERATE FITNESS","Address":"1401 W El Monte Way 101","City":"Dinuba","State":"CA","Zip":"93618"}]