[{"Location":"AMERICAN AMBULANCE","Address":"4910 E Ashlan Ave","City":"Clovis","State":"CA","Zip":"93619"},{"Location":"ELITE NAILS","Address":"1365 N Willow Ave 130","City":"Clovis","State":"CA","Zip":"93619"},{"Location":"FARMERS GAS STATION","Address":"5020 N Academy Ave","City":"Clovis","State":"CA","Zip":"93619"},{"Location":"GROGGS IRISH PUB","Address":"1225 N Willow Ave","City":"Clovis","State":"CA","Zip":"93619"},{"Location":"HOUSE OF PENDRAGON BREWING CO","Address":"1345 N Willow Ave","City":"Clovis","State":"CA","Zip":"93619"},{"Location":"LUPES KITCHEN","Address":"5373 Mendocino Ave","City":"Clovis","State":"CA","Zip":"93619"},{"Location":"ME-N-EDS PIZZERIA DIV109","Address":"1990 N Fowler Ave 101","City":"Clovis","State":"CA","Zip":"93619"},{"Location":"MOTHER MARYS","Address":"1345 N Willow Ave 190","City":"Clovis","State":"CA","Zip":"93619"},{"Location":"P-R FARMS INC","Address":"2917 E Shepherd Ave","City":"Clovis","State":"CA","Zip":"93619"},{"Location":"PHO LE 777","Address":"1365 N Willow Ave 100","City":"Clovis","State":"CA","Zip":"93619"},{"Location":"PROCOM INVESTMENTS LLC","Address":"1736 N Hughes Ave","City":"Clovis","State":"CA","Zip":"93619"},{"Location":"QUALITY GROUP HOMES","Address":"4165 E Perrin Rd","City":"Clovis","State":"CA","Zip":"93619"},{"Location":"SPORT CLIPS CA202","Address":"1215 N Willow Ave 170","City":"Clovis","State":"CA","Zip":"93619"},{"Location":"SUSHI 2","Address":"1305 N Willow Ave 190","City":"Clovis","State":"CA","Zip":"93619"},{"Location":"THE MEAT MARKET NORTHEAS","Address":"1990 N Fowler Ave","City":"Clovis","State":"CA","Zip":"93619"},{"Location":"THE RED CABOOSE CAFE","Address":"5054 N Academy Ave E","City":"Clovis","State":"CA","Zip":"93619"},{"Location":"TRUE NORTH DETOX","Address":"22051 Oak Hill Ln","City":"Clovis","State":"CA","Zip":"93619"}]