[{"Location":"AMERICAN AMBULANCE","Address":"205 W Bullard Ave 13","City":"Clovis","State":"CA","Zip":"93612"},{"Location":"APPLEBEE'S CLOVIS #2111024","Address":"98 Shaw Ave","City":"Clovis","State":"CA","Zip":"93612"},{"Location":"ATHLETIC PERFORMANCE TRA","Address":"340 Clovis Ave","City":"Clovis","State":"CA","Zip":"93612"},{"Location":"BC'S PIZZA & BEER","Address":"1315 Shaw Ave","City":"Clovis","State":"CA","Zip":"93612"},{"Location":"BOBBY SALAZARS","Address":"434 Clovis Ave","City":"Clovis","State":"CA","Zip":"93612"},{"Location":"BRICK AND MORTAR FURNITURE","Address":"618 5th St","City":"Clovis","State":"CA","Zip":"93612"},{"Location":"CIGARS LTD","Address":"630 Clovis Ave","City":"Clovis","State":"CA","Zip":"93612"},{"Location":"CLASSIC BILLIARDS LLC","Address":"711 W Shaw Ave 114","City":"Clovis","State":"CA","Zip":"93612"},{"Location":"CLOVIS ELKS LODGE","Address":"535 Woodworth Ave","City":"Clovis","State":"CA","Zip":"93612"},{"Location":"CLOVIS FIREFIGHTERS ASSOC","Address":"633 Pollasky Ave","City":"Clovis","State":"CA","Zip":"93612"},{"Location":"CLOVIS FITNESS 19","Address":"313 W Shaw Ave","City":"Clovis","State":"CA","Zip":"93612"},{"Location":"CLOVIS PIZZA JUNCTION","Address":"255 N Clovis Ave 115","City":"Clovis","State":"CA","Zip":"93612"},{"Location":"COOL HAND LUKES","Address":"955 Shaw Ave","City":"Clovis","State":"CA","Zip":"93612"},{"Location":"CREEK PARK VILLAGE","Address":"350 Minnewawa Ave","City":"Clovis","State":"CA","Zip":"93612"},{"Location":"DAVES CUSTOM WOODWORKING INC","Address":"1141 Barstow Ave","City":"Clovis","State":"CA","Zip":"93612"},{"Location":"DELIFERRO INC","Address":"635 W Shaw Ave 103","City":"Clovis","State":"CA","Zip":"93612"},{"Location":"DICICCO ITALIAN RESTAURANT","Address":"408 Clovis Ave","City":"Clovis","State":"CA","Zip":"93612"},{"Location":"DICK'S SPORTING GOODS #623","Address":"1225 Herndon Ave","City":"Clovis","State":"CA","Zip":"93612"},{"Location":"DOUBLE PLAY PIZZA","Address":"2794 Willow Ave","City":"Clovis","State":"CA","Zip":"93612"},{"Location":"EATON AND CUNNINGHAM INS","Address":"2221 Villa Ave 100","City":"Clovis","State":"CA","Zip":"93612"},{"Location":"ELEPHANT LOUNGE BAR & GR","Address":"80 W Shaw Ave","City":"Clovis","State":"CA","Zip":"93612"},{"Location":"ELLE STYLE BAR","Address":"610 5th St","City":"Clovis","State":"CA","Zip":"93612"},{"Location":"EPN - CHANDEEP PUREWAL","Address":"2221 Villa Ave 101","City":"Clovis","State":"CA","Zip":"93612"},{"Location":"FIRESTONE #024716","Address":"790 Clovis Ave","City":"Clovis","State":"CA","Zip":"93612"},{"Location":"FITNESS EVOLUTION","Address":"1295 Shaw Ave","City":"Clovis","State":"CA","Zip":"93612"},{"Location":"FORESTIERE'S PLACE","Address":"401 Clovis Ave 106","City":"Clovis","State":"CA","Zip":"93612"},{"Location":"GRAHAM CONCRETE CONSTRUCTION","Address":"1323 Dayton Ave","City":"Clovis","State":"CA","Zip":"93612"},{"Location":"GRILL MASTERS BBQ","Address":"2700 Clovis Ave 109","City":"Clovis","State":"CA","Zip":"93612"},{"Location":"HENRY'S CANTINA","Address":"622 5th St","City":"Clovis","State":"CA","Zip":"93612"},{"Location":"HOOK AND LADDER","Address":"711 W Shaw Ave 103","City":"Clovis","State":"CA","Zip":"93612"},{"Location":"HOUSE OF JUJU","Address":"453 Pollasky Ave","City":"Clovis","State":"CA","Zip":"93612"},{"Location":"I LOVE SUSHI","Address":"465 W Shaw Ave","City":"Clovis","State":"CA","Zip":"93612"},{"Location":"ISHIHARA-LIANG  INC","Address":"711 W Shaw Ave 107","City":"Clovis","State":"CA","Zip":"93612"},{"Location":"JIMBOS","Address":"495 Herndon Ave","City":"Clovis","State":"CA","Zip":"93612"},{"Location":"JOES GARAGE","Address":"1032 Barstow Ave C","City":"Clovis","State":"CA","Zip":"93612"},{"Location":"JOHNNY QUIK  STORE","Address":"55 Shaw Ave 122","City":"Clovis","State":"CA","Zip":"93612"},{"Location":"JORGE PLACE","Address":"610 Shaw Ave","City":"Clovis","State":"CA","Zip":"93612"},{"Location":"KOHL'S #1399","Address":"1000 Shaw Ave","City":"Clovis","State":"CA","Zip":"93612"},{"Location":"LES SCHWAB TIRE CENTERS","Address":"1742 Clovis Ave","City":"Clovis","State":"CA","Zip":"93612"},{"Location":"LITHIA NISSAN OF CLOVIS","Address":"370 W Herndon Ave","City":"Clovis","State":"CA","Zip":"93612"},{"Location":"LUNA PIZZERIA REST","Address":"349 Pollasky Ave","City":"Clovis","State":"CA","Zip":"93612"},{"Location":"MB2 RACEWAY SHAW","Address":"1200 Shaw Ave","City":"Clovis","State":"CA","Zip":"93612"},{"Location":"ME-N-EDS PIZZERIA DIV128","Address":"1210 Shaw Ave 103","City":"Clovis","State":"CA","Zip":"93612"},{"Location":"ME-N-EDS PIZZERIA- DIV17","Address":"50 W Bullard Ave 101","City":"Clovis","State":"CA","Zip":"93612"},{"Location":"ME-N-EDS PIZZERIA-011","Address":"487 W Shaw Ave","City":"Clovis","State":"CA","Zip":"93612"},{"Location":"MICHELANGELOS PIZZERIA","Address":"619 Woodworth Ave 101","City":"Clovis","State":"CA","Zip":"93612"},{"Location":"OLD TOWN SALOON","Address":"450 Clovis Ave","City":"Clovis","State":"CA","Zip":"93612"},{"Location":"OLD TOWN SHELL","Address":"521 Clovis Ave","City":"Clovis","State":"CA","Zip":"93612"},{"Location":"OUTLAW TAVERN","Address":"325 Clovis Ave","City":"Clovis","State":"CA","Zip":"93612"},{"Location":"PACIFIC DENTAL 239","Address":"1095 Herndon Ave 102","City":"Clovis","State":"CA","Zip":"93612"},{"Location":"PLANNED PARENTHOOD","Address":"90 W Ashlan Ave 100","City":"Clovis","State":"CA","Zip":"93612"},{"Location":"PRICE%2C PAIGE AND CO","Address":"677 Scott Ave","City":"Clovis","State":"CA","Zip":"93612"},{"Location":"PROFESSIONAL FLOOR CARE","Address":"110 W Pontiac Way 109","City":"Clovis","State":"CA","Zip":"93612"},{"Location":"QUICKLY","Address":"701 W Shaw Ave 101","City":"Clovis","State":"CA","Zip":"93612"},{"Location":"RED ROBIN #239","Address":"950 Shaw Ave","City":"Clovis","State":"CA","Zip":"93612"},{"Location":"RIOGRILL BRAZILIAN STEAK","Address":"1240 Shaw Ave","City":"Clovis","State":"CA","Zip":"93612"},{"Location":"ROUND TABLE-HERNDON AVE","Address":"775 W Herndon Ave 300","City":"Clovis","State":"CA","Zip":"93612"},{"Location":"RUBY'S","Address":"748 Pollasky Ave","City":"Clovis","State":"CA","Zip":"93612"},{"Location":"SALSA CANTINA","Address":"410 Clovis Ave","City":"Clovis","State":"CA","Zip":"93612"},{"Location":"SAN JOAQUIN BROKERAGE","Address":"312 5th St","City":"Clovis","State":"CA","Zip":"93612"},{"Location":"SARANTOS","Address":"771 W Shaw Ave","City":"Clovis","State":"CA","Zip":"93612"},{"Location":"SEVEN BAR AND GRILL","Address":"25 Shaw Ave","City":"Clovis","State":"CA","Zip":"93612"},{"Location":"SHILA KOREAN BBQ","Address":"1205 Herndon Ave","City":"Clovis","State":"CA","Zip":"93612"},{"Location":"SKYLINE CLUB","Address":"1419 Railroad Ave","City":"Clovis","State":"CA","Zip":"93612"},{"Location":"SOLAR NAIL AND SPA","Address":"1095 Herndon Ave","City":"Clovis","State":"CA","Zip":"93612"},{"Location":"SWEET RIVER GRILL & BAR","Address":"1150 Shaw Ave","City":"Clovis","State":"CA","Zip":"93612"},{"Location":"TGI VAPE","Address":"711 W Shaw Ave 104","City":"Clovis","State":"CA","Zip":"93612"},{"Location":"THAI FUSION","Address":"785 W Herndon Ave 500","City":"Clovis","State":"CA","Zip":"93612"},{"Location":"THE 500 CLUB","Address":"500 Clovis Ave","City":"Clovis","State":"CA","Zip":"93612"},{"Location":"THE BODY SHOP","Address":"295 N Clovis Ave","City":"Clovis","State":"CA","Zip":"93612"},{"Location":"THE JUNGLE PARTY HOUSE","Address":"1050 Shaw Ave 1019","City":"Clovis","State":"CA","Zip":"93612"},{"Location":"THE MAD DUCK","Address":"765 W Herndon Ave 200","City":"Clovis","State":"CA","Zip":"93612"},{"Location":"TNL DIAMOND ACADEMY LLC","Address":"788 Sierra Ave 103","City":"Clovis","State":"CA","Zip":"93612"},{"Location":"TODDS COOKHOUSE BAR B Q","Address":"1414 Clovis Ave","City":"Clovis","State":"CA","Zip":"93612"},{"Location":"TOFAS MEDITERRANIAN GRIL","Address":"1095 Herndon Ave 107","City":"Clovis","State":"CA","Zip":"93612"},{"Location":"TOYOTA OF CLOVIS","Address":"895 W Shaw Ave","City":"Clovis","State":"CA","Zip":"93612"},{"Location":"UNION BANK 154","Address":"840 Herndon Ave 102","City":"Clovis","State":"CA","Zip":"93612"},{"Location":"WESTECH SYSTEMS","Address":"827 Jefferson Ave","City":"Clovis","State":"CA","Zip":"93612"},{"Location":"WINGSTOP 715","Address":"1195 Herndon Ave","City":"Clovis","State":"CA","Zip":"93612"},{"Location":"YUM YUM YOGURT","Address":"1195 Herndon Ave 105","City":"Clovis","State":"CA","Zip":"93612"},{"Location":"AMERICAN AMBULANCE","Address":"205 W Bullard Ave 13","City":"Clovis","State":"CA","Zip":"93612"},{"Location":"APPLEBEE'S CLOVIS #2111024","Address":"98 Shaw Ave","City":"Clovis","State":"CA","Zip":"93612"},{"Location":"ATHLETIC PERFORMANCE TRA","Address":"340 Clovis Ave","City":"Clovis","State":"CA","Zip":"93612"},{"Location":"BC'S PIZZA & BEER","Address":"1315 Shaw Ave","City":"Clovis","State":"CA","Zip":"93612"},{"Location":"BOBBY SALAZARS","Address":"434 Clovis Ave","City":"Clovis","State":"CA","Zip":"93612"},{"Location":"BRICK AND MORTAR FURNITURE","Address":"618 5th St","City":"Clovis","State":"CA","Zip":"93612"},{"Location":"CABINETS 2 FLOORS","Address":"55 Shaw Ave 210","City":"Clovis","State":"CA","Zip":"93612"},{"Location":"CAROLYN LYMAN","Address":"531 5th St","City":"Clovis","State":"CA","Zip":"93612"},{"Location":"CIGARS LTD","Address":"630 Clovis Ave","City":"Clovis","State":"CA","Zip":"93612"},{"Location":"CLASSIC BILLIARDS LLC","Address":"711 W Shaw Ave 114","City":"Clovis","State":"CA","Zip":"93612"},{"Location":"CLOVIS ELKS LODGE","Address":"535 Woodworth Ave","City":"Clovis","State":"CA","Zip":"93612"},{"Location":"CLOVIS FIREFIGHTERS ASSOC","Address":"633 Pollasky Ave","City":"Clovis","State":"CA","Zip":"93612"},{"Location":"CLOVIS FITNESS 19","Address":"313 W Shaw Ave","City":"Clovis","State":"CA","Zip":"93612"},{"Location":"CLOVIS PIZZA JUNCTION","Address":"255 N Clovis Ave 115","City":"Clovis","State":"CA","Zip":"93612"},{"Location":"COOL HAND LUKES","Address":"955 Shaw Ave","City":"Clovis","State":"CA","Zip":"93612"},{"Location":"CREEK PARK VILLAGE","Address":"350 Minnewawa Ave","City":"Clovis","State":"CA","Zip":"93612"},{"Location":"DAVES CUSTOM WOODWORKING INC","Address":"1141 Barstow Ave","City":"Clovis","State":"CA","Zip":"93612"},{"Location":"DELIFERRO INC","Address":"635 W Shaw Ave 103","City":"Clovis","State":"CA","Zip":"93612"},{"Location":"DICICCO ITALIAN RESTAURANT","Address":"408 Clovis Ave","City":"Clovis","State":"CA","Zip":"93612"},{"Location":"DICK'S SPORTING GOODS #623","Address":"1225 Herndon Ave","City":"Clovis","State":"CA","Zip":"93612"},{"Location":"DOUBLE PLAY PIZZA","Address":"2794 Willow Ave","City":"Clovis","State":"CA","Zip":"93612"},{"Location":"EATON AND CUNNINGHAM INS","Address":"2221 Villa Ave 100","City":"Clovis","State":"CA","Zip":"93612"},{"Location":"ELEPHANT LOUNGE BAR & GR","Address":"80 W Shaw Ave","City":"Clovis","State":"CA","Zip":"93612"},{"Location":"ELLE STYLE BAR","Address":"610 5th St","City":"Clovis","State":"CA","Zip":"93612"},{"Location":"EPN - CHANDEEP PUREWAL","Address":"2221 Villa Ave 101","City":"Clovis","State":"CA","Zip":"93612"},{"Location":"FIRESTONE #024716","Address":"790 Clovis Ave","City":"Clovis","State":"CA","Zip":"93612"},{"Location":"FITNESS EVOLUTION","Address":"1295 Shaw Ave","City":"Clovis","State":"CA","Zip":"93612"},{"Location":"FORESTIERE'S PLACE","Address":"401 Clovis Ave 106","City":"Clovis","State":"CA","Zip":"93612"},{"Location":"GRAHAM CONCRETE CONSTRUCTION","Address":"1323 Dayton Ave","City":"Clovis","State":"CA","Zip":"93612"},{"Location":"GRILL MASTERS BBQ","Address":"2700 Clovis Ave 109","City":"Clovis","State":"CA","Zip":"93612"},{"Location":"HENRY'S CANTINA","Address":"622 5th St","City":"Clovis","State":"CA","Zip":"93612"},{"Location":"HOOK AND LADDER","Address":"711 W Shaw Ave 103","City":"Clovis","State":"CA","Zip":"93612"},{"Location":"HOUSE OF JUJU","Address":"453 Pollasky Ave","City":"Clovis","State":"CA","Zip":"93612"},{"Location":"I LOVE SUSHI","Address":"465 W Shaw Ave","City":"Clovis","State":"CA","Zip":"93612"},{"Location":"ISHIHARA-LIANG  INC","Address":"711 W Shaw Ave 107","City":"Clovis","State":"CA","Zip":"93612"},{"Location":"JIMBOS","Address":"495 Herndon Ave","City":"Clovis","State":"CA","Zip":"93612"},{"Location":"JOES GARAGE","Address":"1032 Barstow Ave C","City":"Clovis","State":"CA","Zip":"93612"},{"Location":"JOHNNY QUIK  STORE","Address":"55 Shaw Ave 122","City":"Clovis","State":"CA","Zip":"93612"},{"Location":"JORGE PLACE","Address":"610 Shaw Ave","City":"Clovis","State":"CA","Zip":"93612"},{"Location":"KOHL'S #1399","Address":"1000 Shaw Ave","City":"Clovis","State":"CA","Zip":"93612"},{"Location":"LES SCHWAB TIRE CENTERS","Address":"1742 Clovis Ave","City":"Clovis","State":"CA","Zip":"93612"},{"Location":"LITHIA NISSAN OF CLOVIS","Address":"370 W Herndon Ave","City":"Clovis","State":"CA","Zip":"93612"},{"Location":"LUNA PIZZERIA REST","Address":"349 Pollasky Ave","City":"Clovis","State":"CA","Zip":"93612"},{"Location":"MB2 RACEWAY SHAW","Address":"1200 Shaw Ave","City":"Clovis","State":"CA","Zip":"93612"},{"Location":"ME-N-EDS PIZZERIA DIV128","Address":"1210 Shaw Ave 103","City":"Clovis","State":"CA","Zip":"93612"},{"Location":"ME-N-EDS PIZZERIA- DIV17","Address":"50 W Bullard Ave 101","City":"Clovis","State":"CA","Zip":"93612"},{"Location":"ME-N-EDS PIZZERIA-011","Address":"487 W Shaw Ave","City":"Clovis","State":"CA","Zip":"93612"},{"Location":"MICHELANGELOS PIZZERIA","Address":"619 Woodworth Ave 101","City":"Clovis","State":"CA","Zip":"93612"},{"Location":"OLD TOWN SALOON","Address":"450 Clovis Ave","City":"Clovis","State":"CA","Zip":"93612"},{"Location":"OLD TOWN SHELL","Address":"521 Clovis Ave","City":"Clovis","State":"CA","Zip":"93612"},{"Location":"OUTLAW TAVERN","Address":"325 Clovis Ave","City":"Clovis","State":"CA","Zip":"93612"},{"Location":"PACIFIC DENTAL 239","Address":"1095 Herndon Ave 102","City":"Clovis","State":"CA","Zip":"93612"},{"Location":"PLANNED PARENTHOOD","Address":"90 W Ashlan Ave 100","City":"Clovis","State":"CA","Zip":"93612"},{"Location":"PRICE%2C PAIGE AND CO","Address":"677 Scott Ave","City":"Clovis","State":"CA","Zip":"93612"},{"Location":"PROFESSIONAL FLOOR CARE","Address":"110 W Pontiac Way 109","City":"Clovis","State":"CA","Zip":"93612"},{"Location":"QUICKLY","Address":"701 W Shaw Ave 101","City":"Clovis","State":"CA","Zip":"93612"},{"Location":"RED ROBIN #239","Address":"950 Shaw Ave","City":"Clovis","State":"CA","Zip":"93612"},{"Location":"RIOGRILL BRAZILIAN STEAK","Address":"1240 Shaw Ave","City":"Clovis","State":"CA","Zip":"93612"},{"Location":"ROUND TABLE-HERNDON AVE","Address":"775 W Herndon Ave 300","City":"Clovis","State":"CA","Zip":"93612"},{"Location":"RUBY'S","Address":"748 Pollasky Ave","City":"Clovis","State":"CA","Zip":"93612"},{"Location":"SALSA CANTINA","Address":"410 Clovis Ave","City":"Clovis","State":"CA","Zip":"93612"},{"Location":"SAN JOAQUIN BROKERAGE","Address":"312 5th St","City":"Clovis","State":"CA","Zip":"93612"},{"Location":"SARANTOS","Address":"771 W Shaw Ave","City":"Clovis","State":"CA","Zip":"93612"},{"Location":"SEVEN BAR AND GRILL","Address":"25 Shaw Ave","City":"Clovis","State":"CA","Zip":"93612"},{"Location":"SHILA KOREAN BBQ","Address":"1205 Herndon Ave","City":"Clovis","State":"CA","Zip":"93612"},{"Location":"SKYLINE CLUB","Address":"1419 Railroad Ave","City":"Clovis","State":"CA","Zip":"93612"},{"Location":"SOLAR NAIL AND SPA","Address":"1095 Herndon Ave","City":"Clovis","State":"CA","Zip":"93612"},{"Location":"SWEET RIVER GRILL & BAR","Address":"1150 Shaw Ave","City":"Clovis","State":"CA","Zip":"93612"},{"Location":"TGI VAPE","Address":"711 W Shaw Ave 104","City":"Clovis","State":"CA","Zip":"93612"},{"Location":"THAI FUSION","Address":"785 W Herndon Ave 500","City":"Clovis","State":"CA","Zip":"93612"},{"Location":"THE 500 CLUB","Address":"500 Clovis Ave","City":"Clovis","State":"CA","Zip":"93612"},{"Location":"THE BODY SHOP","Address":"295 N Clovis Ave","City":"Clovis","State":"CA","Zip":"93612"},{"Location":"THE JUNGLE PARTY HOUSE","Address":"1050 Shaw Ave 1019","City":"Clovis","State":"CA","Zip":"93612"},{"Location":"THE MAD DUCK","Address":"765 W Herndon Ave 200","City":"Clovis","State":"CA","Zip":"93612"},{"Location":"TNL DIAMOND ACADEMY LLC","Address":"788 Sierra Ave 103","City":"Clovis","State":"CA","Zip":"93612"},{"Location":"TODDS COOKHOUSE BAR B Q","Address":"1414 Clovis Ave","City":"Clovis","State":"CA","Zip":"93612"},{"Location":"TOFAS MEDITERRANIAN GRIL","Address":"1095 Herndon Ave 107","City":"Clovis","State":"CA","Zip":"93612"},{"Location":"TOYOTA OF CLOVIS","Address":"895 W Shaw Ave","City":"Clovis","State":"CA","Zip":"93612"},{"Location":"UNION BANK 154","Address":"840 Herndon Ave 102","City":"Clovis","State":"CA","Zip":"93612"},{"Location":"WESTECH SYSTEMS","Address":"827 Jefferson Ave","City":"Clovis","State":"CA","Zip":"93612"},{"Location":"WINGSTOP 715","Address":"1195 Herndon Ave","City":"Clovis","State":"CA","Zip":"93612"},{"Location":"YUM YUM YOGURT","Address":"1195 Herndon Ave 105","City":"Clovis","State":"CA","Zip":"93612"}]