[{"Location":"APRICOT TREE RESTAURANT","Address":"46272 W Panoche Rd","City":"Firebaugh","State":"CA","Zip":"93622"},{"Location":"PAGANUCCI'S BAR","Address":"1032 P St","City":"Firebaugh","State":"CA","Zip":"93622"},{"Location":"SUBWAY #52962","Address":"1200 N St","City":"Firebaugh","State":"CA","Zip":"93622"},{"Location":"THE FARMERS DAUGHTERS","Address":"1255 O St","City":"Firebaugh","State":"CA","Zip":"93622"},{"Location":"THE HALL COMPANY","Address":"44374 W Nees Ave","City":"Firebaugh","State":"CA","Zip":"93622"},{"Location":"WEST VALLEY HULLING","Address":"45475 W Panoche Rd","City":"Firebaugh","State":"CA","Zip":"93622"},{"Location":"APRICOT TREE RESTAURANT","Address":"46272 W Panoche Rd","City":"Firebaugh","State":"CA","Zip":"93622"},{"Location":"PAGANUCCI'S BAR","Address":"1032 P St","City":"Firebaugh","State":"CA","Zip":"93622"},{"Location":"SUBWAY #52962","Address":"1200 N St","City":"Firebaugh","State":"CA","Zip":"93622"},{"Location":"THE FARMERS DAUGHTERS","Address":"1255 O St","City":"Firebaugh","State":"CA","Zip":"93622"},{"Location":"THE HALL COMPANY","Address":"44374 W Nees Ave","City":"Firebaugh","State":"CA","Zip":"93622"},{"Location":"WEST VALLEY HULLING","Address":"45475 W Panoche Rd","City":"Firebaugh","State":"CA","Zip":"93622"}]