[{"Location":"AGUSTIN BARBERSHOP","Address":"127 E Yosemite Ave","City":"Madera","State":"CA","Zip":"93638"},{"Location":"ARA MADERA DIALYSIS","Address":"1560 Country Club Dr","City":"Madera","State":"CA","Zip":"93638"},{"Location":"CAFE ON THE GREEN","Address":"41389 Avenue 9","City":"Madera","State":"CA","Zip":"93638"},{"Location":"EL KORITA","Address":"125 S A St E","City":"Madera","State":"CA","Zip":"93638"},{"Location":"EL KORITA","Address":"125 S A St","City":"Madera","State":"CA","Zip":"93638"},{"Location":"FAMILY FURNITURE","Address":"121 S D St","City":"Madera","State":"CA","Zip":"93638"},{"Location":"FRANKIES BAR","Address":"224 E Yosemite Ave","City":"Madera","State":"CA","Zip":"93638"},{"Location":"LA PRIMAVER LAUNDRY MAT","Address":"517 S C St","City":"Madera","State":"CA","Zip":"93638"},{"Location":"MADERA COUNTRY CLUB","Address":"19297 Road 26","City":"Madera","State":"CA","Zip":"93638"},{"Location":"NOHELYS BEAUTY SALON","Address":"217 N D St","City":"Madera","State":"CA","Zip":"93638"},{"Location":"OLIVIA FINE JEWELRY","Address":"1127 Country Club Dr","City":"Madera","State":"CA","Zip":"93638"},{"Location":"PRIMAVERA CAFE","Address":"224 S C St","City":"Madera","State":"CA","Zip":"93638"},{"Location":"SANTA MARIA DENTAL OFFICE","Address":"1182 Country Club Dr","City":"Madera","State":"CA","Zip":"93638"},{"Location":"SERGIO S UPHOLSTERY","Address":"813 N D St","City":"Madera","State":"CA","Zip":"93638"},{"Location":"TIJUANAS BAR AND GRILL","Address":"216 E Yosemite Ave","City":"Madera","State":"CA","Zip":"93638"},{"Location":"UNION BANK 802","Address":"201 N D St","City":"Madera","State":"CA","Zip":"93638"},{"Location":"VALLEY WEST CHRISTIAN","Address":"101 W Adell St","City":"Madera","State":"CA","Zip":"93638"},{"Location":"AGUSTIN BARBERSHOP","Address":"127 E Yosemite Ave","City":"Madera","State":"CA","Zip":"93638"},{"Location":"ARA MADERA DIALYSIS","Address":"1560 Country Club Dr","City":"Madera","State":"CA","Zip":"93638"},{"Location":"CAFE ON THE GREEN","Address":"41389 Avenue 9","City":"Madera","State":"CA","Zip":"93638"},{"Location":"EL KORITA","Address":"125 S A St","City":"Madera","State":"CA","Zip":"93638"},{"Location":"EL KORITA","Address":"125 S A St E","City":"Madera","State":"CA","Zip":"93638"},{"Location":"FAMILY FURNITURE","Address":"121 S D St","City":"Madera","State":"CA","Zip":"93638"},{"Location":"FRANKIES BAR","Address":"224 E Yosemite Ave","City":"Madera","State":"CA","Zip":"93638"},{"Location":"LA PRIMAVER LAUNDRY MAT","Address":"517 S C St","City":"Madera","State":"CA","Zip":"93638"},{"Location":"MADERA COUNTRY CLUB","Address":"19297 Road 26","City":"Madera","State":"CA","Zip":"93638"},{"Location":"NOHELYS BEAUTY SALON","Address":"217 N D St","City":"Madera","State":"CA","Zip":"93638"},{"Location":"OLIVIA FINE JEWELRY","Address":"1127 Country Club Dr","City":"Madera","State":"CA","Zip":"93638"},{"Location":"PRIMAVERA CAFE","Address":"224 S C St","City":"Madera","State":"CA","Zip":"93638"},{"Location":"SANTA MARIA DENTAL OFFICE","Address":"1182 Country Club Dr","City":"Madera","State":"CA","Zip":"93638"},{"Location":"SERGIO S UPHOLSTERY","Address":"813 N D St","City":"Madera","State":"CA","Zip":"93638"},{"Location":"TIJUANAS BAR AND GRILL","Address":"216 E Yosemite Ave","City":"Madera","State":"CA","Zip":"93638"},{"Location":"UNION BANK 802","Address":"201 N D St","City":"Madera","State":"CA","Zip":"93638"},{"Location":"VALLEY WEST CHRISTIAN","Address":"101 W Adell St","City":"Madera","State":"CA","Zip":"93638"}]