[{"Location":"ADVENTIST HEALTH COMM.","Address":"1000 S Madera Ave","City":"Kerman","State":"CA","Zip":"93630"},{"Location":"ALLRIGHT CONSTRUCTION","Address":"1485 S Industrial Way","City":"Kerman","State":"CA","Zip":"93630"},{"Location":"CENTRAL VALLEY COMMUNITY","Address":"360 S Madera Ave","City":"Kerman","State":"CA","Zip":"93630"},{"Location":"GERAWAN FARMING","Address":"14011 W Central Ave","City":"Kerman","State":"CA","Zip":"93630"},{"Location":"GLEN RUDOLPHS AUTO BODY","Address":"14703 W Whitesbridge Ave","City":"Kerman","State":"CA","Zip":"93630"},{"Location":"HELENA INDUSTRIES INC","Address":"1075 S Vineland Ave","City":"Kerman","State":"CA","Zip":"93630"},{"Location":"HONG KONG RESTAURANT","Address":"160 S Madera Ave","City":"Kerman","State":"CA","Zip":"93630"},{"Location":"KERMAN AG RESOURCES INCS","Address":"1100 S Madera Ave","City":"Kerman","State":"CA","Zip":"93630"},{"Location":"MARISCOS EL CONCHAL","Address":"395 S Madera Ave","City":"Kerman","State":"CA","Zip":"93630"},{"Location":"Mariscos El Conchal Restaurant","Address":"395 S Madera Ave","City":"Kerman","State":"CA","Zip":"93630"},{"Location":"ME-N-EDS PIZZERIA-DIV 18","Address":"15191 W Whitesbridge Ave","City":"Kerman","State":"CA","Zip":"93630"},{"Location":"MID VALLEY DISPOSAL","Address":"15300 W Jensen Ave","City":"Kerman","State":"CA","Zip":"93630"},{"Location":"QUEST DIAGNOSTICS","Address":"177 S Madera Ave","City":"Kerman","State":"CA","Zip":"93630"},{"Location":"RENO PLACE & GRILL","Address":"769 S Madera Ave","City":"Kerman","State":"CA","Zip":"93630"},{"Location":"ROUND TABLE-WHITESBRIDGE","Address":"15200 W Whitesbridge Ave","City":"Kerman","State":"CA","Zip":"93630"},{"Location":"SCARBROUGH MGMT CORP","Address":"14890 W Whitesbridge Ave","City":"Kerman","State":"CA","Zip":"93630"},{"Location":"Taqueria Las Delicias","Address":"575 S Madera Ave","City":"Kerman","State":"CA","Zip":"93630"},{"Location":"YUKON JACKS","Address":"170 N Madera Ave","City":"Kerman","State":"CA","Zip":"93630"}]