[{"Location":"MADERA FAMILY MEDICAL","Address":"1121 W 4th St 3","City":"Berenda","State":"CA","Zip":"93637"},{"Location":"NONIES BAKERY","Address":"1930 Howard Rd","City":"Berenda","State":"CA","Zip":"93637"},{"Location":"ADVANCED DRAINAGE SYSTEMS","Address":"1025 Commerce Dr","City":"Madera","State":"CA","Zip":"93637"},{"Location":"ALADDIN BB DEPT 823","Address":"511 W Yosemite Ave","City":"Madera","State":"CA","Zip":"93637"},{"Location":"BACKSTREET BAR & GRILL","Address":"1930 Howard Rd 101","City":"Madera","State":"CA","Zip":"93637"},{"Location":"BILLS STRIPING COMPANY","Address":"2428 Driftwood Dr","City":"Madera","State":"CA","Zip":"93637"},{"Location":"BK PHARMACY","Address":"1129 W 4th St A","City":"Madera","State":"CA","Zip":"93637"},{"Location":"BLACK BEAR DINER","Address":"1209 E Almond Ave","City":"Madera","State":"CA","Zip":"93637"},{"Location":"BURRITO KING","Address":"319 N Gateway Dr","City":"Madera","State":"CA","Zip":"93637"},{"Location":"CARRILLOS LAUNDROLAND","Address":"1626 Howard Rd","City":"Madera","State":"CA","Zip":"93637"},{"Location":"COLOR BOX","Address":"1275 S Granada Dr","City":"Madera","State":"CA","Zip":"93637"},{"Location":"COOL HAND LUKES","Address":"1830 W Cleveland Ave","City":"Madera","State":"CA","Zip":"93637"},{"Location":"DAVIN GROUP INC","Address":"483 E Almond Ave 102","City":"Madera","State":"CA","Zip":"93637"},{"Location":"DAVITA #2242 ALMOND WOOD","Address":"501 E Almond Ave","City":"Madera","State":"CA","Zip":"93637"},{"Location":"DAVITA #5184 N MADERA","Address":"720 N I St","City":"Madera","State":"CA","Zip":"93637"},{"Location":"DR CHAN LEE WEIGHTLOSS","Address":"505 E Almond Ave 109","City":"Madera","State":"CA","Zip":"93637"},{"Location":"DR RICH AND ROW","Address":"1525 N Schnoor St 103","City":"Madera","State":"CA","Zip":"93637"},{"Location":"EL TUCAN","Address":"7112 Highway 145 2","City":"Madera","State":"CA","Zip":"93637"},{"Location":"FULL CIRCLE PRE LEARNING","Address":"125 S J St","City":"Madera","State":"CA","Zip":"93637"},{"Location":"GEORGIA PACIFIC","Address":"24600 Avenue 13","City":"Madera","State":"CA","Zip":"93637"},{"Location":"GOLDEN 1 CREDIT UNION 11","Address":"1934 Howard Rd","City":"Madera","State":"CA","Zip":"93637"},{"Location":"GOOD NEWS MINISTRIES","Address":"1926 Modoc St A","City":"Madera","State":"CA","Zip":"93637"},{"Location":"HIGHWAY PATROL","Address":"3051 Airport Dr","City":"Madera","State":"CA","Zip":"93637"},{"Location":"KUCKENBECKER TRACTOR CO","Address":"800 S Madera Ave","City":"Madera","State":"CA","Zip":"93637"},{"Location":"MADERA ELKS LODGE 1918","Address":"112 W 6th St","City":"Madera","State":"CA","Zip":"93637"},{"Location":"ME-N-EDS PIZZERIA- DIV50","Address":"120 Dwyer St B","City":"Madera","State":"CA","Zip":"93637"},{"Location":"MEDARA FAMILY MEDICAL","Address":"1111 W 4th St B","City":"Madera","State":"CA","Zip":"93637"},{"Location":"MEJIA TACO SHOP","Address":"151 S Madera Ave","City":"Madera","State":"CA","Zip":"93637"},{"Location":"MIDLAND TRACTOR","Address":"1901 W Cleveland Ave","City":"Madera","State":"CA","Zip":"93637"},{"Location":"MOUNTAIN  MIKES  PIZZA","Address":"2180 W Cleveland Ave","City":"Madera","State":"CA","Zip":"93637"},{"Location":"NANCYS BEAUTY SALON","Address":"1204 W Olive Ave","City":"Madera","State":"CA","Zip":"93637"},{"Location":"PACIFIC GAS & ELECTRIC","Address":"2871 Airport Dr","City":"Madera","State":"CA","Zip":"93637"},{"Location":"PETERS BROTHERS NURSERY","Address":"1135 S Granada Dr","City":"Madera","State":"CA","Zip":"93637"},{"Location":"PLANNED PARENTHOOD","Address":"500 E Almond Ave 1","City":"Madera","State":"CA","Zip":"93637"},{"Location":"PREMIER BRICK OVEN PIZZA","Address":"1628 Howard Rd","City":"Madera","State":"CA","Zip":"93637"},{"Location":"RESTAURANT TAQUERIA","Address":"1322 Colombard Dr Rear","City":"Madera","State":"CA","Zip":"93637"},{"Location":"ROSE NAIL","Address":"2001 W Cleveland Ave C","City":"Madera","State":"CA","Zip":"93637"},{"Location":"ROUND TABLE PIZZA","Address":"1930 Howard Rd 101","City":"Madera","State":"CA","Zip":"93637"},{"Location":"SAFEGUARD MINI STORAGE","Address":"16173 Golden State Blvd","City":"Madera","State":"CA","Zip":"93637"},{"Location":"SAN JOAQUIN VALLEY COLLEGE","Address":"2185 W Cleveland Ave J","City":"Madera","State":"CA","Zip":"93637"},{"Location":"SGM INC","Address":"23200 Avenue 17","City":"Madera","State":"CA","Zip":"93637"},{"Location":"SHERRY LOGAN","Address":"2140 W Entity Ave","City":"Madera","State":"CA","Zip":"93637"},{"Location":"TACOS GUANAJUATO","Address":"1488 S Madera Ave","City":"Madera","State":"CA","Zip":"93637"},{"Location":"THE VINEYARD RESTAURANT","Address":"605 S I St","City":"Madera","State":"CA","Zip":"93637"},{"Location":"THRIVE FITNESS","Address":"1803 Sunset Ave","City":"Madera","State":"CA","Zip":"93637"},{"Location":"UNION BANK 631","Address":"1504 Howard Rd","City":"Madera","State":"CA","Zip":"93637"},{"Location":"VFW","Address":"2026 N Granada Dr","City":"Madera","State":"CA","Zip":"93637"},{"Location":"WENDYS 5319 MADERA","Address":"18525 Pistachio Dr","City":"Madera","State":"CA","Zip":"93637"},{"Location":"WESTGATE MANOR CONV HOSPITAL#2","Address":"1700 Howard Rd Pc-1","City":"Madera","State":"CA","Zip":"93637"},{"Location":"WESTGATE MANOR CONV. HOSPITAL","Address":"1700 Howard Rd Pc-2","City":"Madera","State":"CA","Zip":"93637"},{"Location":"WINGSTOP #713","Address":"2180 W Cleveland Ave","City":"Madera","State":"CA","Zip":"93637"}]