[{"Location":"ADVENTIST HEALTH","Address":"1251 Draper St","City":"Kingsburg","State":"CA","Zip":"93631"},{"Location":"B & R TOBACCO","Address":"383 Sierra St","City":"Kingsburg","State":"CA","Zip":"93631"},{"Location":"BLEND WINE ROOM","Address":"1331 Draper St","City":"Kingsburg","State":"CA","Zip":"93631"},{"Location":"BULLFROGS BAR & GRILL","Address":"38743 Highway 99","City":"Kingsburg","State":"CA","Zip":"93631"},{"Location":"DENNYS 8074","Address":"801 Sierra St","City":"Kingsburg","State":"CA","Zip":"93631"},{"Location":"ERICSON AND ASSOCIATES","Address":"1536 Smith St","City":"Kingsburg","State":"CA","Zip":"93631"},{"Location":"GUARDIAN INDUSTRIES","Address":"11535 E Mountain View Ave","City":"Kingsburg","State":"CA","Zip":"93631"},{"Location":"HIBACHI HOUSE","Address":"948 Sierra St","City":"Kingsburg","State":"CA","Zip":"93631"},{"Location":"JOHN CARRASCO","Address":"915 6th Avenue Dr","City":"Kingsburg","State":"CA","Zip":"93631"},{"Location":"KINGS RIVER GOLF COUNTRY CLUB","Address":"3100 Avenue 400","City":"Kingsburg","State":"CA","Zip":"93631"},{"Location":"ME-N-EDS PIZZERIA- DIV27","Address":"375 Sierra St A","City":"Kingsburg","State":"CA","Zip":"93631"},{"Location":"MIKE JENSEN FARMS","Address":"13138 S Bethel Ave","City":"Kingsburg","State":"CA","Zip":"93631"},{"Location":"PUB N SUB","Address":"1801 Simpson St","City":"Kingsburg","State":"CA","Zip":"93631"},{"Location":"RJ VARGAS AND COMP","Address":"1317 Draper St","City":"Kingsburg","State":"CA","Zip":"93631"},{"Location":"ROADHOUSE","Address":"38412 Highway 99","City":"Kingsburg","State":"CA","Zip":"93631"},{"Location":"SALAZAR'S GRILL AND BAR","Address":"345 Sierra St","City":"Kingsburg","State":"CA","Zip":"93631"},{"Location":"THE SKIN & WAX BAR","Address":"1100 Draper St A","City":"Kingsburg","State":"CA","Zip":"93631"},{"Location":"VANBEURDEN INSURANCE 2","Address":"1600 Draper St","City":"Kingsburg","State":"CA","Zip":"93631"},{"Location":"WORKS OUT UNLIMITED","Address":"1301 Draper St","City":"Kingsburg","State":"CA","Zip":"93631"},{"Location":"YUM YUM YOGURT","Address":"969 Sierra St B","City":"Kingsburg","State":"CA","Zip":"93631"}]