[{"Location":"ANDREW A SMITH DDS","Address":"1314 S 6th St","City":"Los Banos","State":"CA","Zip":"93635"},{"Location":"APEX MEDICAL GROUP INC","Address":"1253 W I St","City":"Los Banos","State":"CA","Zip":"93635"},{"Location":"BBQ PROS","Address":"720 I St","City":"Los Banos","State":"CA","Zip":"93635"},{"Location":"BJP RANCH","Address":"1160 W I St","City":"Los Banos","State":"CA","Zip":"93635"},{"Location":"BODY TRANSFORMATIONS","Address":"265 Mercey Springs Rd E","City":"Los Banos","State":"CA","Zip":"93635"},{"Location":"CHILI'S #1327","Address":"1905 E Pacheco Blvd","City":"Los Banos","State":"CA","Zip":"93635"},{"Location":"DAVITA #4010 LOS BANOS","Address":"60 W G St 5","City":"Los Banos","State":"CA","Zip":"93635"},{"Location":"ELI","Address":"400 Pacheco Blvd","City":"Los Banos","State":"CA","Zip":"93635"},{"Location":"ESPANAS SOUTHWEST BAR GRILL","Address":"1460 E Pacheco Blvd","City":"Los Banos","State":"CA","Zip":"93635"},{"Location":"GOODGER SHELL AND FOOD MART","Address":"849 W Pacheco Blvd","City":"Los Banos","State":"CA","Zip":"93635"},{"Location":"LONESOME MALLARD DUCK CLUB","Address":"7861 S Lander Ave","City":"Los Banos","State":"CA","Zip":"93635"},{"Location":"MARIE CANDLE AND GIFT SHOP","Address":"639 I St","City":"Los Banos","State":"CA","Zip":"93635"},{"Location":"MCDONALDS","Address":"1480 S Mercey Springs Rd","City":"Los Banos","State":"CA","Zip":"93635"},{"Location":"MCDONALDS 1","Address":"1550 E Pacheco Blvd B","City":"Los Banos","State":"CA","Zip":"93635"},{"Location":"MCFS LOS BANOS","Address":"525 H St","City":"Los Banos","State":"CA","Zip":"93635"},{"Location":"ME-N-EDS PIZZERIA- DIV08","Address":"846 W Pacheco Blvd","City":"Los Banos","State":"CA","Zip":"93635"},{"Location":"MORNING STAR TRUCKING COMPANY","Address":"13448 Volta Rd","City":"Los Banos","State":"CA","Zip":"93635"},{"Location":"NAIL NOW","Address":"1989 E Pacheco Blvd H","City":"Los Banos","State":"CA","Zip":"93635"},{"Location":"PACIFIC GAS AND ELECTRIC","Address":"940 I St","City":"Los Banos","State":"CA","Zip":"93635"},{"Location":"PERI AND SON FARMS","Address":"1167 Oatgrass Way","City":"Los Banos","State":"CA","Zip":"93635"},{"Location":"PIZZA HUT - LOS BANOS","Address":"419 Pacheco Blvd","City":"Los Banos","State":"CA","Zip":"93635"},{"Location":"RODRIGUEZ FINANCIAL SERV","Address":"1415 Badger Flat Rd B","City":"Los Banos","State":"CA","Zip":"93635"},{"Location":"SPORT AND REHAB PHYSICAL","Address":"312 W J St","City":"Los Banos","State":"CA","Zip":"93635"},{"Location":"THE MATTRESS STORE","Address":"1350 E Pacheco Blvd E","City":"Los Banos","State":"CA","Zip":"93635"},{"Location":"TOGOS EATERY","Address":"1989 E Pacheco Blvd A","City":"Los Banos","State":"CA","Zip":"93635"},{"Location":"TONY RENDEVOUS","Address":"536 I St","City":"Los Banos","State":"CA","Zip":"93635"},{"Location":"WOOL GROWERS RESTAURANT","Address":"609 Hst","City":"Los Banos","State":"CA","Zip":"93635"},{"Location":"ANDREW A SMITH DDS","Address":"1314 S 6th St","City":"Los Banos","State":"CA","Zip":"93635"},{"Location":"APEX MEDICAL GROUP INC","Address":"1253 W I St","City":"Los Banos","State":"CA","Zip":"93635"},{"Location":"BBQ PROS","Address":"720 I St","City":"Los Banos","State":"CA","Zip":"93635"},{"Location":"BJP RANCH","Address":"1160 W I St","City":"Los Banos","State":"CA","Zip":"93635"},{"Location":"BODY TRANSFORMATIONS","Address":"265 Mercey Springs Rd E","City":"Los Banos","State":"CA","Zip":"93635"},{"Location":"CHILI'S #1327","Address":"1905 E Pacheco Blvd","City":"Los Banos","State":"CA","Zip":"93635"},{"Location":"DAVITA #4010 LOS BANOS","Address":"60 W G St 5","City":"Los Banos","State":"CA","Zip":"93635"},{"Location":"ELI","Address":"400 Pacheco Blvd","City":"Los Banos","State":"CA","Zip":"93635"},{"Location":"ESPANAS SOUTHWEST BAR GRILL","Address":"1460 E Pacheco Blvd","City":"Los Banos","State":"CA","Zip":"93635"},{"Location":"GOODGER SHELL AND FOOD MART","Address":"849 W Pacheco Blvd","City":"Los Banos","State":"CA","Zip":"93635"},{"Location":"LONESOME MALLARD DUCK CLUB","Address":"7861 S Lander Ave","City":"Los Banos","State":"CA","Zip":"93635"},{"Location":"MARIE CANDLE AND GIFT SHOP","Address":"639 I St","City":"Los Banos","State":"CA","Zip":"93635"},{"Location":"MCDONALDS","Address":"1480 S Mercey Springs Rd","City":"Los Banos","State":"CA","Zip":"93635"},{"Location":"MCDONALDS 1","Address":"1550 E Pacheco Blvd B","City":"Los Banos","State":"CA","Zip":"93635"},{"Location":"MCFS LOS BANOS","Address":"525 H St","City":"Los Banos","State":"CA","Zip":"93635"},{"Location":"ME-N-EDS PIZZERIA- DIV08","Address":"846 W Pacheco Blvd","City":"Los Banos","State":"CA","Zip":"93635"},{"Location":"MORNING STAR TRUCKING COMPANY","Address":"13448 Volta Rd","City":"Los Banos","State":"CA","Zip":"93635"},{"Location":"NAIL NOW","Address":"1989 E Pacheco Blvd H","City":"Los Banos","State":"CA","Zip":"93635"},{"Location":"PACIFIC GAS AND ELECTRIC","Address":"940 I St","City":"Los Banos","State":"CA","Zip":"93635"},{"Location":"PERI AND SON FARMS","Address":"1167 Oatgrass Way","City":"Los Banos","State":"CA","Zip":"93635"},{"Location":"PIZZA HUT - LOS BANOS","Address":"419 Pacheco Blvd","City":"Los Banos","State":"CA","Zip":"93635"},{"Location":"RODRIGUEZ FINANCIAL SERV","Address":"1415 Badger Flat Rd B","City":"Los Banos","State":"CA","Zip":"93635"},{"Location":"SPORT AND REHAB PHYSICAL","Address":"312 W J St","City":"Los Banos","State":"CA","Zip":"93635"},{"Location":"THE MATTRESS STORE","Address":"1350 E Pacheco Blvd E","City":"Los Banos","State":"CA","Zip":"93635"},{"Location":"TOGOS EATERY","Address":"1989 E Pacheco Blvd A","City":"Los Banos","State":"CA","Zip":"93635"},{"Location":"TONY RENDEVOUS","Address":"536 I St","City":"Los Banos","State":"CA","Zip":"93635"},{"Location":"WOOL GROWERS RESTAURANT","Address":"609 Hst","City":"Los Banos","State":"CA","Zip":"93635"}]