[{"Location":"CAMINO REAL","Address":"8641 S Mendocino Ave","City":"Parlier","State":"CA","Zip":"93648"},{"Location":"COLIMAS","Address":"611 Tulare St","City":"Parlier","State":"CA","Zip":"93648"},{"Location":"CORRAL CAFE","Address":"660 Fresno St","City":"Parlier","State":"CA","Zip":"93648"},{"Location":"FRESH CUT BARBER SHOP","Address":"616 Fresno St","City":"Parlier","State":"CA","Zip":"93648"},{"Location":"INNER VALLEY TRANSPORTS","Address":"10027 S Newmark Ave","City":"Parlier","State":"CA","Zip":"93648"},{"Location":"LLOYD & GERIS","Address":"13465 E Manning Ave","City":"Parlier","State":"CA","Zip":"93648"},{"Location":"MI CASITA MEXICAN RESTAU","Address":"885 E Parlier Ave","City":"Parlier","State":"CA","Zip":"93648"},{"Location":"ONEILL VINTNERS AND DISTILLERS","Address":"17913 E South Ave","City":"Parlier","State":"CA","Zip":"93648"},{"Location":"PHAT BOBBYS CUTS","Address":"555 J St","City":"Parlier","State":"CA","Zip":"93648"},{"Location":"THE SENIOR CENTER","Address":"690 S Newmark Ave","City":"Parlier","State":"CA","Zip":"93648"},{"Location":"WE PLEMMONS MACHINERY SERVICES","Address":"13479 E Industrial Dr","City":"Parlier","State":"CA","Zip":"93648"}]