[{"Location":"CABANAS","Address":"997 Oller St","City":"Mendota","State":"CA","Zip":"93640"},{"Location":"DULCERIA LA FIESTA","Address":"1042 Oller St","City":"Mendota","State":"CA","Zip":"93640"},{"Location":"FCI MENDOTA","Address":"33500 W California Ave","City":"Mendota","State":"CA","Zip":"93640"},{"Location":"FCI MENDOTA 2","Address":"33500 W California Ave","City":"Mendota","State":"CA","Zip":"93640"},{"Location":"MARIAS MEXICAN RESTAURANT","Address":"1285 Oller St","City":"Mendota","State":"CA","Zip":"93640"},{"Location":"RESTAURANT Y PUPUSERIA M","Address":"2030 7th St Suite","City":"Mendota","State":"CA","Zip":"93640"},{"Location":"RESTAURANT Y PUPUSERIA MORENIT","Address":"966 Oller St","City":"Mendota","State":"CA","Zip":"93640"},{"Location":"CABANAS","Address":"997 Oller St","City":"Mendota","State":"CA","Zip":"93640"},{"Location":"DULCERIA LA FIESTA","Address":"1042 Oller St","City":"Mendota","State":"CA","Zip":"93640"},{"Location":"FCI MENDOTA","Address":"33500 W California Ave","City":"Mendota","State":"CA","Zip":"93640"},{"Location":"FCI MENDOTA 2","Address":"33500 W California Ave","City":"Mendota","State":"CA","Zip":"93640"},{"Location":"MARIAS MEXICAN RESTAURANT","Address":"1285 Oller St","City":"Mendota","State":"CA","Zip":"93640"},{"Location":"RESTAURANT Y PUPUSERIA M","Address":"2030 7th St Suite","City":"Mendota","State":"CA","Zip":"93640"},{"Location":"RESTAURANT Y PUPUSERIA MORENIT","Address":"966 Oller St","City":"Mendota","State":"CA","Zip":"93640"}]