[{"Location":"CAMARENA HEALTH","Address":"49169 Road 426","City":"Oakhurst","State":"CA","Zip":"93644"},{"Location":"CRAB CAKES RESTAURANT","Address":"49271 Golden Oak Loop","City":"Oakhurst","State":"CA","Zip":"93644"},{"Location":"DENNYS 8806 1","Address":"40650 Highway 41","City":"Oakhurst","State":"CA","Zip":"93644"},{"Location":"DIRTY DONKEY TAVERN","Address":"40487 Highway 41","City":"Oakhurst","State":"CA","Zip":"93644"},{"Location":"EL CID","Address":"41939 Highway 41","City":"Oakhurst","State":"CA","Zip":"93644"},{"Location":"EVER GREEN CONFERENCE","Address":"43803 Highway 41","City":"Oakhurst","State":"CA","Zip":"93644"},{"Location":"FARMERS INS GROUP","Address":"40291 Junction Dr","City":"Oakhurst","State":"CA","Zip":"93644"},{"Location":"KATIES COUNTRY KITCHEN1","Address":"40470 Highway 41","City":"Oakhurst","State":"CA","Zip":"93644"},{"Location":"ME-N-EDS PIZZERIA-STORE85","Address":"40015 Highway 49 205","City":"Oakhurst","State":"CA","Zip":"93644"},{"Location":"MIKES IRON HORSE BBQ","Address":"48811 Royal Oaks Dr","City":"Oakhurst","State":"CA","Zip":"93644"},{"Location":"NEW GAZEBO CHINESE RES","Address":"40487 Highway 41","City":"Oakhurst","State":"CA","Zip":"93644"},{"Location":"OKA JAPANESE RESTAURANT","Address":"40250 Junction Dr","City":"Oakhurst","State":"CA","Zip":"93644"},{"Location":"PIZZA FACTORY","Address":"40120 Highway 41 B","City":"Oakhurst","State":"CA","Zip":"93644"},{"Location":"ROUND TABLE","Address":"40034 Highway 49 A2","City":"Oakhurst","State":"CA","Zip":"93644"},{"Location":"SIERRA PROPERTY MANAGEMENT","Address":"40320 Oak Park Way","City":"Oakhurst","State":"CA","Zip":"93644"},{"Location":"SOUTH GATE BREWING COMPA","Address":"40233 Enterprise Dr","City":"Oakhurst","State":"CA","Zip":"93644"},{"Location":"SPORTSMANS DEN","Address":"40396 Highway 41 F","City":"Oakhurst","State":"CA","Zip":"93644"},{"Location":"SUGAR PINE GOURMET PIZZA","Address":"40208 Hwy 41 Ste D","City":"Oakhurst","State":"CA","Zip":"93644"},{"Location":"SUGAR PINE PIZZA","Address":"40208 Hwy 41","City":"Oakhurst","State":"CA","Zip":"93644"},{"Location":"THE COMPOUND BMX SHOP","Address":"43512 Whispering Pines Dr","City":"Oakhurst","State":"CA","Zip":"93644"},{"Location":"YOSEMITE RIVERS FLY SHOP","Address":"40827 Highway 41","City":"Oakhurst","State":"CA","Zip":"93644"}]