[{"Location":"CARNICERIA LOPEZ","Address":"12767 Avenue 416","City":"Orosi","State":"CA","Zip":"93647"},{"Location":"EL LAGO RESTAURANT","Address":"41558  128 Road","City":"Orosi","State":"CA","Zip":"93647"},{"Location":"GUNTHERS BARBERSHOP","Address":"12512 Avenue 416 B","City":"Orosi","State":"CA","Zip":"93647"},{"Location":"LUCKY EL","Address":"41369 Road 128","City":"Orosi","State":"CA","Zip":"93647"},{"Location":"MARTHAS MEXICAN FOOD","Address":"12836 Avenue 415","City":"Orosi","State":"CA","Zip":"93647"},{"Location":"MICKYS HAIR SALON","Address":"41464 Road 128","City":"Orosi","State":"CA","Zip":"93647"},{"Location":"OROSI MART","Address":"12381 Avenue 416","City":"Orosi","State":"CA","Zip":"93647"},{"Location":"CARNICERIA LOPEZ","Address":"12767 Avenue 416","City":"Orosi","State":"CA","Zip":"93647"},{"Location":"EL LAGO RESTAURANT","Address":"41558  128 Road","City":"Orosi","State":"CA","Zip":"93647"},{"Location":"GUNTHERS BARBERSHOP","Address":"12512 Avenue 416 B","City":"Orosi","State":"CA","Zip":"93647"},{"Location":"LUCKY EL","Address":"41369 Road 128","City":"Orosi","State":"CA","Zip":"93647"},{"Location":"MARTHAS MEXICAN FOOD","Address":"12836 Avenue 415","City":"Orosi","State":"CA","Zip":"93647"},{"Location":"MICKYS HAIR SALON","Address":"41464 Road 128","City":"Orosi","State":"CA","Zip":"93647"},{"Location":"OROSI MART","Address":"12381 Avenue 416","City":"Orosi","State":"CA","Zip":"93647"}]