[{"Location":"DORNS GAS INC","Address":"4111 W Mount Whitney Ave","City":"Riverdale","State":"CA","Zip":"93656"},{"Location":"EL MERCADITO MI TIERRA","Address":"6700 W Mount Whitney Ave","City":"Riverdale","State":"CA","Zip":"93656"},{"Location":"EL MONTANA BAR","Address":"3368 W Mount Whitney Ave","City":"Riverdale","State":"CA","Zip":"93656"},{"Location":"LA ALTENITA STORE & VARI","Address":"3448 W Mount Whitney","City":"Riverdale","State":"CA","Zip":"93656"},{"Location":"RIVERDALE UNIFIED SCHOOL DIST","Address":"3160 W Mount Whitney Ave","City":"Riverdale","State":"CA","Zip":"93656"},{"Location":"STAR MART 8","Address":"3610 W Mount Whitney Ave","City":"Riverdale","State":"CA","Zip":"93656"},{"Location":"WAYNES AUTO PARTS","Address":"3296 W Mount Whitney Ave","City":"Riverdale","State":"CA","Zip":"93656"},{"Location":"ZE FEED","Address":"3596 W Mt Whitney Ave","City":"Riverdale","State":"CA","Zip":"93656"},{"Location":"DORNS GAS INC","Address":"4111 W Mount Whitney Ave","City":"Riverdale","State":"CA","Zip":"93656"},{"Location":"EL MERCADITO MI TIERRA","Address":"6700 W Mount Whitney Ave","City":"Riverdale","State":"CA","Zip":"93656"},{"Location":"EL MONTANA BAR","Address":"3368 W Mount Whitney Ave","City":"Riverdale","State":"CA","Zip":"93656"},{"Location":"LA ALTENITA STORE & VARI","Address":"3448 W Mount Whitney","City":"Riverdale","State":"CA","Zip":"93656"},{"Location":"RIVERDALE UNIFIED SCHOOL DIST","Address":"3160 W Mount Whitney Ave","City":"Riverdale","State":"CA","Zip":"93656"},{"Location":"STAR MART 8","Address":"3610 W Mount Whitney Ave","City":"Riverdale","State":"CA","Zip":"93656"},{"Location":"WAYNES AUTO PARTS","Address":"3296 W Mount Whitney Ave","City":"Riverdale","State":"CA","Zip":"93656"},{"Location":"ZE FEED","Address":"3596 W Mt Whitney Ave","City":"Riverdale","State":"CA","Zip":"93656"}]