[{"Location":"ALL AG INC","Address":"1514 8th St","City":"Sanger","State":"CA","Zip":"93657"},{"Location":"CRISTAL BAKERY","Address":"704 O St","City":"Sanger","State":"CA","Zip":"93657"},{"Location":"DEFINITIVE STAFFING SOLUTIONS","Address":"718 N St","City":"Sanger","State":"CA","Zip":"93657"},{"Location":"FOSTERS FREEZE","Address":"630 Academy Ave","City":"Sanger","State":"CA","Zip":"93657"},{"Location":"HIDEAWAY BAR","Address":"1335 12th St","City":"Sanger","State":"CA","Zip":"93657"},{"Location":"HONNS TRENCHING","Address":"3715 N Bethel Ave","City":"Sanger","State":"CA","Zip":"93657"},{"Location":"KIM S TRAN DDS","Address":"263 Academy Ave","City":"Sanger","State":"CA","Zip":"93657"},{"Location":"L & L SALON","Address":"613 O St","City":"Sanger","State":"CA","Zip":"93657"},{"Location":"LA HACIENDITA REST","Address":"1845 Academy Ave","City":"Sanger","State":"CA","Zip":"93657"},{"Location":"LAUNDRY DAY","Address":"275 N Academy Ave","City":"Sanger","State":"CA","Zip":"93657"},{"Location":"LES SCHWAB TIRES","Address":"710 Academy Ave","City":"Sanger","State":"CA","Zip":"93657"},{"Location":"ME-N-EDS PIZZERIA- DIV09","Address":"1343 North Ave","City":"Sanger","State":"CA","Zip":"93657"},{"Location":"ME-N-EDS PIZZERIDA DIV23","Address":"2616 Jensen Ave","City":"Sanger","State":"CA","Zip":"93657"},{"Location":"MICHAELS TOWING LLC","Address":"94 Academy Ave","City":"Sanger","State":"CA","Zip":"93657"},{"Location":"MOTION MATTERS PHYSICAL THPY","Address":"1132 Academy Ave 101","City":"Sanger","State":"CA","Zip":"93657"},{"Location":"MOUNTAIN MIKES PIZZA","Address":"2637 Jensen Ave","City":"Sanger","State":"CA","Zip":"93657"},{"Location":"OM VIGHNANASH%2C LLC","Address":"502 L St","City":"Sanger","State":"CA","Zip":"93657"},{"Location":"PIZZA HUT #028580","Address":"1132 Academy Ave 102","City":"Sanger","State":"CA","Zip":"93657"},{"Location":"POSITIVE AUTO REPAIR 1","Address":"1711 Academy Ave","City":"Sanger","State":"CA","Zip":"93657"},{"Location":"SANGER FIREFIGHTERS","Address":"1700 7th St","City":"Sanger","State":"CA","Zip":"93657"},{"Location":"SANGER PLACE","Address":"2511 Jensen Ave","City":"Sanger","State":"CA","Zip":"93657"},{"Location":"SANGER POOL HALL","Address":"750 L St","City":"Sanger","State":"CA","Zip":"93657"},{"Location":"SCHOOL HOUSE INC","Address":"1018 S Frankwood Ave","City":"Sanger","State":"CA","Zip":"93657"},{"Location":"SEQUOIA CHEVROLET","Address":"1028 Academy Ave","City":"Sanger","State":"CA","Zip":"93657"},{"Location":"SHERWOOD FOREST GOLF CLUB","Address":"79 N Frankwood Ave","City":"Sanger","State":"CA","Zip":"93657"},{"Location":"SYNTECH RESEARCH","Address":"17915 E Annadale Ave","City":"Sanger","State":"CA","Zip":"93657"},{"Location":"TAIGA BUILDING PRODUCTS LLC","Address":"1980 Industrial Way","City":"Sanger","State":"CA","Zip":"93657"},{"Location":"THE FRATERNAL ORDER OF EAGLES","Address":"225 J St","City":"Sanger","State":"CA","Zip":"93657"},{"Location":"THE OASIS SALOON","Address":"757 Academy Ave","City":"Sanger","State":"CA","Zip":"93657"},{"Location":"VARGAS BUSINESS SERVICES","Address":"1409 Jensen Ave 102","City":"Sanger","State":"CA","Zip":"93657"},{"Location":"VILLAFANA","Address":"103 Academy Ave","City":"Sanger","State":"CA","Zip":"93657"}]