[{"Location":"ADVANTIST COMMUNITY CARE","Address":"1150 E Washington Ave","City":"Reedley","State":"CA","Zip":"93654"},{"Location":"ADVENTIST HEALTH-ACACIA","Address":"1419 N Acacia Ave 101","City":"Reedley","State":"CA","Zip":"93654"},{"Location":"B SMITH AIR","Address":"4557 S Frankwood Ave","City":"Reedley","State":"CA","Zip":"93654"},{"Location":"BUTTONWILLOW NURSERY INC","Address":"1260 S Buttonwillow Ave","City":"Reedley","State":"CA","Zip":"93654"},{"Location":"CALIF GROWERS LLC","Address":"865 S Frankwood Ave","City":"Reedley","State":"CA","Zip":"93654"},{"Location":"COVE RANCH MANAGEMENT","Address":"1315 E Curtis Ave","City":"Reedley","State":"CA","Zip":"93654"},{"Location":"DANIELS MEXICAN GRILL","Address":"801 N Reed Ave","City":"Reedley","State":"CA","Zip":"93654"},{"Location":"DAYKA AND HACKETT","Address":"42874 Road 64","City":"Reedley","State":"CA","Zip":"93654"},{"Location":"EL NOPAL BAKERY","Address":"1360 G St","City":"Reedley","State":"CA","Zip":"93654"},{"Location":"FITNESS QUEST HEALTH CLU","Address":"1601 10th St","City":"Reedley","State":"CA","Zip":"93654"},{"Location":"FMC 20850000","Address":"1421 N Acacia Ave","City":"Reedley","State":"CA","Zip":"93654"},{"Location":"HERRERS JEWLERY","Address":"1070 E Manning Ave","City":"Reedley","State":"CA","Zip":"93654"},{"Location":"HISPANO DENTAL CARE","Address":"929 W Manning Ave","City":"Reedley","State":"CA","Zip":"93654"},{"Location":"HOTEL BY PAISANO","Address":"1368 E Manning Ave","City":"Reedley","State":"CA","Zip":"93654"},{"Location":"HP COMMUNICATIONS INC2","Address":"22304 E Parlier Ave","City":"Reedley","State":"CA","Zip":"93654"},{"Location":"JACKS REFRIGERATION","Address":"1041 E Dinuba Ave","City":"Reedley","State":"CA","Zip":"93654"},{"Location":"ME-N-EDS PIZZERIA DIV24","Address":"1085 E Manning Ave","City":"Reedley","State":"CA","Zip":"93654"},{"Location":"NEWSTART GROUP HOME INC","Address":"19224 E Vino Ave 10","City":"Reedley","State":"CA","Zip":"93654"},{"Location":"PIRATE PIZZA","Address":"1550 E Manning Ave","City":"Reedley","State":"CA","Zip":"93654"},{"Location":"QUARTRO COPAS","Address":"1333 I St","City":"Reedley","State":"CA","Zip":"93654"},{"Location":"REEDLEY COLLEGE RESIDENCE HALL","Address":"995 N Reed Ave","City":"Reedley","State":"CA","Zip":"93654"},{"Location":"REEDLEY SANDWICH","Address":"1154 G St","City":"Reedley","State":"CA","Zip":"93654"},{"Location":"SAMS SHOE STORE","Address":"1127 G St","City":"Reedley","State":"CA","Zip":"93654"},{"Location":"SUN VALLEY PACKING","Address":"7381 Avenue 432","City":"Reedley","State":"CA","Zip":"93654"},{"Location":"THE PUB LLC","Address":"1041 G St","City":"Reedley","State":"CA","Zip":"93654"},{"Location":"TRICOUNTY MEDICAL TRANSPORT","Address":"659 E Dinuba Ave","City":"Reedley","State":"CA","Zip":"93654"},{"Location":"TTRE INCORPORATED","Address":"1107 1%2F2 G St","City":"Reedley","State":"CA","Zip":"93654"},{"Location":"VALLEY CONTROLS","Address":"583 E Dinuba Ave","City":"Reedley","State":"CA","Zip":"93654"},{"Location":"XCELERATE FITNESS #1","Address":"555 I St","City":"Reedley","State":"CA","Zip":"93654"},{"Location":"XCELERATE FITNESS #2","Address":"555 I St","City":"Reedley","State":"CA","Zip":"93654"},{"Location":"YR PIZZA PLANET","Address":"921 W Manning Ave","City":"Reedley","State":"CA","Zip":"93654"}]