[{"Location":"AMERICAN AMB%2F SHAVER","Address":"41795 Tollhouse Rd","City":"Shaver Lake","State":"CA","Zip":"93664"},{"Location":"CUSTOM PRODUCE LAND CO","Address":"41057 Windwood Lane","City":"Shaver Lake","State":"CA","Zip":"93664"},{"Location":"DINKEY CREEK INN","Address":"53861 Dinkycreek Rd","City":"Shaver Lake","State":"CA","Zip":"93664"},{"Location":"DINKEY CREEK INN 2","Address":"53861 Dinkycreek Rd","City":"Shaver Lake","State":"CA","Zip":"93664"},{"Location":"DINKEY CREEK INN 3","Address":"53861 Dinkycreek Rd","City":"Shaver Lake","State":"CA","Zip":"93664"},{"Location":"DINKEY CREEK INN 4","Address":"53861 Dinkycreek Rd","City":"Shaver Lake","State":"CA","Zip":"93664"},{"Location":"DINKEY CREEK INN 5","Address":"53861 Dinkycreek Rd","City":"Shaver Lake","State":"CA","Zip":"93664"},{"Location":"DINKEY CREEK INN 6","Address":"53861 Dinkycreek Rd","City":"Shaver Lake","State":"CA","Zip":"93664"},{"Location":"DINKEY CREEK INN 7","Address":"53861 Dinky Creek Rd","City":"Shaver Lake","State":"CA","Zip":"93664"},{"Location":"GRAN VILLE HOMES INC","Address":"39620 Hwy 168","City":"Shaver Lake","State":"CA","Zip":"93664"},{"Location":"SHAVER LAKE PIZZA","Address":"41820 Toll House Rd","City":"Shaver Lake","State":"CA","Zip":"93664"},{"Location":"SHAVER LAKE PUB","Address":"41782 Dorabella Rd","City":"Shaver Lake","State":"CA","Zip":"93664"},{"Location":"THE FALLS","Address":"41830 Tollhouse Rd","City":"Shaver Lake","State":"CA","Zip":"93664"}]