[{"Location":"ADVANTIST HEALTH PHYSICI","Address":"1142 Rose Ave C","City":"Selma","State":"CA","Zip":"93662"},{"Location":"ADVENTIST HEALTH - ROSE","Address":"1142 Rose Ave A","City":"Selma","State":"CA","Zip":"93662"},{"Location":"ADVENTIST HEALTH PHY","Address":"2256 Dockery Ave B","City":"Selma","State":"CA","Zip":"93662"},{"Location":"CATTLEMENS SELMA","Address":"1880 Art Gonzales Pkwy","City":"Selma","State":"CA","Zip":"93662"},{"Location":"CHINA GARDEN","Address":"2719 Whitson St","City":"Selma","State":"CA","Zip":"93662"},{"Location":"D & L PRODUCE","Address":"10463 S Del Rey Ave","City":"Selma","State":"CA","Zip":"93662"},{"Location":"DAVITA #4054 SELMA","Address":"2711 Cinema Way","City":"Selma","State":"CA","Zip":"93662"},{"Location":"EAGLE PONITE DEVELOPMENT","Address":"2737 Whitson St","City":"Selma","State":"CA","Zip":"93662"},{"Location":"EL CAMPESINO RESTAURANT","Address":"1962 Whitson St","City":"Selma","State":"CA","Zip":"93662"},{"Location":"FREEWAY LANES","Address":"8265 E Dinuba Ave","City":"Selma","State":"CA","Zip":"93662"},{"Location":"FRESNO COUNTY SHERIFF'S DEPT","Address":"1055 Golden State Blvd","City":"Selma","State":"CA","Zip":"93662"},{"Location":"GLACIER REFRIGERATION AND AIR","Address":"1200 Valley View St","City":"Selma","State":"CA","Zip":"93662"},{"Location":"GORGEUS HAIR SALON AND C","Address":"1931 1st St A","City":"Selma","State":"CA","Zip":"93662"},{"Location":"HOLIDAY INN SWAN CT (0060641)","Address":"2950 Pea Soup Anderson Blvd","City":"Selma","State":"CA","Zip":"93662"},{"Location":"IMPERIAL WESTERN PRODUCT","Address":"3766 E Conejo Ave","City":"Selma","State":"CA","Zip":"93662"},{"Location":"KATIES KITCHEN","Address":"3822 Mccall Ave","City":"Selma","State":"CA","Zip":"93662"},{"Location":"LES SCHWAB TIRE CENTER","Address":"2731 Highland Ave","City":"Selma","State":"CA","Zip":"93662"},{"Location":"LIBERTY CHEVROLET","Address":"2755 Auto Mall Dr","City":"Selma","State":"CA","Zip":"93662"},{"Location":"ME-N-EDS PIZZERIA- DIV21","Address":"3165 Highland Ave","City":"Selma","State":"CA","Zip":"93662"},{"Location":"PACIFIC PIZZA","Address":"2851 Highland Ave 119","City":"Selma","State":"CA","Zip":"93662"},{"Location":"PIZZA HUT- SELMA","Address":"3320 Floral Ave","City":"Selma","State":"CA","Zip":"93662"},{"Location":"SELMA HONDA","Address":"2705 Auto Mall Dr","City":"Selma","State":"CA","Zip":"93662"},{"Location":"SELMA HYUNDAI","Address":"3150 Highland Ave","City":"Selma","State":"CA","Zip":"93662"},{"Location":"SELMA KIA","Address":"2775 Auto Mall Dr","City":"Selma","State":"CA","Zip":"93662"},{"Location":"SELMA NISSAN","Address":"2525 Highland Ave","City":"Selma","State":"CA","Zip":"93662"},{"Location":"SELMA VINEYARD SUPPLY INC","Address":"5683 E Nebraska Ave","City":"Selma","State":"CA","Zip":"93662"},{"Location":"SELMA WASH STATION","Address":"2718 Whitson St","City":"Selma","State":"CA","Zip":"93662"}]