[{"Location":"ASIAN DELI","Address":"725 N Fresno St","City":"Fresno","State":"CA","Zip":"93701"},{"Location":"CLINICA SIERRA VISTA","Address":"2031 E Divisadero St","City":"Fresno","State":"CA","Zip":"93701"},{"Location":"CLINICA SIERRAVISTA-145","Address":"145 N Clark St","City":"Fresno","State":"CA","Zip":"93701"},{"Location":"COMMUNITY MEDICAL CENTER OUT","Address":"2335 E Kashian Ln","City":"Fresno","State":"CA","Zip":"93701"},{"Location":"DERAN KOLIGIAN AMBULANCE","Address":"290 N Wayte Lane","City":"Fresno","State":"CA","Zip":"93701"},{"Location":"DISEASE MANAGEMENT CENTE","Address":"2915 E Illinois Ave","City":"Fresno","State":"CA","Zip":"93701"},{"Location":"GRIZZLY VAPORS","Address":"1025 N Abby St","City":"Fresno","State":"CA","Zip":"93701"},{"Location":"MEMOS BARBER SHOP","Address":"3039 E Belmont Ave","City":"Fresno","State":"CA","Zip":"93701"},{"Location":"PEDROS MEXICAN FOOD","Address":"323 N Fresno St","City":"Fresno","State":"CA","Zip":"93701"},{"Location":"RICHARD'S PRIME RIB","Address":"1609 E Belmont Ave","City":"Fresno","State":"CA","Zip":"93701"},{"Location":"SUPER SUDS","Address":"1718 E Divisadero St","City":"Fresno","State":"CA","Zip":"93701"},{"Location":"SURGICAL SERVICES","Address":"255 N Howard Ave","City":"Fresno","State":"CA","Zip":"93701"},{"Location":"UROGYNECOLOGY SPECIALTY","Address":"2335 E Kashian Ln 260","City":"Fresno","State":"CA","Zip":"93701"}]