[{"Location":"AMERICAN AMBULANCE","Address":"4555 E Hamilton Ave","City":"Fresno","State":"CA","Zip":"93702"},{"Location":"CANYON FAMILY DENTAL","Address":"4577 E Kings Canyon Rd 102","City":"Fresno","State":"CA","Zip":"93702"},{"Location":"CLINICA SIERRAVISTA-1350","Address":"1350 S Orange Ave","City":"Fresno","State":"CA","Zip":"93702"},{"Location":"DISCOTECA DEL VALLE","Address":"3719 E Ventura Ave 108","City":"Fresno","State":"CA","Zip":"93702"},{"Location":"FRESNO PACIFIC FITNESS C","Address":"1717 S Chestnut Ave","City":"Fresno","State":"CA","Zip":"93702"},{"Location":"FRESNO PACIFIC UNIVERSITY","Address":"1717 S Chestnut Ave","City":"Fresno","State":"CA","Zip":"93702"},{"Location":"FURNITURE EXPRESS","Address":"4224 E Belmont Ave","City":"Fresno","State":"CA","Zip":"93702"},{"Location":"JAVENCE","Address":"4231 E Tulare St","City":"Fresno","State":"CA","Zip":"93702"},{"Location":"LYONS MAGNUS","Address":"1636 S 2nd St","City":"Fresno","State":"CA","Zip":"93702"},{"Location":"MARISCOS COLIMA","Address":"3280 E Tulare St","City":"Fresno","State":"CA","Zip":"93702"},{"Location":"MARISCOS LAS ADAS MANZANILLO","Address":"4772 E Olive Ave","City":"Fresno","State":"CA","Zip":"93702"},{"Location":"ME-N-EDS PIZZERIA-DIV 06","Address":"4072 E Ventura Ave","City":"Fresno","State":"CA","Zip":"93702"},{"Location":"MIMIS KITCHEN","Address":"3720 E Olive Ave","City":"Fresno","State":"CA","Zip":"93702"},{"Location":"PACIFIC GAS AND ELECTRIC CO","Address":"3580 E California Ave Bag 5","City":"Fresno","State":"CA","Zip":"93702"},{"Location":"ROUND TABLE PIZZA-TULARE","Address":"3262 E Tulare St","City":"Fresno","State":"CA","Zip":"93702"},{"Location":"SKEES RECYCLING","Address":"4628 E Thomas Ave","City":"Fresno","State":"CA","Zip":"93702"},{"Location":"TACOS TIJUANA Y MARISCOS","Address":"4170 E Belmont Ave","City":"Fresno","State":"CA","Zip":"93702"},{"Location":"TRU KUTZ","Address":"3716 E Olive Ave","City":"Fresno","State":"CA","Zip":"93702"}]