[{"Location":"AMERICAN AMBULANCE","Address":"3002 N 1st St","City":"Fresno","State":"CA","Zip":"93703"},{"Location":"ANTONIOS MOBILE UPHOLTER","Address":"4566 E Pine Ave","City":"Fresno","State":"CA","Zip":"93703"},{"Location":"BETTER BUILT TRANSMISSIO","Address":"1316 N 1st St","City":"Fresno","State":"CA","Zip":"93703"},{"Location":"BOBBY SALAZARS","Address":"2839 N Blackstone Ave","City":"Fresno","State":"CA","Zip":"93703"},{"Location":"ELBERT DISTRIBUTING","Address":"1550 N Woodrow Ave","City":"Fresno","State":"CA","Zip":"93703"},{"Location":"GAMETIME PIZZA PARLOR","Address":"1584 N 1st St","City":"Fresno","State":"CA","Zip":"93703"},{"Location":"GARCIA'S RESTAURANT","Address":"4795 E Mckinley Ave","City":"Fresno","State":"CA","Zip":"93703"},{"Location":"INDEPENDENT ELECTRICAL","Address":"1555 N Clark St","City":"Fresno","State":"CA","Zip":"93703"},{"Location":"KEE CHIN LEE","Address":"3039 N Cedar Ave","City":"Fresno","State":"CA","Zip":"93703"},{"Location":"LETYS RESTAURANT","Address":"4770 E Clinton Ave 101","City":"Fresno","State":"CA","Zip":"93703"},{"Location":"MARK WOODLEY","Address":"4647 E Weathermaker Ave","City":"Fresno","State":"CA","Zip":"93703"},{"Location":"MAYS CAFE","Address":"2327 N Fresno St 102","City":"Fresno","State":"CA","Zip":"93703"},{"Location":"ME-N-EDS PIZZERIA-DIV10","Address":"4829 E Mckinley Ave","City":"Fresno","State":"CA","Zip":"93703"},{"Location":"MISSION AUTO SALES","Address":"1445 N Blackstone Ave","City":"Fresno","State":"CA","Zip":"93703"},{"Location":"MOLER BARBER COLLEGE","Address":"2249 N Blackstone Ave","City":"Fresno","State":"CA","Zip":"93703"},{"Location":"NGUYEN","Address":"1432 N Cedar Ave 106","City":"Fresno","State":"CA","Zip":"93703"},{"Location":"NHO CAFE","Address":"3145 Mayfair Ct","City":"Fresno","State":"CA","Zip":"93703"},{"Location":"ONE WAY TOW","Address":"1558 N Sierra Vista Ave","City":"Fresno","State":"CA","Zip":"93703"},{"Location":"PARADISE RESTAURANT","Address":"1848 N 1st St","City":"Fresno","State":"CA","Zip":"93703"},{"Location":"PHO #1","Address":"1656 N First Street","City":"Fresno","State":"CA","Zip":"93703"},{"Location":"PHO 75","Address":"3127 E Mckinley Ave","City":"Fresno","State":"CA","Zip":"93703"},{"Location":"SANDY'S PLACE LLC","Address":"1842 E Mckinley Ave","City":"Fresno","State":"CA","Zip":"93703"},{"Location":"VETERANARY   SPECIALTY SERVICE","Address":"1707 N Fresno St","City":"Fresno","State":"CA","Zip":"93703"},{"Location":"VETERINARY EMERGENCY SERVICE","Address":"1639 N Fresno St","City":"Fresno","State":"CA","Zip":"93703"}]