[{"Location":"ALL PHASE MEDALION SUPPLY","Address":"1359 E St","City":"Fresno","State":"CA","Zip":"93706"},{"Location":"AMERIPRIDE SERVICES","Address":"1050 W Whites Bridge Ave","City":"Fresno","State":"CA","Zip":"93706"},{"Location":"ARDREY INSTITUE","Address":"241 W Atchison Ave","City":"Fresno","State":"CA","Zip":"93706"},{"Location":"BALOIAN FARMS","Address":"446 N Blythe Ave","City":"Fresno","State":"CA","Zip":"93706"},{"Location":"CARGILL","Address":"511 W North Ave","City":"Fresno","State":"CA","Zip":"93706"},{"Location":"CENTRAL VALLEY HIDTA","Address":"1735 E St","City":"Fresno","State":"CA","Zip":"93706"},{"Location":"CHEF PAUL CAFE","Address":"952 F St","City":"Fresno","State":"CA","Zip":"93706"},{"Location":"CHERRY AVE AUCTION","Address":"4640 S Cherry Ave","City":"Fresno","State":"CA","Zip":"93706"},{"Location":"CITY OF FRESNO WASTEWATER","Address":"5607 W Jensen Ave","City":"Fresno","State":"CA","Zip":"93706"},{"Location":"CLINICA SIERRA VISTA","Address":"2740 S Elm Ave","City":"Fresno","State":"CA","Zip":"93706"},{"Location":"CLINICA SIERRA VISTA 3","Address":"2760 S Elm Ave","City":"Fresno","State":"CA","Zip":"93706"},{"Location":"CLINICA SIERRAVISTA-2756","Address":"2756 S Elm Ave","City":"Fresno","State":"CA","Zip":"93706"},{"Location":"CLINICA SIERRAVISTA-2798","Address":"2798 S Elm Ave","City":"Fresno","State":"CA","Zip":"93706"},{"Location":"CLINICA SIERRAVISTA-302","Address":"302 Fresno St","City":"Fresno","State":"CA","Zip":"93706"},{"Location":"CLINICA SIERRAVISTA-5874","Address":"5784 S Elm Ave","City":"Fresno","State":"CA","Zip":"93706"},{"Location":"CONCENTRA MEDICAL CENTERS","Address":"2555 S East Ave","City":"Fresno","State":"CA","Zip":"93706"},{"Location":"COSMOPOLITAN TAVERN","Address":"1546 Fresno St","City":"Fresno","State":"CA","Zip":"93706"},{"Location":"CRUZ TIRE SHOP","Address":"1237 B St","City":"Fresno","State":"CA","Zip":"93706"},{"Location":"FIRE STATION 22","Address":"806 S Garfield Ave","City":"Fresno","State":"CA","Zip":"93706"},{"Location":"FRESNO COUNTY SHERIFFS OFFICE","Address":"2510 S East Ave 400","City":"Fresno","State":"CA","Zip":"93706"},{"Location":"GLORY BOUND WORLD OUTREACH","Address":"916 Waterman Ave","City":"Fresno","State":"CA","Zip":"93706"},{"Location":"GOLDEN SKIES LLC","Address":"524 W Kearney Blvd","City":"Fresno","State":"CA","Zip":"93706"},{"Location":"J & L IRRIGATION COMPANY INC","Address":"4264 W Jensen Ave","City":"Fresno","State":"CA","Zip":"93706"},{"Location":"KILLINGSWORTH GEAR E","Address":"11200 W Whites Bridge Ave","City":"Fresno","State":"CA","Zip":"93706"},{"Location":"LA ELEGANTE","Address":"1423 Kern St","City":"Fresno","State":"CA","Zip":"93706"},{"Location":"LILY NAIL & SPA","Address":"1137 Fresno St","City":"Fresno","State":"CA","Zip":"93706"},{"Location":"LOS ARCOS","Address":"1435 Fresno St 101","City":"Fresno","State":"CA","Zip":"93706"},{"Location":"MORNING SUNRISE HOSPITALITY","Address":"2833 E Church Ave 2","City":"Fresno","State":"CA","Zip":"93706"},{"Location":"MORNING SUNRISE HOSPITALITY","Address":"2833 E Church Ave 1","City":"Fresno","State":"CA","Zip":"93706"},{"Location":"PHOENIX COATINGS","Address":"130 S West Ave","City":"Fresno","State":"CA","Zip":"93706"},{"Location":"PIZZA HUT- FRESNO ST","Address":"1227 Fresno St","City":"Fresno","State":"CA","Zip":"93706"},{"Location":"RDX INC","Address":"2436 S Sarah St","City":"Fresno","State":"CA","Zip":"93706"},{"Location":"RITCHIE TRUCKING SERVICE","Address":"2724 E Annadale Ave","City":"Fresno","State":"CA","Zip":"93706"},{"Location":"ROB ROSS FOODS","Address":"2531 E Edgar Ave","City":"Fresno","State":"CA","Zip":"93706"},{"Location":"RODS WROUGHT IRONWORKS","Address":"9358 W Whites Bridge Ave","City":"Fresno","State":"CA","Zip":"93706"},{"Location":"ROSIES FLOWER SHOP","Address":"1419 Kern St","City":"Fresno","State":"CA","Zip":"93706"},{"Location":"RUBYS VALLEY CARE HOME","Address":"9919 S Elm Ave","City":"Fresno","State":"CA","Zip":"93706"},{"Location":"STERLING AND SMITH FUNERAL DIR","Address":"1103 E St","City":"Fresno","State":"CA","Zip":"93706"},{"Location":"TARLTON & SONS INC","Address":"3562 S Elm Ave","City":"Fresno","State":"CA","Zip":"93706"},{"Location":"THE JEREMIAH HOME","Address":"544 Fresno St","City":"Fresno","State":"CA","Zip":"93706"},{"Location":"TRANSPORTES INTERCALIFOR","Address":"1142 F St","City":"Fresno","State":"CA","Zip":"93706"},{"Location":"UNION BANK 106","Address":"1458 Kern St","City":"Fresno","State":"CA","Zip":"93706"},{"Location":"UTILITY TRAILER SALES CA","Address":"2680 S East Ave","City":"Fresno","State":"CA","Zip":"93706"},{"Location":"WEST CARE OF CALIFORNIA","Address":"2772 S Mlk Blvd","City":"Fresno","State":"CA","Zip":"93706"},{"Location":"WESTERN METAL COMPANY","Address":"2910 S Cherry Ave","City":"Fresno","State":"CA","Zip":"93706"},{"Location":"WHITES MOVING & STORAGE","Address":"2367 S Taylor Ave","City":"Fresno","State":"CA","Zip":"93706"},{"Location":"WILSONS MOTORCYCLES","Address":"2436 Foundry Park Ave","City":"Fresno","State":"CA","Zip":"93706"}]