[{"Location":"ADAN SANCHEZ","Address":"2232 N Pleasant Ave","City":"Fresno","State":"CA","Zip":"93705"},{"Location":"DIAMOND LEARNING CENTER","Address":"1620 W Fairmont Ave","City":"Fresno","State":"CA","Zip":"93705"},{"Location":"HAIR TIME SALON","Address":"3130 N Fruit Ave","City":"Fresno","State":"CA","Zip":"93705"},{"Location":"HANSEN LAND MANAGEMENT","Address":"3795 N West Ave","City":"Fresno","State":"CA","Zip":"93705"},{"Location":"HE OFFICE COCKTAIL LOUNGE","Address":"1415 W Shields Ave","City":"Fresno","State":"CA","Zip":"93705"},{"Location":"INTERNATIONAL CATERING COMPANY","Address":"4277 N West Ave","City":"Fresno","State":"CA","Zip":"93705"},{"Location":"LAUNDRY DAY","Address":"2341 N West Ave 101","City":"Fresno","State":"CA","Zip":"93705"},{"Location":"ME-N-EDS PIZZERIA-DIV007","Address":"1736 W Clinton Ave","City":"Fresno","State":"CA","Zip":"93705"},{"Location":"NICKS SPORTS BAR","Address":"1312 W Shields Ave","City":"Fresno","State":"CA","Zip":"93705"},{"Location":"POODLE TOWN USA","Address":"409 W Shields Ave","City":"Fresno","State":"CA","Zip":"93705"},{"Location":"SERENITY GROUP HOMES","Address":"2728 W Acacia Ave","City":"Fresno","State":"CA","Zip":"93705"},{"Location":"SERINITY GROUPS HOMES 2","Address":"2805 W Acacia Ave","City":"Fresno","State":"CA","Zip":"93705"},{"Location":"TACOS MARISTOS","Address":"1432 W Ashlan Ave","City":"Fresno","State":"CA","Zip":"93705"},{"Location":"TURNER SECURITY SYSTEMS","Address":"120 W Shields Ave","City":"Fresno","State":"CA","Zip":"93705"},{"Location":"VALENTINS RESTAURANT","Address":"3761 N Hughes Ave","City":"Fresno","State":"CA","Zip":"93705"}]