[{"Location":"BARRY MAAS","Address":"555 W Shaw Ave C1","City":"Fresno","State":"CA","Zip":"93704"},{"Location":"CIGARS LIMITED","Address":"5132 N Palm Ave","City":"Fresno","State":"CA","Zip":"93704"},{"Location":"CLUB HABANOS","Address":"6759 N Palm Ave","City":"Fresno","State":"CA","Zip":"93704"},{"Location":"DELOITTE & TOUCHE LLP","Address":"5250 N Palm Ave 300","City":"Fresno","State":"CA","Zip":"93704"},{"Location":"DNC PARKS & RESORTS CENTRAL","Address":"6771 N Palm Ave","City":"Fresno","State":"CA","Zip":"93704"},{"Location":"FINCH OCHELTREE ROWLAND","Address":"6445 N Palm Ave 101","City":"Fresno","State":"CA","Zip":"93704"},{"Location":"FRESNO INFINITY","Address":"711 W Palmdon Dr","City":"Fresno","State":"CA","Zip":"93704"},{"Location":"HAIR CLUB","Address":"516 W Shaw Ave 107","City":"Fresno","State":"CA","Zip":"93704"},{"Location":"KARSH","Address":"6731 N Palm Ave","City":"Fresno","State":"CA","Zip":"93704"},{"Location":"KFTV","Address":"601 W Univision Plz","City":"Fresno","State":"CA","Zip":"93704"},{"Location":"LITTLE LEAF TEA","Address":"6011 N Palm Ave","City":"Fresno","State":"CA","Zip":"93704"},{"Location":"ME-N-EDS PIZZERIA DIV00","Address":"6729 N Palm Ave 200","City":"Fresno","State":"CA","Zip":"93704"},{"Location":"ME-N-EDS PIZZERIA DIV102","Address":"799 W Palmdon Dr","City":"Fresno","State":"CA","Zip":"93704"},{"Location":"PALM & SHIELDS TV","Address":"324 E Shields Ave","City":"Fresno","State":"CA","Zip":"93704"},{"Location":"RBC DAIN RAUSHER","Address":"5250 N Palm Ave 111","City":"Fresno","State":"CA","Zip":"93704"},{"Location":"SANTA FE BASQUE","Address":"3110 N Maroa Ave","City":"Fresno","State":"CA","Zip":"93704"},{"Location":"TANGRAM","Address":"677 W Palmdon Dr 101","City":"Fresno","State":"CA","Zip":"93704"},{"Location":"THE BAR METHOD FRESNO","Address":"6751 N Palm Ave","City":"Fresno","State":"CA","Zip":"93704"},{"Location":"THE SPA AND HUNGRY HAIR SALON","Address":"680 W Shaw Ave","City":"Fresno","State":"CA","Zip":"93704"},{"Location":"VALLEY MEDICAL SYSTEMS","Address":"3030 N Maroa Ave 201","City":"Fresno","State":"CA","Zip":"93704"},{"Location":"WASIBI OFF THE HOOK","Address":"752 W Shaw Ave","City":"Fresno","State":"CA","Zip":"93704"}]