[{"Location":"ADVANCED FAMILY PHARMACY","Address":"5191 N 6th St","City":"Fresno","State":"CA","Zip":"93710"},{"Location":"ADVANCED MEDICAL IMAGING","Address":"6297 N Fresno St","City":"Fresno","State":"CA","Zip":"93710"},{"Location":"BJS RESTAURANT #435","Address":"715 E Shaw Ave","City":"Fresno","State":"CA","Zip":"93710"},{"Location":"BOUDOIR NAIL SPA","Address":"6825 N Willow Ave 104","City":"Fresno","State":"CA","Zip":"93710"},{"Location":"BOYAJIAN REALTY","Address":"5135 N Blackstone Ave","City":"Fresno","State":"CA","Zip":"93710"},{"Location":"BUFFALO WILD WINGS #0284","Address":"3065 E Shaw Ave","City":"Fresno","State":"CA","Zip":"93710"},{"Location":"BULLDOG BURGER BISTRO","Address":"1782 E Barstow Ave","City":"Fresno","State":"CA","Zip":"93710"},{"Location":"CA TERRIYAKI DON LLC","Address":"6731 N Cedar Ave","City":"Fresno","State":"CA","Zip":"93710"},{"Location":"CALIFORNIA FUNDING","Address":"700 E Shaw Ave","City":"Fresno","State":"CA","Zip":"93710"},{"Location":"CAPITAL SOURCE BANK","Address":"776 E Shaw Ave 101","City":"Fresno","State":"CA","Zip":"93710"},{"Location":"CASTILLO SMILE CARE","Address":"5359 N Fresno St","City":"Fresno","State":"CA","Zip":"93710"},{"Location":"D DANZ AND SONS INC","Address":"6741 N Willow Ave","City":"Fresno","State":"CA","Zip":"93710"},{"Location":"DB COFFEE FRESNO INC","Address":"6508 N Blackstone Ave","City":"Fresno","State":"CA","Zip":"93710"},{"Location":"DELTA ZETA","Address":"5337 N Millbrook Ave","City":"Fresno","State":"CA","Zip":"93710"},{"Location":"DENNYS 8721","Address":"1110 E Shaw Ave","City":"Fresno","State":"CA","Zip":"93710"},{"Location":"DOG HOUSE GRILL","Address":"2789 E Shaw Ave","City":"Fresno","State":"CA","Zip":"93710"},{"Location":"ELKS LODGE 439 B P O E","Address":"5351 N Diana St","City":"Fresno","State":"CA","Zip":"93710"},{"Location":"ENTERPRISE RENT A CAR","Address":"145 E Auto Center Dr","City":"Fresno","State":"CA","Zip":"93710"},{"Location":"ESQUIRE DEPOSITION","Address":"155 E Shaw Ave 201","City":"Fresno","State":"CA","Zip":"93710"},{"Location":"FIRESTONE #021199","Address":"6512 N Blackstone Ave","City":"Fresno","State":"CA","Zip":"93710"},{"Location":"FLEMING'S #1506","Address":"639 E Shaw Ave 149","City":"Fresno","State":"CA","Zip":"93710"},{"Location":"FMC 61190000","Address":"6737 N Willow Ave","City":"Fresno","State":"CA","Zip":"93710"},{"Location":"FRESNO CHRYSLER JEEP","Address":"6162 N Blackstone Ave","City":"Fresno","State":"CA","Zip":"93710"},{"Location":"FRESNO CRYSTLER JEEP LOBBY","Address":"6162 N Blackstone Ave B","City":"Fresno","State":"CA","Zip":"93710"},{"Location":"FRESNO IMAGING CENTER","Address":"6191 N Thesta St","City":"Fresno","State":"CA","Zip":"93710"},{"Location":"GARYS MUFFLER SHOP","Address":"6615 N Blackstone Ave 112","City":"Fresno","State":"CA","Zip":"93710"},{"Location":"GINZA GOURMET TERIYAKI CUISINE","Address":"5701 N 1st St","City":"Fresno","State":"CA","Zip":"93710"},{"Location":"GOLDEN 1 CREDIT UNION 4","Address":"111 E Shaw Ave","City":"Fresno","State":"CA","Zip":"93710"},{"Location":"HEALTH COMP","Address":"191 E Barstow Ave","City":"Fresno","State":"CA","Zip":"93710"},{"Location":"HUGO R CORONADO DDS","Address":"6700 N 1st St","City":"Fresno","State":"CA","Zip":"93710"},{"Location":"KITAHARA BUICK GMC","Address":"5515 N Blackstone Ave","City":"Fresno","State":"CA","Zip":"93710"},{"Location":"KUNISAMA","Address":"6825 N Willow Ave 101","City":"Fresno","State":"CA","Zip":"93710"},{"Location":"LINS FUSION","Address":"5155 N Blackstone Ave","City":"Fresno","State":"CA","Zip":"93710"},{"Location":"LITHIA MOTORS INC","Address":"195 E Auto Center Dr","City":"Fresno","State":"CA","Zip":"93710"},{"Location":"MACY'S WEST 365","Address":"655 E Shaw Ave","City":"Fresno","State":"CA","Zip":"93710"},{"Location":"MACY'S WEST 365 BR","Address":"1732 E Shaw Ave","City":"Fresno","State":"CA","Zip":"93710"},{"Location":"MARIE CALLENDER'S","Address":"1781 E Shaw Ave","City":"Fresno","State":"CA","Zip":"93710"},{"Location":"MAUI HAWAIIAN BBQ","Address":"6929 N Willow Ave 101","City":"Fresno","State":"CA","Zip":"93710"},{"Location":"ME-N-EDS PIZZERIA-DIV12","Address":"5776 N 1st St","City":"Fresno","State":"CA","Zip":"93710"},{"Location":"MEN'S WEARHOUSE #2276","Address":"488 E Shaw Ave","City":"Fresno","State":"CA","Zip":"93710"},{"Location":"NO SURRENDER LASER TAG","Address":"5179 N Blackstone Ave","City":"Fresno","State":"CA","Zip":"93710"},{"Location":"ORIENT GOURMET","Address":"6460 N Blackstone Ave 108","City":"Fresno","State":"CA","Zip":"93710"},{"Location":"ORTHO PHYSICAL THERAPY","Address":"6335 N Fresno St 108","City":"Fresno","State":"CA","Zip":"93710"},{"Location":"PACIFIC GAS & ELECTRIC","Address":"1170 E Bullard Ave","City":"Fresno","State":"CA","Zip":"93710"},{"Location":"PEEKABABY","Address":"349 E Shaw Ave 102","City":"Fresno","State":"CA","Zip":"93710"},{"Location":"PLANNED PARENTHOOD MAR MONTE","Address":"6095 N 1st St","City":"Fresno","State":"CA","Zip":"93710"},{"Location":"PLEASANTON FITNESS LLC","Address":"6735 N 1st St","City":"Fresno","State":"CA","Zip":"93710"},{"Location":"POPOLO'S PIZZA","Address":"6775 N Blackstone Ave","City":"Fresno","State":"CA","Zip":"93710"},{"Location":"PREFERRED SLEEP CENTER","Address":"6067 N Fresno St 105","City":"Fresno","State":"CA","Zip":"93710"},{"Location":"RED LOBSTER #0579","Address":"1460 E Shaw Ave","City":"Fresno","State":"CA","Zip":"93710"},{"Location":"RED WAVE INN","Address":"2375 E Shaw Ave","City":"Fresno","State":"CA","Zip":"93710"},{"Location":"RHONDAS FITNESS","Address":"686 E Bullard Ave","City":"Fresno","State":"CA","Zip":"93710"},{"Location":"ROGER DUNN GOLF","Address":"5618 N Blackstone Ave","City":"Fresno","State":"CA","Zip":"93710"},{"Location":"ROUND TABLE-FIRST ST","Address":"5763 N 1st St","City":"Fresno","State":"CA","Zip":"93710"},{"Location":"SAHARA HOOKA LOUNGE","Address":"314 E Bullard Ave","City":"Fresno","State":"CA","Zip":"93710"},{"Location":"SEN-N-SO","Address":"6751 N Blackstone Ave 106","City":"Fresno","State":"CA","Zip":"93710"},{"Location":"SPEEDEE OIL CHANGE","Address":"6504 N Blackstone Ave","City":"Fresno","State":"CA","Zip":"93710"},{"Location":"SUBLIME VAPE","Address":"379 E Shaw Ave","City":"Fresno","State":"CA","Zip":"93710"},{"Location":"SUSHI N POP","Address":"1788 E Barstow Ave","City":"Fresno","State":"CA","Zip":"93710"},{"Location":"SUTTER STREET BAR & GRILL","Address":"324 E Shaw Ave","City":"Fresno","State":"CA","Zip":"93710"},{"Location":"SWIGGS BAR SPORTS","Address":"1440 E Shaw Ave","City":"Fresno","State":"CA","Zip":"93710"},{"Location":"TARGET","Address":"5740 N Blackstone Ave","City":"Fresno","State":"CA","Zip":"93710"},{"Location":"TAURIAN BA%2C LLC #1030","Address":"1737 E Shaw Ave","City":"Fresno","State":"CA","Zip":"93710"},{"Location":"THE CHEESECAKE FACTORY","Address":"639 E Shaw Ave","City":"Fresno","State":"CA","Zip":"93710"},{"Location":"THE CHEESECAKE FACTORY 0105","Address":"630 E Shaw Ave 139","City":"Fresno","State":"CA","Zip":"93710"},{"Location":"THE OLD SPAGHETTI FACTORY","Address":"1610 E Shaw Ave","City":"Fresno","State":"CA","Zip":"93710"},{"Location":"THE OTHER BAR","Address":"6493 N Blackstone Ave","City":"Fresno","State":"CA","Zip":"93710"},{"Location":"THE RAIDERS IMAGE #933","Address":"493 E Shaw Ave","City":"Fresno","State":"CA","Zip":"93710"},{"Location":"TOMO'S","Address":"5730 North First Street Suite 102","City":"Fresno","State":"CA","Zip":"93710"},{"Location":"Tomo'S","Address":"5730 N First Street Ste 102","City":"Fresno","State":"CA","Zip":"93710"},{"Location":"TOMOS","Address":"5730 N 1st St","City":"Fresno","State":"CA","Zip":"93710"},{"Location":"TRIAD INVESTMENT GROUP L","Address":"6650 N Cedar Ave 108","City":"Fresno","State":"CA","Zip":"93710"},{"Location":"UNION BANK 112","Address":"565 E Shaw Ave","City":"Fresno","State":"CA","Zip":"93710"},{"Location":"UNION BANK 836","Address":"6666 N Cedar Ave","City":"Fresno","State":"CA","Zip":"93710"},{"Location":"UNIVERSITY VILLAGE","Address":"1680 E Barstow Ave","City":"Fresno","State":"CA","Zip":"93710"},{"Location":"VALLEY REGION  SLEEP DISORDER","Address":"1177 E Warner Ave","City":"Fresno","State":"CA","Zip":"93710"},{"Location":"WILLOW DENTAL GROUP INC","Address":"6753 N Willow Ave","City":"Fresno","State":"CA","Zip":"93710"},{"Location":"WINGSTOP WRIGHT SWING","Address":"1089 E Shaw Ave 101b","City":"Fresno","State":"CA","Zip":"93710"},{"Location":"YOSEMITE  FALLS CAFE","Address":"5123 N Blackstone Ave","City":"Fresno","State":"CA","Zip":"93710"},{"Location":"YOSHINO","Address":"6226 N Blackstone Ave","City":"Fresno","State":"CA","Zip":"93710"}]