[{"Location":"ADVANCED PHYSICAL THERAP","Address":"6780 N West Ave 103","City":"Fresno","State":"CA","Zip":"93711"},{"Location":"AHART INSURANCE SERVICES","Address":"5060 N Fruit Ave","City":"Fresno","State":"CA","Zip":"93711"},{"Location":"APPLEBEE'S MARTY #2111027","Address":"3604 W Shaw Ave","City":"Fresno","State":"CA","Zip":"93711"},{"Location":"ARAKELIAN ACCOUNTANCY","Address":"7575 N Palm Ave 205","City":"Fresno","State":"CA","Zip":"93711"},{"Location":"ASSOCIATES TAX SERVICE","Address":"2350 W Shaw Ave","City":"Fresno","State":"CA","Zip":"93711"},{"Location":"BANK OF THE WEST","Address":"6873 N West Ave 102","City":"Fresno","State":"CA","Zip":"93711"},{"Location":"BARADA AND PABOOJIAN","Address":"720 W Alluvial Ave","City":"Fresno","State":"CA","Zip":"93711"},{"Location":"BOBBY SALAZARS","Address":"3316 W Shaw Ave 1","City":"Fresno","State":"CA","Zip":"93711"},{"Location":"BURNS AND WILCOX","Address":"7575 N Palm Ave 200","City":"Fresno","State":"CA","Zip":"93711"},{"Location":"CALIFORNIA HEALTH COLLAB","Address":"1680 W Shaw Ave","City":"Fresno","State":"CA","Zip":"93711"},{"Location":"CALIFORNIA WOK","Address":"3331 W Shaw Ave","City":"Fresno","State":"CA","Zip":"93711"},{"Location":"CAPOS BY GIUSEPPE GALOS","Address":"7835 N Palm Ave 106","City":"Fresno","State":"CA","Zip":"93711"},{"Location":"CASA CORONA","Address":"1724 W Bullard Ave","City":"Fresno","State":"CA","Zip":"93711"},{"Location":"CHILI'S #1546","Address":"3585 W Shaw Ave","City":"Fresno","State":"CA","Zip":"93711"},{"Location":"COMMUNITY MEDICAL PROVIDER","Address":"5715 N West Ave 102","City":"Fresno","State":"CA","Zip":"93711"},{"Location":"CROWN CLEANERS","Address":"1731 W Bullard Ave","City":"Fresno","State":"CA","Zip":"93711"},{"Location":"DAILY GRILL","Address":"7855 N Palm Ave","City":"Fresno","State":"CA","Zip":"93711"},{"Location":"DAVI NAILS","Address":"7076 N West Ave","City":"Fresno","State":"CA","Zip":"93711"},{"Location":"DAVITA #3593 PALM BLUFFS","Address":"770 W Pinedale Ave","City":"Fresno","State":"CA","Zip":"93711"},{"Location":"DEDICATED CARE IN HOME","Address":"2499 W Shaw Ave 103","City":"Fresno","State":"CA","Zip":"93711"},{"Location":"DER MANOUEL INSURANCE","Address":"548 W Cromwell Ave","City":"Fresno","State":"CA","Zip":"93711"},{"Location":"DICK'S SPORTING GOODS #622","Address":"3380 W Shaw Ave","City":"Fresno","State":"CA","Zip":"93711"},{"Location":"DITOM MICROWAVE INC","Address":"7592 N Maroa Ave 103","City":"Fresno","State":"CA","Zip":"93711"},{"Location":"DIVA NAILS AND SPA","Address":"1008 W Shaw Ave 106","City":"Fresno","State":"CA","Zip":"93711"},{"Location":"DLL INS AGENCY","Address":"5088 N Fruit Ave 101","City":"Fresno","State":"CA","Zip":"93711"},{"Location":"DOWLING AARON INCOPORATED","Address":"8080 N Palm Ave 3fl","City":"Fresno","State":"CA","Zip":"93711"},{"Location":"E AND S RESIDENTIAL CARE SERVS","Address":"6083 N Marks Ave","City":"Fresno","State":"CA","Zip":"93711"},{"Location":"EDUCATION EMPLOYEES FCU","Address":"2222 W Shaw Ave","City":"Fresno","State":"CA","Zip":"93711"},{"Location":"ELECTRONIC RECYCLERS","Address":"7815 N Palm Ave 140","City":"Fresno","State":"CA","Zip":"93711"},{"Location":"EPN - ERIK TOMAMBO","Address":"2491 W Shaw Ave","City":"Fresno","State":"CA","Zip":"93711"},{"Location":"EUREKA BURGER","Address":"7775 N Palm Ave","City":"Fresno","State":"CA","Zip":"93711"},{"Location":"FARMERS INSURANCE","Address":"7080 N Marks Ave 104","City":"Fresno","State":"CA","Zip":"93711"},{"Location":"FAT BOYS TAQUERIA","Address":"3045 W Bullard Ave","City":"Fresno","State":"CA","Zip":"93711"},{"Location":"FINANCIAL&INVESTMENT SOLUTIONS","Address":"1285 W Shaw Ave 110","City":"Fresno","State":"CA","Zip":"93711"},{"Location":"FIRST TEAM INSURANCE SERVICE","Address":"215 W Fallbrook Ave 103","City":"Fresno","State":"CA","Zip":"93711"},{"Location":"FRESH PACIFIC FRUIT & VEGETABL","Address":"7650 N Palm Ave 103","City":"Fresno","State":"CA","Zip":"93711"},{"Location":"FRESNO ACURA","Address":"7250 N Palm Ave","City":"Fresno","State":"CA","Zip":"93711"},{"Location":"GEORGE BROWN SPORT CLUB PALM","Address":"7825 N Palm","City":"Fresno","State":"CA","Zip":"93711"},{"Location":"HANSEN FARMS","Address":"3585 W Beechwood Ave","City":"Fresno","State":"CA","Zip":"93711"},{"Location":"HARVEST CENTRAL INC","Address":"402 W Bedford Ave 101","City":"Fresno","State":"CA","Zip":"93711"},{"Location":"HIGH SIERRA GRILL HOUSE INC","Address":"2003 W Bullard Ave","City":"Fresno","State":"CA","Zip":"93711"},{"Location":"INNOVATIVE IT INC","Address":"7473 N Ingram Ave 101","City":"Fresno","State":"CA","Zip":"93711"},{"Location":"INTEGRATED PRESCRIPTION","Address":"7815 N Palm Ave 400","City":"Fresno","State":"CA","Zip":"93711"},{"Location":"KEOTHIP THAI","Address":"3757 W Shaw Ave","City":"Fresno","State":"CA","Zip":"93711"},{"Location":"KIM-C1 LLC","Address":"2547 W Shaw Ave 116","City":"Fresno","State":"CA","Zip":"93711"},{"Location":"L R STONE LLC","Address":"3058 W Bullard Ave","City":"Fresno","State":"CA","Zip":"93711"},{"Location":"LOS AMIGOS MEXICAN RESTAURANT","Address":"1752 W Shaw Ave","City":"Fresno","State":"CA","Zip":"93711"},{"Location":"LOWELL D. SMITH ACCT CORP","Address":"2509 W Shaw Ave","City":"Fresno","State":"CA","Zip":"93711"},{"Location":"MADELINE TRAVIS","Address":"2063 W Bullard Ave","City":"Fresno","State":"CA","Zip":"93711"},{"Location":"MARIANS MEXICAN REST","Address":"2767 W Shaw Ave","City":"Fresno","State":"CA","Zip":"93711"},{"Location":"MARISCOS COLIMA","Address":"3692 W Shaw Ave","City":"Fresno","State":"CA","Zip":"93711"},{"Location":"ME-N-EDS PIZZERIA DIV104","Address":"7025 N West Ave","City":"Fresno","State":"CA","Zip":"93711"},{"Location":"ME-N-EDS PIZZERIA-DIV 14","Address":"1731 W Bullard Ave 101","City":"Fresno","State":"CA","Zip":"93711"},{"Location":"MIKAS","Address":"2745 W Shaw Ave 126","City":"Fresno","State":"CA","Zip":"93711"},{"Location":"MIYAKO RESTAURANT","Address":"132 W Nees Ave 108","City":"Fresno","State":"CA","Zip":"93711"},{"Location":"MOTSCHIE LER","Address":"1690 W Shaw Ave 200","City":"Fresno","State":"CA","Zip":"93711"},{"Location":"NORTH POINT SURGERY CENTER","Address":"1332 W Herndon Ave 102","City":"Fresno","State":"CA","Zip":"93711"},{"Location":"OUTBACK STEAKHOUSE #0512","Address":"2765 W Shaw Ave","City":"Fresno","State":"CA","Zip":"93711"},{"Location":"PACIFIC DENTAL #287","Address":"1008 W Shaw Ave 105","City":"Fresno","State":"CA","Zip":"93711"},{"Location":"Palms Restaurant","Address":"7550 N Palm Ave","City":"Fresno","State":"CA","Zip":"93711"},{"Location":"PARDINIS INC","Address":"2257 W Shaw Ave","City":"Fresno","State":"CA","Zip":"93711"},{"Location":"PAVILION PROPERTIES","Address":"5705 N West Ave","City":"Fresno","State":"CA","Zip":"93711"},{"Location":"PEAK BROADCASTING","Address":"1071 W Shaw Ave","City":"Fresno","State":"CA","Zip":"93711"},{"Location":"PEARSON REALTY","Address":"7480 N Palm Ave 101","City":"Fresno","State":"CA","Zip":"93711"},{"Location":"PETES TERIYAKI HOUSE","Address":"2738 W Shaw Ave","City":"Fresno","State":"CA","Zip":"93711"},{"Location":"PRIDE STAFF","Address":"7535 N Palm Ave 101","City":"Fresno","State":"CA","Zip":"93711"},{"Location":"RED ROBIN 437 BROADWAY FAIRE","Address":"3385 W Shaw Ave","City":"Fresno","State":"CA","Zip":"93711"},{"Location":"RJO PRODUCE MARKETING","Address":"1177 W Shaw Ave","City":"Fresno","State":"CA","Zip":"93711"},{"Location":"ROUND TABLE-WEST ST","Address":"5040 N West Ave","City":"Fresno","State":"CA","Zip":"93711"},{"Location":"SAN JOAQUIN COUNTRY CLUB","Address":"3484 W Bluff Ave","City":"Fresno","State":"CA","Zip":"93711"},{"Location":"SCOTTRADE 04Z","Address":"675 W Nees Ave 101a","City":"Fresno","State":"CA","Zip":"93711"},{"Location":"SECURITY FIRST BANK","Address":"663 W Ness Ave","City":"Fresno","State":"CA","Zip":"93711"},{"Location":"SIERRA SPORT AND RACQUET CLUB","Address":"2626 W Alluvial Ave","City":"Fresno","State":"CA","Zip":"93711"},{"Location":"SIGNATURE CLEANERS","Address":"132 W Nees Ave 115","City":"Fresno","State":"CA","Zip":"93711"},{"Location":"SLICKS BAR","Address":"3759 W Shaw Ave 104","City":"Fresno","State":"CA","Zip":"93711"},{"Location":"SOMERFORD PLACE","Address":"6075 N Marks Ave","City":"Fresno","State":"CA","Zip":"93711"},{"Location":"STOUGHTON DAVIDSON ACCTY.CORP","Address":"2520 W Shaw Ln 101","City":"Fresno","State":"CA","Zip":"93711"},{"Location":"SUPPORTIVE SERVICE","Address":"5090 N West Ave","City":"Fresno","State":"CA","Zip":"93711"},{"Location":"SUSHICULTURE","Address":"3187 W Shaw Ave","City":"Fresno","State":"CA","Zip":"93711"},{"Location":"TAKUMI JAPENESE RESTAURANT","Address":"3486 W Shaw Ave","City":"Fresno","State":"CA","Zip":"93711"},{"Location":"TAQUERIA JOHNNY","Address":"7010 N West Ave","City":"Fresno","State":"CA","Zip":"93711"},{"Location":"TEXAS ROADHOUSE #2403","Address":"3190 W Shaw Ave","City":"Fresno","State":"CA","Zip":"93711"},{"Location":"THE TASTING ROOM","Address":"7775 N Palm Ave 105","City":"Fresno","State":"CA","Zip":"93711"},{"Location":"TRI COUNTIES BANK","Address":"7020 N Marks Ave","City":"Fresno","State":"CA","Zip":"93711"},{"Location":"TYLAR PROPERTY MANAGEMENT","Address":"2358 W Shaw Ave 154","City":"Fresno","State":"CA","Zip":"93711"},{"Location":"UCR MEDIA NETWORK","Address":"497 W Bedford Ave 104","City":"Fresno","State":"CA","Zip":"93711"},{"Location":"UFCW LOCAL 8","Address":"3485 W Shaw Ave 101","City":"Fresno","State":"CA","Zip":"93711"},{"Location":"UNION BANK 134","Address":"3015 W Shaw Ave","City":"Fresno","State":"CA","Zip":"93711"},{"Location":"UNION BANK 628","Address":"7075 N Marks Ave","City":"Fresno","State":"CA","Zip":"93711"},{"Location":"USCG RECRUITING OFFICE","Address":"3749 W Shaw Ave","City":"Fresno","State":"CA","Zip":"93711"},{"Location":"VELMAS FASHIONETTE SALON","Address":"1458 W Shaw Ave","City":"Fresno","State":"CA","Zip":"93711"},{"Location":"VINCENT EVERETT CORPORAT","Address":"452 W Bedford Ave 101","City":"Fresno","State":"CA","Zip":"93711"},{"Location":"WAHOO'S FISH TACOS","Address":"7835 N Palm Ave","City":"Fresno","State":"CA","Zip":"93711"},{"Location":"WELLS FARGO HOME LOANS","Address":"8050 N Palm Ave 104","City":"Fresno","State":"CA","Zip":"93711"},{"Location":"WILSON HOMES","Address":"7550 N Palm Ave 102","City":"Fresno","State":"CA","Zip":"93711"},{"Location":"ZENITH INSURANCE COMPANY","Address":"7440 N Palm Ave","City":"Fresno","State":"CA","Zip":"93711"}]