[{"Location":"AERO SPORTS FRESNO","Address":"4155 E Ashlan Ave","City":"Fresno","State":"CA","Zip":"93726"},{"Location":"BK PHARMACY","Address":"3126 E Gettysburg Ave","City":"Fresno","State":"CA","Zip":"93726"},{"Location":"CHUONG LY","Address":"2474 E Gettysburg Ave","City":"Fresno","State":"CA","Zip":"93726"},{"Location":"CLINICA SIERRAVISTA-3727","Address":"3727 N 1st St","City":"Fresno","State":"CA","Zip":"93726"},{"Location":"COMM AMBULATORY INFUSION CTR","Address":"1925 E Dakota Ave 208","City":"Fresno","State":"CA","Zip":"93726"},{"Location":"DESANTIS DENTAL LAB","Address":"4824 N 1st St 103","City":"Fresno","State":"CA","Zip":"93726"},{"Location":"DESTINATION XL 9714","Address":"4935b N Blackstone Ave","City":"Fresno","State":"CA","Zip":"93726"},{"Location":"EL TORO CAFE","Address":"3404 N Cedar Ave","City":"Fresno","State":"CA","Zip":"93726"},{"Location":"ESTABLISHED BARBER SHOP","Address":"4270 N Blackstone Ave 315","City":"Fresno","State":"CA","Zip":"93726"},{"Location":"FITNESS EVOLUTION","Address":"4175 E Ashlan Ave","City":"Fresno","State":"CA","Zip":"93726"},{"Location":"FMAAA","Address":"3837 N Clark St","City":"Fresno","State":"CA","Zip":"93726"},{"Location":"FMC 13590000","Address":"3636 N 1st St 144","City":"Fresno","State":"CA","Zip":"93726"},{"Location":"GRIFFIN ORAL CERAMIC LAB","Address":"4848 N 1st St 105","City":"Fresno","State":"CA","Zip":"93726"},{"Location":"HANEY INVESTIGATIONS","Address":"2312 E Fairmont Ave","City":"Fresno","State":"CA","Zip":"93726"},{"Location":"KIDS DENTAL KARE","Address":"3920 N Cedar Ave","City":"Fresno","State":"CA","Zip":"93726"},{"Location":"KIM JEWLERY","Address":"3267 E Shields Ave","City":"Fresno","State":"CA","Zip":"93726"},{"Location":"KOINONIA INTERNATIONAL","Address":"4587 E Holland Ave","City":"Fresno","State":"CA","Zip":"93726"},{"Location":"LES SCHWAB TIRE CENTER","Address":"3966 N Blackstone Ave","City":"Fresno","State":"CA","Zip":"93726"},{"Location":"MACY'S WEST 359","Address":"4888 N Fresno St","City":"Fresno","State":"CA","Zip":"93726"},{"Location":"MACY'S WEST 359 BR","Address":"4888 N Fresno St","City":"Fresno","State":"CA","Zip":"93726"},{"Location":"ME-N-EDS PIZZERIA-DIV01","Address":"4735 N Blackstone Ave","City":"Fresno","State":"CA","Zip":"93726"},{"Location":"MIDAS AUTO SVC EXPERTS","Address":"3937 N Blackstone Ave","City":"Fresno","State":"CA","Zip":"93726"},{"Location":"NEXT BAR","Address":"4231 E Shields Ave","City":"Fresno","State":"CA","Zip":"93726"},{"Location":"PHYSIOMOTION  PHYSICAL THERAPY","Address":"4080 N Cedar Ave","City":"Fresno","State":"CA","Zip":"93726"},{"Location":"PIZZA HUT- E DAKOTA AVE","Address":"4188 E Dakota Ave","City":"Fresno","State":"CA","Zip":"93726"},{"Location":"PIZZA HUT- N BLACKSTONE","Address":"4260 N Blackstone Ave","City":"Fresno","State":"CA","Zip":"93726"},{"Location":"PROMESA BEHAVIOR HEALTH 1","Address":"3344 E Buckingham Way","City":"Fresno","State":"CA","Zip":"93726"},{"Location":"PROMESA BEHAVIORAL HEALTH","Address":"3306 E Sierra Madre Ave","City":"Fresno","State":"CA","Zip":"93726"},{"Location":"SEARS AUTOMOTIVE","Address":"3636 N Blackstone Ave","City":"Fresno","State":"CA","Zip":"93726"},{"Location":"SIERRA SPORT AND RACKET CLUB","Address":"4774 N Blackstone Ave","City":"Fresno","State":"CA","Zip":"93726"},{"Location":"TARGET","Address":"3173 E Shields Ave","City":"Fresno","State":"CA","Zip":"93726"},{"Location":"THE BAR","Address":"4542 N 1st St B","City":"Fresno","State":"CA","Zip":"93726"},{"Location":"THE BRIG","Address":"4705 N Blackstone Ave","City":"Fresno","State":"CA","Zip":"93726"},{"Location":"VICTORY GRILL","Address":"4010 N Cedar Ave","City":"Fresno","State":"CA","Zip":"93726"},{"Location":"WHITE PINE LUMBER DISTR","Address":"4392 N Blackstone Ave","City":"Fresno","State":"CA","Zip":"93726"},{"Location":"YOSEMITE FALLS CAFE","Address":"4020 N Cedar Ave","City":"Fresno","State":"CA","Zip":"93726"}]