[{"Location":"ALIA CORP","Address":"3798 W Shields Ave","City":"Fresno","State":"CA","Zip":"93722"},{"Location":"BIRDS NEST","Address":"4113 W Swift Ave 102","City":"Fresno","State":"CA","Zip":"93722"},{"Location":"BONBAY LOOK INC","Address":"5362 W Spruce Ave","City":"Fresno","State":"CA","Zip":"93722"},{"Location":"CA REAL ESTATE PROP LLC","Address":"2130 N Marks Ave 209","City":"Fresno","State":"CA","Zip":"93722"},{"Location":"CASEYS BAR & GRILL","Address":"5370 W Spruce Ave","City":"Fresno","State":"CA","Zip":"93722"},{"Location":"CAZADORES BAR AND GRILL","Address":"6737 N Milburn Ave 170","City":"Fresno","State":"CA","Zip":"93722"},{"Location":"CENTRAL DISTRIBUTING","Address":"4250 W Shaw Ave","City":"Fresno","State":"CA","Zip":"93722"},{"Location":"CLINICA SIERRA VISTA","Address":"4739 W Shaw Ave 108","City":"Fresno","State":"CA","Zip":"93722"},{"Location":"DAVITA #11061 FRESNO NORTH","Address":"6655 N Milburn Ave","City":"Fresno","State":"CA","Zip":"93722"},{"Location":"DAVITA #3817 W FRESNO","Address":"4753 W Shaw Ave 101","City":"Fresno","State":"CA","Zip":"93722"},{"Location":"DE ALBA PROCESS SERVICE","Address":"4670 N El Capitan Ave 201d","City":"Fresno","State":"CA","Zip":"93722"},{"Location":"DFS FLOORING INC","Address":"4688 W Jennifer Ave 101","City":"Fresno","State":"CA","Zip":"93722"},{"Location":"DICKEYS BBQ PIT 4","Address":"6611 N Riverside Dr 106","City":"Fresno","State":"CA","Zip":"93722"},{"Location":"DTL PARKING LLC","Address":"4375 N Golden State Blvd","City":"Fresno","State":"CA","Zip":"93722"},{"Location":"EDUCARE SERVICES","Address":"3485 W Ashcroft Ave 101","City":"Fresno","State":"CA","Zip":"93722"},{"Location":"EL BAJIO","Address":"3704 W Shields Ave","City":"Fresno","State":"CA","Zip":"93722"},{"Location":"FIRE SYSTEMS SOLUTIONS","Address":"4277 W Richert Ave 103","City":"Fresno","State":"CA","Zip":"93722"},{"Location":"FIRESTONE #022985","Address":"4330 W Shaw Ave","City":"Fresno","State":"CA","Zip":"93722"},{"Location":"FITNESS 19 FRESNO","Address":"6735 N Milburn Ave 100","City":"Fresno","State":"CA","Zip":"93722"},{"Location":"FITNESS EVOLUTION","Address":"6360 N Figarden Dr","City":"Fresno","State":"CA","Zip":"93722"},{"Location":"FUTURE PROSPECTS","Address":"5125 N Gates Ave 101","City":"Fresno","State":"CA","Zip":"93722"},{"Location":"GB3 WEST","Address":"6873 N Milburn Ave","City":"Fresno","State":"CA","Zip":"93722"},{"Location":"GEORGE DAKOVICH SON INC","Address":"3791 W Ashcroft Ave 102","City":"Fresno","State":"CA","Zip":"93722"},{"Location":"GLORIA MARQUEZ","Address":"4393 N Golden State Blvd","City":"Fresno","State":"CA","Zip":"93722"},{"Location":"LAWSON ROCK AND OIL","Address":"5829 N Golden State Blvd","City":"Fresno","State":"CA","Zip":"93722"},{"Location":"LES SCHWAB TIRE CENTER","Address":"4588 W Shaw Ave","City":"Fresno","State":"CA","Zip":"93722"},{"Location":"LETYS RESTAURANT 3","Address":"2450 N Brawley Ave 104","City":"Fresno","State":"CA","Zip":"93722"},{"Location":"MANE ATTRACTION","Address":"2450 N Brawley Ave 108","City":"Fresno","State":"CA","Zip":"93722"},{"Location":"ME-N-EDS PIZZERIA DIV30","Address":"4177 W Shaw Ave 115","City":"Fresno","State":"CA","Zip":"93722"},{"Location":"ME-N-EDS PIZZERIA DIV37","Address":"5374 W Spruce Ave","City":"Fresno","State":"CA","Zip":"93722"},{"Location":"MILLER MILLER ASSOC","Address":"4625 W Jennifer Ave 116","City":"Fresno","State":"CA","Zip":"93722"},{"Location":"PACIFIC DENTAL #180","Address":"6623 N Riverside Dr 101","City":"Fresno","State":"CA","Zip":"93722"},{"Location":"PACIFIC PAVING CO INC","Address":"3498 W Ashcroft Ave","City":"Fresno","State":"CA","Zip":"93722"},{"Location":"PIZZA HUT- N FIGARDEN DR","Address":"6015 N Figarden Dr","City":"Fresno","State":"CA","Zip":"93722"},{"Location":"POLLSTAR","Address":"4697 W Jacquelyn Ave","City":"Fresno","State":"CA","Zip":"93722"},{"Location":"PRESS BOX SPORTS BAR & GRILL","Address":"6022 N Figarden Dr","City":"Fresno","State":"CA","Zip":"93722"},{"Location":"QUALITY GROUP HOMES INC","Address":"3267 W Rialto Ave","City":"Fresno","State":"CA","Zip":"93722"},{"Location":"REALNET EPN PRIMERICA","Address":"4589 N Marty Ave 105","City":"Fresno","State":"CA","Zip":"93722"},{"Location":"REBOUND PHYSICAL THERAPY","Address":"4770 W Herndon Ave 103","City":"Fresno","State":"CA","Zip":"93722"},{"Location":"RIVERSIDE GOLF COURSE","Address":"7672 N Josephine Ave","City":"Fresno","State":"CA","Zip":"93722"},{"Location":"ROUND TABLE-WEST SHIELDS","Address":"3710 W Shields Ave","City":"Fresno","State":"CA","Zip":"93722"},{"Location":"RP ENTERPRISES","Address":"4593 N Bendel Ave","City":"Fresno","State":"CA","Zip":"93722"},{"Location":"VALLEY UNIQUE ELECTRICS","Address":"5096 N Blythe Ave 100","City":"Fresno","State":"CA","Zip":"93722"},{"Location":"VETERANS OF FOREIGN WARS POST","Address":"3585 N Blythe Ave","City":"Fresno","State":"CA","Zip":"93722"},{"Location":"WEST COAST EXHAUST","Address":"4127 W Shaw Ave","City":"Fresno","State":"CA","Zip":"93722"},{"Location":"YOSEMITE FALLS CAFE","Address":"4248 W Ashlan Ave","City":"Fresno","State":"CA","Zip":"93722"}]