[{"Location":"2XTREME ARENA LLC","Address":"5940 E Shields Ave 104","City":"Fresno","State":"CA","Zip":"93727"},{"Location":"AMERICAN AMBULANCE","Address":"5484 E Perimeter Rd","City":"Fresno","State":"CA","Zip":"93727"},{"Location":"BMY CONSTRUCTION GROUP INC","Address":"5485 E Olive Ave","City":"Fresno","State":"CA","Zip":"93727"},{"Location":"CA ARMENIAN OFFICE","Address":"6720 E Kings Canyon Rd","City":"Fresno","State":"CA","Zip":"93727"},{"Location":"CA HIGHWAY PATROL AIR","Address":"3770 N Pierce Ave","City":"Fresno","State":"CA","Zip":"93727"},{"Location":"CARNICERIA COLIMA INC","Address":"570 S Clovis Ave","City":"Fresno","State":"CA","Zip":"93727"},{"Location":"CENTRAL VALLEY GLASS","Address":"5530 E Lamona Ave 101","City":"Fresno","State":"CA","Zip":"93727"},{"Location":"CITY OF FRESNO","Address":"4995 E Clinton Way","City":"Fresno","State":"CA","Zip":"93727"},{"Location":"CLINICA SIERRA VISTA 2","Address":"1945 N Fine Ave 100","City":"Fresno","State":"CA","Zip":"93727"},{"Location":"COMFORT KEEPERS","Address":"2224 N Fine Ave 101","City":"Fresno","State":"CA","Zip":"93727"},{"Location":"DAVITA #1786 ASH TREE","Address":"2666 N Grove Industrial Dr","City":"Fresno","State":"CA","Zip":"93727"},{"Location":"ENTERPRISE CITY LIGHT","Address":"2370 N Clovis Ave","City":"Fresno","State":"CA","Zip":"93727"},{"Location":"EUPHORIA THERAPY","Address":"4942 E Yale Ave","City":"Fresno","State":"CA","Zip":"93727"},{"Location":"F.A.N.G","Address":"5323 E Mckinley Ave 145","City":"Fresno","State":"CA","Zip":"93727"},{"Location":"FERGUSON #0690","Address":"704 N Laverne Ave","City":"Fresno","State":"CA","Zip":"93727"},{"Location":"FYI PUBLIC SAFETY","Address":"5175 E Clinton Way","City":"Fresno","State":"CA","Zip":"93727"},{"Location":"GB3 SUNNYSIDE","Address":"6149 E Kings Canyon Rd","City":"Fresno","State":"CA","Zip":"93727"},{"Location":"GN2 FITNESS","Address":"2505 N Fowler Ave 102","City":"Fresno","State":"CA","Zip":"93727"},{"Location":"HARRIS CONTRUCTION","Address":"5286 E Home Ave","City":"Fresno","State":"CA","Zip":"93727"},{"Location":"HMS HOST FATGBR3A","Address":"5175 E Clinton Way","City":"Fresno","State":"CA","Zip":"93727"},{"Location":"HMS HOST FATGSD1A","Address":"5175 E Clinton Way","City":"Fresno","State":"CA","Zip":"93727"},{"Location":"HOJOCA","Address":"5540 E Lamona Ave","City":"Fresno","State":"CA","Zip":"93727"},{"Location":"HOLIDAY INN FRESNO (0043213)","Address":"5090 E Clinton Way","City":"Fresno","State":"CA","Zip":"93727"},{"Location":"INNOVATIVE INDUSTRIAL CO","Address":"3849 N Fine Ave 101","City":"Fresno","State":"CA","Zip":"93727"},{"Location":"JOHANSON TRANSPORTATION SERVIC","Address":"5583 E Olive Ave","City":"Fresno","State":"CA","Zip":"93727"},{"Location":"JOHNNY","Address":"5993 E Belmont Ave","City":"Fresno","State":"CA","Zip":"93727"},{"Location":"KMPH","Address":"5111 E Mckinley Ave","City":"Fresno","State":"CA","Zip":"93727"},{"Location":"KSEE TV","Address":"5035 E Mckinley Ave","City":"Fresno","State":"CA","Zip":"93727"},{"Location":"LANCERS BAR","Address":"5627 E Kings Canyon Rd 108","City":"Fresno","State":"CA","Zip":"93727"},{"Location":"LES SCHWAB TIRE CENTER","Address":"5740 E Kings Canyon Rd","City":"Fresno","State":"CA","Zip":"93727"},{"Location":"ME-N-EDS PIZZERIA- DIV03","Address":"5630 E Kings Canyon Rd","City":"Fresno","State":"CA","Zip":"93727"},{"Location":"MOOMJIAN PAYROLL & BOOKKEEPING","Address":"4949 E Mckinley Ave B","City":"Fresno","State":"CA","Zip":"93727"},{"Location":"MOUNTAIN MIKES PIZZA","Address":"5150 E Kings Canyon Rd 107","City":"Fresno","State":"CA","Zip":"93727"},{"Location":"NAPA AUTO PARTS","Address":"5675 E Clinton Ave","City":"Fresno","State":"CA","Zip":"93727"},{"Location":"O'SULLIVANS SUNNYSIDE LOUNGE","Address":"5689 E Kings Canyon Rd 101","City":"Fresno","State":"CA","Zip":"93727"},{"Location":"OCAMPO'S MEXICAN RESTAURANT","Address":"5211 E Kings Canyon Rd","City":"Fresno","State":"CA","Zip":"93727"},{"Location":"PAUL KATCHADORIAN","Address":"4975 E Dakota Ave","City":"Fresno","State":"CA","Zip":"93727"},{"Location":"PETER ORMOND DBA SUNNYSI","Address":"5541 E Tulare Ave 19","City":"Fresno","State":"CA","Zip":"93727"},{"Location":"PICCADILLY INN - AIRPORT","Address":"5115 E Mckinley Ave","City":"Fresno","State":"CA","Zip":"93727"},{"Location":"PIZZA HUT- S CLOVIS AVE","Address":"660 S Clovis Ave","City":"Fresno","State":"CA","Zip":"93727"},{"Location":"PLANET FITNESS FRESNO","Address":"4938 E Kings Canyon Rd","City":"Fresno","State":"CA","Zip":"93727"},{"Location":"QUALITY GROUP HOME","Address":"4928 E Clinton Way 108","City":"Fresno","State":"CA","Zip":"93727"},{"Location":"S AND NF DENTAL CARE","Address":"4811 E Olive Ave","City":"Fresno","State":"CA","Zip":"93727"},{"Location":"SAN JOAQUIN AUTO CARE","Address":"5497 E Olive Ave","City":"Fresno","State":"CA","Zip":"93727"},{"Location":"SAN JOAQUIN CONCENTRATES","Address":"5631 E Olive Ave","City":"Fresno","State":"CA","Zip":"93727"},{"Location":"SAN JOAQUIN PEST CONTROL","Address":"2343 N Larkin Ave","City":"Fresno","State":"CA","Zip":"93727"},{"Location":"SKY WEST AIRLINES","Address":"5175 E Clinton Way","City":"Fresno","State":"CA","Zip":"93727"},{"Location":"SUNNY SIDE DINER","Address":"5235 E Kings Canyon Rd 105","City":"Fresno","State":"CA","Zip":"93727"},{"Location":"SUNNYSIDE COUNTRY CLUB","Address":"5704 E Butler Ave","City":"Fresno","State":"CA","Zip":"93727"},{"Location":"SUNNYSIDE DELI","Address":"5691 E Kings Canyon Rd","City":"Fresno","State":"CA","Zip":"93727"},{"Location":"SUNNYSIDE HEALTH & TENNIS","Address":"5707 E Balch Ave","City":"Fresno","State":"CA","Zip":"93727"},{"Location":"SUNNYSIDE MOBILE ESTATES","Address":"5541 E Tulare%2C Unitoffice","City":"Fresno","State":"CA","Zip":"93727"},{"Location":"THE VAULT","Address":"5499 E Hedges Ave","City":"Fresno","State":"CA","Zip":"93727"},{"Location":"THOMAS LIEDER","Address":"4960 E Yale Ave","City":"Fresno","State":"CA","Zip":"93727"},{"Location":"TRAIL GEAR INC","Address":"5334 E Pine Ave","City":"Fresno","State":"CA","Zip":"93727"},{"Location":"TRIMAGNETICS","Address":"5529 E Lamona Ave","City":"Fresno","State":"CA","Zip":"93727"},{"Location":"TS69282020000000XXAOXXFATXTVXX","Address":"5175 E Clinton Way","City":"Fresno","State":"CA","Zip":"93727"},{"Location":"TSA FAT","Address":"5175 E Clinton Way","City":"Fresno","State":"CA","Zip":"93727"},{"Location":"UNION BANK 890","Address":"5669 E Kings Canyon Rd","City":"Fresno","State":"CA","Zip":"93727"},{"Location":"VALLARTO SUPERMARKETS #10","Address":"4831 E Butler Ave","City":"Fresno","State":"CA","Zip":"93727"},{"Location":"VALLEY GLASS CO","Address":"4909 E Dakota Ave","City":"Fresno","State":"CA","Zip":"93727"},{"Location":"VALLEY HEALTH CARE CENTER","Address":"4840 E Tulare Ave","City":"Fresno","State":"CA","Zip":"93727"}]