[{"Location":"AMERICAN AMBULANCE","Address":"7285 W Shields Ave","City":"Fresno","State":"CA","Zip":"93723"},{"Location":"DANTE CLUB","Address":"6176 N Grantland Ave","City":"Fresno","State":"CA","Zip":"93723"},{"Location":"LONGHORN SALOON LLC","Address":"6943 W Shields Ave","City":"Fresno","State":"CA","Zip":"93723"},{"Location":"MILLA VINEYARDS","Address":"7465 W Mckinley Ave","City":"Fresno","State":"CA","Zip":"93723"},{"Location":"MORAVIA WINES","Address":"3620 N Bishop Ave","City":"Fresno","State":"CA","Zip":"93723"},{"Location":"AMERICAN AMBULANCE","Address":"7285 W Shields Ave","City":"Fresno","State":"CA","Zip":"93723"},{"Location":"DANTE CLUB","Address":"6176 N Grantland Ave","City":"Fresno","State":"CA","Zip":"93723"},{"Location":"LONGHORN SALOON LLC","Address":"6943 W Shields Ave","City":"Fresno","State":"CA","Zip":"93723"},{"Location":"MILLA VINEYARDS","Address":"7465 W Mckinley Ave","City":"Fresno","State":"CA","Zip":"93723"},{"Location":"MORAVIA WINES","Address":"3620 N Bishop Ave","City":"Fresno","State":"CA","Zip":"93723"}]