[{"Location":"609 BARBERSHOP","Address":"609 E Olive Ave B","City":"Fresno","State":"CA","Zip":"93728"},{"Location":"AL CAFE","Address":"1823 W Olive Ave","City":"Fresno","State":"CA","Zip":"93728"},{"Location":"AUDIES OLYMPIC","Address":"1426 N Van Ness Ave","City":"Fresno","State":"CA","Zip":"93728"},{"Location":"B AND B SECURITY","Address":"1531 N Wishon Ave","City":"Fresno","State":"CA","Zip":"93728"},{"Location":"BOBBY SALAZARS TAQUERIA","Address":"725 E Olive Ave","City":"Fresno","State":"CA","Zip":"93728"},{"Location":"CALIFORNIA HIGHWAY PATROL","Address":"1382 W Olive Ave","City":"Fresno","State":"CA","Zip":"93728"},{"Location":"COVENANT BARBERSHOP","Address":"1461 N Van Ness Ave","City":"Fresno","State":"CA","Zip":"93728"},{"Location":"DENTAFORM CORP.","Address":"1515 E Olive Ave","City":"Fresno","State":"CA","Zip":"93728"},{"Location":"LAUGHING BUDDHA BAR & GRILL","Address":"737 E Olive Ave","City":"Fresno","State":"CA","Zip":"93728"},{"Location":"LORENA RESTAURANT","Address":"435 W Belmont Ave","City":"Fresno","State":"CA","Zip":"93728"},{"Location":"ME-N-EDS PIZZERIA-DIV 13","Address":"1247 N Wishon Ave","City":"Fresno","State":"CA","Zip":"93728"},{"Location":"MILLION ELEPHANT","Address":"1153 N Fulton St","City":"Fresno","State":"CA","Zip":"93728"},{"Location":"MISTER SUSHI","Address":"724 E Olive Ave","City":"Fresno","State":"CA","Zip":"93728"},{"Location":"RJ AUTO BODY & PAINT","Address":"1410 W Belmont Ave","City":"Fresno","State":"CA","Zip":"93728"},{"Location":"SEQUOIA BREWING CO LLC","Address":"777 E Olive Ave","City":"Fresno","State":"CA","Zip":"93728"},{"Location":"SPIRIT OF WOMEN","Address":"327 W Belmont Ave","City":"Fresno","State":"CA","Zip":"93728"},{"Location":"SPOKEASY PUBLIC HOUSE","Address":"1472 N Van Ness Ave","City":"Fresno","State":"CA","Zip":"93728"},{"Location":"TONY'S TAILORING","Address":"449 W Mckinley Ave","City":"Fresno","State":"CA","Zip":"93728"},{"Location":"TOWER SPORTS CLUB","Address":"1294 N Wishon Ave","City":"Fresno","State":"CA","Zip":"93728"},{"Location":"WEST SIDE AUTO DISMANTLE","Address":"2641 W Belmont Ave","City":"Fresno","State":"CA","Zip":"93728"}]