[{"Location":"A AND A CRANE","Address":"4013 S Orange Ave","City":"Fresno","State":"CA","Zip":"93725"},{"Location":"ALLIED ELECTRIC","Address":"2635 S Sierra Vista Ave","City":"Fresno","State":"CA","Zip":"93725"},{"Location":"ALLYN GOODALL TRUCKING","Address":"4891 E Annadale Ave","City":"Fresno","State":"CA","Zip":"93725"},{"Location":"ANHEUSER-BUSCH WHLSLR #60426","Address":"2363 S Cedar Ave","City":"Fresno","State":"CA","Zip":"93725"},{"Location":"BILL NELSON GENERAL","Address":"2741 E Malaga Ave","City":"Fresno","State":"CA","Zip":"93725"},{"Location":"D&H DISTRIBUTING","Address":"3701 S Minnewawa Ave","City":"Fresno","State":"CA","Zip":"93725"},{"Location":"FIZZO LEAN ENT","Address":"3767 S Golden State Blvd","City":"Fresno","State":"CA","Zip":"93725"},{"Location":"FRESNO EQUIPMENT COMPANY","Address":"4288 S Bagley Ave","City":"Fresno","State":"CA","Zip":"93725"},{"Location":"FRESNO TRUCK CENTER","Address":"2727 E Central Ave","City":"Fresno","State":"CA","Zip":"93725"},{"Location":"GOLDDIGGERS","Address":"3507 S Golden State Blvd","City":"Fresno","State":"CA","Zip":"93725"},{"Location":"IBS SUPPLIES","Address":"6385 E North Ave","City":"Fresno","State":"CA","Zip":"93725"},{"Location":"KUCKENBECKER TRACTOR","Address":"3040 S Parkway Dr","City":"Fresno","State":"CA","Zip":"93725"},{"Location":"LKQ","Address":"4646 S Chestnut Ave","City":"Fresno","State":"CA","Zip":"93725"},{"Location":"MANNING GARDENS NURSING& REHAB","Address":"2113 E Manning Ave","City":"Fresno","State":"CA","Zip":"93725"},{"Location":"METRO AUTO PARTS","Address":"3119 S Willow Ave","City":"Fresno","State":"CA","Zip":"93725"},{"Location":"PACIFIC GAS AND ELECTRIC","Address":"2151 S Orange Ave","City":"Fresno","State":"CA","Zip":"93725"},{"Location":"PACIFIC GAS AND ELECTRIC CO","Address":"2221 S Orange Ave","City":"Fresno","State":"CA","Zip":"93725"},{"Location":"PACKEGING MACHINERY SERVICES","Address":"4217 E Jefferson Ave","City":"Fresno","State":"CA","Zip":"93725"},{"Location":"PENNY-NEWMAN GRAIN COMPANY","Address":"2691 S Cedar Ave","City":"Fresno","State":"CA","Zip":"93725"},{"Location":"PENNYNEWMAN GRAIN COMPANY TWO","Address":"2691 S Cedar Ave","City":"Fresno","State":"CA","Zip":"93725"},{"Location":"PG&E MOBI COMMAND B26035","Address":"2161 S Orange Ave","City":"Fresno","State":"CA","Zip":"93725"},{"Location":"PRI VALLEY MEDICAL SOLUT","Address":"3187 E Commerce Ave","City":"Fresno","State":"CA","Zip":"93725"},{"Location":"SAINT ANTHONYS CHURCH","Address":"2494 S Chestnut Ave","City":"Fresno","State":"CA","Zip":"93725"},{"Location":"SCV FREIGHT","Address":"3630 W Wawona Ave 103","City":"Fresno","State":"CA","Zip":"93725"},{"Location":"SEED SERVICES","Address":"2850 S Golden State Blvd","City":"Fresno","State":"CA","Zip":"93725"},{"Location":"SLEEP TRAIN","Address":"3134 S East Ave 102","City":"Fresno","State":"CA","Zip":"93725"},{"Location":"SUNNY SIDE CONVALESCENT HOSPIT","Address":"2939 S Peach Ave","City":"Fresno","State":"CA","Zip":"93725"},{"Location":"TACOS JALICIENSE","Address":"3115 E Central Ave","City":"Fresno","State":"CA","Zip":"93725"},{"Location":"TRU TRAILERS INC","Address":"4444 E Lincoln Ave","City":"Fresno","State":"CA","Zip":"93725"},{"Location":"UNITED STATES COLD STORAGE","Address":"2525 E North Ave","City":"Fresno","State":"CA","Zip":"93725"},{"Location":"VALLEY EXPRESS","Address":"3630 E Wawona Ave 105","City":"Fresno","State":"CA","Zip":"93725"},{"Location":"VALLEY WIDE BEVERAGE","Address":"4010 E Hardy Ave","City":"Fresno","State":"CA","Zip":"93725"}]