[{"Location":"GREYHOUND LINES INC","Address":"1033 H Street","City":"Frensno","State":"CA","Zip":"93721"},{"Location":"ALADDIN BB DEPT 925","Address":"1342 Van Ness Ave","City":"Fresno","State":"CA","Zip":"93721"},{"Location":"ALL PRO BAIL BOND","Address":"2117 Merced St","City":"Fresno","State":"CA","Zip":"93721"},{"Location":"AMERICAN AMBULANCE","Address":"2911 E Tulace","City":"Fresno","State":"CA","Zip":"93721"},{"Location":"AMERICAN AMBULANCE","Address":"3033 Tulare St","City":"Fresno","State":"CA","Zip":"93721"},{"Location":"AMERICAN AMBULANCE","Address":"3040 Tulare St","City":"Fresno","State":"CA","Zip":"93721"},{"Location":"CLINICA SIERRAVISTA-2505","Address":"2505 E Divisadero St","City":"Fresno","State":"CA","Zip":"93721"},{"Location":"CLUB BRAZIL","Address":"968 Broadway St","City":"Fresno","State":"CA","Zip":"93721"},{"Location":"CLUB ONE CASINO%2C INC.","Address":"1033 Van Ness Ave 0","City":"Fresno","State":"CA","Zip":"93721"},{"Location":"COMMUNITY MEDICAL CENTER","Address":"1140 T St","City":"Fresno","State":"CA","Zip":"93721"},{"Location":"COMMUNITY REGIONAL MEDICAL","Address":"2823 Fresno St","City":"Fresno","State":"CA","Zip":"93721"},{"Location":"DONOVAN KATHERINE E ATTORNEY","Address":"907 Santa Fe Ave 102","City":"Fresno","State":"CA","Zip":"93721"},{"Location":"DOUBLETREE BY HILTON","Address":"2233 Ventura St","City":"Fresno","State":"CA","Zip":"93721"},{"Location":"DOWNTOWN CLUB","Address":"2120 Kern St","City":"Fresno","State":"CA","Zip":"93721"},{"Location":"EL MUIR HOUSE%2FMOTEL","Address":"2339 S G St","City":"Fresno","State":"CA","Zip":"93721"},{"Location":"EL TORITO #098","Address":"2840 Tulare St","City":"Fresno","State":"CA","Zip":"93721"},{"Location":"FRESNO  CO SHERIFFS DEPT","Address":"2200 Fresno St","City":"Fresno","State":"CA","Zip":"93721"},{"Location":"FRESNO CO MAN DETENTION FACILI","Address":"1225 M St","City":"Fresno","State":"CA","Zip":"93721"},{"Location":"FRESNO CTY OFFICE OF EMERGENCY","Address":"1221 Fulton Mall","City":"Fresno","State":"CA","Zip":"93721"},{"Location":"FRESNO DEPUTY SHERIFF ASSOCIAT","Address":"1360 Van Ness Ave","City":"Fresno","State":"CA","Zip":"93721"},{"Location":"FRESNO POLICE DEPT","Address":"2323 Mariposa St","City":"Fresno","State":"CA","Zip":"93721"},{"Location":"FRESNO POLICE OFFICERS ASSOC","Address":"2326 Fresno St","City":"Fresno","State":"CA","Zip":"93721"},{"Location":"FRESNO SHOE REPAIR 1","Address":"2323 Kern St","City":"Fresno","State":"CA","Zip":"93721"},{"Location":"GRANITE CENTRAL AND REMO","Address":"523 P St","City":"Fresno","State":"CA","Zip":"93721"},{"Location":"HERNANDEZ AUTO CENTER","Address":"615 Fulton St","City":"Fresno","State":"CA","Zip":"93721"},{"Location":"HOLIDAY INN FRESNO DOWNT","Address":"1055 Van Ness Ave","City":"Fresno","State":"CA","Zip":"93721"},{"Location":"HOME LAND SECURITY","Address":"2500 Tulare St 3220","City":"Fresno","State":"CA","Zip":"93721"},{"Location":"J AND E RESTURANT SUPPLY INC","Address":"224 Van Ness Ave","City":"Fresno","State":"CA","Zip":"93721"},{"Location":"KOCKYS BAR AND GRILL","Address":"1231 Van Ness Ave","City":"Fresno","State":"CA","Zip":"93721"},{"Location":"LA TORTA RESTAURANT","Address":"2405 Capitol St 106","City":"Fresno","State":"CA","Zip":"93721"},{"Location":"MABLES KITCHEN","Address":"2134 Kern St","City":"Fresno","State":"CA","Zip":"93721"},{"Location":"MARDEROSIAN LAW FIRM","Address":"1260 Fulton Mall","City":"Fresno","State":"CA","Zip":"93721"},{"Location":"OFFICE BAY","Address":"1713 Tulare St 112","City":"Fresno","State":"CA","Zip":"93721"},{"Location":"OFFICE BAY 2","Address":"1027 Fulton Mall","City":"Fresno","State":"CA","Zip":"93721"},{"Location":"PEREZ WILLIAMS AND MEDINA","Address":"1432 E Divisadero St","City":"Fresno","State":"CA","Zip":"93721"},{"Location":"RAISIN ADMINISTRATIVE CMTE","Address":"2445 Capitol St 200","City":"Fresno","State":"CA","Zip":"93721"},{"Location":"SCHARTON URBAN DEVELOPME","Address":"1243 Fulton Mall","City":"Fresno","State":"CA","Zip":"93721"},{"Location":"SCREENERS CITY CYCLES","Address":"2273 S G St","City":"Fresno","State":"CA","Zip":"93721"},{"Location":"SENATOR DIANNE FEINSTEN","Address":"2500 Tulare St 4290","City":"Fresno","State":"CA","Zip":"93721"},{"Location":"SHEPHERD'S INN","Address":"935 Santa Fe Ave","City":"Fresno","State":"CA","Zip":"93721"},{"Location":"STATE JEWELRY AND LOAN COMPANY","Address":"1249 Van Ness Ave","City":"Fresno","State":"CA","Zip":"93721"},{"Location":"STEVE RODRIGUEZ","Address":"1920 Ventura St","City":"Fresno","State":"CA","Zip":"93721"},{"Location":"T.W. PATTERSON INVESTORS","Address":"2014 Tulare St 608","City":"Fresno","State":"CA","Zip":"93721"},{"Location":"TAKE 3 BURGERS","Address":"1230 Fulton Mall","City":"Fresno","State":"CA","Zip":"93721"},{"Location":"UNCLE TOM'S CABIN","Address":"3055 Tulare St","City":"Fresno","State":"CA","Zip":"93721"},{"Location":"UNIVERSITY INFUSION CENTER","Address":"2625 E Divisadero St","City":"Fresno","State":"CA","Zip":"93721"},{"Location":"US MARSHAL SERVICES","Address":"2500 Tulare St 3501","City":"Fresno","State":"CA","Zip":"93721"},{"Location":"US SENATOR BOXER","Address":"2500 Turner Street 5290","City":"Fresno","State":"CA","Zip":"93721"},{"Location":"YARRA KHARAZI AND ASSOCIATES","Address":"2000 Fresno St 300","City":"Fresno","State":"CA","Zip":"93721"}]