[{"Location":"A G WATHEN","Address":"575 E Locust Ave 201","City":"Fresno","State":"CA","Zip":"93720"},{"Location":"ADVANCED MEDICAL IMAGING HURND","Address":"1867 E Fir Ave 102","City":"Fresno","State":"CA","Zip":"93720"},{"Location":"AMERICAN AMBULANCE","Address":"723 E Locust Ave","City":"Fresno","State":"CA","Zip":"93720"},{"Location":"AMERICAN AMBULANCE","Address":"2555 E Perrin Ave 102","City":"Fresno","State":"CA","Zip":"93720"},{"Location":"ANTONIO'S MEXICAN RESTAURANT","Address":"7959 N Blackstone Ave","City":"Fresno","State":"CA","Zip":"93720"},{"Location":"APPLEBEE'S CEDAR #2111026","Address":"7007 N Cedar Ave","City":"Fresno","State":"CA","Zip":"93720"},{"Location":"APPLEBEE'S FRIANT #2111023","Address":"8430 N Friant Rd","City":"Fresno","State":"CA","Zip":"93720"},{"Location":"AXA ADVISORS","Address":"265 E River Park Cir 420a","City":"Fresno","State":"CA","Zip":"93720"},{"Location":"BAKER FARMING","Address":"8211 N Fresno St","City":"Fresno","State":"CA","Zip":"93720"},{"Location":"BK PHARMACY","Address":"540 E Herndon Ave 101","City":"Fresno","State":"CA","Zip":"93720"},{"Location":"BOBBY SALAZARS MEXICAN RESTAUR","Address":"1129 E Champlain Dr","City":"Fresno","State":"CA","Zip":"93720"},{"Location":"BRECKENRIDGE INSURANCE","Address":"7086 N Maple Ave 104","City":"Fresno","State":"CA","Zip":"93720"},{"Location":"BULL O BULL","Address":"7753 N 1st St","City":"Fresno","State":"CA","Zip":"93720"},{"Location":"CALIFORNIA CANCER CENTER","Address":"7257 N Fresno St","City":"Fresno","State":"CA","Zip":"93720"},{"Location":"CALIFORNIA IMAGING INSTITUTE","Address":"1867 E Fir Ave","City":"Fresno","State":"CA","Zip":"93720"},{"Location":"CASA CORONA","Address":"7044 N Cedar Ave","City":"Fresno","State":"CA","Zip":"93720"},{"Location":"CCARE","Address":"1791 E Fir Ave","City":"Fresno","State":"CA","Zip":"93720"},{"Location":"CENTER FOR CORRECTIVE SURGERY","Address":"7055 N Fresno St 202","City":"Fresno","State":"CA","Zip":"93720"},{"Location":"CENTRAL CALIFORNIA PIZZA INC","Address":"1055 E Herndon Ave 101","City":"Fresno","State":"CA","Zip":"93720"},{"Location":"CH ROBINSON WORLDWIDE INC","Address":"205 E River Park Cir 490","City":"Fresno","State":"CA","Zip":"93720"},{"Location":"CHEVY'S 2104","Address":"7634 N Blackstone Ave","City":"Fresno","State":"CA","Zip":"93720"},{"Location":"CHILI'S #0304","Address":"7010 N Fresno St","City":"Fresno","State":"CA","Zip":"93720"},{"Location":"COMMERCIAL WEST ASSOCIATES","Address":"5 E River Park Pl W 110","City":"Fresno","State":"CA","Zip":"93720"},{"Location":"CONCENTRA 531","Address":"7265 N 1st St 105","City":"Fresno","State":"CA","Zip":"93720"},{"Location":"CROWELL WEEDON","Address":"7110 N Fresno St 450","City":"Fresno","State":"CA","Zip":"93720"},{"Location":"CROWN CLEANERS 2","Address":"8086 N Cedar Ave","City":"Fresno","State":"CA","Zip":"93720"},{"Location":"CRUMPS","Address":"7416 N Fresno St","City":"Fresno","State":"CA","Zip":"93720"},{"Location":"CRYSTAL TREE APARTMENT","Address":"1150 E Herndon Ave","City":"Fresno","State":"CA","Zip":"93720"},{"Location":"DAI BAI DANG RESTAURANT","Address":"7736 N Blackstone Ave","City":"Fresno","State":"CA","Zip":"93720"},{"Location":"DAVITA #2400 FRESNO AT HOME","Address":"568 E Herndon Ave","City":"Fresno","State":"CA","Zip":"93720"},{"Location":"DAVITA #5354 FRESNO","Address":"560 E Herndon Ave 101","City":"Fresno","State":"CA","Zip":"93720"},{"Location":"DESTINATION MATERNITY #1198","Address":"40 E Via Del Oro","City":"Fresno","State":"CA","Zip":"93720"},{"Location":"DEWAYNE ZINKIN","Address":"5 E River Park Pl W 203","City":"Fresno","State":"CA","Zip":"93720"},{"Location":"DLR INSURANCE SOLUTIONS","Address":"7110 N Fresno St 430","City":"Fresno","State":"CA","Zip":"93720"},{"Location":"DR. MARK LOWE","Address":"7055 N Fresno St 203","City":"Fresno","State":"CA","Zip":"93720"},{"Location":"ELEPHANT BAR FRESNO","Address":"7965 N Blackstone Ave","City":"Fresno","State":"CA","Zip":"93720"},{"Location":"FAMOUS DAVE BBQ FRESNO #3105","Address":"7603 N Blackstone Ave","City":"Fresno","State":"CA","Zip":"93720"},{"Location":"FORWARD ADVANTAGE INC","Address":"7255 N 1st St 106","City":"Fresno","State":"CA","Zip":"93720"},{"Location":"FRANCE HOGUE FAMILY LLC","Address":"8951 N Cedar Ave","City":"Fresno","State":"CA","Zip":"93720"},{"Location":"FRESNO SPINE AND SPORT","Address":"7413 N Cedar Ave 101","City":"Fresno","State":"CA","Zip":"93720"},{"Location":"FRESNO VASCULAR ACCESS CENTER","Address":"568 E Herndon Ave 103","City":"Fresno","State":"CA","Zip":"93720"},{"Location":"GEORGE BROWN FITNESS","Address":"1570 E Nees Ave","City":"Fresno","State":"CA","Zip":"93720"},{"Location":"HAWAIIAN BBQ","Address":"7723 N Blackstone Ave","City":"Fresno","State":"CA","Zip":"93720"},{"Location":"HCK HERMOSA CALI KITCHEN 1","Address":"1144 E Champlain Dr 108","City":"Fresno","State":"CA","Zip":"93720"},{"Location":"HEMATOLOGY-ONCOLOGY MEDICAL","Address":"7130 N Millbrook Ave 100","City":"Fresno","State":"CA","Zip":"93720"},{"Location":"HOLIDAY INN EXPRESS","Address":"7115 N Howard St","City":"Fresno","State":"CA","Zip":"93720"},{"Location":"HOOTERS FRESNO","Address":"7735 N Blackstone Ave 115","City":"Fresno","State":"CA","Zip":"93720"},{"Location":"JACK'S CAR WASH","Address":"8995 N Cedar Ave","City":"Fresno","State":"CA","Zip":"93720"},{"Location":"JOHN LEE DDS","Address":"7501 N Fresno St 101","City":"Fresno","State":"CA","Zip":"93720"},{"Location":"JOHN'S INCREDIBLE PIZZA","Address":"7095 N Cedar Ave","City":"Fresno","State":"CA","Zip":"93720"},{"Location":"JOWLIS FILIPINO CUISINE","Address":"7058 N Cedar Ave","City":"Fresno","State":"CA","Zip":"93720"},{"Location":"KIM H. TRAN DDS%2C INC","Address":"7475 N 1st St 103","City":"Fresno","State":"CA","Zip":"93720"},{"Location":"KINGS VIEW","Address":"7170 N Financial Dr 110","City":"Fresno","State":"CA","Zip":"93720"},{"Location":"KOHL'S #724","Address":"175 E Alluvial Ave","City":"Fresno","State":"CA","Zip":"93720"},{"Location":"KWOK INC","Address":"540 E Herndon Ave","City":"Fresno","State":"CA","Zip":"93720"},{"Location":"LA BOXING 5","Address":"1504 E Champlain Dr 101","City":"Fresno","State":"CA","Zip":"93720"},{"Location":"LOGAN'S ROADHOUSE","Address":"7507 N Blackstone Ave","City":"Fresno","State":"CA","Zip":"93720"},{"Location":"MACARONI GRILL #1161","Address":"7650 N Blackstone Ave","City":"Fresno","State":"CA","Zip":"93720"},{"Location":"MACY'S WEST 369 BR","Address":"7890 N Blackstone Ave","City":"Fresno","State":"CA","Zip":"93720"},{"Location":"MCCORMICK BARSTOW LLP","Address":"7647 N Fresno St","City":"Fresno","State":"CA","Zip":"93720"},{"Location":"ME-N-EDS PIZZERIA DIV78","Address":"8043 N Cedar Ave","City":"Fresno","State":"CA","Zip":"93720"},{"Location":"ME-N-EDS PIZZERIA- DIV118","Address":"175 E Via Del Parque","City":"Fresno","State":"CA","Zip":"93720"},{"Location":"ME-N-EDS PIZZERIA-DIVI31","Address":"7080 N Cedar Ave","City":"Fresno","State":"CA","Zip":"93720"},{"Location":"MORSE  YARDUMIAN AND WIT","Address":"265 E River Park Cir 110","City":"Fresno","State":"CA","Zip":"93720"},{"Location":"MOUNTAIN MIKE PIZZA","Address":"8965 N Cedar Ave","City":"Fresno","State":"CA","Zip":"93720"},{"Location":"NORDSTROM RACK","Address":"7883 N Blackstone Ave","City":"Fresno","State":"CA","Zip":"93720"},{"Location":"OZZYS","Address":"1552 E Champlain Dr 101","City":"Fresno","State":"CA","Zip":"93720"},{"Location":"PACIFIC DENTAL #409","Address":"1193 E Champlain Dr","City":"Fresno","State":"CA","Zip":"93720"},{"Location":"PAPIS MEX GRILL","Address":"1568 E Champlain Dr 105","City":"Fresno","State":"CA","Zip":"93720"},{"Location":"PHYSICIAN NETWORK ADVANTAGE","Address":"7259 N 1st St 101","City":"Fresno","State":"CA","Zip":"93720"},{"Location":"PHYSICIANNETWORKADVANTAGE 105","Address":"7275 N 1st St 105","City":"Fresno","State":"CA","Zip":"93720"},{"Location":"PHYSICIANNETWORKADVANTAGE HQ2","Address":"7215 N 1st St 105","City":"Fresno","State":"CA","Zip":"93720"},{"Location":"PIZZA FACTORY","Address":"7775 N 1st St","City":"Fresno","State":"CA","Zip":"93720"},{"Location":"POLESTAR GENERAL","Address":"265 E River Park Cir 440","City":"Fresno","State":"CA","Zip":"93720"},{"Location":"RANCHEROS MEX REST","Address":"9525 N Sommerville Dr","City":"Fresno","State":"CA","Zip":"93720"},{"Location":"RED ROBIN #249","Address":"7675 N Blackstone Ave","City":"Fresno","State":"CA","Zip":"93720"},{"Location":"RIVERPARK GOLF CENTER","Address":"41445 Avenue 9","City":"Fresno","State":"CA","Zip":"93720"},{"Location":"ROBERT ESTRADA INS SVCS","Address":"265 E River Park Cir 420","City":"Fresno","State":"CA","Zip":"93720"},{"Location":"ROGERS JEWELRY","Address":"7685 N Blackstone Ave","City":"Fresno","State":"CA","Zip":"93720"},{"Location":"SALS MEXICAN RESTAURANT","Address":"7476 N Fresno St","City":"Fresno","State":"CA","Zip":"93720"},{"Location":"SEQUOIA BREWING COMPANY","Address":"1188 E Champlain Dr 107","City":"Fresno","State":"CA","Zip":"93720"},{"Location":"SHAPEMAKERS 2000","Address":"1021 E Herndon Ave","City":"Fresno","State":"CA","Zip":"93720"},{"Location":"SIERRA PACIFIC ORTHOPAEDIC","Address":"1634 E Herndon Ave","City":"Fresno","State":"CA","Zip":"93720"},{"Location":"SIERRA PACIFIC ORTHOPEDIC CTER","Address":"1630 E Herndon Ave","City":"Fresno","State":"CA","Zip":"93720"},{"Location":"SPORTS AUTHORITY 786","Address":"7572 N Blackstone Ave","City":"Fresno","State":"CA","Zip":"93720"},{"Location":"ST AGNES LAB %40 KEISHE","Address":"568 E Herndon Ave 104","City":"Fresno","State":"CA","Zip":"93720"},{"Location":"SUMMIT SURGICAL","Address":"1630 E Herndon Ave 100","City":"Fresno","State":"CA","Zip":"93720"},{"Location":"SUSHI DAY","Address":"7745 N 1st St","City":"Fresno","State":"CA","Zip":"93720"},{"Location":"SYNERGY AQUATIC THERAPY","Address":"7005 N Chestnut Ave 102","City":"Fresno","State":"CA","Zip":"93720"},{"Location":"TGI FRIDAY'S #1729","Address":"1077 E Herndon Ave","City":"Fresno","State":"CA","Zip":"93720"},{"Location":"THE SMOKE JOINT BBQ","Address":"942 E Minarets Ave","City":"Fresno","State":"CA","Zip":"93720"},{"Location":"THIESEN DUEKER GROUP","Address":"7050 N Fresno St 105","City":"Fresno","State":"CA","Zip":"93720"},{"Location":"UMI SUSHI","Address":"8755 N Chestnut Ave 150","City":"Fresno","State":"CA","Zip":"93720"},{"Location":"UNION BANK 214","Address":"1069 E Champlain Dr","City":"Fresno","State":"CA","Zip":"93720"},{"Location":"UNION BANK 339","Address":"7108 N Fresno St 100","City":"Fresno","State":"CA","Zip":"93720"},{"Location":"UNIVERSITY NEUROSCIENCE","Address":"45 E River Park Pl W 104","City":"Fresno","State":"CA","Zip":"93720"},{"Location":"VALDERRAMA","Address":"205 E River Park Cir 460","City":"Fresno","State":"CA","Zip":"93720"},{"Location":"VALLEY WIDE HOMES","Address":"7082 N Maple Ave 104","City":"Fresno","State":"CA","Zip":"93720"},{"Location":"VINO & FRIENDS","Address":"1560 E Champlain Dr 101","City":"Fresno","State":"CA","Zip":"93720"},{"Location":"WAGNER JONES HELSLEY PC","Address":"8365 N Fresno St 310","City":"Fresno","State":"CA","Zip":"93720"},{"Location":"WARRIOR FITNESS","Address":"8039 N Cedar Ave","City":"Fresno","State":"CA","Zip":"93720"},{"Location":"WASSABI","Address":"1085 E Herndon Ave 110","City":"Fresno","State":"CA","Zip":"93720"},{"Location":"WESTWOODS BBQ","Address":"8042 N Blackstone Ave","City":"Fresno","State":"CA","Zip":"93720"},{"Location":"WL BROWN MEDICAL","Address":"1221 E Spruce Ave","City":"Fresno","State":"CA","Zip":"93720"},{"Location":"YARD HOUSE 8335","Address":"91 El Camino","City":"Fresno","State":"CA","Zip":"93720"}]