[{"Location":"CHAD J ANDERSON DMD%2C INC.","Address":"9497 N Fort Washington Rd 106","City":"Fresno","State":"CA","Zip":"93730"},{"Location":"COPPER RIVER COUNTRY CLU","Address":"2140 E Clubhouse Dr","City":"Fresno","State":"CA","Zip":"93730"},{"Location":"FORT WASHINGTON GOLF COURSE","Address":"10272 N Millbrook Ave","City":"Fresno","State":"CA","Zip":"93730"},{"Location":"FWF","Address":"9471 N Fort Washington Rd","City":"Fresno","State":"CA","Zip":"93730"},{"Location":"LIMON RESTAURANT","Address":"9455 N Fort Washington Rd 101","City":"Fresno","State":"CA","Zip":"93730"},{"Location":"ME-N-EDS PIZZERIA- DIV38","Address":"10077 N Maple Ave","City":"Fresno","State":"CA","Zip":"93730"},{"Location":"MICKEYS YOGURT NORTH","Address":"9423 N Ft Wa Rd 103","City":"Fresno","State":"CA","Zip":"93730"},{"Location":"NAILS 4EVER","Address":"10067 N Maple Ave","City":"Fresno","State":"CA","Zip":"93730"},{"Location":"SAKANAYA SUSHI","Address":"9447 N Fort Washington Rd 116","City":"Fresno","State":"CA","Zip":"93730"},{"Location":"STARVING ARTISTS B","Address":"9447 N Fort Washington Rd 101","City":"Fresno","State":"CA","Zip":"93730"},{"Location":"THE MUTUAL FUND STORE KC%2C LLC","Address":"9423 N Fort Washington Rd 104","City":"Fresno","State":"CA","Zip":"93730"}]