[{"Location":"ICHIBAN SUSHI","Address":"17541 Vierra Canyon Rd","City":"Prunedale","State":"CA","Zip":"93907"},{"Location":"PAULS GENERAL STORE AND MARKET","Address":"2574 El Camino Ave","City":"Prunedale","State":"CA","Zip":"93907"},{"Location":"ALLIANCE SHIPPERS INC","Address":"3 Rossi Cir D","City":"Salinas","State":"CA","Zip":"93907"},{"Location":"AMERICAN LEGION","Address":"8300 Prunedale Road N","City":"Salinas","State":"CA","Zip":"93907"},{"Location":"APPLEBEE'S #2108013","Address":"1301 N Davis Rd","City":"Salinas","State":"CA","Zip":"93907"},{"Location":"CARDINALE AUTOMOTIVE","Address":"555 Auto Center Cir","City":"Salinas","State":"CA","Zip":"93907"},{"Location":"CARDINALE AUTOMOTIVE GROUP","Address":"500 Auto Center Cir","City":"Salinas","State":"CA","Zip":"93907"},{"Location":"CHILI'S #1439","Address":"1940 N Davis Rd","City":"Salinas","State":"CA","Zip":"93907"},{"Location":"COFFEE LOUNGE","Address":"8049 San Miguel Canyon Rd","City":"Salinas","State":"CA","Zip":"93907"},{"Location":"COLOR SPOT NURSERY","Address":"420 Espinosa Rd","City":"Salinas","State":"CA","Zip":"93907"},{"Location":"COLOR SPOT NURSEY","Address":"420 Espinosa Rd","City":"Salinas","State":"CA","Zip":"93907"},{"Location":"DAVITA #5198 LAUREL MEADOWS","Address":"3 Rossi Cir","City":"Salinas","State":"CA","Zip":"93907"},{"Location":"DAVITA #5199 LAUREL MEADOWS","Address":"3 Rossi Cir B","City":"Salinas","State":"CA","Zip":"93907"},{"Location":"DICKS SPORTING GOODS #1070","Address":"1223 N Davis Rd","City":"Salinas","State":"CA","Zip":"93907"},{"Location":"DMD DENTAL CORPORATION","Address":"1004 N Davis Rd","City":"Salinas","State":"CA","Zip":"93907"},{"Location":"DON CHAPIN CO.","Address":"560 Crazy Horse Canyon Rd","City":"Salinas","State":"CA","Zip":"93907"},{"Location":"FAMOUS DAVE'S SALINAS","Address":"1391 N Davis Rd","City":"Salinas","State":"CA","Zip":"93907"},{"Location":"GOLDEN 1 WESTRIDGE","Address":"1273 N Davis Rd","City":"Salinas","State":"CA","Zip":"93907"},{"Location":"HACIENDA MEXICAN GRILL","Address":"1449 N Davis Rd","City":"Salinas","State":"CA","Zip":"93907"},{"Location":"IN SHAPE SALINAS","Address":"1040 N Davis Rd","City":"Salinas","State":"CA","Zip":"93907"},{"Location":"KOHL'S #163","Address":"1950 N Davis Rd","City":"Salinas","State":"CA","Zip":"93907"},{"Location":"MONTEREY-SALINAS TRANSIT #1","Address":"443 Victor Way","City":"Salinas","State":"CA","Zip":"93907"},{"Location":"MOUNTAIN MIKE'S PIZZA","Address":"1020 N Davis Rd","City":"Salinas","State":"CA","Zip":"93907"},{"Location":"MY CHRYSLER JEEP DODGE","Address":"600 Auto Center Cir","City":"Salinas","State":"CA","Zip":"93907"},{"Location":"MY LINCOLN MERCURY","Address":"800 Auto Center Cir","City":"Salinas","State":"CA","Zip":"93907"},{"Location":"MY NISSAN KIA","Address":"444 Auto Center Cir","City":"Salinas","State":"CA","Zip":"93907"},{"Location":"NORCAL HARVESTING LLC","Address":"27 Quail Run Cir","City":"Salinas","State":"CA","Zip":"93907"},{"Location":"OUTBACK STEAKHOUSE #0524","Address":"1401 N Davis Rd","City":"Salinas","State":"CA","Zip":"93907"},{"Location":"ROBOHAP INC 2","Address":"17597 Vierra Canyon Rd","City":"Salinas","State":"CA","Zip":"93907"},{"Location":"ROUND TABLE PIZZA","Address":"8035 San Miguel Canyon Rd","City":"Salinas","State":"CA","Zip":"93907"},{"Location":"SALINAS SELF STORAGE","Address":"201 Harrison Rd","City":"Salinas","State":"CA","Zip":"93907"},{"Location":"SALINAS VALLEY FORD & LINCOLN","Address":"1100 Auto Center Cir","City":"Salinas","State":"CA","Zip":"93907"},{"Location":"UNION BANK 534","Address":"8071 San Miguel Canyon Rd","City":"Salinas","State":"CA","Zip":"93907"},{"Location":"ICHIBAN SUSHI","Address":"17541 Vierra Canyon Rd","City":"Prunedale","State":"CA","Zip":"93907"},{"Location":"PAULS GENERAL STORE AND MARKET","Address":"2574 El Camino Ave","City":"Prunedale","State":"CA","Zip":"93907"},{"Location":"ALLIANCE SHIPPERS INC","Address":"3 Rossi Cir D","City":"Salinas","State":"CA","Zip":"93907"},{"Location":"AMERICAN LEGION","Address":"8300 Prunedale Road N","City":"Salinas","State":"CA","Zip":"93907"},{"Location":"APPLEBEE'S #2108013","Address":"1301 N Davis Rd","City":"Salinas","State":"CA","Zip":"93907"},{"Location":"CARDINALE AUTOMOTIVE","Address":"555 Auto Center Cir","City":"Salinas","State":"CA","Zip":"93907"},{"Location":"CARDINALE AUTOMOTIVE GROUP","Address":"500 Auto Center Cir","City":"Salinas","State":"CA","Zip":"93907"},{"Location":"CHILI'S #1439","Address":"1940 N Davis Rd","City":"Salinas","State":"CA","Zip":"93907"},{"Location":"COFFEE LOUNGE","Address":"8049 San Miguel Canyon Rd","City":"Salinas","State":"CA","Zip":"93907"},{"Location":"COLOR SPOT NURSERY","Address":"420 Espinosa Rd","City":"Salinas","State":"CA","Zip":"93907"},{"Location":"COLOR SPOT NURSEY","Address":"420 Espinosa Rd","City":"Salinas","State":"CA","Zip":"93907"},{"Location":"DAVITA #5198 LAUREL MEADOWS","Address":"3 Rossi Cir","City":"Salinas","State":"CA","Zip":"93907"},{"Location":"DAVITA #5199 LAUREL MEADOWS","Address":"3 Rossi Cir B","City":"Salinas","State":"CA","Zip":"93907"},{"Location":"DICKS SPORTING GOODS #1070","Address":"1223 N Davis Rd","City":"Salinas","State":"CA","Zip":"93907"},{"Location":"DMD DENTAL CORPORATION","Address":"1004 N Davis Rd","City":"Salinas","State":"CA","Zip":"93907"},{"Location":"DON CHAPIN CO.","Address":"560 Crazy Horse Canyon Rd","City":"Salinas","State":"CA","Zip":"93907"},{"Location":"FAMOUS DAVE'S SALINAS","Address":"1391 N Davis Rd","City":"Salinas","State":"CA","Zip":"93907"},{"Location":"GOLDEN 1 WESTRIDGE","Address":"1273 N Davis Rd","City":"Salinas","State":"CA","Zip":"93907"},{"Location":"HACIENDA MEXICAN GRILL","Address":"1449 N Davis Rd","City":"Salinas","State":"CA","Zip":"93907"},{"Location":"IN SHAPE SALINAS","Address":"1040 N Davis Rd","City":"Salinas","State":"CA","Zip":"93907"},{"Location":"KOHL'S #163","Address":"1950 N Davis Rd","City":"Salinas","State":"CA","Zip":"93907"},{"Location":"MONTEREY-SALINAS TRANSIT #1","Address":"443 Victor Way","City":"Salinas","State":"CA","Zip":"93907"},{"Location":"MOUNTAIN MIKE'S PIZZA","Address":"1020 N Davis Rd","City":"Salinas","State":"CA","Zip":"93907"},{"Location":"MY CHRYSLER JEEP DODGE","Address":"600 Auto Center Cir","City":"Salinas","State":"CA","Zip":"93907"},{"Location":"MY LINCOLN MERCURY","Address":"800 Auto Center Cir","City":"Salinas","State":"CA","Zip":"93907"},{"Location":"MY NISSAN KIA","Address":"444 Auto Center Cir","City":"Salinas","State":"CA","Zip":"93907"},{"Location":"NORCAL HARVESTING LLC","Address":"27 Quail Run Cir","City":"Salinas","State":"CA","Zip":"93907"},{"Location":"OUTBACK STEAKHOUSE #0524","Address":"1401 N Davis Rd","City":"Salinas","State":"CA","Zip":"93907"},{"Location":"ROBOHAP INC 2","Address":"17597 Vierra Canyon Rd","City":"Salinas","State":"CA","Zip":"93907"},{"Location":"ROUND TABLE PIZZA","Address":"8035 San Miguel Canyon Rd","City":"Salinas","State":"CA","Zip":"93907"},{"Location":"SALINAS SELF STORAGE","Address":"201 Harrison Rd","City":"Salinas","State":"CA","Zip":"93907"},{"Location":"SALINAS VALLEY FORD & LINCOLN","Address":"1100 Auto Center Cir","City":"Salinas","State":"CA","Zip":"93907"},{"Location":"UNION BANK 534","Address":"8071 San Miguel Canyon Rd","City":"Salinas","State":"CA","Zip":"93907"}]