[{"Location":"ALADDIN BB DEPT 780","Address":"336 N Main St","City":"Salinas","State":"CA","Zip":"93901"},{"Location":"BLANCO FARMS","Address":"925 Johnson Ave","City":"Salinas","State":"CA","Zip":"93901"},{"Location":"BURGER KING","Address":"909 S Main St","City":"Salinas","State":"CA","Zip":"93901"},{"Location":"CASA SORRENTO INC","Address":"393 Salinas St","City":"Salinas","State":"CA","Zip":"93901"},{"Location":"CENTRAL COAST CARDIOLOGY","Address":"230 San Jose St","City":"Salinas","State":"CA","Zip":"93901"},{"Location":"CENTRAL COAST COOLING INC","Address":"1107 Merrill St","City":"Salinas","State":"CA","Zip":"93901"},{"Location":"CITY OF SALINAS","Address":"320 Lincoln Ave","City":"Salinas","State":"CA","Zip":"93901"},{"Location":"CNK PLUMBING","Address":"352 Griffin St","City":"Salinas","State":"CA","Zip":"93901"},{"Location":"CORIX WATER PRODUCTS","Address":"1359 Dayton St","City":"Salinas","State":"CA","Zip":"93901"},{"Location":"DAVITA #349 SALINAS VALLEY","Address":"955 Blanco Cir C","City":"Salinas","State":"CA","Zip":"93901"},{"Location":"DOCTORS ON DUTY","Address":"1212 S Main St","City":"Salinas","State":"CA","Zip":"93901"},{"Location":"DR GARY KLUGMAN","Address":"935 Blanco Cir","City":"Salinas","State":"CA","Zip":"93901"},{"Location":"DREW MASSA TRANSPORTATION","Address":"1370 Dayton St","City":"Salinas","State":"CA","Zip":"93901"},{"Location":"DUBBERS INCORPORATED","Address":"172 Main St","City":"Salinas","State":"CA","Zip":"93901"},{"Location":"ED GIVEN INC","Address":"48 Maple St","City":"Salinas","State":"CA","Zip":"93901"},{"Location":"FRESH TINT","Address":"60 Malarin St A","City":"Salinas","State":"CA","Zip":"93901"},{"Location":"GENESIS FREIGHTLINES","Address":"635 Sanborn Pl 13","City":"Salinas","State":"CA","Zip":"93901"},{"Location":"GLEASONS SALINAS RV","Address":"302 Commission St","City":"Salinas","State":"CA","Zip":"93901"},{"Location":"GOLDEN FISH RESTAURANT","Address":"221 Main St","City":"Salinas","State":"CA","Zip":"93901"},{"Location":"GREEN RUBBER - KENNEDY","Address":"1310 Dayton St","City":"Salinas","State":"CA","Zip":"93901"},{"Location":"GROWERS EXPRESS LLC","Address":"1219 Abbott St","City":"Salinas","State":"CA","Zip":"93901"},{"Location":"HARVEST BLADE AND SUPPLY","Address":"1335 Dayton St","City":"Salinas","State":"CA","Zip":"93901"},{"Location":"HOLADAY SEED COMPANY 1","Address":"4 Elvee Dr","City":"Salinas","State":"CA","Zip":"93901"},{"Location":"INDEPENDENT  FINANCIAL GROUP","Address":"45 W Alisal St","City":"Salinas","State":"CA","Zip":"93901"},{"Location":"JESSE  LOUNGE","Address":"231 Salinas St","City":"Salinas","State":"CA","Zip":"93901"},{"Location":"JJS BURGERS","Address":"100 Alameda Ave","City":"Salinas","State":"CA","Zip":"93901"},{"Location":"JOHNSON  MONCRIEF & HART","Address":"16 W Gabilan St","City":"Salinas","State":"CA","Zip":"93901"},{"Location":"KMT VENTURES LLC","Address":"315 W Market St","City":"Salinas","State":"CA","Zip":"93901"},{"Location":"LA CASA DEL SAZON","Address":"22 W Romie Ln","City":"Salinas","State":"CA","Zip":"93901"},{"Location":"LA ESTERELLA LIQOUR STORE","Address":"124 Abbott St","City":"Salinas","State":"CA","Zip":"93901"},{"Location":"LAW OFFICES OF BILLIE FRENCH","Address":"337 Cayuga St","City":"Salinas","State":"CA","Zip":"93901"},{"Location":"M.C. LLC STORE 2330","Address":"228 N Main St","City":"Salinas","State":"CA","Zip":"93901"},{"Location":"MANN PACKING COMPANY","Address":"1250 Hansen St","City":"Salinas","State":"CA","Zip":"93901"},{"Location":"MARCO WHAREHOUSE","Address":"1311 Schilling Pl","City":"Salinas","State":"CA","Zip":"93901"},{"Location":"MARY HAGIN","Address":"909b Blanco Cir","City":"Salinas","State":"CA","Zip":"93901"},{"Location":"MOUNTAIN MIKES PIZZA","Address":"315 E Alisal St","City":"Salinas","State":"CA","Zip":"93901"},{"Location":"PACIFIC GAS AND ELECTRIC","Address":"114 Bridge St","City":"Salinas","State":"CA","Zip":"93901"},{"Location":"PACIFIC INTERNATIONAL MARKETIN","Address":"740 Airport Blvd","City":"Salinas","State":"CA","Zip":"93901"},{"Location":"PARK PLACE BINGO","Address":"1045 S Main St","City":"Salinas","State":"CA","Zip":"93901"},{"Location":"PILOT FLYING J #237000","Address":"951 Work St","City":"Salinas","State":"CA","Zip":"93901"},{"Location":"PIZZA FACTORY","Address":"926 S Main St","City":"Salinas","State":"CA","Zip":"93901"},{"Location":"PORTOBELLOS","Address":"1366 S Main St","City":"Salinas","State":"CA","Zip":"93901"},{"Location":"PROFESSSIONAL FINANCIAL SRVCS","Address":"1124 S Main St A","City":"Salinas","State":"CA","Zip":"93901"},{"Location":"REAL SMOKED BBQ","Address":"700 W Market St","City":"Salinas","State":"CA","Zip":"93901"},{"Location":"RITA CHAPPELL","Address":"1229 S Main St","City":"Salinas","State":"CA","Zip":"93901"},{"Location":"ROBERT NUNES","Address":"925 Johnson Ave","City":"Salinas","State":"CA","Zip":"93901"},{"Location":"RODGERS SUPPLIES","Address":"511 Abbott St C","City":"Salinas","State":"CA","Zip":"93901"},{"Location":"SAFE LITE FULFILLMENT","Address":"1276 Abbott St A","City":"Salinas","State":"CA","Zip":"93901"},{"Location":"SALINA VALLEY TIRE","Address":"672 Brunken Ave","City":"Salinas","State":"CA","Zip":"93901"},{"Location":"SALINAS FIRE DEPT MONTER","Address":"65 W Alisal St 210","City":"Salinas","State":"CA","Zip":"93901"},{"Location":"SALINAS SPORTS TAVERN","Address":"9 E San Luis St","City":"Salinas","State":"CA","Zip":"93901"},{"Location":"SALINAS SURGERY CENTER","Address":"955 Blanco Cir A","City":"Salinas","State":"CA","Zip":"93901"},{"Location":"SALINAS VALLEY MEMORIAL","Address":"212 San Jose St 301","City":"Salinas","State":"CA","Zip":"93901"},{"Location":"SALINAS VALLEY MEMORIAL HOSPIT","Address":"120 Wilgart Way","City":"Salinas","State":"CA","Zip":"93901"},{"Location":"SALINAS VALLEY PRIMECARE","Address":"355 Abbott St 100","City":"Salinas","State":"CA","Zip":"93901"},{"Location":"SALINAS VALLEY PRO SQUAD","Address":"221 Griffin St","City":"Salinas","State":"CA","Zip":"93901"},{"Location":"SMALLEYS ROUNDUP","Address":"1190 S Main St","City":"Salinas","State":"CA","Zip":"93901"},{"Location":"SNAP FITNESS #1112","Address":"1128 S Main St","City":"Salinas","State":"CA","Zip":"93901"},{"Location":"SUN YOUR BUNZZ","Address":"914 S Main St","City":"Salinas","State":"CA","Zip":"93901"},{"Location":"TAYLOR FARMS","Address":"1129 Harkins Rd","City":"Salinas","State":"CA","Zip":"93901"},{"Location":"TAYLOR FARMS","Address":"947 Blanco Cir B","City":"Salinas","State":"CA","Zip":"93901"},{"Location":"TAYLOR FARMS CALIFORNIA","Address":"915 Blanco Cir","City":"Salinas","State":"CA","Zip":"93901"},{"Location":"THE CALIFORNIAN","Address":"123 W Alisal St","City":"Salinas","State":"CA","Zip":"93901"},{"Location":"TLATOANI BARBER SHOP","Address":"36 W Alisal St","City":"Salinas","State":"CA","Zip":"93901"},{"Location":"VALLEY CENTER BOWL%2CINC.","Address":"1081 S Main St","City":"Salinas","State":"CA","Zip":"93901"},{"Location":"VALLEY TRUCK STOP","Address":"721 Vertin Ave","City":"Salinas","State":"CA","Zip":"93901"},{"Location":"VERIZON WIRELESS","Address":"590 Brunken Ave J","City":"Salinas","State":"CA","Zip":"93901"},{"Location":"VINTAGE VILLA SERRA COMM","Address":"1320 Padre Dr","City":"Salinas","State":"CA","Zip":"93901"},{"Location":"WEST COAST AUTOMOTIVE","Address":"1054 Terven Ave","City":"Salinas","State":"CA","Zip":"93901"},{"Location":"WINSOR GARDENS SALINAS","Address":"637 E Romie Ln","City":"Salinas","State":"CA","Zip":"93901"},{"Location":"WORLD NAILS","Address":"389 Salinas St","City":"Salinas","State":"CA","Zip":"93901"},{"Location":"ZEPH'S ONESTOP","Address":"1366 S Main St","City":"Salinas","State":"CA","Zip":"93901"}]