[{"Location":"ADVANCED TECH AIRCRAFT MAINTEN","Address":"1605 Moffett St","City":"Salinas","State":"CA","Zip":"93905"},{"Location":"CASA BLANCA TRAVEL","Address":"915 E Alisal St","City":"Salinas","State":"CA","Zip":"93905"},{"Location":"CENTRAL COAST AVIATION SERVS","Address":"50 Mortensen Ave","City":"Salinas","State":"CA","Zip":"93905"},{"Location":"COCA COLA REFRESHMENTS1","Address":"715 Vandenberg St","City":"Salinas","State":"CA","Zip":"93905"},{"Location":"EVAS CAFE","Address":"246 Williams Rd","City":"Salinas","State":"CA","Zip":"93905"},{"Location":"FUENTE DE BELLEZA","Address":"607 E Alisal St","City":"Salinas","State":"CA","Zip":"93905"},{"Location":"GLORIAS MEXICAN RESTAURANT","Address":"100 Williams Rd","City":"Salinas","State":"CA","Zip":"93905"},{"Location":"GOLD'S GYM SALINAS","Address":"1486 Constitution Blvd","City":"Salinas","State":"CA","Zip":"93905"},{"Location":"JET WEST LLC","Address":"280 Mortensen Ave","City":"Salinas","State":"CA","Zip":"93905"},{"Location":"KION TV","Address":"1550 Moffett St","City":"Salinas","State":"CA","Zip":"93905"},{"Location":"MCDONALDS","Address":"608 Williams Rd","City":"Salinas","State":"CA","Zip":"93905"},{"Location":"MCDONALDS","Address":"840 E Alisal St","City":"Salinas","State":"CA","Zip":"93905"},{"Location":"MCDONALDS 36262","Address":"155 Kern St","City":"Salinas","State":"CA","Zip":"93905"},{"Location":"MIKE'S PIZZA","Address":"988 Acosta Plz","City":"Salinas","State":"CA","Zip":"93905"},{"Location":"MOTEL 6","Address":"1257 De La Torre St","City":"Salinas","State":"CA","Zip":"93905"},{"Location":"QUALITY MARKET","Address":"201 Williams Rd","City":"Salinas","State":"CA","Zip":"93905"},{"Location":"SALINAS ELK LODGE 614","Address":"614 Airport Blvd","City":"Salinas","State":"CA","Zip":"93905"},{"Location":"TAQUERIA 2 GALLOS DE ORO","Address":"1550 N Sanborn Rd","City":"Salinas","State":"CA","Zip":"93905"},{"Location":"TAQUERIA JALISCO","Address":"810 E Market St","City":"Salinas","State":"CA","Zip":"93905"},{"Location":"WINGSTOP","Address":"1488 Constitution Blvd","City":"Salinas","State":"CA","Zip":"93905"}]