[{"Location":"BURNSTEIN REMARK WINERY","Address":"645 River Rd","City":"Salinas","State":"CA","Zip":"93908"},{"Location":"CHAMISAL TENNIS CLUB DOWN","Address":"185 Robley Rd","City":"Salinas","State":"CA","Zip":"93908"},{"Location":"CHAMISAL TENNIS CLUB UP","Address":"185 Robley Rd","City":"Salinas","State":"CA","Zip":"93908"},{"Location":"D AARRIGO","Address":"21777 Harris Rd","City":"Salinas","State":"CA","Zip":"93908"},{"Location":"FRESH ROOTS2","Address":"92a Monterey Salinas Hwy","City":"Salinas","State":"CA","Zip":"93908"},{"Location":"GINO'S","Address":"1410 S Main St","City":"Salinas","State":"CA","Zip":"93908"},{"Location":"SCRAMP","Address":"1021 Monterey Salinas Hwy","City":"Salinas","State":"CA","Zip":"93908"},{"Location":"VISION QUEST RANCH OFFICE","Address":"400 River Rd","City":"Salinas","State":"CA","Zip":"93908"},{"Location":"VISION QUEST RANCH RENT HOUSE","Address":"400 River Rd","City":"Salinas","State":"CA","Zip":"93908"},{"Location":"ZION HARVEST","Address":"20300 Spence Rd","City":"Salinas","State":"CA","Zip":"93908"}]