[{"Location":"AMERICAN LEGION POST 31","Address":"14 W Laurel Dr","City":"Salinas","State":"CA","Zip":"93906"},{"Location":"AMORIM ENTERPRISES INC","Address":"1945 Natividad Rd","City":"Salinas","State":"CA","Zip":"93906"},{"Location":"BJ'S RESTAURANT #523","Address":"1730 N Main St","City":"Salinas","State":"CA","Zip":"93906"},{"Location":"BLACK BEAR DINER","Address":"805 W Laurel Dr","City":"Salinas","State":"CA","Zip":"93906"},{"Location":"BRENDA GONZALEZ","Address":"1927 Natividad Rd","City":"Salinas","State":"CA","Zip":"93906"},{"Location":"BUFFALO WILD WINGS #0485","Address":"1988 N Main St","City":"Salinas","State":"CA","Zip":"93906"},{"Location":"CAMALIG","Address":"190 E Laurel Dr","City":"Salinas","State":"CA","Zip":"93906"},{"Location":"FIRESTONE #029947","Address":"150 Northridge Ctr","City":"Salinas","State":"CA","Zip":"93906"},{"Location":"HUE HAIR AND NAILS","Address":"1944 N Main St","City":"Salinas","State":"CA","Zip":"93906"},{"Location":"IKEBANA","Address":"1315 N Main St","City":"Salinas","State":"CA","Zip":"93906"},{"Location":"IKEBANA1","Address":"1315 N Main St","City":"Salinas","State":"CA","Zip":"93906"},{"Location":"LA ALTENA TAQUERIA","Address":"542 E Laurel Dr","City":"Salinas","State":"CA","Zip":"93906"},{"Location":"LA SALON","Address":"1654 N Main St","City":"Salinas","State":"CA","Zip":"93906"},{"Location":"MACY'S WEST 363 BR","Address":"200 Northridge Ctr","City":"Salinas","State":"CA","Zip":"93906"},{"Location":"MCDONALD'S","Address":"600 E Boronda Rd","City":"Salinas","State":"CA","Zip":"93906"},{"Location":"MOUNTAIN MIKES PIZZA","Address":"1670 N Main St","City":"Salinas","State":"CA","Zip":"93906"},{"Location":"NORTHRIDGE PARK APTS OFF","Address":"1667 Madrid St","City":"Salinas","State":"CA","Zip":"93906"},{"Location":"PIZZA HUT SALINAS","Address":"1341 N Main St","City":"Salinas","State":"CA","Zip":"93906"},{"Location":"RED LOBSTER #0617","Address":"1720 N Main St","City":"Salinas","State":"CA","Zip":"93906"},{"Location":"SALINAS GOLF & COUNTRY CLUB","Address":"475 San Juan Grade Rd","City":"Salinas","State":"CA","Zip":"93906"},{"Location":"STRAW HAT PIZZA","Address":"156 E Laurel Dr","City":"Salinas","State":"CA","Zip":"93906"},{"Location":"TACOS ACAMBARO","Address":"631 E Alvin Dr","City":"Salinas","State":"CA","Zip":"93906"},{"Location":"TACOS ACAMBROS","Address":"631 E Alvin Dr","City":"Salinas","State":"CA","Zip":"93906"},{"Location":"TAQUERIA TAQUITOS","Address":"1538 N Main St","City":"Salinas","State":"CA","Zip":"93906"},{"Location":"TARGET CORP","Address":"1640 N Main St","City":"Salinas","State":"CA","Zip":"93906"},{"Location":"UNION BANK 535","Address":"1890 N Main St","City":"Salinas","State":"CA","Zip":"93906"},{"Location":"WINDSOR THE RIDGE","Address":"350 Ims Rd","City":"Salinas","State":"CA","Zip":"93906"}]