[{"Location":"CHEEZERS PIZZA","Address":"670 Walnut Ave","City":"Greenfield","State":"CA","Zip":"93927"},{"Location":"CITY OF GREENSFIELD","Address":"599 El Camino Real","City":"Greenfield","State":"CA","Zip":"93927"},{"Location":"DOUBLE IMPACT CARDIO","Address":"374 Elm Ave A","City":"Greenfield","State":"CA","Zip":"93927"},{"Location":"GREENFIELD PUBLIC RECREATION","Address":"42603 Elm Ave","City":"Greenfield","State":"CA","Zip":"93927"},{"Location":"GREENS ACCOUNTING","Address":"300 El Camino Real","City":"Greenfield","State":"CA","Zip":"93927"},{"Location":"HACIENDA","Address":"246 El Camino Real","City":"Greenfield","State":"CA","Zip":"93927"},{"Location":"HANSEN LAND MNMNT LLC","Address":"130 S El Camino Real","City":"Greenfield","State":"CA","Zip":"93927"},{"Location":"MC DONALDS","Address":"501 El Camino Real","City":"Greenfield","State":"CA","Zip":"93927"},{"Location":"NUEVO MILENIO","Address":"495 El Camino Real F","City":"Greenfield","State":"CA","Zip":"93927"},{"Location":"PRO DARLING NAILS","Address":"630 Warner Ave","City":"Greenfield","State":"CA","Zip":"93927"},{"Location":"PUEBLO INN","Address":"22 4th St","City":"Greenfield","State":"CA","Zip":"93927"},{"Location":"USDA FOREST SERVICES","Address":"47600 Arroyo Seco Rd","City":"Greenfield","State":"CA","Zip":"93927"}]