[{"Location":"AMERICAN MEDICAL RESPONSE","Address":"Post Ranch Inn","City":"Big Sur","State":"CA","Zip":"93920"},{"Location":"BIG SUR DELI","Address":"47520 Highway 1","City":"Big Sur","State":"CA","Zip":"93920"},{"Location":"BIG SUR LODGE INN","Address":"47225 Highway 1","City":"Big Sur","State":"CA","Zip":"93920"},{"Location":"BIG SUR RIVER INN","Address":"Hwy One At Pheneger Creek","City":"Big Sur","State":"CA","Zip":"93920"},{"Location":"MADIN PUBLICK HOUSE","Address":"Highway 1 Village Shop 2","City":"Big Sur","State":"CA","Zip":"93920"},{"Location":"MARFA SEAS LLC","Address":"Hill Of The Hawk At Ranc","City":"Big Sur","State":"CA","Zip":"93920"},{"Location":"POST RANCH INN","Address":"Hwy 1 Post Ranch Inn","City":"Big Sur","State":"CA","Zip":"93920"},{"Location":"VENTANA INN & SPA #1","Address":"48123 Highway 1","City":"Big Sur","State":"CA","Zip":"93920"},{"Location":"VENTANA INN & SPA #3","Address":"48123 Highway 1","City":"Big Sur","State":"CA","Zip":"93920"},{"Location":"VENTANA INN & SPA SATELLITE","Address":"48123 Highway 1","City":"Big Sur","State":"CA","Zip":"93920"},{"Location":"USDA FOREST SERVICE","Address":"Hwy 1 Pacific Valley Station","City":"Bigsur","State":"CA","Zip":"93920"},{"Location":"AMERICAN MEDICAL RESPONSE","Address":"Post Ranch Inn","City":"Big Sur","State":"CA","Zip":"93920"},{"Location":"BIG SUR DELI","Address":"47520 Highway 1","City":"Big Sur","State":"CA","Zip":"93920"},{"Location":"BIG SUR LODGE INN","Address":"47225 Highway 1","City":"Big Sur","State":"CA","Zip":"93920"},{"Location":"BIG SUR RIVER INN","Address":"Hwy One At Pheneger Creek","City":"Big Sur","State":"CA","Zip":"93920"},{"Location":"MADIN PUBLICK HOUSE","Address":"Highway 1 Village Shop 2","City":"Big Sur","State":"CA","Zip":"93920"},{"Location":"MARFA SEAS LLC","Address":"Hill Of The Hawk At Ranc","City":"Big Sur","State":"CA","Zip":"93920"},{"Location":"POST RANCH INN","Address":"Hwy 1 Post Ranch Inn","City":"Big Sur","State":"CA","Zip":"93920"},{"Location":"VENTANA INN & SPA #1","Address":"48123 Highway 1","City":"Big Sur","State":"CA","Zip":"93920"},{"Location":"VENTANA INN & SPA #3","Address":"48123 Highway 1","City":"Big Sur","State":"CA","Zip":"93920"},{"Location":"VENTANA INN & SPA SATELLITE","Address":"48123 Highway 1","City":"Big Sur","State":"CA","Zip":"93920"},{"Location":"USDA FOREST SERVICE","Address":"Hwy 1 Pacific Valley Station","City":"Bigsur","State":"CA","Zip":"93920"}]