[{"Location":"DPTMS%2FEOC","Address":"290 California Ave","City":"Fort Hunter Liggett","State":"CA","Zip":"93928"},{"Location":"FORT HUNTER LIGGETT BOWLING","Address":"121 Infantry Rd","City":"Fort Hunter Liggett","State":"CA","Zip":"93928"},{"Location":"US ARMY","Address":"287 Infantry Rd","City":"Fort Hunter Liggett","State":"CA","Zip":"93928"},{"Location":"91ST TRAINING DIVISION","Address":"228 Infantry Rd","City":"Jolon","State":"CA","Zip":"93928"},{"Location":"AIR METHOD CORPORATION","Address":"Bldg Tr321 Aviation Rd","City":"Jolon","State":"CA","Zip":"93928"},{"Location":"FORT HUNTER LIGGETT","Address":"81 Infantry Rd","City":"Jolon","State":"CA","Zip":"93928"},{"Location":"FT HUNTER LG BLD 177","Address":"177 Apache Rd","City":"Jolon","State":"CA","Zip":"93928"},{"Location":"FT HUNTER LIG. BLDG 210","Address":"238 California Avenue","City":"Jolon","State":"CA","Zip":"93928"},{"Location":"FT HUNTER LIGGETT","Address":"Building 131","City":"Jolon","State":"CA","Zip":"93928"},{"Location":"FT HUNTER LIGGETT FIRE DEPT","Address":"T-120 Infantry Rd","City":"Jolon","State":"CA","Zip":"93928"},{"Location":"FT-HUNTER LIGGETT","Address":"Building 132 A","City":"Jolon","State":"CA","Zip":"93928"},{"Location":"FTHUNTER LIGGETT","Address":"Building 149","City":"Jolon","State":"CA","Zip":"93928"},{"Location":"HACIENDA","Address":"Fort Hunter Liggitt","City":"Jolon","State":"CA","Zip":"93928"},{"Location":"ROSA CATERING","Address":"209 Infantry Rd Ste","City":"Jolon","State":"CA","Zip":"93928"},{"Location":"TADSS","Address":"Route Tampa Bldg 335","City":"Jolon","State":"CA","Zip":"93928"},{"Location":"THE HACIENDA","Address":"101 Infantry Rd","City":"Jolon","State":"CA","Zip":"93928"},{"Location":"US ARMY","Address":"225 California Ave","City":"Jolon","State":"CA","Zip":"93928"}]