[{"Location":"BROPHYS  TAVERN","Address":"4th And San Carlos","City":"Carmel","State":"CA","Zip":"93921"},{"Location":"CANDLE LIGHT INN","Address":"San Carlos St","City":"Carmel","State":"CA","Zip":"93921"},{"Location":"CARRIAGE HOUSE","Address":"Junipero Between 7th& 8th","City":"Carmel","State":"CA","Zip":"93921"},{"Location":"CARRIAGE HOUSE INN","Address":"Junipero Between 7th& 8th","City":"Carmel","State":"CA","Zip":"93921"},{"Location":"FORGE IN THE FOREST","Address":"Junipero And Sw Corner O","City":"Carmel","State":"CA","Zip":"93921"},{"Location":"VESUVIO","Address":"6th And Junipero","City":"Carmel","State":"CA","Zip":"93921"},{"Location":"WAYSIDE INN","Address":"Mission St","City":"Carmel","State":"CA","Zip":"93921"},{"Location":"WELLS FARGO","Address":"Ne Corner 7th  Monte Ver","City":"Carmel","State":"CA","Zip":"93921"},{"Location":"WELTON INVESTMENT PARTNERS LLC","Address":"Eastwood Bldg","City":"Carmel","State":"CA","Zip":"93921"},{"Location":"YAFA","Address":"Nw Junipero 5th Ave","City":"Carmel","State":"CA","Zip":"93921"},{"Location":"AW SHUCKS","Address":"100 Ocean Ave","City":"Carmel By Te Sea","State":"CA","Zip":"93921"},{"Location":"CARACCILIO CELLAR","Address":"Delores St","City":"Carmel By The Sea","State":"CA","Zip":"93921"},{"Location":"IL FORNAIO CARMEL","Address":"Ocean Ave And Monte Verd","City":"Carmel By The Sea","State":"CA","Zip":"93921"},{"Location":"JACK LONDONS","Address":"Btw 5th And 6th On Delor","City":"Carmel By The Sea","State":"CA","Zip":"93921"},{"Location":"THE COLONIAL TERRACE","Address":"13 San Antonio Avenue","City":"Carmel By The Sea","State":"CA","Zip":"93921"},{"Location":"THE TREEHOUSE CAFE","Address":"1 Stonehouse On San Carl","City":"Carmel By The Sea","State":"CA","Zip":"93921"}]