[{"Location":"CARMEL AREA WW DI","Address":"26900 Highway 1","City":"Carmel","State":"CA","Zip":"93923"},{"Location":"CARMEL HIGHLAND FIRE PROTECTIO","Address":"73 Fern Canyon Rd","City":"Carmel","State":"CA","Zip":"93923"},{"Location":"CARMEL VALLEY","Address":"310 Mid Valley Ctr","City":"Carmel","State":"CA","Zip":"93923"},{"Location":"CHARLES SCHWAB & COMPANY #588","Address":"100 Clock Tower Pl","City":"Carmel","State":"CA","Zip":"93923"},{"Location":"FLANAGANS PUB","Address":"3772 The Barnyard","City":"Carmel","State":"CA","Zip":"93923"},{"Location":"HYATT RESIDENCE GROUP","Address":"120 Highland Dr Lobby","City":"Carmel","State":"CA","Zip":"93923"},{"Location":"IN SHAPE FITNESS CARMEL","Address":"26540 Carmel Rancho Blvd","City":"Carmel","State":"CA","Zip":"93923"},{"Location":"MERRILL LYNCH CA2-801-03-00","Address":"3775 Via Nona Marie 101","City":"Carmel","State":"CA","Zip":"93923"},{"Location":"OCEAN VIEW II","Address":"54 Yankee Point Dr","City":"Carmel","State":"CA","Zip":"93923"},{"Location":"PARADISE NAILS STUDIO","Address":"26544 Carmel Rancho Blvd","City":"Carmel","State":"CA","Zip":"93923"},{"Location":"PATRICK JAMES INC","Address":"3744 The Barnyard","City":"Carmel","State":"CA","Zip":"93923"},{"Location":"PIZZA FACTORY","Address":"26135 Carmel Rancho Blvd","City":"Carmel","State":"CA","Zip":"93923"},{"Location":"PUMA ROAD WINERY","Address":"000 Dolores Street","City":"Carmel","State":"CA","Zip":"93923"},{"Location":"QUAIL LODGE RESORT & GOLF CLUB","Address":"8205 Valley Greens Dr","City":"Carmel","State":"CA","Zip":"93923"},{"Location":"RIVER RANCH FITNESS CA","Address":"1 Old Ranch Rd","City":"Carmel","State":"CA","Zip":"93923"},{"Location":"RIVER RANCH FITNESS SPA","Address":"1 Old Ranch Rd","City":"Carmel","State":"CA","Zip":"93923"},{"Location":"SAN CLEMENTE TRAIL ESTATE INC","Address":"16 San Clemente Trl","City":"Carmel","State":"CA","Zip":"93923"},{"Location":"SANTA LUCIA PRESERVE","Address":"61 Rancho San Carlos Rd","City":"Carmel","State":"CA","Zip":"93923"},{"Location":"TEHAMA FITNESS CENTER","Address":"25500 Via Malpaso","City":"Carmel","State":"CA","Zip":"93923"},{"Location":"TEHAMA GOLF CLUB LLC","Address":"25000 Via Malpaso","City":"Carmel","State":"CA","Zip":"93923"},{"Location":"THE BAJA CANTINA","Address":"7166 Carmel Valley Rd","City":"Carmel","State":"CA","Zip":"93923"},{"Location":"THE SANTA LUCIA PRESERVE","Address":"19 Pronghorn Run","City":"Carmel","State":"CA","Zip":"93923"},{"Location":"TICKLE PINK BLDG 1","Address":"155 Highland Dr","City":"Carmel","State":"CA","Zip":"93923"},{"Location":"TICKLE PINK BLDG 2","Address":"155 Highland Dr","City":"Carmel","State":"CA","Zip":"93923"}]