[{"Location":"CITY OF MARINA","Address":"781 Neeson Rd","City":"Marina","State":"CA","Zip":"93933"},{"Location":"DOCTORS    ON DUTY","Address":"3130 Del Monte Blvd","City":"Marina","State":"CA","Zip":"93933"},{"Location":"FOG TOWN BAR AND GRILL","Address":"204 Carmel Ave","City":"Marina","State":"CA","Zip":"93933"},{"Location":"HOLIDAY INN EXP MARINA","Address":"189 Seaside Ave","City":"Marina","State":"CA","Zip":"93933"},{"Location":"ISIDRO'S TACO SHOP","Address":"3046 Del Monte Blvd","City":"Marina","State":"CA","Zip":"93933"},{"Location":"KOHL'S #1122","Address":"111 General Stillwell Dr","City":"Marina","State":"CA","Zip":"93933"},{"Location":"LEE & BUZZS COCTAIL LOUN","Address":"3100 Del Monte Blvd","City":"Marina","State":"CA","Zip":"93933"},{"Location":"LOLAS KUSINA","Address":"265 Reservation Rd Ste","City":"Marina","State":"CA","Zip":"93933"},{"Location":"LUXURY NAILS AND SPA","Address":"3170 Vista Del Camino K","City":"Marina","State":"CA","Zip":"93933"},{"Location":"MARINA CLUB CARD ROOM","Address":"204 Carmel Ave","City":"Marina","State":"CA","Zip":"93933"},{"Location":"MORTIMER S CARD ROOM","Address":"3100 Del Monte Blvd","City":"Marina","State":"CA","Zip":"93933"},{"Location":"PENINSULA WELLNESS CENTER","Address":"2920 2nd Ave 100","City":"Marina","State":"CA","Zip":"93933"},{"Location":"PHO LUCKY","Address":"266 Reservation Rd R","City":"Marina","State":"CA","Zip":"93933"},{"Location":"ROMAN CATHOLIC BISHOP MO","Address":"3340 Del Monte Blvd 3","City":"Marina","State":"CA","Zip":"93933"},{"Location":"SANCTUARY-LOBBY","Address":"3295 Dunes Rd","City":"Marina","State":"CA","Zip":"93933"},{"Location":"ST JUDES PARISH","Address":"303 Hillcrest Ave","City":"Marina","State":"CA","Zip":"93933"},{"Location":"THE OTTERS DEN","Address":"3160 Vista Del Camino B","City":"Marina","State":"CA","Zip":"93933"},{"Location":"VAPE 3 ONE","Address":"3074 Delmonte Blvd","City":"Marina","State":"CA","Zip":"93933"},{"Location":"VTC 1","Address":"220 12th St","City":"Marina","State":"CA","Zip":"93933"}]