[{"Location":"CENTRAL COAST PIZZA","Address":"500 Canal St B","City":"King City","State":"CA","Zip":"93930"},{"Location":"CHEEZERS PIZZA","Address":"232 Broadway St","City":"King City","State":"CA","Zip":"93930"},{"Location":"JONATHAN LIVNE DDS","Address":"220 N Vanderhurst Ave","City":"King City","State":"CA","Zip":"93930"},{"Location":"KASEYS FITNESS ACADEMY","Address":"180 E San Antonio Dr 180","City":"King City","State":"CA","Zip":"93930"},{"Location":"KING CITY GOLF COURSE","Address":"613 S Vanderhurst Ave","City":"King City","State":"CA","Zip":"93930"},{"Location":"MCDONALDS","Address":"1350 Broadway St","City":"King City","State":"CA","Zip":"93930"},{"Location":"MEE MEMORIAL","Address":"702 Canal St B","City":"King City","State":"CA","Zip":"93930"},{"Location":"MEE MEMORIAL 4","Address":"710 Bassett St 2","City":"King City","State":"CA","Zip":"93930"},{"Location":"PINE CANYON FIRE DEPT","Address":"51251 Pine Canyon Rd","City":"King City","State":"CA","Zip":"93930"},{"Location":"RAYS GARAGE","Address":"730 S 1st St","City":"King City","State":"CA","Zip":"93930"},{"Location":"THE FAMILY MEDICAL CENTER","Address":"400 Canal St A","City":"King City","State":"CA","Zip":"93930"},{"Location":"THE MONTERAY CITY SHERRIFS","Address":"250 Franciscan Way","City":"King City","State":"CA","Zip":"93930"},{"Location":"US FOREST SERVICE5","Address":"406 S Mildred Ave","City":"King City","State":"CA","Zip":"93930"},{"Location":"CENTRAL COAST PIZZA","Address":"500 Canal St B","City":"King City","State":"CA","Zip":"93930"},{"Location":"CHEEZERS PIZZA","Address":"232 Broadway St","City":"King City","State":"CA","Zip":"93930"},{"Location":"JONATHAN LIVNE DDS","Address":"220 N Vanderhurst Ave","City":"King City","State":"CA","Zip":"93930"},{"Location":"KASEYS FITNESS ACADEMY","Address":"180 E San Antonio Dr 180","City":"King City","State":"CA","Zip":"93930"},{"Location":"KING CITY GOLF COURSE","Address":"613 S Vanderhurst Ave","City":"King City","State":"CA","Zip":"93930"},{"Location":"MCDONALDS","Address":"1350 Broadway St","City":"King City","State":"CA","Zip":"93930"},{"Location":"MEE MEMORIAL","Address":"702 Canal St B","City":"King City","State":"CA","Zip":"93930"},{"Location":"MEE MEMORIAL 4","Address":"710 Bassett St 2","City":"King City","State":"CA","Zip":"93930"},{"Location":"PINE CANYON FIRE DEPT","Address":"51251 Pine Canyon Rd","City":"King City","State":"CA","Zip":"93930"},{"Location":"RAYS GARAGE","Address":"730 S 1st St","City":"King City","State":"CA","Zip":"93930"},{"Location":"THE FAMILY MEDICAL CENTER","Address":"400 Canal St A","City":"King City","State":"CA","Zip":"93930"},{"Location":"THE MONTERAY CITY SHERRIFS","Address":"250 Franciscan Way","City":"King City","State":"CA","Zip":"93930"},{"Location":"US FOREST SERVICE5","Address":"406 S Mildred Ave","City":"King City","State":"CA","Zip":"93930"}]