[{"Location":"PARKS AT MONTEREY BAY","Address":"1200 Fechteler Dr","City":"Del Rey Oaks","State":"CA","Zip":"93940"},{"Location":"AMERICAN BURGER","Address":"738 Lighthouse Ave","City":"Monterey","State":"CA","Zip":"93940"},{"Location":"AMERICAS BEST VALUE MONT","Address":"1150 Munras Ave","City":"Monterey","State":"CA","Zip":"93940"},{"Location":"AUGUSTINE CONSULTING","Address":"400 Pearl St","City":"Monterey","State":"CA","Zip":"93940"},{"Location":"BIANCHI KASAVAN AND POPE","Address":"1000 Munras Ave 200","City":"Monterey","State":"CA","Zip":"93940"},{"Location":"BLACK BEAR DINER","Address":"2450 Fremont St","City":"Monterey","State":"CA","Zip":"93940"},{"Location":"BLUE FIN CAFE & BILLIARDS","Address":"685 Cannery Row Bt31","City":"Monterey","State":"CA","Zip":"93940"},{"Location":"BRIJ LLC","Address":"1100 Munras Ave","City":"Monterey","State":"CA","Zip":"93940"},{"Location":"BRITANNIA ARMS","Address":"444 Alvarado St","City":"Monterey","State":"CA","Zip":"93940"},{"Location":"BUBBA GUMP SHIRMP","Address":"720 Cannery Row","City":"Monterey","State":"CA","Zip":"93940"},{"Location":"BULL DOG BRITISH PUB","Address":"611 Lighthouse Ave","City":"Monterey","State":"CA","Zip":"93940"},{"Location":"C LANE COMPANY","Address":"435 Washington St D","City":"Monterey","State":"CA","Zip":"93940"},{"Location":"CALIFORNIA CAPITAL INSUR","Address":"2300 Garden Rd","City":"Monterey","State":"CA","Zip":"93940"},{"Location":"CALIFORNIA PIZZA KITCHEN #213","Address":"1100 Del Monte Ctr","City":"Monterey","State":"CA","Zip":"93940"},{"Location":"CANNERY ROW BREWING","Address":"95 Prescott Ave","City":"Monterey","State":"CA","Zip":"93940"},{"Location":"CARBONE'S","Address":"214 Lighthouse Ave","City":"Monterey","State":"CA","Zip":"93940"},{"Location":"CB RICHARD ELLIS","Address":"20 Ryan Ranch Rd","City":"Monterey","State":"CA","Zip":"93940"},{"Location":"CHARACTER SPORTS BAR","Address":"350 Calle Principal","City":"Monterey","State":"CA","Zip":"93940"},{"Location":"CHART HOUSE","Address":"444 Cannery Row","City":"Monterey","State":"CA","Zip":"93940"},{"Location":"CRABBY JIMS SEAFOOD","Address":"25 Fishermans Wharf","City":"Monterey","State":"CA","Zip":"93940"},{"Location":"CYPRESS RIDGE CARE","Address":"1501 Skyline Dr","City":"Monterey","State":"CA","Zip":"93940"},{"Location":"CYPRESS STUDIO","Address":"580 Casanova Ave","City":"Monterey","State":"CA","Zip":"93940"},{"Location":"DEL MONTE AVIATION","Address":"100 Skypark Dr","City":"Monterey","State":"CA","Zip":"93940"},{"Location":"DR STEPHEN IKEMIYA","Address":"333 El Dorado St","City":"Monterey","State":"CA","Zip":"93940"},{"Location":"DR TIM A AUGER","Address":"335 El Dorado St Ste8","City":"Monterey","State":"CA","Zip":"93940"},{"Location":"EASY STREET BILLIARDS","Address":"511 Tyler St","City":"Monterey","State":"CA","Zip":"93940"},{"Location":"EL TORITO 7162","Address":"600 Cannery Row","City":"Monterey","State":"CA","Zip":"93940"},{"Location":"ELKS LODGE","Address":"150 Mar Vista Dr","City":"Monterey","State":"CA","Zip":"93940"},{"Location":"EULLWACKERS","Address":"653 Cannery Row","City":"Monterey","State":"CA","Zip":"93940"},{"Location":"EXCELLIGENCE","Address":"2 2  #ragsd","City":"Monterey","State":"CA","Zip":"93940"},{"Location":"FIDELITY INVESTMENTS 242","Address":"553 Munras Ave","City":"Monterey","State":"CA","Zip":"93940"},{"Location":"FIRST NATIONAL BANK OF CENTRAL","Address":"435 Washington St St-a","City":"Monterey","State":"CA","Zip":"93940"},{"Location":"FOODSOURCE%2FROBINSON","Address":"100 Wilson Rd 200","City":"Monterey","State":"CA","Zip":"93940"},{"Location":"FRANCOS BARBER SHOP","Address":"834 Abrego St","City":"Monterey","State":"CA","Zip":"93940"},{"Location":"GIANNI'S PIZZA","Address":"725 Lighthouse Ave","City":"Monterey","State":"CA","Zip":"93940"},{"Location":"GOLD'S GYM","Address":"2000 Garden Rd","City":"Monterey","State":"CA","Zip":"93940"},{"Location":"HAPPY DRAGON","Address":"2329 Fremont St","City":"Monterey","State":"CA","Zip":"93940"},{"Location":"HILTON (0045005)","Address":"1000 Aguajito Rd","City":"Monterey","State":"CA","Zip":"93940"},{"Location":"ISLANDS RESTAURANT #062","Address":"300 Del Monte Ctr","City":"Monterey","State":"CA","Zip":"93940"},{"Location":"JEFF EALY GENERAL CONTRA","Address":"5 Harris Ct Bldgn","City":"Monterey","State":"CA","Zip":"93940"},{"Location":"KNUCKLES SPORTS BAR","Address":"1 Old Golf Course Rd","City":"Monterey","State":"CA","Zip":"93940"},{"Location":"LAGUNA SECA GOLF RANCH","Address":"10520 York Rd","City":"Monterey","State":"CA","Zip":"93940"},{"Location":"LILY KAYKHA","Address":"1001 Pacific St E","City":"Monterey","State":"CA","Zip":"93940"},{"Location":"LONDON BRIDGE","Address":"256 Figueroa St","City":"Monterey","State":"CA","Zip":"93940"},{"Location":"MACY'S #361BR WEST","Address":"100 Del Monte Ctr","City":"Monterey","State":"CA","Zip":"93940"},{"Location":"MACY'S 366BR WEST","Address":"260 Del Monte Ctr","City":"Monterey","State":"CA","Zip":"93940"},{"Location":"MACY'S WEST 361","Address":"100 Del Monte Ctr","City":"Monterey","State":"CA","Zip":"93940"},{"Location":"MARY JANES NOVELTIES","Address":"744 Lighthouse Ave","City":"Monterey","State":"CA","Zip":"93940"},{"Location":"MEDICAL CLAIM AND BILLIN","Address":"8 Harris Ct A6","City":"Monterey","State":"CA","Zip":"93940"},{"Location":"MEN'S WEARHOUSE #2186","Address":"390 Del Monte Ctr","City":"Monterey","State":"CA","Zip":"93940"},{"Location":"MONTEREY AUTO SUPPLY INC","Address":"2320 Del Monte Ave C1","City":"Monterey","State":"CA","Zip":"93940"},{"Location":"MONTEREY BAY MOTORS","Address":"1179 Del Monte Ave","City":"Monterey","State":"CA","Zip":"93940"},{"Location":"MONTEREY BEACH HOTEL (0038546)","Address":"2600 Sand Dunes Dr","City":"Monterey","State":"CA","Zip":"93940"},{"Location":"MONTEREY COOKHOUSE","Address":"2149 Fremont St","City":"Monterey","State":"CA","Zip":"93940"},{"Location":"MONTEREY CREPE CO","Address":"321 Alvarado St","City":"Monterey","State":"CA","Zip":"93940"},{"Location":"MONTEREY MOOSE LODGE","Address":"555 Canyon Del Rey Blvd","City":"Monterey","State":"CA","Zip":"93940"},{"Location":"MONTEREY PENINSULA COLLEGE","Address":"980 Fremont St","City":"Monterey","State":"CA","Zip":"93940"},{"Location":"MONTEREY PENINSULA SURGERY CTR","Address":"665 Munras Ave 100","City":"Monterey","State":"CA","Zip":"93940"},{"Location":"MONTEREY PLAZA HOTEL (0015466)","Address":"400 Cannery Row","City":"Monterey","State":"CA","Zip":"93940"},{"Location":"MONTEREY RACE PLACE","Address":"2004 Fairground Rd","City":"Monterey","State":"CA","Zip":"93940"},{"Location":"MONTEREY SALINAS TRANSIT #2","Address":"1 Ryan Ranch Rd","City":"Monterey","State":"CA","Zip":"93940"},{"Location":"MONTEREY TRUST MANAGEMEN","Address":"400 Camino El Esteros","City":"Monterey","State":"CA","Zip":"93940"},{"Location":"MORGAN STANLEY 100123","Address":"401 Fremont St 123","City":"Monterey","State":"CA","Zip":"93940"},{"Location":"MOTEL 6 MONTEREY","Address":"1240 Munras Ave","City":"Monterey","State":"CA","Zip":"93940"},{"Location":"PASADERA HOA","Address":"100 Pasadera Dr","City":"Monterey","State":"CA","Zip":"93940"},{"Location":"PEBBLE BEACH -DEL-MONTE GOLF","Address":"1095 Castro Rd","City":"Monterey","State":"CA","Zip":"93940"},{"Location":"PENINSULATORS INC","Address":"528 Abrego St","City":"Monterey","State":"CA","Zip":"93940"},{"Location":"PETER B'S BREWPUB","Address":"2 Portola Plz","City":"Monterey","State":"CA","Zip":"93940"},{"Location":"PF CHANG'S #9835","Address":"1200 Del Monte Ctr","City":"Monterey","State":"CA","Zip":"93940"},{"Location":"PIZZA MY HEART","Address":"660 Del Monte Ctr","City":"Monterey","State":"CA","Zip":"93940"},{"Location":"PRO TOP NAILS","Address":"740 Lighthouse Ave","City":"Monterey","State":"CA","Zip":"93940"},{"Location":"ROBERT TALBOTT","Address":"2901 Highway 68","City":"Monterey","State":"CA","Zip":"93940"},{"Location":"SALS ALLEY SIDE CAFE","Address":"204 Lighthouse Ave","City":"Monterey","State":"CA","Zip":"93940"},{"Location":"SANTA LUCIA CAFE","Address":"484 Washington St A","City":"Monterey","State":"CA","Zip":"93940"},{"Location":"SAPPORO","Address":"3 Fishermans Wharf 2","City":"Monterey","State":"CA","Zip":"93940"},{"Location":"SLY NEFLY","Address":"700 Cannery Row","City":"Monterey","State":"CA","Zip":"93940"},{"Location":"SNAP FITNESS #1456","Address":"399 Lighthouse Ave","City":"Monterey","State":"CA","Zip":"93940"},{"Location":"SOUTHWEST SECURITIES INC","Address":"24600 Silver Cloud Ct 200","City":"Monterey","State":"CA","Zip":"93940"},{"Location":"STAHL MOTOR COMPANY","Address":"2330 Del Monte Ave","City":"Monterey","State":"CA","Zip":"93940"},{"Location":"STIFEL NICOLAUS","Address":"30 Ryan Ct 250","City":"Monterey","State":"CA","Zip":"93940"},{"Location":"STONE CREEK NAILS","Address":"457 Canyon Del Rey Blvd","City":"Monterey","State":"CA","Zip":"93940"},{"Location":"TARPY ROAD HOUSE","Address":"2999 Salinas Hwy","City":"Monterey","State":"CA","Zip":"93940"},{"Location":"THE MUCKY DUCK","Address":"479 Alvarado St","City":"Monterey","State":"CA","Zip":"93940"},{"Location":"THE OTHER SIDE","Address":"724 Abrego St","City":"Monterey","State":"CA","Zip":"93940"},{"Location":"TICO TACO","Address":"751 Cannery Row 121","City":"Monterey","State":"CA","Zip":"93940"},{"Location":"TS69282020000000XXAOXXMRYXTVXX","Address":"200 Fred Kane Dr","City":"Monterey","State":"CA","Zip":"93940"},{"Location":"TURN 12 BAR GRILL","Address":"400 Tyler St","City":"Monterey","State":"CA","Zip":"93940"},{"Location":"UNION BANK 537","Address":"1400 Munras Ave","City":"Monterey","State":"CA","Zip":"93940"},{"Location":"US COAST GUARD HAWKSBILL","Address":"100 Lighthouse Ave","City":"Monterey","State":"CA","Zip":"93940"},{"Location":"USCG STATION MONTEREY","Address":"100 Lighthouse Ave","City":"Monterey","State":"CA","Zip":"93940"},{"Location":"WILLIAM F DODSON%2C DDS","Address":"24551 Silver Cloud Ct","City":"Monterey","State":"CA","Zip":"93940"},{"Location":"YAMA SUSHI","Address":"1290 Del Monte Ctr 92","City":"Monterey","State":"CA","Zip":"93940"},{"Location":"SALINAS VALLEY MEMORIAL HOSP","Address":"5 Lower Ragelsdale","City":"Salinas","State":"CA","Zip":"93940"}]