[{"Location":"SPORTS AUTHORITY 719","Address":"905 Playa Ave","City":"Sand City","State":"CA","Zip":"93955"},{"Location":"BEAUTIFUL NAILS","Address":"1780 Fremont Blvd F","City":"Seaside","State":"CA","Zip":"93955"},{"Location":"BLACK HORSE","Address":"1 Mcclure Way","City":"Seaside","State":"CA","Zip":"93955"},{"Location":"BROADWAY CARPETS","Address":"1049 Broadway Ave","City":"Seaside","State":"CA","Zip":"93955"},{"Location":"BUFFALO WILD WINGS #0416","Address":"1553 Fremont Blvd","City":"Seaside","State":"CA","Zip":"93955"},{"Location":"CARDINALE GMC1","Address":"2 Heitzinger Plz","City":"Seaside","State":"CA","Zip":"93955"},{"Location":"CHILI'S #0970","Address":"1349 Canyon Del Rey Blvd","City":"Seaside","State":"CA","Zip":"93955"},{"Location":"CUZS SPORTSMAN","Address":"594 Broadway Ave","City":"Seaside","State":"CA","Zip":"93955"},{"Location":"GRAND NEW BUFFET","Address":"1732 Fremont Blvd","City":"Seaside","State":"CA","Zip":"93955"},{"Location":"GUSTO PIZZERIA","Address":"1901 Fremont Blvd","City":"Seaside","State":"CA","Zip":"93955"},{"Location":"HEI AT MONTEREY BAY","Address":"1400 Del Monte Blvd","City":"Seaside","State":"CA","Zip":"93955"},{"Location":"JERSEYS ORIGINAL SUBS","Address":"832 Playa Ave","City":"Seaside","State":"CA","Zip":"93955"},{"Location":"MONTEREY RADIATOR","Address":"1624 Del Monte Blvd","City":"Seaside","State":"CA","Zip":"93955"},{"Location":"NISPEROS ENTERPRISES","Address":"1925 Del Monte Blvd","City":"Seaside","State":"CA","Zip":"93955"},{"Location":"PALERMO BAKERY","Address":"1620 Fremont Blvd","City":"Seaside","State":"CA","Zip":"93955"},{"Location":"PARADISE NAILS","Address":"1918 Fremont Blvd","City":"Seaside","State":"CA","Zip":"93955"},{"Location":"PARKS AT MONTEREY BAY","Address":"4518 Joe Lloyd Way","City":"Seaside","State":"CA","Zip":"93955"},{"Location":"PIZZA MY WAY","Address":"4235 Gigling Rd","City":"Seaside","State":"CA","Zip":"93955"},{"Location":"PLANNED PARENTHOOD SEASIDE","Address":"625 Hilby Ave","City":"Seaside","State":"CA","Zip":"93955"},{"Location":"RAMIREZ PLUMBING","Address":"780 Redwood Ave","City":"Seaside","State":"CA","Zip":"93955"},{"Location":"ROUND TABLE PIZZA","Address":"1717 Fremont Blvd","City":"Seaside","State":"CA","Zip":"93955"},{"Location":"SHADOW BOX INC","Address":"1904 Fremont Blvd","City":"Seaside","State":"CA","Zip":"93955"},{"Location":"ST FRANCIS XAVIER CHURCH","Address":"1475 La Salle Ave","City":"Seaside","State":"CA","Zip":"93955"},{"Location":"SUNDANCE SPA","Address":"885 Broadway Ave","City":"Seaside","State":"CA","Zip":"93955"},{"Location":"TAQUERIA ZARAPE","Address":"1107 Fremont Blvd","City":"Seaside","State":"CA","Zip":"93955"},{"Location":"TARGET","Address":"2040 California Ave","City":"Seaside","State":"CA","Zip":"93955"},{"Location":"TASTE OF VIETNAM","Address":"1868 Fremont Blvd","City":"Seaside","State":"CA","Zip":"93955"},{"Location":"THE DUNES BAR","Address":"500 Broadway Ave","City":"Seaside","State":"CA","Zip":"93955"},{"Location":"THE GOLDEN CHINA","Address":"1784 Fremont Blvd","City":"Seaside","State":"CA","Zip":"93955"},{"Location":"THE HAIR COMPANY","Address":"1137 Broadway Ave","City":"Seaside","State":"CA","Zip":"93955"},{"Location":"THE SPORTS PROJECT AT MO","Address":"855 Broadway Ave","City":"Seaside","State":"CA","Zip":"93955"},{"Location":"TURTLE BAY TAQUERIA","Address":"1301 Fremont Blvd","City":"Seaside","State":"CA","Zip":"93955"},{"Location":"VETERANS OF FOREIGN WARS","Address":"1996 Fremont Blvd","City":"Seaside","State":"CA","Zip":"93955"},{"Location":"WINGSTOP 1","Address":"1951 Fremont Blvd","City":"Seaside","State":"CA","Zip":"93955"}]