[{"Location":"17TH STREET GRILLE","Address":"617 Lighthouse Ave","City":"Pacific Grove","State":"CA","Zip":"93950"},{"Location":"BEACON HOUSE","Address":"468 Pine Ave","City":"Pacific Grove","State":"CA","Zip":"93950"},{"Location":"DAVID JOHNSON","Address":"303 Grand Ave 1","City":"Pacific Grove","State":"CA","Zip":"93950"},{"Location":"FANDANGO RESTAURANT","Address":"223 17th St","City":"Pacific Grove","State":"CA","Zip":"93950"},{"Location":"IN SHAPE HEATH CLUBS PACIFIC G","Address":"1146 Forest Ave","City":"Pacific Grove","State":"CA","Zip":"93950"},{"Location":"LA PICCOLA CASA PIZZERIA","Address":"212 17th St","City":"Pacific Grove","State":"CA","Zip":"93950"},{"Location":"PACIFIC GROVE LIQUORS","Address":"229 Grand Ave","City":"Pacific Grove","State":"CA","Zip":"93950"},{"Location":"PIZZA MY WAY","Address":"1157 Forest Ave D","City":"Pacific Grove","State":"CA","Zip":"93950"},{"Location":"TASTE CAFE & BISTRO","Address":"1199 Forest Ave","City":"Pacific Grove","State":"CA","Zip":"93950"},{"Location":"UNION BANK 607","Address":"580 Lighthouse Ave","City":"Pacific Grove","State":"CA","Zip":"93950"},{"Location":"YI'S","Address":"1184 Forest Ave #e","City":"Pacific Grove","State":"CA","Zip":"93950"}]