[{"Location":"AMERICAN MEDICAL RESPONSE S","Address":"730 Monterey St","City":"Soledad","State":"CA","Zip":"93960"},{"Location":"CENTRAL COAST F C U","Address":"315 Gabilan Dr","City":"Soledad","State":"CA","Zip":"93960"},{"Location":"CHAPPELL.","Address":"2173 H De La Rosa Sr St","City":"Soledad","State":"CA","Zip":"93960"},{"Location":"CITY OF SOLEDAD PD","Address":"236 Main St","City":"Soledad","State":"CA","Zip":"93960"},{"Location":"CORRECTIONS FCU","Address":"Northbound Highway 101 5","City":"Soledad","State":"CA","Zip":"93960"},{"Location":"CORRECTIONS FEDERAL CREDIT UNI","Address":"31625 Highway 101 S","City":"Soledad","State":"CA","Zip":"93960"},{"Location":"DAVITA #433 SOLEDAD","Address":"901 Los Coches Dr","City":"Soledad","State":"CA","Zip":"93960"},{"Location":"FIESTA AUTO INSURANCE","Address":"887 Front St","City":"Soledad","State":"CA","Zip":"93960"},{"Location":"FRANKIES GRILL","Address":"185 Kidder St","City":"Soledad","State":"CA","Zip":"93960"},{"Location":"GABILAN DENTAL","Address":"327 Gabilan Dr","City":"Soledad","State":"CA","Zip":"93960"},{"Location":"MCDONALDS","Address":"1215 Front St","City":"Soledad","State":"CA","Zip":"93960"},{"Location":"MI FIESTA LIQUID STORE","Address":"501 Front St","City":"Soledad","State":"CA","Zip":"93960"},{"Location":"MISSION DENTAL","Address":"2530 H De La Rosa Sr St","City":"Soledad","State":"CA","Zip":"93960"},{"Location":"ROUND TABLE PIZZA","Address":"2135 H Dela Rosa Sr St","City":"Soledad","State":"CA","Zip":"93960"},{"Location":"SOLEDAD BAR AND GRILL","Address":"235 West St","City":"Soledad","State":"CA","Zip":"93960"},{"Location":"UNION BANK","Address":"695 Front St","City":"Soledad","State":"CA","Zip":"93960"},{"Location":"GABILAN CAMP","Address":"Hwy 101 N","City":"Solodad","State":"CA","Zip":"93960"}]