[{"Location":"AUTOBAHN MOTORS","Address":"700 Island Pkwy","City":"Belmont","State":"CA","Zip":"94002"},{"Location":"AUTOBAHN MOTORS ANNEX","Address":"1315 Elmer St","City":"Belmont","State":"CA","Zip":"94002"},{"Location":"BAY AREA BOXING","Address":"210 El Camino Real","City":"Belmont","State":"CA","Zip":"94002"},{"Location":"BELMONT CONSTRUCTION","Address":"579 Mountain View Ave","City":"Belmont","State":"CA","Zip":"94002"},{"Location":"BRIEN SHAMP BOOT CAMP","Address":"603 Harbor Blvd","City":"Belmont","State":"CA","Zip":"94002"},{"Location":"CAPRINOA","Address":"1000 Sixth Ave","City":"Belmont","State":"CA","Zip":"94002"},{"Location":"DIAMOND IN THE RUFF BASE","Address":"519 Marine View Ave J","City":"Belmont","State":"CA","Zip":"94002"},{"Location":"DIVINO","Address":"968 Ralston Ave","City":"Belmont","State":"CA","Zip":"94002"},{"Location":"FIRESTONE #122157","Address":"120 El Camino Real","City":"Belmont","State":"CA","Zip":"94002"},{"Location":"HOLIDAY INN EXP & SUITES","Address":"1650 El Camino Real","City":"Belmont","State":"CA","Zip":"94002"},{"Location":"HUMAN SERVICES AGENCY","Address":"1 Davis Dr","City":"Belmont","State":"CA","Zip":"94002"},{"Location":"IRON GATE RESTAURANT","Address":"1360 El Camino Real","City":"Belmont","State":"CA","Zip":"94002"},{"Location":"MCGRAWS BAR AND GRILL","Address":"864 El Camino Real","City":"Belmont","State":"CA","Zip":"94002"},{"Location":"MMT TAX SERVICES","Address":"2103 Forest Ave","City":"Belmont","State":"CA","Zip":"94002"},{"Location":"MOUNTAIN MIKES PIZZA","Address":"390 El Camino Real A","City":"Belmont","State":"CA","Zip":"94002"},{"Location":"MR PICKLE","Address":"891 Ralston Ave","City":"Belmont","State":"CA","Zip":"94002"},{"Location":"NIKON PRECISION INC.","Address":"1399 Shoreway Rd","City":"Belmont","State":"CA","Zip":"94002"},{"Location":"NOTRE DAME DE NAM UR","Address":"1500 Ralston Ave","City":"Belmont","State":"CA","Zip":"94002"},{"Location":"PETERSON PRODUCTS","Address":"1325 Old County Rd","City":"Belmont","State":"CA","Zip":"94002"},{"Location":"RESPONSIVE DATA SYSTEMS","Address":"1301 Shoreway Rd 110","City":"Belmont","State":"CA","Zip":"94002"},{"Location":"RINGCENTRAL","Address":"20 Davis Dr","City":"Belmont","State":"CA","Zip":"94002"},{"Location":"SILVERADO COMMON AREA","Address":"1301 Ralston Ave","City":"Belmont","State":"CA","Zip":"94002"},{"Location":"SUPERCUTS","Address":"1250 El Camino Real","City":"Belmont","State":"CA","Zip":"94002"},{"Location":"SUSHI MONSTER","Address":"955 Ralston Ave","City":"Belmont","State":"CA","Zip":"94002"},{"Location":"TAUBE INVESTMENTS","Address":"1050 Ralston Ave","City":"Belmont","State":"CA","Zip":"94002"},{"Location":"THE LARIAT","Address":"1428 El Camino Real","City":"Belmont","State":"CA","Zip":"94002"},{"Location":"THE NEW HARBOR","Address":"150 Harbor Blvd","City":"Belmont","State":"CA","Zip":"94002"},{"Location":"THE VANS RESTAURANT 0N THE HIL","Address":"815 Belmont Ave","City":"Belmont","State":"CA","Zip":"94002"},{"Location":"TODD OEANUES","Address":"530b Marine View Ave","City":"Belmont","State":"CA","Zip":"94002"},{"Location":"TOTOS RESTAURANT","Address":"1250 El Camino Real B","City":"Belmont","State":"CA","Zip":"94002"},{"Location":"UP THE MIDDLE","Address":"201 Old County Rd","City":"Belmont","State":"CA","Zip":"94002"},{"Location":"VWG ELECTRONICS RESEARCH","Address":"500 Clipper Dr","City":"Belmont","State":"CA","Zip":"94002"},{"Location":"WENDYS 3959","Address":"698 Ralston Ave","City":"Belmont","State":"CA","Zip":"94002"},{"Location":"WHICH WICH #306","Address":"1000 Elcamino Real #c","City":"Belmont","State":"CA","Zip":"94002"},{"Location":"WOODS SERVICE CENTER","Address":"844 Old County Rd","City":"Belmont","State":"CA","Zip":"94002"},{"Location":"YAMA SUSHI","Address":"889 Ralston Ave","City":"Belmont","State":"CA","Zip":"94002"},{"Location":"SAN MATEO POLICE DEPT","Address":"200 Franklin Park","City":"San Mateo","State":"CA","Zip":"94002"},{"Location":"AUTOBAHN MOTORS","Address":"700 Island Pkwy","City":"Belmont","State":"CA","Zip":"94002"},{"Location":"AUTOBAHN MOTORS ANNEX","Address":"1315 Elmer St","City":"Belmont","State":"CA","Zip":"94002"},{"Location":"BAY AREA BOXING","Address":"210 El Camino Real","City":"Belmont","State":"CA","Zip":"94002"},{"Location":"BELMONT CONSTRUCTION","Address":"579 Mountain View Ave","City":"Belmont","State":"CA","Zip":"94002"},{"Location":"BRIEN SHAMP BOOT CAMP","Address":"603 Harbor Blvd","City":"Belmont","State":"CA","Zip":"94002"},{"Location":"CAPRINOA","Address":"1000 Sixth Ave","City":"Belmont","State":"CA","Zip":"94002"},{"Location":"DIAMOND IN THE RUFF BASE","Address":"519 Marine View Ave J","City":"Belmont","State":"CA","Zip":"94002"},{"Location":"DIVINO","Address":"968 Ralston Ave","City":"Belmont","State":"CA","Zip":"94002"},{"Location":"FIRESTONE #122157","Address":"120 El Camino Real","City":"Belmont","State":"CA","Zip":"94002"},{"Location":"HOLIDAY INN EXP & SUITES","Address":"1650 El Camino Real","City":"Belmont","State":"CA","Zip":"94002"},{"Location":"HUMAN SERVICES AGENCY","Address":"1 Davis Dr","City":"Belmont","State":"CA","Zip":"94002"},{"Location":"IRON GATE RESTAURANT","Address":"1360 El Camino Real","City":"Belmont","State":"CA","Zip":"94002"},{"Location":"MCGRAWS BAR AND GRILL","Address":"864 El Camino Real","City":"Belmont","State":"CA","Zip":"94002"},{"Location":"MMT TAX SERVICES","Address":"2103 Forest Ave","City":"Belmont","State":"CA","Zip":"94002"},{"Location":"MOUNTAIN MIKES PIZZA","Address":"390 El Camino Real A","City":"Belmont","State":"CA","Zip":"94002"},{"Location":"MR PICKLE","Address":"891 Ralston Ave","City":"Belmont","State":"CA","Zip":"94002"},{"Location":"NIKON PRECISION INC.","Address":"1399 Shoreway Rd","City":"Belmont","State":"CA","Zip":"94002"},{"Location":"NOTRE DAME DE NAM UR","Address":"1500 Ralston Ave","City":"Belmont","State":"CA","Zip":"94002"},{"Location":"PETERSON PRODUCTS","Address":"1325 Old County Rd","City":"Belmont","State":"CA","Zip":"94002"},{"Location":"RESPONSIVE DATA SYSTEMS","Address":"1301 Shoreway Rd 110","City":"Belmont","State":"CA","Zip":"94002"},{"Location":"RINGCENTRAL","Address":"20 Davis Dr","City":"Belmont","State":"CA","Zip":"94002"},{"Location":"SILVERADO COMMON AREA","Address":"1301 Ralston Ave","City":"Belmont","State":"CA","Zip":"94002"},{"Location":"SUPERCUTS","Address":"1250 El Camino Real","City":"Belmont","State":"CA","Zip":"94002"},{"Location":"SUSHI MONSTER","Address":"955 Ralston Ave","City":"Belmont","State":"CA","Zip":"94002"},{"Location":"TAUBE INVESTMENTS","Address":"1050 Ralston Ave","City":"Belmont","State":"CA","Zip":"94002"},{"Location":"THE LARIAT","Address":"1428 El Camino Real","City":"Belmont","State":"CA","Zip":"94002"},{"Location":"THE NEW HARBOR","Address":"150 Harbor Blvd","City":"Belmont","State":"CA","Zip":"94002"},{"Location":"THE VANS RESTAURANT 0N THE HIL","Address":"815 Belmont Ave","City":"Belmont","State":"CA","Zip":"94002"},{"Location":"TODD OEANUES","Address":"530b Marine View Ave","City":"Belmont","State":"CA","Zip":"94002"},{"Location":"TOTOS RESTAURANT","Address":"1250 El Camino Real B","City":"Belmont","State":"CA","Zip":"94002"},{"Location":"UP THE MIDDLE","Address":"201 Old County Rd","City":"Belmont","State":"CA","Zip":"94002"},{"Location":"VWG ELECTRONICS RESEARCH","Address":"500 Clipper Dr","City":"Belmont","State":"CA","Zip":"94002"},{"Location":"WENDYS 3959","Address":"698 Ralston Ave","City":"Belmont","State":"CA","Zip":"94002"},{"Location":"WHICH WICH #306","Address":"1000 Elcamino Real #c","City":"Belmont","State":"CA","Zip":"94002"},{"Location":"WOODS SERVICE CENTER","Address":"844 Old County Rd","City":"Belmont","State":"CA","Zip":"94002"},{"Location":"YAMA SUSHI","Address":"889 Ralston Ave","City":"Belmont","State":"CA","Zip":"94002"},{"Location":"SAN MATEO POLICE DEPT","Address":"200 Franklin Park","City":"San Mateo","State":"CA","Zip":"94002"}]