[{"Location":"7 MILE HOUSE","Address":"2800 Bayshore Blvd","City":"Brisbane","State":"CA","Zip":"94005"},{"Location":"BI RITE FOODSERVICE","Address":"123 S Hill Dr","City":"Brisbane","State":"CA","Zip":"94005"},{"Location":"DIAMOND INVESTMENT PROPE","Address":"2000 Sierra Point Pkwy 100","City":"Brisbane","State":"CA","Zip":"94005"},{"Location":"EXPEDITOR INTERNATIONAL","Address":"425 Valley Dr","City":"Brisbane","State":"CA","Zip":"94005"},{"Location":"FLORIAN  INDUSTRIES","Address":"151 Industrial Way","City":"Brisbane","State":"CA","Zip":"94005"},{"Location":"GENERATORS UNLIMITED","Address":"285 Industrial Way","City":"Brisbane","State":"CA","Zip":"94005"},{"Location":"GLAM MEDIA","Address":"2000 Sierra Point Pkwy 10","City":"Brisbane","State":"CA","Zip":"94005"},{"Location":"HYPERION THERAPEUTICS","Address":"2000 Sierra Point Pkwy 400","City":"Brisbane","State":"CA","Zip":"94005"},{"Location":"JERICHO PROJECTS","Address":"470 Valley Dr","City":"Brisbane","State":"CA","Zip":"94005"},{"Location":"MACHINERY & EQUIPMENT CO","Address":"3401 Bayshore Blvd","City":"Brisbane","State":"CA","Zip":"94005"},{"Location":"NUTRA GROUP INC","Address":"200 Industrial Way","City":"Brisbane","State":"CA","Zip":"94005"},{"Location":"SIERRA YACHT CLUB","Address":"500 Sierra Point Pkwy","City":"Brisbane","State":"CA","Zip":"94005"},{"Location":"SOKUNTHEA PIZZICONI","Address":"138 Old County Rd","City":"Brisbane","State":"CA","Zip":"94005"},{"Location":"STEVE GOTELLI PLUMBING","Address":"100 N Hill Dr 44","City":"Brisbane","State":"CA","Zip":"94005"},{"Location":"TRILUM GRAPHICS","Address":"91 Park Ln","City":"Brisbane","State":"CA","Zip":"94005"}]