[{"Location":"CAFE CAPISTRANO","Address":"523 Church St","City":"Half Moon Bay","State":"CA","Zip":"94019"},{"Location":"CAMERON'S RESTAURANT","Address":"1410 Cabrillo Hwy S","City":"Half Moon Bay","State":"CA","Zip":"94019"},{"Location":"CANADA COVE MOBILE PARK","Address":"101 Canada Cove Ave","City":"Half Moon Bay","State":"CA","Zip":"94019"},{"Location":"CETRELLA","Address":"845 Main St","City":"Half Moon Bay","State":"CA","Zip":"94019"},{"Location":"CHINA HOUSE","Address":"20 Stone Pine Rd","City":"Half Moon Bay","State":"CA","Zip":"94019"},{"Location":"COWBOY FISHING CO","Address":"730 Main St","City":"Half Moon Bay","State":"CA","Zip":"94019"},{"Location":"CUNHAS COUNTRY STORE 1","Address":"448 Main St","City":"Half Moon Bay","State":"CA","Zip":"94019"},{"Location":"CYPRESS INN","Address":"407 Mirada Rd","City":"Half Moon Bay","State":"CA","Zip":"94019"},{"Location":"FIT CLUB ONE LLC DBA SNAP FITN","Address":"20 Stone Pine Rd","City":"Half Moon Bay","State":"CA","Zip":"94019"},{"Location":"FLAVOR","Address":"260 Capistrano Rd Devin","City":"Half Moon Bay","State":"CA","Zip":"94019"},{"Location":"FLYING FISH GRILL","Address":"211 San Mateo Rd","City":"Half Moon Bay","State":"CA","Zip":"94019"},{"Location":"HALF MOON BAY YACHT CLUB","Address":"214 Princeton Ave","City":"Half Moon Bay","State":"CA","Zip":"94019"},{"Location":"HALFMOON BAY JOES","Address":"2380 Cabrillo Hwy S","City":"Half Moon Bay","State":"CA","Zip":"94019"},{"Location":"HMB TAFFY","Address":"270 Capistrano Rd 28","City":"Half Moon Bay","State":"CA","Zip":"94019"},{"Location":"ITS ITALIA","Address":"401 Main St","City":"Half Moon Bay","State":"CA","Zip":"94019"},{"Location":"JERSEY JOES COASTSIDE","Address":"40 Stone Pine Rd K","City":"Half Moon Bay","State":"CA","Zip":"94019"},{"Location":"MULLIN'S BAR AND GRILL","Address":"2 Miramontes Point Rd","City":"Half Moon Bay","State":"CA","Zip":"94019"},{"Location":"NANOS YOGURT SHACK","Address":"523 Main St","City":"Half Moon Bay","State":"CA","Zip":"94019"},{"Location":"NORTH AMERICAN TITLE COMPANY","Address":"711 Main St","City":"Half Moon Bay","State":"CA","Zip":"94019"},{"Location":"OCEANO HOTEL","Address":"280 Capistrano Rd","City":"Half Moon Bay","State":"CA","Zip":"94019"},{"Location":"OLD PRINCETON LANDING","Address":"460 Capiftrano Rd","City":"Half Moon Bay","State":"CA","Zip":"94019"},{"Location":"PAPERED PUP","Address":"225 Cabrillo Hwy S 119b","City":"Half Moon Bay","State":"CA","Zip":"94019"},{"Location":"PASTA MOON","Address":"315 Main St","City":"Half Moon Bay","State":"CA","Zip":"94019"},{"Location":"ROBBINS","Address":"50 Cabrillo Hwy N B2","City":"Half Moon Bay","State":"CA","Zip":"94019"},{"Location":"ROCKET FARMS","Address":"2651 Cabrillo Hwy N","City":"Half Moon Bay","State":"CA","Zip":"94019"},{"Location":"SAM'S CHOWDER HOUSE","Address":"4210 Cabrillo Hwy N","City":"Half Moon Bay","State":"CA","Zip":"94019"},{"Location":"STRAW HAT PIZZA","Address":"186 San Mateo Rd","City":"Half Moon Bay","State":"CA","Zip":"94019"},{"Location":"THE AMERICAN LEGION","Address":"470 Capistrano Rd","City":"Half Moon Bay","State":"CA","Zip":"94019"},{"Location":"THE BREWING ON HALF MOON BAY","Address":"390 Capistrano Rd","City":"Half Moon Bay","State":"CA","Zip":"94019"},{"Location":"TODAYS HAIRCUTS","Address":"101 Main St D","City":"Half Moon Bay","State":"CA","Zip":"94019"},{"Location":"CAFE CAPISTRANO","Address":"523 Church St","City":"Half Moon Bay","State":"CA","Zip":"94019"},{"Location":"CAMERON'S RESTAURANT","Address":"1410 Cabrillo Hwy S","City":"Half Moon Bay","State":"CA","Zip":"94019"},{"Location":"CANADA COVE MOBILE PARK","Address":"101 Canada Cove Ave","City":"Half Moon Bay","State":"CA","Zip":"94019"},{"Location":"CETRELLA","Address":"845 Main St","City":"Half Moon Bay","State":"CA","Zip":"94019"},{"Location":"CHINA HOUSE","Address":"20 Stone Pine Rd","City":"Half Moon Bay","State":"CA","Zip":"94019"},{"Location":"COWBOY FISHING CO","Address":"730 Main St","City":"Half Moon Bay","State":"CA","Zip":"94019"},{"Location":"CUNHAS COUNTRY STORE 1","Address":"448 Main St","City":"Half Moon Bay","State":"CA","Zip":"94019"},{"Location":"CYPRESS INN","Address":"407 Mirada Rd","City":"Half Moon Bay","State":"CA","Zip":"94019"},{"Location":"FIT CLUB ONE LLC DBA SNAP FITN","Address":"20 Stone Pine Rd","City":"Half Moon Bay","State":"CA","Zip":"94019"},{"Location":"FLAVOR","Address":"260 Capistrano Rd Devin","City":"Half Moon Bay","State":"CA","Zip":"94019"},{"Location":"FLYING FISH GRILL","Address":"211 San Mateo Rd","City":"Half Moon Bay","State":"CA","Zip":"94019"},{"Location":"HALF MOON BAY YACHT CLUB","Address":"214 Princeton Ave","City":"Half Moon Bay","State":"CA","Zip":"94019"},{"Location":"HALFMOON BAY JOES","Address":"2380 Cabrillo Hwy S","City":"Half Moon Bay","State":"CA","Zip":"94019"},{"Location":"HMB TAFFY","Address":"270 Capistrano Rd 28","City":"Half Moon Bay","State":"CA","Zip":"94019"},{"Location":"ITS ITALIA","Address":"401 Main St","City":"Half Moon Bay","State":"CA","Zip":"94019"},{"Location":"JERSEY JOES COASTSIDE","Address":"40 Stone Pine Rd K","City":"Half Moon Bay","State":"CA","Zip":"94019"},{"Location":"MULLIN'S BAR AND GRILL","Address":"2 Miramontes Point Rd","City":"Half Moon Bay","State":"CA","Zip":"94019"},{"Location":"NANOS YOGURT SHACK","Address":"523 Main St","City":"Half Moon Bay","State":"CA","Zip":"94019"},{"Location":"NORTH AMERICAN TITLE COMPANY","Address":"711 Main St","City":"Half Moon Bay","State":"CA","Zip":"94019"},{"Location":"OCEANO HOTEL","Address":"280 Capistrano Rd","City":"Half Moon Bay","State":"CA","Zip":"94019"},{"Location":"OLD PRINCETON LANDING","Address":"460 Capiftrano Rd","City":"Half Moon Bay","State":"CA","Zip":"94019"},{"Location":"PAPERED PUP","Address":"225 Cabrillo Hwy S 119b","City":"Half Moon Bay","State":"CA","Zip":"94019"},{"Location":"PASTA MOON","Address":"315 Main St","City":"Half Moon Bay","State":"CA","Zip":"94019"},{"Location":"ROBBINS","Address":"50 Cabrillo Hwy N B2","City":"Half Moon Bay","State":"CA","Zip":"94019"},{"Location":"ROCKET FARMS","Address":"2651 Cabrillo Hwy N","City":"Half Moon Bay","State":"CA","Zip":"94019"},{"Location":"SAM'S CHOWDER HOUSE","Address":"4210 Cabrillo Hwy N","City":"Half Moon Bay","State":"CA","Zip":"94019"},{"Location":"STRAW HAT PIZZA","Address":"186 San Mateo Rd","City":"Half Moon Bay","State":"CA","Zip":"94019"},{"Location":"THE AMERICAN LEGION","Address":"470 Capistrano Rd","City":"Half Moon Bay","State":"CA","Zip":"94019"},{"Location":"THE BREWING ON HALF MOON BAY","Address":"390 Capistrano Rd","City":"Half Moon Bay","State":"CA","Zip":"94019"},{"Location":"TODAYS HAIRCUTS","Address":"101 Main St D","City":"Half Moon Bay","State":"CA","Zip":"94019"}]