[{"Location":"ALABY","Address":"220 Lorton Ave","City":"Burlingame","State":"CA","Zip":"94010"},{"Location":"AMERICAN RED CROSS BAY AREA","Address":"1710 Trousdale Dr","City":"Burlingame","State":"CA","Zip":"94010"},{"Location":"BARREL HOUSE","Address":"305 California Dr","City":"Burlingame","State":"CA","Zip":"94010"},{"Location":"BENIHANA #1013 BURLINGAME","Address":"1496 Old Bayshore Hwy","City":"Burlingame","State":"CA","Zip":"94010"},{"Location":"BITGRAVITY","Address":"700 Airport Blvd 100","City":"Burlingame","State":"CA","Zip":"94010"},{"Location":"BOSHIK SHIN DBA HANABI","Address":"723 California Dr","City":"Burlingame","State":"CA","Zip":"94010"},{"Location":"BROADWAY TENNIS CENTER","Address":"60 Edwards Ct","City":"Burlingame","State":"CA","Zip":"94010"},{"Location":"BURLINGAME LAUNDROMAT","Address":"1255 California Dr","City":"Burlingame","State":"CA","Zip":"94010"},{"Location":"BURLINGAME PODIATRY GROUP","Address":"1750 El Camino 106","City":"Burlingame","State":"CA","Zip":"94010"},{"Location":"BURLINGAME POLICE","Address":"1111 Trousdale Dr","City":"Burlingame","State":"CA","Zip":"94010"},{"Location":"CHRIS CONWAY REAL ESTATE LOANS","Address":"1419 Burlingame Ave R","City":"Burlingame","State":"CA","Zip":"94010"},{"Location":"CHURCH OF CHRIST","Address":"770 Airport Blvd","City":"Burlingame","State":"CA","Zip":"94010"},{"Location":"CLEAVE BIOSCIENCES INC","Address":"866 Malcolm Rd 100","City":"Burlingame","State":"CA","Zip":"94010"},{"Location":"COCONUT BAY","Address":"1107 Howard Ave","City":"Burlingame","State":"CA","Zip":"94010"},{"Location":"COTCHETT PITRE & MCCARTHY LLP","Address":"840 Malcolm Rd 200","City":"Burlingame","State":"CA","Zip":"94010"},{"Location":"DAVITA #5643 BURLINGAME","Address":"1720 El Camino Real 12","City":"Burlingame","State":"CA","Zip":"94010"},{"Location":"DEL OLIVIA INC","Address":"1440 Burlingame Ave","City":"Burlingame","State":"CA","Zip":"94010"},{"Location":"EL TORITO 7152","Address":"1590 Old Bayshore Hwy","City":"Burlingame","State":"CA","Zip":"94010"},{"Location":"ELEPHANT BAR BURLINGAME","Address":"1600 Old Bayshore Hwy","City":"Burlingame","State":"CA","Zip":"94010"},{"Location":"EMBASSY SUITES (0011931)","Address":"150 Anza Blvd","City":"Burlingame","State":"CA","Zip":"94010"},{"Location":"FATTORIA E MARE","Address":"1095 Rollins Rd","City":"Burlingame","State":"CA","Zip":"94010"},{"Location":"FIDELITY INVESTMENTS 229","Address":"1411 Chapin Ave","City":"Burlingame","State":"CA","Zip":"94010"},{"Location":"FIRST REPUBLIC BANK","Address":"1155 California Dr","City":"Burlingame","State":"CA","Zip":"94010"},{"Location":"FLYING FOOD","Address":"810 Malcolm Rd","City":"Burlingame","State":"CA","Zip":"94010"},{"Location":"FOCUS DAY PROGRAM","Address":"755 California Dr A","City":"Burlingame","State":"CA","Zip":"94010"},{"Location":"HIGHWAY 29 WINE AND BIST","Address":"1300 Howard Ave","City":"Burlingame","State":"CA","Zip":"94010"},{"Location":"HILTON GARDEN INN","Address":"765 Airport Blvd","City":"Burlingame","State":"CA","Zip":"94010"},{"Location":"HILTON WORLDWIDE DOUBLETREE","Address":"835 Airport Blvd","City":"Burlingame","State":"CA","Zip":"94010"},{"Location":"HOLIDAY INN EXPRESS SAN FRAN","Address":"1250 Old Bayshore Hwy","City":"Burlingame","State":"CA","Zip":"94010"},{"Location":"HYATT REGENCY SAN FRANCISCO AI","Address":"1333 Bayshore Hwy","City":"Burlingame","State":"CA","Zip":"94010"},{"Location":"I PRIDE LLC","Address":"1125 Burlingame Ave","City":"Burlingame","State":"CA","Zip":"94010"},{"Location":"IGLESIA NI CRISTO","Address":"770 Airport Blvd","City":"Burlingame","State":"CA","Zip":"94010"},{"Location":"IL FORNAIO BURLINGAME","Address":"327 Lorton Ave","City":"Burlingame","State":"CA","Zip":"94010"},{"Location":"JOUGERT BAR","Address":"1115 Burlingame Ave","City":"Burlingame","State":"CA","Zip":"94010"},{"Location":"KATHY NAILS","Address":"1345 Howard Ave 101","City":"Burlingame","State":"CA","Zip":"94010"},{"Location":"KELLER WILLIAMS","Address":"1430 Howard Ave","City":"Burlingame","State":"CA","Zip":"94010"},{"Location":"KINCAIDS","Address":"60 Bay View Pl","City":"Burlingame","State":"CA","Zip":"94010"},{"Location":"KNUCKLES SPORTS BAR","Address":"1333 Bayshore Hwy","City":"Burlingame","State":"CA","Zip":"94010"},{"Location":"LA CORNETA","Address":"1123 Burlingame Ave","City":"Burlingame","State":"CA","Zip":"94010"},{"Location":"LILIAS DRAPES","Address":"1481 Rollins Rd","City":"Burlingame","State":"CA","Zip":"94010"},{"Location":"LOUNGE ONE FIFTY","Address":"150 Anza Blvd","City":"Burlingame","State":"CA","Zip":"94010"},{"Location":"LUCKY STRIKE FARMS INC","Address":"819 Cowan Rd","City":"Burlingame","State":"CA","Zip":"94010"},{"Location":"MARRIOTT HOTEL","Address":"1800 Bayshore Hwy","City":"Burlingame","State":"CA","Zip":"94010"},{"Location":"MERCY CENTER","Address":"2300 Adeline Dr","City":"Burlingame","State":"CA","Zip":"94010"},{"Location":"MILL PENINSULA HEALTH SERVICES","Address":"1875 Trousdale Dr","City":"Burlingame","State":"CA","Zip":"94010"},{"Location":"MORGAN STANLEY 100118","Address":"216 Lorton Ave 2fl","City":"Burlingame","State":"CA","Zip":"94010"},{"Location":"NEW ENGLAND LOBSTER AND","Address":"824 Cowan Rd","City":"Burlingame","State":"CA","Zip":"94010"},{"Location":"PADDY FLYNN'S","Address":"246 Lorton Ave","City":"Burlingame","State":"CA","Zip":"94010"},{"Location":"PUTNAM CHEVROLET CADILLAC","Address":"900 Peninsula Ave","City":"Burlingame","State":"CA","Zip":"94010"},{"Location":"ROCCA","Address":"1205 Broadway","City":"Burlingame","State":"CA","Zip":"94010"},{"Location":"SAMS ITALIAN SANDWICH COMPANY","Address":"1080 Howard Ave","City":"Burlingame","State":"CA","Zip":"94010"},{"Location":"SAN FRANCISCO SOUP CO.","Address":"270 Lorton Ave","City":"Burlingame","State":"CA","Zip":"94010"},{"Location":"SCHOOL APPAREL INC","Address":"838 Mitten Rd","City":"Burlingame","State":"CA","Zip":"94010"},{"Location":"SESAME KOREAN CUISINE","Address":"1355 Broadway","City":"Burlingame","State":"CA","Zip":"94010"},{"Location":"SISTERS OF MERCY","Address":"2300 Adeline Dr","City":"Burlingame","State":"CA","Zip":"94010"},{"Location":"SISTERS OF MERCY II","Address":"2300 Adeline Dr","City":"Burlingame","State":"CA","Zip":"94010"},{"Location":"SISTERS OF MERCY III","Address":"2300 Adeline Dr","City":"Burlingame","State":"CA","Zip":"94010"},{"Location":"SOAR SURGERY CENTER","Address":"1849 Bayshore Hwy 3fl","City":"Burlingame","State":"CA","Zip":"94010"},{"Location":"SPLENDID PRODUCTS","Address":"1011 Cadillac Way","City":"Burlingame","State":"CA","Zip":"94010"},{"Location":"SPORT CLIPS CA815","Address":"1853 El Camino Real","City":"Burlingame","State":"CA","Zip":"94010"},{"Location":"STONESFAIR MANAGMENT","Address":"577 Airport Blvd 700","City":"Burlingame","State":"CA","Zip":"94010"},{"Location":"STRAITS BURLINGAME","Address":"1100 Burlingame Ave","City":"Burlingame","State":"CA","Zip":"94010"},{"Location":"SUPERCUTS","Address":"1222 Broadway","City":"Burlingame","State":"CA","Zip":"94010"},{"Location":"THE AMERICAN \"BULL\"","Address":"1819 El Camino Real","City":"Burlingame","State":"CA","Zip":"94010"},{"Location":"THE BURLINGAMERS","Address":"1864 Rollings Road","City":"Burlingame","State":"CA","Zip":"94010"},{"Location":"THE CANDY  STORE","Address":"1021 Burlingame Ave","City":"Burlingame","State":"CA","Zip":"94010"},{"Location":"THE PIZZA ALLIANCE 2","Address":"1108 Burlingame Ave","City":"Burlingame","State":"CA","Zip":"94010"},{"Location":"TSA SFO","Address":"700 Airport Blvd 200","City":"Burlingame","State":"CA","Zip":"94010"},{"Location":"VINYL ROOM","Address":"221 Park Rd","City":"Burlingame","State":"CA","Zip":"94010"},{"Location":"WEDGEWOOD BANQUET CENTER","Address":"6650 Golf Course Dr","City":"Burlingame","State":"CA","Zip":"94010"},{"Location":"WEST BAY CAFE & LOUNGE","Address":"1177 Airport Blvd","City":"Burlingame","State":"CA","Zip":"94010"},{"Location":"WHICH  WICH","Address":"1400 Howard Ave","City":"Burlingame","State":"CA","Zip":"94010"},{"Location":"","Address":"1445 Southdown Rd","City":"Hillsborough","State":"CA","Zip":"94010"},{"Location":"BURLINGAME CC BAR & GRILL","Address":"80 New Place Rd","City":"Hillsborough","State":"CA","Zip":"94010"},{"Location":"BURLINGAME COUNTRY CLUB","Address":"80 New Place Rd","City":"Hillsborough","State":"CA","Zip":"94010"},{"Location":"EL DORADO ASSOCIATES LLC","Address":"595 Pullman Rd","City":"Hillsborough","State":"CA","Zip":"94010"}]