[{"Location":"FIRST NAT'L BANK OF CALIFORNIA","Address":"1300 El Camino Real","City":"Colma","State":"CA","Zip":"94014"},{"Location":"IMELDA GUTIERREZ","Address":"1250 El Camino Real","City":"Colma","State":"CA","Zip":"94014"},{"Location":"KIA OF SERRAMONTE","Address":"630 Serramonte Blvd","City":"Colma","State":"CA","Zip":"94014"},{"Location":"KOHL'S #981","Address":"1200 El Camino Real","City":"Colma","State":"CA","Zip":"94014"},{"Location":"LUCKY CHANCES INC","Address":"1700 Hillside Blvd","City":"Colma","State":"CA","Zip":"94014"},{"Location":"MEN'S WEARHOUSE #2167","Address":"47 Colma Blvd E8","City":"Colma","State":"CA","Zip":"94014"},{"Location":"POPEYES FRIED CHICKEN","Address":"990 Serramonte Blvd","City":"Colma","State":"CA","Zip":"94014"},{"Location":"ROUND TABLE PIZZA","Address":"4935 Junipero Serra Blvd","City":"Colma","State":"CA","Zip":"94014"},{"Location":"SERRAMONTE AUTO PLAZA BODY SHO","Address":"435 Serramonte Blvd","City":"Colma","State":"CA","Zip":"94014"},{"Location":"SERRAMONTE LEXUS","Address":"700 Serramonte Blvd","City":"Colma","State":"CA","Zip":"94014"},{"Location":"SERRAMONTE NISSAN","Address":"650 Serramonte Blvd","City":"Colma","State":"CA","Zip":"94014"},{"Location":"SERRAMONTE VOLSWAGEN","Address":"707 Serramonte Blvd","City":"Colma","State":"CA","Zip":"94014"},{"Location":"SHOE DEPOT","Address":"39 Colma Blvd","City":"Colma","State":"CA","Zip":"94014"},{"Location":"SIZZLER 629","Address":"5025 Junipero Serra Blvd","City":"Colma","State":"CA","Zip":"94014"},{"Location":"STEWART CHEVROLET CADDILLAC","Address":"780 Serramonte Blvd","City":"Colma","State":"CA","Zip":"94014"},{"Location":"STEWARTS CHEVROLET","Address":"800 Serramonte Blvd","City":"Colma","State":"CA","Zip":"94014"},{"Location":"TROYS AUTO BODY","Address":"1901 Hillside Blvd","City":"Colma","State":"CA","Zip":"94014"},{"Location":"ABNERS BARBERS SHOP","Address":"6484 Mission St","City":"Daly City","State":"CA","Zip":"94014"},{"Location":"AUTO ALLEY","Address":"256 San Pedro Rd","City":"Daly City","State":"CA","Zip":"94014"},{"Location":"CITY TOYOTA","Address":"255 San Pedro Rd","City":"Daly City","State":"CA","Zip":"94014"},{"Location":"CLUB MAHARLIKA FILIPINO","Address":"7367 Mission St","City":"Daly City","State":"CA","Zip":"94014"},{"Location":"DALY CITY VENUE MGMT SERVICES","Address":"6192 Mission St","City":"Daly City","State":"CA","Zip":"94014"},{"Location":"DAVITA #2265 WESTLAKE","Address":"2201 Junipero Serra Blvd 175","City":"Daly City","State":"CA","Zip":"94014"},{"Location":"EL TACONAZO","Address":"7384 Mission St","City":"Daly City","State":"CA","Zip":"94014"},{"Location":"ESTRADA MEXICAN & CARIBBEAN","Address":"7440 Mission St","City":"Daly City","State":"CA","Zip":"94014"},{"Location":"FIRST NAT'L BANK OF NO CALI","Address":"6600 Mission St","City":"Daly City","State":"CA","Zip":"94014"},{"Location":"FITNESS THERAPY LLC","Address":"69 Washington St","City":"Daly City","State":"CA","Zip":"94014"},{"Location":"FITPFSF%2C INC.","Address":"2945 Junipero Serra Blvd","City":"Daly City","State":"CA","Zip":"94014"},{"Location":"GALLO JANITORIAL SERVICE","Address":"112a School St","City":"Daly City","State":"CA","Zip":"94014"},{"Location":"GENESYS","Address":"2001 Junipero Serra Blvd","City":"Daly City","State":"CA","Zip":"94014"},{"Location":"GOODYEAR 9243","Address":"6498 Mission St","City":"Daly City","State":"CA","Zip":"94014"},{"Location":"HONDA OF SERRAMONTE","Address":"485 Serramonte Blvd","City":"Daly City","State":"CA","Zip":"94014"},{"Location":"LA TORTA AHOGADA","Address":"311 E Market St","City":"Daly City","State":"CA","Zip":"94014"},{"Location":"PACIFIC GAS AND ELECTRIC","Address":"731 Schwerin St","City":"Daly City","State":"CA","Zip":"94014"},{"Location":"PAMPANGAS CUISINE","Address":"40 San Pedro Rd","City":"Daly City","State":"CA","Zip":"94014"},{"Location":"PRIMO PIZZA","Address":"7027 Mission St","City":"Daly City","State":"CA","Zip":"94014"},{"Location":"SATELITE DIALYSIS DC","Address":"2001 Junipero Serra Blvd","City":"Daly City","State":"CA","Zip":"94014"},{"Location":"SUN VALLEY DAIRY","Address":"615 Schwerin St","City":"Daly City","State":"CA","Zip":"94014"},{"Location":"TOLOSA SISON DENTAL","Address":"7119 Mission St","City":"Daly City","State":"CA","Zip":"94014"},{"Location":"KOME BUFFET","Address":"1901 Juipero Serra Blvd","City":"Dily City","State":"CA","Zip":"94014"}]