[{"Location":"KRISPY CREAM DONUTS","Address":"1575 Sullivan Ave","City":"Broadmoor Vlg","State":"CA","Zip":"94015"},{"Location":"24 HOUR FITNESS #507","Address":"373 Gellert Blvd","City":"Daly City","State":"CA","Zip":"94015"},{"Location":"88TH ST 76","Address":"2428 Junipero Serra Blvd","City":"Daly City","State":"CA","Zip":"94015"},{"Location":"BARRACUDA JAPANESE RESTAURANT","Address":"127h Serramonte Ctr","City":"Daly City","State":"CA","Zip":"94015"},{"Location":"BOULEVARD CAFE","Address":"2 Poncetta Dr","City":"Daly City","State":"CA","Zip":"94015"},{"Location":"BUFFALO WILD WINGS #0424","Address":"5b Serramonte Ctr","City":"Daly City","State":"CA","Zip":"94015"},{"Location":"BURGERMEISTER","Address":"507 Westlake Ctr","City":"Daly City","State":"CA","Zip":"94015"},{"Location":"CELIA'S MEXICAN RESTAURANT","Address":"379 Gellert Blvd","City":"Daly City","State":"CA","Zip":"94015"},{"Location":"CLASSIC BOWLING CENTER","Address":"900 King Plz","City":"Daly City","State":"CA","Zip":"94015"},{"Location":"CLEAN X PRESS 1","Address":"344 Gellert Blvd","City":"Daly City","State":"CA","Zip":"94015"},{"Location":"CRUNCH GYM","Address":"60 Serramonte Ctr","City":"Daly City","State":"CA","Zip":"94015"},{"Location":"DAE JANG GUEM","Address":"235 Southgate Ave","City":"Daly City","State":"CA","Zip":"94015"},{"Location":"DALY CITY POLICE DEPARTMENT","Address":"333 90th St","City":"Daly City","State":"CA","Zip":"94015"},{"Location":"DENNYS","Address":"2 Serramonte Ctr","City":"Daly City","State":"CA","Zip":"94015"},{"Location":"DICK'S SPORTING GOODS 1092","Address":"64 Serramonte Ctr","City":"Daly City","State":"CA","Zip":"94015"},{"Location":"DIM SUM KING","Address":"99 Skyline Plz","City":"Daly City","State":"CA","Zip":"94015"},{"Location":"DR YAMAT DENTAL","Address":"187 Southgate Ave","City":"Daly City","State":"CA","Zip":"94015"},{"Location":"ELEPHANT BAR DALY CITY","Address":"75 Serramonte Ctr","City":"Daly City","State":"CA","Zip":"94015"},{"Location":"FIRESTONE","Address":"4 Serramonte Ctr","City":"Daly City","State":"CA","Zip":"94015"},{"Location":"FIRESTONE #240715","Address":"5 Skyline Plz","City":"Daly City","State":"CA","Zip":"94015"},{"Location":"FITNESS 19","Address":"263 Lake Merced Blvd","City":"Daly City","State":"CA","Zip":"94015"},{"Location":"FRESH CUTS","Address":"2750 Junipero Serra Blvd","City":"Daly City","State":"CA","Zip":"94015"},{"Location":"HSBC BANK #819877","Address":"19 Southgate Ave","City":"Daly City","State":"CA","Zip":"94015"},{"Location":"KAISER HEARING CENTER","Address":"15 Southgate Ave 242","City":"Daly City","State":"CA","Zip":"94015"},{"Location":"KOI PALACE RESTAURANT","Address":"365 Gellert Blvd","City":"Daly City","State":"CA","Zip":"94015"},{"Location":"KUKJE DELI SUSHI","Address":"2350 Junipero Serra Blvd","City":"Daly City","State":"CA","Zip":"94015"},{"Location":"Little Fire Pot","Address":"215 Lake Merced Blvd","City":"Daly City","State":"CA","Zip":"94015"},{"Location":"MACY'S WEST 431","Address":"1 Serramonte Ctr","City":"Daly City","State":"CA","Zip":"94015"},{"Location":"MACY'S WEST 431 BR","Address":"1 Serramonte Ctr","City":"Daly City","State":"CA","Zip":"94015"},{"Location":"MANILA EXPRESS","Address":"425 Gellert Blvd","City":"Daly City","State":"CA","Zip":"94015"},{"Location":"MARIA LOURDES YEO%2C DDS","Address":"2055 Gellert Blvd 4","City":"Daly City","State":"CA","Zip":"94015"},{"Location":"MEDICAL & DENTAL","Address":"341 Westlake Ctr 310","City":"Daly City","State":"CA","Zip":"94015"},{"Location":"MEN'S WEARHOUSE #2109","Address":"58 Serramonte Ctr 211","City":"Daly City","State":"CA","Zip":"94015"},{"Location":"OUTBACK STEAKHOUSE #0527","Address":"371 Gellert Blvd","City":"Daly City","State":"CA","Zip":"94015"},{"Location":"PACIFIC GAS AND ELECTRIC COMP","Address":"450 Eastmoor Ave","City":"Daly City","State":"CA","Zip":"94015"},{"Location":"PHO 99","Address":"188 Skyline Plz","City":"Daly City","State":"CA","Zip":"94015"},{"Location":"PIZZA MAN CALL CENTER","Address":"321 87th St","City":"Daly City","State":"CA","Zip":"94015"},{"Location":"SAN FRANCISCO BASEBALL ASSO LL","Address":"123 Serramonte Ctr","City":"Daly City","State":"CA","Zip":"94015"},{"Location":"SAN MATEO CREDIT UNION","Address":"415 Westlake Ctr","City":"Daly City","State":"CA","Zip":"94015"},{"Location":"SCOTTRADE 54P","Address":"522 Westlake Ctr","City":"Daly City","State":"CA","Zip":"94015"},{"Location":"SHAKING CRAB","Address":"25 Southgate Ave","City":"Daly City","State":"CA","Zip":"94015"},{"Location":"SIZZLER 400","Address":"372 Gellert Blvd","City":"Daly City","State":"CA","Zip":"94015"},{"Location":"SPIRAL JAPANESE CUISINE","Address":"515 W Lake Shopping Center","City":"Daly City","State":"CA","Zip":"94015"},{"Location":"TADOKS REST","Address":"57 Saint Francis Sq","City":"Daly City","State":"CA","Zip":"94015"},{"Location":"TARGET #1407","Address":"133 Serramonte Ctr","City":"Daly City","State":"CA","Zip":"94015"},{"Location":"THE CUTLERY","Address":"417 Gellert Blvd 417","City":"Daly City","State":"CA","Zip":"94015"},{"Location":"THE PIZZA ALLIANCE 4 LLC","Address":"511 Westlake Ctr","City":"Daly City","State":"CA","Zip":"94015"},{"Location":"TOKYO HOUSE","Address":"83 Skyline Plz","City":"Daly City","State":"CA","Zip":"94015"},{"Location":"WELLS FARGO BANK","Address":"135 Serramonte Ctr","City":"Daly City","State":"CA","Zip":"94015"},{"Location":"WINGSTOP OF DALY CITY","Address":"227 Lake Merced Blvd","City":"Daly City","State":"CA","Zip":"94015"}]