[{"Location":"GURROLA","Address":"2310 Homestead Rd J","City":"Los Altos","State":"CA","Zip":"94024"},{"Location":"LOS ALTOS ORTHODONTICS","Address":"826 Altos Oaks Dr 3","City":"Los Altos","State":"CA","Zip":"94024"},{"Location":"SNAP FITNESS #1208","Address":"955 Fremont Ave","City":"Los Altos","State":"CA","Zip":"94024"},{"Location":"THUY LE","Address":"999 Fremont Ave","City":"Los Altos","State":"CA","Zip":"94024"},{"Location":"UNIX SURPLUS INC","Address":"1355 Sunrise Ct","City":"Los Altos","State":"CA","Zip":"94024"},{"Location":"GURROLA","Address":"2310 Homestead Rd J","City":"Los Altos","State":"CA","Zip":"94024"},{"Location":"LOS ALTOS ORTHODONTICS","Address":"826 Altos Oaks Dr 3","City":"Los Altos","State":"CA","Zip":"94024"},{"Location":"SNAP FITNESS #1208","Address":"955 Fremont Ave","City":"Los Altos","State":"CA","Zip":"94024"},{"Location":"THUY LE","Address":"999 Fremont Ave","City":"Los Altos","State":"CA","Zip":"94024"},{"Location":"UNIX SURPLUS INC","Address":"1355 Sunrise Ct","City":"Los Altos","State":"CA","Zip":"94024"}]