[{"Location":"ADOBE ANIMAL HOSPITAL","Address":"4470 El Camino Real","City":"Los Altos","State":"CA","Zip":"94022"},{"Location":"ALDO LOS ALTOS","Address":"388 Main St","City":"Los Altos","State":"CA","Zip":"94022"},{"Location":"BAY SHORE MGMT LLC","Address":"171 Main St 225","City":"Los Altos","State":"CA","Zip":"94022"},{"Location":"BOX","Address":"4440 El Camino Real","City":"Los Altos","State":"CA","Zip":"94022"},{"Location":"CARLOS CORLAY SOLE PROPRIETOR","Address":"971 N San Antonio Rd","City":"Los Altos","State":"CA","Zip":"94022"},{"Location":"CHARLES SCHWAB CC774","Address":"240 3rd St 100","City":"Los Altos","State":"CA","Zip":"94022"},{"Location":"CHARLEYS RESTAURANT","Address":"244 State St","City":"Los Altos","State":"CA","Zip":"94022"},{"Location":"CHEF CHU'S","Address":"1067 N San Antonio Rd","City":"Los Altos","State":"CA","Zip":"94022"},{"Location":"COURTYARD BY MARRIOTT","Address":"4320 El Camino Real","City":"Los Altos","State":"CA","Zip":"94022"},{"Location":"COURTYRD MARRIOT FITNESS","Address":"4320 El Camino Real","City":"Los Altos","State":"CA","Zip":"94022"},{"Location":"FIRST AND MAIN SPORTS LOUNGE","Address":"397 Main St","City":"Los Altos","State":"CA","Zip":"94022"},{"Location":"FIRST REPUBLIC BANK","Address":"400 S San Antonio Rd","City":"Los Altos","State":"CA","Zip":"94022"},{"Location":"HARPROP INC","Address":"105 Fremont Ave","City":"Los Altos","State":"CA","Zip":"94022"},{"Location":"JEFF GILMARTIN","Address":"133 Main St","City":"Los Altos","State":"CA","Zip":"94022"},{"Location":"LULUS ON MAIN STREET","Address":"163 Main St","City":"Los Altos","State":"CA","Zip":"94022"},{"Location":"MIKADO","Address":"161 Main St","City":"Los Altos","State":"CA","Zip":"94022"},{"Location":"QUAD CORE CAPITAL","Address":"153 2nd St","City":"Los Altos","State":"CA","Zip":"94022"},{"Location":"RESIDENCE INN (0064989)","Address":"4460 El Camino Real","City":"Los Altos","State":"CA","Zip":"94022"},{"Location":"SERENO GROUP","Address":"369 S San Antonio Rd","City":"Los Altos","State":"CA","Zip":"94022"},{"Location":"SKIPS PLACE","Address":"299 1st St","City":"Los Altos","State":"CA","Zip":"94022"},{"Location":"FOOTHILL COLLEGE","Address":"12345 S El Monte Rd","City":"Los Altos Hills","State":"CA","Zip":"94022"},{"Location":"LA PALOMA","Address":"13310 La Paloma Rd","City":"Los Altos Hills","State":"CA","Zip":"94022"},{"Location":"LA PALOMA PAVILION","Address":"13310 La Paloma Rd","City":"Los Altos Hills","State":"CA","Zip":"94022"}]