[{"Location":"ALPINE INN","Address":"3915 Alpine Rd","City":"Portola Valley","State":"CA","Zip":"94028"},{"Location":"MIKES CAFE PORTOLA VALLEY","Address":"3130 Alpine Rd 350","City":"Portola Valley","State":"CA","Zip":"94028"},{"Location":"PACIFIC THERX","Address":"108 Portola Rd","City":"Portola Valley","State":"CA","Zip":"94028"},{"Location":"PORTOLA VALLEY TRAINING","Address":"100 Ansel Ln","City":"Portola Valley","State":"CA","Zip":"94028"},{"Location":"WOODSIDE PRIORY SCHOOL","Address":"302 Portola Rd","City":"Portola Valley","State":"CA","Zip":"94028"},{"Location":"ALPINE INN","Address":"3915 Alpine Rd","City":"Portola Valley","State":"CA","Zip":"94028"},{"Location":"MIKES CAFE PORTOLA VALLEY","Address":"3130 Alpine Rd 350","City":"Portola Valley","State":"CA","Zip":"94028"},{"Location":"PACIFIC THERX","Address":"108 Portola Rd","City":"Portola Valley","State":"CA","Zip":"94028"},{"Location":"PORTOLA VALLEY TRAINING","Address":"100 Ansel Ln","City":"Portola Valley","State":"CA","Zip":"94028"},{"Location":"WOODSIDE PRIORY SCHOOL","Address":"302 Portola Rd","City":"Portola Valley","State":"CA","Zip":"94028"}]