[{"Location":"","Address":"913 Fremont Pl","City":"Menlo Park","State":"CA","Zip":"94025"},{"Location":"ACCLARENT  INC.","Address":"1525 Obrien Dr B","City":"Menlo Park","State":"CA","Zip":"94025"},{"Location":"ASTELLAS VENTURE MANAGEMENT","Address":"2882 Sand Hill Rd 121","City":"Menlo Park","State":"CA","Zip":"94025"},{"Location":"ATHERTON LANE LLC","Address":"3000 Sand Hill Rd 1-270","City":"Menlo Park","State":"CA","Zip":"94025"},{"Location":"AUTO VINO","Address":"205 Constitution Dr","City":"Menlo Park","State":"CA","Zip":"94025"},{"Location":"BARCLAYS CAPITAL","Address":"155 Linfield Dr","City":"Menlo Park","State":"CA","Zip":"94025"},{"Location":"BATTERY VENTURES","Address":"2884 Sand Hill Rd","City":"Menlo Park","State":"CA","Zip":"94025"},{"Location":"BAYFRONT","Address":"161 Constitution Dr","City":"Menlo Park","State":"CA","Zip":"94025"},{"Location":"BETHANY LUTHERAN CHURCH","Address":"1095 Cloud Ave","City":"Menlo Park","State":"CA","Zip":"94025"},{"Location":"BUENA VISTA BUSINESS","Address":"325 Sharon Park Dr F2","City":"Menlo Park","State":"CA","Zip":"94025"},{"Location":"CHARLES RIVER VENTURES","Address":"2882 Sand Hill Rd 106","City":"Menlo Park","State":"CA","Zip":"94025"},{"Location":"CHARLES SCHWAB & COMPANY #570","Address":"800 El Camino Real 100","City":"Menlo Park","State":"CA","Zip":"94025"},{"Location":"COLUMBUS NOVA TECHNOLOGY","Address":"3000 Sand Hill Rd 190","City":"Menlo Park","State":"CA","Zip":"94025"},{"Location":"COMERICA BANK INC","Address":"2500 Sanhill Rd 110","City":"Menlo Park","State":"CA","Zip":"94025"},{"Location":"CONSTELLATION WEALTH ADVISORS","Address":"3000 Sand Hill Rd 2-160","City":"Menlo Park","State":"CA","Zip":"94025"},{"Location":"COOKS SEA FOOD","Address":"751 El Camino Real","City":"Menlo Park","State":"CA","Zip":"94025"},{"Location":"COURSON COMPANY","Address":"2882 Sand Hill Rd 117","City":"Menlo Park","State":"CA","Zip":"94025"},{"Location":"DASHI JAPANESE","Address":"873 Hamilton Ave","City":"Menlo Park","State":"CA","Zip":"94025"},{"Location":"DONUT DEPOT","Address":"3383 Middlefield Rd","City":"Menlo Park","State":"CA","Zip":"94025"},{"Location":"DRAPER FISHER JURVETSON","Address":"2882 Sand Hill Rd 150","City":"Menlo Park","State":"CA","Zip":"94025"},{"Location":"DUTCH GOOSE","Address":"3567 Alameda De Las Pulgas","City":"Menlo Park","State":"CA","Zip":"94025"},{"Location":"EL CERRITO MEXICAN","Address":"325 Sharon Park Dr Suite","City":"Menlo Park","State":"CA","Zip":"94025"},{"Location":"ETRADE","Address":"4500 Bohannon Dr","City":"Menlo Park","State":"CA","Zip":"94025"},{"Location":"FACEBOOK # 14","Address":"10 Network Cir B14","City":"Menlo Park","State":"CA","Zip":"94025"},{"Location":"FACEBOOK BLDG 10","Address":"10 Network Cir Bld 1","City":"Menlo Park","State":"CA","Zip":"94025"},{"Location":"FACEBOOK BLDG 12","Address":"10 Network Cir B12","City":"Menlo Park","State":"CA","Zip":"94025"},{"Location":"FACEBOOK BLDG 15","Address":"10 Network Cir B15","City":"Menlo Park","State":"CA","Zip":"94025"},{"Location":"FACEBOOK BLDG 16","Address":"10 Network Cir Bld 1","City":"Menlo Park","State":"CA","Zip":"94025"},{"Location":"FACEBOOK BLDG 17","Address":"10 Network Cir Bld 1","City":"Menlo Park","State":"CA","Zip":"94025"},{"Location":"FACEBOOK BUILDING 18","Address":"10 Network Cir Bld 1","City":"Menlo Park","State":"CA","Zip":"94025"},{"Location":"FIRST REPUBLIC BANK","Address":"1601 Willow Rd Bl12","City":"Menlo Park","State":"CA","Zip":"94025"},{"Location":"FIRST REPUBLIC BANK","Address":"1215 El Camino Real","City":"Menlo Park","State":"CA","Zip":"94025"},{"Location":"FIVE STAR PIZZA INC.","Address":"877 Hamilton Ave","City":"Menlo Park","State":"CA","Zip":"94025"},{"Location":"FORD LAND COMPANY","Address":"3000 Sand Hill Rd 1-120","City":"Menlo Park","State":"CA","Zip":"94025"},{"Location":"FREDERICKSON PROPERTIES LLC","Address":"1350 Hoover St","City":"Menlo Park","State":"CA","Zip":"94025"},{"Location":"GE","Address":"2882 Sand Hill Rd","City":"Menlo Park","State":"CA","Zip":"94025"},{"Location":"GI CHA MARKET INC","Address":"1305 Willow Rd","City":"Menlo Park","State":"CA","Zip":"94025"},{"Location":"GLYNN CAPITAL MANAGEMENT","Address":"3000 Sand Hill Rd 3-230","City":"Menlo Park","State":"CA","Zip":"94025"},{"Location":"GOODWIN PROCTER","Address":"135 Commonwealth Dr","City":"Menlo Park","State":"CA","Zip":"94025"},{"Location":"HIGHTOWER ADVISORS","Address":"3000 Sand Hill Rd 100","City":"Menlo Park","State":"CA","Zip":"94025"},{"Location":"HOWARD WAUGH","Address":"3555 Haven Ave","City":"Menlo Park","State":"CA","Zip":"94025"},{"Location":"HSA DESIGN & DEVELOPMENT","Address":"1074 Laurel And Sherie St","City":"Menlo Park","State":"CA","Zip":"94025"},{"Location":"HUNTER STEVENS LLC","Address":"3000 Sand Hill Rd 200","City":"Menlo Park","State":"CA","Zip":"94025"},{"Location":"HWES INTS LP   FACEBOOK","Address":"1 Facebook Way","City":"Menlo Park","State":"CA","Zip":"94025"},{"Location":"INSTITUTIONAL VENTURE PARTNERS","Address":"3000 Sand Hill Rd 250","City":"Menlo Park","State":"CA","Zip":"94025"},{"Location":"INTUIT MPK-03","Address":"200 Jefferson Dr","City":"Menlo Park","State":"CA","Zip":"94025"},{"Location":"INTUIT MPK-1","Address":"180 Jefferson Dr","City":"Menlo Park","State":"CA","Zip":"94025"},{"Location":"IRONWOOD MANAGEMENT","Address":"70 Willow Rd 100","City":"Menlo Park","State":"CA","Zip":"94025"},{"Location":"JONATHANS FISH & CHIPS","Address":"840 Willow Rd","City":"Menlo Park","State":"CA","Zip":"94025"},{"Location":"KAISER FAMILY FOUNDATION","Address":"2400 Sand Hill Rd","City":"Menlo Park","State":"CA","Zip":"94025"},{"Location":"KILPATRICK TOWNSEND","Address":"1080 Marsh Rd","City":"Menlo Park","State":"CA","Zip":"94025"},{"Location":"KILROY REALTY","Address":"4400 Bohannon Dr","City":"Menlo Park","State":"CA","Zip":"94025"},{"Location":"KLEINER-PERKINS-CAUFIELD&BUYER","Address":"2750 Sand Hill Rd","City":"Menlo Park","State":"CA","Zip":"94025"},{"Location":"LAS PARILLAS","Address":"3282 Middlefield Rd","City":"Menlo Park","State":"CA","Zip":"94025"},{"Location":"LATHAM & WATKINS","Address":"140 Scott Dr","City":"Menlo Park","State":"CA","Zip":"94025"},{"Location":"LAW FIRM","Address":"990 Marsh Rd","City":"Menlo Park","State":"CA","Zip":"94025"},{"Location":"LEXINGTON PARTNERS","Address":"3000 Sand Hill Rd 1-220","City":"Menlo Park","State":"CA","Zip":"94025"},{"Location":"LULU'S ON THE ALAMEDA","Address":"3539 Alameda De Las Pulgas","City":"Menlo Park","State":"CA","Zip":"94025"},{"Location":"MACU LLC","Address":"827 Santa Cruz Ave","City":"Menlo Park","State":"CA","Zip":"94025"},{"Location":"MADERA REST. AT ROSEWOOD","Address":"2825 Sand Hill Rd","City":"Menlo Park","State":"CA","Zip":"94025"},{"Location":"MARK STEVENS","Address":"2061 Avy Ave Lower","City":"Menlo Park","State":"CA","Zip":"94025"},{"Location":"MARTIN FAMILY FOUNDATION","Address":"1142 Crane St Ste4","City":"Menlo Park","State":"CA","Zip":"94025"},{"Location":"MAYFIELD FUND","Address":"2484 Sand Hill Rd","City":"Menlo Park","State":"CA","Zip":"94025"},{"Location":"MCDERMOTT WILL AND EMERY","Address":"275 Middlefield Rd 100","City":"Menlo Park","State":"CA","Zip":"94025"},{"Location":"MCGRAW INSURANCE","Address":"3601 Haven Ave","City":"Menlo Park","State":"CA","Zip":"94025"},{"Location":"MENLO PK FIRE PROTECTION","Address":"1376 Willow Rd","City":"Menlo Park","State":"CA","Zip":"94025"},{"Location":"MINGS","Address":"220 Jefferson Dr","City":"Menlo Park","State":"CA","Zip":"94025"},{"Location":"MORGAN STANLEY 100187","Address":"2775 Sand Hill Rd","City":"Menlo Park","State":"CA","Zip":"94025"},{"Location":"NEEDHAM & COMPANY","Address":"3000 Sand Hill Rd 1-240","City":"Menlo Park","State":"CA","Zip":"94025"},{"Location":"NORTHEN TRUST","Address":"250 Sand Hill Cir 150","City":"Menlo Park","State":"CA","Zip":"94025"},{"Location":"NOVO CONSTRUCTION","Address":"1460 Obrien Dr","City":"Menlo Park","State":"CA","Zip":"94025"},{"Location":"NOVO CONSTRUCTION","Address":"4025 Bohannon Dr","City":"Menlo Park","State":"CA","Zip":"94025"},{"Location":"OASIS","Address":"241 El Camino Real","City":"Menlo Park","State":"CA","Zip":"94025"},{"Location":"ONE TO ONE FITNESS","Address":"325 Sharon Park Dr B6","City":"Menlo Park","State":"CA","Zip":"94025"},{"Location":"PACIFIC  BIO  SCIENCES","Address":"1380 Willow Rd","City":"Menlo Park","State":"CA","Zip":"94025"},{"Location":"PACIFIC BIO SCIENCES","Address":"1005 Hamilton Ct","City":"Menlo Park","State":"CA","Zip":"94025"},{"Location":"PERMIRA ADVISERS LLC","Address":"3000 Sand Hill Rd 1-260","City":"Menlo Park","State":"CA","Zip":"94025"},{"Location":"PLUS ONE","Address":"1601 Willow Rd Bld 1","City":"Menlo Park","State":"CA","Zip":"94025"},{"Location":"POINT GUARD VENTURES","Address":"3000 Sand Hill Rd 2","City":"Menlo Park","State":"CA","Zip":"94025"},{"Location":"QUADRUS SAND HILL","Address":"2400 Sand Hill Rd 201","City":"Menlo Park","State":"CA","Zip":"94025"},{"Location":"REDPOINT VENTURES","Address":"3000 Sand Hill Rd 290","City":"Menlo Park","State":"CA","Zip":"94025"},{"Location":"RESTAURANT 3000","Address":"3000 Sand Hill Rd","City":"Menlo Park","State":"CA","Zip":"94025"},{"Location":"RIEKES CENTER","Address":"3455 Edison Way","City":"Menlo Park","State":"CA","Zip":"94025"},{"Location":"ROBERT HALF INTERNATIONAL INC","Address":"2884 Sand Hill Rd 200","City":"Menlo Park","State":"CA","Zip":"94025"},{"Location":"ROBERT J OSTER","Address":"3000 Sand Hill Rd 3-125","City":"Menlo Park","State":"CA","Zip":"94025"},{"Location":"ROSS WILSON CONSULTING","Address":"695 Woodland Ave Rear","City":"Menlo Park","State":"CA","Zip":"94025"},{"Location":"SAND HILL COMMONS","Address":"2882 Sand Hill Rd 117","City":"Menlo Park","State":"CA","Zip":"94025"},{"Location":"SATELLITE DIALYSIS - MP","Address":"1040 Hamilton Ct","City":"Menlo Park","State":"CA","Zip":"94025"},{"Location":"SCOTTRADE B04","Address":"873 El Camino Real","City":"Menlo Park","State":"CA","Zip":"94025"},{"Location":"SEQUOIA CAPITAL","Address":"3000 Sand Hill Rd 180","City":"Menlo Park","State":"CA","Zip":"94025"},{"Location":"SHARON HEIGHTS COUNTRY CLUB","Address":"2900 Sand Hill Rd","City":"Menlo Park","State":"CA","Zip":"94025"},{"Location":"SHARON LAND COMPANY-LLC","Address":"3000 Sand Hill Rd 1-120","City":"Menlo Park","State":"CA","Zip":"94025"},{"Location":"SHEARMAN AND STERLING","Address":"1460 El Camino Real","City":"Menlo Park","State":"CA","Zip":"94025"},{"Location":"SIERRA VENTURES MANAGEMENT LLC","Address":"2884 Sand Hill Rd 100","City":"Menlo Park","State":"CA","Zip":"94025"},{"Location":"SIMPSONS BARBER","Address":"1181 El Camino Real","City":"Menlo Park","State":"CA","Zip":"94025"},{"Location":"SMITH BARNEY 100187","Address":"2882 Sand Hill Rd 200","City":"Menlo Park","State":"CA","Zip":"94025"},{"Location":"SOL FACEBOOK BLDG12","Address":"10 Hacker Way B12","City":"Menlo Park","State":"CA","Zip":"94025"},{"Location":"SRI INTERNATIONAL","Address":"333 Ravenswood Ave","City":"Menlo Park","State":"CA","Zip":"94025"},{"Location":"ST PATRICKS SEMINARY","Address":"320 Middlefield Rd","City":"Menlo Park","State":"CA","Zip":"94025"},{"Location":"STANFORD PARK HOTEL","Address":"100 El Camino Real","City":"Menlo Park","State":"CA","Zip":"94025"},{"Location":"STANFORD PARK HOTEL FC","Address":"100 El Camino Real","City":"Menlo Park","State":"CA","Zip":"94025"},{"Location":"STANFORD SRCF","Address":"2575 Sand Hill Rd","City":"Menlo Park","State":"CA","Zip":"94025"},{"Location":"SVB FINANCIAL GROUP","Address":"3000 Sand Hill Rd 150","City":"Menlo Park","State":"CA","Zip":"94025"},{"Location":"SVB FINANCIAL GROUP","Address":"2770 Sand Hill Rd","City":"Menlo Park","State":"CA","Zip":"94025"},{"Location":"SVRCFL%2F FBI","Address":"4600 Bohannon Dr 200","City":"Menlo Park","State":"CA","Zip":"94025"},{"Location":"T AND T COIN5","Address":"3284 Middlefield Rd","City":"Menlo Park","State":"CA","Zip":"94025"},{"Location":"TA ASSOCIATES","Address":"64 Willow Pl","City":"Menlo Park","State":"CA","Zip":"94025"},{"Location":"THE ARCHDIOCESE OF SF","Address":"322 Middlefield Rd","City":"Menlo Park","State":"CA","Zip":"94025"},{"Location":"TRIPLEPOINT CAPITAL","Address":"2755 Sand Hill Rd","City":"Menlo Park","State":"CA","Zip":"94025"},{"Location":"TSA MISSION SUPPORT CENTER W","Address":"345 Middlefield Rd","City":"Menlo Park","State":"CA","Zip":"94025"},{"Location":"TYCO ELECTRONICS","Address":"309 Constitution Dr","City":"Menlo Park","State":"CA","Zip":"94025"},{"Location":"TYCO THERMAL CONTROLS","Address":"307 Constitution Dr","City":"Menlo Park","State":"CA","Zip":"94025"},{"Location":"UBS FINANCIAL SERVICES","Address":"64 Willow Pl 200","City":"Menlo Park","State":"CA","Zip":"94025"},{"Location":"UBS FINANCIAL SERVICES #2","Address":"64 Willow Pl 200","City":"Menlo Park","State":"CA","Zip":"94025"},{"Location":"UNAMAS REST","Address":"683 Santa Cruz Ave","City":"Menlo Park","State":"CA","Zip":"94025"},{"Location":"US DEPARTMENT OF INTERIOR","Address":"345 Middlefield Rd","City":"Menlo Park","State":"CA","Zip":"94025"},{"Location":"VERSARTIS","Address":"4200 Bohannon Dr 250","City":"Menlo Park","State":"CA","Zip":"94025"},{"Location":"WESTERN BLIND REHAB CENTER","Address":"795 Willow Rd Bt365","City":"Menlo Park","State":"CA","Zip":"94025"},{"Location":"TAVAREZ ORTHODONTICS","Address":"800 Mento Ave 101","City":"Mento Park","State":"CA","Zip":"94025"}]