[{"Location":"24 HOUR FITNESS #805","Address":"979 Broadway","City":"Millbrae","State":"CA","Zip":"94030"},{"Location":"A PERFECT DAY","Address":"979 Broadway 202","City":"Millbrae","State":"CA","Zip":"94030"},{"Location":"BAKERS GARAGE","Address":"1009 El Camino Real","City":"Millbrae","State":"CA","Zip":"94030"},{"Location":"CHAMPAGNE RESTAURANT","Address":"121 El Camino Real","City":"Millbrae","State":"CA","Zip":"94030"},{"Location":"DIVA NAIL SALON","Address":"9 Civic Center Ln","City":"Millbrae","State":"CA","Zip":"94030"},{"Location":"EGGETTES","Address":"979 Broadway 110","City":"Millbrae","State":"CA","Zip":"94030"},{"Location":"EURODENT","Address":"1301 Broadway 9","City":"Millbrae","State":"CA","Zip":"94030"},{"Location":"FAIRFIELD INN AND SUITES","Address":"250 El Camino Real","City":"Millbrae","State":"CA","Zip":"94030"},{"Location":"FIRESTONE #012785","Address":"1201 El Camino Real","City":"Millbrae","State":"CA","Zip":"94030"},{"Location":"FIRST MATIONAL BANK OF NO CALI","Address":"1551 El Camino Real","City":"Millbrae","State":"CA","Zip":"94030"},{"Location":"FIRST REPUBLIC BANK","Address":"139 S El Camino Real","City":"Millbrae","State":"CA","Zip":"94030"},{"Location":"FRANK J PISAS BARBERSHOP","Address":"5 Civic Center Ln","City":"Millbrae","State":"CA","Zip":"94030"},{"Location":"HOA KY RESTAURANT","Address":"447 Broadway","City":"Millbrae","State":"CA","Zip":"94030"},{"Location":"HONG KONG FLOWER LOUNGE","Address":"51 Millbrae Ave","City":"Millbrae","State":"CA","Zip":"94030"},{"Location":"HOT POT GARDEN","Address":"195 El Camino Real","City":"Millbrae","State":"CA","Zip":"94030"},{"Location":"JIFFY CLEANERS","Address":"512 Magnolia Ave","City":"Millbrae","State":"CA","Zip":"94030"},{"Location":"LITTLE WHALE SEAFOOD RES","Address":"715 Magnolia Ave","City":"Millbrae","State":"CA","Zip":"94030"},{"Location":"NAKED FISH","Address":"979 Broadway 100","City":"Millbrae","State":"CA","Zip":"94030"},{"Location":"OSHINAE","Address":"9 Hillcrest Blvd","City":"Millbrae","State":"CA","Zip":"94030"},{"Location":"PENINSULA CLEANERS","Address":"243 Broadway","City":"Millbrae","State":"CA","Zip":"94030"},{"Location":"PETER'S CAFE","Address":"10 El Camino Real","City":"Millbrae","State":"CA","Zip":"94030"},{"Location":"SIXTEEN MILE HOUSE","Address":"448 Broadway","City":"Millbrae","State":"CA","Zip":"94030"},{"Location":"SUGAR & LIME PHO SPOT","Address":"292 Broadway","City":"Millbrae","State":"CA","Zip":"94030"},{"Location":"T & S TRADING COMPANY","Address":"1000 El Camino Real","City":"Millbrae","State":"CA","Zip":"94030"},{"Location":"THAI STICK","Address":"301 El Camino","City":"Millbrae","State":"CA","Zip":"94030"},{"Location":"THE SANDWICH SPOT","Address":"108 Park Pl","City":"Millbrae","State":"CA","Zip":"94030"},{"Location":"TORTILLAS MEXICAN GRILL","Address":"360 Adrian Rd","City":"Millbrae","State":"CA","Zip":"94030"},{"Location":"V AND V NAIL SALON","Address":"220 Broadway","City":"Millbrae","State":"CA","Zip":"94030"},{"Location":"WESTIN SAN FRANCISCO","Address":"1 Old Bayshore Hwy","City":"Millbrae","State":"CA","Zip":"94030"},{"Location":"WINGSTOP","Address":"1085 El Camino Real","City":"Millbrae","State":"CA","Zip":"94030"},{"Location":"ZEN PENINSULA","Address":"1180 El Camino Real","City":"Millbrae","State":"CA","Zip":"94030"}]