[{"Location":"351ST CACOM","Address":"230 R T Jones Rd","City":"Mointainview","State":"CA","Zip":"94043"},{"Location":"23 AND ME","Address":"1390 Shorebird Way","City":"Mountain View","State":"CA","Zip":"94043"},{"Location":"63RD RSC IMO","Address":"230 R T Jones Rd","City":"Mountain View","State":"CA","Zip":"94043"},{"Location":"ALCATEL  LUCENT","Address":"777 E Middlefield Rd","City":"Mountain View","State":"CA","Zip":"94043"},{"Location":"ALCATEL LUCENT","Address":"805 E Middlefield Rd","City":"Mountain View","State":"CA","Zip":"94043"},{"Location":"ALCATEL LUCENT","Address":"701 E Middlefield Rd","City":"Mountain View","State":"CA","Zip":"94043"},{"Location":"ALCATEL LUCENT 1","Address":"755 Ravendale Dr","City":"Mountain View","State":"CA","Zip":"94043"},{"Location":"AMERICAN CENTURY","Address":"1665 Charleston Rd","City":"Mountain View","State":"CA","Zip":"94043"},{"Location":"AMERICAN CENTURY INVESTMENTS","Address":"1665 Charleston Rd","City":"Mountain View","State":"CA","Zip":"94043"},{"Location":"APPCELERATOR","Address":"440 Bernardo Ave","City":"Mountain View","State":"CA","Zip":"94043"},{"Location":"AUDIENCE INC","Address":"331 Fairchild Dr","City":"Mountain View","State":"CA","Zip":"94043"},{"Location":"BOEING SUNNYVALE","Address":"339 Bernardo Ave","City":"Mountain View","State":"CA","Zip":"94043"},{"Location":"BRITISH AUTO SERVICES","Address":"2247 2247  #a Old","City":"Mountain View","State":"CA","Zip":"94043"},{"Location":"COMPUTER LLC","Address":"2700 Broderick Way","City":"Mountain View","State":"CA","Zip":"94043"},{"Location":"DG ARCHITECTS","Address":"550 Ellis St","City":"Mountain View","State":"CA","Zip":"94043"},{"Location":"DICKIES BBQ PIT","Address":"570 N Shoreline Blvd F","City":"Mountain View","State":"CA","Zip":"94043"},{"Location":"DINAN CORP","Address":"2232 Old Middlefield Way","City":"Mountain View","State":"CA","Zip":"94043"},{"Location":"DSM","Address":"1230 Pear Ave 5","City":"Mountain View","State":"CA","Zip":"94043"},{"Location":"EHEALTH INSURANCE.COM","Address":"440 E Middlefield Rd","City":"Mountain View","State":"CA","Zip":"94043"},{"Location":"ELEMENTUM","Address":"1300 Terra Bella Ave","City":"Mountain View","State":"CA","Zip":"94043"},{"Location":"FALAFEL & KEBAB","Address":"1477 Plymouth St E","City":"Mountain View","State":"CA","Zip":"94043"},{"Location":"FANKAVE INC","Address":"275 Moffett Blvd A","City":"Mountain View","State":"CA","Zip":"94043"},{"Location":"FREDS PLACE","Address":"2534 Old Middlefield Way","City":"Mountain View","State":"CA","Zip":"94043"},{"Location":"GET INSURED . COM","Address":"1305 Terra Bella Ave","City":"Mountain View","State":"CA","Zip":"94043"},{"Location":"GIGYA","Address":"2513 Charleston Rd 200","City":"Mountain View","State":"CA","Zip":"94043"},{"Location":"GOLD'S GYM #320","Address":"1400 N Shoreline Blvd","City":"Mountain View","State":"CA","Zip":"94043"},{"Location":"GOOGLE","Address":"1600 Amphitheatre Pkwy 43","City":"Mountain View","State":"CA","Zip":"94043"},{"Location":"GOOGLE #1","Address":"1600 Amphitheatre Pkwy 4b","City":"Mountain View","State":"CA","Zip":"94043"},{"Location":"GOOGLE #2","Address":"1600 Amphitheatre Pkwy 40","City":"Mountain View","State":"CA","Zip":"94043"},{"Location":"GOOGLE INC","Address":"1600 Amphitheatre Pkwy","City":"Mountain View","State":"CA","Zip":"94043"},{"Location":"GOOGLE INC","Address":"1600 Amphitheatre Pkwy 40","City":"Mountain View","State":"CA","Zip":"94043"},{"Location":"INTERMEDIA","Address":"825 E Middlefield Rd","City":"Mountain View","State":"CA","Zip":"94043"},{"Location":"INTUIT MTV 01","Address":"2535 Garcia Ave","City":"Mountain View","State":"CA","Zip":"94043"},{"Location":"INTUIT MTV 06","Address":"2750 Coast Ave","City":"Mountain View","State":"CA","Zip":"94043"},{"Location":"INTUIT MTV-09","Address":"2600 Casey Ave","City":"Mountain View","State":"CA","Zip":"94043"},{"Location":"KING OF CLUBS","Address":"893 Leong Dr","City":"Mountain View","State":"CA","Zip":"94043"},{"Location":"KRAW AND KRAW","Address":"605 Ellis St 200","City":"Mountain View","State":"CA","Zip":"94043"},{"Location":"LAS MUCHACHAS RESTAURANT","Address":"2483 Old Middlefield Way","City":"Mountain View","State":"CA","Zip":"94043"},{"Location":"LINKEDIN CORP","Address":"2025 Stierlin Ct","City":"Mountain View","State":"CA","Zip":"94043"},{"Location":"LINKEDIN CORP 1","Address":"2029 Stierlin Ct","City":"Mountain View","State":"CA","Zip":"94043"},{"Location":"LINKEDIN CORP 4","Address":"2029 Stierlin Ct","City":"Mountain View","State":"CA","Zip":"94043"},{"Location":"LINKEDIN CORP 6","Address":"2051 Stierlin Ct","City":"Mountain View","State":"CA","Zip":"94043"},{"Location":"LINKEDIN CORP 7","Address":"2051 Stierlin Ct","City":"Mountain View","State":"CA","Zip":"94043"},{"Location":"LINKEDIN CORP5","Address":"2025 Stierlin Ct","City":"Mountain View","State":"CA","Zip":"94043"},{"Location":"LIVE MAGIC","Address":"1804 N Shoreline Blvd 120","City":"Mountain View","State":"CA","Zip":"94043"},{"Location":"MEDIMMUNE","Address":"319 N Benardo Ave","City":"Mountain View","State":"CA","Zip":"94043"},{"Location":"MICHAELS AT SHORELINE","Address":"2960 N Shoreline Blvd","City":"Mountain View","State":"CA","Zip":"94043"},{"Location":"MICROSOFT CORPORATION SVC","Address":"1065 La Avenida St Bldg1","City":"Mountain View","State":"CA","Zip":"94043"},{"Location":"MILROY CONSTRUCTION INC.","Address":"897 Independence Ave 5a","City":"Mountain View","State":"CA","Zip":"94043"},{"Location":"MSCA EXECUTIVES C3101200","Address":"645 Clyde Ave B2l2","City":"Mountain View","State":"CA","Zip":"94043"},{"Location":"MSCA MULTI SCN C3101216","Address":"645 Clyde Ave B2l6","City":"Mountain View","State":"CA","Zip":"94043"},{"Location":"MSCA QA C3101220","Address":"645 Clyde Ave B2l4","City":"Mountain View","State":"CA","Zip":"94043"},{"Location":"MSCA VIDEO C3101201","Address":"645 Clyde Ave B2l6","City":"Mountain View","State":"CA","Zip":"94043"},{"Location":"MVLA ADULT SCHOOL","Address":"333 Moffett Blvd","City":"Mountain View","State":"CA","Zip":"94043"},{"Location":"NETFEER","Address":"555 Ellis St B","City":"Mountain View","State":"CA","Zip":"94043"},{"Location":"NRD SAN FRANCISCO","Address":"Bldg 546 Vernon Ave","City":"Mountain View","State":"CA","Zip":"94043"},{"Location":"OL 2 INC","Address":"1091 N Shoreline Blvd 100","City":"Mountain View","State":"CA","Zip":"94043"},{"Location":"OMALLEYS SPORTS PUB","Address":"2135 Old Middlefield Way","City":"Mountain View","State":"CA","Zip":"94043"},{"Location":"OMNICELL CORPORATION","Address":"590 E Middlefield Rd","City":"Mountain View","State":"CA","Zip":"94043"},{"Location":"OPENTV MOUNTAIN VIEW","Address":"485 Clyde Ave","City":"Mountain View","State":"CA","Zip":"94043"},{"Location":"OPPO DIGITAL INC","Address":"2629b Terminal Blvd","City":"Mountain View","State":"CA","Zip":"94043"},{"Location":"OVERTIME FITNESS","Address":"1625 N Shoreline Blvd","City":"Mountain View","State":"CA","Zip":"94043"},{"Location":"PINNACLE SYSTEMS INC","Address":"280 Bernardo Ave","City":"Mountain View","State":"CA","Zip":"94043"},{"Location":"QUALITAU","Address":"830 Maude Ave","City":"Mountain View","State":"CA","Zip":"94043"},{"Location":"RINCON SABROSO REST.","Address":"122 N Rengstorff Ave","City":"Mountain View","State":"CA","Zip":"94043"},{"Location":"RUIZ","Address":"327 Moffett Blvd E","City":"Mountain View","State":"CA","Zip":"94043"},{"Location":"SAN JOSE MEPS","Address":"546 Vernon Ave","City":"Mountain View","State":"CA","Zip":"94043"},{"Location":"SERVICE BY MEDALLION","Address":"455 National Ave","City":"Mountain View","State":"CA","Zip":"94043"},{"Location":"SHORELINE AMPHITHEATRE","Address":"1 Amphitheatre Pkwy","City":"Mountain View","State":"CA","Zip":"94043"},{"Location":"SHORELINE GOLF LINKS","Address":"2940 N Shoreline Blvd","City":"Mountain View","State":"CA","Zip":"94043"},{"Location":"SPORTS PAGE","Address":"1431 Plymouth St","City":"Mountain View","State":"CA","Zip":"94043"},{"Location":"SRA DMS LAB C3400025","Address":"665 Clyde Ave","City":"Mountain View","State":"CA","Zip":"94043"},{"Location":"SRA FIT CLOUD C34000219","Address":"665 Clyde Ave B1l5","City":"Mountain View","State":"CA","Zip":"94043"},{"Location":"SRA GYM AUDIO C3400012","Address":"665 Clyde Ave B2l2","City":"Mountain View","State":"CA","Zip":"94043"},{"Location":"SRA UX SVCS C3400094","Address":"665 Clyde Ave B1l3","City":"Mountain View","State":"CA","Zip":"94043"},{"Location":"SRA VD LAB C3400091","Address":"665 Clyde Ave B1l4","City":"Mountain View","State":"CA","Zip":"94043"},{"Location":"SUNNY BOWL","Address":"1477 Plymouth St D","City":"Mountain View","State":"CA","Zip":"94043"},{"Location":"SYMANTEC","Address":"350 Ellis St","City":"Mountain View","State":"CA","Zip":"94043"},{"Location":"SYMANTEC","Address":"380 Ellis St","City":"Mountain View","State":"CA","Zip":"94043"},{"Location":"SYMANTEC","Address":"370 Ellis St","City":"Mountain View","State":"CA","Zip":"94043"},{"Location":"SYMANTEC","Address":"515 N Whisman Rd","City":"Mountain View","State":"CA","Zip":"94043"},{"Location":"SYMANTEC","Address":"401 Ellis St","City":"Mountain View","State":"CA","Zip":"94043"},{"Location":"SYMANTEC","Address":"487 E Middlefield Rd","City":"Mountain View","State":"CA","Zip":"94043"},{"Location":"SYMANTEC CORP","Address":"675 E Middlefield Rd","City":"Mountain View","State":"CA","Zip":"94043"},{"Location":"SYMANTEC CORPORATION","Address":"500 E Middlefield Rd","City":"Mountain View","State":"CA","Zip":"94043"},{"Location":"SYMPHONY TELECA","Address":"636 Ellis St","City":"Mountain View","State":"CA","Zip":"94043"},{"Location":"SYNOPSYS","Address":"690 E Middlefield Rd B","City":"Mountain View","State":"CA","Zip":"94043"},{"Location":"SYNOPSYS","Address":"690 E Middlefield Rd A","City":"Mountain View","State":"CA","Zip":"94043"},{"Location":"THE VITA COMPANIES","Address":"900 N Shoreline Blvd","City":"Mountain View","State":"CA","Zip":"94043"},{"Location":"TVU NETWORKS","Address":"857 Maude Ave 100","City":"Mountain View","State":"CA","Zip":"94043"},{"Location":"VENDAVO INC","Address":"401 E Middlefield Rd","City":"Mountain View","State":"CA","Zip":"94043"},{"Location":"VERITAS CORP","Address":"350 Ellis St A","City":"Mountain View","State":"CA","Zip":"94043"},{"Location":"VIOLIN MEMORY","Address":"685 Clyde Ave","City":"Mountain View","State":"CA","Zip":"94043"},{"Location":"WASHINGTON SQUARE APT","Address":"1375 Montecito Ave","City":"Mountain View","State":"CA","Zip":"94043"},{"Location":"WESTERN DIGITAL","Address":"640 Clyde Ct","City":"Mountain View","State":"CA","Zip":"94043"},{"Location":"ZONARE MEDICAL SYSTEMS","Address":"420 Bernardo Ave","City":"Mountain View","State":"CA","Zip":"94043"}]