[{"Location":"24 HOUR FITNESS #513","Address":"550 Showers Dr","City":"Mountain View","State":"CA","Zip":"94040"},{"Location":"24 HOUR FITNESS #814","Address":"2535 California St","City":"Mountain View","State":"CA","Zip":"94040"},{"Location":"AMBER CAFE","Address":"600 W El Camino Real","City":"Mountain View","State":"CA","Zip":"94040"},{"Location":"BEAUTY NAILS","Address":"225 San Antonio Rd","City":"Mountain View","State":"CA","Zip":"94040"},{"Location":"BERTS ALIBI BAR","Address":"1313 W El Camino Real","City":"Mountain View","State":"CA","Zip":"94040"},{"Location":"BOLLYWOOD BEAUTY SALON","Address":"820 E El Camino Real E","City":"Mountain View","State":"CA","Zip":"94040"},{"Location":"BURGER KING","Address":"177 E El Camino Real","City":"Mountain View","State":"CA","Zip":"94040"},{"Location":"CALIFORNIA FAMILY DENTAL","Address":"2425 California St D","City":"Mountain View","State":"CA","Zip":"94040"},{"Location":"CAPITAL    LAUNDRY","Address":"1933 W El Camino Real","City":"Mountain View","State":"CA","Zip":"94040"},{"Location":"CHEVY'S 2068","Address":"2116 W El Camino Real","City":"Mountain View","State":"CA","Zip":"94040"},{"Location":"CHILI'S #0501","Address":"2560 W El Camino Real","City":"Mountain View","State":"CA","Zip":"94040"},{"Location":"COUNTER BURGER MOUNT VW","Address":"2580 W El Camino Real 3","City":"Mountain View","State":"CA","Zip":"94040"},{"Location":"D L PROSPECT","Address":"1955 W El Camino Real","City":"Mountain View","State":"CA","Zip":"94040"},{"Location":"FIDELITY INVESTMENTS 296","Address":"2580 W El Camino Real 9","City":"Mountain View","State":"CA","Zip":"94040"},{"Location":"FIRESTONE #122173","Address":"555 Showers Dr","City":"Mountain View","State":"CA","Zip":"94040"},{"Location":"FRANKIE JOHNNY AND LUIGI","Address":"939 El Camino","City":"Mountain View","State":"CA","Zip":"94040"},{"Location":"FUNCTIONAL CORE FITNESS","Address":"2268 W El Camino Real","City":"Mountain View","State":"CA","Zip":"94040"},{"Location":"GARDEN GRILLE & BAR","Address":"840 E El Camino Real","City":"Mountain View","State":"CA","Zip":"94040"},{"Location":"GR8 SUBS CORP","Address":"634 San Antonio Rd","City":"Mountain View","State":"CA","Zip":"94040"},{"Location":"GRANT CUESTA NURSING AND REHAB","Address":"1949 Grant Rd","City":"Mountain View","State":"CA","Zip":"94040"},{"Location":"HILTON GARDEN INN MOUNTAIN VIE","Address":"840 E El Camino Real","City":"Mountain View","State":"CA","Zip":"94040"},{"Location":"HOSPITAL DRIVE SURGERY CENTER","Address":"2500 Hospital Dr 9","City":"Mountain View","State":"CA","Zip":"94040"},{"Location":"HSBC BANK #819876","Address":"1350 Grant Rd 3","City":"Mountain View","State":"CA","Zip":"94040"},{"Location":"JENNIFERS TAQUERIA","Address":"1929 Latham St","City":"Mountain View","State":"CA","Zip":"94040"},{"Location":"JIFFY LUBE 2342","Address":"1141 W El Camino Real","City":"Mountain View","State":"CA","Zip":"94040"},{"Location":"KOHL'S #1388","Address":"350 Showers Dr","City":"Mountain View","State":"CA","Zip":"94040"},{"Location":"KRUNG THAI","Address":"590 Showers Dr","City":"Mountain View","State":"CA","Zip":"94040"},{"Location":"LA FITNESS #06158","Address":"1040 Grant Rd 165","City":"Mountain View","State":"CA","Zip":"94040"},{"Location":"LUCKY CHINESE RESTAURANT","Address":"530 Showers Dr 8","City":"Mountain View","State":"CA","Zip":"94040"},{"Location":"MCDONALDS","Address":"952 El Monte Ave","City":"Mountain View","State":"CA","Zip":"94040"},{"Location":"MENKES AND MORGAN ROTH","Address":"525 South Dr 115","City":"Mountain View","State":"CA","Zip":"94040"},{"Location":"MERCADO MARLEN","Address":"2530 California St","City":"Mountain View","State":"CA","Zip":"94040"},{"Location":"MOUNTAIN MIKE PIZZA","Address":"1724 Miramonte Ave","City":"Mountain View","State":"CA","Zip":"94040"},{"Location":"NAIL FOR YOU","Address":"550 Showers Dr D2","City":"Mountain View","State":"CA","Zip":"94040"},{"Location":"NEW YORK PIZZA1","Address":"1040 Grant Rd","City":"Mountain View","State":"CA","Zip":"94040"},{"Location":"NOBLE NAILS","Address":"1350 Grant Rd 10b","City":"Mountain View","State":"CA","Zip":"94040"},{"Location":"PAUL MARTINS AM GRILL","Address":"545 San Antonio Rd 31","City":"Mountain View","State":"CA","Zip":"94040"},{"Location":"PLANNED PARENTHOOD MAR MONTE","Address":"225 San Antonio Rd","City":"Mountain View","State":"CA","Zip":"94040"},{"Location":"RUTHER DENTAL","Address":"1040 Grant Rd 105","City":"Mountain View","State":"CA","Zip":"94040"},{"Location":"SATSUMA RESAURANT","Address":"705 E El Camino Real","City":"Mountain View","State":"CA","Zip":"94040"},{"Location":"SHAAPAR","Address":"1414 W El Camino Real","City":"Mountain View","State":"CA","Zip":"94040"},{"Location":"SILICON VALLEY COMM FOUNDATION","Address":"2440 W El Camino Real 300","City":"Mountain View","State":"CA","Zip":"94040"},{"Location":"SUSHI 88 AND RAMEN","Address":"506 Showers Dr","City":"Mountain View","State":"CA","Zip":"94040"},{"Location":"THE SANDWICH SPOT","Address":"123 E El Camino Real","City":"Mountain View","State":"CA","Zip":"94040"},{"Location":"TRENDY SALON","Address":"903 E El Camino Real","City":"Mountain View","State":"CA","Zip":"94040"},{"Location":"UNA MAS","Address":"1040 Grant Rd 305","City":"Mountain View","State":"CA","Zip":"94040"},{"Location":"YMCA EL CAMINO","Address":"2400 Grant Rd","City":"Mountain View","State":"CA","Zip":"94040"}]