[{"Location":"ERNIES WINE AND LIQUOR","Address":"757 Hickey Blvd","City":"Pacifica","State":"CA","Zip":"94044"},{"Location":"FIRST NATIONAL BANK OF NORCAL","Address":"1450 Linda Mar Shopping Ctr","City":"Pacifica","State":"CA","Zip":"94044"},{"Location":"HIBBERT MARITIME SERVICES","Address":"1127 Galvez Dr","City":"Pacifica","State":"CA","Zip":"94044"},{"Location":"LUIGIS RESTAURANT","Address":"950 Linda Mar Blvd","City":"Pacifica","State":"CA","Zip":"94044"},{"Location":"MITSU","Address":"1301 Palmetto Ave D","City":"Pacifica","State":"CA","Zip":"94044"},{"Location":"OCEANA MARKET","Address":"200 Eureka Sq","City":"Pacifica","State":"CA","Zip":"94044"},{"Location":"PACIFIC COAST DENTAL","Address":"1279 Linda Mar Shopping Ctr","City":"Pacifica","State":"CA","Zip":"94044"},{"Location":"PACIFICA ATHLETIC","Address":"640 Crespi Dr B","City":"Pacifica","State":"CA","Zip":"94044"},{"Location":"PACIFICA CAGES","Address":"640 Crespi Dr A","City":"Pacifica","State":"CA","Zip":"94044"},{"Location":"PRO NAIL","Address":"88 Eureka Sq","City":"Pacifica","State":"CA","Zip":"94044"},{"Location":"PUERTO 27","Address":"525a Crespi Dr","City":"Pacifica","State":"CA","Zip":"94044"},{"Location":"ROUND TABLE PIZZA 2","Address":"1285 Linda Mar Shopping Ctr","City":"Pacifica","State":"CA","Zip":"94044"},{"Location":"SAN FRANSISCO ARCHERS","Address":"Rifle Range Rd","City":"Pacifica","State":"CA","Zip":"94044"},{"Location":"SEAHORSE SALOON","Address":"2017 Palmetto Ave","City":"Pacifica","State":"CA","Zip":"94044"},{"Location":"SURF LOUNGE","Address":"77 Bill Drake Way","City":"Pacifica","State":"CA","Zip":"94044"},{"Location":"TAQUERIA EL GRAND AMIGO","Address":"1357 Linda Mar Shopping Ctr","City":"Pacifica","State":"CA","Zip":"94044"},{"Location":"THE LONG BOARD MARGARITA BAR","Address":"180 Eureka Sq","City":"Pacifica","State":"CA","Zip":"94044"},{"Location":"THE PACIFICA MOOSE LODGE","Address":"776 Bradford Way","City":"Pacifica","State":"CA","Zip":"94044"},{"Location":"UPPER CRUST DELI 1","Address":"1023 Terra Nova Blvd","City":"Pacifica","State":"CA","Zip":"94044"},{"Location":"UPPER CRUST DELI 2","Address":"1041 Terra Nova Blvd","City":"Pacifica","State":"CA","Zip":"94044"},{"Location":"US BANK","Address":"1655 Oceana Blvd","City":"Pacifica","State":"CA","Zip":"94044"},{"Location":"WINTERS TAVERN","Address":"1522 Francisco Blvd","City":"Pacifica","State":"CA","Zip":"94044"}]