[{"Location":"CHEFLIU","Address":"236 Castro St","City":"Mountain View","State":"CA","Zip":"94041"},{"Location":"COURSERA","Address":"381 E Evelyn Ave","City":"Mountain View","State":"CA","Zip":"94041"},{"Location":"ESSENCE SALON","Address":"826 W Dana St","City":"Mountain View","State":"CA","Zip":"94041"},{"Location":"FENWICK & WEST LLP","Address":"801 California St","City":"Mountain View","State":"CA","Zip":"94041"},{"Location":"FU LAM MUM","Address":"153 Castro St","City":"Mountain View","State":"CA","Zip":"94041"},{"Location":"HONG KONG BISTRO","Address":"147 Castro St","City":"Mountain View","State":"CA","Zip":"94041"},{"Location":"LA FIESTA","Address":"240 Villa St","City":"Mountain View","State":"CA","Zip":"94041"},{"Location":"MIXX%2C LLP","Address":"420 Castro St","City":"Mountain View","State":"CA","Zip":"94041"},{"Location":"MOLLY MAGEES","Address":"241 Castro St","City":"Mountain View","State":"CA","Zip":"94041"},{"Location":"MORGAN STANLEY 100112-1","Address":"650 Castro St","City":"Mountain View","State":"CA","Zip":"94041"},{"Location":"MOZILLA CORP","Address":"331 E Evelyn Ave","City":"Mountain View","State":"CA","Zip":"94041"},{"Location":"NIENHUIS MONTESSORI","Address":"150 S Whisman Rd","City":"Mountain View","State":"CA","Zip":"94041"},{"Location":"NIJI SUSHI","Address":"743 W Dana St","City":"Mountain View","State":"CA","Zip":"94041"},{"Location":"PHO HOA NOODLE SOUP II E","Address":"220 Castro St","City":"Mountain View","State":"CA","Zip":"94041"},{"Location":"RED HAT  INC.","Address":"444 Castro St 500","City":"Mountain View","State":"CA","Zip":"94041"},{"Location":"SAINT STEVENS GREEN","Address":"223 Castro St","City":"Mountain View","State":"CA","Zip":"94041"},{"Location":"SAKOON","Address":"357 Castro St 1","City":"Mountain View","State":"CA","Zip":"94041"},{"Location":"SAVE MORE FOOD STORE","Address":"689 Calderon Ave","City":"Mountain View","State":"CA","Zip":"94041"},{"Location":"SMITH BARNEY 100112","Address":"650 Castro St","City":"Mountain View","State":"CA","Zip":"94041"},{"Location":"SMUG MUG","Address":"67 E Evelyn Ave","City":"Mountain View","State":"CA","Zip":"94041"},{"Location":"STEINS BEER GARDEN","Address":"895 Villa St","City":"Mountain View","State":"CA","Zip":"94041"},{"Location":"THE PIZZA ALLIANCE 3","Address":"146 Castro St","City":"Mountain View","State":"CA","Zip":"94041"},{"Location":"TIED HOUSE","Address":"954 Villa St","City":"Mountain View","State":"CA","Zip":"94041"},{"Location":"VASO AZZURRO RESTAURANT","Address":"108 Castro St","City":"Mountain View","State":"CA","Zip":"94041"},{"Location":"VOLTA LABATORIES","Address":"144 S Whisman Rd F","City":"Mountain View","State":"CA","Zip":"94041"},{"Location":"ZELFY INCORPORATED","Address":"321 Castro St","City":"Mountain View","State":"CA","Zip":"94041"}]