[{"Location":"7 MARES RESTAURANT","Address":"2809 Middlefield Rd","City":"Redwood City","State":"CA","Zip":"94063"},{"Location":"840 WINE BAR AND COCKTAI","Address":"840 Brewster Ave","City":"Redwood City","State":"CA","Zip":"94063"},{"Location":"A ABCO RANTS SELLS","Address":"1050 Charter St","City":"Redwood City","State":"CA","Zip":"94063"},{"Location":"ACEL RX PHARMACEUTICALS","Address":"351 Galveston Dr","City":"Redwood City","State":"CA","Zip":"94063"},{"Location":"ACTIAN CORPORATION","Address":"500 Arguello St 200","City":"Redwood City","State":"CA","Zip":"94063"},{"Location":"ACTION TOWING","Address":"1790 Industrial Way","City":"Redwood City","State":"CA","Zip":"94063"},{"Location":"AHISUSHI SUSI HIBACHI","Address":"1784 Broadway St","City":"Redwood City","State":"CA","Zip":"94063"},{"Location":"ALADDIN BB DEPT 750","Address":"710 Winslow St","City":"Redwood City","State":"CA","Zip":"94063"},{"Location":"ANGELICAS ENTERTAINMENT","Address":"863 Main St","City":"Redwood City","State":"CA","Zip":"94063"},{"Location":"APPLEBEE'S REDWOOD CITY","Address":"1135 Veterans Blvd","City":"Redwood City","State":"CA","Zip":"94063"},{"Location":"AUTOQUEST","Address":"876 Kaynyne St","City":"Redwood City","State":"CA","Zip":"94063"},{"Location":"BARTHMAN JEAN E DDS","Address":"801 Brewster Ave 255","City":"Redwood City","State":"CA","Zip":"94063"},{"Location":"BERNAL PARTNERS DBA SUPERCUTS","Address":"853 Veterans Blvd","City":"Redwood City","State":"CA","Zip":"94063"},{"Location":"BLACKTOP PAVING","Address":"3118 Rolison Rd","City":"Redwood City","State":"CA","Zip":"94063"},{"Location":"BOBBY DS COCKTAIL LOUNGE","Address":"700 Winslow St","City":"Redwood City","State":"CA","Zip":"94063"},{"Location":"BOYS AND GIRLS CLUB","Address":"1109 Hilton St","City":"Redwood City","State":"CA","Zip":"94063"},{"Location":"CALIFORNIA DETAIL INC","Address":"113 Beech St","City":"Redwood City","State":"CA","Zip":"94063"},{"Location":"CARIBEAN FLOOR COMPANY","Address":"1202 Shasta St","City":"Redwood City","State":"CA","Zip":"94063"},{"Location":"CAROUSEL COIN LAUNDRY","Address":"3106 Rolison Rd","City":"Redwood City","State":"CA","Zip":"94063"},{"Location":"CASA DE REDWOOD LOBBY","Address":"1281 Veterans Blvd","City":"Redwood City","State":"CA","Zip":"94063"},{"Location":"CENTRO CRISTIANO SION","Address":"1662 Broadway St","City":"Redwood City","State":"CA","Zip":"94063"},{"Location":"COMPLETE PEST CONTROL","Address":"851 Shasta St A","City":"Redwood City","State":"CA","Zip":"94063"},{"Location":"CROUCHING TIGER RESTAURANT","Address":"2640 Broadway St","City":"Redwood City","State":"CA","Zip":"94063"},{"Location":"CRUNCH FITNESS","Address":"515 Veterans Blvd","City":"Redwood City","State":"CA","Zip":"94063"},{"Location":"DESEO TEQUILA LOUNGE","Address":"851 Main St","City":"Redwood City","State":"CA","Zip":"94063"},{"Location":"DIAMOND CORE TRAINING","Address":"2692 Middlefield Rd F","City":"Redwood City","State":"CA","Zip":"94063"},{"Location":"DIGITAL PERSONA","Address":"720 Bay Rd","City":"Redwood City","State":"CA","Zip":"94063"},{"Location":"DONATO ENOTECA","Address":"1041 Middlefield Rd","City":"Redwood City","State":"CA","Zip":"94063"},{"Location":"DPR CONSTRUCTION INC","Address":"1450 Veterans Blvd","City":"Redwood City","State":"CA","Zip":"94063"},{"Location":"DYNASTY CLEANERS","Address":"1681 Broadway St","City":"Redwood City","State":"CA","Zip":"94063"},{"Location":"ECLIPSE METAL FABRICATION","Address":"2901 Spring St","City":"Redwood City","State":"CA","Zip":"94063"},{"Location":"EL GUANACA RESTAURANT","Address":"2950 Middlefield Rd A","City":"Redwood City","State":"CA","Zip":"94063"},{"Location":"EQUILAR","Address":"1100 Marshall St","City":"Redwood City","State":"CA","Zip":"94063"},{"Location":"EVERNOTE","Address":"305 Walnut St","City":"Redwood City","State":"CA","Zip":"94063"},{"Location":"EVERY WOMAN HEALTH CLUB INC","Address":"611 Jefferson Ave","City":"Redwood City","State":"CA","Zip":"94063"},{"Location":"FERGUSON REDWOOD CITY #0631","Address":"820 Willow St","City":"Redwood City","State":"CA","Zip":"94063"},{"Location":"FIRESTONE #012858","Address":"1458 El Camino Real","City":"Redwood City","State":"CA","Zip":"94063"},{"Location":"FIRESTONE #240716","Address":"2411 El Camino Real","City":"Redwood City","State":"CA","Zip":"94063"},{"Location":"FIRST NATIONAL BANK","Address":"700 El Camino Real","City":"Redwood City","State":"CA","Zip":"94063"},{"Location":"FIRST REPUBLIC BANK","Address":"776 El Camino Real","City":"Redwood City","State":"CA","Zip":"94063"},{"Location":"FISH AND RICHARDSON","Address":"500 Arguello St","City":"Redwood City","State":"CA","Zip":"94063"},{"Location":"FREE WHEEL BREWING CO","Address":"3736 Florence St","City":"Redwood City","State":"CA","Zip":"94063"},{"Location":"GUNDERSON DETTMER","Address":"1200 Seaport Blvd","City":"Redwood City","State":"CA","Zip":"94063"},{"Location":"GW KARIS INC","Address":"831 Sweeney Ave A","City":"Redwood City","State":"CA","Zip":"94063"},{"Location":"HAPPY DONUTS","Address":"820 Veterans Blvd A","City":"Redwood City","State":"CA","Zip":"94063"},{"Location":"HEALTH AND WELLNESS CLINIC","Address":"749 Brewster Ave","City":"Redwood City","State":"CA","Zip":"94063"},{"Location":"ILLUMINA REDWOOD","Address":"800 Saginaw Dr","City":"Redwood City","State":"CA","Zip":"94063"},{"Location":"IMAGE HAIRCUT AND NAIL","Address":"1683 Broadway St","City":"Redwood City","State":"CA","Zip":"94063"},{"Location":"INDUSTRIAL PLUMBING","Address":"2930 Flood Ave","City":"Redwood City","State":"CA","Zip":"94063"},{"Location":"INFORMATICA","Address":"2100 Seaport Blvd","City":"Redwood City","State":"CA","Zip":"94063"},{"Location":"J&J-CALIBRA","Address":"220 Saginaw Dr","City":"Redwood City","State":"CA","Zip":"94063"},{"Location":"KAISER PERMANENTE MEDICAL OFF","Address":"1100 Veterans Blvd","City":"Redwood City","State":"CA","Zip":"94063"},{"Location":"KKPX-TV","Address":"660 Price Ave B","City":"Redwood City","State":"CA","Zip":"94063"},{"Location":"KOHL'S #1389","Address":"250 Walnut St","City":"Redwood City","State":"CA","Zip":"94063"},{"Location":"LANGURE BEAUTY SALON","Address":"1752 El Camino Real","City":"Redwood City","State":"CA","Zip":"94063"},{"Location":"LITTLE MADFISH","Address":"1021 El Camino Real","City":"Redwood City","State":"CA","Zip":"94063"},{"Location":"MANDALOUN","Address":"2021 Broadway St","City":"Redwood City","State":"CA","Zip":"94063"},{"Location":"MARGARITAS","Address":"2098 Broadway St","City":"Redwood City","State":"CA","Zip":"94063"},{"Location":"MARTIN RESTAURANT","Address":"3143 Middlefield Rd","City":"Redwood City","State":"CA","Zip":"94063"},{"Location":"MARTINS WEST","Address":"831 Main St","City":"Redwood City","State":"CA","Zip":"94063"},{"Location":"MED EXPERT INTL","Address":"1300 Hancock St","City":"Redwood City","State":"CA","Zip":"94063"},{"Location":"MILAGROS","Address":"1099 Middlefield Rd","City":"Redwood City","State":"CA","Zip":"94063"},{"Location":"MODA STUDIOS LLC","Address":"2115 Broadway St 3","City":"Redwood City","State":"CA","Zip":"94063"},{"Location":"MYOSCIENCE","Address":"1600 Seaport Blvd 4","City":"Redwood City","State":"CA","Zip":"94063"},{"Location":"MZ SHIRLIZ TRANSITONAL","Address":"1445 El Camino","City":"Redwood City","State":"CA","Zip":"94063"},{"Location":"NAZARETH ICE GRILL","Address":"3140 Bay Rd","City":"Redwood City","State":"CA","Zip":"94063"},{"Location":"NEST GSV","Address":"425 Broadway St","City":"Redwood City","State":"CA","Zip":"94063"},{"Location":"OPENWAVE MOBILITY","Address":"1600 Seaport Blvd","City":"Redwood City","State":"CA","Zip":"94063"},{"Location":"PANADERIA Y RESTAURANTE","Address":"1509 Main St","City":"Redwood City","State":"CA","Zip":"94063"},{"Location":"PDI %2F DREAMWORKS","Address":"1800 Seaport Blvd","City":"Redwood City","State":"CA","Zip":"94063"},{"Location":"PENNINSULA YACHT CLUB","Address":"1536 Maple St","City":"Redwood City","State":"CA","Zip":"94063"},{"Location":"PORTOBELLA GRILLE","Address":"875 Middlefield Rd","City":"Redwood City","State":"CA","Zip":"94063"},{"Location":"POWERHOUSE GYM","Address":"2075 Broadway St","City":"Redwood City","State":"CA","Zip":"94063"},{"Location":"PROPEL BIO FUELS","Address":"690 Broadway St","City":"Redwood City","State":"CA","Zip":"94063"},{"Location":"PUTNAM LEXUS","Address":"390 Convention Way","City":"Redwood City","State":"CA","Zip":"94063"},{"Location":"QUINTO SOL","Address":"2201 Broadway St","City":"Redwood City","State":"CA","Zip":"94063"},{"Location":"R AND B COMPANY","Address":"939 Broadway St","City":"Redwood City","State":"CA","Zip":"94063"},{"Location":"RAY TOM","Address":"865 Middlefield Rd","City":"Redwood City","State":"CA","Zip":"94063"},{"Location":"REDWOOD CITY","Address":"543 El Camino Real","City":"Redwood City","State":"CA","Zip":"94063"},{"Location":"REDWOOD CITY LIBRARY","Address":"1044 Middlefield Rd","City":"Redwood City","State":"CA","Zip":"94063"},{"Location":"RETREAT SALON 2","Address":"2072 Broadway St","City":"Redwood City","State":"CA","Zip":"94063"},{"Location":"ROCKETFUEL LLC","Address":"1900 Seaport Blvd","City":"Redwood City","State":"CA","Zip":"94063"},{"Location":"Rockin' Wraps","Address":"2053 B Broadway St.","City":"Redwood City","State":"CA","Zip":"94063"},{"Location":"ROLLZ ROYCE LIMOUSINE SERVICE","Address":"643 Bair Island Rd 210","City":"Redwood City","State":"CA","Zip":"94063"},{"Location":"ROY THOMAS CONSTRUCTION","Address":"639 Bair Island Rd 102","City":"Redwood City","State":"CA","Zip":"94063"},{"Location":"RUDOLPH & SLETTEN","Address":"1600 Seaport Blvd 350","City":"Redwood City","State":"CA","Zip":"94063"},{"Location":"SAKURA","Address":"2198 Broadway St","City":"Redwood City","State":"CA","Zip":"94063"},{"Location":"SAKURA TEPPANYAKI AND SUSHI","Address":"373 Main St","City":"Redwood City","State":"CA","Zip":"94063"},{"Location":"SAN MATEO CNTY SHERIFF","Address":"400 County Ctr","City":"Redwood City","State":"CA","Zip":"94063"},{"Location":"SAN MATEO COUNTY SHERRIFS DEPT","Address":"1402 Maple St","City":"Redwood City","State":"CA","Zip":"94063"},{"Location":"SAN MATEO CREDIT UNION","Address":"350 Convention Way","City":"Redwood City","State":"CA","Zip":"94063"},{"Location":"SAN MATEO CREDIT UNION","Address":"555 Marshall St","City":"Redwood City","State":"CA","Zip":"94063"},{"Location":"SAN MATEO CREDIT UNION","Address":"830 Jefferson Ave","City":"Redwood City","State":"CA","Zip":"94063"},{"Location":"SAN MATEO CREDIT UNION #3117","Address":"3117 Middlefield Rd","City":"Redwood City","State":"CA","Zip":"94063"},{"Location":"SANDWICH SPOT","Address":"2420 Broadway St","City":"Redwood City","State":"CA","Zip":"94063"},{"Location":"SATELLITE DIALYSIS - RC","Address":"1410 Marshall St","City":"Redwood City","State":"CA","Zip":"94063"},{"Location":"SATELLITE DIALYSIS REDWOOD","Address":"1410 Marshall St","City":"Redwood City","State":"CA","Zip":"94063"},{"Location":"SEAPORT VENTURES LP","Address":"499 Seaport Ct 302","City":"Redwood City","State":"CA","Zip":"94063"},{"Location":"SHAZAM MEDIA SERVICES RC1","Address":"2114 Broadway St","City":"Redwood City","State":"CA","Zip":"94063"},{"Location":"SILVER SPRING NETWORKS","Address":"555 Broadway St","City":"Redwood City","State":"CA","Zip":"94063"},{"Location":"SIZZLER 522","Address":"1011 Veterans Blvd","City":"Redwood City","State":"CA","Zip":"94063"},{"Location":"SMCDSA","Address":"2421 Broadway St","City":"Redwood City","State":"CA","Zip":"94063"},{"Location":"SOCIAL CONCEPTS INC","Address":"10 California St","City":"Redwood City","State":"CA","Zip":"94063"},{"Location":"SPECIALITY ALIGNMENT & B","Address":"1011 Douglas Ave","City":"Redwood City","State":"CA","Zip":"94063"},{"Location":"SUSHAI HOUSE","Address":"2053 Broadway St","City":"Redwood City","State":"CA","Zip":"94063"},{"Location":"T AND T COIN","Address":"830 5th Ave","City":"Redwood City","State":"CA","Zip":"94063"},{"Location":"TAQUERIA MAR Y TIERRA","Address":"1475 Broadway St","City":"Redwood City","State":"CA","Zip":"94063"},{"Location":"TARGET","Address":"2485 El Camino Real","City":"Redwood City","State":"CA","Zip":"94063"},{"Location":"THE AMERICAN LEGION POST 105","Address":"651 El Camino Real","City":"Redwood City","State":"CA","Zip":"94063"},{"Location":"THE MARDI GRAS LOUNGE","Address":"1628 El Camino Real","City":"Redwood City","State":"CA","Zip":"94063"},{"Location":"THE OLD SPAGHETTI FACTORY","Address":"2107 Broadway St O","City":"Redwood City","State":"CA","Zip":"94063"},{"Location":"THE PATTY SHACK","Address":"909 Main St","City":"Redwood City","State":"CA","Zip":"94063"},{"Location":"TOYOTA 101","Address":"519 E Bayshore Rd","City":"Redwood City","State":"CA","Zip":"94063"},{"Location":"TRU AUTO DETAIL","Address":"344 Berkshire Ave C","City":"Redwood City","State":"CA","Zip":"94063"},{"Location":"UNION SMOKE","Address":"2850 Middlefield Rd","City":"Redwood City","State":"CA","Zip":"94063"},{"Location":"VII PAC SHORES INVESTERS","Address":"1100 Seaport Blvd 11","City":"Redwood City","State":"CA","Zip":"94063"},{"Location":"VII PAC SHORES INVESTORS","Address":"1600 Seaport Blvd","City":"Redwood City","State":"CA","Zip":"94063"},{"Location":"VILLAGE BOTTLE SHOP","Address":"504 El Camino Real","City":"Redwood City","State":"CA","Zip":"94063"},{"Location":"WELLS FARGO BANK","Address":"1900 Broadway St","City":"Redwood City","State":"CA","Zip":"94063"},{"Location":"YOUNGS ICE CREAM AND CANDY BAR","Address":"2020 Broadway St","City":"Redwood City","State":"CA","Zip":"94063"}]