[{"Location":"23RD MARINE REGIMEN","Address":"900 Commodore Dr","City":"San Bruno","State":"CA","Zip":"94066"},{"Location":"AMAMI SUSHI","Address":"1789 El Camino Real","City":"San Bruno","State":"CA","Zip":"94066"},{"Location":"ARAUJOS RESTAURANT","Address":"404 San Bruno Ave W","City":"San Bruno","State":"CA","Zip":"94066"},{"Location":"ARTICHOKE JOE'S CASINO","Address":"659 Huntington Ave","City":"San Bruno","State":"CA","Zip":"94066"},{"Location":"BJS RESTAURANT #440","Address":"1150 El Camino Real 271","City":"San Bruno","State":"CA","Zip":"94066"},{"Location":"CABALEN","Address":"495 San Mateo Ave","City":"San Bruno","State":"CA","Zip":"94066"},{"Location":"CAMINO CORNER","Address":"110 El Camino Real","City":"San Bruno","State":"CA","Zip":"94066"},{"Location":"CARROLLS MEAT","Address":"189 San Bruno Ave","City":"San Bruno","State":"CA","Zip":"94066"},{"Location":"CD WIRELESS","Address":"579 San Mateo Ave","City":"San Bruno","State":"CA","Zip":"94066"},{"Location":"CELIOS MEXICAN RESTAURANT","Address":"201 El Camino Real","City":"San Bruno","State":"CA","Zip":"94066"},{"Location":"CHECK EXPERT","Address":"1710a El Camino Real","City":"San Bruno","State":"CA","Zip":"94066"},{"Location":"CHILI'S #0057","Address":"899 El Camino Real","City":"San Bruno","State":"CA","Zip":"94066"},{"Location":"CORD BLOOD REGISTRY","Address":"1200 Bayhill Dr 301","City":"San Bruno","State":"CA","Zip":"94066"},{"Location":"COURTYARD BY MARRIOTT SF AIRPO","Address":"1050 Bayhill Dr","City":"San Bruno","State":"CA","Zip":"94066"},{"Location":"DESTINATION XL 9704","Address":"1202 El Camino Real","City":"San Bruno","State":"CA","Zip":"94066"},{"Location":"DICKEYS SAN BRUNO 571","Address":"1212 El Camino Real Cd","City":"San Bruno","State":"CA","Zip":"94066"},{"Location":"DON PICOS","Address":"461 El Camino Real","City":"San Bruno","State":"CA","Zip":"94066"},{"Location":"DREAMS HAIR AND BEAUTY","Address":"508 San Mateo Ave","City":"San Bruno","State":"CA","Zip":"94066"},{"Location":"FORTIES","Address":"497 San Mateo Ave","City":"San Bruno","State":"CA","Zip":"94066"},{"Location":"GEORGIOS RESTAURANT","Address":"677 San Mateo Ave","City":"San Bruno","State":"CA","Zip":"94066"},{"Location":"GRAILEYS INC","Address":"1142 Cherry Ave","City":"San Bruno","State":"CA","Zip":"94066"},{"Location":"GREAT AMERICAN MASONRY","Address":"520 Linden Ave","City":"San Bruno","State":"CA","Zip":"94066"},{"Location":"HEMA POMBRA DDS","Address":"1252 El Camino Real B","City":"San Bruno","State":"CA","Zip":"94066"},{"Location":"HOOTERS OF SAN BRUNO","Address":"1150 El Camino Real 210","City":"San Bruno","State":"CA","Zip":"94066"},{"Location":"HPR BISTRO","Address":"741 San Mateo Ave","City":"San Bruno","State":"CA","Zip":"94066"},{"Location":"JACK RESTAURANT BAR","Address":"1050 Admiral Ct A","City":"San Bruno","State":"CA","Zip":"94066"},{"Location":"KOBE SAKE SUSHI BAR","Address":"312 El Camino Rio","City":"San Bruno","State":"CA","Zip":"94066"},{"Location":"L&L HAWAIIAN BBQ","Address":"1230 El Camino Real M","City":"San Bruno","State":"CA","Zip":"94066"},{"Location":"LA PALOMA","Address":"699 San Mateo Ave","City":"San Bruno","State":"CA","Zip":"94066"},{"Location":"MELODY TOYOTA","Address":"750 El Camino Real","City":"San Bruno","State":"CA","Zip":"94066"},{"Location":"MIJORI","Address":"1230 El Camino Real B","City":"San Bruno","State":"CA","Zip":"94066"},{"Location":"NATIONAL ARCHIVES RECORDS","Address":"1000 Commodore Dr","City":"San Bruno","State":"CA","Zip":"94066"},{"Location":"NEW YORK PIZZA","Address":"700 San Bruno Ave E","City":"San Bruno","State":"CA","Zip":"94066"},{"Location":"NINJA SUSHI & TOFU","Address":"681 San Mateo Ave","City":"San Bruno","State":"CA","Zip":"94066"},{"Location":"OOC INC","Address":"851 Cherry Ave 8","City":"San Bruno","State":"CA","Zip":"94066"},{"Location":"PASQUALES WEST COAST PIZ","Address":"730 Kains Ave","City":"San Bruno","State":"CA","Zip":"94066"},{"Location":"POPEYE FRIED CHICKEN","Address":"1310 El Camino Real","City":"San Bruno","State":"CA","Zip":"94066"},{"Location":"RED LOBSTER #0549","Address":"1210 El Camino Real","City":"San Bruno","State":"CA","Zip":"94066"},{"Location":"RED ROBIN #193","Address":"1274 El Camino Real","City":"San Bruno","State":"CA","Zip":"94066"},{"Location":"RMC MOTORCARS","Address":"444 El Camino Real","City":"San Bruno","State":"CA","Zip":"94066"},{"Location":"ROSS PROPERTIES","Address":"600 El Camino Real 101","City":"San Bruno","State":"CA","Zip":"94066"},{"Location":"SAJJRAYS PIZZA","Address":"482 San Mateo Ave","City":"San Bruno","State":"CA","Zip":"94066"},{"Location":"SALON MAHER","Address":"753 Kains Ave","City":"San Bruno","State":"CA","Zip":"94066"},{"Location":"SAN FRANCISCO SHERRIF DEPT CJ5","Address":"1 Moreland Dr","City":"San Bruno","State":"CA","Zip":"94066"},{"Location":"SCOTTRADE 54Z","Address":"1050 Admiral Ct C","City":"San Bruno","State":"CA","Zip":"94066"},{"Location":"TAQUERIA MI DURANCO","Address":"287 El Camino Real","City":"San Bruno","State":"CA","Zip":"94066"},{"Location":"TARGET","Address":"300 Tanforan Park Mall","City":"San Bruno","State":"CA","Zip":"94066"},{"Location":"TARGET","Address":"1150 El Camino Real","City":"San Bruno","State":"CA","Zip":"94066"},{"Location":"VANTAGEPOINT MANAGEMENT INC","Address":"1001 Bayhill Dr 300","City":"San Bruno","State":"CA","Zip":"94066"},{"Location":"WELLS FARGO BANK","Address":"875 El Camino Real","City":"San Bruno","State":"CA","Zip":"94066"},{"Location":"WENCOM CORP","Address":"499 El Camino Real","City":"San Bruno","State":"CA","Zip":"94066"},{"Location":"WEST COAST CONFERENCE","Address":"1111 Bayhill Dr 405","City":"San Bruno","State":"CA","Zip":"94066"}]