[{"Location":"ABS CBN INT'L","Address":"150 Shoreline Dr","City":"Redwood City","State":"CA","Zip":"94065"},{"Location":"ABS CBN INTERNATIONAL","Address":"150 Shoreline Dr","City":"Redwood City","State":"CA","Zip":"94065"},{"Location":"BAY LEAF CAFE","Address":"1201 Radio Rd","City":"Redwood City","State":"CA","Zip":"94065"},{"Location":"COVINGTON & BURLING  LLP","Address":"333 Twin Dolphin Dr 750","City":"Redwood City","State":"CA","Zip":"94065"},{"Location":"DENNIS J PETTINELL","Address":"333 Twin Dolphin Dr 110","City":"Redwood City","State":"CA","Zip":"94065"},{"Location":"ELECTRONIC ARTS","Address":"209 Redwood Shores Pkwy","City":"Redwood City","State":"CA","Zip":"94065"},{"Location":"ELECTRONIC ARTS - IR","Address":"250 Shoreline Dr","City":"Redwood City","State":"CA","Zip":"94065"},{"Location":"ELECTRONIC ARTS 211 CAFE","Address":"211 Redwood Shores Pkwy","City":"Redwood City","State":"CA","Zip":"94065"},{"Location":"ELECTRONIC ARTS EA SPORTS","Address":"250 Shoreline Dr","City":"Redwood City","State":"CA","Zip":"94065"},{"Location":"ELECTRONIC ARTS EARS PRODUCT","Address":"250 Shoreline Dr","City":"Redwood City","State":"CA","Zip":"94065"},{"Location":"ELECTRONIC ARTS G.S.S","Address":"250 Shoreline Dr E3","City":"Redwood City","State":"CA","Zip":"94065"},{"Location":"ELECTRONIC ARTS MILESTONE THEA","Address":"209 Redwood Shores Pkwy","City":"Redwood City","State":"CA","Zip":"94065"},{"Location":"ELECTRONIC ARTS-CONSUMER MARKE","Address":"209 Redwood Shores Pkwy 250","City":"Redwood City","State":"CA","Zip":"94065"},{"Location":"ELECTRONIC ARTS-FAC","Address":"250 Shoreline Dr","City":"Redwood City","State":"CA","Zip":"94065"},{"Location":"ELECTRONICS ARTS-ONLINE","Address":"209 Redwood Shores Pkwy","City":"Redwood City","State":"CA","Zip":"94065"},{"Location":"EQUINIX","Address":"1 Lagoon Dr","City":"Redwood City","State":"CA","Zip":"94065"},{"Location":"ERNST & YOUNG","Address":"275 Shoreline Dr 600","City":"Redwood City","State":"CA","Zip":"94065"},{"Location":"FALAFEL TAZAH","Address":"256 Redwood Shores Pkwy","City":"Redwood City","State":"CA","Zip":"94065"},{"Location":"GRAY DUFFY LLP","Address":"210b Twin Dolphin Dr","City":"Redwood City","State":"CA","Zip":"94065"},{"Location":"HOTEL SOFITEL SAN FRA(0064208)","Address":"223 Twin Dolphin Dr","City":"Redwood City","State":"CA","Zip":"94065"},{"Location":"IPASS","Address":"3800 Bridge Pkwy","City":"Redwood City","State":"CA","Zip":"94065"},{"Location":"ITSON INC","Address":"3 Lagoon Dr 230","City":"Redwood City","State":"CA","Zip":"94065"},{"Location":"JOZU LLC","Address":"637 Marlin Ct","City":"Redwood City","State":"CA","Zip":"94065"},{"Location":"MISTRAL RESTAURANT CE-99","Address":"370 Bridge Pkwy 6","City":"Redwood City","State":"CA","Zip":"94065"},{"Location":"NINTENDO OF AMERICAN INC","Address":"2000 Bridge Pkwy 200","City":"Redwood City","State":"CA","Zip":"94065"},{"Location":"ORACLE AMERICA  INC","Address":"300 Oracle Pkwy","City":"Redwood City","State":"CA","Zip":"94065"},{"Location":"ORACLE CORPORATION","Address":"400 Oracle Pkwy","City":"Redwood City","State":"CA","Zip":"94065"},{"Location":"ORACLE CORPORATION #2","Address":"600 Oracle Pkwy","City":"Redwood City","State":"CA","Zip":"94065"},{"Location":"ORACLE CORPORATION #3","Address":"350 Oracle Pkwy","City":"Redwood City","State":"CA","Zip":"94065"},{"Location":"ORACLE CORPORATION #4","Address":"500 Oracle Pkwy 6fl","City":"Redwood City","State":"CA","Zip":"94065"},{"Location":"ORACLE CORPORATION 5","Address":"200 Oracle Pkwy","City":"Redwood City","State":"CA","Zip":"94065"},{"Location":"ORACLE CORPORATION-500 ORACLE","Address":"500 Oracle Pkwy","City":"Redwood City","State":"CA","Zip":"94065"},{"Location":"PACIFIC ATHELTIC CLUB BAR","Address":"200 Redwood Shores Pkwy","City":"Redwood City","State":"CA","Zip":"94065"},{"Location":"QUINN EMANUEL URQUHART","Address":"555 Twin Dolphin Dr 5","City":"Redwood City","State":"CA","Zip":"94065"},{"Location":"REACH FITNESS CLUB","Address":"250 Oracle Pkwy","City":"Redwood City","State":"CA","Zip":"94065"},{"Location":"REDWOOD CITY OFFICE SPACE","Address":"203 Redwood Shores Pkwy 530","City":"Redwood City","State":"CA","Zip":"94065"},{"Location":"SAMCERA","Address":"100 Marine Pkwy 125","City":"Redwood City","State":"CA","Zip":"94065"},{"Location":"SHUTERFLY INC 2","Address":"3000 Bridge Pkwy","City":"Redwood City","State":"CA","Zip":"94065"},{"Location":"SHUTTERFLY INC","Address":"2800 Bridge Pkwy","City":"Redwood City","State":"CA","Zip":"94065"},{"Location":"THE GRILL HOUSE","Address":"246 Redwood Shores Pkwy","City":"Redwood City","State":"CA","Zip":"94065"},{"Location":"THE REALTY ASSOC FUND VII","Address":"100 Marine Pkwy","City":"Redwood City","State":"CA","Zip":"94065"},{"Location":"WEIL GOTSHAL & MANGES LLP","Address":"201 Redwood Shores Pkwy","City":"Redwood City","State":"CA","Zip":"94065"},{"Location":"YODLEE","Address":"3600 Bridge Pkwy 200","City":"Redwood City","State":"CA","Zip":"94065"},{"Location":"YODLEE 2","Address":"3600 Bridge Pkwy","City":"Redwood City","State":"CA","Zip":"94065"},{"Location":"ORACLE CORPORATION","Address":"401 Island Parkway","City":"Redwood Shores","State":"CA","Zip":"94065"}]