[{"Location":"CORDILLERAS CENTER","Address":"200 Edmonds Rd","City":"Redwood City","State":"CA","Zip":"94062"},{"Location":"DR ROBERT WOLF DDS","Address":"193 Arch St","City":"Redwood City","State":"CA","Zip":"94062"},{"Location":"GALEOTTI'S PIZZERIA","Address":"3121 Jefferson Ave","City":"Redwood City","State":"CA","Zip":"94062"},{"Location":"INTERO REAL ESTATE SERVICES","Address":"1580 Canada Ln","City":"Redwood City","State":"CA","Zip":"94062"},{"Location":"MOUNTAIN MIKES  PIZZA","Address":"120 El Camino Real","City":"Redwood City","State":"CA","Zip":"94062"},{"Location":"SEQUOIA HOSPITAL","Address":"170 Alameda De Las Pulgas","City":"Redwood City","State":"CA","Zip":"94062"},{"Location":"THE CANYON INN","Address":"587 Canyon Rd","City":"Redwood City","State":"CA","Zip":"94062"},{"Location":"HORSE PARK AT WOODSIDE","Address":"3674 Sand Hill Road","City":"Woodside","State":"CA","Zip":"94062"},{"Location":"MENLO COUNTRY  CLUB","Address":"2300 Woodside Rd","City":"Woodside","State":"CA","Zip":"94062"},{"Location":"MESSINA","Address":"925 Mountain Home Rd","City":"Woodside","State":"CA","Zip":"94062"},{"Location":"MOUNTED PATROL","Address":"521 Kings Mountain Rd","City":"Woodside","State":"CA","Zip":"94062"},{"Location":"PETERSON LEGACY","Address":"485 Whiskey Hill Rd","City":"Woodside","State":"CA","Zip":"94062"},{"Location":"WOODSIDE BAKERY & CAFE","Address":"3052 Woodside Rd","City":"Woodside","State":"CA","Zip":"94062"},{"Location":"WOODSIDE INVESTMENT PARTNERS","Address":"580 Mountain Home Rd","City":"Woodside","State":"CA","Zip":"94062"},{"Location":"CORDILLERAS CENTER","Address":"200 Edmonds Rd","City":"Redwood City","State":"CA","Zip":"94062"},{"Location":"DR ROBERT WOLF DDS","Address":"193 Arch St","City":"Redwood City","State":"CA","Zip":"94062"},{"Location":"GALEOTTI'S PIZZERIA","Address":"3121 Jefferson Ave","City":"Redwood City","State":"CA","Zip":"94062"},{"Location":"INTERO REAL ESTATE SERVICES","Address":"1580 Canada Ln","City":"Redwood City","State":"CA","Zip":"94062"},{"Location":"MOUNTAIN MIKES  PIZZA","Address":"120 El Camino Real","City":"Redwood City","State":"CA","Zip":"94062"},{"Location":"SEQUOIA HOSPITAL","Address":"170 Alameda De Las Pulgas","City":"Redwood City","State":"CA","Zip":"94062"},{"Location":"THE CANYON INN","Address":"587 Canyon Rd","City":"Redwood City","State":"CA","Zip":"94062"},{"Location":"HORSE PARK AT WOODSIDE","Address":"3674 Sand Hill Road","City":"Woodside","State":"CA","Zip":"94062"},{"Location":"MENLO COUNTRY  CLUB","Address":"2300 Woodside Rd","City":"Woodside","State":"CA","Zip":"94062"},{"Location":"MESSINA","Address":"925 Mountain Home Rd","City":"Woodside","State":"CA","Zip":"94062"},{"Location":"MOUNTED PATROL","Address":"521 Kings Mountain Rd","City":"Woodside","State":"CA","Zip":"94062"},{"Location":"PETERSON LEGACY","Address":"485 Whiskey Hill Rd","City":"Woodside","State":"CA","Zip":"94062"},{"Location":"WOODSIDE BAKERY & CAFE","Address":"3052 Woodside Rd","City":"Woodside","State":"CA","Zip":"94062"},{"Location":"WOODSIDE INVESTMENT PARTNERS","Address":"580 Mountain Home Rd","City":"Woodside","State":"CA","Zip":"94062"}]