[{"Location":"DINER JAPONICA","Address":"593 Woodside Rd E","City":"Redwood City","State":"CA","Zip":"94061"},{"Location":"FERRARI-MESARITI OF SILICON","Address":"2750 El Camino Real","City":"Redwood City","State":"CA","Zip":"94061"},{"Location":"HO","Address":"760 Woodside Rd","City":"Redwood City","State":"CA","Zip":"94061"},{"Location":"JEFFREY REALTORS","Address":"2739 El Camino Real B","City":"Redwood City","State":"CA","Zip":"94061"},{"Location":"K AND L WINE MERCHANT","Address":"3033 El Camino Real","City":"Redwood City","State":"CA","Zip":"94061"},{"Location":"MEN'S WEARHOUSE #2183","Address":"2505 El Camino Real","City":"Redwood City","State":"CA","Zip":"94061"},{"Location":"PLANNED PARENTHOOD MAR MONTE","Address":"2907 El Camino Real","City":"Redwood City","State":"CA","Zip":"94061"},{"Location":"POPEYE FRIED    CHICKEN","Address":"740 Woodside Rd","City":"Redwood City","State":"CA","Zip":"94061"},{"Location":"PRONTO PIZZERIA","Address":"2560 El Camino Real","City":"Redwood City","State":"CA","Zip":"94061"},{"Location":"RACK AND ROLL BBQ SHOP","Address":"20 Woodside Plz","City":"Redwood City","State":"CA","Zip":"94061"},{"Location":"ROMA HAIR STUDIO","Address":"111 Madison Ave","City":"Redwood City","State":"CA","Zip":"94061"},{"Location":"SEQUOIA YMCA","Address":"1445 Hudson St","City":"Redwood City","State":"CA","Zip":"94061"},{"Location":"SOCCER PRO RC","Address":"2737 El Camino Real","City":"Redwood City","State":"CA","Zip":"94061"},{"Location":"STEPHEN SILVER FINE JEWELRY","Address":"2055 Woodside Rd 200","City":"Redwood City","State":"CA","Zip":"94061"},{"Location":"SUSHI PLUS","Address":"30 Woodside Plz","City":"Redwood City","State":"CA","Zip":"94061"},{"Location":"DINER JAPONICA","Address":"593 Woodside Rd E","City":"Redwood City","State":"CA","Zip":"94061"},{"Location":"FERRARI-MESARITI OF SILICON","Address":"2750 El Camino Real","City":"Redwood City","State":"CA","Zip":"94061"},{"Location":"HO","Address":"760 Woodside Rd","City":"Redwood City","State":"CA","Zip":"94061"},{"Location":"JEFFREY REALTORS","Address":"2739 El Camino Real B","City":"Redwood City","State":"CA","Zip":"94061"},{"Location":"K AND L WINE MERCHANT","Address":"3033 El Camino Real","City":"Redwood City","State":"CA","Zip":"94061"},{"Location":"MEN'S WEARHOUSE #2183","Address":"2505 El Camino Real","City":"Redwood City","State":"CA","Zip":"94061"},{"Location":"PLANNED PARENTHOOD MAR MONTE","Address":"2907 El Camino Real","City":"Redwood City","State":"CA","Zip":"94061"},{"Location":"POPEYE FRIED    CHICKEN","Address":"740 Woodside Rd","City":"Redwood City","State":"CA","Zip":"94061"},{"Location":"PRONTO PIZZERIA","Address":"2560 El Camino Real","City":"Redwood City","State":"CA","Zip":"94061"},{"Location":"RACK AND ROLL BBQ SHOP","Address":"20 Woodside Plz","City":"Redwood City","State":"CA","Zip":"94061"},{"Location":"ROMA HAIR STUDIO","Address":"111 Madison Ave","City":"Redwood City","State":"CA","Zip":"94061"},{"Location":"SEQUOIA YMCA","Address":"1445 Hudson St","City":"Redwood City","State":"CA","Zip":"94061"},{"Location":"SOCCER PRO RC","Address":"2737 El Camino Real","City":"Redwood City","State":"CA","Zip":"94061"},{"Location":"STEPHEN SILVER FINE JEWELRY","Address":"2055 Woodside Rd 200","City":"Redwood City","State":"CA","Zip":"94061"},{"Location":"SUSHI PLUS","Address":"30 Woodside Plz","City":"Redwood City","State":"CA","Zip":"94061"}]