[{"Location":"COSTANOA","Address":"2001 Rossi Rd","City":"Pescadero","State":"CA","Zip":"94060"},{"Location":"DOWNTOWN LOCAL","Address":"213 Stage Rd%2C Flrlwr","City":"Pescadero","State":"CA","Zip":"94060"},{"Location":"DUARTE'S TAVERN","Address":"202 Stage Rd","City":"Pescadero","State":"CA","Zip":"94060"},{"Location":"THE TOMKAT RANCH LLC","Address":"2997 Pescadero Creek Rd","City":"Pescadero","State":"CA","Zip":"94060"},{"Location":"THE TOMKAT RANCH LLC2","Address":"2997 Pescadero Creek Rd","City":"Pescadero","State":"CA","Zip":"94060"},{"Location":"THE TOMKAT RANCH LLC3","Address":"2997 Pescadero Creek Rd","City":"Pescadero","State":"CA","Zip":"94060"},{"Location":"COSTANOA","Address":"2001 Rossi Rd","City":"Pescadero","State":"CA","Zip":"94060"},{"Location":"DOWNTOWN LOCAL","Address":"213 Stage Rd%2C Flrlwr","City":"Pescadero","State":"CA","Zip":"94060"},{"Location":"DUARTE'S TAVERN","Address":"202 Stage Rd","City":"Pescadero","State":"CA","Zip":"94060"},{"Location":"THE TOMKAT RANCH LLC","Address":"2997 Pescadero Creek Rd","City":"Pescadero","State":"CA","Zip":"94060"},{"Location":"THE TOMKAT RANCH LLC2","Address":"2997 Pescadero Creek Rd","City":"Pescadero","State":"CA","Zip":"94060"},{"Location":"THE TOMKAT RANCH LLC3","Address":"2997 Pescadero Creek Rd","City":"Pescadero","State":"CA","Zip":"94060"}]