[{"Location":"ACE RAIN GUTTER","Address":"1051 E San Carlos Ave","City":"San Carlos","State":"CA","Zip":"94070"},{"Location":"ALE ARSENAL","Address":"971 Laurel St","City":"San Carlos","State":"CA","Zip":"94070"},{"Location":"AMBER JEAN PRODUCTIONS INC","Address":"593 Quarry Rd","City":"San Carlos","State":"CA","Zip":"94070"},{"Location":"AP ABELLON INC","Address":"1135 Industrial Rd E","City":"San Carlos","State":"CA","Zip":"94070"},{"Location":"ATHENS CHIROPRACTIC","Address":"951 Industrial Rd B","City":"San Carlos","State":"CA","Zip":"94070"},{"Location":"BELL PLUMBING","Address":"611 Industrial Rd 8","City":"San Carlos","State":"CA","Zip":"94070"},{"Location":"BLUELINE FLOOR COVERINGS","Address":"969 Industrial Rd F","City":"San Carlos","State":"CA","Zip":"94070"},{"Location":"CHECK POINT SOFTWARE 2","Address":"959 Skyway Rd 300","City":"San Carlos","State":"CA","Zip":"94070"},{"Location":"CLOONEYS PUB","Address":"1189 Laurel St","City":"San Carlos","State":"CA","Zip":"94070"},{"Location":"COCCI CONSTRUCTION","Address":"931 Terminal Way","City":"San Carlos","State":"CA","Zip":"94070"},{"Location":"CWC NORTH","Address":"1054 Terminal Way","City":"San Carlos","State":"CA","Zip":"94070"},{"Location":"DUCKIES CAR WASH","Address":"1301 Old County Rd","City":"San Carlos","State":"CA","Zip":"94070"},{"Location":"EMELINAS RESTAURANT","Address":"1065 Holly St D","City":"San Carlos","State":"CA","Zip":"94070"},{"Location":"ERNIE GIOTINIS","Address":"1010 Commercial St","City":"San Carlos","State":"CA","Zip":"94070"},{"Location":"FALEHUSANGA UNITED METHO","Address":"2851 San Carlos Ave","City":"San Carlos","State":"CA","Zip":"94070"},{"Location":"FRED A MARCUSSSEN CPA","Address":"951 Industrial Rd A","City":"San Carlos","State":"CA","Zip":"94070"},{"Location":"GEORGE P JOHNSON COMPANY","Address":"999 Skyway 300","City":"San Carlos","State":"CA","Zip":"94070"},{"Location":"GO TO CHOCOLATES WHOLESALE","Address":"765 Old County Rd A","City":"San Carlos","State":"CA","Zip":"94070"},{"Location":"HOME PLATE FURNISHINGS L","Address":"1316 El Camino Real","City":"San Carlos","State":"CA","Zip":"94070"},{"Location":"ISIS SERVICES LLC","Address":"1031 Bing St","City":"San Carlos","State":"CA","Zip":"94070"},{"Location":"IZZY'S STEAK HOUSE","Address":"525 Skyway","City":"San Carlos","State":"CA","Zip":"94070"},{"Location":"JERSEY JOE'S","Address":"21 El Camino Real","City":"San Carlos","State":"CA","Zip":"94070"},{"Location":"JKT TRADE INC","Address":"1324 El Camino Real","City":"San Carlos","State":"CA","Zip":"94070"},{"Location":"JUNK KING LLC","Address":"969 Industrial Rd G","City":"San Carlos","State":"CA","Zip":"94070"},{"Location":"KIEFER MACHINE","Address":"940 Commercial St I","City":"San Carlos","State":"CA","Zip":"94070"},{"Location":"L3 COMMUNICATIONS","Address":"960 Industrial Rd","City":"San Carlos","State":"CA","Zip":"94070"},{"Location":"LA CORNETA 4","Address":"1147 San Carlos Ave","City":"San Carlos","State":"CA","Zip":"94070"},{"Location":"LJ & H AIR","Address":"620 Airport Dr T1","City":"San Carlos","State":"CA","Zip":"94070"},{"Location":"LULUS ON LAUREL","Address":"876 Laurel St","City":"San Carlos","State":"CA","Zip":"94070"},{"Location":"LUNCH BOX 1","Address":"603 Laurel St","City":"San Carlos","State":"CA","Zip":"94070"},{"Location":"MARK LOGIC CORPORATION","Address":"999 Skyway Rd 200","City":"San Carlos","State":"CA","Zip":"94070"},{"Location":"MARY BETH INC","Address":"1611 Old County Rd","City":"San Carlos","State":"CA","Zip":"94070"},{"Location":"MI RANCHITO TAQUERIA","Address":"660 Laurel St","City":"San Carlos","State":"CA","Zip":"94070"},{"Location":"MODERN HAIR DESIGN","Address":"1243 Laurel St","City":"San Carlos","State":"CA","Zip":"94070"},{"Location":"MORROW MEADOWS","Address":"1050 Bing St","City":"San Carlos","State":"CA","Zip":"94070"},{"Location":"NATERA","Address":"201 Industrial Rd 410","City":"San Carlos","State":"CA","Zip":"94070"},{"Location":"NGU LLC","Address":"1640 Laurel St","City":"San Carlos","State":"CA","Zip":"94070"},{"Location":"NOVARTIS","Address":"150 Industrial Rd","City":"San Carlos","State":"CA","Zip":"94070"},{"Location":"ORCHID ROOM","Address":"678a Laurel St","City":"San Carlos","State":"CA","Zip":"94070"},{"Location":"PACIFIC GAS AND ELECTRIC","Address":"275 Industrial Rd","City":"San Carlos","State":"CA","Zip":"94070"},{"Location":"PACIFIC GAS AND ELECTRIC I","Address":"275 Industrial Rd 105","City":"San Carlos","State":"CA","Zip":"94070"},{"Location":"PAZZO","Address":"1179 Laurel St","City":"San Carlos","State":"CA","Zip":"94070"},{"Location":"PENESULA SEAFOOD LLC","Address":"648 El Camino Real","City":"San Carlos","State":"CA","Zip":"94070"},{"Location":"PHO VINH","Address":"1065 Holly St A","City":"San Carlos","State":"CA","Zip":"94070"},{"Location":"PUDLEY'S","Address":"774 El Camino Real","City":"San Carlos","State":"CA","Zip":"94070"},{"Location":"RAIL SPORTS BAR AND CLUB","Address":"612 El Camino Real","City":"San Carlos","State":"CA","Zip":"94070"},{"Location":"RECOLOGY","Address":"225 Shoreway Rd","City":"San Carlos","State":"CA","Zip":"94070"},{"Location":"RJ PENINSULA INC","Address":"401 Quarry Rd","City":"San Carlos","State":"CA","Zip":"94070"},{"Location":"ROUNTREE PLUMBING","Address":"1659 Industrial Rd","City":"San Carlos","State":"CA","Zip":"94070"},{"Location":"RYU SUSHI BISTRO","Address":"1201 Laurel St","City":"San Carlos","State":"CA","Zip":"94070"},{"Location":"SANCHOS TAQUERIA","Address":"1494 El Camino Real","City":"San Carlos","State":"CA","Zip":"94070"},{"Location":"SB U.S. LLC","Address":"1 Circle Star Way","City":"San Carlos","State":"CA","Zip":"94070"},{"Location":"SB US LLC","Address":"1 Circle Star Way","City":"San Carlos","State":"CA","Zip":"94070"},{"Location":"SD FLOORING","Address":"725 Industrial Rd","City":"San Carlos","State":"CA","Zip":"94070"},{"Location":"SHIKI BISTRO","Address":"825 Laurel St","City":"San Carlos","State":"CA","Zip":"94070"},{"Location":"SNEAKERS PUB & GRILL","Address":"1163 San Carlos Ave","City":"San Carlos","State":"CA","Zip":"94070"},{"Location":"SPARKYS HOT ROD GARAGE LLC","Address":"975 Industrial Rd A","City":"San Carlos","State":"CA","Zip":"94070"},{"Location":"STRATTON AGENCY","Address":"957 Industrial Rd C","City":"San Carlos","State":"CA","Zip":"94070"},{"Location":"SURFACE AND SHADING SOLUTIONS","Address":"1300 Industrial Rd 13","City":"San Carlos","State":"CA","Zip":"94070"},{"Location":"TAG INTERNATIONAL","Address":"1027 Bransten Rd","City":"San Carlos","State":"CA","Zip":"94070"},{"Location":"THE NEW PATIO","Address":"552 El Camino Real","City":"San Carlos","State":"CA","Zip":"94070"},{"Location":"THE OFFICE","Address":"1748 El Camino Real","City":"San Carlos","State":"CA","Zip":"94070"},{"Location":"THE PIZZA ALLIANCE 5","Address":"1201 San Carlos Ave","City":"San Carlos","State":"CA","Zip":"94070"},{"Location":"THE SANDWICH SPOT","Address":"1312 Laurel St A","City":"San Carlos","State":"CA","Zip":"94070"},{"Location":"TOWN RESTAURANT","Address":"716 Laurel St","City":"San Carlos","State":"CA","Zip":"94070"},{"Location":"TSSA MOULTON GROUP","Address":"794 Industrial Rd","City":"San Carlos","State":"CA","Zip":"94070"},{"Location":"US HEALTHWORKS","Address":"125 Shoreway Rd A","City":"San Carlos","State":"CA","Zip":"94070"},{"Location":"WELLS FARGO BANK","Address":"632 Laurel St 1","City":"San Carlos","State":"CA","Zip":"94070"},{"Location":"WELLS FARGO INS. SERVICE","Address":"959 Skyway 2ndf","City":"San Carlos","State":"CA","Zip":"94070"},{"Location":"ACE RAIN GUTTER","Address":"1051 E San Carlos Ave","City":"San Carlos","State":"CA","Zip":"94070"},{"Location":"ALE ARSENAL","Address":"971 Laurel St","City":"San Carlos","State":"CA","Zip":"94070"},{"Location":"AMBER JEAN PRODUCTIONS INC","Address":"593 Quarry Rd","City":"San Carlos","State":"CA","Zip":"94070"},{"Location":"AP ABELLON INC","Address":"1135 Industrial Rd E","City":"San Carlos","State":"CA","Zip":"94070"},{"Location":"ATHENS CHIROPRACTIC","Address":"951 Industrial Rd B","City":"San Carlos","State":"CA","Zip":"94070"},{"Location":"BELL PLUMBING","Address":"611 Industrial Rd 8","City":"San Carlos","State":"CA","Zip":"94070"},{"Location":"BLUELINE FLOOR COVERINGS","Address":"969 Industrial Rd F","City":"San Carlos","State":"CA","Zip":"94070"},{"Location":"CHECK POINT SOFTWARE 2","Address":"959 Skyway Rd 300","City":"San Carlos","State":"CA","Zip":"94070"},{"Location":"CLOONEYS PUB","Address":"1189 Laurel St","City":"San Carlos","State":"CA","Zip":"94070"},{"Location":"COCCI CONSTRUCTION","Address":"931 Terminal Way","City":"San Carlos","State":"CA","Zip":"94070"},{"Location":"DUCKIES CAR WASH","Address":"1301 Old County Rd","City":"San Carlos","State":"CA","Zip":"94070"},{"Location":"EMELINAS RESTAURANT","Address":"1065 Holly St D","City":"San Carlos","State":"CA","Zip":"94070"},{"Location":"ERNIE GIOTINIS","Address":"1010 Commercial St","City":"San Carlos","State":"CA","Zip":"94070"},{"Location":"FALEHUSANGA UNITED METHO","Address":"2851 San Carlos Ave","City":"San Carlos","State":"CA","Zip":"94070"},{"Location":"FRED A MARCUSSSEN CPA","Address":"951 Industrial Rd A","City":"San Carlos","State":"CA","Zip":"94070"},{"Location":"GEORGE P JOHNSON COMPANY","Address":"999 Skyway 300","City":"San Carlos","State":"CA","Zip":"94070"},{"Location":"GO TO CHOCOLATES WHOLESALE","Address":"765 Old County Rd A","City":"San Carlos","State":"CA","Zip":"94070"},{"Location":"HOME PLATE FURNISHINGS L","Address":"1316 El Camino Real","City":"San Carlos","State":"CA","Zip":"94070"},{"Location":"ISIS SERVICES LLC","Address":"1031 Bing St","City":"San Carlos","State":"CA","Zip":"94070"},{"Location":"IZZY'S STEAK HOUSE","Address":"525 Skyway","City":"San Carlos","State":"CA","Zip":"94070"},{"Location":"JERSEY JOE'S","Address":"21 El Camino Real","City":"San Carlos","State":"CA","Zip":"94070"},{"Location":"JKT TRADE INC","Address":"1324 El Camino Real","City":"San Carlos","State":"CA","Zip":"94070"},{"Location":"JUNK KING LLC","Address":"969 Industrial Rd G","City":"San Carlos","State":"CA","Zip":"94070"},{"Location":"KIEFER MACHINE","Address":"940 Commercial St I","City":"San Carlos","State":"CA","Zip":"94070"},{"Location":"L3 COMMUNICATIONS","Address":"960 Industrial Rd","City":"San Carlos","State":"CA","Zip":"94070"},{"Location":"LA CORNETA 4","Address":"1147 San Carlos Ave","City":"San Carlos","State":"CA","Zip":"94070"},{"Location":"LJ & H AIR","Address":"620 Airport Dr T1","City":"San Carlos","State":"CA","Zip":"94070"},{"Location":"LULUS ON LAUREL","Address":"876 Laurel St","City":"San Carlos","State":"CA","Zip":"94070"},{"Location":"LUNCH BOX 1","Address":"603 Laurel St","City":"San Carlos","State":"CA","Zip":"94070"},{"Location":"MARK LOGIC CORPORATION","Address":"999 Skyway Rd 200","City":"San Carlos","State":"CA","Zip":"94070"},{"Location":"MARY BETH INC","Address":"1611 Old County Rd","City":"San Carlos","State":"CA","Zip":"94070"},{"Location":"MI RANCHITO TAQUERIA","Address":"660 Laurel St","City":"San Carlos","State":"CA","Zip":"94070"},{"Location":"MODERN HAIR DESIGN","Address":"1243 Laurel St","City":"San Carlos","State":"CA","Zip":"94070"},{"Location":"MORROW MEADOWS","Address":"1050 Bing St","City":"San Carlos","State":"CA","Zip":"94070"},{"Location":"NATERA","Address":"201 Industrial Rd 410","City":"San Carlos","State":"CA","Zip":"94070"},{"Location":"NGU LLC","Address":"1640 Laurel St","City":"San Carlos","State":"CA","Zip":"94070"},{"Location":"NOVARTIS","Address":"150 Industrial Rd","City":"San Carlos","State":"CA","Zip":"94070"},{"Location":"ORCHID ROOM","Address":"678a Laurel St","City":"San Carlos","State":"CA","Zip":"94070"},{"Location":"PACIFIC GAS AND ELECTRIC","Address":"275 Industrial Rd","City":"San Carlos","State":"CA","Zip":"94070"},{"Location":"PACIFIC GAS AND ELECTRIC I","Address":"275 Industrial Rd 105","City":"San Carlos","State":"CA","Zip":"94070"},{"Location":"PAZZO","Address":"1179 Laurel St","City":"San Carlos","State":"CA","Zip":"94070"},{"Location":"PENESULA SEAFOOD LLC","Address":"648 El Camino Real","City":"San Carlos","State":"CA","Zip":"94070"},{"Location":"PHO VINH","Address":"1065 Holly St A","City":"San Carlos","State":"CA","Zip":"94070"},{"Location":"PUDLEY'S","Address":"774 El Camino Real","City":"San Carlos","State":"CA","Zip":"94070"},{"Location":"RAIL SPORTS BAR AND CLUB","Address":"612 El Camino Real","City":"San Carlos","State":"CA","Zip":"94070"},{"Location":"RECOLOGY","Address":"225 Shoreway Rd","City":"San Carlos","State":"CA","Zip":"94070"},{"Location":"RJ PENINSULA INC","Address":"401 Quarry Rd","City":"San Carlos","State":"CA","Zip":"94070"},{"Location":"ROUNTREE PLUMBING","Address":"1659 Industrial Rd","City":"San Carlos","State":"CA","Zip":"94070"},{"Location":"RYU SUSHI BISTRO","Address":"1201 Laurel St","City":"San Carlos","State":"CA","Zip":"94070"},{"Location":"SANCHOS TAQUERIA","Address":"1494 El Camino Real","City":"San Carlos","State":"CA","Zip":"94070"},{"Location":"SB U.S. LLC","Address":"1 Circle Star Way","City":"San Carlos","State":"CA","Zip":"94070"},{"Location":"SB US LLC","Address":"1 Circle Star Way","City":"San Carlos","State":"CA","Zip":"94070"},{"Location":"SD FLOORING","Address":"725 Industrial Rd","City":"San Carlos","State":"CA","Zip":"94070"},{"Location":"SHIKI BISTRO","Address":"825 Laurel St","City":"San Carlos","State":"CA","Zip":"94070"},{"Location":"SNEAKERS PUB & GRILL","Address":"1163 San Carlos Ave","City":"San Carlos","State":"CA","Zip":"94070"},{"Location":"SPARKYS HOT ROD GARAGE LLC","Address":"975 Industrial Rd A","City":"San Carlos","State":"CA","Zip":"94070"},{"Location":"STRATTON AGENCY","Address":"957 Industrial Rd C","City":"San Carlos","State":"CA","Zip":"94070"},{"Location":"SURFACE AND SHADING SOLUTIONS","Address":"1300 Industrial Rd 13","City":"San Carlos","State":"CA","Zip":"94070"},{"Location":"TAG INTERNATIONAL","Address":"1027 Bransten Rd","City":"San Carlos","State":"CA","Zip":"94070"},{"Location":"THE NEW PATIO","Address":"552 El Camino Real","City":"San Carlos","State":"CA","Zip":"94070"},{"Location":"THE OFFICE","Address":"1748 El Camino Real","City":"San Carlos","State":"CA","Zip":"94070"},{"Location":"THE PIZZA ALLIANCE 5","Address":"1201 San Carlos Ave","City":"San Carlos","State":"CA","Zip":"94070"},{"Location":"THE SANDWICH SPOT","Address":"1312 Laurel St A","City":"San Carlos","State":"CA","Zip":"94070"},{"Location":"TOWN RESTAURANT","Address":"716 Laurel St","City":"San Carlos","State":"CA","Zip":"94070"},{"Location":"TSSA MOULTON GROUP","Address":"794 Industrial Rd","City":"San Carlos","State":"CA","Zip":"94070"},{"Location":"US HEALTHWORKS","Address":"125 Shoreway Rd A","City":"San Carlos","State":"CA","Zip":"94070"},{"Location":"WELLS FARGO BANK","Address":"632 Laurel St 1","City":"San Carlos","State":"CA","Zip":"94070"},{"Location":"WELLS FARGO INS. SERVICE","Address":"959 Skyway 2ndf","City":"San Carlos","State":"CA","Zip":"94070"}]