[{"Location":"24 HOUR FITNESS #594","Address":"1211 E Arques Ave","City":"Sunnyvale","State":"CA","Zip":"94085"},{"Location":"ABM","Address":"1010 E Arques Ave","City":"Sunnyvale","State":"CA","Zip":"94085"},{"Location":"ABM SERVICES","Address":"974 E Arques Ave","City":"Sunnyvale","State":"CA","Zip":"94085"},{"Location":"ACTIONTEC ELETRONICS INC","Address":"760 N Mary Ave","City":"Sunnyvale","State":"CA","Zip":"94085"},{"Location":"ALIPH","Address":"678 W Maude Ave","City":"Sunnyvale","State":"CA","Zip":"94085"},{"Location":"APPLE HERMOSA FC","Address":"919 Hermosa Ct","City":"Sunnyvale","State":"CA","Zip":"94085"},{"Location":"APPLE INC.","Address":"470 Potrero Ave","City":"Sunnyvale","State":"CA","Zip":"94085"},{"Location":"ASEUS INC","Address":"1255 E Arques Ave","City":"Sunnyvale","State":"CA","Zip":"94085"},{"Location":"BAY VALUATION ADVISORS","Address":"1230 Midas Way 250","City":"Sunnyvale","State":"CA","Zip":"94085"},{"Location":"BLUE COAT SYSTEMS","Address":"420 N Mary Ave","City":"Sunnyvale","State":"CA","Zip":"94085"},{"Location":"BRACKET COMPUTING","Address":"320 Soquel Way","City":"Sunnyvale","State":"CA","Zip":"94085"},{"Location":"BURGER KING","Address":"773 N Mathilda Ave","City":"Sunnyvale","State":"CA","Zip":"94085"},{"Location":"CEO BUSINESS CENTERR","Address":"830 Stewart Dr","City":"Sunnyvale","State":"CA","Zip":"94085"},{"Location":"COINLESS KING LAUNDROMAT","Address":"883 Borregas Ave","City":"Sunnyvale","State":"CA","Zip":"94085"},{"Location":"DALES AUTO BODY INC","Address":"728 Sam Eleso Ave","City":"Sunnyvale","State":"CA","Zip":"94085"},{"Location":"DOLBY LABORATORIES INC","Address":"432 Lakeside Dr","City":"Sunnyvale","State":"CA","Zip":"94085"},{"Location":"EQUINIX","Address":"1188 E Arques Ave","City":"Sunnyvale","State":"CA","Zip":"94085"},{"Location":"EXPERIEN GROUP","Address":"755 N Mathilda Ave 100","City":"Sunnyvale","State":"CA","Zip":"94085"},{"Location":"FALAFEL","Address":"500 Lawrence Expy","City":"Sunnyvale","State":"CA","Zip":"94085"},{"Location":"FAULTLINE BREWING COMPANY","Address":"1235 Oakmead Pkwy","City":"Sunnyvale","State":"CA","Zip":"94085"},{"Location":"FISERV","Address":"525 Almanor Ave","City":"Sunnyvale","State":"CA","Zip":"94085"},{"Location":"GOMBAY BEI BENTO","Address":"155 E Maude Ave","City":"Sunnyvale","State":"CA","Zip":"94085"},{"Location":"INNOVALIGHT INC","Address":"965 E Arques Ave","City":"Sunnyvale","State":"CA","Zip":"94085"},{"Location":"INTERTRUST TECHNOLOGIES","Address":"920 Stewart Dr 100","City":"Sunnyvale","State":"CA","Zip":"94085"},{"Location":"KAL'S B-B-Q","Address":"425 N Mathilda Ave","City":"Sunnyvale","State":"CA","Zip":"94085"},{"Location":"KONTIKI","Address":"1001 W Maude Ave","City":"Sunnyvale","State":"CA","Zip":"94085"},{"Location":"LA FITNESS #06157","Address":"1165 E Arques Ave","City":"Sunnyvale","State":"CA","Zip":"94085"},{"Location":"LA RONDA","Address":"927 E Duane Ave","City":"Sunnyvale","State":"CA","Zip":"94085"},{"Location":"LINKEDIN","Address":"580 N Mary Ave","City":"Sunnyvale","State":"CA","Zip":"94085"},{"Location":"LINKEDIN CORP","Address":"605 N Maude Ave","City":"Sunnyvale","State":"CA","Zip":"94085"},{"Location":"LINKEDIN CORP 2","Address":"755 N Mathilda Ave","City":"Sunnyvale","State":"CA","Zip":"94085"},{"Location":"LITE POINT","Address":"580 Maude Ct","City":"Sunnyvale","State":"CA","Zip":"94085"},{"Location":"LITTLE MICHOACAN","Address":"305 N Fair Oaks Ave","City":"Sunnyvale","State":"CA","Zip":"94085"},{"Location":"LONGS VIDEO","Address":"676 N Fair Oaks Ave","City":"Sunnyvale","State":"CA","Zip":"94085"},{"Location":"MELLANOX","Address":"350 Oakmead Pkwy","City":"Sunnyvale","State":"CA","Zip":"94085"},{"Location":"NUANCE COMMUNICATIONS","Address":"1198 E Arques Ave","City":"Sunnyvale","State":"CA","Zip":"94085"},{"Location":"PACIFIC WORK PLACES","Address":"1250 Oakmead Pkwy 210","City":"Sunnyvale","State":"CA","Zip":"94085"},{"Location":"PLUG AND PLAY REAL ESTATE","Address":"440 N Wolfe Rd","City":"Sunnyvale","State":"CA","Zip":"94085"},{"Location":"PROMEGA CORP","Address":"645 N Mary Ave","City":"Sunnyvale","State":"CA","Zip":"94085"},{"Location":"QUARTER NOTE","Address":"1214 Apollo Way 403","City":"Sunnyvale","State":"CA","Zip":"94085"},{"Location":"RIVERBED TECHNOLOGY","Address":"525 Almanor Ave","City":"Sunnyvale","State":"CA","Zip":"94085"},{"Location":"ROUND TABLE PIZZA","Address":"1220 Oakmead Pkwy","City":"Sunnyvale","State":"CA","Zip":"94085"},{"Location":"SAFARI RUN SUNNYVALE","Address":"1180 Kern Ave","City":"Sunnyvale","State":"CA","Zip":"94085"},{"Location":"SILICON IMAGE","Address":"1140 E Arques Ave","City":"Sunnyvale","State":"CA","Zip":"94085"},{"Location":"SITIME","Address":"990 Almanor Ave 200","City":"Sunnyvale","State":"CA","Zip":"94085"},{"Location":"ST. JOHN'S BAR & GRILL","Address":"510 Lawrence Expy 110","City":"Sunnyvale","State":"CA","Zip":"94085"},{"Location":"SUNNYVALE ELKS LODGE","Address":"375 N Pastoria Ave","City":"Sunnyvale","State":"CA","Zip":"94085"},{"Location":"SUNNYVALE TOWING INC","Address":"247 Commercial St","City":"Sunnyvale","State":"CA","Zip":"94085"},{"Location":"SUSHI BOULEVARD","Address":"903 E Duane Ave","City":"Sunnyvale","State":"CA","Zip":"94085"},{"Location":"TASTY SUBS","Address":"528 Lawrence Expy","City":"Sunnyvale","State":"CA","Zip":"94085"},{"Location":"TEST METRIX INC","Address":"846 Del Rey Ave","City":"Sunnyvale","State":"CA","Zip":"94085"},{"Location":"TL BEER GARDEN","Address":"769 N Mathilda Ave","City":"Sunnyvale","State":"CA","Zip":"94085"},{"Location":"TRES POTRILLOS TAQUERIA","Address":"670 N Fair Oaks Ave","City":"Sunnyvale","State":"CA","Zip":"94085"},{"Location":"VERIZON WIRELESS","Address":"411 N Pastoria Ave","City":"Sunnyvale","State":"CA","Zip":"94085"},{"Location":"X-ACT COMPUTER SERVICE INC.","Address":"510 E Maude Ave","City":"Sunnyvale","State":"CA","Zip":"94085"}]