[{"Location":"ABOUT UNIFORM AND BEYOND","Address":"580 S Murphy Ave","City":"Sunnyvale","State":"CA","Zip":"94086"},{"Location":"ALTO VIEW","Address":"162 San Lazaro Ave","City":"Sunnyvale","State":"CA","Zip":"94086"},{"Location":"ALYAH INC","Address":"860 Old San Francisco Rd","City":"Sunnyvale","State":"CA","Zip":"94086"},{"Location":"APTECH EGINEERING INC","Address":"601 W California Ave","City":"Sunnyvale","State":"CA","Zip":"94086"},{"Location":"BEAN SCENE CAFE","Address":"186 Murphy Ave","City":"Sunnyvale","State":"CA","Zip":"94086"},{"Location":"BROADCOM CORPORATION","Address":"100 Mathilda Pl","City":"Sunnyvale","State":"CA","Zip":"94086"},{"Location":"BROADCOM I","Address":"190 Mathilda Pl","City":"Sunnyvale","State":"CA","Zip":"94086"},{"Location":"CENTURYLINK INC","Address":"1400 Kifer Rd","City":"Sunnyvale","State":"CA","Zip":"94086"},{"Location":"CHEF YU 1","Address":"163 S Murthy","City":"Sunnyvale","State":"CA","Zip":"94086"},{"Location":"CITY OF SUNNYVALE","Address":"700 All America Way","City":"Sunnyvale","State":"CA","Zip":"94086"},{"Location":"DR GARY GOLD AND ASSOC","Address":"130 S Sunnyvale Ave","City":"Sunnyvale","State":"CA","Zip":"94086"},{"Location":"FAB TECH MECHANICAL","Address":"140 San Lazaro Ave","City":"Sunnyvale","State":"CA","Zip":"94086"},{"Location":"FIBBAR MAGEES","Address":"156 S Murphy Ave","City":"Sunnyvale","State":"CA","Zip":"94086"},{"Location":"FIREHOUSE GRILL & BREWERY","Address":"111 S Murphy Ave","City":"Sunnyvale","State":"CA","Zip":"94086"},{"Location":"FIRST NATIONAL BANK","Address":"425 S Mathilda Ave","City":"Sunnyvale","State":"CA","Zip":"94086"},{"Location":"FORTINET","Address":"899 Kifer Rd","City":"Sunnyvale","State":"CA","Zip":"94086"},{"Location":"IC LOUNGE","Address":"193 S Murphy Ave","City":"Sunnyvale","State":"CA","Zip":"94086"},{"Location":"ILLUMIO","Address":"160 San Gabriel Dr","City":"Sunnyvale","State":"CA","Zip":"94086"},{"Location":"LILLY MAC'S","Address":"187 S Murphy Ave","City":"Sunnyvale","State":"CA","Zip":"94086"},{"Location":"LUCKY SHOT BILLARDS","Address":"189 S Murphy Ave","City":"Sunnyvale","State":"CA","Zip":"94086"},{"Location":"LUNATIC FRINGE","Address":"182 S Murphy Ave","City":"Sunnyvale","State":"CA","Zip":"94086"},{"Location":"MACY'S WEST 340 BR","Address":"200 W Washington Ave","City":"Sunnyvale","State":"CA","Zip":"94086"},{"Location":"MDE ELECTRIC COMAPNY","Address":"152 Commercial St","City":"Sunnyvale","State":"CA","Zip":"94086"},{"Location":"MURPHY'S LAW","Address":"135 S Murphy Ave","City":"Sunnyvale","State":"CA","Zip":"94086"},{"Location":"NOKIA","Address":"200 S Mathilda Ave","City":"Sunnyvale","State":"CA","Zip":"94086"},{"Location":"PALACE CAFE","Address":"139 S Murphy Ave","City":"Sunnyvale","State":"CA","Zip":"94086"},{"Location":"PAUL AND HARVEY","Address":"130 S Murphy Ave","City":"Sunnyvale","State":"CA","Zip":"94086"},{"Location":"POOCH HOTEL","Address":"180 N Wolfe Rd","City":"Sunnyvale","State":"CA","Zip":"94086"},{"Location":"ROBERTO'S CANTINA","Address":"168 S Murphy Ave","City":"Sunnyvale","State":"CA","Zip":"94086"},{"Location":"ROK BISTRO","Address":"124 S Murphy Ave","City":"Sunnyvale","State":"CA","Zip":"94086"},{"Location":"SATELLITE DIALYSIS - SV1","Address":"155 N Wolfe Rd","City":"Sunnyvale","State":"CA","Zip":"94086"},{"Location":"SATELLITE DIALYSIS -SV2","Address":"155 N Wolfe Rd","City":"Sunnyvale","State":"CA","Zip":"94086"},{"Location":"SKTA","Address":"150 Mathilda Pl 450","City":"Sunnyvale","State":"CA","Zip":"94086"},{"Location":"SPF MATHILDA","Address":"100 Mathilda Pl 101","City":"Sunnyvale","State":"CA","Zip":"94086"},{"Location":"SUNNY MOOSE LODGE","Address":"905 Kifer Rd","City":"Sunnyvale","State":"CA","Zip":"94086"},{"Location":"SURE MAGIC","Address":"572 S Murphy Ave","City":"Sunnyvale","State":"CA","Zip":"94086"},{"Location":"TAO TAO CAFE","Address":"175 S Murphy Ave","City":"Sunnyvale","State":"CA","Zip":"94086"},{"Location":"TAQUERIA EL ADOBE","Address":"590 Old San Francisco Rd","City":"Sunnyvale","State":"CA","Zip":"94086"},{"Location":"TARRAGON RESTAURANT","Address":"140 S Murphy Ave","City":"Sunnyvale","State":"CA","Zip":"94086"},{"Location":"TAVERNA BISTRO","Address":"133 S Murphy Ave","City":"Sunnyvale","State":"CA","Zip":"94086"},{"Location":"THAI BASIL","Address":"101 S Murphy Ave","City":"Sunnyvale","State":"CA","Zip":"94086"},{"Location":"THE UPPERCUT","Address":"260 Sunnyvale Ave","City":"Sunnyvale","State":"CA","Zip":"94086"},{"Location":"UFC GYM","Address":"733 S Wolfe Rd","City":"Sunnyvale","State":"CA","Zip":"94086"},{"Location":"VITOS FAMOUS PIZZA","Address":"1155 Reed Ave","City":"Sunnyvale","State":"CA","Zip":"94086"},{"Location":"WOLF AND REED BARBER SHOP","Address":"753 S Wolfe Rd","City":"Sunnyvale","State":"CA","Zip":"94086"},{"Location":"FOSTER BROS SECURUTY SYSTTEMS","Address":"555 S Murhy Ave","City":"Sunnyville","State":"CA","Zip":"94086"}]