[{"Location":"AMCC","Address":"215 Moffett Park Dr","City":"Sunnyvale","State":"CA","Zip":"94089"},{"Location":"APPLIED COMPUTER SOLUTION","Address":"1249 Innsbruck Dr","City":"Sunnyvale","State":"CA","Zip":"94089"},{"Location":"ARIBA","Address":"807 Eleventh Ave","City":"Sunnyvale","State":"CA","Zip":"94089"},{"Location":"ARUBA NETWORK","Address":"1341 Orleans Dr","City":"Sunnyvale","State":"CA","Zip":"94089"},{"Location":"ARUBA NETWORKS","Address":"1344 Crossman Ave","City":"Sunnyvale","State":"CA","Zip":"94089"},{"Location":"ARUBA NETWORKS INC","Address":"1322 Crossman Ave","City":"Sunnyvale","State":"CA","Zip":"94089"},{"Location":"ASTERIA GRILL","Address":"502 Ross Dr","City":"Sunnyvale","State":"CA","Zip":"94089"},{"Location":"BOGARTS LOUNGE & PUB","Address":"1209 Wildwood Ave","City":"Sunnyvale","State":"CA","Zip":"94089"},{"Location":"CEPHEID","Address":"904 E Caribbean Dr","City":"Sunnyvale","State":"CA","Zip":"94089"},{"Location":"CEPHEID","Address":"1315 Chesapeake Ter","City":"Sunnyvale","State":"CA","Zip":"94089"},{"Location":"COUNTRY INN SUNNYVALE","Address":"1300 Chesapeake Ter","City":"Sunnyvale","State":"CA","Zip":"94089"},{"Location":"EL CERRITO TAQUERIA","Address":"120 Persian Dr","City":"Sunnyvale","State":"CA","Zip":"94089"},{"Location":"ELECTRONIC MATERIALS INTERCONN","Address":"1349 Moffett Park Dr","City":"Sunnyvale","State":"CA","Zip":"94089"},{"Location":"EQUINIX SV4","Address":"255 Caspian Dr","City":"Sunnyvale","State":"CA","Zip":"94089"},{"Location":"FAZ RESTAURANT AND BAR","Address":"1108 N Mathilda Ave","City":"Sunnyvale","State":"CA","Zip":"94089"},{"Location":"FINISAR CORP","Address":"1399 Moffett Park Dr","City":"Sunnyvale","State":"CA","Zip":"94089"},{"Location":"GO DADDY","Address":"1020 Enterprise Way","City":"Sunnyvale","State":"CA","Zip":"94089"},{"Location":"GORDON PRILL INC","Address":"310 E Caribbean Dr","City":"Sunnyvale","State":"CA","Zip":"94089"},{"Location":"HEALTH FITNESS CORPORATION","Address":"1111 Lockheed Martin Way","City":"Sunnyvale","State":"CA","Zip":"94089"},{"Location":"HEWLETT PACKARD","Address":"1140 Enterprise Way Bldf","City":"Sunnyvale","State":"CA","Zip":"94089"},{"Location":"HEWLETT PACKARD BLDG G","Address":"1160 Enterprise Way Bldg","City":"Sunnyvale","State":"CA","Zip":"94089"},{"Location":"INFINERA CORP","Address":"169 W Java Dr","City":"Sunnyvale","State":"CA","Zip":"94089"},{"Location":"INFINERA CORP","Address":"140 Caspian Ct","City":"Sunnyvale","State":"CA","Zip":"94089"},{"Location":"IRON CONSTRUCTION","Address":"270 E Caribbean Dr","City":"Sunnyvale","State":"CA","Zip":"94089"},{"Location":"JUNIPER NETWORKS - JAB","Address":"1081 Innovation Way","City":"Sunnyvale","State":"CA","Zip":"94089"},{"Location":"JUNIPER NETWORKS PARCEL8","Address":"1133 Innovation Way","City":"Sunnyvale","State":"CA","Zip":"94089"},{"Location":"KLIGER & HUANG DENTAL","Address":"1260 Persian Dr D2","City":"Sunnyvale","State":"CA","Zip":"94089"},{"Location":"LEVEL 10 AND CONSTRUCTION","Address":"480 E Java Dr","City":"Sunnyvale","State":"CA","Zip":"94089"},{"Location":"LEVEL 10 CONSTRUCTION","Address":"1188 Bordeaux Dr","City":"Sunnyvale","State":"CA","Zip":"94089"},{"Location":"MICROSOFT SVMT-CBRE","Address":"1020 Enterprise Way","City":"Sunnyvale","State":"CA","Zip":"94089"},{"Location":"MOFFETT TOWERS CLUB #1","Address":"1080 Enterprise Way 100","City":"Sunnyvale","State":"CA","Zip":"94089"},{"Location":"MOFFETT TOWERS CLUB #2","Address":"1080 Enterprise Way","City":"Sunnyvale","State":"CA","Zip":"94089"},{"Location":"MOLECULAR DEVICES","Address":"1312 Crossman Ave","City":"Sunnyvale","State":"CA","Zip":"94089"},{"Location":"NET APP","Address":"495 E Java Dr Bl2","City":"Sunnyvale","State":"CA","Zip":"94089"},{"Location":"NET APP INC","Address":"495 E Java Dr Bl14","City":"Sunnyvale","State":"CA","Zip":"94089"},{"Location":"NETAPP INC","Address":"1395 Crossman Ave","City":"Sunnyvale","State":"CA","Zip":"94089"},{"Location":"NETWORK APPLIANCE","Address":"495 E Java Dr B10","City":"Sunnyvale","State":"CA","Zip":"94089"},{"Location":"NETWORK APPLIANCE  BLDG 1","Address":"495 E Java Dr","City":"Sunnyvale","State":"CA","Zip":"94089"},{"Location":"NETWORK APPLIANCE BLDG #8","Address":"495 E Java Dr 8","City":"Sunnyvale","State":"CA","Zip":"94089"},{"Location":"NETWORK APPLIANCE BLDG #8-1","Address":"495 E Java Dr 8","City":"Sunnyvale","State":"CA","Zip":"94089"},{"Location":"NETWORK APPLIANCE BLDG #8-2","Address":"495 E Java Dr 8","City":"Sunnyvale","State":"CA","Zip":"94089"},{"Location":"NETWORK APPLIANCE BLDG 11","Address":"495 E Java Dr Bl11","City":"Sunnyvale","State":"CA","Zip":"94089"},{"Location":"NETWORK APPLIANCE BLDG 3","Address":"495 E Java Dr Bld 3","City":"Sunnyvale","State":"CA","Zip":"94089"},{"Location":"NETWORK APPLIANCE BLDG 7","Address":"495 E Java Dr Bld 7","City":"Sunnyvale","State":"CA","Zip":"94089"},{"Location":"NSTREAMS TECHNOLOGIES","Address":"209 E Java Dr","City":"Sunnyvale","State":"CA","Zip":"94089"},{"Location":"OGDEN TWIN CREEKS","Address":"969 E Caribbean Dr","City":"Sunnyvale","State":"CA","Zip":"94089"},{"Location":"OZUNA FOOD","Address":"1260 Alderwood Ave","City":"Sunnyvale","State":"CA","Zip":"94089"},{"Location":"PLASTIC SRT","Address":"1242 Birchwood Dr","City":"Sunnyvale","State":"CA","Zip":"94089"},{"Location":"PMC- SIERRA","Address":"1380 Bordeaux Dr","City":"Sunnyvale","State":"CA","Zip":"94089"},{"Location":"QUALITY INN","Address":"1280 Persian Dr","City":"Sunnyvale","State":"CA","Zip":"94089"},{"Location":"RAMBUS INC","Address":"1050 Enterprise Way 700","City":"Sunnyvale","State":"CA","Zip":"94089"},{"Location":"RGB NETWORKS","Address":"390 W Java Dr","City":"Sunnyvale","State":"CA","Zip":"94089"},{"Location":"ROBBIES FALAFEL","Address":"260 E Java Dr","City":"Sunnyvale","State":"CA","Zip":"94089"},{"Location":"RUCKUS WIRELESS","Address":"350 W Java Dr","City":"Sunnyvale","State":"CA","Zip":"94089"},{"Location":"SHERATON SUNNYVALE HOTEL","Address":"1100 N Mathilda Ave","City":"Sunnyvale","State":"CA","Zip":"94089"},{"Location":"SILICON VALLEY AUTO BODY INC","Address":"327 E Weddell Dr","City":"Sunnyvale","State":"CA","Zip":"94089"},{"Location":"SPIRENT COMMUNICATIONS","Address":"1325 Borregas Ave","City":"Sunnyvale","State":"CA","Zip":"94089"},{"Location":"SWITCH AND DATA","Address":"444 Toyama Dr","City":"Sunnyvale","State":"CA","Zip":"94089"},{"Location":"THRESHER COMMUNICATION","Address":"234 E Caribbean Dr","City":"Sunnyvale","State":"CA","Zip":"94089"},{"Location":"UNA MAS MEXICAN GRILL","Address":"1200 Crossman Ave","City":"Sunnyvale","State":"CA","Zip":"94089"},{"Location":"UNISEM","Address":"1284 Forgewood Ave","City":"Sunnyvale","State":"CA","Zip":"94089"},{"Location":"WEST MED AMBULANCE SERVICE","Address":"1230 Alderwood Ave","City":"Sunnyvale","State":"CA","Zip":"94089"},{"Location":"YAHOO","Address":"701 First Ave D","City":"Sunnyvale","State":"CA","Zip":"94089"},{"Location":"YAHOO","Address":"701 First Ave","City":"Sunnyvale","State":"CA","Zip":"94089"},{"Location":"YAHOO INC","Address":"701 First Ave","City":"Sunnyvale","State":"CA","Zip":"94089"},{"Location":"YAHOO INC #1","Address":"701 First Ave","City":"Sunnyvale","State":"CA","Zip":"94089"},{"Location":"YAHOO! INC","Address":"701 First Ave","City":"Sunnyvale","State":"CA","Zip":"94089"},{"Location":"YAHOO! INC.","Address":"701 First Ave","City":"Sunnyvale","State":"CA","Zip":"94089"}]