[{"Location":"24 HOUR FITNESS #506","Address":"150 E Fremont Ave","City":"Sunnyvale","State":"CA","Zip":"94087"},{"Location":"24 HOUR FITNESS #887","Address":"762 Sunnyvale Saratoga Rd","City":"Sunnyvale","State":"CA","Zip":"94087"},{"Location":"ADAMSONS FRENCH DIP","Address":"806 W El Camino Real","City":"Sunnyvale","State":"CA","Zip":"94087"},{"Location":"ALYAH INC","Address":"1663 Hollenbeck Ave","City":"Sunnyvale","State":"CA","Zip":"94087"},{"Location":"BEEFY'S CABIN","Address":"693 Grape Ave","City":"Sunnyvale","State":"CA","Zip":"94087"},{"Location":"BELMONT VILLAGE SUNNYVAL","Address":"1029 E El Camino Real","City":"Sunnyvale","State":"CA","Zip":"94087"},{"Location":"BLUE MAX","Address":"828 W El Camino Real","City":"Sunnyvale","State":"CA","Zip":"94087"},{"Location":"BON CHON CHICKEN","Address":"572 E El Camino Real","City":"Sunnyvale","State":"CA","Zip":"94087"},{"Location":"CASA LUPE","Address":"671 S Bernardo Ave","City":"Sunnyvale","State":"CA","Zip":"94087"},{"Location":"CHARLES SCHWAB CC815","Address":"438 E El Camino Real","City":"Sunnyvale","State":"CA","Zip":"94087"},{"Location":"CHILDRENS DENTAL GROUP","Address":"897 W El Camino Real","City":"Sunnyvale","State":"CA","Zip":"94087"},{"Location":"CHOUNENG NI","Address":"830 E El Camino Real","City":"Sunnyvale","State":"CA","Zip":"94087"},{"Location":"COURTYARD","Address":"660 W El Camino Real","City":"Sunnyvale","State":"CA","Zip":"94087"},{"Location":"DEMAYO RESTAURANT GROUP INC","Address":"1661 Hollenbeck Ave B","City":"Sunnyvale","State":"CA","Zip":"94087"},{"Location":"DICKEYS BARBECUE PIT","Address":"1255 S Mary Ave","City":"Sunnyvale","State":"CA","Zip":"94087"},{"Location":"EL CAMINITO RESTAURANT","Address":"510 E El Camino Real","City":"Sunnyvale","State":"CA","Zip":"94087"},{"Location":"EL POLLO LOCO","Address":"996 W El Camino Real","City":"Sunnyvale","State":"CA","Zip":"94087"},{"Location":"FIDELITY INVESTMENTS 176","Address":"398 W El Camino Real","City":"Sunnyvale","State":"CA","Zip":"94087"},{"Location":"FIRESTONE #023574","Address":"922 W El Camino Real","City":"Sunnyvale","State":"CA","Zip":"94087"},{"Location":"FIRESTONE #120332","Address":"1291 W El Camino Real","City":"Sunnyvale","State":"CA","Zip":"94087"},{"Location":"FIRST REPUBLIC BANK","Address":"201 W El Camino Real","City":"Sunnyvale","State":"CA","Zip":"94087"},{"Location":"FIRST WOK","Address":"653 S Bernardo Ave","City":"Sunnyvale","State":"CA","Zip":"94087"},{"Location":"GINGER CAFE","Address":"398 W El Camino Real 114","City":"Sunnyvale","State":"CA","Zip":"94087"},{"Location":"IDYLWOOD CARE CENTER 2","Address":"1002 W Fremont Ave","City":"Sunnyvale","State":"CA","Zip":"94087"},{"Location":"IDYLWOOD CARE CENTER BLDG1","Address":"1002 W Fremont Ave","City":"Sunnyvale","State":"CA","Zip":"94087"},{"Location":"JAKE'S OF SUNNYVALE","Address":"174 E Fremont Ave","City":"Sunnyvale","State":"CA","Zip":"94087"},{"Location":"JANGTEO SOODAE","Address":"1012 E El Camino Real","City":"Sunnyvale","State":"CA","Zip":"94087"},{"Location":"KS CREPE AND CAFES","Address":"126 E Fremont Ave","City":"Sunnyvale","State":"CA","Zip":"94087"},{"Location":"LIFETIME   TENNIS","Address":"755 S Mathilda Ave","City":"Sunnyvale","State":"CA","Zip":"94087"},{"Location":"LIMA CAMPAGNA","Address":"1315 Hollenbeck Ave","City":"Sunnyvale","State":"CA","Zip":"94087"},{"Location":"MEN'S WEARHOUSE #2161","Address":"804 W El Camino Real","City":"Sunnyvale","State":"CA","Zip":"94087"},{"Location":"NEW PORT","Address":"1686 S Wolfe Rd","City":"Sunnyvale","State":"CA","Zip":"94087"},{"Location":"NICHOLS  RESEARCH INC","Address":"333 El Cam 130","City":"Sunnyvale","State":"CA","Zip":"94087"},{"Location":"NISSAN SUNNYVALE","Address":"680 E El Camino Real","City":"Sunnyvale","State":"CA","Zip":"94087"},{"Location":"OASIS","Address":"952 E El Camino Real","City":"Sunnyvale","State":"CA","Zip":"94087"},{"Location":"OLLEH SUSHI & TOFU HOUSE","Address":"595 E El Camino Real","City":"Sunnyvale","State":"CA","Zip":"94087"},{"Location":"PALO ALTO MEDICAL FOUNDATION","Address":"1309 S Maryn Ave 135","City":"Sunnyvale","State":"CA","Zip":"94087"},{"Location":"PEZZELLA'S VILLA NAPOLI","Address":"1025 W El Camino Real","City":"Sunnyvale","State":"CA","Zip":"94087"},{"Location":"PF CHANG'S #6900","Address":"390 W El Camino Real","City":"Sunnyvale","State":"CA","Zip":"94087"},{"Location":"PHONG & DUNG ASSOCIATE","Address":"568 E El Camino Real B","City":"Sunnyvale","State":"CA","Zip":"94087"},{"Location":"PIZZA MY HEART","Address":"110 E Camino Real","City":"Sunnyvale","State":"CA","Zip":"94087"},{"Location":"ROUND TABLE PIZZA","Address":"665 S Bernardo Ave","City":"Sunnyvale","State":"CA","Zip":"94087"},{"Location":"SCOTTRADE 04X","Address":"333 W El Camino Real 140","City":"Sunnyvale","State":"CA","Zip":"94087"},{"Location":"SPEAKER COMPANY INC","Address":"1575 Tenaka Pl","City":"Sunnyvale","State":"CA","Zip":"94087"},{"Location":"SPORT AUTHORITY 664","Address":"125 E El Camino Real","City":"Sunnyvale","State":"CA","Zip":"94087"},{"Location":"SUNNYVALE FORD LINCOLN2","Address":"650 E El Camino Real","City":"Sunnyvale","State":"CA","Zip":"94087"},{"Location":"TACOS JALAPA","Address":"154 W El Camino Real","City":"Sunnyvale","State":"CA","Zip":"94087"},{"Location":"TASTE BUDS","Address":"673 Grape Ave","City":"Sunnyvale","State":"CA","Zip":"94087"},{"Location":"TAURIAN        #1047","Address":"740 E El Camino Real","City":"Sunnyvale","State":"CA","Zip":"94087"},{"Location":"THAI PEPPER CUISINE LLC","Address":"103 E Fremont Ave","City":"Sunnyvale","State":"CA","Zip":"94087"},{"Location":"THE DOMAIN HOTEL (0010360)","Address":"1085 E El Camino Real","City":"Sunnyvale","State":"CA","Zip":"94087"},{"Location":"THE GRAND HOTEL","Address":"865 W El Camino Real","City":"Sunnyvale","State":"CA","Zip":"94087"},{"Location":"THE LOCAL 102","Address":"102 E Fremont Ave B","City":"Sunnyvale","State":"CA","Zip":"94087"},{"Location":"THE MAPLE TREE INN","Address":"711 E El Camino Real","City":"Sunnyvale","State":"CA","Zip":"94087"},{"Location":"TOGOS","Address":"1253 W El Camino Real","City":"Sunnyvale","State":"CA","Zip":"94087"},{"Location":"TOGOS","Address":"561 E El Camino Real","City":"Sunnyvale","State":"CA","Zip":"94087"},{"Location":"TONSOR LLC 1","Address":"114 E El Camino Real","City":"Sunnyvale","State":"CA","Zip":"94087"},{"Location":"VONS CHICKEN","Address":"1082 E El Camino Real 2","City":"Sunnyvale","State":"CA","Zip":"94087"},{"Location":"WELLS FARGO BANK","Address":"1241 S Mary Ave","City":"Sunnyvale","State":"CA","Zip":"94087"},{"Location":"FITNESS 19","Address":"1060 E Camino Real","City":"Sunnyville","State":"CA","Zip":"94087"},{"Location":"24 HOUR FITNESS #506","Address":"150 E Fremont Ave","City":"Sunnyvale","State":"CA","Zip":"94087"},{"Location":"24 HOUR FITNESS #887","Address":"762 Sunnyvale Saratoga Rd","City":"Sunnyvale","State":"CA","Zip":"94087"},{"Location":"ADAMSONS FRENCH DIP","Address":"806 W El Camino Real","City":"Sunnyvale","State":"CA","Zip":"94087"},{"Location":"ALYAH INC","Address":"1663 Hollenbeck Ave","City":"Sunnyvale","State":"CA","Zip":"94087"},{"Location":"BEEFY'S CABIN","Address":"693 Grape Ave","City":"Sunnyvale","State":"CA","Zip":"94087"},{"Location":"BELMONT VILLAGE SUNNYVAL","Address":"1029 E El Camino Real","City":"Sunnyvale","State":"CA","Zip":"94087"},{"Location":"BLUE MAX","Address":"828 W El Camino Real","City":"Sunnyvale","State":"CA","Zip":"94087"},{"Location":"BON CHON CHICKEN","Address":"572 E El Camino Real","City":"Sunnyvale","State":"CA","Zip":"94087"},{"Location":"CASA LUPE","Address":"671 S Bernardo Ave","City":"Sunnyvale","State":"CA","Zip":"94087"},{"Location":"CHARLES SCHWAB CC815","Address":"438 E El Camino Real","City":"Sunnyvale","State":"CA","Zip":"94087"},{"Location":"CHILDRENS DENTAL GROUP","Address":"897 W El Camino Real","City":"Sunnyvale","State":"CA","Zip":"94087"},{"Location":"CHOUNENG NI","Address":"830 E El Camino Real","City":"Sunnyvale","State":"CA","Zip":"94087"},{"Location":"COURTYARD","Address":"660 W El Camino Real","City":"Sunnyvale","State":"CA","Zip":"94087"},{"Location":"DEMAYO RESTAURANT GROUP INC","Address":"1661 Hollenbeck Ave B","City":"Sunnyvale","State":"CA","Zip":"94087"},{"Location":"DICKEYS BARBECUE PIT","Address":"1255 S Mary Ave","City":"Sunnyvale","State":"CA","Zip":"94087"},{"Location":"EL CAMINITO RESTAURANT","Address":"510 E El Camino Real","City":"Sunnyvale","State":"CA","Zip":"94087"},{"Location":"EL POLLO LOCO","Address":"996 W El Camino Real","City":"Sunnyvale","State":"CA","Zip":"94087"},{"Location":"FIDELITY INVESTMENTS 176","Address":"398 W El Camino Real","City":"Sunnyvale","State":"CA","Zip":"94087"},{"Location":"FIRESTONE #023574","Address":"922 W El Camino Real","City":"Sunnyvale","State":"CA","Zip":"94087"},{"Location":"FIRESTONE #120332","Address":"1291 W El Camino Real","City":"Sunnyvale","State":"CA","Zip":"94087"},{"Location":"FIRST REPUBLIC BANK","Address":"201 W El Camino Real","City":"Sunnyvale","State":"CA","Zip":"94087"},{"Location":"FIRST WOK","Address":"653 S Bernardo Ave","City":"Sunnyvale","State":"CA","Zip":"94087"},{"Location":"GINGER CAFE","Address":"398 W El Camino Real 114","City":"Sunnyvale","State":"CA","Zip":"94087"},{"Location":"IDYLWOOD CARE CENTER 2","Address":"1002 W Fremont Ave","City":"Sunnyvale","State":"CA","Zip":"94087"},{"Location":"IDYLWOOD CARE CENTER BLDG1","Address":"1002 W Fremont Ave","City":"Sunnyvale","State":"CA","Zip":"94087"},{"Location":"JAKE'S OF SUNNYVALE","Address":"174 E Fremont Ave","City":"Sunnyvale","State":"CA","Zip":"94087"},{"Location":"JANGTEO SOODAE","Address":"1012 E El Camino Real","City":"Sunnyvale","State":"CA","Zip":"94087"},{"Location":"KS CREPE AND CAFES","Address":"126 E Fremont Ave","City":"Sunnyvale","State":"CA","Zip":"94087"},{"Location":"LIFETIME   TENNIS","Address":"755 S Mathilda Ave","City":"Sunnyvale","State":"CA","Zip":"94087"},{"Location":"LIMA CAMPAGNA","Address":"1315 Hollenbeck Ave","City":"Sunnyvale","State":"CA","Zip":"94087"},{"Location":"MEN'S WEARHOUSE #2161","Address":"804 W El Camino Real","City":"Sunnyvale","State":"CA","Zip":"94087"},{"Location":"NEW PORT","Address":"1686 S Wolfe Rd","City":"Sunnyvale","State":"CA","Zip":"94087"},{"Location":"NICHOLS  RESEARCH INC","Address":"333 El Cam 130","City":"Sunnyvale","State":"CA","Zip":"94087"},{"Location":"NISSAN SUNNYVALE","Address":"680 E El Camino Real","City":"Sunnyvale","State":"CA","Zip":"94087"},{"Location":"OASIS","Address":"952 E El Camino Real","City":"Sunnyvale","State":"CA","Zip":"94087"},{"Location":"OLLEH SUSHI & TOFU HOUSE","Address":"595 E El Camino Real","City":"Sunnyvale","State":"CA","Zip":"94087"},{"Location":"PALO ALTO MEDICAL FOUNDATION","Address":"1309 S Maryn Ave 135","City":"Sunnyvale","State":"CA","Zip":"94087"},{"Location":"PEZZELLA'S VILLA NAPOLI","Address":"1025 W El Camino Real","City":"Sunnyvale","State":"CA","Zip":"94087"},{"Location":"PF CHANG'S #6900","Address":"390 W El Camino Real","City":"Sunnyvale","State":"CA","Zip":"94087"},{"Location":"PHONG & DUNG ASSOCIATE","Address":"568 E El Camino Real B","City":"Sunnyvale","State":"CA","Zip":"94087"},{"Location":"PIZZA MY HEART","Address":"110 E Camino Real","City":"Sunnyvale","State":"CA","Zip":"94087"},{"Location":"ROUND TABLE PIZZA","Address":"665 S Bernardo Ave","City":"Sunnyvale","State":"CA","Zip":"94087"},{"Location":"SCOTTRADE 04X","Address":"333 W El Camino Real 140","City":"Sunnyvale","State":"CA","Zip":"94087"},{"Location":"SPEAKER COMPANY INC","Address":"1575 Tenaka Pl","City":"Sunnyvale","State":"CA","Zip":"94087"},{"Location":"SPORT AUTHORITY 664","Address":"125 E El Camino Real","City":"Sunnyvale","State":"CA","Zip":"94087"},{"Location":"SUNNYVALE FORD LINCOLN2","Address":"650 E El Camino Real","City":"Sunnyvale","State":"CA","Zip":"94087"},{"Location":"TACOS JALAPA","Address":"154 W El Camino Real","City":"Sunnyvale","State":"CA","Zip":"94087"},{"Location":"Taste Buds","Address":"673 Grape Ave","City":"Sunnyvale","State":"CA","Zip":"94087"},{"Location":"TAURIAN        #1047","Address":"740 E El Camino Real","City":"Sunnyvale","State":"CA","Zip":"94087"},{"Location":"THAI PEPPER CUISINE LLC","Address":"103 E Fremont Ave","City":"Sunnyvale","State":"CA","Zip":"94087"},{"Location":"THE DOMAIN HOTEL (0010360)","Address":"1085 E El Camino Real","City":"Sunnyvale","State":"CA","Zip":"94087"},{"Location":"THE GRAND HOTEL","Address":"865 W El Camino Real","City":"Sunnyvale","State":"CA","Zip":"94087"},{"Location":"THE LOCAL 102","Address":"102 E Fremont Ave B","City":"Sunnyvale","State":"CA","Zip":"94087"},{"Location":"THE MAPLE TREE INN","Address":"711 E El Camino Real","City":"Sunnyvale","State":"CA","Zip":"94087"},{"Location":"TOGOS","Address":"561 E El Camino Real","City":"Sunnyvale","State":"CA","Zip":"94087"},{"Location":"TOGOS","Address":"1253 W El Camino Real","City":"Sunnyvale","State":"CA","Zip":"94087"},{"Location":"TONSOR LLC 1","Address":"114 E El Camino Real","City":"Sunnyvale","State":"CA","Zip":"94087"},{"Location":"VONS CHICKEN","Address":"1082 E El Camino Real 2","City":"Sunnyvale","State":"CA","Zip":"94087"},{"Location":"WELLS FARGO BANK","Address":"1241 S Mary Ave","City":"Sunnyvale","State":"CA","Zip":"94087"},{"Location":"FITNESS 19","Address":"1060 E Camino Real","City":"Sunnyville","State":"CA","Zip":"94087"}]