[{"Location":"J C CHENE CO","Address":"155 Terminal Ct 38","City":"S San Fran","State":"CA","Zip":"94080"},{"Location":"SUPERCUTS","Address":"945 El Camino Real","City":"S San Fran","State":"CA","Zip":"94080"},{"Location":"OVERLAND ADVISORS","Address":"601 Gateways Blvd 1050","City":"South San Fancisco","State":"CA","Zip":"94080"},{"Location":"ACCESS SYSTEMS AND SOLUTIONS","Address":"183a Beacon St","City":"South San Francisco","State":"CA","Zip":"94080"},{"Location":"AMGEN","Address":"1120 Veterans Blvd","City":"South San Francisco","State":"CA","Zip":"94080"},{"Location":"ANHEUSER-BUSCH WHLSLR #20494","Address":"440 Forbes Blvd","City":"South San Francisco","State":"CA","Zip":"94080"},{"Location":"AP ENTERPRISE","Address":"129 S Linden Ave","City":"South San Francisco","State":"CA","Zip":"94080"},{"Location":"AQUA ENTERPRISES","Address":"275 S Airport Blvd","City":"South San Francisco","State":"CA","Zip":"94080"},{"Location":"BAY AREA LIMOUSINE REPAI","Address":"421 S Canal St","City":"South San Francisco","State":"CA","Zip":"94080"},{"Location":"BAYSIDE CAFE","Address":"290 Utah Ave","City":"South San Francisco","State":"CA","Zip":"94080"},{"Location":"BC CHICKEN SSF LLC","Address":"2278 Westborough Blvd 208","City":"South San Francisco","State":"CA","Zip":"94080"},{"Location":"BEN TRE CUISINE","Address":"219 Grand Ave","City":"South San Francisco","State":"CA","Zip":"94080"},{"Location":"BERTETTA TANK LINES","Address":"1486 Huntington Ave 300","City":"South San Francisco","State":"CA","Zip":"94080"},{"Location":"BERTOLUCCI'S","Address":"421 Cypress Ave","City":"South San Francisco","State":"CA","Zip":"94080"},{"Location":"BEST WESTERN GROSVENOR HOTEL","Address":"380 S Airport Blvd","City":"South San Francisco","State":"CA","Zip":"94080"},{"Location":"BONELLI ENTERPRISES","Address":"330 Corey Way","City":"South San Francisco","State":"CA","Zip":"94080"},{"Location":"BORACAY GARDEN & GRILL","Address":"269 El Camino Real","City":"South San Francisco","State":"CA","Zip":"94080"},{"Location":"BRENTWOOD BOWL","Address":"237 El Camino Real","City":"South San Francisco","State":"CA","Zip":"94080"},{"Location":"CAPITAL BUILDING MAINTENANCE","Address":"432 N Canal St 16","City":"South San Francisco","State":"CA","Zip":"94080"},{"Location":"CHEVY'S #2019","Address":"141 Hickey Blvd","City":"South San Francisco","State":"CA","Zip":"94080"},{"Location":"CHRISTOPHERSON REAL ESTATE","Address":"138 Starlite St","City":"South San Francisco","State":"CA","Zip":"94080"},{"Location":"COLLABNET","Address":"4000 Shoreline Ct 300","City":"South San Francisco","State":"CA","Zip":"94080"},{"Location":"COLUMBUS MANUFACTURING INC","Address":"493 Forbes Blvd","City":"South San Francisco","State":"CA","Zip":"94080"},{"Location":"COMMERCIAL TRAINING","Address":"651 Gateway Blvd","City":"South San Francisco","State":"CA","Zip":"94080"},{"Location":"COMPASS TRANSPORTATION","Address":"160 S Linden Ave 300","City":"South San Francisco","State":"CA","Zip":"94080"},{"Location":"COMSCORE","Address":"4000 Shoreline Ct","City":"South San Francisco","State":"CA","Zip":"94080"},{"Location":"DACOR APPLIANCE","Address":"871 Dubuque Ave","City":"South San Francisco","State":"CA","Zip":"94080"},{"Location":"DAL TILE MICHELLE BOGDEN","Address":"332 Harbor Way","City":"South San Francisco","State":"CA","Zip":"94080"},{"Location":"DAVITA #4424 WESTBOROUGH","Address":"925 El Camino Real","City":"South San Francisco","State":"CA","Zip":"94080"},{"Location":"DAVITA #5271 DALY CITY","Address":"74 Camaritas Ave","City":"South San Francisco","State":"CA","Zip":"94080"},{"Location":"DENNYS 2","Address":"10 Airport Blvd","City":"South San Francisco","State":"CA","Zip":"94080"},{"Location":"DESTINO INTERNATIONAL","Address":"434 N Canal St 3","City":"South San Francisco","State":"CA","Zip":"94080"},{"Location":"DOME CONSTRUCTION CORP","Address":"393 E Grand Ave","City":"South San Francisco","State":"CA","Zip":"94080"},{"Location":"EMBASSY SUITES (0012023)","Address":"250 Gateway Blvd","City":"South San Francisco","State":"CA","Zip":"94080"},{"Location":"EMPORIO RULLI GRAN CAFFE-SFO","Address":"1 Macdonald Rd","City":"South San Francisco","State":"CA","Zip":"94080"},{"Location":"FAROLITO","Address":"394 Grand Ave","City":"South San Francisco","State":"CA","Zip":"94080"},{"Location":"FILLMORE STREET VENTURES","Address":"125 Terminal Ct 44","City":"South San Francisco","State":"CA","Zip":"94080"},{"Location":"FLAVA FOOD INC.","Address":"314 Linden Ave","City":"South San Francisco","State":"CA","Zip":"94080"},{"Location":"FT MCKINLEY RESTAURANT","Address":"101 Brentwood Dr","City":"South San Francisco","State":"CA","Zip":"94080"},{"Location":"FULL GRIP CROSSFIT","Address":"1387 Lowrie Ave","City":"South San Francisco","State":"CA","Zip":"94080"},{"Location":"GARDEN CLUB","Address":"1144 Mission Rd","City":"South San Francisco","State":"CA","Zip":"94080"},{"Location":"GENENTECH","Address":"1631 Granview Dr Bld31","City":"South San Francisco","State":"CA","Zip":"94080"},{"Location":"GENENTECH","Address":"501 Forbes Blvd","City":"South San Francisco","State":"CA","Zip":"94080"},{"Location":"GENENTECH","Address":"1 Dna Way Ms4","City":"South San Francisco","State":"CA","Zip":"94080"},{"Location":"GENENTECH 2","Address":"1 Dna Way","City":"South San Francisco","State":"CA","Zip":"94080"},{"Location":"GENENTECH INC","Address":"1633 Grandview Dr 33","City":"South San Francisco","State":"CA","Zip":"94080"},{"Location":"GENETECH CLUBHOUSE #3616","Address":"450 E Grand Ave","City":"South San Francisco","State":"CA","Zip":"94080"},{"Location":"GOLDEN GATE MOVING","Address":"1416 San Mateo Ave","City":"South San Francisco","State":"CA","Zip":"94080"},{"Location":"GROSVENOR HOTEL","Address":"380 S Airport Blvd","City":"South San Francisco","State":"CA","Zip":"94080"},{"Location":"GUNTER'S RESTAURANT","Address":"1057 El Camino Real","City":"South San Francisco","State":"CA","Zip":"94080"},{"Location":"GYM WL CO","Address":"2268 Westborough Blvd","City":"South San Francisco","State":"CA","Zip":"94080"},{"Location":"HAIR BY PINI","Address":"309 Baden Ave 101","City":"South San Francisco","State":"CA","Zip":"94080"},{"Location":"HCP BTC  LLC","Address":"329 Oyster Point Blvd C","City":"South San Francisco","State":"CA","Zip":"94080"},{"Location":"HG MAKELIM","Address":"219 Shaw Rd","City":"South San Francisco","State":"CA","Zip":"94080"},{"Location":"HOLIDAY INN EXPRESS","Address":"373 S Airport Blvd","City":"South San Francisco","State":"CA","Zip":"94080"},{"Location":"IZANAMI","Address":"257 Grand Ave","City":"South San Francisco","State":"CA","Zip":"94080"},{"Location":"K1 SPEED SAN FRANSCISCO","Address":"160 Beacon St","City":"South San Francisco","State":"CA","Zip":"94080"},{"Location":"KAMU SUSHI INC","Address":"112 Grand Ave","City":"South San Francisco","State":"CA","Zip":"94080"},{"Location":"KEITH KENNEALLY","Address":"486 Cabot Rd","City":"South San Francisco","State":"CA","Zip":"94080"},{"Location":"KOREAN BBQ HOUSE","Address":"2229 Gellert Blvd","City":"South San Francisco","State":"CA","Zip":"94080"},{"Location":"LA NUEVA PERLA REST","Address":"222 Lux Ave","City":"South San Francisco","State":"CA","Zip":"94080"},{"Location":"LAW OFFICES EDGARDO LOPEZ","Address":"363 El Camino Real 245","City":"South San Francisco","State":"CA","Zip":"94080"},{"Location":"LC AUTO BODY","Address":"233 S Maple Ave 20","City":"South San Francisco","State":"CA","Zip":"94080"},{"Location":"LIBERTY BANK","Address":"500 Linden Ave","City":"South San Francisco","State":"CA","Zip":"94080"},{"Location":"LING NAM NOODLE HOUSE","Address":"2211 Gellert Blvd","City":"South San Francisco","State":"CA","Zip":"94080"},{"Location":"LMS AUTOMOTION","Address":"1160 San Mateo Ave","City":"South San Francisco","State":"CA","Zip":"94080"},{"Location":"MADAMES BOUTIQUE","Address":"244 Grand Ave","City":"South San Francisco","State":"CA","Zip":"94080"},{"Location":"MALTESE AMERICAN SOCIAL CLUB","Address":"924 El Camino Real","City":"South San Francisco","State":"CA","Zip":"94080"},{"Location":"MARAKAS RESTAURANT","Address":"254 Grand Ave","City":"South San Francisco","State":"CA","Zip":"94080"},{"Location":"MAZATLAN RESTAURANT","Address":"203 Linden Ave","City":"South San Francisco","State":"CA","Zip":"94080"},{"Location":"MOUNTANOS BROTHERS COFFEE","Address":"380 Swift Ave 13","City":"South San Francisco","State":"CA","Zip":"94080"},{"Location":"N GS COOKING","Address":"2268 Westborough Blvd","City":"South San Francisco","State":"CA","Zip":"94080"},{"Location":"NIKE SHOWROOM","Address":"800 Dubuque Ave","City":"South San Francisco","State":"CA","Zip":"94080"},{"Location":"NTR METALS","Address":"333 Littlefield Ave","City":"South San Francisco","State":"CA","Zip":"94080"},{"Location":"ONGPIN RESTAURANT","Address":"73 Camaritas Ave","City":"South San Francisco","State":"CA","Zip":"94080"},{"Location":"ONYX PHARMACEUTICAL","Address":"249 E Grand Ave","City":"South San Francisco","State":"CA","Zip":"94080"},{"Location":"OYSTER POINT YACHT CLUB","Address":"911 Marina Blvd","City":"South San Francisco","State":"CA","Zip":"94080"},{"Location":"P & D APPLIANCE","Address":"100 S Linden Ave","City":"South San Francisco","State":"CA","Zip":"94080"},{"Location":"PAONTA PIZZA","Address":"113 Grand Ave","City":"South San Francisco","State":"CA","Zip":"94080"},{"Location":"PASS JANETORIAL SERVICE INC","Address":"961 Airport Blvd","City":"South San Francisco","State":"CA","Zip":"94080"},{"Location":"PENINSULA DIALYSIS ACCES","Address":"91 Westbororough Blvd 1010","City":"South San Francisco","State":"CA","Zip":"94080"},{"Location":"PRIMARY EXPORTS","Address":"143 Mitchell Ave","City":"South San Francisco","State":"CA","Zip":"94080"},{"Location":"PROTHENA","Address":"650 Gateway Blvd","City":"South San Francisco","State":"CA","Zip":"94080"},{"Location":"RIGEL PHARMECEUTICALS","Address":"1180 Veterans Blvd","City":"South San Francisco","State":"CA","Zip":"94080"},{"Location":"RINAT LABORATORIES PFIZER INC","Address":"230 E Grand Ave","City":"South San Francisco","State":"CA","Zip":"94080"},{"Location":"ROUND TABLE PIZZA","Address":"20 Chestnut Ave","City":"South San Francisco","State":"CA","Zip":"94080"},{"Location":"ROUND TABLE PIZZA","Address":"2227 Gellert Blvd","City":"South San Francisco","State":"CA","Zip":"94080"},{"Location":"ROUND TABLE PIZZA SAN FRAN","Address":"20 Chestnut Ave","City":"South San Francisco","State":"CA","Zip":"94080"},{"Location":"ROYAL AUTO REPAIR","Address":"1331 San Mateo Ave","City":"South San Francisco","State":"CA","Zip":"94080"},{"Location":"S SAN FRANCISCO AUTO PARTS CE2","Address":"466 Forbes Blvd","City":"South San Francisco","State":"CA","Zip":"94080"},{"Location":"SAN MATEO CREDIT UNION SSF","Address":"150 El Camino Real","City":"South San Francisco","State":"CA","Zip":"94080"},{"Location":"SAN VICENTE","Address":"2 Chester St","City":"South San Francisco","State":"CA","Zip":"94080"},{"Location":"SANRIO","Address":"570 Eccles Ave","City":"South San Francisco","State":"CA","Zip":"94080"},{"Location":"SATELLITE DIALYSIS - SSF","Address":"205 Kenwood Way","City":"South San Francisco","State":"CA","Zip":"94080"},{"Location":"SENIOR CARE","Address":"653 Commercial Ave","City":"South San Francisco","State":"CA","Zip":"94080"},{"Location":"SEQUOIA PRODUCE SALES1","Address":"1366 San Mateo Ave","City":"South San Francisco","State":"CA","Zip":"94080"},{"Location":"SFO HOTEL SHUTTLE INC","Address":"54 Tan Fran Ave","City":"South San Francisco","State":"CA","Zip":"94080"},{"Location":"SOUTH SAN FRANCISCO POLICE DEP","Address":"33 Arroyo Dr","City":"South San Francisco","State":"CA","Zip":"94080"},{"Location":"SOUTH SAN FRANCISCO SCAVENGER","Address":"500 E Jamie Ct","City":"South San Francisco","State":"CA","Zip":"94080"},{"Location":"STEM CENTRX","Address":"450 E Jamie Ct","City":"South San Francisco","State":"CA","Zip":"94080"},{"Location":"STEVEN ENGINEERING","Address":"230 Ryan Way","City":"South San Francisco","State":"CA","Zip":"94080"},{"Location":"STH SAN FRAN SCAVENGER CO INC","Address":"500 E Jamie Ct","City":"South San Francisco","State":"CA","Zip":"94080"},{"Location":"TAQUERIA SAN VICENTE","Address":"223 Grand Ave","City":"South San Francisco","State":"CA","Zip":"94080"},{"Location":"TELECARE FSP","Address":"505 Cypress Ave","City":"South San Francisco","State":"CA","Zip":"94080"},{"Location":"TH AUTO SERVICE","Address":"872 El Camino Real","City":"South San Francisco","State":"CA","Zip":"94080"},{"Location":"THAI ORIGINAL BBQ","Address":"2221 Gellert Blvd","City":"South San Francisco","State":"CA","Zip":"94080"},{"Location":"THE CLUBHOUSE TRAINING","Address":"267 E Harris Ave","City":"South San Francisco","State":"CA","Zip":"94080"},{"Location":"THE STANDBY","Address":"935 Airport Blvd","City":"South San Francisco","State":"CA","Zip":"94080"},{"Location":"THE TOPPER","Address":"249 Grand Ave","City":"South San Francisco","State":"CA","Zip":"94080"},{"Location":"TOKYO SUSHI AND BAR","Address":"2278 Westborough Blvd","City":"South San Francisco","State":"CA","Zip":"94080"},{"Location":"TSA - FAMS 3SFO","Address":"395 Oyster Point Blvd","City":"South San Francisco","State":"CA","Zip":"94080"},{"Location":"UNITRANS","Address":"351 Swift Ave","City":"South San Francisco","State":"CA","Zip":"94080"},{"Location":"W NAIL SPA","Address":"2278 Westborough Blvd 206","City":"South San Francisco","State":"CA","Zip":"94080"},{"Location":"WELL FARGO BANK","Address":"333 Linden Ave","City":"South San Francisco","State":"CA","Zip":"94080"},{"Location":"WELLS FARGO BANK","Address":"10 Chestnut Ave 1fl","City":"South San Francisco","State":"CA","Zip":"94080"},{"Location":"WESTBOROUGH WATER DIST","Address":"2263 Westborough Blvd","City":"South San Francisco","State":"CA","Zip":"94080"},{"Location":"WOOF GANGS DOG DAYCARE","Address":"242 Shaw Rd","City":"South San Francisco","State":"CA","Zip":"94080"},{"Location":"ARMSTRONG BREWING CO LLC","Address":"330 Littlefield Ave","City":"Ssf","State":"CA","Zip":"94080"},{"Location":"CITY BAKING  CO","Address":"1373 Lowrie Ave","City":"Ssf","State":"CA","Zip":"94080"}]