[{"Location":"24 HOUR FITNESS #435","Address":"45 Montgomery St","City":"San Francisco","State":"CA","Zip":"94104"},{"Location":"ABLE BLDG MAINTENANCE","Address":"235 Pine St 600","City":"San Francisco","State":"CA","Zip":"94104"},{"Location":"ACQUITY GROUP","Address":"1 Sansome St 2915","City":"San Francisco","State":"CA","Zip":"94104"},{"Location":"ACTIVE SPORTS CLUBS %40CITIGROUP","Address":"1 Sansome St Mezz","City":"San Francisco","State":"CA","Zip":"94104"},{"Location":"ADAMS HARKNESS","Address":"101 Montgomery St","City":"San Francisco","State":"CA","Zip":"94104"},{"Location":"AE 3 PARTNERS","Address":"400 Montgomery St 805","City":"San Francisco","State":"CA","Zip":"94104"},{"Location":"AIPAC","Address":"350 Sansome St 425","City":"San Francisco","State":"CA","Zip":"94104"},{"Location":"AKIN GUMP","Address":"580 California St 1500","City":"San Francisco","State":"CA","Zip":"94104"},{"Location":"ALIXPARTNERS","Address":"580 California St 20","City":"San Francisco","State":"CA","Zip":"94104"},{"Location":"ALVARADOSMITH","Address":"235 Pine St 1200","City":"San Francisco","State":"CA","Zip":"94104"},{"Location":"AOL INC","Address":"333 Bush St","City":"San Francisco","State":"CA","Zip":"94104"},{"Location":"ARCH INSURANCE","Address":"1 Sansome St Fl14","City":"San Francisco","State":"CA","Zip":"94104"},{"Location":"ASSOCIATED PRESS","Address":"300 Montgomery St 700","City":"San Francisco","State":"CA","Zip":"94104"},{"Location":"AUDENTES THERAPUTICS","Address":"101 Montgomery St 2650","City":"San Francisco","State":"CA","Zip":"94104"},{"Location":"BANK OF AMERICA CA5-551-01-03","Address":"225 Bush St 130","City":"San Francisco","State":"CA","Zip":"94104"},{"Location":"BANK OF AMERICA CA5-705","Address":"555 California St","City":"San Francisco","State":"CA","Zip":"94104"},{"Location":"BANK OF THE WEST","Address":"180 Montgomery St 25flr","City":"San Francisco","State":"CA","Zip":"94104"},{"Location":"BATTEA-CLASS ACTION SERVICES","Address":"400 Montgomery St 1040","City":"San Francisco","State":"CA","Zip":"94104"},{"Location":"BAY AREA SPORTS HALL OF FAME","Address":"465 California St 806","City":"San Francisco","State":"CA","Zip":"94104"},{"Location":"BBVA SAN FRAN LPO","Address":"1 Post St 2400","City":"San Francisco","State":"CA","Zip":"94104"},{"Location":"BDO SEIDMAN LLP","Address":"1 Bush St 1800","City":"San Francisco","State":"CA","Zip":"94104"},{"Location":"BLESSED ELEVEN BELDEN LLC","Address":"380 Bush St","City":"San Francisco","State":"CA","Zip":"94104"},{"Location":"BOLIVAR LANG","Address":"180 Montgomery St 2400","City":"San Francisco","State":"CA","Zip":"94104"},{"Location":"BOREL PRIVATE BANK & TRUST","Address":"433 California St","City":"San Francisco","State":"CA","Zip":"94104"},{"Location":"BRITISH CONSULAT GENERAL","Address":"1 Sansome St 850","City":"San Francisco","State":"CA","Zip":"94104"},{"Location":"CALERA CAPITAL","Address":"580 California St 22","City":"San Francisco","State":"CA","Zip":"94104"},{"Location":"CALIFORNA BANK & TRUST","Address":"456 Montgomery St 2300","City":"San Francisco","State":"CA","Zip":"94104"},{"Location":"CALIFORNIA BANK & TRUST","Address":"465 California St","City":"San Francisco","State":"CA","Zip":"94104"},{"Location":"CANADIAN CONSULATE","Address":"580 California St 14","City":"San Francisco","State":"CA","Zip":"94104"},{"Location":"CANTOR FITZGERALD","Address":"345 California St 1260","City":"San Francisco","State":"CA","Zip":"94104"},{"Location":"CARDINAL POINT CAPITAL","Address":"235 Pine St 1250","City":"San Francisco","State":"CA","Zip":"94104"},{"Location":"CAREER GROUP","Address":"345 California St 1650","City":"San Francisco","State":"CA","Zip":"94104"},{"Location":"CBP OFFICE OF IA","Address":"235 Pine St 1000","City":"San Francisco","State":"CA","Zip":"94104"},{"Location":"CENTERVIEW PARTNERS LLC","Address":"555 California St 3305","City":"San Francisco","State":"CA","Zip":"94104"},{"Location":"CHECK FREE CORP","Address":"333 Bush St 1430","City":"San Francisco","State":"CA","Zip":"94104"},{"Location":"CHEVRON BUSINESS","Address":"345 California St 30th","City":"San Francisco","State":"CA","Zip":"94104"},{"Location":"CITI INVESTMENT RESEARCH","Address":"1 Sansome St 25th","City":"San Francisco","State":"CA","Zip":"94104"},{"Location":"CITIBANK","Address":"1 Sansome St 24th","City":"San Francisco","State":"CA","Zip":"94104"},{"Location":"CITIGROUP","Address":"1 Sansome St 27th","City":"San Francisco","State":"CA","Zip":"94104"},{"Location":"CITIGROUP INV. BANKING","Address":"1 Sansome St Fl26","City":"San Francisco","State":"CA","Zip":"94104"},{"Location":"CLINTON REILLY HOLDINGS","Address":"465 California St 1600","City":"San Francisco","State":"CA","Zip":"94104"},{"Location":"COLE FRIEMAN MALLON HUNT","Address":"1 Sansome St 1895","City":"San Francisco","State":"CA","Zip":"94104"},{"Location":"COMPASS ANALYTICS","Address":"580 California St 17","City":"San Francisco","State":"CA","Zip":"94104"},{"Location":"CON. GEN. OF ISRAEL","Address":"456 Montgomery St 2100","City":"San Francisco","State":"CA","Zip":"94104"},{"Location":"COWEN AND COMPANY","Address":"555 California St 5fl","City":"San Francisco","State":"CA","Zip":"94104"},{"Location":"CROCKER PLAZA COMPANY","Address":"1 Post St","City":"San Francisco","State":"CA","Zip":"94104"},{"Location":"CUTLER GROUP LP","Address":"101 Montgomery St 700","City":"San Francisco","State":"CA","Zip":"94104"},{"Location":"DAIWA CAPITAL MARKETS AM","Address":"555 California St 3360","City":"San Francisco","State":"CA","Zip":"94104"},{"Location":"DCI ENGINEERS","Address":"1 Post St 1050","City":"San Francisco","State":"CA","Zip":"94104"},{"Location":"DECHERT LLP","Address":"1 Bush St 1600","City":"San Francisco","State":"CA","Zip":"94104"},{"Location":"DELIVERY AGENT","Address":"300 California St Fl3","City":"San Francisco","State":"CA","Zip":"94104"},{"Location":"DHS ICE OFFICE OF THE CHIEF CO","Address":"120 Montgomery St 200","City":"San Francisco","State":"CA","Zip":"94104"},{"Location":"DODGE & COX","Address":"555 California St","City":"San Francisco","State":"CA","Zip":"94104"},{"Location":"DUFF & PHELPS LLC","Address":"345 California St 2100","City":"San Francisco","State":"CA","Zip":"94104"},{"Location":"DUNCAN%2FCHANNON","Address":"114 Sansome St 14","City":"San Francisco","State":"CA","Zip":"94104"},{"Location":"E*TRADE","Address":"532 Market St","City":"San Francisco","State":"CA","Zip":"94104"},{"Location":"EQUINOX 720  PINE ST 2","Address":"301 Pine St","City":"San Francisco","State":"CA","Zip":"94104"},{"Location":"EQUINOX FITNESS","Address":"301 Pine St","City":"San Francisco","State":"CA","Zip":"94104"},{"Location":"EQUITY OFC. FITNESS CNTR","Address":"100 Montgomery St Fc","City":"San Francisco","State":"CA","Zip":"94104"},{"Location":"EQUITY RISK PARTNERS%2C INC","Address":"456 Montgomery St 1600","City":"San Francisco","State":"CA","Zip":"94104"},{"Location":"ESCAPE FROM NEW YORK PIZZA","Address":"333 Bush St","City":"San Francisco","State":"CA","Zip":"94104"},{"Location":"EXPEDIA","Address":"114 Sansome St 11th","City":"San Francisco","State":"CA","Zip":"94104"},{"Location":"EZE CASTLE SOFTWARE","Address":"180 Montgomery St 1","City":"San Francisco","State":"CA","Zip":"94104"},{"Location":"FACTSET RESEARCH SYSTEMS","Address":"1 Sansome St 1900","City":"San Francisco","State":"CA","Zip":"94104"},{"Location":"FARELLA BRAUN & MARTEL","Address":"235 Montgomery St","City":"San Francisco","State":"CA","Zip":"94104"},{"Location":"FENWICK & WEST LLP","Address":"555 California St 1200","City":"San Francisco","State":"CA","Zip":"94104"},{"Location":"FIDELITY INVESTMENTS","Address":"350 California St 5th","City":"San Francisco","State":"CA","Zip":"94104"},{"Location":"FINANCIAL LEASING SERVICES","Address":"235 Montgomery St 610","City":"San Francisco","State":"CA","Zip":"94104"},{"Location":"FLYNN HOLDING INC","Address":"225 Bush St 1800","City":"San Francisco","State":"CA","Zip":"94104"},{"Location":"FLYNN PROPERTIES","Address":"225 Bush St 1800","City":"San Francisco","State":"CA","Zip":"94104"},{"Location":"FOLEY & LARDNER LLP","Address":"555 California St 1700","City":"San Francisco","State":"CA","Zip":"94104"},{"Location":"FORESIGHT GROUP LLC","Address":"400 Montgomery St 12thf","City":"San Francisco","State":"CA","Zip":"94104"},{"Location":"FOUNTAIN CAFE","Address":"50 Post St","City":"San Francisco","State":"CA","Zip":"94104"},{"Location":"FOX ROTHSCHILD LLP","Address":"345 California St 2200","City":"San Francisco","State":"CA","Zip":"94104"},{"Location":"GATX","Address":"580 California St 1100","City":"San Francisco","State":"CA","Zip":"94104"},{"Location":"GIC REAL ESTATE INC","Address":"1 Bush St 1100","City":"San Francisco","State":"CA","Zip":"94104"},{"Location":"GINTO IZAKAYA JAPONAISE","Address":"658 Market St","City":"San Francisco","State":"CA","Zip":"94104"},{"Location":"GOLDEN GATE FINANCIAL PARTNERS","Address":"580 California St 12","City":"San Francisco","State":"CA","Zip":"94104"},{"Location":"GORDIAN COMPLIANCE SOLUTIONS","Address":"235 Montgomery St 460","City":"San Francisco","State":"CA","Zip":"94104"},{"Location":"GRANDMASTER CAPITAL MANAGEMENT","Address":"456 Montgomery St 1350","City":"San Francisco","State":"CA","Zip":"94104"},{"Location":"HAWKINS PARNELL","Address":"345 California St 2850","City":"San Francisco","State":"CA","Zip":"94104"},{"Location":"HIGHMARK CAPITAL MGMT","Address":"350 California St 16th","City":"San Francisco","State":"CA","Zip":"94104"},{"Location":"HOULIHAN LOKEY","Address":"1 Sansome St 17th","City":"San Francisco","State":"CA","Zip":"94104"},{"Location":"INDUSTRY CAPITAL","Address":"1 Sansome St 1500","City":"San Francisco","State":"CA","Zip":"94104"},{"Location":"INNOVATIONSPSA","Address":"345 California St 1750","City":"San Francisco","State":"CA","Zip":"94104"},{"Location":"INSTITUTIONAL CASH DISTR","Address":"580 California St 13","City":"San Francisco","State":"CA","Zip":"94104"},{"Location":"ISTAR","Address":"1 Sansome St 30th","City":"San Francisco","State":"CA","Zip":"94104"},{"Location":"J FRANK ASSOCIATES","Address":"1 Sansome St 2800","City":"San Francisco","State":"CA","Zip":"94104"},{"Location":"JAMES IRVINE FOUNDATION","Address":"1 Bush St 8th","City":"San Francisco","State":"CA","Zip":"94104"},{"Location":"JEFFERIES AND COMPANY","Address":"1 Montgomery St","City":"San Francisco","State":"CA","Zip":"94104"},{"Location":"JONES DAY","Address":"555 California St 26","City":"San Francisco","State":"CA","Zip":"94104"},{"Location":"KAYNE ANDERSON","Address":"580 California St 1750","City":"San Francisco","State":"CA","Zip":"94104"},{"Location":"KIRKLAND &  ELLIS LLP","Address":"555 California St","City":"San Francisco","State":"CA","Zip":"94104"},{"Location":"KNOBBE MARTENS OLSON & BEAR","Address":"333 Bush St 21","City":"San Francisco","State":"CA","Zip":"94104"},{"Location":"KOHLBERG KRAVIS ROBERTS & CO","Address":"555 California St 5000","City":"San Francisco","State":"CA","Zip":"94104"},{"Location":"KORN FERRY","Address":"1 Montgomery St 2200","City":"San Francisco","State":"CA","Zip":"94104"},{"Location":"KPMG","Address":"101 Montgomery St 22","City":"San Francisco","State":"CA","Zip":"94104"},{"Location":"KTMC LLP","Address":"1 Sansome St 1850","City":"San Francisco","State":"CA","Zip":"94104"},{"Location":"LENNAR URBAN","Address":"1 Sansome St 3200","City":"San Francisco","State":"CA","Zip":"94104"},{"Location":"LIN MEDIA","Address":"350 Sansome St 925","City":"San Francisco","State":"CA","Zip":"94104"},{"Location":"LISA AND DOUGLAS GOLDMAN FUND","Address":"1 Montgomery St 3440","City":"San Francisco","State":"CA","Zip":"94104"},{"Location":"LITHIUM TECHNOLOGIES","Address":"225 Bush St","City":"San Francisco","State":"CA","Zip":"94104"},{"Location":"LOOMIS SAYLES & CO","Address":"555 California St 3300","City":"San Francisco","State":"CA","Zip":"94104"},{"Location":"LUXEMBOURG CONSULATE","Address":"1 Sansome St 830","City":"San Francisco","State":"CA","Zip":"94104"},{"Location":"M SQUARED INC","Address":"111 Sutter St 900","City":"San Francisco","State":"CA","Zip":"94104"},{"Location":"MAJOR LEAGUE SOCCER","Address":"582 Market St 21","City":"San Francisco","State":"CA","Zip":"94104"},{"Location":"MARCATO CAPITAL","Address":"1 Montgomery St 3250","City":"San Francisco","State":"CA","Zip":"94104"},{"Location":"MARSH RISK & INSURANCE","Address":"345 California St 400","City":"San Francisco","State":"CA","Zip":"94104"},{"Location":"MCKESSON","Address":"1 Post St","City":"San Francisco","State":"CA","Zip":"94104"},{"Location":"MCKESSON CORP","Address":"1 Post St","City":"San Francisco","State":"CA","Zip":"94104"},{"Location":"MCKESSON CORP","Address":"1 Post St 17","City":"San Francisco","State":"CA","Zip":"94104"},{"Location":"MELTWATER GROUP","Address":"225 Bush St 1000","City":"San Francisco","State":"CA","Zip":"94104"},{"Location":"MERRILL COMMUNICATIONS LLC","Address":"333 Bush St 1600","City":"San Francisco","State":"CA","Zip":"94104"},{"Location":"MERRIMAN CAPITAL","Address":"250 Montgomery St 16thf","City":"San Francisco","State":"CA","Zip":"94104"},{"Location":"MICHELMAN ROBINSON LLP","Address":"1 Post St 2500","City":"San Francisco","State":"CA","Zip":"94104"},{"Location":"MITSUBISHI UFJ SECURITIES","Address":"400 California St 11th","City":"San Francisco","State":"CA","Zip":"94104"},{"Location":"MORGAN STANLEY 100156","Address":"555 California St 14flr","City":"San Francisco","State":"CA","Zip":"94104"},{"Location":"MORGAN STANLEY 100164","Address":"1 Sansome St Me38","City":"San Francisco","State":"CA","Zip":"94104"},{"Location":"MT EDEN INVESTMENT ADVISORS","Address":"343 Sansome St 1600","City":"San Francisco","State":"CA","Zip":"94104"},{"Location":"NATURAL RESOURCES DEFENSE COUN","Address":"111 Sutter St 20","City":"San Francisco","State":"CA","Zip":"94104"},{"Location":"NETHERLANDS CONSULATE GENERAL","Address":"1 Montgomery St 3100","City":"San Francisco","State":"CA","Zip":"94104"},{"Location":"NEXTGEN CLIMATE ACTION","Address":"111 Sutter St 2200","City":"San Francisco","State":"CA","Zip":"94104"},{"Location":"NOMURA SECURITIES INTL","Address":"425 California St","City":"San Francisco","State":"CA","Zip":"94104"},{"Location":"NORTH POINT ADVISORS","Address":"580 California St 2000","City":"San Francisco","State":"CA","Zip":"94104"},{"Location":"NORTHERN TRUST  NA","Address":"580 California St 18","City":"San Francisco","State":"CA","Zip":"94104"},{"Location":"OMNI HOTEL SAN FRANCISCO","Address":"500 California St","City":"San Francisco","State":"CA","Zip":"94104"},{"Location":"ONE SANSOME PROPERTY LLC","Address":"1 Sansome St 2050","City":"San Francisco","State":"CA","Zip":"94104"},{"Location":"OPPEN HEIMER & CO","Address":"580 California St 1950","City":"San Francisco","State":"CA","Zip":"94104"},{"Location":"OPPENHEIMER","Address":"580 California St 1910","City":"San Francisco","State":"CA","Zip":"94104"},{"Location":"OPPENHEIMER & CO INC","Address":"580 California St 23","City":"San Francisco","State":"CA","Zip":"94104"},{"Location":"OPPENHEIMER & COMPANY IC","Address":"580 California St 1910","City":"San Francisco","State":"CA","Zip":"94104"},{"Location":"PACIFIC GROVE CAPITAL","Address":"580 California St 19","City":"San Francisco","State":"CA","Zip":"94104"},{"Location":"PCCP  LLC.","Address":"555 California St 3450","City":"San Francisco","State":"CA","Zip":"94104"},{"Location":"PINE RIVER","Address":"580 California St 1700","City":"San Francisco","State":"CA","Zip":"94104"},{"Location":"PLANET FITNESS SAN FRANCISCO","Address":"350 Sansome St","City":"San Francisco","State":"CA","Zip":"94104"},{"Location":"PRO PARK AMERICA","Address":"225 Bush St","City":"San Francisco","State":"CA","Zip":"94104"},{"Location":"PROBITAS PARTNERS","Address":"425 California St 23fl","City":"San Francisco","State":"CA","Zip":"94104"},{"Location":"PROSPECT HILL GROUP","Address":"555 Califzrnia St 1950","City":"San Francisco","State":"CA","Zip":"94104"},{"Location":"PRUDENTIAL","Address":"180 Montgomery St 1900","City":"San Francisco","State":"CA","Zip":"94104"},{"Location":"RBC WEALTH MANAGEMENT","Address":"345 California St 29th","City":"San Francisco","State":"CA","Zip":"94104"},{"Location":"REAL STAFFING","Address":"1 Sansome St","City":"San Francisco","State":"CA","Zip":"94104"},{"Location":"REGUS","Address":"580 California St 12","City":"San Francisco","State":"CA","Zip":"94104"},{"Location":"ROBBINS GELLER RUDMAN & DOWD","Address":"1 Montgomery St 1800","City":"San Francisco","State":"CA","Zip":"94104"},{"Location":"ROBERT W BAIRD & CO.","Address":"555 California St 4900","City":"San Francisco","State":"CA","Zip":"94104"},{"Location":"RS INVESTMENTS","Address":"1 Bush St 900","City":"San Francisco","State":"CA","Zip":"94104"},{"Location":"SAN FRANCISCO BAY AREA AGENCY","Address":"101 Montgomery St 600","City":"San Francisco","State":"CA","Zip":"94104"},{"Location":"SANDLER O'NEIL PARTNERS","Address":"555 California St 19f","City":"San Francisco","State":"CA","Zip":"94104"},{"Location":"SATEL","Address":"235 Montgomery St 421","City":"San Francisco","State":"CA","Zip":"94104"},{"Location":"SCOTT B PRICE AND COMPANY","Address":"456 Montgomery St 1040","City":"San Francisco","State":"CA","Zip":"94104"},{"Location":"SEDGWICK LLP","Address":"333 Bush St","City":"San Francisco","State":"CA","Zip":"94104"},{"Location":"SENSATO CAPITAL","Address":"345 California St 1775","City":"San Francisco","State":"CA","Zip":"94104"},{"Location":"SERVCORP","Address":"555 California St 4950","City":"San Francisco","State":"CA","Zip":"94104"},{"Location":"SEVEN POST INVESTMENT OFFICE","Address":"1 Montgomery St 3150","City":"San Francisco","State":"CA","Zip":"94104"},{"Location":"SFBC%2FFILIPEX ENTERPRISES INC","Address":"235 Montgomery St 912","City":"San Francisco","State":"CA","Zip":"94104"},{"Location":"SHOOK HARDY & BACON","Address":"1 Montgomery St 2700","City":"San Francisco","State":"CA","Zip":"94104"},{"Location":"SHORENSTEIN REALTY","Address":"235 Montgomery St Flr15","City":"San Francisco","State":"CA","Zip":"94104"},{"Location":"SIDLEY AUSTIN LLP","Address":"555 California St 2000","City":"San Francisco","State":"CA","Zip":"94104"},{"Location":"SKIKOS CRAWFORD","Address":"1 Sansome St 2830","City":"San Francisco","State":"CA","Zip":"94104"},{"Location":"SMBC NIKKO SECURITIES INC","Address":"555 California St 33f","City":"San Francisco","State":"CA","Zip":"94104"},{"Location":"SOLA SALONS STUDIO","Address":"660 Market St","City":"San Francisco","State":"CA","Zip":"94104"},{"Location":"STANFORD HOTELS CORP","Address":"433 California St 7flr","City":"San Francisco","State":"CA","Zip":"94104"},{"Location":"STARR COMPANIES","Address":"100 Montgomery St 24","City":"San Francisco","State":"CA","Zip":"94104"},{"Location":"STATE FUND COMPENSATION","Address":"333 Bush St 800","City":"San Francisco","State":"CA","Zip":"94104"},{"Location":"STINSON SECURITIES","Address":"220 Sansome St","City":"San Francisco","State":"CA","Zip":"94104"},{"Location":"STONE TURN GROUP","Address":"1 Sansome St 700","City":"San Francisco","State":"CA","Zip":"94104"},{"Location":"STONEFIELD JOSEPHSON","Address":"101 Montgomery St 1900","City":"San Francisco","State":"CA","Zip":"94104"},{"Location":"SUGAR PUBLISHING","Address":"111 Sutter St 15flr","City":"San Francisco","State":"CA","Zip":"94104"},{"Location":"SUNTRUST ROBINSON HUM.","Address":"1 Montgomery St 2800","City":"San Francisco","State":"CA","Zip":"94104"},{"Location":"SUTTER ST. TAVERN","Address":"554 Market St","City":"San Francisco","State":"CA","Zip":"94104"},{"Location":"SWISS CONSULATE","Address":"456 Montgomery St 1500","City":"San Francisco","State":"CA","Zip":"94104"},{"Location":"SYMPHONY ASSET MANAGEMEN","Address":"555 California%2C 31stfloor","City":"San Francisco","State":"CA","Zip":"94104"},{"Location":"TEAMCO ADVISER%2C LLC","Address":"1 Bush St 550","City":"San Francisco","State":"CA","Zip":"94104"},{"Location":"THE CITY CLUB OF SF","Address":"155 Sansome St","City":"San Francisco","State":"CA","Zip":"94104"},{"Location":"THE PARTHENON GROUP","Address":"555 California St 4375","City":"San Francisco","State":"CA","Zip":"94104"},{"Location":"THE RITZ CARLTON CLUB","Address":"690 Market St","City":"San Francisco","State":"CA","Zip":"94104"},{"Location":"THE SAN FRANCISCO BAY AREA GRO","Address":"111 Sutter St 1800","City":"San Francisco","State":"CA","Zip":"94104"},{"Location":"THOMAS WEISEL PARTNERS%2C LLC","Address":"1 Montgomery St 37thf","City":"San Francisco","State":"CA","Zip":"94104"},{"Location":"TISHMAN SPEYER","Address":"One Bush St Fitness Center","City":"San Francisco","State":"CA","Zip":"94104"},{"Location":"TOWERS WATSON","Address":"345 California St 2000","City":"San Francisco","State":"CA","Zip":"94104"},{"Location":"TPG CAPITAL","Address":"345 California St 3300","City":"San Francisco","State":"CA","Zip":"94104"},{"Location":"TRUE CAPITAL MANAGEMENT","Address":"101 Montgomery St 2150","City":"San Francisco","State":"CA","Zip":"94104"},{"Location":"TURNER BROADCASTING AMPT","Address":"114 Sansome St 920","City":"San Francisco","State":"CA","Zip":"94104"},{"Location":"UBS  AG  SAN FRANCISCO","Address":"555 California St 4650","City":"San Francisco","State":"CA","Zip":"94104"},{"Location":"UBS SECURITES","Address":"1 Montgomery St 33fl","City":"San Francisco","State":"CA","Zip":"94104"},{"Location":"UNION BANK","Address":"400 California St 6","City":"San Francisco","State":"CA","Zip":"94104"},{"Location":"UNION BANK","Address":"400 California St","City":"San Francisco","State":"CA","Zip":"94104"},{"Location":"UNION BANK  WLTH MKT ADM","Address":"350 California St 1800","City":"San Francisco","State":"CA","Zip":"94104"},{"Location":"UNION BANK - CORP MKTG","Address":"350 California St 1500","City":"San Francisco","State":"CA","Zip":"94104"},{"Location":"UNION BANK - PORTAL","Address":"350 California St 6th","City":"San Francisco","State":"CA","Zip":"94104"},{"Location":"UNION BANK - RISK","Address":"350 California St 7th","City":"San Francisco","State":"CA","Zip":"94104"},{"Location":"UNION BANK - UBIS","Address":"350 California St 1","City":"San Francisco","State":"CA","Zip":"94104"},{"Location":"UNION BANK 19TH FLOOR","Address":"350 California St 19th","City":"San Francisco","State":"CA","Zip":"94104"},{"Location":"UNION BANK CRE","Address":"350 California St Lm","City":"San Francisco","State":"CA","Zip":"94104"},{"Location":"UNION BANK-EBSI","Address":"350 California St 1400","City":"San Francisco","State":"CA","Zip":"94104"},{"Location":"UNION BANK-SF-PBK","Address":"350 California St 18th","City":"San Francisco","State":"CA","Zip":"94104"},{"Location":"UNION BANK-TALENT ACQUISITION","Address":"400 California St 1stfl","City":"San Francisco","State":"CA","Zip":"94104"},{"Location":"US DEPT OF STATE","Address":"235 Pine St 900","City":"San Francisco","State":"CA","Zip":"94104"},{"Location":"US FOREX","Address":"100 Montgomery St 1400","City":"San Francisco","State":"CA","Zip":"94104"},{"Location":"US RISK","Address":"433 California St 530","City":"San Francisco","State":"CA","Zip":"94104"},{"Location":"US SENATOR DIANNE FEINSTEIN","Address":"1 Post St 2450","City":"San Francisco","State":"CA","Zip":"94104"},{"Location":"USC","Address":"580 California St 1775","City":"San Francisco","State":"CA","Zip":"94104"},{"Location":"VARIETY","Address":"582 Market St 101","City":"San Francisco","State":"CA","Zip":"94104"},{"Location":"WELLS FARGO","Address":"343 Sansome St Mac #a0163-022 2ndfl","City":"San Francisco","State":"CA","Zip":"94104"},{"Location":"WELLS FARGO & COMPANY","Address":"343 Sansome St 1275","City":"San Francisco","State":"CA","Zip":"94104"},{"Location":"WELLS FARGO BANK #75","Address":"1 Montgomery St 177","City":"San Francisco","State":"CA","Zip":"94104"},{"Location":"WELLS FARGO BANK -AUDIT GROUP","Address":"420 Montgomery St","City":"San Francisco","State":"CA","Zip":"94104"},{"Location":"WELLS FARGO EXECUTIVE OFFICE","Address":"420 Montgomery St 12flr","City":"San Francisco","State":"CA","Zip":"94104"},{"Location":"WELLS FARGO HOME MORTGAGE","Address":"540 California St","City":"San Francisco","State":"CA","Zip":"94104"},{"Location":"WILBUR ELLIS & COMPANY","Address":"345 California St 27th","City":"San Francisco","State":"CA","Zip":"94104"},{"Location":"WILLIAM BLAIR CO","Address":"343 Sansome St 12fl","City":"San Francisco","State":"CA","Zip":"94104"}]