[{"Location":"1337 MISSION ST INC","Address":"1337 Mission St","City":"San Francisco","State":"CA","Zip":"94103"},{"Location":"24 HOUR FITNESS #545","Address":"1645 Bryant St","City":"San Francisco","State":"CA","Zip":"94103"},{"Location":"4153098884","Address":"1516 Folsom St A","City":"San Francisco","State":"CA","Zip":"94103"},{"Location":"650 TOWNSEND ASSOCIATES LLC","Address":"650 Townsend St 220","City":"San Francisco","State":"CA","Zip":"94103"},{"Location":"A WOMANS PLACE","Address":"1049 Howard St","City":"San Francisco","State":"CA","Zip":"94103"},{"Location":"ACTION RENTALS","Address":"1530 Folsom St","City":"San Francisco","State":"CA","Zip":"94103"},{"Location":"ADOBE SYSTEMS INCORPORATED","Address":"601 Townsend St","City":"San Francisco","State":"CA","Zip":"94103"},{"Location":"ADVENT SOFTWARE","Address":"600 Townsend St","City":"San Francisco","State":"CA","Zip":"94103"},{"Location":"AEGIS MEDIA AMERICAS","Address":"875 Howard St 6fl","City":"San Francisco","State":"CA","Zip":"94103"},{"Location":"ALADDIN BAIL BONDS","Address":"835 Bryant St","City":"San Francisco","State":"CA","Zip":"94103"},{"Location":"ALIPH","Address":"99 Rhode Island St 3","City":"San Francisco","State":"CA","Zip":"94103"},{"Location":"ALL SERVICES","Address":"74 6th St 434","City":"San Francisco","State":"CA","Zip":"94103"},{"Location":"AMBER INDIA","Address":"25 Yerba Buena Ln","City":"San Francisco","State":"CA","Zip":"94103"},{"Location":"AMERICAN RED CROSS","Address":"1663 Market St","City":"San Francisco","State":"CA","Zip":"94103"},{"Location":"AMPUSH MEDIA INC","Address":"450 9th St","City":"San Francisco","State":"CA","Zip":"94103"},{"Location":"ANNABELLES BAR & BISTRO","Address":"68 4th St","City":"San Francisco","State":"CA","Zip":"94103"},{"Location":"ASTRO STUDIOS","Address":"348 6th St","City":"San Francisco","State":"CA","Zip":"94103"},{"Location":"ATT MOBILITY3","Address":"951 Howard St","City":"San Francisco","State":"CA","Zip":"94103"},{"Location":"AVENUE BODY SHOP","Address":"333 S Van Ness Ave","City":"San Francisco","State":"CA","Zip":"94103"},{"Location":"BAIL NOW BAILBONDS","Address":"879 Bryant St","City":"San Francisco","State":"CA","Zip":"94103"},{"Location":"BANG & OLUFSEN TOWNSEND","Address":"695 Townsend St","City":"San Francisco","State":"CA","Zip":"94103"},{"Location":"BCT BELLY BURGERS","Address":"1550 Howard St","City":"San Francisco","State":"CA","Zip":"94103"},{"Location":"BIG LANTERN","Address":"3170 16th St","City":"San Francisco","State":"CA","Zip":"94103"},{"Location":"BLOOM ROOM","Address":"471 Jessie St","City":"San Francisco","State":"CA","Zip":"94103"},{"Location":"BLOOMINDALE'S SAN FRANCISCO","Address":"845 Market St","City":"San Francisco","State":"CA","Zip":"94103"},{"Location":"BLOOMINGDALE'S SAN FRANCISCO","Address":"845 Market St","City":"San Francisco","State":"CA","Zip":"94103"},{"Location":"BLUE DOOR FILMS","Address":"833 Market St","City":"San Francisco","State":"CA","Zip":"94103"},{"Location":"BLUE STEM BRASSERIE","Address":"1 Yerba Buena Ln","City":"San Francisco","State":"CA","Zip":"94103"},{"Location":"BMW OF SAN FRANSISCO","Address":"1675 Howard St","City":"San Francisco","State":"CA","Zip":"94103"},{"Location":"BRISTOL FARMS","Address":"845 Market St Apt01","City":"San Francisco","State":"CA","Zip":"94103"},{"Location":"BUCA DI BEPPO #502","Address":"855 Howard St","City":"San Francisco","State":"CA","Zip":"94103"},{"Location":"BUDGET SIGNS","Address":"63 Brady St","City":"San Francisco","State":"CA","Zip":"94103"},{"Location":"BUILD GROUP INC","Address":"190 5th St","City":"San Francisco","State":"CA","Zip":"94103"},{"Location":"BUTTER BAR","Address":"354 11th St","City":"San Francisco","State":"CA","Zip":"94103"},{"Location":"CAPITAL ONE","Address":"201 3rd St 6thfl","City":"San Francisco","State":"CA","Zip":"94103"},{"Location":"CASEY","Address":"1150 Howard St","City":"San Francisco","State":"CA","Zip":"94103"},{"Location":"CATHEADS BBQ","Address":"1665 Folsom St","City":"San Francisco","State":"CA","Zip":"94103"},{"Location":"CATS","Address":"1171 Mission St","City":"San Francisco","State":"CA","Zip":"94103"},{"Location":"CHEVY'S 2505","Address":"201 3rd St","City":"San Francisco","State":"CA","Zip":"94103"},{"Location":"CHICAGO TITLE","Address":"1929 Market St","City":"San Francisco","State":"CA","Zip":"94103"},{"Location":"CHINO AMERICANO LLC","Address":"3198 16th St","City":"San Francisco","State":"CA","Zip":"94103"},{"Location":"CHP SAN FRANCISCO","Address":"455 88th St","City":"San Francisco","State":"CA","Zip":"94103"},{"Location":"CITY LIGHTS","Address":"1585 Folsom St","City":"San Francisco","State":"CA","Zip":"94103"},{"Location":"CLOUD 4 WI INC","Address":"22 Cleveland St","City":"San Francisco","State":"CA","Zip":"94103"},{"Location":"CLUB ALLURE","Address":"93 9th St","City":"San Francisco","State":"CA","Zip":"94103"},{"Location":"COBALTIX LLC","Address":"1095 Folsom St","City":"San Francisco","State":"CA","Zip":"94103"},{"Location":"COGNITIVE NETWORKS","Address":"1663 Mission St 520","City":"San Francisco","State":"CA","Zip":"94103"},{"Location":"COMMON SENSE MEDIA","Address":"650 Townsend St 435","City":"San Francisco","State":"CA","Zip":"94103"},{"Location":"CONARD HOUSE","Address":"1693 Market St","City":"San Francisco","State":"CA","Zip":"94103"},{"Location":"CUPOLA PIZZERIA","Address":"845 Market St 400","City":"San Francisco","State":"CA","Zip":"94103"},{"Location":"CYBERNET ENTERTAINMENT","Address":"1800 Mission St","City":"San Francisco","State":"CA","Zip":"94103"},{"Location":"D STORE SAN FRANCISCO","Address":"131 S Van Ness Ave","City":"San Francisco","State":"CA","Zip":"94103"},{"Location":"DAN TENENBAUM INC","Address":"201 Ave I","City":"San Francisco","State":"CA","Zip":"94103"},{"Location":"DAVE'S BAR","Address":"29 3rd St","City":"San Francisco","State":"CA","Zip":"94103"},{"Location":"DEAR MOM","Address":"2700 16th St","City":"San Francisco","State":"CA","Zip":"94103"},{"Location":"DELIRIUM","Address":"3139 16th St","City":"San Francisco","State":"CA","Zip":"94103"},{"Location":"DEPT OF BUILDING INSPECTION","Address":"1660 Mission St","City":"San Francisco","State":"CA","Zip":"94103"},{"Location":"DOLBY LABORATORIES INC","Address":"9990 Brannan Street","City":"San Francisco","State":"CA","Zip":"94103"},{"Location":"DOLBY LABORATORIOS","Address":"100 Potrero Ave","City":"San Francisco","State":"CA","Zip":"94103"},{"Location":"DOUBLE PLAY","Address":"2401 16th St","City":"San Francisco","State":"CA","Zip":"94103"},{"Location":"DOUBLE RAINBOW GOURMET","Address":"275 S Van Ness Ave","City":"San Francisco","State":"CA","Zip":"94103"},{"Location":"ELIXIR","Address":"3200 16th St","City":"San Francisco","State":"CA","Zip":"94103"},{"Location":"EUROPEAN COLLISION CENTER","Address":"180 12th St","City":"San Francisco","State":"CA","Zip":"94103"},{"Location":"FIL-AM SENIOR CITIZENS C","Address":"83 6th St","City":"San Francisco","State":"CA","Zip":"94103"},{"Location":"FIRESTONE #012645","Address":"1501 Mission St","City":"San Francisco","State":"CA","Zip":"94103"},{"Location":"FIRST REPUBLIC BANK","Address":"1355 Market St","City":"San Francisco","State":"CA","Zip":"94103"},{"Location":"FIT STAR","Address":"80 Langton St","City":"San Francisco","State":"CA","Zip":"94103"},{"Location":"FOCUS CONSULTING","Address":"991 Mission St","City":"San Francisco","State":"CA","Zip":"94103"},{"Location":"GIORDANO BROS. 2","Address":"3108 16th St","City":"San Francisco","State":"CA","Zip":"94103"},{"Location":"GLOBANT LLC","Address":"875 Howard St 320","City":"San Francisco","State":"CA","Zip":"94103"},{"Location":"GOLFSMITH #042","Address":"735 Market St","City":"San Francisco","State":"CA","Zip":"94103"},{"Location":"GRAND PU BAH","Address":"88 Division St","City":"San Francisco","State":"CA","Zip":"94103"},{"Location":"GRANDMAS DELI AND CAFE","Address":"1551 Mission St","City":"San Francisco","State":"CA","Zip":"94103"},{"Location":"GRAVITY MOBILE","Address":"466 8th St 3","City":"San Francisco","State":"CA","Zip":"94103"},{"Location":"HARRISON DRYWALL","Address":"447 10th St","City":"San Francisco","State":"CA","Zip":"94103"},{"Location":"HOLE IN THE WALL SALOON","Address":"1369 Folsom St","City":"San Francisco","State":"CA","Zip":"94103"},{"Location":"HOLY GRILL","Address":"659 Townsend St","City":"San Francisco","State":"CA","Zip":"94103"},{"Location":"HOTEL PALOMAR","Address":"12 4th St","City":"San Francisco","State":"CA","Zip":"94103"},{"Location":"HUDSON 1455 MARKET  LLC","Address":"1455 Market St 1101","City":"San Francisco","State":"CA","Zip":"94103"},{"Location":"HUMAN SERVICES AGENCY","Address":"1640 Mission St","City":"San Francisco","State":"CA","Zip":"94103"},{"Location":"I LOVE TERIYKI AND SUSHI","Address":"270 Potrero Ave","City":"San Francisco","State":"CA","Zip":"94103"},{"Location":"INTERCONTINENTAL (0064036)","Address":"888 Howard St","City":"San Francisco","State":"CA","Zip":"94103"},{"Location":"INTERCONTINETAL SAN FRANCISCO","Address":"888 Howard St","City":"San Francisco","State":"CA","Zip":"94103"},{"Location":"JF SITTON INC","Address":"45 Dore St","City":"San Francisco","State":"CA","Zip":"94103"},{"Location":"JILLIAN'S SAN FRANCISCO","Address":"175 4th St 1070","City":"San Francisco","State":"CA","Zip":"94103"},{"Location":"KCNS 38%2FLTB","Address":"1550 Bryant St 740","City":"San Francisco","State":"CA","Zip":"94103"},{"Location":"KILOWATT","Address":"3160 16th St","City":"San Francisco","State":"CA","Zip":"94103"},{"Location":"KOIT RADIO","Address":"201 3rd St 12flr","City":"San Francisco","State":"CA","Zip":"94103"},{"Location":"LARK CREEK STEAK","Address":"845 Market St 402","City":"San Francisco","State":"CA","Zip":"94103"},{"Location":"LAW OFFICE  MICHAEL GURFINKEL","Address":"966 Mission St","City":"San Francisco","State":"CA","Zip":"94103"},{"Location":"LAW OFFICES OF STUART HANLON","Address":"179 11th St 2fl","City":"San Francisco","State":"CA","Zip":"94103"},{"Location":"LIEBERMAN PRODUCTIONS","Address":"87 Mclea Ct","City":"San Francisco","State":"CA","Zip":"94103"},{"Location":"LUSCIOUS","Address":"475 9th St","City":"San Francisco","State":"CA","Zip":"94103"},{"Location":"MARRIOTT ATRIUM BAR","Address":"55 Forth Street","City":"San Francisco","State":"CA","Zip":"94103"},{"Location":"MARRIOTT CONCIERGE OFFICE","Address":"55 4th St 18","City":"San Francisco","State":"CA","Zip":"94103"},{"Location":"MARRIOTT MARQUIS FITNESS","Address":"780 Mission St","City":"San Francisco","State":"CA","Zip":"94103"},{"Location":"MARRIOTT SAN FRANCISCO(0065447","Address":"55 4th St","City":"San Francisco","State":"CA","Zip":"94103"},{"Location":"MARS BAR","Address":"798 Brannan St","City":"San Francisco","State":"CA","Zip":"94103"},{"Location":"MDM LIMOUSINE & SEDAN SERVICE","Address":"390 7th St","City":"San Francisco","State":"CA","Zip":"94103"},{"Location":"MEN'S WEARHOUSE #2156","Address":"785 Market St","City":"San Francisco","State":"CA","Zip":"94103"},{"Location":"MERCEDES BENZ OF SAN FRANCISCO","Address":"1480 Folsom St","City":"San Francisco","State":"CA","Zip":"94103"},{"Location":"META INTERFACES","Address":"22 4th St","City":"San Francisco","State":"CA","Zip":"94103"},{"Location":"MEZZANINE","Address":"444 Jessie St","City":"San Francisco","State":"CA","Zip":"94103"},{"Location":"MR SMITHS","Address":"34 7th St","City":"San Francisco","State":"CA","Zip":"94103"},{"Location":"NERDWALLET","Address":"901 Market St 6f","City":"San Francisco","State":"CA","Zip":"94103"},{"Location":"NIBBI BROTHERS ASSOCIATES INC","Address":"1000 Brannan St 102","City":"San Francisco","State":"CA","Zip":"94103"},{"Location":"NORDSTORM SAN FRANCISCO CENTER","Address":"865 Market St","City":"San Francisco","State":"CA","Zip":"94103"},{"Location":"NORDSTROM","Address":"865 Market St","City":"San Francisco","State":"CA","Zip":"94103"},{"Location":"NUNA HEALTH","Address":"650 Townsend St 425","City":"San Francisco","State":"CA","Zip":"94103"},{"Location":"OASIS","Address":"298 11th St","City":"San Francisco","State":"CA","Zip":"94103"},{"Location":"PHILO TELEVISION","Address":"455 9th St","City":"San Francisco","State":"CA","Zip":"94103"},{"Location":"PRINCIPAL BUILDERS INC","Address":"616 Minna St","City":"San Francisco","State":"CA","Zip":"94103"},{"Location":"RAINBOW NAIL SPA","Address":"1845 Market St","City":"San Francisco","State":"CA","Zip":"94103"},{"Location":"REGUS MANAGEMENT GROUP 2","Address":"350 Rhode Island St 220","City":"San Francisco","State":"CA","Zip":"94103"},{"Location":"RUMORS","Address":"398 7th St","City":"San Francisco","State":"CA","Zip":"94103"},{"Location":"SAN FRAN PD FLEET OP","Address":"850 Bryant St 511","City":"San Francisco","State":"CA","Zip":"94103"},{"Location":"SAN FRANCISCO CHRONICLE","Address":"901 Mission St","City":"San Francisco","State":"CA","Zip":"94103"},{"Location":"SAN FRANCISCO FIREFIGHTERS","Address":"1139 Mission St","City":"San Francisco","State":"CA","Zip":"94103"},{"Location":"SAN FRANCISCO HONDA","Address":"10 S Van Ness Ave","City":"San Francisco","State":"CA","Zip":"94103"},{"Location":"SAN FRANCISCO POLICE DEPT","Address":"850 Bryant St 511","City":"San Francisco","State":"CA","Zip":"94103"},{"Location":"SAN FRANCISCO POLICE DEPT","Address":"1700 17th St","City":"San Francisco","State":"CA","Zip":"94103"},{"Location":"SAN FRANCISCO REALTIES","Address":"5 3rd St","City":"San Francisco","State":"CA","Zip":"94103"},{"Location":"SEVENTEEN REASONS","Address":"1354 Harrison St","City":"San Francisco","State":"CA","Zip":"94103"},{"Location":"SF EAGLE","Address":"398 12th St","City":"San Francisco","State":"CA","Zip":"94103"},{"Location":"SF EXAMINER","Address":"835 Market St 550","City":"San Francisco","State":"CA","Zip":"94103"},{"Location":"SKYLARK BAR","Address":"3089 16th St","City":"San Francisco","State":"CA","Zip":"94103"},{"Location":"SLATE BAR","Address":"2925 16th St","City":"San Francisco","State":"CA","Zip":"94103"},{"Location":"SOCCER CAFE","Address":"2797 16th St","City":"San Francisco","State":"CA","Zip":"94103"},{"Location":"SOMA INN CAFE","Address":"1082 Folsom St","City":"San Francisco","State":"CA","Zip":"94103"},{"Location":"SOMA RESTAURANT AND BAR","Address":"85 5th St","City":"San Francisco","State":"CA","Zip":"94103"},{"Location":"SOMA STREAT FOOD PARK INC","Address":"428 11th St","City":"San Francisco","State":"CA","Zip":"94103"},{"Location":"SP PLUS CORPORATION","Address":"1160 Mission St G","City":"San Francisco","State":"CA","Zip":"94103"},{"Location":"SPORTS AUTHORITY 679","Address":"1692 Folsom St","City":"San Francisco","State":"CA","Zip":"94103"},{"Location":"SPORTS BASEMENT","Address":"1590 Bryant St","City":"San Francisco","State":"CA","Zip":"94103"},{"Location":"ST ANTHONY FOUNDATION FAC","Address":"291 10th St","City":"San Francisco","State":"CA","Zip":"94103"},{"Location":"ST GILES INTERNATIONAL","Address":"785 Market St 300","City":"San Francisco","State":"CA","Zip":"94103"},{"Location":"ST PATRICK CHURCH","Address":"756 Mission St","City":"San Francisco","State":"CA","Zip":"94103"},{"Location":"ST REGIS SAN FRANCISCO","Address":"125 3rd St","City":"San Francisco","State":"CA","Zip":"94103"},{"Location":"STOW LAKE BOAT HOUSE","Address":"50 Shotwell St","City":"San Francisco","State":"CA","Zip":"94103"},{"Location":"SUSHI CLUB","Address":"71 5th St","City":"San Francisco","State":"CA","Zip":"94103"},{"Location":"TAP 415","Address":"865 Market St Fl4","City":"San Francisco","State":"CA","Zip":"94103"},{"Location":"TED'S SPORTS BAR & GRILL","Address":"312 Harriet St","City":"San Francisco","State":"CA","Zip":"94103"},{"Location":"TEMPEST BAR","Address":"431 Natoma St","City":"San Francisco","State":"CA","Zip":"94103"},{"Location":"THE 7 MISSION RESTAURANT","Address":"150 7th St","City":"San Francisco","State":"CA","Zip":"94103"},{"Location":"THE ALDER HOTEL","Address":"175 6th St","City":"San Francisco","State":"CA","Zip":"94103"},{"Location":"THE CHIEFTAIN IRISH PUB","Address":"198 5th St","City":"San Francisco","State":"CA","Zip":"94103"},{"Location":"THE CLIMATE CORPORATION","Address":"201 3rd St 1100","City":"San Francisco","State":"CA","Zip":"94103"},{"Location":"THE END UP","Address":"401 6th St","City":"San Francisco","State":"CA","Zip":"94103"},{"Location":"THE FLYING PIG BISTRO","Address":"433 S Van Ness Ave","City":"San Francisco","State":"CA","Zip":"94103"},{"Location":"THE GARAGE MARKET","Address":"320 11th St","City":"San Francisco","State":"CA","Zip":"94103"},{"Location":"THE GIANT PIXEL CORP","Address":"431 Jessie St","City":"San Francisco","State":"CA","Zip":"94103"},{"Location":"THE GREEN DOOR","Address":"843 Howard St","City":"San Francisco","State":"CA","Zip":"94103"},{"Location":"THE HILLSDALE HOTEL","Address":"51 6th St","City":"San Francisco","State":"CA","Zip":"94103"},{"Location":"THE MARKET ON MARKET","Address":"1355 Market St","City":"San Francisco","State":"CA","Zip":"94103"},{"Location":"THE PICKWICK HOTEL","Address":"85 5th St","City":"San Francisco","State":"CA","Zip":"94103"},{"Location":"THE SMOG SHOP","Address":"276 11th St","City":"San Francisco","State":"CA","Zip":"94103"},{"Location":"THE VIEW LOUNGE","Address":"55 4th St 42","City":"San Francisco","State":"CA","Zip":"94103"},{"Location":"THIEVES TAVERN","Address":"496 14th St","City":"San Francisco","State":"CA","Zip":"94103"},{"Location":"TOGOS EATERY","Address":"2300 16th St Suit","City":"San Francisco","State":"CA","Zip":"94103"},{"Location":"TRENDY HAIR GALLERY","Address":"925 Howard St","City":"San Francisco","State":"CA","Zip":"94103"},{"Location":"TROPISUENO","Address":"75 Yerba Buena Ln","City":"San Francisco","State":"CA","Zip":"94103"},{"Location":"TWITTER","Address":"1355 Market St","City":"San Francisco","State":"CA","Zip":"94103"},{"Location":"TWO SONS SANDWICHES","Address":"2249 17th St","City":"San Francisco","State":"CA","Zip":"94103"},{"Location":"US DEPT OF LABOR","Address":"90 7th St B100","City":"San Francisco","State":"CA","Zip":"94103"},{"Location":"V COFFEE","Address":"1525 Folsom St","City":"San Francisco","State":"CA","Zip":"94103"},{"Location":"VENGA INC","Address":"443 Valencia St","City":"San Francisco","State":"CA","Zip":"94103"},{"Location":"VISIT BUREAU INC","Address":"330 10th St","City":"San Francisco","State":"CA","Zip":"94103"},{"Location":"WATCHWICH INC","Address":"66 Mint St 3","City":"San Francisco","State":"CA","Zip":"94103"},{"Location":"WATERFALL","Address":"25 Division St 205","City":"San Francisco","State":"CA","Zip":"94103"},{"Location":"WELLS FARGO BANK","Address":"2300 16th St","City":"San Francisco","State":"CA","Zip":"94103"},{"Location":"WELLS FARGO BANK","Address":"3027 16th St","City":"San Francisco","State":"CA","Zip":"94103"},{"Location":"WESTFIELD LABS","Address":"835 Market St 517","City":"San Francisco","State":"CA","Zip":"94103"},{"Location":"WESTFIELD SAN FRANCISCO CENTRE","Address":"865 Market St A","City":"San Francisco","State":"CA","Zip":"94103"},{"Location":"WESTIN SF MARKET STREET","Address":"50 3rd St","City":"San Francisco","State":"CA","Zip":"94103"},{"Location":"WESTWIND AUTOMOTIVE","Address":"351 Valencia St","City":"San Francisco","State":"CA","Zip":"94103"},{"Location":"YAMMER INC.","Address":"1355 Market St 300","City":"San Francisco","State":"CA","Zip":"94103"},{"Location":"YOUNG ELECTRIC","Address":"195 Erie St","City":"San Francisco","State":"CA","Zip":"94103"},{"Location":"ZHU FAMILY LZ","Address":"1016 Bryant St","City":"San Francisco","State":"CA","Zip":"94103"},{"Location":"ZOOSK INC","Address":"989 Market St Fl05","City":"San Francisco","State":"CA","Zip":"94103"},{"Location":"ZYNGA  INC.","Address":"699 8th St","City":"San Francisco","State":"CA","Zip":"94103"}]