[{"Location":"111 MINNA GALLERY","Address":"111 Minna St","City":"San Francisco","State":"CA","Zip":"94105"},{"Location":"55 HAWTHORNE OWNER%2CLP","Address":"55 Hawthorne St","City":"San Francisco","State":"CA","Zip":"94105"},{"Location":"631 HOWARD LLC","Address":"631 Howard St","City":"San Francisco","State":"CA","Zip":"94105"},{"Location":"83 PROOF","Address":"83 1st St","City":"San Francisco","State":"CA","Zip":"94105"},{"Location":"ACADEMY OF ART U 575","Address":"575 Harrison St","City":"San Francisco","State":"CA","Zip":"94105"},{"Location":"ACADEMY OF ART UNIVERSITY","Address":"79 New Montgomery St","City":"San Francisco","State":"CA","Zip":"94105"},{"Location":"ACE USA","Address":"455 Market St 500","City":"San Francisco","State":"CA","Zip":"94105"},{"Location":"ALMA DDB.","Address":"555 Market St 9","City":"San Francisco","State":"CA","Zip":"94105"},{"Location":"ANTENNA GROUP","Address":"135 Main St 800","City":"San Francisco","State":"CA","Zip":"94105"},{"Location":"AON","Address":"199 Fremont St 1500","City":"San Francisco","State":"CA","Zip":"94105"},{"Location":"APCO WORLDWIDE INC.","Address":"455 Market St 2240","City":"San Francisco","State":"CA","Zip":"94105"},{"Location":"APOLLO GROUP INC","Address":"199 Fremont St 1800","City":"San Francisco","State":"CA","Zip":"94105"},{"Location":"APT","Address":"101 Mission St 1700","City":"San Francisco","State":"CA","Zip":"94105"},{"Location":"ARC CONSULTING","Address":"101 Mission St 325","City":"San Francisco","State":"CA","Zip":"94105"},{"Location":"ARIA SYSTEMS","Address":"575 Market St","City":"San Francisco","State":"CA","Zip":"94105"},{"Location":"ASPEN INSURANCE","Address":"135 Main St 1950","City":"San Francisco","State":"CA","Zip":"94105"},{"Location":"AT KEARNEY","Address":"555 Mission St 18","City":"San Francisco","State":"CA","Zip":"94105"},{"Location":"AT&T","Address":"525 Market St 19fl","City":"San Francisco","State":"CA","Zip":"94105"},{"Location":"ATTIK","Address":"85 2nd St 6","City":"San Francisco","State":"CA","Zip":"94105"},{"Location":"AUSTRALIAN CONSULATE","Address":"575 Market St 1800","City":"San Francisco","State":"CA","Zip":"94105"},{"Location":"AUTODESCK","Address":"1 Market Plz 2","City":"San Francisco","State":"CA","Zip":"94105"},{"Location":"AUTODESK","Address":"1 Market St 5fl","City":"San Francisco","State":"CA","Zip":"94105"},{"Location":"AUTODESK","Address":"1 Market St 2fl","City":"San Francisco","State":"CA","Zip":"94105"},{"Location":"BAKER STREET ADVISORS","Address":"455 Market St Fl23","City":"San Francisco","State":"CA","Zip":"94105"},{"Location":"BANK OF MONTREAL","Address":"1 Market Spear Tower","City":"San Francisco","State":"CA","Zip":"94105"},{"Location":"BANK OF NEW YORK","Address":"555 Mission St 19","City":"San Francisco","State":"CA","Zip":"94105"},{"Location":"BANK OF THE WEST","Address":"535 Market St 100","City":"San Francisco","State":"CA","Zip":"94105"},{"Location":"BARNEY AND BARNEY LLC","Address":"1 Market Stewart Tower O 2550","City":"San Francisco","State":"CA","Zip":"94105"},{"Location":"BBDO WEST","Address":"555 Market St","City":"San Francisco","State":"CA","Zip":"94105"},{"Location":"BDO SEIDMAN LLP","Address":"1 Market Plz 11","City":"San Francisco","State":"CA","Zip":"94105"},{"Location":"BECHTEL CORPORATION","Address":"50 Beale St","City":"San Francisco","State":"CA","Zip":"94105"},{"Location":"BEL AIR","Address":"555 Mission St 3325","City":"San Francisco","State":"CA","Zip":"94105"},{"Location":"BERKSHIRE HATHAWAY","Address":"525 Market St 3110","City":"San Francisco","State":"CA","Zip":"94105"},{"Location":"BISTRO BURGER","Address":"201 Mission St 1","City":"San Francisco","State":"CA","Zip":"94105"},{"Location":"BLACKROCK%2C INC","Address":"400 Howard St","City":"San Francisco","State":"CA","Zip":"94105"},{"Location":"BLUE SHIELD OF CA","Address":"50 Beale St","City":"San Francisco","State":"CA","Zip":"94105"},{"Location":"BROWNSTONE","Address":"575 Market St 38","City":"San Francisco","State":"CA","Zip":"94105"},{"Location":"BRYAN CAVE LLP","Address":"560 Mission St 25flr","City":"San Francisco","State":"CA","Zip":"94105"},{"Location":"BUCHANAN INVESTMENTS","Address":"1 Market Plz 12","City":"San Francisco","State":"CA","Zip":"94105"},{"Location":"CALIFORNIA BUSINESS BANKING","Address":"525 Market St","City":"San Francisco","State":"CA","Zip":"94105"},{"Location":"CAPITAL RESEARCH COMPANY","Address":"1 Market Plz 2000","City":"San Francisco","State":"CA","Zip":"94105"},{"Location":"CAPITAL RESEARCH COMPANY","Address":"1 Market Plz 18","City":"San Francisco","State":"CA","Zip":"94105"},{"Location":"CAPITAL RESEARCH GROUP","Address":"1 Market Plz 1800","City":"San Francisco","State":"CA","Zip":"94105"},{"Location":"CAPPS","Address":"1 Market Plz 9","City":"San Francisco","State":"CA","Zip":"94105"},{"Location":"CARDNO CHEM RISK","Address":"101 2nd St 700","City":"San Francisco","State":"CA","Zip":"94105"},{"Location":"CARRICK CAPITAL PARTNERS","Address":"160 Spear St 1620","City":"San Francisco","State":"CA","Zip":"94105"},{"Location":"CDI","Address":"45 Fremont St 23fl","City":"San Francisco","State":"CA","Zip":"94105"},{"Location":"CHARLES SCHWAB","Address":"215 Fremont St","City":"San Francisco","State":"CA","Zip":"94105"},{"Location":"CHARLES SCHWAB & CO INC","Address":"215 Fremont St","City":"San Francisco","State":"CA","Zip":"94105"},{"Location":"CHARLES SCHWAB & COMPANY #C32","Address":"211 Main St","City":"San Francisco","State":"CA","Zip":"94105"},{"Location":"CHARLES SCHWAB & COMPANY #C32","Address":"211 Main St 16130","City":"San Francisco","State":"CA","Zip":"94105"},{"Location":"CHARLES SCHWAB & COMPANY #H16","Address":"215 Fremont St 110","City":"San Francisco","State":"CA","Zip":"94105"},{"Location":"CHARLES SCHWAB & COMPANY #X78","Address":"215 Fremont St 2ndfl","City":"San Francisco","State":"CA","Zip":"94105"},{"Location":"CHARLES SCHWAB INC","Address":"215 Fremont St","City":"San Francisco","State":"CA","Zip":"94105"},{"Location":"CHAYA BRASSERIE","Address":"132 The Embarcadero","City":"San Francisco","State":"CA","Zip":"94105"},{"Location":"CHICAGO TITLE","Address":"455 Market St 2100","City":"San Francisco","State":"CA","Zip":"94105"},{"Location":"CHS MANAGEMENT","Address":"201 Mission St 19","City":"San Francisco","State":"CA","Zip":"94105"},{"Location":"CITADEL INVESTMENT GROUP","Address":"1 Market Plz 38","City":"San Francisco","State":"CA","Zip":"94105"},{"Location":"CITY NATIONAL BANK","Address":"50 Fremont St","City":"San Francisco","State":"CA","Zip":"94105"},{"Location":"CITY NATIONAL BANK","Address":"455 Market St 1220","City":"San Francisco","State":"CA","Zip":"94105"},{"Location":"CLARK CONSTRUCTION","Address":"180 Howard St 1200","City":"San Francisco","State":"CA","Zip":"94105"},{"Location":"CLYDE & CO US","Address":"101 2nd St","City":"San Francisco","State":"CA","Zip":"94105"},{"Location":"CODE MANAGEMENT","Address":"101 2nd St 2225","City":"San Francisco","State":"CA","Zip":"94105"},{"Location":"COMSYS","Address":"135 Main St 1120","City":"San Francisco","State":"CA","Zip":"94105"},{"Location":"CONSULADO GENERAL DE MEXICO","Address":"532 Folsom St Fl3","City":"San Francisco","State":"CA","Zip":"94105"},{"Location":"CONSULATE GENERAL OF COLOMBIA","Address":"595 Market St 1190","City":"San Francisco","State":"CA","Zip":"94105"},{"Location":"CONSUMER CREDIT COUNSELING SER","Address":"595 Market St 15","City":"San Francisco","State":"CA","Zip":"94105"},{"Location":"CORE POWER YOGA","Address":"215 Fremont St Gf","City":"San Francisco","State":"CA","Zip":"94105"},{"Location":"CORNER BAKERY CAFE","Address":"665 Market St Help","City":"San Francisco","State":"CA","Zip":"94105"},{"Location":"CRUNCH FITNESS","Address":"61 New Montgomery St","City":"San Francisco","State":"CA","Zip":"94105"},{"Location":"CRYPTOGRAPHY RESEARCH INC","Address":"425 Market St","City":"San Francisco","State":"CA","Zip":"94105"},{"Location":"CT SUMMATION","Address":"425 Market St 7","City":"San Francisco","State":"CA","Zip":"94105"},{"Location":"CUSHMAN & WAKEFIELD","Address":"425 Market St 2300","City":"San Francisco","State":"CA","Zip":"94105"},{"Location":"CYPRESS FINANCIAL CORPORATION","Address":"188 The Embarcadero","City":"San Francisco","State":"CA","Zip":"94105"},{"Location":"DATA SIFT","Address":"100 First St 360","City":"San Francisco","State":"CA","Zip":"94105"},{"Location":"DDB SAN FRANCISCO","Address":"555 Market St 500","City":"San Francisco","State":"CA","Zip":"94105"},{"Location":"DEEMS  INC","Address":"301 Howard St 2100","City":"San Francisco","State":"CA","Zip":"94105"},{"Location":"DELOITTE AND TOUCHE","Address":"555 Mission St 4","City":"San Francisco","State":"CA","Zip":"94105"},{"Location":"DELTA DENTAL","Address":"100 1st St 4p","City":"San Francisco","State":"CA","Zip":"94105"},{"Location":"DIGITAL 365 MAIN LLC","Address":"365 Main St","City":"San Francisco","State":"CA","Zip":"94105"},{"Location":"DIGITAL RIVER","Address":"144 2nd St 5","City":"San Francisco","State":"CA","Zip":"94105"},{"Location":"DIVCOWEST","Address":"575 Market St","City":"San Francisco","State":"CA","Zip":"94105"},{"Location":"DLA PIPER","Address":"555 Mission St 2400","City":"San Francisco","State":"CA","Zip":"94105"},{"Location":"DOCUSIGN","Address":"123 Mission St 14","City":"San Francisco","State":"CA","Zip":"94105"},{"Location":"DOD%2FDPIO","Address":"150 Spear St 1200","City":"San Francisco","State":"CA","Zip":"94105"},{"Location":"DOUBLE FORTE","Address":"49 Stevenson St 575","City":"San Francisco","State":"CA","Zip":"94105"},{"Location":"DRINKET BIDDLE AND REATH","Address":"50 Fremont St 20","City":"San Francisco","State":"CA","Zip":"94105"},{"Location":"DTE ENERGY TRADING","Address":"201 Mission St 2280","City":"San Francisco","State":"CA","Zip":"94105"},{"Location":"DUANE MORRIS LLP","Address":"1 Market Plz 20","City":"San Francisco","State":"CA","Zip":"94105"},{"Location":"DUNLAP EQUITY MANAGEMENT","Address":"199 Fremont St 1110","City":"San Francisco","State":"CA","Zip":"94105"},{"Location":"EBATES INC.","Address":"160 Spear St 19thf","City":"San Francisco","State":"CA","Zip":"94105"},{"Location":"ECONOMISTS INCORPORATED","Address":"100 Spear St 1100","City":"San Francisco","State":"CA","Zip":"94105"},{"Location":"EDDIE RICKENBACKERS","Address":"133 2nd St","City":"San Francisco","State":"CA","Zip":"94105"},{"Location":"EDELMAN PUBLIC RELATIONS","Address":"525 Market St 1400","City":"San Francisco","State":"CA","Zip":"94105"},{"Location":"EPIC ROAST HOUSE","Address":"369 Embarcadero","City":"San Francisco","State":"CA","Zip":"94105"},{"Location":"EPIC-ATTN BRIAN TALEBZADAH","Address":"135 Main St 21","City":"San Francisco","State":"CA","Zip":"94105"},{"Location":"ERNST & YOUNG LLP","Address":"560 Mission St","City":"San Francisco","State":"CA","Zip":"94105"},{"Location":"EXPA","Address":"555 Mission St 20","City":"San Francisco","State":"CA","Zip":"94105"},{"Location":"EXPA LLC","Address":"555 Mission St 1850","City":"San Francisco","State":"CA","Zip":"94105"},{"Location":"EZE CASTLE","Address":"425 Market St 950","City":"San Francisco","State":"CA","Zip":"94105"},{"Location":"FEDERAL DEPOSIT INSURANCE CORP","Address":"25 Ecker Pl","City":"San Francisco","State":"CA","Zip":"94105"},{"Location":"FEDERAL RESERVE # 2","Address":"101 Market St Ms145","City":"San Francisco","State":"CA","Zip":"94105"},{"Location":"FEDERAL RESERVE BANK","Address":"101 Market St Ms145","City":"San Francisco","State":"CA","Zip":"94105"},{"Location":"FEDERAL RESERVE GYM","Address":"101 Market St Ms145","City":"San Francisco","State":"CA","Zip":"94105"},{"Location":"FEDERAL TRANSIT ADMINISTRATION","Address":"201 Mission St 1650","City":"San Francisco","State":"CA","Zip":"94105"},{"Location":"FEED","Address":"215 Fremont St 2b","City":"San Francisco","State":"CA","Zip":"94105"},{"Location":"FENTON COMMUNICATIONS","Address":"182 2nd St 400","City":"San Francisco","State":"CA","Zip":"94105"},{"Location":"FIDUCIARY RESEARCH","Address":"1 Market Plz 4150","City":"San Francisco","State":"CA","Zip":"94105"},{"Location":"FINANCIAL SECURITY ASSUR","Address":"1 Market Plz 15","City":"San Francisco","State":"CA","Zip":"94105"},{"Location":"FINANCIAL WEST","Address":"100 Spear St 930","City":"San Francisco","State":"CA","Zip":"94105"},{"Location":"FISHER BAKER & FARMER","Address":"330 1st St","City":"San Francisco","State":"CA","Zip":"94105"},{"Location":"FLEISHMAN - HILLARD%2CINC.","Address":"555 Market St 20","City":"San Francisco","State":"CA","Zip":"94105"},{"Location":"FOREX CAPITAL MARKETS","Address":"201 Mission St 2","City":"San Francisco","State":"CA","Zip":"94105"},{"Location":"FORRESTER RESEARCH INC.","Address":"150 Spear St 1100","City":"San Francisco","State":"CA","Zip":"94105"},{"Location":"FORTRESS CAPITAL","Address":"1 Market Plz 4","City":"San Francisco","State":"CA","Zip":"94105"},{"Location":"FREMONT GROUP","Address":"199 Fremont St 1900","City":"San Francisco","State":"CA","Zip":"94105"},{"Location":"FTP","Address":"555 Mission St 20","City":"San Francisco","State":"CA","Zip":"94105"},{"Location":"FUSIONSTORM","Address":"2 Bryant St","City":"San Francisco","State":"CA","Zip":"94105"},{"Location":"GENETIC FINANCE","Address":"160 Spear St 1600","City":"San Francisco","State":"CA","Zip":"94105"},{"Location":"GF PUBLIC AFFAIRS","Address":"58 2nd St","City":"San Francisco","State":"CA","Zip":"94105"},{"Location":"GI MANAGER","Address":"188 The Embarcadero 700","City":"San Francisco","State":"CA","Zip":"94105"},{"Location":"GIBSON DUNN","Address":"555 Mission St 3000","City":"San Francisco","State":"CA","Zip":"94105"},{"Location":"GIBSON DUNN & CRUTCHER","Address":"555 Mission St 3000","City":"San Francisco","State":"CA","Zip":"94105"},{"Location":"GIBSON%2CDUNN & CRUTCHER","Address":"555 Mission St 3000","City":"San Francisco","State":"CA","Zip":"94105"},{"Location":"GLL BIT FREMONT STREET PARTNER","Address":"199 Fremont St 1150","City":"San Francisco","State":"CA","Zip":"94105"},{"Location":"GLL REAL ESTATE PARTNERS","Address":"199 Fremont St 1150","City":"San Francisco","State":"CA","Zip":"94105"},{"Location":"GOLD CLUB","Address":"650 Howard St","City":"San Francisco","State":"CA","Zip":"94105"},{"Location":"GOLDEN GATE UNIVERSITY","Address":"40 Jessie St","City":"San Francisco","State":"CA","Zip":"94105"},{"Location":"GOLDEN GATE UNIVERSITY","Address":"536 Mission St","City":"San Francisco","State":"CA","Zip":"94105"},{"Location":"GOVERNMENT OF VICTORIA","Address":"575 Market St 375","City":"San Francisco","State":"CA","Zip":"94105"},{"Location":"GRAVITY4","Address":"1 Market Plz 27","City":"San Francisco","State":"CA","Zip":"94105"},{"Location":"GREAT AMERICAN INSURANCE","Address":"455 Market St 1800","City":"San Francisco","State":"CA","Zip":"94105"},{"Location":"GREENWICH CAPITAL MARKETS","Address":"150 Spear St 1750","City":"San Francisco","State":"CA","Zip":"94105"},{"Location":"GREYHOUND LINES","Address":"425 Mission St","City":"San Francisco","State":"CA","Zip":"94105"},{"Location":"GYMBOREE CORPORATION","Address":"500 Howard St","City":"San Francisco","State":"CA","Zip":"94105"},{"Location":"H.I.G. CAPITAL LLC","Address":"1 Market Plz 18","City":"San Francisco","State":"CA","Zip":"94105"},{"Location":"HANOVER INSURANCE","Address":"595 Market St","City":"San Francisco","State":"CA","Zip":"94105"},{"Location":"HANSON BRIDGETT LLP","Address":"425 Market St 26fl","City":"San Francisco","State":"CA","Zip":"94105"},{"Location":"HARBERT MANAGEMENT","Address":"575 Market St 2925","City":"San Francisco","State":"CA","Zip":"94105"},{"Location":"HARBOR COURT (0003250)","Address":"165 Steuart St","City":"San Francisco","State":"CA","Zip":"94105"},{"Location":"HARRIS WILLIAMS & CO","Address":"575 Market St 31fl","City":"San Francisco","State":"CA","Zip":"94105"},{"Location":"HARVEST PROPERTIES INC","Address":"101 Mission St 130","City":"San Francisco","State":"CA","Zip":"94105"},{"Location":"HEDGEOP","Address":"201 Mission St 1300","City":"San Francisco","State":"CA","Zip":"94105"},{"Location":"HIDIVE","Address":"28 1%2F2 Pier 28","City":"San Francisco","State":"CA","Zip":"94105"},{"Location":"HINES 101","Address":"101 2nd St 325","City":"San Francisco","State":"CA","Zip":"94105"},{"Location":"HOLLIS CAPITAL MGMT LLC","Address":"101 Mission St 935","City":"San Francisco","State":"CA","Zip":"94105"},{"Location":"HOOD & STRONG LLP","Address":"100 First St 14fl","City":"San Francisco","State":"CA","Zip":"94105"},{"Location":"HOOPER LUNDY & BOOKMAN INC","Address":"575 Market St 2300","City":"San Francisco","State":"CA","Zip":"94105"},{"Location":"HQ%2FREGUS","Address":"425 Market St 2200","City":"San Francisco","State":"CA","Zip":"94105"},{"Location":"IBM#6901139","Address":"425 Market St","City":"San Francisco","State":"CA","Zip":"94105"},{"Location":"INNOTAS","Address":"118 2nd St 300","City":"San Francisco","State":"CA","Zip":"94105"},{"Location":"INTUIT","Address":"71 Stevenson St 900","City":"San Francisco","State":"CA","Zip":"94105"},{"Location":"IRONWOOD CAPITAL","Address":"1 Market Plz 2500","City":"San Francisco","State":"CA","Zip":"94105"},{"Location":"ISI GROUP","Address":"One Market Street Spear 1530","City":"San Francisco","State":"CA","Zip":"94105"},{"Location":"ITG","Address":"525 Market St 18th","City":"San Francisco","State":"CA","Zip":"94105"},{"Location":"JP MORGAN #4","Address":"560 Mission St Fl18","City":"San Francisco","State":"CA","Zip":"94105"},{"Location":"JP MORGAN CHASE BANK #1","Address":"560 Mission St","City":"San Francisco","State":"CA","Zip":"94105"},{"Location":"JP MORGAN CHASE BANK #2","Address":"560 Mission St","City":"San Francisco","State":"CA","Zip":"94105"},{"Location":"JP MORGAN CHASE BANK #3","Address":"560 Mission St","City":"San Francisco","State":"CA","Zip":"94105"},{"Location":"JP MORGAN PB","Address":"560 Mission St 23fl","City":"San Francisco","State":"CA","Zip":"94105"},{"Location":"K D TV","Address":"50 Fremont St 41","City":"San Francisco","State":"CA","Zip":"94105"},{"Location":"KARUM GROUP","Address":"101 2nd St 350","City":"San Francisco","State":"CA","Zip":"94105"},{"Location":"KATE O'BRIEN","Address":"579 Howard St","City":"San Francisco","State":"CA","Zip":"94105"},{"Location":"KATZ MEDIA GROUP INC","Address":"100 Spear St Fl4","City":"San Francisco","State":"CA","Zip":"94105"},{"Location":"KIDDER MATHEWS","Address":"100 Spear St 2100","City":"San Francisco","State":"CA","Zip":"94105"},{"Location":"KILROY REALTY","Address":"100 First St 250","City":"San Francisco","State":"CA","Zip":"94105"},{"Location":"KNBR RADIO","Address":"55 Hawthorne St 1100","City":"San Francisco","State":"CA","Zip":"94105"},{"Location":"KNIGHT EQUITY MARKET","Address":"575 Market St 3800","City":"San Francisco","State":"CA","Zip":"94105"},{"Location":"LAFAYETTE & KUMAGAI","Address":"101 Mission St 600","City":"San Francisco","State":"CA","Zip":"94105"},{"Location":"LEARN IT","Address":"33 New Montgomery St 300","City":"San Francisco","State":"CA","Zip":"94105"},{"Location":"LEGACY PARTNERS II SFSPEAR%2CUS","Address":"160 Spear St 100","City":"San Francisco","State":"CA","Zip":"94105"},{"Location":"LEGAL RESOURCE.COM%2C INC","Address":"575 Market St 3000","City":"San Francisco","State":"CA","Zip":"94105"},{"Location":"LEND LEASE%2CINC","Address":"71 Stevenson St 800","City":"San Francisco","State":"CA","Zip":"94105"},{"Location":"LENDING CLUB","Address":"71 Stevenson St 300","City":"San Francisco","State":"CA","Zip":"94105"},{"Location":"LEWIS PR INC","Address":"575 Market St 1200","City":"San Francisco","State":"CA","Zip":"94105"},{"Location":"LIMOS.COM","Address":"625 Market St 11","City":"San Francisco","State":"CA","Zip":"94105"},{"Location":"LIVE NATION MERCHANDISE","Address":"450 Mission St 300","City":"San Francisco","State":"CA","Zip":"94105"},{"Location":"MANULIFE FINANCIAL","Address":"555 Market St","City":"San Francisco","State":"CA","Zip":"94105"},{"Location":"MARRIOTT","Address":"45 Fremont St 3300","City":"San Francisco","State":"CA","Zip":"94105"},{"Location":"MCDONALD'S","Address":"609 Market St","City":"San Francisco","State":"CA","Zip":"94105"},{"Location":"MCDONALDS USA LLC","Address":"685 Market St 590","City":"San Francisco","State":"CA","Zip":"94105"},{"Location":"MCKENNA LONG AND ALDRIDG","Address":"1 Market Plz 24","City":"San Francisco","State":"CA","Zip":"94105"},{"Location":"MEEZ","Address":"611 Mission St 407","City":"San Francisco","State":"CA","Zip":"94105"},{"Location":"MEHFIL INDIAN RESTAURANT","Address":"28 2nd St","City":"San Francisco","State":"CA","Zip":"94105"},{"Location":"MELLON CAPITAL MANAGEMENT","Address":"50 Fremont St 3900","City":"San Francisco","State":"CA","Zip":"94105"},{"Location":"METHOD","Address":"585 Howard St","City":"San Francisco","State":"CA","Zip":"94105"},{"Location":"METLIFE REI","Address":"425 Market St 1050","City":"San Francisco","State":"CA","Zip":"94105"},{"Location":"MGA SAN FRANCISCO","Address":"135 Main St 1900","City":"San Francisco","State":"CA","Zip":"94105"},{"Location":"MILLENNIUM TOWER ASSOCIATION","Address":"301 Mission St Level B 1","City":"San Francisco","State":"CA","Zip":"94105"},{"Location":"MOODY'S KMV","Address":"405 Howard St 300","City":"San Francisco","State":"CA","Zip":"94105"},{"Location":"MORGAN LEWIS AND BOCKIUS","Address":"1 Market Plz 1","City":"San Francisco","State":"CA","Zip":"94105"},{"Location":"MORRISON & FOERSTER","Address":"425 Market St 32a","City":"San Francisco","State":"CA","Zip":"94105"},{"Location":"MORRISON FORSTER LLP","Address":"555 Market St Ste 2","City":"San Francisco","State":"CA","Zip":"94105"},{"Location":"MOSS ADAMS LLP","Address":"101 2nd St 900","City":"San Francisco","State":"CA","Zip":"94105"},{"Location":"MSCI","Address":"50 Fremont St 2430","City":"San Francisco","State":"CA","Zip":"94105"},{"Location":"MUNGER TOLLES & OLSON LLP","Address":"560 Mission St 27","City":"San Francisco","State":"CA","Zip":"94105"},{"Location":"N SIX SIX TWO","Address":"662 Mission St","City":"San Francisco","State":"CA","Zip":"94105"},{"Location":"NASDAQ OMX","Address":"150 Spear St 3thfl","City":"San Francisco","State":"CA","Zip":"94105"},{"Location":"NAVIGANT","Address":"1 Market Plz 1200","City":"San Francisco","State":"CA","Zip":"94105"},{"Location":"NBC UNIVERSAL","Address":"One Market St Steuart To 15","City":"San Francisco","State":"CA","Zip":"94105"},{"Location":"NCA GROUP","Address":"123 Mission St 9","City":"San Francisco","State":"CA","Zip":"94105"},{"Location":"NEEDHAM & COMPANY","Address":"100 Spear St 2050","City":"San Francisco","State":"CA","Zip":"94105"},{"Location":"NEUSTAR","Address":"505 Howard St 500","City":"San Francisco","State":"CA","Zip":"94105"},{"Location":"NEW RELIC INC","Address":"188 Spear St 1200","City":"San Francisco","State":"CA","Zip":"94105"},{"Location":"NEWCOMB ANDERSON","Address":"201 Mission St 2000","City":"San Francisco","State":"CA","Zip":"94105"},{"Location":"NGAM ADVISORS LP","Address":"101 2nd St 1600","City":"San Francisco","State":"CA","Zip":"94105"},{"Location":"NHTSA","Address":"201 Mission St 1600","City":"San Francisco","State":"CA","Zip":"94105"},{"Location":"NICK DISYAMONTHON","Address":"201 Mission St 2230","City":"San Francisco","State":"CA","Zip":"94105"},{"Location":"NORTH INDIA","Address":"123 2nd St","City":"San Francisco","State":"CA","Zip":"94105"},{"Location":"NOSAL PARTNERS LLC","Address":"100 First St 2200","City":"San Francisco","State":"CA","Zip":"94105"},{"Location":"NOVAK DRUCE AND QUIGG LL","Address":"555 Mission St 10","City":"San Francisco","State":"CA","Zip":"94105"},{"Location":"OCONNOR & ASSOCIATES","Address":"201 Mission St 7","City":"San Francisco","State":"CA","Zip":"94105"},{"Location":"OLGETREE DEAKINS","Address":"1 Market Plz 1300","City":"San Francisco","State":"CA","Zip":"94105"},{"Location":"OLYMPUS CAPITAL ASIA","Address":"100 Spear St 939","City":"San Francisco","State":"CA","Zip":"94105"},{"Location":"OMD","Address":"555 Market St 750","City":"San Francisco","State":"CA","Zip":"94105"},{"Location":"ONE MARKET RESTAURANT","Address":"1 Market Plz 1","City":"San Francisco","State":"CA","Zip":"94105"},{"Location":"ONE RINCON HILL #1","Address":"425 1st St","City":"San Francisco","State":"CA","Zip":"94105"},{"Location":"ONE RINCON HILL #2","Address":"425 1st St","City":"San Francisco","State":"CA","Zip":"94105"},{"Location":"OPPTINUITY ALLIANCE","Address":"101 Mission St 1750","City":"San Francisco","State":"CA","Zip":"94105"},{"Location":"ORRICK HERRINGTON & SUTCLIFFE","Address":"405 Howard St","City":"San Francisco","State":"CA","Zip":"94105"},{"Location":"OTR GLOBAL LLC","Address":"101 2nd St 1250","City":"San Francisco","State":"CA","Zip":"94105"},{"Location":"PACIFIC GAS & ELECTRIC","Address":"77 Beale St","City":"San Francisco","State":"CA","Zip":"94105"},{"Location":"PACIFIC MARITIME ASSOCIATION","Address":"555 Market St","City":"San Francisco","State":"CA","Zip":"94105"},{"Location":"PARNASSUS INVESTMENTS","Address":"1 Market Plz 16","City":"San Francisco","State":"CA","Zip":"94105"},{"Location":"PASSPORT CAPITAL","Address":"1 Market Steuart Tower 2200","City":"San Francisco","State":"CA","Zip":"94105"},{"Location":"PERIGON WEALTH%2C LLC.","Address":"201 Mission St 1825","City":"San Francisco","State":"CA","Zip":"94105"},{"Location":"PERRY S EMBARCADERO","Address":"155 Steuart St","City":"San Francisco","State":"CA","Zip":"94105"},{"Location":"PERSHING LLC","Address":"135 Main St 500","City":"San Francisco","State":"CA","Zip":"94105"},{"Location":"PG&E - SF","Address":"77 Beale St B15a","City":"San Francisco","State":"CA","Zip":"94105"},{"Location":"PHD MEDIA LLC DBA PHD USA","Address":"455 Market St 1600","City":"San Francisco","State":"CA","Zip":"94105"},{"Location":"PHOENIX AGE","Address":"150 Spear St 1700","City":"San Francisco","State":"CA","Zip":"94105"},{"Location":"PLATIMUM ADVISORS","Address":"560 Mission St 28","City":"San Francisco","State":"CA","Zip":"94105"},{"Location":"PRACTICING LAW INSTITUTE","Address":"685 Market St 100","City":"San Francisco","State":"CA","Zip":"94105"},{"Location":"PRIVE","Address":"651 Howard St","City":"San Francisco","State":"CA","Zip":"94105"},{"Location":"PROGRESS INVESTMENT MGNT","Address":"33 New Montgomery St 1900","City":"San Francisco","State":"CA","Zip":"94105"},{"Location":"PROTIVITI","Address":"555 Market St 1800","City":"San Francisco","State":"CA","Zip":"94105"},{"Location":"RAYMOND JAMES","Address":"575 Market St 3900","City":"San Francisco","State":"CA","Zip":"94105"},{"Location":"RCM CAPITAL MANAGEMENT #1","Address":"555 Mission St 17","City":"San Francisco","State":"CA","Zip":"94105"},{"Location":"RCM CAPITAL MANAGEMENT #2","Address":"555 Mission St 17","City":"San Francisco","State":"CA","Zip":"94105"},{"Location":"RCM CAPITAL MANAGEMENT #3","Address":"555 Mission St 17","City":"San Francisco","State":"CA","Zip":"94105"},{"Location":"REDS JAVA HOUSE","Address":"30 Pier","City":"San Francisco","State":"CA","Zip":"94105"},{"Location":"REED SMITH","Address":"101 2nd St 1800","City":"San Francisco","State":"CA","Zip":"94105"},{"Location":"REGION 139 INC","Address":"139 Steuart St","City":"San Francisco","State":"CA","Zip":"94105"},{"Location":"REGUS","Address":"201 Mission St 12","City":"San Francisco","State":"CA","Zip":"94105"},{"Location":"REGUS BUSINESS CENTERS","Address":"1 Market Plz 3600","City":"San Francisco","State":"CA","Zip":"94105"},{"Location":"REGUS MANAGEMENT GROUP CA","Address":"71 Stevenson St 400","City":"San Francisco","State":"CA","Zip":"94105"},{"Location":"RISTORANTE UMBRIA","Address":"198 2nd St","City":"San Francisco","State":"CA","Zip":"94105"},{"Location":"RNM 135 MAIN L.P","Address":"135 Main St 1140","City":"San Francisco","State":"CA","Zip":"94105"},{"Location":"ROBERT WALTERS CALIFORNI","Address":"101 Mission St 2000","City":"San Francisco","State":"CA","Zip":"94105"},{"Location":"ROCKET LAWYER","Address":"101 2nd St 4thfl","City":"San Francisco","State":"CA","Zip":"94105"},{"Location":"ROSA MEXICANO","Address":"30 Mission St","City":"San Francisco","State":"CA","Zip":"94105"},{"Location":"ROY'S RESTAURANT #2501","Address":"575 Mission St","City":"San Francisco","State":"CA","Zip":"94105"},{"Location":"RPX CORP","Address":"1 Market Plz","City":"San Francisco","State":"CA","Zip":"94105"},{"Location":"RSM MCGLADREY - SF","Address":"55 Hawthorne St 500","City":"San Francisco","State":"CA","Zip":"94105"},{"Location":"SALE FORCE","Address":"123 Mission St 18","City":"San Francisco","State":"CA","Zip":"94105"},{"Location":"SALES FORCE 29","Address":"50 Fremont St 32","City":"San Francisco","State":"CA","Zip":"94105"},{"Location":"SALESFORCE","Address":"50 Fremont St 36","City":"San Francisco","State":"CA","Zip":"94105"},{"Location":"SALESFORCE","Address":"50 Fremont St 40","City":"San Francisco","State":"CA","Zip":"94105"},{"Location":"SALESFORCE 28FL","Address":"50 Fremont St 31","City":"San Francisco","State":"CA","Zip":"94105"},{"Location":"SALESFORCE 30FL","Address":"50 Fremont St 31","City":"San Francisco","State":"CA","Zip":"94105"},{"Location":"SALESFORCE 31FL","Address":"50 Fremont St 31","City":"San Francisco","State":"CA","Zip":"94105"},{"Location":"SALESFORCE 5 AND 6","Address":"50 Fremont St 5and6","City":"San Francisco","State":"CA","Zip":"94105"},{"Location":"SALESFORCE 7 AND 8","Address":"50 Fremont St","City":"San Francisco","State":"CA","Zip":"94105"},{"Location":"SALESFORCE.COM","Address":"50 Fremont St 10","City":"San Francisco","State":"CA","Zip":"94105"},{"Location":"SALESFORCE.COM","Address":"50 Fremont St 9","City":"San Francisco","State":"CA","Zip":"94105"},{"Location":"SALESFORCE.COM","Address":"50 Fremont St 7","City":"San Francisco","State":"CA","Zip":"94105"},{"Location":"SALESFORCE.COM #1","Address":"1 Market St 300","City":"San Francisco","State":"CA","Zip":"94105"},{"Location":"SALESFORCE.COM #2","Address":"1 Market St 300","City":"San Francisco","State":"CA","Zip":"94105"},{"Location":"SALESFORCE.COM #4","Address":"1 Market St 300","City":"San Francisco","State":"CA","Zip":"94105"},{"Location":"SEDGWICK DETERT MORAN & ARNOLD","Address":"135 Main St 15fl","City":"San Francisco","State":"CA","Zip":"94105"},{"Location":"SEYFARTH SHAW LLP","Address":"560 Mission St","City":"San Francisco","State":"CA","Zip":"94105"},{"Location":"SHAWN ANDERSON","Address":"425 Market St 12f","City":"San Francisco","State":"CA","Zip":"94105"},{"Location":"SHERATON PALACE","Address":"2 New Montgomery St","City":"San Francisco","State":"CA","Zip":"94105"},{"Location":"SIGTARP INVESTIGATION","Address":"50 Beale St 9thfl","City":"San Francisco","State":"CA","Zip":"94105"},{"Location":"SILICON VALLEY BANK","Address":"555 Mission St 8","City":"San Francisco","State":"CA","Zip":"94105"},{"Location":"SIMMONS BROWDER LLC","Address":"455 Market St","City":"San Francisco","State":"CA","Zip":"94105"},{"Location":"SINGAPORE CONSULATE GENERAL","Address":"595 Market St 2450","City":"San Francisco","State":"CA","Zip":"94105"},{"Location":"SITRICK AND COMPANY","Address":"90 New Montgomery St","City":"San Francisco","State":"CA","Zip":"94105"},{"Location":"SKOUT","Address":"301 Howard St 1500","City":"San Francisco","State":"CA","Zip":"94105"},{"Location":"SOCIUS","Address":"301 Howard St 1013","City":"San Francisco","State":"CA","Zip":"94105"},{"Location":"SONNENSCHEIN NATH & ROSENTHAL","Address":"525 Market St 26flr","City":"San Francisco","State":"CA","Zip":"94105"},{"Location":"SPARK PUBLIC RELATIONS","Address":"2 Bryant St 100","City":"San Francisco","State":"CA","Zip":"94105"},{"Location":"SPARKPAY CAPITAL ONE","Address":"575 Market St","City":"San Francisco","State":"CA","Zip":"94105"},{"Location":"SPEAR STREAT CAPITAL","Address":"1 Market Plz 4","City":"San Francisco","State":"CA","Zip":"94105"},{"Location":"STANDARD CHARTER BANK","Address":"50 Fremont St 2210","City":"San Francisco","State":"CA","Zip":"94105"},{"Location":"STATE DEPT SF PASSPORT A","Address":"95 Hawthorne St 500","City":"San Francisco","State":"CA","Zip":"94105"},{"Location":"STEFF'S","Address":"141 2nd St","City":"San Francisco","State":"CA","Zip":"94105"},{"Location":"STEPHENS INC","Address":"101 2nd St 800","City":"San Francisco","State":"CA","Zip":"94105"},{"Location":"STREETEDGE CAPITAL LP","Address":"455 Market St 1140","City":"San Francisco","State":"CA","Zip":"94105"},{"Location":"STUB HUB INC","Address":"199 Fremont St Fl400","City":"San Francisco","State":"CA","Zip":"94105"},{"Location":"STUDIOS ARCHITECTURE","Address":"405 Howard St 488","City":"San Francisco","State":"CA","Zip":"94105"},{"Location":"SUSHI FANTASTIC","Address":"215 Fremont St 2a","City":"San Francisco","State":"CA","Zip":"94105"},{"Location":"SWANDER PACE CAPITAL","Address":"100 Spear St 19","City":"San Francisco","State":"CA","Zip":"94105"},{"Location":"TD AMERITRADE INC #05038","Address":"525 Market St","City":"San Francisco","State":"CA","Zip":"94105"},{"Location":"TELSTRA GLOBAL","Address":"575 Market St 1650","City":"San Francisco","State":"CA","Zip":"94105"},{"Location":"THE BRATTLE GROUP","Address":"201 Mission St 28","City":"San Francisco","State":"CA","Zip":"94105"},{"Location":"THE INFINITY OWNERS","Address":"301 Main St","City":"San Francisco","State":"CA","Zip":"94105"},{"Location":"THIRSTY BEAR BREWING CO.","Address":"661 Howard St","City":"San Francisco","State":"CA","Zip":"94105"},{"Location":"TIAA-CREF","Address":"560 Mission St 1000","City":"San Francisco","State":"CA","Zip":"94105"},{"Location":"TIAA-CREF","Address":"560 Mission St 11th","City":"San Francisco","State":"CA","Zip":"94105"},{"Location":"TMP WORLDWIDE","Address":"150 Spear St 1300","City":"San Francisco","State":"CA","Zip":"94105"},{"Location":"TODD ZIEING","Address":"190367 Spear St 700","City":"San Francisco","State":"CA","Zip":"94105"},{"Location":"TRANSBAY TOWER%2C LLC","Address":"50 Fremont St 2110","City":"San Francisco","State":"CA","Zip":"94105"},{"Location":"TUCKER ELLIS","Address":"135 Main St 700","City":"San Francisco","State":"CA","Zip":"94105"},{"Location":"U S EPA","Address":"75 Hawthorne St","City":"San Francisco","State":"CA","Zip":"94105"},{"Location":"UBS REALTY INVESTORS","Address":"455 Market St","City":"San Francisco","State":"CA","Zip":"94105"},{"Location":"UBS SECURITIES","Address":"1 Market Plz 3","City":"San Francisco","State":"CA","Zip":"94105"},{"Location":"UNFORGIVEN CONCEPTS","Address":"602 Mission St","City":"San Francisco","State":"CA","Zip":"94105"},{"Location":"UNITED CAPITAL FINANCIAL","Address":"1 Market Plz 1800","City":"San Francisco","State":"CA","Zip":"94105"},{"Location":"UNITED HEALTH GROUP","Address":"425 Market St 15","City":"San Francisco","State":"CA","Zip":"94105"},{"Location":"US CUSTOMS & BORDER PROTECTION","Address":"33 New Montgomery St 1620","City":"San Francisco","State":"CA","Zip":"94105"},{"Location":"US DEPARTMENT OF STATE","Address":"1 Market Plz 13","City":"San Francisco","State":"CA","Zip":"94105"},{"Location":"US GOVT ACCOUNTABILITY OFFICE","Address":"301 Howard St 1100","City":"San Francisco","State":"CA","Zip":"94105"},{"Location":"VALIANT CAPITAL PARTNERS","Address":"1 Market Plz 26","City":"San Francisco","State":"CA","Zip":"94105"},{"Location":"VECTOR CAPITAL CORP","Address":"1 Market Plz 23","City":"San Francisco","State":"CA","Zip":"94105"},{"Location":"VISA","Address":"1 Market St 5","City":"San Francisco","State":"CA","Zip":"94105"},{"Location":"VISA","Address":"1 Market Plz 6","City":"San Francisco","State":"CA","Zip":"94105"},{"Location":"WASHINGTON POST","Address":"201 Mission St 1380","City":"San Francisco","State":"CA","Zip":"94105"},{"Location":"WATERBAR","Address":"399 The Embarcadero","City":"San Francisco","State":"CA","Zip":"94105"},{"Location":"WEALTH & TAX ADVISORY","Address":"100 1st St 1600","City":"San Francisco","State":"CA","Zip":"94105"},{"Location":"WELLS FARGO","Address":"45 Fremont St 12","City":"San Francisco","State":"CA","Zip":"94105"},{"Location":"WELLS FARGO","Address":"45 Fremont St 27","City":"San Francisco","State":"CA","Zip":"94105"},{"Location":"WELLS FARGO","Address":"45 Fremont St 26&27","City":"San Francisco","State":"CA","Zip":"94105"},{"Location":"WELLS FARGO BANK","Address":"455 Market St 7fl","City":"San Francisco","State":"CA","Zip":"94105"},{"Location":"WELLS FARGO BANK NA","Address":"100 Spear St 100","City":"San Francisco","State":"CA","Zip":"94105"},{"Location":"WELLS FARGO BANK%2C N.A.","Address":"333 Market St 500","City":"San Francisco","State":"CA","Zip":"94105"},{"Location":"WELLS FARGO BRAND STRATEGY","Address":"525 Market St 6flr","City":"San Francisco","State":"CA","Zip":"94105"},{"Location":"WESTERLY  CAPITAL","Address":"201 Mission St 530","City":"San Francisco","State":"CA","Zip":"94105"},{"Location":"WILLIAM RANDOLPH HEARSTFOUNDAT","Address":"90 New Montgomery St 1212","City":"San Francisco","State":"CA","Zip":"94105"},{"Location":"WILLIS INSURANCE","Address":"525 Market St 34th","City":"San Francisco","State":"CA","Zip":"94105"},{"Location":"WILSON SONSINI GOODRICH","Address":"1 Market Plz 3300","City":"San Francisco","State":"CA","Zip":"94105"},{"Location":"WINE INSTITUTE","Address":"425 Market St 1000","City":"San Francisco","State":"CA","Zip":"94105"},{"Location":"WORKDAY","Address":"160 Spear St 1750","City":"San Francisco","State":"CA","Zip":"94105"},{"Location":"WP ADVISORS","Address":"201 Mission St 1930","City":"San Francisco","State":"CA","Zip":"94105"},{"Location":"ZURICH NORTH AMERICA","Address":"525 Market St 29","City":"San Francisco","State":"CA","Zip":"94105"}]