[{"Location":"21ST AMENDMENT BREWERY CAFE","Address":"563 2nd St","City":"San Francisco","State":"CA","Zip":"94107"},{"Location":"24 HOUR FITNESS #518","Address":"303 2nd St","City":"San Francisco","State":"CA","Zip":"94107"},{"Location":"25 LUSK","Address":"25 Lusk St","City":"San Francisco","State":"CA","Zip":"94107"},{"Location":"ADOBE SYSTEMS INC","Address":"410 Townsend St","City":"San Francisco","State":"CA","Zip":"94107"},{"Location":"AKQA","Address":"360 3rd St 5thfl","City":"San Francisco","State":"CA","Zip":"94107"},{"Location":"ALJAZEERA AMERICA%2C LLC","Address":"118 King St","City":"San Francisco","State":"CA","Zip":"94107"},{"Location":"AMICIS EAST COAST PIZZA","Address":"216 King St","City":"San Francisco","State":"CA","Zip":"94107"},{"Location":"APP DYNAMICS","Address":"303 2nd St 8thfl","City":"San Francisco","State":"CA","Zip":"94107"},{"Location":"APPLOVIN CORP","Address":"640 2nd St 1stfl","City":"San Francisco","State":"CA","Zip":"94107"},{"Location":"AVG TECHNOLOGIES USA","Address":"149 Bluxome St","City":"San Francisco","State":"CA","Zip":"94107"},{"Location":"BAAN CONTEMPORARY","Address":"685 3rd St D","City":"San Francisco","State":"CA","Zip":"94107"},{"Location":"BATTERY MANAGEMENT CORP.","Address":"260 Townsend St 7th","City":"San Francisco","State":"CA","Zip":"94107"},{"Location":"BLOOMS SALOON","Address":"1318 18th St","City":"San Francisco","State":"CA","Zip":"94107"},{"Location":"BLUXOME STREET WINERY","Address":"53 Bluxome St","City":"San Francisco","State":"CA","Zip":"94107"},{"Location":"BOSTON PROPERTIES","Address":"680 Folsom St 140","City":"San Francisco","State":"CA","Zip":"94107"},{"Location":"BROWN & TOLAND MEDICAL GROUP","Address":"153 Townsend St 700","City":"San Francisco","State":"CA","Zip":"94107"},{"Location":"BURSON-MARSTELLER","Address":"303 2nd St 350","City":"San Francisco","State":"CA","Zip":"94107"},{"Location":"CARMENS","Address":"40 Pier","City":"San Francisco","State":"CA","Zip":"94107"},{"Location":"CHILTON AUTO BODY","Address":"166 Wisconsin St","City":"San Francisco","State":"CA","Zip":"94107"},{"Location":"CHUTE 1","Address":"25 Stillman St 101","City":"San Francisco","State":"CA","Zip":"94107"},{"Location":"CHUTE CORP","Address":"480 2nd St 302","City":"San Francisco","State":"CA","Zip":"94107"},{"Location":"CITISCAPE PM","Address":"2225 23rd St","City":"San Francisco","State":"CA","Zip":"94107"},{"Location":"CLOUDMARK","Address":"128 King St 2nd","City":"San Francisco","State":"CA","Zip":"94107"},{"Location":"COMCAST SPORTSNET BAY AREA","Address":"360 3rd St 200","City":"San Francisco","State":"CA","Zip":"94107"},{"Location":"CONCENTRA","Address":"2 Connecticut St","City":"San Francisco","State":"CA","Zip":"94107"},{"Location":"CONNECTICUT YANKEE","Address":"100 Connecticut St","City":"San Francisco","State":"CA","Zip":"94107"},{"Location":"COROVAN","Address":"901 16th St","City":"San Francisco","State":"CA","Zip":"94107"},{"Location":"CW HOTEL","Address":"917 Folsom St","City":"San Francisco","State":"CA","Zip":"94107"},{"Location":"DIGNITY HEALTH","Address":"185 Berry St 300","City":"San Francisco","State":"CA","Zip":"94107"},{"Location":"DISTRICT","Address":"216 Townsend St","City":"San Francisco","State":"CA","Zip":"94107"},{"Location":"DOGPATCH SALOON1","Address":"702 22nd St","City":"San Francisco","State":"CA","Zip":"94107"},{"Location":"DRAKE","Address":"508 4th St","City":"San Francisco","State":"CA","Zip":"94107"},{"Location":"DROP BOX","Address":"185 Berry St 4","City":"San Francisco","State":"CA","Zip":"94107"},{"Location":"ECO BAY SERVICES","Address":"1501 Minnesota St","City":"San Francisco","State":"CA","Zip":"94107"},{"Location":"EHEALTH INC","Address":"128 King St 4","City":"San Francisco","State":"CA","Zip":"94107"},{"Location":"EL NINO SPORTS LLC","Address":"2920 3rd St","City":"San Francisco","State":"CA","Zip":"94107"},{"Location":"ESCAPE FROM NY PIZZA","Address":"715 Harrison St","City":"San Francisco","State":"CA","Zip":"94107"},{"Location":"EXACT TARGET","Address":"301 Brannan St 100","City":"San Francisco","State":"CA","Zip":"94107"},{"Location":"FIORE AND COMPANY LLC","Address":"238 Townsend St","City":"San Francisco","State":"CA","Zip":"94107"},{"Location":"FLASH POINT PR LLC","Address":"2475 3rd St 253","City":"San Francisco","State":"CA","Zip":"94107"},{"Location":"FORMATION8","Address":"501 2nd St 300","City":"San Francisco","State":"CA","Zip":"94107"},{"Location":"FUNCTION X INC","Address":"333 Bryant St 140","City":"San Francisco","State":"CA","Zip":"94107"},{"Location":"GARAHE","Address":"475 3rd St","City":"San Francisco","State":"CA","Zip":"94107"},{"Location":"GIANTS DUGOUT","Address":"24 Willie Mays Plz","City":"San Francisco","State":"CA","Zip":"94107"},{"Location":"GOLDEN BEAR RESTARAUNT C","Address":"128 King St","City":"San Francisco","State":"CA","Zip":"94107"},{"Location":"GOLDEN GATE UROLOGY","Address":"139 Townsend St","City":"San Francisco","State":"CA","Zip":"94107"},{"Location":"GREE","Address":"185 Berry St 5th","City":"San Francisco","State":"CA","Zip":"94107"},{"Location":"GREY SAN FRANCISCO","Address":"303 2nd St N300","City":"San Francisco","State":"CA","Zip":"94107"},{"Location":"HAPPY DONUT","Address":"761 3rd St","City":"San Francisco","State":"CA","Zip":"94107"},{"Location":"HOWARD HAWTHORNE","Address":"330 Townsend St 118","City":"San Francisco","State":"CA","Zip":"94107"},{"Location":"ICE SKATING AND BOWLING CENTER","Address":"750 Folsom St","City":"San Francisco","State":"CA","Zip":"94107"},{"Location":"INDEX VENTURE MANAGEMENT INC","Address":"139 Townsend St 505","City":"San Francisco","State":"CA","Zip":"94107"},{"Location":"IRONSIDE","Address":"680 2nd St","City":"San Francisco","State":"CA","Zip":"94107"},{"Location":"JAMBER","Address":"858 Folsom St","City":"San Francisco","State":"CA","Zip":"94107"},{"Location":"JAVA HOUSE","Address":"40 Pier 3","City":"San Francisco","State":"CA","Zip":"94107"},{"Location":"JP MORGAN CHASE","Address":"600 Harrison St","City":"San Francisco","State":"CA","Zip":"94107"},{"Location":"KILROY REALTY","Address":"303 2nd St 610","City":"San Francisco","State":"CA","Zip":"94107"},{"Location":"KING STREET DENTAL INC","Address":"170 King St","City":"San Francisco","State":"CA","Zip":"94107"},{"Location":"KL CAPITAL PARTNERS","Address":"480 2nd St 303","City":"San Francisco","State":"CA","Zip":"94107"},{"Location":"KNOCK TWICE LLC","Address":"164 Townsend St 12","City":"San Francisco","State":"CA","Zip":"94107"},{"Location":"LAVA GRILL","Address":"527 Bryant St","City":"San Francisco","State":"CA","Zip":"94107"},{"Location":"LOB.COM INC","Address":"185 Berry St 1510","City":"San Francisco","State":"CA","Zip":"94107"},{"Location":"LUCKY STRIKE LANES","Address":"200 King St","City":"San Francisco","State":"CA","Zip":"94107"},{"Location":"LUNDBERG  DESIGNS","Address":"2620 3rd St","City":"San Francisco","State":"CA","Zip":"94107"},{"Location":"MACYS.COM","Address":"680 Folsom St 1200","City":"San Francisco","State":"CA","Zip":"94107"},{"Location":"MEDIASMITH","Address":"274 Brannan St 601","City":"San Francisco","State":"CA","Zip":"94107"},{"Location":"MEKANISM","Address":"640 2nd St 300","City":"San Francisco","State":"CA","Zip":"94107"},{"Location":"MERIGAN SUB SHOP 2","Address":"636 2nd St","City":"San Francisco","State":"CA","Zip":"94107"},{"Location":"MICROSOFT","Address":"530 Bryant St","City":"San Francisco","State":"CA","Zip":"94107"},{"Location":"MLB","Address":"360 3rd St 650","City":"San Francisco","State":"CA","Zip":"94107"},{"Location":"MOCHICA RESTAURANT","Address":"1469 18th St","City":"San Francisco","State":"CA","Zip":"94107"},{"Location":"MOMO'S RESTAURANT","Address":"760 2nd St","City":"San Francisco","State":"CA","Zip":"94107"},{"Location":"NOVA BAR AND RESTAURANT","Address":"555 2nd St","City":"San Francisco","State":"CA","Zip":"94107"},{"Location":"ON THE RUN TRAINING","Address":"864 Folsom St","City":"San Francisco","State":"CA","Zip":"94107"},{"Location":"ONEILL'S IRISH PUB SAN FRAN","Address":"747 3rd St","City":"San Francisco","State":"CA","Zip":"94107"},{"Location":"PAC 12 ENTERPRISES","Address":"370 3rd St 300","City":"San Francisco","State":"CA","Zip":"94107"},{"Location":"PCH LABS","Address":"135 Missisippi St","City":"San Francisco","State":"CA","Zip":"94107"},{"Location":"PETE'S TAVERN","Address":"128 King St","City":"San Francisco","State":"CA","Zip":"94107"},{"Location":"PICKSTREAM INC","Address":"715 Bryant St 101","City":"San Francisco","State":"CA","Zip":"94107"},{"Location":"POQUITO","Address":"2368 3rd St","City":"San Francisco","State":"CA","Zip":"94107"},{"Location":"PRO PIANO","Address":"760 Tennessee St","City":"San Francisco","State":"CA","Zip":"94107"},{"Location":"PROJECT FROG","Address":"501 2nd St 102","City":"San Francisco","State":"CA","Zip":"94107"},{"Location":"PROTRANSPORTONE","Address":"1501 Tennessee St","City":"San Francisco","State":"CA","Zip":"94107"},{"Location":"PUBLIC HOUSE","Address":"24 Willie Mays Plz","City":"San Francisco","State":"CA","Zip":"94107"},{"Location":"RACK SPACE HOSTING","Address":"620 Folsom St","City":"San Francisco","State":"CA","Zip":"94107"},{"Location":"RED DOG RESTAURANT","Address":"303 2nd St H","City":"San Francisco","State":"CA","Zip":"94107"},{"Location":"RIVERBED TECHNOLOGY","Address":"680 Folsom St","City":"San Francisco","State":"CA","Zip":"94107"},{"Location":"S.F. TENNIS CLUB ACCT 1","Address":"645 5th St","City":"San Francisco","State":"CA","Zip":"94107"},{"Location":"S.F. TENNIS CLUB ACCT 2","Address":"645 5th St","City":"San Francisco","State":"CA","Zip":"94107"},{"Location":"SALESFORCE.COM","Address":"1 Rincon Aly","City":"San Francisco","State":"CA","Zip":"94107"},{"Location":"SAN FRANCISCO GIANTS","Address":"24 Willie Mays Plz","City":"San Francisco","State":"CA","Zip":"94107"},{"Location":"SAN FRANCISCO TENNIS CLUB","Address":"645 5th St","City":"San Francisco","State":"CA","Zip":"94107"},{"Location":"SAN FRANCISCO WINE CENTER","Address":"757 Bryant St","City":"San Francisco","State":"CA","Zip":"94107"},{"Location":"SATEL","Address":"330 Townsend St 135","City":"San Francisco","State":"CA","Zip":"94107"},{"Location":"SBC PIZZA AND DELI","Address":"737 3rd St","City":"San Francisco","State":"CA","Zip":"94107"},{"Location":"SERVICE SOURCE CORP","Address":"634 2nd St","City":"San Francisco","State":"CA","Zip":"94107"},{"Location":"SFFD MOBILE COMMAND 1","Address":"698 2nd St","City":"San Francisco","State":"CA","Zip":"94107"},{"Location":"SOUTH BEACH CAFE","Address":"800 The Embarcadero","City":"San Francisco","State":"CA","Zip":"94107"},{"Location":"SOUTH BEACH MARINA","Address":"2 Townsend St","City":"San Francisco","State":"CA","Zip":"94107"},{"Location":"SPLUNK INC","Address":"250 Brannan St 2ndfl","City":"San Francisco","State":"CA","Zip":"94107"},{"Location":"SPYPOST%2FFOTOKEM INDUSTRIES","Address":"577 2nd St 103","City":"San Francisco","State":"CA","Zip":"94107"},{"Location":"SWINERTON REAL ESTATE INC","Address":"260 Townsend St","City":"San Francisco","State":"CA","Zip":"94107"},{"Location":"TECH ONE AUTOMOTIVE","Address":"1460 Illinois St","City":"San Francisco","State":"CA","Zip":"94107"},{"Location":"THE CULINARY EDGE","Address":"75 Oak Grove St","City":"San Francisco","State":"CA","Zip":"94107"},{"Location":"THE IRON CACTUS","Address":"683 4th St","City":"San Francisco","State":"CA","Zip":"94107"},{"Location":"THE LEGACY AGENCY INC","Address":"153 Townsend St 580","City":"San Francisco","State":"CA","Zip":"94107"},{"Location":"THE SEA STAR","Address":"2289 3rd St","City":"San Francisco","State":"CA","Zip":"94107"},{"Location":"THE UTAH SALOON","Address":"500 4th St","City":"San Francisco","State":"CA","Zip":"94107"},{"Location":"THIRD & TOWNSEND CORNER","Address":"699 3rd St","City":"San Francisco","State":"CA","Zip":"94107"},{"Location":"TOUT INC","Address":"640 2nd St 2ndfl","City":"San Francisco","State":"CA","Zip":"94107"},{"Location":"TRANSITAMERICA","Address":"425 Townsend St","City":"San Francisco","State":"CA","Zip":"94107"},{"Location":"TRES AGAVES MEXICAN KITCHEN","Address":"130 Townsend St","City":"San Francisco","State":"CA","Zip":"94107"},{"Location":"TRIPLE CROWN INC","Address":"850 Folsom St","City":"San Francisco","State":"CA","Zip":"94107"},{"Location":"UBISOFT","Address":"625 3rd St","City":"San Francisco","State":"CA","Zip":"94107"},{"Location":"UCSF IMAGING CENTER %40 CHINA","Address":"185 Berry St 190","City":"San Francisco","State":"CA","Zip":"94107"},{"Location":"UMLAUT FILMS","Address":"123 Townsend St 100","City":"San Francisco","State":"CA","Zip":"94107"},{"Location":"US EPA","Address":"674 Harrison St","City":"San Francisco","State":"CA","Zip":"94107"},{"Location":"VICTORS","Address":"210 Townsend St","City":"San Francisco","State":"CA","Zip":"94107"},{"Location":"VICTORY HALL AND PARLOR","Address":"360 Ritch St 200","City":"San Francisco","State":"CA","Zip":"94107"},{"Location":"VMWARE","Address":"501 2nd St 700","City":"San Francisco","State":"CA","Zip":"94107"},{"Location":"WAGGENER EDSTROM","Address":"185 Berry St","City":"San Francisco","State":"CA","Zip":"94107"},{"Location":"WEEBLY","Address":"460 Bryant St 100","City":"San Francisco","State":"CA","Zip":"94107"},{"Location":"WESTERN UNION","Address":"185 Berry St 1600","City":"San Francisco","State":"CA","Zip":"94107"},{"Location":"WHOLE FOODS","Address":"399 4th St","City":"San Francisco","State":"CA","Zip":"94107"},{"Location":"WILSON SONSINI GOODRICH","Address":"139 Townsend St 150","City":"San Francisco","State":"CA","Zip":"94107"},{"Location":"WORD PRESS","Address":"132 Hawthorne St","City":"San Francisco","State":"CA","Zip":"94107"},{"Location":"Y&R","Address":"303 2nd St 800","City":"San Francisco","State":"CA","Zip":"94107"},{"Location":"YARDBARKER","Address":"303 2nd St 680","City":"San Francisco","State":"CA","Zip":"94107"},{"Location":"YO TV","Address":"185 Berry St 5400","City":"San Francisco","State":"CA","Zip":"94107"},{"Location":"ZEKE'S DIAMOND BAR","Address":"600 3rd St","City":"San Francisco","State":"CA","Zip":"94107"},{"Location":"ZERO ZERO","Address":"826 Folsom St","City":"San Francisco","State":"CA","Zip":"94107"}]