[{"Location":"750 LOUNGE","Address":"750 Kearny St 502","City":"San Francisco","State":"CA","Zip":"94108"},{"Location":"ACCESS","Address":"650 California St 30th","City":"San Francisco","State":"CA","Zip":"94108"},{"Location":"ACTIVE SPORTS CLUBS %40 NOB HILL","Address":"950 California St","City":"San Francisco","State":"CA","Zip":"94108"},{"Location":"AIXTEC DBA EATON & ASS","Address":"88 Kearny St 1","City":"San Francisco","State":"CA","Zip":"94108"},{"Location":"AMERIPRISE FINANCIAL","Address":"150 Post St 530","City":"San Francisco","State":"CA","Zip":"94108"},{"Location":"ARTHUR BEREN SHOES","Address":"222 Stockton St","City":"San Francisco","State":"CA","Zip":"94108"},{"Location":"ATT MOBILITY 4","Address":"555 Pine St","City":"San Francisco","State":"CA","Zip":"94108"},{"Location":"AUREA RESTAURANT","Address":"905 California St","City":"San Francisco","State":"CA","Zip":"94108"},{"Location":"AVISON YOUNG","Address":"601 California St 5th","City":"San Francisco","State":"CA","Zip":"94108"},{"Location":"BENTALL KENNEDY US LP","Address":"600 California St 560","City":"San Francisco","State":"CA","Zip":"94108"},{"Location":"BLEACHER REPORT","Address":"222 Sutter St Fl7","City":"San Francisco","State":"CA","Zip":"94108"},{"Location":"BLEACHER REPORT","Address":"153 Kearny St 0","City":"San Francisco","State":"CA","Zip":"94108"},{"Location":"BLEACHER REPORT - B","Address":"153 Kearny St","City":"San Francisco","State":"CA","Zip":"94108"},{"Location":"BLEACHER REPORT -A","Address":"153 Kearny St","City":"San Francisco","State":"CA","Zip":"94108"},{"Location":"BLEACHER REPORT KEARNY","Address":"153 Kearny St","City":"San Francisco","State":"CA","Zip":"94108"},{"Location":"BLEACHER REPORT MEZZANINE","Address":"153 Kearny St","City":"San Francisco","State":"CA","Zip":"94108"},{"Location":"BLUE SHELL GAMES","Address":"445 Bush St 500","City":"San Francisco","State":"CA","Zip":"94108"},{"Location":"BUDDHA'S UNIVERSAL CHURCH","Address":"720 Washington St","City":"San Francisco","State":"CA","Zip":"94108"},{"Location":"BURR  PILGER AND MAYER","Address":"600 California St 600","City":"San Francisco","State":"CA","Zip":"94108"},{"Location":"CAT CORA  LOUNGE","Address":"88 Kearny St 1","City":"San Francisco","State":"CA","Zip":"94108"},{"Location":"CATHAY PACIFIC AIRWAYS","Address":"360 Post St 300","City":"San Francisco","State":"CA","Zip":"94108"},{"Location":"CITY CENTER RETAIL","Address":"170 Grant Ave 6flr","City":"San Francisco","State":"CA","Zip":"94108"},{"Location":"COLUMBIA REIT","Address":"650 California St 1550","City":"San Francisco","State":"CA","Zip":"94108"},{"Location":"CROUSE AND ASSOCIATES","Address":"650 California St 11","City":"San Francisco","State":"CA","Zip":"94108"},{"Location":"CSI CAPITAL MANAGEMENT","Address":"600 California St 18th","City":"San Francisco","State":"CA","Zip":"94108"},{"Location":"FAIRMONT HOTEL","Address":"950 Mason St","City":"San Francisco","State":"CA","Zip":"94108"},{"Location":"FAR EAST CAFE","Address":"631 Grant Ave","City":"San Francisco","State":"CA","Zip":"94108"},{"Location":"FHL BANK","Address":"600 California St 300","City":"San Francisco","State":"CA","Zip":"94108"},{"Location":"FIDM SAN FRANCISCO","Address":"55 Stockton St 8th","City":"San Francisco","State":"CA","Zip":"94108"},{"Location":"FINANCIAL TIMES","Address":"251 Post St","City":"San Francisco","State":"CA","Zip":"94108"},{"Location":"FINEMAN PR","Address":"150 Post St 620","City":"San Francisco","State":"CA","Zip":"94108"},{"Location":"FIRST REPUBLIC BANK","Address":"1088 Stockton St","City":"San Francisco","State":"CA","Zip":"94108"},{"Location":"FISHER DEVELOPMENT  INC","Address":"601 California St 300","City":"San Francisco","State":"CA","Zip":"94108"},{"Location":"FUNDTECH CORP.","Address":"600 California St 1800","City":"San Francisco","State":"CA","Zip":"94108"},{"Location":"GHSF 1 UP BAR","Address":"345 Stockton St","City":"San Francisco","State":"CA","Zip":"94108"},{"Location":"GM MARKETING","Address":"650 California St 2900","City":"San Francisco","State":"CA","Zip":"94108"},{"Location":"GOODBY%2C SILVERSTEIN & PARTNERS","Address":"720 California St","City":"San Francisco","State":"CA","Zip":"94108"},{"Location":"HILTON SAN FRANCISCO (0057591)","Address":"750 Kearny St","City":"San Francisco","State":"CA","Zip":"94108"},{"Location":"HOPS AND HOMINY","Address":"1 Tillman Pl","City":"San Francisco","State":"CA","Zip":"94108"},{"Location":"HSBC BANK #819886","Address":"933 Grant Ave","City":"San Francisco","State":"CA","Zip":"94108"},{"Location":"INCAPTUR TECHNOLOGIES","Address":"600 California St 3","City":"San Francisco","State":"CA","Zip":"94108"},{"Location":"JACK HAU","Address":"550 Kearny St 500","City":"San Francisco","State":"CA","Zip":"94108"},{"Location":"JOHN ALLANS","Address":"152 Geary St","City":"San Francisco","State":"CA","Zip":"94108"},{"Location":"JUSTICE INVESTORS LP DVA HILTO","Address":"750 Kearny St 502","City":"San Francisco","State":"CA","Zip":"94108"},{"Location":"KRONENBERGER BURGOYNE","Address":"150 Post St 5","City":"San Francisco","State":"CA","Zip":"94108"},{"Location":"LES CONCIERGES","Address":"77 Maiden Ln","City":"San Francisco","State":"CA","Zip":"94108"},{"Location":"LITTLER MENDELSON PC","Address":"650 California St 20fl","City":"San Francisco","State":"CA","Zip":"94108"},{"Location":"MACY'S WEST 428","Address":"120 Stockton St","City":"San Francisco","State":"CA","Zip":"94108"},{"Location":"MACY'S WEST 428B","Address":"120 Stockton St","City":"San Francisco","State":"CA","Zip":"94108"},{"Location":"MARRIOTT SAN FRANCISCO 0032720","Address":"480 Sutter St","City":"San Francisco","State":"CA","Zip":"94108"},{"Location":"MERRILL LYNCH","Address":"600 California St 15th","City":"San Francisco","State":"CA","Zip":"94108"},{"Location":"MERRILL LYNCH","Address":"600 California St 8th","City":"San Francisco","State":"CA","Zip":"94108"},{"Location":"MERRILL LYNCH","Address":"600 California St 7th","City":"San Francisco","State":"CA","Zip":"94108"},{"Location":"NASD","Address":"120 Kearny St Fl21","City":"San Francisco","State":"CA","Zip":"94108"},{"Location":"NICODARA CORP","Address":"601 Bush St","City":"San Francisco","State":"CA","Zip":"94108"},{"Location":"NIKETOWN #086","Address":"278 Post St","City":"San Francisco","State":"CA","Zip":"94108"},{"Location":"OPEN TEXT","Address":"600 California St 17","City":"San Francisco","State":"CA","Zip":"94108"},{"Location":"ORCHARD HOTEL SAN FRANCI","Address":"665 Bush St","City":"San Francisco","State":"CA","Zip":"94108"},{"Location":"PARALLAX","Address":"88 Kearny St 20","City":"San Francisco","State":"CA","Zip":"94108"},{"Location":"PENANG GARDEN","Address":"728 Washinton St","City":"San Francisco","State":"CA","Zip":"94108"},{"Location":"PHILLIPINE CONSULATE GENERAL","Address":"447 Sutter St 6fl","City":"San Francisco","State":"CA","Zip":"94108"},{"Location":"PRESIDIO BANK","Address":"120 Kearny St 2300","City":"San Francisco","State":"CA","Zip":"94108"},{"Location":"R & G EXECUTIVE LOUNGE%2C INC.","Address":"631 Kearny St","City":"San Francisco","State":"CA","Zip":"94108"},{"Location":"RICHEY INTERNATIONAL","Address":"180 Geary St 600","City":"San Francisco","State":"CA","Zip":"94108"},{"Location":"ROMPER ROOM","Address":"25a Maiden Ln","City":"San Francisco","State":"CA","Zip":"94108"},{"Location":"SAKS FIFTH AVENUE","Address":"220 Post St","City":"San Francisco","State":"CA","Zip":"94108"},{"Location":"SCHNADER HARRISON SEGAL","Address":"650 California St 19","City":"San Francisco","State":"CA","Zip":"94108"},{"Location":"SCOTTRADE 04W","Address":"551 Kearny St","City":"San Francisco","State":"CA","Zip":"94108"},{"Location":"SEABANK PARTNERS","Address":"507 Bush St","City":"San Francisco","State":"CA","Zip":"94108"},{"Location":"SET MEDIA%2C INC","Address":"58 Maiden Ln","City":"San Francisco","State":"CA","Zip":"94108"},{"Location":"SUSHI TONI","Address":"733 Bush St","City":"San Francisco","State":"CA","Zip":"94108"},{"Location":"TEAK LLC","Address":"717 California St","City":"San Francisco","State":"CA","Zip":"94108"},{"Location":"THE ALEXANDER GROUP","Address":"88 Kearny St 1900","City":"San Francisco","State":"CA","Zip":"94108"},{"Location":"THE GREEN DOOR","Address":"441 Stockton St","City":"San Francisco","State":"CA","Zip":"94108"},{"Location":"THE HATCH AGENCY","Address":"25 Maiden Ln","City":"San Francisco","State":"CA","Zip":"94108"},{"Location":"THE IRISH BANK BAR & RESTAURAN","Address":"10 Mark Ln","City":"San Francisco","State":"CA","Zip":"94108"},{"Location":"THORNTON TOMASETTI","Address":"650 Californian Street 14","City":"San Francisco","State":"CA","Zip":"94108"},{"Location":"TOPSY","Address":"260 Kearny St","City":"San Francisco","State":"CA","Zip":"94108"},{"Location":"TRANS PACIFIC NATIONAL B","Address":"88 Kearny St 1750","City":"San Francisco","State":"CA","Zip":"94108"},{"Location":"UA CS REAY ROOM","Address":"88 Kearny St 11","City":"San Francisco","State":"CA","Zip":"94108"},{"Location":"UA FLIGHT OPS BREAKROOM","Address":"88 Kearny St 12","City":"San Francisco","State":"CA","Zip":"94108"},{"Location":"UA FLIGHT OPS CONFERENCE","Address":"88 Kearny St 14","City":"San Francisco","State":"CA","Zip":"94108"},{"Location":"UA FLIGHT OPS TV ROOM","Address":"88 Kearny St 13","City":"San Francisco","State":"CA","Zip":"94108"},{"Location":"UA RAMP ROOM LARGE","Address":"88 Kearny St 10","City":"San Francisco","State":"CA","Zip":"94108"},{"Location":"UAL BREAK ROOM","Address":"88 Kearny St 12","City":"San Francisco","State":"CA","Zip":"94108"},{"Location":"VENABLES BELL & PARTNERS","Address":"201 Post St","City":"San Francisco","State":"CA","Zip":"94108"},{"Location":"VININGS 2","Address":"601 California St 2050","City":"San Francisco","State":"CA","Zip":"94108"},{"Location":"VININGS INVESTMENTS","Address":"601 California St 2050","City":"San Francisco","State":"CA","Zip":"94108"},{"Location":"VIRGIN AMERICA","Address":"88 Kearny St 1","City":"San Francisco","State":"CA","Zip":"94108"},{"Location":"VISTA WEALTH","Address":"88 Kearny St 17","City":"San Francisco","State":"CA","Zip":"94108"},{"Location":"WAH YING CLUB INC","Address":"727 Clay St","City":"San Francisco","State":"CA","Zip":"94108"},{"Location":"WELLS FARGO FOOTHILL","Address":"601 California St 704","City":"San Francisco","State":"CA","Zip":"94108"},{"Location":"WILKES BASHFORD","Address":"375 Sutter St","City":"San Francisco","State":"CA","Zip":"94108"},{"Location":"YMCA - CHINATOWN","Address":"855 Sacramento St","City":"San Francisco","State":"CA","Zip":"94108"},{"Location":"750 LOUNGE","Address":"750 Kearny St 502","City":"San Francisco","State":"CA","Zip":"94108"},{"Location":"ACCESS","Address":"650 California St 30th","City":"San Francisco","State":"CA","Zip":"94108"},{"Location":"ACTIVE SPORTS CLUBS %40 NOB HILL","Address":"950 California St","City":"San Francisco","State":"CA","Zip":"94108"},{"Location":"AIXTEC DBA EATON & ASS","Address":"88 Kearny St 1","City":"San Francisco","State":"CA","Zip":"94108"},{"Location":"AMERIPRISE FINANCIAL","Address":"150 Post St 530","City":"San Francisco","State":"CA","Zip":"94108"},{"Location":"ARTHUR BEREN SHOES","Address":"222 Stockton St","City":"San Francisco","State":"CA","Zip":"94108"},{"Location":"ATT MOBILITY 4","Address":"555 Pine St","City":"San Francisco","State":"CA","Zip":"94108"},{"Location":"AUREA RESTAURANT","Address":"905 California St","City":"San Francisco","State":"CA","Zip":"94108"},{"Location":"AVISON YOUNG","Address":"601 California St 5th","City":"San Francisco","State":"CA","Zip":"94108"},{"Location":"BENTALL KENNEDY US LP","Address":"600 California St 560","City":"San Francisco","State":"CA","Zip":"94108"},{"Location":"BLEACHER REPORT","Address":"153 Kearny St 0","City":"San Francisco","State":"CA","Zip":"94108"},{"Location":"BLEACHER REPORT","Address":"222 Sutter St Fl7","City":"San Francisco","State":"CA","Zip":"94108"},{"Location":"BLEACHER REPORT - B","Address":"153 Kearny St","City":"San Francisco","State":"CA","Zip":"94108"},{"Location":"BLEACHER REPORT -A","Address":"153 Kearny St","City":"San Francisco","State":"CA","Zip":"94108"},{"Location":"BLEACHER REPORT KEARNY","Address":"153 Kearny St","City":"San Francisco","State":"CA","Zip":"94108"},{"Location":"BLEACHER REPORT MEZZANINE","Address":"153 Kearny St","City":"San Francisco","State":"CA","Zip":"94108"},{"Location":"BLUE SHELL GAMES","Address":"445 Bush St 500","City":"San Francisco","State":"CA","Zip":"94108"},{"Location":"BUDDHA'S UNIVERSAL CHURCH","Address":"720 Washington St","City":"San Francisco","State":"CA","Zip":"94108"},{"Location":"BURR  PILGER AND MAYER","Address":"600 California St 600","City":"San Francisco","State":"CA","Zip":"94108"},{"Location":"CAT CORA  LOUNGE","Address":"88 Kearny St 1","City":"San Francisco","State":"CA","Zip":"94108"},{"Location":"CATHAY PACIFIC AIRWAYS","Address":"360 Post St 300","City":"San Francisco","State":"CA","Zip":"94108"},{"Location":"CITY CENTER RETAIL","Address":"170 Grant Ave 6flr","City":"San Francisco","State":"CA","Zip":"94108"},{"Location":"COLUMBIA REIT","Address":"650 California St 1550","City":"San Francisco","State":"CA","Zip":"94108"},{"Location":"CROUSE AND ASSOCIATES","Address":"650 California St 11","City":"San Francisco","State":"CA","Zip":"94108"},{"Location":"CSI CAPITAL MANAGEMENT","Address":"600 California St 18th","City":"San Francisco","State":"CA","Zip":"94108"},{"Location":"FAIRMONT HOTEL","Address":"950 Mason St","City":"San Francisco","State":"CA","Zip":"94108"},{"Location":"FAR EAST CAFE","Address":"631 Grant Ave","City":"San Francisco","State":"CA","Zip":"94108"},{"Location":"FHL BANK","Address":"600 California St 300","City":"San Francisco","State":"CA","Zip":"94108"},{"Location":"FIDM SAN FRANCISCO","Address":"55 Stockton St 8th","City":"San Francisco","State":"CA","Zip":"94108"},{"Location":"FINANCIAL TIMES","Address":"251 Post St","City":"San Francisco","State":"CA","Zip":"94108"},{"Location":"FINEMAN PR","Address":"150 Post St 620","City":"San Francisco","State":"CA","Zip":"94108"},{"Location":"FIRST REPUBLIC BANK","Address":"1088 Stockton St","City":"San Francisco","State":"CA","Zip":"94108"},{"Location":"FISHER DEVELOPMENT  INC","Address":"601 California St 300","City":"San Francisco","State":"CA","Zip":"94108"},{"Location":"FUNDTECH CORP.","Address":"600 California St 1800","City":"San Francisco","State":"CA","Zip":"94108"},{"Location":"GHSF 1 UP BAR","Address":"345 Stockton St","City":"San Francisco","State":"CA","Zip":"94108"},{"Location":"GM MARKETING","Address":"650 California St 2900","City":"San Francisco","State":"CA","Zip":"94108"},{"Location":"GOODBY%2C SILVERSTEIN & PARTNERS","Address":"720 California St","City":"San Francisco","State":"CA","Zip":"94108"},{"Location":"HILTON SAN FRANCISCO (0057591)","Address":"750 Kearny St","City":"San Francisco","State":"CA","Zip":"94108"},{"Location":"HOPS AND HOMINY","Address":"1 Tillman Pl","City":"San Francisco","State":"CA","Zip":"94108"},{"Location":"HSBC BANK #819886","Address":"933 Grant Ave","City":"San Francisco","State":"CA","Zip":"94108"},{"Location":"JACK HAU","Address":"550 Kearny St 500","City":"San Francisco","State":"CA","Zip":"94108"},{"Location":"JOHN ALLANS","Address":"152 Geary St","City":"San Francisco","State":"CA","Zip":"94108"},{"Location":"JUSTICE INVESTORS LP DVA HILTO","Address":"750 Kearny St 502","City":"San Francisco","State":"CA","Zip":"94108"},{"Location":"KRONENBERGER BURGOYNE","Address":"150 Post St 5","City":"San Francisco","State":"CA","Zip":"94108"},{"Location":"LES CONCIERGES","Address":"77 Maiden Ln","City":"San Francisco","State":"CA","Zip":"94108"},{"Location":"LITTLER MENDELSON PC","Address":"650 California St 20fl","City":"San Francisco","State":"CA","Zip":"94108"},{"Location":"MACY'S WEST 428","Address":"120 Stockton St","City":"San Francisco","State":"CA","Zip":"94108"},{"Location":"MACY'S WEST 428B","Address":"120 Stockton St","City":"San Francisco","State":"CA","Zip":"94108"},{"Location":"MARRIOTT SAN FRANCISCO 0032720","Address":"480 Sutter St","City":"San Francisco","State":"CA","Zip":"94108"},{"Location":"MERRILL LYNCH","Address":"600 California St 15th","City":"San Francisco","State":"CA","Zip":"94108"},{"Location":"MERRILL LYNCH","Address":"600 California St 8th","City":"San Francisco","State":"CA","Zip":"94108"},{"Location":"MERRILL LYNCH","Address":"600 California St 7th","City":"San Francisco","State":"CA","Zip":"94108"},{"Location":"NASD","Address":"120 Kearny St Fl21","City":"San Francisco","State":"CA","Zip":"94108"},{"Location":"NICODARA CORP","Address":"601 Bush St","City":"San Francisco","State":"CA","Zip":"94108"},{"Location":"NIKETOWN #086","Address":"278 Post St","City":"San Francisco","State":"CA","Zip":"94108"},{"Location":"OPEN TEXT","Address":"600 California St 17","City":"San Francisco","State":"CA","Zip":"94108"},{"Location":"ORCHARD HOTEL SAN FRANCI","Address":"665 Bush St","City":"San Francisco","State":"CA","Zip":"94108"},{"Location":"PARALLAX","Address":"88 Kearny St 20","City":"San Francisco","State":"CA","Zip":"94108"},{"Location":"PENANG GARDEN","Address":"728 Washinton St","City":"San Francisco","State":"CA","Zip":"94108"},{"Location":"PHILLIPINE CONSULATE GENERAL","Address":"447 Sutter St 6fl","City":"San Francisco","State":"CA","Zip":"94108"},{"Location":"PRESIDIO BANK","Address":"120 Kearny St 2300","City":"San Francisco","State":"CA","Zip":"94108"},{"Location":"R & G EXECUTIVE LOUNGE%2C INC.","Address":"631 Kearny St","City":"San Francisco","State":"CA","Zip":"94108"},{"Location":"RICHEY INTERNATIONAL","Address":"180 Geary St 600","City":"San Francisco","State":"CA","Zip":"94108"},{"Location":"ROMPER ROOM","Address":"25a Maiden Ln","City":"San Francisco","State":"CA","Zip":"94108"},{"Location":"SAKS FIFTH AVENUE","Address":"220 Post St","City":"San Francisco","State":"CA","Zip":"94108"},{"Location":"SCHNADER HARRISON SEGAL","Address":"650 California St 19","City":"San Francisco","State":"CA","Zip":"94108"},{"Location":"SCOTTRADE 04W","Address":"551 Kearny St","City":"San Francisco","State":"CA","Zip":"94108"},{"Location":"SEABANK PARTNERS","Address":"507 Bush St","City":"San Francisco","State":"CA","Zip":"94108"},{"Location":"SET MEDIA%2C INC","Address":"58 Maiden Ln","City":"San Francisco","State":"CA","Zip":"94108"},{"Location":"SUSHI TONI","Address":"733 Bush St","City":"San Francisco","State":"CA","Zip":"94108"},{"Location":"TEAK LLC","Address":"717 California St","City":"San Francisco","State":"CA","Zip":"94108"},{"Location":"THE ALEXANDER GROUP","Address":"88 Kearny St 1900","City":"San Francisco","State":"CA","Zip":"94108"},{"Location":"THE GREEN DOOR","Address":"441 Stockton St","City":"San Francisco","State":"CA","Zip":"94108"},{"Location":"THE HATCH AGENCY","Address":"25 Maiden Ln","City":"San Francisco","State":"CA","Zip":"94108"},{"Location":"THE IRISH BANK BAR & RESTAURAN","Address":"10 Mark Ln","City":"San Francisco","State":"CA","Zip":"94108"},{"Location":"THORNTON TOMASETTI","Address":"650 Californian Street 14","City":"San Francisco","State":"CA","Zip":"94108"},{"Location":"TOPSY","Address":"260 Kearny St","City":"San Francisco","State":"CA","Zip":"94108"},{"Location":"TRANS PACIFIC NATIONAL B","Address":"88 Kearny St 1750","City":"San Francisco","State":"CA","Zip":"94108"},{"Location":"UA CS REAY ROOM","Address":"88 Kearny St 11","City":"San Francisco","State":"CA","Zip":"94108"},{"Location":"UA FLIGHT OPS BREAKROOM","Address":"88 Kearny St 12","City":"San Francisco","State":"CA","Zip":"94108"},{"Location":"UA FLIGHT OPS CONFERENCE","Address":"88 Kearny St 14","City":"San Francisco","State":"CA","Zip":"94108"},{"Location":"UA FLIGHT OPS TV ROOM","Address":"88 Kearny St 13","City":"San Francisco","State":"CA","Zip":"94108"},{"Location":"UA RAMP ROOM LARGE","Address":"88 Kearny St 10","City":"San Francisco","State":"CA","Zip":"94108"},{"Location":"UAL BREAK ROOM","Address":"88 Kearny St 12","City":"San Francisco","State":"CA","Zip":"94108"},{"Location":"VENABLES BELL & PARTNERS","Address":"201 Post St","City":"San Francisco","State":"CA","Zip":"94108"},{"Location":"VININGS 2","Address":"601 California St 2050","City":"San Francisco","State":"CA","Zip":"94108"},{"Location":"VININGS INVESTMENTS","Address":"601 California St 2050","City":"San Francisco","State":"CA","Zip":"94108"},{"Location":"VIRGIN AMERICA","Address":"88 Kearny St 1","City":"San Francisco","State":"CA","Zip":"94108"},{"Location":"VISTA WEALTH","Address":"88 Kearny St 17","City":"San Francisco","State":"CA","Zip":"94108"},{"Location":"WAH YING CLUB INC","Address":"727 Clay St","City":"San Francisco","State":"CA","Zip":"94108"},{"Location":"WELLS FARGO FOOTHILL","Address":"601 California St 704","City":"San Francisco","State":"CA","Zip":"94108"},{"Location":"WILKES BASHFORD","Address":"375 Sutter St","City":"San Francisco","State":"CA","Zip":"94108"},{"Location":"YMCA - CHINATOWN","Address":"855 Sacramento St","City":"San Francisco","State":"CA","Zip":"94108"}]