[{"Location":"24 HOUR FITNESS #502","Address":"1200 Van Ness Ave","City":"San Francisco","State":"CA","Zip":"94109"},{"Location":"707 SUTTER","Address":"707 Sutter St","City":"San Francisco","State":"CA","Zip":"94109"},{"Location":"750 CAFE","Address":"750 Ellis St","City":"San Francisco","State":"CA","Zip":"94109"},{"Location":"ACADEMY OF ART UNIVERSITY","Address":"860 Sutter St","City":"San Francisco","State":"CA","Zip":"94109"},{"Location":"ACADEMY OF ART UNIVERSITY","Address":"736 Jones St","City":"San Francisco","State":"CA","Zip":"94109"},{"Location":"ACADEMY OF ART UNIVERSITY","Address":"1055 Pine St","City":"San Francisco","State":"CA","Zip":"94109"},{"Location":"ACADEMY OF ART UNIVERSITY","Address":"2211 Van Ness Ave","City":"San Francisco","State":"CA","Zip":"94109"},{"Location":"ACADEMY OF ART UNVERSITY","Address":"2209 Van Ness Ave","City":"San Francisco","State":"CA","Zip":"94109"},{"Location":"ACADEMY OF ARTS UNIVERSITY","Address":"1916 Octavia St","City":"San Francisco","State":"CA","Zip":"94109"},{"Location":"ACE'S","Address":"998 Sutter St","City":"San Francisco","State":"CA","Zip":"94109"},{"Location":"ALDOS PERFORMANCE MOTORS","Address":"770 Post St","City":"San Francisco","State":"CA","Zip":"94109"},{"Location":"AMERICAN ACADEMY OF OPHTHALMO","Address":"655 Beach St","City":"San Francisco","State":"CA","Zip":"94109"},{"Location":"AMSTERDAM CAFE","Address":"937 Geary St","City":"San Francisco","State":"CA","Zip":"94109"},{"Location":"AR FAMILY HOLDINGS LIMITED","Address":"2020 Jackson St","City":"San Francisco","State":"CA","Zip":"94109"},{"Location":"ARGONAUT HOTEL (0055471)","Address":"495 Jefferson St","City":"San Francisco","State":"CA","Zip":"94109"},{"Location":"BACCHUS KIRK","Address":"925 Bush St","City":"San Francisco","State":"CA","Zip":"94109"},{"Location":"BELL TOWER","Address":"1900 Polk St","City":"San Francisco","State":"CA","Zip":"94109"},{"Location":"BITTERS BOCK AND RYE","Address":"1122 Post St","City":"San Francisco","State":"CA","Zip":"94109"},{"Location":"BLOSSOM SPA","Address":"710 Post St","City":"San Francisco","State":"CA","Zip":"94109"},{"Location":"BLUR","Address":"1121 Polk St","City":"San Francisco","State":"CA","Zip":"94109"},{"Location":"BODEGA BISTRO","Address":"607 Larkin St","City":"San Francisco","State":"CA","Zip":"94109"},{"Location":"BRITISH MOTOR CAR DIST LTD","Address":"999 Van Ness Ave","City":"San Francisco","State":"CA","Zip":"94109"},{"Location":"BULLITT","Address":"2209 Polk St","City":"San Francisco","State":"CA","Zip":"94109"},{"Location":"CABIN","Address":"1750 Polk St","City":"San Francisco","State":"CA","Zip":"94109"},{"Location":"CAPURRO'S","Address":"498 Jefferson St","City":"San Francisco","State":"CA","Zip":"94109"},{"Location":"CHLOE FINE ARTS LLC","Address":"645 Beach St","City":"San Francisco","State":"CA","Zip":"94109"},{"Location":"CHOPSTICK HOUSE","Address":"2401 Polk St","City":"San Francisco","State":"CA","Zip":"94109"},{"Location":"CLUB HA RA","Address":"875 Geary St","City":"San Francisco","State":"CA","Zip":"94109"},{"Location":"DAVINCI VILLAS HOTEL LOUNGE","Address":"2550 Van Ness Ave","City":"San Francisco","State":"CA","Zip":"94109"},{"Location":"DAVINCIVILLASHOTELOFFICE","Address":"2550 Van Ness Ave","City":"San Francisco","State":"CA","Zip":"94109"},{"Location":"EDINBURGH CASTLE","Address":"950 Geary St","City":"San Francisco","State":"CA","Zip":"94109"},{"Location":"ELEVEN O ONE","Address":"1101 Polk St","City":"San Francisco","State":"CA","Zip":"94109"},{"Location":"FIAT OF SAN FRANCISCO","Address":"1595 Van Ness Ave","City":"San Francisco","State":"CA","Zip":"94109"},{"Location":"FINGERTIPS NAIL SALON","Address":"1309 Sutter St","City":"San Francisco","State":"CA","Zip":"94109"},{"Location":"FIRESTONE #120383","Address":"1499 Franklin St","City":"San Francisco","State":"CA","Zip":"94109"},{"Location":"FIRESTONE 023183","Address":"1200 Larkin St","City":"San Francisco","State":"CA","Zip":"94109"},{"Location":"FIRST REPUBLIC BANK","Address":"2001 Van Ness Ave","City":"San Francisco","State":"CA","Zip":"94109"},{"Location":"FLYING NINJA GROUP INC","Address":"461 Jefferson St","City":"San Francisco","State":"CA","Zip":"94109"},{"Location":"GREENS SPORTS BAR","Address":"2239 Polk St","City":"San Francisco","State":"CA","Zip":"94109"},{"Location":"GRUBSTAKE","Address":"1525 Pine St","City":"San Francisco","State":"CA","Zip":"94109"},{"Location":"HEMLOCK TAVERN","Address":"1131 Polk St","City":"San Francisco","State":"CA","Zip":"94109"},{"Location":"HOLIDAY INN GOLDEN GATE","Address":"1500 Van Ness Ave","City":"San Francisco","State":"CA","Zip":"94109"},{"Location":"HOSTELLING INTERNATIONAL CITY","Address":"685 Ellis St","City":"San Francisco","State":"CA","Zip":"94109"},{"Location":"HOUSE OF PRIME RIB","Address":"1906 Van Ness Ave","City":"San Francisco","State":"CA","Zip":"94109"},{"Location":"HOUSE OF SUSHI","Address":"2157 Polk St","City":"San Francisco","State":"CA","Zip":"94109"},{"Location":"HOUSE RULES","Address":"2227 Polk St","City":"San Francisco","State":"CA","Zip":"94109"},{"Location":"HYDE OUT","Address":"1068 Hyde St","City":"San Francisco","State":"CA","Zip":"94109"},{"Location":"I L W U","Address":"1188 Franklin St","City":"San Francisco","State":"CA","Zip":"94109"},{"Location":"IRVING PIZZA","Address":"928 Geary St","City":"San Francisco","State":"CA","Zip":"94109"},{"Location":"ITHAI","Address":"720 Post St","City":"San Francisco","State":"CA","Zip":"94109"},{"Location":"JIFFY LUBE","Address":"2030 Van Ness Ave","City":"San Francisco","State":"CA","Zip":"94109"},{"Location":"KENMORE RESIDENCE HOTEL","Address":"1570 Sutter St","City":"San Francisco","State":"CA","Zip":"94109"},{"Location":"KIAN","Address":"431 Eddy St","City":"San Francisco","State":"CA","Zip":"94109"},{"Location":"KYOTO SUSHI REST.","Address":"1233 Van Ness Ave","City":"San Francisco","State":"CA","Zip":"94109"},{"Location":"LAHORE KARAHI","Address":"612 Ofarrell St","City":"San Francisco","State":"CA","Zip":"94109"},{"Location":"LOS HERMANOS","Address":"868 Geary St","City":"San Francisco","State":"CA","Zip":"94109"},{"Location":"LUSH LOUNGE","Address":"1221 Polk St","City":"San Francisco","State":"CA","Zip":"94109"},{"Location":"MALKIN AND MALKIN PROPERTIES","Address":"656 Post St 3","City":"San Francisco","State":"CA","Zip":"94109"},{"Location":"MCCORMICK & KULETO'S","Address":"900 N Point St H301","City":"San Francisco","State":"CA","Zip":"94109"},{"Location":"MCTEAGUES SALOON","Address":"1237 Polk St","City":"San Francisco","State":"CA","Zip":"94109"},{"Location":"NISSAN INFINITI SAN FRAN","Address":"1395 Van Ness Ave","City":"San Francisco","State":"CA","Zip":"94109"},{"Location":"O'FARRELL STREET BAR","Address":"800 Larkin St","City":"San Francisco","State":"CA","Zip":"94109"},{"Location":"PIO ODENA","Address":"1199 Sutter St","City":"San Francisco","State":"CA","Zip":"94109"},{"Location":"PRONTO PIZZA","Address":"798 Eddy St","City":"San Francisco","State":"CA","Zip":"94109"},{"Location":"R BAR","Address":"1176 Sutter St","City":"San Francisco","State":"CA","Zip":"94109"},{"Location":"RASHID","Address":"1045 Polk St","City":"San Francisco","State":"CA","Zip":"94109"},{"Location":"RED CRAWFISH","Address":"611 Larkin St","City":"San Francisco","State":"CA","Zip":"94109"},{"Location":"ROUGE NIGHT CLUB INC","Address":"1500 Broadway","City":"San Francisco","State":"CA","Zip":"94109"},{"Location":"ROUTE 101 INC.","Address":"1332 Van Ness Ave","City":"San Francisco","State":"CA","Zip":"94109"},{"Location":"ROYALTY PIZZA","Address":"829 Geary St","City":"San Francisco","State":"CA","Zip":"94109"},{"Location":"SAINT FRANCIS MEMORIAL HOSPITA","Address":"1199 Bush St","City":"San Francisco","State":"CA","Zip":"94109"},{"Location":"SAUNA HOUSE","Address":"866 Sutter St","City":"San Francisco","State":"CA","Zip":"94109"},{"Location":"SHANGHAI KELLY'S","Address":"2064 Polk St","City":"San Francisco","State":"CA","Zip":"94109"},{"Location":"SILVER FOX BOAT CHARTER","Address":"490 Jefferson St","City":"San Francisco","State":"CA","Zip":"94109"},{"Location":"SLIDERS DINER","Address":"1202 Sutter St","City":"San Francisco","State":"CA","Zip":"94109"},{"Location":"SODA POPINSKI","Address":"1548 California St","City":"San Francisco","State":"CA","Zip":"94109"},{"Location":"SUITE A STUDIOS","Address":"1160 Polk St A","City":"San Francisco","State":"CA","Zip":"94109"},{"Location":"SUSHI RAPTURE","Address":"1400 Leavenworth St","City":"San Francisco","State":"CA","Zip":"94109"},{"Location":"TAPS","Address":"1516 Broadway","City":"San Francisco","State":"CA","Zip":"94109"},{"Location":"THE BOLDT COMPANY","Address":"1200 Van Ness Ave","City":"San Francisco","State":"CA","Zip":"94109"},{"Location":"THE BUCCANEER","Address":"2155 Polk St","City":"San Francisco","State":"CA","Zip":"94109"},{"Location":"THE OUTSIDER","Address":"894 Geary St","City":"San Francisco","State":"CA","Zip":"94109"},{"Location":"THE OWL TREE","Address":"601 Post St","City":"San Francisco","State":"CA","Zip":"94109"},{"Location":"THE PUB AT GHIRADELLI SQUARE","Address":"851 Beach St","City":"San Francisco","State":"CA","Zip":"94109"},{"Location":"TOMMY'S JOYNT","Address":"1101 Geary Blvd","City":"San Francisco","State":"CA","Zip":"94109"},{"Location":"TYCOON CAFE","Address":"620 O Farrell Street","City":"San Francisco","State":"CA","Zip":"94109"},{"Location":"VERTIGO BAR","Address":"1160 Polk St","City":"San Francisco","State":"CA","Zip":"94109"},{"Location":"VILLAGE PIZZERIA VANNESS","Address":"1243 Van Ness Ave","City":"San Francisco","State":"CA","Zip":"94109"},{"Location":"VK INDUSTRIES","Address":"1356 Polk St","City":"San Francisco","State":"CA","Zip":"94109"},{"Location":"WHOLE FOODS MARKET","Address":"1765 California St","City":"San Francisco","State":"CA","Zip":"94109"},{"Location":"WILLIAMS-SONOMA","Address":"3250 Van Ness Ave","City":"San Francisco","State":"CA","Zip":"94109"},{"Location":"WING LUM","Address":"1150 Polk St","City":"San Francisco","State":"CA","Zip":"94109"},{"Location":"WRECK ROOM","Address":"1390 California St","City":"San Francisco","State":"CA","Zip":"94109"},{"Location":"ZEKIS BAR","Address":"1319 California St","City":"San Francisco","State":"CA","Zip":"94109"},{"Location":"24 HOUR FITNESS #502","Address":"1200 Van Ness Ave","City":"San Francisco","State":"CA","Zip":"94109"},{"Location":"707 SUTTER","Address":"707 Sutter St","City":"San Francisco","State":"CA","Zip":"94109"},{"Location":"750 Cafe","Address":"750 Ellis St","City":"San Francisco","State":"CA","Zip":"94109"},{"Location":"ACADEMY OF ART UNIVERSITY","Address":"2211 Van Ness Ave","City":"San Francisco","State":"CA","Zip":"94109"},{"Location":"ACADEMY OF ART UNIVERSITY","Address":"736 Jones St","City":"San Francisco","State":"CA","Zip":"94109"},{"Location":"ACADEMY OF ART UNIVERSITY","Address":"1055 Pine St","City":"San Francisco","State":"CA","Zip":"94109"},{"Location":"ACADEMY OF ART UNIVERSITY","Address":"860 Sutter St","City":"San Francisco","State":"CA","Zip":"94109"},{"Location":"ACADEMY OF ART UNVERSITY","Address":"2209 Van Ness Ave","City":"San Francisco","State":"CA","Zip":"94109"},{"Location":"ACADEMY OF ARTS UNIVERSITY","Address":"1916 Octavia St","City":"San Francisco","State":"CA","Zip":"94109"},{"Location":"ACE'S","Address":"998 Sutter St","City":"San Francisco","State":"CA","Zip":"94109"},{"Location":"ALDOS PERFORMANCE MOTORS","Address":"770 Post St","City":"San Francisco","State":"CA","Zip":"94109"},{"Location":"AMERICAN ACADEMY OF OPHTHALMO","Address":"655 Beach St","City":"San Francisco","State":"CA","Zip":"94109"},{"Location":"AMSTERDAM CAFE","Address":"937 Geary St","City":"San Francisco","State":"CA","Zip":"94109"},{"Location":"AR FAMILY HOLDINGS LIMITED","Address":"2020 Jackson St","City":"San Francisco","State":"CA","Zip":"94109"},{"Location":"ARGONAUT HOTEL (0055471)","Address":"495 Jefferson St","City":"San Francisco","State":"CA","Zip":"94109"},{"Location":"BACCHUS KIRK","Address":"925 Bush St","City":"San Francisco","State":"CA","Zip":"94109"},{"Location":"BELL TOWER","Address":"1900 Polk St","City":"San Francisco","State":"CA","Zip":"94109"},{"Location":"BITTERS BOCK AND RYE","Address":"1122 Post St","City":"San Francisco","State":"CA","Zip":"94109"},{"Location":"BLOSSOM SPA","Address":"710 Post St","City":"San Francisco","State":"CA","Zip":"94109"},{"Location":"BLUR","Address":"1121 Polk St","City":"San Francisco","State":"CA","Zip":"94109"},{"Location":"BODEGA BISTRO","Address":"607 Larkin St","City":"San Francisco","State":"CA","Zip":"94109"},{"Location":"BRITISH MOTOR CAR DIST LTD","Address":"999 Van Ness Ave","City":"San Francisco","State":"CA","Zip":"94109"},{"Location":"BULLITT","Address":"2209 Polk St","City":"San Francisco","State":"CA","Zip":"94109"},{"Location":"CABIN","Address":"1750 Polk St","City":"San Francisco","State":"CA","Zip":"94109"},{"Location":"CAPURRO'S","Address":"498 Jefferson St","City":"San Francisco","State":"CA","Zip":"94109"},{"Location":"CHLOE FINE ARTS LLC","Address":"645 Beach St","City":"San Francisco","State":"CA","Zip":"94109"},{"Location":"CHOPSTICK HOUSE","Address":"2401 Polk St","City":"San Francisco","State":"CA","Zip":"94109"},{"Location":"CLUB HA RA","Address":"875 Geary St","City":"San Francisco","State":"CA","Zip":"94109"},{"Location":"DAVINCI VILLAS HOTEL LOUNGE","Address":"2550 Van Ness Ave","City":"San Francisco","State":"CA","Zip":"94109"},{"Location":"DAVINCIVILLASHOTELOFFICE","Address":"2550 Van Ness Ave","City":"San Francisco","State":"CA","Zip":"94109"},{"Location":"EDINBURGH CASTLE","Address":"950 Geary St","City":"San Francisco","State":"CA","Zip":"94109"},{"Location":"FIAT OF SAN FRANCISCO","Address":"1595 Van Ness Ave","City":"San Francisco","State":"CA","Zip":"94109"},{"Location":"FINGERTIPS NAIL SALON","Address":"1309 Sutter St","City":"San Francisco","State":"CA","Zip":"94109"},{"Location":"FIRESTONE #120383","Address":"1499 Franklin St","City":"San Francisco","State":"CA","Zip":"94109"},{"Location":"FIRESTONE 023183","Address":"1200 Larkin St","City":"San Francisco","State":"CA","Zip":"94109"},{"Location":"FIRST REPUBLIC BANK","Address":"2001 Van Ness Ave","City":"San Francisco","State":"CA","Zip":"94109"},{"Location":"FLYING NINJA GROUP INC","Address":"461 Jefferson St","City":"San Francisco","State":"CA","Zip":"94109"},{"Location":"GREENS SPORTS BAR","Address":"2239 Polk St","City":"San Francisco","State":"CA","Zip":"94109"},{"Location":"GRUBSTAKE","Address":"1525 Pine St","City":"San Francisco","State":"CA","Zip":"94109"},{"Location":"HEMLOCK TAVERN","Address":"1131 Polk St","City":"San Francisco","State":"CA","Zip":"94109"},{"Location":"HOLIDAY INN GOLDEN GATE","Address":"1500 Van Ness Ave","City":"San Francisco","State":"CA","Zip":"94109"},{"Location":"HOSTELLING INTERNATIONAL CITY","Address":"685 Ellis St","City":"San Francisco","State":"CA","Zip":"94109"},{"Location":"HOUSE OF PRIME RIB","Address":"1906 Van Ness Ave","City":"San Francisco","State":"CA","Zip":"94109"},{"Location":"HOUSE OF SUSHI","Address":"2157 Polk St","City":"San Francisco","State":"CA","Zip":"94109"},{"Location":"HYDE OUT","Address":"1068 Hyde St","City":"San Francisco","State":"CA","Zip":"94109"},{"Location":"I L W U","Address":"1188 Franklin St","City":"San Francisco","State":"CA","Zip":"94109"},{"Location":"IRVING PIZZA","Address":"928 Geary St","City":"San Francisco","State":"CA","Zip":"94109"},{"Location":"JIFFY LUBE","Address":"2030 Van Ness Ave","City":"San Francisco","State":"CA","Zip":"94109"},{"Location":"KENMORE RESIDENCE HOTEL","Address":"1570 Sutter St","City":"San Francisco","State":"CA","Zip":"94109"},{"Location":"KIAN","Address":"431 Eddy St","City":"San Francisco","State":"CA","Zip":"94109"},{"Location":"KYOTO SUSHI REST.","Address":"1233 Van Ness Ave","City":"San Francisco","State":"CA","Zip":"94109"},{"Location":"LAHORE KARAHI","Address":"612 Ofarrell St","City":"San Francisco","State":"CA","Zip":"94109"},{"Location":"LOS HERMANOS","Address":"868 Geary St","City":"San Francisco","State":"CA","Zip":"94109"},{"Location":"LUSH LOUNGE","Address":"1221 Polk St","City":"San Francisco","State":"CA","Zip":"94109"},{"Location":"MALKIN AND MALKIN PROPERTIES","Address":"656 Post St 3","City":"San Francisco","State":"CA","Zip":"94109"},{"Location":"MCCORMICK & KULETO'S","Address":"900 N Point St H301","City":"San Francisco","State":"CA","Zip":"94109"},{"Location":"MCTEAGUES SALOON","Address":"1237 Polk St","City":"San Francisco","State":"CA","Zip":"94109"},{"Location":"NISSAN INFINITI SAN FRAN","Address":"1395 Van Ness Ave","City":"San Francisco","State":"CA","Zip":"94109"},{"Location":"O'FARRELL STREET BAR","Address":"800 Larkin St","City":"San Francisco","State":"CA","Zip":"94109"},{"Location":"PIO ODENA","Address":"1199 Sutter St","City":"San Francisco","State":"CA","Zip":"94109"},{"Location":"PRONTO PIZZA","Address":"798 Eddy St","City":"San Francisco","State":"CA","Zip":"94109"},{"Location":"R BAR","Address":"1176 Sutter St","City":"San Francisco","State":"CA","Zip":"94109"},{"Location":"RASHID","Address":"1045 Polk St","City":"San Francisco","State":"CA","Zip":"94109"},{"Location":"RED CRAWFISH","Address":"611 Larkin St","City":"San Francisco","State":"CA","Zip":"94109"},{"Location":"ROUGE NIGHT CLUB INC","Address":"1500 Broadway","City":"San Francisco","State":"CA","Zip":"94109"},{"Location":"ROUTE 101 INC.","Address":"1332 Van Ness Ave","City":"San Francisco","State":"CA","Zip":"94109"},{"Location":"ROYALTY PIZZA","Address":"829 Geary St","City":"San Francisco","State":"CA","Zip":"94109"},{"Location":"SAINT FRANCIS MEMORIAL HOSPITA","Address":"1199 Bush St","City":"San Francisco","State":"CA","Zip":"94109"},{"Location":"SAUNA HOUSE","Address":"866 Sutter St","City":"San Francisco","State":"CA","Zip":"94109"},{"Location":"SHANGHAI KELLY'S","Address":"2064 Polk St","City":"San Francisco","State":"CA","Zip":"94109"},{"Location":"SILVER FOX BOAT CHARTER","Address":"490 Jefferson St","City":"San Francisco","State":"CA","Zip":"94109"},{"Location":"SLIDERS DINER","Address":"1202 Sutter St","City":"San Francisco","State":"CA","Zip":"94109"},{"Location":"SODA POPINSKI","Address":"1548 California St","City":"San Francisco","State":"CA","Zip":"94109"},{"Location":"SUITE A STUDIOS","Address":"1160 Polk St A","City":"San Francisco","State":"CA","Zip":"94109"},{"Location":"SUSHI RAPTURE","Address":"1400 Leavenworth St","City":"San Francisco","State":"CA","Zip":"94109"},{"Location":"TAPS","Address":"1516 Broadway","City":"San Francisco","State":"CA","Zip":"94109"},{"Location":"THE BOLDT COMPANY","Address":"1200 Van Ness Ave","City":"San Francisco","State":"CA","Zip":"94109"},{"Location":"THE BUCCANEER","Address":"2155 Polk St","City":"San Francisco","State":"CA","Zip":"94109"},{"Location":"THE OUTSIDER","Address":"894 Geary St","City":"San Francisco","State":"CA","Zip":"94109"},{"Location":"THE OWL TREE","Address":"601 Post St","City":"San Francisco","State":"CA","Zip":"94109"},{"Location":"THE PUB AT GHIRADELLI SQUARE","Address":"851 Beach St","City":"San Francisco","State":"CA","Zip":"94109"},{"Location":"TOMMY'S JOYNT","Address":"1101 Geary Blvd","City":"San Francisco","State":"CA","Zip":"94109"},{"Location":"TYCOON CAFE","Address":"620 O Farrell Street","City":"San Francisco","State":"CA","Zip":"94109"},{"Location":"VERTIGO BAR","Address":"1160 Polk St","City":"San Francisco","State":"CA","Zip":"94109"},{"Location":"VILLAGE PIZZERIA VANNESS","Address":"1243 Van Ness Ave","City":"San Francisco","State":"CA","Zip":"94109"},{"Location":"VK INDUSTRIES","Address":"1356 Polk St","City":"San Francisco","State":"CA","Zip":"94109"},{"Location":"WATTLE CREEK WINERY","Address":"900 Northpoint St 211","City":"San Francisco","State":"CA","Zip":"94109"},{"Location":"WHOLE FOODS MARKET","Address":"1765 California St","City":"San Francisco","State":"CA","Zip":"94109"},{"Location":"WILLIAMS-SONOMA","Address":"3250 Van Ness Ave","City":"San Francisco","State":"CA","Zip":"94109"},{"Location":"WING LUM","Address":"1150 Polk St","City":"San Francisco","State":"CA","Zip":"94109"},{"Location":"WRECK ROOM","Address":"1390 California St","City":"San Francisco","State":"CA","Zip":"94109"},{"Location":"ZEKIS BAR","Address":"1319 California St","City":"San Francisco","State":"CA","Zip":"94109"}]