[{"Location":"580 SUTTER LLC","Address":"580 Sutter St","City":"San Francisco","State":"CA","Zip":"94102"},{"Location":"ACADEMY OF ART U PRES","Address":"150 Hayes St 6th","City":"San Francisco","State":"CA","Zip":"94102"},{"Location":"ACADEMY OF ART UNIVERSITY","Address":"655 Sutter St","City":"San Francisco","State":"CA","Zip":"94102"},{"Location":"ACADEMY OF ART UNIVERSITY","Address":"655 1%2F2 Sutter St","City":"San Francisco","State":"CA","Zip":"94102"},{"Location":"ACADEMY OF ART UNVERSITY","Address":"680 Sutter St","City":"San Francisco","State":"CA","Zip":"94102"},{"Location":"AQUILA FITNESS","Address":"450 Golden Gate Ave Floor","City":"San Francisco","State":"CA","Zip":"94102"},{"Location":"ARANDA RESIDENCE","Address":"64 Turk St","City":"San Francisco","State":"CA","Zip":"94102"},{"Location":"BAR ADAGIO","Address":"550 Geary St","City":"San Francisco","State":"CA","Zip":"94102"},{"Location":"BAY CITY NEWS INC","Address":"1390 Market St 324","City":"San Francisco","State":"CA","Zip":"94102"},{"Location":"BOHEMIAN CLUB","Address":"624 Taylor St","City":"San Francisco","State":"CA","Zip":"94102"},{"Location":"BURGER BAR SAN FRANCISCO","Address":"251 Geary St","City":"San Francisco","State":"CA","Zip":"94102"},{"Location":"CABLE CAR CITY PUB & CAFE","Address":"1 Hallidie Plz","City":"San Francisco","State":"CA","Zip":"94102"},{"Location":"CALIFORNIA PARKING SYSTEMS INC","Address":"175 Turk St","City":"San Francisco","State":"CA","Zip":"94102"},{"Location":"CASSANEGO ENTERPRISES LLC","Address":"581 Hayze","City":"San Francisco","State":"CA","Zip":"94102"},{"Location":"CHABAA THAI RESTAURANT","Address":"420 Geary St","City":"San Francisco","State":"CA","Zip":"94102"},{"Location":"CIVIC CENTER BRANCH","Address":"1266 Market St","City":"San Francisco","State":"CA","Zip":"94102"},{"Location":"CLIFT HOTEL (0037805)","Address":"495 Geary St","City":"San Francisco","State":"CA","Zip":"94102"},{"Location":"CONROY","Address":"170 Ofarrell St","City":"San Francisco","State":"CA","Zip":"94102"},{"Location":"CPUC EXECUTIVE DIVISION","Address":"505 Van Ness Ave","City":"San Francisco","State":"CA","Zip":"94102"},{"Location":"CREATION INKA","Address":"370 Grove St","City":"San Francisco","State":"CA","Zip":"94102"},{"Location":"DEA","Address":"450 Golden Gate Ave 14010","City":"San Francisco","State":"CA","Zip":"94102"},{"Location":"DHS%2FICE%2FFPS","Address":"450 Golden Gate Ave","City":"San Francisco","State":"CA","Zip":"94102"},{"Location":"DISH DELIVERING INNOVATION","Address":"144 Eddy St","City":"San Francisco","State":"CA","Zip":"94102"},{"Location":"DOBBS FERRY","Address":"409 Gough St","City":"San Francisco","State":"CA","Zip":"94102"},{"Location":"DONEGAL ALL BLACKS LLC","Address":"460 Larkin St","City":"San Francisco","State":"CA","Zip":"94102"},{"Location":"DOUBLE DECKER","Address":"465 Grove St","City":"San Francisco","State":"CA","Zip":"94102"},{"Location":"EMERGENCY COMMUNICATIONS DEPT","Address":"1011 Turk St","City":"San Francisco","State":"CA","Zip":"94102"},{"Location":"EMERGENCY MANAGEMENT DEPARTMEN","Address":"30 Van Ness Ave 3300","City":"San Francisco","State":"CA","Zip":"94102"},{"Location":"EMPERIOR NORTONS BZELAND","Address":"510 Larkin St","City":"San Francisco","State":"CA","Zip":"94102"},{"Location":"EZE CASTLE","Address":"720 Market St 5thfl","City":"San Francisco","State":"CA","Zip":"94102"},{"Location":"FBI - SAN FRANCISCO","Address":"450 Golden Gate Ave","City":"San Francisco","State":"CA","Zip":"94102"},{"Location":"GO DADDY SAN FRANCISCO","Address":"560 Sutter St","City":"San Francisco","State":"CA","Zip":"94102"},{"Location":"GOLDEN GATE GRILL","Address":"449 Powell St 3","City":"San Francisco","State":"CA","Zip":"94102"},{"Location":"GYRO KING","Address":"25 Grove St","City":"San Francisco","State":"CA","Zip":"94102"},{"Location":"HAYES STREET GRILL","Address":"324 Hayes St","City":"San Francisco","State":"CA","Zip":"94102"},{"Location":"HAYES VALLEY CARE","Address":"601 Laguna St","City":"San Francisco","State":"CA","Zip":"94102"},{"Location":"HI-SAN FRANCISCO","Address":"312 Mason St","City":"San Francisco","State":"CA","Zip":"94102"},{"Location":"HILTON SAN FRAN FITNESS","Address":"333 Ofarrell St","City":"San Francisco","State":"CA","Zip":"94102"},{"Location":"HILTON SAN FRANCISCO (0050736)","Address":"333 O' Farrell St","City":"San Francisco","State":"CA","Zip":"94102"},{"Location":"HOGWASH 1","Address":"582 Sutter St","City":"San Francisco","State":"CA","Zip":"94102"},{"Location":"HOTEL MARK TWAIN","Address":"345 Taylor St","City":"San Francisco","State":"CA","Zip":"94102"},{"Location":"HOTEL NIKKO (0054262)","Address":"222 Mason St","City":"San Francisco","State":"CA","Zip":"94102"},{"Location":"HOWARD PROPERTIES","Address":"355 Hayes St","City":"San Francisco","State":"CA","Zip":"94102"},{"Location":"JOHNNY FOLEYS","Address":"243 Ofarrell St","City":"San Francisco","State":"CA","Zip":"94102"},{"Location":"JONES  SCHILLER & COMPAN","Address":"507 Polk St 300","City":"San Francisco","State":"CA","Zip":"94102"},{"Location":"KING OF THAI NOODLE HOUSE","Address":"184 O Farrel St","City":"San Francisco","State":"CA","Zip":"94102"},{"Location":"KUSINA NI TESS","Address":"237 Ellis St","City":"San Francisco","State":"CA","Zip":"94102"},{"Location":"KYU 3","Address":"337 Jones St","City":"San Francisco","State":"CA","Zip":"94102"},{"Location":"LEFTY O DOULS","Address":"333 Geary St","City":"San Francisco","State":"CA","Zip":"94102"},{"Location":"LITTLE SHEEP MONGOLIAN","Address":"405 Mason St","City":"San Francisco","State":"CA","Zip":"94102"},{"Location":"MACY'S WEST 428A1","Address":"170 Ofarrell St Box6","City":"San Francisco","State":"CA","Zip":"94102"},{"Location":"MACY'S WEST 428A2","Address":"170 Ofarrell St","City":"San Francisco","State":"CA","Zip":"94102"},{"Location":"MACYS WEST 428A 8TH","Address":"170 Ofarrell St 8","City":"San Francisco","State":"CA","Zip":"94102"},{"Location":"MCBANE PROPERTY MANAGEMENT","Address":"250 Van Ness Ave","City":"San Francisco","State":"CA","Zip":"94102"},{"Location":"MEXICAN RESTAURANT","Address":"305 Turk St","City":"San Francisco","State":"CA","Zip":"94102"},{"Location":"MINI OF SAN FRANSICO","Address":"799 Van Ness Ave","City":"San Francisco","State":"CA","Zip":"94102"},{"Location":"O3 BISTRO & LOUNGE","Address":"524 Van Ness Ave","City":"San Francisco","State":"CA","Zip":"94102"},{"Location":"ORANGE VILLAGE HOSTEL CO","Address":"411 O Farrell Street","City":"San Francisco","State":"CA","Zip":"94102"},{"Location":"PACIFIC INSTITUTE","Address":"624 Laguna St","City":"San Francisco","State":"CA","Zip":"94102"},{"Location":"PARK SIDE LENDING LLC","Address":"180 Redwood St 350","City":"San Francisco","State":"CA","Zip":"94102"},{"Location":"PHO TAN HOA VIETN RESTAU","Address":"435 Jones St","City":"San Francisco","State":"CA","Zip":"94102"},{"Location":"PINECREST  DINER","Address":"401 Geary St","City":"San Francisco","State":"CA","Zip":"94102"},{"Location":"PLEASANTON FITNESS LLC","Address":"37 Grove St","City":"San Francisco","State":"CA","Zip":"94102"},{"Location":"PUC OF SAN FRANCISCO","Address":"525 Golden Gate Ave","City":"San Francisco","State":"CA","Zip":"94102"},{"Location":"PUCCINI AND PINETTI ITALIAN BA","Address":"129 Ellis St","City":"San Francisco","State":"CA","Zip":"94102"},{"Location":"RAY & JOAN KROC COM CEN","Address":"240 -242 Turk St","City":"San Francisco","State":"CA","Zip":"94102"},{"Location":"REDFORD","Address":"673 Geary St","City":"San Francisco","State":"CA","Zip":"94102"},{"Location":"SAMS DINER INC","Address":"1220 Market St","City":"San Francisco","State":"CA","Zip":"94102"},{"Location":"SAN FRANCISCO ELKS CLUB","Address":"450 Post St 2m","City":"San Francisco","State":"CA","Zip":"94102"},{"Location":"SAUCE","Address":"135 Gough St","City":"San Francisco","State":"CA","Zip":"94102"},{"Location":"SERRANO HOTEL (0012218)","Address":"405 Taylor St","City":"San Francisco","State":"CA","Zip":"94102"},{"Location":"SIR FRANCIS DRAKE (0007290)","Address":"450 Powell St","City":"San Francisco","State":"CA","Zip":"94102"},{"Location":"TAQUERIA CASTILLO","Address":"10 Mason St","City":"San Francisco","State":"CA","Zip":"94102"},{"Location":"TAQUERIA CASTILLO","Address":"86 Mcallister St","City":"San Francisco","State":"CA","Zip":"94102"},{"Location":"TAVERN 242 LP","Address":"242 O Farrell Street","City":"San Francisco","State":"CA","Zip":"94102"},{"Location":"THE CHEESECAKE FACTORY 0034","Address":"251 Geary St 8","City":"San Francisco","State":"CA","Zip":"94102"},{"Location":"THE ELM HOTEL","Address":"364 Eddy St","City":"San Francisco","State":"CA","Zip":"94102"},{"Location":"THE EMS BARBER SHOP","Address":"342 Jones St","City":"San Francisco","State":"CA","Zip":"94102"},{"Location":"THE OLYMPIC CLUB","Address":"524 Post St","City":"San Francisco","State":"CA","Zip":"94102"},{"Location":"THE ONE SUSHI AND LUNCH","Address":"429 Gough St","City":"San Francisco","State":"CA","Zip":"94102"},{"Location":"TRADINGPOST MODERN","Address":"1028 Market St","City":"San Francisco","State":"CA","Zip":"94102"},{"Location":"UNION SQUARE SPORTS BAR #2","Address":"115 Mason St","City":"San Francisco","State":"CA","Zip":"94102"},{"Location":"UNITED STATES MINT","Address":"155 Hermann St","City":"San Francisco","State":"CA","Zip":"94102"},{"Location":"URBAN TAVERN","Address":"333 Ofarrell St","City":"San Francisco","State":"CA","Zip":"94102"},{"Location":"US GENERAL SERVICES ADMI","Address":"450 Golden Gate Ave 4","City":"San Francisco","State":"CA","Zip":"94102"},{"Location":"WAR MEMORIAL OPRAH HOUSE","Address":"301 Van Ness Ave","City":"San Francisco","State":"CA","Zip":"94102"},{"Location":"WESTIN ST FRANCIS (0037384)","Address":"335 Powell St","City":"San Francisco","State":"CA","Zip":"94102"},{"Location":"WORLD OF CHARM","Address":"246 Powell St","City":"San Francisco","State":"CA","Zip":"94102"},{"Location":"ZINGARI RESTAURANT","Address":"501 Post St","City":"San Francisco","State":"CA","Zip":"94102"},{"Location":"THE OLYMPIC CLUB","Address":"1 Any Street","City":"San Fransisco","State":"CA","Zip":"94102"}]