[{"Location":"ABBEY TAVERN","Address":"4100 Geary Blvd","City":"San Francisco","State":"CA","Zip":"94118"},{"Location":"AED LOCAL LLC","Address":"642 Clement St","City":"San Francisco","State":"CA","Zip":"94118"},{"Location":"AMPHAWA THAI NOODLE HOUSE","Address":"5020 Geary Blvd","City":"San Francisco","State":"CA","Zip":"94118"},{"Location":"ANTONELLI'S","Address":"3585 California St","City":"San Francisco","State":"CA","Zip":"94118"},{"Location":"ARASHI SUSHI HOUSE","Address":"4724 Geary Blvd","City":"San Francisco","State":"CA","Zip":"94118"},{"Location":"BARBANELL ASSOCIATES","Address":"3627 Sacramento St","City":"San Francisco","State":"CA","Zip":"94118"},{"Location":"BEAUTIFULL","Address":"3401 California St","City":"San Francisco","State":"CA","Zip":"94118"},{"Location":"BUFFET EURO","Address":"111 16th Ave","City":"San Francisco","State":"CA","Zip":"94118"},{"Location":"CAFE LA FLORE","Address":"1032 Clement St","City":"San Francisco","State":"CA","Zip":"94118"},{"Location":"CALIFORNIA ACADEMY OF SC","Address":"55 Music Concourse Dr","City":"San Francisco","State":"CA","Zip":"94118"},{"Location":"CALIFORNIA PACIFIC MEDI CENTER","Address":"3698 California St","City":"San Francisco","State":"CA","Zip":"94118"},{"Location":"CALIFORNIA PACIFIC MEDICAL CTR","Address":"3838 California St 106","City":"San Francisco","State":"CA","Zip":"94118"},{"Location":"CALIFORNIA PACIFIC ORTHOPEDICS","Address":"3838 California St 715","City":"San Francisco","State":"CA","Zip":"94118"},{"Location":"CHARLES SCHWAB & CO. INC.","Address":"3478 California St","City":"San Francisco","State":"CA","Zip":"94118"},{"Location":"CUP A JAVA","Address":"3500 Geary Blvd","City":"San Francisco","State":"CA","Zip":"94118"},{"Location":"DAVITA #2482 MISSION","Address":"2700 Geary Blvd A","City":"San Francisco","State":"CA","Zip":"94118"},{"Location":"DR JOSEPH GRENN DMD","Address":"500 Spruce St 200","City":"San Francisco","State":"CA","Zip":"94118"},{"Location":"FIRST REPUBLIC BANK","Address":"3533 California St","City":"San Francisco","State":"CA","Zip":"94118"},{"Location":"FT VENTURES","Address":"555 Callifornia Street 2900","City":"San Francisco","State":"CA","Zip":"94118"},{"Location":"GOOD NOODLE 1","Address":"239 Clement St","City":"San Francisco","State":"CA","Zip":"94118"},{"Location":"GS RIVERSIDE GRILL","Address":"3751 Geary Blvd","City":"San Francisco","State":"CA","Zip":"94118"},{"Location":"HAUNREI","Address":"4217 Geary Blvd","City":"San Francisco","State":"CA","Zip":"94118"},{"Location":"HEALTHY DANCE STUDIO","Address":"850 Clement St","City":"San Francisco","State":"CA","Zip":"94118"},{"Location":"IRELANDS 32","Address":"3920 Geary Blvd","City":"San Francisco","State":"CA","Zip":"94118"},{"Location":"KATA STRENGTH  CONDITIONING","Address":"3545 Geary Blvd","City":"San Francisco","State":"CA","Zip":"94118"},{"Location":"KING OF THAI NOODLE HOUSE","Address":"639 Clement St","City":"San Francisco","State":"CA","Zip":"94118"},{"Location":"KOREAN VILLAGE RESTAURAN","Address":"4609 Geary Blvd","City":"San Francisco","State":"CA","Zip":"94118"},{"Location":"LUCKY PENNY RESTAURANT","Address":"2670 Geary Blvd","City":"San Francisco","State":"CA","Zip":"94118"},{"Location":"M AND K MARKET","Address":"1701 Anza St","City":"San Francisco","State":"CA","Zip":"94118"},{"Location":"NEW DNA CAFE","Address":"407 Clement St","City":"San Francisco","State":"CA","Zip":"94118"},{"Location":"PERKINS INVESTMENT MGMT","Address":"3629 Sacramento St","City":"San Francisco","State":"CA","Zip":"94118"},{"Location":"PIZZA ORGASMICA & BREWING CO","Address":"823 Clement St","City":"San Francisco","State":"CA","Zip":"94118"},{"Location":"PLOUGH & STARS","Address":"116 Clement St","City":"San Francisco","State":"CA","Zip":"94118"},{"Location":"PRESENTATION CONVENT","Address":"2340 Turk Blvd","City":"San Francisco","State":"CA","Zip":"94118"},{"Location":"PSORIASIS DAY CARE #1212","Address":"515 Spruce St 1212","City":"San Francisco","State":"CA","Zip":"94118"},{"Location":"ROCKET ROOM","Address":"406 Clement St","City":"San Francisco","State":"CA","Zip":"94118"},{"Location":"SAN FRANCISCO FIRE CREDIT UNIO","Address":"3201 California St","City":"San Francisco","State":"CA","Zip":"94118"},{"Location":"SCHMIDT PROPERTY GROUP","Address":"390 Laurel St 204","City":"San Francisco","State":"CA","Zip":"94118"},{"Location":"SERVICE CENTRAL AUTOMOTIVE GP","Address":"4419 Geary Blvd","City":"San Francisco","State":"CA","Zip":"94118"},{"Location":"SF FIRE CREDIT UNION","Address":"3201 California St","City":"San Francisco","State":"CA","Zip":"94118"},{"Location":"SF TIRE AND SERVICE CENTRAL","Address":"3040 Geary Blvd","City":"San Francisco","State":"CA","Zip":"94118"},{"Location":"SIDE BAR","Address":"408 Clement St","City":"San Francisco","State":"CA","Zip":"94118"},{"Location":"STEINS","Address":"731 Clement St","City":"San Francisco","State":"CA","Zip":"94118"},{"Location":"STOW LAKE BOAT HOUSE","Address":"50 Stowlake Drive","City":"San Francisco","State":"CA","Zip":"94118"},{"Location":"SUSHI BISTRO","Address":"431 Balboa St","City":"San Francisco","State":"CA","Zip":"94118"},{"Location":"THE CLEMENT ST BAR AND GRILL","Address":"708 Clement St","City":"San Francisco","State":"CA","Zip":"94118"},{"Location":"THE CORNER STORE","Address":"5 Masonic Ave","City":"San Francisco","State":"CA","Zip":"94118"},{"Location":"THE HEMP CENTER","Address":"4811 Geary Blvd","City":"San Francisco","State":"CA","Zip":"94118"},{"Location":"THE PIG & WHISTLE","Address":"2801 Geary Blvd","City":"San Francisco","State":"CA","Zip":"94118"},{"Location":"UNCLE BOYS","Address":"245 Balboa St","City":"San Francisco","State":"CA","Zip":"94118"},{"Location":"UNIVERSITY OF SAN FRANCISO","Address":"2335 Golden Gate Ave","City":"San Francisco","State":"CA","Zip":"94118"},{"Location":"UNIVERSITY OF SF JESUIT COMMUN","Address":"2600 Turk Blvd","City":"San Francisco","State":"CA","Zip":"94118"},{"Location":"UNIVERSITY OF SF JESULT COMM 2","Address":"2600 Turk Blvd","City":"San Francisco","State":"CA","Zip":"94118"},{"Location":"USF","Address":"59 Roselyn Ter","City":"San Francisco","State":"CA","Zip":"94118"},{"Location":"USF - WAR MEMORIAL GYM","Address":"2335 Golden Gate Ave Gym","City":"San Francisco","State":"CA","Zip":"94118"},{"Location":"WEATHERBY","Address":"650 Cabrillo St 8","City":"San Francisco","State":"CA","Zip":"94118"},{"Location":"Y & Y","Address":"914 Clement St","City":"San Francisco","State":"CA","Zip":"94118"},{"Location":"ZETTA SAN FRANCISCO REST","Address":"55 A 5th Ave","City":"San Francisco","State":"CA","Zip":"94118"},{"Location":"ABBEY TAVERN","Address":"4100 Geary Blvd","City":"San Francisco","State":"CA","Zip":"94118"},{"Location":"AED LOCAL LLC","Address":"642 Clement St","City":"San Francisco","State":"CA","Zip":"94118"},{"Location":"AMPHAWA THAI NOODLE HOUSE","Address":"5020 Geary Blvd","City":"San Francisco","State":"CA","Zip":"94118"},{"Location":"ANTONELLI'S","Address":"3585 California St","City":"San Francisco","State":"CA","Zip":"94118"},{"Location":"ARASHI SUSHI HOUSE","Address":"4724 Geary Blvd","City":"San Francisco","State":"CA","Zip":"94118"},{"Location":"BARBANELL ASSOCIATES","Address":"3627 Sacramento St","City":"San Francisco","State":"CA","Zip":"94118"},{"Location":"BEAUTIFULL","Address":"3401 California St","City":"San Francisco","State":"CA","Zip":"94118"},{"Location":"BUFFET EURO","Address":"111 16th Ave","City":"San Francisco","State":"CA","Zip":"94118"},{"Location":"CAFE LA FLORE","Address":"1032 Clement St","City":"San Francisco","State":"CA","Zip":"94118"},{"Location":"CALIFORNIA ACADEMY OF SC","Address":"55 Music Concourse Dr","City":"San Francisco","State":"CA","Zip":"94118"},{"Location":"CALIFORNIA PACIFIC MEDI CENTER","Address":"3698 California St","City":"San Francisco","State":"CA","Zip":"94118"},{"Location":"CALIFORNIA PACIFIC MEDICAL CTR","Address":"3838 California St 106","City":"San Francisco","State":"CA","Zip":"94118"},{"Location":"CALIFORNIA PACIFIC ORTHOPEDICS","Address":"3838 California St 715","City":"San Francisco","State":"CA","Zip":"94118"},{"Location":"CHARLES SCHWAB & CO. INC.","Address":"3478 California St","City":"San Francisco","State":"CA","Zip":"94118"},{"Location":"CUP A JAVA","Address":"3500 Geary Blvd","City":"San Francisco","State":"CA","Zip":"94118"},{"Location":"DAVITA #2482 MISSION","Address":"2700 Geary Blvd A","City":"San Francisco","State":"CA","Zip":"94118"},{"Location":"DR JOSEPH GRENN DMD","Address":"500 Spruce St 200","City":"San Francisco","State":"CA","Zip":"94118"},{"Location":"FIRST REPUBLIC BANK","Address":"3533 California St","City":"San Francisco","State":"CA","Zip":"94118"},{"Location":"FT VENTURES","Address":"555 Callifornia Street 2900","City":"San Francisco","State":"CA","Zip":"94118"},{"Location":"GOOD NOODLE 1","Address":"239 Clement St","City":"San Francisco","State":"CA","Zip":"94118"},{"Location":"GRAND HOT POT LOUNGE","Address":"3565 Geary Blvd","City":"San Francisco","State":"CA","Zip":"94118"},{"Location":"GS RIVERSIDE GRILL","Address":"3751 Geary Blvd","City":"San Francisco","State":"CA","Zip":"94118"},{"Location":"HAUNREI","Address":"4217 Geary Blvd","City":"San Francisco","State":"CA","Zip":"94118"},{"Location":"HEALTHY DANCE STUDIO","Address":"850 Clement St","City":"San Francisco","State":"CA","Zip":"94118"},{"Location":"IRELANDS 32","Address":"3920 Geary Blvd","City":"San Francisco","State":"CA","Zip":"94118"},{"Location":"KATA STRENGTH  CONDITIONING","Address":"3545 Geary Blvd","City":"San Francisco","State":"CA","Zip":"94118"},{"Location":"KING OF THAI NOODLE HOUSE","Address":"639 Clement St","City":"San Francisco","State":"CA","Zip":"94118"},{"Location":"KOREAN VILLAGE RESTAURAN","Address":"4609 Geary Blvd","City":"San Francisco","State":"CA","Zip":"94118"},{"Location":"LUCKY PENNY RESTAURANT","Address":"2670 Geary Blvd","City":"San Francisco","State":"CA","Zip":"94118"},{"Location":"M AND K MARKET","Address":"1701 Anza St","City":"San Francisco","State":"CA","Zip":"94118"},{"Location":"NEW DNA CAFE","Address":"407 Clement St","City":"San Francisco","State":"CA","Zip":"94118"},{"Location":"PERKINS INVESTMENT MGMT","Address":"3629 Sacramento St","City":"San Francisco","State":"CA","Zip":"94118"},{"Location":"PIZZA ORGASMICA & BREWING CO","Address":"823 Clement St","City":"San Francisco","State":"CA","Zip":"94118"},{"Location":"PLOUGH & STARS","Address":"116 Clement St","City":"San Francisco","State":"CA","Zip":"94118"},{"Location":"PRESENTATION CONVENT","Address":"2340 Turk Blvd","City":"San Francisco","State":"CA","Zip":"94118"},{"Location":"PSORIASIS DAY CARE #1212","Address":"515 Spruce St 1212","City":"San Francisco","State":"CA","Zip":"94118"},{"Location":"ROCKET ROOM","Address":"406 Clement St","City":"San Francisco","State":"CA","Zip":"94118"},{"Location":"SAN FRANCISCO FIRE CREDIT UNIO","Address":"3201 California St","City":"San Francisco","State":"CA","Zip":"94118"},{"Location":"SCHMIDT PROPERTY GROUP","Address":"390 Laurel St 204","City":"San Francisco","State":"CA","Zip":"94118"},{"Location":"SERVICE CENTRAL AUTOMOTIVE GP","Address":"4419 Geary Blvd","City":"San Francisco","State":"CA","Zip":"94118"},{"Location":"SF FIRE CREDIT UNION","Address":"3201 California St","City":"San Francisco","State":"CA","Zip":"94118"},{"Location":"SF TIRE AND SERVICE CENTRAL","Address":"3040 Geary Blvd","City":"San Francisco","State":"CA","Zip":"94118"},{"Location":"SIDE BAR","Address":"408 Clement St","City":"San Francisco","State":"CA","Zip":"94118"},{"Location":"STEINS","Address":"731 Clement St","City":"San Francisco","State":"CA","Zip":"94118"},{"Location":"STOW LAKE BOAT HOUSE","Address":"50 Stowlake Drive","City":"San Francisco","State":"CA","Zip":"94118"},{"Location":"SUSHI BISTRO","Address":"431 Balboa St","City":"San Francisco","State":"CA","Zip":"94118"},{"Location":"THE CLEMENT ST BAR AND GRILL","Address":"708 Clement St","City":"San Francisco","State":"CA","Zip":"94118"},{"Location":"THE CORNER STORE","Address":"5 Masonic Ave","City":"San Francisco","State":"CA","Zip":"94118"},{"Location":"THE HEMP CENTER","Address":"4811 Geary Blvd","City":"San Francisco","State":"CA","Zip":"94118"},{"Location":"THE PIG & WHISTLE","Address":"2801 Geary Blvd","City":"San Francisco","State":"CA","Zip":"94118"},{"Location":"UNIVERSITY OF SAN FRANCISO","Address":"2335 Golden Gate Ave","City":"San Francisco","State":"CA","Zip":"94118"},{"Location":"UNIVERSITY OF SF JESUIT COMMUN","Address":"2600 Turk Blvd","City":"San Francisco","State":"CA","Zip":"94118"},{"Location":"UNIVERSITY OF SF JESULT COMM 2","Address":"2600 Turk Blvd","City":"San Francisco","State":"CA","Zip":"94118"},{"Location":"USF","Address":"59 Roselyn Ter","City":"San Francisco","State":"CA","Zip":"94118"},{"Location":"USF - WAR MEMORIAL GYM","Address":"2335 Golden Gate Ave Gym","City":"San Francisco","State":"CA","Zip":"94118"},{"Location":"WEATHERBY","Address":"650 Cabrillo St 8","City":"San Francisco","State":"CA","Zip":"94118"},{"Location":"Y & Y","Address":"914 Clement St","City":"San Francisco","State":"CA","Zip":"94118"},{"Location":"ZETTA SAN FRANCISCO REST","Address":"55 A 5th Ave","City":"San Francisco","State":"CA","Zip":"94118"}]