[{"Location":"ANTIVUA COFFEE SHOP","Address":"1131 Taraval St","City":"San Francisco","State":"CA","Zip":"94116"},{"Location":"DRAGON LOUNGE","Address":"1355 Taraval St","City":"San Francisco","State":"CA","Zip":"94116"},{"Location":"GRANDMA SALOONS","Address":"1016 Taraval St","City":"San Francisco","State":"CA","Zip":"94116"},{"Location":"HOT POT GARDEN","Address":"1055 Taraval St","City":"San Francisco","State":"CA","Zip":"94116"},{"Location":"LAGUNA HONDA HOSPITAL","Address":"375 Laguna Honda Blvd","City":"San Francisco","State":"CA","Zip":"94116"},{"Location":"PARKSIDE FARMERS MARKET","Address":"555 Taraval St","City":"San Francisco","State":"CA","Zip":"94116"},{"Location":"PARKSIDE TAVERN","Address":"1940 Taraval St","City":"San Francisco","State":"CA","Zip":"94116"},{"Location":"ST  IGNATIUS COLLEGE PREP","Address":"2001 37th Ave","City":"San Francisco","State":"CA","Zip":"94116"},{"Location":"TARAVAL PIZZA","Address":"1115 Taraval St","City":"San Francisco","State":"CA","Zip":"94116"},{"Location":"TD MULL PROP. DBA FOUR DEUCES","Address":"2319 Taraval St","City":"San Francisco","State":"CA","Zip":"94116"},{"Location":"THE SPOT","Address":"2325 Taraval St","City":"San Francisco","State":"CA","Zip":"94116"},{"Location":"TONIGHT INC","Address":"733 Taraval St","City":"San Francisco","State":"CA","Zip":"94116"}]