[{"Location":"24 HOUR FITNESS #547","Address":"2145 Market St","City":"San Francisco","State":"CA","Zip":"94114"},{"Location":"BRAZSHADO LLC","Address":"1316 Castro St","City":"San Francisco","State":"CA","Zip":"94114"},{"Location":"CATCH","Address":"2362 Market St","City":"San Francisco","State":"CA","Zip":"94114"},{"Location":"DAVID MURCHIE","Address":"4552 19th St","City":"San Francisco","State":"CA","Zip":"94114"},{"Location":"DUBLINER","Address":"3838 24th St","City":"San Francisco","State":"CA","Zip":"94114"},{"Location":"FORK CAFE","Address":"469 Castro St","City":"San Francisco","State":"CA","Zip":"94114"},{"Location":"FRESCA RESTAURANT","Address":"3945 24th St","City":"San Francisco","State":"CA","Zip":"94114"},{"Location":"HI TOPS","Address":"2247 Market St","City":"San Francisco","State":"CA","Zip":"94114"},{"Location":"LES NATALI","Address":"4121 18th St","City":"San Francisco","State":"CA","Zip":"94114"},{"Location":"LUCKY 13","Address":"2140 Market St","City":"San Francisco","State":"CA","Zip":"94114"},{"Location":"OZ PIZZA","Address":"508 Castro St","City":"San Francisco","State":"CA","Zip":"94114"},{"Location":"RAINBOW NAIL SPA","Address":"4023 24th St Floor","City":"San Francisco","State":"CA","Zip":"94114"},{"Location":"ROSENBERG DELI & MARKET","Address":"276 Noe St","City":"San Francisco","State":"CA","Zip":"94114"},{"Location":"SIMPLY UNIQUE NAILS","Address":"734 14th St 1","City":"San Francisco","State":"CA","Zip":"94114"},{"Location":"SPANISH ARCH LLC","Address":"1199 Church St","City":"San Francisco","State":"CA","Zip":"94114"},{"Location":"TACORGASMICO","Address":"2337 Market St","City":"San Francisco","State":"CA","Zip":"94114"},{"Location":"TAKARA SUSHI SF","Address":"4243 18th St","City":"San Francisco","State":"CA","Zip":"94114"},{"Location":"VALLEY TAVERN","Address":"4054 24th St","City":"San Francisco","State":"CA","Zip":"94114"},{"Location":"VOLKAN CEM CORP INC","Address":"499 Castro St","City":"San Francisco","State":"CA","Zip":"94114"},{"Location":"WASABI BISTRO","Address":"524 Castro St","City":"San Francisco","State":"CA","Zip":"94114"},{"Location":"ZODIAC CLUB LLC","Address":"718 14th St","City":"San Francisco","State":"CA","Zip":"94114"},{"Location":"24 HOUR FITNESS #547","Address":"2145 Market St","City":"San Francisco","State":"CA","Zip":"94114"},{"Location":"BRAZSHADO LLC","Address":"1316 Castro St","City":"San Francisco","State":"CA","Zip":"94114"},{"Location":"CATCH","Address":"2362 Market St","City":"San Francisco","State":"CA","Zip":"94114"},{"Location":"DAVID MURCHIE","Address":"4552 19th St","City":"San Francisco","State":"CA","Zip":"94114"},{"Location":"DUBLINER","Address":"3838 24th St","City":"San Francisco","State":"CA","Zip":"94114"},{"Location":"FORK CAFE","Address":"469 Castro St","City":"San Francisco","State":"CA","Zip":"94114"},{"Location":"FRESCA RESTAURANT","Address":"3945 24th St","City":"San Francisco","State":"CA","Zip":"94114"},{"Location":"HI TOPS","Address":"2247 Market St","City":"San Francisco","State":"CA","Zip":"94114"},{"Location":"LES NATALI","Address":"4121 18th St","City":"San Francisco","State":"CA","Zip":"94114"},{"Location":"LUCKY 13","Address":"2140 Market St","City":"San Francisco","State":"CA","Zip":"94114"},{"Location":"OZ PIZZA","Address":"508 Castro St","City":"San Francisco","State":"CA","Zip":"94114"},{"Location":"RAINBOW NAIL SPA","Address":"4023 24th St Floor","City":"San Francisco","State":"CA","Zip":"94114"},{"Location":"ROSENBERG DELI & MARKET","Address":"276 Noe St","City":"San Francisco","State":"CA","Zip":"94114"},{"Location":"SIMPLY UNIQUE NAILS","Address":"734 14th St 1","City":"San Francisco","State":"CA","Zip":"94114"},{"Location":"SPANISH ARCH LLC","Address":"1199 Church St","City":"San Francisco","State":"CA","Zip":"94114"},{"Location":"TAKARA SUSHI SF","Address":"4243 18th St","City":"San Francisco","State":"CA","Zip":"94114"},{"Location":"VALLEY TAVERN","Address":"4054 24th St","City":"San Francisco","State":"CA","Zip":"94114"},{"Location":"VOLKAN CEM CORP INC","Address":"499 Castro St","City":"San Francisco","State":"CA","Zip":"94114"},{"Location":"WASABI BISTRO","Address":"524 Castro St","City":"San Francisco","State":"CA","Zip":"94114"},{"Location":"ZODIAC CLUB LLC","Address":"718 14th St","City":"San Francisco","State":"CA","Zip":"94114"}]