[{"Location":"500 CLUB","Address":"500 Guerrero St","City":"San Francisco","State":"CA","Zip":"94110"},{"Location":"ARABIAN NIGHTS INC","Address":"2345 Mission St","City":"San Francisco","State":"CA","Zip":"94110"},{"Location":"ARGUELLO FINANCIAL CORP","Address":"2456 Mission St","City":"San Francisco","State":"CA","Zip":"94110"},{"Location":"BABY BLUES BBQ SAN FRANCISCO","Address":"3149 Mission St","City":"San Francisco","State":"CA","Zip":"94110"},{"Location":"BALOMPIE CAFE # 3","Address":"3801 Mission St","City":"San Francisco","State":"CA","Zip":"94110"},{"Location":"BALOMPIE CAFE #1","Address":"3349 18th St","City":"San Francisco","State":"CA","Zip":"94110"},{"Location":"BEAUTY BAR","Address":"2299 Mission St","City":"San Francisco","State":"CA","Zip":"94110"},{"Location":"BENDERS BAR & GRILL","Address":"806 S Van Ness Ave","City":"San Francisco","State":"CA","Zip":"94110"},{"Location":"BETHANY CENTER SENIOR HOUSING","Address":"580 Capp St","City":"San Francisco","State":"CA","Zip":"94110"},{"Location":"BISSAP BAOBAB","Address":"3372 19th St","City":"San Francisco","State":"CA","Zip":"94110"},{"Location":"CAFE  LABOHEMES INC","Address":"3318 24th St","City":"San Francisco","State":"CA","Zip":"94110"},{"Location":"CASANOVA LOUNGE","Address":"527 Valencia St","City":"San Francisco","State":"CA","Zip":"94110"},{"Location":"CAVA 22","Address":"3239 22nd St","City":"San Francisco","State":"CA","Zip":"94110"},{"Location":"CERVANTES GROCERY","Address":"3350 18th St","City":"San Francisco","State":"CA","Zip":"94110"},{"Location":"CHICO'S GRILL","Address":"3771 Mission St.","City":"San Francisco","State":"CA","Zip":"94110"},{"Location":"CITY SMOKING DIP SHOP","Address":"2196 Mission St","City":"San Francisco","State":"CA","Zip":"94110"},{"Location":"CLOONEYS","Address":"1401 Valencia St","City":"San Francisco","State":"CA","Zip":"94110"},{"Location":"CLUB 26 MIX","Address":"3024 Mission St","City":"San Francisco","State":"CA","Zip":"94110"},{"Location":"DOCS CLOCK","Address":"2575 Mission St","City":"San Francisco","State":"CA","Zip":"94110"},{"Location":"DOLORES' CORNER","Address":"1600 Dolores St","City":"San Francisco","State":"CA","Zip":"94110"},{"Location":"EL METATE RESTAURANT","Address":"2406 Bryant St","City":"San Francisco","State":"CA","Zip":"94110"},{"Location":"EL RIO","Address":"3158 Mission St","City":"San Francisco","State":"CA","Zip":"94110"},{"Location":"EL TREBOL BAR #3","Address":"3149 22nd St","City":"San Francisco","State":"CA","Zip":"94110"},{"Location":"EVENTS MANAGEMENT INC B","Address":"2720 17th St","City":"San Francisco","State":"CA","Zip":"94110"},{"Location":"FANTASTIC INTERNATIONAL SERVIC","Address":"2300 Mission St","City":"San Francisco","State":"CA","Zip":"94110"},{"Location":"FERGUSON #1728","Address":"121 Capp St","City":"San Francisco","State":"CA","Zip":"94110"},{"Location":"GASHEAD TAVERN","Address":"2351 Mission St","City":"San Francisco","State":"CA","Zip":"94110"},{"Location":"GEMINIS BARBER SHOP","Address":"2933 24th St","City":"San Francisco","State":"CA","Zip":"94110"},{"Location":"HONEYS HEART","Address":"2138 Folsom St","City":"San Francisco","State":"CA","Zip":"94110"},{"Location":"INNER MISSION","Address":"3349 20th St","City":"San Francisco","State":"CA","Zip":"94110"},{"Location":"IRATE IGUANA","Address":"2331 Mission St","City":"San Francisco","State":"CA","Zip":"94110"},{"Location":"JENNI AND JESSES RESTAURANT","Address":"3322 Mission St","City":"San Francisco","State":"CA","Zip":"94110"},{"Location":"KABABAYAN FAST FOOD","Address":"2706 Mission St","City":"San Francisco","State":"CA","Zip":"94110"},{"Location":"KQED","Address":"2601 Mariposa St","City":"San Francisco","State":"CA","Zip":"94110"},{"Location":"LA CORNETA","Address":"2731 Mission St","City":"San Francisco","State":"CA","Zip":"94110"},{"Location":"LA LONA SALVADORENA","Address":"2840 Mission St","City":"San Francisco","State":"CA","Zip":"94110"},{"Location":"LA MOVIDA","Address":"3066 24th St","City":"San Francisco","State":"CA","Zip":"94110"},{"Location":"LA RONDALLA","Address":"901 Valencia St","City":"San Francisco","State":"CA","Zip":"94110"},{"Location":"LA SANTANECA","Address":"3781 Mission St","City":"San Francisco","State":"CA","Zip":"94110"},{"Location":"LA SANTANECA","Address":"2815 Mission Street","City":"San Francisco","State":"CA","Zip":"94110"},{"Location":"LA SANTANECA DELA MISSION REST","Address":"2815 Mission St","City":"San Francisco","State":"CA","Zip":"94110"},{"Location":"LAS BRISAS DE ACAPULCO","Address":"3137 Mission St","City":"San Francisco","State":"CA","Zip":"94110"},{"Location":"LAS COCINERA","Address":"2341 Folsom St","City":"San Francisco","State":"CA","Zip":"94110"},{"Location":"LASZLO","Address":"2534 Mission St","City":"San Francisco","State":"CA","Zip":"94110"},{"Location":"LAUNDRY WORLD","Address":"2799 24th St","City":"San Francisco","State":"CA","Zip":"94110"},{"Location":"LIBERTIES","Address":"998 Guerrero St","City":"San Francisco","State":"CA","Zip":"94110"},{"Location":"LOS ANDES DELI","Address":"3254 23rd St","City":"San Francisco","State":"CA","Zip":"94110"},{"Location":"LOS PONCHOS RESTAURANT","Address":"3206 Mission St","City":"San Francisco","State":"CA","Zip":"94110"},{"Location":"LUCKY HORSESHOE","Address":"453 Cortland Ave","City":"San Francisco","State":"CA","Zip":"94110"},{"Location":"LYLYS BEAUTY AND BARBERY","Address":"3408 18th St","City":"San Francisco","State":"CA","Zip":"94110"},{"Location":"MCDONALD'S","Address":"2011 Mission St","City":"San Francisco","State":"CA","Zip":"94110"},{"Location":"MCDONALD'S RESTAURANT","Address":"2801 Mission St","City":"San Francisco","State":"CA","Zip":"94110"},{"Location":"MCMILLAN ELECTRIC","Address":"1515 S Van Ness Ave","City":"San Francisco","State":"CA","Zip":"94110"},{"Location":"MISSION BOWLING CLUB","Address":"3176 17th St","City":"San Francisco","State":"CA","Zip":"94110"},{"Location":"MISSION HILL SALOON","Address":"491 Potrero Ave","City":"San Francisco","State":"CA","Zip":"94110"},{"Location":"MISSION TIRES INC","Address":"3160 Mission St","City":"San Francisco","State":"CA","Zip":"94110"},{"Location":"NAPPER TANDY","Address":"3200 24th St","City":"San Francisco","State":"CA","Zip":"94110"},{"Location":"NENA RESTAURANT","Address":"3459 Mission St","City":"San Francisco","State":"CA","Zip":"94110"},{"Location":"ORTHOPEDIC  TRAUMA INST","Address":"2550 23rd St","City":"San Francisco","State":"CA","Zip":"94110"},{"Location":"PACIFIC GAS AND ELECTRIC","Address":"2270 Folsom St","City":"San Francisco","State":"CA","Zip":"94110"},{"Location":"PACIFIC GAS AND ELECTRIC","Address":"2180 Harrison St","City":"San Francisco","State":"CA","Zip":"94110"},{"Location":"PACIFIC GAS AND ELECTRIC 3","Address":"2180 Harrison St","City":"San Francisco","State":"CA","Zip":"94110"},{"Location":"PACIFIC GAS AND ELECTRIC1","Address":"2180 Harrison St 321","City":"San Francisco","State":"CA","Zip":"94110"},{"Location":"PACIFIC GAS AND ELECTRIC2","Address":"2180 Harrison St","City":"San Francisco","State":"CA","Zip":"94110"},{"Location":"PHOENIX BAR","Address":"811 Valencia St","City":"San Francisco","State":"CA","Zip":"94110"},{"Location":"POPS CLUB HOUSE LLC","Address":"2800 24th St","City":"San Francisco","State":"CA","Zip":"94110"},{"Location":"PUERTO ALEGRE","Address":"546 Valencia St","City":"San Francisco","State":"CA","Zip":"94110"},{"Location":"PUERTO ALEGRE 2","Address":"2950 25th St","City":"San Francisco","State":"CA","Zip":"94110"},{"Location":"RECE RIVER CORP","Address":"3388 24th St","City":"San Francisco","State":"CA","Zip":"94110"},{"Location":"RINCONSITO  SAL VACONOR","Address":"3829 Mission St","City":"San Francisco","State":"CA","Zip":"94110"},{"Location":"ROCK BAR","Address":"80 29th St","City":"San Francisco","State":"CA","Zip":"94110"},{"Location":"SAUSAGE GRILL ROSAMUNDE","Address":"2832 Mission St","City":"San Francisco","State":"CA","Zip":"94110"},{"Location":"SILVER STONE CAFE","Address":"3278 24th St","City":"San Francisco","State":"CA","Zip":"94110"},{"Location":"SOUTHERN PACIFIC BREWING","Address":"620 Treat Ave","City":"San Francisco","State":"CA","Zip":"94110"},{"Location":"SOUTHPAW BBQ","Address":"2170 Mission St","City":"San Francisco","State":"CA","Zip":"94110"},{"Location":"STUFFED LLC","Address":"2788 Mission St","City":"San Francisco","State":"CA","Zip":"94110"},{"Location":"SUSHI CLUB","Address":"71 Faith St","City":"San Francisco","State":"CA","Zip":"94110"},{"Location":"T-LISH II LLC","Address":"741 Valencia St","City":"San Francisco","State":"CA","Zip":"94110"},{"Location":"TACO LOCO","Address":"3274 24th St","City":"San Francisco","State":"CA","Zip":"94110"},{"Location":"TAMARIZ & ASSOCIATES","Address":"2998 Mission St","City":"San Francisco","State":"CA","Zip":"94110"},{"Location":"THE CHAPEL","Address":"777 Valencia St","City":"San Francisco","State":"CA","Zip":"94110"},{"Location":"THE KNOCKOUT","Address":"3223 Mission St","City":"San Francisco","State":"CA","Zip":"94110"},{"Location":"THE WASH PLACE","Address":"3377 Mission St","City":"San Francisco","State":"CA","Zip":"94110"},{"Location":"TWIN BROTHERS AUTO GLASS","Address":"3258 17th St","City":"San Francisco","State":"CA","Zip":"94110"},{"Location":"ULIMITED HAIR CARE","Address":"605 Cortland Ave","City":"San Francisco","State":"CA","Zip":"94110"},{"Location":"UNHAPPY THE HEDGEHOG","Address":"2323 Mission St","City":"San Francisco","State":"CA","Zip":"94110"},{"Location":"UNIVERSAL BAKERY","Address":"3458 Mission St","City":"San Francisco","State":"CA","Zip":"94110"},{"Location":"UPTOWN","Address":"200 Capp St","City":"San Francisco","State":"CA","Zip":"94110"},{"Location":"VALLARTA MISSION RESTAUR","Address":"2022 Mission St","City":"San Francisco","State":"CA","Zip":"94110"},{"Location":"VALLARTA RESTAURANT","Address":"3033 24th St","City":"San Francisco","State":"CA","Zip":"94110"},{"Location":"WELLS FARGO BANK","Address":"2595 Mission St","City":"San Francisco","State":"CA","Zip":"94110"},{"Location":"WEST OF PECOS","Address":"550 Valencia St","City":"San Francisco","State":"CA","Zip":"94110"}]