[{"Location":"PV DRAKE","Address":"Pier 9 East End","City":"Sab Francisco","State":"CA","Zip":"94111"},{"Location":"1492 FILMS","Address":"560 Commercial St 400","City":"San Francisco","State":"CA","Zip":"94111"},{"Location":"24 HOUR FITNESS #521","Address":"100 California St","City":"San Francisco","State":"CA","Zip":"94111"},{"Location":"733 FRONT ST ASSOCIATION LP","Address":"733 Front St","City":"San Francisco","State":"CA","Zip":"94111"},{"Location":"921 FRONT STREET LLC","Address":"921 Front St","City":"San Francisco","State":"CA","Zip":"94111"},{"Location":"ABACUS GROUP LLC","Address":"101 California St 3610","City":"San Francisco","State":"CA","Zip":"94111"},{"Location":"ABC","Address":"601 Montgomery St 1900","City":"San Francisco","State":"CA","Zip":"94111"},{"Location":"ABERNATHY MACGREOGOR","Address":"500 Sansome St 370","City":"San Francisco","State":"CA","Zip":"94111"},{"Location":"ABS CAPITAL PARTNERS","Address":"1700 Montgomery St 440","City":"San Francisco","State":"CA","Zip":"94111"},{"Location":"ACATRAZ LANDING CAFE","Address":"Pier 33 One The Embarcad","City":"San Francisco","State":"CA","Zip":"94111"},{"Location":"ACLU%2FIRP","Address":"39 Drumm St","City":"San Francisco","State":"CA","Zip":"94111"},{"Location":"ADMIRALS BANK","Address":"505 Sansome St 20","City":"San Francisco","State":"CA","Zip":"94111"},{"Location":"AHMET'S BARBER & HAIRSTYLING","Address":"201 Sacramento St","City":"San Francisco","State":"CA","Zip":"94111"},{"Location":"ALCATRAZ LANDING CAFE","Address":"Pier 31","City":"San Francisco","State":"CA","Zip":"94111"},{"Location":"ALECTA REAL ESTATE INVES","Address":"4 Embarcadero Ctr","City":"San Francisco","State":"CA","Zip":"94111"},{"Location":"ALLEN MATKINS","Address":"3 Embarcadero Ctr 12th","City":"San Francisco","State":"CA","Zip":"94111"},{"Location":"ALLIED WORLD ASSURANCE CO","Address":"100 Pine St 2100","City":"San Francisco","State":"CA","Zip":"94111"},{"Location":"ALLISON PARTNERS","Address":"505 Sansome St 7","City":"San Francisco","State":"CA","Zip":"94111"},{"Location":"AMB PROPERTY%2C L.P.","Address":"Pier 1 Bay 1 .","City":"San Francisco","State":"CA","Zip":"94111"},{"Location":"AMERICAN REINSURANCE COMPANY","Address":"1 Front St 1950","City":"San Francisco","State":"CA","Zip":"94111"},{"Location":"AMERICAN SHARED HOSPITAL SERVI","Address":"4 Embarcadero Ctr 320","City":"San Francisco","State":"CA","Zip":"94111"},{"Location":"ANGELO GORDON AND COMPANY","Address":"101 California St 2820","City":"San Francisco","State":"CA","Zip":"94111"},{"Location":"APERTURE","Address":"5 Pier The Embarcadero 102","City":"San Francisco","State":"CA","Zip":"94111"},{"Location":"ARGO GROUP","Address":"101 California St 2800","City":"San Francisco","State":"CA","Zip":"94111"},{"Location":"ARTISAN PARTNERS","Address":"1 Maritime Plz 14","City":"San Francisco","State":"CA","Zip":"94111"},{"Location":"ARTISAN PARTNERS LP","Address":"100 Pine St 2950","City":"San Francisco","State":"CA","Zip":"94111"},{"Location":"ASCEND CAPITAL","Address":"50 California St 430","City":"San Francisco","State":"CA","Zip":"94111"},{"Location":"ASHFIELD CAPITAL PARTNERS%2C LLC","Address":"750 Battery St 600","City":"San Francisco","State":"CA","Zip":"94111"},{"Location":"ATEL  FINANCIAL SERVICES","Address":"600 Montgomery St 9","City":"San Francisco","State":"CA","Zip":"94111"},{"Location":"AUTO DESK 1","Address":"9 Pier","City":"San Francisco","State":"CA","Zip":"94111"},{"Location":"AVALON GLOBAL ASSET MGMT","Address":"100 Pine St 1900","City":"San Francisco","State":"CA","Zip":"94111"},{"Location":"AXIS INSURANCE","Address":"101 California St 3070","City":"San Francisco","State":"CA","Zip":"94111"},{"Location":"B RILEY & CO LLC","Address":"201 California St 640","City":"San Francisco","State":"CA","Zip":"94111"},{"Location":"BAIN AND COMPANY","Address":"1 Embarcadero Ctr 3600","City":"San Francisco","State":"CA","Zip":"94111"},{"Location":"BAIRD","Address":"50 California St 450","City":"San Francisco","State":"CA","Zip":"94111"},{"Location":"BAKER AVE","Address":"301 Battery St 2nd","City":"San Francisco","State":"CA","Zip":"94111"},{"Location":"BAKER MCKENZIE","Address":"2 Embarcadero Ctr 11th","City":"San Francisco","State":"CA","Zip":"94111"},{"Location":"BALYASNY ASSET MGMT","Address":"101 California St 4560","City":"San Francisco","State":"CA","Zip":"94111"},{"Location":"BANK OF AMERICA CA5-332-SMTV","Address":"101 California St","City":"San Francisco","State":"CA","Zip":"94111"},{"Location":"BANK OF NEW YORK MELLON","Address":"100 Pine St 32","City":"San Francisco","State":"CA","Zip":"94111"},{"Location":"BARBACCO ENO TRATTORIA","Address":"220 California St","City":"San Francisco","State":"CA","Zip":"94111"},{"Location":"BARTKO ZANKEL TARRANT","Address":"1 Embarcadero Ctr 800","City":"San Francisco","State":"CA","Zip":"94111"},{"Location":"BASK","Address":"42 Columbus Ave","City":"San Francisco","State":"CA","Zip":"94111"},{"Location":"BASSI EDLIN HUIE BLUM","Address":"500 Washington St 700","City":"San Francisco","State":"CA","Zip":"94111"},{"Location":"BAY CITY CAPITAL LLC","Address":"750 Battery St 400","City":"San Francisco","State":"CA","Zip":"94111"},{"Location":"BAY DELTA MARITIME","Address":"Pier 17 Embarkadero","City":"San Francisco","State":"CA","Zip":"94111"},{"Location":"BAY EQ","Address":"100 California St 1100","City":"San Francisco","State":"CA","Zip":"94111"},{"Location":"BB&T CAP MARKETS","Address":"1 Embarcadero Ctr 2480","City":"San Francisco","State":"CA","Zip":"94111"},{"Location":"BBR PARTNERS LLC","Address":"3 Embarcadero Ctr 1440","City":"San Francisco","State":"CA","Zip":"94111"},{"Location":"BENTLY RESERVE","Address":"301 Battery St","City":"San Francisco","State":"CA","Zip":"94111"},{"Location":"BERMAN DEVALERIO PEASE & TABAC","Address":"One Califonia St 900","City":"San Francisco","State":"CA","Zip":"94111"},{"Location":"BESPHIL & CO.","Address":"160 Pine St 550","City":"San Francisco","State":"CA","Zip":"94111"},{"Location":"BESSEMER TRUST","Address":"101 California St 2500","City":"San Francisco","State":"CA","Zip":"94111"},{"Location":"BEYOND PIX PRODUCTION SERVICE","Address":"950 Battery St","City":"San Francisco","State":"CA","Zip":"94111"},{"Location":"BIG HEART BRANDS","Address":"300 Clay St 2","City":"San Francisco","State":"CA","Zip":"94111"},{"Location":"BLANC AND OTUS","Address":"1001 Front St","City":"San Francisco","State":"CA","Zip":"94111"},{"Location":"BLEY AND BLEY","Address":"555 Montgomery St 1205","City":"San Francisco","State":"CA","Zip":"94111"},{"Location":"BLOOMBERG LP","Address":"Pier 3 The Embarcadero","City":"San Francisco","State":"CA","Zip":"94111"},{"Location":"BNP PARIBAS","Address":"1 Front St F23","City":"San Francisco","State":"CA","Zip":"94111"},{"Location":"BOCAGE CAPITAL","Address":"101 California St 4250","City":"San Francisco","State":"CA","Zip":"94111"},{"Location":"BOSTON CONSULTING GROUP","Address":"2 Embarcadero Ctr 2400","City":"San Francisco","State":"CA","Zip":"94111"},{"Location":"BOSTON PROPERTIES  INC.","Address":"2 Embarcadero Ctr","City":"San Francisco","State":"CA","Zip":"94111"},{"Location":"BOSTON PROPERTIES CONFERENCE","Address":"4 Embarcadero Ctr 1","City":"San Francisco","State":"CA","Zip":"94111"},{"Location":"BRAM LLC","Address":"50 California St 14fl","City":"San Francisco","State":"CA","Zip":"94111"},{"Location":"BRIAN SPIERS DEVELOPMENT","Address":"388 Market St 940","City":"San Francisco","State":"CA","Zip":"94111"},{"Location":"BROGEN AND SON","Address":"425 Battery St C","City":"San Francisco","State":"CA","Zip":"94111"},{"Location":"BRUNSWICK GROUP","Address":"1 Front St","City":"San Francisco","State":"CA","Zip":"94111"},{"Location":"BTIG","Address":"600 Montgomery St 6","City":"San Francisco","State":"CA","Zip":"94111"},{"Location":"BURNS & WILCOX","Address":"100 Pine St 23","City":"San Francisco","State":"CA","Zip":"94111"},{"Location":"BUSINESS WIRE","Address":"101 California St 20th","City":"San Francisco","State":"CA","Zip":"94111"},{"Location":"CAFE ME","Address":"500 Washington St","City":"San Francisco","State":"CA","Zip":"94111"},{"Location":"CAFE PRAGUE","Address":"424 Merchant St","City":"San Francisco","State":"CA","Zip":"94111"},{"Location":"CAFE TERMINUS","Address":"16 California St","City":"San Francisco","State":"CA","Zip":"94111"},{"Location":"CALLAN ASSOCIATES  INC","Address":"600 Montgomery St 8","City":"San Francisco","State":"CA","Zip":"94111"},{"Location":"CALVO FISHER & JACOB LLP","Address":"555 Montgomery St 1155","City":"San Francisco","State":"CA","Zip":"94111"},{"Location":"CAMBERVIEW PARTNERS","Address":"2 Embarcadero Ctr 2150","City":"San Francisco","State":"CA","Zip":"94111"},{"Location":"CAPITAL ALTERNATIVES","Address":"300 Clay St 13","City":"San Francisco","State":"CA","Zip":"94111"},{"Location":"CARR WORKPLACES","Address":"4 Embarcadero Ctr 1400","City":"San Francisco","State":"CA","Zip":"94111"},{"Location":"CB RICHARD ELLIS","Address":"101 California St 4400","City":"San Francisco","State":"CA","Zip":"94111"},{"Location":"CHARLES SCHWAB & COMPANY #812","Address":"200 California St","City":"San Francisco","State":"CA","Zip":"94111"},{"Location":"CHARLES SCHWAB CC812","Address":"200 California St","City":"San Francisco","State":"CA","Zip":"94111"},{"Location":"CHEMOIL CORPORATION","Address":"4 Embarcadero Ctr Fl34","City":"San Francisco","State":"CA","Zip":"94111"},{"Location":"CLEAR ROCK CAPITAL","Address":"1 Ferry Building 255","City":"San Francisco","State":"CA","Zip":"94111"},{"Location":"CLEVENGER","Address":"505 Montgomery St 625","City":"San Francisco","State":"CA","Zip":"94111"},{"Location":"CLSA AMERICAS LLC","Address":"50 California St 850","City":"San Francisco","State":"CA","Zip":"94111"},{"Location":"CNN AMERICA  INC.","Address":"50 California St 950","City":"San Francisco","State":"CA","Zip":"94111"},{"Location":"COIT GROUP","Address":"500 Sansome St 504","City":"San Francisco","State":"CA","Zip":"94111"},{"Location":"COLLIERS INTERNATIONAL","Address":"50 California St 1900","City":"San Francisco","State":"CA","Zip":"94111"},{"Location":"CONIFER FUND SERVICES","Address":"1 Ferry Building 255","City":"San Francisco","State":"CA","Zip":"94111"},{"Location":"CONSULATE GENERAL OF IRELAND","Address":"100 Pine St 3350","City":"San Francisco","State":"CA","Zip":"94111"},{"Location":"COOLEY  INC.","Address":"101 California St 5th","City":"San Francisco","State":"CA","Zip":"94111"},{"Location":"COOPER WHITE & COOPER LLP","Address":"201 California St","City":"San Francisco","State":"CA","Zip":"94111"},{"Location":"CORNERSTONE RESEARCH","Address":"2 Embarcadero Ctr 20th","City":"San Francisco","State":"CA","Zip":"94111"},{"Location":"COVINGTON & BURLING","Address":"1 Front St 35","City":"San Francisco","State":"CA","Zip":"94111"},{"Location":"CRITERION CAPITAL MGT","Address":"4 Embarcadero Ctr 34th","City":"San Francisco","State":"CA","Zip":"94111"},{"Location":"CRONOS CAPITAL CORP","Address":"1 Front St 925","City":"San Francisco","State":"CA","Zip":"94111"},{"Location":"CRT CAPITAL GROUP","Address":"101 California St 2070","City":"San Francisco","State":"CA","Zip":"94111"},{"Location":"CRUMP INSURANCE SERVICES","Address":"2 Embarcadero Ctr 1600","City":"San Francisco","State":"CA","Zip":"94111"},{"Location":"CUMMING","Address":"475 Sansome St 520","City":"San Francisco","State":"CA","Zip":"94111"},{"Location":"CUSHMAN & WAKEFIELD","Address":"505 Sansome St 850","City":"San Francisco","State":"CA","Zip":"94111"},{"Location":"CUSHMAN WAKEFIELD OF CALI%2C INC","Address":"600 Montgomery St 200","City":"San Francisco","State":"CA","Zip":"94111"},{"Location":"CVC","Address":"300 Clay St 16","City":"San Francisco","State":"CA","Zip":"94111"},{"Location":"DAVIS WRIGHT TREMAINE","Address":"505 Montgomery St 800","City":"San Francisco","State":"CA","Zip":"94111"},{"Location":"DEAN BRADLEY OSBORNE","Address":"1 Embarcadero Ctr 3700","City":"San Francisco","State":"CA","Zip":"94111"},{"Location":"DEL MONTE FOODS","Address":"300 Clay St 10","City":"San Francisco","State":"CA","Zip":"94111"},{"Location":"DEUTSCHE BANK","Address":"101 California St 24th","City":"San Francisco","State":"CA","Zip":"94111"},{"Location":"DEUTSCHE BANK","Address":"101 California St 45th","City":"San Francisco","State":"CA","Zip":"94111"},{"Location":"DEUTSCHE BANK","Address":"101 California St 47th","City":"San Francisco","State":"CA","Zip":"94111"},{"Location":"DEUTSCHE BANK","Address":"101 California St 48th","City":"San Francisco","State":"CA","Zip":"94111"},{"Location":"DEUTSCHE BANK","Address":"101 California St 46th","City":"San Francisco","State":"CA","Zip":"94111"},{"Location":"DIAGEO","Address":"1160 Battery St","City":"San Francisco","State":"CA","Zip":"94111"},{"Location":"DIGITAL REALTY TRUST","Address":"4 Embarcadero Ctr 3200","City":"San Francisco","State":"CA","Zip":"94111"},{"Location":"DIMOND FOODS","Address":"600 Montgomery St 13","City":"San Francisco","State":"CA","Zip":"94111"},{"Location":"DOW JONES","Address":"201 California St","City":"San Francisco","State":"CA","Zip":"94111"},{"Location":"DPR CONSTRUCTION INC","Address":"945 Front St","City":"San Francisco","State":"CA","Zip":"94111"},{"Location":"DRAWBRIDGE PARTNERS LLC","Address":"3 Embarcadero Ctr 2310","City":"San Francisco","State":"CA","Zip":"94111"},{"Location":"DTZ","Address":"1 Front St 3025","City":"San Francisco","State":"CA","Zip":"94111"},{"Location":"DUNHILL PARTNERS WEST","Address":"388 Market St 854","City":"San Francisco","State":"CA","Zip":"94111"},{"Location":"E Z 5","Address":"682 Commercial St","City":"San Francisco","State":"CA","Zip":"94111"},{"Location":"EAST WEST BANK","Address":"555 Montgomery St 14fl","City":"San Francisco","State":"CA","Zip":"94111"},{"Location":"EASTDIL SECURED","Address":"101 California St 2950","City":"San Francisco","State":"CA","Zip":"94111"},{"Location":"ENABLE GLOBAL LLC","Address":"1 Ferry Building 255l","City":"San Francisco","State":"CA","Zip":"94111"},{"Location":"ENGMANN OPTIONS INC","Address":"1 Embarcadero Ctr 1150","City":"San Francisco","State":"CA","Zip":"94111"},{"Location":"ENUDURANCE COMPANY","Address":"1 Union St 210","City":"San Francisco","State":"CA","Zip":"94111"},{"Location":"ESPN SALES & MARKETING","Address":"900 Front St%2C Att Riza S","City":"San Francisco","State":"CA","Zip":"94111"},{"Location":"EURO RSCG SAN FRAN","Address":"1725 Montgomery St 3","City":"San Francisco","State":"CA","Zip":"94111"},{"Location":"EVB INC","Address":"55 Union St","City":"San Francisco","State":"CA","Zip":"94111"},{"Location":"EVERCORE PARTNERS SERVIC","Address":"3 Embarcadero Ctr 1450","City":"San Francisco","State":"CA","Zip":"94111"},{"Location":"EVOLUTION MARKETS","Address":"101 California St 2750","City":"San Francisco","State":"CA","Zip":"94111"},{"Location":"EZREZ SOFTWARE","Address":"601 Montgomery St 17","City":"San Francisco","State":"CA","Zip":"94111"},{"Location":"FARALLON CAPITAL MANAGEMENT","Address":"300 Clay St 21","City":"San Francisco","State":"CA","Zip":"94111"},{"Location":"FERRY PLAZA WINE MERCHAN","Address":"1 Ferry Building 23","City":"San Francisco","State":"CA","Zip":"94111"},{"Location":"FILLMORE CAPITAL","Address":"4 Embarcadero Ctr 710","City":"San Francisco","State":"CA","Zip":"94111"},{"Location":"FINN PARTNERS INC","Address":"388 Market St","City":"San Francisco","State":"CA","Zip":"94111"},{"Location":"FIRST AMERICAN TITLE","Address":"1 Embarcadero Ctr 250","City":"San Francisco","State":"CA","Zip":"94111"},{"Location":"FIRST REPUBLIC BANK","Address":"111 Pine St","City":"San Francisco","State":"CA","Zip":"94111"},{"Location":"FIRST REPUBLIC BANK","Address":"1 Front St 29","City":"San Francisco","State":"CA","Zip":"94111"},{"Location":"FISHER & PHILLIPS","Address":"1 Embarcadero Ctr 2050","City":"San Francisco","State":"CA","Zip":"94111"},{"Location":"FITNESS ANYWHERE","Address":"755 Sansome St","City":"San Francisco","State":"CA","Zip":"94111"},{"Location":"FMV OPINIONS%2C INC","Address":"1 Front St 1050","City":"San Francisco","State":"CA","Zip":"94111"},{"Location":"FOG CITY DINER","Address":"1300 Battery St","City":"San Francisco","State":"CA","Zip":"94111"},{"Location":"FORMS DIRECT","Address":"8 California St 701","City":"San Francisco","State":"CA","Zip":"94111"},{"Location":"FRIEDMAN FLEISCHER & LOWE","Address":"1 Maritime Plz 2200","City":"San Francisco","State":"CA","Zip":"94111"},{"Location":"FTI CONSULTING","Address":"1 Front St","City":"San Francisco","State":"CA","Zip":"94111"},{"Location":"FUZIO UNIVERSAL BISTRO","Address":"1 Embarcadero Ctr","City":"San Francisco","State":"CA","Zip":"94111"},{"Location":"GALLUP INC.","Address":"101 California St 3000","City":"San Francisco","State":"CA","Zip":"94111"},{"Location":"GCI","Address":"825 Battery St","City":"San Francisco","State":"CA","Zip":"94111"},{"Location":"GENERAL ELECTRIC COMPANY","Address":"101 California St 1500","City":"San Francisco","State":"CA","Zip":"94111"},{"Location":"GENSTAR CAPITAL","Address":"4 Embarcadero Ctr 1900","City":"San Francisco","State":"CA","Zip":"94111"},{"Location":"GOLDEN GATEWAY TEN & SWIM CLUB","Address":"370 Drumm St","City":"San Francisco","State":"CA","Zip":"94111"},{"Location":"GOODWIN PROCTER LLP","Address":"3 Embarcadero Ctr 24th","City":"San Francisco","State":"CA","Zip":"94111"},{"Location":"GOODYEAR PETERSON","Address":"100 Pine St 1525","City":"San Francisco","State":"CA","Zip":"94111"},{"Location":"GP BULLHUND","Address":"1 Maritime Plz 1620","City":"San Francisco","State":"CA","Zip":"94111"},{"Location":"GRANT THORNTON LLP","Address":"101 California St 2700","City":"San Francisco","State":"CA","Zip":"94111"},{"Location":"GREENBERG TRAURIG","Address":"4 Embarcadero Ctr 30th","City":"San Francisco","State":"CA","Zip":"94111"},{"Location":"GROSVENOR","Address":"1 California St 25","City":"San Francisco","State":"CA","Zip":"94111"},{"Location":"GYPHON","Address":"300 Clay St 23","City":"San Francisco","State":"CA","Zip":"94111"},{"Location":"HAHN CAPITAL MANAGEMENT","Address":"601 Montgomery St 840","City":"San Francisco","State":"CA","Zip":"94111"},{"Location":"HAIGHT BROWN & BONESTEEL","Address":"3 Embarcadero Ctr 200","City":"San Francisco","State":"CA","Zip":"94111"},{"Location":"HALL CAPITAL PARTNERS","Address":"300 Clay St 13","City":"San Francisco","State":"CA","Zip":"94111"},{"Location":"HAMILTON LANE","Address":"200 California St","City":"San Francisco","State":"CA","Zip":"94111"},{"Location":"HARRINGTON'S PUB","Address":"245 Front St","City":"San Francisco","State":"CA","Zip":"94111"},{"Location":"HARVEY SISKIND LLP","Address":"4 Embarcadero Ctr 3950","City":"San Francisco","State":"CA","Zip":"94111"},{"Location":"HAWKINS DELAFIELD & WOOD","Address":"1 Embarcadero Ctr 3820","City":"San Francisco","State":"CA","Zip":"94111"},{"Location":"HEADLANDS TECHNOLOGIES","Address":"4 Embarcadero Ctr 3680","City":"San Francisco","State":"CA","Zip":"94111"},{"Location":"HEAT","Address":"1100 Sansome St","City":"San Francisco","State":"CA","Zip":"94111"},{"Location":"HELLMAN & FRIEDMAN LLC","Address":"300 Clay St 12","City":"San Francisco","State":"CA","Zip":"94111"},{"Location":"HINES","Address":"101 California St 919","City":"San Francisco","State":"CA","Zip":"94111"},{"Location":"HINES INTERESTS","Address":"101 California St 1000","City":"San Francisco","State":"CA","Zip":"94111"},{"Location":"HINSHAW & CULBERTSON","Address":"1 California St 18","City":"San Francisco","State":"CA","Zip":"94111"},{"Location":"HISCOX INC.","Address":"101 California St 1950","City":"San Francisco","State":"CA","Zip":"94111"},{"Location":"HOGAN & HARTSON LLP","Address":"3 Embarcadero Ctr 15flr","City":"San Francisco","State":"CA","Zip":"94111"},{"Location":"HOLLAND & KNIGHT LLP","Address":"50 California St","City":"San Francisco","State":"CA","Zip":"94111"},{"Location":"HOLLIDAY FENOGLIO FOWLER","Address":"100 California St 720","City":"San Francisco","State":"CA","Zip":"94111"},{"Location":"HOME STREET BANK","Address":"50 California St 2500","City":"San Francisco","State":"CA","Zip":"94111"},{"Location":"HORNBLOWER CRUISES 2","Address":"Pier 3 Hornblower Landing","City":"San Francisco","State":"CA","Zip":"94111"},{"Location":"HORNBLOWER CRUISES 3","Address":"Pier 3 Hornblower Landing","City":"San Francisco","State":"CA","Zip":"94111"},{"Location":"HORSLEY BRIDGE PARTNERS","Address":"505 Montgomery St 21","City":"San Francisco","State":"CA","Zip":"94111"},{"Location":"HOSIE RICE LLP","Address":"600 Montgomery St 34","City":"San Francisco","State":"CA","Zip":"94111"},{"Location":"HSBC BANK #819267","Address":"601 Montgomery St","City":"San Francisco","State":"CA","Zip":"94111"},{"Location":"HSBC SECURITIES #272110","Address":"601 Montgomery St 1095","City":"San Francisco","State":"CA","Zip":"94111"},{"Location":"HYATT REGENCY - SAN FRANCISCO","Address":"5 Embarcadero Ctr","City":"San Francisco","State":"CA","Zip":"94111"},{"Location":"HYATT REGENCY SF FITNESS CLUB","Address":"5 Embarcadero Ctr","City":"San Francisco","State":"CA","Zip":"94111"},{"Location":"IIMPERIAL CAPITAL","Address":"1 California St 3025","City":"San Francisco","State":"CA","Zip":"94111"},{"Location":"IL FORNAIO SAN FRANCISCO","Address":"1265 Battery St","City":"San Francisco","State":"CA","Zip":"94111"},{"Location":"INDUS CAPITAL PARTNERS","Address":"300 Clay St 1950","City":"San Francisco","State":"CA","Zip":"94111"},{"Location":"INTERGO INSURANCE BROKER","Address":"1 California St","City":"San Francisco","State":"CA","Zip":"94111"},{"Location":"INTERIOR ARCHITECTS","Address":"500 Sansome St 8thfl","City":"San Francisco","State":"CA","Zip":"94111"},{"Location":"INVESCO","Address":"101 California St 1900","City":"San Francisco","State":"CA","Zip":"94111"},{"Location":"IRONSHORE HOLDINGS","Address":"Suite 148 3 Embarcadero","City":"San Francisco","State":"CA","Zip":"94111"},{"Location":"ISS INC","Address":"201 California St 610","City":"San Francisco","State":"CA","Zip":"94111"},{"Location":"JACKSON SQUARE PARTNERS","Address":"101 California St 3750","City":"San Francisco","State":"CA","Zip":"94111"},{"Location":"JEFFER MANGELS BUTLER","Address":"2 Embarcadero Ctr 5fl","City":"San Francisco","State":"CA","Zip":"94111"},{"Location":"JONES LANG LASALLE","Address":"1 Front St 1200","City":"San Francisco","State":"CA","Zip":"94111"},{"Location":"JONES LANG LASALLE","Address":"1 Front St 960","City":"San Francisco","State":"CA","Zip":"94111"},{"Location":"K & L GATES LLP","Address":"4 Embarcadero Ctr 1200","City":"San Francisco","State":"CA","Zip":"94111"},{"Location":"KBTF","Address":"101 California St 23","City":"San Francisco","State":"CA","Zip":"94111"},{"Location":"KEKER & VAN NEST","Address":"633 Battery St","City":"San Francisco","State":"CA","Zip":"94111"},{"Location":"KENNEY AND MARKOWITZ","Address":"230 California St 600","City":"San Francisco","State":"CA","Zip":"94111"},{"Location":"KETCHUM COMMUNICATIONS","Address":"1050 Battery St","City":"San Francisco","State":"CA","Zip":"94111"},{"Location":"KEVIN BRENNAN","Address":"1 Front St 12fl","City":"San Francisco","State":"CA","Zip":"94111"},{"Location":"KHAZANAH","Address":"101 California St 4550","City":"San Francisco","State":"CA","Zip":"94111"},{"Location":"KIKKOMAN SALES USA INC","Address":"50 California St 3600","City":"San Francisco","State":"CA","Zip":"94111"},{"Location":"KILPATRICK TOWNSEND LLP","Address":"2 Embarcadero Ctr 8thfl","City":"San Francisco","State":"CA","Zip":"94111"},{"Location":"KORET FOUNDATION","Address":"611 Front St","City":"San Francisco","State":"CA","Zip":"94111"},{"Location":"KPIX CBS - 5","Address":"855 Battery St","City":"San Francisco","State":"CA","Zip":"94111"},{"Location":"KRIEG KELLER SLOAN REILLEY & R","Address":"555 Montgomery St 17","City":"San Francisco","State":"CA","Zip":"94111"},{"Location":"KRON-TV NEWS","Address":"900 Front St","City":"San Francisco","State":"CA","Zip":"94111"},{"Location":"KTNC TV 42 AZTECA AMERICA","Address":"1700 Montgomery St 1775","City":"San Francisco","State":"CA","Zip":"94111"},{"Location":"LA MAR CEBICHERIA PERUANA","Address":"Pier Pier 1 Half  The Emarque","City":"San Francisco","State":"CA","Zip":"94111"},{"Location":"LAMOND CAPITAL PARTNERS LLC","Address":"50 California St 1330","City":"San Francisco","State":"CA","Zip":"94111"},{"Location":"LANDOR ASSOCIATES","Address":"1001 Front St","City":"San Francisco","State":"CA","Zip":"94111"},{"Location":"LANE MCVICKER LLC","Address":"1 Embarcadero Ctr 2310","City":"San Francisco","State":"CA","Zip":"94111"},{"Location":"LANGAN TREADWELL ROLLO","Address":"555 Montgomery St 1300","City":"San Francisco","State":"CA","Zip":"94111"},{"Location":"LANTERN INVESTMENTS","Address":"111 Pine St 1215","City":"San Francisco","State":"CA","Zip":"94111"},{"Location":"LATHAM & WATKINS","Address":"505 Montgomery St 1900","City":"San Francisco","State":"CA","Zip":"94111"},{"Location":"LATHAM WATKINS","Address":"505 Montgomery St 2000","City":"San Francisco","State":"CA","Zip":"94111"},{"Location":"LATTICE STRATEGIES LLC","Address":"1 Embarcadero Ctr 2350","City":"San Francisco","State":"CA","Zip":"94111"},{"Location":"LAZARD ASSET MANAGEMENT","Address":"3 Embarcadero Ctr 1610","City":"San Francisco","State":"CA","Zip":"94111"},{"Location":"LE MERIDIEN (0038136)","Address":"333 Battery St","City":"San Francisco","State":"CA","Zip":"94111"},{"Location":"LEERINK PARTNERS LLC","Address":"255 California St 12f","City":"San Francisco","State":"CA","Zip":"94111"},{"Location":"LEGATO CAPITAL MANAGEMENT","Address":"111 Pine St 1700","City":"San Francisco","State":"CA","Zip":"94111"},{"Location":"LEVEL 3 COMMUNICATIONS","Address":"1 California St 250","City":"San Francisco","State":"CA","Zip":"94111"},{"Location":"LEVI STRAUSS & CO #2","Address":"1155 Battery St","City":"San Francisco","State":"CA","Zip":"94111"},{"Location":"LEVI STRAUSS & CO.","Address":"1155 Battery St","City":"San Francisco","State":"CA","Zip":"94111"},{"Location":"LINK TV","Address":"901 Battery St 200","City":"San Francisco","State":"CA","Zip":"94111"},{"Location":"LINQUIDNET HOLDINGS INC","Address":"300 Clay St 19","City":"San Francisco","State":"CA","Zip":"94111"},{"Location":"LOUIE & WONG%2C LLP","Address":"425 Washington St 300","City":"San Francisco","State":"CA","Zip":"94111"},{"Location":"LOW  BALL & LYNCH","Address":"505 Montgomery St 7th","City":"San Francisco","State":"CA","Zip":"94111"},{"Location":"LOW INCOME INVESTMENT FUND","Address":"100 Pine St 1800","City":"San Francisco","State":"CA","Zip":"94111"},{"Location":"MARKEL","Address":"201 California St 1450","City":"San Francisco","State":"CA","Zip":"94111"},{"Location":"MARKET BAR PARTNERS","Address":"1 Ferry Building 36","City":"San Francisco","State":"CA","Zip":"94111"},{"Location":"MASERGY COMMUNICATIONS","Address":"601 Montgomery St 2010","City":"San Francisco","State":"CA","Zip":"94111"},{"Location":"MASON CAPITAL","Address":"1 Maritime Plz 1104","City":"San Francisco","State":"CA","Zip":"94111"},{"Location":"MATTHES CAPITOL MANAGEM","Address":"300 Clay St 15","City":"San Francisco","State":"CA","Zip":"94111"},{"Location":"MC CANN WORLDGROUP","Address":"215 Leidesdorff St","City":"San Francisco","State":"CA","Zip":"94111"},{"Location":"MCCANN-ERICKSON","Address":"653 Front St 22flr","City":"San Francisco","State":"CA","Zip":"94111"},{"Location":"MEDLEY CAPITAL","Address":"600 Montgomery St 35","City":"San Francisco","State":"CA","Zip":"94111"},{"Location":"MERCEDES RESTAURANT","Address":"653 Commercial St","City":"San Francisco","State":"CA","Zip":"94111"},{"Location":"MERITAGE GROUP LP","Address":"Pier 5 101","City":"San Francisco","State":"CA","Zip":"94111"},{"Location":"METHOD HOME CARE","Address":"637 Commercial St 300","City":"San Francisco","State":"CA","Zip":"94111"},{"Location":"MIZUHO SECURITIES USA","Address":"3 Embarcadero Ctr 1620","City":"San Francisco","State":"CA","Zip":"94111"},{"Location":"MKM PARTNERS LLC","Address":"100 Pine St","City":"San Francisco","State":"CA","Zip":"94111"},{"Location":"ML STEM & CO","Address":"50 California St 2700","City":"San Francisco","State":"CA","Zip":"94111"},{"Location":"MONTREUX","Address":"1 Ferry Building 225","City":"San Francisco","State":"CA","Zip":"94111"},{"Location":"MORGAN STANLEY 100101","Address":"101 California St","City":"San Francisco","State":"CA","Zip":"94111"},{"Location":"MOVIE LABS","Address":"475 Sansome St 740","City":"San Francisco","State":"CA","Zip":"94111"},{"Location":"MWW","Address":"8 California St","City":"San Francisco","State":"CA","Zip":"94111"},{"Location":"NAIBT COMMERCIAL","Address":"201 California St 800","City":"San Francisco","State":"CA","Zip":"94111"},{"Location":"NAVOLIO & TALLMAN LLP","Address":"255 California St 400","City":"San Francisco","State":"CA","Zip":"94111"},{"Location":"NEUBERGER BERMAN","Address":"505 Sansome St 2050","City":"San Francisco","State":"CA","Zip":"94111"},{"Location":"NEWS AMERICA MARKETING","Address":"1 Embarcadero Ctr 1050","City":"San Francisco","State":"CA","Zip":"94111"},{"Location":"NKSFB","Address":"1 Embarcadero Ctr 3840","City":"San Francisco","State":"CA","Zip":"94111"},{"Location":"NOSSAMAN LLP","Address":"50 California St 34","City":"San Francisco","State":"CA","Zip":"94111"},{"Location":"NTROPIC","Address":"1025 Battery St","City":"San Francisco","State":"CA","Zip":"94111"},{"Location":"O'MELVENY & MYERS LLP","Address":"201 Clay St","City":"San Francisco","State":"CA","Zip":"94111"},{"Location":"OASIS CONVENIENCE STORE","Address":"4 Embarcadero Ctr Lobby","City":"San Francisco","State":"CA","Zip":"94111"},{"Location":"OCTAGON INC","Address":"832 Sansome St 1stfl","City":"San Francisco","State":"CA","Zip":"94111"},{"Location":"OFFICE OF COMPTROLLER CURRENCY","Address":"1 Front St 100b","City":"San Francisco","State":"CA","Zip":"94111"},{"Location":"OLIVER WYMAN","Address":"4 Embarcadero Ctr 1100","City":"San Francisco","State":"CA","Zip":"94111"},{"Location":"ONE  UNION RECORDING STUDIOS","Address":"1 Union St 240","City":"San Francisco","State":"CA","Zip":"94111"},{"Location":"OPEN DOOR ADVISORS LLC","Address":"2 Embarcadero Ctr 488","City":"San Francisco","State":"CA","Zip":"94111"},{"Location":"OPENTV HEADQUATERS","Address":"275 Sacramento St","City":"San Francisco","State":"CA","Zip":"94111"},{"Location":"ORACLE AMERICA INC.","Address":"475 Sansome St","City":"San Francisco","State":"CA","Zip":"94111"},{"Location":"ORALE ORALE","Address":"113 Sacramento St","City":"San Francisco","State":"CA","Zip":"94111"},{"Location":"OSHA THAI RESTAURANT & BAR","Address":"4 Embarcadero Ctr","City":"San Francisco","State":"CA","Zip":"94111"},{"Location":"OSTERWEIS CAPITAL MGMT","Address":"1 Maritime Plz 800","City":"San Francisco","State":"CA","Zip":"94111"},{"Location":"OWJI LAW INC","Address":"473 Jackson St","City":"San Francisco","State":"CA","Zip":"94111"},{"Location":"PACIFIC EQUITY PARTNERS","Address":"101 California St 2700","City":"San Francisco","State":"CA","Zip":"94111"},{"Location":"PACIFIC RESEARCH INST.","Address":"1 Embarcadero Ctr 350","City":"San Francisco","State":"CA","Zip":"94111"},{"Location":"PALIO D'ASTI","Address":"640 Sacramento St","City":"San Francisco","State":"CA","Zip":"94111"},{"Location":"PANTHEON VENTURES","Address":"600 Montgomery St 23","City":"San Francisco","State":"CA","Zip":"94111"},{"Location":"PARK HILL GROUP","Address":"101 California St 2880","City":"San Francisco","State":"CA","Zip":"94111"},{"Location":"PARTNER FUND MANAGEMENT","Address":"4 Embarcadero Ctr 3500","City":"San Francisco","State":"CA","Zip":"94111"},{"Location":"PATTERN ENERGY GROUP","Address":"Pier 1 Bay 3","City":"San Francisco","State":"CA","Zip":"94111"},{"Location":"PERELLA WEINBERG PARTNERS","Address":"1 California St 2250","City":"San Francisco","State":"CA","Zip":"94111"},{"Location":"PERKINS COIE LLC","Address":"4 Embarcadero Ctr 2400","City":"San Francisco","State":"CA","Zip":"94111"},{"Location":"PERMANENT PORTFOLIO FUND","Address":"600 Montgomery St","City":"San Francisco","State":"CA","Zip":"94111"},{"Location":"PETER WALD LATHAM & WATKINS","Address":"505 Montgomery St 2000","City":"San Francisco","State":"CA","Zip":"94111"},{"Location":"PHYSIO THERAPY ASSOC","Address":"230 California St 400","City":"San Francisco","State":"CA","Zip":"94111"},{"Location":"PIER 23 CAFE","Address":"23 Pier","City":"San Francisco","State":"CA","Zip":"94111"},{"Location":"PIERPONT SECURITIES LLC","Address":"1 Embarcadero Ctr 500","City":"San Francisco","State":"CA","Zip":"94111"},{"Location":"PILLSBURY & LEVISON","Address":"600 Montgomery St 31","City":"San Francisco","State":"CA","Zip":"94111"},{"Location":"PILLSBURY LAW","Address":"4 Embarcadero Ctr 22nd","City":"San Francisco","State":"CA","Zip":"94111"},{"Location":"PIPER JAFFRAY","Address":"50 California St 3100","City":"San Francisco","State":"CA","Zip":"94111"},{"Location":"PISCES INC.","Address":"1 Maritime Plz 1400","City":"San Francisco","State":"CA","Zip":"94111"},{"Location":"PORT OF SAN FRANCISCO","Address":"Pier 1 On The Embracadero","City":"San Francisco","State":"CA","Zip":"94111"},{"Location":"PRAETORIAN GROUP","Address":"200 Green St 200","City":"San Francisco","State":"CA","Zip":"94111"},{"Location":"PRAGER AND CO","Address":"300 Clay St 10","City":"San Francisco","State":"CA","Zip":"94111"},{"Location":"PRESIDIO GOLF COURSE","Address":"352 Washington St","City":"San Francisco","State":"CA","Zip":"94111"},{"Location":"PRICEWATERHOUSECOOPERS","Address":"3 Embarcadero Ctr","City":"San Francisco","State":"CA","Zip":"94111"},{"Location":"PRIME ADMINSTRATION","Address":"50 California St 2525","City":"San Francisco","State":"CA","Zip":"94111"},{"Location":"PROGRESSIVE RADIOLOGY INC","Address":"325 Sacramento St","City":"San Francisco","State":"CA","Zip":"94111"},{"Location":"PUBLIC POLICY INSTITUTE %2F CA","Address":"500 Washington St 600","City":"San Francisco","State":"CA","Zip":"94111"},{"Location":"PV CALIFORNIA","Address":"Pier 9 East End","City":"San Francisco","State":"CA","Zip":"94111"},{"Location":"PV SAN FRANCISCO","Address":"Pier 9      East End","City":"San Francisco","State":"CA","Zip":"94111"},{"Location":"QMA","Address":"1 Embarcadero Ctr 1040","City":"San Francisco","State":"CA","Zip":"94111"},{"Location":"RAVEN OFFICE CENTERS LLC","Address":"388 Market St 1300","City":"San Francisco","State":"CA","Zip":"94111"},{"Location":"RAYMOND JAMES & ASSOC","Address":"1 Embarcadero Ctr","City":"San Francisco","State":"CA","Zip":"94111"},{"Location":"RECOLOGY","Address":"50 California St","City":"San Francisco","State":"CA","Zip":"94111"},{"Location":"REEVES ASSOCIATES","Address":"388 Market St","City":"San Francisco","State":"CA","Zip":"94111"},{"Location":"REGUS BUSINESS CENTRE","Address":"505 Montgomery St 1100","City":"San Francisco","State":"CA","Zip":"94111"},{"Location":"REGUS%2FHQ GLOBAL","Address":"50 California St 1500","City":"San Francisco","State":"CA","Zip":"94111"},{"Location":"ROCKWOOD CAPITAL","Address":"2 Embarcadero Ctr 236","City":"San Francisco","State":"CA","Zip":"94111"},{"Location":"ROPES & GRAY","Address":"3 Embarcadero Ctr","City":"San Francisco","State":"CA","Zip":"94111"},{"Location":"RR DONNELLEY SFO","Address":"1 Embarcadero Ctr 200","City":"San Francisco","State":"CA","Zip":"94111"},{"Location":"RREEF AMERICA REIT II CORP","Address":"655 Commercial St","City":"San Francisco","State":"CA","Zip":"94111"},{"Location":"S.F. TRAVEL ASSO.","Address":"1 Front St 2900","City":"San Francisco","State":"CA","Zip":"94111"},{"Location":"SAILING STONE CAP PTNRS","Address":"1 California St 3050","City":"San Francisco","State":"CA","Zip":"94111"},{"Location":"SAMSUNG","Address":"100 California St 500","City":"San Francisco","State":"CA","Zip":"94111"},{"Location":"SAN FRAN PARKING DBA CITY PARK","Address":"475 Sansome St 550","City":"San Francisco","State":"CA","Zip":"94111"},{"Location":"SAN FRANCISCO BAR PILOTS","Address":"9 Pier East End","City":"San Francisco","State":"CA","Zip":"94111"},{"Location":"SARD VERBINNEN & CO.","Address":"475 Sansome St 1750","City":"San Francisco","State":"CA","Zip":"94111"},{"Location":"SATEL","Address":"50 California St","City":"San Francisco","State":"CA","Zip":"94111"},{"Location":"SATEL","Address":"1 California St 2a","City":"San Francisco","State":"CA","Zip":"94111"},{"Location":"SATEL%2C LLC","Address":"1 Pine St 1901","City":"San Francisco","State":"CA","Zip":"94111"},{"Location":"SCARSDALE EQUITIES LLC","Address":"2 Embarcadero Ctr 2310","City":"San Francisco","State":"CA","Zip":"94111"},{"Location":"SCOTTRADE 04G","Address":"245 California St","City":"San Francisco","State":"CA","Zip":"94111"},{"Location":"SENS RESTAURANT","Address":"4 Embarcadero Ctr","City":"San Francisco","State":"CA","Zip":"94111"},{"Location":"SENTINEL DOME PARTNERS","Address":"3 Embarcadero Ctr 1680","City":"San Francisco","State":"CA","Zip":"94111"},{"Location":"SERENT CAPITAL","Address":"1 Embarcadero Ctr 1150","City":"San Francisco","State":"CA","Zip":"94111"},{"Location":"SERVCORP","Address":"101 California St 2710","City":"San Francisco","State":"CA","Zip":"94111"},{"Location":"SEVERSON & WERSON","Address":"1 Embarcadero Ctr 2600","City":"San Francisco","State":"CA","Zip":"94111"},{"Location":"SF EQUITY PARTNERS","Address":"50 California St 1320","City":"San Francisco","State":"CA","Zip":"94111"},{"Location":"SF SENTRY","Address":"100 Pine St","City":"San Francisco","State":"CA","Zip":"94111"},{"Location":"SIDEMAN & BANCROFT","Address":"1 Embarcadero Ctr 2200","City":"San Francisco","State":"CA","Zip":"94111"},{"Location":"SILVER CINEMAS ACQUIS","Address":"1 Embarcadero Ctr Pl1","City":"San Francisco","State":"CA","Zip":"94111"},{"Location":"SINBADS","Address":"2 Embarcadero Ctr Pier","City":"San Francisco","State":"CA","Zip":"94111"},{"Location":"SKYLINE CONSTRUCTION","Address":"731 Sansome St","City":"San Francisco","State":"CA","Zip":"94111"},{"Location":"SLATER HERSEY LIEBERMAN","Address":"101 California St 1075","City":"San Francisco","State":"CA","Zip":"94111"},{"Location":"SOLOMON CORDWELL BUENZ","Address":"255 California St","City":"San Francisco","State":"CA","Zip":"94111"},{"Location":"SPARGO","Address":"1 Embarcadero Ctr","City":"San Francisco","State":"CA","Zip":"94111"},{"Location":"SPENCER STUART","Address":"255 California St 1400","City":"San Francisco","State":"CA","Zip":"94111"},{"Location":"STANDARD PACIFIC CAPITAL","Address":"101 California St 3600","City":"San Francisco","State":"CA","Zip":"94111"},{"Location":"STARWOOD CAPITAL GROUP","Address":"100 Pine St 3000","City":"San Francisco","State":"CA","Zip":"94111"},{"Location":"STEYER LOWENTHAL  ET. AL.","Address":"1 California St 300","City":"San Francisco","State":"CA","Zip":"94111"},{"Location":"STONE & YOUNGBERG","Address":"1 Ferry Building 275","City":"San Francisco","State":"CA","Zip":"94111"},{"Location":"STONE AGE GROUP INC","Address":"4 Embarcadero Ctr","City":"San Francisco","State":"CA","Zip":"94111"},{"Location":"STRATEGY &","Address":"3 Embarcadero Ctr 1150","City":"San Francisco","State":"CA","Zip":"94111"},{"Location":"STUART FOUNDATION","Address":"500 Washington St 8","City":"San Francisco","State":"CA","Zip":"94111"},{"Location":"SURPLUS LINE ASSOCIATION","Address":"50 California St 1800","City":"San Francisco","State":"CA","Zip":"94111"},{"Location":"SUSQUEHANNA INTL GROUP","Address":"101 California St 3250","City":"San Francisco","State":"CA","Zip":"94111"},{"Location":"SUTHERLANDGOLD COMMUNICATIONS","Address":"315 Pacific Ave","City":"San Francisco","State":"CA","Zip":"94111"},{"Location":"SUTTON PLACE MANAGEMENT","Address":"101 California St 16","City":"San Francisco","State":"CA","Zip":"94111"},{"Location":"SWETT & CRAWFORD","Address":"1 California St","City":"San Francisco","State":"CA","Zip":"94111"},{"Location":"SWIFT REAL ESTATE PARTN","Address":"260 California St 300","City":"San Francisco","State":"CA","Zip":"94111"},{"Location":"SWISS RE","Address":"100 Pine St 2200","City":"San Francisco","State":"CA","Zip":"94111"},{"Location":"SYDNEY TOWN","Address":"531 Commercial St","City":"San Francisco","State":"CA","Zip":"94111"},{"Location":"TAVERNA AVNTINE","Address":"582 Washington St","City":"San Francisco","State":"CA","Zip":"94111"},{"Location":"TENSILE CAPITAL MANAGEME","Address":"2 Embarcadero Ctr 1660","City":"San Francisco","State":"CA","Zip":"94111"},{"Location":"THE AXIANT GROUP","Address":"2 Embarcadero Ctr 430","City":"San Francisco","State":"CA","Zip":"94111"},{"Location":"THE BATTERY","Address":"717 Battery St","City":"San Francisco","State":"CA","Zip":"94111"},{"Location":"THE EXPLORATORIUM","Address":"Pier 15 The Embarcadero","City":"San Francisco","State":"CA","Zip":"94111"},{"Location":"THE GERSHMAN GROUP","Address":"529 Commercial St","City":"San Francisco","State":"CA","Zip":"94111"},{"Location":"THE HOLDING COMPANY","Address":"2 Embarcadero Ctr P","City":"San Francisco","State":"CA","Zip":"94111"},{"Location":"THE IRISH TIME","Address":"500 Sacramento St","City":"San Francisco","State":"CA","Zip":"94111"},{"Location":"THE MCGRAW-HILL COMPANIES","Address":"1 California St 31","City":"San Francisco","State":"CA","Zip":"94111"},{"Location":"THE SAN FRANCISCO BAY CLUB #1","Address":"150 Greenwich St","City":"San Francisco","State":"CA","Zip":"94111"},{"Location":"THE SAN FRANCISCO BAY CLUB #2","Address":"150 Greenwich St","City":"San Francisco","State":"CA","Zip":"94111"},{"Location":"THE SAN FRANCISCO BAY CLUB #3","Address":"150 Greenwich St","City":"San Francisco","State":"CA","Zip":"94111"},{"Location":"THE SAN FRANCISCO BAY CLUB 3","Address":"150 Greenwich St","City":"San Francisco","State":"CA","Zip":"94111"},{"Location":"THE TOWNSEND GROUP","Address":"601 Montgomery St 525","City":"San Francisco","State":"CA","Zip":"94111"},{"Location":"THE WALL STREET JOURNAL","Address":"201 California St 11flr","City":"San Francisco","State":"CA","Zip":"94111"},{"Location":"THOMA BRAVO","Address":"600 Montgomery St 20","City":"San Francisco","State":"CA","Zip":"94111"},{"Location":"THOMSON FINANCIAL CORP GROUP","Address":"50 California St 17fl","City":"San Francisco","State":"CA","Zip":"94111"},{"Location":"TIEDEMANN WEALTH MGMT.","Address":"101 California St 3260","City":"San Francisco","State":"CA","Zip":"94111"},{"Location":"TM FINANCIAL FORENSICS","Address":"2 Embarcadero Ctr 2510","City":"San Francisco","State":"CA","Zip":"94111"},{"Location":"TOP TIER","Address":"600 Montgomery St 4","City":"San Francisco","State":"CA","Zip":"94111"},{"Location":"TRI CITY BROKEAGE","Address":"50 California St 2000","City":"San Francisco","State":"CA","Zip":"94111"},{"Location":"TRUCKER HUSS","Address":"1 Embarcadero Ctr 1200","City":"San Francisco","State":"CA","Zip":"94111"},{"Location":"UNION SQUARE ADVISORS","Address":"2 Embarcadero Ctr 1330","City":"San Francisco","State":"CA","Zip":"94111"},{"Location":"UNIVERSITY OF PHOENIX","Address":"1 Front St 200","City":"San Francisco","State":"CA","Zip":"94111"},{"Location":"US BANK","Address":"1 California St 21fl","City":"San Francisco","State":"CA","Zip":"94111"},{"Location":"US CUSTOMS & BORDER PROTECTION","Address":"555 Battery St","City":"San Francisco","State":"CA","Zip":"94111"},{"Location":"US IMMIGRATION","Address":"630 Sansome St","City":"San Francisco","State":"CA","Zip":"94111"},{"Location":"US RESOURCES","Address":"100 Califorina St 900","City":"San Francisco","State":"CA","Zip":"94111"},{"Location":"US1 PROPERTY MANAGEMENT","Address":"601 Montgomery St","City":"San Francisco","State":"CA","Zip":"94111"},{"Location":"USA TODAY","Address":"100 Pine St 250","City":"San Francisco","State":"CA","Zip":"94111"},{"Location":"VALUATION RESEARCH CORP","Address":"50 California St 1300","City":"San Francisco","State":"CA","Zip":"94111"},{"Location":"VAQUERO CAPITAL","Address":"255 California St 450","City":"San Francisco","State":"CA","Zip":"94111"},{"Location":"VILLA TAVERNA","Address":"720 Montgomery St","City":"San Francisco","State":"CA","Zip":"94111"},{"Location":"VISION SERVICE PLAN","Address":"101 California St 975","City":"San Francisco","State":"CA","Zip":"94111"},{"Location":"VISTA EQUITY PARTNERS","Address":"4 Embarcadero Ctr","City":"San Francisco","State":"CA","Zip":"94111"},{"Location":"VX CAPITAL PARTNERS","Address":"915 Front St Sr","City":"San Francisco","State":"CA","Zip":"94111"},{"Location":"WATCHANCOM","Address":"20 California St","City":"San Francisco","State":"CA","Zip":"94111"},{"Location":"WATERSHED ASSET MANAGEME","Address":"1 Maritime Plz 1525","City":"San Francisco","State":"CA","Zip":"94111"},{"Location":"WAYFARE TAVERN","Address":"558 Sacramento St 400","City":"San Francisco","State":"CA","Zip":"94111"},{"Location":"WEDBUSH SECURITIES INC","Address":"2 Embarcadero Ctr 600","City":"San Francisco","State":"CA","Zip":"94111"},{"Location":"WEINTRAUB TOBIN","Address":"475 Sansome St 1800","City":"San Francisco","State":"CA","Zip":"94111"},{"Location":"WELLS FARGO","Address":"1 Front St Fl20","City":"San Francisco","State":"CA","Zip":"94111"},{"Location":"WELLS FARGO BANK","Address":"1 California St 1fl","City":"San Francisco","State":"CA","Zip":"94111"},{"Location":"WENTWORTH HAUSER AND VIOLICH","Address":"301 Battery St 400","City":"San Francisco","State":"CA","Zip":"94111"},{"Location":"WESTBROOK PACIFIC  INC.","Address":"1 Embarcadero Ctr 3700","City":"San Francisco","State":"CA","Zip":"94111"},{"Location":"WESTCORE PROPERTIES LLC","Address":"255 California St 525","City":"San Francisco","State":"CA","Zip":"94111"},{"Location":"WHITE OAK GLOBAL ADVISOR","Address":"3 Embarcadero Ctr 550","City":"San Francisco","State":"CA","Zip":"94111"},{"Location":"WHITTIER TRUST","Address":"505 Montgomery St 620","City":"San Francisco","State":"CA","Zip":"94111"},{"Location":"WIG","Address":"1 Ferry Building 255c","City":"San Francisco","State":"CA","Zip":"94111"},{"Location":"WILLIAMS SONOMA INC","Address":"151 Union St","City":"San Francisco","State":"CA","Zip":"94111"},{"Location":"WILSON MEANY","Address":"244 California St 700","City":"San Francisco","State":"CA","Zip":"94111"},{"Location":"WINGTIP","Address":"550 Montgomery St","City":"San Francisco","State":"CA","Zip":"94111"},{"Location":"WINSTON & STRAWN LLP","Address":"101 California St","City":"San Francisco","State":"CA","Zip":"94111"},{"Location":"WOLKIN CURRAN LLP","Address":"555 Montgomery St 1100","City":"San Francisco","State":"CA","Zip":"94111"},{"Location":"WOODRUFF-SAWYER & CO","Address":"50 California St 12fl","City":"San Francisco","State":"CA","Zip":"94111"},{"Location":"WORLDWIDE","Address":"450 Sansome St 1000","City":"San Francisco","State":"CA","Zip":"94111"},{"Location":"YOUNG BROADCASTING","Address":"900 Front St","City":"San Francisco","State":"CA","Zip":"94111"},{"Location":"ZERO DIVIDE","Address":"255 California St 800","City":"San Francisco","State":"CA","Zip":"94111"},{"Location":"ZIGGYS BURGER","Address":"21 Drumm St","City":"San Francisco","State":"CA","Zip":"94111"}]