[{"Location":"BISTRO GAMBRINUS","Address":"1813 Fulton St","City":"San Francisco","State":"CA","Zip":"94117"},{"Location":"BURGER URGE","Address":"1599 Haight St","City":"San Francisco","State":"CA","Zip":"94117"},{"Location":"COLE VALLEY FITNESS","Address":"957 Cole St","City":"San Francisco","State":"CA","Zip":"94117"},{"Location":"DANNY COYLE'S","Address":"668 Haight St","City":"San Francisco","State":"CA","Zip":"94117"},{"Location":"DELUXE","Address":"1511 Haight St","City":"San Francisco","State":"CA","Zip":"94117"},{"Location":"FINNEGAN'S WAKE","Address":"937 Cole St","City":"San Francisco","State":"CA","Zip":"94117"},{"Location":"FMC 71060000","Address":"800 Haight St","City":"San Francisco","State":"CA","Zip":"94117"},{"Location":"HOBSON'S CHOICE","Address":"1601 Haight St","City":"San Francisco","State":"CA","Zip":"94117"},{"Location":"INDEPENDANT SAN FRANCISCO","Address":"628 Divisadero St","City":"San Francisco","State":"CA","Zip":"94117"},{"Location":"INTERSTATE SECURITY INC","Address":"229 Downey St","City":"San Francisco","State":"CA","Zip":"94117"},{"Location":"JOSE CALDEROS","Address":"533 Haight St","City":"San Francisco","State":"CA","Zip":"94117"},{"Location":"KEZAR PIZZETTA","Address":"775 Frederick St","City":"San Francisco","State":"CA","Zip":"94117"},{"Location":"KEZAR PUB","Address":"770 Stanyan St","City":"San Francisco","State":"CA","Zip":"94117"},{"Location":"KORET HEALTH","Address":"2130 Fulton St","City":"San Francisco","State":"CA","Zip":"94117"},{"Location":"LIQUID EXPERIENCE","Address":"1589 Haight St","City":"San Francisco","State":"CA","Zip":"94117"},{"Location":"MARTIN MACK'S","Address":"1568 Haight St","City":"San Francisco","State":"CA","Zip":"94117"},{"Location":"METRO CAFFE","Address":"247 Fillmore St","City":"San Francisco","State":"CA","Zip":"94117"},{"Location":"MILKBAR","Address":"1840 Haight St","City":"San Francisco","State":"CA","Zip":"94117"},{"Location":"MT ZION BAPTIST CHURCH","Address":"1321 Oak St","City":"San Francisco","State":"CA","Zip":"94117"},{"Location":"MURIOS TROPHY ROOM","Address":"1811 Haight St","City":"San Francisco","State":"CA","Zip":"94117"},{"Location":"NICKIES","Address":"466 Haight St","City":"San Francisco","State":"CA","Zip":"94117"},{"Location":"THE BARREL HEAD","Address":"1785 Fulton St","City":"San Francisco","State":"CA","Zip":"94117"},{"Location":"THE MAD DOG IN THE FOG","Address":"530 Haight St","City":"San Francisco","State":"CA","Zip":"94117"},{"Location":"THE PAGE","Address":"298 Divisadero St","City":"San Francisco","State":"CA","Zip":"94117"},{"Location":"THE TORONADO","Address":"547 Haight St","City":"San Francisco","State":"CA","Zip":"94117"},{"Location":"UNITY MUTUAL","Address":"552 Haight St","City":"San Francisco","State":"CA","Zip":"94117"},{"Location":"BISTRO GAMBRINUS","Address":"1813 Fulton St","City":"San Francisco","State":"CA","Zip":"94117"},{"Location":"BURGER URGE","Address":"1599 Haight St","City":"San Francisco","State":"CA","Zip":"94117"},{"Location":"COLE VALLEY FITNESS","Address":"957 Cole St","City":"San Francisco","State":"CA","Zip":"94117"},{"Location":"DANNY COYLE'S","Address":"668 Haight St","City":"San Francisco","State":"CA","Zip":"94117"},{"Location":"DELUXE","Address":"1511 Haight St","City":"San Francisco","State":"CA","Zip":"94117"},{"Location":"FINNEGAN'S WAKE","Address":"937 Cole St","City":"San Francisco","State":"CA","Zip":"94117"},{"Location":"FMC 71060000","Address":"800 Haight St","City":"San Francisco","State":"CA","Zip":"94117"},{"Location":"HOBSON'S CHOICE","Address":"1601 Haight St","City":"San Francisco","State":"CA","Zip":"94117"},{"Location":"INDEPENDANT SAN FRANCISCO","Address":"628 Divisadero St","City":"San Francisco","State":"CA","Zip":"94117"},{"Location":"INTERSTATE SECURITY INC","Address":"229 Downey St","City":"San Francisco","State":"CA","Zip":"94117"},{"Location":"JOSE CALDEROS","Address":"533 Haight St","City":"San Francisco","State":"CA","Zip":"94117"},{"Location":"KEZAR PIZZETTA","Address":"775 Frederick St","City":"San Francisco","State":"CA","Zip":"94117"},{"Location":"KEZAR PUB","Address":"770 Stanyan St","City":"San Francisco","State":"CA","Zip":"94117"},{"Location":"KORET HEALTH","Address":"2130 Fulton St","City":"San Francisco","State":"CA","Zip":"94117"},{"Location":"LIQUID EXPERIENCE","Address":"1589 Haight St","City":"San Francisco","State":"CA","Zip":"94117"},{"Location":"MARTIN MACK'S","Address":"1568 Haight St","City":"San Francisco","State":"CA","Zip":"94117"},{"Location":"METRO CAFFE","Address":"247 Fillmore St","City":"San Francisco","State":"CA","Zip":"94117"},{"Location":"MILKBAR","Address":"1840 Haight St","City":"San Francisco","State":"CA","Zip":"94117"},{"Location":"MT ZION BAPTIST CHURCH","Address":"1321 Oak St","City":"San Francisco","State":"CA","Zip":"94117"},{"Location":"MURIOS TROPHY ROOM","Address":"1811 Haight St","City":"San Francisco","State":"CA","Zip":"94117"},{"Location":"NICKIES","Address":"466 Haight St","City":"San Francisco","State":"CA","Zip":"94117"},{"Location":"THE BARREL HEAD","Address":"1785 Fulton St","City":"San Francisco","State":"CA","Zip":"94117"},{"Location":"THE MAD DOG IN THE FOG","Address":"530 Haight St","City":"San Francisco","State":"CA","Zip":"94117"},{"Location":"THE PAGE","Address":"298 Divisadero St","City":"San Francisco","State":"CA","Zip":"94117"},{"Location":"THE TORONADO","Address":"547 Haight St","City":"San Francisco","State":"CA","Zip":"94117"},{"Location":"UNITY MUTUAL","Address":"552 Haight St","City":"San Francisco","State":"CA","Zip":"94117"},{"Location":"UPTOWN CHURCH OF CHRIST","Address":"949 Fillmore St","City":"San Francisco","State":"CA","Zip":"94117"}]