[{"Location":"","Address":"1528 Fillmore St","City":"San Francisco","State":"CA","Zip":"94115"},{"Location":"2001 THAI STICK","Address":"2001 Fillmore St","City":"San Francisco","State":"CA","Zip":"94115"},{"Location":"428775%2F 707090%2F 63001","Address":"1701      Divisidero St 5fl","City":"San Francisco","State":"CA","Zip":"94115"},{"Location":"APRIA CORAM SAN FRANCISCO","Address":"1635 Divisadero St 135","City":"San Francisco","State":"CA","Zip":"94115"},{"Location":"BENIHANA #1023 SAN FRANCISCO","Address":"1737 Post St","City":"San Francisco","State":"CA","Zip":"94115"},{"Location":"BOOM BOOM ROOM","Address":"1601 Fillmore St","City":"San Francisco","State":"CA","Zip":"94115"},{"Location":"BUSHI-TEI BISTRO","Address":"1581 Webster St","City":"San Francisco","State":"CA","Zip":"94115"},{"Location":"CA PACIFIC MED CENTER","Address":"2015 Steiner St","City":"San Francisco","State":"CA","Zip":"94115"},{"Location":"CAFE MUMS","Address":"1800 Sutter St","City":"San Francisco","State":"CA","Zip":"94115"},{"Location":"CALIFORNIA PACIFIC MEDICAL CEN","Address":"2323 Sacramento St","City":"San Francisco","State":"CA","Zip":"94115"},{"Location":"CALIFRONIA PACIFIC MEDICAL","Address":"2329 Sacramento St 4","City":"San Francisco","State":"CA","Zip":"94115"},{"Location":"DIMPLES COCKTAIL LOUNGE","Address":"1700 Post St","City":"San Francisco","State":"CA","Zip":"94115"},{"Location":"DIVISADERO SPORTS BAR LLC","Address":"1750 Divisadero St","City":"San Francisco","State":"CA","Zip":"94115"},{"Location":"FISH BOWL BAR AND GRILL","Address":"1854 Divisadero St","City":"San Francisco","State":"CA","Zip":"94115"},{"Location":"FUTABA HAIR SALON","Address":"1610 Post St 105","City":"San Francisco","State":"CA","Zip":"94115"},{"Location":"GR MARKET","Address":"2601 Sutter St","City":"San Francisco","State":"CA","Zip":"94115"},{"Location":"GREEN CHILE KITCHEN RESTAURANT","Address":"1801 Mcallister St","City":"San Francisco","State":"CA","Zip":"94115"},{"Location":"HARRY'S BAR","Address":"2020 Fillmore St","City":"San Francisco","State":"CA","Zip":"94115"},{"Location":"HOTEL KABUKI","Address":"1625 Post St","City":"San Francisco","State":"CA","Zip":"94115"},{"Location":"HUSH COFFEE BAR","Address":"1700 Post St B","City":"San Francisco","State":"CA","Zip":"94115"},{"Location":"KAISER HOSPITAL PEDIATRIC UNIT","Address":"2425 Geary Blvd","City":"San Francisco","State":"CA","Zip":"94115"},{"Location":"LORA DUKLER COUTURE","Address":"3112 California St","City":"San Francisco","State":"CA","Zip":"94115"},{"Location":"MEHFIL INDIAN CUISINE & BAR","Address":"2301 Fillmore St","City":"San Francisco","State":"CA","Zip":"94115"},{"Location":"MIKYBOOM LLC","Address":"1862 Divisadero St","City":"San Francisco","State":"CA","Zip":"94115"},{"Location":"NAIL SALON","Address":"1858 Divisadero St","City":"San Francisco","State":"CA","Zip":"94115"},{"Location":"OASIS","Address":"901 Divisadero St","City":"San Francisco","State":"CA","Zip":"94115"},{"Location":"PACIFIC HEIGHTS SURGERY CENTER","Address":"3000 California St","City":"San Francisco","State":"CA","Zip":"94115"},{"Location":"PAGODA","Address":"1704 Post St","City":"San Francisco","State":"CA","Zip":"94115"},{"Location":"PETES DELI","Address":"1661 Divisadero St","City":"San Francisco","State":"CA","Zip":"94115"},{"Location":"PG SF","Address":"1705 Buchanan St","City":"San Francisco","State":"CA","Zip":"94115"},{"Location":"PRET","Address":"3235 Sacramento St","City":"San Francisco","State":"CA","Zip":"94115"},{"Location":"SAN WANG RESTAURANT","Address":"1682 Post St","City":"San Francisco","State":"CA","Zip":"94115"},{"Location":"SHEBA LOUNGE","Address":"1419 Fillmore St","City":"San Francisco","State":"CA","Zip":"94115"},{"Location":"SUPERCUTS #9152","Address":"2306 Fillmore St","City":"San Francisco","State":"CA","Zip":"94115"},{"Location":"SWANK COCKTAIL & COFFEE CLUB","Address":"488 Presidio Ave","City":"San Francisco","State":"CA","Zip":"94115"},{"Location":"UCSF  AMBULATORY SERV%2F OSHER","Address":"1545 Divisadero St","City":"San Francisco","State":"CA","Zip":"94115"},{"Location":"UCSF DERMATOLOGY","Address":"1701 Divisadero St","City":"San Francisco","State":"CA","Zip":"94115"},{"Location":"VICTORIAN HEALTHCARE","Address":"2121 Pine St 5b","City":"San Francisco","State":"CA","Zip":"94115"},{"Location":"VILLA VIANZA","Address":"2158 Pine St","City":"San Francisco","State":"CA","Zip":"94115"},{"Location":"WEST BAY CONFERENCE CTR","Address":"1290 Fillmore St 200","City":"San Francisco","State":"CA","Zip":"94115"},{"Location":"WILD HARE","Address":"2801 California St","City":"San Francisco","State":"CA","Zip":"94115"}]