[{"Location":"AMERICAN AIRLINE FLIGHT SERVIC","Address":"E San Francisco Airport 1","City":"Los Angeles","State":"CA","Zip":"94128"},{"Location":"AA AIRCRAFT MAINTENANCE","Address":"San Francisco Airport 1","City":"San Francisco","State":"CA","Zip":"94128"},{"Location":"AA RAMP SERVICES","Address":"San Francisco Airport 1","City":"San Francisco","State":"CA","Zip":"94128"},{"Location":"AIRPORT RESCUE ONE","Address":"650 W Field Rd","City":"San Francisco","State":"CA","Zip":"94128"},{"Location":"AMERICAN AIRLINES ADMIRALS CLU","Address":"2 Terminal","City":"San Francisco","State":"CA","Zip":"94128"},{"Location":"AMERICAN EXPRESS","Address":"3 Terminal 3","City":"San Francisco","State":"CA","Zip":"94128"},{"Location":"ANDALE MEXICAN RESTAURAN","Address":"300 Upper Domestic Loop 1","City":"San Francisco","State":"CA","Zip":"94128"},{"Location":"BAE RAMP READY ROOM SMAL","Address":"400 Lower Domestic Loop","City":"San Francisco","State":"CA","Zip":"94128"},{"Location":"DELTA CARGO","Address":"612 W Field Rd","City":"San Francisco","State":"CA","Zip":"94128"},{"Location":"FIREWOOD GRILL #1","Address":"100 Upper International Loop Cs-20","City":"San Francisco","State":"CA","Zip":"94128"},{"Location":"GATE GOURMET UNIT","Address":"645 W Field Rd","City":"San Francisco","State":"CA","Zip":"94128"},{"Location":"HERTZ RENT A CAR","Address":"780 Mcdonnell Rd","City":"San Francisco","State":"CA","Zip":"94128"},{"Location":"LARK CREEK GRILL","Address":"2 Terminal","City":"San Francisco","State":"CA","Zip":"94128"},{"Location":"MISSION BAR AND GRILL","Address":"400 Domestic Loop","City":"San Francisco","State":"CA","Zip":"94128"},{"Location":"NAPA FARMS MARKET","Address":"2 Terminal","City":"San Francisco","State":"CA","Zip":"94128"},{"Location":"PASSENGER SERVICES","Address":"San Francisco Airport 1","City":"San Francisco","State":"CA","Zip":"94128"},{"Location":"SF INTERNATIO AIRPORT","Address":"300 Upper Domestic Loop","City":"San Francisco","State":"CA","Zip":"94128"},{"Location":"SF INTERNATIONAL AIRPORT","Address":"1056 N Access Rd","City":"San Francisco","State":"CA","Zip":"94128"},{"Location":"SIGNATURE FLIGHT SUPPORT","Address":"1050 N Access Rd","City":"San Francisco","State":"CA","Zip":"94128"},{"Location":"SIGNATURE FLIGHT SUPPORT","Address":"1052 N Access Rd","City":"San Francisco","State":"CA","Zip":"94128"},{"Location":"SW AIRLINES","Address":"606 Mcdonnell Rd 7","City":"San Francisco","State":"CA","Zip":"94128"},{"Location":"TS69282020000000XXAOXXSFOXSVSX","Address":"100 Upper International Loop 500","City":"San Francisco","State":"CA","Zip":"94128"},{"Location":"UNITED      AIRLINES","Address":"400 San Fran Intl Arprt Supe","City":"San Francisco","State":"CA","Zip":"94128"},{"Location":"UNITED     AIRLINES","Address":"400 San Fran Intl Arprt Pac","City":"San Francisco","State":"CA","Zip":"94128"},{"Location":"UNITED    AIRLINES","Address":"400 San Fran Intl Arprt T-3","City":"San Francisco","State":"CA","Zip":"94128"},{"Location":"UNITED   AIRLINES","Address":"400 San Fran Intl Arprt T-2","City":"San Francisco","State":"CA","Zip":"94128"},{"Location":"UNITED AIRLINES","Address":"400 San Fran Intl Arprt","City":"San Francisco","State":"CA","Zip":"94128"},{"Location":"UNITED AIRLINES","Address":"3 Terminal 1","City":"San Francisco","State":"CA","Zip":"94128"},{"Location":"UNITED ARILINES BAE TECH","Address":"400 San Fran Intl Arprt","City":"San Francisco","State":"CA","Zip":"94128"},{"Location":"US POSTAL SERVICE","Address":"660 W Field Rd 216a","City":"San Francisco","State":"CA","Zip":"94128"},{"Location":"USO SFIA","Address":"Mezzin Lener San Francisco","City":"San Francisco","State":"CA","Zip":"94128"},{"Location":"USCG AIRSTATION SAN FRANCISCO","Address":"Sfo International Airport 1020","City":"San Fransico","State":"CA","Zip":"94128"},{"Location":"ALASKA AIRLINES BOARDROOM","Address":"Sfo Airportsterminal Conc B","City":"San Fransisco","State":"CA","Zip":"94128"}]