[{"Location":"A-1 SMOKE SHOP","Address":"1932 Irving St","City":"San Francisco","State":"CA","Zip":"94122"},{"Location":"ABC BAKERY CAFE","Address":"2500 Noriega St","City":"San Francisco","State":"CA","Zip":"94122"},{"Location":"AVENUE LOUNGE","Address":"1334 Noriega St","City":"San Francisco","State":"CA","Zip":"94122"},{"Location":"BIGMOUTH","Address":"3900 Irving St","City":"San Francisco","State":"CA","Zip":"94122"},{"Location":"CAFE CASELLORE","Address":"1340 Irving St","City":"San Francisco","State":"CA","Zip":"94122"},{"Location":"CELIAS MEXICAN RESTAURANT","Address":"4019 Judah St","City":"San Francisco","State":"CA","Zip":"94122"},{"Location":"CYBELLES FRONT ROOM RESTAURANT","Address":"1385 9th Ave","City":"San Francisco","State":"CA","Zip":"94122"},{"Location":"DUBLINER LINCOLN","Address":"1849 Lincoln Way","City":"San Francisco","State":"CA","Zip":"94122"},{"Location":"ELTESORO 1","Address":"3815 Noriega St","City":"San Francisco","State":"CA","Zip":"94122"},{"Location":"FIRST REPUBLIC BANK","Address":"1809 Irving St","City":"San Francisco","State":"CA","Zip":"94122"},{"Location":"FIRST REPUBLIC BANK","Address":"653 Irving St","City":"San Francisco","State":"CA","Zip":"94122"},{"Location":"FLANAHANS PUB","Address":"3805 Noriega St","City":"San Francisco","State":"CA","Zip":"94122"},{"Location":"IRVING SUBS AND CHEESE SHOP","Address":"1298 12th Ave","City":"San Francisco","State":"CA","Zip":"94122"},{"Location":"LAYERS LLC","Address":"822 Irving St","City":"San Francisco","State":"CA","Zip":"94122"},{"Location":"LITTLE SHAMROCK","Address":"807 Lincoln Way","City":"San Francisco","State":"CA","Zip":"94122"},{"Location":"MJ2A INC","Address":"1368 Irving St","City":"San Francisco","State":"CA","Zip":"94122"},{"Location":"NATIVE GROUP CORP","Address":"834 Irving St","City":"San Francisco","State":"CA","Zip":"94122"},{"Location":"NEW ERITREA","Address":"907 Irving St","City":"San Francisco","State":"CA","Zip":"94122"},{"Location":"PERUVIAN FRESCA KITCHEN","Address":"737 Irving St","City":"San Francisco","State":"CA","Zip":"94122"},{"Location":"PISCES RESTAURANT","Address":"2414 Judah St","City":"San Francisco","State":"CA","Zip":"94122"},{"Location":"PITTSBURGH'S PUB","Address":"4207 Judah St","City":"San Francisco","State":"CA","Zip":"94122"},{"Location":"QUALITY TUNE UPS","Address":"1500 19th Ave","City":"San Francisco","State":"CA","Zip":"94122"},{"Location":"SAIWAII RAIMEN","Address":"2240 Irving St","City":"San Francisco","State":"CA","Zip":"94122"},{"Location":"SUNSET GYM","Address":"1247 9th Ave","City":"San Francisco","State":"CA","Zip":"94122"},{"Location":"THE CREW","Address":"1330 Noriega St","City":"San Francisco","State":"CA","Zip":"94122"},{"Location":"THE MUCKY DUCK","Address":"1315 9th Ave","City":"San Francisco","State":"CA","Zip":"94122"},{"Location":"THE PIZZA PLACE","Address":"3901 Noriega St","City":"San Francisco","State":"CA","Zip":"94122"},{"Location":"UNCLE BENNY DONUT AND BAGEL 1","Address":"2049 Irving St","City":"San Francisco","State":"CA","Zip":"94122"},{"Location":"UNDERDOGS SPORTS BAR","Address":"1824 Irving St","City":"San Francisco","State":"CA","Zip":"94122"},{"Location":"VILLA VIANZA LLC","Address":"1455 11th Ave","City":"San Francisco","State":"CA","Zip":"94122"},{"Location":"WELLS FARGO BANK","Address":"2300 Irving St","City":"San Francisco","State":"CA","Zip":"94122"},{"Location":"YANCY'S SALOON","Address":"734 Irving St","City":"San Francisco","State":"CA","Zip":"94122"},{"Location":"YUMMY YUMMY","Address":"1015 Irving St","City":"San Francisco","State":"CA","Zip":"94122"}]