[{"Location":"BELUGA","Address":"5323 Geary Blvd","City":"San Francisco","State":"CA","Zip":"94121"},{"Location":"BLARNEY STONE","Address":"5625 Geary Blvd","City":"San Francisco","State":"CA","Zip":"94121"},{"Location":"CHINOS TAQUERIA","Address":"3416 Balboa St","City":"San Francisco","State":"CA","Zip":"94121"},{"Location":"CLIFF HOUSE","Address":"1090 Point Lobos Ave","City":"San Francisco","State":"CA","Zip":"94121"},{"Location":"EMMAS COFFEEHOUSE","Address":"5549 Geary Blvd","City":"San Francisco","State":"CA","Zip":"94121"},{"Location":"FIRST REPUBLIC BANK","Address":"6001 Geary Blvd","City":"San Francisco","State":"CA","Zip":"94121"},{"Location":"GOLDEN GATE PARK GOLF","Address":"970 47th Ave","City":"San Francisco","State":"CA","Zip":"94121"},{"Location":"HOTPOT ISLAND","Address":"5512 Geary Blvd","City":"San Francisco","State":"CA","Zip":"94121"},{"Location":"JIFFY LUBE","Address":"6099 Geary Blvd","City":"San Francisco","State":"CA","Zip":"94121"},{"Location":"LINCOLN PARK BAR AND GRILL","Address":"300 34th Ave","City":"San Francisco","State":"CA","Zip":"94121"},{"Location":"MCKENZIES","Address":"5320 Geary Blvd","City":"San Francisco","State":"CA","Zip":"94121"},{"Location":"PERILLA INC","Address":"5423 Geary Blvd","City":"San Francisco","State":"CA","Zip":"94121"},{"Location":"PRIMETIME SPORTS BAR","Address":"1810 Clement St","City":"San Francisco","State":"CA","Zip":"94121"},{"Location":"TEE OFF RESTAURANT","Address":"3129 Clement St","City":"San Francisco","State":"CA","Zip":"94121"},{"Location":"THE BEACH CHALET BREWING CO.","Address":"1000 Great Hwy","City":"San Francisco","State":"CA","Zip":"94121"}]