[{"Location":"BAR NONE","Address":"1980 Union St","City":"San Francisco","State":"CA","Zip":"94123"},{"Location":"BIN THIRTY EIGHT","Address":"3232 Scott St","City":"San Francisco","State":"CA","Zip":"94123"},{"Location":"BLACKWOOD","Address":"2150 Chestnut St","City":"San Francisco","State":"CA","Zip":"94123"},{"Location":"BLUE LIGHT","Address":"1979 Union St","City":"San Francisco","State":"CA","Zip":"94123"},{"Location":"BUS STOP","Address":"1901 Union St","City":"San Francisco","State":"CA","Zip":"94123"},{"Location":"CAMPUS","Address":"2241 Chestnut St","City":"San Francisco","State":"CA","Zip":"94123"},{"Location":"CIRCA RESTAURANT LOUNGE","Address":"2001 Chestnut St","City":"San Francisco","State":"CA","Zip":"94123"},{"Location":"CRUNCH FITNESS","Address":"2324 Chestnut St","City":"San Francisco","State":"CA","Zip":"94123"},{"Location":"CRUNCH FITNESS","Address":"1725 Union St","City":"San Francisco","State":"CA","Zip":"94123"},{"Location":"DONAHUES MARINA LOUNGE","Address":"2138 Chestnut St","City":"San Francisco","State":"CA","Zip":"94123"},{"Location":"EASTSIDE WEST RESTAURANT","Address":"3154 Fillmore St","City":"San Francisco","State":"CA","Zip":"94123"},{"Location":"EQIONOX SAN FRANCISCO 2","Address":"2055 Unioon St","City":"San Francisco","State":"CA","Zip":"94123"},{"Location":"EQUINOX SAN FRANCISCO","Address":"2055 Union St","City":"San Francisco","State":"CA","Zip":"94123"},{"Location":"FIRST NAIL CARE","Address":"1520 Union St","City":"San Francisco","State":"CA","Zip":"94123"},{"Location":"FIRST NATIONAL BANK OF NORCAL","Address":"2197 Chestnut St","City":"San Francisco","State":"CA","Zip":"94123"},{"Location":"GOLDEN GATE YACHT CLUB","Address":"1 Yacht Road","City":"San Francisco","State":"CA","Zip":"94123"},{"Location":"GUAVA AND JAVA","Address":"400 Upper Domestic Loop","City":"San Francisco","State":"CA","Zip":"94123"},{"Location":"HAMLIN SCHOOL","Address":"2127 Vallejo St","City":"San Francisco","State":"CA","Zip":"94123"},{"Location":"HIFI RESTAURANT","Address":"2125 Lombard St","City":"San Francisco","State":"CA","Zip":"94123"},{"Location":"HORSESHOE TAVERN","Address":"2024 Chestnut St","City":"San Francisco","State":"CA","Zip":"94123"},{"Location":"HOSTELLING INTERNATIONAL","Address":"240 Fort Mason","City":"San Francisco","State":"CA","Zip":"94123"},{"Location":"JAKE'S STEAKS","Address":"3301 Buchanan St","City":"San Francisco","State":"CA","Zip":"94123"},{"Location":"LIGHTNING","Address":"1875 Union St","City":"San Francisco","State":"CA","Zip":"94123"},{"Location":"MATRIX FILLMORE","Address":"3138 Fillmore St","City":"San Francisco","State":"CA","Zip":"94123"},{"Location":"MAUNA LOA","Address":"3009 Fillmore St","City":"San Francisco","State":"CA","Zip":"94123"},{"Location":"MAYOYD  LLC","Address":"1994 Lombard St","City":"San Francisco","State":"CA","Zip":"94123"},{"Location":"MONAGHANS","Address":"3243 Pierce St","City":"San Francisco","State":"CA","Zip":"94123"},{"Location":"NAKED FISH","Address":"2084 Chestnut St","City":"San Francisco","State":"CA","Zip":"94123"},{"Location":"ORIGINAL BUFFALO WINGS","Address":"2499 Lombard St","City":"San Francisco","State":"CA","Zip":"94123"},{"Location":"OSHA THAI BAR AND RESTAURANT","Address":"2033 Union St","City":"San Francisco","State":"CA","Zip":"94123"},{"Location":"PATXIS CHICAGO PIZZA","Address":"3318 Fillmore St","City":"San Francisco","State":"CA","Zip":"94123"},{"Location":"PERRY'S","Address":"1944 Union St","City":"San Francisco","State":"CA","Zip":"94123"},{"Location":"PIZZA ORGASMICA  MARINA","Address":"3145 Fillmore St","City":"San Francisco","State":"CA","Zip":"94123"},{"Location":"SAM JORDAN'S BAR","Address":"4004 3rd Street","City":"San Francisco","State":"CA","Zip":"94123"},{"Location":"ST FRANCIS YACHT CLUB","Address":"1 Marina Blvd","City":"San Francisco","State":"CA","Zip":"94123"},{"Location":"STOCK IN TRADE","Address":"2036 Lombard St","City":"San Francisco","State":"CA","Zip":"94123"},{"Location":"TACOLISCIOUS","Address":"2031 Chestnut St","City":"San Francisco","State":"CA","Zip":"94123"},{"Location":"THE BLACK MAGIC VODOO LOUNGE","Address":"1400 Lombard St","City":"San Francisco","State":"CA","Zip":"94123"},{"Location":"THE BRICKYARD SF","Address":"1787 Union St","City":"San Francisco","State":"CA","Zip":"94123"},{"Location":"THE BRIXTON","Address":"2140 Union St","City":"San Francisco","State":"CA","Zip":"94123"},{"Location":"THE FINAL FINAL","Address":"2990 Baker St","City":"San Francisco","State":"CA","Zip":"94123"},{"Location":"THE INNOVATION HANGAR","Address":"3601 Lyon St","City":"San Francisco","State":"CA","Zip":"94123"},{"Location":"THE OCULARIUM","Address":"2336 Chestnut St","City":"San Francisco","State":"CA","Zip":"94123"},{"Location":"THE REPUBLIC","Address":"2400 Lombard St","City":"San Francisco","State":"CA","Zip":"94123"},{"Location":"TWO SISTERS NAIL SALON","Address":"2266 Union St","City":"San Francisco","State":"CA","Zip":"94123"},{"Location":"UMAMI BURGER","Address":"2184 Union St","City":"San Francisco","State":"CA","Zip":"94123"},{"Location":"VINTAGE 415","Address":"2231 Chestnut St","City":"San Francisco","State":"CA","Zip":"94123"},{"Location":"WELLS FARGO BANK","Address":"1900 Union St","City":"San Francisco","State":"CA","Zip":"94123"},{"Location":"YUZU","Address":"3347 Fillmore St","City":"San Francisco","State":"CA","Zip":"94123"}]