[{"Location":"Big Joe'S","Address":"717 Monterey Blvd","City":"San Francisco","State":"CA","Zip":"94127"},{"Location":"DUBLINER WEST PORTAL","Address":"328 W Portal Ave","City":"San Francisco","State":"CA","Zip":"94127"},{"Location":"FIRST REPUBLIC BANK","Address":"279 W Portal Ave","City":"San Francisco","State":"CA","Zip":"94127"},{"Location":"HAPPY LASHES BEAUTY","Address":"570 Monterey Blvd","City":"San Francisco","State":"CA","Zip":"94127"},{"Location":"M X CORPORATION","Address":"700 Monterey Blvd","City":"San Francisco","State":"CA","Zip":"94127"},{"Location":"MCCARTHY'S PORTALS","Address":"179 W Portal Ave","City":"San Francisco","State":"CA","Zip":"94127"},{"Location":"MCCARTHYS IRISH BAR","Address":"46 W Portal Ave","City":"San Francisco","State":"CA","Zip":"94127"},{"Location":"MIRA LOMA CLUB","Address":"749 Portola Dr","City":"San Francisco","State":"CA","Zip":"94127"},{"Location":"NEW EMMYS RESTAURANT","Address":"1923 Ocean Ave","City":"San Francisco","State":"CA","Zip":"94127"},{"Location":"T AND T COIN UP","Address":"2020 Ocean Ave","City":"San Francisco","State":"CA","Zip":"94127"},{"Location":"THE BULLS HEAD RESTAURANT","Address":"840 Ulloa St","City":"San Francisco","State":"CA","Zip":"94127"},{"Location":"THE PHILOSIPHERS CLUB","Address":"824 Ulloa St","City":"San Francisco","State":"CA","Zip":"94127"},{"Location":"TSING'S CHINESE","Address":"361 W Portal Ave","City":"San Francisco","State":"CA","Zip":"94127"}]