[{"Location":"ALMONDINE","Address":"1021 Quesada Ave","City":"San Francisco","State":"CA","Zip":"94124"},{"Location":"ANWAR ENTERPRISES","Address":"3801 3rd St","City":"San Francisco","State":"CA","Zip":"94124"},{"Location":"BABY PLAZA LAUNDRALAND","Address":"3801 3rd St 110","City":"San Francisco","State":"CA","Zip":"94124"},{"Location":"BANDAGO","Address":"2200 Cesar Chavez 16","City":"San Francisco","State":"CA","Zip":"94124"},{"Location":"BAY TOOL SUPPLY","Address":"1650 Evans Ave","City":"San Francisco","State":"CA","Zip":"94124"},{"Location":"BEYOND PIX STUDIO","Address":"2178 Palou Ave","City":"San Francisco","State":"CA","Zip":"94124"},{"Location":"BIG CITY PRODUCTIONS","Address":"1555 Burke Ave H","City":"San Francisco","State":"CA","Zip":"94124"},{"Location":"BONANZA RESTAURANT","Address":"16 Toland St","City":"San Francisco","State":"CA","Zip":"94124"},{"Location":"CIRCOSTA IRON AND METAL","Address":"1801 Evans Ave","City":"San Francisco","State":"CA","Zip":"94124"},{"Location":"CITIPETS","Address":"2253 Shafter Ave","City":"San Francisco","State":"CA","Zip":"94124"},{"Location":"CITISCAPE PROPERTY MANAGEMENT","Address":"3450 3rd St 1a","City":"San Francisco","State":"CA","Zip":"94124"},{"Location":"COURTESY TOW","Address":"220 Rankin St","City":"San Francisco","State":"CA","Zip":"94124"},{"Location":"CUTZ N BLENDZ","Address":"5265 3rd St","City":"San Francisco","State":"CA","Zip":"94124"},{"Location":"DESOTO CAB CO","Address":"555 Selby St","City":"San Francisco","State":"CA","Zip":"94124"},{"Location":"DIAMOND FITNESS","Address":"1601 Donner Ave 2","City":"San Francisco","State":"CA","Zip":"94124"},{"Location":"DIGITAL REALTY","Address":"200 Paul Ave","City":"San Francisco","State":"CA","Zip":"94124"},{"Location":"EARLS ORGANIC PRODUCE","Address":"2101 Jerrold Ave","City":"San Francisco","State":"CA","Zip":"94124"},{"Location":"EATON AND ASSOCIATES","Address":"750 Phelps St","City":"San Francisco","State":"CA","Zip":"94124"},{"Location":"ENCORE LIMOUSINES","Address":"2200 Jerrold Ave B","City":"San Francisco","State":"CA","Zip":"94124"},{"Location":"EVERGREEN BAPTIST CHURCH","Address":"6270 3rd St","City":"San Francisco","State":"CA","Zip":"94124"},{"Location":"FBI","Address":"2550 Cesar Chavez","City":"San Francisco","State":"CA","Zip":"94124"},{"Location":"FMC 71070000","Address":"1750 Cesar Chavez A","City":"San Francisco","State":"CA","Zip":"94124"},{"Location":"GOLDEN CITY INN","Address":"5131 3rd St","City":"San Francisco","State":"CA","Zip":"94124"},{"Location":"GONZALEZ CONCRETE","Address":"1160 Revere Ave C","City":"San Francisco","State":"CA","Zip":"94124"},{"Location":"GRAND CENTRAL STATION ANTIQUES","Address":"360 Bay Shore Blvd","City":"San Francisco","State":"CA","Zip":"94124"},{"Location":"INPENDENT ELECTRIC SUPPLY","Address":"1575 Burke Ave","City":"San Francisco","State":"CA","Zip":"94124"},{"Location":"LETS EAT","Address":"5130 3rd St","City":"San Francisco","State":"CA","Zip":"94124"},{"Location":"LIGHTHOUSE FULL GOSPEL","Address":"2212 Lane St","City":"San Francisco","State":"CA","Zip":"94124"},{"Location":"LUXOR CAB COMPANY","Address":"2230 Jerrold Ave","City":"San Francisco","State":"CA","Zip":"94124"},{"Location":"MAG MANAGMENT","Address":"1550 Michigan St","City":"San Francisco","State":"CA","Zip":"94124"},{"Location":"MCCOYS PATROL SERVICE","Address":"6271 3rd St","City":"San Francisco","State":"CA","Zip":"94124"},{"Location":"MCDONALD'S","Address":"345 Bay Shore Blvd","City":"San Francisco","State":"CA","Zip":"94124"},{"Location":"MISSION CONSTRUCTION GRO","Address":"2177 Jerrold Ave 201","City":"San Francisco","State":"CA","Zip":"94124"},{"Location":"MUTTLEY CREW","Address":"1 Boutwell St","City":"San Francisco","State":"CA","Zip":"94124"},{"Location":"PACIFIC FM","Address":"2500 Marin St","City":"San Francisco","State":"CA","Zip":"94124"},{"Location":"PET CAMP","Address":"525 Phelps St","City":"San Francisco","State":"CA","Zip":"94124"},{"Location":"PORT OF SAN FRANSISCO","Address":"Pier 50 Shed D","City":"San Francisco","State":"CA","Zip":"94124"},{"Location":"SAM JORDANS BAR","Address":"4004 3rd St","City":"San Francisco","State":"CA","Zip":"94124"},{"Location":"SAN FRANCISCO SIDE LINE TOW","Address":"1175 Selby St","City":"San Francisco","State":"CA","Zip":"94124"},{"Location":"SECRET STUDIOS","Address":"2200 Cesar Chavez","City":"San Francisco","State":"CA","Zip":"94124"},{"Location":"SMITH EMERY","Address":"1940 Oakdale Ave","City":"San Francisco","State":"CA","Zip":"94124"},{"Location":"SPEAKEASY","Address":"1195 Evans Ave","City":"San Francisco","State":"CA","Zip":"94124"},{"Location":"STUDIO INSTRUMENTAL RENT","Address":"1215 Fairfax Ave","City":"San Francisco","State":"CA","Zip":"94124"},{"Location":"THE JAZZ ROOM","Address":"5267 3rd St","City":"San Francisco","State":"CA","Zip":"94124"},{"Location":"THE OLD CLAM HOUSE","Address":"299 Bay Shore Blvd","City":"San Francisco","State":"CA","Zip":"94124"},{"Location":"WASHINGTON VEGATABLE CO","Address":"2035 Gerrold","City":"San Francisco","State":"CA","Zip":"94124"},{"Location":"WELLS ELECTRICAL","Address":"2177 1 Jerrold Ave 2","City":"San Francisco","State":"CA","Zip":"94124"},{"Location":"WELLS FARGO BANK","Address":"3801 3rd St 116","City":"San Francisco","State":"CA","Zip":"94124"},{"Location":"WHAT A TOMATO PRODUCE CO.%2C INC","Address":"2055 Jerrold Ave","City":"San Francisco","State":"CA","Zip":"94124"}]