[{"Location":"428775%2F 707090%2F 63001","Address":"1569      Sloat Ave #333","City":"San Francisco","State":"CA","Zip":"94132"},{"Location":"ACTIVE SPORTS CLUBS%2FSFSU","Address":"750 Font Blvd A","City":"San Francisco","State":"CA","Zip":"94132"},{"Location":"BLUE PARROT ENTERPRISES","Address":"2623 Ocean Ave","City":"San Francisco","State":"CA","Zip":"94132"},{"Location":"EXTREME PIZZA","Address":"3911 Alemany Blvd 1001","City":"San Francisco","State":"CA","Zip":"94132"},{"Location":"EXTREME PIZZA","Address":"3911 Allemany Blvd","City":"San Francisco","State":"CA","Zip":"94132"},{"Location":"HALL OF FLAME","Address":"73 Cambon Dr","City":"San Francisco","State":"CA","Zip":"94132"},{"Location":"HARDING PARK GOLF COURSE","Address":"99 Harding Rd","City":"San Francisco","State":"CA","Zip":"94132"},{"Location":"HARDING PARK GOLF COURSE 2","Address":"99 Harding Rd","City":"San Francisco","State":"CA","Zip":"94132"},{"Location":"LA FITNESS #06147","Address":"3201 20th Ave","City":"San Francisco","State":"CA","Zip":"94132"},{"Location":"MACY'S WEST 430","Address":"1 Stonestown Mall","City":"San Francisco","State":"CA","Zip":"94132"},{"Location":"MACY'S WEST 430 BR","Address":"3251 20th Ave","City":"San Francisco","State":"CA","Zip":"94132"},{"Location":"NORDSTROM - STONESTOWN","Address":"285 Winston Dr","City":"San Francisco","State":"CA","Zip":"94132"},{"Location":"OLIVE GARDEN  #1295","Address":"3251 20th Ave 187","City":"San Francisco","State":"CA","Zip":"94132"},{"Location":"PARK  77","Address":"77 Cambon Dr","City":"San Francisco","State":"CA","Zip":"94132"},{"Location":"PARK MERCED RENTALS AND MOVING","Address":"47 Cambon Dr","City":"San Francisco","State":"CA","Zip":"94132"},{"Location":"PINNACLE COMMUNICATIONS","Address":"1 Zoo Rd","City":"San Francisco","State":"CA","Zip":"94132"},{"Location":"RICHMOND MASONIC TEMPLE","Address":"855 Brotherhood Way","City":"San Francisco","State":"CA","Zip":"94132"},{"Location":"SAN FRAN SCOTTISH RITE MASONIC","Address":"2850 19th Ave","City":"San Francisco","State":"CA","Zip":"94132"},{"Location":"SAN FRANCISCO GOLF CLUB","Address":"1310 Junipero Serra Blvd","City":"San Francisco","State":"CA","Zip":"94132"},{"Location":"SAN FRANCISCO ST UNIVER POLICE","Address":"1600 Holloway Ave","City":"San Francisco","State":"CA","Zip":"94132"},{"Location":"SHABU HUOSE","Address":"2608 Ocean Ave","City":"San Francisco","State":"CA","Zip":"94132"},{"Location":"SPORTS AUTHORITY 724","Address":"233 Winston Dr","City":"San Francisco","State":"CA","Zip":"94132"},{"Location":"SPRESSA","Address":"51 Cambon Dr","City":"San Francisco","State":"CA","Zip":"94132"},{"Location":"STONESTOWN FAMILY YMCA%2FSAN FRA","Address":"333 Eucalyptus Dr","City":"San Francisco","State":"CA","Zip":"94132"},{"Location":"T AND T COIN OP","Address":"57 Cambon Dr","City":"San Francisco","State":"CA","Zip":"94132"},{"Location":"THE OLYMPIC CLUB%2FLAKESID","Address":"599 Skyline Blvd","City":"San Francisco","State":"CA","Zip":"94132"},{"Location":"THRE MIL WIL","Address":"4077 19th Ave","City":"San Francisco","State":"CA","Zip":"94132"},{"Location":"YOUSEF REALITY INVESTMNT","Address":"29a Cambon Dr","City":"San Francisco","State":"CA","Zip":"94132"}]