[{"Location":"24 HOUR FITNESS #519","Address":"350 Bay St","City":"San Francisco","State":"CA","Zip":"94133"},{"Location":"ACADEMY OF ARTS UNIV","Address":"2801 Leavenworth St","City":"San Francisco","State":"CA","Zip":"94133"},{"Location":"ALIOTOS 8","Address":"2829 Taylor St","City":"San Francisco","State":"CA","Zip":"94133"},{"Location":"ALIOTOS WARFSIDE CAFE","Address":"2829 Taylor St","City":"San Francisco","State":"CA","Zip":"94133"},{"Location":"AMANTE","Address":"570 Green St","City":"San Francisco","State":"CA","Zip":"94133"},{"Location":"APPLEBEE'S #2140033","Address":"2770 Taylor St","City":"San Francisco","State":"CA","Zip":"94133"},{"Location":"ARANDAS SF TOURS OUTLET","Address":"165 Jefferson St 2a","City":"San Francisco","State":"CA","Zip":"94133"},{"Location":"BALMA","Address":"400 N Point St 109","City":"San Francisco","State":"CA","Zip":"94133"},{"Location":"BEGONI BISTRO","Address":"615 Jackson St","City":"San Francisco","State":"CA","Zip":"94133"},{"Location":"BEST WESTERN TUSCAN (0002060)","Address":"425 N Point St","City":"San Francisco","State":"CA","Zip":"94133"},{"Location":"BIMBO'S 365 CLUB","Address":"1025 Columbus Ave","City":"San Francisco","State":"CA","Zip":"94133"},{"Location":"BLUM CAPITAL PARTNERS LP","Address":"909 Montgomery St 400","City":"San Francisco","State":"CA","Zip":"94133"},{"Location":"BOGAARDS DAVIS LLP","Address":"535 Pacific Ave 101","City":"San Francisco","State":"CA","Zip":"94133"},{"Location":"BOHEMIAN CIGAR CAFE INC","Address":"566 Columbus Ave","City":"San Francisco","State":"CA","Zip":"94133"},{"Location":"BOSLEY","Address":"50 Francisco St 440","City":"San Francisco","State":"CA","Zip":"94133"},{"Location":"BOUDIN BAKERY","Address":"2890 Taylor St","City":"San Francisco","State":"CA","Zip":"94133"},{"Location":"BOW BOW COCKTAILS","Address":"1155 Grant Ave","City":"San Francisco","State":"CA","Zip":"94133"},{"Location":"BUBBA GUMP SHRIMP","Address":"39 Pier M211","City":"San Francisco","State":"CA","Zip":"94133"},{"Location":"CAFFE TRIESTE","Address":"601 Vallejo St","City":"San Francisco","State":"CA","Zip":"94133"},{"Location":"CANNIZZARO REALTY","Address":"450 Beach St","City":"San Francisco","State":"CA","Zip":"94133"},{"Location":"CAPOS1","Address":"641 Vallejo St","City":"San Francisco","State":"CA","Zip":"94133"},{"Location":"CASTAGNOLA'S","Address":"286 Jefferson St","City":"San Francisco","State":"CA","Zip":"94133"},{"Location":"CHINES HOSPITAL  CLINIC","Address":"827 Pacific Ave","City":"San Francisco","State":"CA","Zip":"94133"},{"Location":"CIGAR BAR AND GRILL","Address":"850 Montgomery St","City":"San Francisco","State":"CA","Zip":"94133"},{"Location":"COLOSSEO RISTORANTE BAR AND GR","Address":"414 Columbus Ave","City":"San Francisco","State":"CA","Zip":"94133"},{"Location":"COLUMBUS CAFE","Address":"562 Green St","City":"San Francisco","State":"CA","Zip":"94133"},{"Location":"COMCAST SPOTLIGHT","Address":"50 Francisco St","City":"San Francisco","State":"CA","Zip":"94133"},{"Location":"COURTYARD BY MARRIOTT SAN FRAN","Address":"580 Beach St","City":"San Francisco","State":"CA","Zip":"94133"},{"Location":"CURRY LEAS","Address":"943 Columbus Ave","City":"San Francisco","State":"CA","Zip":"94133"},{"Location":"DEJA VU SAN FRANCISCO LLC","Address":"391 Broadway","City":"San Francisco","State":"CA","Zip":"94133"},{"Location":"DIRTY MARTINIS","Address":"2801 Leavenworth St Ji32","City":"San Francisco","State":"CA","Zip":"94133"},{"Location":"EAGLE CAFE","Address":"39 Pier A201","City":"San Francisco","State":"CA","Zip":"94133"},{"Location":"EL FAROLITO","Address":"358 Beach St","City":"San Francisco","State":"CA","Zip":"94133"},{"Location":"FISHERMEN'S GROTTO","Address":"2847 Taylor St","City":"San Francisco","State":"CA","Zip":"94133"},{"Location":"FISHERMEN'S PIZZERIA%2C INC.","Address":"2800 Leavenworth St 50","City":"San Francisco","State":"CA","Zip":"94133"},{"Location":"FOG HARBOR FISH HOUSE","Address":"Pier 39 202a","City":"San Francisco","State":"CA","Zip":"94133"},{"Location":"GINO AND CARLO","Address":"548 Green St","City":"San Francisco","State":"CA","Zip":"94133"},{"Location":"GIORDANO  BROS","Address":"303 Columbus Ave","City":"San Francisco","State":"CA","Zip":"94133"},{"Location":"GOLD DUST LOUNGE","Address":"165 Jefferson St","City":"San Francisco","State":"CA","Zip":"94133"},{"Location":"GOLDEN BOY PIZZA","Address":"542 Green St","City":"San Francisco","State":"CA","Zip":"94133"},{"Location":"GRAHAM GREEN","Address":"48 Gold St","City":"San Francisco","State":"CA","Zip":"94133"},{"Location":"GRANT AND GREEN SALOON","Address":"1371 Grant Ave","City":"San Francisco","State":"CA","Zip":"94133"},{"Location":"GRASSLANDS","Address":"905 Kearny St","City":"San Francisco","State":"CA","Zip":"94133"},{"Location":"GREEN BAY ADVISORS","Address":"480 Pacific Ave","City":"San Francisco","State":"CA","Zip":"94133"},{"Location":"HANA ZEN","Address":"39 Pier","City":"San Francisco","State":"CA","Zip":"94133"},{"Location":"HARD ROCK CAFE","Address":"39 Pier 256","City":"San Francisco","State":"CA","Zip":"94133"},{"Location":"HOLIDAY INN (0057907)","Address":"1300 Columbus Ave","City":"San Francisco","State":"CA","Zip":"94133"},{"Location":"HUSTLER CLUB","Address":"1031 Kearny St","City":"San Francisco","State":"CA","Zip":"94133"},{"Location":"HYATT KNUCKLES BAR","Address":"555 N Point St","City":"San Francisco","State":"CA","Zip":"94133"},{"Location":"IL POLLAIO","Address":"555 Columbus Ave","City":"San Francisco","State":"CA","Zip":"94133"},{"Location":"JACK'S OYSTER BAR","Address":"2801 Leavenworth St","City":"San Francisco","State":"CA","Zip":"94133"},{"Location":"JACKSON SQUARE AVIATION","Address":"909 Montgomery St","City":"San Francisco","State":"CA","Zip":"94133"},{"Location":"JCS #0713 - FISHERMAN'S WHARF","Address":"245 Jefferson St","City":"San Francisco","State":"CA","Zip":"94133"},{"Location":"KEESAL%2C YOUNG & LOGAN","Address":"450 Pacific Ave","City":"San Francisco","State":"CA","Zip":"94133"},{"Location":"KENNEDY'S IRISH PUB","Address":"1040 Columbus Ave","City":"San Francisco","State":"CA","Zip":"94133"},{"Location":"KING OF CHA CHA","Address":"1268 Grant Ave","City":"San Francisco","State":"CA","Zip":"94133"},{"Location":"LA ROCCA'S CORNER","Address":"957 Columbus Ave","City":"San Francisco","State":"CA","Zip":"94133"},{"Location":"LA TREPPE CAFE","Address":"800 Greenwich St","City":"San Francisco","State":"CA","Zip":"94133"},{"Location":"LAMOUR CLUB","Address":"931 Kearny St","City":"San Francisco","State":"CA","Zip":"94133"},{"Location":"LAMOUR SPA","Address":"602 Jackson St","City":"San Francisco","State":"CA","Zip":"94133"},{"Location":"LENOX ADVISORS","Address":"1 Cordelia St","City":"San Francisco","State":"CA","Zip":"94133"},{"Location":"LITTLE SZECHUAN","Address":"501 Broadway","City":"San Francisco","State":"CA","Zip":"94133"},{"Location":"LOU'S PIER 47 RESTAURANT","Address":"300 Jefferson St","City":"San Francisco","State":"CA","Zip":"94133"},{"Location":"LUIGIS PIZZERIA","Address":"39 Pier M211","City":"San Francisco","State":"CA","Zip":"94133"},{"Location":"MADISON MARQUETTE","Address":"909 Montgomery St 200","City":"San Francisco","State":"CA","Zip":"94133"},{"Location":"MAGGIE MCGARRY'S","Address":"1353 Grant Ave","City":"San Francisco","State":"CA","Zip":"94133"},{"Location":"MANGOS TAQUERIA AND CANTINA","Address":"Pier 39 P214-8234 Beach","City":"San Francisco","State":"CA","Zip":"94133"},{"Location":"MARCONI 2","Address":"554 Broadway","City":"San Francisco","State":"CA","Zip":"94133"},{"Location":"MARCONI HOTEL","Address":"554 Broadway","City":"San Francisco","State":"CA","Zip":"94133"},{"Location":"MARRIOTT FISHERMANS WARF","Address":"1250 Columbus Ave","City":"San Francisco","State":"CA","Zip":"94133"},{"Location":"MARRIOTT FISHERMANS WHARF","Address":"580 Beach St","City":"San Francisco","State":"CA","Zip":"94133"},{"Location":"MATTERMARK INC","Address":"564 Pacific Ave","City":"San Francisco","State":"CA","Zip":"94133"},{"Location":"MONALISA INC","Address":"3553 Columbus Ave","City":"San Francisco","State":"CA","Zip":"94133"},{"Location":"MR BINGS","Address":"201 Columbus Ave","City":"San Francisco","State":"CA","Zip":"94133"},{"Location":"NEPTUNE","Address":"39 Pier","City":"San Francisco","State":"CA","Zip":"94133"},{"Location":"NETPULSE","Address":"50 Osgood Pl 400","City":"San Francisco","State":"CA","Zip":"94133"},{"Location":"NETPULSE 2","Address":"50 Osgood Pl 400","City":"San Francisco","State":"CA","Zip":"94133"},{"Location":"NEW SUN HONG KONG RESTAURANT","Address":"606 Broadway","City":"San Francisco","State":"CA","Zip":"94133"},{"Location":"NFL SHOP","Address":"Peer 39 Space Q215 39","City":"San Francisco","State":"CA","Zip":"94133"},{"Location":"NORTHBEACH GYRO","Address":"701 Union St","City":"San Francisco","State":"CA","Zip":"94133"},{"Location":"NORTHSTAR CAFE","Address":"1560 Powell St","City":"San Francisco","State":"CA","Zip":"94133"},{"Location":"ORIGINAL JOES","Address":"601 Union St","City":"San Francisco","State":"CA","Zip":"94133"},{"Location":"ORIGINAL JOES","Address":"1606 Stockton St 200","City":"San Francisco","State":"CA","Zip":"94133"},{"Location":"PIER 2620 BAR","Address":"2620 Jones St","City":"San Francisco","State":"CA","Zip":"94133"},{"Location":"PIER 39","Address":"Beach St And The Embarcadero","City":"San Francisco","State":"CA","Zip":"94133"},{"Location":"PIER2620SPA","Address":"2620 Jones St","City":"San Francisco","State":"CA","Zip":"94133"},{"Location":"PINOTTI AND ASSOCIATES","Address":"1606 Stockton St 302","City":"San Francisco","State":"CA","Zip":"94133"},{"Location":"PIZZELLE DI NORTH BEACH","Address":"314 Columbus Ave","City":"San Francisco","State":"CA","Zip":"94133"},{"Location":"PLAYERS","Address":"Pier 39 Space L11-m3","City":"San Francisco","State":"CA","Zip":"94133"},{"Location":"POMPEIS GROTTO","Address":"340 Jefferson St","City":"San Francisco","State":"CA","Zip":"94133"},{"Location":"PSYCHIC READERE","Address":"1417a Powell St","City":"San Francisco","State":"CA","Zip":"94133"},{"Location":"PUBLICIS AND HAL RINEY","Address":"2001 The Embarcadero","City":"San Francisco","State":"CA","Zip":"94133"},{"Location":"RAINFOREST CAFE #0476","Address":"145 Jefferson St 400","City":"San Francisco","State":"CA","Zip":"94133"},{"Location":"RED JACK SALOON","Address":"131 Bay St","City":"San Francisco","State":"CA","Zip":"94133"},{"Location":"RED'S PLACE","Address":"672 Jackson St","City":"San Francisco","State":"CA","Zip":"94133"},{"Location":"REDSCOUT","Address":"99 Osgood Pl 3fl","City":"San Francisco","State":"CA","Zip":"94133"},{"Location":"ROSE PISTOLA","Address":"532 Columbus Ave","City":"San Francisco","State":"CA","Zip":"94133"},{"Location":"SABELLA & LA TORRE","Address":"2809 Taylor St","City":"San Francisco","State":"CA","Zip":"94133"},{"Location":"SAVOY TIVOLI","Address":"1434 Grant Ave","City":"San Francisco","State":"CA","Zip":"94133"},{"Location":"SCARLETT LAW GROUP","Address":"536 Pacific Ave","City":"San Francisco","State":"CA","Zip":"94133"},{"Location":"SCOMA'S RESTAURANT","Address":"Pier","City":"San Francisco","State":"CA","Zip":"94133"},{"Location":"SCORE BAR AND LOUNGE","Address":"490 Broadway","City":"San Francisco","State":"CA","Zip":"94133"},{"Location":"SOCCER WORK CUP FUTBOL ONE","Address":"79 Water St","City":"San Francisco","State":"CA","Zip":"94133"},{"Location":"SOTTO MARE","Address":"552 Green St","City":"San Francisco","State":"CA","Zip":"94133"},{"Location":"TACOLICIOUS","Address":"1548 Stockton St","City":"San Francisco","State":"CA","Zip":"94133"},{"Location":"TARANTINO'S RESTAURANT","Address":"206 Jefferson St","City":"San Francisco","State":"CA","Zip":"94133"},{"Location":"THE BAMBOO HUT","Address":"479 Broadway St","City":"San Francisco","State":"CA","Zip":"94133"},{"Location":"THE BOARDROOM","Address":"1609 Powell St","City":"San Francisco","State":"CA","Zip":"94133"},{"Location":"THE INTERNATIONAL","Address":"1000 Columbus Ave","City":"San Francisco","State":"CA","Zip":"94133"},{"Location":"THE MARINE EXCHANGE","Address":"505 Beach St 300","City":"San Francisco","State":"CA","Zip":"94133"},{"Location":"THE PIER MARKET","Address":"39 Pier 103","City":"San Francisco","State":"CA","Zip":"94133"},{"Location":"TONYS PIZZA","Address":"1570 Stockton St","City":"San Francisco","State":"CA","Zip":"94133"},{"Location":"TOSCA CAFE","Address":"242 Columbus Ave","City":"San Francisco","State":"CA","Zip":"94133"},{"Location":"TUK TUK THAI CAFE","Address":"659 Union St","City":"San Francisco","State":"CA","Zip":"94133"},{"Location":"TUPELO","Address":"1337 Grant Ave","City":"San Francisco","State":"CA","Zip":"94133"},{"Location":"URBAN CURRY","Address":"523 Broadway","City":"San Francisco","State":"CA","Zip":"94133"},{"Location":"VESUVIO INC.","Address":"255 Columbus Ave","City":"San Francisco","State":"CA","Zip":"94133"},{"Location":"VIP COFFEE&CAKE SHOP","Address":"671 Broadway","City":"San Francisco","State":"CA","Zip":"94133"},{"Location":"WHITEHALL-PARKER  SECURITIES I","Address":"477 Pacific Ave 2fl","City":"San Francisco","State":"CA","Zip":"94133"},{"Location":"WILLIAMS SONOMA INC","Address":"100 North Pt","City":"San Francisco","State":"CA","Zip":"94133"},{"Location":"WIPEOUT BAR & GRILL","Address":"39 Pier A2","City":"San Francisco","State":"CA","Zip":"94133"},{"Location":"YUET LEE","Address":"1300 Stockton St","City":"San Francisco","State":"CA","Zip":"94133"}]