[{"Location":"7 NAILS","Address":"2611 San Bruno Ave A","City":"San Francisco","State":"CA","Zip":"94134"},{"Location":"A SILVESTRI COMPANY","Address":"2629 Bay Shore Blvd","City":"San Francisco","State":"CA","Zip":"94134"},{"Location":"AB MMA","Address":"2975 San Bruno Ave","City":"San Francisco","State":"CA","Zip":"94134"},{"Location":"AGESONG UNIVERSITY","Address":"350 University St","City":"San Francisco","State":"CA","Zip":"94134"},{"Location":"GLEN EAGLES GOLF PARTNERS","Address":"2100 Sunnydale Ave","City":"San Francisco","State":"CA","Zip":"94134"},{"Location":"NEW IMPERIAL GARDEN","Address":"2626 San Bruno Ave","City":"San Francisco","State":"CA","Zip":"94134"},{"Location":"QUEENS LAUNDROMAT","Address":"3030 San Bruno Ave","City":"San Francisco","State":"CA","Zip":"94134"},{"Location":"RESTAURANT PUPUSERIA ILOBASCO","Address":"2680 San Bruno Ave","City":"San Francisco","State":"CA","Zip":"94134"},{"Location":"RIVER OF LIFE","Address":"1430 Sunnyvalle Ave","City":"San Francisco","State":"CA","Zip":"94134"},{"Location":"ROUND TABLE PIZZA INC","Address":"2660 San Bruno Ave","City":"San Francisco","State":"CA","Zip":"94134"},{"Location":"SAN BRUNO AVE LAUNDERLAND","Address":"2448 San Bruno Ave","City":"San Francisco","State":"CA","Zip":"94134"},{"Location":"SENECA BARBER SHOP","Address":"2836 San Bruno Ave","City":"San Francisco","State":"CA","Zip":"94134"},{"Location":"SPORTS BASEMENT","Address":"610 Old Mason St","City":"San Francisco","State":"CA","Zip":"94134"},{"Location":"7 NAILS","Address":"2611 San Bruno Ave A","City":"San Francisco","State":"CA","Zip":"94134"},{"Location":"A SILVESTRI COMPANY","Address":"2629 Bay Shore Blvd","City":"San Francisco","State":"CA","Zip":"94134"},{"Location":"AB MMA","Address":"2975 San Bruno Ave","City":"San Francisco","State":"CA","Zip":"94134"},{"Location":"AGESONG UNIVERSITY","Address":"350 University St","City":"San Francisco","State":"CA","Zip":"94134"},{"Location":"GLEN EAGLES GOLF PARTNERS","Address":"2100 Sunnydale Ave","City":"San Francisco","State":"CA","Zip":"94134"},{"Location":"NEW IMPERIAL GARDEN","Address":"2626 San Bruno Ave","City":"San Francisco","State":"CA","Zip":"94134"},{"Location":"QUEENS LAUNDROMAT","Address":"3030 San Bruno Ave","City":"San Francisco","State":"CA","Zip":"94134"},{"Location":"RESTAURANT PUPUSERIA ILOBASCO","Address":"2680 San Bruno Ave","City":"San Francisco","State":"CA","Zip":"94134"},{"Location":"RIVER OF LIFE","Address":"1430 Sunnyvalle Ave","City":"San Francisco","State":"CA","Zip":"94134"},{"Location":"ROUND TABLE PIZZA INC","Address":"2660 San Bruno Ave","City":"San Francisco","State":"CA","Zip":"94134"},{"Location":"SAN BRUNO AVE LAUNDERLAND","Address":"2448 San Bruno Ave","City":"San Francisco","State":"CA","Zip":"94134"},{"Location":"SENECA BARBER SHOP","Address":"2836 San Bruno Ave","City":"San Francisco","State":"CA","Zip":"94134"},{"Location":"SPORTS BASEMENT","Address":"610 Old Mason St","City":"San Francisco","State":"CA","Zip":"94134"}]