[{"Location":"GYMNASIUM%2FTREASURE ISL JOB","Address":"655 H Ave","City":"San Francisco","State":"CA","Zip":"94130"},{"Location":"SFGAA","Address":"401 13th St","City":"San Francisco","State":"CA","Zip":"94130"},{"Location":"TREASURE ISLAND BAR AND GRILL","Address":"60 Clipper Cove Way","City":"San Francisco","State":"CA","Zip":"94130"},{"Location":"U.S. COAST GUARD BLD 100","Address":"1 Yerba Buena Rd 100","City":"San Francisco","State":"CA","Zip":"94130"},{"Location":"UNITED STATES COAST GUARD","Address":"1 Yerba Buena Rd","City":"San Francisco","State":"CA","Zip":"94130"},{"Location":"US COAST GUARD","Address":"1 Yerba Buena Rd 3","City":"San Francisco","State":"CA","Zip":"94130"},{"Location":"USCG CUTTER PIKE","Address":"1 Yerba Buena Rd","City":"San Francisco","State":"CA","Zip":"94130"},{"Location":"USCG SECTOR SF BL-1","Address":"1 Yerba Buena Rd Bl1","City":"San Francisco","State":"CA","Zip":"94130"},{"Location":"USCG SECTOR SF BL-22 23","Address":"1 Yerba Buena Rd 2223","City":"San Francisco","State":"CA","Zip":"94130"},{"Location":"USCG SECTOR SF BL-27","Address":"1 Yerba Buena Rd Bl27","City":"San Francisco","State":"CA","Zip":"94130"},{"Location":"USCG SECTOR SF BLDG 2","Address":"1 Yerba Buena Rd Bl2","City":"San Francisco","State":"CA","Zip":"94130"},{"Location":"USCGC BARRACUDA (WPB 87301)","Address":"1 Yerba Buena Rd","City":"San Francisco","State":"CA","Zip":"94130"},{"Location":"USCGC TERN WPB-87B43","Address":"1 Yerba Buena Rd","City":"San Francisco","State":"CA","Zip":"94130"},{"Location":"YERBA BUENA ISLAND%2FUSC ASPEN","Address":"Yerba Buena Island","City":"San Francisco","State":"CA","Zip":"94130"}]