[{"Location":"ARE SAN FRANCISCO LLC","Address":"499 Illinois St","City":"San Francisco","State":"CA","Zip":"94158"},{"Location":"AVALON AT MISSION BAY 3","Address":"353 King St","City":"San Francisco","State":"CA","Zip":"94158"},{"Location":"BAUERS INTELLIGENT","Address":"Pier 50 Shed A","City":"San Francisco","State":"CA","Zip":"94158"},{"Location":"BAYVIEW BOAT CLUB","Address":"489 Terry Francois St","City":"San Francisco","State":"CA","Zip":"94158"},{"Location":"CENGAGE LEARNING","Address":"500 Terry Francois St Fl2","City":"San Francisco","State":"CA","Zip":"94158"},{"Location":"DAWSON AND CLINTON GC","Address":"Pier 50 Shed B  50 Sh","City":"San Francisco","State":"CA","Zip":"94158"},{"Location":"FIBROGEN INC","Address":"409 Illinois St","City":"San Francisco","State":"CA","Zip":"94158"},{"Location":"GOLDEN STATE WARRIORS","Address":"500 Terry Francois Blvd","City":"San Francisco","State":"CA","Zip":"94158"},{"Location":"ILLUMINA MISSION BAY PAR","Address":"499 Illinois St","City":"San Francisco","State":"CA","Zip":"94158"},{"Location":"IMPACT FITNESS SF LLC","Address":"54 Pier 234","City":"San Francisco","State":"CA","Zip":"94158"},{"Location":"MERAKI","Address":"500 Terry Francois St","City":"San Francisco","State":"CA","Zip":"94158"},{"Location":"MISSION BAY 1","Address":"353 King St","City":"San Francisco","State":"CA","Zip":"94158"},{"Location":"MISSION ROCK RESORT","Address":"817 Terry Francois St","City":"San Francisco","State":"CA","Zip":"94158"},{"Location":"NEKTAR THERAPEUTICS","Address":"455 Mission Bay Blvd S Blvds","City":"San Francisco","State":"CA","Zip":"94158"},{"Location":"ODA","Address":"1500 Owens St 100","City":"San Francisco","State":"CA","Zip":"94158"},{"Location":"OLD NAVY","Address":"550 Terry Francois St","City":"San Francisco","State":"CA","Zip":"94158"},{"Location":"THE SOBRATO ORGANIZATION","Address":"500 Terry Francois St","City":"San Francisco","State":"CA","Zip":"94158"},{"Location":"TSUHAMI MISSION BAY","Address":"301 King St B","City":"San Francisco","State":"CA","Zip":"94158"},{"Location":"UCSF CRH","Address":"499 Illinois St%2C 6thfloor","City":"San Francisco","State":"CA","Zip":"94158"},{"Location":"UCSF MEDICAL CENTER","Address":"1500 Owens St 360","City":"San Francisco","State":"CA","Zip":"94158"},{"Location":"UCSF ORTHOPAEDIC MED CTR","Address":"1500 Owens St 170","City":"San Francisco","State":"CA","Zip":"94158"},{"Location":"UDR-EDGE WATER","Address":"355 Berry St","City":"San Francisco","State":"CA","Zip":"94158"}]