[{"Location":"ARRILLAGA ALUMNI CAFE","Address":"326 Galvez St","City":"Stanford","State":"CA","Zip":"94305"},{"Location":"ARRILLAGA SPORTS AND REC CTR","Address":"620 Campus Dr","City":"Stanford","State":"CA","Zip":"94305"},{"Location":"AXE AND PALM CAFE","Address":"459 Lagunita Dr C","City":"Stanford","State":"CA","Zip":"94305"},{"Location":"BECHTEL INT CENTER","Address":"584 Capistrano Way","City":"Stanford","State":"CA","Zip":"94305"},{"Location":"COFFEE HOUSE","Address":"459 Lagunita Dr B","City":"Stanford","State":"CA","Zip":"94305"},{"Location":"CYBER CAFE","Address":"618 Escondido Rd","City":"Stanford","State":"CA","Zip":"94305"},{"Location":"JIMMY V5 SPORTS CAFE","Address":"641 Campus Dr","City":"Stanford","State":"CA","Zip":"94305"},{"Location":"MAPLES PAVILION","Address":"655 Campus Dr","City":"Stanford","State":"CA","Zip":"94305"},{"Location":"MAPLES PAVILION GYM","Address":"655 Campus Dr","City":"Stanford","State":"CA","Zip":"94305"},{"Location":"SCIL","Address":"450 Serra Mall 320","City":"Stanford","State":"CA","Zip":"94305"},{"Location":"STANFORD  DRIVING RANGE","Address":"51 Campus Dr","City":"Stanford","State":"CA","Zip":"94305"},{"Location":"STANFORD ATHLETIC DEPT","Address":"643 Nelson Rd","City":"Stanford","State":"CA","Zip":"94305"},{"Location":"STANFORD ATHLETICS DEPARTMENT","Address":"East Campus Drive","City":"Stanford","State":"CA","Zip":"94305"},{"Location":"STANFORD ATHLETICS SHOP","Address":"269 Galvez St","City":"Stanford","State":"CA","Zip":"94305"},{"Location":"STANFORD RUGBY CLUBHOUSE","Address":"Doyle Family Rugby Clubhouse","City":"Stanford","State":"CA","Zip":"94305"},{"Location":"STANFORD SPORTS MEDICINE","Address":"341 Galvez St","City":"Stanford","State":"CA","Zip":"94305"},{"Location":"STANFORD STADIUM MAIN","Address":"625 Nelson Rd","City":"Stanford","State":"CA","Zip":"94305"},{"Location":"STANFORD UNIVERSITY","Address":"691 Pampas Ln","City":"Stanford","State":"CA","Zip":"94305"},{"Location":"STANFORD UNIVERSITY PUBLIC SFY","Address":"679 Pampas Ln A","City":"Stanford","State":"CA","Zip":"94305"},{"Location":"STANFORD WOMENS SOFTBALL","Address":"965 Nelson Rd","City":"Stanford","State":"CA","Zip":"94305"},{"Location":"THE 750 CAFE","Address":"750 Escondido Rd","City":"Stanford","State":"CA","Zip":"94305"},{"Location":"TREE HOUSE CAFE","Address":"459 Lagunita Dr A","City":"Stanford","State":"CA","Zip":"94305"},{"Location":"TRESSIDER CAFETERIA","Address":"459 Lagunita Dr","City":"Stanford","State":"CA","Zip":"94305"},{"Location":"ARRILLAGA ALUMNI CAFE","Address":"326 Galvez St","City":"Stanford","State":"CA","Zip":"94305"},{"Location":"ARRILLAGA SPORTS AND REC CTR","Address":"620 Campus Dr","City":"Stanford","State":"CA","Zip":"94305"},{"Location":"AXE AND PALM CAFE","Address":"459 Lagunita Dr C","City":"Stanford","State":"CA","Zip":"94305"},{"Location":"BECHTEL INT CENTER","Address":"584 Capistrano Way","City":"Stanford","State":"CA","Zip":"94305"},{"Location":"COFFEE HOUSE","Address":"459 Lagunita Dr B","City":"Stanford","State":"CA","Zip":"94305"},{"Location":"CYBER CAFE","Address":"618 Escondido Rd","City":"Stanford","State":"CA","Zip":"94305"},{"Location":"JIMMY V5 SPORTS CAFE","Address":"641 Campus Dr","City":"Stanford","State":"CA","Zip":"94305"},{"Location":"MAPLES PAVILION","Address":"655 Campus Dr","City":"Stanford","State":"CA","Zip":"94305"},{"Location":"MAPLES PAVILION GYM","Address":"655 Campus Dr","City":"Stanford","State":"CA","Zip":"94305"},{"Location":"SCIL","Address":"450 Serra Mall 320","City":"Stanford","State":"CA","Zip":"94305"},{"Location":"STANFORD  DRIVING RANGE","Address":"51 Campus Dr","City":"Stanford","State":"CA","Zip":"94305"},{"Location":"STANFORD ATHLETIC DEPT","Address":"643 Nelson Rd","City":"Stanford","State":"CA","Zip":"94305"},{"Location":"STANFORD ATHLETICS DEPARTMENT","Address":"East Campus Drive","City":"Stanford","State":"CA","Zip":"94305"},{"Location":"STANFORD ATHLETICS SHOP","Address":"269 Galvez St","City":"Stanford","State":"CA","Zip":"94305"},{"Location":"STANFORD RUGBY CLUBHOUSE","Address":"Doyle Family Rugby Clubhouse","City":"Stanford","State":"CA","Zip":"94305"},{"Location":"STANFORD SPORTS MEDICINE","Address":"341 Galvez St","City":"Stanford","State":"CA","Zip":"94305"},{"Location":"STANFORD STADIUM MAIN","Address":"625 Nelson Rd","City":"Stanford","State":"CA","Zip":"94305"},{"Location":"STANFORD UNIVERSITY","Address":"691 Pampas Ln","City":"Stanford","State":"CA","Zip":"94305"},{"Location":"STANFORD UNIVERSITY PUBLIC SFY","Address":"679 Pampas Ln A","City":"Stanford","State":"CA","Zip":"94305"},{"Location":"STANFORD WOMENS SOFTBALL","Address":"965 Nelson Rd","City":"Stanford","State":"CA","Zip":"94305"},{"Location":"THE 750 CAFE","Address":"750 Escondido Rd","City":"Stanford","State":"CA","Zip":"94305"},{"Location":"TREE HOUSE CAFE","Address":"459 Lagunita Dr A","City":"Stanford","State":"CA","Zip":"94305"},{"Location":"TRESSIDER CAFETERIA","Address":"459 Lagunita Dr","City":"Stanford","State":"CA","Zip":"94305"}]