[{"Location":"","Address":"687 Cowper St","City":"Palo Alto","State":"CA","Zip":"94301"},{"Location":"ACCEL PARTNERS","Address":"428 University Ave","City":"Palo Alto","State":"CA","Zip":"94301"},{"Location":"ALEDI LLC","Address":"473 University Ave","City":"Palo Alto","State":"CA","Zip":"94301"},{"Location":"AMBER DHARA","Address":"150 University Ave","City":"Palo Alto","State":"CA","Zip":"94301"},{"Location":"APERCEN PARTNERS","Address":"314 Lytton Ave","City":"Palo Alto","State":"CA","Zip":"94301"},{"Location":"ASIAN BOX LLC","Address":"855 El Camino Real 240","City":"Palo Alto","State":"CA","Zip":"94301"},{"Location":"AVIDBANK","Address":"400 Emerson St","City":"Palo Alto","State":"CA","Zip":"94301"},{"Location":"BANGKOK CUISINE","Address":"407 Lytton Ave","City":"Palo Alto","State":"CA","Zip":"94301"},{"Location":"BLOOMBERG - PALO ALTO","Address":"228 Hamilton Ave 312","City":"Palo Alto","State":"CA","Zip":"94301"},{"Location":"BUCA DI BEPPO #501","Address":"643 Emerson St","City":"Palo Alto","State":"CA","Zip":"94301"},{"Location":"C.M CAPITAL CORPORATION","Address":"525 University Ave 200","City":"Palo Alto","State":"CA","Zip":"94301"},{"Location":"CAFE EPI","Address":"405 University Ave","City":"Palo Alto","State":"CA","Zip":"94301"},{"Location":"CALAFIA","Address":"855 El Camino Real","City":"Palo Alto","State":"CA","Zip":"94301"},{"Location":"CAPRICORN MANAGEMENT","Address":"250 University Ave 400","City":"Palo Alto","State":"CA","Zip":"94301"},{"Location":"COCONUT CARIBBEAN RESTAURANT","Address":"642 Ramona St","City":"Palo Alto","State":"CA","Zip":"94301"},{"Location":"DAG VENTURES  ONE","Address":"251 Lytton Ave 200","City":"Palo Alto","State":"CA","Zip":"94301"},{"Location":"ESSEX WOODLANDS","Address":"335 Bryant St","City":"Palo Alto","State":"CA","Zip":"94301"},{"Location":"EXTRADE FINANCIAL","Address":"124 University Ave","City":"Palo Alto","State":"CA","Zip":"94301"},{"Location":"FOCUS VENTURES","Address":"525 University Ave 1400","City":"Palo Alto","State":"CA","Zip":"94301"},{"Location":"FORM FITNESS","Address":"445 Bryant St","City":"Palo Alto","State":"CA","Zip":"94301"},{"Location":"GORDON BIERSCH #4601","Address":"640 Emerson St","City":"Palo Alto","State":"CA","Zip":"94301"},{"Location":"ICONIQ CAPITAL LLC","Address":"317 University Ave 300","City":"Palo Alto","State":"CA","Zip":"94301"},{"Location":"IL FORNAIO PALO ALTO","Address":"520 Cowper St","City":"Palo Alto","State":"CA","Zip":"94301"},{"Location":"JAFC VENTURES","Address":"505 Hamilton Ave","City":"Palo Alto","State":"CA","Zip":"94301"},{"Location":"JP MORGAN","Address":"310 University Ave 300","City":"Palo Alto","State":"CA","Zip":"94301"},{"Location":"KIRKS","Address":"855 El Camino Real","City":"Palo Alto","State":"CA","Zip":"94301"},{"Location":"LA STRADA","Address":"335 University Ave","City":"Palo Alto","State":"CA","Zip":"94301"},{"Location":"LU LUS AT TOWN AND COUNT","Address":"855 El Camino Real 49","City":"Palo Alto","State":"CA","Zip":"94301"},{"Location":"MAGNET SYSTEMS","Address":"435 Tasso St 100","City":"Palo Alto","State":"CA","Zip":"94301"},{"Location":"MIXAROO INC 3","Address":"433 Hamilton Ave","City":"Palo Alto","State":"CA","Zip":"94301"},{"Location":"MIXAROO INC NO 2","Address":"687 Cowper St","City":"Palo Alto","State":"CA","Zip":"94301"},{"Location":"MORGAN STANLEY 100112","Address":"245 Lytton Ave 200","City":"Palo Alto","State":"CA","Zip":"94301"},{"Location":"NOLA","Address":"535 Ramona St","City":"Palo Alto","State":"CA","Zip":"94301"},{"Location":"NORWEST VENTURE PARTNER","Address":"525 University Ave 800","City":"Palo Alto","State":"CA","Zip":"94301"},{"Location":"OLD PRO","Address":"541 Ramona St","City":"Palo Alto","State":"CA","Zip":"94301"},{"Location":"OSTERIA","Address":"247 Hamilton Ave","City":"Palo Alto","State":"CA","Zip":"94301"},{"Location":"PALANTIER TECHOLOGIES","Address":"650 High St","City":"Palo Alto","State":"CA","Zip":"94301"},{"Location":"PALANTIR","Address":"101 Forest Ave","City":"Palo Alto","State":"CA","Zip":"94301"},{"Location":"PALANTIR TECH","Address":"164 Hamilton Ave","City":"Palo Alto","State":"CA","Zip":"94301"},{"Location":"PALANTIR TECH","Address":"151 University Ave","City":"Palo Alto","State":"CA","Zip":"94301"},{"Location":"PALANTIR TECHNOLOGIES","Address":"100 Hamilton Ave 300","City":"Palo Alto","State":"CA","Zip":"94301"},{"Location":"PALANTIR TECHNOLOGIES TWO","Address":"100 Hamilton Ave","City":"Palo Alto","State":"CA","Zip":"94301"},{"Location":"PALANTIR TECHOLOGIES","Address":"120 Hamilton Ave","City":"Palo Alto","State":"CA","Zip":"94301"},{"Location":"PALO ALTO POLICE DEPT","Address":"275 Forest Ave","City":"Palo Alto","State":"CA","Zip":"94301"},{"Location":"PALO ALTO SOCIAL CAPITOL PARNE","Address":"120 Hawthorne Ave","City":"Palo Alto","State":"CA","Zip":"94301"},{"Location":"PENINSULA CREAMERY","Address":"900 High St","City":"Palo Alto","State":"CA","Zip":"94301"},{"Location":"PREMIER BOUTIQUE","Address":"534 Ramona St","City":"Palo Alto","State":"CA","Zip":"94301"},{"Location":"PRESIDIO BANK TWO","Address":"325 Lytton Ave","City":"Palo Alto","State":"CA","Zip":"94301"},{"Location":"RADAR PARTNERS","Address":"737 Bryant St","City":"Palo Alto","State":"CA","Zip":"94301"},{"Location":"REGUS BUSINESS CENTER","Address":"228 Hamilton Ave 3","City":"Palo Alto","State":"CA","Zip":"94301"},{"Location":"REPOSADO","Address":"236 Hamilton Ave","City":"Palo Alto","State":"CA","Zip":"94301"},{"Location":"RHO CAPITAL PARTNERS","Address":"525 University Ave 1350","City":"Palo Alto","State":"CA","Zip":"94301"},{"Location":"ROSE & CROWN PUB","Address":"547 Emerson St","City":"Palo Alto","State":"CA","Zip":"94301"},{"Location":"SAMS CHOWDER HOUSE 1","Address":"185 University Ave","City":"Palo Alto","State":"CA","Zip":"94301"},{"Location":"SANCHOS TACOS","Address":"491 Lytton Ave","City":"Palo Alto","State":"CA","Zip":"94301"},{"Location":"SHERATON HOTEL PALO ALTO","Address":"625 El Camino Real","City":"Palo Alto","State":"CA","Zip":"94301"},{"Location":"SIDE PORCH PRODUCTIONS INC","Address":"514 High St 4","City":"Palo Alto","State":"CA","Zip":"94301"},{"Location":"SKIN SPIRIT  PALO ACTO","Address":"701 Emerson St","City":"Palo Alto","State":"CA","Zip":"94301"},{"Location":"SURVEYMONKEY","Address":"101 Lytton Ave 5","City":"Palo Alto","State":"CA","Zip":"94301"},{"Location":"T LISH III LLC","Address":"632 Emerson St","City":"Palo Alto","State":"CA","Zip":"94301"},{"Location":"TECHNOLOGY CROSS","Address":"528 Ramona St","City":"Palo Alto","State":"CA","Zip":"94301"},{"Location":"THE CHEESECAKE FACTORY 0065","Address":"379 University Ave","City":"Palo Alto","State":"CA","Zip":"94301"},{"Location":"THE PATIO AT RUDYS","Address":"412 Emerson St","City":"Palo Alto","State":"CA","Zip":"94301"},{"Location":"THE WINE ROOM","Address":"520 Ramona St","City":"Palo Alto","State":"CA","Zip":"94301"},{"Location":"UMAMI BURGER- PALO ALTO","Address":"452 University Ave","City":"Palo Alto","State":"CA","Zip":"94301"},{"Location":"UNION BANK 07925","Address":"400 University Ave","City":"Palo Alto","State":"CA","Zip":"94301"},{"Location":"VILLAGE COBBLER","Address":"825 Emerson St","City":"Palo Alto","State":"CA","Zip":"94301"},{"Location":"WELLS FARGO","Address":"301 University Ave","City":"Palo Alto","State":"CA","Zip":"94301"},{"Location":"WESTIN PALO ALTO","Address":"675 El Camino Real","City":"Palo Alto","State":"CA","Zip":"94301"},{"Location":"XAPO","Address":"361 Lytton Ave 200","City":"Palo Alto","State":"CA","Zip":"94301"}]