[{"Location":"ANATOLIAN KITCHEN","Address":"2323 Birch St","City":"Palo Alto","State":"CA","Zip":"94306"},{"Location":"ANTONIOS NUT HOUSE","Address":"321 S California Ave","City":"Palo Alto","State":"CA","Zip":"94306"},{"Location":"AOL","Address":"395 Page Mill Rd","City":"Palo Alto","State":"CA","Zip":"94306"},{"Location":"AOL INC.","Address":"395 Page Mill Rd","City":"Palo Alto","State":"CA","Zip":"94306"},{"Location":"BAIN & CO","Address":"2 Palo Alto Sq 10fl","City":"Palo Alto","State":"CA","Zip":"94306"},{"Location":"CB RICHARD ELLIS INC PA","Address":"2 Palo Alto Sq","City":"Palo Alto","State":"CA","Zip":"94306"},{"Location":"CHINCOTEAGUA INVESTMENT GROUP","Address":"463 S California Ave","City":"Palo Alto","State":"CA","Zip":"94306"},{"Location":"COMFORT INN PALO ALTO","Address":"3945 El Camino Real","City":"Palo Alto","State":"CA","Zip":"94306"},{"Location":"CORNER BAKERY","Address":"3325 El Camino Real","City":"Palo Alto","State":"CA","Zip":"94306"},{"Location":"DINAHS GARDEN BAR%2FREST","Address":"4261 El Camino Real","City":"Palo Alto","State":"CA","Zip":"94306"},{"Location":"DINAHS GARDEN HOTEL","Address":"4261 El Camino Real","City":"Palo Alto","State":"CA","Zip":"94306"},{"Location":"EMBARCADERO MEDIA","Address":"450 Cambridge Ave","City":"Palo Alto","State":"CA","Zip":"94306"},{"Location":"ENDICIA","Address":"385 Sherman Ave","City":"Palo Alto","State":"CA","Zip":"94306"},{"Location":"EQUINOX 722 PALO ALTO 2","Address":"440 Portage Ave","City":"Palo Alto","State":"CA","Zip":"94306"},{"Location":"EQUINOX FITNESS","Address":"440 Portage Ave","City":"Palo Alto","State":"CA","Zip":"94306"},{"Location":"FIRST REPUBLIC BANK","Address":"2275 El Camino Real","City":"Palo Alto","State":"CA","Zip":"94306"},{"Location":"FUKI SUSHI","Address":"4119 El Camino Real","City":"Palo Alto","State":"CA","Zip":"94306"},{"Location":"FUNCTION REHAB SPORTS THERPY","Address":"401 Lambert Ave","City":"Palo Alto","State":"CA","Zip":"94306"},{"Location":"HILTON WORLDWIDE PALO ALTO","Address":"4216 El Camino Real","City":"Palo Alto","State":"CA","Zip":"94306"},{"Location":"INDO RESTAURANT LLC","Address":"3295 El Camino Real","City":"Palo Alto","State":"CA","Zip":"94306"},{"Location":"INFINITE LOOP PALO ALTO HOTEL","Address":"3901 El Camino Real","City":"Palo Alto","State":"CA","Zip":"94306"},{"Location":"INTEGRATION APPLIANCE","Address":"200 Portage Ave","City":"Palo Alto","State":"CA","Zip":"94306"},{"Location":"INTUIT PA","Address":"2421 Park Blvd B202","City":"Palo Alto","State":"CA","Zip":"94306"},{"Location":"KAYE SCHOLER LLP","Address":"2 Palo Alto Sq 400","City":"Palo Alto","State":"CA","Zip":"94306"},{"Location":"MCDONALDS","Address":"3128 El Camino Real","City":"Palo Alto","State":"CA","Zip":"94306"},{"Location":"MEDALLIA INC","Address":"395 Page Mill Rd 100","City":"Palo Alto","State":"CA","Zip":"94306"},{"Location":"MIDTOWN SHOE REPAIR","Address":"2796 Middlefield Rd","City":"Palo Alto","State":"CA","Zip":"94306"},{"Location":"MORGAN LEWIS & BOCKINS LLP","Address":"2 Palo Alto Sq","City":"Palo Alto","State":"CA","Zip":"94306"},{"Location":"NIXON PEABODY LLP","Address":"3000 El Camino Real 500","City":"Palo Alto","State":"CA","Zip":"94306"},{"Location":"NO EXCUSES FITNESS","Address":"2741 Middlefield Rd","City":"Palo Alto","State":"CA","Zip":"94306"},{"Location":"PALO ALTO ELKS 1471","Address":"4249 El Camino Real","City":"Palo Alto","State":"CA","Zip":"94306"},{"Location":"PALO ALTO PIZZA COMPANY","Address":"2450 Park Blvd","City":"Palo Alto","State":"CA","Zip":"94306"},{"Location":"PARK AVENUE MOTORS","Address":"3241 Park Blvd","City":"Palo Alto","State":"CA","Zip":"94306"},{"Location":"PIZZA CHICAGO","Address":"4115 El Camino Real","City":"Palo Alto","State":"CA","Zip":"94306"},{"Location":"PLAYDOM","Address":"395 Page Mill Rd 2nd","City":"Palo Alto","State":"CA","Zip":"94306"},{"Location":"SAMSUNG TELECOMMUNICATIONS","Address":"435 Portage Ave","City":"Palo Alto","State":"CA","Zip":"94306"},{"Location":"SANCHOS TAQUEIRA","Address":"2723 Middlefield Rd","City":"Palo Alto","State":"CA","Zip":"94306"},{"Location":"SU HONG EATERY","Address":"4256 El Camino Real","City":"Palo Alto","State":"CA","Zip":"94306"},{"Location":"TAQUERIA EL GRULLENSE","Address":"3636 El Camino Real","City":"Palo Alto","State":"CA","Zip":"94306"},{"Location":"THE ZEN HOTEL","Address":"4164 El Camino Real","City":"Palo Alto","State":"CA","Zip":"94306"},{"Location":"WHITE & CASE LLP","Address":"3000 El Camino Real 5-10","City":"Palo Alto","State":"CA","Zip":"94306"}]