[{"Location":"FOUR SEASONS HOTEL","Address":"2050 University Ave","City":"East Palo Alto","State":"CA","Zip":"94303"},{"Location":"PBC PALO ALTO","Address":"2225 E Bayshore Rd 200","City":"East Palo Alto","State":"CA","Zip":"94303"},{"Location":"ROTO-ROOTER","Address":"220 Demeter St","City":"East Palo Alto","State":"CA","Zip":"94303"},{"Location":"SAN MATEO CREDIT UNION","Address":"1735 E Bayshore Rd","City":"East Palo Alto","State":"CA","Zip":"94303"},{"Location":"SPORTS AUTHORITY 717","Address":"1775 E Bayshore Rd","City":"East Palo Alto","State":"CA","Zip":"94303"},{"Location":"TAQUERIA LOS TEMOS","Address":"1491 E Bayshore Rd","City":"East Palo Alto","State":"CA","Zip":"94303"},{"Location":"THREE BROTHERS TACOS","Address":"1760 W Bayshore Rd","City":"East Palo Alto","State":"CA","Zip":"94303"},{"Location":"TULIP JONES","Address":"1310 Bay Rd","City":"East Palo Alto","State":"CA","Zip":"94303"},{"Location":"YMCA EAST PALO ALTO","Address":"550 Bell St","City":"East Palo Alto","State":"CA","Zip":"94303"},{"Location":"ANACOR","Address":"1020 E Meadow Cir","City":"Palo Alto","State":"CA","Zip":"94303"},{"Location":"ANDERSON HONDA","Address":"1766 Embarcadero Rd","City":"Palo Alto","State":"CA","Zip":"94303"},{"Location":"BAY CAFE","Address":"1875 Embarcadero Rd","City":"Palo Alto","State":"CA","Zip":"94303"},{"Location":"BRAD LOZARES GOLF CLUB","Address":"1875 Embarcadero Rd","City":"Palo Alto","State":"CA","Zip":"94303"},{"Location":"BUCKLES SMITH ELECTRIC","Address":"796 San Antonio Rd","City":"Palo Alto","State":"CA","Zip":"94303"},{"Location":"ERUDITE TECHNOLOGY GROUP","Address":"2525 E Bayshore Rd","City":"Palo Alto","State":"CA","Zip":"94303"},{"Location":"HARRIS MY CFO","Address":"2200 Geng Rd","City":"Palo Alto","State":"CA","Zip":"94303"},{"Location":"HEFFERMAN INSURANCE BROKERS","Address":"1808 Embarcadero Rd A","City":"Palo Alto","State":"CA","Zip":"94303"},{"Location":"JONES DAY","Address":"1755 Embarcadero Rd","City":"Palo Alto","State":"CA","Zip":"94303"},{"Location":"JONES LANG LASALLE","Address":"2300 Geng Rd 100","City":"Palo Alto","State":"CA","Zip":"94303"},{"Location":"JONES MORTIUARY INC","Address":"660 Donohoe St","City":"Palo Alto","State":"CA","Zip":"94303"},{"Location":"MATHEWS' CARLSEN BODY SHOP","Address":"2480 Faber Pl","City":"Palo Alto","State":"CA","Zip":"94303"},{"Location":"PALO ALTO FAMILY YMCA #1","Address":"3412 Ross Rd","City":"Palo Alto","State":"CA","Zip":"94303"},{"Location":"PALO ALTO FAMILY YMCA #2","Address":"3412 Ross Rd","City":"Palo Alto","State":"CA","Zip":"94303"},{"Location":"STANFORD FEDERAL CREDIT UNION","Address":"1860 Embarcadero Rd 2","City":"Palo Alto","State":"CA","Zip":"94303"},{"Location":"TOPIX","Address":"1001 Elwell Ct","City":"Palo Alto","State":"CA","Zip":"94303"}]