[{"Location":"ARNOLD AND PORTER","Address":"1801 Page Mill Rd 110","City":"Palo Alto","State":"CA","Zip":"94304"},{"Location":"BAKER & MCKENZIE LLP","Address":"660 Hansen Way","City":"Palo Alto","State":"CA","Zip":"94304"},{"Location":"BAKER BOTTS  LLP","Address":"1001 Page Mill Rd 200","City":"Palo Alto","State":"CA","Zip":"94304"},{"Location":"BANG & OLUFSEN","Address":"391 Stanford Shopping Ctr","City":"Palo Alto","State":"CA","Zip":"94304"},{"Location":"BINGHAM MCCUTCHEN","Address":"1117 S California Ave","City":"Palo Alto","State":"CA","Zip":"94304"},{"Location":"CFO2 PALO ALTO LP","Address":"1841 Page Mill Rd","City":"Palo Alto","State":"CA","Zip":"94304"},{"Location":"COCOLA","Address":"180 Stanford Shopping Ctr 715","City":"Palo Alto","State":"CA","Zip":"94304"},{"Location":"COMM AND POWER","Address":"811 Hansen Way","City":"Palo Alto","State":"CA","Zip":"94304"},{"Location":"DUANE AND ASSOCIATES","Address":"2475 Hanover St","City":"Palo Alto","State":"CA","Zip":"94304"},{"Location":"EMC CORP 2","Address":"3495 Deer Creek Rd","City":"Palo Alto","State":"CA","Zip":"94304"},{"Location":"FLEMING'S #1550","Address":"180 El Camino Real G2","City":"Palo Alto","State":"CA","Zip":"94304"},{"Location":"FOLEY & LARDNER LLP","Address":"975 Page Mill Rd","City":"Palo Alto","State":"CA","Zip":"94304"},{"Location":"GENENCOR INT.","Address":"925 Page Mill Rd","City":"Palo Alto","State":"CA","Zip":"94304"},{"Location":"HEWLETT PACKARD","Address":"1501 Page Mill Rd Bld5","City":"Palo Alto","State":"CA","Zip":"94304"},{"Location":"HEWLETT PACKARD BLD 20","Address":"3000 Hanover St Bld20","City":"Palo Alto","State":"CA","Zip":"94304"},{"Location":"HEWLETT PACKARD BLDG 4","Address":"1501 Page Mill Rd Bl4","City":"Palo Alto","State":"CA","Zip":"94304"},{"Location":"HEWLETT PACKARD BLDG 6","Address":"1501 Page Mill Rd Bl6","City":"Palo Alto","State":"CA","Zip":"94304"},{"Location":"HINES 2","Address":"3160 Porter Dr","City":"Palo Alto","State":"CA","Zip":"94304"},{"Location":"HINES CORPORATION","Address":"3145 Porter Dr","City":"Palo Alto","State":"CA","Zip":"94304"},{"Location":"K AND L GATES LLP","Address":"630 Hansen Way","City":"Palo Alto","State":"CA","Zip":"94304"},{"Location":"KIRKLAND AND ELLIS","Address":"3330 Hillview Ave","City":"Palo Alto","State":"CA","Zip":"94304"},{"Location":"MACHINE ZONE INC","Address":"1050 Page Mill Rd 1","City":"Palo Alto","State":"CA","Zip":"94304"},{"Location":"MACY'S WEST 334","Address":"300 Stanford Shopping Ctr","City":"Palo Alto","State":"CA","Zip":"94304"},{"Location":"MACY'S WEST 334 BR","Address":"300 Sanford Mall","City":"Palo Alto","State":"CA","Zip":"94304"},{"Location":"MACY'S WEST 334B BR","Address":"50 Stanford Mall","City":"Palo Alto","State":"CA","Zip":"94304"},{"Location":"MAXS OPERA CAFE","Address":"711 Stanford Shopping Ctr","City":"Palo Alto","State":"CA","Zip":"94304"},{"Location":"MERRILL LYNCH CA5-814-02-00","Address":"3075b Hansen Way","City":"Palo Alto","State":"CA","Zip":"94304"},{"Location":"MICROSOFT - PALO ALTO","Address":"180 El Camino Real 186a","City":"Palo Alto","State":"CA","Zip":"94304"},{"Location":"MICROSOFT CORPORATION-PA","Address":"3210 Porter Dr","City":"Palo Alto","State":"CA","Zip":"94304"},{"Location":"MORGAN STANLEY 100662","Address":"1001 Page Mill Rd 4","City":"Palo Alto","State":"CA","Zip":"94304"},{"Location":"MORRISON AND FOERSTER","Address":"755 Page Mill Rd","City":"Palo Alto","State":"CA","Zip":"94304"},{"Location":"NEIMAN MARCUS 1024","Address":"400 Stanford Shopping Ctr","City":"Palo Alto","State":"CA","Zip":"94304"},{"Location":"NIKE INC","Address":"6 Stanford Shopping Ctr 6-a","City":"Palo Alto","State":"CA","Zip":"94304"},{"Location":"NORDSTROM - PALO ALTO","Address":"550 Stanford Shopping Ctr","City":"Palo Alto","State":"CA","Zip":"94304"},{"Location":"PALO ALTO RESEARCH CENTER","Address":"3333 Coyote Hill Rd","City":"Palo Alto","State":"CA","Zip":"94304"},{"Location":"PERKINS COIE","Address":"3150 Porter Dr","City":"Palo Alto","State":"CA","Zip":"94304"},{"Location":"PF CHANG'S #9911","Address":"900 Stanford Shopping Ctr","City":"Palo Alto","State":"CA","Zip":"94304"},{"Location":"SAP LABS LLC","Address":"3410 Hillview Ave","City":"Palo Alto","State":"CA","Zip":"94304"},{"Location":"SIDLEY AUSTIN  PALO ALTO","Address":"1001 Page Mill Rd Bld 1","City":"Palo Alto","State":"CA","Zip":"94304"},{"Location":"SILICON VALLEY BANK","Address":"2400 Hanover St","City":"Palo Alto","State":"CA","Zip":"94304"},{"Location":"SIMPSON THACHER BARTLETT","Address":"2475 Hanover St","City":"Palo Alto","State":"CA","Zip":"94304"},{"Location":"SONNENSCHEIN NATH & RESENTHAL","Address":"1530 Page Mill Rd 200","City":"Palo Alto","State":"CA","Zip":"94304"},{"Location":"STANDFORD HOSPITAL AND CLINCS","Address":"900 Welch Rd 350","City":"Palo Alto","State":"CA","Zip":"94304"},{"Location":"STANFORD UNIVERSITY","Address":"401 Quarry Rd Rm331","City":"Palo Alto","State":"CA","Zip":"94304"},{"Location":"STEPTOE AND JOHNSON LLP","Address":"1001 Page Mill Rd 150","City":"Palo Alto","State":"CA","Zip":"94304"},{"Location":"THE MELT","Address":"180 El Camino Real 705","City":"Palo Alto","State":"CA","Zip":"94304"},{"Location":"TIBCO - EXEC AREA","Address":"3303 Hillview Ave B1","City":"Palo Alto","State":"CA","Zip":"94304"},{"Location":"TIBCO SOFTWARE INC","Address":"3303 Hillview Ave","City":"Palo Alto","State":"CA","Zip":"94304"},{"Location":"TIBCO SOFTWARE INC - GYM","Address":"3307 Hillview Ave B3","City":"Palo Alto","State":"CA","Zip":"94304"},{"Location":"VARIAN MEDICAL","Address":"3130 Hansen Way","City":"Palo Alto","State":"CA","Zip":"94304"},{"Location":"VARIAN MEDICAL SYSTEM","Address":"3100 Hansen Way","City":"Palo Alto","State":"CA","Zip":"94304"},{"Location":"VARIAN MEDICAL SYSTEMS","Address":"3120 Hansen Way","City":"Palo Alto","State":"CA","Zip":"94304"},{"Location":"VMWARE","Address":"3400 Hillview Ave","City":"Palo Alto","State":"CA","Zip":"94304"},{"Location":"VMWARE","Address":"3405 Hillview Ave C","City":"Palo Alto","State":"CA","Zip":"94304"},{"Location":"VMWARE  INC.","Address":"3401 Hillview Ave","City":"Palo Alto","State":"CA","Zip":"94304"},{"Location":"VMWARE BLDG H","Address":"3401 Hillview Ave H","City":"Palo Alto","State":"CA","Zip":"94304"},{"Location":"VMWARE BLDG HTA","Address":"3401 Hillview Ave Hta","City":"Palo Alto","State":"CA","Zip":"94304"},{"Location":"VMWARE BLDG HTE","Address":"4301 Hillview Ave Hte","City":"Palo Alto","State":"CA","Zip":"94304"},{"Location":"VMWARE BUILDING #F","Address":"3411 Hillview Ave","City":"Palo Alto","State":"CA","Zip":"94304"},{"Location":"WILKES BASHFORD","Address":"450 Stanford Shopping Ctr","City":"Palo Alto","State":"CA","Zip":"94304"},{"Location":"WILMER HALE","Address":"950 Page Mill Rd 2","City":"Palo Alto","State":"CA","Zip":"94304"},{"Location":"WSGR","Address":"650 Page Mill Rd","City":"Palo Alto","State":"CA","Zip":"94304"},{"Location":"YUCCA DE LAC","Address":"180 El Camino Real 700","City":"Palo Alto","State":"CA","Zip":"94304"}]