[{"Location":"24 HOUR FITNESS #503","Address":"500 S El Camino Real","City":"San Mateo","State":"CA","Zip":"94402"},{"Location":"24 HOUR FITNESS #813","Address":"93 Bovet Rd","City":"San Mateo","State":"CA","Zip":"94402"},{"Location":"AAA INSURANCE","Address":"1650 S Delaware St","City":"San Mateo","State":"CA","Zip":"94402"},{"Location":"AMERICAN LEGION HALL","Address":"130 South Blvd","City":"San Mateo","State":"CA","Zip":"94402"},{"Location":"ARBOR CAPITAL","Address":"155 Brevet","City":"San Mateo","State":"CA","Zip":"94402"},{"Location":"BOREL BANK & TRUST COMPANY","Address":"160 Bovet Rd","City":"San Mateo","State":"CA","Zip":"94402"},{"Location":"BOREL ESTATE CO","Address":"1700 S El Camino Real","City":"San Mateo","State":"CA","Zip":"94402"},{"Location":"CAESAR'S FURNITURE INC","Address":"1717 S Elcamino","City":"San Mateo","State":"CA","Zip":"94402"},{"Location":"CHOLET VINEYARDS","Address":"702 S Eldorado St","City":"San Mateo","State":"CA","Zip":"94402"},{"Location":"EMERSON EQUITY LLC","Address":"155 Bovet Rd 725","City":"San Mateo","State":"CA","Zip":"94402"},{"Location":"FANHATTAN LLC","Address":"489 S El Canino Real","City":"San Mateo","State":"CA","Zip":"94402"},{"Location":"FULLER & THALER ASSET MGMT INC","Address":"411 Borel Ave 300","City":"San Mateo","State":"CA","Zip":"94402"},{"Location":"GO PRO","Address":"3000 Clearview Way E","City":"San Mateo","State":"CA","Zip":"94402"},{"Location":"JACKS RESTUARANT AND BAR","Address":"1750 S El Camino Real","City":"San Mateo","State":"CA","Zip":"94402"},{"Location":"LEBHERZ INSURANCE SERVICES INC","Address":"1600 W Hillsdale Blvd 100","City":"San Mateo","State":"CA","Zip":"94402"},{"Location":"LU 617 IBEW","Address":"1701 Leslie St","City":"San Mateo","State":"CA","Zip":"94402"},{"Location":"MORGAN STANLEY 100008","Address":"411 Borel Ave 220","City":"San Mateo","State":"CA","Zip":"94402"},{"Location":"MR PICKLE SANDWHICH SHOP","Address":"1432 S El Camino Real","City":"San Mateo","State":"CA","Zip":"94402"},{"Location":"ORIGINAL NICKS PIZZERIA","Address":"1214 S El Camino Real","City":"San Mateo","State":"CA","Zip":"94402"},{"Location":"PARAS AND ASSOCIATES","Address":"520 S El Camino Real 717","City":"San Mateo","State":"CA","Zip":"94402"},{"Location":"PENINSULA GOLF","Address":"24 17th Ave","City":"San Mateo","State":"CA","Zip":"94402"},{"Location":"PERRY'S","Address":"411 Borel Ave 606","City":"San Mateo","State":"CA","Zip":"94402"},{"Location":"PLANNED PARENTHOOD MARMONTE","Address":"35 Baywood Ave","City":"San Mateo","State":"CA","Zip":"94402"},{"Location":"PLANNED PARENTHOOD MARMONTE","Address":"29 Baywood Ave","City":"San Mateo","State":"CA","Zip":"94402"},{"Location":"RELICGOLF.COM","Address":"1206 S Amphlett Blvd 1","City":"San Mateo","State":"CA","Zip":"94402"},{"Location":"SALESFORCE.COM","Address":"900 Concar Dr","City":"San Mateo","State":"CA","Zip":"94402"},{"Location":"SAN MATEO CTY COMM COLLEGE","Address":"3401 Csm Dr","City":"San Mateo","State":"CA","Zip":"94402"},{"Location":"SCANDIA","Address":"742 Polhemus Rd","City":"San Mateo","State":"CA","Zip":"94402"},{"Location":"SFPLC","Address":"1720 S Amphlett Blvd 300","City":"San Mateo","State":"CA","Zip":"94402"},{"Location":"SINALOENSE MEXICAN","Address":"1622 Palm Ave","City":"San Mateo","State":"CA","Zip":"94402"},{"Location":"SUNSHINE CAFE","Address":"1750 S El Camino Real","City":"San Mateo","State":"CA","Zip":"94402"},{"Location":"THE PANTRY RESTAURANT I","Address":"1855 S Delaware St","City":"San Mateo","State":"CA","Zip":"94402"},{"Location":"TIFTOES NAILS","Address":"65 Bovet Rd","City":"San Mateo","State":"CA","Zip":"94402"},{"Location":"UNIVERSAL ELECTRONICS","Address":"411 Borel Ave 405","City":"San Mateo","State":"CA","Zip":"94402"},{"Location":"US POSTAL SERVICE II","Address":"1630 S Delaware St","City":"San Mateo","State":"CA","Zip":"94402"},{"Location":"WELLS FARGO BANK","Address":"100 Crystal Springs Shopping","City":"San Mateo","State":"CA","Zip":"94402"},{"Location":"WINDY CITY PIZZA","Address":"35 Bovet Rd","City":"San Mateo","State":"CA","Zip":"94402"},{"Location":"XIGNITE","Address":"1825 S Grant St 100","City":"San Mateo","State":"CA","Zip":"94402"}]