[{"Location":"BAILARD","Address":"950 Tower Ln 1900","City":"Foster City","State":"CA","Zip":"94404"},{"Location":"CB RICHARD ELLIS","Address":"950 Tower Ln 870","City":"Foster City","State":"CA","Zip":"94404"},{"Location":"CENTRAL PRINTING GROUP","Address":"289 Foster City Blvd B","City":"Foster City","State":"CA","Zip":"94404"},{"Location":"CLUB HOUSE BISTRO","Address":"1221 Chess Dr","City":"Foster City","State":"CA","Zip":"94404"},{"Location":"COOL CLUBS","Address":"2401 E 3rd Ave","City":"Foster City","State":"CA","Zip":"94404"},{"Location":"CORNER BAKERY CAFE","Address":"977 E Hillsdale Blvd","City":"Foster City","State":"CA","Zip":"94404"},{"Location":"DAVITA #2181","Address":"1261 E Hillsdale Blvd","City":"Foster City","State":"CA","Zip":"94404"},{"Location":"EL TORITO 7131","Address":"388 Vintage Park Dr","City":"Foster City","State":"CA","Zip":"94404"},{"Location":"FOSTER CITY LAUNDROMAT","Address":"1471 Beach Park Blvd","City":"Foster City","State":"CA","Zip":"94404"},{"Location":"FOSTER CITY PARKS & RECREATION","Address":"650 Shell Blvd","City":"Foster City","State":"CA","Zip":"94404"},{"Location":"GILEAD SCIENCE","Address":"301 Velocity Way","City":"Foster City","State":"CA","Zip":"94404"},{"Location":"GILEAD SCIENCES","Address":"300 Lakeside Dr","City":"Foster City","State":"CA","Zip":"94404"},{"Location":"GILEAD SCIENCES","Address":"333 Lakeside Dr","City":"Foster City","State":"CA","Zip":"94404"},{"Location":"GILEAD SCIENCES","Address":"322 Lakeside Dr","City":"Foster City","State":"CA","Zip":"94404"},{"Location":"GREAT CLIPS","Address":"929 E Hillsdale Blvd","City":"Foster City","State":"CA","Zip":"94404"},{"Location":"IBM - FOSTER CITY","Address":"1001 E Hillsdale Blvd 400","City":"Foster City","State":"CA","Zip":"94404"},{"Location":"JEFFERIES LLC","Address":"950 Tower Ln 21","City":"Foster City","State":"CA","Zip":"94404"},{"Location":"LEGACY PARTNERS","Address":"4000 E 3rd Ave 600","City":"Foster City","State":"CA","Zip":"94404"},{"Location":"MARINERS POINT","Address":"2401 E 3rd Ave","City":"Foster City","State":"CA","Zip":"94404"},{"Location":"MARINERS POINT BAR","Address":"2401 E 3rd Ave","City":"Foster City","State":"CA","Zip":"94404"},{"Location":"MARRIOTT BISTRO","Address":"550 Shell Blvd","City":"Foster City","State":"CA","Zip":"94404"},{"Location":"MIMIS CAFE","Address":"2208 Bridgepointe Pkwy","City":"Foster City","State":"CA","Zip":"94404"},{"Location":"NEW ENGLAND FINANCIAL","Address":"950 Tower Ln 1000","City":"Foster City","State":"CA","Zip":"94404"},{"Location":"PARKSIDE TOWER #2","Address":"1031 E Hillsdale Blvd H","City":"Foster City","State":"CA","Zip":"94404"},{"Location":"PENNINSULA JEWISH COMMUNITY","Address":"800 Foster City Blvd","City":"Foster City","State":"CA","Zip":"94404"},{"Location":"PIZZA HUT","Address":"1141 Triton Dr","City":"Foster City","State":"CA","Zip":"94404"},{"Location":"PJCC","Address":"800 Foster City Blvd","City":"Foster City","State":"CA","Zip":"94404"},{"Location":"PORT ROYAL ASSOCIATION","Address":"2 Port Royal Ave","City":"Foster City","State":"CA","Zip":"94404"},{"Location":"QUANTUM ANALYTICS","Address":"3400 E 3rd Ave","City":"Foster City","State":"CA","Zip":"94404"},{"Location":"SLING MEDIA%2C INC.","Address":"1051 E Hillsdale Blvd 500","City":"Foster City","State":"CA","Zip":"94404"},{"Location":"SONY COMPUTER ENTERTAINMENT","Address":"919 E Hillsdale Blvd","City":"Foster City","State":"CA","Zip":"94404"},{"Location":"SPICES MANAGEMENT LLC","Address":"929 Edgewater Blvd","City":"Foster City","State":"CA","Zip":"94404"},{"Location":"SPORTS CLIPS1","Address":"2017 Chess Dr","City":"Foster City","State":"CA","Zip":"94404"},{"Location":"Sweet Basil Thai","Address":"1473 Beach Park Blvd","City":"Foster City","State":"CA","Zip":"94404"},{"Location":"SYCOMP","Address":"950 Tower Ln 17","City":"Foster City","State":"CA","Zip":"94404"},{"Location":"THE LAW OFFICES OF SUZAN FOLEY","Address":"1169 Chess Dr C","City":"Foster City","State":"CA","Zip":"94404"},{"Location":"TOKYO VILLAGE","Address":"1221 Chess Dr","City":"Foster City","State":"CA","Zip":"94404"},{"Location":"TRIPART MAMAGEMENT INC","Address":"551 Pilgrim Dr A","City":"Foster City","State":"CA","Zip":"94404"},{"Location":"ZOUVES FERTILITY CENTER","Address":"1241 E Hillsdale Blvd 100","City":"Foster City","State":"CA","Zip":"94404"},{"Location":"BJS RESTAURANT #443","Address":"2206 Bridgepoint Parkway","City":"San Mateo","State":"CA","Zip":"94404"},{"Location":"FUTURES IN EDUCATION","Address":"1840 Gateway Dr 100","City":"San Mateo","State":"CA","Zip":"94404"},{"Location":"GUCKENHEIMER","Address":"1850 Gateway Dr 500","City":"San Mateo","State":"CA","Zip":"94404"},{"Location":"LEGACY PARTNERS COMMERCIAL INC","Address":"1850 Gayeway Dr","City":"San Mateo","State":"CA","Zip":"94404"},{"Location":"RED ROBIN #196","Address":"2204 Bridgepointe Pkwy","City":"San Mateo","State":"CA","Zip":"94404"},{"Location":"RESIDENCE INN (0064409)","Address":"2000 Winward Way","City":"San Mateo","State":"CA","Zip":"94404"},{"Location":"SPACE TIME INSIGHT","Address":"1850 Gateway Dr 125","City":"San Mateo","State":"CA","Zip":"94404"}]