[{"Location":"AMERICAN INSTITUTES OF  RE","Address":"2800 Campus Dr 200","City":"San Mateo","State":"CA","Zip":"94403"},{"Location":"AMERICANO DELI & GRILL","Address":"224 E Hillsdale Blvd","City":"San Mateo","State":"CA","Zip":"94403"},{"Location":"ANTONE'S COCKTAILS","Address":"32 37th Ave","City":"San Mateo","State":"CA","Zip":"94403"},{"Location":"BAY MEADOWS ORTHODONTICS","Address":"3455 Pacific Blvd","City":"San Mateo","State":"CA","Zip":"94403"},{"Location":"BO JOHNSONS AUTO REPAIR","Address":"111 E 20th Ave","City":"San Mateo","State":"CA","Zip":"94403"},{"Location":"CALIFORNIA PIZZA KITCHEN #52","Address":"100 Hillsdale Mall","City":"San Mateo","State":"CA","Zip":"94403"},{"Location":"CONVIVA","Address":"2 Waters Park Dr 150","City":"San Mateo","State":"CA","Zip":"94403"},{"Location":"COUNTY OF SAN MATEO","Address":"3130 La Selva St 301","City":"San Mateo","State":"CA","Zip":"94403"},{"Location":"CRUNCH FITNESS","Address":"1150 Park Pl","City":"San Mateo","State":"CA","Zip":"94403"},{"Location":"EOP","Address":"2655 Campus Dr 100","City":"San Mateo","State":"CA","Zip":"94403"},{"Location":"EXTEND HEALTH INC","Address":"2929 Campus Dr 400","City":"San Mateo","State":"CA","Zip":"94403"},{"Location":"FIRESTONE #012688","Address":"2180 S El Camino Real","City":"San Mateo","State":"CA","Zip":"94403"},{"Location":"FIRESTONE #243406","Address":"2640 S El Camino Real","City":"San Mateo","State":"CA","Zip":"94403"},{"Location":"FITNESS 19 %40 179","Address":"2727 S El Camino Real D","City":"San Mateo","State":"CA","Zip":"94403"},{"Location":"FLUFF N PUFF DOG WASH INC","Address":"1870 S Norfolk St","City":"San Mateo","State":"CA","Zip":"94403"},{"Location":"HEIDI PIES","Address":"1941 S Elcamino Real","City":"San Mateo","State":"CA","Zip":"94403"},{"Location":"JERSEY MIKE'S SUBS","Address":"2925 S El Camino Real","City":"San Mateo","State":"CA","Zip":"94403"},{"Location":"KATS VIETNAM HOUSE","Address":"35 Laurie Meadows Dr","City":"San Mateo","State":"CA","Zip":"94403"},{"Location":"KINDRED PARTNERS LLC","Address":"2755 Campus Dr 220","City":"San Mateo","State":"CA","Zip":"94403"},{"Location":"KKR ACCOUNTING SERVICES LLC","Address":"2755 Campus Dr 240","City":"San Mateo","State":"CA","Zip":"94403"},{"Location":"MACY'S WEST #429 BR","Address":"301 Hillsdale Mall","City":"San Mateo","State":"CA","Zip":"94403"},{"Location":"MACY'S WEST 429","Address":"115 Hillsdale Mall","City":"San Mateo","State":"CA","Zip":"94403"},{"Location":"MACY'S WEST 432 BR","Address":"2838 S El Camino Real","City":"San Mateo","State":"CA","Zip":"94403"},{"Location":"MANCORA CEVICHERIA PERUVIAN1","Address":"2191 S El Camino Real","City":"San Mateo","State":"CA","Zip":"94403"},{"Location":"MEN'S WEARHOUSE #2162","Address":"1960 S El Camino Real","City":"San Mateo","State":"CA","Zip":"94403"},{"Location":"MK NAILS SALON","Address":"17 W 25th Ave","City":"San Mateo","State":"CA","Zip":"94403"},{"Location":"NORDSTROM - HILLSDALE","Address":"130 Hillsdale Mall","City":"San Mateo","State":"CA","Zip":"94403"},{"Location":"OCHA CAFE","Address":"2986 S Norfolk St","City":"San Mateo","State":"CA","Zip":"94403"},{"Location":"OUTBACK STEAKHOUSE","Address":"66 31st Ave","City":"San Mateo","State":"CA","Zip":"94403"},{"Location":"PAUL MARTIN'S AMERICAN GRILL","Address":"101 Hillsdale Shopping Ctr","City":"San Mateo","State":"CA","Zip":"94403"},{"Location":"PAULS AT THE VILLA","Address":"4000 S El Camino","City":"San Mateo","State":"CA","Zip":"94403"},{"Location":"PBC SAN MATEO  INC.","Address":"1900 S Norfolk St 350","City":"San Mateo","State":"CA","Zip":"94403"},{"Location":"PMAB-S LLC","Address":"60 31st Ave","City":"San Mateo","State":"CA","Zip":"94403"},{"Location":"ROUND TABLE PIZZA","Address":"61 W 43rd Ave","City":"San Mateo","State":"CA","Zip":"94403"},{"Location":"ROUTE 92 BAR","Address":"2128 S El Camino Real","City":"San Mateo","State":"CA","Zip":"94403"},{"Location":"SAN FRANCISCO GIANTS","Address":"225 Hillsdale Mall","City":"San Mateo","State":"CA","Zip":"94403"},{"Location":"SAN MATEO COUNTY HEALTH SVCS","Address":"225 37th Ave","City":"San Mateo","State":"CA","Zip":"94403"},{"Location":"SAN MATEO ELKS LODGE","Address":"229 W 20th Ave","City":"San Mateo","State":"CA","Zip":"94403"},{"Location":"SAN MATEO EVENT CTR JOCKEY CLU","Address":"2495 S Delaware St","City":"San Mateo","State":"CA","Zip":"94403"},{"Location":"SATELLITE DIALYSIS - SM","Address":"2000 S El Camino Real","City":"San Mateo","State":"CA","Zip":"94403"},{"Location":"SCOTTRADE 04V","Address":"4060 S El Camino Real C","City":"San Mateo","State":"CA","Zip":"94403"},{"Location":"SHIKI JAPANESE RES","Address":"1332 W Hillsdale Blvd","City":"San Mateo","State":"CA","Zip":"94403"},{"Location":"SOLA SALONS","Address":"4060 S El Camino Real","City":"San Mateo","State":"CA","Zip":"94403"},{"Location":"SPENCER STUART","Address":"2988 Campus Dr 300","City":"San Mateo","State":"CA","Zip":"94403"},{"Location":"STEAMIES","Address":"3403 Pacific Blvd","City":"San Mateo","State":"CA","Zip":"94403"},{"Location":"SUPER CUTS","Address":"15 24th Ave","City":"San Mateo","State":"CA","Zip":"94403"},{"Location":"TAQUERIA SINALOENSE","Address":"8 W 25th Ave","City":"San Mateo","State":"CA","Zip":"94403"},{"Location":"TARGET","Address":"2220 Bridge Point Parkway","City":"San Mateo","State":"CA","Zip":"94403"},{"Location":"TEAMSTERS","Address":"151 W 20th Ave","City":"San Mateo","State":"CA","Zip":"94403"},{"Location":"TGI FRIDAY'S #2041","Address":"3101 S El Camino Real","City":"San Mateo","State":"CA","Zip":"94403"},{"Location":"THE CHEESECAKE FACTORY 0156","Address":"398 Hillsdale Shopping Center","City":"San Mateo","State":"CA","Zip":"94403"},{"Location":"THE COUNTER","Address":"41 W Hillsdale Blvd","City":"San Mateo","State":"CA","Zip":"94403"},{"Location":"THE PENNINSULA GOLF & COUNTRY","Address":"701 Madera Dr","City":"San Mateo","State":"CA","Zip":"94403"},{"Location":"THE SHRINERS","Address":"1925 Elkhorn Ct","City":"San Mateo","State":"CA","Zip":"94403"},{"Location":"THE SWINGIN DOOR","Address":"106 E 25th Ave","City":"San Mateo","State":"CA","Zip":"94403"},{"Location":"WELLS FARGO BANK","Address":"81 W Hillsdale Blvd 1flr","City":"San Mateo","State":"CA","Zip":"94403"},{"Location":"AMERICAN INSTITUTES OF  RE","Address":"2800 Campus Dr 200","City":"San Mateo","State":"CA","Zip":"94403"},{"Location":"AMERICANO DELI & GRILL","Address":"224 E Hillsdale Blvd","City":"San Mateo","State":"CA","Zip":"94403"},{"Location":"ANTONE'S COCKTAILS","Address":"32 37th Ave","City":"San Mateo","State":"CA","Zip":"94403"},{"Location":"BAY MEADOWS ORTHODONTICS","Address":"3455 Pacific Blvd","City":"San Mateo","State":"CA","Zip":"94403"},{"Location":"BO JOHNSONS AUTO REPAIR","Address":"111 E 20th Ave","City":"San Mateo","State":"CA","Zip":"94403"},{"Location":"CALIFORNIA PIZZA KITCHEN #52","Address":"100 Hillsdale Mall","City":"San Mateo","State":"CA","Zip":"94403"},{"Location":"CONVIVA","Address":"2 Waters Park Dr 150","City":"San Mateo","State":"CA","Zip":"94403"},{"Location":"COUNTY OF SAN MATEO","Address":"3130 La Selva St 301","City":"San Mateo","State":"CA","Zip":"94403"},{"Location":"CRUNCH FITNESS","Address":"1150 Park Pl","City":"San Mateo","State":"CA","Zip":"94403"},{"Location":"EOP","Address":"2655 Campus Dr 100","City":"San Mateo","State":"CA","Zip":"94403"},{"Location":"EXTEND HEALTH INC","Address":"2929 Campus Dr 400","City":"San Mateo","State":"CA","Zip":"94403"},{"Location":"FIRESTONE #012688","Address":"2180 S El Camino Real","City":"San Mateo","State":"CA","Zip":"94403"},{"Location":"FIRESTONE #243406","Address":"2640 S El Camino Real","City":"San Mateo","State":"CA","Zip":"94403"},{"Location":"FITNESS 19 %40 179","Address":"2727 S El Camino Real D","City":"San Mateo","State":"CA","Zip":"94403"},{"Location":"FLUFF N PUFF DOG WASH INC","Address":"1870 S Norfolk St","City":"San Mateo","State":"CA","Zip":"94403"},{"Location":"JERSEY MIKE'S SUBS","Address":"2925 S El Camino Real","City":"San Mateo","State":"CA","Zip":"94403"},{"Location":"KATS VIETNAM HOUSE","Address":"35 Laurie Meadows Dr","City":"San Mateo","State":"CA","Zip":"94403"},{"Location":"KINDRED PARTNERS LLC","Address":"2755 Campus Dr 220","City":"San Mateo","State":"CA","Zip":"94403"},{"Location":"KKR ACCOUNTING SERVICES LLC","Address":"2755 Campus Dr 240","City":"San Mateo","State":"CA","Zip":"94403"},{"Location":"MACY'S WEST #429 BR","Address":"301 Hillsdale Mall","City":"San Mateo","State":"CA","Zip":"94403"},{"Location":"MACY'S WEST 429","Address":"115 Hillsdale Mall","City":"San Mateo","State":"CA","Zip":"94403"},{"Location":"MACY'S WEST 432 BR","Address":"2838 S El Camino Real","City":"San Mateo","State":"CA","Zip":"94403"},{"Location":"MANCORA CEVICHERIA PERUVIAN1","Address":"2191 S El Camino Real","City":"San Mateo","State":"CA","Zip":"94403"},{"Location":"MEN'S WEARHOUSE #2162","Address":"1960 S El Camino Real","City":"San Mateo","State":"CA","Zip":"94403"},{"Location":"MK NAILS SALON","Address":"17 W 25th Ave","City":"San Mateo","State":"CA","Zip":"94403"},{"Location":"NORDSTROM - HILLSDALE","Address":"130 Hillsdale Mall","City":"San Mateo","State":"CA","Zip":"94403"},{"Location":"OCHA CAFE","Address":"2986 S Norfolk St","City":"San Mateo","State":"CA","Zip":"94403"},{"Location":"OUTBACK STEAKHOUSE","Address":"66 31st Ave","City":"San Mateo","State":"CA","Zip":"94403"},{"Location":"PAULS AT THE VILLA","Address":"4000 S El Camino","City":"San Mateo","State":"CA","Zip":"94403"},{"Location":"PBC SAN MATEO  INC.","Address":"1900 S Norfolk St 350","City":"San Mateo","State":"CA","Zip":"94403"},{"Location":"PMAB-S LLC","Address":"60 31st Ave","City":"San Mateo","State":"CA","Zip":"94403"},{"Location":"ROUND TABLE PIZZA","Address":"61 W 43rd Ave","City":"San Mateo","State":"CA","Zip":"94403"},{"Location":"ROUTE 92 BAR","Address":"2128 S El Camino Real","City":"San Mateo","State":"CA","Zip":"94403"},{"Location":"SAN FRANCISCO GIANTS","Address":"225 Hillsdale Mall","City":"San Mateo","State":"CA","Zip":"94403"},{"Location":"SAN MATEO COUNTY HEALTH SVCS","Address":"225 37th Ave","City":"San Mateo","State":"CA","Zip":"94403"},{"Location":"SAN MATEO ELKS LODGE","Address":"229 W 20th Ave","City":"San Mateo","State":"CA","Zip":"94403"},{"Location":"SAN MATEO EVENT CTR JOCKEY CLU","Address":"2495 S Delaware St","City":"San Mateo","State":"CA","Zip":"94403"},{"Location":"SATELLITE DIALYSIS - SM","Address":"2000 S El Camino Real","City":"San Mateo","State":"CA","Zip":"94403"},{"Location":"SCOTTRADE 04V","Address":"4060 S El Camino Real C","City":"San Mateo","State":"CA","Zip":"94403"},{"Location":"SHIKI JAPANESE RES","Address":"1332 W Hillsdale Blvd","City":"San Mateo","State":"CA","Zip":"94403"},{"Location":"SOLA SALONS","Address":"4060 S El Camino Real","City":"San Mateo","State":"CA","Zip":"94403"},{"Location":"SPENCER STUART","Address":"2988 Campus Dr 300","City":"San Mateo","State":"CA","Zip":"94403"},{"Location":"STEAMIES","Address":"3403 Pacific Blvd","City":"San Mateo","State":"CA","Zip":"94403"},{"Location":"SUPER CUTS","Address":"15 24th Ave","City":"San Mateo","State":"CA","Zip":"94403"},{"Location":"TAQUERIA SINALOENSE","Address":"8 W 25th Ave","City":"San Mateo","State":"CA","Zip":"94403"},{"Location":"TARGET","Address":"2220 Bridge Point Parkway","City":"San Mateo","State":"CA","Zip":"94403"},{"Location":"TEAMSTERS","Address":"151 W 20th Ave","City":"San Mateo","State":"CA","Zip":"94403"},{"Location":"TGI FRIDAY'S #2041","Address":"3101 S El Camino Real","City":"San Mateo","State":"CA","Zip":"94403"},{"Location":"THE CHEESECAKE FACTORY 0156","Address":"398 Hillsdale Shopping Center","City":"San Mateo","State":"CA","Zip":"94403"},{"Location":"THE COUNTER","Address":"41 W Hillsdale Blvd","City":"San Mateo","State":"CA","Zip":"94403"},{"Location":"THE PENNINSULA GOLF & COUNTRY","Address":"701 Madera Dr","City":"San Mateo","State":"CA","Zip":"94403"},{"Location":"THE SHRINERS","Address":"1925 Elkhorn Ct","City":"San Mateo","State":"CA","Zip":"94403"},{"Location":"THE SWINGIN DOOR","Address":"106 E 25th Ave","City":"San Mateo","State":"CA","Zip":"94403"},{"Location":"WELLS FARGO BANK","Address":"81 W Hillsdale Blvd 1flr","City":"San Mateo","State":"CA","Zip":"94403"}]