[{"Location":"31ST UNION","Address":"5 S Ellsworth Ave","City":"San Mateo","State":"CA","Zip":"94401"},{"Location":"A AND R EDELMAN","Address":"201 Baldwin Ave","City":"San Mateo","State":"CA","Zip":"94401"},{"Location":"A&M RESTAURANT","Address":"1700 Coyote Point Dr","City":"San Mateo","State":"CA","Zip":"94401"},{"Location":"ABC CAFE","Address":"210 E 3rd Ave","City":"San Mateo","State":"CA","Zip":"94401"},{"Location":"ALDOS PIZZA","Address":"600 S Norfolk St","City":"San Mateo","State":"CA","Zip":"94401"},{"Location":"AMERICA'S HOUSE RESTAURANT","Address":"1440 Cary Ave","City":"San Mateo","State":"CA","Zip":"94401"},{"Location":"ASTARIA REST","Address":"50 E 3rd Ave","City":"San Mateo","State":"CA","Zip":"94401"},{"Location":"ATTIC","Address":"234 S B St","City":"San Mateo","State":"CA","Zip":"94401"},{"Location":"BEN TRE","Address":"213 2nd Ave","City":"San Mateo","State":"CA","Zip":"94401"},{"Location":"BILLS H0FBRAU","Address":"11 S B St","City":"San Mateo","State":"CA","Zip":"94401"},{"Location":"BLUE ROCK DENTAL","Address":"70 N El Camino Real B","City":"San Mateo","State":"CA","Zip":"94401"},{"Location":"CAJUN HOUSE TWO","Address":"251 S B St","City":"San Mateo","State":"CA","Zip":"94401"},{"Location":"CALIFORNIA WATER SERVICE CO","Address":"341 N Delaware St","City":"San Mateo","State":"CA","Zip":"94401"},{"Location":"CHA CHA CHA CUBA","Address":"112 S B St","City":"San Mateo","State":"CA","Zip":"94401"},{"Location":"CHAMPAGNE SEAFOOD RESTAURANT","Address":"88 E 4th Ave","City":"San Mateo","State":"CA","Zip":"94401"},{"Location":"CHEUNG DENTAL","Address":"100 S El Camino Real","City":"San Mateo","State":"CA","Zip":"94401"},{"Location":"CHINA BISTRO","Address":"111 E 4th Ave","City":"San Mateo","State":"CA","Zip":"94401"},{"Location":"CURRY UP NOW","Address":"129 S B St","City":"San Mateo","State":"CA","Zip":"94401"},{"Location":"DOWNTOWN TIKI LOUNGE","Address":"144 S B St","City":"San Mateo","State":"CA","Zip":"94401"},{"Location":"DR WESTON CARPIAUX","Address":"130 N San Mateo Dr 2","City":"San Mateo","State":"CA","Zip":"94401"},{"Location":"EAST WEST BANK","Address":"27 E 4th Ave","City":"San Mateo","State":"CA","Zip":"94401"},{"Location":"EL PALENQUE TAQUERIA","Address":"15 N Kingston St","City":"San Mateo","State":"CA","Zip":"94401"},{"Location":"EL RINCONCITO CATRACHO","Address":"85 N B St","City":"San Mateo","State":"CA","Zip":"94401"},{"Location":"EPA RECYCLE CENTER","Address":"18 S Idaho St A","City":"San Mateo","State":"CA","Zip":"94401"},{"Location":"EQUINOX FITNESS","Address":"4 E 4th Ave","City":"San Mateo","State":"CA","Zip":"94401"},{"Location":"FIRESTONE #122149","Address":"521 S B St","City":"San Mateo","State":"CA","Zip":"94401"},{"Location":"FIRST NATIONAL BANK OF NO CALI","Address":"150 E 3rd Ave","City":"San Mateo","State":"CA","Zip":"94401"},{"Location":"FRIENDSHIP HALL","Address":"416 2nd Ave","City":"San Mateo","State":"CA","Zip":"94401"},{"Location":"FUJI SUKIYAKI","Address":"428 E 3rd Ave","City":"San Mateo","State":"CA","Zip":"94401"},{"Location":"FUNNYORDIE INC","Address":"167 2nd Ave","City":"San Mateo","State":"CA","Zip":"94401"},{"Location":"FUSION PERUVIAN GRILL","Address":"45 N B St","City":"San Mateo","State":"CA","Zip":"94401"},{"Location":"HEART OF SAN MATEO LLC","Address":"44 E 3rd Ave","City":"San Mateo","State":"CA","Zip":"94401"},{"Location":"HEART OF SM COLLECTED BL","Address":"65 E 3rd Ave","City":"San Mateo","State":"CA","Zip":"94401"},{"Location":"HUMMUS","Address":"150 E 4th Ave","City":"San Mateo","State":"CA","Zip":"94401"},{"Location":"JOY SUSHI","Address":"30 S B St","City":"San Mateo","State":"CA","Zip":"94401"},{"Location":"KISAKU RESTAURANT","Address":"47 E 4th Ave","City":"San Mateo","State":"CA","Zip":"94401"},{"Location":"LAS AMERICAS","Address":"254 South B Street","City":"San Mateo","State":"CA","Zip":"94401"},{"Location":"LITTLE LAMB SAN MATEO LL","Address":"215 S Ellsworth Ave","City":"San Mateo","State":"CA","Zip":"94401"},{"Location":"MARSETTI INC.","Address":"432 Peninsula Ave A","City":"San Mateo","State":"CA","Zip":"94401"},{"Location":"MCGOVERN'S BAR","Address":"215 E 4th Ave","City":"San Mateo","State":"CA","Zip":"94401"},{"Location":"MILLS HEALTH CENTER","Address":"100 S San Mateo Dr","City":"San Mateo","State":"CA","Zip":"94401"},{"Location":"MOON'S FAMILY PUB%2FNY PIZZA","Address":"215 S B St","City":"San Mateo","State":"CA","Zip":"94401"},{"Location":"NEW YORK PIZZA","Address":"219 S B St","City":"San Mateo","State":"CA","Zip":"94401"},{"Location":"OSTERIA COPPA","Address":"139 S B St","City":"San Mateo","State":"CA","Zip":"94401"},{"Location":"PASTA PASTA","Address":"125 E 4th Ave","City":"San Mateo","State":"CA","Zip":"94401"},{"Location":"PHO GARDEN EXPRESS","Address":"150 S B St","City":"San Mateo","State":"CA","Zip":"94401"},{"Location":"PLAYGROUPS UNLIMITED LLC","Address":"302 8th Ave","City":"San Mateo","State":"CA","Zip":"94401"},{"Location":"PREMIER BOUTIQUE 1","Address":"132 E 3rd Ave","City":"San Mateo","State":"CA","Zip":"94401"},{"Location":"PROLINE AUTO BODY SERVICE","Address":"1021 N Amphlett Blvd","City":"San Mateo","State":"CA","Zip":"94401"},{"Location":"RAVE BURGER","Address":"144 E 3rd Ave","City":"San Mateo","State":"CA","Zip":"94401"},{"Location":"RED CRAWFISH","Address":"401 E 3rd Ave","City":"San Mateo","State":"CA","Zip":"94401"},{"Location":"ROUND TABLE PIZZA #1000","Address":"844 N Delaware St","City":"San Mateo","State":"CA","Zip":"94401"},{"Location":"SAKI TAMYA INC","Address":"41 E 4th Ave","City":"San Mateo","State":"CA","Zip":"94401"},{"Location":"SAN MATEO PRIME","Address":"174 E 3rd Ave","City":"San Mateo","State":"CA","Zip":"94401"},{"Location":"SHABUWAY","Address":"145 E 3rd Ave","City":"San Mateo","State":"CA","Zip":"94401"},{"Location":"SKY LOUNGE","Address":"76 E 3rd Ave","City":"San Mateo","State":"CA","Zip":"94401"},{"Location":"ST TIMOTHYS CHURCH","Address":"1515 Dolan Ave","City":"San Mateo","State":"CA","Zip":"94401"},{"Location":"STERLING COURT #1","Address":"850 N El Camino Real","City":"San Mateo","State":"CA","Zip":"94401"},{"Location":"STERLING COURT #2","Address":"850 N El Camino Real","City":"San Mateo","State":"CA","Zip":"94401"},{"Location":"STERLING COURT #3","Address":"850 N El Camino Real","City":"San Mateo","State":"CA","Zip":"94401"},{"Location":"STERLING COURT #4","Address":"850 N El Camino Real","City":"San Mateo","State":"CA","Zip":"94401"},{"Location":"STERLING COURT #5","Address":"850 N El Camino Real","City":"San Mateo","State":"CA","Zip":"94401"},{"Location":"STERLING COURT #6","Address":"850 N El Camino Real","City":"San Mateo","State":"CA","Zip":"94401"},{"Location":"STERLING COURT #7","Address":"850 N El Camino Real","City":"San Mateo","State":"CA","Zip":"94401"},{"Location":"STERLING COURT #8","Address":"850 N El Camino Real","City":"San Mateo","State":"CA","Zip":"94401"},{"Location":"TAQUERIA EL NAYARITA","Address":"660 E 3d Av","City":"San Mateo","State":"CA","Zip":"94401"},{"Location":"THE B FIT CLINIC","Address":"611 S B St","City":"San Mateo","State":"CA","Zip":"94401"},{"Location":"THE SANDWICH SPOT","Address":"65 E 4th Ave","City":"San Mateo","State":"CA","Zip":"94401"},{"Location":"THIRD AVE SPORTS BAR","Address":"77 E 3rd Ave","City":"San Mateo","State":"CA","Zip":"94401"},{"Location":"TOMATINA","Address":"401 S B St","City":"San Mateo","State":"CA","Zip":"94401"},{"Location":"TOP ONE OIL PRODUCTS","Address":"100 N El Camino Real","City":"San Mateo","State":"CA","Zip":"94401"},{"Location":"WINGSTOP","Address":"858 N Delaware St","City":"San Mateo","State":"CA","Zip":"94401"},{"Location":"YU RAKU","Address":"104 S El Camino Real","City":"San Mateo","State":"CA","Zip":"94401"},{"Location":"ZABU ZABU SAN MATEO","Address":"98 E 3rd Ave","City":"San Mateo","State":"CA","Zip":"94401"},{"Location":"31ST UNION","Address":"5 S Ellsworth Ave","City":"San Mateo","State":"CA","Zip":"94401"},{"Location":"A AND R EDELMAN","Address":"201 Baldwin Ave","City":"San Mateo","State":"CA","Zip":"94401"},{"Location":"A&M RESTAURANT","Address":"1700 Coyote Point Dr","City":"San Mateo","State":"CA","Zip":"94401"},{"Location":"ABC CAFE","Address":"210 E 3rd Ave","City":"San Mateo","State":"CA","Zip":"94401"},{"Location":"ALDOS PIZZA","Address":"600 S Norfolk St","City":"San Mateo","State":"CA","Zip":"94401"},{"Location":"AMERICA'S HOUSE RESTAURANT","Address":"1440 Cary Ave","City":"San Mateo","State":"CA","Zip":"94401"},{"Location":"ASTARIA REST","Address":"50 E 3rd Ave","City":"San Mateo","State":"CA","Zip":"94401"},{"Location":"ATTIC","Address":"234 S B St","City":"San Mateo","State":"CA","Zip":"94401"},{"Location":"BEN TRE","Address":"213 2nd Ave","City":"San Mateo","State":"CA","Zip":"94401"},{"Location":"BILLS H0FBRAU","Address":"11 S B St","City":"San Mateo","State":"CA","Zip":"94401"},{"Location":"BLUE ROCK DENTAL","Address":"70 N El Camino Real B","City":"San Mateo","State":"CA","Zip":"94401"},{"Location":"CAJUN HOUSE TWO","Address":"251 S B St","City":"San Mateo","State":"CA","Zip":"94401"},{"Location":"CALIFORNIA WATER SERVICE CO","Address":"341 N Delaware St","City":"San Mateo","State":"CA","Zip":"94401"},{"Location":"CHA CHA CHA CUBA","Address":"112 S B St","City":"San Mateo","State":"CA","Zip":"94401"},{"Location":"CHAMPAGNE SEAFOOD RESTAURANT","Address":"88 E 4th Ave","City":"San Mateo","State":"CA","Zip":"94401"},{"Location":"CHEUNG DENTAL","Address":"100 S El Camino Real","City":"San Mateo","State":"CA","Zip":"94401"},{"Location":"CHINA BISTRO","Address":"111 E 4th Ave","City":"San Mateo","State":"CA","Zip":"94401"},{"Location":"CURRY UP NOW","Address":"129 S B St","City":"San Mateo","State":"CA","Zip":"94401"},{"Location":"DOWNTOWN TIKI LOUNGE","Address":"144 S B St","City":"San Mateo","State":"CA","Zip":"94401"},{"Location":"DR WESTON CARPIAUX","Address":"130 N San Mateo Dr 2","City":"San Mateo","State":"CA","Zip":"94401"},{"Location":"EAST WEST BANK","Address":"27 E 4th Ave","City":"San Mateo","State":"CA","Zip":"94401"},{"Location":"EL RINCONCITO CATRACHO","Address":"85 N B St","City":"San Mateo","State":"CA","Zip":"94401"},{"Location":"EPA RECYCLE CENTER","Address":"18 S Idaho St A","City":"San Mateo","State":"CA","Zip":"94401"},{"Location":"EQUINOX FITNESS","Address":"4 E 4th Ave","City":"San Mateo","State":"CA","Zip":"94401"},{"Location":"FIRESTONE #122149","Address":"521 S B St","City":"San Mateo","State":"CA","Zip":"94401"},{"Location":"FIRST NATIONAL BANK OF NO CALI","Address":"150 E 3rd Ave","City":"San Mateo","State":"CA","Zip":"94401"},{"Location":"FRIENDSHIP HALL","Address":"416 2nd Ave","City":"San Mateo","State":"CA","Zip":"94401"},{"Location":"FUJI SUKIYAKI","Address":"428 E 3rd Ave","City":"San Mateo","State":"CA","Zip":"94401"},{"Location":"FUNNYORDIE INC","Address":"167 2nd Ave","City":"San Mateo","State":"CA","Zip":"94401"},{"Location":"HEART OF SAN MATEO LLC","Address":"44 E 3rd Ave","City":"San Mateo","State":"CA","Zip":"94401"},{"Location":"HEART OF SM COLLECTED BL","Address":"65 E 3rd Ave","City":"San Mateo","State":"CA","Zip":"94401"},{"Location":"HUMMUS","Address":"150 E 4th Ave","City":"San Mateo","State":"CA","Zip":"94401"},{"Location":"JOY SUSHI","Address":"30 S B St","City":"San Mateo","State":"CA","Zip":"94401"},{"Location":"KISAKU RESTAURANT","Address":"47 E 4th Ave","City":"San Mateo","State":"CA","Zip":"94401"},{"Location":"Las Americas","Address":"254 South B Street","City":"San Mateo","State":"CA","Zip":"94401"},{"Location":"LITTLE LAMB SAN MATEO LL","Address":"215 S Ellsworth Ave","City":"San Mateo","State":"CA","Zip":"94401"},{"Location":"MARSETTI INC.","Address":"432 Peninsula Ave A","City":"San Mateo","State":"CA","Zip":"94401"},{"Location":"MCGOVERN'S BAR","Address":"215 E 4th Ave","City":"San Mateo","State":"CA","Zip":"94401"},{"Location":"MILLS HEALTH CENTER","Address":"100 S San Mateo Dr","City":"San Mateo","State":"CA","Zip":"94401"},{"Location":"MOON'S FAMILY PUB%2FNY PIZZA","Address":"215 S B St","City":"San Mateo","State":"CA","Zip":"94401"},{"Location":"OSTERIA COPPA","Address":"139 S B St","City":"San Mateo","State":"CA","Zip":"94401"},{"Location":"PASTA PASTA","Address":"125 E 4th Ave","City":"San Mateo","State":"CA","Zip":"94401"},{"Location":"PHO GARDEN EXPRESS","Address":"150 S B St","City":"San Mateo","State":"CA","Zip":"94401"},{"Location":"PLAYGROUPS UNLIMITED LLC","Address":"302 8th Ave","City":"San Mateo","State":"CA","Zip":"94401"},{"Location":"PREMIER BOUTIQUE 1","Address":"132 E 3rd Ave","City":"San Mateo","State":"CA","Zip":"94401"},{"Location":"PROLINE AUTO BODY SERVICE","Address":"1021 N Amphlett Blvd","City":"San Mateo","State":"CA","Zip":"94401"},{"Location":"RAVE BURGER","Address":"144 E 3rd Ave","City":"San Mateo","State":"CA","Zip":"94401"},{"Location":"RED CRAWFISH","Address":"401 E 3rd Ave","City":"San Mateo","State":"CA","Zip":"94401"},{"Location":"ROUND TABLE PIZZA #1000","Address":"844 N Delaware St","City":"San Mateo","State":"CA","Zip":"94401"},{"Location":"SAKI TAMYA INC","Address":"41 E 4th Ave","City":"San Mateo","State":"CA","Zip":"94401"},{"Location":"SAN MATEO PRIME","Address":"174 E 3rd Ave","City":"San Mateo","State":"CA","Zip":"94401"},{"Location":"SHABUWAY","Address":"145 E 3rd Ave","City":"San Mateo","State":"CA","Zip":"94401"},{"Location":"SKY LOUNGE","Address":"76 E 3rd Ave","City":"San Mateo","State":"CA","Zip":"94401"},{"Location":"ST TIMOTHYS CHURCH","Address":"1515 Dolan Ave","City":"San Mateo","State":"CA","Zip":"94401"},{"Location":"STERLING COURT #1","Address":"850 N El Camino Real","City":"San Mateo","State":"CA","Zip":"94401"},{"Location":"STERLING COURT #2","Address":"850 N El Camino Real","City":"San Mateo","State":"CA","Zip":"94401"},{"Location":"STERLING COURT #3","Address":"850 N El Camino Real","City":"San Mateo","State":"CA","Zip":"94401"},{"Location":"STERLING COURT #4","Address":"850 N El Camino Real","City":"San Mateo","State":"CA","Zip":"94401"},{"Location":"STERLING COURT #5","Address":"850 N El Camino Real","City":"San Mateo","State":"CA","Zip":"94401"},{"Location":"STERLING COURT #6","Address":"850 N El Camino Real","City":"San Mateo","State":"CA","Zip":"94401"},{"Location":"STERLING COURT #7","Address":"850 N El Camino Real","City":"San Mateo","State":"CA","Zip":"94401"},{"Location":"STERLING COURT #8","Address":"850 N El Camino Real","City":"San Mateo","State":"CA","Zip":"94401"},{"Location":"TAQUERIA EL NAYARITA","Address":"660 E 3d Av","City":"San Mateo","State":"CA","Zip":"94401"},{"Location":"THE B FIT CLINIC","Address":"611 S B St","City":"San Mateo","State":"CA","Zip":"94401"},{"Location":"THE SANDWICH SPOT","Address":"65 E 4th Ave","City":"San Mateo","State":"CA","Zip":"94401"},{"Location":"THIRD AVE SPORTS BAR","Address":"77 E 3rd Ave","City":"San Mateo","State":"CA","Zip":"94401"},{"Location":"TOMATINA","Address":"401 S B St","City":"San Mateo","State":"CA","Zip":"94401"},{"Location":"TOP ONE OIL PRODUCTS","Address":"100 N El Camino Real","City":"San Mateo","State":"CA","Zip":"94401"},{"Location":"WINGSTOP","Address":"858 N Delaware St","City":"San Mateo","State":"CA","Zip":"94401"},{"Location":"YU RAKU","Address":"104 S El Camino Real","City":"San Mateo","State":"CA","Zip":"94401"},{"Location":"ZABU ZABU SAN MATEO","Address":"98 E 3rd Ave","City":"San Mateo","State":"CA","Zip":"94401"}]