[{"Location":"ABB%2FCON-CISE","Address":"1750 N Loop Rd 150","City":"Alameda","State":"CA","Zip":"94502"},{"Location":"BRON TAPES OF CALIFORNIA","Address":"2020 N Loop Rd","City":"Alameda","State":"CA","Zip":"94502"},{"Location":"COMMUNITY OF HARBOR BAY","Address":"3195 Mecartney Rd","City":"Alameda","State":"CA","Zip":"94502"},{"Location":"JIM'S ON THE COURSE","Address":"1 Clubhouse Memorial Rd","City":"Alameda","State":"CA","Zip":"94502"},{"Location":"LA VAL'S PIZZA","Address":"891 Island Dr","City":"Alameda","State":"CA","Zip":"94502"},{"Location":"PENUMBRA","Address":"1351 Harbor Bay Pkwy","City":"Alameda","State":"CA","Zip":"94502"},{"Location":"ST PHILIP  ST ALBERT","Address":"1022 Holly St","City":"Alameda","State":"CA","Zip":"94502"},{"Location":"STACY AND WITBECK INC","Address":"2800 Harbor Bay Pkwy","City":"Alameda","State":"CA","Zip":"94502"},{"Location":"STANDARD PROCESS OF N CA INC","Address":"1960 N Loop Rd","City":"Alameda","State":"CA","Zip":"94502"},{"Location":"USCG ISC ALAMEDA MEDICAL CLINC","Address":"Coast Guard Island Bldg 1","City":"Alameda","State":"CA","Zip":"94502"},{"Location":"WEBCOR BUILDERS","Address":"1751 Harbor Bay Pkwy 200","City":"Alameda","State":"CA","Zip":"94502"},{"Location":"ZEPHYR VENTILATION","Address":"2277 Harbor Bay Pkwy","City":"Alameda","State":"CA","Zip":"94502"}]