[{"Location":"ECC BANK","Address":"14804a Highway 4","City":"Byron","State":"CA","Zip":"94505"},{"Location":"A ROUND TABLE PIZZA","Address":"14870 Highway 4 H","City":"Discovery Bay","State":"CA","Zip":"94505"},{"Location":"ALADINO'S PIZZA DISCOVERY BAY","Address":"1555 Riverlake Rd G","City":"Discovery Bay","State":"CA","Zip":"94505"},{"Location":"BOARDWALK GRILL","Address":"5879 Marina Rd","City":"Discovery Bay","State":"CA","Zip":"94505"},{"Location":"BYRON INN CAFE","Address":"14870 Highway 4 A","City":"Discovery Bay","State":"CA","Zip":"94505"},{"Location":"COMFORT DENTAL I","Address":"14850 Highway 4 B","City":"Discovery Bay","State":"CA","Zip":"94505"},{"Location":"DISCOVERY BAY COUNTRY CLUB","Address":"1475 Clubhouse Dr","City":"Discovery Bay","State":"CA","Zip":"94505"},{"Location":"SPORTS BAR & STEAKHOUSE","Address":"2477 Discovery Bay Blvd","City":"Discovery Bay","State":"CA","Zip":"94505"},{"Location":"THE ALLEN GROUP LLC","Address":"4990 Cabrillo Pt","City":"Discovery Bay","State":"CA","Zip":"94505"},{"Location":"THE DISCOVERY BAY CHANDLERY","Address":"5901 Marina Rd 10","City":"Discovery Bay","State":"CA","Zip":"94505"},{"Location":"UNWINDED","Address":"1520 Discovery Bay Blvd","City":"Discovery Bay","State":"CA","Zip":"94505"},{"Location":"WR PROPERTIES","Address":"5901 Marina Rd 11","City":"Discovery Bay","State":"CA","Zip":"94505"},{"Location":"ECC BANK","Address":"14804a Highway 4","City":"Byron","State":"CA","Zip":"94505"},{"Location":"A ROUND TABLE PIZZA","Address":"14870 Highway 4 H","City":"Discovery Bay","State":"CA","Zip":"94505"},{"Location":"ALADINO'S PIZZA DISCOVERY BAY","Address":"1555 Riverlake Rd G","City":"Discovery Bay","State":"CA","Zip":"94505"},{"Location":"BOARDWALK GRILL","Address":"5879 Marina Rd","City":"Discovery Bay","State":"CA","Zip":"94505"},{"Location":"BYRON INN CAFE","Address":"14870 Highway 4 A","City":"Discovery Bay","State":"CA","Zip":"94505"},{"Location":"COMFORT DENTAL I","Address":"14850 Highway 4 B","City":"Discovery Bay","State":"CA","Zip":"94505"},{"Location":"DISCOVERY BAY COUNTRY CLUB","Address":"1475 Clubhouse Dr","City":"Discovery Bay","State":"CA","Zip":"94505"},{"Location":"SPORTS BAR & STEAKHOUSE","Address":"2477 Discovery Bay Blvd","City":"Discovery Bay","State":"CA","Zip":"94505"},{"Location":"THE ALLEN GROUP LLC","Address":"4990 Cabrillo Pt","City":"Discovery Bay","State":"CA","Zip":"94505"},{"Location":"THE DISCOVERY BAY CHANDLERY","Address":"5901 Marina Rd 10","City":"Discovery Bay","State":"CA","Zip":"94505"},{"Location":"UNWINDED","Address":"1520 Discovery Bay Blvd","City":"Discovery Bay","State":"CA","Zip":"94505"},{"Location":"WR PROPERTIES","Address":"5901 Marina Rd 11","City":"Discovery Bay","State":"CA","Zip":"94505"}]