[{"Location":"BLACK HAWK COUNTRYS CLUB","Address":"1094 Eagle Nest Pl","City":"Blackhawk","State":"CA","Zip":"94506"},{"Location":"BACI CAFE","Address":"3456 Camino Tassajara","City":"Danville","State":"CA","Zip":"94506"},{"Location":"BLACK HAWK COUNTRY CLUB","Address":"3521 Country Club Pl","City":"Danville","State":"CA","Zip":"94506"},{"Location":"BLUE GINGKO","Address":"3496 Blackhawk Plaza Cir","City":"Danville","State":"CA","Zip":"94506"},{"Location":"CRUNCH FITNESS","Address":"3464 Blackhawk Plaza Cir","City":"Danville","State":"CA","Zip":"94506"},{"Location":"DANVILLE FIELDHOUSE INC","Address":"3483 Blackhawk Plaza Cir","City":"Danville","State":"CA","Zip":"94506"},{"Location":"GARLEX PIZZA","Address":"9000 Crow Canyon Rd P","City":"Danville","State":"CA","Zip":"94506"},{"Location":"MUSTANG SOCCER LEAGUE","Address":"4680 Camino Tassajara","City":"Danville","State":"CA","Zip":"94506"},{"Location":"NGS GLOBAL AMERICAS LLC","Address":"216 Red Pine Ct","City":"Danville","State":"CA","Zip":"94506"},{"Location":"SPORT CLIPS CA806","Address":"9500 Crow Canyon Rd B","City":"Danville","State":"CA","Zip":"94506"},{"Location":"J ROCKCLIFF REALTORS","Address":"4115 Bla Blackhawk Plaza Cir Ste 201","City":"Delvel","State":"CA","Zip":"94506"},{"Location":"BLACK HAWK COUNTRYS CLUB","Address":"1094 Eagle Nest Pl","City":"Blackhawk","State":"CA","Zip":"94506"},{"Location":"BACI CAFE","Address":"3456 Camino Tassajara","City":"Danville","State":"CA","Zip":"94506"},{"Location":"BLACK HAWK COUNTRY CLUB","Address":"3521 Country Club Pl","City":"Danville","State":"CA","Zip":"94506"},{"Location":"BLUE GINGKO","Address":"3496 Blackhawk Plaza Cir","City":"Danville","State":"CA","Zip":"94506"},{"Location":"CRUNCH FITNESS","Address":"3464 Blackhawk Plaza Cir","City":"Danville","State":"CA","Zip":"94506"},{"Location":"DANVILLE FIELDHOUSE INC","Address":"3483 Blackhawk Plaza Cir","City":"Danville","State":"CA","Zip":"94506"},{"Location":"GARLEX PIZZA","Address":"9000 Crow Canyon Rd P","City":"Danville","State":"CA","Zip":"94506"},{"Location":"MUSTANG SOCCER LEAGUE","Address":"4680 Camino Tassajara","City":"Danville","State":"CA","Zip":"94506"},{"Location":"NGS GLOBAL AMERICAS LLC","Address":"216 Red Pine Ct","City":"Danville","State":"CA","Zip":"94506"},{"Location":"SPORT CLIPS CA806","Address":"9500 Crow Canyon Rd B","City":"Danville","State":"CA","Zip":"94506"},{"Location":"J ROCKCLIFF REALTORS","Address":"4115 Bla Blackhawk Plaza Cir Ste 201","City":"Delvel","State":"CA","Zip":"94506"}]