[{"Location":"A & M TOWING","Address":"2580 Wilbur Ave","City":"Antioch","State":"CA","Zip":"94509"},{"Location":"ABC  RENDEZVOUS","Address":"101 Walter Way","City":"Antioch","State":"CA","Zip":"94509"},{"Location":"ALTERED CANVAS","Address":"110 Railroad Ave","City":"Antioch","State":"CA","Zip":"94509"},{"Location":"ANHEUSER-BUSCH WHLSLR #20458","Address":"1645 Drive In Way","City":"Antioch","State":"CA","Zip":"94509"},{"Location":"ANTIOCH AUTOMOTIVE SUPPLY","Address":"801 Sunset Dr","City":"Antioch","State":"CA","Zip":"94509"},{"Location":"ANTIOCH CHRYSLER JEEP","Address":"1810b Auto Center Dr","City":"Antioch","State":"CA","Zip":"94509"},{"Location":"ANTIOCH CONVALESCENT HOSPITAL","Address":"1210 A St","City":"Antioch","State":"CA","Zip":"94509"},{"Location":"ANTIOCH FLEA MARKET","Address":"1201 W 10th St","City":"Antioch","State":"CA","Zip":"94509"},{"Location":"ANTIOCH NISSAN","Address":"1831 Auto Center Dr","City":"Antioch","State":"CA","Zip":"94509"},{"Location":"ANTIOCH SENIOR CENTER","Address":"415 W 2nd St","City":"Antioch","State":"CA","Zip":"94509"},{"Location":"ANTIOCH TOYOTA","Address":"1817 Auto Center Dr","City":"Antioch","State":"CA","Zip":"94509"},{"Location":"ASIA KITCHEN","Address":"2730 Delta Fair Blvd","City":"Antioch","State":"CA","Zip":"94509"},{"Location":"AVON CONSTRUCTION1","Address":"2251 Wymore Way","City":"Antioch","State":"CA","Zip":"94509"},{"Location":"BEAUTY BY K","Address":"2503 San Jose Dr","City":"Antioch","State":"CA","Zip":"94509"},{"Location":"CAAP","Address":"2006 A St 203","City":"Antioch","State":"CA","Zip":"94509"},{"Location":"CELIAS MEXICAN REST.","Address":"523 W 10th St","City":"Antioch","State":"CA","Zip":"94509"},{"Location":"CHRIST EMBASSY","Address":"505 W 2nd St","City":"Antioch","State":"CA","Zip":"94509"},{"Location":"COUNTRY PLACE ASSISTED L","Address":"1715 Olive Ln","City":"Antioch","State":"CA","Zip":"94509"},{"Location":"CUPERTINO TOWING","Address":"1020 Apollo Ct","City":"Antioch","State":"CA","Zip":"94509"},{"Location":"DAVES LIQUOR","Address":"1008 Fitzuren Rd","City":"Antioch","State":"CA","Zip":"94509"},{"Location":"DAVITA #348 ANTIOCH","Address":"3100 Delta Fair Blvd","City":"Antioch","State":"CA","Zip":"94509"},{"Location":"DIVINE BEAUTY SALON1","Address":"622 W 2nd St","City":"Antioch","State":"CA","Zip":"94509"},{"Location":"FIRESTONE #015504","Address":"3214 Delta Fair Blvd","City":"Antioch","State":"CA","Zip":"94509"},{"Location":"FIRESTONE #240714","Address":"2024 A St","City":"Antioch","State":"CA","Zip":"94509"},{"Location":"FIT U FITNESS","Address":"1300 Verne Roberts Cir 100","City":"Antioch","State":"CA","Zip":"94509"},{"Location":"FMC 67860000","Address":"2386 Buchanan Rd","City":"Antioch","State":"CA","Zip":"94509"},{"Location":"FMC 67980000","Address":"2163 Country Hills Dr 101","City":"Antioch","State":"CA","Zip":"94509"},{"Location":"GAS AND ELCECTRIC COMPANY","Address":"2111 Hillcrest Ave","City":"Antioch","State":"CA","Zip":"94509"},{"Location":"GOLFBALLING","Address":"2901 E 18th St","City":"Antioch","State":"CA","Zip":"94509"},{"Location":"KELLYS BAR AND RESTAURAN","Address":"408 O St","City":"Antioch","State":"CA","Zip":"94509"},{"Location":"LITTLE MANUELS","Address":"1509 A St","City":"Antioch","State":"CA","Zip":"94509"},{"Location":"LOANTREE ESTATES","Address":"4500 Eagleridge Dr.","City":"Antioch","State":"CA","Zip":"94509"},{"Location":"LONE TREE CONVALESCENT HOSP","Address":"4001 Lone Tree Way","City":"Antioch","State":"CA","Zip":"94509"},{"Location":"LOU'S BAR","Address":"701 A St","City":"Antioch","State":"CA","Zip":"94509"},{"Location":"LUCKY CHEN","Address":"1721 Alhambra Dr","City":"Antioch","State":"CA","Zip":"94509"},{"Location":"MACS OLD HOUSE","Address":"3100 E 18th St","City":"Antioch","State":"CA","Zip":"94509"},{"Location":"MACY'S WEST 331","Address":"2500 Somersville Rd","City":"Antioch","State":"CA","Zip":"94509"},{"Location":"MIRA VISTA HILLS","Address":"2201 San Jose Dr","City":"Antioch","State":"CA","Zip":"94509"},{"Location":"MMP SOMMERSVILLE","Address":"2509 Somersville Rd","City":"Antioch","State":"CA","Zip":"94509"},{"Location":"NICHOLSON","Address":"400 G St","City":"Antioch","State":"CA","Zip":"94509"},{"Location":"PACIFIC GAS AND ELECTRIC","Address":"2111 Hillcrest Ave Gc","City":"Antioch","State":"CA","Zip":"94509"},{"Location":"PERKS SPORTS ACADEMY INC","Address":"3500 Wilbur Ave A","City":"Antioch","State":"CA","Zip":"94509"},{"Location":"PHILS BARBER SHOP","Address":"604 W 10th St","City":"Antioch","State":"CA","Zip":"94509"},{"Location":"RELIABLE MOBILE AUTOMOTI","Address":"3291 E 18th St","City":"Antioch","State":"CA","Zip":"94509"},{"Location":"RESTAURANTE LOS DELFINES","Address":"1139 E 18th St","City":"Antioch","State":"CA","Zip":"94509"},{"Location":"ROOF TILE CUSTOM SPECIALISTS","Address":"1200 W 4th St 57","City":"Antioch","State":"CA","Zip":"94509"},{"Location":"ROUND TABLE PIZZA #811","Address":"4504 Deer Valley Road","City":"Antioch","State":"CA","Zip":"94509"},{"Location":"SHARMA'S ALADINO PIZZA","Address":"1324 Sunset Dr","City":"Antioch","State":"CA","Zip":"94509"},{"Location":"SUBWAY #14099","Address":"2777 Lone Tree Way","City":"Antioch","State":"CA","Zip":"94509"},{"Location":"TEMPLERS AUTOBODY","Address":"2505 Devpar Ct","City":"Antioch","State":"CA","Zip":"94509"},{"Location":"THE NINETEENTH HOLE","Address":"2746 W Tregallas Rd","City":"Antioch","State":"CA","Zip":"94509"},{"Location":"TU IMAGEN SALON","Address":"2934 Delta Fair Blvd","City":"Antioch","State":"CA","Zip":"94509"},{"Location":"TUX OF CLASS","Address":"43 E 18th St","City":"Antioch","State":"CA","Zip":"94509"},{"Location":"TWIN RIVERS MARINE INSURANCE","Address":"7 Marina Plz","City":"Antioch","State":"CA","Zip":"94509"}]