[{"Location":"1400 BAR AND GRILL","Address":"1400 Webster St","City":"Alameda","State":"CA","Zip":"94501"},{"Location":"ALAMEDA ATHLETIC CLUB","Address":"1226 Park St","City":"Alameda","State":"CA","Zip":"94501"},{"Location":"ALAMEDA COLLISION","Address":"1911 Park St","City":"Alameda","State":"CA","Zip":"94501"},{"Location":"ALAMEDA EAGLES #1076","Address":"2305 Alameda Ave","City":"Alameda","State":"CA","Zip":"94501"},{"Location":"ALAMEDA HEALTHCARE","Address":"430 Willow St","City":"Alameda","State":"CA","Zip":"94501"},{"Location":"ALAMEDA HOSPITAL","Address":"815 Atlantic Ave 100","City":"Alameda","State":"CA","Zip":"94501"},{"Location":"ALL IN ONE FITNESS","Address":"2317 Santa Clara Ave","City":"Alameda","State":"CA","Zip":"94501"},{"Location":"AMERICAN OAK","Address":"2319 Santa Clara Ave","City":"Alameda","State":"CA","Zip":"94501"},{"Location":"AMF #575 SOUTHSHORE LANES","Address":"300 Park St","City":"Alameda","State":"CA","Zip":"94501"},{"Location":"AMF MEL'S S SHORE BOWL 575","Address":"300 Park St","City":"Alameda","State":"CA","Zip":"94501"},{"Location":"APPLEBEE'S ALAMEDA #2111011","Address":"2263 S Shore Ctr","City":"Alameda","State":"CA","Zip":"94501"},{"Location":"BALLENA BAY YACHT CLUB","Address":"1150 Ballena Blvd","City":"Alameda","State":"CA","Zip":"94501"},{"Location":"BEST LIL PORK HOUSE","Address":"2213 S Shore Ctr 914a","City":"Alameda","State":"CA","Zip":"94501"},{"Location":"BLADIUM SPORTS BAR","Address":"800 W Tower Ave 40","City":"Alameda","State":"CA","Zip":"94501"},{"Location":"BLADIUM SPORTS CLUB","Address":"800 W Tower Ave 40","City":"Alameda","State":"CA","Zip":"94501"},{"Location":"BOBACK CFS CORP","Address":"2430 Mariner Square Loop","City":"Alameda","State":"CA","Zip":"94501"},{"Location":"BON VOYAGE","Address":"2225 S Shore Ctr","City":"Alameda","State":"CA","Zip":"94501"},{"Location":"BUCKET O CRAWFISH","Address":"1919 Webster St","City":"Alameda","State":"CA","Zip":"94501"},{"Location":"BURKHARDT","Address":"1338 Park St","City":"Alameda","State":"CA","Zip":"94501"},{"Location":"CAPONES SPEAKEASY","Address":"1400 Park St","City":"Alameda","State":"CA","Zip":"94501"},{"Location":"CERTIFIED TIRES AND SERVICE","Address":"861 Marina Village Pkwy","City":"Alameda","State":"CA","Zip":"94501"},{"Location":"CHINA GOURMET","Address":"2210 S Shore Ctr H","City":"Alameda","State":"CA","Zip":"94501"},{"Location":"CLUBHOUSE","Address":"1215 Park St","City":"Alameda","State":"CA","Zip":"94501"},{"Location":"COAST GUARD INVESTIGATIVE SER","Address":"18 Eagle Rd 18-2","City":"Alameda","State":"CA","Zip":"94501"},{"Location":"DISTRICT 11 PUBLIC AFFAI","Address":"121 Eagle Rd 42","City":"Alameda","State":"CA","Zip":"94501"},{"Location":"DISTRICT 11-COMMAND CENTER","Address":"Coast Guard Island","City":"Alameda","State":"CA","Zip":"94501"},{"Location":"DRAGON ROUGE","Address":"2337 Blanding Ave","City":"Alameda","State":"CA","Zip":"94501"},{"Location":"EDWARD JONES","Address":"1150 Ballena Blvd 100","City":"Alameda","State":"CA","Zip":"94501"},{"Location":"ENGINEER  INVIRONMENTS","Address":"1250 Marina Village Pkwy","City":"Alameda","State":"CA","Zip":"94501"},{"Location":"FIRE DEN BAR & GRILL","Address":"1231 Park St","City":"Alameda","State":"CA","Zip":"94501"},{"Location":"GERMAN AUTO SERVICE","Address":"1719 Park St","City":"Alameda","State":"CA","Zip":"94501"},{"Location":"GOLD SPOT JEWLERS","Address":"2248 S Shore Ctr","City":"Alameda","State":"CA","Zip":"94501"},{"Location":"GRAND STREET BAIT & TACKLE","Address":"2030 Clement Ave","City":"Alameda","State":"CA","Zip":"94501"},{"Location":"HAPPY NAIL","Address":"413 S Shore Ctr","City":"Alameda","State":"CA","Zip":"94501"},{"Location":"HIGH STREET STATION CAFE","Address":"1303 High St","City":"Alameda","State":"CA","Zip":"94501"},{"Location":"HOBNOB","Address":"1313 Park St","City":"Alameda","State":"CA","Zip":"94501"},{"Location":"Hong Kong City Seafood Restaurant","Address":"1425 Park Street","City":"Alameda","State":"CA","Zip":"94501"},{"Location":"ISLAND CITY","Address":"1929 Broadway","City":"Alameda","State":"CA","Zip":"94501"},{"Location":"ISLAND CITY CAFE","Address":"1929 Broadway","City":"Alameda","State":"CA","Zip":"94501"},{"Location":"ISLAND TAQUERIA LLC","Address":"1513 Park St","City":"Alameda","State":"CA","Zip":"94501"},{"Location":"JUANITA'S","Address":"1324 Park St A","City":"Alameda","State":"CA","Zip":"94501"},{"Location":"KAMAKURA RESTAURANT","Address":"2549 Santa Clara Ave","City":"Alameda","State":"CA","Zip":"94501"},{"Location":"KESSLER AND KESSLER","Address":"1000 Marina Village Pkwy 130","City":"Alameda","State":"CA","Zip":"94501"},{"Location":"KITCHEN OF ALAMEDA","Address":"1727 Webster St","City":"Alameda","State":"CA","Zip":"94501"},{"Location":"KOHL'S #1324","Address":"2201 S Shore Ctr","City":"Alameda","State":"CA","Zip":"94501"},{"Location":"LINGUINI'S CAFE","Address":"1508 Park St","City":"Alameda","State":"CA","Zip":"94501"},{"Location":"LOLAS CHICKEN SHACK","Address":"1417 Park St","City":"Alameda","State":"CA","Zip":"94501"},{"Location":"LOST WEEKEND LOUNGE","Address":"2320 Santa Clara Ave","City":"Alameda","State":"CA","Zip":"94501"},{"Location":"LUCKY  13","Address":"1301 Park St","City":"Alameda","State":"CA","Zip":"94501"},{"Location":"MARTINIZING DRY CLEANING","Address":"2210 S Shore Ctr 1","City":"Alameda","State":"CA","Zip":"94501"},{"Location":"MCGEE'S BAR & GRILL","Address":"1645 Park St","City":"Alameda","State":"CA","Zip":"94501"},{"Location":"MONKEY KING","Address":"1315 Park St","City":"Alameda","State":"CA","Zip":"94501"},{"Location":"NEW SUSHI KING","Address":"2661 Blanding Ave E","City":"Alameda","State":"CA","Zip":"94501"},{"Location":"NRC ENVIROMENTAL SVCS","Address":"1605 Ferry Pt","City":"Alameda","State":"CA","Zip":"94501"},{"Location":"OLES WAFFLE SHOP","Address":"1507 Park St","City":"Alameda","State":"CA","Zip":"94501"},{"Location":"PASTA PELICAN RESTAURANT","Address":"2455 Mariner Square Dr","City":"Alameda","State":"CA","Zip":"94501"},{"Location":"PHOCAS FINANCIAL","Address":"980 Atlantic Ave 106","City":"Alameda","State":"CA","Zip":"94501"},{"Location":"PRIME CARE DENTAL","Address":"2465 Short Lane Dr #119","City":"Alameda","State":"CA","Zip":"94501"},{"Location":"Q'S    HAWOL CHICKEN","Address":"2306 Central Ave","City":"Alameda","State":"CA","Zip":"94501"},{"Location":"RONALD PERRISH","Address":"1499 Ferry Pt Pier2","City":"Alameda","State":"CA","Zip":"94501"},{"Location":"SANTORO ITALIAN MARKET DELI","Address":"475 Santa Clara Ave","City":"Alameda","State":"CA","Zip":"94501"},{"Location":"SEEMOCARS","Address":"1812 Park St","City":"Alameda","State":"CA","Zip":"94501"},{"Location":"SEIJI MORIKAWA","Address":"1701 Webster St","City":"Alameda","State":"CA","Zip":"94501"},{"Location":"SPEISEKAMMER","Address":"2424 Lincoln Ave","City":"Alameda","State":"CA","Zip":"94501"},{"Location":"STRAW HAT PIZZA","Address":"901 Marina Village Pkwy","City":"Alameda","State":"CA","Zip":"94501"},{"Location":"SUBPAR MINITURE GOLF","Address":"1511 Park St","City":"Alameda","State":"CA","Zip":"94501"},{"Location":"SUSHI HOUSE","Address":"2375 Shoreline Dr","City":"Alameda","State":"CA","Zip":"94501"},{"Location":"SWELL BAR","Address":"1539 Lincoln Ave","City":"Alameda","State":"CA","Zip":"94501"},{"Location":"TAQUERIA VIVA","Address":"2327 Central Ave","City":"Alameda","State":"CA","Zip":"94501"},{"Location":"TARGET","Address":"2700 Fifth St","City":"Alameda","State":"CA","Zip":"94501"},{"Location":"TETSU RAMEN","Address":"1245 Park St","City":"Alameda","State":"CA","Zip":"94501"},{"Location":"THAI NOODLE HOUSE OF ALAMDEA","Address":"1635 Park St","City":"Alameda","State":"CA","Zip":"94501"},{"Location":"THE LEMON TREE","Address":"2542 Santa Clara Ave","City":"Alameda","State":"CA","Zip":"94501"},{"Location":"THE ORIGINAL RED ONIONS","Address":"1222 Park St","City":"Alameda","State":"CA","Zip":"94501"},{"Location":"THE POP INN","Address":"1515 Park St","City":"Alameda","State":"CA","Zip":"94501"},{"Location":"THE STUDIO BARBER LOUNGE","Address":"1521 Webster St B","City":"Alameda","State":"CA","Zip":"94501"},{"Location":"THREE SIRENS LLC","Address":"1453a Webster St","City":"Alameda","State":"CA","Zip":"94501"},{"Location":"THUNGJAIMON","Address":"1930 Main St 3","City":"Alameda","State":"CA","Zip":"94501"},{"Location":"TIMBER  DELL PROPERTIES","Address":"647 Pacific Ave","City":"Alameda","State":"CA","Zip":"94501"},{"Location":"US COAST GUARD","Address":"52 Coast Guard Island","City":"Alameda","State":"CA","Zip":"94501"},{"Location":"US COAST GUARD BLDG 50","Address":"Coast Guard Island","City":"Alameda","State":"CA","Zip":"94501"},{"Location":"US COAST GUARD FORCE 2","Address":"514 Coast Guard Island","City":"Alameda","State":"CA","Zip":"94501"},{"Location":"US COAST GUARD FORCE COM","Address":"Coast Guard Island Bldg 51-4","City":"Alameda","State":"CA","Zip":"94501"},{"Location":"US COAST GUARD GALLEY","Address":"Coast Guard Island 4","City":"Alameda","State":"CA","Zip":"94501"},{"Location":"US COAST GUARD GYM MWR","Address":"Bldg 16 Coast Guard Isla","City":"Alameda","State":"CA","Zip":"94501"},{"Location":"USCG BLDG 10","Address":"Coast Guard Island Bl10","City":"Alameda","State":"CA","Zip":"94501"},{"Location":"USCG ISC ALAMEDA BLDG #19","Address":"19 Coast Guard Island","City":"Alameda","State":"CA","Zip":"94501"},{"Location":"USCG ISC ALAMEDA BUILDING 42","Address":"Coast Guard Island Bldg","City":"Alameda","State":"CA","Zip":"94501"},{"Location":"USCG STRATTON  WMSL 752","Address":"Bldg 42 Coast Guard Isla","City":"Alameda","State":"CA","Zip":"94501"},{"Location":"USCGC WAESCHE WMSL 751","Address":"Usgc Waesche Coast Gu","City":"Alameda","State":"CA","Zip":"94501"},{"Location":"WIND RIVER 3","Address":"500 Wind River Way","City":"Alameda","State":"CA","Zip":"94501"},{"Location":"WIND RIVER SYSTEMS","Address":"500 Wind River Way","City":"Alameda","State":"CA","Zip":"94501"},{"Location":"WINGSTOP","Address":"2661 Blanding Ave","City":"Alameda","State":"CA","Zip":"94501"},{"Location":"USCG ISC ALAMEDA BARRACKS","Address":"Coast Guard Island Bldg 24-26","City":"Almeda","State":"CA","Zip":"94501"}]