[{"Location":"AC FOOD AND LIQUOR","Address":"3915 Broadway St","City":"American Canyon","State":"CA","Zip":"94503"},{"Location":"AMCOR FLEXIBLES","Address":"5425 Broadway St","City":"American Canyon","State":"CA","Zip":"94503"},{"Location":"AMERICAN   MEDICAL  RESPONSE","Address":"225 James Rd","City":"American Canyon","State":"CA","Zip":"94503"},{"Location":"AMERICAN CANYON CARWASH","Address":"3448 Broadway St","City":"American Canyon","State":"CA","Zip":"94503"},{"Location":"ANGAM","Address":"89 S Kelly Rd","City":"American Canyon","State":"CA","Zip":"94503"},{"Location":"C LINE EXPRESS INC","Address":"75 Mezzetta Ct","City":"American Canyon","State":"CA","Zip":"94503"},{"Location":"HOLIDAY INN EXPRESS - NAPA","Address":"5001 Main St","City":"American Canyon","State":"CA","Zip":"94503"},{"Location":"KOKOLIOS IRON WORKS","Address":"6400 Broadway St","City":"American Canyon","State":"CA","Zip":"94503"},{"Location":"N V P","Address":"257 S Kelly Rd","City":"American Canyon","State":"CA","Zip":"94503"},{"Location":"NAPA VALLEY CASINO","Address":"3466 Broadway St","City":"American Canyon","State":"CA","Zip":"94503"},{"Location":"OWENS CORNING","Address":"350 Tower Rd","City":"American Canyon","State":"CA","Zip":"94503"},{"Location":"ROBERTOS BAKERY","Address":"101 Antonina Ave 5","City":"American Canyon","State":"CA","Zip":"94503"},{"Location":"ROUND TABLE PIZZA","Address":"5055 Main St 106","City":"American Canyon","State":"CA","Zip":"94503"},{"Location":"TACOS MICHOACAN 2","Address":"3945 Broadway St","City":"American Canyon","State":"CA","Zip":"94503"},{"Location":"WING STOP","Address":"5075 Main St 124","City":"American Canyon","State":"CA","Zip":"94503"},{"Location":"AC FOOD AND LIQUOR","Address":"3915 Broadway St","City":"American Canyon","State":"CA","Zip":"94503"},{"Location":"AMCOR FLEXIBLES","Address":"5425 Broadway St","City":"American Canyon","State":"CA","Zip":"94503"},{"Location":"AMERICAN   MEDICAL  RESPONSE","Address":"225 James Rd","City":"American Canyon","State":"CA","Zip":"94503"},{"Location":"AMERICAN CANYON CARWASH","Address":"3448 Broadway St","City":"American Canyon","State":"CA","Zip":"94503"},{"Location":"ANGAM","Address":"89 S Kelly Rd","City":"American Canyon","State":"CA","Zip":"94503"},{"Location":"C LINE EXPRESS INC","Address":"75 Mezzetta Ct","City":"American Canyon","State":"CA","Zip":"94503"},{"Location":"HOLIDAY INN EXPRESS - NAPA","Address":"5001 Main St","City":"American Canyon","State":"CA","Zip":"94503"},{"Location":"KOKOLIOS IRON WORKS","Address":"6400 Broadway St","City":"American Canyon","State":"CA","Zip":"94503"},{"Location":"N V P","Address":"257 S Kelly Rd","City":"American Canyon","State":"CA","Zip":"94503"},{"Location":"NAPA VALLEY CASINO","Address":"3466 Broadway St","City":"American Canyon","State":"CA","Zip":"94503"},{"Location":"OWENS CORNING","Address":"350 Tower Rd","City":"American Canyon","State":"CA","Zip":"94503"},{"Location":"ROBERTOS BAKERY","Address":"101 Antonina Ave 5","City":"American Canyon","State":"CA","Zip":"94503"},{"Location":"ROUND TABLE PIZZA","Address":"5055 Main St 106","City":"American Canyon","State":"CA","Zip":"94503"},{"Location":"TACOS MICHOACAN 2","Address":"3945 Broadway St","City":"American Canyon","State":"CA","Zip":"94503"},{"Location":"WING STOP","Address":"5075 Main St 124","City":"American Canyon","State":"CA","Zip":"94503"}]