[{"Location":"24 HOUR FITNESS #43","Address":"140a Alamo Plz","City":"Alamo","State":"CA","Zip":"94507"},{"Location":"ALAMO NAILS","Address":"3000 Danville Blvd K","City":"Alamo","State":"CA","Zip":"94507"},{"Location":"EXTREME PIZZA","Address":"3227 Danville Blvd","City":"Alamo","State":"CA","Zip":"94507"},{"Location":"HA RU SUSHI","Address":"115 Alamo Plz C","City":"Alamo","State":"CA","Zip":"94507"},{"Location":"IZZY'S PLACE%2C LLC","Address":"3160 Danville Blvd B","City":"Alamo","State":"CA","Zip":"94507"},{"Location":"MAGGIERAY'S BARBECUE","Address":"3206 Danville Blvd","City":"Alamo","State":"CA","Zip":"94507"},{"Location":"PACHECO","Address":"3200 Danville Blvd 100","City":"Alamo","State":"CA","Zip":"94507"},{"Location":"PACIFIC DENTAL #227","Address":"3000 Danville Blvd Ab","City":"Alamo","State":"CA","Zip":"94507"},{"Location":"ROUND HILL COUNTRY CLUB","Address":"3169 Roundhill Rd","City":"Alamo","State":"CA","Zip":"94507"},{"Location":"RPM MORTAGE INC","Address":"3240 Stone Valley Rd W","City":"Alamo","State":"CA","Zip":"94507"},{"Location":"RPM MORTAGE INC 2","Address":"3236 Stone Valley Rd W","City":"Alamo","State":"CA","Zip":"94507"},{"Location":"STONE VALLEY DENTAL","Address":"220 Alamo Plz Stee","City":"Alamo","State":"CA","Zip":"94507"},{"Location":"SUMMIT RANCH","Address":"100 Summit Ranch Rd","City":"Alamo","State":"CA","Zip":"94507"},{"Location":"XENIA RESTAURANT","Address":"115 Alamo Plz A","City":"Alamo","State":"CA","Zip":"94507"},{"Location":"ZETA PHI FRATERNITY","Address":"Po Box 66","City":"Alamo","State":"CA","Zip":"94507"},{"Location":"24 HOUR FITNESS #43","Address":"140a Alamo Plz","City":"Alamo","State":"CA","Zip":"94507"},{"Location":"ALAMO NAILS","Address":"3000 Danville Blvd K","City":"Alamo","State":"CA","Zip":"94507"},{"Location":"EXTREME PIZZA","Address":"3227 Danville Blvd","City":"Alamo","State":"CA","Zip":"94507"},{"Location":"HA RU SUSHI","Address":"115 Alamo Plz C","City":"Alamo","State":"CA","Zip":"94507"},{"Location":"IZZY'S PLACE%2C LLC","Address":"3160 Danville Blvd B","City":"Alamo","State":"CA","Zip":"94507"},{"Location":"PACHECO","Address":"3200 Danville Blvd 100","City":"Alamo","State":"CA","Zip":"94507"},{"Location":"PACIFIC DENTAL #227","Address":"3000 Danville Blvd Ab","City":"Alamo","State":"CA","Zip":"94507"},{"Location":"ROUND HILL COUNTRY CLUB","Address":"3169 Roundhill Rd","City":"Alamo","State":"CA","Zip":"94507"},{"Location":"RPM MORTAGE INC","Address":"3240 Stone Valley Rd W","City":"Alamo","State":"CA","Zip":"94507"},{"Location":"RPM MORTAGE INC 2","Address":"3236 Stone Valley Rd W","City":"Alamo","State":"CA","Zip":"94507"},{"Location":"STONE VALLEY DENTAL","Address":"220 Alamo Plz Stee","City":"Alamo","State":"CA","Zip":"94507"},{"Location":"SUMMIT RANCH","Address":"100 Summit Ranch Rd","City":"Alamo","State":"CA","Zip":"94507"},{"Location":"XENIA RESTAURANT","Address":"115 Alamo Plz A","City":"Alamo","State":"CA","Zip":"94507"},{"Location":"ZETA PHI FRATERNITY","Address":"Po Box 66","City":"Alamo","State":"CA","Zip":"94507"}]