[{"Location":"AMERICAN MEDICAL RESPONSE","Address":"406 Washington St","City":"Calistoga","State":"CA","Zip":"94515"},{"Location":"AURORA PARK COTTAGES","Address":"1807 Foothill Blvd","City":"Calistoga","State":"CA","Zip":"94515"},{"Location":"BENNETT LANE WINERY","Address":"3340 Hwy 128","City":"Calistoga","State":"CA","Zip":"94515"},{"Location":"CAL MART","Address":"1491 Lincoln Ave","City":"Calistoga","State":"CA","Zip":"94515"},{"Location":"CALISTOGA INN","Address":"1250 Lincoln Ave","City":"Calistoga","State":"CA","Zip":"94515"},{"Location":"CALISTOGA KITCHEN","Address":"1359 Lincoln Ave","City":"Calistoga","State":"CA","Zip":"94515"},{"Location":"CALISTOGA RANCH","Address":"580 Lommel Rd","City":"Calistoga","State":"CA","Zip":"94515"},{"Location":"CHELSEA  GARDEN INN","Address":"1443 2nd St","City":"Calistoga","State":"CA","Zip":"94515"},{"Location":"DR WILKINSON 2 HOTSPRING","Address":"1507 Lincoln Ave","City":"Calistoga","State":"CA","Zip":"94515"},{"Location":"DR WILKINSON HOT SPRING","Address":"1507 Lincoln Ave","City":"Calistoga","State":"CA","Zip":"94515"},{"Location":"DUFFYS NAPA VALLEY","Address":"3088 Myrtledale Rd","City":"Calistoga","State":"CA","Zip":"94515"},{"Location":"DUFFYS NAPA VALLEY1","Address":"3058 Myrtledale Rd","City":"Calistoga","State":"CA","Zip":"94515"},{"Location":"DUTCH HENRY WINERY","Address":"4300 Silverado Trl","City":"Calistoga","State":"CA","Zip":"94515"},{"Location":"FRANK FAMILY VINEYARDS","Address":"1091 Larkmead Ln","City":"Calistoga","State":"CA","Zip":"94515"},{"Location":"HOTEL DAMICI","Address":"1436 Lincoln Ave","City":"Calistoga","State":"CA","Zip":"94515"},{"Location":"KNIGHTS BRIDGE VINEYARD LLC","Address":"17138 Spencer Ln","City":"Calistoga","State":"CA","Zip":"94515"},{"Location":"KOPIO RESTAURANT","Address":"1350 Lincoln Ave","City":"Calistoga","State":"CA","Zip":"94515"},{"Location":"LAKE HOUSE RESTAURANT","Address":"580 Lommel Rd","City":"Calistoga","State":"CA","Zip":"94515"},{"Location":"NAPA COUNTY FAIR","Address":"1435 N Oak St","City":"Calistoga","State":"CA","Zip":"94515"},{"Location":"PACIFICO","Address":"1237 Lincoln Ave","City":"Calistoga","State":"CA","Zip":"94515"},{"Location":"PALISADES DELI CAFE","Address":"1458 Lincoln Ave","City":"Calistoga","State":"CA","Zip":"94515"},{"Location":"PETER MICHAEL WINERY","Address":"12400 Ida Clayton Rd","City":"Calistoga","State":"CA","Zip":"94515"},{"Location":"SCOTT HALLEY & ASSOCIATE","Address":"1389 Tucker Rd","City":"Calistoga","State":"CA","Zip":"94515"},{"Location":"UP VALLEY BARBER SHOP","Address":"2450 Foothill Blvd C","City":"Calistoga","State":"CA","Zip":"94515"},{"Location":"VILLA MIMOSA","Address":"3514 State Highway 128","City":"Calistoga","State":"CA","Zip":"94515"},{"Location":"AMERICAN MEDICAL RESPONSE","Address":"406 Washington St","City":"Calistoga","State":"CA","Zip":"94515"},{"Location":"AURORA PARK COTTAGES","Address":"1807 Foothill Blvd","City":"Calistoga","State":"CA","Zip":"94515"},{"Location":"BENNETT LANE WINERY","Address":"3340 Hwy 128","City":"Calistoga","State":"CA","Zip":"94515"},{"Location":"CAL MART","Address":"1491 Lincoln Ave","City":"Calistoga","State":"CA","Zip":"94515"},{"Location":"CALISTOGA INN","Address":"1250 Lincoln Ave","City":"Calistoga","State":"CA","Zip":"94515"},{"Location":"CALISTOGA KITCHEN","Address":"1359 Lincoln Ave","City":"Calistoga","State":"CA","Zip":"94515"},{"Location":"CALISTOGA RANCH","Address":"580 Lommel Rd","City":"Calistoga","State":"CA","Zip":"94515"},{"Location":"CHELSEA  GARDEN INN","Address":"1443 2nd St","City":"Calistoga","State":"CA","Zip":"94515"},{"Location":"DR WILKINSON 2 HOTSPRING","Address":"1507 Lincoln Ave","City":"Calistoga","State":"CA","Zip":"94515"},{"Location":"DR WILKINSON HOT SPRING","Address":"1507 Lincoln Ave","City":"Calistoga","State":"CA","Zip":"94515"},{"Location":"DUFFYS NAPA VALLEY","Address":"3088 Myrtledale Rd","City":"Calistoga","State":"CA","Zip":"94515"},{"Location":"DUFFYS NAPA VALLEY1","Address":"3058 Myrtledale Rd","City":"Calistoga","State":"CA","Zip":"94515"},{"Location":"DUTCH HENRY WINERY","Address":"4300 Silverado Trl","City":"Calistoga","State":"CA","Zip":"94515"},{"Location":"FRANK FAMILY VINEYARDS","Address":"1091 Larkmead Ln","City":"Calistoga","State":"CA","Zip":"94515"},{"Location":"HOTEL DAMICI","Address":"1436 Lincoln Ave","City":"Calistoga","State":"CA","Zip":"94515"},{"Location":"KNIGHTS BRIDGE VINEYARD LLC","Address":"17138 Spencer Ln","City":"Calistoga","State":"CA","Zip":"94515"},{"Location":"KOPIO RESTAURANT","Address":"1350 Lincoln Ave","City":"Calistoga","State":"CA","Zip":"94515"},{"Location":"LAKE HOUSE RESTAURANT","Address":"580 Lommel Rd","City":"Calistoga","State":"CA","Zip":"94515"},{"Location":"NAPA COUNTY FAIR","Address":"1435 N Oak St","City":"Calistoga","State":"CA","Zip":"94515"},{"Location":"PACIFICO","Address":"1237 Lincoln Ave","City":"Calistoga","State":"CA","Zip":"94515"},{"Location":"PALISADES DELI CAFE","Address":"1458 Lincoln Ave","City":"Calistoga","State":"CA","Zip":"94515"},{"Location":"PETER MICHAEL WINERY","Address":"12400 Ida Clayton Rd","City":"Calistoga","State":"CA","Zip":"94515"},{"Location":"SCOTT HALLEY & ASSOCIATE","Address":"1389 Tucker Rd","City":"Calistoga","State":"CA","Zip":"94515"},{"Location":"UP VALLEY BARBER SHOP","Address":"2450 Foothill Blvd C","City":"Calistoga","State":"CA","Zip":"94515"},{"Location":"VILLA MIMOSA","Address":"3514 State Highway 128","City":"Calistoga","State":"CA","Zip":"94515"}]