[{"Location":"15 ST BEACH LLC DBA BEACH HUT","Address":"2540 Sand Creek Rd A5","City":"Brentwood","State":"CA","Zip":"94513"},{"Location":"2485 SAND CREEK RD LP","Address":"2485 Sand Creek Rd 140","City":"Brentwood","State":"CA","Zip":"94513"},{"Location":"ALADINOS","Address":"4411 Balfour Rd","City":"Brentwood","State":"CA","Zip":"94513"},{"Location":"ALAMO SQUARE APARTMENTS","Address":"1329 Ellen Ln","City":"Brentwood","State":"CA","Zip":"94513"},{"Location":"ALLERGY & ASTHMA MEDICAL GROUP","Address":"350 John Muir Pkwy 180","City":"Brentwood","State":"CA","Zip":"94513"},{"Location":"AMBER HAIR DESIGN","Address":"612 1st St","City":"Brentwood","State":"CA","Zip":"94513"},{"Location":"AUTO IMPORT SERVICE","Address":"150 Middlefield Ct C","City":"Brentwood","State":"CA","Zip":"94513"},{"Location":"BANK OF AGRICULTURE","Address":"2251 Balfour Rd","City":"Brentwood","State":"CA","Zip":"94513"},{"Location":"BENNER","Address":"6361 Lone Tree Way","City":"Brentwood","State":"CA","Zip":"94513"},{"Location":"BJ'S RESTAURANT #517","Address":"2365 Sand Creek Rd","City":"Brentwood","State":"CA","Zip":"94513"},{"Location":"BLACK ANGUS STEAKHOUSE","Address":"2355 Sand Creek Rd","City":"Brentwood","State":"CA","Zip":"94513"},{"Location":"BOMBAY CLAY PIT","Address":"3130 Balfour Rd E","City":"Brentwood","State":"CA","Zip":"94513"},{"Location":"BRENTWOOD DENTAL CENTER","Address":"5611 Lone Tree Way","City":"Brentwood","State":"CA","Zip":"94513"},{"Location":"BRENTWOOD FINE MEATS","Address":"3877 Walnut Blvd A","City":"Brentwood","State":"CA","Zip":"94513"},{"Location":"BRENTWOODS FINEST BARBER SALON","Address":"8335 Brentwood Blvd E","City":"Brentwood","State":"CA","Zip":"94513"},{"Location":"BRETWOOD GOLF COURSE","Address":"100 Summerset Dr","City":"Brentwood","State":"CA","Zip":"94513"},{"Location":"BUFFALO WILD WINGS #0389","Address":"6051 Lone Tree Way","City":"Brentwood","State":"CA","Zip":"94513"},{"Location":"CAPS BAR GRILL","Address":"144 Oak St","City":"Brentwood","State":"CA","Zip":"94513"},{"Location":"CHARLEYS GRILL SUB","Address":"6660 Lone Tree Way","City":"Brentwood","State":"CA","Zip":"94513"},{"Location":"CITY OF BRENTWOOD- POLICE","Address":"9100 Brentwood Blvd","City":"Brentwood","State":"CA","Zip":"94513"},{"Location":"CORNERSTONE FELLOWSHIP","Address":"6651 Lone Tree Way","City":"Brentwood","State":"CA","Zip":"94513"},{"Location":"CREME DELA GEM JEWELRY","Address":"626 1st St","City":"Brentwood","State":"CA","Zip":"94513"},{"Location":"DADS CAFE","Address":"1135 2nd St","City":"Brentwood","State":"CA","Zip":"94513"},{"Location":"DCICKEY BRENTWOOD 610","Address":"2500 Sand Creek Rd","City":"Brentwood","State":"CA","Zip":"94513"},{"Location":"DISCOVERY WALL SYSTEM INC.","Address":"9030 Brentwood Blvd G","City":"Brentwood","State":"CA","Zip":"94513"},{"Location":"EMS  NAIL AND SPA","Address":"2200 Sand Creek Rd H","City":"Brentwood","State":"CA","Zip":"94513"},{"Location":"ESKATON LODGE","Address":"450 John Muir Pkwy","City":"Brentwood","State":"CA","Zip":"94513"},{"Location":"EXTREME PIZZA","Address":"3120 Balfour Rd F","City":"Brentwood","State":"CA","Zip":"94513"},{"Location":"FIRESTONE #308529","Address":"6863 Lone Tree Way","City":"Brentwood","State":"CA","Zip":"94513"},{"Location":"FIRST STEP WHEELS","Address":"7935 Brentwood Blvd","City":"Brentwood","State":"CA","Zip":"94513"},{"Location":"FIT U FITNESS CENTER","Address":"2490 Sand Creek Rd","City":"Brentwood","State":"CA","Zip":"94513"},{"Location":"HANNAH NICOLE VINEYARDS","Address":"6740 Balfour Rd","City":"Brentwood","State":"CA","Zip":"94513"},{"Location":"HARVEST PARK BOWL","Address":"5000 Balfour Rd","City":"Brentwood","State":"CA","Zip":"94513"},{"Location":"HERCULES DENTAL CARE IN","Address":"3120 Balfour Rd D","City":"Brentwood","State":"CA","Zip":"94513"},{"Location":"IN SHAPE HEALTH CLUBS BRENTWOO","Address":"180 Griffith Ln","City":"Brentwood","State":"CA","Zip":"94513"},{"Location":"KINDER'S MEATS & DELI & BBQ","Address":"5411 Lone Tree Way 110","City":"Brentwood","State":"CA","Zip":"94513"},{"Location":"LA FUENTE MEXICAN RESTAURANT","Address":"642 1st St","City":"Brentwood","State":"CA","Zip":"94513"},{"Location":"LONE TREE DRIVE IN","Address":"8383 Lone Tree Way","City":"Brentwood","State":"CA","Zip":"94513"},{"Location":"MASELLI SHOE AND LUGGAGE","Address":"7911 Brentwood Blvd","City":"Brentwood","State":"CA","Zip":"94513"},{"Location":"MIKADO BISTRO","Address":"2500 Sand Creek Rd A","City":"Brentwood","State":"CA","Zip":"94513"},{"Location":"MONTESSORI SCHOOL","Address":"3431 Balfour Rd","City":"Brentwood","State":"CA","Zip":"94513"},{"Location":"MWC GROUP","Address":"2397 Boulder St","City":"Brentwood","State":"CA","Zip":"94513"},{"Location":"ORBIUM INC","Address":"6580 Lone Tree Way","City":"Brentwood","State":"CA","Zip":"94513"},{"Location":"ORLEANS","Address":"613 1st St 100","City":"Brentwood","State":"CA","Zip":"94513"},{"Location":"ORWOOD RESORT","Address":"4451 Orwood Rd","City":"Brentwood","State":"CA","Zip":"94513"},{"Location":"PACIFIC DENTAL #209","Address":"6660 Lone Tree Way 7","City":"Brentwood","State":"CA","Zip":"94513"},{"Location":"PACIFIC FUNDING GROUP","Address":"70 Eagle Rock Way A","City":"Brentwood","State":"CA","Zip":"94513"},{"Location":"PHO LE","Address":"41 Sand Creek Rd","City":"Brentwood","State":"CA","Zip":"94513"},{"Location":"PIZZA HUT 031129","Address":"3101 Balfour Rd T","City":"Brentwood","State":"CA","Zip":"94513"},{"Location":"RED ROBIN #590 BRENTWOOD","Address":"2385 Sand Creek Rd","City":"Brentwood","State":"CA","Zip":"94513"},{"Location":"RENEE GOLENZ DVM","Address":"1141 Chestnut","City":"Brentwood","State":"CA","Zip":"94513"},{"Location":"ROUND TABLE 893","Address":"2540 Sand Creek Rd","City":"Brentwood","State":"CA","Zip":"94513"},{"Location":"ROYAL AESTHETICS","Address":"314 Oak St","City":"Brentwood","State":"CA","Zip":"94513"},{"Location":"SEED OF FAITH CHRISIAN","Address":"605 Harvest Park Dr","City":"Brentwood","State":"CA","Zip":"94513"},{"Location":"SHADOW LAKES GOLF CLUB","Address":"401 W Country Club Dr","City":"Brentwood","State":"CA","Zip":"94513"},{"Location":"SHIRASONI","Address":"6367 Lone Tree Way B","City":"Brentwood","State":"CA","Zip":"94513"},{"Location":"SPEEDEE OIL","Address":"7377 Brentwood Blvd","City":"Brentwood","State":"CA","Zip":"94513"},{"Location":"SPORT CLIPS CA814","Address":"5541 Lone Tree Way 120","City":"Brentwood","State":"CA","Zip":"94513"},{"Location":"SUVIA SALON SUITE LLC","Address":"5541 Lone Way  #150","City":"Brentwood","State":"CA","Zip":"94513"},{"Location":"SWEENY'S BAR AND GRILL","Address":"301 Oak St","City":"Brentwood","State":"CA","Zip":"94513"},{"Location":"TAILGATERS SPORT'S BAR & GRILL","Address":"8065 Brentwood Blvd 6","City":"Brentwood","State":"CA","Zip":"94513"},{"Location":"THE BRENTWOOD","Address":"561 1st St","City":"Brentwood","State":"CA","Zip":"94513"},{"Location":"THE GAME SPORTS PUB N PIZZA","Address":"235 Oak St","City":"Brentwood","State":"CA","Zip":"94513"},{"Location":"THE OASIS GRILL & BAR","Address":"7351 Brentwood Blvd B","City":"Brentwood","State":"CA","Zip":"94513"},{"Location":"THE ORIGINAL MELS","Address":"2523 Sand Creek Rd 100","City":"Brentwood","State":"CA","Zip":"94513"},{"Location":"THE WISHING CRAB","Address":"2505 Sand Creek Rd 108","City":"Brentwood","State":"CA","Zip":"94513"},{"Location":"VINEYARDS AT MARSH CREEK","Address":"1700 Trilogy Pkwy","City":"Brentwood","State":"CA","Zip":"94513"},{"Location":"WE CASH 1","Address":"7351 Brentwood Blvd C","City":"Brentwood","State":"CA","Zip":"94513"},{"Location":"WENDELL & FRAN - KFC 204","Address":"7810 Brentwood Blvd","City":"Brentwood","State":"CA","Zip":"94513"},{"Location":"WENDELL & FRAN - KFC 259","Address":"6371 Lone Tree Way","City":"Brentwood","State":"CA","Zip":"94513"},{"Location":"WICKED MIRAGE LOUNGE","Address":"2415 Empire Ave 207","City":"Brentwood","State":"CA","Zip":"94513"}]