[{"Location":"AC HEATING AND AIR","Address":"3500 Clayton Rd B","City":"Concord","State":"CA","Zip":"94519"},{"Location":"ANKA BEHAVORIAL HEALTH","Address":"3711 Lindero Dr","City":"Concord","State":"CA","Zip":"94519"},{"Location":"BEVERLY SCOTT","Address":"3143 Clayton Rd B","City":"Concord","State":"CA","Zip":"94519"},{"Location":"BPOE","Address":"3565 Clayton Rd","City":"Concord","State":"CA","Zip":"94519"},{"Location":"CHINESE KITCHEN","Address":"3426 Clayton Rd","City":"Concord","State":"CA","Zip":"94519"},{"Location":"FIT U","Address":"3517 Clayton Rd","City":"Concord","State":"CA","Zip":"94519"},{"Location":"FRANKLIN CHAN DDS","Address":"2931 Salvio St","City":"Concord","State":"CA","Zip":"94519"},{"Location":"GLAMOUR HAIR STUDIO LLC","Address":"3431 Chestnut Ave","City":"Concord","State":"CA","Zip":"94519"},{"Location":"MANN'S CHINESE CUISINE","Address":"4115 Concord Blvd","City":"Concord","State":"CA","Zip":"94519"},{"Location":"MINS KITCHENS","Address":"3505 Clayton Rd","City":"Concord","State":"CA","Zip":"94519"},{"Location":"NOLA PO-BOY KITCHEN","Address":"3606 Willow Pass Rd","City":"Concord","State":"CA","Zip":"94519"},{"Location":"PAYLESS BATTING CAGES","Address":"2700 E Olivera Rd","City":"Concord","State":"CA","Zip":"94519"},{"Location":"VK NAILS","Address":"4115 Concord Blvd 24","City":"Concord","State":"CA","Zip":"94519"},{"Location":"WICKED MIRAGE LOUNGE","Address":"3425 Chestnut Ave","City":"Concord","State":"CA","Zip":"94519"}]