[{"Location":"AGGREKO LLC","Address":"160 W Industrial Way","City":"Benicia","State":"CA","Zip":"94510"},{"Location":"ALII SUSHI AND BBQ","Address":"2126 Columbus Pkwy","City":"Benicia","State":"CA","Zip":"94510"},{"Location":"BENICIA FLOOR COMPANY","Address":"84 Solano Sq","City":"Benicia","State":"CA","Zip":"94510"},{"Location":"BENICIA GRILL","Address":"4760 E 2nd St","City":"Benicia","State":"CA","Zip":"94510"},{"Location":"BENICIA HEATING & AIR COND INC","Address":"340 W Channel Rd C","City":"Benicia","State":"CA","Zip":"94510"},{"Location":"BOTTOM OF THE FIFTH","Address":"498 A Military E","City":"Benicia","State":"CA","Zip":"94510"},{"Location":"C E  TOLAND & SON","Address":"5300 Industrial Way","City":"Benicia","State":"CA","Zip":"94510"},{"Location":"COMPLETE COMPANIES","Address":"4690 E 2nd St 3","City":"Benicia","State":"CA","Zip":"94510"},{"Location":"DAVITA #3109 BENICIA","Address":"560 1st St D103","City":"Benicia","State":"CA","Zip":"94510"},{"Location":"ELIZALDE CONSTRUCTION","Address":"4728 E 2nd St","City":"Benicia","State":"CA","Zip":"94510"},{"Location":"FAT SHAFTS ARCHERY","Address":"3001 Bayshore Rd 9","City":"Benicia","State":"CA","Zip":"94510"},{"Location":"GRIFFIN FITNESS","Address":"1100 Rose Dr 160","City":"Benicia","State":"CA","Zip":"94510"},{"Location":"LATHROP CONSTRUCTION ASSOC","Address":"4001 Park Rd","City":"Benicia","State":"CA","Zip":"94510"},{"Location":"LUCCA   FR","Address":"439 1st St","City":"Benicia","State":"CA","Zip":"94510"},{"Location":"MAN CAVE","Address":"4860 E 2nd St","City":"Benicia","State":"CA","Zip":"94510"},{"Location":"MOUNTAIN MIKES PIZZA","Address":"2130 Columbus Pkwy","City":"Benicia","State":"CA","Zip":"94510"},{"Location":"R3BUILDERS","Address":"503 Stone Rd","City":"Benicia","State":"CA","Zip":"94510"},{"Location":"RANDY'S MEXICAN BAR","Address":"727 1st St","City":"Benicia","State":"CA","Zip":"94510"},{"Location":"ROOKIES","Address":"321 1st St","City":"Benicia","State":"CA","Zip":"94510"},{"Location":"SAFE T SYSTEM","Address":"4690 E 2nd St 2","City":"Benicia","State":"CA","Zip":"94510"},{"Location":"SAILOR JACKS","Address":"123 1st St","City":"Benicia","State":"CA","Zip":"94510"},{"Location":"SCHAEFFER","Address":"2134 Columbus Pkwy","City":"Benicia","State":"CA","Zip":"94510"},{"Location":"SPORT CLIPS CA","Address":"808 Southampton Rd","City":"Benicia","State":"CA","Zip":"94510"},{"Location":"SUPERCUTS","Address":"868 Southampton Rd","City":"Benicia","State":"CA","Zip":"94510"},{"Location":"THE RELLIK TAVERN","Address":"726 1st St","City":"Benicia","State":"CA","Zip":"94510"},{"Location":"TIRE KINGDOM C-30600200","Address":"4280 Iowa St","City":"Benicia","State":"CA","Zip":"94510"},{"Location":"TOW BULLY","Address":"3101 Bayshore Rd C","City":"Benicia","State":"CA","Zip":"94510"},{"Location":"US AUCTIONS","Address":"4457 Park Rd","City":"Benicia","State":"CA","Zip":"94510"},{"Location":"US GOVERNMENT BUREAU","Address":"5430 Industrial Way","City":"Benicia","State":"CA","Zip":"94510"},{"Location":"VETERANS MEMORIAL HALL","Address":"1150 1st St","City":"Benicia","State":"CA","Zip":"94510"},{"Location":"AGGREKO LLC","Address":"160 W Industrial Way","City":"Benicia","State":"CA","Zip":"94510"},{"Location":"ALII SUSHI AND BBQ","Address":"2126 Columbus Pkwy","City":"Benicia","State":"CA","Zip":"94510"},{"Location":"BENICIA FLOOR COMPANY","Address":"84 Solano Sq","City":"Benicia","State":"CA","Zip":"94510"},{"Location":"BENICIA GRILL","Address":"4760 E 2nd St","City":"Benicia","State":"CA","Zip":"94510"},{"Location":"BENICIA HEATING & AIR COND INC","Address":"340 W Channel Rd C","City":"Benicia","State":"CA","Zip":"94510"},{"Location":"BOTTOM OF THE FIFTH","Address":"498 A Military E","City":"Benicia","State":"CA","Zip":"94510"},{"Location":"C E  TOLAND & SON","Address":"5300 Industrial Way","City":"Benicia","State":"CA","Zip":"94510"},{"Location":"COMPLETE COMPANIES","Address":"4690 E 2nd St 3","City":"Benicia","State":"CA","Zip":"94510"},{"Location":"DAVITA #3109 BENICIA","Address":"560 1st St D103","City":"Benicia","State":"CA","Zip":"94510"},{"Location":"ELIZALDE CONSTRUCTION","Address":"4728 E 2nd St","City":"Benicia","State":"CA","Zip":"94510"},{"Location":"FAT SHAFTS ARCHERY","Address":"3001 Bayshore Rd 9","City":"Benicia","State":"CA","Zip":"94510"},{"Location":"GRACE GARDEN","Address":"718 1st St","City":"Benicia","State":"CA","Zip":"94510"},{"Location":"GRIFFIN FITNESS","Address":"1100 Rose Dr 160","City":"Benicia","State":"CA","Zip":"94510"},{"Location":"LATHROP CONSTRUCTION ASSOC","Address":"4001 Park Rd","City":"Benicia","State":"CA","Zip":"94510"},{"Location":"LUCCA   FR","Address":"439 1st St","City":"Benicia","State":"CA","Zip":"94510"},{"Location":"MAN CAVE","Address":"4860 E 2nd St","City":"Benicia","State":"CA","Zip":"94510"},{"Location":"MOUNTAIN MIKES PIZZA","Address":"2130 Columbus Pkwy","City":"Benicia","State":"CA","Zip":"94510"},{"Location":"R3BUILDERS","Address":"503 Stone Rd","City":"Benicia","State":"CA","Zip":"94510"},{"Location":"RANDY'S MEXICAN BAR","Address":"727 1st St","City":"Benicia","State":"CA","Zip":"94510"},{"Location":"ROOKIES","Address":"321 1st St","City":"Benicia","State":"CA","Zip":"94510"},{"Location":"SAFE T SYSTEM","Address":"4690 E 2nd St 2","City":"Benicia","State":"CA","Zip":"94510"},{"Location":"SAILOR JACKS","Address":"123 1st St","City":"Benicia","State":"CA","Zip":"94510"},{"Location":"SCHAEFFER","Address":"2134 Columbus Pkwy","City":"Benicia","State":"CA","Zip":"94510"},{"Location":"SPORT CLIPS CA","Address":"808 Southampton Rd","City":"Benicia","State":"CA","Zip":"94510"},{"Location":"SUPERCUTS","Address":"868 Southampton Rd","City":"Benicia","State":"CA","Zip":"94510"},{"Location":"THE RELLIK TAVERN","Address":"726 1st St","City":"Benicia","State":"CA","Zip":"94510"},{"Location":"TIRE KINGDOM C-30600200","Address":"4280 Iowa St","City":"Benicia","State":"CA","Zip":"94510"},{"Location":"TOW BULLY","Address":"3101 Bayshore Rd C","City":"Benicia","State":"CA","Zip":"94510"},{"Location":"US AUCTIONS","Address":"4457 Park Rd","City":"Benicia","State":"CA","Zip":"94510"},{"Location":"US GOVERNMENT BUREAU","Address":"5430 Industrial Way","City":"Benicia","State":"CA","Zip":"94510"},{"Location":"VETERANS MEMORIAL HALL","Address":"1150 1st St","City":"Benicia","State":"CA","Zip":"94510"}]