[{"Location":"CLAYTON'S FITNESS CENTER","Address":"1516 Kirker Pass Rd A","City":"Clayton","State":"CA","Zip":"94517"},{"Location":"DIABLO VALLEY RANCH","Address":"11540 Marsh Creek Rd","City":"Clayton","State":"CA","Zip":"94517"},{"Location":"DIABLO VALLEY RANCH","Address":"11540 Marsh Creek Rd D","City":"Clayton","State":"CA","Zip":"94517"},{"Location":"DIABLO VALLEY RANCH","Address":"11540 Marsh Creek Rd C","City":"Clayton","State":"CA","Zip":"94517"},{"Location":"DIABLO VALLEY RANCH","Address":"11540 Marsh Creek Rd B","City":"Clayton","State":"CA","Zip":"94517"},{"Location":"ED'S MUDVILLE GRILL","Address":"6200 Center St","City":"Clayton","State":"CA","Zip":"94517"},{"Location":"GREAT CLIPS","Address":"5435 Clayton Rd G","City":"Clayton","State":"CA","Zip":"94517"},{"Location":"LA VERANDA CAFE","Address":"6201 Center St","City":"Clayton","State":"CA","Zip":"94517"},{"Location":"LENNYS FAMILY BARBER SHO","Address":"1536 Kirker Pass Rd E","City":"Clayton","State":"CA","Zip":"94517"},{"Location":"PAVILLION BAR & GRILL","Address":"1508 Kirker Pass Rd","City":"Clayton","State":"CA","Zip":"94517"},{"Location":"THE SHIPLEY ENTERPRISE","Address":"4210 Leon Dr","City":"Clayton","State":"CA","Zip":"94517"},{"Location":"THRESHOLD COMPUTER SYTEMS","Address":"79 Regency Dr","City":"Clayton","State":"CA","Zip":"94517"}]