[{"Location":"ANYTIME FITNESS","Address":"5434 Ygnacio Valley Rd 130","City":"Concord","State":"CA","Zip":"94521"},{"Location":"BUTTERCUP GRILL & BAR","Address":"4301 Clayton Rd","City":"Concord","State":"CA","Zip":"94521"},{"Location":"CERTIFIED   TIRES AND SERVICES","Address":"5288 Clayton Rd A","City":"Concord","State":"CA","Zip":"94521"},{"Location":"DICKYS BARBEQUE PIT","Address":"5434 Ygnacio Valley Rd 220","City":"Concord","State":"CA","Zip":"94521"},{"Location":"INCAS GRILL","Address":"4669 Clayton Rd D","City":"Concord","State":"CA","Zip":"94521"},{"Location":"JJSE ENTERPRISES LLC","Address":"4436 Clayton Rd E","City":"Concord","State":"CA","Zip":"94521"},{"Location":"MAI THAI 2","Address":"4710 Clayton Rd","City":"Concord","State":"CA","Zip":"94521"},{"Location":"MICHAEL WEST & ASSOCIATES","Address":"5356 Clayton Rd 216","City":"Concord","State":"CA","Zip":"94521"},{"Location":"MINAMOTO","Address":"4305 Clayton Rd A","City":"Concord","State":"CA","Zip":"94521"},{"Location":"NUEVO ESTILO SALON","Address":"4669 Clayton Rd A","City":"Concord","State":"CA","Zip":"94521"},{"Location":"ROSE FOOD & LIQUOR","Address":"5434 Ygnacio Valley Rd 110","City":"Concord","State":"CA","Zip":"94521"},{"Location":"ROUND TABLE PIZZA #78","Address":"5434 Ygnacio Valley Rd 10","City":"Concord","State":"CA","Zip":"94521"},{"Location":"ROWJANI CORPORATION FAST  EASY","Address":"4475 Treat Blvd","City":"Concord","State":"CA","Zip":"94521"},{"Location":"SPORT CLIPS CA805","Address":"5434 Ygnacio Valley Rd 50","City":"Concord","State":"CA","Zip":"94521"},{"Location":"TOGOS LLC","Address":"4475 Treat Blvd","City":"Concord","State":"CA","Zip":"94521"},{"Location":"WINGSTOP","Address":"5442 Ygnacio Valley Rd 50","City":"Concord","State":"CA","Zip":"94521"},{"Location":"B & J TIRES & WHEELS","Address":"5601 Coliseum Wy","City":"Oakland","State":"CA","Zip":"94521"},{"Location":"ANYTIME FITNESS","Address":"5434 Ygnacio Valley Rd 130","City":"Concord","State":"CA","Zip":"94521"},{"Location":"BUTTERCUP GRILL & BAR","Address":"4301 Clayton Rd","City":"Concord","State":"CA","Zip":"94521"},{"Location":"CERTIFIED   TIRES AND SERVICES","Address":"5288 Clayton Rd A","City":"Concord","State":"CA","Zip":"94521"},{"Location":"DICKYS BARBEQUE PIT","Address":"5434 Ygnacio Valley Rd 220","City":"Concord","State":"CA","Zip":"94521"},{"Location":"INCAS GRILL","Address":"4669 Clayton Rd D","City":"Concord","State":"CA","Zip":"94521"},{"Location":"JJSE ENTERPRISES LLC","Address":"4436 Clayton Rd E","City":"Concord","State":"CA","Zip":"94521"},{"Location":"MAI THAI 2","Address":"4710 Clayton Rd","City":"Concord","State":"CA","Zip":"94521"},{"Location":"MICHAEL WEST & ASSOCIATES","Address":"5356 Clayton Rd 216","City":"Concord","State":"CA","Zip":"94521"},{"Location":"MINAMOTO","Address":"4305 Clayton Rd A","City":"Concord","State":"CA","Zip":"94521"},{"Location":"NUEVO ESTILO SALON","Address":"4669 Clayton Rd A","City":"Concord","State":"CA","Zip":"94521"},{"Location":"ROSE FOOD & LIQUOR","Address":"5434 Ygnacio Valley Rd 110","City":"Concord","State":"CA","Zip":"94521"},{"Location":"ROUND TABLE PIZZA #78","Address":"5434 Ygnacio Valley Rd 10","City":"Concord","State":"CA","Zip":"94521"},{"Location":"ROWJANI CORPORATION FAST  EASY","Address":"4475 Treat Blvd","City":"Concord","State":"CA","Zip":"94521"},{"Location":"SPORT CLIPS CA805","Address":"5434 Ygnacio Valley Rd 50","City":"Concord","State":"CA","Zip":"94521"},{"Location":"TOGOS LLC","Address":"4475 Treat Blvd","City":"Concord","State":"CA","Zip":"94521"},{"Location":"WINGSTOP","Address":"5442 Ygnacio Valley Rd 50","City":"Concord","State":"CA","Zip":"94521"},{"Location":"B & J TIRES & WHEELS","Address":"5601 Coliseum Wy","City":"Oakland","State":"CA","Zip":"94521"}]