[{"Location":"ADAM WALLACH MD","Address":"400 Elcerro Blvd 204","City":"Danville","State":"CA","Zip":"94526"},{"Location":"AKIRA BISTRO","Address":"499 San Ramon Valley Blvd","City":"Danville","State":"CA","Zip":"94526"},{"Location":"AVID HOME THEATER","Address":"495c Hartz Ave","City":"Danville","State":"CA","Zip":"94526"},{"Location":"BAY CAPITAL INC","Address":"675 Hartz Ave 209","City":"Danville","State":"CA","Zip":"94526"},{"Location":"BROOKFIELD HOMES","Address":"500 La Gonda Way 100","City":"Danville","State":"CA","Zip":"94526"},{"Location":"CHOW   RESTAURANT","Address":"445 Railroad Ave","City":"Danville","State":"CA","Zip":"94526"},{"Location":"CROW CANYON COUNTRY CLUB","Address":"711 Silver Lake Dr","City":"Danville","State":"CA","Zip":"94526"},{"Location":"DANVILLE CIGAR","Address":"445 Hartz Ave","City":"Danville","State":"CA","Zip":"94526"},{"Location":"DAVID A BAUER INC","Address":"15 Railroad Ave","City":"Danville","State":"CA","Zip":"94526"},{"Location":"ELEGANT NAILS","Address":"480 San Ramon Valley Blvd","City":"Danville","State":"CA","Zip":"94526"},{"Location":"ELLIOTT'S BAR","Address":"369 Hartz Ave","City":"Danville","State":"CA","Zip":"94526"},{"Location":"FIRE HOUSE BAR AND GRILL","Address":"340 Hartz Ave","City":"Danville","State":"CA","Zip":"94526"},{"Location":"FRONTIER BARBER SHOP1","Address":"438 Hartz Ave","City":"Danville","State":"CA","Zip":"94526"},{"Location":"HERITAGE BANK OF COMMERCE","Address":"387 Diablo Rd","City":"Danville","State":"CA","Zip":"94526"},{"Location":"JC HUMMINGBIRD INC","Address":"625 San Ramon Valley Blvd","City":"Danville","State":"CA","Zip":"94526"},{"Location":"KROGMAN CONSTRUCTION","Address":"939 Hartz Way 102","City":"Danville","State":"CA","Zip":"94526"},{"Location":"LAND HOME FINANCIAL SERVICES","Address":"190 Hartz Ave","City":"Danville","State":"CA","Zip":"94526"},{"Location":"LOS PANCHOS MEXICAN RESTAURANT","Address":"480 San Ramon Valley Blvd H","City":"Danville","State":"CA","Zip":"94526"},{"Location":"LUNA LOCA","Address":"500 Sycamore Valley Rd W","City":"Danville","State":"CA","Zip":"94526"},{"Location":"M&N TIRE AND AUTO","Address":"535 San Ramon Valley Blvd","City":"Danville","State":"CA","Zip":"94526"},{"Location":"MANGIA MI DANVILLE","Address":"406 Hartz Ave A","City":"Danville","State":"CA","Zip":"94526"},{"Location":"MEENAR","Address":"349 Hartz Ave","City":"Danville","State":"CA","Zip":"94526"},{"Location":"MEGUMI SUSHI","Address":"480 San Ramon Valley Blvd E","City":"Danville","State":"CA","Zip":"94526"},{"Location":"MM DANVILLE LP","Address":"710 Camino Ramon","City":"Danville","State":"CA","Zip":"94526"},{"Location":"MOUNTAIN MIKES PIZZA DAN","Address":"130 Hartz Ave","City":"Danville","State":"CA","Zip":"94526"},{"Location":"NORMS PLACE","Address":"356 Hartz Ave","City":"Danville","State":"CA","Zip":"94526"},{"Location":"PELICAN ROCK","Address":"178 E Prospect Ave","City":"Danville","State":"CA","Zip":"94526"},{"Location":"PETE'S BRASS RAIL","Address":"201 Hartz Ave","City":"Danville","State":"CA","Zip":"94526"},{"Location":"SINCLAIR INSURANCE","Address":"524 Hartz Ave C","City":"Danville","State":"CA","Zip":"94526"},{"Location":"THAT BAR","Address":"148 E Prospect Ave","City":"Danville","State":"CA","Zip":"94526"},{"Location":"THE FORGE DANVILLE","Address":"345 Railroad Ave","City":"Danville","State":"CA","Zip":"94526"},{"Location":"THE TRANSPORTATION SHOPPE","Address":"375 Diablo Rd 106","City":"Danville","State":"CA","Zip":"94526"},{"Location":"TOWER GRILLE","Address":"301 Hartz Ave 103","City":"Danville","State":"CA","Zip":"94526"},{"Location":"UNCLE WANGS RESTAURANT","Address":"150 Hartz Ave","City":"Danville","State":"CA","Zip":"94526"},{"Location":"VOULA E GOUGOUSIS","Address":"120 E Prospect Ave","City":"Danville","State":"CA","Zip":"94526"}]