[{"Location":"JACKS RESTAURANT AND BAR","Address":"60 Crescent Dr A","City":"Concord","State":"CA","Zip":"94523"},{"Location":"URBAN BARBERSHOP","Address":"1106 Contra Costa Blvd","City":"Concord","State":"CA","Zip":"94523"},{"Location":"BACK FORTY","Address":"100 Coggins Dr","City":"Pleasant Hill","State":"CA","Zip":"94523"},{"Location":"CJ'S SALOON","Address":"548 Contra Costa Blvd G","City":"Pleasant Hill","State":"CA","Zip":"94523"},{"Location":"CONTRA COSTA COUNTY OFF OF EDU","Address":"77 Santa Barbara Rd","City":"Pleasant Hill","State":"CA","Zip":"94523"},{"Location":"CONTRA COSTA FIRE PROTECTION","Address":"2010 Geary Rd","City":"Pleasant Hill","State":"CA","Zip":"94523"},{"Location":"CORNER BAKERY CAFE","Address":"35 Crescent Dr A","City":"Pleasant Hill","State":"CA","Zip":"94523"},{"Location":"DAMO SUSHI","Address":"508 Contra Costa Blvd","City":"Pleasant Hill","State":"CA","Zip":"94523"},{"Location":"DESTINATION XL 9708","Address":"651 Contra Costa Blvd","City":"Pleasant Hill","State":"CA","Zip":"94523"},{"Location":"DICKEYS PLEASANT HILL","Address":"2634 Pleasant Hill Rd","City":"Pleasant Hill","State":"CA","Zip":"94523"},{"Location":"DICKS SPORTING GOOD #1072","Address":"2314 Monument Blvd","City":"Pleasant Hill","State":"CA","Zip":"94523"},{"Location":"EPIC CARE","Address":"400 Taylor Blvd","City":"Pleasant Hill","State":"CA","Zip":"94523"},{"Location":"FARRINGTONS","Address":"1938 Contra Costa Blvd","City":"Pleasant Hill","State":"CA","Zip":"94523"},{"Location":"FIRESTONE #029734","Address":"715 Contra Costa Blvd","City":"Pleasant Hill","State":"CA","Zip":"94523"},{"Location":"GOLFSMITH #043B","Address":"120 Crescent Dr","City":"Pleasant Hill","State":"CA","Zip":"94523"},{"Location":"GRAYSON WOODS","Address":"400 Iron Hill St","City":"Pleasant Hill","State":"CA","Zip":"94523"},{"Location":"GREAT CLIPS","Address":"2186 Contra Costa Blvd","City":"Pleasant Hill","State":"CA","Zip":"94523"},{"Location":"JAGUAR KARAOKE","Address":"508 Contra Costa Blvd L2","City":"Pleasant Hill","State":"CA","Zip":"94523"},{"Location":"KOHL'S #978","Address":"2302 Monument Blvd","City":"Pleasant Hill","State":"CA","Zip":"94523"},{"Location":"LISA LANE COMMONS HOA","Address":"2200 Lisa Ln","City":"Pleasant Hill","State":"CA","Zip":"94523"},{"Location":"MAGOO'S GRILL & BAR","Address":"1250 Contra Costa Blvd 203","City":"Pleasant Hill","State":"CA","Zip":"94523"},{"Location":"MARK SCOTT CONSTRUCTION INC","Address":"2835 Contra Costa Blvd A","City":"Pleasant Hill","State":"CA","Zip":"94523"},{"Location":"MEN'S WEARHOUSE #2154","Address":"552 Contra Costa Blvd","City":"Pleasant Hill","State":"CA","Zip":"94523"},{"Location":"MOA KOREAN BBQ","Address":"508 Contra Costa Blvd","City":"Pleasant Hill","State":"CA","Zip":"94523"},{"Location":"MOUNTAIN MIKES PIZZA","Address":"1962 Contra Costa Blvd","City":"Pleasant Hill","State":"CA","Zip":"94523"},{"Location":"MR LUCKYS OF PLEASANT HILL","Address":"2618 Pleasant Hill Rd","City":"Pleasant Hill","State":"CA","Zip":"94523"},{"Location":"NATURALLY NAILS","Address":"1200 Contra Costa Blvd%2C Ste J","City":"Pleasant Hill","State":"CA","Zip":"94523"},{"Location":"NATURALLY NAILS","Address":"1200 Contra Costa Boulevard","City":"Pleasant Hill","State":"CA","Zip":"94523"},{"Location":"OAK PARK LIQUOR","Address":"1895 Oak Park Blvd","City":"Pleasant Hill","State":"CA","Zip":"94523"},{"Location":"OUTBACK STEAKHOUSE #0511","Address":"150 Longbrook Way A","City":"Pleasant Hill","State":"CA","Zip":"94523"},{"Location":"PAMPERED NAIL SALON","Address":"1600 Contra Costa Blvd C","City":"Pleasant Hill","State":"CA","Zip":"94523"},{"Location":"PIZZA MY WAY","Address":"1300 Contra Costa Blvd","City":"Pleasant Hill","State":"CA","Zip":"94523"},{"Location":"PLEASANT HILL BASEBALL ASSOC","Address":"2 Santa Barbara Rd","City":"Pleasant Hill","State":"CA","Zip":"94523"},{"Location":"PROPERTY SCIENCES","Address":"395 Taylor Blvd 250","City":"Pleasant Hill","State":"CA","Zip":"94523"},{"Location":"SLOW HAND BBQ","Address":"1941 Oak Park Blvd","City":"Pleasant Hill","State":"CA","Zip":"94523"},{"Location":"SPORT CLIPS CA802","Address":"2360 Monument Blvd B","City":"Pleasant Hill","State":"CA","Zip":"94523"},{"Location":"SUPERCUTS","Address":"55 Crescent Dr B","City":"Pleasant Hill","State":"CA","Zip":"94523"},{"Location":"TARGET #330","Address":"560 Contra Costa Blvd","City":"Pleasant Hill","State":"CA","Zip":"94523"},{"Location":"TAURIAN        #1022","Address":"3195 N Main St","City":"Pleasant Hill","State":"CA","Zip":"94523"},{"Location":"TERRACE APARTMENTS","Address":"111 Cleaveland Rd","City":"Pleasant Hill","State":"CA","Zip":"94523"},{"Location":"THERESA","Address":"2375 Conta Costa Blvd  #a","City":"Pleasant Hill","State":"CA","Zip":"94523"},{"Location":"TIRE KINGDOM B-5248","Address":"1845 Contra Costa Blvd","City":"Pleasant Hill","State":"CA","Zip":"94523"},{"Location":"TOGOS RESTAURANT","Address":"55 Crescent Dr A","City":"Pleasant Hill","State":"CA","Zip":"94523"},{"Location":"WELLS FARGO #199889","Address":"85 Cleaveland Rd","City":"Pleasant Hill","State":"CA","Zip":"94523"},{"Location":"WINGSTOP 338","Address":"2380 Monument Blvd C1","City":"Pleasant Hill","State":"CA","Zip":"94523"}]