[{"Location":"1ST CLASS BARBER SHOP","Address":"1585 Clayton Rd","City":"Concord","State":"CA","Zip":"94520"},{"Location":"24 HOUR FITNESS #511","Address":"359 Sun Valley Mall","City":"Concord","State":"CA","Zip":"94520"},{"Location":"834TH TRANSPORTATION BN","Address":"410 Norman Ave","City":"Concord","State":"CA","Zip":"94520"},{"Location":"AIG","Address":"1655 Grant St","City":"Concord","State":"CA","Zip":"94520"},{"Location":"ALL GLASS","Address":"1440 Franquette Ave A","City":"Concord","State":"CA","Zip":"94520"},{"Location":"ARRONS AUTO","Address":"1410 Concord Ave F","City":"Concord","State":"CA","Zip":"94520"},{"Location":"ASHLEY FURNITURE","Address":"2201 John Glenn Dr","City":"Concord","State":"CA","Zip":"94520"},{"Location":"ATT MOBILITY2","Address":"2299 Pike Ct","City":"Concord","State":"CA","Zip":"94520"},{"Location":"AUDI CONCORD","Address":"1300 Concord Ave","City":"Concord","State":"CA","Zip":"94520"},{"Location":"BANC HOME LOANS","Address":"4051 Port Chicago Hwy 130","City":"Concord","State":"CA","Zip":"94520"},{"Location":"BAY AREA VOLLEY BALL CLUB","Address":"1950 Olivera Rd 1","City":"Concord","State":"CA","Zip":"94520"},{"Location":"BAYSIDE INSULATION","Address":"1635 Challenge Dr","City":"Concord","State":"CA","Zip":"94520"},{"Location":"BENIHANA #1019 CONCORD","Address":"1989 Diamond Blvd","City":"Concord","State":"CA","Zip":"94520"},{"Location":"BJS RESTAURANT #492","Address":"385 Sun Valley Mall","City":"Concord","State":"CA","Zip":"94520"},{"Location":"BMW CONCORD - CCRC","Address":"1321 Galaxy Way B","City":"Concord","State":"CA","Zip":"94520"},{"Location":"BRENDEN THEATER CORP.","Address":"1985 Willow Pass Rd","City":"Concord","State":"CA","Zip":"94520"},{"Location":"BSM","Address":"2575 Stanwell Dr","City":"Concord","State":"CA","Zip":"94520"},{"Location":"BUCANAN FIELDS GOLF COURSE","Address":"1091 Concord Ave","City":"Concord","State":"CA","Zip":"94520"},{"Location":"BUFFET CITY","Address":"1400 Willow Pass Rd","City":"Concord","State":"CA","Zip":"94520"},{"Location":"CALIFORNIA NAIL","Address":"1701 Monument Blvd F","City":"Concord","State":"CA","Zip":"94520"},{"Location":"CALIFORNIA SHINGLE & SHAKE CO","Address":"2279 Pike Ct","City":"Concord","State":"CA","Zip":"94520"},{"Location":"CERUS CORPORATION","Address":"2550 Stanwell Dr","City":"Concord","State":"CA","Zip":"94520"},{"Location":"CHEVRON - CVN 000018","Address":"2001 Diamond Blvd 1220d","City":"Concord","State":"CA","Zip":"94520"},{"Location":"CHEVRON TEXACO","Address":"2005 Diamond Blvd","City":"Concord","State":"CA","Zip":"94520"},{"Location":"CHILI'S #0086","Address":"1501 Concord Ave","City":"Concord","State":"CA","Zip":"94520"},{"Location":"CLAIM JUMPER #19","Address":"1981 Diamond Blvd","City":"Concord","State":"CA","Zip":"94520"},{"Location":"COBHAM","Address":"4030 Nelson Ave","City":"Concord","State":"CA","Zip":"94520"},{"Location":"COBHAM SATCOM","Address":"4030 Nelson Ave","City":"Concord","State":"CA","Zip":"94520"},{"Location":"COMPUMAIL","Address":"4057 Port Chicago Hwy 302","City":"Concord","State":"CA","Zip":"94520"},{"Location":"CONCARD JET SRVICES","Address":"500 Sally Ride Dr 530","City":"Concord","State":"CA","Zip":"94520"},{"Location":"CONCO COMPANIES","Address":"5141 Commercial Cir","City":"Concord","State":"CA","Zip":"94520"},{"Location":"CONCORD DISPOSAL SERVICE","Address":"2540 Bates Ave","City":"Concord","State":"CA","Zip":"94520"},{"Location":"CONCORD DISPOSAL SERVICE","Address":"4080b Mallard Dr","City":"Concord","State":"CA","Zip":"94520"},{"Location":"CONCORD HONDA","Address":"1461 Concord Ave","City":"Concord","State":"CA","Zip":"94520"},{"Location":"CONCORD MAZDA","Address":"1891 Market St","City":"Concord","State":"CA","Zip":"94520"},{"Location":"CONCORD MAZDA SERVICE CENTER","Address":"1651 Concord Ave","City":"Concord","State":"CA","Zip":"94520"},{"Location":"CONCORD MITSUBISHI","Address":"2199 Meridian Park Blvd","City":"Concord","State":"CA","Zip":"94520"},{"Location":"CONCORD POLICE ASSOCIATION","Address":"5060 Avila Rd","City":"Concord","State":"CA","Zip":"94520"},{"Location":"CONCORD TOYOTA","Address":"1090 Concord Ave","City":"Concord","State":"CA","Zip":"94520"},{"Location":"CONCORD WEST AUTOMOTIVE CONPAN","Address":"1340 Concord Ave","City":"Concord","State":"CA","Zip":"94520"},{"Location":"CONTRA COSTA WATER DISTRICT","Address":"1331 Concord Ave","City":"Concord","State":"CA","Zip":"94520"},{"Location":"CONTRACOST C HOMELESS","Address":"2047 Arnold Industrial Way","City":"Concord","State":"CA","Zip":"94520"},{"Location":"CROWN PLAZA HOTEL","Address":"45 John Glenn Dr","City":"Concord","State":"CA","Zip":"94520"},{"Location":"DAVITA #2066 CONCORD","Address":"2300 Stanwell Dr C","City":"Concord","State":"CA","Zip":"94520"},{"Location":"DC SOLAR SOLUTIONS MSG","Address":"135 Mason Cir A","City":"Concord","State":"CA","Zip":"94520"},{"Location":"DISCOUNT TIRE","Address":"2241 Monument Blvd","City":"Concord","State":"CA","Zip":"94520"},{"Location":"DISCOVERY BUILDERS","Address":"4071 Port Chicago Hwy 150","City":"Concord","State":"CA","Zip":"94520"},{"Location":"DISCOVERY BUILDERS","Address":"4061 Port Chicago Hwy H","City":"Concord","State":"CA","Zip":"94520"},{"Location":"DJ BISTRO","Address":"1825 Sutter St C","City":"Concord","State":"CA","Zip":"94520"},{"Location":"EL FARO CONCORD","Address":"2280 Monument Blvd","City":"Concord","State":"CA","Zip":"94520"},{"Location":"EL FAROLITO","Address":"1844 Grant St","City":"Concord","State":"CA","Zip":"94520"},{"Location":"ELEPHANT BAR CONCORD","Address":"1225 Willow Pass Rd","City":"Concord","State":"CA","Zip":"94520"},{"Location":"ELGURAMACO","Address":"2186 Solano Way","City":"Concord","State":"CA","Zip":"94520"},{"Location":"FIRESTONE #117331","Address":"1410 Concord Ave","City":"Concord","State":"CA","Zip":"94520"},{"Location":"FIRST AMERICAN TITLE LENDERS","Address":"1855 Gateway Blvd 700","City":"Concord","State":"CA","Zip":"94520"},{"Location":"FUDDRUCKERS","Address":"1975 Diamond Blvd","City":"Concord","State":"CA","Zip":"94520"},{"Location":"FUTURE FORD OF CONCORD","Address":"2285 Diamond Blvd","City":"Concord","State":"CA","Zip":"94520"},{"Location":"FUTURE FORD OF CONCORD HYUNDAI","Address":"1051 Burnett Ave","City":"Concord","State":"CA","Zip":"94520"},{"Location":"FUTURE FORD OF CONCORD PARTS","Address":"2285 Diamond Blvd","City":"Concord","State":"CA","Zip":"94520"},{"Location":"G AND K LOUNGE","Address":"1907 Salvio St","City":"Concord","State":"CA","Zip":"94520"},{"Location":"GM ELECTRONICS","Address":"1309 Galindo St","City":"Concord","State":"CA","Zip":"94520"},{"Location":"GOLDEN GATE CONSULTING","Address":"2151 Salvio St 252","City":"Concord","State":"CA","Zip":"94520"},{"Location":"HEALTHQUEST","Address":"2003 Diamond Blvd","City":"Concord","State":"CA","Zip":"94520"},{"Location":"HENLEYS CUSTOM CABINETS","Address":"1950 Olivera Rd C","City":"Concord","State":"CA","Zip":"94520"},{"Location":"HOFMANN LAND DEVELOPMENT","Address":"1380 Galaxy Way","City":"Concord","State":"CA","Zip":"94520"},{"Location":"HONG KONG LAUNDRY","Address":"1580 Willow Pass Ct F","City":"Concord","State":"CA","Zip":"94520"},{"Location":"I LOVE RAMEN AND NOODLE","Address":"1930 Salvio St","City":"Concord","State":"CA","Zip":"94520"},{"Location":"ILAS DENTAL CARE","Address":"2030 Diamond Blvd 25","City":"Concord","State":"CA","Zip":"94520"},{"Location":"IMPORT MOTORS INC","Address":"1967 Market St","City":"Concord","State":"CA","Zip":"94520"},{"Location":"INDEPENDANT CONSTRUCTION","Address":"3911 Laura Alice Way","City":"Concord","State":"CA","Zip":"94520"},{"Location":"INDUSTRIAL VALCO","Address":"5060 Forni Dr A1","City":"Concord","State":"CA","Zip":"94520"},{"Location":"INSTITUTE FOR NATURAL RESOURCE","Address":"2354 Stanwell Dr","City":"Concord","State":"CA","Zip":"94520"},{"Location":"JASONS HOT POT RESTAURAN","Address":"1845 Willow Pass Rd","City":"Concord","State":"CA","Zip":"94520"},{"Location":"JENKINS ATHENS INSURANCE","Address":"2552 Stanwell Dr","City":"Concord","State":"CA","Zip":"94520"},{"Location":"JOHN MUIR BEHAVIOR HEALTH","Address":"2350 Pacheco St","City":"Concord","State":"CA","Zip":"94520"},{"Location":"JOY LINDSEY DBA LITTLE","Address":"2525 Stanwell Dr 200","City":"Concord","State":"CA","Zip":"94520"},{"Location":"JUNGLE FUN CONCORD","Address":"1975 Diamond Blvd","City":"Concord","State":"CA","Zip":"94520"},{"Location":"KB HAIR & NAILS","Address":"2365 Concord Blvd","City":"Concord","State":"CA","Zip":"94520"},{"Location":"KB HAIR AND NAILS","Address":"2365 Concord Blvd","City":"Concord","State":"CA","Zip":"94520"},{"Location":"KINDERS","Address":"1776 Arnold Industrial Way","City":"Concord","State":"CA","Zip":"94520"},{"Location":"LA PINATA","Address":"2301 Willow Pass Rd","City":"Concord","State":"CA","Zip":"94520"},{"Location":"LA TAQUERUIA LA PLAZA","Address":"1801 Sutter St G","City":"Concord","State":"CA","Zip":"94520"},{"Location":"LAS MONTANAS RESTAURANT","Address":"1841 Willow Pass Rd","City":"Concord","State":"CA","Zip":"94520"},{"Location":"LAZY DOG REST & BAR","Address":"1961 Diamond Blvd","City":"Concord","State":"CA","Zip":"94520"},{"Location":"LEGENDS %40 DIABLO CREEK","Address":"4050 Port Chicago Hwy","City":"Concord","State":"CA","Zip":"94520"},{"Location":"LUCILLES SMOKEHOUSE BBQ","Address":"486 Sun Valley Mall","City":"Concord","State":"CA","Zip":"94520"},{"Location":"MACY'S WEST 323","Address":"341 Sun Valley Mall","City":"Concord","State":"CA","Zip":"94520"},{"Location":"MACY'S WEST 323","Address":"410 Sun Valley Mall","City":"Concord","State":"CA","Zip":"94520"},{"Location":"MID SOUTH FOOD ENTERPRIS","Address":"2190 Meridian Park Blvd","City":"Concord","State":"CA","Zip":"94520"},{"Location":"MIKE MURPHY BASEBALL","Address":"2470 Bates Ave D","City":"Concord","State":"CA","Zip":"94520"},{"Location":"MINI OF CONCORD","Address":"1967 Market St","City":"Concord","State":"CA","Zip":"94520"},{"Location":"MOBILE LIVING TRUCK TOPS","Address":"1420 Concord Ave","City":"Concord","State":"CA","Zip":"94520"},{"Location":"MUIR LAB","Address":"5003 Commercial Cir","City":"Concord","State":"CA","Zip":"94520"},{"Location":"NATCA","Address":"201 John Glenn Dr","City":"Concord","State":"CA","Zip":"94520"},{"Location":"NIELLO INFINITI","Address":"1001 Burnett Ave","City":"Concord","State":"CA","Zip":"94520"},{"Location":"OUR LOVE TERRIYAKI","Address":"1950 Salvio St","City":"Concord","State":"CA","Zip":"94520"},{"Location":"PACIFIC STATES AVIATION INC","Address":"51 John Glenn Dr","City":"Concord","State":"CA","Zip":"94520"},{"Location":"PELUQUERIA LUPITAS","Address":"1601 Monument Blvd","City":"Concord","State":"CA","Zip":"94520"},{"Location":"PHAM","Address":"1760 Willow Pass Rd","City":"Concord","State":"CA","Zip":"94520"},{"Location":"PLAZA HOME FURNITURE","Address":"1774 Willow Pass Rd","City":"Concord","State":"CA","Zip":"94520"},{"Location":"PUEBLOS DEL SOL","Address":"2090 Commerce Ave","City":"Concord","State":"CA","Zip":"94520"},{"Location":"REACH AIR MEDICAL","Address":"5005 Marsh Dr","City":"Concord","State":"CA","Zip":"94520"},{"Location":"RED ROBIN #192","Address":"404a Sun Valley Mall","City":"Concord","State":"CA","Zip":"94520"},{"Location":"RESTAURANTE EL SALVADOR","Address":"2118 Willow Pass Rd 300","City":"Concord","State":"CA","Zip":"94520"},{"Location":"SAFELITE","Address":"2655 Monument Blvd A","City":"Concord","State":"CA","Zip":"94520"},{"Location":"SAIGON BISTRO","Address":"1701 Willow Pass Rd F","City":"Concord","State":"CA","Zip":"94520"},{"Location":"SAMS CLUB","Address":"1225 Concord Ave","City":"Concord","State":"CA","Zip":"94520"},{"Location":"SIERRA PACIFIC PROPERTIES","Address":"1800 Willow Pass Ct","City":"Concord","State":"CA","Zip":"94520"},{"Location":"SOLANO DRIVE IN","Address":"1611 Solano Way","City":"Concord","State":"CA","Zip":"94520"},{"Location":"SPORTS AUTHORITY 663","Address":"1235 Concord Ave","City":"Concord","State":"CA","Zip":"94520"},{"Location":"SUSHI ROKU","Address":"1950 Market St","City":"Concord","State":"CA","Zip":"94520"},{"Location":"T MOBILE 4235100150","Address":"1855 Gateway Blvd 900","City":"Concord","State":"CA","Zip":"94520"},{"Location":"THE OFFICE","Address":"1796 Willow Pass Rd","City":"Concord","State":"CA","Zip":"94520"},{"Location":"THE PARLOR BARBERSHOP","Address":"2230 Salvio St","City":"Concord","State":"CA","Zip":"94520"},{"Location":"THE RAIDERS IMAGE #912","Address":"171 Sun Valley Mall","City":"Concord","State":"CA","Zip":"94520"},{"Location":"TOGOS RESTAURANT LLC","Address":"1768 Willow Pass Rd","City":"Concord","State":"CA","Zip":"94520"},{"Location":"TOMI JAPANESE SEAFOOD","Address":"476 Sun Valley Mall D214","City":"Concord","State":"CA","Zip":"94520"},{"Location":"TOUCH OF EUROPE","Address":"1880 Colfax St","City":"Concord","State":"CA","Zip":"94520"},{"Location":"TOWER GRILLE CONCORD","Address":"1950 Grant St","City":"Concord","State":"CA","Zip":"94520"},{"Location":"UFC GYM","Address":"1975 Diamond Blvd","City":"Concord","State":"CA","Zip":"94520"},{"Location":"UNITED SPORTSMANS INC","Address":"4700 Evora Rd","City":"Concord","State":"CA","Zip":"94520"},{"Location":"UNLIMITED HORIZONS","Address":"1855 Gateway Blvd 140","City":"Concord","State":"CA","Zip":"94520"},{"Location":"URBAN BARBER COLLEGE","Address":"1827 Willow Pass Rd","City":"Concord","State":"CA","Zip":"94520"},{"Location":"US BANK","Address":"1875 Willow Pass Rd","City":"Concord","State":"CA","Zip":"94520"},{"Location":"VIP BARBERSHOP","Address":"1810 Colfax St","City":"Concord","State":"CA","Zip":"94520"},{"Location":"WELLS FARGO BANK","Address":"1220 Concord Ave","City":"Concord","State":"CA","Zip":"94520"},{"Location":"WILLS AUTO BODY INC","Address":"2330 Bates Ave B5","City":"Concord","State":"CA","Zip":"94520"}]