[{"Location":"WHICH WICH #305","Address":"43839 Pacific Commons Blvd","City":"Freemont","State":"CA","Zip":"94538"},{"Location":"24 HOUR FITNESS #493","Address":"4500 Auto Mall Pkwy","City":"Fremont","State":"CA","Zip":"94538"},{"Location":"24 HOUR FITNESS #543","Address":"39300 Pasco Padre Pkwy","City":"Fremont","State":"CA","Zip":"94538"},{"Location":"A CE USAWORKERS COMPENSATION","Address":"39300 Civic Center Dr 290","City":"Fremont","State":"CA","Zip":"94538"},{"Location":"A PERFECT DAY SPA","Address":"39039 Paseo Padre Pkwy","City":"Fremont","State":"CA","Zip":"94538"},{"Location":"ADSI","Address":"4255 Business Center Dr","City":"Fremont","State":"CA","Zip":"94538"},{"Location":"ALAMEDA COUNTY WATER DISTRICT","Address":"43885 S Grimmer Blvd","City":"Fremont","State":"CA","Zip":"94538"},{"Location":"ALTAMAR","Address":"3695 Stevenson Blvd","City":"Fremont","State":"CA","Zip":"94538"},{"Location":"AMERICAN SWIM ACADEMY","Address":"4150 Technology Dr","City":"Fremont","State":"CA","Zip":"94538"},{"Location":"AMY B WONG DDS INC","Address":"39358 Fremont Blvd","City":"Fremont","State":"CA","Zip":"94538"},{"Location":"ANIKIS SUSHI","Address":"3810 Mowry Ave","City":"Fremont","State":"CA","Zip":"94538"},{"Location":"APPLEBEE'S #2111015","Address":"39139 Farwell Dr","City":"Fremont","State":"CA","Zip":"94538"},{"Location":"AUTOWEST HONDA FREEMONT NW2673","Address":"5780 Cushing Pkwy","City":"Fremont","State":"CA","Zip":"94538"},{"Location":"AVERMEDIA TECHNOLOGIES","Address":"47358 Fremont Blvd","City":"Fremont","State":"CA","Zip":"94538"},{"Location":"BAY AREA CIRCUIT","Address":"44358 Old Warm Springs Blvd","City":"Fremont","State":"CA","Zip":"94538"},{"Location":"BAY AREA TRAFFIC SOLUTIONS INC","Address":"44800 Industrial Dr","City":"Fremont","State":"CA","Zip":"94538"},{"Location":"BILLS LIQUORS","Address":"3968 Washington Blvd","City":"Fremont","State":"CA","Zip":"94538"},{"Location":"BLACK BEAR DINER 2","Address":"5035 Mowry Ave","City":"Fremont","State":"CA","Zip":"94538"},{"Location":"BMW FREEMONT%2C NW 2740","Address":"5720 Cushing Pkwy","City":"Fremont","State":"CA","Zip":"94538"},{"Location":"BOSTON SCIENCE BLDG 5","Address":"47215 Lakeview Blvd","City":"Fremont","State":"CA","Zip":"94538"},{"Location":"BOSTON SCIENTIFIC BLDG 1","Address":"47201 Lakeview Blvd","City":"Fremont","State":"CA","Zip":"94538"},{"Location":"BRONCO BILLYS","Address":"41200 Blacow Rd D","City":"Fremont","State":"CA","Zip":"94538"},{"Location":"BUFFALO WILD WINGS #0516","Address":"43821 Pacific Commons Blvd","City":"Fremont","State":"CA","Zip":"94538"},{"Location":"C AND H ENTERPRISES","Address":"46939 Bayside Pkwy","City":"Fremont","State":"CA","Zip":"94538"},{"Location":"CALIFORNIA BANK & TRUST","Address":"39315 Fremont Blvd","City":"Fremont","State":"CA","Zip":"94538"},{"Location":"CALIFORNIA BILLIARD CLUB","Address":"40510 Albrae St","City":"Fremont","State":"CA","Zip":"94538"},{"Location":"CALSTATE CONSTRUCTIONS","Address":"4165 Business Center Dr","City":"Fremont","State":"CA","Zip":"94538"},{"Location":"CARMEN AND FAMILY BBQ","Address":"41986 Fremont Blvd","City":"Fremont","State":"CA","Zip":"94538"},{"Location":"CARSMITH MOTORS","Address":"48995 Milmont Dr","City":"Fremont","State":"CA","Zip":"94538"},{"Location":"CENTER IMPLANT DENTISTRY","Address":"3381 Walnut Ave","City":"Fremont","State":"CA","Zip":"94538"},{"Location":"CHILI'S #0075","Address":"39131 Fremont Blvd","City":"Fremont","State":"CA","Zip":"94538"},{"Location":"CHP NIMTZ INSPECTION FACILITY","Address":"4416 Interstate 880","City":"Fremont","State":"CA","Zip":"94538"},{"Location":"CITY BEACH","Address":"4020 Technology Pl","City":"Fremont","State":"CA","Zip":"94538"},{"Location":"CITY OF FREMONT","Address":"3300 Capitol Ave","City":"Fremont","State":"CA","Zip":"94538"},{"Location":"CLAIM JUMPER #38","Address":"43330 Pacific Commons Blvd","City":"Fremont","State":"CA","Zip":"94538"},{"Location":"CLOVERLEAF FAMILY BOWL","Address":"40645 Fremont Blvd 3","City":"Fremont","State":"CA","Zip":"94538"},{"Location":"CLUB SPORT FREMONT","Address":"46650 Landing Pkwy","City":"Fremont","State":"CA","Zip":"94538"},{"Location":"COACH'S SPORT BAR","Address":"40968 Fremont Blvd","City":"Fremont","State":"CA","Zip":"94538"},{"Location":"COUNTER BURGER FREMONT","Address":"39350 Paseo Padre Pkwy","City":"Fremont","State":"CA","Zip":"94538"},{"Location":"CRESCENT MOTORS","Address":"41969 Albrae St","City":"Fremont","State":"CA","Zip":"94538"},{"Location":"CRESTWOOD TREAMENT CENTER","Address":"2171 Mowry Ave","City":"Fremont","State":"CA","Zip":"94538"},{"Location":"CSTDA INSURANCE SERVICES","Address":"42840 Christy St 235","City":"Fremont","State":"CA","Zip":"94538"},{"Location":"CUT THE CRAB","Address":"4949 Stevenson Blvd 1","City":"Fremont","State":"CA","Zip":"94538"},{"Location":"DATONG DEVELOMENT.CO","Address":"48761 Kato Rd","City":"Fremont","State":"CA","Zip":"94538"},{"Location":"DAVITA #2483 FREMONT","Address":"39355 California St 101","City":"Fremont","State":"CA","Zip":"94538"},{"Location":"DAVITA #2486 FREEMONT","Address":"2599 Stevenson Blvd","City":"Fremont","State":"CA","Zip":"94538"},{"Location":"DB CONTROL","Address":"1120 Auburn St","City":"Fremont","State":"CA","Zip":"94538"},{"Location":"DEALA DENTAL CARE","Address":"39453 Fremont Blvd","City":"Fremont","State":"CA","Zip":"94538"},{"Location":"DESTINY CHRISTIAN FELLOWSHIP","Address":"42326 Albrae St","City":"Fremont","State":"CA","Zip":"94538"},{"Location":"DICK'S SPORTING GOODS #1170","Address":"43923 Pacific Commons Blvd","City":"Fremont","State":"CA","Zip":"94538"},{"Location":"DICKEYS FREEMONT","Address":"43319 Boscell Rd","City":"Fremont","State":"CA","Zip":"94538"},{"Location":"DIGITAL NIRVANA INC","Address":"44053 Fremont Blvd","City":"Fremont","State":"CA","Zip":"94538"},{"Location":"DONS HAIR AND SPA","Address":"3227 Walnut Ave","City":"Fremont","State":"CA","Zip":"94538"},{"Location":"DR. ARTHUR TING MD INC","Address":"2675 Stevenson Blvd","City":"Fremont","State":"CA","Zip":"94538"},{"Location":"ELEPHANT BAR FREMONT","Address":"39233 Fremont Blvd","City":"Fremont","State":"CA","Zip":"94538"},{"Location":"ELSA M RONQUILLO DENTAL","Address":"5172 Mowry Ave","City":"Fremont","State":"CA","Zip":"94538"},{"Location":"EMOD INC DBA CROSSFIT JIGSAW","Address":"42670 Albrae St","City":"Fremont","State":"CA","Zip":"94538"},{"Location":"EXAR","Address":"48720 Kato Rd","City":"Fremont","State":"CA","Zip":"94538"},{"Location":"FALAFEL CORNER","Address":"43450 Grimmer Blvd","City":"Fremont","State":"CA","Zip":"94538"},{"Location":"FINISAR CORP","Address":"41752 Christy St","City":"Fremont","State":"CA","Zip":"94538"},{"Location":"FIREHOUSE SUBS","Address":"43344 Boscell Rd","City":"Fremont","State":"CA","Zip":"94538"},{"Location":"FIRESTONE #120324","Address":"40975 Albrae St","City":"Fremont","State":"CA","Zip":"94538"},{"Location":"FIRESTONE #240720","Address":"39270 Fremont Blvd","City":"Fremont","State":"CA","Zip":"94538"},{"Location":"FLETCHER JONES MOTOCARS","Address":"5760 Cushing Pkwy","City":"Fremont","State":"CA","Zip":"94538"},{"Location":"FMC 11490000","Address":"39505 Paseo Padre Pkwy","City":"Fremont","State":"CA","Zip":"94538"},{"Location":"FREMONT BANK","Address":"39150 Fremont Blvd","City":"Fremont","State":"CA","Zip":"94538"},{"Location":"FREMONT CHEVROLET","Address":"5939 Auto Mall Pkwy","City":"Fremont","State":"CA","Zip":"94538"},{"Location":"FREMONT CHEVROLET","Address":"5850 Cushing Pkwy","City":"Fremont","State":"CA","Zip":"94538"},{"Location":"FREMONT FIRE DEPARTMENT","Address":"47200 Lakeview Blvd","City":"Fremont","State":"CA","Zip":"94538"},{"Location":"FREMONT HOSPITAL","Address":"39001 Sundale Dr","City":"Fremont","State":"CA","Zip":"94538"},{"Location":"FREMONT MARRIOTT (0064422)","Address":"46100 Landing Pkwy","City":"Fremont","State":"CA","Zip":"94538"},{"Location":"FREMONT MINI STORAGE","Address":"45252 Industrial Dr","City":"Fremont","State":"CA","Zip":"94538"},{"Location":"FREMONT MOTORCARS","Address":"5601 Cushing Pkwy","City":"Fremont","State":"CA","Zip":"94538"},{"Location":"FREMONT SURGERY CENTER","Address":"39350 Civic Center Dr 280","City":"Fremont","State":"CA","Zip":"94538"},{"Location":"FREMONT TOYOTA","Address":"5851 Cushing Pkwy","City":"Fremont","State":"CA","Zip":"94538"},{"Location":"FULL SOURCE","Address":"48900 Milmont Dr","City":"Fremont","State":"CA","Zip":"94538"},{"Location":"GATEWAY PACKAGING","Address":"45541 Northport Loop W","City":"Fremont","State":"CA","Zip":"94538"},{"Location":"GELATO CLASSICO ITALIAN","Address":"39191 Farwell Dr","City":"Fremont","State":"CA","Zip":"94538"},{"Location":"GOLDMILL","Address":"40777 Grimmer Blvd","City":"Fremont","State":"CA","Zip":"94538"},{"Location":"GYRO EXPRESS","Address":"39407 Fremont Blvd","City":"Fremont","State":"CA","Zip":"94538"},{"Location":"HANLEES FREMONT HYUNDAI","Address":"43690 Auto Mall Cir","City":"Fremont","State":"CA","Zip":"94538"},{"Location":"HOLIDAY INN EXPRESS","Address":"42200 Albrae St","City":"Fremont","State":"CA","Zip":"94538"},{"Location":"HOME DEPOT","Address":"40745 Encyclopedia Cir","City":"Fremont","State":"CA","Zip":"94538"},{"Location":"HUBS FIVE & TEN","Address":"39300 Argonaut Way","City":"Fremont","State":"CA","Zip":"94538"},{"Location":"ICHIBOX","Address":"43725 Boscell Rd","City":"Fremont","State":"CA","Zip":"94538"},{"Location":"IKANOS COMMUNICATIONS","Address":"47669 Fremont Blvd","City":"Fremont","State":"CA","Zip":"94538"},{"Location":"INTEMATIX","Address":"46410 Fremont Blvd","City":"Fremont","State":"CA","Zip":"94538"},{"Location":"INTEMATIX I","Address":"46430 Fremont Blvd","City":"Fremont","State":"CA","Zip":"94538"},{"Location":"ISE LABS INC","Address":"46800 Bayside Pkwy","City":"Fremont","State":"CA","Zip":"94538"},{"Location":"JACK'S BREWING COMPANY","Address":"39176 Argonaut Way","City":"Fremont","State":"CA","Zip":"94538"},{"Location":"JORGE PRIETO","Address":"48834 Kato Rd 109a","City":"Fremont","State":"CA","Zip":"94538"},{"Location":"KINDERS","Address":"43761 Boscell Rd","City":"Fremont","State":"CA","Zip":"94538"},{"Location":"KOHL'S #759","Address":"43782 Christy St","City":"Fremont","State":"CA","Zip":"94538"},{"Location":"KORE PRINT SOLUTIONS","Address":"44875 Industrial Dr D","City":"Fremont","State":"CA","Zip":"94538"},{"Location":"LA FITNESS 06145","Address":"39153 Farwell Dr","City":"Fremont","State":"CA","Zip":"94538"},{"Location":"LA PINATA 5","Address":"39136 Paseo Padre Pkwy","City":"Fremont","State":"CA","Zip":"94538"},{"Location":"LAHAN WAY HOMES","Address":"39648 Lahana Way","City":"Fremont","State":"CA","Zip":"94538"},{"Location":"LAM RESEARCH","Address":"4300 Cushing Pkwy","City":"Fremont","State":"CA","Zip":"94538"},{"Location":"LAM RESEARCH","Address":"4650 Cushing Pkwy","City":"Fremont","State":"CA","Zip":"94538"},{"Location":"LAM RESEARCH 1","Address":"4653 Cushing Parkway","City":"Fremont","State":"CA","Zip":"94538"},{"Location":"LAM RESEARCH 2","Address":"4300 Cushing Pkwy","City":"Fremont","State":"CA","Zip":"94538"},{"Location":"LAM RESEARCH CORPORATION","Address":"4650 Cushing Pkwy","City":"Fremont","State":"CA","Zip":"94538"},{"Location":"LAMB RESEARCH3","Address":"4050 Starboard Dr","City":"Fremont","State":"CA","Zip":"94538"},{"Location":"LFTM  INC","Address":"49047 Milmont Dr","City":"Fremont","State":"CA","Zip":"94538"},{"Location":"LIGHTHOUSE WORLDWIDE SOLUTIONS","Address":"47300 Kato Rd","City":"Fremont","State":"CA","Zip":"94538"},{"Location":"LITTLE MADFISH","Address":"43337 Christy St","City":"Fremont","State":"CA","Zip":"94538"},{"Location":"LOS CABOS","Address":"3286 Walnut Ave","City":"Fremont","State":"CA","Zip":"94538"},{"Location":"LYNN DENTAL","Address":"4075 Mowry Ave","City":"Fremont","State":"CA","Zip":"94538"},{"Location":"MASSIMO  INC","Address":"5200 Mowry Ave N","City":"Fremont","State":"CA","Zip":"94538"},{"Location":"MASSIMO'S RESTAURANT","Address":"5200 Mowry Ave M","City":"Fremont","State":"CA","Zip":"94538"},{"Location":"MEDLAND DEVELOPMENT LLC","Address":"39180 Farwell Dr 100","City":"Fremont","State":"CA","Zip":"94538"},{"Location":"MEN'S WEARHOUSE #2098","Address":"6100 Stevenson Blvd B","City":"Fremont","State":"CA","Zip":"94538"},{"Location":"MEN'S WEARHOUSE #2098 C","Address":"40650 Encylopedia Circle","City":"Fremont","State":"CA","Zip":"94538"},{"Location":"MEN'S WEARHOUSE #2098B","Address":"6100 Stevenson Blvd B","City":"Fremont","State":"CA","Zip":"94538"},{"Location":"MEN'S WEARHOUSE #2153","Address":"43805 Pacific Commons Blv","City":"Fremont","State":"CA","Zip":"94538"},{"Location":"MENTOR GRAPHICS BLDG C","Address":"46871 Bayside Pkwy C","City":"Fremont","State":"CA","Zip":"94538"},{"Location":"MENTOR GRAPHICS CORP B","Address":"46871 Bayside Pkwy B","City":"Fremont","State":"CA","Zip":"94538"},{"Location":"MIGA KOREAN RESTAURANT","Address":"39033 State St","City":"Fremont","State":"CA","Zip":"94538"},{"Location":"MIKI BISTRO","Address":"39156 Paseo Padre Pkwy","City":"Fremont","State":"CA","Zip":"94538"},{"Location":"MISSION PEAK FITNESS","Address":"3755 Washington Blvd","City":"Fremont","State":"CA","Zip":"94538"},{"Location":"MRL GROUP INC","Address":"39111 Paseo Padre Pkwy 101","City":"Fremont","State":"CA","Zip":"94538"},{"Location":"NATIONAL AIR BALANCE CO INC","Address":"4175 Business Center Dr","City":"Fremont","State":"CA","Zip":"94538"},{"Location":"NEW STAGE HAIR SALON","Address":"5255 Mowry Ave D","City":"Fremont","State":"CA","Zip":"94538"},{"Location":"NEW YONG KANG SEAFOOD","Address":"40900 Fremont Blvd","City":"Fremont","State":"CA","Zip":"94538"},{"Location":"OFFICES DEPOT","Address":"6700 Auto Mall Pkwy","City":"Fremont","State":"CA","Zip":"94538"},{"Location":"OHLONE CIGAR LOUNGE","Address":"3370 Mowry Ave","City":"Fremont","State":"CA","Zip":"94538"},{"Location":"OPTOMA TECHNOLOGY INC","Address":"3178 Laurelview Ct","City":"Fremont","State":"CA","Zip":"94538"},{"Location":"OUTBACK STEAKHOUSE #0518","Address":"5525 Stevenson Blvd","City":"Fremont","State":"CA","Zip":"94538"},{"Location":"PACIFIC COAST TERMITE","Address":"40487 Encyclopedia Cir","City":"Fremont","State":"CA","Zip":"94538"},{"Location":"PACIFIC GAS AND ELECTRIC","Address":"42105 Boyce Rd","City":"Fremont","State":"CA","Zip":"94538"},{"Location":"PACIFIC NATIONAL BANK","Address":"38980 Taseo Padre Parkway","City":"Fremont","State":"CA","Zip":"94538"},{"Location":"PER MANUFACTURING INC 2","Address":"46440 Fremont Blvd","City":"Fremont","State":"CA","Zip":"94538"},{"Location":"PF CHANG'S #9812","Address":"43316 Christy St","City":"Fremont","State":"CA","Zip":"94538"},{"Location":"PG AND E","Address":"41600 Boscell Rd","City":"Fremont","State":"CA","Zip":"94538"},{"Location":"PHO SAIGON PASTURE","Address":"43460 Grimmer Blvd","City":"Fremont","State":"CA","Zip":"94538"},{"Location":"PIZZA CALIFORNIA","Address":"43514 Christy St","City":"Fremont","State":"CA","Zip":"94538"},{"Location":"PIZZA HUT #029282","Address":"40986 Fremont Blvd","City":"Fremont","State":"CA","Zip":"94538"},{"Location":"PLANET FITNESS","Address":"39161 Farwell Dr","City":"Fremont","State":"CA","Zip":"94538"},{"Location":"POSH BAGELS","Address":"39124 Fremont Hub 201","City":"Fremont","State":"CA","Zip":"94538"},{"Location":"PRECISION SURGICENTER","Address":"39180 Farwell Dr","City":"Fremont","State":"CA","Zip":"94538"},{"Location":"PROCERA NETWORKS","Address":"47448 Fremont Blvd","City":"Fremont","State":"CA","Zip":"94538"},{"Location":"PROLOGIS","Address":"3353 Gateway Blvd","City":"Fremont","State":"CA","Zip":"94538"},{"Location":"QUANTA COMPUTER","Address":"45630 Northport Loop E","City":"Fremont","State":"CA","Zip":"94538"},{"Location":"RED LOBSTER #0403","Address":"39401 Fremont Blvd","City":"Fremont","State":"CA","Zip":"94538"},{"Location":"ROCKIN JUMP FREMONT LLC","Address":"39177 Farwell Dr","City":"Fremont","State":"CA","Zip":"94538"},{"Location":"SALSA PICANTE 2","Address":"3933 Washington Blvd","City":"Fremont","State":"CA","Zip":"94538"},{"Location":"SCOTTRADE C04","Address":"39280 Paseo Padre Pkwy","City":"Fremont","State":"CA","Zip":"94538"},{"Location":"SEAGATE RECORDING MEDIA","Address":"47050 Kato Rd","City":"Fremont","State":"CA","Zip":"94538"},{"Location":"SEAGATE RECORDING MEDIA OPER","Address":"47010 Kato Rd","City":"Fremont","State":"CA","Zip":"94538"},{"Location":"SERVICE KING","Address":"4311 Solar Way","City":"Fremont","State":"CA","Zip":"94538"},{"Location":"SHOE STRING SPORTS BAR","Address":"42312 Fremont Blvd","City":"Fremont","State":"CA","Zip":"94538"},{"Location":"SMOKING PIG BBQ","Address":"3340 Mowry Ave","City":"Fremont","State":"CA","Zip":"94538"},{"Location":"SPORT CLIPS CA807","Address":"43321 Christy St","City":"Fremont","State":"CA","Zip":"94538"},{"Location":"STANLEY'S #2","Address":"44388 Old Warm Springs Blvd","City":"Fremont","State":"CA","Zip":"94538"},{"Location":"STEVENSON SURGERY CENTER","Address":"2675 Stevenson Blvd","City":"Fremont","State":"CA","Zip":"94538"},{"Location":"STRIZZIS RESTAURANT","Address":"2740 Mowry Ave","City":"Fremont","State":"CA","Zip":"94538"},{"Location":"SUPER CUE","Address":"43743 Boscell Rd","City":"Fremont","State":"CA","Zip":"94538"},{"Location":"SURE FIRE PROTECTION","Address":"4141 Pestana Pl","City":"Fremont","State":"CA","Zip":"94538"},{"Location":"SWAGELOK NORTH CALIFORNIA","Address":"3393 W Warren Ave","City":"Fremont","State":"CA","Zip":"94538"},{"Location":"SYSCO FOOD SERVICE","Address":"5900 Stewart Ave","City":"Fremont","State":"CA","Zip":"94538"},{"Location":"TACO BRAVO","Address":"43472 Grimmer Blvd","City":"Fremont","State":"CA","Zip":"94538"},{"Location":"TAQUERIA LAS VEGAS","Address":"45401 Fremont Blvd","City":"Fremont","State":"CA","Zip":"94538"},{"Location":"TAQUERIA ZAPATA","Address":"39459 Fremont Blvd","City":"Fremont","State":"CA","Zip":"94538"},{"Location":"TARGET","Address":"39201 Fremont Blvd","City":"Fremont","State":"CA","Zip":"94538"},{"Location":"TATA TEAHOUSE","Address":"39230 Argonaut Way","City":"Fremont","State":"CA","Zip":"94538"},{"Location":"TEO CHOW NOODLE SHACK","Address":"4165 Cushing Pkwy","City":"Fremont","State":"CA","Zip":"94538"},{"Location":"THE DENTAL PEOPLE","Address":"3197 Stevenson Blvd","City":"Fremont","State":"CA","Zip":"94538"},{"Location":"THE HUDDLE","Address":"5152 Mowry Ave","City":"Fremont","State":"CA","Zip":"94538"},{"Location":"TR MANUFACTURING INC","Address":"45757 Northport Loop W","City":"Fremont","State":"CA","Zip":"94538"},{"Location":"UHAUL","Address":"44511 S Grimmer Blvd C","City":"Fremont","State":"CA","Zip":"94538"},{"Location":"VICTORIA BEAUTY SALON","Address":"41047 Fremont Blvd","City":"Fremont","State":"CA","Zip":"94538"},{"Location":"WALTERS AND WOLF SHOP A","Address":"41450 Boscell Rd","City":"Fremont","State":"CA","Zip":"94538"},{"Location":"WALTERS AND WOLF SHOP B","Address":"41450 Boscell Rd","City":"Fremont","State":"CA","Zip":"94538"},{"Location":"WASHINGTON HOSPITAL","Address":"2000 Mowry Ave","City":"Fremont","State":"CA","Zip":"94538"},{"Location":"WESTCLIFF GROUP LLC","Address":"42840 Christy St","City":"Fremont","State":"CA","Zip":"94538"},{"Location":"WHOLE FOODS MARKET","Address":"3111 Mowry Ave","City":"Fremont","State":"CA","Zip":"94538"},{"Location":"WICKED ARTISTRY","Address":"40931 Grimmer Blvd","City":"Fremont","State":"CA","Zip":"94538"},{"Location":"WINGSTOP","Address":"43448 Boscell Rd","City":"Fremont","State":"CA","Zip":"94538"},{"Location":"WORLD GOURMET","Address":"6010 Stevenson Blvd","City":"Fremont","State":"CA","Zip":"94538"},{"Location":"XYRATEX","Address":"46831 Lakeview Blvd","City":"Fremont","State":"CA","Zip":"94538"},{"Location":"YVONNE NAILS & SPA CORPO","Address":"5205 Mowry Ave","City":"Fremont","State":"CA","Zip":"94538"}]