[{"Location":"BACK DOOR LOUNGE","Address":"37422 Fremont Blvd B","City":"Fremont","State":"CA","Zip":"94536"},{"Location":"DINO FAMILY RESTAURANT","Address":"36930 Fremont Blvd","City":"Fremont","State":"CA","Zip":"94536"},{"Location":"EL CAMINO REAL","Address":"37667 Niles Blvd","City":"Fremont","State":"CA","Zip":"94536"},{"Location":"EL PATIO ORIGINAL","Address":"37311 Fremont Blvd","City":"Fremont","State":"CA","Zip":"94536"},{"Location":"FB ENTERPRISES","Address":"37349 Niles Blvd","City":"Fremont","State":"CA","Zip":"94536"},{"Location":"FEDERAL AVIATION ADMIN%2CBOA%2CSOC","Address":"5125 Central Ave","City":"Fremont","State":"CA","Zip":"94536"},{"Location":"FREMONT BANK -NILES CONF","Address":"37611 Niles Blvd","City":"Fremont","State":"CA","Zip":"94536"},{"Location":"FREMONT PT","Address":"4299 Peralta Blvd Stea","City":"Fremont","State":"CA","Zip":"94536"},{"Location":"GANGNAM TOFU HOUSE","Address":"3619 Thornton Ave","City":"Fremont","State":"CA","Zip":"94536"},{"Location":"GENES BS","Address":"4673 Thornton Ave","City":"Fremont","State":"CA","Zip":"94536"},{"Location":"HEINEMANN","Address":"38991 Farwell Dr","City":"Fremont","State":"CA","Zip":"94536"},{"Location":"HILLSIDE SENIOR CARE","Address":"38650 Mission Blvd","City":"Fremont","State":"CA","Zip":"94536"},{"Location":"HOME FUNDERS FINANCIAL","Address":"37217 Fremont Blvd E","City":"Fremont","State":"CA","Zip":"94536"},{"Location":"LA SEN RESTAURANT","Address":"181 Freemont","City":"Fremont","State":"CA","Zip":"94536"},{"Location":"LES SCHWAB TIRE CENTER","Address":"36761 Fremont Blvd","City":"Fremont","State":"CA","Zip":"94536"},{"Location":"NATCA OAKLAND CENTER","Address":"5125 Central Ave","City":"Fremont","State":"CA","Zip":"94536"},{"Location":"PARK CENTRAL CARE & REHAB CTR","Address":"2100 Parkside Dr","City":"Fremont","State":"CA","Zip":"94536"},{"Location":"RICKS GARAGE","Address":"3710 Bonde Way 1","City":"Fremont","State":"CA","Zip":"94536"},{"Location":"S AND M VAPOR INC","Address":"3679 Thornton Ave","City":"Fremont","State":"CA","Zip":"94536"},{"Location":"SATOMI SUSHI","Address":"3655 Thornton Ave","City":"Fremont","State":"CA","Zip":"94536"},{"Location":"SOUTH BAY SOLUTIONS","Address":"37399 Centralmont Pl","City":"Fremont","State":"CA","Zip":"94536"},{"Location":"THE MOJO LOUNGE","Address":"3714 Peralta Blvd","City":"Fremont","State":"CA","Zip":"94536"},{"Location":"THORNTON DENTAL LLC","Address":"4364 Thornton Ave","City":"Fremont","State":"CA","Zip":"94536"}]