[{"Location":"BARNEY MC BEARS","Address":"10458 San Pablo Ave","City":"El Cerrito","State":"CA","Zip":"94530"},{"Location":"BLUE MOON SALOON","Address":"9937 San Pablo Ave","City":"El Cerrito","State":"CA","Zip":"94530"},{"Location":"DAVITA #3849 EL CERRITO","Address":"10690 San Pablo Ave","City":"El Cerrito","State":"CA","Zip":"94530"},{"Location":"DOHAN HAIR BRAIDING","Address":"10821 San Pablo Ave","City":"El Cerrito","State":"CA","Zip":"94530"},{"Location":"FIRESTONE #762405","Address":"10733 San Pablo Ave","City":"El Cerrito","State":"CA","Zip":"94530"},{"Location":"FRAT ORDR OF EAGLES 2323","Address":"3223 Carlson Blvd","City":"El Cerrito","State":"CA","Zip":"94530"},{"Location":"MACARONI GRILL #1347","Address":"8000 El Cerrito Plz","City":"El Cerrito","State":"CA","Zip":"94530"},{"Location":"MEL O DEE CLUB","Address":"240 El Cerrito Plz","City":"El Cerrito","State":"CA","Zip":"94530"},{"Location":"MIRA VISTA  GOLF & CC","Address":"7901 Cutting Blvd","City":"El Cerrito","State":"CA","Zip":"94530"},{"Location":"PIZZA ROMA","Address":"10616 San Pablo Ave","City":"El Cerrito","State":"CA","Zip":"94530"},{"Location":"PIZZA ROMA1","Address":"10616 San Pablo Ave","City":"El Cerrito","State":"CA","Zip":"94530"},{"Location":"PLAZA COIN LAUNDRY","Address":"295 El Cerrito Plz","City":"El Cerrito","State":"CA","Zip":"94530"},{"Location":"SHIELDS NURSING EL CERRI","Address":"3230 Carlson Blvd","City":"El Cerrito","State":"CA","Zip":"94530"},{"Location":"THE RED ONION","Address":"11900 San Pablo Ave","City":"El Cerrito","State":"CA","Zip":"94530"},{"Location":"VILLAGE & TOWN CENTER","Address":"10810 San Pablo Ave","City":"El Cerrito","State":"CA","Zip":"94530"},{"Location":"WULNG","Address":"10561 San Pablo Ave","City":"El Cerrito","State":"CA","Zip":"94530"}]