[{"Location":"APPLEBEE'S ANTIOCH #2111014","Address":"2737 Hillcrest Ave","City":"Antioch","State":"CA","Zip":"94531"},{"Location":"CHILI'S #0960","Address":"5809 Lone Tree Way","City":"Antioch","State":"CA","Zip":"94531"},{"Location":"COLOR NAILS AND SPA","Address":"5819 Lone Tree Way","City":"Antioch","State":"CA","Zip":"94531"},{"Location":"DADS CAFE","Address":"3421 Deer Valley Rd","City":"Antioch","State":"CA","Zip":"94531"},{"Location":"GIVANS TAE KWON DO","Address":"4851 Lone Tree Way A","City":"Antioch","State":"CA","Zip":"94531"},{"Location":"GOR INVESTMENTS","Address":"5132 Canada Hills Dr","City":"Antioch","State":"CA","Zip":"94531"},{"Location":"GREAT CLIPS","Address":"5887 Lone Tree Way K","City":"Antioch","State":"CA","Zip":"94531"},{"Location":"House Of Catfish N Ribs","Address":"1710 A Street","City":"Antioch","State":"CA","Zip":"94531"},{"Location":"IN SHAPE SPORTS CLUB","Address":"4099 Lone Tree Way","City":"Antioch","State":"CA","Zip":"94531"},{"Location":"INTERNATIONAL BARBERSHOP","Address":"4629 Golf Course Rd","City":"Antioch","State":"CA","Zip":"94531"},{"Location":"KABUKI JAPANESE RESTAURA","Address":"2719 Hillcrest Ave","City":"Antioch","State":"CA","Zip":"94531"},{"Location":"KANPAI SUSHI","Address":"5865 Lone Tree Way D","City":"Antioch","State":"CA","Zip":"94531"},{"Location":"LONE TREE GOLF COURSE","Address":"4800 Golf Course Rd","City":"Antioch","State":"CA","Zip":"94531"},{"Location":"MEI MEI","Address":"3436 Deer Valley Rd","City":"Antioch","State":"CA","Zip":"94531"},{"Location":"MEN'S WEARHOUSE #2192","Address":"5789 Lone Tree Way","City":"Antioch","State":"CA","Zip":"94531"},{"Location":"NOTHIN BUT CUTZ","Address":"4839 Lone Tree Way A","City":"Antioch","State":"CA","Zip":"94531"},{"Location":"SPORTS AUTHORITY 660","Address":"5839 Lone Tree Way","City":"Antioch","State":"CA","Zip":"94531"},{"Location":"TAILGATERS CORP.","Address":"4605 Golf Course Rd","City":"Antioch","State":"CA","Zip":"94531"},{"Location":"WATER WHEEL","Address":"4454 Lone Tree Way","City":"Antioch","State":"CA","Zip":"94531"}]