[{"Location":"ANHEUSER-BUSCH BREWERY","Address":"3101 Busch Dr","City":"Fairfield","State":"CA","Zip":"94534"},{"Location":"ANYTIME FITNESS","Address":"5089 Business Center Dr 108","City":"Fairfield","State":"CA","Zip":"94534"},{"Location":"BEIJING RESTAURANT","Address":"3073 Travis Blvd","City":"Fairfield","State":"CA","Zip":"94534"},{"Location":"CHP TRUCK INSPECTION STATION","Address":"3895 Interstate 80","City":"Fairfield","State":"CA","Zip":"94534"},{"Location":"COLLIERS INTERNATIONAL","Address":"360 Campus Ln Suite","City":"Fairfield","State":"CA","Zip":"94534"},{"Location":"CORDELIA FIRE PROTECTION","Address":"2155 Cordelia Rd","City":"Fairfield","State":"CA","Zip":"94534"},{"Location":"DAVITA #872 FAIRFIELD","Address":"4650 Central Way","City":"Fairfield","State":"CA","Zip":"94534"},{"Location":"DEPT OF VETERANS AFFAIRS RCS","Address":"420 Executive Ct N A","City":"Fairfield","State":"CA","Zip":"94534"},{"Location":"FAIRFIELD FURNITURE SOULTIONS","Address":"4865 Auto Plaza Ct","City":"Fairfield","State":"CA","Zip":"94534"},{"Location":"FMC 71010000","Address":"490 Chadbourne Rd D","City":"Fairfield","State":"CA","Zip":"94534"},{"Location":"GREEN VALLEY COUNTRY CLUB","Address":"35 Country Club Dr","City":"Fairfield","State":"CA","Zip":"94534"},{"Location":"IN-SHAPE HEALTH CLUBS","Address":"1471 Holiday Ln","City":"Fairfield","State":"CA","Zip":"94534"},{"Location":"KIEWIT CONSTRUCTION","Address":"4650 Business Center Dr","City":"Fairfield","State":"CA","Zip":"94534"},{"Location":"LEGENDS","Address":"3250 Rancho Solano Pkwy","City":"Fairfield","State":"CA","Zip":"94534"},{"Location":"MANKAS STEAKHOUSE","Address":"2522 Mankas Corner Rd","City":"Fairfield","State":"CA","Zip":"94534"},{"Location":"MARRIOT","Address":"1350 Holiday Ln","City":"Fairfield","State":"CA","Zip":"94534"},{"Location":"MARY'S PIZZA SHACK","Address":"1500 Oliver Rd","City":"Fairfield","State":"CA","Zip":"94534"},{"Location":"MI SAZON MEXICAN GRILL","Address":"4455 Central Way D","City":"Fairfield","State":"CA","Zip":"94534"},{"Location":"MSK SOLUTION","Address":"4113 Fall Creek Ct","City":"Fairfield","State":"CA","Zip":"94534"},{"Location":"PARTNERSHIP HEALTHPLAN OF CA","Address":"4665 Business Center Dr","City":"Fairfield","State":"CA","Zip":"94534"},{"Location":"ROUND TABLE PIZZA #761","Address":"2401 Waterman Blvd","City":"Fairfield","State":"CA","Zip":"94534"},{"Location":"ROUND TABLE PIZZA #894","Address":"5085 Business Center Dr","City":"Fairfield","State":"CA","Zip":"94534"},{"Location":"S AND S DELI","Address":"4437 Central Pl","City":"Fairfield","State":"CA","Zip":"94534"},{"Location":"SAFELITE AUTO GLASS","Address":"4670 Central Way A","City":"Fairfield","State":"CA","Zip":"94534"},{"Location":"SOLANO DERMATOLOGY ASSOCIATES","Address":"480 Chadbourne Rd","City":"Fairfield","State":"CA","Zip":"94534"},{"Location":"SUSHI KING","Address":"5089 Business Center Dr 106","City":"Fairfield","State":"CA","Zip":"94534"},{"Location":"TOGOS","Address":"1380 Holiday Ln B","City":"Fairfield","State":"CA","Zip":"94534"},{"Location":"VEZER FAMILY VINYARD","Address":"2526 Mankas Corner Rd Brlr","City":"Fairfield","State":"CA","Zip":"94534"},{"Location":"WEST  COM","Address":"2200 Cordelia Rd","City":"Fairfield","State":"CA","Zip":"94534"},{"Location":"WEST COAST DISTRIBUTING","Address":"469 Lopes Rd Steh","City":"Fairfield","State":"CA","Zip":"94534"},{"Location":"WI    BAMBOO","Address":"4437 Central Pl","City":"Fairfield","State":"CA","Zip":"94534"},{"Location":"YOUR BODY WORKS","Address":"424 Executive Ct N C","City":"Fairfield","State":"CA","Zip":"94534"},{"Location":"YU SMILE DENTAL","Address":"4455 Central Way A","City":"Fairfield","State":"CA","Zip":"94534"},{"Location":"CALFORINA HIGHWAY PATROL","Address":"30 50 Travis Blvd","City":"Fairifield","State":"CA","Zip":"94534"},{"Location":"SCOTT LAMP CO INC","Address":"355 Watt Dr","City":"Suisun City","State":"CA","Zip":"94534"}]