[{"Location":"AMPHENOL","Address":"1055 Mission Ct","City":"Fremont","State":"CA","Zip":"94539"},{"Location":"BADLAND CUSTOMS","Address":"41646 Osgood Rd","City":"Fremont","State":"CA","Zip":"94539"},{"Location":"BAYSIDE INTERIORS INC","Address":"3220 Darby Cmn","City":"Fremont","State":"CA","Zip":"94539"},{"Location":"BIJAN RESTAURANT","Address":"39935 Mission Blvd","City":"Fremont","State":"CA","Zip":"94539"},{"Location":"CAC HOLDINGS INC","Address":"46703 Mission Blvd","City":"Fremont","State":"CA","Zip":"94539"},{"Location":"CHEF CHAI TAI","Address":"47894 Warm Springs Blvd","City":"Fremont","State":"CA","Zip":"94539"},{"Location":"COMPASS COMPONENTS","Address":"48133 Warm Springs Blvd","City":"Fremont","State":"CA","Zip":"94539"},{"Location":"CONNECTV","Address":"460 Mission Ct","City":"Fremont","State":"CA","Zip":"94539"},{"Location":"DALE W. SOBEK","Address":"43801 Osgood Rd","City":"Fremont","State":"CA","Zip":"94539"},{"Location":"DENTISTY AT LOS OLIVOS","Address":"43480 Mission Blvd","City":"Fremont","State":"CA","Zip":"94539"},{"Location":"DOMINICAN SISTERS OF MISSION","Address":"43326 Mission Blvd","City":"Fremont","State":"CA","Zip":"94539"},{"Location":"EXXACT CORP","Address":"45445 Warm Springs Blvd","City":"Fremont","State":"CA","Zip":"94539"},{"Location":"FREMONT PARK GOLF CLUB","Address":"39751 Stevenson Pl","City":"Fremont","State":"CA","Zip":"94539"},{"Location":"GIRAFFE LEARNING CENTER","Address":"1916 Driscoll Rd","City":"Fremont","State":"CA","Zip":"94539"},{"Location":"HIGH STREET AUTOMOTIVE","Address":"43269 Osgood Rd","City":"Fremont","State":"CA","Zip":"94539"},{"Location":"J H TECHNOLOGIES","Address":"225 Hammond Ave","City":"Fremont","State":"CA","Zip":"94539"},{"Location":"LITTLE DIPPER","Address":"46573 Mission Blvd","City":"Fremont","State":"CA","Zip":"94539"},{"Location":"MILE STONE","Address":"3101 Skyway Ct","City":"Fremont","State":"CA","Zip":"94539"},{"Location":"MILESTONE TECHNOLOGY INC","Address":"3077 Skyway Ct","City":"Fremont","State":"CA","Zip":"94539"},{"Location":"MISSION HILLS ATHLETIC C","Address":"10 E Las Palmas Ave","City":"Fremont","State":"CA","Zip":"94539"},{"Location":"MOMS TOFU HOUSE","Address":"46851 Warm Springs Blvd","City":"Fremont","State":"CA","Zip":"94539"},{"Location":"NETFLIX","Address":"48119 Warm Springs Blvd","City":"Fremont","State":"CA","Zip":"94539"},{"Location":"OHLONE PET GROOMING","Address":"1590 Washington Blvd","City":"Fremont","State":"CA","Zip":"94539"},{"Location":"PLEXUS CORPORATION","Address":"431 Kato Ter","City":"Fremont","State":"CA","Zip":"94539"},{"Location":"R.B. CONSTRUCTION INC.","Address":"893 Boggs Ave","City":"Fremont","State":"CA","Zip":"94539"},{"Location":"RAH SAMI PIZZA LLC","Address":"46600 Mission Blvd","City":"Fremont","State":"CA","Zip":"94539"},{"Location":"RESTAURANT AND BAR MEZCAL","Address":"1530 Washington Blvd","City":"Fremont","State":"CA","Zip":"94539"},{"Location":"S AND M MOVING SYSTEMS","Address":"48551 Warm Springs Blvd","City":"Fremont","State":"CA","Zip":"94539"},{"Location":"SCHUTZE ASSOCIATES INC","Address":"1449 Camero Way","City":"Fremont","State":"CA","Zip":"94539"},{"Location":"SISTERS OF THE HOLY FAMILY","Address":"159 Washington Blvd","City":"Fremont","State":"CA","Zip":"94539"},{"Location":"SYSERCO","Address":"215 Fourier Ave","City":"Fremont","State":"CA","Zip":"94539"},{"Location":"THREE GUYS PIES","Address":"46260 Warm Springs Blvd 529","City":"Fremont","State":"CA","Zip":"94539"},{"Location":"UNA MAS","Address":"46663 Mission Blvd","City":"Fremont","State":"CA","Zip":"94539"},{"Location":"UNIGEN","Address":"45388 Warm Springs Blvd","City":"Fremont","State":"CA","Zip":"94539"},{"Location":"WEST COAST QUARTZ","Address":"1000 Corporate Way","City":"Fremont","State":"CA","Zip":"94539"},{"Location":"WEST COAST QUARTZ","Address":"850 Corporate Way","City":"Fremont","State":"CA","Zip":"94539"},{"Location":"ZORBAS MEDITERRANEAN","Address":"46505 Mission Blvd","City":"Fremont","State":"CA","Zip":"94539"}]