[{"Location":"24 HOUR FITNESS #803","Address":"1519 Gateway Blvd","City":"Fairfield","State":"CA","Zip":"94533"},{"Location":"A X A ROSENBERG INV MGT","Address":"1111 Western St C","City":"Fairfield","State":"CA","Zip":"94533"},{"Location":"AA RV AND VEHICLE STORAGEE","Address":"2920 Industrial Ct","City":"Fairfield","State":"CA","Zip":"94533"},{"Location":"ADCO TOWING","Address":"2875 Industrial Dr","City":"Fairfield","State":"CA","Zip":"94533"},{"Location":"ADVANCED SMOG CENTER","Address":"1881 Walters Ct F","City":"Fairfield","State":"CA","Zip":"94533"},{"Location":"AHI'S SEAFOOD AND CHOP HOUSE","Address":"2200 Gateway Blvd","City":"Fairfield","State":"CA","Zip":"94533"},{"Location":"ALADDIN BB DEPT 768","Address":"325 Texas St","City":"Fairfield","State":"CA","Zip":"94533"},{"Location":"ANDYS PAWN SHOP","Address":"2385 N Texas St","City":"Fairfield","State":"CA","Zip":"94533"},{"Location":"ANYTIME FITNESS","Address":"1955 W Texas St 180","City":"Fairfield","State":"CA","Zip":"94533"},{"Location":"APPLEBEE'S #2140028","Address":"1350 Travis Blvd Z-5","City":"Fairfield","State":"CA","Zip":"94533"},{"Location":"ARJI INC","Address":"2390 N Texas St","City":"Fairfield","State":"CA","Zip":"94533"},{"Location":"BANDWAGON LOUNGE","Address":"586 Parker Rd","City":"Fairfield","State":"CA","Zip":"94533"},{"Location":"BETHELL COMMUNITY CHURCH","Address":"600 E Tabor Ave","City":"Fairfield","State":"CA","Zip":"94533"},{"Location":"BIG ITALIAN PIZZERIA","Address":"704 Texas St","City":"Fairfield","State":"CA","Zip":"94533"},{"Location":"BIG ITALIAN PIZZERIA INC","Address":"712 Texas St","City":"Fairfield","State":"CA","Zip":"94533"},{"Location":"BIG LEAGUE HAIRCUTS","Address":"3342 N Texas St A","City":"Fairfield","State":"CA","Zip":"94533"},{"Location":"BLOOD CENTERS OF THE PACIFIC","Address":"1325 C1 Gateway Blvd","City":"Fairfield","State":"CA","Zip":"94533"},{"Location":"BUFFALO WILD WINGS #3506","Address":"1350 Travis Blvd 1510a","City":"Fairfield","State":"CA","Zip":"94533"},{"Location":"BUTLER AMUSEMENTS","Address":"1006 Travis Blvd","City":"Fairfield","State":"CA","Zip":"94533"},{"Location":"C S BARBER SHOP","Address":"2240 N Texas St","City":"Fairfield","State":"CA","Zip":"94533"},{"Location":"CARINO'S #1603","Address":"1640 Gateway Blvd","City":"Fairfield","State":"CA","Zip":"94533"},{"Location":"CARMAX FAIRFIELD","Address":"2955 Auto Mall Pkwy","City":"Fairfield","State":"CA","Zip":"94533"},{"Location":"CHEVY'S 2015","Address":"1730 Travis Blvd","City":"Fairfield","State":"CA","Zip":"94533"},{"Location":"CITY OF FAIRFIELD","Address":"420 Gregory Ln","City":"Fairfield","State":"CA","Zip":"94533"},{"Location":"CITY OF FAIRFIELD","Address":"2000 Cadenasso Dr","City":"Fairfield","State":"CA","Zip":"94533"},{"Location":"CITY OF FAIRFIELD FD","Address":"1200 Kentucky St","City":"Fairfield","State":"CA","Zip":"94533"},{"Location":"CO OP HAIRCUTS","Address":"516 Parker Rd","City":"Fairfield","State":"CA","Zip":"94533"},{"Location":"CORDELIA CLUB","Address":"1 Thomasson Ln","City":"Fairfield","State":"CA","Zip":"94533"},{"Location":"DAVITA #5438 FAIRFIELD DWNTWN","Address":"1800 N Texas St","City":"Fairfield","State":"CA","Zip":"94533"},{"Location":"DING'S COCKTAIL LOUNGE","Address":"1712 W Texas St","City":"Fairfield","State":"CA","Zip":"94533"},{"Location":"DOWN AT JOES GARAGE INC","Address":"1101 Horizon Dr 107","City":"Fairfield","State":"CA","Zip":"94533"},{"Location":"DRIVEN RACEWAY","Address":"1560 Gateway Bvld","City":"Fairfield","State":"CA","Zip":"94533"},{"Location":"DURACITE","Address":"2100 Huntington Dr","City":"Fairfield","State":"CA","Zip":"94533"},{"Location":"ELITE CUTS","Address":"658 Parker Rd","City":"Fairfield","State":"CA","Zip":"94533"},{"Location":"FAIRFIELD MOOSE FAMILY CTR#861","Address":"623 Taylor St","City":"Fairfield","State":"CA","Zip":"94533"},{"Location":"FAIRFIELD POLICE ACTIVITIES","Address":"2195 Union Ave","City":"Fairfield","State":"CA","Zip":"94533"},{"Location":"FAIRFIELD TOYOTA","Address":"2575 Auto Mall Pkwy","City":"Fairfield","State":"CA","Zip":"94533"},{"Location":"FANZZ SPACE1495A","Address":"135 E Travis Blvd","City":"Fairfield","State":"CA","Zip":"94533"},{"Location":"FIRESTONE #240723","Address":"2211 N Texas St","City":"Fairfield","State":"CA","Zip":"94533"},{"Location":"GM TOWING","Address":"528 Parker Rd","City":"Fairfield","State":"CA","Zip":"94533"},{"Location":"GREEN FIELD CARE","Address":"1260 Travis Blvd","City":"Fairfield","State":"CA","Zip":"94533"},{"Location":"HARRY'S SPORTSMANS LOUNGE","Address":"833 Texas St","City":"Fairfield","State":"CA","Zip":"94533"},{"Location":"HUSEBY INC FAIRFIELD","Address":"700 Webster St","City":"Fairfield","State":"CA","Zip":"94533"},{"Location":"KOREANA RESTAURANT","Address":"574 Parker Rd","City":"Fairfield","State":"CA","Zip":"94533"},{"Location":"LEGENDS & HEROES FAIRFIELD","Address":"3990 Paradise Valley Rd","City":"Fairfield","State":"CA","Zip":"94533"},{"Location":"LIME LIGHT","Address":"558 Parker Rd","City":"Fairfield","State":"CA","Zip":"94533"},{"Location":"LYNN HAIR DESIGN","Address":"1972 N Texas St J","City":"Fairfield","State":"CA","Zip":"94533"},{"Location":"MACY'S WEST 326","Address":"1544 Travis Blvd","City":"Fairfield","State":"CA","Zip":"94533"},{"Location":"MACY'S WEST 326 BR","Address":"1544 Travis Blvd","City":"Fairfield","State":"CA","Zip":"94533"},{"Location":"MAGIC NAIL TWO","Address":"1350 Travis Blvd 1381a","City":"Fairfield","State":"CA","Zip":"94533"},{"Location":"MEMPHIS SOUTHERN KITCHEN","Address":"1350 Travis Blvd 1516b","City":"Fairfield","State":"CA","Zip":"94533"},{"Location":"MEN'S WEARHOUSE #2178","Address":"1350 Travis Blvd W11","City":"Fairfield","State":"CA","Zip":"94533"},{"Location":"MERCEDES BENZ  FAIRFIELD","Address":"2950 Auto Mall Pkwy","City":"Fairfield","State":"CA","Zip":"94533"},{"Location":"MEYER CORPORATION","Address":"2001 Meyer Way","City":"Fairfield","State":"CA","Zip":"94533"},{"Location":"MIKO'S JAPANESE CUSINE","Address":"900 Texas St","City":"Fairfield","State":"CA","Zip":"94533"},{"Location":"MISSION SOLANO RESCUE MISS","Address":"310 Beck Ave","City":"Fairfield","State":"CA","Zip":"94533"},{"Location":"MOMENTUM MAZADA","Address":"2595 Auto Mall Pkwy","City":"Fairfield","State":"CA","Zip":"94533"},{"Location":"MT CALVARY BAPTIST CHURCH","Address":"1735 Enterprise Dr 3","City":"Fairfield","State":"CA","Zip":"94533"},{"Location":"OHKURA JAPANESE REST.","Address":"594 Parker Rd","City":"Fairfield","State":"CA","Zip":"94533"},{"Location":"PACIFIC DENTAL #286","Address":"3332 N Texas St 5c","City":"Fairfield","State":"CA","Zip":"94533"},{"Location":"PACIFIC GAS & ELECTRIC CO","Address":"425 Beck Ave","City":"Fairfield","State":"CA","Zip":"94533"},{"Location":"PATHWAY CARE HOME","Address":"1132 Gulf Dr","City":"Fairfield","State":"CA","Zip":"94533"},{"Location":"PETER PAN GLASS","Address":"1638 N Texas St","City":"Fairfield","State":"CA","Zip":"94533"},{"Location":"PRESTIGE TIRE AND MOTORWORKS","Address":"307 Travis Blvd","City":"Fairfield","State":"CA","Zip":"94533"},{"Location":"PROFES HOSPITAL SUPPLY","Address":"2100 Courage Dr","City":"Fairfield","State":"CA","Zip":"94533"},{"Location":"RED LOBSTER #0727","Address":"1525 Travis Blvd","City":"Fairfield","State":"CA","Zip":"94533"},{"Location":"RED ROBIN #354","Address":"1350 Travis Blvd","City":"Fairfield","State":"CA","Zip":"94533"},{"Location":"REXAM BEVARAGE CANS","Address":"2433 Crocker Cir","City":"Fairfield","State":"CA","Zip":"94533"},{"Location":"ROTO ROOTER","Address":"1708 Enterprise Dr","City":"Fairfield","State":"CA","Zip":"94533"},{"Location":"ROUND TABLE PIZZA #565","Address":"3336 N Texas St M","City":"Fairfield","State":"CA","Zip":"94533"},{"Location":"SCOTTRADE T04","Address":"3344 N Texas St B","City":"Fairfield","State":"CA","Zip":"94533"},{"Location":"SEARS AUTO CENTER","Address":"1495 Gateway Blvd","City":"Fairfield","State":"CA","Zip":"94533"},{"Location":"SOLANO COUNTY EMERGENCY SERVIC","Address":"530 Clay St 100","City":"Fairfield","State":"CA","Zip":"94533"},{"Location":"SOLANO COUNTY REPUBLICAN PARTY","Address":"625 Jackson St","City":"Fairfield","State":"CA","Zip":"94533"},{"Location":"SOLANO MALL LP","Address":"1350 Travis Blvd","City":"Fairfield","State":"CA","Zip":"94533"},{"Location":"SPORT CLIPS CA841","Address":"1570 Gateway Blvd B","City":"Fairfield","State":"CA","Zip":"94533"},{"Location":"SPORTS AUTHORITY 690","Address":"1451 Gateway Blvd","City":"Fairfield","State":"CA","Zip":"94533"},{"Location":"SRG PEPPERS","Address":"666 Parker Rd","City":"Fairfield","State":"CA","Zip":"94533"},{"Location":"STRAW HAT PIZZA","Address":"1295 Horizon Dr A","City":"Fairfield","State":"CA","Zip":"94533"},{"Location":"TALK N WIN","Address":"2449 N Texas St","City":"Fairfield","State":"CA","Zip":"94533"},{"Location":"TARGET","Address":"2059 Cadenasso Dr","City":"Fairfield","State":"CA","Zip":"94533"},{"Location":"THE EDGE","Address":"1101 Horizon Dr 112","City":"Fairfield","State":"CA","Zip":"94533"},{"Location":"THE RAIDERS IMAGE #935","Address":"1350 Travis Blvd 1385a","City":"Fairfield","State":"CA","Zip":"94533"},{"Location":"TOMSON CABINETRY","Address":"1401 W Texas St B","City":"Fairfield","State":"CA","Zip":"94533"},{"Location":"TOP NAIL","Address":"1731 N Texas St B2","City":"Fairfield","State":"CA","Zip":"94533"},{"Location":"TRI CITY DENTAL","Address":"634 Webster St A","City":"Fairfield","State":"CA","Zip":"94533"},{"Location":"TRI CITY ELKS LODGE","Address":"566 Parker Rd","City":"Fairfield","State":"CA","Zip":"94533"},{"Location":"VERIZON WIRELESS","Address":"2545 N Watney Way","City":"Fairfield","State":"CA","Zip":"94533"},{"Location":"W H S ENTERPRISES INC","Address":"1721 N Texas St","City":"Fairfield","State":"CA","Zip":"94533"},{"Location":"WESTERN INDUSTRIAL XRAY INC","Address":"1707 Enterprise Dr I","City":"Fairfield","State":"CA","Zip":"94533"},{"Location":"YOUNGS INC","Address":"1451 W Texas St","City":"Fairfield","State":"CA","Zip":"94533"},{"Location":"24 HOUR FITNESS #803","Address":"1519 Gateway Blvd","City":"Fairfield","State":"CA","Zip":"94533"},{"Location":"A X A ROSENBERG INV MGT","Address":"1111 Western St C","City":"Fairfield","State":"CA","Zip":"94533"},{"Location":"AA RV AND VEHICLE STORAGEE","Address":"2920 Industrial Ct","City":"Fairfield","State":"CA","Zip":"94533"},{"Location":"ADCO TOWING","Address":"2875 Industrial Dr","City":"Fairfield","State":"CA","Zip":"94533"},{"Location":"ADVANCED SMOG CENTER","Address":"1881 Walters Ct F","City":"Fairfield","State":"CA","Zip":"94533"},{"Location":"AHI'S SEAFOOD AND CHOP HOUSE","Address":"2200 Gateway Blvd","City":"Fairfield","State":"CA","Zip":"94533"},{"Location":"ALADDIN BB DEPT 768","Address":"325 Texas St","City":"Fairfield","State":"CA","Zip":"94533"},{"Location":"ANDYS PAWN SHOP","Address":"2385 N Texas St","City":"Fairfield","State":"CA","Zip":"94533"},{"Location":"ANYTIME FITNESS","Address":"1955 W Texas St 180","City":"Fairfield","State":"CA","Zip":"94533"},{"Location":"APPLEBEE'S #2140028","Address":"1350 Travis Blvd Z-5","City":"Fairfield","State":"CA","Zip":"94533"},{"Location":"ARJI INC","Address":"2390 N Texas St","City":"Fairfield","State":"CA","Zip":"94533"},{"Location":"BANDWAGON LOUNGE","Address":"586 Parker Rd","City":"Fairfield","State":"CA","Zip":"94533"},{"Location":"BETHELL COMMUNITY CHURCH","Address":"600 E Tabor Ave","City":"Fairfield","State":"CA","Zip":"94533"},{"Location":"BIG ITALIAN PIZZERIA","Address":"704 Texas St","City":"Fairfield","State":"CA","Zip":"94533"},{"Location":"BIG ITALIAN PIZZERIA INC","Address":"712 Texas St","City":"Fairfield","State":"CA","Zip":"94533"},{"Location":"BIG LEAGUE HAIRCUTS","Address":"3342 N Texas St A","City":"Fairfield","State":"CA","Zip":"94533"},{"Location":"BLOOD CENTERS OF THE PACIFIC","Address":"1325 C1 Gateway Blvd","City":"Fairfield","State":"CA","Zip":"94533"},{"Location":"BUFFALO WILD WINGS #3506","Address":"1350 Travis Blvd 1510a","City":"Fairfield","State":"CA","Zip":"94533"},{"Location":"BUTLER AMUSEMENTS","Address":"1006 Travis Blvd","City":"Fairfield","State":"CA","Zip":"94533"},{"Location":"C S BARBER SHOP","Address":"2240 N Texas St","City":"Fairfield","State":"CA","Zip":"94533"},{"Location":"CARINO'S #1603","Address":"1640 Gateway Blvd","City":"Fairfield","State":"CA","Zip":"94533"},{"Location":"CARMAX FAIRFIELD","Address":"2955 Auto Mall Pkwy","City":"Fairfield","State":"CA","Zip":"94533"},{"Location":"CHEVY'S 2015","Address":"1730 Travis Blvd","City":"Fairfield","State":"CA","Zip":"94533"},{"Location":"CITY OF FAIRFIELD","Address":"2000 Cadenasso Dr","City":"Fairfield","State":"CA","Zip":"94533"},{"Location":"CITY OF FAIRFIELD","Address":"420 Gregory Ln","City":"Fairfield","State":"CA","Zip":"94533"},{"Location":"CITY OF FAIRFIELD FD","Address":"1200 Kentucky St","City":"Fairfield","State":"CA","Zip":"94533"},{"Location":"CO OP HAIRCUTS","Address":"516 Parker Rd","City":"Fairfield","State":"CA","Zip":"94533"},{"Location":"CORDELIA CLUB","Address":"1 Thomasson Ln","City":"Fairfield","State":"CA","Zip":"94533"},{"Location":"DAVITA #5438 FAIRFIELD DWNTWN","Address":"1800 N Texas St","City":"Fairfield","State":"CA","Zip":"94533"},{"Location":"DING'S COCKTAIL LOUNGE","Address":"1712 W Texas St","City":"Fairfield","State":"CA","Zip":"94533"},{"Location":"DOWN AT JOES GARAGE INC","Address":"1101 Horizon Dr 107","City":"Fairfield","State":"CA","Zip":"94533"},{"Location":"DRIVEN RACEWAY","Address":"1560 Gateway Bvld","City":"Fairfield","State":"CA","Zip":"94533"},{"Location":"DURACITE","Address":"2100 Huntington Dr","City":"Fairfield","State":"CA","Zip":"94533"},{"Location":"ELITE CUTS","Address":"658 Parker Rd","City":"Fairfield","State":"CA","Zip":"94533"},{"Location":"FAIRFIELD MOOSE FAMILY CTR#861","Address":"623 Taylor St","City":"Fairfield","State":"CA","Zip":"94533"},{"Location":"FAIRFIELD POLICE ACTIVITIES","Address":"2195 Union Ave","City":"Fairfield","State":"CA","Zip":"94533"},{"Location":"FAIRFIELD TOYOTA","Address":"2575 Auto Mall Pkwy","City":"Fairfield","State":"CA","Zip":"94533"},{"Location":"FANZZ SPACE1495A","Address":"135 E Travis Blvd","City":"Fairfield","State":"CA","Zip":"94533"},{"Location":"FIRESTONE #240723","Address":"2211 N Texas St","City":"Fairfield","State":"CA","Zip":"94533"},{"Location":"GM TOWING","Address":"528 Parker Rd","City":"Fairfield","State":"CA","Zip":"94533"},{"Location":"GREEN FIELD CARE","Address":"1260 Travis Blvd","City":"Fairfield","State":"CA","Zip":"94533"},{"Location":"HARRY'S SPORTSMANS LOUNGE","Address":"833 Texas St","City":"Fairfield","State":"CA","Zip":"94533"},{"Location":"HUSEBY INC FAIRFIELD","Address":"700 Webster St","City":"Fairfield","State":"CA","Zip":"94533"},{"Location":"KOREANA RESTAURANT","Address":"574 Parker Rd","City":"Fairfield","State":"CA","Zip":"94533"},{"Location":"LEGENDS & HEROES FAIRFIELD","Address":"3990 Paradise Valley Rd","City":"Fairfield","State":"CA","Zip":"94533"},{"Location":"LIME LIGHT","Address":"558 Parker Rd","City":"Fairfield","State":"CA","Zip":"94533"},{"Location":"LYNN HAIR DESIGN","Address":"1972 N Texas St J","City":"Fairfield","State":"CA","Zip":"94533"},{"Location":"MACY'S WEST 326","Address":"1544 Travis Blvd","City":"Fairfield","State":"CA","Zip":"94533"},{"Location":"MACY'S WEST 326 BR","Address":"1544 Travis Blvd","City":"Fairfield","State":"CA","Zip":"94533"},{"Location":"MAGIC NAIL TWO","Address":"1350 Travis Blvd 1381a","City":"Fairfield","State":"CA","Zip":"94533"},{"Location":"MEMPHIS SOUTHERN KITCHEN","Address":"1350 Travis Blvd 1516b","City":"Fairfield","State":"CA","Zip":"94533"},{"Location":"MEN'S WEARHOUSE #2178","Address":"1350 Travis Blvd W11","City":"Fairfield","State":"CA","Zip":"94533"},{"Location":"MERCEDES BENZ  FAIRFIELD","Address":"2950 Auto Mall Pkwy","City":"Fairfield","State":"CA","Zip":"94533"},{"Location":"MEYER CORPORATION","Address":"2001 Meyer Way","City":"Fairfield","State":"CA","Zip":"94533"},{"Location":"MIKO'S JAPANESE CUSINE","Address":"900 Texas St","City":"Fairfield","State":"CA","Zip":"94533"},{"Location":"MISSION SOLANO RESCUE MISS","Address":"310 Beck Ave","City":"Fairfield","State":"CA","Zip":"94533"},{"Location":"MOMENTUM MAZADA","Address":"2595 Auto Mall Pkwy","City":"Fairfield","State":"CA","Zip":"94533"},{"Location":"MT CALVARY BAPTIST CHURCH","Address":"1735 Enterprise Dr 3","City":"Fairfield","State":"CA","Zip":"94533"},{"Location":"OHKURA JAPANESE REST.","Address":"594 Parker Rd","City":"Fairfield","State":"CA","Zip":"94533"},{"Location":"PACIFIC DENTAL #286","Address":"3332 N Texas St 5c","City":"Fairfield","State":"CA","Zip":"94533"},{"Location":"PACIFIC GAS & ELECTRIC CO","Address":"425 Beck Ave","City":"Fairfield","State":"CA","Zip":"94533"},{"Location":"PATHWAY CARE HOME","Address":"1132 Gulf Dr","City":"Fairfield","State":"CA","Zip":"94533"},{"Location":"PETER PAN GLASS","Address":"1638 N Texas St","City":"Fairfield","State":"CA","Zip":"94533"},{"Location":"PRESTIGE TIRE AND MOTORWORKS","Address":"307 Travis Blvd","City":"Fairfield","State":"CA","Zip":"94533"},{"Location":"PROFES HOSPITAL SUPPLY","Address":"2100 Courage Dr","City":"Fairfield","State":"CA","Zip":"94533"},{"Location":"RED LOBSTER #0727","Address":"1525 Travis Blvd","City":"Fairfield","State":"CA","Zip":"94533"},{"Location":"RED ROBIN #354","Address":"1350 Travis Blvd","City":"Fairfield","State":"CA","Zip":"94533"},{"Location":"REXAM BEVARAGE CANS","Address":"2433 Crocker Cir","City":"Fairfield","State":"CA","Zip":"94533"},{"Location":"ROTO ROOTER","Address":"1708 Enterprise Dr","City":"Fairfield","State":"CA","Zip":"94533"},{"Location":"ROUND TABLE PIZZA #565","Address":"3336 N Texas St M","City":"Fairfield","State":"CA","Zip":"94533"},{"Location":"SCOTTRADE T04","Address":"3344 N Texas St B","City":"Fairfield","State":"CA","Zip":"94533"},{"Location":"SEARS AUTO CENTER","Address":"1495 Gateway Blvd","City":"Fairfield","State":"CA","Zip":"94533"},{"Location":"SOLANO COUNTY EMERGENCY SERVIC","Address":"530 Clay St 100","City":"Fairfield","State":"CA","Zip":"94533"},{"Location":"SOLANO COUNTY REPUBLICAN PARTY","Address":"625 Jackson St","City":"Fairfield","State":"CA","Zip":"94533"},{"Location":"SOLANO MALL LP","Address":"1350 Travis Blvd","City":"Fairfield","State":"CA","Zip":"94533"},{"Location":"SPORT CLIPS CA841","Address":"1570 Gateway Blvd B","City":"Fairfield","State":"CA","Zip":"94533"},{"Location":"SPORTS AUTHORITY 690","Address":"1451 Gateway Blvd","City":"Fairfield","State":"CA","Zip":"94533"},{"Location":"SRG PEPPERS","Address":"666 Parker Rd","City":"Fairfield","State":"CA","Zip":"94533"},{"Location":"STRAW HAT PIZZA","Address":"1295 Horizon Dr A","City":"Fairfield","State":"CA","Zip":"94533"},{"Location":"TALK N WIN","Address":"2449 N Texas St","City":"Fairfield","State":"CA","Zip":"94533"},{"Location":"TARGET","Address":"2059 Cadenasso Dr","City":"Fairfield","State":"CA","Zip":"94533"},{"Location":"THE EDGE","Address":"1101 Horizon Dr 112","City":"Fairfield","State":"CA","Zip":"94533"},{"Location":"THE RAIDERS IMAGE #935","Address":"1350 Travis Blvd 1385a","City":"Fairfield","State":"CA","Zip":"94533"},{"Location":"TOMSON CABINETRY","Address":"1401 W Texas St B","City":"Fairfield","State":"CA","Zip":"94533"},{"Location":"TOP NAIL","Address":"1731 N Texas St B2","City":"Fairfield","State":"CA","Zip":"94533"},{"Location":"TRI CITY DENTAL","Address":"634 Webster St A","City":"Fairfield","State":"CA","Zip":"94533"},{"Location":"TRI CITY ELKS LODGE","Address":"566 Parker Rd","City":"Fairfield","State":"CA","Zip":"94533"},{"Location":"VERIZON WIRELESS","Address":"2545 N Watney Way","City":"Fairfield","State":"CA","Zip":"94533"},{"Location":"W H S ENTERPRISES INC","Address":"1721 N Texas St","City":"Fairfield","State":"CA","Zip":"94533"},{"Location":"WESTERN INDUSTRIAL XRAY INC","Address":"1707 Enterprise Dr I","City":"Fairfield","State":"CA","Zip":"94533"},{"Location":"YOUNGS INC","Address":"1451 W Texas St","City":"Fairfield","State":"CA","Zip":"94533"}]