[{"Location":"MINI MALL SUBWAY","Address":"650 Skymaster Cir","City":"Fairfield","State":"CA","Zip":"94535"},{"Location":"349TH AMW%2FRS","Address":"520 Waldron St","City":"Travis Afb","State":"CA","Zip":"94535"},{"Location":"349TH AMW%2FWO","Address":"511 Waldron St","City":"Travis Afb","State":"CA","Zip":"94535"},{"Location":"349THAMW%2FCCA","Address":"520 Waldron St","City":"Travis Afb","State":"CA","Zip":"94535"},{"Location":"60 CES READINESS (USAF)","Address":"411 Airmen Dr 570","City":"Travis Afb","State":"CA","Zip":"94535"},{"Location":"79 AIR REFUELING SQ","Address":"555 Hickam Ave 185","City":"Travis Afb","State":"CA","Zip":"94535"},{"Location":"AAFES TRAVIS MAIN STORE","Address":"461 Skymaster Cir 648","City":"Travis Afb","State":"CA","Zip":"94535"},{"Location":"AFB%2F 60 AMW%2FCP","Address":"501 Hangar Ave 31","City":"Travis Afb","State":"CA","Zip":"94535"},{"Location":"AFOSI","Address":"721 Vandenberg Dr 373","City":"Travis Afb","State":"CA","Zip":"94535"},{"Location":"AFOSI DET 303","Address":"721 Vandenberg Dr","City":"Travis Afb","State":"CA","Zip":"94535"},{"Location":"BURGER KING","Address":"420 Skymaster Cir 685","City":"Travis Afb","State":"CA","Zip":"94535"},{"Location":"DMEA%2FMSC","Address":"Bldg 1201 Baker St","City":"Travis Afb","State":"CA","Zip":"94535"},{"Location":"DTRA","Address":"510 Hickam Ave","City":"Travis Afb","State":"CA","Zip":"94535"},{"Location":"FOOD COURT","Address":"648 Bldg 648 Skymaster Dr","City":"Travis Afb","State":"CA","Zip":"94535"},{"Location":"POPEYES #10553","Address":"172 Broadway St 172","City":"Travis Afb","State":"CA","Zip":"94535"},{"Location":"THE DELTA BREEZE CLUB","Address":"400 Windward Dr","City":"Travis Afb","State":"CA","Zip":"94535"},{"Location":"TRAVIS AFB FITNESS CENTER","Address":"550 Travis Ave 434","City":"Travis Afb","State":"CA","Zip":"94535"},{"Location":"TRAVIS AIR FORCE BASE","Address":"600 Burgan Blvd 1301","City":"Travis Afb","State":"CA","Zip":"94535"},{"Location":"TRAVIS BOWLING CENTER","Address":"571 Travis Ave 214","City":"Travis Afb","State":"CA","Zip":"94535"},{"Location":"USO","Address":"694 A St","City":"Travis Afb","State":"CA","Zip":"94535"},{"Location":"VQ-3 DETACHMENT","Address":"740 Inner Perimeter Rd 1175","City":"Travis Afb","State":"CA","Zip":"94535"},{"Location":"AIR FORCE","Address":"120 Dickson Ave 906","City":"Travis Air Force Base","State":"CA","Zip":"94535"}]