[{"Location":"ALAMEDA COUNTY LIBRARY","Address":"3600 Norbridge Ave","City":"Castro Valley","State":"CA","Zip":"94546"},{"Location":"ALAMEDA FIRE DEPARTMENT 26","Address":"18770 Lake Chabot Rd","City":"Castro Valley","State":"CA","Zip":"94546"},{"Location":"BRIANS HAIR COMPANY","Address":"19129 Redwood Rd","City":"Castro Valley","State":"CA","Zip":"94546"},{"Location":"CAPSTONE ORTHOPEDIC","Address":"3553 Castro Valley Blvd","City":"Castro Valley","State":"CA","Zip":"94546"},{"Location":"CASTRO VALLEY TIRE PROS","Address":"2470 Castro Valley Blvd","City":"Castro Valley","State":"CA","Zip":"94546"},{"Location":"CERTIFIED  TIRES AND SERVICES","Address":"3430 Castro Valley Blvd","City":"Castro Valley","State":"CA","Zip":"94546"},{"Location":"DCSI HOLDINGS","Address":"2552 San Carlos Ave B","City":"Castro Valley","State":"CA","Zip":"94546"},{"Location":"DIAMOND NAILS 2","Address":"22158 Redwood Rd","City":"Castro Valley","State":"CA","Zip":"94546"},{"Location":"DOUCETS SALOON","Address":"20710 Rutledge Rd","City":"Castro Valley","State":"CA","Zip":"94546"},{"Location":"EASTBAY  REGIONAL  PARK POLICE","Address":"17930 Lake Chabot Rd","City":"Castro Valley","State":"CA","Zip":"94546"},{"Location":"EL RANCHO STEAKHOUSE","Address":"3240 Castro Valley Blvd","City":"Castro Valley","State":"CA","Zip":"94546"},{"Location":"EL SUPER BURRITO LOCO","Address":"20859 Redwood Rd","City":"Castro Valley","State":"CA","Zip":"94546"},{"Location":"HEAD HUNTERS BARBERSHOP","Address":"2834 Castro Valley Blvd","City":"Castro Valley","State":"CA","Zip":"94546"},{"Location":"HEYWARD CASTRO VALLEY MO","Address":"20835 Rutledge Rd","City":"Castro Valley","State":"CA","Zip":"94546"},{"Location":"KATHU RESTAURANT","Address":"20861 Redwood Rd","City":"Castro Valley","State":"CA","Zip":"94546"},{"Location":"LOS MOLCAJETES","Address":"22154 Redwood Rd","City":"Castro Valley","State":"CA","Zip":"94546"},{"Location":"MIMI NAILS AND SPA","Address":"3060 Castro Valley Blvd","City":"Castro Valley","State":"CA","Zip":"94546"},{"Location":"MUNCHIE ENTERPRISES","Address":"20674 Rustic Dr","City":"Castro Valley","State":"CA","Zip":"94546"},{"Location":"PIZZA HUT #028782","Address":"3571 Castro Valley Blvd","City":"Castro Valley","State":"CA","Zip":"94546"},{"Location":"R AND D STRIKE ZONE BOWLING","Address":"3222 Castro Valley Blvd","City":"Castro Valley","State":"CA","Zip":"94546"},{"Location":"RICKS KITCHEN AND SHOWROOM","Address":"3664 Castro Valley Blvd","City":"Castro Valley","State":"CA","Zip":"94546"},{"Location":"RIGATONI'S CASTRO VALLEY","Address":"20680 Rustic Dr","City":"Castro Valley","State":"CA","Zip":"94546"},{"Location":"ROGER KRAUS RACING","Address":"2896 Grove Way","City":"Castro Valley","State":"CA","Zip":"94546"},{"Location":"ROUND TABLE PIZZA","Address":"20920 Redwood Rd","City":"Castro Valley","State":"CA","Zip":"94546"},{"Location":"SPANKY'S","Address":"20812 Baker Rd","City":"Castro Valley","State":"CA","Zip":"94546"},{"Location":"TELECARE REDWOOD PLACE","Address":"18949 Redwood Rd","City":"Castro Valley","State":"CA","Zip":"94546"},{"Location":"THE DOOLITTLE","Address":"20394 Lake Chabot Rd","City":"Castro Valley","State":"CA","Zip":"94546"},{"Location":"TOUCH STONE GOLF LLC","Address":"17007 Redwood Rd","City":"Castro Valley","State":"CA","Zip":"94546"},{"Location":"VALLEY INN","Address":"2660 Castro Valley Blvd","City":"Castro Valley","State":"CA","Zip":"94546"}]