[{"Location":"CALI BAY DENTAL CARE","Address":"1581 Sycamore Ave 3","City":"Hercules","State":"CA","Zip":"94547"},{"Location":"CLAWS AND CRAWS","Address":"848 Willow Ave","City":"Hercules","State":"CA","Zip":"94547"},{"Location":"EXTREME PIZZA","Address":"3700 San Pablo Ave","City":"Hercules","State":"CA","Zip":"94547"},{"Location":"HERCULES FITNESS","Address":"600 Alfred Nobel Dr","City":"Hercules","State":"CA","Zip":"94547"},{"Location":"KINDERS MEETS DELI BBQ","Address":"3600 San Pablo Ave 1","City":"Hercules","State":"CA","Zip":"94547"},{"Location":"MOUNTAIN MIKES PIZZA","Address":"848 Willow Ave C","City":"Hercules","State":"CA","Zip":"94547"},{"Location":"NOUVEAUX RICHES","Address":"618 Alfred Nobel Dr A","City":"Hercules","State":"CA","Zip":"94547"},{"Location":"ROUND TABLE PIZZA","Address":"1511 Sycamore Ave","City":"Hercules","State":"CA","Zip":"94547"},{"Location":"TAQUERIA MAZATLAN BAR & GRILL","Address":"844 Willow Ave A11","City":"Hercules","State":"CA","Zip":"94547"},{"Location":"THE POWDER KEG","Address":"2132 Railroad Ave","City":"Hercules","State":"CA","Zip":"94547"},{"Location":"TOUCHSTONE GOLF LLC","Address":"Hwy 4","City":"Hercules","State":"CA","Zip":"94547"},{"Location":"CALI BAY DENTAL CARE","Address":"1581 Sycamore Ave 3","City":"Hercules","State":"CA","Zip":"94547"},{"Location":"CLAWS AND CRAWS","Address":"848 Willow Ave","City":"Hercules","State":"CA","Zip":"94547"},{"Location":"EXTREME PIZZA","Address":"3700 San Pablo Ave","City":"Hercules","State":"CA","Zip":"94547"},{"Location":"HERCULES FITNESS","Address":"600 Alfred Nobel Dr","City":"Hercules","State":"CA","Zip":"94547"},{"Location":"KINDERS MEETS DELI BBQ","Address":"3600 San Pablo Ave 1","City":"Hercules","State":"CA","Zip":"94547"},{"Location":"MOUNTAIN MIKES PIZZA","Address":"848 Willow Ave C","City":"Hercules","State":"CA","Zip":"94547"},{"Location":"NOUVEAUX RICHES","Address":"618 Alfred Nobel Dr A","City":"Hercules","State":"CA","Zip":"94547"},{"Location":"ROUND TABLE PIZZA","Address":"1511 Sycamore Ave","City":"Hercules","State":"CA","Zip":"94547"},{"Location":"TAQUERIA MAZATLAN BAR & GRILL","Address":"844 Willow Ave A11","City":"Hercules","State":"CA","Zip":"94547"},{"Location":"THE POWDER KEG","Address":"2132 Railroad Ave","City":"Hercules","State":"CA","Zip":"94547"},{"Location":"TOUCHSTONE GOLF LLC","Address":"Hwy 4","City":"Hercules","State":"CA","Zip":"94547"}]