[{"Location":"UC BERKELEY","Address":"337 Corey Hall","City":"Berkeley","State":"CA","Zip":"94545"},{"Location":"95TH CST","Address":"1525 W Winton Ave 9","City":"Hayward","State":"CA","Zip":"94545"},{"Location":"A 100 US LLC","Address":"26420 Corporate Ave","City":"Hayward","State":"CA","Zip":"94545"},{"Location":"A TALLERICO COMPANY","Address":"2252 American Ave","City":"Hayward","State":"CA","Zip":"94545"},{"Location":"AARONS   BODY SHOP","Address":"27751 Industrial Blvd","City":"Hayward","State":"CA","Zip":"94545"},{"Location":"ACES UP CASINO PARTY","Address":"23785 Cabot Blvd 321","City":"Hayward","State":"CA","Zip":"94545"},{"Location":"ADRIANS UPHOLSTERY","Address":"22962 Clawiter Rd 22","City":"Hayward","State":"CA","Zip":"94545"},{"Location":"ALAMEDA ELECTRICAL DISTR","Address":"3875 Bay Center Pl","City":"Hayward","State":"CA","Zip":"94545"},{"Location":"ALL GUARD SYSTEMS INC","Address":"23194 Kidder St","City":"Hayward","State":"CA","Zip":"94545"},{"Location":"AMERICAN AVE","Address":"1208 W Winton Ave","City":"Hayward","State":"CA","Zip":"94545"},{"Location":"AMERICAN TECHNOLOGIES","Address":"25000 Industrial Blvd","City":"Hayward","State":"CA","Zip":"94545"},{"Location":"ANKA BEHAVIORAL HEALTH","Address":"1947 Elder Way","City":"Hayward","State":"CA","Zip":"94545"},{"Location":"ANTHERA PHARMACEUTICALS","Address":"25801 Industrial Blvd","City":"Hayward","State":"CA","Zip":"94545"},{"Location":"APPLEBEE'S SOUTHLAND #2111012","Address":"24041 Southland Dr","City":"Hayward","State":"CA","Zip":"94545"},{"Location":"APRIA CORAM SAN FRANCISCO","Address":"3160 Corporate Pl","City":"Hayward","State":"CA","Zip":"94545"},{"Location":"ARADIGM CORP","Address":"3929 Point Eden Way","City":"Hayward","State":"CA","Zip":"94545"},{"Location":"ARBORWELL","Address":"2337 American Ave","City":"Hayward","State":"CA","Zip":"94545"},{"Location":"ARCADIAN RESIDENTIAL","Address":"24647 Mohr Dr","City":"Hayward","State":"CA","Zip":"94545"},{"Location":"AUTOMOBILE COLILSION CENTER","Address":"3127 Depot Rd","City":"Hayward","State":"CA","Zip":"94545"},{"Location":"BARKER","Address":"2353 Industrial Pkwy W","City":"Hayward","State":"CA","Zip":"94545"},{"Location":"BAY  WATER PACKAGING","Address":"2384 American Ave","City":"Hayward","State":"CA","Zip":"94545"},{"Location":"BAY CITY AUTO INC","Address":"24609 Industrial Blvd","City":"Hayward","State":"CA","Zip":"94545"},{"Location":"BERKELEY FARM","Address":"25500 Clawiter Rd","City":"Hayward","State":"CA","Zip":"94545"},{"Location":"BIG GEORGES HOLLOW LEG","Address":"24740 Hesperian Blvd","City":"Hayward","State":"CA","Zip":"94545"},{"Location":"BIG JOE CALIFORNIA NORTH INC","Address":"25932 Eden Landing Rd","City":"Hayward","State":"CA","Zip":"94545"},{"Location":"BIMBO BAKERIES USA DC","Address":"3525 Arden Rd 300","City":"Hayward","State":"CA","Zip":"94545"},{"Location":"BUDDYS BITES AND BREW","Address":"24297 Hesperian Blvd","City":"Hayward","State":"CA","Zip":"94545"},{"Location":"C FOOD CONCEPTS INC 316","Address":"24107 Hesperian Blvd","City":"Hayward","State":"CA","Zip":"94545"},{"Location":"CALIFORNIA BEVERAGES SYSTEM","Address":"2502 Technology Dr","City":"Hayward","State":"CA","Zip":"94545"},{"Location":"CITY LEAGUE LLC","Address":"2308 American Ave","City":"Hayward","State":"CA","Zip":"94545"},{"Location":"COLUMBUS FOODS","Address":"3190 Corporate Pl","City":"Hayward","State":"CA","Zip":"94545"},{"Location":"CORNISH AND CAREY","Address":"26252 Eden Landing Rd","City":"Hayward","State":"CA","Zip":"94545"},{"Location":"CRABAHOLIC 2 INC","Address":"24375 Southland Dr","City":"Hayward","State":"CA","Zip":"94545"},{"Location":"DAVES DEJA VU","Address":"2615 Oliver Dr","City":"Hayward","State":"CA","Zip":"94545"},{"Location":"EATON CORPORATION","Address":"20923 Cabot Blvd","City":"Hayward","State":"CA","Zip":"94545"},{"Location":"ELEPHANT BAR HAYWARD","Address":"24177 Southland Dr","City":"Hayward","State":"CA","Zip":"94545"},{"Location":"FAMOUS DAVE #3105","Address":"790 W Winton Ave","City":"Hayward","State":"CA","Zip":"94545"},{"Location":"FANZZ - HAYWARD","Address":"346 Southland Mall","City":"Hayward","State":"CA","Zip":"94545"},{"Location":"FIRESTONE #029815","Address":"715 La Playa Dr","City":"Hayward","State":"CA","Zip":"94545"},{"Location":"FREMONT BANK","Address":"25151 Clawiter Rd","City":"Hayward","State":"CA","Zip":"94545"},{"Location":"FRSTEAM","Address":"3201 Investment Blvd","City":"Hayward","State":"CA","Zip":"94545"},{"Location":"GABU INC","Address":"25202 Hesperian Blvd","City":"Hayward","State":"CA","Zip":"94545"},{"Location":"GILLIG","Address":"25800 Clawiter Rd","City":"Hayward","State":"CA","Zip":"94545"},{"Location":"GLIMMERGLASS","Address":"26142 Eden Landing Rd","City":"Hayward","State":"CA","Zip":"94545"},{"Location":"GLOBAL SUPPLY COMPANY","Address":"20628 Corsair Blvd","City":"Hayward","State":"CA","Zip":"94545"},{"Location":"HAR-BRO","Address":"23067 Bernhardt St","City":"Hayward","State":"CA","Zip":"94545"},{"Location":"HAYWARD HEALTHCARE","Address":"1805 West St","City":"Hayward","State":"CA","Zip":"94545"},{"Location":"HAYWARD POINT EDEN","Address":"3979 Trust Way","City":"Hayward","State":"CA","Zip":"94545"},{"Location":"HEALY MATTOS INC","Address":"23898 Foley St","City":"Hayward","State":"CA","Zip":"94545"},{"Location":"ILLUMINA","Address":"25861 Industrial Blvd","City":"Hayward","State":"CA","Zip":"94545"},{"Location":"INTARCIA THERAPEUTICS INC","Address":"24650 Industrial Blvd","City":"Hayward","State":"CA","Zip":"94545"},{"Location":"J.M.L INC","Address":"3146 Diablo Ave","City":"Hayward","State":"CA","Zip":"94545"},{"Location":"JB AUTO WORKZ","Address":"28232 Industrial Blvd E","City":"Hayward","State":"CA","Zip":"94545"},{"Location":"LA FITNESS #06156","Address":"24500 Hesperian Blvd","City":"Hayward","State":"CA","Zip":"94545"},{"Location":"LA PLAYA MIDAS OF HAYWAR","Address":"1078 La Playa Dr","City":"Hayward","State":"CA","Zip":"94545"},{"Location":"LEA AND BRAZE ENGINERING INC","Address":"2485 Industrial Pkwy W","City":"Hayward","State":"CA","Zip":"94545"},{"Location":"LIFE CHIROPRACTIC COLLEGE WEST","Address":"25001 Industrial Blvd","City":"Hayward","State":"CA","Zip":"94545"},{"Location":"LIFEWEST FITNESS CENTER","Address":"25001a Industrial Blvd","City":"Hayward","State":"CA","Zip":"94545"},{"Location":"LONGDO TRUCKING","Address":"1970 Alpine Way","City":"Hayward","State":"CA","Zip":"94545"},{"Location":"MACY'S LOGISTICS","Address":"28701 Hall Rd","City":"Hayward","State":"CA","Zip":"94545"},{"Location":"MACY'S WEST 337","Address":"800 Southland Mall","City":"Hayward","State":"CA","Zip":"94545"},{"Location":"MALCOLM DRILLING COMPANY","Address":"3503 Breakwater Ct","City":"Hayward","State":"CA","Zip":"94545"},{"Location":"METROPOLITAN INTERIOR","Address":"2314 Tripaldi Way","City":"Hayward","State":"CA","Zip":"94545"},{"Location":"MOSS PRECISION","Address":"3200 Arden Rd","City":"Hayward","State":"CA","Zip":"94545"},{"Location":"NO CROWN NO CROSS BOXING","Address":"3302 Arden Rd","City":"Hayward","State":"CA","Zip":"94545"},{"Location":"NOT YO MOMMAS UPHOLSTERY","Address":"1980 National Ave","City":"Hayward","State":"CA","Zip":"94545"},{"Location":"P&S SALES INC","Address":"20943 Cabot Blvd","City":"Hayward","State":"CA","Zip":"94545"},{"Location":"PACIFIC GAS AND ELECTRIC","Address":"24300 Clawiter Rd A","City":"Hayward","State":"CA","Zip":"94545"},{"Location":"PACIFIC GAS AND ELECTRIC II","Address":"24300 Clawiter Rd B","City":"Hayward","State":"CA","Zip":"94545"},{"Location":"PHO TY 2","Address":"27461 Hesperian Blvd","City":"Hayward","State":"CA","Zip":"94545"},{"Location":"PLANET FITNESS","Address":"214b Southland Mall","City":"Hayward","State":"CA","Zip":"94545"},{"Location":"PRISM TEAM SERVICES INC","Address":"1961 Stearman Ave","City":"Hayward","State":"CA","Zip":"94545"},{"Location":"QUESTCORE PHARMACEUTICALS","Address":"26118 Research Pl","City":"Hayward","State":"CA","Zip":"94545"},{"Location":"RAJA INDIAN CUISINE AND BAR","Address":"1275 W Winton Ave","City":"Hayward","State":"CA","Zip":"94545"},{"Location":"RUSSELL CITY GRILL","Address":"25037 Clawiter Rd","City":"Hayward","State":"CA","Zip":"94545"},{"Location":"SIEMENS INDUSTRY INC","Address":"25821 Industrial Blvd 300","City":"Hayward","State":"CA","Zip":"94545"},{"Location":"SOUND CINEMA INTEGRATION","Address":"3118 Diablo Ave","City":"Hayward","State":"CA","Zip":"94545"},{"Location":"SOUTHLAND MALL","Address":"1 Southland Mall","City":"Hayward","State":"CA","Zip":"94545"},{"Location":"STREIVOR INC","Address":"1742 Sabre St","City":"Hayward","State":"CA","Zip":"94545"},{"Location":"THE RAIDERS IMAGE #911","Address":"216 Southland Mall","City":"Hayward","State":"CA","Zip":"94545"},{"Location":"THUY NGUYEN","Address":"2617 Oliver Dr","City":"Hayward","State":"CA","Zip":"94545"},{"Location":"TOMODACHI SUSHI BISTRO","Address":"24123 Hesperian Blvd","City":"Hayward","State":"CA","Zip":"94545"},{"Location":"TRIMAC TRANSPORTATION SERVICES","Address":"3751 Breakwater Ave","City":"Hayward","State":"CA","Zip":"94545"},{"Location":"TROPICAL FOOD INC","Address":"28456 Century St","City":"Hayward","State":"CA","Zip":"94545"},{"Location":"ULTRA CLEAN TECHNOLOGY","Address":"26462 Corporate Ave","City":"Hayward","State":"CA","Zip":"94545"},{"Location":"WEB SERVICE COMPANY","Address":"1983 Alpine Way","City":"Hayward","State":"CA","Zip":"94545"}]