[{"Location":"BONEHEADS TEXAS BBQ","Address":"3422 Mt Diablo Blvd","City":"Lafayette","State":"CA","Zip":"94549"},{"Location":"CASA BURRITO","Address":"3322 Mt Diablo Blvd #f","City":"Lafayette","State":"CA","Zip":"94549"},{"Location":"CHEVERE CUTS","Address":"3502 Mt Diablo Blvd E","City":"Lafayette","State":"CA","Zip":"94549"},{"Location":"COMYNS SMITH MCCLEARY DEAVER","Address":"3470 Mt Diablo Blvd A110","City":"Lafayette","State":"CA","Zip":"94549"},{"Location":"DIABLO SMOG","Address":"3364 Mt Diablo Blvd","City":"Lafayette","State":"CA","Zip":"94549"},{"Location":"DUDUM FINANCIAL","Address":"3505 Mt Diablo Blvd","City":"Lafayette","State":"CA","Zip":"94549"},{"Location":"EL JARRO MEXICAN CAFE","Address":"3563 Mt Diablo Blvd","City":"Lafayette","State":"CA","Zip":"94549"},{"Location":"GREAT WALL RESTAURANT","Address":"3500 Golden Gate Way","City":"Lafayette","State":"CA","Zip":"94549"},{"Location":"HUNSUCKER GOODSTEIN NELS","Address":"3717 Mt Diablo Blvd 200","City":"Lafayette","State":"CA","Zip":"94549"},{"Location":"LAKESIDE CORPORATION","Address":"3697 Mt Diablo Blvd 205","City":"Lafayette","State":"CA","Zip":"94549"},{"Location":"LAMORINDA NAILS","Address":"3502 Mt Diablo Blvd D","City":"Lafayette","State":"CA","Zip":"94549"},{"Location":"MANGIA","Address":"975 Moraga Rd","City":"Lafayette","State":"CA","Zip":"94549"},{"Location":"METRO LAFAYETTE","Address":"3524 Mt Diablo Blvd","City":"Lafayette","State":"CA","Zip":"94549"},{"Location":"PIZZA ANTICA","Address":"3600 Mt Diablo Blvd","City":"Lafayette","State":"CA","Zip":"94549"},{"Location":"POSTINO","Address":"3565 Mt Diablo Blvd","City":"Lafayette","State":"CA","Zip":"94549"},{"Location":"ROUND TABLE PIZZA","Address":"3637 Mt Diablo Blvd","City":"Lafayette","State":"CA","Zip":"94549"},{"Location":"SCHROEDER CAPITAL MANAGEMENT","Address":"3620 Happy Valley Rd 203","City":"Lafayette","State":"CA","Zip":"94549"},{"Location":"THE CHEESESTEAK SHOP","Address":"3455 Mt Diablo Blvd","City":"Lafayette","State":"CA","Zip":"94549"},{"Location":"THE ROUNDUP SALOON","Address":"3553 Mt Diablo Blvd","City":"Lafayette","State":"CA","Zip":"94549"},{"Location":"Casa Burrito","Address":"3322 Mt Diablo Blvd #f","City":"Lafayette","State":"CA","Zip":"94549"},{"Location":"CHEVERE CUTS","Address":"3502 Mt Diablo Blvd E","City":"Lafayette","State":"CA","Zip":"94549"},{"Location":"COMYNS SMITH MCCLEARY DEAVER","Address":"3470 Mt Diablo Blvd A110","City":"Lafayette","State":"CA","Zip":"94549"},{"Location":"DIABLO SMOG","Address":"3364 Mt Diablo Blvd","City":"Lafayette","State":"CA","Zip":"94549"},{"Location":"DUDUM FINANCIAL","Address":"3505 Mt Diablo Blvd","City":"Lafayette","State":"CA","Zip":"94549"},{"Location":"EL JARRO MEXICAN CAFE","Address":"3563 Mt Diablo Blvd","City":"Lafayette","State":"CA","Zip":"94549"},{"Location":"GREAT WALL RESTAURANT","Address":"3500 Golden Gate Way","City":"Lafayette","State":"CA","Zip":"94549"},{"Location":"HUNSUCKER GOODSTEIN NELS","Address":"3717 Mt Diablo Blvd 200","City":"Lafayette","State":"CA","Zip":"94549"},{"Location":"LAKESIDE CORPORATION","Address":"3697 Mt Diablo Blvd 205","City":"Lafayette","State":"CA","Zip":"94549"},{"Location":"LAMORINDA NAILS","Address":"3502 Mt Diablo Blvd D","City":"Lafayette","State":"CA","Zip":"94549"},{"Location":"MANGIA","Address":"975 Moraga Rd","City":"Lafayette","State":"CA","Zip":"94549"},{"Location":"METRO LAFAYETTE","Address":"3524 Mt Diablo Blvd","City":"Lafayette","State":"CA","Zip":"94549"},{"Location":"PIZZA ANTICA","Address":"3600 Mt Diablo Blvd","City":"Lafayette","State":"CA","Zip":"94549"},{"Location":"POSTINO","Address":"3565 Mt Diablo Blvd","City":"Lafayette","State":"CA","Zip":"94549"},{"Location":"ROUND TABLE PIZZA","Address":"3637 Mt Diablo Blvd","City":"Lafayette","State":"CA","Zip":"94549"},{"Location":"SCHROEDER CAPITAL MANAGEMENT","Address":"3620 Happy Valley Rd 203","City":"Lafayette","State":"CA","Zip":"94549"},{"Location":"THE CHEESESTEAK SHOP","Address":"3455 Mt Diablo Blvd","City":"Lafayette","State":"CA","Zip":"94549"},{"Location":"THE ROUNDUP SALOON","Address":"3553 Mt Diablo Blvd","City":"Lafayette","State":"CA","Zip":"94549"}]