[{"Location":"ACACIA MASONIC TEMPLE","Address":"1074 B St","City":"Hayward","State":"CA","Zip":"94541"},{"Location":"ACAPULCO TAQUERIA%2C INC.","Address":"19950 Hesperian Blvd","City":"Hayward","State":"CA","Zip":"94541"},{"Location":"ACQUA E FARINA","Address":"22622 Main St","City":"Hayward","State":"CA","Zip":"94541"},{"Location":"APP JET CENTER","Address":"19990 Sky West Drive","City":"Hayward","State":"CA","Zip":"94541"},{"Location":"B STREET BAR AND GRILL","Address":"846 B St","City":"Hayward","State":"CA","Zip":"94541"},{"Location":"BAYPOINT CARE CENTER","Address":"442 Sunset Blvd","City":"Hayward","State":"CA","Zip":"94541"},{"Location":"BIJOU BAR AND RESTURANT","Address":"1036 B St","City":"Hayward","State":"CA","Zip":"94541"},{"Location":"BISTRO","Address":"1001 B St","City":"Hayward","State":"CA","Zip":"94541"},{"Location":"BRIGHT AND CLEAN LAUNDRY","Address":"22630 Vermont St","City":"Hayward","State":"CA","Zip":"94541"},{"Location":"BUFFALO BILLS BREWERY","Address":"1082 B St","City":"Hayward","State":"CA","Zip":"94541"},{"Location":"CHEF'S EXPERIENCE","Address":"22436 Foothill Blvd","City":"Hayward","State":"CA","Zip":"94541"},{"Location":"CODEWORKS","Address":"22320 Foothill Blvd 425","City":"Hayward","State":"CA","Zip":"94541"},{"Location":"CURLYS PLEASE","Address":"2059 B St","City":"Hayward","State":"CA","Zip":"94541"},{"Location":"DAILY NEWS","Address":"22533 Foothill Blvd","City":"Hayward","State":"CA","Zip":"94541"},{"Location":"DAVITA #260 HAYWARD","Address":"21615 Hesperian Blvd F","City":"Hayward","State":"CA","Zip":"94541"},{"Location":"DESHEENA MADISON","Address":"22787 Foothill Blvd","City":"Hayward","State":"CA","Zip":"94541"},{"Location":"DESTINY MONET SALON & SP","Address":"22546 2nd St","City":"Hayward","State":"CA","Zip":"94541"},{"Location":"DRIFTWOOD HEALTHCARE CEN","Address":"19700 Hesperian Blvd","City":"Hayward","State":"CA","Zip":"94541"},{"Location":"DYNAMITE FENCE","Address":"22001 Meekland Ave A","City":"Hayward","State":"CA","Zip":"94541"},{"Location":"EAGLES LODGE","Address":"21406 Foothill Blvd","City":"Hayward","State":"CA","Zip":"94541"},{"Location":"EAST BAY MOTOR SPORTS","Address":"21756 Foothill Blvd","City":"Hayward","State":"CA","Zip":"94541"},{"Location":"EASTERN WINDS","Address":"22624 Vermont St","City":"Hayward","State":"CA","Zip":"94541"},{"Location":"EDEN JEWELRY & LOAN CO","Address":"22620 Mission Blvd","City":"Hayward","State":"CA","Zip":"94541"},{"Location":"EL TAQUITO","Address":"22354 Mission Blvd","City":"Hayward","State":"CA","Zip":"94541"},{"Location":"EXECUTIVE SUITES HAIR SALON","Address":"1197 A St 1","City":"Hayward","State":"CA","Zip":"94541"},{"Location":"FERNANDES STEIN LOUNGE","Address":"939 B St","City":"Hayward","State":"CA","Zip":"94541"},{"Location":"GHAZNI KABOBS","Address":"1235 A St","City":"Hayward","State":"CA","Zip":"94541"},{"Location":"GOLDEN GATE RESTAURANT GROUP","Address":"950 W A St","City":"Hayward","State":"CA","Zip":"94541"},{"Location":"H A R D","Address":"1401 Golf Course Rd","City":"Hayward","State":"CA","Zip":"94541"},{"Location":"HA HA RAMEN SUSHI","Address":"22560 Foothill Blvd","City":"Hayward","State":"CA","Zip":"94541"},{"Location":"HAN YANG BBQ","Address":"22365 Mission Blvd","City":"Hayward","State":"CA","Zip":"94541"},{"Location":"HAYWARD","Address":"20302 Sky West Drive","City":"Hayward","State":"CA","Zip":"94541"},{"Location":"HAYWARD CONVALESCENT","Address":"1832 B St","City":"Hayward","State":"CA","Zip":"94541"},{"Location":"HAYWARD EXECUTIVE AIRPOR","Address":"20301 Skywest Dr","City":"Hayward","State":"CA","Zip":"94541"},{"Location":"HAYWARD HILLS HEALTHCARE","Address":"1768 B St","City":"Hayward","State":"CA","Zip":"94541"},{"Location":"HAYWARD RANCH","Address":"22877 Mission Blvd","City":"Hayward","State":"CA","Zip":"94541"},{"Location":"JARAS SHOP","Address":"22300 Mission Blvd","City":"Hayward","State":"CA","Zip":"94541"},{"Location":"KKT INVESTMENT INC.","Address":"1071 B St","City":"Hayward","State":"CA","Zip":"94541"},{"Location":"LANDMARK VILLA","Address":"21000 Mission Blvd","City":"Hayward","State":"CA","Zip":"94541"},{"Location":"LB GROUP","Address":"1275 A St","City":"Hayward","State":"CA","Zip":"94541"},{"Location":"LE PARADIS","Address":"22809 Mission Blvd","City":"Hayward","State":"CA","Zip":"94541"},{"Location":"LOS COMPADRES","Address":"944 C St","City":"Hayward","State":"CA","Zip":"94541"},{"Location":"LOS PLANES DE RENDEROS","Address":"22841 Mission Blvd","City":"Hayward","State":"CA","Zip":"94541"},{"Location":"MANILA GARDEN RESTAURANT","Address":"20500 Hesperian Blvd","City":"Hayward","State":"CA","Zip":"94541"},{"Location":"METRO AUTO PARTS","Address":"411 W A St","City":"Hayward","State":"CA","Zip":"94541"},{"Location":"PHO TI","Address":"21849 Mission Blvd","City":"Hayward","State":"CA","Zip":"94541"},{"Location":"PIZZA HUT","Address":"1199 W A St","City":"Hayward","State":"CA","Zip":"94541"},{"Location":"PLANNED PARENTHOOD HAYWARD","Address":"1032 A St","City":"Hayward","State":"CA","Zip":"94541"},{"Location":"RIBS AND THINGS BBQ","Address":"22616 Vermont St","City":"Hayward","State":"CA","Zip":"94541"},{"Location":"RIGATONI'S HAYWARD","Address":"20501 Hesperian Blvd","City":"Hayward","State":"CA","Zip":"94541"},{"Location":"RWT TRUCKING","Address":"21790 Hesperian Blvd","City":"Hayward","State":"CA","Zip":"94541"},{"Location":"SAPPORO RESTAURANT","Address":"22507 Main St","City":"Hayward","State":"CA","Zip":"94541"},{"Location":"SARK SHACK","Address":"871 B St","City":"Hayward","State":"CA","Zip":"94541"},{"Location":"SERENITY TRANSPORTATION INC","Address":"567 W A St","City":"Hayward","State":"CA","Zip":"94541"},{"Location":"SHARK SHACK","Address":"871 B St","City":"Hayward","State":"CA","Zip":"94541"},{"Location":"SHIRLENE IRON HORSE","Address":"18974 Meekland Ave","City":"Hayward","State":"CA","Zip":"94541"},{"Location":"SHOP SMART INSURANCE INC","Address":"440 A St","City":"Hayward","State":"CA","Zip":"94541"},{"Location":"SHORT CUTZ","Address":"1063 A St","City":"Hayward","State":"CA","Zip":"94541"},{"Location":"SIMMS MOTORCYCLES","Address":"21129 Foothill Blvd","City":"Hayward","State":"CA","Zip":"94541"},{"Location":"TARGET","Address":"19661 Hesperian Blvd","City":"Hayward","State":"CA","Zip":"94541"},{"Location":"THE CITATION BARN","Address":"19995 Skywest Dr C","City":"Hayward","State":"CA","Zip":"94541"},{"Location":"THE PALACE","Address":"22821 Mission Blvd","City":"Hayward","State":"CA","Zip":"94541"},{"Location":"THE TURF CLUB","Address":"22519 Main St","City":"Hayward","State":"CA","Zip":"94541"},{"Location":"TOTAL PACKAGE","Address":"22556 Foothill Blvd","City":"Hayward","State":"CA","Zip":"94541"},{"Location":"TRUDNG X NGUYEN","Address":"933 C St","City":"Hayward","State":"CA","Zip":"94541"},{"Location":"TRUE VALUE BUILDERS","Address":"22500 Foothill Blvd","City":"Hayward","State":"CA","Zip":"94541"},{"Location":"VAPOR ZONE AND NOVELITY","Address":"943 C St","City":"Hayward","State":"CA","Zip":"94541"},{"Location":"VUA PHO","Address":"410 W A St","City":"Hayward","State":"CA","Zip":"94541"},{"Location":"WE ARE HEMP","Address":"913 E Lewelling Blvd","City":"Hayward","State":"CA","Zip":"94541"},{"Location":"WING FIESTA","Address":"790 B St","City":"Hayward","State":"CA","Zip":"94541"},{"Location":"WINGSTOP","Address":"1093 B St","City":"Hayward","State":"CA","Zip":"94541"},{"Location":"ACACIA MASONIC TEMPLE","Address":"1074 B St","City":"Hayward","State":"CA","Zip":"94541"},{"Location":"ACAPULCO TAQUERIA%2C INC.","Address":"19950 Hesperian Blvd","City":"Hayward","State":"CA","Zip":"94541"},{"Location":"ACQUA E FARINA","Address":"22622 Main St","City":"Hayward","State":"CA","Zip":"94541"},{"Location":"APP JET CENTER","Address":"19990 Sky West Drive","City":"Hayward","State":"CA","Zip":"94541"},{"Location":"B STREET BAR AND GRILL","Address":"846 B St","City":"Hayward","State":"CA","Zip":"94541"},{"Location":"BAYPOINT CARE CENTER","Address":"442 Sunset Blvd","City":"Hayward","State":"CA","Zip":"94541"},{"Location":"BIJOU BAR AND RESTURANT","Address":"1036 B St","City":"Hayward","State":"CA","Zip":"94541"},{"Location":"BISTRO","Address":"1001 B St","City":"Hayward","State":"CA","Zip":"94541"},{"Location":"BRIGHT AND CLEAN LAUNDRY","Address":"22630 Vermont St","City":"Hayward","State":"CA","Zip":"94541"},{"Location":"BUFFALO BILLS BREWERY","Address":"1082 B St","City":"Hayward","State":"CA","Zip":"94541"},{"Location":"CHEF'S EXPERIENCE","Address":"22436 Foothill Blvd","City":"Hayward","State":"CA","Zip":"94541"},{"Location":"CODEWORKS","Address":"22320 Foothill Blvd 425","City":"Hayward","State":"CA","Zip":"94541"},{"Location":"CURLYS PLEASE","Address":"2059 B St","City":"Hayward","State":"CA","Zip":"94541"},{"Location":"DAILY NEWS","Address":"22533 Foothill Blvd","City":"Hayward","State":"CA","Zip":"94541"},{"Location":"DAVITA #260 HAYWARD","Address":"21615 Hesperian Blvd F","City":"Hayward","State":"CA","Zip":"94541"},{"Location":"DESHEENA MADISON","Address":"22787 Foothill Blvd","City":"Hayward","State":"CA","Zip":"94541"},{"Location":"DESTINY MONET SALON & SP","Address":"22546 2nd St","City":"Hayward","State":"CA","Zip":"94541"},{"Location":"DRIFTWOOD HEALTHCARE CEN","Address":"19700 Hesperian Blvd","City":"Hayward","State":"CA","Zip":"94541"},{"Location":"DYNAMITE FENCE","Address":"22001 Meekland Ave A","City":"Hayward","State":"CA","Zip":"94541"},{"Location":"EAGLES LODGE","Address":"21406 Foothill Blvd","City":"Hayward","State":"CA","Zip":"94541"},{"Location":"EAST BAY MOTOR SPORTS","Address":"21756 Foothill Blvd","City":"Hayward","State":"CA","Zip":"94541"},{"Location":"EASTERN WINDS","Address":"22624 Vermont St","City":"Hayward","State":"CA","Zip":"94541"},{"Location":"EDEN JEWELRY & LOAN CO","Address":"22620 Mission Blvd","City":"Hayward","State":"CA","Zip":"94541"},{"Location":"EL TAQUITO","Address":"22354 Mission Blvd","City":"Hayward","State":"CA","Zip":"94541"},{"Location":"EXECUTIVE SUITES HAIR SALON","Address":"1197 A St 1","City":"Hayward","State":"CA","Zip":"94541"},{"Location":"FERNANDES STEIN LOUNGE","Address":"939 B St","City":"Hayward","State":"CA","Zip":"94541"},{"Location":"GHAZNI KABOBS","Address":"1235 A St","City":"Hayward","State":"CA","Zip":"94541"},{"Location":"GOLDEN GATE RESTAURANT GROUP","Address":"950 W A St","City":"Hayward","State":"CA","Zip":"94541"},{"Location":"H A R D","Address":"1401 Golf Course Rd","City":"Hayward","State":"CA","Zip":"94541"},{"Location":"HA HA RAMEN SUSHI","Address":"22560 Foothill Blvd","City":"Hayward","State":"CA","Zip":"94541"},{"Location":"HAN YANG BBQ","Address":"22365 Mission Blvd","City":"Hayward","State":"CA","Zip":"94541"},{"Location":"HAYWARD","Address":"20302 Sky West Drive","City":"Hayward","State":"CA","Zip":"94541"},{"Location":"HAYWARD CONVALESCENT","Address":"1832 B St","City":"Hayward","State":"CA","Zip":"94541"},{"Location":"HAYWARD EXECUTIVE AIRPOR","Address":"20301 Skywest Dr","City":"Hayward","State":"CA","Zip":"94541"},{"Location":"HAYWARD HILLS HEALTHCARE","Address":"1768 B St","City":"Hayward","State":"CA","Zip":"94541"},{"Location":"HAYWARD RANCH","Address":"22877 Mission Blvd","City":"Hayward","State":"CA","Zip":"94541"},{"Location":"JARAS SHOP","Address":"22300 Mission Blvd","City":"Hayward","State":"CA","Zip":"94541"},{"Location":"KKT INVESTMENT INC.","Address":"1071 B St","City":"Hayward","State":"CA","Zip":"94541"},{"Location":"LANDMARK VILLA","Address":"21000 Mission Blvd","City":"Hayward","State":"CA","Zip":"94541"},{"Location":"LOS COMPADRES","Address":"944 C St","City":"Hayward","State":"CA","Zip":"94541"},{"Location":"LOS PLANES DE RENDEROS","Address":"22841 Mission Blvd","City":"Hayward","State":"CA","Zip":"94541"},{"Location":"MANILA GARDEN RESTAURANT","Address":"20500 Hesperian Blvd","City":"Hayward","State":"CA","Zip":"94541"},{"Location":"METRO AUTO PARTS","Address":"411 W A St","City":"Hayward","State":"CA","Zip":"94541"},{"Location":"PHO TI","Address":"21849 Mission Blvd","City":"Hayward","State":"CA","Zip":"94541"},{"Location":"PIZZA HUT","Address":"1199 W A St","City":"Hayward","State":"CA","Zip":"94541"},{"Location":"PLANNED PARENTHOOD HAYWARD","Address":"1032 A St","City":"Hayward","State":"CA","Zip":"94541"},{"Location":"RIBS AND THINGS BBQ","Address":"22616 Vermont St","City":"Hayward","State":"CA","Zip":"94541"},{"Location":"RIGATONI'S HAYWARD","Address":"20501 Hesperian Blvd","City":"Hayward","State":"CA","Zip":"94541"},{"Location":"RWT TRUCKING","Address":"21790 Hesperian Blvd","City":"Hayward","State":"CA","Zip":"94541"},{"Location":"SAPPORO RESTAURANT","Address":"22507 Main St","City":"Hayward","State":"CA","Zip":"94541"},{"Location":"SARK SHACK","Address":"871 B St","City":"Hayward","State":"CA","Zip":"94541"},{"Location":"SERENITY TRANSPORTATION INC","Address":"567 W A St","City":"Hayward","State":"CA","Zip":"94541"},{"Location":"SHARK SHACK","Address":"871 B St","City":"Hayward","State":"CA","Zip":"94541"},{"Location":"SHIRLENE IRON HORSE","Address":"18974 Meekland Ave","City":"Hayward","State":"CA","Zip":"94541"},{"Location":"SHOP SMART INSURANCE INC","Address":"440 A St","City":"Hayward","State":"CA","Zip":"94541"},{"Location":"SHORT CUTZ","Address":"1063 A St","City":"Hayward","State":"CA","Zip":"94541"},{"Location":"SIMMS MOTORCYCLES","Address":"21129 Foothill Blvd","City":"Hayward","State":"CA","Zip":"94541"},{"Location":"TARGET","Address":"19661 Hesperian Blvd","City":"Hayward","State":"CA","Zip":"94541"},{"Location":"THE CITATION BARN","Address":"19995 Skywest Dr C","City":"Hayward","State":"CA","Zip":"94541"},{"Location":"THE PALACE","Address":"22821 Mission Blvd","City":"Hayward","State":"CA","Zip":"94541"},{"Location":"THE TURF CLUB","Address":"22519 Main St","City":"Hayward","State":"CA","Zip":"94541"},{"Location":"TOTAL PACKAGE","Address":"22556 Foothill Blvd","City":"Hayward","State":"CA","Zip":"94541"},{"Location":"TRUDNG X NGUYEN","Address":"933 C St","City":"Hayward","State":"CA","Zip":"94541"},{"Location":"TRUE VALUE BUILDERS","Address":"22500 Foothill Blvd","City":"Hayward","State":"CA","Zip":"94541"},{"Location":"VAPOR ZONE AND NOVELITY","Address":"943 C St","City":"Hayward","State":"CA","Zip":"94541"},{"Location":"Vua Pho","Address":"410 W A St","City":"Hayward","State":"CA","Zip":"94541"},{"Location":"WE ARE HEMP","Address":"913 E Lewelling Blvd","City":"Hayward","State":"CA","Zip":"94541"},{"Location":"WING FIESTA","Address":"790 B St","City":"Hayward","State":"CA","Zip":"94541"},{"Location":"WINGSTOP","Address":"1093 B St","City":"Hayward","State":"CA","Zip":"94541"}]