[{"Location":"24 HOUR FITNESS #488","Address":"2480 Whipple Rd","City":"Hayward","State":"CA","Zip":"94544"},{"Location":"24 HOUR FITNESS #536","Address":"24727 Amador St","City":"Hayward","State":"CA","Zip":"94544"},{"Location":"ACCELAERATED AUTO CENTER","Address":"29425 Ruus Rd","City":"Hayward","State":"CA","Zip":"94544"},{"Location":"ACJ WINDOW TINTING","Address":"30997 Huntwood Ave 108","City":"Hayward","State":"CA","Zip":"94544"},{"Location":"AD MAIL EXPRESS INC","Address":"31640 Hayman St","City":"Hayward","State":"CA","Zip":"94544"},{"Location":"ADE MANAGEMENT CORP","Address":"30998 Huntwood Ave 107","City":"Hayward","State":"CA","Zip":"94544"},{"Location":"ALADDIN BB DEPT 782","Address":"225 W Winton Ave 101","City":"Hayward","State":"CA","Zip":"94544"},{"Location":"ARAMARK UNIFORM SERVICES","Address":"31148 San Antonio St","City":"Hayward","State":"CA","Zip":"94544"},{"Location":"ARCHITECTURE LIGHTING","Address":"30984 Santana St","City":"Hayward","State":"CA","Zip":"94544"},{"Location":"BUFFALO DISTRIBUTION","Address":"30796 San Clemente St","City":"Hayward","State":"CA","Zip":"94544"},{"Location":"CALIFORNIA HWY PATROL","Address":"2434 Whipple Rd","City":"Hayward","State":"CA","Zip":"94544"},{"Location":"CATERED AFFAIR UNLIMITED","Address":"30982 Huntwood Ave","City":"Hayward","State":"CA","Zip":"94544"},{"Location":"CELLCRETE","Address":"995 Zephyr Ave","City":"Hayward","State":"CA","Zip":"94544"},{"Location":"CITY BISTRO","Address":"30162 Industrial Pkwy Sw","City":"Hayward","State":"CA","Zip":"94544"},{"Location":"COAST ALUMINUM","Address":"30551 Huntwood Ave","City":"Hayward","State":"CA","Zip":"94544"},{"Location":"COLUMBUS  MANUFACTURING INC","Address":"30977 San Antonio St","City":"Hayward","State":"CA","Zip":"94544"},{"Location":"COLUMBUS MANUFACTURING INC","Address":"30977 San Antonio St","City":"Hayward","State":"CA","Zip":"94544"},{"Location":"DAI ICHI","Address":"24443 Willimet Way","City":"Hayward","State":"CA","Zip":"94544"},{"Location":"DAVITA #5056 HAYWARD MISSION","Address":"1661 Industrial Pkwy W","City":"Hayward","State":"CA","Zip":"94544"},{"Location":"DIANAS CARE HOME INC","Address":"27402 Manon Ave","City":"Hayward","State":"CA","Zip":"94544"},{"Location":"DIGITAL RECORDING EPISODES","Address":"30993 Huntwood Ave 204","City":"Hayward","State":"CA","Zip":"94544"},{"Location":"DOMINOS DISTRIBUTION","Address":"30852 San Antonio St","City":"Hayward","State":"CA","Zip":"94544"},{"Location":"ECO THRIFTY-HAYWARD","Address":"25891 Mission Blvd","City":"Hayward","State":"CA","Zip":"94544"},{"Location":"EMIL VILLAS","Address":"24047 Mission Blvd","City":"Hayward","State":"CA","Zip":"94544"},{"Location":"FAIRCLIFF HOMES.","Address":"30965 Faircliff St","City":"Hayward","State":"CA","Zip":"94544"},{"Location":"FERGUSON #2504","Address":"1595 Crocker Ave","City":"Hayward","State":"CA","Zip":"94544"},{"Location":"FIRESTONE #012580","Address":"24019 Mission Blvd","City":"Hayward","State":"CA","Zip":"94544"},{"Location":"FIRESTONE #241251","Address":"800 Jackson St","City":"Hayward","State":"CA","Zip":"94544"},{"Location":"FITNESS 19","Address":"26905 Mission Blvd C","City":"Hayward","State":"CA","Zip":"94544"},{"Location":"FRANNIES RESTAURANT","Address":"219 Harder Rd","City":"Hayward","State":"CA","Zip":"94544"},{"Location":"GATEWAY CARE & REHAB CENTER","Address":"26660 Patrick Ave","City":"Hayward","State":"CA","Zip":"94544"},{"Location":"GLAZIER IRONWORKS","Address":"650 Sandoval Way","City":"Hayward","State":"CA","Zip":"94544"},{"Location":"GONZALES","Address":"25711 Dollar St 9","City":"Hayward","State":"CA","Zip":"94544"},{"Location":"HAMPTON INN","Address":"24137 Mission Blvd","City":"Hayward","State":"CA","Zip":"94544"},{"Location":"HAYWARD COLLISION REPAIR","Address":"1571 Industrial Pkwy W","City":"Hayward","State":"CA","Zip":"94544"},{"Location":"HAYWARD NISSAN","Address":"24644 Mission Blvd","City":"Hayward","State":"CA","Zip":"94544"},{"Location":"HAYWARD RENTALS AND SALES INC","Address":"27823 Mission Blvd","City":"Hayward","State":"CA","Zip":"94544"},{"Location":"JUPITER SYSTEMS","Address":"31015 Huntwood Ave","City":"Hayward","State":"CA","Zip":"94544"},{"Location":"LA FAMILIA COUNSELING","Address":"26081 Mocine Ave","City":"Hayward","State":"CA","Zip":"94544"},{"Location":"LA FITNESS #6150","Address":"2401 Whipple Rd","City":"Hayward","State":"CA","Zip":"94544"},{"Location":"LEE LAUNDROMAT","Address":"24780 Amador St","City":"Hayward","State":"CA","Zip":"94544"},{"Location":"MAGNOLIA WOMENS RECOVERY","Address":"682 Briergate Way","City":"Hayward","State":"CA","Zip":"94544"},{"Location":"MISSION CAR WASH","Address":"23981 Mission Blvd","City":"Hayward","State":"CA","Zip":"94544"},{"Location":"MISSION HILLS","Address":"29952 Mission Blvd","City":"Hayward","State":"CA","Zip":"94544"},{"Location":"MOUNTAIN MIKE OF HAYWARD","Address":"410 W Harder Rd","City":"Hayward","State":"CA","Zip":"94544"},{"Location":"OVERSTREET ASSOCIATES","Address":"30997 Huntwood Ave 106","City":"Hayward","State":"CA","Zip":"94544"},{"Location":"PARKVIEW HEALTH CARE CTR","Address":"27350 Tampa Ave","City":"Hayward","State":"CA","Zip":"94544"},{"Location":"PUPUSERIA LAS CABANAS","Address":"30030 Mission Blvd Ste11","City":"Hayward","State":"CA","Zip":"94544"},{"Location":"QUICK TUNE AND BRAKE","Address":"141 Jackson St","City":"Hayward","State":"CA","Zip":"94544"},{"Location":"RJMS CORPORATION","Address":"31010 San Antonio St","City":"Hayward","State":"CA","Zip":"94544"},{"Location":"STANFORD CAR COMPANY","Address":"1825 Addison Way","City":"Hayward","State":"CA","Zip":"94544"},{"Location":"STRAW PIZZA","Address":"1653 Industrial Pkwy W","City":"Hayward","State":"CA","Zip":"94544"},{"Location":"SUNNY HILL","Address":"696 Woodland Ave","City":"Hayward","State":"CA","Zip":"94544"},{"Location":"TAQUERIA SENAIDAS","Address":"150 W Tennyson Rd","City":"Hayward","State":"CA","Zip":"94544"},{"Location":"TARGET","Address":"2499 Whipple Rd","City":"Hayward","State":"CA","Zip":"94544"},{"Location":"TEAM VOLKSWAGEN","Address":"25115 Mission Blvd","City":"Hayward","State":"CA","Zip":"94544"},{"Location":"TNT LIQUOR","Address":"27575 Mission Blvd","City":"Hayward","State":"CA","Zip":"94544"},{"Location":"TOMS LAUNDRY MAT","Address":"24551 Soto Rd","City":"Hayward","State":"CA","Zip":"94544"},{"Location":"TWILIGHT ZONE","Address":"24058 Mission Blvd","City":"Hayward","State":"CA","Zip":"94544"},{"Location":"WINDSOR POST ACUTE HAYWARD","Address":"25919 Gading Rd","City":"Hayward","State":"CA","Zip":"94544"},{"Location":"WINGSTOP","Address":"2490 Whipple Rd","City":"Hayward","State":"CA","Zip":"94544"},{"Location":"WN FOODS","Address":"30560 Vsan Antonio St","City":"Hayward","State":"CA","Zip":"94544"}]