[{"Location":"ALAMEDA COUNTY FIRE DPT","Address":"7000 East Ave","City":"Livermore","State":"CA","Zip":"94550"},{"Location":"ALTAMONT BEER WORK LLC","Address":"2402 Research Dr","City":"Livermore","State":"CA","Zip":"94550"},{"Location":"ARCHITECTURAL GLASS","Address":"6400 Brisa St","City":"Livermore","State":"CA","Zip":"94550"},{"Location":"BEER BARON LLC","Address":"2223 1st St","City":"Livermore","State":"CA","Zip":"94550"},{"Location":"BELAROMA PIZZARIA TAKEOUT","Address":"853 E Stanley Blvd","City":"Livermore","State":"CA","Zip":"94550"},{"Location":"BLUE BAR","Address":"2293 1st St","City":"Livermore","State":"CA","Zip":"94550"},{"Location":"BRASSO PLUMBING","Address":"6601 Brisa St","City":"Livermore","State":"CA","Zip":"94550"},{"Location":"BRUNO'S CUISINE","Address":"12133 1st St","City":"Livermore","State":"CA","Zip":"94550"},{"Location":"BUFFALO WILD WINGS #3676","Address":"1790 N 1st St","City":"Livermore","State":"CA","Zip":"94550"},{"Location":"CABERNET INDOOR SPORTS","Address":"6474 Patterson Pass Rd","City":"Livermore","State":"CA","Zip":"94550"},{"Location":"CALIFORNIA BUILDER DISTRIBUTOR","Address":"5730-b Brisa St","City":"Livermore","State":"CA","Zip":"94550"},{"Location":"CAMPO DI BOCCE OF LIVERMORE","Address":"175 E Vineyard Ave","City":"Livermore","State":"CA","Zip":"94550"},{"Location":"CARPET ONE OF LIVERMORE","Address":"1917 1st St","City":"Livermore","State":"CA","Zip":"94550"},{"Location":"CERTIFIED TIRE AND SERVICE","Address":"1485 1st St","City":"Livermore","State":"CA","Zip":"94550"},{"Location":"CITY OF LIVERMORE CALIFORNIA","Address":"1110 S Livermore Ave","City":"Livermore","State":"CA","Zip":"94550"},{"Location":"CLAY OVEN","Address":"2417 1st St","City":"Livermore","State":"CA","Zip":"94550"},{"Location":"CRAVINGS STONE FIRED PIZZA","Address":"2026 1st St","City":"Livermore","State":"CA","Zip":"94550"},{"Location":"DARCIE KENT VINEYARDS LL","Address":"7000 Tesla Rd","City":"Livermore","State":"CA","Zip":"94550"},{"Location":"DE AFGHANAN KABOB HOUSE","Address":"1550 Railroad Ave","City":"Livermore","State":"CA","Zip":"94550"},{"Location":"DEMITRI'S TAVERNA","Address":"2235 1st St","City":"Livermore","State":"CA","Zip":"94550"},{"Location":"ELIAMBROS","Address":"120 S L St","City":"Livermore","State":"CA","Zip":"94550"},{"Location":"ELITE SELF DEFENSE","Address":"2247 2nd St","City":"Livermore","State":"CA","Zip":"94550"},{"Location":"EZ EFILE TAX II","Address":"1850 Second St","City":"Livermore","State":"CA","Zip":"94550"},{"Location":"FERGUSON #0649","Address":"6147 Industrail Way B","City":"Livermore","State":"CA","Zip":"94550"},{"Location":"FIRST REPUBLIC BANK","Address":"211 S J St","City":"Livermore","State":"CA","Zip":"94550"},{"Location":"FIRST STREET ALE HOUSE","Address":"2106 1st St","City":"Livermore","State":"CA","Zip":"94550"},{"Location":"FITNESS 19 LIVERMORE","Address":"1456 Railroad Ave","City":"Livermore","State":"CA","Zip":"94550"},{"Location":"GARRE VINEYARY AND WINERY INC","Address":"7986 Tesla Rd","City":"Livermore","State":"CA","Zip":"94550"},{"Location":"GLAMOUR NAILS & SPA","Address":"1837 Holmes St","City":"Livermore","State":"CA","Zip":"94550"},{"Location":"GOOD TIME TAVERN","Address":"125 N Livermore Ave","City":"Livermore","State":"CA","Zip":"94550"},{"Location":"ICATERELIGHT","Address":"2491 First St","City":"Livermore","State":"CA","Zip":"94550"},{"Location":"JOHNS CHARBURGER","Address":"2617 Old 1st St","City":"Livermore","State":"CA","Zip":"94550"},{"Location":"K 5 SIGNS AND GRAPHICS","Address":"2271 S Vasco Rd D","City":"Livermore","State":"CA","Zip":"94550"},{"Location":"KOREAN BBQ","Address":"2570 Old 1st St","City":"Livermore","State":"CA","Zip":"94550"},{"Location":"LAWRENCE LIVERMORE NAT'L LAB","Address":"7000 East Ave","City":"Livermore","State":"CA","Zip":"94550"},{"Location":"LIVERMORE VALLEY SENIOR","Address":"3356 East Ave","City":"Livermore","State":"CA","Zip":"94550"},{"Location":"MARIO FRENCH DIP","Address":"2181 1st St","City":"Livermore","State":"CA","Zip":"94550"},{"Location":"MCGRAIL VINEYARDS","Address":"5600 Greenville Rd","City":"Livermore","State":"CA","Zip":"94550"},{"Location":"MOUNTAIN HOUSE BAR","Address":"16784 Grant Line Rd","City":"Livermore","State":"CA","Zip":"94550"},{"Location":"MOUNTAIN MIKES PIZZA","Address":"1304 First St","City":"Livermore","State":"CA","Zip":"94550"},{"Location":"MR PICKLE SANDWICH","Address":"385 S Livermore Ave","City":"Livermore","State":"CA","Zip":"94550"},{"Location":"NATIONAL BASKETBALL COURTS LLC","Address":"6474 Patterson Pass Rd","City":"Livermore","State":"CA","Zip":"94550"},{"Location":"OLIVERA BROTHERS INC.","Address":"2133 First St","City":"Livermore","State":"CA","Zip":"94550"},{"Location":"OLLIES","Address":"2128 Railroad Ave","City":"Livermore","State":"CA","Zip":"94550"},{"Location":"POPPY RIDGE GOLF COURSE","Address":"4280 Greenville Rd","City":"Livermore","State":"CA","Zip":"94550"},{"Location":"PRINTEGRA CORP","Address":"5593 La Ribera St","City":"Livermore","State":"CA","Zip":"94550"},{"Location":"PURPLE ORCHID INN","Address":"4549 Cross Rd","City":"Livermore","State":"CA","Zip":"94550"},{"Location":"R-PLACE","Address":"2562 Old 1st St","City":"Livermore","State":"CA","Zip":"94550"},{"Location":"RAGING FALAFEL","Address":"4084 East Ave","City":"Livermore","State":"CA","Zip":"94550"},{"Location":"RATERMANN MANUFACTURING","Address":"601 Pinnacle Pl","City":"Livermore","State":"CA","Zip":"94550"},{"Location":"RIOS RESERVE ESTATE","Address":"6500 Tesla Rd","City":"Livermore","State":"CA","Zip":"94550"},{"Location":"ROPPONGI SUSHI","Address":"2206 1st St","City":"Livermore","State":"CA","Zip":"94550"},{"Location":"ROUND TABLE PIZZA (LIVERMORE)","Address":"4098 East Ave","City":"Livermore","State":"CA","Zip":"94550"},{"Location":"SABANIKI N INC","Address":"1024 E Stanley Blvd","City":"Livermore","State":"CA","Zip":"94550"},{"Location":"SANDIA NATIONAL LAB","Address":"7011 East Ave","City":"Livermore","State":"CA","Zip":"94550"},{"Location":"SANDIA NATIONAL LAB","Address":"7011 East Ave 910","City":"Livermore","State":"CA","Zip":"94550"},{"Location":"SANDIA NATIONAL LABORTORIES","Address":"7011 East Ave 9114","City":"Livermore","State":"CA","Zip":"94550"},{"Location":"SAUCED BBQ","Address":"2300 1st St 120","City":"Livermore","State":"CA","Zip":"94550"},{"Location":"SECURITY","Address":"7000 East Ave 274","City":"Livermore","State":"CA","Zip":"94550"},{"Location":"SIMPLY FONDUE","Address":"2300 First St 110","City":"Livermore","State":"CA","Zip":"94550"},{"Location":"SNIP AND STYLE","Address":"1360 Railroad Ave","City":"Livermore","State":"CA","Zip":"94550"},{"Location":"STRANDS SALON INC","Address":"340 S Livermore Ave","City":"Livermore","State":"CA","Zip":"94550"},{"Location":"STRIZZIS RESTAURANT","Address":"2205 First St","City":"Livermore","State":"CA","Zip":"94550"},{"Location":"SUSHI ZONE","Address":"4094 East Ave","City":"Livermore","State":"CA","Zip":"94550"},{"Location":"TAP 25","Address":"25 S Livermore Ave","City":"Livermore","State":"CA","Zip":"94550"},{"Location":"THE LAW OFFICES OF TIM B RIEN","Address":"39 S Livermore Ave 209","City":"Livermore","State":"CA","Zip":"94550"},{"Location":"THE ROCK HOUSE PUB & GRILL","Address":"1840 Portola Ave","City":"Livermore","State":"CA","Zip":"94550"},{"Location":"THOMAS J MARCEL DDS","Address":"2084 4th St","City":"Livermore","State":"CA","Zip":"94550"},{"Location":"TIFFANYS DANCE ACADEMY","Address":"4046 East Ave","City":"Livermore","State":"CA","Zip":"94550"},{"Location":"TIPS AND TOES SALON","Address":"2136 1st St","City":"Livermore","State":"CA","Zip":"94550"},{"Location":"TIPS N TOES","Address":"2026 First St","City":"Livermore","State":"CA","Zip":"94550"},{"Location":"TOPCON","Address":"7901 National Dr","City":"Livermore","State":"CA","Zip":"94550"},{"Location":"UNCLE YU'S AT THE VINEYARD","Address":"39 S Livermore Ave","City":"Livermore","State":"CA","Zip":"94550"},{"Location":"UNDERDOG WINE BAR","Address":"4590 Tesla Rd","City":"Livermore","State":"CA","Zip":"94550"},{"Location":"VALLEY COMMUNITY BANK","Address":"2300 First St 100","City":"Livermore","State":"CA","Zip":"94550"},{"Location":"VANGUARD CONSTRUCTION","Address":"651 Enterprise Ct","City":"Livermore","State":"CA","Zip":"94550"},{"Location":"WENTE VINEYARDS","Address":"5050 Arroyo Rd","City":"Livermore","State":"CA","Zip":"94550"},{"Location":"WILEY     X INC","Address":"7800 Patterson Pass Rd","City":"Livermore","State":"CA","Zip":"94550"},{"Location":"ZEPHYR GRILL & BAR","Address":"1736 First St","City":"Livermore","State":"CA","Zip":"94550"}]