[{"Location":"24 HOUR FITNESS #812","Address":"351 Rheem Blvd","City":"Moraga","State":"CA","Zip":"94556"},{"Location":"ANNA NAILS","Address":"558 Center St","City":"Moraga","State":"CA","Zip":"94556"},{"Location":"MORAGA COUNTRY CLUB CLUB HOUSE","Address":"1600 Saint Andrews Dr","City":"Moraga","State":"CA","Zip":"94556"},{"Location":"MORAGA POLICE DEPT","Address":"329 Rheem Blvd","City":"Moraga","State":"CA","Zip":"94556"},{"Location":"MPF","Address":"1600 School St 105","City":"Moraga","State":"CA","Zip":"94556"},{"Location":"PENNINIS","Address":"1375 Moraga Way D","City":"Moraga","State":"CA","Zip":"94556"},{"Location":"24 HOUR FITNESS #812","Address":"351 Rheem Blvd","City":"Moraga","State":"CA","Zip":"94556"},{"Location":"ANNA NAILS","Address":"558 Center St","City":"Moraga","State":"CA","Zip":"94556"},{"Location":"MORAGA COUNTRY CLUB CLUB HOUSE","Address":"1600 Saint Andrews Dr","City":"Moraga","State":"CA","Zip":"94556"},{"Location":"MORAGA POLICE DEPT","Address":"329 Rheem Blvd","City":"Moraga","State":"CA","Zip":"94556"},{"Location":"MPF","Address":"1600 School St 105","City":"Moraga","State":"CA","Zip":"94556"},{"Location":"PENNINIS","Address":"1375 Moraga Way D","City":"Moraga","State":"CA","Zip":"94556"}]