[{"Location":"7550 LLC","Address":"7550 Saint Helena Hwy","City":"Napa","State":"CA","Zip":"94558"},{"Location":"ACV NAPA FLIGHT LLC","Address":"3010 Airport Rd","City":"Napa","State":"CA","Zip":"94558"},{"Location":"ADVANCE PRESSURE TECH","Address":"687 Technology Way","City":"Napa","State":"CA","Zip":"94558"},{"Location":"AMERICAN MEDICAL RESPONCE","Address":"841 Latour Ct D","City":"Napa","State":"CA","Zip":"94558"},{"Location":"ANDRETTI WINERY","Address":"4162 Big Ranch Rd","City":"Napa","State":"CA","Zip":"94558"},{"Location":"B P WINE LLC","Address":"607 Airpark Rd","City":"Napa","State":"CA","Zip":"94558"},{"Location":"BARBER SHOP OF NAPA","Address":"3662 Bel Aire Plz","City":"Napa","State":"CA","Zip":"94558"},{"Location":"BARBERSQ","Address":"3900 Bel Aire Plz D","City":"Napa","State":"CA","Zip":"94558"},{"Location":"BIAGI BROTHERS","Address":"787 Airpark Rd","City":"Napa","State":"CA","Zip":"94558"},{"Location":"BICYCLE WORKS","Address":"3335 Solano Ave","City":"Napa","State":"CA","Zip":"94558"},{"Location":"BOUTIKIA LLC","Address":"7433 Saint Helena Hwy","City":"Napa","State":"CA","Zip":"94558"},{"Location":"BRIX RESTAURANT","Address":"7377 Saint Helena Hwy","City":"Napa","State":"CA","Zip":"94558"},{"Location":"CALIFORNIA WINE TOURS","Address":"4075 Solano Ave","City":"Napa","State":"CA","Zip":"94558"},{"Location":"CHARLES WOODSON WINES","Address":"902 Enterprise Way D","City":"Napa","State":"CA","Zip":"94558"},{"Location":"CORDEIROS BAR N GRILL","Address":"2025 Monticello Rd","City":"Napa","State":"CA","Zip":"94558"},{"Location":"DAVITA #5617 SILVERADO","Address":"1100 Trancas St 266","City":"Napa","State":"CA","Zip":"94558"},{"Location":"DAVITA #870 SIERRA TERRIFIC","Address":"3900 Bel Aire Plz C","City":"Napa","State":"CA","Zip":"94558"},{"Location":"DE LA SALLE INSTITUTE","Address":"4401 Redwood Rd","City":"Napa","State":"CA","Zip":"94558"},{"Location":"DE LA SALLE INSTITUTE ROGGENBA","Address":"4401 Redwood Rd Bldg1","City":"Napa","State":"CA","Zip":"94558"},{"Location":"DE LA SALLE INSTITUTE SANCHEZ","Address":"4401 Redwood Rd","City":"Napa","State":"CA","Zip":"94558"},{"Location":"DE LA SALLE INSTITUTE WESTBERG","Address":"4401 Redwood Rd","City":"Napa","State":"CA","Zip":"94558"},{"Location":"DEAN'S PAINTING INC","Address":"20 Enterprise Ct 1","City":"Napa","State":"CA","Zip":"94558"},{"Location":"DELICATO VINEYARDS","Address":"455 Devlin Rd","City":"Napa","State":"CA","Zip":"94558"},{"Location":"DELICATO VINEYARDS THE RANCH","Address":"4089 Silverado Trl","City":"Napa","State":"CA","Zip":"94558"},{"Location":"DELICATO VINYARDS STONE","Address":"4089 Silverado Trl","City":"Napa","State":"CA","Zip":"94558"},{"Location":"DELICATO VINYARDS TASTING","Address":"4089 Silverado Trl","City":"Napa","State":"CA","Zip":"94558"},{"Location":"DELICATO VINYARDS YELLOW HSE","Address":"4089 Silverado Trl","City":"Napa","State":"CA","Zip":"94558"},{"Location":"DIAGEO CHATEAU & ESTATE WINES","Address":"240 Gateway Rd W","City":"Napa","State":"CA","Zip":"94558"},{"Location":"DR STEPHEN FRANZINO","Address":"3435 Valle Verde Dr B","City":"Napa","State":"CA","Zip":"94558"},{"Location":"DRAGON FLY EMPLOYMENT","Address":"870 Napa Valley Corporate Way F","City":"Napa","State":"CA","Zip":"94558"},{"Location":"DUCKHORN VINEYARDS","Address":"7257 Silverado Trl","City":"Napa","State":"CA","Zip":"94558"},{"Location":"EL VAQUERO","Address":"2414 Jefferson St B","City":"Napa","State":"CA","Zip":"94558"},{"Location":"ENCANTADO INC.","Address":"6138 Silverado Trl","City":"Napa","State":"CA","Zip":"94558"},{"Location":"ENERGY PLUS WHOLESALE","Address":"392 Devlin Rd","City":"Napa","State":"CA","Zip":"94558"},{"Location":"FALCOR WINE CELLARS","Address":"2511 Napa Valley Corporate Dr 115","City":"Napa","State":"CA","Zip":"94558"},{"Location":"FAMILY WASH AND DRY","Address":"2575 Kilburn Ave","City":"Napa","State":"CA","Zip":"94558"},{"Location":"FIRST REPUBLIC BANK","Address":"1753 Trancas Street","City":"Napa","State":"CA","Zip":"94558"},{"Location":"FOLEY JOHNSONS","Address":"8360 Saint Helena Hwy","City":"Napa","State":"CA","Zip":"94558"},{"Location":"FRIDAS MEXICAN GRILL","Address":"1533 Trancas St","City":"Napa","State":"CA","Zip":"94558"},{"Location":"FUME BISTRO","Address":"4050 Byway E","City":"Napa","State":"CA","Zip":"94558"},{"Location":"GARCIAS RESTAURANT","Address":"2962 Jefferson St","City":"Napa","State":"CA","Zip":"94558"},{"Location":"HUGH PHILLIPS","Address":"135 Camino Dorado 15","City":"Napa","State":"CA","Zip":"94558"},{"Location":"IMELDAS DESIGNER ALTERATION","Address":"931 Lincoln Ave","City":"Napa","State":"CA","Zip":"94558"},{"Location":"JAQUELINES HAIR SALON","Address":"937 Lincoln Ave","City":"Napa","State":"CA","Zip":"94558"},{"Location":"JRA ELECTRICAL ENGINEERS INC","Address":"851 Napa Valley Corporate Way D","City":"Napa","State":"CA","Zip":"94558"},{"Location":"KAISER PERMANENTE","Address":"2600 Napa Valley Corp Dr","City":"Napa","State":"CA","Zip":"94558"},{"Location":"LAUNDERLAND WASH N DRY","Address":"2233 Brown St","City":"Napa","State":"CA","Zip":"94558"},{"Location":"LINCOLN AVENUE SMOG","Address":"684 Lincoln Ave","City":"Napa","State":"CA","Zip":"94558"},{"Location":"LONG ELECTRIC","Address":"870 Napa Valley Corporate Way D","City":"Napa","State":"CA","Zip":"94558"},{"Location":"M BRADLEY REAL ESTATE 2","Address":"3249 Browns Valley Rd","City":"Napa","State":"CA","Zip":"94558"},{"Location":"MADISON VINEYARD HOLDING","Address":"1 Kirkland Ranch Rd","City":"Napa","State":"CA","Zip":"94558"},{"Location":"MARRIOTT NAPA VALLEY 1","Address":"3425 Solano Ave","City":"Napa","State":"CA","Zip":"94558"},{"Location":"MARRIOTT NAPA VALLEY(0006190)","Address":"3425 Solano Ave","City":"Napa","State":"CA","Zip":"94558"},{"Location":"MARY'S PIZZA SHACK","Address":"3085 Jefferson St","City":"Napa","State":"CA","Zip":"94558"},{"Location":"MCALISTER INSTITUTE FOR TRE","Address":"2100 Napa Vallejo Hwy Bl253","City":"Napa","State":"CA","Zip":"94558"},{"Location":"MCCANN INC","Address":"2044 Airport Rd","City":"Napa","State":"CA","Zip":"94558"},{"Location":"MUSTARDS GRILL","Address":"7399 Saint Helena Hwy","City":"Napa","State":"CA","Zip":"94558"},{"Location":"NAILS BY THERESA","Address":"1515 Lincoln Ave","City":"Napa","State":"CA","Zip":"94558"},{"Location":"NAPA  GOLF COURSE","Address":"2295 Streblow Dr","City":"Napa","State":"CA","Zip":"94558"},{"Location":"NAPA COUNTY SHERIFFS DEPT","Address":"1535 Airport Blvd","City":"Napa","State":"CA","Zip":"94558"},{"Location":"NAPA ELKS LODGE 832","Address":"2840 Soscol Ave","City":"Napa","State":"CA","Zip":"94558"},{"Location":"NAPA JET CENTER SERVICES","Address":"2030 Airport Rd","City":"Napa","State":"CA","Zip":"94558"},{"Location":"NAPA MOOSE LODGE 516","Address":"3275 Browns Valley Rd","City":"Napa","State":"CA","Zip":"94558"},{"Location":"NAPA ROOTS","Address":"630 Airpark Rd E","City":"Napa","State":"CA","Zip":"94558"},{"Location":"NAPA SMITH BREWERY","Address":"1 Executive Way","City":"Napa","State":"CA","Zip":"94558"},{"Location":"NAPA VALLEY COUNTRY CLUB","Address":"3385 Hagen Rd","City":"Napa","State":"CA","Zip":"94558"},{"Location":"NY PIZZA KITCHEN","Address":"657 Trancas St","City":"Napa","State":"CA","Zip":"94558"},{"Location":"OAKTREE VINEYARD","Address":"2001 Salvador Ave W","City":"Napa","State":"CA","Zip":"94558"},{"Location":"PIZZA HUT- NAPA","Address":"3150 Jefferson St A","City":"Napa","State":"CA","Zip":"94558"},{"Location":"PLEASURE COVE MARINA LLC","Address":"6100 Hwy 128","City":"Napa","State":"CA","Zip":"94558"},{"Location":"POETRY INN LLC","Address":"6380 Silverado Trl","City":"Napa","State":"CA","Zip":"94558"},{"Location":"POETRY INN LLC II","Address":"6360 Silverado Trl","City":"Napa","State":"CA","Zip":"94558"},{"Location":"RAESET","Address":"3150b Jefferson St","City":"Napa","State":"CA","Zip":"94558"},{"Location":"RED HEN","Address":"4175 Solano Ave","City":"Napa","State":"CA","Zip":"94558"},{"Location":"RED ROCK NORTH","Address":"4084 Byway E","City":"Napa","State":"CA","Zip":"94558"},{"Location":"ROUND TABLE PIZZA #1009","Address":"701 Lincoln Ave","City":"Napa","State":"CA","Zip":"94558"},{"Location":"SILENUS WINERY","Address":"5231 Solano Ave","City":"Napa","State":"CA","Zip":"94558"},{"Location":"SILVERADO COUNTRY CLUB","Address":"1600 Atlas Peak Rd","City":"Napa","State":"CA","Zip":"94558"},{"Location":"SILVERADO RESORT","Address":"1600 Atlas Peak Rd","City":"Napa","State":"CA","Zip":"94558"},{"Location":"SOUTHGATE MINI STORES","Address":"1025 Golden Gate Dr","City":"Napa","State":"CA","Zip":"94558"},{"Location":"SPA AT SILVERADO","Address":"1605 Atlas Peak Rd","City":"Napa","State":"CA","Zip":"94558"},{"Location":"SQUEEZE INN HAMBURGER","Address":"3383 Solano Ave","City":"Napa","State":"CA","Zip":"94558"},{"Location":"SUSHI HAKU","Address":"3206 Jefferson St","City":"Napa","State":"CA","Zip":"94558"},{"Location":"TARGET #1438","Address":"4000 Bel Aire Plz","City":"Napa","State":"CA","Zip":"94558"},{"Location":"THE MERITAGE RESORT","Address":"875 Bordeaux Way","City":"Napa","State":"CA","Zip":"94558"},{"Location":"TRANCAS STEAKHOUSE","Address":"999 Trancas St","City":"Napa","State":"CA","Zip":"94558"},{"Location":"TYLERS PIZZA","Address":"2410 Jefferson St","City":"Napa","State":"CA","Zip":"94558"},{"Location":"WHOLE FOODS MARKET","Address":"3682 Bel Aire Plz","City":"Napa","State":"CA","Zip":"94558"}]