[{"Location":"STAR CANYON WEST","Address":"1049 Boca Canada Rd","City":"Briones","State":"CA","Zip":"94553"},{"Location":"ABRIL ROOFING INC","Address":"3490 Pacheco Blvd","City":"Martinez","State":"CA","Zip":"94553"},{"Location":"ALADDIN BAIL BONDS","Address":"836 Main St","City":"Martinez","State":"CA","Zip":"94553"},{"Location":"ALHAMBRA DENTAL GROUP","Address":"4040 Alhambra Ave","City":"Martinez","State":"CA","Zip":"94553"},{"Location":"ASAP DRUG","Address":"1805 Arnold Dr","City":"Martinez","State":"CA","Zip":"94553"},{"Location":"CENTRAL CONTRA COSTA","Address":"5019 Imhoff Pl","City":"Martinez","State":"CA","Zip":"94553"},{"Location":"CK AUTO REPAIR","Address":"1424 Shell Ave","City":"Martinez","State":"CA","Zip":"94553"},{"Location":"CONTRA COSTA HEALTH EMGY","Address":"50 Douglas Dr","City":"Martinez","State":"CA","Zip":"94553"},{"Location":"CONTRA COSTA HEALTH SERVICE","Address":"4585 Pacheco Blvd 100","City":"Martinez","State":"CA","Zip":"94553"},{"Location":"CONTRA COSTA HEALTH SVCS EMS","Address":"1340 Arnold Dr 126","City":"Martinez","State":"CA","Zip":"94553"},{"Location":"CREEK MONKEY TAP HOUSE","Address":"611 Escobar St","City":"Martinez","State":"CA","Zip":"94553"},{"Location":"DJEK  INC","Address":"777 Arnold Dr 200","City":"Martinez","State":"CA","Zip":"94553"},{"Location":"FITNESS EVOLUTION","Address":"6635 Alhambra Ave 202","City":"Martinez","State":"CA","Zip":"94553"},{"Location":"FUBAR'S%2FCUE & BREW","Address":"1029 Arnold Dr 6","City":"Martinez","State":"CA","Zip":"94553"},{"Location":"GASTRONOMIC GAMES LLC","Address":"528 Center Ave","City":"Martinez","State":"CA","Zip":"94553"},{"Location":"JOHN MUIR MANAGEMENT","Address":"3441 Sentinel Dr","City":"Martinez","State":"CA","Zip":"94553"},{"Location":"KAISER PERMANENTE IC","Address":"200 Muir Rd","City":"Martinez","State":"CA","Zip":"94553"},{"Location":"KINDERS","Address":"536 Center Ave","City":"Martinez","State":"CA","Zip":"94553"},{"Location":"LA PRIMAVERA REST.","Address":"1311 Pine St I","City":"Martinez","State":"CA","Zip":"94553"},{"Location":"LC GALLERY","Address":"625 Main St","City":"Martinez","State":"CA","Zip":"94553"},{"Location":"LEGACY NURSING AND REHAB","Address":"1790 Muir Rd","City":"Martinez","State":"CA","Zip":"94553"},{"Location":"MARTINEZ CONVALESENT HOSPITAL","Address":"4110 Alhambra Way","City":"Martinez","State":"CA","Zip":"94553"},{"Location":"MARTINEZ GUN CLUB","Address":"900 Waterbird Way","City":"Martinez","State":"CA","Zip":"94553"},{"Location":"MARTINEZ MOOSELODGE #1164","Address":"414 Escobar St","City":"Martinez","State":"CA","Zip":"94553"},{"Location":"MARTINEZ YACHT CLUB","Address":"111 Tarantino Dr","City":"Martinez","State":"CA","Zip":"94553"},{"Location":"MARTY OS PIZZERIA","Address":"802 Main St","City":"Martinez","State":"CA","Zip":"94553"},{"Location":"MOUNTAIN MIKES MARTINEZ","Address":"1160 Arnold Dr E","City":"Martinez","State":"CA","Zip":"94553"},{"Location":"NAILS SPA AND MORE","Address":"6662 Alhambra Ave","City":"Martinez","State":"CA","Zip":"94553"},{"Location":"NU-RAYS","Address":"709 Ferry St","City":"Martinez","State":"CA","Zip":"94553"},{"Location":"RHODIA INC","Address":"100 Mococo Rd","City":"Martinez","State":"CA","Zip":"94553"},{"Location":"SMOOTH SEASONS","Address":"522 Center Ave","City":"Martinez","State":"CA","Zip":"94553"},{"Location":"TJ'S CAFE","Address":"3210 Pacheco Blvd","City":"Martinez","State":"CA","Zip":"94553"},{"Location":"VOSINC","Address":"2030 Arnold Dr A","City":"Martinez","State":"CA","Zip":"94553"},{"Location":"WHISKEY  LANE","Address":"629 Ferry St","City":"Martinez","State":"CA","Zip":"94553"},{"Location":"WING STOP - MARTINEZ","Address":"1029 Arnold Dr 10","City":"Martinez","State":"CA","Zip":"94553"},{"Location":"YOUR RV STORAGE","Address":"4841 Sunrise Dr","City":"Martinez","State":"CA","Zip":"94553"},{"Location":"CALFORNIA GRAND CASINO","Address":"5988 Pacheco Blvd","City":"Pacheco","State":"CA","Zip":"94553"},{"Location":"JOSE MORENO","Address":"5301 Pacheco Blvd","City":"Pacheco","State":"CA","Zip":"94553"},{"Location":"TAQUERIA EL GRULLENES","Address":"5224 Pacheco Blvd","City":"Pacheco","State":"CA","Zip":"94553"},{"Location":"TESORO PETROLEUM CORP","Address":"150 Solano Way","City":"Pacheco","State":"CA","Zip":"94553"},{"Location":"STAR CANYON WEST","Address":"1049 Boca Canada Rd","City":"Briones","State":"CA","Zip":"94553"},{"Location":"ABRIL ROOFING INC","Address":"3490 Pacheco Blvd","City":"Martinez","State":"CA","Zip":"94553"},{"Location":"ALADDIN BAIL BONDS","Address":"836 Main St","City":"Martinez","State":"CA","Zip":"94553"},{"Location":"ALHAMBRA DENTAL GROUP","Address":"4040 Alhambra Ave","City":"Martinez","State":"CA","Zip":"94553"},{"Location":"ASAP DRUG","Address":"1805 Arnold Dr","City":"Martinez","State":"CA","Zip":"94553"},{"Location":"CENTRAL CONTRA COSTA","Address":"5019 Imhoff Pl","City":"Martinez","State":"CA","Zip":"94553"},{"Location":"CK AUTO REPAIR","Address":"1424 Shell Ave","City":"Martinez","State":"CA","Zip":"94553"},{"Location":"CONTRA COSTA HEALTH EMGY","Address":"50 Douglas Dr","City":"Martinez","State":"CA","Zip":"94553"},{"Location":"CONTRA COSTA HEALTH SERVICE","Address":"4585 Pacheco Blvd 100","City":"Martinez","State":"CA","Zip":"94553"},{"Location":"CONTRA COSTA HEALTH SVCS EMS","Address":"1340 Arnold Dr 126","City":"Martinez","State":"CA","Zip":"94553"},{"Location":"CREEK MONKEY TAP HOUSE","Address":"611 Escobar St","City":"Martinez","State":"CA","Zip":"94553"},{"Location":"DJEK  INC","Address":"777 Arnold Dr 200","City":"Martinez","State":"CA","Zip":"94553"},{"Location":"FITNESS EVOLUTION","Address":"6635 Alhambra Ave 202","City":"Martinez","State":"CA","Zip":"94553"},{"Location":"FUBAR'S%2FCUE & BREW","Address":"1029 Arnold Dr 6","City":"Martinez","State":"CA","Zip":"94553"},{"Location":"GASTRONOMIC GAMES LLC","Address":"528 Center Ave","City":"Martinez","State":"CA","Zip":"94553"},{"Location":"JOHN MUIR MANAGEMENT","Address":"3441 Sentinel Dr","City":"Martinez","State":"CA","Zip":"94553"},{"Location":"KAISER PERMANENTE IC","Address":"200 Muir Rd","City":"Martinez","State":"CA","Zip":"94553"},{"Location":"KINDERS","Address":"536 Center Ave","City":"Martinez","State":"CA","Zip":"94553"},{"Location":"LA PRIMAVERA REST.","Address":"1311 Pine St I","City":"Martinez","State":"CA","Zip":"94553"},{"Location":"LC GALLERY","Address":"625 Main St","City":"Martinez","State":"CA","Zip":"94553"},{"Location":"LEGACY NURSING AND REHAB","Address":"1790 Muir Rd","City":"Martinez","State":"CA","Zip":"94553"},{"Location":"MARTINEZ CONVALESENT HOSPITAL","Address":"4110 Alhambra Way","City":"Martinez","State":"CA","Zip":"94553"},{"Location":"MARTINEZ GUN CLUB","Address":"900 Waterbird Way","City":"Martinez","State":"CA","Zip":"94553"},{"Location":"MARTINEZ MOOSELODGE #1164","Address":"414 Escobar St","City":"Martinez","State":"CA","Zip":"94553"},{"Location":"MARTINEZ YACHT CLUB","Address":"111 Tarantino Dr","City":"Martinez","State":"CA","Zip":"94553"},{"Location":"MARTY OS PIZZERIA","Address":"802 Main St","City":"Martinez","State":"CA","Zip":"94553"},{"Location":"MOUNTAIN MIKES MARTINEZ","Address":"1160 Arnold Dr E","City":"Martinez","State":"CA","Zip":"94553"},{"Location":"NAILS SPA AND MORE","Address":"6662 Alhambra Ave","City":"Martinez","State":"CA","Zip":"94553"},{"Location":"NU-RAYS","Address":"709 Ferry St","City":"Martinez","State":"CA","Zip":"94553"},{"Location":"RHODIA INC","Address":"100 Mococo Rd","City":"Martinez","State":"CA","Zip":"94553"},{"Location":"SMOOTH SEASONS","Address":"522 Center Ave","City":"Martinez","State":"CA","Zip":"94553"},{"Location":"TJ'S CAFE","Address":"3210 Pacheco Blvd","City":"Martinez","State":"CA","Zip":"94553"},{"Location":"VOSINC","Address":"2030 Arnold Dr A","City":"Martinez","State":"CA","Zip":"94553"},{"Location":"WHISKEY  LANE","Address":"629 Ferry St","City":"Martinez","State":"CA","Zip":"94553"},{"Location":"WING STOP - MARTINEZ","Address":"1029 Arnold Dr 10","City":"Martinez","State":"CA","Zip":"94553"},{"Location":"YOUR RV STORAGE","Address":"4841 Sunrise Dr","City":"Martinez","State":"CA","Zip":"94553"},{"Location":"CALFORNIA GRAND CASINO","Address":"5988 Pacheco Blvd","City":"Pacheco","State":"CA","Zip":"94553"},{"Location":"JOSE MORENO","Address":"5301 Pacheco Blvd","City":"Pacheco","State":"CA","Zip":"94553"},{"Location":"TAQUERIA EL GRULLENES","Address":"5224 Pacheco Blvd","City":"Pacheco","State":"CA","Zip":"94553"},{"Location":"TESORO PETROLEUM CORP","Address":"150 Solano Way","City":"Pacheco","State":"CA","Zip":"94553"}]