[{"Location":"24 HOUR FITNESS #895","Address":"2650 Kitty Hawk Rd","City":"Livermore","State":"CA","Zip":"94551"},{"Location":"84 TERIYAKI","Address":"51 Wright Brothers Ave D","City":"Livermore","State":"CA","Zip":"94551"},{"Location":"AA FIRE SYSTEMS INC","Address":"5902 Las Positas Rd","City":"Livermore","State":"CA","Zip":"94551"},{"Location":"ACCESS","Address":"5785 Las Positas Rd","City":"Livermore","State":"CA","Zip":"94551"},{"Location":"AERO PRECISION","Address":"201 Lindeergh Ave","City":"Livermore","State":"CA","Zip":"94551"},{"Location":"AHMAD ABDALLAH","Address":"2424 Las Positas Rd","City":"Livermore","State":"CA","Zip":"94551"},{"Location":"AMIEIAN APPLIANCE OUTLET","Address":"744 E Airway Blvd","City":"Livermore","State":"CA","Zip":"94551"},{"Location":"ANYTIME FITNESS","Address":"900 Bluebell Dr","City":"Livermore","State":"CA","Zip":"94551"},{"Location":"APPLEBEE'S LIVERMORE #2111017","Address":"4301 1st St","City":"Livermore","State":"CA","Zip":"94551"},{"Location":"ARINC","Address":"6011 Industrial Way","City":"Livermore","State":"CA","Zip":"94551"},{"Location":"BEEB'S SPORTS BAR & GRILL","Address":"915 Club House Dr","City":"Livermore","State":"CA","Zip":"94551"},{"Location":"BERNARDS GAS STATION","Address":"1051 Airway Blvd","City":"Livermore","State":"CA","Zip":"94551"},{"Location":"CALCO FENCE","Address":"4568 Contractors Pl","City":"Livermore","State":"CA","Zip":"94551"},{"Location":"CASINO 580","Address":"968 N Canyons Pkwy","City":"Livermore","State":"CA","Zip":"94551"},{"Location":"CASTLE ROCK","Address":"1848 Portola Ave","City":"Livermore","State":"CA","Zip":"94551"},{"Location":"CATTLEMEN RESTAURANT","Address":"2882 Kitty Hawk Rd","City":"Livermore","State":"CA","Zip":"94551"},{"Location":"CHILI'S #0712","Address":"4261 1st St","City":"Livermore","State":"CA","Zip":"94551"},{"Location":"CITY OF LIVERMORE AIRPORT","Address":"636 Terminal Cir","City":"Livermore","State":"CA","Zip":"94551"},{"Location":"CONTRARAS MARKET","Address":"861 Rincon Ave","City":"Livermore","State":"CA","Zip":"94551"},{"Location":"DAVITA #2334 LIVERMORE","Address":"3201 Doolan Rd 176","City":"Livermore","State":"CA","Zip":"94551"},{"Location":"FIRESTONE 356400","Address":"2852 Las Positas Rd","City":"Livermore","State":"CA","Zip":"94551"},{"Location":"FOOD SALES WEST","Address":"2900 Collier Canyon Rd","City":"Livermore","State":"CA","Zip":"94551"},{"Location":"FORMFACTOR INC","Address":"7401 Longard Rd","City":"Livermore","State":"CA","Zip":"94551"},{"Location":"FRATERNAL ORDER OF EAGLES 609","Address":"527 N Livermore Ave","City":"Livermore","State":"CA","Zip":"94551"},{"Location":"GG BUILDERS","Address":"4542 Contractors Pl","City":"Livermore","State":"CA","Zip":"94551"},{"Location":"GREAT CLIPS FOR HAIR","Address":"1486 N Vasco Rd","City":"Livermore","State":"CA","Zip":"94551"},{"Location":"HILTON GARDEN INN","Address":"2801 Constitution Dr","City":"Livermore","State":"CA","Zip":"94551"},{"Location":"HOMESITE SERVICES","Address":"101 Pullman St","City":"Livermore","State":"CA","Zip":"94551"},{"Location":"HSS","Address":"6267 Southfront Rd","City":"Livermore","State":"CA","Zip":"94551"},{"Location":"IRON MOUNTAIN","Address":"6933 Preston Ave","City":"Livermore","State":"CA","Zip":"94551"},{"Location":"KITTY HAWK DENTAL CARE","Address":"53 Wright Brothers Ave C","City":"Livermore","State":"CA","Zip":"94551"},{"Location":"KOHL'S #1121","Address":"2900 Las Positas Rd","City":"Livermore","State":"CA","Zip":"94551"},{"Location":"KPM CAR WASH CORP","Address":"2186 Las Positas Ct","City":"Livermore","State":"CA","Zip":"94551"},{"Location":"LAM RESEARCH","Address":"1 Portola Ave","City":"Livermore","State":"CA","Zip":"94551"},{"Location":"LAVTA%2FWHEELS","Address":"1362 Rutan Dr","City":"Livermore","State":"CA","Zip":"94551"},{"Location":"LIVERMORE AUDI","Address":"3200 Las Positas Rd","City":"Livermore","State":"CA","Zip":"94551"},{"Location":"LIVERMORE AUTOMALL HONDA AUDI","Address":"3200 Las Positas Rd","City":"Livermore","State":"CA","Zip":"94551"},{"Location":"LIVERMORE CASINO","Address":"3571 1st St","City":"Livermore","State":"CA","Zip":"94551"},{"Location":"LIVERMORE FORD LINCOLN","Address":"2266 Kitty Hawk Rd","City":"Livermore","State":"CA","Zip":"94551"},{"Location":"LIVERMORE JAGUAR","Address":"3500 Las Positas Rd","City":"Livermore","State":"CA","Zip":"94551"},{"Location":"LIVERMORE PLEASANTON ROD","Address":"4000 Dagnino Rd","City":"Livermore","State":"CA","Zip":"94551"},{"Location":"LIVERMORE SUBARU","Address":"3600 Las Positas Rd","City":"Livermore","State":"CA","Zip":"94551"},{"Location":"LIVERMORE TOYOTA","Address":"6200 Northfront Rd","City":"Livermore","State":"CA","Zip":"94551"},{"Location":"LSTC INC LLC","Address":"7374 Las Positas Rd","City":"Livermore","State":"CA","Zip":"94551"},{"Location":"MCDONALD'S","Address":"4528 Las Positas Rd","City":"Livermore","State":"CA","Zip":"94551"},{"Location":"MEN'S WEARHOUSE #9101","Address":"2980 Paragon Outlets Dr","City":"Livermore","State":"CA","Zip":"94551"},{"Location":"MOUNTAIN MIKE'S PIZZA","Address":"1472 N Vasco Rd","City":"Livermore","State":"CA","Zip":"94551"},{"Location":"NIKE INC","Address":"3202 Paragon Outlets Dr","City":"Livermore","State":"CA","Zip":"94551"},{"Location":"NORCAL CONSTRUCTION","Address":"4181 1st St","City":"Livermore","State":"CA","Zip":"94551"},{"Location":"PACIFIC DENTAL #275","Address":"4375 1st St","City":"Livermore","State":"CA","Zip":"94551"},{"Location":"PACIFIC GAS & ELECTRIC","Address":"3797 1st St","City":"Livermore","State":"CA","Zip":"94551"},{"Location":"PARAMEDICS PLUS 3","Address":"361 Lindbergh Ave","City":"Livermore","State":"CA","Zip":"94551"},{"Location":"PDC LOGISTICS","Address":"6383 Las Positas Rd","City":"Livermore","State":"CA","Zip":"94551"},{"Location":"PERFORMANT RECOVERY INC.","Address":"333 N Canyon Pkwy 100","City":"Livermore","State":"CA","Zip":"94551"},{"Location":"PINE STREET GRILL","Address":"875 Rincon Ave","City":"Livermore","State":"CA","Zip":"94551"},{"Location":"Q AND W INC","Address":"3100  Las Positas Rd","City":"Livermore","State":"CA","Zip":"94551"},{"Location":"QUALITY INN & SUITES","Address":"5959 Preston Ave","City":"Livermore","State":"CA","Zip":"94551"},{"Location":"RB TRAVIS","Address":"575 Leisure St","City":"Livermore","State":"CA","Zip":"94551"},{"Location":"ROCK HOUSE","Address":"1840 Portola Ave","City":"Livermore","State":"CA","Zip":"94551"},{"Location":"ROSSITER RELOCATION SERVICE","Address":"6475 Las Positas Rd","City":"Livermore","State":"CA","Zip":"94551"},{"Location":"SANMOLA","Address":"4193 1st St","City":"Livermore","State":"CA","Zip":"94551"},{"Location":"SIMPLEX GRINNELL","Address":"6952 Preston Ave","City":"Livermore","State":"CA","Zip":"94551"},{"Location":"SPORT CLIPS CA809","Address":"4338 Las Positas Rd","City":"Livermore","State":"CA","Zip":"94551"},{"Location":"STRINGS ITALIAN CAFE","Address":"2205 Las Positas Rd","City":"Livermore","State":"CA","Zip":"94551"},{"Location":"THE CALIFORNIA JOINT POWERS","Address":"3201 Doolan Rd 285","City":"Livermore","State":"CA","Zip":"94551"},{"Location":"THE NATIONAL FOOD LAB","Address":"365 North Canyon Pkwy 201","City":"Livermore","State":"CA","Zip":"94551"},{"Location":"THERMAL PRESS INTER.","Address":"341 Stealth Ct","City":"Livermore","State":"CA","Zip":"94551"},{"Location":"TIRE MART AND AUTO EXPRESS","Address":"3511 1st St","City":"Livermore","State":"CA","Zip":"94551"},{"Location":"TOP GRADE CONSTRUCTION","Address":"50 Contractors St","City":"Livermore","State":"CA","Zip":"94551"},{"Location":"TRI-VALLEY AUTO BODY","Address":"3529 1st St","City":"Livermore","State":"CA","Zip":"94551"},{"Location":"TRIVALLEY HEIGHTS MANAGEMENT","Address":"6611 Preston Ave D","City":"Livermore","State":"CA","Zip":"94551"},{"Location":"TRUE TECH CORPORATION","Address":"122 Lindbergh Ave","City":"Livermore","State":"CA","Zip":"94551"},{"Location":"TUMAK RESTURANTS INC","Address":"2259 Las Positas Rd","City":"Livermore","State":"CA","Zip":"94551"},{"Location":"V & M CONSTRUCTION","Address":"85 Rickenbacker Cir","City":"Livermore","State":"CA","Zip":"94551"},{"Location":"VISTAR CORP","Address":"7587 Las Positas Rd","City":"Livermore","State":"CA","Zip":"94551"},{"Location":"WINGSTOP","Address":"4436 Las Positas Rd","City":"Livermore","State":"CA","Zip":"94551"}]