[{"Location":"ALADDIN BB DEPT 769","Address":"812 3rd St","City":"Napa","State":"CA","Zip":"94559"},{"Location":"ALLEGRIA","Address":"1026 1st St","City":"Napa","State":"CA","Zip":"94559"},{"Location":"APPLEBEE'S #2140015","Address":"195 Soscol Ave","City":"Napa","State":"CA","Zip":"94559"},{"Location":"ATLAS SOCIAL","Address":"1124 1st St","City":"Napa","State":"CA","Zip":"94559"},{"Location":"BANK OF THE WEST","Address":"700 Main St 212","City":"Napa","State":"CA","Zip":"94559"},{"Location":"BIG O TIRES","Address":"442 Soscol Ave","City":"Napa","State":"CA","Zip":"94559"},{"Location":"BILLCO'S BILLIARDS","Address":"1234 3rd St","City":"Napa","State":"CA","Zip":"94559"},{"Location":"BLACK BEAR DINNER","Address":"303 Soscol Ave","City":"Napa","State":"CA","Zip":"94559"},{"Location":"BRIT GLOBAL SPECIALTY US","Address":"700 Main St 301","City":"Napa","State":"CA","Zip":"94559"},{"Location":"BUDGET TUNE LUBE","Address":"4603 Mission Blvd","City":"Napa","State":"CA","Zip":"94559"},{"Location":"BUI BISTRO","Address":"976 Pearl St","City":"Napa","State":"CA","Zip":"94559"},{"Location":"CARNEROS INN CAFETERIA & MEETG","Address":"4048 Sonoma Hwy","City":"Napa","State":"CA","Zip":"94559"},{"Location":"CDI","Address":"1445 1st St","City":"Napa","State":"CA","Zip":"94559"},{"Location":"CHATEAU BARBERSHOP","Address":"1521 3rd St","City":"Napa","State":"CA","Zip":"94559"},{"Location":"CUSTOM HEALTH & FITNESS INC","Address":"520 California Blvd 12","City":"Napa","State":"CA","Zip":"94559"},{"Location":"DENNYS RESTAURANT","Address":"1000 Imola Ave","City":"Napa","State":"CA","Zip":"94559"},{"Location":"DOWNTOWN JOES","Address":"902 Main St","City":"Napa","State":"CA","Zip":"94559"},{"Location":"EMBASSY SUITES NAPA V 0011935","Address":"1075 California Blvd","City":"Napa","State":"CA","Zip":"94559"},{"Location":"EMPIRE NAPA INVESTOR","Address":"1400 1st St","City":"Napa","State":"CA","Zip":"94559"},{"Location":"EVIV OVER","Address":"421 Walnut St","City":"Napa","State":"CA","Zip":"94559"},{"Location":"EXERTEC","Address":"1500 1st St","City":"Napa","State":"CA","Zip":"94559"},{"Location":"FAZERRATI'S PIZZA","Address":"1517 W Imola Ave","City":"Napa","State":"CA","Zip":"94559"},{"Location":"HAPPY NAILS","Address":"2225 Jefferson St","City":"Napa","State":"CA","Zip":"94559"},{"Location":"HENRYS","Address":"823 Main St","City":"Napa","State":"CA","Zip":"94559"},{"Location":"HERITAGE VINEYARDS OF NAPA","Address":"1245 1st St","City":"Napa","State":"CA","Zip":"94559"},{"Location":"JACX DINER LLC","Address":"1122 1st St A","City":"Napa","State":"CA","Zip":"94559"},{"Location":"K LAWRENCE","Address":"800 School St A","City":"Napa","State":"CA","Zip":"94559"},{"Location":"KOHL'S #1371","Address":"1116 1st St","City":"Napa","State":"CA","Zip":"94559"},{"Location":"MERRYLL LYNCH NAPA CA","Address":"700 Main St 2","City":"Napa","State":"CA","Zip":"94559"},{"Location":"MORGAN STANLEY 100141","Address":"700 Main St 315","City":"Napa","State":"CA","Zip":"94559"},{"Location":"NAPA CIGARS","Address":"1147 1st St","City":"Napa","State":"CA","Zip":"94559"},{"Location":"NAPA COUNTY HHSA","Address":"1917 1st St","City":"Napa","State":"CA","Zip":"94559"},{"Location":"NAPA COUNTY OFFICE OF EDUCATIO","Address":"2121 Imola Ave","City":"Napa","State":"CA","Zip":"94559"},{"Location":"NAPA NISSAN","Address":"510 Soscol Ave","City":"Napa","State":"CA","Zip":"94559"},{"Location":"NAPA TOURIST INFO CTR","Address":"1331 1st St","City":"Napa","State":"CA","Zip":"94559"},{"Location":"NAPA VALLEY PHYSICAL THERAPY","Address":"433 Sofcol Ave B191","City":"Napa","State":"CA","Zip":"94559"},{"Location":"NAPA VALLEY WINE AND CIGAR","Address":"161 Silverado Trl","City":"Napa","State":"CA","Zip":"94559"},{"Location":"NATIVE SONS HALL ASSOCIATION","Address":"937 Coombs St","City":"Napa","State":"CA","Zip":"94559"},{"Location":"NORMAN ROSE TAVERN","Address":"1401 1st St","City":"Napa","State":"CA","Zip":"94559"},{"Location":"PACIFIC GAS AND ELECTRIC","Address":"300 Burnell St","City":"Napa","State":"CA","Zip":"94559"},{"Location":"PAUL HANSON PARTNERS","Address":"1319 1st St","City":"Napa","State":"CA","Zip":"94559"},{"Location":"PAYLESS ELECTRIC SERVICE","Address":"1030 Marina Dr","City":"Napa","State":"CA","Zip":"94559"},{"Location":"PURE CRU WINE EXPERIENCE","Address":"1463 1st St","City":"Napa","State":"CA","Zip":"94559"},{"Location":"REPLAY SPORTS","Address":"923 Randolph St","City":"Napa","State":"CA","Zip":"94559"},{"Location":"RIVER TERRACE (0064965)","Address":"1600 Soscol Ave","City":"Napa","State":"CA","Zip":"94559"},{"Location":"SHIRO JAPANESE CUISINE","Address":"1106 1st St","City":"Napa","State":"CA","Zip":"94559"},{"Location":"SIDESTREET","Address":"760 Main St","City":"Napa","State":"CA","Zip":"94559"},{"Location":"SIMMS INK","Address":"1920 Lernhart St A","City":"Napa","State":"CA","Zip":"94559"},{"Location":"STONE'S SPORTS BAR","Address":"1679 W Imola Ave","City":"Napa","State":"CA","Zip":"94559"},{"Location":"TARGET T-1026","Address":"205 Soscol Ave","City":"Napa","State":"CA","Zip":"94559"},{"Location":"THE CARNEROS INN LLC","Address":"4048 Sonoma Hwy","City":"Napa","State":"CA","Zip":"94559"},{"Location":"THE ORCHARD AT CARNEROS","Address":"4048 Sonoma Hwy","City":"Napa","State":"CA","Zip":"94559"},{"Location":"THE ORCHARD AT CARNEROS #2","Address":"4048 Sonoma Hwy","City":"Napa","State":"CA","Zip":"94559"},{"Location":"THE ORCHARD AT CARNEROS #3","Address":"4300 Old Sonoma Hwy","City":"Napa","State":"CA","Zip":"94559"},{"Location":"THE PEAR","Address":"720 Main St","City":"Napa","State":"CA","Zip":"94559"},{"Location":"VEOLIA TRANSPORTION","Address":"720 Jackson St","City":"Napa","State":"CA","Zip":"94559"},{"Location":"VERMEIL WINES","Address":"1018 1st St","City":"Napa","State":"CA","Zip":"94559"},{"Location":"VINOCE WINEYARDS","Address":"880 Vallejo St","City":"Napa","State":"CA","Zip":"94559"},{"Location":"VINTAGE SWEET SHOPPE","Address":"530 Main St","City":"Napa","State":"CA","Zip":"94559"},{"Location":"WAYNE MITCHELL","Address":"814 3rd St","City":"Napa","State":"CA","Zip":"94559"},{"Location":"WESTIN VERASA(0033222)","Address":"1314 Mckinstry St","City":"Napa","State":"CA","Zip":"94559"}]