[{"Location":"ARDELYX","Address":"34175 Ardenwood Blvd","City":"Fremont","State":"CA","Zip":"94555"},{"Location":"ARDELYX2","Address":"34175 Ardenwood Blvd","City":"Fremont","State":"CA","Zip":"94555"},{"Location":"BESARO MOBILE HOME COMM","Address":"4141 Deep Creek Rd Ofc","City":"Fremont","State":"CA","Zip":"94555"},{"Location":"BOEHRINGER INGELHEIM","Address":"6397 Kaiser Dr","City":"Fremont","State":"CA","Zip":"94555"},{"Location":"CHAT PATTA CORNER","Address":"34751 Ardenwood Blvd","City":"Fremont","State":"CA","Zip":"94555"},{"Location":"CORDIS CORP","Address":"6500 Paseo Padre Pkwy","City":"Fremont","State":"CA","Zip":"94555"},{"Location":"DEVRY UNIVERSITY","Address":"6600 Dumbarton Cir","City":"Fremont","State":"CA","Zip":"94555"},{"Location":"EFI","Address":"6750 Dumbarton Cir","City":"Fremont","State":"CA","Zip":"94555"},{"Location":"HEATHERS CARE HOME","Address":"3279 Langhorn Dr","City":"Fremont","State":"CA","Zip":"94555"},{"Location":"JOHNSON AND JOHNSON","Address":"6500 Paso Padre Parkway","City":"Fremont","State":"CA","Zip":"94555"},{"Location":"KAJIKI SUSHI","Address":"34133 Fremont Blvd","City":"Fremont","State":"CA","Zip":"94555"},{"Location":"ME-N-ED'S PIZZA","Address":"3900 Decoto Rd","City":"Fremont","State":"CA","Zip":"94555"},{"Location":"NET.COM","Address":"6900 Paseo Padre Pkwy","City":"Fremont","State":"CA","Zip":"94555"},{"Location":"PIZZA ITALIA","Address":"34765 Ardenwood Blvd","City":"Fremont","State":"CA","Zip":"94555"},{"Location":"PRIME AIR SOFT","Address":"3910 Lake Arrowhead Ave B","City":"Fremont","State":"CA","Zip":"94555"},{"Location":"SMILE ZONE FAMILY DENTAL","Address":"34743 Ardenwood Blvd","City":"Fremont","State":"CA","Zip":"94555"},{"Location":"SPORTVISION INC","Address":"6657 Kaiser Dr","City":"Fremont","State":"CA","Zip":"94555"},{"Location":"ARDELYX","Address":"34175 Ardenwood Blvd","City":"Fremont","State":"CA","Zip":"94555"},{"Location":"ARDELYX2","Address":"34175 Ardenwood Blvd","City":"Fremont","State":"CA","Zip":"94555"},{"Location":"BESARO MOBILE HOME COMM","Address":"4141 Deep Creek Rd Ofc","City":"Fremont","State":"CA","Zip":"94555"},{"Location":"BOEHRINGER INGELHEIM","Address":"6397 Kaiser Dr","City":"Fremont","State":"CA","Zip":"94555"},{"Location":"CHAT PATTA CORNER","Address":"34751 Ardenwood Blvd","City":"Fremont","State":"CA","Zip":"94555"},{"Location":"CORDIS CORP","Address":"6500 Paseo Padre Pkwy","City":"Fremont","State":"CA","Zip":"94555"},{"Location":"DEVRY UNIVERSITY","Address":"6600 Dumbarton Cir","City":"Fremont","State":"CA","Zip":"94555"},{"Location":"EFI","Address":"6750 Dumbarton Cir","City":"Fremont","State":"CA","Zip":"94555"},{"Location":"HEATHERS CARE HOME","Address":"3279 Langhorn Dr","City":"Fremont","State":"CA","Zip":"94555"},{"Location":"JOHNSON AND JOHNSON","Address":"6500 Paso Padre Parkway","City":"Fremont","State":"CA","Zip":"94555"},{"Location":"KAJIKI SUSHI","Address":"34133 Fremont Blvd","City":"Fremont","State":"CA","Zip":"94555"},{"Location":"ME-N-ED'S PIZZA","Address":"3900 Decoto Rd","City":"Fremont","State":"CA","Zip":"94555"},{"Location":"NET.COM","Address":"6900 Paseo Padre Pkwy","City":"Fremont","State":"CA","Zip":"94555"},{"Location":"PIZZA ITALIA","Address":"34765 Ardenwood Blvd","City":"Fremont","State":"CA","Zip":"94555"},{"Location":"PRIME AIR SOFT","Address":"3910 Lake Arrowhead Ave B","City":"Fremont","State":"CA","Zip":"94555"},{"Location":"SMILE ZONE FAMILY DENTAL","Address":"34743 Ardenwood Blvd","City":"Fremont","State":"CA","Zip":"94555"},{"Location":"SPORTVISION INC","Address":"6657 Kaiser Dr","City":"Fremont","State":"CA","Zip":"94555"}]