[{"Location":"5106699939","Address":"1584 Fitzgerald Dr","City":"Pinole","State":"CA","Zip":"94564"},{"Location":"AMF #518 PINOLE VALLEY","Address":"1580 Pinole Valley Rd","City":"Pinole","State":"CA","Zip":"94564"},{"Location":"ANTLERS TAVERN","Address":"2284 San Pablo Ave","City":"Pinole","State":"CA","Zip":"94564"},{"Location":"APPLEBEE'S PINOLE #2111013","Address":"1369 Fitzgerald Dr","City":"Pinole","State":"CA","Zip":"94564"},{"Location":"C FOOD CONCEPTS INC 882","Address":"1515 Fitzgerald Dr","City":"Pinole","State":"CA","Zip":"94564"},{"Location":"DICKEY'S BBQ","Address":"1473 Fitzgerald Dr 102","City":"Pinole","State":"CA","Zip":"94564"},{"Location":"EMBERS","Address":"600 San Pablo Ave","City":"Pinole","State":"CA","Zip":"94564"},{"Location":"FIRESTONE #240711","Address":"1251 Tara Hills Dr","City":"Pinole","State":"CA","Zip":"94564"},{"Location":"GMWA MINSTRIES INC","Address":"2667 Alice Way","City":"Pinole","State":"CA","Zip":"94564"},{"Location":"GRAY CLIPS STORE 5213","Address":"1386 Fitzgerald Dr","City":"Pinole","State":"CA","Zip":"94564"},{"Location":"HAPPY SASHIMI","Address":"2714 Pinole Valley Rd","City":"Pinole","State":"CA","Zip":"94564"},{"Location":"HOUSE OF BLENDS","Address":"1556 Fitzgerald Dr","City":"Pinole","State":"CA","Zip":"94564"},{"Location":"KING VALLEY TEA HOUSE","Address":"795 Fernandez Ave","City":"Pinole","State":"CA","Zip":"94564"},{"Location":"MARRON CAFE","Address":"701 Belmont Way C","City":"Pinole","State":"CA","Zip":"94564"},{"Location":"MDR Z GHABEN PINOLE INC","Address":"1441 Fitzgerald Dr","City":"Pinole","State":"CA","Zip":"94564"},{"Location":"MOUNTAIN MIKES PIZZA","Address":"1516 Fitzgerald Dr","City":"Pinole","State":"CA","Zip":"94564"},{"Location":"NOSTALGIC SOUL BARBER STUDIO","Address":"624 San Pablo Ave B","City":"Pinole","State":"CA","Zip":"94564"},{"Location":"OUTBACK STEAKHOUSE #0532","Address":"1361 Fitzgerald Dr","City":"Pinole","State":"CA","Zip":"94564"},{"Location":"PETE'S PLACE","Address":"610 San Pablo Ave A","City":"Pinole","State":"CA","Zip":"94564"},{"Location":"PINOLE FIRE DEPARTMENT","Address":"880 Tennent Ave","City":"Pinole","State":"CA","Zip":"94564"},{"Location":"PINOLE SENIOR VILLAGE","Address":"2850 Estates Ave","City":"Pinole","State":"CA","Zip":"94564"},{"Location":"PINOLE SPORTSMAN CLUB","Address":"201 Pinon Ave","City":"Pinole","State":"CA","Zip":"94564"},{"Location":"RISTORANTE DUE ROSE","Address":"1596 Fitzgerald Dr","City":"Pinole","State":"CA","Zip":"94564"},{"Location":"ROUND TABLE PIZZA","Address":"1409 Fitzgerald Dr","City":"Pinole","State":"CA","Zip":"94564"},{"Location":"TAMMY NAIL","Address":"2801 Pinole Valley Rd C","City":"Pinole","State":"CA","Zip":"94564"},{"Location":"TARGET","Address":"1400 Fitzgerald Dr","City":"Pinole","State":"CA","Zip":"94564"},{"Location":"WHEELERS INC","Address":"1481 Tara Hills Dr","City":"Pinole","State":"CA","Zip":"94564"},{"Location":"WYNNS SEAFOOD RESTAURANT","Address":"1569 Tara Hills Dr","City":"Pinole","State":"CA","Zip":"94564"},{"Location":"XCEL CUTS & PERMS SALON","Address":"1508 Fitzgerald Dr","City":"Pinole","State":"CA","Zip":"94564"},{"Location":"5106699939","Address":"1584 Fitzgerald Dr","City":"Pinole","State":"CA","Zip":"94564"},{"Location":"AMF #518 PINOLE VALLEY","Address":"1580 Pinole Valley Rd","City":"Pinole","State":"CA","Zip":"94564"},{"Location":"ANTLERS TAVERN","Address":"2284 San Pablo Ave","City":"Pinole","State":"CA","Zip":"94564"},{"Location":"APPLEBEE'S PINOLE #2111013","Address":"1369 Fitzgerald Dr","City":"Pinole","State":"CA","Zip":"94564"},{"Location":"C FOOD CONCEPTS INC 882","Address":"1515 Fitzgerald Dr","City":"Pinole","State":"CA","Zip":"94564"},{"Location":"DICKEY'S BBQ","Address":"1473 Fitzgerald Dr 102","City":"Pinole","State":"CA","Zip":"94564"},{"Location":"EMBERS","Address":"600 San Pablo Ave","City":"Pinole","State":"CA","Zip":"94564"},{"Location":"FIRESTONE #240711","Address":"1251 Tara Hills Dr","City":"Pinole","State":"CA","Zip":"94564"},{"Location":"GMWA MINSTRIES INC","Address":"2667 Alice Way","City":"Pinole","State":"CA","Zip":"94564"},{"Location":"GRAY CLIPS STORE 5213","Address":"1386 Fitzgerald Dr","City":"Pinole","State":"CA","Zip":"94564"},{"Location":"HAPPY SASHIMI","Address":"2714 Pinole Valley Rd","City":"Pinole","State":"CA","Zip":"94564"},{"Location":"HOUSE OF BLENDS","Address":"1556 Fitzgerald Dr","City":"Pinole","State":"CA","Zip":"94564"},{"Location":"KING VALLEY TEA HOUSE","Address":"795 Fernandez Ave","City":"Pinole","State":"CA","Zip":"94564"},{"Location":"MARRON CAFE","Address":"701 Belmont Way C","City":"Pinole","State":"CA","Zip":"94564"},{"Location":"MDR Z GHABEN PINOLE INC","Address":"1441 Fitzgerald Dr","City":"Pinole","State":"CA","Zip":"94564"},{"Location":"MOUNTAIN MIKES PIZZA","Address":"1516 Fitzgerald Dr","City":"Pinole","State":"CA","Zip":"94564"},{"Location":"NOSTALGIC SOUL BARBER STUDIO","Address":"624 San Pablo Ave B","City":"Pinole","State":"CA","Zip":"94564"},{"Location":"OUTBACK STEAKHOUSE #0532","Address":"1361 Fitzgerald Dr","City":"Pinole","State":"CA","Zip":"94564"},{"Location":"PETE'S PLACE","Address":"610 San Pablo Ave A","City":"Pinole","State":"CA","Zip":"94564"},{"Location":"PINOLE FIRE DEPARTMENT","Address":"880 Tennent Ave","City":"Pinole","State":"CA","Zip":"94564"},{"Location":"PINOLE SENIOR VILLAGE","Address":"2850 Estates Ave","City":"Pinole","State":"CA","Zip":"94564"},{"Location":"PINOLE SPORTSMAN CLUB","Address":"201 Pinon Ave","City":"Pinole","State":"CA","Zip":"94564"},{"Location":"RISTORANTE DUE ROSE","Address":"1596 Fitzgerald Dr","City":"Pinole","State":"CA","Zip":"94564"},{"Location":"ROUND TABLE PIZZA","Address":"1409 Fitzgerald Dr","City":"Pinole","State":"CA","Zip":"94564"},{"Location":"TAMMY NAIL","Address":"2801 Pinole Valley Rd C","City":"Pinole","State":"CA","Zip":"94564"},{"Location":"TARGET","Address":"1400 Fitzgerald Dr","City":"Pinole","State":"CA","Zip":"94564"},{"Location":"WHEELERS INC","Address":"1481 Tara Hills Dr","City":"Pinole","State":"CA","Zip":"94564"},{"Location":"WYNNS SEAFOOD RESTAURANT","Address":"1569 Tara Hills Dr","City":"Pinole","State":"CA","Zip":"94564"},{"Location":"XCEL CUTS & PERMS SALON","Address":"1508 Fitzgerald Dr","City":"Pinole","State":"CA","Zip":"94564"}]