[{"Location":"FUTO WINES","Address":"1575 Oakville Grade","City":"Oakville","State":"CA","Zip":"94562"},{"Location":"HARLAN ESTATE","Address":"1567 Oakville Grade","City":"Oakville","State":"CA","Zip":"94562"},{"Location":"NAPA WINE COMPANY","Address":"1181 Oakville Crossroads","City":"Oakville","State":"CA","Zip":"94562"},{"Location":"RUDD WINERY","Address":"500 Oakville Crossroad","City":"Oakville","State":"CA","Zip":"94562"},{"Location":"SILVER OAK CELLAR","Address":"915 Oakville Crossroad H","City":"Oakville","State":"CA","Zip":"94562"},{"Location":"FUTO WINES","Address":"1575 Oakville Grade","City":"Oakville","State":"CA","Zip":"94562"},{"Location":"HARLAN ESTATE","Address":"1567 Oakville Grade","City":"Oakville","State":"CA","Zip":"94562"},{"Location":"NAPA WINE COMPANY","Address":"1181 Oakville Crossroads","City":"Oakville","State":"CA","Zip":"94562"},{"Location":"RUDD WINERY","Address":"500 Oakville Crossroad","City":"Oakville","State":"CA","Zip":"94562"},{"Location":"SILVER OAK CELLAR","Address":"915 Oakville Crossroad H","City":"Oakville","State":"CA","Zip":"94562"}]