[{"Location":"24 HOUR FITNESS #546","Address":"5234 Newpark Mall Rd","City":"Newark","State":"CA","Zip":"94560"},{"Location":"APPLE INC","Address":"39800 Eureka Dr","City":"Newark","State":"CA","Zip":"94560"},{"Location":"APPLE INC.","Address":"39745 Eureka Dr","City":"Newark","State":"CA","Zip":"94560"},{"Location":"ARTEAGAS FOOD CENTER","Address":"5510 Thornton Ave","City":"Newark","State":"CA","Zip":"94560"},{"Location":"BABY LOBSTER","Address":"5855c Jarvis Ave","City":"Newark","State":"CA","Zip":"94560"},{"Location":"BECKS STEAK AND SEAFOOD","Address":"36665 Cedar Blvd","City":"Newark","State":"CA","Zip":"94560"},{"Location":"BJS RESTAURANT #484","Address":"5699 Mowry Ave","City":"Newark","State":"CA","Zip":"94560"},{"Location":"BLU SKY  INC.","Address":"6347 Jarvis Ave","City":"Newark","State":"CA","Zip":"94560"},{"Location":"BOONIE PEPPER","Address":"6180 Jarvis Ave","City":"Newark","State":"CA","Zip":"94560"},{"Location":"CAMPANELLA RESTAURANT","Address":"34903 Newark Blvd","City":"Newark","State":"CA","Zip":"94560"},{"Location":"CLASSICS BARBERSHOP","Address":"7183 Rich Ave","City":"Newark","State":"CA","Zip":"94560"},{"Location":"COM TAM THANH RES","Address":"5733 Stevenson Blvd","City":"Newark","State":"CA","Zip":"94560"},{"Location":"CON FORM LUMBER","Address":"6815 Central Ave","City":"Newark","State":"CA","Zip":"94560"},{"Location":"CRUISE AMERICA","Address":"5623 John Muir Dr","City":"Newark","State":"CA","Zip":"94560"},{"Location":"DJ BALLING CONSTRUCTION","Address":"37530 Enterprise Ct 1","City":"Newark","State":"CA","Zip":"94560"},{"Location":"ELMER DE LEON DDS INC","Address":"5944 Newpark Plz","City":"Newark","State":"CA","Zip":"94560"},{"Location":"ESSENCE OF IT","Address":"5409 Central Ave 14","City":"Newark","State":"CA","Zip":"94560"},{"Location":"EXTREME PIZZA","Address":"5829 Jarvis Ave A","City":"Newark","State":"CA","Zip":"94560"},{"Location":"FANZZ NEWPARK MALL","Address":"1081 Newpark Mall","City":"Newark","State":"CA","Zip":"94560"},{"Location":"FEDEX GROUND","Address":"8333 Central Ave","City":"Newark","State":"CA","Zip":"94560"},{"Location":"FIRESTONE #015458","Address":"5795 Mowry Ave","City":"Newark","State":"CA","Zip":"94560"},{"Location":"FIRESTONE #240721","Address":"35382 Newark Blvd","City":"Newark","State":"CA","Zip":"94560"},{"Location":"FMC 10360000","Address":"37478 Cedar Blvd A","City":"Newark","State":"CA","Zip":"94560"},{"Location":"FREEMONT DODGE","Address":"39639 Balentine Dr","City":"Newark","State":"CA","Zip":"94560"},{"Location":"FREMONT FORD","Address":"39700 Valentine Dr","City":"Newark","State":"CA","Zip":"94560"},{"Location":"FREMONT MAZDA","Address":"39800 Balentine Dr","City":"Newark","State":"CA","Zip":"94560"},{"Location":"GILLCO HOLDING%2C LLC","Address":"36601 Newark Blvd 12","City":"Newark","State":"CA","Zip":"94560"},{"Location":"GOLDEN STATE LUMBER","Address":"38801 Cherry St","City":"Newark","State":"CA","Zip":"94560"},{"Location":"GUBERAS' PUB","Address":"5810 Jarvis Ave","City":"Newark","State":"CA","Zip":"94560"},{"Location":"HI SEOUL KOREAN BBQ & NOODLES","Address":"1096 Newpark Mall","City":"Newark","State":"CA","Zip":"94560"},{"Location":"INTER TECHNOLOGIES","Address":"3811 Cherry St","City":"Newark","State":"CA","Zip":"94560"},{"Location":"JANSSENS PLACE AUTO BODY","Address":"7855 Enterprise Dr","City":"Newark","State":"CA","Zip":"94560"},{"Location":"KENT LANDSBERG CO","Address":"8311 Central Ave","City":"Newark","State":"CA","Zip":"94560"},{"Location":"KOA FITNESS","Address":"5757 Stevenson Blvd","City":"Newark","State":"CA","Zip":"94560"},{"Location":"LA HUASTECA CHIQUITA","Address":"7673 Thornton Ave","City":"Newark","State":"CA","Zip":"94560"},{"Location":"LAKESHORE FAMILY DENTAL","Address":"35111 Newark Blvd A","City":"Newark","State":"CA","Zip":"94560"},{"Location":"LASER TAGGING INC.","Address":"5759 Stevenson Blvd","City":"Newark","State":"CA","Zip":"94560"},{"Location":"LOGITECH INC","Address":"7700 Gateway Blvd","City":"Newark","State":"CA","Zip":"94560"},{"Location":"MACY'S WEST 336","Address":"200 Newpark Mall","City":"Newark","State":"CA","Zip":"94560"},{"Location":"MY CAFE","Address":"5475 Thornton Ave","City":"Newark","State":"CA","Zip":"94560"},{"Location":"MY THO RESTAURANT","Address":"39127 Cedar Blvd","City":"Newark","State":"CA","Zip":"94560"},{"Location":"MYANMAR","Address":"5450 Newpark Plz","City":"Newark","State":"CA","Zip":"94560"},{"Location":"NEWARK BUFFET1","Address":"35201 Newark Blvd W","City":"Newark","State":"CA","Zip":"94560"},{"Location":"NEWARK PORTUGUESE SPORT CLUB","Address":"7355 Thornton Ave","City":"Newark","State":"CA","Zip":"94560"},{"Location":"NIJO CASTLE JAPANESE RES","Address":"39888 Balentine Dr","City":"Newark","State":"CA","Zip":"94560"},{"Location":"NORDSTROM #499","Address":"37599 Filbert St","City":"Newark","State":"CA","Zip":"94560"},{"Location":"OATEY","Address":"6600 Smith Ave","City":"Newark","State":"CA","Zip":"94560"},{"Location":"OSULLIVANS SPORTS BAR","Address":"5660 Thornton Ave","City":"Newark","State":"CA","Zip":"94560"},{"Location":"PACIFIC BAY DENTAL OFFIC","Address":"35201 Newark Blvd E","City":"Newark","State":"CA","Zip":"94560"},{"Location":"PARAMEDICS PLUS","Address":"38505 Cherry St","City":"Newark","State":"CA","Zip":"94560"},{"Location":"POPEYES","Address":"35193 Newark Blvd","City":"Newark","State":"CA","Zip":"94560"},{"Location":"PREMIER FIAT OF FREEMONT","Address":"5633 John Muir Dr","City":"Newark","State":"CA","Zip":"94560"},{"Location":"PUPUSERIA Y TAQUERIA RO","Address":"7036 Thornton Ave","City":"Newark","State":"CA","Zip":"94560"},{"Location":"QUALITY QUARTS ENGEENERI","Address":"8484 Central Ave","City":"Newark","State":"CA","Zip":"94560"},{"Location":"REVANCE THERAPEUTICS","Address":"7555 Gateway Blvd","City":"Newark","State":"CA","Zip":"94560"},{"Location":"RISK MANAGEMENT SOLUTIONS INC","Address":"7015 Gateway Blvd","City":"Newark","State":"CA","Zip":"94560"},{"Location":"ROY THOMAS CONSTRUCTION","Address":"37068 Walnut St","City":"Newark","State":"CA","Zip":"94560"},{"Location":"S CORPORATION","Address":"6259 Jarvis Ave","City":"Newark","State":"CA","Zip":"94560"},{"Location":"S J COFFEE SHOP","Address":"5409 Central Ave 15","City":"Newark","State":"CA","Zip":"94560"},{"Location":"SAIGON NOODLE AND GRILL","Address":"6180 Jarvis Ave T","City":"Newark","State":"CA","Zip":"94560"},{"Location":"SIA FUSION EATERY","Address":"39263 Cedar Blvd","City":"Newark","State":"CA","Zip":"94560"},{"Location":"SILVER CREEK FITNESS INC","Address":"5600 John Muir Dr","City":"Newark","State":"CA","Zip":"94560"},{"Location":"THE MENLOW PARK SCHUTZHUND CLU","Address":"37301 Hickory St","City":"Newark","State":"CA","Zip":"94560"},{"Location":"THE MOOSE LODGE","Address":"6940 Rich Ave","City":"Newark","State":"CA","Zip":"94560"},{"Location":"W SILICON VALLEY (0045941)","Address":"8200 Gateway Blvd","City":"Newark","State":"CA","Zip":"94560"},{"Location":"WINGSTOP LLC","Address":"35030 Newark Blvd","City":"Newark","State":"CA","Zip":"94560"},{"Location":"YZON NAILS AND SPA CORP","Address":"5458 Newpark Plz","City":"Newark","State":"CA","Zip":"94560"}]