[{"Location":"ADVANTAGE SALES AND MARKETING","Address":"6700 Koll Center Pkwy 300","City":"Pleasanton","State":"CA","Zip":"94566"},{"Location":"ALAMEDA COUNTY DISTRICT 1","Address":"4501 Pleasanton Ave","City":"Pleasanton","State":"CA","Zip":"94566"},{"Location":"ALAMEDA COUNTY FAIR","Address":"4501 Pleasanton Ave","City":"Pleasanton","State":"CA","Zip":"94566"},{"Location":"ALBERTOS CANTINA PLEASANTON","Address":"435 Main St","City":"Pleasanton","State":"CA","Zip":"94566"},{"Location":"ANYTIME FITNESS","Address":"3500 Bernal Ave 110","City":"Pleasanton","State":"CA","Zip":"94566"},{"Location":"APPLIED  BIOSYSTEM","Address":"6065 Sunol Blvd","City":"Pleasanton","State":"CA","Zip":"94566"},{"Location":"ATA RETAIL","Address":"7133 Koll Center Pkwy","City":"Pleasanton","State":"CA","Zip":"94566"},{"Location":"BACI BISTRO & BAR","Address":"500 Main St","City":"Pleasanton","State":"CA","Zip":"94566"},{"Location":"BAY AREA INDOOR GOLF INC","Address":"3170 Santa Rita Rd 38","City":"Pleasanton","State":"CA","Zip":"94566"},{"Location":"BENESYS ADMINISTRATORS","Address":"7180 Koll Center Pkwy 200","City":"Pleasanton","State":"CA","Zip":"94566"},{"Location":"BERNAL DENTAL CARE","Address":"3283 Bernal Ave 108","City":"Pleasanton","State":"CA","Zip":"94566"},{"Location":"BLUELINE ASSOCIATES","Address":"7011 Koll Center Pkwy 150","City":"Pleasanton","State":"CA","Zip":"94566"},{"Location":"CAFE MAIN","Address":"401 Main St","City":"Pleasanton","State":"CA","Zip":"94566"},{"Location":"CALIFORNIA DENT WORKS","Address":"57 California Ave H","City":"Pleasanton","State":"CA","Zip":"94566"},{"Location":"CALLIPPE PRESERVE GOLF","Address":"8500 Club House Dr","City":"Pleasanton","State":"CA","Zip":"94566"},{"Location":"CASTLEWOOD COUNTRY CLUB","Address":"707 Country Club Cir","City":"Pleasanton","State":"CA","Zip":"94566"},{"Location":"CASTLEWOOD COUNTRY CLUB1","Address":"707 Country Club Cir","City":"Pleasanton","State":"CA","Zip":"94566"},{"Location":"COCINA MEXICO","Address":"55 W Angela St 110","City":"Pleasanton","State":"CA","Zip":"94566"},{"Location":"CORNER BAKERY","Address":"6770 Bernal Ave 450","City":"Pleasanton","State":"CA","Zip":"94566"},{"Location":"DEER RIDGE MANAGEMENT","Address":"3767 Vineyard Ave 22","City":"Pleasanton","State":"CA","Zip":"94566"},{"Location":"DRIFT","Address":"711 Main St","City":"Pleasanton","State":"CA","Zip":"94566"},{"Location":"DWMORGAN","Address":"7021 Koll Center Pkwy","City":"Pleasanton","State":"CA","Zip":"94566"},{"Location":"FIRST REPUBLIC BANK","Address":"249 Main St","City":"Pleasanton","State":"CA","Zip":"94566"},{"Location":"GOLD CHOPSTICKS","Address":"3170 Santa Rita Rd A11","City":"Pleasanton","State":"CA","Zip":"94566"},{"Location":"HANABI SUSHI RESTAURANT","Address":"927 Main St A","City":"Pleasanton","State":"CA","Zip":"94566"},{"Location":"HANDLES","Address":"855 Main St","City":"Pleasanton","State":"CA","Zip":"94566"},{"Location":"HAPS ORIGINAL","Address":"122 W Neal St","City":"Pleasanton","State":"CA","Zip":"94566"},{"Location":"HPM NETWORKS","Address":"6700 Koll Center Pkwy","City":"Pleasanton","State":"CA","Zip":"94566"},{"Location":"KAKI SUSHI","Address":"3120 Santa Rita Rd","City":"Pleasanton","State":"CA","Zip":"94566"},{"Location":"KOKORO SUSHI","Address":"3500 Bernal Ave 130","City":"Pleasanton","State":"CA","Zip":"94566"},{"Location":"KOLL CENTER DENTAL","Address":"6654 Koll Center Pkwy 350","City":"Pleasanton","State":"CA","Zip":"94566"},{"Location":"LIVERMORE PLEASANTON FD","Address":"3560 Nevada St","City":"Pleasanton","State":"CA","Zip":"94566"},{"Location":"LMA PRODUCTION","Address":"1067 Serpentine Ln","City":"Pleasanton","State":"CA","Zip":"94566"},{"Location":"MANGIA MI","Address":"234 Main St B","City":"Pleasanton","State":"CA","Zip":"94566"},{"Location":"MASONRY SERVICES%2CINC","Address":"1500 Rose Ave","City":"Pleasanton","State":"CA","Zip":"94566"},{"Location":"MEIKO RESTAURANT","Address":"4301 Valley Ave Steb","City":"Pleasanton","State":"CA","Zip":"94566"},{"Location":"MEXICO LINDO RESTAURANT","Address":"6690 Koll Center Pkwy","City":"Pleasanton","State":"CA","Zip":"94566"},{"Location":"MISSION EXPERT NAIL","Address":"1991 Santa Rita Rd D","City":"Pleasanton","State":"CA","Zip":"94566"},{"Location":"MOUNTAIN MIKES","Address":"3120 Santa Rita Rd Steh","City":"Pleasanton","State":"CA","Zip":"94566"},{"Location":"NORMS BARBERSHOP","Address":"164 Main St B","City":"Pleasanton","State":"CA","Zip":"94566"},{"Location":"OHANA HAWAIIAN BBQ","Address":"5410 Sunol Blvd 3","City":"Pleasanton","State":"CA","Zip":"94566"},{"Location":"PACIFIC CONVENIENCE & FUELS","Address":"7180 Koll Center Pkwy 100","City":"Pleasanton","State":"CA","Zip":"94566"},{"Location":"PACIFIC DENTAL #280","Address":"6766 Bernal Ave","City":"Pleasanton","State":"CA","Zip":"94566"},{"Location":"REDCOATS","Address":"336 Saint Mary St","City":"Pleasanton","State":"CA","Zip":"94566"},{"Location":"RIMINI STREET INC.","Address":"6601 Koll Center Pkwy 300","City":"Pleasanton","State":"CA","Zip":"94566"},{"Location":"RYNCK","Address":"3420 Stanley Blvd","City":"Pleasanton","State":"CA","Zip":"94566"},{"Location":"SALON SAAVY","Address":"347 Division St","City":"Pleasanton","State":"CA","Zip":"94566"},{"Location":"SCI-FIT","Address":"3283 Bernal Ave 105","City":"Pleasanton","State":"CA","Zip":"94566"},{"Location":"SENRO SUSHI","Address":"30 W Neal St 110","City":"Pleasanton","State":"CA","Zip":"94566"},{"Location":"SHARP BUSINESS SYSTEMS","Address":"470 Boulder Ct","City":"Pleasanton","State":"CA","Zip":"94566"},{"Location":"SPORT CLIPS CA816","Address":"6754 Bernal Ave 750","City":"Pleasanton","State":"CA","Zip":"94566"},{"Location":"STRIZZI'S RESTAURANT","Address":"649 Main St","City":"Pleasanton","State":"CA","Zip":"94566"},{"Location":"SUNSHINE SALOON","Address":"1807 Santa Rita Rd K","City":"Pleasanton","State":"CA","Zip":"94566"},{"Location":"WASTE XPERTS INCORPORATE","Address":"440 Boulder Ct 200","City":"Pleasanton","State":"CA","Zip":"94566"},{"Location":"ZEN POTION INC","Address":"90 Mission Dr Ste 2","City":"Pleasanton","State":"CA","Zip":"94566"}]