[{"Location":"ASCEND CAPITAL","Address":"4 Orinda Way 200c","City":"Orinda","State":"CA","Zip":"94563"},{"Location":"BARBACOA","Address":"2 Orinda Theatre Square #145","City":"Orinda","State":"CA","Zip":"94563"},{"Location":"CJB CAPITAL","Address":"4 Orinda Way 240b","City":"Orinda","State":"CA","Zip":"94563"},{"Location":"EDWARD JANG DDS","Address":"1 Santa Maria Way","City":"Orinda","State":"CA","Zip":"94563"},{"Location":"FIRST REPUBLIC BANK","Address":"224 Brookwood Rd","City":"Orinda","State":"CA","Zip":"94563"},{"Location":"MORGAN STANLEY 100296","Address":"2 Theatre Sq 322","City":"Orinda","State":"CA","Zip":"94563"},{"Location":"PENSERRA SECURITIES 2","Address":"4 Orinda Way 100a","City":"Orinda","State":"CA","Zip":"94563"},{"Location":"RPM MORTAGE","Address":"51 Moraga Way","City":"Orinda","State":"CA","Zip":"94563"},{"Location":"RPM MORTGAGE","Address":"51 Moraga Way 8","City":"Orinda","State":"CA","Zip":"94563"},{"Location":"RPM MTG INC","Address":"51 Moraga Way","City":"Orinda","State":"CA","Zip":"94563"},{"Location":"SIAM ORCHID","Address":"23 Orinda Way F","City":"Orinda","State":"CA","Zip":"94563"},{"Location":"SUSHI ISLAND","Address":"19 Moraga Way","City":"Orinda","State":"CA","Zip":"94563"},{"Location":"TABLE 24","Address":"2 Theatre Sq 15","City":"Orinda","State":"CA","Zip":"94563"},{"Location":"VII PEAKS CAPITAL LLP","Address":"4 Orinda Way 125a","City":"Orinda","State":"CA","Zip":"94563"},{"Location":"VILLAGE PIZZA","Address":"19 Orinda Way A","City":"Orinda","State":"CA","Zip":"94563"},{"Location":"ASCEND CAPITAL","Address":"4 Orinda Way 200c","City":"Orinda","State":"CA","Zip":"94563"},{"Location":"CJB CAPITAL","Address":"4 Orinda Way 240b","City":"Orinda","State":"CA","Zip":"94563"},{"Location":"EDWARD JANG DDS","Address":"1 Santa Maria Way","City":"Orinda","State":"CA","Zip":"94563"},{"Location":"FIRST REPUBLIC BANK","Address":"224 Brookwood Rd","City":"Orinda","State":"CA","Zip":"94563"},{"Location":"MORGAN STANLEY 100296","Address":"2 Theatre Sq 322","City":"Orinda","State":"CA","Zip":"94563"},{"Location":"PENSERRA SECURITIES 2","Address":"4 Orinda Way 100a","City":"Orinda","State":"CA","Zip":"94563"},{"Location":"RPM MORTAGE","Address":"51 Moraga Way","City":"Orinda","State":"CA","Zip":"94563"},{"Location":"RPM MORTGAGE","Address":"51 Moraga Way 8","City":"Orinda","State":"CA","Zip":"94563"},{"Location":"RPM MTG INC","Address":"51 Moraga Way","City":"Orinda","State":"CA","Zip":"94563"},{"Location":"SIAM ORCHID","Address":"23 Orinda Way F","City":"Orinda","State":"CA","Zip":"94563"},{"Location":"SUSHI ISLAND","Address":"19 Moraga Way","City":"Orinda","State":"CA","Zip":"94563"},{"Location":"TABLE 24","Address":"2 Theatre Sq 15","City":"Orinda","State":"CA","Zip":"94563"},{"Location":"VII PEAKS CAPITAL LLP","Address":"4 Orinda Way 125a","City":"Orinda","State":"CA","Zip":"94563"},{"Location":"VILLAGE PIZZA","Address":"19 Orinda Way A","City":"Orinda","State":"CA","Zip":"94563"}]