[{"Location":"BANK CLUB","Address":"2344 Willow Pass Rd","City":"Bay Point","State":"CA","Zip":"94565"},{"Location":"BAYPOINT BARBERSHOP","Address":"636 Port Chicago Hwy","City":"Bay Point","State":"CA","Zip":"94565"},{"Location":"BEAUTY SUPPLY SALON","Address":"556 Bailey Rd","City":"Bay Point","State":"CA","Zip":"94565"},{"Location":"CORTLAND UPHOLSTERY","Address":"478 Kim St","City":"Bay Point","State":"CA","Zip":"94565"},{"Location":"LA FINCA RESTAURANT","Address":"706 Port Chicago Hwy","City":"Bay Point","State":"CA","Zip":"94565"},{"Location":"LAUNDERETTE","Address":"209 Port Chicago Hwy","City":"Bay Point","State":"CA","Zip":"94565"},{"Location":"LOS REYES MEXICAN FOOD","Address":"3355 Willow Pass Rd","City":"Bay Point","State":"CA","Zip":"94565"},{"Location":"LUCKY NAILS","Address":"564 Bailey Rd","City":"Bay Point","State":"CA","Zip":"94565"},{"Location":"SUPER TACO","Address":"205 Port Chicago Hwy","City":"Bay Point","State":"CA","Zip":"94565"},{"Location":"ARB INC","Address":"1875 Loveridge Rd","City":"Pittsburg","State":"CA","Zip":"94565"},{"Location":"Atlantic Nails Salon","Address":"151 Atlantic Ave","City":"Pittsburg","State":"CA","Zip":"94565"},{"Location":"AZTECA STONE WORKS INC","Address":"555 Clark Ave","City":"Pittsburg","State":"CA","Zip":"94565"},{"Location":"BARBERIA LAS AMERICAS","Address":"4291 Century Blvd","City":"Pittsburg","State":"CA","Zip":"94565"},{"Location":"BELTRAY INC","Address":"3800 Century Ct","City":"Pittsburg","State":"CA","Zip":"94565"},{"Location":"BIG O TIRES","Address":"1500 N Park Blvd","City":"Pittsburg","State":"CA","Zip":"94565"},{"Location":"BISHOP WISECARVER CORP","Address":"2104 Martin Way","City":"Pittsburg","State":"CA","Zip":"94565"},{"Location":"BRAVOS PIZZA","Address":"2961 Railroad Ave","City":"Pittsburg","State":"CA","Zip":"94565"},{"Location":"BUSH MOTOR WORKS","Address":"650 Garcia Ave 2","City":"Pittsburg","State":"CA","Zip":"94565"},{"Location":"CAFE PICA DELI","Address":"1005 Center Dr","City":"Pittsburg","State":"CA","Zip":"94565"},{"Location":"CALIFORNIA CULINARY CONC","Address":"2227 Railroad Ave","City":"Pittsburg","State":"CA","Zip":"94565"},{"Location":"CEMCO COMPANY INC 1","Address":"1001 Pittsburg Antioch Hwy","City":"Pittsburg","State":"CA","Zip":"94565"},{"Location":"CHEVRON - CVN 000052","Address":"2360 Buchanan Rd","City":"Pittsburg","State":"CA","Zip":"94565"},{"Location":"CHILI'S #1181","Address":"4330 Century Blvd","City":"Pittsburg","State":"CA","Zip":"94565"},{"Location":"DAD'S BBQ","Address":"785 Railroad Ave","City":"Pittsburg","State":"CA","Zip":"94565"},{"Location":"FAT TIRES","Address":"2172 Piedmont Way","City":"Pittsburg","State":"CA","Zip":"94565"},{"Location":"FERGUSON #687","Address":"2112 Loveridge Rd","City":"Pittsburg","State":"CA","Zip":"94565"},{"Location":"G AND K SERVICE","Address":"1229 California Ave","City":"Pittsburg","State":"CA","Zip":"94565"},{"Location":"HALL OF FAME SPORTS BAR","Address":"610 Railroad Ave","City":"Pittsburg","State":"CA","Zip":"94565"},{"Location":"HILDA REVIS","Address":"3790 Railroad Ave","City":"Pittsburg","State":"CA","Zip":"94565"},{"Location":"IN SHAPE CLUBS PITTSBURGH","Address":"4300 Delta Gateway Blvd","City":"Pittsburg","State":"CA","Zip":"94565"},{"Location":"JOSEPH TREZZA E OD","Address":"130 E Leland Rd A","City":"Pittsburg","State":"CA","Zip":"94565"},{"Location":"JOSIE VAN FLEET","Address":"671 Willow Pass Rd 6","City":"Pittsburg","State":"CA","Zip":"94565"},{"Location":"LA PINATA","Address":"95 Bliss Ave","City":"Pittsburg","State":"CA","Zip":"94565"},{"Location":"LA VERANDA","Address":"444 Railroad Ave","City":"Pittsburg","State":"CA","Zip":"94565"},{"Location":"LUMPYS DINER","Address":"615 Railroad Ave","City":"Pittsburg","State":"CA","Zip":"94565"},{"Location":"MENS SUIT OUTLET","Address":"4521 Century Blvd","City":"Pittsburg","State":"CA","Zip":"94565"},{"Location":"MY BEAUTY SALON","Address":"777 Railroad Ave","City":"Pittsburg","State":"CA","Zip":"94565"},{"Location":"MY NAIL AND SPA","Address":"4401 Century Blvd","City":"Pittsburg","State":"CA","Zip":"94565"},{"Location":"NAILS BY LEE","Address":"2283 Railroad Ave","City":"Pittsburg","State":"CA","Zip":"94565"},{"Location":"NEW MECCA CAFE","Address":"324 Railroad Ave","City":"Pittsburg","State":"CA","Zip":"94565"},{"Location":"NRG ENERGY","Address":"696 W 10th St","City":"Pittsburg","State":"CA","Zip":"94565"},{"Location":"ORENO RESTAURANT","Address":"196 Atlantic Ave","City":"Pittsburg","State":"CA","Zip":"94565"},{"Location":"ORIENTAL FOODS MARKET","Address":"155 Atlantic Ave","City":"Pittsburg","State":"CA","Zip":"94565"},{"Location":"PINEDAS SPORTS BAR","Address":"673 Cumberland St","City":"Pittsburg","State":"CA","Zip":"94565"},{"Location":"RAYMOND DORROUGH DSS","Address":"3105 Railroad Ave","City":"Pittsburg","State":"CA","Zip":"94565"},{"Location":"RED LOBSTER #0653","Address":"4095 Century Blvd","City":"Pittsburg","State":"CA","Zip":"94565"},{"Location":"RESTAURANTE MI SALVADOR","Address":"2909 Railroad Ave","City":"Pittsburg","State":"CA","Zip":"94565"},{"Location":"ROD CRAIN INSURANCE AGEN","Address":"2271 Railroad Ave","City":"Pittsburg","State":"CA","Zip":"94565"},{"Location":"ROUND TABLE PIZZA #171","Address":"1331 Buchanan Rd","City":"Pittsburg","State":"CA","Zip":"94565"},{"Location":"ROUND TABLE PIZZA #708","Address":"408 Bailey Rd","City":"Pittsburg","State":"CA","Zip":"94565"},{"Location":"SAMURAI X","Address":"2171 Loveridge Rd","City":"Pittsburg","State":"CA","Zip":"94565"},{"Location":"SKORZ SPORTS BAR","Address":"3742 Railroad Ave","City":"Pittsburg","State":"CA","Zip":"94565"},{"Location":"ST CLAIRE CIGARS","Address":"64 E 4th St","City":"Pittsburg","State":"CA","Zip":"94565"},{"Location":"STS ACADEMY","Address":"60 Civic Ave","City":"Pittsburg","State":"CA","Zip":"94565"},{"Location":"TARGET","Address":"4301 Century Blvd","City":"Pittsburg","State":"CA","Zip":"94565"},{"Location":"THE DOW CHEMICAL COMPANY","Address":"901 Loveridge Rd","City":"Pittsburg","State":"CA","Zip":"94565"},{"Location":"WARREN MCCREE SR ELKS LOGDE","Address":"460 E 10th St","City":"Pittsburg","State":"CA","Zip":"94565"},{"Location":"WINGSTOP 316","Address":"4406 Century Blvd","City":"Pittsburg","State":"CA","Zip":"94565"}]