[{"Location":"ALAMEDA CNTY BOMB SQUAD","Address":"4985 Broder Blvd","City":"Dublin","State":"CA","Zip":"94568"},{"Location":"ALAMEDA COUNTY - OES","Address":"4985 Broder Blvd","City":"Dublin","State":"CA","Zip":"94568"},{"Location":"ALAMEDA COUNTY SHERIFF SANTA","Address":"5325 Broder Blvd","City":"Dublin","State":"CA","Zip":"94568"},{"Location":"ALL SMOGS TEST ONLY CENTER INC","Address":"7034 Village Pkwy","City":"Dublin","State":"CA","Zip":"94568"},{"Location":"ALL TECH MACHINE","Address":"6355 Scarlett Ct","City":"Dublin","State":"CA","Zip":"94568"},{"Location":"AMADOR KARAOKE","Address":"7727 Amador Valley Blvd","City":"Dublin","State":"CA","Zip":"94568"},{"Location":"AMAKARA","Address":"7222 Regional St","City":"Dublin","State":"CA","Zip":"94568"},{"Location":"AMS ELECTRIC","Address":"6905 Sierra Ct","City":"Dublin","State":"CA","Zip":"94568"},{"Location":"APPLEBEE'S DUBLIN #2111020","Address":"4808 Dublin Blvd","City":"Dublin","State":"CA","Zip":"94568"},{"Location":"ARMADILLO WILLYS BBQ","Address":"4480 Tassajara Rd C","City":"Dublin","State":"CA","Zip":"94568"},{"Location":"B & S HACIENDA","Address":"5787 Scarlett Ct","City":"Dublin","State":"CA","Zip":"94568"},{"Location":"B AND K AUTO GROUP","Address":"5947 Dougherty Rd","City":"Dublin","State":"CA","Zip":"94568"},{"Location":"BARONS JEWELERS","Address":"4870 Dublin Blvd","City":"Dublin","State":"CA","Zip":"94568"},{"Location":"BJ'S RESTAURANTS #524","Address":"3620 Fallon Rd","City":"Dublin","State":"CA","Zip":"94568"},{"Location":"BOX WORLD SHIPPING CENTER","Address":"7022 Village Pkwy","City":"Dublin","State":"CA","Zip":"94568"},{"Location":"BUFFALO WILD WINGS #3436","Address":"3712 Dublin Blvd","City":"Dublin","State":"CA","Zip":"94568"},{"Location":"BUREAU OF ALCOHOL TOBACCO","Address":"5601 Arnold Rd 400","City":"Dublin","State":"CA","Zip":"94568"},{"Location":"BURKHARDT","Address":"4590 Dublin Blvd","City":"Dublin","State":"CA","Zip":"94568"},{"Location":"CALIFORNIA HWY PATROL - DUBLIN","Address":"4999 Gleason Dr Jim","City":"Dublin","State":"CA","Zip":"94568"},{"Location":"CALLIDUS CLOUDS","Address":"4140 Dublin Blvd 4fl","City":"Dublin","State":"CA","Zip":"94568"},{"Location":"CAMP PARKS","Address":"620 6th Street","City":"Dublin","State":"CA","Zip":"94568"},{"Location":"CERTIFIEDS TIRES SERVICES","Address":"6028 Dougherty Rd","City":"Dublin","State":"CA","Zip":"94568"},{"Location":"COMBATS SPORTS ACADEMY","Address":"6207 Sierra Ct","City":"Dublin","State":"CA","Zip":"94568"},{"Location":"DENICA'S","Address":"6058 Dougherty Rd","City":"Dublin","State":"CA","Zip":"94568"},{"Location":"DICK'S SPORTING GOODS #1071","Address":"2820 Dublin Blvd","City":"Dublin","State":"CA","Zip":"94568"},{"Location":"DUBLIN AUTOWORKS","Address":"6351 Dublin Blvd","City":"Dublin","State":"CA","Zip":"94568"},{"Location":"DUBLIN HONDA","Address":"6300 Dublin Blvd","City":"Dublin","State":"CA","Zip":"94568"},{"Location":"DUBLIN HYUNDAI","Address":"6450 Dublin Ct","City":"Dublin","State":"CA","Zip":"94568"},{"Location":"DUBLIN ICELAND","Address":"7212 San Ramon Rd","City":"Dublin","State":"CA","Zip":"94568"},{"Location":"DUBLIN NAILS","Address":"7131 Dublin Blvd","City":"Dublin","State":"CA","Zip":"94568"},{"Location":"DUBLIN NISSAN","Address":"6363 Scarlett Ct","City":"Dublin","State":"CA","Zip":"94568"},{"Location":"DUBLIN RANCH SENIOR APTS","Address":"3115 Finnian Way","City":"Dublin","State":"CA","Zip":"94568"},{"Location":"DUBLIN TOYOTA INC","Address":"4321 Toyota Dr","City":"Dublin","State":"CA","Zip":"94568"},{"Location":"DUBLIN TOYOTA LLC","Address":"6430 Dublin Ct","City":"Dublin","State":"CA","Zip":"94568"},{"Location":"EARL ANTHONY'S BOWL","Address":"6750 Regional St","City":"Dublin","State":"CA","Zip":"94568"},{"Location":"ELEPHANT BAR DUBLIN","Address":"7202 Amador Plaza Rd","City":"Dublin","State":"CA","Zip":"94568"},{"Location":"EPICOR","Address":"4120 Dublin Blvd 300","City":"Dublin","State":"CA","Zip":"94568"},{"Location":"ETEMADI ENTERPRISE","Address":"4500 Tassajara Rd","City":"Dublin","State":"CA","Zip":"94568"},{"Location":"EVIE'S PLACE","Address":"7138 Village Pkwy","City":"Dublin","State":"CA","Zip":"94568"},{"Location":"EXTREME PIZZA","Address":"6599 Dublin Blvd G","City":"Dublin","State":"CA","Zip":"94568"},{"Location":"FIDELITY INVESTMENTS 320","Address":"4500 Tassajara Rd A","City":"Dublin","State":"CA","Zip":"94568"},{"Location":"FIRESTONE #241422","Address":"7100 Regional St","City":"Dublin","State":"CA","Zip":"94568"},{"Location":"FRANKIE JOHNNY & LUIGI TOO","Address":"11891 Dublin Blvd","City":"Dublin","State":"CA","Zip":"94568"},{"Location":"FREMONT SWIM SCHOOL","Address":"6948 Sierra Ct","City":"Dublin","State":"CA","Zip":"94568"},{"Location":"FUDDRUCKERS","Address":"4910 Dublin Blvd","City":"Dublin","State":"CA","Zip":"94568"},{"Location":"GALAXY GAMES","Address":"6715 Dublin Blvd","City":"Dublin","State":"CA","Zip":"94568"},{"Location":"GALLAGHERS DUBLIN PUB","Address":"7821 Amador Valley Blvd","City":"Dublin","State":"CA","Zip":"94568"},{"Location":"GUNS FISHING AND OTHER STUFF","Address":"6705 Amador Plaza Rd","City":"Dublin","State":"CA","Zip":"94568"},{"Location":"HANA JAPAN","Address":"7298 San Ramon Rd","City":"Dublin","State":"CA","Zip":"94568"},{"Location":"HAWAIIAN GRILL EXPRESS","Address":"3772 Fallon Rd","City":"Dublin","State":"CA","Zip":"94568"},{"Location":"HEATH WELDING SUPPLY INC","Address":"6743 Dublin Blvd 24","City":"Dublin","State":"CA","Zip":"94568"},{"Location":"HOOTERS DUBLIN","Address":"7944 Dublin Blvd","City":"Dublin","State":"CA","Zip":"94568"},{"Location":"IBEW","Address":"6250 Village Pkwy","City":"Dublin","State":"CA","Zip":"94568"},{"Location":"JERSEY MIKE SUBS LLC","Address":"3740 Fallon Rd","City":"Dublin","State":"CA","Zip":"94568"},{"Location":"KEMPER SPORTS MGMT INC","Address":"5900 Signal Hill Dr","City":"Dublin","State":"CA","Zip":"94568"},{"Location":"LABEL CONCEPTS","Address":"6333 Sierra Ct","City":"Dublin","State":"CA","Zip":"94568"},{"Location":"LITTLE MADFISH","Address":"4480 Tassajara Rd","City":"Dublin","State":"CA","Zip":"94568"},{"Location":"MCNAMARA'S STEAK N CHOP HOUSE","Address":"7400 San Ramon Rd","City":"Dublin","State":"CA","Zip":"94568"},{"Location":"MCNAMARAS STEAK & CHOP","Address":"7400 San Ramon Rd","City":"Dublin","State":"CA","Zip":"94568"},{"Location":"MISTER PICKLES DUBLIN","Address":"7112 Dublin Blvd","City":"Dublin","State":"CA","Zip":"94568"},{"Location":"NUTRISHOP","Address":"7016 Amador Plaza Rd","City":"Dublin","State":"CA","Zip":"94568"},{"Location":"OFFICE OF HOMELAND SECURITY","Address":"4985 Broder Blvd","City":"Dublin","State":"CA","Zip":"94568"},{"Location":"OHGANE","Address":"7877 Amador Valley Blvd","City":"Dublin","State":"CA","Zip":"94568"},{"Location":"ON THE BORDER #008","Address":"4940 Dublin Blvd","City":"Dublin","State":"CA","Zip":"94568"},{"Location":"OUTBACK STEAKHOUSE #0523","Address":"6505 Regional St","City":"Dublin","State":"CA","Zip":"94568"},{"Location":"PACIFIC DENTAL #285","Address":"3746 Fallon Rd","City":"Dublin","State":"CA","Zip":"94568"},{"Location":"PACIFIC DIVISION","Address":"510 Evans Ave","City":"Dublin","State":"CA","Zip":"94568"},{"Location":"PERFORMANCE TECHNIC","Address":"6310 Houston Pl A","City":"Dublin","State":"CA","Zip":"94568"},{"Location":"PERSONAL EDGE PHYSICAL THERAPY","Address":"7080 Donlon Way 108","City":"Dublin","State":"CA","Zip":"94568"},{"Location":"PRESCHOOL PREP COMPANY","Address":"6928 Sierra Ct","City":"Dublin","State":"CA","Zip":"94568"},{"Location":"RADISSON HOTEL DUBLIN","Address":"6680 Regional St","City":"Dublin","State":"CA","Zip":"94568"},{"Location":"REGIONAL TRAINING SITE MEDICAL","Address":"Bld 860 Building 860 4th St","City":"Dublin","State":"CA","Zip":"94568"},{"Location":"RIGATONI'S","Address":"7350 Dublin Blvd 109","City":"Dublin","State":"CA","Zip":"94568"},{"Location":"ROCKIN JUMP INC","Address":"5875 Arnold Rd 100","City":"Dublin","State":"CA","Zip":"94568"},{"Location":"ROGER CHANG DDS","Address":"4101 Dublin Blvd D","City":"Dublin","State":"CA","Zip":"94568"},{"Location":"ROSS STORES","Address":"5130 Hacienda Dr","City":"Dublin","State":"CA","Zip":"94568"},{"Location":"ROSS STORES INC","Address":"5140 Hacienda Dr","City":"Dublin","State":"CA","Zip":"94568"},{"Location":"ROSS STORES INC","Address":"5120 Hacienda Dr","City":"Dublin","State":"CA","Zip":"94568"},{"Location":"ROUND TABLE PIZZA","Address":"7841 Amador Valley Blvd","City":"Dublin","State":"CA","Zip":"94568"},{"Location":"SBC ADVANCE SOLUTIONS","Address":"5130 Hacienda Dr 1n201","City":"Dublin","State":"CA","Zip":"94568"},{"Location":"SKY RIVER RV INC","Address":"6700 Golden Gate Dr","City":"Dublin","State":"CA","Zip":"94568"},{"Location":"SPORT CLIPS CA801","Address":"7012 Amador Plaza Rd","City":"Dublin","State":"CA","Zip":"94568"},{"Location":"SPORTS AUTHORITY 720","Address":"7885 Dublin Blvd","City":"Dublin","State":"CA","Zip":"94568"},{"Location":"STONERIDGE MOTORS INC","Address":"6701 Amador Plaza Rd","City":"Dublin","State":"CA","Zip":"94568"},{"Location":"SUSHI OMAKASE","Address":"4100 Grafton St","City":"Dublin","State":"CA","Zip":"94568"},{"Location":"T4-HTC INC","Address":"3744 Fallon Rd","City":"Dublin","State":"CA","Zip":"94568"},{"Location":"TARGET","Address":"2800 Dublin Blvd","City":"Dublin","State":"CA","Zip":"94568"},{"Location":"TARGET #328","Address":"7200 Amador Plaza Rd","City":"Dublin","State":"CA","Zip":"94568"},{"Location":"TAURIAN BA LLC #1116","Address":"4814 Dublin Blvd","City":"Dublin","State":"CA","Zip":"94568"},{"Location":"TEAGUES BARBER SHOP","Address":"7000 Village Pkwy J","City":"Dublin","State":"CA","Zip":"94568"},{"Location":"THE LAZY DOG CAFE","Address":"4805 Hacienda Dr","City":"Dublin","State":"CA","Zip":"94568"},{"Location":"THREE SHEETS BEER BAR","Address":"7046 Village Pkwy","City":"Dublin","State":"CA","Zip":"94568"},{"Location":"US ARMY 152 TIOG","Address":"Bld 510 Evans Ave","City":"Dublin","State":"CA","Zip":"94568"},{"Location":"VIDEO ONLY","Address":"7922 Dublin Blvd","City":"Dublin","State":"CA","Zip":"94568"},{"Location":"XIE","Address":"6513 Regional St","City":"Dublin","State":"CA","Zip":"94568"},{"Location":"YANAGI SUSHI & GRILL","Address":"6599 Dublin Blvd","City":"Dublin","State":"CA","Zip":"94568"},{"Location":"YOUNG DONG TOFU HOUSE","Address":"7268 San Ramon Rd","City":"Dublin","State":"CA","Zip":"94568"}]