[{"Location":"AUBERGE DU SOLEIL %2F BAR","Address":"180 Rutherford Hill Road","City":"Rutherford","State":"CA","Zip":"94573"},{"Location":"AUBERGE DU SOLEIL SPA","Address":"180 Rutherford Road","City":"Rutherford","State":"CA","Zip":"94573"},{"Location":"BEAULIEU VINEYARD","Address":"1960 St Helena Hwy","City":"Rutherford","State":"CA","Zip":"94573"},{"Location":"HALL WINES","Address":"60 Auberge Road","City":"Rutherford","State":"CA","Zip":"94573"},{"Location":"KATHRYN HALL VINEYARD'S","Address":"60 Auberge","City":"Rutherford","State":"CA","Zip":"94573"},{"Location":"MUMM NAPA","Address":"8445 Silverado Trl","City":"Rutherford","State":"CA","Zip":"94573"},{"Location":"RANCH CAYMUS INN","Address":"1140 Rutherford Road","City":"Rutherford","State":"CA","Zip":"94573"},{"Location":"ROUND POND (WINERY)","Address":"875 Rutherford Rd","City":"Rutherford","State":"CA","Zip":"94573"},{"Location":"RUTHERFORD GRILL","Address":"1180 Rutherford Rd","City":"Rutherford","State":"CA","Zip":"94573"}]