[{"Location":"163RD AVE INVESTERS","Address":"1435 163rd Ave","City":"San Leandro","State":"CA","Zip":"94578"},{"Location":"24 HOUR FITNESS #501","Address":"304 Bay Fair Mall","City":"San Leandro","State":"CA","Zip":"94578"},{"Location":"ALAMEDA COUNTY PROBABATION","Address":"2300 Fairmount Dr","City":"San Leandro","State":"CA","Zip":"94578"},{"Location":"ALICES BARBER SHOP","Address":"16408 E 14th St","City":"San Leandro","State":"CA","Zip":"94578"},{"Location":"ALL SAINTS SUBACUTE","Address":"1652 Mono Ave","City":"San Leandro","State":"CA","Zip":"94578"},{"Location":"ANGRY FISH SUSHI","Address":"16250 E 14th St A","City":"San Leandro","State":"CA","Zip":"94578"},{"Location":"BEST BURGER","Address":"14393 Washington Ave","City":"San Leandro","State":"CA","Zip":"94578"},{"Location":"CAMP SWEENEY","Address":"2600 Fairmont Dr","City":"San Leandro","State":"CA","Zip":"94578"},{"Location":"CHILI'S #1162","Address":"15555 E 14th St 366","City":"San Leandro","State":"CA","Zip":"94578"},{"Location":"DAVITA #4485 SAN LEANDRO","Address":"15555 E 14th St 520","City":"San Leandro","State":"CA","Zip":"94578"},{"Location":"GOODYEAR 8728","Address":"15498 E 14th St","City":"San Leandro","State":"CA","Zip":"94578"},{"Location":"HAIR DIVAS DIST","Address":"15301 Hesperian Blvd","City":"San Leandro","State":"CA","Zip":"94578"},{"Location":"ISLAND AUTO REPAIR","Address":"14140 Washington Ave","City":"San Leandro","State":"CA","Zip":"94578"},{"Location":"KOHL'S #762","Address":"15555 E 14th St","City":"San Leandro","State":"CA","Zip":"94578"},{"Location":"MACY'S WEST 339","Address":"15555 E 14th St","City":"San Leandro","State":"CA","Zip":"94578"},{"Location":"MACY'S WEST 339 BR","Address":"15555 E 14th St","City":"San Leandro","State":"CA","Zip":"94578"},{"Location":"MANEET SHOHAL","Address":"1500 150th Ave","City":"San Leandro","State":"CA","Zip":"94578"},{"Location":"MEINEKE","Address":"14602 Washington Ave","City":"San Leandro","State":"CA","Zip":"94578"},{"Location":"MOODS AND ATTITUDE","Address":"14883 E 14th St","City":"San Leandro","State":"CA","Zip":"94578"},{"Location":"OLYMPICS DENTAL CARE","Address":"15401 Hesperian Blvd F","City":"San Leandro","State":"CA","Zip":"94578"},{"Location":"PACITAS SALVADOREAN BAKERY","Address":"14760 E 14th St","City":"San Leandro","State":"CA","Zip":"94578"},{"Location":"PRIME DENTAL LABS","Address":"16884 E 14th St","City":"San Leandro","State":"CA","Zip":"94578"},{"Location":"PROBATION PEACE OFFICES","Address":"15251 Atsperien Blvd","City":"San Leandro","State":"CA","Zip":"94578"},{"Location":"PUERTO BELLO","Address":"14680 Washington Ave","City":"San Leandro","State":"CA","Zip":"94578"},{"Location":"RICKY'S SPORTS LOUNGE","Address":"15028 Hesperian Blvd","City":"San Leandro","State":"CA","Zip":"94578"},{"Location":"ROCK AND ROLL SUSHI","Address":"579 Floresta Blvd A","City":"San Leandro","State":"CA","Zip":"94578"},{"Location":"ROUND TABLE PIZZA","Address":"15255 E 14th St","City":"San Leandro","State":"CA","Zip":"94578"},{"Location":"TAQUERIA EL GORDO","Address":"579 Floresta Blvd B","City":"San Leandro","State":"CA","Zip":"94578"},{"Location":"TAQUERIA MEDINA","Address":"16496 E 14th St","City":"San Leandro","State":"CA","Zip":"94578"},{"Location":"TELECARE WILLOW ROCK","Address":"2050 Fairmont Dr","City":"San Leandro","State":"CA","Zip":"94578"},{"Location":"TITO MEXICAN RESTURANT","Address":"15508 E 14th St","City":"San Leandro","State":"CA","Zip":"94578"},{"Location":"VALLARTA RESTAURANT","Address":"14366 E 14th St","City":"San Leandro","State":"CA","Zip":"94578"},{"Location":"WASHINGTON CARE AND REHAB","Address":"14766 Washington Ave","City":"San Leandro","State":"CA","Zip":"94578"},{"Location":"WING STOP","Address":"15555 E 14th St 317","City":"San Leandro","State":"CA","Zip":"94578"}]