[{"Location":"","Address":"27 Esterson Court","City":"Rio Vista","State":"CA","Zip":"94571"},{"Location":"B & L EQUIPMENT","Address":"3041 Cattey Ln","City":"Rio Vista","State":"CA","Zip":"94571"},{"Location":"FLAMINGO LOUNGE","Address":"110 Main St","City":"Rio Vista","State":"CA","Zip":"94571"},{"Location":"HEIDIS OUTRIGGER MARINA SALOON","Address":"17641 Sherman Island East Le Rd","City":"Rio Vista","State":"CA","Zip":"94571"},{"Location":"LUCYS CAFE","Address":"95 Main St","City":"Rio Vista","State":"CA","Zip":"94571"},{"Location":"PAUL GRAHAM DRILLING","Address":"2452 Airport Rd","City":"Rio Vista","State":"CA","Zip":"94571"},{"Location":"PEDERSEN AND ASSOCIATES","Address":"6 N Front St","City":"Rio Vista","State":"CA","Zip":"94571"},{"Location":"POINT RESTAURANT AND BAR","Address":"120 Marina Dr","City":"Rio Vista","State":"CA","Zip":"94571"},{"Location":"TRILOGY AT RIO VISTA%2FHOMEOWN..","Address":"1201 Clubhouse Dr","City":"Rio Vista","State":"CA","Zip":"94571"},{"Location":"US COAST GUARD","Address":"900 Beach Dr","City":"Rio Vista","State":"CA","Zip":"94571"},{"Location":"","Address":"27 Esterson Court","City":"Rio Vista","State":"CA","Zip":"94571"},{"Location":"B & L EQUIPMENT","Address":"3041 Cattey Ln","City":"Rio Vista","State":"CA","Zip":"94571"},{"Location":"FLAMINGO LOUNGE","Address":"110 Main St","City":"Rio Vista","State":"CA","Zip":"94571"},{"Location":"HEIDIS OUTRIGGER MARINA SALOON","Address":"17641 Sherman Island East Le Rd","City":"Rio Vista","State":"CA","Zip":"94571"},{"Location":"LUCYS CAFE","Address":"95 Main St","City":"Rio Vista","State":"CA","Zip":"94571"},{"Location":"PAUL GRAHAM DRILLING","Address":"2452 Airport Rd","City":"Rio Vista","State":"CA","Zip":"94571"},{"Location":"PEDERSEN AND ASSOCIATES","Address":"6 N Front St","City":"Rio Vista","State":"CA","Zip":"94571"},{"Location":"POINT RESTAURANT AND BAR","Address":"120 Marina Dr","City":"Rio Vista","State":"CA","Zip":"94571"},{"Location":"TRILOGY AT RIO VISTA%2FHOMEOWN..","Address":"1201 Clubhouse Dr","City":"Rio Vista","State":"CA","Zip":"94571"},{"Location":"US COAST GUARD","Address":"900 Beach Dr","City":"Rio Vista","State":"CA","Zip":"94571"}]