[{"Location":"ALPHA OMEGA WINERY","Address":"1155 Mee Ln","City":"Saint Helena","State":"CA","Zip":"94574"},{"Location":"AMERICAN MEDICAL RESPONSE","Address":"1199 Big Tree Rd","City":"Saint Helena","State":"CA","Zip":"94574"},{"Location":"ANA'S CANTINA","Address":"1205 Main St","City":"Saint Helena","State":"CA","Zip":"94574"},{"Location":"CAMEO  CINEMA","Address":"1340 Main St","City":"Saint Helena","State":"CA","Zip":"94574"},{"Location":"CAYMUS VINEYARDS","Address":"1085 Galleron Rd","City":"Saint Helena","State":"CA","Zip":"94574"},{"Location":"COLGIN CELLARS","Address":"220 Long Ranch Rd","City":"Saint Helena","State":"CA","Zip":"94574"},{"Location":"COOK TAVERN","Address":"1304 Main St","City":"Saint Helena","State":"CA","Zip":"94574"},{"Location":"COPPER CANE LLC","Address":"1275 Inglewood Ave","City":"Saint Helena","State":"CA","Zip":"94574"},{"Location":"EHLERS ESTATE","Address":"3222 Ehlers Ln","City":"Saint Helena","State":"CA","Zip":"94574"},{"Location":"FARMSTEAD","Address":"738 Main St","City":"Saint Helena","State":"CA","Zip":"94574"},{"Location":"FLORA SPRINGS WINE COMP","Address":"1978 West Vinfendel Lane","City":"Saint Helena","State":"CA","Zip":"94574"},{"Location":"FLORA SPRINGS WINERY","Address":"677 Saint Helena Hwy S","City":"Saint Helena","State":"CA","Zip":"94574"},{"Location":"GOLDEN-AMERICA INC.","Address":"1455 Inglewood Ave","City":"Saint Helena","State":"CA","Zip":"94574"},{"Location":"HALL WINES LLC","Address":"401 Saint Helena Hwy S","City":"Saint Helena","State":"CA","Zip":"94574"},{"Location":"HEALTH SPA NAPA VALLEY","Address":"1030 Main St","City":"Saint Helena","State":"CA","Zip":"94574"},{"Location":"HEALTH SPA NAPA VALLEY 1","Address":"1030 Main St","City":"Saint Helena","State":"CA","Zip":"94574"},{"Location":"IOOF 167 INC","Address":"1352 Main St","City":"Saint Helena","State":"CA","Zip":"94574"},{"Location":"KLUG NATALIE   C P A","Address":"1991 Olive Ave","City":"Saint Helena","State":"CA","Zip":"94574"},{"Location":"LOS PRADOS TOWING LLC","Address":"1151 Vintage Ave","City":"Saint Helena","State":"CA","Zip":"94574"},{"Location":"MEADOWOOD NAPA VALLEY GRILL","Address":"900 Meadowood Ln","City":"Saint Helena","State":"CA","Zip":"94574"},{"Location":"MEADOWOOD SPA","Address":"900 Meadowood Ln","City":"Saint Helena","State":"CA","Zip":"94574"},{"Location":"MIRAMONTE RESTAURANT","Address":"1327 Railroad Ave","City":"Saint Helena","State":"CA","Zip":"94574"},{"Location":"NAPA VINELAND WINERY","Address":"2401 Sulphur Spg Ave","City":"Saint Helena","State":"CA","Zip":"94574"},{"Location":"PALISADES DELI CAFE","Address":"1136 Main St","City":"Saint Helena","State":"CA","Zip":"94574"},{"Location":"PROVENANCE VINEYARDS","Address":"1695 Saint Helena Hwy S","City":"Saint Helena","State":"CA","Zip":"94574"},{"Location":"SOGNI DI DOLCI","Address":"1142 Main St","City":"Saint Helena","State":"CA","Zip":"94574"},{"Location":"ST HELENA PHYSICAL","Address":"1030 Main St","City":"Saint Helena","State":"CA","Zip":"94574"},{"Location":"ST HELENA WINE CENTER","Address":"1321 Main St","City":"Saint Helena","State":"CA","Zip":"94574"},{"Location":"SUTTER HOME WINERY INC","Address":"100 Saint Helena Hwy S","City":"Saint Helena","State":"CA","Zip":"94574"},{"Location":"THAT PIZZA PLACE","Address":"1149 Main St","City":"Saint Helena","State":"CA","Zip":"94574"},{"Location":"TRESPASS VINEYARD","Address":"1859 Lillview Pl","City":"Saint Helena","State":"CA","Zip":"94574"},{"Location":"TRINCHERO FAMILY ESTATES","Address":"3070 Saint Helena Hwy N","City":"Saint Helena","State":"CA","Zip":"94574"},{"Location":"VILLA DEL LAGO","Address":"1527 Sage Canyon Rd","City":"Saint Helena","State":"CA","Zip":"94574"},{"Location":"VINEYARD 7 & 8","Address":"4028 Spring Mountain Rd","City":"Saint Helena","State":"CA","Zip":"94574"},{"Location":"WHITE SULPHUR SPRINGS","Address":"3100 White Sulphur Springs Rd","City":"Saint Helena","State":"CA","Zip":"94574"}]