[{"Location":"ABATIX CORP 2","Address":"14068 Catalina St","City":"San Leandro","State":"CA","Zip":"94577"},{"Location":"ALAMEDA TASK FORCE","Address":"785 Montague St","City":"San Leandro","State":"CA","Zip":"94577"},{"Location":"ALLIANCE MARINE","Address":"470 Hester St","City":"San Leandro","State":"CA","Zip":"94577"},{"Location":"AMERICAN APPRAISAL","Address":"120 Juana Ave","City":"San Leandro","State":"CA","Zip":"94577"},{"Location":"ARIES AUTO DEALER","Address":"2300 E 14th St","City":"San Leandro","State":"CA","Zip":"94577"},{"Location":"ATOMIC PRODUCTIONS","Address":"1965 Adams Ave","City":"San Leandro","State":"CA","Zip":"94577"},{"Location":"BERBER FOOD MANUFACTURING INC","Address":"425 Hester St","City":"San Leandro","State":"CA","Zip":"94577"},{"Location":"BLAKE WHITE","Address":"2031 Burroughs Ave","City":"San Leandro","State":"CA","Zip":"94577"},{"Location":"CAL G OFFICES","Address":"286 Juana Ave","City":"San Leandro","State":"CA","Zip":"94577"},{"Location":"CHANS GOURMENT CHINESE","Address":"1057 Macarthur Blvd B","City":"San Leandro","State":"CA","Zip":"94577"},{"Location":"CHINA MING","Address":"1668 E 14th St","City":"San Leandro","State":"CA","Zip":"94577"},{"Location":"CHURCH OF THE ASSUMPTION","Address":"1100 Fulton Ave","City":"San Leandro","State":"CA","Zip":"94577"},{"Location":"CLIMAX SPORTS BAR","Address":"1680 Washington Ave","City":"San Leandro","State":"CA","Zip":"94577"},{"Location":"CNG-ADMINISTRATIVE CONCE","Address":"510 Mccormick St","City":"San Leandro","State":"CA","Zip":"94577"},{"Location":"CONCENTRA","Address":"2587 Merced St","City":"San Leandro","State":"CA","Zip":"94577"},{"Location":"CUMMINS WEST INC","Address":"14775 Wicks Blvd","City":"San Leandro","State":"CA","Zip":"94577"},{"Location":"DAIMO CHINESE RESTUARANT","Address":"1456 E 14th St","City":"San Leandro","State":"CA","Zip":"94577"},{"Location":"DAVITA #5393 SAN LEANDRO","Address":"2551 Merced St","City":"San Leandro","State":"CA","Zip":"94577"},{"Location":"EL AMIGO TAQUERIA","Address":"13700 Doolittle Dr 118","City":"San Leandro","State":"CA","Zip":"94577"},{"Location":"EL TENAMPA","Address":"656 E 14th St","City":"San Leandro","State":"CA","Zip":"94577"},{"Location":"EL TORITO 7166","Address":"5 Monarch Bay Dr","City":"San Leandro","State":"CA","Zip":"94577"},{"Location":"EMIL VILLAS BARBECUE","Address":"1800 E 14th St","City":"San Leandro","State":"CA","Zip":"94577"},{"Location":"ENERGY RECOVERY INC","Address":"1717 Doolittle Dr","City":"San Leandro","State":"CA","Zip":"94577"},{"Location":"ENGLANDER SPORTS PUB & RESTAUR","Address":"101 Parrott St","City":"San Leandro","State":"CA","Zip":"94577"},{"Location":"FH DAILEY","Address":"800 Davis St","City":"San Leandro","State":"CA","Zip":"94577"},{"Location":"FH DAILEY CHEVY","Address":"800 Davis St","City":"San Leandro","State":"CA","Zip":"94577"},{"Location":"FIRESTONE #301592","Address":"1050 Marina Blvd","City":"San Leandro","State":"CA","Zip":"94577"},{"Location":"FIRST CLASS REALTY","Address":"1500 Washington Ave","City":"San Leandro","State":"CA","Zip":"94577"},{"Location":"FMC 71670000","Address":"198 E 14th St","City":"San Leandro","State":"CA","Zip":"94577"},{"Location":"FOUR SEASON CAFE & DELI","Address":"1423 E 14th St","City":"San Leandro","State":"CA","Zip":"94577"},{"Location":"FRANKS SALOON","Address":"2014 Marina Blvd","City":"San Leandro","State":"CA","Zip":"94577"},{"Location":"GARY MATTHEWS ENTERPRISES","Address":"14297 Wicks Blvd","City":"San Leandro","State":"CA","Zip":"94577"},{"Location":"GORDON MACHINING LLC","Address":"1669 Abram Ct","City":"San Leandro","State":"CA","Zip":"94577"},{"Location":"GREG SACK LLC","Address":"495 Thornton St 1","City":"San Leandro","State":"CA","Zip":"94577"},{"Location":"HAN DAE GAM KOREAN BBQ","Address":"1292 Davis St","City":"San Leandro","State":"CA","Zip":"94577"},{"Location":"IMPERIAL GARDEN","Address":"310 Macarthur Blvd","City":"San Leandro","State":"CA","Zip":"94577"},{"Location":"JULIANS BARBER SHOP","Address":"655 Bancroft Ave","City":"San Leandro","State":"CA","Zip":"94577"},{"Location":"KAISER GARFIELD CENTER","Address":"590 Whitney St","City":"San Leandro","State":"CA","Zip":"94577"},{"Location":"KELLYS TRUCK REPAIR","Address":"495 Hester St","City":"San Leandro","State":"CA","Zip":"94577"},{"Location":"KIZANIS CABINETS","Address":"2483 Washington Ave","City":"San Leandro","State":"CA","Zip":"94577"},{"Location":"LA PINATA #2","Address":"2699 Merced St","City":"San Leandro","State":"CA","Zip":"94577"},{"Location":"LA SALSA","Address":"1207 Marina Blvd","City":"San Leandro","State":"CA","Zip":"94577"},{"Location":"LUZINDA HAIR DESIGN","Address":"1120 E 14th St 29","City":"San Leandro","State":"CA","Zip":"94577"},{"Location":"MAI THAI","Address":"13700 Doolittle Dr 110","City":"San Leandro","State":"CA","Zip":"94577"},{"Location":"MEN'S WEARHOUSE #2163","Address":"1239 Marina Blvd","City":"San Leandro","State":"CA","Zip":"94577"},{"Location":"MERRIDIAN INVESTEMENT COUNSEL","Address":"1040 Davis St 201","City":"San Leandro","State":"CA","Zip":"94577"},{"Location":"MLB SCOUT ONLINE CORP","Address":"14355 Catalina St","City":"San Leandro","State":"CA","Zip":"94577"},{"Location":"NEW ORLEANS CATERING","Address":"1770 Timothy Dr","City":"San Leandro","State":"CA","Zip":"94577"},{"Location":"NIKE INC","Address":"1275 Marina Blvd","City":"San Leandro","State":"CA","Zip":"94577"},{"Location":"NORCAL KENWORTH","Address":"1755 Adams Ave","City":"San Leandro","State":"CA","Zip":"94577"},{"Location":"PARAMEDICS PLUS","Address":"575 Marina Blvd","City":"San Leandro","State":"CA","Zip":"94577"},{"Location":"PETERSON POWER SYSTEMS","Address":"2828 Teagarden St","City":"San Leandro","State":"CA","Zip":"94577"},{"Location":"RANSOM CO","Address":"1933 Williams St","City":"San Leandro","State":"CA","Zip":"94577"},{"Location":"REMCHO JOHANSEN & PURCELL","Address":"201 Dolores Ave","City":"San Leandro","State":"CA","Zip":"94577"},{"Location":"RG PROPERTIES","Address":"13517 Menlo St","City":"San Leandro","State":"CA","Zip":"94577"},{"Location":"ROCKYS CHARCOAL GRILL","Address":"300 W Estudillo Ave","City":"San Leandro","State":"CA","Zip":"94577"},{"Location":"ROMARTS","Address":"1959 West 140th","City":"San Leandro","State":"CA","Zip":"94577"},{"Location":"ROSA CONSTRUCTION","Address":"14272 Wicks Blvd","City":"San Leandro","State":"CA","Zip":"94577"},{"Location":"ROYAL WHOLE SALE ELECTRIC","Address":"14492 Doolittle Dr","City":"San Leandro","State":"CA","Zip":"94577"},{"Location":"RUBIANOS E","Address":"600 Dutton Ave C","City":"San Leandro","State":"CA","Zip":"94577"},{"Location":"SAFEWAY MILK PLANT1","Address":"2000 Adams Ave","City":"San Leandro","State":"CA","Zip":"94577"},{"Location":"SAIGON II","Address":"2113 Marina Blvd","City":"San Leandro","State":"CA","Zip":"94577"},{"Location":"SALON DE SOUL DAY SPA","Address":"592 Victoria Ct A","City":"San Leandro","State":"CA","Zip":"94577"},{"Location":"SAMS BARBERSHOP","Address":"1313 Macarthur Blvd","City":"San Leandro","State":"CA","Zip":"94577"},{"Location":"SAN GASPAR RESTAURANT","Address":"201 E 14th St","City":"San Leandro","State":"CA","Zip":"94577"},{"Location":"SAN LEANDRO SIZZLER RESTAURANT","Address":"201 Davis St","City":"San Leandro","State":"CA","Zip":"94577"},{"Location":"SATELLITE DIALYSIS","Address":"801 Davis St","City":"San Leandro","State":"CA","Zip":"94577"},{"Location":"SILMAN CONSTRUCTION","Address":"1600 Factor Ave","City":"San Leandro","State":"CA","Zip":"94577"},{"Location":"SOCIAL DAY SERVICES","Address":"211 Joaquin Ave","City":"San Leandro","State":"CA","Zip":"94577"},{"Location":"STAT DELIVERY SERVICE","Address":"14755 Catalina St","City":"San Leandro","State":"CA","Zip":"94577"},{"Location":"SUSHI DELIGHT","Address":"1443 E 14th St C","City":"San Leandro","State":"CA","Zip":"94577"},{"Location":"T4","Address":"1443 E 14th St #b","City":"San Leandro","State":"CA","Zip":"94577"},{"Location":"TAPIOCA EXPRESS","Address":"129 W Joaquin Ave","City":"San Leandro","State":"CA","Zip":"94577"},{"Location":"TEAMSTERS LOCAL 853","Address":"2100 Merced St B","City":"San Leandro","State":"CA","Zip":"94577"},{"Location":"THE FORD STORE","Address":"1111 Marina Blvd","City":"San Leandro","State":"CA","Zip":"94577"},{"Location":"THE INNER ATHELE","Address":"685 E 14th St","City":"San Leandro","State":"CA","Zip":"94577"},{"Location":"THE RAIDERS IMAGE #904","Address":"1957 Davis St A","City":"San Leandro","State":"CA","Zip":"94577"},{"Location":"THE VINE WINE AND TAPAS","Address":"135 Parrott St","City":"San Leandro","State":"CA","Zip":"94577"},{"Location":"TOUFAN RAZI MD","Address":"2410 Merced St","City":"San Leandro","State":"CA","Zip":"94577"},{"Location":"TRINET HR CORPORATION","Address":"1100 San Leandro Blvd 300","City":"San Leandro","State":"CA","Zip":"94577"},{"Location":"TRIPLE PLAY USA","Address":"2055 Adams Ave","City":"San Leandro","State":"CA","Zip":"94577"},{"Location":"TRUCK TOYZ INC","Address":"2368 Davis St","City":"San Leandro","State":"CA","Zip":"94577"},{"Location":"VISTA NAIL SPA","Address":"1245 Macarthur Blvd","City":"San Leandro","State":"CA","Zip":"94577"},{"Location":"WALTS HEALTH CLUB","Address":"1660 Washington Ave","City":"San Leandro","State":"CA","Zip":"94577"},{"Location":"WEST  COAST SPORTING GOODS","Address":"1855 Alvarado St","City":"San Leandro","State":"CA","Zip":"94577"},{"Location":"WESTATES MECHANICAL","Address":"734 Whitney St","City":"San Leandro","State":"CA","Zip":"94577"},{"Location":"WING FIESTA","Address":"160 W Juana Ave","City":"San Leandro","State":"CA","Zip":"94577"},{"Location":"Z K LOUNGE","Address":"577 Bancroft Ave","City":"San Leandro","State":"CA","Zip":"94577"}]