[{"Location":"GEORGES BARBER SHOP","Address":"933 Manor Blvd","City":"San Leandro","State":"CA","Zip":"94579"},{"Location":"GO GO SUSHI N BBQ","Address":"699 Lewelling Blvd 112","City":"San Leandro","State":"CA","Zip":"94579"},{"Location":"HAWALLAN GRILL EXPRESS","Address":"699 Lewelling Blvd 184","City":"San Leandro","State":"CA","Zip":"94579"},{"Location":"HILTON GARDEN INN%2FOAKLAND","Address":"510 Lewelling Blvd","City":"San Leandro","State":"CA","Zip":"94579"},{"Location":"M T METAL FABRICATION","Address":"536 Lewelling Blvd A","City":"San Leandro","State":"CA","Zip":"94579"},{"Location":"MAMA LUPE","Address":"15033 Farnsworth St","City":"San Leandro","State":"CA","Zip":"94579"},{"Location":"MARINA PIZZA","Address":"2004 Lewelling Blvd","City":"San Leandro","State":"CA","Zip":"94579"},{"Location":"MINAMI SUSHI","Address":"699 Lewelling Blvd","City":"San Leandro","State":"CA","Zip":"94579"},{"Location":"NIJJAR PIZZA INC","Address":"699 Lewelling Blvd 164","City":"San Leandro","State":"CA","Zip":"94579"},{"Location":"PERFECT NAILS AND SPA","Address":"699 Lewelling Blvd 194","City":"San Leandro","State":"CA","Zip":"94579"},{"Location":"PORKY'S PIZZA PALACE INC","Address":"1221 Manor Blvd","City":"San Leandro","State":"CA","Zip":"94579"},{"Location":"RYANS","Address":"15009 Farnsworth St","City":"San Leandro","State":"CA","Zip":"94579"},{"Location":"SAIGON 3               U","Address":"967 Manor Blvd","City":"San Leandro","State":"CA","Zip":"94579"}]