[{"Location":"24 HOUR FITNESS #512","Address":"4450 Norris Canyon Rd","City":"San Ramon","State":"CA","Zip":"94583"},{"Location":"24 HOUR FITNESS CORP (#90280)","Address":"12647 Alcosta Blvd 500","City":"San Ramon","State":"CA","Zip":"94583"},{"Location":"ACCESS METALS TRADING","Address":"2258 Camino Ramon","City":"San Ramon","State":"CA","Zip":"94583"},{"Location":"ADVACNED DERMATOLOGY CAR","Address":"2262 Camino Ramon","City":"San Ramon","State":"CA","Zip":"94583"},{"Location":"ALCOSTA  CAPITAL MGMT","Address":"3180 Crow Canyon Pl 210","City":"San Ramon","State":"CA","Zip":"94583"},{"Location":"AMERICAN HONDA FINANCE","Address":"2420 Camino Ramon 350","City":"San Ramon","State":"CA","Zip":"94583"},{"Location":"ANGEL NAILS AND SPA","Address":"2550 San Ramon Valley Blvd B1","City":"San Ramon","State":"CA","Zip":"94583"},{"Location":"APPLE BLOSSOM MOULDING & MILL","Address":"2411 Old Crow Canyon Rd","City":"San Ramon","State":"CA","Zip":"94583"},{"Location":"APPLEBEE'S SAN RAMON #2111019","Address":"17900 San Ramon Valley Blvd","City":"San Ramon","State":"CA","Zip":"94583"},{"Location":"ARAKELIAN WEALTH","Address":"2000 Crow Canyon Pl 435","City":"San Ramon","State":"CA","Zip":"94583"},{"Location":"BANK OF COMMERCE MORTGAGE","Address":"3130 Crow Canyon Pl 300","City":"San Ramon","State":"CA","Zip":"94583"},{"Location":"BANK OF THE WEST","Address":"2527 Camino Ramon","City":"San Ramon","State":"CA","Zip":"94583"},{"Location":"BENESYS ADMINISTRATORS","Address":"2610 Crow Canyon Rd 210","City":"San Ramon","State":"CA","Zip":"94583"},{"Location":"BISHOP GRILL","Address":"2600 Bishop Dr","City":"San Ramon","State":"CA","Zip":"94583"},{"Location":"BRUNO AND SON INC","Address":"2250 San Ramon Valley Blvd","City":"San Ramon","State":"CA","Zip":"94583"},{"Location":"BUFFALO WILD WINGS #3629","Address":"200 Montgomery St","City":"San Ramon","State":"CA","Zip":"94583"},{"Location":"BULTER MUNI LLC","Address":"3160 Crow Canyon Rd 270","City":"San Ramon","State":"CA","Zip":"94583"},{"Location":"CHARLES SCHWAB CC829","Address":"3150 Crow Canyon Rd","City":"San Ramon","State":"CA","Zip":"94583"},{"Location":"CHEVRON - CVN 000017","Address":"6001 Bollinger Canyon Rd","City":"San Ramon","State":"CA","Zip":"94583"},{"Location":"CHEVRON INFO TECH","Address":"6001 Bollinger Canyon Rd","City":"San Ramon","State":"CA","Zip":"94583"},{"Location":"CHEVY'S 2457","Address":"18080 San Ramon Valley Blvd","City":"San Ramon","State":"CA","Zip":"94583"},{"Location":"CHUBB INSURANCE","Address":"2603 Camino Ramon 300","City":"San Ramon","State":"CA","Zip":"94583"},{"Location":"CHURCH OF THE VALLEY","Address":"19001 San Ramon Valley Blvd","City":"San Ramon","State":"CA","Zip":"94583"},{"Location":"CLEMENTINES","Address":"18070 San Ramon Valley Blvd","City":"San Ramon","State":"CA","Zip":"94583"},{"Location":"CMG MORTGAGE INC.","Address":"3160 Crow Canyon Rd 300","City":"San Ramon","State":"CA","Zip":"94583"},{"Location":"COURTYARD DENTAL","Address":"2410 Fan Ramon Valley Blvd 148","City":"San Ramon","State":"CA","Zip":"94583"},{"Location":"CROW CANYON ALTERATIONS","Address":"3104 Crow Canyon Pl B2","City":"San Ramon","State":"CA","Zip":"94583"},{"Location":"CROWN BILLARDS CLUB","Address":"2416 San Ramon Valley Blvd","City":"San Ramon","State":"CA","Zip":"94583"},{"Location":"CTI CONTROLTECH","Address":"22 Beta Ct","City":"San Ramon","State":"CA","Zip":"94583"},{"Location":"DICKYS BARBEQUE PIT1","Address":"3191 Crow Canyon Pl","City":"San Ramon","State":"CA","Zip":"94583"},{"Location":"EMERY FINANCIAL INC","Address":"2010 Crow Canyon Pl 190","City":"San Ramon","State":"CA","Zip":"94583"},{"Location":"ENGS COMMERCIAL FINANCE","Address":"2420 Camino Ramon","City":"San Ramon","State":"CA","Zip":"94583"},{"Location":"FIRE HOUSE RESTAURANT AND BAR","Address":"250 Market Pl","City":"San Ramon","State":"CA","Zip":"94583"},{"Location":"FIRESTONE #241048","Address":"2131 San Ramon Valley Blvd","City":"San Ramon","State":"CA","Zip":"94583"},{"Location":"FIRST REPUBLIC BANK","Address":"3130 Crow Canyon Pl","City":"San Ramon","State":"CA","Zip":"94583"},{"Location":"FITNESS 19","Address":"160 Market Pl","City":"San Ramon","State":"CA","Zip":"94583"},{"Location":"GARTH REATELL DDS","Address":"417 Market Pl","City":"San Ramon","State":"CA","Zip":"94583"},{"Location":"GE CAPITAL REAL ESTATE","Address":"2623 Camino Ramon","City":"San Ramon","State":"CA","Zip":"94583"},{"Location":"GIUSEPPES PASTA GRILL","Address":"2540 San Ramon Valley Blvd","City":"San Ramon","State":"CA","Zip":"94583"},{"Location":"GOLDEN STATE FLEET SERVICES","Address":"500 Deerwood Rd","City":"San Ramon","State":"CA","Zip":"94583"},{"Location":"HOMESITE SERVICES","Address":"2000 Crow Canyon Pl 120","City":"San Ramon","State":"CA","Zip":"94583"},{"Location":"HOOK UP FEED INC","Address":"2092 Omega Rd G","City":"San Ramon","State":"CA","Zip":"94583"},{"Location":"INSTITUTIONAL REAL ESTATE INC","Address":"2274 Camino Ramon","City":"San Ramon","State":"CA","Zip":"94583"},{"Location":"IRON OAK HOME LOANS INC","Address":"9260 Alcosta Blvd C16","City":"San Ramon","State":"CA","Zip":"94583"},{"Location":"JAROTH COMPANIES","Address":"2001 Crow Canyon Rd 200","City":"San Ramon","State":"CA","Zip":"94583"},{"Location":"KOVARUS","Address":"2000 Crow Canyon Pl 250","City":"San Ramon","State":"CA","Zip":"94583"},{"Location":"LABORERS TRAINING CENTER","Address":"1001 Westside Dr","City":"San Ramon","State":"CA","Zip":"94583"},{"Location":"LITTLE MADFISH","Address":"154 Sunset Dr","City":"San Ramon","State":"CA","Zip":"94583"},{"Location":"LOCAL FOCUS LTD","Address":"3180 Crow Canyon Pl 145","City":"San Ramon","State":"CA","Zip":"94583"},{"Location":"M.C. LLC STORE 1403","Address":"2099 Camino Ramon","City":"San Ramon","State":"CA","Zip":"94583"},{"Location":"MARIANNE R SPAMER DDS","Address":"2810 Crow Canyon Rd 201","City":"San Ramon","State":"CA","Zip":"94583"},{"Location":"MCDONALD'S ACCOUNTING OFFICE","Address":"2268 Camino Ramon","City":"San Ramon","State":"CA","Zip":"94583"},{"Location":"MELANIE BARTOLETTI","Address":"2065 San Ramon Valley Blvd","City":"San Ramon","State":"CA","Zip":"94583"},{"Location":"MEN'S WEARHOUSE #2168","Address":"2441 San Ramon Valley Blvd","City":"San Ramon","State":"CA","Zip":"94583"},{"Location":"MEXXI TAQUERIA","Address":"9110 Alcosta Blvd","City":"San Ramon","State":"CA","Zip":"94583"},{"Location":"MOMENTUS GROUP INC","Address":"2210 San Ramon Valley Blvd A","City":"San Ramon","State":"CA","Zip":"94583"},{"Location":"MUSCLE MAKER GRILL","Address":"164 Sunset Dr B7","City":"San Ramon","State":"CA","Zip":"94583"},{"Location":"NSA WIRELESS INC","Address":"2000 Crow Canyon Pl 400","City":"San Ramon","State":"CA","Zip":"94583"},{"Location":"ON FIRE PIZZA LLC 1","Address":"2005 Crow Canyon Pl","City":"San Ramon","State":"CA","Zip":"94583"},{"Location":"ORTHOPEDIC SPORTS PHYSICAL THE","Address":"200 Porter Dr 215","City":"San Ramon","State":"CA","Zip":"94583"},{"Location":"OUTPOST SPORTS BAR","Address":"2251 San Ramon Valley Blvd","City":"San Ramon","State":"CA","Zip":"94583"},{"Location":"PACIFIC GAS AND ELECTRIC","Address":"6121 Bollinger Canyon Rd","City":"San Ramon","State":"CA","Zip":"94583"},{"Location":"PACIFIC GAS AND ELECTRIC","Address":"3400 Crow Canyon Rd","City":"San Ramon","State":"CA","Zip":"94583"},{"Location":"PACIFIC NATIONAL BANK","Address":"2821 Crow Canyon Rd 100","City":"San Ramon","State":"CA","Zip":"94583"},{"Location":"PASTA PRIMAVERA","Address":"3124 Crow Canyon Pl C","City":"San Ramon","State":"CA","Zip":"94583"},{"Location":"PHO SAM RESTAURANT","Address":"2550 San Ramon Valley Blvd C","City":"San Ramon","State":"CA","Zip":"94583"},{"Location":"QUALITY HAIRCUTS","Address":"3104 Crow Canyon Pl","City":"San Ramon","State":"CA","Zip":"94583"},{"Location":"REFLECTION DENTAL SPA","Address":"2610 San Ramon Valley Blvd","City":"San Ramon","State":"CA","Zip":"94583"},{"Location":"REGUS BUSINESS CENTER","Address":"2603 Camino Ramon 2ndfl","City":"San Ramon","State":"CA","Zip":"94583"},{"Location":"SAN RAMON VALLEY BOOKKEE","Address":"2001 Omega Rd 210","City":"San Ramon","State":"CA","Zip":"94583"},{"Location":"SAN RAMON VALLEY FIRE DISTRICT","Address":"1500 Bollinger Canyon Rd","City":"San Ramon","State":"CA","Zip":"94583"},{"Location":"SCULL CHIROPRACTIC","Address":"401 Market Pl H4","City":"San Ramon","State":"CA","Zip":"94583"},{"Location":"SENRO SUSHI SAN RAMON","Address":"2475 San Ramon Valley Blvd","City":"San Ramon","State":"CA","Zip":"94583"},{"Location":"SHEET METAL WORKERS LOCAL UNIO","Address":"2610 Cro Canion Rd 300","City":"San Ramon","State":"CA","Zip":"94583"},{"Location":"SPORT CLIPS CA811","Address":"120 Market Pl","City":"San Ramon","State":"CA","Zip":"94583"},{"Location":"SRVGAL","Address":"32 Beta Ct A","City":"San Ramon","State":"CA","Zip":"94583"},{"Location":"THE BRASS DOOR","Address":"2154 San Ramon Valley Blvd","City":"San Ramon","State":"CA","Zip":"94583"},{"Location":"THE CHEESESTEAK SHOP","Address":"3110 Crow Canyon Pl C","City":"San Ramon","State":"CA","Zip":"94583"},{"Location":"THE HOPYARD II","Address":"470 Market Pl","City":"San Ramon","State":"CA","Zip":"94583"},{"Location":"THE REGUS GROUP","Address":"2010 Crow Canyon Pl 100","City":"San Ramon","State":"CA","Zip":"94583"},{"Location":"THORATEC LABS","Address":"4550 Norris Canyon Rd","City":"San Ramon","State":"CA","Zip":"94583"},{"Location":"TINAS NAIL SALON","Address":"170 Market Pl","City":"San Ramon","State":"CA","Zip":"94583"},{"Location":"TOGOS","Address":"2550 San Ramon Valley Blvd","City":"San Ramon","State":"CA","Zip":"94583"},{"Location":"TOYOTA MOTOR SALES","Address":"2451 Bishop Dr","City":"San Ramon","State":"CA","Zip":"94583"},{"Location":"US BANK","Address":"2190 Camino Ramon","City":"San Ramon","State":"CA","Zip":"94583"},{"Location":"US LIABILITY INSURANCE GROUP","Address":"3160 Crow Canyon Rd","City":"San Ramon","State":"CA","Zip":"94583"},{"Location":"WHOLE FOODS SAN RAMONE","Address":"100 Sunset Dr","City":"San Ramon","State":"CA","Zip":"94583"},{"Location":"WING STOP","Address":"3171 Crow Canyon Pl H9","City":"San Ramon","State":"CA","Zip":"94583"},{"Location":"YANAGI TOO","Address":"1061 Market Pl D","City":"San Ramon","State":"CA","Zip":"94583"},{"Location":"YOUNG AND BURTON INC","Address":"1947 San Ramon Valley Blvd","City":"San Ramon","State":"CA","Zip":"94583"},{"Location":"Z PIZZA SAN RAMON","Address":"3141 Crow Canyon Pl D","City":"San Ramon","State":"CA","Zip":"94583"},{"Location":"ZACKERY PIZZA","Address":"3110 Crow Canyon Pl","City":"San Ramon","State":"CA","Zip":"94583"}]