[{"Location":"1ST UNITED SERVICES CREDIT UN","Address":"4695 Chabot Dr","City":"Pleasanton","State":"CA","Zip":"94588"},{"Location":"24 HOUR FITNESS #836","Address":"4770 Willow Rd","City":"Pleasanton","State":"CA","Zip":"94588"},{"Location":"925 BOOT CAMP","Address":"7063 Commerce Cir I","City":"Pleasanton","State":"CA","Zip":"94588"},{"Location":"ADOLFO BARRERA DDS","Address":"4430 Willow Rd","City":"Pleasanton","State":"CA","Zip":"94588"},{"Location":"ALAMEDA CO DSA","Address":"6689 Owens Dr 100","City":"Pleasanton","State":"CA","Zip":"94588"},{"Location":"B & S HACIENDA","Address":"3687 Old Santa Rita Rd 27","City":"Pleasanton","State":"CA","Zip":"94588"},{"Location":"BAY AREA RAPID TRANSIT","Address":"5801 Owens Dr","City":"Pleasanton","State":"CA","Zip":"94588"},{"Location":"BMC SOFTWARE","Address":"6200 Stoneridge Mall Rd 200","City":"Pleasanton","State":"CA","Zip":"94588"},{"Location":"BURGER KING #2795","Address":"5315 Hopyard Rd","City":"Pleasanton","State":"CA","Zip":"94588"},{"Location":"CALIDUS SOFTWARE","Address":"6200 Stoneridge Mall Rd 5","City":"Pleasanton","State":"CA","Zip":"94588"},{"Location":"CAMPBELL SALES CO","Address":"6150 Stoneridge Mall Rd 150","City":"Pleasanton","State":"CA","Zip":"94588"},{"Location":"CERTIFIEDS   TIRES  SERVICE","Address":"4216 Rosewood Dr","City":"Pleasanton","State":"CA","Zip":"94588"},{"Location":"CHILI'S #0171","Address":"4801 Hopyard Rd","City":"Pleasanton","State":"CA","Zip":"94588"},{"Location":"CHM BLACK BEAR INC","Address":"5100 Hopyard Rd","City":"Pleasanton","State":"CA","Zip":"94588"},{"Location":"CLUB ONE","Address":"5860 W Las Positas Blvd","City":"Pleasanton","State":"CA","Zip":"94588"},{"Location":"CLUB SPORT PLEASANTON","Address":"7090 Johnson Dr","City":"Pleasanton","State":"CA","Zip":"94588"},{"Location":"DAVITA #262 PLEASANTON","Address":"5720 Stoneridge Mall Rd 160","City":"Pleasanton","State":"CA","Zip":"94588"},{"Location":"DOLAN FOSTER ENTERPRISES","Address":"5635 W Las Positas Blvd","City":"Pleasanton","State":"CA","Zip":"94588"},{"Location":"EDDIE PAPAS AMERICAN HANGOUT","Address":"4889 Hopyard Rd","City":"Pleasanton","State":"CA","Zip":"94588"},{"Location":"ELLIE MAE INC","Address":"4155 Hopyard Rd 200","City":"Pleasanton","State":"CA","Zip":"94588"},{"Location":"ERICSSON","Address":"6140 Stoneridge Mall Rd 350","City":"Pleasanton","State":"CA","Zip":"94588"},{"Location":"FAHRENHEIT  PIZZA","Address":"4747 Hopyard Rd","City":"Pleasanton","State":"CA","Zip":"94588"},{"Location":"FARMERS INS","Address":"4460 Rosewood Dr 6210","City":"Pleasanton","State":"CA","Zip":"94588"},{"Location":"FARMERS INSURANCE","Address":"4460 Rosewood Dr 6210","City":"Pleasanton","State":"CA","Zip":"94588"},{"Location":"FITNESS 19","Address":"4250 Rosewood Dr","City":"Pleasanton","State":"CA","Zip":"94588"},{"Location":"GAP INC IT INFRASTRUCT","Address":"4450 Rosewood Dr","City":"Pleasanton","State":"CA","Zip":"94588"},{"Location":"GOLFSMITH #044","Address":"4200 Rosewood Dr","City":"Pleasanton","State":"CA","Zip":"94588"},{"Location":"HEAD FIRST BASEBALL","Address":"7075 Commerce Cir E","City":"Pleasanton","State":"CA","Zip":"94588"},{"Location":"HINES PLEASANTON CORP.","Address":"6200 Stoneridge Mall Rd 130","City":"Pleasanton","State":"CA","Zip":"94588"},{"Location":"HITACHI","Address":"5960 Inglewood Dr 200","City":"Pleasanton","State":"CA","Zip":"94588"},{"Location":"HQ BUSINESS CENTER","Address":"4900 Hopyard Rd 100","City":"Pleasanton","State":"CA","Zip":"94588"},{"Location":"JKL ENTERPRISES","Address":"4471 Stoneridge Dr A","City":"Pleasanton","State":"CA","Zip":"94588"},{"Location":"KAISER FOUNDATION - E1","Address":"5820 Owens Dr E1","City":"Pleasanton","State":"CA","Zip":"94588"},{"Location":"KAR TUNZ INC","Address":"3657 Old Santa Rita Rd C","City":"Pleasanton","State":"CA","Zip":"94588"},{"Location":"KATHERINE B YEE DDS INC","Address":"3925 Old Santa Rita Rd 100","City":"Pleasanton","State":"CA","Zip":"94588"},{"Location":"KOHL'S #761","Address":"4525 Rosewood Dr","City":"Pleasanton","State":"CA","Zip":"94588"},{"Location":"LAD FOOD SERVICE SALES","Address":"6678 Owens Dr 100","City":"Pleasanton","State":"CA","Zip":"94588"},{"Location":"LEXUS OF PLEASANTON","Address":"4345 Rosewood Dr","City":"Pleasanton","State":"CA","Zip":"94588"},{"Location":"LMBA","Address":"7059 Calmers Circle  #g","City":"Pleasanton","State":"CA","Zip":"94588"},{"Location":"M&N GRANITE CABINET","Address":"3172 Johnson Dr C","City":"Pleasanton","State":"CA","Zip":"94588"},{"Location":"MACY'S WEST 333","Address":"1400 Stoneridge Mall Rd","City":"Pleasanton","State":"CA","Zip":"94588"},{"Location":"MACY'S WEST 333 BR","Address":"1300 Stoneridge Mall Rd","City":"Pleasanton","State":"CA","Zip":"94588"},{"Location":"MACY'S WEST 343 BR","Address":"4255 Rosewood Dr 100","City":"Pleasanton","State":"CA","Zip":"94588"},{"Location":"MARRIOTT-OAKMC","Address":"11950 Dublin Canyon Rd","City":"Pleasanton","State":"CA","Zip":"94588"},{"Location":"MEN'S WEARHOUSE #2187","Address":"2013 Stoneridge Mall Rd A204","City":"Pleasanton","State":"CA","Zip":"94588"},{"Location":"MISTER PICKLES","Address":"3059 Hopyard Rd I","City":"Pleasanton","State":"CA","Zip":"94588"},{"Location":"MORGAN STANLEY 100170","Address":"4309 Hacienda Dr 200","City":"Pleasanton","State":"CA","Zip":"94588"},{"Location":"NEXUS IS","Address":"5200 Franklin Dr 120","City":"Pleasanton","State":"CA","Zip":"94588"},{"Location":"NORDSTROM - STONERIDGE","Address":"1600 Stoneridge Mall Rd","City":"Pleasanton","State":"CA","Zip":"94588"},{"Location":"NORTH CALIFORNIA SPINE INSTITU","Address":"5725 W Las Positas Blvd 200","City":"Pleasanton","State":"CA","Zip":"94588"},{"Location":"NORTHERN CALIFORNIA DISTRICT","Address":"4780 Chabot Dr","City":"Pleasanton","State":"CA","Zip":"94588"},{"Location":"PATELCO CREDIT UNION","Address":"5050 Hopyard Rd 3","City":"Pleasanton","State":"CA","Zip":"94588"},{"Location":"PATELCO CREDIT UNION","Address":"5050 Hopyard Rd","City":"Pleasanton","State":"CA","Zip":"94588"},{"Location":"PENCAL ADMINISTRATORS","Address":"6210 Stoneridge Mall Rd 300","City":"Pleasanton","State":"CA","Zip":"94588"},{"Location":"PF CHANG'S #9819","Address":"1330 Stoneridge Mall Rd","City":"Pleasanton","State":"CA","Zip":"94588"},{"Location":"PHF II PLEASANTON LLC","Address":"11950 Dublin Canyon Rd","City":"Pleasanton","State":"CA","Zip":"94588"},{"Location":"PHO SAI GON CITY","Address":"4275 Rosewood Dr 21","City":"Pleasanton","State":"CA","Zip":"94588"},{"Location":"PITCHING CENTER 2","Address":"7073 Commerce Cir","City":"Pleasanton","State":"CA","Zip":"94588"},{"Location":"PIVOT INTERIORS","Address":"4733 Chabot Dr 201","City":"Pleasanton","State":"CA","Zip":"94588"},{"Location":"PLEASANTON GOLF CENTER","Address":"Gate 12 At Valley Ave","City":"Pleasanton","State":"CA","Zip":"94588"},{"Location":"PLEASANTON HILTON AT THE CLUB","Address":"7050 Johnson Dr","City":"Pleasanton","State":"CA","Zip":"94588"},{"Location":"PLEASANTON JR FOOTBALL LEAGUE","Address":"2110 Rheem Dr D","City":"Pleasanton","State":"CA","Zip":"94588"},{"Location":"REACH FITNESS CLUB","Address":"4460 Hacienda Dr A","City":"Pleasanton","State":"CA","Zip":"94588"},{"Location":"RED ROBIN #195","Address":"4503 Rosewood Dr","City":"Pleasanton","State":"CA","Zip":"94588"},{"Location":"RED SMOKE GRILL","Address":"4501 Hopyard Rd D3","City":"Pleasanton","State":"CA","Zip":"94588"},{"Location":"REGUS BUSINESS CENTER","Address":"6200 Stoneridge Mall Rd 3rdfl","City":"Pleasanton","State":"CA","Zip":"94588"},{"Location":"RELIANCE REALTY","Address":"6200 Stoneridge Mall Rd 320","City":"Pleasanton","State":"CA","Zip":"94588"},{"Location":"SAFEAMERICA CREDIT UNION","Address":"6001 Gibraltar Dr","City":"Pleasanton","State":"CA","Zip":"94588"},{"Location":"SCOTTRADE V04","Address":"6050 Johnson Dr B","City":"Pleasanton","State":"CA","Zip":"94588"},{"Location":"SENDO SUSHI","Address":"4555 Hopyard Rd C5","City":"Pleasanton","State":"CA","Zip":"94588"},{"Location":"SFI PLEASANTON","Address":"4432 Rosewood Dr S100","City":"Pleasanton","State":"CA","Zip":"94588"},{"Location":"SFI PLEASANTON","Address":"4450 Rosewood Dr","City":"Pleasanton","State":"CA","Zip":"94588"},{"Location":"SFI PLEASANTON LLC","Address":"4420 Rosewood Dr","City":"Pleasanton","State":"CA","Zip":"94588"},{"Location":"SILICON VALLEY BANK","Address":"4301 Hacienda Dr 210","City":"Pleasanton","State":"CA","Zip":"94588"},{"Location":"SIMPLY GREEK PLEASANTON","Address":"4220 Rosewood Dr C","City":"Pleasanton","State":"CA","Zip":"94588"},{"Location":"SMITH AND ASSOCIATES","Address":"6150 Stoneridge Mall Rd 300","City":"Pleasanton","State":"CA","Zip":"94588"},{"Location":"SOZO SUSHI","Address":"2835 Hopyard Rd","City":"Pleasanton","State":"CA","Zip":"94588"},{"Location":"SPORT CLIPS CA812","Address":"4001 Santa Rita Rd 3","City":"Pleasanton","State":"CA","Zip":"94588"},{"Location":"STANDARD PACIFIC HOMES","Address":"4750 Willow Rd Suite","City":"Pleasanton","State":"CA","Zip":"94588"},{"Location":"STONERIDGE","Address":"1 Stoneridge Mall Rd","City":"Pleasanton","State":"CA","Zip":"94588"},{"Location":"STONERIDGE APTS","Address":"6250 Stoneridge Mall Rd","City":"Pleasanton","State":"CA","Zip":"94588"},{"Location":"SURI ENTERTAINMENT CORP","Address":"6770 Santa Rita Rd","City":"Pleasanton","State":"CA","Zip":"94588"},{"Location":"THE CHEESECAKE FACTORY 0109","Address":"1350 Stoneridge Mall Rd","City":"Pleasanton","State":"CA","Zip":"94588"},{"Location":"THE CLOROX COMPANY","Address":"4900 Johnson Dr C","City":"Pleasanton","State":"CA","Zip":"94588"},{"Location":"THE COOPER COMPANIES INC","Address":"6140 Stoneridge Mall Rd 590","City":"Pleasanton","State":"CA","Zip":"94588"},{"Location":"THE HOPYARD ALEHOUSE","Address":"3015 Hopyard Rd H","City":"Pleasanton","State":"CA","Zip":"94588"},{"Location":"THORATEC CORP","Address":"6101 Stoneridge Dr","City":"Pleasanton","State":"CA","Zip":"94588"},{"Location":"THORATEC LABORATORIES","Address":"6035 Stoneridge Dr","City":"Pleasanton","State":"CA","Zip":"94588"},{"Location":"TOMMY'S","Address":"5104 Hopyard Rd","City":"Pleasanton","State":"CA","Zip":"94588"},{"Location":"TRAINER COMMUNICATIONS","Address":"6150 Stoneridge Mall Rd 225","City":"Pleasanton","State":"CA","Zip":"94588"},{"Location":"TRI VALLEY","Address":"4211 Rosewood Dr 3b","City":"Pleasanton","State":"CA","Zip":"94588"},{"Location":"TRI VALLEY CAPITAL","Address":"4464 Willow Rd 103","City":"Pleasanton","State":"CA","Zip":"94588"},{"Location":"TRI VALLEY GOLF","Address":"1780 Freisman Rd","City":"Pleasanton","State":"CA","Zip":"94588"},{"Location":"TRINET HR CORP","Address":"5568 Gibraltar Dr","City":"Pleasanton","State":"CA","Zip":"94588"},{"Location":"UNIVERSITY OF SAN FRANCISCO","Address":"6120 Stoneridge Mall Rd 150","City":"Pleasanton","State":"CA","Zip":"94588"},{"Location":"VERIZON WIRELESS","Address":"4440 Willow Rd","City":"Pleasanton","State":"CA","Zip":"94588"},{"Location":"WORKDAY","Address":"6230 Stoneridge Mall Rd","City":"Pleasanton","State":"CA","Zip":"94588"},{"Location":"WORKDAY","Address":"6200 Stoneridge Mall Rd 4","City":"Pleasanton","State":"CA","Zip":"94588"},{"Location":"WORLD WIDE TECHNOLOGY","Address":"5000 Hopyard Rd 188","City":"Pleasanton","State":"CA","Zip":"94588"},{"Location":"YA'LL COME BACK SALOON","Address":"5321 Hopyard Rd C","City":"Pleasanton","State":"CA","Zip":"94588"},{"Location":"ZAKURO","Address":"6700 Santa Rita Rd","City":"Pleasanton","State":"CA","Zip":"94588"},{"Location":"ZANTAZ INC","Address":"5758 W Las Positas Blvd","City":"Pleasanton","State":"CA","Zip":"94588"},{"Location":"ZENITH INSURANCE COMPANY","Address":"4460 Rosewood Dr 300","City":"Pleasanton","State":"CA","Zip":"94588"},{"Location":"ZUMI SUSHI","Address":"4515 Rosewood Dr","City":"Pleasanton","State":"CA","Zip":"94588"}]