[{"Location":"FIRESTONE #240718","Address":"15604 Hesperian Blvd","City":"San Lorenzo","State":"CA","Zip":"94580"},{"Location":"ICHI","Address":"15828 Hesperian Blvd","City":"San Lorenzo","State":"CA","Zip":"94580"},{"Location":"KUSINERA","Address":"15 E Lewelling Blvd","City":"San Lorenzo","State":"CA","Zip":"94580"},{"Location":"LEE LAUNDROMAT","Address":"18400 Hesperian Blvd","City":"San Lorenzo","State":"CA","Zip":"94580"},{"Location":"MARIAS SKINCARE HEALTH","Address":"15857 Channel St","City":"San Lorenzo","State":"CA","Zip":"94580"},{"Location":"PA PA PANCHO TAQUERIA","Address":"15939 Hesperian Blvd","City":"San Lorenzo","State":"CA","Zip":"94580"},{"Location":"PINOYS PLACE RESTAURANT","Address":"676 Bockman Rd G","City":"San Lorenzo","State":"CA","Zip":"94580"},{"Location":"ROUND TABLE PIZZA","Address":"15960 Hesperian Blvd","City":"San Lorenzo","State":"CA","Zip":"94580"},{"Location":"TAURIAN        #1031","Address":"15800 Hesperian Blvd","City":"San Lorenzo","State":"CA","Zip":"94580"},{"Location":"THE MANOR LOUNGE","Address":"18250 Hesperian Blvd","City":"San Lorenzo","State":"CA","Zip":"94580"},{"Location":"USHER INN","Address":"391 Lewelling Blvd","City":"San Lorenzo","State":"CA","Zip":"94580"}]