[{"Location":"FAROLITO OF SUISUN CITY","Address":"131 Sunset Ave 1","City":"Suisun City","State":"CA","Zip":"94585"},{"Location":"FOUR SEASONS SELF STORAGE","Address":"1600 Peterson Rd","City":"Suisun City","State":"CA","Zip":"94585"},{"Location":"FRATERNAL ORDER OF EAGLES","Address":"77 Marina Shopping Center","City":"Suisun City","State":"CA","Zip":"94585"},{"Location":"HAMPTON INN SUISUN CITY","Address":"2 Harbor Ctr","City":"Suisun City","State":"CA","Zip":"94585"},{"Location":"LA CABANA DE SUISUN INC","Address":"325 Main St","City":"Suisun City","State":"CA","Zip":"94585"},{"Location":"MAIN STREET BAR AND GRILL","Address":"627 Main St","City":"Suisun City","State":"CA","Zip":"94585"},{"Location":"NAPA VALLEY CHEM DRY","Address":"1029 Winters Way","City":"Suisun City","State":"CA","Zip":"94585"},{"Location":"POP EYES1","Address":"1210 Anderson Dr","City":"Suisun City","State":"CA","Zip":"94585"},{"Location":"ROUND TABLE PIZZA 695","Address":"288 Sunset Ave J","City":"Suisun City","State":"CA","Zip":"94585"},{"Location":"SA CARDIO","Address":"586 East Widgeon","City":"Suisun City","State":"CA","Zip":"94585"},{"Location":"SALVATION ARMY","Address":"586 E Wigeon Way","City":"Suisun City","State":"CA","Zip":"94585"},{"Location":"SUISUN SEAFOOD CTR INC","Address":"303 Lawler Center Dr","City":"Suisun City","State":"CA","Zip":"94585"},{"Location":"FAROLITO OF SUISUN CITY","Address":"131 Sunset Ave 1","City":"Suisun City","State":"CA","Zip":"94585"},{"Location":"FOUR SEASONS SELF STORAGE","Address":"1600 Peterson Rd","City":"Suisun City","State":"CA","Zip":"94585"},{"Location":"FRATERNAL ORDER OF EAGLES","Address":"77 Marina Shopping Center","City":"Suisun City","State":"CA","Zip":"94585"},{"Location":"HAMPTON INN SUISUN CITY","Address":"2 Harbor Ctr","City":"Suisun City","State":"CA","Zip":"94585"},{"Location":"LA CABANA DE SUISUN INC","Address":"325 Main St","City":"Suisun City","State":"CA","Zip":"94585"},{"Location":"MAIN STREET BAR AND GRILL","Address":"627 Main St","City":"Suisun City","State":"CA","Zip":"94585"},{"Location":"NAPA VALLEY CHEM DRY","Address":"1029 Winters Way","City":"Suisun City","State":"CA","Zip":"94585"},{"Location":"POP EYES1","Address":"1210 Anderson Dr","City":"Suisun City","State":"CA","Zip":"94585"},{"Location":"ROUND TABLE PIZZA 695","Address":"288 Sunset Ave J","City":"Suisun City","State":"CA","Zip":"94585"},{"Location":"SA CARDIO","Address":"586 East Widgeon","City":"Suisun City","State":"CA","Zip":"94585"},{"Location":"SALVATION ARMY","Address":"586 E Wigeon Way","City":"Suisun City","State":"CA","Zip":"94585"},{"Location":"SUISUN SEAFOOD CTR INC","Address":"303 Lawler Center Dr","City":"Suisun City","State":"CA","Zip":"94585"},{"Location":"THE ISLAND CLUB INC","Address":"3372 Gum Tree Rd","City":"Suisun City","State":"CA","Zip":"94585"}]