[{"Location":"AFTER HOURSW COCKTAILS","Address":"1687 Lewis Brown Dr","City":"American Canyon","State":"CA","Zip":"94589"},{"Location":"FOOD FOR LESS","Address":"5184 Sonoma Bvld 300","City":"Valej0","State":"CA","Zip":"94589"},{"Location":"24 HOUR FITNESS #515","Address":"4300 Sonoma Blvd 408","City":"Vallejo","State":"CA","Zip":"94589"},{"Location":"CADALEN FILIPINO CUISINE INC","Address":"5201 Sonoma Blvd","City":"Vallejo","State":"CA","Zip":"94589"},{"Location":"DAVITA #3806 VALLEJO","Address":"121 Hospital Dr","City":"Vallejo","State":"CA","Zip":"94589"},{"Location":"IN SHAPE CLUBS VALLEJO","Address":"765 Sereno Dr","City":"Vallejo","State":"CA","Zip":"94589"},{"Location":"KEEPIN IT ISLAND","Address":"3730 Sonoma Blvd","City":"Vallejo","State":"CA","Zip":"94589"},{"Location":"L&L BBQ","Address":"4300 Sonoma Blvb #724","City":"Vallejo","State":"CA","Zip":"94589"},{"Location":"NATIONAL EXPRESS TRANSIT","Address":"1850 Broadway St","City":"Vallejo","State":"CA","Zip":"94589"},{"Location":"NORTH BAY NEONATOLOGY","Address":"300 Hospital Dr","City":"Vallejo","State":"CA","Zip":"94589"},{"Location":"NORTHBAY HYDROPONICS","Address":"1650 Lewis Brown Dr","City":"Vallejo","State":"CA","Zip":"94589"},{"Location":"POPEYE'S CHICKEN","Address":"4380 Sonoma Blvd 400","City":"Vallejo","State":"CA","Zip":"94589"},{"Location":"SUTTER SOLANO","Address":"300 Hospital Dr","City":"Vallejo","State":"CA","Zip":"94589"},{"Location":"TAPIOCA EXPRESS","Address":"3720 Sonoma Blvd","City":"Vallejo","State":"CA","Zip":"94589"},{"Location":"VALLEJO WATCH & WAGER","Address":"900 Fairgrounds Dr","City":"Vallejo","State":"CA","Zip":"94589"},{"Location":"WE CASH #5","Address":"4300 Sonoma Blvd 700","City":"Vallejo","State":"CA","Zip":"94589"},{"Location":"WINDOR VALLEJO","Address":"2200 Tuolumne St","City":"Vallejo","State":"CA","Zip":"94589"}]