[{"Location":"GARY FRIEDMAN","Address":"6660 Finnell Rd","City":"Yountville","State":"CA","Zip":"94599"},{"Location":"GROEZINGER ROOM","Address":"6539 Washington St","City":"Yountville","State":"CA","Zip":"94599"},{"Location":"GRUPPO CHIRELLO","Address":"6525 Washington St D2b","City":"Yountville","State":"CA","Zip":"94599"},{"Location":"HOTEL YOUNTVILLE","Address":"6462 Washington St","City":"Yountville","State":"CA","Zip":"94599"},{"Location":"NAPA VALLEY LODGE LP","Address":"2230 Madison St","City":"Yountville","State":"CA","Zip":"94599"},{"Location":"NAPA WINE COMPANY","Address":"2 Cook Rd","City":"Yountville","State":"CA","Zip":"94599"},{"Location":"R & D KITCHEN","Address":"6795 Washington St","City":"Yountville","State":"CA","Zip":"94599"},{"Location":"SUTTER HOME WINERY","Address":"7467 Saint Heleana Hwy","City":"Yountville","State":"CA","Zip":"94599"},{"Location":"THE FRENCH LAUNDRY","Address":"6640 Washington St","City":"Yountville","State":"CA","Zip":"94599"},{"Location":"THE NAPA VALLEY RAILWAY INN","Address":"6523 Washington St","City":"Yountville","State":"CA","Zip":"94599"},{"Location":"THE Y BAR","Address":"6462 Washington St","City":"Yountville","State":"CA","Zip":"94599"},{"Location":"THOMAS KELLER RESTAURANT GROUP","Address":"6537 Yount St","City":"Yountville","State":"CA","Zip":"94599"},{"Location":"V WINE CELLAR","Address":"6525 Washington St","City":"Yountville","State":"CA","Zip":"94599"},{"Location":"VINTNER'S GOLF %2CCLUB%2CLLC","Address":"7901 Solano Ave","City":"Yountville","State":"CA","Zip":"94599"},{"Location":"YOUNTVILLE FIRESTATION","Address":"7401 Solano Ave","City":"Yountville","State":"CA","Zip":"94599"},{"Location":"YOUNTVILLE INN","Address":"6462 Washington St","City":"Yountville","State":"CA","Zip":"94599"},{"Location":"GARY FRIEDMAN","Address":"6660 Finnell Rd","City":"Yountville","State":"CA","Zip":"94599"},{"Location":"GROEZINGER ROOM","Address":"6539 Washington St","City":"Yountville","State":"CA","Zip":"94599"},{"Location":"GRUPPO CHIRELLO","Address":"6525 Washington St D2b","City":"Yountville","State":"CA","Zip":"94599"},{"Location":"HOTEL YOUNTVILLE","Address":"6462 Washington St","City":"Yountville","State":"CA","Zip":"94599"},{"Location":"NAPA VALLEY LODGE LP","Address":"2230 Madison St","City":"Yountville","State":"CA","Zip":"94599"},{"Location":"NAPA WINE COMPANY","Address":"2 Cook Rd","City":"Yountville","State":"CA","Zip":"94599"},{"Location":"R & D KITCHEN","Address":"6795 Washington St","City":"Yountville","State":"CA","Zip":"94599"},{"Location":"SUTTER HOME WINERY","Address":"7467 Saint Heleana Hwy","City":"Yountville","State":"CA","Zip":"94599"},{"Location":"THE FRENCH LAUNDRY","Address":"6640 Washington St","City":"Yountville","State":"CA","Zip":"94599"},{"Location":"THE NAPA VALLEY RAILWAY INN","Address":"6523 Washington St","City":"Yountville","State":"CA","Zip":"94599"},{"Location":"THE Y BAR","Address":"6462 Washington St","City":"Yountville","State":"CA","Zip":"94599"},{"Location":"THOMAS KELLER RESTAURANT GROUP","Address":"6537 Yount St","City":"Yountville","State":"CA","Zip":"94599"},{"Location":"V WINE CELLAR","Address":"6525 Washington St","City":"Yountville","State":"CA","Zip":"94599"},{"Location":"VINTNER'S GOLF %2CCLUB%2CLLC","Address":"7901 Solano Ave","City":"Yountville","State":"CA","Zip":"94599"},{"Location":"YOUNTVILLE FIRESTATION","Address":"7401 Solano Ave","City":"Yountville","State":"CA","Zip":"94599"},{"Location":"YOUNTVILLE INN","Address":"6462 Washington St","City":"Yountville","State":"CA","Zip":"94599"}]