[{"Location":"1220 CLUB","Address":"1220 Pine St","City":"Walnut Creek","State":"CA","Zip":"94596"},{"Location":"1515 RESTAURANT AND LOUNGE","Address":"1515 N Main St","City":"Walnut Creek","State":"CA","Zip":"94596"},{"Location":"1ST BUSINESS INSURANCE SERVICE","Address":"877 Ygnacio Valley Rd 220","City":"Walnut Creek","State":"CA","Zip":"94596"},{"Location":"AMERIPRISE FINANCIAL","Address":"200 Pringle Ave 550","City":"Walnut Creek","State":"CA","Zip":"94596"},{"Location":"AUTOPIA CARWASH","Address":"2172 N Main St","City":"Walnut Creek","State":"CA","Zip":"94596"},{"Location":"AWESOME NAILS","Address":"1203 Arroyo Way","City":"Walnut Creek","State":"CA","Zip":"94596"},{"Location":"BABUSHKA RUSSIAN DELI","Address":"1475 Newell Ave","City":"Walnut Creek","State":"CA","Zip":"94596"},{"Location":"BBVA WALNUT CREEK","Address":"1101 S California Blvd","City":"Walnut Creek","State":"CA","Zip":"94596"},{"Location":"BLU 42 SPORTS LOUNGE","Address":"1251 Arroyo Way","City":"Walnut Creek","State":"CA","Zip":"94596"},{"Location":"BLUE SHIELD OF CA%2CWALNUT CREEK","Address":"2175 N California Blvd 250","City":"Walnut Creek","State":"CA","Zip":"94596"},{"Location":"BROADWAY PLAZA","Address":"1275 Broadway Plz","City":"Walnut Creek","State":"CA","Zip":"94596"},{"Location":"CALIFORNIA PIZZA KITCHEN #33","Address":"1120 Broadway Plz","City":"Walnut Creek","State":"CA","Zip":"94596"},{"Location":"CALIFORNIA PLAZA","Address":"2121 N California Blvd 230","City":"Walnut Creek","State":"CA","Zip":"94596"},{"Location":"CAPITAL ADVISORS ASSET MGMT","Address":"1401 N Broadway 210","City":"Walnut Creek","State":"CA","Zip":"94596"},{"Location":"CB RICHARD ELLIS INC","Address":"2175 N California Blvd 300","City":"Walnut Creek","State":"CA","Zip":"94596"},{"Location":"CIGAR LOFT AND LOUNGE","Address":"1149 Alpine Rd","City":"Walnut Creek","State":"CA","Zip":"94596"},{"Location":"CINCO DE MAYO RESTAURANT","Address":"1372 Locust St","City":"Walnut Creek","State":"CA","Zip":"94596"},{"Location":"COLORTIME BY DIANNA","Address":"1829 Mt Diablo Blvd D","City":"Walnut Creek","State":"CA","Zip":"94596"},{"Location":"CORNERS TAVERN","Address":"1342 Broadway Plz","City":"Walnut Creek","State":"CA","Zip":"94596"},{"Location":"CROGAN'S SPORTS BAR - TRP","Address":"1387 Locust St","City":"Walnut Creek","State":"CA","Zip":"94596"},{"Location":"DANS BAR","Address":"1524 Civic Dr","City":"Walnut Creek","State":"CA","Zip":"94596"},{"Location":"DAS KALOS","Address":"1243 Broadway Plz","City":"Walnut Creek","State":"CA","Zip":"94596"},{"Location":"DESTINATION MATERNITY","Address":"1604 Mt Diablo Blvd","City":"Walnut Creek","State":"CA","Zip":"94596"},{"Location":"EASTBAY AUTO SPA","Address":"1363 Pine St","City":"Walnut Creek","State":"CA","Zip":"94596"},{"Location":"ELEVE RESTAURANT","Address":"1677 N Main St","City":"Walnut Creek","State":"CA","Zip":"94596"},{"Location":"FIDELITY INVESTMENTS 184","Address":"2001 N Main St","City":"Walnut Creek","State":"CA","Zip":"94596"},{"Location":"FIRESTONE #117366","Address":"1205 Parkside Dr","City":"Walnut Creek","State":"CA","Zip":"94596"},{"Location":"FIRST REPUBLIC BANK","Address":"1400 Civic Dr","City":"Walnut Creek","State":"CA","Zip":"94596"},{"Location":"FLEMING'S #1551","Address":"1685 Mt Diablo Blvd","City":"Walnut Creek","State":"CA","Zip":"94596"},{"Location":"GENOVA DELICATESSAN","Address":"1105 S California Blvd","City":"Walnut Creek","State":"CA","Zip":"94596"},{"Location":"HAMACHI","Address":"1523 Giammona Dr","City":"Walnut Creek","State":"CA","Zip":"94596"},{"Location":"HEFFEMAN INSURANCE BROKERS","Address":"1350 Carlback Ave","City":"Walnut Creek","State":"CA","Zip":"94596"},{"Location":"HIRO SUSHI","Address":"1690 Locust St","City":"Walnut Creek","State":"CA","Zip":"94596"},{"Location":"HOME CHICKEN AND WAFFLES","Address":"1653 Mt Diablo Blvd","City":"Walnut Creek","State":"CA","Zip":"94596"},{"Location":"HOUSE OF SAKI","Address":"313 N Civic Dr","City":"Walnut Creek","State":"CA","Zip":"94596"},{"Location":"HQ GLOBAL WORKPLACES","Address":"2121 N California Blvd 290","City":"Walnut Creek","State":"CA","Zip":"94596"},{"Location":"IL FORNAIO WALNUT CREEK","Address":"1430 Mt Diablo Blvd","City":"Walnut Creek","State":"CA","Zip":"94596"},{"Location":"KINDUSTRIES ENTERPRISES V","Address":"1293 Parkside Dr","City":"Walnut Creek","State":"CA","Zip":"94596"},{"Location":"LEGACY PARTNERS COMMERCIAL","Address":"1990 N California Blvd","City":"Walnut Creek","State":"CA","Zip":"94596"},{"Location":"LEGACY PARTNERS COMMERCIAL","Address":"2001 N Main St","City":"Walnut Creek","State":"CA","Zip":"94596"},{"Location":"LEGACY PARTNERS COMMERCIAL #2","Address":"2033 N Main St","City":"Walnut Creek","State":"CA","Zip":"94596"},{"Location":"LUXURY MOTOR CARS","Address":"2330 N Main St","City":"Walnut Creek","State":"CA","Zip":"94596"},{"Location":"LUXURY MOTOR CARS2","Address":"1425 Parkside Dr","City":"Walnut Creek","State":"CA","Zip":"94596"},{"Location":"MACY'S WEST 324","Address":"1320 Broadway Plz","City":"Walnut Creek","State":"CA","Zip":"94596"},{"Location":"MACY'S WEST 324 BR","Address":"Walnut Creek Broadway Plz","City":"Walnut Creek","State":"CA","Zip":"94596"},{"Location":"MACY'S WEST 324 BR JR'S","Address":"1301 Broadway Plz","City":"Walnut Creek","State":"CA","Zip":"94596"},{"Location":"MAXIMUM DEFINITION","Address":"1330 N Broadway A","City":"Walnut Creek","State":"CA","Zip":"94596"},{"Location":"MCNAMARA LAW FIRM","Address":"1211 Newell Ave","City":"Walnut Creek","State":"CA","Zip":"94596"},{"Location":"MDR GHABEN INC","Address":"1394 N Main St","City":"Walnut Creek","State":"CA","Zip":"94596"},{"Location":"MDRZ INC.","Address":"1548 Bonanza St","City":"Walnut Creek","State":"CA","Zip":"94596"},{"Location":"MEN'S WEARHOUSE #2160","Address":"1101 Locust St","City":"Walnut Creek","State":"CA","Zip":"94596"},{"Location":"MERCEDES BENZ OF WALNUT","Address":"1301 Parkside Dr","City":"Walnut Creek","State":"CA","Zip":"94596"},{"Location":"MERRILL LYNCH CA4-813-07-00","Address":"1331 N California Blvd 700","City":"Walnut Creek","State":"CA","Zip":"94596"},{"Location":"MI CASA","Address":"2195 N Broadway","City":"Walnut Creek","State":"CA","Zip":"94596"},{"Location":"MODERN CHINA CAFE","Address":"1525 N Main St","City":"Walnut Creek","State":"CA","Zip":"94596"},{"Location":"MORGAN STANLEY 100125","Address":"1333 N California Blvd","City":"Walnut Creek","State":"CA","Zip":"94596"},{"Location":"MY TOYS 4 RENT","Address":"2042 N Main St","City":"Walnut Creek","State":"CA","Zip":"94596"},{"Location":"NEIMAN MARCUS 1110","Address":"1000 S Main St","City":"Walnut Creek","State":"CA","Zip":"94596"},{"Location":"NEW YORK LIFE INSURANCE","Address":"2121 N California Blvd 550","City":"Walnut Creek","State":"CA","Zip":"94596"},{"Location":"NORDSTROM WALNUT CREEK","Address":"1200 Broadway Plz","City":"Walnut Creek","State":"CA","Zip":"94596"},{"Location":"NORTH STATE AUTO","Address":"2244 N Main St","City":"Walnut Creek","State":"CA","Zip":"94596"},{"Location":"ORIGINAL HOT DOG PLACE","Address":"1420 Lincoln Ave","City":"Walnut Creek","State":"CA","Zip":"94596"},{"Location":"Oyama Sushi","Address":"1519 N Main St","City":"Walnut Creek","State":"CA","Zip":"94596"},{"Location":"OYAMA SUSHI","Address":"1521 N Main St","City":"Walnut Creek","State":"CA","Zip":"94596"},{"Location":"PACTRUST BANK","Address":"2121 N California Blvd 675","City":"Walnut Creek","State":"CA","Zip":"94596"},{"Location":"PAPA JOHNS PIZZA","Address":"1280 Newell Ave B","City":"Walnut Creek","State":"CA","Zip":"94596"},{"Location":"PAYNTON CHIROPRATIC","Address":"1414 Maria Ln","City":"Walnut Creek","State":"CA","Zip":"94596"},{"Location":"PF CHANG'S #4500","Address":"1205 Broadway Plz","City":"Walnut Creek","State":"CA","Zip":"94596"},{"Location":"PINKYS PIZZA PARLA","Address":"2085 N Broadway 100","City":"Walnut Creek","State":"CA","Zip":"94596"},{"Location":"PRO HOME SYSTEMS","Address":"1561 Civic Dr","City":"Walnut Creek","State":"CA","Zip":"94596"},{"Location":"PYRAMID ALE HOUSE","Address":"1410 Locust St","City":"Walnut Creek","State":"CA","Zip":"94596"},{"Location":"SCOTTRADE 04H","Address":"100 Pringle Ave 300","City":"Walnut Creek","State":"CA","Zip":"94596"},{"Location":"SF AND JS GROUP","Address":"2085 N Broadway 300","City":"Walnut Creek","State":"CA","Zip":"94596"},{"Location":"SPORTS AUTHORITY 055","Address":"1675 Olympic Blvd","City":"Walnut Creek","State":"CA","Zip":"94596"},{"Location":"Str8 Edge Barber Shop","Address":"1626 Locust St","City":"Walnut Creek","State":"CA","Zip":"94596"},{"Location":"STR8 EDGE BARBERSHO","Address":"1626 Locust St","City":"Walnut Creek","State":"CA","Zip":"94596"},{"Location":"SUNOL RIDGE","Address":"1388 Locust St","City":"Walnut Creek","State":"CA","Zip":"94596"},{"Location":"SUNRISE BISTRO","Address":"1559 Botelho Dr","City":"Walnut Creek","State":"CA","Zip":"94596"},{"Location":"TARGET","Address":"1871 N Main St","City":"Walnut Creek","State":"CA","Zip":"94596"},{"Location":"TBSIT LLC","Address":"1280 Newell Ave D","City":"Walnut Creek","State":"CA","Zip":"94596"},{"Location":"TD AMERITRADE #05009","Address":"200 Pringle Ave 100","City":"Walnut Creek","State":"CA","Zip":"94596"},{"Location":"THE CHEESECAKE FACTORY 0146","Address":"1181 Locust St","City":"Walnut Creek","State":"CA","Zip":"94596"},{"Location":"TIKI TOMS","Address":"1535 Olympic Blvd","City":"Walnut Creek","State":"CA","Zip":"94596"},{"Location":"TILDEN PROPERTIES","Address":"1660 Olympic Blvd 215","City":"Walnut Creek","State":"CA","Zip":"94596"},{"Location":"TISHMAN SPEYER","Address":"2121 N California Blvd 230","City":"Walnut Creek","State":"CA","Zip":"94596"},{"Location":"UBS FINANCIAL SERVICES INC.","Address":"2185 N California Blvd 400","City":"Walnut Creek","State":"CA","Zip":"94596"},{"Location":"VA DE VI BISTRO AND WINE","Address":"1511 Mt Diablo Blvd","City":"Walnut Creek","State":"CA","Zip":"94596"},{"Location":"VIC STEWARTS INC","Address":"850 S Broadway","City":"Walnut Creek","State":"CA","Zip":"94596"},{"Location":"WALNUT CREEK YACHT CLUB","Address":"1555 Bonanza St","City":"Walnut Creek","State":"CA","Zip":"94596"},{"Location":"WPLJ'S","Address":"2112 N Main St","City":"Walnut Creek","State":"CA","Zip":"94596"},{"Location":"SALON L","Address":"2337 Boulavard Cir","City":"Wc","State":"CA","Zip":"94596"}]