[{"Location":"24 HOUR FITNESS #885","Address":"2800 N Main St","City":"Walnut Creek","State":"CA","Zip":"94597"},{"Location":"CASA BELICOSO","Address":"2540 N Main St","City":"Walnut Creek","State":"CA","Zip":"94597"},{"Location":"CENTRAL CONTRA COSTA SANITARY","Address":"1250 Springbrook Rd","City":"Walnut Creek","State":"CA","Zip":"94597"},{"Location":"CONTRA COSTA ONCOLOGY 2","Address":"3000 Oak Rd 111","City":"Walnut Creek","State":"CA","Zip":"94597"},{"Location":"CSAA INSURANCE GROUP","Address":"3055 Oak Rd","City":"Walnut Creek","State":"CA","Zip":"94597"},{"Location":"HEAVENLY BISTRO","Address":"3116 Oak Rd","City":"Walnut Creek","State":"CA","Zip":"94597"},{"Location":"HOLIDAY INN EXPRESS 0037280","Address":"2730 N Main St","City":"Walnut Creek","State":"CA","Zip":"94597"},{"Location":"MASSE'S B & S BAR","Address":"2721 N Main St","City":"Walnut Creek","State":"CA","Zip":"94597"},{"Location":"Mika'S Japanese Cuisine","Address":"3116 Oak Rd","City":"Walnut Creek","State":"CA","Zip":"94597"},{"Location":"NAMA SUSHI & TERIYAKI","Address":"1502 Sunnyvale Ave","City":"Walnut Creek","State":"CA","Zip":"94597"},{"Location":"PROGRESSIVE INSURANCE","Address":"2860 N Main St","City":"Walnut Creek","State":"CA","Zip":"94597"},{"Location":"RENAISSANCE (0051790)","Address":"2805 Jones Rd","City":"Walnut Creek","State":"CA","Zip":"94597"},{"Location":"RENAISSANCE CLUB SPORT","Address":"2805 Jones Rd","City":"Walnut Creek","State":"CA","Zip":"94597"},{"Location":"SNAP FITNESS WALNUT CREEK","Address":"1533a Palos Verdes Mall","City":"Walnut Creek","State":"CA","Zip":"94597"},{"Location":"WALIA ENTERPRISES LLC","Address":"2580 N Main St A","City":"Walnut Creek","State":"CA","Zip":"94597"},{"Location":"WALNUT CREEK SPORTS BARBERSHOP","Address":"1555 Palos Verdes Mall A","City":"Walnut Creek","State":"CA","Zip":"94597"}]