[{"Location":"AUTOLINXING","Address":"3300 Sonoma Blvd","City":"Vallejo","State":"CA","Zip":"94590"},{"Location":"BUTTERCUP KITCHEN","Address":"3288 Sonoma Blvd","City":"Vallejo","State":"CA","Zip":"94590"},{"Location":"CALIFORNIA MARITIME A","Address":"200 Maritime Academy Dr 5","City":"Vallejo","State":"CA","Zip":"94590"},{"Location":"CALIFORNIA MARITIME ACADEMY","Address":"200 Maritime Academy Dr","City":"Vallejo","State":"CA","Zip":"94590"},{"Location":"CITY OF VALLEJO","Address":"111 Amador St","City":"Vallejo","State":"CA","Zip":"94590"},{"Location":"DAVITA #2123 CARQUINEZ","Address":"125 Corporate Pl","City":"Vallejo","State":"CA","Zip":"94590"},{"Location":"DJ BIBINGAHAN INC","Address":"3495 Sonoma Blvd M","City":"Vallejo","State":"CA","Zip":"94590"},{"Location":"DUNPHYS","Address":"401 York St","City":"Vallejo","State":"CA","Zip":"94590"},{"Location":"EARLS TEXS BBQ","Address":"416 Sutter St","City":"Vallejo","State":"CA","Zip":"94590"},{"Location":"FIRESTONE #462462","Address":"3560 Sonoma Blvd","City":"Vallejo","State":"CA","Zip":"94590"},{"Location":"FOSTER LUMBER YARDS","Address":"3280 Sonoma Blvd","City":"Vallejo","State":"CA","Zip":"94590"},{"Location":"FRESCHI","Address":"3505 Sonoma Blvd 40","City":"Vallejo","State":"CA","Zip":"94590"},{"Location":"GEORGIA STREET PLAZA","Address":"301 Georgia St 330","City":"Vallejo","State":"CA","Zip":"94590"},{"Location":"HIGHLINE SERVICES LLC","Address":"3424 Sonoma Blvd B","City":"Vallejo","State":"CA","Zip":"94590"},{"Location":"JOE BARBER CUTS & STYLES","Address":"929 Tennessee St","City":"Vallejo","State":"CA","Zip":"94590"},{"Location":"JOHNS BEVERLY LODGESS 1268","Address":"1020 Alabama St","City":"Vallejo","State":"CA","Zip":"94590"},{"Location":"KAISER PERMANENTE","Address":"1617 Broadway St","City":"Vallejo","State":"CA","Zip":"94590"},{"Location":"KESLERS LOUNGE","Address":"125 Couch St","City":"Vallejo","State":"CA","Zip":"94590"},{"Location":"KIMCHEE RESTAURANT","Address":"480 Redwood St","City":"Vallejo","State":"CA","Zip":"94590"},{"Location":"LES SCHWAB TIRE CENTER","Address":"3301 Sonoma Blvd","City":"Vallejo","State":"CA","Zip":"94590"},{"Location":"M F MAHER INC","Address":"490 Ryder St","City":"Vallejo","State":"CA","Zip":"94590"},{"Location":"MAX'S OF MANILA","Address":"3555 Sonoma Blvd","City":"Vallejo","State":"CA","Zip":"94590"},{"Location":"MEYER CORP","Address":"1 Meyer Plz","City":"Vallejo","State":"CA","Zip":"94590"},{"Location":"MI JACALISO","Address":"105 Couch St","City":"Vallejo","State":"CA","Zip":"94590"},{"Location":"MOMOS CAFE","Address":"402 Georgia St","City":"Vallejo","State":"CA","Zip":"94590"},{"Location":"NAPOLI PIZZA GROUP INC","Address":"124 Tennessee St","City":"Vallejo","State":"CA","Zip":"94590"},{"Location":"NATIONAL EXPRESS TRANSIT","Address":"311 Sacramento St","City":"Vallejo","State":"CA","Zip":"94590"},{"Location":"NEW CHINA BARN","Address":"320 Tuolumne St","City":"Vallejo","State":"CA","Zip":"94590"},{"Location":"NINO MOTORS","Address":"3268 Sonoma Blvd","City":"Vallejo","State":"CA","Zip":"94590"},{"Location":"OLDE TOWNE FLOORS","Address":"3666 Sonoma Blvd","City":"Vallejo","State":"CA","Zip":"94590"},{"Location":"PACIFIC GAS AND ELECTRI CO","Address":"303 Carlson St","City":"Vallejo","State":"CA","Zip":"94590"},{"Location":"REACTIONS SPORTS BAR","Address":"1120 Broadway St","City":"Vallejo","State":"CA","Zip":"94590"},{"Location":"SALON DE BELLEZA DIVAS","Address":"330 Broadway St","City":"Vallejo","State":"CA","Zip":"94590"},{"Location":"SOLANO DERMATOLOGY ASSOCIATES","Address":"2290 Sacramento St","City":"Vallejo","State":"CA","Zip":"94590"},{"Location":"THE TOWN HOUSE","Address":"401 Georgia St A","City":"Vallejo","State":"CA","Zip":"94590"},{"Location":"THREE C CONSTRUCTION INC","Address":"24 California St","City":"Vallejo","State":"CA","Zip":"94590"},{"Location":"TRANSPORT PRODUCTS UNLIMITED","Address":"225b Bennett Ave","City":"Vallejo","State":"CA","Zip":"94590"},{"Location":"U S C G STATIONVALLEJO","Address":"2 Harbor Way","City":"Vallejo","State":"CA","Zip":"94590"},{"Location":"VALLEJO POLICE DEPT-NCC","Address":"111 Amador St","City":"Vallejo","State":"CA","Zip":"94590"},{"Location":"VALRIOS TROPICAL BAKESHOP","Address":"3495 Sonoma Blvd B","City":"Vallejo","State":"CA","Zip":"94590"},{"Location":"VALUE CENTER","Address":"490 Redwood St","City":"Vallejo","State":"CA","Zip":"94590"},{"Location":"VERSUS BEAUTY SALON","Address":"2052 Florida St","City":"Vallejo","State":"CA","Zip":"94590"},{"Location":"VIRGIL CHAVEZ LAND SURVE","Address":"721 Tuolumne St","City":"Vallejo","State":"CA","Zip":"94590"},{"Location":"ZANNYS","Address":"2804 Sonoma Blvd","City":"Vallejo","State":"CA","Zip":"94590"},{"Location":"ZIO FRAEDOS","Address":"23 Harbor Way","City":"Vallejo","State":"CA","Zip":"94590"},{"Location":"AUTOLINXING","Address":"3300 Sonoma Blvd","City":"Vallejo","State":"CA","Zip":"94590"},{"Location":"BUTTERCUP KITCHEN","Address":"3288 Sonoma Blvd","City":"Vallejo","State":"CA","Zip":"94590"},{"Location":"CALIFORNIA MARITIME A","Address":"200 Maritime Academy Dr 5","City":"Vallejo","State":"CA","Zip":"94590"},{"Location":"CALIFORNIA MARITIME ACADEMY","Address":"200 Maritime Academy Dr","City":"Vallejo","State":"CA","Zip":"94590"},{"Location":"CITY OF VALLEJO","Address":"111 Amador St","City":"Vallejo","State":"CA","Zip":"94590"},{"Location":"DAVITA #2123 CARQUINEZ","Address":"125 Corporate Pl","City":"Vallejo","State":"CA","Zip":"94590"},{"Location":"DJ BIBINGAHAN INC","Address":"3495 Sonoma Blvd M","City":"Vallejo","State":"CA","Zip":"94590"},{"Location":"DUNPHYS","Address":"401 York St","City":"Vallejo","State":"CA","Zip":"94590"},{"Location":"EARLS TEXS BBQ","Address":"416 Sutter St","City":"Vallejo","State":"CA","Zip":"94590"},{"Location":"FIRESTONE #462462","Address":"3560 Sonoma Blvd","City":"Vallejo","State":"CA","Zip":"94590"},{"Location":"FOSTER LUMBER YARDS","Address":"3280 Sonoma Blvd","City":"Vallejo","State":"CA","Zip":"94590"},{"Location":"FRESCHI","Address":"3505 Sonoma Blvd 40","City":"Vallejo","State":"CA","Zip":"94590"},{"Location":"GEORGIA STREET PLAZA","Address":"301 Georgia St 330","City":"Vallejo","State":"CA","Zip":"94590"},{"Location":"HIGHLINE SERVICES LLC","Address":"3424 Sonoma Blvd B","City":"Vallejo","State":"CA","Zip":"94590"},{"Location":"JOE BARBER CUTS & STYLES","Address":"929 Tennessee St","City":"Vallejo","State":"CA","Zip":"94590"},{"Location":"JOHNS BEVERLY LODGESS 1268","Address":"1020 Alabama St","City":"Vallejo","State":"CA","Zip":"94590"},{"Location":"KAISER PERMANENTE","Address":"1617 Broadway St","City":"Vallejo","State":"CA","Zip":"94590"},{"Location":"KESLERS LOUNGE","Address":"125 Couch St","City":"Vallejo","State":"CA","Zip":"94590"},{"Location":"KIMCHEE RESTAURANT","Address":"480 Redwood St","City":"Vallejo","State":"CA","Zip":"94590"},{"Location":"LES SCHWAB TIRE CENTER","Address":"3301 Sonoma Blvd","City":"Vallejo","State":"CA","Zip":"94590"},{"Location":"M F MAHER INC","Address":"490 Ryder St","City":"Vallejo","State":"CA","Zip":"94590"},{"Location":"MAX'S OF MANILA","Address":"3555 Sonoma Blvd","City":"Vallejo","State":"CA","Zip":"94590"},{"Location":"MEYER CORP","Address":"1 Meyer Plz","City":"Vallejo","State":"CA","Zip":"94590"},{"Location":"MI JACALISO","Address":"105 Couch St","City":"Vallejo","State":"CA","Zip":"94590"},{"Location":"MOMOS CAFE","Address":"402 Georgia St","City":"Vallejo","State":"CA","Zip":"94590"},{"Location":"NAPOLI PIZZA GROUP INC","Address":"124 Tennessee St","City":"Vallejo","State":"CA","Zip":"94590"},{"Location":"NATIONAL EXPRESS TRANSIT","Address":"311 Sacramento St","City":"Vallejo","State":"CA","Zip":"94590"},{"Location":"NEW CHINA BARN","Address":"320 Tuolumne St","City":"Vallejo","State":"CA","Zip":"94590"},{"Location":"NINO MOTORS","Address":"3268 Sonoma Blvd","City":"Vallejo","State":"CA","Zip":"94590"},{"Location":"OLDE TOWNE FLOORS","Address":"3666 Sonoma Blvd","City":"Vallejo","State":"CA","Zip":"94590"},{"Location":"PACIFIC GAS AND ELECTRI CO","Address":"303 Carlson St","City":"Vallejo","State":"CA","Zip":"94590"},{"Location":"REACTIONS SPORTS BAR","Address":"1120 Broadway St","City":"Vallejo","State":"CA","Zip":"94590"},{"Location":"SALON DE BELLEZA DIVAS","Address":"330 Broadway St","City":"Vallejo","State":"CA","Zip":"94590"},{"Location":"SOLANO DERMATOLOGY ASSOCIATES","Address":"2290 Sacramento St","City":"Vallejo","State":"CA","Zip":"94590"},{"Location":"THE TOWN HOUSE","Address":"401 Georgia St A","City":"Vallejo","State":"CA","Zip":"94590"},{"Location":"THREE C CONSTRUCTION INC","Address":"24 California St","City":"Vallejo","State":"CA","Zip":"94590"},{"Location":"TRANSPORT PRODUCTS UNLIMITED","Address":"225b Bennett Ave","City":"Vallejo","State":"CA","Zip":"94590"},{"Location":"U S C G STATIONVALLEJO","Address":"2 Harbor Way","City":"Vallejo","State":"CA","Zip":"94590"},{"Location":"VALLEJO POLICE DEPT-NCC","Address":"111 Amador St","City":"Vallejo","State":"CA","Zip":"94590"},{"Location":"VALRIOS TROPICAL BAKESHOP","Address":"3495 Sonoma Blvd B","City":"Vallejo","State":"CA","Zip":"94590"},{"Location":"VALUE CENTER","Address":"490 Redwood St","City":"Vallejo","State":"CA","Zip":"94590"},{"Location":"VERSUS BEAUTY SALON","Address":"2052 Florida St","City":"Vallejo","State":"CA","Zip":"94590"},{"Location":"VIRGIL CHAVEZ LAND SURVE","Address":"721 Tuolumne St","City":"Vallejo","State":"CA","Zip":"94590"},{"Location":"ZANNYS","Address":"2804 Sonoma Blvd","City":"Vallejo","State":"CA","Zip":"94590"},{"Location":"ZIO FRAEDOS","Address":"23 Harbor Way","City":"Vallejo","State":"CA","Zip":"94590"}]