[{"Location":"ALLSTAR DOUGHNUTS","Address":"2054 Treat Blvd","City":"Walnut Creek","State":"CA","Zip":"94598"},{"Location":"APPLEBEE'S WALNUT CR #2111018","Address":"2819 Ygnacio Valley Rd","City":"Walnut Creek","State":"CA","Zip":"94598"},{"Location":"BLACKS BEARS DINNER","Address":"700 Bancroft Rd","City":"Walnut Creek","State":"CA","Zip":"94598"},{"Location":"BOUNDRY OAKS GOLF","Address":"3800 Valley Vista Rd","City":"Walnut Creek","State":"CA","Zip":"94598"},{"Location":"CHILDRENS HOSPITAL OAKLAND","Address":"100 N Wiget Ln 200","City":"Walnut Creek","State":"CA","Zip":"94598"},{"Location":"CONTRA COSTA ONCOLOGY","Address":"500 Lennon Ln","City":"Walnut Creek","State":"CA","Zip":"94598"},{"Location":"DAVITA #667 WALNUT CREEK","Address":"404 N Wiget Ln","City":"Walnut Creek","State":"CA","Zip":"94598"},{"Location":"DEL MONTE FOODS","Address":"205 N Wiget Ln","City":"Walnut Creek","State":"CA","Zip":"94598"},{"Location":"DIABLO HILLS GOLF COURSE","Address":"1551 Marchbanks Dr","City":"Walnut Creek","State":"CA","Zip":"94598"},{"Location":"FITNESS 19","Address":"1853 Ygnacio Valley Rd","City":"Walnut Creek","State":"CA","Zip":"94598"},{"Location":"FMC 67840000","Address":"365 Lennon Ln 160","City":"Walnut Creek","State":"CA","Zip":"94598"},{"Location":"GENOVA DELICATESSEN","Address":"2064 Treat Blvd","City":"Walnut Creek","State":"CA","Zip":"94598"},{"Location":"INTERGRATED PAIN MANAGEM","Address":"450 N Wiget Ln","City":"Walnut Creek","State":"CA","Zip":"94598"},{"Location":"JOHN MUIR MEDICAL CENTER","Address":"1601 Ygnacio Valley Rd","City":"Walnut Creek","State":"CA","Zip":"94598"},{"Location":"KINDERS MEATS AND DELI","Address":"1831 Ygnacio Valley Rd","City":"Walnut Creek","State":"CA","Zip":"94598"},{"Location":"LENNON LN PROPERTIES LL","Address":"365 Lennon Ln","City":"Walnut Creek","State":"CA","Zip":"94598"},{"Location":"MARYS PIZZA SHACK","Address":"2246 Oak Grove Rd","City":"Walnut Creek","State":"CA","Zip":"94598"},{"Location":"MICHAELS HAIRWORKS","Address":"1809 Ygnacio Valley Rd","City":"Walnut Creek","State":"CA","Zip":"94598"},{"Location":"MOOYAH BURGERS","Address":"1815 Ygnacio Valley Rd","City":"Walnut Creek","State":"CA","Zip":"94598"},{"Location":"NORTHERN CALIFORNIA ARTHRITUS","Address":"120 La Cas Villa Ste 204","City":"Walnut Creek","State":"CA","Zip":"94598"},{"Location":"OBJECT EDGE","Address":"315 Lennon Ln","City":"Walnut Creek","State":"CA","Zip":"94598"},{"Location":"ROCCO'S","Address":"2909 Ygnacio Valley Rd","City":"Walnut Creek","State":"CA","Zip":"94598"},{"Location":"SAN MARCO NURSING AND REHAB","Address":"130 Tampico","City":"Walnut Creek","State":"CA","Zip":"94598"},{"Location":"SHADELANS SURGERY CENTER","Address":"100 N Wiget Ln 100","City":"Walnut Creek","State":"CA","Zip":"94598"},{"Location":"SITZMARK RESTARAUNT INC","Address":"2280 Oak Grove Rd A","City":"Walnut Creek","State":"CA","Zip":"94598"},{"Location":"SPORTS BASEMENT 4","Address":"1881 Ygnacio Valley Rd","City":"Walnut Creek","State":"CA","Zip":"94598"},{"Location":"THOMAS WIRIG DOLL AND COMPANY","Address":"165 Lennon Ln 200","City":"Walnut Creek","State":"CA","Zip":"94598"},{"Location":"UNA MAS MEXICAN GRILL","Address":"2054 Treat Blvd B","City":"Walnut Creek","State":"CA","Zip":"94598"},{"Location":"VERIZON WIRELESS","Address":"2795 Mitchell Dr","City":"Walnut Creek","State":"CA","Zip":"94598"},{"Location":"VERIZON WIRELESS","Address":"2775 Mitchell Dr 8-1","City":"Walnut Creek","State":"CA","Zip":"94598"},{"Location":"VERIZON WIRELESS NETWORKS","Address":"2785 Mitchell Dr 9","City":"Walnut Creek","State":"CA","Zip":"94598"},{"Location":"WALNUT CREEK TENNIS CENTER","Address":"1751 Heather Dr","City":"Walnut Creek","State":"CA","Zip":"94598"}]