[{"Location":"","Address":"58  Springs Town Center","City":"Vallejo","State":"CA","Zip":"94591"},{"Location":"A B INSURANCE","Address":"1727 Springs Rd","City":"Vallejo","State":"CA","Zip":"94591"},{"Location":"APPLEBEE'S #2140019","Address":"1041 Admiral Callaghan Ln","City":"Vallejo","State":"CA","Zip":"94591"},{"Location":"AVERY GREENE MOTORS","Address":"800 Admiral Callaghan Ln","City":"Vallejo","State":"CA","Zip":"94591"},{"Location":"BELVEDERE AT NORTHGATE","Address":"1201 Opera Way","City":"Vallejo","State":"CA","Zip":"94591"},{"Location":"BLACK BEAR DINER","Address":"980 Admiral Callaghan Ln","City":"Vallejo","State":"CA","Zip":"94591"},{"Location":"BLUE ROCK SPRINGS GOLF COURSE","Address":"655 Columbus Pkwy","City":"Vallejo","State":"CA","Zip":"94591"},{"Location":"BRISBAIN R PUCAN DMD","Address":"2143 Springs Rd","City":"Vallejo","State":"CA","Zip":"94591"},{"Location":"CAMINAR","Address":"273 Avian Dr A","City":"Vallejo","State":"CA","Zip":"94591"},{"Location":"CHEVY'S 2026","Address":"157 Plaza Dr","City":"Vallejo","State":"CA","Zip":"94591"},{"Location":"CHRIS'S CLUB","Address":"656 Benicia Rd","City":"Vallejo","State":"CA","Zip":"94591"},{"Location":"COCONUT GROVE","Address":"905 Lincoln Rd E","City":"Vallejo","State":"CA","Zip":"94591"},{"Location":"EARLS TEXAS BBQ","Address":"658 Benicia Rd","City":"Vallejo","State":"CA","Zip":"94591"},{"Location":"EDITHA AQUINO DMD","Address":"2600 Springs Rd","City":"Vallejo","State":"CA","Zip":"94591"},{"Location":"ENVY BEAUTY CARE","Address":"145 Plaza Dr 203","City":"Vallejo","State":"CA","Zip":"94591"},{"Location":"GENTLEMAN  JIMS","Address":"1324 Lincoln Rd E","City":"Vallejo","State":"CA","Zip":"94591"},{"Location":"IN SHAPE 59 VALLEJO","Address":"124 Lincoln Rd E","City":"Vallejo","State":"CA","Zip":"94591"},{"Location":"KOHL'S #763","Address":"1190 Admiral Callaghan Ln","City":"Vallejo","State":"CA","Zip":"94591"},{"Location":"MOMENTUM CHRYSLER VALLEJO","Address":"1001 Admiral Callaghan Ln","City":"Vallejo","State":"CA","Zip":"94591"},{"Location":"MOUNTAIN MIKES PIZZA VAL","Address":"972 Admiral Callaghan Ln","City":"Vallejo","State":"CA","Zip":"94591"},{"Location":"PASTA POMODORO","Address":"163 Plaza Dr","City":"Vallejo","State":"CA","Zip":"94591"},{"Location":"RED LOBSTER #0693","Address":"1180 Admiral Callaghan Ln","City":"Vallejo","State":"CA","Zip":"94591"},{"Location":"ROUND TABLE PIZZA","Address":"2633 Springs Rd","City":"Vallejo","State":"CA","Zip":"94591"},{"Location":"RUSTLER GRILL","Address":"137 Plaza Dr 315","City":"Vallejo","State":"CA","Zip":"94591"},{"Location":"SPRING TOWN TIRE","Address":"1845 Springs Rd","City":"Vallejo","State":"CA","Zip":"94591"},{"Location":"SURUKIS SUSHI","Address":"145 Plaza Dr 201","City":"Vallejo","State":"CA","Zip":"94591"},{"Location":"TARGET","Address":"904 Admiral Callaghan Ln","City":"Vallejo","State":"CA","Zip":"94591"},{"Location":"TAURIAN BA%2C LLC #1093","Address":"124 Plaza Dr","City":"Vallejo","State":"CA","Zip":"94591"},{"Location":"TEAM CHEVROLET CADILLAC","Address":"301 Auto Mall Pkwy","City":"Vallejo","State":"CA","Zip":"94591"},{"Location":"TOYOTA  VALLEJO","Address":"201 Auto Mall Pkwy","City":"Vallejo","State":"CA","Zip":"94591"},{"Location":"VALLEJO PATIENTS CARE INC","Address":"1235 Warren Ave","City":"Vallejo","State":"CA","Zip":"94591"},{"Location":"","Address":"58  Springs Town Center","City":"Vallejo","State":"CA","Zip":"94591"},{"Location":"A B INSURANCE","Address":"1727 Springs Rd","City":"Vallejo","State":"CA","Zip":"94591"},{"Location":"APPLEBEE'S #2140019","Address":"1041 Admiral Callaghan Ln","City":"Vallejo","State":"CA","Zip":"94591"},{"Location":"AVERY GREENE MOTORS","Address":"800 Admiral Callaghan Ln","City":"Vallejo","State":"CA","Zip":"94591"},{"Location":"BELVEDERE AT NORTHGATE","Address":"1201 Opera Way","City":"Vallejo","State":"CA","Zip":"94591"},{"Location":"BLACK BEAR DINER","Address":"980 Admiral Callaghan Ln","City":"Vallejo","State":"CA","Zip":"94591"},{"Location":"BLUE ROCK SPRINGS GOLF COURSE","Address":"655 Columbus Pkwy","City":"Vallejo","State":"CA","Zip":"94591"},{"Location":"BRISBAIN R PUCAN DMD","Address":"2143 Springs Rd","City":"Vallejo","State":"CA","Zip":"94591"},{"Location":"CAMINAR","Address":"273 Avian Dr A","City":"Vallejo","State":"CA","Zip":"94591"},{"Location":"CHEVY'S 2026","Address":"157 Plaza Dr","City":"Vallejo","State":"CA","Zip":"94591"},{"Location":"CHRIS'S CLUB","Address":"656 Benicia Rd","City":"Vallejo","State":"CA","Zip":"94591"},{"Location":"COCONUT GROVE","Address":"905 Lincoln Rd E","City":"Vallejo","State":"CA","Zip":"94591"},{"Location":"EARLS TEXAS BBQ","Address":"658 Benicia Rd","City":"Vallejo","State":"CA","Zip":"94591"},{"Location":"EDITHA AQUINO DMD","Address":"2600 Springs Rd","City":"Vallejo","State":"CA","Zip":"94591"},{"Location":"ENVY BEAUTY CARE","Address":"145 Plaza Dr 203","City":"Vallejo","State":"CA","Zip":"94591"},{"Location":"GENTLEMAN  JIMS","Address":"1324 Lincoln Rd E","City":"Vallejo","State":"CA","Zip":"94591"},{"Location":"IN SHAPE 59 VALLEJO","Address":"124 Lincoln Rd E","City":"Vallejo","State":"CA","Zip":"94591"},{"Location":"KOHL'S #763","Address":"1190 Admiral Callaghan Ln","City":"Vallejo","State":"CA","Zip":"94591"},{"Location":"MOMENTUM CHRYSLER VALLEJO","Address":"1001 Admiral Callaghan Ln","City":"Vallejo","State":"CA","Zip":"94591"},{"Location":"MOUNTAIN MIKES PIZZA VAL","Address":"972 Admiral Callaghan Ln","City":"Vallejo","State":"CA","Zip":"94591"},{"Location":"PASTA POMODORO","Address":"163 Plaza Dr","City":"Vallejo","State":"CA","Zip":"94591"},{"Location":"RED LOBSTER #0693","Address":"1180 Admiral Callaghan Ln","City":"Vallejo","State":"CA","Zip":"94591"},{"Location":"ROUND TABLE PIZZA","Address":"2633 Springs Rd","City":"Vallejo","State":"CA","Zip":"94591"},{"Location":"RUSTLER GRILL","Address":"137 Plaza Dr 315","City":"Vallejo","State":"CA","Zip":"94591"},{"Location":"SPRING TOWN TIRE","Address":"1845 Springs Rd","City":"Vallejo","State":"CA","Zip":"94591"},{"Location":"SURUKIS SUSHI","Address":"145 Plaza Dr 201","City":"Vallejo","State":"CA","Zip":"94591"},{"Location":"TARGET","Address":"904 Admiral Callaghan Ln","City":"Vallejo","State":"CA","Zip":"94591"},{"Location":"TAURIAN BA%2C LLC #1093","Address":"124 Plaza Dr","City":"Vallejo","State":"CA","Zip":"94591"},{"Location":"TEAM CHEVROLET CADILLAC","Address":"301 Auto Mall Pkwy","City":"Vallejo","State":"CA","Zip":"94591"},{"Location":"TOYOTA  VALLEJO","Address":"201 Auto Mall Pkwy","City":"Vallejo","State":"CA","Zip":"94591"},{"Location":"VALLEJO PATIENTS CARE INC","Address":"1235 Warren Ave","City":"Vallejo","State":"CA","Zip":"94591"}]