[{"Location":"ABAG","Address":"101 8th St Fl1","City":"Oakland","State":"CA","Zip":"94607"},{"Location":"ALADDIN BAIL BONDS","Address":"458 7th St","City":"Oakland","State":"CA","Zip":"94607"},{"Location":"ALAMEDA COUNTY SHERIFF","Address":"550 6th St","City":"Oakland","State":"CA","Zip":"94607"},{"Location":"ALAMEDA FAMILY SERVICES","Address":"424 Jefferson St","City":"Oakland","State":"CA","Zip":"94607"},{"Location":"ALL PRO BAIL BOND","Address":"490 7th St","City":"Oakland","State":"CA","Zip":"94607"},{"Location":"AMNAV MARITIME SERVICES","Address":"201 Burma Rd","City":"Oakland","State":"CA","Zip":"94607"},{"Location":"AMTRAK","Address":"530 Water St 5","City":"Oakland","State":"CA","Zip":"94607"},{"Location":"AQUA SKIN CARE","Address":"250 12th St","City":"Oakland","State":"CA","Zip":"94607"},{"Location":"BAY AREA RAPID TRANSIT","Address":"418 Clay St","City":"Oakland","State":"CA","Zip":"94607"},{"Location":"BELL INVESTMENT","Address":"1111 Broadway 16","City":"Oakland","State":"CA","Zip":"94607"},{"Location":"BELLA","Address":"561 11th St","City":"Oakland","State":"CA","Zip":"94607"},{"Location":"BETH EDEN BAPTIST CHURCH","Address":"1183 10th St","City":"Oakland","State":"CA","Zip":"94607"},{"Location":"BM","Address":"288 11th St B","City":"Oakland","State":"CA","Zip":"94607"},{"Location":"BRIX 581","Address":"581 5th St","City":"Oakland","State":"CA","Zip":"94607"},{"Location":"BUTTERCUP GRILL","Address":"229 Broadway","City":"Oakland","State":"CA","Zip":"94607"},{"Location":"CAFE LIZZI","Address":"461 2nd St","City":"Oakland","State":"CA","Zip":"94607"},{"Location":"CERESKE ELECTRIC CABLE","Address":"1688 24th St","City":"Oakland","State":"CA","Zip":"94607"},{"Location":"CITYTEAM MINISTRIES","Address":"722 Washington St","City":"Oakland","State":"CA","Zip":"94607"},{"Location":"CLEAN  STUDIO","Address":"900 Market St G","City":"Oakland","State":"CA","Zip":"94607"},{"Location":"COST PLUS WORLD MARKET","Address":"200 4th St","City":"Oakland","State":"CA","Zip":"94607"},{"Location":"COURTYARD BY MARRIOT","Address":"988 Broadway","City":"Oakland","State":"CA","Zip":"94607"},{"Location":"CUSHMAN & WAKEFIELD","Address":"1111 Broadway 1600","City":"Oakland","State":"CA","Zip":"94607"},{"Location":"DARCOID","Address":"950 3rd St","City":"Oakland","State":"CA","Zip":"94607"},{"Location":"DIGITAL REALTY","Address":"720 2nd St","City":"Oakland","State":"CA","Zip":"94607"},{"Location":"DOLMAS DELI","Address":"201 Broadway","City":"Oakland","State":"CA","Zip":"94607"},{"Location":"DRAGON BAR AND GRILL","Address":"300 Broadway","City":"Oakland","State":"CA","Zip":"94607"},{"Location":"EAST BAY MUNI UITILTY DIST","Address":"2020 Wake Ave","City":"Oakland","State":"CA","Zip":"94607"},{"Location":"EAST BAY MUNI UITILTY DIST 3","Address":"2020 Wake Ave","City":"Oakland","State":"CA","Zip":"94607"},{"Location":"EBMUD","Address":"Mobile Service Ms409","City":"Oakland","State":"CA","Zip":"94607"},{"Location":"EVERETT AND JONES","Address":"126 Broadway","City":"Oakland","State":"CA","Zip":"94607"},{"Location":"FAZ RESTAURANT","Address":"1111 Broadway 1","City":"Oakland","State":"CA","Zip":"94607"},{"Location":"FEDERAL EMERGENCY MGMT AGENCY1","Address":"1111 Broadway 1200","City":"Oakland","State":"CA","Zip":"94607"},{"Location":"FEDERAL EMERGENCY MGMT AGENCY2","Address":"1111 Broadway 1200","City":"Oakland","State":"CA","Zip":"94607"},{"Location":"FORGE","Address":"66 Franklin St","City":"Oakland","State":"CA","Zip":"94607"},{"Location":"GHAZAL INDIAN CUISINE","Address":"131 Broadway","City":"Oakland","State":"CA","Zip":"94607"},{"Location":"GINZA","Address":"303 Broadway","City":"Oakland","State":"CA","Zip":"94607"},{"Location":"GOURMET DELIGHT RESTAURANT","Address":"701 Webster St","City":"Oakland","State":"CA","Zip":"94607"},{"Location":"GRAND OAKS SPORTS BAR","Address":"736 Washington St","City":"Oakland","State":"CA","Zip":"94607"},{"Location":"HONDUMEX GROUP LLC","Address":"1015 Clay St","City":"Oakland","State":"CA","Zip":"94607"},{"Location":"HORIZON LINES","Address":"1425 Maritime St","City":"Oakland","State":"CA","Zip":"94607"},{"Location":"HUNAN SEAFOOD RESTAURANT","Address":"396 11th St","City":"Oakland","State":"CA","Zip":"94607"},{"Location":"IRON MOUNTIAN RECORD","Address":"1350 W Grand Ave","City":"Oakland","State":"CA","Zip":"94607"},{"Location":"JACK LONDON GATEWAY","Address":"989 Brush St","City":"Oakland","State":"CA","Zip":"94607"},{"Location":"JACKS OYSTER BAR","Address":"336 Water St","City":"Oakland","State":"CA","Zip":"94607"},{"Location":"JAMTOWN LLC","Address":"31 4th St","City":"Oakland","State":"CA","Zip":"94607"},{"Location":"JB TRUCK REPAIR","Address":"1433 18th St","City":"Oakland","State":"CA","Zip":"94607"},{"Location":"JKS BRICKHOUSE SPORTS BAR & GR","Address":"360 Adeline St","City":"Oakland","State":"CA","Zip":"94607"},{"Location":"Kimballs","Address":"215 Washington Street","City":"Oakland","State":"CA","Zip":"94607"},{"Location":"KTVU TELEVISION","Address":"2 Jack London Sq","City":"Oakland","State":"CA","Zip":"94607"},{"Location":"LA FURIA CHALACA","Address":"310 Broadway","City":"Oakland","State":"CA","Zip":"94607"},{"Location":"LAKESIDE REC","Address":"412 Madison St","City":"Oakland","State":"CA","Zip":"94607"},{"Location":"LECHEVAL RESTAURANT","Address":"1007 Clay St","City":"Oakland","State":"CA","Zip":"94607"},{"Location":"LENGNER AND SONS","Address":"2565 Buna St","City":"Oakland","State":"CA","Zip":"94607"},{"Location":"LIEGE","Address":"481 9th St","City":"Oakland","State":"CA","Zip":"94607"},{"Location":"LUNGOMARE","Address":"1 Broadway","City":"Oakland","State":"CA","Zip":"94607"},{"Location":"M%2FV MANUKAI","Address":"555 12th St 970","City":"Oakland","State":"CA","Zip":"94607"},{"Location":"MALAYSIAN DELIGHT INC","Address":"366 8th St","City":"Oakland","State":"CA","Zip":"94607"},{"Location":"MERCHANTS SALOON","Address":"401 2nd St","City":"Oakland","State":"CA","Zip":"94607"},{"Location":"METROPOLITAN TRANSPORTATION","Address":"101 8th St","City":"Oakland","State":"CA","Zip":"94607"},{"Location":"NAVIS LLC","Address":"55 Harrison St","City":"Oakland","State":"CA","Zip":"94607"},{"Location":"NORCAL AMBULANCE","Address":"2537 Willow St 2","City":"Oakland","State":"CA","Zip":"94607"},{"Location":"OAKLAND AUTO BODY","Address":"149 11th St","City":"Oakland","State":"CA","Zip":"94607"},{"Location":"OAKLAND CONVENTION VISIT","Address":"481 Water St","City":"Oakland","State":"CA","Zip":"94607"},{"Location":"OAKLAND MARRIOTT CITY CE","Address":"1001 Broadway","City":"Oakland","State":"CA","Zip":"94607"},{"Location":"OLDE DEPOT PUBLIC HOUSE","Address":"468 3rd St","City":"Oakland","State":"CA","Zip":"94607"},{"Location":"PACIFIC COAST BREWING CO","Address":"906 Washington St","City":"Oakland","State":"CA","Zip":"94607"},{"Location":"PEERLESS COFFEE TEA","Address":"260 Oak St","City":"Oakland","State":"CA","Zip":"94607"},{"Location":"PERALTA TV","Address":"900 Fallon St","City":"Oakland","State":"CA","Zip":"94607"},{"Location":"PLANK","Address":"98 Broadway","City":"Oakland","State":"CA","Zip":"94607"},{"Location":"PORT OF OAKLAND - HFC","Address":"651 Maritime St","City":"Oakland","State":"CA","Zip":"94607"},{"Location":"PORT OF OAKLAND CORP OFC","Address":"530 Water St","City":"Oakland","State":"CA","Zip":"94607"},{"Location":"PROTRANSPORTONE","Address":"1660 Kirkham St","City":"Oakland","State":"CA","Zip":"94607"},{"Location":"QUICKLY CAFE","Address":"517 8th St","City":"Oakland","State":"CA","Zip":"94607"},{"Location":"RAFC","Address":"101 8th St","City":"Oakland","State":"CA","Zip":"94607"},{"Location":"RAMSELL CORPORATION","Address":"200 Webster St 200","City":"Oakland","State":"CA","Zip":"94607"},{"Location":"ROGERS FAMILY OFFICE","Address":"10 Clay St","City":"Oakland","State":"CA","Zip":"94607"},{"Location":"SALVATION ARMY","Address":"601 Webster St","City":"Oakland","State":"CA","Zip":"94607"},{"Location":"SCOTT SEAFOOD RESTAURANT","Address":"2 Broadway","City":"Oakland","State":"CA","Zip":"94607"},{"Location":"SHATTUCK DOWNLOW INC","Address":"135 12th St","City":"Oakland","State":"CA","Zip":"94607"},{"Location":"SHOWCASE TALENT GROUP LL","Address":"201 Broadway","City":"Oakland","State":"CA","Zip":"94607"},{"Location":"SMITH LLP","Address":"469 9th St 240","City":"Oakland","State":"CA","Zip":"94607"},{"Location":"SPECIALITY FOODS INC.","Address":"535 8th St","City":"Oakland","State":"CA","Zip":"94607"},{"Location":"The Fat Lady","Address":"201 Washington St","City":"Oakland","State":"CA","Zip":"94607"},{"Location":"THE NIGHT LIGHT","Address":"311 Broadway","City":"Oakland","State":"CA","Zip":"94607"},{"Location":"THE WAREHOUSE BAR & GRILL","Address":"402 Webster St","City":"Oakland","State":"CA","Zip":"94607"},{"Location":"THE WATERFRONT PLAZA (0004450)","Address":"10 Washington St","City":"Oakland","State":"CA","Zip":"94607"},{"Location":"UC OFFICE OF THE TREASURER","Address":"1111 Broadway 1400","City":"Oakland","State":"CA","Zip":"94607"},{"Location":"WENDEL ROSEN BLACK & DEAN LLP","Address":"1111 Broadway 24","City":"Oakland","State":"CA","Zip":"94607"},{"Location":"WEST OAKLAND HEALTH CENTER","Address":"700 Adeline St","City":"Oakland","State":"CA","Zip":"94607"},{"Location":"WRECKING BALL INC","Address":"330 2nd St 201","City":"Oakland","State":"CA","Zip":"94607"}]