[{"Location":"24 HOUR FITNESS #802","Address":"3950 Alameda Ave","City":"Oakland","State":"CA","Zip":"94601"},{"Location":"AFTER DARK TATTOOS","Address":"4575 International Blvd","City":"Oakland","State":"CA","Zip":"94601"},{"Location":"ALAMEDA COUNTY SHERIFF","Address":"2425 E 12th St","City":"Oakland","State":"CA","Zip":"94601"},{"Location":"BELL PEPPERCUTS BARBER","Address":"5118 International Blvd","City":"Oakland","State":"CA","Zip":"94601"},{"Location":"CAFE EL CAMPANARIO","Address":"1418 34th Ave","City":"Oakland","State":"CA","Zip":"94601"},{"Location":"CENTURY BUFFET","Address":"4108 International Blvd","City":"Oakland","State":"CA","Zip":"94601"},{"Location":"CLUB EL REY","Address":"5322 Foothill Blvd","City":"Oakland","State":"CA","Zip":"94601"},{"Location":"COLISEUM SWAP MART","Address":"5401 Coliseum Way","City":"Oakland","State":"CA","Zip":"94601"},{"Location":"D L PAYMENT CTR","Address":"3439 International Blvd","City":"Oakland","State":"CA","Zip":"94601"},{"Location":"DISCOUNT BRAKES AND TIRE","Address":"2301 E 12th St","City":"Oakland","State":"CA","Zip":"94601"},{"Location":"EASTBAY LAUNDRY","Address":"2021 Fruitvale Ave","City":"Oakland","State":"CA","Zip":"94601"},{"Location":"EL FAVORITO OAKLAND","Address":"3646 International Blvd","City":"Oakland","State":"CA","Zip":"94601"},{"Location":"EL RINCONCITO CHAPIN","Address":"3831 International Blvd","City":"Oakland","State":"CA","Zip":"94601"},{"Location":"FOTOGRAFIA & VIDEOS MORAN","Address":"4440 International Blvd","City":"Oakland","State":"CA","Zip":"94601"},{"Location":"FRUITVALE PUBLIC MARKET","Address":"3340 E 12th St Ste 7","City":"Oakland","State":"CA","Zip":"94601"},{"Location":"HENRY AND HENRY ADULT CARE","Address":"4778 International Blvd","City":"Oakland","State":"CA","Zip":"94601"},{"Location":"INTERNATIONAL AUTO REPAIR","Address":"3609 International Blvd","City":"Oakland","State":"CA","Zip":"94601"},{"Location":"KELLY SALON DE BELLEZA","Address":"2836 Foothill Blvd","City":"Oakland","State":"CA","Zip":"94601"},{"Location":"LA BENDICION DE CRISTO","Address":"4559 International Blvd","City":"Oakland","State":"CA","Zip":"94601"},{"Location":"LA FRONTERA REST & BAR","Address":"4481 International Blvd","City":"Oakland","State":"CA","Zip":"94601"},{"Location":"LATINO TAXES","Address":"1523 Fruitvale Ave","City":"Oakland","State":"CA","Zip":"94601"},{"Location":"MARELY BEAUTY SALON","Address":"4636 International Blvd","City":"Oakland","State":"CA","Zip":"94601"},{"Location":"MARIANA RESTAURANT","Address":"3731 International Blvd","City":"Oakland","State":"CA","Zip":"94601"},{"Location":"MI GRUYENCE","Address":"1457 Fruitvale Ave","City":"Oakland","State":"CA","Zip":"94601"},{"Location":"MY DREAM","Address":"3700 Foothill Blvd A","City":"Oakland","State":"CA","Zip":"94601"},{"Location":"NEW AFRICA KITCHEN","Address":"1704 47th Ave","City":"Oakland","State":"CA","Zip":"94601"},{"Location":"PACIFIC    GAS AND ELECTRIC CO","Address":"4801 Oakport St 1","City":"Oakland","State":"CA","Zip":"94601"},{"Location":"PACIFIC GAS AND ELECTRIC","Address":"4801 Oakport St St2","City":"Oakland","State":"CA","Zip":"94601"},{"Location":"PACIFIC GAS AND ELECTRIC 2","Address":"4801 Oakport St 4","City":"Oakland","State":"CA","Zip":"94601"},{"Location":"PACIFIC GAS AND ELECTRIC CO","Address":"4801 Oakport St Bldg4","City":"Oakland","State":"CA","Zip":"94601"},{"Location":"PACIFIC GAS AND ELECTRIC CO 1","Address":"4801 Oakport St","City":"Oakland","State":"CA","Zip":"94601"},{"Location":"RAGO AND SON INC","Address":"1029 51st Ave","City":"Oakland","State":"CA","Zip":"94601"},{"Location":"RAGO AND SON INC 2","Address":"1040 51st Ave","City":"Oakland","State":"CA","Zip":"94601"},{"Location":"REX CUSTOM CABINETS","Address":"3420 San Leandro St","City":"Oakland","State":"CA","Zip":"94601"},{"Location":"RICARDO ROMO","Address":"3359 Foothill Blvd","City":"Oakland","State":"CA","Zip":"94601"},{"Location":"SANDERS TAX SERVICE","Address":"2115 Fruitvale Ave","City":"Oakland","State":"CA","Zip":"94601"},{"Location":"TERRA NOVA MEDICAL GROUP","Address":"3608 International Blvd","City":"Oakland","State":"CA","Zip":"94601"},{"Location":"VALLARTA RESTAURANT OAKL","Address":"3851 International Blvd","City":"Oakland","State":"CA","Zip":"94601"},{"Location":"ZION TABRNCL BAPTIST CHU","Address":"3945 San Juan St","City":"Oakland","State":"CA","Zip":"94601"},{"Location":"24 HOUR FITNESS #802","Address":"3950 Alameda Ave","City":"Oakland","State":"CA","Zip":"94601"},{"Location":"AFTER DARK TATTOOS","Address":"4575 International Blvd","City":"Oakland","State":"CA","Zip":"94601"},{"Location":"ALAMEDA COUNTY SHERIFF","Address":"2425 E 12th St","City":"Oakland","State":"CA","Zip":"94601"},{"Location":"BELL PEPPERCUTS BARBER","Address":"5118 International Blvd","City":"Oakland","State":"CA","Zip":"94601"},{"Location":"CAFE EL CAMPANARIO","Address":"1418 34th Ave","City":"Oakland","State":"CA","Zip":"94601"},{"Location":"CENTURY BUFFET","Address":"4108 International Blvd","City":"Oakland","State":"CA","Zip":"94601"},{"Location":"CLUB EL REY","Address":"5322 Foothill Blvd","City":"Oakland","State":"CA","Zip":"94601"},{"Location":"COLISEUM SWAP MART","Address":"5401 Coliseum Way","City":"Oakland","State":"CA","Zip":"94601"},{"Location":"D L PAYMENT CTR","Address":"3439 International Blvd","City":"Oakland","State":"CA","Zip":"94601"},{"Location":"DISCOUNT BRAKES AND TIRE","Address":"2301 E 12th St","City":"Oakland","State":"CA","Zip":"94601"},{"Location":"EASTBAY LAUNDRY","Address":"2021 Fruitvale Ave","City":"Oakland","State":"CA","Zip":"94601"},{"Location":"EL FAVORITO OAKLAND","Address":"3646 International Blvd","City":"Oakland","State":"CA","Zip":"94601"},{"Location":"EL RINCONCITO CHAPIN","Address":"3831 International Blvd","City":"Oakland","State":"CA","Zip":"94601"},{"Location":"FOTOGRAFIA & VIDEOS MORAN","Address":"4440 International Blvd","City":"Oakland","State":"CA","Zip":"94601"},{"Location":"FRUITVALE PUBLIC MARKET","Address":"3340 E 12th St Ste 7","City":"Oakland","State":"CA","Zip":"94601"},{"Location":"HENRY AND HENRY ADULT CARE","Address":"4778 International Blvd","City":"Oakland","State":"CA","Zip":"94601"},{"Location":"INTERNATIONAL AUTO REPAIR","Address":"3609 International Blvd","City":"Oakland","State":"CA","Zip":"94601"},{"Location":"KELLY SALON DE BELLEZA","Address":"2836 Foothill Blvd","City":"Oakland","State":"CA","Zip":"94601"},{"Location":"LA BENDICION DE CRISTO","Address":"4559 International Blvd","City":"Oakland","State":"CA","Zip":"94601"},{"Location":"LA FRONTERA REST & BAR","Address":"4481 International Blvd","City":"Oakland","State":"CA","Zip":"94601"},{"Location":"LATINO TAXES","Address":"1523 Fruitvale Ave","City":"Oakland","State":"CA","Zip":"94601"},{"Location":"MARELY BEAUTY SALON","Address":"4636 International Blvd","City":"Oakland","State":"CA","Zip":"94601"},{"Location":"MARIANA RESTAURANT","Address":"3731 International Blvd","City":"Oakland","State":"CA","Zip":"94601"},{"Location":"MI GRUYENCE","Address":"1457 Fruitvale Ave","City":"Oakland","State":"CA","Zip":"94601"},{"Location":"MY DREAM","Address":"3700 Foothill Blvd A","City":"Oakland","State":"CA","Zip":"94601"},{"Location":"NEW AFRICA KITCHEN","Address":"1704 47th Ave","City":"Oakland","State":"CA","Zip":"94601"},{"Location":"PACIFIC    GAS AND ELECTRIC CO","Address":"4801 Oakport St 1","City":"Oakland","State":"CA","Zip":"94601"},{"Location":"PACIFIC GAS AND ELECTRIC","Address":"4801 Oakport St St2","City":"Oakland","State":"CA","Zip":"94601"},{"Location":"PACIFIC GAS AND ELECTRIC 2","Address":"4801 Oakport St 4","City":"Oakland","State":"CA","Zip":"94601"},{"Location":"PACIFIC GAS AND ELECTRIC CO","Address":"4801 Oakport St Bldg4","City":"Oakland","State":"CA","Zip":"94601"},{"Location":"PACIFIC GAS AND ELECTRIC CO 1","Address":"4801 Oakport St","City":"Oakland","State":"CA","Zip":"94601"},{"Location":"RAGO AND SON INC","Address":"1029 51st Ave","City":"Oakland","State":"CA","Zip":"94601"},{"Location":"RAGO AND SON INC 2","Address":"1040 51st Ave","City":"Oakland","State":"CA","Zip":"94601"},{"Location":"REX CUSTOM CABINETS","Address":"3420 San Leandro St","City":"Oakland","State":"CA","Zip":"94601"},{"Location":"RICARDO ROMO","Address":"3359 Foothill Blvd","City":"Oakland","State":"CA","Zip":"94601"},{"Location":"SANDERS TAX SERVICE","Address":"2115 Fruitvale Ave","City":"Oakland","State":"CA","Zip":"94601"},{"Location":"TERRA NOVA MEDICAL GROUP","Address":"3608 International Blvd","City":"Oakland","State":"CA","Zip":"94601"},{"Location":"VALLARTA RESTAURANT OAKL","Address":"3851 International Blvd","City":"Oakland","State":"CA","Zip":"94601"},{"Location":"ZION TABRNCL BAPTIST CHU","Address":"3945 San Juan St","City":"Oakland","State":"CA","Zip":"94601"}]