[{"Location":"AJ THOMAS MEDICAL CLINIC","Address":"10615 International Blvd","City":"Oakland","State":"CA","Zip":"94603"},{"Location":"COMMUNITY CHARITY","Address":"10800 International Blvd","City":"Oakland","State":"CA","Zip":"94603"},{"Location":"GARNER HEAT TREAT","Address":"10001 Denny St","City":"Oakland","State":"CA","Zip":"94603"},{"Location":"HOLIDAY INN EXPRESS OAK","Address":"66 Airport Blvd","City":"Oakland","State":"CA","Zip":"94603"},{"Location":"K & T NAIL SPA","Address":"10814 Bancroft Ave","City":"Oakland","State":"CA","Zip":"94603"},{"Location":"METROPOLITAN GOLF LINKS","Address":"10051 Doolittle Dr","City":"Oakland","State":"CA","Zip":"94603"},{"Location":"SOAP OPERA LAUNDRY","Address":"9822 International Blvd","City":"Oakland","State":"CA","Zip":"94603"},{"Location":"THE ORGANIC CHOICE","Address":"175 98th Ave","City":"Oakland","State":"CA","Zip":"94603"},{"Location":"WASTE MANAGEMENT","Address":"172 98th Ave","City":"Oakland","State":"CA","Zip":"94603"},{"Location":"AJ THOMAS MEDICAL CLINIC","Address":"10615 International Blvd","City":"Oakland","State":"CA","Zip":"94603"},{"Location":"COMMUNITY CHARITY","Address":"10800 International Blvd","City":"Oakland","State":"CA","Zip":"94603"},{"Location":"GARNER HEAT TREAT","Address":"10001 Denny St","City":"Oakland","State":"CA","Zip":"94603"},{"Location":"HOLIDAY INN EXPRESS OAK","Address":"66 Airport Blvd","City":"Oakland","State":"CA","Zip":"94603"},{"Location":"K & T NAIL SPA","Address":"10814 Bancroft Ave","City":"Oakland","State":"CA","Zip":"94603"},{"Location":"METROPOLITAN GOLF LINKS","Address":"10051 Doolittle Dr","City":"Oakland","State":"CA","Zip":"94603"},{"Location":"SOAP OPERA LAUNDRY","Address":"9822 International Blvd","City":"Oakland","State":"CA","Zip":"94603"},{"Location":"THE ORGANIC CHOICE","Address":"175 98th Ave","City":"Oakland","State":"CA","Zip":"94603"},{"Location":"WASTE MANAGEMENT","Address":"172 98th Ave","City":"Oakland","State":"CA","Zip":"94603"}]