[{"Location":"APST TRC","Address":"10500 Foothill Blvd","City":"Oakland","State":"CA","Zip":"94605"},{"Location":"COUNTRY VITTLES BBQ","Address":"9600 Burr St","City":"Oakland","State":"CA","Zip":"94605"},{"Location":"DAVITA #2855 ALAMEDA COUNTY","Address":"10700 Macarthur Blvd 14","City":"Oakland","State":"CA","Zip":"94605"},{"Location":"FASHION HEADQUARTERS","Address":"2558 Seminary Ave","City":"Oakland","State":"CA","Zip":"94605"},{"Location":"FIRE STATION 28","Address":"4615 Grass Valley Rd","City":"Oakland","State":"CA","Zip":"94605"},{"Location":"FMC 71660000","Address":"7200 Bancroft Ave 220","City":"Oakland","State":"CA","Zip":"94605"},{"Location":"FOOTHILL SQUARE BINGO2","Address":"10700 Macarthur Blvd 11","City":"Oakland","State":"CA","Zip":"94605"},{"Location":"JACKIE RENEE BARBER SHOP","Address":"6660 Bancroft Ave","City":"Oakland","State":"CA","Zip":"94605"},{"Location":"OL YELLER CAFE N MARKET","Address":"2708 98th Ave","City":"Oakland","State":"CA","Zip":"94605"},{"Location":"R  AND  W MAINTENANCE","Address":"3118 63rd Ave","City":"Oakland","State":"CA","Zip":"94605"},{"Location":"SEQUOYAH COUNTRY CLUB","Address":"4550 Heafey Rd","City":"Oakland","State":"CA","Zip":"94605"},{"Location":"THE TREE HOUSE","Address":"6520 Foothill Blvd","City":"Oakland","State":"CA","Zip":"94605"},{"Location":"TOWER OF FAITH CHURCH","Address":"2311 73rd Ave","City":"Oakland","State":"CA","Zip":"94605"},{"Location":"WRIST ACTION BARBER SHOP","Address":"10623 Macarthur Blvd","City":"Oakland","State":"CA","Zip":"94605"},{"Location":"APST TRC","Address":"10500 Foothill Blvd","City":"Oakland","State":"CA","Zip":"94605"},{"Location":"COUNTRY VITTLES BBQ","Address":"9600 Burr St","City":"Oakland","State":"CA","Zip":"94605"},{"Location":"DAVITA #2855 ALAMEDA COUNTY","Address":"10700 Macarthur Blvd 14","City":"Oakland","State":"CA","Zip":"94605"},{"Location":"FASHION HEADQUARTERS","Address":"2558 Seminary Ave","City":"Oakland","State":"CA","Zip":"94605"},{"Location":"FIRE STATION 28","Address":"4615 Grass Valley Rd","City":"Oakland","State":"CA","Zip":"94605"},{"Location":"FMC 71660000","Address":"7200 Bancroft Ave 220","City":"Oakland","State":"CA","Zip":"94605"},{"Location":"FOOTHILL SQUARE BINGO2","Address":"10700 Macarthur Blvd 11","City":"Oakland","State":"CA","Zip":"94605"},{"Location":"JACKIE RENEE BARBER SHOP","Address":"6660 Bancroft Ave","City":"Oakland","State":"CA","Zip":"94605"},{"Location":"OL YELLER CAFE N MARKET","Address":"2708 98th Ave","City":"Oakland","State":"CA","Zip":"94605"},{"Location":"R  AND  W MAINTENANCE","Address":"3118 63rd Ave","City":"Oakland","State":"CA","Zip":"94605"},{"Location":"SEQUOYAH COUNTRY CLUB","Address":"4550 Heafey Rd","City":"Oakland","State":"CA","Zip":"94605"},{"Location":"THE TREE HOUSE","Address":"6520 Foothill Blvd","City":"Oakland","State":"CA","Zip":"94605"},{"Location":"TOWER OF FAITH CHURCH","Address":"2311 73rd Ave","City":"Oakland","State":"CA","Zip":"94605"},{"Location":"WRIST ACTION BARBER SHOP","Address":"10623 Macarthur Blvd","City":"Oakland","State":"CA","Zip":"94605"}]