[{"Location":"AC TRANSIT","Address":"1177 47th St","City":"Emeryville","State":"CA","Zip":"94608"},{"Location":"B SIDE BBQ","Address":"3303 San Pablo Ave","City":"Emeryville","State":"CA","Zip":"94608"},{"Location":"CARL WHEELER","Address":"5765 Lowell St","City":"Emeryville","State":"CA","Zip":"94608"},{"Location":"CHEVY'S 2503","Address":"1890 Powell St","City":"Emeryville","State":"CA","Zip":"94608"},{"Location":"CONNECTV","Address":"1400 65th St 300","City":"Emeryville","State":"CA","Zip":"94608"},{"Location":"DENNYS RESTAURANT","Address":"1776 Powell St","City":"Emeryville","State":"CA","Zip":"94608"},{"Location":"ELEPHANT BAR EMERYVILLE","Address":"5601 Bay St","City":"Emeryville","State":"CA","Zip":"94608"},{"Location":"EMERYSTATION JOINT VENTURE LLC","Address":"5858 Horton St 263","City":"Emeryville","State":"CA","Zip":"94608"},{"Location":"EVOCATIVE","Address":"1400 65th St","City":"Emeryville","State":"CA","Zip":"94608"},{"Location":"EVOCATIVE INC","Address":"1400 65th St 150","City":"Emeryville","State":"CA","Zip":"94608"},{"Location":"FRATELLANZA CLUB","Address":"1140 66th St","City":"Emeryville","State":"CA","Zip":"94608"},{"Location":"FUDDRUCKERS","Address":"5614 Bay St","City":"Emeryville","State":"CA","Zip":"94608"},{"Location":"GEO M MARTIN CO.","Address":"1250 67th St","City":"Emeryville","State":"CA","Zip":"94608"},{"Location":"GRACENOTE","Address":"2000 Powell St 13","City":"Emeryville","State":"CA","Zip":"94608"},{"Location":"GRATO DELI","Address":"4125 San Pablo Ave","City":"Emeryville","State":"CA","Zip":"94608"},{"Location":"GRIFOLS DIAGNOSTIC SOLUTIONS","Address":"4560 Horton St","City":"Emeryville","State":"CA","Zip":"94608"},{"Location":"GRIFOLS DIAGNOSTIC SOLUTIONS","Address":"5400 Hollis St","City":"Emeryville","State":"CA","Zip":"94608"},{"Location":"HILTON GARDEN INN (0058415)","Address":"1800 Powell St","City":"Emeryville","State":"CA","Zip":"94608"},{"Location":"HMM BLACK BEAR INC","Address":"5750 Christie Ave","City":"Emeryville","State":"CA","Zip":"94608"},{"Location":"HOT ITALIAN PUB MKT LLC","Address":"5959 Shellmound St 75","City":"Emeryville","State":"CA","Zip":"94608"},{"Location":"INNOVATIVE INTERFACES","Address":"5850 Shellmound St","City":"Emeryville","State":"CA","Zip":"94608"},{"Location":"JAMBA JUICE","Address":"6475 Christie Ave 150","City":"Emeryville","State":"CA","Zip":"94608"},{"Location":"LAFRANCE REST. MGMT. GRP","Address":"5000 Adeline St","City":"Emeryville","State":"CA","Zip":"94608"},{"Location":"LEAP FROG ENTERPRISES","Address":"6401 Hollis St","City":"Emeryville","State":"CA","Zip":"94608"},{"Location":"LOS CANTAROS","Address":"4125 San Pablo Ave","City":"Emeryville","State":"CA","Zip":"94608"},{"Location":"LYRIS","Address":"6401 Hollis St 125","City":"Emeryville","State":"CA","Zip":"94608"},{"Location":"MEN'S WEARHOUSE #2182","Address":"5727 Christie Ave C4","City":"Emeryville","State":"CA","Zip":"94608"},{"Location":"NEW LOGIC RESEARCH","Address":"1295 67th St","City":"Emeryville","State":"CA","Zip":"94608"},{"Location":"NOVARTIS","Address":"5300 Chiron Way","City":"Emeryville","State":"CA","Zip":"94608"},{"Location":"NOVARTIS BLDG 4","Address":"5300 Chiron Way","City":"Emeryville","State":"CA","Zip":"94608"},{"Location":"NOVARTIS BLDG G","Address":"1400 53rd St","City":"Emeryville","State":"CA","Zip":"94608"},{"Location":"OAKS CARD CLUB","Address":"4097 San Pablo Ave","City":"Emeryville","State":"CA","Zip":"94608"},{"Location":"PAIN AND REHAB CONSULT","Address":"1335 Stanford Ave","City":"Emeryville","State":"CA","Zip":"94608"},{"Location":"PF CHANG'S #9966","Address":"5633 Bay St","City":"Emeryville","State":"CA","Zip":"94608"},{"Location":"PIXAR - MAIN BUILDING","Address":"1200 Park Ave","City":"Emeryville","State":"CA","Zip":"94608"},{"Location":"PREMIERE NUTRITION","Address":"5905 Christie Ave","City":"Emeryville","State":"CA","Zip":"94608"},{"Location":"RED BULL NA INC","Address":"1461 Park Ave","City":"Emeryville","State":"CA","Zip":"94608"},{"Location":"RRG INC","Address":"3645 San Pablo Ave","City":"Emeryville","State":"CA","Zip":"94608"},{"Location":"SCENDS RESTAURANT","Address":"3627 San Pablo Ave","City":"Emeryville","State":"CA","Zip":"94608"},{"Location":"SIMEONCOMMERICAL PROPERTIES","Address":"1480 64th St","City":"Emeryville","State":"CA","Zip":"94608"},{"Location":"SOBE KICK GYM","Address":"6460 Hollis St C","City":"Emeryville","State":"CA","Zip":"94608"},{"Location":"SPORTS AUTHORITY 766","Address":"3839 Emery St","City":"Emeryville","State":"CA","Zip":"94608"},{"Location":"TARGET","Address":"1555 40th St","City":"Emeryville","State":"CA","Zip":"94608"},{"Location":"THE BANK CLUB CAFE","Address":"3900 San Pablo Ave","City":"Emeryville","State":"CA","Zip":"94608"},{"Location":"THE BROKEN RACK INC","Address":"5768 Peladeau St","City":"Emeryville","State":"CA","Zip":"94608"},{"Location":"TITLE 9 SPORTS","Address":"6201 Doyle St C","City":"Emeryville","State":"CA","Zip":"94608"},{"Location":"TOGOS RESTAURANTS LLC","Address":"5751 Christie Ave","City":"Emeryville","State":"CA","Zip":"94608"},{"Location":"TOUCH OF SOUL","Address":"4336 San Pablo Ave","City":"Emeryville","State":"CA","Zip":"94608"},{"Location":"TOWNHOUSE BAR AND GRILL","Address":"5862 Doyle St","City":"Emeryville","State":"CA","Zip":"94608"},{"Location":"TRIM ON SAN PABLO","Address":"6324 San Pablo Ave","City":"Emeryville","State":"CA","Zip":"94608"},{"Location":"WATSON TEMPLE CHURCH","Address":"6141 Market St","City":"Emeryville","State":"CA","Zip":"94608"},{"Location":"WING STOP","Address":"4133 San Pablo Ave","City":"Emeryville","State":"CA","Zip":"94608"},{"Location":"ZIPREALTY%2C INC","Address":"2000 Powell St 300","City":"Emeryville","State":"CA","Zip":"94608"},{"Location":"CHILE JALAPENO","Address":"6706 San Pablo Ave","City":"Oakland","State":"CA","Zip":"94608"},{"Location":"LBA REALTY","Address":"6701 San Pablo Ave","City":"Oakland","State":"CA","Zip":"94608"},{"Location":"RUBENSTEIN SUPPLY","Address":"2800 San Pablo Ave","City":"Oakland","State":"CA","Zip":"94608"},{"Location":"AC TRANSIT","Address":"1177 47th St","City":"Emeryville","State":"CA","Zip":"94608"},{"Location":"B SIDE BBQ","Address":"3303 San Pablo Ave","City":"Emeryville","State":"CA","Zip":"94608"},{"Location":"CARL WHEELER","Address":"5765 Lowell St","City":"Emeryville","State":"CA","Zip":"94608"},{"Location":"CHEVY'S 2503","Address":"1890 Powell St","City":"Emeryville","State":"CA","Zip":"94608"},{"Location":"CONNECTV","Address":"1400 65th St 300","City":"Emeryville","State":"CA","Zip":"94608"},{"Location":"DENNYS RESTAURANT","Address":"1776 Powell St","City":"Emeryville","State":"CA","Zip":"94608"},{"Location":"ELEPHANT BAR EMERYVILLE","Address":"5601 Bay St","City":"Emeryville","State":"CA","Zip":"94608"},{"Location":"EMERYSTATION JOINT VENTURE LLC","Address":"5858 Horton St 263","City":"Emeryville","State":"CA","Zip":"94608"},{"Location":"EVOCATIVE","Address":"1400 65th St","City":"Emeryville","State":"CA","Zip":"94608"},{"Location":"EVOCATIVE INC","Address":"1400 65th St 150","City":"Emeryville","State":"CA","Zip":"94608"},{"Location":"FRATELLANZA CLUB","Address":"1140 66th St","City":"Emeryville","State":"CA","Zip":"94608"},{"Location":"FUDDRUCKERS","Address":"5614 Bay St","City":"Emeryville","State":"CA","Zip":"94608"},{"Location":"GEO M MARTIN CO.","Address":"1250 67th St","City":"Emeryville","State":"CA","Zip":"94608"},{"Location":"GRACENOTE","Address":"2000 Powell St 13","City":"Emeryville","State":"CA","Zip":"94608"},{"Location":"GRIFOLS DIAGNOSTIC SOLUTIONS","Address":"5400 Hollis St","City":"Emeryville","State":"CA","Zip":"94608"},{"Location":"GRIFOLS DIAGNOSTIC SOLUTIONS","Address":"4560 Horton St","City":"Emeryville","State":"CA","Zip":"94608"},{"Location":"HILTON GARDEN INN (0058415)","Address":"1800 Powell St","City":"Emeryville","State":"CA","Zip":"94608"},{"Location":"HMM BLACK BEAR INC","Address":"5750 Christie Ave","City":"Emeryville","State":"CA","Zip":"94608"},{"Location":"HOT ITALIAN PUB MKT LLC","Address":"5959 Shellmound St 75","City":"Emeryville","State":"CA","Zip":"94608"},{"Location":"INNOVATIVE INTERFACES","Address":"5850 Shellmound St","City":"Emeryville","State":"CA","Zip":"94608"},{"Location":"JAMBA JUICE","Address":"6475 Christie Ave 150","City":"Emeryville","State":"CA","Zip":"94608"},{"Location":"LEAP FROG ENTERPRISES","Address":"6401 Hollis St","City":"Emeryville","State":"CA","Zip":"94608"},{"Location":"LOS CANTAROS","Address":"4125 San Pablo Ave","City":"Emeryville","State":"CA","Zip":"94608"},{"Location":"LYRIS","Address":"6401 Hollis St 125","City":"Emeryville","State":"CA","Zip":"94608"},{"Location":"MEN'S WEARHOUSE #2182","Address":"5727 Christie Ave C4","City":"Emeryville","State":"CA","Zip":"94608"},{"Location":"NEW LOGIC RESEARCH","Address":"1295 67th St","City":"Emeryville","State":"CA","Zip":"94608"},{"Location":"NOVARTIS","Address":"5300 Chiron Way","City":"Emeryville","State":"CA","Zip":"94608"},{"Location":"NOVARTIS BLDG 4","Address":"5300 Chiron Way","City":"Emeryville","State":"CA","Zip":"94608"},{"Location":"NOVARTIS BLDG G","Address":"1400 53rd St","City":"Emeryville","State":"CA","Zip":"94608"},{"Location":"OAKS CARD CLUB","Address":"4097 San Pablo Ave","City":"Emeryville","State":"CA","Zip":"94608"},{"Location":"PAIN AND REHAB CONSULT","Address":"1335 Stanford Ave","City":"Emeryville","State":"CA","Zip":"94608"},{"Location":"PF CHANG'S #9966","Address":"5633 Bay St","City":"Emeryville","State":"CA","Zip":"94608"},{"Location":"PIXAR - MAIN BUILDING","Address":"1200 Park Ave","City":"Emeryville","State":"CA","Zip":"94608"},{"Location":"PREMIERE NUTRITION","Address":"5905 Christie Ave","City":"Emeryville","State":"CA","Zip":"94608"},{"Location":"RED BULL NA INC","Address":"1461 Park Ave","City":"Emeryville","State":"CA","Zip":"94608"},{"Location":"RRG INC","Address":"3645 San Pablo Ave","City":"Emeryville","State":"CA","Zip":"94608"},{"Location":"SCENDS RESTAURANT","Address":"3627 San Pablo Ave","City":"Emeryville","State":"CA","Zip":"94608"},{"Location":"SIMEONCOMMERICAL PROPERTIES","Address":"1480 64th St","City":"Emeryville","State":"CA","Zip":"94608"},{"Location":"SOBE KICK GYM","Address":"6460 Hollis St C","City":"Emeryville","State":"CA","Zip":"94608"},{"Location":"SPORTS AUTHORITY 766","Address":"3839 Emery St","City":"Emeryville","State":"CA","Zip":"94608"},{"Location":"TARGET","Address":"1555 40th St","City":"Emeryville","State":"CA","Zip":"94608"},{"Location":"THE BANK CLUB CAFE","Address":"3900 San Pablo Ave","City":"Emeryville","State":"CA","Zip":"94608"},{"Location":"THE BROKEN RACK INC","Address":"5768 Peladeau St","City":"Emeryville","State":"CA","Zip":"94608"},{"Location":"TITLE 9 SPORTS","Address":"6201 Doyle St C","City":"Emeryville","State":"CA","Zip":"94608"},{"Location":"TOGOS RESTAURANTS LLC","Address":"5751 Christie Ave","City":"Emeryville","State":"CA","Zip":"94608"},{"Location":"TOUCH OF SOUL","Address":"4336 San Pablo Ave","City":"Emeryville","State":"CA","Zip":"94608"},{"Location":"TOWNHOUSE BAR AND GRILL","Address":"5862 Doyle St","City":"Emeryville","State":"CA","Zip":"94608"},{"Location":"TRIM ON SAN PABLO","Address":"6324 San Pablo Ave","City":"Emeryville","State":"CA","Zip":"94608"},{"Location":"WATSON TEMPLE CHURCH","Address":"6141 Market St","City":"Emeryville","State":"CA","Zip":"94608"},{"Location":"WING STOP","Address":"4133 San Pablo Ave","City":"Emeryville","State":"CA","Zip":"94608"},{"Location":"ZIPREALTY%2C INC","Address":"2000 Powell St 300","City":"Emeryville","State":"CA","Zip":"94608"},{"Location":"CHILE JALAPENO","Address":"6706 San Pablo Ave","City":"Oakland","State":"CA","Zip":"94608"},{"Location":"LBA REALTY","Address":"6701 San Pablo Ave","City":"Oakland","State":"CA","Zip":"94608"},{"Location":"RUBENSTEIN SUPPLY","Address":"2800 San Pablo Ave","City":"Oakland","State":"CA","Zip":"94608"}]