[{"Location":"MAGNOLIA WOMENS RECOVERY","Address":"3408 Andover","City":"Oak","State":"CA","Zip":"94606"},{"Location":"23RD BILLIARDS","Address":"1437 23rd Ave","City":"Oakland","State":"CA","Zip":"94606"},{"Location":"ANNIES COFFEE SHOP","Address":"1060 E 12th St","City":"Oakland","State":"CA","Zip":"94606"},{"Location":"BAGGYS BY THE LAKE","Address":"288 E 18th St","City":"Oakland","State":"CA","Zip":"94606"},{"Location":"BROTZEIT LOKAL","Address":"1000 Embarcadero","City":"Oakland","State":"CA","Zip":"94606"},{"Location":"BUTTERCUP GRILL & BAR","Address":"1000 Cotton St","City":"Oakland","State":"CA","Zip":"94606"},{"Location":"CAFE DA HUONG","Address":"605 E 12th St","City":"Oakland","State":"CA","Zip":"94606"},{"Location":"CAM HUONG 2","Address":"702 International Blvd","City":"Oakland","State":"CA","Zip":"94606"},{"Location":"COFFEE DA THAO","Address":"1209 International Blvd","City":"Oakland","State":"CA","Zip":"94606"},{"Location":"CRYSTAL ISLAND MASSAGE","Address":"1038 5th Ave","City":"Oakland","State":"CA","Zip":"94606"},{"Location":"DA NANG QUAN","Address":"615 E 12th St","City":"Oakland","State":"CA","Zip":"94606"},{"Location":"EAST BAY LAUNDRY LLC","Address":"1500 E 12th St","City":"Oakland","State":"CA","Zip":"94606"},{"Location":"EASTLAKE FAMILY DENTISTRY","Address":"270 E 12th St","City":"Oakland","State":"CA","Zip":"94606"},{"Location":"FIRESTONE #240725","Address":"1800 Park Blvd","City":"Oakland","State":"CA","Zip":"94606"},{"Location":"GOODYEAR TIRE CENTER","Address":"2101 Park Blvd","City":"Oakland","State":"CA","Zip":"94606"},{"Location":"GUADALUPE HERRERA","Address":"904 International Blvd","City":"Oakland","State":"CA","Zip":"94606"},{"Location":"HIGH EXPECTATIONS","Address":"2010 Park Blvd","City":"Oakland","State":"CA","Zip":"94606"},{"Location":"HOMEWOOD SUITES OAKLAND","Address":"1103 Embarcadero","City":"Oakland","State":"CA","Zip":"94606"},{"Location":"I CAFE","Address":"1004 E 12th St","City":"Oakland","State":"CA","Zip":"94606"},{"Location":"JDB EVENT CENTER","Address":"2500 Embarcadero","City":"Oakland","State":"CA","Zip":"94606"},{"Location":"JOHNEES AUTO REPAIR1","Address":"1429 14th Ave","City":"Oakland","State":"CA","Zip":"94606"},{"Location":"JW SILVIERA REAL ESTATE","Address":"499 Embarcadero","City":"Oakland","State":"CA","Zip":"94606"},{"Location":"LA FINCA","Address":"909 King St","City":"Oakland","State":"CA","Zip":"94606"},{"Location":"LEANING TOWER OF PIZZA","Address":"498 Wesley Ave","City":"Oakland","State":"CA","Zip":"94606"},{"Location":"LUPES BEAUTY SALON","Address":"2270 International Blvd","City":"Oakland","State":"CA","Zip":"94606"},{"Location":"MARTE AUTOMOTIVE SERVICE","Address":"1240 E 12th St","City":"Oakland","State":"CA","Zip":"94606"},{"Location":"MOBILITY WORKS INC","Address":"1822 Embarcadero","City":"Oakland","State":"CA","Zip":"94606"},{"Location":"MONG HOANG CAFE","Address":"1910 International Blvd A","City":"Oakland","State":"CA","Zip":"94606"},{"Location":"PARKWAY LOUNGE TWO","Address":"1850 Park Blvd","City":"Oakland","State":"CA","Zip":"94606"},{"Location":"PHO DOA NOODLES","Address":"280 E 18th St","City":"Oakland","State":"CA","Zip":"94606"},{"Location":"PSB TRAVEL","Address":"649 E 12th St B","City":"Oakland","State":"CA","Zip":"94606"},{"Location":"SALLES PAINT N BODY SHOP INC","Address":"1049 9th Ave","City":"Oakland","State":"CA","Zip":"94606"},{"Location":"SEVENTH AVENUE MISSIONARY BAPT","Address":"1740 7th Ave","City":"Oakland","State":"CA","Zip":"94606"},{"Location":"TRANSVERSE EQUITY","Address":"338 E 18th St","City":"Oakland","State":"CA","Zip":"94606"},{"Location":"UNIVERSAL MAGAZINE INC","Address":"2284 International Blvd","City":"Oakland","State":"CA","Zip":"94606"},{"Location":"MAGNOLIA WOMENS RECOVERY","Address":"3408 Andover","City":"Oak","State":"CA","Zip":"94606"},{"Location":"23RD BILLIARDS","Address":"1437 23rd Ave","City":"Oakland","State":"CA","Zip":"94606"},{"Location":"ANNIES COFFEE SHOP","Address":"1060 E 12th St","City":"Oakland","State":"CA","Zip":"94606"},{"Location":"BAGGYS BY THE LAKE","Address":"288 E 18th St","City":"Oakland","State":"CA","Zip":"94606"},{"Location":"BROTZEIT LOKAL","Address":"1000 Embarcadero","City":"Oakland","State":"CA","Zip":"94606"},{"Location":"BUTTERCUP GRILL & BAR","Address":"1000 Cotton St","City":"Oakland","State":"CA","Zip":"94606"},{"Location":"CAFE DA HUONG","Address":"605 E 12th St","City":"Oakland","State":"CA","Zip":"94606"},{"Location":"Cam Huong 2","Address":"702 International Blvd","City":"Oakland","State":"CA","Zip":"94606"},{"Location":"COFFEE DA THAO","Address":"1209 International Blvd","City":"Oakland","State":"CA","Zip":"94606"},{"Location":"CRYSTAL ISLAND MASSAGE","Address":"1038 5th Ave","City":"Oakland","State":"CA","Zip":"94606"},{"Location":"DA NANG QUAN","Address":"615 E 12th St","City":"Oakland","State":"CA","Zip":"94606"},{"Location":"EAST BAY LAUNDRY LLC","Address":"1500 E 12th St","City":"Oakland","State":"CA","Zip":"94606"},{"Location":"EASTLAKE FAMILY DENTISTRY","Address":"270 E 12th St","City":"Oakland","State":"CA","Zip":"94606"},{"Location":"FIRESTONE #240725","Address":"1800 Park Blvd","City":"Oakland","State":"CA","Zip":"94606"},{"Location":"GOODYEAR TIRE CENTER","Address":"2101 Park Blvd","City":"Oakland","State":"CA","Zip":"94606"},{"Location":"GUADALUPE HERRERA","Address":"904 International Blvd","City":"Oakland","State":"CA","Zip":"94606"},{"Location":"HIGH EXPECTATIONS","Address":"2010 Park Blvd","City":"Oakland","State":"CA","Zip":"94606"},{"Location":"HOMEWOOD SUITES OAKLAND","Address":"1103 Embarcadero","City":"Oakland","State":"CA","Zip":"94606"},{"Location":"I CAFE","Address":"1004 E 12th St","City":"Oakland","State":"CA","Zip":"94606"},{"Location":"JDB EVENT CENTER","Address":"2500 Embarcadero","City":"Oakland","State":"CA","Zip":"94606"},{"Location":"JOHNEES AUTO REPAIR1","Address":"1429 14th Ave","City":"Oakland","State":"CA","Zip":"94606"},{"Location":"JW SILVIERA REAL ESTATE","Address":"499 Embarcadero","City":"Oakland","State":"CA","Zip":"94606"},{"Location":"LA FINCA","Address":"909 King St","City":"Oakland","State":"CA","Zip":"94606"},{"Location":"LEANING TOWER OF PIZZA","Address":"498 Wesley Ave","City":"Oakland","State":"CA","Zip":"94606"},{"Location":"LUPES BEAUTY SALON","Address":"2270 International Blvd","City":"Oakland","State":"CA","Zip":"94606"},{"Location":"MARTE AUTOMOTIVE SERVICE","Address":"1240 E 12th St","City":"Oakland","State":"CA","Zip":"94606"},{"Location":"MOBILITY WORKS INC","Address":"1822 Embarcadero","City":"Oakland","State":"CA","Zip":"94606"},{"Location":"MONG HOANG CAFE","Address":"1910 International Blvd A","City":"Oakland","State":"CA","Zip":"94606"},{"Location":"PARKWAY LOUNGE TWO","Address":"1850 Park Blvd","City":"Oakland","State":"CA","Zip":"94606"},{"Location":"PHO DOA NOODLES","Address":"280 E 18th St","City":"Oakland","State":"CA","Zip":"94606"},{"Location":"PSB TRAVEL","Address":"649 E 12th St B","City":"Oakland","State":"CA","Zip":"94606"},{"Location":"SALLES PAINT N BODY SHOP INC","Address":"1049 9th Ave","City":"Oakland","State":"CA","Zip":"94606"},{"Location":"SEVENTH AVENUE MISSIONARY BAPT","Address":"1740 7th Ave","City":"Oakland","State":"CA","Zip":"94606"},{"Location":"TRANSVERSE EQUITY","Address":"338 E 18th St","City":"Oakland","State":"CA","Zip":"94606"},{"Location":"UNIVERSAL MAGAZINE INC","Address":"2284 International Blvd","City":"Oakland","State":"CA","Zip":"94606"}]