[{"Location":"LOS CANTAROS","Address":"4115 San Pablo Ave","City":"Emeryville","State":"CA","Zip":"94609"},{"Location":"","Address":"5711 Telegraph Ave","City":"Oakland","State":"CA","Zip":"94609"},{"Location":"ALTA BATES MED CENTER","Address":"350 Hawthorne Ave G160","City":"Oakland","State":"CA","Zip":"94609"},{"Location":"ASMARA RESTAURANT","Address":"5020 Telegraph Ave","City":"Oakland","State":"CA","Zip":"94609"},{"Location":"ASMARINA CAFE","Address":"601 Shawtuck","City":"Oakland","State":"CA","Zip":"94609"},{"Location":"BARCOTE ETHIOPIAN RESTURAUNT","Address":"6430 Telegraph Ave","City":"Oakland","State":"CA","Zip":"94609"},{"Location":"CASH VEROS HOUSE","Address":"4301 Telegraph Ave","City":"Oakland","State":"CA","Zip":"94609"},{"Location":"CHILDRENS HOSPITAL","Address":"747 52nd St","City":"Oakland","State":"CA","Zip":"94609"},{"Location":"COMMON WEALTH","Address":"2882 Telegraph Ave","City":"Oakland","State":"CA","Zip":"94609"},{"Location":"FMC 71080000","Address":"3012 Summit St","City":"Oakland","State":"CA","Zip":"94609"},{"Location":"LA CALACA LOCA TAQUERIA","Address":"5199 Telegraph Ave","City":"Oakland","State":"CA","Zip":"94609"},{"Location":"LANESPLITTER PUB","Address":"4799 Telegraph Ave","City":"Oakland","State":"CA","Zip":"94609"},{"Location":"Mar-49","Address":"4915 Telegraph Ave","City":"Oakland","State":"CA","Zip":"94609"},{"Location":"MLK CAFE","Address":"3860 Martin Luther King Jr Way","City":"Oakland","State":"CA","Zip":"94609"},{"Location":"NV MORAN SUPPLY","Address":"415 40th St","City":"Oakland","State":"CA","Zip":"94609"},{"Location":"OAKLAND CAMPUS","Address":"450 30th St","City":"Oakland","State":"CA","Zip":"94609"},{"Location":"OAKLAND HEALTHCARE","Address":"3030 Webster St","City":"Oakland","State":"CA","Zip":"94609"},{"Location":"OVO TAVERN AND EATERY","Address":"5319 Martin Luther King Jr Way","City":"Oakland","State":"CA","Zip":"94609"},{"Location":"PACIFIC KICK BOXING","Address":"493 40th St","City":"Oakland","State":"CA","Zip":"94609"},{"Location":"PINE TREE","Address":"3170 Telegraph Ave","City":"Oakland","State":"CA","Zip":"94609"},{"Location":"PROTRANSPORT ONE","Address":"3023 Summit St","City":"Oakland","State":"CA","Zip":"94609"},{"Location":"REACH AIR MEDICAL SERVICES CHO","Address":"675 53rd St","City":"Oakland","State":"CA","Zip":"94609"},{"Location":"ROUND TABLE PIZZA","Address":"5095 Telegraph Ave","City":"Oakland","State":"CA","Zip":"94609"},{"Location":"SAHN MARU","Address":"4315 Telegraph Ave","City":"Oakland","State":"CA","Zip":"94609"},{"Location":"SATELLITE DIALYSIS OAK 1","Address":"3330 Telegraph Ave","City":"Oakland","State":"CA","Zip":"94609"},{"Location":"SATELLITE DIALYSIS OAK 2","Address":"3330 Telegraph Ave","City":"Oakland","State":"CA","Zip":"94609"},{"Location":"SEOUL GOMTANG","Address":"3801 Telegraph Ave","City":"Oakland","State":"CA","Zip":"94609"},{"Location":"TEMESCAL LAUNDRY MAT","Address":"4860 Telegraph Ave","City":"Oakland","State":"CA","Zip":"94609"},{"Location":"THE AVENUE","Address":"4822 Telegraph Ave","City":"Oakland","State":"CA","Zip":"94609"},{"Location":"THOMAS CHAMBERS COMPANY","Address":"449 W Macarthur Blvd","City":"Oakland","State":"CA","Zip":"94609"},{"Location":"","Address":"5711 Telegraph Ave","City":"Oakland","State":"CA","Zip":"94609"},{"Location":"ALTA BATES MED CENTER","Address":"350 Hawthorne Ave G160","City":"Oakland","State":"CA","Zip":"94609"},{"Location":"ASMARA RESTAURANT","Address":"5020 Telegraph Ave","City":"Oakland","State":"CA","Zip":"94609"},{"Location":"ASMARINA CAFE","Address":"601 Shawtuck","City":"Oakland","State":"CA","Zip":"94609"},{"Location":"BARCOTE ETHIOPIAN RESTURAUNT","Address":"6430 Telegraph Ave","City":"Oakland","State":"CA","Zip":"94609"},{"Location":"CASH VEROS HOUSE","Address":"4301 Telegraph Ave","City":"Oakland","State":"CA","Zip":"94609"},{"Location":"CHILDRENS HOSPITAL","Address":"747 52nd St","City":"Oakland","State":"CA","Zip":"94609"},{"Location":"COMMON WEALTH","Address":"2882 Telegraph Ave","City":"Oakland","State":"CA","Zip":"94609"},{"Location":"FMC 71080000","Address":"3012 Summit St","City":"Oakland","State":"CA","Zip":"94609"},{"Location":"LA CALACA LOCA TAQUERIA","Address":"5199 Telegraph Ave","City":"Oakland","State":"CA","Zip":"94609"},{"Location":"LANESPLITTER PUB","Address":"4799 Telegraph Ave","City":"Oakland","State":"CA","Zip":"94609"},{"Location":"Mar-49","Address":"4915 Telegraph Ave","City":"Oakland","State":"CA","Zip":"94609"},{"Location":"MLK CAFE","Address":"3860 Martin Luther King Jr Way","City":"Oakland","State":"CA","Zip":"94609"},{"Location":"NV MORAN SUPPLY","Address":"415 40th St","City":"Oakland","State":"CA","Zip":"94609"},{"Location":"OAKLAND CAMPUS","Address":"450 30th St","City":"Oakland","State":"CA","Zip":"94609"},{"Location":"OAKLAND HEALTHCARE","Address":"3030 Webster St","City":"Oakland","State":"CA","Zip":"94609"},{"Location":"OVO TAVERN AND EATERY","Address":"5319 Martin Luther King Jr Way","City":"Oakland","State":"CA","Zip":"94609"},{"Location":"PACIFIC KICK BOXING","Address":"493 40th St","City":"Oakland","State":"CA","Zip":"94609"},{"Location":"PINE TREE","Address":"3170 Telegraph Ave","City":"Oakland","State":"CA","Zip":"94609"},{"Location":"PROTRANSPORT ONE","Address":"3023 Summit St","City":"Oakland","State":"CA","Zip":"94609"},{"Location":"REACH AIR MEDICAL SERVICES CHO","Address":"675 53rd St","City":"Oakland","State":"CA","Zip":"94609"},{"Location":"ROUND TABLE PIZZA","Address":"5095 Telegraph Ave","City":"Oakland","State":"CA","Zip":"94609"},{"Location":"SAHN MARU","Address":"4315 Telegraph Ave","City":"Oakland","State":"CA","Zip":"94609"},{"Location":"SATELLITE DIALYSIS OAK 1","Address":"3330 Telegraph Ave","City":"Oakland","State":"CA","Zip":"94609"},{"Location":"SATELLITE DIALYSIS OAK 2","Address":"3330 Telegraph Ave","City":"Oakland","State":"CA","Zip":"94609"},{"Location":"SEOUL GOMTANG","Address":"3801 Telegraph Ave","City":"Oakland","State":"CA","Zip":"94609"},{"Location":"TEMESCAL LAUNDRY MAT","Address":"4860 Telegraph Ave","City":"Oakland","State":"CA","Zip":"94609"},{"Location":"THE AVENUE","Address":"4822 Telegraph Ave","City":"Oakland","State":"CA","Zip":"94609"},{"Location":"THOMAS CHAMBERS COMPANY","Address":"449 W Macarthur Blvd","City":"Oakland","State":"CA","Zip":"94609"}]