[{"Location":"AHNS BURGER","Address":"439 Grand Ave","City":"Oakland","State":"CA","Zip":"94610"},{"Location":"BANKOK PLACE","Address":"3300 Grand Ave","City":"Oakland","State":"CA","Zip":"94610"},{"Location":"BURRITO BOYZ","Address":"2116 Shattuck Ave","City":"Oakland","State":"CA","Zip":"94610"},{"Location":"CENTER STAGE SALON","Address":"3227 Lakeshore Ave A","City":"Oakland","State":"CA","Zip":"94610"},{"Location":"CONGREGATION BETH ABRAHAM","Address":"336 Euclid Ave","City":"Oakland","State":"CA","Zip":"94610"},{"Location":"EASY LOUNGE","Address":"3255 Lakeshore Ave","City":"Oakland","State":"CA","Zip":"94610"},{"Location":"GRAND OAKS RESTAURANT","Address":"3701 Grand Ave","City":"Oakland","State":"CA","Zip":"94610"},{"Location":"HEART & DAGGER","Address":"504 Lake Park Ave","City":"Oakland","State":"CA","Zip":"94610"},{"Location":"JONG GA HOUSE","Address":"372 Grand Ave","City":"Oakland","State":"CA","Zip":"94610"},{"Location":"LUCKY LOUNGE","Address":"3332 Grand Ave","City":"Oakland","State":"CA","Zip":"94610"},{"Location":"NORTHERN CALIFORNIA COIN","Address":"3356 Grand Ave","City":"Oakland","State":"CA","Zip":"94610"},{"Location":"ROOM 389","Address":"389 Grand Ave","City":"Oakland","State":"CA","Zip":"94610"},{"Location":"SMITTYS COCKTAILS","Address":"3339 Grand Ave","City":"Oakland","State":"CA","Zip":"94610"},{"Location":"THE ALLEY","Address":"3325 Grand Ave","City":"Oakland","State":"CA","Zip":"94610"},{"Location":"THE STAR 2","Address":"3425 Grand Ave","City":"Oakland","State":"CA","Zip":"94610"},{"Location":"WING STOP","Address":"528 Lake Park Ave","City":"Oakland","State":"CA","Zip":"94610"},{"Location":"TODD YERONDOPOULOS DDS","Address":"1375 Grand Ave 101","City":"Piedmont","State":"CA","Zip":"94610"},{"Location":"AHNS BURGER","Address":"439 Grand Ave","City":"Oakland","State":"CA","Zip":"94610"},{"Location":"BANKOK PLACE","Address":"3300 Grand Ave","City":"Oakland","State":"CA","Zip":"94610"},{"Location":"BURRITO BOYZ","Address":"2116 Shattuck Ave","City":"Oakland","State":"CA","Zip":"94610"},{"Location":"CENTER STAGE SALON","Address":"3227 Lakeshore Ave A","City":"Oakland","State":"CA","Zip":"94610"},{"Location":"CONGREGATION BETH ABRAHAM","Address":"336 Euclid Ave","City":"Oakland","State":"CA","Zip":"94610"},{"Location":"EASY LOUNGE","Address":"3255 Lakeshore Ave","City":"Oakland","State":"CA","Zip":"94610"},{"Location":"GRAND OAKS RESTAURANT","Address":"3701 Grand Ave","City":"Oakland","State":"CA","Zip":"94610"},{"Location":"HEART & DAGGER","Address":"504 Lake Park Ave","City":"Oakland","State":"CA","Zip":"94610"},{"Location":"JONG GA HOUSE","Address":"372 Grand Ave","City":"Oakland","State":"CA","Zip":"94610"},{"Location":"LUCKY LOUNGE","Address":"3332 Grand Ave","City":"Oakland","State":"CA","Zip":"94610"},{"Location":"NORTHERN CALIFORNIA COIN","Address":"3356 Grand Ave","City":"Oakland","State":"CA","Zip":"94610"},{"Location":"ROOM 389","Address":"389 Grand Ave","City":"Oakland","State":"CA","Zip":"94610"},{"Location":"SMITTYS COCKTAILS","Address":"3339 Grand Ave","City":"Oakland","State":"CA","Zip":"94610"},{"Location":"THE ALLEY","Address":"3325 Grand Ave","City":"Oakland","State":"CA","Zip":"94610"},{"Location":"THE STAR 2","Address":"3425 Grand Ave","City":"Oakland","State":"CA","Zip":"94610"},{"Location":"WING STOP","Address":"528 Lake Park Ave","City":"Oakland","State":"CA","Zip":"94610"},{"Location":"TODD YERONDOPOULOS DDS","Address":"1375 Grand Ave 101","City":"Piedmont","State":"CA","Zip":"94610"}]