[{"Location":"19TH STREET STATION","Address":"339 19th St","City":"Oakland","State":"CA","Zip":"94612"},{"Location":"24 HOUR FITNESS #532","Address":"2050 Webster St","City":"Oakland","State":"CA","Zip":"94612"},{"Location":"360 VENTURES LLC","Address":"425 15th St","City":"Oakland","State":"CA","Zip":"94612"},{"Location":"AFFORDABLE HOUSING","Address":"1424 Jefferson St","City":"Oakland","State":"CA","Zip":"94612"},{"Location":"ALAMEDA CONTRA COSTA TRANSIT","Address":"1600 Franklin St","City":"Oakland","State":"CA","Zip":"94612"},{"Location":"AUDI MAZDA OF OAKLAND","Address":"2560 Webster St","City":"Oakland","State":"CA","Zip":"94612"},{"Location":"BALFOUR BEATTY","Address":"2335 Broadway 300","City":"Oakland","State":"CA","Zip":"94612"},{"Location":"BAY AREA RAPID TRANSIT DISTRIC","Address":"300 Lakeside Dr 23flr","City":"Oakland","State":"CA","Zip":"94612"},{"Location":"BAY VALUATION ADVISOR","Address":"1 Kaiser Plz","City":"Oakland","State":"CA","Zip":"94612"},{"Location":"BEAUTY NAIL","Address":"339 17th St","City":"Oakland","State":"CA","Zip":"94612"},{"Location":"BIG G BURGER","Address":"333 17th St","City":"Oakland","State":"CA","Zip":"94612"},{"Location":"BISSAP BAOBAB OAKLAND","Address":"381 15th St","City":"Oakland","State":"CA","Zip":"94612"},{"Location":"BLAYLOCK ROBERT VAN LLC","Address":"350 Frank H Ogawa Plz 10flr","City":"Oakland","State":"CA","Zip":"94612"},{"Location":"CAFE VAN KLEEF","Address":"1621 Telegraph Ave","City":"Oakland","State":"CA","Zip":"94612"},{"Location":"CALIFORNIA BANK & TRUST","Address":"300 Lakeside Dr 8","City":"Oakland","State":"CA","Zip":"94612"},{"Location":"CAROL H WILLIAMS ADVERTISING","Address":"1625 Clay St 800","City":"Oakland","State":"CA","Zip":"94612"},{"Location":"CIM GROUP","Address":"One Kaiser Palza Level B2 301","City":"Oakland","State":"CA","Zip":"94612"},{"Location":"CITY CUP AND GRILLE","Address":"1259 Jefferson St","City":"Oakland","State":"CA","Zip":"94612"},{"Location":"CLAREMONT CREEK VENTURE","Address":"300 Frank Ogawa Plaza 350","City":"Oakland","State":"CA","Zip":"94612"},{"Location":"CORBIN BUILDING INC","Address":"300 Frank H Ogawa Plz 251","City":"Oakland","State":"CA","Zip":"94612"},{"Location":"DHS OIG","Address":"300 Frank H Ogawa Plz 275","City":"Oakland","State":"CA","Zip":"94612"},{"Location":"DIVING DOG BREWHOUSE","Address":"1802 Telegraph Ave","City":"Oakland","State":"CA","Zip":"94612"},{"Location":"DREXL","Address":"382 19th St","City":"Oakland","State":"CA","Zip":"94612"},{"Location":"ECHELON FUND LP","Address":"1 Kaiser Plz 14th","City":"Oakland","State":"CA","Zip":"94612"},{"Location":"EMC RESEARCH INC","Address":"436 14th St 820","City":"Oakland","State":"CA","Zip":"94612"},{"Location":"EXECUTIVE HAIR SALON","Address":"345 13th St","City":"Oakland","State":"CA","Zip":"94612"},{"Location":"FAUNA","Address":"1908 Telegraph Ave","City":"Oakland","State":"CA","Zip":"94612"},{"Location":"FBI OAKLAND","Address":"2101 Webster St","City":"Oakland","State":"CA","Zip":"94612"},{"Location":"FMC 71040000","Address":"2710 Telegraph Ave 200","City":"Oakland","State":"CA","Zip":"94612"},{"Location":"FOX COURT CAFE","Address":"555 19th St 130","City":"Oakland","State":"CA","Zip":"94612"},{"Location":"GOGI TIME","Address":"2600 Telegraph Ave","City":"Oakland","State":"CA","Zip":"94612"},{"Location":"GREYHOUND LINES INC","Address":"2103 San Pablo Ave","City":"Oakland","State":"CA","Zip":"94612"},{"Location":"HALF TIME SPORTS BAR","Address":"316 14th St","City":"Oakland","State":"CA","Zip":"94612"},{"Location":"Hutch Bar & Kitchen","Address":"2022 Telegraph Ave","City":"Oakland","State":"CA","Zip":"94612"},{"Location":"HUTCH BAR AND KITCHEN","Address":"2022 Telegraph Ave","City":"Oakland","State":"CA","Zip":"94612"},{"Location":"IAFF LOCAL 55","Address":"369 15th St","City":"Oakland","State":"CA","Zip":"94612"},{"Location":"ICHIRO SUSHI","Address":"412 15th St","City":"Oakland","State":"CA","Zip":"94612"},{"Location":"INFINITY FINANCIAL SERVICES","Address":"1624 Franklin St 818","City":"Oakland","State":"CA","Zip":"94612"},{"Location":"IRFANKHANH LLC","Address":"1707 Telegraph Ave","City":"Oakland","State":"CA","Zip":"94612"},{"Location":"JACOBS ENGINEERING","Address":"300 Frank H Ogawa Plz 10","City":"Oakland","State":"CA","Zip":"94612"},{"Location":"KAISER FEDERATION","Address":"1 Kaiser Plz 2726","City":"Oakland","State":"CA","Zip":"94612"},{"Location":"KAISER FOUNDATION HEALTH","Address":"1 Kaiser Plz 27fl","City":"Oakland","State":"CA","Zip":"94612"},{"Location":"KAISER FOUNDATION TRES.","Address":"1 Kaiser Plz 25th","City":"Oakland","State":"CA","Zip":"94612"},{"Location":"KAISER OAKLAND","Address":"2101 Webster St 9","City":"Oakland","State":"CA","Zip":"94612"},{"Location":"KAISER PERMANENTE","Address":"2101 Webster St Fl17","City":"Oakland","State":"CA","Zip":"94612"},{"Location":"KAISER PERMANENTE","Address":"1950 Franklin St Fl3","City":"Oakland","State":"CA","Zip":"94612"},{"Location":"KAISER PERMANETE CSI","Address":"1 Kaiser Plz 18th","City":"Oakland","State":"CA","Zip":"94612"},{"Location":"KAISER POFS","Address":"1 Kaiser Plz","City":"Oakland","State":"CA","Zip":"94612"},{"Location":"KAISER REG. OFFICES","Address":"1950 Franklin St","City":"Oakland","State":"CA","Zip":"94612"},{"Location":"Kamdesh Afghan Kabab House","Address":"346 14th St","City":"Oakland","State":"CA","Zip":"94612"},{"Location":"KAMDESH AFGHAN KABOB HOU","Address":"346 14th St","City":"Oakland","State":"CA","Zip":"94612"},{"Location":"KARASIK CO LLC","Address":"337 17th St 201","City":"Oakland","State":"CA","Zip":"94612"},{"Location":"KARIBBEAN CITY","Address":"1408 Webster St","City":"Oakland","State":"CA","Zip":"94612"},{"Location":"LAMUMBA INC","Address":"410 14th St","City":"Oakland","State":"CA","Zip":"94612"},{"Location":"LINCOLN UNIVERSITY","Address":"401 15th St","City":"Oakland","State":"CA","Zip":"94612"},{"Location":"LUKA'S TAP ROOM AND LOUNGE","Address":"2221 Broadway","City":"Oakland","State":"CA","Zip":"94612"},{"Location":"MAKE WESTING BAR","Address":"1741 Telegraph Ave","City":"Oakland","State":"CA","Zip":"94612"},{"Location":"MORGAN STANLEY 100104","Address":"1 Kaiser Plz 104","City":"Oakland","State":"CA","Zip":"94612"},{"Location":"MORGAN STANLEY 100104","Address":"1999 Harrison St","City":"Oakland","State":"CA","Zip":"94612"},{"Location":"MUA RESTUARANT","Address":"2442 Webster St","City":"Oakland","State":"CA","Zip":"94612"},{"Location":"NORCAL HEALTHCARE","Address":"1901 Broadway","City":"Oakland","State":"CA","Zip":"94612"},{"Location":"NORCAL HYPERBARICS 2","Address":"300 Frank Ogawa Plaza 155","City":"Oakland","State":"CA","Zip":"94612"},{"Location":"OAKLAND HOUSING AUTHORITY","Address":"1805 Harrison St","City":"Oakland","State":"CA","Zip":"94612"},{"Location":"OAKLAND ICE CENTER","Address":"519 18th St","City":"Oakland","State":"CA","Zip":"94612"},{"Location":"OAKLAND TRIBUNE","Address":"1970 Broadway 100","City":"Oakland","State":"CA","Zip":"94612"},{"Location":"OUTSOURCE CONSULTING SE","Address":"222 14th St 100","City":"Oakland","State":"CA","Zip":"94612"},{"Location":"PROSPECT PARK","Address":"1633 Broadway","City":"Oakland","State":"CA","Zip":"94612"},{"Location":"RANDEVU CAFE","Address":"2430 Broadway","City":"Oakland","State":"CA","Zip":"94612"},{"Location":"RBC WEALTH MANAGEMENT","Address":"1999 Harrison St 1200","City":"Oakland","State":"CA","Zip":"94612"},{"Location":"REGILUS HOA","Address":"1941 Jackson St A","City":"Oakland","State":"CA","Zip":"94612"},{"Location":"REGUS","Address":"505 14th St 9","City":"Oakland","State":"CA","Zip":"94612"},{"Location":"SCOTTRADE E04","Address":"1200 Clay St 120","City":"Oakland","State":"CA","Zip":"94612"},{"Location":"SFRC","Address":"409 13th St 800","City":"Oakland","State":"CA","Zip":"94612"},{"Location":"SHADOW ULTRA LOUNGE","Address":"341 13th St","City":"Oakland","State":"CA","Zip":"94612"},{"Location":"SIC LAKESIDE DR. LLC","Address":"300 Lakeside Dr 206","City":"Oakland","State":"CA","Zip":"94612"},{"Location":"SOLAR MOSAIC","Address":"426 17th St 600","City":"Oakland","State":"CA","Zip":"94612"},{"Location":"SOMAR","Address":"1727 Telegraph Ave","City":"Oakland","State":"CA","Zip":"94612"},{"Location":"SPOOKY MAGIC INC. DBA","Address":"2272 Telegraph Ave","City":"Oakland","State":"CA","Zip":"94612"},{"Location":"STUDIO 1924","Address":"1924 Franklin St","City":"Oakland","State":"CA","Zip":"94612"},{"Location":"TAMBO RESTRUANT","Address":"1414 Jefferson St","City":"Oakland","State":"CA","Zip":"94612"},{"Location":"THE FOX THEATER","Address":"1807 Telegraph Ave","City":"Oakland","State":"CA","Zip":"94612"},{"Location":"THE GOLDEN BULL","Address":"412 14th St","City":"Oakland","State":"CA","Zip":"94612"},{"Location":"THE GRAND HOTEL","Address":"641 W Grand Ave","City":"Oakland","State":"CA","Zip":"94612"},{"Location":"THE NEW PARISH","Address":"1741 San Pablo Ave","City":"Oakland","State":"CA","Zip":"94612"},{"Location":"THE OAKLAND EVENT CENTER","Address":"420 14th St Fl1","City":"Oakland","State":"CA","Zip":"94612"},{"Location":"TORREY PINES BANK","Address":"1951 Webster St","City":"Oakland","State":"CA","Zip":"94612"},{"Location":"TOWNSHIP GROUP INC","Address":"2424 Telegraph Ave","City":"Oakland","State":"CA","Zip":"94612"},{"Location":"TRIBUNE TAVERN","Address":"401 13th St","City":"Oakland","State":"CA","Zip":"94612"},{"Location":"UMAMI BURGER OAKLAND","Address":"2100 Franklin St","City":"Oakland","State":"CA","Zip":"94612"},{"Location":"Uncle Willie's Original BBQ and Fish","Address":"614 14th Street","City":"Oakland","State":"CA","Zip":"94612"},{"Location":"UNEXT","Address":"396 15th St","City":"Oakland","State":"CA","Zip":"94612"},{"Location":"UNION BANK 981","Address":"505 14th St 7","City":"Oakland","State":"CA","Zip":"94612"},{"Location":"VISCO","Address":"1500 Broadway 300","City":"Oakland","State":"CA","Zip":"94612"},{"Location":"VOLUNTEERS OF AMERICA","Address":"624 14th St","City":"Oakland","State":"CA","Zip":"94612"},{"Location":"WALLEYE TRADING ADVISORS","Address":"1 Kaiser Plz 1030","City":"Oakland","State":"CA","Zip":"94612"},{"Location":"XOLO TAQUERIA","Address":"1916 Telegraph Ave","City":"Oakland","State":"CA","Zip":"94612"},{"Location":"YMCA DOWNTOWN OKLAND","Address":"2350 Broadway","City":"Oakland","State":"CA","Zip":"94612"},{"Location":"YOUTH RADIO","Address":"1701 Broadway","City":"Oakland","State":"CA","Zip":"94612"},{"Location":"Z CAFE AND BAR","Address":"2735 Broadway","City":"Oakland","State":"CA","Zip":"94612"}]