[{"Location":"ATLAS INVESTMENT MANAGEMENT","Address":"5655 College Ave 250","City":"Oakland","State":"CA","Zip":"94618"},{"Location":"DAVITA #3818 OAKLAND","Address":"5354 Claremont Ave","City":"Oakland","State":"CA","Zip":"94618"},{"Location":"GEORGE AND WALT'S","Address":"5445 College Ave","City":"Oakland","State":"CA","Zip":"94618"},{"Location":"GREAT WALL CHINESE REST","Address":"6247 College Ave","City":"Oakland","State":"CA","Zip":"94618"},{"Location":"MCNALLY'S IRISH PUB","Address":"5352 College Ave","City":"Oakland","State":"CA","Zip":"94618"},{"Location":"RED SEA","Address":"5200 Claremont Ave","City":"Oakland","State":"CA","Zip":"94618"},{"Location":"ROCKRIDGE MASONIC HALL","Address":"5449 College Ave","City":"Oakland","State":"CA","Zip":"94618"},{"Location":"SENECA FAMILY OF AGENCIES","Address":"6925 Chabot Rd","City":"Oakland","State":"CA","Zip":"94618"},{"Location":"SOUTHIE","Address":"6311 College Ave","City":"Oakland","State":"CA","Zip":"94618"},{"Location":"TOAST","Address":"5900 College Ave","City":"Oakland","State":"CA","Zip":"94618"},{"Location":"WOOD TAVERN","Address":"6317 College Ave","City":"Oakland","State":"CA","Zip":"94618"},{"Location":"YE OLD HUT","Address":"5515 College Ave","City":"Oakland","State":"CA","Zip":"94618"}]