[{"Location":"3000 BROADWAY RESTAURANT","Address":"3000 Broadway","City":"Oakland","State":"CA","Zip":"94611"},{"Location":"ART'S CRAB SHACK","Address":"4031 Broadway","City":"Oakland","State":"CA","Zip":"94611"},{"Location":"BROADWAY BURRITO","Address":"4027 Broadway","City":"Oakland","State":"CA","Zip":"94611"},{"Location":"CESAR  RESTAURANT","Address":"4039 Piedmont Ave","City":"Oakland","State":"CA","Zip":"94611"},{"Location":"CROGANS","Address":"6101 La Salle Ave","City":"Oakland","State":"CA","Zip":"94611"},{"Location":"CRUFIT","Address":"6125 Medau Pl","City":"Oakland","State":"CA","Zip":"94611"},{"Location":"FIRESTONE #012599","Address":"4238 Broadway","City":"Oakland","State":"CA","Zip":"94611"},{"Location":"FIRESTONE #023213","Address":"2850 Broadway","City":"Oakland","State":"CA","Zip":"94611"},{"Location":"FIRST REPUBLIC BANK","Address":"2110 Mountain Blvd","City":"Oakland","State":"CA","Zip":"94611"},{"Location":"GOLDEN-STATE FITNESS","Address":"2011 Mountian Blvd","City":"Oakland","State":"CA","Zip":"94611"},{"Location":"HILLS SWIM AND TENNIS CLUB II","Address":"2400 Manzanita Dr","City":"Oakland","State":"CA","Zip":"94611"},{"Location":"KAISER PERMANENTE FACILITY","Address":"3779 Piedmont Ave","City":"Oakland","State":"CA","Zip":"94611"},{"Location":"KERRY HOUSE","Address":"4092 Piedmont Ave","City":"Oakland","State":"CA","Zip":"94611"},{"Location":"MONTCLAIR GOLF ENT.","Address":"2477 Monterey Blvd","City":"Oakland","State":"CA","Zip":"94611"},{"Location":"MONTCLAIR VP LLC 2","Address":"1944 Mountain Blvd 2","City":"Oakland","State":"CA","Zip":"94611"},{"Location":"OHGANE","Address":"3915 Broadway","City":"Oakland","State":"CA","Zip":"94611"},{"Location":"REHAB CENTER OF OAKLAND","Address":"210 40th Street Way","City":"Oakland","State":"CA","Zip":"94611"},{"Location":"SLICK AND DAPPER","Address":"4121 Broadway","City":"Oakland","State":"CA","Zip":"94611"},{"Location":"SPORTS AND ORTHOPED LEADERS","Address":"4341 Piedmont Ave","City":"Oakland","State":"CA","Zip":"94611"},{"Location":"STARKYS","Address":"4151 Piedmont Ave","City":"Oakland","State":"CA","Zip":"94611"},{"Location":"US BANK","Address":"1998 Mountain Blvd","City":"Oakland","State":"CA","Zip":"94611"},{"Location":"AMBA","Address":"6464 Moraga Ave","City":"Piedmont","State":"CA","Zip":"94611"},{"Location":"CAMBER MONTCLAIR","Address":"6516 Moraga Ave","City":"Piedmont","State":"CA","Zip":"94611"}]