[{"Location":"GRANITE CAPITAL","Address":"5707 Redwood Rd","City":"Oakland","State":"CA","Zip":"94619"},{"Location":"HIGHSTREET LAUNDROMAT","Address":"3401 High St","City":"Oakland","State":"CA","Zip":"94619"},{"Location":"L N L NAIL CARE","Address":"3915 Macarthur Blvd","City":"Oakland","State":"CA","Zip":"94619"},{"Location":"LAUREL LOUNGE","Address":"3932 Macarthur Blvd","City":"Oakland","State":"CA","Zip":"94619"},{"Location":"LINCOLN SQUARE BARBER SALON","Address":"4100 Redwood Rd","City":"Oakland","State":"CA","Zip":"94619"},{"Location":"MINIKI RESTAURANT","Address":"3725 Macarthur Blvd","City":"Oakland","State":"CA","Zip":"94619"},{"Location":"MUSSIE SIBHATU DDS","Address":"3630 Macarthur Blvd","City":"Oakland","State":"CA","Zip":"94619"},{"Location":"OAKLAND HILLS TENNIS CLUB","Address":"5475 Redwood Rd","City":"Oakland","State":"CA","Zip":"94619"},{"Location":"SHOWINOUT","Address":"3717 Macarthur Blvd","City":"Oakland","State":"CA","Zip":"94619"},{"Location":"SOY GRILL","Address":"4130 Redwood Rd","City":"Oakland","State":"CA","Zip":"94619"},{"Location":"GRANITE CAPITAL","Address":"5707 Redwood Rd","City":"Oakland","State":"CA","Zip":"94619"},{"Location":"HIGHSTREET LAUNDROMAT","Address":"3401 High St","City":"Oakland","State":"CA","Zip":"94619"},{"Location":"L N L NAIL CARE","Address":"3915 Macarthur Blvd","City":"Oakland","State":"CA","Zip":"94619"},{"Location":"LAUREL LOUNGE","Address":"3932 Macarthur Blvd","City":"Oakland","State":"CA","Zip":"94619"},{"Location":"LINCOLN SQUARE BARBER SALON","Address":"4100 Redwood Rd","City":"Oakland","State":"CA","Zip":"94619"},{"Location":"MINIKI RESTAURANT","Address":"3725 Macarthur Blvd","City":"Oakland","State":"CA","Zip":"94619"},{"Location":"MUSSIE SIBHATU DDS","Address":"3630 Macarthur Blvd","City":"Oakland","State":"CA","Zip":"94619"},{"Location":"OAKLAND HILLS TENNIS CLUB","Address":"5475 Redwood Rd","City":"Oakland","State":"CA","Zip":"94619"},{"Location":"SHOWINOUT","Address":"3717 Macarthur Blvd","City":"Oakland","State":"CA","Zip":"94619"},{"Location":"SOY GRILL","Address":"4130 Redwood Rd","City":"Oakland","State":"CA","Zip":"94619"}]