[{"Location":"","Address":"400 Roland Way","City":"Oakland","State":"CA","Zip":"94621"},{"Location":"AB AND I","Address":"7825 San Leandro St","City":"Oakland","State":"CA","Zip":"94621"},{"Location":"ACTS FULL GOSPEL","Address":"1034 66th Ave","City":"Oakland","State":"CA","Zip":"94621"},{"Location":"AMERICAN POSTAL WORKERS","Address":"7901 Oakport St 2300","City":"Oakland","State":"CA","Zip":"94621"},{"Location":"ANHEUSER-BUSCH WHLSLR #20460","Address":"8380 Pardee Dr","City":"Oakland","State":"CA","Zip":"94621"},{"Location":"ASHLEY FURNITURE","Address":"6195 Coliseum Way","City":"Oakland","State":"CA","Zip":"94621"},{"Location":"ASSOCIATED LIGHTING","Address":"7777 Pardee Ln","City":"Oakland","State":"CA","Zip":"94621"},{"Location":"AT THY WORD MINISTRIES","Address":"8915 International Blvd","City":"Oakland","State":"CA","Zip":"94621"},{"Location":"BROADWAY MECHANICAL","Address":"873 81st Ave","City":"Oakland","State":"CA","Zip":"94621"},{"Location":"BROADWAY MECHANICAL","Address":"919 81st Ave","City":"Oakland","State":"CA","Zip":"94621"},{"Location":"BRUCES TIRES","Address":"240 Hegenberger Rd","City":"Oakland","State":"CA","Zip":"94621"},{"Location":"CARL MCCOY","Address":"8522 Blaine St","City":"Oakland","State":"CA","Zip":"94621"},{"Location":"CEDRIC'S BARBERSHOP","Address":"8819 International Blvd","City":"Oakland","State":"CA","Zip":"94621"},{"Location":"CHEVRON CORP. AIRCRAFT SVCS.","Address":"7799 Earhart Rd","City":"Oakland","State":"CA","Zip":"94621"},{"Location":"CHURCH","Address":"7105 International Blvd","City":"Oakland","State":"CA","Zip":"94621"},{"Location":"COLISEUM LEXUS OF OAKLAND","Address":"7273 Oakport St","City":"Oakland","State":"CA","Zip":"94621"},{"Location":"DEAN'S TRUCKING","Address":"940 81st Ave","City":"Oakland","State":"CA","Zip":"94621"},{"Location":"DENNYS","Address":"601 Hegenberger Rd","City":"Oakland","State":"CA","Zip":"94621"},{"Location":"DIAMONDS SPORTS BAR","Address":"77 Hegenberger Rd","City":"Oakland","State":"CA","Zip":"94621"},{"Location":"E ONE ENTERTAINMENT","Address":"200 Hegenberger Road","City":"Oakland","State":"CA","Zip":"94621"},{"Location":"EAST OAKLAND HEALTH CENTER","Address":"7450 International Blvd","City":"Oakland","State":"CA","Zip":"94621"},{"Location":"ESTRELLAS DE SINALOA","Address":"8119 San Leandro St","City":"Oakland","State":"CA","Zip":"94621"},{"Location":"FEDEX","Address":"1 Sally Ride Way","City":"Oakland","State":"CA","Zip":"94621"},{"Location":"FEDEX EXPRESS","Address":"1 Sally Ride Way","City":"Oakland","State":"CA","Zip":"94621"},{"Location":"FRANCESCO'S RESTAURANT","Address":"8520 Pardee Dr","City":"Oakland","State":"CA","Zip":"94621"},{"Location":"HEGEN BURGER 2","Address":"280 Hegenberger Rd","City":"Oakland","State":"CA","Zip":"94621"},{"Location":"HILTON OAKLAND AIRPORT(0050797","Address":"1 Hegenberger Rd","City":"Oakland","State":"CA","Zip":"94621"},{"Location":"HIS GOSPEL CHRISTIAN","Address":"7977 Capwell Dr 200","City":"Oakland","State":"CA","Zip":"94621"},{"Location":"HMS HOST OAKCHI01","Address":"1 Airport Dr Terminal One 1","City":"Oakland","State":"CA","Zip":"94621"},{"Location":"HMS HOST OAKCHI01","Address":"1 Airport Dr","City":"Oakland","State":"CA","Zip":"94621"},{"Location":"HMS HOST OAKEBR01","Address":"1 Airport Dr","City":"Oakland","State":"CA","Zip":"94621"},{"Location":"HMS HOST OAKMIC02","Address":"1 Airport Dr 1","City":"Oakland","State":"CA","Zip":"94621"},{"Location":"HMS HOST OAKMWD01","Address":"1 Airport Dr","City":"Oakland","State":"CA","Zip":"94621"},{"Location":"INDUSTRIAL FLEET SERVICE","Address":"6815 San Leandro St","City":"Oakland","State":"CA","Zip":"94621"},{"Location":"JET AVIATION","Address":"7683 Old Earhart Rd","City":"Oakland","State":"CA","Zip":"94621"},{"Location":"JET BLUE AIRWAYS","Address":"1 Airport Dr Box9","City":"Oakland","State":"CA","Zip":"94621"},{"Location":"JJ FISH AND CHICKEN","Address":"8035 International Blvd","City":"Oakland","State":"CA","Zip":"94621"},{"Location":"LAKESIDE RECYCLING","Address":"545 Independent Rd","City":"Oakland","State":"CA","Zip":"94621"},{"Location":"LANDMARK AVIATION","Address":"8433 Earhart Rd","City":"Oakland","State":"CA","Zip":"94621"},{"Location":"LCB ASSOCIATES","Address":"80 Swan Way","City":"Oakland","State":"CA","Zip":"94621"},{"Location":"LOVE TEMPLE MISSIONARY BAPTIST","Address":"8401 Birch St","City":"Oakland","State":"CA","Zip":"94621"},{"Location":"MAUCK SHEET METAL INC","Address":"755 Independent Rd","City":"Oakland","State":"CA","Zip":"94621"},{"Location":"MECCA SHRINE CLUB","Address":"8105 Capwell Dr","City":"Oakland","State":"CA","Zip":"94621"},{"Location":"MONSIC BLDG AND HOLDING ASSOC","Address":"8105 Capwell Dr N","City":"Oakland","State":"CA","Zip":"94621"},{"Location":"MOOSE LODGE 324","Address":"690 Hegenberger Rd","City":"Oakland","State":"CA","Zip":"94621"},{"Location":"MOTORCYCLE CLUB","Address":"8500 Blaine St","City":"Oakland","State":"CA","Zip":"94621"},{"Location":"MUSCLE CAR HUB","Address":"7970 Capwell Dr","City":"Oakland","State":"CA","Zip":"94621"},{"Location":"NATCA","Address":"101 Air Cargo Way","City":"Oakland","State":"CA","Zip":"94621"},{"Location":"NCCRC","Address":"265 Hegenberger Rd 200","City":"Oakland","State":"CA","Zip":"94621"},{"Location":"OAKLAND FIRE DEPT","Address":"7101 Edgewater Dr","City":"Oakland","State":"CA","Zip":"94621"},{"Location":"ONE TOYOTA OF OAKLAND","Address":"8181 Oakport St","City":"Oakland","State":"CA","Zip":"94621"},{"Location":"PACIFIC GAS AND ELECTRIC","Address":"7843 Earhart Rd 8","City":"Oakland","State":"CA","Zip":"94621"},{"Location":"PAUL BLANCOS GOOD CAR CO","Address":"7201 Oakport St","City":"Oakland","State":"CA","Zip":"94621"},{"Location":"PLAYERS COMFORT ZONE","Address":"8452 Eves Ave","City":"Oakland","State":"CA","Zip":"94621"},{"Location":"POPEYE'S CHICKEN","Address":"7007 International Blvd","City":"Oakland","State":"CA","Zip":"94621"},{"Location":"ROLLS ROYCE ENGINE SERVICES","Address":"7200 Earhart Rd","City":"Oakland","State":"CA","Zip":"94621"},{"Location":"SAN FRANCISCO HELICOPTORS","Address":"9351 Earhart Rd","City":"Oakland","State":"CA","Zip":"94621"},{"Location":"SHIMMICK CONSTRUCTIONS","Address":"8201 Edgewater Dr 202","City":"Oakland","State":"CA","Zip":"94621"},{"Location":"SOUTHWEST","Address":"501 Alan Shepard Way","City":"Oakland","State":"CA","Zip":"94621"},{"Location":"SOUTHWEST AIRLINE RAMP SERVICE","Address":"1 Airport Dr 2","City":"Oakland","State":"CA","Zip":"94621"},{"Location":"SOUTHWEST AIRLINES","Address":"1 Airport Dr","City":"Oakland","State":"CA","Zip":"94621"},{"Location":"SOUTHWEST AIRLINES OAKLAND","Address":"Oakland Int'l Airport","City":"Oakland","State":"CA","Zip":"94621"},{"Location":"SOUTHWEST CARGO","Address":"10 Alan Shepard Way","City":"Oakland","State":"CA","Zip":"94621"},{"Location":"SP AVIATION INC","Address":"9351 Earhart Rd","City":"Oakland","State":"CA","Zip":"94621"},{"Location":"SPORTS EDITION","Address":"1 Hegenberger Rd","City":"Oakland","State":"CA","Zip":"94621"},{"Location":"STARZZ MANAGEMENT SERVIC","Address":"8393 Capwell Dr 220","City":"Oakland","State":"CA","Zip":"94621"},{"Location":"SW AIRLINES MAINTENANCE","Address":"1 Aiport Dr","City":"Oakland","State":"CA","Zip":"94621"},{"Location":"TEC OF CALIFORNIA","Address":"8099 S Coliseum Way","City":"Oakland","State":"CA","Zip":"94621"},{"Location":"THE INDEPENDENT INSTITUTE","Address":"100 Swan Way","City":"Oakland","State":"CA","Zip":"94621"},{"Location":"THE KOREA TIMES","Address":"8134 Capwell Dr","City":"Oakland","State":"CA","Zip":"94621"},{"Location":"THE RAIDERS IMAGE #918","Address":"8450 Edgewater Dr A","City":"Oakland","State":"CA","Zip":"94621"},{"Location":"THE TOWN GRILL & BAR LLC","Address":"8350 Edes Ave","City":"Oakland","State":"CA","Zip":"94621"},{"Location":"TURNER GROUP CONSTRUCTION","Address":"8055 Collins Dr","City":"Oakland","State":"CA","Zip":"94621"},{"Location":"US HEALTHWORKS","Address":"7817 Oakport St 140","City":"Oakland","State":"CA","Zip":"94621"},{"Location":"WINGSTOP","Address":"8450 Edgewater Dr","City":"Oakland","State":"CA","Zip":"94621"},{"Location":"ZHONE TECHNOLOGIES  INC.","Address":"7195 Oakport St Bld 1","City":"Oakland","State":"CA","Zip":"94621"},{"Location":"UPS","Address":"M112 Alan Sheppard Way","City":"Okland","State":"CA","Zip":"94621"},{"Location":"","Address":"400 Roland Way","City":"Oakland","State":"CA","Zip":"94621"},{"Location":"AB AND I","Address":"7825 San Leandro St","City":"Oakland","State":"CA","Zip":"94621"},{"Location":"ACTS FULL GOSPEL","Address":"1034 66th Ave","City":"Oakland","State":"CA","Zip":"94621"},{"Location":"AMERICAN POSTAL WORKERS","Address":"7901 Oakport St 2300","City":"Oakland","State":"CA","Zip":"94621"},{"Location":"ANHEUSER-BUSCH WHLSLR #20460","Address":"8380 Pardee Dr","City":"Oakland","State":"CA","Zip":"94621"},{"Location":"ASHLEY FURNITURE","Address":"6195 Coliseum Way","City":"Oakland","State":"CA","Zip":"94621"},{"Location":"ASSOCIATED LIGHTING","Address":"7777 Pardee Ln","City":"Oakland","State":"CA","Zip":"94621"},{"Location":"AT THY WORD MINISTRIES","Address":"8915 International Blvd","City":"Oakland","State":"CA","Zip":"94621"},{"Location":"BROADWAY MECHANICAL","Address":"873 81st Ave","City":"Oakland","State":"CA","Zip":"94621"},{"Location":"BROADWAY MECHANICAL","Address":"919 81st Ave","City":"Oakland","State":"CA","Zip":"94621"},{"Location":"BRUCES TIRES","Address":"240 Hegenberger Rd","City":"Oakland","State":"CA","Zip":"94621"},{"Location":"CARL MCCOY","Address":"8522 Blaine St","City":"Oakland","State":"CA","Zip":"94621"},{"Location":"CEDRIC'S BARBERSHOP","Address":"8819 International Blvd","City":"Oakland","State":"CA","Zip":"94621"},{"Location":"CHEVRON CORP. AIRCRAFT SVCS.","Address":"7799 Earhart Rd","City":"Oakland","State":"CA","Zip":"94621"},{"Location":"CHURCH","Address":"7105 International Blvd","City":"Oakland","State":"CA","Zip":"94621"},{"Location":"COLISEUM LEXUS OF OAKLAND","Address":"7273 Oakport St","City":"Oakland","State":"CA","Zip":"94621"},{"Location":"DEAN'S TRUCKING","Address":"940 81st Ave","City":"Oakland","State":"CA","Zip":"94621"},{"Location":"DENNYS","Address":"601 Hegenberger Rd","City":"Oakland","State":"CA","Zip":"94621"},{"Location":"DIAMONDS SPORTS BAR","Address":"77 Hegenberger Rd","City":"Oakland","State":"CA","Zip":"94621"},{"Location":"E One Entertainment","Address":"200 Hegenberger Road","City":"Oakland","State":"CA","Zip":"94621"},{"Location":"EAST OAKLAND HEALTH CENTER","Address":"7450 International Blvd","City":"Oakland","State":"CA","Zip":"94621"},{"Location":"ESTRELLAS DE SINALOA","Address":"8119 San Leandro St","City":"Oakland","State":"CA","Zip":"94621"},{"Location":"FEDEX","Address":"1 Sally Ride Way","City":"Oakland","State":"CA","Zip":"94621"},{"Location":"FEDEX EXPRESS","Address":"1 Sally Ride Way","City":"Oakland","State":"CA","Zip":"94621"},{"Location":"FRANCESCO'S RESTAURANT","Address":"8520 Pardee Dr","City":"Oakland","State":"CA","Zip":"94621"},{"Location":"HEGEN BURGER 2","Address":"280 Hegenberger Rd","City":"Oakland","State":"CA","Zip":"94621"},{"Location":"HILTON OAKLAND AIRPORT(0050797","Address":"1 Hegenberger Rd","City":"Oakland","State":"CA","Zip":"94621"},{"Location":"HIS GOSPEL CHRISTIAN","Address":"7977 Capwell Dr 200","City":"Oakland","State":"CA","Zip":"94621"},{"Location":"HMS HOST OAKCHI01","Address":"1 Airport Dr","City":"Oakland","State":"CA","Zip":"94621"},{"Location":"HMS HOST OAKCHI01","Address":"1 Airport Dr Terminal One 1","City":"Oakland","State":"CA","Zip":"94621"},{"Location":"HMS HOST OAKEBR01","Address":"1 Airport Dr","City":"Oakland","State":"CA","Zip":"94621"},{"Location":"HMS HOST OAKMIC02","Address":"1 Airport Dr 1","City":"Oakland","State":"CA","Zip":"94621"},{"Location":"HMS HOST OAKMWD01","Address":"1 Airport Dr","City":"Oakland","State":"CA","Zip":"94621"},{"Location":"INDUSTRIAL FLEET SERVICE","Address":"6815 San Leandro St","City":"Oakland","State":"CA","Zip":"94621"},{"Location":"JET AVIATION","Address":"7683 Old Earhart Rd","City":"Oakland","State":"CA","Zip":"94621"},{"Location":"JET BLUE AIRWAYS","Address":"1 Airport Dr Box9","City":"Oakland","State":"CA","Zip":"94621"},{"Location":"JJ FISH AND CHICKEN","Address":"8035 International Blvd","City":"Oakland","State":"CA","Zip":"94621"},{"Location":"LAKESIDE RECYCLING","Address":"545 Independent Rd","City":"Oakland","State":"CA","Zip":"94621"},{"Location":"LANDMARK AVIATION","Address":"8433 Earhart Rd","City":"Oakland","State":"CA","Zip":"94621"},{"Location":"LCB ASSOCIATES","Address":"80 Swan Way","City":"Oakland","State":"CA","Zip":"94621"},{"Location":"LOVE TEMPLE MISSIONARY BAPTIST","Address":"8401 Birch St","City":"Oakland","State":"CA","Zip":"94621"},{"Location":"MAUCK SHEET METAL INC","Address":"755 Independent Rd","City":"Oakland","State":"CA","Zip":"94621"},{"Location":"MECCA SHRINE CLUB","Address":"8105 Capwell Dr","City":"Oakland","State":"CA","Zip":"94621"},{"Location":"MONSIC BLDG AND HOLDING ASSOC","Address":"8105 Capwell Dr N","City":"Oakland","State":"CA","Zip":"94621"},{"Location":"MOOSE LODGE 324","Address":"690 Hegenberger Rd","City":"Oakland","State":"CA","Zip":"94621"},{"Location":"MOTORCYCLE CLUB","Address":"8500 Blaine St","City":"Oakland","State":"CA","Zip":"94621"},{"Location":"MUSCLE CAR HUB","Address":"7970 Capwell Dr","City":"Oakland","State":"CA","Zip":"94621"},{"Location":"NATCA","Address":"101 Air Cargo Way","City":"Oakland","State":"CA","Zip":"94621"},{"Location":"NCCRC","Address":"265 Hegenberger Rd 200","City":"Oakland","State":"CA","Zip":"94621"},{"Location":"OAKLAND FIRE DEPT","Address":"7101 Edgewater Dr","City":"Oakland","State":"CA","Zip":"94621"},{"Location":"ONE TOYOTA OF OAKLAND","Address":"8181 Oakport St","City":"Oakland","State":"CA","Zip":"94621"},{"Location":"PACIFIC GAS AND ELECTRIC","Address":"7843 Earhart Rd 8","City":"Oakland","State":"CA","Zip":"94621"},{"Location":"PAUL BLANCOS GOOD CAR CO","Address":"7201 Oakport St","City":"Oakland","State":"CA","Zip":"94621"},{"Location":"PLAYERS COMFORT ZONE","Address":"8452 Eves Ave","City":"Oakland","State":"CA","Zip":"94621"},{"Location":"POPEYE'S CHICKEN","Address":"7007 International Blvd","City":"Oakland","State":"CA","Zip":"94621"},{"Location":"ROLLS ROYCE ENGINE SERVICES","Address":"7200 Earhart Rd","City":"Oakland","State":"CA","Zip":"94621"},{"Location":"SAN FRANCISCO HELICOPTORS","Address":"9351 Earhart Rd","City":"Oakland","State":"CA","Zip":"94621"},{"Location":"SHIMMICK CONSTRUCTIONS","Address":"8201 Edgewater Dr 202","City":"Oakland","State":"CA","Zip":"94621"},{"Location":"SOUTHWEST","Address":"501 Alan Shepard Way","City":"Oakland","State":"CA","Zip":"94621"},{"Location":"SOUTHWEST AIRLINE RAMP SERVICE","Address":"1 Airport Dr 2","City":"Oakland","State":"CA","Zip":"94621"},{"Location":"SOUTHWEST AIRLINES","Address":"1 Airport Dr","City":"Oakland","State":"CA","Zip":"94621"},{"Location":"SOUTHWEST AIRLINES OAKLAND","Address":"Oakland Int'l Airport","City":"Oakland","State":"CA","Zip":"94621"},{"Location":"SOUTHWEST CARGO","Address":"10 Alan Shepard Way","City":"Oakland","State":"CA","Zip":"94621"},{"Location":"SP AVIATION INC","Address":"9351 Earhart Rd","City":"Oakland","State":"CA","Zip":"94621"},{"Location":"SPORTS EDITION","Address":"1 Hegenberger Rd","City":"Oakland","State":"CA","Zip":"94621"},{"Location":"STARZZ MANAGEMENT SERVIC","Address":"8393 Capwell Dr 220","City":"Oakland","State":"CA","Zip":"94621"},{"Location":"SW AIRLINES MAINTENANCE","Address":"1 Aiport Dr","City":"Oakland","State":"CA","Zip":"94621"},{"Location":"TEC OF CALIFORNIA","Address":"8099 S Coliseum Way","City":"Oakland","State":"CA","Zip":"94621"},{"Location":"THE INDEPENDENT INSTITUTE","Address":"100 Swan Way","City":"Oakland","State":"CA","Zip":"94621"},{"Location":"THE KOREA TIMES","Address":"8134 Capwell Dr","City":"Oakland","State":"CA","Zip":"94621"},{"Location":"THE RAIDERS IMAGE #918","Address":"8450 Edgewater Dr A","City":"Oakland","State":"CA","Zip":"94621"},{"Location":"THE TOWN GRILL & BAR LLC","Address":"8350 Edes Ave","City":"Oakland","State":"CA","Zip":"94621"},{"Location":"TURNER GROUP CONSTRUCTION","Address":"8055 Collins Dr","City":"Oakland","State":"CA","Zip":"94621"},{"Location":"US HEALTHWORKS","Address":"7817 Oakport St 140","City":"Oakland","State":"CA","Zip":"94621"},{"Location":"WINGSTOP","Address":"8450 Edgewater Dr","City":"Oakland","State":"CA","Zip":"94621"},{"Location":"ZHONE TECHNOLOGIES  INC.","Address":"7195 Oakport St Bld 1","City":"Oakland","State":"CA","Zip":"94621"},{"Location":"UPS","Address":"M112 Alan Sheppard Way","City":"Okland","State":"CA","Zip":"94621"}]