[{"Location":"BUGGY BANK LLC","Address":"2821 Shattuck Ave","City":"Berkeley","State":"CA","Zip":"94705"},{"Location":"CHURCH BY THE SIDE OF TH","Address":"2108 Russell St","City":"Berkeley","State":"CA","Zip":"94705"},{"Location":"CLAIRMONT FITNESS CENTER","Address":"41 Tunnel Rd","City":"Berkeley","State":"CA","Zip":"94705"},{"Location":"CLUB AT THE CLAIRMONT RESORT","Address":"41 Tunnel Rd","City":"Berkeley","State":"CA","Zip":"94705"},{"Location":"CUGINI MANZONE","Address":"2930 College Ave","City":"Berkeley","State":"CA","Zip":"94705"},{"Location":"DR MADELYN BALLARD","Address":"3031 Telegraph Ave","City":"Berkeley","State":"CA","Zip":"94705"},{"Location":"DREAM FLUFF DONUT SHOP","Address":"2637 Ashby Ave","City":"Berkeley","State":"CA","Zip":"94705"},{"Location":"EXTREME PIZZA","Address":"3204 College Ave","City":"Berkeley","State":"CA","Zip":"94705"},{"Location":"LA CASCADE","Address":"2971 Shattuck Ave","City":"Berkeley","State":"CA","Zip":"94705"},{"Location":"LAFOOT","Address":"2917 College Ave","City":"Berkeley","State":"CA","Zip":"94705"},{"Location":"MERITAGE RESTAURANT","Address":"41 Tunnel Rd","City":"Berkeley","State":"CA","Zip":"94705"},{"Location":"MITAMA","Address":"3201 College Ave","City":"Berkeley","State":"CA","Zip":"94705"},{"Location":"PARAGON BAR & GRILL","Address":"41 Tunnel Rd","City":"Berkeley","State":"CA","Zip":"94705"},{"Location":"PBG REAL ESTATE","Address":"2987 College Ave","City":"Berkeley","State":"CA","Zip":"94705"},{"Location":"SHEN SHEA","Address":"2914 College Ave","City":"Berkeley","State":"CA","Zip":"94705"}]