[{"Location":"ALFONSOS CAFE","Address":"2309 San Pablo Ave","City":"Berkeley","State":"CA","Zip":"94702"},{"Location":"BAY AREA ELKS LODGE IBPEOW 70","Address":"3825 San Pablo Avenue","City":"Berkeley","State":"CA","Zip":"94702"},{"Location":"BERKLEY TIRES AND SERVICE","Address":"2323 San Pablo Ave","City":"Berkeley","State":"CA","Zip":"94702"},{"Location":"BOTANICA BERKELEY","Address":"1475 University Ave","City":"Berkeley","State":"CA","Zip":"94702"},{"Location":"EVERETT AND JONES BBQ","Address":"1955 San Pablo Ave","City":"Berkeley","State":"CA","Zip":"94702"},{"Location":"FF TIRE AND SERVICES CENTRAL","Address":"2625 San Pablo Ave","City":"Berkeley","State":"CA","Zip":"94702"},{"Location":"GREERS JEWELRY","Address":"2983 Sacramento St","City":"Berkeley","State":"CA","Zip":"94702"},{"Location":"INTERNATIONAL HOUSE OF","Address":"2821 San Pablo Ave","City":"Berkeley","State":"CA","Zip":"94702"},{"Location":"LANESPLITTER PUB","Address":"2033 San Pablo Ave","City":"Berkeley","State":"CA","Zip":"94702"},{"Location":"MISSIONARY CHURCH OF GOD","Address":"1125 Allston Way","City":"Berkeley","State":"CA","Zip":"94702"},{"Location":"MONTE CRISTO TAQUERIA","Address":"1446 University Ave","City":"Berkeley","State":"CA","Zip":"94702"},{"Location":"MOXY","Address":"3136 Sacramento St","City":"Berkeley","State":"CA","Zip":"94702"},{"Location":"PANADERIA LATINA","Address":"1805 San Pablo Ave","City":"Berkeley","State":"CA","Zip":"94702"},{"Location":"RAINBOW DONUTS","Address":"2025 San Pablo Ave","City":"Berkeley","State":"CA","Zip":"94702"},{"Location":"ROYALE UNION LLC","Address":"1181 University Ave","City":"Berkeley","State":"CA","Zip":"94702"},{"Location":"STELLA NONNA","Address":"1407 San Pablo Ave","City":"Berkeley","State":"CA","Zip":"94702"},{"Location":"TAQUERIA LUPITA","Address":"2200 San Pablo Ave","City":"Berkeley","State":"CA","Zip":"94702"},{"Location":"TIRE KINGDOM B-5094","Address":"2625 San Pablo Ave","City":"Berkeley","State":"CA","Zip":"94702"},{"Location":"WEST OAKLAND HEALTH COUNCIL","Address":"2960 Sacramento St","City":"Berkeley","State":"CA","Zip":"94702"}]