[{"Location":"ANONITED HANDS","Address":"2903 Adeline St","City":"Berkeley","State":"CA","Zip":"94703"},{"Location":"GOLD AND GIFTED","Address":"3268 Adeline St","City":"Berkeley","State":"CA","Zip":"94703"},{"Location":"NEXT DOOR RESTAURANT","Address":"3290 Adeline St","City":"Berkeley","State":"CA","Zip":"94703"},{"Location":"NICKS LOUNGE","Address":"3218 Adeline St","City":"Berkeley","State":"CA","Zip":"94703"},{"Location":"OCEAN CITY PIZZA INC%2FDOM","Address":"3264 Adeline St","City":"Berkeley","State":"CA","Zip":"94703"},{"Location":"THE BERKLEY POLICE ASSOCIATION","Address":"1834 University Ave","City":"Berkeley","State":"CA","Zip":"94703"},{"Location":"WASHING TOWN LAUNDRY MAT","Address":"3215 Adeline St","City":"Berkeley","State":"CA","Zip":"94703"},{"Location":"ANONITED HANDS","Address":"2903 Adeline St","City":"Berkeley","State":"CA","Zip":"94703"},{"Location":"GOLD AND GIFTED","Address":"3268 Adeline St","City":"Berkeley","State":"CA","Zip":"94703"},{"Location":"NEXT DOOR RESTAURANT","Address":"3290 Adeline St","City":"Berkeley","State":"CA","Zip":"94703"},{"Location":"NICKS LOUNGE","Address":"3218 Adeline St","City":"Berkeley","State":"CA","Zip":"94703"},{"Location":"OCEAN CITY PIZZA INC%2FDOM","Address":"3264 Adeline St","City":"Berkeley","State":"CA","Zip":"94703"},{"Location":"THE BERKLEY POLICE ASSOCIATION","Address":"1834 University Ave","City":"Berkeley","State":"CA","Zip":"94703"},{"Location":"WASHING TOWN LAUNDRY MAT","Address":"3215 Adeline St","City":"Berkeley","State":"CA","Zip":"94703"}]