[{"Location":"2334 BANCROFT LLC","Address":"2334 Bancroft Way","City":"Berkeley","State":"CA","Zip":"94704"},{"Location":"24 HOUR FITNESS #583","Address":"2072 Addison St","City":"Berkeley","State":"CA","Zip":"94704"},{"Location":"AU COQUELET CAFE RESTAURANT","Address":"2000 University Ave","City":"Berkeley","State":"CA","Zip":"94704"},{"Location":"BACHEESO","Address":"2650 Telegraph Ave","City":"Berkeley","State":"CA","Zip":"94704"},{"Location":"BARRA INC","Address":"2100 Milvia St","City":"Berkeley","State":"CA","Zip":"94704"},{"Location":"BERKELEY FLOOR CAFE","Address":"2244 Bancroft Way","City":"Berkeley","State":"CA","Zip":"94704"},{"Location":"BERKELEY ORTHODONTICS","Address":"2640 Telegraph Ave 201","City":"Berkeley","State":"CA","Zip":"94704"},{"Location":"BERKLEY TOUCHLESS CAR WASH","Address":"2176 Kittredge St","City":"Berkeley","State":"CA","Zip":"94704"},{"Location":"BOBBY G'S PIZZERIA","Address":"2072 University Ave","City":"Berkeley","State":"CA","Zip":"94704"},{"Location":"BUILD ROMA PIZZA","Address":"2286 Shattuck Ave","City":"Berkeley","State":"CA","Zip":"94704"},{"Location":"CAFE PLATANO","Address":"2042 University Ave","City":"Berkeley","State":"CA","Zip":"94704"},{"Location":"CHANG LUONG","Address":"2517 Durant Ave","City":"Berkeley","State":"CA","Zip":"94704"},{"Location":"CHARLES SCHWAB & COMPANY #742","Address":"1995 University Ave 130a","City":"Berkeley","State":"CA","Zip":"94704"},{"Location":"CHICK O PEAS INC","Address":"1926 Shattuck Ave","City":"Berkeley","State":"CA","Zip":"94704"},{"Location":"DAVITA #3039 BERKLY DIALYSIS","Address":"2655 Shattuck Ave","City":"Berkeley","State":"CA","Zip":"94704"},{"Location":"DOWNTOWN BERKELEY YMCA","Address":"2001 Allston Way","City":"Berkeley","State":"CA","Zip":"94704"},{"Location":"EL LIMON","Address":"2164 Center St","City":"Berkeley","State":"CA","Zip":"94704"},{"Location":"EUREKA BURGER- BERKELEY","Address":"2068 Center St","City":"Berkeley","State":"CA","Zip":"94704"},{"Location":"EXTREME PIZZA","Address":"2352 Shattuck Ave","City":"Berkeley","State":"CA","Zip":"94704"},{"Location":"FIDELITY INVESTMENTS 311","Address":"1995 University Ave 120","City":"Berkeley","State":"CA","Zip":"94704"},{"Location":"FINS RESTAURANT","Address":"2240 Shattuck Ave","City":"Berkeley","State":"CA","Zip":"94704"},{"Location":"GMO LLC","Address":"2150 Shattuck Ave 900","City":"Berkeley","State":"CA","Zip":"94704"},{"Location":"HENRY'S PUBLICK HOUSE","Address":"2600 Durant Ave","City":"Berkeley","State":"CA","Zip":"94704"},{"Location":"HERE","Address":"2075 Allston Way","City":"Berkeley","State":"CA","Zip":"94704"},{"Location":"I.C.S.I.","Address":"1947 Center St 600","City":"Berkeley","State":"CA","Zip":"94704"},{"Location":"KIP'S RESTAURANT","Address":"2439 Durant Ave","City":"Berkeley","State":"CA","Zip":"94704"},{"Location":"LANDMARK THEATRES","Address":"2230 Shattuck Ave","City":"Berkeley","State":"CA","Zip":"94704"},{"Location":"LANGUGE STUDIES INTL","Address":"2015 Center St","City":"Berkeley","State":"CA","Zip":"94704"},{"Location":"LUCKY HOUSE THAI CUISINE","Address":"2140 University Ave","City":"Berkeley","State":"CA","Zip":"94704"},{"Location":"MANDARIN HOUSE","Address":"2519 Durant Ave","City":"Berkeley","State":"CA","Zip":"94704"},{"Location":"PAPPYS GRILL","Address":"2367 Telegraph Ave","City":"Berkeley","State":"CA","Zip":"94704"},{"Location":"PERSIAN CENTER","Address":"2029 Durant Ave","City":"Berkeley","State":"CA","Zip":"94704"},{"Location":"RED BUFFALO","Address":"2370 Shattuck Ave","City":"Berkeley","State":"CA","Zip":"94704"},{"Location":"REVIVAL BAR AND KITCHEN","Address":"2102 Shattuck Ave","City":"Berkeley","State":"CA","Zip":"94704"},{"Location":"SAMER MARKET INC","Address":"2312 Telegraph Ave","City":"Berkeley","State":"CA","Zip":"94704"},{"Location":"SLIVER PIZZERIA","Address":"2132 Center St","City":"Berkeley","State":"CA","Zip":"94704"},{"Location":"THE GREENLINING INSTITUTE","Address":"1918 University Ave 2nd","City":"Berkeley","State":"CA","Zip":"94704"},{"Location":"THE MELT 2","Address":"2400 Telegraph Ave","City":"Berkeley","State":"CA","Zip":"94704"},{"Location":"THE SANDWICH SPOT","Address":"2106 Shattuck Ave","City":"Berkeley","State":"CA","Zip":"94704"},{"Location":"TOGOS CORP.","Address":"2172 Shattuck Ave","City":"Berkeley","State":"CA","Zip":"94704"},{"Location":"TOP DOG","Address":"2160 Center St","City":"Berkeley","State":"CA","Zip":"94704"},{"Location":"TOSS NOODLE BAR","Address":"2272 Shattuck Ave","City":"Berkeley","State":"CA","Zip":"94704"},{"Location":"TOYOTA OF BERKLEY","Address":"2400 Shattuck Ave","City":"Berkeley","State":"CA","Zip":"94704"},{"Location":"TURKISH KITCHEN INC","Address":"1984 Shattuck Ave","City":"Berkeley","State":"CA","Zip":"94704"},{"Location":"UNIVERSITY OF CALIFORNIA","Address":"2415 Bowditch St","City":"Berkeley","State":"CA","Zip":"94704"}]