[{"Location":"ATP PLUMBING","Address":"3125 Hollis St #m","City":"Albany","State":"CA","Zip":"94710"},{"Location":"GROCERY OUTLET INC","Address":"2000 5th St","City":"Albany","State":"CA","Zip":"94710"},{"Location":"1332 NINETH STREET","Address":"1332 9th St","City":"Berkeley","State":"CA","Zip":"94710"},{"Location":"BAYLINE CONSTRUCTION","Address":"1635 4th St","City":"Berkeley","State":"CA","Zip":"94710"},{"Location":"BERKLEY YACHT CLUB","Address":"1 Seawall Dr","City":"Berkeley","State":"CA","Zip":"94710"},{"Location":"BRENNAN'S","Address":"700 University Ave","City":"Berkeley","State":"CA","Zip":"94710"},{"Location":"CITY OF ALBANY MAINT CENTER","Address":"548 Cleveland Ave","City":"Berkeley","State":"CA","Zip":"94710"},{"Location":"DOUBLE TREE BERKELEY","Address":"200 Marina Blvd","City":"Berkeley","State":"CA","Zip":"94710"},{"Location":"DSI BERKELEY","Address":"2895 7th St","City":"Berkeley","State":"CA","Zip":"94710"},{"Location":"DYNAVAX","Address":"2929 7th St 130","City":"Berkeley","State":"CA","Zip":"94710"},{"Location":"EPPCO","Address":"1618 6th St","City":"Berkeley","State":"CA","Zip":"94710"},{"Location":"GOLDEN GATE FIELDS","Address":"1100 Eastshore Hwy","City":"Berkeley","State":"CA","Zip":"94710"},{"Location":"GOLDEN GATE FIELDS RECREATION","Address":"1100 Eastshore Hwy","City":"Berkeley","State":"CA","Zip":"94710"},{"Location":"H2 FITNESS AND PERSONAL TRAIN","Address":"701 University Ave","City":"Berkeley","State":"CA","Zip":"94710"},{"Location":"HANDLEBAR","Address":"984 University Ave","City":"Berkeley","State":"CA","Zip":"94710"},{"Location":"HJ STEAKHOUSE","Address":"235 University Ave","City":"Berkeley","State":"CA","Zip":"94710"},{"Location":"KCC MODERN LIVING","Address":"805 University Ave","City":"Berkeley","State":"CA","Zip":"94710"},{"Location":"MOTION IN IMAGE","Address":"2413 4th St","City":"Berkeley","State":"CA","Zip":"94710"},{"Location":"OC JONES & SONS INC","Address":"1520 4th St","City":"Berkeley","State":"CA","Zip":"94710"},{"Location":"PYRAMID ALEHOUSE","Address":"901 Gilman St","City":"Berkeley","State":"CA","Zip":"94710"},{"Location":"SPENGER'S FRESH FISH GROTTO","Address":"1919 4th St","City":"Berkeley","State":"CA","Zip":"94710"},{"Location":"TARGET #1926","Address":"1057 Eastshore Hwy","City":"Berkeley","State":"CA","Zip":"94710"},{"Location":"TELLURIDE FILM","Address":"800 Jones St","City":"Berkeley","State":"CA","Zip":"94710"},{"Location":"TOYOTA OF BERKELEY","Address":"1025 Eastshore Hwy","City":"Berkeley","State":"CA","Zip":"94710"},{"Location":"WESTPOST BERKELEY (0055491)","Address":"200 Marina Blvd","City":"Berkeley","State":"CA","Zip":"94710"},{"Location":"WINE COM INC","Address":"2220 4th St","City":"Berkeley","State":"CA","Zip":"94710"},{"Location":"WLC ARCHITECTS","Address":"2600 10th St 500","City":"Berkeley","State":"CA","Zip":"94710"},{"Location":"Z GALLERIE","Address":"1700 5th St","City":"Berkeley","State":"CA","Zip":"94710"},{"Location":"ATP PLUMBING","Address":"3125 Hollis St #m","City":"Albany","State":"CA","Zip":"94710"},{"Location":"GROCERY OUTLET INC","Address":"2000 5th St","City":"Albany","State":"CA","Zip":"94710"},{"Location":"1332 NINETH STREET","Address":"1332 9th St","City":"Berkeley","State":"CA","Zip":"94710"},{"Location":"BAYLINE CONSTRUCTION","Address":"1635 4th St","City":"Berkeley","State":"CA","Zip":"94710"},{"Location":"BERKLEY YACHT CLUB","Address":"1 Seawall Dr","City":"Berkeley","State":"CA","Zip":"94710"},{"Location":"BRENNAN'S","Address":"700 University Ave","City":"Berkeley","State":"CA","Zip":"94710"},{"Location":"CITY OF ALBANY MAINT CENTER","Address":"548 Cleveland Ave","City":"Berkeley","State":"CA","Zip":"94710"},{"Location":"DOUBLE TREE BERKELEY","Address":"200 Marina Blvd","City":"Berkeley","State":"CA","Zip":"94710"},{"Location":"DSI BERKELEY","Address":"2895 7th St","City":"Berkeley","State":"CA","Zip":"94710"},{"Location":"DYNAVAX","Address":"2929 7th St 130","City":"Berkeley","State":"CA","Zip":"94710"},{"Location":"EPPCO","Address":"1618 6th St","City":"Berkeley","State":"CA","Zip":"94710"},{"Location":"GOLDEN GATE FIELDS","Address":"1100 Eastshore Hwy","City":"Berkeley","State":"CA","Zip":"94710"},{"Location":"GOLDEN GATE FIELDS RECREATION","Address":"1100 Eastshore Hwy","City":"Berkeley","State":"CA","Zip":"94710"},{"Location":"H2 FITNESS AND PERSONAL TRAIN","Address":"701 University Ave","City":"Berkeley","State":"CA","Zip":"94710"},{"Location":"HANDLEBAR","Address":"984 University Ave","City":"Berkeley","State":"CA","Zip":"94710"},{"Location":"HJ STEAKHOUSE","Address":"235 University Ave","City":"Berkeley","State":"CA","Zip":"94710"},{"Location":"KCC MODERN LIVING","Address":"805 University Ave","City":"Berkeley","State":"CA","Zip":"94710"},{"Location":"MOTION IN IMAGE","Address":"2413 4th St","City":"Berkeley","State":"CA","Zip":"94710"},{"Location":"OC JONES & SONS INC","Address":"1520 4th St","City":"Berkeley","State":"CA","Zip":"94710"},{"Location":"PYRAMID ALEHOUSE","Address":"901 Gilman St","City":"Berkeley","State":"CA","Zip":"94710"},{"Location":"SPENGER'S FRESH FISH GROTTO","Address":"1919 4th St","City":"Berkeley","State":"CA","Zip":"94710"},{"Location":"TARGET #1926","Address":"1057 Eastshore Hwy","City":"Berkeley","State":"CA","Zip":"94710"},{"Location":"TELLURIDE FILM","Address":"800 Jones St","City":"Berkeley","State":"CA","Zip":"94710"},{"Location":"TOYOTA OF BERKELEY","Address":"1025 Eastshore Hwy","City":"Berkeley","State":"CA","Zip":"94710"},{"Location":"WESTPOST BERKELEY (0055491)","Address":"200 Marina Blvd","City":"Berkeley","State":"CA","Zip":"94710"},{"Location":"WINE COM INC","Address":"2220 4th St","City":"Berkeley","State":"CA","Zip":"94710"},{"Location":"WLC ARCHITECTS","Address":"2600 10th St 500","City":"Berkeley","State":"CA","Zip":"94710"},{"Location":"Z GALLERIE","Address":"1700 5th St","City":"Berkeley","State":"CA","Zip":"94710"}]