[{"Location":"ALAMEDA COUNTY FIRE STATION 19","Address":"1 Cyclotron Rd 45","City":"Berkeley","State":"CA","Zip":"94720"},{"Location":"CAL ATHLETICS","Address":"2227 Piedmont Ave","City":"Berkeley","State":"CA","Zip":"94720"},{"Location":"CAL RUGBY","Address":"Cr Crnr Of Cyn","City":"Berkeley","State":"CA","Zip":"94720"},{"Location":"FOOTHILL DINNING","Address":"2700 Hearst Ave","City":"Berkeley","State":"CA","Zip":"94720"},{"Location":"LAWRENCE BERKELEY NATIONAL LAB","Address":"1 Cyclotron Rd Bld48","City":"Berkeley","State":"CA","Zip":"94720"},{"Location":"LAWRENCE BERKLEY NATIONAL LAB","Address":"1 Cyclotron Rd 4-230","City":"Berkeley","State":"CA","Zip":"94720"},{"Location":"UC BERKELEY FSM CAFE","Address":"355 Moffitt Library","City":"Berkeley","State":"CA","Zip":"94720"},{"Location":"UC BERKELEY MILITARY AFFAIRS","Address":"159 Hearst Gym Mc360","City":"Berkeley","State":"CA","Zip":"94720"},{"Location":"UC BERKELEY SCHOOL OF LAW","Address":"369 Boalt Hl 369","City":"Berkeley","State":"CA","Zip":"94720"},{"Location":"UC BERKELEY%2FEH&S%2FOEM","Address":"2195 Hearst Ave","City":"Berkeley","State":"CA","Zip":"94720"},{"Location":"UC BERKLEY RECREATIONAL SPORTS","Address":"2301 Bancroft Way","City":"Berkeley","State":"CA","Zip":"94720"},{"Location":"UNIV OF CALI BERKELEY FOOTBALL","Address":"209 Memorial Stadium","City":"Berkeley","State":"CA","Zip":"94720"},{"Location":"UNIV. OF CALIFORNIA","Address":"103 Moses Hall 2370","City":"Berkeley","State":"CA","Zip":"94720"},{"Location":"UNIVERSITY OF CALIF WBB","Address":"75 Haas Pavilion","City":"Berkeley","State":"CA","Zip":"94720"},{"Location":"UNIVERSITY OF CALIFORNIA MEN B","Address":"2301 Bancroft Ext","City":"Berkeley","State":"CA","Zip":"94720"},{"Location":"UNIVERSITY OF CALIFORNIA MFB","Address":"200 Memorial Stadium","City":"Berkeley","State":"CA","Zip":"94720"},{"Location":"ALAMEDA COUNTY FIRE STATION 19","Address":"1 Cyclotron Rd 45","City":"Berkeley","State":"CA","Zip":"94720"},{"Location":"CAL ATHLETICS","Address":"2227 Piedmont Ave","City":"Berkeley","State":"CA","Zip":"94720"},{"Location":"CAL RUGBY","Address":"Cr Crnr Of Cyn","City":"Berkeley","State":"CA","Zip":"94720"},{"Location":"FOOTHILL DINNING","Address":"2700 Hearst Ave","City":"Berkeley","State":"CA","Zip":"94720"},{"Location":"LAWRENCE BERKELEY NATIONAL LAB","Address":"1 Cyclotron Rd Bld48","City":"Berkeley","State":"CA","Zip":"94720"},{"Location":"LAWRENCE BERKLEY NATIONAL LAB","Address":"1 Cyclotron Rd 4-230","City":"Berkeley","State":"CA","Zip":"94720"},{"Location":"UC BERKELEY FSM CAFE","Address":"355 Moffitt Library","City":"Berkeley","State":"CA","Zip":"94720"},{"Location":"UC BERKELEY MILITARY AFFAIRS","Address":"159 Hearst Gym Mc360","City":"Berkeley","State":"CA","Zip":"94720"},{"Location":"UC BERKELEY SCHOOL OF LAW","Address":"369 Boalt Hl 369","City":"Berkeley","State":"CA","Zip":"94720"},{"Location":"UC BERKELEY%2FEH&S%2FOEM","Address":"2195 Hearst Ave","City":"Berkeley","State":"CA","Zip":"94720"},{"Location":"UC BERKLEY RECREATIONAL SPORTS","Address":"2301 Bancroft Way","City":"Berkeley","State":"CA","Zip":"94720"},{"Location":"UNIV OF CALI BERKELEY FOOTBALL","Address":"209 Memorial Stadium","City":"Berkeley","State":"CA","Zip":"94720"},{"Location":"UNIV. OF CALIFORNIA","Address":"103 Moses Hall 2370","City":"Berkeley","State":"CA","Zip":"94720"},{"Location":"UNIVERSITY OF CALIF WBB","Address":"75 Haas Pavilion","City":"Berkeley","State":"CA","Zip":"94720"},{"Location":"UNIVERSITY OF CALIFORNIA MEN B","Address":"2301 Bancroft Ext","City":"Berkeley","State":"CA","Zip":"94720"},{"Location":"UNIVERSITY OF CALIFORNIA MFB","Address":"200 Memorial Stadium","City":"Berkeley","State":"CA","Zip":"94720"}]