[{"Location":"ABS-CBN INT'L","Address":"2301 Columbia Blvd","City":"Richmond","State":"CA","Zip":"94804"},{"Location":"B&B REAL ESTATE","Address":"3507 Cutting Blvd","City":"Richmond","State":"CA","Zip":"94804"},{"Location":"BAY AREA BEVERAGE COMPANY","Address":"700 National Ct","City":"Richmond","State":"CA","Zip":"94804"},{"Location":"BELAIRE DISPLAYS","Address":"506 W Ohio Ave","City":"Richmond","State":"CA","Zip":"94804"},{"Location":"BETHEL TEMPLE CHURCH","Address":"3429 Cutting Blvd","City":"Richmond","State":"CA","Zip":"94804"},{"Location":"BLACK DIAMOND VIDIEO","Address":"503 Canal Blvd","City":"Richmond","State":"CA","Zip":"94804"},{"Location":"CHEVRON BUSINESS & REAL EST #1","Address":"1450 Marina Way S","City":"Richmond","State":"CA","Zip":"94804"},{"Location":"CISNERO WIRELESS 3","Address":"1096 23rd St","City":"Richmond","State":"CA","Zip":"94804"},{"Location":"DEJAVU HAIR SALON","Address":"2540 Macdonald Ave","City":"Richmond","State":"CA","Zip":"94804"},{"Location":"DEPARTMENT OF JUSTICE DNA LAB","Address":"1003 W Cutting Blvd","City":"Richmond","State":"CA","Zip":"94804"},{"Location":"EHLB","Address":"850 Mauia Bay Parkway G365","City":"Richmond","State":"CA","Zip":"94804"},{"Location":"EL CAMPESINO MARKET","Address":"232 23rd St B1","City":"Richmond","State":"CA","Zip":"94804"},{"Location":"FOSS MARITIME COMPANY","Address":"1316 Canal Blvd","City":"Richmond","State":"CA","Zip":"94804"},{"Location":"GOSPEL FELLOWSHIP CHURCH","Address":"377 S 34th St","City":"Richmond","State":"CA","Zip":"94804"},{"Location":"KYANI CORBETT","Address":"180 Broadway F","City":"Richmond","State":"CA","Zip":"94804"},{"Location":"KYOEISHA USA INC","Address":"1001 Canal Blvd E","City":"Richmond","State":"CA","Zip":"94804"},{"Location":"LATINO WIRELESS","Address":"2308 Macdonald Ave","City":"Richmond","State":"CA","Zip":"94804"},{"Location":"LEGACY HAIR STUDIO","Address":"1303 Carlson Blvd","City":"Richmond","State":"CA","Zip":"94804"},{"Location":"LUIS AUTO REPAIR","Address":"647 23rd St","City":"Richmond","State":"CA","Zip":"94804"},{"Location":"LUNAR BOUTIQUE","Address":"1175 23rd St","City":"Richmond","State":"CA","Zip":"94804"},{"Location":"MSRC","Address":"702 National Ct 1","City":"Richmond","State":"CA","Zip":"94804"},{"Location":"MT ZION ENT%2C INC","Address":"915 W Outring Blvd","City":"Richmond","State":"CA","Zip":"94804"},{"Location":"NEW TO YOU","Address":"3219 Macdonald Ave","City":"Richmond","State":"CA","Zip":"94804"},{"Location":"ORTON ENTERTAINMENT LLC","Address":"1414 Harbour Way S","City":"Richmond","State":"CA","Zip":"94804"},{"Location":"OWENS BARBER SHOP 1","Address":"3321 Cutting Blvd","City":"Richmond","State":"CA","Zip":"94804"},{"Location":"PAY LESS STORAGE LLC","Address":"321 Canal Blvd","City":"Richmond","State":"CA","Zip":"94804"},{"Location":"PG AND E","Address":"1100 S 27th St","City":"Richmond","State":"CA","Zip":"94804"},{"Location":"PROTRANSPORTONE","Address":"3431 Regatta Blvd","City":"Richmond","State":"CA","Zip":"94804"},{"Location":"RICHMOND FIRE DEPT","Address":"3506 Cutting Blvd","City":"Richmond","State":"CA","Zip":"94804"},{"Location":"ROBERT YOUNG","Address":"1515 Ohio Ave","City":"Richmond","State":"CA","Zip":"94804"},{"Location":"SALUTE RESTAURANT","Address":"1900 Esplanade Dr","City":"Richmond","State":"CA","Zip":"94804"},{"Location":"SHIELDS RICHMOND NURSING","Address":"1919 Cutting Blvd","City":"Richmond","State":"CA","Zip":"94804"},{"Location":"SWEET TOWING SERVICE","Address":"110 S 23rd St K","City":"Richmond","State":"CA","Zip":"94804"},{"Location":"TALLEREZ RICHMOND","Address":"655 23rd St","City":"Richmond","State":"CA","Zip":"94804"},{"Location":"THE CITY OF RICHMOND","Address":"1322 Canal Blvd","City":"Richmond","State":"CA","Zip":"94804"},{"Location":"TRADEWINDS SAILING INC","Address":"2580 Spinnaker Way","City":"Richmond","State":"CA","Zip":"94804"},{"Location":"US EPA LABORATORY","Address":"1337 S 46th St 201","City":"Richmond","State":"CA","Zip":"94804"},{"Location":"VERITAS PROPERTY MGMNT","Address":"1001 Canal Blvd A","City":"Richmond","State":"CA","Zip":"94804"},{"Location":"VINTAGE ESTATES IN RICHMOND","Address":"955 23rd St","City":"Richmond","State":"CA","Zip":"94804"},{"Location":"WHEEL HOUSE ACADEMY","Address":"5327 Jacuzzi St 2e","City":"Richmond","State":"CA","Zip":"94804"}]