[{"Location":"BARBERSHOP","Address":"3741 San Pablo Dam Rd B","City":"El Sobrante","State":"CA","Zip":"94803"},{"Location":"BB'S LAUNDROMAT","Address":"3741 San Pablo Dam Rd D","City":"El Sobrante","State":"CA","Zip":"94803"},{"Location":"CHEYENNES TEEPEE","Address":"5631 San Pablo Dam Rd","City":"El Sobrante","State":"CA","Zip":"94803"},{"Location":"DIANA BEAUTY SALON","Address":"4801 Valley View Rd","City":"El Sobrante","State":"CA","Zip":"94803"},{"Location":"EL CHALAN RESTAURANT","Address":"3748 San Pablo Dam Rd","City":"El Sobrante","State":"CA","Zip":"94803"},{"Location":"FALCON AMBULANCE","Address":"3508 San Pablo Dam Rd","City":"El Sobrante","State":"CA","Zip":"94803"},{"Location":"GREENRIDGE SENIOR CARE","Address":"2150 Pyramid Dr","City":"El Sobrante","State":"CA","Zip":"94803"},{"Location":"HS FISH AND CHIPS","Address":"3550 San Pablo Dam Rd B3","City":"El Sobrante","State":"CA","Zip":"94803"},{"Location":"MOUNTAIN MIKES PIZZA","Address":"3340 San Pablo Dam Rd L","City":"El Sobrante","State":"CA","Zip":"94803"},{"Location":"MY NAILS","Address":"3550 San Pablo Dam Rd M","City":"El Sobrante","State":"CA","Zip":"94803"},{"Location":"PRECISION JEWELERS","Address":"3550 San Pablo Dam Rd B4","City":"El Sobrante","State":"CA","Zip":"94803"},{"Location":"RANCHO%2FLIQUOR%2FSPORTS","Address":"3912 San Pablo Dam Rd","City":"El Sobrante","State":"CA","Zip":"94803"},{"Location":"S AND J TIRE","Address":"31 Pitt Way","City":"El Sobrante","State":"CA","Zip":"94803"},{"Location":"SAIGON NOODLE AND GRILL","Address":"5047 Appian Way","City":"El Sobrante","State":"CA","Zip":"94803"},{"Location":"SANTA SHOE REPAIR","Address":"3829 San Pablo Dam Rd","City":"El Sobrante","State":"CA","Zip":"94803"},{"Location":"STINKING ROSE","Address":"11 Gordon Ct","City":"El Sobrante","State":"CA","Zip":"94803"},{"Location":"THE NOODLE HOUSE","Address":"452 Appian Way A","City":"El Sobrante","State":"CA","Zip":"94803"},{"Location":"BBS LAUNDROMAT","Address":"3340 San Pablo Dam Rd C","City":"San Pablo","State":"CA","Zip":"94803"},{"Location":"DAVITA #5492 EL SOBRANTE","Address":"3380 San Pablo Dam Rd C","City":"San Pablo","State":"CA","Zip":"94803"}]