[{"Location":"BALTIC RESTAURANT","Address":"135 Park Pl","City":"Richmond","State":"CA","Zip":"94801"},{"Location":"BECK ELECTRIC","Address":"2775 Goodrick Ave","City":"Richmond","State":"CA","Zip":"94801"},{"Location":"BEIJING RESTAURANT","Address":"199 Park Pl","City":"Richmond","State":"CA","Zip":"94801"},{"Location":"BISSELL COTTAGES","Address":"195 22nd St D","City":"Richmond","State":"CA","Zip":"94801"},{"Location":"CALIFORNIA VOYAGER","Address":"841 Chevron Way","City":"Richmond","State":"CA","Zip":"94801"},{"Location":"CAZADORES MARKET","Address":"1076 13th St","City":"Richmond","State":"CA","Zip":"94801"},{"Location":"CHEVRON","Address":"841 Chevron Way","City":"Richmond","State":"CA","Zip":"94801"},{"Location":"CHEVRON #1","Address":"841 Chevron Way","City":"Richmond","State":"CA","Zip":"94801"},{"Location":"CHEVRON #2","Address":"841 Chevron Way","City":"Richmond","State":"CA","Zip":"94801"},{"Location":"CHEVRON - CVN 000003","Address":"841 Chevron Way 427","City":"Richmond","State":"CA","Zip":"94801"},{"Location":"CLEAN XPRESS COIN LAUNDRY","Address":"1100 Macdonald Ave","City":"Richmond","State":"CA","Zip":"94801"},{"Location":"CONTRACOST C HOMELESS","Address":"847 Brookside Dr C","City":"Richmond","State":"CA","Zip":"94801"},{"Location":"ELITE BARBER SHOP","Address":"1723 Barrett Ave","City":"Richmond","State":"CA","Zip":"94801"},{"Location":"GW TRUCKING INC","Address":"525 De Carlo Ave","City":"Richmond","State":"CA","Zip":"94801"},{"Location":"HEALTH QUEST FITNESS","Address":"841 Chevron Way","City":"Richmond","State":"CA","Zip":"94801"},{"Location":"LAST SPOT LOUNGE","Address":"1 Tewksbury Ave","City":"Richmond","State":"CA","Zip":"94801"},{"Location":"OLIVERS TOW","Address":"2800 Radiant Ave","City":"Richmond","State":"CA","Zip":"94801"},{"Location":"PELUQUERIA LUPITA RICHMO","Address":"1012 13th St","City":"Richmond","State":"CA","Zip":"94801"},{"Location":"RICHMOND ROD AND GUN CLUB","Address":"3155 Goodrick Ave","City":"Richmond","State":"CA","Zip":"94801"},{"Location":"SOCIAL SECURITY ADM","Address":"1221 Nevin Ave","City":"Richmond","State":"CA","Zip":"94801"},{"Location":"UP AND UNDER","Address":"2 W Richmond Ave","City":"Richmond","State":"CA","Zip":"94801"},{"Location":"VICKY'S BEAUTY SALON","Address":"1070 13th St","City":"Richmond","State":"CA","Zip":"94801"},{"Location":"BALTIC RESTAURANT","Address":"135 Park Pl","City":"Richmond","State":"CA","Zip":"94801"},{"Location":"BECK ELECTRIC","Address":"2775 Goodrick Ave","City":"Richmond","State":"CA","Zip":"94801"},{"Location":"BEIJING RESTAURANT","Address":"199 Park Pl","City":"Richmond","State":"CA","Zip":"94801"},{"Location":"BISSELL COTTAGES","Address":"195 22nd St D","City":"Richmond","State":"CA","Zip":"94801"},{"Location":"CALIFORNIA VOYAGER","Address":"841 Chevron Way","City":"Richmond","State":"CA","Zip":"94801"},{"Location":"CAZADORES MARKET","Address":"1076 13th St","City":"Richmond","State":"CA","Zip":"94801"},{"Location":"CHEVRON","Address":"841 Chevron Way","City":"Richmond","State":"CA","Zip":"94801"},{"Location":"CHEVRON #1","Address":"841 Chevron Way","City":"Richmond","State":"CA","Zip":"94801"},{"Location":"CHEVRON #2","Address":"841 Chevron Way","City":"Richmond","State":"CA","Zip":"94801"},{"Location":"CHEVRON - CVN 000003","Address":"841 Chevron Way 427","City":"Richmond","State":"CA","Zip":"94801"},{"Location":"CLEAN XPRESS COIN LAUNDRY","Address":"1100 Macdonald Ave","City":"Richmond","State":"CA","Zip":"94801"},{"Location":"CONTRACOST C HOMELESS","Address":"847 Brookside Dr C","City":"Richmond","State":"CA","Zip":"94801"},{"Location":"ELITE BARBER SHOP","Address":"1723 Barrett Ave","City":"Richmond","State":"CA","Zip":"94801"},{"Location":"GW TRUCKING INC","Address":"525 De Carlo Ave","City":"Richmond","State":"CA","Zip":"94801"},{"Location":"HEALTH QUEST FITNESS","Address":"841 Chevron Way","City":"Richmond","State":"CA","Zip":"94801"},{"Location":"LAST SPOT LOUNGE","Address":"1 Tewksbury Ave","City":"Richmond","State":"CA","Zip":"94801"},{"Location":"OLIVERS TOW","Address":"2800 Radiant Ave","City":"Richmond","State":"CA","Zip":"94801"},{"Location":"PELUQUERIA LUPITA RICHMO","Address":"1012 13th St","City":"Richmond","State":"CA","Zip":"94801"},{"Location":"RICHMOND ROD AND GUN CLUB","Address":"3155 Goodrick Ave","City":"Richmond","State":"CA","Zip":"94801"},{"Location":"SOCIAL SECURITY ADM","Address":"1221 Nevin Ave","City":"Richmond","State":"CA","Zip":"94801"},{"Location":"UP AND UNDER","Address":"2 W Richmond Ave","City":"Richmond","State":"CA","Zip":"94801"},{"Location":"VICKY'S BEAUTY SALON","Address":"1070 13th St","City":"Richmond","State":"CA","Zip":"94801"}]