[{"Location":"24 HOUR FITNESS #494","Address":"2126 Hilltop Mall Rd","City":"Richmond","State":"CA","Zip":"94806"},{"Location":"BAYSINE SURGERY CENTER","Address":"3065 Richmond Pkwy 100","City":"Richmond","State":"CA","Zip":"94806"},{"Location":"BRAZILIAN CHURCH","Address":"3065 Richmond Pkwy 117","City":"Richmond","State":"CA","Zip":"94806"},{"Location":"CHEVY'S 2021","Address":"3101 Garrity Way","City":"Richmond","State":"CA","Zip":"94806"},{"Location":"CISNERO WIRELESS","Address":"1732 Rumrill Blvd","City":"Richmond","State":"CA","Zip":"94806"},{"Location":"COURTYARD BY MARRIOTT RI","Address":"3150 Garrity Way","City":"Richmond","State":"CA","Zip":"94806"},{"Location":"FIRESTONE #029904","Address":"1001 Hilltop Mall Rd","City":"Richmond","State":"CA","Zip":"94806"},{"Location":"LEES GARDEN BUFFET","Address":"2960 Hilltop Mall Rd","City":"Richmond","State":"CA","Zip":"94806"},{"Location":"LOAANS  BEAUTY AND SPA","Address":"2449 Hilltop Mall Rd","City":"Richmond","State":"CA","Zip":"94806"},{"Location":"MACY'S WEST 329","Address":"1400 Hilltop Mall Rd","City":"Richmond","State":"CA","Zip":"94806"},{"Location":"WHOLE FOODS MARKET","Address":"6035 Giant Rd","City":"Richmond","State":"CA","Zip":"94806"},{"Location":"CONCENTRA URGENT CARE","Address":"2970 Hilltop Mall Rd","City":"San Pablo","State":"CA","Zip":"94806"},{"Location":"DAVITA #3840 SAN PABLO","Address":"14020 San Pablo Ave","City":"San Pablo","State":"CA","Zip":"94806"},{"Location":"DENNYS","Address":"2526 San Pablo Dam Rd","City":"San Pablo","State":"CA","Zip":"94806"},{"Location":"EL TAZUMAL RESTAURANT","Address":"14621 San Pablo Ave","City":"San Pablo","State":"CA","Zip":"94806"},{"Location":"FALCON SPIRITS LLC","Address":"3701 Collins Ave 8b","City":"San Pablo","State":"CA","Zip":"94806"},{"Location":"HANLEES HILLTOP NISSAN","Address":"3277 Auto Plz","City":"San Pablo","State":"CA","Zip":"94806"},{"Location":"HILLTOP BUICK PONTIAC GMC","Address":"3230 Auto Plz","City":"San Pablo","State":"CA","Zip":"94806"},{"Location":"HOAI HOUNG VIETNAMESE CAFE","Address":"14409 San Pablo Ave","City":"San Pablo","State":"CA","Zip":"94806"},{"Location":"JOVANCE BEAUTY AND WELLNESS","Address":"4200 Klose Way B","City":"San Pablo","State":"CA","Zip":"94806"},{"Location":"LA MOVIDA","Address":"14273 San Pablo Ave","City":"San Pablo","State":"CA","Zip":"94806"},{"Location":"LA REVOLUCIONS","Address":"3190 Klose Way","City":"San Pablo","State":"CA","Zip":"94806"},{"Location":"LOMA 11","Address":"1313 Road 20","City":"San Pablo","State":"CA","Zip":"94806"},{"Location":"LYNTTON CASINO SAN PABLO","Address":"13255 San Pablo Ave","City":"San Pablo","State":"CA","Zip":"94806"},{"Location":"MACY'S WEST 329 BR","Address":"1400 Hilltop Mall Rd","City":"San Pablo","State":"CA","Zip":"94806"},{"Location":"MARISCOSLATLAYITA","Address":"2031 23rd St","City":"San Pablo","State":"CA","Zip":"94806"},{"Location":"MARKS BARBER SHOP","Address":"1204 Hill Top Road","City":"San Pablo","State":"CA","Zip":"94806"},{"Location":"NOYA RESTAURANT AND LOUNGE","Address":"14350 Laurie Ln A","City":"San Pablo","State":"CA","Zip":"94806"},{"Location":"RICHMOND COUNTRY CLUB","Address":"1 Markovich Ln","City":"San Pablo","State":"CA","Zip":"94806"},{"Location":"SAN PABLO COIN OP","Address":"205 San Pablo Towne Ctr","City":"San Pablo","State":"CA","Zip":"94806"},{"Location":"SAN PABLOS BILLIARDS","Address":"1500 23rd St","City":"San Pablo","State":"CA","Zip":"94806"},{"Location":"SUSY  BAKERY","Address":"14520 San Pablo Ave","City":"San Pablo","State":"CA","Zip":"94806"}]