[{"Location":"ALADDIN BB DEPT 767","Address":"4290 Redwood Hwy","City":"San Rafael","State":"CA","Zip":"94903"},{"Location":"APPLEBEE'S #2140013","Address":"5800 Northgate Dr 8","City":"San Rafael","State":"CA","Zip":"94903"},{"Location":"AUTODESK","Address":"1 Mcinnis Pkwy","City":"San Rafael","State":"CA","Zip":"94903"},{"Location":"BJS RESTAURANT #495","Address":"5800 Northgate Mall 159","City":"San Rafael","State":"CA","Zip":"94903"},{"Location":"CHRISTOPHER WILSON","Address":"4280 Redwood Hwy 6","City":"San Rafael","State":"CA","Zip":"94903"},{"Location":"DAVID COSTUROS","Address":"31 Joseph Ct","City":"San Rafael","State":"CA","Zip":"94903"},{"Location":"DAVITA #2296 NORTHGATE","Address":"650 Las Gallinas Ave","City":"San Rafael","State":"CA","Zip":"94903"},{"Location":"ELDONS FIVE STAR TRANSPORT","Address":"400 Smith Ranch Rd H101","City":"San Rafael","State":"CA","Zip":"94903"},{"Location":"EMBASSY SUITES (0010221)","Address":"101 Mcinnis Pkwy","City":"San Rafael","State":"CA","Zip":"94903"},{"Location":"ENTERPRISE EVENT GROUP INC.","Address":"950 Northgate Dr 100","City":"San Rafael","State":"CA","Zip":"94903"},{"Location":"F I C O","Address":"200 Smith Ranch Rd","City":"San Rafael","State":"CA","Zip":"94903"},{"Location":"FICO 2","Address":"200 Smith Ranch Rd","City":"San Rafael","State":"CA","Zip":"94903"},{"Location":"FOUR POINTS","Address":"1010 Northgate Dr","City":"San Rafael","State":"CA","Zip":"94903"},{"Location":"GLEN HUBBARD INC","Address":"76 San Pablo Ave","City":"San Rafael","State":"CA","Zip":"94903"},{"Location":"HQ GLOBAL WORKPLACES","Address":"4040 Civic Center Dr 200","City":"San Rafael","State":"CA","Zip":"94903"},{"Location":"INDIGO FILMS","Address":"155 N Redwood Dr","City":"San Rafael","State":"CA","Zip":"94903"},{"Location":"KERNS& WALKER CLEANER","Address":"412 Las Gallinas Ave","City":"San Rafael","State":"CA","Zip":"94903"},{"Location":"KOHL'S #1379","Address":"5010 Northgate Dr","City":"San Rafael","State":"CA","Zip":"94903"},{"Location":"KUVARA LAW FIRM","Address":"550 Las Gallinas Ave","City":"San Rafael","State":"CA","Zip":"94903"},{"Location":"MACY'S WEST 327","Address":"1000 Northgate Dr","City":"San Rafael","State":"CA","Zip":"94903"},{"Location":"MACY'S WEST 327 BR","Address":"1000 Northgate Mall","City":"San Rafael","State":"CA","Zip":"94903"},{"Location":"MARIN COUNTY JUVENILE","Address":"16 Jeannette Prandi Way","City":"San Rafael","State":"CA","Zip":"94903"},{"Location":"MARIN COUNTY SHERIFF'S OFFICE","Address":"3501 Civic Center Dr 145","City":"San Rafael","State":"CA","Zip":"94903"},{"Location":"MARIN INDEPENDENT JOURNAL","Address":"4000 Civic Center Dr 301","City":"San Rafael","State":"CA","Zip":"94903"},{"Location":"MARIN YMCA","Address":"1500 Los Gamos Dr","City":"San Rafael","State":"CA","Zip":"94903"},{"Location":"MCINNIS PARK GOLF CENTER","Address":"350 Smith Ranch Rd","City":"San Rafael","State":"CA","Zip":"94903"},{"Location":"OSHER MARIN JEWISH COMM #1","Address":"200 N San Pedro Rd","City":"San Rafael","State":"CA","Zip":"94903"},{"Location":"OSHER MARIN JEWISH COMM #2","Address":"200 N San Pedro Rd","City":"San Rafael","State":"CA","Zip":"94903"},{"Location":"PAUL FINANCIAL LLC","Address":"1401 Los Gamos Dr","City":"San Rafael","State":"CA","Zip":"94903"},{"Location":"PILGRIM PARK INC","Address":"33 Merrydale Rd","City":"San Rafael","State":"CA","Zip":"94903"},{"Location":"PINGS CHINESE RESTAURANT","Address":"248 Northgate One","City":"San Rafael","State":"CA","Zip":"94903"},{"Location":"ROADSIDE BBQ","Address":"5000 Northgate Mall","City":"San Rafael","State":"CA","Zip":"94903"},{"Location":"SAN RAFAEL GYMNASTICS","Address":"129 Carlos Dr","City":"San Rafael","State":"CA","Zip":"94903"},{"Location":"SCOTTYS MARKET","Address":"620 Freitas Pkwy","City":"San Rafael","State":"CA","Zip":"94903"},{"Location":"SEARS","Address":"9000 Northgate Dr","City":"San Rafael","State":"CA","Zip":"94903"},{"Location":"SEARS AUTO CENTER","Address":"9000 Northgate Dr","City":"San Rafael","State":"CA","Zip":"94903"},{"Location":"TOMA TINA","Address":"5800 Northgate Dr","City":"San Rafael","State":"CA","Zip":"94903"},{"Location":"TONSOR LLC 2","Address":"5800 Northgate Mall 134","City":"San Rafael","State":"CA","Zip":"94903"}]