[{"Location":"BANYAN SECURITIES CO","Address":"100 Drakes Landing Rd 125","City":"Greenbrae","State":"CA","Zip":"94904"},{"Location":"BAY CLUB ROSS VALLEY TENNIS","Address":"235 Bon Air Rd","City":"Greenbrae","State":"CA","Zip":"94904"},{"Location":"FIFI'S  DINER","Address":"284 Bon Air Shopping Ctr","City":"Greenbrae","State":"CA","Zip":"94904"},{"Location":"MARIN GENERAL HOSPITAL","Address":"250 Bon Air Rd","City":"Greenbrae","State":"CA","Zip":"94904"},{"Location":"MEDICAL ST MGH","Address":"250 Bon Air Rd","City":"Greenbrae","State":"CA","Zip":"94904"},{"Location":"MEN'S WEARHOUSE #2158","Address":"2048 Redwood Hwy","City":"Greenbrae","State":"CA","Zip":"94904"},{"Location":"SHANE AND TAITZ","Address":"1000 Drakes Landing Rd 200","City":"Greenbrae","State":"CA","Zip":"94904"},{"Location":"THE RANCH","Address":"275 Bon Air Ctr","City":"Greenbrae","State":"CA","Zip":"94904"},{"Location":"BANYAN SECURITIES CO","Address":"100 Drakes Landing Rd 125","City":"Greenbrae","State":"CA","Zip":"94904"},{"Location":"BAY CLUB ROSS VALLEY TENNIS","Address":"235 Bon Air Rd","City":"Greenbrae","State":"CA","Zip":"94904"},{"Location":"FIFI'S  DINER","Address":"284 Bon Air Shopping Ctr","City":"Greenbrae","State":"CA","Zip":"94904"},{"Location":"MARIN GENERAL HOSPITAL","Address":"250 Bon Air Rd","City":"Greenbrae","State":"CA","Zip":"94904"},{"Location":"MEDICAL ST MGH","Address":"250 Bon Air Rd","City":"Greenbrae","State":"CA","Zip":"94904"},{"Location":"MEN'S WEARHOUSE #2158","Address":"2048 Redwood Hwy","City":"Greenbrae","State":"CA","Zip":"94904"},{"Location":"SHANE AND TAITZ","Address":"1000 Drakes Landing Rd 200","City":"Greenbrae","State":"CA","Zip":"94904"},{"Location":"THE RANCH","Address":"275 Bon Air Ctr","City":"Greenbrae","State":"CA","Zip":"94904"}]