[{"Location":"ANGOTTI HEALTHCARE SYSTEMS INC","Address":"1418 Lincoln Ave","City":"San Rafael","State":"CA","Zip":"94901"},{"Location":"AUDIO VISUAL DESIGN GROUP","Address":"2143 Francisco Blvd E","City":"San Rafael","State":"CA","Zip":"94901"},{"Location":"BANGKOK THAI EXPRESS RES","Address":"857 4th St","City":"San Rafael","State":"CA","Zip":"94901"},{"Location":"BECKSTOM AUTOMOTIVE","Address":"55 Lovell Ave","City":"San Rafael","State":"CA","Zip":"94901"},{"Location":"BEST BURGER","Address":"323 3rd St","City":"San Rafael","State":"CA","Zip":"94901"},{"Location":"BEST LIL PORKHOUSE","Address":"2042 4th St B","City":"San Rafael","State":"CA","Zip":"94901"},{"Location":"BODY KINETICS","Address":"1001 4th St","City":"San Rafael","State":"CA","Zip":"94901"},{"Location":"BROKEN DRUM BREWERY","Address":"1132 4th St","City":"San Rafael","State":"CA","Zip":"94901"},{"Location":"CAFE VILLA","Address":"1602 Lincoln Ave","City":"San Rafael","State":"CA","Zip":"94901"},{"Location":"CAL MO INC","Address":"790 Anderen Dr","City":"San Rafael","State":"CA","Zip":"94901"},{"Location":"CALIFORNIA BANK & TRUST","Address":"1016 Irwin St","City":"San Rafael","State":"CA","Zip":"94901"},{"Location":"CELL MARK","Address":"22 Pelican Way","City":"San Rafael","State":"CA","Zip":"94901"},{"Location":"CENTRAL PAYMENT CORPS","Address":"2350 Kerner Blvd","City":"San Rafael","State":"CA","Zip":"94901"},{"Location":"CITY SAN RAFAEL","Address":"111 Morphew St","City":"San Rafael","State":"CA","Zip":"94901"},{"Location":"DELLA SALON","Address":"5 Vivian St","City":"San Rafael","State":"CA","Zip":"94901"},{"Location":"DUTRA GROUP","Address":"2350 Kerner Blvd","City":"San Rafael","State":"CA","Zip":"94901"},{"Location":"EL FAROLITO SAN RAFAEL","Address":"1017 4th St","City":"San Rafael","State":"CA","Zip":"94901"},{"Location":"EL LUCERITO RESTAURANT","Address":"767 Lincoln Ave 1","City":"San Rafael","State":"CA","Zip":"94901"},{"Location":"EXTREME PIZZA","Address":"703 4th St","City":"San Rafael","State":"CA","Zip":"94901"},{"Location":"FENIX ENTERTAINMENT GROUP 1","Address":"919 4th St","City":"San Rafael","State":"CA","Zip":"94901"},{"Location":"FIRST REPUBLIC BANK","Address":"1099 4th St","City":"San Rafael","State":"CA","Zip":"94901"},{"Location":"FUTURE PROSPECTS BASEBALL","Address":"502 Irwin St","City":"San Rafael","State":"CA","Zip":"94901"},{"Location":"GARRENS AUTO BODY","Address":"107 Jordan St","City":"San Rafael","State":"CA","Zip":"94901"},{"Location":"GEORGES NIGHT CLUB","Address":"842 4th St","City":"San Rafael","State":"CA","Zip":"94901"},{"Location":"GHILOTTI BROS INC","Address":"525 Jacoby St","City":"San Rafael","State":"CA","Zip":"94901"},{"Location":"HULEX CORP","Address":"3125 Kerner Blvd","City":"San Rafael","State":"CA","Zip":"94901"},{"Location":"II DAVIDE","Address":"901 A St A","City":"San Rafael","State":"CA","Zip":"94901"},{"Location":"KABABBQ","Address":"555 Francisco Blvd E 10","City":"San Rafael","State":"CA","Zip":"94901"},{"Location":"KCM INVESTMENT ADVISORS","Address":"750 Lindaro St 250","City":"San Rafael","State":"CA","Zip":"94901"},{"Location":"KTLN-TV68","Address":"100 Pelican Way E","City":"San Rafael","State":"CA","Zip":"94901"},{"Location":"LATIN FUSION","Address":"1444 4th St","City":"San Rafael","State":"CA","Zip":"94901"},{"Location":"LEXUS OF MARIN","Address":"513 Francisco Blvd E","City":"San Rafael","State":"CA","Zip":"94901"},{"Location":"LINE DRIVE BASEBALL LLC 2","Address":"3160 Kerner Blvd","City":"San Rafael","State":"CA","Zip":"94901"},{"Location":"LOCH LOMOND YACHT","Address":"95 Loch Lomond Dr","City":"San Rafael","State":"CA","Zip":"94901"},{"Location":"MARIN HONDA - SERVICE","Address":"100 Shoreline Pkwy","City":"San Rafael","State":"CA","Zip":"94901"},{"Location":"MARIN HONDA CORTE MADERA","Address":"2 Shoreline Pkwy","City":"San Rafael","State":"CA","Zip":"94901"},{"Location":"MARIN ROD GUN CLUB","Address":"2675 Francisco Bl East","City":"San Rafael","State":"CA","Zip":"94901"},{"Location":"MARY JEWERLY","Address":"1099 4th St B 1%2F2","City":"San Rafael","State":"CA","Zip":"94901"},{"Location":"MEDWAY SPA","Address":"26 Medway Rd 16","City":"San Rafael","State":"CA","Zip":"94901"},{"Location":"MELISSA BRADLEY REAL ESTATE","Address":"851 Irwin St 104","City":"San Rafael","State":"CA","Zip":"94901"},{"Location":"MI CASA CAFE","Address":"85 Woodland Ave","City":"San Rafael","State":"CA","Zip":"94901"},{"Location":"MTC","Address":"925 Belle Ave","City":"San Rafael","State":"CA","Zip":"94901"},{"Location":"NAPOLI ITALIAN RESTUARANT","Address":"869 4th St","City":"San Rafael","State":"CA","Zip":"94901"},{"Location":"NEILSEN MERKSAMER","Address":"2350 Kerner Blvd 250","City":"San Rafael","State":"CA","Zip":"94901"},{"Location":"NELSON VOGELHEIM AND PHI","Address":"1101 5th Ave 305","City":"San Rafael","State":"CA","Zip":"94901"},{"Location":"NORTHERN CALIFORNIA","Address":"533 Irwin St","City":"San Rafael","State":"CA","Zip":"94901"},{"Location":"ORIGINAL BUFFALO WINGS CO","Address":"1119 4th St","City":"San Rafael","State":"CA","Zip":"94901"},{"Location":"P&L VACCUM","Address":"909 D St","City":"San Rafael","State":"CA","Zip":"94901"},{"Location":"PACIFIC GAS AND ELECTRIC","Address":"1220 Andersen Dr","City":"San Rafael","State":"CA","Zip":"94901"},{"Location":"PETE'S 881","Address":"721 Lincoln Ave","City":"San Rafael","State":"CA","Zip":"94901"},{"Location":"PHO VIET HARBOR","Address":"555 Francisco Blvd E 22","City":"San Rafael","State":"CA","Zip":"94901"},{"Location":"PIER 15","Address":"15 Harbor St","City":"San Rafael","State":"CA","Zip":"94901"},{"Location":"PINGS MANDARIN RESTAURANT","Address":"817 Francisco Blvd W","City":"San Rafael","State":"CA","Zip":"94901"},{"Location":"PINT SIZE LOUNGE","Address":"1615 4th St","City":"San Rafael","State":"CA","Zip":"94901"},{"Location":"PIZZA ORGASMICA - MO","Address":"812 4th St","City":"San Rafael","State":"CA","Zip":"94901"},{"Location":"PUENTEZ TAQUERIA","Address":"243 3rd St","City":"San Rafael","State":"CA","Zip":"94901"},{"Location":"PW MARKETING INC","Address":"1942 4th St","City":"San Rafael","State":"CA","Zip":"94901"},{"Location":"RAB MOTORS","Address":"540 Francisco Blvd W","City":"San Rafael","State":"CA","Zip":"94901"},{"Location":"RESTAURANT EL SALVADOR","Address":"175 Belvedere St 11","City":"San Rafael","State":"CA","Zip":"94901"},{"Location":"ROYAL COACH CARWASH","Address":"990 Francisco Blvd E","City":"San Rafael","State":"CA","Zip":"94901"},{"Location":"RUBENSTEIN SUPPLY COMPAN","Address":"96 Woodland Ave","City":"San Rafael","State":"CA","Zip":"94901"},{"Location":"SAN RAFAEL HEALTHCARE","Address":"1601 5th Ave","City":"San Rafael","State":"CA","Zip":"94901"},{"Location":"SAN RAFAEL JOE'S","Address":"931 4th St","City":"San Rafael","State":"CA","Zip":"94901"},{"Location":"SAN RAFAEL POLICE DEPT","Address":"1400 5th Ave","City":"San Rafael","State":"CA","Zip":"94901"},{"Location":"SAN RAFAEL SELF STORAGE","Address":"675 Andersen Dr","City":"San Rafael","State":"CA","Zip":"94901"},{"Location":"SANOVAS INC 1","Address":"2597 Kerner Blvd","City":"San Rafael","State":"CA","Zip":"94901"},{"Location":"SCOTTRADE A04","Address":"777 Grand Ave 101","City":"San Rafael","State":"CA","Zip":"94901"},{"Location":"SECOND ST BRUSHLESS CARWASH","Address":"1515 2nd St","City":"San Rafael","State":"CA","Zip":"94901"},{"Location":"SERENTA","Address":"3060 Kerner Blvd C","City":"San Rafael","State":"CA","Zip":"94901"},{"Location":"SMITH BARNEY 100528","Address":"750 Lindaro St 300","City":"San Rafael","State":"CA","Zip":"94901"},{"Location":"SOLAR CITY","Address":"117 Rafael Dr","City":"San Rafael","State":"CA","Zip":"94901"},{"Location":"SONNEN MOTOR CARS LLC","Address":"740 Francisco Blvd W","City":"San Rafael","State":"CA","Zip":"94901"},{"Location":"STANDARDS OF EXCELLENCE","Address":"530 Francisco Blvd W","City":"San Rafael","State":"CA","Zip":"94901"},{"Location":"STRIKE TWELVE","Address":"88 Vivian St","City":"San Rafael","State":"CA","Zip":"94901"},{"Location":"SUSHI TO DAI FOR","Address":"816 4th St","City":"San Rafael","State":"CA","Zip":"94901"},{"Location":"SYUFY ENTERPRISES","Address":"150 Pelican Way","City":"San Rafael","State":"CA","Zip":"94901"},{"Location":"TABU HAIR SALON","Address":"555 Francisco Blvd E 11","City":"San Rafael","State":"CA","Zip":"94901"},{"Location":"TAQUERIA BAHIA","Address":"1013 B St","City":"San Rafael","State":"CA","Zip":"94901"},{"Location":"TAQUERIA LAHERRADURA","Address":"2224 4th St","City":"San Rafael","State":"CA","Zip":"94901"},{"Location":"TARGET","Address":"125 Shoreline Pkwy","City":"San Rafael","State":"CA","Zip":"94901"},{"Location":"TESLA SERVICE","Address":"470 Du Bois St","City":"San Rafael","State":"CA","Zip":"94901"},{"Location":"THE BIG PICTURE","Address":"1099 D St","City":"San Rafael","State":"CA","Zip":"94901"},{"Location":"THE DUTRA GROUP","Address":"2350 Kerner Blvd 200","City":"San Rafael","State":"CA","Zip":"94901"},{"Location":"THE FLATIRON","Address":"724 B St","City":"San Rafael","State":"CA","Zip":"94901"},{"Location":"THE GOLF MART TWO","Address":"530 Francisco Blvd W A","City":"San Rafael","State":"CA","Zip":"94901"},{"Location":"THE MAYFLOWER INN","Address":"1533 4th St","City":"San Rafael","State":"CA","Zip":"94901"},{"Location":"TOP CUT","Address":"147 3rd St","City":"San Rafael","State":"CA","Zip":"94901"},{"Location":"TRANS TEC SERVICES","Address":"1101 5th Ave 280","City":"San Rafael","State":"CA","Zip":"94901"},{"Location":"TREVORS PUN","Address":"927 Tamalpais Ave","City":"San Rafael","State":"CA","Zip":"94901"},{"Location":"WESLYN CORPORATION","Address":"700 Irwin St 300","City":"San Rafael","State":"CA","Zip":"94901"},{"Location":"WEST END CAFE DELI","Address":"1133 4th St","City":"San Rafael","State":"CA","Zip":"94901"},{"Location":"WHIPPER SNAPPER","Address":"16313 4th St","City":"San Rafael","State":"CA","Zip":"94901"},{"Location":"YET WAH","Address":"1238 4th St","City":"San Rafael","State":"CA","Zip":"94901"},{"Location":"YU SHANG MANDRIN CUISINE","Address":"180 Bellam Blvd","City":"San Rafael","State":"CA","Zip":"94901"},{"Location":"ANGOTTI HEALTHCARE SYSTEMS INC","Address":"1418 Lincoln Ave","City":"San Rafael","State":"CA","Zip":"94901"},{"Location":"AUDIO VISUAL DESIGN GROUP","Address":"2143 Francisco Blvd E","City":"San Rafael","State":"CA","Zip":"94901"},{"Location":"BANGKOK THAI EXPRESS RES","Address":"857 4th St","City":"San Rafael","State":"CA","Zip":"94901"},{"Location":"BECKSTOM AUTOMOTIVE","Address":"55 Lovell Ave","City":"San Rafael","State":"CA","Zip":"94901"},{"Location":"BEST BURGER","Address":"323 3rd St","City":"San Rafael","State":"CA","Zip":"94901"},{"Location":"BEST LIL PORKHOUSE","Address":"2042 4th St B","City":"San Rafael","State":"CA","Zip":"94901"},{"Location":"BODY KINETICS","Address":"1001 4th St","City":"San Rafael","State":"CA","Zip":"94901"},{"Location":"BROKEN DRUM BREWERY","Address":"1132 4th St","City":"San Rafael","State":"CA","Zip":"94901"},{"Location":"CAFE VILLA","Address":"1602 Lincoln Ave","City":"San Rafael","State":"CA","Zip":"94901"},{"Location":"CAL MO INC","Address":"790 Anderen Dr","City":"San Rafael","State":"CA","Zip":"94901"},{"Location":"CALIFORNIA BANK & TRUST","Address":"1016 Irwin St","City":"San Rafael","State":"CA","Zip":"94901"},{"Location":"CELL MARK","Address":"22 Pelican Way","City":"San Rafael","State":"CA","Zip":"94901"},{"Location":"CENTRAL PAYMENT CORPS","Address":"2350 Kerner Blvd","City":"San Rafael","State":"CA","Zip":"94901"},{"Location":"CITY SAN RAFAEL","Address":"111 Morphew St","City":"San Rafael","State":"CA","Zip":"94901"},{"Location":"DELLA SALON","Address":"5 Vivian St","City":"San Rafael","State":"CA","Zip":"94901"},{"Location":"DUTRA GROUP","Address":"2350 Kerner Blvd","City":"San Rafael","State":"CA","Zip":"94901"},{"Location":"EL FAROLITO SAN RAFAEL","Address":"1017 4th St","City":"San Rafael","State":"CA","Zip":"94901"},{"Location":"EL LUCERITO RESTAURANT","Address":"767 Lincoln Ave 1","City":"San Rafael","State":"CA","Zip":"94901"},{"Location":"EXTREME PIZZA","Address":"703 4th St","City":"San Rafael","State":"CA","Zip":"94901"},{"Location":"FENIX ENTERTAINMENT GROUP 1","Address":"919 4th St","City":"San Rafael","State":"CA","Zip":"94901"},{"Location":"FIRST REPUBLIC BANK","Address":"1099 4th St","City":"San Rafael","State":"CA","Zip":"94901"},{"Location":"FUTURE PROSPECTS BASEBALL","Address":"502 Irwin St","City":"San Rafael","State":"CA","Zip":"94901"},{"Location":"GARRENS AUTO BODY","Address":"107 Jordan St","City":"San Rafael","State":"CA","Zip":"94901"},{"Location":"GEORGES NIGHT CLUB","Address":"842 4th St","City":"San Rafael","State":"CA","Zip":"94901"},{"Location":"GHILOTTI BROS INC","Address":"525 Jacoby St","City":"San Rafael","State":"CA","Zip":"94901"},{"Location":"HULEX CORP","Address":"3125 Kerner Blvd","City":"San Rafael","State":"CA","Zip":"94901"},{"Location":"II DAVIDE","Address":"901 A St A","City":"San Rafael","State":"CA","Zip":"94901"},{"Location":"KABABBQ","Address":"555 Francisco Blvd E 10","City":"San Rafael","State":"CA","Zip":"94901"},{"Location":"KCM INVESTMENT ADVISORS","Address":"750 Lindaro St 250","City":"San Rafael","State":"CA","Zip":"94901"},{"Location":"KTLN-TV68","Address":"100 Pelican Way E","City":"San Rafael","State":"CA","Zip":"94901"},{"Location":"LATIN FUSION","Address":"1444 4th St","City":"San Rafael","State":"CA","Zip":"94901"},{"Location":"LEXUS OF MARIN","Address":"513 Francisco Blvd E","City":"San Rafael","State":"CA","Zip":"94901"},{"Location":"LINE DRIVE BASEBALL LLC 2","Address":"3160 Kerner Blvd","City":"San Rafael","State":"CA","Zip":"94901"},{"Location":"LOCH LOMOND YACHT","Address":"95 Loch Lomond Dr","City":"San Rafael","State":"CA","Zip":"94901"},{"Location":"MARIN HONDA - SERVICE","Address":"100 Shoreline Pkwy","City":"San Rafael","State":"CA","Zip":"94901"},{"Location":"MARIN HONDA CORTE MADERA","Address":"2 Shoreline Pkwy","City":"San Rafael","State":"CA","Zip":"94901"},{"Location":"MARIN ROD GUN CLUB","Address":"2675 Francisco Bl East","City":"San Rafael","State":"CA","Zip":"94901"},{"Location":"MARY JEWERLY","Address":"1099 4th St B 1%2F2","City":"San Rafael","State":"CA","Zip":"94901"},{"Location":"MEDWAY SPA","Address":"26 Medway Rd 16","City":"San Rafael","State":"CA","Zip":"94901"},{"Location":"MELISSA BRADLEY REAL ESTATE","Address":"851 Irwin St 104","City":"San Rafael","State":"CA","Zip":"94901"},{"Location":"MI CASA CAFE","Address":"85 Woodland Ave","City":"San Rafael","State":"CA","Zip":"94901"},{"Location":"MTC","Address":"925 Belle Ave","City":"San Rafael","State":"CA","Zip":"94901"},{"Location":"NAPOLI ITALIAN RESTUARANT","Address":"869 4th St","City":"San Rafael","State":"CA","Zip":"94901"},{"Location":"NEILSEN MERKSAMER","Address":"2350 Kerner Blvd 250","City":"San Rafael","State":"CA","Zip":"94901"},{"Location":"NELSON VOGELHEIM AND PHI","Address":"1101 5th Ave 305","City":"San Rafael","State":"CA","Zip":"94901"},{"Location":"NORTHERN CALIFORNIA","Address":"533 Irwin St","City":"San Rafael","State":"CA","Zip":"94901"},{"Location":"ORIGINAL BUFFALO WINGS CO","Address":"1119 4th St","City":"San Rafael","State":"CA","Zip":"94901"},{"Location":"P&L VACCUM","Address":"909 D St","City":"San Rafael","State":"CA","Zip":"94901"},{"Location":"PACIFIC GAS AND ELECTRIC","Address":"1220 Andersen Dr","City":"San Rafael","State":"CA","Zip":"94901"},{"Location":"PETE'S 881","Address":"721 Lincoln Ave","City":"San Rafael","State":"CA","Zip":"94901"},{"Location":"PHO VIET HARBOR","Address":"555 Francisco Blvd E 22","City":"San Rafael","State":"CA","Zip":"94901"},{"Location":"PIER 15","Address":"15 Harbor St","City":"San Rafael","State":"CA","Zip":"94901"},{"Location":"PINGS MANDARIN RESTAURANT","Address":"817 Francisco Blvd W","City":"San Rafael","State":"CA","Zip":"94901"},{"Location":"PINT SIZE LOUNGE","Address":"1615 4th St","City":"San Rafael","State":"CA","Zip":"94901"},{"Location":"PIZZA ORGASMICA - MO","Address":"812 4th St","City":"San Rafael","State":"CA","Zip":"94901"},{"Location":"PUENTEZ TAQUERIA","Address":"243 3rd St","City":"San Rafael","State":"CA","Zip":"94901"},{"Location":"PW MARKETING INC","Address":"1942 4th St","City":"San Rafael","State":"CA","Zip":"94901"},{"Location":"RAB MOTORS","Address":"540 Francisco Blvd W","City":"San Rafael","State":"CA","Zip":"94901"},{"Location":"RESTAURANT EL SALVADOR","Address":"175 Belvedere St 11","City":"San Rafael","State":"CA","Zip":"94901"},{"Location":"ROYAL COACH CARWASH","Address":"990 Francisco Blvd E","City":"San Rafael","State":"CA","Zip":"94901"},{"Location":"SAN RAFAEL HEALTHCARE","Address":"1601 5th Ave","City":"San Rafael","State":"CA","Zip":"94901"},{"Location":"SAN RAFAEL JOE'S","Address":"931 4th St","City":"San Rafael","State":"CA","Zip":"94901"},{"Location":"SAN RAFAEL POLICE DEPT","Address":"1400 5th Ave","City":"San Rafael","State":"CA","Zip":"94901"},{"Location":"SAN RAFAEL SELF STORAGE","Address":"675 Andersen Dr","City":"San Rafael","State":"CA","Zip":"94901"},{"Location":"SANOVAS INC 1","Address":"2597 Kerner Blvd","City":"San Rafael","State":"CA","Zip":"94901"},{"Location":"SCOTTRADE A04","Address":"777 Grand Ave 101","City":"San Rafael","State":"CA","Zip":"94901"},{"Location":"SECOND ST BRUSHLESS CARWASH","Address":"1515 2nd St","City":"San Rafael","State":"CA","Zip":"94901"},{"Location":"SERENTA","Address":"3060 Kerner Blvd C","City":"San Rafael","State":"CA","Zip":"94901"},{"Location":"SMITH BARNEY 100528","Address":"750 Lindaro St 300","City":"San Rafael","State":"CA","Zip":"94901"},{"Location":"SOLAR CITY","Address":"117 Rafael Dr","City":"San Rafael","State":"CA","Zip":"94901"},{"Location":"SONNEN MOTOR CARS LLC","Address":"740 Francisco Blvd W","City":"San Rafael","State":"CA","Zip":"94901"},{"Location":"STANDARDS OF EXCELLENCE","Address":"530 Francisco Blvd W","City":"San Rafael","State":"CA","Zip":"94901"},{"Location":"STRIKE TWELVE","Address":"88 Vivian St","City":"San Rafael","State":"CA","Zip":"94901"},{"Location":"SUSHI TO DAI FOR","Address":"816 4th St","City":"San Rafael","State":"CA","Zip":"94901"},{"Location":"SYUFY ENTERPRISES","Address":"150 Pelican Way","City":"San Rafael","State":"CA","Zip":"94901"},{"Location":"TABU HAIR SALON","Address":"555 Francisco Blvd E 11","City":"San Rafael","State":"CA","Zip":"94901"},{"Location":"TAQUERIA BAHIA","Address":"1013 B St","City":"San Rafael","State":"CA","Zip":"94901"},{"Location":"TAQUERIA LAHERRADURA","Address":"2224 4th St","City":"San Rafael","State":"CA","Zip":"94901"},{"Location":"TARGET","Address":"125 Shoreline Pkwy","City":"San Rafael","State":"CA","Zip":"94901"},{"Location":"TESLA SERVICE","Address":"470 Du Bois St","City":"San Rafael","State":"CA","Zip":"94901"},{"Location":"THE BIG PICTURE","Address":"1099 D St","City":"San Rafael","State":"CA","Zip":"94901"},{"Location":"THE DUTRA GROUP","Address":"2350 Kerner Blvd 200","City":"San Rafael","State":"CA","Zip":"94901"},{"Location":"THE FLATIRON","Address":"724 B St","City":"San Rafael","State":"CA","Zip":"94901"},{"Location":"THE GOLF MART TWO","Address":"530 Francisco Blvd W A","City":"San Rafael","State":"CA","Zip":"94901"},{"Location":"THE MAYFLOWER INN","Address":"1533 4th St","City":"San Rafael","State":"CA","Zip":"94901"},{"Location":"TOP CUT","Address":"147 3rd St","City":"San Rafael","State":"CA","Zip":"94901"},{"Location":"TRANS TEC SERVICES","Address":"1101 5th Ave 280","City":"San Rafael","State":"CA","Zip":"94901"},{"Location":"TREVORS PUN","Address":"927 Tamalpais Ave","City":"San Rafael","State":"CA","Zip":"94901"},{"Location":"WESLYN CORPORATION","Address":"700 Irwin St 300","City":"San Rafael","State":"CA","Zip":"94901"},{"Location":"WEST END CAFE DELI","Address":"1133 4th St","City":"San Rafael","State":"CA","Zip":"94901"},{"Location":"WHIPPER SNAPPER","Address":"16313 4th St","City":"San Rafael","State":"CA","Zip":"94901"},{"Location":"YET WAH","Address":"1238 4th St","City":"San Rafael","State":"CA","Zip":"94901"},{"Location":"YU SHANG MANDRIN CUISINE","Address":"180 Bellam Blvd","City":"San Rafael","State":"CA","Zip":"94901"}]