[{"Location":"FOX TAIL GOLF CLUB MAITNANCE","Address":"100 Golf Course Dr","City":"Cotati","State":"CA","Zip":"94928"},{"Location":"24 HOUR FITNESS #815","Address":"6305 Commerce Blvd","City":"Rohnert Park","State":"CA","Zip":"94928"},{"Location":"ADAMS AND ASSOCIATES","Address":"175 Cascade Ct","City":"Rohnert Park","State":"CA","Zip":"94928"},{"Location":"APPLEBEE'S #2140016","Address":"501 Rohnert Park Expy W","City":"Rohnert Park","State":"CA","Zip":"94928"},{"Location":"BEST WESTERN MANAGER","Address":"6500 Redwood Dr","City":"Rohnert Park","State":"CA","Zip":"94928"},{"Location":"BIOMARKER TECHNOLOGIES","Address":"638 Martin Ave","City":"Rohnert Park","State":"CA","Zip":"94928"},{"Location":"BLAKE'S AUTO BODY INC","Address":"5500 State Farm Dr","City":"Rohnert Park","State":"CA","Zip":"94928"},{"Location":"BOAT HOUSE SUSHI","Address":"6278 Redwood Dr","City":"Rohnert Park","State":"CA","Zip":"94928"},{"Location":"CAL SKATE OF ROHNERT PARK","Address":"6100 Commerce Blvd","City":"Rohnert Park","State":"CA","Zip":"94928"},{"Location":"CENTURY 21 CLASSIC PROPERTY","Address":"6601 Commerce Blvd","City":"Rohnert Park","State":"CA","Zip":"94928"},{"Location":"CHILI'S #0319","Address":"4851 Redwood Dr","City":"Rohnert Park","State":"CA","Zip":"94928"},{"Location":"CONCENTRA","Address":"6174 State Farm Dr","City":"Rohnert Park","State":"CA","Zip":"94928"},{"Location":"DEPARTMENTS OF VETERANS","Address":"6225 State Farm Dr 101","City":"Rohnert Park","State":"CA","Zip":"94928"},{"Location":"DON JULIOS RINCON LATIN GRILL","Address":"217 Southwest Blvd","City":"Rohnert Park","State":"CA","Zip":"94928"},{"Location":"DOUBLETREE HOTEL ROHNERT","Address":"1 Doubletree Dr","City":"Rohnert Park","State":"CA","Zip":"94928"},{"Location":"DOWNTOWN AUTOBODY","Address":"5850 Redwood Dr B","City":"Rohnert Park","State":"CA","Zip":"94928"},{"Location":"E-CIG 101","Address":"5665 Redwood Dr A","City":"Rohnert Park","State":"CA","Zip":"94928"},{"Location":"EL TORITO 7245","Address":"5090 Redwood Dr","City":"Rohnert Park","State":"CA","Zip":"94928"},{"Location":"EXTREME PIZZA-ROHNERT P","Address":"1728 E Cotati Ave","City":"Rohnert Park","State":"CA","Zip":"94928"},{"Location":"GONZALEZ","Address":"5979 Commerce Blvd 3","City":"Rohnert Park","State":"CA","Zip":"94928"},{"Location":"GRATON  RESORT & CASINO #1","Address":"630 Park Ct","City":"Rohnert Park","State":"CA","Zip":"94928"},{"Location":"GRATON RESORT & CASINO #2","Address":"630 Park Ct","City":"Rohnert Park","State":"CA","Zip":"94928"},{"Location":"HOOTERS OF ROHNERT PARK","Address":"6099 Redwood Dr","City":"Rohnert Park","State":"CA","Zip":"94928"},{"Location":"JIDAIYA SUCHI LLC","Address":"1475 Southwest Blvd 2b","City":"Rohnert Park","State":"CA","Zip":"94928"},{"Location":"KNI LLC","Address":"563 Rohnert Park Expy W A","City":"Rohnert Park","State":"CA","Zip":"94928"},{"Location":"MARY'S PIZZA SHACK","Address":"101 Golf Course Dr","City":"Rohnert Park","State":"CA","Zip":"94928"},{"Location":"MERRMACK ATM GROUP","Address":"5420 State Farm Dr","City":"Rohnert Park","State":"CA","Zip":"94928"},{"Location":"NAIL CARE","Address":"6585 Commerce Blvd A","City":"Rohnert Park","State":"CA","Zip":"94928"},{"Location":"OUTBACK STEAKHOUSE #0519","Address":"4619 Redwood Dr","City":"Rohnert Park","State":"CA","Zip":"94928"},{"Location":"PACIFIC DENTAL 407","Address":"6315 Commerce Blvd","City":"Rohnert Park","State":"CA","Zip":"94928"},{"Location":"PARADISE SUSHI","Address":"370 Rohnert Park Expy W","City":"Rohnert Park","State":"CA","Zip":"94928"},{"Location":"PLANET FITNESS","Address":"6599 Commerce Blvd","City":"Rohnert Park","State":"CA","Zip":"94928"},{"Location":"QUINCY'S PUB","Address":"6590 Commerce Blvd","City":"Rohnert Park","State":"CA","Zip":"94928"},{"Location":"QZAR LASER TAG","Address":"4 Padre Pkwy","City":"Rohnert Park","State":"CA","Zip":"94928"},{"Location":"RED LOBSTER #0609","Address":"6440 Redwood Dr","City":"Rohnert Park","State":"CA","Zip":"94928"},{"Location":"ROHNERT PARK FURNITURE","Address":"6001 Redwood Dr","City":"Rohnert Park","State":"CA","Zip":"94928"},{"Location":"ROHNERT PARK TRANSMISSION","Address":"305 Laguna Dr","City":"Rohnert Park","State":"CA","Zip":"94928"},{"Location":"ROUND TABLE PIZZA","Address":"6314 Commerce Blvd","City":"Rohnert Park","State":"CA","Zip":"94928"},{"Location":"SLEEP CITY","Address":"180 Professional Center Dr","City":"Rohnert Park","State":"CA","Zip":"94928"},{"Location":"SONOMA STATE ENTERPRISES","Address":"1801 E Cotati Ave","City":"Rohnert Park","State":"CA","Zip":"94928"},{"Location":"SONOMA STUDENT UNION REC CENTE","Address":"1801 E Cotati Ave","City":"Rohnert Park","State":"CA","Zip":"94928"},{"Location":"STRAW HAT PIZZA","Address":"919 Golf Course Dr","City":"Rohnert Park","State":"CA","Zip":"94928"},{"Location":"SWIRL TIME","Address":"1718 E Cotati Ave","City":"Rohnert Park","State":"CA","Zip":"94928"},{"Location":"TARGET","Address":"475 Rohnert Park Expy W","City":"Rohnert Park","State":"CA","Zip":"94928"},{"Location":"THE DAILY GRILL","Address":"630 Park Ct 4","City":"Rohnert Park","State":"CA","Zip":"94928"},{"Location":"TIRES PLUS #345908","Address":"6521 Redwood Dr","City":"Rohnert Park","State":"CA","Zip":"94928"},{"Location":"TONAYAN MEXICAN RESTAURA","Address":"500 Raleys Towne Ctr","City":"Rohnert Park","State":"CA","Zip":"94928"},{"Location":"TONYS OF NORTH BEACH LLC","Address":"603 Park Ct","City":"Rohnert Park","State":"CA","Zip":"94928"},{"Location":"TRACY NAILS","Address":"6590 Commerce Blvd C","City":"Rohnert Park","State":"CA","Zip":"94928"},{"Location":"WAYNE SUSHI BAR AND GRIL","Address":"6620 Commerce Blvd","City":"Rohnert Park","State":"CA","Zip":"94928"}]