[{"Location":"PAISANO BROS","Address":"1820 Westshore Rd","City":"Bodega","State":"CA","Zip":"94923"},{"Location":"BLUE WATER BESTRO","Address":"21301 Heron Drive","City":"Bodega Bay","State":"CA","Zip":"94923"},{"Location":"BODEGA BAY ASSOCIATES","Address":"103 Coast Highway 1","City":"Bodega Bay","State":"CA","Zip":"94923"},{"Location":"BODEGA HARBOUR HOMEOWNERS","Address":"21301 Heron Dr","City":"Bodega Bay","State":"CA","Zip":"94923"},{"Location":"BODEGA HARBOUR HOMEOWNERS2","Address":"21301 Heron Dr B","City":"Bodega Bay","State":"CA","Zip":"94923"},{"Location":"LUCAS WHARF","Address":"595 S Highway 1","City":"Bodega Bay","State":"CA","Zip":"94923"},{"Location":"SANDPIPER","Address":"1400 N Highway 1","City":"Bodega Bay","State":"CA","Zip":"94923"},{"Location":"US COAST GUARD","Address":"355 Doran Beach Rd","City":"Bodega Bay","State":"CA","Zip":"94923"},{"Location":"USCGC SOCKEYE","Address":"355 Doran Beach Rd","City":"Bodega Bay","State":"CA","Zip":"94923"},{"Location":"PAISANO BROS","Address":"1820 Westshore Rd","City":"Bodega","State":"CA","Zip":"94923"},{"Location":"BLUE WATER BESTRO","Address":"21301 Heron Drive","City":"Bodega Bay","State":"CA","Zip":"94923"},{"Location":"BODEGA BAY ASSOCIATES","Address":"103 Coast Highway 1","City":"Bodega Bay","State":"CA","Zip":"94923"},{"Location":"BODEGA HARBOUR HOMEOWNERS","Address":"21301 Heron Dr","City":"Bodega Bay","State":"CA","Zip":"94923"},{"Location":"BODEGA HARBOUR HOMEOWNERS2","Address":"21301 Heron Dr B","City":"Bodega Bay","State":"CA","Zip":"94923"},{"Location":"LUCAS WHARF","Address":"595 S Highway 1","City":"Bodega Bay","State":"CA","Zip":"94923"},{"Location":"SANDPIPER","Address":"1400 N Highway 1","City":"Bodega Bay","State":"CA","Zip":"94923"},{"Location":"US COAST GUARD","Address":"355 Doran Beach Rd","City":"Bodega Bay","State":"CA","Zip":"94923"},{"Location":"USCGC SOCKEYE","Address":"355 Doran Beach Rd","City":"Bodega Bay","State":"CA","Zip":"94923"}]