[{"Location":"ALAIN PINEL","Address":"101 Nellen Ave","City":"Corte Madera","State":"CA","Zip":"94925"},{"Location":"BENISSIMO","Address":"18 Tamalpais Dr","City":"Corte Madera","State":"CA","Zip":"94925"},{"Location":"BEST LITTLE PORK HOUSE","Address":"66 Madera Blvd","City":"Corte Madera","State":"CA","Zip":"94925"},{"Location":"BOCA PIZZERIA","Address":"1544 Redwood Hwy","City":"Corte Madera","State":"CA","Zip":"94925"},{"Location":"BODY BY X","Address":"5768 Paradise Dr J","City":"Corte Madera","State":"CA","Zip":"94925"},{"Location":"BRICK AND BOTTLES","Address":"55 Tamal Vista Blvd","City":"Corte Madera","State":"CA","Zip":"94925"},{"Location":"CAFE VERDE","Address":"502 Tamalpais Dr","City":"Corte Madera","State":"CA","Zip":"94925"},{"Location":"CALIFORNIA PIZZA KITCHEN #151","Address":"347 Corte Madera Town Ctr","City":"Corte Madera","State":"CA","Zip":"94925"},{"Location":"CARS DAWYDIAK","Address":"5830 Paradise Dr","City":"Corte Madera","State":"CA","Zip":"94925"},{"Location":"CB FRANCHISE","Address":"201 Corte Madera Ave","City":"Corte Madera","State":"CA","Zip":"94925"},{"Location":"CHAMPAGNE FITNESS","Address":"518 Tamalpais Dr C","City":"Corte Madera","State":"CA","Zip":"94925"},{"Location":"IL FORNAIO CORTE MADERA","Address":"223 Corte Madera Town Ctr","City":"Corte Madera","State":"CA","Zip":"94925"},{"Location":"MACY'S WEST 328","Address":"1400 Redwood Hwy","City":"Corte Madera","State":"CA","Zip":"94925"},{"Location":"MACY'S WEST 328 BR","Address":"1400 Redwood Hwy","City":"Corte Madera","State":"CA","Zip":"94925"},{"Location":"MARIN ACURA","Address":"5860 Paradise Dr","City":"Corte Madera","State":"CA","Zip":"94925"},{"Location":"MARIN CHP","Address":"53 San Clemente Dr","City":"Corte Madera","State":"CA","Zip":"94925"},{"Location":"MICROSOFT - CORTE MADERA","Address":"1640 Redwood Hwy D001","City":"Corte Madera","State":"CA","Zip":"94925"},{"Location":"MINI OF MARIN","Address":"5880 Paradise Dr","City":"Corte Madera","State":"CA","Zip":"94925"},{"Location":"MMWD","Address":"220 Pamal Vista Blvd","City":"Corte Madera","State":"CA","Zip":"94925"},{"Location":"NORDSTROM CORTE MADERA","Address":"1870 Redwood Hwy","City":"Corte Madera","State":"CA","Zip":"94925"},{"Location":"PF CHANG'S #9836","Address":"301 Corte Madera Town Ctr","City":"Corte Madera","State":"CA","Zip":"94925"},{"Location":"SPORTS AUTHORITY 054","Address":"435 Corte Madera Town Ctr","City":"Corte Madera","State":"CA","Zip":"94925"},{"Location":"TD AMERITRADE #05055","Address":"50 Madera Blvd","City":"Corte Madera","State":"CA","Zip":"94925"},{"Location":"THE CHEESECAKE FACTORY 0084","Address":"1736 Redwood Hwy","City":"Corte Madera","State":"CA","Zip":"94925"}]