[{"Location":"24 HOUR FITNESS #508","Address":"1001 Larkspur Landing Cir","City":"Larkspur","State":"CA","Zip":"94939"},{"Location":"ASHER CLINIC","Address":"2801 Larkspur Landing Cir 200","City":"Larkspur","State":"CA","Zip":"94939"},{"Location":"CHEESE STEAK","Address":"596 Magnolia Ave","City":"Larkspur","State":"CA","Zip":"94939"},{"Location":"COURTYARD BY MARRIOTT","Address":"2500 Larkspur Landing Cir","City":"Larkspur","State":"CA","Zip":"94939"},{"Location":"DOUGLAS TELECOMMUNICATIONS","Address":"125 E Sir Francis Drake Blvd 400","City":"Larkspur","State":"CA","Zip":"94939"},{"Location":"FARMSHOP LLC","Address":"2233 Larkspur Landing Cir","City":"Larkspur","State":"CA","Zip":"94939"},{"Location":"FIDELITY INVESTMENTS 306","Address":"601 Larkspur Landing Cir","City":"Larkspur","State":"CA","Zip":"94939"},{"Location":"GOLDEN GATE FERRY","Address":"101 E Sir Francis Drake Blvd","City":"Larkspur","State":"CA","Zip":"94939"},{"Location":"IPRINT TECHNOLOGIES","Address":"980 Magnolia Ave","City":"Larkspur","State":"CA","Zip":"94939"},{"Location":"MT TAM RACQUET CLUB","Address":"1 Larkspur Plaza Dr","City":"Larkspur","State":"CA","Zip":"94939"},{"Location":"PRIVATE WEALTH PARTNERS LLC","Address":"80 E Sir Francis Drake Blvd 4","City":"Larkspur","State":"CA","Zip":"94939"},{"Location":"SILVER PESO BAR","Address":"450 Magnolia Ave","City":"Larkspur","State":"CA","Zip":"94939"},{"Location":"STEPHENS CAPITAL MGMT.","Address":"80 E Sir Francis Drake Blvd","City":"Larkspur","State":"CA","Zip":"94939"},{"Location":"24 HOUR FITNESS #508","Address":"1001 Larkspur Landing Cir","City":"Larkspur","State":"CA","Zip":"94939"},{"Location":"ASHER CLINIC","Address":"2801 Larkspur Landing Cir 200","City":"Larkspur","State":"CA","Zip":"94939"},{"Location":"CHEESE STEAK","Address":"596 Magnolia Ave","City":"Larkspur","State":"CA","Zip":"94939"},{"Location":"COURTYARD BY MARRIOTT","Address":"2500 Larkspur Landing Cir","City":"Larkspur","State":"CA","Zip":"94939"},{"Location":"DOUGLAS TELECOMMUNICATIONS","Address":"125 E Sir Francis Drake Blvd 400","City":"Larkspur","State":"CA","Zip":"94939"},{"Location":"FARMSHOP LLC","Address":"2233 Larkspur Landing Cir","City":"Larkspur","State":"CA","Zip":"94939"},{"Location":"FIDELITY INVESTMENTS 306","Address":"601 Larkspur Landing Cir","City":"Larkspur","State":"CA","Zip":"94939"},{"Location":"GOLDEN GATE FERRY","Address":"101 E Sir Francis Drake Blvd","City":"Larkspur","State":"CA","Zip":"94939"},{"Location":"IPRINT TECHNOLOGIES","Address":"980 Magnolia Ave","City":"Larkspur","State":"CA","Zip":"94939"},{"Location":"MT TAM RACQUET CLUB","Address":"1 Larkspur Plaza Dr","City":"Larkspur","State":"CA","Zip":"94939"},{"Location":"PRIVATE WEALTH PARTNERS LLC","Address":"80 E Sir Francis Drake Blvd 4","City":"Larkspur","State":"CA","Zip":"94939"},{"Location":"SILVER PESO BAR","Address":"450 Magnolia Ave","City":"Larkspur","State":"CA","Zip":"94939"},{"Location":"STEPHENS CAPITAL MGMT.","Address":"80 E Sir Francis Drake Blvd","City":"Larkspur","State":"CA","Zip":"94939"}]