[{"Location":"8 BALL","Address":"8 Charles St","City":"Cotati","State":"CA","Zip":"94931"},{"Location":"CAPE COD FISH N CHIPS","Address":"7530 Commerce Blvd C","City":"Cotati","State":"CA","Zip":"94931"},{"Location":"DOS AMIGOS","Address":"8197 La Plz","City":"Cotati","State":"CA","Zip":"94931"},{"Location":"FRIAR TUCKS PUB AND SPIRITS","Address":"8201 Old Redwood Hwy","City":"Cotati","State":"CA","Zip":"94931"},{"Location":"JENNY VILLENA","Address":"373 Blodgett St","City":"Cotati","State":"CA","Zip":"94931"},{"Location":"MI RANCHITO RESTAURANT","Address":"7600 Commerce Blvd","City":"Cotati","State":"CA","Zip":"94931"},{"Location":"MIKES AT THE CROSSROADS","Address":"7665 Old Redwood Hwy","City":"Cotati","State":"CA","Zip":"94931"},{"Location":"MR SPARKLE CAR WASH","Address":"7360 Commerce Blvd","City":"Cotati","State":"CA","Zip":"94931"},{"Location":"PROTRANSPORT ONE CALL CENT","Address":"720 Portal St","City":"Cotati","State":"CA","Zip":"94931"},{"Location":"PROTRANSPORTONE III","Address":"566 Portal St","City":"Cotati","State":"CA","Zip":"94931"},{"Location":"SENOMA BILLIARDS LLC","Address":"8492 Gravenstein Hwy","City":"Cotati","State":"CA","Zip":"94931"},{"Location":"SPANCKYS BAR","Address":"8201 Redwood Hwy","City":"Cotati","State":"CA","Zip":"94931"},{"Location":"STATEFARM","Address":"8492 Highway 116 South","City":"Cotati","State":"CA","Zip":"94931"},{"Location":"SUPERIOR SEAMLESS GUTTER","Address":"446 Portal St","City":"Cotati","State":"CA","Zip":"94931"},{"Location":"THE 24 HOUR HEALTH CLUB CE2-1","Address":"680 E Cotati Ave","City":"Cotati","State":"CA","Zip":"94931"},{"Location":"8 BALL","Address":"8 Charles St","City":"Cotati","State":"CA","Zip":"94931"},{"Location":"CAPE COD FISH N CHIPS","Address":"7530 Commerce Blvd C","City":"Cotati","State":"CA","Zip":"94931"},{"Location":"DOS AMIGOS","Address":"8197 La Plz","City":"Cotati","State":"CA","Zip":"94931"},{"Location":"FRIAR TUCKS PUB AND SPIRITS","Address":"8201 Old Redwood Hwy","City":"Cotati","State":"CA","Zip":"94931"},{"Location":"JENNY VILLENA","Address":"373 Blodgett St","City":"Cotati","State":"CA","Zip":"94931"},{"Location":"MI RANCHITO RESTAURANT","Address":"7600 Commerce Blvd","City":"Cotati","State":"CA","Zip":"94931"},{"Location":"MIKES AT THE CROSSROADS","Address":"7665 Old Redwood Hwy","City":"Cotati","State":"CA","Zip":"94931"},{"Location":"MR SPARKLE CAR WASH","Address":"7360 Commerce Blvd","City":"Cotati","State":"CA","Zip":"94931"},{"Location":"PROTRANSPORT ONE CALL CENT","Address":"720 Portal St","City":"Cotati","State":"CA","Zip":"94931"},{"Location":"PROTRANSPORTONE III","Address":"566 Portal St","City":"Cotati","State":"CA","Zip":"94931"},{"Location":"SENOMA BILLIARDS LLC","Address":"8492 Gravenstein Hwy","City":"Cotati","State":"CA","Zip":"94931"},{"Location":"SPANCKYS BAR","Address":"8201 Redwood Hwy","City":"Cotati","State":"CA","Zip":"94931"},{"Location":"STATEFARM","Address":"8492 Highway 116 South","City":"Cotati","State":"CA","Zip":"94931"},{"Location":"SUPERIOR SEAMLESS GUTTER","Address":"446 Portal St","City":"Cotati","State":"CA","Zip":"94931"},{"Location":"THE 24 HOUR HEALTH CLUB CE2-1","Address":"680 E Cotati Ave","City":"Cotati","State":"CA","Zip":"94931"}]