[{"Location":"2AM CLUB","Address":"380 Miller Ave","City":"Mill Valley","State":"CA","Zip":"94941"},{"Location":"FIRST REPUBLIC BANK","Address":"750 Redwood Hwy 1216","City":"Mill Valley","State":"CA","Zip":"94941"},{"Location":"MILL VALLEY SWIRL","Address":"417 Miller Ave","City":"Mill Valley","State":"CA","Zip":"94941"},{"Location":"NORTHERN TRUST","Address":"575 Redwood Hwy Frontage Rd 100","City":"Mill Valley","State":"CA","Zip":"94941"},{"Location":"POMILIA FINANCIAL","Address":"1058 Redwood Hwy Frontage Rd","City":"Mill Valley","State":"CA","Zip":"94941"},{"Location":"SCOTT VALLEY SWIM & TENNIS CLB","Address":"50 Underhill Rd","City":"Mill Valley","State":"CA","Zip":"94941"},{"Location":"SKIN SPIRIT","Address":"800 Redwood Hwy 610","City":"Mill Valley","State":"CA","Zip":"94941"},{"Location":"SONNEN MOTORCARS","Address":"900 Redwood Hwy","City":"Mill Valley","State":"CA","Zip":"94941"},{"Location":"SWEETWATER MUSIC HALL","Address":"19 Corte Madera Ave","City":"Mill Valley","State":"CA","Zip":"94941"},{"Location":"TAMAL PIE PIZZA","Address":"477 Miller Ave","City":"Mill Valley","State":"CA","Zip":"94941"},{"Location":"THE        CANTINA","Address":"651 E Blithedale Ave","City":"Mill Valley","State":"CA","Zip":"94941"},{"Location":"THE CLUB AT HARBOR POINT","Address":"475 E Strawberry Dr","City":"Mill Valley","State":"CA","Zip":"94941"},{"Location":"THE RANCH","Address":"695a E Blithedale Ave","City":"Mill Valley","State":"CA","Zip":"94941"}]