[{"Location":"2K GAMES","Address":"9 Hamilton Lndg H9","City":"Novato","State":"CA","Zip":"94949"},{"Location":"AURORA RESTAURANT","Address":"8 Commercial Blvd","City":"Novato","State":"CA","Zip":"94949"},{"Location":"BIOMARIN PHARMACEUTICAL INC.","Address":"105 Digital Dr","City":"Novato","State":"CA","Zip":"94949"},{"Location":"BIOSEARCH TECH INC2","Address":"51 Digital Dr","City":"Novato","State":"CA","Zip":"94949"},{"Location":"COURTYARD NOVATO CONFERE","Address":"1400 N Hamilton Pkwy","City":"Novato","State":"CA","Zip":"94949"},{"Location":"GREEN MOVE INC","Address":"166 Hamilton Dr C","City":"Novato","State":"CA","Zip":"94949"},{"Location":"INN AMRIN NOVATO","Address":"250 Entrada Dr","City":"Novato","State":"CA","Zip":"94949"},{"Location":"MARIN AUTO GLASS MC","Address":"32 Hamilton Dr H","City":"Novato","State":"CA","Zip":"94949"},{"Location":"MARIN COMMUNITY FOUNDATION","Address":"5 Hamilton Lndg 200","City":"Novato","State":"CA","Zip":"94949"},{"Location":"MARIN COUNTRY CLUB","Address":"500 Country Club Dr","City":"Novato","State":"CA","Zip":"94949"},{"Location":"MARIN COUNTRY CLUB2","Address":"500 Country Club Dr","City":"Novato","State":"CA","Zip":"94949"},{"Location":"MARIN IT","Address":"366 Bel Marin Keys Blvd D","City":"Novato","State":"CA","Zip":"94949"},{"Location":"MAYA PALENQUE","Address":"349 Enfrente Rd","City":"Novato","State":"CA","Zip":"94949"},{"Location":"NAVITAS LLC","Address":"15 Pamaron Way A","City":"Novato","State":"CA","Zip":"94949"},{"Location":"PACIFIC GAS ESTHER","Address":"137 Hamilton Dr","City":"Novato","State":"CA","Zip":"94949"},{"Location":"POWELL PRODUCTS INC","Address":"25 Commercial Blvd A","City":"Novato","State":"CA","Zip":"94949"},{"Location":"PRO TRANSPORT ONE","Address":"24 Galli Dr","City":"Novato","State":"CA","Zip":"94949"},{"Location":"PROFESSIONAL WINDOW TINT","Address":"25 Commercial Blvd G","City":"Novato","State":"CA","Zip":"94949"},{"Location":"SALON DE BELLEZA","Address":"434 Ignacio Blvd","City":"Novato","State":"CA","Zip":"94949"},{"Location":"SOLARCRAFT","Address":"24 Galli Dr 2b","City":"Novato","State":"CA","Zip":"94949"},{"Location":"SUTTER INSTRUMENT COMPANY","Address":"1 Digital Dr","City":"Novato","State":"CA","Zip":"94949"},{"Location":"THE SHOOTER COMPANY","Address":"79 Galli Dr","City":"Novato","State":"CA","Zip":"94949"},{"Location":"VISUAL CONCEPTS ENTERTAINMENT","Address":"9 Hamilton Lndg","City":"Novato","State":"CA","Zip":"94949"},{"Location":"WILDFOX RESTAURANT","Address":"225 Alameda Del Prado","City":"Novato","State":"CA","Zip":"94949"},{"Location":"2K GAMES","Address":"9 Hamilton Lndg H9","City":"Novato","State":"CA","Zip":"94949"},{"Location":"AURORA RESTAURANT","Address":"8 Commercial Blvd","City":"Novato","State":"CA","Zip":"94949"},{"Location":"BIOMARIN PHARMACEUTICAL INC.","Address":"105 Digital Dr","City":"Novato","State":"CA","Zip":"94949"},{"Location":"BIOSEARCH TECH INC2","Address":"51 Digital Dr","City":"Novato","State":"CA","Zip":"94949"},{"Location":"COURTYARD NOVATO CONFERE","Address":"1400 N Hamilton Pkwy","City":"Novato","State":"CA","Zip":"94949"},{"Location":"GREEN MOVE INC","Address":"166 Hamilton Dr C","City":"Novato","State":"CA","Zip":"94949"},{"Location":"INN AMRIN NOVATO","Address":"250 Entrada Dr","City":"Novato","State":"CA","Zip":"94949"},{"Location":"MARIN AUTO GLASS MC","Address":"32 Hamilton Dr H","City":"Novato","State":"CA","Zip":"94949"},{"Location":"MARIN COMMUNITY FOUNDATION","Address":"5 Hamilton Lndg 200","City":"Novato","State":"CA","Zip":"94949"},{"Location":"MARIN COUNTRY CLUB","Address":"500 Country Club Dr","City":"Novato","State":"CA","Zip":"94949"},{"Location":"MARIN COUNTRY CLUB2","Address":"500 Country Club Dr","City":"Novato","State":"CA","Zip":"94949"},{"Location":"MARIN IT","Address":"366 Bel Marin Keys Blvd D","City":"Novato","State":"CA","Zip":"94949"},{"Location":"MAYA PALENQUE","Address":"349 Enfrente Rd","City":"Novato","State":"CA","Zip":"94949"},{"Location":"NAVITAS LLC","Address":"15 Pamaron Way A","City":"Novato","State":"CA","Zip":"94949"},{"Location":"PACIFIC GAS ESTHER","Address":"137 Hamilton Dr","City":"Novato","State":"CA","Zip":"94949"},{"Location":"POWELL PRODUCTS INC","Address":"25 Commercial Blvd A","City":"Novato","State":"CA","Zip":"94949"},{"Location":"PRO TRANSPORT ONE","Address":"24 Galli Dr","City":"Novato","State":"CA","Zip":"94949"},{"Location":"PROFESSIONAL WINDOW TINT","Address":"25 Commercial Blvd G","City":"Novato","State":"CA","Zip":"94949"},{"Location":"SALON DE BELLEZA","Address":"434 Ignacio Blvd","City":"Novato","State":"CA","Zip":"94949"},{"Location":"SOLARCRAFT","Address":"24 Galli Dr 2b","City":"Novato","State":"CA","Zip":"94949"},{"Location":"SUTTER INSTRUMENT COMPANY","Address":"1 Digital Dr","City":"Novato","State":"CA","Zip":"94949"},{"Location":"THE SHOOTER COMPANY","Address":"79 Galli Dr","City":"Novato","State":"CA","Zip":"94949"},{"Location":"VISUAL CONCEPTS ENTERTAINMENT","Address":"9 Hamilton Lndg","City":"Novato","State":"CA","Zip":"94949"},{"Location":"WILDFOX RESTAURANT","Address":"225 Alameda Del Prado","City":"Novato","State":"CA","Zip":"94949"}]