[{"Location":"","Address":"222 Rush Landing Rd","City":"Novato","State":"CA","Zip":"94945"},{"Location":"BAY CLUB STONETREE","Address":"9 Stonetree Ln","City":"Novato","State":"CA","Zip":"94945"},{"Location":"CHARLES SCHWAB CC291","Address":"1400 Grant Ave","City":"Novato","State":"CA","Zip":"94945"},{"Location":"CHEVY'S 2081","Address":"128 Vintage Way 81","City":"Novato","State":"CA","Zip":"94945"},{"Location":"CHIANTI CUCINA","Address":"7416 Redwood Blvd","City":"Novato","State":"CA","Zip":"94945"},{"Location":"COSABELLA NAILS","Address":"949 Front St","City":"Novato","State":"CA","Zip":"94945"},{"Location":"EXTREME PIZZA","Address":"104 Vintage Way A9","City":"Novato","State":"CA","Zip":"94945"},{"Location":"FINNEGANS","Address":"877 Grant Ave","City":"Novato","State":"CA","Zip":"94945"},{"Location":"FIREMAN'S FUND INSURANCE CO","Address":"777 San Marin Dr C65","City":"Novato","State":"CA","Zip":"94945"},{"Location":"HENNESSY ADVISORS INC","Address":"7250 Redwood Blvd 200","City":"Novato","State":"CA","Zip":"94945"},{"Location":"HILLTOP 1892","Address":"850 Lamont Ave","City":"Novato","State":"CA","Zip":"94945"},{"Location":"HOPMONK TAVERN","Address":"224 Vintage Way","City":"Novato","State":"CA","Zip":"94945"},{"Location":"LA PINATA RESTAURANT","Address":"940 7th St","City":"Novato","State":"CA","Zip":"94945"},{"Location":"MACY'S WEST 332 BR","Address":"100 Vintage Way","City":"Novato","State":"CA","Zip":"94945"},{"Location":"MEN'S WEARHOUSE #2189","Address":"236 Vintage Way P","City":"Novato","State":"CA","Zip":"94945"},{"Location":"MOYLAN'S BREWING COMPANY","Address":"15 Rowland Way","City":"Novato","State":"CA","Zip":"94945"},{"Location":"MV TRANSPORT 215","Address":"600 Rush Landing Rd","City":"Novato","State":"CA","Zip":"94945"},{"Location":"NOVADO VETENARIAN HOSPITAL","Address":"7454 Redwood Blvd","City":"Novato","State":"CA","Zip":"94945"},{"Location":"NOVATO AUTO SERVICE","Address":"7000 Redwood Blvd","City":"Novato","State":"CA","Zip":"94945"},{"Location":"NOVATO CHEVROLET INCORPORATED","Address":"7123 Redwood Blvd","City":"Novato","State":"CA","Zip":"94945"},{"Location":"NOVATO ELKS LODGE 2655","Address":"7078 Redwood Blvd","City":"Novato","State":"CA","Zip":"94945"},{"Location":"NOVATO FIRE DISTRICT","Address":"95 Rowland Way","City":"Novato","State":"CA","Zip":"94945"},{"Location":"NOVATO FORD","Address":"6995 Redwood Blvd","City":"Novato","State":"CA","Zip":"94945"},{"Location":"NOVATO TOYOTA TWO","Address":"115 Vintage Way 101","City":"Novato","State":"CA","Zip":"94945"},{"Location":"NOVATOS TOYOTAS","Address":"105 Vintage Way","City":"Novato","State":"CA","Zip":"94945"},{"Location":"NOW & THEN ANTIQUES","Address":"1021 Simmons Ln","City":"Novato","State":"CA","Zip":"94945"},{"Location":"ROLLING HILLS CLUB","Address":"351 San Andreas Dr","City":"Novato","State":"CA","Zip":"94945"},{"Location":"SPORTS AUTHORITY 680","Address":"212 Vintage Way L1","City":"Novato","State":"CA","Zip":"94945"},{"Location":"STONE TREE GOLF CLUB","Address":"9 Stonetree Ln","City":"Novato","State":"CA","Zip":"94945"},{"Location":"TAGLIAFERRI ENTERPRISES","Address":"1701 Grant Ave","City":"Novato","State":"CA","Zip":"94945"},{"Location":"TARGET #692","Address":"200 Vintage Way","City":"Novato","State":"CA","Zip":"94945"},{"Location":"THE 5150 FOUNDATION","Address":"150 Ford Way","City":"Novato","State":"CA","Zip":"94945"},{"Location":"THE BUCK INSTITUTE","Address":"8001 Redwood Blvd","City":"Novato","State":"CA","Zip":"94945"},{"Location":"THE MISSION WORKS","Address":"947 Front St","City":"Novato","State":"CA","Zip":"94945"},{"Location":"VILLAGE RESTAURANTS LLC","Address":"1200 Grant Ave","City":"Novato","State":"CA","Zip":"94945"},{"Location":"","Address":"222 Rush Landing Rd","City":"Novato","State":"CA","Zip":"94945"},{"Location":"BAY CLUB STONETREE","Address":"9 Stonetree Ln","City":"Novato","State":"CA","Zip":"94945"},{"Location":"CHARLES SCHWAB CC291","Address":"1400 Grant Ave","City":"Novato","State":"CA","Zip":"94945"},{"Location":"CHEVY'S 2081","Address":"128 Vintage Way 81","City":"Novato","State":"CA","Zip":"94945"},{"Location":"CHIANTI CUCINA","Address":"7416 Redwood Blvd","City":"Novato","State":"CA","Zip":"94945"},{"Location":"COSABELLA NAILS","Address":"949 Front St","City":"Novato","State":"CA","Zip":"94945"},{"Location":"EXTREME PIZZA","Address":"104 Vintage Way A9","City":"Novato","State":"CA","Zip":"94945"},{"Location":"FINNEGANS","Address":"877 Grant Ave","City":"Novato","State":"CA","Zip":"94945"},{"Location":"FIREMAN'S FUND INSURANCE CO","Address":"777 San Marin Dr C65","City":"Novato","State":"CA","Zip":"94945"},{"Location":"HENNESSY ADVISORS INC","Address":"7250 Redwood Blvd 200","City":"Novato","State":"CA","Zip":"94945"},{"Location":"HILLTOP 1892","Address":"850 Lamont Ave","City":"Novato","State":"CA","Zip":"94945"},{"Location":"HOPMONK TAVERN","Address":"224 Vintage Way","City":"Novato","State":"CA","Zip":"94945"},{"Location":"LA PINATA RESTAURANT","Address":"940 7th St","City":"Novato","State":"CA","Zip":"94945"},{"Location":"MACY'S WEST 332 BR","Address":"100 Vintage Way","City":"Novato","State":"CA","Zip":"94945"},{"Location":"MEN'S WEARHOUSE #2189","Address":"236 Vintage Way P","City":"Novato","State":"CA","Zip":"94945"},{"Location":"MOYLAN'S BREWING COMPANY","Address":"15 Rowland Way","City":"Novato","State":"CA","Zip":"94945"},{"Location":"MV TRANSPORT 215","Address":"600 Rush Landing Rd","City":"Novato","State":"CA","Zip":"94945"},{"Location":"NOVADO VETENARIAN HOSPITAL","Address":"7454 Redwood Blvd","City":"Novato","State":"CA","Zip":"94945"},{"Location":"NOVATO AUTO SERVICE","Address":"7000 Redwood Blvd","City":"Novato","State":"CA","Zip":"94945"},{"Location":"NOVATO CHEVROLET INCORPORATED","Address":"7123 Redwood Blvd","City":"Novato","State":"CA","Zip":"94945"},{"Location":"NOVATO ELKS LODGE 2655","Address":"7078 Redwood Blvd","City":"Novato","State":"CA","Zip":"94945"},{"Location":"NOVATO FIRE DISTRICT","Address":"95 Rowland Way","City":"Novato","State":"CA","Zip":"94945"},{"Location":"NOVATO FORD","Address":"6995 Redwood Blvd","City":"Novato","State":"CA","Zip":"94945"},{"Location":"NOVATO TOYOTA TWO","Address":"115 Vintage Way 101","City":"Novato","State":"CA","Zip":"94945"},{"Location":"NOVATOS TOYOTAS","Address":"105 Vintage Way","City":"Novato","State":"CA","Zip":"94945"},{"Location":"NOW & THEN ANTIQUES","Address":"1021 Simmons Ln","City":"Novato","State":"CA","Zip":"94945"},{"Location":"ROLLING HILLS CLUB","Address":"351 San Andreas Dr","City":"Novato","State":"CA","Zip":"94945"},{"Location":"SPORTS AUTHORITY 680","Address":"212 Vintage Way L1","City":"Novato","State":"CA","Zip":"94945"},{"Location":"STONE TREE GOLF CLUB","Address":"9 Stonetree Ln","City":"Novato","State":"CA","Zip":"94945"},{"Location":"TAGLIAFERRI ENTERPRISES","Address":"1701 Grant Ave","City":"Novato","State":"CA","Zip":"94945"},{"Location":"TARGET #692","Address":"200 Vintage Way","City":"Novato","State":"CA","Zip":"94945"},{"Location":"THE 5150 FOUNDATION","Address":"150 Ford Way","City":"Novato","State":"CA","Zip":"94945"},{"Location":"THE BUCK INSTITUTE","Address":"8001 Redwood Blvd","City":"Novato","State":"CA","Zip":"94945"},{"Location":"THE MISSION WORKS","Address":"947 Front St","City":"Novato","State":"CA","Zip":"94945"},{"Location":"VILLAGE RESTAURANTS LLC","Address":"1200 Grant Ave","City":"Novato","State":"CA","Zip":"94945"}]