[{"Location":"CHECK CENTER","Address":"155 Petaluma Blvd","City":"Bloomfield","State":"CA","Zip":"94952"},{"Location":"24 HOUR FITNESS #577","Address":"6 Petaluma Blvd N","City":"Petaluma","State":"CA","Zip":"94952"},{"Location":"AMF BLVD LANES #610","Address":"1100 Petaluma Blvd S","City":"Petaluma","State":"CA","Zip":"94952"},{"Location":"ANDYS KITCHEN & SUSHI","Address":"212 Western Ave","City":"Petaluma","State":"CA","Zip":"94952"},{"Location":"BUFFALO BILLIRDS","Address":"246 Petaluma Blvd N","City":"Petaluma","State":"CA","Zip":"94952"},{"Location":"BUFFALO WILD WINGS #3698","Address":"401 Kenilworth Dr 810","City":"Petaluma","State":"CA","Zip":"94952"},{"Location":"CAMPO CLIPS INC","Address":"401 Kenilworth Dr","City":"Petaluma","State":"CA","Zip":"94952"},{"Location":"CATTLEMENS PETALUMA","Address":"5012 Petaluma Blvd N","City":"Petaluma","State":"CA","Zip":"94952"},{"Location":"CENTRAL CLUB","Address":"106 Petaluma Blvd N","City":"Petaluma","State":"CA","Zip":"94952"},{"Location":"CREATIVE NAILS","Address":"959 Lakeville St","City":"Petaluma","State":"CA","Zip":"94952"},{"Location":"DEMPSEYS RESTAURANT BREWERY","Address":"50 E Washington St","City":"Petaluma","State":"CA","Zip":"94952"},{"Location":"DENNYS RESTAURANT","Address":"4986 Petaluma Blvd N","City":"Petaluma","State":"CA","Zip":"94952"},{"Location":"DICK'S SPORTING GOODS #1048","Address":"401 Kenilworth Dr 1030","City":"Petaluma","State":"CA","Zip":"94952"},{"Location":"DIEMY'S HAIR SALON","Address":"70 E Wshongton St","City":"Petaluma","State":"CA","Zip":"94952"},{"Location":"DIOMY'S HAIR SALON","Address":"70 E Washington St","City":"Petaluma","State":"CA","Zip":"94952"},{"Location":"EMPIRE AUTOMOTIVE","Address":"412 Madison St","City":"Petaluma","State":"CA","Zip":"94952"},{"Location":"FIRESTONE #243407","Address":"361 E Washington St","City":"Petaluma","State":"CA","Zip":"94952"},{"Location":"HENNY PENNY'S RESTAURANT","Address":"4995 Petaluma Blvd N","City":"Petaluma","State":"CA","Zip":"94952"},{"Location":"HENRY CURTIS FORD MERCURY AUTO","Address":"1125 Auto Center Dr","City":"Petaluma","State":"CA","Zip":"94952"},{"Location":"IRMAS BEAUTY SALON","Address":"827 Petaluma Blvd N","City":"Petaluma","State":"CA","Zip":"94952"},{"Location":"LUMBERJACKS","Address":"732 E Washington St","City":"Petaluma","State":"CA","Zip":"94952"},{"Location":"MAGUIRES PUB","Address":"145 Kentucky St","City":"Petaluma","State":"CA","Zip":"94952"},{"Location":"MARTIAL ARTS USA","Address":"822 Petaluma Blvd N","City":"Petaluma","State":"CA","Zip":"94952"},{"Location":"MARY'S PIZZA SHACK","Address":"359 E Washington St","City":"Petaluma","State":"CA","Zip":"94952"},{"Location":"MCNEARS","Address":"23 Petaluma Blvd N","City":"Petaluma","State":"CA","Zip":"94952"},{"Location":"MI PUEBLO","Address":"108 Kentucky St","City":"Petaluma","State":"CA","Zip":"94952"},{"Location":"MIKES AT THE CROSSROASDS","Address":"840 Petaluma Blvd N","City":"Petaluma","State":"CA","Zip":"94952"},{"Location":"MOUNTAINS      MIKES  PIZZA","Address":"919 Lakeville St","City":"Petaluma","State":"CA","Zip":"94952"},{"Location":"NIKE INC #147","Address":"2200 Petaluma Blvd N 100","City":"Petaluma","State":"CA","Zip":"94952"},{"Location":"NORTHBAY NISSAN","Address":"1250 Auto Center Dr","City":"Petaluma","State":"CA","Zip":"94952"},{"Location":"OCEAN CITY PIZZA INC%2FDOM","Address":"10 E Washington St","City":"Petaluma","State":"CA","Zip":"94952"},{"Location":"PACIFIC DENTAL 284","Address":"401 Kenilworth Dr 960","City":"Petaluma","State":"CA","Zip":"94952"},{"Location":"PARADISE SUSHI AND GRILL","Address":"20 E Washington St","City":"Petaluma","State":"CA","Zip":"94952"},{"Location":"PASSIONATE PIZZA LLC","Address":"151 Petaluma Blvd S 123","City":"Petaluma","State":"CA","Zip":"94952"},{"Location":"PETALUMA GOLF AND CC","Address":"1500 Country Club Dr","City":"Petaluma","State":"CA","Zip":"94952"},{"Location":"PETALUMA POLICE DEPARTMENT","Address":"969 Petaluma Blvd N","City":"Petaluma","State":"CA","Zip":"94952"},{"Location":"PETALUMA VALLEY ATHLETIC","Address":"85 Old Corona Rd","City":"Petaluma","State":"CA","Zip":"94952"},{"Location":"PETALUMA YACHT CLUB","Address":"10 C St","City":"Petaluma","State":"CA","Zip":"94952"},{"Location":"PLAZA TEQUILA CORP.","Address":"600 E Washington St","City":"Petaluma","State":"CA","Zip":"94952"},{"Location":"RED BOY PIZZA","Address":"401 Kenilworth Dr 910","City":"Petaluma","State":"CA","Zip":"94952"},{"Location":"RIVERTOWN FEED","Address":"200 1st St","City":"Petaluma","State":"CA","Zip":"94952"},{"Location":"SCILS","Address":"1799 Pepper Rd","City":"Petaluma","State":"CA","Zip":"94952"},{"Location":"SONNYS GRILL","Address":"200 Stony Point Rd A","City":"Petaluma","State":"CA","Zip":"94952"},{"Location":"SPD FACTORY INC","Address":"800 Petaluma Blvd S A","City":"Petaluma","State":"CA","Zip":"94952"},{"Location":"TAPS","Address":"54 E Washington St","City":"Petaluma","State":"CA","Zip":"94952"},{"Location":"TAQUERIA HACIENDA","Address":"953 Lakeville St","City":"Petaluma","State":"CA","Zip":"94952"},{"Location":"TARGET CORPORATION","Address":"401 Kenilworth Dr 510","City":"Petaluma","State":"CA","Zip":"94952"},{"Location":"THE AQUARIUM","Address":"1030 Petaluma Blvd N","City":"Petaluma","State":"CA","Zip":"94952"},{"Location":"THE BUCKHORN TAVERN","Address":"615 Petaluma Blvd S","City":"Petaluma","State":"CA","Zip":"94952"},{"Location":"THE HIDEAWAY","Address":"128 Kentucky St","City":"Petaluma","State":"CA","Zip":"94952"},{"Location":"THE ROARING DONKEY","Address":"146 Kentucky St","City":"Petaluma","State":"CA","Zip":"94952"},{"Location":"THE SHOP","Address":"139 Kentucky St","City":"Petaluma","State":"CA","Zip":"94952"},{"Location":"TRAXX BAR AND GRILL","Address":"219 Lakeville St","City":"Petaluma","State":"CA","Zip":"94952"},{"Location":"TWIT TV","Address":"140 Keller St","City":"Petaluma","State":"CA","Zip":"94952"},{"Location":"US COAST GAURD","Address":"599 Tomales Rd 165","City":"Petaluma","State":"CA","Zip":"94952"},{"Location":"US COAST GUARD TRACEN CENTER","Address":"599 Tomales Rd","City":"Petaluma","State":"CA","Zip":"94952"},{"Location":"US COAST GUARD TRAINING CENTER","Address":"599 Tomales Rd","City":"Petaluma","State":"CA","Zip":"94952"},{"Location":"USCG","Address":"599 Tomales Rd","City":"Petaluma","State":"CA","Zip":"94952"},{"Location":"USCG CONSOLIDATED CLUB","Address":"599 Tomales Rd 165","City":"Petaluma","State":"CA","Zip":"94952"},{"Location":"VELASCOS MEXICAN RESTAURANT","Address":"190 Kentucky St","City":"Petaluma","State":"CA","Zip":"94952"},{"Location":"WILLOWBROOK ALE HOUSE","Address":"3600 Petaluma Blvd N","City":"Petaluma","State":"CA","Zip":"94952"},{"Location":"ZODIACS","Address":"256 Petaluma Blvd","City":"Petaluma","State":"CA","Zip":"94952"}]