[{"Location":"AKK INVESTMENTS","Address":"5111 Old Redwood Hwy","City":"Petaluma","State":"CA","Zip":"94954"},{"Location":"APPLEBEE'S #2140012","Address":"5301 Old Redwood Hwy","City":"Petaluma","State":"CA","Zip":"94954"},{"Location":"BEYOND THE GLORY SPORTS BAR","Address":"1371 N Mcdowell Blvd","City":"Petaluma","State":"CA","Zip":"94954"},{"Location":"BIOSEARCH TECH INC","Address":"2199 S Mcdowell Boulevard Ext","City":"Petaluma","State":"CA","Zip":"94954"},{"Location":"CALIX NETWORKS","Address":"1035 N Mcdowell Blvd","City":"Petaluma","State":"CA","Zip":"94954"},{"Location":"CHUNKY'S TAQUERIA AND GRILL","Address":"701 Sonoma Mountain Pkwy C1","City":"Petaluma","State":"CA","Zip":"94954"},{"Location":"CITY OF PETALUMA","Address":"3890 Cypress Dr","City":"Petaluma","State":"CA","Zip":"94954"},{"Location":"CITY OF PETALUMA TRANSIT","Address":"555 N Mcdowell Blvd","City":"Petaluma","State":"CA","Zip":"94954"},{"Location":"CLUB ONE PETALUMA","Address":"1201 Redwood Way","City":"Petaluma","State":"CA","Zip":"94954"},{"Location":"CLUB ONE PETALUMA HD","Address":"1201 Redwood Way","City":"Petaluma","State":"CA","Zip":"94954"},{"Location":"CROSSCHECK","Address":"1440 N Mcdowell Blvd","City":"Petaluma","State":"CA","Zip":"94954"},{"Location":"DISCOUNT CIGARETTES","Address":"5320 Old Redwood Hwy","City":"Petaluma","State":"CA","Zip":"94954"},{"Location":"ERNIES TIN BAR","Address":"5100 Lakeville Hwy","City":"Petaluma","State":"CA","Zip":"94954"},{"Location":"EXTREME PIZZA","Address":"3100 Lakeville Hwy E","City":"Petaluma","State":"CA","Zip":"94954"},{"Location":"FISCHER TRUCKING","Address":"983 Transport Way","City":"Petaluma","State":"CA","Zip":"94954"},{"Location":"FPC INVESTMENT ADVISORY","Address":"1 Willowbrook Ct 160","City":"Petaluma","State":"CA","Zip":"94954"},{"Location":"FRIEDMANS HOME","Address":"429 N Mcdowell Blvd","City":"Petaluma","State":"CA","Zip":"94954"},{"Location":"GCX CORP","Address":"3905 Cypris Drive","City":"Petaluma","State":"CA","Zip":"94954"},{"Location":"GCX CORP","Address":"3875 Cypress Dr","City":"Petaluma","State":"CA","Zip":"94954"},{"Location":"LA FITNESS #6160","Address":"477 N Mcdowell Blvd","City":"Petaluma","State":"CA","Zip":"94954"},{"Location":"LAGUNITAS BREWING CO","Address":"1280 N Mcdowell Blvd","City":"Petaluma","State":"CA","Zip":"94954"},{"Location":"LAKEVILLE GARDEN SUSHI","Address":"1410 S Mcdowell Blvd","City":"Petaluma","State":"CA","Zip":"94954"},{"Location":"MARK J ROPER DDS","Address":"3835 Cypress Dr 203","City":"Petaluma","State":"CA","Zip":"94954"},{"Location":"MARYS PIZZA SHACK","Address":"423 N Mcdowell Blvd","City":"Petaluma","State":"CA","Zip":"94954"},{"Location":"PACIFIC GAS AND ELECTRIC","Address":"210 Corona Rd","City":"Petaluma","State":"CA","Zip":"94954"},{"Location":"PALMS GRILL INC","Address":"100 S Mcdowell Blvd","City":"Petaluma","State":"CA","Zip":"94954"},{"Location":"PETALUMA ELKS LODGE","Address":"2105 S Mcdowell Boulevard Ext","City":"Petaluma","State":"CA","Zip":"94954"},{"Location":"PONGOS  KITCHEN AND TAP","Address":"701 Sonoma Mountain Pkwy C8","City":"Petaluma","State":"CA","Zip":"94954"},{"Location":"PUB REPUBLIC","Address":"3120 Lakeville Hwy","City":"Petaluma","State":"CA","Zip":"94954"},{"Location":"ROOSTER RUN EVENT CENTER","Address":"2301 E Washington St","City":"Petaluma","State":"CA","Zip":"94954"},{"Location":"ROOSTER RUN GOLF CLUB","Address":"2301 E Washington St","City":"Petaluma","State":"CA","Zip":"94954"},{"Location":"SHANGRI-LA","Address":"1371 N Mcdowell Blvd 110","City":"Petaluma","State":"CA","Zip":"94954"},{"Location":"SHERATON","Address":"745 Baywood Dr","City":"Petaluma","State":"CA","Zip":"94954"},{"Location":"TAQUERIA ELGALLO","Address":"1367 N Mcdowell Blvd 140","City":"Petaluma","State":"CA","Zip":"94954"},{"Location":"THANGLONG","Address":"175 N Mcdowell Blvd","City":"Petaluma","State":"CA","Zip":"94954"},{"Location":"THE 101 CASINO","Address":"5151 Montero Way","City":"Petaluma","State":"CA","Zip":"94954"},{"Location":"THE RACER'S GROUP","Address":"1995 S Mcdowell Boulevard Ext","City":"Petaluma","State":"CA","Zip":"94954"},{"Location":"THE REGUS GROUP","Address":"755 Baywood Dr 2fl","City":"Petaluma","State":"CA","Zip":"94954"},{"Location":"TWO NINER DINER","Address":"561 Skyranch Rd","City":"Petaluma","State":"CA","Zip":"94954"},{"Location":"US PROPERTY WORKS LLC D","Address":"229 N Mcdowell Blvd","City":"Petaluma","State":"CA","Zip":"94954"}]