[{"Location":"ARAWAN THAI RESTAURANT","Address":"47 Caledonia St","City":"Sausalito","State":"CA","Zip":"94965"},{"Location":"BANNISTER","Address":"2400 Bridgeway 230","City":"Sausalito","State":"CA","Zip":"94965"},{"Location":"BUTLER SHINE AND STERN","Address":"20 Liberty Ship Way","City":"Sausalito","State":"CA","Zip":"94965"},{"Location":"CAROUSEL LAUNDRY","Address":"203 2nd St","City":"Sausalito","State":"CA","Zip":"94965"},{"Location":"CHRISTOPHER SCHROLL","Address":"30 Liberty Ship Way 3275","City":"Sausalito","State":"CA","Zip":"94965"},{"Location":"CMBS.COM","Address":"85 Liberty Ship Way 201","City":"Sausalito","State":"CA","Zip":"94965"},{"Location":"ESIMO DAY SPA","Address":"2829 Bridgeway","City":"Sausalito","State":"CA","Zip":"94965"},{"Location":"FAST FOOD FRANCAIS","Address":"39 Caledonia St","City":"Sausalito","State":"CA","Zip":"94965"},{"Location":"FISH","Address":"350 Harbor Dr","City":"Sausalito","State":"CA","Zip":"94965"},{"Location":"FT BAKER RETREAT GROUP","Address":"601 Murray Cir","City":"Sausalito","State":"CA","Zip":"94965"},{"Location":"HORIZONS","Address":"558 Bridgeway","City":"Sausalito","State":"CA","Zip":"94965"},{"Location":"NO NAME BAR","Address":"757 Bridgeway","City":"Sausalito","State":"CA","Zip":"94965"},{"Location":"PARADISE BAY","Address":"1200 Bridgeway","City":"Sausalito","State":"CA","Zip":"94965"},{"Location":"PARADISE PROPERTIES%2C INC.","Address":"1001 Bridgeway","City":"Sausalito","State":"CA","Zip":"94965"},{"Location":"RUBYN & COMPANY","Address":"1207 Bridgeway E","City":"Sausalito","State":"CA","Zip":"94965"},{"Location":"SAUSALITO CRUISING CLUB","Address":"300 Napa St","City":"Sausalito","State":"CA","Zip":"94965"},{"Location":"SAUSALITO YACHT CLUB","Address":"100 Humboldt  Avenue","City":"Sausalito","State":"CA","Zip":"94965"},{"Location":"SCOMA'S SAUSALITO","Address":"588 Bridgeway","City":"Sausalito","State":"CA","Zip":"94965"},{"Location":"SEAFOOD PEDLER OF SAUSALITO","Address":"303 Johnson St","City":"Sausalito","State":"CA","Zip":"94965"},{"Location":"SKADADDLE MEDIA","Address":"2658 Bridgeway 203","City":"Sausalito","State":"CA","Zip":"94965"},{"Location":"THE SPINNAKER","Address":"100 Spinnaker Dr","City":"Sausalito","State":"CA","Zip":"94965"},{"Location":"TOMMYS WOK","Address":"3001 Bridgeway","City":"Sausalito","State":"CA","Zip":"94965"},{"Location":"TRADEWINDS INVESTMENT MAN.","Address":"3 Harbor Dr 213","City":"Sausalito","State":"CA","Zip":"94965"},{"Location":"US COAST GUARD","Address":"435 Murray Circle","City":"Sausalito","State":"CA","Zip":"94965"},{"Location":"USA ARMY CORPS OF ENGINEERS","Address":"2100 Bridgeway","City":"Sausalito","State":"CA","Zip":"94965"},{"Location":"ARAWAN THAI RESTAURANT","Address":"47 Caledonia St","City":"Sausalito","State":"CA","Zip":"94965"},{"Location":"BANNISTER","Address":"2400 Bridgeway 230","City":"Sausalito","State":"CA","Zip":"94965"},{"Location":"BUTLER SHINE AND STERN","Address":"20 Liberty Ship Way","City":"Sausalito","State":"CA","Zip":"94965"},{"Location":"CAROUSEL LAUNDRY","Address":"203 2nd St","City":"Sausalito","State":"CA","Zip":"94965"},{"Location":"CHRISTOPHER SCHROLL","Address":"30 Liberty Ship Way 3275","City":"Sausalito","State":"CA","Zip":"94965"},{"Location":"CMBS.COM","Address":"85 Liberty Ship Way 201","City":"Sausalito","State":"CA","Zip":"94965"},{"Location":"ESIMO DAY SPA","Address":"2829 Bridgeway","City":"Sausalito","State":"CA","Zip":"94965"},{"Location":"FAST FOOD FRANCAIS","Address":"39 Caledonia St","City":"Sausalito","State":"CA","Zip":"94965"},{"Location":"FT BAKER RETREAT GROUP","Address":"601 Murray Cir","City":"Sausalito","State":"CA","Zip":"94965"},{"Location":"HORIZONS","Address":"558 Bridgeway","City":"Sausalito","State":"CA","Zip":"94965"},{"Location":"NO NAME BAR","Address":"757 Bridgeway","City":"Sausalito","State":"CA","Zip":"94965"},{"Location":"PARADISE BAY","Address":"1200 Bridgeway","City":"Sausalito","State":"CA","Zip":"94965"},{"Location":"PARADISE PROPERTIES%2C INC.","Address":"1001 Bridgeway","City":"Sausalito","State":"CA","Zip":"94965"},{"Location":"RUBYN & COMPANY","Address":"1207 Bridgeway E","City":"Sausalito","State":"CA","Zip":"94965"},{"Location":"SAUSALITO CRUISING CLUB","Address":"300 Napa St","City":"Sausalito","State":"CA","Zip":"94965"},{"Location":"SAUSALITO YACHT CLUB","Address":"100 Humboldt  Avenue","City":"Sausalito","State":"CA","Zip":"94965"},{"Location":"SCOMA'S SAUSALITO","Address":"588 Bridgeway","City":"Sausalito","State":"CA","Zip":"94965"},{"Location":"SEAFOOD PEDLER OF SAUSALITO","Address":"303 Johnson St","City":"Sausalito","State":"CA","Zip":"94965"},{"Location":"SKADADDLE MEDIA","Address":"2658 Bridgeway 203","City":"Sausalito","State":"CA","Zip":"94965"},{"Location":"THE SPINNAKER","Address":"100 Spinnaker Dr","City":"Sausalito","State":"CA","Zip":"94965"},{"Location":"TOMMYS WOK","Address":"3001 Bridgeway","City":"Sausalito","State":"CA","Zip":"94965"},{"Location":"TRADEWINDS INVESTMENT MAN.","Address":"3 Harbor Dr 213","City":"Sausalito","State":"CA","Zip":"94965"},{"Location":"US COAST GUARD","Address":"435 Murray Circle","City":"Sausalito","State":"CA","Zip":"94965"},{"Location":"USA ARMY CORPS OF ENGINEERS","Address":"2100 Bridgeway","City":"Sausalito","State":"CA","Zip":"94965"}]