[{"Location":"ALISON K JACKSON DDS","Address":"7545 Soquel Dr A","City":"Aptos","State":"CA","Zip":"95003"},{"Location":"BITTERSWEET BISTRO","Address":"787 Rio Del Mar Blvd","City":"Aptos","State":"CA","Zip":"95003"},{"Location":"BURGER","Address":"7941 Soquel Dr","City":"Aptos","State":"CA","Zip":"95003"},{"Location":"GG RESTAURANT AND BAR","Address":"8041 Soquel Dr","City":"Aptos","State":"CA","Zip":"95003"},{"Location":"MEDITERRANEAN CLUB","Address":"265 Center Ave","City":"Aptos","State":"CA","Zip":"95003"},{"Location":"MO BURGER INC","Address":"8017 Soquel Dr","City":"Aptos","State":"CA","Zip":"95003"},{"Location":"SEASCAPE GOLF CLUB","Address":"610 Clubhouse Dr","City":"Aptos","State":"CA","Zip":"95003"},{"Location":"SEASCAPE RESORT","Address":"1 Seascape Resort Dr","City":"Aptos","State":"CA","Zip":"95003"},{"Location":"SIDS SMOKE HOUSE & GRILL","Address":"10110 Soquel Dr","City":"Aptos","State":"CA","Zip":"95003"},{"Location":"THE HIDEOUT","Address":"9051 Soquel Dr K","City":"Aptos","State":"CA","Zip":"95003"},{"Location":"WINDJAMMER","Address":"1 Rancho Del Mar","City":"Aptos","State":"CA","Zip":"95003"},{"Location":"ALISON K JACKSON DDS","Address":"7545 Soquel Dr A","City":"Aptos","State":"CA","Zip":"95003"},{"Location":"BITTERSWEET BISTRO","Address":"787 Rio Del Mar Blvd","City":"Aptos","State":"CA","Zip":"95003"},{"Location":"BURGER","Address":"7941 Soquel Dr","City":"Aptos","State":"CA","Zip":"95003"},{"Location":"GG RESTAURANT AND BAR","Address":"8041 Soquel Dr","City":"Aptos","State":"CA","Zip":"95003"},{"Location":"MEDITERRANEAN CLUB","Address":"265 Center Ave","City":"Aptos","State":"CA","Zip":"95003"},{"Location":"MO BURGER INC","Address":"8017 Soquel Dr","City":"Aptos","State":"CA","Zip":"95003"},{"Location":"SEASCAPE GOLF CLUB","Address":"610 Clubhouse Dr","City":"Aptos","State":"CA","Zip":"95003"},{"Location":"SEASCAPE RESORT","Address":"1 Seascape Resort Dr","City":"Aptos","State":"CA","Zip":"95003"},{"Location":"SIDS SMOKE HOUSE & GRILL","Address":"10110 Soquel Dr","City":"Aptos","State":"CA","Zip":"95003"},{"Location":"THE HIDEOUT","Address":"9051 Soquel Dr K","City":"Aptos","State":"CA","Zip":"95003"},{"Location":"WINDJAMMER","Address":"1 Rancho Del Mar","City":"Aptos","State":"CA","Zip":"95003"}]