[{"Location":"BFI BUSINESS FINIANCE","Address":"851 E Hamilton Ave","City":"Campbell","State":"CA","Zip":"95008"},{"Location":"BIO REFERENCE LABORATORIES","Address":"2605 Winchester Blvd","City":"Campbell","State":"CA","Zip":"95008"},{"Location":"BPIZAZZ BARBER SHOP","Address":"474 W Hamilton Ave","City":"Campbell","State":"CA","Zip":"95008"},{"Location":"BRASSFIELD GROUP","Address":"1901 S Bascom Ave 1700","City":"Campbell","State":"CA","Zip":"95008"},{"Location":"BRENNER FINANCIAL SERVICES","Address":"1386 White Oaks Rd C","City":"Campbell","State":"CA","Zip":"95008"},{"Location":"BROWN FAMILY CHIROPRACTIC","Address":"815 Union Ave","City":"Campbell","State":"CA","Zip":"95008"},{"Location":"BUCA DI BEPPO #599","Address":"1875 S Bascom Ave 155","City":"Campbell","State":"CA","Zip":"95008"},{"Location":"BURGER KING 2012","Address":"49 W Hamilton Ave","City":"Campbell","State":"CA","Zip":"95008"},{"Location":"C G AUTOMOTIVE  MARINE","Address":"75 Cristich Ln","City":"Campbell","State":"CA","Zip":"95008"},{"Location":"CAL SPORT CLUB INC","Address":"891 E Hamilton Ave","City":"Campbell","State":"CA","Zip":"95008"},{"Location":"CAPERS","Address":"1710 W Campbell Ave","City":"Campbell","State":"CA","Zip":"95008"},{"Location":"CLARITY CONSULTANTS","Address":"910 E Hamilton Ave 400","City":"Campbell","State":"CA","Zip":"95008"},{"Location":"COACHS SPORTS BAR & GRILL","Address":"2240 Winchester Blvd","City":"Campbell","State":"CA","Zip":"95008"},{"Location":"COMGLOBAL SYSTEMS","Address":"1315 Dell Ave","City":"Campbell","State":"CA","Zip":"95008"},{"Location":"COURTS LOUNGE","Address":"2425 S Bascom Ave C","City":"Campbell","State":"CA","Zip":"95008"},{"Location":"DAN CAPUTO CO.","Address":"2323 S Bascom Ave 100","City":"Campbell","State":"CA","Zip":"95008"},{"Location":"DELTA QUEEN CLASSIC CAR WASH","Address":"981 E Hamilton Ave","City":"Campbell","State":"CA","Zip":"95008"},{"Location":"DENT PRO","Address":"1436 White Oaks Rd 5","City":"Campbell","State":"CA","Zip":"95008"},{"Location":"DICKEYS BARBEQUE PIT","Address":"1402 Camden Ave","City":"Campbell","State":"CA","Zip":"95008"},{"Location":"DURHAM SCHOOL SERVICES","Address":"1506 White Oaks Rd","City":"Campbell","State":"CA","Zip":"95008"},{"Location":"EFFIES RESTAURANT","Address":"331 W Hacienda Ave","City":"Campbell","State":"CA","Zip":"95008"},{"Location":"EL BURRO RESTAURANT","Address":"1875 S Bascom Ave","City":"Campbell","State":"CA","Zip":"95008"},{"Location":"EL GUAPOS","Address":"266 E Campbell Ave","City":"Campbell","State":"CA","Zip":"95008"},{"Location":"ELEPHANT BAR CAMPBELL","Address":"499 E Hamilton Ave","City":"Campbell","State":"CA","Zip":"95008"},{"Location":"EMQ FAMILIES FIRST","Address":"251 Llewellyn Ave","City":"Campbell","State":"CA","Zip":"95008"},{"Location":"ENTERTAINMENT BY J & J","Address":"2380 S Bascom Ave 200","City":"Campbell","State":"CA","Zip":"95008"},{"Location":"FANTASY BEAUTY SALON","Address":"878 W Hamilton Ave","City":"Campbell","State":"CA","Zip":"95008"},{"Location":"FIDELITY INVESTMENTS 105","Address":"851 E Hamilton Ave","City":"Campbell","State":"CA","Zip":"95008"},{"Location":"FIRESTONE #117323","Address":"1460 White Oaks Rd","City":"Campbell","State":"CA","Zip":"95008"},{"Location":"FIRESTONE #598763","Address":"2120 Winchester Blvd","City":"Campbell","State":"CA","Zip":"95008"},{"Location":"FOREVER YOUNG","Address":"3333 S Bascom Ave","City":"Campbell","State":"CA","Zip":"95008"},{"Location":"FURUSATO SUSHI","Address":"1651 W Campbell Ave","City":"Campbell","State":"CA","Zip":"95008"},{"Location":"GAGLIARDI INSURANCE SERVICES","Address":"2380 S Bascom Ave 100","City":"Campbell","State":"CA","Zip":"95008"},{"Location":"GOLD'S GYM #75","Address":"700 W Hamilton Ave","City":"Campbell","State":"CA","Zip":"95008"},{"Location":"GOLDEN AUTO CARE","Address":"1386 White Oaks Rd B","City":"Campbell","State":"CA","Zip":"95008"},{"Location":"GRILL EM","Address":"2509 S Bascom Ave","City":"Campbell","State":"CA","Zip":"95008"},{"Location":"GROUPWARE TECHNOLOGY","Address":"511 Division St","City":"Campbell","State":"CA","Zip":"95008"},{"Location":"HARDTKE WORLD OF BASEBALL%2CLLC","Address":"610 E Hamilton Ave","City":"Campbell","State":"CA","Zip":"95008"},{"Location":"HASH HOUSE LLC","Address":"851 W Hamilton Ave","City":"Campbell","State":"CA","Zip":"95008"},{"Location":"HOOTERS OF CAMPBELL","Address":"1555 S Bascom Ave","City":"Campbell","State":"CA","Zip":"95008"},{"Location":"HQ GLOBAL WORKPLACES","Address":"900 E Hamilton Ave 100","City":"Campbell","State":"CA","Zip":"95008"},{"Location":"HUMANA","Address":"910 E Hamilton Ave 500","City":"Campbell","State":"CA","Zip":"95008"},{"Location":"IMAGES AUTOBODY","Address":"216 Cristich Ln","City":"Campbell","State":"CA","Zip":"95008"},{"Location":"J MOLLO & SONS%2C INC","Address":"2388 S Bascom Ave","City":"Campbell","State":"CA","Zip":"95008"},{"Location":"JALISCO MEXICAN FOOD","Address":"525 E Campbell Ave","City":"Campbell","State":"CA","Zip":"95008"},{"Location":"JESSEE BROTHERS MACHINE SHOP","Address":"1640 Dell Ave","City":"Campbell","State":"CA","Zip":"95008"},{"Location":"K AND F AUTO","Address":"203 Kennedy Ave A","City":"Campbell","State":"CA","Zip":"95008"},{"Location":"KHARTOUM","Address":"300 Orchard City Dr","City":"Campbell","State":"CA","Zip":"95008"},{"Location":"KLEIN KONO  DMD INC","Address":"2020 S Bascom Ave","City":"Campbell","State":"CA","Zip":"95008"},{"Location":"KOHL'S #977","Address":"525 E Hamilton Ave","City":"Campbell","State":"CA","Zip":"95008"},{"Location":"KOMATSU JAPANESE CUISINE","Address":"300 Orchard City Dr","City":"Campbell","State":"CA","Zip":"95008"},{"Location":"KOMATSU JAPANESE CUISINE","Address":"300 Orchard City Dr 110","City":"Campbell","State":"CA","Zip":"95008"},{"Location":"KYOTO PALACE","Address":"1875 S Bascom Ave 2500","City":"Campbell","State":"CA","Zip":"95008"},{"Location":"LAUNDERLUX%2C LLC","Address":"2513 Winchester Blvd","City":"Campbell","State":"CA","Zip":"95008"},{"Location":"LAYERS   LLC","Address":"1875 S Bascom Ave 405","City":"Campbell","State":"CA","Zip":"95008"},{"Location":"LEGACY III CAMPBELL","Address":"910 E Hamilton Ave 250","City":"Campbell","State":"CA","Zip":"95008"},{"Location":"LITTLE LOUS BBQ","Address":"2455 Winchester Blvd","City":"Campbell","State":"CA","Zip":"95008"},{"Location":"MARCUS ADAMS OPA 1","Address":"276 E Campbell Ave","City":"Campbell","State":"CA","Zip":"95008"},{"Location":"MEDICAL OBSTETRIX GROUP","Address":"900 E Hamilton Ave 220","City":"Campbell","State":"CA","Zip":"95008"},{"Location":"MIDAS 1742","Address":"1236 White Oaks Rd","City":"Campbell","State":"CA","Zip":"95008"},{"Location":"MOS TBJ","Address":"278 E Campbell Ave","City":"Campbell","State":"CA","Zip":"95008"},{"Location":"MOSS ADAMS LLP","Address":"635 Campbell Technology Pkwy 100","City":"Campbell","State":"CA","Zip":"95008"},{"Location":"MOUNTAIN MIKES PIZZA","Address":"301 E Hamilton Ave","City":"Campbell","State":"CA","Zip":"95008"},{"Location":"NCPCC","Address":"2165 S Bascom Ave A","City":"Campbell","State":"CA","Zip":"95008"},{"Location":"NEW JERSEY'S","Address":"923 W Hamilton Ave","City":"Campbell","State":"CA","Zip":"95008"},{"Location":"OFF THE HOOK REST. & LOUNGE","Address":"2369 Winchester Blvd","City":"Campbell","State":"CA","Zip":"95008"},{"Location":"OM   INC","Address":"201 E Campbell Ave","City":"Campbell","State":"CA","Zip":"95008"},{"Location":"ON SITE MANAGER INC","Address":"307 Orchard City Dr 310","City":"Campbell","State":"CA","Zip":"95008"},{"Location":"OUTBACK STEAKHOUSE #0516","Address":"1887 S Bascom Ave","City":"Campbell","State":"CA","Zip":"95008"},{"Location":"PENTECT FINANCIAL SERVICES INC","Address":"240 E Hacienda Ave 100","City":"Campbell","State":"CA","Zip":"95008"},{"Location":"POST 99","Address":"1344 Dell Ave","City":"Campbell","State":"CA","Zip":"95008"},{"Location":"PUPUSERIA LOS DUBON","Address":"1546 Camden Ave","City":"Campbell","State":"CA","Zip":"95008"},{"Location":"READ ANIMAL HOSPITAL","Address":"1657 S Bascom Ave","City":"Campbell","State":"CA","Zip":"95008"},{"Location":"RETINAL DIAGNOSTIC CENTER","Address":"3395 S Bascom Ave 140","City":"Campbell","State":"CA","Zip":"95008"},{"Location":"RICE AND NOODLES","Address":"930 W Hamilton Ave 110","City":"Campbell","State":"CA","Zip":"95008"},{"Location":"RICH ENTERPRISES","Address":"1092 Florence Way","City":"Campbell","State":"CA","Zip":"95008"},{"Location":"ROBERT PUTNAM CONSTR","Address":"1660 Dell Ave","City":"Campbell","State":"CA","Zip":"95008"},{"Location":"ROCK BOTTOM #1069","Address":"1875 S Bascom Ave","City":"Campbell","State":"CA","Zip":"95008"},{"Location":"ROSANELLI MEDICAL","Address":"50 E Hamilton Ave","City":"Campbell","State":"CA","Zip":"95008"},{"Location":"RUNNING REVOLUTION","Address":"511 E Campbell Ave","City":"Campbell","State":"CA","Zip":"95008"},{"Location":"SAMS BEAUTY SUPPLY","Address":"1764 Winchester Blvd","City":"Campbell","State":"CA","Zip":"95008"},{"Location":"SAN JOSE CAMERA","Address":"1600 S Winchester Blvd","City":"Campbell","State":"CA","Zip":"95008"},{"Location":"SATO JAPANESE CUISINE","Address":"330 E Hamilton Ave 7","City":"Campbell","State":"CA","Zip":"95008"},{"Location":"SCOTTRADE L04","Address":"509 E Hamilton Ave 3","City":"Campbell","State":"CA","Zip":"95008"},{"Location":"SHINN AND SONS","Address":"2080 S Bascom Ave","City":"Campbell","State":"CA","Zip":"95008"},{"Location":"SONOMA CHICKEN COOP","Address":"200 E Campbell Ave","City":"Campbell","State":"CA","Zip":"95008"},{"Location":"SORELLE ITALIAN BISTRO","Address":"915 S San Tomas Aquino Rd","City":"Campbell","State":"CA","Zip":"95008"},{"Location":"SOUTH BAY CONSTRUCTION","Address":"1711 Dell Ave","City":"Campbell","State":"CA","Zip":"95008"},{"Location":"STATE FARM","Address":"2190 S Bascom Ave","City":"Campbell","State":"CA","Zip":"95008"},{"Location":"STEAMLINE AUTO BODY","Address":"261 E Mcglincy Ln","City":"Campbell","State":"CA","Zip":"95008"},{"Location":"SUSHI CONFIDENTIAL","Address":"247 E Campbell Ave","City":"Campbell","State":"CA","Zip":"95008"},{"Location":"SUSHI ZONO JAPANESE RESTAURANT","Address":"831 W Hamilton Ave","City":"Campbell","State":"CA","Zip":"95008"},{"Location":"SYNIVERSE TECHNOLOGIES","Address":"900 E Hamilton Ave 608","City":"Campbell","State":"CA","Zip":"95008"},{"Location":"TACTX  %2FMEDICAL PRODUXX INC","Address":"1353 Dell Ave","City":"Campbell","State":"CA","Zip":"95008"},{"Location":"TD AMERITRADE #05047","Address":"423 E Hamilton Ave","City":"Campbell","State":"CA","Zip":"95008"},{"Location":"THE BEAUTY BAR CAMPBELL","Address":"2002 White Oaks Rd 2","City":"Campbell","State":"CA","Zip":"95008"},{"Location":"THE GARRET","Address":"1777 S Bascom Ave E","City":"Campbell","State":"CA","Zip":"95008"},{"Location":"THE MENTOR NETWORK","Address":"1750 Westmont Ave","City":"Campbell","State":"CA","Zip":"95008"},{"Location":"THE ORIGINAL HICK'RY PIT","Address":"980 E Campbell Ave","City":"Campbell","State":"CA","Zip":"95008"},{"Location":"THE SPOT DOWNTOWN","Address":"201 Orchard City Dr","City":"Campbell","State":"CA","Zip":"95008"},{"Location":"UNO MAS","Address":"1640 S Bascom Ave","City":"Campbell","State":"CA","Zip":"95008"},{"Location":"VIDEO CLARITY","Address":"1566 La Pradera Dr","City":"Campbell","State":"CA","Zip":"95008"},{"Location":"WEALTH DESIGN","Address":"1999 S Bascom Ave 530","City":"Campbell","State":"CA","Zip":"95008"},{"Location":"WEST VALLEY AUTO TECH","Address":"180 Kennedy Ave","City":"Campbell","State":"CA","Zip":"95008"},{"Location":"WEST VALLEY CO INC","Address":"580 E Mcglincy Ln","City":"Campbell","State":"CA","Zip":"95008"},{"Location":"WEST VALLEY CONSTRUCTION CO IN","Address":"580 E Mcglincey Ln","City":"Campbell","State":"CA","Zip":"95008"},{"Location":"BFI BUSINESS FINIANCE","Address":"851 E Hamilton Ave","City":"Campbell","State":"CA","Zip":"95008"},{"Location":"BIO REFERENCE LABORATORIES","Address":"2605 Winchester Blvd","City":"Campbell","State":"CA","Zip":"95008"},{"Location":"BPIZAZZ BARBER SHOP","Address":"474 W Hamilton Ave","City":"Campbell","State":"CA","Zip":"95008"},{"Location":"BRASSFIELD GROUP","Address":"1901 S Bascom Ave 1700","City":"Campbell","State":"CA","Zip":"95008"},{"Location":"BRENNER FINANCIAL SERVICES","Address":"1386 White Oaks Rd C","City":"Campbell","State":"CA","Zip":"95008"},{"Location":"BROWN FAMILY CHIROPRACTIC","Address":"815 Union Ave","City":"Campbell","State":"CA","Zip":"95008"},{"Location":"BUCA DI BEPPO #599","Address":"1875 S Bascom Ave 155","City":"Campbell","State":"CA","Zip":"95008"},{"Location":"BURGER KING 2012","Address":"49 W Hamilton Ave","City":"Campbell","State":"CA","Zip":"95008"},{"Location":"C G AUTOMOTIVE  MARINE","Address":"75 Cristich Ln","City":"Campbell","State":"CA","Zip":"95008"},{"Location":"CAL SPORT CLUB INC","Address":"891 E Hamilton Ave","City":"Campbell","State":"CA","Zip":"95008"},{"Location":"CAPERS","Address":"1710 W Campbell Ave","City":"Campbell","State":"CA","Zip":"95008"},{"Location":"CLARITY CONSULTANTS","Address":"910 E Hamilton Ave 400","City":"Campbell","State":"CA","Zip":"95008"},{"Location":"COACHS SPORTS BAR & GRILL","Address":"2240 Winchester Blvd","City":"Campbell","State":"CA","Zip":"95008"},{"Location":"COMGLOBAL SYSTEMS","Address":"1315 Dell Ave","City":"Campbell","State":"CA","Zip":"95008"},{"Location":"COURTS LOUNGE","Address":"2425 S Bascom Ave C","City":"Campbell","State":"CA","Zip":"95008"},{"Location":"DAN CAPUTO CO.","Address":"2323 S Bascom Ave 100","City":"Campbell","State":"CA","Zip":"95008"},{"Location":"DELTA QUEEN CLASSIC CAR WASH","Address":"981 E Hamilton Ave","City":"Campbell","State":"CA","Zip":"95008"},{"Location":"DENT PRO","Address":"1436 White Oaks Rd 5","City":"Campbell","State":"CA","Zip":"95008"},{"Location":"DICKEYS BARBEQUE PIT","Address":"1402 Camden Ave","City":"Campbell","State":"CA","Zip":"95008"},{"Location":"DURHAM SCHOOL SERVICES","Address":"1506 White Oaks Rd","City":"Campbell","State":"CA","Zip":"95008"},{"Location":"EFFIES RESTAURANT","Address":"331 W Hacienda Ave","City":"Campbell","State":"CA","Zip":"95008"},{"Location":"EL BURRO RESTAURANT","Address":"1875 S Bascom Ave","City":"Campbell","State":"CA","Zip":"95008"},{"Location":"EL GUAPOS","Address":"266 E Campbell Ave","City":"Campbell","State":"CA","Zip":"95008"},{"Location":"ELEPHANT BAR CAMPBELL","Address":"499 E Hamilton Ave","City":"Campbell","State":"CA","Zip":"95008"},{"Location":"EMQ FAMILIES FIRST","Address":"251 Llewellyn Ave","City":"Campbell","State":"CA","Zip":"95008"},{"Location":"ENTERTAINMENT BY J & J","Address":"2380 S Bascom Ave 200","City":"Campbell","State":"CA","Zip":"95008"},{"Location":"FANTASY BEAUTY SALON","Address":"878 W Hamilton Ave","City":"Campbell","State":"CA","Zip":"95008"},{"Location":"FIDELITY INVESTMENTS 105","Address":"851 E Hamilton Ave","City":"Campbell","State":"CA","Zip":"95008"},{"Location":"FIRESTONE #117323","Address":"1460 White Oaks Rd","City":"Campbell","State":"CA","Zip":"95008"},{"Location":"FIRESTONE #598763","Address":"2120 Winchester Blvd","City":"Campbell","State":"CA","Zip":"95008"},{"Location":"FOREVER YOUNG","Address":"3333 S Bascom Ave","City":"Campbell","State":"CA","Zip":"95008"},{"Location":"FURUSATO SUSHI","Address":"1651 W Campbell Ave","City":"Campbell","State":"CA","Zip":"95008"},{"Location":"GAGLIARDI INSURANCE SERVICES","Address":"2380 S Bascom Ave 100","City":"Campbell","State":"CA","Zip":"95008"},{"Location":"GOLD'S GYM #75","Address":"700 W Hamilton Ave","City":"Campbell","State":"CA","Zip":"95008"},{"Location":"GOLDEN AUTO CARE","Address":"1386 White Oaks Rd B","City":"Campbell","State":"CA","Zip":"95008"},{"Location":"GRILL EM","Address":"2509 S Bascom Ave","City":"Campbell","State":"CA","Zip":"95008"},{"Location":"GROUPWARE TECHNOLOGY","Address":"511 Division St","City":"Campbell","State":"CA","Zip":"95008"},{"Location":"HARDTKE WORLD OF BASEBALL%2CLLC","Address":"610 E Hamilton Ave","City":"Campbell","State":"CA","Zip":"95008"},{"Location":"HASH HOUSE LLC","Address":"851 W Hamilton Ave","City":"Campbell","State":"CA","Zip":"95008"},{"Location":"HOOTERS OF CAMPBELL","Address":"1555 S Bascom Ave","City":"Campbell","State":"CA","Zip":"95008"},{"Location":"HQ GLOBAL WORKPLACES","Address":"900 E Hamilton Ave 100","City":"Campbell","State":"CA","Zip":"95008"},{"Location":"HUMANA","Address":"910 E Hamilton Ave 500","City":"Campbell","State":"CA","Zip":"95008"},{"Location":"IMAGES AUTOBODY","Address":"216 Cristich Ln","City":"Campbell","State":"CA","Zip":"95008"},{"Location":"J MOLLO & SONS%2C INC","Address":"2388 S Bascom Ave","City":"Campbell","State":"CA","Zip":"95008"},{"Location":"JALISCO MEXICAN FOOD","Address":"525 E Campbell Ave","City":"Campbell","State":"CA","Zip":"95008"},{"Location":"JESSEE BROTHERS MACHINE SHOP","Address":"1640 Dell Ave","City":"Campbell","State":"CA","Zip":"95008"},{"Location":"K AND F AUTO","Address":"203 Kennedy Ave A","City":"Campbell","State":"CA","Zip":"95008"},{"Location":"KHARTOUM","Address":"300 Orchard City Dr","City":"Campbell","State":"CA","Zip":"95008"},{"Location":"KLEIN KONO  DMD INC","Address":"2020 S Bascom Ave","City":"Campbell","State":"CA","Zip":"95008"},{"Location":"KOHL'S #977","Address":"525 E Hamilton Ave","City":"Campbell","State":"CA","Zip":"95008"},{"Location":"Komatsu Japanese Cuisine","Address":"300 Orchard City Dr","City":"Campbell","State":"CA","Zip":"95008"},{"Location":"KOMATSU JAPANESE CUISINE","Address":"300 Orchard City Dr 110","City":"Campbell","State":"CA","Zip":"95008"},{"Location":"KYOTO PALACE","Address":"1875 S Bascom Ave 2500","City":"Campbell","State":"CA","Zip":"95008"},{"Location":"LAUNDERLUX%2C LLC","Address":"2513 Winchester Blvd","City":"Campbell","State":"CA","Zip":"95008"},{"Location":"LAYERS   LLC","Address":"1875 S Bascom Ave 405","City":"Campbell","State":"CA","Zip":"95008"},{"Location":"LEGACY III CAMPBELL","Address":"910 E Hamilton Ave 250","City":"Campbell","State":"CA","Zip":"95008"},{"Location":"LITTLE LOUS BBQ","Address":"2455 Winchester Blvd","City":"Campbell","State":"CA","Zip":"95008"},{"Location":"MARCUS ADAMS OPA 1","Address":"276 E Campbell Ave","City":"Campbell","State":"CA","Zip":"95008"},{"Location":"MEDICAL OBSTETRIX GROUP","Address":"900 E Hamilton Ave 220","City":"Campbell","State":"CA","Zip":"95008"},{"Location":"MIDAS 1742","Address":"1236 White Oaks Rd","City":"Campbell","State":"CA","Zip":"95008"},{"Location":"MOS TBJ","Address":"278 E Campbell Ave","City":"Campbell","State":"CA","Zip":"95008"},{"Location":"MOSS ADAMS LLP","Address":"635 Campbell Technology Pkwy 100","City":"Campbell","State":"CA","Zip":"95008"},{"Location":"MOUNTAIN MIKES PIZZA","Address":"301 E Hamilton Ave","City":"Campbell","State":"CA","Zip":"95008"},{"Location":"NCPCC","Address":"2165 S Bascom Ave A","City":"Campbell","State":"CA","Zip":"95008"},{"Location":"NEW JERSEY'S","Address":"923 W Hamilton Ave","City":"Campbell","State":"CA","Zip":"95008"},{"Location":"OFF THE HOOK REST. & LOUNGE","Address":"2369 Winchester Blvd","City":"Campbell","State":"CA","Zip":"95008"},{"Location":"OM   INC","Address":"201 E Campbell Ave","City":"Campbell","State":"CA","Zip":"95008"},{"Location":"ON SITE MANAGER INC","Address":"307 Orchard City Dr 310","City":"Campbell","State":"CA","Zip":"95008"},{"Location":"OUTBACK STEAKHOUSE #0516","Address":"1887 S Bascom Ave","City":"Campbell","State":"CA","Zip":"95008"},{"Location":"PENTECT FINANCIAL SERVICES INC","Address":"240 E Hacienda Ave 100","City":"Campbell","State":"CA","Zip":"95008"},{"Location":"POST 99","Address":"1344 Dell Ave","City":"Campbell","State":"CA","Zip":"95008"},{"Location":"PUPUSERIA LOS DUBON","Address":"1546 Camden Ave","City":"Campbell","State":"CA","Zip":"95008"},{"Location":"READ ANIMAL HOSPITAL","Address":"1657 S Bascom Ave","City":"Campbell","State":"CA","Zip":"95008"},{"Location":"RETINAL DIAGNOSTIC CENTER","Address":"3395 S Bascom Ave 140","City":"Campbell","State":"CA","Zip":"95008"},{"Location":"RICE AND NOODLES","Address":"930 W Hamilton Ave 110","City":"Campbell","State":"CA","Zip":"95008"},{"Location":"RICH ENTERPRISES","Address":"1092 Florence Way","City":"Campbell","State":"CA","Zip":"95008"},{"Location":"ROBERT PUTNAM CONSTR","Address":"1660 Dell Ave","City":"Campbell","State":"CA","Zip":"95008"},{"Location":"ROCK BOTTOM #1069","Address":"1875 S Bascom Ave","City":"Campbell","State":"CA","Zip":"95008"},{"Location":"ROSANELLI MEDICAL","Address":"50 E Hamilton Ave","City":"Campbell","State":"CA","Zip":"95008"},{"Location":"RUNNING REVOLUTION","Address":"511 E Campbell Ave","City":"Campbell","State":"CA","Zip":"95008"},{"Location":"SAMS BEAUTY SUPPLY","Address":"1764 Winchester Blvd","City":"Campbell","State":"CA","Zip":"95008"},{"Location":"SAN JOSE CAMERA","Address":"1600 S Winchester Blvd","City":"Campbell","State":"CA","Zip":"95008"},{"Location":"SATO JAPANESE CUISINE","Address":"330 E Hamilton Ave 7","City":"Campbell","State":"CA","Zip":"95008"},{"Location":"SCOTTRADE L04","Address":"509 E Hamilton Ave 3","City":"Campbell","State":"CA","Zip":"95008"},{"Location":"SHINN AND SONS","Address":"2080 S Bascom Ave","City":"Campbell","State":"CA","Zip":"95008"},{"Location":"SONOMA CHICKEN COOP","Address":"200 E Campbell Ave","City":"Campbell","State":"CA","Zip":"95008"},{"Location":"SORELLE ITALIAN BISTRO","Address":"915 S San Tomas Aquino Rd","City":"Campbell","State":"CA","Zip":"95008"},{"Location":"SOUTH BAY CONSTRUCTION","Address":"1711 Dell Ave","City":"Campbell","State":"CA","Zip":"95008"},{"Location":"STATE FARM","Address":"2190 S Bascom Ave","City":"Campbell","State":"CA","Zip":"95008"},{"Location":"STEAMLINE AUTO BODY","Address":"261 E Mcglincy Ln","City":"Campbell","State":"CA","Zip":"95008"},{"Location":"SUSHI CONFIDENTIAL","Address":"247 E Campbell Ave","City":"Campbell","State":"CA","Zip":"95008"},{"Location":"SUSHI ZONO JAPANESE RESTAURANT","Address":"831 W Hamilton Ave","City":"Campbell","State":"CA","Zip":"95008"},{"Location":"SYNIVERSE TECHNOLOGIES","Address":"900 E Hamilton Ave 608","City":"Campbell","State":"CA","Zip":"95008"},{"Location":"TACTX  %2FMEDICAL PRODUXX INC","Address":"1353 Dell Ave","City":"Campbell","State":"CA","Zip":"95008"},{"Location":"TD AMERITRADE #05047","Address":"423 E Hamilton Ave","City":"Campbell","State":"CA","Zip":"95008"},{"Location":"THE BEAUTY BAR CAMPBELL","Address":"2002 White Oaks Rd 2","City":"Campbell","State":"CA","Zip":"95008"},{"Location":"THE GARRET","Address":"1777 S Bascom Ave E","City":"Campbell","State":"CA","Zip":"95008"},{"Location":"THE MENTOR NETWORK","Address":"1750 Westmont Ave","City":"Campbell","State":"CA","Zip":"95008"},{"Location":"THE ORIGINAL HICK'RY PIT","Address":"980 E Campbell Ave","City":"Campbell","State":"CA","Zip":"95008"},{"Location":"THE SPOT DOWNTOWN","Address":"201 Orchard City Dr","City":"Campbell","State":"CA","Zip":"95008"},{"Location":"UNO MAS","Address":"1640 S Bascom Ave","City":"Campbell","State":"CA","Zip":"95008"},{"Location":"VIDEO CLARITY","Address":"1566 La Pradera Dr","City":"Campbell","State":"CA","Zip":"95008"},{"Location":"WEALTH DESIGN","Address":"1999 S Bascom Ave 530","City":"Campbell","State":"CA","Zip":"95008"},{"Location":"WEST VALLEY AUTO TECH","Address":"180 Kennedy Ave","City":"Campbell","State":"CA","Zip":"95008"},{"Location":"WEST VALLEY CO INC","Address":"580 E Mcglincy Ln","City":"Campbell","State":"CA","Zip":"95008"},{"Location":"WEST VALLEY CONSTRUCTION CO IN","Address":"580 E Mcglincey Ln","City":"Campbell","State":"CA","Zip":"95008"}]