[{"Location":"CARDINALE MOVING STORAGE","Address":"11360 Commercial Pkwy","City":"Castroville","State":"CA","Zip":"95012"},{"Location":"ECKARD COMMERCIAL CONSTRUCTION","Address":"15037 Meridian Rd","City":"Castroville","State":"CA","Zip":"95012"},{"Location":"FRANCOS","Address":"10639 Merritt St","City":"Castroville","State":"CA","Zip":"95012"},{"Location":"GIANT ARTICHOKE RESTAURA","Address":"11261 Merritt St","City":"Castroville","State":"CA","Zip":"95012"},{"Location":"HANABI","Address":"11276 Merritt St","City":"Castroville","State":"CA","Zip":"95012"},{"Location":"MARISCOS NAYARITA","Address":"10624 Merritt St","City":"Castroville","State":"CA","Zip":"95012"},{"Location":"NORTH COUNTY RECREATION","Address":"11261 Crane St","City":"Castroville","State":"CA","Zip":"95012"},{"Location":"PACIFIC PROPANE","Address":"11520 Commercial Pkwy","City":"Castroville","State":"CA","Zip":"95012"},{"Location":"PETTIGREW AUTO PARTS","Address":"10865 Merritt St","City":"Castroville","State":"CA","Zip":"95012"},{"Location":"PURE WATER BOTTLING","Address":"11265 Commercial Pkwy","City":"Castroville","State":"CA","Zip":"95012"},{"Location":"ROUND TABLE PIZZA","Address":"11250 Merritt St","City":"Castroville","State":"CA","Zip":"95012"},{"Location":"VIRRIERIA RESTARAUNT","Address":"10500 Merritt St","City":"Castroville","State":"CA","Zip":"95012"},{"Location":"CARDINALE MOVING STORAGE","Address":"11360 Commercial Pkwy","City":"Castroville","State":"CA","Zip":"95012"},{"Location":"ECKARD COMMERCIAL CONSTRUCTION","Address":"15037 Meridian Rd","City":"Castroville","State":"CA","Zip":"95012"},{"Location":"FRANCOS","Address":"10639 Merritt St","City":"Castroville","State":"CA","Zip":"95012"},{"Location":"GIANT ARTICHOKE RESTAURA","Address":"11261 Merritt St","City":"Castroville","State":"CA","Zip":"95012"},{"Location":"HANABI","Address":"11276 Merritt St","City":"Castroville","State":"CA","Zip":"95012"},{"Location":"MARISCOS NAYARITA","Address":"10624 Merritt St","City":"Castroville","State":"CA","Zip":"95012"},{"Location":"NORTH COUNTY RECREATION","Address":"11261 Crane St","City":"Castroville","State":"CA","Zip":"95012"},{"Location":"PACIFIC PROPANE","Address":"11520 Commercial Pkwy","City":"Castroville","State":"CA","Zip":"95012"},{"Location":"PETTIGREW AUTO PARTS","Address":"10865 Merritt St","City":"Castroville","State":"CA","Zip":"95012"},{"Location":"PURE WATER BOTTLING","Address":"11265 Commercial Pkwy","City":"Castroville","State":"CA","Zip":"95012"},{"Location":"ROUND TABLE PIZZA","Address":"11250 Merritt St","City":"Castroville","State":"CA","Zip":"95012"},{"Location":"VIRRIERIA RESTARAUNT","Address":"10500 Merritt St","City":"Castroville","State":"CA","Zip":"95012"}]