[{"Location":"BAY FEDERAL CREDIT UNION","Address":"3333 Clares St","City":"Capitola","State":"CA","Zip":"95010"},{"Location":"BRITANIA ARMS PUB & REST","Address":"110 Monterey Ave","City":"Capitola","State":"CA","Zip":"95010"},{"Location":"BURGER KING","Address":"2001 41st Ave","City":"Capitola","State":"CA","Zip":"95010"},{"Location":"CABA WINE BAR","Address":"115 San Jose Ave","City":"Capitola","State":"CA","Zip":"95010"},{"Location":"CAPITOLA REALTY","Address":"4510 Capitola Rd","City":"Capitola","State":"CA","Zip":"95010"},{"Location":"CHILI'S #0670","Address":"1855 41st Ave E1","City":"Capitola","State":"CA","Zip":"95010"},{"Location":"CHW MEDICAL FOUNDATION","Address":"1820 41st Ave D","City":"Capitola","State":"CA","Zip":"95010"},{"Location":"CROWN CAFE DELI AND CATERING","Address":"3555 Clares St","City":"Capitola","State":"CA","Zip":"95010"},{"Location":"EL TORO BRAVO","Address":"123 Monterey Ave","City":"Capitola","State":"CA","Zip":"95010"},{"Location":"FAST EDDY'S BILLARDS","Address":"4300 Capitola Rd","City":"Capitola","State":"CA","Zip":"95010"},{"Location":"GOODYEAR 8724","Address":"3800 Capitola Rd","City":"Capitola","State":"CA","Zip":"95010"},{"Location":"IN SHAPE CLUBS CAPITOLA","Address":"1100 41st Ave","City":"Capitola","State":"CA","Zip":"95010"},{"Location":"INN AT DEPOT HILL","Address":"250 Monterey Ave","City":"Capitola","State":"CA","Zip":"95010"},{"Location":"KOHL'S #1358","Address":"1855 41st Ave","City":"Capitola","State":"CA","Zip":"95010"},{"Location":"MACY'S WEST 364 BR","Address":"1865 41st Ave","City":"Capitola","State":"CA","Zip":"95010"},{"Location":"MARGARITAVILLE","Address":"231 Esplanade 101","City":"Capitola","State":"CA","Zip":"95010"},{"Location":"MAXXDOGG  INC.","Address":"209 Esplanade A","City":"Capitola","State":"CA","Zip":"95010"},{"Location":"MEN'S WEARHOUSE #2180","Address":"2145 41st Ave","City":"Capitola","State":"CA","Zip":"95010"},{"Location":"PARADISE BEACH GRILL","Address":"215 Esplanade","City":"Capitola","State":"CA","Zip":"95010"},{"Location":"PIZZA MY HEART","Address":"2180 41st Ave","City":"Capitola","State":"CA","Zip":"95010"},{"Location":"RESTAURANT CAPITOLA DINE","Address":"1900 41st Ave","City":"Capitola","State":"CA","Zip":"95010"},{"Location":"SANTA CRUZ COUNTY VET CE","Address":"1350 41st Ave 104","City":"Capitola","State":"CA","Zip":"95010"},{"Location":"SANTA CRUZ ORTHOPEDIC","Address":"4140 Jade St 100","City":"Capitola","State":"CA","Zip":"95010"},{"Location":"SATELLITE DIALYSIS","Address":"3801 Clares St","City":"Capitola","State":"CA","Zip":"95010"},{"Location":"STOCKTON BRIDGE GRILL","Address":"231 Esplanade 102","City":"Capitola","State":"CA","Zip":"95010"},{"Location":"SUBARU OF SANTA CRUZ","Address":"4100 Auto Plaza Dr","City":"Capitola","State":"CA","Zip":"95010"},{"Location":"SUNSET HOSPITALITY GROUP","Address":"231 Esplanade 101","City":"Capitola","State":"CA","Zip":"95010"},{"Location":"SUSHI GARDENS","Address":"820 Bay Ave 148","City":"Capitola","State":"CA","Zip":"95010"},{"Location":"TAKARA JAPANEESE RESTAURANT","Address":"3775 Capitola Rd","City":"Capitola","State":"CA","Zip":"95010"},{"Location":"THE ANGLER'S CHOICE TACKLE SHO","Address":"1203 41st Ave","City":"Capitola","State":"CA","Zip":"95010"},{"Location":"TOYOTA OF SANTA CRUZ","Address":"4200 Auto Plaza Dr","City":"Capitola","State":"CA","Zip":"95010"},{"Location":"TOYOTA OF SANTA CRUZ","Address":"4400 Auto Plaza Dr","City":"Capitola","State":"CA","Zip":"95010"},{"Location":"UNION BANK 190","Address":"601 Bay Ave","City":"Capitola","State":"CA","Zip":"95010"},{"Location":"VILLAGE HOST PIZZA LLC","Address":"819 Bay Ave C","City":"Capitola","State":"CA","Zip":"95010"},{"Location":"WEST-LINK INC","Address":"331 Capitola Ave","City":"Capitola","State":"CA","Zip":"95010"},{"Location":"WHARF HOUSE","Address":"1400 Wharf Rd B","City":"Capitola","State":"CA","Zip":"95010"},{"Location":"ZELDA'S","Address":"203 Esplanade","City":"Capitola","State":"CA","Zip":"95010"}]