[{"Location":"212NEW YORK PIZZA","Address":"19998 Homestead Rd","City":"Cupertino","State":"CA","Zip":"95014"},{"Location":"AJITO","Address":"7335 Bollinger Rd C","City":"Cupertino","State":"CA","Zip":"95014"},{"Location":"AMF LANES CUPERTINO","Address":"10123 N Wolfe Rd","City":"Cupertino","State":"CA","Zip":"95014"},{"Location":"APPLE","Address":"20730 Valley Green Dr","City":"Cupertino","State":"CA","Zip":"95014"},{"Location":"APPLE  INC.","Address":"3 Infinite Loop","City":"Cupertino","State":"CA","Zip":"95014"},{"Location":"APPLE  INC.","Address":"1 Infinite Loop 3","City":"Cupertino","State":"CA","Zip":"95014"},{"Location":"APPLE  INC.","Address":"18920 Forge Dr","City":"Cupertino","State":"CA","Zip":"95014"},{"Location":"APPLE - SC08 FITNESS CTR","Address":"5409 Stevens Creek Blvd Sc08","City":"Cupertino","State":"CA","Zip":"95014"},{"Location":"APPLE COMPUTER","Address":"10300 N Tantau Ave","City":"Cupertino","State":"CA","Zip":"95014"},{"Location":"APPLE COMPUTER","Address":"10629 Bandley Dr","City":"Cupertino","State":"CA","Zip":"95014"},{"Location":"APPLE COMPUTER INC","Address":"10431 N De Anza Blvd 3rdfl","City":"Cupertino","State":"CA","Zip":"95014"},{"Location":"APPLE COMPUTER INC","Address":"1 Infinite Loop","City":"Cupertino","State":"CA","Zip":"95014"},{"Location":"APPLE COMPUTER INC.","Address":"1 Infinite Loop Ms","City":"Cupertino","State":"CA","Zip":"95014"},{"Location":"APPLE INC","Address":"10495 Bandley Dr","City":"Cupertino","State":"CA","Zip":"95014"},{"Location":"APPLE INC","Address":"20605 Valley Green Dr","City":"Cupertino","State":"CA","Zip":"95014"},{"Location":"APPLE INC","Address":"20400 Mariani Ave","City":"Cupertino","State":"CA","Zip":"95014"},{"Location":"APPLE INC","Address":"1 Infinite Loop","City":"Cupertino","State":"CA","Zip":"95014"},{"Location":"APPLE INC.","Address":"20300 Stevens Creek Blvd","City":"Cupertino","State":"CA","Zip":"95014"},{"Location":"APPLE INC.","Address":"10200 N Tantau Ave","City":"Cupertino","State":"CA","Zip":"95014"},{"Location":"APPLE LEGAL","Address":"20330 Stevens Creek Blvd","City":"Cupertino","State":"CA","Zip":"95014"},{"Location":"APPLE WELLNESS","Address":"16 Results Way","City":"Cupertino","State":"CA","Zip":"95014"},{"Location":"ARMADILLO WILLY'S","Address":"10100 So Deanza Blvd","City":"Cupertino","State":"CA","Zip":"95014"},{"Location":"ARTISTIC DENTAL LAB","Address":"20311 Stevens Creek Blvd 1b","City":"Cupertino","State":"CA","Zip":"95014"},{"Location":"BAY CLUB SILICON VALLEY","Address":"10101 N Wolfe Rd 100","City":"Cupertino","State":"CA","Zip":"95014"},{"Location":"BENIHANA #1022 CUPERTINO","Address":"10123 N Wolfe Rd 2074","City":"Cupertino","State":"CA","Zip":"95014"},{"Location":"BJS RESTAURANT #425","Address":"10690 N De Anza Blvd","City":"Cupertino","State":"CA","Zip":"95014"},{"Location":"BLUE LIGHT CINEMAS","Address":"21275 Stevens Creek Blvd","City":"Cupertino","State":"CA","Zip":"95014"},{"Location":"CALIFORNIA DENTAL ARTS","Address":"20421 Pacifica Dr","City":"Cupertino","State":"CA","Zip":"95014"},{"Location":"CITY OF CUPERTINO","Address":"10300 Torre Ave","City":"Cupertino","State":"CA","Zip":"95014"},{"Location":"CORINTHIAN INTL PARKING SRVC I","Address":"19925 Stevens Creek Blvd 126","City":"Cupertino","State":"CA","Zip":"95014"},{"Location":"CUPERTINO INN","Address":"10889 N De Anza Blvd","City":"Cupertino","State":"CA","Zip":"95014"},{"Location":"DEMAYO RESTAURANT GROUP INC","Address":"19620 Stevens Creek Blvd 190","City":"Cupertino","State":"CA","Zip":"95014"},{"Location":"DUCATI NORTH AMERICA","Address":"10443 Bandley Dr","City":"Cupertino","State":"CA","Zip":"95014"},{"Location":"DUKE OF EDINBURGH","Address":"10801 N Wolfe Rd","City":"Cupertino","State":"CA","Zip":"95014"},{"Location":"DYNASTY CHINESE SEAFOOD","Address":"10123 N Wolfe Rd 1688","City":"Cupertino","State":"CA","Zip":"95014"},{"Location":"E-TRADE FINANCIAL","Address":"10200 N De Anza Blvd","City":"Cupertino","State":"CA","Zip":"95014"},{"Location":"EKIM PAINTING","Address":"10200 Imperial Ave","City":"Cupertino","State":"CA","Zip":"95014"},{"Location":"ELEPHANT BAR CUPERTINO","Address":"19780 Stevens Creek Blvd","City":"Cupertino","State":"CA","Zip":"95014"},{"Location":"ESPRESSO ROMA","Address":"10123 N Wolfe Rd","City":"Cupertino","State":"CA","Zip":"95014"},{"Location":"FIRST REPUBLIC BANK","Address":"10297 S De Anza Blvd","City":"Cupertino","State":"CA","Zip":"95014"},{"Location":"FLIGHT WINE AND FOOD","Address":"20333 Stevens Creek Blvd","City":"Cupertino","State":"CA","Zip":"95014"},{"Location":"FLORENTINES RESTAURANT","Address":"10275 S Bianca Blvd","City":"Cupertino","State":"CA","Zip":"95014"},{"Location":"FONTANAS","Address":"20840 Stevens Creek Blvd","City":"Cupertino","State":"CA","Zip":"95014"},{"Location":"GOODYEAR 8773","Address":"10931 N De Anza Blvd","City":"Cupertino","State":"CA","Zip":"95014"},{"Location":"GUMBAS","Address":"21678 Stevens Creek Blvd","City":"Cupertino","State":"CA","Zip":"95014"},{"Location":"ISLANDS RESTAURANT","Address":"20750 Stevens Creek Blvd","City":"Cupertino","State":"CA","Zip":"95014"},{"Location":"JC PENNY CUPERTINO","Address":"10150 N Wolfe Rd","City":"Cupertino","State":"CA","Zip":"95014"},{"Location":"JOY LUCK PALACE","Address":"10911 N Wolfe Rd","City":"Cupertino","State":"CA","Zip":"95014"},{"Location":"KIKU SUSHI","Address":"1655 S De Anza Blvd 7","City":"Cupertino","State":"CA","Zip":"95014"},{"Location":"L EPI D OR BAKERY","Address":"19675 Stevens Creek Blvd","City":"Cupertino","State":"CA","Zip":"95014"},{"Location":"LIANGS KITCHEN","Address":"19772 Stevens Creek Blvd","City":"Cupertino","State":"CA","Zip":"95014"},{"Location":"MA RESTAURANT","Address":"10885 N Wolfe Rd","City":"Cupertino","State":"CA","Zip":"95014"},{"Location":"MACY'S WEST 341 BR","Address":"10333 N Wolfe Rd","City":"Cupertino","State":"CA","Zip":"95014"},{"Location":"MARRIOTT SAN JOSE CUPERTINO","Address":"10605 N Wolfe Rd","City":"Cupertino","State":"CA","Zip":"95014"},{"Location":"MERLION","Address":"19628 Stevens Creek Blvd","City":"Cupertino","State":"CA","Zip":"95014"},{"Location":"MORGAN STANLEY 100128","Address":"20400 Stevens Creek Blvd 350","City":"Cupertino","State":"CA","Zip":"95014"},{"Location":"OM INC","Address":"10630 S De Anza Blvd","City":"Cupertino","State":"CA","Zip":"95014"},{"Location":"OUTBACK STEAKHOUSE #0514","Address":"20630 Valley Green Dr","City":"Cupertino","State":"CA","Zip":"95014"},{"Location":"PACIFIC BUSINESS CENTER","Address":"19925 Stevens Creek Blvd","City":"Cupertino","State":"CA","Zip":"95014"},{"Location":"PACIFIC GAS AND ELECTRIC","Address":"10900 N Blaney Ave","City":"Cupertino","State":"CA","Zip":"95014"},{"Location":"PACIFIC GAS AND ELECTRIC 2","Address":"10900 N Blaney Ave","City":"Cupertino","State":"CA","Zip":"95014"},{"Location":"PACIFIC GAS AND ELECTRIC CUPER","Address":"10900 N Blaney Ave","City":"Cupertino","State":"CA","Zip":"95014"},{"Location":"PARK PLACE RESTAURANT","Address":"10030 S De Anza Blvd Peggy","City":"Cupertino","State":"CA","Zip":"95014"},{"Location":"PASSION NAIL & SPA","Address":"21646 Stevens Creek Blvd","City":"Cupertino","State":"CA","Zip":"95014"},{"Location":"PAUL & EDDIE'S MONTA VISTA INN","Address":"21619 Stevens Creek Blvd","City":"Cupertino","State":"CA","Zip":"95014"},{"Location":"PIZZA HUT -CUPERTINO","Address":"20770 Stevens Creek Blvd","City":"Cupertino","State":"CA","Zip":"95014"},{"Location":"SATELLITE W. SAN JOSE 2","Address":"10590 N Tantau Ave","City":"Cupertino","State":"CA","Zip":"95014"},{"Location":"SATELLITE WEST SAN JOSE","Address":"10590 Tantau Ave","City":"Cupertino","State":"CA","Zip":"95014"},{"Location":"SCION CAPITOL","Address":"20400 Stevens Creek Blvd 840","City":"Cupertino","State":"CA","Zip":"95014"},{"Location":"SCOTTRADE H04","Address":"19690 Stevens Creek Blvd","City":"Cupertino","State":"CA","Zip":"95014"},{"Location":"SMOKEEATERS","Address":"10650 S De Anza Blvd","City":"Cupertino","State":"CA","Zip":"95014"},{"Location":"SPLUNK 2 INC","Address":"20400 Stevens Creek Blvd","City":"Cupertino","State":"CA","Zip":"95014"},{"Location":"SPLUNK INC","Address":"20400 Stevens Creek Blvd 750","City":"Cupertino","State":"CA","Zip":"95014"},{"Location":"SUNNYVALE ROD AND GUN CLUB","Address":"11998 Stevens Canyon Rd","City":"Cupertino","State":"CA","Zip":"95014"},{"Location":"SUPERCUTS","Address":"20735 Stevens Creek Blvd F","City":"Cupertino","State":"CA","Zip":"95014"},{"Location":"TARGET STORE #323","Address":"20745 Stevens Creek Blvd","City":"Cupertino","State":"CA","Zip":"95014"},{"Location":"TATAMI BUFFET","Address":"10123 N Wolfe Rd 2001","City":"Cupertino","State":"CA","Zip":"95014"},{"Location":"TD AMERITRADE #05013","Address":"19240 Stevens Creek Blvd","City":"Cupertino","State":"CA","Zip":"95014"},{"Location":"TGI FRIDAY'S #1063","Address":"10343 N Wolfe Rd","City":"Cupertino","State":"CA","Zip":"95014"},{"Location":"THE VILLAGES AT CUPERTINO","Address":"20875 Valley Green Dr","City":"Cupertino","State":"CA","Zip":"95014"},{"Location":"UNTRITION INC","Address":"10935 W Wolfe Rd","City":"Cupertino","State":"CA","Zip":"95014"},{"Location":"US HEALTHWORKS","Address":"10050 Bubb Rd 3","City":"Cupertino","State":"CA","Zip":"95014"},{"Location":"WHOLEFOODS","Address":"20955 Stevens Creek Blvd","City":"Cupertino","State":"CA","Zip":"95014"},{"Location":"YMCA NORTHWEST","Address":"20803 Alves Dr","City":"Cupertino","State":"CA","Zip":"95014"}]