[{"Location":"CENTRAL COAST SLEEP DISO","Address":"150 Carnation Dr 4","City":"Freedom","State":"CA","Zip":"95019"},{"Location":"DONUT BASKET","Address":"2022 Freedom Blvd","City":"Freedom","State":"CA","Zip":"95019"},{"Location":"NARCONON OF NORTHERN CA1","Address":"120 Fuchsia Ct","City":"Freedom","State":"CA","Zip":"95019"},{"Location":"PASILLAS TIRE SERVICE","Address":"92 Airport Blvd","City":"Freedom","State":"CA","Zip":"95019"},{"Location":"STRAW HAT PIZZA","Address":"2026 Freedom Blvd","City":"Freedom","State":"CA","Zip":"95019"},{"Location":"TAQUERIA MI TIERRE","Address":"1726 Freedom Blvd","City":"Freedom","State":"CA","Zip":"95019"},{"Location":"WOODEN NICLKE BAR&GRILLE","Address":"1819 Freedom Blvd","City":"Freedom","State":"CA","Zip":"95019"},{"Location":"CENTRAL COAST SLEEP DISO","Address":"150 Carnation Dr 4","City":"Freedom","State":"CA","Zip":"95019"},{"Location":"DONUT BASKET","Address":"2022 Freedom Blvd","City":"Freedom","State":"CA","Zip":"95019"},{"Location":"NARCONON OF NORTHERN CA1","Address":"120 Fuchsia Ct","City":"Freedom","State":"CA","Zip":"95019"},{"Location":"PASILLAS TIRE SERVICE","Address":"92 Airport Blvd","City":"Freedom","State":"CA","Zip":"95019"},{"Location":"STRAW HAT PIZZA","Address":"2026 Freedom Blvd","City":"Freedom","State":"CA","Zip":"95019"},{"Location":"TAQUERIA MI TIERRE","Address":"1726 Freedom Blvd","City":"Freedom","State":"CA","Zip":"95019"},{"Location":"WOODEN NICLKE BAR&GRILLE","Address":"1819 Freedom Blvd","City":"Freedom","State":"CA","Zip":"95019"}]