[{"Location":"BLOSSOM NAILS & SPA","Address":"341 Tres Pinos Rd 106","City":"Hollister","State":"CA","Zip":"95023"},{"Location":"CHAMBERLAINS CHILDREN CE","Address":"1850 San Benito St","City":"Hollister","State":"CA","Zip":"95023"},{"Location":"CHEAP SEATS","Address":"427 San Benito St","City":"Hollister","State":"CA","Zip":"95023"},{"Location":"DABO FINANCIAL","Address":"801 San Benito St 1","City":"Hollister","State":"CA","Zip":"95023"},{"Location":"DICKEYS BBQ PIT 1","Address":"551 Mccray St","City":"Hollister","State":"CA","Zip":"95023"},{"Location":"DISCOUNT FURTINURE STORE","Address":"544 San Benito St 101","City":"Hollister","State":"CA","Zip":"95023"},{"Location":"DR LE   DDS","Address":"889 Sunset Dr A","City":"Hollister","State":"CA","Zip":"95023"},{"Location":"DUNNEVILLE RESTAURANT","Address":"5970 San Felipe Rd","City":"Hollister","State":"CA","Zip":"95023"},{"Location":"FOCUS HEALTH SERVICES","Address":"101 Mccray St 108","City":"Hollister","State":"CA","Zip":"95023"},{"Location":"GREENWOOD CHEVROLET","Address":"270 San Felipe Rd","City":"Hollister","State":"CA","Zip":"95023"},{"Location":"GRILLIN CHILLIN INC","Address":"650 San Benito St 110","City":"Hollister","State":"CA","Zip":"95023"},{"Location":"HAZEL HAWKINS HOSPITAL","Address":"321 1st St","City":"Hollister","State":"CA","Zip":"95023"},{"Location":"HAZEL HAWKINS HOSPITAL","Address":"591 Mccray St 111","City":"Hollister","State":"CA","Zip":"95023"},{"Location":"HAZEL HAWKINS HOSPITAL MULTI","Address":"890 Sunset Dr A","City":"Hollister","State":"CA","Zip":"95023"},{"Location":"HILLTOP REALTY","Address":"193 Mccray St","City":"Hollister","State":"CA","Zip":"95023"},{"Location":"HOLISTER FIREFIGHTERS UNION","Address":"110 5th St","City":"Hollister","State":"CA","Zip":"95023"},{"Location":"HOLLISTER BASEBALL","Address":"281 San Felipe Rd E","City":"Hollister","State":"CA","Zip":"95023"},{"Location":"HOLLISTER BOXING GYM","Address":"320 Hillcrest Rd 108","City":"Hollister","State":"CA","Zip":"95023"},{"Location":"HOLLISTER HILLS BREWERY","Address":"401 Mccray St 24","City":"Hollister","State":"CA","Zip":"95023"},{"Location":"HOLLISTER POLICE DEPARTMENT","Address":"395 Apollo Way","City":"Hollister","State":"CA","Zip":"95023"},{"Location":"JAYLEAF LLC","Address":"3000 Cienega Rd","City":"Hollister","State":"CA","Zip":"95023"},{"Location":"JDM FOODS CORP LLC","Address":"800 San Benito St B","City":"Hollister","State":"CA","Zip":"95023"},{"Location":"JERRYS OF HOLLISTER","Address":"111 San Felipe Rd","City":"Hollister","State":"CA","Zip":"95023"},{"Location":"JOHNNY'S BAR AND GRILL","Address":"526 San Benito St","City":"Hollister","State":"CA","Zip":"95023"},{"Location":"K-MART HOLLISTER","Address":"491 Tres Tinos Rd","City":"Hollister","State":"CA","Zip":"95023"},{"Location":"LA CATRINA","Address":"449 San Benito St","City":"Hollister","State":"CA","Zip":"95023"},{"Location":"MAPLE LEAF  INVESTMENTS","Address":"1401 San Juan Rd","City":"Hollister","State":"CA","Zip":"95023"},{"Location":"MARGARITA S HAIR","Address":"1709 Airline Hwy","City":"Hollister","State":"CA","Zip":"95023"},{"Location":"MASTERS HOLDINGS GROUP","Address":"1760 Airline Hwy J","City":"Hollister","State":"CA","Zip":"95023"},{"Location":"MIRROR REFLEXIONS 1","Address":"401 San Benito St B","City":"Hollister","State":"CA","Zip":"95023"},{"Location":"MIYAKO JAPANESSE","Address":"321 San Felipe Rd 1","City":"Hollister","State":"CA","Zip":"95023"},{"Location":"MOUNTAIN MIKE'S PIZZA","Address":"261 Mccray St A","City":"Hollister","State":"CA","Zip":"95023"},{"Location":"OASIS","Address":"190 Maple St","City":"Hollister","State":"CA","Zip":"95023"},{"Location":"ONE PASS LLC","Address":"2440 Bert Dr 501-5","City":"Hollister","State":"CA","Zip":"95023"},{"Location":"PACIFIC GAS AND ELECTRIC","Address":"7th And Sally","City":"Hollister","State":"CA","Zip":"95023"},{"Location":"PAINES RESTAURANT","Address":"421 East St","City":"Hollister","State":"CA","Zip":"95023"},{"Location":"PHANTOM SERVICES INC","Address":"2560 San Juan Rd","City":"Hollister","State":"CA","Zip":"95023"},{"Location":"PIZZA HUT #028566","Address":"341 Tres Pinos Rd A2","City":"Hollister","State":"CA","Zip":"95023"},{"Location":"RELAX GRILLIN CHILLIN","Address":"3650 San Juan Rd","City":"Hollister","State":"CA","Zip":"95023"},{"Location":"RIDGEMARK GOLF & COUNTRY","Address":"3800 Airline Hwy","City":"Hollister","State":"CA","Zip":"95023"},{"Location":"ROSSI BROTHERS TIRE","Address":"90 San Felipe Rd","City":"Hollister","State":"CA","Zip":"95023"},{"Location":"SAN BENITO COUNTY JUVENILE","Address":"708 Flynn Rd","City":"Hollister","State":"CA","Zip":"95023"},{"Location":"STARZ BEAUTY SALON","Address":"525 San Benito St","City":"Hollister","State":"CA","Zip":"95023"},{"Location":"STRAW HAT PIZZA","Address":"191 San Felipe Rd","City":"Hollister","State":"CA","Zip":"95023"},{"Location":"SUPPER NOODLE","Address":"195 Meridian St A3","City":"Hollister","State":"CA","Zip":"95023"},{"Location":"TARGET","Address":"1897 Airline Hwy","City":"Hollister","State":"CA","Zip":"95023"},{"Location":"THE PEVETTI OCMPANYAA","Address":"330 Tres Pinos Rd B1","City":"Hollister","State":"CA","Zip":"95023"},{"Location":"TIP AND TOE SALON","Address":"1715 Airline Hwy 1","City":"Hollister","State":"CA","Zip":"95023"},{"Location":"TOVAR INDUSTRIES INC","Address":"1135 San Felipe Rd","City":"Hollister","State":"CA","Zip":"95023"},{"Location":"TRUCK AND SUV PARTS 1","Address":"700 Park Center Dr","City":"Hollister","State":"CA","Zip":"95023"},{"Location":"VEDANA AND COMPANY","Address":"330 Tres Pinos Rd","City":"Hollister","State":"CA","Zip":"95023"},{"Location":"VICTORIA'S ITALIAN DELL","Address":"1745 San Felipe Rd","City":"Hollister","State":"CA","Zip":"95023"},{"Location":"WEST COAST RUBBER RECYCLING","Address":"1501 Lana Way","City":"Hollister","State":"CA","Zip":"95023"},{"Location":"WEST MARINE PRODUCTS 2","Address":"2395 Bert Dr","City":"Hollister","State":"CA","Zip":"95023"},{"Location":"WHISKEY CREEK SALOON","Address":"201 5th St","City":"Hollister","State":"CA","Zip":"95023"}]