[{"Location":"AMERICAS BEST VALUE GILR","Address":"8292 Murray Ave","City":"Gilroy","State":"CA","Zip":"95020"},{"Location":"ANYTIME FITNESS","Address":"755 1st St","City":"Gilroy","State":"CA","Zip":"95020"},{"Location":"APPLEBEE'S GILROY #8975","Address":"8200 Arroyo Cir","City":"Gilroy","State":"CA","Zip":"95020"},{"Location":"BARBCUE 152","Address":"8295 Monterey St","City":"Gilroy","State":"CA","Zip":"95020"},{"Location":"BLACK BEAR DINER GILROY","Address":"395 Leavesley Rd","City":"Gilroy","State":"CA","Zip":"95020"},{"Location":"BURGER KING 2555","Address":"450 Leavesley Rd","City":"Gilroy","State":"CA","Zip":"95020"},{"Location":"CAFE 152","Address":"8401 Church St I","City":"Gilroy","State":"CA","Zip":"95020"},{"Location":"CAREMERIDIAN","Address":"11500 Center Ave","City":"Gilroy","State":"CA","Zip":"95020"},{"Location":"CAREMORE MED ENT","Address":"7888 Wren Ave C131","City":"Gilroy","State":"CA","Zip":"95020"},{"Location":"CARINO'S #1611","Address":"6805 Camino Arroyo","City":"Gilroy","State":"CA","Zip":"95020"},{"Location":"CASTRO VALLEY RANCH","Address":"2010 Castro Valley Rd","City":"Gilroy","State":"CA","Zip":"95020"},{"Location":"CHEVRON - CVN 000212","Address":"6001 Rossi Ln","City":"Gilroy","State":"CA","Zip":"95020"},{"Location":"CHEVY'S 2033","Address":"8440 Murray Ave","City":"Gilroy","State":"CA","Zip":"95020"},{"Location":"CHILI'S #0956","Address":"850 Renz Ln","City":"Gilroy","State":"CA","Zip":"95020"},{"Location":"CHRISTOPHER RANCH LLC","Address":"305 Bloomfield Ave","City":"Gilroy","State":"CA","Zip":"95020"},{"Location":"CINTAS CORPORATION","Address":"905 Holloway Rd","City":"Gilroy","State":"CA","Zip":"95020"},{"Location":"CLADDAGH GROUP LLC","Address":"1300 1st St A","City":"Gilroy","State":"CA","Zip":"95020"},{"Location":"CONTAINER CONSULTING SERVICE","Address":"455 Mayock Rd","City":"Gilroy","State":"CA","Zip":"95020"},{"Location":"DEABREU CREMATION AND FUNERAL","Address":"728 Renz Ln","City":"Gilroy","State":"CA","Zip":"95020"},{"Location":"DENNYS CORPORATION","Address":"8425 San Ysidro Ave","City":"Gilroy","State":"CA","Zip":"95020"},{"Location":"DICAR INSURANCE","Address":"6976 Chestnut St","City":"Gilroy","State":"CA","Zip":"95020"},{"Location":"DUTCHMANS PIZZA","Address":"6940 Chestnut St","City":"Gilroy","State":"CA","Zip":"95020"},{"Location":"EAGLE CALIBRATION INC","Address":"250 Nagareda Dr 3","City":"Gilroy","State":"CA","Zip":"95020"},{"Location":"EDWARD CHIANG CPA","Address":"8070 Santa Teresa Blvd 200","City":"Gilroy","State":"CA","Zip":"95020"},{"Location":"EDWIN TOGNETTI FARMS","Address":"4790 Monterey Hwy","City":"Gilroy","State":"CA","Zip":"95020"},{"Location":"EHSAN REZVAN DDS INC","Address":"7888 Wren Ave E120","City":"Gilroy","State":"CA","Zip":"95020"},{"Location":"EJ PIRES TRUCKING","Address":"731 Renz Ln","City":"Gilroy","State":"CA","Zip":"95020"},{"Location":"EL CHARRITO MARKET","Address":"7638 Monterey St","City":"Gilroy","State":"CA","Zip":"95020"},{"Location":"ELKS LODGE","Address":"2765 Hecker Pass Rd","City":"Gilroy","State":"CA","Zip":"95020"},{"Location":"ELLITE BARBERS","Address":"8401 Church St H","City":"Gilroy","State":"CA","Zip":"95020"},{"Location":"ESPRESSO ROMA2","Address":"8697 San Ysidro Ave","City":"Gilroy","State":"CA","Zip":"95020"},{"Location":"FAMOUS DAVE'S BBQ","Address":"6925 Camino Arroyo","City":"Gilroy","State":"CA","Zip":"95020"},{"Location":"FIRESTONE #122696","Address":"7930 Monterey St","City":"Gilroy","State":"CA","Zip":"95020"},{"Location":"FITNESS EVOLUTION","Address":"8540 Church St","City":"Gilroy","State":"CA","Zip":"95020"},{"Location":"FOREVER MY PET CREMATION","Address":"5945 Obata Way D","City":"Gilroy","State":"CA","Zip":"95020"},{"Location":"FRANKS BARBER SHOP","Address":"7330 Monterey St","City":"Gilroy","State":"CA","Zip":"95020"},{"Location":"GAETAS TAQUERIA","Address":"340 E 10th St","City":"Gilroy","State":"CA","Zip":"95020"},{"Location":"GARLIC CITY LIMOUSINE LLC","Address":"6550 Brem Ln D","City":"Gilroy","State":"CA","Zip":"95020"},{"Location":"GARLIC WORLD","Address":"4800 Monterey Rd","City":"Gilroy","State":"CA","Zip":"95020"},{"Location":"GAVILAN GOLF COURSE","Address":"5055 Santa Teresa Blvd","City":"Gilroy","State":"CA","Zip":"95020"},{"Location":"GILROY BOWL","Address":"7554 Monterey St","City":"Gilroy","State":"CA","Zip":"95020"},{"Location":"GILROY CHEVROLET CADILLA","Address":"6720 Bear Cat Ct","City":"Gilroy","State":"CA","Zip":"95020"},{"Location":"GILROY FIRE DEPT","Address":"7070 Chestnut St","City":"Gilroy","State":"CA","Zip":"95020"},{"Location":"GILROY HD","Address":"7210 Camino Arroyo 104","City":"Gilroy","State":"CA","Zip":"95020"},{"Location":"GILROY SPORTS TAVERN","Address":"7421 Monterey St","City":"Gilroy","State":"CA","Zip":"95020"},{"Location":"GILROY TOYOTA","Address":"6800 Chestnut St","City":"Gilroy","State":"CA","Zip":"95020"},{"Location":"GINGER CAFE1","Address":"8657 San Ysidro Ave","City":"Gilroy","State":"CA","Zip":"95020"},{"Location":"GOLD'S GYM GILROY","Address":"8795 San Ysidro Ave","City":"Gilroy","State":"CA","Zip":"95020"},{"Location":"HACIENDA MEXICAN RESTAURANT","Address":"1160 1st St","City":"Gilroy","State":"CA","Zip":"95020"},{"Location":"HEADSTAR NURSERY INC","Address":"4860 Monterey Rd","City":"Gilroy","State":"CA","Zip":"95020"},{"Location":"HEAVYS GRILL ON THE GREEN","Address":"2695 Hecker Pass Rd","City":"Gilroy","State":"CA","Zip":"95020"},{"Location":"HILTON GARDEN INN GILROY","Address":"6070 Monterey Rd","City":"Gilroy","State":"CA","Zip":"95020"},{"Location":"KB USED AUTO SALES","Address":"8655 Monterey St B","City":"Gilroy","State":"CA","Zip":"95020"},{"Location":"KENS SMOG TEST ONLY","Address":"275 Welburn Ave D","City":"Gilroy","State":"CA","Zip":"95020"},{"Location":"LEARNING SERVICES","Address":"10855 De Bruin Way A","City":"Gilroy","State":"CA","Zip":"95020"},{"Location":"LUFOS AUTO DETAILING","Address":"6468 Chestnut St","City":"Gilroy","State":"CA","Zip":"95020"},{"Location":"M.C. LLC STORE 1947","Address":"701 1st St","City":"Gilroy","State":"CA","Zip":"95020"},{"Location":"MAHS FURNITURE TRANSPORT","Address":"8851 Muraoka Dr B","City":"Gilroy","State":"CA","Zip":"95020"},{"Location":"MCDONALD CONCRETE","Address":"193 Leavesley Rd 100","City":"Gilroy","State":"CA","Zip":"95020"},{"Location":"MEINEKE CAR CARE CENTER","Address":"190 Welburn Ave","City":"Gilroy","State":"CA","Zip":"95020"},{"Location":"MR HONGS CHINESE FAST FO","Address":"1210 1st St","City":"Gilroy","State":"CA","Zip":"95020"},{"Location":"NIKE INC","Address":"8225 Arroyo Cir 21","City":"Gilroy","State":"CA","Zip":"95020"},{"Location":"NINJA SUSHI","Address":"715 1st St","City":"Gilroy","State":"CA","Zip":"95020"},{"Location":"ODS KITCHEN","Address":"28 Martin St","City":"Gilroy","State":"CA","Zip":"95020"},{"Location":"OLD CITY HALL RESTAURANT","Address":"7400 Monterey St","City":"Gilroy","State":"CA","Zip":"95020"},{"Location":"OLD TOWN THRIFT1","Address":"7377 Monterey St","City":"Gilroy","State":"CA","Zip":"95020"},{"Location":"PACHECL PASS MOTEL","Address":"570 Old Gilroy St","City":"Gilroy","State":"CA","Zip":"95020"},{"Location":"PINOCCHIOS PIZZA","Address":"8400 Church St","City":"Gilroy","State":"CA","Zip":"95020"},{"Location":"PIZZA HUT- GILROY","Address":"1171 1st St","City":"Gilroy","State":"CA","Zip":"95020"},{"Location":"PLAN PARENTHOOD MAR MONTE","Address":"760 Renz Ln","City":"Gilroy","State":"CA","Zip":"95020"},{"Location":"PULMUONE FOODS","Address":"5755 Rossi Ln","City":"Gilroy","State":"CA","Zip":"95020"},{"Location":"RABOBANK","Address":"801 1st St","City":"Gilroy","State":"CA","Zip":"95020"},{"Location":"RAMADA INN - GILROY","Address":"360 Leavesley Rd","City":"Gilroy","State":"CA","Zip":"95020"},{"Location":"RELIABLE CLEANING SOLUTIONS","Address":"8861b Muraoka Dr","City":"Gilroy","State":"CA","Zip":"95020"},{"Location":"ROADHOUSE JACK'S #5002","Address":"6945 Camino Arroyo","City":"Gilroy","State":"CA","Zip":"95020"},{"Location":"ROSSOS FURNITURE","Address":"6881 Monterey Rd","City":"Gilroy","State":"CA","Zip":"95020"},{"Location":"ROYAL KING EGGROLL","Address":"8610 San Ysidro Ave","City":"Gilroy","State":"CA","Zip":"95020"},{"Location":"ROYAL NAIL SPA","Address":"1130 1st St","City":"Gilroy","State":"CA","Zip":"95020"},{"Location":"SATELLITE DIALYSIS #2","Address":"7800 Arroyo Cir B","City":"Gilroy","State":"CA","Zip":"95020"},{"Location":"SATELLITE S COUNTY DIALYSIS","Address":"7800 Arroyo Carily B","City":"Gilroy","State":"CA","Zip":"95020"},{"Location":"SEVEN SPRINGS RANCH","Address":"2546 Butch Dr","City":"Gilroy","State":"CA","Zip":"95020"},{"Location":"SHAG SALON","Address":"64 5th St","City":"Gilroy","State":"CA","Zip":"95020"},{"Location":"SILVA SAUSAGE","Address":"5935 Rossi Ln","City":"Gilroy","State":"CA","Zip":"95020"},{"Location":"SOUTH COUNTY NISSAN","Address":"400 Stutz Way","City":"Gilroy","State":"CA","Zip":"95020"},{"Location":"SOUTH VALLEY TRUCK PARTS","Address":"6700 Brem Ln","City":"Gilroy","State":"CA","Zip":"95020"},{"Location":"SPORT CLIPS GILROY","Address":"890 Renz Ln 101","City":"Gilroy","State":"CA","Zip":"95020"},{"Location":"STRAW HAT PIZZA","Address":"1053 1st St","City":"Gilroy","State":"CA","Zip":"95020"},{"Location":"STUBBY'S SPORTS GRILL","Address":"707 1st St","City":"Gilroy","State":"CA","Zip":"95020"},{"Location":"SUSHI OMAKASE LLC","Address":"6905 Camino Arroyo 50","City":"Gilroy","State":"CA","Zip":"95020"},{"Location":"TACOS EL GRULLENSE JAL","Address":"1280 1st St A","City":"Gilroy","State":"CA","Zip":"95020"},{"Location":"TARGET","Address":"6705 Camino Arroyo","City":"Gilroy","State":"CA","Zip":"95020"},{"Location":"THE LONGHOUSE RESTURANT","Address":"8195 Monterey St","City":"Gilroy","State":"CA","Zip":"95020"},{"Location":"THE MILIAS RESTAURANT","Address":"7397 Monterey St","City":"Gilroy","State":"CA","Zip":"95020"},{"Location":"TOP TIP TOE SALON","Address":"1209 1st St","City":"Gilroy","State":"CA","Zip":"95020"},{"Location":"TOWN PLAZA BARBERS","Address":"8017 Wayland Ln","City":"Gilroy","State":"CA","Zip":"95020"},{"Location":"UNION BANK","Address":"8000 Santa Teresa Blvd","City":"Gilroy","State":"CA","Zip":"95020"},{"Location":"VICTORIAS","Address":"757 1st St","City":"Gilroy","State":"CA","Zip":"95020"},{"Location":"WAGONVILLE MOBILE VILLAGE","Address":"8282 Murray Ave","City":"Gilroy","State":"CA","Zip":"95020"},{"Location":"WEDGEWOOD CENTER","Address":"2951 Club Dr","City":"Gilroy","State":"CA","Zip":"95020"},{"Location":"WEST SIDE GRILL","Address":"8080 Santa Teresa Blvd 100","City":"Gilroy","State":"CA","Zip":"95020"},{"Location":"WESTSIDE MARKET AND LIQO","Address":"1340 1st St G","City":"Gilroy","State":"CA","Zip":"95020"},{"Location":"WING STOP","Address":"7171 Camino Arroyo 101","City":"Gilroy","State":"CA","Zip":"95020"}]