[{"Location":"24 HOUR FITNESS #533","Address":"850 Tennant Sta","City":"Morgan Hill","State":"CA","Zip":"95037"},{"Location":"88 KEYS CAFE","Address":"1295 E Dunne Ave 100","City":"Morgan Hill","State":"CA","Zip":"95037"},{"Location":"ABOVE IT ALL LLC","Address":"17105 Monterey Rd","City":"Morgan Hill","State":"CA","Zip":"95037"},{"Location":"ALLURE EVENTZ","Address":"16840 Joleen Way B1","City":"Morgan Hill","State":"CA","Zip":"95037"},{"Location":"ANRITSU COMPANY","Address":"450 Jarvis Dr E","City":"Morgan Hill","State":"CA","Zip":"95037"},{"Location":"ANYTIME FITNESS OF MORGAN HILL","Address":"795 Cochran Rd","City":"Morgan Hill","State":"CA","Zip":"95037"},{"Location":"BEACH HUT MORGAN HILL","Address":"810 Tennant Ave","City":"Morgan Hill","State":"CA","Zip":"95037"},{"Location":"BILL ARCHBOLD","Address":"17635 De Witt Ave","City":"Morgan Hill","State":"CA","Zip":"95037"},{"Location":"BOX SEAT","Address":"15650 Vineyard Blvd F","City":"Morgan Hill","State":"CA","Zip":"95037"},{"Location":"CHILI'S #1352","Address":"1039 Cochrane Rd","City":"Morgan Hill","State":"CA","Zip":"95037"},{"Location":"CHINA PALACE","Address":"65 W Main Ave","City":"Morgan Hill","State":"CA","Zip":"95037"},{"Location":"CORNERSTONE PEST CONTROL","Address":"16870 Joleen Way 15","City":"Morgan Hill","State":"CA","Zip":"95037"},{"Location":"COYOTE VALLEY RESORT","Address":"9750 Monterey Rd","City":"Morgan Hill","State":"CA","Zip":"95037"},{"Location":"DIVA SPA","Address":"17015 Walnut Grove Dr 102","City":"Morgan Hill","State":"CA","Zip":"95037"},{"Location":"DMI INSURANCE","Address":"330 Tennant Ave","City":"Morgan Hill","State":"CA","Zip":"95037"},{"Location":"EL TORO BREWPUB","Address":"17605 Monterey Rd","City":"Morgan Hill","State":"CA","Zip":"95037"},{"Location":"EXTREME FITNESS","Address":"685 Jarvis Dr","City":"Morgan Hill","State":"CA","Zip":"95037"},{"Location":"FASTENERS SERVICE CORP","Address":"700 Jarvis Dr","City":"Morgan Hill","State":"CA","Zip":"95037"},{"Location":"FIRST TAX FIRM","Address":"106 Cochrane Plz","City":"Morgan Hill","State":"CA","Zip":"95037"},{"Location":"GMP PLATING","Address":"740 Jarvis Dr","City":"Morgan Hill","State":"CA","Zip":"95037"},{"Location":"GRYPHON FINANCIAL","Address":"855 Jarvis Dr 70","City":"Morgan Hill","State":"CA","Zip":"95037"},{"Location":"HANG TEN PIZZA","Address":"17020 Condit Rd 120","City":"Morgan Hill","State":"CA","Zip":"95037"},{"Location":"HAUG QUALITY EQUIPMENT","Address":"18443 Technology Dr","City":"Morgan Hill","State":"CA","Zip":"95037"},{"Location":"HOLIDAY INN AND SUITES","Address":"17035 Condit Rd","City":"Morgan Hill","State":"CA","Zip":"95037"},{"Location":"HONDA MORGAN HILL","Address":"17100 Laurel Rd Dept","City":"Morgan Hill","State":"CA","Zip":"95037"},{"Location":"HONG DDS JONATHAN JUNG H","Address":"16990 Monterey Rd","City":"Morgan Hill","State":"CA","Zip":"95037"},{"Location":"HOUSE OF THUNDER HD","Address":"16175 Condit Rd","City":"Morgan Hill","State":"CA","Zip":"95037"},{"Location":"HUNTINGTON STATION","Address":"30 E 3rd St","City":"Morgan Hill","State":"CA","Zip":"95037"},{"Location":"JIMMY P'S PIZZA FACTORY","Address":"16375 Monterey St O","City":"Morgan Hill","State":"CA","Zip":"95037"},{"Location":"JOE'S BARBER SHOP","Address":"17865 Monterey St A","City":"Morgan Hill","State":"CA","Zip":"95037"},{"Location":"JTJ AP INVESTORS C%2FO MONTE VIS","Address":"16945 Belmonte Ave","City":"Morgan Hill","State":"CA","Zip":"95037"},{"Location":"JULIA WOLFSMITH","Address":"17300 Monterey St 120","City":"Morgan Hill","State":"CA","Zip":"95037"},{"Location":"K R ANDERSON CO","Address":"18330 Sutter Blvd","City":"Morgan Hill","State":"CA","Zip":"95037"},{"Location":"LADERA GRILL","Address":"17305 Monterey Rd","City":"Morgan Hill","State":"CA","Zip":"95037"},{"Location":"LIN ENGINEERING","Address":"650 W Middle Ave","City":"Morgan Hill","State":"CA","Zip":"95037"},{"Location":"LIVE WALL MEDIA INC","Address":"1840 Technology Dr  #b","City":"Morgan Hill","State":"CA","Zip":"95037"},{"Location":"LOKEY FIREARMS","Address":"15650 Vineyard Blvd C","City":"Morgan Hill","State":"CA","Zip":"95037"},{"Location":"M & H TAVERN","Address":"17365 Monterey Rd","City":"Morgan Hill","State":"CA","Zip":"95037"},{"Location":"MADE IN JAPAN","Address":"16455 Church St","City":"Morgan Hill","State":"CA","Zip":"95037"},{"Location":"MANDIS","Address":"365 Digital Dr","City":"Morgan Hill","State":"CA","Zip":"95037"},{"Location":"MARGARITA'S BAR & GRILL","Address":"411 Vineyard Town Ctr","City":"Morgan Hill","State":"CA","Zip":"95037"},{"Location":"MARIE CALLENDAR'S #187","Address":"18599 Sutter Blvd","City":"Morgan Hill","State":"CA","Zip":"95037"},{"Location":"MAYFAIR HAIR AND NAILS","Address":"104 Cochrane Plz","City":"Morgan Hill","State":"CA","Zip":"95037"},{"Location":"MEN'S WEARHOUSE #2193","Address":"1031 Cochrane Rd 140","City":"Morgan Hill","State":"CA","Zip":"95037"},{"Location":"MMS BEHAVIORAL DAY PROGRAM","Address":"18980 Monterey St","City":"Morgan Hill","State":"CA","Zip":"95037"},{"Location":"MONC","Address":"421 Vineyard Town Ctr","City":"Morgan Hill","State":"CA","Zip":"95037"},{"Location":"MONTEREY AUTO SERVICE","Address":"16670 Church St","City":"Morgan Hill","State":"CA","Zip":"95037"},{"Location":"MOO VENTURES LLC","Address":"255 Vineyard Town Ctr","City":"Morgan Hill","State":"CA","Zip":"95037"},{"Location":"MORGAN HILL ATHLETIC CLU","Address":"126 Cochrane Plz","City":"Morgan Hill","State":"CA","Zip":"95037"},{"Location":"MORGAN HILL BOWL","Address":"650 Tennant Sta","City":"Morgan Hill","State":"CA","Zip":"95037"},{"Location":"MORGAN HILL CIGAR CO","Address":"17430 Monterey Rd","City":"Morgan Hill","State":"CA","Zip":"95037"},{"Location":"MORGAN HILL FOODS","Address":"225 W Main Ave","City":"Morgan Hill","State":"CA","Zip":"95037"},{"Location":"MOUNTAIN MIKE'S PIZZA","Address":"201 Tennant Sta","City":"Morgan Hill","State":"CA","Zip":"95037"},{"Location":"MPET MEDICAL GROUP","Address":"50 E Main Ave Stec","City":"Morgan Hill","State":"CA","Zip":"95037"},{"Location":"MR HONGS CHINESE FAST FO","Address":"16745 Monterey Rd","City":"Morgan Hill","State":"CA","Zip":"95037"},{"Location":"MR PICKLE MORGAN HILL LLC","Address":"1049 Cochrane Rd 120","City":"Morgan Hill","State":"CA","Zip":"95037"},{"Location":"NELSON BIOTECHNOLOGIES","Address":"16080 Caputo Dr 150","City":"Morgan Hill","State":"CA","Zip":"95037"},{"Location":"NOAHS BAR AND BISTRO 2","Address":"17500 Monterey Rd A","City":"Morgan Hill","State":"CA","Zip":"95037"},{"Location":"NORCAL KENWORTH","Address":"16715 Condit Rd","City":"Morgan Hill","State":"CA","Zip":"95037"},{"Location":"PACIFIC CAPACITOR COMPANY","Address":"288 Digital Dr","City":"Morgan Hill","State":"CA","Zip":"95037"},{"Location":"PALMINAS PIZZA","Address":"16965 Monterey Rd 106d","City":"Morgan Hill","State":"CA","Zip":"95037"},{"Location":"PEGA PRECISION","Address":"18800 Adams Ct","City":"Morgan Hill","State":"CA","Zip":"95037"},{"Location":"PIZZA HUT 28737","Address":"15790 Monterey Rd","City":"Morgan Hill","State":"CA","Zip":"95037"},{"Location":"PRECISION TUNE AUTO CARE","Address":"16860 Monterey Rd Unita","City":"Morgan Hill","State":"CA","Zip":"95037"},{"Location":"PRESTIGE FOOD","Address":"15900 Monterey St","City":"Morgan Hill","State":"CA","Zip":"95037"},{"Location":"QUADRANT TECHNOLOGY 1","Address":"561f Monterey Rd","City":"Morgan Hill","State":"CA","Zip":"95037"},{"Location":"RED ROBIN #593","Address":"1045 Cochrane Rd","City":"Morgan Hill","State":"CA","Zip":"95037"},{"Location":"REINHARDT","Address":"17190 Monterey St","City":"Morgan Hill","State":"CA","Zip":"95037"},{"Location":"ROSIES AT THE BEACH","Address":"17320 Monterey Rd","City":"Morgan Hill","State":"CA","Zip":"95037"},{"Location":"ROSSOS FURNITURE II","Address":"212 Tennant Sta","City":"Morgan Hill","State":"CA","Zip":"95037"},{"Location":"SAKATA SEED AMERICA INC","Address":"18095 Serene Dr","City":"Morgan Hill","State":"CA","Zip":"95037"},{"Location":"SATELLITE DIALYSIS M HIL","Address":"16060 Caputo Dr","City":"Morgan Hill","State":"CA","Zip":"95037"},{"Location":"SCRAMBL'Z DINER","Address":"775 E Dunne Ave","City":"Morgan Hill","State":"CA","Zip":"95037"},{"Location":"SEEMOCARS","Address":"16725 Condit Rd","City":"Morgan Hill","State":"CA","Zip":"95037"},{"Location":"SELENA NAILS","Address":"16985 Monterey Rd 304c","City":"Morgan Hill","State":"CA","Zip":"95037"},{"Location":"SHEATHING TECHNOLOGIES","Address":"18431 Technology Dr","City":"Morgan Hill","State":"CA","Zip":"95037"},{"Location":"SIMALOA CAFE","Address":"17535 Monterey Rd","City":"Morgan Hill","State":"CA","Zip":"95037"},{"Location":"SMART PRODUCTS","Address":"675 Jarvis Dr","City":"Morgan Hill","State":"CA","Zip":"95037"},{"Location":"SOUTH VALLEY DENTAL","Address":"15870 Monterey Rd","City":"Morgan Hill","State":"CA","Zip":"95037"},{"Location":"SOUTH VALLEY ORTHOPEDICS","Address":"18181 Butterfield Blvd 100","City":"Morgan Hill","State":"CA","Zip":"95037"},{"Location":"SPECIALIZED BICYCLE INC","Address":"1175 Fisher Ave","City":"Morgan Hill","State":"CA","Zip":"95037"},{"Location":"SPORT CLIPS CA803","Address":"1053 Cochrane Rd 140","City":"Morgan Hill","State":"CA","Zip":"95037"},{"Location":"STAR NAILS","Address":"255 W Main Ave","City":"Morgan Hill","State":"CA","Zip":"95037"},{"Location":"STYLES HAIR SALON","Address":"17865 Monterey Rd G","City":"Morgan Hill","State":"CA","Zip":"95037"},{"Location":"SUMAVISION SFO LLC","Address":"1 Coyote Creek Golf Dr","City":"Morgan Hill","State":"CA","Zip":"95037"},{"Location":"SUSHI ICHIBAN","Address":"116 Cochrane Plz","City":"Morgan Hill","State":"CA","Zip":"95037"},{"Location":"SUSHI NARA","Address":"301 Vineyard Town Ctr","City":"Morgan Hill","State":"CA","Zip":"95037"},{"Location":"TARGET 2252","Address":"1061 Cochrane Rd","City":"Morgan Hill","State":"CA","Zip":"95037"},{"Location":"TAYLAN","Address":"355 Woodview Ave 300","City":"Morgan Hill","State":"CA","Zip":"95037"},{"Location":"THE HILL BAR & GRILL","Address":"17330 Monterey Rd","City":"Morgan Hill","State":"CA","Zip":"95037"},{"Location":"THE JEWEL BOX","Address":"17190 Monterey Rd 101","City":"Morgan Hill","State":"CA","Zip":"95037"},{"Location":"THOUSAND TRAILS MORGAN HILL #1","Address":"12895 Uvas Rd","City":"Morgan Hill","State":"CA","Zip":"95037"},{"Location":"TIMELESS BARBERS","Address":"16375 Monterey St L","City":"Morgan Hill","State":"CA","Zip":"95037"},{"Location":"TONYES BARBER SHOP","Address":"135 W Main Ave","City":"Morgan Hill","State":"CA","Zip":"95037"},{"Location":"TRAIL DUST BBQ","Address":"17240 Monterey Rd","City":"Morgan Hill","State":"CA","Zip":"95037"},{"Location":"UNION BANK","Address":"500 Tennant Sta","City":"Morgan Hill","State":"CA","Zip":"95037"},{"Location":"US TECHNOLOGIES","Address":"18690 Hale Ave","City":"Morgan Hill","State":"CA","Zip":"95037"},{"Location":"VIA MIA PIZZA","Address":"16990 Monterey St 120","City":"Morgan Hill","State":"CA","Zip":"95037"},{"Location":"WESTMONT LIVING MORGAN","Address":"1160 Cochrane Rd","City":"Morgan Hill","State":"CA","Zip":"95037"},{"Location":"WESTMONT LIVING MORGANHI","Address":"1160 Cochrane Rd","City":"Morgan Hill","State":"CA","Zip":"95037"}]