[{"Location":"ALDOS CAFE 2","Address":"440 N Santa Cruz Ave","City":"Los Gatos","State":"CA","Zip":"95030"},{"Location":"ATHLETES FUEL","Address":"212 N Santa Cruz Ave","City":"Los Gatos","State":"CA","Zip":"95030"},{"Location":"BELLINI BABY  & TEEN FUR","Address":"155 N Santa Cruz Ave C","City":"Los Gatos","State":"CA","Zip":"95030"},{"Location":"BILLYS BOSTON CHOWDER HOUSE","Address":"29 E Main St","City":"Los Gatos","State":"CA","Zip":"95030"},{"Location":"CARRY NATIONS","Address":"8 N Santa Cruz Ave","City":"Los Gatos","State":"CA","Zip":"95030"},{"Location":"CB HANNEGAN'S","Address":"208 Bachman Ave","City":"Los Gatos","State":"CA","Zip":"95030"},{"Location":"CHICAGO'S STEAK AND FISH","Address":"330 N Santa Cruz Ave","City":"Los Gatos","State":"CA","Zip":"95030"},{"Location":"DINER OF LOS GATOS","Address":"235 Los Gatos Saratoga Rd","City":"Los Gatos","State":"CA","Zip":"95030"},{"Location":"DOUBLE D'S SPORTS GRILLE","Address":"354 N Santa Cruz Ave","City":"Los Gatos","State":"CA","Zip":"95030"},{"Location":"EMQ CHILDREN FAMILY SERVICES","Address":"499 Loma Alta Ave 2","City":"Los Gatos","State":"CA","Zip":"95030"},{"Location":"EMQ CHILDREN FAMILY SERVICES","Address":"499 Loma Alta Ave Bldg7","City":"Los Gatos","State":"CA","Zip":"95030"},{"Location":"FIDELITY INVESTMENTS 297","Address":"434 N Santa Cruz Ave","City":"Los Gatos","State":"CA","Zip":"95030"},{"Location":"FIRST REPUBLIC BANK","Address":"275 Los Gatos Saratoga Rd","City":"Los Gatos","State":"CA","Zip":"95030"},{"Location":"GARDEN INN HOTEL LOS GATOS #2","Address":"46 E Main St","City":"Los Gatos","State":"CA","Zip":"95030"},{"Location":"GARDINOS","Address":"51 N Santa Cruz Ave","City":"Los Gatos","State":"CA","Zip":"95030"},{"Location":"HACIENDA GRILL LLC","Address":"18840 Saratoga Los Gatos Rd","City":"Los Gatos","State":"CA","Zip":"95030"},{"Location":"HULTS RESTARAUNT","Address":"165 Los Gatos Saratoga Rd","City":"Los Gatos","State":"CA","Zip":"95030"},{"Location":"LARKSPUR HOTELS & RESTAURANTS","Address":"140 S Santa Cruz Ave","City":"Los Gatos","State":"CA","Zip":"95030"},{"Location":"LEGACY CAPITAL GROUP CALIFORNI","Address":"459 Monterey Ave 100","City":"Los Gatos","State":"CA","Zip":"95030"},{"Location":"LONADO NAIL SPA","Address":"466 N Santa Cruz Ave","City":"Los Gatos","State":"CA","Zip":"95030"},{"Location":"LOS GATOS BAR & GRILL","Address":"15 1%2F2 N Santa Cruz Ave","City":"Los Gatos","State":"CA","Zip":"95030"},{"Location":"LOS GATOS BREWING COMPANY","Address":"130 N Santa Cruz Ave","City":"Los Gatos","State":"CA","Zip":"95030"},{"Location":"LOS GATOS CIGAR CLUB","Address":"21 College Ave","City":"Los Gatos","State":"CA","Zip":"95030"},{"Location":"LOS GATOS FRAMING COMPAN","Address":"220 N Santa Cruz Ave","City":"Los Gatos","State":"CA","Zip":"95030"},{"Location":"LOS GATOS HEALTH AND FITNESS","Address":"285 E Main St","City":"Los Gatos","State":"CA","Zip":"95030"},{"Location":"MARTIN DERMER","Address":"15720 Winchester Blvd","City":"Los Gatos","State":"CA","Zip":"95030"},{"Location":"NUMBER ONE BROADWAY","Address":"102 S Santa Cruz Ave B","City":"Los Gatos","State":"CA","Zip":"95030"},{"Location":"OAK MEADOWS NURSING CENTER","Address":"350 Desoto Dr","City":"Los Gatos","State":"CA","Zip":"95030"},{"Location":"PEDRO'S CABO GRILL","Address":"316 N Santa Cruz Ave","City":"Los Gatos","State":"CA","Zip":"95030"},{"Location":"SILICON VALLEY DIVERSIFIED","Address":"22 S Santa Cruz Ave 2flr","City":"Los Gatos","State":"CA","Zip":"95030"},{"Location":"THE PIZZA ALLIANCE","Address":"160 W Main St","City":"Los Gatos","State":"CA","Zip":"95030"},{"Location":"THREE SISTERS CINAMA","Address":"41 N Santa Cruz Ave","City":"Los Gatos","State":"CA","Zip":"95030"},{"Location":"TOMMY'S OF LOS GATOS","Address":"532 N Santa Cruz Ave","City":"Los Gatos","State":"CA","Zip":"95030"},{"Location":"WEDIRECT INC","Address":"210 N Santa Cruz Ave A-1","City":"Los Gatos","State":"CA","Zip":"95030"}]