[{"Location":"11-Jul","Address":"1496 N Milpitas Blvd","City":"Milpitas","State":"CA","Zip":"95035"},{"Location":"24 HOUR FITNESS #601","Address":"301 Jacklin Rd","City":"Milpitas","State":"CA","Zip":"95035"},{"Location":"ABLE DENTAL CARE INC","Address":"12 N Abel St","City":"Milpitas","State":"CA","Zip":"95035"},{"Location":"AC FOODS","Address":"1117 Moneague Expressway","City":"Milpitas","State":"CA","Zip":"95035"},{"Location":"AIR COM MECHANICAL","Address":"340 S Milpitas Blvd","City":"Milpitas","State":"CA","Zip":"95035"},{"Location":"AIR NATIONAL GUARD","Address":"653 Johnny Love Lane","City":"Milpitas","State":"CA","Zip":"95035"},{"Location":"AMF MISSION LANES 577","Address":"1287 S Park Victoria Dr","City":"Milpitas","State":"CA","Zip":"95035"},{"Location":"AMO","Address":"510 Cottonwood Dr","City":"Milpitas","State":"CA","Zip":"95035"},{"Location":"ANHEUSER BUSCH WHLSLR #20445","Address":"755 Yosemite Dr","City":"Milpitas","State":"CA","Zip":"95035"},{"Location":"APEX APARTMENTS","Address":"1102 S Abel St","City":"Milpitas","State":"CA","Zip":"95035"},{"Location":"APPLEBEE'S MILPITAS #9040","Address":"84 Ranch Dr","City":"Milpitas","State":"CA","Zip":"95035"},{"Location":"ASHLEY FURNITURE HOME STORE","Address":"128 Ranch Dr","City":"Milpitas","State":"CA","Zip":"95035"},{"Location":"ASPECT","Address":"690 N Mccarthy Blvd","City":"Milpitas","State":"CA","Zip":"95035"},{"Location":"AUTOMATIC DATA PROCESSING","Address":"820 Mccarthy Ranch Blvd","City":"Milpitas","State":"CA","Zip":"95035"},{"Location":"AZTECA","Address":"20 N Abel St","City":"Milpitas","State":"CA","Zip":"95035"},{"Location":"BAJA CACTUS","Address":"338 S Main St","City":"Milpitas","State":"CA","Zip":"95035"},{"Location":"BANC HOME LOANS","Address":"100 N Milpitas Blvd 140","City":"Milpitas","State":"CA","Zip":"95035"},{"Location":"BAY TOOL AND SUPPLY INC1","Address":"1001 Yosemite Dr","City":"Milpitas","State":"CA","Zip":"95035"},{"Location":"BENTO EXPRESS","Address":"23 N Milpitas Blvd","City":"Milpitas","State":"CA","Zip":"95035"},{"Location":"BEST WESTERN BROOKSIDE INN","Address":"400 Valley Way","City":"Milpitas","State":"CA","Zip":"95035"},{"Location":"BEVERLY HERITAGE HOTEL","Address":"1820 Barber Ln","City":"Milpitas","State":"CA","Zip":"95035"},{"Location":"BLACK BEAR DINER HCUNO INC","Address":"174 W Calaveras Blvd","City":"Milpitas","State":"CA","Zip":"95035"},{"Location":"BLUE NOTE LOUNGE","Address":"765 E Capitol Ave","City":"Milpitas","State":"CA","Zip":"95035"},{"Location":"BURGER KING","Address":"175 W Calaveras Blvd","City":"Milpitas","State":"CA","Zip":"95035"},{"Location":"CB RICHARD ELLIS","Address":"1001 Murphy Ranch Rd 3","City":"Milpitas","State":"CA","Zip":"95035"},{"Location":"CHANWELL CLINIC","Address":"1289 S Park Victoria Dr 200","City":"Milpitas","State":"CA","Zip":"95035"},{"Location":"CHILI'S #0116","Address":"300 W Calaveras Blvd","City":"Milpitas","State":"CA","Zip":"95035"},{"Location":"CHONA M EBALOVILLANUEVA DMD","Address":"995 Montague Expy","City":"Milpitas","State":"CA","Zip":"95035"},{"Location":"CISCO SYSTEMS - SAN JOSE","Address":"755 Sycamore Dr 2","City":"Milpitas","State":"CA","Zip":"95035"},{"Location":"CLARK PEST CONTROL","Address":"199 Topaz St","City":"Milpitas","State":"CA","Zip":"95035"},{"Location":"COLISEUM PIZZA A","Address":"761 E Capitol Ave","City":"Milpitas","State":"CA","Zip":"95035"},{"Location":"COURTYARD (0064606)","Address":"1480 Falcon Dr","City":"Milpitas","State":"CA","Zip":"95035"},{"Location":"CRAW DADDY","Address":"1228 S Abel St","City":"Milpitas","State":"CA","Zip":"95035"},{"Location":"CROSSFIT VOLITION","Address":"1840 Houret Ct","City":"Milpitas","State":"CA","Zip":"95035"},{"Location":"DAVE AND BUSTER'S #24","Address":"940 Great Mall Dr","City":"Milpitas","State":"CA","Zip":"95035"},{"Location":"DAVIS ENTERPRISES","Address":"1825 Houret Ct","City":"Milpitas","State":"CA","Zip":"95035"},{"Location":"DAY LIGHT FOODS","Address":"660 Vista Way","City":"Milpitas","State":"CA","Zip":"95035"},{"Location":"DBCON CONSTRUCTION","Address":"690 Gibraltar Dr","City":"Milpitas","State":"CA","Zip":"95035"},{"Location":"DISHDASH GRILL INC","Address":"181 Ranch Dr","City":"Milpitas","State":"CA","Zip":"95035"},{"Location":"DIXON LAUNDRY 3","Address":"1802 Milmont Dr","City":"Milpitas","State":"CA","Zip":"95035"},{"Location":"EL GRAN TACO","Address":"1469 Landess Ave","City":"Milpitas","State":"CA","Zip":"95035"},{"Location":"EL TORITO 7183","Address":"477 E Calaveras Blvd","City":"Milpitas","State":"CA","Zip":"95035"},{"Location":"ELOTOUCH","Address":"1033 Mccarthy Blvd","City":"Milpitas","State":"CA","Zip":"95035"},{"Location":"EMBASSY SUITE HOTEL","Address":"901 E Calaveras Blvd","City":"Milpitas","State":"CA","Zip":"95035"},{"Location":"EPN - LETICIA A. EDORA","Address":"61 Serra Way 206","City":"Milpitas","State":"CA","Zip":"95035"},{"Location":"FIREEYE","Address":"1440 Mccarthy Blvd","City":"Milpitas","State":"CA","Zip":"95035"},{"Location":"FIREEYE INC 2","Address":"630 Alder Dr","City":"Milpitas","State":"CA","Zip":"95035"},{"Location":"FIREEYE2 INC","Address":"1390 Mccarthy Blvd","City":"Milpitas","State":"CA","Zip":"95035"},{"Location":"FIRESTONE #015911","Address":"1379 S Park Victoria Dr","City":"Milpitas","State":"CA","Zip":"95035"},{"Location":"FIRESTONE #234230","Address":"2 N Abel St","City":"Milpitas","State":"CA","Zip":"95035"},{"Location":"FITNESS 19   CA123","Address":"1350 S Park Victoria Dr","City":"Milpitas","State":"CA","Zip":"95035"},{"Location":"FLEXTRONICS","Address":"847 Gibraltar Dr","City":"Milpitas","State":"CA","Zip":"95035"},{"Location":"FRANK NGUYEN ORTHODONTIC","Address":"1142 Jacklin Rd","City":"Milpitas","State":"CA","Zip":"95035"},{"Location":"GABUCAN DENTAL","Address":"1535 Landess Ave 142","City":"Milpitas","State":"CA","Zip":"95035"},{"Location":"GALAXY COCKTAIL LOUNGE AND BAR","Address":"134 S Main St","City":"Milpitas","State":"CA","Zip":"95035"},{"Location":"GC TAX INSTITUTE","Address":"995 Mortague Expwy 212","City":"Milpitas","State":"CA","Zip":"95035"},{"Location":"GIORGO'S ITALIAN FOOD","Address":"643 E Calaveras Blvd","City":"Milpitas","State":"CA","Zip":"95035"},{"Location":"GLOBALSTAR INC","Address":"461 S Milpitas Blvd","City":"Milpitas","State":"CA","Zip":"95035"},{"Location":"GOLD RIBBON BAKESHOP & RESTAURANT","Address":"380 South Main Street","City":"Milpitas","State":"CA","Zip":"95035"},{"Location":"HK HAIR AND BEAUTY","Address":"1729 N Milpitas Blvd","City":"Milpitas","State":"CA","Zip":"95035"},{"Location":"HOMAYRA S ZIKRIA","Address":"1109 S Park Victoria Dr","City":"Milpitas","State":"CA","Zip":"95035"},{"Location":"HOMESITE SERVICES1","Address":"523 E Calaveras Blvd","City":"Milpitas","State":"CA","Zip":"95035"},{"Location":"IN FORE INC","Address":"691 S Milpitas Blvd","City":"Milpitas","State":"CA","Zip":"95035"},{"Location":"INTERSIL CORP.","Address":"933 Murphy Ranch Rd","City":"Milpitas","State":"CA","Zip":"95035"},{"Location":"INTERSIL CORP.","Address":"1001 Murphy Ranch Rd","City":"Milpitas","State":"CA","Zip":"95035"},{"Location":"IRON MOUNTAIN","Address":"565 Sinclair Frontage Rd","City":"Milpitas","State":"CA","Zip":"95035"},{"Location":"IRVINE COMPANY","Address":"690 N Mccarthy Blvd 100","City":"Milpitas","State":"CA","Zip":"95035"},{"Location":"JEANNES NAILS SPA 2","Address":"111 N Milpitas Blvd","City":"Milpitas","State":"CA","Zip":"95035"},{"Location":"KIM FU TWINS ROYAL","Address":"61 Serra Way 120","City":"Milpitas","State":"CA","Zip":"95035"},{"Location":"KING WAH RESTAURANT","Address":"1235 E Calaveras Blvd","City":"Milpitas","State":"CA","Zip":"95035"},{"Location":"KLA TENCOR","Address":"1 Technology Dr","City":"Milpitas","State":"CA","Zip":"95035"},{"Location":"KLA TENCOR-FITNESS CTR","Address":"1 Technology Dr","City":"Milpitas","State":"CA","Zip":"95035"},{"Location":"KLA-TENCOR%2C CORP.","Address":"1 Technology Dr","City":"Milpitas","State":"CA","Zip":"95035"},{"Location":"KOHL'S #994","Address":"1150 Great Mall Dr","City":"Milpitas","State":"CA","Zip":"95035"},{"Location":"KOHL'S WC ECOMM OFFICE #90512","Address":"620 N Mccarthy Blvd 200","City":"Milpitas","State":"CA","Zip":"95035"},{"Location":"KOPITIAM CAFE","Address":"1535 Landess Ave 147","City":"Milpitas","State":"CA","Zip":"95035"},{"Location":"KOREA GARDEN","Address":"1535 Landess Ave 143","City":"Milpitas","State":"CA","Zip":"95035"},{"Location":"KYPHON","Address":"1860 Barber Ln","City":"Milpitas","State":"CA","Zip":"95035"},{"Location":"LEE SANDWICHES","Address":"279 W Calaveras Blvd","City":"Milpitas","State":"CA","Zip":"95035"},{"Location":"LENTHOR ENGINEERING","Address":"311 Turquoise St","City":"Milpitas","State":"CA","Zip":"95035"},{"Location":"LIFESCAN 1","Address":"1051 S Milpitas Blvd","City":"Milpitas","State":"CA","Zip":"95035"},{"Location":"MACARONI GRILL #1346","Address":"110 Ranch Dr","City":"Milpitas","State":"CA","Zip":"95035"},{"Location":"MAGIC TECHNOLOGIES","Address":"463 S Milpitas Blvd","City":"Milpitas","State":"CA","Zip":"95035"},{"Location":"MAYFLOWER SEAFOOD RESTURANT","Address":"428 Barber Ln","City":"Milpitas","State":"CA","Zip":"95035"},{"Location":"MI SALSA","Address":"51 S Park Victoria Dr","City":"Milpitas","State":"CA","Zip":"95035"},{"Location":"MIKANOS GRILL","Address":"756 E Calaveras Blvd","City":"Milpitas","State":"CA","Zip":"95035"},{"Location":"MILPITAS BUFFET","Address":"24 S Abbott Ave","City":"Milpitas","State":"CA","Zip":"95035"},{"Location":"MILPITAS HEALTH","Address":"1000 Jacklin Rd","City":"Milpitas","State":"CA","Zip":"95035"},{"Location":"MILPITAS STAR AQUATIC AN","Address":"1818 Clear Lake Ave","City":"Milpitas","State":"CA","Zip":"95035"},{"Location":"NANOMETRICS INC","Address":"1550 Buckeye Dr","City":"Milpitas","State":"CA","Zip":"95035"},{"Location":"NEIMAN MARCUS 2203","Address":"1230 Great Mall Dr","City":"Milpitas","State":"CA","Zip":"95035"},{"Location":"NIKE INC","Address":"447 Great Mall Dr 484","City":"Milpitas","State":"CA","Zip":"95035"},{"Location":"OLIVE GARDEN #1858","Address":"1350 Great Mall Dr","City":"Milpitas","State":"CA","Zip":"95035"},{"Location":"OMEGA PRO LOUNGE","Address":"90 S Park Victoria Dr","City":"Milpitas","State":"CA","Zip":"95035"},{"Location":"ON THE BORDER #0519","Address":"260 Ranch Dr","City":"Milpitas","State":"CA","Zip":"95035"},{"Location":"ONANON","Address":"720 S Milpitas Blvd","City":"Milpitas","State":"CA","Zip":"95035"},{"Location":"OUTBACK STEAKHOUSE #0533","Address":"1246 Great Mall Dr","City":"Milpitas","State":"CA","Zip":"95035"},{"Location":"PERLITA TONGOL MATUTE DMD","Address":"1112 Cadillac Ct","City":"Milpitas","State":"CA","Zip":"95035"},{"Location":"PHO QUYNH","Address":"1203 E Calaveras Blvd","City":"Milpitas","State":"CA","Zip":"95035"},{"Location":"PHO-NGUYEN","Address":"275 W Calaveras Blvd","City":"Milpitas","State":"CA","Zip":"95035"},{"Location":"PIERCEY TOYOTA NORTH INC","Address":"950 Thompson St","City":"Milpitas","State":"CA","Zip":"95035"},{"Location":"QUALITY EQUIPMENT LLC","Address":"1326 Piper Dr","City":"Milpitas","State":"CA","Zip":"95035"},{"Location":"RED LOBSTER #0532","Address":"503 E Calaveras Blvd","City":"Milpitas","State":"CA","Zip":"95035"},{"Location":"RED ROBIN #189","Address":"248 Great Mall Dr","City":"Milpitas","State":"CA","Zip":"95035"},{"Location":"RESIDENCE INN","Address":"1501 California Cir","City":"Milpitas","State":"CA","Zip":"95035"},{"Location":"RESIDENCE INN MILPITAS","Address":"1501 California Cir","City":"Milpitas","State":"CA","Zip":"95035"},{"Location":"SABANIKI S INC","Address":"1271 E Calaveras Blvd","City":"Milpitas","State":"CA","Zip":"95035"},{"Location":"SANDISK CORPORATION","Address":"951 Sandisk Dr","City":"Milpitas","State":"CA","Zip":"95035"},{"Location":"SANDISK CORPORATION","Address":"601 Mccarthy Blvd","City":"Milpitas","State":"CA","Zip":"95035"},{"Location":"SANDISK INC","Address":"1101 Sumac Dr","City":"Milpitas","State":"CA","Zip":"95035"},{"Location":"SATELLITE DIALYSIS","Address":"1860 Milmont Dr","City":"Milpitas","State":"CA","Zip":"95035"},{"Location":"SCOTTRADE K04","Address":"232 Barber Ct","City":"Milpitas","State":"CA","Zip":"95035"},{"Location":"SF CITY","Address":"1535 Landess Ave 115","City":"Milpitas","State":"CA","Zip":"95035"},{"Location":"SGI","Address":"900 N Mccarthy Blvd","City":"Milpitas","State":"CA","Zip":"95035"},{"Location":"SHABU HOUSE","Address":"1191 E Calaveras Blvd","City":"Milpitas","State":"CA","Zip":"95035"},{"Location":"SIGMA DESIGNS","Address":"1778 Mccarthy Blvd","City":"Milpitas","State":"CA","Zip":"95035"},{"Location":"SIZZLING STONE","Address":"510 Barber Ln","City":"Milpitas","State":"CA","Zip":"95035"},{"Location":"SOUTH BAY HONDA","Address":"920 Thompson St","City":"Milpitas","State":"CA","Zip":"95035"},{"Location":"SPORTS AUTHORITY 682","Address":"1200 Great Mall Dr C","City":"Milpitas","State":"CA","Zip":"95035"},{"Location":"SPRING VALLEY BIBLE CHURCH","Address":"196 S Main St","City":"Milpitas","State":"CA","Zip":"95035"},{"Location":"SPRING VALLEY GOLF COURSE","Address":"3441 Calaveras Rd","City":"Milpitas","State":"CA","Zip":"95035"},{"Location":"SS8 NETWORKS","Address":"750 Tasman Dr","City":"Milpitas","State":"CA","Zip":"95035"},{"Location":"STRAW HAT PIZZA MILPITAS","Address":"1350 S Park Victoria Dr","City":"Milpitas","State":"CA","Zip":"95035"},{"Location":"STUFT PIZZA","Address":"1426 Dempsey Rd","City":"Milpitas","State":"CA","Zip":"95035"},{"Location":"SUSHI KING","Address":"74 Ranch Dr","City":"Milpitas","State":"CA","Zip":"95035"},{"Location":"SYSTEM SERVICES OF AMERICA","Address":"1029 Montague Espressway","City":"Milpitas","State":"CA","Zip":"95035"},{"Location":"TAQUERIALAS VEGAS","Address":"1417 N Mepitas Blvd","City":"Milpitas","State":"CA","Zip":"95035"},{"Location":"TASTE OF SURTI","Address":"138 South Main Street","City":"Milpitas","State":"CA","Zip":"95035"},{"Location":"TAURIAN BA LLC #1198","Address":"275 Ranch Dr","City":"Milpitas","State":"CA","Zip":"95035"},{"Location":"TEQUILA SHOTS BAR & GRIL","Address":"38 N Main St","City":"Milpitas","State":"CA","Zip":"95035"},{"Location":"THELMA C DAWANA DDS","Address":"995 Montague Expy 112","City":"Milpitas","State":"CA","Zip":"95035"},{"Location":"TRIMBLE NAVIGATION","Address":"888 Tasman Dr","City":"Milpitas","State":"CA","Zip":"95035"},{"Location":"TRUONG THANH RESTAURANTS","Address":"680 Barber Ln","City":"Milpitas","State":"CA","Zip":"95035"},{"Location":"TUBE SERVICE CO","Address":"666 S Milpitas Blvd","City":"Milpitas","State":"CA","Zip":"95035"},{"Location":"UNIVERSAL BEST GROUP INC","Address":"52 S Abel St","City":"Milpitas","State":"CA","Zip":"95035"},{"Location":"UOTOMO SUSHI","Address":"217 W Calaveras Blvd","City":"Milpitas","State":"CA","Zip":"95035"},{"Location":"VALERIO","Address":"1535 Landess Ave 165","City":"Milpitas","State":"CA","Zip":"95035"},{"Location":"VARIAN MEDICAL SYSTEM","Address":"660 N Mccarthy Blvd","City":"Milpitas","State":"CA","Zip":"95035"},{"Location":"VEGE HOUSE","Address":"190 Ranch Dr","City":"Milpitas","State":"CA","Zip":"95035"},{"Location":"WELKER BROTHERS INC","Address":"970 S Milpitas Blvd","City":"Milpitas","State":"CA","Zip":"95035"},{"Location":"WILLIAM HTUN DDS","Address":"113 N Milpitas Blvd","City":"Milpitas","State":"CA","Zip":"95035"},{"Location":"WOKSTAR","Address":"1787 Landess Ave","City":"Milpitas","State":"CA","Zip":"95035"},{"Location":"XL CONSTRUCTION","Address":"851 Buckeye Ct","City":"Milpitas","State":"CA","Zip":"95035"}]