[{"Location":"FARBER AND ASSOCIATES 2","Address":"18490 Main Blvd","City":"Los Gatos","State":"CA","Zip":"95033"},{"Location":"MJA VINEYARDS","Address":"24900 Highland Way","City":"Los Gatos","State":"CA","Zip":"95033"},{"Location":"PRESENTATION CENTER","Address":"19480 Bear Creek Rd","City":"Los Gatos","State":"CA","Zip":"95033"},{"Location":"SILVER MOUNTAIN VINERY","Address":"265 Silver Mountain Dr","City":"Los Gatos","State":"CA","Zip":"95033"},{"Location":"SUMMIT HOUSE","Address":"23123 Highway 17","City":"Los Gatos","State":"CA","Zip":"95033"},{"Location":"THE CATS RESTAURANT","Address":"17533 Santa Cruz Hwy","City":"Los Gatos","State":"CA","Zip":"95033"},{"Location":"FARBER AND ASSOCIATES 2","Address":"18490 Main Blvd","City":"Los Gatos","State":"CA","Zip":"95033"},{"Location":"MJA VINEYARDS","Address":"24900 Highland Way","City":"Los Gatos","State":"CA","Zip":"95033"},{"Location":"PRESENTATION CENTER","Address":"19480 Bear Creek Rd","City":"Los Gatos","State":"CA","Zip":"95033"},{"Location":"SILVER MOUNTAIN VINERY","Address":"265 Silver Mountain Dr","City":"Los Gatos","State":"CA","Zip":"95033"},{"Location":"SUMMIT HOUSE","Address":"23123 Highway 17","City":"Los Gatos","State":"CA","Zip":"95033"},{"Location":"THE CATS RESTAURANT","Address":"17533 Santa Cruz Hwy","City":"Los Gatos","State":"CA","Zip":"95033"}]