[{"Location":"ALDOS RESTAURANT","Address":"14109 Winchester Blvd","City":"Los Gatos","State":"CA","Zip":"95032"},{"Location":"APJCC JEWISH COMMUNITY CENTER","Address":"14855 Oka Rd 201","City":"Los Gatos","State":"CA","Zip":"95032"},{"Location":"AUDIBLE MAGIC","Address":"985 University Ave 35","City":"Los Gatos","State":"CA","Zip":"95032"},{"Location":"BA SURGICAL","Address":"15251 National Ave 207","City":"Los Gatos","State":"CA","Zip":"95032"},{"Location":"BARNETT & ASSOCIATES","Address":"451 Los Gatos Blvd 107","City":"Los Gatos","State":"CA","Zip":"95032"},{"Location":"BAY AREA PAIN & WELLNESS CENTE","Address":"15047 Los Gatos Blvd 200","City":"Los Gatos","State":"CA","Zip":"95032"},{"Location":"BOULEVARD TAVERN","Address":"15043 Los Gatos Blvd","City":"Los Gatos","State":"CA","Zip":"95032"},{"Location":"BRENNER FINANCIAL","Address":"475 Alberto Way 110","City":"Los Gatos","State":"CA","Zip":"95032"},{"Location":"CADENCE FITNESS","Address":"809 University Ave","City":"Los Gatos","State":"CA","Zip":"95032"},{"Location":"CAMPO DI BOCCE LOS GATOS","Address":"565 University Ave","City":"Los Gatos","State":"CA","Zip":"95032"},{"Location":"COURTSIDE CLUB","Address":"14675 Winchester Blvd","City":"Los Gatos","State":"CA","Zip":"95032"},{"Location":"DAVITA #5332 LOS GATOS","Address":"14251 Winchester Blvd 100","City":"Los Gatos","State":"CA","Zip":"95032"},{"Location":"EVERGREEN TRANSACTION PA","Address":"16450 Los Gatos Blvd 207","City":"Los Gatos","State":"CA","Zip":"95032"},{"Location":"FIRESTONE #119628","Address":"15553 Los Gatos Blvd","City":"Los Gatos","State":"CA","Zip":"95032"},{"Location":"FITNESS CLINIC","Address":"15405 Los Gatos Blvd 101","City":"Los Gatos","State":"CA","Zip":"95032"},{"Location":"FMC 11720000","Address":"14651 S Bascom Ave","City":"Los Gatos","State":"CA","Zip":"95032"},{"Location":"GARRET STATION","Address":"14101 Winchester Blvd","City":"Los Gatos","State":"CA","Zip":"95032"},{"Location":"GOODYEAR 4861","Address":"15751 Los Gatos Blvd","City":"Los Gatos","State":"CA","Zip":"95032"},{"Location":"HAMMERHEAD INTERIORS","Address":"805 University Ave J","City":"Los Gatos","State":"CA","Zip":"95032"},{"Location":"JJ MAGOOS","Address":"15525 Los Gatos Blvd","City":"Los Gatos","State":"CA","Zip":"95032"},{"Location":"KARIM TADROS DDS","Address":"555 Knowles Dr","City":"Los Gatos","State":"CA","Zip":"95032"},{"Location":"LA RINCONADA COUNTRY CLUB","Address":"14595 Clearview Dr","City":"Los Gatos","State":"CA","Zip":"95032"},{"Location":"LOS GATOS BARBER SHOP","Address":"15692 Los Gatos Blvd","City":"Los Gatos","State":"CA","Zip":"95032"},{"Location":"LOS GATOS LODGE","Address":"50 Los Gatos Saratoga Rd","City":"Los Gatos","State":"CA","Zip":"95032"},{"Location":"LOS GATOS PIZZA","Address":"14080 Blossom Hill Rd","City":"Los Gatos","State":"CA","Zip":"95032"},{"Location":"LOS GATOS SWIN AND RACQUET","Address":"14700 Oka Rd","City":"Los Gatos","State":"CA","Zip":"95032"},{"Location":"MORGAN STANLEY 100167","Address":"16000 Los Gatos Blvd","City":"Los Gatos","State":"CA","Zip":"95032"},{"Location":"NET FLIX INC","Address":"100 Winchester Ave","City":"Los Gatos","State":"CA","Zip":"95032"},{"Location":"NETFLIX 2","Address":"14600 Winchester Blvd","City":"Los Gatos","State":"CA","Zip":"95032"},{"Location":"NETFLIX 4","Address":"100 Winchester Cir","City":"Los Gatos","State":"CA","Zip":"95032"},{"Location":"PURPLE COMMUNICATIONS","Address":"16615 Lark Ave 201","City":"Los Gatos","State":"CA","Zip":"95032"},{"Location":"REALTY WORLD MILESTONE","Address":"15466 Los Gatos Blvd 206","City":"Los Gatos","State":"CA","Zip":"95032"},{"Location":"ROUND TABLE PIZZA","Address":"1472 Pollard Rd","City":"Los Gatos","State":"CA","Zip":"95032"},{"Location":"SANTA CLARA VALLEY WATER","Address":"400 More Ave","City":"Los Gatos","State":"CA","Zip":"95032"},{"Location":"SILICON VALLEY SURGERY CENTER","Address":"14601 S Bascom Ave 100","City":"Los Gatos","State":"CA","Zip":"95032"},{"Location":"SWEENEY MASON WILSON & BOSOMWO","Address":"983 University Ave 104c","City":"Los Gatos","State":"CA","Zip":"95032"},{"Location":"UBS FINANCIAL SERVICES","Address":"750 University Ave 250","City":"Los Gatos","State":"CA","Zip":"95032"},{"Location":"UNA MAS","Address":"15724 Los Gatos Blvd","City":"Los Gatos","State":"CA","Zip":"95032"}]