[{"Location":"BEARS HIDEAWAY","Address":"402 B 3rd Street","City":"San Juan Bautista","State":"CA","Zip":"95045"},{"Location":"DAISYS SALOON","Address":"213 3rd St","City":"San Juan Bautista","State":"CA","Zip":"95045"},{"Location":"EARTHBOUND FARM","Address":"1721 San Juan Hwy","City":"San Juan Bautista","State":"CA","Zip":"95045"},{"Location":"FREEDOM REIGNS LLC","Address":"2901 Y Rd","City":"San Juan Bautista","State":"CA","Zip":"95045"},{"Location":"FREEDOM REIGNS LLC 1","Address":"2901 Y Rd","City":"San Juan Bautista","State":"CA","Zip":"95045"},{"Location":"MOM AND POP'S SALOON","Address":"205 3rd St","City":"San Juan Bautista","State":"CA","Zip":"95045"},{"Location":"NONG WOO SEED AMERICA","Address":"20 Cagney Rd","City":"San Juan Bautista","State":"CA","Zip":"95045"},{"Location":"SAN JUAN BAUTISTA","Address":"301 3rd Street","City":"San Juan Bautista","State":"CA","Zip":"95045"},{"Location":"TOPFLAVOR FARMS INC","Address":"821 Bixby Rd","City":"San Juan Bautista","State":"CA","Zip":"95045"},{"Location":"VETERANS OF FOREIGN WAR POST","Address":"58 Monterey St","City":"San Juan Bautista","State":"CA","Zip":"95045"}]