[{"Location":"2350 MISSION INVESTORLLC","Address":"2350 Mission College Blvd 150","City":"Santa Clara","State":"CA","Zip":"95054"},{"Location":"4  YOUR WHEELZ INC","Address":"890 Comstock St","City":"Santa Clara","State":"CA","Zip":"95054"},{"Location":"ABBOTT VASCULAR","Address":"3200 Lakeside Dr","City":"Santa Clara","State":"CA","Zip":"95054"},{"Location":"ABBOTT VASCUSLAR","Address":"3200 Lakeside Dr A","City":"Santa Clara","State":"CA","Zip":"95054"},{"Location":"ABM","Address":"3330 Scott Blvd Bld 6","City":"Santa Clara","State":"CA","Zip":"95054"},{"Location":"ABM","Address":"3090 Bowers Ave","City":"Santa Clara","State":"CA","Zip":"95054"},{"Location":"ABM","Address":"3535 Garrett Dr","City":"Santa Clara","State":"CA","Zip":"95054"},{"Location":"ABM","Address":"3101 Scott Blvd Bld93","City":"Santa Clara","State":"CA","Zip":"95054"},{"Location":"ACROSCOPE","Address":"3501 Thomas Rd","City":"Santa Clara","State":"CA","Zip":"95054"},{"Location":"ADVANCEV","Address":"4701 Patrick Henry Dr 12","City":"Santa Clara","State":"CA","Zip":"95054"},{"Location":"AKAMAI TECHNOLOGIES","Address":"3355 Scott Blvd","City":"Santa Clara","State":"CA","Zip":"95054"},{"Location":"APPLIED MATERIAL FITNESS","Address":"3535 Garrett Dr","City":"Santa Clara","State":"CA","Zip":"95054"},{"Location":"APPLIED MATERIALS","Address":"3050 Bowers Ave","City":"Santa Clara","State":"CA","Zip":"95054"},{"Location":"APPLIED MATERIALS","Address":"3101 Scott Blvd 9106","City":"Santa Clara","State":"CA","Zip":"95054"},{"Location":"ARNOLDS METAL FINISHING","Address":"805 Aldo Ave 104","City":"Santa Clara","State":"CA","Zip":"95054"},{"Location":"AVIAT NETWORKS","Address":"5200 Great America Pkwy","City":"Santa Clara","State":"CA","Zip":"95054"},{"Location":"AXIS RESTAURANT","Address":"2909 Lakeside Dr","City":"Santa Clara","State":"CA","Zip":"95054"},{"Location":"BARNS AND NOBLE","Address":"4555 Great America Pkwy 201","City":"Santa Clara","State":"CA","Zip":"95054"},{"Location":"BENNIGANS 1","Address":"4150 Great America Pkwy","City":"Santa Clara","State":"CA","Zip":"95054"},{"Location":"BILTMORE HOTEL","Address":"2151 Laurelwood Rd","City":"Santa Clara","State":"CA","Zip":"95054"},{"Location":"BIRKS","Address":"3955 Freedom Cir 650","City":"Santa Clara","State":"CA","Zip":"95054"},{"Location":"BROAD COM CORP","Address":"2451 Mission College Blvd","City":"Santa Clara","State":"CA","Zip":"95054"},{"Location":"BROADCOM CORP","Address":"2431 Mission College Blvd","City":"Santa Clara","State":"CA","Zip":"95054"},{"Location":"BROADCOM CORP","Address":"2451 Mission College Blvd","City":"Santa Clara","State":"CA","Zip":"95054"},{"Location":"BT AMERICAS INC","Address":"2901 Tasman Dr 204","City":"Santa Clara","State":"CA","Zip":"95054"},{"Location":"BUTTER & ZEUS","Address":"2213 Tasman Dr","City":"Santa Clara","State":"CA","Zip":"95054"},{"Location":"C FOOD CONCEPTS INC 574","Address":"2855 Augustine Dr","City":"Santa Clara","State":"CA","Zip":"95054"},{"Location":"CA TECHNOLOGIES","Address":"3965 Freedom Cir","City":"Santa Clara","State":"CA","Zip":"95054"},{"Location":"CALIFORNIA'S GREAT AMERICA","Address":"2401 Agnew Rd","City":"Santa Clara","State":"CA","Zip":"95054"},{"Location":"CALIFORNINA GREAT AMERICA","Address":"2401 Agnew Rd","City":"Santa Clara","State":"CA","Zip":"95054"},{"Location":"CAP ASSOCIATES%2C LLC","Address":"2804 Mission College Blvd 120","City":"Santa Clara","State":"CA","Zip":"95054"},{"Location":"CARRAMERICA REALTY 105604","Address":"5201 Great America Pkwy 226","City":"Santa Clara","State":"CA","Zip":"95054"},{"Location":"CITRIX SYSTEMS","Address":"4980 Great America Pkwy","City":"Santa Clara","State":"CA","Zip":"95054"},{"Location":"CITRIX SYSTEMS INC","Address":"4988 Great America Pkwy","City":"Santa Clara","State":"CA","Zip":"95054"},{"Location":"CITRIX SYSTEMS INC","Address":"4555 Great America Pkwy","City":"Santa Clara","State":"CA","Zip":"95054"},{"Location":"COHERENT 2","Address":"5100 Patrick Henry Dr 1","City":"Santa Clara","State":"CA","Zip":"95054"},{"Location":"COMPUTER MEDIA TECHNOLOGY","Address":"590 Laurelwood Rd","City":"Santa Clara","State":"CA","Zip":"95054"},{"Location":"DATA DOMAIN INC","Address":"2421 Mission College Blvd","City":"Santa Clara","State":"CA","Zip":"95054"},{"Location":"DATASTAX%2C INC.","Address":"3975 Freedom Cir","City":"Santa Clara","State":"CA","Zip":"95054"},{"Location":"DAVID'S RESTAURANT","Address":"5151 Stars And Stripes Dr","City":"Santa Clara","State":"CA","Zip":"95054"},{"Location":"DAVIDS BANQUET FACILITY","Address":"5131 Stars And Stripes Dr","City":"Santa Clara","State":"CA","Zip":"95054"},{"Location":"DELL","Address":"5450 Great America Pkwy","City":"Santa Clara","State":"CA","Zip":"95054"},{"Location":"DIMETRIOUS PAINTING INC","Address":"5102 Kalle Del Sol","City":"Santa Clara","State":"CA","Zip":"95054"},{"Location":"DR. MYRNA GRACE HILO","Address":"4767 Lafayette St","City":"Santa Clara","State":"CA","Zip":"95054"},{"Location":"EASTERN FURNITURE","Address":"1231 Comstock St","City":"Santa Clara","State":"CA","Zip":"95054"},{"Location":"EDA DIRECT","Address":"4701 Patrick Henry Dr 1301","City":"Santa Clara","State":"CA","Zip":"95054"},{"Location":"EL TORITO 7060","Address":"2950 Lakeside Dr","City":"Santa Clara","State":"CA","Zip":"95054"},{"Location":"EMBRANE","Address":"2350 Mission College Blvd 703","City":"Santa Clara","State":"CA","Zip":"95054"},{"Location":"EQUINIX SV2","Address":"1350 Duane Ave","City":"Santa Clara","State":"CA","Zip":"95054"},{"Location":"ERIKS DELI CAFE","Address":"5451 Great America Pkwy 101","City":"Santa Clara","State":"CA","Zip":"95054"},{"Location":"EVOLUTION BAR - REGENCY","Address":"5101 Great America Pkwy","City":"Santa Clara","State":"CA","Zip":"95054"},{"Location":"EXECUTIVE SUITE 100","Address":"4701 Patrick Henry Dr","City":"Santa Clara","State":"CA","Zip":"95054"},{"Location":"FILEMAKER INC","Address":"5201 Patrick Henry Dr","City":"Santa Clara","State":"CA","Zip":"95054"},{"Location":"FRAGOMEN","Address":"2121 Tasman Dr","City":"Santa Clara","State":"CA","Zip":"95054"},{"Location":"FUTURE DEVICES","Address":"970 George St","City":"Santa Clara","State":"CA","Zip":"95054"},{"Location":"GENERAL DYNAMICS AIS","Address":"2305 Mission College Blvd","City":"Santa Clara","State":"CA","Zip":"95054"},{"Location":"GIGAMON INC","Address":"3300 Olcott St","City":"Santa Clara","State":"CA","Zip":"95054"},{"Location":"GIGAMON INCORPORATED","Address":"3300 Olcott St","City":"Santa Clara","State":"CA","Zip":"95054"},{"Location":"GILBERT SPRAYCOAT INC","Address":"300 Laurelwood Rd","City":"Santa Clara","State":"CA","Zip":"95054"},{"Location":"GLOBALLINK ONE CAPITOL","Address":"2350 Mission College Blvd 1000","City":"Santa Clara","State":"CA","Zip":"95054"},{"Location":"GOLD'S GYM #423","Address":"1900 Duane Ave","City":"Santa Clara","State":"CA","Zip":"95054"},{"Location":"GRACE ADHC","Address":"3010 Olcott St","City":"Santa Clara","State":"CA","Zip":"95054"},{"Location":"HILTON SANTA CLARA","Address":"4949 Great America Pkwy","City":"Santa Clara","State":"CA","Zip":"95054"},{"Location":"HILTON SANTA CLARA(0050420)","Address":"4949 Great America Pkwy","City":"Santa Clara","State":"CA","Zip":"95054"},{"Location":"HOPE SERVICES","Address":"3080 Alfred St","City":"Santa Clara","State":"CA","Zip":"95054"},{"Location":"HORTON WORKS","Address":"5470 Great America Pkwy","City":"Santa Clara","State":"CA","Zip":"95054"},{"Location":"HQ GLOBAL WORKPLACES","Address":"5201 Great America Pkwy 320","City":"Santa Clara","State":"CA","Zip":"95054"},{"Location":"HYATT SANTA CLARA","Address":"5101 Great America Pkwy","City":"Santa Clara","State":"CA","Zip":"95054"},{"Location":"IGUANAS BURRITOZILLA","Address":"4300 Great America Pkwy 116","City":"Santa Clara","State":"CA","Zip":"95054"},{"Location":"IHS","Address":"3975 Freedom Cir 300","City":"Santa Clara","State":"CA","Zip":"95054"},{"Location":"ILLUMIO INC","Address":"2255 Schott Ct 101","City":"Santa Clara","State":"CA","Zip":"95054"},{"Location":"IMATECH","Address":"720 Aldo Ave","City":"Santa Clara","State":"CA","Zip":"95054"},{"Location":"INFOBLOX INC.","Address":"3111 Coronado Dr","City":"Santa Clara","State":"CA","Zip":"95054"},{"Location":"INTEGRA - HONEYWELL","Address":"3500 Garrett Dr 1071","City":"Santa Clara","State":"CA","Zip":"95054"},{"Location":"INTEL CORP","Address":"2200 Mission College Blvd","City":"Santa Clara","State":"CA","Zip":"95054"},{"Location":"INTEL CORP.","Address":"3600 Juliette Ln","City":"Santa Clara","State":"CA","Zip":"95054"},{"Location":"INTEL CORPORATION","Address":"2200 Mission College Blvd","City":"Santa Clara","State":"CA","Zip":"95054"},{"Location":"INTEL CORPORATION INC","Address":"2200 Mission College Blvd","City":"Santa Clara","State":"CA","Zip":"95054"},{"Location":"INTEL STUDIOS","Address":"2200 Mission College Blvd","City":"Santa Clara","State":"CA","Zip":"95054"},{"Location":"INTERNAP","Address":"2151 Mission College Blvd","City":"Santa Clara","State":"CA","Zip":"95054"},{"Location":"IRVINE COMPANY","Address":"5451 Great America Pkwy 201","City":"Santa Clara","State":"CA","Zip":"95054"},{"Location":"KPMG PEAT MARWICK LLP","Address":"3975 Freedom Cir 100","City":"Santa Clara","State":"CA","Zip":"95054"},{"Location":"LECROY CORPORATIONS","Address":"3385 Scott Blvd","City":"Santa Clara","State":"CA","Zip":"95054"},{"Location":"LGE - BUNKER HILL","Address":"2952 Bunker Hill Ln","City":"Santa Clara","State":"CA","Zip":"95054"},{"Location":"LGE - GREAT AMERICAN","Address":"5150 Great America Pkwy","City":"Santa Clara","State":"CA","Zip":"95054"},{"Location":"LIMA TOWING","Address":"3591 Thomas Rd","City":"Santa Clara","State":"CA","Zip":"95054"},{"Location":"M WEST CAPITAL REIT","Address":"3351 Olcott St","City":"Santa Clara","State":"CA","Zip":"95054"},{"Location":"MARRIOTT%2FCHARACTERS SPORT","Address":"2700 Mission College Blvd","City":"Santa Clara","State":"CA","Zip":"95054"},{"Location":"MARVELL","Address":"5468 Marvell Ln","City":"Santa Clara","State":"CA","Zip":"95054"},{"Location":"MARVELL SEMICONDUCTOR INC","Address":"5450 Bayfront Plz","City":"Santa Clara","State":"CA","Zip":"95054"},{"Location":"MCAFEE%2CINC","Address":"2821 Mission College Blvd","City":"Santa Clara","State":"CA","Zip":"95054"},{"Location":"MET LABORATORIES INC","Address":"3162 Belick St","City":"Santa Clara","State":"CA","Zip":"95054"},{"Location":"MEXICALI GRILL","Address":"3149 Mission College Blvd","City":"Santa Clara","State":"CA","Zip":"95054"},{"Location":"MICHAEL MINAS TAILGATE","Address":"4900 Marie P Dibartolo Way","City":"Santa Clara","State":"CA","Zip":"95054"},{"Location":"MIPS TECHNOLOGIES","Address":"3201 Scott Blvd","City":"Santa Clara","State":"CA","Zip":"95054"},{"Location":"MRUNAL","Address":"3990 Freedom Cir","City":"Santa Clara","State":"CA","Zip":"95054"},{"Location":"N T R METALS LLC","Address":"3094 Kenneth St","City":"Santa Clara","State":"CA","Zip":"95054"},{"Location":"NATIONAL INSTRUMENTS INC","Address":"4600 Patrick Henry Dr","City":"Santa Clara","State":"CA","Zip":"95054"},{"Location":"NET OPTICS","Address":"5303 Betsy Ross Dr","City":"Santa Clara","State":"CA","Zip":"95054"},{"Location":"NETGEAR%2C INC. 902889 ON","Address":"4500 Great America Pkwy","City":"Santa Clara","State":"CA","Zip":"95054"},{"Location":"NEW CAMAU RESTAURANT","Address":"3775 Lafayette St","City":"Santa Clara","State":"CA","Zip":"95054"},{"Location":"OLD IRONSIDES CAFE","Address":"4655 Old Ironsides Dr 150","City":"Santa Clara","State":"CA","Zip":"95054"},{"Location":"OMNI VISION TECHNOLOGY","Address":"4275 S Burton Ave","City":"Santa Clara","State":"CA","Zip":"95054"},{"Location":"ON SEMICONDUCTOR","Address":"3001 Stender Way","City":"Santa Clara","State":"CA","Zip":"95054"},{"Location":"OOYALA 1","Address":"4750 Patrick Henry Dr","City":"Santa Clara","State":"CA","Zip":"95054"},{"Location":"OPSOURCE%2C INC.","Address":"5201 Great America Pkwy 120","City":"Santa Clara","State":"CA","Zip":"95054"},{"Location":"ORACLE - SCA - 04","Address":"4040 Palm Dr","City":"Santa Clara","State":"CA","Zip":"95054"},{"Location":"ORACLE - SCA - 15","Address":"4150 Network Cir","City":"Santa Clara","State":"CA","Zip":"95054"},{"Location":"ORACLE - SCA - 21","Address":"4210 Network Cir","City":"Santa Clara","State":"CA","Zip":"95054"},{"Location":"ORACLE AMERICA INC","Address":"4070 George Sellon Circle","City":"Santa Clara","State":"CA","Zip":"95054"},{"Location":"ORACLE AMERICA INC","Address":"4220 Network Cir","City":"Santa Clara","State":"CA","Zip":"95054"},{"Location":"ORACLE AMERICA INC","Address":"4030 George Sellon Circle","City":"Santa Clara","State":"CA","Zip":"95054"},{"Location":"PEDRO'S RESTAURANT","Address":"3935 Freedom Cir","City":"Santa Clara","State":"CA","Zip":"95054"},{"Location":"PICARRO INC","Address":"3105 Patrick Henry Dr","City":"Santa Clara","State":"CA","Zip":"95054"},{"Location":"PIZZA MY HEART2","Address":"4300 Great America Pkwy 148","City":"Santa Clara","State":"CA","Zip":"95054"},{"Location":"PR FREEDOM CIRCLE LLC","Address":"3975 Freedom Cir","City":"Santa Clara","State":"CA","Zip":"95054"},{"Location":"PREMIER PIZZA","Address":"3944 Rivermark Plz","City":"Santa Clara","State":"CA","Zip":"95054"},{"Location":"PRESIDIO VENTURES  INC","Address":"3979 Freedom Cir 340","City":"Santa Clara","State":"CA","Zip":"95054"},{"Location":"QUALITY MACHINE","Address":"2277 Calle De Luna","City":"Santa Clara","State":"CA","Zip":"95054"},{"Location":"RAY JAY ENGINEERING","Address":"3501 Thomas Rd 9","City":"Santa Clara","State":"CA","Zip":"95054"},{"Location":"RDC MACHINES INC","Address":"384 Laurelwood Rd","City":"Santa Clara","State":"CA","Zip":"95054"},{"Location":"REACH FITNESS","Address":"4230 Network Cir","City":"Santa Clara","State":"CA","Zip":"95054"},{"Location":"RED OCTANE DESIGN","Address":"2465 Augustine Dr 101","City":"Santa Clara","State":"CA","Zip":"95054"},{"Location":"RED ROBIN #102","Address":"3906 Rivermark Plz","City":"Santa Clara","State":"CA","Zip":"95054"},{"Location":"RGS INDUSTIREIS","Address":"445 Laurelwood Rd","City":"Santa Clara","State":"CA","Zip":"95054"},{"Location":"RS ALAMEDA  LLC","Address":"5101 Lafayette St","City":"Santa Clara","State":"CA","Zip":"95054"},{"Location":"SAN FRANCISCO 49ERS","Address":"4949 Centennial Blvd","City":"Santa Clara","State":"CA","Zip":"95054"},{"Location":"SAN FRANCISCO FORTY NINERS","Address":"4949 Centennial Blvd","City":"Santa Clara","State":"CA","Zip":"95054"},{"Location":"SANTA CLARA CAMPUS PARTN","Address":"3355 Scott Blvd","City":"Santa Clara","State":"CA","Zip":"95054"},{"Location":"SANTA CLARA MARRIOTT FITNESS","Address":"2700 Mission College Blvd","City":"Santa Clara","State":"CA","Zip":"95054"},{"Location":"SANTA CLARA VANGUARD","Address":"1795 Space Park Dr","City":"Santa Clara","State":"CA","Zip":"95054"},{"Location":"SAVVIS","Address":"4650 Old Ironsides Dr","City":"Santa Clara","State":"CA","Zip":"95054"},{"Location":"SAVVIS TASMAN SCO1","Address":"2101 Tasman Dr","City":"Santa Clara","State":"CA","Zip":"95054"},{"Location":"SERRANOELECTRIC","Address":"1705 Russell Ave","City":"Santa Clara","State":"CA","Zip":"95054"},{"Location":"SERVICE NOW","Address":"3250 Jay St","City":"Santa Clara","State":"CA","Zip":"95054"},{"Location":"SHORENSTEIN REALTY SERVICES","Address":"3945 Freedom Cir","City":"Santa Clara","State":"CA","Zip":"95054"},{"Location":"SIGNET MEDIA","Address":"3350 Scott Blvd","City":"Santa Clara","State":"CA","Zip":"95054"},{"Location":"SILICON VALLEY BANK","Address":"3005 Tasman Dr","City":"Santa Clara","State":"CA","Zip":"95054"},{"Location":"SILICON VALLEY BANK","Address":"3003 Tasman Dr","City":"Santa Clara","State":"CA","Zip":"95054"},{"Location":"SMOKEEATERS","Address":"3175 Mission College Blvd","City":"Santa Clara","State":"CA","Zip":"95054"},{"Location":"SOFTWARE AG","Address":"2901 Tasman Dr 219","City":"Santa Clara","State":"CA","Zip":"95054"},{"Location":"SONIC WALL","Address":"5455 Great America Pkwy","City":"Santa Clara","State":"CA","Zip":"95054"},{"Location":"SP THREE DIAMOND TECHNOLOGIES","Address":"1605 Wyatt Dr","City":"Santa Clara","State":"CA","Zip":"95054"},{"Location":"ST MICROELECTRONICS","Address":"2525 Ausustine Dr","City":"Santa Clara","State":"CA","Zip":"95054"},{"Location":"STATEWIDE INSULATION INC","Address":"910 George St","City":"Santa Clara","State":"CA","Zip":"95054"},{"Location":"TAFATOLU CHURCH","Address":"3200 Patrick Henry Dr","City":"Santa Clara","State":"CA","Zip":"95054"},{"Location":"TELAIRITY","Address":"3375 Scott Blvd 300","City":"Santa Clara","State":"CA","Zip":"95054"},{"Location":"THE IRVINE COMPANY","Address":"5451 Great America Pkwy","City":"Santa Clara","State":"CA","Zip":"95054"},{"Location":"THE LANDINGS SC LLC","Address":"5470 Great America Pkwy 2","City":"Santa Clara","State":"CA","Zip":"95054"},{"Location":"THE MUTUAL FUND STORE","Address":"2350 Mission College Blvd 450","City":"Santa Clara","State":"CA","Zip":"95054"},{"Location":"THE PLAZA SUITES","Address":"3100 Lakeside Dr","City":"Santa Clara","State":"CA","Zip":"95054"},{"Location":"THE PRUDENTIAL INSTURANCE CO","Address":"4557 Great America Pkwy","City":"Santa Clara","State":"CA","Zip":"95054"},{"Location":"THORNHILL FINACIAL","Address":"3375 Scott Blvd 312","City":"Santa Clara","State":"CA","Zip":"95054"},{"Location":"TOGOS","Address":"5350 Great America Pkwy","City":"Santa Clara","State":"CA","Zip":"95054"},{"Location":"TOGOS","Address":"4300 Great America Pkwy 108","City":"Santa Clara","State":"CA","Zip":"95054"},{"Location":"TOMATINA","Address":"3127 Mission College Blvd","City":"Santa Clara","State":"CA","Zip":"95054"},{"Location":"TOPPAN PHOTO MASK","Address":"3016 Coronado Dr","City":"Santa Clara","State":"CA","Zip":"95054"},{"Location":"TOPPAN PHOTO MASK 2","Address":"2520 Mission College Blvd 202","City":"Santa Clara","State":"CA","Zip":"95054"},{"Location":"TURNER DEVCON INC-AJOINT","Address":"2564 Tasman Dr","City":"Santa Clara","State":"CA","Zip":"95054"},{"Location":"VALLY HOUSE CARE CENTER","Address":"991 Clyde Ave","City":"Santa Clara","State":"CA","Zip":"95054"},{"Location":"VESPA RESTAURANT","Address":"890 Aldo Ave","City":"Santa Clara","State":"CA","Zip":"95054"},{"Location":"VIOLIN MEMORY INC","Address":"4555 Great America Pkwy","City":"Santa Clara","State":"CA","Zip":"95054"},{"Location":"VOBILE INC","Address":"1350 Duane Ave","City":"Santa Clara","State":"CA","Zip":"95054"},{"Location":"VOBILE INC","Address":"2880 Lakeside Dr 360","City":"Santa Clara","State":"CA","Zip":"95054"},{"Location":"VYUMIX","Address":"3375 Scott Blvd 138","City":"Santa Clara","State":"CA","Zip":"95054"},{"Location":"WATTS MACHINING INC","Address":"2339 Calle Del Mundo","City":"Santa Clara","State":"CA","Zip":"95054"},{"Location":"WHEEL TECHNIQUES","Address":"3280 Edward Ave","City":"Santa Clara","State":"CA","Zip":"95054"},{"Location":"WIND RIVER SYSTEMS 2","Address":"2903 Bunker Hill Ln 2","City":"Santa Clara","State":"CA","Zip":"95054"},{"Location":"YAN CAN ASIAN BISTRO","Address":"3927 Rivermark Plz","City":"Santa Clara","State":"CA","Zip":"95054"},{"Location":"YO YO SUSHI","Address":"3958 Rivermark Plz","City":"Santa Clara","State":"CA","Zip":"95054"},{"Location":"YO YO SUSHI MERCADO","Address":"3147 Mission College Blvd","City":"Santa Clara","State":"CA","Zip":"95054"}]