[{"Location":"49ERS TEAM STORE","Address":"2855 Stevens Creek Blvd B269","City":"Santa Clara","State":"CA","Zip":"95050"},{"Location":"AIRBORN GYMNASTICS","Address":"1515 Walsh Ave","City":"Santa Clara","State":"CA","Zip":"95050"},{"Location":"ALL OUT BASEBALL","Address":"2118 Camino Real A","City":"Santa Clara","State":"CA","Zip":"95050"},{"Location":"ALMADEN PRESS INC","Address":"2549 Scott Blvd","City":"Santa Clara","State":"CA","Zip":"95050"},{"Location":"AMERICAN LEGION","Address":"2120 Walsh Ave","City":"Santa Clara","State":"CA","Zip":"95050"},{"Location":"ANDY'S BBQ","Address":"2367 El Camino Real","City":"Santa Clara","State":"CA","Zip":"95050"},{"Location":"ARIGATO SUSHI","Address":"2855 Stevens Creek Blvd","City":"Santa Clara","State":"CA","Zip":"95050"},{"Location":"BAE SYSTEMS","Address":"1205 Coleman Ave","City":"Santa Clara","State":"CA","Zip":"95050"},{"Location":"BAE SYSTEMS","Address":"340 Brokaw Rd","City":"Santa Clara","State":"CA","Zip":"95050"},{"Location":"BIG JIMS BARBERSHOP","Address":"1041 Monroe St","City":"Santa Clara","State":"CA","Zip":"95050"},{"Location":"BLINKY'S CAN'T SAY LOUNGE","Address":"1031 Monroe St","City":"Santa Clara","State":"CA","Zip":"95050"},{"Location":"BRONCOS RETREAT","Address":"1251 Franklin Mall","City":"Santa Clara","State":"CA","Zip":"95050"},{"Location":"BURGER KING","Address":"1925 El Camino Real","City":"Santa Clara","State":"CA","Zip":"95050"},{"Location":"C & J'S SPORTS BAR","Address":"1550 Lafayette St","City":"Santa Clara","State":"CA","Zip":"95050"},{"Location":"CALIFORNIA PIZZA KITCHEN #156","Address":"2855 Stevens Creek Blvd","City":"Santa Clara","State":"CA","Zip":"95050"},{"Location":"CASA DE FRUTA","Address":"2855 Stevens Creek Blvd 1065","City":"Santa Clara","State":"CA","Zip":"95050"},{"Location":"COLEMAN FAMILY DENTAL","Address":"1341 Coleman Ave","City":"Santa Clara","State":"CA","Zip":"95050"},{"Location":"CRAMER'S BAGEL","Address":"495 El Camino Real 131","City":"Santa Clara","State":"CA","Zip":"95050"},{"Location":"E AND A DOOR COMPANY","Address":"1805 Walsh Ave","City":"Santa Clara","State":"CA","Zip":"95050"},{"Location":"ED'S TERIYAKI","Address":"1992 Lafayette St","City":"Santa Clara","State":"CA","Zip":"95050"},{"Location":"EGGS BY THE BAY","Address":"965 Shulman Ave","City":"Santa Clara","State":"CA","Zip":"95050"},{"Location":"EL CAMINO AUTOMATION SER","Address":"2320 El Camino Real","City":"Santa Clara","State":"CA","Zip":"95050"},{"Location":"ELKS LODGE","Address":"1680 Martin Ave","City":"Santa Clara","State":"CA","Zip":"95050"},{"Location":"EQA OFFICE FURNITURE","Address":"915 Walsh Ave","City":"Santa Clara","State":"CA","Zip":"95050"},{"Location":"ESCOFFIER CULINARY INC","Address":"1285 Homestead Rd","City":"Santa Clara","State":"CA","Zip":"95050"},{"Location":"FALAFEL CORNER 1","Address":"1855 El Camino Real","City":"Santa Clara","State":"CA","Zip":"95050"},{"Location":"FIORILLOS RESTAURANTS","Address":"638 El Camino Real","City":"Santa Clara","State":"CA","Zip":"95050"},{"Location":"GARDEN CITY SANITATION","Address":"1080 Walsh Ave","City":"Santa Clara","State":"CA","Zip":"95050"},{"Location":"GERMAN AUTO BODY","Address":"290 Martin Ave","City":"Santa Clara","State":"CA","Zip":"95050"},{"Location":"GOLDEN MUSHROOM PIZZERIA","Address":"202 Saratoga Ave","City":"Santa Clara","State":"CA","Zip":"95050"},{"Location":"HITACHI DATA SYSTEMS","Address":"700 Central Expy B32","City":"Santa Clara","State":"CA","Zip":"95050"},{"Location":"HITACHI DATA SYSTEMS","Address":"750 Central Expy","City":"Santa Clara","State":"CA","Zip":"95050"},{"Location":"HUNGRY HOUND","Address":"1000 Lafayette St C","City":"Santa Clara","State":"CA","Zip":"95050"},{"Location":"ILLUMINA","Address":"451 El Camino Real 210","City":"Santa Clara","State":"CA","Zip":"95050"},{"Location":"JASMINE TSAI CUSINE LLC","Address":"1211 Franklin Mall","City":"Santa Clara","State":"CA","Zip":"95050"},{"Location":"JESUIT COMMMUNITY","Address":"801 Franklin St","City":"Santa Clara","State":"CA","Zip":"95050"},{"Location":"JLM CONSTRUCTION","Address":"366 Martin Ave","City":"Santa Clara","State":"CA","Zip":"95050"},{"Location":"KOREA HOUSE","Address":"2340 El Camino Real","City":"Santa Clara","State":"CA","Zip":"95050"},{"Location":"KOREAN CHESS CLUB","Address":"581 Saratoga Ave","City":"Santa Clara","State":"CA","Zip":"95050"},{"Location":"LA PALOMA","Address":"2280 El Camino Real","City":"Santa Clara","State":"CA","Zip":"95050"},{"Location":"LAS FLAMAS","Address":"2325 El Camino Real 101","City":"Santa Clara","State":"CA","Zip":"95050"},{"Location":"LETTUCE SANDWICH SHOP","Address":"1345 Coleman Ave","City":"Santa Clara","State":"CA","Zip":"95050"},{"Location":"LOVELY HAIR AND NAILS","Address":"2511 Scott Blvd","City":"Santa Clara","State":"CA","Zip":"95050"},{"Location":"MACY'S WEST 358","Address":"3051 Stevens Creek Blvd","City":"Santa Clara","State":"CA","Zip":"95050"},{"Location":"MACY'S WEST 358 BR","Address":"2801 Stevens Creek Blvd","City":"Santa Clara","State":"CA","Zip":"95050"},{"Location":"MELIHAN FAMILY LLC","Address":"2465 De La Cruz Blvd","City":"Santa Clara","State":"CA","Zip":"95050"},{"Location":"METAL VISION PLUS","Address":"661 Reed St","City":"Santa Clara","State":"CA","Zip":"95050"},{"Location":"MICROSOFT-CBRE","Address":"2045 Lafayette St","City":"Santa Clara","State":"CA","Zip":"95050"},{"Location":"MICROSOFT-SANTA CLARA","Address":"2855 Stevens Creek Blvd 1135","City":"Santa Clara","State":"CA","Zip":"95050"},{"Location":"MISSION CITY CREAMERY","Address":"2905 Park Ave","City":"Santa Clara","State":"CA","Zip":"95050"},{"Location":"MISSION CITY GRILL","Address":"2000 El Camino Real","City":"Santa Clara","State":"CA","Zip":"95050"},{"Location":"NOR CAL PATIO","Address":"1351 Coleman Ave","City":"Santa Clara","State":"CA","Zip":"95050"},{"Location":"NORMANDY BAR INC","Address":"30 Washington St","City":"Santa Clara","State":"CA","Zip":"95050"},{"Location":"NVIDIA CORPORATION","Address":"2701 San Tomas Expy","City":"Santa Clara","State":"CA","Zip":"95050"},{"Location":"NVIDIA INC","Address":"2880 Scott Blvd","City":"Santa Clara","State":"CA","Zip":"95050"},{"Location":"NVIDIA-MM-SYSENG","Address":"2890 Scott Blvd K","City":"Santa Clara","State":"CA","Zip":"95050"},{"Location":"OFF THE WALL SOCCER","Address":"700 Mathew St","City":"Santa Clara","State":"CA","Zip":"95050"},{"Location":"OHBOBA","Address":"1000 Lafayette St F","City":"Santa Clara","State":"CA","Zip":"95050"},{"Location":"OLIVEIRA FENCE INC","Address":"293 Brokaw Rd","City":"Santa Clara","State":"CA","Zip":"95050"},{"Location":"ONE WORKPLACE","Address":"2500 De La Cruz Blvd","City":"Santa Clara","State":"CA","Zip":"95050"},{"Location":"OWENS CORNING","Address":"960 Central Expy","City":"Santa Clara","State":"CA","Zip":"95050"},{"Location":"PRUNERIDGE GOLF CLUB","Address":"400 Saratoga Ave","City":"Santa Clara","State":"CA","Zip":"95050"},{"Location":"QUIZNOS 252","Address":"495 El Camino Real 111","City":"Santa Clara","State":"CA","Zip":"95050"},{"Location":"RAY KASROVI AND ASSOCIATES INC","Address":"1659 Scott Blvd 13","City":"Santa Clara","State":"CA","Zip":"95050"},{"Location":"RECOLOGY","Address":"650 Martin Ave","City":"Santa Clara","State":"CA","Zip":"95050"},{"Location":"RENESAS ELECTRONIC AMERICA","Address":"2801 Scott Blvd","City":"Santa Clara","State":"CA","Zip":"95050"},{"Location":"RICHMAR ASSOCIATES","Address":"283 Brokaw Rd","City":"Santa Clara","State":"CA","Zip":"95050"},{"Location":"ROUND TABLE PIZZA","Address":"2615 The Alameda","City":"Santa Clara","State":"CA","Zip":"95050"},{"Location":"ROVI CORP","Address":"2830 Dela Cruz Blvd","City":"Santa Clara","State":"CA","Zip":"95050"},{"Location":"ROVI CORP","Address":"2830 De La Cruz Blvd","City":"Santa Clara","State":"CA","Zip":"95050"},{"Location":"RUSSELLS FURNITURE","Address":"2600 Lafayette St","City":"Santa Clara","State":"CA","Zip":"95050"},{"Location":"SANTA CLARA IMAGING CENTER","Address":"1825 Civic Center Dr","City":"Santa Clara","State":"CA","Zip":"95050"},{"Location":"SANTA CLARA UNIV%2CMEDIA SERVICE","Address":"500 El Camino Real","City":"Santa Clara","State":"CA","Zip":"95050"},{"Location":"SANTA CLARA UNIVERSITY 2","Address":"591 Mission St","City":"Santa Clara","State":"CA","Zip":"95050"},{"Location":"SANTA CLARA UNIVERSITY INC","Address":"581 Hilmar St","City":"Santa Clara","State":"CA","Zip":"95050"},{"Location":"SANTA CLARA UNIVERSITY JESUIT","Address":"801 Franklin St","City":"Santa Clara","State":"CA","Zip":"95050"},{"Location":"SANTA CLARA UNIVERSITY SHERMAN","Address":"1043 Sherman St","City":"Santa Clara","State":"CA","Zip":"95050"},{"Location":"SARAS KITCHEN","Address":"15995 Franklin Street","City":"Santa Clara","State":"CA","Zip":"95050"},{"Location":"SENIORES PIZZA","Address":"940 Monroe St","City":"Santa Clara","State":"CA","Zip":"95050"},{"Location":"SERCURE MATICS","Address":"1135 Walsh Ave","City":"Santa Clara","State":"CA","Zip":"95050"},{"Location":"SJ MOTORS INC","Address":"300 Martin Ave","City":"Santa Clara","State":"CA","Zip":"95050"},{"Location":"SMART PLUMBERS & ROTORS","Address":"2175 Ronald St","City":"Santa Clara","State":"CA","Zip":"95050"},{"Location":"SNAP FITNESS #531","Address":"60 N Winchester Blvd 8","City":"Santa Clara","State":"CA","Zip":"95050"},{"Location":"SPORTS AUTHORITY 769","Address":"2855 Stevens Creek Blvd","City":"Santa Clara","State":"CA","Zip":"95050"},{"Location":"SPORTS FEVER","Address":"2855 Stevens Creek Blvd 2255","City":"Santa Clara","State":"CA","Zip":"95050"},{"Location":"SPORTSMENS LOUNGE","Address":"2368 Pruneridge Ave","City":"Santa Clara","State":"CA","Zip":"95050"},{"Location":"STAR NAILS","Address":"2104 El Camino Real","City":"Santa Clara","State":"CA","Zip":"95050"},{"Location":"SUBWAY","Address":"2421 The Alameda","City":"Santa Clara","State":"CA","Zip":"95050"},{"Location":"THAI BO DIA RESTAURANT","Address":"2155 El Camino Real","City":"Santa Clara","State":"CA","Zip":"95050"},{"Location":"THAI BODIA","Address":"2155 El Camino Real","City":"Santa Clara","State":"CA","Zip":"95050"},{"Location":"THE BALLPARK","Address":"2531 Newhall St","City":"Santa Clara","State":"CA","Zip":"95050"},{"Location":"THE BRONCO HUT","Address":"3200 The Alameda","City":"Santa Clara","State":"CA","Zip":"95050"},{"Location":"THE CHEESECAKE FACTORY 0058","Address":"3041 Stevens Creek Blvd L11","City":"Santa Clara","State":"CA","Zip":"95050"},{"Location":"THE SAWDUST SHOP","Address":"320 Martin Ave B","City":"Santa Clara","State":"CA","Zip":"95050"},{"Location":"UNA MAS TAQUERIA","Address":"2376 El Camino Real","City":"Santa Clara","State":"CA","Zip":"95050"},{"Location":"USCIS","Address":"1450 Coleman Ave","City":"Santa Clara","State":"CA","Zip":"95050"},{"Location":"VANS NAIL","Address":"1680 Lafayette St","City":"Santa Clara","State":"CA","Zip":"95050"},{"Location":"WESTFIELD VALLEY FAIR","Address":"2855 Stevens Creek Blvd 2178","City":"Santa Clara","State":"CA","Zip":"95050"},{"Location":"WICKED CHICKEN","Address":"2565 The Alameda","City":"Santa Clara","State":"CA","Zip":"95050"}]