[{"Location":"ACM MEDICAL BILLING","Address":"3234 Mckinley Dr","City":"Santa Clara","State":"CA","Zip":"95051"},{"Location":"AFFYMETRIX","Address":"3420 Central Expy","City":"Santa Clara","State":"CA","Zip":"95051"},{"Location":"ALLSTAR ACADEMY","Address":"2901 Mead Ave","City":"Santa Clara","State":"CA","Zip":"95051"},{"Location":"AMF MOONLITE LANES #266","Address":"2780 El Camino Real","City":"Santa Clara","State":"CA","Zip":"95051"},{"Location":"ANYTIME FITNESS SANTA CLARA","Address":"2718 Homestead Rd","City":"Santa Clara","State":"CA","Zip":"95051"},{"Location":"APPLE  INC.","Address":"5409 Stevens Creek Blvd","City":"Santa Clara","State":"CA","Zip":"95051"},{"Location":"APPLE PRL","Address":"2630 Walsh Ave","City":"Santa Clara","State":"CA","Zip":"95051"},{"Location":"APPLIED MATERIALS","Address":"3225 Oakmead Village Dr","City":"Santa Clara","State":"CA","Zip":"95051"},{"Location":"ARROW SANTA CLARA OFFICE","Address":"3000 Bowers Ave","City":"Santa Clara","State":"CA","Zip":"95051"},{"Location":"AUTO WEST ACURA","Address":"4747 Stevens Creek Blvd","City":"Santa Clara","State":"CA","Zip":"95051"},{"Location":"BY THE BUCKET","Address":"4565 Stevens Creek Blvd","City":"Santa Clara","State":"CA","Zip":"95051"},{"Location":"CAMINO BILLARD","Address":"3030 El Camino Real","City":"Santa Clara","State":"CA","Zip":"95051"},{"Location":"CHERRY SUSHI","Address":"2910 El Camino Real","City":"Santa Clara","State":"CA","Zip":"95051"},{"Location":"CHILI'S #0069","Address":"3591 El Camin0 Real","City":"Santa Clara","State":"CA","Zip":"95051"},{"Location":"CHOI KOREAN RESTAURANTS","Address":"3530 El Camino Real","City":"Santa Clara","State":"CA","Zip":"95051"},{"Location":"DAVITA #5197 SANTA CLARA","Address":"777 Lawrence Expy 18","City":"Santa Clara","State":"CA","Zip":"95051"},{"Location":"EMPRESS HAIR AND NAILS DESIGN","Address":"2820 Benton St","City":"Santa Clara","State":"CA","Zip":"95051"},{"Location":"EVANS ANALYTICAL GRP","Address":"2710 Walsh Ave","City":"Santa Clara","State":"CA","Zip":"95051"},{"Location":"FAMILY HEALTH CENTER","Address":"70 Saratoga Ave","City":"Santa Clara","State":"CA","Zip":"95051"},{"Location":"FIRESTONE #012882","Address":"3161 El Camino Real","City":"Santa Clara","State":"CA","Zip":"95051"},{"Location":"FREEDOM BURRITO","Address":"3259 Stevens Creek Blvd","City":"Santa Clara","State":"CA","Zip":"95051"},{"Location":"GALLERIA PLAZA","Address":"3531 El Camino Real","City":"Santa Clara","State":"CA","Zip":"95051"},{"Location":"GRAPHIC TS","Address":"3541 Ryder St","City":"Santa Clara","State":"CA","Zip":"95051"},{"Location":"HANMI KOREA BILLARD","Address":"3382 El Camino Real","City":"Santa Clara","State":"CA","Zip":"95051"},{"Location":"HD SUPPLY REPAIR & REMOD","Address":"2800 Kifer Rd","City":"Santa Clara","State":"CA","Zip":"95051"},{"Location":"HIE SANTA CLARA SILICON","Address":"2455 El Camino Real","City":"Santa Clara","State":"CA","Zip":"95051"},{"Location":"HOMESTEAD LOUNGE","Address":"3557 Homestead Rd","City":"Santa Clara","State":"CA","Zip":"95051"},{"Location":"JANG MO RESTAURANT","Address":"3148 El Camino Real 100","City":"Santa Clara","State":"CA","Zip":"95051"},{"Location":"JOHNSON CONTROLS","Address":"5301 Stevens Creek Blvd","City":"Santa Clara","State":"CA","Zip":"95051"},{"Location":"JOHNSON CONTROLS","Address":"5301 Stevens Creek Blvd B-1","City":"Santa Clara","State":"CA","Zip":"95051"},{"Location":"JOHNSON CONTROLS","Address":"5301 Stevens Creek Blvd B-5","City":"Santa Clara","State":"CA","Zip":"95051"},{"Location":"K1 SPEED","Address":"2925 Mead Ave","City":"Santa Clara","State":"CA","Zip":"95051"},{"Location":"KAISER PERMANENTE","Address":"700 Lawrence Expy","City":"Santa Clara","State":"CA","Zip":"95051"},{"Location":"KAISER PERMANENTE","Address":"3800 Homestead Rd","City":"Santa Clara","State":"CA","Zip":"95051"},{"Location":"KAISER PERMANENTE","Address":"3840 Homestead Rd","City":"Santa Clara","State":"CA","Zip":"95051"},{"Location":"KAISER PERMENTE","Address":"700 Lawrence Expy","City":"Santa Clara","State":"CA","Zip":"95051"},{"Location":"KOHL'S #984","Address":"3700 El Camino Real","City":"Santa Clara","State":"CA","Zip":"95051"},{"Location":"KUNJIP RESTAURANT","Address":"1066 Kiely Blvd","City":"Santa Clara","State":"CA","Zip":"95051"},{"Location":"LAWRENCE HEALTH CENTER","Address":"3545 El Camino Real","City":"Santa Clara","State":"CA","Zip":"95051"},{"Location":"MARIANI'S INN","Address":"2500 El Camino Real","City":"Santa Clara","State":"CA","Zip":"95051"},{"Location":"METRO PIZZA AND MORE","Address":"5229 Stevens Creek Blvd","City":"Santa Clara","State":"CA","Zip":"95051"},{"Location":"MINI OF STEVENS CREEK","Address":"4201 Stevens Creek Blvd","City":"Santa Clara","State":"CA","Zip":"95051"},{"Location":"MY HAIR STUDIO","Address":"830 Kiely Blvd 101","City":"Santa Clara","State":"CA","Zip":"95051"},{"Location":"NELSONS MACHINING","Address":"3691 Enochs St","City":"Santa Clara","State":"CA","Zip":"95051"},{"Location":"NVIDIA","Address":"2800 San Tomas Expy","City":"Santa Clara","State":"CA","Zip":"95051"},{"Location":"OHGANE","Address":"1484 Halford Ave","City":"Santa Clara","State":"CA","Zip":"95051"},{"Location":"PIZZA HUT-EL CAMINO REAL","Address":"2695 El Camino Real","City":"Santa Clara","State":"CA","Zip":"95051"},{"Location":"POINCIANA LOUNGE","Address":"2041 White Oak Ln","City":"Santa Clara","State":"CA","Zip":"95051"},{"Location":"PORSCHE OF STEVENS CREEK","Address":"4155 Stevens Creek Blvd","City":"Santa Clara","State":"CA","Zip":"95051"},{"Location":"PREMIER CAR WASH","Address":"3941 Stevens Creek Blvd","City":"Santa Clara","State":"CA","Zip":"95051"},{"Location":"PREMIER NISSAN","Address":"4855 Stevens Creek Blvd","City":"Santa Clara","State":"CA","Zip":"95051"},{"Location":"PUMP IT UP OF SANTA CLARA","Address":"2919 Mead Ave","City":"Santa Clara","State":"CA","Zip":"95051"},{"Location":"SABOR SALVADORENO","Address":"2045 White Oak Ln","City":"Santa Clara","State":"CA","Zip":"95051"},{"Location":"SANTA CLARA POLICE OFFIC","Address":"2971 Corvin Dr","City":"Santa Clara","State":"CA","Zip":"95051"},{"Location":"SANTA CLARA SWIM CLUB","Address":"2625 Patricia Dr","City":"Santa Clara","State":"CA","Zip":"95051"},{"Location":"SAVVIS","Address":"2401 Walsh Ave","City":"Santa Clara","State":"CA","Zip":"95051"},{"Location":"SAVVIS2","Address":"2401 Walsh Ave","City":"Santa Clara","State":"CA","Zip":"95051"},{"Location":"SEOUL GOM TANG","Address":"3028 El Camino Real","City":"Santa Clara","State":"CA","Zip":"95051"},{"Location":"SHIN DOKDO","Address":"2690 El Camino Real","City":"Santa Clara","State":"CA","Zip":"95051"},{"Location":"SKY HIGH SPORTS","Address":"2880 Mead Ave","City":"Santa Clara","State":"CA","Zip":"95051"},{"Location":"ST CLAIRE CADILLAC","Address":"3737 Stevens Creek Blvd","City":"Santa Clara","State":"CA","Zip":"95051"},{"Location":"STEVENS CREEK NISSAN","Address":"4855 Stevens Creek Blvd","City":"Santa Clara","State":"CA","Zip":"95051"},{"Location":"TAN CARWASH INC","Address":"3455 El Camino Real","City":"Santa Clara","State":"CA","Zip":"95051"},{"Location":"TEXAS INSTRUMENTS","Address":"2900 Semiconductor Dr","City":"Santa Clara","State":"CA","Zip":"95051"},{"Location":"TEXAS INSTRUMENTS","Address":"3875 Kifer Rd","City":"Santa Clara","State":"CA","Zip":"95051"},{"Location":"THAICHI HOTSPOT","Address":"2640 Homestead Rd","City":"Santa Clara","State":"CA","Zip":"95051"},{"Location":"THE JW HOUSE","Address":"3850 Homestead Rd","City":"Santa Clara","State":"CA","Zip":"95051"},{"Location":"VANTAGE DATA CENTERS","Address":"2820 Northwestern Pkwy","City":"Santa Clara","State":"CA","Zip":"95051"},{"Location":"VANTAGE DATA CENTERS","Address":"2805 Bowers Ave","City":"Santa Clara","State":"CA","Zip":"95051"},{"Location":"VANTAGE DATA CENTERS II","Address":"2565 Walsh Ave","City":"Santa Clara","State":"CA","Zip":"95051"},{"Location":"VERINT SYSTEMS","Address":"2550 Walsh Ave","City":"Santa Clara","State":"CA","Zip":"95051"},{"Location":"VINCENT CASUCCI","Address":"3362 El Camino Real","City":"Santa Clara","State":"CA","Zip":"95051"},{"Location":"WINGSTOP","Address":"2821 Elcamino Real","City":"Santa Clara","State":"CA","Zip":"95051"},{"Location":"WOODHOMES LOUNGE","Address":"4475 Stevens Creek Blvd","City":"Santa Clara","State":"CA","Zip":"95051"}]