[{"Location":"BAY FEDERAL CREDIT UNION","Address":"255 Mount Hermon Rd C","City":"Scotts Valley","State":"CA","Zip":"95066"},{"Location":"CAFE CARLOS MEX REST","Address":"6016 Scotts Valley Dr","City":"Scotts Valley","State":"CA","Zip":"95066"},{"Location":"CANEPA 1","Address":"4900 Scotts Valley Dr","City":"Scotts Valley","State":"CA","Zip":"95066"},{"Location":"CANEPA 2","Address":"4900 Scotts Valley Dr","City":"Scotts Valley","State":"CA","Zip":"95066"},{"Location":"CINELUX THEATRES","Address":"226 Mount Hermon Rd","City":"Scotts Valley","State":"CA","Zip":"95066"},{"Location":"CROSS FIT INC","Address":"1500 Green Hills Rd 2041","City":"Scotts Valley","State":"CA","Zip":"95066"},{"Location":"JIA TELLAS","Address":"18 Victor Sq C","City":"Scotts Valley","State":"CA","Zip":"95066"},{"Location":"MAYA RESTAURANT2","Address":"3115 Scotts Valley Dr","City":"Scotts Valley","State":"CA","Zip":"95066"},{"Location":"MCDONALDS","Address":"259 Mount Hermon Rd","City":"Scotts Valley","State":"CA","Zip":"95066"},{"Location":"OTERO SUSHI INC","Address":"235 Mount Hermon Rd G","City":"Scotts Valley","State":"CA","Zip":"95066"},{"Location":"ROUND TABLE PIZZA","Address":"245 Mount Hermon Rd A","City":"Scotts Valley","State":"CA","Zip":"95066"},{"Location":"SALSAS TACO BAR","Address":"95 Mount Hermon Rd","City":"Scotts Valley","State":"CA","Zip":"95066"},{"Location":"SANTA CRUZ SENTINEL","Address":"1800 Green Hills Rd 210","City":"Scotts Valley","State":"CA","Zip":"95066"},{"Location":"SEAGATE","Address":"4575 Scotts Valley Dr","City":"Scotts Valley","State":"CA","Zip":"95066"},{"Location":"SEWING SERVICE","Address":"340 El Pueblo Rd F","City":"Scotts Valley","State":"CA","Zip":"95066"},{"Location":"TWIG ENTERPRISES INC 1","Address":"226 Mount Hermon Rd","City":"Scotts Valley","State":"CA","Zip":"95066"}]