[{"Location":"BELLA NOTTE","Address":"21305 E Cliff Dr","City":"Santa Cruz","State":"CA","Zip":"95062"},{"Location":"BRADYS YACHT CLUB","Address":"413 Seabright Ave","City":"Santa Cruz","State":"CA","Zip":"95062"},{"Location":"CANTON RESTAURANT","Address":"900 41st Ave","City":"Santa Cruz","State":"CA","Zip":"95062"},{"Location":"CASTAWAY","Address":"3623 Portola Dr","City":"Santa Cruz","State":"CA","Zip":"95062"},{"Location":"DE LA VEAGA MOTORS","Address":"1215 Water St","City":"Santa Cruz","State":"CA","Zip":"95062"},{"Location":"DRIFTWOOD HEALTH CARE","Address":"675 24th Ave","City":"Santa Cruz","State":"CA","Zip":"95062"},{"Location":"JOES PIZZA & SUBS","Address":"841 N Branciforte Ave","City":"Santa Cruz","State":"CA","Zip":"95062"},{"Location":"JOHNNY'S HARBORSIDE","Address":"493 Lake Ave","City":"Santa Cruz","State":"CA","Zip":"95062"},{"Location":"LAVISH SALON","Address":"602 Soquel Ave","City":"Santa Cruz","State":"CA","Zip":"95062"},{"Location":"LIVE OAK BARBER SHOP","Address":"1200 17th Ave 122","City":"Santa Cruz","State":"CA","Zip":"95062"},{"Location":"MAPLE HOUSE","Address":"2000 Brommer St","City":"Santa Cruz","State":"CA","Zip":"95062"},{"Location":"MS BAR & GRILL","Address":"1800 Soquel Ave A","City":"Santa Cruz","State":"CA","Zip":"95062"},{"Location":"NORTHEASTERN MANAGEMENT INC","Address":"1051 41st Ave","City":"Santa Cruz","State":"CA","Zip":"95062"},{"Location":"ONE DOUBLE OH SEVEN CLUB","Address":"1007 Soquel Ave","City":"Santa Cruz","State":"CA","Zip":"95062"},{"Location":"PLEASURE PIZZA","Address":"800 41st Ave","City":"Santa Cruz","State":"CA","Zip":"95062"},{"Location":"SEARS AUTOMOTIVE","Address":"4015 Capitola Rd","City":"Santa Cruz","State":"CA","Zip":"95062"},{"Location":"SPOORENBERG","Address":"1219 Soquel Ave","City":"Santa Cruz","State":"CA","Zip":"95062"},{"Location":"STAR BENE","Address":"21245 E Cliff Dr","City":"Santa Cruz","State":"CA","Zip":"95062"},{"Location":"THE CREPE PLACE","Address":"1134 Soquel Ave","City":"Santa Cruz","State":"CA","Zip":"95062"},{"Location":"THE POCKET","Address":"3102 Portola Dr","City":"Santa Cruz","State":"CA","Zip":"95062"},{"Location":"THE POINT CHOP HOUSE & LOUNGE","Address":"3326 Portola Dr","City":"Santa Cruz","State":"CA","Zip":"95062"},{"Location":"THE SEABRIGHT BREWERY","Address":"519 Seabright Ave","City":"Santa Cruz","State":"CA","Zip":"95062"},{"Location":"TWIG ENTERPRISES INC","Address":"817 Soquel Ave","City":"Santa Cruz","State":"CA","Zip":"95062"},{"Location":"US COAST GAURD","Address":"132 Fairview Pl","City":"Santa Cruz","State":"CA","Zip":"95062"},{"Location":"WHOLE FOODS","Address":"911 Soquel Ave","City":"Santa Cruz","State":"CA","Zip":"95062"}]