[{"Location":"99 BOTTLES REST AND PUB","Address":"110 Walnut Ave","City":"Santa Cruz","State":"CA","Zip":"95060"},{"Location":"ALLTERRA ENVIRONMENTAL","Address":"207 Mcpherson St B","City":"Santa Cruz","State":"CA","Zip":"95060"},{"Location":"BABBLING BROOK INN","Address":"1025 Laurel St","City":"Santa Cruz","State":"CA","Zip":"95060"},{"Location":"BACK NINE GRILL & BAR","Address":"555 Highway 17","City":"Santa Cruz","State":"CA","Zip":"95060"},{"Location":"BAY FEDERAL CREDIT UNION","Address":"420 River St","City":"Santa Cruz","State":"CA","Zip":"95060"},{"Location":"BETTY BURGERS","Address":"1222 Pacific Ave","City":"Santa Cruz","State":"CA","Zip":"95060"},{"Location":"BOCCIS CELLAR","Address":"140 Encinal St","City":"Santa Cruz","State":"CA","Zip":"95060"},{"Location":"BURGER","Address":"1520 Mission St","City":"Santa Cruz","State":"CA","Zip":"95060"},{"Location":"CALLAHANS","Address":"507 Water St","City":"Santa Cruz","State":"CA","Zip":"95060"},{"Location":"CATHOLIC CHURCH","Address":"285 Meder St","City":"Santa Cruz","State":"CA","Zip":"95060"},{"Location":"COAST ROAD STABLE","Address":"561 Coast Rd","City":"Santa Cruz","State":"CA","Zip":"95060"},{"Location":"COMPASS ROSE MEDIA","Address":"105 Locust St","City":"Santa Cruz","State":"CA","Zip":"95060"},{"Location":"DOLPHIN RESTAURANT","Address":"71a Municipal Wharf","City":"Santa Cruz","State":"CA","Zip":"95060"},{"Location":"E V MOCEO CORP","Address":"1206 Fair Ave","City":"Santa Cruz","State":"CA","Zip":"95060"},{"Location":"EL HERMOSO MAR LLC","Address":"313 Beach St","City":"Santa Cruz","State":"CA","Zip":"95060"},{"Location":"EL PALOMAR","Address":"1336 Pacific Ave","City":"Santa Cruz","State":"CA","Zip":"95060"},{"Location":"FIRESTONE #122181","Address":"220 Front St","City":"Santa Cruz","State":"CA","Zip":"95060"},{"Location":"FIRESTONE #267487","Address":"510 Water St","City":"Santa Cruz","State":"CA","Zip":"95060"},{"Location":"GAYANE MOORADIAN DDS","Address":"550 Water St","City":"Santa Cruz","State":"CA","Zip":"95060"},{"Location":"GILDA'S","Address":"37 Municipal Wharf","City":"Santa Cruz","State":"CA","Zip":"95060"},{"Location":"HARMONY FOODS","Address":"2200 Delaware Ave","City":"Santa Cruz","State":"CA","Zip":"95060"},{"Location":"HOFFMANS BISTRO","Address":"1102 Pacific Ave","City":"Santa Cruz","State":"CA","Zip":"95060"},{"Location":"HOTEL PARADOX BAR","Address":"611 Ocean St","City":"Santa Cruz","State":"CA","Zip":"95060"},{"Location":"I LOVE SUSHI","Address":"516 Front St","City":"Santa Cruz","State":"CA","Zip":"95060"},{"Location":"IDEAL BAR AND GRILL","Address":"106 Beach St","City":"Santa Cruz","State":"CA","Zip":"95060"},{"Location":"JACK BASKIN","Address":"134 Dakota Ave","City":"Santa Cruz","State":"CA","Zip":"95060"},{"Location":"JOES PIZZA & SUBS","Address":"1207 Pacific Ave","City":"Santa Cruz","State":"CA","Zip":"95060"},{"Location":"KC SPORTS BAR LOUNGE","Address":"711 Pacific Ave","City":"Santa Cruz","State":"CA","Zip":"95060"},{"Location":"LASANIMAS CONCRETE","Address":"146 Encial St","City":"Santa Cruz","State":"CA","Zip":"95060"},{"Location":"LIGHTHOUSE BANK","Address":"111 Mission St","City":"Santa Cruz","State":"CA","Zip":"95060"},{"Location":"LOCATELLI MOVING AND STORAGE","Address":"122 Encinal St","City":"Santa Cruz","State":"CA","Zip":"95060"},{"Location":"MJA VINEYARDS","Address":"328 Ingalls St","City":"Santa Cruz","State":"CA","Zip":"95060"},{"Location":"MOTIV","Address":"110 Pearl Aly","City":"Santa Cruz","State":"CA","Zip":"95060"},{"Location":"OCEANVIEW CASINO","Address":"709 Pacific Ave","City":"Santa Cruz","State":"CA","Zip":"95060"},{"Location":"PACIFIC THAI","Address":"1319 Pacific Ave","City":"Santa Cruz","State":"CA","Zip":"95060"},{"Location":"PLANNED PARENTHOOD MAS MONK","Address":"1119 Pacific Ave","City":"Santa Cruz","State":"CA","Zip":"95060"},{"Location":"PLANTRONICS","Address":"345 Encinal St","City":"Santa Cruz","State":"CA","Zip":"95060"},{"Location":"PLANTRONICS GYM","Address":"345 Escalona Dr","City":"Santa Cruz","State":"CA","Zip":"95060"},{"Location":"ROSIE MCCANNS IRISH PUB","Address":"1220 Pacific Ave","City":"Santa Cruz","State":"CA","Zip":"95060"},{"Location":"SANTA CRUZ MOUNTAIN BREWERY","Address":"402 Ingalls St #27","City":"Santa Cruz","State":"CA","Zip":"95060"},{"Location":"SANTA CRUZ MOUNTAIN BREWING","Address":"402 Ingalls Street #27","City":"Santa Cruz","State":"CA","Zip":"95060"},{"Location":"SANTA CRUZ TAVERNS LLC","Address":"712 Ocean St","City":"Santa Cruz","State":"CA","Zip":"95060"},{"Location":"SAWASDEE THAI CUISINE","Address":"101 Main St","City":"Santa Cruz","State":"CA","Zip":"95060"},{"Location":"SAWASDEE THAI CUISINE","Address":"101 Main Street","City":"Santa Cruz","State":"CA","Zip":"95060"},{"Location":"SOUTH BEACH PIZZA","Address":"303 Beach St","City":"Santa Cruz","State":"CA","Zip":"95060"},{"Location":"SUNOPTA","Address":"2100 Delaware Ave","City":"Santa Cruz","State":"CA","Zip":"95060"},{"Location":"SURF CITY BILLIARDS","Address":"931 Pacific Ave","City":"Santa Cruz","State":"CA","Zip":"95060"},{"Location":"THE RUSH IN","Address":"113 Knight St","City":"Santa Cruz","State":"CA","Zip":"95060"},{"Location":"WATER STREET GRILL","Address":"503 Water St","City":"Santa Cruz","State":"CA","Zip":"95060"},{"Location":"WINGSTOP","Address":"845 Almar Ave","City":"Santa Cruz","State":"CA","Zip":"95060"},{"Location":"WITZIG HANNAH SANDERS","Address":"600 Ocean St","City":"Santa Cruz","State":"CA","Zip":"95060"},{"Location":"WOODSTOCK'S PIZZA","Address":"710 Front St","City":"Santa Cruz","State":"CA","Zip":"95060"},{"Location":"HILTON SANTA CRUZ","Address":"6001 La Madrona Dr","City":"Scotts Valley","State":"CA","Zip":"95060"},{"Location":"MORGAN STANLEY 100136","Address":"6004 La Madrona Dr 136","City":"Scotts Valley","State":"CA","Zip":"95060"}]