[{"Location":"ADARA NETWORKS","Address":"19101 Austin Way","City":"Saratoga","State":"CA","Zip":"95070"},{"Location":"ALAIN PINEL REALITORS","Address":"12772 Saratoga Sunnyvale Rd","City":"Saratoga","State":"CA","Zip":"95070"},{"Location":"AMERICA SLEEP MEDICINE","Address":"12980 Saratoga Ave C","City":"Saratoga","State":"CA","Zip":"95070"},{"Location":"CASA DE COBRE","Address":"14560 Big Basin Way","City":"Saratoga","State":"CA","Zip":"95070"},{"Location":"EDWARD A HINSHAW - ATTORNEY","Address":"12901 Saratoga Ave","City":"Saratoga","State":"CA","Zip":"95070"},{"Location":"FIRESTONE #118761","Address":"18522 Prospect Rd","City":"Saratoga","State":"CA","Zip":"95070"},{"Location":"JAKE'S OF SARATOGA","Address":"12175 Saratoga Sunnyvale Rd","City":"Saratoga","State":"CA","Zip":"95070"},{"Location":"LA QUAVA MEX GRILL","Address":"18486 Prospect Rd","City":"Saratoga","State":"CA","Zip":"95070"},{"Location":"MOUNTAIN MIKES PIZZA","Address":"12850 Saratoga Sunnyvale Rd","City":"Saratoga","State":"CA","Zip":"95070"},{"Location":"PARK SARATOGA DENTAL","Address":"12132 Saratoga Sunnyvale Rd","City":"Saratoga","State":"CA","Zip":"95070"},{"Location":"RUBY S TAMALE Y MAS","Address":"18804 Cox Ave","City":"Saratoga","State":"CA","Zip":"95070"},{"Location":"SANTA CLARA VALLEY YMCA","Address":"13500 Quito Rd","City":"Saratoga","State":"CA","Zip":"95070"},{"Location":"SARATOGA COUNTRY CLUB","Address":"21990 Prospect Rd","City":"Saratoga","State":"CA","Zip":"95070"},{"Location":"SARATOGA RESEARCH MGT","Address":"14471 Big Basin Way E","City":"Saratoga","State":"CA","Zip":"95070"},{"Location":"SOURIANAS  BEAUTY SALON","Address":"20341 Blauer Dr","City":"Saratoga","State":"CA","Zip":"95070"},{"Location":"STUART GOLDBERG DDS","Address":"18805 Cox Ave 130","City":"Saratoga","State":"CA","Zip":"95070"},{"Location":"SUPER CUTS","Address":"18566 Prospect Rd","City":"Saratoga","State":"CA","Zip":"95070"},{"Location":"SUSHI 22 TRAN","Address":"18802 Cox Ave","City":"Saratoga","State":"CA","Zip":"95070"},{"Location":"THE BANK","Address":"14421 Big Basin Way","City":"Saratoga","State":"CA","Zip":"95070"},{"Location":"TOGO'S EATERY","Address":"18574 Prospect Rd","City":"Saratoga","State":"CA","Zip":"95070"},{"Location":"TOGOS SANDWICH SHOP","Address":"12888 Saratoga Sunnyvale Rd","City":"Saratoga","State":"CA","Zip":"95070"},{"Location":"TRIPLE SEVEN PIZZERIA","Address":"18572 Prospect Rd","City":"Saratoga","State":"CA","Zip":"95070"},{"Location":"VILLAGE BURGER BAR","Address":"14413 Big Basin Way","City":"Saratoga","State":"CA","Zip":"95070"},{"Location":"ADARA NETWORKS","Address":"19101 Austin Way","City":"Saratoga","State":"CA","Zip":"95070"},{"Location":"ALAIN PINEL REALITORS","Address":"12772 Saratoga Sunnyvale Rd","City":"Saratoga","State":"CA","Zip":"95070"},{"Location":"AMERICA SLEEP MEDICINE","Address":"12980 Saratoga Ave C","City":"Saratoga","State":"CA","Zip":"95070"},{"Location":"CASA DE COBRE","Address":"14560 Big Basin Way","City":"Saratoga","State":"CA","Zip":"95070"},{"Location":"EDWARD A HINSHAW - ATTORNEY","Address":"12901 Saratoga Ave","City":"Saratoga","State":"CA","Zip":"95070"},{"Location":"FIRESTONE #118761","Address":"18522 Prospect Rd","City":"Saratoga","State":"CA","Zip":"95070"},{"Location":"JAKE'S OF SARATOGA","Address":"12175 Saratoga Sunnyvale Rd","City":"Saratoga","State":"CA","Zip":"95070"},{"Location":"LA QUAVA MEX GRILL","Address":"18486 Prospect Rd","City":"Saratoga","State":"CA","Zip":"95070"},{"Location":"MOUNTAIN MIKES PIZZA","Address":"12850 Saratoga Sunnyvale Rd","City":"Saratoga","State":"CA","Zip":"95070"},{"Location":"PARK SARATOGA DENTAL","Address":"12132 Saratoga Sunnyvale Rd","City":"Saratoga","State":"CA","Zip":"95070"},{"Location":"RUBY S TAMALE Y MAS","Address":"18804 Cox Ave","City":"Saratoga","State":"CA","Zip":"95070"},{"Location":"SANTA CLARA VALLEY YMCA","Address":"13500 Quito Rd","City":"Saratoga","State":"CA","Zip":"95070"},{"Location":"SARATOGA COUNTRY CLUB","Address":"21990 Prospect Rd","City":"Saratoga","State":"CA","Zip":"95070"},{"Location":"SARATOGA RESEARCH MGT","Address":"14471 Big Basin Way E","City":"Saratoga","State":"CA","Zip":"95070"},{"Location":"SOURIANAS  BEAUTY SALON","Address":"20341 Blauer Dr","City":"Saratoga","State":"CA","Zip":"95070"},{"Location":"STUART GOLDBERG DDS","Address":"18805 Cox Ave 130","City":"Saratoga","State":"CA","Zip":"95070"},{"Location":"SUPER CUTS","Address":"18566 Prospect Rd","City":"Saratoga","State":"CA","Zip":"95070"},{"Location":"SUSHI 22 TRAN","Address":"18802 Cox Ave","City":"Saratoga","State":"CA","Zip":"95070"},{"Location":"THE BANK","Address":"14421 Big Basin Way","City":"Saratoga","State":"CA","Zip":"95070"},{"Location":"TOGO'S EATERY","Address":"18574 Prospect Rd","City":"Saratoga","State":"CA","Zip":"95070"},{"Location":"TOGOS SANDWICH SHOP","Address":"12888 Saratoga Sunnyvale Rd","City":"Saratoga","State":"CA","Zip":"95070"},{"Location":"TRIPLE SEVEN PIZZERIA","Address":"18572 Prospect Rd","City":"Saratoga","State":"CA","Zip":"95070"},{"Location":"VILLAGE BURGER BAR","Address":"14413 Big Basin Way","City":"Saratoga","State":"CA","Zip":"95070"}]