[{"Location":"AERO STAR DEVELOPMENT","Address":"967 Salinas Rd","City":"Royal Oaks","State":"CA","Zip":"95076"},{"Location":"PAJARO BEAUTY SALON","Address":"47 Porter Dr","City":"Royal Oaks","State":"CA","Zip":"95076"},{"Location":"A AND I TRANSPORT","Address":"123 Lee Rd E","City":"Watsonville","State":"CA","Zip":"95076"},{"Location":"ALMA HAIR SALON","Address":"458 1%2F2 Main St","City":"Watsonville","State":"CA","Zip":"95076"},{"Location":"ANHEUSER-BUSCH WHLSLR #20499","Address":"104 Lee Rd","City":"Watsonville","State":"CA","Zip":"95076"},{"Location":"APPLEBEE'S #2108014","Address":"1105 S Green Valley Rd","City":"Watsonville","State":"CA","Zip":"95076"},{"Location":"APPLETON GRILL","Address":"410 Rodriguez St","City":"Watsonville","State":"CA","Zip":"95076"},{"Location":"AZTECA SERVICE BUREAU","Address":"24 E Lake Ave","City":"Watsonville","State":"CA","Zip":"95076"},{"Location":"BARSI LIQUORS","Address":"602 E Lake Ave","City":"Watsonville","State":"CA","Zip":"95076"},{"Location":"CALIFORNIA GIANTS","Address":"75 Sakata Ln","City":"Watsonville","State":"CA","Zip":"95076"},{"Location":"CARMONA'S BARBEQUE DELI","Address":"1040 E Lake Ave","City":"Watsonville","State":"CA","Zip":"95076"},{"Location":"CASSIDYS PIZZA","Address":"1400 Freedom Blvd","City":"Watsonville","State":"CA","Zip":"95076"},{"Location":"CILANTRO'S","Address":"1934 Main St","City":"Watsonville","State":"CA","Zip":"95076"},{"Location":"CITY OF WATSONVILLE","Address":"500 Clearwater Ln","City":"Watsonville","State":"CA","Zip":"95076"},{"Location":"CLINICA FAMILIAR COASTAL","Address":"1185 Freedom Blvd 2","City":"Watsonville","State":"CA","Zip":"95076"},{"Location":"D LA COLMENA INC","Address":"129 W Lake Ave","City":"Watsonville","State":"CA","Zip":"95076"},{"Location":"DISCOUNT CIGARETTS","Address":"1938 Main St","City":"Watsonville","State":"CA","Zip":"95076"},{"Location":"DOCTORS ON DUTY","Address":"1505 Main St","City":"Watsonville","State":"CA","Zip":"95076"},{"Location":"EL HERRADERO","Address":"110 Pennsylvania Dr","City":"Watsonville","State":"CA","Zip":"95076"},{"Location":"EL MIRAMAR","Address":"522 Main St","City":"Watsonville","State":"CA","Zip":"95076"},{"Location":"ELLAS AT THE AIRPORT2","Address":"100 Aviation Way","City":"Watsonville","State":"CA","Zip":"95076"},{"Location":"ENCOMPASS COMMUNITY SERV","Address":"155 Miles Ln","City":"Watsonville","State":"CA","Zip":"95076"},{"Location":"ENCOMPASS COMMUNITY SERVICES","Address":"360 Whiskey Hill Rd","City":"Watsonville","State":"CA","Zip":"95076"},{"Location":"EPN - CHRISTOPHER GEORGE","Address":"3 Hangar Way B","City":"Watsonville","State":"CA","Zip":"95076"},{"Location":"FBI OF MBRA","Address":"35 Penny Ln 8","City":"Watsonville","State":"CA","Zip":"95076"},{"Location":"FIRESTONE #007110","Address":"1099 S Green Valley Rd","City":"Watsonville","State":"CA","Zip":"95076"},{"Location":"FISH HOUSE RESTAURANT","Address":"972 Main St","City":"Watsonville","State":"CA","Zip":"95076"},{"Location":"GOLD'S GYM #671","Address":"120 Westridge Dr","City":"Watsonville","State":"CA","Zip":"95076"},{"Location":"HAPPY HOLLOW FARMS LLC","Address":"758 Haines Ranch Rd","City":"Watsonville","State":"CA","Zip":"95076"},{"Location":"HB LLP","Address":"579 Auto Center Dr","City":"Watsonville","State":"CA","Zip":"95076"},{"Location":"HENDERSON AND COMPANY","Address":"561 Auto Center Dr","City":"Watsonville","State":"CA","Zip":"95076"},{"Location":"IMURA","Address":"1994 Main St C","City":"Watsonville","State":"CA","Zip":"95076"},{"Location":"JALISCO RETAURENTE","Address":"618 Main St","City":"Watsonville","State":"CA","Zip":"95076"},{"Location":"MADHAV MUKUNDAN DDS DENTAL","Address":"1053 S Green Valley Rd","City":"Watsonville","State":"CA","Zip":"95076"},{"Location":"MAIN ST BURGERS AND BREW","Address":"1116 Main St","City":"Watsonville","State":"CA","Zip":"95076"},{"Location":"MONERTEY BAY HEART CENTER","Address":"73 Penny Ln","City":"Watsonville","State":"CA","Zip":"95076"},{"Location":"MONTE VISTA CHRISTIAN","Address":"2 School Way","City":"Watsonville","State":"CA","Zip":"95076"},{"Location":"MOUNTAIN MIKES PIZZA","Address":"1417 Freedom Blvd","City":"Watsonville","State":"CA","Zip":"95076"},{"Location":"NACHO MAMAS RESTAURANT","Address":"15 1st St","City":"Watsonville","State":"CA","Zip":"95076"},{"Location":"NARCONON OF NORTHERN CA","Address":"160 Pioneer Rd","City":"Watsonville","State":"CA","Zip":"95076"},{"Location":"NARCONON OF NORTHERN CA4","Address":"65 Kingfisher Dr","City":"Watsonville","State":"CA","Zip":"95076"},{"Location":"NARCONON VISTA BAY","Address":"9c Marea Ave","City":"Watsonville","State":"CA","Zip":"95076"},{"Location":"NORDIC NATURALS","Address":"111 Jennings Way","City":"Watsonville","State":"CA","Zip":"95076"},{"Location":"PACIFIC GOLF CENTERS","Address":"101 Ranport Rd","City":"Watsonville","State":"CA","Zip":"95076"},{"Location":"PAJARO VALLEY CHEVRON","Address":"200 Lee Rd","City":"Watsonville","State":"CA","Zip":"95076"},{"Location":"PLANNED PARENTHOOD","Address":"398 S Green Valley Rd","City":"Watsonville","State":"CA","Zip":"95076"},{"Location":"PRO TOP NAILS 3","Address":"1489 Main St","City":"Watsonville","State":"CA","Zip":"95076"},{"Location":"RICHARD MARTINEZ","Address":"960 E Lake Ave","City":"Watsonville","State":"CA","Zip":"95076"},{"Location":"ROUND TABLE PIZZA","Address":"1975 Main St","City":"Watsonville","State":"CA","Zip":"95076"},{"Location":"ROUNDTREE LE FACILITY","Address":"90 Roundtree Ln","City":"Watsonville","State":"CA","Zip":"95076"},{"Location":"SIESTA AUTO INSURANCE","Address":"1439 Freedom Blvd","City":"Watsonville","State":"CA","Zip":"95076"},{"Location":"SUSHI GARDEN","Address":"1441 Main St","City":"Watsonville","State":"CA","Zip":"95076"},{"Location":"TAQUERIA MI TIERRA","Address":"1471 Freedom Blvd","City":"Watsonville","State":"CA","Zip":"95076"},{"Location":"TAQUERIA MUNDIAL","Address":"1075 Main St","City":"Watsonville","State":"CA","Zip":"95076"},{"Location":"THE BODY ZONE","Address":"1810 Main St","City":"Watsonville","State":"CA","Zip":"95076"},{"Location":"THE COMMUNICATIONS DEPARTMENT","Address":"563 Auto Center Dr 102","City":"Watsonville","State":"CA","Zip":"95076"},{"Location":"WATSONVILLE CADILLAC BUICK GMC","Address":"500 Auto Center Dr","City":"Watsonville","State":"CA","Zip":"95076"},{"Location":"WATSONVILLE ELKS LODGE","Address":"121 Martinelli St","City":"Watsonville","State":"CA","Zip":"95076"},{"Location":"YESY RESTAURANT","Address":"707 Freedom Blvd","City":"Watsonville","State":"CA","Zip":"95076"},{"Location":"AERO STAR DEVELOPMENT","Address":"967 Salinas Rd","City":"Royal Oaks","State":"CA","Zip":"95076"},{"Location":"PAJARO BEAUTY SALON","Address":"47 Porter Dr","City":"Royal Oaks","State":"CA","Zip":"95076"},{"Location":"A AND I TRANSPORT","Address":"123 Lee Rd E","City":"Watsonville","State":"CA","Zip":"95076"},{"Location":"ALMA HAIR SALON","Address":"458 12 Main St","City":"Watsonville","State":"CA","Zip":"95076"},{"Location":"ANHEUSER-BUSCH WHLSLR #20499","Address":"104 Lee Rd","City":"Watsonville","State":"CA","Zip":"95076"},{"Location":"APPLEBEE'S #2108014","Address":"1105 S Green Valley Rd","City":"Watsonville","State":"CA","Zip":"95076"},{"Location":"APPLETON GRILL","Address":"410 Rodriguez St","City":"Watsonville","State":"CA","Zip":"95076"},{"Location":"AZTECA SERVICE BUREAU","Address":"24 E Lake Ave","City":"Watsonville","State":"CA","Zip":"95076"},{"Location":"BARSI LIQUORS","Address":"602 E Lake Ave","City":"Watsonville","State":"CA","Zip":"95076"},{"Location":"CALIFORNIA GIANTS","Address":"75 Sakata Ln","City":"Watsonville","State":"CA","Zip":"95076"},{"Location":"CARMONA'S BARBEQUE DELI","Address":"1040 E Lake Ave","City":"Watsonville","State":"CA","Zip":"95076"},{"Location":"CASSIDYS PIZZA","Address":"1400 Freedom Blvd","City":"Watsonville","State":"CA","Zip":"95076"},{"Location":"CILANTRO'S","Address":"1934 Main St","City":"Watsonville","State":"CA","Zip":"95076"},{"Location":"CITY OF WATSONVILLE","Address":"500 Clearwater Ln","City":"Watsonville","State":"CA","Zip":"95076"},{"Location":"CLINICA FAMILIAR COASTAL","Address":"1185 Freedom Blvd 2","City":"Watsonville","State":"CA","Zip":"95076"},{"Location":"D LA COLMENA INC","Address":"129 W Lake Ave","City":"Watsonville","State":"CA","Zip":"95076"},{"Location":"DISCOUNT CIGARETTS","Address":"1938 Main St","City":"Watsonville","State":"CA","Zip":"95076"},{"Location":"DOCTORS ON DUTY","Address":"1505 Main St","City":"Watsonville","State":"CA","Zip":"95076"},{"Location":"EL HERRADERO","Address":"110 Pennsylvania Dr","City":"Watsonville","State":"CA","Zip":"95076"},{"Location":"EL MIRAMAR","Address":"522 Main St","City":"Watsonville","State":"CA","Zip":"95076"},{"Location":"ELLAS AT THE AIRPORT2","Address":"100 Aviation Way","City":"Watsonville","State":"CA","Zip":"95076"},{"Location":"ENCOMPASS COMMUNITY SERV","Address":"155 Miles Ln","City":"Watsonville","State":"CA","Zip":"95076"},{"Location":"ENCOMPASS COMMUNITY SERVICES","Address":"360 Whiskey Hill Rd","City":"Watsonville","State":"CA","Zip":"95076"},{"Location":"EPN - CHRISTOPHER GEORGE","Address":"3 Hangar Way B","City":"Watsonville","State":"CA","Zip":"95076"},{"Location":"FBI OF MBRA","Address":"35 Penny Ln 8","City":"Watsonville","State":"CA","Zip":"95076"},{"Location":"FIRESTONE #007110","Address":"1099 S Green Valley Rd","City":"Watsonville","State":"CA","Zip":"95076"},{"Location":"FISH HOUSE RESTAURANT","Address":"972 Main St","City":"Watsonville","State":"CA","Zip":"95076"},{"Location":"GOLD'S GYM #671","Address":"120 Westridge Dr","City":"Watsonville","State":"CA","Zip":"95076"},{"Location":"HAPPY HOLLOW FARMS LLC","Address":"758 Haines Ranch Rd","City":"Watsonville","State":"CA","Zip":"95076"},{"Location":"HB LLP","Address":"579 Auto Center Dr","City":"Watsonville","State":"CA","Zip":"95076"},{"Location":"HENDERSON AND COMPANY","Address":"561 Auto Center Dr","City":"Watsonville","State":"CA","Zip":"95076"},{"Location":"HUGO'S PIZZERIA","Address":"1984 Main St","City":"Watsonville","State":"CA","Zip":"95076"},{"Location":"IMURA","Address":"1994 Main St C","City":"Watsonville","State":"CA","Zip":"95076"},{"Location":"JALISCO RETAURENTE","Address":"618 Main St","City":"Watsonville","State":"CA","Zip":"95076"},{"Location":"MADHAV MUKUNDAN DDS DENTAL","Address":"1053 S Green Valley Rd","City":"Watsonville","State":"CA","Zip":"95076"},{"Location":"MAIN ST BURGERS AND BREW","Address":"1116 Main St","City":"Watsonville","State":"CA","Zip":"95076"},{"Location":"MONERTEY BAY HEART CENTER","Address":"73 Penny Ln","City":"Watsonville","State":"CA","Zip":"95076"},{"Location":"MONTE VISTA CHRISTIAN","Address":"2 School Way","City":"Watsonville","State":"CA","Zip":"95076"},{"Location":"MOUNTAIN MIKES PIZZA","Address":"1417 Freedom Blvd","City":"Watsonville","State":"CA","Zip":"95076"},{"Location":"NACHO MAMAS RESTAURANT","Address":"15 1st St","City":"Watsonville","State":"CA","Zip":"95076"},{"Location":"NARCONON OF NORTHERN CA","Address":"160 Pioneer Rd","City":"Watsonville","State":"CA","Zip":"95076"},{"Location":"NARCONON OF NORTHERN CA4","Address":"65 Kingfisher Dr","City":"Watsonville","State":"CA","Zip":"95076"},{"Location":"NARCONON VISTA BAY","Address":"9c Marea Ave","City":"Watsonville","State":"CA","Zip":"95076"},{"Location":"NORDIC NATURALS","Address":"111 Jennings Way","City":"Watsonville","State":"CA","Zip":"95076"},{"Location":"PACIFIC GOLF CENTERS","Address":"101 Ranport Rd","City":"Watsonville","State":"CA","Zip":"95076"},{"Location":"PAJARO VALLEY CHEVRON","Address":"200 Lee Rd","City":"Watsonville","State":"CA","Zip":"95076"},{"Location":"PLANNED PARENTHOOD","Address":"398 S Green Valley Rd","City":"Watsonville","State":"CA","Zip":"95076"},{"Location":"PRO TOP NAILS 3","Address":"1489 Main St","City":"Watsonville","State":"CA","Zip":"95076"},{"Location":"RICHARD MARTINEZ","Address":"960 E Lake Ave","City":"Watsonville","State":"CA","Zip":"95076"},{"Location":"ROUND TABLE PIZZA","Address":"1975 Main St","City":"Watsonville","State":"CA","Zip":"95076"},{"Location":"ROUNDTREE LE FACILITY","Address":"90 Roundtree Ln","City":"Watsonville","State":"CA","Zip":"95076"},{"Location":"SIESTA AUTO INSURANCE","Address":"1439 Freedom Blvd","City":"Watsonville","State":"CA","Zip":"95076"},{"Location":"SUSHI GARDEN","Address":"1441 Main St","City":"Watsonville","State":"CA","Zip":"95076"},{"Location":"TAQUERIA MI TIERRA","Address":"1471 Freedom Blvd","City":"Watsonville","State":"CA","Zip":"95076"},{"Location":"TAQUERIA MUNDIAL","Address":"1075 Main St","City":"Watsonville","State":"CA","Zip":"95076"},{"Location":"THE BODY ZONE","Address":"1810 Main St","City":"Watsonville","State":"CA","Zip":"95076"},{"Location":"THE COMMUNICATIONS DEPARTMENT","Address":"563 Auto Center Dr 102","City":"Watsonville","State":"CA","Zip":"95076"},{"Location":"WATSONVILLE CADILLAC BUICK GMC","Address":"500 Auto Center Dr","City":"Watsonville","State":"CA","Zip":"95076"},{"Location":"WATSONVILLE ELKS LODGE","Address":"121 Martinelli St","City":"Watsonville","State":"CA","Zip":"95076"},{"Location":"YESY RESTAURANT","Address":"707 Freedom Blvd","City":"Watsonville","State":"CA","Zip":"95076"}]