[{"Location":"4TH STREET PIZZA COMPANY","Address":"150 E Santa Clara St","City":"San Jose","State":"CA","Zip":"95113"},{"Location":"55 SOUTH","Address":"55 S 1st St","City":"San Jose","State":"CA","Zip":"95113"},{"Location":"A & K NOODLE HOUSE","Address":"304 E Santa Clara Street","City":"San Jose","State":"CA","Zip":"95113"},{"Location":"ACCENTURE","Address":"50 W San Fernando St 1100","City":"San Jose","State":"CA","Zip":"95113"},{"Location":"ANGELOUS CAFE AND GRILL","Address":"21 N 2nd St","City":"San Jose","State":"CA","Zip":"95113"},{"Location":"ARCADIA DEVELOPMENT CO.","Address":"150 Almaden Blvd","City":"San Jose","State":"CA","Zip":"95113"},{"Location":"ATF-MCV","Address":"280 S 1st St 371a","City":"San Jose","State":"CA","Zip":"95113"},{"Location":"AUDIBLE MAGIC CORP","Address":"150 S 1st St 101","City":"San Jose","State":"CA","Zip":"95113"},{"Location":"AUDIBLE MAGIC CORP 2","Address":"150 S 1st St 101","City":"San Jose","State":"CA","Zip":"95113"},{"Location":"AUDIBLE MAGIC CORP 3","Address":"150 S 1st St 101","City":"San Jose","State":"CA","Zip":"95113"},{"Location":"BACK A YARD CARRIBEAN AMER","Address":"80 N Market St","City":"San Jose","State":"CA","Zip":"95113"},{"Location":"BANK OF AMERICA CA3-103-08-01","Address":"125 S Market St 8","City":"San Jose","State":"CA","Zip":"95113"},{"Location":"BANK OF THE WEST","Address":"50 W San Fernando St 425","City":"San Jose","State":"CA","Zip":"95113"},{"Location":"BDO USA","Address":"50 W San Fernando St 200","City":"San Jose","State":"CA","Zip":"95113"},{"Location":"BLACK FIRE LLC","Address":"418 S Market St","City":"San Jose","State":"CA","Zip":"95113"},{"Location":"BO TOWN SEAFOOD RESTAURA","Address":"409 S 2nd St","City":"San Jose","State":"CA","Zip":"95113"},{"Location":"BURR%2C PILGER & MAYER","Address":"60 S Market St 8flr","City":"San Jose","State":"CA","Zip":"95113"},{"Location":"CARAVAN","Address":"98 S Almaden Ave","City":"San Jose","State":"CA","Zip":"95113"},{"Location":"CB RICHARD ELLIS","Address":"225 W Santa Clara St","City":"San Jose","State":"CA","Zip":"95113"},{"Location":"CHACHOS","Address":"87 E San Fernando St","City":"San Jose","State":"CA","Zip":"95113"},{"Location":"CINE BAR","Address":"69 E San Fernando St","City":"San Jose","State":"CA","Zip":"95113"},{"Location":"COLLIERS INTERNATIONAL","Address":"450 W Santa Clara St","City":"San Jose","State":"CA","Zip":"95113"},{"Location":"CONVENTION PLAZA (0010906)","Address":"282 Almaden Blvd","City":"San Jose","State":"CA","Zip":"95113"},{"Location":"CREATIVE BRANDS GROUP","Address":"125 S Market St 700","City":"San Jose","State":"CA","Zip":"95113"},{"Location":"DAKINE ISLAND GRILL","Address":"23 N Market St","City":"San Jose","State":"CA","Zip":"95113"},{"Location":"DELOITTE & TOUCHE","Address":"225 W Santa Clara St 600","City":"San Jose","State":"CA","Zip":"95113"},{"Location":"DELUCCHI%2C HAWN & CO%2C LLP","Address":"333 W Santa Clara St 750","City":"San Jose","State":"CA","Zip":"95113"},{"Location":"DEPARTMENT OF JUSTICE","Address":"150 Almaden Blvd 0","City":"San Jose","State":"CA","Zip":"95113"},{"Location":"DIVE BAR","Address":"78 E Santa Clara St","City":"San Jose","State":"CA","Zip":"95113"},{"Location":"DOWNTOWN BRITANNIA","Address":"173 W Santa Clara St","City":"San Jose","State":"CA","Zip":"95113"},{"Location":"FAHRENHEIT ULTRA LOUNGE","Address":"99 San Fernando St","City":"San Jose","State":"CA","Zip":"95113"},{"Location":"FARMERS UNION SPORTS BAR","Address":"151 W Santa Clara St","City":"San Jose","State":"CA","Zip":"95113"},{"Location":"FITNESS EVOLUTION","Address":"150 N First St 119","City":"San Jose","State":"CA","Zip":"95113"},{"Location":"FREDDIE J'S","Address":"97 E Santa Clara St","City":"San Jose","State":"CA","Zip":"95113"},{"Location":"FREMONT BANK","Address":"160 W Santa Clara St 1","City":"San Jose","State":"CA","Zip":"95113"},{"Location":"FUJI SUSHI","Address":"56 W Santa Clara St","City":"San Jose","State":"CA","Zip":"95113"},{"Location":"GALLINA LLP","Address":"60 S Market St 1550","City":"San Jose","State":"CA","Zip":"95113"},{"Location":"GARDEN CITY CONSTRUCTION","Address":"618 S 1st St","City":"San Jose","State":"CA","Zip":"95113"},{"Location":"GORDON BIERSCH #4602","Address":"33 E San Fernando St","City":"San Jose","State":"CA","Zip":"95113"},{"Location":"HOTEL DE ANZA BAR","Address":"233 W Santa Clara St","City":"San Jose","State":"CA","Zip":"95113"},{"Location":"HOTEL DE ANZA GYM","Address":"233 W Santa Clara St","City":"San Jose","State":"CA","Zip":"95113"},{"Location":"HUE XUA RESTAURANT","Address":"301 E Santa Clara St #b","City":"San Jose","State":"CA","Zip":"95113"},{"Location":"IL FORNAIO","Address":"302 S Market St","City":"San Jose","State":"CA","Zip":"95113"},{"Location":"JEPPESEN DATAPLAN","Address":"225 W Santa Clara St 1600","City":"San Jose","State":"CA","Zip":"95113"},{"Location":"KAUFMANN & GLOBE","Address":"160 W Santa Clara St 1550","City":"San Jose","State":"CA","Zip":"95113"},{"Location":"KBS III TEN ALMADEN LLC","Address":"10 Almaden Blvd 420","City":"San Jose","State":"CA","Zip":"95113"},{"Location":"LA CEIBA TAQUERIA","Address":"799 S 1st St","City":"San Jose","State":"CA","Zip":"95113"},{"Location":"LEGACY PARTNERS COMMERCIAL","Address":"75 E Santa Clara St 1175","City":"San Jose","State":"CA","Zip":"95113"},{"Location":"LIDO'S NIGHTCLUB","Address":"30 S 1st St","City":"San Jose","State":"CA","Zip":"95113"},{"Location":"LITTLER MENDELSON","Address":"50 W San Fernando St 15fl","City":"San Jose","State":"CA","Zip":"95113"},{"Location":"LOTUS SPA","Address":"74 S 1st St","City":"San Jose","State":"CA","Zip":"95113"},{"Location":"LOUISIANA BISTRO","Address":"19 N Market St","City":"San Jose","State":"CA","Zip":"95113"},{"Location":"M LOUNGE","Address":"98 S 2nd St","City":"San Jose","State":"CA","Zip":"95113"},{"Location":"MAC'S CLUB","Address":"39 Post St","City":"San Jose","State":"CA","Zip":"95113"},{"Location":"MCLAURIN","Address":"424 E Santa Clara St","City":"San Jose","State":"CA","Zip":"95113"},{"Location":"MCMANIS FAULKNER","Address":"50 W San Fernando St 1000","City":"San Jose","State":"CA","Zip":"95113"},{"Location":"METLIFE RECEPTION","Address":"225 W Santa Clara St 1450","City":"San Jose","State":"CA","Zip":"95113"},{"Location":"MIAMI BEACH CLUB","Address":"417 S 1st St","City":"San Jose","State":"CA","Zip":"95113"},{"Location":"MORGAN STANLEY 100090","Address":"225 W Santa Clara St 900","City":"San Jose","State":"CA","Zip":"95113"},{"Location":"MUCHOS RESTAURANT","Address":"72 E Santa Clara St","City":"San Jose","State":"CA","Zip":"95113"},{"Location":"MYTH TAVERN AND LOUNGE","Address":"152 Post St","City":"San Jose","State":"CA","Zip":"95113"},{"Location":"NEMEA GREEK TAVERNA","Address":"96 S 1st St","City":"San Jose","State":"CA","Zip":"95113"},{"Location":"NEUROSKY","Address":"125 S Market St 900","City":"San Jose","State":"CA","Zip":"95113"},{"Location":"NNN LLC","Address":"143 W Santa Clara St","City":"San Jose","State":"CA","Zip":"95113"},{"Location":"NRJTV SS OPCO LLC","Address":"99 N 1st St 201","City":"San Jose","State":"CA","Zip":"95113"},{"Location":"ORIGINAL GRAVITY PUBLIC","Address":"66 S 1st St","City":"San Jose","State":"CA","Zip":"95113"},{"Location":"ORIGINAL JOE'S RESTAURANT","Address":"301 S 1st St","City":"San Jose","State":"CA","Zip":"95113"},{"Location":"OZU SUSHI","Address":"86 S 1st St","City":"San Jose","State":"CA","Zip":"95113"},{"Location":"PARK CENTER PLAZA INVESTORS","Address":"100 W San Fernando St 350","City":"San Jose","State":"CA","Zip":"95113"},{"Location":"PEKING HOUSE","Address":"45 Post St","City":"San Jose","State":"CA","Zip":"95113"},{"Location":"PIZZA CHICAGO","Address":"155 W San Fernando St","City":"San Jose","State":"CA","Zip":"95113"},{"Location":"PREMIUM CUTZ 2","Address":"785 S 1st St","City":"San Jose","State":"CA","Zip":"95113"},{"Location":"RAMADA SAN JOSE","Address":"455 S 2nd St","City":"San Jose","State":"CA","Zip":"95113"},{"Location":"RAYMOND JAMES & ASSOCIATES","Address":"150 Almaden Blvd 1375","City":"San Jose","State":"CA","Zip":"95113"},{"Location":"ROPERS MAJESKI KOHN & BENTLEY","Address":"50 W San Fernando St 1400","City":"San Jose","State":"CA","Zip":"95113"},{"Location":"RSM MCGLADREY","Address":"100 W San Fernando St 460","City":"San Jose","State":"CA","Zip":"95113"},{"Location":"SAN JOSE BAR & GRILL","Address":"85 S 2nd St","City":"San Jose","State":"CA","Zip":"95113"},{"Location":"SAN JOSE BUSINESS JOURNAL","Address":"125 S Market St 1100","City":"San Jose","State":"CA","Zip":"95113"},{"Location":"SAN JOSE CIVIC AUDITORIUM","Address":"135 W San Carlos St","City":"San Jose","State":"CA","Zip":"95113"},{"Location":"SAN JOSE IMPROV COMEDY CLUB","Address":"62 S 2nd St","City":"San Jose","State":"CA","Zip":"95113"},{"Location":"SAN JOSE TAQUERIA 2","Address":"235 E Santa Clara St","City":"San Jose","State":"CA","Zip":"95113"},{"Location":"SARATOGA CAPITAL","Address":"66 E Santa Clara St","City":"San Jose","State":"CA","Zip":"95113"},{"Location":"SCOTTS SEAFOOD","Address":"185 Park Ave","City":"San Jose","State":"CA","Zip":"95113"},{"Location":"SILICON VALLEY CAPITAL CLUB","Address":"50 W San Fernando St 1700","City":"San Jose","State":"CA","Zip":"95113"},{"Location":"SONOMA CHICKEN COOP1","Address":"31 N Market St","City":"San Jose","State":"CA","Zip":"95113"},{"Location":"SOUTH FIRST BILLIARDS","Address":"420 S 1st St","City":"San Jose","State":"CA","Zip":"95113"},{"Location":"SPLASH","Address":"65 Post St","City":"San Jose","State":"CA","Zip":"95113"},{"Location":"SPRINGALL","Address":"315 S 1st St","City":"San Jose","State":"CA","Zip":"95113"},{"Location":"TAURINUS STEAK HOUSE","Address":"167 W San Fernando St","City":"San Jose","State":"CA","Zip":"95113"},{"Location":"TESKESR GERMANIA RESTAURANT","Address":"255 N 1st St","City":"San Jose","State":"CA","Zip":"95113"},{"Location":"THE BANK CLUB","Address":"44 S Almaden Ave","City":"San Jose","State":"CA","Zip":"95113"},{"Location":"THE BLUE CHIP","Address":"325 S 1st St","City":"San Jose","State":"CA","Zip":"95113"},{"Location":"THE CORE COMPANIES","Address":"470 S Market St","City":"San Jose","State":"CA","Zip":"95113"},{"Location":"THE DHS ICE HSI","Address":"280 S 1st St 190","City":"San Jose","State":"CA","Zip":"95113"},{"Location":"THE GLOBE %40 2ND & SANTA CLARA","Address":"20 S 2nd St","City":"San Jose","State":"CA","Zip":"95113"},{"Location":"THE LOFT","Address":"90 S 2nd St","City":"San Jose","State":"CA","Zip":"95113"},{"Location":"THE TANK","Address":"301 S Market St","City":"San Jose","State":"CA","Zip":"95113"},{"Location":"TRES GRINGOS BAJA CANTINA","Address":"83 S 2nd St","City":"San Jose","State":"CA","Zip":"95113"},{"Location":"TRUE PARTNERS CONSULTING","Address":"150 Almaden Blvd 450","City":"San Jose","State":"CA","Zip":"95113"},{"Location":"UBS FINANCIAL SERVICES","Address":"50 W San Fernando St 800","City":"San Jose","State":"CA","Zip":"95113"},{"Location":"UNCLE BERNIES CHICKEN AND FISH","Address":"30 E Santa Clara St 140","City":"San Jose","State":"CA","Zip":"95113"},{"Location":"UNIVERSITY CHICKEN","Address":"29 S 3rd St","City":"San Jose","State":"CA","Zip":"95113"},{"Location":"US MARSHAL SERVICE","Address":"280 S 1st St","City":"San Jose","State":"CA","Zip":"95113"},{"Location":"US SECRET SERVICE","Address":"280 S 1st St 1111","City":"San Jose","State":"CA","Zip":"95113"},{"Location":"WELLS FARGO PRIVATE BANK","Address":"225 W Santa Clara St 1400","City":"San Jose","State":"CA","Zip":"95113"},{"Location":"WHISPERS CAFE","Address":"150 S 2nd St","City":"San Jose","State":"CA","Zip":"95113"},{"Location":"4TH STREET PIZZA COMPANY","Address":"150 E Santa Clara St","City":"San Jose","State":"CA","Zip":"95113"},{"Location":"55 SOUTH","Address":"55 S 1st St","City":"San Jose","State":"CA","Zip":"95113"},{"Location":"A & K Noodle House","Address":"304 E Santa Clara Street","City":"San Jose","State":"CA","Zip":"95113"},{"Location":"ACCENTURE","Address":"50 W San Fernando St 1100","City":"San Jose","State":"CA","Zip":"95113"},{"Location":"ANGELOUS CAFE AND GRILL","Address":"21 N 2nd St","City":"San Jose","State":"CA","Zip":"95113"},{"Location":"ARCADIA DEVELOPMENT CO.","Address":"150 Almaden Blvd","City":"San Jose","State":"CA","Zip":"95113"},{"Location":"ATF-MCV","Address":"280 S 1st St 371a","City":"San Jose","State":"CA","Zip":"95113"},{"Location":"AUDIBLE MAGIC CORP","Address":"150 S 1st St 101","City":"San Jose","State":"CA","Zip":"95113"},{"Location":"AUDIBLE MAGIC CORP 2","Address":"150 S 1st St 101","City":"San Jose","State":"CA","Zip":"95113"},{"Location":"AUDIBLE MAGIC CORP 3","Address":"150 S 1st St 101","City":"San Jose","State":"CA","Zip":"95113"},{"Location":"BACK A YARD CARRIBEAN AMER","Address":"80 N Market St","City":"San Jose","State":"CA","Zip":"95113"},{"Location":"BANK OF AMERICA CA3-103-08-01","Address":"125 S Market St 8","City":"San Jose","State":"CA","Zip":"95113"},{"Location":"BANK OF THE WEST","Address":"50 W San Fernando St 425","City":"San Jose","State":"CA","Zip":"95113"},{"Location":"BDO USA","Address":"50 W San Fernando St 200","City":"San Jose","State":"CA","Zip":"95113"},{"Location":"BLACK FIRE LLC","Address":"418 S Market St","City":"San Jose","State":"CA","Zip":"95113"},{"Location":"BO TOWN SEAFOOD RESTAURA","Address":"409 S 2nd St","City":"San Jose","State":"CA","Zip":"95113"},{"Location":"BURR%2C PILGER & MAYER","Address":"60 S Market St 8flr","City":"San Jose","State":"CA","Zip":"95113"},{"Location":"CARAVAN","Address":"98 S Almaden Ave","City":"San Jose","State":"CA","Zip":"95113"},{"Location":"CB RICHARD ELLIS","Address":"225 W Santa Clara St","City":"San Jose","State":"CA","Zip":"95113"},{"Location":"CHACHOS","Address":"87 E San Fernando St","City":"San Jose","State":"CA","Zip":"95113"},{"Location":"CINE BAR","Address":"69 E San Fernando St","City":"San Jose","State":"CA","Zip":"95113"},{"Location":"COLLIERS INTERNATIONAL","Address":"450 W Santa Clara St","City":"San Jose","State":"CA","Zip":"95113"},{"Location":"CONVENTION PLAZA (0010906)","Address":"282 Almaden Blvd","City":"San Jose","State":"CA","Zip":"95113"},{"Location":"CREATIVE BRANDS GROUP","Address":"125 S Market St 700","City":"San Jose","State":"CA","Zip":"95113"},{"Location":"DAKINE ISLAND GRILL","Address":"23 N Market St","City":"San Jose","State":"CA","Zip":"95113"},{"Location":"DELOITTE & TOUCHE","Address":"225 W Santa Clara St 600","City":"San Jose","State":"CA","Zip":"95113"},{"Location":"DELUCCHI%2C HAWN & CO%2C LLP","Address":"333 W Santa Clara St 750","City":"San Jose","State":"CA","Zip":"95113"},{"Location":"DEPARTMENT OF JUSTICE","Address":"150 Almaden Blvd 0","City":"San Jose","State":"CA","Zip":"95113"},{"Location":"DIVE BAR","Address":"78 E Santa Clara St","City":"San Jose","State":"CA","Zip":"95113"},{"Location":"DOWNTOWN BRITANNIA","Address":"173 W Santa Clara St","City":"San Jose","State":"CA","Zip":"95113"},{"Location":"FAHRENHEIT ULTRA LOUNGE","Address":"99 San Fernando St","City":"San Jose","State":"CA","Zip":"95113"},{"Location":"FARMERS UNION SPORTS BAR","Address":"151 W Santa Clara St","City":"San Jose","State":"CA","Zip":"95113"},{"Location":"FITNESS EVOLUTION","Address":"150 N First St 119","City":"San Jose","State":"CA","Zip":"95113"},{"Location":"FREDDIE J'S","Address":"97 E Santa Clara St","City":"San Jose","State":"CA","Zip":"95113"},{"Location":"FREMONT BANK","Address":"160 W Santa Clara St 1","City":"San Jose","State":"CA","Zip":"95113"},{"Location":"FUJI SUSHI","Address":"56 W Santa Clara St","City":"San Jose","State":"CA","Zip":"95113"},{"Location":"GALLINA LLP","Address":"60 S Market St 1550","City":"San Jose","State":"CA","Zip":"95113"},{"Location":"GARDEN CITY CONSTRUCTION","Address":"618 S 1st St","City":"San Jose","State":"CA","Zip":"95113"},{"Location":"GORDON BIERSCH #4602","Address":"33 E San Fernando St","City":"San Jose","State":"CA","Zip":"95113"},{"Location":"HOTEL DE ANZA BAR","Address":"233 W Santa Clara St","City":"San Jose","State":"CA","Zip":"95113"},{"Location":"HOTEL DE ANZA GYM","Address":"233 W Santa Clara St","City":"San Jose","State":"CA","Zip":"95113"},{"Location":"Hue Xua Restaurant","Address":"301 E Santa Clara St #b","City":"San Jose","State":"CA","Zip":"95113"},{"Location":"IL FORNAIO","Address":"302 S Market St","City":"San Jose","State":"CA","Zip":"95113"},{"Location":"JEPPESEN DATAPLAN","Address":"225 W Santa Clara St 1600","City":"San Jose","State":"CA","Zip":"95113"},{"Location":"KAUFMANN & GLOBE","Address":"160 W Santa Clara St 1550","City":"San Jose","State":"CA","Zip":"95113"},{"Location":"KBS III TEN ALMADEN LLC","Address":"10 Almaden Blvd 420","City":"San Jose","State":"CA","Zip":"95113"},{"Location":"LA CEIBA TAQUERIA","Address":"799 S 1st St","City":"San Jose","State":"CA","Zip":"95113"},{"Location":"LEGACY PARTNERS COMMERCIAL","Address":"75 E Santa Clara St 1175","City":"San Jose","State":"CA","Zip":"95113"},{"Location":"LIDO'S NIGHTCLUB","Address":"30 S 1st St","City":"San Jose","State":"CA","Zip":"95113"},{"Location":"LITTLER MENDELSON","Address":"50 W San Fernando St 15fl","City":"San Jose","State":"CA","Zip":"95113"},{"Location":"LOTUS SPA","Address":"74 S 1st St","City":"San Jose","State":"CA","Zip":"95113"},{"Location":"LOUISIANA BISTRO","Address":"19 N Market St","City":"San Jose","State":"CA","Zip":"95113"},{"Location":"M LOUNGE","Address":"98 S 2nd St","City":"San Jose","State":"CA","Zip":"95113"},{"Location":"MAC'S CLUB","Address":"39 Post St","City":"San Jose","State":"CA","Zip":"95113"},{"Location":"MCLAURIN","Address":"424 E Santa Clara St","City":"San Jose","State":"CA","Zip":"95113"},{"Location":"MCMANIS FAULKNER","Address":"50 W San Fernando St 1000","City":"San Jose","State":"CA","Zip":"95113"},{"Location":"METLIFE RECEPTION","Address":"225 W Santa Clara St 1450","City":"San Jose","State":"CA","Zip":"95113"},{"Location":"MIAMI BEACH CLUB","Address":"417 S 1st St","City":"San Jose","State":"CA","Zip":"95113"},{"Location":"MORGAN STANLEY 100090","Address":"225 W Santa Clara St 900","City":"San Jose","State":"CA","Zip":"95113"},{"Location":"MUCHOS RESTAURANT","Address":"72 E Santa Clara St","City":"San Jose","State":"CA","Zip":"95113"},{"Location":"MYTH TAVERN AND LOUNGE","Address":"152 Post St","City":"San Jose","State":"CA","Zip":"95113"},{"Location":"NEMEA GREEK TAVERNA","Address":"96 S 1st St","City":"San Jose","State":"CA","Zip":"95113"},{"Location":"NEUROSKY","Address":"125 S Market St 900","City":"San Jose","State":"CA","Zip":"95113"},{"Location":"NNN LLC","Address":"143 W Santa Clara St","City":"San Jose","State":"CA","Zip":"95113"},{"Location":"NRJTV SS OPCO LLC","Address":"99 N 1st St 201","City":"San Jose","State":"CA","Zip":"95113"},{"Location":"ORIGINAL GRAVITY PUBLIC","Address":"66 S 1st St","City":"San Jose","State":"CA","Zip":"95113"},{"Location":"ORIGINAL JOE'S RESTAURANT","Address":"301 S 1st St","City":"San Jose","State":"CA","Zip":"95113"},{"Location":"OZU SUSHI","Address":"86 S 1st St","City":"San Jose","State":"CA","Zip":"95113"},{"Location":"PARK CENTER PLAZA INVESTORS","Address":"100 W San Fernando St 350","City":"San Jose","State":"CA","Zip":"95113"},{"Location":"PEKING HOUSE","Address":"45 Post St","City":"San Jose","State":"CA","Zip":"95113"},{"Location":"PIZZA CHICAGO","Address":"155 W San Fernando St","City":"San Jose","State":"CA","Zip":"95113"},{"Location":"PREMIUM CUTZ 2","Address":"785 S 1st St","City":"San Jose","State":"CA","Zip":"95113"},{"Location":"RAMADA SAN JOSE","Address":"455 S 2nd St","City":"San Jose","State":"CA","Zip":"95113"},{"Location":"RAYMOND JAMES & ASSOCIATES","Address":"150 Almaden Blvd 1375","City":"San Jose","State":"CA","Zip":"95113"},{"Location":"ROPERS MAJESKI KOHN & BENTLEY","Address":"50 W San Fernando St 1400","City":"San Jose","State":"CA","Zip":"95113"},{"Location":"RSM MCGLADREY","Address":"100 W San Fernando St 460","City":"San Jose","State":"CA","Zip":"95113"},{"Location":"SAN JOSE BAR & GRILL","Address":"85 S 2nd St","City":"San Jose","State":"CA","Zip":"95113"},{"Location":"SAN JOSE BUSINESS JOURNAL","Address":"125 S Market St 1100","City":"San Jose","State":"CA","Zip":"95113"},{"Location":"SAN JOSE CIVIC AUDITORIUM","Address":"135 W San Carlos St","City":"San Jose","State":"CA","Zip":"95113"},{"Location":"SAN JOSE IMPROV COMEDY CLUB","Address":"62 S 2nd St","City":"San Jose","State":"CA","Zip":"95113"},{"Location":"SAN JOSE TAQUERIA 2","Address":"235 E Santa Clara St","City":"San Jose","State":"CA","Zip":"95113"},{"Location":"SARATOGA CAPITAL","Address":"66 E Santa Clara St","City":"San Jose","State":"CA","Zip":"95113"},{"Location":"SCOTTS SEAFOOD","Address":"185 Park Ave","City":"San Jose","State":"CA","Zip":"95113"},{"Location":"SILICON VALLEY CAPITAL CLUB","Address":"50 W San Fernando St 1700","City":"San Jose","State":"CA","Zip":"95113"},{"Location":"SONOMA CHICKEN COOP1","Address":"31 N Market St","City":"San Jose","State":"CA","Zip":"95113"},{"Location":"SOUTH FIRST BILLIARDS","Address":"420 S 1st St","City":"San Jose","State":"CA","Zip":"95113"},{"Location":"SPLASH","Address":"65 Post St","City":"San Jose","State":"CA","Zip":"95113"},{"Location":"SPRINGALL","Address":"315 S 1st St","City":"San Jose","State":"CA","Zip":"95113"},{"Location":"TAURINUS STEAK HOUSE","Address":"167 W San Fernando St","City":"San Jose","State":"CA","Zip":"95113"},{"Location":"TESKESR GERMANIA RESTAURANT","Address":"255 N 1st St","City":"San Jose","State":"CA","Zip":"95113"},{"Location":"THE BANK CLUB","Address":"44 S Almaden Ave","City":"San Jose","State":"CA","Zip":"95113"},{"Location":"THE BLUE CHIP","Address":"325 S 1st St","City":"San Jose","State":"CA","Zip":"95113"},{"Location":"THE CORE COMPANIES","Address":"470 S Market St","City":"San Jose","State":"CA","Zip":"95113"},{"Location":"THE DHS ICE HSI","Address":"280 S 1st St 190","City":"San Jose","State":"CA","Zip":"95113"},{"Location":"THE GLOBE %40 2ND & SANTA CLARA","Address":"20 S 2nd St","City":"San Jose","State":"CA","Zip":"95113"},{"Location":"THE LOFT","Address":"90 S 2nd St","City":"San Jose","State":"CA","Zip":"95113"},{"Location":"THE TANK","Address":"301 S Market St","City":"San Jose","State":"CA","Zip":"95113"},{"Location":"TRES GRINGOS BAJA CANTINA","Address":"83 S 2nd St","City":"San Jose","State":"CA","Zip":"95113"},{"Location":"TRUE PARTNERS CONSULTING","Address":"150 Almaden Blvd 450","City":"San Jose","State":"CA","Zip":"95113"},{"Location":"UBS FINANCIAL SERVICES","Address":"50 W San Fernando St 800","City":"San Jose","State":"CA","Zip":"95113"},{"Location":"UNCLE BERNIES CHICKEN AND FISH","Address":"30 E Santa Clara St 140","City":"San Jose","State":"CA","Zip":"95113"},{"Location":"UNIVERSITY CHICKEN","Address":"29 S 3rd St","City":"San Jose","State":"CA","Zip":"95113"},{"Location":"US MARSHAL SERVICE","Address":"280 S 1st St","City":"San Jose","State":"CA","Zip":"95113"},{"Location":"US SECRET SERVICE","Address":"280 S 1st St 1111","City":"San Jose","State":"CA","Zip":"95113"},{"Location":"WELLS FARGO PRIVATE BANK","Address":"225 W Santa Clara St 1400","City":"San Jose","State":"CA","Zip":"95113"},{"Location":"WHISPERS CAFE","Address":"150 S 2nd St","City":"San Jose","State":"CA","Zip":"95113"}]