[{"Location":"BARBER SHOP","Address":"305 San Antonio Ct 5306","City":"San Jose","State":"CA","Zip":"95116"},{"Location":"CASA DO BEFICA DE SAN JOSE","Address":"1098 E Santa Clara St","City":"San Jose","State":"CA","Zip":"95116"},{"Location":"CENTRO LEONINO DA CALIFORNIA","Address":"1304 E Julian St","City":"San Jose","State":"CA","Zip":"95116"},{"Location":"EL GRULLO TWO","Address":"41 S Jackson Ave","City":"San Jose","State":"CA","Zip":"95116"},{"Location":"EL PIRRIN","Address":"1900 E San Antonio St","City":"San Jose","State":"CA","Zip":"95116"},{"Location":"EL TAUERIA GRULLENSE","Address":"1175 E Julian St 5","City":"San Jose","State":"CA","Zip":"95116"},{"Location":"FLORES REMODELING","Address":"781 Jasper St","City":"San Jose","State":"CA","Zip":"95116"},{"Location":"GALAXY BAR & RESTAURANT","Address":"1615 Mckee Rd","City":"San Jose","State":"CA","Zip":"95116"},{"Location":"HARON RAHMATI","Address":"1657 Mckee Rd 30","City":"San Jose","State":"CA","Zip":"95116"},{"Location":"KELLOGGS","Address":"475 Eggo Way","City":"San Jose","State":"CA","Zip":"95116"},{"Location":"KM TIRE & AUTO","Address":"2055 Alum Rock Ave C","City":"San Jose","State":"CA","Zip":"95116"},{"Location":"KOHL'S #979","Address":"2323 Mckee Rd","City":"San Jose","State":"CA","Zip":"95116"},{"Location":"LINDA'S RESTAURANT","Address":"1179 E Santa Clara St","City":"San Jose","State":"CA","Zip":"95116"},{"Location":"MCDONALD","Address":"2353 Mckee Rd","City":"San Jose","State":"CA","Zip":"95116"},{"Location":"MCKEE ORIENT EXPRESS","Address":"1657 Mckee Rd 60","City":"San Jose","State":"CA","Zip":"95116"},{"Location":"MCKEE SEAFOOD","Address":"2331 Mckee Rd","City":"San Jose","State":"CA","Zip":"95116"},{"Location":"MERIDIAN MEDICAL GROUP","Address":"1644 Alum Rock Ave","City":"San Jose","State":"CA","Zip":"95116"},{"Location":"MONARCH TRUCK CENTER","Address":"195 N 30th St","City":"San Jose","State":"CA","Zip":"95116"},{"Location":"MOON ROCK COFFEE","Address":"2650 Alum Rock Ave","City":"San Jose","State":"CA","Zip":"95116"},{"Location":"NGUYEN TRAI BILLIARDS","Address":"2638 Alum Rock Ave","City":"San Jose","State":"CA","Zip":"95116"},{"Location":"NMCI MEDICAL CLINIC INC","Address":"1925 Alum Rock Ave","City":"San Jose","State":"CA","Zip":"95116"},{"Location":"PORTUGESE BAND OF SAN JOSE","Address":"100 N 27th St","City":"San Jose","State":"CA","Zip":"95116"},{"Location":"RANCHO DEL PUEBLO - CE2-1","Address":"1649 Hermocilla Way","City":"San Jose","State":"CA","Zip":"95116"},{"Location":"RESTAURANTE EL AGUILA","Address":"1143 E Santa Clara St","City":"San Jose","State":"CA","Zip":"95116"},{"Location":"ROUND TABLE PIZZA","Address":"2351 Mckee Rd","City":"San Jose","State":"CA","Zip":"95116"},{"Location":"SOUTH BAY SPORTS TRAINNG","Address":"995 E Santa Clara St","City":"San Jose","State":"CA","Zip":"95116"},{"Location":"SUBWAY","Address":"1657 Mckee Rd 20","City":"San Jose","State":"CA","Zip":"95116"},{"Location":"SUMMA INDUSTRIES","Address":"1939 Alum Rock Ave E","City":"San Jose","State":"CA","Zip":"95116"},{"Location":"TINA LE","Address":"2652 Alum Rock Ave","City":"San Jose","State":"CA","Zip":"95116"},{"Location":"TV DENTAL CARE","Address":"228 N Jackson Ave 10","City":"San Jose","State":"CA","Zip":"95116"},{"Location":"WENDYS","Address":"2275 Mckee Rd","City":"San Jose","State":"CA","Zip":"95116"},{"Location":"XANH CAFE","Address":"1915 Alum Rock Ave C","City":"San Jose","State":"CA","Zip":"95116"},{"Location":"BARBER SHOP","Address":"305 San Antonio Ct 5306","City":"San Jose","State":"CA","Zip":"95116"},{"Location":"CASA DO BEFICA DE SAN JOSE","Address":"1098 E Santa Clara St","City":"San Jose","State":"CA","Zip":"95116"},{"Location":"CENTRO LEONINO DA CALIFORNIA","Address":"1304 E Julian St","City":"San Jose","State":"CA","Zip":"95116"},{"Location":"EL GRULLO TWO","Address":"41 S Jackson Ave","City":"San Jose","State":"CA","Zip":"95116"},{"Location":"EL PIRRIN","Address":"1900 E San Antonio St","City":"San Jose","State":"CA","Zip":"95116"},{"Location":"EL TAUERIA GRULLENSE","Address":"1175 E Julian St 5","City":"San Jose","State":"CA","Zip":"95116"},{"Location":"FLORES REMODELING","Address":"781 Jasper St","City":"San Jose","State":"CA","Zip":"95116"},{"Location":"GALAXY BAR & RESTAURANT","Address":"1615 Mckee Rd","City":"San Jose","State":"CA","Zip":"95116"},{"Location":"HARON RAHMATI","Address":"1657 Mckee Rd 30","City":"San Jose","State":"CA","Zip":"95116"},{"Location":"KELLOGGS","Address":"475 Eggo Way","City":"San Jose","State":"CA","Zip":"95116"},{"Location":"KM TIRE & AUTO","Address":"2055 Alum Rock Ave C","City":"San Jose","State":"CA","Zip":"95116"},{"Location":"KOHL'S #979","Address":"2323 Mckee Rd","City":"San Jose","State":"CA","Zip":"95116"},{"Location":"LINDA'S RESTAURANT","Address":"1179 E Santa Clara St","City":"San Jose","State":"CA","Zip":"95116"},{"Location":"MCDONALD","Address":"2353 Mckee Rd","City":"San Jose","State":"CA","Zip":"95116"},{"Location":"MCKEE ORIENT EXPRESS","Address":"1657 Mckee Rd 60","City":"San Jose","State":"CA","Zip":"95116"},{"Location":"MCKEE SEAFOOD","Address":"2331 Mckee Rd","City":"San Jose","State":"CA","Zip":"95116"},{"Location":"MERIDIAN MEDICAL GROUP","Address":"1644 Alum Rock Ave","City":"San Jose","State":"CA","Zip":"95116"},{"Location":"MONARCH TRUCK CENTER","Address":"195 N 30th St","City":"San Jose","State":"CA","Zip":"95116"},{"Location":"MOON ROCK COFFEE","Address":"2650 Alum Rock Ave","City":"San Jose","State":"CA","Zip":"95116"},{"Location":"NGUYEN TRAI BILLIARDS","Address":"2638 Alum Rock Ave","City":"San Jose","State":"CA","Zip":"95116"},{"Location":"NMCI MEDICAL CLINIC INC","Address":"1925 Alum Rock Ave","City":"San Jose","State":"CA","Zip":"95116"},{"Location":"PORTUGESE BAND OF SAN JOSE","Address":"100 N 27th St","City":"San Jose","State":"CA","Zip":"95116"},{"Location":"RANCHO DEL PUEBLO - CE2-1","Address":"1649 Hermocilla Way","City":"San Jose","State":"CA","Zip":"95116"},{"Location":"RESTAURANTE EL AGUILA","Address":"1143 E Santa Clara St","City":"San Jose","State":"CA","Zip":"95116"},{"Location":"ROUND TABLE PIZZA","Address":"2351 Mckee Rd","City":"San Jose","State":"CA","Zip":"95116"},{"Location":"SOUTH BAY SPORTS TRAINNG","Address":"995 E Santa Clara St","City":"San Jose","State":"CA","Zip":"95116"},{"Location":"SUBWAY","Address":"1657 Mckee Rd 20","City":"San Jose","State":"CA","Zip":"95116"},{"Location":"SUMMA INDUSTRIES","Address":"1939 Alum Rock Ave E","City":"San Jose","State":"CA","Zip":"95116"},{"Location":"TINA LE","Address":"2652 Alum Rock Ave","City":"San Jose","State":"CA","Zip":"95116"},{"Location":"TV DENTAL CARE","Address":"228 N Jackson Ave 10","City":"San Jose","State":"CA","Zip":"95116"},{"Location":"WENDYS","Address":"2275 Mckee Rd","City":"San Jose","State":"CA","Zip":"95116"},{"Location":"XANH CAFE","Address":"1915 Alum Rock Ave C","City":"San Jose","State":"CA","Zip":"95116"}]