[{"Location":"ALLERGY AND ASTHMA","Address":"4050 Moorpark Ave","City":"San Jose","State":"CA","Zip":"95117"},{"Location":"AUDI STEVENS CREEK","Address":"3350 Stevens Creek Blvd","City":"San Jose","State":"CA","Zip":"95117"},{"Location":"COURTESY CHEVROLET","Address":"3640 Stevens Creek Blvd","City":"San Jose","State":"CA","Zip":"95117"},{"Location":"CYPRESS SENIOR CENTER","Address":"403 Cypress Ave","City":"San Jose","State":"CA","Zip":"95117"},{"Location":"GOODYEAR 8722","Address":"3146 Stevens Creek Blvd","City":"San Jose","State":"CA","Zip":"95117"},{"Location":"JJS BLUES","Address":"3439 Stevens Creek Blvd","City":"San Jose","State":"CA","Zip":"95117"},{"Location":"LEXUS OF STEVENS CREEK","Address":"3333 Stevens Creek Blvd","City":"San Jose","State":"CA","Zip":"95117"},{"Location":"MEN'S WEARHOUSE #2159","Address":"3121 Stevens Creek Blvd","City":"San Jose","State":"CA","Zip":"95117"},{"Location":"RETAIL","Address":"3680 Stevens Creek Blvd","City":"San Jose","State":"CA","Zip":"95117"},{"Location":"STEVENS CREEK","Address":"3155 Stevens Creek Blvd","City":"San Jose","State":"CA","Zip":"95117"},{"Location":"STEVENS CREEK KIA 2","Address":"3566 Stevens Creek Blvd","City":"San Jose","State":"CA","Zip":"95117"},{"Location":"YEGANEH BAKERY & CAFE","Address":"3275 Stevens Creek Blvd 115","City":"San Jose","State":"CA","Zip":"95117"}]