[{"Location":"ALL STAR BARBERSHOP","Address":"2951 Monterey Hwy","City":"San Jose","State":"CA","Zip":"95111"},{"Location":"BARBER SHOP MONTEREY","Address":"5278 Monterey Hwy F","City":"San Jose","State":"CA","Zip":"95111"},{"Location":"BLING BLING IT ON","Address":"3101 Monterey Hwy","City":"San Jose","State":"CA","Zip":"95111"},{"Location":"BOBA TEA EXPRESS2","Address":"4100 Monterey Hwy 100","City":"San Jose","State":"CA","Zip":"95111"},{"Location":"CITY DINER","Address":"2951 Monterey Rd","City":"San Jose","State":"CA","Zip":"95111"},{"Location":"CLARION INN-SILICON VLY","Address":"3200 Monterey Hwy","City":"San Jose","State":"CA","Zip":"95111"},{"Location":"DANHS  GARDEN RESTAURANT","Address":"2635 Senter Rd","City":"San Jose","State":"CA","Zip":"95111"},{"Location":"EL FAROLITO","Address":"3140 Senter Rd","City":"San Jose","State":"CA","Zip":"95111"},{"Location":"EL RANCHO SPORTS BAR","Address":"3860 Monterey Rd","City":"San Jose","State":"CA","Zip":"95111"},{"Location":"GRAND FORTUNE","Address":"4100 Monterey Hwy 108","City":"San Jose","State":"CA","Zip":"95111"},{"Location":"ICE DELI","Address":"2649 Senter Rd","City":"San Jose","State":"CA","Zip":"95111"},{"Location":"INTERNATIONAL COIN LAUNDROMAT","Address":"5158 Monterey Hwy 30","City":"San Jose","State":"CA","Zip":"95111"},{"Location":"JESSY'S PLACE","Address":"3088 Monterey Hwy","City":"San Jose","State":"CA","Zip":"95111"},{"Location":"KENT HAIR & LE","Address":"3880 Monterey Hwy","City":"San Jose","State":"CA","Zip":"95111"},{"Location":"MAI PHUONG DILIS","Address":"2897 Senter Rd 140","City":"San Jose","State":"CA","Zip":"95111"},{"Location":"MCDONALDS","Address":"585 Tully Rd","City":"San Jose","State":"CA","Zip":"95111"},{"Location":"MISSION MOTEL","Address":"4180 Monterey Rd","City":"San Jose","State":"CA","Zip":"95111"},{"Location":"SAN JOSE TOWING INC","Address":"395 Umbarger Rd","City":"San Jose","State":"CA","Zip":"95111"},{"Location":"SANTA CLARA COUNTY FAIR","Address":"344 Tully Rd","City":"San Jose","State":"CA","Zip":"95111"},{"Location":"SEVEN TREES BAPTIST CHURCH","Address":"3195 Senter Rd","City":"San Jose","State":"CA","Zip":"95111"},{"Location":"SEVEN TREES COMMUNITY CENTER","Address":"3590 Cas Dr","City":"San Jose","State":"CA","Zip":"95111"},{"Location":"SOL DE MEXICO","Address":"5272 Monterey Hwy Suite","City":"San Jose","State":"CA","Zip":"95111"},{"Location":"SPRAY MART II","Address":"99 Lewis Rd B","City":"San Jose","State":"CA","Zip":"95111"},{"Location":"TORRES PREPAID","Address":"4112 Monterey Hwy 101a","City":"San Jose","State":"CA","Zip":"95111"}]