[{"Location":"5TH QUARTER SPORTS BAR","Address":"1373 Kooser Rd B","City":"San Jose","State":"CA","Zip":"95118"},{"Location":"ALOHA COFFEE & PURE WATER","Address":"1179 Branham Ln","City":"San Jose","State":"CA","Zip":"95118"},{"Location":"BAY DENTAL OFFICE","Address":"1180 Blossom Hill Rd 4","City":"San Jose","State":"CA","Zip":"95118"},{"Location":"BRANHAM LOUNGE","Address":"1116 Branham Ln","City":"San Jose","State":"CA","Zip":"95118"},{"Location":"BRITANNIA ARMS","Address":"5027 Almaden Expy","City":"San Jose","State":"CA","Zip":"95118"},{"Location":"CHEVY'S 2008 BLOSSOM HILL","Address":"5305 Almaden Expy","City":"San Jose","State":"CA","Zip":"95118"},{"Location":"CHILI'S #0503","Address":"5650 Almaden Expy","City":"San Jose","State":"CA","Zip":"95118"},{"Location":"CLASSIC CAR WASH","Address":"5005 Almaden Expy","City":"San Jose","State":"CA","Zip":"95118"},{"Location":"CUETOPIA BILLIARD CAFE","Address":"4700 Almaden Expy","City":"San Jose","State":"CA","Zip":"95118"},{"Location":"DIPUCCIOS PASTA SHOP AND","Address":"4710 Meridian Ave","City":"San Jose","State":"CA","Zip":"95118"},{"Location":"DUCKY S WASH AND DRY","Address":"4670 Meridian Ave","City":"San Jose","State":"CA","Zip":"95118"},{"Location":"GIORGOS ITALIAN FOOD","Address":"1445 Foxworthy Ave","City":"San Jose","State":"CA","Zip":"95118"},{"Location":"JUDY INVESTMENTS LLC","Address":"3304 Wilcox Ave","City":"San Jose","State":"CA","Zip":"95118"},{"Location":"LIT LEONG","Address":"1190 Hillsdale Ave 175","City":"San Jose","State":"CA","Zip":"95118"},{"Location":"MEN'S WEARHOUSE #2151","Address":"5353 Almaden Expy 39","City":"San Jose","State":"CA","Zip":"95118"},{"Location":"MOJO BURGER","Address":"1401 Foxworthy Ave","City":"San Jose","State":"CA","Zip":"95118"},{"Location":"MOONS BEST CORP","Address":"1124 Branham Ln","City":"San Jose","State":"CA","Zip":"95118"},{"Location":"MOUNTAIN MIKE PIZZA","Address":"1532 Branham Ln","City":"San Jose","State":"CA","Zip":"95118"},{"Location":"ORIGINAL MEXICO LINDO","Address":"1415 Foxworthy Ave","City":"San Jose","State":"CA","Zip":"95118"},{"Location":"RED LOBSTER #0382","Address":"5343 Almaden Expy","City":"San Jose","State":"CA","Zip":"95118"},{"Location":"ROUND TABLE PIZZA","Address":"1118 Branham Ln","City":"San Jose","State":"CA","Zip":"95118"},{"Location":"SANDWICH MILL AND DELI","Address":"1381 Kooser Rd","City":"San Jose","State":"CA","Zip":"95118"},{"Location":"SANTA CLARA VALLEY WATER","Address":"5760 Almaden Expy","City":"San Jose","State":"CA","Zip":"95118"},{"Location":"SANTA CLARA VALLEY WATER DIST","Address":"5750 Almaden Expy","City":"San Jose","State":"CA","Zip":"95118"},{"Location":"SCRAMBLZ","Address":"5055 Almaden Expy","City":"San Jose","State":"CA","Zip":"95118"},{"Location":"STAR NAILS","Address":"1580 Branham Ln","City":"San Jose","State":"CA","Zip":"95118"},{"Location":"TH BP","Address":"5039 Almaden Expy","City":"San Jose","State":"CA","Zip":"95118"},{"Location":"THE RIGHT STUFF","Address":"1329 Blossom Hill Rd","City":"San Jose","State":"CA","Zip":"95118"},{"Location":"WHOLE FOODS","Address":"1146 Blossom Hill Rd","City":"San Jose","State":"CA","Zip":"95118"},{"Location":"WINGSTOP SAN JOSE","Address":"5353 Almaden Expy 62","City":"San Jose","State":"CA","Zip":"95118"},{"Location":"ZOULAL","Address":"1191 Branham Ln","City":"San Jose","State":"CA","Zip":"95118"},{"Location":"5TH QUARTER SPORTS BAR","Address":"1373 Kooser Rd B","City":"San Jose","State":"CA","Zip":"95118"},{"Location":"ALOHA COFFEE & PURE WATER","Address":"1179 Branham Ln","City":"San Jose","State":"CA","Zip":"95118"},{"Location":"BAY DENTAL OFFICE","Address":"1180 Blossom Hill Rd 4","City":"San Jose","State":"CA","Zip":"95118"},{"Location":"BRANHAM LOUNGE","Address":"1116 Branham Ln","City":"San Jose","State":"CA","Zip":"95118"},{"Location":"BRITANNIA ARMS","Address":"5027 Almaden Expy","City":"San Jose","State":"CA","Zip":"95118"},{"Location":"CHEVY'S 2008 BLOSSOM HILL","Address":"5305 Almaden Expy","City":"San Jose","State":"CA","Zip":"95118"},{"Location":"CHILI'S #0503","Address":"5650 Almaden Expy","City":"San Jose","State":"CA","Zip":"95118"},{"Location":"CLASSIC CAR WASH","Address":"5005 Almaden Expy","City":"San Jose","State":"CA","Zip":"95118"},{"Location":"CUETOPIA BILLIARD CAFE","Address":"4700 Almaden Expy","City":"San Jose","State":"CA","Zip":"95118"},{"Location":"DIPUCCIOS PASTA SHOP AND","Address":"4710 Meridian Ave","City":"San Jose","State":"CA","Zip":"95118"},{"Location":"DUCKY S WASH AND DRY","Address":"4670 Meridian Ave","City":"San Jose","State":"CA","Zip":"95118"},{"Location":"GIORGOS ITALIAN FOOD","Address":"1445 Foxworthy Ave","City":"San Jose","State":"CA","Zip":"95118"},{"Location":"JUDY INVESTMENTS LLC","Address":"3304 Wilcox Ave","City":"San Jose","State":"CA","Zip":"95118"},{"Location":"LIT LEONG","Address":"1190 Hillsdale Ave 175","City":"San Jose","State":"CA","Zip":"95118"},{"Location":"MEN'S WEARHOUSE #2151","Address":"5353 Almaden Expy 39","City":"San Jose","State":"CA","Zip":"95118"},{"Location":"MOJO BURGER","Address":"1401 Foxworthy Ave","City":"San Jose","State":"CA","Zip":"95118"},{"Location":"MOONS BEST CORP","Address":"1124 Branham Ln","City":"San Jose","State":"CA","Zip":"95118"},{"Location":"MOUNTAIN MIKE PIZZA","Address":"1532 Branham Ln","City":"San Jose","State":"CA","Zip":"95118"},{"Location":"ORIGINAL MEXICO LINDO","Address":"1415 Foxworthy Ave","City":"San Jose","State":"CA","Zip":"95118"},{"Location":"RED LOBSTER #0382","Address":"5343 Almaden Expy","City":"San Jose","State":"CA","Zip":"95118"},{"Location":"ROUND TABLE PIZZA","Address":"1118 Branham Ln","City":"San Jose","State":"CA","Zip":"95118"},{"Location":"SANDWICH MILL AND DELI","Address":"1381 Kooser Rd","City":"San Jose","State":"CA","Zip":"95118"},{"Location":"SANTA CLARA VALLEY WATER","Address":"5760 Almaden Expy","City":"San Jose","State":"CA","Zip":"95118"},{"Location":"SANTA CLARA VALLEY WATER DIST","Address":"5750 Almaden Expy","City":"San Jose","State":"CA","Zip":"95118"},{"Location":"SCRAMBLZ","Address":"5055 Almaden Expy","City":"San Jose","State":"CA","Zip":"95118"},{"Location":"STAR NAILS","Address":"1580 Branham Ln","City":"San Jose","State":"CA","Zip":"95118"},{"Location":"TH BP","Address":"5039 Almaden Expy","City":"San Jose","State":"CA","Zip":"95118"},{"Location":"THE RIGHT STUFF","Address":"1329 Blossom Hill Rd","City":"San Jose","State":"CA","Zip":"95118"},{"Location":"WHOLE FOODS","Address":"1146 Blossom Hill Rd","City":"San Jose","State":"CA","Zip":"95118"},{"Location":"WINGSTOP SAN JOSE","Address":"5353 Almaden Expy 62","City":"San Jose","State":"CA","Zip":"95118"},{"Location":"ZOULAL","Address":"1191 Branham Ln","City":"San Jose","State":"CA","Zip":"95118"}]