[{"Location":"24 HOUR FITNESS #497","Address":"6223 Santa Teresa Blvd","City":"San Jose","State":"CA","Zip":"95119"},{"Location":"AMBULATORY SURGERY UNIT","Address":"274 International Cir","City":"San Jose","State":"CA","Zip":"95119"},{"Location":"AXWAVE INC. 1","Address":"9 Great Oaks Blvd","City":"San Jose","State":"CA","Zip":"95119"},{"Location":"AXWAVE INC. 2","Address":"9 Great Oaks Blvd","City":"San Jose","State":"CA","Zip":"95119"},{"Location":"AXWAVE INC. 3","Address":"9 Great Oaks Blvd","City":"San Jose","State":"CA","Zip":"95119"},{"Location":"AXWAVE INC. 4","Address":"9 Great Oaks Blvd","City":"San Jose","State":"CA","Zip":"95119"},{"Location":"CRAFTFMEN PRINTING","Address":"6660 Viadel Oro","City":"San Jose","State":"CA","Zip":"95119"},{"Location":"EQUINIX","Address":"9 Great Oaks Blvd","City":"San Jose","State":"CA","Zip":"95119"},{"Location":"EQUINIX SV1","Address":"11 Great Oaks Blvd","City":"San Jose","State":"CA","Zip":"95119"},{"Location":"FMC 53300000","Address":"6850 Santa Teresa Blvd","City":"San Jose","State":"CA","Zip":"95119"},{"Location":"GOLD'S GYM #419","Address":"121 Bernal Rd","City":"San Jose","State":"CA","Zip":"95119"},{"Location":"HENLEY  RESTAURANT INC","Address":"6830 Via Del Oro 101","City":"San Jose","State":"CA","Zip":"95119"},{"Location":"HGST A WESTERN COMPANY","Address":"5601 Great Oaks Pkwy","City":"San Jose","State":"CA","Zip":"95119"},{"Location":"HGST I","Address":"5601 Great Oaks Parkway Cafe","City":"San Jose","State":"CA","Zip":"95119"},{"Location":"ISCS%2C INC.","Address":"100 Great Oaks Blvd 100","City":"San Jose","State":"CA","Zip":"95119"},{"Location":"JABIL","Address":"6375 San Ignacio Ave","City":"San Jose","State":"CA","Zip":"95119"},{"Location":"KAISER PERMANETE","Address":"256 International Cir","City":"San Jose","State":"CA","Zip":"95119"},{"Location":"MARIA ROGERS","Address":"6402 Santa Teresa Blvd","City":"San Jose","State":"CA","Zip":"95119"},{"Location":"ORCHARDSUPPLIES HARDWARE","Address":"6450 Via Del Oro","City":"San Jose","State":"CA","Zip":"95119"},{"Location":"PACIFIC GAS AND ELECTRIC","Address":"6402 Santa Teresa Blvd","City":"San Jose","State":"CA","Zip":"95119"},{"Location":"ROUND TABLE PIZZA","Address":"6217 Santa Teresa Blvd","City":"San Jose","State":"CA","Zip":"95119"},{"Location":"SANTA TERESA GOLF","Address":"260 Bernal Rd","City":"San Jose","State":"CA","Zip":"95119"},{"Location":"SATELLITE DIALYSIS","Address":"7019 Realm Dr","City":"San Jose","State":"CA","Zip":"95119"},{"Location":"SILVER CREEK FITNESS","Address":"121 Bernal Rd Stea","City":"San Jose","State":"CA","Zip":"95119"},{"Location":"SYMBOL TECHNOLOGIES","Address":"6480 Via Del Oro","City":"San Jose","State":"CA","Zip":"95119"},{"Location":"TERRY MECHANICAL","Address":"6541 Via Del Oro C","City":"San Jose","State":"CA","Zip":"95119"}]