[{"Location":"24 HOUR FITNESS #811","Address":"1610 Crane Ct","City":"San Jose","State":"CA","Zip":"95112"},{"Location":"ACOUSTICS SPECIALTIES","Address":"2230 Will Wool Dr 118","City":"San Jose","State":"CA","Zip":"95112"},{"Location":"AIR PRODUCTS GROUP","Address":"836 Jury Ct 20","City":"San Jose","State":"CA","Zip":"95112"},{"Location":"ALADDIN BAIL BONDS","Address":"900 N 1st St A","City":"San Jose","State":"CA","Zip":"95112"},{"Location":"ALL PRO BAILBONDS","Address":"1100 N 1st St A","City":"San Jose","State":"CA","Zip":"95112"},{"Location":"ALL ROOFING MATERIALS","Address":"2066 S 10th St","City":"San Jose","State":"CA","Zip":"95112"},{"Location":"ALLSTAR PLUMBING","Address":"326 Phelan Ave","City":"San Jose","State":"CA","Zip":"95112"},{"Location":"ALPHA CUBED INVESTMENTS","Address":"100 Century Center Ct 503","City":"San Jose","State":"CA","Zip":"95112"},{"Location":"ANGEL COFFEE & TEE","Address":"2268 Senter Rd 150","City":"San Jose","State":"CA","Zip":"95112"},{"Location":"AUTO WEST COLLISION","Address":"1729 Junction Ave","City":"San Jose","State":"CA","Zip":"95112"},{"Location":"B & J TIRES","Address":"870 Commercial St A","City":"San Jose","State":"CA","Zip":"95112"},{"Location":"BARRAGAN GRANITE","Address":"444 Reynolds Cir","City":"San Jose","State":"CA","Zip":"95112"},{"Location":"BAY 101","Address":"1801 Bering Dr","City":"San Jose","State":"CA","Zip":"95112"},{"Location":"BAY 101 OFFICE","Address":"1801 Bering Dr","City":"San Jose","State":"CA","Zip":"95112"},{"Location":"BEAUTIQUE SALON INC","Address":"1186 S 2nd St","City":"San Jose","State":"CA","Zip":"95112"},{"Location":"BOLD KNIGHT","Address":"840 N 1st St","City":"San Jose","State":"CA","Zip":"95112"},{"Location":"BRYSON    BURNS CONSTRUCTION","Address":"1710 Zanker Rd 103","City":"San Jose","State":"CA","Zip":"95112"},{"Location":"CALIFORNIA DRYWALL CO 2","Address":"2290 S 10th St","City":"San Jose","State":"CA","Zip":"95112"},{"Location":"CALIFORNIA WATER SERVICE","Address":"1720 N 1st St","City":"San Jose","State":"CA","Zip":"95112"},{"Location":"CAPITAL DOTS","Address":"100 Century Center Ct 301","City":"San Jose","State":"CA","Zip":"95112"},{"Location":"CAPS KEYES","Address":"396 Keyes St","City":"San Jose","State":"CA","Zip":"95112"},{"Location":"CED","Address":"255 Commercial St","City":"San Jose","State":"CA","Zip":"95112"},{"Location":"CHARM HOUSE HAIR AND NAILS","Address":"304 N 13th St","City":"San Jose","State":"CA","Zip":"95112"},{"Location":"CIELITO LINDO","Address":"195 E Taylor St","City":"San Jose","State":"CA","Zip":"95112"},{"Location":"CITY OF SAN JOSE","Address":"1661 Senter Rd","City":"San Jose","State":"CA","Zip":"95112"},{"Location":"CLARION HOTEL LOBBY","Address":"1355 N 4th St","City":"San Jose","State":"CA","Zip":"95112"},{"Location":"COCA COLA","Address":"1555 Old Bayshore Hwy","City":"San Jose","State":"CA","Zip":"95112"},{"Location":"COMFORT INN SAN JOSE","Address":"875 N 13th St","City":"San Jose","State":"CA","Zip":"95112"},{"Location":"COMPASS TRANSPORTATION","Address":"1535 S 10th St","City":"San Jose","State":"CA","Zip":"95112"},{"Location":"CONRINTHIAN EVENT CENTER","Address":"196 N 3rd St","City":"San Jose","State":"CA","Zip":"95112"},{"Location":"COUNTY OF SANTA CLARA","Address":"1555 Berger Dr 2","City":"San Jose","State":"CA","Zip":"95112"},{"Location":"CUSTOM CUTS ENTERIOR TRI","Address":"690 Kings Row","City":"San Jose","State":"CA","Zip":"95112"},{"Location":"DANG NGOC SALON","Address":"2268 Senter Rd 222","City":"San Jose","State":"CA","Zip":"95112"},{"Location":"DEPT OF ENVIRONMENTAL HEALTH","Address":"1555 Berger Dr 300","City":"San Jose","State":"CA","Zip":"95112"},{"Location":"DEPT OF TRANSPORTATION","Address":"500 Queens Ln","City":"San Jose","State":"CA","Zip":"95112"},{"Location":"DIOCESE OF SAN JOSE","Address":"1150 N 1st St","City":"San Jose","State":"CA","Zip":"95112"},{"Location":"DOLCE ESSPRESSO","Address":"2328 Senter Rd","City":"San Jose","State":"CA","Zip":"95112"},{"Location":"E KEITH BROWN & CO. CPA","Address":"100 Century Center Ct 130","City":"San Jose","State":"CA","Zip":"95112"},{"Location":"EL BOLERO","Address":"990 N 17th St","City":"San Jose","State":"CA","Zip":"95112"},{"Location":"ELECTRICAL JATC","Address":"908 Bern Ct","City":"San Jose","State":"CA","Zip":"95112"},{"Location":"ELEMENT","Address":"77 N 4th St","City":"San Jose","State":"CA","Zip":"95112"},{"Location":"FAIRFIELD INN & SUITES(0011349","Address":"1755 N 1st St","City":"San Jose","State":"CA","Zip":"95112"},{"Location":"FANTAZIA","Address":"1100 N 1st St","City":"San Jose","State":"CA","Zip":"95112"},{"Location":"FARLING HECHT & DAVIS LLP","Address":"96 N 3rd St 660","City":"San Jose","State":"CA","Zip":"95112"},{"Location":"FERGUSON #0795","Address":"890 Service St Ik","City":"San Jose","State":"CA","Zip":"95112"},{"Location":"FILICE INSURANCE AGENCY","Address":"738 N 1st St 202","City":"San Jose","State":"CA","Zip":"95112"},{"Location":"FLAMES EATERY","Address":"88 S 4th St","City":"San Jose","State":"CA","Zip":"95112"},{"Location":"FLOURISHING    GARDEN","Address":"1650 Monterey Rd","City":"San Jose","State":"CA","Zip":"95112"},{"Location":"FOREVER BEAUMORE COSMETI","Address":"1980 Senter Rd","City":"San Jose","State":"CA","Zip":"95112"},{"Location":"FULL SERVICE CARWASH","Address":"2345 S 7th St","City":"San Jose","State":"CA","Zip":"95112"},{"Location":"GAMMA IOTA HOUSE CORP","Address":"189 S 11th St","City":"San Jose","State":"CA","Zip":"95112"},{"Location":"GCR TIRE SERVICE","Address":"398 E Gish Rd","City":"San Jose","State":"CA","Zip":"95112"},{"Location":"GENJI RESTAURANT","Address":"1335 N 1st St","City":"San Jose","State":"CA","Zip":"95112"},{"Location":"GIO HEO MAY CAFE","Address":"2398 Senter Rd","City":"San Jose","State":"CA","Zip":"95112"},{"Location":"GIOVANIS PIZZA","Address":"862 N 13th St","City":"San Jose","State":"CA","Zip":"95112"},{"Location":"GOLD'S GYM #418","Address":"1893 Monterey Hwy 150","City":"San Jose","State":"CA","Zip":"95112"},{"Location":"GOODWILL INDUSTRIES","Address":"1080 N 7th St","City":"San Jose","State":"CA","Zip":"95112"},{"Location":"GRABEL","Address":"2020 S 10th St","City":"San Jose","State":"CA","Zip":"95112"},{"Location":"GRANDE PIZZERIA 1","Address":"150 East Saint Carlos Street","City":"San Jose","State":"CA","Zip":"95112"},{"Location":"GREEN EARTH MANAGEMENT LLC","Address":"650 Kings Row","City":"San Jose","State":"CA","Zip":"95112"},{"Location":"GREENWASTE RECOVERY INC","Address":"1500 Berger Dr","City":"San Jose","State":"CA","Zip":"95112"},{"Location":"GRILL EM PIZZA AND SPORTS BAR","Address":"497 Reynolds Cir","City":"San Jose","State":"CA","Zip":"95112"},{"Location":"HERBAL FX WAREHOUSE","Address":"123 E Alma Ave 10b","City":"San Jose","State":"CA","Zip":"95112"},{"Location":"HIGH SIERRA PRECISION","Address":"1758 Junction Ave","City":"San Jose","State":"CA","Zip":"95112"},{"Location":"HIGHLIGHT CONSULTING LLC","Address":"1370 Vander Way","City":"San Jose","State":"CA","Zip":"95112"},{"Location":"HYDE PARK LOUNGE","Address":"1070 N 4th St","City":"San Jose","State":"CA","Zip":"95112"},{"Location":"ICS INTEGRATED COM SYSTEMS","Address":"550 Parrott St 40","City":"San Jose","State":"CA","Zip":"95112"},{"Location":"INDOOR AIR DESIGN","Address":"925 Commercial St","City":"San Jose","State":"CA","Zip":"95112"},{"Location":"ISLAND GRILL AND BAMBOO","Address":"1355 N 4th St","City":"San Jose","State":"CA","Zip":"95112"},{"Location":"J ROMERO BROTHERS CONSTR","Address":"1336 Old Bayshore Hwy","City":"San Jose","State":"CA","Zip":"95112"},{"Location":"JACKS BAR AND LOUNGE","Address":"167 E Taylor St","City":"San Jose","State":"CA","Zip":"95112"},{"Location":"JADE CATHAY RESTAURANT","Address":"1339 N 1st St","City":"San Jose","State":"CA","Zip":"95112"},{"Location":"JOJO HAIR STUDIO%2C INC.","Address":"672 N 1st St","City":"San Jose","State":"CA","Zip":"95112"},{"Location":"JON JONS","Address":"1305 Old Oakland Rd","City":"San Jose","State":"CA","Zip":"95112"},{"Location":"KINGPIN HOT RODS","Address":"696 Quinn Ave","City":"San Jose","State":"CA","Zip":"95112"},{"Location":"LA CORONA","Address":"858 N 13th St","City":"San Jose","State":"CA","Zip":"95112"},{"Location":"LOS GATOS ROOFING","Address":"888 Faulstich Ct","City":"San Jose","State":"CA","Zip":"95112"},{"Location":"LUNA BAIL BONDS","Address":"636 N 1st St","City":"San Jose","State":"CA","Zip":"95112"},{"Location":"MARANATHA CHRISTIAN CENTER","Address":"1811 S 7th St","City":"San Jose","State":"CA","Zip":"95112"},{"Location":"MARBLE AND STONE SOLUTIONS","Address":"1495 Industrial Ave","City":"San Jose","State":"CA","Zip":"95112"},{"Location":"MIKE ALLEN SPORTS","Address":"2230 Will Wool Dr 119","City":"San Jose","State":"CA","Zip":"95112"},{"Location":"NY PIZZA AND DOGS","Address":"1751 N 1st St 10","City":"San Jose","State":"CA","Zip":"95112"},{"Location":"OAK GROVE HALL","Address":"107 E Alma Ave","City":"San Jose","State":"CA","Zip":"95112"},{"Location":"OBTENGA ENERJIA","Address":"904 Oakland Rd","City":"San Jose","State":"CA","Zip":"95112"},{"Location":"PACIFIC HAND CAR WASH","Address":"21 N 5th St","City":"San Jose","State":"CA","Zip":"95112"},{"Location":"PHO TAU BAY","Address":"454 Keyes St","City":"San Jose","State":"CA","Zip":"95112"},{"Location":"PHO VIET CAFE","Address":"1092 N 1st St","City":"San Jose","State":"CA","Zip":"95112"},{"Location":"PORCELANOSA INC","Address":"391 E Brokaw Rd","City":"San Jose","State":"CA","Zip":"95112"},{"Location":"PRECISION MEASUREMENTS","Address":"1630 Zanker Rd","City":"San Jose","State":"CA","Zip":"95112"},{"Location":"PRO STAINLESS","Address":"333 E Brokaw Rd","City":"San Jose","State":"CA","Zip":"95112"},{"Location":"RADISON LOUNGE","Address":"1471 N 4th St","City":"San Jose","State":"CA","Zip":"95112"},{"Location":"RAINERI AUTOMOTIVE","Address":"351 Keyes St","City":"San Jose","State":"CA","Zip":"95112"},{"Location":"RNM FIRST STREET L.P","Address":"1732 N 1st St 250","City":"San Jose","State":"CA","Zip":"95112"},{"Location":"ROBLES BROTHERS","Address":"1700 Rogers Ave","City":"San Jose","State":"CA","Zip":"95112"},{"Location":"ROCK AND JUMP LLC","Address":"1901 Monterey Hwy 20","City":"San Jose","State":"CA","Zip":"95112"},{"Location":"RUBENSTEIN SUPPLY","Address":"1939 Monterey Hwy 16","City":"San Jose","State":"CA","Zip":"95112"},{"Location":"SAN JOSE AIRPORT GARDEN HOTEL","Address":"1740 N 1st St","City":"San Jose","State":"CA","Zip":"95112"},{"Location":"SAN JOSE HEALTHCARE","Address":"75 N 13th St","City":"San Jose","State":"CA","Zip":"95112"},{"Location":"SAN JOSE MEDICAL","Address":"283 E Brokaw Rd","City":"San Jose","State":"CA","Zip":"95112"},{"Location":"SAN JOSE POLICE OFFICE ASSOC","Address":"1151 N 4th St","City":"San Jose","State":"CA","Zip":"95112"},{"Location":"SAN JOSE SHARKS TRAINING #2","Address":"1500 S 10th St","City":"San Jose","State":"CA","Zip":"95112"},{"Location":"SAN JOSE STATE UNIV ATHLETICS","Address":"1393 S 7th St","City":"San Jose","State":"CA","Zip":"95112"},{"Location":"SAN JOSE STATE UNIVERSITY","Address":"347 S 9t St Bb","City":"San Jose","State":"CA","Zip":"95112"},{"Location":"SAN JOSE UNIVERSITY ATHLETICS","Address":"460 E Humboldt St","City":"San Jose","State":"CA","Zip":"95112"},{"Location":"SAN JOSE VET CENTER","Address":"278 N 2nd St C1401","City":"San Jose","State":"CA","Zip":"95112"},{"Location":"SANTA CLARA VALLEY CORP","Address":"777 N 1st St 3fl","City":"San Jose","State":"CA","Zip":"95112"},{"Location":"SCRAPPERS RACING","Address":"689 Quinn Ave","City":"San Jose","State":"CA","Zip":"95112"},{"Location":"SERVICE KING","Address":"1460 Terminal Ave","City":"San Jose","State":"CA","Zip":"95112"},{"Location":"SMOKING PIG BBQ","Address":"1144 N 4th St","City":"San Jose","State":"CA","Zip":"95112"},{"Location":"SOLACE SUPPORTIVE LIVING","Address":"77 S 12th St","City":"San Jose","State":"CA","Zip":"95112"},{"Location":"SONY","Address":"1730 N 1st St 5nw","City":"San Jose","State":"CA","Zip":"95112"},{"Location":"SOUTH BAY RESPIRATORY ASSOCIAT","Address":"65 N 14th St","City":"San Jose","State":"CA","Zip":"95112"},{"Location":"SPRIG ELECTRIC","Address":"1860 S 10th St","City":"San Jose","State":"CA","Zip":"95112"},{"Location":"STANLEY'S BAR & GRILL","Address":"1500 S 10th St","City":"San Jose","State":"CA","Zip":"95112"},{"Location":"SUDDATH RELOCATION SYSTEMS","Address":"2055 S 7th St","City":"San Jose","State":"CA","Zip":"95112"},{"Location":"SUSHI KAN","Address":"1305 N 1st St","City":"San Jose","State":"CA","Zip":"95112"},{"Location":"T AND A SUPPLIES","Address":"1045 N 10th St","City":"San Jose","State":"CA","Zip":"95112"},{"Location":"TAPOUT BAIL BONDS","Address":"870 N 1st St","City":"San Jose","State":"CA","Zip":"95112"},{"Location":"TAVOLACCI MANUFACTURING","Address":"1590 Kerley Dr","City":"San Jose","State":"CA","Zip":"95112"},{"Location":"THANG MO LIBRARY","Address":"730 S 2nd St","City":"San Jose","State":"CA","Zip":"95112"},{"Location":"THE DINING COMMONS","Address":"390 S 8th St","City":"San Jose","State":"CA","Zip":"95112"},{"Location":"THE DOG HOUSE SPORTS LOU","Address":"1336 N 1st St","City":"San Jose","State":"CA","Zip":"95112"},{"Location":"THE PLUMBING INDUSTRY APPRENTI","Address":"780 Commercial St","City":"San Jose","State":"CA","Zip":"95112"},{"Location":"THE SAN JOSE POLICE CHAPLAINCY","Address":"471 E Santa Clara St","City":"San Jose","State":"CA","Zip":"95112"},{"Location":"THERESA BEAUTY SALON ONE","Address":"2314 Senter Rd","City":"San Jose","State":"CA","Zip":"95112"},{"Location":"TICO CONSTRUCTION COMPANY INC","Address":"1585 Terminal Ave","City":"San Jose","State":"CA","Zip":"95112"},{"Location":"TNH BODY SHOP","Address":"1138 N 5th St","City":"San Jose","State":"CA","Zip":"95112"},{"Location":"URBAN PERIPHERALS II","Address":"1271 Alma Ct","City":"San Jose","State":"CA","Zip":"95112"},{"Location":"US HEALTHWORKS MED GROUP INC","Address":"1893 Monterey Hwy 200","City":"San Jose","State":"CA","Zip":"95112"},{"Location":"VENUS BISTRO & RESTAURANT","Address":"2376 Senter Road","City":"San Jose","State":"CA","Zip":"95112"},{"Location":"VILA VICTORIA INC","Address":"144 N 5th St","City":"San Jose","State":"CA","Zip":"95112"},{"Location":"VTA TRANSIT","Address":"2240 S 7th St","City":"San Jose","State":"CA","Zip":"95112"}]