[{"Location":"ACTIVE SPORTS CLUBS %40 SKYPORT","Address":"90 Skyport Dr 110","City":"San Jose","State":"CA","Zip":"95110"},{"Location":"ACTIVEVIDEO NETWORKS","Address":"333 W San Carlos St 400","City":"San Jose","State":"CA","Zip":"95110"},{"Location":"ADOBE SYSTEMS INC WEST #2","Address":"345 Park Ave","City":"San Jose","State":"CA","Zip":"95110"},{"Location":"ADOBE SYSTEMS INC-WEST","Address":"345 Park Ave","City":"San Jose","State":"CA","Zip":"95110"},{"Location":"ADOBE SYSTEMS INCORPORATED","Address":"345 Park Ave","City":"San Jose","State":"CA","Zip":"95110"},{"Location":"AIR CULINAIRE WORLDWIDE","Address":"1250 Aviation Ave 1","City":"San Jose","State":"CA","Zip":"95110"},{"Location":"AJ AUTO DETAILING","Address":"702 Coleman Ave","City":"San Jose","State":"CA","Zip":"95110"},{"Location":"ALL NIPPON AIRWAYS CO","Address":"2065 Airport Blvd","City":"San Jose","State":"CA","Zip":"95110"},{"Location":"BAD BOYS BAIL BONDS","Address":"595 Park Ave","City":"San Jose","State":"CA","Zip":"95110"},{"Location":"BJ'S RESTURANTS #550","Address":"511 Coleman Ave","City":"San Jose","State":"CA","Zip":"95110"},{"Location":"BOWMAN AND BROOKE LLP","Address":"1741 Technology Dr 200","City":"San Jose","State":"CA","Zip":"95110"},{"Location":"BROS BODY SHOP","Address":"715 Coleman Ave","City":"San Jose","State":"CA","Zip":"95110"},{"Location":"CASINO","Address":"1887 Matrix Blvd","City":"San Jose","State":"CA","Zip":"95110"},{"Location":"CASINO MATRIX","Address":"1887 Matrix Blvd","City":"San Jose","State":"CA","Zip":"95110"},{"Location":"CB RICHARD ELLIS","Address":"333 W San Carlos St 1220","City":"San Jose","State":"CA","Zip":"95110"},{"Location":"CHILI'S #1278","Address":"543 Coleman Ave","City":"San Jose","State":"CA","Zip":"95110"},{"Location":"CLUB AT SJC","Address":"2065 Airport Blvd F3300","City":"San Jose","State":"CA","Zip":"95110"},{"Location":"CONTINENTAL AIRLINES","Address":"2077 Airport Blvd 114","City":"San Jose","State":"CA","Zip":"95110"},{"Location":"COUNTY OF SANTA CLARA OF CORR.","Address":"180 W Hedding St","City":"San Jose","State":"CA","Zip":"95110"},{"Location":"COUNTY OF SANTA CLARA SSA","Address":"333 W Julian St","City":"San Jose","State":"CA","Zip":"95110"},{"Location":"CREATIVE SECURITY","Address":"150 S Autumn St","City":"San Jose","State":"CA","Zip":"95110"},{"Location":"DANDRE PETERSON BOBUS AND ROSE","Address":"1798 Technology Dr 292","City":"San Jose","State":"CA","Zip":"95110"},{"Location":"DELTA AIR LINES","Address":"2077 Airport Blvd 106","City":"San Jose","State":"CA","Zip":"95110"},{"Location":"DENNYS CORP","Address":"1390 S 1st St","City":"San Jose","State":"CA","Zip":"95110"},{"Location":"DIAMOND AUTO DETAIL","Address":"74 S Autumn St","City":"San Jose","State":"CA","Zip":"95110"},{"Location":"DIAMOND LAUNDRY & CLEANERS","Address":"398 W San Carlos St","City":"San Jose","State":"CA","Zip":"95110"},{"Location":"DOUBLETREE HOTEL (0053161)","Address":"2050 Gateway Pl","City":"San Jose","State":"CA","Zip":"95110"},{"Location":"DOUBLETREE SAN JOSE","Address":"2050 Gateway Pl","City":"San Jose","State":"CA","Zip":"95110"},{"Location":"EQUITY OFFICE","Address":"2077 Gateway Pl","City":"San Jose","State":"CA","Zip":"95110"},{"Location":"EQUITY OFFICE","Address":"1740 Technology Dr","City":"San Jose","State":"CA","Zip":"95110"},{"Location":"EQUITY OFFICE MANAGEMENT","Address":"2001 Gateway Pl 350w","City":"San Jose","State":"CA","Zip":"95110"},{"Location":"EQUITY OFFICE PROERTIES","Address":"1733 Technology Dr Gym","City":"San Jose","State":"CA","Zip":"95110"},{"Location":"EWA WEST LLC","Address":"1250 Aviation Ave 175","City":"San Jose","State":"CA","Zip":"95110"},{"Location":"FED EX EXPRESS","Address":"2091 Airport Blvd","City":"San Jose","State":"CA","Zip":"95110"},{"Location":"FIRESTONE #117005","Address":"802 S 1st St","City":"San Jose","State":"CA","Zip":"95110"},{"Location":"FLAMES EATERY & BAR","Address":"1701 Airport Blvd","City":"San Jose","State":"CA","Zip":"95110"},{"Location":"GE CAPITAL","Address":"1740 Technology Dr 1510","City":"San Jose","State":"CA","Zip":"95110"},{"Location":"HENRY'S HI-LIFE C","Address":"301 W Saint John St","City":"San Jose","State":"CA","Zip":"95110"},{"Location":"HILTON SAN JOSE BAR & GRILL","Address":"300 Almaden Blvd","City":"San Jose","State":"CA","Zip":"95110"},{"Location":"HMS HOST","Address":"2077 Airport Blvd","City":"San Jose","State":"CA","Zip":"95110"},{"Location":"HMS HOST SJCGBH01","Address":"2077 Airport Blvd","City":"San Jose","State":"CA","Zip":"95110"},{"Location":"HMS HOST SJCSJS02","Address":"1701 Airport Blvd","City":"San Jose","State":"CA","Zip":"95110"},{"Location":"INDIAN CUISINE","Address":"50 Skyport Dr","City":"San Jose","State":"CA","Zip":"95110"},{"Location":"JETBLUE AIRWAY","Address":"2077 Airport Blvd 113","City":"San Jose","State":"CA","Zip":"95110"},{"Location":"LA FITNESS #06143","Address":"610 Newhall St","City":"San Jose","State":"CA","Zip":"95110"},{"Location":"LABORS UNION LOCAL","Address":"509 Emory St","City":"San Jose","State":"CA","Zip":"95110"},{"Location":"LOS CUBANOS RESTAURANT","Address":"22 N Almaden Ave","City":"San Jose","State":"CA","Zip":"95110"},{"Location":"MARMALADE SKIES LLC","Address":"1144 Coleman Ave 80","City":"San Jose","State":"CA","Zip":"95110"},{"Location":"MCGRATH%2FPOWER PUBLIC RELATIONS","Address":"333 W San Carlos St 900","City":"San Jose","State":"CA","Zip":"95110"},{"Location":"MEKTRA INC","Address":"199 Bassett St","City":"San Jose","State":"CA","Zip":"95110"},{"Location":"MICELI FINANCIAL PARTNERS","Address":"101 Metro Dr 550","City":"San Jose","State":"CA","Zip":"95110"},{"Location":"MIKE PIZZA","Address":"889 S Almaden Ave","City":"San Jose","State":"CA","Zip":"95110"},{"Location":"MLP TAX  FINANCIAL SVC","Address":"101 Metro Dr 650","City":"San Jose","State":"CA","Zip":"95110"},{"Location":"MONTEALBAN RESTAURANT","Address":"960 S 1st St","City":"San Jose","State":"CA","Zip":"95110"},{"Location":"NAIL TAN AMERICA","Address":"579 Coleman Ave","City":"San Jose","State":"CA","Zip":"95110"},{"Location":"O'FLAHERTY'S","Address":"25 N San Pedro St","City":"San Jose","State":"CA","Zip":"95110"},{"Location":"OLD WAGON SALOON","Address":"73 N San Pedro St","City":"San Jose","State":"CA","Zip":"95110"},{"Location":"ONLINE TRADING ACADEMY","Address":"1798 Technology Dr 152","City":"San Jose","State":"CA","Zip":"95110"},{"Location":"PACIFIC GATEWAY CONCESSIONS","Address":"1701 Airport Blvd","City":"San Jose","State":"CA","Zip":"95110"},{"Location":"PAESANO ITALIAN REST","Address":"350 W Julian St 1","City":"San Jose","State":"CA","Zip":"95110"},{"Location":"PAN PACIFIC BANK","Address":"300 Park Ave 100","City":"San Jose","State":"CA","Zip":"95110"},{"Location":"PEGGY SUES DINER","Address":"29 N San Pedro St","City":"San Jose","State":"CA","Zip":"95110"},{"Location":"PIXELWORKS","Address":"224 Airport Pkwy 400","City":"San Jose","State":"CA","Zip":"95110"},{"Location":"PRECISION FLOORING INC","Address":"550 Coleman Ave","City":"San Jose","State":"CA","Zip":"95110"},{"Location":"RAILWAY DISTRIBUTING","Address":"675 Emory St","City":"San Jose","State":"CA","Zip":"95110"},{"Location":"REGUS BUSINESS CENTER","Address":"2033 Gateway Pl 500","City":"San Jose","State":"CA","Zip":"95110"},{"Location":"RENAGADES","Address":"501 W Taylor St 501","City":"San Jose","State":"CA","Zip":"95110"},{"Location":"RIVER PARK TOWER","Address":"300 Park Ave","City":"San Jose","State":"CA","Zip":"95110"},{"Location":"SAN JOSE AIRPORT-ATS","Address":"1701 Airport Blvd B1130","City":"San Jose","State":"CA","Zip":"95110"},{"Location":"SAN JOSE CREDIT UNION","Address":"140 Asbury St","City":"San Jose","State":"CA","Zip":"95110"},{"Location":"SAN JOSE ELKS LODGE 522","Address":"444 W Alma Ave","City":"San Jose","State":"CA","Zip":"95110"},{"Location":"SAN JOSE INTERNATIONAL AIRPORT","Address":"1387 Airport Blvd","City":"San Jose","State":"CA","Zip":"95110"},{"Location":"SAN JOSE JET CENTER","Address":"1250 Aviation Ave","City":"San Jose","State":"CA","Zip":"95110"},{"Location":"SAN JOSE JOES","Address":"1701 Airport Blvd. Trm #b Nc-9","City":"San Jose","State":"CA","Zip":"95110"},{"Location":"SAN PEDRO BISTRO","Address":"20 N Almaden Ave","City":"San Jose","State":"CA","Zip":"95110"},{"Location":"SANTA CLARA COUNTY OFFICE","Address":"55 W Younger Ave 450","City":"San Jose","State":"CA","Zip":"95110"},{"Location":"SANTA CLARA VALLEY TRANSPORTAT","Address":"101 W Younger Ave","City":"San Jose","State":"CA","Zip":"95110"},{"Location":"SCOTTRADE 04D","Address":"97 Metro Dr","City":"San Jose","State":"CA","Zip":"95110"},{"Location":"SFO HOTEL SHUTTLE INC.","Address":"1025 Stockton Ave","City":"San Jose","State":"CA","Zip":"95110"},{"Location":"SIP SAVVY","Address":"1701 Airport Blvd Ta21","City":"San Jose","State":"CA","Zip":"95110"},{"Location":"SONOMA CHICKEN COOP SKYPORT 2","Address":"90 Skyport Dr 100","City":"San Jose","State":"CA","Zip":"95110"},{"Location":"SOUTHWEST AIRLINES","Address":"2077 Airport Blvd A","City":"San Jose","State":"CA","Zip":"95110"},{"Location":"SP2","Address":"72 N Almaden Ave","City":"San Jose","State":"CA","Zip":"95110"},{"Location":"SUPER CUTS JOSE","Address":"567 Coleman Ave 20","City":"San Jose","State":"CA","Zip":"95110"},{"Location":"THE FIREHOUSE BAR AND GRILL","Address":"69 N San Pedro St","City":"San Jose","State":"CA","Zip":"95110"},{"Location":"THE OLD SPAGHETTI FACTORY","Address":"51 N San Pedro St","City":"San Jose","State":"CA","Zip":"95110"},{"Location":"TOGOS SAN PEDROS","Address":"18 N San Pedro St","City":"San Jose","State":"CA","Zip":"95110"},{"Location":"TOP HATTERS MOTORCYCLE","Address":"250 N Montgomery St","City":"San Jose","State":"CA","Zip":"95110"},{"Location":"TRES GRINGOS","Address":"2077 Airport Blvd","City":"San Jose","State":"CA","Zip":"95110"},{"Location":"TRINIS CAFE","Address":"995 S 1st St","City":"San Jose","State":"CA","Zip":"95110"},{"Location":"TS69282020000000XXAOXXSJCXTVXX","Address":"1735 Technology Dr 200","City":"San Jose","State":"CA","Zip":"95110"},{"Location":"UNA MAS","Address":"579 Coleman Ave 60","City":"San Jose","State":"CA","Zip":"95110"},{"Location":"URBAN MARKET LLC","Address":"87 N San Pedro St 125","City":"San Jose","State":"CA","Zip":"95110"},{"Location":"URBAN MARKET LLC 2","Address":"100 N Almaden Ave","City":"San Jose","State":"CA","Zip":"95110"},{"Location":"US AIRWAYS","Address":"2077 Airport Blvd 104","City":"San Jose","State":"CA","Zip":"95110"},{"Location":"VALLEY TRANSIT ASSOCIATION","Address":"101 W Younger Ave","City":"San Jose","State":"CA","Zip":"95110"},{"Location":"VINO VINO","Address":"87 N San Pedro St","City":"San Jose","State":"CA","Zip":"95110"},{"Location":"VITO'S NY TRATTORIA","Address":"90 Skyport Dr 160","City":"San Jose","State":"CA","Zip":"95110"},{"Location":"WINGSTOP","Address":"503 Coleman Ave 40","City":"San Jose","State":"CA","Zip":"95110"},{"Location":"WORLD OF SPORTS","Address":"82 S Montgomery St","City":"San Jose","State":"CA","Zip":"95110"}]