[{"Location":"ALLIANCE FOR COMMUNITY CARE","Address":"436 N White Rd","City":"San Jose","State":"CA","Zip":"95127"},{"Location":"CAPITAL BEAUTY","Address":"1093 S Capitol Ave","City":"San Jose","State":"CA","Zip":"95127"},{"Location":"CAPITOL SQUARE DENTAL CARE","Address":"2727 Mckee Rd","City":"San Jose","State":"CA","Zip":"95127"},{"Location":"CAREMORE","Address":"255 N White Rd","City":"San Jose","State":"CA","Zip":"95127"},{"Location":"CROSSROADS PROGRAM","Address":"438 N White Rd","City":"San Jose","State":"CA","Zip":"95127"},{"Location":"DIEM XUA","Address":"175 S Capitol Ave","City":"San Jose","State":"CA","Zip":"95127"},{"Location":"DONG QUE","Address":"2852 Alum Rock Ave","City":"San Jose","State":"CA","Zip":"95127"},{"Location":"DR. VIRAY","Address":"3087 Mckee Rd","City":"San Jose","State":"CA","Zip":"95127"},{"Location":"FIRESTONE #117358","Address":"47 S Capitol Ave","City":"San Jose","State":"CA","Zip":"95127"},{"Location":"FITNESS 19","Address":"3000 Story Rd","City":"San Jose","State":"CA","Zip":"95127"},{"Location":"HOMELESS VETERANS EMERGENCY HO","Address":"10 Kirk Ave","City":"San Jose","State":"CA","Zip":"95127"},{"Location":"JESEMIAS JANITORIAL SUPP","Address":"440 Toyon Ave","City":"San Jose","State":"CA","Zip":"95127"},{"Location":"KOREAN FUSION BBQ","Address":"255 N White Rd 102","City":"San Jose","State":"CA","Zip":"95127"},{"Location":"LA GRULLENSA RESTAURANT","Address":"461 S Capitol Ave 15","City":"San Jose","State":"CA","Zip":"95127"},{"Location":"LA PERLA TAQUERIA","Address":"1150 Mcginness Ave","City":"San Jose","State":"CA","Zip":"95127"},{"Location":"LAS BALABAS","Address":"1442 S White Rd","City":"San Jose","State":"CA","Zip":"95127"},{"Location":"MARIOS BARBERSHOP","Address":"3154 Alum Rock Ave","City":"San Jose","State":"CA","Zip":"95127"},{"Location":"MISS CAFE","Address":"2880 Alum Rock Ave","City":"San Jose","State":"CA","Zip":"95127"},{"Location":"MITC","Address":"3737 Madeline Dr","City":"San Jose","State":"CA","Zip":"95127"},{"Location":"MOUNTAIN MIKE PIZZA","Address":"2908 Alum Rock Ave","City":"San Jose","State":"CA","Zip":"95127"},{"Location":"MS GAS LIGHT BAR","Address":"233 S White Rd","City":"San Jose","State":"CA","Zip":"95127"},{"Location":"NEW YORK","Address":"22 N White Rd 10","City":"San Jose","State":"CA","Zip":"95127"},{"Location":"PLANNED PARENTHOOD MARMONTE","Address":"3131 Alum Rock Ave","City":"San Jose","State":"CA","Zip":"95127"},{"Location":"RED BERRY NAIL AND SPA","Address":"3091 Mckee Rd","City":"San Jose","State":"CA","Zip":"95127"},{"Location":"SATELLITE DIALYSIS - SJ","Address":"1450 S White Rd 30","City":"San Jose","State":"CA","Zip":"95127"},{"Location":"TALENTA","Address":"2759 Story Rd","City":"San Jose","State":"CA","Zip":"95127"},{"Location":"THE DRYING SHED","Address":"402 Toyon Ave","City":"San Jose","State":"CA","Zip":"95127"},{"Location":"UNDERGROUND TATOO SHOP","Address":"3132 Story Rd","City":"San Jose","State":"CA","Zip":"95127"},{"Location":"VITO PIZZA","Address":"1040 S White Rd","City":"San Jose","State":"CA","Zip":"95127"}]