[{"Location":"BELLA NAIL SPA","Address":"1025 E Capitol Expy","City":"San Jose","State":"CA","Zip":"95121"},{"Location":"CALIFORNIA ANCHOR","Address":"1787 Hurstwood Ct","City":"San Jose","State":"CA","Zip":"95121"},{"Location":"CALIFORNIA RIPPEDFITNESS","Address":"1035 E Capitol Expy","City":"San Jose","State":"CA","Zip":"95121"},{"Location":"CASTRO AND HIPONA DENTAL CARE","Address":"2721 Aborn Rd 20","City":"San Jose","State":"CA","Zip":"95121"},{"Location":"CHOT NHO CAFE TWO","Address":"2444 Alvin Ave","City":"San Jose","State":"CA","Zip":"95121"},{"Location":"CITY OF SAN JOSE MUN WATER","Address":"3025 Tuers Rd Op430","City":"San Jose","State":"CA","Zip":"95121"},{"Location":"COFFEE LOVERS","Address":"1855 Aborn Rd","City":"San Jose","State":"CA","Zip":"95121"},{"Location":"COURTYARD CAFE","Address":"2455 Alvin Ave","City":"San Jose","State":"CA","Zip":"95121"},{"Location":"CRAWFISHAHOLIC SEAFOOD RESTAUR","Address":"1011 E Capitol Expy","City":"San Jose","State":"CA","Zip":"95121"},{"Location":"EL GRULLO RESTAURANT","Address":"2444 Alvin Ave Stea","City":"San Jose","State":"CA","Zip":"95121"},{"Location":"EVERGREEN ADULT DEVELOPM","Address":"2887 Mclaughlin Ave B","City":"San Jose","State":"CA","Zip":"95121"},{"Location":"EVERGREEN VETERINARY CLINIC","Address":"1611 E Capitol Expy 205","City":"San Jose","State":"CA","Zip":"95121"},{"Location":"LIGHTHOUSE CAFE","Address":"1654 Burdette Dr","City":"San Jose","State":"CA","Zip":"95121"},{"Location":"LOS LAGOS GOLF","Address":"2995 Tuers Rd","City":"San Jose","State":"CA","Zip":"95121"},{"Location":"MCDONALDS","Address":"1033 E Capitol Expy","City":"San Jose","State":"CA","Zip":"95121"},{"Location":"MIEN TAY CAFE","Address":"2005 Silver Creek Rd 112","City":"San Jose","State":"CA","Zip":"95121"},{"Location":"MISSION DELA CASA1","Address":"2501 Alvin Ave","City":"San Jose","State":"CA","Zip":"95121"},{"Location":"MOUNTAIN MIKE'S PIZZA","Address":"2938 Aborn Square Rd","City":"San Jose","State":"CA","Zip":"95121"},{"Location":"NEW SAM KEE CHINESE REST","Address":"1942 Aborn Rd","City":"San Jose","State":"CA","Zip":"95121"},{"Location":"PHO TAU BAY","Address":"3005 Silver Creek Rd 168","City":"San Jose","State":"CA","Zip":"95121"},{"Location":"PLAN PARENTHOOD MARMONTE","Address":"2470 Alvin Ave","City":"San Jose","State":"CA","Zip":"95121"},{"Location":"RED LOBSTER #0383","Address":"2040 Aborn Rd","City":"San Jose","State":"CA","Zip":"95121"},{"Location":"REIGN RESTAURANT","Address":"1071 E Capitol Expy","City":"San Jose","State":"CA","Zip":"95121"},{"Location":"ROUND TABLE PIZZA","Address":"1015 E Capitol Expy","City":"San Jose","State":"CA","Zip":"95121"},{"Location":"SIZZLER 425","Address":"2910 Aborn Square Rd","City":"San Jose","State":"CA","Zip":"95121"},{"Location":"TARGET T2238","Address":"3155 Silver Creek Rd","City":"San Jose","State":"CA","Zip":"95121"},{"Location":"THE BOILING CRAB","Address":"1631 E Capitol Expy 101","City":"San Jose","State":"CA","Zip":"95121"},{"Location":"THE DENTAL PLACE","Address":"3005 Silver Creek Rd 146","City":"San Jose","State":"CA","Zip":"95121"},{"Location":"Tuong Vi","Address":"2485 Alvin Ave","City":"San Jose","State":"CA","Zip":"95121"},{"Location":"TUONG VI CAFE","Address":"2485 Alvin Ave","City":"San Jose","State":"CA","Zip":"95121"}]