[{"Location":"ALL AMERICAN FITNESS INC","Address":"1223 The Alameda","City":"San Jose","State":"CA","Zip":"95126"},{"Location":"CALIFORNIA SPORTS CENTER","Address":"336 Race St","City":"San Jose","State":"CA","Zip":"95126"},{"Location":"CENTRAL YMCA","Address":"1717 The Alameda","City":"San Jose","State":"CA","Zip":"95126"},{"Location":"DEL MUTOLO AND RUIZ","Address":"1499 W San Carlos St","City":"San Jose","State":"CA","Zip":"95126"},{"Location":"ECHELON","Address":"550 Meridian Ave","City":"San Jose","State":"CA","Zip":"95126"},{"Location":"EXTREME MARTIAL ARTS","Address":"1080 Elm St","City":"San Jose","State":"CA","Zip":"95126"},{"Location":"FIRESTONE #240722","Address":"1033 The Alameda","City":"San Jose","State":"CA","Zip":"95126"},{"Location":"FONTANETTI ATHLETIC","Address":"1065 The Alameda","City":"San Jose","State":"CA","Zip":"95126"},{"Location":"GLOBAL WEALTH PARTNERS","Address":"1764 The Alameda","City":"San Jose","State":"CA","Zip":"95126"},{"Location":"GRAND PRIX GLASS INC","Address":"730 The Alameda","City":"San Jose","State":"CA","Zip":"95126"},{"Location":"GULL INDUSTRIES","Address":"859 Savaker Ave","City":"San Jose","State":"CA","Zip":"95126"},{"Location":"H AND Q","Address":"630 Auzerais Ave","City":"San Jose","State":"CA","Zip":"95126"},{"Location":"HAVANA CUBA","Address":"238 Race St","City":"San Jose","State":"CA","Zip":"95126"},{"Location":"KC BAR","Address":"1070 Leigh Ave","City":"San Jose","State":"CA","Zip":"95126"},{"Location":"LUX BUS AMERICA2","Address":"560 Lincon Ave","City":"San Jose","State":"CA","Zip":"95126"},{"Location":"MICHAEL AND COMPANY","Address":"380 Lincoln Ave","City":"San Jose","State":"CA","Zip":"95126"},{"Location":"MOMENTUM FOR MENTAL HEALTH","Address":"2001 The Alameda","City":"San Jose","State":"CA","Zip":"95126"},{"Location":"MOMENTUM FOR MENTAL HEALTH","Address":"945 W Julian St","City":"San Jose","State":"CA","Zip":"95126"},{"Location":"NATIONAL ELECTRICAL","Address":"1493 Park Ave","City":"San Jose","State":"CA","Zip":"95126"},{"Location":"OPA RESTAURANT","Address":"280 E Campbell Ave","City":"San Jose","State":"CA","Zip":"95126"},{"Location":"PACIFIC GAS AND ELECTRIC","Address":"308 Stockton Ave","City":"San Jose","State":"CA","Zip":"95126"},{"Location":"PACIFIC GAS AND ELECTRIC 124","Address":"308 Stockton Ave","City":"San Jose","State":"CA","Zip":"95126"},{"Location":"PACIFIC GAS ELECTRIC","Address":"308 Stockton Ave D","City":"San Jose","State":"CA","Zip":"95126"},{"Location":"PARADISE ART & GARDEN","Address":"1490 Park Ave","City":"San Jose","State":"CA","Zip":"95126"},{"Location":"PLANNED PARENTHOOD","Address":"1691 The Alameda","City":"San Jose","State":"CA","Zip":"95126"},{"Location":"ROSE GARDEN DIALYSIS PART 1","Address":"999 W Taylor St","City":"San Jose","State":"CA","Zip":"95126"},{"Location":"SALVATION ARMY ARC","Address":"706 W Taylor St","City":"San Jose","State":"CA","Zip":"95126"},{"Location":"SHORE MANAGEMENT DEVELOPMENT","Address":"834 Lenzen Ave","City":"San Jose","State":"CA","Zip":"95126"},{"Location":"SUMMIT UNIFORMS","Address":"545 Meridian Ave A","City":"San Jose","State":"CA","Zip":"95126"},{"Location":"THE ARAMARK","Address":"855 Mckendrie St","City":"San Jose","State":"CA","Zip":"95126"},{"Location":"TONY PS PARK AVE BAR","Address":"956 Park Ave","City":"San Jose","State":"CA","Zip":"95126"},{"Location":"VALLEY OAK PARTNERS","Address":"734 The Alameda","City":"San Jose","State":"CA","Zip":"95126"},{"Location":"VERTEX APPLIANCES","Address":"851 W San Carlos St","City":"San Jose","State":"CA","Zip":"95126"},{"Location":"WILLOW DEN","Address":"803 Lincoln Ave","City":"San Jose","State":"CA","Zip":"95126"},{"Location":"WINE AFFAIRS","Address":"1435 The Alameda","City":"San Jose","State":"CA","Zip":"95126"},{"Location":"YOUNG LIFE CAPERNAUM","Address":"1123 Hanchett Ave","City":"San Jose","State":"CA","Zip":"95126"}]