[{"Location":"WELLS FARGO BANK","Address":"6843 Mission Blvd","City":"San Francisco","State":"CA","Zip":"95123"},{"Location":"A PLUS BARBER","Address":"6037 Snell Ave","City":"San Jose","State":"CA","Zip":"95123"},{"Location":"ABYSS VAPOR SOLUTIONS INC","Address":"5406 Thornwood Dr","City":"San Jose","State":"CA","Zip":"95123"},{"Location":"ACTIVE SPORTS CLUBS","Address":"5434 Thornwood Dr","City":"San Jose","State":"CA","Zip":"95123"},{"Location":"AMF OAKRIDGE LANES #0580","Address":"5420 Thornwood Dr","City":"San Jose","State":"CA","Zip":"95123"},{"Location":"AQUI RESTAURANT","Address":"5679 Snell Ave","City":"San Jose","State":"CA","Zip":"95123"},{"Location":"ARIAKE SUSHI","Address":"1008 Blossom Hill Rd","City":"San Jose","State":"CA","Zip":"95123"},{"Location":"ARMADILLO WILLY'S","Address":"878 Blossom Hill Rd","City":"San Jose","State":"CA","Zip":"95123"},{"Location":"BJS RESTAURANT #429","Address":"925 Blossom Hill Rd 1535","City":"San Jose","State":"CA","Zip":"95123"},{"Location":"BOSTON MARKET","Address":"880 Blossom Hill Rd","City":"San Jose","State":"CA","Zip":"95123"},{"Location":"BUCA DI BEPPO #528","Address":"925 Blossom Hill Rd","City":"San Jose","State":"CA","Zip":"95123"},{"Location":"BUFFALO WILD WINGS #0423","Address":"859 Blossom Hill Rd","City":"San Jose","State":"CA","Zip":"95123"},{"Location":"BURGER KING 1932","Address":"836 Blossom Hill Rd","City":"San Jose","State":"CA","Zip":"95123"},{"Location":"CASA TERESA","Address":"6039 Snell Ave","City":"San Jose","State":"CA","Zip":"95123"},{"Location":"CHINA DELIGHT","Address":"5813 Cottle Rd","City":"San Jose","State":"CA","Zip":"95123"},{"Location":"DASH NAIL SPA","Address":"1008 Blossom Hill Rd","City":"San Jose","State":"CA","Zip":"95123"},{"Location":"DENTAL CONNECTION","Address":"5710 Cahalan Ave 4","City":"San Jose","State":"CA","Zip":"95123"},{"Location":"ESDL DE LEON DDS INC","Address":"5595 Winfield Blvd 104","City":"San Jose","State":"CA","Zip":"95123"},{"Location":"FANZZ #13","Address":"925 Blossom Hill Rd 1468","City":"San Jose","State":"CA","Zip":"95123"},{"Location":"FIRESTONE #117684","Address":"5759 Winfield Blvd","City":"San Jose","State":"CA","Zip":"95123"},{"Location":"FUSION BUFFETT","Address":"1051 Blossom Hill Rd","City":"San Jose","State":"CA","Zip":"95123"},{"Location":"HONG KONG GARDEN RESTAUR","Address":"5665 Snell Ave","City":"San Jose","State":"CA","Zip":"95123"},{"Location":"JEFF SHOLER DDS","Address":"5595 Winfield Blvd 112","City":"San Jose","State":"CA","Zip":"95123"},{"Location":"JR ROBERTS DEACON INC","Address":"5642 Wells Ct","City":"San Jose","State":"CA","Zip":"95123"},{"Location":"JUST TIRES 9246","Address":"995 Blossom Hill Rd","City":"San Jose","State":"CA","Zip":"95123"},{"Location":"KENZO SUSHI","Address":"5465 Snell Ave","City":"San Jose","State":"CA","Zip":"95123"},{"Location":"KOHL'S #983","Address":"890 Blossom Hill Rd","City":"San Jose","State":"CA","Zip":"95123"},{"Location":"LINAS HAIR SALON","Address":"445 Blossom Hill Rd G","City":"San Jose","State":"CA","Zip":"95123"},{"Location":"M.C. LLC STORE 2345","Address":"884 Blossom Hill Rd","City":"San Jose","State":"CA","Zip":"95123"},{"Location":"MACY'S WEST 360","Address":"5411 Thornwood Dr","City":"San Jose","State":"CA","Zip":"95123"},{"Location":"MARIE CALLENDAR'S #53","Address":"620 Blossom Hill Rd","City":"San Jose","State":"CA","Zip":"95123"},{"Location":"MIKE'S LIQUORS OFFICE","Address":"6027 Snell Ave","City":"San Jose","State":"CA","Zip":"95123"},{"Location":"MOJO BURGERS","Address":"6041 Snell Ave","City":"San Jose","State":"CA","Zip":"95123"},{"Location":"MOUNTAIN MIKES PIZZA","Address":"431 Blossom Hill Rd","City":"San Jose","State":"CA","Zip":"95123"},{"Location":"MOUNTAIN MIKES PIZZA","Address":"6191 Santa Teresa Blvd","City":"San Jose","State":"CA","Zip":"95123"},{"Location":"PEARL RIVER","Address":"414 Blossom Hill Rd","City":"San Jose","State":"CA","Zip":"95123"},{"Location":"PF CHANG'S #9985","Address":"925 Blossom Hill Rd 1515","City":"San Jose","State":"CA","Zip":"95123"},{"Location":"PHA LE NAILS","Address":"874b Blossom Hill Rd","City":"San Jose","State":"CA","Zip":"95123"},{"Location":"PHO LA","Address":"6055 Snell Ave","City":"San Jose","State":"CA","Zip":"95123"},{"Location":"PIZZA HUT- SAN JOSE","Address":"5475 Snell Ave","City":"San Jose","State":"CA","Zip":"95123"},{"Location":"PLAN PARENTHOOD MAR","Address":"5440 Thornwood Dr G","City":"San Jose","State":"CA","Zip":"95123"},{"Location":"Q'S PLACE","Address":"6075 Cahalan Ave","City":"San Jose","State":"CA","Zip":"95123"},{"Location":"QUALITY TUNE UP","Address":"448 Blossom Hill Rd","City":"San Jose","State":"CA","Zip":"95123"},{"Location":"ROUND TABLE","Address":"5440 Thornwood Dr","City":"San Jose","State":"CA","Zip":"95123"},{"Location":"ROUND TABLE PIZZA","Address":"5885 Sana Teresa Blvd","City":"San Jose","State":"CA","Zip":"95123"},{"Location":"RUBY FITNESS LLC","Address":"868 Blossom Hill Rd","City":"San Jose","State":"CA","Zip":"95123"},{"Location":"SATELLITE DIALYSIS SSJ","Address":"393 Blossom Hill Rd 110","City":"San Jose","State":"CA","Zip":"95123"},{"Location":"SEARS AUTO CENTER","Address":"877 Blossom Hill Rd","City":"San Jose","State":"CA","Zip":"95123"},{"Location":"SOLICE S L","Address":"6244 Sager Way","City":"San Jose","State":"CA","Zip":"95123"},{"Location":"SOUTH VALLEY YMCA","Address":"5632 Santa Teresa Blvd","City":"San Jose","State":"CA","Zip":"95123"},{"Location":"SPORTS FEVER","Address":"925 Blossom Hill Rd 1048","City":"San Jose","State":"CA","Zip":"95123"},{"Location":"SUPER CUTS","Address":"5440 Thornwood Dr B","City":"San Jose","State":"CA","Zip":"95123"},{"Location":"SUPER EGGROLL","Address":"445 Blossom Hill Rd","City":"San Jose","State":"CA","Zip":"95123"},{"Location":"SUPERCUTS","Address":"5638 Cottle Rd 20","City":"San Jose","State":"CA","Zip":"95123"},{"Location":"SUPERCUTS #9762","Address":"5440 Thornwood Dr","City":"San Jose","State":"CA","Zip":"95123"},{"Location":"SUSHI OKAWA","Address":"5657 Snell Ave","City":"San Jose","State":"CA","Zip":"95123"},{"Location":"SUTHERLAND TAX SERVICE","Address":"670 Blossom Hill Rd","City":"San Jose","State":"CA","Zip":"95123"},{"Location":"TAPIOCA ISLAND","Address":"5815 Cottle Rd","City":"San Jose","State":"CA","Zip":"95123"},{"Location":"TARGET CORPORATION","Address":"5630 Cottle Rd","City":"San Jose","State":"CA","Zip":"95123"},{"Location":"TARGET CORPORATION","Address":"879 Blossom Hill Rd","City":"San Jose","State":"CA","Zip":"95123"},{"Location":"TAURIAN BA LLC #1083","Address":"1011 Blossom Hill Rd","City":"San Jose","State":"CA","Zip":"95123"},{"Location":"THE CHEESECAKE FACTORY 0073","Address":"928 Blossom Hill Rd 1717a","City":"San Jose","State":"CA","Zip":"95123"},{"Location":"THE FISH MARKET RESTAURANT","Address":"1007 Blossom Hill Rd","City":"San Jose","State":"CA","Zip":"95123"},{"Location":"THE GOLF CLUB AT BOULDER RIDGE","Address":"1000 Old Quarry Rd","City":"San Jose","State":"CA","Zip":"95123"},{"Location":"THE RAIDERS IMAGE #919","Address":"925 Blossom Hill Rd 1505","City":"San Jose","State":"CA","Zip":"95123"},{"Location":"TOMO SUSHI","Address":"5487 Snell Ave","City":"San Jose","State":"CA","Zip":"95123"},{"Location":"UNO MAS","Address":"856 Blossom Hill Rd","City":"San Jose","State":"CA","Zip":"95123"},{"Location":"WINGSTOP 801","Address":"5730 Cottle Rd","City":"San Jose","State":"CA","Zip":"95123"}]