[{"Location":"168 CAFE","Address":"950 Story Road","City":"San Jose","State":"CA","Zip":"95122"},{"Location":"BANH CUON BAC NINH","Address":"2066 Tully Rd","City":"San Jose","State":"CA","Zip":"95122"},{"Location":"BESHOFF INFINITY","Address":"2198 Tully Rd","City":"San Jose","State":"CA","Zip":"95122"},{"Location":"BIG TS SEAFOOD MARKET BAR","Address":"1694 Tully Rd B","City":"San Jose","State":"CA","Zip":"95122"},{"Location":"BINH DAN RESTAURANT","Address":"1130 Lucretia Ave D","City":"San Jose","State":"CA","Zip":"95122"},{"Location":"BINH MINH","Address":"999 Story Rd 9048","City":"San Jose","State":"CA","Zip":"95122"},{"Location":"BON MUA RESTAURANT","Address":"1937 Tully Rd C","City":"San Jose","State":"CA","Zip":"95122"},{"Location":"BRAVO HOUSE OF ENCHILADAS","Address":"1075 Tully Rd","City":"San Jose","State":"CA","Zip":"95122"},{"Location":"CHEO LEO CAFE & DELI II","Address":"1692 Tully Rd 1","City":"San Jose","State":"CA","Zip":"95122"},{"Location":"CHILDREN DENTAL GROUP SAN JOSE","Address":"1153 S King Rd","City":"San Jose","State":"CA","Zip":"95122"},{"Location":"CHILI'S #1187","Address":"2185 Eastridge Loop","City":"San Jose","State":"CA","Zip":"95122"},{"Location":"CHOT NHO CAFE","Address":"1040 Mclaughlin Ave","City":"San Jose","State":"CA","Zip":"95122"},{"Location":"CRAWDADDY","Address":"779 Story Rd%2C Ste. #10","City":"San Jose","State":"CA","Zip":"95122"},{"Location":"CRAWDADDY","Address":"779 Story Rd","City":"San Jose","State":"CA","Zip":"95122"},{"Location":"DA THAO CAFE","Address":"888 Story Rd","City":"San Jose","State":"CA","Zip":"95122"},{"Location":"DAVITA #5435 TULLY RD","Address":"1290 Tully Rd 80","City":"San Jose","State":"CA","Zip":"95122"},{"Location":"DOLCE ESPRESSO","Address":"2078 Tully Rd","City":"San Jose","State":"CA","Zip":"95122"},{"Location":"EL POLLO LOCO","Address":"1701 Story Rd","City":"San Jose","State":"CA","Zip":"95122"},{"Location":"EM QUYEN CAFE","Address":"1998 Tully Rd 20","City":"San Jose","State":"CA","Zip":"95122"},{"Location":"FIRESTONE #022845","Address":"1895 Tully Rd","City":"San Jose","State":"CA","Zip":"95122"},{"Location":"FIRESTONE #117706","Address":"2955 S King Rd","City":"San Jose","State":"CA","Zip":"95122"},{"Location":"FIRESTONE #241420","Address":"1905 Tully Rd","City":"San Jose","State":"CA","Zip":"95122"},{"Location":"FOREVER CUTS BEAUTY SALO","Address":"1020 Story Rd A","City":"San Jose","State":"CA","Zip":"95122"},{"Location":"GOT HONG COFFEE HOUSE","Address":"1694 Tully Rd 10","City":"San Jose","State":"CA","Zip":"95122"},{"Location":"GOVEAS RESTAURANT","Address":"1996 Tully Rd","City":"San Jose","State":"CA","Zip":"95122"},{"Location":"HAIR SALON","Address":"2200 Eastridge Loop 1107","City":"San Jose","State":"CA","Zip":"95122"},{"Location":"HELEN HAIR DESIGN","Address":"1111 Story Rd 1096","City":"San Jose","State":"CA","Zip":"95122"},{"Location":"HV HAIR AND NAILS","Address":"2435 S King Rd 50","City":"San Jose","State":"CA","Zip":"95122"},{"Location":"JENNINGS TECHNOLOGY","Address":"970 Mclaughlin Ave","City":"San Jose","State":"CA","Zip":"95122"},{"Location":"KHAI TOAN JEWELRY","Address":"1111 Story Rd 1073","City":"San Jose","State":"CA","Zip":"95122"},{"Location":"LEES SANDWICHES","Address":"990 Story Rd 30","City":"San Jose","State":"CA","Zip":"95122"},{"Location":"LEGACY TRANSPORTATION","Address":"935 Mclaughlin Ave","City":"San Jose","State":"CA","Zip":"95122"},{"Location":"LOT THO LLC","Address":"2108 Story Rd","City":"San Jose","State":"CA","Zip":"95122"},{"Location":"MACY'S WEST 362","Address":"2210 Tully Rd","City":"San Jose","State":"CA","Zip":"95122"},{"Location":"MCDONALDS","Address":"1935 Tully Rd","City":"San Jose","State":"CA","Zip":"95122"},{"Location":"MEX AMERICA INSURANCE SE","Address":"2003 Story Rd 500","City":"San Jose","State":"CA","Zip":"95122"},{"Location":"MILOS COLLECTIBLES","Address":"2200 Eastridge Loop 1408","City":"San Jose","State":"CA","Zip":"95122"},{"Location":"NGUYEN ESPRESSO","Address":"1657 Tully Rd 1a","City":"San Jose","State":"CA","Zip":"95122"},{"Location":"NUOC MIA BACH DANG","Address":"1818 Tully Rd","City":"San Jose","State":"CA","Zip":"95122"},{"Location":"OLIVE GARDEN #4468","Address":"2226 Eastridge Loop","City":"San Jose","State":"CA","Zip":"95122"},{"Location":"PHO HA","Address":"951 Mclaughlin Ave","City":"San Jose","State":"CA","Zip":"95122"},{"Location":"PHO HOA NOODLE SOUP","Address":"1834 Tully Rd","City":"San Jose","State":"CA","Zip":"95122"},{"Location":"PHO HUONG","Address":"1954 Tully Rd","City":"San Jose","State":"CA","Zip":"95122"},{"Location":"PINOY LECHON BBQ","Address":"2011 Tully Rd","City":"San Jose","State":"CA","Zip":"95122"},{"Location":"PRECISION CUTZ","Address":"1780 Story Rd 20","City":"San Jose","State":"CA","Zip":"95122"},{"Location":"QUYEN CAFE","Address":"1692 Tully Rd 5","City":"San Jose","State":"CA","Zip":"95122"},{"Location":"RED ROBIN #194","Address":"2200 Eastridge Loop A18","City":"San Jose","State":"CA","Zip":"95122"},{"Location":"TACOS AL CARBON","Address":"1733 Story Rd","City":"San Jose","State":"CA","Zip":"95122"},{"Location":"THE VAPE CAFE","Address":"2050 Tully Rd","City":"San Jose","State":"CA","Zip":"95122"},{"Location":"THOA CAFE","Address":"950 Story Rd","City":"San Jose","State":"CA","Zip":"95122"},{"Location":"THUY EM CAFE","Address":"1054 Story Rd","City":"San Jose","State":"CA","Zip":"95122"},{"Location":"WASH AMERICA","Address":"2148 Story Rd 1","City":"San Jose","State":"CA","Zip":"95122"},{"Location":"WAVE CAFE","Address":"1969 Tully Rd 10","City":"San Jose","State":"CA","Zip":"95122"},{"Location":"XINH XINH RESTAURANT & CAFE","Address":"1075 Tully Rd","City":"San Jose","State":"CA","Zip":"95122"}]