[{"Location":"AMARIN THAI CUISINE","Address":"5205 Prospect Rd 110","City":"San Jose","State":"CA","Zip":"95129"},{"Location":"AMBERWOOD GARDENS","Address":"1601 Petersen Ave","City":"San Jose","State":"CA","Zip":"95129"},{"Location":"APPLEBEE'S SARATOGA AVE","Address":"555 Saratoga Ave","City":"San Jose","State":"CA","Zip":"95129"},{"Location":"ARIAKE JAPANESE","Address":"5190 Stevens Creek Blvd D","City":"San Jose","State":"CA","Zip":"95129"},{"Location":"AUTO NATION VOLVO","Address":"4600 Stevens Creek Blvd","City":"San Jose","State":"CA","Zip":"95129"},{"Location":"BETTER HEALTH CLINIC","Address":"1072 S De Anza Blvd A108","City":"San Jose","State":"CA","Zip":"95129"},{"Location":"BRITANNIA ARMS","Address":"1087 S De Anza Blvd","City":"San Jose","State":"CA","Zip":"95129"},{"Location":"BUFFALO WILD WINGS #0334","Address":"1620 Saratoga Ave","City":"San Jose","State":"CA","Zip":"95129"},{"Location":"CALI WELLNES","Address":"5043 Graves Ave E","City":"San Jose","State":"CA","Zip":"95129"},{"Location":"CHEVY'S 2456","Address":"1502 Saratoga Ave","City":"San Jose","State":"CA","Zip":"95129"},{"Location":"CICERO'S PIZZA","Address":"6138 Bollinger Rd","City":"San Jose","State":"CA","Zip":"95129"},{"Location":"DAVITA #2477 SAN JOSE","Address":"4400 Stevens Creek Blvd 2477","City":"San Jose","State":"CA","Zip":"95129"},{"Location":"DENNYS 3","Address":"910 Saratoga Ave","City":"San Jose","State":"CA","Zip":"95129"},{"Location":"DICKEYS SAN JOSE","Address":"5391 Prospect Rd","City":"San Jose","State":"CA","Zip":"95129"},{"Location":"FINAL SCORE SPORTS BAR","Address":"1126 Saratoga Ave","City":"San Jose","State":"CA","Zip":"95129"},{"Location":"FIRESTONE #119407","Address":"350 Kiely Blvd","City":"San Jose","State":"CA","Zip":"95129"},{"Location":"FISHS WILD","Address":"1554 Saratoga Ave 405","City":"San Jose","State":"CA","Zip":"95129"},{"Location":"FLYING FOX ENTERTAINMENT","Address":"360 Saratoga Ave","City":"San Jose","State":"CA","Zip":"95129"},{"Location":"GOLFSMITH #045","Address":"4070 Stevens Creek Blvd","City":"San Jose","State":"CA","Zip":"95129"},{"Location":"HARKER SCHOOL","Address":"500 Saratoga Ave","City":"San Jose","State":"CA","Zip":"95129"},{"Location":"HARRYS HOFBRAU","Address":"390 Saratoga Ave","City":"San Jose","State":"CA","Zip":"95129"},{"Location":"HOLDERS COUNTRY INN","Address":"1424 Saratoga Ave","City":"San Jose","State":"CA","Zip":"95129"},{"Location":"JAGUAR LAND ROVER SAN JOSE","Address":"4040 Stevens Creek Blvd","City":"San Jose","State":"CA","Zip":"95129"},{"Location":"JOE GRASSO ELITE TRAINING","Address":"5156 Stevens Creek Blvd","City":"San Jose","State":"CA","Zip":"95129"},{"Location":"LE PAPILLON","Address":"410 Saratoga Ave","City":"San Jose","State":"CA","Zip":"95129"},{"Location":"LOS DOS COMPADRES2","Address":"1652 S De Anza Blvd","City":"San Jose","State":"CA","Zip":"95129"},{"Location":"MEN'S WEARHOUSE #2179","Address":"1640 Saratoga Ave","City":"San Jose","State":"CA","Zip":"95129"},{"Location":"MOORPARK HOTEL","Address":"4241 Moorpark Ave","City":"San Jose","State":"CA","Zip":"95129"},{"Location":"NIKE FACTORY STORE","Address":"1600 Saratoga Ave 213","City":"San Jose","State":"CA","Zip":"95129"},{"Location":"PARK LOUNGE","Address":"5152 Moorpark Ave","City":"San Jose","State":"CA","Zip":"95129"},{"Location":"PHO HOA NOODLE SOUP","Address":"1089 S De Anza Blvd","City":"San Jose","State":"CA","Zip":"95129"},{"Location":"PIZZA EXPRESS","Address":"1290 S Baskin Ave B","City":"San Jose","State":"CA","Zip":"95129"},{"Location":"REDI ROOM","Address":"4340 Moorpark Ave","City":"San Jose","State":"CA","Zip":"95129"},{"Location":"ROUND TABLE PIZZA","Address":"4400 Stevens Creek Blvd","City":"San Jose","State":"CA","Zip":"95129"},{"Location":"SILICON VALLEY VAPORS","Address":"1122 Saratoga Ave","City":"San Jose","State":"CA","Zip":"95129"},{"Location":"SPORTS AUTHORITY 718","Address":"5170 Stevens Creek Blvd","City":"San Jose","State":"CA","Zip":"95129"},{"Location":"STEVENS CREEK CJD","Address":"4100 Stevens Creek Blvd","City":"San Jose","State":"CA","Zip":"95129"},{"Location":"STEVENS CREEK TOYOTA","Address":"4202 Stevens Creek Blvd","City":"San Jose","State":"CA","Zip":"95129"},{"Location":"THE GLORIAS TAQUERIA","Address":"469 Saratoga Ave","City":"San Jose","State":"CA","Zip":"95129"},{"Location":"THE WINE WRACK","Address":"6136 Bollinger Rd","City":"San Jose","State":"CA","Zip":"95129"},{"Location":"TOGOS","Address":"403 Saratoga Ave","City":"San Jose","State":"CA","Zip":"95129"},{"Location":"TONY ROMA'S","Address":"4233 Moorpark Ave","City":"San Jose","State":"CA","Zip":"95129"},{"Location":"WILLOW STREET PIZZA","Address":"1554 Saratoga Ave","City":"San Jose","State":"CA","Zip":"95129"},{"Location":"WONDERFUL CHINESE GOURMET","Address":"1600 S De Anza Blvd 20","City":"San Jose","State":"CA","Zip":"95129"}]