[{"Location":"24 HOUR FITNESS #504","Address":"1845 Hillsdale Ave","City":"San Jose","State":"CA","Zip":"95124"},{"Location":"7 ELEVEN","Address":"1674 Foxworthy Ave","City":"San Jose","State":"CA","Zip":"95124"},{"Location":"ADELITAS TAQUERIA","Address":"1896 Curtner Ave","City":"San Jose","State":"CA","Zip":"95124"},{"Location":"ALMADEN HEALTH & REHAB","Address":"2065 Los Gatos Almaden Rd","City":"San Jose","State":"CA","Zip":"95124"},{"Location":"ALMADEN VALLEY ATH.CLUB CE2","Address":"5400 Camden Ave","City":"San Jose","State":"CA","Zip":"95124"},{"Location":"ANNAS HAIR TODAY","Address":"2709 Union Ave","City":"San Jose","State":"CA","Zip":"95124"},{"Location":"BEST PURIFIED WATER","Address":"1781 Hillsdale Ave","City":"San Jose","State":"CA","Zip":"95124"},{"Location":"CADS INC.","Address":"2177 Foxworthy Ave","City":"San Jose","State":"CA","Zip":"95124"},{"Location":"CALIFORNIA NAILS LLC","Address":"1814 Hillsdale Ave","City":"San Jose","State":"CA","Zip":"95124"},{"Location":"CAMBRIAN BOWL INC","Address":"14900 Camden Ave","City":"San Jose","State":"CA","Zip":"95124"},{"Location":"CLASSIC CUTS","Address":"5739 Camden Ave","City":"San Jose","State":"CA","Zip":"95124"},{"Location":"COMMUNITY CENTER OF SAN JOSE","Address":"3369 Union Ave","City":"San Jose","State":"CA","Zip":"95124"},{"Location":"CSR REAL ESTATE SERVICES","Address":"5330 Camden Ave","City":"San Jose","State":"CA","Zip":"95124"},{"Location":"DR.MARK WATSON","Address":"2505 Samaritan Dr 610","City":"San Jose","State":"CA","Zip":"95124"},{"Location":"ESCAPE BAR & GRILL","Address":"2942 S Bascom Ave","City":"San Jose","State":"CA","Zip":"95124"},{"Location":"FITNESS EVOLUTION MERIDI","Address":"3055 Meridian Ave","City":"San Jose","State":"CA","Zip":"95124"},{"Location":"FRIENDS SALON","Address":"2590 S Bascom Ave C","City":"San Jose","State":"CA","Zip":"95124"},{"Location":"GOOD SAMARITAN HOSPITAL","Address":"2425 Samaritan Dr","City":"San Jose","State":"CA","Zip":"95124"},{"Location":"GYROS BURGERS AND MORE","Address":"2638 Union Ave","City":"San Jose","State":"CA","Zip":"95124"},{"Location":"HACIENDA BARBERS","Address":"4630 Meridian Ave","City":"San Jose","State":"CA","Zip":"95124"},{"Location":"HOOKAH CASTLE","Address":"1920 Camden Ave","City":"San Jose","State":"CA","Zip":"95124"},{"Location":"HOUSE OF CHU","Address":"5365 Camden Ave","City":"San Jose","State":"CA","Zip":"95124"},{"Location":"LG BEACH BUMS LLC","Address":"2081 Camden Ave","City":"San Jose","State":"CA","Zip":"95124"},{"Location":"MALIBU GRILL","Address":"5735 Camden Ave","City":"San Jose","State":"CA","Zip":"95124"},{"Location":"MAYAS CAFE","Address":"2612 Union Ave C","City":"San Jose","State":"CA","Zip":"95124"},{"Location":"MIKES PLACE","Address":"5837 Camden Ave","City":"San Jose","State":"CA","Zip":"95124"},{"Location":"MY HAPPY KITCHEN","Address":"3617 Union Avenue","City":"San Jose","State":"CA","Zip":"95124"},{"Location":"PREMIUM PIZZA","Address":"1773 Hillsvale Ave","City":"San Jose","State":"CA","Zip":"95124"},{"Location":"ROUND TABLE PIZZA","Address":"14940 Camden Ave","City":"San Jose","State":"CA","Zip":"95124"},{"Location":"RUBY FITNESS LLC","Address":"1661 Foxworthy Ave","City":"San Jose","State":"CA","Zip":"95124"},{"Location":"SAN JOSE EAR AND SINUS","Address":"2577 Samaritan Dr 845","City":"San Jose","State":"CA","Zip":"95124"},{"Location":"SHIMA","Address":"2041 Camden Ave","City":"San Jose","State":"CA","Zip":"95124"},{"Location":"SILICON VALLEY BUSINESS CENTER","Address":"1900 Camden Ave","City":"San Jose","State":"CA","Zip":"95124"},{"Location":"SILICON VALLEY PROPERTY","Address":"1900 Camden Ave","City":"San Jose","State":"CA","Zip":"95124"},{"Location":"SOCCER CITY","Address":"4640 Meridian Ave","City":"San Jose","State":"CA","Zip":"95124"},{"Location":"STEVIES BAR & GRILL","Address":"2705 Union Ave","City":"San Jose","State":"CA","Zip":"95124"},{"Location":"STRAWBERRY NAILS","Address":"3009 Meridian Ave","City":"San Jose","State":"CA","Zip":"95124"},{"Location":"SUSHI FACTORY","Address":"4632 Meridian Ave","City":"San Jose","State":"CA","Zip":"95124"},{"Location":"TARGET","Address":"1811 Hillsdale Ave","City":"San Jose","State":"CA","Zip":"95124"},{"Location":"THE JUNGLE ISLAND","Address":"5401 Camden Ave","City":"San Jose","State":"CA","Zip":"95124"},{"Location":"WILLOW GLEN PIZZA FACTOR","Address":"3039 Meridian Ave","City":"San Jose","State":"CA","Zip":"95124"},{"Location":"XILINX","Address":"2100 Logic Dr","City":"San Jose","State":"CA","Zip":"95124"},{"Location":"XILINX  INC","Address":"2000 Logic Dr","City":"San Jose","State":"CA","Zip":"95124"},{"Location":"XILINX INC","Address":"2000 Logic Dr","City":"San Jose","State":"CA","Zip":"95124"},{"Location":"XILINX INC","Address":"2100 Logic Dr","City":"San Jose","State":"CA","Zip":"95124"}]