[{"Location":"24 HOUR FITNESS #810","Address":"2306 Almaden Rd 140","City":"San Jose","State":"CA","Zip":"95125"},{"Location":"ABUELO TAQUERIA","Address":"1005 Lincoln Ave","City":"San Jose","State":"CA","Zip":"95125"},{"Location":"AGAINST THE GRAIN","Address":"1716 Stone Ave","City":"San Jose","State":"CA","Zip":"95125"},{"Location":"ALMADEN AUTO REPAIR","Address":"1680 Almaben Expresswa","City":"San Jose","State":"CA","Zip":"95125"},{"Location":"APPLEBEE'S CURTNER AVE","Address":"51 Curtner Ave","City":"San Jose","State":"CA","Zip":"95125"},{"Location":"AQUI RESTAURANT","Address":"1145 Lincoln Ave","City":"San Jose","State":"CA","Zip":"95125"},{"Location":"ARESEEN AUTO BODY INC","Address":"1655 Little Orchard St","City":"San Jose","State":"CA","Zip":"95125"},{"Location":"ARNONE'S RV RENTAL","Address":"1731 Parkside Ave","City":"San Jose","State":"CA","Zip":"95125"},{"Location":"BAY AREA     MORTUARY","Address":"1701 Little Orchard St","City":"San Jose","State":"CA","Zip":"95125"},{"Location":"BAY PACIFIC CARE MEDIMARTS","Address":"1851 Little Orchard St","City":"San Jose","State":"CA","Zip":"95125"},{"Location":"BLUE WATER SEAFOOD & CRAB","Address":"860 Willow St","City":"San Jose","State":"CA","Zip":"95125"},{"Location":"BOSTON MARKET","Address":"1554 S Bascom Ave","City":"San Jose","State":"CA","Zip":"95125"},{"Location":"BURNT RICE KOREAN RESTAURANT","Address":"121 Curtner Ave","City":"San Jose","State":"CA","Zip":"95125"},{"Location":"CASTILLO REPAIR LLC","Address":"1605 Almaden Rd","City":"San Jose","State":"CA","Zip":"95125"},{"Location":"CATHEDRAL OF FAITH","Address":"2315 Canoas Garden Ave","City":"San Jose","State":"CA","Zip":"95125"},{"Location":"CROSSLAND","Address":"1805 Little Orchard St 104","City":"San Jose","State":"CA","Zip":"95125"},{"Location":"CUTTING EDGE SOFTBALL","Address":"1844 Stone Ave","City":"San Jose","State":"CA","Zip":"95125"},{"Location":"DOUGLASS ROTH DDS","Address":"1688 Willow St","City":"San Jose","State":"CA","Zip":"95125"},{"Location":"DRY CREEK GRILL","Address":"1580 Hamilton Ave","City":"San Jose","State":"CA","Zip":"95125"},{"Location":"EBAY","Address":"1550 Bascom Ave","City":"San Jose","State":"CA","Zip":"95125"},{"Location":"EBAY  INC","Address":"2005 Hamilton Ave","City":"San Jose","State":"CA","Zip":"95125"},{"Location":"EBAY INC","Address":"2145 Hamilton Ave","City":"San Jose","State":"CA","Zip":"95125"},{"Location":"FAMOUS DAVE'S BBQ SAN JOSE3156","Address":"61 Curtner Ave","City":"San Jose","State":"CA","Zip":"95125"},{"Location":"FITNESS EVOLUTION","Address":"1570 Hamilton Ave","City":"San Jose","State":"CA","Zip":"95125"},{"Location":"FRATERNAL ORDER OF EAGLES","Address":"1036 Lincoln Ave","City":"San Jose","State":"CA","Zip":"95125"},{"Location":"GALANTE BROTHERS","Address":"291 Barnard Ave","City":"San Jose","State":"CA","Zip":"95125"},{"Location":"GE NUCLEAR ENERGY","Address":"1989 Little Orchard St","City":"San Jose","State":"CA","Zip":"95125"},{"Location":"GOOSETOWN LOUNGE","Address":"1072 Lincoln Ave","City":"San Jose","State":"CA","Zip":"95125"},{"Location":"GUNTHERS RESTAURANT","Address":"1601 Meridian Ave","City":"San Jose","State":"CA","Zip":"95125"},{"Location":"HAY MARKET","Address":"1185 Lincoln Ave","City":"San Jose","State":"CA","Zip":"95125"},{"Location":"IBEW LOCAL 332","Address":"2125 Candas Garden Ave 100","City":"San Jose","State":"CA","Zip":"95125"},{"Location":"JAKE'S WILLOW GLEN","Address":"1074 Lincoln Ave","City":"San Jose","State":"CA","Zip":"95125"},{"Location":"JOSEPH GEORGE","Address":"1559 Meridian Ave","City":"San Jose","State":"CA","Zip":"95125"},{"Location":"LUCKY NAIL AND SPA","Address":"1547 Minardi Ave","City":"San Jose","State":"CA","Zip":"95125"},{"Location":"MARMIST LOUNGE - ESPN-2","Address":"2306 Almaden Rd F","City":"San Jose","State":"CA","Zip":"95125"},{"Location":"MISSION SQUARE BARBERS","Address":"1463 Bird Ave","City":"San Jose","State":"CA","Zip":"95125"},{"Location":"MOJO BURGER 2","Address":"1411 Bird Ave","City":"San Jose","State":"CA","Zip":"95125"},{"Location":"MORIN TIRES","Address":"661 Willow St","City":"San Jose","State":"CA","Zip":"95125"},{"Location":"MOUNTAIN MIKES PIZZA","Address":"2306 Almaden Rd 170","City":"San Jose","State":"CA","Zip":"95125"},{"Location":"OPA RESTAURANT","Address":"1100 Lincoln Ave 100","City":"San Jose","State":"CA","Zip":"95125"},{"Location":"OPA2","Address":"1384 Lincoln Ave","City":"San Jose","State":"CA","Zip":"95125"},{"Location":"R F I ENTERPRISES","Address":"360 Turtle Creek Ct","City":"San Jose","State":"CA","Zip":"95125"},{"Location":"ROOKIES INC","Address":"1535 Meridian Ave","City":"San Jose","State":"CA","Zip":"95125"},{"Location":"ROUND TABLE PIZZA WILLOW","Address":"1175 Lincoln Ave","City":"San Jose","State":"CA","Zip":"95125"},{"Location":"S AND D MACHINING","Address":"1707 Little Orchard St D","City":"San Jose","State":"CA","Zip":"95125"},{"Location":"SAN JOSE HARLEY DAVIDSON","Address":"1716 Stone Ave","City":"San Jose","State":"CA","Zip":"95125"},{"Location":"SANTA CLARA COUNTY COMMUN.","Address":"2700 Carol Dr","City":"San Jose","State":"CA","Zip":"95125"},{"Location":"SCOTTRADE 54G","Address":"1 Curtner Ave 90","City":"San Jose","State":"CA","Zip":"95125"},{"Location":"SEA DRIFT INCORP","Address":"71 Curtner Ave","City":"San Jose","State":"CA","Zip":"95125"},{"Location":"SHERWOOD INN","Address":"2988 Almaden Expy","City":"San Jose","State":"CA","Zip":"95125"},{"Location":"SOUTH BAY MATERIALS","Address":"1781 Angela St","City":"San Jose","State":"CA","Zip":"95125"},{"Location":"TARGET","Address":"2161 Monterey Hwy","City":"San Jose","State":"CA","Zip":"95125"},{"Location":"TESTA AUTO BODY","Address":"419 Orto St","City":"San Jose","State":"CA","Zip":"95125"},{"Location":"THAI SPICE WILLOW GLEN","Address":"1102 Bird Ave","City":"San Jose","State":"CA","Zip":"95125"},{"Location":"THE GARDEN THEATRE","Address":"1165 Lincoln Ave 105","City":"San Jose","State":"CA","Zip":"95125"},{"Location":"TOMATO THYME","Address":"1560 Hamilton Ave","City":"San Jose","State":"CA","Zip":"95125"},{"Location":"WHICHWICH","Address":"91 Curtner Ave 20","City":"San Jose","State":"CA","Zip":"95125"},{"Location":"WILLOW STREET - WILLOW GLEN","Address":"1072 Willow St","City":"San Jose","State":"CA","Zip":"95125"}]