[{"Location":"24 HOUR FITNESS #544","Address":"1531 Parkmoor Ave","City":"San Jose","State":"CA","Zip":"95128"},{"Location":"41ST PARAMETER","Address":"355 Santana Row 2000","City":"San Jose","State":"CA","Zip":"95128"},{"Location":"7 STARS BAR & GRILL","Address":"398 S Bascom Ave A","City":"San Jose","State":"CA","Zip":"95128"},{"Location":"A GRACE SUBACUTE ANDSKILLED CA","Address":"1250 S Winchester Blvd","City":"San Jose","State":"CA","Zip":"95128"},{"Location":"ACTIVE SPORTS CLUBS %40SANTANA","Address":"3055 Olin Ave 3000","City":"San Jose","State":"CA","Zip":"95128"},{"Location":"AGRACE","Address":"1250 S Winchester Blvd 46","City":"San Jose","State":"CA","Zip":"95128"},{"Location":"ALEX'S 49ER INN","Address":"2214 Business Cir","City":"San Jose","State":"CA","Zip":"95128"},{"Location":"ANGIES PIZZA","Address":"1535 S Winchester Blvd","City":"San Jose","State":"CA","Zip":"95128"},{"Location":"BANK OF AMERICA CA3-512-01-03","Address":"560 S Winchester Blvd 100","City":"San Jose","State":"CA","Zip":"95128"},{"Location":"BASCOM BUSINESS INC","Address":"599 S Bascom Ave","City":"San Jose","State":"CA","Zip":"95128"},{"Location":"BEYOND BEAUTY BRAIDS","Address":"945 S Bascom Ave","City":"San Jose","State":"CA","Zip":"95128"},{"Location":"CHIANG & YOUNGBERG%2CLLP","Address":"2007 W Hedding St 209","City":"San Jose","State":"CA","Zip":"95128"},{"Location":"COM TAM THANH REST.","Address":"905 S Bascom Ave","City":"San Jose","State":"CA","Zip":"95128"},{"Location":"COURIER FINANCIAL CONSUL","Address":"1770 Hester Ave","City":"San Jose","State":"CA","Zip":"95128"},{"Location":"CPS","Address":"300 Santana Row 5flr","City":"San Jose","State":"CA","Zip":"95128"},{"Location":"CRESA PARTNERS","Address":"550 S Winchester Blvd 600","City":"San Jose","State":"CA","Zip":"95128"},{"Location":"CRESTWOOD CENTER","Address":"1425 Fruitdale Ave","City":"San Jose","State":"CA","Zip":"95128"},{"Location":"CUSHMAN & WAKEFIELD","Address":"560 S Winchester Blvd 200","City":"San Jose","State":"CA","Zip":"95128"},{"Location":"DAVITA #2276 CORNERHOUSE","Address":"2005 Naglee Ave","City":"San Jose","State":"CA","Zip":"95128"},{"Location":"DAVITA #5331 O'CONNOR","Address":"275 Di Salvo Ave","City":"San Jose","State":"CA","Zip":"95128"},{"Location":"DESTINATION XL 9705","Address":"319 S Winchester Blvd","City":"San Jose","State":"CA","Zip":"95128"},{"Location":"DOUG TAKEUCHI DDS","Address":"189 N Bascom Ave 110","City":"San Jose","State":"CA","Zip":"95128"},{"Location":"FEDERAL REALTY INVESTMEN","Address":"388 Santana Row","City":"San Jose","State":"CA","Zip":"95128"},{"Location":"FORMICO INSURANCE","Address":"2695 Moorpark Ave 201","City":"San Jose","State":"CA","Zip":"95128"},{"Location":"GOODYEAR 8766","Address":"486 N Winchester Blvd","City":"San Jose","State":"CA","Zip":"95128"},{"Location":"HERBS","Address":"1641 W San Carlos St","City":"San Jose","State":"CA","Zip":"95128"},{"Location":"JESSICA SMITH","Address":"790 S Winchester Blvd","City":"San Jose","State":"CA","Zip":"95128"},{"Location":"KENJI SUSHI 2","Address":"385 S Winchester Blvd","City":"San Jose","State":"CA","Zip":"95128"},{"Location":"LA BOXING 8","Address":"1323 S Winchester Blvd","City":"San Jose","State":"CA","Zip":"95128"},{"Location":"LLOYD FLUMIANI LLC 1","Address":"1224 S Bascom Ave A","City":"San Jose","State":"CA","Zip":"95128"},{"Location":"LUCY LAUNDRY","Address":"820 S Winchester Blvd 120","City":"San Jose","State":"CA","Zip":"95128"},{"Location":"MAGGIANO'S #0183","Address":"3055 Olin Ave 1000","City":"San Jose","State":"CA","Zip":"95128"},{"Location":"MAMA BABY OBGYN","Address":"455 O Conner Dr 390","City":"San Jose","State":"CA","Zip":"95128"},{"Location":"MIZU JAPANESE RESTAURANT","Address":"1035 S Winchester Blvd","City":"San Jose","State":"CA","Zip":"95128"},{"Location":"NORDSTROM - BAZILLE","Address":"2400 Forest Ave","City":"San Jose","State":"CA","Zip":"95128"},{"Location":"NORDSTROM - VALLEY FAIR","Address":"2400 Forest Ave","City":"San Jose","State":"CA","Zip":"95128"},{"Location":"O'CONNOR SISTER HOME","Address":"350 Oconnor Dr","City":"San Jose","State":"CA","Zip":"95128"},{"Location":"OCCONER HOSPITAL PHYS THERAPY","Address":"455 Oconnor Dr","City":"San Jose","State":"CA","Zip":"95128"},{"Location":"OCONNER SURGERY CENTER","Address":"125 Ciro Ave 110","City":"San Jose","State":"CA","Zip":"95128"},{"Location":"OCONNOR HOSPITAL","Address":"2105 Forest Ave","City":"San Jose","State":"CA","Zip":"95128"},{"Location":"PHO LYNN RESTAURANT","Address":"1865 W San Carlos St","City":"San Jose","State":"CA","Zip":"95128"},{"Location":"PHO24","Address":"747 S Winchester Blvd 100","City":"San Jose","State":"CA","Zip":"95128"},{"Location":"PHOENIXMANFACTREDHOUSING","Address":"3031 Tisch Way 1008","City":"San Jose","State":"CA","Zip":"95128"},{"Location":"ROCKEFELLER GROUP BUSINESS CTR","Address":"560 S Winchester Blvd 500","City":"San Jose","State":"CA","Zip":"95128"},{"Location":"ROSIE MCCANNS","Address":"355 Santana Row 1060","City":"San Jose","State":"CA","Zip":"95128"},{"Location":"ROUND TABLE PIZZA","Address":"1125 S Bascom Ave","City":"San Jose","State":"CA","Zip":"95128"},{"Location":"SAN JOSE POLICE DEPARTMENT","Address":"2172 Forest Ave","City":"San Jose","State":"CA","Zip":"95128"},{"Location":"SAN JOSE WATER CO","Address":"1221 S Bascom Ave","City":"San Jose","State":"CA","Zip":"95128"},{"Location":"SILVER CLIPPER HAIR DESIGN","Address":"2415 Forest Ave","City":"San Jose","State":"CA","Zip":"95128"},{"Location":"SLIDERS BURGERS","Address":"1645 W San Carlos St","City":"San Jose","State":"CA","Zip":"95128"},{"Location":"THE BEARS COCKTAIL LOUNGE","Address":"1872 W San Carlos St","City":"San Jose","State":"CA","Zip":"95128"},{"Location":"THE RED STAG LOUNGE","Address":"1711 W San Carlos St","City":"San Jose","State":"CA","Zip":"95128"},{"Location":"TRAVEL LEADERS","Address":"950 S Bascom Ave 3120","City":"San Jose","State":"CA","Zip":"95128"},{"Location":"VALLEY COMMUNITY BANK","Address":"1150 S Bascom Ave 26","City":"San Jose","State":"CA","Zip":"95128"},{"Location":"VBAR","Address":"355 Santana Row","City":"San Jose","State":"CA","Zip":"95128"},{"Location":"WEST COAST CANNERS","Address":"501 S Bascom Ave","City":"San Jose","State":"CA","Zip":"95128"},{"Location":"WHITE BLOSSOM  BREAKROOM","Address":"1990 Fruitdale Ave","City":"San Jose","State":"CA","Zip":"95128"},{"Location":"YARD HOUSE 8330","Address":"300 Santana Row 101","City":"San Jose","State":"CA","Zip":"95128"}]