[{"Location":"BUCKHORN TAVERN","Address":"3273 Sierra Rd","City":"San Jose","State":"CA","Zip":"95132"},{"Location":"HS DELI INVESTMENT CORPORATION","Address":"2133 Morrill Ave","City":"San Jose","State":"CA","Zip":"95132"},{"Location":"LALA DENTAL CLINIC","Address":"3072 Landess Ave","City":"San Jose","State":"CA","Zip":"95132"},{"Location":"M.C. LLC STORE 2333","Address":"1902 N Capitol Ave","City":"San Jose","State":"CA","Zip":"95132"},{"Location":"MAGAT FOOD AND MARKET","Address":"1190 N Capitol Ave","City":"San Jose","State":"CA","Zip":"95132"},{"Location":"NAILS 39","Address":"1164 N Capitol Ave","City":"San Jose","State":"CA","Zip":"95132"},{"Location":"PHO MAI","Address":"3074 Landess Ave","City":"San Jose","State":"CA","Zip":"95132"},{"Location":"PIEDMONT HEALTH ANIMAL HOSP","Address":"1265 Piedmont Rd","City":"San Jose","State":"CA","Zip":"95132"},{"Location":"ROUND TABLE PIZZA","Address":"2129 Morrill Ave","City":"San Jose","State":"CA","Zip":"95132"},{"Location":"SABANIKI S INC","Address":"1170 N Capitol Ave","City":"San Jose","State":"CA","Zip":"95132"},{"Location":"SAIKO SUSHI","Address":"1621 N Capitol Ave","City":"San Jose","State":"CA","Zip":"95132"},{"Location":"SANTA CLARA VALLEY WATER DISTR","Address":"3959 Whitman Way","City":"San Jose","State":"CA","Zip":"95132"},{"Location":"SOUTHBAY DENTAL","Address":"2505 Berryessa Rd","City":"San Jose","State":"CA","Zip":"95132"},{"Location":"TARGET","Address":"2155 Morrill Ave","City":"San Jose","State":"CA","Zip":"95132"},{"Location":"THE KICKIN CRAB","Address":"2675 Cropley Ave","City":"San Jose","State":"CA","Zip":"95132"},{"Location":"UNIS ENTERPRISE","Address":"2066 N Capitol Ave","City":"San Jose","State":"CA","Zip":"95132"}]