[{"Location":"ALTERA","Address":"101 Innovation Dr 3","City":"San Jose","State":"CA","Zip":"95134"},{"Location":"ALTERA CORPORATION","Address":"101 Innovation Dr","City":"San Jose","State":"CA","Zip":"95134"},{"Location":"AMERICAN REDCROSS","Address":"2731 N 1st St","City":"San Jose","State":"CA","Zip":"95134"},{"Location":"APTINA  LLC","Address":"2660 Zanker Rd","City":"San Jose","State":"CA","Zip":"95134"},{"Location":"AVNET1","Address":"2580 Junction Ave","City":"San Jose","State":"CA","Zip":"95134"},{"Location":"BOSTON SCIENTIFIC CORPORTION","Address":"150 Baytech Dr","City":"San Jose","State":"CA","Zip":"95134"},{"Location":"BROADCOM CORP","Address":"3100 N 1st St","City":"San Jose","State":"CA","Zip":"95134"},{"Location":"BROADCOM CORPORATION","Address":"3151 Zanker Rd","City":"San Jose","State":"CA","Zip":"95134"},{"Location":"BROCADE COMMUNICATIONS 1","Address":"130 Holger Way","City":"San Jose","State":"CA","Zip":"95134"},{"Location":"BROCADE COMMUNICATIONS 2","Address":"130 Holger Way","City":"San Jose","State":"CA","Zip":"95134"},{"Location":"CADENCE DESIGN","Address":"2655 Seely Ave 9","City":"San Jose","State":"CA","Zip":"95134"},{"Location":"CISCO SYSTEMS","Address":"375 E Tasman Dr","City":"San Jose","State":"CA","Zip":"95134"},{"Location":"CISCO SYSTEMS INC.","Address":"350 E Tasman Dr","City":"San Jose","State":"CA","Zip":"95134"},{"Location":"COPIVIA INC","Address":"408 E Plumeria Dr","City":"San Jose","State":"CA","Zip":"95134"},{"Location":"CYPRESS SEMICONDUCTOR","Address":"195 Champion Ct","City":"San Jose","State":"CA","Zip":"95134"},{"Location":"ENERGOUS CORPORATION","Address":"3590 N 1st St 210","City":"San Jose","State":"CA","Zip":"95134"},{"Location":"ERICSSON  INC","Address":"200 Holger Way","City":"San Jose","State":"CA","Zip":"95134"},{"Location":"ERICSSON  INC","Address":"250 Holger Way","City":"San Jose","State":"CA","Zip":"95134"},{"Location":"ERICSSON  INC BLDG 300","Address":"300 Holger Way","City":"San Jose","State":"CA","Zip":"95134"},{"Location":"EXTREME NETWORKS","Address":"145 Rio Robles","City":"San Jose","State":"CA","Zip":"95134"},{"Location":"FAIRCHILD SEMICONDUCTOR","Address":"3030 Orchard Pkwy","City":"San Jose","State":"CA","Zip":"95134"},{"Location":"FIDELITY INVESTMENTS 278","Address":"4160 W First St","City":"San Jose","State":"CA","Zip":"95134"},{"Location":"FUSION IO","Address":"2880 Junction Ave","City":"San Jose","State":"CA","Zip":"95134"},{"Location":"FUSION-IO SJ","Address":"2880 Junction Ave","City":"San Jose","State":"CA","Zip":"95134"},{"Location":"HARMONIC INC","Address":"4300 N 1st St","City":"San Jose","State":"CA","Zip":"95134"},{"Location":"IBM NORTH SAN JOSE","Address":"4400 N 1st St","City":"San Jose","State":"CA","Zip":"95134"},{"Location":"IMMERSION CORP","Address":"30 Rio Robles","City":"San Jose","State":"CA","Zip":"95134"},{"Location":"IMMIGRATION LAW GROUP LLP","Address":"3590 N 1st St 310","City":"San Jose","State":"CA","Zip":"95134"},{"Location":"JP PIZZA INC","Address":"4190 N 1st St","City":"San Jose","State":"CA","Zip":"95134"},{"Location":"JUBILEE CHRISTIAN CENTER","Address":"175 Nortech Pkwy","City":"San Jose","State":"CA","Zip":"95134"},{"Location":"KAATI FRESH","Address":"680 River Oaks Pkwy","City":"San Jose","State":"CA","Zip":"95134"},{"Location":"LAM RESARCH","Address":"3960 N 1st St","City":"San Jose","State":"CA","Zip":"95134"},{"Location":"LAM RESEARCH","Address":"3930 N 1st St","City":"San Jose","State":"CA","Zip":"95134"},{"Location":"LENEXPO","Address":"70 Daggett Dr","City":"San Jose","State":"CA","Zip":"95134"},{"Location":"LOCKHEED MARTIN","Address":"3200 Zanker Rd","City":"San Jose","State":"CA","Zip":"95134"},{"Location":"MINAS KOREAN BBQ","Address":"3730 N 1st St 140","City":"San Jose","State":"CA","Zip":"95134"},{"Location":"NIMBLE STORAGE","Address":"211 River Oaks Pkwy","City":"San Jose","State":"CA","Zip":"95134"},{"Location":"NXP SEMICONDUCTORS","Address":"411 E Plumeria Dr","City":"San Jose","State":"CA","Zip":"95134"},{"Location":"PIVOT  INTERIORS","Address":"2740 Zanker Rd","City":"San Jose","State":"CA","Zip":"95134"},{"Location":"PRYSM INCORPORATED","Address":"180 Baytech Dr 200","City":"San Jose","State":"CA","Zip":"95134"},{"Location":"QUALCOMM INC","Address":"2581 Junction Ave","City":"San Jose","State":"CA","Zip":"95134"},{"Location":"ROK STEAKHOUSE AND GRILL","Address":"4130 N 1st St","City":"San Jose","State":"CA","Zip":"95134"},{"Location":"ROUND TABLE PIZZA","Address":"3730 N 1st St","City":"San Jose","State":"CA","Zip":"95134"},{"Location":"SAMSUNG SISA 2","Address":"2665 N 1st St","City":"San Jose","State":"CA","Zip":"95134"},{"Location":"SANTA CLARA VALLEY W1","Address":"4190 Zanker Rd","City":"San Jose","State":"CA","Zip":"95134"},{"Location":"SEMI","Address":"3081 Zanker Rd","City":"San Jose","State":"CA","Zip":"95134"},{"Location":"SISA","Address":"3000 Orchard Pkwy","City":"San Jose","State":"CA","Zip":"95134"},{"Location":"SISA 1","Address":"3000 Orchard Pkwy","City":"San Jose","State":"CA","Zip":"95134"},{"Location":"SK HYNIX","Address":"3101 N 1st St","City":"San Jose","State":"CA","Zip":"95134"},{"Location":"SUN POWER","Address":"77 Rio Robles","City":"San Jose","State":"CA","Zip":"95134"},{"Location":"SUPER CUTS","Address":"55 Holger Way","City":"San Jose","State":"CA","Zip":"95134"},{"Location":"THE CORE GROUP","Address":"645 River Oaks Pkwy","City":"San Jose","State":"CA","Zip":"95134"},{"Location":"VERIZON BUSINESS","Address":"2950 Zanker Rd","City":"San Jose","State":"CA","Zip":"95134"},{"Location":"VTA","Address":"3331 N 1st St","City":"San Jose","State":"CA","Zip":"95134"},{"Location":"ZEBRA TECHNOLOGY","Address":"2940 N 1st St","City":"San Jose","State":"CA","Zip":"95134"}]