[{"Location":"CAPITAL CHEVROLET","Address":"905 W Capitol Expy","City":"San Jose","State":"CA","Zip":"95136"},{"Location":"CAPITAL HYUNDAI","Address":"1050 Capitol Expressway Auto M","City":"San Jose","State":"CA","Zip":"95136"},{"Location":"CAPITAL MITSHUBISHI","Address":"750 Capi Capitol Expressway Auto","City":"San Jose","State":"CA","Zip":"95136"},{"Location":"CAPITAL SUBARU","Address":"920 Capitol Expressway Auto M Au","City":"San Jose","State":"CA","Zip":"95136"},{"Location":"CAPITAL TOYOTA","Address":"765 Capitol Expressway Auto M","City":"San Jose","State":"CA","Zip":"95136"},{"Location":"CAPITAL TOYOTA","Address":"765 Capitalxpress Wy Mall","City":"San Jose","State":"CA","Zip":"95136"},{"Location":"CAPITAL TOYOTA","Address":"775 Capi Capitol Expressway Auto","City":"San Jose","State":"CA","Zip":"95136"},{"Location":"CAPITOL COLLISION","Address":"3517 Hillcap Ave","City":"San Jose","State":"CA","Zip":"95136"},{"Location":"CAPITOL FLEA MARKET","Address":"3630 Hillcap Ave","City":"San Jose","State":"CA","Zip":"95136"},{"Location":"CAPITOL FORD","Address":"919 Capitol Expressway Auto M","City":"San Jose","State":"CA","Zip":"95136"},{"Location":"CAPITOL MAZDA","Address":"980 Capitol Expressway Auto M","City":"San Jose","State":"CA","Zip":"95136"},{"Location":"CAPITOL NISSAN","Address":"1120 W Capitol Expy","City":"San Jose","State":"CA","Zip":"95136"},{"Location":"CONCRETE READY MIX%2C INC","Address":"111 Hillsdale Ave","City":"San Jose","State":"CA","Zip":"95136"},{"Location":"DZ.NAM LLC","Address":"3970 The Woods Dr","City":"San Jose","State":"CA","Zip":"95136"},{"Location":"FIRESTONE #118869","Address":"3510 Pearl Ave","City":"San Jose","State":"CA","Zip":"95136"},{"Location":"HIGH FIVE PIZZA","Address":"171 Branham Ln 1","City":"San Jose","State":"CA","Zip":"95136"},{"Location":"KAMPAI","Address":"519 W Capitol Expy","City":"San Jose","State":"CA","Zip":"95136"},{"Location":"KAMPAI","Address":"171 Branham Ln Suite","City":"San Jose","State":"CA","Zip":"95136"},{"Location":"LOBUE","Address":"274 Hillsdale Ave F","City":"San Jose","State":"CA","Zip":"95136"},{"Location":"MYO PERFORMANCE LLC","Address":"3560 Charter Park Dr","City":"San Jose","State":"CA","Zip":"95136"},{"Location":"NORMANDIN CHRYSLER","Address":"900 Capitol Expressway Auto M","City":"San Jose","State":"CA","Zip":"95136"},{"Location":"PREMIER NISSAN OF SAN JOSE","Address":"1120 W Capitol Expy","City":"San Jose","State":"CA","Zip":"95136"},{"Location":"SAM'S BBQ DINER","Address":"3309 San Felipe Road","City":"San Jose","State":"CA","Zip":"95136"},{"Location":"SOLACE SUPPORTIVE LIVING 2","Address":"5239 Country Forge Ln","City":"San Jose","State":"CA","Zip":"95136"},{"Location":"SOLACE SUPPORTIVE LIVING%2C INC","Address":"5285 Mill Creek Ln","City":"San Jose","State":"CA","Zip":"95136"},{"Location":"TAQUERIA EL CORAL","Address":"426 W Capitol Expy","City":"San Jose","State":"CA","Zip":"95136"},{"Location":"UNITED SITE SERVICES","Address":"3408 Hillcap Ave","City":"San Jose","State":"CA","Zip":"95136"},{"Location":"VOLKSWAGONHYUNDAISUZUKI","Address":"911 Capitol Expressway Auto M","City":"San Jose","State":"CA","Zip":"95136"}]