[{"Location":"BOSTON MARKET","Address":"15399 Prospect Ave","City":"San Jose","State":"CA","Zip":"95130"},{"Location":"CAREMORE SAN JOSE","Address":"4855 Atherton Ave 100","City":"San Jose","State":"CA","Zip":"95130"},{"Location":"CLUB HAVANA PREMIUM","Address":"820 El Paseo De Saratoga","City":"San Jose","State":"CA","Zip":"95130"},{"Location":"HSBC BANK #819883","Address":"1420 El Paseo De Saratoga","City":"San Jose","State":"CA","Zip":"95130"},{"Location":"JOHNNY DS","Address":"830 El Paseo De Saratoga","City":"San Jose","State":"CA","Zip":"95130"},{"Location":"RED ROBIN #259","Address":"1000 El Paseo De Saratoga","City":"San Jose","State":"CA","Zip":"95130"},{"Location":"WASH AND DRY","Address":"4159 Hamilton Ave","City":"San Jose","State":"CA","Zip":"95130"},{"Location":"BOSTON MARKET","Address":"15399 Prospect Ave","City":"San Jose","State":"CA","Zip":"95130"},{"Location":"CAREMORE SAN JOSE","Address":"4855 Atherton Ave 100","City":"San Jose","State":"CA","Zip":"95130"},{"Location":"CLUB HAVANA PREMIUM","Address":"820 El Paseo De Saratoga","City":"San Jose","State":"CA","Zip":"95130"},{"Location":"HSBC BANK #819883","Address":"1420 El Paseo De Saratoga","City":"San Jose","State":"CA","Zip":"95130"},{"Location":"JOHNNY DS","Address":"830 El Paseo De Saratoga","City":"San Jose","State":"CA","Zip":"95130"},{"Location":"RED ROBIN #259","Address":"1000 El Paseo De Saratoga","City":"San Jose","State":"CA","Zip":"95130"},{"Location":"WASH AND DRY","Address":"4159 Hamilton Ave","City":"San Jose","State":"CA","Zip":"95130"}]