[{"Location":"A PLUS COMMERCIAL SERVICE","Address":"2526 Qume Dr 25","City":"San Jose","State":"CA","Zip":"95131"},{"Location":"A2Z BEAUTY SPA LLC","Address":"1715 Lundy Ave 192","City":"San Jose","State":"CA","Zip":"95131"},{"Location":"ALIGN TECHNOLOGIES","Address":"2560 Orchard Pkwy","City":"San Jose","State":"CA","Zip":"95131"},{"Location":"AMDOCS INC","Address":"2545 N 1st St","City":"San Jose","State":"CA","Zip":"95131"},{"Location":"ANHEUSER-BUSCH WHLSLR #20423","Address":"128 Component Dr","City":"San Jose","State":"CA","Zip":"95131"},{"Location":"AON CONSULTING","Address":"2570 N 1st St 500","City":"San Jose","State":"CA","Zip":"95131"},{"Location":"AVAGO TECH","Address":"350 W Trimble Rd 90","City":"San Jose","State":"CA","Zip":"95131"},{"Location":"BALANCE STAFFING 2","Address":"2142 Bering Dr","City":"San Jose","State":"CA","Zip":"95131"},{"Location":"BD BIO SCIENCE","Address":"2150 Commerce Dr","City":"San Jose","State":"CA","Zip":"95131"},{"Location":"BD BIOSCIENSES","Address":"2222 Qume Dr","City":"San Jose","State":"CA","Zip":"95131"},{"Location":"BEAR DATA SOLUTIONS","Address":"138 Charcot Ave","City":"San Jose","State":"CA","Zip":"95131"},{"Location":"BECTON DICKINSON PO 6400062997","Address":"2350 Qume Dr","City":"San Jose","State":"CA","Zip":"95131"},{"Location":"BLACH CONSTRUCTION CO.","Address":"2040 Fortune Dr 101","City":"San Jose","State":"CA","Zip":"95131"},{"Location":"BLUE STAR REFRESHMENT","Address":"575 Dado St","City":"San Jose","State":"CA","Zip":"95131"},{"Location":"BURGER KING","Address":"2532 Channing Ave","City":"San Jose","State":"CA","Zip":"95131"},{"Location":"CA SOUR DOUGH","Address":"1150 Murphy Ave","City":"San Jose","State":"CA","Zip":"95131"},{"Location":"CALIFORNIA HWY PATROL","Address":"2020 Junction Ave","City":"San Jose","State":"CA","Zip":"95131"},{"Location":"CALIFORNIA SCHOOL EMPLOYEE ASC","Address":"2045 Lundy Ave","City":"San Jose","State":"CA","Zip":"95131"},{"Location":"CAMPBELL METAL SUPPLY","Address":"569 Charcot Ave","City":"San Jose","State":"CA","Zip":"95131"},{"Location":"CAVIUM","Address":"2345 N 1st St","City":"San Jose","State":"CA","Zip":"95131"},{"Location":"CAVIUM NETWORKS","Address":"2315 N 1st St","City":"San Jose","State":"CA","Zip":"95131"},{"Location":"CLUB AUTO SPORT","Address":"521 Charcot Ave","City":"San Jose","State":"CA","Zip":"95131"},{"Location":"CORODATA CO","Address":"450 Charcot Ave","City":"San Jose","State":"CA","Zip":"95131"},{"Location":"CSR TECH INC","Address":"1060 Rincon Cir","City":"San Jose","State":"CA","Zip":"95131"},{"Location":"DAVITA #5221 SAN JOSE","Address":"725 Ridder Park Dr 10-40","City":"San Jose","State":"CA","Zip":"95131"},{"Location":"DAVITA #5258 SILICON VALLEY","Address":"725 Ridder Park Dr 50","City":"San Jose","State":"CA","Zip":"95131"},{"Location":"DE LA CRUZ DELI","Address":"850 Charcot Ave","City":"San Jose","State":"CA","Zip":"95131"},{"Location":"DEEP DISCOUNT SERVERS","Address":"2345 Paragon Dr","City":"San Jose","State":"CA","Zip":"95131"},{"Location":"DO RE ME CAFE","Address":"1698 Hostetter Rd E","City":"San Jose","State":"CA","Zip":"95131"},{"Location":"DRIGGSYS","Address":"1150 Murphy Ave D","City":"San Jose","State":"CA","Zip":"95131"},{"Location":"DRIVE A DREAM INC","Address":"521 Charcot Ave 237","City":"San Jose","State":"CA","Zip":"95131"},{"Location":"EBAY  INC","Address":"2161 N 1st St","City":"San Jose","State":"CA","Zip":"95131"},{"Location":"EBAY FITNESS CENTER","Address":"2211 N 1st St","City":"San Jose","State":"CA","Zip":"95131"},{"Location":"EBAY INC","Address":"2525 N 1st St","City":"San Jose","State":"CA","Zip":"95131"},{"Location":"EBAY INC #2","Address":"2211 N 1st St","City":"San Jose","State":"CA","Zip":"95131"},{"Location":"EBAY INC #3","Address":"2211 N 1st St","City":"San Jose","State":"CA","Zip":"95131"},{"Location":"EBAY INC%2FCUSHMAN & WAKEFIELD 1","Address":"2211 N 1st St","City":"San Jose","State":"CA","Zip":"95131"},{"Location":"ENCORE INDUSTRIES","Address":"597 Brennan St","City":"San Jose","State":"CA","Zip":"95131"},{"Location":"EPN-VINCENT REYES","Address":"1630 Old Oakland Rd A110","City":"San Jose","State":"CA","Zip":"95131"},{"Location":"EQUINIX SV3","Address":"1735 Lundy Ave","City":"San Jose","State":"CA","Zip":"95131"},{"Location":"GOLDI LOCKS","Address":"1698 Hostetter Rd M","City":"San Jose","State":"CA","Zip":"95131"},{"Location":"INSTRUSOFT ENGINEERING C","Address":"2380 Qume Dr C","City":"San Jose","State":"CA","Zip":"95131"},{"Location":"JL PRECISION","Address":"2360 Zanker Rd","City":"San Jose","State":"CA","Zip":"95131"},{"Location":"KDS PLUMBING","Address":"2087 Ringwood Ave 10","City":"San Jose","State":"CA","Zip":"95131"},{"Location":"KERI SYSTEMS INC","Address":"2305 Bering Dr","City":"San Jose","State":"CA","Zip":"95131"},{"Location":"KNTV & KSTS 48 TELEMUNDO","Address":"2450 N 1st St","City":"San Jose","State":"CA","Zip":"95131"},{"Location":"KTEH-TV FOUNDATION","Address":"1585 Schallenberger Rd","City":"San Jose","State":"CA","Zip":"95131"},{"Location":"LA FITNESS  #98","Address":"1045 E Brokaw Rd","City":"San Jose","State":"CA","Zip":"95131"},{"Location":"LA QUINTA HOTEL BAR","Address":"2585 Seaboard Ave","City":"San Jose","State":"CA","Zip":"95131"},{"Location":"LATTICE SEMICONDUCTOR","Address":"2115 Onel Dr","City":"San Jose","State":"CA","Zip":"95131"},{"Location":"LG DISPLAY","Address":"2540 N 1st St 400","City":"San Jose","State":"CA","Zip":"95131"},{"Location":"LORD AND SONS","Address":"430 E Trimble Rd","City":"San Jose","State":"CA","Zip":"95131"},{"Location":"LSI CORP 1","Address":"1320 Ridder Park Dr","City":"San Jose","State":"CA","Zip":"95131"},{"Location":"LYNCON CONSTRUCTION INC","Address":"2055 Junction Ave 138","City":"San Jose","State":"CA","Zip":"95131"},{"Location":"MEXICO GENERAL CONSULATE","Address":"2125 Zanker Rd","City":"San Jose","State":"CA","Zip":"95131"},{"Location":"MIKE RAWLSTER GOLF SHOP","Address":"1560 Oakland Rd","City":"San Jose","State":"CA","Zip":"95131"},{"Location":"MIXAROO INC","Address":"1735 Lundy Ave","City":"San Jose","State":"CA","Zip":"95131"},{"Location":"MONTAGUE PREMIER CAR WASH","Address":"790 Montague Espressway","City":"San Jose","State":"CA","Zip":"95131"},{"Location":"MVTS","Address":"2149 Otoole Ave D","City":"San Jose","State":"CA","Zip":"95131"},{"Location":"NAPREDAK     HALL","Address":"770 Montague Expy","City":"San Jose","State":"CA","Zip":"95131"},{"Location":"OLIVES GREEK CAFE","Address":"2567 N 1st St","City":"San Jose","State":"CA","Zip":"95131"},{"Location":"PHILIPS LUMILEDS LIGHTING COM","Address":"370 W Trimble Rd","City":"San Jose","State":"CA","Zip":"95131"},{"Location":"PHILLYS","Address":"2561 N 1st St","City":"San Jose","State":"CA","Zip":"95131"},{"Location":"PHO TAU BAY","Address":"1628 Hostetter Rd D","City":"San Jose","State":"CA","Zip":"95131"},{"Location":"PIZZA CALIFORNIA","Address":"1708 Oakland Rd 500","City":"San Jose","State":"CA","Zip":"95131"},{"Location":"PRECIOUS SMILE DENTAL","Address":"1728 Hostetter Rd 60","City":"San Jose","State":"CA","Zip":"95131"},{"Location":"RB FLOORING","Address":"2075 Bering Dr P","City":"San Jose","State":"CA","Zip":"95131"},{"Location":"RICHARD SMITH","Address":"521 Charcot Ave 163","City":"San Jose","State":"CA","Zip":"95131"},{"Location":"RICHARDS MACHINING","Address":"2161 Del Franco St","City":"San Jose","State":"CA","Zip":"95131"},{"Location":"SANTA CLARA COUNTY ROADS AND","Address":"1505 Schallenberger Rd","City":"San Jose","State":"CA","Zip":"95131"},{"Location":"SILIONE X CONSTRUCTION INC","Address":"2051 Junction Ave 100","City":"San Jose","State":"CA","Zip":"95131"},{"Location":"SJC   TRANSPORT INC","Address":"1972 Hartog Dr","City":"San Jose","State":"CA","Zip":"95131"},{"Location":"STARFIRE PRODUCTIONS","Address":"1085 E Brokaw Rd 30","City":"San Jose","State":"CA","Zip":"95131"},{"Location":"TERRY KINAGA DDS","Address":"1701 Lundy Ave 150","City":"San Jose","State":"CA","Zip":"95131"},{"Location":"THE BORELLI MOTOR SPORTS","Address":"521 Charcot Ave","City":"San Jose","State":"CA","Zip":"95131"},{"Location":"TOKYO SUSHI","Address":"1715 Lundy Ave 156","City":"San Jose","State":"CA","Zip":"95131"},{"Location":"UNITED MECHANICAL","Address":"2161 Oakland Rd","City":"San Jose","State":"CA","Zip":"95131"},{"Location":"VALIN CORP2","Address":"1941 Ringwood Ave","City":"San Jose","State":"CA","Zip":"95131"},{"Location":"VN GRILL","Address":"1085 E Brokaw Rd 20","City":"San Jose","State":"CA","Zip":"95131"},{"Location":"WEST COST ASM","Address":"2215 Oakland Rd","City":"San Jose","State":"CA","Zip":"95131"},{"Location":"WHISPERS CAFE","Address":"1085 E Brokaw Rd 10","City":"San Jose","State":"CA","Zip":"95131"},{"Location":"WING STOP RESTURANT","Address":"725 Ridder Park Dr 80","City":"San Jose","State":"CA","Zip":"95131"},{"Location":"WW GRAINGER INC","Address":"2261 Ringwood Ave","City":"San Jose","State":"CA","Zip":"95131"}]