[{"Location":"BLACKBAG TECHNOLOGIES","Address":"300 Piercy Rd","City":"San Jose","State":"CA","Zip":"95138"},{"Location":"CLUB ONE FITNESS #2","Address":"800 Embedded Way","City":"San Jose","State":"CA","Zip":"95138"},{"Location":"COMMONWEALTH CENTRAL CREDIT UN","Address":"5890 Silver Creek Valley Rd","City":"San Jose","State":"CA","Zip":"95138"},{"Location":"HIDEAWAY LOUNGE","Address":"6104 Monterey Hwy","City":"San Jose","State":"CA","Zip":"95138"},{"Location":"HIGH FIVE AT THE PLEX","Address":"800 Embedded Way","City":"San Jose","State":"CA","Zip":"95138"},{"Location":"HOLIDAY INN COMMON","Address":"399 Silicon Valley Blvd","City":"San Jose","State":"CA","Zip":"95138"},{"Location":"HOSPIRA","Address":"5729 Fontanoso Way","City":"San Jose","State":"CA","Zip":"95138"},{"Location":"IDT","Address":"6024 Silver Creek Valley Rd","City":"San Jose","State":"CA","Zip":"95138"},{"Location":"MARQUEZ BROTHERS INTERNATONAL","Address":"5801 Rue Ferrari","City":"San Jose","State":"CA","Zip":"95138"},{"Location":"MONTEREY DENTAL","Address":"5544 Monterey Hwy","City":"San Jose","State":"CA","Zip":"95138"},{"Location":"PATHWAY   SOCIETY","Address":"9500 Malech Rd","City":"San Jose","State":"CA","Zip":"95138"},{"Location":"PATHWAY SOCIETY","Address":"9500 Malech Rd","City":"San Jose","State":"CA","Zip":"95138"},{"Location":"PENINSULATORS","Address":"360 Piercy Rd","City":"San Jose","State":"CA","Zip":"95138"},{"Location":"ROLLIN ICE","Address":"800 Embedded Way","City":"San Jose","State":"CA","Zip":"95138"},{"Location":"SAN JOSE BIO CENTER","Address":"5941 Optical Ct","City":"San Jose","State":"CA","Zip":"95138"},{"Location":"SOLACE SUPPORTIVE LIVING%2CINC","Address":"5970 Tennant Ave","City":"San Jose","State":"CA","Zip":"95138"},{"Location":"STRYKER ENDOSCOPY","Address":"5900 Optical Ct","City":"San Jose","State":"CA","Zip":"95138"},{"Location":"SUMMIT BAR AND GRILL","Address":"399 Silicon Valley Blvd","City":"San Jose","State":"CA","Zip":"95138"},{"Location":"THE RANCH GOLF CLUB","Address":"4601 Hill Top View Ln","City":"San Jose","State":"CA","Zip":"95138"}]