[{"Location":"24 HOUR FITNESS #505","Address":"375a N Capitol Ave","City":"San Jose","State":"CA","Zip":"95133"},{"Location":"ACORN PROPERTY MANAGEMENT & DE","Address":"683 N King Rd","City":"San Jose","State":"CA","Zip":"95133"},{"Location":"BAY AREA ASPHAULT","Address":"545 Nipper Ave","City":"San Jose","State":"CA","Zip":"95133"},{"Location":"BBOSS","Address":"385 N Capitol Ave","City":"San Jose","State":"CA","Zip":"95133"},{"Location":"CHONGS PRODUCE","Address":"1860 Dobbin Dr","City":"San Jose","State":"CA","Zip":"95133"},{"Location":"CLAW SHACK","Address":"1696 Berryessa Rd","City":"San Jose","State":"CA","Zip":"95133"},{"Location":"ECO BOX RECYCLINGE","Address":"1255 Yard Ct","City":"San Jose","State":"CA","Zip":"95133"},{"Location":"EL BUEN GUSTO","Address":"1710 Berryessa Rd 105","City":"San Jose","State":"CA","Zip":"95133"},{"Location":"FAT BURGER LLC","Address":"788 N King Rd","City":"San Jose","State":"CA","Zip":"95133"},{"Location":"FLASH RESTAURANT LLC","Address":"377 N Capitol Ave","City":"San Jose","State":"CA","Zip":"95133"},{"Location":"GO CONG","Address":"1688 Berryessa Rd","City":"San Jose","State":"CA","Zip":"95133"},{"Location":"JALIMEX FOODS","Address":"697 Lenfest Rd","City":"San Jose","State":"CA","Zip":"95133"},{"Location":"MARCUS STEPHENSON","Address":"1099 Ivy Glen Dr","City":"San Jose","State":"CA","Zip":"95133"},{"Location":"PACIFIC DENTAL","Address":"301 N Jackson Ave","City":"San Jose","State":"CA","Zip":"95133"},{"Location":"PARIS","Address":"403 N Capitol Ave","City":"San Jose","State":"CA","Zip":"95133"},{"Location":"PARIS CAFE","Address":"403 N Capitol Ave","City":"San Jose","State":"CA","Zip":"95133"},{"Location":"PHO YEN CUISINE","Address":"974 Lundy Ave","City":"San Jose","State":"CA","Zip":"95133"},{"Location":"PIZZA HUT #028738","Address":"1737 Berryessa Rd B","City":"San Jose","State":"CA","Zip":"95133"},{"Location":"TARGET","Address":"450 N Capitol Ave","City":"San Jose","State":"CA","Zip":"95133"},{"Location":"THE FLEA MARKET","Address":"1590 Berryessa Rd","City":"San Jose","State":"CA","Zip":"95133"},{"Location":"TYLAN 999","Address":"1743 Berryessa Rd","City":"San Jose","State":"CA","Zip":"95133"}]