[{"Location":"BEACH HUT DELI","Address":"4878 San Felipe Rd","City":"San Jose","State":"CA","Zip":"95135"},{"Location":"EVERGREEN COFFEE CO.","Address":"4075 Evergreen Village Sq 150","City":"San Jose","State":"CA","Zip":"95135"},{"Location":"INMOTION WELLNESS INC","Address":"4075 Evergreen Village Sq 100","City":"San Jose","State":"CA","Zip":"95135"},{"Location":"MOUNT HAMILTON GRANGE 069","Address":"2840 Aborn Rd","City":"San Jose","State":"CA","Zip":"95135"},{"Location":"NANDO INC%2FFOOTHILLS LOUNGE","Address":"3311 San Felipe Rd","City":"San Jose","State":"CA","Zip":"95135"},{"Location":"PIZZA MY HEART","Address":"4898 San Felipe Rd 120","City":"San Jose","State":"CA","Zip":"95135"},{"Location":"PROFESSIONAL NAIL","Address":"4848 San Felipe Rd 160","City":"San Jose","State":"CA","Zip":"95135"},{"Location":"BEACH HUT DELI","Address":"4878 San Felipe Rd","City":"San Jose","State":"CA","Zip":"95135"},{"Location":"EVERGREEN COFFEE CO.","Address":"4075 Evergreen Village Sq 150","City":"San Jose","State":"CA","Zip":"95135"},{"Location":"INMOTION WELLNESS INC","Address":"4075 Evergreen Village Sq 100","City":"San Jose","State":"CA","Zip":"95135"},{"Location":"MOUNT HAMILTON GRANGE 069","Address":"2840 Aborn Rd","City":"San Jose","State":"CA","Zip":"95135"},{"Location":"NANDO INC%2FFOOTHILLS LOUNGE","Address":"3311 San Felipe Rd","City":"San Jose","State":"CA","Zip":"95135"},{"Location":"PIZZA MY HEART","Address":"4898 San Felipe Rd 120","City":"San Jose","State":"CA","Zip":"95135"},{"Location":"PROFESSIONAL NAIL","Address":"4848 San Felipe Rd 160","City":"San Jose","State":"CA","Zip":"95135"}]