[{"Location":"CAFE BANG","Address":"2860 Quimby Rd 100","City":"San Jose","State":"CA","Zip":"95148"},{"Location":"DAVITA #2199 SAN JOSE EAST","Address":"3162 S White Rd","City":"San Jose","State":"CA","Zip":"95148"},{"Location":"EAST LAKE CHINESE SEAFOO","Address":"2850 Quimby Rd","City":"San Jose","State":"CA","Zip":"95148"},{"Location":"EAST LAKE SEAFOOD RESTAURANT","Address":"2850 Quimby Road","City":"San Jose","State":"CA","Zip":"95148"},{"Location":"EAST VALLEY YMCA #1","Address":"1975 S White Rd","City":"San Jose","State":"CA","Zip":"95148"},{"Location":"EAST VALLEY YMCA #2","Address":"1975 S White Rd","City":"San Jose","State":"CA","Zip":"95148"},{"Location":"EVERGREEN INN & PUB","Address":"3273 S White Rd","City":"San Jose","State":"CA","Zip":"95148"},{"Location":"JAPANESE YURI RESTAURANT","Address":"3236 S White Rd","City":"San Jose","State":"CA","Zip":"95148"},{"Location":"KLONDIKES PIZZA CO","Address":"2815 S White Rd","City":"San Jose","State":"CA","Zip":"95148"},{"Location":"LIGHT OF THE WORLD","Address":"3777 Quimby Rd","City":"San Jose","State":"CA","Zip":"95148"},{"Location":"PIZZA HUT","Address":"3227 S White Rd","City":"San Jose","State":"CA","Zip":"95148"},{"Location":"ROUND TABLE PIZZA WHITE ROAD","Address":"3212 S White Rd","City":"San Jose","State":"CA","Zip":"95148"},{"Location":"SPOT PHO LLC","Address":"2847 S White Rd 110","City":"San Jose","State":"CA","Zip":"95148"},{"Location":"SQUADRON 2","Address":"2655 Robert Fowler Way","City":"San Jose","State":"CA","Zip":"95148"},{"Location":"TRUYA SUSHI SJ","Address":"3255 S White Rd","City":"San Jose","State":"CA","Zip":"95148"}]