[{"Location":"AMERICAN LEGION 803","Address":"3110 West Ln","City":"Stockton","State":"CA","Zip":"95204"},{"Location":"BEVERLY MANOR","Address":"2740 N California St","City":"Stockton","State":"CA","Zip":"95204"},{"Location":"FMC 71630000","Address":"2350 N California St","City":"Stockton","State":"CA","Zip":"95204"},{"Location":"FOE","Address":"1492 Bourbon St","City":"Stockton","State":"CA","Zip":"95204"},{"Location":"HOUSE OF ELEGANCE","Address":"216 W Harding Way","City":"Stockton","State":"CA","Zip":"95204"},{"Location":"LILIA ANDRADE LLC","Address":"46 W Harding Way","City":"Stockton","State":"CA","Zip":"95204"},{"Location":"OK FLOWERS","Address":"3909 West Ln","City":"Stockton","State":"CA","Zip":"95204"},{"Location":"PGE INC","Address":"4040 West Ln","City":"Stockton","State":"CA","Zip":"95204"},{"Location":"PGE INC 2","Address":"4040 West Ln 4","City":"Stockton","State":"CA","Zip":"95204"},{"Location":"SAN JOAQUIN CARDIOLOGY","Address":"2333 N California St","City":"Stockton","State":"CA","Zip":"95204"},{"Location":"SATELLITE DIALYSIS  STOC","Address":"590 E Harding Way","City":"Stockton","State":"CA","Zip":"95204"},{"Location":"SEOUL SOONDUBU","Address":"2041 Pacific Ave","City":"Stockton","State":"CA","Zip":"95204"},{"Location":"ST JOSEPH MEDICAL CENTER","Address":"1909 Cemetery Ln","City":"Stockton","State":"CA","Zip":"95204"},{"Location":"STOCKTON GOLF AND COUNTRY CLUB","Address":"3800 Country Club Blvd","City":"Stockton","State":"CA","Zip":"95204"},{"Location":"SUSIES MEXICAN FOOD","Address":"120 W Harding Way","City":"Stockton","State":"CA","Zip":"95204"},{"Location":"THAI ME UP","Address":"2125 Pacific Ave","City":"Stockton","State":"CA","Zip":"95204"},{"Location":"THE GRADUATE RESTAURANT","Address":"2207 Country Club Blvd","City":"Stockton","State":"CA","Zip":"95204"},{"Location":"THE MILE","Address":"1825 Pacific Ave","City":"Stockton","State":"CA","Zip":"95204"},{"Location":"VALLEY BREWING CO","Address":"157 W Adams St","City":"Stockton","State":"CA","Zip":"95204"},{"Location":"VALLEY MRI AND RADIO","Address":"546 E Pine St","City":"Stockton","State":"CA","Zip":"95204"},{"Location":"WEST LANE BOWL","Address":"3900 West Ln","City":"Stockton","State":"CA","Zip":"95204"},{"Location":"WINCHESTERS RESTAURANT","Address":"2714 Country Club Blvd C","City":"Stockton","State":"CA","Zip":"95204"},{"Location":"WINDSOR HAMPTON CARE","Address":"442 E Hampton St","City":"Stockton","State":"CA","Zip":"95204"}]