[{"Location":"ALANO CLUB OF STOCKTON","Address":"1812 Monte Diablo Ave","City":"Stockton","State":"CA","Zip":"95203"},{"Location":"BEST LOGISTICS INC","Address":"340 Port Road 22","City":"Stockton","State":"CA","Zip":"95203"},{"Location":"DEPARTMENT OF HOMELAND S","Address":"603 San Juan Ave","City":"Stockton","State":"CA","Zip":"95203"},{"Location":"EMPLOYMENT ECONOMIC DEVELOP","Address":"56 S Lincoln St","City":"Stockton","State":"CA","Zip":"95203"},{"Location":"FERGUSON #0321","Address":"530 Port Of Stockton Expsway","City":"Stockton","State":"CA","Zip":"95203"},{"Location":"FERGUSON #0979","Address":"805 Cadanaugh Ave","City":"Stockton","State":"CA","Zip":"95203"},{"Location":"HARDIN ANIMAL HOSPITAL INC","Address":"336 E Lafayette St","City":"Stockton","State":"CA","Zip":"95203"},{"Location":"ICE 2","Address":"603 San Juan Ave 2","City":"Stockton","State":"CA","Zip":"95203"},{"Location":"LOWES HOME IMPROVEMENTS","Address":"512 Luce Avenue","City":"Stockton","State":"CA","Zip":"95203"},{"Location":"MARBLE PALACE INC","Address":"711 S San Joaquin St","City":"Stockton","State":"CA","Zip":"95203"},{"Location":"MARIANI'S CLOTHING","Address":"345 S El Dorado St","City":"Stockton","State":"CA","Zip":"95203"},{"Location":"MT RAILCARS INC","Address":"Rough & Ready Island 718","City":"Stockton","State":"CA","Zip":"95203"},{"Location":"PENNYNEWMAN GRAIN COMPANY","Address":"1805 Harbor Ave","City":"Stockton","State":"CA","Zip":"95203"},{"Location":"PORT OF STOCKTON EMERGENCY","Address":"120 Hooper Rd","City":"Stockton","State":"CA","Zip":"95203"},{"Location":"PORT OF STOCKTON ENVIRONMENTAL","Address":"2201 W Washington St","City":"Stockton","State":"CA","Zip":"95203"},{"Location":"SALSA AND SPORTS","Address":"445 W Weber Ave 122","City":"Stockton","State":"CA","Zip":"95203"},{"Location":"SIMONIS FREMONT INN","Address":"2303 W Fremont St","City":"Stockton","State":"CA","Zip":"95203"},{"Location":"VALLEY WHOLESALE DRUGS","Address":"1401 W Fremont St","City":"Stockton","State":"CA","Zip":"95203"}]