[{"Location":"CREEKSIDE CARE & REHAB","Address":"9107 Davis Rd","City":"Stockton","State":"CA","Zip":"95209"},{"Location":"DAVES PLACE","Address":"8102 Kelley Dr A","City":"Stockton","State":"CA","Zip":"95209"},{"Location":"ELKHORN GOLF CLUB","Address":"1050 Elkhorn Dr","City":"Stockton","State":"CA","Zip":"95209"},{"Location":"ELKHORN GRILL","Address":"1050 Elkhorn Dr","City":"Stockton","State":"CA","Zip":"95209"},{"Location":"IN SHAPE HEALTH CLUBS HAMMER","Address":"7920 Kelley Dr","City":"Stockton","State":"CA","Zip":"95209"},{"Location":"LUMBERJACKS","Address":"2113 West Benjamin Holt Dr","City":"Stockton","State":"CA","Zip":"95209"},{"Location":"MOOSE LODGE #391","Address":"9035 Davis Rd","City":"Stockton","State":"CA","Zip":"95209"},{"Location":"SHIRA SONI","Address":"3249 W Hammer Ln","City":"Stockton","State":"CA","Zip":"95209"},{"Location":"THE ESTABLISHMENT","Address":"7931 Thornton Rd","City":"Stockton","State":"CA","Zip":"95209"},{"Location":"THORNTON LAUNDROMAT CLE","Address":"9303 Thornton Rd E","City":"Stockton","State":"CA","Zip":"95209"},{"Location":"THORNTON ROAD BAIT N TACKLE","Address":"9242 Thornton Rd","City":"Stockton","State":"CA","Zip":"95209"}]