[{"Location":"A LUZ BEAUTY SALON","Address":"321 E Martin Luther King Jr B","City":"Stockton","State":"CA","Zip":"95206"},{"Location":"ALL FOREIGN AND DOMESTIC","Address":"1917 Navy Dr","City":"Stockton","State":"CA","Zip":"95206"},{"Location":"AMERICAN HONDA MOTORS","Address":"123 Val Dervin Pkwy","City":"Stockton","State":"CA","Zip":"95206"},{"Location":"ANIMAL SUPPLY COMPANY","Address":"1111 Runway Dr 1","City":"Stockton","State":"CA","Zip":"95206"},{"Location":"APPLIED AEROSPACE","Address":"3437 S Airport Way","City":"Stockton","State":"CA","Zip":"95206"},{"Location":"ATLANTIC AVIATION SCK","Address":"6364 Lindbergh St","City":"Stockton","State":"CA","Zip":"95206"},{"Location":"BMW NA","Address":"931 Runway Dr","City":"Stockton","State":"CA","Zip":"95206"},{"Location":"C AND S WHOLESALE GROCERS","Address":"4199 Gibralter Ct","City":"Stockton","State":"CA","Zip":"95206"},{"Location":"CARGILL","Address":"4344 S Eldorado Street","City":"Stockton","State":"CA","Zip":"95206"},{"Location":"CERTIFIED FREIGHT LOGIST","Address":"1505 Navy Dr Trlr","City":"Stockton","State":"CA","Zip":"95206"},{"Location":"CITY OF STOCKTON","Address":"2500 Navy Dr","City":"Stockton","State":"CA","Zip":"95206"},{"Location":"CITY OF STOCKTON 2","Address":"2500 Navy Dr","City":"Stockton","State":"CA","Zip":"95206"},{"Location":"COASTAL PASIFIC FOOD DISTRIBUT","Address":"1015 Performance Dr","City":"Stockton","State":"CA","Zip":"95206"},{"Location":"DAVITA #5298 STOCKTON","Address":"1810 S Fresno Ave","City":"Stockton","State":"CA","Zip":"95206"},{"Location":"EL GRULLENSE RESTAURANT","Address":"1347 S El Dorado St","City":"Stockton","State":"CA","Zip":"95206"},{"Location":"FARLEY TRANSPORTATION INC","Address":"2807 S Airport Way","City":"Stockton","State":"CA","Zip":"95206"},{"Location":"FFE TRANSPORTATION","Address":"2728 Boeing Way","City":"Stockton","State":"CA","Zip":"95206"},{"Location":"GALILEE BAPTIST CHURCH","Address":"1810 E 10th St","City":"Stockton","State":"CA","Zip":"95206"},{"Location":"HIGHLAND WHOLESALE FOODS","Address":"1604 Tillie Lewis Dr","City":"Stockton","State":"CA","Zip":"95206"},{"Location":"JOHN AGULIAR AND COMPANY INC","Address":"1505 Navy Dr","City":"Stockton","State":"CA","Zip":"95206"},{"Location":"LASSEN FARMS","Address":"1807 Navy Dr 9","City":"Stockton","State":"CA","Zip":"95206"},{"Location":"LES SCHWAB TIRES","Address":"1717 W Charter Way","City":"Stockton","State":"CA","Zip":"95206"},{"Location":"LOUIES CHINESE RESTURANT","Address":"3538 Manthey Lowe","City":"Stockton","State":"CA","Zip":"95206"},{"Location":"LUPITAS","Address":"1800 W Charter Way","City":"Stockton","State":"CA","Zip":"95206"},{"Location":"MANNILA FOODS","Address":"3550 Manthey Rd A","City":"Stockton","State":"CA","Zip":"95206"},{"Location":"MOUNTAIN MIKES PIZZA","Address":"3526 Manthey Rd B","City":"Stockton","State":"CA","Zip":"95206"},{"Location":"PRISM TEAM SERVICES INC","Address":"3656 Perlman Dr","City":"Stockton","State":"CA","Zip":"95206"},{"Location":"RANCHO SAN MIGUEL","Address":"1409 S Airport Way","City":"Stockton","State":"CA","Zip":"95206"},{"Location":"REACH AIR MEDICAL","Address":"6364 Lindbergh St","City":"Stockton","State":"CA","Zip":"95206"},{"Location":"RYDER INTEGRATED LOGISTI","Address":"1111 Runway Dr Ste10","City":"Stockton","State":"CA","Zip":"95206"},{"Location":"SIMPSON STRONG TIE","Address":"5151 S Airport Way","City":"Stockton","State":"CA","Zip":"95206"},{"Location":"STAPLES","Address":"4510 Alitalia Way","City":"Stockton","State":"CA","Zip":"95206"},{"Location":"T MOBILE 4235100076","Address":"6750 Longe St 500","City":"Stockton","State":"CA","Zip":"95206"},{"Location":"TOP FLIGHT GRILLE AND CATERING","Address":"5000 S Airport Way","City":"Stockton","State":"CA","Zip":"95206"},{"Location":"TOYS R US","Address":"1624 Army Ct","City":"Stockton","State":"CA","Zip":"95206"},{"Location":"UNIVERSAL SERVICE RECYCLING","Address":"3200 S Eldorado St","City":"Stockton","State":"CA","Zip":"95206"},{"Location":"VALLEY LUMBER","Address":"1850 S El Dorado St","City":"Stockton","State":"CA","Zip":"95206"},{"Location":"VALLEY PACIFIC SERVICES","Address":"152 Frank West Cir 100","City":"Stockton","State":"CA","Zip":"95206"},{"Location":"VAN BUSKIRK GOLF COURSE","Address":"1740 Houston Ave","City":"Stockton","State":"CA","Zip":"95206"},{"Location":"VERIZON  WIRELESS A","Address":"3202 Mourfield Ave","City":"Stockton","State":"CA","Zip":"95206"},{"Location":"W. L. BUTLER","Address":"140 Frank West Cir 100","City":"Stockton","State":"CA","Zip":"95206"},{"Location":"WINDMILL COVE BAR&RESTUR","Address":"7606 Windmill Cv","City":"Stockton","State":"CA","Zip":"95206"},{"Location":"WINDMILL COVE RESORT & MARINA","Address":"7600 Windmill Cv","City":"Stockton","State":"CA","Zip":"95206"}]