[{"Location":"A CITY LIGHT SESSION","Address":"148 N Wilson Way","City":"Stockton","State":"CA","Zip":"95205"},{"Location":"ANGELINAS SPAGHETTI HOUSE","Address":"1563 E Fremont St","City":"Stockton","State":"CA","Zip":"95205"},{"Location":"CALFORINA WATER SERVICE","Address":"1505 East Sonora St","City":"Stockton","State":"CA","Zip":"95205"},{"Location":"CALIFORNIA WATER SERVICE","Address":"1602 E Lafayette St","City":"Stockton","State":"CA","Zip":"95205"},{"Location":"DIAMOND FOODS INC","Address":"1050 Diamond St","City":"Stockton","State":"CA","Zip":"95205"},{"Location":"FERGUSON #0585","Address":"1705 N Broadway Ave","City":"Stockton","State":"CA","Zip":"95205"},{"Location":"FREMONT CENTER MARKET","Address":"2517 E Fremont St","City":"Stockton","State":"CA","Zip":"95205"},{"Location":"GORDONS CLUB","Address":"1002 Waterloo Rd","City":"Stockton","State":"CA","Zip":"95205"},{"Location":"HACIENDA SAHUYO","Address":"902 Waterloo Rd","City":"Stockton","State":"CA","Zip":"95205"},{"Location":"HARJIT SINGH","Address":"430 N Airport Way","City":"Stockton","State":"CA","Zip":"95205"},{"Location":"HAROLD W THOMPSON INC","Address":"2580 Teepee Dr A","City":"Stockton","State":"CA","Zip":"95205"},{"Location":"KMART","Address":"2180 E Mariposa Rd","City":"Stockton","State":"CA","Zip":"95205"},{"Location":"LAS ISLITAS","Address":"1675 E Mariposa Rd","City":"Stockton","State":"CA","Zip":"95205"},{"Location":"MARSHELLIS BEAUTY SALON","Address":"3219 Waterloo Rd","City":"Stockton","State":"CA","Zip":"95205"},{"Location":"MCDONALDS 6","Address":"1009 N Wilson Way","City":"Stockton","State":"CA","Zip":"95205"},{"Location":"MV TRANSPORTATION","Address":"120 N Filbert St","City":"Stockton","State":"CA","Zip":"95205"},{"Location":"PLANNED PARENTHOOD MAR MONTE","Address":"678 N Wilson Way","City":"Stockton","State":"CA","Zip":"95205"},{"Location":"PORT CITY BARBER SHOP","Address":"2273 E Main St","City":"Stockton","State":"CA","Zip":"95205"},{"Location":"ROD JOHNSON AIR INC","Address":"1553 N Broadway Ave","City":"Stockton","State":"CA","Zip":"95205"},{"Location":"SAN JOAQUIN RTD","Address":"120 N Filbert St","City":"Stockton","State":"CA","Zip":"95205"},{"Location":"TAQUERIA EL GRULLENSE","Address":"2205 Waterloo Rd","City":"Stockton","State":"CA","Zip":"95205"},{"Location":"THE OUTLET","Address":"1212 E Harding Way","City":"Stockton","State":"CA","Zip":"95205"},{"Location":"TMW & ASSOCIATES INC","Address":"1725 Sanguinetti Ln","City":"Stockton","State":"CA","Zip":"95205"},{"Location":"TOMMYS CAFE","Address":"678 N Wilson Way","City":"Stockton","State":"CA","Zip":"95205"},{"Location":"VEPO SYSTEMS","Address":"4001 N Wilson Way","City":"Stockton","State":"CA","Zip":"95205"},{"Location":"WILSON WAY LAUNDERLAND","Address":"1060 N Wilson Way","City":"Stockton","State":"CA","Zip":"95205"}]