[{"Location":"ALFALFAS PIZZA AND FOOD","Address":"335 E Weber Ave","City":"Stockton","State":"CA","Zip":"95202"},{"Location":"BANK OF  AGRICULTURE","Address":"517 E Weber Ave","City":"Stockton","State":"CA","Zip":"95202"},{"Location":"BENTO","Address":"357 E Market St","City":"Stockton","State":"CA","Zip":"95202"},{"Location":"BV LOCK KEY","Address":"925 N El Dorado St","City":"Stockton","State":"CA","Zip":"95202"},{"Location":"CANCUN RESTAURANT","Address":"135 E Miner Ave","City":"Stockton","State":"CA","Zip":"95202"},{"Location":"DIGNITY ALCOVE","Address":"141 S California St","City":"Stockton","State":"CA","Zip":"95202"},{"Location":"FAT CITY LOUNGE","Address":"344 N California St","City":"Stockton","State":"CA","Zip":"95202"},{"Location":"GREY HOUND BUS LINE 8969","Address":"121 S Center St","City":"Stockton","State":"CA","Zip":"95202"},{"Location":"IN SHAPE HEALTH CLUBS INC","Address":"6 S El Dorado St 700","City":"Stockton","State":"CA","Zip":"95202"},{"Location":"MARIAS MEXICAN","Address":"120 E Market St","City":"Stockton","State":"CA","Zip":"95202"},{"Location":"MISAKI","Address":"222 N El Dorado St M","City":"Stockton","State":"CA","Zip":"95202"},{"Location":"MR DS PIZZA AND PUB","Address":"122 E Oak St","City":"Stockton","State":"CA","Zip":"95202"},{"Location":"NEW LIFE CHURCH","Address":"535 E Channel St","City":"Stockton","State":"CA","Zip":"95202"},{"Location":"Q 'S KOREAN B-B-Q","Address":"222 N El Dorado St","City":"Stockton","State":"CA","Zip":"95202"},{"Location":"RESTAURANT PUERTO VALLARTA","Address":"11 N Center St","City":"Stockton","State":"CA","Zip":"95202"},{"Location":"SAN JOAQUIN COUNCIL GOVERNMENT","Address":"555 E Weber Ave","City":"Stockton","State":"CA","Zip":"95202"},{"Location":"SAN JOAQUIN REGIONAL TRANSIT","Address":"421 E Weber Ave","City":"Stockton","State":"CA","Zip":"95202"},{"Location":"STOCKTON POLICE OFFICERS ASSOC","Address":"217 Fyffe Rd Ste A","City":"Stockton","State":"CA","Zip":"95202"},{"Location":"SUPERIOR COURT OF CALIFORNIA","Address":"222 E Weber Ave 130","City":"Stockton","State":"CA","Zip":"95202"},{"Location":"THE GAVEL","Address":"548 E Weber Ave","City":"Stockton","State":"CA","Zip":"95202"},{"Location":"THE RECORD","Address":"530 E Market St","City":"Stockton","State":"CA","Zip":"95202"},{"Location":"THE STORE","Address":"235 E Fremont St","City":"Stockton","State":"CA","Zip":"95202"},{"Location":"UNIFIRST","Address":"819 N Hunter St","City":"Stockton","State":"CA","Zip":"95202"},{"Location":"UNIV PLAZA WATERFRONT","Address":"110 W Fremont St","City":"Stockton","State":"CA","Zip":"95202"},{"Location":"ALFALFAS PIZZA AND FOOD","Address":"335 E Weber Ave","City":"Stockton","State":"CA","Zip":"95202"},{"Location":"BANK OF  AGRICULTURE","Address":"517 E Weber Ave","City":"Stockton","State":"CA","Zip":"95202"},{"Location":"BENTO","Address":"357 E Market St","City":"Stockton","State":"CA","Zip":"95202"},{"Location":"CANCUN RESTAURANT","Address":"135 E Miner Ave","City":"Stockton","State":"CA","Zip":"95202"},{"Location":"DIGNITY ALCOVE","Address":"141 S California St","City":"Stockton","State":"CA","Zip":"95202"},{"Location":"FAT CITY LOUNGE","Address":"344 N California St","City":"Stockton","State":"CA","Zip":"95202"},{"Location":"GREY HOUND BUS LINE 8969","Address":"121 S Center St","City":"Stockton","State":"CA","Zip":"95202"},{"Location":"IN SHAPE HEALTH CLUBS INC","Address":"6 S El Dorado St 700","City":"Stockton","State":"CA","Zip":"95202"},{"Location":"MARIAS MEXICAN","Address":"120 E Market St","City":"Stockton","State":"CA","Zip":"95202"},{"Location":"MISAKI","Address":"222 N El Dorado St M","City":"Stockton","State":"CA","Zip":"95202"},{"Location":"MR DS PIZZA AND PUB","Address":"122 E Oak St","City":"Stockton","State":"CA","Zip":"95202"},{"Location":"NEW LIFE CHURCH","Address":"535 E Channel St","City":"Stockton","State":"CA","Zip":"95202"},{"Location":"Q 'S Korean B-B-Q","Address":"222 N El Dorado St","City":"Stockton","State":"CA","Zip":"95202"},{"Location":"RESTAURANT PUERTO VALLARTA","Address":"11 N Center St","City":"Stockton","State":"CA","Zip":"95202"},{"Location":"SAN JOAQUIN COUNCIL GOVERNMENT","Address":"555 E Weber Ave","City":"Stockton","State":"CA","Zip":"95202"},{"Location":"SAN JOAQUIN REGIONAL TRANSIT","Address":"421 E Weber Ave","City":"Stockton","State":"CA","Zip":"95202"},{"Location":"STOCKTON POLICE OFFICERS ASSOC","Address":"217 Fyffe Rd Ste A","City":"Stockton","State":"CA","Zip":"95202"},{"Location":"SUPERIOR COURT OF CALIFORNIA","Address":"222 E Weber Ave 130","City":"Stockton","State":"CA","Zip":"95202"},{"Location":"THE GAVEL","Address":"548 E Weber Ave","City":"Stockton","State":"CA","Zip":"95202"},{"Location":"THE RECORD","Address":"530 E Market St","City":"Stockton","State":"CA","Zip":"95202"},{"Location":"THE STORE","Address":"235 E Fremont St","City":"Stockton","State":"CA","Zip":"95202"},{"Location":"UNIFIRST","Address":"819 N Hunter St","City":"Stockton","State":"CA","Zip":"95202"},{"Location":"UNIV PLAZA WATERFRONT","Address":"110 W Fremont St","City":"Stockton","State":"CA","Zip":"95202"}]