[{"Location":"APPLEBEE'S #2140024","Address":"2659 W March Ln","City":"Stockton","State":"CA","Zip":"95207"},{"Location":"ARROYO'S CAFE","Address":"2381 W March Ln","City":"Stockton","State":"CA","Zip":"95207"},{"Location":"BANK OF   AGRICULTURE","Address":"2001 W March Ln","City":"Stockton","State":"CA","Zip":"95207"},{"Location":"BASIL'S","Address":"2324 Grand Canal Blvd 4","City":"Stockton","State":"CA","Zip":"95207"},{"Location":"BENSCH RESEARCH ASSOCIATES","Address":"4632 George Town Pl","City":"Stockton","State":"CA","Zip":"95207"},{"Location":"BEVERLY HEALTH CARE CENTER","Address":"4545 Shelley Ct","City":"Stockton","State":"CA","Zip":"95207"},{"Location":"BILL PARKS AUTO REPAIR","Address":"6522 Pacific Ave","City":"Stockton","State":"CA","Zip":"95207"},{"Location":"BJS RESTAURANT #463","Address":"5733 Pacific Ave","City":"Stockton","State":"CA","Zip":"95207"},{"Location":"BLOOD SOURCE STOCKTON","Address":"6385 Pacific Ave","City":"Stockton","State":"CA","Zip":"95207"},{"Location":"BUFFALO WILD WINGS #0295","Address":"4751 Pacific Ave","City":"Stockton","State":"CA","Zip":"95207"},{"Location":"BUSINESS CREATIONS","Address":"1461 W March Ln","City":"Stockton","State":"CA","Zip":"95207"},{"Location":"CALIFORNIA FITNESS 360","Address":"840 W Benjamin Holt Dr","City":"Stockton","State":"CA","Zip":"95207"},{"Location":"CALONE LAW GROUP LLP","Address":"1810 Grand Canel Bvld 6","City":"Stockton","State":"CA","Zip":"95207"},{"Location":"CHILI'S #0504","Address":"5756 Pacific Ave","City":"Stockton","State":"CA","Zip":"95207"},{"Location":"CIAO  BELLA","Address":"5644 N Pershing Ave","City":"Stockton","State":"CA","Zip":"95207"},{"Location":"CODE3WEAR","Address":"425 Lincoln Ctr","City":"Stockton","State":"CA","Zip":"95207"},{"Location":"DAVIDS PIZZA","Address":"900 W Benjamin Holt Dr","City":"Stockton","State":"CA","Zip":"95207"},{"Location":"DELTA CASINO","Address":"6518 Pacific Ave","City":"Stockton","State":"CA","Zip":"95207"},{"Location":"DICK'S SPORTING GOODS #1176","Address":"5354 Pacific Ave","City":"Stockton","State":"CA","Zip":"95207"},{"Location":"EJ WILLIAMS PROPERTY MANAGER","Address":"5637 N Pershing Ave D","City":"Stockton","State":"CA","Zip":"95207"},{"Location":"EL ANTOJITO JUICE BAR","Address":"127 E Jamestown St A","City":"Stockton","State":"CA","Zip":"95207"},{"Location":"EL SENOR FROG MEXICAN","Address":"7217 Pacific Ave","City":"Stockton","State":"CA","Zip":"95207"},{"Location":"EL TORITO 7048","Address":"2593 W March Ln","City":"Stockton","State":"CA","Zip":"95207"},{"Location":"FARMERS & MERCHANTS BANK","Address":"205 Lincoln Ctr","City":"Stockton","State":"CA","Zip":"95207"},{"Location":"FARMERS AND MERCHANTS BANK","Address":"4612 Mcgaw St","City":"Stockton","State":"CA","Zip":"95207"},{"Location":"FATS GRILL & BAR","Address":"4555 N Pershing Ave 22","City":"Stockton","State":"CA","Zip":"95207"},{"Location":"FINNEGANS IRISH PUB AND REST","Address":"6002 Pacific Ave","City":"Stockton","State":"CA","Zip":"95207"},{"Location":"FIT U FITNESS","Address":"4950 Claremont Ave","City":"Stockton","State":"CA","Zip":"95207"},{"Location":"GENESI","Address":"836 W Benjamin Holt Dr","City":"Stockton","State":"CA","Zip":"95207"},{"Location":"GLOBAL AUTO PARTS","Address":"7827 Thornton Rd","City":"Stockton","State":"CA","Zip":"95207"},{"Location":"GRAND BUFFET","Address":"4704 Pacific Ave","City":"Stockton","State":"CA","Zip":"95207"},{"Location":"GRAY GHOST ENTERPRISE LLC","Address":"600 W Longview Ave","City":"Stockton","State":"CA","Zip":"95207"},{"Location":"HEADLINES","Address":"7538 Pacific Ave","City":"Stockton","State":"CA","Zip":"95207"},{"Location":"HILTON STOCKTON (0061274)","Address":"2323 Grand Canal Blvd","City":"Stockton","State":"CA","Zip":"95207"},{"Location":"HOPE CHEST THRIFT STORE","Address":"6112 Pacific Ave","City":"Stockton","State":"CA","Zip":"95207"},{"Location":"HYUNG KIM DDS MSD A PROF CORP","Address":"4637 Quail Lakes Dr","City":"Stockton","State":"CA","Zip":"95207"},{"Location":"IN SHAPE HEALTH CLUBS QUAIL","Address":"2303 W March Ln","City":"Stockton","State":"CA","Zip":"95207"},{"Location":"JOES POMODORO PIZZA CAFE","Address":"5654 N Pershing Ave","City":"Stockton","State":"CA","Zip":"95207"},{"Location":"KJ NAIL & SPA","Address":"4343 Pacific Ave D1","City":"Stockton","State":"CA","Zip":"95207"},{"Location":"MACARONI GRILL #1287","Address":"5420 Pacific Ave","City":"Stockton","State":"CA","Zip":"95207"},{"Location":"MACY'S WEST 338","Address":"5242 Pacific Ave","City":"Stockton","State":"CA","Zip":"95207"},{"Location":"MACY'S WEST 338 BR","Address":"5242 Pacific Ave","City":"Stockton","State":"CA","Zip":"95207"},{"Location":"MAGNOLIA NAIL SALON","Address":"929 W March Ln","City":"Stockton","State":"CA","Zip":"95207"},{"Location":"MARKET TAVERN","Address":"236 Lincoln Ctr","City":"Stockton","State":"CA","Zip":"95207"},{"Location":"MAYALL HURLEY","Address":"2453 Grand Canal Blvd 2","City":"Stockton","State":"CA","Zip":"95207"},{"Location":"MCDONALDS 4","Address":"2505 W March Ln","City":"Stockton","State":"CA","Zip":"95207"},{"Location":"MEN'S WEARHOUSE #2273","Address":"5756 Pacific Ave 44","City":"Stockton","State":"CA","Zip":"95207"},{"Location":"MICHAEL JORY DMD INC","Address":"4549 Quail Lakes Dr","City":"Stockton","State":"CA","Zip":"95207"},{"Location":"MIDGLEYS PUBLIC HOUSE","Address":"296 Lincoln Ctr","City":"Stockton","State":"CA","Zip":"95207"},{"Location":"NOR CAL SMOKE SHOP 2","Address":"811 E March Ln D","City":"Stockton","State":"CA","Zip":"95207"},{"Location":"OLIVE GARDEN #1779","Address":"2671 W March Ln","City":"Stockton","State":"CA","Zip":"95207"},{"Location":"OUTBACK STEAKHOUSE #0526","Address":"1243 W March Ln","City":"Stockton","State":"CA","Zip":"95207"},{"Location":"PACIFIC BOWL","Address":"5939 Pacific Ave","City":"Stockton","State":"CA","Zip":"95207"},{"Location":"PAYTERS GRILL","Address":"61 Lincoln Ctr","City":"Stockton","State":"CA","Zip":"95207"},{"Location":"PEKING","Address":"7555 Pacific Ave 115","City":"Stockton","State":"CA","Zip":"95207"},{"Location":"PINE STREET PHYSICAL","Address":"2357 W March Ln","City":"Stockton","State":"CA","Zip":"95207"},{"Location":"PLANET FITNESS STOCKTON","Address":"1155 W March Ln","City":"Stockton","State":"CA","Zip":"95207"},{"Location":"PLANNED PRNTHD MARMONTE","Address":"4555 Precissi Ln","City":"Stockton","State":"CA","Zip":"95207"},{"Location":"REBELS WHISKEY HOUSE INC","Address":"6252 Pacific Ave","City":"Stockton","State":"CA","Zip":"95207"},{"Location":"RED LOBSTER #0381","Address":"2283 W March Ln","City":"Stockton","State":"CA","Zip":"95207"},{"Location":"SHADOS STEAK HOUSE","Address":"7555 Pacific Ave","City":"Stockton","State":"CA","Zip":"95207"},{"Location":"SHEPHERD HOMES","Address":"5964 Glen St","City":"Stockton","State":"CA","Zip":"95207"},{"Location":"SIRGAUUANS SUPER HAIR","Address":"1209 W March Ln","City":"Stockton","State":"CA","Zip":"95207"},{"Location":"STOCKTON LOAN AND JEWELRY","Address":"4227 Pacific Ave","City":"Stockton","State":"CA","Zip":"95207"},{"Location":"SULIMAN ORTHODONICS","Address":"4534 Precissi Ln C","City":"Stockton","State":"CA","Zip":"95207"},{"Location":"SWINSON PK GOLF CLUB","Address":"6803 Alexandria Pl","City":"Stockton","State":"CA","Zip":"95207"},{"Location":"T B AND B RESTAURANT INC","Address":"856 W Benjamin Holt Dr","City":"Stockton","State":"CA","Zip":"95207"},{"Location":"TAQUERIA LOS TRES PRIMOS","Address":"4555 N Pershing Ave 18c","City":"Stockton","State":"CA","Zip":"95207"},{"Location":"TARGET","Address":"4707 Pacific Ave","City":"Stockton","State":"CA","Zip":"95207"},{"Location":"THE CAMEO CLUB","Address":"552 W Benjamin Holt Dr","City":"Stockton","State":"CA","Zip":"95207"},{"Location":"THE CANAL STREET SPORTS BAR","Address":"2323 Grand Canal Blvd","City":"Stockton","State":"CA","Zip":"95207"},{"Location":"THE RAIDERS IMAGE #932","Address":"4950 Pacific Ave 105","City":"Stockton","State":"CA","Zip":"95207"},{"Location":"TOGO","Address":"1433 W March Ln","City":"Stockton","State":"CA","Zip":"95207"},{"Location":"TOMMY'S CAFE","Address":"7407 Pacific Ave","City":"Stockton","State":"CA","Zip":"95207"},{"Location":"TRU BARBER STYLES","Address":"7811 Kelley Dr","City":"Stockton","State":"CA","Zip":"95207"},{"Location":"UNITED CEBRAL PALSY","Address":"7616 Pacific Ave A6","City":"Stockton","State":"CA","Zip":"95207"},{"Location":"VALLEY PACIFIC REALTY","Address":"2155 W March Ln 3","City":"Stockton","State":"CA","Zip":"95207"},{"Location":"VICKIS NAILS","Address":"7610 Pacific Ave B10","City":"Stockton","State":"CA","Zip":"95207"},{"Location":"WIENER SCHNITZEL","Address":"1107 W March Ln","City":"Stockton","State":"CA","Zip":"95207"},{"Location":"WINDSOR ELM HAVEN #1","Address":"6940 Pacific Ave","City":"Stockton","State":"CA","Zip":"95207"},{"Location":"WINDSOR ELM HAVEN #2","Address":"6940 Pacific Ave","City":"Stockton","State":"CA","Zip":"95207"},{"Location":"APPLEBEE'S #2140024","Address":"2659 W March Ln","City":"Stockton","State":"CA","Zip":"95207"},{"Location":"ARROYO'S CAFE","Address":"2381 W March Ln","City":"Stockton","State":"CA","Zip":"95207"},{"Location":"BANK OF   AGRICULTURE","Address":"2001 W March Ln","City":"Stockton","State":"CA","Zip":"95207"},{"Location":"BASIL'S","Address":"2324 Grand Canal Blvd 4","City":"Stockton","State":"CA","Zip":"95207"},{"Location":"BENSCH RESEARCH ASSOCIATES","Address":"4632 George Town Pl","City":"Stockton","State":"CA","Zip":"95207"},{"Location":"BEVERLY HEALTH CARE CENTER","Address":"4545 Shelley Ct","City":"Stockton","State":"CA","Zip":"95207"},{"Location":"BILL PARKS AUTO REPAIR","Address":"6522 Pacific Ave","City":"Stockton","State":"CA","Zip":"95207"},{"Location":"BJS RESTAURANT #463","Address":"5733 Pacific Ave","City":"Stockton","State":"CA","Zip":"95207"},{"Location":"BLOOD SOURCE STOCKTON","Address":"6385 Pacific Ave","City":"Stockton","State":"CA","Zip":"95207"},{"Location":"BUFFALO WILD WINGS #0295","Address":"4751 Pacific Ave","City":"Stockton","State":"CA","Zip":"95207"},{"Location":"BUSINESS CREATIONS","Address":"1461 W March Ln","City":"Stockton","State":"CA","Zip":"95207"},{"Location":"CALIFORNIA FITNESS 360","Address":"840 W Benjamin Holt Dr","City":"Stockton","State":"CA","Zip":"95207"},{"Location":"CALONE LAW GROUP LLP","Address":"1810 Grand Canel Bvld 6","City":"Stockton","State":"CA","Zip":"95207"},{"Location":"CHILI'S #0504","Address":"5756 Pacific Ave","City":"Stockton","State":"CA","Zip":"95207"},{"Location":"CIAO  BELLA","Address":"5644 N Pershing Ave","City":"Stockton","State":"CA","Zip":"95207"},{"Location":"CODE3WEAR","Address":"425 Lincoln Ctr","City":"Stockton","State":"CA","Zip":"95207"},{"Location":"DAVIDS PIZZA","Address":"900 W Benjamin Holt Dr","City":"Stockton","State":"CA","Zip":"95207"},{"Location":"DELTA CASINO","Address":"6518 Pacific Ave","City":"Stockton","State":"CA","Zip":"95207"},{"Location":"DICK'S SPORTING GOODS #1176","Address":"5354 Pacific Ave","City":"Stockton","State":"CA","Zip":"95207"},{"Location":"EJ WILLIAMS PROPERTY MANAGER","Address":"5637 N Pershing Ave D","City":"Stockton","State":"CA","Zip":"95207"},{"Location":"EL ANTOJITO JUICE BAR","Address":"127 E Jamestown St A","City":"Stockton","State":"CA","Zip":"95207"},{"Location":"EL SENOR FROG MEXICAN","Address":"7217 Pacific Ave","City":"Stockton","State":"CA","Zip":"95207"},{"Location":"EL TORITO 7048","Address":"2593 W March Ln","City":"Stockton","State":"CA","Zip":"95207"},{"Location":"FARMERS & MERCHANTS BANK","Address":"205 Lincoln Ctr","City":"Stockton","State":"CA","Zip":"95207"},{"Location":"FARMERS AND MERCHANTS BANK","Address":"4612 Mcgaw St","City":"Stockton","State":"CA","Zip":"95207"},{"Location":"FATS GRILL & BAR","Address":"4555 N Pershing Ave 22","City":"Stockton","State":"CA","Zip":"95207"},{"Location":"FINNEGANS IRISH PUB AND REST","Address":"6002 Pacific Ave","City":"Stockton","State":"CA","Zip":"95207"},{"Location":"FIT U FITNESS","Address":"4950 Claremont Ave","City":"Stockton","State":"CA","Zip":"95207"},{"Location":"GENESI","Address":"836 W Benjamin Holt Dr","City":"Stockton","State":"CA","Zip":"95207"},{"Location":"GLOBAL AUTO PARTS","Address":"7827 Thornton Rd","City":"Stockton","State":"CA","Zip":"95207"},{"Location":"GRAND BUFFET","Address":"4704 Pacific Ave","City":"Stockton","State":"CA","Zip":"95207"},{"Location":"GRAY GHOST ENTERPRISE LLC","Address":"600 W Longview Ave","City":"Stockton","State":"CA","Zip":"95207"},{"Location":"HEADLINES","Address":"7538 Pacific Ave","City":"Stockton","State":"CA","Zip":"95207"},{"Location":"HILTON STOCKTON (0061274)","Address":"2323 Grand Canal Blvd","City":"Stockton","State":"CA","Zip":"95207"},{"Location":"HOPE CHEST THRIFT STORE","Address":"6112 Pacific Ave","City":"Stockton","State":"CA","Zip":"95207"},{"Location":"HYUNG KIM DDS MSD A PROF CORP","Address":"4637 Quail Lakes Dr","City":"Stockton","State":"CA","Zip":"95207"},{"Location":"IN SHAPE HEALTH CLUBS QUAIL","Address":"2303 W March Ln","City":"Stockton","State":"CA","Zip":"95207"},{"Location":"JOES POMODORO PIZZA CAFE","Address":"5654 N Pershing Ave","City":"Stockton","State":"CA","Zip":"95207"},{"Location":"KJ NAIL & SPA","Address":"4343 Pacific Ave D1","City":"Stockton","State":"CA","Zip":"95207"},{"Location":"MACARONI GRILL #1287","Address":"5420 Pacific Ave","City":"Stockton","State":"CA","Zip":"95207"},{"Location":"MACY'S WEST 338","Address":"5242 Pacific Ave","City":"Stockton","State":"CA","Zip":"95207"},{"Location":"MACY'S WEST 338 BR","Address":"5242 Pacific Ave","City":"Stockton","State":"CA","Zip":"95207"},{"Location":"MAGNOLIA NAIL SALON","Address":"929 W March Ln","City":"Stockton","State":"CA","Zip":"95207"},{"Location":"MARKET TAVERN","Address":"236 Lincoln Ctr","City":"Stockton","State":"CA","Zip":"95207"},{"Location":"MAYALL HURLEY","Address":"2453 Grand Canal Blvd 2","City":"Stockton","State":"CA","Zip":"95207"},{"Location":"MCDONALDS 4","Address":"2505 W March Ln","City":"Stockton","State":"CA","Zip":"95207"},{"Location":"MEN'S WEARHOUSE #2273","Address":"5756 Pacific Ave 44","City":"Stockton","State":"CA","Zip":"95207"},{"Location":"MICHAEL JORY DMD INC","Address":"4549 Quail Lakes Dr","City":"Stockton","State":"CA","Zip":"95207"},{"Location":"MIDGLEYS PUBLIC HOUSE","Address":"296 Lincoln Ctr","City":"Stockton","State":"CA","Zip":"95207"},{"Location":"NOR CAL SMOKE SHOP 2","Address":"811 E March Ln D","City":"Stockton","State":"CA","Zip":"95207"},{"Location":"OLIVE GARDEN #1779","Address":"2671 W March Ln","City":"Stockton","State":"CA","Zip":"95207"},{"Location":"OUTBACK STEAKHOUSE #0526","Address":"1243 W March Ln","City":"Stockton","State":"CA","Zip":"95207"},{"Location":"PACIFIC BOWL","Address":"5939 Pacific Ave","City":"Stockton","State":"CA","Zip":"95207"},{"Location":"PAYTERS GRILL","Address":"61 Lincoln Ctr","City":"Stockton","State":"CA","Zip":"95207"},{"Location":"PEKING","Address":"7555 Pacific Ave 115","City":"Stockton","State":"CA","Zip":"95207"},{"Location":"PINE STREET PHYSICAL","Address":"2357 W March Ln","City":"Stockton","State":"CA","Zip":"95207"},{"Location":"PLANET FITNESS STOCKTON","Address":"1155 W March Ln","City":"Stockton","State":"CA","Zip":"95207"},{"Location":"PLANNED PRNTHD MARMONTE","Address":"4555 Precissi Ln","City":"Stockton","State":"CA","Zip":"95207"},{"Location":"REBELS WHISKEY HOUSE INC","Address":"6252 Pacific Ave","City":"Stockton","State":"CA","Zip":"95207"},{"Location":"RED LOBSTER #0381","Address":"2283 W March Ln","City":"Stockton","State":"CA","Zip":"95207"},{"Location":"SHADOS STEAK HOUSE","Address":"7555 Pacific Ave","City":"Stockton","State":"CA","Zip":"95207"},{"Location":"SHEPHERD HOMES","Address":"5964 Glen St","City":"Stockton","State":"CA","Zip":"95207"},{"Location":"SIRGAUUANS SUPER HAIR","Address":"1209 W March Ln","City":"Stockton","State":"CA","Zip":"95207"},{"Location":"STOCKTON LOAN AND JEWELRY","Address":"4227 Pacific Ave","City":"Stockton","State":"CA","Zip":"95207"},{"Location":"SULIMAN ORTHODONICS","Address":"4534 Precissi Ln C","City":"Stockton","State":"CA","Zip":"95207"},{"Location":"SWINSON PK GOLF CLUB","Address":"6803 Alexandria Pl","City":"Stockton","State":"CA","Zip":"95207"},{"Location":"T B AND B RESTAURANT INC","Address":"856 W Benjamin Holt Dr","City":"Stockton","State":"CA","Zip":"95207"},{"Location":"TAQUERIA LOS TRES PRIMOS","Address":"4555 N Pershing Ave 18c","City":"Stockton","State":"CA","Zip":"95207"},{"Location":"TARGET","Address":"4707 Pacific Ave","City":"Stockton","State":"CA","Zip":"95207"},{"Location":"THE CAMEO CLUB","Address":"552 W Benjamin Holt Dr","City":"Stockton","State":"CA","Zip":"95207"},{"Location":"THE CANAL STREET SPORTS BAR","Address":"2323 Grand Canal Blvd","City":"Stockton","State":"CA","Zip":"95207"},{"Location":"THE RAIDERS IMAGE #932","Address":"4950 Pacific Ave 105","City":"Stockton","State":"CA","Zip":"95207"},{"Location":"TOGO","Address":"1433 W March Ln","City":"Stockton","State":"CA","Zip":"95207"},{"Location":"TOMMY'S CAFE","Address":"7407 Pacific Ave","City":"Stockton","State":"CA","Zip":"95207"},{"Location":"TRU BARBER STYLES","Address":"7811 Kelley Dr","City":"Stockton","State":"CA","Zip":"95207"},{"Location":"UNITED CEBRAL PALSY","Address":"7616 Pacific Ave A6","City":"Stockton","State":"CA","Zip":"95207"},{"Location":"VALLEY PACIFIC REALTY","Address":"2155 W March Ln 3","City":"Stockton","State":"CA","Zip":"95207"},{"Location":"VICKIS NAILS","Address":"7610 Pacific Ave B10","City":"Stockton","State":"CA","Zip":"95207"},{"Location":"WIENER SCHNITZEL","Address":"1107 W March Ln","City":"Stockton","State":"CA","Zip":"95207"},{"Location":"WINDSOR ELM HAVEN #1","Address":"6940 Pacific Ave","City":"Stockton","State":"CA","Zip":"95207"},{"Location":"WINDSOR ELM HAVEN #2","Address":"6940 Pacific Ave","City":"Stockton","State":"CA","Zip":"95207"}]