[{"Location":"TOYO SUSHI","Address":"4011 E Morada Ln 100","City":"Morada","State":"CA","Zip":"95212"},{"Location":"BEST SANDWICHES & SMOOTHIES","Address":"3330 E Hammer Ln Ste C","City":"Stockton","State":"CA","Zip":"95212"},{"Location":"BEST SANDWICHES & SMOOTHIES","Address":"3330 E Hammer Ln #c","City":"Stockton","State":"CA","Zip":"95212"},{"Location":"DAVI NAILS","Address":"3223 E Hammer Ln","City":"Stockton","State":"CA","Zip":"95212"},{"Location":"KOES","Address":"10200 N Highway 99","City":"Stockton","State":"CA","Zip":"95212"},{"Location":"LES SCHWAB","Address":"3518 E Hammer Ln","City":"Stockton","State":"CA","Zip":"95212"},{"Location":"MAZDA OF STOCKTON INC","Address":"3158 Auto Center Cir","City":"Stockton","State":"CA","Zip":"95212"},{"Location":"MCDONALDS 20612","Address":"3355 E Hammer Ln","City":"Stockton","State":"CA","Zip":"95212"},{"Location":"MOUNTAIN MIKES PIZZA","Address":"4339 E Morada Ln 100","City":"Stockton","State":"CA","Zip":"95212"},{"Location":"ROUND TABLE PIZZA #928","Address":"8010 Holman Rd","City":"Stockton","State":"CA","Zip":"95212"},{"Location":"SAFE LITE AUTO GLASS","Address":"3158 E Hammer Ln","City":"Stockton","State":"CA","Zip":"95212"},{"Location":"SMOG TECH PROS","Address":"7700 Moreland St","City":"Stockton","State":"CA","Zip":"95212"},{"Location":"THE CRAB ZONE INC","Address":"3240 E Hammer Ln","City":"Stockton","State":"CA","Zip":"95212"},{"Location":"VOLKWAGON OF STOCKTON","Address":"2991 Auto Center Cir","City":"Stockton","State":"CA","Zip":"95212"}]