[{"Location":"24 HOUR FITNESS #557","Address":"3137 W Benjamin Holt Dr","City":"Stockton","State":"CA","Zip":"95219"},{"Location":"4 U SMC INC","Address":"10940 Trinity Pkwy H","City":"Stockton","State":"CA","Zip":"95219"},{"Location":"BROOKSIDE GOLF & COUNTRY CLUB","Address":"3603 Saint Andrews Dr","City":"Stockton","State":"CA","Zip":"95219"},{"Location":"COURTYARD STOCKTON","Address":"3252 W March Ln","City":"Stockton","State":"CA","Zip":"95219"},{"Location":"DAVE WONG ENTERPRISES","Address":"2828 W March Ln","City":"Stockton","State":"CA","Zip":"95219"},{"Location":"DELTA HEALTH SYSTEMS","Address":"3244 Brookside Rd","City":"Stockton","State":"CA","Zip":"95219"},{"Location":"DON MANN YACHT SALES INC","Address":"4950 Buckley Cove Way","City":"Stockton","State":"CA","Zip":"95219"},{"Location":"FILDIN DEVELOPMENT","Address":"17500 Venice Is","City":"Stockton","State":"CA","Zip":"95219"},{"Location":"FMC 71620000","Address":"3115 W March Ln","City":"Stockton","State":"CA","Zip":"95219"},{"Location":"GARLIC BROTHERS REST","Address":"6629 Embarcadero Dr","City":"Stockton","State":"CA","Zip":"95219"},{"Location":"HAPPINESS NAIL AND SPA","Address":"10952 Trinity Pkwy 2d","City":"Stockton","State":"CA","Zip":"95219"},{"Location":"IMAGE DENTAL","Address":"3453 Brookside Rd A","City":"Stockton","State":"CA","Zip":"95219"},{"Location":"IN SHAPE HEALTH CLUBS MARINA","Address":"6545 Embarcadero Dr","City":"Stockton","State":"CA","Zip":"95219"},{"Location":"KOHL'S #708","Address":"10850 Trinity Pkwy","City":"Stockton","State":"CA","Zip":"95219"},{"Location":"L AND L FARMS LLC","Address":"1 Medford Is 1","City":"Stockton","State":"CA","Zip":"95219"},{"Location":"LAUNDERLAND","Address":"3422 W Hammer Ln","City":"Stockton","State":"CA","Zip":"95219"},{"Location":"MORGAN STANLEY 100105","Address":"3421 Brookside Rd 105","City":"Stockton","State":"CA","Zip":"95219"},{"Location":"RAW SUSHI BISTRO","Address":"10742 Trinity Pkwy D","City":"Stockton","State":"CA","Zip":"95219"},{"Location":"ROUND TABLE PIZZA #929","Address":"10952 Trinity Pkwy A","City":"Stockton","State":"CA","Zip":"95219"},{"Location":"ROUND TABLE PIZZA #949","Address":"2819 W March Ln","City":"Stockton","State":"CA","Zip":"95219"},{"Location":"SCOTTRADE 04Y","Address":"2819 W March Ln A4","City":"Stockton","State":"CA","Zip":"95219"},{"Location":"SPORT CLIPS CA250","Address":"10318 Trinity Pkwy C","City":"Stockton","State":"CA","Zip":"95219"},{"Location":"ST FRANCIS YACHT CLUB","Address":"14344 Tinsley Is","City":"Stockton","State":"CA","Zip":"95219"},{"Location":"TARGET","Address":"10424 Trinity Pkwy","City":"Stockton","State":"CA","Zip":"95219"},{"Location":"THE OLD SPAGHETTI FACTORY","Address":"2702 W March Ln","City":"Stockton","State":"CA","Zip":"95219"},{"Location":"TOUCHSTONE GOLF LLC","Address":"6301 W Eight Mile Rd","City":"Stockton","State":"CA","Zip":"95219"},{"Location":"TUTTO BENE FOODS LLC","Address":"3499 Brookside Rd A","City":"Stockton","State":"CA","Zip":"95219"},{"Location":"VILLAGE WEST YACHT CLUB","Address":"6633 Embarcadero Dr","City":"Stockton","State":"CA","Zip":"95219"},{"Location":"VIP PIZZA","Address":"3499 Brookside Rd D","City":"Stockton","State":"CA","Zip":"95219"},{"Location":"WINGSTOP","Address":"10742 Trinity Pkwy C","City":"Stockton","State":"CA","Zip":"95219"},{"Location":"24 HOUR FITNESS #557","Address":"3137 W Benjamin Holt Dr","City":"Stockton","State":"CA","Zip":"95219"},{"Location":"4 U SMC INC","Address":"10940 Trinity Pkwy H","City":"Stockton","State":"CA","Zip":"95219"},{"Location":"BROOKSIDE GOLF & COUNTRY CLUB","Address":"3603 Saint Andrews Dr","City":"Stockton","State":"CA","Zip":"95219"},{"Location":"COURTYARD STOCKTON","Address":"3252 W March Ln","City":"Stockton","State":"CA","Zip":"95219"},{"Location":"DAVE WONG ENTERPRISES","Address":"2828 W March Ln","City":"Stockton","State":"CA","Zip":"95219"},{"Location":"DELTA HEALTH SYSTEMS","Address":"3244 Brookside Rd","City":"Stockton","State":"CA","Zip":"95219"},{"Location":"DON MANN YACHT SALES INC","Address":"4950 Buckley Cove Way","City":"Stockton","State":"CA","Zip":"95219"},{"Location":"FILDIN DEVELOPMENT","Address":"17500 Venice Is","City":"Stockton","State":"CA","Zip":"95219"},{"Location":"FMC 71620000","Address":"3115 W March Ln","City":"Stockton","State":"CA","Zip":"95219"},{"Location":"GARLIC BROTHERS REST","Address":"6629 Embarcadero Dr","City":"Stockton","State":"CA","Zip":"95219"},{"Location":"HAPPINESS NAIL AND SPA","Address":"10952 Trinity Pkwy 2d","City":"Stockton","State":"CA","Zip":"95219"},{"Location":"IMAGE DENTAL","Address":"3453 Brookside Rd A","City":"Stockton","State":"CA","Zip":"95219"},{"Location":"IN SHAPE HEALTH CLUBS MARINA","Address":"6545 Embarcadero Dr","City":"Stockton","State":"CA","Zip":"95219"},{"Location":"KOHL'S #708","Address":"10850 Trinity Pkwy","City":"Stockton","State":"CA","Zip":"95219"},{"Location":"L AND L FARMS LLC","Address":"1 Medford Is 1","City":"Stockton","State":"CA","Zip":"95219"},{"Location":"LAUNDERLAND","Address":"3422 W Hammer Ln","City":"Stockton","State":"CA","Zip":"95219"},{"Location":"MORGAN STANLEY 100105","Address":"3421 Brookside Rd 105","City":"Stockton","State":"CA","Zip":"95219"},{"Location":"RAW SUSHI BISTRO","Address":"10742 Trinity Pkwy D","City":"Stockton","State":"CA","Zip":"95219"},{"Location":"ROUND TABLE PIZZA #929","Address":"10952 Trinity Pkwy A","City":"Stockton","State":"CA","Zip":"95219"},{"Location":"ROUND TABLE PIZZA #949","Address":"2819 W March Ln","City":"Stockton","State":"CA","Zip":"95219"},{"Location":"SCOTTRADE 04Y","Address":"2819 W March Ln A4","City":"Stockton","State":"CA","Zip":"95219"},{"Location":"SPORT CLIPS CA250","Address":"10318 Trinity Pkwy C","City":"Stockton","State":"CA","Zip":"95219"},{"Location":"ST FRANCIS YACHT CLUB","Address":"14344 Tinsley Is","City":"Stockton","State":"CA","Zip":"95219"},{"Location":"TARGET","Address":"10424 Trinity Pkwy","City":"Stockton","State":"CA","Zip":"95219"},{"Location":"THE OLD SPAGHETTI FACTORY","Address":"2702 W March Ln","City":"Stockton","State":"CA","Zip":"95219"},{"Location":"TOUCHSTONE GOLF LLC","Address":"6301 W Eight Mile Rd","City":"Stockton","State":"CA","Zip":"95219"},{"Location":"TUTTO BENE FOODS LLC","Address":"3499 Brookside Rd A","City":"Stockton","State":"CA","Zip":"95219"},{"Location":"VILLAGE WEST YACHT CLUB","Address":"6633 Embarcadero Dr","City":"Stockton","State":"CA","Zip":"95219"},{"Location":"VIP PIZZA","Address":"3499 Brookside Rd D","City":"Stockton","State":"CA","Zip":"95219"},{"Location":"WINGSTOP","Address":"10742 Trinity Pkwy C","City":"Stockton","State":"CA","Zip":"95219"}]