[{"Location":"CALIFORNIA HIGHWAY PATROL","Address":"3330 N Ad Art Rd","City":"Stockton","State":"CA","Zip":"95215"},{"Location":"CENTRAL VALLEY TRUCK","Address":"3736 B South Hwy 99fronta B Con","City":"Stockton","State":"CA","Zip":"95215"},{"Location":"COLLEGEVILLE FIRE PROTECTION","Address":"13225 E Mariposa Rd","City":"Stockton","State":"CA","Zip":"95215"},{"Location":"DBI BEVERAGE","Address":"4547 Frontier Way","City":"Stockton","State":"CA","Zip":"95215"},{"Location":"EXEL","Address":"3735 Imperial Way","City":"Stockton","State":"CA","Zip":"95215"},{"Location":"EXEL","Address":"4512 Frontier Way","City":"Stockton","State":"CA","Zip":"95215"},{"Location":"FOX HEAD INC","Address":"4611 Newcastle Rd","City":"Stockton","State":"CA","Zip":"95215"},{"Location":"GIOVANNONI AND ASSOC","Address":"1013 Shaw Rd","City":"Stockton","State":"CA","Zip":"95215"},{"Location":"HAMPTON INN STOCKTON","Address":"5045 Kingsley Rd","City":"Stockton","State":"CA","Zip":"95215"},{"Location":"ITALIAN ATHLETIC CLUB","Address":"3541 N Cherryland Ave","City":"Stockton","State":"CA","Zip":"95215"},{"Location":"MIKE COLLINS","Address":"4505 N Jack Tone Rd","City":"Stockton","State":"CA","Zip":"95215"},{"Location":"NA CHADERJIAN","Address":"7650 Newcastle Rd","City":"Stockton","State":"CA","Zip":"95215"},{"Location":"O.H. CLOSE YCH","Address":"7650 Newcastle Rd","City":"Stockton","State":"CA","Zip":"95215"},{"Location":"PERKOS CAFE & GRILL","Address":"4300 E Waterloo Rd","City":"Stockton","State":"CA","Zip":"95215"},{"Location":"SEARS","Address":"2115 S Sinclair Ave","City":"Stockton","State":"CA","Zip":"95215"},{"Location":"STOCKTON INDOOR SPORTS COMPLEX","Address":"3251 N Ad Art Rd","City":"Stockton","State":"CA","Zip":"95215"},{"Location":"SYGMA NETWORK","Address":"3741 Gold River Ln","City":"Stockton","State":"CA","Zip":"95215"},{"Location":"V AND W DRILLING","Address":"3806 Duck Creek Dr","City":"Stockton","State":"CA","Zip":"95215"},{"Location":"WATERLOO GUN & BOCCE CLUB","Address":"4343 N Ashley Ln","City":"Stockton","State":"CA","Zip":"95215"},{"Location":"WESTERN TRUCK CENTER","Address":"3333 Highway 99 S W Frontage R","City":"Stockton","State":"CA","Zip":"95215"}]