[{"Location":"ACURA OF STOCKTON","Address":"2222 E Hammer Ln","City":"Stockton","State":"CA","Zip":"95210"},{"Location":"ASIA PALACE","Address":"8118 West Ln 105","City":"Stockton","State":"CA","Zip":"95210"},{"Location":"BLUE MOON","Address":"1239 E Hammer Ln B","City":"Stockton","State":"CA","Zip":"95210"},{"Location":"CHARLOTTES OAK HOA","Address":"1133 Woodbail Dr","City":"Stockton","State":"CA","Zip":"95210"},{"Location":"CHINA PALACE RESTAURANT","Address":"5052 West Ln 4c","City":"Stockton","State":"CA","Zip":"95210"},{"Location":"CITY OF STOCKTON WATER","Address":"7400 West Ln","City":"Stockton","State":"CA","Zip":"95210"},{"Location":"COIN LAUNDRY","Address":"1101 E March Ln K","City":"Stockton","State":"CA","Zip":"95210"},{"Location":"FIRESTONE #028746","Address":"720 E Hammer Ln 1","City":"Stockton","State":"CA","Zip":"95210"},{"Location":"GENESIS REALESTATE GROUP","Address":"5380 West Ln C","City":"Stockton","State":"CA","Zip":"95210"},{"Location":"GOLD'S GYM","Address":"1822 E Hammer Ln","City":"Stockton","State":"CA","Zip":"95210"},{"Location":"HAI KY","Address":"103 West Ln","City":"Stockton","State":"CA","Zip":"95210"},{"Location":"HOMEGROWN INDOOR GARDEN SUPPLY","Address":"681a Grider Way","City":"Stockton","State":"CA","Zip":"95210"},{"Location":"HOT POT","Address":"8032 N El Dorado St","City":"Stockton","State":"CA","Zip":"95210"},{"Location":"HURTADOS N AND J","Address":"7475 Murray Dr 5","City":"Stockton","State":"CA","Zip":"95210"},{"Location":"IMPERIAL STOCKTON INVEST","Address":"8700 West Ln","City":"Stockton","State":"CA","Zip":"95210"},{"Location":"IN SHAPE HEALTH CLUBS WESTLANE","Address":"1074 E Bianchi Rd","City":"Stockton","State":"CA","Zip":"95210"},{"Location":"JC MASTER TECH","Address":"4629 West Ln","City":"Stockton","State":"CA","Zip":"95210"},{"Location":"MODERN NUEROCARE MEDICAL","Address":"1801 E March Ln B220","City":"Stockton","State":"CA","Zip":"95210"},{"Location":"MONOROM RESTAURANT","Address":"8626 Lower Sacramento Rd 12","City":"Stockton","State":"CA","Zip":"95210"},{"Location":"PACIFIC GAS & ELECTRIC","Address":"8110 Lorraine Ave","City":"Stockton","State":"CA","Zip":"95210"},{"Location":"PAMPANGA","Address":"1619 E Hammer Ln 120","City":"Stockton","State":"CA","Zip":"95210"},{"Location":"PARADISE CLUB","Address":"10100 Lower Sacramento Rd","City":"Stockton","State":"CA","Zip":"95210"},{"Location":"PIZZA HUT LANE","Address":"7860 Lane St B3","City":"Stockton","State":"CA","Zip":"95210"},{"Location":"PIZZAGO","Address":"5066 West Ln E","City":"Stockton","State":"CA","Zip":"95210"},{"Location":"PRETTY TIM BUNT","Address":"8118 West Ln 107a","City":"Stockton","State":"CA","Zip":"95210"},{"Location":"PRETTY TIM DUNT AT JEWLERY","Address":"7912 N El Dorado St","City":"Stockton","State":"CA","Zip":"95210"},{"Location":"ROYCE JOHNSON","Address":"5151 Montauban Ave 200","City":"Stockton","State":"CA","Zip":"95210"},{"Location":"SAN JOAQUIN RTD","Address":"7735 Lower Sacramento Rd","City":"Stockton","State":"CA","Zip":"95210"},{"Location":"SATELLITE DIALYSIS STOCKTON","Address":"1801 E March Ln","City":"Stockton","State":"CA","Zip":"95210"},{"Location":"SIZZLER 55","Address":"1862 E Hammer Ln","City":"Stockton","State":"CA","Zip":"95210"},{"Location":"STOCKTON HONDA","Address":"2002 E Hammer Ln","City":"Stockton","State":"CA","Zip":"95210"},{"Location":"SUSHI HOUSE","Address":"7916 West Ln","City":"Stockton","State":"CA","Zip":"95210"},{"Location":"TL NODDLE","Address":"8118 West Ln","City":"Stockton","State":"CA","Zip":"95210"},{"Location":"TOYOTA TOWN","Address":"2150 E Hammer Ln","City":"Stockton","State":"CA","Zip":"95210"},{"Location":"VALLEY GARDENS NURSING REH.CEN","Address":"1517 Knickerbocker Dr","City":"Stockton","State":"CA","Zip":"95210"}]