[{"Location":"ARNOLD MEDICAL CLINIC","Address":"2182 Highway 4 A100","City":"Arnold","State":"CA","Zip":"95223"},{"Location":"BEAR VALLEY MOUNTAIN RESORT","Address":"207 Hwy W  Hwy 4","City":"Arnold","State":"CA","Zip":"95223"},{"Location":"FOX SECRUITY AND COMM INC","Address":"908 Moran Rd","City":"Arnold","State":"CA","Zip":"95223"},{"Location":"GRIZZLY BAR AND GRILL","Address":"3 Bear Valley Rd","City":"Arnold","State":"CA","Zip":"95223"},{"Location":"ROUND TABLE PIZZA","Address":"2182 Highway 4 300d","City":"Arnold","State":"CA","Zip":"95223"},{"Location":"SEQUOIA WOODS COUNTRY CLUB","Address":"1000 Cypress Point Dr","City":"Arnold","State":"CA","Zip":"95223"},{"Location":"SNOWSHOE BREWING COMPANY","Address":"2050 Old Highway 4","City":"Arnold","State":"CA","Zip":"95223"},{"Location":"BEAR VALLEY INVESTORS","Address":"45 Eberhandt Cir","City":"Bear Valley","State":"CA","Zip":"95223"},{"Location":"BEAR VALLEY MOUNTAIN RESORT10","Address":"148 Bear Valley Rd","City":"Bear Valley","State":"CA","Zip":"95223"},{"Location":"SKYHIGH PIZZA AND PUB","Address":"275 Bear Valley Rd","City":"Bear Valley","State":"CA","Zip":"95223"},{"Location":"DEPT OF AG UNITED STATES","Address":"5200 Highway 4","City":"Camp Connell","State":"CA","Zip":"95223"},{"Location":"ARNOLD MEDICAL CLINIC","Address":"2182 Highway 4 A100","City":"Arnold","State":"CA","Zip":"95223"},{"Location":"BEAR VALLEY MOUNTAIN RESORT","Address":"207 Hwy W  Hwy 4","City":"Arnold","State":"CA","Zip":"95223"},{"Location":"FOX SECRUITY AND COMM INC","Address":"908 Moran Rd","City":"Arnold","State":"CA","Zip":"95223"},{"Location":"GRIZZLY BAR AND GRILL","Address":"3 Bear Valley Rd","City":"Arnold","State":"CA","Zip":"95223"},{"Location":"ROUND TABLE PIZZA","Address":"2182 Highway 4 300d","City":"Arnold","State":"CA","Zip":"95223"},{"Location":"SEQUOIA WOODS COUNTRY CLUB","Address":"1000 Cypress Point Dr","City":"Arnold","State":"CA","Zip":"95223"},{"Location":"SNOWSHOE BREWING COMPANY","Address":"2050 Old Highway 4","City":"Arnold","State":"CA","Zip":"95223"},{"Location":"BEAR VALLEY INVESTORS","Address":"45 Eberhandt Cir","City":"Bear Valley","State":"CA","Zip":"95223"},{"Location":"BEAR VALLEY MOUNTAIN RESORT10","Address":"148 Bear Valley Rd","City":"Bear Valley","State":"CA","Zip":"95223"},{"Location":"SKYHIGH PIZZA AND PUB","Address":"275 Bear Valley Rd","City":"Bear Valley","State":"CA","Zip":"95223"},{"Location":"DEPT OF AG UNITED STATES","Address":"5200 Highway 4","City":"Camp Connell","State":"CA","Zip":"95223"}]