[{"Location":"ANNUEL HOLDINGS INC.","Address":"121 Town Square Rd","City":"Copperopolis","State":"CA","Zip":"95228"},{"Location":"COPPER GRILLE RESTAURANT","Address":"1001 Saddle Creek Dr","City":"Copperopolis","State":"CA","Zip":"95228"},{"Location":"DRIFTERS MARINA","Address":"6603 Lake Tulloch Pl","City":"Copperopolis","State":"CA","Zip":"95228"},{"Location":"MEXICO REST","Address":"42b Copper Cove Dr","City":"Copperopolis","State":"CA","Zip":"95228"},{"Location":"MICKI AND  LARRYS SPORTS","Address":"48 Copper Cove Dr","City":"Copperopolis","State":"CA","Zip":"95228"},{"Location":"OLD CORNER SALOON TAVERN","Address":"574 Main St","City":"Copperopolis","State":"CA","Zip":"95228"},{"Location":"PRIMOS","Address":"60 Copper Cove Dr E","City":"Copperopolis","State":"CA","Zip":"95228"},{"Location":"ROVEDATTIS","Address":"131 Town Square Rd","City":"Copperopolis","State":"CA","Zip":"95228"},{"Location":"SADDLE CREEK GOLF RESORT #1","Address":"1001 Saddle Creek Dr","City":"Copperopolis","State":"CA","Zip":"95228"},{"Location":"SADDLE CREEK GOLF RESORT #2","Address":"1001 Saddle Creek Dr","City":"Copperopolis","State":"CA","Zip":"95228"}]