[{"Location":"ACCEPTANCE INSURANCE SERVICES","Address":"617 E Pine St 101","City":"Lodi","State":"CA","Zip":"95240"},{"Location":"ANGELOS MEXICAN FOOD","Address":"28 N School St","City":"Lodi","State":"CA","Zip":"95240"},{"Location":"ANTONIOS MEXICAN RESTURANT","Address":"600 S Central Ave","City":"Lodi","State":"CA","Zip":"95240"},{"Location":"ARBOR SENIOR","Address":"117 Louie Ave","City":"Lodi","State":"CA","Zip":"95240"},{"Location":"BAYS BISTRO","Address":"215 N Cherokee Ln","City":"Lodi","State":"CA","Zip":"95240"},{"Location":"BONEYARD CROSSFIT","Address":"9040 E Highway 12","City":"Lodi","State":"CA","Zip":"95240"},{"Location":"BRIX HEALTH & WELLNESS","Address":"429 W Lockeford St B","City":"Lodi","State":"CA","Zip":"95240"},{"Location":"BUENO ITALILANO CAFE","Address":"1110 W Kettleman Ln","City":"Lodi","State":"CA","Zip":"95240"},{"Location":"CAS DE LODI MOBILE HOME","Address":"812 E Turner Rd","City":"Lodi","State":"CA","Zip":"95240"},{"Location":"CASA FLORES MEXICAN","Address":"400 E Kettleman Ln","City":"Lodi","State":"CA","Zip":"95240"},{"Location":"CHOE MASSAGE","Address":"326 W Rodi Av","City":"Lodi","State":"CA","Zip":"95240"},{"Location":"F & H CONSTRUCTION","Address":"1115 E Lockeford St","City":"Lodi","State":"CA","Zip":"95240"},{"Location":"F & M BANK","Address":"530 S Cherokee Ln","City":"Lodi","State":"CA","Zip":"95240"},{"Location":"FARMERS AND MERCHANTS BANK","Address":"1020 W Kettleman Ln","City":"Lodi","State":"CA","Zip":"95240"},{"Location":"FITNESS WORKS","Address":"429 W Lockeford St","City":"Lodi","State":"CA","Zip":"95240"},{"Location":"FRATERNAL ORDER OF EAGLES","Address":"217 E Lockeford St","City":"Lodi","State":"CA","Zip":"95240"},{"Location":"GEWEKE REAL ESTATE","Address":"1139 E Kettleman Ln","City":"Lodi","State":"CA","Zip":"95240"},{"Location":"GREG SACK LLC","Address":"1819 S Cherokee Ln 24","City":"Lodi","State":"CA","Zip":"95240"},{"Location":"HABANERO HOTS","Address":"1024 E Victor Rd","City":"Lodi","State":"CA","Zip":"95240"},{"Location":"HOPE HARBOR FAMILY SERVICE CTR","Address":"622 N Sacramento St","City":"Lodi","State":"CA","Zip":"95240"},{"Location":"KOHL'S #1366","Address":"530 W Kettleman Ln","City":"Lodi","State":"CA","Zip":"95240"},{"Location":"KUBOTA","Address":"1175 S Guild Ave","City":"Lodi","State":"CA","Zip":"95240"},{"Location":"LEAP FROGS","Address":"211 S Cherokee Ln","City":"Lodi","State":"CA","Zip":"95240"},{"Location":"LES SCHWAB - LODI","Address":"615 E Lodi Ave","City":"Lodi","State":"CA","Zip":"95240"},{"Location":"LOCKEFORD SPRINGS GOLF CLUB","Address":"16360 N Highway 88","City":"Lodi","State":"CA","Zip":"95240"},{"Location":"LODI    2821H","Address":"3021 Reynolds Ranch Pkwy","City":"Lodi","State":"CA","Zip":"95240"},{"Location":"LODI BEER COMPANY","Address":"105 S School St","City":"Lodi","State":"CA","Zip":"95240"},{"Location":"LODI CDJR","Address":"1255 S Beckman Rd","City":"Lodi","State":"CA","Zip":"95240"},{"Location":"LODI LODGE HALL ASSOCIATION","Address":"6 S Pleasant Ave","City":"Lodi","State":"CA","Zip":"95240"},{"Location":"LODI MEMORIAL HOSPITAL","Address":"1108 Cardinal St","City":"Lodi","State":"CA","Zip":"95240"},{"Location":"LODI WINE SELLERS","Address":"112 W Pine St","City":"Lodi","State":"CA","Zip":"95240"},{"Location":"LUSTRE-CAL","Address":"715 S Guild Ave","City":"Lodi","State":"CA","Zip":"95240"},{"Location":"MICKE GROVE GOLF LINKS","Address":"11401 N Micke Grove Rd","City":"Lodi","State":"CA","Zip":"95240"},{"Location":"NORTHSTAR EMERGENCY","Address":"2363 Maggio Cir A","City":"Lodi","State":"CA","Zip":"95240"},{"Location":"OLLIES PUB","Address":"22 N School St","City":"Lodi","State":"CA","Zip":"95240"},{"Location":"PLEASANTON FITNESS LLC","Address":"834 W Kettleman Ln","City":"Lodi","State":"CA","Zip":"95240"},{"Location":"PORTERS PUB","Address":"121 S School St","City":"Lodi","State":"CA","Zip":"95240"},{"Location":"RANCHO SAN MIGUEL","Address":"620 S Cherokee Ln","City":"Lodi","State":"CA","Zip":"95240"},{"Location":"ROSEWOOD BAR","Address":"28 S School St","City":"Lodi","State":"CA","Zip":"95240"},{"Location":"SAIGON GRILL","Address":"5 W Elm St","City":"Lodi","State":"CA","Zip":"95240"},{"Location":"SALVATION ARMY","Address":"331 N Stockton St 3","City":"Lodi","State":"CA","Zip":"95240"},{"Location":"SANBORN CHEVROLET INC","Address":"1210 S Cherokee Ln","City":"Lodi","State":"CA","Zip":"95240"},{"Location":"SB PLANNING  INC","Address":"215 W Oak St","City":"Lodi","State":"CA","Zip":"95240"},{"Location":"SHEPS SPORTS BAR AND GRI","Address":"123 W Elm St","City":"Lodi","State":"CA","Zip":"95240"},{"Location":"SNIDER DIEHL ANDRAFNUFFEN LLP","Address":"1111 W Tokay St","City":"Lodi","State":"CA","Zip":"95240"},{"Location":"STOOGES","Address":"105 W Pine St","City":"Lodi","State":"CA","Zip":"95240"},{"Location":"TAP HOUSE PIZZA","Address":"2525 S Hutchins St 11","City":"Lodi","State":"CA","Zip":"95240"},{"Location":"TAQUERIA EL GRULLENSE","Address":"117 N Sacramento St","City":"Lodi","State":"CA","Zip":"95240"},{"Location":"THE STADIUM","Address":"116 W Turner Rd","City":"Lodi","State":"CA","Zip":"95240"},{"Location":"TIN ROOF BBQ AND CATERING","Address":"171 S Guild Ave 101","City":"Lodi","State":"CA","Zip":"95240"},{"Location":"TODD FRANKLIN DDS","Address":"1208 W Tokay St","City":"Lodi","State":"CA","Zip":"95240"},{"Location":"TWIN ARBORS ATHLETIC CLUB","Address":"1900 S Hutchins St","City":"Lodi","State":"CA","Zip":"95240"},{"Location":"VALLEY SPA","Address":"321 N California St","City":"Lodi","State":"CA","Zip":"95240"},{"Location":"VINTAGE SPORTS GRILL","Address":"117 N Sacramento St A","City":"Lodi","State":"CA","Zip":"95240"},{"Location":"WINE COUNTRY CASINO AND RESTAU","Address":"1800 S Cherokee Ln","City":"Lodi","State":"CA","Zip":"95240"},{"Location":"ACCEPTANCE INSURANCE SERVICES","Address":"617 E Pine St 101","City":"Lodi","State":"CA","Zip":"95240"},{"Location":"ANGELOS MEXICAN FOOD","Address":"28 N School St","City":"Lodi","State":"CA","Zip":"95240"},{"Location":"ANTONIOS MEXICAN RESTURANT","Address":"600 S Central Ave","City":"Lodi","State":"CA","Zip":"95240"},{"Location":"ARBOR SENIOR","Address":"117 Louie Ave","City":"Lodi","State":"CA","Zip":"95240"},{"Location":"BAYS BISTRO","Address":"215 N Cherokee Ln","City":"Lodi","State":"CA","Zip":"95240"},{"Location":"BONEYARD CROSSFIT","Address":"9040 E Highway 12","City":"Lodi","State":"CA","Zip":"95240"},{"Location":"BRIX HEALTH & WELLNESS","Address":"429 W Lockeford St B","City":"Lodi","State":"CA","Zip":"95240"},{"Location":"BUENO ITALILANO CAFE","Address":"1110 W Kettleman Ln","City":"Lodi","State":"CA","Zip":"95240"},{"Location":"CAS DE LODI MOBILE HOME","Address":"812 E Turner Rd","City":"Lodi","State":"CA","Zip":"95240"},{"Location":"CASA FLORES MEXICAN","Address":"400 E Kettleman Ln","City":"Lodi","State":"CA","Zip":"95240"},{"Location":"CHOE MASSAGE","Address":"326 W Rodi Av","City":"Lodi","State":"CA","Zip":"95240"},{"Location":"F & H CONSTRUCTION","Address":"1115 E Lockeford St","City":"Lodi","State":"CA","Zip":"95240"},{"Location":"F & M BANK","Address":"530 S Cherokee Ln","City":"Lodi","State":"CA","Zip":"95240"},{"Location":"FARMERS AND MERCHANTS BANK","Address":"1020 W Kettleman Ln","City":"Lodi","State":"CA","Zip":"95240"},{"Location":"FITNESS WORKS","Address":"429 W Lockeford St","City":"Lodi","State":"CA","Zip":"95240"},{"Location":"FRATERNAL ORDER OF EAGLES","Address":"217 E Lockeford St","City":"Lodi","State":"CA","Zip":"95240"},{"Location":"GEWEKE REAL ESTATE","Address":"1139 E Kettleman Ln","City":"Lodi","State":"CA","Zip":"95240"},{"Location":"GREG SACK LLC","Address":"1819 S Cherokee Ln 24","City":"Lodi","State":"CA","Zip":"95240"},{"Location":"HABANERO HOTS","Address":"1024 E Victor Rd","City":"Lodi","State":"CA","Zip":"95240"},{"Location":"HOPE HARBOR FAMILY SERVICE CTR","Address":"622 N Sacramento St","City":"Lodi","State":"CA","Zip":"95240"},{"Location":"KOHL'S #1366","Address":"530 W Kettleman Ln","City":"Lodi","State":"CA","Zip":"95240"},{"Location":"KUBOTA","Address":"1175 S Guild Ave","City":"Lodi","State":"CA","Zip":"95240"},{"Location":"LEAP FROGS","Address":"211 S Cherokee Ln","City":"Lodi","State":"CA","Zip":"95240"},{"Location":"LES SCHWAB - LODI","Address":"615 E Lodi Ave","City":"Lodi","State":"CA","Zip":"95240"},{"Location":"LOCKEFORD SPRINGS GOLF CLUB","Address":"16360 N Highway 88","City":"Lodi","State":"CA","Zip":"95240"},{"Location":"LODI    2821H","Address":"3021 Reynolds Ranch Pkwy","City":"Lodi","State":"CA","Zip":"95240"},{"Location":"LODI BEER COMPANY","Address":"105 S School St","City":"Lodi","State":"CA","Zip":"95240"},{"Location":"LODI CDJR","Address":"1255 S Beckman Rd","City":"Lodi","State":"CA","Zip":"95240"},{"Location":"LODI LODGE HALL ASSOCIATION","Address":"6 S Pleasant Ave","City":"Lodi","State":"CA","Zip":"95240"},{"Location":"LODI MEMORIAL HOSPITAL","Address":"1108 Cardinal St","City":"Lodi","State":"CA","Zip":"95240"},{"Location":"LODI WINE SELLERS","Address":"112 W Pine St","City":"Lodi","State":"CA","Zip":"95240"},{"Location":"LUSTRE-CAL","Address":"715 S Guild Ave","City":"Lodi","State":"CA","Zip":"95240"},{"Location":"MICKE GROVE GOLF LINKS","Address":"11401 N Micke Grove Rd","City":"Lodi","State":"CA","Zip":"95240"},{"Location":"NORTHSTAR EMERGENCY","Address":"2363 Maggio Cir A","City":"Lodi","State":"CA","Zip":"95240"},{"Location":"OLLIES PUB","Address":"22 N School St","City":"Lodi","State":"CA","Zip":"95240"},{"Location":"PLEASANTON FITNESS LLC","Address":"834 W Kettleman Ln","City":"Lodi","State":"CA","Zip":"95240"},{"Location":"PORTERS PUB","Address":"121 S School St","City":"Lodi","State":"CA","Zip":"95240"},{"Location":"RANCHO SAN MIGUEL","Address":"620 S Cherokee Ln","City":"Lodi","State":"CA","Zip":"95240"},{"Location":"ROSEWOOD BAR","Address":"28 S School St","City":"Lodi","State":"CA","Zip":"95240"},{"Location":"SAIGON GRILL","Address":"5 W Elm St","City":"Lodi","State":"CA","Zip":"95240"},{"Location":"SALVATION ARMY","Address":"331 N Stockton St 3","City":"Lodi","State":"CA","Zip":"95240"},{"Location":"SANBORN CHEVROLET INC","Address":"1210 S Cherokee Ln","City":"Lodi","State":"CA","Zip":"95240"},{"Location":"SB PLANNING  INC","Address":"215 W Oak St","City":"Lodi","State":"CA","Zip":"95240"},{"Location":"SHEPS SPORTS BAR AND GRI","Address":"123 W Elm St","City":"Lodi","State":"CA","Zip":"95240"},{"Location":"SNIDER DIEHL ANDRAFNUFFEN LLP","Address":"1111 W Tokay St","City":"Lodi","State":"CA","Zip":"95240"},{"Location":"STOOGES","Address":"105 W Pine St","City":"Lodi","State":"CA","Zip":"95240"},{"Location":"TAP HOUSE PIZZA","Address":"2525 S Hutchins St 11","City":"Lodi","State":"CA","Zip":"95240"},{"Location":"TAQUERIA EL GRULLENSE","Address":"117 N Sacramento St","City":"Lodi","State":"CA","Zip":"95240"},{"Location":"THE STADIUM","Address":"116 W Turner Rd","City":"Lodi","State":"CA","Zip":"95240"},{"Location":"TIN ROOF BBQ AND CATERING","Address":"171 S Guild Ave 101","City":"Lodi","State":"CA","Zip":"95240"},{"Location":"TODD FRANKLIN DDS","Address":"1208 W Tokay St","City":"Lodi","State":"CA","Zip":"95240"},{"Location":"TWIN ARBORS ATHLETIC CLUB","Address":"1900 S Hutchins St","City":"Lodi","State":"CA","Zip":"95240"},{"Location":"VALLEY SPA","Address":"321 N California St","City":"Lodi","State":"CA","Zip":"95240"},{"Location":"VINTAGE SPORTS GRILL","Address":"117 N Sacramento St A","City":"Lodi","State":"CA","Zip":"95240"},{"Location":"WINE COUNTRY CASINO AND RESTAU","Address":"1800 S Cherokee Ln","City":"Lodi","State":"CA","Zip":"95240"}]