[{"Location":"5 LINX","Address":"2155 W Elm St","City":"Lodi","State":"CA","Zip":"95242"},{"Location":"APPLEBEE'S #2140023","Address":"2442 W Kettleman Ln","City":"Lodi","State":"CA","Zip":"95242"},{"Location":"BEN SCHAFFER CANCER INSTITUTE","Address":"311 S Ham Ln","City":"Lodi","State":"CA","Zip":"95242"},{"Location":"CENTRAL VALLEY COMMUNITY BANK","Address":"1901 W Kettleman Ln 100","City":"Lodi","State":"CA","Zip":"95242"},{"Location":"CHILI'S #1065","Address":"2745 W Kettleman Ln","City":"Lodi","State":"CA","Zip":"95242"},{"Location":"COMMUNITY BUSINESS BANK","Address":"1540 W Kettleman Ln","City":"Lodi","State":"CA","Zip":"95242"},{"Location":"DELTA REHAB CENTER #1","Address":"1334 S Ham Ln","City":"Lodi","State":"CA","Zip":"95242"},{"Location":"DELTA REHAB CENTER #2","Address":"1334 S Ham Ln","City":"Lodi","State":"CA","Zip":"95242"},{"Location":"DELTA REHAB CENTER #3","Address":"1334 S Ham Ln","City":"Lodi","State":"CA","Zip":"95242"},{"Location":"DELTA REHAB CENTER #4","Address":"1334 S Ham Ln","City":"Lodi","State":"CA","Zip":"95242"},{"Location":"DENNYS 8042","Address":"15237 N Thornton Rd","City":"Lodi","State":"CA","Zip":"95242"},{"Location":"DICKEYS LODI 592","Address":"1377 S Lower Sacramento Rd","City":"Lodi","State":"CA","Zip":"95242"},{"Location":"FARMERS AND MERCHANTS BANK","Address":"1387 S Lower Sacramento Rd","City":"Lodi","State":"CA","Zip":"95242"},{"Location":"FOOD 4 LESS","Address":"2430 W Kettleman Ln","City":"Lodi","State":"CA","Zip":"95242"},{"Location":"GENERAL MILLS","Address":"2000 W Turner Rd","City":"Lodi","State":"CA","Zip":"95242"},{"Location":"IN SHAPE 66 LODI","Address":"1320 W Lockeford St","City":"Lodi","State":"CA","Zip":"95242"},{"Location":"KOMACHI SUSHI","Address":"307 S Lower Sacramento Rd D","City":"Lodi","State":"CA","Zip":"95242"},{"Location":"LORENTE PROFESSIONAL SUITES","Address":"1920 Tienda Dr 101","City":"Lodi","State":"CA","Zip":"95242"},{"Location":"OZ  JAPANESE","Address":"2414 W Kettleman Ln 206","City":"Lodi","State":"CA","Zip":"95242"},{"Location":"PILOT FLYING J #61700","Address":"15237 N Thornton Rd","City":"Lodi","State":"CA","Zip":"95242"},{"Location":"ROUND TABLE PIZZA #930","Address":"2715 W Kettleman Ln","City":"Lodi","State":"CA","Zip":"95242"},{"Location":"RPM COMPANY","Address":"1420 S Mills Ave L","City":"Lodi","State":"CA","Zip":"95242"},{"Location":"SHERIS HAIR SHOP AND  BOUTIQUE","Address":"209 N Ham Ln 1308","City":"Lodi","State":"CA","Zip":"95242"},{"Location":"SHI RA SONI 2","Address":"1420 W Kettleman Ln","City":"Lodi","State":"CA","Zip":"95242"},{"Location":"STRINGS ITALIAN CAFE","Address":"2314 W Kettleman Ln","City":"Lodi","State":"CA","Zip":"95242"},{"Location":"TARGET","Address":"2355 W Kettleman Ln","City":"Lodi","State":"CA","Zip":"95242"},{"Location":"TWIN ARBOR TENNIS","Address":"2040 Cochran Rd","City":"Lodi","State":"CA","Zip":"95242"},{"Location":"VALLEY MRI AND RADIO","Address":"801 S Ham Ln Qr","City":"Lodi","State":"CA","Zip":"95242"},{"Location":"VAN RUITEN WINERY","Address":"340 W Highway 12","City":"Lodi","State":"CA","Zip":"95242"},{"Location":"VIENNA CONVALESCENT HOSPITAL","Address":"800 S Ham Ln","City":"Lodi","State":"CA","Zip":"95242"},{"Location":"5 LINX","Address":"2155 W Elm St","City":"Lodi","State":"CA","Zip":"95242"},{"Location":"APPLEBEE'S #2140023","Address":"2442 W Kettleman Ln","City":"Lodi","State":"CA","Zip":"95242"},{"Location":"BEN SCHAFFER CANCER INSTITUTE","Address":"311 S Ham Ln","City":"Lodi","State":"CA","Zip":"95242"},{"Location":"CENTRAL VALLEY COMMUNITY BANK","Address":"1901 W Kettleman Ln 100","City":"Lodi","State":"CA","Zip":"95242"},{"Location":"CHILI'S #1065","Address":"2745 W Kettleman Ln","City":"Lodi","State":"CA","Zip":"95242"},{"Location":"COMMUNITY BUSINESS BANK","Address":"1540 W Kettleman Ln","City":"Lodi","State":"CA","Zip":"95242"},{"Location":"DELTA REHAB CENTER #1","Address":"1334 S Ham Ln","City":"Lodi","State":"CA","Zip":"95242"},{"Location":"DELTA REHAB CENTER #2","Address":"1334 S Ham Ln","City":"Lodi","State":"CA","Zip":"95242"},{"Location":"DELTA REHAB CENTER #3","Address":"1334 S Ham Ln","City":"Lodi","State":"CA","Zip":"95242"},{"Location":"DELTA REHAB CENTER #4","Address":"1334 S Ham Ln","City":"Lodi","State":"CA","Zip":"95242"},{"Location":"DENNYS 8042","Address":"15237 N Thornton Rd","City":"Lodi","State":"CA","Zip":"95242"},{"Location":"DICKEYS LODI 592","Address":"1377 S Lower Sacramento Rd","City":"Lodi","State":"CA","Zip":"95242"},{"Location":"FARMERS AND MERCHANTS BANK","Address":"1387 S Lower Sacramento Rd","City":"Lodi","State":"CA","Zip":"95242"},{"Location":"FOOD 4 LESS","Address":"2430 W Kettleman Ln","City":"Lodi","State":"CA","Zip":"95242"},{"Location":"GENERAL MILLS","Address":"2000 W Turner Rd","City":"Lodi","State":"CA","Zip":"95242"},{"Location":"IN SHAPE 66 LODI","Address":"1320 W Lockeford St","City":"Lodi","State":"CA","Zip":"95242"},{"Location":"KOMACHI SUSHI","Address":"307 S Lower Sacramento Rd D","City":"Lodi","State":"CA","Zip":"95242"},{"Location":"LORENTE PROFESSIONAL SUITES","Address":"1920 Tienda Dr 101","City":"Lodi","State":"CA","Zip":"95242"},{"Location":"OZ  JAPANESE","Address":"2414 W Kettleman Ln 206","City":"Lodi","State":"CA","Zip":"95242"},{"Location":"PILOT FLYING J #61700","Address":"15237 N Thornton Rd","City":"Lodi","State":"CA","Zip":"95242"},{"Location":"ROUND TABLE PIZZA #930","Address":"2715 W Kettleman Ln","City":"Lodi","State":"CA","Zip":"95242"},{"Location":"RPM COMPANY","Address":"1420 S Mills Ave L","City":"Lodi","State":"CA","Zip":"95242"},{"Location":"SHERIS HAIR SHOP AND  BOUTIQUE","Address":"209 N Ham Ln 1308","City":"Lodi","State":"CA","Zip":"95242"},{"Location":"SHI RA SONI 2","Address":"1420 W Kettleman Ln","City":"Lodi","State":"CA","Zip":"95242"},{"Location":"STRINGS ITALIAN CAFE","Address":"2314 W Kettleman Ln","City":"Lodi","State":"CA","Zip":"95242"},{"Location":"TARGET","Address":"2355 W Kettleman Ln","City":"Lodi","State":"CA","Zip":"95242"},{"Location":"TWIN ARBOR TENNIS","Address":"2040 Cochran Rd","City":"Lodi","State":"CA","Zip":"95242"},{"Location":"VALLEY MRI AND RADIO","Address":"801 S Ham Ln Qr","City":"Lodi","State":"CA","Zip":"95242"},{"Location":"VAN RUITEN WINERY","Address":"340 W Highway 12","City":"Lodi","State":"CA","Zip":"95242"},{"Location":"VIENNA CONVALESCENT HOSPITAL","Address":"800 S Ham Ln","City":"Lodi","State":"CA","Zip":"95242"}]