[{"Location":"CREATIVE COOKWARE LLC","Address":"402 Main St B","City":"Murphys","State":"CA","Zip":"95247"},{"Location":"EL JARDIN1","Address":"484 E Highway 4","City":"Murphys","State":"CA","Zip":"95247"},{"Location":"HILLBILLIES RESTAURANT","Address":"55 E Highway 4","City":"Murphys","State":"CA","Zip":"95247"},{"Location":"MURPHYS HISTORIC HOTEL","Address":"457 Main St","City":"Murphys","State":"CA","Zip":"95247"},{"Location":"QUERENCIA","Address":"4383 Sheep Ranch Rd","City":"Murphys","State":"CA","Zip":"95247"},{"Location":"CREATIVE COOKWARE LLC","Address":"402 Main St B","City":"Murphys","State":"CA","Zip":"95247"},{"Location":"EL JARDIN1","Address":"484 E Highway 4","City":"Murphys","State":"CA","Zip":"95247"},{"Location":"HILLBILLIES RESTAURANT","Address":"55 E Highway 4","City":"Murphys","State":"CA","Zip":"95247"},{"Location":"MURPHYS HISTORIC HOTEL","Address":"457 Main St","City":"Murphys","State":"CA","Zip":"95247"},{"Location":"QUERENCIA","Address":"4383 Sheep Ranch Rd","City":"Murphys","State":"CA","Zip":"95247"}]