[{"Location":"CALAVERAS CONSOLIDATED PROTECT","Address":"129 S Highway 26","City":"Valley Springs","State":"CA","Zip":"95252"},{"Location":"DJS HAIR SALON","Address":"10 Nove Way I","City":"Valley Springs","State":"CA","Zip":"95252"},{"Location":"EURO SHOWER SURFACES","Address":"10757 Limestone Dr","City":"Valley Springs","State":"CA","Zip":"95252"},{"Location":"FAMILY MEDICAL CEN VALLEY SPGS","Address":"1919 Vista Del Logo","City":"Valley Springs","State":"CA","Zip":"95252"},{"Location":"LACONTENTA GOLF CLUB","Address":"1653 S Highway 26","City":"Valley Springs","State":"CA","Zip":"95252"},{"Location":"LACONTENTA GOLF CLUB 2","Address":"1653 S Highway 26","City":"Valley Springs","State":"CA","Zip":"95252"},{"Location":"LAS 3 MARIAS","Address":"7998 W Highway 12","City":"Valley Springs","State":"CA","Zip":"95252"},{"Location":"SMOKE HOUSE","Address":"1269 Quail Oaks Rd","City":"Valley Springs","State":"CA","Zip":"95252"},{"Location":"VALLEY SPRINGS SPORTS & FITNES","Address":"145 Mangili Rd","City":"Valley Springs","State":"CA","Zip":"95252"}]