[{"Location":"ACTION AUTO SALES","Address":"2017 Missle Rd #b B","City":"Ceres","State":"CA","Zip":"95307"},{"Location":"APPLEGATE TEEPLES DRILLING","Address":"4221 Brew Master Dr","City":"Ceres","State":"CA","Zip":"95307"},{"Location":"BLUE DIAMOND AUTO SALES","Address":"2130 Mitchell Rd","City":"Ceres","State":"CA","Zip":"95307"},{"Location":"BOBS COFFEE SHOP","Address":"2009 Central Ave","City":"Ceres","State":"CA","Zip":"95307"},{"Location":"BRONCO WINE CO","Address":"6342 Bystrum Rd","City":"Ceres","State":"CA","Zip":"95307"},{"Location":"CHARITY GIVES BACK","Address":"1937 Mitchell Rd","City":"Ceres","State":"CA","Zip":"95307"},{"Location":"CONCEPT AUTO BODY","Address":"2521 Railroad Ave","City":"Ceres","State":"CA","Zip":"95307"},{"Location":"DAVIS GUEST HOME 5","Address":"2405 Mauna Loa Dr","City":"Ceres","State":"CA","Zip":"95307"},{"Location":"DAVITA #2241 CERES","Address":"1768 Mitchell Rd","City":"Ceres","State":"CA","Zip":"95307"},{"Location":"FOOD 4 LESS","Address":"1515 Mitchell Rd 9","City":"Ceres","State":"CA","Zip":"95307"},{"Location":"GALLARDO BEAUTY SALON","Address":"3012 4th St","City":"Ceres","State":"CA","Zip":"95307"},{"Location":"HOPE CHEST 4","Address":"1791 Mitchell Rd","City":"Ceres","State":"CA","Zip":"95307"},{"Location":"IN SHAPE CITY CERES","Address":"1769 Mitchell Rd","City":"Ceres","State":"CA","Zip":"95307"},{"Location":"MCDONALDS 1247O","Address":"1500 Mitchell Rd","City":"Ceres","State":"CA","Zip":"95307"},{"Location":"MI LINDO CULIACAN","Address":"2600 Mitchell Rd Suitf","City":"Ceres","State":"CA","Zip":"95307"},{"Location":"MITCHELL PLAZA DENTAL","Address":"1788 Mitchell Rd 105","City":"Ceres","State":"CA","Zip":"95307"},{"Location":"NEW BEGINNINGS WEIGHT LOSS INC","Address":"3018 E Service Rd 104","City":"Ceres","State":"CA","Zip":"95307"},{"Location":"OMEGA BUSINESS SERVICES","Address":"3100 E Service Rd 106","City":"Ceres","State":"CA","Zip":"95307"},{"Location":"PIZZA HUT","Address":"2600 Mitchell Rd P","City":"Ceres","State":"CA","Zip":"95307"},{"Location":"ROUND TABLE PIZZA #914","Address":"1515 Mitchell Rd","City":"Ceres","State":"CA","Zip":"95307"},{"Location":"SOLE SAVER BOOT & SHOE R","Address":"2948 4th St","City":"Ceres","State":"CA","Zip":"95307"},{"Location":"SPECIALTY GRINDING AND MAC","Address":"2908 Joy Ave","City":"Ceres","State":"CA","Zip":"95307"},{"Location":"SWEET LUS 4TH ST LOUNGE","Address":"3014 4th St","City":"Ceres","State":"CA","Zip":"95307"},{"Location":"TELECARE CORPORATION","Address":"1904 Richland Ave","City":"Ceres","State":"CA","Zip":"95307"},{"Location":"VICHIKA KRY","Address":"2908 E Whitmore Ave D","City":"Ceres","State":"CA","Zip":"95307"}]