[{"Location":"TRACY FORD","Address":"3500 Auto Plaza Way","City":"Banta","State":"CA","Zip":"95304"},{"Location":"A-Z DRY FOOD DISTRIBUTIO","Address":"280 E Larch Rd 105","City":"Tracy","State":"CA","Zip":"95304"},{"Location":"AFGE","Address":"25600 South Chrisman Rd  #231","City":"Tracy","State":"CA","Zip":"95304"},{"Location":"ALL STAR  HEAVY HAUL & T","Address":"503 W Larch Rd K","City":"Tracy","State":"CA","Zip":"95304"},{"Location":"AMAZON TRACY CA","Address":"1555 N Chrisman Rd None","City":"Tracy","State":"CA","Zip":"95304"},{"Location":"APPLEBEE'S TRACY","Address":"3060 Naglee Rd","City":"Tracy","State":"CA","Zip":"95304"},{"Location":"BUFFALO WILD WINGS #0425","Address":"2796 Naglee Rd","City":"Tracy","State":"CA","Zip":"95304"},{"Location":"CARL MANUEL  NAVARRA RANCH","Address":"475 Blewett Rd","City":"Tracy","State":"CA","Zip":"95304"},{"Location":"COOKS COLLISION","Address":"2830 Auto Plaza Way 110","City":"Tracy","State":"CA","Zip":"95304"},{"Location":"DEFENSE DISTRIBUTION CENTER","Address":"25600 S Chrisman Rd #234 234","City":"Tracy","State":"CA","Zip":"95304"},{"Location":"DEFENSE LOGISTICS AGENCY","Address":"25600 S Crisman","City":"Tracy","State":"CA","Zip":"95304"},{"Location":"DICKEYS BBQ PIT","Address":"2469 Naglee Rd","City":"Tracy","State":"CA","Zip":"95304"},{"Location":"DLA INSTALLATION SUPPORT","Address":"25600 Crisman Rd 101","City":"Tracy","State":"CA","Zip":"95304"},{"Location":"DLA TRANSACTIONS SERVICE","Address":"25600 S Crisman Rd 100","City":"Tracy","State":"CA","Zip":"95304"},{"Location":"FAMOUS DAVES BBQ","Address":"3170 Naglee Rd","City":"Tracy","State":"CA","Zip":"95304"},{"Location":"FOUR CORNERS RESTAURANT","Address":"7509 W Linne Rd","City":"Tracy","State":"CA","Zip":"95304"},{"Location":"FRANKLIN E COLE ENTERPRS INC","Address":"28465 S Chrisman Rd 3","City":"Tracy","State":"CA","Zip":"95304"},{"Location":"HOME DEPOT","Address":"1400 E Pescadero Ave","City":"Tracy","State":"CA","Zip":"95304"},{"Location":"JIMMYS ONE STOP","Address":"30836 Airport Way","City":"Tracy","State":"CA","Zip":"95304"},{"Location":"KINDERS","Address":"3242 W Grant Line Rd","City":"Tracy","State":"CA","Zip":"95304"},{"Location":"LES SCHWAB","Address":"3260 W Grant Line Rd","City":"Tracy","State":"CA","Zip":"95304"},{"Location":"MACY'S WEST 386 BR","Address":"3400 Naglee Rd","City":"Tracy","State":"CA","Zip":"95304"},{"Location":"MAGIC CUTZ","Address":"3210 W Grant Line Rd","City":"Tracy","State":"CA","Zip":"95304"},{"Location":"MCLANE FOODSERVICE","Address":"800 E Pescadero Ave","City":"Tracy","State":"CA","Zip":"95304"},{"Location":"OLD RIVER GOLF AND PRACTICE","Address":"18007 N Mcarthur Dr","City":"Tracy","State":"CA","Zip":"95304"},{"Location":"OLIVE GARDEN #1582","Address":"3140 Naglee Rd","City":"Tracy","State":"CA","Zip":"95304"},{"Location":"PACIFIC MEDICAL","Address":"1700 N Chrisman Rd","City":"Tracy","State":"CA","Zip":"95304"},{"Location":"PREMIER CDJR OF TRACY","Address":"3460 Naglee Rd","City":"Tracy","State":"CA","Zip":"95304"},{"Location":"PREMIER HYUNDAI OF TRACY","Address":"3480 Naglee Rd","City":"Tracy","State":"CA","Zip":"95304"},{"Location":"RCM FIRE PROTECTION","Address":"350 Enterprise Pl","City":"Tracy","State":"CA","Zip":"95304"},{"Location":"RED ROBIN #669","Address":"2770 Naglee Rd","City":"Tracy","State":"CA","Zip":"95304"},{"Location":"ROUND TABLE PIZZA","Address":"2511 Naglee Rd","City":"Tracy","State":"CA","Zip":"95304"},{"Location":"SAIGON BAY","Address":"2725 Naglee Rd","City":"Tracy","State":"CA","Zip":"95304"},{"Location":"SAN JOAQUIN RIVER CLUB","Address":"30000 Kasson Rd","City":"Tracy","State":"CA","Zip":"95304"},{"Location":"SCHOESSLER AIRCRAFT","Address":"115 W Larch Rd","City":"Tracy","State":"CA","Zip":"95304"},{"Location":"SPORT CLIPS","Address":"2451 Naglee Rd 102","City":"Tracy","State":"CA","Zip":"95304"},{"Location":"TARGET","Address":"2800 Naglee Rd","City":"Tracy","State":"CA","Zip":"95304"},{"Location":"TEXAS ROADHOUSE #2249","Address":"2422 Naglee Rd","City":"Tracy","State":"CA","Zip":"95304"},{"Location":"THE GRANT BAR AND LOUNGE","Address":"2706 Pavilion Pkwy","City":"Tracy","State":"CA","Zip":"95304"},{"Location":"THE SQUEEZE INN","Address":"2742 Naglee Rd","City":"Tracy","State":"CA","Zip":"95304"},{"Location":"TOP PERFORMANCE  ATHLETICS","Address":"4220 Commercial Dr 6","City":"Tracy","State":"CA","Zip":"95304"},{"Location":"TRACEY VOLKSWAGON","Address":"2605 Auto Plaza Way","City":"Tracy","State":"CA","Zip":"95304"},{"Location":"TRACY CHEVROLET","Address":"3400 Auto Plaza Way","City":"Tracy","State":"CA","Zip":"95304"},{"Location":"TRACY HONDA","Address":"3450 Auto Plaza Way","City":"Tracy","State":"CA","Zip":"95304"},{"Location":"TRACY TOYOTA","Address":"2895 Naglee Rd","City":"Tracy","State":"CA","Zip":"95304"},{"Location":"VINO 100","Address":"2467 Naglee Rd","City":"Tracy","State":"CA","Zip":"95304"},{"Location":"YOUR SPACE FURNITURE","Address":"2471 Naglee Rd B","City":"Tracy","State":"CA","Zip":"95304"}]