[{"Location":"1 NAILS & SPA","Address":"541 Bellevue Rd","City":"Atwater","State":"CA","Zip":"95301"},{"Location":"ALMOND TREE RESTAURANT AND LOU","Address":"1490 Sycamore Ave","City":"Atwater","State":"CA","Zip":"95301"},{"Location":"ATWATER GLASS","Address":"302 E Bellview Rd","City":"Atwater","State":"CA","Zip":"95301"},{"Location":"BELLEVUE BOWL","Address":"785 Bellevue Rd","City":"Atwater","State":"CA","Zip":"95301"},{"Location":"DAVITA #3138 ATWATER","Address":"1201 Commerce Ave","City":"Atwater","State":"CA","Zip":"95301"},{"Location":"GEMINI FLIGHT SUPPORT","Address":"3515 Hardstand Ave","City":"Atwater","State":"CA","Zip":"95301"},{"Location":"GOLDSMITH JEWELERS","Address":"1828 Bellevue Rd","City":"Atwater","State":"CA","Zip":"95301"},{"Location":"JAH INC","Address":"1300 Commerce Ave","City":"Atwater","State":"CA","Zip":"95301"},{"Location":"JOSIES LOUNGE","Address":"1301 Commerce Ave","City":"Atwater","State":"CA","Zip":"95301"},{"Location":"LE PEARLS","Address":"701 Broadway Ave","City":"Atwater","State":"CA","Zip":"95301"},{"Location":"MCDONALDS ATWATER","Address":"1521 Bell Dr","City":"Atwater","State":"CA","Zip":"95301"},{"Location":"MCFS CASTLE","Address":"3405 Hardstand Ave 1344","City":"Atwater","State":"CA","Zip":"95301"},{"Location":"MCFS MCSWAIN","Address":"3500 Apron Ave","City":"Atwater","State":"CA","Zip":"95301"},{"Location":"MI CASA CAFE","Address":"1301 Commerce Ave","City":"Atwater","State":"CA","Zip":"95301"},{"Location":"OUT OF BOUNDS","Address":"575 Bellevue Rd","City":"Atwater","State":"CA","Zip":"95301"},{"Location":"PATELCO CREDIT UNION INC","Address":"3009 Stratofortress Ave","City":"Atwater","State":"CA","Zip":"95301"},{"Location":"PAULS AUTO SALES AND DET","Address":"3600 Atwater Blvd","City":"Atwater","State":"CA","Zip":"95301"},{"Location":"PIZZA HUT","Address":"855 Bellevue Rd 105","City":"Atwater","State":"CA","Zip":"95301"},{"Location":"ROLFE CONSTRUCTION","Address":"3573 Southern Pacific Ave","City":"Atwater","State":"CA","Zip":"95301"},{"Location":"SIERRA ACADEMY OF AERONAUTIC","Address":"3515 Hardstand Ave","City":"Atwater","State":"CA","Zip":"95301"},{"Location":"SIERRA ACADEMY OF AERONAUTICS","Address":"2775 Hospital Ave #10 10","City":"Atwater","State":"CA","Zip":"95301"},{"Location":"STUDIO LOUNGE","Address":"1513 Broadway Ave","City":"Atwater","State":"CA","Zip":"95301"},{"Location":"TEAM WEAR ATHLETIC","Address":"1350 Broadway Ave","City":"Atwater","State":"CA","Zip":"95301"},{"Location":"TRI COUNTY FLOORING LLC","Address":"481 Bellevue Rd","City":"Atwater","State":"CA","Zip":"95301"},{"Location":"VFW VICTOR MACHADO 9946","Address":"1390 Broadway Ave","City":"Atwater","State":"CA","Zip":"95301"},{"Location":"YOSEMITE PHYSICAL THERAPY","Address":"2609 1st St","City":"Atwater","State":"CA","Zip":"95301"}]