[{"Location":"CA  PSYCHIATRIC  TRANSITION","Address":"9234 Hinton Ave","City":"Delhi","State":"CA","Zip":"95315"},{"Location":"CA PSYCHIATRIC TRANSITION","Address":"9226 Hinton Ave","City":"Delhi","State":"CA","Zip":"95315"},{"Location":"K & R MANOR","Address":"9817 Stephens St","City":"Delhi","State":"CA","Zip":"95315"},{"Location":"M AND M CORNER MINI MART","Address":"16490 Letteau Ave","City":"Delhi","State":"CA","Zip":"95315"},{"Location":"MCFS DELHI","Address":"16056 Acacia St","City":"Delhi","State":"CA","Zip":"95315"},{"Location":"RICO'S","Address":"16385 Schendel Ave","City":"Delhi","State":"CA","Zip":"95315"},{"Location":"CA  PSYCHIATRIC  TRANSITION","Address":"9234 Hinton Ave","City":"Delhi","State":"CA","Zip":"95315"},{"Location":"CA PSYCHIATRIC TRANSITION","Address":"9226 Hinton Ave","City":"Delhi","State":"CA","Zip":"95315"},{"Location":"K & R MANOR","Address":"9817 Stephens St","City":"Delhi","State":"CA","Zip":"95315"},{"Location":"M AND M CORNER MINI MART","Address":"16490 Letteau Ave","City":"Delhi","State":"CA","Zip":"95315"},{"Location":"MCFS DELHI","Address":"16056 Acacia St","City":"Delhi","State":"CA","Zip":"95315"},{"Location":"Rico's","Address":"16385 Schendel Ave","City":"Delhi","State":"CA","Zip":"95315"}]