[{"Location":"CANCUN","Address":"1246 Yosemite Ave","City":"Escalon","State":"CA","Zip":"95320"},{"Location":"CARON COMPACTOR COMPANY","Address":"1204 Ullrey Ave","City":"Escalon","State":"CA","Zip":"95320"},{"Location":"CT  BRAYTON  AND  SONS INC","Address":"1745 B 2nd Street","City":"Escalon","State":"CA","Zip":"95320"},{"Location":"CT BRAYTON AND SONS INC","Address":"1804 Jackson Ave","City":"Escalon","State":"CA","Zip":"95320"},{"Location":"ESCALON ANIMAL CLINIC","Address":"1050 Escalon Ave","City":"Escalon","State":"CA","Zip":"95320"},{"Location":"GROSSI FABRICATION INC","Address":"16701 Steinegul Rd","City":"Escalon","State":"CA","Zip":"95320"},{"Location":"HULA'S RESTAURANT","Address":"2261 Jackson Ave","City":"Escalon","State":"CA","Zip":"95320"},{"Location":"LES SCHWAB TIRES","Address":"1980 Mchenry Ave","City":"Escalon","State":"CA","Zip":"95320"},{"Location":"MOUNTAIN MIKE'S PIZZA","Address":"1255 Lillian Ave","City":"Escalon","State":"CA","Zip":"95320"},{"Location":"MOUTAINMIKES  PIZZA","Address":"1255 Lillian Ave","City":"Escalon","State":"CA","Zip":"95320"},{"Location":"NARAGHI FARMS LLC","Address":"20001 Mchenry Ave","City":"Escalon","State":"CA","Zip":"95320"},{"Location":"P T NAILS","Address":"2137 Jackson Ave","City":"Escalon","State":"CA","Zip":"95320"},{"Location":"SHORTY'S SPORTS PUB AND GRILL","Address":"1205 Plaza Ave 11","City":"Escalon","State":"CA","Zip":"95320"},{"Location":"SMILE SHINE DENTAL","Address":"1900 Mchenry Ave 302","City":"Escalon","State":"CA","Zip":"95320"},{"Location":"THE WAFFLE FACTORY","Address":"2253 Jackson Ave","City":"Escalon","State":"CA","Zip":"95320"},{"Location":"THE WEIGHT ROOM","Address":"1740 Main St","City":"Escalon","State":"CA","Zip":"95320"},{"Location":"CANCUN","Address":"1246 Yosemite Ave","City":"Escalon","State":"CA","Zip":"95320"},{"Location":"CARON COMPACTOR COMPANY","Address":"1204 Ullrey Ave","City":"Escalon","State":"CA","Zip":"95320"},{"Location":"CT  BRAYTON  AND  SONS INC","Address":"1745 B 2nd Street","City":"Escalon","State":"CA","Zip":"95320"},{"Location":"CT BRAYTON AND SONS INC","Address":"1804 Jackson Ave","City":"Escalon","State":"CA","Zip":"95320"},{"Location":"ESCALON ANIMAL CLINIC","Address":"1050 Escalon Ave","City":"Escalon","State":"CA","Zip":"95320"},{"Location":"GROSSI FABRICATION INC","Address":"16701 Steinegul Rd","City":"Escalon","State":"CA","Zip":"95320"},{"Location":"HULA'S RESTAURANT","Address":"2261 Jackson Ave","City":"Escalon","State":"CA","Zip":"95320"},{"Location":"LES SCHWAB TIRES","Address":"1980 Mchenry Ave","City":"Escalon","State":"CA","Zip":"95320"},{"Location":"MOUNTAIN MIKE'S PIZZA","Address":"1255 Lillian Ave","City":"Escalon","State":"CA","Zip":"95320"},{"Location":"MOUTAINMIKES  PIZZA","Address":"1255 Lillian Ave","City":"Escalon","State":"CA","Zip":"95320"},{"Location":"NARAGHI FARMS LLC","Address":"20001 Mchenry Ave","City":"Escalon","State":"CA","Zip":"95320"},{"Location":"P T NAILS","Address":"2137 Jackson Ave","City":"Escalon","State":"CA","Zip":"95320"},{"Location":"SHORTY'S SPORTS PUB AND GRILL","Address":"1205 Plaza Ave 11","City":"Escalon","State":"CA","Zip":"95320"},{"Location":"SMILE SHINE DENTAL","Address":"1900 Mchenry Ave 302","City":"Escalon","State":"CA","Zip":"95320"},{"Location":"THE WAFFLE FACTORY","Address":"2253 Jackson Ave","City":"Escalon","State":"CA","Zip":"95320"},{"Location":"THE WEIGHT ROOM","Address":"1740 Main St","City":"Escalon","State":"CA","Zip":"95320"}]