[{"Location":"CHARLES AHLEM RANCH","Address":"23546 American Ave","City":"Hilmar","State":"CA","Zip":"95324"},{"Location":"GET FIT 24 7","Address":"7940 Lander Ave","City":"Hilmar","State":"CA","Zip":"95324"},{"Location":"HARD ROCK DINER","Address":"8155 Lander Ave","City":"Hilmar","State":"CA","Zip":"95324"},{"Location":"HILMAR READY MIX","Address":"19770 Bloss Ave","City":"Hilmar","State":"CA","Zip":"95324"},{"Location":"JAVI'S RESTAURANT & BAR","Address":"8390 Lander Ave","City":"Hilmar","State":"CA","Zip":"95324"},{"Location":"LOLA","Address":"19920 1st St","City":"Hilmar","State":"CA","Zip":"95324"},{"Location":"MCDONALD'S #17470","Address":"7960 Lander Ave","City":"Hilmar","State":"CA","Zip":"95324"},{"Location":"MCFS HILMAR","Address":"20021 Falke St","City":"Hilmar","State":"CA","Zip":"95324"},{"Location":"THE HILMAR FOOTBALL BOOSTERS","Address":"7807 Lander Ave","City":"Hilmar","State":"CA","Zip":"95324"},{"Location":"TUPPERS ROOSTER RANCH","Address":"26166 W Kelly Rd","City":"Hilmar","State":"CA","Zip":"95324"},{"Location":"WICKSTROM DAIRIES L.P.","Address":"6071 Larson Ave","City":"Hilmar","State":"CA","Zip":"95324"}]