[{"Location":"BEST WESTERN","Address":"12367 State Highway 33","City":"Gustine","State":"CA","Zip":"95322"},{"Location":"CAREFREE LIVING HOMES","Address":"13193 Highway 33 D","City":"Gustine","State":"CA","Zip":"95322"},{"Location":"MC DONALDS","Address":"430 1st Ave","City":"Gustine","State":"CA","Zip":"95322"},{"Location":"MCFS GUSTINE","Address":"686 3rd Ave","City":"Gustine","State":"CA","Zip":"95322"},{"Location":"PIZZA FACTORY","Address":"447 5th St","City":"Gustine","State":"CA","Zip":"95322"},{"Location":"TCA 163 SANTA NELLA","Address":"12310 Highway 33","City":"Gustine","State":"CA","Zip":"95322"},{"Location":"MCFS SANTA NELLA","Address":"29190 Centinella Rd","City":"Santa Nella","State":"CA","Zip":"95322"},{"Location":"PEA SOUP ANDERSONS","Address":"12411 Highway 33","City":"Santa Nella","State":"CA","Zip":"95322"},{"Location":"PETRO 346 SANTA NELLA","Address":"28991 Gonzaga Rd","City":"Santa Nella","State":"CA","Zip":"95322"},{"Location":"BEST WESTERN","Address":"12367 State Highway 33","City":"Gustine","State":"CA","Zip":"95322"},{"Location":"CAREFREE LIVING HOMES","Address":"13193 Highway 33 D","City":"Gustine","State":"CA","Zip":"95322"},{"Location":"MC DONALDS","Address":"430 1st Ave","City":"Gustine","State":"CA","Zip":"95322"},{"Location":"MCFS GUSTINE","Address":"686 3rd Ave","City":"Gustine","State":"CA","Zip":"95322"},{"Location":"PIZZA FACTORY","Address":"447 5th St","City":"Gustine","State":"CA","Zip":"95322"},{"Location":"TCA 163 SANTA NELLA","Address":"12310 Highway 33","City":"Gustine","State":"CA","Zip":"95322"},{"Location":"MCFS SANTA NELLA","Address":"29190 Centinella Rd","City":"Santa Nella","State":"CA","Zip":"95322"},{"Location":"PEA SOUP ANDERSONS","Address":"12411 Highway 33","City":"Santa Nella","State":"CA","Zip":"95322"},{"Location":"PETRO 346 SANTA NELLA","Address":"28991 Gonzaga Rd","City":"Santa Nella","State":"CA","Zip":"95322"}]