[{"Location":"BIG CREEK MEADOWRANCH","Address":"10551 Smith Station Rd","City":"Groveland","State":"CA","Zip":"95321"},{"Location":"EVERGREEN LODGE 1","Address":"33160 Evergreen Rd","City":"Groveland","State":"CA","Zip":"95321"},{"Location":"EVERGREEN LODGE 2","Address":"33160 Evergreen Rd","City":"Groveland","State":"CA","Zip":"95321"},{"Location":"EVERGREEN LODGE 3","Address":"33160 Evergreen Rd","City":"Groveland","State":"CA","Zip":"95321"},{"Location":"FIRE FALL COFFEE","Address":"18749 Main St","City":"Groveland","State":"CA","Zip":"95321"},{"Location":"GRUBS","Address":"18605 Main St B","City":"Groveland","State":"CA","Zip":"95321"},{"Location":"LILLASKOG LODGE","Address":"27557 Packard Canyon Rd","City":"Groveland","State":"CA","Zip":"95321"},{"Location":"NACO WEST YOSEMITE LAKES #1","Address":"31191 Hardin Flat Rd","City":"Groveland","State":"CA","Zip":"95321"},{"Location":"NACO WEST YOSEMITE LAKES #2","Address":"31191 Hardin Flat Rd","City":"Groveland","State":"CA","Zip":"95321"},{"Location":"NACO WEST YOSEMITE LAKES #4","Address":"31191 Hardin Flat Rd","City":"Groveland","State":"CA","Zip":"95321"},{"Location":"PINE MOUNTAIN LAKE ASSOCIATION","Address":"12765 Mueller Dr","City":"Groveland","State":"CA","Zip":"95321"},{"Location":"THE IRON DOOR SALOON","Address":"18761 Main St","City":"Groveland","State":"CA","Zip":"95321"},{"Location":"TWO GUYS PIZZA PIES","Address":"18955 Ferretti Rd","City":"Groveland","State":"CA","Zip":"95321"},{"Location":"YOSEMITE PINES RV","Address":"20450 Old Highway 120","City":"Groveland","State":"CA","Zip":"95321"},{"Location":"YOSEMITE REGIONAL RENTAL","Address":"19124 Dyer Ct","City":"Groveland","State":"CA","Zip":"95321"},{"Location":"YOSEMITE REGIONAL RENTAL","Address":"19114 Dyer Ct","City":"Groveland","State":"CA","Zip":"95321"},{"Location":"YOSEMITE RIDGE RESORT","Address":"7589 State Highway 120","City":"Groveland","State":"CA","Zip":"95321"},{"Location":"BIG CREEK MEADOWRANCH","Address":"10551 Smith Station Rd","City":"Groveland","State":"CA","Zip":"95321"},{"Location":"EVERGREEN LODGE 1","Address":"33160 Evergreen Rd","City":"Groveland","State":"CA","Zip":"95321"},{"Location":"EVERGREEN LODGE 2","Address":"33160 Evergreen Rd","City":"Groveland","State":"CA","Zip":"95321"},{"Location":"EVERGREEN LODGE 3","Address":"33160 Evergreen Rd","City":"Groveland","State":"CA","Zip":"95321"},{"Location":"FIRE FALL COFFEE","Address":"18749 Main St","City":"Groveland","State":"CA","Zip":"95321"},{"Location":"GRUBS","Address":"18605 Main St B","City":"Groveland","State":"CA","Zip":"95321"},{"Location":"LILLASKOG LODGE","Address":"27557 Packard Canyon Rd","City":"Groveland","State":"CA","Zip":"95321"},{"Location":"NACO WEST YOSEMITE LAKES #1","Address":"31191 Hardin Flat Rd","City":"Groveland","State":"CA","Zip":"95321"},{"Location":"NACO WEST YOSEMITE LAKES #2","Address":"31191 Hardin Flat Rd","City":"Groveland","State":"CA","Zip":"95321"},{"Location":"NACO WEST YOSEMITE LAKES #4","Address":"31191 Hardin Flat Rd","City":"Groveland","State":"CA","Zip":"95321"},{"Location":"PINE MOUNTAIN LAKE ASSOCIATION","Address":"12765 Mueller Dr","City":"Groveland","State":"CA","Zip":"95321"},{"Location":"THE IRON DOOR SALOON","Address":"18761 Main St","City":"Groveland","State":"CA","Zip":"95321"},{"Location":"TWO GUYS PIZZA PIES","Address":"18955 Ferretti Rd","City":"Groveland","State":"CA","Zip":"95321"},{"Location":"YOSEMITE PINES RV","Address":"20450 Old Highway 120","City":"Groveland","State":"CA","Zip":"95321"},{"Location":"YOSEMITE REGIONAL RENTAL","Address":"19114 Dyer Ct","City":"Groveland","State":"CA","Zip":"95321"},{"Location":"YOSEMITE REGIONAL RENTAL","Address":"19124 Dyer Ct","City":"Groveland","State":"CA","Zip":"95321"},{"Location":"YOSEMITE RIDGE RESORT","Address":"7589 State Highway 120","City":"Groveland","State":"CA","Zip":"95321"}]