[{"Location":"BASS PRO SHOP","Address":"1356 Bass Pro Dr","City":"Manteca","State":"CA","Zip":"95337"},{"Location":"BIG LEAGUE DREAMS NORTH","Address":"1077 Milo Candini Dr","City":"Manteca","State":"CA","Zip":"95337"},{"Location":"CABRAL CHRYSLER JEEP","Address":"1145 W Yosemite Ave","City":"Manteca","State":"CA","Zip":"95337"},{"Location":"CAL WEST CONCRETE CUTTING","Address":"1153 Vanderbilt Cir","City":"Manteca","State":"CA","Zip":"95337"},{"Location":"CARL KARCHER ENT","Address":"800 Mellon Ave","City":"Manteca","State":"CA","Zip":"95337"},{"Location":"CHILI'S #1306","Address":"2262 Daniels St","City":"Manteca","State":"CA","Zip":"95337"},{"Location":"DAVITA #2442 YOSEMITE","Address":"1650 W Yosemite Ave Bld 2","City":"Manteca","State":"CA","Zip":"95337"},{"Location":"DAVITA #3802 MONTECA","Address":"1156 S Main St","City":"Manteca","State":"CA","Zip":"95337"},{"Location":"EL JARDIN","Address":"1119 S Main St","City":"Manteca","State":"CA","Zip":"95337"},{"Location":"IMAGE CHANGERS","Address":"3950 Castellina Way","City":"Manteca","State":"CA","Zip":"95337"},{"Location":"J C DENTAL CERAMICS","Address":"1507 W Yosemite Ave","City":"Manteca","State":"CA","Zip":"95337"},{"Location":"JACKS PIZZA AND CAFE 2 LLC","Address":"1223 W Yosemite Ave B","City":"Manteca","State":"CA","Zip":"95337"},{"Location":"KOHL'S #976","Address":"2360 Daniels St","City":"Manteca","State":"CA","Zip":"95337"},{"Location":"LA PINA LOCA TAQUERIA","Address":"504 W Yosemite Ave","City":"Manteca","State":"CA","Zip":"95337"},{"Location":"MARK GRECCO MD.","Address":"1511 W Yosemite Ave","City":"Manteca","State":"CA","Zip":"95337"},{"Location":"MCDONALDS","Address":"2050 Daniels St","City":"Manteca","State":"CA","Zip":"95337"},{"Location":"MCDONALDS 1","Address":"1236 W Yosemite Ave","City":"Manteca","State":"CA","Zip":"95337"},{"Location":"NATIONAL AMERICAN CORPORATION","Address":"703 Williamson Rd","City":"Manteca","State":"CA","Zip":"95337"},{"Location":"NEW CHINA RESTARAUNT","Address":"1457 W Yosemite Ave","City":"Manteca","State":"CA","Zip":"95337"},{"Location":"PETE RESTUARANT","Address":"881 Lifestyle St","City":"Manteca","State":"CA","Zip":"95337"},{"Location":"PROFESSIONAL NAILS1","Address":"181 S Union Rd 107","City":"Manteca","State":"CA","Zip":"95337"},{"Location":"RED ROBIN #675","Address":"873 Lifestyle St","City":"Manteca","State":"CA","Zip":"95337"},{"Location":"ROUND TABLE PIZZA #955","Address":"2120 Daniels St","City":"Manteca","State":"CA","Zip":"95337"},{"Location":"RUSSEEL PAINTING  D E","Address":"825 Mellon Ave","City":"Manteca","State":"CA","Zip":"95337"},{"Location":"SAKANA JAPANESE BISTRO","Address":"1460 W Yosemite Ave","City":"Manteca","State":"CA","Zip":"95337"},{"Location":"SHOOTERS WINGS AND THINGS 3","Address":"1464 W Yosemite Ave","City":"Manteca","State":"CA","Zip":"95337"},{"Location":"WEBERS BBQ AND MORE 1","Address":"823 Mellon Ave","City":"Manteca","State":"CA","Zip":"95337"},{"Location":"BASS PRO SHOP","Address":"1356 Bass Pro Dr","City":"Manteca","State":"CA","Zip":"95337"},{"Location":"BIG LEAGUE DREAMS NORTH","Address":"1077 Milo Candini Dr","City":"Manteca","State":"CA","Zip":"95337"},{"Location":"CABRAL CHRYSLER JEEP","Address":"1145 W Yosemite Ave","City":"Manteca","State":"CA","Zip":"95337"},{"Location":"CAL WEST CONCRETE CUTTING","Address":"1153 Vanderbilt Cir","City":"Manteca","State":"CA","Zip":"95337"},{"Location":"CARL KARCHER ENT","Address":"800 Mellon Ave","City":"Manteca","State":"CA","Zip":"95337"},{"Location":"CHILI'S #1306","Address":"2262 Daniels St","City":"Manteca","State":"CA","Zip":"95337"},{"Location":"DAVITA #2442 YOSEMITE","Address":"1650 W Yosemite Ave Bld 2","City":"Manteca","State":"CA","Zip":"95337"},{"Location":"DAVITA #3802 MONTECA","Address":"1156 S Main St","City":"Manteca","State":"CA","Zip":"95337"},{"Location":"EL JARDIN","Address":"1119 S Main St","City":"Manteca","State":"CA","Zip":"95337"},{"Location":"IMAGE CHANGERS","Address":"3950 Castellina Way","City":"Manteca","State":"CA","Zip":"95337"},{"Location":"J C DENTAL CERAMICS","Address":"1507 W Yosemite Ave","City":"Manteca","State":"CA","Zip":"95337"},{"Location":"JACKS PIZZA AND CAFE 2 LLC","Address":"1223 W Yosemite Ave B","City":"Manteca","State":"CA","Zip":"95337"},{"Location":"KOHL'S #976","Address":"2360 Daniels St","City":"Manteca","State":"CA","Zip":"95337"},{"Location":"LA PINA LOCA TAQUERIA","Address":"504 W Yosemite Ave","City":"Manteca","State":"CA","Zip":"95337"},{"Location":"MARK GRECCO MD.","Address":"1511 W Yosemite Ave","City":"Manteca","State":"CA","Zip":"95337"},{"Location":"MCDONALDS","Address":"2050 Daniels St","City":"Manteca","State":"CA","Zip":"95337"},{"Location":"MCDONALDS 1","Address":"1236 W Yosemite Ave","City":"Manteca","State":"CA","Zip":"95337"},{"Location":"NATIONAL AMERICAN CORPORATION","Address":"703 Williamson Rd","City":"Manteca","State":"CA","Zip":"95337"},{"Location":"NEW CHINA RESTARAUNT","Address":"1457 W Yosemite Ave","City":"Manteca","State":"CA","Zip":"95337"},{"Location":"PETE RESTUARANT","Address":"881 Lifestyle St","City":"Manteca","State":"CA","Zip":"95337"},{"Location":"PROFESSIONAL NAILS1","Address":"181 S Union Rd 107","City":"Manteca","State":"CA","Zip":"95337"},{"Location":"RED ROBIN #675","Address":"873 Lifestyle St","City":"Manteca","State":"CA","Zip":"95337"},{"Location":"ROUND TABLE PIZZA #955","Address":"2120 Daniels St","City":"Manteca","State":"CA","Zip":"95337"},{"Location":"RUSSEEL PAINTING  D E","Address":"825 Mellon Ave","City":"Manteca","State":"CA","Zip":"95337"},{"Location":"SAKANA JAPANESE BISTRO","Address":"1460 W Yosemite Ave","City":"Manteca","State":"CA","Zip":"95337"},{"Location":"SHOOTERS WINGS AND THINGS 3","Address":"1464 W Yosemite Ave","City":"Manteca","State":"CA","Zip":"95337"},{"Location":"WEBERS BBQ AND MORE 1","Address":"823 Mellon Ave","City":"Manteca","State":"CA","Zip":"95337"}]