[{"Location":"511 TACTICAL INC","Address":"17610 Shideler Pkwy","City":"Lathrop","State":"CA","Zip":"95330"},{"Location":"CHEVRON USA INC.","Address":"17395 S Manthey Rd","City":"Lathrop","State":"CA","Zip":"95330"},{"Location":"CITY OF LATHROP","Address":"450 Spartan Way","City":"Lathrop","State":"CA","Zip":"95330"},{"Location":"CK GRILL AND BAR","Address":"14725 S Harlan Rd","City":"Lathrop","State":"CA","Zip":"95330"},{"Location":"FIRESIDE INN","Address":"854 Lathrop Rd","City":"Lathrop","State":"CA","Zip":"95330"},{"Location":"HAVEN ACRES BAR AND GRILL","Address":"1691 Frewert Rd 4","City":"Lathrop","State":"CA","Zip":"95330"},{"Location":"IN AND OUT BURGER","Address":"18240 S Harlan Rd","City":"Lathrop","State":"CA","Zip":"95330"},{"Location":"IN-SHAPE FITNESS LATHROP","Address":"15362 S Harlan Rd","City":"Lathrop","State":"CA","Zip":"95330"},{"Location":"ITT #093","Address":"16916 S Harlan Rd","City":"Lathrop","State":"CA","Zip":"95330"},{"Location":"JOHN DEERE","Address":"17400 Shideler Pkwy","City":"Lathrop","State":"CA","Zip":"95330"},{"Location":"LATHROP RANCH HOME","Address":"15198 5th St","City":"Lathrop","State":"CA","Zip":"95330"},{"Location":"MEDLINE INDUSTRIES","Address":"400 Darcy Pkwy","City":"Lathrop","State":"CA","Zip":"95330"},{"Location":"MI KASA JAPANESE BISTRO","Address":"15138 S Harlan Rd","City":"Lathrop","State":"CA","Zip":"95330"},{"Location":"MILAN  PIZZA","Address":"15030 Harland Rd","City":"Lathrop","State":"CA","Zip":"95330"},{"Location":"MOUNTAIN MIKES PIZZA","Address":"229 Louise Ave","City":"Lathrop","State":"CA","Zip":"95330"},{"Location":"NATIONWIDE SLEEP","Address":"17605 S Manthey Rd","City":"Lathrop","State":"CA","Zip":"95330"},{"Location":"PFLUG PACKAGING","Address":"17500 Shideler Pkwy","City":"Lathrop","State":"CA","Zip":"95330"},{"Location":"PILKINGTON","Address":"500 E Louise Ave","City":"Lathrop","State":"CA","Zip":"95330"},{"Location":"TAQUERIA VALLARTA","Address":"245 Louise Ave","City":"Lathrop","State":"CA","Zip":"95330"},{"Location":"TARGET STORE #2347","Address":"16858 Golden Valley Pkwy","City":"Lathrop","State":"CA","Zip":"95330"},{"Location":"TESLA MOTORS","Address":"18260 S Harlan Rd","City":"Lathrop","State":"CA","Zip":"95330"},{"Location":"UTILITY TRAILER SALES","Address":"12608 S Harlan Rd","City":"Lathrop","State":"CA","Zip":"95330"},{"Location":"511 TACTICAL INC","Address":"17610 Shideler Pkwy","City":"Lathrop","State":"CA","Zip":"95330"},{"Location":"CHEVRON USA INC.","Address":"17395 S Manthey Rd","City":"Lathrop","State":"CA","Zip":"95330"},{"Location":"CITY OF LATHROP","Address":"450 Spartan Way","City":"Lathrop","State":"CA","Zip":"95330"},{"Location":"CK GRILL AND BAR","Address":"14725 S Harlan Rd","City":"Lathrop","State":"CA","Zip":"95330"},{"Location":"FIRESIDE INN","Address":"854 Lathrop Rd","City":"Lathrop","State":"CA","Zip":"95330"},{"Location":"HAVEN ACRES BAR AND GRILL","Address":"1691 Frewert Rd 4","City":"Lathrop","State":"CA","Zip":"95330"},{"Location":"IN AND OUT BURGER","Address":"18240 S Harlan Rd","City":"Lathrop","State":"CA","Zip":"95330"},{"Location":"IN-SHAPE FITNESS LATHROP","Address":"15362 S Harlan Rd","City":"Lathrop","State":"CA","Zip":"95330"},{"Location":"ITT #093","Address":"16916 S Harlan Rd","City":"Lathrop","State":"CA","Zip":"95330"},{"Location":"JOHN DEERE","Address":"17400 Shideler Pkwy","City":"Lathrop","State":"CA","Zip":"95330"},{"Location":"LATHROP RANCH HOME","Address":"15198 5th St","City":"Lathrop","State":"CA","Zip":"95330"},{"Location":"MEDLINE INDUSTRIES","Address":"400 Darcy Pkwy","City":"Lathrop","State":"CA","Zip":"95330"},{"Location":"MI KASA JAPANESE BISTRO","Address":"15138 S Harlan Rd","City":"Lathrop","State":"CA","Zip":"95330"},{"Location":"MILAN  PIZZA","Address":"15030 Harland Rd","City":"Lathrop","State":"CA","Zip":"95330"},{"Location":"MOUNTAIN MIKES PIZZA","Address":"229 Louise Ave","City":"Lathrop","State":"CA","Zip":"95330"},{"Location":"NATIONWIDE SLEEP","Address":"17605 S Manthey Rd","City":"Lathrop","State":"CA","Zip":"95330"},{"Location":"PFLUG PACKAGING","Address":"17500 Shideler Pkwy","City":"Lathrop","State":"CA","Zip":"95330"},{"Location":"PILKINGTON","Address":"500 E Louise Ave","City":"Lathrop","State":"CA","Zip":"95330"},{"Location":"TAQUERIA VALLARTA","Address":"245 Louise Ave","City":"Lathrop","State":"CA","Zip":"95330"},{"Location":"TARGET STORE #2347","Address":"16858 Golden Valley Pkwy","City":"Lathrop","State":"CA","Zip":"95330"},{"Location":"TESLA MOTORS","Address":"18260 S Harlan Rd","City":"Lathrop","State":"CA","Zip":"95330"},{"Location":"UTILITY TRAILER SALES","Address":"12608 S Harlan Rd","City":"Lathrop","State":"CA","Zip":"95330"}]