[{"Location":"COZY CORNER TAVERN","Address":"5021 Lincoln Blvd","City":"Livingston","State":"CA","Zip":"95334"},{"Location":"FOSTER FARMS","Address":"1000 Davis St","City":"Livingston","State":"CA","Zip":"95334"},{"Location":"FOSTER FARMS","Address":"1333 Swan St","City":"Livingston","State":"CA","Zip":"95334"},{"Location":"GENEO'S PIZZA","Address":"307 N Main St","City":"Livingston","State":"CA","Zip":"95334"},{"Location":"MAYRITA'S","Address":"341 N Main St","City":"Livingston","State":"CA","Zip":"95334"},{"Location":"MAYRITAS MEXICAN SEAFOOD","Address":"341 Livingston Cressey Rd","City":"Livingston","State":"CA","Zip":"95334"},{"Location":"MCFS LIVINGSTON","Address":"1430 C St","City":"Livingston","State":"CA","Zip":"95334"},{"Location":"MOUNTAIN MIKES","Address":"1471 B St","City":"Livingston","State":"CA","Zip":"95334"},{"Location":"RANCHO SAN MIGUEL","Address":"444 Winton Pkwy","City":"Livingston","State":"CA","Zip":"95334"},{"Location":"TCA 170 LIVINGSTON","Address":"435 Winton Pkwy","City":"Livingston","State":"CA","Zip":"95334"},{"Location":"VILLA'S MEXICAN GRILL","Address":"413 Livingston Cressey Rd","City":"Livingston","State":"CA","Zip":"95334"},{"Location":"VILLA'S MEXICAN GRILL","Address":"413 N Main St","City":"Livingston","State":"CA","Zip":"95334"},{"Location":"WINE COUNTRY COMMERCE INC","Address":"2295 F St","City":"Livingston","State":"CA","Zip":"95334"},{"Location":"COZY CORNER TAVERN","Address":"5021 Lincoln Blvd","City":"Livingston","State":"CA","Zip":"95334"},{"Location":"FOSTER FARMS","Address":"1333 Swan St","City":"Livingston","State":"CA","Zip":"95334"},{"Location":"FOSTER FARMS","Address":"1000 Davis St","City":"Livingston","State":"CA","Zip":"95334"},{"Location":"GENEO'S PIZZA","Address":"307 N Main St","City":"Livingston","State":"CA","Zip":"95334"},{"Location":"MAYRITA'S","Address":"341 N Main St","City":"Livingston","State":"CA","Zip":"95334"},{"Location":"MAYRITAS MEXICAN SEAFOOD","Address":"341 Livingston Cressey Rd","City":"Livingston","State":"CA","Zip":"95334"},{"Location":"MCFS LIVINGSTON","Address":"1430 C St","City":"Livingston","State":"CA","Zip":"95334"},{"Location":"MOUNTAIN MIKES","Address":"1471 B St","City":"Livingston","State":"CA","Zip":"95334"},{"Location":"RANCHO SAN MIGUEL","Address":"444 Winton Pkwy","City":"Livingston","State":"CA","Zip":"95334"},{"Location":"TCA 170 LIVINGSTON","Address":"435 Winton Pkwy","City":"Livingston","State":"CA","Zip":"95334"},{"Location":"Villa'S Mexican Grill","Address":"413 Livingston Cressey Rd","City":"Livingston","State":"CA","Zip":"95334"},{"Location":"VILLA'S MEXICAN GRILL","Address":"413 N Main St","City":"Livingston","State":"CA","Zip":"95334"},{"Location":"WINE COUNTRY COMMERCE INC","Address":"2295 F St","City":"Livingston","State":"CA","Zip":"95334"}]