[{"Location":"133 PUB","Address":"133 W Yosemite Ave","City":"Manteca","State":"CA","Zip":"95336"},{"Location":"24 HOUR FITNESS #535","Address":"1090 N Main St","City":"Manteca","State":"CA","Zip":"95336"},{"Location":"4 ACE TILE","Address":"1880 Basil Dr","City":"Manteca","State":"CA","Zip":"95336"},{"Location":"4 U SMC INC","Address":"1446 Hulsey Way","City":"Manteca","State":"CA","Zip":"95336"},{"Location":"AMERICAS TIRE COMPNY","Address":"210 Commerce Ave","City":"Manteca","State":"CA","Zip":"95336"},{"Location":"APPLEBEE'S MANTECA","Address":"1272 E Yosemite Ave","City":"Manteca","State":"CA","Zip":"95336"},{"Location":"ATHENS BURGERS","Address":"306 W Yosemite Ave","City":"Manteca","State":"CA","Zip":"95336"},{"Location":"BLACK BEAR DINER","Address":"1703 E Yosemite Ave","City":"Manteca","State":"CA","Zip":"95336"},{"Location":"CHUCKS PLACE","Address":"1447 Historical Plaza Way","City":"Manteca","State":"CA","Zip":"95336"},{"Location":"DELICATO VINEYARDS","Address":"12001 S Highway 99","City":"Manteca","State":"CA","Zip":"95336"},{"Location":"DISCOUNT LIQOUR","Address":"409 N Main St B","City":"Manteca","State":"CA","Zip":"95336"},{"Location":"DREYERS GRAND ICE CREAM","Address":"1351 Dupont Ct","City":"Manteca","State":"CA","Zip":"95336"},{"Location":"EXTREME SPORTS LOUNGE","Address":"104 Pierce Ave","City":"Manteca","State":"CA","Zip":"95336"},{"Location":"FRENCH CAMP GOLF","Address":"3319 French Camp Rd","City":"Manteca","State":"CA","Zip":"95336"},{"Location":"FRENCH CAMP SPORTS CAFE","Address":"3919 French Camp Rd","City":"Manteca","State":"CA","Zip":"95336"},{"Location":"GIPSY SOUL","Address":"118 W Yosemite Ave","City":"Manteca","State":"CA","Zip":"95336"},{"Location":"IN SHAPE HEALTH CLUBS MANTECA","Address":"1805 E Yosemite Ave","City":"Manteca","State":"CA","Zip":"95336"},{"Location":"JONAILS 2","Address":"1337 Historical Plaza Way","City":"Manteca","State":"CA","Zip":"95336"},{"Location":"KST LOGISTICS","Address":"1075 E Yosemite Ave","City":"Manteca","State":"CA","Zip":"95336"},{"Location":"M&L VACUUMS","Address":"291 W Louise Ave","City":"Manteca","State":"CA","Zip":"95336"},{"Location":"MAIN STREET URGENT CARE","Address":"1040 N Main St","City":"Manteca","State":"CA","Zip":"95336"},{"Location":"MANTECA BOWLING & FAMILY FUN","Address":"1251 E Yosemite Ave","City":"Manteca","State":"CA","Zip":"95336"},{"Location":"MANTECA FORD","Address":"555 N Main St","City":"Manteca","State":"CA","Zip":"95336"},{"Location":"MOUNTAIN MIKES PIZZA","Address":"1120 N Main St","City":"Manteca","State":"CA","Zip":"95336"},{"Location":"MR BIGGS SMOKEHOUSE","Address":"137 N Main St","City":"Manteca","State":"CA","Zip":"95336"},{"Location":"MR PICKLES","Address":"1456 Hulsey Way","City":"Manteca","State":"CA","Zip":"95336"},{"Location":"PACIFIC GAS AND ELECTRIC","Address":"10901 E Highway 120","City":"Manteca","State":"CA","Zip":"95336"},{"Location":"PAPA JOES BIG BBQ & STEAKHOUSE","Address":"211 E Yosemite Ave","City":"Manteca","State":"CA","Zip":"95336"},{"Location":"PARIS NAIL AND SPA","Address":"1260 W Lathrop Rd","City":"Manteca","State":"CA","Zip":"95336"},{"Location":"PHO SAIGON TOWN NOODLES","Address":"1311 Historical Plaza Way","City":"Manteca","State":"CA","Zip":"95336"},{"Location":"PLANNED PARENTHOOD MAR MONTE","Address":"965 E Yosemite Ave 2","City":"Manteca","State":"CA","Zip":"95336"},{"Location":"PRODIGY AUTO AND TENT","Address":"941 E Yosemite Ave","City":"Manteca","State":"CA","Zip":"95336"},{"Location":"PULTE HOMES","Address":"1451 Americana St","City":"Manteca","State":"CA","Zip":"95336"},{"Location":"REMOLONA FAMILY GUEST HOME","Address":"360 Button Ave 3","City":"Manteca","State":"CA","Zip":"95336"},{"Location":"ROUND TABLE PIZZA 933","Address":"253 Spreckels Ave","City":"Manteca","State":"CA","Zip":"95336"},{"Location":"TAQUERIA MANTECA","Address":"275 W Louise Ave","City":"Manteca","State":"CA","Zip":"95336"},{"Location":"TARGET","Address":"280 Spreckels Ave","City":"Manteca","State":"CA","Zip":"95336"},{"Location":"THE PUB AND LOUNGE","Address":"1305 N Main St","City":"Manteca","State":"CA","Zip":"95336"},{"Location":"WING STOP","Address":"1342 E Yosemite Ave","City":"Manteca","State":"CA","Zip":"95336"},{"Location":"YOLIES TOWING AND TRANSPORT","Address":"17860 Ideal Pkwy F","City":"Manteca","State":"CA","Zip":"95336"},{"Location":"133 PUB","Address":"133 W Yosemite Ave","City":"Manteca","State":"CA","Zip":"95336"},{"Location":"24 HOUR FITNESS #535","Address":"1090 N Main St","City":"Manteca","State":"CA","Zip":"95336"},{"Location":"4 ACE TILE","Address":"1880 Basil Dr","City":"Manteca","State":"CA","Zip":"95336"},{"Location":"4 U SMC INC","Address":"1446 Hulsey Way","City":"Manteca","State":"CA","Zip":"95336"},{"Location":"AMERICAS TIRE COMPNY","Address":"210 Commerce Ave","City":"Manteca","State":"CA","Zip":"95336"},{"Location":"APPLEBEE'S MANTECA","Address":"1272 E Yosemite Ave","City":"Manteca","State":"CA","Zip":"95336"},{"Location":"ATHENS BURGERS","Address":"306 W Yosemite Ave","City":"Manteca","State":"CA","Zip":"95336"},{"Location":"BLACK BEAR DINER","Address":"1703 E Yosemite Ave","City":"Manteca","State":"CA","Zip":"95336"},{"Location":"CHUCKS PLACE","Address":"1447 Historical Plaza Way","City":"Manteca","State":"CA","Zip":"95336"},{"Location":"DELICATO VINEYARDS","Address":"12001 S Highway 99","City":"Manteca","State":"CA","Zip":"95336"},{"Location":"DISCOUNT LIQOUR","Address":"409 N Main St B","City":"Manteca","State":"CA","Zip":"95336"},{"Location":"DREYERS GRAND ICE CREAM","Address":"1351 Dupont Ct","City":"Manteca","State":"CA","Zip":"95336"},{"Location":"Extreme Sports Lounge","Address":"104 Pierce Ave","City":"Manteca","State":"CA","Zip":"95336"},{"Location":"FRENCH CAMP GOLF","Address":"3319 French Camp Rd","City":"Manteca","State":"CA","Zip":"95336"},{"Location":"FRENCH CAMP SPORTS CAFE","Address":"3919 French Camp Rd","City":"Manteca","State":"CA","Zip":"95336"},{"Location":"GIPSY SOUL","Address":"118 W Yosemite Ave","City":"Manteca","State":"CA","Zip":"95336"},{"Location":"IN SHAPE HEALTH CLUBS MANTECA","Address":"1805 E Yosemite Ave","City":"Manteca","State":"CA","Zip":"95336"},{"Location":"JONAILS 2","Address":"1337 Historical Plaza Way","City":"Manteca","State":"CA","Zip":"95336"},{"Location":"KST LOGISTICS","Address":"1075 E Yosemite Ave","City":"Manteca","State":"CA","Zip":"95336"},{"Location":"M&L VACUUMS","Address":"291 W Louise Ave","City":"Manteca","State":"CA","Zip":"95336"},{"Location":"MAIN STREET URGENT CARE","Address":"1040 N Main St","City":"Manteca","State":"CA","Zip":"95336"},{"Location":"MANTECA BOWLING & FAMILY FUN","Address":"1251 E Yosemite Ave","City":"Manteca","State":"CA","Zip":"95336"},{"Location":"MANTECA FORD","Address":"555 N Main St","City":"Manteca","State":"CA","Zip":"95336"},{"Location":"MANTECA TRAILER & CAMPER","Address":"2060 E Yosemite Ave","City":"Manteca","State":"CA","Zip":"95336"},{"Location":"MOUNTAIN MIKES PIZZA","Address":"1120 N Main St","City":"Manteca","State":"CA","Zip":"95336"},{"Location":"MR BIGGS SMOKEHOUSE","Address":"137 N Main St","City":"Manteca","State":"CA","Zip":"95336"},{"Location":"MR PICKLES","Address":"1456 Hulsey Way","City":"Manteca","State":"CA","Zip":"95336"},{"Location":"PACIFIC GAS AND ELECTRIC","Address":"10901 E Highway 120","City":"Manteca","State":"CA","Zip":"95336"},{"Location":"Papa Joes Big Bbq & Steakhouse","Address":"211 E Yosemite Ave","City":"Manteca","State":"CA","Zip":"95336"},{"Location":"PARIS NAIL AND SPA","Address":"1260 W Lathrop Rd","City":"Manteca","State":"CA","Zip":"95336"},{"Location":"PHO SAIGON TOWN NOODLES","Address":"1311 Historical Plaza Way","City":"Manteca","State":"CA","Zip":"95336"},{"Location":"PLANNED PARENTHOOD MAR MONTE","Address":"965 E Yosemite Ave 2","City":"Manteca","State":"CA","Zip":"95336"},{"Location":"PRODIGY AUTO AND TENT","Address":"941 E Yosemite Ave","City":"Manteca","State":"CA","Zip":"95336"},{"Location":"PULTE HOMES","Address":"1451 Americana St","City":"Manteca","State":"CA","Zip":"95336"},{"Location":"REMOLONA FAMILY GUEST HOME","Address":"360 Button Ave 3","City":"Manteca","State":"CA","Zip":"95336"},{"Location":"ROUND TABLE PIZZA 933","Address":"253 Spreckels Ave","City":"Manteca","State":"CA","Zip":"95336"},{"Location":"TAQUERIA MANTECA","Address":"275 W Louise Ave","City":"Manteca","State":"CA","Zip":"95336"},{"Location":"TARGET","Address":"280 Spreckels Ave","City":"Manteca","State":"CA","Zip":"95336"},{"Location":"THE PUB AND LOUNGE","Address":"1305 N Main St","City":"Manteca","State":"CA","Zip":"95336"},{"Location":"WING STOP","Address":"1342 E Yosemite Ave","City":"Manteca","State":"CA","Zip":"95336"},{"Location":"YOLIES TOWING AND TRANSPORT","Address":"17860 Ideal Pkwy F","City":"Manteca","State":"CA","Zip":"95336"}]