[{"Location":"APPLEBEE'S MERCED","Address":"1734 W Olive Ave","City":"Merced","State":"CA","Zip":"95348"},{"Location":"AVALON CARE CENTER","Address":"3170 M St","City":"Merced","State":"CA","Zip":"95348"},{"Location":"BEAR CREEK INN","Address":"575 Wn Bear Creek Dr","City":"Merced","State":"CA","Zip":"95348"},{"Location":"CALIFORNIA COMMUNITY COLLEGE","Address":"3600 M St","City":"Merced","State":"CA","Zip":"95348"},{"Location":"CENTRAL VALLEY CONCRETE INC","Address":"3823 N Highway 59","City":"Merced","State":"CA","Zip":"95348"},{"Location":"DI CICCOS","Address":"3360 N State Highway 59 H","City":"Merced","State":"CA","Zip":"95348"},{"Location":"DR COMILANG","Address":"1170 W Olive Ave I","City":"Merced","State":"CA","Zip":"95348"},{"Location":"EDWARD CONNELLY","Address":"2885 Business Park Way 1","City":"Merced","State":"CA","Zip":"95348"},{"Location":"FAGUNDES BROS DAIRY","Address":"1978 Business Park Way","City":"Merced","State":"CA","Zip":"95348"},{"Location":"IN SHAPE 178 MERCED","Address":"3275 R St","City":"Merced","State":"CA","Zip":"95348"},{"Location":"KOHL'S #1367","Address":"400 Merced Mall","City":"Merced","State":"CA","Zip":"95348"},{"Location":"LAUNDRY EXPRESS","Address":"1129 W Olive Ave","City":"Merced","State":"CA","Zip":"95348"},{"Location":"LEOS GARAGE","Address":"2640 W 16th St","City":"Merced","State":"CA","Zip":"95348"},{"Location":"MCDONALD'S","Address":"206 W Olive Ave","City":"Merced","State":"CA","Zip":"95348"},{"Location":"MERCED ORTHOPEDIC","Address":"123 W North Bear Creek Dr","City":"Merced","State":"CA","Zip":"95348"},{"Location":"PIZZA HUT MERCED","Address":"575 W Olive Ave","City":"Merced","State":"CA","Zip":"95348"},{"Location":"PLANNED PARENTHOOD MAR MONTE","Address":"3166 Collins Dr","City":"Merced","State":"CA","Zip":"95348"},{"Location":"RIGGS AMBULANCE SERVICE","Address":"4351 Mathias Way","City":"Merced","State":"CA","Zip":"95348"},{"Location":"RIVIERA HOLIDAY MOBILE ESTATES","Address":"2500 N Highway 59","City":"Merced","State":"CA","Zip":"95348"},{"Location":"ROUND TABLE-OLIVE AVE","Address":"1728 W Olive Ave","City":"Merced","State":"CA","Zip":"95348"},{"Location":"SATELLITE DIALYSIS OF MERCED","Address":"3376 N Highway 59","City":"Merced","State":"CA","Zip":"95348"},{"Location":"SUMM BODY FITNESS","Address":"1748 Miles Ct A","City":"Merced","State":"CA","Zip":"95348"},{"Location":"TARGET STORE 641","Address":"3280 R St","City":"Merced","State":"CA","Zip":"95348"},{"Location":"WORLD COLOR MERCED","Address":"2201 Cooper Ave","City":"Merced","State":"CA","Zip":"95348"}]