[{"Location":"ALADDIN BB DEPT 775","Address":"727 W 22nd St","City":"Merced","State":"CA","Zip":"95340"},{"Location":"AMERICAN LEGION POST83","Address":"939 W Main St","City":"Merced","State":"CA","Zip":"95340"},{"Location":"ANGEL HANDS","Address":"2847 G St","City":"Merced","State":"CA","Zip":"95340"},{"Location":"ARNIES HUMIDOR","Address":"1036 W 18th St","City":"Merced","State":"CA","Zip":"95340"},{"Location":"At The Pier","Address":"439 W Main St","City":"Merced","State":"CA","Zip":"95340"},{"Location":"BANGKOK THAI RESTAURANT","Address":"235a W Main St","City":"Merced","State":"CA","Zip":"95340"},{"Location":"BELLA LUNA BAKERY CAFE","Address":"350 W Main St","City":"Merced","State":"CA","Zip":"95340"},{"Location":"BLACK BEAR DINER","Address":"1435 V St","City":"Merced","State":"CA","Zip":"95340"},{"Location":"CHANDELIER CLUB","Address":"427 W Main St","City":"Merced","State":"CA","Zip":"95340"},{"Location":"CONRAD CASTELLINO MD","Address":"427 Sonora Ave","City":"Merced","State":"CA","Zip":"95340"},{"Location":"CUE SPOT","Address":"450 W Main St","City":"Merced","State":"CA","Zip":"95340"},{"Location":"DAVITA #3143-1C MERCED","Address":"3393 G St B","City":"Merced","State":"CA","Zip":"95340"},{"Location":"DAVITA #4231 EAST MERCED","Address":"464 E Yosemite Ave B","City":"Merced","State":"CA","Zip":"95340"},{"Location":"DMG TIRE AND AUTOMOTIVE","Address":"1635 T St","City":"Merced","State":"CA","Zip":"95340"},{"Location":"EL PORTAL IMAGING CENTER","Address":"3365 G St 100","City":"Merced","State":"CA","Zip":"95340"},{"Location":"ELKS LODGE MERCED 1240","Address":"1910 M St","City":"Merced","State":"CA","Zip":"95340"},{"Location":"FARMERS AND MERCHANTS","Address":"2936 G St","City":"Merced","State":"CA","Zip":"95340"},{"Location":"FIESTA MEXICANA","Address":"530 W 16th St E","City":"Merced","State":"CA","Zip":"95340"},{"Location":"FRANK   P WARDA DDS INC","Address":"552 W 26th St","City":"Merced","State":"CA","Zip":"95340"},{"Location":"Gabe'S Bar%2FTavern","Address":"1636 Martin Luther King Jr. Wy","City":"Merced","State":"CA","Zip":"95340"},{"Location":"H.SCHICK & T.WEED MD'S","Address":"436 E Yosemite Ave A","City":"Merced","State":"CA","Zip":"95340"},{"Location":"IN-SHAPE HEALTH CLUBS%2C INC","Address":"2951 G St","City":"Merced","State":"CA","Zip":"95340"},{"Location":"KING SIGNS","Address":"1777 G St 10","City":"Merced","State":"CA","Zip":"95340"},{"Location":"LA HACIENDA TWO","Address":"3355 G St","City":"Merced","State":"CA","Zip":"95340"},{"Location":"MARIE MEXICAN KITCHEN","Address":"259 W Main St","City":"Merced","State":"CA","Zip":"95340"},{"Location":"MCFS MCKEE","Address":"3360 Mckee Rd","City":"Merced","State":"CA","Zip":"95340"},{"Location":"ME-N-EDS PIZZERIA- DIV42","Address":"3524 G St","City":"Merced","State":"CA","Zip":"95340"},{"Location":"MERCED POKER ROOM","Address":"1445 Martin Luther King Jr Way","City":"Merced","State":"CA","Zip":"95340"},{"Location":"MERCED TIRE AND WHEELS","Address":"1566 W 16th St","City":"Merced","State":"CA","Zip":"95340"},{"Location":"MERCY CANCER CENTER","Address":"3850 G St","City":"Merced","State":"CA","Zip":"95340"},{"Location":"MERCY MEDICAL CENTER","Address":"2740 M St","City":"Merced","State":"CA","Zip":"95340"},{"Location":"PAULS PLACE RESTAURANT","Address":"2991 G St","City":"Merced","State":"CA","Zip":"95340"},{"Location":"PILKINGTON DERMATOLOGY","Address":"410 E Yosemite Ave C","City":"Merced","State":"CA","Zip":"95340"},{"Location":"QUEST DIAGNOSTICS INC","Address":"3377 G St A","City":"Merced","State":"CA","Zip":"95340"},{"Location":"R- BAR","Address":"1603 V St","City":"Merced","State":"CA","Zip":"95340"},{"Location":"REINEROS","Address":"640 W Main St","City":"Merced","State":"CA","Zip":"95340"},{"Location":"RON SMITH BUICK PONTIAC GMC","Address":"1900 Auto Center Dr","City":"Merced","State":"CA","Zip":"95340"},{"Location":"RON SMITH USED CARS","Address":"1501 Auto Center Dr","City":"Merced","State":"CA","Zip":"95340"},{"Location":"SALON ON THE SQUARE","Address":"517 W 19th St","City":"Merced","State":"CA","Zip":"95340"},{"Location":"SAN JOAQUIN GLASS","Address":"1359 W Main St","City":"Merced","State":"CA","Zip":"95340"},{"Location":"SCISSORS AND CLIPPERS","Address":"2975 G St","City":"Merced","State":"CA","Zip":"95340"},{"Location":"STAR CLUB","Address":"1331 W Main St","City":"Merced","State":"CA","Zip":"95340"},{"Location":"SUSHI CUISINE","Address":"3544 G St","City":"Merced","State":"CA","Zip":"95340"},{"Location":"TREVINOS MEXICAN RESTAUR","Address":"408 W Main St","City":"Merced","State":"CA","Zip":"95340"},{"Location":"WM J KOENIG INC","Address":"902 W 18th St","City":"Merced","State":"CA","Zip":"95340"}]