[{"Location":"AIR METHODS CORP","Address":"1398 Falcon Way","City":"Merced","State":"CA","Zip":"95341"},{"Location":"CLUB MERCEDES INC","Address":"569 W 9th St","City":"Merced","State":"CA","Zip":"95341"},{"Location":"JACK CHAPMAN JR HAY COMPANY","Address":"3476 Mcmaster Rd","City":"Merced","State":"CA","Zip":"95341"},{"Location":"JENASIS","Address":"7697 S Combs Rd","City":"Merced","State":"CA","Zip":"95341"},{"Location":"MCDONALDS","Address":"1821 Motel Dr","City":"Merced","State":"CA","Zip":"95341"},{"Location":"MCDONALDS 4235","Address":"1060 W 13th St","City":"Merced","State":"CA","Zip":"95341"},{"Location":"MCFS MERCED","Address":"735 Martin Luther King Jr Way","City":"Merced","State":"CA","Zip":"95341"},{"Location":"MCLANE PACIFIC","Address":"3876 E Childs Ave","City":"Merced","State":"CA","Zip":"95341"},{"Location":"MOBILE PIT STOP OF CENTRAL","Address":"1901 Grogan Ave C","City":"Merced","State":"CA","Zip":"95341"},{"Location":"RIGGS AMBULANCE","Address":"100 Riggs Ave","City":"Merced","State":"CA","Zip":"95341"},{"Location":"TVT TRANSPORT","Address":"1911 E Gerard Ave","City":"Merced","State":"CA","Zip":"95341"},{"Location":"YOSEMITE WHOLESALE","Address":"2674 Vassar Ave","City":"Merced","State":"CA","Zip":"95341"}]