[{"Location":"1ST CHOIS FINE HOMES INC","Address":"1133 N Carpenter Rd Ste2","City":"Modesto","State":"CA","Zip":"95351"},{"Location":"ACCIDENT CENTER","Address":"1630 E Hatch Rd A","City":"Modesto","State":"CA","Zip":"95351"},{"Location":"ATHLETIC CLUB","Address":"1420 Mitchell Rd","City":"Modesto","State":"CA","Zip":"95351"},{"Location":"BERBERIAN SHELTER","Address":"320 9th St","City":"Modesto","State":"CA","Zip":"95351"},{"Location":"BRAVE BULL","Address":"701 S 9th St","City":"Modesto","State":"CA","Zip":"95351"},{"Location":"BURGER KING","Address":"1421 E Hatch Rd","City":"Modesto","State":"CA","Zip":"95351"},{"Location":"BURNSIDE BODYSHOP","Address":"612 N Franklin St","City":"Modesto","State":"CA","Zip":"95351"},{"Location":"CARLSON SCALE INC.","Address":"1418 Lone Palm Ave","City":"Modesto","State":"CA","Zip":"95351"},{"Location":"CENTRAL VALLEY RECYCLING","Address":"522 S 9th St","City":"Modesto","State":"CA","Zip":"95351"},{"Location":"DAVIS GUEST HOME","Address":"1878 E Hatch Rd","City":"Modesto","State":"CA","Zip":"95351"},{"Location":"DAVIS GUEST HOME 3","Address":"1628 Nadine Ave","City":"Modesto","State":"CA","Zip":"95351"},{"Location":"DAVIS GUEST HOME 6","Address":"1209 N Central Ave","City":"Modesto","State":"CA","Zip":"95351"},{"Location":"DAVIS GUEST HOME1","Address":"1232 Nadine Ave","City":"Modesto","State":"CA","Zip":"95351"},{"Location":"EL ROSEL RESTAURANT #6","Address":"1101 N Carpenter Rd","City":"Modesto","State":"CA","Zip":"95351"},{"Location":"FAMILIA JUAREZZ","Address":"617 Paradise Rd","City":"Modesto","State":"CA","Zip":"95351"},{"Location":"KMART","Address":"1351 E Hatch Rd","City":"Modesto","State":"CA","Zip":"95351"},{"Location":"LA HACIENDA","Address":"1028 S 9th St","City":"Modesto","State":"CA","Zip":"95351"},{"Location":"LA MORENITA","Address":"1667 E Hatch Rd","City":"Modesto","State":"CA","Zip":"95351"},{"Location":"M AND B GROUP MOTOR INC","Address":"1413 Paradise Rd","City":"Modesto","State":"CA","Zip":"95351"},{"Location":"MCDONALDS 11845","Address":"901 N Carpenter Rd","City":"Modesto","State":"CA","Zip":"95351"},{"Location":"MODESTO LIVESTOCK","Address":"1107 S 7th St","City":"Modesto","State":"CA","Zip":"95351"},{"Location":"MODESTO MOOSE LODGE","Address":"821 5th St","City":"Modesto","State":"CA","Zip":"95351"},{"Location":"NAVY BEAUTY SALON","Address":"619 Paradise Rd","City":"Modesto","State":"CA","Zip":"95351"},{"Location":"PERFORMANCE TRANSMISSION","Address":"1339 Mitchell Rd","City":"Modesto","State":"CA","Zip":"95351"},{"Location":"PERKO'S CAFE #132","Address":"901 N Carpenter Rd","City":"Modesto","State":"CA","Zip":"95351"},{"Location":"PERKOS CAFE CARPENTER","Address":"901 N Carpenter Rd","City":"Modesto","State":"CA","Zip":"95351"},{"Location":"PG&E","Address":"1524 N Carpenter Rd","City":"Modesto","State":"CA","Zip":"95351"},{"Location":"RICOS ITALIAN PIZZA","Address":"1420 E Hatch Rd C","City":"Modesto","State":"CA","Zip":"95351"},{"Location":"SABAIDEE THAI & LAOS CUISINE","Address":"2901 E Hatch Road","City":"Modesto","State":"CA","Zip":"95351"},{"Location":"SCOTTS SUB COMPANY","Address":"1408 N Carpenter Rd","City":"Modesto","State":"CA","Zip":"95351"},{"Location":"SOS CLUB","Address":"819 Sunset Ave","City":"Modesto","State":"CA","Zip":"95351"},{"Location":"SPEEDY OIL CHANGE AND TU","Address":"1760 E Hatch Rd","City":"Modesto","State":"CA","Zip":"95351"},{"Location":"ST FRANCES LODGE","Address":"656 Paradise Rd","City":"Modesto","State":"CA","Zip":"95351"},{"Location":"STINES RESTORATION","Address":"1124 Kanas Ave Suit A3","City":"Modesto","State":"CA","Zip":"95351"},{"Location":"TACO FIESTA AND CATERING","Address":"1219 N Carpenter Rd","City":"Modesto","State":"CA","Zip":"95351"},{"Location":"THE SANDWICH SHOP","Address":"442 Kansas Ave","City":"Modesto","State":"CA","Zip":"95351"},{"Location":"VET CENTER","Address":"1219 N Carpenter Rd 12","City":"Modesto","State":"CA","Zip":"95351"},{"Location":"YOSEMITE MEAT CO. INC","Address":"601 Zeff Rd","City":"Modesto","State":"CA","Zip":"95351"}]