[{"Location":"ALADDIN BB DEPT 770","Address":"910 11th St","City":"Modesto","State":"CA","Zip":"95354"},{"Location":"ANTONINI FRUIT EXPRESS","Address":"115 11th Street","City":"Modesto","State":"CA","Zip":"95354"},{"Location":"BASIC  RESOURCES","Address":"220 Empire Ave","City":"Modesto","State":"CA","Zip":"95354"},{"Location":"BASIC RESOURCES","Address":"928 12th St 700","City":"Modesto","State":"CA","Zip":"95354"},{"Location":"CALIFORNIA GOLD ALMONDS","Address":"2407 Tenaya Dr","City":"Modesto","State":"CA","Zip":"95354"},{"Location":"CENTRAL CA SYSCO","Address":"300 Mariposa Rd","City":"Modesto","State":"CA","Zip":"95354"},{"Location":"CORPORATE SECURITY DEPARTMENT","Address":"600 Yosemite Blvd","City":"Modesto","State":"CA","Zip":"95354"},{"Location":"DC AIR LLC","Address":"901 Airport Way","City":"Modesto","State":"CA","Zip":"95354"},{"Location":"DOORTEK  OF MODESTO","Address":"530 El Roya Ave","City":"Modesto","State":"CA","Zip":"95354"},{"Location":"DT MODESTO BAR","Address":"1150 9th St","City":"Modesto","State":"CA","Zip":"95354"},{"Location":"E & J GALLO WINERY","Address":"600 Yosemite Blvd","City":"Modesto","State":"CA","Zip":"95354"},{"Location":"E & J GALLO WINERY","Address":"200 Yosemiteblvd","City":"Modesto","State":"CA","Zip":"95354"},{"Location":"EL JARDIN2","Address":"959 10th St","City":"Modesto","State":"CA","Zip":"95354"},{"Location":"FRATERNITY ORDER OF THE EAGLES","Address":"126 Camellia Way","City":"Modesto","State":"CA","Zip":"95354"},{"Location":"FUZIO UNIVERSAL BISTRO","Address":"1020 10th St 100","City":"Modesto","State":"CA","Zip":"95354"},{"Location":"G-3 ENTERPRISES","Address":"500 S Santa Rosa Ave","City":"Modesto","State":"CA","Zip":"95354"},{"Location":"GALLETO RISTORANTE","Address":"1101 J St","City":"Modesto","State":"CA","Zip":"95354"},{"Location":"GERVASONIS","Address":"712 9th St","City":"Modesto","State":"CA","Zip":"95354"},{"Location":"HALO MANAGER CORPORATION","Address":"1220 La Loma Ave 1","City":"Modesto","State":"CA","Zip":"95354"},{"Location":"JAMES BENOIT","Address":"1419 10th St","City":"Modesto","State":"CA","Zip":"95354"},{"Location":"JNN WHOLESALE MEAT INC","Address":"2300 Hoover Ave","City":"Modesto","State":"CA","Zip":"95354"},{"Location":"KALUNIAN AND MILLIKEN","Address":"1220 13th St","City":"Modesto","State":"CA","Zip":"95354"},{"Location":"LOVE LADY BODY AND PAINT SHOP","Address":"401 10th St","City":"Modesto","State":"CA","Zip":"95354"},{"Location":"MAYOL AND BARRINGER AT LAW","Address":"1324 J St","City":"Modesto","State":"CA","Zip":"95354"},{"Location":"MG COMMODITIES INC","Address":"1321 I St 1","City":"Modesto","State":"CA","Zip":"95354"},{"Location":"MODESTO CAFE","Address":"3121 Yosemite Blvd","City":"Modesto","State":"CA","Zip":"95354"},{"Location":"PHI AIR MEDICAL","Address":"801 Airport Way D","City":"Modesto","State":"CA","Zip":"95354"},{"Location":"PHO VY","Address":"330 Needham St","City":"Modesto","State":"CA","Zip":"95354"},{"Location":"PHOENIX NOODLE HOUSE","Address":"1222 H St","City":"Modesto","State":"CA","Zip":"95354"},{"Location":"PICCADILLY DELI SANDWHIC","Address":"941 10th St","City":"Modesto","State":"CA","Zip":"95354"},{"Location":"RANCHOS FRESCO MEXICAN","Address":"1008 J St","City":"Modesto","State":"CA","Zip":"95354"},{"Location":"RANK INVESTIGATIONS PROTECTION","Address":"1301 K St G","City":"Modesto","State":"CA","Zip":"95354"},{"Location":"RAYMOND JAMES FINANCIAL","Address":"832 12th St 601","City":"Modesto","State":"CA","Zip":"95354"},{"Location":"RUNNING IRON","Address":"516 Mchenry Ave","City":"Modesto","State":"CA","Zip":"95354"},{"Location":"S&L EXPRESS DELIVERY","Address":"121 Elm St","City":"Modesto","State":"CA","Zip":"95354"},{"Location":"SATELLITE DIALYSIS M-1","Address":"1315 10th St 300","City":"Modesto","State":"CA","Zip":"95354"},{"Location":"SATELLITE DIALYSIS M-2","Address":"1315 10th St 300","City":"Modesto","State":"CA","Zip":"95354"},{"Location":"SCENIC WHEEL & BRAKE","Address":"229 Empire Ave","City":"Modesto","State":"CA","Zip":"95354"},{"Location":"STANISLAUF FOOD PRODUCTS","Address":"1202 D St","City":"Modesto","State":"CA","Zip":"95354"},{"Location":"SURLAS","Address":"431 12th St","City":"Modesto","State":"CA","Zip":"95354"},{"Location":"SYSCO 2","Address":"136 Mariposa Rd","City":"Modesto","State":"CA","Zip":"95354"},{"Location":"SYSCO CENTRAL CA","Address":"136 Mariposa Rd","City":"Modesto","State":"CA","Zip":"95354"},{"Location":"THE BOARDROOM","Address":"1528 J St","City":"Modesto","State":"CA","Zip":"95354"},{"Location":"THE OTHER PLACE","Address":"2003 Yosemite Blvd","City":"Modesto","State":"CA","Zip":"95354"},{"Location":"TRESETTI'S WORLD CAFFE","Address":"927 11th St","City":"Modesto","State":"CA","Zip":"95354"},{"Location":"TURNING POINT COMMUNITY PROG","Address":"1001 Needham St","City":"Modesto","State":"CA","Zip":"95354"},{"Location":"URBANO LLC","Address":"1016 H St","City":"Modesto","State":"CA","Zip":"95354"},{"Location":"ALADDIN BB DEPT 770","Address":"910 11th St","City":"Modesto","State":"CA","Zip":"95354"},{"Location":"ANTONINI FRUIT EXPRESS","Address":"115 11th Street","City":"Modesto","State":"CA","Zip":"95354"},{"Location":"BASIC  RESOURCES","Address":"220 Empire Ave","City":"Modesto","State":"CA","Zip":"95354"},{"Location":"BASIC RESOURCES","Address":"928 12th St 700","City":"Modesto","State":"CA","Zip":"95354"},{"Location":"CALIFORNIA GOLD ALMONDS","Address":"2407 Tenaya Dr","City":"Modesto","State":"CA","Zip":"95354"},{"Location":"CENTRAL CA SYSCO","Address":"300 Mariposa Rd","City":"Modesto","State":"CA","Zip":"95354"},{"Location":"CORPORATE SECURITY DEPARTMENT","Address":"600 Yosemite Blvd","City":"Modesto","State":"CA","Zip":"95354"},{"Location":"DC AIR LLC","Address":"901 Airport Way","City":"Modesto","State":"CA","Zip":"95354"},{"Location":"DOORTEK  OF MODESTO","Address":"530 El Roya Ave","City":"Modesto","State":"CA","Zip":"95354"},{"Location":"DT MODESTO BAR","Address":"1150 9th St","City":"Modesto","State":"CA","Zip":"95354"},{"Location":"E & J GALLO WINERY","Address":"200 Yosemiteblvd","City":"Modesto","State":"CA","Zip":"95354"},{"Location":"E & J GALLO WINERY","Address":"600 Yosemite Blvd","City":"Modesto","State":"CA","Zip":"95354"},{"Location":"EL JARDIN2","Address":"959 10th St","City":"Modesto","State":"CA","Zip":"95354"},{"Location":"FRATERNITY ORDER OF THE EAGLES","Address":"126 Camellia Way","City":"Modesto","State":"CA","Zip":"95354"},{"Location":"FUZIO UNIVERSAL BISTRO","Address":"1020 10th St 100","City":"Modesto","State":"CA","Zip":"95354"},{"Location":"G-3 ENTERPRISES","Address":"500 S Santa Rosa Ave","City":"Modesto","State":"CA","Zip":"95354"},{"Location":"GALLETO RISTORANTE","Address":"1101 J St","City":"Modesto","State":"CA","Zip":"95354"},{"Location":"GERVASONIS","Address":"712 9th St","City":"Modesto","State":"CA","Zip":"95354"},{"Location":"HALO MANAGER CORPORATION","Address":"1220 La Loma Ave 1","City":"Modesto","State":"CA","Zip":"95354"},{"Location":"HEROS SPORTS LOUNGE AND PIZZA","Address":"821 L St","City":"Modesto","State":"CA","Zip":"95354"},{"Location":"JAMES BENOIT","Address":"1419 10th St","City":"Modesto","State":"CA","Zip":"95354"},{"Location":"JNN WHOLESALE MEAT INC","Address":"2300 Hoover Ave","City":"Modesto","State":"CA","Zip":"95354"},{"Location":"JOANNA R SMITH BAIL BONDS","Address":"1202 H St E","City":"Modesto","State":"CA","Zip":"95354"},{"Location":"KALUNIAN AND MILLIKEN","Address":"1220 13th St","City":"Modesto","State":"CA","Zip":"95354"},{"Location":"LOVE LADY BODY AND PAINT SHOP","Address":"401 10th St","City":"Modesto","State":"CA","Zip":"95354"},{"Location":"MAYOL AND BARRINGER AT LAW","Address":"1324 J St","City":"Modesto","State":"CA","Zip":"95354"},{"Location":"MG COMMODITIES INC","Address":"1321 I St 1","City":"Modesto","State":"CA","Zip":"95354"},{"Location":"Modesto Cafe","Address":"3121 Yosemite Blvd","City":"Modesto","State":"CA","Zip":"95354"},{"Location":"PHI AIR MEDICAL","Address":"801 Airport Way D","City":"Modesto","State":"CA","Zip":"95354"},{"Location":"Pho Vy","Address":"330 Needham St","City":"Modesto","State":"CA","Zip":"95354"},{"Location":"PHOENIX NOODLE HOUSE","Address":"1222 H St","City":"Modesto","State":"CA","Zip":"95354"},{"Location":"PICCADILLY DELI SANDWHIC","Address":"941 10th St","City":"Modesto","State":"CA","Zip":"95354"},{"Location":"RANCHOS FRESCO MEXICAN","Address":"1008 J St","City":"Modesto","State":"CA","Zip":"95354"},{"Location":"RANK INVESTIGATIONS PROTECTION","Address":"1301 K St G","City":"Modesto","State":"CA","Zip":"95354"},{"Location":"RAYMOND JAMES FINANCIAL","Address":"832 12th St 601","City":"Modesto","State":"CA","Zip":"95354"},{"Location":"RUNNING IRON","Address":"516 Mchenry Ave","City":"Modesto","State":"CA","Zip":"95354"},{"Location":"S&L EXPRESS DELIVERY","Address":"121 Elm St","City":"Modesto","State":"CA","Zip":"95354"},{"Location":"SATELLITE DIALYSIS M-1","Address":"1315 10th St 300","City":"Modesto","State":"CA","Zip":"95354"},{"Location":"SATELLITE DIALYSIS M-2","Address":"1315 10th St 300","City":"Modesto","State":"CA","Zip":"95354"},{"Location":"SCENIC WHEEL & BRAKE","Address":"229 Empire Ave","City":"Modesto","State":"CA","Zip":"95354"},{"Location":"STANISLAUF FOOD PRODUCTS","Address":"1202 D St","City":"Modesto","State":"CA","Zip":"95354"},{"Location":"SURLAS","Address":"431 12th St","City":"Modesto","State":"CA","Zip":"95354"},{"Location":"SYSCO 2","Address":"136 Mariposa Rd","City":"Modesto","State":"CA","Zip":"95354"},{"Location":"SYSCO CENTRAL CA","Address":"136 Mariposa Rd","City":"Modesto","State":"CA","Zip":"95354"},{"Location":"THE BOARDROOM","Address":"1528 J St","City":"Modesto","State":"CA","Zip":"95354"},{"Location":"THE OTHER PLACE","Address":"2003 Yosemite Blvd","City":"Modesto","State":"CA","Zip":"95354"},{"Location":"TRESETTI'S WORLD CAFFE","Address":"927 11th St","City":"Modesto","State":"CA","Zip":"95354"},{"Location":"TURNING POINT COMMUNITY PROG","Address":"1001 Needham St","City":"Modesto","State":"CA","Zip":"95354"},{"Location":"URBANO LLC","Address":"1016 H St","City":"Modesto","State":"CA","Zip":"95354"}]