[{"Location":"ADVANCED TOWING AND SVC","Address":"2216 Nickerson Dr","City":"Modesto","State":"CA","Zip":"95358"},{"Location":"BERTOLOTTI DISPOSAL","Address":"231 Flamingo Dr","City":"Modesto","State":"CA","Zip":"95358"},{"Location":"CITY OF MODESTO","Address":"7007 Jennings Rd","City":"Modesto","State":"CA","Zip":"95358"},{"Location":"CLARK PEST CONTROL","Address":"480 E Service Rd","City":"Modesto","State":"CA","Zip":"95358"},{"Location":"FERGUSON #0682","Address":"2210 Crows Landing Rd","City":"Modesto","State":"CA","Zip":"95358"},{"Location":"G3 INTERPRISES","Address":"502 E Whitmore Ave","City":"Modesto","State":"CA","Zip":"95358"},{"Location":"G3 LABEL DIVISION","Address":"2612 Crows Landing Rd","City":"Modesto","State":"CA","Zip":"95358"},{"Location":"G3 LABELS","Address":"2612 Crows Landing Rd","City":"Modesto","State":"CA","Zip":"95358"},{"Location":"HEARTLAND LOGISTICS","Address":"1000 Oates Ct","City":"Modesto","State":"CA","Zip":"95358"},{"Location":"LA HUACANA","Address":"101 E Glenn Ave","City":"Modesto","State":"CA","Zip":"95358"},{"Location":"LYONS INVESTMENTS","Address":"10555 Maze Blvd","City":"Modesto","State":"CA","Zip":"95358"},{"Location":"MCDONALDS 25060","Address":"1280 E Whitmore Ave","City":"Modesto","State":"CA","Zip":"95358"},{"Location":"RANCHO FRESCO MEXICAN","Address":"4955 Crows Landing Rd","City":"Modesto","State":"CA","Zip":"95358"},{"Location":"THE LIVING CENTERS OF CA INC","Address":"2218 W Whitmore Ave","City":"Modesto","State":"CA","Zip":"95358"},{"Location":"TWIN RIVERS SALOON","Address":"7000 Maze Blvd","City":"Modesto","State":"CA","Zip":"95358"},{"Location":"WEST FIREMANS ASSO","Address":"5160 S Carpenter Rd","City":"Modesto","State":"CA","Zip":"95358"}]