[{"Location":"AMBECK MORTGAGE ASSOC","Address":"3421 Tully Rd A","City":"Modesto","State":"CA","Zip":"95350"},{"Location":"ASIA GARDEN","Address":"2312 Mchenry Ave","City":"Modesto","State":"CA","Zip":"95350"},{"Location":"BOOKIES INC","Address":"2020 Standiford Ave J8","City":"Modesto","State":"CA","Zip":"95350"},{"Location":"BRUCE VALENTINE DDS APC","Address":"1801 Tully Rd","City":"Modesto","State":"CA","Zip":"95350"},{"Location":"CAREMORE","Address":"1234 Mchenry Ave","City":"Modesto","State":"CA","Zip":"95350"},{"Location":"CASA DE MODESTO","Address":"1745 Eldena Way","City":"Modesto","State":"CA","Zip":"95350"},{"Location":"CHEVY'S 2024","Address":"1700 Standiford Ave","City":"Modesto","State":"CA","Zip":"95350"},{"Location":"CITY TIRE SALES","Address":"1220 Mchenry Ave","City":"Modesto","State":"CA","Zip":"95350"},{"Location":"DAMIAN'S RESTAURANTS","Address":"2075 W Orangeburg Ave","City":"Modesto","State":"CA","Zip":"95350"},{"Location":"DAVID F WOODILL DDS","Address":"1101 Standiford Ave B3","City":"Modesto","State":"CA","Zip":"95350"},{"Location":"DIXON MINISTRIES2","Address":"3105 Norfolk Way","City":"Modesto","State":"CA","Zip":"95350"},{"Location":"EL ROSAL","Address":"3430 Tully Rd 51","City":"Modesto","State":"CA","Zip":"95350"},{"Location":"ENGLISH OAKS","Address":"2633 W Rumble Rd","City":"Modesto","State":"CA","Zip":"95350"},{"Location":"FARMERS AND MERCHANTS BANK","Address":"3001 Mchenry Ave","City":"Modesto","State":"CA","Zip":"95350"},{"Location":"FRANKLIN & DOWNS MCHENRY","Address":"1050 Mchenry Ave","City":"Modesto","State":"CA","Zip":"95350"},{"Location":"GET FIT GUARANTEED","Address":"2801 Mchenry Ave","City":"Modesto","State":"CA","Zip":"95350"},{"Location":"HERITAGE FORD","Address":"2100 Sisk Rd","City":"Modesto","State":"CA","Zip":"95350"},{"Location":"HOPE CHEST  2 - MODESTO","Address":"1241 Mchenry Ave","City":"Modesto","State":"CA","Zip":"95350"},{"Location":"HOPE CREST 2","Address":"1241 Mchenry Ave","City":"Modesto","State":"CA","Zip":"95350"},{"Location":"IMAGE DENTAL","Address":"1801 Tully Rd","City":"Modesto","State":"CA","Zip":"95350"},{"Location":"IN SHAPE HEALTH CLUB MCHENRY","Address":"1234 Mchenry Ave","City":"Modesto","State":"CA","Zip":"95350"},{"Location":"IN SHAPE HEALTH CLUBS MODESTO","Address":"2700 Mchenry Ave","City":"Modesto","State":"CA","Zip":"95350"},{"Location":"IN SHAPE HEALTH CLUBS PRESCOTT","Address":"1800 Prescott Rd 0","City":"Modesto","State":"CA","Zip":"95350"},{"Location":"IN SHAPE MODESTO","Address":"2700 Mchenry Ave","City":"Modesto","State":"CA","Zip":"95350"},{"Location":"J AND C ROYAL BEAUTY SUPPLY","Address":"1733 Prescott Rd","City":"Modesto","State":"CA","Zip":"95350"},{"Location":"JACKS PIZZA CAFE 2","Address":"2001 Mchenry Ave","City":"Modesto","State":"CA","Zip":"95350"},{"Location":"Jalapeno'S Taqueria","Address":"2001 Tully Rd","City":"Modesto","State":"CA","Zip":"95350"},{"Location":"JALAPENO'S TAQUERIA","Address":"2001 Tully Rd D","City":"Modesto","State":"CA","Zip":"95350"},{"Location":"JAVI'S RESTAURANT","Address":"1225 Standiford Ave","City":"Modesto","State":"CA","Zip":"95350"},{"Location":"JOHNS INCREDIBLE PIZZA","Address":"2225 Plaza Pkwy N","City":"Modesto","State":"CA","Zip":"95350"},{"Location":"KOBE SUSHI BUFFET","Address":"1700 Mchenry Ave L","City":"Modesto","State":"CA","Zip":"95350"},{"Location":"KOHL'S #714","Address":"2225 Plaza Pkwy G","City":"Modesto","State":"CA","Zip":"95350"},{"Location":"LA PARRILLA MEXICAN 3","Address":"1700 Mchenry Ave 6","City":"Modesto","State":"CA","Zip":"95350"},{"Location":"LUPITAS BEAUTY SALON","Address":"1100 Carver Rd Q","City":"Modesto","State":"CA","Zip":"95350"},{"Location":"MAK","Address":"1612 Sisk Rd","City":"Modesto","State":"CA","Zip":"95350"},{"Location":"MAK LLC","Address":"1612 Sisk Rd","City":"Modesto","State":"CA","Zip":"95350"},{"Location":"MCDONALDS1","Address":"3430 Tully Rd 80","City":"Modesto","State":"CA","Zip":"95350"},{"Location":"MEMORIAL MEDICAL CENTER","Address":"1200 Scenic Dr 200","City":"Modesto","State":"CA","Zip":"95350"},{"Location":"MILANO PIZZA AND GREEK","Address":"2900 Standiford Ave 13b","City":"Modesto","State":"CA","Zip":"95350"},{"Location":"MODESTO EYE SURGERY","Address":"400 E Orangeburg Ave 2","City":"Modesto","State":"CA","Zip":"95350"},{"Location":"MOUNTAIN MIKES PIZZA","Address":"2720 Mchenry Ave","City":"Modesto","State":"CA","Zip":"95350"},{"Location":"NEW COVENANT TAX AND ACCOUNTIN","Address":"3125 Mchenry Ave B","City":"Modesto","State":"CA","Zip":"95350"},{"Location":"OUTBACK STEAKHOUSE #0517","Address":"2045 W Briggsmore Ave D","City":"Modesto","State":"CA","Zip":"95350"},{"Location":"P WEXFORDS","Address":"3313 Mchenry Ave","City":"Modesto","State":"CA","Zip":"95350"},{"Location":"PIZZA HUT #028576","Address":"1047 W Orangeburg Ave","City":"Modesto","State":"CA","Zip":"95350"},{"Location":"PIZZA HUT 011768","Address":"1400 Standiford Ave A","City":"Modesto","State":"CA","Zip":"95350"},{"Location":"PLANET FITNESS","Address":"2045 W Briggsmore Ave","City":"Modesto","State":"CA","Zip":"95350"},{"Location":"PLANNED PARENTHOOD MAR MONTE","Address":"1431 Mchenry Ave 100","City":"Modesto","State":"CA","Zip":"95350"},{"Location":"PLEASANTON FITMESS%2C LLC","Address":"2012 Mchenry Ave","City":"Modesto","State":"CA","Zip":"95350"},{"Location":"PRECISION AUTOMOTIVE","Address":"1203 Scenic Dr","City":"Modesto","State":"CA","Zip":"95350"},{"Location":"RED LOBSTER #0335","Address":"3000 Sisk Rd","City":"Modesto","State":"CA","Zip":"95350"},{"Location":"RESCARE","Address":"3217 Tully Rd","City":"Modesto","State":"CA","Zip":"95350"},{"Location":"RICHARDS BARBER SALON","Address":"1700 Mchenry Ave 66a","City":"Modesto","State":"CA","Zip":"95350"},{"Location":"RIVER SURGICAL INSTITUTE","Address":"609 E Orangeburg Ave","City":"Modesto","State":"CA","Zip":"95350"},{"Location":"RJ MODESTO LLC","Address":"1700 Mchenry Ave 50b","City":"Modesto","State":"CA","Zip":"95350"},{"Location":"ROSSINI FORMAL WEAR","Address":"3224 Mchenry Ave","City":"Modesto","State":"CA","Zip":"95350"},{"Location":"RUBENS BARBER SHOP","Address":"605 Tully Rd","City":"Modesto","State":"CA","Zip":"95350"},{"Location":"SCORES HAIR CUTS","Address":"3430 Tully Rd 19","City":"Modesto","State":"CA","Zip":"95350"},{"Location":"SPRINGHILL SUITES(0062271)","Address":"1901 W Orangeburg Ave","City":"Modesto","State":"CA","Zip":"95350"},{"Location":"STANISLUS  ORTHOPEDICS","Address":"609 E Orangeburg Ave 201","City":"Modesto","State":"CA","Zip":"95350"},{"Location":"STEVEN T DUONG","Address":"2020 Standiford Ave J7a","City":"Modesto","State":"CA","Zip":"95350"},{"Location":"TARGET","Address":"3405 Mchenry Ave","City":"Modesto","State":"CA","Zip":"95350"},{"Location":"TEXAS ROADHOUSE #2433","Address":"3037 Sisk Rd","City":"Modesto","State":"CA","Zip":"95350"},{"Location":"TIKI LOUNGE","Address":"932 Mchenry Ave","City":"Modesto","State":"CA","Zip":"95350"},{"Location":"VETERINARY EMERGENCY CLINIC","Address":"1800 Prescott Rd","City":"Modesto","State":"CA","Zip":"95350"},{"Location":"VIEIRAS LOUNGE","Address":"1700 Mchenry Ave","City":"Modesto","State":"CA","Zip":"95350"},{"Location":"VINTAGE CAR WASH INC","Address":"1801 Standiford Ave","City":"Modesto","State":"CA","Zip":"95350"},{"Location":"WENDYS 3010","Address":"1501 Mchenry Ave","City":"Modesto","State":"CA","Zip":"95350"},{"Location":"WHITE ELEPHANT LOUNGE","Address":"1703 Standiford Ave","City":"Modesto","State":"CA","Zip":"95350"},{"Location":"WING STOP","Address":"2100 Standiford Ave","City":"Modesto","State":"CA","Zip":"95350"}]