[{"Location":"AIR METHODS CORPORATION","Address":"1329 Spanos Ct B1","City":"Modesto","State":"CA","Zip":"95355"},{"Location":"AMANDA FARLEY DDS","Address":"1213 Coffee Rd C","City":"Modesto","State":"CA","Zip":"95355"},{"Location":"BIOSPORT","Address":"1933 Coffee Rd","City":"Modesto","State":"CA","Zip":"95355"},{"Location":"BUFFALO WINGS & RINGS","Address":"3020 Floyd Ave 601","City":"Modesto","State":"CA","Zip":"95355"},{"Location":"CHEFS OF NEW YORK","Address":"2307 Oakdale Rd 206","City":"Modesto","State":"CA","Zip":"95355"},{"Location":"COACHES","Address":"950 Oakdale Rd","City":"Modesto","State":"CA","Zip":"95355"},{"Location":"DONOBY'S BAR & GRILL","Address":"2401 E Orangeburg Ave","City":"Modesto","State":"CA","Zip":"95355"},{"Location":"GENSIS FAMILY ENTERPRISES INC","Address":"2307 Oakdale Rd","City":"Modesto","State":"CA","Zip":"95355"},{"Location":"GOLD STAR INVESTMENTS","Address":"2633 Marblehead Cir","City":"Modesto","State":"CA","Zip":"95355"},{"Location":"HYLOND HEALTHCARE MODESTO","Address":"1900 Coffee Rd","City":"Modesto","State":"CA","Zip":"95355"},{"Location":"IN SHAPE CLUBS MODESTO","Address":"1533 Oakdale Rd","City":"Modesto","State":"CA","Zip":"95355"},{"Location":"IN SHAPE HEALTH CLUBS FLOYD","Address":"2254 Floyd Ave","City":"Modesto","State":"CA","Zip":"95355"},{"Location":"MARIE CALLENDARS","Address":"3500 Coffee Rd","City":"Modesto","State":"CA","Zip":"95355"},{"Location":"MOUNTAIN MIKES PIZZA INC","Address":"3020 Floyd Ave 301","City":"Modesto","State":"CA","Zip":"95355"},{"Location":"MY GARDEN CAFE","Address":"1109 Oakdale Rd","City":"Modesto","State":"CA","Zip":"95355"},{"Location":"N C VALLEY BASEBALL","Address":"2108 Mable Ave","City":"Modesto","State":"CA","Zip":"95355"},{"Location":"NATALIE LENSER DDS","Address":"3109 Coffee Rd B","City":"Modesto","State":"CA","Zip":"95355"},{"Location":"NT NAILS","Address":"3020 Floyd Ave","City":"Modesto","State":"CA","Zip":"95355"},{"Location":"PIZZA HUT #011769","Address":"2401 E Orangeburg Ave","City":"Modesto","State":"CA","Zip":"95355"},{"Location":"PLANET FITNESS","Address":"2401 E Orangeburg Ave 400","City":"Modesto","State":"CA","Zip":"95355"},{"Location":"RAY NEPO DDS","Address":"2020 Coffee Rd B4","City":"Modesto","State":"CA","Zip":"95355"},{"Location":"RIDGWAY REST","Address":"2401 E Orangeburg Ave","City":"Modesto","State":"CA","Zip":"95355"},{"Location":"ROUND TABLE PIZZA #186","Address":"2401 E Orangeburg Ave","City":"Modesto","State":"CA","Zip":"95355"},{"Location":"ROYCES","Address":"1424 Coffee Rd","City":"Modesto","State":"CA","Zip":"95355"},{"Location":"SAIGON RESTUARANT","Address":"2601 Oakdale Rd K","City":"Modesto","State":"CA","Zip":"95355"},{"Location":"SATELLITE DIALYSIS MODESTO","Address":"3500 Coffee Rd 21","City":"Modesto","State":"CA","Zip":"95355"},{"Location":"SCORES HAIR CUTS 2","Address":"2508 Oakdale Rd B3","City":"Modesto","State":"CA","Zip":"95355"},{"Location":"SHILOH CHURCH MODESTO","Address":"3330 Oakdale Rd","City":"Modesto","State":"CA","Zip":"95355"},{"Location":"SPEEDY OIL CHANGE AND TUNE UP","Address":"1343 Coffee Rd","City":"Modesto","State":"CA","Zip":"95355"},{"Location":"STANISLAUS MEDICAL SOCIE","Address":"2339 St Pauls Way","City":"Modesto","State":"CA","Zip":"95355"},{"Location":"SUSHI GARDEN","Address":"3500 Coffee Rd 25","City":"Modesto","State":"CA","Zip":"95355"},{"Location":"Taqueria Guadalajara","Address":"2400 Coffee Rd","City":"Modesto","State":"CA","Zip":"95355"},{"Location":"TASTY THAI","Address":"3020 Floyd Ave 105","City":"Modesto","State":"CA","Zip":"95355"},{"Location":"THE TAP ROOM PUB AND GRUB","Address":"3948 Sylvan Ave 301","City":"Modesto","State":"CA","Zip":"95355"},{"Location":"TORII JAPANESE","Address":"2401 E Orangeburg Ave","City":"Modesto","State":"CA","Zip":"95355"},{"Location":"UNO CHICAGO GRILL #8301","Address":"1533 Oakdale Rd","City":"Modesto","State":"CA","Zip":"95355"},{"Location":"WENDELL NARAGHI","Address":"1800 Oakdale Rd","City":"Modesto","State":"CA","Zip":"95355"}]