[{"Location":"511 TACTICAL","Address":"4300 Spyres Way","City":"Modesto","State":"CA","Zip":"95356"},{"Location":"APPLEBEE'S MODESTO #9120","Address":"3900 Sisk Rd","City":"Modesto","State":"CA","Zip":"95356"},{"Location":"AZEVEDO INVESTMENT CORPO","Address":"4230 Kiernan Ave 200","City":"Modesto","State":"CA","Zip":"95356"},{"Location":"BANK OF WEST","Address":"4701 Sisk Rd 201","City":"Modesto","State":"CA","Zip":"95356"},{"Location":"BFC PROPERTIES","Address":"515 Lyell Drive 101","City":"Modesto","State":"CA","Zip":"95356"},{"Location":"BJS RESTAURANT #475","Address":"3401 Dale Rd","City":"Modesto","State":"CA","Zip":"95356"},{"Location":"BUFFALO WILD WINGS #0272","Address":"3401 Dale Rd 830","City":"Modesto","State":"CA","Zip":"95356"},{"Location":"BURRITO TO GO","Address":"5007 Mchenry Ave","City":"Modesto","State":"CA","Zip":"95356"},{"Location":"CARINO'S ITALIAN MODESTO #1605","Address":"3401 Dale Rd C","City":"Modesto","State":"CA","Zip":"95356"},{"Location":"CARMAX #7159","Address":"4300 Mchenry Ave","City":"Modesto","State":"CA","Zip":"95356"},{"Location":"CENTRAL VALLEY AUTOMOTIVE","Address":"4460 Mchenry Ave","City":"Modesto","State":"CA","Zip":"95356"},{"Location":"CHILI'S #0745","Address":"3401 Dale Rd","City":"Modesto","State":"CA","Zip":"95356"},{"Location":"CONSTRUCION MANGEMENT CORP","Address":"627 Bitritto Ct","City":"Modesto","State":"CA","Zip":"95356"},{"Location":"CREATIVE ENVIROMENTAL SA","Address":"607 Galaxy Way","City":"Modesto","State":"CA","Zip":"95356"},{"Location":"DAVITA #5334 MODESTO HEMO","Address":"3001 Healthcare Way 102","City":"Modesto","State":"CA","Zip":"95356"},{"Location":"DAVITA #5375 MODESTO HOME","Address":"3001 Health Care Way 101","City":"Modesto","State":"CA","Zip":"95356"},{"Location":"DICK'S SPORTING GOODS #0624","Address":"3401 Dale Rd","City":"Modesto","State":"CA","Zip":"95356"},{"Location":"DK NOODLE VIETNAMESE CUISINE","Address":"3848 Mchenry Ave 115","City":"Modesto","State":"CA","Zip":"95356"},{"Location":"EL ROSAL RESTAURANT 4","Address":"3900 Pelandale Ave 155","City":"Modesto","State":"CA","Zip":"95356"},{"Location":"EL ROSAL2","Address":"3900 Pelandale Ave","City":"Modesto","State":"CA","Zip":"95356"},{"Location":"EMPIRE SPORTSMAN ASSOCIATION","Address":"5001 Mchenry Ave","City":"Modesto","State":"CA","Zip":"95356"},{"Location":"EPN - LEO SUAREZ","Address":"4718 Greenleaf Ct 1","City":"Modesto","State":"CA","Zip":"95356"},{"Location":"FARMERS AND MERCHANTS BANK","Address":"3500 Dale Rd","City":"Modesto","State":"CA","Zip":"95356"},{"Location":"FIRESTONE #015946","Address":"3230 36 Dale Rd","City":"Modesto","State":"CA","Zip":"95356"},{"Location":"FITNESS EVOLUTION","Address":"4120 Dale Rd G","City":"Modesto","State":"CA","Zip":"95356"},{"Location":"FREESE AND GIANLLI","Address":"642 Galaxy Way","City":"Modesto","State":"CA","Zip":"95356"},{"Location":"HALEY FARMS INC","Address":"1030 Ladd Rd","City":"Modesto","State":"CA","Zip":"95356"},{"Location":"HG MAKELIM INC","Address":"4701 Enterprise Way","City":"Modesto","State":"CA","Zip":"95356"},{"Location":"HOPE CHEST","Address":"4143 Mchenry Ave","City":"Modesto","State":"CA","Zip":"95356"},{"Location":"HUFF CONSTRUCTION COMPANY%2C INC","Address":"4917 Stoddard Rd","City":"Modesto","State":"CA","Zip":"95356"},{"Location":"IN SHAPE FITNESS WOOD COLONY","Address":"3900 Pelandale Ave 605","City":"Modesto","State":"CA","Zip":"95356"},{"Location":"INDUSTRIAL PIPING","Address":"4751 N Star Way","City":"Modesto","State":"CA","Zip":"95356"},{"Location":"INNOV8 PARTNERS LLC","Address":"4335 N Star Way","City":"Modesto","State":"CA","Zip":"95356"},{"Location":"INTERSPORT FITNESS CENTER","Address":"4847 Stratos Way","City":"Modesto","State":"CA","Zip":"95356"},{"Location":"J P ASIA FUSION","Address":"3801 Pelandale Ave E3","City":"Modesto","State":"CA","Zip":"95356"},{"Location":"KEYSTONE PROPERTIES","Address":"5225 Pentecost Dr 23","City":"Modesto","State":"CA","Zip":"95356"},{"Location":"LIDIA'S BLESSED HOME","Address":"3209 Hummingbird Ln","City":"Modesto","State":"CA","Zip":"95356"},{"Location":"MACY'S WEST 335","Address":"500 Vintage Faire Mall","City":"Modesto","State":"CA","Zip":"95356"},{"Location":"MACY'S WEST 335","Address":"400 Vintage Faire Mall","City":"Modesto","State":"CA","Zip":"95356"},{"Location":"MACY'S WEST 335 BR","Address":"500 Vintage Faire Mall","City":"Modesto","State":"CA","Zip":"95356"},{"Location":"MCDONALDS #26920","Address":"4120 Dale Rd","City":"Modesto","State":"CA","Zip":"95356"},{"Location":"MCHENRY GOLF CENTER","Address":"5150 Mchenry Ave","City":"Modesto","State":"CA","Zip":"95356"},{"Location":"ME-N-EDS PIZZERIA DIV51","Address":"3900 Pelandale Ave 170","City":"Modesto","State":"CA","Zip":"95356"},{"Location":"MEDTECH","Address":"4301 N Star Way","City":"Modesto","State":"CA","Zip":"95356"},{"Location":"MEN'S WEARHOUSE #2272","Address":"3401 Dale Rd W3","City":"Modesto","State":"CA","Zip":"95356"},{"Location":"MIKES GRILLHOUSE","Address":"3801 Pelandale Ave","City":"Modesto","State":"CA","Zip":"95356"},{"Location":"MODESTO ELKS LODGE #1282","Address":"645 Charity Way","City":"Modesto","State":"CA","Zip":"95356"},{"Location":"MODESTO SUBARU","Address":"4360 Mchenry Ave","City":"Modesto","State":"CA","Zip":"95356"},{"Location":"MR TS DELICATE DONUT","Address":"3507 Tully Rd 330","City":"Modesto","State":"CA","Zip":"95356"},{"Location":"MR. PICKLES","Address":"3801 Pelandale Ave A13","City":"Modesto","State":"CA","Zip":"95356"},{"Location":"NINOS PLACE 3","Address":"5219 Mchenry Ave","City":"Modesto","State":"CA","Zip":"95356"},{"Location":"OBRIANS TAVERN","Address":"3619 Tully Rd","City":"Modesto","State":"CA","Zip":"95356"},{"Location":"PACIFIC COAST SALE","Address":"4335 N Star Way C","City":"Modesto","State":"CA","Zip":"95356"},{"Location":"PERKOS CAFE","Address":"3848 Mchenry Ave","City":"Modesto","State":"CA","Zip":"95356"},{"Location":"PERKOS CAFE MCHENRY","Address":"3848 Mchenry Ave 300","City":"Modesto","State":"CA","Zip":"95356"},{"Location":"PINNACLE SOLUTIONS","Address":"637 Bangs Ave","City":"Modesto","State":"CA","Zip":"95356"},{"Location":"PLUMBERS AND PIPE FITTERS","Address":"4842 Nutcracker Ln","City":"Modesto","State":"CA","Zip":"95356"},{"Location":"PRIMARY RESIDENTIAL MORTGAGE","Address":"4216 Kiernan Ave 200","City":"Modesto","State":"CA","Zip":"95356"},{"Location":"PX3 SPORTS SCIENCE","Address":"5253 Jerusalem Ct","City":"Modesto","State":"CA","Zip":"95356"},{"Location":"ROBERTS AUTO SALES","Address":"4813 Mchenry Ave","City":"Modesto","State":"CA","Zip":"95356"},{"Location":"ROGERS JEWELRY CO","Address":"3600 Sisk Rd","City":"Modesto","State":"CA","Zip":"95356"},{"Location":"ROUND TABLE PIZZA #701","Address":"3848 Mchenry Ave 150","City":"Modesto","State":"CA","Zip":"95356"},{"Location":"SCOTTRADE 54H","Address":"3801 Pelandale Ave B5","City":"Modesto","State":"CA","Zip":"95356"},{"Location":"SEARS AUTO CENTER","Address":"100 Vintage Faire Mall","City":"Modesto","State":"CA","Zip":"95356"},{"Location":"STANTON OPTICAL FLORIDA LLC2","Address":"3200 Sisk Rd","City":"Modesto","State":"CA","Zip":"95356"},{"Location":"SUTTER GOULD MEDICAL FOUNDATIO","Address":"4712 Stoddard Rd","City":"Modesto","State":"CA","Zip":"95356"},{"Location":"TAVISTOCK FREEBIRDS LLC","Address":"3601 Pelandale Ave E1","City":"Modesto","State":"CA","Zip":"95356"},{"Location":"TONY ESCROW DOCUMENTS INC","Address":"5225 Pentecost Dr B25","City":"Modesto","State":"CA","Zip":"95356"},{"Location":"UNITED CEREBRAL PALSY","Address":"4265 Spyres Way 2","City":"Modesto","State":"CA","Zip":"95356"},{"Location":"UNO CHICAGO GRILL","Address":"3250 Dale Rd L","City":"Modesto","State":"CA","Zip":"95356"},{"Location":"US HOUSE OF REP.","Address":"4701 Sisk Rd 202","City":"Modesto","State":"CA","Zip":"95356"},{"Location":"USA ELITE GYMNASTICS","Address":"4801 Stratos Way C","City":"Modesto","State":"CA","Zip":"95356"},{"Location":"VALLEY LEXUS","Address":"4701 Mchenry Ave","City":"Modesto","State":"CA","Zip":"95356"},{"Location":"VALLEY OAK PEDIATRIC","Address":"4120 Prescott Rd","City":"Modesto","State":"CA","Zip":"95356"},{"Location":"VALLEY WOUND HEALING CLI","Address":"4335 N Star Way A","City":"Modesto","State":"CA","Zip":"95356"},{"Location":"VELVET GRILL CREAMERY","Address":"3250 Dale Rd","City":"Modesto","State":"CA","Zip":"95356"},{"Location":"VINTAGE FAIR MALL","Address":"3401 Dale Rd 483","City":"Modesto","State":"CA","Zip":"95356"},{"Location":"VINTAGE FAIR MALL 2","Address":"3401 Dale Rd","City":"Modesto","State":"CA","Zip":"95356"},{"Location":"VINTAGE FAIR MALL3","Address":"3401 Dale Rd 483","City":"Modesto","State":"CA","Zip":"95356"},{"Location":"WHITE HAWK LOUNGE","Address":"3848 Mchenry Ave","City":"Modesto","State":"CA","Zip":"95356"}]