[{"Location":"AFFINIA BRAKE PARTS","Address":"2701 Keystone Pacific Pkwy","City":"Patterson","State":"CA","Zip":"95363"},{"Location":"AMAZON","Address":"255 Park Center Dr","City":"Patterson","State":"CA","Zip":"95363"},{"Location":"ANYTIME FITNESS","Address":"1075 Sperry Ave","City":"Patterson","State":"CA","Zip":"95363"},{"Location":"APRICOT WOOD BBQ COMPANY","Address":"2985 Renzo Ln E","City":"Patterson","State":"CA","Zip":"95363"},{"Location":"BEST WESTERN PLUS VILLA","Address":"2959 Speno Dr","City":"Patterson","State":"CA","Zip":"95363"},{"Location":"BIG O TIRES","Address":"515 S 2nd St","City":"Patterson","State":"CA","Zip":"95363"},{"Location":"BOBBY YAMAMOTO AND SONS LLC","Address":"1010 Sperry Ave","City":"Patterson","State":"CA","Zip":"95363"},{"Location":"CVS WAREHOUSE","Address":"2400 Keystone Pacific Pkwy","City":"Patterson","State":"CA","Zip":"95363"},{"Location":"DAMASCO","Address":"2959 Speno Dr","City":"Patterson","State":"CA","Zip":"95363"},{"Location":"EL ROSAL #11","Address":"2985 Renzo Ln A","City":"Patterson","State":"CA","Zip":"95363"},{"Location":"EMANUEL MEDICAL CENTER","Address":"1010 W Las Palmas Ave E","City":"Patterson","State":"CA","Zip":"95363"},{"Location":"GRAINGER","Address":"2710 Keystone Pacific Pkwy","City":"Patterson","State":"CA","Zip":"95363"},{"Location":"J AND M BARBER SHOP","Address":"17 S Del Puerto Ave","City":"Patterson","State":"CA","Zip":"95363"},{"Location":"KOHLS","Address":"2065 Keystone Parkway","City":"Patterson","State":"CA","Zip":"95363"},{"Location":"LEE RESTURANT CORP","Address":"15026 Carmen Way","City":"Patterson","State":"CA","Zip":"95363"},{"Location":"MANNYS TOUCHDOWN PIZZA","Address":"106 E Las Palmas Ave E","City":"Patterson","State":"CA","Zip":"95363"},{"Location":"MCAULY FORD","Address":"250 N El Circulo Ave","City":"Patterson","State":"CA","Zip":"95363"},{"Location":"MILLS BAR AND GRILL","Address":"100 S Del Tuerto Ave","City":"Patterson","State":"CA","Zip":"95363"},{"Location":"MOUNTAIN MIKES PIZZA","Address":"1015 Sperry Ave","City":"Patterson","State":"CA","Zip":"95363"},{"Location":"PINK CHIC","Address":"242 Cherry Blossom Ln","City":"Patterson","State":"CA","Zip":"95363"},{"Location":"PRO NAIL AND SPA","Address":"1040 W Las Palmas Ave E","City":"Patterson","State":"CA","Zip":"95363"},{"Location":"RANCH BURGER","Address":"314 N 2nd St","City":"Patterson","State":"CA","Zip":"95363"},{"Location":"SHOOTERS WINGS AND THINGS","Address":"1075 Sperry Ave","City":"Patterson","State":"CA","Zip":"95363"},{"Location":"TOUCHDOWN PIZZA","Address":"106 E Las Palmas Ave","City":"Patterson","State":"CA","Zip":"95363"},{"Location":"TRAINA FOODS INC","Address":"280 S First St","City":"Patterson","State":"CA","Zip":"95363"},{"Location":"US RENAL","Address":"1700 Keystone Pacific Pkwy Suite","City":"Patterson","State":"CA","Zip":"95363"}]