[{"Location":"ABILITY MORTGAGE","Address":"580 N Wilma Ave D","City":"Ripon","State":"CA","Zip":"95366"},{"Location":"ARCO AM PM","Address":"1340 W Colony Rd","City":"Ripon","State":"CA","Zip":"95366"},{"Location":"BRUCE HAMBY TRUC KING","Address":"20150 N Ripon Rd","City":"Ripon","State":"CA","Zip":"95366"},{"Location":"BURNS TRUCK & TRAILER SERVICE","Address":"1496 Santos Ave","City":"Ripon","State":"CA","Zip":"95366"},{"Location":"CHESAPEAKE LANDING HOMEOWNERS","Address":"1660 Red Sky Way","City":"Ripon","State":"CA","Zip":"95366"},{"Location":"CLASSY NAILS","Address":"1201 W Main St 9","City":"Ripon","State":"CA","Zip":"95366"},{"Location":"DAYSTAR TELEVISION NETWORK","Address":"8911 Brady Rd","City":"Ripon","State":"CA","Zip":"95366"},{"Location":"DIAMOND PET FOOD","Address":"942 S Stockton Ave","City":"Ripon","State":"CA","Zip":"95366"},{"Location":"DIAMOND PET FOODS RIPON 2","Address":"942 S Stockton Ave","City":"Ripon","State":"CA","Zip":"95366"},{"Location":"DISCOUNT LIQUOR AND CIGARETTES","Address":"1550 West Conony Rd","City":"Ripon","State":"CA","Zip":"95366"},{"Location":"FRANKS PLACE","Address":"1201 W Main St","City":"Ripon","State":"CA","Zip":"95366"},{"Location":"GPM CORPORATION","Address":"733 S Stockton Ave","City":"Ripon","State":"CA","Zip":"95366"},{"Location":"JAKES COFFEE TEA AND SAN","Address":"150 N Wilma Ave Ste10","City":"Ripon","State":"CA","Zip":"95366"},{"Location":"JAPANESE RESTAURANT","Address":"1400 Goodwin Dr","City":"Ripon","State":"CA","Zip":"95366"},{"Location":"KAMPS PROPANE  CONFERENCE CNTR","Address":"19067 E Highway 120","City":"Ripon","State":"CA","Zip":"95366"},{"Location":"LES SCWAB TIRES","Address":"750 N Jack Tone Rd","City":"Ripon","State":"CA","Zip":"95366"},{"Location":"MAIN STREET INN","Address":"130 E Main St","City":"Ripon","State":"CA","Zip":"95366"},{"Location":"MCDONALD'S","Address":"1382 W Colony Rd","City":"Ripon","State":"CA","Zip":"95366"},{"Location":"MICHELLE L LE","Address":"1222 W Colony Rd 150","City":"Ripon","State":"CA","Zip":"95366"},{"Location":"MOOD AND FOOD","Address":"17717 E Highway 120","City":"Ripon","State":"CA","Zip":"95366"},{"Location":"MOUNTAIN MIKE'S PIZZA","Address":"1201 W Main St","City":"Ripon","State":"CA","Zip":"95366"},{"Location":"MY GARDEN CAFE","Address":"1201 W Main St 19","City":"Ripon","State":"CA","Zip":"95366"},{"Location":"OLD TOWN","Address":"15040 E Highway 120","City":"Ripon","State":"CA","Zip":"95366"},{"Location":"PILOT FLYING J #61800","Address":"1501 N Jack Tone Rd","City":"Ripon","State":"CA","Zip":"95366"},{"Location":"POWER PLAY SPORTS ARENA INC","Address":"1043 S Acacia Ave","City":"Ripon","State":"CA","Zip":"95366"},{"Location":"RIPON 24-7 FITNESS","Address":"596 N Wilma Ave","City":"Ripon","State":"CA","Zip":"95366"},{"Location":"RIPON FIRE STATION","Address":"142 S Stockton Ave","City":"Ripon","State":"CA","Zip":"95366"},{"Location":"RIPON HAIR AND NAIL SALON","Address":"150 N Wilma Ave","City":"Ripon","State":"CA","Zip":"95366"},{"Location":"RIPON ROADHOUSE","Address":"125 E Main St","City":"Ripon","State":"CA","Zip":"95366"},{"Location":"ROUND TABLE PIZZA #939","Address":"150 N Wilma Ave 5","City":"Ripon","State":"CA","Zip":"95366"},{"Location":"SILVERADO","Address":"460 S Stockton Ave","City":"Ripon","State":"CA","Zip":"95366"},{"Location":"SPORTABILIA","Address":"701 Tornell Cir","City":"Ripon","State":"CA","Zip":"95366"},{"Location":"TAQUERIA CAROLINA","Address":"108 E Main St","City":"Ripon","State":"CA","Zip":"95366"},{"Location":"TRUCK WASH","Address":"1022 Frontage Rd","City":"Ripon","State":"CA","Zip":"95366"},{"Location":"VFW","Address":"12455 W Ripon Rd","City":"Ripon","State":"CA","Zip":"95366"},{"Location":"XCEL ORTHOPAEDIC","Address":"103 E Main St","City":"Ripon","State":"CA","Zip":"95366"}]