[{"Location":"A&S DISTRIBUTORS","Address":"4710 Elm St","City":"Salida","State":"CA","Zip":"95368"},{"Location":"BRE RODS AND CLASSICS","Address":"4866 Salida Blvd","City":"Salida","State":"CA","Zip":"95368"},{"Location":"HEALD COLLEGE","Address":"5260 Pirrone Ct","City":"Salida","State":"CA","Zip":"95368"},{"Location":"MCDONALD'S #10700","Address":"4230 Salida Blvd","City":"Salida","State":"CA","Zip":"95368"},{"Location":"RMC HOMES","Address":"5412 Kiernan Ave","City":"Salida","State":"CA","Zip":"95368"},{"Location":"SALIDA CLUB 1","Address":"4907 Elm St","City":"Salida","State":"CA","Zip":"95368"},{"Location":"SALIDA FIRE PROTECTION DIST","Address":"4820 Salida Blvd","City":"Salida","State":"CA","Zip":"95368"},{"Location":"SALIDA HOME MARKET","Address":"4601 Broadway","City":"Salida","State":"CA","Zip":"95368"},{"Location":"VALLEY FIREPLACE","Address":"4524 Falida Blvd","City":"Salida","State":"CA","Zip":"95368"},{"Location":"WESTERN STATES HOLISTIC LAB","Address":"4525 Broadway G","City":"Salida","State":"CA","Zip":"95368"}]