[{"Location":"LAS MARGARITAS RIO A","Address":"1214 W F St","City":"Knights Ferry","State":"CA","Zip":"95361"},{"Location":"THE RIVERS EDGE","Address":"17525 Sonora Rd","City":"Knights Ferry","State":"CA","Zip":"95361"},{"Location":"A&A AUTO BODY","Address":"1040 Zell Ln","City":"Oakdale","State":"CA","Zip":"95361"},{"Location":"AG MOBILE TRANSMISSIONS","Address":"1070 Post Rd","City":"Oakdale","State":"CA","Zip":"95361"},{"Location":"AGPOLLEN%2C LLC","Address":"14540 Claribel Rd","City":"Oakdale","State":"CA","Zip":"95361"},{"Location":"ARDIS FARMING INC","Address":"5220 Oakdale Waterford Hwy","City":"Oakdale","State":"CA","Zip":"95361"},{"Location":"BANK OF STOCKTON","Address":"346 E F St","City":"Oakdale","State":"CA","Zip":"95361"},{"Location":"BARBER PAMS PLACE","Address":"312 E F St","City":"Oakdale","State":"CA","Zip":"95361"},{"Location":"BATTERED BEAVER","Address":"108 N Yosemite Ave","City":"Oakdale","State":"CA","Zip":"95361"},{"Location":"CAFE BRAVO","Address":"1275 E F St","City":"Oakdale","State":"CA","Zip":"95361"},{"Location":"CASHMAN CREEK FARM","Address":"15550 Warverville Rd","City":"Oakdale","State":"CA","Zip":"95361"},{"Location":"CORNER CAFE","Address":"110 E F St","City":"Oakdale","State":"CA","Zip":"95361"},{"Location":"COW TRACK LOUNGE","Address":"850 N Yosemite Ave","City":"Oakdale","State":"CA","Zip":"95361"},{"Location":"DELTECH GEOTECHNICAL","Address":"645 N Yosemite Ave","City":"Oakdale","State":"CA","Zip":"95361"},{"Location":"DOWNTOWN FITNESS","Address":"231 E F St","City":"Oakdale","State":"CA","Zip":"95361"},{"Location":"EL JARDIN OAKDALE","Address":"157 S Sierra Ave","City":"Oakdale","State":"CA","Zip":"95361"},{"Location":"FIRST CHOICE INDUSTRIAL","Address":"650 Armstrong Way","City":"Oakdale","State":"CA","Zip":"95361"},{"Location":"GOLD'S GYM","Address":"1275 E F St 1","City":"Oakdale","State":"CA","Zip":"95361"},{"Location":"H BAR SALOON","Address":"401 E F St","City":"Oakdale","State":"CA","Zip":"95361"},{"Location":"HERITAGE STORAGE OAKDALE","Address":"795 Greger St","City":"Oakdale","State":"CA","Zip":"95361"},{"Location":"HOPE CHEST 5","Address":"870 Yosemite","City":"Oakdale","State":"CA","Zip":"95361"},{"Location":"JAVI'S RESTAURANT","Address":"136 N Maag Ave","City":"Oakdale","State":"CA","Zip":"95361"},{"Location":"JC CAFE","Address":"480 E F St","City":"Oakdale","State":"CA","Zip":"95361"},{"Location":"LD NAILS","Address":"1449 E F St","City":"Oakdale","State":"CA","Zip":"95361"},{"Location":"LESS SHWAB TIRES","Address":"1300 E F St","City":"Oakdale","State":"CA","Zip":"95361"},{"Location":"MR PICKLES1","Address":"1342 E F St B","City":"Oakdale","State":"CA","Zip":"95361"},{"Location":"NICRIO","Address":"635 Delano Dr","City":"Oakdale","State":"CA","Zip":"95361"},{"Location":"NORCAL AIR CONDITIONING","Address":"784 Wakefield Ct","City":"Oakdale","State":"CA","Zip":"95361"},{"Location":"OAKDALE GOLF AND COUNTRY CLUB","Address":"243 N Stearns Rd","City":"Oakdale","State":"CA","Zip":"95361"},{"Location":"OAKIES BOARD SHOP","Address":"1275 E F St","City":"Oakdale","State":"CA","Zip":"95361"},{"Location":"PIONEER EQUINE HOSPITAL","Address":"11536 Cleveland Ave","City":"Oakdale","State":"CA","Zip":"95361"},{"Location":"PIZZA HUT #028581","Address":"1570 E F St L","City":"Oakdale","State":"CA","Zip":"95361"},{"Location":"PROGRESSIVE DAIRY SOLUTI","Address":"346 E F St B","City":"Oakdale","State":"CA","Zip":"95361"},{"Location":"RIVER BANK CLINIC","Address":"350 S Oak Ave","City":"Oakdale","State":"CA","Zip":"95361"},{"Location":"ROUND TABLE PIZZA #070","Address":"1449 E F St","City":"Oakdale","State":"CA","Zip":"95361"},{"Location":"RYDERZ RESTAURANT & LOUN","Address":"875 E F St","City":"Oakdale","State":"CA","Zip":"95361"},{"Location":"SCORES HAIR CUTS","Address":"817 W F St","City":"Oakdale","State":"CA","Zip":"95361"},{"Location":"THE HOUSE OF BEEF","Address":"201 N 3rd Ave","City":"Oakdale","State":"CA","Zip":"95361"},{"Location":"THE TACO SHACK","Address":"1120 W F St","City":"Oakdale","State":"CA","Zip":"95361"},{"Location":"TIGER EXPRESS CHEVRON","Address":"977 S Yosemite Ave","City":"Oakdale","State":"CA","Zip":"95361"},{"Location":"TOP HATTERS CENTRAL VALLEY MC","Address":"1088 Zell Ln 1a","City":"Oakdale","State":"CA","Zip":"95361"},{"Location":"TOURLOTTE DENTAL CORP","Address":"1473 E G St","City":"Oakdale","State":"CA","Zip":"95361"},{"Location":"WENDYS 11490","Address":"1510 E F St","City":"Oakdale","State":"CA","Zip":"95361"}]