[{"Location":"108 SPORTS LOUNGE","Address":"3119 Atchison St","City":"Riverbank","State":"CA","Zip":"95367"},{"Location":"7GZ SANDWICHES LLC","Address":"2401 Claribel Rd","City":"Riverbank","State":"CA","Zip":"95367"},{"Location":"APPLEBEE'S RIVERBANK","Address":"2449 Claribel Rd","City":"Riverbank","State":"CA","Zip":"95367"},{"Location":"CENTRAL VALLEY BARBER CO","Address":"3501 Atchison St","City":"Riverbank","State":"CA","Zip":"95367"},{"Location":"COOL HAND LUKES STEAKHOU","Address":"2505 Patterson Rd","City":"Riverbank","State":"CA","Zip":"95367"},{"Location":"E CONTACT LIVE","Address":"6436 Oakdale Rd","City":"Riverbank","State":"CA","Zip":"95367"},{"Location":"FASHION NAIL","Address":"6333 Oakdale Rd F","City":"Riverbank","State":"CA","Zip":"95367"},{"Location":"GARCIAS MARKET","Address":"6450 3rd St","City":"Riverbank","State":"CA","Zip":"95367"},{"Location":"GLAMOROUS NAILS","Address":"2206 Patterson Rd","City":"Riverbank","State":"CA","Zip":"95367"},{"Location":"GOLDS GYM RIVERBANK","Address":"2210 Patterson Rd","City":"Riverbank","State":"CA","Zip":"95367"},{"Location":"KOHL'S #1077","Address":"2351 Claribel Rd","City":"Riverbank","State":"CA","Zip":"95367"},{"Location":"LA PARRILLA","Address":"2251 Claribel Rd C","City":"Riverbank","State":"CA","Zip":"95367"},{"Location":"LES SCHWAB TIRES","Address":"2560 Patterson Rd","City":"Riverbank","State":"CA","Zip":"95367"},{"Location":"MEN'S WEARHOUSE #2274","Address":"2401 Claribel Rd","City":"Riverbank","State":"CA","Zip":"95367"},{"Location":"MOUNTAIN MIKES PIZZA","Address":"6333 Oakdale Rd","City":"Riverbank","State":"CA","Zip":"95367"},{"Location":"PERKOS  CAFE PATTERSON","Address":"2120 Patterson Rd","City":"Riverbank","State":"CA","Zip":"95367"},{"Location":"PERKOS CAFE N WALNUT ROAD","Address":"151 N Walnut Rd","City":"Riverbank","State":"CA","Zip":"95367"},{"Location":"PIZZA HUT #028018","Address":"2119 Patterson Rd 11","City":"Riverbank","State":"CA","Zip":"95367"},{"Location":"PIZZA PLUS","Address":"3308 Sante Fe St","City":"Riverbank","State":"CA","Zip":"95367"},{"Location":"RED ROBIN #597","Address":"2367 Claribel Road","City":"Riverbank","State":"CA","Zip":"95367"},{"Location":"RIVERBANK BEAUTY SALON","Address":"2951 Patterson Rd","City":"Riverbank","State":"CA","Zip":"95367"},{"Location":"RIVERBANK DENTAL PRACTICE1","Address":"3324 Santa Fe St","City":"Riverbank","State":"CA","Zip":"95367"},{"Location":"ROUND TABLE PIZZA #932","Address":"2441 Claribel Rd","City":"Riverbank","State":"CA","Zip":"95367"},{"Location":"SAN JOSE TAQUERIA","Address":"2238 Patterson Rd","City":"Riverbank","State":"CA","Zip":"95367"},{"Location":"SMILE SHINE DENTAL","Address":"2603 Patterson Rd 5","City":"Riverbank","State":"CA","Zip":"95367"},{"Location":"SMOOTH AS GLASS LLC2","Address":"2808 Patterson Rd","City":"Riverbank","State":"CA","Zip":"95367"},{"Location":"TARGET","Address":"2425 Claribel Rd","City":"Riverbank","State":"CA","Zip":"95367"},{"Location":"WINGSTOP","Address":"2251 Claribel Rd B","City":"Riverbank","State":"CA","Zip":"95367"}]