[{"Location":"LAWERENCE LIVERMORE NATIONAL","Address":"10 Miles W Of Tracy Corral Hollow 300","City":"Livermoore","State":"CA","Zip":"95376"},{"Location":"LLNL","Address":"S-300 Corral Hollow Rd.","City":"Livermore","State":"CA","Zip":"95376"},{"Location":"ATHLETIC PERFECTION","Address":"2211 N Macarthur Dr","City":"Tracy","State":"CA","Zip":"95376"},{"Location":"CALIFORNIA BAY PIZZA","Address":"2630 S Tracy Blvd 140","City":"Tracy","State":"CA","Zip":"95376"},{"Location":"CARMEN & FAMILY BARBEQUE","Address":"2229 N Tracy Blvd","City":"Tracy","State":"CA","Zip":"95376"},{"Location":"CERTIFIED TIRE AND SERVICE","Address":"1131 Holly Dr","City":"Tracy","State":"CA","Zip":"95376"},{"Location":"CHILI'S #1303","Address":"2030 N Corral Hollow Rd","City":"Tracy","State":"CA","Zip":"95376"},{"Location":"DAVITA #3857 TRACY","Address":"425 W Beverly Pl 3a","City":"Tracy","State":"CA","Zip":"95376"},{"Location":"DE COLORES PAINTING & DE","Address":"510 W Whittier Ave","City":"Tracy","State":"CA","Zip":"95376"},{"Location":"ECO SOUND MEDICAL","Address":"1865 N Macarthur Dr","City":"Tracy","State":"CA","Zip":"95376"},{"Location":"ENVY NAILS","Address":"553 W Clover Rd","City":"Tracy","State":"CA","Zip":"95376"},{"Location":"FABULOUS FADES","Address":"245 E 11th St C","City":"Tracy","State":"CA","Zip":"95376"},{"Location":"FIRESTONE #356612","Address":"940 N Central Ave","City":"Tracy","State":"CA","Zip":"95376"},{"Location":"GLASSFAB TEMPERING SERVI","Address":"1448 Mariani Ct","City":"Tracy","State":"CA","Zip":"95376"},{"Location":"GRATING PACIFIC","Address":"1398 Mariani Ct 120","City":"Tracy","State":"CA","Zip":"95376"},{"Location":"IN SHAPE FIT%3ATRACY","Address":"2311b N Tracy Blvd","City":"Tracy","State":"CA","Zip":"95376"},{"Location":"IN SHAPE HEALTH CLUBS TRACY","Address":"101 S Tracy Blvd","City":"Tracy","State":"CA","Zip":"95376"},{"Location":"IN SHAPE HEALTH CLUBS TRACY","Address":"239 W 11th St","City":"Tracy","State":"CA","Zip":"95376"},{"Location":"INTERNATIONAL AUTO LOGISTICS","Address":"857 Stonebridge Dr","City":"Tracy","State":"CA","Zip":"95376"},{"Location":"LA VILLA MEXICAN RESTAUR","Address":"57 E 11th St","City":"Tracy","State":"CA","Zip":"95376"},{"Location":"M & V MEXICAN FOOD","Address":"1284 W 11th St","City":"Tracy","State":"CA","Zip":"95376"},{"Location":"MCDONALDS 36229","Address":"236 E 11th St","City":"Tracy","State":"CA","Zip":"95376"},{"Location":"MIKASA ASIAN BISTRO","Address":"2610 S Tracy Blvd 110","City":"Tracy","State":"CA","Zip":"95376"},{"Location":"MILANO PIZZA","Address":"567 W Clover Rd","City":"Tracy","State":"CA","Zip":"95376"},{"Location":"MOUNT OSO BUILDING ASSOC","Address":"1601 N Tracy Blvd","City":"Tracy","State":"CA","Zip":"95376"},{"Location":"MOUNTAIN MIKES PIZZA","Address":"870 W Schulte Rd","City":"Tracy","State":"CA","Zip":"95376"},{"Location":"PERKOS CAFE 11TH","Address":"1321 W 11th St","City":"Tracy","State":"CA","Zip":"95376"},{"Location":"PLANNED PARENTHOOD MAR MONTE","Address":"1441 N Tracy Blvd","City":"Tracy","State":"CA","Zip":"95376"},{"Location":"PROTECH CARPET CLEANER","Address":"23 E 6th St","City":"Tracy","State":"CA","Zip":"95376"},{"Location":"QUEEN B NAILS & SPA","Address":"2630 S Tracy Blvd 120","City":"Tracy","State":"CA","Zip":"95376"},{"Location":"RALPH'S CLUB","Address":"444 E 11th St","City":"Tracy","State":"CA","Zip":"95376"},{"Location":"REALTY WORLD","Address":"104 W 10th St","City":"Tracy","State":"CA","Zip":"95376"},{"Location":"RUSTY'S BAR AND GRILL","Address":"320 W Grant Line Rd","City":"Tracy","State":"CA","Zip":"95376"},{"Location":"SANSAR INDIAN CUISINE","Address":"430 W Grant Line Rd","City":"Tracy","State":"CA","Zip":"95376"},{"Location":"SMOKE SHOP","Address":"493 E 6th St","City":"Tracy","State":"CA","Zip":"95376"},{"Location":"SONIAS RESTURANT","Address":"2321 N Tracy Blvd C","City":"Tracy","State":"CA","Zip":"95376"},{"Location":"ST JOSEPH'S HEALTHCARE LAB","Address":"569 W Lowell Ave 1","City":"Tracy","State":"CA","Zip":"95376"},{"Location":"TAQUERIA LA MEXICANA","Address":"2610 S Tracy Blvd 140","City":"Tracy","State":"CA","Zip":"95376"},{"Location":"THE SHAMROCK","Address":"117 W 11th St","City":"Tracy","State":"CA","Zip":"95376"},{"Location":"TRACY CAR WASH","Address":"2480 N Tracy Blvd","City":"Tracy","State":"CA","Zip":"95376"},{"Location":"TRACY GROCERY OUTLET","Address":"825 W 11th St","City":"Tracy","State":"CA","Zip":"95376"},{"Location":"TRACY POLICE DEPARTMENT","Address":"1000 Civic Center Dr","City":"Tracy","State":"CA","Zip":"95376"},{"Location":"TRAVISTOCK FREEBIRDS LLC TRACY","Address":"1920 W 11th St","City":"Tracy","State":"CA","Zip":"95376"},{"Location":"VALLEY QUICK LUBE LLC","Address":"2360 East St","City":"Tracy","State":"CA","Zip":"95376"},{"Location":"LAWERENCE LIVERMORE NATIONAL","Address":"10 Miles W Of Tracy Corral Hollow 300","City":"Livermoore","State":"CA","Zip":"95376"},{"Location":"LLNL","Address":"S-300 Corral Hollow Rd.","City":"Livermore","State":"CA","Zip":"95376"},{"Location":"ATHLETIC PERFECTION","Address":"2211 N Macarthur Dr","City":"Tracy","State":"CA","Zip":"95376"},{"Location":"CALIFORNIA BAY PIZZA","Address":"2630 S Tracy Blvd 140","City":"Tracy","State":"CA","Zip":"95376"},{"Location":"CARMEN & FAMILY BARBEQUE","Address":"2229 N Tracy Blvd","City":"Tracy","State":"CA","Zip":"95376"},{"Location":"CERTIFIED TIRE AND SERVICE","Address":"1131 Holly Dr","City":"Tracy","State":"CA","Zip":"95376"},{"Location":"CHILI'S #1303","Address":"2030 N Corral Hollow Rd","City":"Tracy","State":"CA","Zip":"95376"},{"Location":"DAVITA #3857 TRACY","Address":"425 W Beverly Pl 3a","City":"Tracy","State":"CA","Zip":"95376"},{"Location":"DE COLORES PAINTING & DE","Address":"510 W Whittier Ave","City":"Tracy","State":"CA","Zip":"95376"},{"Location":"ECO SOUND MEDICAL","Address":"1865 N Macarthur Dr","City":"Tracy","State":"CA","Zip":"95376"},{"Location":"ENVY NAILS","Address":"553 W Clover Rd","City":"Tracy","State":"CA","Zip":"95376"},{"Location":"FABULOUS FADES","Address":"245 E 11th St C","City":"Tracy","State":"CA","Zip":"95376"},{"Location":"FIRESTONE #356612","Address":"940 N Central Ave","City":"Tracy","State":"CA","Zip":"95376"},{"Location":"GLASSFAB TEMPERING SERVI","Address":"1448 Mariani Ct","City":"Tracy","State":"CA","Zip":"95376"},{"Location":"GRATING PACIFIC","Address":"1398 Mariani Ct 120","City":"Tracy","State":"CA","Zip":"95376"},{"Location":"IN SHAPE FIT%3ATRACY","Address":"2311b N Tracy Blvd","City":"Tracy","State":"CA","Zip":"95376"},{"Location":"IN SHAPE HEALTH CLUBS TRACY","Address":"101 S Tracy Blvd","City":"Tracy","State":"CA","Zip":"95376"},{"Location":"IN SHAPE HEALTH CLUBS TRACY","Address":"239 W 11th St","City":"Tracy","State":"CA","Zip":"95376"},{"Location":"INTERNATIONAL AUTO LOGISTICS","Address":"857 Stonebridge Dr","City":"Tracy","State":"CA","Zip":"95376"},{"Location":"LA VILLA MEXICAN RESTAUR","Address":"57 E 11th St","City":"Tracy","State":"CA","Zip":"95376"},{"Location":"M & V MEXICAN FOOD","Address":"1284 W 11th St","City":"Tracy","State":"CA","Zip":"95376"},{"Location":"MCDONALDS 36229","Address":"236 E 11th St","City":"Tracy","State":"CA","Zip":"95376"},{"Location":"MIKASA ASIAN BISTRO","Address":"2610 S Tracy Blvd 110","City":"Tracy","State":"CA","Zip":"95376"},{"Location":"MILANO PIZZA","Address":"567 W Clover Rd","City":"Tracy","State":"CA","Zip":"95376"},{"Location":"MOUNT OSO BUILDING ASSOC","Address":"1601 N Tracy Blvd","City":"Tracy","State":"CA","Zip":"95376"},{"Location":"MOUNTAIN MIKES PIZZA","Address":"870 W Schulte Rd","City":"Tracy","State":"CA","Zip":"95376"},{"Location":"PERKOS CAFE 11TH","Address":"1321 W 11th St","City":"Tracy","State":"CA","Zip":"95376"},{"Location":"PLANNED PARENTHOOD MAR MONTE","Address":"1441 N Tracy Blvd","City":"Tracy","State":"CA","Zip":"95376"},{"Location":"PROTECH CARPET CLEANER","Address":"23 E 6th St","City":"Tracy","State":"CA","Zip":"95376"},{"Location":"QUEEN B NAILS & SPA","Address":"2630 S Tracy Blvd 120","City":"Tracy","State":"CA","Zip":"95376"},{"Location":"RALPH'S CLUB","Address":"444 E 11th St","City":"Tracy","State":"CA","Zip":"95376"},{"Location":"REALTY WORLD","Address":"104 W 10th St","City":"Tracy","State":"CA","Zip":"95376"},{"Location":"RUSTY'S BAR AND GRILL","Address":"320 W Grant Line Rd","City":"Tracy","State":"CA","Zip":"95376"},{"Location":"SANSAR INDIAN CUISINE","Address":"430 W Grant Line Rd","City":"Tracy","State":"CA","Zip":"95376"},{"Location":"SMOKE SHOP","Address":"493 E 6th St","City":"Tracy","State":"CA","Zip":"95376"},{"Location":"SONIAS RESTURANT","Address":"2321 N Tracy Blvd C","City":"Tracy","State":"CA","Zip":"95376"},{"Location":"ST JOSEPH'S HEALTHCARE LAB","Address":"569 W Lowell Ave 1","City":"Tracy","State":"CA","Zip":"95376"},{"Location":"TAQUERIA LA MEXICANA","Address":"2610 S Tracy Blvd 140","City":"Tracy","State":"CA","Zip":"95376"},{"Location":"THE SHAMROCK","Address":"117 W 11th St","City":"Tracy","State":"CA","Zip":"95376"},{"Location":"TRACY CAR WASH","Address":"2480 N Tracy Blvd","City":"Tracy","State":"CA","Zip":"95376"},{"Location":"TRACY GROCERY OUTLET","Address":"825 W 11th St","City":"Tracy","State":"CA","Zip":"95376"},{"Location":"TRACY POLICE DEPARTMENT","Address":"1000 Civic Center Dr","City":"Tracy","State":"CA","Zip":"95376"},{"Location":"TRAVISTOCK FREEBIRDS LLC TRACY","Address":"1920 W 11th St","City":"Tracy","State":"CA","Zip":"95376"},{"Location":"VALLEY QUICK LUBE LLC","Address":"2360 East St","City":"Tracy","State":"CA","Zip":"95376"}]