[{"Location":"7 ELEVEN","Address":"25460 S Schulte Rd","City":"Tracy","State":"CA","Zip":"95377"},{"Location":"BLACK BEAR DINER","Address":"2351 Toste Rd","City":"Tracy","State":"CA","Zip":"95377"},{"Location":"CALFIRE CASTLE ROCK STATION","Address":"16502 W Schulte Rd","City":"Tracy","State":"CA","Zip":"95377"},{"Location":"CIGARS N MORE","Address":"2251 W Grant Line Rd 127","City":"Tracy","State":"CA","Zip":"95377"},{"Location":"ELITE TRAINING ACADEMY OF CA","Address":"25425 S Schulte Rd","City":"Tracy","State":"CA","Zip":"95377"},{"Location":"MBM CUSTOMIZED FOODSERVICE DIS","Address":"26030 S Corporate Ct","City":"Tracy","State":"CA","Zip":"95377"},{"Location":"MOUNTAIN MIKES SPEED TRUCK","Address":"2260 W Grant Line Rd","City":"Tracy","State":"CA","Zip":"95377"},{"Location":"PGE","Address":"24081 South Mountain House Pkwy","City":"Tracy","State":"CA","Zip":"95377"},{"Location":"SUTTER GOULD MEDICAL","Address":"2151 W Grant Line Rd","City":"Tracy","State":"CA","Zip":"95377"},{"Location":"TRACY DELTA DISPOSAL","Address":"30703 S Macarthur Dr","City":"Tracy","State":"CA","Zip":"95377"},{"Location":"TRACY GOLF & COUNTRY CLUB","Address":"35200 S Chrisman Rd","City":"Tracy","State":"CA","Zip":"95377"},{"Location":"WASSIM SULIMAN","Address":"25432 S Schulte Rd","City":"Tracy","State":"CA","Zip":"95377"}]