[{"Location":"","Address":"12811 Covey Cir","City":"Sonora","State":"CA","Zip":"95370"},{"Location":"APPLEBEE'S SONORA","Address":"851 Sanguinetti Rd","City":"Sonora","State":"CA","Zip":"95370"},{"Location":"AVALON CARE CENTER","Address":"19929 Greenley Rd","City":"Sonora","State":"CA","Zip":"95370"},{"Location":"BARRETTA GARDENS INN","Address":"700 Barretta St","City":"Sonora","State":"CA","Zip":"95370"},{"Location":"BEWOK AND SUSHI","Address":"764 Mono Way","City":"Sonora","State":"CA","Zip":"95370"},{"Location":"C C AUTO BODY SHOP","Address":"18514 Striker Ct","City":"Sonora","State":"CA","Zip":"95370"},{"Location":"CANEPA1","Address":"14384 Cuesta Ct","City":"Sonora","State":"CA","Zip":"95370"},{"Location":"CG PARTNERSHIP","Address":"13672 Mona Way","City":"Sonora","State":"CA","Zip":"95370"},{"Location":"EL TEQUILA BURRITO EXPRESS","Address":"147 S Washington St","City":"Sonora","State":"CA","Zip":"95370"},{"Location":"GOLD COUNTRY KITCHEN AN BATH","Address":"1201 Mono Way","City":"Sonora","State":"CA","Zip":"95370"},{"Location":"HAIRYS","Address":"21051 Crystal Falls Dr 302","City":"Sonora","State":"CA","Zip":"95370"},{"Location":"HEADWINDS","Address":"13639 Kincaid Flat Rd","City":"Sonora","State":"CA","Zip":"95370"},{"Location":"HOT SHOTZ SPORTS BAR","Address":"123 S Washington St","City":"Sonora","State":"CA","Zip":"95370"},{"Location":"ITS YO GOOD","Address":"1191 Sanguinetti Rd","City":"Sonora","State":"CA","Zip":"95370"},{"Location":"JEBS","Address":"729 Mono Way","City":"Sonora","State":"CA","Zip":"95370"},{"Location":"KOHL'S #1404","Address":"13777 Mono Way","City":"Sonora","State":"CA","Zip":"95370"},{"Location":"LA HACIENDA SONORA","Address":"13759 Mono Way C","City":"Sonora","State":"CA","Zip":"95370"},{"Location":"LARRY MELLO INC","Address":"155 S Washington St","City":"Sonora","State":"CA","Zip":"95370"},{"Location":"MCDONALDS 25269","Address":"14895 Mono Way A","City":"Sonora","State":"CA","Zip":"95370"},{"Location":"MCDONALDS 32119","Address":"1261 Mono Way","City":"Sonora","State":"CA","Zip":"95370"},{"Location":"MOUNTAIN MIKES PIZZA SON","Address":"1049 Mono Way","City":"Sonora","State":"CA","Zip":"95370"},{"Location":"MOUNTAIN SPRINGS GOLF","Address":"17566 Lime Kiln Rd","City":"Sonora","State":"CA","Zip":"95370"},{"Location":"MY GARDEN CAFE","Address":"14270 Mono Way","City":"Sonora","State":"CA","Zip":"95370"},{"Location":"NEIGHBORS PUB N GRUB","Address":"21051 Crystal Falls Dr 7","City":"Sonora","State":"CA","Zip":"95370"},{"Location":"NFC","Address":"19777 Greenley Rd","City":"Sonora","State":"CA","Zip":"95370"},{"Location":"NUTRITIONAL FUELING STATION","Address":"13643 Mono Way","City":"Sonora","State":"CA","Zip":"95370"},{"Location":"PINE TREE RESTAURANT INC","Address":"19601 Hess Ave","City":"Sonora","State":"CA","Zip":"95370"},{"Location":"POWER FITNESS","Address":"560 W Stockton St","City":"Sonora","State":"CA","Zip":"95370"},{"Location":"PROCK 5 LLC","Address":"18899 Microtronics Way","City":"Sonora","State":"CA","Zip":"95370"},{"Location":"SENORA REGIONAL MEDICAL","Address":"20044 Cedar Rd N","City":"Sonora","State":"CA","Zip":"95370"},{"Location":"SLIM AND TONE","Address":"905 Mono Way","City":"Sonora","State":"CA","Zip":"95370"},{"Location":"SONORA POLICE DEPARTMENT","Address":"100 S Green St","City":"Sonora","State":"CA","Zip":"95370"},{"Location":"SONORA REGINONAL","Address":"1030 Greenley Rd C","City":"Sonora","State":"CA","Zip":"95370"},{"Location":"SONORA REGIONAL SURGERY CTR","Address":"905 Morning Star Dr","City":"Sonora","State":"CA","Zip":"95370"},{"Location":"SONORA SPORT AND FITNESS","Address":"13760 Mono Way","City":"Sonora","State":"CA","Zip":"95370"},{"Location":"SONORA SUBARU","Address":"219 Southgate Dr","City":"Sonora","State":"CA","Zip":"95370"},{"Location":"SONORA SUBARU","Address":"14890 Mono Way","City":"Sonora","State":"CA","Zip":"95370"},{"Location":"SONORA TACOS","Address":"74 S Washington St","City":"Sonora","State":"CA","Zip":"95370"},{"Location":"STUDIO 3 SALON SONORA","Address":"19060 Standard Rd 3","City":"Sonora","State":"CA","Zip":"95370"},{"Location":"TANNING DEE LIGHT","Address":"13879 Mono Way C","City":"Sonora","State":"CA","Zip":"95370"},{"Location":"THE LASER SHOP","Address":"20065 Highway 108 C","City":"Sonora","State":"CA","Zip":"95370"},{"Location":"THE PEPPERY BAR & BRILL","Address":"13494 Mono Way","City":"Sonora","State":"CA","Zip":"95370"},{"Location":"THE UNION DEMOCRAT","Address":"84 S Washington St","City":"Sonora","State":"CA","Zip":"95370"},{"Location":"TUOLUMNE ME WUK INDI","Address":"22044 Cedar Rd","City":"Sonora","State":"CA","Zip":"95370"},{"Location":"TUOLUMNE SHERIFF OFFICE","Address":"32 N Washington St","City":"Sonora","State":"CA","Zip":"95370"},{"Location":"UNION HILL INN","Address":"21645 Parrotts Ferry Rd","City":"Sonora","State":"CA","Zip":"95370"},{"Location":"ZANES IRON HORSE LOUNGE","Address":"97 S Washington St","City":"Sonora","State":"CA","Zip":"95370"}]