[{"Location":"LA GARZA HOUSE OF BURGER","Address":"224 E St","City":"Waterford","State":"CA","Zip":"95386"},{"Location":"MI RANCHITO","Address":"12725 Yosemite Blvd","City":"Waterford","State":"CA","Zip":"95386"},{"Location":"MOUNTAIN MIKES PIZZA","Address":"12178 Yosemite Blvd","City":"Waterford","State":"CA","Zip":"95386"},{"Location":"PIZZA PLUS","Address":"12705 Bentley St","City":"Waterford","State":"CA","Zip":"95386"},{"Location":"RK SERVICE STATION","Address":"12405 Yosemite Blvd","City":"Waterford","State":"CA","Zip":"95386"},{"Location":"ROBERTS FARY NUT CO","Address":"20493 Yosemite Blvd","City":"Waterford","State":"CA","Zip":"95386"},{"Location":"LA GARZA HOUSE OF BURGER","Address":"224 E St","City":"Waterford","State":"CA","Zip":"95386"},{"Location":"MI RANCHITO","Address":"12725 Yosemite Blvd","City":"Waterford","State":"CA","Zip":"95386"},{"Location":"MOUNTAIN MIKES PIZZA","Address":"12178 Yosemite Blvd","City":"Waterford","State":"CA","Zip":"95386"},{"Location":"Pizza Plus","Address":"12705 Bentley St","City":"Waterford","State":"CA","Zip":"95386"},{"Location":"RK SERVICE STATION","Address":"12405 Yosemite Blvd","City":"Waterford","State":"CA","Zip":"95386"},{"Location":"ROBERTS FARY NUT CO","Address":"20493 Yosemite Blvd","City":"Waterford","State":"CA","Zip":"95386"}]