[{"Location":"A LIST FITNESS","Address":"2380 N Walnut Rd","City":"Turlock","State":"CA","Zip":"95382"},{"Location":"AMAZING NAILS  SPA","Address":"2330 W Monte Vista Ave","City":"Turlock","State":"CA","Zip":"95382"},{"Location":"ANGELINIS ITALIAN RESTAURANT","Address":"2251 Geer Rd","City":"Turlock","State":"CA","Zip":"95382"},{"Location":"AUTO 1 SHOP","Address":"3436 N Golden State Blvd","City":"Turlock","State":"CA","Zip":"95382"},{"Location":"BLOODSOURCE","Address":"1040 W Monte Vista Ave","City":"Turlock","State":"CA","Zip":"95382"},{"Location":"BRONZE BODY OF TURLOCK","Address":"2626 Geer Rd","City":"Turlock","State":"CA","Zip":"95382"},{"Location":"BURGER KING","Address":"2590 Geer Rd","City":"Turlock","State":"CA","Zip":"95382"},{"Location":"CARE MORE HEALTH","Address":"1000 Delbon Ave 8","City":"Turlock","State":"CA","Zip":"95382"},{"Location":"FRESHPOINT CENTRAL","Address":"5900 N Golden State Blvd","City":"Turlock","State":"CA","Zip":"95382"},{"Location":"G&E PIZZA INC","Address":"2650 Geer Rd","City":"Turlock","State":"CA","Zip":"95382"},{"Location":"GOLDEN 1 TURLOCK","Address":"2450 Geer Rd","City":"Turlock","State":"CA","Zip":"95382"},{"Location":"GRIZZLY ROCK CAFE","Address":"4905 N Golden State Blvd","City":"Turlock","State":"CA","Zip":"95382"},{"Location":"INDIAN RIVER TRANSPORT","Address":"5100 Taylor Ct","City":"Turlock","State":"CA","Zip":"95382"},{"Location":"JAYS TIRES","Address":"2940 Geer Rd","City":"Turlock","State":"CA","Zip":"95382"},{"Location":"MARIACHIS","Address":"2669 Geer Rd","City":"Turlock","State":"CA","Zip":"95382"},{"Location":"MCDONALDS 2655","Address":"2400 Geer Rd","City":"Turlock","State":"CA","Zip":"95382"},{"Location":"PIZZA FACTORY TURLOCK","Address":"1050 W Monte Vista Ave","City":"Turlock","State":"CA","Zip":"95382"},{"Location":"PIZZA HUT- GEER RD","Address":"3181 Geer Rd","City":"Turlock","State":"CA","Zip":"95382"},{"Location":"SATELLITE DIALYSIS-TURLOCK","Address":"1729 N Olive Ave 9","City":"Turlock","State":"CA","Zip":"95382"},{"Location":"SHOOTERS WINGS AND THINGS","Address":"2317 Geer Rd","City":"Turlock","State":"CA","Zip":"95382"},{"Location":"SUSHI GARDEN 2","Address":"170 W Monte Vista Ave","City":"Turlock","State":"CA","Zip":"95382"},{"Location":"SUTTER GOULD MEDICAL FOUNDATIO","Address":"3100 W Christoffersen Pkwy","City":"Turlock","State":"CA","Zip":"95382"},{"Location":"TABLE 26","Address":"2600 Geer Rd","City":"Turlock","State":"CA","Zip":"95382"},{"Location":"TAYLOR VETERINARY HOSPITAL","Address":"1231 W Taylor Rd","City":"Turlock","State":"CA","Zip":"95382"},{"Location":"TEE SHIRTS PLUS SPORTS","Address":"2551 Geer Rd","City":"Turlock","State":"CA","Zip":"95382"},{"Location":"TOGOS EATERY","Address":"2313 Geer Rd","City":"Turlock","State":"CA","Zip":"95382"},{"Location":"TRI COUNTIES BANK","Address":"2900 Geer Rd","City":"Turlock","State":"CA","Zip":"95382"},{"Location":"TRULOCK HEART AND VASCULAR","Address":"2141 Colorado Ave","City":"Turlock","State":"CA","Zip":"95382"},{"Location":"TURLOCK ENDODONTICS","Address":"2021 Geer Rd","City":"Turlock","State":"CA","Zip":"95382"},{"Location":"WELLNESS MASSAGE","Address":"2715 Geer Rd","City":"Turlock","State":"CA","Zip":"95382"},{"Location":"WINGSTOP","Address":"3106 Geer Rd","City":"Turlock","State":"CA","Zip":"95382"},{"Location":"A LIST FITNESS","Address":"2380 N Walnut Rd","City":"Turlock","State":"CA","Zip":"95382"},{"Location":"AMAZING NAILS  SPA","Address":"2330 W Monte Vista Ave","City":"Turlock","State":"CA","Zip":"95382"},{"Location":"ANGELINIS ITALIAN RESTAURANT","Address":"2251 Geer Rd","City":"Turlock","State":"CA","Zip":"95382"},{"Location":"AUTO 1 SHOP","Address":"3436 N Golden State Blvd","City":"Turlock","State":"CA","Zip":"95382"},{"Location":"BLOODSOURCE","Address":"1040 W Monte Vista Ave","City":"Turlock","State":"CA","Zip":"95382"},{"Location":"BRONZE BODY OF TURLOCK","Address":"2626 Geer Rd","City":"Turlock","State":"CA","Zip":"95382"},{"Location":"BURGER KING","Address":"2590 Geer Rd","City":"Turlock","State":"CA","Zip":"95382"},{"Location":"CARE MORE HEALTH","Address":"1000 Delbon Ave 8","City":"Turlock","State":"CA","Zip":"95382"},{"Location":"FRESHPOINT CENTRAL","Address":"5900 N Golden State Blvd","City":"Turlock","State":"CA","Zip":"95382"},{"Location":"G&E PIZZA INC","Address":"2650 Geer Rd","City":"Turlock","State":"CA","Zip":"95382"},{"Location":"GOLDEN 1 TURLOCK","Address":"2450 Geer Rd","City":"Turlock","State":"CA","Zip":"95382"},{"Location":"GRIZZLY ROCK CAFE","Address":"4905 N Golden State Blvd","City":"Turlock","State":"CA","Zip":"95382"},{"Location":"INDIAN RIVER TRANSPORT","Address":"5100 Taylor Ct","City":"Turlock","State":"CA","Zip":"95382"},{"Location":"JAYS TIRES","Address":"2940 Geer Rd","City":"Turlock","State":"CA","Zip":"95382"},{"Location":"MARIACHIS","Address":"2669 Geer Rd","City":"Turlock","State":"CA","Zip":"95382"},{"Location":"MCDONALDS 2655","Address":"2400 Geer Rd","City":"Turlock","State":"CA","Zip":"95382"},{"Location":"PIZZA FACTORY TURLOCK","Address":"1050 W Monte Vista Ave","City":"Turlock","State":"CA","Zip":"95382"},{"Location":"PIZZA HUT- GEER RD","Address":"3181 Geer Rd","City":"Turlock","State":"CA","Zip":"95382"},{"Location":"SATELLITE DIALYSIS-TURLOCK","Address":"1729 N Olive Ave 9","City":"Turlock","State":"CA","Zip":"95382"},{"Location":"SHOOTERS WINGS AND THINGS","Address":"2317 Geer Rd","City":"Turlock","State":"CA","Zip":"95382"},{"Location":"SUSHI GARDEN 2","Address":"170 W Monte Vista Ave","City":"Turlock","State":"CA","Zip":"95382"},{"Location":"SUTTER GOULD MEDICAL FOUNDATIO","Address":"3100 W Christoffersen Pkwy","City":"Turlock","State":"CA","Zip":"95382"},{"Location":"TABLE 26","Address":"2600 Geer Rd","City":"Turlock","State":"CA","Zip":"95382"},{"Location":"TAYLOR VETERINARY HOSPITAL","Address":"1231 W Taylor Rd","City":"Turlock","State":"CA","Zip":"95382"},{"Location":"TEE SHIRTS PLUS SPORTS","Address":"2551 Geer Rd","City":"Turlock","State":"CA","Zip":"95382"},{"Location":"TOGOS EATERY","Address":"2313 Geer Rd","City":"Turlock","State":"CA","Zip":"95382"},{"Location":"TRI COUNTIES BANK","Address":"2900 Geer Rd","City":"Turlock","State":"CA","Zip":"95382"},{"Location":"TRULOCK HEART AND VASCULAR","Address":"2141 Colorado Ave","City":"Turlock","State":"CA","Zip":"95382"},{"Location":"TURLOCK ENDODONTICS","Address":"2021 Geer Rd","City":"Turlock","State":"CA","Zip":"95382"},{"Location":"WELLNESS MASSAGE","Address":"2715 Geer Rd","City":"Turlock","State":"CA","Zip":"95382"},{"Location":"WINGSTOP","Address":"3106 Geer Rd","City":"Turlock","State":"CA","Zip":"95382"}]