[{"Location":"110 WEST MAIN STREET LLC","Address":"110 W Main St","City":"Turlock","State":"CA","Zip":"95380"},{"Location":"AMERICAN LEGION POST 88","Address":"75 Bothun Rd","City":"Turlock","State":"CA","Zip":"95380"},{"Location":"ANDYS HAIR STYLING","Address":"2319 W Main St","City":"Turlock","State":"CA","Zip":"95380"},{"Location":"APPLEBEE'S TURLOCK #9465","Address":"2501 Fulkerth Rd","City":"Turlock","State":"CA","Zip":"95380"},{"Location":"ARTICLE SON AND DAUGHTER","Address":"352 E Olive Ave","City":"Turlock","State":"CA","Zip":"95380"},{"Location":"BACK YARD SPORTS ACADEMY","Address":"6212 W Main St","City":"Turlock","State":"CA","Zip":"95380"},{"Location":"BISTRO 234","Address":"234 E Main St","City":"Turlock","State":"CA","Zip":"95380"},{"Location":"CENTER STREET GRILL","Address":"120 N Center St","City":"Turlock","State":"CA","Zip":"95380"},{"Location":"CENTRAL VALLEY SWARM","Address":"18852 E Clausen Rd","City":"Turlock","State":"CA","Zip":"95380"},{"Location":"CHILI'S #1066","Address":"2801 Countryside Dr","City":"Turlock","State":"CA","Zip":"95380"},{"Location":"CHONGS CUISINE","Address":"1801 Countryside Dr","City":"Turlock","State":"CA","Zip":"95380"},{"Location":"CINDYS RESTAURANT","Address":"526 N Golden State Blvd","City":"Turlock","State":"CA","Zip":"95380"},{"Location":"CONG NAILS AND SPA","Address":"2909 N Tegner Rd","City":"Turlock","State":"CA","Zip":"95380"},{"Location":"COOL HAND LUKES","Address":"3050 N Tegner Rd","City":"Turlock","State":"CA","Zip":"95380"},{"Location":"COTTAGE PARK HOA","Address":"2400 Cypress Point Dr","City":"Turlock","State":"CA","Zip":"95380"},{"Location":"COUTRY STORE","Address":"4625 West Amin Street","City":"Turlock","State":"CA","Zip":"95380"},{"Location":"CREATIVE ALTERNATIVE INC","Address":"1101 E Greenway Ave","City":"Turlock","State":"CA","Zip":"95380"},{"Location":"DAVITA #1915 TURLOCK","Address":"50 W Syracuse Ave","City":"Turlock","State":"CA","Zip":"95380"},{"Location":"DICK'S SPORTING GOODS #1182","Address":"2711 Countryside Dr","City":"Turlock","State":"CA","Zip":"95380"},{"Location":"DUC NGUYEN","Address":"700 Crane Ave","City":"Turlock","State":"CA","Zip":"95380"},{"Location":"DUSTS BOWL BREWING CO","Address":"200 W Main St A","City":"Turlock","State":"CA","Zip":"95380"},{"Location":"E&S INC.","Address":"624 N Golden State Blvd","City":"Turlock","State":"CA","Zip":"95380"},{"Location":"EL ROSAL RESTAURANT","Address":"3401 W Monte Vista Ave","City":"Turlock","State":"CA","Zip":"95380"},{"Location":"EXPRESS LANE URGENT CARE","Address":"711 E Hawkeye Ave 3","City":"Turlock","State":"CA","Zip":"95380"},{"Location":"FARMERS AND MERCHANTS","Address":"121 S Center St","City":"Turlock","State":"CA","Zip":"95380"},{"Location":"IN SHAPE CLUBS TURLOCK","Address":"2821 Countryside Dr","City":"Turlock","State":"CA","Zip":"95380"},{"Location":"INDEPENDENT ELECTRIC SUPPLY","Address":"1565 Venture Ln","City":"Turlock","State":"CA","Zip":"95380"},{"Location":"JACAB CORP","Address":"3420 W Monte Vista Ave","City":"Turlock","State":"CA","Zip":"95380"},{"Location":"JURA'S PIZZA","Address":"309 N Center St","City":"Turlock","State":"CA","Zip":"95380"},{"Location":"JURAS PIZZA PARLOR","Address":"309 N Center St","City":"Turlock","State":"CA","Zip":"95380"},{"Location":"LEWIS BAPTISTA","Address":"1221 S Tegner Rd","City":"Turlock","State":"CA","Zip":"95380"},{"Location":"LOVELY NAILS","Address":"769 N Golden State Blvd","City":"Turlock","State":"CA","Zip":"95380"},{"Location":"MCDONALD'S #25117","Address":"3050 Countryside Dr","City":"Turlock","State":"CA","Zip":"95380"},{"Location":"MCDONALDS 06891","Address":"2000 W Main St","City":"Turlock","State":"CA","Zip":"95380"},{"Location":"ME AND ED PIZZARIA","Address":"3210 Countryside Dr","City":"Turlock","State":"CA","Zip":"95380"},{"Location":"MONTERREY FOOD CONCEPT","Address":"3140 Countryside Dr","City":"Turlock","State":"CA","Zip":"95380"},{"Location":"MOOSE LODGE","Address":"4713 W Main St","City":"Turlock","State":"CA","Zip":"95380"},{"Location":"MUNDOS LATINE GRILL","Address":"699 N Golden State Blvd","City":"Turlock","State":"CA","Zip":"95380"},{"Location":"NEELAM LLC2","Address":"40 Lander Ave","City":"Turlock","State":"CA","Zip":"95380"},{"Location":"NORTHERN REFRIGERATED TRANS","Address":"2700 W Main St","City":"Turlock","State":"CA","Zip":"95380"},{"Location":"OLIVE GARDEN #4430","Address":"2749 Countryside Dr","City":"Turlock","State":"CA","Zip":"95380"},{"Location":"ORION WEALTH INC","Address":"511 Crane Ave","City":"Turlock","State":"CA","Zip":"95380"},{"Location":"PACIFIC DENTAL #153","Address":"2808 W Monte Vista Ave","City":"Turlock","State":"CA","Zip":"95380"},{"Location":"PIZZA HUT","Address":"920 Lander Ave A","City":"Turlock","State":"CA","Zip":"95380"},{"Location":"QUEENS NAILS","Address":"2800 W Monte Vista Ave","City":"Turlock","State":"CA","Zip":"95380"},{"Location":"RED ROBIN #296","Address":"3105 Monte Vista Drive","City":"Turlock","State":"CA","Zip":"95380"},{"Location":"RICOS ITALIAN PIZZA","Address":"2321 W Main St B","City":"Turlock","State":"CA","Zip":"95380"},{"Location":"SAMURAI SUSHI A","Address":"1672 Countryside Dr","City":"Turlock","State":"CA","Zip":"95380"},{"Location":"SAUNDERS HEATING AND AIR","Address":"500 N 1st St","City":"Turlock","State":"CA","Zip":"95380"},{"Location":"SHARKEY'S BILLIARDS & SERVICES","Address":"700 W Hawkeye Ave","City":"Turlock","State":"CA","Zip":"95380"},{"Location":"SPYCHER BROTHERS","Address":"14827 W Harding Rd","City":"Turlock","State":"CA","Zip":"95380"},{"Location":"STALEYS CLUB","Address":"426 E Main St","City":"Turlock","State":"CA","Zip":"95380"},{"Location":"TARGET","Address":"3000 Countryside Dr","City":"Turlock","State":"CA","Zip":"95380"},{"Location":"TAVISTOCK FREEBIRDS LLC","Address":"3202 Countryside Dr","City":"Turlock","State":"CA","Zip":"95380"},{"Location":"TELCION COMMUNCATIONS GROUP","Address":"3070 Commerce Way","City":"Turlock","State":"CA","Zip":"95380"},{"Location":"THE HAIR CUTTER","Address":"224 W Main St","City":"Turlock","State":"CA","Zip":"95380"},{"Location":"THE VINTAGE PIANO BAR 2","Address":"130 W Main St","City":"Turlock","State":"CA","Zip":"95380"},{"Location":"TIGER TRANS INC","Address":"830 W Glenwood Ave","City":"Turlock","State":"CA","Zip":"95380"},{"Location":"TURLOCK COUNTRYCLUB","Address":"10532 Golf Rd","City":"Turlock","State":"CA","Zip":"95380"},{"Location":"TURLOCK CRYSLER DODGE JEEP","Address":"1600 Auto Mall Dr","City":"Turlock","State":"CA","Zip":"95380"},{"Location":"TURLOCK POKER ROOM","Address":"200 W Main St","City":"Turlock","State":"CA","Zip":"95380"},{"Location":"US COLD STORAGE","Address":"537 Fransil Ln","City":"Turlock","State":"CA","Zip":"95380"},{"Location":"VFW TURLOCK","Address":"1405 E Linwood Ave","City":"Turlock","State":"CA","Zip":"95380"},{"Location":"VISION TECHNOLOGY DESIGN","Address":"2548 Paulson Rd","City":"Turlock","State":"CA","Zip":"95380"},{"Location":"WELLINGTON STATION","Address":"10 E Main St","City":"Turlock","State":"CA","Zip":"95380"},{"Location":"WEST STEAL PLASITC","Address":"1301 South Ave","City":"Turlock","State":"CA","Zip":"95380"}]