[{"Location":"101 WEST AUTO REPAIR","Address":"300 W Robles Ave L1","City":"Santa Rosa","State":"CA","Zip":"95407"},{"Location":"A & G SMOG CHECK","Address":"440 Dutton Ave 5","City":"Santa Rosa","State":"CA","Zip":"95407"},{"Location":"A AND D TRUCK AND AUTO REPAIR","Address":"400 E Todd Rd","City":"Santa Rosa","State":"CA","Zip":"95407"},{"Location":"A1A PERFORMANCE MUFFLER","Address":"345 E Todd Rd","City":"Santa Rosa","State":"CA","Zip":"95407"},{"Location":"ALVAREZ RESTAURANTE","Address":"443 Dutton Ave","City":"Santa Rosa","State":"CA","Zip":"95407"},{"Location":"ANGELS BEAUTY SALON#1","Address":"3345 Santa Rosa Ave","City":"Santa Rosa","State":"CA","Zip":"95407"},{"Location":"ANYTIME FITNESS","Address":"2885 Santa Rosa Ave B","City":"Santa Rosa","State":"CA","Zip":"95407"},{"Location":"APLHA FIRE SUPPRESSION","Address":"2391 Circadian Way","City":"Santa Rosa","State":"CA","Zip":"95407"},{"Location":"CASA DEL MAR","Address":"3660 Stony Point Rd","City":"Santa Rosa","State":"CA","Zip":"95407"},{"Location":"DAVIDS SHOE REPAIR","Address":"722 Sebastopol Rd","City":"Santa Rosa","State":"CA","Zip":"95407"},{"Location":"DNC AUTO RETAILS","Address":"72 W Barham Ave","City":"Santa Rosa","State":"CA","Zip":"95407"},{"Location":"EL FAROLITO SANTA ROSA","Address":"565 Sebastopol Rd","City":"Santa Rosa","State":"CA","Zip":"95407"},{"Location":"FIRESTONE #359451","Address":"2730 Santa Rosa Ave","City":"Santa Rosa","State":"CA","Zip":"95407"},{"Location":"FIRST AMERICAN HOMEBUYERS PROT","Address":"1244 Apollo Way","City":"Santa Rosa","State":"CA","Zip":"95407"},{"Location":"FREEMAN MOTORS","Address":"2845 Corby Ave","City":"Santa Rosa","State":"CA","Zip":"95407"},{"Location":"FREEMAN TOYOTA","Address":"2875 Corby Ave","City":"Santa Rosa","State":"CA","Zip":"95407"},{"Location":"FUSION FITNESS #1","Address":"791 Lombardi Ct","City":"Santa Rosa","State":"CA","Zip":"95407"},{"Location":"FUSION FITNESS #2","Address":"791 Lombardi Ct","City":"Santa Rosa","State":"CA","Zip":"95407"},{"Location":"G AND C TOWING","Address":"245 Bellevue Ave","City":"Santa Rosa","State":"CA","Zip":"95407"},{"Location":"JOYERIA TORRES 2","Address":"443 Dutton Ave 13","City":"Santa Rosa","State":"CA","Zip":"95407"},{"Location":"LOLAS MARKET","Address":"440 Dutton Ave 17","City":"Santa Rosa","State":"CA","Zip":"95407"},{"Location":"LOS AMIGOS BILLIARDS","Address":"3020 Santa Rosa Ave A","City":"Santa Rosa","State":"CA","Zip":"95407"},{"Location":"MANLY GMC HYUNDAI","Address":"2701 Corby Ave","City":"Santa Rosa","State":"CA","Zip":"95407"},{"Location":"MANLY HONDA","Address":"2750 Corby Ave","City":"Santa Rosa","State":"CA","Zip":"95407"},{"Location":"MANLY HYUNDIA","Address":"2755 Corby Ave","City":"Santa Rosa","State":"CA","Zip":"95407"},{"Location":"MCLEAS TIRE","Address":"106 Baker Ave","City":"Santa Rosa","State":"CA","Zip":"95407"},{"Location":"MICHOACANA ICE CREAM & C","Address":"1546 Sebastopol Rd","City":"Santa Rosa","State":"CA","Zip":"95407"},{"Location":"RICH DOSS INC","Address":"3809 Stony Point Rd","City":"Santa Rosa","State":"CA","Zip":"95407"},{"Location":"SANTA ROSA FIRE DEPT 10","Address":"2373 Circadian Way","City":"Santa Rosa","State":"CA","Zip":"95407"},{"Location":"SANTA ROSA MEMORIAL URGENT CAR","Address":"925 Corporate Cntr Pkwy A","City":"Santa Rosa","State":"CA","Zip":"95407"},{"Location":"SATELLITE DIALYSIS SR1","Address":"2301 Circadian Way C","City":"Santa Rosa","State":"CA","Zip":"95407"},{"Location":"SATELLITE DIALYSIS SR2","Address":"2301 Circadian Way C","City":"Santa Rosa","State":"CA","Zip":"95407"},{"Location":"SEQUOIA FLORAL INTL","Address":"3245 Santa Rosa Ave","City":"Santa Rosa","State":"CA","Zip":"95407"},{"Location":"SMOTHERS EUROPEAN","Address":"2881 Corby Ave","City":"Santa Rosa","State":"CA","Zip":"95407"},{"Location":"SMOTHERS EUROPEAN","Address":"2880 Talmadge Dr","City":"Santa Rosa","State":"CA","Zip":"95407"},{"Location":"SONOMA VALLEY FOODS","Address":"3645 Standish Ave","City":"Santa Rosa","State":"CA","Zip":"95407"},{"Location":"SPORTS AUTHORITY 671","Address":"1970 Santa Rosa Ave","City":"Santa Rosa","State":"CA","Zip":"95407"},{"Location":"TARGET STORE #0937","Address":"1980 Santa Rosa Ave","City":"Santa Rosa","State":"CA","Zip":"95407"},{"Location":"THE GOLF MART","Address":"2768 Santa Rosa Ave","City":"Santa Rosa","State":"CA","Zip":"95407"},{"Location":"TIRE DISTRIBUTION SYSTEM","Address":"233 Bellevue Ave","City":"Santa Rosa","State":"CA","Zip":"95407"},{"Location":"VEOLIA TRANSPORTATION","Address":"355 W Robles Ave","City":"Santa Rosa","State":"CA","Zip":"95407"},{"Location":"WATT MEANGKOLVORN","Address":"297 Millbrae Ave","City":"Santa Rosa","State":"CA","Zip":"95407"},{"Location":"WATTGRINDER ENGINEERING","Address":"2975 Dutton Ave 2b","City":"Santa Rosa","State":"CA","Zip":"95407"},{"Location":"WHISKEY TIP","Address":"1910 Sebastopol Rd","City":"Santa Rosa","State":"CA","Zip":"95407"}]