[{"Location":"BEV HOLLY","Address":"1145 Yulupa Ave","City":"Santa Rosa","State":"CA","Zip":"95405"},{"Location":"CATTLEMENS SANTA ROSA","Address":"2400 Midway Dr","City":"Santa Rosa","State":"CA","Zip":"95405"},{"Location":"DR ERIC SCHMIDT","Address":"525 Doyle Park Dr","City":"Santa Rosa","State":"CA","Zip":"95405"},{"Location":"EL CHARRO MEXICAN REST","Address":"1529 Farmers Ln","City":"Santa Rosa","State":"CA","Zip":"95405"},{"Location":"EMILYS KITCHEN","Address":"709 Village Ct","City":"Santa Rosa","State":"CA","Zip":"95405"},{"Location":"GIO'S PIZZA","Address":"2700 Yulupa Ave 5","City":"Santa Rosa","State":"CA","Zip":"95405"},{"Location":"LA CANTERA TENNIS CLUB","Address":"3737 Montgomery Dr","City":"Santa Rosa","State":"CA","Zip":"95405"},{"Location":"LEGENDS AT BENNETT VALLEY","Address":"3328 Yulupa Ave","City":"Santa Rosa","State":"CA","Zip":"95405"},{"Location":"MODERN NAILS","Address":"2700 Yulupa Ave 16","City":"Santa Rosa","State":"CA","Zip":"95405"},{"Location":"PARK VIEW GARDENS","Address":"3751 Montgomery Dr","City":"Santa Rosa","State":"CA","Zip":"95405"},{"Location":"REDWOOD CREDIT UNION","Address":"2763 4th St","City":"Santa Rosa","State":"CA","Zip":"95405"},{"Location":"SALVATION ARMY","Address":"2805 Saint Paul Dr","City":"Santa Rosa","State":"CA","Zip":"95405"},{"Location":"SANTA ROSA MEMORIAL 1","Address":"525 Doyle Park Dr","City":"Santa Rosa","State":"CA","Zip":"95405"},{"Location":"SUPER NAILS","Address":"1525a Farmers Ln","City":"Santa Rosa","State":"CA","Zip":"95405"},{"Location":"WHOLE FOODS MARKET","Address":"1181 Yulupa Ave","City":"Santa Rosa","State":"CA","Zip":"95405"}]