[{"Location":"","Address":"1642 Jennings Ave","City":"Santa Rosa","State":"CA","Zip":"95401"},{"Location":"ALADDIN BB DEPT 755","Address":"721 Mendocino Ave","City":"Santa Rosa","State":"CA","Zip":"95401"},{"Location":"BELLY PUBLIC HOUSE LLC","Address":"523 4th St","City":"Santa Rosa","State":"CA","Zip":"95401"},{"Location":"BJ'S RESTAURANT #520","Address":"334a Coddingtown Ctr","City":"Santa Rosa","State":"CA","Zip":"95401"},{"Location":"BRASA PUB","Address":"505 Mendocino Ave","City":"Santa Rosa","State":"CA","Zip":"95401"},{"Location":"CAMPOBELLO","Address":"3250 Guerneville Rd","City":"Santa Rosa","State":"CA","Zip":"95401"},{"Location":"CELLARS OF SONOMA","Address":"133 4th St","City":"Santa Rosa","State":"CA","Zip":"95401"},{"Location":"CHARLES SCHWAB CC831","Address":"200 4th St 100","City":"Santa Rosa","State":"CA","Zip":"95401"},{"Location":"CHEVY'S 2018","Address":"24 4th St","City":"Santa Rosa","State":"CA","Zip":"95401"},{"Location":"CONCENTRA","Address":"1221 N Dutton Ave","City":"Santa Rosa","State":"CA","Zip":"95401"},{"Location":"DARE DEVILS AND QUEENS","Address":"122 4th St","City":"Santa Rosa","State":"CA","Zip":"95401"},{"Location":"DELOACH VINEYARDS","Address":"1791 Olivet Rd","City":"Santa Rosa","State":"CA","Zip":"95401"},{"Location":"DICK'S SPORTING GOODS #1049","Address":"1975 Cleveland Ave","City":"Santa Rosa","State":"CA","Zip":"95401"},{"Location":"EL COQUI PUERTO RICAN CUISINE","Address":"400 Mendocino Ave","City":"Santa Rosa","State":"CA","Zip":"95401"},{"Location":"ERIC FRASER DDS MS","Address":"140 Stony Point Rd K","City":"Santa Rosa","State":"CA","Zip":"95401"},{"Location":"FIRESTONE #240724","Address":"1910 Mendocino Ave","City":"Santa Rosa","State":"CA","Zip":"95401"},{"Location":"GO GO WOK","Address":"1791 Marlow Rd 4","City":"Santa Rosa","State":"CA","Zip":"95401"},{"Location":"GREGORY CLARK","Address":"120 5th St","City":"Santa Rosa","State":"CA","Zip":"95401"},{"Location":"HANG AH","Address":"2130 Armory Dr","City":"Santa Rosa","State":"CA","Zip":"95401"},{"Location":"HYATT VINEYARD CREEK","Address":"170 Railroad St","City":"Santa Rosa","State":"CA","Zip":"95401"},{"Location":"JACK & TONYS","Address":"115 4th St","City":"Santa Rosa","State":"CA","Zip":"95401"},{"Location":"JACKSON BAR & OVEN","Address":"135 4th St","City":"Santa Rosa","State":"CA","Zip":"95401"},{"Location":"JACKSON FAMILY ENTERPRISES","Address":"3451 Piner Rd","City":"Santa Rosa","State":"CA","Zip":"95401"},{"Location":"LA ROSA","Address":"500 4th St","City":"Santa Rosa","State":"CA","Zip":"95401"},{"Location":"MACY'S WEST 325","Address":"800 Santa Rosa Plz","City":"Santa Rosa","State":"CA","Zip":"95401"},{"Location":"MACY'S WEST 325 BR","Address":"800 Santa Rosa Plz","City":"Santa Rosa","State":"CA","Zip":"95401"},{"Location":"MACY'S WEST 330 BR","Address":"555 Coddingtown Ctr","City":"Santa Rosa","State":"CA","Zip":"95401"},{"Location":"PACIFIC GAS AND ELECTRIC","Address":"3965 Occidental Rd","City":"Santa Rosa","State":"CA","Zip":"95401"},{"Location":"PIZZA HUT SANTA ROSA","Address":"140 Stony Point Rd F","City":"Santa Rosa","State":"CA","Zip":"95401"},{"Location":"PJAM LLP","Address":"438 1st St","City":"Santa Rosa","State":"CA","Zip":"95401"},{"Location":"QUICKLY LLC","Address":"1008 Mendocino Ave E","City":"Santa Rosa","State":"CA","Zip":"95401"},{"Location":"REDWOOD AUDIO VISUAL","Address":"244 Roberts Ave","City":"Santa Rosa","State":"CA","Zip":"95401"},{"Location":"REMYS BAR AND GRILL","Address":"130 Stony Point Rd A","City":"Santa Rosa","State":"CA","Zip":"95401"},{"Location":"ROUND TABLE PIZZA CE2-1","Address":"2065 Occidental Rd","City":"Santa Rosa","State":"CA","Zip":"95401"},{"Location":"SANTA ROSA ORTHOPEDICS","Address":"131b Stony Cir 2000","City":"Santa Rosa","State":"CA","Zip":"95401"},{"Location":"SANTA ROSA PLAYERS","Address":"52 W 6th St","City":"Santa Rosa","State":"CA","Zip":"95401"},{"Location":"SEA NOODLE BAR","Address":"286 Coddingtown Ctr","City":"Santa Rosa","State":"CA","Zip":"95401"},{"Location":"SONOMA COUNTY INDIAN HEALTH","Address":"144 Stony Point Rd","City":"Santa Rosa","State":"CA","Zip":"95401"},{"Location":"SPRENGERS TAP ROOM","Address":"446 B St","City":"Santa Rosa","State":"CA","Zip":"95401"},{"Location":"STONY POINT EXECUTIVE OFFICES","Address":"100 Stony Point Rd 180","City":"Santa Rosa","State":"CA","Zip":"95401"},{"Location":"STOUT BROTHERS IRISH PUB","Address":"527 4th St","City":"Santa Rosa","State":"CA","Zip":"95401"},{"Location":"TAQUERIA SANTA ROSA","Address":"1950 Mendocino Ave","City":"Santa Rosa","State":"CA","Zip":"95401"},{"Location":"TEX WASABI","Address":"515 4th St","City":"Santa Rosa","State":"CA","Zip":"95401"},{"Location":"THE HERITAGE PUBLIC HOUSE","Address":"1901 Mendocino Ave","City":"Santa Rosa","State":"CA","Zip":"95401"},{"Location":"TOAD IN THE HOLE","Address":"116 5th St","City":"Santa Rosa","State":"CA","Zip":"95401"},{"Location":"WALKER BUILDING MAINTENANCE","Address":"305 W 9th St","City":"Santa Rosa","State":"CA","Zip":"95401"},{"Location":"WHOLE FOODS","Address":"390 Codintown Mall","City":"Santa Rosa","State":"CA","Zip":"95401"}]