[{"Location":"5HIRD ST ALE WORKS","Address":"610 3rd St","City":"Santa Rosa","State":"CA","Zip":"95404"},{"Location":"5TH STREET BAR","Address":"609 5th St","City":"Santa Rosa","State":"CA","Zip":"95404"},{"Location":"CALVARY CATHOLIC CEMETERY","Address":"2930 Bennett Valley Rd","City":"Santa Rosa","State":"CA","Zip":"95404"},{"Location":"CHELINOS 1","Address":"1079 4th St","City":"Santa Rosa","State":"CA","Zip":"95404"},{"Location":"CHRISTYS ON THE SQUARE","Address":"96 Old Courthouse Sq","City":"Santa Rosa","State":"CA","Zip":"95404"},{"Location":"CREEKSIDE CONVALESCENT & REHAB","Address":"850 Sonoma Ave","City":"Santa Rosa","State":"CA","Zip":"95404"},{"Location":"DRUIDS","Address":"1011 College Ave","City":"Santa Rosa","State":"CA","Zip":"95404"},{"Location":"FIRST REPUBLIC BANK","Address":"640 3rd St","City":"Santa Rosa","State":"CA","Zip":"95404"},{"Location":"HOME REPAIR SERVICES","Address":"468 Yolanda Ave 801","City":"Santa Rosa","State":"CA","Zip":"95404"},{"Location":"JIM BONE FIAT OF SANTA ROSA","Address":"1235 Santa Rosa Ave","City":"Santa Rosa","State":"CA","Zip":"95404"},{"Location":"KIA OF SANTA ROSA","Address":"1255 Santa Rosa Ave","City":"Santa Rosa","State":"CA","Zip":"95404"},{"Location":"KRANKEMANN LAW OFFICES","Address":"375 E St 120","City":"Santa Rosa","State":"CA","Zip":"95404"},{"Location":"MARY'S PIZZA SHACK","Address":"615 4th St","City":"Santa Rosa","State":"CA","Zip":"95404"},{"Location":"MI LINDO MICHOACAN","Address":"1709 Santa Rosa Ave","City":"Santa Rosa","State":"CA","Zip":"95404"},{"Location":"NISSAN OF SANTA ROSA","Address":"1275 Santa Rosa Ave","City":"Santa Rosa","State":"CA","Zip":"95404"},{"Location":"NORCAL SURGERY CENTER","Address":"730 Bennett Valley Rd","City":"Santa Rosa","State":"CA","Zip":"95404"},{"Location":"NY PIEE","Address":"65 Brookwood Ave 1","City":"Santa Rosa","State":"CA","Zip":"95404"},{"Location":"PHNOMPEH GROCERY STORE","Address":"923 Petaluma Hill Rd","City":"Santa Rosa","State":"CA","Zip":"95404"},{"Location":"RON ALLEN & ASSOCIATES","Address":"350 E St 300a","City":"Santa Rosa","State":"CA","Zip":"95404"},{"Location":"ROSSO PIZZA","Address":"53 Montgomery Dr","City":"Santa Rosa","State":"CA","Zip":"95404"},{"Location":"RUSSIAN RIVER BREWING COMPANY","Address":"725 4th St","City":"Santa Rosa","State":"CA","Zip":"95404"},{"Location":"RV BISTRO LLC","Address":"630 3rd St","City":"Santa Rosa","State":"CA","Zip":"95404"},{"Location":"SANTA ROSA FIREFIGHTERS","Address":"555 S E St","City":"Santa Rosa","State":"CA","Zip":"95404"},{"Location":"SCOTTRADE 04U","Address":"622 4th St","City":"Santa Rosa","State":"CA","Zip":"95404"},{"Location":"SHAPIRO%2CGALVIN%2CSHAPIRO & MORAN","Address":"640 3rd St 2fl","City":"Santa Rosa","State":"CA","Zip":"95404"},{"Location":"SOCO COFFEE","Address":"1015 4th St","City":"Santa Rosa","State":"CA","Zip":"95404"},{"Location":"SONOMA COUNTY CORONERS","Address":"3336 Chanate Rd","City":"Santa Rosa","State":"CA","Zip":"95404"},{"Location":"SONOMA NATIONAL BANK","Address":"801 4th St","City":"Santa Rosa","State":"CA","Zip":"95404"},{"Location":"TAYMAN PARK GOLF GROUP","Address":"1350 Bennett Valley Rd 100","City":"Santa Rosa","State":"CA","Zip":"95404"},{"Location":"URJ CAMP NEWMAN","Address":"4088 Porter Creek Rd","City":"Santa Rosa","State":"CA","Zip":"95404"},{"Location":"US TRUSTBANK OF AMERICA PRIVAT","Address":"10 Santa Rosa Ave 200","City":"Santa Rosa","State":"CA","Zip":"95404"},{"Location":"VICE PROPERTIES","Address":"809 2nd St","City":"Santa Rosa","State":"CA","Zip":"95404"}]