[{"Location":"ANHEUSER-BUSCH WHLSLR #40493","Address":"5463 Skylane Blvd","City":"Larkfield","State":"CA","Zip":"95403"},{"Location":"LORENAS MEXICAN RESTAURA","Address":"600 Larkfield Ctr","City":"Larkfield","State":"CA","Zip":"95403"},{"Location":"24 HOUR FITNESS #510","Address":"3550 Industrial Dr","City":"Santa Rosa","State":"CA","Zip":"95403"},{"Location":"A2 RAILLA DEVELOPMENT","Address":"5462 Skylane Blvd B","City":"Santa Rosa","State":"CA","Zip":"95403"},{"Location":"ADVENTIST HEALTH","Address":"463 Aviation Blvd 120","City":"Santa Rosa","State":"CA","Zip":"95403"},{"Location":"ADVERSE EVENTS","Address":"3663 N Laughlin Rd 102","City":"Santa Rosa","State":"CA","Zip":"95403"},{"Location":"AMERICAS INCOME TAX","Address":"1430 Guernvill Rd Suite 5","City":"Santa Rosa","State":"CA","Zip":"95403"},{"Location":"ANTI AGING MEDICAL CLINIC INC","Address":"2448 Guerneville Rd 800","City":"Santa Rosa","State":"CA","Zip":"95403"},{"Location":"APPLEBEE'S #2140014","Address":"885 Hopper Ave","City":"Santa Rosa","State":"CA","Zip":"95403"},{"Location":"AT&T","Address":"3645 N Laughlin Rd 102","City":"Santa Rosa","State":"CA","Zip":"95403"},{"Location":"BIG RIVER COFFEE COMPANY","Address":"3345 Industrial Dr 18","City":"Santa Rosa","State":"CA","Zip":"95403"},{"Location":"BLOOD SOURCE","Address":"3505 Industrial Dr","City":"Santa Rosa","State":"CA","Zip":"95403"},{"Location":"BOAT HOUSE SUSHI","Address":"2630 Mendocino Ave","City":"Santa Rosa","State":"CA","Zip":"95403"},{"Location":"COLONIAL PARK INC","Address":"5645 Old Redwood Hwy","City":"Santa Rosa","State":"CA","Zip":"95403"},{"Location":"COUNTY OF SONOMA","Address":"2300 County Center Dr B220","City":"Santa Rosa","State":"CA","Zip":"95403"},{"Location":"COUNTY OF SONOMA","Address":"575 Administration Dr","City":"Santa Rosa","State":"CA","Zip":"95403"},{"Location":"COUNTY OF SONOMA","Address":"2755 Mendocino Ave","City":"Santa Rosa","State":"CA","Zip":"95403"},{"Location":"COUNTY OF SONOMA","Address":"2300 County Center Dr A220","City":"Santa Rosa","State":"CA","Zip":"95403"},{"Location":"COUNTY OF SONOMA SHERIFFS DEPT","Address":"2254 Ordinance Rd","City":"Santa Rosa","State":"CA","Zip":"95403"},{"Location":"EL BRINQUITO RESTAURANT","Address":"810 Piner Rd","City":"Santa Rosa","State":"CA","Zip":"95403"},{"Location":"ENDODONTIC SERVICES","Address":"3536 Mendocino Ave 330","City":"Santa Rosa","State":"CA","Zip":"95403"},{"Location":"EXCHANGE BANK","Address":"440 Aviation Blvd","City":"Santa Rosa","State":"CA","Zip":"95403"},{"Location":"FALCK NORTHERN CALIFORNIA INC","Address":"5464 Skylane Blvd E","City":"Santa Rosa","State":"CA","Zip":"95403"},{"Location":"FMC 32150000","Address":"487 Aviation Blvd 110","City":"Santa Rosa","State":"CA","Zip":"95403"},{"Location":"GA HC REIT II SANTA ROSA HLTH","Address":"3883 Airway Dr 125","City":"Santa Rosa","State":"CA","Zip":"95403"},{"Location":"HILTON GARDEN INN","Address":"417 Aviation Blvd","City":"Santa Rosa","State":"CA","Zip":"95403"},{"Location":"HILTON SONOMA COUNTY","Address":"3555 Round Barn Blvd","City":"Santa Rosa","State":"CA","Zip":"95403"},{"Location":"HOME RUN PIZZA","Address":"484 Larkfield Ctr","City":"Santa Rosa","State":"CA","Zip":"95403"},{"Location":"JACKSON FAMILY ENTERPRISES","Address":"421 Aviation Blvd","City":"Santa Rosa","State":"CA","Zip":"95403"},{"Location":"JACKSON FAMILY ENTERPRISES III","Address":"425 Aviation Blvd","City":"Santa Rosa","State":"CA","Zip":"95403"},{"Location":"JACOB ORTIZ","Address":"3501 Industrial Dr","City":"Santa Rosa","State":"CA","Zip":"95403"},{"Location":"JOURNEYS END MOBILE HOME PARK","Address":"3575 Mendocino Ave","City":"Santa Rosa","State":"CA","Zip":"95403"},{"Location":"KAFFE MOCHA","Address":"397 Aviation Blvd A","City":"Santa Rosa","State":"CA","Zip":"95403"},{"Location":"KEYSIGHT TECHNOLOGIES%2C INC","Address":"1400 Fountaingrove Pkwy","City":"Santa Rosa","State":"CA","Zip":"95403"},{"Location":"LARK FIELD CHEVRON","Address":"4840 Old Redwood Hwy","City":"Santa Rosa","State":"CA","Zip":"95403"},{"Location":"LINKENHEIMER","Address":"187 Concourse Blvd","City":"Santa Rosa","State":"CA","Zip":"95403"},{"Location":"LV NAILS","Address":"3581 Industrial Dr","City":"Santa Rosa","State":"CA","Zip":"95403"},{"Location":"LYTTON RANCHERIA","Address":"437 Aviation Blvd","City":"Santa Rosa","State":"CA","Zip":"95403"},{"Location":"MA SILVA CORP USA","Address":"3433 Westwind Blvd","City":"Santa Rosa","State":"CA","Zip":"95403"},{"Location":"MARY'S PIZZA SHACK","Address":"3084 Marlow Rd","City":"Santa Rosa","State":"CA","Zip":"95403"},{"Location":"MAYACAMA GOLF CLUB","Address":"1240 Mayacama Club Dr","City":"Santa Rosa","State":"CA","Zip":"95403"},{"Location":"MAYACAMA GOLF CLUB LLC","Address":"1240 Mayacama Club Dr","City":"Santa Rosa","State":"CA","Zip":"95403"},{"Location":"MEN'S WEARHOUSE #2171","Address":"1001 Steele Ln","City":"Santa Rosa","State":"CA","Zip":"95403"},{"Location":"MI BURRITO MEXICAN RESTA","Address":"385 Aviation Blvd D","City":"Santa Rosa","State":"CA","Zip":"95403"},{"Location":"MORGAN STANLEY 100122","Address":"3562 Round Barn Cir","City":"Santa Rosa","State":"CA","Zip":"95403"},{"Location":"MY HA RESTAURANT","Address":"385 Aviation Blvd B","City":"Santa Rosa","State":"CA","Zip":"95403"},{"Location":"NBC SECURITIES","Address":"3562 Round Barn Cir 310","City":"Santa Rosa","State":"CA","Zip":"95403"},{"Location":"ONE MINISTRIES INC","Address":"2240 Professional Dr","City":"Santa Rosa","State":"CA","Zip":"95403"},{"Location":"PAOLO RAVIOLI DELI AND CAFE","Address":"3033 Cleveland Ave 160","City":"Santa Rosa","State":"CA","Zip":"95403"},{"Location":"PETERSON TRACTOR CO","Address":"3710 Regional Pkwy","City":"Santa Rosa","State":"CA","Zip":"95403"},{"Location":"PHILLIPS FAMILY DENTAL CARE","Address":"2655 Cleveland Ave","City":"Santa Rosa","State":"CA","Zip":"95403"},{"Location":"RBC","Address":"3562 Round Barn Cir","City":"Santa Rosa","State":"CA","Zip":"95403"},{"Location":"REACH AIR MEDICAL","Address":"2360 Becker Blvd","City":"Santa Rosa","State":"CA","Zip":"95403"},{"Location":"REACH AIR MEDICAL SVCS","Address":"451 Aviation Blvd 101","City":"Santa Rosa","State":"CA","Zip":"95403"},{"Location":"REALESTATE AND MORGTAGE","Address":"1700 Piner Rd B","City":"Santa Rosa","State":"CA","Zip":"95403"},{"Location":"REDWOOD CREDIT UNION","Address":"3033 Cleveland Ave","City":"Santa Rosa","State":"CA","Zip":"95403"},{"Location":"REDWOOD ORTHOPAEDIC SURGERY","Address":"208 Concourse Blvd","City":"Santa Rosa","State":"CA","Zip":"95403"},{"Location":"ROBEX INC DBA VANISHED","Address":"5688 Old Redwood Hwy","City":"Santa Rosa","State":"CA","Zip":"95403"},{"Location":"S S & S LLC","Address":"2240 Mendocino Ave C1","City":"Santa Rosa","State":"CA","Zip":"95403"},{"Location":"SALSA ZONE","Address":"821 Russell Ave","City":"Santa Rosa","State":"CA","Zip":"95403"},{"Location":"SANDMAN MANAGER","Address":"3421 Cleveland Ave","City":"Santa Rosa","State":"CA","Zip":"95403"},{"Location":"SANTA ROSA SURGERY CENTER LP","Address":"34 Mark West Springs Rd","City":"Santa Rosa","State":"CA","Zip":"95403"},{"Location":"SHAMROCK MOBILE HOME COM","Address":"6418 Old Redwood Hwy","City":"Santa Rosa","State":"CA","Zip":"95403"},{"Location":"SONOMA COUNTY SHERIFF","Address":"2776 Ventura Ave","City":"Santa Rosa","State":"CA","Zip":"95403"},{"Location":"SONOMA COUNTY SHERIFFS","Address":"2284 Airport Blvd","City":"Santa Rosa","State":"CA","Zip":"95403"},{"Location":"SONOMA COUNTY SHERRIFFS OFFICE","Address":"2265 Becker Blvd","City":"Santa Rosa","State":"CA","Zip":"95403"},{"Location":"SONOMA JET CENTER","Address":"6000 Flightline Dr","City":"Santa Rosa","State":"CA","Zip":"95403"},{"Location":"THE AIRPORT CLUB","Address":"432 Aviation Blvd","City":"Santa Rosa","State":"CA","Zip":"95403"},{"Location":"THE FOUNTAIN GROVE INN 2","Address":"101 Fountaingrove Pkwy","City":"Santa Rosa","State":"CA","Zip":"95403"},{"Location":"THE NUTTY","Address":"995 Piner Rd","City":"Santa Rosa","State":"CA","Zip":"95403"},{"Location":"UNITED PARCEL SERVICE","Address":"3331 Industrial Dr","City":"Santa Rosa","State":"CA","Zip":"95403"},{"Location":"VALLEY TIRE AND BRAKE","Address":"1688 Piner Rd","City":"Santa Rosa","State":"CA","Zip":"95403"},{"Location":"VINE JET","Address":"7400 Flightline Dr","City":"Santa Rosa","State":"CA","Zip":"95403"},{"Location":"W REAL ESTATE","Address":"500 Bicentennial Way","City":"Santa Rosa","State":"CA","Zip":"95403"},{"Location":"WACHOVIA SECURITIES","Address":"432 Aviation Blvd","City":"Santa Rosa","State":"CA","Zip":"95403"},{"Location":"WAGON WHEEL SALOON","Address":"3320 Mendocino Ave","City":"Santa Rosa","State":"CA","Zip":"95403"},{"Location":"WESTSIDE GRILL","Address":"3082 Marlow Rd","City":"Santa Rosa","State":"CA","Zip":"95403"},{"Location":"WIKIUP TENNIS AND SWIM CLUB","Address":"500 Wikiup Dr","City":"Santa Rosa","State":"CA","Zip":"95403"}]