[{"Location":"ANYTIME FITNESS","Address":"792 S Cloverdale Blvd","City":"Cloverdale","State":"CA","Zip":"95425"},{"Location":"ELS","Address":"33655 Geysers Rd","City":"Cloverdale","State":"CA","Zip":"95425"},{"Location":"ELS","Address":"33655 Geysers Rd C","City":"Cloverdale","State":"CA","Zip":"95425"},{"Location":"EQUITY LIFESTYLE PROPERT","Address":"33655 N Redwood Hwy","City":"Cloverdale","State":"CA","Zip":"95425"},{"Location":"LA HACIENDA MEXICAN","Address":"134 N Cloverdale Blvd","City":"Cloverdale","State":"CA","Zip":"95425"},{"Location":"LOS ABBIE TAQUERIAS","Address":"512 N Cloverdale Blvd","City":"Cloverdale","State":"CA","Zip":"95425"},{"Location":"MARYS PIZZA SHACK","Address":"1143 S Cloverdale Blvd","City":"Cloverdale","State":"CA","Zip":"95425"},{"Location":"MGM BRAKES","Address":"1184 S Cloverdale Blvd","City":"Cloverdale","State":"CA","Zip":"95425"},{"Location":"MKD CONSTRUCTION 1","Address":"128 N Cloverdale Blvd","City":"Cloverdale","State":"CA","Zip":"95425"},{"Location":"RAILROAD STATION BAR AND GRILL","Address":"236 S Cloverdale Blvd","City":"Cloverdale","State":"CA","Zip":"95425"},{"Location":"REDWOOD CREDIT UNION","Address":"1129 S Cloverdale Blvd","City":"Cloverdale","State":"CA","Zip":"95425"},{"Location":"SURGERY.COM","Address":"405 N Cloverdale Blvd","City":"Cloverdale","State":"CA","Zip":"95425"},{"Location":"ANYTIME FITNESS","Address":"792 S Cloverdale Blvd","City":"Cloverdale","State":"CA","Zip":"95425"},{"Location":"ELS","Address":"33655 Geysers Rd","City":"Cloverdale","State":"CA","Zip":"95425"},{"Location":"ELS","Address":"33655 Geysers Rd C","City":"Cloverdale","State":"CA","Zip":"95425"},{"Location":"EQUITY LIFESTYLE PROPERT","Address":"33655 N Redwood Hwy","City":"Cloverdale","State":"CA","Zip":"95425"},{"Location":"LA HACIENDA MEXICAN","Address":"134 N Cloverdale Blvd","City":"Cloverdale","State":"CA","Zip":"95425"},{"Location":"LOS ABBIE TAQUERIAS","Address":"512 N Cloverdale Blvd","City":"Cloverdale","State":"CA","Zip":"95425"},{"Location":"MARYS PIZZA SHACK","Address":"1143 S Cloverdale Blvd","City":"Cloverdale","State":"CA","Zip":"95425"},{"Location":"MGM BRAKES","Address":"1184 S Cloverdale Blvd","City":"Cloverdale","State":"CA","Zip":"95425"},{"Location":"MKD CONSTRUCTION 1","Address":"128 N Cloverdale Blvd","City":"Cloverdale","State":"CA","Zip":"95425"},{"Location":"RAILROAD STATION BAR AND GRILL","Address":"236 S Cloverdale Blvd","City":"Cloverdale","State":"CA","Zip":"95425"},{"Location":"REDWOOD CREDIT UNION","Address":"1129 S Cloverdale Blvd","City":"Cloverdale","State":"CA","Zip":"95425"},{"Location":"SURGERY.COM","Address":"405 N Cloverdale Blvd","City":"Cloverdale","State":"CA","Zip":"95425"}]