[{"Location":"AVR TREE SERVICE","Address":"13890 Lakeshore Dr","City":"Clearlake","State":"CA","Zip":"95422"},{"Location":"CLEARLAKE PAPER","Address":"14935 Olympic Dr","City":"Clearlake","State":"CA","Zip":"95422"},{"Location":"D&M COMPASSION CTR","Address":"14491 Olympic Dr","City":"Clearlake","State":"CA","Zip":"95422"},{"Location":"DAVITA #2122 CLEARLAKE","Address":"14400 Olympic Dr","City":"Clearlake","State":"CA","Zip":"95422"},{"Location":"DELICIAS ALVAREZ","Address":"14094 Lakeshore Dr","City":"Clearlake","State":"CA","Zip":"95422"},{"Location":"HOWARDS GROTTO","Address":"14732 Lakeshore Dr","City":"Clearlake","State":"CA","Zip":"95422"},{"Location":"JT AUTO GLASS","Address":"4274 Old Highway 53","City":"Clearlake","State":"CA","Zip":"95422"},{"Location":"KOUR THAI RESTURANT","Address":"14677 Lakeshore Dr","City":"Clearlake","State":"CA","Zip":"95422"},{"Location":"LAGUNA MEXICAN RESTAURAN","Address":"15204 Lakeshore Dr","City":"Clearlake","State":"CA","Zip":"95422"},{"Location":"LAKE EXPRESS LUBE","Address":"14835 Olympic Dr","City":"Clearlake","State":"CA","Zip":"95422"},{"Location":"NAILS IN TOWN","Address":"14840 Olympic Dr","City":"Clearlake","State":"CA","Zip":"95422"},{"Location":"ONE STOP AUTOMOTIVE","Address":"14570 Lakeshore Dr","City":"Clearlake","State":"CA","Zip":"95422"},{"Location":"PRAISES OF ZION BAPTIST CHURCH","Address":"3890 Emile Ave","City":"Clearlake","State":"CA","Zip":"95422"},{"Location":"SMOKE ON THE WATER LLC","Address":"14200 Lakeshore Dr","City":"Clearlake","State":"CA","Zip":"95422"},{"Location":"TIRE PROS","Address":"14320 Lakeshore Dr","City":"Clearlake","State":"CA","Zip":"95422"}]