[{"Location":"ANGELINAS GRILL AND BAR","Address":"400 S Main St","City":"Fort Bragg","State":"CA","Zip":"95437"},{"Location":"BERNILLOS PIZZERIA","Address":"220 E Redwood Ave","City":"Fort Bragg","State":"CA","Zip":"95437"},{"Location":"BRAG ABOUT IT","Address":"656 S Franklin St","City":"Fort Bragg","State":"CA","Zip":"95437"},{"Location":"CALIFORNIA DEPT FOREST AND","Address":"24020 Highway 20","City":"Fort Bragg","State":"CA","Zip":"95437"},{"Location":"CANCLINI T V AND  APPLIANCE","Address":"636 S Franklin St","City":"Fort Bragg","State":"CA","Zip":"95437"},{"Location":"CAP HE","Address":"18661 N Highway 1","City":"Fort Bragg","State":"CA","Zip":"95437"},{"Location":"CUCINA VERONA","Address":"124 E Laurel St","City":"Fort Bragg","State":"CA","Zip":"95437"},{"Location":"HARBOR LITE","Address":"120 N Harbor Dr","City":"Fort Bragg","State":"CA","Zip":"95437"},{"Location":"HOLIDAY INN EXPRESS","Address":"250 Highway 20","City":"Fort Bragg","State":"CA","Zip":"95437"},{"Location":"J AND J S FAMILY DINING","Address":"898 S Main St","City":"Fort Bragg","State":"CA","Zip":"95437"},{"Location":"KEMGAS","Address":"1300 N Main St","City":"Fort Bragg","State":"CA","Zip":"95437"},{"Location":"LA PLAYA RESTAURANT","Address":"542 N Main St","City":"Fort Bragg","State":"CA","Zip":"95437"},{"Location":"LUNA TRATTORIA LLC","Address":"223 N Franklin St","City":"Fort Bragg","State":"CA","Zip":"95437"},{"Location":"NORTH COAST BREWING CO","Address":"444 N Main St","City":"Fort Bragg","State":"CA","Zip":"95437"},{"Location":"ORCA TOWING","Address":"32180b Airport Rd","City":"Fort Bragg","State":"CA","Zip":"95437"},{"Location":"PIACI PUB & PIZZERIA","Address":"120 W Redwood Ave","City":"Fort Bragg","State":"CA","Zip":"95437"},{"Location":"SILVERS AT THE WHARF1","Address":"32260 N Harbor Dr","City":"Fort Bragg","State":"CA","Zip":"95437"},{"Location":"TIP TOP LOUNGE","Address":"321 N Franklin St","City":"Fort Bragg","State":"CA","Zip":"95437"},{"Location":"USCG STATION NOYO RIVER","Address":"19325 S Harbor Dr","City":"Fort Bragg","State":"CA","Zip":"95437"},{"Location":"ANGELINAS GRILL AND BAR","Address":"400 S Main St","City":"Fort Bragg","State":"CA","Zip":"95437"},{"Location":"BERNILLOS PIZZERIA","Address":"220 E Redwood Ave","City":"Fort Bragg","State":"CA","Zip":"95437"},{"Location":"BRAG ABOUT IT","Address":"656 S Franklin St","City":"Fort Bragg","State":"CA","Zip":"95437"},{"Location":"CALIFORNIA DEPT FOREST AND","Address":"24020 Highway 20","City":"Fort Bragg","State":"CA","Zip":"95437"},{"Location":"CANCLINI T V AND  APPLIANCE","Address":"636 S Franklin St","City":"Fort Bragg","State":"CA","Zip":"95437"},{"Location":"CAP HE","Address":"18661 N Highway 1","City":"Fort Bragg","State":"CA","Zip":"95437"},{"Location":"CUCINA VERONA","Address":"124 E Laurel St","City":"Fort Bragg","State":"CA","Zip":"95437"},{"Location":"HARBOR LITE","Address":"120 N Harbor Dr","City":"Fort Bragg","State":"CA","Zip":"95437"},{"Location":"HOLIDAY INN EXPRESS","Address":"250 Highway 20","City":"Fort Bragg","State":"CA","Zip":"95437"},{"Location":"J AND J S FAMILY DINING","Address":"898 S Main St","City":"Fort Bragg","State":"CA","Zip":"95437"},{"Location":"KEMGAS","Address":"1300 N Main St","City":"Fort Bragg","State":"CA","Zip":"95437"},{"Location":"LA PLAYA RESTAURANT","Address":"542 N Main St","City":"Fort Bragg","State":"CA","Zip":"95437"},{"Location":"LORIVER OF CALI","Address":"500 S Main St","City":"Fort Bragg","State":"CA","Zip":"95437"},{"Location":"LUNA TRATTORIA LLC","Address":"223 N Franklin St","City":"Fort Bragg","State":"CA","Zip":"95437"},{"Location":"NORTH COAST BREWING CO","Address":"444 N Main St","City":"Fort Bragg","State":"CA","Zip":"95437"},{"Location":"ORCA TOWING","Address":"32180b Airport Rd","City":"Fort Bragg","State":"CA","Zip":"95437"},{"Location":"PIACI PUB & PIZZERIA","Address":"120 W Redwood Ave","City":"Fort Bragg","State":"CA","Zip":"95437"},{"Location":"SILVERS AT THE WHARF1","Address":"32260 N Harbor Dr","City":"Fort Bragg","State":"CA","Zip":"95437"},{"Location":"TIP TOP LOUNGE","Address":"321 N Franklin St","City":"Fort Bragg","State":"CA","Zip":"95437"},{"Location":"USCG STATION NOYO RIVER","Address":"19325 S Harbor Dr","City":"Fort Bragg","State":"CA","Zip":"95437"}]