[{"Location":"ANDORNOS","Address":"16205 First St","City":"Guerneville","State":"CA","Zip":"95446"},{"Location":"DICK BLUMSTER'S","Address":"16236 Hwy 116","City":"Guerneville","State":"CA","Zip":"95446"},{"Location":"MCTS BULLPEN","Address":"16246 First St","City":"Guerneville","State":"CA","Zip":"95446"},{"Location":"R3 HOTEL","Address":"16390 4th Street","City":"Guerneville","State":"CA","Zip":"95446"},{"Location":"RIVER NAIL AND SPA","Address":"16316 Main St B","City":"Guerneville","State":"CA","Zip":"95446"},{"Location":"RUSSIAN RIVER STUDIOS","Address":"15098 Old River Rd","City":"Guerneville","State":"CA","Zip":"95446"},{"Location":"SONOMA ORCHID  INN","Address":"12850 River Rd","City":"Guerneville","State":"CA","Zip":"95446"},{"Location":"STUMPTOWN BREWERY","Address":"15045 River Rd","City":"Guerneville","State":"CA","Zip":"95446"},{"Location":"ANDORNOS","Address":"16205 First St","City":"Guerneville","State":"CA","Zip":"95446"},{"Location":"DICK BLUMSTER'S","Address":"16236 Hwy 116","City":"Guerneville","State":"CA","Zip":"95446"},{"Location":"MCTS BULLPEN","Address":"16246 First St","City":"Guerneville","State":"CA","Zip":"95446"},{"Location":"R3 HOTEL","Address":"16390 4th Street","City":"Guerneville","State":"CA","Zip":"95446"},{"Location":"RIVER NAIL AND SPA","Address":"16316 Main St B","City":"Guerneville","State":"CA","Zip":"95446"},{"Location":"RUSSIAN RIVER STUDIOS","Address":"15098 Old River Rd","City":"Guerneville","State":"CA","Zip":"95446"},{"Location":"SONOMA ORCHID  INN","Address":"12850 River Rd","City":"Guerneville","State":"CA","Zip":"95446"},{"Location":"STUMPTOWN BREWERY","Address":"15045 River Rd","City":"Guerneville","State":"CA","Zip":"95446"}]