[{"Location":"BOHEMIAN SONOMA LLC","Address":"5279 Highway 128","City":"Geyserville","State":"CA","Zip":"95441"},{"Location":"CLOS DU BOIS WINERY","Address":"19410 Geyserville Ave","City":"Geyserville","State":"CA","Zip":"95441"},{"Location":"DELORIMIER","Address":"2001 Highway 128","City":"Geyserville","State":"CA","Zip":"95441"},{"Location":"DELORIMIER1","Address":"2005 Highway 128","City":"Geyserville","State":"CA","Zip":"95441"},{"Location":"HOFFMAN HOUSE","Address":"21712 Geyserville Ave Inn","City":"Geyserville","State":"CA","Zip":"95441"},{"Location":"ISIS OASIS","Address":"20889 Geyserville Ave","City":"Geyserville","State":"CA","Zip":"95441"},{"Location":"JAXON KEYS WINERY1","Address":"18450 Rockpile Rd","City":"Geyserville","State":"CA","Zip":"95441"},{"Location":"RIVER ROCK CASINO","Address":"3250 Highway 128","City":"Geyserville","State":"CA","Zip":"95441"},{"Location":"STRYKER SONOMA WINERY","Address":"5150 Highway 128","City":"Geyserville","State":"CA","Zip":"95441"},{"Location":"BOHEMIAN SONOMA LLC","Address":"5279 Highway 128","City":"Geyserville","State":"CA","Zip":"95441"},{"Location":"CLOS DU BOIS WINERY","Address":"19410 Geyserville Ave","City":"Geyserville","State":"CA","Zip":"95441"},{"Location":"DELORIMIER","Address":"2001 Highway 128","City":"Geyserville","State":"CA","Zip":"95441"},{"Location":"DELORIMIER1","Address":"2005 Highway 128","City":"Geyserville","State":"CA","Zip":"95441"},{"Location":"HOFFMAN HOUSE","Address":"21712 Geyserville Ave Inn","City":"Geyserville","State":"CA","Zip":"95441"},{"Location":"ISIS OASIS","Address":"20889 Geyserville Ave","City":"Geyserville","State":"CA","Zip":"95441"},{"Location":"JAXON KEYS WINERY1","Address":"18450 Rockpile Rd","City":"Geyserville","State":"CA","Zip":"95441"},{"Location":"RIVER ROCK CASINO","Address":"3250 Highway 128","City":"Geyserville","State":"CA","Zip":"95441"},{"Location":"STRYKER SONOMA WINERY","Address":"5150 Highway 128","City":"Geyserville","State":"CA","Zip":"95441"}]