[{"Location":"0DELS RESTAURANT","Address":"200 W Dry Creek Rd","City":"Healdsburg","State":"CA","Zip":"95448"},{"Location":"A RAFANELLI WINERY","Address":"3597 W Dry Creek Rd","City":"Healdsburg","State":"CA","Zip":"95448"},{"Location":"AGAVE","Address":"1063 Vine St","City":"Healdsburg","State":"CA","Zip":"95448"},{"Location":"ALEXANDER VALLEY VINEYARD","Address":"8640 Highway 128 Rear","City":"Healdsburg","State":"CA","Zip":"95448"},{"Location":"ALEXANDER VALLEY VINEYARD 2","Address":"8644 Highway 128","City":"Healdsburg","State":"CA","Zip":"95448"},{"Location":"ALEXANDER VALLEY VINEYARD 3","Address":"8648 Highway 128","City":"Healdsburg","State":"CA","Zip":"95448"},{"Location":"BEAR REPUBLIC BREWING COMPANY","Address":"345 Healdsburg Ave","City":"Healdsburg","State":"CA","Zip":"95448"},{"Location":"CHALK   HILL  WINERY","Address":"10300 Chalk Hill Rd","City":"Healdsburg","State":"CA","Zip":"95448"},{"Location":"CHALK HILL WINERY GUEST  TWO","Address":"10300 Chalk Hill Rd","City":"Healdsburg","State":"CA","Zip":"95448"},{"Location":"CHALK HILL WINERY GUEST HOUSE","Address":"10375 Chalk Hill Rd","City":"Healdsburg","State":"CA","Zip":"95448"},{"Location":"CROWN WINE SHIPPING","Address":"459 Healdsburg Ave","City":"Healdsburg","State":"CA","Zip":"95448"},{"Location":"DCGS LLC","Address":"3495 Dry Creek Rd","City":"Healdsburg","State":"CA","Zip":"95448"},{"Location":"E & J GALLO WINERY","Address":"3387 Dry Creek Rd","City":"Healdsburg","State":"CA","Zip":"95448"},{"Location":"E J GALLO WINERY","Address":"845 Healdsburg Ave","City":"Healdsburg","State":"CA","Zip":"95448"},{"Location":"FERRARI CARANO WINERY","Address":"8761 Dry Creek Rd","City":"Healdsburg","State":"CA","Zip":"95448"},{"Location":"GRANITE CONSTRUCTION","Address":"15 Healdsburg Ave A","City":"Healdsburg","State":"CA","Zip":"95448"},{"Location":"HEALDSBURG BAR AND GRILL","Address":"245 Healdsburg Ave","City":"Healdsburg","State":"CA","Zip":"95448"},{"Location":"HEALDSBURG HEALTH & SPIRIT","Address":"1500 Healdsburg Ave","City":"Healdsburg","State":"CA","Zip":"95448"},{"Location":"HONOR MINISTRIES","Address":"241 Theresa Ct","City":"Healdsburg","State":"CA","Zip":"95448"},{"Location":"HOTEL LES MARS","Address":"15001 Chalk Hill Rd","City":"Healdsburg","State":"CA","Zip":"95448"},{"Location":"JORDAN WINERY","Address":"1474 Alexander Valley Rd 1","City":"Healdsburg","State":"CA","Zip":"95448"},{"Location":"JORDAN WINERY","Address":"1474 Alexander Valley Rd","City":"Healdsburg","State":"CA","Zip":"95448"},{"Location":"LA PIZZA","Address":"133 Healdsburg Ave","City":"Healdsburg","State":"CA","Zip":"95448"},{"Location":"MCCONNELL CHEVROLET","Address":"1395 Healdsburg Ave","City":"Healdsburg","State":"CA","Zip":"95448"},{"Location":"MCCONNELL CHRYSLER","Address":"1405 Healdsburg Ave","City":"Healdsburg","State":"CA","Zip":"95448"},{"Location":"MICHEL-SCHLUMBERGER","Address":"4155 Wine Creek Rd","City":"Healdsburg","State":"CA","Zip":"95448"},{"Location":"REDWOOD LUMBER AND SUPPLY","Address":"12055 Old Redwood Hwy","City":"Healdsburg","State":"CA","Zip":"95448"},{"Location":"RIVERVIEW II","Address":"1145 Orchard St","City":"Healdsburg","State":"CA","Zip":"95448"},{"Location":"ROBERT  LEACH   DDS","Address":"1260 Healdsburg Ave","City":"Healdsburg","State":"CA","Zip":"95448"},{"Location":"ROSENBLUM CELLARS","Address":"18 Matheson St","City":"Healdsburg","State":"CA","Zip":"95448"},{"Location":"SALVATION ARMY BRIDGE HOUSE","Address":"200 Lytton Springs Rd","City":"Healdsburg","State":"CA","Zip":"95448"},{"Location":"SALVATION ARMY HOUSE-MRP","Address":"200 Lytton Springs Rd","City":"Healdsburg","State":"CA","Zip":"95448"},{"Location":"SALVATION ARMY OFFICER QUARTER","Address":"200 Lytton Springs Rd","City":"Healdsburg","State":"CA","Zip":"95448"},{"Location":"TAQUERIA GUADALAJARA","Address":"125 Healdsburg Ave","City":"Healdsburg","State":"CA","Zip":"95448"},{"Location":"TAYMAN PARK GOLF GROUP","Address":"927 S Fitch Mountain Rd","City":"Healdsburg","State":"CA","Zip":"95448"},{"Location":"WATER FRONT TASTING ROOM","Address":"53 Front St","City":"Healdsburg","State":"CA","Zip":"95448"},{"Location":"WILD FLOWERS SALOON","Address":"9 Mitchell Ln","City":"Healdsburg","State":"CA","Zip":"95448"},{"Location":"0DELS RESTAURANT","Address":"200 W Dry Creek Rd","City":"Healdsburg","State":"CA","Zip":"95448"},{"Location":"A RAFANELLI WINERY","Address":"3597 W Dry Creek Rd","City":"Healdsburg","State":"CA","Zip":"95448"},{"Location":"AGAVE","Address":"1063 Vine St","City":"Healdsburg","State":"CA","Zip":"95448"},{"Location":"ALEXANDER VALLEY VINEYARD","Address":"8640 Highway 128 Rear","City":"Healdsburg","State":"CA","Zip":"95448"},{"Location":"ALEXANDER VALLEY VINEYARD 2","Address":"8644 Highway 128","City":"Healdsburg","State":"CA","Zip":"95448"},{"Location":"ALEXANDER VALLEY VINEYARD 3","Address":"8648 Highway 128","City":"Healdsburg","State":"CA","Zip":"95448"},{"Location":"BEAR REPUBLIC BREWING COMPANY","Address":"345 Healdsburg Ave","City":"Healdsburg","State":"CA","Zip":"95448"},{"Location":"CHALK   HILL  WINERY","Address":"10300 Chalk Hill Rd","City":"Healdsburg","State":"CA","Zip":"95448"},{"Location":"CHALK HILL WINERY GUEST  TWO","Address":"10300 Chalk Hill Rd","City":"Healdsburg","State":"CA","Zip":"95448"},{"Location":"CHALK HILL WINERY GUEST HOUSE","Address":"10375 Chalk Hill Rd","City":"Healdsburg","State":"CA","Zip":"95448"},{"Location":"CROWN WINE SHIPPING","Address":"459 Healdsburg Ave","City":"Healdsburg","State":"CA","Zip":"95448"},{"Location":"DCGS LLC","Address":"3495 Dry Creek Rd","City":"Healdsburg","State":"CA","Zip":"95448"},{"Location":"E & J GALLO WINERY","Address":"3387 Dry Creek Rd","City":"Healdsburg","State":"CA","Zip":"95448"},{"Location":"E J GALLO WINERY","Address":"845 Healdsburg Ave","City":"Healdsburg","State":"CA","Zip":"95448"},{"Location":"FERRARI CARANO WINERY","Address":"8761 Dry Creek Rd","City":"Healdsburg","State":"CA","Zip":"95448"},{"Location":"GRANITE CONSTRUCTION","Address":"15 Healdsburg Ave A","City":"Healdsburg","State":"CA","Zip":"95448"},{"Location":"HEALDSBURG BAR AND GRILL","Address":"245 Healdsburg Ave","City":"Healdsburg","State":"CA","Zip":"95448"},{"Location":"HEALDSBURG HEALTH & SPIRIT","Address":"1500 Healdsburg Ave","City":"Healdsburg","State":"CA","Zip":"95448"},{"Location":"HONOR MINISTRIES","Address":"241 Theresa Ct","City":"Healdsburg","State":"CA","Zip":"95448"},{"Location":"HOTEL LES MARS","Address":"15001 Chalk Hill Rd","City":"Healdsburg","State":"CA","Zip":"95448"},{"Location":"JORDAN WINERY","Address":"1474 Alexander Valley Rd 1","City":"Healdsburg","State":"CA","Zip":"95448"},{"Location":"JORDAN WINERY","Address":"1474 Alexander Valley Rd","City":"Healdsburg","State":"CA","Zip":"95448"},{"Location":"LA PIZZA","Address":"133 Healdsburg Ave","City":"Healdsburg","State":"CA","Zip":"95448"},{"Location":"MCCONNELL CHEVROLET","Address":"1395 Healdsburg Ave","City":"Healdsburg","State":"CA","Zip":"95448"},{"Location":"MCCONNELL CHRYSLER","Address":"1405 Healdsburg Ave","City":"Healdsburg","State":"CA","Zip":"95448"},{"Location":"MICHEL-SCHLUMBERGER","Address":"4155 Wine Creek Rd","City":"Healdsburg","State":"CA","Zip":"95448"},{"Location":"REDWOOD LUMBER AND SUPPLY","Address":"12055 Old Redwood Hwy","City":"Healdsburg","State":"CA","Zip":"95448"},{"Location":"RIVERVIEW II","Address":"1145 Orchard St","City":"Healdsburg","State":"CA","Zip":"95448"},{"Location":"ROBERT  LEACH   DDS","Address":"1260 Healdsburg Ave","City":"Healdsburg","State":"CA","Zip":"95448"},{"Location":"ROSENBLUM CELLARS","Address":"18 Matheson St","City":"Healdsburg","State":"CA","Zip":"95448"},{"Location":"SALVATION ARMY BRIDGE HOUSE","Address":"200 Lytton Springs Rd","City":"Healdsburg","State":"CA","Zip":"95448"},{"Location":"SALVATION ARMY HOUSE-MRP","Address":"200 Lytton Springs Rd","City":"Healdsburg","State":"CA","Zip":"95448"},{"Location":"SALVATION ARMY OFFICER QUARTER","Address":"200 Lytton Springs Rd","City":"Healdsburg","State":"CA","Zip":"95448"},{"Location":"TAQUERIA GUADALAJARA","Address":"125 Healdsburg Ave","City":"Healdsburg","State":"CA","Zip":"95448"},{"Location":"TAYMAN PARK GOLF GROUP","Address":"927 S Fitch Mountain Rd","City":"Healdsburg","State":"CA","Zip":"95448"},{"Location":"WATER FRONT TASTING ROOM","Address":"53 Front St","City":"Healdsburg","State":"CA","Zip":"95448"},{"Location":"WILD FLOWERS SALOON","Address":"9 Mitchell Ln","City":"Healdsburg","State":"CA","Zip":"95448"}]