[{"Location":"ARCHITECTURAL METAL INC","Address":"13850 S Highway 101","City":"Hopland","State":"CA","Zip":"95449"},{"Location":"BURGERS MY WAY","Address":"13600 Mountain House Rd","City":"Hopland","State":"CA","Zip":"95449"},{"Location":"HOPLAND SHOKAWAH CASINO","Address":"13101 Nokomis Rd","City":"Hopland","State":"CA","Zip":"95449"},{"Location":"HOPLAND TAP HOUSE","Address":"13351 S Highway 101","City":"Hopland","State":"CA","Zip":"95449"},{"Location":"JAXON KEYS WINERY","Address":"10400 S Highway 101","City":"Hopland","State":"CA","Zip":"95449"},{"Location":"LSH HOPLAND LLC","Address":"13441 S Highway 101 B","City":"Hopland","State":"CA","Zip":"95449"},{"Location":"ARCHITECTURAL METAL INC","Address":"13850 S Highway 101","City":"Hopland","State":"CA","Zip":"95449"},{"Location":"BURGERS MY WAY","Address":"13600 Mountain House Rd","City":"Hopland","State":"CA","Zip":"95449"},{"Location":"HOPLAND SHOKAWAH CASINO","Address":"13101 Nokomis Rd","City":"Hopland","State":"CA","Zip":"95449"},{"Location":"HOPLAND TAP HOUSE","Address":"13351 S Highway 101","City":"Hopland","State":"CA","Zip":"95449"},{"Location":"JAXON KEYS WINERY","Address":"10400 S Highway 101","City":"Hopland","State":"CA","Zip":"95449"},{"Location":"LSH HOPLAND LLC","Address":"13441 S Highway 101 B","City":"Hopland","State":"CA","Zip":"95449"}]