[{"Location":"CITY FITNESS","Address":"871 Bevins St","City":"Lakeport","State":"CA","Zip":"95453"},{"Location":"DAVITA #871 LAKEPORT","Address":"804 11th St","City":"Lakeport","State":"CA","Zip":"95453"},{"Location":"ELKS LODGE","Address":"3775 Lakeshore Blvd","City":"Lakeport","State":"CA","Zip":"95453"},{"Location":"F&M AUTOMOTIVE","Address":"1190 S Main St","City":"Lakeport","State":"CA","Zip":"95453"},{"Location":"FIRST NAIL","Address":"363 Lakeport Blvd","City":"Lakeport","State":"CA","Zip":"95453"},{"Location":"FLOWERS BY JACKIE","Address":"108 S Main St","City":"Lakeport","State":"CA","Zip":"95453"},{"Location":"FREEDOM ENTERPRISES","Address":"215 Peckham Ct","City":"Lakeport","State":"CA","Zip":"95453"},{"Location":"GOSSETT ALARM","Address":"409 N Main St","City":"Lakeport","State":"CA","Zip":"95453"},{"Location":"KEITH LONG DDS","Address":"755 11th St","City":"Lakeport","State":"CA","Zip":"95453"},{"Location":"KONOCTI VISTA CASINO","Address":"2755 Mission Rancheria Rd","City":"Lakeport","State":"CA","Zip":"95453"},{"Location":"LAKE CO JUVENAL HALL","Address":"111 Whalen Way","City":"Lakeport","State":"CA","Zip":"95453"},{"Location":"LAKE CO SHERIFFS DEPT","Address":"1355 Hoyt","City":"Lakeport","State":"CA","Zip":"95453"},{"Location":"LAKE COUNTY JAIL","Address":"4913 Helbush Dr","City":"Lakeport","State":"CA","Zip":"95453"},{"Location":"LAKEPORT AUTO MOVIES","Address":"52 Soda Bay Rd","City":"Lakeport","State":"CA","Zip":"95453"},{"Location":"LAKESIDE LANES","Address":"872 Lakeport Blvd","City":"Lakeport","State":"CA","Zip":"95453"},{"Location":"NORTHLAKE INTERNAL MEDICINE","Address":"5150 Hill Rd E B","City":"Lakeport","State":"CA","Zip":"95453"},{"Location":"PIT STOP","Address":"3740 Lakeshore Blvd","City":"Lakeport","State":"CA","Zip":"95453"},{"Location":"QUAIL RUN PHYSICAL THERAPY","Address":"422 Lakeport Blvd","City":"Lakeport","State":"CA","Zip":"95453"},{"Location":"REACH  AIR MEDICAL","Address":"4615 Highland Springs Rd","City":"Lakeport","State":"CA","Zip":"95453"},{"Location":"REACH AIR MEDICAL SERVICES 2","Address":"800a Sky Place Dr","City":"Lakeport","State":"CA","Zip":"95453"},{"Location":"ROUND TABLE PIZZA","Address":"821 11th St","City":"Lakeport","State":"CA","Zip":"95453"},{"Location":"SCOTTS VALLEY TRIBAL TANF","Address":"1005 Parallel Dr","City":"Lakeport","State":"CA","Zip":"95453"},{"Location":"SMOKERS HARDWARE","Address":"2640 S Main St","City":"Lakeport","State":"CA","Zip":"95453"},{"Location":"SUTTER LAKESIDE FMC","Address":"5176 Hill Rd E","City":"Lakeport","State":"CA","Zip":"95453"},{"Location":"SUTTER LAKESIDE HOSPITAL","Address":"5196 Hill Rd E","City":"Lakeport","State":"CA","Zip":"95453"},{"Location":"THE CLEARLAKE CLUB","Address":"210 N Main St","City":"Lakeport","State":"CA","Zip":"95453"},{"Location":"TNT ON THE LAKE","Address":"121 Bay Cir","City":"Lakeport","State":"CA","Zip":"95453"}]