[{"Location":"BOARS BREATH RESTAURANT","Address":"21148 Colstoga St","City":"Middleton","State":"CA","Zip":"95461"},{"Location":"HIDDEN VALLEY FOOD MART","Address":"18696 Putah Ln","City":"Middletown","State":"CA","Zip":"95461"},{"Location":"LANGTRY ESTATE LANGTRY HOUSE","Address":"21000 Butts Canyon Rd","City":"Middletown","State":"CA","Zip":"95461"},{"Location":"LANGTRY ESTATE WINERY HOUSE","Address":"21000 Butts Canyon Rd","City":"Middletown","State":"CA","Zip":"95461"},{"Location":"LANGTRY FARMS - DIRECTORS HOUS","Address":"22000 Butts Canyon Rd","City":"Middletown","State":"CA","Zip":"95461"},{"Location":"LANGTRY FARMS - LODGE","Address":"22000 Butts Canyon Rd","City":"Middletown","State":"CA","Zip":"95461"},{"Location":"NOBLES SALOON","Address":"21178 Calistoga Rd","City":"Middletown","State":"CA","Zip":"95461"},{"Location":"NORTHERN CALIFORNIA POWER","Address":"12000 Ridge Rd","City":"Middletown","State":"CA","Zip":"95461"},{"Location":"PERRYS DELICATESEN","Address":"21308 Calastoga St","City":"Middletown","State":"CA","Zip":"95461"},{"Location":"REYNOLDS TRUCK AND CRANE INC","Address":"11735 Socrates Mine Rd","City":"Middletown","State":"CA","Zip":"95461"},{"Location":"TWIN PINE CASINO","Address":"22223 Rancheria Rd Hwy 29","City":"Middletown","State":"CA","Zip":"95461"},{"Location":"BOARS BREATH RESTAURANT","Address":"21148 Colstoga St","City":"Middleton","State":"CA","Zip":"95461"},{"Location":"HIDDEN VALLEY FOOD MART","Address":"18696 Putah Ln","City":"Middletown","State":"CA","Zip":"95461"},{"Location":"LANGTRY ESTATE LANGTRY HOUSE","Address":"21000 Butts Canyon Rd","City":"Middletown","State":"CA","Zip":"95461"},{"Location":"LANGTRY ESTATE WINERY HOUSE","Address":"21000 Butts Canyon Rd","City":"Middletown","State":"CA","Zip":"95461"},{"Location":"LANGTRY FARMS - DIRECTORS HOUS","Address":"22000 Butts Canyon Rd","City":"Middletown","State":"CA","Zip":"95461"},{"Location":"LANGTRY FARMS - LODGE","Address":"22000 Butts Canyon Rd","City":"Middletown","State":"CA","Zip":"95461"},{"Location":"NOBLES SALOON","Address":"21178 Calistoga Rd","City":"Middletown","State":"CA","Zip":"95461"},{"Location":"NORTHERN CALIFORNIA POWER","Address":"12000 Ridge Rd","City":"Middletown","State":"CA","Zip":"95461"},{"Location":"PERRYS DELICATESEN","Address":"21308 Calastoga St","City":"Middletown","State":"CA","Zip":"95461"},{"Location":"REYNOLDS TRUCK AND CRANE INC","Address":"11735 Socrates Mine Rd","City":"Middletown","State":"CA","Zip":"95461"},{"Location":"TWIN PINE CASINO","Address":"22223 Rancheria Rd Hwy 29","City":"Middletown","State":"CA","Zip":"95461"}]