[{"Location":"THE PIER CHOWDER HOUSE","Address":"790 Port Rd","City":"Mendocino","State":"CA","Zip":"95468"},{"Location":"LIGHTHOUSE POINTE RESORT","Address":"22900 S Hwy 1","City":"Point Area","State":"CA","Zip":"95468"},{"Location":"LIGHTHOUSE POINTE RESORT  #2","Address":"22900 S Hwy 1","City":"Point Area","State":"CA","Zip":"95468"},{"Location":"LIGHTHOUSE POINTE RESORT #4","Address":"22900 S Hwy 1","City":"Point Area","State":"CA","Zip":"95468"},{"Location":"215 MAIN","Address":"215 Main St","City":"Point Arena","State":"CA","Zip":"95468"},{"Location":"BRYAN    PRESERVE","Address":"130 Riverside Dr","City":"Point Arena","State":"CA","Zip":"95468"},{"Location":"GARCIA RIVER CASINO","Address":"22215 Windy Hollow Rd","City":"Point Arena","State":"CA","Zip":"95468"},{"Location":"LIGHTHOUSE POINTE RESORT #3","Address":"22900 S Hwy 1","City":"Point Arena","State":"CA","Zip":"95468"},{"Location":"SIGN OF THE WHALE","Address":"194 Main St","City":"Point Arena","State":"CA","Zip":"95468"},{"Location":"LIGHTHOUSE POINTE 5","Address":"22900 S Highway 1","City":"Pointe Arena","State":"CA","Zip":"95468"}]