[{"Location":"A C VENTURES","Address":"465 1st St W","City":"Sonoma","State":"CA","Zip":"95476"},{"Location":"BLACK BEAR DINNER","Address":"201 W Napa St 34","City":"Sonoma","State":"CA","Zip":"95476"},{"Location":"BURGERS & VINE","Address":"400 1st St E","City":"Sonoma","State":"CA","Zip":"95476"},{"Location":"CARNEROS BREWING COMPANY","Address":"22985 Burndale Rd","City":"Sonoma","State":"CA","Zip":"95476"},{"Location":"DANISH AND DONUTS","Address":"18580 Sonoma Hwy","City":"Sonoma","State":"CA","Zip":"95476"},{"Location":"EL GRAN TACO","Address":"40 Calle Del Monte","City":"Sonoma","State":"CA","Zip":"95476"},{"Location":"EYEBALL ENG","Address":"537 Este Madera Dr","City":"Sonoma","State":"CA","Zip":"95476"},{"Location":"FRIEDMAN'S HOME IMPROVEMENT","Address":"1360 Broadway","City":"Sonoma","State":"CA","Zip":"95476"},{"Location":"GOLDEN LIVING CENTER","Address":"678 Second St W","City":"Sonoma","State":"CA","Zip":"95476"},{"Location":"GOURMET TACO SHOP","Address":"19235 Sonoma Hwy","City":"Sonoma","State":"CA","Zip":"95476"},{"Location":"HANNAH BOYS CENTER","Address":"17000 Arnold Dr","City":"Sonoma","State":"CA","Zip":"95476"},{"Location":"HOPMONK TAVERN","Address":"691 Broadway","City":"Sonoma","State":"CA","Zip":"95476"},{"Location":"JACKSON FAMILY WINES","Address":"2700 Ramal Rd","City":"Sonoma","State":"CA","Zip":"95476"},{"Location":"KENWOOD INVESTMENTS LLC","Address":"136 W Napa St","City":"Sonoma","State":"CA","Zip":"95476"},{"Location":"LELAND FLY FISHING OUTFITTERS","Address":"24120 Arnold Dr","City":"Sonoma","State":"CA","Zip":"95476"},{"Location":"LUCAS CESTAROLLO COLLISI","Address":"21600 8th St E 11","City":"Sonoma","State":"CA","Zip":"95476"},{"Location":"MARY'S PIZZA SHACK","Address":"790 Gravenstein N Hwy","City":"Sonoma","State":"CA","Zip":"95476"},{"Location":"MARY'S PIZZA SHACK","Address":"8 W Main St","City":"Sonoma","State":"CA","Zip":"95476"},{"Location":"MCLEAS TIRE","Address":"19285 Sonoma Hwy","City":"Sonoma","State":"CA","Zip":"95476"},{"Location":"MISSION HILLS MORTGAGE","Address":"822 Broadway","City":"Sonoma","State":"CA","Zip":"95476"},{"Location":"MOMTAZEE REAL ESTATE","Address":"1700 Moon Mountain Rd","City":"Sonoma","State":"CA","Zip":"95476"},{"Location":"MOOSE LODGE","Address":"20580 Broadway","City":"Sonoma","State":"CA","Zip":"95476"},{"Location":"MURPHYS IRISH PUB","Address":"464 1st St E","City":"Sonoma","State":"CA","Zip":"95476"},{"Location":"NANSON PROPERTIES INC","Address":"19500 Brooklime","City":"Sonoma","State":"CA","Zip":"95476"},{"Location":"NANSON PROPERTIES INC1","Address":"19500 Brooklime","City":"Sonoma","State":"CA","Zip":"95476"},{"Location":"PARKPOINT HEALTH CLUB","Address":"19111 Sonoma Hwy","City":"Sonoma","State":"CA","Zip":"95476"},{"Location":"PICAZO CAFE","Address":"19100 Arnold Dr","City":"Sonoma","State":"CA","Zip":"95476"},{"Location":"PLAZA BISTRO","Address":"420 1st St E","City":"Sonoma","State":"CA","Zip":"95476"},{"Location":"QUINTESS COLLECTION","Address":"3948 Lovall Valley Loop Rd","City":"Sonoma","State":"CA","Zip":"95476"},{"Location":"R2 WINE COMPANY","Address":"654 Broadway","City":"Sonoma","State":"CA","Zip":"95476"},{"Location":"RAMS GATE","Address":"28700 Arnold Dr","City":"Sonoma","State":"CA","Zip":"95476"},{"Location":"RIGHT SIDE LLC","Address":"1700 Moon Mountain Rd","City":"Sonoma","State":"CA","Zip":"95476"},{"Location":"STEINERS TAVERN","Address":"465 1st St W 100","City":"Sonoma","State":"CA","Zip":"95476"},{"Location":"THE LODGE AT SONOMA","Address":"1325 Broadway","City":"Sonoma","State":"CA","Zip":"95476"},{"Location":"THE OTHER GUYS","Address":"485 1st St W","City":"Sonoma","State":"CA","Zip":"95476"},{"Location":"THE TOWN SQUARE","Address":"482 1st St E","City":"Sonoma","State":"CA","Zip":"95476"},{"Location":"TOTAL BODY SCULPTING","Address":"18346 Sonoma Hwy","City":"Sonoma","State":"CA","Zip":"95476"},{"Location":"UNION BANK 653","Address":"500 Broadway","City":"Sonoma","State":"CA","Zip":"95476"},{"Location":"INSINEON RACEWAY","Address":"Highways 37 & 121","City":"Sonome","State":"CA","Zip":"95476"}]