[{"Location":"CHENOWETH VINEYARDS INC","Address":"5550 Harrison Grade Rd","City":"Sebastopol","State":"CA","Zip":"95472"},{"Location":"EL FAROLITO","Address":"250 S Main St","City":"Sebastopol","State":"CA","Zip":"95472"},{"Location":"FIRCREST CONVALESCENT HOSPITAL","Address":"7025 Corline Ct","City":"Sebastopol","State":"CA","Zip":"95472"},{"Location":"HOPMONK TAVERN","Address":"230 Petaluma Ave","City":"Sebastopol","State":"CA","Zip":"95472"},{"Location":"JASPERS","Address":"6957 Sebastopol Ave","City":"Sebastopol","State":"CA","Zip":"95472"},{"Location":"K AND L BISTRO","Address":"119 S Main St","City":"Sebastopol","State":"CA","Zip":"95472"},{"Location":"OLD MAIN STREET SALOON","Address":"153 N Main St","City":"Sebastopol","State":"CA","Zip":"95472"},{"Location":"PIZZERIA VIGNETTE LLC","Address":"6750 Mckinley Ave","City":"Sebastopol","State":"CA","Zip":"95472"},{"Location":"SEBASTOPOL DELI AND LIQO","Address":"6800 Sebastopol Ave","City":"Sebastopol","State":"CA","Zip":"95472"},{"Location":"SEBASTOPOL GOLF COURSE","Address":"2881 Scotts Right Of Way","City":"Sebastopol","State":"CA","Zip":"95472"},{"Location":"SEBASTOPOL TOW","Address":"6871 Abbott Ave","City":"Sebastopol","State":"CA","Zip":"95472"},{"Location":"SEQUOIA MARKET","Address":"1382 Gravenstein Hwy S","City":"Sebastopol","State":"CA","Zip":"95472"},{"Location":"SF TIRE &SERVICE CENTRAL%2C INC","Address":"742 S Main St","City":"Sebastopol","State":"CA","Zip":"95472"},{"Location":"SUBIRI RESEARCH & DEVELOPMENT","Address":"103 Morris St O","City":"Sebastopol","State":"CA","Zip":"95472"},{"Location":"TAFT VENTURE LLC","Address":"6905 Southpoint Ave","City":"Sebastopol","State":"CA","Zip":"95472"},{"Location":"WAGNER","Address":"819 Longwood Ln","City":"Sebastopol","State":"CA","Zip":"95472"}]