[{"Location":"ALADDIN BB DEPT 988","Address":"210 N State St","City":"Ukiah","State":"CA","Zip":"95482"},{"Location":"ANNAS BISTRO","Address":"765 S State St A","City":"Ukiah","State":"CA","Zip":"95482"},{"Location":"ANYTIME FITNESS","Address":"175 Orchard Plz","City":"Ukiah","State":"CA","Zip":"95482"},{"Location":"BEBOPS DINER","Address":"1200 S State St","City":"Ukiah","State":"CA","Zip":"95482"},{"Location":"CAROSEL INDUSTRIAL PARK","Address":"50 Carousel Ln 20","City":"Ukiah","State":"CA","Zip":"95482"},{"Location":"CESARS BARBERSHOP","Address":"1270 S State St","City":"Ukiah","State":"CA","Zip":"95482"},{"Location":"CLUB CALPELLA","Address":"6175 N State St","City":"Ukiah","State":"CA","Zip":"95482"},{"Location":"COPYCATS","Address":"75 Kunzler Ranch Rd J","City":"Ukiah","State":"CA","Zip":"95482"},{"Location":"CRUSH ITALIAN STEAKHOUSE","Address":"1180 Airport Park Blvd","City":"Ukiah","State":"CA","Zip":"95482"},{"Location":"EL PRIMOS BAR","Address":"1424 S State St","City":"Ukiah","State":"CA","Zip":"95482"},{"Location":"ER ENERGY","Address":"530 E Perkins St","City":"Ukiah","State":"CA","Zip":"95482"},{"Location":"FRIEDMAN BROTHERS","Address":"1255 Airport Park Blvd","City":"Ukiah","State":"CA","Zip":"95482"},{"Location":"FURNITURE DESIGN CENTER","Address":"1205 Airport Park Blvd","City":"Ukiah","State":"CA","Zip":"95482"},{"Location":"G & C AUTOBODY","Address":"51 Kunzler Ranch Rd","City":"Ukiah","State":"CA","Zip":"95482"},{"Location":"HAMPTON INN","Address":"1160 Airport Park Blvd","City":"Ukiah","State":"CA","Zip":"95482"},{"Location":"HAPPINESS IS TAVERN","Address":"311 Lake Mendocino Dr","City":"Ukiah","State":"CA","Zip":"95482"},{"Location":"HOLY SPIRIT RESIDIENTIAL","Address":"1275 Elm St","City":"Ukiah","State":"CA","Zip":"95482"},{"Location":"ISIS PIZZA","Address":"1214 Airport Rd E","City":"Ukiah","State":"CA","Zip":"95482"},{"Location":"KEN FOWLER MOTORS","Address":"1265 Airport Park Blvd","City":"Ukiah","State":"CA","Zip":"95482"},{"Location":"KOHL'S #1383","Address":"437 N Orchard Ave","City":"Ukiah","State":"CA","Zip":"95482"},{"Location":"LAA BELLE NAILS & SPA","Address":"1252 Airport Park Blvd 2","City":"Ukiah","State":"CA","Zip":"95482"},{"Location":"LALOS MEXICAN FOOD","Address":"1200 N State St","City":"Ukiah","State":"CA","Zip":"95482"},{"Location":"MAC NABS MENS WEAR","Address":"111 N State St","City":"Ukiah","State":"CA","Zip":"95482"},{"Location":"MENDOCINO AUTO AUCTION","Address":"2400 N State St","City":"Ukiah","State":"CA","Zip":"95482"},{"Location":"MENDOCINO BREWING ALE HOUSE","Address":"1252 Airport Park Blvd A3","City":"Ukiah","State":"CA","Zip":"95482"},{"Location":"MENDOCINO GOLD LLC","Address":"146 Park Pl","City":"Ukiah","State":"CA","Zip":"95482"},{"Location":"NORTHERN CALIFORNIA MEDI","Address":"244 Hospital Dr B","City":"Ukiah","State":"CA","Zip":"95482"},{"Location":"PSARA'S OUTRAGEOUS PLAYLAND","Address":"209 S School St","City":"Ukiah","State":"CA","Zip":"95482"},{"Location":"RED WOOD CHILDREN SERVICES","Address":"150 Gibson St","City":"Ukiah","State":"CA","Zip":"95482"},{"Location":"REDWOOD HOUSE CLUB OF UKIAH","Address":"3101 S State St","City":"Ukiah","State":"CA","Zip":"95482"},{"Location":"REDWOOD REMEDIES","Address":"5231 Bus Mcgall Rd","City":"Ukiah","State":"CA","Zip":"95482"},{"Location":"REDWOOD TREE","Address":"859 N State St","City":"Ukiah","State":"CA","Zip":"95482"},{"Location":"ROMIS BREW AND BBQ","Address":"225 E Perkins St","City":"Ukiah","State":"CA","Zip":"95482"},{"Location":"ROUND TABLE PIZZA","Address":"292 S State St","City":"Ukiah","State":"CA","Zip":"95482"},{"Location":"SLAM DUNK PIZZA","Address":"720 N State St","City":"Ukiah","State":"CA","Zip":"95482"},{"Location":"STARS RESTAURANT","Address":"115 S Orchard Ave","City":"Ukiah","State":"CA","Zip":"95482"},{"Location":"STUDIO 203","Address":"203 E Gobbi St","City":"Ukiah","State":"CA","Zip":"95482"},{"Location":"SUPER TACO","Address":"506 E Perkins St","City":"Ukiah","State":"CA","Zip":"95482"},{"Location":"THE FOREST CLUB","Address":"239 N State St","City":"Ukiah","State":"CA","Zip":"95482"},{"Location":"THE OFFICE","Address":"131 E Mill St","City":"Ukiah","State":"CA","Zip":"95482"},{"Location":"THE PUB SPORTS BAR","Address":"585 N State St","City":"Ukiah","State":"CA","Zip":"95482"},{"Location":"THE ROYAL BARBERSHOP","Address":"542 S State St","City":"Ukiah","State":"CA","Zip":"95482"},{"Location":"TRIPLE S TIRES","Address":"550 Talmage Rd","City":"Ukiah","State":"CA","Zip":"95482"},{"Location":"UKIAH BREWING COMPANY","Address":"102 S State St","City":"Ukiah","State":"CA","Zip":"95482"},{"Location":"UKIAH GOLF COURSE","Address":"599 Park Blvd","City":"Ukiah","State":"CA","Zip":"95482"},{"Location":"VILLA DEL MAR","Address":"111 S State St","City":"Ukiah","State":"CA","Zip":"95482"},{"Location":"WALTER CAFE","Address":"920 N State St","City":"Ukiah","State":"CA","Zip":"95482"},{"Location":"WATER TROUGH","Address":"1570 S State St","City":"Ukiah","State":"CA","Zip":"95482"},{"Location":"WINGSTOP","Address":"1430 N State St","City":"Ukiah","State":"CA","Zip":"95482"},{"Location":"WIPF CONSTRUCTION","Address":"1300 Hastings Rd","City":"Ukiah","State":"CA","Zip":"95482"},{"Location":"YOKAYO BOWLING CENTER","Address":"1401 N State St","City":"Ukiah","State":"CA","Zip":"95482"},{"Location":"ALADDIN BB DEPT 988","Address":"210 N State St","City":"Ukiah","State":"CA","Zip":"95482"},{"Location":"ANNAS BISTRO","Address":"765 S State St A","City":"Ukiah","State":"CA","Zip":"95482"},{"Location":"ANYTIME FITNESS","Address":"175 Orchard Plz","City":"Ukiah","State":"CA","Zip":"95482"},{"Location":"BEBOPS DINER","Address":"1200 S State St","City":"Ukiah","State":"CA","Zip":"95482"},{"Location":"CAROSEL INDUSTRIAL PARK","Address":"50 Carousel Ln 20","City":"Ukiah","State":"CA","Zip":"95482"},{"Location":"CESARS BARBERSHOP","Address":"1270 S State St","City":"Ukiah","State":"CA","Zip":"95482"},{"Location":"CLUB CALPELLA","Address":"6175 N State St","City":"Ukiah","State":"CA","Zip":"95482"},{"Location":"COPYCATS","Address":"75 Kunzler Ranch Rd J","City":"Ukiah","State":"CA","Zip":"95482"},{"Location":"CRUSH ITALIAN STEAKHOUSE","Address":"1180 Airport Park Blvd","City":"Ukiah","State":"CA","Zip":"95482"},{"Location":"EL PRIMOS BAR","Address":"1424 S State St","City":"Ukiah","State":"CA","Zip":"95482"},{"Location":"ER ENERGY","Address":"530 E Perkins St","City":"Ukiah","State":"CA","Zip":"95482"},{"Location":"FRIEDMAN BROTHERS","Address":"1255 Airport Park Blvd","City":"Ukiah","State":"CA","Zip":"95482"},{"Location":"FURNITURE DESIGN CENTER","Address":"1205 Airport Park Blvd","City":"Ukiah","State":"CA","Zip":"95482"},{"Location":"G & C AUTOBODY","Address":"51 Kunzler Ranch Rd","City":"Ukiah","State":"CA","Zip":"95482"},{"Location":"HAMPTON INN","Address":"1160 Airport Park Blvd","City":"Ukiah","State":"CA","Zip":"95482"},{"Location":"HAPPINESS IS TAVERN","Address":"311 Lake Mendocino Dr","City":"Ukiah","State":"CA","Zip":"95482"},{"Location":"HOLY SPIRIT RESIDIENTIAL","Address":"1275 Elm St","City":"Ukiah","State":"CA","Zip":"95482"},{"Location":"ISIS PIZZA","Address":"1214 Airport Rd E","City":"Ukiah","State":"CA","Zip":"95482"},{"Location":"KEN FOWLER MOTORS","Address":"1265 Airport Park Blvd","City":"Ukiah","State":"CA","Zip":"95482"},{"Location":"KOHL'S #1383","Address":"437 N Orchard Ave","City":"Ukiah","State":"CA","Zip":"95482"},{"Location":"LAA BELLE NAILS & SPA","Address":"1252 Airport Park Blvd 2","City":"Ukiah","State":"CA","Zip":"95482"},{"Location":"LALOS MEXICAN FOOD","Address":"1200 N State St","City":"Ukiah","State":"CA","Zip":"95482"},{"Location":"MAC NABS MENS WEAR","Address":"111 N State St","City":"Ukiah","State":"CA","Zip":"95482"},{"Location":"MENDOCINO AUTO AUCTION","Address":"2400 N State St","City":"Ukiah","State":"CA","Zip":"95482"},{"Location":"MENDOCINO BREWING ALE HOUSE","Address":"1252 Airport Park Blvd A3","City":"Ukiah","State":"CA","Zip":"95482"},{"Location":"MENDOCINO GOLD LLC","Address":"146 Park Pl","City":"Ukiah","State":"CA","Zip":"95482"},{"Location":"NORTHERN CALIFORNIA MEDI","Address":"244 Hospital Dr B","City":"Ukiah","State":"CA","Zip":"95482"},{"Location":"PSARA'S OUTRAGEOUS PLAYLAND","Address":"209 S School St","City":"Ukiah","State":"CA","Zip":"95482"},{"Location":"RED WOOD CHILDREN SERVICES","Address":"150 Gibson St","City":"Ukiah","State":"CA","Zip":"95482"},{"Location":"REDWOOD HOUSE CLUB OF UKIAH","Address":"3101 S State St","City":"Ukiah","State":"CA","Zip":"95482"},{"Location":"REDWOOD REMEDIES","Address":"5231 Bus Mcgall Rd","City":"Ukiah","State":"CA","Zip":"95482"},{"Location":"REDWOOD TREE","Address":"859 N State St","City":"Ukiah","State":"CA","Zip":"95482"},{"Location":"RICKS SHOP","Address":"317 N Main St 36","City":"Ukiah","State":"CA","Zip":"95482"},{"Location":"ROMIS BREW AND BBQ","Address":"225 E Perkins St","City":"Ukiah","State":"CA","Zip":"95482"},{"Location":"ROUND TABLE PIZZA","Address":"292 S State St","City":"Ukiah","State":"CA","Zip":"95482"},{"Location":"SLAM DUNK PIZZA","Address":"720 N State St","City":"Ukiah","State":"CA","Zip":"95482"},{"Location":"STARS RESTAURANT","Address":"115 S Orchard Ave","City":"Ukiah","State":"CA","Zip":"95482"},{"Location":"STUDIO 203","Address":"203 E Gobbi St","City":"Ukiah","State":"CA","Zip":"95482"},{"Location":"SUPER TACO","Address":"506 E Perkins St","City":"Ukiah","State":"CA","Zip":"95482"},{"Location":"THE FOREST CLUB","Address":"239 N State St","City":"Ukiah","State":"CA","Zip":"95482"},{"Location":"THE OFFICE","Address":"131 E Mill St","City":"Ukiah","State":"CA","Zip":"95482"},{"Location":"THE PUB SPORTS BAR","Address":"585 N State St","City":"Ukiah","State":"CA","Zip":"95482"},{"Location":"THE ROYAL BARBERSHOP","Address":"542 S State St","City":"Ukiah","State":"CA","Zip":"95482"},{"Location":"TRIPLE S TIRES","Address":"550 Talmage Rd","City":"Ukiah","State":"CA","Zip":"95482"},{"Location":"UKIAH BREWING COMPANY","Address":"102 S State St","City":"Ukiah","State":"CA","Zip":"95482"},{"Location":"UKIAH GOLF COURSE","Address":"599 Park Blvd","City":"Ukiah","State":"CA","Zip":"95482"},{"Location":"VILLA DEL MAR","Address":"111 S State St","City":"Ukiah","State":"CA","Zip":"95482"},{"Location":"WALTER CAFE","Address":"920 N State St","City":"Ukiah","State":"CA","Zip":"95482"},{"Location":"WATER TROUGH","Address":"1570 S State St","City":"Ukiah","State":"CA","Zip":"95482"},{"Location":"WINGSTOP","Address":"1430 N State St","City":"Ukiah","State":"CA","Zip":"95482"},{"Location":"WIPF CONSTRUCTION","Address":"1300 Hastings Rd","City":"Ukiah","State":"CA","Zip":"95482"},{"Location":"YOKAYO BOWLING CENTER","Address":"1401 N State St","City":"Ukiah","State":"CA","Zip":"95482"}]