[{"Location":"ART 5 HAIR STUDIO","Address":"8465 Old Redwood Hwy 102","City":"Windsor","State":"CA","Zip":"95492"},{"Location":"DENBESTE TRANSPORTATION","Address":"810 Den Beste Ct 107","City":"Windsor","State":"CA","Zip":"95492"},{"Location":"DVD PRO PAINTING INC","Address":"930 Shiloh Rd 3","City":"Windsor","State":"CA","Zip":"95492"},{"Location":"JOHNSON POOL INC","Address":"9650 Old Redwood Hwy","City":"Windsor","State":"CA","Zip":"95492"},{"Location":"KINGS KASTLE","Address":"10342 Old Redwood Hwy","City":"Windsor","State":"CA","Zip":"95492"},{"Location":"PATTERSONS PUB","Address":"9057 Windsor Rd","City":"Windsor","State":"CA","Zip":"95492"},{"Location":"POLLYS MARKET","Address":"341 Windsor River Rd","City":"Windsor","State":"CA","Zip":"95492"},{"Location":"SOCORROS MEXICAN RESTAUR","Address":"8465 Old Redwood Hwy","City":"Windsor","State":"CA","Zip":"95492"},{"Location":"ST FLORIANS BREWERY","Address":"7704 Bell Rd A","City":"Windsor","State":"CA","Zip":"95492"},{"Location":"THE 24 HOUR HEALTH CLUB CE2-1","Address":"8928 Lakewood Dr","City":"Windsor","State":"CA","Zip":"95492"},{"Location":"THE JADED TOAD BBQ & GRILL","Address":"275 Windsor River Rd","City":"Windsor","State":"CA","Zip":"95492"},{"Location":"THUMBS UP BURGERS","Address":"8465 Old Redwood Hwy 300","City":"Windsor","State":"CA","Zip":"95492"},{"Location":"WINDSOR URGENT CARE","Address":"6580 Hembree Ln 270","City":"Windsor","State":"CA","Zip":"95492"},{"Location":"XOS DIGITAL INC HIGH SCH","Address":"800 Edgewood Pl E","City":"Windsor","State":"CA","Zip":"95492"}]