[{"Location":"AUTOS 4 FRIENDS","Address":"1466 S Main St","City":"Willits","State":"CA","Zip":"95490"},{"Location":"BROOKTRAILS GOLF COURSE 1","Address":"24860 Birch St","City":"Willits","State":"CA","Zip":"95490"},{"Location":"BURGER KING 7431","Address":"1355 S Main St","City":"Willits","State":"CA","Zip":"95490"},{"Location":"BUSTER BURGER BREW","Address":"150 S Main St B","City":"Willits","State":"CA","Zip":"95490"},{"Location":"CITY NAIL","Address":"1726 S Main St E","City":"Willits","State":"CA","Zip":"95490"},{"Location":"DEER LODGE","Address":"16680 N Highway 101","City":"Willits","State":"CA","Zip":"95490"},{"Location":"DIGGERS","Address":"244 S Main St","City":"Willits","State":"CA","Zip":"95490"},{"Location":"JARAS MEXICAN MARKET","Address":"1661 S Main St C","City":"Willits","State":"CA","Zip":"95490"},{"Location":"JOHN WILLIAMS DL","Address":"1712 S Main St C","City":"Willits","State":"CA","Zip":"95490"},{"Location":"METAL FX NORTH PLANT","Address":"200 N Lenore Ave","City":"Willits","State":"CA","Zip":"95490"},{"Location":"OLD MISSION PIZZA","Address":"1708 S Main St","City":"Willits","State":"CA","Zip":"95490"},{"Location":"REACH AIR MEDICAL 14","Address":"1841 Crawford Dr","City":"Willits","State":"CA","Zip":"95490"},{"Location":"TAQUERIA JALOS","Address":"898 S Main St","City":"Willits","State":"CA","Zip":"95490"},{"Location":"WHITE DEER LODGE","Address":"16680 N Highway 101","City":"Willits","State":"CA","Zip":"95490"}]