[{"Location":"ALADDIN BB DEPT 923","Address":"503 H St","City":"Eureka","State":"CA","Zip":"95501"},{"Location":"ANHEUSER-BUSCH WHLSLR #80417","Address":"1115 W Del Norte St","City":"Eureka","State":"CA","Zip":"95501"},{"Location":"BLACK LIGHTENING MOTORCY","Address":"440 F St","City":"Eureka","State":"CA","Zip":"95501"},{"Location":"DAVE'S PLACE","Address":"426 Grotto St","City":"Eureka","State":"CA","Zip":"95501"},{"Location":"EPT","Address":"2306 Dean St","City":"Eureka","State":"CA","Zip":"95501"},{"Location":"ESPECIALLY YOU ASSISTED LIVING","Address":"12 Henderson St","City":"Eureka","State":"CA","Zip":"95501"},{"Location":"FIRESTONE #016276","Address":"538 H St","City":"Eureka","State":"CA","Zip":"95501"},{"Location":"INDMEX","Address":"1620 Broadway","City":"Eureka","State":"CA","Zip":"95501"},{"Location":"KOHL'S #1361","Address":"3300 Broadway","City":"Eureka","State":"CA","Zip":"95501"},{"Location":"MCDONALDS1","Address":"1730 4th St","City":"Eureka","State":"CA","Zip":"95501"},{"Location":"MIKES DRIVE-UP","Address":"637 Broadway","City":"Eureka","State":"CA","Zip":"95501"},{"Location":"MORGAN STANLEY 100169","Address":"2421 Buhne St","City":"Eureka","State":"CA","Zip":"95501"},{"Location":"MYRTLEWOOD LOUNGE","Address":"1696 Myrtle Ave","City":"Eureka","State":"CA","Zip":"95501"},{"Location":"PAMPERED POOCHES","Address":"1651 Myrtle Ave A","City":"Eureka","State":"CA","Zip":"95501"},{"Location":"PAULS LIVE FROM NEW YORK","Address":"604 F St","City":"Eureka","State":"CA","Zip":"95501"},{"Location":"PEARL","Address":"507 2nd St","City":"Eureka","State":"CA","Zip":"95501"},{"Location":"PHILLY CHEESESTEAK SHOP","Address":"3050 Broadway","City":"Eureka","State":"CA","Zip":"95501"},{"Location":"RED LION HOTEL EUREKA","Address":"1929 4th St","City":"Eureka","State":"CA","Zip":"95501"},{"Location":"ROSES BILLIARDS","Address":"535 5th St","City":"Eureka","State":"CA","Zip":"95501"},{"Location":"SAINT BERNARDS CATHOLIC SCHOOL","Address":"255 Henderson St","City":"Eureka","State":"CA","Zip":"95501"},{"Location":"SALS OFF BROADWAY","Address":"1407 Albee St","City":"Eureka","State":"CA","Zip":"95501"},{"Location":"STEVE & DAVE'S BAR","Address":"200 1st St","City":"Eureka","State":"CA","Zip":"95501"},{"Location":"THE SHANTY","Address":"213 3rd St","City":"Eureka","State":"CA","Zip":"95501"},{"Location":"TSA ARCATA EUREKA AIRPORT","Address":"Avaition Divison","City":"Eureka","State":"CA","Zip":"95501"},{"Location":"US NAILS","Address":"1630 Broadway","City":"Eureka","State":"CA","Zip":"95501"},{"Location":"WENDYS 3898","Address":"529 Broadway","City":"Eureka","State":"CA","Zip":"95501"},{"Location":"ALADDIN BB DEPT 923","Address":"503 H St","City":"Eureka","State":"CA","Zip":"95501"},{"Location":"ANHEUSER-BUSCH WHLSLR #80417","Address":"1115 W Del Norte St","City":"Eureka","State":"CA","Zip":"95501"},{"Location":"BLACK LIGHTENING MOTORCY","Address":"440 F St","City":"Eureka","State":"CA","Zip":"95501"},{"Location":"DAVE'S PLACE","Address":"426 Grotto St","City":"Eureka","State":"CA","Zip":"95501"},{"Location":"EPT","Address":"2306 Dean St","City":"Eureka","State":"CA","Zip":"95501"},{"Location":"ESPECIALLY YOU ASSISTED LIVING","Address":"12 Henderson St","City":"Eureka","State":"CA","Zip":"95501"},{"Location":"FIRESTONE #016276","Address":"538 H St","City":"Eureka","State":"CA","Zip":"95501"},{"Location":"INDMEX","Address":"1620 Broadway","City":"Eureka","State":"CA","Zip":"95501"},{"Location":"KOHL'S #1361","Address":"3300 Broadway","City":"Eureka","State":"CA","Zip":"95501"},{"Location":"MCDONALDS1","Address":"1730 4th St","City":"Eureka","State":"CA","Zip":"95501"},{"Location":"MIKES DRIVE-UP","Address":"637 Broadway","City":"Eureka","State":"CA","Zip":"95501"},{"Location":"MORGAN STANLEY 100169","Address":"2421 Buhne St","City":"Eureka","State":"CA","Zip":"95501"},{"Location":"MYRTLEWOOD LOUNGE","Address":"1696 Myrtle Ave","City":"Eureka","State":"CA","Zip":"95501"},{"Location":"PAMPERED POOCHES","Address":"1651 Myrtle Ave A","City":"Eureka","State":"CA","Zip":"95501"},{"Location":"PAULS LIVE FROM NEW YORK","Address":"604 F St","City":"Eureka","State":"CA","Zip":"95501"},{"Location":"PEARL","Address":"507 2nd St","City":"Eureka","State":"CA","Zip":"95501"},{"Location":"PHILLY CHEESESTEAK SHOP","Address":"3050 Broadway","City":"Eureka","State":"CA","Zip":"95501"},{"Location":"RED LION HOTEL EUREKA","Address":"1929 4th St","City":"Eureka","State":"CA","Zip":"95501"},{"Location":"ROSES BILLIARDS","Address":"535 5th St","City":"Eureka","State":"CA","Zip":"95501"},{"Location":"SAINT BERNARDS CATHOLIC SCHOOL","Address":"255 Henderson St","City":"Eureka","State":"CA","Zip":"95501"},{"Location":"SALS OFF BROADWAY","Address":"1407 Albee St","City":"Eureka","State":"CA","Zip":"95501"},{"Location":"STEVE & DAVE'S BAR","Address":"200 1st St","City":"Eureka","State":"CA","Zip":"95501"},{"Location":"THE SHANTY","Address":"213 3rd St","City":"Eureka","State":"CA","Zip":"95501"},{"Location":"TSA ARCATA EUREKA AIRPORT","Address":"Avaition Divison","City":"Eureka","State":"CA","Zip":"95501"},{"Location":"US NAILS","Address":"1630 Broadway","City":"Eureka","State":"CA","Zip":"95501"},{"Location":"WENDYS 3898","Address":"529 Broadway","City":"Eureka","State":"CA","Zip":"95501"}]