[{"Location":"AMPT SKATE SHOP","Address":"1040 H St","City":"Arcata","State":"CA","Zip":"95521"},{"Location":"BIG PETE'S PIZZERIA","Address":"1504 G St","City":"Arcata","State":"CA","Zip":"95521"},{"Location":"BUDDYS AUTO CENTER","Address":"113 H St","City":"Arcata","State":"CA","Zip":"95521"},{"Location":"C AND SD CONSTRUCTION INC","Address":"488 Fort Seat","City":"Arcata","State":"CA","Zip":"95521"},{"Location":"CITY OF ARCATA","Address":"736 F St","City":"Arcata","State":"CA","Zip":"95521"},{"Location":"HUMBOLDT BREWS LLC","Address":"856 10th St","City":"Arcata","State":"CA","Zip":"95521"},{"Location":"MASAKIS MONGOLIAN GRILL","Address":"475 I St","City":"Arcata","State":"CA","Zip":"95521"},{"Location":"MCDONALDS","Address":"4901 Valley West Blvd","City":"Arcata","State":"CA","Zip":"95521"},{"Location":"ORIENTAL BUFFET","Address":"5000 Valley West Blvd 11","City":"Arcata","State":"CA","Zip":"95521"},{"Location":"PACIFIC COAST PIZZA INC","Address":"600 F St 14","City":"Arcata","State":"CA","Zip":"95521"},{"Location":"PAULS LIVE FROM NEW YORK","Address":"670 9th St 102","City":"Arcata","State":"CA","Zip":"95521"},{"Location":"PHILLY CHEESESTAKE SHOP","Address":"1811 G St","City":"Arcata","State":"CA","Zip":"95521"},{"Location":"SIDELINES SPORTS BAR","Address":"732 9th St","City":"Arcata","State":"CA","Zip":"95521"},{"Location":"SUSHI TAO","Address":"768 18th St","City":"Arcata","State":"CA","Zip":"95521"},{"Location":"AMPT SKATE SHOP","Address":"1040 H St","City":"Arcata","State":"CA","Zip":"95521"},{"Location":"BIG PETE'S PIZZERIA","Address":"1504 G St","City":"Arcata","State":"CA","Zip":"95521"},{"Location":"BUDDYS AUTO CENTER","Address":"113 H St","City":"Arcata","State":"CA","Zip":"95521"},{"Location":"C AND SD CONSTRUCTION INC","Address":"488 Fort Seat","City":"Arcata","State":"CA","Zip":"95521"},{"Location":"CITY OF ARCATA","Address":"736 F St","City":"Arcata","State":"CA","Zip":"95521"},{"Location":"HUMBOLDT BREWS LLC","Address":"856 10th St","City":"Arcata","State":"CA","Zip":"95521"},{"Location":"MASAKIS MONGOLIAN GRILL","Address":"475 I St","City":"Arcata","State":"CA","Zip":"95521"},{"Location":"MCDONALDS","Address":"4901 Valley West Blvd","City":"Arcata","State":"CA","Zip":"95521"},{"Location":"ORIENTAL BUFFET","Address":"5000 Valley West Blvd 11","City":"Arcata","State":"CA","Zip":"95521"},{"Location":"PACIFIC COAST PIZZA INC","Address":"600 F St 14","City":"Arcata","State":"CA","Zip":"95521"},{"Location":"PAULS LIVE FROM NEW YORK","Address":"670 9th St 102","City":"Arcata","State":"CA","Zip":"95521"},{"Location":"PHILLY CHEESESTAKE SHOP","Address":"1811 G St","City":"Arcata","State":"CA","Zip":"95521"},{"Location":"SIDELINES SPORTS BAR","Address":"732 9th St","City":"Arcata","State":"CA","Zip":"95521"},{"Location":"SUSHI TAO","Address":"768 18th St","City":"Arcata","State":"CA","Zip":"95521"}]