[{"Location":"TS69282020000000XXAOXXCECXTVXX","Address":"Dale Rupert Rd","City":"Crescent","State":"CA","Zip":"95531"},{"Location":"BIG WAVE BARBER SHOP","Address":"237 3rd St 2","City":"Crescent City","State":"CA","Zip":"95531"},{"Location":"CRESCENT CITY ELKS LODGE 1689","Address":"359 H St","City":"Crescent City","State":"CA","Zip":"95531"},{"Location":"EDWARD JONES","Address":"836 3rd St","City":"Crescent City","State":"CA","Zip":"95531"},{"Location":"NORTHWOODS RESTAURANT","Address":"675 Hwy 101 South","City":"Crescent City","State":"CA","Zip":"95531"},{"Location":"SUTTER PACIFIC MED FOUNDATION","Address":"780 E Washington Blvd 105","City":"Crescent City","State":"CA","Zip":"95531"},{"Location":"TOMASINI INOTECA","Address":"960 3rd St","City":"Crescent City","State":"CA","Zip":"95531"},{"Location":"USCGC DORADO WPB 87306","Address":"100 Anchor Way","City":"Crescent City","State":"CA","Zip":"95531"},{"Location":"TS69282020000000XXAOXXCECXTVXX","Address":"Dale Rupert Rd","City":"Crescent","State":"CA","Zip":"95531"},{"Location":"BIG WAVE BARBER SHOP","Address":"237 3rd St 2","City":"Crescent City","State":"CA","Zip":"95531"},{"Location":"CRESCENT CITY ELKS LODGE 1689","Address":"359 H St","City":"Crescent City","State":"CA","Zip":"95531"},{"Location":"EDWARD JONES","Address":"836 3rd St","City":"Crescent City","State":"CA","Zip":"95531"},{"Location":"NORTHWOODS RESTAURANT","Address":"675 Hwy 101 South","City":"Crescent City","State":"CA","Zip":"95531"},{"Location":"SUTTER PACIFIC MED FOUNDATION","Address":"780 E Washington Blvd 105","City":"Crescent City","State":"CA","Zip":"95531"},{"Location":"TOMASINI INOTECA","Address":"960 3rd St","City":"Crescent City","State":"CA","Zip":"95531"},{"Location":"USCGC DORADO WPB 87306","Address":"100 Anchor Way","City":"Crescent City","State":"CA","Zip":"95531"}]