[{"Location":"EEL RIVER BREWING COMPANY","Address":"1777 Alamar Way","City":"Fortuna","State":"CA","Zip":"95540"},{"Location":"EPT","Address":"2600 Newburg Rd","City":"Fortuna","State":"CA","Zip":"95540"},{"Location":"FORTUNA POLICE","Address":"621 11th St","City":"Fortuna","State":"CA","Zip":"95540"},{"Location":"FORTUNA TIRE AND CYCLE","Address":"591 Main St","City":"Fortuna","State":"CA","Zip":"95540"},{"Location":"FUNKY MONKEY LLC","Address":"1875 Riverwalk Dr","City":"Fortuna","State":"CA","Zip":"95540"},{"Location":"LONG BOARD SUBS","Address":"1095 S Fortuna Blvd K","City":"Fortuna","State":"CA","Zip":"95540"},{"Location":"PLAYROOM  THE","Address":"1109 Main St","City":"Fortuna","State":"CA","Zip":"95540"},{"Location":"SPRINGVILLE STEAK","Address":"320 Main St","City":"Fortuna","State":"CA","Zip":"95540"},{"Location":"SUSHI BOAT BUFFET","Address":"751 S Fortuna Blvd","City":"Fortuna","State":"CA","Zip":"95540"},{"Location":"TIMEOUT","Address":"1095 S Fortuna Blvd E","City":"Fortuna","State":"CA","Zip":"95540"},{"Location":"WESTSIDE PIZZA","Address":"432 S Fortuna Blvd","City":"Fortuna","State":"CA","Zip":"95540"}]