[{"Location":"BLUFF CREEK RESORT","Address":"Hc 67 Box 710","City":"Hoopa","State":"CA","Zip":"95546"},{"Location":"CITY OF HOOPA","Address":"11900 Hwy 96","City":"Hoopa","State":"CA","Zip":"95546"},{"Location":"CMS - HOOPA HEALTH ASSOCIATION","Address":"1200 Airport Rd","City":"Hoopa","State":"CA","Zip":"95546"},{"Location":"KIMAW  MEDICAL CENTER","Address":"1201 Airport Rd","City":"Hoopa","State":"CA","Zip":"95546"},{"Location":"KIMAW  MEDICAL CENTER","Address":"Hospital Road","City":"Hoopa","State":"CA","Zip":"95546"},{"Location":"KIMAW MEDCIAL CENTER","Address":"199 Carpenter Lane","City":"Hoopa","State":"CA","Zip":"95546"},{"Location":"KIMAW MEDICAL CENTER","Address":"1200 Airport  Road","City":"Hoopa","State":"CA","Zip":"95546"},{"Location":"KIMAW MEDICAL CENTER 2","Address":"1203 Hospital Rd.  #2 2","City":"Hoopa","State":"CA","Zip":"95546"},{"Location":"LOCUM HOUSING","Address":"4 Campus Rd","City":"Hoopa","State":"CA","Zip":"95546"},{"Location":"K'IMAW","Address":"100 Redwood Grove Rd","City":"Murphy","State":"CA","Zip":"95546"}]