[{"Location":"BIGFOOT RESTAURANT","Address":"19 Willow Way","City":"Willow Creek","State":"CA","Zip":"95573"},{"Location":"EARLY BIRD","Address":"40640 Highway 299","City":"Willow Creek","State":"CA","Zip":"95573"},{"Location":"GONZALEZ MEXICAN RESTAURANT","Address":"38971 Ca Highway 299","City":"Willow Creek","State":"CA","Zip":"95573"},{"Location":"P AND J BILLIARDS","Address":"39078 Highway 299","City":"Willow Creek","State":"CA","Zip":"95573"},{"Location":"RAGING CREEK PUB & EATERY","Address":"38939 Ca 299","City":"Willow Creek","State":"CA","Zip":"95573"},{"Location":"THE FORKS","Address":"38998 Ca Highway 299","City":"Willow Creek","State":"CA","Zip":"95573"},{"Location":"WILLOW CREEK CSD","Address":"151 Kimtu Rd","City":"Willow Creek","State":"CA","Zip":"95573"},{"Location":"WILLOW CREEK DENTAL CENTER","Address":"Po Box 785","City":"Willow Creek","State":"CA","Zip":"95573"},{"Location":"WILLOW CREEK GOLF & COUNTRY CL","Address":"333 Big Foot Ave","City":"Willow Creek","State":"CA","Zip":"95573"},{"Location":"WILLOW CREEK GOLF & COUNTRY CLUB","Address":"333 Big Foot Ave","City":"Willow Creek","State":"CA","Zip":"95573"},{"Location":"WILLOW CREEK PHARMACY","Address":"39050 Highway 299","City":"Willow Creek","State":"CA","Zip":"95573"},{"Location":"WILLOW CREEK PIZZA FACTORY ","Address":"39032 Ca Highway 299","City":"Willow Creek","State":"CA","Zip":"95573"},{"Location":"AMBULANCE WILLOW CREEK","Address":"Hwy 299","City":"Willowcreek","State":"CA","Zip":"95573"},{"Location":"WILLOW CREEK PIZZA FACTORY","Address":"39032 Hwy 299","City":"Wilow Creek","State":"CA","Zip":"95573"}]