[{"Location":"24 HOUR FITNESS #801","Address":"5114 Arden Way","City":"Carmichael","State":"CA","Zip":"95608"},{"Location":"AMERICAN RIVER","Address":"3900 Garfield Ave","City":"Carmichael","State":"CA","Zip":"95608"},{"Location":"ANCIL HOFFMAN GOLF","Address":"6700 Tarshes Dr","City":"Carmichael","State":"CA","Zip":"95608"},{"Location":"BBQ RIB AND THINGS","Address":"4141 Manzanita Ave 110","City":"Carmichael","State":"CA","Zip":"95608"},{"Location":"BELLA BRU CAFE","Address":"5038 Fair Oaks Blvd","City":"Carmichael","State":"CA","Zip":"95608"},{"Location":"CALIF FAMILY FITNESS","Address":"6314 Fair Oaks Blvd","City":"Carmichael","State":"CA","Zip":"95608"},{"Location":"CALIFORNIA FAMILY FITNES","Address":"7941 Fair Oaks Blvd","City":"Carmichael","State":"CA","Zip":"95608"},{"Location":"CARMICHAEL","Address":"8336 Fair Oaks Blvd","City":"Carmichael","State":"CA","Zip":"95608"},{"Location":"CEDAR ROOM","Address":"5932 Madison Ave","City":"Carmichael","State":"CA","Zip":"95608"},{"Location":"DAVITA #285 MANZANITA","Address":"4005 Manzanita Ave","City":"Carmichael","State":"CA","Zip":"95608"},{"Location":"EMICAL INDUSTRIES LLC","Address":"4717 El Camino Ave","City":"Carmichael","State":"CA","Zip":"95608"},{"Location":"EXCALIBUR PIZZA","Address":"4005 Manzanita Ave 46","City":"Carmichael","State":"CA","Zip":"95608"},{"Location":"FITNESS EVOLUTION","Address":"6001 Fair Oaks Blvd","City":"Carmichael","State":"CA","Zip":"95608"},{"Location":"GOLDEN 1 CREDIT UNION","Address":"4005 Manzanita Ave 60","City":"Carmichael","State":"CA","Zip":"95608"},{"Location":"GREWAL MOUNTAIN MIKES","Address":"4141 Manzanita Ave 220","City":"Carmichael","State":"CA","Zip":"95608"},{"Location":"H C MANAGEMENT","Address":"4824 Sherlock Way","City":"Carmichael","State":"CA","Zip":"95608"},{"Location":"JOHNNY'S CLUB 53","Address":"7630 Fair Oaks Blvd","City":"Carmichael","State":"CA","Zip":"95608"},{"Location":"MATTEO'S","Address":"5132 Arden Way","City":"Carmichael","State":"CA","Zip":"95608"},{"Location":"MED 7 URGENT CARE","Address":"4156 Manzanita Ave 100","City":"Carmichael","State":"CA","Zip":"95608"},{"Location":"MERCY IMAGING CENTER","Address":"6305 Coyle Ave","City":"Carmichael","State":"CA","Zip":"95608"},{"Location":"PALM STREET PUB & GRILL","Address":"6416 Fair Oaks Blvd","City":"Carmichael","State":"CA","Zip":"95608"},{"Location":"QUALITY TUNE UPS","Address":"6542 Fair Oaks Blvd","City":"Carmichael","State":"CA","Zip":"95608"},{"Location":"ROMAS PIZZA & PASTA","Address":"6530 Fair Oaks Blvd","City":"Carmichael","State":"CA","Zip":"95608"},{"Location":"SA JUAN TEACHERS ASSOC","Address":"5820 Landis Ave 1","City":"Carmichael","State":"CA","Zip":"95608"},{"Location":"SCOTTRADE 04E","Address":"5154 Arden Way","City":"Carmichael","State":"CA","Zip":"95608"},{"Location":"SERRITELLAS","Address":"6346 Fair Oaks Blvd","City":"Carmichael","State":"CA","Zip":"95608"},{"Location":"SHINDIG","Address":"4751 Manzanita Ave","City":"Carmichael","State":"CA","Zip":"95608"},{"Location":"SPORT CLIPS CA102","Address":"4005 Manzanita Ave 58","City":"Carmichael","State":"CA","Zip":"95608"},{"Location":"STIRLING BRIDGES RESTAUR","Address":"5220 Manzanita Ave","City":"Carmichael","State":"CA","Zip":"95608"},{"Location":"SUTTER MEDICAL FOUNDATION","Address":"6620 Coyle Ave 110","City":"Carmichael","State":"CA","Zip":"95608"},{"Location":"THE BLIND PIG","Address":"4720 El Camino Ave","City":"Carmichael","State":"CA","Zip":"95608"},{"Location":"THE CLUBHOUSE","Address":"5150 Fair Oaks Blvd","City":"Carmichael","State":"CA","Zip":"95608"},{"Location":"THE LAUNDRY COMPANY","Address":"6450 Fair Oaks Blvd","City":"Carmichael","State":"CA","Zip":"95608"},{"Location":"WILLOWROCK GROUP","Address":"7401 Fair Oaks Blvd","City":"Carmichael","State":"CA","Zip":"95608"},{"Location":"24 HOUR FITNESS #801","Address":"5114 Arden Way","City":"Carmichael","State":"CA","Zip":"95608"},{"Location":"AMERICAN RIVER","Address":"3900 Garfield Ave","City":"Carmichael","State":"CA","Zip":"95608"},{"Location":"ANCIL HOFFMAN GOLF","Address":"6700 Tarshes Dr","City":"Carmichael","State":"CA","Zip":"95608"},{"Location":"BBQ RIB AND THINGS","Address":"4141 Manzanita Ave 110","City":"Carmichael","State":"CA","Zip":"95608"},{"Location":"BELLA BRU CAFE","Address":"5038 Fair Oaks Blvd","City":"Carmichael","State":"CA","Zip":"95608"},{"Location":"CALIF FAMILY FITNESS","Address":"6314 Fair Oaks Blvd","City":"Carmichael","State":"CA","Zip":"95608"},{"Location":"CALIFORNIA FAMILY FITNES","Address":"7941 Fair Oaks Blvd","City":"Carmichael","State":"CA","Zip":"95608"},{"Location":"CARMICHAEL","Address":"8336 Fair Oaks Blvd","City":"Carmichael","State":"CA","Zip":"95608"},{"Location":"CEDAR ROOM","Address":"5932 Madison Ave","City":"Carmichael","State":"CA","Zip":"95608"},{"Location":"DAVITA #285 MANZANITA","Address":"4005 Manzanita Ave","City":"Carmichael","State":"CA","Zip":"95608"},{"Location":"EMICAL INDUSTRIES LLC","Address":"4717 El Camino Ave","City":"Carmichael","State":"CA","Zip":"95608"},{"Location":"EXCALIBUR PIZZA","Address":"4005 Manzanita Ave 46","City":"Carmichael","State":"CA","Zip":"95608"},{"Location":"FITNESS EVOLUTION","Address":"6001 Fair Oaks Blvd","City":"Carmichael","State":"CA","Zip":"95608"},{"Location":"GOLDEN 1 CREDIT UNION","Address":"4005 Manzanita Ave 60","City":"Carmichael","State":"CA","Zip":"95608"},{"Location":"GREWAL MOUNTAIN MIKES","Address":"4141 Manzanita Ave 220","City":"Carmichael","State":"CA","Zip":"95608"},{"Location":"H C MANAGEMENT","Address":"4824 Sherlock Way","City":"Carmichael","State":"CA","Zip":"95608"},{"Location":"JOHNNY'S CLUB 53","Address":"7630 Fair Oaks Blvd","City":"Carmichael","State":"CA","Zip":"95608"},{"Location":"MATTEO'S","Address":"5132 Arden Way","City":"Carmichael","State":"CA","Zip":"95608"},{"Location":"MED 7 URGENT CARE","Address":"4156 Manzanita Ave 100","City":"Carmichael","State":"CA","Zip":"95608"},{"Location":"MERCY IMAGING CENTER","Address":"6305 Coyle Ave","City":"Carmichael","State":"CA","Zip":"95608"},{"Location":"PALM STREET PUB & GRILL","Address":"6416 Fair Oaks Blvd","City":"Carmichael","State":"CA","Zip":"95608"},{"Location":"QUALITY TUNE UPS","Address":"6542 Fair Oaks Blvd","City":"Carmichael","State":"CA","Zip":"95608"},{"Location":"ROMAS PIZZA & PASTA","Address":"6530 Fair Oaks Blvd","City":"Carmichael","State":"CA","Zip":"95608"},{"Location":"SA JUAN TEACHERS ASSOC","Address":"5820 Landis Ave 1","City":"Carmichael","State":"CA","Zip":"95608"},{"Location":"SCOTTRADE 04E","Address":"5154 Arden Way","City":"Carmichael","State":"CA","Zip":"95608"},{"Location":"SERRITELLAS","Address":"6346 Fair Oaks Blvd","City":"Carmichael","State":"CA","Zip":"95608"},{"Location":"SHINDIG","Address":"4751 Manzanita Ave","City":"Carmichael","State":"CA","Zip":"95608"},{"Location":"SPORT CLIPS CA102","Address":"4005 Manzanita Ave 58","City":"Carmichael","State":"CA","Zip":"95608"},{"Location":"STIRLING BRIDGES RESTAUR","Address":"5220 Manzanita Ave","City":"Carmichael","State":"CA","Zip":"95608"},{"Location":"SUTTER MEDICAL FOUNDATION","Address":"6620 Coyle Ave 110","City":"Carmichael","State":"CA","Zip":"95608"},{"Location":"THE BLIND PIG","Address":"4720 El Camino Ave","City":"Carmichael","State":"CA","Zip":"95608"},{"Location":"THE CLUBHOUSE","Address":"5150 Fair Oaks Blvd","City":"Carmichael","State":"CA","Zip":"95608"},{"Location":"THE LAUNDRY COMPANY","Address":"6450 Fair Oaks Blvd","City":"Carmichael","State":"CA","Zip":"95608"},{"Location":"WILLOWROCK GROUP","Address":"7401 Fair Oaks Blvd","City":"Carmichael","State":"CA","Zip":"95608"}]