[{"Location":"ALADDIN BB DEPT 973","Address":"11750 Atwood Rd","City":"Auburn","State":"CA","Zip":"95603"},{"Location":"APPLEBEE'S #2140026","Address":"2500 Bell Rd","City":"Auburn","State":"CA","Zip":"95603"},{"Location":"AUBURN ALE HOUSE","Address":"289 Washington St","City":"Auburn","State":"CA","Zip":"95603"},{"Location":"AUBURN CAR CARE","Address":"11740 Atwood Rd","City":"Auburn","State":"CA","Zip":"95603"},{"Location":"AUBURN HONDA","Address":"1801 Grass Valley Hwy","City":"Auburn","State":"CA","Zip":"95603"},{"Location":"AUBURN NAILS","Address":"13398 Lincoln Way","City":"Auburn","State":"CA","Zip":"95603"},{"Location":"BEN HARWELL","Address":"11965 Heritage Oak Pl","City":"Auburn","State":"CA","Zip":"95603"},{"Location":"BLACK BEAR DINER 2","Address":"13365 Lincoln Way","City":"Auburn","State":"CA","Zip":"95603"},{"Location":"C FOOD CONCEPTS INC 657","Address":"13570 Lincoln Way","City":"Auburn","State":"CA","Zip":"95603"},{"Location":"CARPE VINO","Address":"1568 Lincoln Way","City":"Auburn","State":"CA","Zip":"95603"},{"Location":"CHEVY'S #22","Address":"2100 Grass Valley Hwy","City":"Auburn","State":"CA","Zip":"95603"},{"Location":"COURTHOUSE ATHLETIC CLUB","Address":"11558 F Ave","City":"Auburn","State":"CA","Zip":"95603"},{"Location":"DAVIS FINANCIAL ADVISORS","Address":"11601 Blocker Dr 105","City":"Auburn","State":"CA","Zip":"95603"},{"Location":"DBA GREAT CLIPS","Address":"2536 Bell Rd","City":"Auburn","State":"CA","Zip":"95603"},{"Location":"DINGUS MCGEES REST","Address":"14500 Musso Rd","City":"Auburn","State":"CA","Zip":"95603"},{"Location":"DR NICKY HAKIMI DDS INC","Address":"212 Lincoln Way","City":"Auburn","State":"CA","Zip":"95603"},{"Location":"ELKS LODGE 1691","Address":"195 Pine St","City":"Auburn","State":"CA","Zip":"95603"},{"Location":"FOREST   HILL   TOWING","Address":"14300 Musso Rd","City":"Auburn","State":"CA","Zip":"95603"},{"Location":"GOLDEN STATE MEDICAL","Address":"200 Linden Ave 100","City":"Auburn","State":"CA","Zip":"95603"},{"Location":"I LIFESTYLE FITNESS","Address":"11800 Enterprise Dr","City":"Auburn","State":"CA","Zip":"95603"},{"Location":"JOE CARIBE","Address":"13470 Lincoln Way","City":"Auburn","State":"CA","Zip":"95603"},{"Location":"LES SCHWAB TIRE CENTERS","Address":"2547 Grass Valley Hwy","City":"Auburn","State":"CA","Zip":"95603"},{"Location":"MAGIC NAILS SALON","Address":"2525 Bell Rd","City":"Auburn","State":"CA","Zip":"95603"},{"Location":"MAGNUSSENS AUBURN TOYOTA","Address":"800 Nevada St","City":"Auburn","State":"CA","Zip":"95603"},{"Location":"MAGNUSSENS DODGE","Address":"1901 Grass Valley Hwy","City":"Auburn","State":"CA","Zip":"95603"},{"Location":"MAXS","Address":"110 Grass Valley Hwy","City":"Auburn","State":"CA","Zip":"95603"},{"Location":"MOUNTAIN MIKE PIZZA","Address":"2520 Bell Rd","City":"Auburn","State":"CA","Zip":"95603"},{"Location":"ORIGINAL MELS","Address":"1730 Grass Valley Hwy","City":"Auburn","State":"CA","Zip":"95603"},{"Location":"ORIGINAL PETES PIZZA PASTA","Address":"13434 Lincoln Way","City":"Auburn","State":"CA","Zip":"95603"},{"Location":"PACIFIC  GAS &  ELECTRIC","Address":"343 Sacramento St A","City":"Auburn","State":"CA","Zip":"95603"},{"Location":"PACIFIC GAS AND ELECTRIC","Address":"343 Sacramento St","City":"Auburn","State":"CA","Zip":"95603"},{"Location":"PACIFIC GAS AND ELECTRIC 1","Address":"343 Sacramento St","City":"Auburn","State":"CA","Zip":"95603"},{"Location":"PG   AND    E","Address":"343 Sacramento St A","City":"Auburn","State":"CA","Zip":"95603"},{"Location":"PG & E","Address":"343 Sacramento St D","City":"Auburn","State":"CA","Zip":"95603"},{"Location":"PISTOL PETE'S BREW & CUE","Address":"140 Harrison Ave","City":"Auburn","State":"CA","Zip":"95603"},{"Location":"PLACER COUNTY SHERIFF DEPT","Address":"2929 Richardson Dr","City":"Auburn","State":"CA","Zip":"95603"},{"Location":"PLACER COUNTY WATER AGENCY","Address":"144 Ferguson Rd","City":"Auburn","State":"CA","Zip":"95603"},{"Location":"ROUND TABLE PIZZA","Address":"370 Elm Ave","City":"Auburn","State":"CA","Zip":"95603"},{"Location":"SALT AND PEPPER","Address":"660 Auburn Folsom Rd","City":"Auburn","State":"CA","Zip":"95603"},{"Location":"SD ENTERPRISES","Address":"219 Sutherland Dr","City":"Auburn","State":"CA","Zip":"95603"},{"Location":"SIERRA GRILL SMOKEHOUSE","Address":"2515 Grass Valley Hwy","City":"Auburn","State":"CA","Zip":"95603"},{"Location":"SILVER STAR","Address":"1501 Grass Valley Hwy","City":"Auburn","State":"CA","Zip":"95603"},{"Location":"SOLA SALONS","Address":"1760 Grass Valley Hwy 200","City":"Auburn","State":"CA","Zip":"95603"},{"Location":"SOOZ-EQ FITNESS INC.","Address":"12130 New Airport Rd 200","City":"Auburn","State":"CA","Zip":"95603"},{"Location":"THE POWER CLUB","Address":"195 Harrison Ave","City":"Auburn","State":"CA","Zip":"95603"},{"Location":"THRIFTY WASH AND DRY CLEAN","Address":"13404 Lincoln Way","City":"Auburn","State":"CA","Zip":"95603"}]