[{"Location":"ASIAN PACIFIC GROUP LLC","Address":"24150 Darkhorse Dr","City":"Auburn","State":"CA","Zip":"95602"},{"Location":"AUBURN COUNTRY CLUB","Address":"8800 Auburn Valley Rd","City":"Auburn","State":"CA","Zip":"95602"},{"Location":"BAM DAZY BBQ","Address":"12005 Shale Ridge Ln","City":"Auburn","State":"CA","Zip":"95602"},{"Location":"BEACH HUT DELI","Address":"4035 Grass Valley Hwy A","City":"Auburn","State":"CA","Zip":"95602"},{"Location":"CERONIX","Address":"13350 New Airport Rd","City":"Auburn","State":"CA","Zip":"95602"},{"Location":"FAMILY HAIRCUTS","Address":"3035 Grass Valley Hwy","City":"Auburn","State":"CA","Zip":"95602"},{"Location":"HELEN NAILS","Address":"4076 Grass Valley Hwy G","City":"Auburn","State":"CA","Zip":"95602"},{"Location":"NELLA OIL COMPANY","Address":"2360 Lindbergh St","City":"Auburn","State":"CA","Zip":"95602"},{"Location":"NORTHRIDGE AT LAKE OF THE PINE","Address":"21515 Higgins Rd","City":"Auburn","State":"CA","Zip":"95602"},{"Location":"OLIVER'S","Address":"15701 Lake Arthur Rd","City":"Auburn","State":"CA","Zip":"95602"},{"Location":"OLIVERS","Address":"15701 Lake Arthur Rd","City":"Auburn","State":"CA","Zip":"95602"},{"Location":"RIDGE GOLF COURSE","Address":"2020 Golf Course Rd","City":"Auburn","State":"CA","Zip":"95602"},{"Location":"ROUND TABLE PIZZA #04","Address":"10894 Combie Rd","City":"Auburn","State":"CA","Zip":"95602"},{"Location":"STINKY MULLIGANS SPORTS","Address":"10934 Combie Rd 118","City":"Auburn","State":"CA","Zip":"95602"},{"Location":"TAKE MURU SUSHI","Address":"4076 Grass Valley Hwy H","City":"Auburn","State":"CA","Zip":"95602"},{"Location":"ULTIMATE INDEX","Address":"12122 Dry Creek Rd 104","City":"Auburn","State":"CA","Zip":"95602"}]