[{"Location":"CUMMINS WEST","Address":"875 Riverside Park Way","City":"Broderick","State":"CA","Zip":"95605"},{"Location":"WESTERN PACIFIC LEASING","Address":"825 Stillwater Rd","City":"Broderick","State":"CA","Zip":"95605"},{"Location":"ACS","Address":"820 Stillwater Rd","City":"West Sacramento","State":"CA","Zip":"95605"},{"Location":"BEACH HUT DELI","Address":"767 Ikea Ct 130","City":"West Sacramento","State":"CA","Zip":"95605"},{"Location":"BLIMPIE'S AMERICAN SUB SHOP","Address":"755 Riverpoint Ct","City":"West Sacramento","State":"CA","Zip":"95605"},{"Location":"CALIFORNIA HIGHWAY PATROL","Address":"3500 Reed Ave 201","City":"West Sacramento","State":"CA","Zip":"95605"},{"Location":"CCPOA","Address":"755 Riverpoint Dr","City":"West Sacramento","State":"CA","Zip":"95605"},{"Location":"DOCUMENT FULFILMENT SERVICES","Address":"910 Riverside Pkwy 40","City":"West Sacramento","State":"CA","Zip":"95605"},{"Location":"DON AZEVETO CONSTRUCTION","Address":"980 F St 10","City":"West Sacramento","State":"CA","Zip":"95605"},{"Location":"FIRESTONE 355333","Address":"760 Ikea Ct","City":"West Sacramento","State":"CA","Zip":"95605"},{"Location":"FRIENDY SHOP","Address":"701 Solano St 1001","City":"West Sacramento","State":"CA","Zip":"95605"},{"Location":"GOLDEN 1 CREDIT UNION 2","Address":"772 Ikea Ct","City":"West Sacramento","State":"CA","Zip":"95605"},{"Location":"HCG","Address":"1200 Triangle Ct","City":"West Sacramento","State":"CA","Zip":"95605"},{"Location":"LOW COST LIQUOR","Address":"960 Sacramento Ave","City":"West Sacramento","State":"CA","Zip":"95605"},{"Location":"MUSCLE SYSTEMS","Address":"9227 Sacramento Ave","City":"West Sacramento","State":"CA","Zip":"95605"},{"Location":"RIVER CITY","Address":"1548 Lisbon Ave","City":"West Sacramento","State":"CA","Zip":"95605"},{"Location":"SPORT CLIPS CA110","Address":"767 Ikea Ct 128","City":"West Sacramento","State":"CA","Zip":"95605"},{"Location":"TONYS FINE FOODS","Address":"3575 Reed Ave","City":"West Sacramento","State":"CA","Zip":"95605"},{"Location":"US APPLIANCE N FURNITURE","Address":"701 Solano St E","City":"West Sacramento","State":"CA","Zip":"95605"},{"Location":"USA BEST WAY","Address":"701 Solano St 7000","City":"West Sacramento","State":"CA","Zip":"95605"},{"Location":"VFW","Address":"1708 Lisbon Ave","City":"West Sacramento","State":"CA","Zip":"95605"},{"Location":"WICKED WEST PIZZA","Address":"771 Ikea Ct 100","City":"West Sacramento","State":"CA","Zip":"95605"},{"Location":"WORKING CLASS HEROES LLC","Address":"319 6th St","City":"West Sacramento","State":"CA","Zip":"95605"}]