[{"Location":"APPLEBEE'S #2140030","Address":"1715 Research Park Dr","City":"Davis","State":"CA","Zip":"95618"},{"Location":"BEACH HUT DELI LLC","Address":"4515 Fermi Pl 101","City":"Davis","State":"CA","Zip":"95618"},{"Location":"COOKS COLLISON OF DAVIS","Address":"1665 Research Park Dr","City":"Davis","State":"CA","Zip":"95618"},{"Location":"DAVIS SWIM AND FITNESS","Address":"303 Ensenada Dr","City":"Davis","State":"CA","Zip":"95618"},{"Location":"DAVIS YOUTH SOCCER LEAGUE","Address":"Rd 105d","City":"Davis","State":"CA","Zip":"95618"},{"Location":"DOMS ENDODONTICS","Address":"324 Madson Pl 100","City":"Davis","State":"CA","Zip":"95618"},{"Location":"GET NICK FITNESS LLC","Address":"2795 2nd St","City":"Davis","State":"CA","Zip":"95618"},{"Location":"MISTER PICKLES","Address":"2191 Cowell Blvd F","City":"Davis","State":"CA","Zip":"95618"},{"Location":"PACIFIC DENTAL #269","Address":"4515 Fermi Pl 106","City":"Davis","State":"CA","Zip":"95618"},{"Location":"PYRAMID FLOORING SYSTEM","Address":"624 Cantrill Dr","City":"Davis","State":"CA","Zip":"95618"},{"Location":"ROUND TABLE PIZZA","Address":"2151 Cowell Blvd","City":"Davis","State":"CA","Zip":"95618"},{"Location":"SAVC ORG","Address":"3600 El Segundo Ave","City":"Davis","State":"CA","Zip":"95618"},{"Location":"SUDWERK","Address":"2001 2nd St","City":"Davis","State":"CA","Zip":"95618"},{"Location":"SUPERIOR FARMS","Address":"1480 Drew Ave 100","City":"Davis","State":"CA","Zip":"95618"},{"Location":"TARGET CORPORATION 2455","Address":"4601 2nd St","City":"Davis","State":"CA","Zip":"95618"},{"Location":"EL MACERO COUNTRY CLUB","Address":"44571 Clubhouse Dr","City":"El Macero","State":"CA","Zip":"95618"}]