[{"Location":"ALONZOS PIZZA DEPOT","Address":"7054 Sunrise Blvd","City":"Citrus Heights","State":"CA","Zip":"95610"},{"Location":"ATKINSON FAMILY SERVICE","Address":"7639 Old Auburn Rd","City":"Citrus Heights","State":"CA","Zip":"95610"},{"Location":"BENIHANA #1034 CITRUS HEIGHTS","Address":"5489 Sunrise Blvd","City":"Citrus Heights","State":"CA","Zip":"95610"},{"Location":"BUFFALO WILD WINGS #0274","Address":"6301 Sunrise Blvd","City":"Citrus Heights","State":"CA","Zip":"95610"},{"Location":"BURGER KING","Address":"7760 Sunrise Blvd","City":"Citrus Heights","State":"CA","Zip":"95610"},{"Location":"CALIFORNIA BURGERS","Address":"8537 Auburn Blvd","City":"Citrus Heights","State":"CA","Zip":"95610"},{"Location":"CALIFORNIA FAMILY FITNESS","Address":"7700 Sunrise Blvd 2100","City":"Citrus Heights","State":"CA","Zip":"95610"},{"Location":"CATTLERUSTLERSSTEAKHOUSE","Address":"7040 Sunrise Blvd","City":"Citrus Heights","State":"CA","Zip":"95610"},{"Location":"CITRUS HEIGHTS BARBERSHO","Address":"6091 San Juan Ave","City":"Citrus Heights","State":"CA","Zip":"95610"},{"Location":"CORNER POCKET","Address":"7777 Sunrise Blvd 102","City":"Citrus Heights","State":"CA","Zip":"95610"},{"Location":"ELEPHANT BAR CITRUS HEIGHTS","Address":"6063 Sunrise Mall","City":"Citrus Heights","State":"CA","Zip":"95610"},{"Location":"FIRESTONE #017655","Address":"7895 Greenback Ln","City":"Citrus Heights","State":"CA","Zip":"95610"},{"Location":"FIRESTONE 001228","Address":"6102 Sunrise Mall","City":"Citrus Heights","State":"CA","Zip":"95610"},{"Location":"GOLD'S GYM","Address":"8485 Auburn Blvd","City":"Citrus Heights","State":"CA","Zip":"95610"},{"Location":"GOLDEN 1 CREDIT UNION","Address":"5901 Sunrise Blvd","City":"Citrus Heights","State":"CA","Zip":"95610"},{"Location":"GOODYEAR 8522","Address":"7986 Greenback Ln","City":"Citrus Heights","State":"CA","Zip":"95610"},{"Location":"HD SUPPLY","Address":"7999 Greenback Ln","City":"Citrus Heights","State":"CA","Zip":"95610"},{"Location":"KNIESELS AUTO BODY","Address":"7633 Sunrise Blvd","City":"Citrus Heights","State":"CA","Zip":"95610"},{"Location":"KOHL'S #1363","Address":"6135 San Juan Ave","City":"Citrus Heights","State":"CA","Zip":"95610"},{"Location":"LA PLACITA RESTAURANT","Address":"8036 Greenback Ln","City":"Citrus Heights","State":"CA","Zip":"95610"},{"Location":"LINDAS GOURMET PIZZA","Address":"7815 Greenback Ln","City":"Citrus Heights","State":"CA","Zip":"95610"},{"Location":"M & L PIZZA","Address":"7943 Greenback Ln","City":"Citrus Heights","State":"CA","Zip":"95610"},{"Location":"MACY'S WEST 410","Address":"6000 Sunrise Mall","City":"Citrus Heights","State":"CA","Zip":"95610"},{"Location":"MACY'S WEST 410","Address":"6180 Sunrise Mall","City":"Citrus Heights","State":"CA","Zip":"95610"},{"Location":"MACY'S WEST 410 BR","Address":"6000 Sunrise Mall","City":"Citrus Heights","State":"CA","Zip":"95610"},{"Location":"MEN'S WEARHOUSE #2266","Address":"6177 Sunrise Blvd","City":"Citrus Heights","State":"CA","Zip":"95610"},{"Location":"OAKHOUSE TREATMENT CTR","Address":"7987 Oak Ave","City":"Citrus Heights","State":"CA","Zip":"95610"},{"Location":"PHAT CHAD'S","Address":"8516 Auburn Blvd B","City":"Citrus Heights","State":"CA","Zip":"95610"},{"Location":"PLANET FITNESS","Address":"7016 Sunrise Blvd","City":"Citrus Heights","State":"CA","Zip":"95610"},{"Location":"RED LOBSTER #0323","Address":"6231 Sunrise Blvd","City":"Citrus Heights","State":"CA","Zip":"95610"},{"Location":"RED ROBIN #90","Address":"7990 Greenback Ln J","City":"Citrus Heights","State":"CA","Zip":"95610"},{"Location":"REFEREES SPORTS BAR","Address":"7951 Auburn Blvd","City":"Citrus Heights","State":"CA","Zip":"95610"},{"Location":"ROCKYS 7440 CLUB","Address":"7440 Auburn Blvd","City":"Citrus Heights","State":"CA","Zip":"95610"},{"Location":"ROMEO AND JULIET  INC","Address":"7534 Old Auburn Rd","City":"Citrus Heights","State":"CA","Zip":"95610"},{"Location":"ROMEO AND JULIET INC","Address":"7524 Old Auburn Rd","City":"Citrus Heights","State":"CA","Zip":"95610"},{"Location":"ROUND TABLE PIZZA","Address":"7700 Sunrise Blvd 1100","City":"Citrus Heights","State":"CA","Zip":"95610"},{"Location":"SCOTT MCMULLEN","Address":"7916 Pebble Beach Dr 201","City":"Citrus Heights","State":"CA","Zip":"95610"},{"Location":"SD DEACON","Address":"7745 Greenback Ln","City":"Citrus Heights","State":"CA","Zip":"95610"},{"Location":"SPORTS AUTHORITY 784","Address":"5995 Birdcage Centre Ln","City":"Citrus Heights","State":"CA","Zip":"95610"},{"Location":"STEVE COOK'S FIRESIDE LANES","Address":"7901 Auburn Blvd","City":"Citrus Heights","State":"CA","Zip":"95610"},{"Location":"SUDS BRO CARWASH","Address":"7711 Sunrise Blvd","City":"Citrus Heights","State":"CA","Zip":"95610"},{"Location":"SUNDANCE","Address":"5430 Sunrise Blvd","City":"Citrus Heights","State":"CA","Zip":"95610"},{"Location":"TARGET  CORPORATION","Address":"5837 Sunrise Blvd","City":"Citrus Heights","State":"CA","Zip":"95610"},{"Location":"TAURIAN        #1018","Address":"7925 Greenback Ln","City":"Citrus Heights","State":"CA","Zip":"95610"},{"Location":"THE 1OTH INNING","Address":"7751 Mariposa Ave","City":"Citrus Heights","State":"CA","Zip":"95610"},{"Location":"THE BACK NINE","Address":"7925 Arcadia Dr","City":"Citrus Heights","State":"CA","Zip":"95610"},{"Location":"THE COUCH SPORTS LOUNGE","Address":"7431 Madison Ave","City":"Citrus Heights","State":"CA","Zip":"95610"},{"Location":"THE SCOREBOARD","Address":"7691 Auburn Blvd","City":"Citrus Heights","State":"CA","Zip":"95610"},{"Location":"VILLAGE PIZZERIA AND GRILL","Address":"8128 Auburn Blvd","City":"Citrus Heights","State":"CA","Zip":"95610"},{"Location":"WASABI","Address":"8031 Greenback Ln","City":"Citrus Heights","State":"CA","Zip":"95610"},{"Location":"WENDYS 9406","Address":"7983 Greenback Ln","City":"Citrus Heights","State":"CA","Zip":"95610"}]