[{"Location":"BAR BERNARDO","Address":"234 D St 2","City":"Davis","State":"CA","Zip":"95616"},{"Location":"COURTYARD HEALTHCARE","Address":"1850 E 8th St","City":"Davis","State":"CA","Zip":"95616"},{"Location":"DAVIS GRADUATE","Address":"805 Russell Blvd","City":"Davis","State":"CA","Zip":"95616"},{"Location":"DAVIS STEVES  INC.","Address":"314 F St","City":"Davis","State":"CA","Zip":"95616"},{"Location":"DE VERES IRISH PUB","Address":"217 E St","City":"Davis","State":"CA","Zip":"95616"},{"Location":"EDWARD JONES","Address":"429 F St 1","City":"Davis","State":"CA","Zip":"95616"},{"Location":"FIRST LADY NAILS","Address":"1300 E Covell Blvd E","City":"Davis","State":"CA","Zip":"95616"},{"Location":"FROGGYS BAR AND GRILL","Address":"726 2nd St","City":"Davis","State":"CA","Zip":"95616"},{"Location":"JAMES W CHILDRESS DDS","Address":"2067 Anderson Rd","City":"Davis","State":"CA","Zip":"95616"},{"Location":"KETMOREE THAI RESTAURANT","Address":"238 G St","City":"Davis","State":"CA","Zip":"95616"},{"Location":"KITCHEN COUNTER LLC","Address":"113 D St","City":"Davis","State":"CA","Zip":"95616"},{"Location":"KRUSHBURGER","Address":"1411 W Covell Blvd 111","City":"Davis","State":"CA","Zip":"95616"},{"Location":"MIKUNI JAPENESE AND SUSHI","Address":"500 1st St 11","City":"Davis","State":"CA","Zip":"95616"},{"Location":"NUGGET MARKETS","Address":"2062 John Jones Rd","City":"Davis","State":"CA","Zip":"95616"},{"Location":"NUTRI SHOP DAVIS","Address":"612 4th St","City":"Davis","State":"CA","Zip":"95616"},{"Location":"ODD FELLOWS HALL","Address":"415 2nd St","City":"Davis","State":"CA","Zip":"95616"},{"Location":"OLIVE DRIVE BARBASHOP","Address":"1065 Olive Dr","City":"Davis","State":"CA","Zip":"95616"},{"Location":"OUR HOUSE","Address":"808 2nd St","City":"Davis","State":"CA","Zip":"95616"},{"Location":"PACIFIC GAS AND ELECTRIC","Address":"316 L St","City":"Davis","State":"CA","Zip":"95616"},{"Location":"PAESANOS","Address":"139 G St","City":"Davis","State":"CA","Zip":"95616"},{"Location":"PHO KING 4 RESTAURANT","Address":"226 3rd St","City":"Davis","State":"CA","Zip":"95616"},{"Location":"PHYSICAL EDGE INC","Address":"1970 Lake Blvd 4","City":"Davis","State":"CA","Zip":"95616"},{"Location":"RED 88 NOODLE BAR","Address":"223 G St","City":"Davis","State":"CA","Zip":"95616"},{"Location":"SEASONS OF CALIFORNIA","Address":"102 F St","City":"Davis","State":"CA","Zip":"95616"},{"Location":"SOPHIA'S THAI BAR & KITCHEN","Address":"129 E St E","City":"Davis","State":"CA","Zip":"95616"},{"Location":"SPEEDY OIL CHANGE","Address":"200 F St","City":"Davis","State":"CA","Zip":"95616"},{"Location":"SPORT CLIPS  CA111","Address":"1411 W Covell Blvd 106","City":"Davis","State":"CA","Zip":"95616"},{"Location":"STERLING M ENTERPRISES I","Address":"737 Russell Blvd","City":"Davis","State":"CA","Zip":"95616"},{"Location":"SUTTER DAVIS HOSPITAL","Address":"2020 Risling Bldg 1","City":"Davis","State":"CA","Zip":"95616"},{"Location":"TAKO CANTINA","Address":"400 G St","City":"Davis","State":"CA","Zip":"95616"},{"Location":"TEICHERT CONSTRUCTION","Address":"24207 County Road 100a","City":"Davis","State":"CA","Zip":"95616"},{"Location":"THE  G STREET WUNDERBAR","Address":"228 G St","City":"Davis","State":"CA","Zip":"95616"},{"Location":"THE DAVIS BEER SHOPPE","Address":"211 G St","City":"Davis","State":"CA","Zip":"95616"},{"Location":"THE DAVIS GOLFCOURSE INCORP","Address":"24439 Fairway Dr","City":"Davis","State":"CA","Zip":"95616"},{"Location":"TRES HERMANOS","Address":"805 2nd St","City":"Davis","State":"CA","Zip":"95616"},{"Location":"UC DAVIS ATHLETICS","Address":"1 Shields Ave","City":"Davis","State":"CA","Zip":"95616"},{"Location":"UC DAVIS FIRE DEPT","Address":"625 Kleiber Hall Dr","City":"Davis","State":"CA","Zip":"95616"},{"Location":"UNCLE VITOS SLICE OF NY","Address":"524 2nd St","City":"Davis","State":"CA","Zip":"95616"},{"Location":"UNIVERSITY OF BEER","Address":"615 3rd St","City":"Davis","State":"CA","Zip":"95616"},{"Location":"VICKERS   AUTOMOTIVES REPAIR","Address":"975 Olive Dr","City":"Davis","State":"CA","Zip":"95616"},{"Location":"WILDFISH INC","Address":"516 2nd St D","City":"Davis","State":"CA","Zip":"95616"},{"Location":"WOODSTOCKS PIZZA","Address":"217 G St","City":"Davis","State":"CA","Zip":"95616"},{"Location":"BAR BERNARDO","Address":"234 D St 2","City":"Davis","State":"CA","Zip":"95616"},{"Location":"COURTYARD HEALTHCARE","Address":"1850 E 8th St","City":"Davis","State":"CA","Zip":"95616"},{"Location":"DAVIS GRADUATE","Address":"805 Russell Blvd","City":"Davis","State":"CA","Zip":"95616"},{"Location":"DAVIS STEVES  INC.","Address":"314 F St","City":"Davis","State":"CA","Zip":"95616"},{"Location":"DE VERES IRISH PUB","Address":"217 E St","City":"Davis","State":"CA","Zip":"95616"},{"Location":"EDWARD JONES","Address":"429 F St 1","City":"Davis","State":"CA","Zip":"95616"},{"Location":"FIRST LADY NAILS","Address":"1300 E Covell Blvd E","City":"Davis","State":"CA","Zip":"95616"},{"Location":"FROGGYS BAR AND GRILL","Address":"726 2nd St","City":"Davis","State":"CA","Zip":"95616"},{"Location":"JAMES W CHILDRESS DDS","Address":"2067 Anderson Rd","City":"Davis","State":"CA","Zip":"95616"},{"Location":"KETMOREE THAI RESTAURANT","Address":"238 G St","City":"Davis","State":"CA","Zip":"95616"},{"Location":"KITCHEN COUNTER LLC","Address":"113 D St","City":"Davis","State":"CA","Zip":"95616"},{"Location":"KRUSHBURGER","Address":"1411 W Covell Blvd 111","City":"Davis","State":"CA","Zip":"95616"},{"Location":"MIKUNI JAPENESE AND SUSHI","Address":"500 1st St 11","City":"Davis","State":"CA","Zip":"95616"},{"Location":"NUGGET MARKETS","Address":"2062 John Jones Rd","City":"Davis","State":"CA","Zip":"95616"},{"Location":"NUTRI SHOP DAVIS","Address":"612 4th St","City":"Davis","State":"CA","Zip":"95616"},{"Location":"ODD FELLOWS HALL","Address":"415 2nd St","City":"Davis","State":"CA","Zip":"95616"},{"Location":"OLIVE DRIVE BARBASHOP","Address":"1065 Olive Dr","City":"Davis","State":"CA","Zip":"95616"},{"Location":"OUR HOUSE","Address":"808 2nd St","City":"Davis","State":"CA","Zip":"95616"},{"Location":"PACIFIC GAS AND ELECTRIC","Address":"316 L St","City":"Davis","State":"CA","Zip":"95616"},{"Location":"PAESANOS","Address":"139 G St","City":"Davis","State":"CA","Zip":"95616"},{"Location":"Pho King 4 Restaurant","Address":"226 3rd St","City":"Davis","State":"CA","Zip":"95616"},{"Location":"PHYSICAL EDGE INC","Address":"1970 Lake Blvd 4","City":"Davis","State":"CA","Zip":"95616"},{"Location":"RED 88 NOODLE BAR","Address":"223 G St","City":"Davis","State":"CA","Zip":"95616"},{"Location":"SEASONS OF CALIFORNIA","Address":"102 F St","City":"Davis","State":"CA","Zip":"95616"},{"Location":"SOPHIA'S THAI BAR & KITCHEN","Address":"129 E St E","City":"Davis","State":"CA","Zip":"95616"},{"Location":"SPEEDY OIL CHANGE","Address":"200 F St","City":"Davis","State":"CA","Zip":"95616"},{"Location":"SPORT CLIPS  CA111","Address":"1411 W Covell Blvd 106","City":"Davis","State":"CA","Zip":"95616"},{"Location":"STERLING M ENTERPRISES I","Address":"737 Russell Blvd","City":"Davis","State":"CA","Zip":"95616"},{"Location":"SUTTER DAVIS HOSPITAL","Address":"2020 Risling Bldg 1","City":"Davis","State":"CA","Zip":"95616"},{"Location":"TAKO CANTINA","Address":"400 G St","City":"Davis","State":"CA","Zip":"95616"},{"Location":"TEICHERT CONSTRUCTION","Address":"24207 County Road 100a","City":"Davis","State":"CA","Zip":"95616"},{"Location":"THE  G STREET WUNDERBAR","Address":"228 G St","City":"Davis","State":"CA","Zip":"95616"},{"Location":"THE DAVIS BEER SHOPPE","Address":"211 G St","City":"Davis","State":"CA","Zip":"95616"},{"Location":"THE DAVIS GOLFCOURSE INCORP","Address":"24439 Fairway Dr","City":"Davis","State":"CA","Zip":"95616"},{"Location":"TRES HERMANOS","Address":"805 2nd St","City":"Davis","State":"CA","Zip":"95616"},{"Location":"UC DAVIS ATHLETICS","Address":"1 Shields Ave","City":"Davis","State":"CA","Zip":"95616"},{"Location":"UC DAVIS FIRE DEPT","Address":"625 Kleiber Hall Dr","City":"Davis","State":"CA","Zip":"95616"},{"Location":"UNCLE VITOS SLICE OF NY","Address":"524 2nd St","City":"Davis","State":"CA","Zip":"95616"},{"Location":"UNIVERSITY OF BEER","Address":"615 3rd St","City":"Davis","State":"CA","Zip":"95616"},{"Location":"VICKERS   AUTOMOTIVES REPAIR","Address":"975 Olive Dr","City":"Davis","State":"CA","Zip":"95616"},{"Location":"WILDFISH INC","Address":"516 2nd St D","City":"Davis","State":"CA","Zip":"95616"},{"Location":"WOODSTOCKS PIZZA","Address":"217 G St","City":"Davis","State":"CA","Zip":"95616"}]