[{"Location":"ANYTIME FITNESS","Address":"1900 N Lincoln St 101","City":"Dixon","State":"CA","Zip":"95620"},{"Location":"BUCKHORN BAR","Address":"830 N Adams St","City":"Dixon","State":"CA","Zip":"95620"},{"Location":"BUDS PUB AND GRILL","Address":"100 S 1st St","City":"Dixon","State":"CA","Zip":"95620"},{"Location":"BURGER","Address":"1350 Stratford Ave","City":"Dixon","State":"CA","Zip":"95620"},{"Location":"BUTTON TRANPORTATION","Address":"8629 Robben Rd","City":"Dixon","State":"CA","Zip":"95620"},{"Location":"CARDINAL HEALTH","Address":"700 Vaughn Rd","City":"Dixon","State":"CA","Zip":"95620"},{"Location":"CATTLEMENS DIXON","Address":"250 Dorset Ct","City":"Dixon","State":"CA","Zip":"95620"},{"Location":"DAVITA #2386 JOY OF DIXON","Address":"1640 N Lincoln St","City":"Dixon","State":"CA","Zip":"95620"},{"Location":"DAWSONS","Address":"105 N 1st St","City":"Dixon","State":"CA","Zip":"95620"},{"Location":"DEPENDABLE SHEET METAL1","Address":"1855 N 1st St A","City":"Dixon","State":"CA","Zip":"95620"},{"Location":"GENENTECH INC","Address":"2727 Fitzgerald Way","City":"Dixon","State":"CA","Zip":"95620"},{"Location":"GONE FISHING MARINE","Address":"1880 N Lincoln St","City":"Dixon","State":"CA","Zip":"95620"},{"Location":"GUERRERO TAX","Address":"155 W Mayes St B","City":"Dixon","State":"CA","Zip":"95620"},{"Location":"GYMBOREE","Address":"2299 Kidds Way","City":"Dixon","State":"CA","Zip":"95620"},{"Location":"LUKES LOUNGE","Address":"221 N 1st St","City":"Dixon","State":"CA","Zip":"95620"},{"Location":"LUPIS KITCHEN","Address":"470 N Adams St","City":"Dixon","State":"CA","Zip":"95620"},{"Location":"MARY'S PIZZA SHACK","Address":"1460 Ary Ln","City":"Dixon","State":"CA","Zip":"95620"},{"Location":"MILGARD TEMPERING","Address":"1320 Business Park Dr","City":"Dixon","State":"CA","Zip":"95620"},{"Location":"MR TACOS","Address":"2600 Plaza Ct","City":"Dixon","State":"CA","Zip":"95620"},{"Location":"NINOS CUT AND SHAVE","Address":"120 N Jackson St","City":"Dixon","State":"CA","Zip":"95620"},{"Location":"OLD VETS HALL","Address":"231 N 1st St","City":"Dixon","State":"CA","Zip":"95620"},{"Location":"PITTO RANCHES INC","Address":"6775 Binghamton Rd","City":"Dixon","State":"CA","Zip":"95620"},{"Location":"PIZZA GUYS","Address":"1455 Ary Ln","City":"Dixon","State":"CA","Zip":"95620"},{"Location":"ROUND TABLE PIZZA","Address":"825 N Adams St","City":"Dixon","State":"CA","Zip":"95620"},{"Location":"THAI RESTAURANT","Address":"1440 Ary Ln B","City":"Dixon","State":"CA","Zip":"95620"}]