[{"Location":"24 HOUR FITNESS #523","Address":"6633 Auburn Blvd","City":"Citrus Heights","State":"CA","Zip":"95621"},{"Location":"CAROLINAS","Address":"6171 Greenback Ln","City":"Citrus Heights","State":"CA","Zip":"95621"},{"Location":"CITRUS HEIGHTS SMOG","Address":"6232 Auburn Blvd","City":"Citrus Heights","State":"CA","Zip":"95621"},{"Location":"FITNESS 19","Address":"7845 Lichen Dr","City":"Citrus Heights","State":"CA","Zip":"95621"},{"Location":"INFERNO SPORTS BAR & GRI","Address":"5948 Auburn Blvd G","City":"Citrus Heights","State":"CA","Zip":"95621"},{"Location":"KINGS CASINO LLC","Address":"6508 Antelope Rd","City":"Citrus Heights","State":"CA","Zip":"95621"},{"Location":"KINGS CASINO LLC 2","Address":"6508 Antelope Rd","City":"Citrus Heights","State":"CA","Zip":"95621"},{"Location":"MAX NUTRITION","Address":"7365 Greenback Ln","City":"Citrus Heights","State":"CA","Zip":"95621"},{"Location":"PHO 54","Address":"6191 Greenback Ln C","City":"Citrus Heights","State":"CA","Zip":"95621"},{"Location":"PHO VIET RESTRAUNT","Address":"5948 Auburn Blvd","City":"Citrus Heights","State":"CA","Zip":"95621"},{"Location":"POP EYES","Address":"6502 Antelope Rd","City":"Citrus Heights","State":"CA","Zip":"95621"},{"Location":"ROUND TABLE PIZZA #260","Address":"7867 Lichen Dr","City":"Citrus Heights","State":"CA","Zip":"95621"},{"Location":"SHAKER'S PUB","Address":"5940 Sperry Dr","City":"Citrus Heights","State":"CA","Zip":"95621"}]