[{"Location":"BIRCHFIELD JEWELLERS","Address":"11759 Fair Oaks Blvd","City":"Fair Oaks","State":"CA","Zip":"95628"},{"Location":"CARMELITAS","Address":"4071 Howard St","City":"Fair Oaks","State":"CA","Zip":"95628"},{"Location":"CHILI'S #0502","Address":"5303 Sunrise Blvd","City":"Fair Oaks","State":"CA","Zip":"95628"},{"Location":"DELS FAMILY PIZZA","Address":"8112 Madison Ave","City":"Fair Oaks","State":"CA","Zip":"95628"},{"Location":"ESKATON-FAIR OAKS","Address":"11300 Fair Oaks Blvd","City":"Fair Oaks","State":"CA","Zip":"95628"},{"Location":"EXCALIBUR PIZZA","Address":"5484 Dewey Dr 200","City":"Fair Oaks","State":"CA","Zip":"95628"},{"Location":"FABIANS ITALIAN BISTRO","Address":"11755 Fair Oaks Blvd","City":"Fair Oaks","State":"CA","Zip":"95628"},{"Location":"FITNESS UNLIMITED","Address":"8121 Madison Ave D1","City":"Fair Oaks","State":"CA","Zip":"95628"},{"Location":"HERITAGE COMM CREDIT UNION","Address":"5329 Sunrise Blvd","City":"Fair Oaks","State":"CA","Zip":"95628"},{"Location":"MCDONALDS","Address":"7900 Madison Ave","City":"Fair Oaks","State":"CA","Zip":"95628"},{"Location":"MCNELLIS PARTNERS","Address":"7423 Winding Way","City":"Fair Oaks","State":"CA","Zip":"95628"},{"Location":"MIX IT YOGURT","Address":"8505 Madison Ave 180","City":"Fair Oaks","State":"CA","Zip":"95628"},{"Location":"PLAYERS SPORTS PUB","Address":"4060 Sunrise Blvd","City":"Fair Oaks","State":"CA","Zip":"95628"},{"Location":"ROUND TABLE PIZZA #513","Address":"8822 Madison Ave","City":"Fair Oaks","State":"CA","Zip":"95628"},{"Location":"ROUND TABLE PIZZA #556","Address":"4400 San Juan Ave","City":"Fair Oaks","State":"CA","Zip":"95628"},{"Location":"SAN JUAN CLUB","Address":"7420 Sunset Ave","City":"Fair Oaks","State":"CA","Zip":"95628"},{"Location":"SPORT CLIPS CA103","Address":"5351 Sunrise Blvd","City":"Fair Oaks","State":"CA","Zip":"95628"},{"Location":"STEVE PASTA PIZZA  GRILL","Address":"11711 Fair Oaks Blvd","City":"Fair Oaks","State":"CA","Zip":"95628"},{"Location":"SUSHIMONO","Address":"5349 Sunrise Blvd","City":"Fair Oaks","State":"CA","Zip":"95628"}]