[{"Location":"24 HOUR FITNESS #808","Address":"8475 Elk Grove Florin Rd","City":"Elk Grove","State":"CA","Zip":"95624"},{"Location":"A BEAUTIFUL YOU","Address":"9589 2nd Ave B3","City":"Elk Grove","State":"CA","Zip":"95624"},{"Location":"ABSOLUTE AUTO CARE","Address":"9851 Dino Dr","City":"Elk Grove","State":"CA","Zip":"95624"},{"Location":"APPLEBEE'S #2140020","Address":"9105 E Stockton Blvd","City":"Elk Grove","State":"CA","Zip":"95624"},{"Location":"ASIAN GARDEN TWO","Address":"8409 Elk Grove Florin Rd","City":"Elk Grove","State":"CA","Zip":"95624"},{"Location":"AUTO BODY EXPRESSIONS","Address":"9734 Dino Dr","City":"Elk Grove","State":"CA","Zip":"95624"},{"Location":"BIG O TIRES","Address":"8022 Orchard Loop","City":"Elk Grove","State":"CA","Zip":"95624"},{"Location":"BOBS CLUB","Address":"9039 Elk Grove Blvd","City":"Elk Grove","State":"CA","Zip":"95624"},{"Location":"BULL WINGS GRILL & BAR","Address":"9625 E Stockton Blvd","City":"Elk Grove","State":"CA","Zip":"95624"},{"Location":"CALIFORNIA FAMILY FITNESS","Address":"8569 Bond Rd","City":"Elk Grove","State":"CA","Zip":"95624"},{"Location":"CALIFRONIA CARDS AND COMICS","Address":"9139 E Stockton Blvd 2","City":"Elk Grove","State":"CA","Zip":"95624"},{"Location":"CAMDEN DENTAL CARE","Address":"9170 Elk Grove Florin Rd D","City":"Elk Grove","State":"CA","Zip":"95624"},{"Location":"CAPITAL ORAL SURGERY","Address":"9727 Elk Grove Florin Rd 230","City":"Elk Grove","State":"CA","Zip":"95624"},{"Location":"CHAONS CRAB STADIUM","Address":"8839 Sheldon Rd","City":"Elk Grove","State":"CA","Zip":"95624"},{"Location":"DARRELL S CHUN DDS","Address":"9381 E Stockton Blvd 228","City":"Elk Grove","State":"CA","Zip":"95624"},{"Location":"EL JARDIN ELK GROVE","Address":"9385 Elk Grove Blvd","City":"Elk Grove","State":"CA","Zip":"95624"},{"Location":"ELITE HEATING AND AIR","Address":"9864 Dino Dr 11","City":"Elk Grove","State":"CA","Zip":"95624"},{"Location":"ELK GROVE SPORTS BAR & GRILL","Address":"9661 Elk Grove Florin Rd","City":"Elk Grove","State":"CA","Zip":"95624"},{"Location":"ELK GROVE TRANSMISSION","Address":"9797 Dino Dr","City":"Elk Grove","State":"CA","Zip":"95624"},{"Location":"ELK GROVE WRESTLING ACD","Address":"9733 Kent St 120","City":"Elk Grove","State":"CA","Zip":"95624"},{"Location":"ELKGROVE POWER SPORTS","Address":"10491 E Stockton Blvd A","City":"Elk Grove","State":"CA","Zip":"95624"},{"Location":"FIRE STATION SEVENTY ONE","Address":"8760 Elk Grove Blvd","City":"Elk Grove","State":"CA","Zip":"95624"},{"Location":"FIRE STATION SEVENTY SIX","Address":"8545 Sheldon Rd","City":"Elk Grove","State":"CA","Zip":"95624"},{"Location":"FIRE STATION SEVENTY THREE","Address":"9607 Bond Rd","City":"Elk Grove","State":"CA","Zip":"95624"},{"Location":"FIRESTONE #321305","Address":"8055 Orchard Loop","City":"Elk Grove","State":"CA","Zip":"95624"},{"Location":"GOLDEN 1 CREDIT UNION 10","Address":"8405 40 Elk Grove Florin Rd","City":"Elk Grove","State":"CA","Zip":"95624"},{"Location":"GOODYEAR 9250","Address":"8922 Elk Grove Blvd","City":"Elk Grove","State":"CA","Zip":"95624"},{"Location":"HAPPY GARDEN RESTAURANT","Address":"9081 Elk Grove Blvd","City":"Elk Grove","State":"CA","Zip":"95624"},{"Location":"IN THE CUT","Address":"9673 Elk Grove Florin Rd","City":"Elk Grove","State":"CA","Zip":"95624"},{"Location":"KOBE STEAK & SUSHI","Address":"9134 E Stockton Blvd","City":"Elk Grove","State":"CA","Zip":"95624"},{"Location":"LA FUENTE","Address":"9631 E Stockton Blvd","City":"Elk Grove","State":"CA","Zip":"95624"},{"Location":"LIBERTY CENTER I ELK GROVE INC","Address":"9401 E Stockton Blvd","City":"Elk Grove","State":"CA","Zip":"95624"},{"Location":"LIBERTY CENTER II ELK GROVE","Address":"9381 E Stockton Blvd","City":"Elk Grove","State":"CA","Zip":"95624"},{"Location":"MR MOTORHOME","Address":"9501 E Stockton Blvd","City":"Elk Grove","State":"CA","Zip":"95624"},{"Location":"ON THE BORDER #0516","Address":"9164 E Stockton Blvd","City":"Elk Grove","State":"CA","Zip":"95624"},{"Location":"OPI NAILS AND SPA","Address":"8551 Elk Grove Blvd","City":"Elk Grove","State":"CA","Zip":"95624"},{"Location":"PALERMO RISTORANTE","Address":"9632 Emerald Oak Dr","City":"Elk Grove","State":"CA","Zip":"95624"},{"Location":"PENNY NEWMAN GRAIN COMPANY","Address":"9183 Servey Rd","City":"Elk Grove","State":"CA","Zip":"95624"},{"Location":"PIZZA BELL","Address":"8591 Elk Way","City":"Elk Grove","State":"CA","Zip":"95624"},{"Location":"RED CHOPSTIX","Address":"9672 Elk Grove Florin Rd","City":"Elk Grove","State":"CA","Zip":"95624"},{"Location":"ROGER'S JEWELERS","Address":"8521 Bond Rd","City":"Elk Grove","State":"CA","Zip":"95624"},{"Location":"ROUND TABLE PIZZA","Address":"8795 Elk Grove Blvd","City":"Elk Grove","State":"CA","Zip":"95624"},{"Location":"S AND J MOVING SUPPLY","Address":"8973 Elk Grove Florin Rd","City":"Elk Grove","State":"CA","Zip":"95624"},{"Location":"SABOR A MEXICO","Address":"8868 Bond Rd 500","City":"Elk Grove","State":"CA","Zip":"95624"},{"Location":"SILVA'S SHELDON INN","Address":"9000 Grant Line Rd","City":"Elk Grove","State":"CA","Zip":"95624"},{"Location":"SOLA SALON","Address":"9117 E Stockton Blvd 110","City":"Elk Grove","State":"CA","Zip":"95624"},{"Location":"SULCAS CARPETES","Address":"9766 Waterman Rd K","City":"Elk Grove","State":"CA","Zip":"95624"},{"Location":"TAP HOUSE","Address":"9677 Elk Grove Florin Rd","City":"Elk Grove","State":"CA","Zip":"95624"},{"Location":"TERRILL OUTSOURCING GROUP LLC","Address":"9355 E Stockton Blvd 210","City":"Elk Grove","State":"CA","Zip":"95624"},{"Location":"TEXAS ROADHOUSE #2188","Address":"8094 Orchard Loop","City":"Elk Grove","State":"CA","Zip":"95624"},{"Location":"THACH BRO PARTNERS LLC","Address":"8457 Elk Grove Florin Rd","City":"Elk Grove","State":"CA","Zip":"95624"}]