[{"Location":"24 HOUR FITNESS #809","Address":"1006 Riley St","City":"Folsom","State":"CA","Zip":"95630"},{"Location":"9162940481","Address":"1301 Prairie City Rd","City":"Folsom","State":"CA","Zip":"95630"},{"Location":"AGILENT TECH","Address":"91 Blue Ravine Rd","City":"Folsom","State":"CA","Zip":"95630"},{"Location":"ALOHA SUSHI1","Address":"2791 E Bidwell St 700","City":"Folsom","State":"CA","Zip":"95630"},{"Location":"BACH TO ROCK","Address":"82 Clarksville Rd","City":"Folsom","State":"CA","Zip":"95630"},{"Location":"BASIC ATHLETICS CROSSFIT","Address":"1126 Sibley St C","City":"Folsom","State":"CA","Zip":"95630"},{"Location":"BASTONI FINANCIAL SERVICES","Address":"2600 E Bidwell St 260","City":"Folsom","State":"CA","Zip":"95630"},{"Location":"BEACH HUT DELI","Address":"411 Blue Ravine Rd Ste4","City":"Folsom","State":"CA","Zip":"95630"},{"Location":"BENEFITS AND RISK MANAGEMENT","Address":"80 Iron Point Cir 200","City":"Folsom","State":"CA","Zip":"95630"},{"Location":"BJS RESTAURANT #437","Address":"2730 E Bidwell St","City":"Folsom","State":"CA","Zip":"95630"},{"Location":"BLOOD SOURCE","Address":"150 Natoma Station Dr","City":"Folsom","State":"CA","Zip":"95630"},{"Location":"BUCK SHORTS DUGOUT","Address":"312 E Bidwell St","City":"Folsom","State":"CA","Zip":"95630"},{"Location":"BUFFALO WILD WINGS #0283","Address":"2759 E Bidwell St","City":"Folsom","State":"CA","Zip":"95630"},{"Location":"BUSINESS CENTRAL FOLSOM%2C LP","Address":"101 Parkshore Dr","City":"Folsom","State":"CA","Zip":"95630"},{"Location":"CALIBER COLLISIONS2","Address":"300 Auto Plaza Dr","City":"Folsom","State":"CA","Zip":"95630"},{"Location":"CALIBER COLLISON 1","Address":"1128 Sibley St H","City":"Folsom","State":"CA","Zip":"95630"},{"Location":"CALIFORNIA DREAM CUTS","Address":"1014 Riley St 9","City":"Folsom","State":"CA","Zip":"95630"},{"Location":"CALIFORNIA FAMILY FITNESS","Address":"700 Oak Avenue Pkwy","City":"Folsom","State":"CA","Zip":"95630"},{"Location":"CALIFORNIA INDEPENDENT","Address":"250 Outcropping Way","City":"Folsom","State":"CA","Zip":"95630"},{"Location":"CALIFORNIA PRISON INDUSTRY","Address":"560 E Natoma St","City":"Folsom","State":"CA","Zip":"95630"},{"Location":"CALIFORNIA PRISON INDUSTRY1","Address":"560 E Natoma St","City":"Folsom","State":"CA","Zip":"95630"},{"Location":"CAPITAL PACIFIC GROUP","Address":"100 Iron Point Cir 100","City":"Folsom","State":"CA","Zip":"95630"},{"Location":"CASA RAMOS","Address":"400 Iron Point Rd","City":"Folsom","State":"CA","Zip":"95630"},{"Location":"CHILI'S #0439","Address":"161 Iron Point Rd","City":"Folsom","State":"CA","Zip":"95630"},{"Location":"CHINA HOUSE2","Address":"711 E Bidwell St 5","City":"Folsom","State":"CA","Zip":"95630"},{"Location":"CITY FOLSOM PARKS & RECREATION","Address":"66 Clarksville Rd","City":"Folsom","State":"CA","Zip":"95630"},{"Location":"CITY SLICKERS","Address":"97 A Matoma St","City":"Folsom","State":"CA","Zip":"95630"},{"Location":"DEPT OF DERMATOLOGY OF FOLSOM","Address":"1370 Prairie City Rd","City":"Folsom","State":"CA","Zip":"95630"},{"Location":"DICKEYS 503 FOLSOM","Address":"1016 Riley St 5","City":"Folsom","State":"CA","Zip":"95630"},{"Location":"DIGIORNO DENTAL FITNESS","Address":"750 Oak Avenue Pkwy 190","City":"Folsom","State":"CA","Zip":"95630"},{"Location":"DOMINICS NEW YORK PIZZA AND DE","Address":"187 Blue Ravine Rd 160","City":"Folsom","State":"CA","Zip":"95630"},{"Location":"DRCIGARS","Address":"657 E Bidwell St","City":"Folsom","State":"CA","Zip":"95630"},{"Location":"EARLY TOAST","Address":"25075 Blue Ravine Rd 100","City":"Folsom","State":"CA","Zip":"95630"},{"Location":"EL PUEBLO","Address":"6608 Folsom Auburn Rd 1","City":"Folsom","State":"CA","Zip":"95630"},{"Location":"EL RINCON DEL SABOR","Address":"1300 E Bidwell St 120","City":"Folsom","State":"CA","Zip":"95630"},{"Location":"EMPIRE RANCH","Address":"1620 E Natoma St","City":"Folsom","State":"CA","Zip":"95630"},{"Location":"FITNESS 19","Address":"9580 Oak Avenue Pkwy","City":"Folsom","State":"CA","Zip":"95630"},{"Location":"FM3.2 FAIRPLAY","Address":"1900 Prairie City Rd Fm32","City":"Folsom","State":"CA","Zip":"95630"},{"Location":"FM3.2 WEST - SHENANDOAH","Address":"1900 Prairie City Rd West","City":"Folsom","State":"CA","Zip":"95630"},{"Location":"FOLSOM AUTO MALL","Address":"12755 Folsom Blvd","City":"Folsom","State":"CA","Zip":"95630"},{"Location":"FOLSOM CITY FIRE ASSOCIATION","Address":"535 Glenn Dr","City":"Folsom","State":"CA","Zip":"95630"},{"Location":"FOLSOM CITY FIRE ASSOCIATION","Address":"1300 Blue Ravine Rd","City":"Folsom","State":"CA","Zip":"95630"},{"Location":"FOLSOM CITY FIRE ASSOCIATION","Address":"9700 Oak Avenue Pkwy","City":"Folsom","State":"CA","Zip":"95630"},{"Location":"FOLSOM CORPORATE INVESTORS LLC","Address":"2365 Iron Point Rd","City":"Folsom","State":"CA","Zip":"95630"},{"Location":"FOLSOM DENTAL GROUP","Address":"1840 Prairie City Rd 200","City":"Folsom","State":"CA","Zip":"95630"},{"Location":"FOLSOM ENDODONTICS","Address":"1635 Creekside Dr 103","City":"Folsom","State":"CA","Zip":"95630"},{"Location":"FOLSOM HOTEL","Address":"703 Sutter St","City":"Folsom","State":"CA","Zip":"95630"},{"Location":"FOLSOM IMAGING","Address":"1655 Creekside Dr","City":"Folsom","State":"CA","Zip":"95630"},{"Location":"FOLSOM LAKE BANK","Address":"905 Sutter St","City":"Folsom","State":"CA","Zip":"95630"},{"Location":"FOLSOM LAKE HYUNDAI","Address":"12530 Auto Mall Cir","City":"Folsom","State":"CA","Zip":"95630"},{"Location":"FOLSOM LAKE KIA","Address":"12749 Folsom Blvd","City":"Folsom","State":"CA","Zip":"95630"},{"Location":"FOLSOM LAKE KIA","Address":"12751 Folsom Blvd","City":"Folsom","State":"CA","Zip":"95630"},{"Location":"FOLSOM LAKE TOYOTA","Address":"12747 Folsom Blvd","City":"Folsom","State":"CA","Zip":"95630"},{"Location":"FOLSOM PALACE","Address":"1169 Riley St","City":"Folsom","State":"CA","Zip":"95630"},{"Location":"FOLSOM POLICE DEPT.MCCU","Address":"46 Natoma St","City":"Folsom","State":"CA","Zip":"95630"},{"Location":"FOLSOM TAP HOUSE","Address":"25005 Blue Ravine Rd","City":"Folsom","State":"CA","Zip":"95630"},{"Location":"FOLSOM WELLNESS & SPORTS","Address":"990 Riley St","City":"Folsom","State":"CA","Zip":"95630"},{"Location":"FOLSOMCITYFIREDEPT","Address":"70 Clarksville Rd","City":"Folsom","State":"CA","Zip":"95630"},{"Location":"FRESHMEX EXPRESS","Address":"1880 Prairie City Rd 110","City":"Folsom","State":"CA","Zip":"95630"},{"Location":"GATEWAY NAILS AND SPA","Address":"2405 Iron Point Rd 105","City":"Folsom","State":"CA","Zip":"95630"},{"Location":"HAMPTONS ON SUTTER","Address":"608 Sutter St","City":"Folsom","State":"CA","Zip":"95630"},{"Location":"HARLEY DAVIDSON OF FOLSOM","Address":"115 Woodmere Rd","City":"Folsom","State":"CA","Zip":"95630"},{"Location":"HERITAGE COMMUNITY CU","Address":"707 E Bidwell St","City":"Folsom","State":"CA","Zip":"95630"},{"Location":"I LOVE TARIAKI","Address":"185 Blue Ravine Rd 100","City":"Folsom","State":"CA","Zip":"95630"},{"Location":"INTEL - FM3","Address":"1900 Prairie City Rd Fm3","City":"Folsom","State":"CA","Zip":"95630"},{"Location":"INTEL CORP.","Address":"1900 Prairie City Rd","City":"Folsom","State":"CA","Zip":"95630"},{"Location":"INTERNATIONAL BUSINESS SYSTEM","Address":"90 Blue Ravine Rd","City":"Folsom","State":"CA","Zip":"95630"},{"Location":"ISLANDS RESTAURANT #057","Address":"2455 Iron Point Rd","City":"Folsom","State":"CA","Zip":"95630"},{"Location":"KIRBEY RAMSEY LEASING","Address":"500 Plaza Dr","City":"Folsom","State":"CA","Zip":"95630"},{"Location":"L 3 COMMUNICATIONS NARDA WEST","Address":"107 Woodmere Rd","City":"Folsom","State":"CA","Zip":"95630"},{"Location":"LAKE BOWL","Address":"511 E Bidwell St","City":"Folsom","State":"CA","Zip":"95630"},{"Location":"LAND OCEAN INC","Address":"2720 E Bidwell St","City":"Folsom","State":"CA","Zip":"95630"},{"Location":"LOLITAS MEXICAN","Address":"9580 Oak Avenue Pkwy D12","City":"Folsom","State":"CA","Zip":"95630"},{"Location":"MACARONI GRILL #1245","Address":"2739 E Bidwell St","City":"Folsom","State":"CA","Zip":"95630"},{"Location":"MANDERES","Address":"1004 E Bidwell St 600","City":"Folsom","State":"CA","Zip":"95630"},{"Location":"MARKS SPORTS BAR & GRILL","Address":"303 Iron Point Rd","City":"Folsom","State":"CA","Zip":"95630"},{"Location":"MELS DINER","Address":"13399 Folsom Blvd","City":"Folsom","State":"CA","Zip":"95630"},{"Location":"MEN'S WEARHOUSE #2264","Address":"2761 E Bidwell St 500","City":"Folsom","State":"CA","Zip":"95630"},{"Location":"MERCURY INSURANCE","Address":"104 Woodmere Rd","City":"Folsom","State":"CA","Zip":"95630"},{"Location":"MERCY HOSPITAL FOLSOM","Address":"1650 Creekside Dr","City":"Folsom","State":"CA","Zip":"95630"},{"Location":"MERCY MEDICAL GROUP","Address":"1561 Creekside Dr 170","City":"Folsom","State":"CA","Zip":"95630"},{"Location":"MERIDIAN","Address":"1720 Prairie City Rd 120","City":"Folsom","State":"CA","Zip":"95630"},{"Location":"MEXQUITE MEXICAN LOUNGE","Address":"25095 Blue Ravine Rd","City":"Folsom","State":"CA","Zip":"95630"},{"Location":"MORGAN STANLEY 100163","Address":"2380 E Bidwell St","City":"Folsom","State":"CA","Zip":"95630"},{"Location":"MOUNTAIN MIKE PIZZA","Address":"717 E Bidwell St","City":"Folsom","State":"CA","Zip":"95630"},{"Location":"MR PICKLES SANDWICH SHOP","Address":"199 Blue Ravine Rd","City":"Folsom","State":"CA","Zip":"95630"},{"Location":"MURO & LAMPE","Address":"76 Iron Point Cir","City":"Folsom","State":"CA","Zip":"95630"},{"Location":"NIKE INC","Address":"13000 Folsom Blvd 401","City":"Folsom","State":"CA","Zip":"95630"},{"Location":"OAK DENTAL","Address":"740 Oak Avenue Pkwy 130","City":"Folsom","State":"CA","Zip":"95630"},{"Location":"OFFSIDE SOCCER","Address":"1008 E Bidwell St","City":"Folsom","State":"CA","Zip":"95630"},{"Location":"OLIVE GARDEN #1713","Address":"2485 Iron Point Rd","City":"Folsom","State":"CA","Zip":"95630"},{"Location":"PACIFIC DENTAL #99","Address":"2465 Iron Point Rd 110","City":"Folsom","State":"CA","Zip":"95630"},{"Location":"POWERHOUSE PUB","Address":"614 Sutter St","City":"Folsom","State":"CA","Zip":"95630"},{"Location":"PRA LOCATION SERVICES","Address":"2365 Iron Point Rd","City":"Folsom","State":"CA","Zip":"95630"},{"Location":"QBOLE INC","Address":"718 Sutter St 201","City":"Folsom","State":"CA","Zip":"95630"},{"Location":"QUANTIX  EQUITY","Address":"2600 E Bidwell St 280","City":"Folsom","State":"CA","Zip":"95630"},{"Location":"RADIOLOGICAL ASSOC","Address":"1661 Creekside Dr","City":"Folsom","State":"CA","Zip":"95630"},{"Location":"RED ROBIN #82","Address":"360 Palladio Pkwy","City":"Folsom","State":"CA","Zip":"95630"},{"Location":"REGUS","Address":"1024 Iron Point Rd","City":"Folsom","State":"CA","Zip":"95630"},{"Location":"RENAISSANCE FOOTHILL AT EMPIRE","Address":"1448 Haddington Dr","City":"Folsom","State":"CA","Zip":"95630"},{"Location":"ROGERS JEWELRY CO","Address":"965 E Bidwell St","City":"Folsom","State":"CA","Zip":"95630"},{"Location":"ROUND TABLE PIZZA #205","Address":"1151 Riley St","City":"Folsom","State":"CA","Zip":"95630"},{"Location":"ROUND TABLE PIZZA #270","Address":"9500 Greenback Ln","City":"Folsom","State":"CA","Zip":"95630"},{"Location":"ROUND TABLE PIZZA #867","Address":"2793 E Bidwell St","City":"Folsom","State":"CA","Zip":"95630"},{"Location":"SACRAMENTO SHERIFF DEPT","Address":"7794 Folsom Dam Rd","City":"Folsom","State":"CA","Zip":"95630"},{"Location":"SAFE CREDIT UNION","Address":"2295 Iron Point Rd","City":"Folsom","State":"CA","Zip":"95630"},{"Location":"SAFRON KABOB","Address":"1300 E Bidwell St 100","City":"Folsom","State":"CA","Zip":"95630"},{"Location":"SAMS CLUB","Address":"2495 Iron Point Rd","City":"Folsom","State":"CA","Zip":"95630"},{"Location":"SCOTT'S SEAFOOD GRILL & BAR","Address":"9611 Greenback Ln","City":"Folsom","State":"CA","Zip":"95630"},{"Location":"SCOTTRADE 54N","Address":"2371 Iron Point Rd 120","City":"Folsom","State":"CA","Zip":"95630"},{"Location":"SKIPOLINIS PIZZA","Address":"191 Blue Ravine Rd","City":"Folsom","State":"CA","Zip":"95630"},{"Location":"SMOKELESS S","Address":"1001 E Bidwell St 102","City":"Folsom","State":"CA","Zip":"95630"},{"Location":"SPORT CLIPS CA112","Address":"9475 Madison Ave 130","City":"Folsom","State":"CA","Zip":"95630"},{"Location":"SPORTS AUTHORITY 673","Address":"2799 E Bidwell St","City":"Folsom","State":"CA","Zip":"95630"},{"Location":"STREET OF LONDON PUB","Address":"649 E Bidwell St","City":"Folsom","State":"CA","Zip":"95630"},{"Location":"STS GUNS","Address":"691 E Bidwell St","City":"Folsom","State":"CA","Zip":"95630"},{"Location":"STUDIO 55 SALON SUITES","Address":"1725 Iron Point Rd 100","City":"Folsom","State":"CA","Zip":"95630"},{"Location":"SUTTER CLUB","Address":"720 Sutter St","City":"Folsom","State":"CA","Zip":"95630"},{"Location":"THE CANYON GRILL AND ALE HOUSE","Address":"9580 Oak Avenue Pkwy 8","City":"Folsom","State":"CA","Zip":"95630"},{"Location":"THE CLIFF HOUSE OF FOLSOM","Address":"9900 Greenback Ln","City":"Folsom","State":"CA","Zip":"95630"},{"Location":"THE FAT RABBIT","Address":"825 Sutter St","City":"Folsom","State":"CA","Zip":"95630"},{"Location":"TOKYO SUSHI","Address":"1002 Riley St 3","City":"Folsom","State":"CA","Zip":"95630"},{"Location":"TOMS BARBER","Address":"93 Natoma St","City":"Folsom","State":"CA","Zip":"95630"},{"Location":"TRI COUNTIES BANK","Address":"25025 Blue Ravine Rd","City":"Folsom","State":"CA","Zip":"95630"},{"Location":"TRI COUNTIES BANK","Address":"1003 E Bidwell St","City":"Folsom","State":"CA","Zip":"95630"},{"Location":"TRIPLE CROWN AUTO SALES","Address":"9515 Greenback Ln","City":"Folsom","State":"CA","Zip":"95630"},{"Location":"VERIZON WIRELESS","Address":"600 Coolidge Dr","City":"Folsom","State":"CA","Zip":"95630"},{"Location":"VIP CONSULTING","Address":"80 Iron Point Cir 100","City":"Folsom","State":"CA","Zip":"95630"},{"Location":"WASABI SUSHI","Address":"2371 Iron Point Rd 140","City":"Folsom","State":"CA","Zip":"95630"},{"Location":"WHOLE FOODS MARKET","Address":"270 Palladio Pkwy","City":"Folsom","State":"CA","Zip":"95630"},{"Location":"WILD BILLS CHEESESTEAKS","Address":"2770 E Bidwell St 400","City":"Folsom","State":"CA","Zip":"95630"},{"Location":"WILLOWROCK GROUP","Address":"708 E Bidwell St","City":"Folsom","State":"CA","Zip":"95630"},{"Location":"WILSON LAW FIRM","Address":"1120 Iron Point Rd 100","City":"Folsom","State":"CA","Zip":"95630"},{"Location":"WING STOP","Address":"1115 E Bidwell St 124","City":"Folsom","State":"CA","Zip":"95630"}]