[{"Location":"BARSETTI VINYARDS","Address":"400 4th St 150","City":"Galt","State":"CA","Zip":"95632"},{"Location":"CITY OF GALT","Address":"455 Industrial Dr","City":"Galt","State":"CA","Zip":"95632"},{"Location":"CTC REC FUND","Address":"9850 Twin Cities Rd","City":"Galt","State":"CA","Zip":"95632"},{"Location":"DRYCREEK GOLF COURSE","Address":"805 Crystal Way","City":"Galt","State":"CA","Zip":"95632"},{"Location":"EXCALIBUR PIZZA","Address":"1067 C St 144","City":"Galt","State":"CA","Zip":"95632"},{"Location":"FARMERS AND MERCHANTS BANK","Address":"10330 Twin Cities Rd 20","City":"Galt","State":"CA","Zip":"95632"},{"Location":"FIRE STATION FORTY FIVE","Address":"229 5th St","City":"Galt","State":"CA","Zip":"95632"},{"Location":"FIRE STATION FORTY SIX","Address":"1050 Walnut Ave","City":"Galt","State":"CA","Zip":"95632"},{"Location":"HUMPHREY'S GUEST HOME","Address":"511 G St","City":"Galt","State":"CA","Zip":"95632"},{"Location":"MCDONALDS 10852","Address":"324 Pine St","City":"Galt","State":"CA","Zip":"95632"},{"Location":"MCDONALDS 34891","Address":"12801 E Stockton Blvd","City":"Galt","State":"CA","Zip":"95632"},{"Location":"MOUNTAIN MIKES","Address":"10400 Twin Cities Rd 50","City":"Galt","State":"CA","Zip":"95632"},{"Location":"SOL STRENGTH LLC","Address":"10530 Twin Cities Rd 10","City":"Galt","State":"CA","Zip":"95632"},{"Location":"SQUEEZE INN","Address":"595 Industrial Dr 100","City":"Galt","State":"CA","Zip":"95632"},{"Location":"T2YAN","Address":"10400 Twin Cities Rd 10","City":"Galt","State":"CA","Zip":"95632"},{"Location":"VELVET GRILL & CREAMERY","Address":"400 4th St","City":"Galt","State":"CA","Zip":"95632"},{"Location":"ZACATECAS MEXICAN RESTAURANT","Address":"10400 Twin Cities Rd 40","City":"Galt","State":"CA","Zip":"95632"}]