[{"Location":"AJS ENTERPRISES LLC","Address":"17219 Terminous Rd","City":"Isleton","State":"CA","Zip":"95641"},{"Location":"B AND W RESORT","Address":"964 Brannan Island Rd","City":"Isleton","State":"CA","Zip":"95641"},{"Location":"DEL RIO","Address":"209 2nd St","City":"Isleton","State":"CA","Zip":"95641"},{"Location":"KOKET RESORT 2","Address":"14174 Isleton Rd","City":"Isleton","State":"CA","Zip":"95641"},{"Location":"LIGHTHOUSE RESTAURANT","Address":"151 Brannan Island Rd","City":"Isleton","State":"CA","Zip":"95641"},{"Location":"MOORES RIVERBOAT RESTURANT","Address":"106 W Brannan Island Rd","City":"Isleton","State":"CA","Zip":"95641"},{"Location":"PETERS STEAKHOUSE","Address":"203 2nd Street","City":"Isleton","State":"CA","Zip":"95641"},{"Location":"PINEAPPLE RESTAURANT","Address":"22 Main St.","City":"Isleton","State":"CA","Zip":"95641"},{"Location":"ROGELIOS INC","Address":"Po Box 637","City":"Isleton","State":"CA","Zip":"95641"},{"Location":"SPINDRIST RESTAURANT","Address":"841 W Brannan Island Rd","City":"Isleton","State":"CA","Zip":"95641"},{"Location":"THE HAIR LOOM","Address":"41 Main St","City":"Isleton","State":"CA","Zip":"95641"},{"Location":"VIEIRA RESORT INC","Address":"15476 State Highway 160","City":"Isleton","State":"CA","Zip":"95641"},{"Location":"WILLOW BERM MARINA","Address":"140 Brannan Island Rd","City":"Isleton","State":"CA","Zip":"95641"}]