[{"Location":"BEACH HUT DELI","Address":"885 Highway 65 30","City":"Lincoln","State":"CA","Zip":"95648"},{"Location":"CA. RIPPED FITNESS","Address":"120 Gateway Dr 150","City":"Lincoln","State":"CA","Zip":"95648"},{"Location":"CALIBER BODYWORKS OF CA","Address":"100 Flocchini Cir","City":"Lincoln","State":"CA","Zip":"95648"},{"Location":"CASA RAMOS","Address":"925 S State Highway 65","City":"Lincoln","State":"CA","Zip":"95648"},{"Location":"CATTA VERDERA COUNTRY CLUB","Address":"1111 Catta Verdera","City":"Lincoln","State":"CA","Zip":"95648"},{"Location":"CHAMP  CUTS","Address":"745 Highway 65 50","City":"Lincoln","State":"CA","Zip":"95648"},{"Location":"COUTURE PRESS","Address":"3705 Dugger Rd","City":"Lincoln","State":"CA","Zip":"95648"},{"Location":"CRAZY SUSHI","Address":"41 Lincoln Blvd 100","City":"Lincoln","State":"CA","Zip":"95648"},{"Location":"DILLIAN'S BAR AND GRILL","Address":"605 G St","City":"Lincoln","State":"CA","Zip":"95648"},{"Location":"DT NOODLE","Address":"900 Sterling Pkwy 10","City":"Lincoln","State":"CA","Zip":"95648"},{"Location":"ECLIPSE BARBER SHOP","Address":"581 Lincoln Blvd","City":"Lincoln","State":"CA","Zip":"95648"},{"Location":"EL PORTAL TAQUERIA","Address":"149 Lincoln Blvd B","City":"Lincoln","State":"CA","Zip":"95648"},{"Location":"ELITE HORSE RENTAL","Address":"850 S Dowd Rd","City":"Lincoln","State":"CA","Zip":"95648"},{"Location":"FIRESTONE #314642","Address":"951 Sterling Pkwy","City":"Lincoln","State":"CA","Zip":"95648"},{"Location":"FITNESS SYSTEM","Address":"2800 Nicolaus Rd 600","City":"Lincoln","State":"CA","Zip":"95648"},{"Location":"FMC 71690000","Address":"811 Sterling Pkwy","City":"Lincoln","State":"CA","Zip":"95648"},{"Location":"JUMBO CHINESE RESTUARANT","Address":"155 Joiner Pkwy 100","City":"Lincoln","State":"CA","Zip":"95648"},{"Location":"KIMS KITCHEN","Address":"537 G St","City":"Lincoln","State":"CA","Zip":"95648"},{"Location":"KOBE TEPPANYANKI AND SUS","Address":"131 Ferrari Ranch Rd","City":"Lincoln","State":"CA","Zip":"95648"},{"Location":"LINCOLN CITY BARBER SHOP","Address":"670 5th St","City":"Lincoln","State":"CA","Zip":"95648"},{"Location":"LINCOLN REGIONAL AIRPORT","Address":"1480 Flightline Dr","City":"Lincoln","State":"CA","Zip":"95648"},{"Location":"LOVELY NAILS","Address":"654 5th St","City":"Lincoln","State":"CA","Zip":"95648"},{"Location":"MCCOURTNEY RD EQUESTARIAN CTR1","Address":"2086 Mccourtney Rd","City":"Lincoln","State":"CA","Zip":"95648"},{"Location":"NY PIZZA","Address":"155 Joiner Pkwy 600","City":"Lincoln","State":"CA","Zip":"95648"},{"Location":"R AND K H INC","Address":"107 Ferrari Ranch Rd 130","City":"Lincoln","State":"CA","Zip":"95648"},{"Location":"RED ROBIN #591 LINCOLN CA","Address":"750 E Joiner Pkwy","City":"Lincoln","State":"CA","Zip":"95648"},{"Location":"ROGERS FAMILY","Address":"1731 Aviation Blvd","City":"Lincoln","State":"CA","Zip":"95648"},{"Location":"ROUND TABLE PIZZA","Address":"375 Highway 65 A","City":"Lincoln","State":"CA","Zip":"95648"},{"Location":"RUM PHIE BISTRO","Address":"880 Sterling Pkwy","City":"Lincoln","State":"CA","Zip":"95648"},{"Location":"STERLING CAFE","Address":"825 Highway 65 10","City":"Lincoln","State":"CA","Zip":"95648"},{"Location":"THE TIRE DEALER INC","Address":"198 Lincoln Blvd","City":"Lincoln","State":"CA","Zip":"95648"},{"Location":"THE VAPE DUGOUT","Address":"660 5th St","City":"Lincoln","State":"CA","Zip":"95648"},{"Location":"THUNDER VALLEY CASINO","Address":"1200 Athens Ave","City":"Lincoln","State":"CA","Zip":"95648"},{"Location":"TRI COUNTIES BANK","Address":"765 Highway 65","City":"Lincoln","State":"CA","Zip":"95648"},{"Location":"TURKEY CREEK GC","Address":"1525 State Highway 193","City":"Lincoln","State":"CA","Zip":"95648"},{"Location":"BEACH HUT DELI","Address":"885 Highway 65 30","City":"Lincoln","State":"CA","Zip":"95648"},{"Location":"CA. RIPPED FITNESS","Address":"120 Gateway Dr 150","City":"Lincoln","State":"CA","Zip":"95648"},{"Location":"CALIBER BODYWORKS OF CA","Address":"100 Flocchini Cir","City":"Lincoln","State":"CA","Zip":"95648"},{"Location":"CASA RAMOS","Address":"925 S State Highway 65","City":"Lincoln","State":"CA","Zip":"95648"},{"Location":"CATTA VERDERA COUNTRY CLUB","Address":"1111 Catta Verdera","City":"Lincoln","State":"CA","Zip":"95648"},{"Location":"CHAMP  CUTS","Address":"745 Highway 65 50","City":"Lincoln","State":"CA","Zip":"95648"},{"Location":"COUTURE PRESS","Address":"3705 Dugger Rd","City":"Lincoln","State":"CA","Zip":"95648"},{"Location":"CRAZY SUSHI","Address":"41 Lincoln Blvd 100","City":"Lincoln","State":"CA","Zip":"95648"},{"Location":"DILLIAN'S BAR AND GRILL","Address":"605 G St","City":"Lincoln","State":"CA","Zip":"95648"},{"Location":"DT NOODLE","Address":"900 Sterling Pkwy 10","City":"Lincoln","State":"CA","Zip":"95648"},{"Location":"ECLIPSE BARBER SHOP","Address":"581 Lincoln Blvd","City":"Lincoln","State":"CA","Zip":"95648"},{"Location":"EL PORTAL TAQUERIA","Address":"149 Lincoln Blvd B","City":"Lincoln","State":"CA","Zip":"95648"},{"Location":"ELITE HORSE RENTAL","Address":"850 S Dowd Rd","City":"Lincoln","State":"CA","Zip":"95648"},{"Location":"FIRESTONE #314642","Address":"951 Sterling Pkwy","City":"Lincoln","State":"CA","Zip":"95648"},{"Location":"FITNESS SYSTEM","Address":"2800 Nicolaus Rd 600","City":"Lincoln","State":"CA","Zip":"95648"},{"Location":"FMC 71690000","Address":"811 Sterling Pkwy","City":"Lincoln","State":"CA","Zip":"95648"},{"Location":"JUMBO CHINESE RESTUARANT","Address":"155 Joiner Pkwy 100","City":"Lincoln","State":"CA","Zip":"95648"},{"Location":"KIMS KITCHEN","Address":"537 G St","City":"Lincoln","State":"CA","Zip":"95648"},{"Location":"KOBE TEPPANYANKI AND SUS","Address":"131 Ferrari Ranch Rd","City":"Lincoln","State":"CA","Zip":"95648"},{"Location":"LINCOLN CITY BARBER SHOP","Address":"670 5th St","City":"Lincoln","State":"CA","Zip":"95648"},{"Location":"LINCOLN REGIONAL AIRPORT","Address":"1480 Flightline Dr","City":"Lincoln","State":"CA","Zip":"95648"},{"Location":"LOVELY NAILS","Address":"654 5th St","City":"Lincoln","State":"CA","Zip":"95648"},{"Location":"MCCOURTNEY RD EQUESTARIAN CTR1","Address":"2086 Mccourtney Rd","City":"Lincoln","State":"CA","Zip":"95648"},{"Location":"NY PIZZA","Address":"155 Joiner Pkwy 600","City":"Lincoln","State":"CA","Zip":"95648"},{"Location":"R AND K H INC","Address":"107 Ferrari Ranch Rd 130","City":"Lincoln","State":"CA","Zip":"95648"},{"Location":"RED ROBIN #591 LINCOLN CA","Address":"750 E Joiner Pkwy","City":"Lincoln","State":"CA","Zip":"95648"},{"Location":"ROGERS FAMILY","Address":"1731 Aviation Blvd","City":"Lincoln","State":"CA","Zip":"95648"},{"Location":"ROUND TABLE PIZZA","Address":"375 Highway 65 A","City":"Lincoln","State":"CA","Zip":"95648"},{"Location":"RUM PHIE BISTRO","Address":"880 Sterling Pkwy","City":"Lincoln","State":"CA","Zip":"95648"},{"Location":"STERLING CAFE","Address":"825 Highway 65 10","City":"Lincoln","State":"CA","Zip":"95648"},{"Location":"THE TIRE DEALER INC","Address":"198 Lincoln Blvd","City":"Lincoln","State":"CA","Zip":"95648"},{"Location":"THE VAPE DUGOUT","Address":"660 5th St","City":"Lincoln","State":"CA","Zip":"95648"},{"Location":"THUNDER VALLEY CASINO","Address":"1200 Athens Ave","City":"Lincoln","State":"CA","Zip":"95648"},{"Location":"TRI COUNTIES BANK","Address":"765 Highway 65","City":"Lincoln","State":"CA","Zip":"95648"},{"Location":"TURKEY CREEK GC","Address":"1525 State Highway 193","City":"Lincoln","State":"CA","Zip":"95648"}]