[{"Location":"APS ASSOCIATES","Address":"240 N Main St","City":"Jackson","State":"CA","Zip":"95642"},{"Location":"BELLA ROSA SPORTS BAR","Address":"11310 Prospect Dr","City":"Jackson","State":"CA","Zip":"95642"},{"Location":"C AND L INVESTMENT CO IN","Address":"20 Rollingwood Dr 500","City":"Jackson","State":"CA","Zip":"95642"},{"Location":"ELKS LODGE","Address":"12500 Kennedy Flat Rd","City":"Jackson","State":"CA","Zip":"95642"},{"Location":"ESCELSIOR PARLOR 31","Address":"47 Summit St","City":"Jackson","State":"CA","Zip":"95642"},{"Location":"HOT CUTS JACKSON","Address":"525 South Ave 3","City":"Jackson","State":"CA","Zip":"95642"},{"Location":"JACKSON RANCHERIA CASINO RES","Address":"12222 New York Ranch Rd","City":"Jackson","State":"CA","Zip":"95642"},{"Location":"MAIN EVENT","Address":"105 Main St","City":"Jackson","State":"CA","Zip":"95642"},{"Location":"MED LEGAL SERVICES INC","Address":"24 S State Highway 49","City":"Jackson","State":"CA","Zip":"95642"},{"Location":"NEW YORK FITNESS","Address":"615 New York Ranch Rd 1","City":"Jackson","State":"CA","Zip":"95642"},{"Location":"PAUL METZGER MD","Address":"817 S State Highway 49","City":"Jackson","State":"CA","Zip":"95642"},{"Location":"SHINNY STAR RESTAURANT","Address":"535 S State Highway 49 6","City":"Jackson","State":"CA","Zip":"95642"},{"Location":"SLAKEY BROTHERS","Address":"1400 S State Highway 49","City":"Jackson","State":"CA","Zip":"95642"},{"Location":"ST SAVA CHURCH","Address":"724 N Main St","City":"Jackson","State":"CA","Zip":"95642"},{"Location":"THAI SIAM","Address":"12240 Industry Blvd 72","City":"Jackson","State":"CA","Zip":"95642"},{"Location":"APS ASSOCIATES","Address":"240 N Main St","City":"Jackson","State":"CA","Zip":"95642"},{"Location":"BELLA ROSA SPORTS BAR","Address":"11310 Prospect Dr","City":"Jackson","State":"CA","Zip":"95642"},{"Location":"C AND L INVESTMENT CO IN","Address":"20 Rollingwood Dr 500","City":"Jackson","State":"CA","Zip":"95642"},{"Location":"ELKS LODGE","Address":"12500 Kennedy Flat Rd","City":"Jackson","State":"CA","Zip":"95642"},{"Location":"HOT CUTS JACKSON","Address":"525 South Ave 3","City":"Jackson","State":"CA","Zip":"95642"},{"Location":"JACKSON RANCHERIA CASINO RES","Address":"12222 New York Ranch Rd","City":"Jackson","State":"CA","Zip":"95642"},{"Location":"MAIN EVENT","Address":"105 Main St","City":"Jackson","State":"CA","Zip":"95642"},{"Location":"MED LEGAL SERVICES INC","Address":"24 S State Highway 49","City":"Jackson","State":"CA","Zip":"95642"},{"Location":"NEW YORK FITNESS","Address":"615 New York Ranch Rd 1","City":"Jackson","State":"CA","Zip":"95642"},{"Location":"PAUL METZGER MD","Address":"817 S State Highway 49","City":"Jackson","State":"CA","Zip":"95642"},{"Location":"SHINNY STAR RESTAURANT","Address":"535 S State Highway 49 6","City":"Jackson","State":"CA","Zip":"95642"},{"Location":"ST SAVA CHURCH","Address":"724 N Main St","City":"Jackson","State":"CA","Zip":"95642"},{"Location":"THAI SIAM","Address":"12240 Industry Blvd 72","City":"Jackson","State":"CA","Zip":"95642"}]