[{"Location":"AUNT CYNTHIAS BED AND BISCUIT","Address":"3190 Swetzer Rd","City":"Loomis","State":"CA","Zip":"95650"},{"Location":"COUNTRY CLUB SALOON","Address":"4007 Taylor Rd","City":"Loomis","State":"CA","Zip":"95650"},{"Location":"LINDA'S PIZZERIA","Address":"5911 King Rd F","City":"Loomis","State":"CA","Zip":"95650"},{"Location":"LOOMIS CAFE","Address":"3640 Taylor Rd","City":"Loomis","State":"CA","Zip":"95650"},{"Location":"PLACER TOWING","Address":"3325 Swetzer Rd","City":"Loomis","State":"CA","Zip":"95650"},{"Location":"ROUND TABLE PIZZA","Address":"6111 Horseshoe Bar Rd","City":"Loomis","State":"CA","Zip":"95650"},{"Location":"SENIOR CARE VILLA","Address":"3400 Chisom Trl","City":"Loomis","State":"CA","Zip":"95650"},{"Location":"AUNT CYNTHIAS BED AND BISCUIT","Address":"3190 Swetzer Rd","City":"Loomis","State":"CA","Zip":"95650"},{"Location":"COUNTRY CLUB SALOON","Address":"4007 Taylor Rd","City":"Loomis","State":"CA","Zip":"95650"},{"Location":"LINDA'S PIZZERIA","Address":"5911 King Rd F","City":"Loomis","State":"CA","Zip":"95650"},{"Location":"LOOMIS CAFE","Address":"3640 Taylor Rd","City":"Loomis","State":"CA","Zip":"95650"},{"Location":"PLACER TOWING","Address":"3325 Swetzer Rd","City":"Loomis","State":"CA","Zip":"95650"},{"Location":"ROUND TABLE PIZZA","Address":"6111 Horseshoe Bar Rd","City":"Loomis","State":"CA","Zip":"95650"},{"Location":"SENIOR CARE VILLA","Address":"3400 Chisom Trl","City":"Loomis","State":"CA","Zip":"95650"}]