[{"Location":"BELL BROTHERS HVAC","Address":"10555 Norden Ave","City":"Mather","State":"CA","Zip":"95655"},{"Location":"BLOOD SOURCE","Address":"10536 Peter A Mccuen Blvd","City":"Mather","State":"CA","Zip":"95655"},{"Location":"CALOES FIRE RESCUE","Address":"3650 Schriever Ave","City":"Mather","State":"CA","Zip":"95655"},{"Location":"ECMC","Address":"10370 Peter A Mccuen Blvd","City":"Mather","State":"CA","Zip":"95655"},{"Location":"FAA","Address":"11375 Douglas Rd","City":"Mather","State":"CA","Zip":"95655"},{"Location":"INTEL AVIATION","Address":"10488 Superfortress Ave","City":"Mather","State":"CA","Zip":"95655"},{"Location":"MATHER GOLF COURSE","Address":"4103 Eagles Nest Rd","City":"Mather","State":"CA","Zip":"95655"},{"Location":"REACH AIR MEDICAL","Address":"10510 Superfortress Ave","City":"Mather","State":"CA","Zip":"95655"},{"Location":"SACRAMENTO COUNTY AIR OPS BURE","Address":"3846 Bazley Way","City":"Mather","State":"CA","Zip":"95655"},{"Location":"SUTTER HEALTH SUPPORT SERVICES","Address":"10545 Armstrong Ave","City":"Mather","State":"CA","Zip":"95655"},{"Location":"SAC METRO FIRE DIST","Address":"10545 Armstrong Ave 200","City":"Rancho Cordova","State":"CA","Zip":"95655"}]