[{"Location":"24 HOUR FITNESS #592","Address":"336 N Sunrise Ave","City":"Roseville","State":"CA","Zip":"95661"},{"Location":"AMBITIONS 2","Address":"1855 Hidden Hills Dr","City":"Roseville","State":"CA","Zip":"95661"},{"Location":"AMBITIONS OF CALIFORNIA","Address":"1836 Woodacre Way","City":"Roseville","State":"CA","Zip":"95661"},{"Location":"ANYTIME FITNESS","Address":"1850 Douglas Blvd 204","City":"Roseville","State":"CA","Zip":"95661"},{"Location":"ASR RESTAURANT & LOUNGE","Address":"390 N Sunrise Ave","City":"Roseville","State":"CA","Zip":"95661"},{"Location":"AUTO WEST DODGE","Address":"200 Automall Dr","City":"Roseville","State":"CA","Zip":"95661"},{"Location":"BANK OF AMERICA CA2-945-02-00","Address":"2998 Douglas Blvd 209","City":"Roseville","State":"CA","Zip":"95661"},{"Location":"BANNAI FAMILY DENTISTRY","Address":"9241 Sierra College Blvd","City":"Roseville","State":"CA","Zip":"95661"},{"Location":"BAYSIDE CHURCH","Address":"8211 Sierra College Blvd 440","City":"Roseville","State":"CA","Zip":"95661"},{"Location":"BBV ROSEVILLE LPO","Address":"1490 Stone Point Dr 250","City":"Roseville","State":"CA","Zip":"95661"},{"Location":"BEACH HUT DELI","Address":"1490 Eureka Rd","City":"Roseville","State":"CA","Zip":"95661"},{"Location":"BROOKFIELDS RESTAURANT","Address":"1817 Taylor Rd","City":"Roseville","State":"CA","Zip":"95661"},{"Location":"BURGER REHABILITATION","Address":"2550 Douglas Blvd","City":"Roseville","State":"CA","Zip":"95661"},{"Location":"BURNS & WILCOX","Address":"3721 Douglas Blvd 245","City":"Roseville","State":"CA","Zip":"95661"},{"Location":"CALIFORNIA ROLL AND GRILL","Address":"1725 Santa Clara Dr 105","City":"Roseville","State":"CA","Zip":"95661"},{"Location":"CARMAX #7147","Address":"1450 Eureka Rd","City":"Roseville","State":"CA","Zip":"95661"},{"Location":"CHEESESTEAK GRILLE","Address":"8300 Sierra College Blvd I","City":"Roseville","State":"CA","Zip":"95661"},{"Location":"CHEVY'S #17","Address":"1919 Douglas Blvd","City":"Roseville","State":"CA","Zip":"95661"},{"Location":"CHICAGO FIRE","Address":"500 N Sunrise Ave","City":"Roseville","State":"CA","Zip":"95661"},{"Location":"CHILI'S #0587","Address":"1516 Eureka Rd","City":"Roseville","State":"CA","Zip":"95661"},{"Location":"CIBOEUREKA LLC","Address":"1465 Eureka Rd 100","City":"Roseville","State":"CA","Zip":"95661"},{"Location":"COLLIERS INTERNATIONAL VALUATI","Address":"1508 Eureka Rd 250","City":"Roseville","State":"CA","Zip":"95661"},{"Location":"COOL RIVER PIZZA ROSEVILLE","Address":"1805 Cirby Way 3","City":"Roseville","State":"CA","Zip":"95661"},{"Location":"DAVITA #5019 ROSEVILLE","Address":"1836 Sierra Gardens Dr","City":"Roseville","State":"CA","Zip":"95661"},{"Location":"DCA CAPITAL","Address":"3721 Douglas Blvd 350","City":"Roseville","State":"CA","Zip":"95661"},{"Location":"DIRT BUSTERS CAR WASH","Address":"3995 Douglas Blvd","City":"Roseville","State":"CA","Zip":"95661"},{"Location":"DONOHOE & COMPANY%2C INC.","Address":"2220 Douglas Blvd 280","City":"Roseville","State":"CA","Zip":"95661"},{"Location":"EARLY TOAST BREAKFAST3","Address":"1475 Eureka Rd 120","City":"Roseville","State":"CA","Zip":"95661"},{"Location":"ERIKS DELI CAFE","Address":"1450 Lead Hill Blvd 150","City":"Roseville","State":"CA","Zip":"95661"},{"Location":"ERNST AND YOUNG","Address":"2901 Douglas Blvd 300","City":"Roseville","State":"CA","Zip":"95661"},{"Location":"FAMILY PHYSICAL THERAPY","Address":"588 N Sunrise Ave 100","City":"Roseville","State":"CA","Zip":"95661"},{"Location":"FARM CREDIT WEST","Address":"1478 Stone Point Dr 450","City":"Roseville","State":"CA","Zip":"95661"},{"Location":"FEDERAL DEPOSIT INSURANCE","Address":"1532 Eureka Rd","City":"Roseville","State":"CA","Zip":"95661"},{"Location":"FINAL GRAVITY","Address":"9205 Sierra College Blvd","City":"Roseville","State":"CA","Zip":"95661"},{"Location":"FIRST CAPITIAL MORTGAGE","Address":"2400 Professional Dr","City":"Roseville","State":"CA","Zip":"95661"},{"Location":"FMC 68370000","Address":"1474 Stone Point Dr","City":"Roseville","State":"CA","Zip":"95661"},{"Location":"FMC 71600000","Address":"1451 Secret Ravine Pkwy 130","City":"Roseville","State":"CA","Zip":"95661"},{"Location":"FOLSOM LAKE BANK 2","Address":"2233 Douglas Blvd 300","City":"Roseville","State":"CA","Zip":"95661"},{"Location":"GENESIS WEALTHGROUP PARTNERSHI","Address":"2540 Douglas Blvd 200","City":"Roseville","State":"CA","Zip":"95661"},{"Location":"GINGERS RESTAURANT","Address":"1410 E Roseville Pkwy","City":"Roseville","State":"CA","Zip":"95661"},{"Location":"GLASS TURTLE","Address":"901 Sunrise Ave A17","City":"Roseville","State":"CA","Zip":"95661"},{"Location":"GRANITE BAY ASSET MANAGEMENT","Address":"2404 Professional Dr","City":"Roseville","State":"CA","Zip":"95661"},{"Location":"GREEN & HALL","Address":"2999 Douglas Blvd","City":"Roseville","State":"CA","Zip":"95661"},{"Location":"HAMPTON INN & SUITES ROSEVILLE","Address":"110 N Sunrise Ave","City":"Roseville","State":"CA","Zip":"95661"},{"Location":"HAMTA FOODS INC","Address":"9213 Sierra College Blvd 160","City":"Roseville","State":"CA","Zip":"95661"},{"Location":"HAUOLI OHANA OI LLC","Address":"1485 Eureka Rd G120","City":"Roseville","State":"CA","Zip":"95661"},{"Location":"HD SUPPLY","Address":"1695 Eureka Rd","City":"Roseville","State":"CA","Zip":"95661"},{"Location":"HINES","Address":"2999 Douglas Blvd","City":"Roseville","State":"CA","Zip":"95661"},{"Location":"HINES","Address":"3741 Douglas Blvd","City":"Roseville","State":"CA","Zip":"95661"},{"Location":"HINES","Address":"3721 Douglas Blvd 348","City":"Roseville","State":"CA","Zip":"95661"},{"Location":"HOOPALA INC DBA GREAT CLIPS","Address":"8690 Sierra College Blvd 140","City":"Roseville","State":"CA","Zip":"95661"},{"Location":"HOUSE OF OLIVER","Address":"3992 Douglas Blvd 140","City":"Roseville","State":"CA","Zip":"95661"},{"Location":"IRON GRILL","Address":"2030 Douglas Blvd 20","City":"Roseville","State":"CA","Zip":"95661"},{"Location":"ISLANDS RESTAURANT #051","Address":"1902 Taylor Rd","City":"Roseville","State":"CA","Zip":"95661"},{"Location":"JASPER RIDGE PARTNERS LP","Address":"3721 Douglas Blvd 340","City":"Roseville","State":"CA","Zip":"95661"},{"Location":"JOHN L SULLIVAN CHEVROLET","Address":"700 Automall Dr","City":"Roseville","State":"CA","Zip":"95661"},{"Location":"JOHN'S INCREDIBLE PIZZA","Address":"384 N Sunrise Ave","City":"Roseville","State":"CA","Zip":"95661"},{"Location":"KIRBEY RAMSEY LEASING","Address":"1850 Sierra Gardens Dr","City":"Roseville","State":"CA","Zip":"95661"},{"Location":"LAFLER MOORE & WEBB","Address":"2237 Douglas Blvd 140","City":"Roseville","State":"CA","Zip":"95661"},{"Location":"LIFETIME FITNESS","Address":"1435 E Roseville Pkwy","City":"Roseville","State":"CA","Zip":"95661"},{"Location":"LORENZOS MEXICAN FOOD","Address":"135 Sunrise Ave","City":"Roseville","State":"CA","Zip":"95661"},{"Location":"MACARONI GRILL #1078","Address":"2010 Douglas Blvd","City":"Roseville","State":"CA","Zip":"95661"},{"Location":"MANN URRUTIA NELSON","Address":"2901 Douglas Blvd 290","City":"Roseville","State":"CA","Zip":"95661"},{"Location":"MARK HOLT DDS","Address":"1421 Secret Ravine Pkwy","City":"Roseville","State":"CA","Zip":"95661"},{"Location":"MASSMUTUAL AGENCY 100","Address":"3721 Douglas Blvd","City":"Roseville","State":"CA","Zip":"95661"},{"Location":"MEDICAL VISION TECHNOLOGY 2","Address":"1830 Sierra Gardens Dr 100","City":"Roseville","State":"CA","Zip":"95661"},{"Location":"MERRILL LYNCH CA2-507-03-01","Address":"3200 Douglas Blvd 310","City":"Roseville","State":"CA","Zip":"95661"},{"Location":"MORGAN STANLEY 100171","Address":"1478 Stone Point Dr 500","City":"Roseville","State":"CA","Zip":"95661"},{"Location":"MR PICKLES SANDWICH SHOP","Address":"970 Sunrise Ave 160","City":"Roseville","State":"CA","Zip":"95661"},{"Location":"NEW THAI KITCHEN","Address":"1465 Eureka Rd 140","City":"Roseville","State":"CA","Zip":"95661"},{"Location":"NIELO ACURA","Address":"150 Automall Dr","City":"Roseville","State":"CA","Zip":"95661"},{"Location":"NORCAL HYPERBARICS","Address":"333 Sunrise Ave 890","City":"Roseville","State":"CA","Zip":"95661"},{"Location":"NORQUIST SALVAGE CORP.","Address":"2151 Professional Dr 200","City":"Roseville","State":"CA","Zip":"95661"},{"Location":"NORTH VALLEY BANK","Address":"2999 Douglas Blvd 160","City":"Roseville","State":"CA","Zip":"95661"},{"Location":"OUTBACK STEAKHOUSE #0521","Address":"181 N Sunrise Ave","City":"Roseville","State":"CA","Zip":"95661"},{"Location":"PALMER CAPITAL%2C INC","Address":"1478 Stone Point Dr 250","City":"Roseville","State":"CA","Zip":"95661"},{"Location":"PARAMOUNT EQUITY","Address":"8781 Sierra College Blvd","City":"Roseville","State":"CA","Zip":"95661"},{"Location":"PAUL MARTIN'S AMERICAN BISTRO","Address":"1455 Eureka Rd 100","City":"Roseville","State":"CA","Zip":"95661"},{"Location":"PHOENICIAN LLC","Address":"1501 Secret Ravine Pkwy","City":"Roseville","State":"CA","Zip":"95661"},{"Location":"PINE CREEK CARE CENTER","Address":"1139 Cirby Way","City":"Roseville","State":"CA","Zip":"95661"},{"Location":"PLACER TITLE CO","Address":"1508 Eureka Rd 150","City":"Roseville","State":"CA","Zip":"95661"},{"Location":"PROF SOLUTIONS GROUP","Address":"9257 Sierra College Blvd B","City":"Roseville","State":"CA","Zip":"95661"},{"Location":"RADIOLOGICAL ASSOC","Address":"1640 E Roseville Pkwy","City":"Roseville","State":"CA","Zip":"95661"},{"Location":"RADIOLOGICAL ASSOC","Address":"1880 Sierra Gardens Dr 200","City":"Roseville","State":"CA","Zip":"95661"},{"Location":"RADIOLOGICAL ASSOC","Address":"1680 E Roseville Pkwy 100","City":"Roseville","State":"CA","Zip":"95661"},{"Location":"RICK HAIR CUTTERS","Address":"1825 Douglas Blvd E4","City":"Roseville","State":"CA","Zip":"95661"},{"Location":"ROGERS JEWELRY","Address":"9217 Sierra College Blvd","City":"Roseville","State":"CA","Zip":"95661"},{"Location":"ROSEVILLE CARWASH","Address":"808 Sunrise Ave","City":"Roseville","State":"CA","Zip":"95661"},{"Location":"ROSEVILLE DENTAL GROUP","Address":"1441 Secret Ravine Pkwy 100","City":"Roseville","State":"CA","Zip":"95661"},{"Location":"ROSEVILLE GOLFLAND","Address":"1893 Taylor Rd","City":"Roseville","State":"CA","Zip":"95661"},{"Location":"ROSEVILLE HEALTH & WELLNESS","Address":"1650 Lead Hill Blvd","City":"Roseville","State":"CA","Zip":"95661"},{"Location":"ROSEVILLE MEDICAL CENTER","Address":"1 Medical Plaza Dr","City":"Roseville","State":"CA","Zip":"95661"},{"Location":"ROSEVILLE POINT","Address":"600 Sunrise Ave","City":"Roseville","State":"CA","Zip":"95661"},{"Location":"ROSEVILLE SPORTS GRILL","Address":"106 N Sunrise Ave B5","City":"Roseville","State":"CA","Zip":"95661"},{"Location":"ROUND TABLE PIZZA #620","Address":"8755 Sierra College Blvd A","City":"Roseville","State":"CA","Zip":"95661"},{"Location":"RUDOLPH AND SLETTEN INC","Address":"1504 Eureka Rd 200","City":"Roseville","State":"CA","Zip":"95661"},{"Location":"SACRAMENTO INFINITI","Address":"800 Automall Dr","City":"Roseville","State":"CA","Zip":"95661"},{"Location":"SCORBOARD PIZZA AND GRILL","Address":"9260 Sierra College Blvd 600","City":"Roseville","State":"CA","Zip":"95661"},{"Location":"SCOTTRADE M04","Address":"1850 Douglas Blvd 902","City":"Roseville","State":"CA","Zip":"95661"},{"Location":"SEEDS CONSULTING","Address":"2540 Douglas Blvd 100","City":"Roseville","State":"CA","Zip":"95661"},{"Location":"SIERRA REGENCY","Address":"1015 Madden Ln","City":"Roseville","State":"CA","Zip":"95661"},{"Location":"SIZZLER 897","Address":"1850 Douglas Blvd D","City":"Roseville","State":"CA","Zip":"95661"},{"Location":"SKATETOWN","Address":"1009 Orlando Ave","City":"Roseville","State":"CA","Zip":"95661"},{"Location":"SMITH MOTTINI FINANCIAL ADVISO","Address":"2520 Douglas Blvd 110","City":"Roseville","State":"CA","Zip":"95661"},{"Location":"SOMERFORD PLACE","Address":"110 Sterling Ct 304","City":"Roseville","State":"CA","Zip":"95661"},{"Location":"SPORTS PAGE RESTURANT AND BAR","Address":"1595 Eureka Rd","City":"Roseville","State":"CA","Zip":"95661"},{"Location":"STADJUHAR WEALTH STRATEGISTS","Address":"1420 Rocky Ridge Dr","City":"Roseville","State":"CA","Zip":"95661"},{"Location":"STAND FORT CLEANERS","Address":"1801 Cirby Way 5","City":"Roseville","State":"CA","Zip":"95661"},{"Location":"STUDIO 55 SALON ROSEVILLE","Address":"1426 E Roseville Pkwy C100","City":"Roseville","State":"CA","Zip":"95661"},{"Location":"SUSUMU JAPANESE STEAKHOUSE","Address":"1811 Douglas Blvd A1","City":"Roseville","State":"CA","Zip":"95661"},{"Location":"SUTTER ROSEVILLE AND ENDOSCOPY","Address":"4 Medical Plaza Dr 210","City":"Roseville","State":"CA","Zip":"95661"},{"Location":"SUTTER ROSEVILLE MEDICAL CNTR.","Address":"1 Medical Plaza Dr","City":"Roseville","State":"CA","Zip":"95661"},{"Location":"SUTTER ROSEVILLE MEDICAL STAFF","Address":"1 Medical Plaza Dr","City":"Roseville","State":"CA","Zip":"95661"},{"Location":"SUTTER ROSEVILLE SURGARY CENTE","Address":"4 Medical Plaza Dr","City":"Roseville","State":"CA","Zip":"95661"},{"Location":"SUTTER SLEEP DISORDER CENTER","Address":"1411 Secret Ravine Pkwy 150","City":"Roseville","State":"CA","Zip":"95661"},{"Location":"TARGET","Address":"1925 Douglas Blvd","City":"Roseville","State":"CA","Zip":"95661"},{"Location":"THAI BASIL","Address":"1613 Douglas Blvd","City":"Roseville","State":"CA","Zip":"95661"},{"Location":"THE HEADGAME","Address":"1485 Eureka Rd 140","City":"Roseville","State":"CA","Zip":"95661"},{"Location":"THE MENS ROOM","Address":"2310 Professional Dr","City":"Roseville","State":"CA","Zip":"95661"},{"Location":"TOWNE SCHERER PWM","Address":"2520 Douglas Blvd","City":"Roseville","State":"CA","Zip":"95661"},{"Location":"TRADEMARK PIZZA COMPANY","Address":"1485 Eureka Rd 150","City":"Roseville","State":"CA","Zip":"95661"},{"Location":"TRAUMA MEDICAL GROUP OF ROSEVI","Address":"1 Medical Plaza Dr","City":"Roseville","State":"CA","Zip":"95661"},{"Location":"UFCW LOCAL 588","Address":"2200 Professional Dr 100","City":"Roseville","State":"CA","Zip":"95661"},{"Location":"UNITED DOMESTIC WORKERS","Address":"800 Sunrise Ave C","City":"Roseville","State":"CA","Zip":"95661"},{"Location":"US CRYPTHERAPY","Address":"8200 Sierra College Blvd","City":"Roseville","State":"CA","Zip":"95661"},{"Location":"VALIC","Address":"2901 Douglas Blvd 150","City":"Roseville","State":"CA","Zip":"95661"},{"Location":"VARIS","Address":"9245 Sierra College Blvd","City":"Roseville","State":"CA","Zip":"95661"},{"Location":"VILLAGE RV","Address":"1039 Orlando Ave","City":"Roseville","State":"CA","Zip":"95661"},{"Location":"WASABII","Address":"1470 Eureka Rd 170","City":"Roseville","State":"CA","Zip":"95661"},{"Location":"WILLOWROCK GROUP","Address":"1821 Douglas Blvd C8","City":"Roseville","State":"CA","Zip":"95661"}]