[{"Location":"PEREZ","Address":"9486 Main","City":"Plymoth","State":"CA","Zip":"95669"},{"Location":"COLINA DE ORO","Address":"17810 State Highway 49","City":"Plymouth","State":"CA","Zip":"95669"},{"Location":"MARLENE  GLENS DINER","Address":"18726 State Highway 49","City":"Plymouth","State":"CA","Zip":"95669"},{"Location":"RENWOOD WINERY","Address":"12225 Steiner Rd","City":"Plymouth","State":"CA","Zip":"95669"},{"Location":"THE WINERY","Address":"11000 Shenandoah Rd","City":"Plymouth","State":"CA","Zip":"95669"},{"Location":"PEREZ","Address":"9486 Main","City":"Plymoth","State":"CA","Zip":"95669"},{"Location":"COLINA DE ORO","Address":"17810 State Highway 49","City":"Plymouth","State":"CA","Zip":"95669"},{"Location":"MARLENE  GLENS DINER","Address":"18726 State Highway 49","City":"Plymouth","State":"CA","Zip":"95669"},{"Location":"RENWOOD WINERY","Address":"12225 Steiner Rd","City":"Plymouth","State":"CA","Zip":"95669"},{"Location":"THE WINERY","Address":"11000 Shenandoah Rd","City":"Plymouth","State":"CA","Zip":"95669"}]