[{"Location":"","Address":"8273 Hazelhurst Ct","City":"Orangevale","State":"CA","Zip":"95662"},{"Location":"ASHLEYS COUNTRY KITCHEN","Address":"9411 Madison Ave","City":"Orangevale","State":"CA","Zip":"95662"},{"Location":"BLACK STALION LOUNG","Address":"9353 Greenback Ln","City":"Orangevale","State":"CA","Zip":"95662"},{"Location":"BLARNEY STONE IRISH PUB","Address":"8906 Greenback Ln","City":"Orangevale","State":"CA","Zip":"95662"},{"Location":"CALIBER COLLISION INC","Address":"9439 Greenback Ln","City":"Orangevale","State":"CA","Zip":"95662"},{"Location":"CALIFORNIA FAMILY FITNES","Address":"8680 Greenback Ln 108","City":"Orangevale","State":"CA","Zip":"95662"},{"Location":"CHATEAU CLAIR","Address":"7121 Main Ave","City":"Orangevale","State":"CA","Zip":"95662"},{"Location":"ENM ENTERPRISES","Address":"7125 Main Ave","City":"Orangevale","State":"CA","Zip":"95662"},{"Location":"ENM ENTERPRISES","Address":"7117 Main Ave","City":"Orangevale","State":"CA","Zip":"95662"},{"Location":"EURO   CYCLES","Address":"6321 Main Ave G","City":"Orangevale","State":"CA","Zip":"95662"},{"Location":"L & M LIQUOR","Address":"8836 Greenback Ln A","City":"Orangevale","State":"CA","Zip":"95662"},{"Location":"ORANGEVALE WATER","Address":"9031 Central Ave","City":"Orangevale","State":"CA","Zip":"95662"},{"Location":"RON ENGLE K CLUB ACADEMY","Address":"6326 Main Ave 9","City":"Orangevale","State":"CA","Zip":"95662"},{"Location":"S AND J MOTORCYCLE","Address":"6321 Main Ave C2","City":"Orangevale","State":"CA","Zip":"95662"},{"Location":"STROBELLIS","Address":"9372 Madison Ave 6","City":"Orangevale","State":"CA","Zip":"95662"},{"Location":"TONNOS SPORTS BAR&GRILL","Address":"9267 Greenback Ln","City":"Orangevale","State":"CA","Zip":"95662"},{"Location":"","Address":"8273 Hazelhurst Ct","City":"Orangevale","State":"CA","Zip":"95662"},{"Location":"ASHLEYS COUNTRY KITCHEN","Address":"9411 Madison Ave","City":"Orangevale","State":"CA","Zip":"95662"},{"Location":"BLACK STALION LOUNG","Address":"9353 Greenback Ln","City":"Orangevale","State":"CA","Zip":"95662"},{"Location":"BLARNEY STONE IRISH PUB","Address":"8906 Greenback Ln","City":"Orangevale","State":"CA","Zip":"95662"},{"Location":"CALIBER COLLISION INC","Address":"9439 Greenback Ln","City":"Orangevale","State":"CA","Zip":"95662"},{"Location":"CALIFORNIA FAMILY FITNES","Address":"8680 Greenback Ln 108","City":"Orangevale","State":"CA","Zip":"95662"},{"Location":"CHATEAU CLAIR","Address":"7121 Main Ave","City":"Orangevale","State":"CA","Zip":"95662"},{"Location":"ENM ENTERPRISES","Address":"7125 Main Ave","City":"Orangevale","State":"CA","Zip":"95662"},{"Location":"ENM ENTERPRISES","Address":"7117 Main Ave","City":"Orangevale","State":"CA","Zip":"95662"},{"Location":"EURO   CYCLES","Address":"6321 Main Ave G","City":"Orangevale","State":"CA","Zip":"95662"},{"Location":"L & M LIQUOR","Address":"8836 Greenback Ln A","City":"Orangevale","State":"CA","Zip":"95662"},{"Location":"ORANGEVALE WATER","Address":"9031 Central Ave","City":"Orangevale","State":"CA","Zip":"95662"},{"Location":"RON ENGLE K CLUB ACADEMY","Address":"6326 Main Ave 9","City":"Orangevale","State":"CA","Zip":"95662"},{"Location":"S AND J MOTORCYCLE","Address":"6321 Main Ave C2","City":"Orangevale","State":"CA","Zip":"95662"},{"Location":"STROBELLIS","Address":"9372 Madison Ave 6","City":"Orangevale","State":"CA","Zip":"95662"},{"Location":"TONNOS SPORTS BAR&GRILL","Address":"9267 Greenback Ln","City":"Orangevale","State":"CA","Zip":"95662"}]