[{"Location":"ARTISTS NAILS & HAIR","Address":"5730 Watt Ave","City":"North Highlands","State":"CA","Zip":"95660"},{"Location":"DAVITA #279-1C N HIGHLAND","Address":"4612 Roseville Rd 100","City":"North Highlands","State":"CA","Zip":"95660"},{"Location":"EL MALECON TAQUERIA","Address":"4236 Madison Ave","City":"North Highlands","State":"CA","Zip":"95660"},{"Location":"FIRESTONE #021156","Address":"4637 Watt Ave","City":"North Highlands","State":"CA","Zip":"95660"},{"Location":"HARVEY'S TAVERN","Address":"5639 Lura Way","City":"North Highlands","State":"CA","Zip":"95660"},{"Location":"HD SUPPLY","Address":"3390 Winona Way","City":"North Highlands","State":"CA","Zip":"95660"},{"Location":"HEALTHY FAMILIES","Address":"3613 Plymouth Dr","City":"North Highlands","State":"CA","Zip":"95660"},{"Location":"HIBACHI GRILL SUSHI","Address":"7517 Watt Ave","City":"North Highlands","State":"CA","Zip":"95660"},{"Location":"HIGHER FASHIONS","Address":"5907 Watt Ave","City":"North Highlands","State":"CA","Zip":"95660"},{"Location":"HOUSE OF THAI","Address":"5738 Watt Ave","City":"North Highlands","State":"CA","Zip":"95660"},{"Location":"MADISON SMOG CHECK","Address":"3615 Madison Ave A","City":"North Highlands","State":"CA","Zip":"95660"},{"Location":"MISSION COURIER","Address":"3204 Orange Grove Ave","City":"North Highlands","State":"CA","Zip":"95660"},{"Location":"PARAGON 1","Address":"6715 32nd St F","City":"North Highlands","State":"CA","Zip":"95660"},{"Location":"PEENOY VIDEO MARKET","Address":"5601 Watt Ave 3","City":"North Highlands","State":"CA","Zip":"95660"},{"Location":"PIT STOP BBQ","Address":"3515 Mcclellan Dr","City":"North Highlands","State":"CA","Zip":"95660"},{"Location":"PIZZA HUT #23883","Address":"4981 Watt Ave 300","City":"North Highlands","State":"CA","Zip":"95660"},{"Location":"PLANNED PARENTHOOD","Address":"5700 Watt Ave","City":"North Highlands","State":"CA","Zip":"95660"},{"Location":"POPEYES CHICKEN","Address":"6631 Watt Ave","City":"North Highlands","State":"CA","Zip":"95660"},{"Location":"PRO NAILS","Address":"6145 Watt Ave","City":"North Highlands","State":"CA","Zip":"95660"},{"Location":"ARTISTS NAILS & HAIR","Address":"5730 Watt Ave","City":"North Highlands","State":"CA","Zip":"95660"},{"Location":"DAVITA #279-1C N HIGHLAND","Address":"4612 Roseville Rd 100","City":"North Highlands","State":"CA","Zip":"95660"},{"Location":"EL MALECON TAQUERIA","Address":"4236 Madison Ave","City":"North Highlands","State":"CA","Zip":"95660"},{"Location":"FIRESTONE #021156","Address":"4637 Watt Ave","City":"North Highlands","State":"CA","Zip":"95660"},{"Location":"HARVEY'S TAVERN","Address":"5639 Lura Way","City":"North Highlands","State":"CA","Zip":"95660"},{"Location":"HD SUPPLY","Address":"3390 Winona Way","City":"North Highlands","State":"CA","Zip":"95660"},{"Location":"HEALTHY FAMILIES","Address":"3613 Plymouth Dr","City":"North Highlands","State":"CA","Zip":"95660"},{"Location":"HIBACHI GRILL SUSHI","Address":"7517 Watt Ave","City":"North Highlands","State":"CA","Zip":"95660"},{"Location":"HIGHER FASHIONS","Address":"5907 Watt Ave","City":"North Highlands","State":"CA","Zip":"95660"},{"Location":"HOUSE OF THAI","Address":"5738 Watt Ave","City":"North Highlands","State":"CA","Zip":"95660"},{"Location":"MADISON SMOG CHECK","Address":"3615 Madison Ave A","City":"North Highlands","State":"CA","Zip":"95660"},{"Location":"MISSION COURIER","Address":"3204 Orange Grove Ave","City":"North Highlands","State":"CA","Zip":"95660"},{"Location":"PARAGON 1","Address":"6715 32nd St F","City":"North Highlands","State":"CA","Zip":"95660"},{"Location":"PEENOY VIDEO MARKET","Address":"5601 Watt Ave 3","City":"North Highlands","State":"CA","Zip":"95660"},{"Location":"PIT STOP BBQ","Address":"3515 Mcclellan Dr","City":"North Highlands","State":"CA","Zip":"95660"},{"Location":"PIZZA HUT #23883","Address":"4981 Watt Ave 300","City":"North Highlands","State":"CA","Zip":"95660"},{"Location":"PLANNED PARENTHOOD","Address":"5700 Watt Ave","City":"North Highlands","State":"CA","Zip":"95660"},{"Location":"POPEYES CHICKEN","Address":"6631 Watt Ave","City":"North Highlands","State":"CA","Zip":"95660"},{"Location":"PRO NAILS","Address":"6145 Watt Ave","City":"North Highlands","State":"CA","Zip":"95660"}]