[{"Location":"5306227500","Address":"251 Main St","City":"Placerville","State":"CA","Zip":"95667"},{"Location":"A BETTER RECEPTION","Address":"4220 Savage Rd","City":"Placerville","State":"CA","Zip":"95667"},{"Location":"ALADDIN BB DEPT 824","Address":"279 Placerville Dr D","City":"Placerville","State":"CA","Zip":"95667"},{"Location":"ALS COFFEE SHOP STOP","Address":"2530 Pleasant Valley Rd","City":"Placerville","State":"CA","Zip":"95667"},{"Location":"AMERICAN LEGION","Address":"4561 Greenstone Rd","City":"Placerville","State":"CA","Zip":"95667"},{"Location":"AMERIKAN ICHI 1","Address":"1234 Broadway A","City":"Placerville","State":"CA","Zip":"95667"},{"Location":"ANYTIME FITNESS PLACERVILLE","Address":"3970 Missouri Flat Rd I","City":"Placerville","State":"CA","Zip":"95667"},{"Location":"BURGER PHYSICAL THERAPY","Address":"3975 Missouri Flat Rd 220","City":"Placerville","State":"CA","Zip":"95667"},{"Location":"CALIFORNIA HIGHWAY PATROL","Address":"3631 Lohi Way","City":"Placerville","State":"CA","Zip":"95667"},{"Location":"DANETTES BRICK OVEN PUB","Address":"2875 Ray Lawyer Dr","City":"Placerville","State":"CA","Zip":"95667"},{"Location":"EL DORADO SAVINGS BANK","Address":"4040 El Dorado Rd","City":"Placerville","State":"CA","Zip":"95667"},{"Location":"ESKETON VILLAGE","Address":"3397 Blairs Ln","City":"Placerville","State":"CA","Zip":"95667"},{"Location":"FACIAL PLASTIC COSMETIC SURGER","Address":"4300 Golden Center Dr D","City":"Placerville","State":"CA","Zip":"95667"},{"Location":"FERGUSON #0610","Address":"2850 Cold Springs Rd","City":"Placerville","State":"CA","Zip":"95667"},{"Location":"GROCERY OUTLET","Address":"1426 Broadway","City":"Placerville","State":"CA","Zip":"95667"},{"Location":"HIDDEN SPRINGS CLUBHOUSE","Address":"2760 Cold Springs Rd","City":"Placerville","State":"CA","Zip":"95667"},{"Location":"HOG WILD BAR B QUE","Address":"38 Main St","City":"Placerville","State":"CA","Zip":"95667"},{"Location":"JAMES R BAEHNE","Address":"460 Main St","City":"Placerville","State":"CA","Zip":"95667"},{"Location":"JOE VICINI INC","Address":"315 Placerville Dr","City":"Placerville","State":"CA","Zip":"95667"},{"Location":"MARSHALL MEDICAL CENTER","Address":"4300 Golden Center Dr C","City":"Placerville","State":"CA","Zip":"95667"},{"Location":"MARSHALL MEDICAL CENTER","Address":"1100 Marshall Way","City":"Placerville","State":"CA","Zip":"95667"},{"Location":"MC NAIL SALON","Address":"79 Fair Ln","City":"Placerville","State":"CA","Zip":"95667"},{"Location":"MDRZ GHABEN PLACERVILLE","Address":"232 Main St","City":"Placerville","State":"CA","Zip":"95667"},{"Location":"MIKES GRILL","Address":"1772 Pleasant Valley Rd","City":"Placerville","State":"CA","Zip":"95667"},{"Location":"PACIFIC DENTAL #411","Address":"3967 Missouri Flat Rd 120","City":"Placerville","State":"CA","Zip":"95667"},{"Location":"PG AND E","Address":"4636 Missouri Flat Rd","City":"Placerville","State":"CA","Zip":"95667"},{"Location":"PLACERVILLE BREWING CO","Address":"155 Placerville Dr","City":"Placerville","State":"CA","Zip":"95667"},{"Location":"PLEASANT VALLEY PIZZA INC","Address":"4570 Pleasant Valley Rd","City":"Placerville","State":"CA","Zip":"95667"},{"Location":"RANCHO CONVENIECE CENTER","Address":"3023 Forni Rd","City":"Placerville","State":"CA","Zip":"95667"},{"Location":"RED HAWK CASINO","Address":"1 Red Hawk Pkwy","City":"Placerville","State":"CA","Zip":"95667"},{"Location":"RICE MEDICAL GROUP","Address":"4300 Golden Center Dr Da","City":"Placerville","State":"CA","Zip":"95667"},{"Location":"RIEBE AUTO PARTS","Address":"2885 Ray Lawyer Dr","City":"Placerville","State":"CA","Zip":"95667"},{"Location":"ROUND TABLE #14","Address":"3975 Missouri Flat Rd 240","City":"Placerville","State":"CA","Zip":"95667"},{"Location":"SNAP FITNESS DEVELOPMENT LLC","Address":"1248 Broadway","City":"Placerville","State":"CA","Zip":"95667"},{"Location":"SS BAND OF MIWOK INDIANS","Address":"516 Honpie Ct","City":"Placerville","State":"CA","Zip":"95667"},{"Location":"SS BAND OF MIWOK INDIANS2","Address":"5281 Honpie Rd","City":"Placerville","State":"CA","Zip":"95667"},{"Location":"SWEET SCORE YOUGURT AND","Address":"4370 Golden Center Dr","City":"Placerville","State":"CA","Zip":"95667"},{"Location":"TAHOE TURNING POINT","Address":"497 Canal St","City":"Placerville","State":"CA","Zip":"95667"},{"Location":"TORTILLA FLATS","Address":"564 Main St","City":"Placerville","State":"CA","Zip":"95667"}]