[{"Location":"2H %40 BUNZ & COMPANY","Address":"311 Judah St","City":"Roseville","State":"CA","Zip":"95678"},{"Location":"ABBEYHILL ENTERPRISE INC","Address":"701 Pleasant Grove Blvd","City":"Roseville","State":"CA","Zip":"95678"},{"Location":"ABUNDANT LIFE FELLOWSHI2","Address":"702 Atlantic St","City":"Roseville","State":"CA","Zip":"95678"},{"Location":"ABUNDANT LIFE FELLOWSHIP","Address":"712 Atlantic St","City":"Roseville","State":"CA","Zip":"95678"},{"Location":"ACE DENTAL","Address":"1070 Pleasant Grove Blvd","City":"Roseville","State":"CA","Zip":"95678"},{"Location":"ALMOND TREE GRILL & LOUN","Address":"214 Harding Blvd","City":"Roseville","State":"CA","Zip":"95678"},{"Location":"ARIGATO SUSHI","Address":"1136 Galleria Blvd 150","City":"Roseville","State":"CA","Zip":"95678"},{"Location":"ASHBY COMMUNICATIONS","Address":"10642 Industrial Ave 120","City":"Roseville","State":"CA","Zip":"95678"},{"Location":"ASIAN BLOSSOM","Address":"1220 Roseville Pkwy 140","City":"Roseville","State":"CA","Zip":"95678"},{"Location":"ATLANTIC STREET VET HOSPITAL","Address":"1100 Atlantic St","City":"Roseville","State":"CA","Zip":"95678"},{"Location":"B AND L  AUTO DECOR","Address":"7641 Galilee Rd 150","City":"Roseville","State":"CA","Zip":"95678"},{"Location":"BASSETT FURNITURE","Address":"9200 Fairway Dr","City":"Roseville","State":"CA","Zip":"95678"},{"Location":"BJS RESTAURANT #436","Address":"1200 Roseville Pkwy","City":"Roseville","State":"CA","Zip":"95678"},{"Location":"BLOOD SOURCE","Address":"10529 Fairway Dr","City":"Roseville","State":"CA","Zip":"95678"},{"Location":"BUCA DI BEPPO #515","Address":"1212 Galleria Blvd","City":"Roseville","State":"CA","Zip":"95678"},{"Location":"CAFE DELICIAS","Address":"211 Harding Blvd","City":"Roseville","State":"CA","Zip":"95678"},{"Location":"CAROLINA RESTAURANT","Address":"1012 Douglas Blvd","City":"Roseville","State":"CA","Zip":"95678"},{"Location":"CATTLEMENS ROSEVILLE","Address":"2000 Taylor Rd","City":"Roseville","State":"CA","Zip":"95678"},{"Location":"CBD APPLIANCE","Address":"6756 Stanford Ranch Rd","City":"Roseville","State":"CA","Zip":"95678"},{"Location":"CEO HOLDINGS LLC","Address":"919 Reserve Dr 101","City":"Roseville","State":"CA","Zip":"95678"},{"Location":"CHILI'S #1229","Address":"10585 Fairway Dr","City":"Roseville","State":"CA","Zip":"95678"},{"Location":"CLAIM JUMPER #27","Address":"250 Harding Blvd","City":"Roseville","State":"CA","Zip":"95678"},{"Location":"CROTOP NAILS","Address":"1020 Pleasant Grove Blvd 40","City":"Roseville","State":"CA","Zip":"95678"},{"Location":"DAVE AND BUSTER'S #60","Address":"1174 Roseville Pkwy","City":"Roseville","State":"CA","Zip":"95678"},{"Location":"EARLY TOAST BREAKFAST","Address":"761 Pleasant Grove Blvd","City":"Roseville","State":"CA","Zip":"95678"},{"Location":"EMULEX 1","Address":"532 Gibson Dr 200","City":"Roseville","State":"CA","Zip":"95678"},{"Location":"ETRADE FINANCIAL","Address":"950 Highland Pointe Dr 100","City":"Roseville","State":"CA","Zip":"95678"},{"Location":"FAIRWAY  CARWASH","Address":"9110 Fairway Dr","City":"Roseville","State":"CA","Zip":"95678"},{"Location":"FAST FREDDIES PIZZA","Address":"130 Main St","City":"Roseville","State":"CA","Zip":"95678"},{"Location":"FIDELITY INVESTMENTS 174","Address":"1220 Roseville Pkwy","City":"Roseville","State":"CA","Zip":"95678"},{"Location":"FIRESTONE #017663","Address":"8051 Washington Blvd","City":"Roseville","State":"CA","Zip":"95678"},{"Location":"FLAME AND FIRE","Address":"963 Pleasant Grove Blvd","City":"Roseville","State":"CA","Zip":"95678"},{"Location":"FLINTCO CONSTRUCTIVE SOLUTIONS","Address":"401 Derek Pl","City":"Roseville","State":"CA","Zip":"95678"},{"Location":"FMC 71640000","Address":"218 Harding Blvd","City":"Roseville","State":"CA","Zip":"95678"},{"Location":"FOUR SISTERS CAFE","Address":"9050 Fairway Dr 165","City":"Roseville","State":"CA","Zip":"95678"},{"Location":"GOLDEN STATE COLLISION","Address":"841 Galleria Blvd","City":"Roseville","State":"CA","Zip":"95678"},{"Location":"GOLF GALAXY 3080","Address":"5771 Five Star Blvd","City":"Roseville","State":"CA","Zip":"95678"},{"Location":"GORDON BIERSCH ROSEVILLE #4621","Address":"1151 Galleria Blvd 2542","City":"Roseville","State":"CA","Zip":"95678"},{"Location":"GRANITES","Address":"973 Pleasant Grove Blvd 100","City":"Roseville","State":"CA","Zip":"95678"},{"Location":"GUCHI INTERIOR","Address":"10050 Fairway Dr 100","City":"Roseville","State":"CA","Zip":"95678"},{"Location":"HAYES AUTO SALES","Address":"119 Riverside Ave","City":"Roseville","State":"CA","Zip":"95678"},{"Location":"IL FORNAIO ROSEVILLE","Address":"1179 Galleria Blvd","City":"Roseville","State":"CA","Zip":"95678"},{"Location":"J AND J BODY SHOP","Address":"50 Darling Way","City":"Roseville","State":"CA","Zip":"95678"},{"Location":"JKB FINANCIAL INC","Address":"970 Reserve Dr 201","City":"Roseville","State":"CA","Zip":"95678"},{"Location":"JUST BETTER CARS COM","Address":"901 Riverside Ave","City":"Roseville","State":"CA","Zip":"95678"},{"Location":"JUST KICKING IT SPORTS BAR","Address":"229 Riverside Ave","City":"Roseville","State":"CA","Zip":"95678"},{"Location":"JUSTINS ROSEVILLE CARWASH","Address":"8011 Washington Blvd","City":"Roseville","State":"CA","Zip":"95678"},{"Location":"KRUSHBURGER","Address":"1151 Galleria Blvd","City":"Roseville","State":"CA","Zip":"95678"},{"Location":"MACY'S WEST 408 BR","Address":"1197 Galleria Blvd","City":"Roseville","State":"CA","Zip":"95678"},{"Location":"MACY'S WEST 415","Address":"1152 Galleria Blvd","City":"Roseville","State":"CA","Zip":"95678"},{"Location":"MACY'S WEST 415 BR","Address":"1152 Galleria Blvd","City":"Roseville","State":"CA","Zip":"95678"},{"Location":"MARY'S PIZZA SHACK ROSEVILLE","Address":"711 Pleasant Grove Blvd","City":"Roseville","State":"CA","Zip":"95678"},{"Location":"MEN'S WEARHOUSE #2270","Address":"1224 Galleria Blvd","City":"Roseville","State":"CA","Zip":"95678"},{"Location":"MOTHERS WORK INC","Address":"1151 Galleria Blvd","City":"Roseville","State":"CA","Zip":"95678"},{"Location":"MR SPRINKLER FIRE PROT","Address":"100 Derek Pl","City":"Roseville","State":"CA","Zip":"95678"},{"Location":"NEW ERA 9223","Address":"1151 Galleria Blvd 258b","City":"Roseville","State":"CA","Zip":"95678"},{"Location":"NINJA SUSHI","Address":"963 Pleasant Grove Blvd 150","City":"Roseville","State":"CA","Zip":"95678"},{"Location":"NORDSTROM","Address":"1131 Galleria Blvd","City":"Roseville","State":"CA","Zip":"95678"},{"Location":"NORRCAL RECYCLING","Address":"800 Church St","City":"Roseville","State":"CA","Zip":"95678"},{"Location":"NYKA ENTERPRISES","Address":"101 Main St","City":"Roseville","State":"CA","Zip":"95678"},{"Location":"OLIVE GARDEN #1574","Address":"1160 Galleria Blvd","City":"Roseville","State":"CA","Zip":"95678"},{"Location":"ON THE BORDER #0522","Address":"1220 Galleria Blvd","City":"Roseville","State":"CA","Zip":"95678"},{"Location":"OPERA HOUSE SALOON","Address":"411 Lincoln St","City":"Roseville","State":"CA","Zip":"95678"},{"Location":"PACIFIC DENTAL #97","Address":"10357 Fairway Dr 100","City":"Roseville","State":"CA","Zip":"95678"},{"Location":"PACIFIC GAS AND ELECTRIC CO","Address":"126 E St A","City":"Roseville","State":"CA","Zip":"95678"},{"Location":"PACIFIC GAS AND ELECTRIC CO","Address":"126 E St B","City":"Roseville","State":"CA","Zip":"95678"},{"Location":"PARADISE LAUNDRY","Address":"500 Cirby Way B","City":"Roseville","State":"CA","Zip":"95678"},{"Location":"PERFECTO LOUNGE","Address":"973 Pleasant Grove Blvd 110","City":"Roseville","State":"CA","Zip":"95678"},{"Location":"PHO HANG","Address":"916 Pleasant Grove Blvd 150","City":"Roseville","State":"CA","Zip":"95678"},{"Location":"PIZZA HUT 029954","Address":"933 Pleasant Grove Blvd 130","City":"Roseville","State":"CA","Zip":"95678"},{"Location":"PLEASANT DENTAL","Address":"928 Pleasant Grove Blvd 100","City":"Roseville","State":"CA","Zip":"95678"},{"Location":"PROSERVE TEST MGT","Address":"2008 Opportunity Dr 140","City":"Roseville","State":"CA","Zip":"95678"},{"Location":"RED ROBIN #49","Address":"1184 Galleria Blvd 130","City":"Roseville","State":"CA","Zip":"95678"},{"Location":"ROSEVILLE MOOSE LODGE","Address":"506 Lincoln St","City":"Roseville","State":"CA","Zip":"95678"},{"Location":"ROSEVILLE PARK AND SELL","Address":"412 Washington Blvd A","City":"Roseville","State":"CA","Zip":"95678"},{"Location":"ROSEVILLE YAMAHA","Address":"2014 Taylor Rd","City":"Roseville","State":"CA","Zip":"95678"},{"Location":"ROUND TABLE PIZZA","Address":"1020 Pleasant Grove Blvd","City":"Roseville","State":"CA","Zip":"95678"},{"Location":"SABORES MEXICAN","Address":"10271 Fairway Dr 140","City":"Roseville","State":"CA","Zip":"95678"},{"Location":"SAFELITE GLASS CORP","Address":"610 Commerce Dr A","City":"Roseville","State":"CA","Zip":"95678"},{"Location":"SANDWICH SPOT ROSEVILLE","Address":"1010 Pleasant Grove Blvd 130","City":"Roseville","State":"CA","Zip":"95678"},{"Location":"SARI SARI ORIENTAL MARKET","Address":"203 Harding Blvd","City":"Roseville","State":"CA","Zip":"95678"},{"Location":"SEARS AUTO CENTER","Address":"1161 Galleria Blvd","City":"Roseville","State":"CA","Zip":"95678"},{"Location":"SEQUENCE SYSTEMS","Address":"2008 Opportunity Dr 150","City":"Roseville","State":"CA","Zip":"95678"},{"Location":"SEVEY  DONAHUE & TALCOT","Address":"990 Reserve Dr 105","City":"Roseville","State":"CA","Zip":"95678"},{"Location":"SIERRA GATE DENTAL","Address":"10 Sierra Gate Plz 130","City":"Roseville","State":"CA","Zip":"95678"},{"Location":"SINISTER DIESEL","Address":"2025 Opportunity Dr 1","City":"Roseville","State":"CA","Zip":"95678"},{"Location":"SMOG STOP","Address":"212 Harding Blvd Y","City":"Roseville","State":"CA","Zip":"95678"},{"Location":"SPORTS AUTHORITY 785","Address":"6740 Stanford Ranch Rd","City":"Roseville","State":"CA","Zip":"95678"},{"Location":"SUSHI UNLIMITED","Address":"9600 Fairway Dr 100","City":"Roseville","State":"CA","Zip":"95678"},{"Location":"SYSTECH DISPLAYS INC","Address":"10622 Industrial Ave","City":"Roseville","State":"CA","Zip":"95678"},{"Location":"TELECARE CORPORATION","Address":"101 Cirby Hills Dr","City":"Roseville","State":"CA","Zip":"95678"},{"Location":"TGI FRIDAY'S ROSEVILLE","Address":"1168 Galleria Blvd","City":"Roseville","State":"CA","Zip":"95678"},{"Location":"THE BOXING DONKEY IRISH","Address":"300 Lincoln St","City":"Roseville","State":"CA","Zip":"95678"},{"Location":"THE CHEESECAKE FACTORY 0140","Address":"1127 Galleria Blvd","City":"Roseville","State":"CA","Zip":"95678"},{"Location":"THE ONYX CLUB","Address":"116 Main St","City":"Roseville","State":"CA","Zip":"95678"},{"Location":"THE OWL CLUB","Address":"109 Church St","City":"Roseville","State":"CA","Zip":"95678"},{"Location":"THE PLACE","Address":"221 Vernon St","City":"Roseville","State":"CA","Zip":"95678"},{"Location":"THE RAIDER IMAGE","Address":"1151 Galleria Blvd","City":"Roseville","State":"CA","Zip":"95678"},{"Location":"THE TROCADERO CLUB","Address":"119 Church St","City":"Roseville","State":"CA","Zip":"95678"},{"Location":"THE UNION","Address":"112 Pacific St","City":"Roseville","State":"CA","Zip":"95678"},{"Location":"THE WEST HOUSE","Address":"347 Atlantic St","City":"Roseville","State":"CA","Zip":"95678"},{"Location":"TIRE KINGDOM B-4605","Address":"199 S Harding Blvd A","City":"Roseville","State":"CA","Zip":"95678"},{"Location":"TOP NOTCH AUTOBODY","Address":"10640 Industrial Ave","City":"Roseville","State":"CA","Zip":"95678"},{"Location":"TRI COUNTIES BANK","Address":"900 Pleasant Grove Blvd","City":"Roseville","State":"CA","Zip":"95678"},{"Location":"TRIPLE CROWN AUTO SALES","Address":"1001 Melody Ln","City":"Roseville","State":"CA","Zip":"95678"},{"Location":"WESTFILD GALLERIA AT ROSEVILLE","Address":"1173 Galleria Blvd P210b","City":"Roseville","State":"CA","Zip":"95678"},{"Location":"WHOLE FOOD MARKET","Address":"1001 Galleria Blvd","City":"Roseville","State":"CA","Zip":"95678"},{"Location":"WINGSTOP","Address":"10341 Fairway Dr","City":"Roseville","State":"CA","Zip":"95678"},{"Location":"YARD HOUSE 8331","Address":"1166 Roseville Pkwy","City":"Roseville","State":"CA","Zip":"95678"},{"Location":"ZOCALO","Address":"1182 Roseville Pkwy 110","City":"Roseville","State":"CA","Zip":"95678"}]