[{"Location":"BEACH HUT","Address":"6761 Stanford Ranch Rd","City":"Rocklin","State":"CA","Zip":"95677"},{"Location":"BIG DADDYS PIZZA","Address":"5514 Pacific St 100","City":"Rocklin","State":"CA","Zip":"95677"},{"Location":"BONESHAKER COMMUNITY BREWERY","Address":"4810 Granite Dr 1a","City":"Rocklin","State":"CA","Zip":"95677"},{"Location":"CAFE DELICIAS","Address":"5190 Pacific St","City":"Rocklin","State":"CA","Zip":"95677"},{"Location":"DIAMOND AUTO SPORTS","Address":"4445 Granite Dr","City":"Rocklin","State":"CA","Zip":"95677"},{"Location":"DICKEYS ROCKLIN","Address":"5406 Crossings Drive","City":"Rocklin","State":"CA","Zip":"95677"},{"Location":"DRAGAS BREWING INDUSTRIE","Address":"5860 Pacific St","City":"Rocklin","State":"CA","Zip":"95677"},{"Location":"EXECUTIVE MARKETING","Address":"2551 Warren Dr","City":"Rocklin","State":"CA","Zip":"95677"},{"Location":"FERGUSON #0608","Address":"4325 Dominguez Rd D","City":"Rocklin","State":"CA","Zip":"95677"},{"Location":"FMC 71680000","Address":"6000 Fairway Dr 14","City":"Rocklin","State":"CA","Zip":"95677"},{"Location":"FOSTER'S PUB","Address":"4451 Pacific St","City":"Rocklin","State":"CA","Zip":"95677"},{"Location":"GOODYEAR 9251","Address":"5470 Pacific St","City":"Rocklin","State":"CA","Zip":"95677"},{"Location":"IB CUSTOMS","Address":"5480 Pacific St","City":"Rocklin","State":"CA","Zip":"95677"},{"Location":"IN THE NET","Address":"2511 Warren Dr","City":"Rocklin","State":"CA","Zip":"95677"},{"Location":"JESS'S MEXICAN GRILL","Address":"5050 Rocklin Rd","City":"Rocklin","State":"CA","Zip":"95677"},{"Location":"KNIESELS AUTO CULLISON CENTER","Address":"4680 Pacific St","City":"Rocklin","State":"CA","Zip":"95677"},{"Location":"MERCEDES BENZ OF ROCKLIN","Address":"4747 Granite Dr","City":"Rocklin","State":"CA","Zip":"95677"},{"Location":"MOUNTAIN MIKES PIZZA","Address":"5505 Whitney Blvd 2f","City":"Rocklin","State":"CA","Zip":"95677"},{"Location":"ON THE ROAD TRUCK","Address":"6025 Pacific St","City":"Rocklin","State":"CA","Zip":"95677"},{"Location":"OUT OF BOUNDS BREWING COMPANY","Address":"4480 Yankee Hill Rd 100","City":"Rocklin","State":"CA","Zip":"95677"},{"Location":"PRIMO PIZZA BURGER & BREW","Address":"2600 Sunset Blvd 103","City":"Rocklin","State":"CA","Zip":"95677"},{"Location":"RJK INC.","Address":"4817 Granite Dr","City":"Rocklin","State":"CA","Zip":"95677"},{"Location":"ROAD SAFETY INC 2","Address":"4335 Pacific St","City":"Rocklin","State":"CA","Zip":"95677"},{"Location":"ROCKLAND FOREIGN CAR","Address":"4400 Granite Dr","City":"Rocklin","State":"CA","Zip":"95677"},{"Location":"ROCKLIN MODERN DENTISTRY #244","Address":"5182 Commons Dr 101","City":"Rocklin","State":"CA","Zip":"95677"},{"Location":"ROMO RESTAURANT GROUP LLC","Address":"5194 Commons Dr 110","City":"Rocklin","State":"CA","Zip":"95677"},{"Location":"STUDIO MOVIE GRILL","Address":"5140 Commons Dr","City":"Rocklin","State":"CA","Zip":"95677"},{"Location":"TAIGA BUILDING PRODUCTS","Address":"4385 Pacific St","City":"Rocklin","State":"CA","Zip":"95677"},{"Location":"WHY BUY NEW AUTOS.COM","Address":"4429 Granite Dr","City":"Rocklin","State":"CA","Zip":"95677"},{"Location":"BEACH HUT","Address":"6761 Stanford Ranch Rd","City":"Rocklin","State":"CA","Zip":"95677"},{"Location":"BIG DADDYS PIZZA","Address":"5514 Pacific St 100","City":"Rocklin","State":"CA","Zip":"95677"},{"Location":"BONESHAKER COMMUNITY BREWERY","Address":"4810 Granite Dr 1a","City":"Rocklin","State":"CA","Zip":"95677"},{"Location":"CAFE DELICIAS","Address":"5190 Pacific St","City":"Rocklin","State":"CA","Zip":"95677"},{"Location":"DIAMOND AUTO SPORTS","Address":"4445 Granite Dr","City":"Rocklin","State":"CA","Zip":"95677"},{"Location":"DICKEYS ROCKLIN","Address":"5406 Crossings Drive","City":"Rocklin","State":"CA","Zip":"95677"},{"Location":"DRAGAS BREWING INDUSTRIE","Address":"5860 Pacific St","City":"Rocklin","State":"CA","Zip":"95677"},{"Location":"EXECUTIVE MARKETING","Address":"2551 Warren Dr","City":"Rocklin","State":"CA","Zip":"95677"},{"Location":"FERGUSON #0608","Address":"4325 Dominguez Rd D","City":"Rocklin","State":"CA","Zip":"95677"},{"Location":"FMC 71680000","Address":"6000 Fairway Dr 14","City":"Rocklin","State":"CA","Zip":"95677"},{"Location":"FOSTER'S PUB","Address":"4451 Pacific St","City":"Rocklin","State":"CA","Zip":"95677"},{"Location":"GOODYEAR 9251","Address":"5470 Pacific St","City":"Rocklin","State":"CA","Zip":"95677"},{"Location":"IB CUSTOMS","Address":"5480 Pacific St","City":"Rocklin","State":"CA","Zip":"95677"},{"Location":"IN THE NET","Address":"2511 Warren Dr","City":"Rocklin","State":"CA","Zip":"95677"},{"Location":"JESS'S MEXICAN GRILL","Address":"5050 Rocklin Rd","City":"Rocklin","State":"CA","Zip":"95677"},{"Location":"KNIESELS AUTO CULLISON CENTER","Address":"4680 Pacific St","City":"Rocklin","State":"CA","Zip":"95677"},{"Location":"MERCEDES BENZ OF ROCKLIN","Address":"4747 Granite Dr","City":"Rocklin","State":"CA","Zip":"95677"},{"Location":"MOUNTAIN MIKES PIZZA","Address":"5505 Whitney Blvd 2f","City":"Rocklin","State":"CA","Zip":"95677"},{"Location":"ON THE ROAD TRUCK","Address":"6025 Pacific St","City":"Rocklin","State":"CA","Zip":"95677"},{"Location":"OUT OF BOUNDS BREWING COMPANY","Address":"4480 Yankee Hill Rd 100","City":"Rocklin","State":"CA","Zip":"95677"},{"Location":"PRIMO PIZZA BURGER & BREW","Address":"2600 Sunset Blvd 103","City":"Rocklin","State":"CA","Zip":"95677"},{"Location":"RJK INC.","Address":"4817 Granite Dr","City":"Rocklin","State":"CA","Zip":"95677"},{"Location":"ROAD SAFETY INC 2","Address":"4335 Pacific St","City":"Rocklin","State":"CA","Zip":"95677"},{"Location":"ROCKLAND FOREIGN CAR","Address":"4400 Granite Dr","City":"Rocklin","State":"CA","Zip":"95677"},{"Location":"ROCKLIN MODERN DENTISTRY #244","Address":"5182 Commons Dr 101","City":"Rocklin","State":"CA","Zip":"95677"},{"Location":"ROMO RESTAURANT GROUP LLC","Address":"5194 Commons Dr 110","City":"Rocklin","State":"CA","Zip":"95677"},{"Location":"STUDIO MOVIE GRILL","Address":"5140 Commons Dr","City":"Rocklin","State":"CA","Zip":"95677"},{"Location":"TAIGA BUILDING PRODUCTS","Address":"4385 Pacific St","City":"Rocklin","State":"CA","Zip":"95677"},{"Location":"WHY BUY NEW AUTOS.COM","Address":"4429 Granite Dr","City":"Rocklin","State":"CA","Zip":"95677"}]