[{"Location":"24 HOUR FITNESS #807","Address":"2280 Sunrise Blvd","City":"Gold River","State":"CA","Zip":"95670"},{"Location":"AXA ADVISORS","Address":"12009 Foundation Pl","City":"Gold River","State":"CA","Zip":"95670"},{"Location":"BARBER AND MORE","Address":"2342 Sunrise Blvd 37d","City":"Gold River","State":"CA","Zip":"95670"},{"Location":"BUSINESS CENTRAL GOLD RIVER","Address":"2377 Gold Meadow Way","City":"Gold River","State":"CA","Zip":"95670"},{"Location":"CA STRAIGHT LINE MASONRY INC","Address":"11284 Pyrites Way","City":"Gold River","State":"CA","Zip":"95670"},{"Location":"CAFE EXPRESS","Address":"11971 Foundation Pl","City":"Gold River","State":"CA","Zip":"95670"},{"Location":"CAL DEPT OF FISH AND WILDLIFE1","Address":"1701 Nimbus Rd","City":"Gold River","State":"CA","Zip":"95670"},{"Location":"CHEVY'S #27","Address":"2220 Gold Springs Ct","City":"Gold River","State":"CA","Zip":"95670"},{"Location":"COURTSIDE TENNIS & APPAR","Address":"11226 Gold Express Dr 203","City":"Gold River","State":"CA","Zip":"95670"},{"Location":"DOMINOS PIZZA THEATER","Address":"2246 Sunrise Blvd 2","City":"Gold River","State":"CA","Zip":"95670"},{"Location":"DR WAYNE M GROSMAN","Address":"11230 Gold Express Dr 302","City":"Gold River","State":"CA","Zip":"95670"},{"Location":"EHEALTH INSURANCE","Address":"11919 Foundation Pl 100","City":"Gold River","State":"CA","Zip":"95670"},{"Location":"GPCC FITNESS CENTER","Address":"11971 Foundation Pl 190","City":"Gold River","State":"CA","Zip":"95670"},{"Location":"ICA INC","Address":"2356 Gold Meadow Way 130","City":"Gold River","State":"CA","Zip":"95670"},{"Location":"JASPER'S GIANT HAMBURGERS","Address":"2342 Sunrise Blvd","City":"Gold River","State":"CA","Zip":"95670"},{"Location":"MR PICKLES SANDWICH SHOP 2","Address":"2310 Sunrise Blvd","City":"Gold River","State":"CA","Zip":"95670"},{"Location":"POLPERRO GROUP INC","Address":"2320 Sunrise Blvd","City":"Gold River","State":"CA","Zip":"95670"},{"Location":"PREMIER POOLS INC","Address":"11250 Pyrites Way","City":"Gold River","State":"CA","Zip":"95670"},{"Location":"ROUND TABLE PIZZA #279","Address":"2234 Sunrise Blvd","City":"Gold River","State":"CA","Zip":"95670"},{"Location":"SPARE TIME INDOOR TENNIS","Address":"11344 Coloma Rd 350","City":"Gold River","State":"CA","Zip":"95670"},{"Location":"STONE AND GRAVES","Address":"11335 Gold Express Dr 145","City":"Gold River","State":"CA","Zip":"95670"},{"Location":"THE FIVEY COMPANY","Address":"11344 Coloma Rd 455","City":"Gold River","State":"CA","Zip":"95670"},{"Location":"ZURICH NORTH AMERCIA","Address":"11290 Pyrites Way 200","City":"Gold River","State":"CA","Zip":"95670"},{"Location":"A-R SALON","Address":"10339 Folsom Blvd B","City":"Rancho Cordova","State":"CA","Zip":"95670"},{"Location":"AGENTS RESOURCES INC","Address":"11190 Sun Center Dr","City":"Rancho Cordova","State":"CA","Zip":"95670"},{"Location":"ALLSTATE INSURANCE","Address":"10877 White Rock Rd 300","City":"Rancho Cordova","State":"CA","Zip":"95670"},{"Location":"ALTAIR","Address":"11135 Trade Center Dr 180","City":"Rancho Cordova","State":"CA","Zip":"95670"},{"Location":"AMERICAN RIVER BREWING C","Address":"11151 Trade Center Dr 104","City":"Rancho Cordova","State":"CA","Zip":"95670"},{"Location":"APPLEBEE'S #2140021","Address":"2170 Golden Centre Ln","City":"Rancho Cordova","State":"CA","Zip":"95670"},{"Location":"B&Z PPRTY MGMT - FIT CTR","Address":"10901 Gold Center Dr","City":"Rancho Cordova","State":"CA","Zip":"95670"},{"Location":"BARCLAYS GLOBAL INVESTORS","Address":"10815 Gold Center Dr","City":"Rancho Cordova","State":"CA","Zip":"95670"},{"Location":"BARCO INC","Address":"3078 Prospect Park Dr","City":"Rancho Cordova","State":"CA","Zip":"95670"},{"Location":"BARK PLACE GROOMING LLC","Address":"11050 Coloma Rd","City":"Rancho Cordova","State":"CA","Zip":"95670"},{"Location":"BLUE RIVER INTERACTIVE","Address":"3195 Zinfandel Dr 21","City":"Rancho Cordova","State":"CA","Zip":"95670"},{"Location":"BOTAN SUSHI","Address":"2827 Zinfandel Dr","City":"Rancho Cordova","State":"CA","Zip":"95670"},{"Location":"CALIFORNIA EMS AUTHORITY","Address":"10901 Gold Center Dr 400","City":"Rancho Cordova","State":"CA","Zip":"95670"},{"Location":"CALIFORNIA FAMILY FITNES","Address":"1975 Zinfandel Dr","City":"Rancho Cordova","State":"CA","Zip":"95670"},{"Location":"CALPERS","Address":"11086 Sun Center Dr","City":"Rancho Cordova","State":"CA","Zip":"95670"},{"Location":"CHESAPEAKE COMMONS","Address":"3600 Data Dr","City":"Rancho Cordova","State":"CA","Zip":"95670"},{"Location":"CHH MARINE SERVICES1","Address":"11383 Pyrites Way B","City":"Rancho Cordova","State":"CA","Zip":"95670"},{"Location":"CHILI'S #1324","Address":"3199 Zinfandel Dr","City":"Rancho Cordova","State":"CA","Zip":"95670"},{"Location":"CLARK AND ASSOCIATES","Address":"11180 Sun Center Dr 100","City":"Rancho Cordova","State":"CA","Zip":"95670"},{"Location":"CLINTON POLLEY GROUP","Address":"12150 Tributary Point Dr 200","City":"Rancho Cordova","State":"CA","Zip":"95670"},{"Location":"CORDOVA RESTAURANT CASINO","Address":"2801 Prospect Park Dr","City":"Rancho Cordova","State":"CA","Zip":"95670"},{"Location":"DAVITA #2263 SUNSET","Address":"3071 Gold Canal Dr","City":"Rancho Cordova","State":"CA","Zip":"95670"},{"Location":"DESCOR BUILDERS","Address":"3164 Gold Camp Dr 250","City":"Rancho Cordova","State":"CA","Zip":"95670"},{"Location":"DIGITAL REALTY","Address":"3065 Gold Camp Dr","City":"Rancho Cordova","State":"CA","Zip":"95670"},{"Location":"ECS","Address":"10087 Terra Loma Dr","City":"Rancho Cordova","State":"CA","Zip":"95670"},{"Location":"FASHION CITY","Address":"10134 Coloma Rd","City":"Rancho Cordova","State":"CA","Zip":"95670"},{"Location":"FIREMENS FUND INSURANCE","Address":"3100 Zinandel Dr 600","City":"Rancho Cordova","State":"CA","Zip":"95670"},{"Location":"FRANKLIN TEMPLETON INVESTMENTS","Address":"3355 Data Dr","City":"Rancho Cordova","State":"CA","Zip":"95670"},{"Location":"FSP","Address":"2851 Gold Tailings Ct","City":"Rancho Cordova","State":"CA","Zip":"95670"},{"Location":"GOLD RIVER PEDIATRIC MED","Address":"1995 Zinfandel Dr 105","City":"Rancho Cordova","State":"CA","Zip":"95670"},{"Location":"GOLDEN 1 CREDIT UNION 3","Address":"11099 Olson Dr","City":"Rancho Cordova","State":"CA","Zip":"95670"},{"Location":"GOLDEN STATE OVERNIGHT","Address":"3330 Data Dr 100","City":"Rancho Cordova","State":"CA","Zip":"95670"},{"Location":"HEALD COLLEGE","Address":"2910 Prospect Park Dr","City":"Rancho Cordova","State":"CA","Zip":"95670"},{"Location":"HEALTH NET OF CALIFORNIA","Address":"11031 Sun Center Dr","City":"Rancho Cordova","State":"CA","Zip":"95670"},{"Location":"HOOTERS OF RANCHO CORDOVA","Address":"10750 Olson Dr","City":"Rancho Cordova","State":"CA","Zip":"95670"},{"Location":"IL FORNO CLASSICO","Address":"2121 Golden Centre Ln","City":"Rancho Cordova","State":"CA","Zip":"95670"},{"Location":"INNER BEAUTY HAIR DESIGN","Address":"10702 Alicante Way","City":"Rancho Cordova","State":"CA","Zip":"95670"},{"Location":"ITT #037","Address":"10863 Gold Center Dr","City":"Rancho Cordova","State":"CA","Zip":"95670"},{"Location":"KOHL'S #1375","Address":"11051 Olson Dr","City":"Rancho Cordova","State":"CA","Zip":"95670"},{"Location":"KP INTERNATIONAL MARKET","Address":"10971 Olson Dr","City":"Rancho Cordova","State":"CA","Zip":"95670"},{"Location":"MAXIMUS INC","Address":"3130 Kilgore Rd 100","City":"Rancho Cordova","State":"CA","Zip":"95670"},{"Location":"MCDONALDS","Address":"10725 White Rock Rd","City":"Rancho Cordova","State":"CA","Zip":"95670"},{"Location":"MONTYS LOUNGE","Address":"10493 Folsom Blvd","City":"Rancho Cordova","State":"CA","Zip":"95670"},{"Location":"MOOSE FAMILY CENTER","Address":"10124 Coloma Rd","City":"Rancho Cordova","State":"CA","Zip":"95670"},{"Location":"MOTIF INVESTMENTS","Address":"2868 Prospect Park Dr 130","City":"Rancho Cordova","State":"CA","Zip":"95670"},{"Location":"OUTBACK STEAKHOUSE","Address":"2100 Golden Centre Ln","City":"Rancho Cordova","State":"CA","Zip":"95670"},{"Location":"PATRIOT TECHNOLOGY SOLUTIONS I","Address":"2868 Prospect Park Dr 210","City":"Rancho Cordova","State":"CA","Zip":"95670"},{"Location":"PROGRESSIVE INS. CO.","Address":"10929 Disk Dr","City":"Rancho Cordova","State":"CA","Zip":"95670"},{"Location":"R SPOT","Address":"10625 Coloma Rd","City":"Rancho Cordova","State":"CA","Zip":"95670"},{"Location":"RANCHO CORDOVA RESIDENCE","Address":"2779 Prospect Park Dr","City":"Rancho Cordova","State":"CA","Zip":"95670"},{"Location":"RANCHO CORDOVA URGENT CA","Address":"2001 Zinfandel Dr A6","City":"Rancho Cordova","State":"CA","Zip":"95670"},{"Location":"RCPD","Address":"2897 Kilgore Rd","City":"Rancho Cordova","State":"CA","Zip":"95670"},{"Location":"ROUND TABLE PIZZA 573","Address":"10375 Folsom Blvd","City":"Rancho Cordova","State":"CA","Zip":"95670"},{"Location":"SANDJUAN SOCCER CLUB","Address":"11151 Trade Center Dr","City":"Rancho Cordova","State":"CA","Zip":"95670"},{"Location":"SCS ENTERPRISES","Address":"10151 Croydon Way 1","City":"Rancho Cordova","State":"CA","Zip":"95670"},{"Location":"SENSEI SUSHI","Address":"2878 Zinfandel Dr","City":"Rancho Cordova","State":"CA","Zip":"95670"},{"Location":"SHARON'S LOUNGE","Address":"11050 Coloma Rd 9","City":"Rancho Cordova","State":"CA","Zip":"95670"},{"Location":"TARGET","Address":"10881 Olson Dr","City":"Rancho Cordova","State":"CA","Zip":"95670"},{"Location":"THE ROOTS OF HAPPINESS KAVA","Address":"1949 Zinfandel Dr","City":"Rancho Cordova","State":"CA","Zip":"95670"},{"Location":"UHAUL REPAIR","Address":"11351 Pyrites Way","City":"Rancho Cordova","State":"CA","Zip":"95670"},{"Location":"VERIZON WIRELESS","Address":"10734 International Dr","City":"Rancho Cordova","State":"CA","Zip":"95670"},{"Location":"VISION SERVICE PLAN","Address":"3333 Quality Dr","City":"Rancho Cordova","State":"CA","Zip":"95670"},{"Location":"WHAT IT   DO BBQ","Address":"3332 Mather Field Rd","City":"Rancho Cordova","State":"CA","Zip":"95670"},{"Location":"WINGSTOP","Address":"3195 Zinfandel Dr 3","City":"Rancho Cordova","State":"CA","Zip":"95670"},{"Location":"WONDERFUL HAIR & NAIL","Address":"10083 Folsom Blvd","City":"Rancho Cordova","State":"CA","Zip":"95670"},{"Location":"WORLD PRAISE CHURCH","Address":"10089 Folsom Blvd","City":"Rancho Cordova","State":"CA","Zip":"95670"}]