[{"Location":"A&W RESTAURANT & CATERING","Address":"1350 E Monte Vista Ave","City":"Vacaville","State":"CA","Zip":"95688"},{"Location":"ACTIVE LIFESTYLES","Address":"560 Main St","City":"Vacaville","State":"CA","Zip":"95688"},{"Location":"ALBERTSONS INC","Address":"700 Crocker Dr","City":"Vacaville","State":"CA","Zip":"95688"},{"Location":"ALZA","Address":"700 Eubanks Dr","City":"Vacaville","State":"CA","Zip":"95688"},{"Location":"ALZA CORPORATION","Address":"700 Eubanks Dr","City":"Vacaville","State":"CA","Zip":"95688"},{"Location":"ANGEL NAILS","Address":"1615 E Monte Vista Ave","City":"Vacaville","State":"CA","Zip":"95688"},{"Location":"BALDOS MEXICAN FOOD","Address":"936 Merchant St","City":"Vacaville","State":"CA","Zip":"95688"},{"Location":"BLACK BEAR DINER","Address":"951 Merchant St","City":"Vacaville","State":"CA","Zip":"95688"},{"Location":"BLONDIES BAR AND GRILL","Address":"555 Main St","City":"Vacaville","State":"CA","Zip":"95688"},{"Location":"BLUE MOUNTAIN AIR","Address":"707 Aldridge Rd","City":"Vacaville","State":"CA","Zip":"95688"},{"Location":"BUCKHORN GRILL","Address":"1650 E Monte Vista Ave Ee101","City":"Vacaville","State":"CA","Zip":"95688"},{"Location":"BUFFALO WILD WINGS #3540","Address":"1601 E Monte Vista Ave","City":"Vacaville","State":"CA","Zip":"95688"},{"Location":"BURRITO EXPRESS","Address":"902 Alamo Dr","City":"Vacaville","State":"CA","Zip":"95688"},{"Location":"CHEESE STEAK SHOP","Address":"1661 E Monte Vista Ave 101","City":"Vacaville","State":"CA","Zip":"95688"},{"Location":"CHINA HOUSE","Address":"513 Main St","City":"Vacaville","State":"CA","Zip":"95688"},{"Location":"COIN LAUNDRY","Address":"877 Markham Ave","City":"Vacaville","State":"CA","Zip":"95688"},{"Location":"DAVITA #2017 CREEKSIDE","Address":"141 Parker St","City":"Vacaville","State":"CA","Zip":"95688"},{"Location":"DAVITA #873 VACAVILLE","Address":"941 Merchant St","City":"Vacaville","State":"CA","Zip":"95688"},{"Location":"ELEGANCE OF BEAUTY","Address":"763 E Monte Vista Ave","City":"Vacaville","State":"CA","Zip":"95688"},{"Location":"ELK'S LODGE","Address":"304 Parker St","City":"Vacaville","State":"CA","Zip":"95688"},{"Location":"FIREHOUSE SUBS #1222","Address":"1640 E Monte Vista Ave Dd12","City":"Vacaville","State":"CA","Zip":"95688"},{"Location":"FIRESTONE #023175","Address":"1200 E Monte Vista Ave","City":"Vacaville","State":"CA","Zip":"95688"},{"Location":"FOREVER YOUNGS","Address":"930 Bluewater Dr","City":"Vacaville","State":"CA","Zip":"95688"},{"Location":"FUJI SUSHI BUFFET","Address":"1679 E Monte Vista Ave","City":"Vacaville","State":"CA","Zip":"95688"},{"Location":"GENENTECH  VACAVILLE 10","Address":"1000 New Horizons Way B10","City":"Vacaville","State":"CA","Zip":"95688"},{"Location":"GENENTECH  VACAVILLE 4","Address":"1000 New Horizons Way B4","City":"Vacaville","State":"CA","Zip":"95688"},{"Location":"GOLD'S GYM #680","Address":"201 Main St","City":"Vacaville","State":"CA","Zip":"95688"},{"Location":"HARVEST CHURCH","Address":"310 Parker St","City":"Vacaville","State":"CA","Zip":"95688"},{"Location":"HAWAII NAIL AND SPA","Address":"148 Browns Valley Pkwy","City":"Vacaville","State":"CA","Zip":"95688"},{"Location":"HUEYS PUB","Address":"519 Main St","City":"Vacaville","State":"CA","Zip":"95688"},{"Location":"IN SHAPE ALAMO","Address":"896 Alamo Dr","City":"Vacaville","State":"CA","Zip":"95688"},{"Location":"JOES  CREEKSIDE CAFE","Address":"301 Main St","City":"Vacaville","State":"CA","Zip":"95688"},{"Location":"LOS REYES RESTAURANTE","Address":"21 Town Sq A","City":"Vacaville","State":"CA","Zip":"95688"},{"Location":"MARY'S PIZZA SHACK","Address":"505 Davis St","City":"Vacaville","State":"CA","Zip":"95688"},{"Location":"MURILLOS RESTAURANT","Address":"1591 E Monte Vista Ave","City":"Vacaville","State":"CA","Zip":"95688"},{"Location":"NOVARTIS","Address":"2010 Cessna Dr","City":"Vacaville","State":"CA","Zip":"95688"},{"Location":"P G & E","Address":"301 County Airport Rd","City":"Vacaville","State":"CA","Zip":"95688"},{"Location":"PACIFIC GAS & ELECTRIC CO","Address":"4940 Allison Pkwy","City":"Vacaville","State":"CA","Zip":"95688"},{"Location":"PACIFIC GAS AND ELECTRIC","Address":"4940 Allison Pkwy","City":"Vacaville","State":"CA","Zip":"95688"},{"Location":"PACIFIC GAS AND ELECTRIC","Address":"5221 Quinn Rod","City":"Vacaville","State":"CA","Zip":"95688"},{"Location":"PARKWAY FOOD AND LIQUOR","Address":"146 Browns Valley Pkwy","City":"Vacaville","State":"CA","Zip":"95688"},{"Location":"PG&E","Address":"5221 Quinn Rd","City":"Vacaville","State":"CA","Zip":"95688"},{"Location":"PRO NAIL","Address":"761 E Monte Vista Ave","City":"Vacaville","State":"CA","Zip":"95688"},{"Location":"RANCH HORSE CENTER","Address":"5790 Rivera Rd","City":"Vacaville","State":"CA","Zip":"95688"},{"Location":"ROTH AND MILLER REALTY INC","Address":"1300 E Monte Vista Ave","City":"Vacaville","State":"CA","Zip":"95688"},{"Location":"ROUND TABLE PIZZA","Address":"140 Browns Valley Pkwy","City":"Vacaville","State":"CA","Zip":"95688"},{"Location":"SID","Address":"810 Vaca Valley Parkway 201","City":"Vacaville","State":"CA","Zip":"95688"},{"Location":"SONIA MCCLELLIN","Address":"21 Town Sq","City":"Vacaville","State":"CA","Zip":"95688"},{"Location":"SPICE THAI KITCHEN & BAR","Address":"1679 E Monte Vista Ave 18","City":"Vacaville","State":"CA","Zip":"95688"},{"Location":"SPORT CLIPS CA840","Address":"1631 E Monte Vista Ave","City":"Vacaville","State":"CA","Zip":"95688"},{"Location":"STAR'S RECREATIONAL CENTER","Address":"155 Browns Valley Pkwy","City":"Vacaville","State":"CA","Zip":"95688"},{"Location":"STATE COMP INSURANCE","Address":"1010 Vaquero Cir 1","City":"Vacaville","State":"CA","Zip":"95688"},{"Location":"STATE COMP INSURANCE","Address":"1020 Vaquero Cir","City":"Vacaville","State":"CA","Zip":"95688"},{"Location":"STATE COMP INSURANCE FUN","Address":"1030 Vaquero Cir","City":"Vacaville","State":"CA","Zip":"95688"},{"Location":"STEMS","Address":"637 Merchant St","City":"Vacaville","State":"CA","Zip":"95688"},{"Location":"TIRE KINGDOM B-5247","Address":"1221 E Monte Vista Ave","City":"Vacaville","State":"CA","Zip":"95688"},{"Location":"VACAVILLE ICE SPORTS","Address":"551 Davis St","City":"Vacaville","State":"CA","Zip":"95688"},{"Location":"VACAVILLE MOOSE LODGE","Address":"6585 Gibson Canyon Rd","City":"Vacaville","State":"CA","Zip":"95688"},{"Location":"VACAVILLE SOCIAL SERVICES CORP","Address":"267 Bennett Hill Ct","City":"Vacaville","State":"CA","Zip":"95688"},{"Location":"VALUE GOLD AND SILVER EXCHANGE","Address":"219 Parker St","City":"Vacaville","State":"CA","Zip":"95688"},{"Location":"VETERNS MEMORIAL BLDG","Address":"549 Merchant St","City":"Vacaville","State":"CA","Zip":"95688"},{"Location":"VILLA CORONA","Address":"1661 E Monte Vista Ave P105","City":"Vacaville","State":"CA","Zip":"95688"},{"Location":"WINSOR HOUSE CONVALESCENT HOSP","Address":"101 S Orchard Ave","City":"Vacaville","State":"CA","Zip":"95688"},{"Location":"WRENS CAFE","Address":"1005 Merchant St","City":"Vacaville","State":"CA","Zip":"95688"},{"Location":"YOGURT ZONE","Address":"1620 E Monte Vista Ave","City":"Vacaville","State":"CA","Zip":"95688"},{"Location":"YUAN XING RESTAURANT","Address":"760 Merchant St","City":"Vacaville","State":"CA","Zip":"95688"}]