[{"Location":"ADVANCED MUFFLER","Address":"807 Davis St","City":"Vacaville","State":"CA","Zip":"95687"},{"Location":"ANNABELLE NAILS & SPA","Address":"179 Elmira Rd","City":"Vacaville","State":"CA","Zip":"95687"},{"Location":"APPLEBEE'S #2140022","Address":"160 Nut Tree Pkwy","City":"Vacaville","State":"CA","Zip":"95687"},{"Location":"AZTECA MEXICAN FOOD REST","Address":"102 Peabody Rd","City":"Vacaville","State":"CA","Zip":"95687"},{"Location":"BJS RESTAURANT #448","Address":"190 Nut Tree Pkwy","City":"Vacaville","State":"CA","Zip":"95687"},{"Location":"BURGER CITY DBA LINDAS COCKTAI","Address":"500 Elmira Rd A&b","City":"Vacaville","State":"CA","Zip":"95687"},{"Location":"BURGER KING","Address":"1939 Peabody Rd","City":"Vacaville","State":"CA","Zip":"95687"},{"Location":"CALI NAILS","Address":"196 Nut Tree Pkwy 8","City":"Vacaville","State":"CA","Zip":"95687"},{"Location":"CASA GRANDE MOBILE HOME PARK","Address":"1002 Poplar Rd","City":"Vacaville","State":"CA","Zip":"95687"},{"Location":"CHILI'S #0275","Address":"2001 Harbison Dr","City":"Vacaville","State":"CA","Zip":"95687"},{"Location":"CYPRESS LAKES GOLF COURSE","Address":"5601 Meridian Rd","City":"Vacaville","State":"CA","Zip":"95687"},{"Location":"DABISH","Address":"127 Peabody Rd","City":"Vacaville","State":"CA","Zip":"95687"},{"Location":"DINA CARRINGTON","Address":"47 Union Way D","City":"Vacaville","State":"CA","Zip":"95687"},{"Location":"GG HAIR SALON","Address":"637 Elmira Rd","City":"Vacaville","State":"CA","Zip":"95687"},{"Location":"GUNS FISHING AND OTHER STUFF","Address":"197 Butcher Rd","City":"Vacaville","State":"CA","Zip":"95687"},{"Location":"HISIU 2","Address":"3001 Alamo Dr","City":"Vacaville","State":"CA","Zip":"95687"},{"Location":"IN SHAPE CLUBS VACAVILLE","Address":"615 Elmira Rd","City":"Vacaville","State":"CA","Zip":"95687"},{"Location":"KAZAN JAPANESE CUISINE","Address":"121 Peabody Rd","City":"Vacaville","State":"CA","Zip":"95687"},{"Location":"KWAN","Address":"2046 Nut Tree Rd A","City":"Vacaville","State":"CA","Zip":"95687"},{"Location":"LITTLE MADFISH","Address":"2000 Harbison Dr C","City":"Vacaville","State":"CA","Zip":"95687"},{"Location":"MCREYNOLDS","Address":"137 Peabody Rd","City":"Vacaville","State":"CA","Zip":"95687"},{"Location":"MDR Z GHABEN VACAVILLE","Address":"171 Nut Tree Pkwy","City":"Vacaville","State":"CA","Zip":"95687"},{"Location":"MERIT CONCRETE INC","Address":"53a Commerce Pl","City":"Vacaville","State":"CA","Zip":"95687"},{"Location":"MOUNTAIN MIKES ALAMO","Address":"1971 Alamo Dr","City":"Vacaville","State":"CA","Zip":"95687"},{"Location":"MOUNTAIN MIKES ELMIRA","Address":"645 Elmira Rd","City":"Vacaville","State":"CA","Zip":"95687"},{"Location":"NIKE INC","Address":"262 Nut Tree Rd","City":"Vacaville","State":"CA","Zip":"95687"},{"Location":"NORTH BAY HEALTHCARE","Address":"1010 Nut Tree Rd 100","City":"Vacaville","State":"CA","Zip":"95687"},{"Location":"NUTRISHOP VACAVILLE","Address":"196 Nut Tree Pkwy 106","City":"Vacaville","State":"CA","Zip":"95687"},{"Location":"OLIVE GARDEN #1722","Address":"100 Nut Tree Pkwy","City":"Vacaville","State":"CA","Zip":"95687"},{"Location":"PETRILLO'S TIRE AND AUTO","Address":"131 Elmira Rd","City":"Vacaville","State":"CA","Zip":"95687"},{"Location":"RED ROBIN #679","Address":"186 Nut Tree Pkwy","City":"Vacaville","State":"CA","Zip":"95687"},{"Location":"RJQ HOLDINGS LLC","Address":"150 Nut Tree Pkwy 100a","City":"Vacaville","State":"CA","Zip":"95687"},{"Location":"ROUND TABLE PIZZA","Address":"3045 Alamo Dr","City":"Vacaville","State":"CA","Zip":"95687"},{"Location":"SHELLWORTH CHEVROLET","Address":"631 Orange Dr","City":"Vacaville","State":"CA","Zip":"95687"},{"Location":"SQUEEZE INN HAMBURGER","Address":"211 Peabody Rd F","City":"Vacaville","State":"CA","Zip":"95687"},{"Location":"THAI CUISINE","Address":"3039 Alamo Dr","City":"Vacaville","State":"CA","Zip":"95687"},{"Location":"THE HIDEAWAY LOUNGE AND GRIL","Address":"1080 Orange Dr","City":"Vacaville","State":"CA","Zip":"95687"},{"Location":"TOYOTA VACAVILLE SCION","Address":"500 Orange Dr","City":"Vacaville","State":"CA","Zip":"95687"},{"Location":"VACAVILLE FITNESS","Address":"787 Orange Dr","City":"Vacaville","State":"CA","Zip":"95687"},{"Location":"VACAVILLE HONDA 1","Address":"751 Orange Dr","City":"Vacaville","State":"CA","Zip":"95687"},{"Location":"VACAVILLE VOLKSWAGON","Address":"721 Orange Dr","City":"Vacaville","State":"CA","Zip":"95687"},{"Location":"WALMART","Address":"1501 Helen Power Dr","City":"Vacaville","State":"CA","Zip":"95687"},{"Location":"LEMON TREE MOBILE HOME P","Address":"1 Lemon","City":"Vacville","State":"CA","Zip":"95687"}]