[{"Location":"ALPINE HEATING AND AC","Address":"4325 Product Dr C","City":"Cameron Park","State":"CA","Zip":"95682"},{"Location":"APPLEBEE'S #2140032","Address":"3281 Coach Ln","City":"Cameron Park","State":"CA","Zip":"95682"},{"Location":"BLACKSHEEP INN 1","Address":"3181 Cameron Park Dr","City":"Cameron Park","State":"CA","Zip":"95682"},{"Location":"CAMERON OAKS HAIR STYLIST","Address":"4100 Cameron Park Dr 112","City":"Cameron Park","State":"CA","Zip":"95682"},{"Location":"CITY NAILS","Address":"3336 Coach Ln","City":"Cameron Park","State":"CA","Zip":"95682"},{"Location":"DAVITA #286 CAMERON PARK","Address":"3311 Coach Ln","City":"Cameron Park","State":"CA","Zip":"95682"},{"Location":"ELDORADO FITNESS","Address":"3000 Green Valley Rd 1","City":"Cameron Park","State":"CA","Zip":"95682"},{"Location":"MOUNTAIN MIKES PIZZA","Address":"2650 Cameron Park Dr 100","City":"Cameron Park","State":"CA","Zip":"95682"},{"Location":"RAM DATA PROCESSING","Address":"3430 Robin Ln 6","City":"Cameron Park","State":"CA","Zip":"95682"},{"Location":"ROUND TABLE PIZZA","Address":"3370 Coach Ln","City":"Cameron Park","State":"CA","Zip":"95682"},{"Location":"SLINGSHOTS","Address":"3300 Coach Ln","City":"Cameron Park","State":"CA","Zip":"95682"},{"Location":"SPORT CLIPS CA108","Address":"3490 Palmer Dr 3h","City":"Cameron Park","State":"CA","Zip":"95682"},{"Location":"T AND M PROPERTIES","Address":"3027 Alhambra Dr","City":"Cameron Park","State":"CA","Zip":"95682"},{"Location":"TRIGON TECHNOLOGIES","Address":"4260 Business Dr A","City":"Cameron Park","State":"CA","Zip":"95682"},{"Location":"WALLYS PIZZA BAR","Address":"4079 Cameron Park Dr","City":"Cameron Park","State":"CA","Zip":"95682"},{"Location":"ZAC JACK BISTRO","Address":"3275 Coach Ln A","City":"Cameron Park","State":"CA","Zip":"95682"},{"Location":"COLINA DE ORO 1","Address":"4120 Sunset Ln","City":"Shingle Springs","State":"CA","Zip":"95682"},{"Location":"CREPETOWN CAFE","Address":"4064 Mother Lode Dr","City":"Shingle Springs","State":"CA","Zip":"95682"},{"Location":"EL DORADO PHYSICAL THERAPY","Address":"4052 Mother Lode Dr","City":"Shingle Springs","State":"CA","Zip":"95682"},{"Location":"GOODYEAR 9252","Address":"4000 Durock Rd","City":"Shingle Springs","State":"CA","Zip":"95682"},{"Location":"IN SHAPE 62 SHINGLE SPRI","Address":"4242 Sports Club Dr","City":"Shingle Springs","State":"CA","Zip":"95682"},{"Location":"KNIESELS AUTO COLLISON CENTER","Address":"4031 Wild Chaparral Dr","City":"Shingle Springs","State":"CA","Zip":"95682"},{"Location":"LAURIE HARTFIELD","Address":"3027 Sierrama Dr","City":"Shingle Springs","State":"CA","Zip":"95682"},{"Location":"PARTY ROYAL","Address":"3970 Durock Rd","City":"Shingle Springs","State":"CA","Zip":"95682"},{"Location":"SNAP FITNESS DEVELOPMENT LLC","Address":"3975 Durock Rd 104","City":"Shingle Springs","State":"CA","Zip":"95682"},{"Location":"THE TOY SHOP","Address":"4241 Sunset Ln","City":"Shingle Springs","State":"CA","Zip":"95682"}]