[{"Location":"AMADOR ATHLETIC CLUB","Address":"460 State Highway 49","City":"Sutter Creek","State":"CA","Zip":"95685"},{"Location":"AMERICAN LEGION AMBULANCE","Address":"11350 American Legion Dr","City":"Sutter Creek","State":"CA","Zip":"95685"},{"Location":"ARGONAUT SELF STORAGE","Address":"218 Manor Ct A","City":"Sutter Creek","State":"CA","Zip":"95685"},{"Location":"FULTON L DAVID C P A","Address":"320 Spanish St","City":"Sutter Creek","State":"CA","Zip":"95685"},{"Location":"GOLD COUNTRY LOUNGE","Address":"81 Ridge Rd","City":"Sutter Creek","State":"CA","Zip":"95685"},{"Location":"HOFFEES GARAGE","Address":"14501 Meath Dr","City":"Sutter Creek","State":"CA","Zip":"95685"},{"Location":"HOTEL SUTTER","Address":"53 Main St","City":"Sutter Creek","State":"CA","Zip":"95685"},{"Location":"LA ESPERANZA REST","Address":"13 Ridge Rd","City":"Sutter Creek","State":"CA","Zip":"95685"},{"Location":"THE OPERA HOUSE","Address":"54 Main St","City":"Sutter Creek","State":"CA","Zip":"95685"},{"Location":"AMADOR ATHLETIC CLUB","Address":"460 State Highway 49","City":"Sutter Creek","State":"CA","Zip":"95685"},{"Location":"AMERICAN LEGION AMBULANCE","Address":"11350 American Legion Dr","City":"Sutter Creek","State":"CA","Zip":"95685"},{"Location":"ARGONAUT SELF STORAGE","Address":"218 Manor Ct A","City":"Sutter Creek","State":"CA","Zip":"95685"},{"Location":"FULTON L DAVID C P A","Address":"320 Spanish St","City":"Sutter Creek","State":"CA","Zip":"95685"},{"Location":"GOLD COUNTRY LOUNGE","Address":"81 Ridge Rd","City":"Sutter Creek","State":"CA","Zip":"95685"},{"Location":"HOFFEES GARAGE","Address":"14501 Meath Dr","City":"Sutter Creek","State":"CA","Zip":"95685"},{"Location":"HOTEL SUTTER","Address":"53 Main St","City":"Sutter Creek","State":"CA","Zip":"95685"},{"Location":"LA ESPERANZA REST","Address":"13 Ridge Rd","City":"Sutter Creek","State":"CA","Zip":"95685"},{"Location":"THE OPERA HOUSE","Address":"54 Main St","City":"Sutter Creek","State":"CA","Zip":"95685"}]