[{"Location":"AMERICAN METALS","Address":"1499 Parkway Blvd","City":"W Sacramento","State":"CA","Zip":"95691"},{"Location":"I LOVE TERIYAKI","Address":"830 Harbor Blvd","City":"W Sacramento","State":"CA","Zip":"95691"},{"Location":"ALL PHASE SECURITY","Address":"2959 Promenade St 200","City":"West Sacramento","State":"CA","Zip":"95691"},{"Location":"ALTERATION AND DESIGN","Address":"2210 Lake Washington Blvd 110","City":"West Sacramento","State":"CA","Zip":"95691"},{"Location":"ANONYMOUS INTEL COPRORATED","Address":"1680 Monte Vista Ct","City":"West Sacramento","State":"CA","Zip":"95691"},{"Location":"ASSOCIATED GENERAL CONTRACTORS","Address":"3095 Beacon Blvd","City":"West Sacramento","State":"CA","Zip":"95691"},{"Location":"BRADFORD INVESTMENTS SER","Address":"1450 Harbor Blvd E","City":"West Sacramento","State":"CA","Zip":"95691"},{"Location":"CALHOSE AND EQUIPMENT","Address":"3920 W Capitol Ave 200","City":"West Sacramento","State":"CA","Zip":"95691"},{"Location":"CAPITOL CLUTCH & BRAKE%2C INC.","Address":"3100 Duluth St","City":"West Sacramento","State":"CA","Zip":"95691"},{"Location":"CAPITOL VENTURES","Address":"2000 W Capitol Ave 93","City":"West Sacramento","State":"CA","Zip":"95691"},{"Location":"CHEERS OF WEST SACRAMENTO","Address":"2435 W Capitol Ave A","City":"West Sacramento","State":"CA","Zip":"95691"},{"Location":"CHRISTIAN DEVELOPMMENTS","Address":"2155 Town Center Plz E110","City":"West Sacramento","State":"CA","Zip":"95691"},{"Location":"CLAYTON HOMES","Address":"2525 W Capitol Ave","City":"West Sacramento","State":"CA","Zip":"95691"},{"Location":"COAST TRUCK CENTERS","Address":"3130 Duluth St","City":"West Sacramento","State":"CA","Zip":"95691"},{"Location":"COMMUNITY BUSINESS BANK","Address":"1550 Harbor Blvd 200","City":"West Sacramento","State":"CA","Zip":"95691"},{"Location":"COREMARK INTERNATIONAL","Address":"3030 Mulvany Pl","City":"West Sacramento","State":"CA","Zip":"95691"},{"Location":"CP CO HAIR AND NAILS","Address":"1286 W Capitol Ave","City":"West Sacramento","State":"CA","Zip":"95691"},{"Location":"DAVITA #2189 W SACRAMENTO","Address":"3450 Industrial Blvd 100","City":"West Sacramento","State":"CA","Zip":"95691"},{"Location":"DENNYS","Address":"1235 Harbor Blvd","City":"West Sacramento","State":"CA","Zip":"95691"},{"Location":"DEVINE INTERMODAL","Address":"3870 Channel Dr","City":"West Sacramento","State":"CA","Zip":"95691"},{"Location":"ELKHORN SALOON","Address":"18398 Old River Rd","City":"West Sacramento","State":"CA","Zip":"95691"},{"Location":"FASTLANE AUTODOCTOR","Address":"617 Galveston St 4","City":"West Sacramento","State":"CA","Zip":"95691"},{"Location":"GRAND CENTRAL STATION","Address":"1250 Harbor Blvd 200","City":"West Sacramento","State":"CA","Zip":"95691"},{"Location":"GREAT CLIPS","Address":"2230 Lake Washington Blvd 100","City":"West Sacramento","State":"CA","Zip":"95691"},{"Location":"HAVEY'S BARBER SHOP","Address":"849 Jefferson Blvd 103","City":"West Sacramento","State":"CA","Zip":"95691"},{"Location":"HING CHINESE CUSINE","Address":"2933 W Capitol Ave","City":"West Sacramento","State":"CA","Zip":"95691"},{"Location":"LES SCHWAB TIRE","Address":"631 Harbor Blvd","City":"West Sacramento","State":"CA","Zip":"95691"},{"Location":"MCDONALDS","Address":"2244 Lake Washington Blvd","City":"West Sacramento","State":"CA","Zip":"95691"},{"Location":"MCDONALDS","Address":"2729 W Capitol Ave","City":"West Sacramento","State":"CA","Zip":"95691"},{"Location":"MICKEYS MARKET","Address":"3225 W Sacremento Av","City":"West Sacramento","State":"CA","Zip":"95691"},{"Location":"NOR CAL BEVERAGE COMPANY","Address":"2150 Stone Blvd","City":"West Sacramento","State":"CA","Zip":"95691"},{"Location":"NUGGET MARKET","Address":"2000 Town Center Plz","City":"West Sacramento","State":"CA","Zip":"95691"},{"Location":"OSCARSVERYMEXFOOD","Address":"1350 Harbor Blvd B","City":"West Sacramento","State":"CA","Zip":"95691"},{"Location":"PRINCESS HAIR SHOP","Address":"2795 Del Monte St B","City":"West Sacramento","State":"CA","Zip":"95691"},{"Location":"RADIAL TIRE CENTER INC","Address":"3111 W Capitol Ave","City":"West Sacramento","State":"CA","Zip":"95691"},{"Location":"RAKU SUSHI","Address":"2915 W Capitol Ave","City":"West Sacramento","State":"CA","Zip":"95691"},{"Location":"RC GRILL","Address":"2521 Del Monte St","City":"West Sacramento","State":"CA","Zip":"95691"},{"Location":"ROUND TABLE PIZZA WSAC","Address":"2105 Town Center Plz F180","City":"West Sacramento","State":"CA","Zip":"95691"},{"Location":"SACRAMENTO WEST DENTAL OFFICE","Address":"821 Jefferson Blvd","City":"West Sacramento","State":"CA","Zip":"95691"},{"Location":"SEVEN DAY BARBERSHOP","Address":"1040 W Capitol Ave E","City":"West Sacramento","State":"CA","Zip":"95691"},{"Location":"SIEMENS HEALTHCARE DIAGNOSTICS","Address":"1584 Enterprise Blvd","City":"West Sacramento","State":"CA","Zip":"95691"},{"Location":"SIEMENS HEALTHCARE DIAGNOSTICS","Address":"2040 Enterprise Blvd","City":"West Sacramento","State":"CA","Zip":"95691"},{"Location":"STREETS OF LONDON","Address":"2200 Lake Washington Blvd 100","City":"West Sacramento","State":"CA","Zip":"95691"},{"Location":"TARGET","Address":"2005 Town Center Plz","City":"West Sacramento","State":"CA","Zip":"95691"},{"Location":"THE WASH MILL","Address":"1282 W Capitol Ave","City":"West Sacramento","State":"CA","Zip":"95691"},{"Location":"UNIVERSAL LIMOUSINE","Address":"2505 Front St","City":"West Sacramento","State":"CA","Zip":"95691"},{"Location":"VINCE'S","Address":"840 Harbor Blvd","City":"West Sacramento","State":"CA","Zip":"95691"},{"Location":"WAHNSIEDLER","Address":"2907 W Capitol Ave","City":"West Sacramento","State":"CA","Zip":"95691"},{"Location":"WEST AUTO DETAILING2","Address":"852 Northport Dr 110","City":"West Sacramento","State":"CA","Zip":"95691"},{"Location":"WEST SAC SPORTS BAR 2","Address":"3340 Jefferson Blvd","City":"West Sacramento","State":"CA","Zip":"95691"},{"Location":"WESTERN TRUCK CENTER","Address":"1925 Enterprise Blvd","City":"West Sacramento","State":"CA","Zip":"95691"},{"Location":"WORLD ENVIROMENTAL","Address":"3208 W Capitol Ave","City":"West Sacramento","State":"CA","Zip":"95691"}]