[{"Location":"ALDERSON CONVALESCENT  H","Address":"124 Walnut St","City":"Woodland","State":"CA","Zip":"95695"},{"Location":"ARMANDOS WESTERN WEAR","Address":"812 Main St","City":"Woodland","State":"CA","Zip":"95695"},{"Location":"BOTANICA SANTA MARTA","Address":"117 W Main St 12b","City":"Woodland","State":"CA","Zip":"95695"},{"Location":"BROWNS CORNER BAR AND GRILL","Address":"392 W Main St","City":"Woodland","State":"CA","Zip":"95695"},{"Location":"BURGER SALOON","Address":"601 Main St","City":"Woodland","State":"CA","Zip":"95695"},{"Location":"CAPITAL SALOON AND GRILL","Address":"102 Main St","City":"Woodland","State":"CA","Zip":"95695"},{"Location":"CORKWOOD RESTAURANT","Address":"117 W Court St","City":"Woodland","State":"CA","Zip":"95695"},{"Location":"DIAMOND D GENERAL ENGINEERING","Address":"32500 State Hwy 16","City":"Woodland","State":"CA","Zip":"95695"},{"Location":"EL CHARRO RESTAURANT","Address":"415 Main St","City":"Woodland","State":"CA","Zip":"95695"},{"Location":"ELITE NAILS","Address":"68b W Court St","City":"Woodland","State":"CA","Zip":"95695"},{"Location":"FRATERNAL ORD OF EAGLES","Address":"37650 State Highway 16","City":"Woodland","State":"CA","Zip":"95695"},{"Location":"HECHO EN MEXICO","Address":"374 California St","City":"Woodland","State":"CA","Zip":"95695"},{"Location":"HOBLIT","Address":"333 Main St","City":"Woodland","State":"CA","Zip":"95695"},{"Location":"IN SHAPE WOODLAND","Address":"249 California St","City":"Woodland","State":"CA","Zip":"95695"},{"Location":"K AND M FLORAL","Address":"537 Main St","City":"Woodland","State":"CA","Zip":"95695"},{"Location":"KBS BARBERSHOP","Address":"628 Cottonwood St","City":"Woodland","State":"CA","Zip":"95695"},{"Location":"LAMAR MASON","Address":"17990 Ruddy St","City":"Woodland","State":"CA","Zip":"95695"},{"Location":"NUGGET MARKET","Address":"157 Main St","City":"Woodland","State":"CA","Zip":"95695"},{"Location":"OASIS CLUB AND SPA","Address":"1317 College St","City":"Woodland","State":"CA","Zip":"95695"},{"Location":"PLAINFIELD STATION BAR","Address":"23944 County Road 98","City":"Woodland","State":"CA","Zip":"95695"},{"Location":"RICHARD CRUZ","Address":"60 W Main St","City":"Woodland","State":"CA","Zip":"95695"},{"Location":"RODRIGUEZ","Address":"140 W Main St","City":"Woodland","State":"CA","Zip":"95695"},{"Location":"SAN BRUNO BOWLING CTR LL","Address":"154 W Main St","City":"Woodland","State":"CA","Zip":"95695"},{"Location":"STACKD & BREWD","Address":"540 Main St","City":"Woodland","State":"CA","Zip":"95695"},{"Location":"STEVE'S PIZZA","Address":"714 Main St","City":"Woodland","State":"CA","Zip":"95695"},{"Location":"SUPER WASH AND DRY","Address":"245 California St","City":"Woodland","State":"CA","Zip":"95695"},{"Location":"WILD WINGS GOLF","Address":"18540 Wildwing Dr","City":"Woodland","State":"CA","Zip":"95695"},{"Location":"WILD WINGS GOLF COURSE","Address":"18540 Wildwing Dr","City":"Woodland","State":"CA","Zip":"95695"},{"Location":"WOODLAND DIALISIS SERVICES","Address":"35 W Main St","City":"Woodland","State":"CA","Zip":"95695"},{"Location":"WOODLAND FAMILY DENTAL","Address":"58 W Court St","City":"Woodland","State":"CA","Zip":"95695"},{"Location":"WOODLAND HEALTHCARE","Address":"1200 Fairchild Ct","City":"Woodland","State":"CA","Zip":"95695"},{"Location":"YOLO FLIERS CLUB","Address":"17980 County Rd 94b","City":"Woodland","State":"CA","Zip":"95695"},{"Location":"YOLO SMOG","Address":"374 W Main St","City":"Woodland","State":"CA","Zip":"95695"},{"Location":"ALDERSON CONVALESCENT  H","Address":"124 Walnut St","City":"Woodland","State":"CA","Zip":"95695"},{"Location":"ARMANDOS WESTERN WEAR","Address":"812 Main St","City":"Woodland","State":"CA","Zip":"95695"},{"Location":"BOTANICA SANTA MARTA","Address":"117 W Main St 12b","City":"Woodland","State":"CA","Zip":"95695"},{"Location":"BROWNS CORNER BAR AND GRILL","Address":"392 W Main St","City":"Woodland","State":"CA","Zip":"95695"},{"Location":"BURGER SALOON","Address":"601 Main St","City":"Woodland","State":"CA","Zip":"95695"},{"Location":"CAPITAL SALOON AND GRILL","Address":"102 Main St","City":"Woodland","State":"CA","Zip":"95695"},{"Location":"CORKWOOD RESTAURANT","Address":"117 W Court St","City":"Woodland","State":"CA","Zip":"95695"},{"Location":"DIAMOND D GENERAL ENGINEERING","Address":"32500 State Hwy 16","City":"Woodland","State":"CA","Zip":"95695"},{"Location":"EL CHARRO RESTAURANT","Address":"415 Main St","City":"Woodland","State":"CA","Zip":"95695"},{"Location":"ELITE NAILS","Address":"68b W Court St","City":"Woodland","State":"CA","Zip":"95695"},{"Location":"FRATERNAL ORD OF EAGLES","Address":"37650 State Highway 16","City":"Woodland","State":"CA","Zip":"95695"},{"Location":"HECHO EN MEXICO","Address":"374 California St","City":"Woodland","State":"CA","Zip":"95695"},{"Location":"HOBLIT","Address":"333 Main St","City":"Woodland","State":"CA","Zip":"95695"},{"Location":"IN SHAPE WOODLAND","Address":"249 California St","City":"Woodland","State":"CA","Zip":"95695"},{"Location":"K AND M FLORAL","Address":"537 Main St","City":"Woodland","State":"CA","Zip":"95695"},{"Location":"KBS BARBERSHOP","Address":"628 Cottonwood St","City":"Woodland","State":"CA","Zip":"95695"},{"Location":"LAMAR MASON","Address":"17990 Ruddy St","City":"Woodland","State":"CA","Zip":"95695"},{"Location":"NUGGET MARKET","Address":"157 Main St","City":"Woodland","State":"CA","Zip":"95695"},{"Location":"OASIS CLUB AND SPA","Address":"1317 College St","City":"Woodland","State":"CA","Zip":"95695"},{"Location":"PLAINFIELD STATION BAR","Address":"23944 County Road 98","City":"Woodland","State":"CA","Zip":"95695"},{"Location":"RICHARD CRUZ","Address":"60 W Main St","City":"Woodland","State":"CA","Zip":"95695"},{"Location":"RODRIGUEZ","Address":"140 W Main St","City":"Woodland","State":"CA","Zip":"95695"},{"Location":"SAN BRUNO BOWLING CTR LL","Address":"154 W Main St","City":"Woodland","State":"CA","Zip":"95695"},{"Location":"STEVE'S PIZZA","Address":"714 Main St","City":"Woodland","State":"CA","Zip":"95695"},{"Location":"SUPER WASH AND DRY","Address":"245 California St","City":"Woodland","State":"CA","Zip":"95695"},{"Location":"WILD WINGS GOLF","Address":"18540 Wildwing Dr","City":"Woodland","State":"CA","Zip":"95695"},{"Location":"WILD WINGS GOLF COURSE","Address":"18540 Wildwing Dr","City":"Woodland","State":"CA","Zip":"95695"},{"Location":"WOODLAND DIALISIS SERVICES","Address":"35 W Main St","City":"Woodland","State":"CA","Zip":"95695"},{"Location":"WOODLAND FAMILY DENTAL","Address":"58 W Court St","City":"Woodland","State":"CA","Zip":"95695"},{"Location":"WOODLAND HEALTHCARE","Address":"1200 Fairchild Ct","City":"Woodland","State":"CA","Zip":"95695"},{"Location":"YOLO FLIERS CLUB","Address":"17980 County Rd 94b","City":"Woodland","State":"CA","Zip":"95695"},{"Location":"YOLO SMOG","Address":"374 W Main St","City":"Woodland","State":"CA","Zip":"95695"}]