[{"Location":"ANYTIME FITNESS","Address":"113 Main St","City":"Winters","State":"CA","Zip":"95694"},{"Location":"BURGER KING #18516","Address":"701 Matsumoto Lane A","City":"Winters","State":"CA","Zip":"95694"},{"Location":"CLASSIC CUTS","Address":"100 Main St","City":"Winters","State":"CA","Zip":"95694"},{"Location":"CREEKSIDE BAR","Address":"4513 Putah Creek Rd","City":"Winters","State":"CA","Zip":"95694"},{"Location":"FXFOUR LLC","Address":"22074 State Highway 128","City":"Winters","State":"CA","Zip":"95694"},{"Location":"FXFOUR LLC 2","Address":"22074 State Highway 128","City":"Winters","State":"CA","Zip":"95694"},{"Location":"FXFOUR LLC 3","Address":"22074 State Highway 128","City":"Winters","State":"CA","Zip":"95694"},{"Location":"THE PRESERVES","Address":"200 Railroad Ave","City":"Winters","State":"CA","Zip":"95694"},{"Location":"WINTERS AUTO BODY AND PAINT","Address":"4530 Putah Creek Rd","City":"Winters","State":"CA","Zip":"95694"},{"Location":"ANYTIME FITNESS","Address":"113 Main St","City":"Winters","State":"CA","Zip":"95694"},{"Location":"BURGER KING #18516","Address":"701 Matsumoto Lane A","City":"Winters","State":"CA","Zip":"95694"},{"Location":"CLASSIC CUTS","Address":"100 Main St","City":"Winters","State":"CA","Zip":"95694"},{"Location":"CREEKSIDE BAR","Address":"4513 Putah Creek Rd","City":"Winters","State":"CA","Zip":"95694"},{"Location":"FXFOUR LLC","Address":"22074 State Highway 128","City":"Winters","State":"CA","Zip":"95694"},{"Location":"FXFOUR LLC 2","Address":"22074 State Highway 128","City":"Winters","State":"CA","Zip":"95694"},{"Location":"FXFOUR LLC 3","Address":"22074 State Highway 128","City":"Winters","State":"CA","Zip":"95694"},{"Location":"THE PRESERVES","Address":"200 Railroad Ave","City":"Winters","State":"CA","Zip":"95694"},{"Location":"WINTERS AUTO BODY AND PAINT","Address":"4530 Putah Creek Rd","City":"Winters","State":"CA","Zip":"95694"}]