[{"Location":"CALTRAN COMPLEX #3","Address":"5102 Donner Pass Rd","City":"Sada Springs","State":"CA","Zip":"95728"},{"Location":"CALTRANS COMPLEX 2","Address":"5100 Donner Pass Rd","City":"Soda Springs","State":"CA","Zip":"95728"},{"Location":"CALTRANS KINGVALE OFF 5 COMPLE","Address":"51121 Donner Pass Rd","City":"Soda Springs","State":"CA","Zip":"95728"},{"Location":"RAINBOW TAVERN & LODGE","Address":"50080 Hampshire Rocks Road","City":"Soda Springs","State":"CA","Zip":"95728"},{"Location":"SHATTERHANDS HOLDING","Address":"21719 Donner Pass Rd","City":"Soda Springs","State":"CA","Zip":"95728"},{"Location":"CALTRAN COMPLEX #3","Address":"5102 Donner Pass Rd","City":"Sada Springs","State":"CA","Zip":"95728"},{"Location":"CALTRANS COMPLEX 2","Address":"5100 Donner Pass Rd","City":"Soda Springs","State":"CA","Zip":"95728"},{"Location":"CALTRANS KINGVALE OFF 5 COMPLE","Address":"51121 Donner Pass Rd","City":"Soda Springs","State":"CA","Zip":"95728"},{"Location":"RAINBOW TAVERN & LODGE","Address":"50080 Hampshire Rocks Road","City":"Soda Springs","State":"CA","Zip":"95728"},{"Location":"SHATTERHANDS HOLDING","Address":"21719 Donner Pass Rd","City":"Soda Springs","State":"CA","Zip":"95728"}]