[{"Location":"CA RIPPED FITNESS","Address":"5110 Foothills Blvd 100","City":"Roseville","State":"CA","Zip":"95747"},{"Location":"CALIFORNIA FAMILY FITNESS","Address":"5001 Foothills Blvd","City":"Roseville","State":"CA","Zip":"95747"},{"Location":"CRAWFISH FACTORY","Address":"1251 Base Line Rd 100","City":"Roseville","State":"CA","Zip":"95747"},{"Location":"DIAMOND PLATE BAR AND GRILL","Address":"5030 Foothills Blvd","City":"Roseville","State":"CA","Zip":"95747"},{"Location":"DOONAN BARBERSHOP AND STYLING","Address":"5080 Foothills Blvd 3","City":"Roseville","State":"CA","Zip":"95747"},{"Location":"DUNN  ORTHODONTICS","Address":"10012 Foothills Blvd","City":"Roseville","State":"CA","Zip":"95747"},{"Location":"EL AZTECA","Address":"4006 Foothills Blvd","City":"Roseville","State":"CA","Zip":"95747"},{"Location":"FITNESS MD","Address":"10015 Foothills Blvd Ste10","City":"Roseville","State":"CA","Zip":"95747"},{"Location":"GOLD'S GYM #660","Address":"5110 Foothills Blvd","City":"Roseville","State":"CA","Zip":"95747"},{"Location":"GOLF MAINTANANCE BLDG","Address":"6501 Fiddyment Rd","City":"Roseville","State":"CA","Zip":"95747"},{"Location":"GREAT CLIPS 3469","Address":"9055 Woodcreek Oaks Blvd","City":"Roseville","State":"CA","Zip":"95747"},{"Location":"HEWLETT PACKARD","Address":"8000 Foothills Blvd 554","City":"Roseville","State":"CA","Zip":"95747"},{"Location":"KIMA BELLA NAILS","Address":"7451 Foothills Blvd 110","City":"Roseville","State":"CA","Zip":"95747"},{"Location":"LA PROVENCE","Address":"110 Diamond Creek Pl 150","City":"Roseville","State":"CA","Zip":"95747"},{"Location":"LEADING EDGE TAX SOLUTIO","Address":"10016 Foothills Blvd","City":"Roseville","State":"CA","Zip":"95747"},{"Location":"LEGENDS %40 WOODCREEK","Address":"5880 Woodcreek Oaks Blvd","City":"Roseville","State":"CA","Zip":"95747"},{"Location":"MORGAN CREEK GOLF & COUNTRY CL","Address":"8791 Morgan Creek Ln","City":"Roseville","State":"CA","Zip":"95747"},{"Location":"MOUNTAIN MIKES PIZZA","Address":"3989 Foothills Blvd A","City":"Roseville","State":"CA","Zip":"95747"},{"Location":"NAIL MODE","Address":"4010 Foothills Blvd","City":"Roseville","State":"CA","Zip":"95747"},{"Location":"PLACER PIZZA COMPANY INC","Address":"5080 5080  #5 Foo","City":"Roseville","State":"CA","Zip":"95747"},{"Location":"PLACER TITLE COMPANY","Address":"9087 Foothills Blvd 700","City":"Roseville","State":"CA","Zip":"95747"},{"Location":"ROUND TABLE PIZZA #669","Address":"4010 Foothills Blvd 108","City":"Roseville","State":"CA","Zip":"95747"},{"Location":"ROUND TABLE PIZZA #915","Address":"9055 Woodcreek Oaks Blvd","City":"Roseville","State":"CA","Zip":"95747"},{"Location":"SAKURA JAPANESE BISTRO &","Address":"1426 Blue Oaks Blvd 100","City":"Roseville","State":"CA","Zip":"95747"},{"Location":"SPORT CLIPS CA114","Address":"4021 Woodcreek Oaks Blvd 156","City":"Roseville","State":"CA","Zip":"95747"},{"Location":"SUN CITY ROSEVILLE COMMUNITY","Address":"7050 Del Webb Blvd","City":"Roseville","State":"CA","Zip":"95747"},{"Location":"THE CLUB AT WESTPARK","Address":"3240 Kennerleigh Pkwy","City":"Roseville","State":"CA","Zip":"95747"},{"Location":"TOGOS","Address":"5098 Foothills Blvd","City":"Roseville","State":"CA","Zip":"95747"},{"Location":"UNION PACIFIC RAIL ROAD","Address":"10031 Foothills Blvd","City":"Roseville","State":"CA","Zip":"95747"},{"Location":"WOODCREEK GOLF CLUB","Address":"5880 Woodcreek Oaks Blvd","City":"Roseville","State":"CA","Zip":"95747"},{"Location":"CA RIPPED FITNESS","Address":"5110 Foothills Blvd 100","City":"Roseville","State":"CA","Zip":"95747"},{"Location":"CALIFORNIA FAMILY FITNESS","Address":"5001 Foothills Blvd","City":"Roseville","State":"CA","Zip":"95747"},{"Location":"CRAWFISH FACTORY","Address":"1251 Base Line Rd 100","City":"Roseville","State":"CA","Zip":"95747"},{"Location":"DIAMOND PLATE BAR AND GRILL","Address":"5030 Foothills Blvd","City":"Roseville","State":"CA","Zip":"95747"},{"Location":"DOONAN BARBERSHOP AND STYLING","Address":"5080 Foothills Blvd 3","City":"Roseville","State":"CA","Zip":"95747"},{"Location":"DUNN  ORTHODONTICS","Address":"10012 Foothills Blvd","City":"Roseville","State":"CA","Zip":"95747"},{"Location":"EL AZTECA","Address":"4006 Foothills Blvd","City":"Roseville","State":"CA","Zip":"95747"},{"Location":"FITNESS MD","Address":"10015 Foothills Blvd Ste10","City":"Roseville","State":"CA","Zip":"95747"},{"Location":"GOLD'S GYM #660","Address":"5110 Foothills Blvd","City":"Roseville","State":"CA","Zip":"95747"},{"Location":"GOLF MAINTANANCE BLDG","Address":"6501 Fiddyment Rd","City":"Roseville","State":"CA","Zip":"95747"},{"Location":"GREAT CLIPS 3469","Address":"9055 Woodcreek Oaks Blvd","City":"Roseville","State":"CA","Zip":"95747"},{"Location":"HEWLETT PACKARD","Address":"8000 Foothills Blvd 554","City":"Roseville","State":"CA","Zip":"95747"},{"Location":"KIMA BELLA NAILS","Address":"7451 Foothills Blvd 110","City":"Roseville","State":"CA","Zip":"95747"},{"Location":"LA PROVENCE","Address":"110 Diamond Creek Pl 150","City":"Roseville","State":"CA","Zip":"95747"},{"Location":"LEADING EDGE TAX SOLUTIO","Address":"10016 Foothills Blvd","City":"Roseville","State":"CA","Zip":"95747"},{"Location":"LEGENDS %40 WOODCREEK","Address":"5880 Woodcreek Oaks Blvd","City":"Roseville","State":"CA","Zip":"95747"},{"Location":"MORGAN CREEK GOLF & COUNTRY CL","Address":"8791 Morgan Creek Ln","City":"Roseville","State":"CA","Zip":"95747"},{"Location":"MOUNTAIN MIKES PIZZA","Address":"3989 Foothills Blvd A","City":"Roseville","State":"CA","Zip":"95747"},{"Location":"NAIL MODE","Address":"4010 Foothills Blvd","City":"Roseville","State":"CA","Zip":"95747"},{"Location":"PLACER PIZZA COMPANY INC","Address":"5080 5080  #5 Foo","City":"Roseville","State":"CA","Zip":"95747"},{"Location":"PLACER TITLE COMPANY","Address":"9087 Foothills Blvd 700","City":"Roseville","State":"CA","Zip":"95747"},{"Location":"ROUND TABLE PIZZA #669","Address":"4010 Foothills Blvd 108","City":"Roseville","State":"CA","Zip":"95747"},{"Location":"ROUND TABLE PIZZA #915","Address":"9055 Woodcreek Oaks Blvd","City":"Roseville","State":"CA","Zip":"95747"},{"Location":"SAKURA JAPANESE BISTRO &","Address":"1426 Blue Oaks Blvd 100","City":"Roseville","State":"CA","Zip":"95747"},{"Location":"SPORT CLIPS CA114","Address":"4021 Woodcreek Oaks Blvd 156","City":"Roseville","State":"CA","Zip":"95747"},{"Location":"SUN CITY ROSEVILLE COMMUNITY","Address":"7050 Del Webb Blvd","City":"Roseville","State":"CA","Zip":"95747"},{"Location":"THE CLUB AT WESTPARK","Address":"3240 Kennerleigh Pkwy","City":"Roseville","State":"CA","Zip":"95747"},{"Location":"TOGOS","Address":"5098 Foothills Blvd","City":"Roseville","State":"CA","Zip":"95747"},{"Location":"UNION PACIFIC RAIL ROAD","Address":"10031 Foothills Blvd","City":"Roseville","State":"CA","Zip":"95747"},{"Location":"WOODCREEK GOLF CLUB","Address":"5880 Woodcreek Oaks Blvd","City":"Roseville","State":"CA","Zip":"95747"}]