[{"Location":"BEACH HUT DELI","Address":"6823 Douglas Blvd","City":"Granite Bay","State":"CA","Zip":"95746"},{"Location":"EL POLLO DE ORO","Address":"8657 Auburn Folsom Rd","City":"Granite Bay","State":"CA","Zip":"95746"},{"Location":"FIRST ALLIED SECURITES","Address":"5905 Granite Lake Dr 110","City":"Granite Bay","State":"CA","Zip":"95746"},{"Location":"GOLD'S GYM","Address":"8665 Auburn Folsom Rd","City":"Granite Bay","State":"CA","Zip":"95746"},{"Location":"GRANITE BAY GOLF CLUB","Address":"9600 Golf Club Dr","City":"Granite Bay","State":"CA","Zip":"95746"},{"Location":"GRANITE BAY POSTAL","Address":"4120 Douglas Blvd 306","City":"Granite Bay","State":"CA","Zip":"95746"},{"Location":"GRANITE BAY VILLAS 2","Address":"8342 Joe Rodgers Rd","City":"Granite Bay","State":"CA","Zip":"95746"},{"Location":"HAWKS RESTAURANT","Address":"5530 Douglas Blvd 110","City":"Granite Bay","State":"CA","Zip":"95746"},{"Location":"J AND L CHAVEZ PROPERTIES","Address":"8830 Bella Terra Pl","City":"Granite Bay","State":"CA","Zip":"95746"},{"Location":"LAKDESIDE BEVERAGES","Address":"7130 Douglas Blvd","City":"Granite Bay","State":"CA","Zip":"95746"},{"Location":"MICHAEL S. HAWES & ASSOC","Address":"4168 Douglas Blvd 300","City":"Granite Bay","State":"CA","Zip":"95746"},{"Location":"MOUNTAIN MIKES PIZZA 2","Address":"6811 Douglas Blvd","City":"Granite Bay","State":"CA","Zip":"95746"},{"Location":"MR. PICKLES","Address":"4060 Douglas Blvd 105","City":"Granite Bay","State":"CA","Zip":"95746"},{"Location":"PETES REST & BREWHOUSE","Address":"5540 Douglas Blvd 150","City":"Granite Bay","State":"CA","Zip":"95746"},{"Location":"PETES RESTAURANT & BREW","Address":"5540 Douglas Blvd 140","City":"Granite Bay","State":"CA","Zip":"95746"},{"Location":"PREMIER UNITED COMMUNITIES","Address":"8483 Douglas Plaza Dr","City":"Granite Bay","State":"CA","Zip":"95746"},{"Location":"RUBICON FLOORING AND DESIGN","Address":"5540 Douglas Blvd 120","City":"Granite Bay","State":"CA","Zip":"95746"},{"Location":"SENIOR CARE BY RNS","Address":"9890 Village Center Dr","City":"Granite Bay","State":"CA","Zip":"95746"}]