[{"Location":"ADVANTAGE BUILDING PRODUCTS","Address":"11375 Sunrise Park Dr 200","City":"Rancho Cordova","State":"CA","Zip":"95742"},{"Location":"AEROJET ROCKETDYNE F","Address":"2001 Aerojet Rd 2019","City":"Rancho Cordova","State":"CA","Zip":"95742"},{"Location":"AEROJET ROCKETDYNE G","Address":"2001 Aerojet Rd 2019b","City":"Rancho Cordova","State":"CA","Zip":"95742"},{"Location":"AEROJET ROCKETDYNE H","Address":"2001 Aerojet Rd 2019c","City":"Rancho Cordova","State":"CA","Zip":"95742"},{"Location":"BECK'S FURNITURE","Address":"11850 Folsom Blvd","City":"Rancho Cordova","State":"CA","Zip":"95742"},{"Location":"CA STATE PARKS -NORCOM","Address":"13304 White Rock Rd","City":"Rancho Cordova","State":"CA","Zip":"95742"},{"Location":"CAFE EXPRESS","Address":"2006 Aerojet Rd","City":"Rancho Cordova","State":"CA","Zip":"95742"},{"Location":"CAFE SUNRISE","Address":"3590 Sunrise Blvd","City":"Rancho Cordova","State":"CA","Zip":"95742"},{"Location":"CAL TRANS","Address":"3165 Gold Valley Dr","City":"Rancho Cordova","State":"CA","Zip":"95742"},{"Location":"CALIFORNIA ACADEMY FOR B","Address":"11347 Folsom Blvd A","City":"Rancho Cordova","State":"CA","Zip":"95742"},{"Location":"CALIFORNIA HIGHWAY PATROL","Address":"11336 Trade Center Dr","City":"Rancho Cordova","State":"CA","Zip":"95742"},{"Location":"CARNICERIA SALVADORENA","Address":"3021 Sunrise Blvd","City":"Rancho Cordova","State":"CA","Zip":"95742"},{"Location":"CATTLEMANS RANCHO CORDOV","Address":"12409 Folsom Blvd","City":"Rancho Cordova","State":"CA","Zip":"95742"},{"Location":"CENTRAL STATION GRILL IN","Address":"3084 Sunrise Blvd 8","City":"Rancho Cordova","State":"CA","Zip":"95742"},{"Location":"CONCEPT TECHNOLOGIES INC","Address":"11453 Sunrise Gold Cir","City":"Rancho Cordova","State":"CA","Zip":"95742"},{"Location":"EXOTIC AUTO RECYCLING INC","Address":"3790 Omec Cir","City":"Rancho Cordova","State":"CA","Zip":"95742"},{"Location":"FOLSOM LAKE FORD TRUCK","Address":"2441 Mercantile Dr","City":"Rancho Cordova","State":"CA","Zip":"95742"},{"Location":"FOLSOM LAKE HONDA","Address":"12505 Automall Pkwy","City":"Rancho Cordova","State":"CA","Zip":"95742"},{"Location":"GENCORP","Address":"2001 Aerojet Rd","City":"Rancho Cordova","State":"CA","Zip":"95742"},{"Location":"GENERAL TECHNOLOGIES","Address":"3806 Security Park Dr","City":"Rancho Cordova","State":"CA","Zip":"95742"},{"Location":"INTEGRATED DESIGN & FABR","Address":"3315 Monier Cir 4","City":"Rancho Cordova","State":"CA","Zip":"95742"},{"Location":"METRO CITY SOCCER LLC","Address":"11327 Folsom Blvd 120","City":"Rancho Cordova","State":"CA","Zip":"95742"},{"Location":"OLD E METAL WORKS","Address":"3263 Monier Cir C","City":"Rancho Cordova","State":"CA","Zip":"95742"},{"Location":"PURE GOLD","Address":"Sunrise B 3000","City":"Rancho Cordova","State":"CA","Zip":"95742"},{"Location":"RANCHO CORDOVA ELKS LODGE","Address":"11440 Elks Cir","City":"Rancho Cordova","State":"CA","Zip":"95742"},{"Location":"RANCHO TOYOTA RECYCLING","Address":"3624 Recycle Rd","City":"Rancho Cordova","State":"CA","Zip":"95742"},{"Location":"REGAL MARKETING","Address":"11500 Sunrise Gold Cir E","City":"Rancho Cordova","State":"CA","Zip":"95742"},{"Location":"SAFE CREDIT UNION","Address":"12519 Folsom Blvd","City":"Rancho Cordova","State":"CA","Zip":"95742"},{"Location":"SAMURAI SUSHI","Address":"12251 Folsom Blvd","City":"Rancho Cordova","State":"CA","Zip":"95742"},{"Location":"SCRIBNER PLASTICS","Address":"11455 Hydraulics Dr","City":"Rancho Cordova","State":"CA","Zip":"95742"},{"Location":"SMS MOTORSPORTS INC","Address":"11330 Sunco Dr","City":"Rancho Cordova","State":"CA","Zip":"95742"},{"Location":"SOUTH OF FRESCA","Address":"2931 Sunrise Blvd 120","City":"Rancho Cordova","State":"CA","Zip":"95742"},{"Location":"TCF HOLDINGS","Address":"11369 Sunrise Gold Cir A","City":"Rancho Cordova","State":"CA","Zip":"95742"},{"Location":"THE OLD SPAGHETTI FACTORY","Address":"12401 Folsom Blvd","City":"Rancho Cordova","State":"CA","Zip":"95742"},{"Location":"THE POOL DOCTOR","Address":"11515 Aerotech Ct","City":"Rancho Cordova","State":"CA","Zip":"95742"},{"Location":"THE RUGEN FAMILY GENERAL PARTN","Address":"3257 Monier Cir A","City":"Rancho Cordova","State":"CA","Zip":"95742"},{"Location":"C C MYERS INC","Address":"3286 Fitzerald Road","City":"Rancho Coreova","State":"CA","Zip":"95742"}]