[{"Location":"BELLA NAIL","Address":"5600 Whitelock Pkwy 130","City":"Elk Grove","State":"CA","Zip":"95757"},{"Location":"C ANT T ROOM BOARDING","Address":"9721 Sage Thrasher Cir","City":"Elk Grove","State":"CA","Zip":"95757"},{"Location":"CENTENIAL RANCH SPORTS BAR","Address":"10408 Franklin Blvd","City":"Elk Grove","State":"CA","Zip":"95757"},{"Location":"ELK GROVE FORD","Address":"9645 Auto Center Dr","City":"Elk Grove","State":"CA","Zip":"95757"},{"Location":"ELK GROVE HONDA","Address":"8550 Laguna Grove Dr","City":"Elk Grove","State":"CA","Zip":"95757"},{"Location":"EXCALIBUR PIZZA","Address":"10054 Bruceville Rd","City":"Elk Grove","State":"CA","Zip":"95757"},{"Location":"FAMILY BEAUTY SALON","Address":"10044 Bruceville Rd","City":"Elk Grove","State":"CA","Zip":"95757"},{"Location":"FIRE STATION SEVENTY TWO","Address":"10035 Atkins Dr","City":"Elk Grove","State":"CA","Zip":"95757"},{"Location":"HAYTONES","Address":"10413 Franklin Blvd","City":"Elk Grove","State":"CA","Zip":"95757"},{"Location":"METHODIST HOSPITAL","Address":"8220 Wymark Dr","City":"Elk Grove","State":"CA","Zip":"95757"},{"Location":"NIELLO BMW","Address":"8580 Laguna Grove Dr","City":"Elk Grove","State":"CA","Zip":"95757"},{"Location":"NISSAN OF ELK GROVE","Address":"8590 Laguna Grove Dr","City":"Elk Grove","State":"CA","Zip":"95757"},{"Location":"PEONY PALACE","Address":"10058 Bruceville Rd 100","City":"Elk Grove","State":"CA","Zip":"95757"},{"Location":"PHO LOTUS","Address":"9600 Bruceville Rd 100","City":"Elk Grove","State":"CA","Zip":"95757"},{"Location":"RCCC","Address":"12500 Bruceville Rd","City":"Elk Grove","State":"CA","Zip":"95757"},{"Location":"SCOTTRADE 54D","Address":"9630 Bruceville Rd 105","City":"Elk Grove","State":"CA","Zip":"95757"},{"Location":"STONELAKE VINE AND SPIRITS","Address":"2619 Riparian Dr 100","City":"Elk Grove","State":"CA","Zip":"95757"},{"Location":"SUSHI MONO","Address":"9624 Bruceville Rd 100","City":"Elk Grove","State":"CA","Zip":"95757"},{"Location":"THE FOHL GROUP LLC","Address":"6809 Sao Tiago Way","City":"Elk Grove","State":"CA","Zip":"95757"},{"Location":"WYNN NAILS & SPA","Address":"9630 Bruceville Rd 108","City":"Elk Grove","State":"CA","Zip":"95757"},{"Location":"BELLA NAIL","Address":"5600 Whitelock Pkwy 130","City":"Elk Grove","State":"CA","Zip":"95757"},{"Location":"C ANT T ROOM BOARDING","Address":"9721 Sage Thrasher Cir","City":"Elk Grove","State":"CA","Zip":"95757"},{"Location":"Centenial Ranch Sports Bar","Address":"10408 Franklin Blvd","City":"Elk Grove","State":"CA","Zip":"95757"},{"Location":"DIVINE CARE","Address":"5308 Dorcey Dr","City":"Elk Grove","State":"CA","Zip":"95757"},{"Location":"ELK GROVE FORD","Address":"9645 Auto Center Dr","City":"Elk Grove","State":"CA","Zip":"95757"},{"Location":"ELK GROVE HONDA","Address":"8550 Laguna Grove Dr","City":"Elk Grove","State":"CA","Zip":"95757"},{"Location":"EXCALIBUR PIZZA","Address":"10054 Bruceville Rd","City":"Elk Grove","State":"CA","Zip":"95757"},{"Location":"FAMILY BEAUTY SALON","Address":"10044 Bruceville Rd","City":"Elk Grove","State":"CA","Zip":"95757"},{"Location":"FIRE STATION SEVENTY TWO","Address":"10035 Atkins Dr","City":"Elk Grove","State":"CA","Zip":"95757"},{"Location":"HAYTONES","Address":"10413 Franklin Blvd","City":"Elk Grove","State":"CA","Zip":"95757"},{"Location":"METHODIST HOSPITAL","Address":"8220 Wymark Dr","City":"Elk Grove","State":"CA","Zip":"95757"},{"Location":"MIKE ENTERPRISES INC","Address":"10460 Franklin Blvd 4","City":"Elk Grove","State":"CA","Zip":"95757"},{"Location":"NIELLO BMW","Address":"8580 Laguna Grove Dr","City":"Elk Grove","State":"CA","Zip":"95757"},{"Location":"NISSAN OF ELK GROVE","Address":"8590 Laguna Grove Dr","City":"Elk Grove","State":"CA","Zip":"95757"},{"Location":"PEONY PALACE","Address":"10058 Bruceville Rd 100","City":"Elk Grove","State":"CA","Zip":"95757"},{"Location":"PHO LOTUS","Address":"9600 Bruceville Rd 100","City":"Elk Grove","State":"CA","Zip":"95757"},{"Location":"RCCC","Address":"12500 Bruceville Rd","City":"Elk Grove","State":"CA","Zip":"95757"},{"Location":"SCOTTRADE 54D","Address":"9630 Bruceville Rd 105","City":"Elk Grove","State":"CA","Zip":"95757"},{"Location":"STONELAKE VINE AND SPIRITS","Address":"2619 Riparian Dr 100","City":"Elk Grove","State":"CA","Zip":"95757"},{"Location":"SUSHI MONO","Address":"9624 Bruceville Rd 100","City":"Elk Grove","State":"CA","Zip":"95757"},{"Location":"THE FOHL GROUP LLC","Address":"6809 Sao Tiago Way","City":"Elk Grove","State":"CA","Zip":"95757"},{"Location":"WYNN NAILS & SPA","Address":"9630 Bruceville Rd 108","City":"Elk Grove","State":"CA","Zip":"95757"}]