[{"Location":"APPLE COMPUTERS","Address":"2911 Laguna Blvd","City":"Elk Grove","State":"CA","Zip":"95758"},{"Location":"APPLE INC 3","Address":"2511 Laguna Blvd B","City":"Elk Grove","State":"CA","Zip":"95758"},{"Location":"BJS RESTAURANT #451","Address":"9237 Laguna Springs Way","City":"Elk Grove","State":"CA","Zip":"95758"},{"Location":"CALIFORNIA FAMILY FITNESS","Address":"3443 Laguna Blvd","City":"Elk Grove","State":"CA","Zip":"95758"},{"Location":"CARDINAL HEALTH","Address":"3238 Dwight Rd","City":"Elk Grove","State":"CA","Zip":"95758"},{"Location":"CHEVY'S #0462","Address":"7401 Laguna Blvd 100","City":"Elk Grove","State":"CA","Zip":"95758"},{"Location":"CHILI'S #0730","Address":"7410 Laguna Blvd","City":"Elk Grove","State":"CA","Zip":"95758"},{"Location":"COACH'S RESTAURANT","Address":"3443 Laguna Blvd 150","City":"Elk Grove","State":"CA","Zip":"95758"},{"Location":"DAVITA #2343 W ELK GROVE","Address":"2208 Kausen Dr","City":"Elk Grove","State":"CA","Zip":"95758"},{"Location":"DICKEYS ELK GROVE","Address":"5110 Laguna Blvd 120","City":"Elk Grove","State":"CA","Zip":"95758"},{"Location":"DIVINE CARE LLC 1","Address":"4605 Mykonos Way","City":"Elk Grove","State":"CA","Zip":"95758"},{"Location":"FIRE STATION SEVENTY FIVE","Address":"2300 Maritime Dr","City":"Elk Grove","State":"CA","Zip":"95758"},{"Location":"FIRE STATION SEVENTY FOUR","Address":"6501 Rancho Laguna Dr","City":"Elk Grove","State":"CA","Zip":"95758"},{"Location":"FMC 71610000","Address":"8139 Elk Grove Blvd 200","City":"Elk Grove","State":"CA","Zip":"95758"},{"Location":"FRONTIER DEVELOPMENT","Address":"9070 Red Dog Creek Dr","City":"Elk Grove","State":"CA","Zip":"95758"},{"Location":"GP INC","Address":"9135 W Stockton Blvd 100","City":"Elk Grove","State":"CA","Zip":"95758"},{"Location":"HAMPTON INN & SUITES 0061262","Address":"2305 Longport Ct","City":"Elk Grove","State":"CA","Zip":"95758"},{"Location":"HILTON GARDEN INN","Address":"9241 Laguna Springs Dr","City":"Elk Grove","State":"CA","Zip":"95758"},{"Location":"HOLIDAY INN EXPRESS","Address":"2460 Maritime Dr","City":"Elk Grove","State":"CA","Zip":"95758"},{"Location":"I LOVE TERIYAKI","Address":"8234 Laguna Blvd","City":"Elk Grove","State":"CA","Zip":"95758"},{"Location":"KINTARO SUSHI","Address":"8355 Elk Grove Blvd 100","City":"Elk Grove","State":"CA","Zip":"95758"},{"Location":"LAGUNA FAMILY DENTAL","Address":"9024 Franklin Blvd 100","City":"Elk Grove","State":"CA","Zip":"95758"},{"Location":"LAMPPOST PIZZA","Address":"5109 Laguna Blvd 6","City":"Elk Grove","State":"CA","Zip":"95758"},{"Location":"LE AND LUU DENTAL GROUP","Address":"9575 Laguna Springs Dr 102","City":"Elk Grove","State":"CA","Zip":"95758"},{"Location":"LES SCHWAB TIRE","Address":"8410 Elk Grove Blvd","City":"Elk Grove","State":"CA","Zip":"95758"},{"Location":"MACARONI GRILL #1252","Address":"9198 W Stockton Blvd","City":"Elk Grove","State":"CA","Zip":"95758"},{"Location":"MEN'S WEARHOUSE #2294","Address":"7427 Laguna Blvd 100","City":"Elk Grove","State":"CA","Zip":"95758"},{"Location":"MERCY MEDICAL GROUP INC","Address":"9394 Big Horn Blvd","City":"Elk Grove","State":"CA","Zip":"95758"},{"Location":"MOUNTAIN MIKES PIZZA","Address":"7440 Laguna Blvd 114","City":"Elk Grove","State":"CA","Zip":"95758"},{"Location":"NUGGET MARKET","Address":"7101 Elk Grove Blvd","City":"Elk Grove","State":"CA","Zip":"95758"},{"Location":"ONE DAY INC","Address":"5826 Laguna Trail Way","City":"Elk Grove","State":"CA","Zip":"95758"},{"Location":"ORIGINAL PETES PIZZA","Address":"2475 Elk Grove Blvd 100","City":"Elk Grove","State":"CA","Zip":"95758"},{"Location":"OUTBACK STEAKHOUSE #0535","Address":"7221 Laguna Blvd","City":"Elk Grove","State":"CA","Zip":"95758"},{"Location":"PHO 1","Address":"7127 Elk Grove Blvd","City":"Elk Grove","State":"CA","Zip":"95758"},{"Location":"PIZZA HUT 028097","Address":"9015 Bruceville Rd 180","City":"Elk Grove","State":"CA","Zip":"95758"},{"Location":"PREMIER FITNESS","Address":"9198 Harbour Point Dr","City":"Elk Grove","State":"CA","Zip":"95758"},{"Location":"PRISCILLA  CAGAMPAN DDS","Address":"7721 Laguna Blvd 128","City":"Elk Grove","State":"CA","Zip":"95758"},{"Location":"QUAN NEM NINH HOA","Address":"8469 Elk Grove Blvd 7","City":"Elk Grove","State":"CA","Zip":"95758"},{"Location":"RED ROBIN #197","Address":"8245 Laguna Blvd","City":"Elk Grove","State":"CA","Zip":"95758"},{"Location":"ROUND TABLE PIZZA","Address":"5110 Laguna Blvd 119","City":"Elk Grove","State":"CA","Zip":"95758"},{"Location":"SATORI SUSHI","Address":"8451 Elk Grove Blvd 5","City":"Elk Grove","State":"CA","Zip":"95758"},{"Location":"SHEAR STYLE","Address":"6624 Laguna Blvd","City":"Elk Grove","State":"CA","Zip":"95758"},{"Location":"SPORT CLIPS CA109","Address":"8259 Laguna Blvd 140","City":"Elk Grove","State":"CA","Zip":"95758"},{"Location":"SUPER TACO","Address":"4720 Laguna Blvd 90","City":"Elk Grove","State":"CA","Zip":"95758"},{"Location":"SUTTER ELK GROVE SURGERY","Address":"8200 Laguna Blvd","City":"Elk Grove","State":"CA","Zip":"95758"},{"Location":"TAQUERIA VALLARTA","Address":"5105 Laguna Blvd","City":"Elk Grove","State":"CA","Zip":"95758"},{"Location":"TARGET 1025","Address":"7505 Laguna Blvd","City":"Elk Grove","State":"CA","Zip":"95758"},{"Location":"TGI FRIDAY'S ELK GROVE #2386","Address":"7101 Laguna Blvd","City":"Elk Grove","State":"CA","Zip":"95758"},{"Location":"THE FALLS EVENT CENTER","Address":"8280 Elk Grove Blvd","City":"Elk Grove","State":"CA","Zip":"95758"},{"Location":"THE FALLS EVENT CENTER2","Address":"8290 Elk Grove Blvd","City":"Elk Grove","State":"CA","Zip":"95758"},{"Location":"TRI COUNTIES BANK","Address":"4900 Elk Grove Blvd","City":"Elk Grove","State":"CA","Zip":"95758"},{"Location":"VALLEY HI COUNTRY CLUB INC","Address":"9595 Franklin Blvd","City":"Elk Grove","State":"CA","Zip":"95758"},{"Location":"WELLS FARGO BANK","Address":"5120 Laguna Blvd","City":"Elk Grove","State":"CA","Zip":"95758"},{"Location":"WESTERNER MOBILE HOME PARK","Address":"8476 W Stockton Blvd 32","City":"Elk Grove","State":"CA","Zip":"95758"},{"Location":"WINGSTOP","Address":"7440 Laguna Blvd 116","City":"Elk Grove","State":"CA","Zip":"95758"}]