[{"Location":"BONE SHAKER","Address":"2168 Sunset Blvd 104","City":"Rocklin","State":"CA","Zip":"95765"},{"Location":"CALIFORNIA FAMILY FITNESS","Address":"2165 Sunset Blvd","City":"Rocklin","State":"CA","Zip":"95765"},{"Location":"CELESTINOS PIZZA","Address":"6160 Stanford Ranch Rd 900","City":"Rocklin","State":"CA","Zip":"95765"},{"Location":"CHEFS TABLE","Address":"6847 Lonetree Blvd","City":"Rocklin","State":"CA","Zip":"95765"},{"Location":"CHEVY'S #2102","Address":"6604 Lonetree Blvd","City":"Rocklin","State":"CA","Zip":"95765"},{"Location":"EMF BROADCASTING","Address":"5700 W Oaks Blvd","City":"Rocklin","State":"CA","Zip":"95765"},{"Location":"EXTRA INNINGS","Address":"4233 Duluth Ave","City":"Rocklin","State":"CA","Zip":"95765"},{"Location":"FITNESS 19","Address":"6823 Lonetree Blvd Ste 1","City":"Rocklin","State":"CA","Zip":"95765"},{"Location":"GALA CONSTRUCTION%2C INC.","Address":"2215 Plaza Dr 100","City":"Rocklin","State":"CA","Zip":"95765"},{"Location":"GAP INC","Address":"695 Menlo Dr","City":"Rocklin","State":"CA","Zip":"95765"},{"Location":"HANDS COMM","Address":"595 Menlo Dr","City":"Rocklin","State":"CA","Zip":"95765"},{"Location":"HARDWOOD PALACE","Address":"1091 Tinker Rd 100","City":"Rocklin","State":"CA","Zip":"95765"},{"Location":"JAD CONSTRUCTION","Address":"1019 Nichols Ct","City":"Rocklin","State":"CA","Zip":"95765"},{"Location":"KIRBY RAMSEY LEASING","Address":"2340 Sunset Blvd 100","City":"Rocklin","State":"CA","Zip":"95765"},{"Location":"LUCILLES SMOKEHOUSE","Address":"6628 Lonetree Blvd","City":"Rocklin","State":"CA","Zip":"95765"},{"Location":"MOUNTAIN PEOPLES WAREHOUSE","Address":"1101 Sunset Blvd","City":"Rocklin","State":"CA","Zip":"95765"},{"Location":"MR PICKLES SANDWICH SHOP","Address":"2169 Sunset Blvd 600","City":"Rocklin","State":"CA","Zip":"95765"},{"Location":"NORTHERN VIDEO SYSTEM INC","Address":"3625 Cincinnati Ave","City":"Rocklin","State":"CA","Zip":"95765"},{"Location":"ORACLE CORPORATION","Address":"1001 Sunset Blvd","City":"Rocklin","State":"CA","Zip":"95765"},{"Location":"PETES REST. & BREW HOUSE","Address":"2210 Sunset Blvd 180","City":"Rocklin","State":"CA","Zip":"95765"},{"Location":"ROCKLIN RANCH APARTMENT","Address":"6601 Blue Oaks Blvd","City":"Rocklin","State":"CA","Zip":"95765"},{"Location":"SIZZLE MONGOLIAN BBQ","Address":"1230 Sunset Blvd 100","City":"Rocklin","State":"CA","Zip":"95765"},{"Location":"SJV REAL ESTATE APPR.","Address":"3825 Atherton Rd Ste50","City":"Rocklin","State":"CA","Zip":"95765"},{"Location":"SKIPOLINIS PIZZA","Address":"6600 Lonetree Blvd","City":"Rocklin","State":"CA","Zip":"95765"},{"Location":"SKY ZONE","Address":"1091 Tinker Rd 200b","City":"Rocklin","State":"CA","Zip":"95765"},{"Location":"SMA AMERICA LLC","Address":"3925 Atherton Rd","City":"Rocklin","State":"CA","Zip":"95765"},{"Location":"STRIKES UNLIMITED INC.","Address":"5681 Lonetree Blvd","City":"Rocklin","State":"CA","Zip":"95765"},{"Location":"UAIC GOLF DBA WHITNEY OAKS","Address":"2305 Clubhouse Dr","City":"Rocklin","State":"CA","Zip":"95765"},{"Location":"VERIZON WIRELESS","Address":"125 Cyber Ct","City":"Rocklin","State":"CA","Zip":"95765"},{"Location":"WALKER CELLULAR","Address":"1151 W Sunset Blvd B","City":"Rocklin","State":"CA","Zip":"95765"},{"Location":"WESTERN BALER & CONVEYOR","Address":"1007 Nichols Ct","City":"Rocklin","State":"CA","Zip":"95765"},{"Location":"WILLIAM JESSUP UNIVERSITY","Address":"333 Sunset Blvd","City":"Rocklin","State":"CA","Zip":"95765"}]