[{"Location":"ALOHA FAMILY DENTAL","Address":"1020 Sunast Ln 103","City":"El Dorado","State":"CA","Zip":"95762"},{"Location":"36 HANDLE","Address":"1010 White Rock Rd 100","City":"El Dorado Hills","State":"CA","Zip":"95762"},{"Location":"ADAM WEINER ATTORNEY AT LAW","Address":"5176 Hillsdale Cir 100","City":"El Dorado Hills","State":"CA","Zip":"95762"},{"Location":"AJI JAPANESE BEEF STROW INC","Address":"4361 Town Center Blvd","City":"El Dorado Hills","State":"CA","Zip":"95762"},{"Location":"AMERICAN RIVER AG INC","Address":"5075 Hillsdale Cir 200","City":"El Dorado Hills","State":"CA","Zip":"95762"},{"Location":"ARCHER BLD COMP","Address":"5151 Golden Foothill Pkwy","City":"El Dorado Hills","State":"CA","Zip":"95762"},{"Location":"ARTS OF CIGARS","Address":"2222 Francisco Dr 470","City":"El Dorado Hills","State":"CA","Zip":"95762"},{"Location":"BEACH HUT DELI LLC","Address":"3955 Park Dr","City":"El Dorado Hills","State":"CA","Zip":"95762"},{"Location":"BELLA BRU CAFE","Address":"3941 Park Dr","City":"El Dorado Hills","State":"CA","Zip":"95762"},{"Location":"BLUE SHIELD OF CALIFORNIA","Address":"4203 Town Center Blvd","City":"El Dorado Hills","State":"CA","Zip":"95762"},{"Location":"BURGER HUT","Address":"2222 Francisco Dr 100","City":"El Dorado Hills","State":"CA","Zip":"95762"},{"Location":"CASCADA","Address":"2222 Francisco Dr 600","City":"El Dorado Hills","State":"CA","Zip":"95762"},{"Location":"CHATEAU ARME","Address":"2222 Francisco Dr 500","City":"El Dorado Hills","State":"CA","Zip":"95762"},{"Location":"CHILI'S #1272","Address":"2085 Vine St","City":"El Dorado Hills","State":"CA","Zip":"95762"},{"Location":"CLARK DENTAL DDS","Address":"4420 Town Center Blvd 280","City":"El Dorado Hills","State":"CA","Zip":"95762"},{"Location":"DEAN T FUNADA%2C DDS","Address":"897 Embarcadero Dr 211","City":"El Dorado Hills","State":"CA","Zip":"95762"},{"Location":"DORADO SOFTWARE","Address":"4805 Golden Foothill Pkwy","City":"El Dorado Hills","State":"CA","Zip":"95762"},{"Location":"DST OUTPUT","Address":"5220 Robert J Mathews Pkwy","City":"El Dorado Hills","State":"CA","Zip":"95762"},{"Location":"EARLY TOAST BREAKFAST2","Address":"2023 Vine St 102","City":"El Dorado Hills","State":"CA","Zip":"95762"},{"Location":"EDWARD JONES INVESTMENTS","Address":"993 Governor Dr 102","City":"El Dorado Hills","State":"CA","Zip":"95762"},{"Location":"EL DORADO PHYSICAL THERAPY","Address":"907 Embarcadero Dr","City":"El Dorado Hills","State":"CA","Zip":"95762"},{"Location":"EL DORADO SALOON","Address":"879 Embarcadero Dr","City":"El Dorado Hills","State":"CA","Zip":"95762"},{"Location":"ENVISION RX OPTIONS","Address":"1100 Investment Blvd 100","City":"El Dorado Hills","State":"CA","Zip":"95762"},{"Location":"FIRESTONE #321277","Address":"390 Green Valley Rd","City":"El Dorado Hills","State":"CA","Zip":"95762"},{"Location":"FULL THROTTLE FITNESS INC","Address":"1115 Winfield 110","City":"El Dorado Hills","State":"CA","Zip":"95762"},{"Location":"GOLDEN ONE EL DORADO HLS","Address":"4311 Town Center Blvd 400","City":"El Dorado Hills","State":"CA","Zip":"95762"},{"Location":"HOP HOUSE","Address":"4364 Town Center Blvd 128","City":"El Dorado Hills","State":"CA","Zip":"95762"},{"Location":"KEY-BELL CORPORATION","Address":"4950 Windplay Dr","City":"El Dorado Hills","State":"CA","Zip":"95762"},{"Location":"KRISTNE L DOMENICHELLI CPA","Address":"1101 Investment Blvd 115","City":"El Dorado Hills","State":"CA","Zip":"95762"},{"Location":"LP CAPITAL ADVISORS","Address":"4370 Town Center Blvd 310","City":"El Dorado Hills","State":"CA","Zip":"95762"},{"Location":"LUXURY NAILS","Address":"4540 Post St","City":"El Dorado Hills","State":"CA","Zip":"95762"},{"Location":"MAVMIT","Address":"4822 Golden Foothill Pkwy 5","City":"El Dorado Hills","State":"CA","Zip":"95762"},{"Location":"MERCEDES BENZ OF EL DORADO HIL","Address":"1000 Mercedes Ln","City":"El Dorado Hills","State":"CA","Zip":"95762"},{"Location":"MIKES MARKETPLACE BARBER","Address":"4540 Post St 260","City":"El Dorado Hills","State":"CA","Zip":"95762"},{"Location":"MK AND A LLC","Address":"2023 Vine St","City":"El Dorado Hills","State":"CA","Zip":"95762"},{"Location":"MOUNTAIN MIKES PIZZA 1","Address":"2201 Francisco Dr","City":"El Dorado Hills","State":"CA","Zip":"95762"},{"Location":"PARAGON PRODUCTS LLC","Address":"4475 Golden Foothill Pkwy","City":"El Dorado Hills","State":"CA","Zip":"95762"},{"Location":"PEDIATRIC DENTAL SPECIALISTS","Address":"4420 Town Center Blvd 220","City":"El Dorado Hills","State":"CA","Zip":"95762"},{"Location":"PETES RESTAURANT& BREW","Address":"2023 Vine St","City":"El Dorado Hills","State":"CA","Zip":"95762"},{"Location":"RBC WEALTH MANAGEMENT","Address":"4944 Windplay Dr 310","City":"El Dorado Hills","State":"CA","Zip":"95762"},{"Location":"RELISH BURGER BAR","Address":"1000 White Rock Rd","City":"El Dorado Hills","State":"CA","Zip":"95762"},{"Location":"RHODES COMMERCIAL","Address":"5072 Hillsdale Cir 200","City":"El Dorado Hills","State":"CA","Zip":"95762"},{"Location":"ROUND TABLE PIZZA #13","Address":"4510 Post St 300","City":"El Dorado Hills","State":"CA","Zip":"95762"},{"Location":"RUFFHAUS HOT DOG COMPANY","Address":"4355 Town Center Blvd 114","City":"El Dorado Hills","State":"CA","Zip":"95762"},{"Location":"SACCROMENTO BASEBALL SCHOOL","Address":"1235 Glenhaven Ct","City":"El Dorado Hills","State":"CA","Zip":"95762"},{"Location":"SCHOOL INNVATION ACHIEVEMENT","Address":"5200 Golden Foothill Pkwy","City":"El Dorado Hills","State":"CA","Zip":"95762"},{"Location":"SCOTTRADE","Address":"4364 Town Center Blvd 328","City":"El Dorado Hills","State":"CA","Zip":"95762"},{"Location":"SIENNA","Address":"3909 Park Dr","City":"El Dorado Hills","State":"CA","Zip":"95762"},{"Location":"SKY SUSHI","Address":"3907 Park Dr","City":"El Dorado Hills","State":"CA","Zip":"95762"},{"Location":"SNAP FITNESS #1213","Address":"2222 Francisco Dr 290","City":"El Dorado Hills","State":"CA","Zip":"95762"},{"Location":"SPORT CLIPS CA116","Address":"4420 Town Center Blvd 120","City":"El Dorado Hills","State":"CA","Zip":"95762"},{"Location":"SRO","Address":"4364 Town Center Blvd 124","City":"El Dorado Hills","State":"CA","Zip":"95762"},{"Location":"STEVE'S PIZZA","Address":"3941 Park Dr 100","City":"El Dorado Hills","State":"CA","Zip":"95762"},{"Location":"SUSHI KUMA","Address":"4540 Post St 270","City":"El Dorado Hills","State":"CA","Zip":"95762"},{"Location":"SYNVASIVE TECH","Address":"4925 Robert J Mathews Pkwy","City":"El Dorado Hills","State":"CA","Zip":"95762"},{"Location":"TALISMAN COLLECTION","Address":"4357 Town Center Blvd 118","City":"El Dorado Hills","State":"CA","Zip":"95762"},{"Location":"THE PURPLE PLACE BAR & GRILL","Address":"363 Green Valley Rd","City":"El Dorado Hills","State":"CA","Zip":"95762"},{"Location":"VAN HULZEN ASSET","Address":"4370 Town Center Blvd 220","City":"El Dorado Hills","State":"CA","Zip":"95762"},{"Location":"VISTA IMAGING SERVICES","Address":"1235 Glenhaven Ct 400","City":"El Dorado Hills","State":"CA","Zip":"95762"},{"Location":"WELLS FARGO","Address":"4364 Town Center Blvd 220","City":"El Dorado Hills","State":"CA","Zip":"95762"},{"Location":"WIND GATE TECHNOLOGIES","Address":"1165 Investment Blvd 100","City":"El Dorado Hills","State":"CA","Zip":"95762"},{"Location":"WINTHER GOLF","Address":"5075 Hillsdale Cir 100","City":"El Dorado Hills","State":"CA","Zip":"95762"}]