[{"Location":"AMERICAN NAILS","Address":"1380 E Main St","City":"Woodland","State":"CA","Zip":"95776"},{"Location":"ANHEUSER-BUSCH WHLSLR #90479","Address":"550 Santa Anita Dr","City":"Woodland","State":"CA","Zip":"95776"},{"Location":"APPLEBEE'S #2140031","Address":"1790 E Main St","City":"Woodland","State":"CA","Zip":"95776"},{"Location":"CASTER","Address":"1837 E Gibson Rd G","City":"Woodland","State":"CA","Zip":"95776"},{"Location":"DICKEYS BARBECUE PIT","Address":"401 Pioneer Ave B","City":"Woodland","State":"CA","Zip":"95776"},{"Location":"EL ZITIO SPORTS BAR","Address":"11 East St","City":"Woodland","State":"CA","Zip":"95776"},{"Location":"EXCALIBUR PIZZA","Address":"421 Pioneer Ave F","City":"Woodland","State":"CA","Zip":"95776"},{"Location":"EXEL INC","Address":"2030 Hanson Way","City":"Woodland","State":"CA","Zip":"95776"},{"Location":"FOOD FOR LESS","Address":"451 Pioneer Ave","City":"Woodland","State":"CA","Zip":"95776"},{"Location":"GREAT CLIPS","Address":"1897 E Gibson Rd B","City":"Woodland","State":"CA","Zip":"95776"},{"Location":"I LOVE TERIYAKI","Address":"469 Pioneer Ave","City":"Woodland","State":"CA","Zip":"95776"},{"Location":"INDOOR ACTION SPORTS%2C INC","Address":"1460 Tanforan Ave","City":"Woodland","State":"CA","Zip":"95776"},{"Location":"INSPIRE NAILS","Address":"1810 E Main St","City":"Woodland","State":"CA","Zip":"95776"},{"Location":"JINJU SUSHI","Address":"467 Pioneer Ave","City":"Woodland","State":"CA","Zip":"95776"},{"Location":"KENNY'S BAR & GRILL","Address":"721 East St","City":"Woodland","State":"CA","Zip":"95776"},{"Location":"LEGACY SUPPLY CHAIN SERVICES","Address":"1600 Tide Ct","City":"Woodland","State":"CA","Zip":"95776"},{"Location":"MAIN EVENT BARBERS","Address":"607 East St","City":"Woodland","State":"CA","Zip":"95776"},{"Location":"MARISCOS EL PANTANO","Address":"425 East St","City":"Woodland","State":"CA","Zip":"95776"},{"Location":"MOUNTIAN VALLEY GOLF CENTER","Address":"19241 County Road 102","City":"Woodland","State":"CA","Zip":"95776"},{"Location":"MR PICKLES SANDWICH SHOP","Address":"1801 E Gibson Rd B","City":"Woodland","State":"CA","Zip":"95776"},{"Location":"NITF","Address":"1233 Commerce Ave A","City":"Woodland","State":"CA","Zip":"95776"},{"Location":"PERRIES COZZY DINER","Address":"590 N East St","City":"Woodland","State":"CA","Zip":"95776"},{"Location":"PRO CUT SALON","Address":"1861 E Gibson Rd D","City":"Woodland","State":"CA","Zip":"95776"},{"Location":"PRO-FILE NAIL & SPA","Address":"1801 E Gibson Rd C","City":"Woodland","State":"CA","Zip":"95776"},{"Location":"RED ROBIN #677","Address":"2031 Bronze Star Dr","City":"Woodland","State":"CA","Zip":"95776"},{"Location":"SPARKS CAR WASH & LUBE","Address":"18440 County Road 102","City":"Woodland","State":"CA","Zip":"95776"},{"Location":"TARGET","Address":"2185 Bronze Star Dr","City":"Woodland","State":"CA","Zip":"95776"},{"Location":"THE BESTWESTERN SHADOW INN","Address":"584 N East St","City":"Woodland","State":"CA","Zip":"95776"},{"Location":"TRUCK ACCESSORIES GROUP","Address":"1686 E Beamer St","City":"Woodland","State":"CA","Zip":"95776"},{"Location":"VALLEY FUEL INJECTION & TURBO","Address":"1243 E Beamer St C","City":"Woodland","State":"CA","Zip":"95776"},{"Location":"VALLEY OAK VETERINARY","Address":"733 East St","City":"Woodland","State":"CA","Zip":"95776"},{"Location":"VEOLIA TRANSPORTATION","Address":"352 Industrial Way","City":"Woodland","State":"CA","Zip":"95776"},{"Location":"WESTERN FOODS","Address":"440 N Pioneer Ave 200","City":"Woodland","State":"CA","Zip":"95776"},{"Location":"AMERICAN NAILS","Address":"1380 E Main St","City":"Woodland","State":"CA","Zip":"95776"},{"Location":"ANHEUSER-BUSCH WHLSLR #90479","Address":"550 Santa Anita Dr","City":"Woodland","State":"CA","Zip":"95776"},{"Location":"APPLEBEE'S #2140031","Address":"1790 E Main St","City":"Woodland","State":"CA","Zip":"95776"},{"Location":"CASTER","Address":"1837 E Gibson Rd G","City":"Woodland","State":"CA","Zip":"95776"},{"Location":"DICKEYS BARBECUE PIT","Address":"401 Pioneer Ave B","City":"Woodland","State":"CA","Zip":"95776"},{"Location":"EL ZITIO SPORTS BAR","Address":"11 East St","City":"Woodland","State":"CA","Zip":"95776"},{"Location":"EXCALIBUR PIZZA","Address":"421 Pioneer Ave F","City":"Woodland","State":"CA","Zip":"95776"},{"Location":"EXEL INC","Address":"2030 Hanson Way","City":"Woodland","State":"CA","Zip":"95776"},{"Location":"FOOD FOR LESS","Address":"451 Pioneer Ave","City":"Woodland","State":"CA","Zip":"95776"},{"Location":"GREAT CLIPS","Address":"1897 E Gibson Rd B","City":"Woodland","State":"CA","Zip":"95776"},{"Location":"I LOVE TERIYAKI","Address":"469 Pioneer Ave","City":"Woodland","State":"CA","Zip":"95776"},{"Location":"INDOOR ACTION SPORTS%2C INC","Address":"1460 Tanforan Ave","City":"Woodland","State":"CA","Zip":"95776"},{"Location":"INSPIRE NAILS","Address":"1810 E Main St","City":"Woodland","State":"CA","Zip":"95776"},{"Location":"JINJU SUSHI","Address":"467 Pioneer Ave","City":"Woodland","State":"CA","Zip":"95776"},{"Location":"KENNY'S BAR & GRILL","Address":"721 East St","City":"Woodland","State":"CA","Zip":"95776"},{"Location":"LEGACY SUPPLY CHAIN SERVICES","Address":"1600 Tide Ct","City":"Woodland","State":"CA","Zip":"95776"},{"Location":"MAIN EVENT BARBERS","Address":"607 East St","City":"Woodland","State":"CA","Zip":"95776"},{"Location":"MARISCOS EL PANTANO","Address":"425 East St","City":"Woodland","State":"CA","Zip":"95776"},{"Location":"MOUNTIAN VALLEY GOLF CENTER","Address":"19241 County Road 102","City":"Woodland","State":"CA","Zip":"95776"},{"Location":"MR PICKLES SANDWICH SHOP","Address":"1801 E Gibson Rd B","City":"Woodland","State":"CA","Zip":"95776"},{"Location":"NITF","Address":"1233 Commerce Ave A","City":"Woodland","State":"CA","Zip":"95776"},{"Location":"PERRIES COZZY DINER","Address":"590 N East St","City":"Woodland","State":"CA","Zip":"95776"},{"Location":"PRO CUT SALON","Address":"1861 E Gibson Rd D","City":"Woodland","State":"CA","Zip":"95776"},{"Location":"PRO-FILE NAIL & SPA","Address":"1801 E Gibson Rd C","City":"Woodland","State":"CA","Zip":"95776"},{"Location":"RED ROBIN #677","Address":"2031 Bronze Star Dr","City":"Woodland","State":"CA","Zip":"95776"},{"Location":"SPARKS CAR WASH & LUBE","Address":"18440 County Road 102","City":"Woodland","State":"CA","Zip":"95776"},{"Location":"TARGET","Address":"2185 Bronze Star Dr","City":"Woodland","State":"CA","Zip":"95776"},{"Location":"THE BESTWESTERN SHADOW INN","Address":"584 N East St","City":"Woodland","State":"CA","Zip":"95776"},{"Location":"TRUCK ACCESSORIES GROUP","Address":"1686 E Beamer St","City":"Woodland","State":"CA","Zip":"95776"},{"Location":"VALLEY FUEL INJECTION & TURBO","Address":"1243 E Beamer St C","City":"Woodland","State":"CA","Zip":"95776"},{"Location":"VALLEY OAK VETERINARY","Address":"733 East St","City":"Woodland","State":"CA","Zip":"95776"},{"Location":"VEOLIA TRANSPORTATION","Address":"352 Industrial Way","City":"Woodland","State":"CA","Zip":"95776"},{"Location":"WESTERN FOODS","Address":"440 N Pioneer Ave 200","City":"Woodland","State":"CA","Zip":"95776"}]