[{"Location":"16TH ST. AUTOBODY","Address":"312 N 12th St","City":"Sacramento","State":"CA","Zip":"95811"},{"Location":"ACE OF SPADES","Address":"1417 R St","City":"Sacramento","State":"CA","Zip":"95811"},{"Location":"BLUE DIAMOND GROWERS","Address":"1802 C St","City":"Sacramento","State":"CA","Zip":"95811"},{"Location":"CAFE BERNARDO","Address":"1431 R St","City":"Sacramento","State":"CA","Zip":"95811"},{"Location":"CALIFORNIA DEMOCRATIC PA","Address":"1830 9th St","City":"Sacramento","State":"CA","Zip":"95811"},{"Location":"CALIFORNIA HIGHWAY PATROL","Address":"601 N 7th St","City":"Sacramento","State":"CA","Zip":"95811"},{"Location":"CALIFORNIA HWY PATROL","Address":"601 N 7th St B","City":"Sacramento","State":"CA","Zip":"95811"},{"Location":"CALIFORNIA POWER LAW GROUP","Address":"1328 19th St","City":"Sacramento","State":"CA","Zip":"95811"},{"Location":"CALOES PSC","Address":"630 Sequoia Pacific Blvd","City":"Sacramento","State":"CA","Zip":"95811"},{"Location":"CAPITAL DIME","Address":"1801 L St","City":"Sacramento","State":"CA","Zip":"95811"},{"Location":"CAPITOL ACE HARDWARE","Address":"1815 I St","City":"Sacramento","State":"CA","Zip":"95811"},{"Location":"CAPITOL CASINO","Address":"411 N 16th St","City":"Sacramento","State":"CA","Zip":"95811"},{"Location":"CCS","Address":"250 Dos Rios St A1","City":"Sacramento","State":"CA","Zip":"95811"},{"Location":"CLUB FANTASY","Address":"851 Richards Blvd","City":"Sacramento","State":"CA","Zip":"95811"},{"Location":"COMMERCE PRINTING","Address":"322 N 12th St","City":"Sacramento","State":"CA","Zip":"95811"},{"Location":"COMMERCE PRINTINGZ","Address":"255 Dos Rios St","City":"Sacramento","State":"CA","Zip":"95811"},{"Location":"CONFI CHECK","Address":"1915 21st St","City":"Sacramento","State":"CA","Zip":"95811"},{"Location":"CONFI'CHEK  INC","Address":"1821 Q St","City":"Sacramento","State":"CA","Zip":"95811"},{"Location":"CORNELIUS AND COMPANY","Address":"1721 2nd St 201","City":"Sacramento","State":"CA","Zip":"95811"},{"Location":"ELIXIR BAR AND GRILL","Address":"1815 10th St","City":"Sacramento","State":"CA","Zip":"95811"},{"Location":"FACES INC","Address":"2000 K St","City":"Sacramento","State":"CA","Zip":"95811"},{"Location":"FAT MAN CIGARS","Address":"1811 10th St","City":"Sacramento","State":"CA","Zip":"95811"},{"Location":"FERGUSON #1165","Address":"510 Sunbeam Ave","City":"Sacramento","State":"CA","Zip":"95811"},{"Location":"GOODMAN DISTRIBUTION1","Address":"840 N 10th St I","City":"Sacramento","State":"CA","Zip":"95811"},{"Location":"HARVS CAR WASH","Address":"1901 L St","City":"Sacramento","State":"CA","Zip":"95811"},{"Location":"KATZ DEVELOPMENT INC","Address":"1901 J St D","City":"Sacramento","State":"CA","Zip":"95811"},{"Location":"KRUSHBURGER","Address":"700 N 10th St","City":"Sacramento","State":"CA","Zip":"95811"},{"Location":"KUPROS BISTRO","Address":"1217 21st St","City":"Sacramento","State":"CA","Zip":"95811"},{"Location":"MANGOS CANTINA & GRILL","Address":"1930 K St","City":"Sacramento","State":"CA","Zip":"95811"},{"Location":"MERINGCARSON","Address":"1700 I St 210","City":"Sacramento","State":"CA","Zip":"95811"},{"Location":"MULVANEYS B & L","Address":"1900 L St A","City":"Sacramento","State":"CA","Zip":"95811"},{"Location":"NENAS RESTAURANT","Address":"232 Jibboom St","City":"Sacramento","State":"CA","Zip":"95811"},{"Location":"NFINIT SOLUTIONS INC","Address":"640 Bercut Dr","City":"Sacramento","State":"CA","Zip":"95811"},{"Location":"OES-PSCO","Address":"601 Sequoia Pacific Blvd","City":"Sacramento","State":"CA","Zip":"95811"},{"Location":"OLD IRONSIDES","Address":"1901 10th St","City":"Sacramento","State":"CA","Zip":"95811"},{"Location":"PACSAT","Address":"1629 S St","City":"Sacramento","State":"CA","Zip":"95811"},{"Location":"POUR HOUSE","Address":"1910 Q St","City":"Sacramento","State":"CA","Zip":"95811"},{"Location":"PRESS CLUB","Address":"2030 P St","City":"Sacramento","State":"CA","Zip":"95811"},{"Location":"ROBLES FITNESS","Address":"1225 N B St B","City":"Sacramento","State":"CA","Zip":"95811"},{"Location":"ROHRER BROS INC","Address":"200 N 16th St","City":"Sacramento","State":"CA","Zip":"95811"},{"Location":"SACRAMENTO POLICE DEPT","Address":"555 Sequoia Pacific Blvd","City":"Sacramento","State":"CA","Zip":"95811"},{"Location":"SACRAMENTO SHERIFF DEPARTMENT","Address":"700 N 5th St","City":"Sacramento","State":"CA","Zip":"95811"},{"Location":"SAFE LIGHT AUTO GLASS","Address":"261 Richards Blvd","City":"Sacramento","State":"CA","Zip":"95811"},{"Location":"SHOWTIME NETWORKS INC 1","Address":"1300 S St","City":"Sacramento","State":"CA","Zip":"95811"},{"Location":"SPINELLI DONALD AND NOTT 2","Address":"815 815","City":"Sacramento","State":"CA","Zip":"95811"},{"Location":"SPOA","Address":"550 Bercut Dr","City":"Sacramento","State":"CA","Zip":"95811"},{"Location":"SPORT CLIPS","Address":"1809 S St 98","City":"Sacramento","State":"CA","Zip":"95811"},{"Location":"STREETS","Address":"1804 J St","City":"Sacramento","State":"CA","Zip":"95811"},{"Location":"TEA CUP HOUSE","Address":"1614 21st St","City":"Sacramento","State":"CA","Zip":"95811"},{"Location":"THE FOX AND GOOSE PUB","Address":"1001 R St","City":"Sacramento","State":"CA","Zip":"95811"},{"Location":"THE GFL CAPITAL GROUP","Address":"1412 S St","City":"Sacramento","State":"CA","Zip":"95811"},{"Location":"THE OLD TAVERN BAR AND GRILL","Address":"1510 20th St","City":"Sacramento","State":"CA","Zip":"95811"},{"Location":"THE PORCH","Address":"1815 K St","City":"Sacramento","State":"CA","Zip":"95811"},{"Location":"TOWNSEND RAIMUNDO BESLER&USHER","Address":"1717 I St","City":"Sacramento","State":"CA","Zip":"95811"},{"Location":"TRI COUNTY LEGAL SERVICES","Address":"6320 N 10th Street","City":"Sacramento","State":"CA","Zip":"95811"},{"Location":"TRICK PONY","Address":"2031 S St","City":"Sacramento","State":"CA","Zip":"95811"},{"Location":"TRIMARK ECONOMY REST FIXTURES","Address":"415 Richards Blvd","City":"Sacramento","State":"CA","Zip":"95811"},{"Location":"WAHOO'S FISH TACOS","Address":"1820 L St","City":"Sacramento","State":"CA","Zip":"95811"},{"Location":"WEAVE INC","Address":"1900 K St","City":"Sacramento","State":"CA","Zip":"95811"},{"Location":"WESTERN PACIFIC DEPOT","Address":"2001 K St","City":"Sacramento","State":"CA","Zip":"95811"},{"Location":"ZEBRA CLUB","Address":"1900 P St","City":"Sacramento","State":"CA","Zip":"95811"},{"Location":"ZELDAS PIZZA","Address":"1415 21st St Lwr","City":"Sacramento","State":"CA","Zip":"95811"}]