[{"Location":"20%2F20 COMMERCIAL CARE","Address":"2533 Connie Dr","City":"Sacramento","State":"CA","Zip":"95815"},{"Location":"AMALGAMATED TRANSIT UNION #256","Address":"2700 Academy Way","City":"Sacramento","State":"CA","Zip":"95815"},{"Location":"AMERICAN LEGION POST 447","Address":"720 Santiago Ave","City":"Sacramento","State":"CA","Zip":"95815"},{"Location":"AMERICAN MEDICAL RESPONSE","Address":"1101 Fee Dr","City":"Sacramento","State":"CA","Zip":"95815"},{"Location":"AMERICAN RED CROSS","Address":"1565 Exposition Blvd","City":"Sacramento","State":"CA","Zip":"95815"},{"Location":"ARRAYCON LLC","Address":"1143 Blumenfeld Dr","City":"Sacramento","State":"CA","Zip":"95815"},{"Location":"ATG REHAB","Address":"1650 Tribute Rd","City":"Sacramento","State":"CA","Zip":"95815"},{"Location":"BJ'S RESTAURANTS #508","Address":"1689 Arden Way 1058","City":"Sacramento","State":"CA","Zip":"95815"},{"Location":"CALIFORNIA BANK & TRUST","Address":"1800 Arden Way","City":"Sacramento","State":"CA","Zip":"95815"},{"Location":"CALIFORNIA PIZZA KITCHEN #37","Address":"1735 Arden Way","City":"Sacramento","State":"CA","Zip":"95815"},{"Location":"CALIFORNIA STATE FAIR & EXPO","Address":"1600 Exposition Blvd","City":"Sacramento","State":"CA","Zip":"95815"},{"Location":"CALLISONS1","Address":"1011 Del Paso Blvd","City":"Sacramento","State":"CA","Zip":"95815"},{"Location":"CENTERSTAGE HAIR STUDIO","Address":"2016 And Half Del Paso","City":"Sacramento","State":"CA","Zip":"95815"},{"Location":"CHEAPER TIRE SHOP","Address":"1970 Marconi Ave","City":"Sacramento","State":"CA","Zip":"95815"},{"Location":"COURTYARD SACRAMENTO (0063425)","Address":"1782 Tribute Rd","City":"Sacramento","State":"CA","Zip":"95815"},{"Location":"CPSHR CONSULTING","Address":"241 Lathrop Way","City":"Sacramento","State":"CA","Zip":"95815"},{"Location":"DAROLD         MARK","Address":"1455 Response Rd 100","City":"Sacramento","State":"CA","Zip":"95815"},{"Location":"DAVITA #5076 N SACRAMENTO","Address":"251 Lathrop Way","City":"Sacramento","State":"CA","Zip":"95815"},{"Location":"DOUBLETREE SACRAMENTO","Address":"2001 Point West Way","City":"Sacramento","State":"CA","Zip":"95815"},{"Location":"EL TORITO 7165","Address":"1598 Arden Way","City":"Sacramento","State":"CA","Zip":"95815"},{"Location":"ELEPHANT BAR SACRAMENTO","Address":"1500 Arden Way","City":"Sacramento","State":"CA","Zip":"95815"},{"Location":"EXTREME PIZZA","Address":"1140 Exposition Blvd 200","City":"Sacramento","State":"CA","Zip":"95815"},{"Location":"FIDELITY NATIONAL TITLE","Address":"1375 Exposition Blvd 240","City":"Sacramento","State":"CA","Zip":"95815"},{"Location":"FOUNTAINS %40 POINT WEST","Address":"1761 Heritage Ln","City":"Sacramento","State":"CA","Zip":"95815"},{"Location":"GOODYEAR 8521","Address":"1717 Arden Way","City":"Sacramento","State":"CA","Zip":"95815"},{"Location":"HOME EQUITY DIRECT","Address":"1375 Exposition Blvd 207","City":"Sacramento","State":"CA","Zip":"95815"},{"Location":"HOOTERS SACRAMENTO","Address":"1785 Challenge Way","City":"Sacramento","State":"CA","Zip":"95815"},{"Location":"HOWE MEDICAL CLINIC","Address":"1565 Exposition Blvd 120","City":"Sacramento","State":"CA","Zip":"95815"},{"Location":"INSQUARED WEALTH MANAGEMENT1","Address":"1375 Exposition Blvd 201","City":"Sacramento","State":"CA","Zip":"95815"},{"Location":"J'S RAILROAD CAFE","Address":"1844 Auburn Blvd","City":"Sacramento","State":"CA","Zip":"95815"},{"Location":"KAISER PERMANENTE","Address":"1650 Response Rd Cr8","City":"Sacramento","State":"CA","Zip":"95815"},{"Location":"KOHL'S #1374","Address":"1896 Arden Way","City":"Sacramento","State":"CA","Zip":"95815"},{"Location":"KUVS 19%2FLTB","Address":"1710 Arden Way","City":"Sacramento","State":"CA","Zip":"95815"},{"Location":"KUVS TV 19","Address":"1710 Arden Way","City":"Sacramento","State":"CA","Zip":"95815"},{"Location":"MACY'S WEST 407","Address":"1701 Arden Way","City":"Sacramento","State":"CA","Zip":"95815"},{"Location":"MAGGIANO'S #0215","Address":"1689 Arden Way 1148","City":"Sacramento","State":"CA","Zip":"95815"},{"Location":"MAJERKO INVESTMENT","Address":"1435 River Park Dr 502","City":"Sacramento","State":"CA","Zip":"95815"},{"Location":"MOTHER LOAD BAR & GRILL","Address":"1424 Silica Ave","City":"Sacramento","State":"CA","Zip":"95815"},{"Location":"NORDSTROM ARDEN FAIR","Address":"1651 Arden Way","City":"Sacramento","State":"CA","Zip":"95815"},{"Location":"NORTHERN CALIFORNIA COLLECTION","Address":"700 Leisure Ln","City":"Sacramento","State":"CA","Zip":"95815"},{"Location":"PAINE WEBBER","Address":"1610 Arden Way 200","City":"Sacramento","State":"CA","Zip":"95815"},{"Location":"POMAREC","Address":"209 Commerce Cir","City":"Sacramento","State":"CA","Zip":"95815"},{"Location":"PREMIER HEALTH CARE","Address":"1601 Response Rd 250","City":"Sacramento","State":"CA","Zip":"95815"},{"Location":"PROGRESSIVE INSURANCE","Address":"2150 Harvard St","City":"Sacramento","State":"CA","Zip":"95815"},{"Location":"PROTRANSPORT ONE","Address":"191 Lathrop Way","City":"Sacramento","State":"CA","Zip":"95815"},{"Location":"SEASONS 52 #4534","Address":"1689 Arden Way 1065","City":"Sacramento","State":"CA","Zip":"95815"},{"Location":"SERRATO FAMILIA","Address":"2215 Del Paso Blvd","City":"Sacramento","State":"CA","Zip":"95815"},{"Location":"SEVEN UP BOTTLING","Address":"2670 Land Ave","City":"Sacramento","State":"CA","Zip":"95815"},{"Location":"SILVER EAGLE CORPORATION","Address":"2655 Land Ave","City":"Sacramento","State":"CA","Zip":"95815"},{"Location":"SUPERIOR RESTORATION PRO","Address":"1767 Tribute Rd B","City":"Sacramento","State":"CA","Zip":"95815"},{"Location":"SUTTER MEDICAL FOUNDATION","Address":"1500 Expo Pkwy","City":"Sacramento","State":"CA","Zip":"95815"},{"Location":"TATE AUTOMOTIVE REPAIR","Address":"1335 Dixieanne Ave","City":"Sacramento","State":"CA","Zip":"95815"},{"Location":"THE CHEESECAKE FACTORY 0078","Address":"1771 Arden Way","City":"Sacramento","State":"CA","Zip":"95815"},{"Location":"THE MONY GROUP","Address":"1601 Response Rd 110","City":"Sacramento","State":"CA","Zip":"95815"},{"Location":"THE RAIDERS IMAGE #931","Address":"1689 Arden Way 2125","City":"Sacramento","State":"CA","Zip":"95815"},{"Location":"THE STONEY INN","Address":"1320 Del Paso Blvd","City":"Sacramento","State":"CA","Zip":"95815"},{"Location":"THE WINNER'S CIRCLE CAFE","Address":"1600 Exposition Blvd","City":"Sacramento","State":"CA","Zip":"95815"},{"Location":"TRI COUNTIES BANK","Address":"1760 Challenge Way 100","City":"Sacramento","State":"CA","Zip":"95815"},{"Location":"VALLEY HEALTH OPTIONS","Address":"1421 Auburn Blvd","City":"Sacramento","State":"CA","Zip":"95815"},{"Location":"YORK LAW CORP","Address":"1111 Exposition Blvd 0","City":"Sacramento","State":"CA","Zip":"95815"}]