[{"Location":"2 FIT FOLSOM BLVD LLC","Address":"6359 Folsom Blvd","City":"Sacramento","State":"CA","Zip":"95819"},{"Location":"ARTIS SECURITY SYSTEMS","Address":"6511 Elvas Ave","City":"Sacramento","State":"CA","Zip":"95819"},{"Location":"BROWNHOUSE","Address":"5379 H St","City":"Sacramento","State":"CA","Zip":"95819"},{"Location":"CAL STATE SACRAMENTO","Address":"6000 J St","City":"Sacramento","State":"CA","Zip":"95819"},{"Location":"CAL STATE SACRAMENTO REC","Address":"6000 J St","City":"Sacramento","State":"CA","Zip":"95819"},{"Location":"CALIFORNIA STATE UNIVERSITY #2","Address":"6000 J St","City":"Sacramento","State":"CA","Zip":"95819"},{"Location":"CALIFORNIA STATE UNIVERSITY RE","Address":"6000 J St","City":"Sacramento","State":"CA","Zip":"95819"},{"Location":"CHARGINS BAR & GRILL","Address":"4900 J St","City":"Sacramento","State":"CA","Zip":"95819"},{"Location":"CLARKS CORNER","Address":"5641 J St","City":"Sacramento","State":"CA","Zip":"95819"},{"Location":"CLUBHOUSE 56","Address":"723 56th St","City":"Sacramento","State":"CA","Zip":"95819"},{"Location":"CSU SACRAMENTO","Address":"6000 J St","City":"Sacramento","State":"CA","Zip":"95819"},{"Location":"FIJI ANGEL CARE","Address":"4757 J St","City":"Sacramento","State":"CA","Zip":"95819"},{"Location":"GAROLBIS HOT CITY PIZZA","Address":"5642 J St","City":"Sacramento","State":"CA","Zip":"95819"},{"Location":"HECTOR","Address":"715 56th St","City":"Sacramento","State":"CA","Zip":"95819"},{"Location":"HILLTOP TAVERN","Address":"4757 Folsom Blvd","City":"Sacramento","State":"CA","Zip":"95819"},{"Location":"HOPPY BREWING COMPANY","Address":"6300 Folsom Blvd","City":"Sacramento","State":"CA","Zip":"95819"},{"Location":"JOHNNIES BARBER SHOP","Address":"5134 Folsom Blvd","City":"Sacramento","State":"CA","Zip":"95819"},{"Location":"OPA! OPA!","Address":"5644 J St","City":"Sacramento","State":"CA","Zip":"95819"},{"Location":"RAEZ BODY CRAZE","Address":"5640 J St","City":"Sacramento","State":"CA","Zip":"95819"},{"Location":"ROUND TABLE #3","Address":"5101 Folsom Blvd","City":"Sacramento","State":"CA","Zip":"95819"},{"Location":"ROUND TABLE PIZZA","Address":"6000 J St","City":"Sacramento","State":"CA","Zip":"95819"},{"Location":"SACRAMENTO STATE COLLEGE","Address":"6000 J St","City":"Sacramento","State":"CA","Zip":"95819"},{"Location":"US GEOLOGICAL SURVEY","Address":"3020 State University Dr","City":"Sacramento","State":"CA","Zip":"95819"},{"Location":"2 FIT FOLSOM BLVD LLC","Address":"6359 Folsom Blvd","City":"Sacramento","State":"CA","Zip":"95819"},{"Location":"ARTIS SECURITY SYSTEMS","Address":"6511 Elvas Ave","City":"Sacramento","State":"CA","Zip":"95819"},{"Location":"BROWNHOUSE","Address":"5379 H St","City":"Sacramento","State":"CA","Zip":"95819"},{"Location":"CAL STATE SACRAMENTO","Address":"6000 J St","City":"Sacramento","State":"CA","Zip":"95819"},{"Location":"CAL STATE SACRAMENTO REC","Address":"6000 J St","City":"Sacramento","State":"CA","Zip":"95819"},{"Location":"CALIFORNIA STATE UNIVERSITY #2","Address":"6000 J St","City":"Sacramento","State":"CA","Zip":"95819"},{"Location":"CALIFORNIA STATE UNIVERSITY RE","Address":"6000 J St","City":"Sacramento","State":"CA","Zip":"95819"},{"Location":"CHARGINS BAR & GRILL","Address":"4900 J St","City":"Sacramento","State":"CA","Zip":"95819"},{"Location":"CLARKS CORNER","Address":"5641 J St","City":"Sacramento","State":"CA","Zip":"95819"},{"Location":"CLUBHOUSE 56","Address":"723 56th St","City":"Sacramento","State":"CA","Zip":"95819"},{"Location":"CSU SACRAMENTO","Address":"6000 J St","City":"Sacramento","State":"CA","Zip":"95819"},{"Location":"FIJI ANGEL CARE","Address":"4757 J St","City":"Sacramento","State":"CA","Zip":"95819"},{"Location":"GAROLBIS HOT CITY PIZZA","Address":"5642 J St","City":"Sacramento","State":"CA","Zip":"95819"},{"Location":"HECTOR","Address":"715 56th St","City":"Sacramento","State":"CA","Zip":"95819"},{"Location":"HILLTOP TAVERN","Address":"4757 Folsom Blvd","City":"Sacramento","State":"CA","Zip":"95819"},{"Location":"HOPPY BREWING COMPANY","Address":"6300 Folsom Blvd","City":"Sacramento","State":"CA","Zip":"95819"},{"Location":"JOHNNIES BARBER SHOP","Address":"5134 Folsom Blvd","City":"Sacramento","State":"CA","Zip":"95819"},{"Location":"OPA! OPA!","Address":"5644 J St","City":"Sacramento","State":"CA","Zip":"95819"},{"Location":"RAEZ BODY CRAZE","Address":"5640 J St","City":"Sacramento","State":"CA","Zip":"95819"},{"Location":"ROUND TABLE #3","Address":"5101 Folsom Blvd","City":"Sacramento","State":"CA","Zip":"95819"},{"Location":"ROUND TABLE PIZZA","Address":"6000 J St","City":"Sacramento","State":"CA","Zip":"95819"},{"Location":"SACRAMENTO STATE COLLEGE","Address":"6000 J St","City":"Sacramento","State":"CA","Zip":"95819"},{"Location":"US GEOLOGICAL SURVEY","Address":"3020 State University Dr","City":"Sacramento","State":"CA","Zip":"95819"}]