[{"Location":"ACE OF FADES BARBERSHOP","Address":"3300 Broadway","City":"Sacramento","State":"CA","Zip":"95817"},{"Location":"HUGS ALTERNATIVE CARE","Address":"2035 Stockton Blvd","City":"Sacramento","State":"CA","Zip":"95817"},{"Location":"KANSAI RAMEN AND SUSHI H","Address":"2992 65th St 288","City":"Sacramento","State":"CA","Zip":"95817"},{"Location":"KIDS SPORTS GYM","Address":"2425 Alhambra Blvd G","City":"Sacramento","State":"CA","Zip":"95817"},{"Location":"OAK PARK BREWING COMPANY","Address":"3514 Broadway","City":"Sacramento","State":"CA","Zip":"95817"},{"Location":"PRIORITIES CLINIC","Address":"3647 40th St","City":"Sacramento","State":"CA","Zip":"95817"},{"Location":"SACRAMENTO FIRE DPT","Address":"3301 Martin Luther King Jr Blv","City":"Sacramento","State":"CA","Zip":"95817"},{"Location":"TARGET 2492","Address":"6507 4th Ave","City":"Sacramento","State":"CA","Zip":"95817"},{"Location":"UC DAVIS CAMPUS REC","Address":"2501 Stockton Blvd","City":"Sacramento","State":"CA","Zip":"95817"},{"Location":"VFW POST SIXTY SEVEN","Address":"2784 Stockton Blvd","City":"Sacramento","State":"CA","Zip":"95817"}]