[{"Location":"ADAMOS","Address":"2107 P St","City":"Sacramento","State":"CA","Zip":"95816"},{"Location":"AMBER HOUSE LLC","Address":"1315 22nd St","City":"Sacramento","State":"CA","Zip":"95816"},{"Location":"BAR WEST","Address":"2724 J St A","City":"Sacramento","State":"CA","Zip":"95816"},{"Location":"BLUE CUE","Address":"1004 28th St","City":"Sacramento","State":"CA","Zip":"95816"},{"Location":"BLUE LAMP","Address":"1400 Alhambra Blvd","City":"Sacramento","State":"CA","Zip":"95816"},{"Location":"BONNLAIR","Address":"3651 J St","City":"Sacramento","State":"CA","Zip":"95816"},{"Location":"BRODOVSKY PROPERTIES","Address":"3126 O St","City":"Sacramento","State":"CA","Zip":"95816"},{"Location":"CALIFORNIA FAMILY FITNES","Address":"1671 Alhambra Blvd","City":"Sacramento","State":"CA","Zip":"95816"},{"Location":"CENTRO COCINA MEXICANA","Address":"2730 J St","City":"Sacramento","State":"CA","Zip":"95816"},{"Location":"CHEATERS SPORTS BAR","Address":"3221 Folsom Blvd","City":"Sacramento","State":"CA","Zip":"95816"},{"Location":"CLUB RAVEN","Address":"3246 J St","City":"Sacramento","State":"CA","Zip":"95816"},{"Location":"D7ROOFING SERVICES INC","Address":"205 23rd St","City":"Sacramento","State":"CA","Zip":"95816"},{"Location":"EXCALIBUR PIZZA","Address":"2915 K St","City":"Sacramento","State":"CA","Zip":"95816"},{"Location":"EXCLUSIVE HAIR DESIGN","Address":"930 Alhambra Blvd 150","City":"Sacramento","State":"CA","Zip":"95816"},{"Location":"FORT SUTTER IMAGING CENTER","Address":"2801 K St 110","City":"Sacramento","State":"CA","Zip":"95816"},{"Location":"GLASS AGENCY","Address":"2700 J St 2","City":"Sacramento","State":"CA","Zip":"95816"},{"Location":"GOLDEN 1 CREDIT UNION 9","Address":"2120 K St","City":"Sacramento","State":"CA","Zip":"95816"},{"Location":"INK EATS & DRINK","Address":"2730 N St","City":"Sacramento","State":"CA","Zip":"95816"},{"Location":"KUTN UP","Address":"2828 Q St C","City":"Sacramento","State":"CA","Zip":"95816"},{"Location":"LA TRATTORA BOHEMIA","Address":"3649 J St","City":"Sacramento","State":"CA","Zip":"95816"},{"Location":"LIMELITE BAR AND GRILL","Address":"1014 Alhambra Blvd","City":"Sacramento","State":"CA","Zip":"95816"},{"Location":"LIONS RESTAURANT","Address":"3000 J St","City":"Sacramento","State":"CA","Zip":"95816"},{"Location":"LUIS JRS MEXICAN FOOD","Address":"2901 K St 190","City":"Sacramento","State":"CA","Zip":"95816"},{"Location":"MEDICAL VISION TECHNOLOGY","Address":"1700 Al Hambra Blvd 2","City":"Sacramento","State":"CA","Zip":"95816"},{"Location":"MIDTOWN CRUISER SHOP","Address":"2331 12 I St","City":"Sacramento","State":"CA","Zip":"95816"},{"Location":"MIDTOWN MARKET","Address":"2828 Q St","City":"Sacramento","State":"CA","Zip":"95816"},{"Location":"MONKEY BAR","Address":"2730 Capitol Ave","City":"Sacramento","State":"CA","Zip":"95816"},{"Location":"MORGANS BAR AND GRILL","Address":"3348 S St","City":"Sacramento","State":"CA","Zip":"95816"},{"Location":"NEIGHBORS FINANCIAL","Address":"2831 G St 200","City":"Sacramento","State":"CA","Zip":"95816"},{"Location":"NORCAL","Address":"1815 Stockton Blvd","City":"Sacramento","State":"CA","Zip":"95816"},{"Location":"PILLSBURY WINTHROP SHAW","Address":"2600 Capitol Ave 300","City":"Sacramento","State":"CA","Zip":"95816"},{"Location":"PINE COVE TAVERN","Address":"502 29th St","City":"Sacramento","State":"CA","Zip":"95816"},{"Location":"RAMOND JAMES","Address":"3001 I St","City":"Sacramento","State":"CA","Zip":"95816"},{"Location":"RIVER WEST INVESTMENTS","Address":"3001 I St Suite","City":"Sacramento","State":"CA","Zip":"95816"},{"Location":"ROUND CORNER TAVERN","Address":"2333 S St","City":"Sacramento","State":"CA","Zip":"95816"},{"Location":"SACRAMENTO MEPS","Address":"1651 Alhambra Blvd 100","City":"Sacramento","State":"CA","Zip":"95816"},{"Location":"STICKY FINGERS BBQ A SOULFOOD","Address":"2322 K St","City":"Sacramento","State":"CA","Zip":"95816"},{"Location":"SUSHI CAFE - ALHAMBRA","Address":"1221 Alhambra Blvd 103","City":"Sacramento","State":"CA","Zip":"95816"},{"Location":"SUTTER HEALTH DATA CENTER","Address":"1726 28th St","City":"Sacramento","State":"CA","Zip":"95816"},{"Location":"SUTTER LAWN TENNIS CLUB","Address":"3951 N St","City":"Sacramento","State":"CA","Zip":"95816"},{"Location":"SUTTER MEDICAL PLAZA SAC","Address":"1625 Stockton Blvd","City":"Sacramento","State":"CA","Zip":"95816"},{"Location":"TAMAYA SUSHI & GRILL","Address":"2131 J St","City":"Sacramento","State":"CA","Zip":"95816"},{"Location":"THE EXECUTIVE SUITES","Address":"2215 K St","City":"Sacramento","State":"CA","Zip":"95816"},{"Location":"THE RED RABBIT KITCHEN","Address":"2718 J St","City":"Sacramento","State":"CA","Zip":"95816"},{"Location":"TRES HERMANAS INC.","Address":"2416 K St","City":"Sacramento","State":"CA","Zip":"95816"},{"Location":"UC DAVIS DEPT OF DERMATOLOGY","Address":"3301 C St 1400","City":"Sacramento","State":"CA","Zip":"95816"}]