[{"Location":"BROWNIES LOUNGE","Address":"3535 Land Park Dr","City":"Sacramento","State":"CA","Zip":"95818"},{"Location":"CALIFORNIA HWY PATROL","Address":"2555 1st Ave","City":"Sacramento","State":"CA","Zip":"95818"},{"Location":"DEPARTMENT OF WATER RESOURCES","Address":"2200 X St","City":"Sacramento","State":"CA","Zip":"95818"},{"Location":"HIBACHI 13 LLC DBA IRON STEAKS","Address":"2422 13th St","City":"Sacramento","State":"CA","Zip":"95818"},{"Location":"JENSAI SUSHI","Address":"2210 15th St","City":"Sacramento","State":"CA","Zip":"95818"},{"Location":"KYOTO LLC.","Address":"1724 Broadway","City":"Sacramento","State":"CA","Zip":"95818"},{"Location":"NEW CANTON RESTAURANT","Address":"2523 Broadway","City":"Sacramento","State":"CA","Zip":"95818"},{"Location":"NEW HELVETIA BREWING INC","Address":"1730 Broadway","City":"Sacramento","State":"CA","Zip":"95818"},{"Location":"OSCARS VERY MEXICAN FOOD","Address":"3061 Freeport Blvd","City":"Sacramento","State":"CA","Zip":"95818"},{"Location":"ROUND TABLE PIZZA","Address":"3005 Freeport Blvd","City":"Sacramento","State":"CA","Zip":"95818"},{"Location":"SLICE OF BROADWAY","Address":"2424 16th St","City":"Sacramento","State":"CA","Zip":"95818"},{"Location":"ST ANDREWS CHURCH","Address":"2131 8th St","City":"Sacramento","State":"CA","Zip":"95818"},{"Location":"TAXXPRESS","Address":"1712 Broadway","City":"Sacramento","State":"CA","Zip":"95818"},{"Location":"THE BODY","Address":"3401 Freeport Blvd 5","City":"Sacramento","State":"CA","Zip":"95818"},{"Location":"TOT TOWN INC","Address":"2001 10th St","City":"Sacramento","State":"CA","Zip":"95818"}]