[{"Location":"A KUT AHEAD BARBER SHOP","Address":"5972 Stockton Blvd","City":"Sacramento","State":"CA","Zip":"95824"},{"Location":"ANTHONY D BELCHER","Address":"5680 28th St","City":"Sacramento","State":"CA","Zip":"95824"},{"Location":"BIDA QUE HUONG","Address":"5338 Thurman Way","City":"Sacramento","State":"CA","Zip":"95824"},{"Location":"CHAMDOS TACOS","Address":"5665 Power Inn Rd 104","City":"Sacramento","State":"CA","Zip":"95824"},{"Location":"FED EX HUB","Address":"8200 Elder Creek Rd","City":"Sacramento","State":"CA","Zip":"95824"},{"Location":"FEDEX GROUND SACL","Address":"8200 Elder Creek Rd","City":"Sacramento","State":"CA","Zip":"95824"},{"Location":"FIRESTONE #013056","Address":"5781 Stockton Blvd","City":"Sacramento","State":"CA","Zip":"95824"},{"Location":"NAPA","Address":"3710 47th Ave","City":"Sacramento","State":"CA","Zip":"95824"},{"Location":"ROMA'S PIZZERIA","Address":"5743 Franklin Blvd","City":"Sacramento","State":"CA","Zip":"95824"},{"Location":"SACRAMENTO CITY FIRE","Address":"3720 47th Ave","City":"Sacramento","State":"CA","Zip":"95824"},{"Location":"SAM COFFE","Address":"6171 Stockton Blvd 110","City":"Sacramento","State":"CA","Zip":"95824"},{"Location":"SAMTHONG MEAT MARKET","Address":"6235 Franklin Blvd","City":"Sacramento","State":"CA","Zip":"95824"},{"Location":"THE SILVER FOX","Address":"6010 Stockton Blvd","City":"Sacramento","State":"CA","Zip":"95824"},{"Location":"THE SPOT","Address":"6048 Stockton Blvd 170","City":"Sacramento","State":"CA","Zip":"95824"},{"Location":"A KUT AHEAD BARBER SHOP","Address":"5972 Stockton Blvd","City":"Sacramento","State":"CA","Zip":"95824"},{"Location":"ANTHONY D BELCHER","Address":"5680 28th St","City":"Sacramento","State":"CA","Zip":"95824"},{"Location":"BIDA QUE HUONG","Address":"5338 Thurman Way","City":"Sacramento","State":"CA","Zip":"95824"},{"Location":"CHAMDOS TACOS","Address":"5665 Power Inn Rd 104","City":"Sacramento","State":"CA","Zip":"95824"},{"Location":"FED EX HUB","Address":"8200 Elder Creek Rd","City":"Sacramento","State":"CA","Zip":"95824"},{"Location":"FEDEX GROUND SACL","Address":"8200 Elder Creek Rd","City":"Sacramento","State":"CA","Zip":"95824"},{"Location":"FIRESTONE #013056","Address":"5781 Stockton Blvd","City":"Sacramento","State":"CA","Zip":"95824"},{"Location":"NAPA","Address":"3710 47th Ave","City":"Sacramento","State":"CA","Zip":"95824"},{"Location":"ROMA'S PIZZERIA","Address":"5743 Franklin Blvd","City":"Sacramento","State":"CA","Zip":"95824"},{"Location":"SACRAMENTO CITY FIRE","Address":"3720 47th Ave","City":"Sacramento","State":"CA","Zip":"95824"},{"Location":"SAM COFFE","Address":"6171 Stockton Blvd 110","City":"Sacramento","State":"CA","Zip":"95824"},{"Location":"SAMTHONG MEAT MARKET","Address":"6235 Franklin Blvd","City":"Sacramento","State":"CA","Zip":"95824"},{"Location":"THE SILVER FOX","Address":"6010 Stockton Blvd","City":"Sacramento","State":"CA","Zip":"95824"},{"Location":"THE SPOT","Address":"6048 Stockton Blvd 170","City":"Sacramento","State":"CA","Zip":"95824"}]