[{"Location":"ABILITY CENTER 2","Address":"6550 Freeport Blvd","City":"Sacramento","State":"CA","Zip":"95822"},{"Location":"BING MALONEY GOLF COURSE","Address":"6801 Freeport Blvd","City":"Sacramento","State":"CA","Zip":"95822"},{"Location":"CITY OF SACRAMENTO","Address":"5730 24th St 22","City":"Sacramento","State":"CA","Zip":"95822"},{"Location":"COMMUNITY DEVELOPMENT","Address":"2175 56th Ave","City":"Sacramento","State":"CA","Zip":"95822"},{"Location":"COMMUNITY DEVELOPMENT 2","Address":"7093 Cromwell Way","City":"Sacramento","State":"CA","Zip":"95822"},{"Location":"CONTEMPO NAILS","Address":"5635 Freeport Blvd 2","City":"Sacramento","State":"CA","Zip":"95822"},{"Location":"FLOREZ BAR & GRILL  INC","Address":"5900 S Land Park Dr","City":"Sacramento","State":"CA","Zip":"95822"},{"Location":"FLORIN HEALTHCARE CENTER","Address":"7400 24th St","City":"Sacramento","State":"CA","Zip":"95822"},{"Location":"FREEPORT CIGARETTES & VAPORS","Address":"5171 Freeport Blvd","City":"Sacramento","State":"CA","Zip":"95822"},{"Location":"HONG KONG ISLANDER  INC","Address":"5675 Freeport Blvd","City":"Sacramento","State":"CA","Zip":"95822"},{"Location":"JB  SALON","Address":"7019 Wilshire Cir A","City":"Sacramento","State":"CA","Zip":"95822"},{"Location":"MAGIC CAR WASH","Address":"2813 Florin Rd","City":"Sacramento","State":"CA","Zip":"95822"},{"Location":"MAGIC NAIL","Address":"2306 Florin Rd","City":"Sacramento","State":"CA","Zip":"95822"},{"Location":"MARIE CALLENDER","Address":"5622 Freeport Blvd","City":"Sacramento","State":"CA","Zip":"95822"},{"Location":"PHO GARDEN","Address":"5609 Freeport Blvd","City":"Sacramento","State":"CA","Zip":"95822"},{"Location":"REACH AIR MEDICAL","Address":"6151 Freeport Blvd 180","City":"Sacramento","State":"CA","Zip":"95822"},{"Location":"ROBERTAS MEXICANA RESTAU","Address":"5635 Freeport Blvd","City":"Sacramento","State":"CA","Zip":"95822"},{"Location":"SCOTTS SEAFOOD","Address":"4350b Riverside Blvd","City":"Sacramento","State":"CA","Zip":"95822"},{"Location":"SKILLS BARBERSHOP","Address":"5501 24th St","City":"Sacramento","State":"CA","Zip":"95822"},{"Location":"SUSHI CAFE - FREEPORT","Address":"4491 Freeport Blvd","City":"Sacramento","State":"CA","Zip":"95822"},{"Location":"SWISS BUDA","Address":"2342 Fruitridge Rd","City":"Sacramento","State":"CA","Zip":"95822"},{"Location":"THE POCKET CLUB","Address":"5043 Freeport Blvd","City":"Sacramento","State":"CA","Zip":"95822"},{"Location":"VALLEY ELECTRIC","Address":"6320 Belleau Wood Ln","City":"Sacramento","State":"CA","Zip":"95822"},{"Location":"WELLNESS COMMUNITY","Address":"2041 50th Ave","City":"Sacramento","State":"CA","Zip":"95822"},{"Location":"WESTIN SACRAMENTO (0063738)","Address":"4350 Riverside Blvd","City":"Sacramento","State":"CA","Zip":"95822"},{"Location":"ZAJIC APPLIANCE SALES & SVC","Address":"2459 Fruitridge Rd","City":"Sacramento","State":"CA","Zip":"95822"}]