[{"Location":"ACTION AUTO","Address":"3140 Fulton Ave","City":"Sacramento","State":"CA","Zip":"95821"},{"Location":"BEAUTIQUE NAILS AND SPA","Address":"3430 Balmoral Dr 1","City":"Sacramento","State":"CA","Zip":"95821"},{"Location":"CARMICHAEL CAFE & DELI","Address":"4314 Marconi Ave","City":"Sacramento","State":"CA","Zip":"95821"},{"Location":"CORKSTOP LIQUOR","Address":"3510 Auburn Blvd 7","City":"Sacramento","State":"CA","Zip":"95821"},{"Location":"COUNTRY CLUB LANES","Address":"2600 Watt Ave","City":"Sacramento","State":"CA","Zip":"95821"},{"Location":"DEL PASO COUNTRY CLUB","Address":"3333 Marconi Ave","City":"Sacramento","State":"CA","Zip":"95821"},{"Location":"FIRESTONE #013064","Address":"2547 Marconi Ave","City":"Sacramento","State":"CA","Zip":"95821"},{"Location":"FITNESS 19","Address":"3437 Watt Ave","City":"Sacramento","State":"CA","Zip":"95821"},{"Location":"HAGGIN OAKS GOLF COMPLEX","Address":"3645 Fulton Ave","City":"Sacramento","State":"CA","Zip":"95821"},{"Location":"HAMPTON INN SUITES SACRA","Address":"2230 Auburn Blvd","City":"Sacramento","State":"CA","Zip":"95821"},{"Location":"LA CANASTA MEXICAN GRILL","Address":"3397 Watt Ave","City":"Sacramento","State":"CA","Zip":"95821"},{"Location":"MACY'S WEST 412 BR","Address":"3500 El Camino Ave","City":"Sacramento","State":"CA","Zip":"95821"},{"Location":"MEL RAPTON HONDA","Address":"3630 Fulton Ave","City":"Sacramento","State":"CA","Zip":"95821"},{"Location":"NIELLO IMPORTS II INC","Address":"2350 Auburn Blvd","City":"Sacramento","State":"CA","Zip":"95821"},{"Location":"PACIFIC DENTAL #253","Address":"2654 Marconi Ave 100","City":"Sacramento","State":"CA","Zip":"95821"},{"Location":"SAMS CLUB STORE 6623","Address":"3360 El Camino Ave","City":"Sacramento","State":"CA","Zip":"95821"},{"Location":"SECURITY TECH PROTECTIVE","Address":"2941 Fulton Ave 400","City":"Sacramento","State":"CA","Zip":"95821"},{"Location":"ST MARYS HOME","Address":"2525 Kent Dr","City":"Sacramento","State":"CA","Zip":"95821"},{"Location":"THE MONEY BROKERS","Address":"2371 El Camino Ave","City":"Sacramento","State":"CA","Zip":"95821"},{"Location":"TOBACCO ROAD","Address":"2912 Pasatiempo Ln G2","City":"Sacramento","State":"CA","Zip":"95821"},{"Location":"TURNING POINT COMMUNITY","Address":"3216 Fairview Ct","City":"Sacramento","State":"CA","Zip":"95821"},{"Location":"V JAYS TRANSPORTATION","Address":"3550 Watt Ave 140","City":"Sacramento","State":"CA","Zip":"95821"},{"Location":"WALACES WASH HOUSE","Address":"3510 Auburn Blvd","City":"Sacramento","State":"CA","Zip":"95821"}]