[{"Location":"AAA INSURANCE","Address":"8880 Cal Center Dr 200","City":"Sacramento","State":"CA","Zip":"95826"},{"Location":"ALL IN TRAINING","Address":"4540 Florin Perkins Rd 100","City":"Sacramento","State":"CA","Zip":"95826"},{"Location":"BHRUM","Address":"4300 82nd St K","City":"Sacramento","State":"CA","Zip":"95826"},{"Location":"COMMIT TO FIT INC","Address":"8391 Folsom Blvd","City":"Sacramento","State":"CA","Zip":"95826"},{"Location":"CORAM HEALTHCARE","Address":"9332 Tech Center Dr 100","City":"Sacramento","State":"CA","Zip":"95826"},{"Location":"CORDOVA GOLF%2F HACKERS","Address":"9425 Jackson Rd","City":"Sacramento","State":"CA","Zip":"95826"},{"Location":"DREYER BABICH BUCCOLA CALLAHAM","Address":"20 Bicentennial Cir","City":"Sacramento","State":"CA","Zip":"95826"},{"Location":"ECO LANDSCAPE AND TREE MNGMT","Address":"4509 Harlin Dr","City":"Sacramento","State":"CA","Zip":"95826"},{"Location":"FIERCE FITNESS","Address":"8981 District Ct","City":"Sacramento","State":"CA","Zip":"95826"},{"Location":"FIREDANCE LOUNGE","Address":"8704 La Riviera Dr","City":"Sacramento","State":"CA","Zip":"95826"},{"Location":"FOREMOST SUPERIOR MARBLE","Address":"8251 Alpine Ave","City":"Sacramento","State":"CA","Zip":"95826"},{"Location":"INTER STATE OIL","Address":"8221 Alpine Ave","City":"Sacramento","State":"CA","Zip":"95826"},{"Location":"INTEX FORMS","Address":"9293 Beatty Dr","City":"Sacramento","State":"CA","Zip":"95826"},{"Location":"KIM HEI RESTAURANT","Address":"8760 La Riviera Dr","City":"Sacramento","State":"CA","Zip":"95826"},{"Location":"LIGHTHOUSE LIVING SERVIC","Address":"3600 Power Inn Rd H1m2","City":"Sacramento","State":"CA","Zip":"95826"},{"Location":"LYONS TRANSPORTATION","Address":"8160 14th Ave C","City":"Sacramento","State":"CA","Zip":"95826"},{"Location":"MOTION INDUSTRIES CORP","Address":"3473 Ramona Ave","City":"Sacramento","State":"CA","Zip":"95826"},{"Location":"NAPA AUTO PARTS","Address":"4255 Power Inn Rd","City":"Sacramento","State":"CA","Zip":"95826"},{"Location":"NINJA SUSHI","Address":"8937 Folsom Blvd","City":"Sacramento","State":"CA","Zip":"95826"},{"Location":"OASIS SAUNA","Address":"9345 La Riviera Dr","City":"Sacramento","State":"CA","Zip":"95826"},{"Location":"PACIFIC BUSINESS CENTER","Address":"8880 Cal Center Dr","City":"Sacramento","State":"CA","Zip":"95826"},{"Location":"PACIFIC GAS AND ELECTRIV","Address":"5555 Florin Perkins Rd 133-o","City":"Sacramento","State":"CA","Zip":"95826"},{"Location":"PBJ AUCTION CITY","Address":"8521 Folsom Blvd","City":"Sacramento","State":"CA","Zip":"95826"},{"Location":"PERFECT HAIR AND NAILS","Address":"9203 Folsom Blvd A","City":"Sacramento","State":"CA","Zip":"95826"},{"Location":"PREMIER  ACCESS INSURANCE COM","Address":"8890 Cal Center Dr","City":"Sacramento","State":"CA","Zip":"95826"},{"Location":"PROBUSINESS SERVICES INC","Address":"9310 Tech Center Dr 170","City":"Sacramento","State":"CA","Zip":"95826"},{"Location":"RETIREMENT SECURITY CENTERS","Address":"8880 Cal Center Dr 220","City":"Sacramento","State":"CA","Zip":"95826"},{"Location":"ROSITAS MEX REST","Address":"3311 Power Inn Rd","City":"Sacramento","State":"CA","Zip":"95826"},{"Location":"ROUND TABLE PIZZA","Address":"9138 Kiefer Blvd","City":"Sacramento","State":"CA","Zip":"95826"},{"Location":"RUSSO    MARSH & ASSOCIATES","Address":"8795 Folsom Blvd 103","City":"Sacramento","State":"CA","Zip":"95826"},{"Location":"SAINT JOHN","Address":"8401 Jackson Rd","City":"Sacramento","State":"CA","Zip":"95826"},{"Location":"SILVERADO MASONRY DESIGN","Address":"5250 S Watt Ave 200","City":"Sacramento","State":"CA","Zip":"95826"},{"Location":"SONAMUJIP","Address":"9205 Folsom Blvd D","City":"Sacramento","State":"CA","Zip":"95826"},{"Location":"STINGERS","Address":"7890 La Riviera Dr","City":"Sacramento","State":"CA","Zip":"95826"},{"Location":"TAMILYNN THILL","Address":"7917 Carlton Rd","City":"Sacramento","State":"CA","Zip":"95826"},{"Location":"TAQUERIA EL FESTIVA","Address":"8345 Folsom Blvd","City":"Sacramento","State":"CA","Zip":"95826"},{"Location":"TB HAIR AND NAILS","Address":"7850 La Riviera Dr","City":"Sacramento","State":"CA","Zip":"95826"},{"Location":"THE GOLDEN 1 CREDIT UNION","Address":"8945 Cal Center Dr","City":"Sacramento","State":"CA","Zip":"95826"},{"Location":"THE MUSHROOM","Address":"3637 S Port Dr","City":"Sacramento","State":"CA","Zip":"95826"},{"Location":"THE PHILADELPHIA CHEESES","Address":"8963 Folsom Blvd","City":"Sacramento","State":"CA","Zip":"95826"},{"Location":"TRACKERS DISTRIBUTORS","Address":"8171 Alpine Ave K","City":"Sacramento","State":"CA","Zip":"95826"},{"Location":"VALSPAR INC","Address":"8201 Power Ridge Rd","City":"Sacramento","State":"CA","Zip":"95826"}]