[{"Location":"APPLEBEE'S #2140027","Address":"2024 Arden Way","City":"Sacramento","State":"CA","Zip":"95825"},{"Location":"ARDEN HEALTH & REHAB","Address":"3400 Alta Arden Expy","City":"Sacramento","State":"CA","Zip":"95825"},{"Location":"ARIGATO SUSHI","Address":"1608 Howe Ave 5","City":"Sacramento","State":"CA","Zip":"95825"},{"Location":"AUDIO EXPRESS ARDEN","Address":"2003 Arden Way","City":"Sacramento","State":"CA","Zip":"95825"},{"Location":"BANDERA RESTURANT","Address":"2232 Fair Oaks Blvd","City":"Sacramento","State":"CA","Zip":"95825"},{"Location":"BROWN STEVEN ELMER AND SPARE","Address":"655 University Ave 225","City":"Sacramento","State":"CA","Zip":"95825"},{"Location":"BUCA DI BEPPO #510","Address":"1249 Howe Ave","City":"Sacramento","State":"CA","Zip":"95825"},{"Location":"CA STATE LANDS COMMISSION","Address":"100 Howe Ave 100s","City":"Sacramento","State":"CA","Zip":"95825"},{"Location":"CAFE BERNARDO","Address":"515 Pavilions Ln","City":"Sacramento","State":"CA","Zip":"95825"},{"Location":"CAFE EUROPA","Address":"1537 Howe Ave 116","City":"Sacramento","State":"CA","Zip":"95825"},{"Location":"CALIFORNIA FAMILY FITNESS","Address":"985 Enterprise Dr","City":"Sacramento","State":"CA","Zip":"95825"},{"Location":"CAPITAL OB%2FGYN","Address":"77 Cadillac Dr 230","City":"Sacramento","State":"CA","Zip":"95825"},{"Location":"CHARLES SCHWAB CC750","Address":"525 Fulton Ave","City":"Sacramento","State":"CA","Zip":"95825"},{"Location":"CHEEZERS PIZZA","Address":"1900 Fulton Ave","City":"Sacramento","State":"CA","Zip":"95825"},{"Location":"CHEVY'S MEXICAN REST#11","Address":"1234 Howe Ave","City":"Sacramento","State":"CA","Zip":"95825"},{"Location":"CHILI'S #0505","Address":"2100 Arden Way 185","City":"Sacramento","State":"CA","Zip":"95825"},{"Location":"COLLIERS INTERNATIONAL","Address":"301 University Ave 100","City":"Sacramento","State":"CA","Zip":"95825"},{"Location":"COOKIE CONNECTION","Address":"2565 Fair Oaks Blvd","City":"Sacramento","State":"CA","Zip":"95825"},{"Location":"COUNTRY WAFFLES 2","Address":"2244 Fair Oaks Blvd","City":"Sacramento","State":"CA","Zip":"95825"},{"Location":"COURTYARD TERRACE","Address":"3408 Alta Arden Expy","City":"Sacramento","State":"CA","Zip":"95825"},{"Location":"DIAMOND AUTO SPORTS","Address":"912 Enterprise Dr","City":"Sacramento","State":"CA","Zip":"95825"},{"Location":"EXTREME SOCCER AND RUGBY","Address":"2381 Fair Oaks Blvd 3","City":"Sacramento","State":"CA","Zip":"95825"},{"Location":"EZ AUTO SOLUTIONS","Address":"2200 Fulton Ave","City":"Sacramento","State":"CA","Zip":"95825"},{"Location":"FIDELITY INVESTMENTS 194","Address":"2277 Fair Oaks Blvd 150","City":"Sacramento","State":"CA","Zip":"95825"},{"Location":"GIANT ORANGE","Address":"1407 Howe Ave","City":"Sacramento","State":"CA","Zip":"95825"},{"Location":"INTL WEALTH ENTERPRISES","Address":"2667 Alta Arden Expy","City":"Sacramento","State":"CA","Zip":"95825"},{"Location":"JAGUAR LAND ROVER SACRAMENTO","Address":"2052 Fulton Ave","City":"Sacramento","State":"CA","Zip":"95825"},{"Location":"KAISER SAC. CALL CTR.","Address":"3200 Arden Way","City":"Sacramento","State":"CA","Zip":"95825"},{"Location":"KIRBEY RAMSEY LEASING","Address":"947 Enterprise Dr","City":"Sacramento","State":"CA","Zip":"95825"},{"Location":"KUNI CHEVROLET CADILLAC","Address":"2449 Fulton Ave","City":"Sacramento","State":"CA","Zip":"95825"},{"Location":"LOBBY BAR LLC","Address":"1310 Fulton Ave D","City":"Sacramento","State":"CA","Zip":"95825"},{"Location":"MALKASIAN ACCOUNTANCY","Address":"2233 Watt Ave 290","City":"Sacramento","State":"CA","Zip":"95825"},{"Location":"MARCELLO & COMPANY CPAS","Address":"2701 Cottage Way 30","City":"Sacramento","State":"CA","Zip":"95825"},{"Location":"MDR Z GHABEN SACRAMENTO","Address":"565 Howe Ave","City":"Sacramento","State":"CA","Zip":"95825"},{"Location":"MEN'S WEARHOUSE #2265","Address":"1701 Ethan Way","City":"Sacramento","State":"CA","Zip":"95825"},{"Location":"MERCEDES BENZ OF SACRAMENTO","Address":"1810 Howe Ave","City":"Sacramento","State":"CA","Zip":"95825"},{"Location":"NAILS 2000","Address":"1832 Fulton Ave","City":"Sacramento","State":"CA","Zip":"95825"},{"Location":"NIELLO VOLKSWAGEN - AUDI","Address":"2701 Arden Way","City":"Sacramento","State":"CA","Zip":"95825"},{"Location":"NORDSTROM RACK","Address":"2100 Arden Way 140","City":"Sacramento","State":"CA","Zip":"95825"},{"Location":"ODD FELLOWS HALL","Address":"1831 Howe Ave","City":"Sacramento","State":"CA","Zip":"95825"},{"Location":"ON THE Y","Address":"670 Fulton Ave","City":"Sacramento","State":"CA","Zip":"95825"},{"Location":"OUTBACK STEAKHOUSE #0529","Address":"1340 Howe Ave","City":"Sacramento","State":"CA","Zip":"95825"},{"Location":"PIATTI","Address":"571 Pavilions Ln","City":"Sacramento","State":"CA","Zip":"95825"},{"Location":"POWERHOUSE CHRISTIAN","Address":"2515 Cottage Way","City":"Sacramento","State":"CA","Zip":"95825"},{"Location":"RED LOBSTER #0367","Address":"1400 Howe Ave","City":"Sacramento","State":"CA","Zip":"95825"},{"Location":"RIVER CITY MOTORCYCLE INC","Address":"2539 Arden Way","City":"Sacramento","State":"CA","Zip":"95825"},{"Location":"ROUND TABLE PIZZA","Address":"1566 Howe Ave","City":"Sacramento","State":"CA","Zip":"95825"},{"Location":"SACRAMENTO CNTY SHERIFFS DEPT","Address":"2101 Hurley Way","City":"Sacramento","State":"CA","Zip":"95825"},{"Location":"SACRAMENTO RHEUMATOLOGY","Address":"107 Scripps Dr 100","City":"Sacramento","State":"CA","Zip":"95825"},{"Location":"SALMUNDAR INC","Address":"1319 Fulton Ave","City":"Sacramento","State":"CA","Zip":"95825"},{"Location":"SHOE LUGGAGE REPAIR","Address":"1537 Howe Ave 214","City":"Sacramento","State":"CA","Zip":"95825"},{"Location":"SMITH BARNEY 100178","Address":"155 Cadillac Dr","City":"Sacramento","State":"CA","Zip":"95825"},{"Location":"SPORT CLIPS CA104","Address":"2577 Sairoaks Blvd B","City":"Sacramento","State":"CA","Zip":"95825"},{"Location":"STUDIO 55 SALONS PAVILIONS LLC","Address":"530 Pavilions Ln","City":"Sacramento","State":"CA","Zip":"95825"},{"Location":"SUTTER MEDICAL FOUNDATION","Address":"2 Scripps Dr","City":"Sacramento","State":"CA","Zip":"95825"},{"Location":"T2","Address":"1443 Fulton Ave","City":"Sacramento","State":"CA","Zip":"95825"},{"Location":"THE LAW OFFICES OF MYM","Address":"701 University Ave 150","City":"Sacramento","State":"CA","Zip":"95825"},{"Location":"THE OFFICE LOUNGE","Address":"1148 Fulton Ave C","City":"Sacramento","State":"CA","Zip":"95825"},{"Location":"THE SAC HUT INC","Address":"2535 Fair Oaks Blvd","City":"Sacramento","State":"CA","Zip":"95825"},{"Location":"TURNING POINT COMMUNITY 4","Address":"2862 Arden Way 100","City":"Sacramento","State":"CA","Zip":"95825"},{"Location":"APPLEBEE'S #2140027","Address":"2024 Arden Way","City":"Sacramento","State":"CA","Zip":"95825"},{"Location":"ARDEN HEALTH & REHAB","Address":"3400 Alta Arden Expy","City":"Sacramento","State":"CA","Zip":"95825"},{"Location":"ARIGATO SUSHI","Address":"1608 Howe Ave 5","City":"Sacramento","State":"CA","Zip":"95825"},{"Location":"AUDIO EXPRESS ARDEN","Address":"2003 Arden Way","City":"Sacramento","State":"CA","Zip":"95825"},{"Location":"BANDERA RESTURANT","Address":"2232 Fair Oaks Blvd","City":"Sacramento","State":"CA","Zip":"95825"},{"Location":"BROWN STEVEN ELMER AND SPARE","Address":"655 University Ave 225","City":"Sacramento","State":"CA","Zip":"95825"},{"Location":"BUCA DI BEPPO #510","Address":"1249 Howe Ave","City":"Sacramento","State":"CA","Zip":"95825"},{"Location":"CA STATE LANDS COMMISSION","Address":"100 Howe Ave 100s","City":"Sacramento","State":"CA","Zip":"95825"},{"Location":"CAFE BERNARDO","Address":"515 Pavilions Ln","City":"Sacramento","State":"CA","Zip":"95825"},{"Location":"CAFE EUROPA","Address":"1537 Howe Ave 116","City":"Sacramento","State":"CA","Zip":"95825"},{"Location":"CALIFORNIA FAMILY FITNESS","Address":"985 Enterprise Dr","City":"Sacramento","State":"CA","Zip":"95825"},{"Location":"CAPITAL OB%2FGYN","Address":"77 Cadillac Dr 230","City":"Sacramento","State":"CA","Zip":"95825"},{"Location":"CHARLES SCHWAB CC750","Address":"525 Fulton Ave","City":"Sacramento","State":"CA","Zip":"95825"},{"Location":"CHEEZERS PIZZA","Address":"1900 Fulton Ave","City":"Sacramento","State":"CA","Zip":"95825"},{"Location":"CHEVY'S MEXICAN REST#11","Address":"1234 Howe Ave","City":"Sacramento","State":"CA","Zip":"95825"},{"Location":"CHILI'S #0505","Address":"2100 Arden Way 185","City":"Sacramento","State":"CA","Zip":"95825"},{"Location":"COLLIERS INTERNATIONAL","Address":"301 University Ave 100","City":"Sacramento","State":"CA","Zip":"95825"},{"Location":"COOKIE CONNECTION","Address":"2565 Fair Oaks Blvd","City":"Sacramento","State":"CA","Zip":"95825"},{"Location":"COUNTRY WAFFLES 2","Address":"2244 Fair Oaks Blvd","City":"Sacramento","State":"CA","Zip":"95825"},{"Location":"COURTYARD TERRACE","Address":"3408 Alta Arden Expy","City":"Sacramento","State":"CA","Zip":"95825"},{"Location":"DIAMOND AUTO SPORTS","Address":"912 Enterprise Dr","City":"Sacramento","State":"CA","Zip":"95825"},{"Location":"EXTREME SOCCER AND RUGBY","Address":"2381 Fair Oaks Blvd 3","City":"Sacramento","State":"CA","Zip":"95825"},{"Location":"EZ AUTO SOLUTIONS","Address":"2200 Fulton Ave","City":"Sacramento","State":"CA","Zip":"95825"},{"Location":"FIDELITY INVESTMENTS 194","Address":"2277 Fair Oaks Blvd 150","City":"Sacramento","State":"CA","Zip":"95825"},{"Location":"GIANT ORANGE","Address":"1407 Howe Ave","City":"Sacramento","State":"CA","Zip":"95825"},{"Location":"INTL WEALTH ENTERPRISES","Address":"2667 Alta Arden Expy","City":"Sacramento","State":"CA","Zip":"95825"},{"Location":"JAGUAR LAND ROVER SACRAMENTO","Address":"2052 Fulton Ave","City":"Sacramento","State":"CA","Zip":"95825"},{"Location":"KAISER SAC. CALL CTR.","Address":"3200 Arden Way","City":"Sacramento","State":"CA","Zip":"95825"},{"Location":"KIRBEY RAMSEY LEASING","Address":"947 Enterprise Dr","City":"Sacramento","State":"CA","Zip":"95825"},{"Location":"KUNI CHEVROLET CADILLAC","Address":"2449 Fulton Ave","City":"Sacramento","State":"CA","Zip":"95825"},{"Location":"LOBBY BAR LLC","Address":"1310 Fulton Ave D","City":"Sacramento","State":"CA","Zip":"95825"},{"Location":"MALKASIAN ACCOUNTANCY","Address":"2233 Watt Ave 290","City":"Sacramento","State":"CA","Zip":"95825"},{"Location":"MARCELLO & COMPANY CPAS","Address":"2701 Cottage Way 30","City":"Sacramento","State":"CA","Zip":"95825"},{"Location":"MDR Z GHABEN SACRAMENTO","Address":"565 Howe Ave","City":"Sacramento","State":"CA","Zip":"95825"},{"Location":"MEN'S WEARHOUSE #2265","Address":"1701 Ethan Way","City":"Sacramento","State":"CA","Zip":"95825"},{"Location":"MERCEDES BENZ OF SACRAMENTO","Address":"1810 Howe Ave","City":"Sacramento","State":"CA","Zip":"95825"},{"Location":"NAILS 2000","Address":"1832 Fulton Ave","City":"Sacramento","State":"CA","Zip":"95825"},{"Location":"NIELLO VOLKSWAGEN - AUDI","Address":"2701 Arden Way","City":"Sacramento","State":"CA","Zip":"95825"},{"Location":"NORDSTROM RACK","Address":"2100 Arden Way 140","City":"Sacramento","State":"CA","Zip":"95825"},{"Location":"ODD FELLOWS HALL","Address":"1831 Howe Ave","City":"Sacramento","State":"CA","Zip":"95825"},{"Location":"ON THE Y","Address":"670 Fulton Ave","City":"Sacramento","State":"CA","Zip":"95825"},{"Location":"OUTBACK STEAKHOUSE #0529","Address":"1340 Howe Ave","City":"Sacramento","State":"CA","Zip":"95825"},{"Location":"PIATTI","Address":"571 Pavilions Ln","City":"Sacramento","State":"CA","Zip":"95825"},{"Location":"POWERHOUSE CHRISTIAN","Address":"2515 Cottage Way","City":"Sacramento","State":"CA","Zip":"95825"},{"Location":"RED LOBSTER #0367","Address":"1400 Howe Ave","City":"Sacramento","State":"CA","Zip":"95825"},{"Location":"RIVER CITY MOTORCYCLE INC","Address":"2539 Arden Way","City":"Sacramento","State":"CA","Zip":"95825"},{"Location":"ROUND TABLE PIZZA","Address":"1566 Howe Ave","City":"Sacramento","State":"CA","Zip":"95825"},{"Location":"SACRAMENTO CNTY SHERIFFS DEPT","Address":"2101 Hurley Way","City":"Sacramento","State":"CA","Zip":"95825"},{"Location":"SACRAMENTO RHEUMATOLOGY","Address":"107 Scripps Dr 100","City":"Sacramento","State":"CA","Zip":"95825"},{"Location":"SALMUNDAR INC","Address":"1319 Fulton Ave","City":"Sacramento","State":"CA","Zip":"95825"},{"Location":"SHOE LUGGAGE REPAIR","Address":"1537 Howe Ave 214","City":"Sacramento","State":"CA","Zip":"95825"},{"Location":"SMITH BARNEY 100178","Address":"155 Cadillac Dr","City":"Sacramento","State":"CA","Zip":"95825"},{"Location":"SPORT CLIPS CA104","Address":"2577 Sairoaks Blvd B","City":"Sacramento","State":"CA","Zip":"95825"},{"Location":"STUDIO 55 SALONS PAVILIONS LLC","Address":"530 Pavilions Ln","City":"Sacramento","State":"CA","Zip":"95825"},{"Location":"SUTTER MEDICAL FOUNDATION","Address":"2 Scripps Dr","City":"Sacramento","State":"CA","Zip":"95825"},{"Location":"T2","Address":"1443 Fulton Ave","City":"Sacramento","State":"CA","Zip":"95825"},{"Location":"THE LAW OFFICES OF MYM","Address":"701 University Ave 150","City":"Sacramento","State":"CA","Zip":"95825"},{"Location":"THE OFFICE LOUNGE","Address":"1148 Fulton Ave C","City":"Sacramento","State":"CA","Zip":"95825"},{"Location":"THE SAC HUT INC","Address":"2535 Fair Oaks Blvd","City":"Sacramento","State":"CA","Zip":"95825"},{"Location":"TURNING POINT COMMUNITY 4","Address":"2862 Arden Way 100","City":"Sacramento","State":"CA","Zip":"95825"}]