[{"Location":"A1 NAIL SALON","Address":"8484 Florin Rd 40","City":"Sacramento","State":"CA","Zip":"95828"},{"Location":"AAA EAST COAST TRAILER","Address":"8687 Weyand Ave","City":"Sacramento","State":"CA","Zip":"95828"},{"Location":"AAA INSURANCE","Address":"8687 Weyand Ave","City":"Sacramento","State":"CA","Zip":"95828"},{"Location":"ALIS TRUCK REPAIR","Address":"8546 Weyand Ave","City":"Sacramento","State":"CA","Zip":"95828"},{"Location":"BAI JIA LOU HH","Address":"6601 Florin Rd","City":"Sacramento","State":"CA","Zip":"95828"},{"Location":"CAFE MONACO","Address":"6519 Savings Pl 265","City":"Sacramento","State":"CA","Zip":"95828"},{"Location":"CAPITAL ESTATES MOBILE HOME PA","Address":"6701 63rd St","City":"Sacramento","State":"CA","Zip":"95828"},{"Location":"CARMAX GO","Address":"8185 E Stockton Blvd","City":"Sacramento","State":"CA","Zip":"95828"},{"Location":"CONNELL CONSTRUCTION CO","Address":"8750 Gerber Rd","City":"Sacramento","State":"CA","Zip":"95828"},{"Location":"DAVITA #5029 CALVINE","Address":"8243 E Stockton Blvd 100","City":"Sacramento","State":"CA","Zip":"95828"},{"Location":"ELITE POWER INC","Address":"6530 Asher Ln","City":"Sacramento","State":"CA","Zip":"95828"},{"Location":"FERGUSON #0686","Address":"8200 Ferguson Ave","City":"Sacramento","State":"CA","Zip":"95828"},{"Location":"FIREHOUSE CRAWFISH","Address":"6519 Savings Pl 205","City":"Sacramento","State":"CA","Zip":"95828"},{"Location":"G AND K SERVICES","Address":"5900 Alder Ave","City":"Sacramento","State":"CA","Zip":"95828"},{"Location":"INSIDE THE PARK","Address":"6488 Florin Perkins Rd","City":"Sacramento","State":"CA","Zip":"95828"},{"Location":"INTERLINE BRANDS","Address":"5961 Outfall Cir","City":"Sacramento","State":"CA","Zip":"95828"},{"Location":"JOES BURGER","Address":"6425 Florin Perkins Rd","City":"Sacramento","State":"CA","Zip":"95828"},{"Location":"KOHL'S #1159","Address":"8810 Calvine Rd","City":"Sacramento","State":"CA","Zip":"95828"},{"Location":"LONE TREE LANDSCAPES INC","Address":"8756 W Breeze Ave","City":"Sacramento","State":"CA","Zip":"95828"},{"Location":"MOOSE LODGE #255","Address":"8156 Florin Rd","City":"Sacramento","State":"CA","Zip":"95828"},{"Location":"MOUNTAIN MIKES PIZZA","Address":"7808 Gerber Rd","City":"Sacramento","State":"CA","Zip":"95828"},{"Location":"MR PICKLE SANDWHICH SHOP","Address":"8030 Gerber Rd","City":"Sacramento","State":"CA","Zip":"95828"},{"Location":"PDQ TRANSMISSION PARTS","Address":"8380 Tiogawoods Dr","City":"Sacramento","State":"CA","Zip":"95828"},{"Location":"PLATES CAFE & CATERING","Address":"14 Business Park Way","City":"Sacramento","State":"CA","Zip":"95828"},{"Location":"REX MOORE ELECTRICAL","Address":"6001 Outfall Cir","City":"Sacramento","State":"CA","Zip":"95828"},{"Location":"ROYAL ELECTRIC CO","Address":"8481 Carbide Ct","City":"Sacramento","State":"CA","Zip":"95828"},{"Location":"SACRAMENTO FIRE RESERVES","Address":"5801 Florin Perkins Rd","City":"Sacramento","State":"CA","Zip":"95828"},{"Location":"SIDEWALK PIZZA","Address":"7643 Power Inn Rd","City":"Sacramento","State":"CA","Zip":"95828"},{"Location":"THE CINCH","Address":"8003 Florin Rd","City":"Sacramento","State":"CA","Zip":"95828"},{"Location":"THE HOOKAH SPOT","Address":"8876 Vintage Park Dr Suit1","City":"Sacramento","State":"CA","Zip":"95828"},{"Location":"US ARMY CAMP PARKS(BT COLLINS)","Address":"8300 Santa Cruz St","City":"Sacramento","State":"CA","Zip":"95828"},{"Location":"WONDER CAFE","Address":"6880 65th St 45","City":"Sacramento","State":"CA","Zip":"95828"},{"Location":"ZEN CAR SERVICES","Address":"8243 E Stockton Blvd A","City":"Sacramento","State":"CA","Zip":"95828"}]