[{"Location":"24 HOUR FITNESS #528","Address":"9574 Micron Ave","City":"Sacramento","State":"CA","Zip":"95827"},{"Location":"ACCLAMATION INS MGMT SRVCS INC","Address":"10445 Old Placerville Rd","City":"Sacramento","State":"CA","Zip":"95827"},{"Location":"BLOW LOUNGE","Address":"9663 Folsom Blvd","City":"Sacramento","State":"CA","Zip":"95827"},{"Location":"BRANDENBURGER AND DAVIS","Address":"10395 Old Placerville Rd 100","City":"Sacramento","State":"CA","Zip":"95827"},{"Location":"BRIANNAS MEXICAN RESTAURANT","Address":"9783 Lincoln Village Dr","City":"Sacramento","State":"CA","Zip":"95827"},{"Location":"BROOKSIDE RESTAURANT AND BAR","Address":"9819 Horn Rd","City":"Sacramento","State":"CA","Zip":"95827"},{"Location":"CELIAS RESTAURANT","Address":"9584 Micron Ave","City":"Sacramento","State":"CA","Zip":"95827"},{"Location":"DST OUTPUT","Address":"9950 Mills Station Rd","City":"Sacramento","State":"CA","Zip":"95827"},{"Location":"EPN-SHANE HOLDEN","Address":"10364 Rockingham Dr","City":"Sacramento","State":"CA","Zip":"95827"},{"Location":"FIRST RESPONDER EMS","Address":"10161 Croydon Way 1","City":"Sacramento","State":"CA","Zip":"95827"},{"Location":"HD SUPPLY","Address":"10060 Mills Station Rd","City":"Sacramento","State":"CA","Zip":"95827"},{"Location":"HERITAGE COMMUNITY CREDITUNION","Address":"10415 Old Placeville Rd","City":"Sacramento","State":"CA","Zip":"95827"},{"Location":"ICONIC PROMOTIONS INC","Address":"9851 Horn Rd 150","City":"Sacramento","State":"CA","Zip":"95827"},{"Location":"K1 SPEED INC","Address":"3130 Bradshaw Rd","City":"Sacramento","State":"CA","Zip":"95827"},{"Location":"KARSTEN","Address":"9998 Old Placerville Rd","City":"Sacramento","State":"CA","Zip":"95827"},{"Location":"LDI MECHANICAL","Address":"3760 Happy Ln","City":"Sacramento","State":"CA","Zip":"95827"},{"Location":"PACIFIC GAS AND ELECTRIC CO","Address":"10375 Old Placerville Rd","City":"Sacramento","State":"CA","Zip":"95827"},{"Location":"PARADYME PRESICION INC","Address":"10210 Systems Pkwy 310","City":"Sacramento","State":"CA","Zip":"95827"},{"Location":"PERKOS CAFE","Address":"9647 Micron Ave","City":"Sacramento","State":"CA","Zip":"95827"},{"Location":"PHO BAC","Address":"3110 Bradshaw Rd","City":"Sacramento","State":"CA","Zip":"95827"},{"Location":"PREMIERE PERFORMANCE TRAINING","Address":"9980 Horn Rd","City":"Sacramento","State":"CA","Zip":"95827"},{"Location":"RESULTS PHYSICAL THERAPY","Address":"9500 Micron Ave 106","City":"Sacramento","State":"CA","Zip":"95827"},{"Location":"SACRAMENTO SHERIFF DEPARTMENT","Address":"10117 Mills Station Rd","City":"Sacramento","State":"CA","Zip":"95827"},{"Location":"SCHOOLS INSURANCE AUTHORITY","Address":"9800 Old Placerville Rd","City":"Sacramento","State":"CA","Zip":"95827"},{"Location":"SMILE MARKET","Address":"2950 Bradshaw Rd","City":"Sacramento","State":"CA","Zip":"95827"},{"Location":"SPORTCOURTSFITNESS","Address":"3727 Bradview Dr","City":"Sacramento","State":"CA","Zip":"95827"},{"Location":"SPORTS LEISURE VACATIONS","Address":"9812 Old Winery Pl","City":"Sacramento","State":"CA","Zip":"95827"},{"Location":"SPRINGS PIZZERIA","Address":"9500 Micron Ave 128","City":"Sacramento","State":"CA","Zip":"95827"},{"Location":"STUTSMAN BARRITT LLC","Address":"9851 Horn Rd 260","City":"Sacramento","State":"CA","Zip":"95827"},{"Location":"SURFACES INTERNATIONAL","Address":"3129 Fite Cir","City":"Sacramento","State":"CA","Zip":"95827"},{"Location":"SUTTER PHYSICIAN SERVICES","Address":"10470 Old Placerville Rd","City":"Sacramento","State":"CA","Zip":"95827"},{"Location":"THE AUCTION HOUSE","Address":"10076 Mills Station Rd","City":"Sacramento","State":"CA","Zip":"95827"},{"Location":"TSUKIJI SUSHI","Address":"3539 Bradshaw Rd 3b","City":"Sacramento","State":"CA","Zip":"95827"},{"Location":"VOLVO CONSTRUCTION EQUIP","Address":"9656 Jackson Rd","City":"Sacramento","State":"CA","Zip":"95827"},{"Location":"YOU & I DENTAL SUPPLY","Address":"9912 Business Park Dr","City":"Sacramento","State":"CA","Zip":"95827"}]