[{"Location":"24 HOUR FITNESS #552","Address":"8785 Center Pkwy","City":"Sacramento","State":"CA","Zip":"95823"},{"Location":"24 HOUR FITNESS #806","Address":"6061 Florin Rd","City":"Sacramento","State":"CA","Zip":"95823"},{"Location":"A%2FJ NAIL LLC","Address":"4540 Florin Rd D","City":"Sacramento","State":"CA","Zip":"95823"},{"Location":"A%2FJ NAIL LLC 1","Address":"6023 Florin Rd 300","City":"Sacramento","State":"CA","Zip":"95823"},{"Location":"ABUNDANT LIFE FELLOWSHI3","Address":"25 Massie Ct","City":"Sacramento","State":"CA","Zip":"95823"},{"Location":"BIMM","Address":"7300 Lincolnshire Dr 200","City":"Sacramento","State":"CA","Zip":"95823"},{"Location":"CARRANZA DENTAL","Address":"6023 Florin Rd 100","City":"Sacramento","State":"CA","Zip":"95823"},{"Location":"CHP SOUTH SACRAMENTO AREA","Address":"6 Massie Ct","City":"Sacramento","State":"CA","Zip":"95823"},{"Location":"CRAB CITY","Address":"7837 Stockton Blvd 500","City":"Sacramento","State":"CA","Zip":"95823"},{"Location":"CURAM COLLEGE OF NURSING","Address":"6520 44th St 312","City":"Sacramento","State":"CA","Zip":"95823"},{"Location":"DAVITA #278 FLORIN","Address":"7000 Stockton Blvd","City":"Sacramento","State":"CA","Zip":"95823"},{"Location":"DAVITA #288 S SACRAMENTO","Address":"7000 Franklin Blvd 880","City":"Sacramento","State":"CA","Zip":"95823"},{"Location":"DICKEYS SACRAMENTO","Address":"6013 Florin Rd","City":"Sacramento","State":"CA","Zip":"95823"},{"Location":"ECO THRIFT","Address":"7224 55th St","City":"Sacramento","State":"CA","Zip":"95823"},{"Location":"FAST BAIL BONDS","Address":"5407 Florin Rd","City":"Sacramento","State":"CA","Zip":"95823"},{"Location":"FAT DUCKS PIZZA","Address":"7925 Bruceville Rd","City":"Sacramento","State":"CA","Zip":"95823"},{"Location":"FMC 71650000","Address":"4660 Mack Rd 43","City":"Sacramento","State":"CA","Zip":"95823"},{"Location":"FOLLOWER ENTERPRISE LLC","Address":"5601 66th Ave 200","City":"Sacramento","State":"CA","Zip":"95823"},{"Location":"GCAM","Address":"4333 Florin Rd","City":"Sacramento","State":"CA","Zip":"95823"},{"Location":"GOEMAM'S LOUNGE","Address":"7123 Franklin Blvd","City":"Sacramento","State":"CA","Zip":"95823"},{"Location":"GRAND SALON DE MANILA","Address":"6051 Mack Rd 5","City":"Sacramento","State":"CA","Zip":"95823"},{"Location":"HARDYS BARBER SHOP","Address":"6595 Wyndham Dr","City":"Sacramento","State":"CA","Zip":"95823"},{"Location":"LA MISSION","Address":"4439 Florin Rd","City":"Sacramento","State":"CA","Zip":"95823"},{"Location":"LANG MAGAZINE","Address":"6930 65th St","City":"Sacramento","State":"CA","Zip":"95823"},{"Location":"Las Palmas","Address":"7386 Stockton Boulevard","City":"Sacramento","State":"CA","Zip":"95823"},{"Location":"MATADOR MOTORS","Address":"3565 Florin Rd","City":"Sacramento","State":"CA","Zip":"95823"},{"Location":"MOUNTAIN MIKES SAC. 6","Address":"4623 Mack Rd","City":"Sacramento","State":"CA","Zip":"95823"},{"Location":"MR PERRYS RESTAURANT","Address":"7820 Alta Valley Dr","City":"Sacramento","State":"CA","Zip":"95823"},{"Location":"MY THREE SONS AUTO SALE","Address":"3805 Florin Rd 1000","City":"Sacramento","State":"CA","Zip":"95823"},{"Location":"NOODLES HOUSE LOLLICUP","Address":"6830 Stockton Blvd 250","City":"Sacramento","State":"CA","Zip":"95823"},{"Location":"ORCHID","Address":"5555 Sky Pkwy 243","City":"Sacramento","State":"CA","Zip":"95823"},{"Location":"OSAKA SUSHI","Address":"8785 Center Pkwy","City":"Sacramento","State":"CA","Zip":"95823"},{"Location":"PHO BAC HOA VIET","Address":"6645 Stockton Blvd 300","City":"Sacramento","State":"CA","Zip":"95823"},{"Location":"PIZZA HUT- SACRAMENTO","Address":"7141 Franklin Blvd","City":"Sacramento","State":"CA","Zip":"95823"},{"Location":"POLLO CON ARROZ","Address":"75 Quinta Ct A","City":"Sacramento","State":"CA","Zip":"95823"},{"Location":"QUAN NEM","Address":"6450 Stockton Blvd","City":"Sacramento","State":"CA","Zip":"95823"},{"Location":"RESTAURANT CORP BLIMPIE","Address":"6051 Florin Rd","City":"Sacramento","State":"CA","Zip":"95823"},{"Location":"RV TRAVEL WORLD OF SACREMENTO","Address":"5650 66th Ave","City":"Sacramento","State":"CA","Zip":"95823"},{"Location":"SACRAMENTO RED MENS HLL","Address":"5501 Sky Pkwy","City":"Sacramento","State":"CA","Zip":"95823"},{"Location":"SACRAMENTO VETERANS RESOURCE","Address":"7270 E Southgate Dr","City":"Sacramento","State":"CA","Zip":"95823"},{"Location":"SACRAMENTO VETERANS RESOURCE","Address":"7270 E Southgate Dr 3","City":"Sacramento","State":"CA","Zip":"95823"},{"Location":"SACTOWN NAILS","Address":"4399 Florin Rd 6","City":"Sacramento","State":"CA","Zip":"95823"},{"Location":"SACTOWN NAILS SPA","Address":"4399 Florin Rd 5","City":"Sacramento","State":"CA","Zip":"95823"},{"Location":"SF SUPERMARKET","Address":"6930 65th St 123","City":"Sacramento","State":"CA","Zip":"95823"},{"Location":"SHARKYS BILLIARD","Address":"5940 Florin Rd","City":"Sacramento","State":"CA","Zip":"95823"},{"Location":"SHOPSMART","Address":"7660 Stockton Blvd","City":"Sacramento","State":"CA","Zip":"95823"},{"Location":"SIERRA VISTA HOSPITAL","Address":"8001 Bruceville Rd","City":"Sacramento","State":"CA","Zip":"95823"},{"Location":"SOUTH VILLA RESTAURANT","Address":"7223 55th St","City":"Sacramento","State":"CA","Zip":"95823"},{"Location":"SOUTHGATE MOBILE ESTATES","Address":"3201 Florin Rd","City":"Sacramento","State":"CA","Zip":"95823"},{"Location":"STAR  BEAUTY SUPPLY","Address":"6035 Florin Rd 700","City":"Sacramento","State":"CA","Zip":"95823"},{"Location":"STEPHANIES ACN BUSINESS","Address":"7601 Hospital Dr 101b","City":"Sacramento","State":"CA","Zip":"95823"},{"Location":"SUKI SUSHI","Address":"7311 W Stockton Blvd 130","City":"Sacramento","State":"CA","Zip":"95823"},{"Location":"SUPER TACO","Address":"6200 Mack Rd B","City":"Sacramento","State":"CA","Zip":"95823"},{"Location":"SUPER TACOS","Address":"7131 Franklin Blvd","City":"Sacramento","State":"CA","Zip":"95823"},{"Location":"SUTTER MEDICAL FOUNDATION","Address":"8118 Timberlake Way","City":"Sacramento","State":"CA","Zip":"95823"},{"Location":"SZECHUAN SPICY HOUSE","Address":"6914 65th St 301","City":"Sacramento","State":"CA","Zip":"95823"},{"Location":"TASTE OF ANGKOR LLC","Address":"4566 Mack Rd","City":"Sacramento","State":"CA","Zip":"95823"},{"Location":"THE BOILING CRAB","Address":"6910 65th St 100","City":"Sacramento","State":"CA","Zip":"95823"},{"Location":"THE LAUNDRY COMPANY","Address":"6415 Mack Rd","City":"Sacramento","State":"CA","Zip":"95823"},{"Location":"VALERIO TROPICAL BAKE SHOP","Address":"6051 Mack Rd D","City":"Sacramento","State":"CA","Zip":"95823"},{"Location":"VALLEY HI TAX SERVICE","Address":"65 Quinta Ct F","City":"Sacramento","State":"CA","Zip":"95823"},{"Location":"VETERANS OF FOREIGN WARS","Address":"7576 Stockton Blvd","City":"Sacramento","State":"CA","Zip":"95823"},{"Location":"WALTON PEDIATRICS & MEDICAL","Address":"7237 E Southgate Dr A","City":"Sacramento","State":"CA","Zip":"95823"},{"Location":"WATERZ WINGZ","Address":"7121 Governors Cir A","City":"Sacramento","State":"CA","Zip":"95823"},{"Location":"WELLCO  INSURANCE AGENCY","Address":"6905 Stockton Blvd 230","City":"Sacramento","State":"CA","Zip":"95823"},{"Location":"WENDYS 2240","Address":"7931 E Stockton Blvd","City":"Sacramento","State":"CA","Zip":"95823"},{"Location":"YOGURT BLISS","Address":"6910 65th St 108","City":"Sacramento","State":"CA","Zip":"95823"}]