[{"Location":"ADVANCED ROOF DESIGN 1","Address":"4 Wayne Ct 10","City":"Sacramento","State":"CA","Zip":"95829"},{"Location":"KRISS QUE","Address":"8065 Elk Grove Florin Rd","City":"Sacramento","State":"CA","Zip":"95829"},{"Location":"LAMPPOST PIZZA","Address":"8065 Elk Grove Florin Rd 100","City":"Sacramento","State":"CA","Zip":"95829"},{"Location":"LES SCHWAB TIRE CENTER","Address":"8301 Elk Grove Florin Rd","City":"Sacramento","State":"CA","Zip":"95829"},{"Location":"PIZZA HUT","Address":"8324 Elk Grove Florin Rd C","City":"Sacramento","State":"CA","Zip":"95829"},{"Location":"QUALITY CONSTRUTION CLEAN UP","Address":"8982 Elder Creek Rd C","City":"Sacramento","State":"CA","Zip":"95829"},{"Location":"ROUND TABLE PIZZA","Address":"8345 Elk Grove Florin Rd","City":"Sacramento","State":"CA","Zip":"95829"},{"Location":"SACARMENTO METRO FIRE 55","Address":"7776 Excelsior Rd","City":"Sacramento","State":"CA","Zip":"95829"},{"Location":"SUPER TACO","Address":"8347 Elk Grove Florin Rd 127","City":"Sacramento","State":"CA","Zip":"95829"},{"Location":"THE ASSEMBLES OF GOD","Address":"6051 S Watt Ave","City":"Sacramento","State":"CA","Zip":"95829"},{"Location":"UNISON HARDWARE","Address":"6 Wayne Ct","City":"Sacramento","State":"CA","Zip":"95829"},{"Location":"WESTERN BUILDING SPECIALTIES","Address":"6050 S Watt Ave","City":"Sacramento","State":"CA","Zip":"95829"},{"Location":"WILDHAWK GOLF CLUB","Address":"7713 Vineyard Rd","City":"Sacramento","State":"CA","Zip":"95829"}]