[{"Location":"A TOUCH A CLASS","Address":"4217 Stockton Blvd","City":"Sacramento","State":"CA","Zip":"95820"},{"Location":"A TOUCH OF CLASS BARBERSHOP","Address":"4217 Stockton Boulivard  #c","City":"Sacramento","State":"CA","Zip":"95820"},{"Location":"BROADWAY  SENIOR CENTER","Address":"5200 Broadway","City":"Sacramento","State":"CA","Zip":"95820"},{"Location":"CAPITOL CITY ELKS LODGE","Address":"3706 Stockton Blvd","City":"Sacramento","State":"CA","Zip":"95820"},{"Location":"EAGLE NUMBER NINE","Address":"4401 Fruitridge Rd","City":"Sacramento","State":"CA","Zip":"95820"},{"Location":"FAMILY LIFE CENTER","Address":"4036 14th Ave","City":"Sacramento","State":"CA","Zip":"95820"},{"Location":"FRENCH TO BOYS ONE","Address":"6498 Broadway","City":"Sacramento","State":"CA","Zip":"95820"},{"Location":"I LOVE TARIAKI","Address":"5301 Power Inn Rd 190","City":"Sacramento","State":"CA","Zip":"95820"},{"Location":"IDLE HOUR BAR & GRILL","Address":"6816 Fruitridge Rd","City":"Sacramento","State":"CA","Zip":"95820"},{"Location":"KEM MODELLAS","Address":"2550 Sutterville Rd","City":"Sacramento","State":"CA","Zip":"95820"},{"Location":"KTXL LLC FOX 40","Address":"4655 Fruitridge Rd","City":"Sacramento","State":"CA","Zip":"95820"},{"Location":"MAXFIELD","Address":"7500 San Joaquin St","City":"Sacramento","State":"CA","Zip":"95820"},{"Location":"PHO BIG DAU XE LUA","Address":"5331 Stockton Blvd","City":"Sacramento","State":"CA","Zip":"95820"},{"Location":"REAL FITNZ","Address":"3000 Perryman Way","City":"Sacramento","State":"CA","Zip":"95820"},{"Location":"SACRAMENTO CHILDRENS HOME","Address":"2750 Sutterville Rd","City":"Sacramento","State":"CA","Zip":"95820"},{"Location":"ST PAUL MISSIONARY BAPTI","Address":"3996 14th Ave","City":"Sacramento","State":"CA","Zip":"95820"},{"Location":"SUN SALON","Address":"5314 Stockton Blvd","City":"Sacramento","State":"CA","Zip":"95820"},{"Location":"SUPER TORTAS CHILANGAS","Address":"5045 Franklin Blvd","City":"Sacramento","State":"CA","Zip":"95820"},{"Location":"TALLAC BAR","Address":"3982 60th St","City":"Sacramento","State":"CA","Zip":"95820"},{"Location":"THE SQUEEZE INN","Address":"5301 Power Inn Rd 100","City":"Sacramento","State":"CA","Zip":"95820"},{"Location":"TOP WINGS","Address":"5035 Fruitridge Rd","City":"Sacramento","State":"CA","Zip":"95820"},{"Location":"TURNING POINT COMMUNITY 2","Address":"6825 Bender Ct","City":"Sacramento","State":"CA","Zip":"95820"},{"Location":"WILLIAMS LLC","Address":"4206 Martin Luther King Jr Blv","City":"Sacramento","State":"CA","Zip":"95820"}]