[{"Location":"SCOTTS TECHNOLOGY","Address":"1143 North Markey 7","City":"Sac","State":"CA","Zip":"95834"},{"Location":"A TO Z CUTS","Address":"2101 Natomas Crossing Dr 100a","City":"Sacramento","State":"CA","Zip":"95834"},{"Location":"ANYTIME FITNESS","Address":"4421 Gateway Park Blvd 100","City":"Sacramento","State":"CA","Zip":"95834"},{"Location":"APPLEBEE'S #2140025","Address":"3601 Truxel Rd","City":"Sacramento","State":"CA","Zip":"95834"},{"Location":"ASIAN N CAJUN","Address":"4271 Truxel Rd B1","City":"Sacramento","State":"CA","Zip":"95834"},{"Location":"AUBURN CONSTRUCTORS","Address":"730 W Stadium Ln","City":"Sacramento","State":"CA","Zip":"95834"},{"Location":"AUTHORITY HEATING & AIR","Address":"1015 N Market Blvd 4","City":"Sacramento","State":"CA","Zip":"95834"},{"Location":"BAINS PROPERTIES","Address":"4461 E Commerce Way","City":"Sacramento","State":"CA","Zip":"95834"},{"Location":"BEACH HUT DELI NATOMAS","Address":"3620 N Freeway Blvd 315","City":"Sacramento","State":"CA","Zip":"95834"},{"Location":"BJS RESTAURANT #452","Address":"3531 N Freeway Blvd","City":"Sacramento","State":"CA","Zip":"95834"},{"Location":"BROWN FINANCIAL SRVC","Address":"1930 Del Paso Rd 123","City":"Sacramento","State":"CA","Zip":"95834"},{"Location":"BUFFALO WILD WINGS #0420","Address":"3600 N Freeway Blvd","City":"Sacramento","State":"CA","Zip":"95834"},{"Location":"CALIFORNIA FAMILY FITNESS","Address":"3880 Innovator Dr","City":"Sacramento","State":"CA","Zip":"95834"},{"Location":"CALIFORNIA INTER SCHOLASTIC FE","Address":"4658 Duckhorn Dr","City":"Sacramento","State":"CA","Zip":"95834"},{"Location":"CALIFORNIA RURAL WATER","Address":"4131 Northgate Blvd","City":"Sacramento","State":"CA","Zip":"95834"},{"Location":"CALIFORNIA TEACHERS ASSO","Address":"4100 Truxel Rd","City":"Sacramento","State":"CA","Zip":"95834"},{"Location":"CHILI'S #0881","Address":"3870 Truxel Rd","City":"Sacramento","State":"CA","Zip":"95834"},{"Location":"CIMC INC","Address":"738 N Market Blvd","City":"Sacramento","State":"CA","Zip":"95834"},{"Location":"CITY OF SACRAMENTO","Address":"918 Del Paso Rd","City":"Sacramento","State":"CA","Zip":"95834"},{"Location":"CITY OF SACRAMENTO1","Address":"918 Del Paso Rd","City":"Sacramento","State":"CA","Zip":"95834"},{"Location":"CLIMATE CONTROL  INC","Address":"4219 S Market Ct C","City":"Sacramento","State":"CA","Zip":"95834"},{"Location":"CLIMBAROO","Address":"4421 Gateway Park Blvd 130","City":"Sacramento","State":"CA","Zip":"95834"},{"Location":"COMCAST SPOTLIGHT","Address":"1242 National Dr","City":"Sacramento","State":"CA","Zip":"95834"},{"Location":"CONNECT POINT SEARCH GROUP","Address":"180 Promenade Cir","City":"Sacramento","State":"CA","Zip":"95834"},{"Location":"COREMARK INTERNATIONAL","Address":"1520 National Dr","City":"Sacramento","State":"CA","Zip":"95834"},{"Location":"CPO FOUNDATION","Address":"1342 N Market Blvd","City":"Sacramento","State":"CA","Zip":"95834"},{"Location":"CPOF","Address":"1346 N Market Blvd","City":"Sacramento","State":"CA","Zip":"95834"},{"Location":"DFI  TECHNOLOGIES","Address":"1065 National Dr 1","City":"Sacramento","State":"CA","Zip":"95834"},{"Location":"FAMOUS FADES","Address":"3830 Northgate Blvd 500","City":"Sacramento","State":"CA","Zip":"95834"},{"Location":"FIL AM BAKERY AND FAST FOOD","Address":"4571 Gateway Park Blvd","City":"Sacramento","State":"CA","Zip":"95834"},{"Location":"FIVE 24 MEXICAN FOOD","Address":"3830 Northgate Bvld","City":"Sacramento","State":"CA","Zip":"95834"},{"Location":"GNT SOLUTIONS","Address":"180 Promenade Cir 260","City":"Sacramento","State":"CA","Zip":"95834"},{"Location":"GOLD'S GYM","Address":"1900 Del Paso Rd","City":"Sacramento","State":"CA","Zip":"95834"},{"Location":"GTECH CORPORATION","Address":"180 Promenade Cir 310","City":"Sacramento","State":"CA","Zip":"95834"},{"Location":"GTECH CORPORATION NORTH","Address":"1337 N Market Blvd 400","City":"Sacramento","State":"CA","Zip":"95834"},{"Location":"HOOTERS SACRAMENTO","Address":"3541 Truxel Rd","City":"Sacramento","State":"CA","Zip":"95834"},{"Location":"I LOVE TERIYAKI","Address":"3571 Truxel Rd B2","City":"Sacramento","State":"CA","Zip":"95834"},{"Location":"KABOB PALACE","Address":"1850 Del Paso Rd 4","City":"Sacramento","State":"CA","Zip":"95834"},{"Location":"LUZMINDA CORPUZ URITA DMD","Address":"3711 Truxel Rd 1","City":"Sacramento","State":"CA","Zip":"95834"},{"Location":"MALABAR","Address":"2960 Del Paso Rd","City":"Sacramento","State":"CA","Zip":"95834"},{"Location":"MALOOF SPORTS & ENTERTAINMENT","Address":"1 Sports Pkwy","City":"Sacramento","State":"CA","Zip":"95834"},{"Location":"MEN'S WEARHOUSE #2296","Address":"3635 N Freeway Blvd","City":"Sacramento","State":"CA","Zip":"95834"},{"Location":"MR PICKLE SANDWICH SHOP","Address":"3230 Arena Blvd 235","City":"Sacramento","State":"CA","Zip":"95834"},{"Location":"NAPA AUTO PARTS","Address":"4635 Northgate Blvd","City":"Sacramento","State":"CA","Zip":"95834"},{"Location":"ON THE BORDER #0518","Address":"3521 Truxel Rd","City":"Sacramento","State":"CA","Zip":"95834"},{"Location":"ORIGINAL PETES PIZZA","Address":"4571 Gateway Park Blvd C1","City":"Sacramento","State":"CA","Zip":"95834"},{"Location":"OSHIMA SUSHI","Address":"2071 Natomas Crossing Dr 200","City":"Sacramento","State":"CA","Zip":"95834"},{"Location":"PANDA EXPRESS 2140","Address":"3571 N Freeway Blvd Suite","City":"Sacramento","State":"CA","Zip":"95834"},{"Location":"PORK BELLY GRUB SHACK","Address":"4261 Truxel Rd A7","City":"Sacramento","State":"CA","Zip":"95834"},{"Location":"PRO OFFICE TECHNOLOGY LLC","Address":"4632 Duckhorn Dr","City":"Sacramento","State":"CA","Zip":"95834"},{"Location":"QTS","Address":"1100 N Market Blvd","City":"Sacramento","State":"CA","Zip":"95834"},{"Location":"RF BIOCIDICS","Address":"1417 N Market Blvd 3","City":"Sacramento","State":"CA","Zip":"95834"},{"Location":"RONALD C. LEE%2C DDS","Address":"1966 Del Paso Rd 100","City":"Sacramento","State":"CA","Zip":"95834"},{"Location":"ROSEVELT PETROLEUM LLC","Address":"1948 Del Paso Rd 138","City":"Sacramento","State":"CA","Zip":"95834"},{"Location":"ROUND TABLE PIZZA","Address":"3290 Arena Blvd 600","City":"Sacramento","State":"CA","Zip":"95834"},{"Location":"SACRAMENTO COCA COLA","Address":"4101 Gateway Park Blvd","City":"Sacramento","State":"CA","Zip":"95834"},{"Location":"SACRAMENTO VALLEY LOCKWORKS","Address":"729 W Stadium Ln","City":"Sacramento","State":"CA","Zip":"95834"},{"Location":"SELECT WINE","Address":"4271 Truxel Rd","City":"Sacramento","State":"CA","Zip":"95834"},{"Location":"SERV PRO OF CITRUS HEIGHTS","Address":"701 Del Paso Rd","City":"Sacramento","State":"CA","Zip":"95834"},{"Location":"SLEEP TRAIN INC.","Address":"4400 E Commerce Way 600","City":"Sacramento","State":"CA","Zip":"95834"},{"Location":"SPORT CLIPS CA105","Address":"3610 N Freeway Blvd 130","City":"Sacramento","State":"CA","Zip":"95834"},{"Location":"SPORTS AUTHORITY 677","Address":"3631 N Freeway Blvd","City":"Sacramento","State":"CA","Zip":"95834"},{"Location":"STRYKER ORTHOPEDIC","Address":"1340 N Market Blvd","City":"Sacramento","State":"CA","Zip":"95834"},{"Location":"TARGET 2115","Address":"3601 N Freeway Blvd","City":"Sacramento","State":"CA","Zip":"95834"},{"Location":"THAI PRINCESS","Address":"3230 Arena Blvd 215","City":"Sacramento","State":"CA","Zip":"95834"},{"Location":"THE SOCCER GALAXY LLC","Address":"3270 Arena Blvd 400","City":"Sacramento","State":"CA","Zip":"95834"},{"Location":"TOKYO STEAKHOUSE","Address":"3521 N Freeway Blvd 100","City":"Sacramento","State":"CA","Zip":"95834"},{"Location":"TOWER ENERGY GROUP","Address":"20 Golden Land Ct","City":"Sacramento","State":"CA","Zip":"95834"},{"Location":"TWITTER","Address":"1312 Striker Ave","City":"Sacramento","State":"CA","Zip":"95834"},{"Location":"UNIVERSAL TECH INSTITUTE TWO","Address":"4100 Duckhorn Dr","City":"Sacramento","State":"CA","Zip":"95834"},{"Location":"UNIVERSAL TECHNICAL INSTITUTE","Address":"4100 Duckhorn Dr","City":"Sacramento","State":"CA","Zip":"95834"},{"Location":"WESTCORE DELTA LLC","Address":"1415 N Market Blvd","City":"Sacramento","State":"CA","Zip":"95834"},{"Location":"WESTCORE PROPERTIES","Address":"1421 N Market Blvd 200","City":"Sacramento","State":"CA","Zip":"95834"},{"Location":"WINGSTOP","Address":"3541 N Freeway Blvd 115","City":"Sacramento","State":"CA","Zip":"95834"}]