[{"Location":"24 HOUR FITNESS #560","Address":"7600 Greenhaven Dr","City":"Sacramento","State":"CA","Zip":"95831"},{"Location":"BANZAI SUSHI","Address":"6409 Riverside Blvd","City":"Sacramento","State":"CA","Zip":"95831"},{"Location":"CALIFORNIA FAMILY FITNES","Address":"1349 Florin Rd","City":"Sacramento","State":"CA","Zip":"95831"},{"Location":"CALIFORNIA FAMILY FITNES","Address":"62 Valine Ct","City":"Sacramento","State":"CA","Zip":"95831"},{"Location":"FAMILY AFFAIR BRIDGES","Address":"7395 Greenhaven Dr","City":"Sacramento","State":"CA","Zip":"95831"},{"Location":"GOLDEN ONE PROMENADE","Address":"7465 Rush River Dr 110","City":"Sacramento","State":"CA","Zip":"95831"},{"Location":"NUGGET MARKET","Address":"1040 Florin Rd","City":"Sacramento","State":"CA","Zip":"95831"},{"Location":"PACIFIC BUSINESS OWNERS","Address":"1104 Corporate Way","City":"Sacramento","State":"CA","Zip":"95831"},{"Location":"RAINBOWS END","Address":"364 Florin Rd","City":"Sacramento","State":"CA","Zip":"95831"},{"Location":"ROUND TABLE PIZZA #397","Address":"398 Florin Rd","City":"Sacramento","State":"CA","Zip":"95831"},{"Location":"ROUND TABLE PIZZA #774","Address":"1307 Florin Rd","City":"Sacramento","State":"CA","Zip":"95831"},{"Location":"SAI VAREE THAI","Address":"7485 Rush River Dr","City":"Sacramento","State":"CA","Zip":"95831"},{"Location":"SUBWAY SANDWICH","Address":"1036 Florin Rd","City":"Sacramento","State":"CA","Zip":"95831"},{"Location":"TAX TIGER","Address":"6355 Riverside Blvd L","City":"Sacramento","State":"CA","Zip":"95831"},{"Location":"THE RESERVE AT RIVERLAKE","Address":"7971 Rush River Dr","City":"Sacramento","State":"CA","Zip":"95831"},{"Location":"THE TRAP","Address":"6125 Riverside Blvd","City":"Sacramento","State":"CA","Zip":"95831"},{"Location":"THE UPS STORE","Address":"372 Florin Rd","City":"Sacramento","State":"CA","Zip":"95831"},{"Location":"VERTUS PROPERTIES INC","Address":"6780 Gloria Dr 33","City":"Sacramento","State":"CA","Zip":"95831"},{"Location":"WELLS FARGO BANK","Address":"7375 Greenhaven Dr","City":"Sacramento","State":"CA","Zip":"95831"},{"Location":"WINGSTOP SOUTH SACRAMENTO","Address":"1052 Florin Rd","City":"Sacramento","State":"CA","Zip":"95831"},{"Location":"ZPIZZA","Address":"7600 Greenhaven Dr","City":"Sacramento","State":"CA","Zip":"95831"}]