[{"Location":"A GIFT OF HOPE","Address":"378 Delagua Way","City":"Sacramento","State":"CA","Zip":"95838"},{"Location":"A1 REMEDIATION SERVICE","Address":"4270 Pell Dr","City":"Sacramento","State":"CA","Zip":"95838"},{"Location":"ALLEN CHAPEL AME CHURCH","Address":"1239 Grand Ave","City":"Sacramento","State":"CA","Zip":"95838"},{"Location":"ANHEUSER-BUSCH WHLSLR #90489","Address":"60 Main Ave","City":"Sacramento","State":"CA","Zip":"95838"},{"Location":"CALIFORNIA WATER","Address":"4701 Beloit Dr","City":"Sacramento","State":"CA","Zip":"95838"},{"Location":"CANNA CARE","Address":"320 Harris Ave G","City":"Sacramento","State":"CA","Zip":"95838"},{"Location":"CLEANSOURCE","Address":"230 Harris Ave 11","City":"Sacramento","State":"CA","Zip":"95838"},{"Location":"DIMARE FRESH SACRAMENTO","Address":"4050 Pell Cir","City":"Sacramento","State":"CA","Zip":"95838"},{"Location":"GULF SOUTH MEDICAL CENTER","Address":"4291 Pell Dr A","City":"Sacramento","State":"CA","Zip":"95838"},{"Location":"INNOVATIVE MAINTENANCE S","Address":"125 Main Ave","City":"Sacramento","State":"CA","Zip":"95838"},{"Location":"JACKSON LABORATORY","Address":"4910 Raley Blvd","City":"Sacramento","State":"CA","Zip":"95838"},{"Location":"MT OLIVE MISSIONARY BAPTIST CH","Address":"920 Los Robles Blvd","City":"Sacramento","State":"CA","Zip":"95838"},{"Location":"NATURALS BEAUTY SALON","Address":"3806 Fig St","City":"Sacramento","State":"CA","Zip":"95838"},{"Location":"NORWOOD PINES CARE CENTER","Address":"500 Jessie Ave","City":"Sacramento","State":"CA","Zip":"95838"},{"Location":"PACIFIC GAS AND ELECTRIC CO","Address":"1851 Bell Ave","City":"Sacramento","State":"CA","Zip":"95838"},{"Location":"PENSKE TRUCK LEASING","Address":"53 Morrison Ave","City":"Sacramento","State":"CA","Zip":"95838"},{"Location":"ROUND TABLE PIZZA #780","Address":"4215 Norwood Ave","City":"Sacramento","State":"CA","Zip":"95838"},{"Location":"SACRAMENTO TRUCK CENTER","Address":"100 Opportunity St","City":"Sacramento","State":"CA","Zip":"95838"},{"Location":"SIERRA BROOK INC","Address":"3951 Performance Dr A","City":"Sacramento","State":"CA","Zip":"95838"},{"Location":"SP RICHARDS COMPANY","Address":"181 Main Ave","City":"Sacramento","State":"CA","Zip":"95838"},{"Location":"TORIS PLACE","Address":"1525 Grand Ave","City":"Sacramento","State":"CA","Zip":"95838"},{"Location":"VITEK INC","Address":"4585 Pell Dr","City":"Sacramento","State":"CA","Zip":"95838"},{"Location":"WHOLE SALE OUTLET INC","Address":"4920 Raley Blvd","City":"Sacramento","State":"CA","Zip":"95838"}]