[{"Location":"524 MEXICAN RESTAURANT","Address":"2377 Northgate Blvd","City":"Sacramento","State":"CA","Zip":"95833"},{"Location":"BANDKOKO","Address":"1620 W El Camino Ave 147","City":"Sacramento","State":"CA","Zip":"95833"},{"Location":"BANGKOK CITY THAI CUISINE","Address":"1620 W El Camino Ave","City":"Sacramento","State":"CA","Zip":"95833"},{"Location":"BETTER IMAGES","Address":"2251 Northgate Blvd H","City":"Sacramento","State":"CA","Zip":"95833"},{"Location":"BLACK BEAR DINER-SAC","Address":"2700 El Centro Rd","City":"Sacramento","State":"CA","Zip":"95833"},{"Location":"CHEERS BAR AND GRILL","Address":"1620 W El Camino Ave 130","City":"Sacramento","State":"CA","Zip":"95833"},{"Location":"CHEVY'S 2007","Address":"1369 Garden Hwy","City":"Sacramento","State":"CA","Zip":"95833"},{"Location":"COURTYARD BY MARRIOTT","Address":"2101 River Plaza Dr","City":"Sacramento","State":"CA","Zip":"95833"},{"Location":"CRAWDADS RIVER CANTINA","Address":"1375 Golden Hwy","City":"Sacramento","State":"CA","Zip":"95833"},{"Location":"DAD PARTNERS INC.","Address":"1379 Garden Hwy","City":"Sacramento","State":"CA","Zip":"95833"},{"Location":"DPR CONSTRUCTION","Address":"2480 Natomas Park Dr 100","City":"Sacramento","State":"CA","Zip":"95833"},{"Location":"EL CENTRO INVESTMENTS","Address":"2738 El Centro Rd","City":"Sacramento","State":"CA","Zip":"95833"},{"Location":"FAIRFIELD INN & SUITES","Address":"2730 El Centro Rd","City":"Sacramento","State":"CA","Zip":"95833"},{"Location":"FAIRFIELD INN & SUITES BY MARR","Address":"2730 El Centro Rd","City":"Sacramento","State":"CA","Zip":"95833"},{"Location":"FIJI MART","Address":"3280 Northgate Blvd","City":"Sacramento","State":"CA","Zip":"95833"},{"Location":"FIJI POOL BAR","Address":"3270 Northgate Blvd","City":"Sacramento","State":"CA","Zip":"95833"},{"Location":"IS INC","Address":"2554 Millcreek Dr","City":"Sacramento","State":"CA","Zip":"95833"},{"Location":"KBS CITY GATE PLAZA","Address":"2460 Venture Oaks Way","City":"Sacramento","State":"CA","Zip":"95833"},{"Location":"LOTUS FUSION","Address":"1620 W El Comino Ave 148","City":"Sacramento","State":"CA","Zip":"95833"},{"Location":"MISTER CARNITAS","Address":"1589 W El Camino Ave","City":"Sacramento","State":"CA","Zip":"95833"},{"Location":"ML STERN & CO LLC","Address":"2804 Gateway Oaks Dr 100","City":"Sacramento","State":"CA","Zip":"95833"},{"Location":"PACIFIC GAS & ELECTRIC","Address":"2740 Gateway Oaks Dr","City":"Sacramento","State":"CA","Zip":"95833"},{"Location":"PAPE MACHINERY","Address":"2850 El Centro Rd","City":"Sacramento","State":"CA","Zip":"95833"},{"Location":"PG&E","Address":"2730 Gateway Oaks Dr","City":"Sacramento","State":"CA","Zip":"95833"},{"Location":"PONCE DE LEON DENTAL","Address":"1589 W El Camino Ave 108","City":"Sacramento","State":"CA","Zip":"95833"},{"Location":"ROUND TABLE PIZZA #611","Address":"3291 Truxel Rd","City":"Sacramento","State":"CA","Zip":"95833"},{"Location":"SACRAMENTO LEARNING CTR","Address":"2710 Gateway Oaks Dr 360","City":"Sacramento","State":"CA","Zip":"95833"},{"Location":"SAVALA BAIL BONDS","Address":"3064 Funston Dr","City":"Sacramento","State":"CA","Zip":"95833"},{"Location":"STATE FUND SACRAMENTO","Address":"2275 Gateway Oaks Dr","City":"Sacramento","State":"CA","Zip":"95833"},{"Location":"T MOBILE 4235100151","Address":"1755 Creekside Oaks Dr 190","City":"Sacramento","State":"CA","Zip":"95833"},{"Location":"WELLS FARGO BANK","Address":"2804 Gateway Oaks Dr 260","City":"Sacramento","State":"CA","Zip":"95833"},{"Location":"WOODRUFF SAWYER AND CO","Address":"2295 Gateway Oaks Dr 230","City":"Sacramento","State":"CA","Zip":"95833"},{"Location":"524 MEXICAN RESTAURANT","Address":"2377 Northgate Blvd","City":"Sacramento","State":"CA","Zip":"95833"},{"Location":"BANDKOKO","Address":"1620 W El Camino Ave 147","City":"Sacramento","State":"CA","Zip":"95833"},{"Location":"BANGKOK CITY THAI CUISINE","Address":"1620 W El Camino Ave","City":"Sacramento","State":"CA","Zip":"95833"},{"Location":"BETTER IMAGES","Address":"2251 Northgate Blvd H","City":"Sacramento","State":"CA","Zip":"95833"},{"Location":"BLACK BEAR DINER-SAC","Address":"2700 El Centro Rd","City":"Sacramento","State":"CA","Zip":"95833"},{"Location":"CHEERS BAR AND GRILL","Address":"1620 W El Camino Ave 130","City":"Sacramento","State":"CA","Zip":"95833"},{"Location":"CHEVY'S 2007","Address":"1369 Garden Hwy","City":"Sacramento","State":"CA","Zip":"95833"},{"Location":"COURTYARD BY MARRIOTT","Address":"2101 River Plaza Dr","City":"Sacramento","State":"CA","Zip":"95833"},{"Location":"CRAWDADS RIVER CANTINA","Address":"1375 Golden Hwy","City":"Sacramento","State":"CA","Zip":"95833"},{"Location":"DAD PARTNERS INC.","Address":"1379 Garden Hwy","City":"Sacramento","State":"CA","Zip":"95833"},{"Location":"DPR CONSTRUCTION","Address":"2480 Natomas Park Dr 100","City":"Sacramento","State":"CA","Zip":"95833"},{"Location":"EL CENTRO INVESTMENTS","Address":"2738 El Centro Rd","City":"Sacramento","State":"CA","Zip":"95833"},{"Location":"FAIRFIELD INN & SUITES","Address":"2730 El Centro Rd","City":"Sacramento","State":"CA","Zip":"95833"},{"Location":"FAIRFIELD INN & SUITES BY MARR","Address":"2730 El Centro Rd","City":"Sacramento","State":"CA","Zip":"95833"},{"Location":"FIJI MART","Address":"3280 Northgate Blvd","City":"Sacramento","State":"CA","Zip":"95833"},{"Location":"FIJI POOL BAR","Address":"3270 Northgate Blvd","City":"Sacramento","State":"CA","Zip":"95833"},{"Location":"IS INC","Address":"2554 Millcreek Dr","City":"Sacramento","State":"CA","Zip":"95833"},{"Location":"KBS CITY GATE PLAZA","Address":"2460 Venture Oaks Way","City":"Sacramento","State":"CA","Zip":"95833"},{"Location":"LOTUS FUSION","Address":"1620 W El Comino Ave 148","City":"Sacramento","State":"CA","Zip":"95833"},{"Location":"MISTER CARNITAS","Address":"1589 W El Camino Ave","City":"Sacramento","State":"CA","Zip":"95833"},{"Location":"ML STERN & CO LLC","Address":"2804 Gateway Oaks Dr 100","City":"Sacramento","State":"CA","Zip":"95833"},{"Location":"PACIFIC GAS & ELECTRIC","Address":"2740 Gateway Oaks Dr","City":"Sacramento","State":"CA","Zip":"95833"},{"Location":"PAPE MACHINERY","Address":"2850 El Centro Rd","City":"Sacramento","State":"CA","Zip":"95833"},{"Location":"PG&E","Address":"2730 Gateway Oaks Dr","City":"Sacramento","State":"CA","Zip":"95833"},{"Location":"PONCE DE LEON DENTAL","Address":"1589 W El Camino Ave 108","City":"Sacramento","State":"CA","Zip":"95833"},{"Location":"ROUND TABLE PIZZA #611","Address":"3291 Truxel Rd","City":"Sacramento","State":"CA","Zip":"95833"},{"Location":"SACRAMENTO LEARNING CTR","Address":"2710 Gateway Oaks Dr 360","City":"Sacramento","State":"CA","Zip":"95833"},{"Location":"SAVALA BAIL BONDS","Address":"3064 Funston Dr","City":"Sacramento","State":"CA","Zip":"95833"},{"Location":"STATE FUND SACRAMENTO","Address":"2275 Gateway Oaks Dr","City":"Sacramento","State":"CA","Zip":"95833"},{"Location":"T MOBILE 4235100151","Address":"1755 Creekside Oaks Dr 190","City":"Sacramento","State":"CA","Zip":"95833"},{"Location":"WELLS FARGO BANK","Address":"2804 Gateway Oaks Dr 260","City":"Sacramento","State":"CA","Zip":"95833"},{"Location":"WOODRUFF SAWYER AND CO","Address":"2295 Gateway Oaks Dr 230","City":"Sacramento","State":"CA","Zip":"95833"}]