[{"Location":"AV NAILS","Address":"1441 Meadowview Rd","City":"Sacramento","State":"CA","Zip":"95832"},{"Location":"BARTLEY CAVANAUGH GOLF COURSE","Address":"8301 Freeport Blvd","City":"Sacramento","State":"CA","Zip":"95832"},{"Location":"DELTA BAIT AND TACKLE","Address":"8140 Freeport Blvd B","City":"Sacramento","State":"CA","Zip":"95832"},{"Location":"FREEPORT BAR GRILL","Address":"8259 Freeport Blvd","City":"Sacramento","State":"CA","Zip":"95832"},{"Location":"GENESIS MISSIONARY","Address":"2801 Meadowview Rd","City":"Sacramento","State":"CA","Zip":"95832"},{"Location":"MI PUEBLO","Address":"8140 Freeport Blvd","City":"Sacramento","State":"CA","Zip":"95832"},{"Location":"VERIZON DATA SERVICES","Address":"7901 Freeport Blvd","City":"Sacramento","State":"CA","Zip":"95832"},{"Location":"AV NAILS","Address":"1441 Meadowview Rd","City":"Sacramento","State":"CA","Zip":"95832"},{"Location":"BARTLEY CAVANAUGH GOLF COURSE","Address":"8301 Freeport Blvd","City":"Sacramento","State":"CA","Zip":"95832"},{"Location":"DELTA BAIT AND TACKLE","Address":"8140 Freeport Blvd B","City":"Sacramento","State":"CA","Zip":"95832"},{"Location":"FREEPORT BAR GRILL","Address":"8259 Freeport Blvd","City":"Sacramento","State":"CA","Zip":"95832"},{"Location":"GENESIS MISSIONARY","Address":"2801 Meadowview Rd","City":"Sacramento","State":"CA","Zip":"95832"},{"Location":"MI PUEBLO","Address":"8140 Freeport Blvd","City":"Sacramento","State":"CA","Zip":"95832"},{"Location":"VERIZON DATA SERVICES","Address":"7901 Freeport Blvd","City":"Sacramento","State":"CA","Zip":"95832"}]