[{"Location":"15L CAFETERIA","Address":"6851 Lindbergh Dr Ba215","City":"Sacramento","State":"CA","Zip":"95837"},{"Location":"CESSNA AIRCRAFT CO","Address":"5850 Citation Way","City":"Sacramento","State":"CA","Zip":"95837"},{"Location":"CNBC NEWS","Address":"6850 Airport Blvd","City":"Sacramento","State":"CA","Zip":"95837"},{"Location":"CUSTOMS AND BORDER","Address":"6900 Airport Blvd","City":"Sacramento","State":"CA","Zip":"95837"},{"Location":"GATEWAY BAR","Address":"6900 Airport Blvd","City":"Sacramento","State":"CA","Zip":"95837"},{"Location":"GOOD DAY SACRAMENTO","Address":"6850 Airport Blvd","City":"Sacramento","State":"CA","Zip":"95837"},{"Location":"HMS HOST EQUIRE GRILL SMFEGE01","Address":"6900 Airport Blvd","City":"Sacramento","State":"CA","Zip":"95837"},{"Location":"HOMETOWN FAVORITES","Address":"6850 Airport Blvd","City":"Sacramento","State":"CA","Zip":"95837"},{"Location":"JET BLUE AIRWAYS","Address":"6900 Airport Blvd 104","City":"Sacramento","State":"CA","Zip":"95837"},{"Location":"SAC ADMINSTRATION","Address":"7001 Lindbergh Dr","City":"Sacramento","State":"CA","Zip":"95837"},{"Location":"SAC AIRPORT B GROUND COF","Address":"6900 Airport Blvd","City":"Sacramento","State":"CA","Zip":"95837"},{"Location":"SAC AIRPORT PACIFIC GATE","Address":"6900 Airport Blvd","City":"Sacramento","State":"CA","Zip":"95837"},{"Location":"SACRAMENTO AIRPORT","Address":"6850 Airport Blvd","City":"Sacramento","State":"CA","Zip":"95837"},{"Location":"SACRAMENTO INT AIRPORT","Address":"6900 Airport Blvd","City":"Sacramento","State":"CA","Zip":"95837"},{"Location":"SC AIRPORT TERMINAL A","Address":"6741 Lindbergh Dr","City":"Sacramento","State":"CA","Zip":"95837"},{"Location":"SOUTHWEST AIRLINES","Address":"6900 Airport Blvd 108","City":"Sacramento","State":"CA","Zip":"95837"},{"Location":"SSP - AMERICA - RE BAR 9","Address":"6850 Airport Blvd","City":"Sacramento","State":"CA","Zip":"95837"},{"Location":"SSP AMERICA - SPORTS BAR","Address":"6900 Airport Blvd 131","City":"Sacramento","State":"CA","Zip":"95837"},{"Location":"SWABBIES AT METRO MARINIA","Address":"5871 Garden Hwy","City":"Sacramento","State":"CA","Zip":"95837"},{"Location":"TEAL BEND GOLF","Address":"7200 Garden Hwy","City":"Sacramento","State":"CA","Zip":"95837"},{"Location":"TSA SACRAMENTO INTERNATIONAL","Address":"5885 Flightline Cir","City":"Sacramento","State":"CA","Zip":"95837"},{"Location":"UNITED AIRLINES","Address":"6850 Airport Blvd 34","City":"Sacramento","State":"CA","Zip":"95837"},{"Location":"UNITED AIRLINES2","Address":"6850 Airport Blvd 34","City":"Sacramento","State":"CA","Zip":"95837"},{"Location":"15L CAFETERIA","Address":"6851 Lindbergh Dr Ba215","City":"Sacramento","State":"CA","Zip":"95837"},{"Location":"CESSNA AIRCRAFT CO","Address":"5850 Citation Way","City":"Sacramento","State":"CA","Zip":"95837"},{"Location":"CNBC NEWS","Address":"6850 Airport Blvd","City":"Sacramento","State":"CA","Zip":"95837"},{"Location":"CUSTOMS AND BORDER","Address":"6900 Airport Blvd","City":"Sacramento","State":"CA","Zip":"95837"},{"Location":"GATEWAY BAR","Address":"6900 Airport Blvd","City":"Sacramento","State":"CA","Zip":"95837"},{"Location":"GOOD DAY SACRAMENTO","Address":"6850 Airport Blvd","City":"Sacramento","State":"CA","Zip":"95837"},{"Location":"HMS HOST EQUIRE GRILL SMFEGE01","Address":"6900 Airport Blvd","City":"Sacramento","State":"CA","Zip":"95837"},{"Location":"HOMETOWN FAVORITES","Address":"6850 Airport Blvd","City":"Sacramento","State":"CA","Zip":"95837"},{"Location":"JET BLUE AIRWAYS","Address":"6900 Airport Blvd 104","City":"Sacramento","State":"CA","Zip":"95837"},{"Location":"SAC ADMINSTRATION","Address":"7001 Lindbergh Dr","City":"Sacramento","State":"CA","Zip":"95837"},{"Location":"SAC AIRPORT B GROUND COF","Address":"6900 Airport Blvd","City":"Sacramento","State":"CA","Zip":"95837"},{"Location":"SAC AIRPORT PACIFIC GATE","Address":"6900 Airport Blvd","City":"Sacramento","State":"CA","Zip":"95837"},{"Location":"SACRAMENTO AIRPORT","Address":"6850 Airport Blvd","City":"Sacramento","State":"CA","Zip":"95837"},{"Location":"SACRAMENTO INT AIRPORT","Address":"6900 Airport Blvd","City":"Sacramento","State":"CA","Zip":"95837"},{"Location":"SC AIRPORT TERMINAL A","Address":"6741 Lindbergh Dr","City":"Sacramento","State":"CA","Zip":"95837"},{"Location":"SOUTHWEST AIRLINES","Address":"6900 Airport Blvd 108","City":"Sacramento","State":"CA","Zip":"95837"},{"Location":"SSP - AMERICA - RE BAR 9","Address":"6850 Airport Blvd","City":"Sacramento","State":"CA","Zip":"95837"},{"Location":"SSP AMERICA - SPORTS BAR","Address":"6900 Airport Blvd 131","City":"Sacramento","State":"CA","Zip":"95837"},{"Location":"SWABBIES AT METRO MARINIA","Address":"5871 Garden Hwy","City":"Sacramento","State":"CA","Zip":"95837"},{"Location":"TEAL BEND GOLF","Address":"7200 Garden Hwy","City":"Sacramento","State":"CA","Zip":"95837"},{"Location":"TSA SACRAMENTO INTERNATIONAL","Address":"5885 Flightline Cir","City":"Sacramento","State":"CA","Zip":"95837"},{"Location":"UNITED AIRLINES","Address":"6850 Airport Blvd 34","City":"Sacramento","State":"CA","Zip":"95837"},{"Location":"UNITED AIRLINES2","Address":"6850 Airport Blvd 34","City":"Sacramento","State":"CA","Zip":"95837"}]