[{"Location":"24 HOUR FITNESS #498","Address":"7905 Walerga Rd","City":"Antelope","State":"CA","Zip":"95843"},{"Location":"CAROLINA RESTAURANT","Address":"4207 Elverta Rd","City":"Antelope","State":"CA","Zip":"95843"},{"Location":"EXCALIBUR PIZZA","Address":"7909 Walerga Rd 109","City":"Antelope","State":"CA","Zip":"95843"},{"Location":"FIRESTONE 352044","Address":"4325 Elverta Rd","City":"Antelope","State":"CA","Zip":"95843"},{"Location":"KHACHATRYAN","Address":"3535 Elverta Rd A3","City":"Antelope","State":"CA","Zip":"95843"},{"Location":"KOHL'S #705","Address":"5030 Antelope Rd","City":"Antelope","State":"CA","Zip":"95843"},{"Location":"LES SCHWAB TIRE CENTER","Address":"7880 Walerga Rd","City":"Antelope","State":"CA","Zip":"95843"},{"Location":"RALEYS","Address":"7901 Walerga Rd","City":"Antelope","State":"CA","Zip":"95843"},{"Location":"TRI COUNTIES BANK","Address":"5821 Antelope North Rd","City":"Antelope","State":"CA","Zip":"95843"},{"Location":"UPPER KUTZ BARBERSHOP","Address":"8011 Watt Ave","City":"Antelope","State":"CA","Zip":"95843"}]