[{"Location":"A LIVING WELL HOUSE","Address":"7044 Hollis Ct","City":"Sacramento","State":"CA","Zip":"95842"},{"Location":"BUFFALO PIZZA","Address":"5757 Hillsdale Blvd","City":"Sacramento","State":"CA","Zip":"95842"},{"Location":"CALIBER COLLISION CENTERS","Address":"7407 Roseville Rd","City":"Sacramento","State":"CA","Zip":"95842"},{"Location":"GOLDEN 1 ELKHORN PLAZA","Address":"5337 Elkhorn Blvd","City":"Sacramento","State":"CA","Zip":"95842"},{"Location":"HARRYS FISH BBQ","Address":"5601 Hillsdale Blvd","City":"Sacramento","State":"CA","Zip":"95842"},{"Location":"HILLSDALE MOBILE HOME","Address":"6300 Roseville Rd","City":"Sacramento","State":"CA","Zip":"95842"},{"Location":"PACIFIC DECORATIVE CONCR","Address":"5421 Stationers Way","City":"Sacramento","State":"CA","Zip":"95842"},{"Location":"PRO STYLE BARBERSHOP","Address":"5755 Hillsdale Blvd","City":"Sacramento","State":"CA","Zip":"95842"},{"Location":"QUEST","Address":"5822 Roseville Rd","City":"Sacramento","State":"CA","Zip":"95842"},{"Location":"QUICK CONCRETE CREATIONS","Address":"7309 Roseville Rd B","City":"Sacramento","State":"CA","Zip":"95842"},{"Location":"RAYMAR INFO","Address":"7325 Roseville Rd","City":"Sacramento","State":"CA","Zip":"95842"},{"Location":"RICH EXPRESS CHINESE FOO","Address":"5595 Hillsdale Blvd","City":"Sacramento","State":"CA","Zip":"95842"},{"Location":"TASTE OF TUSCANY","Address":"7753 Roseville Rd A","City":"Sacramento","State":"CA","Zip":"95842"},{"Location":"UNITED STATIONERS","Address":"7021 Roseville Rd","City":"Sacramento","State":"CA","Zip":"95842"},{"Location":"UNITED STATIONERS","Address":"5440 Stationers Way","City":"Sacramento","State":"CA","Zip":"95842"},{"Location":"VALLEY COMMUNICATIONS INC","Address":"6921 Roseville Rd","City":"Sacramento","State":"CA","Zip":"95842"}]