[{"Location":"ATKINSON FAMILY SERVICE","Address":"5646 Markos Ct","City":"Sacramento","State":"CA","Zip":"95841"},{"Location":"C FOOD CONCEPTS INC 691","Address":"5815 Madison Ave","City":"Sacramento","State":"CA","Zip":"95841"},{"Location":"CAL SURVEY","Address":"4737 Auburn Blvd","City":"Sacramento","State":"CA","Zip":"95841"},{"Location":"CALIFORNIA FAMILY FITNES","Address":"4804 Madison Ave","City":"Sacramento","State":"CA","Zip":"95841"},{"Location":"CALIFORNIA HIGHWAY PATROL","Address":"5109 Tyler St","City":"Sacramento","State":"CA","Zip":"95841"},{"Location":"CROWN PLAZA","Address":"5321 Date Ave","City":"Sacramento","State":"CA","Zip":"95841"},{"Location":"DLM DEVELOPMENT INC","Address":"5412 Madison Ave 130","City":"Sacramento","State":"CA","Zip":"95841"},{"Location":"ESTATES","Address":"5720 Oak Hill Dr","City":"Sacramento","State":"CA","Zip":"95841"},{"Location":"FBI-SACREMENTO","Address":"4500 Orange Grove Ave","City":"Sacramento","State":"CA","Zip":"95841"},{"Location":"FERGUSON #1101","Address":"5631 Auburn Blvd","City":"Sacramento","State":"CA","Zip":"95841"},{"Location":"FERGUSON #1984","Address":"4525 Madison Ave","City":"Sacramento","State":"CA","Zip":"95841"},{"Location":"FIRESTONE #352686 NC","Address":"5041 Madison Ave","City":"Sacramento","State":"CA","Zip":"95841"},{"Location":"FLIP N SHAKE","Address":"4708 Auburn Blvd","City":"Sacramento","State":"CA","Zip":"95841"},{"Location":"HERITAGE OAKS HOSPITAL","Address":"4250 Auburn Blvd","City":"Sacramento","State":"CA","Zip":"95841"},{"Location":"HINGS CHINESE RESTAURANT","Address":"5800 Madison Ave Q","City":"Sacramento","State":"CA","Zip":"95841"},{"Location":"HOAVIET","Address":"5060 Madison Ave","City":"Sacramento","State":"CA","Zip":"95841"},{"Location":"LUMBERJACKS RESTARAUNT","Address":"5820 Madison Ave","City":"Sacramento","State":"CA","Zip":"95841"},{"Location":"PERFORMANCE CHEVROLET","Address":"4811 Madison Ave","City":"Sacramento","State":"CA","Zip":"95841"},{"Location":"SACRAMENTO CO SHERIFFS","Address":"5510 Garfield Ave 100","City":"Sacramento","State":"CA","Zip":"95841"},{"Location":"SACRAMENTO PED GI","Address":"5767 Greenback Ln","City":"Sacramento","State":"CA","Zip":"95841"},{"Location":"SACRAMENTO SUBURBAN WATER","Address":"5331 Walnut Ave","City":"Sacramento","State":"CA","Zip":"95841"},{"Location":"SHERMANS FORKLIFT SERVICE","Address":"4555 Auburn Blvd 19","City":"Sacramento","State":"CA","Zip":"95841"},{"Location":"STICKY WICKET","Address":"5147 Madison Ave","City":"Sacramento","State":"CA","Zip":"95841"},{"Location":"SUNSHINE SMOKE SHOP","Address":"4501 Auburn Blvd 102","City":"Sacramento","State":"CA","Zip":"95841"},{"Location":"CA RURAL INDIAN HEALTH BOARD","Address":"4400 Averdeen Blvd","City":"Sacremento","State":"CA","Zip":"95841"}]