[{"Location":"2 FIT WATT AVENUE  LLC","Address":"455 Watt Ave","City":"Sacramento","State":"CA","Zip":"95864"},{"Location":"ARDEN MARKET","Address":"4231 Arden Way","City":"Sacramento","State":"CA","Zip":"95864"},{"Location":"CAFE VINOTECA","Address":"3535 Fair Oaks Blvd","City":"Sacramento","State":"CA","Zip":"95864"},{"Location":"GOLDEN 1 CREDIT UNION 6","Address":"515 La Sierra Dr","City":"Sacramento","State":"CA","Zip":"95864"},{"Location":"JTS COMMUNITES","Address":"401 Watt Ave 2","City":"Sacramento","State":"CA","Zip":"95864"},{"Location":"KILT PUB","Address":"4235 Arden Way","City":"Sacramento","State":"CA","Zip":"95864"},{"Location":"KKN INC","Address":"3610 American River Dr","City":"Sacramento","State":"CA","Zip":"95864"},{"Location":"LESLEY LEDERER","Address":"3620 American River Dr 240","City":"Sacramento","State":"CA","Zip":"95864"},{"Location":"LONGSHOT","Address":"4239 Arden Way","City":"Sacramento","State":"CA","Zip":"95864"},{"Location":"MANDARIN RESTAURANT","Address":"4321 Arden Way","City":"Sacramento","State":"CA","Zip":"95864"},{"Location":"SIERRA HOLDINGS","Address":"3445 American River Dr A","City":"Sacramento","State":"CA","Zip":"95864"},{"Location":"TEICHERT LAND CO","Address":"3500 American River Dr","City":"Sacramento","State":"CA","Zip":"95864"}]