[{"Location":"7 MILE HOUSE","Address":"3178 Highway 20","City":"Marysville","State":"CA","Zip":"95901"},{"Location":"AMERICAN HERITAGE BARBERSHOP","Address":"321 3rd St","City":"Marysville","State":"CA","Zip":"95901"},{"Location":"ARNES PAINT STORE INC","Address":"526 J St","City":"Marysville","State":"CA","Zip":"95901"},{"Location":"ASIAN CUISINE","Address":"22 E 12th St","City":"Marysville","State":"CA","Zip":"95901"},{"Location":"BARN 71 FEED","Address":"2809 Highway 20","City":"Marysville","State":"CA","Zip":"95901"},{"Location":"CALIFORNIA WATER SERVICE","Address":"131 D St","City":"Marysville","State":"CA","Zip":"95901"},{"Location":"CALVARY CHRISTIAN CENTER","Address":"430 C St","City":"Marysville","State":"CA","Zip":"95901"},{"Location":"EARTHWORKS MACHINERY COMPANY","Address":"1287 Furneaux Rd","City":"Marysville","State":"CA","Zip":"95901"},{"Location":"EL REY MEXICAN RESTAURAN","Address":"512 E 19th St","City":"Marysville","State":"CA","Zip":"95901"},{"Location":"END ZONE","Address":"900 B St A","City":"Marysville","State":"CA","Zip":"95901"},{"Location":"GINNI'S NOW & THEN THRIFT STOR","Address":"5402 Lindhurst Ave","City":"Marysville","State":"CA","Zip":"95901"},{"Location":"HONCUT CREEK RANCH","Address":"1933 Ramirez Rd","City":"Marysville","State":"CA","Zip":"95901"},{"Location":"HWY 70%2F20 CAR WASH","Address":"1009 B St","City":"Marysville","State":"CA","Zip":"95901"},{"Location":"J K BAY AREA INC.","Address":"202 9th St","City":"Marysville","State":"CA","Zip":"95901"},{"Location":"LESSCHWAB TIRE","Address":"5998 Lindhurst Ave","City":"Marysville","State":"CA","Zip":"95901"},{"Location":"MARYSVILLE CLINIC","Address":"330 H St A","City":"Marysville","State":"CA","Zip":"95901"},{"Location":"PACIFIC GAS AND ELECTRIC","Address":"29 4th St D","City":"Marysville","State":"CA","Zip":"95901"},{"Location":"PIZZA HUT - MARYSVILLE","Address":"1130 N Beale Rd","City":"Marysville","State":"CA","Zip":"95901"},{"Location":"PIZZA ROUND' UP","Address":"11806 Loma Rica Rd","City":"Marysville","State":"CA","Zip":"95901"},{"Location":"PRO FITNESS HEALTH CLUB","Address":"424 D St","City":"Marysville","State":"CA","Zip":"95901"},{"Location":"RICK BROWN PROPANE INC","Address":"5826 Lindhurst Ave","City":"Marysville","State":"CA","Zip":"95901"},{"Location":"ROSE HAIR SALON","Address":"124 E 12th St","City":"Marysville","State":"CA","Zip":"95901"},{"Location":"SILVER DOLLAR SALOON","Address":"330 1st St","City":"Marysville","State":"CA","Zip":"95901"},{"Location":"SUPER 8","Address":"1078 N Beale Rd","City":"Marysville","State":"CA","Zip":"95901"},{"Location":"THE TIRE DEALER","Address":"1031 B St","City":"Marysville","State":"CA","Zip":"95901"},{"Location":"THE VIVION DUCK CLUB","Address":"10075 Tanabe Rd","City":"Marysville","State":"CA","Zip":"95901"},{"Location":"TIGER EYE FAMILY MARTIAL ARTS","Address":"5949 Lindhurst Ave","City":"Marysville","State":"CA","Zip":"95901"},{"Location":"WOOD BUTCHER","Address":"301 C St","City":"Marysville","State":"CA","Zip":"95901"},{"Location":"YUBE COUNTY SHERIFF'S DEPARTME","Address":"215 5th St 150","City":"Marysville","State":"CA","Zip":"95901"},{"Location":"7 MILE HOUSE","Address":"3178 Highway 20","City":"Marysville","State":"CA","Zip":"95901"},{"Location":"AMERICAN HERITAGE BARBERSHOP","Address":"321 3rd St","City":"Marysville","State":"CA","Zip":"95901"},{"Location":"ARNES PAINT STORE INC","Address":"526 J St","City":"Marysville","State":"CA","Zip":"95901"},{"Location":"ASIAN CUISINE","Address":"22 E 12th St","City":"Marysville","State":"CA","Zip":"95901"},{"Location":"BARN 71 FEED","Address":"2809 Highway 20","City":"Marysville","State":"CA","Zip":"95901"},{"Location":"CALIFORNIA WATER SERVICE","Address":"131 D St","City":"Marysville","State":"CA","Zip":"95901"},{"Location":"CALVARY CHRISTIAN CENTER","Address":"430 C St","City":"Marysville","State":"CA","Zip":"95901"},{"Location":"EARTHWORKS MACHINERY COMPANY","Address":"1287 Furneaux Rd","City":"Marysville","State":"CA","Zip":"95901"},{"Location":"EL REY MEXICAN RESTAURAN","Address":"512 E 19th St","City":"Marysville","State":"CA","Zip":"95901"},{"Location":"END ZONE","Address":"900 B St A","City":"Marysville","State":"CA","Zip":"95901"},{"Location":"GINNI'S NOW & THEN THRIFT STOR","Address":"5402 Lindhurst Ave","City":"Marysville","State":"CA","Zip":"95901"},{"Location":"HONCUT CREEK RANCH","Address":"1933 Ramirez Rd","City":"Marysville","State":"CA","Zip":"95901"},{"Location":"HWY 70%2F20 CAR WASH","Address":"1009 B St","City":"Marysville","State":"CA","Zip":"95901"},{"Location":"J K BAY AREA INC.","Address":"202 9th St","City":"Marysville","State":"CA","Zip":"95901"},{"Location":"LESSCHWAB TIRE","Address":"5998 Lindhurst Ave","City":"Marysville","State":"CA","Zip":"95901"},{"Location":"MARYSVILLE CLINIC","Address":"330 H St A","City":"Marysville","State":"CA","Zip":"95901"},{"Location":"PACIFIC GAS AND ELECTRIC","Address":"29 4th St D","City":"Marysville","State":"CA","Zip":"95901"},{"Location":"PIZZA HUT - MARYSVILLE","Address":"1130 N Beale Rd","City":"Marysville","State":"CA","Zip":"95901"},{"Location":"PIZZA ROUND' UP","Address":"11806 Loma Rica Rd","City":"Marysville","State":"CA","Zip":"95901"},{"Location":"PRO FITNESS HEALTH CLUB","Address":"424 D St","City":"Marysville","State":"CA","Zip":"95901"},{"Location":"RICK BROWN PROPANE INC","Address":"5826 Lindhurst Ave","City":"Marysville","State":"CA","Zip":"95901"},{"Location":"ROSE HAIR SALON","Address":"124 E 12th St","City":"Marysville","State":"CA","Zip":"95901"},{"Location":"SILVER DOLLAR SALOON","Address":"330 1st St","City":"Marysville","State":"CA","Zip":"95901"},{"Location":"SUPER 8","Address":"1078 N Beale Rd","City":"Marysville","State":"CA","Zip":"95901"},{"Location":"THE TIRE DEALER","Address":"1031 B St","City":"Marysville","State":"CA","Zip":"95901"},{"Location":"THE VIVION DUCK CLUB","Address":"10075 Tanabe Rd","City":"Marysville","State":"CA","Zip":"95901"},{"Location":"TIGER EYE FAMILY MARTIAL ARTS","Address":"5949 Lindhurst Ave","City":"Marysville","State":"CA","Zip":"95901"},{"Location":"WOOD BUTCHER","Address":"301 C St","City":"Marysville","State":"CA","Zip":"95901"},{"Location":"YUBE COUNTY SHERIFF'S DEPARTME","Address":"215 5th St 150","City":"Marysville","State":"CA","Zip":"95901"}]