[{"Location":"ACA TACO","Address":"135 Broadway St","City":"Chico","State":"CA","Zip":"95928"},{"Location":"ANGIES POKER CLUB","Address":"175 E 20th St 150","City":"Chico","State":"CA","Zip":"95928"},{"Location":"ARGUS","Address":"212 W 2nd St","City":"Chico","State":"CA","Zip":"95928"},{"Location":"BELLA'S SPORTS PUB","Address":"134 Broadway St","City":"Chico","State":"CA","Zip":"95928"},{"Location":"CALIFORNIA WATER","Address":"2222 Dr Martin Luther King Jun","City":"Chico","State":"CA","Zip":"95928"},{"Location":"CHIC PODIATRY GROUP","Address":"2103 Forest Ave","City":"Chico","State":"CA","Zip":"95928"},{"Location":"CHICO","Address":"229 Broadway St","City":"Chico","State":"CA","Zip":"95928"},{"Location":"CHICO ENTERPRISES","Address":"400 E Park Ave","City":"Chico","State":"CA","Zip":"95928"},{"Location":"CHILI'S #1176","Address":"1908 E 20th St","City":"Chico","State":"CA","Zip":"95928"},{"Location":"COURTYARD - CHICO","Address":"2481 Carmichael Dr","City":"Chico","State":"CA","Zip":"95928"},{"Location":"DANNYS BARBERSHOP","Address":"544 Broadway St","City":"Chico","State":"CA","Zip":"95928"},{"Location":"DICK'S SPORTING GOODS #1089","Address":"1992 E 20th St","City":"Chico","State":"CA","Zip":"95928"},{"Location":"DOWN LO","Address":"319 Main St","City":"Chico","State":"CA","Zip":"95928"},{"Location":"FEDERAL BUREAU OF INVESTIGATIO","Address":"Skywy Skywy Pro Plaz 101 Raley","City":"Chico","State":"CA","Zip":"95928"},{"Location":"FOE EAGLES","Address":"1940 Mulberry St","City":"Chico","State":"CA","Zip":"95928"},{"Location":"GOLDEN 1 CREDIT UNION 7","Address":"239 W 2nd St","City":"Chico","State":"CA","Zip":"95928"},{"Location":"JACKS  RESTAURANT","Address":"540 Main St","City":"Chico","State":"CA","Zip":"95928"},{"Location":"JEFF PAGE CONSTRUCTION","Address":"261 E 3rd St D","City":"Chico","State":"CA","Zip":"95928"},{"Location":"JOHNNIE'S","Address":"220 W 4th St","City":"Chico","State":"CA","Zip":"95928"},{"Location":"KOHL'S #1031","Address":"1505 Springfield Dr","City":"Chico","State":"CA","Zip":"95928"},{"Location":"LES SCHWAB TIRE CENTER","Address":"2420 Norte Dame Blvd","City":"Chico","State":"CA","Zip":"95928"},{"Location":"MADISON BEAR GARDEN","Address":"316 W 2nd St","City":"Chico","State":"CA","Zip":"95928"},{"Location":"MAGIC NAIL AND SPA","Address":"2485 Notre Dame Blvd 430","City":"Chico","State":"CA","Zip":"95928"},{"Location":"MEN'S WEARHOUSE #2286","Address":"1962 E 20th St E501","City":"Chico","State":"CA","Zip":"95928"},{"Location":"MOM'S","Address":"209 Salem St","City":"Chico","State":"CA","Zip":"95928"},{"Location":"MORGAN STANLEY 100281","Address":"555 Main St","City":"Chico","State":"CA","Zip":"95928"},{"Location":"NICHOLS RANCH","Address":"9415 River Rd","City":"Chico","State":"CA","Zip":"95928"},{"Location":"OASIS BAR AND GRILL","Address":"1007 W 1st St","City":"Chico","State":"CA","Zip":"95928"},{"Location":"OJIYA GOURMENT INC","Address":"2477 Forest Ave 100","City":"Chico","State":"CA","Zip":"95928"},{"Location":"OP NAILS AND SPA","Address":"2454 Nortedame Blvd 150","City":"Chico","State":"CA","Zip":"95928"},{"Location":"ORIGINAL PETES CHICO","Address":"2495 Carmichael Dr","City":"Chico","State":"CA","Zip":"95928"},{"Location":"PACIFIC GAS AND ELECTRIC CO","Address":"310 Salem St","City":"Chico","State":"CA","Zip":"95928"},{"Location":"PANAMA BAR & CAFE","Address":"177 E 2nd St","City":"Chico","State":"CA","Zip":"95928"},{"Location":"PARK AVENUE PUB","Address":"2010 Park Ave","City":"Chico","State":"CA","Zip":"95928"},{"Location":"POPS WOODFIRE PIZZA","Address":"2031 Forest Ave","City":"Chico","State":"CA","Zip":"95928"},{"Location":"RED LOBSTER #0671","Address":"2010 Business Ln","City":"Chico","State":"CA","Zip":"95928"},{"Location":"RILEY'S","Address":"702 W 5th St","City":"Chico","State":"CA","Zip":"95928"},{"Location":"ROSELEAF SENIOR CARE","Address":"2180 Humboldt Rd","City":"Chico","State":"CA","Zip":"95928"},{"Location":"ROUND TABLE PIZZA","Address":"2027 Forest Ave 20","City":"Chico","State":"CA","Zip":"95928"},{"Location":"SCRUBS","Address":"1020 Skyway","City":"Chico","State":"CA","Zip":"95928"},{"Location":"SELIG CONSTRUCTION","Address":"337 Huss Dr","City":"Chico","State":"CA","Zip":"95928"},{"Location":"SIERRA ENTERTAIMENT GROUP","Address":"2465 Carmichael Dr","City":"Chico","State":"CA","Zip":"95928"},{"Location":"SKYWAY SELF-STORAGE","Address":"2520 Zanella Way","City":"Chico","State":"CA","Zip":"95928"},{"Location":"SKYWAY SURGERY CENTER","Address":"121 Raiey Blvd","City":"Chico","State":"CA","Zip":"95928"},{"Location":"SMOKIN  MOS BBQ","Address":"131 Broadway St","City":"Chico","State":"CA","Zip":"95928"},{"Location":"TACOS TIJUANA","Address":"1441 Park Ave","City":"Chico","State":"CA","Zip":"95928"},{"Location":"THE BANSHEE","Address":"134 W 2nd St","City":"Chico","State":"CA","Zip":"95928"},{"Location":"THE GRADUATE","Address":"344 W 8th St","City":"Chico","State":"CA","Zip":"95928"},{"Location":"THE HANDLEBAR","Address":"2070 E 20th St","City":"Chico","State":"CA","Zip":"95928"},{"Location":"THE TACKLE BOX","Address":"379 E Park Ave","City":"Chico","State":"CA","Zip":"95928"},{"Location":"THE TERRACES","Address":"2750 Sierra Sunrise Ter","City":"Chico","State":"CA","Zip":"95928"},{"Location":"TWO MEN AND A TRUCK INC","Address":"3851 Morrow Ln 9","City":"Chico","State":"CA","Zip":"95928"},{"Location":"UNIVERSITY BAR","Address":"193 E 2nd St","City":"Chico","State":"CA","Zip":"95928"},{"Location":"VALLEY OAK VETERINARY CLINIC","Address":"2480 Dr Martin Luther King Jun","City":"Chico","State":"CA","Zip":"95928"},{"Location":"WILDCATS SPORTSWEAR","Address":"221 Normal Ave C","City":"Chico","State":"CA","Zip":"95928"},{"Location":"WOOD STOCK PIZZA","Address":"166 E 2nd St","City":"Chico","State":"CA","Zip":"95928"},{"Location":"XIBANYA 1 INC","Address":"117 Broadway St","City":"Chico","State":"CA","Zip":"95928"},{"Location":"ACA TACO","Address":"135 Broadway St","City":"Chico","State":"CA","Zip":"95928"},{"Location":"ANGIES POKER CLUB","Address":"175 E 20th St 150","City":"Chico","State":"CA","Zip":"95928"},{"Location":"ARGUS","Address":"212 W 2nd St","City":"Chico","State":"CA","Zip":"95928"},{"Location":"BELLA'S SPORTS PUB","Address":"134 Broadway St","City":"Chico","State":"CA","Zip":"95928"},{"Location":"CALIFORNIA WATER","Address":"2222 Dr Martin Luther King Jun","City":"Chico","State":"CA","Zip":"95928"},{"Location":"CHIC PODIATRY GROUP","Address":"2103 Forest Ave","City":"Chico","State":"CA","Zip":"95928"},{"Location":"CHICO","Address":"229 Broadway St","City":"Chico","State":"CA","Zip":"95928"},{"Location":"CHICO ENTERPRISES","Address":"400 E Park Ave","City":"Chico","State":"CA","Zip":"95928"},{"Location":"CHILI'S #1176","Address":"1908 E 20th St","City":"Chico","State":"CA","Zip":"95928"},{"Location":"COURTYARD - CHICO","Address":"2481 Carmichael Dr","City":"Chico","State":"CA","Zip":"95928"},{"Location":"DANNYS BARBERSHOP","Address":"544 Broadway St","City":"Chico","State":"CA","Zip":"95928"},{"Location":"DICK'S SPORTING GOODS #1089","Address":"1992 E 20th St","City":"Chico","State":"CA","Zip":"95928"},{"Location":"DOWN LO","Address":"319 Main St","City":"Chico","State":"CA","Zip":"95928"},{"Location":"FEDERAL BUREAU OF INVESTIGATIO","Address":"Skywy Skywy Pro Plaz 101 Raley","City":"Chico","State":"CA","Zip":"95928"},{"Location":"FOE EAGLES","Address":"1940 Mulberry St","City":"Chico","State":"CA","Zip":"95928"},{"Location":"GOLDEN 1 CREDIT UNION 7","Address":"239 W 2nd St","City":"Chico","State":"CA","Zip":"95928"},{"Location":"JACKS  RESTAURANT","Address":"540 Main St","City":"Chico","State":"CA","Zip":"95928"},{"Location":"JEFF PAGE CONSTRUCTION","Address":"261 E 3rd St D","City":"Chico","State":"CA","Zip":"95928"},{"Location":"JOHNNIE'S","Address":"220 W 4th St","City":"Chico","State":"CA","Zip":"95928"},{"Location":"KOHL'S #1031","Address":"1505 Springfield Dr","City":"Chico","State":"CA","Zip":"95928"},{"Location":"LES SCHWAB TIRE CENTER","Address":"2420 Norte Dame Blvd","City":"Chico","State":"CA","Zip":"95928"},{"Location":"MADISON BEAR GARDEN","Address":"316 W 2nd St","City":"Chico","State":"CA","Zip":"95928"},{"Location":"MAGIC NAIL AND SPA","Address":"2485 Notre Dame Blvd 430","City":"Chico","State":"CA","Zip":"95928"},{"Location":"MEN'S WEARHOUSE #2286","Address":"1962 E 20th St E501","City":"Chico","State":"CA","Zip":"95928"},{"Location":"MOM'S","Address":"209 Salem St","City":"Chico","State":"CA","Zip":"95928"},{"Location":"MORGAN STANLEY 100281","Address":"555 Main St","City":"Chico","State":"CA","Zip":"95928"},{"Location":"NICHOLS RANCH","Address":"9415 River Rd","City":"Chico","State":"CA","Zip":"95928"},{"Location":"OASIS BAR AND GRILL","Address":"1007 W 1st St","City":"Chico","State":"CA","Zip":"95928"},{"Location":"OJIYA GOURMENT INC","Address":"2477 Forest Ave 100","City":"Chico","State":"CA","Zip":"95928"},{"Location":"OP NAILS AND SPA","Address":"2015 Forest Ave 40","City":"Chico","State":"CA","Zip":"95928"},{"Location":"ORIGINAL PETES CHICO","Address":"2495 Carmichael Dr","City":"Chico","State":"CA","Zip":"95928"},{"Location":"PACIFIC GAS AND ELECTRIC CO","Address":"310 Salem St","City":"Chico","State":"CA","Zip":"95928"},{"Location":"PANAMA BAR & CAFE","Address":"177 E 2nd St","City":"Chico","State":"CA","Zip":"95928"},{"Location":"PARK AVENUE PUB","Address":"2010 Park Ave","City":"Chico","State":"CA","Zip":"95928"},{"Location":"POPS WOODFIRE PIZZA","Address":"2031 Forest Ave","City":"Chico","State":"CA","Zip":"95928"},{"Location":"RED LOBSTER #0671","Address":"2010 Business Ln","City":"Chico","State":"CA","Zip":"95928"},{"Location":"RILEY'S","Address":"702 W 5th St","City":"Chico","State":"CA","Zip":"95928"},{"Location":"ROSELEAF SENIOR CARE","Address":"2180 Humboldt Rd","City":"Chico","State":"CA","Zip":"95928"},{"Location":"ROUND TABLE PIZZA","Address":"2027 Forest Ave 20","City":"Chico","State":"CA","Zip":"95928"},{"Location":"SCRUBS","Address":"1020 Skyway","City":"Chico","State":"CA","Zip":"95928"},{"Location":"SELIG CONSTRUCTION","Address":"337 Huss Dr","City":"Chico","State":"CA","Zip":"95928"},{"Location":"SIERRA ENTERTAIMENT GROUP","Address":"2465 Carmichael Dr","City":"Chico","State":"CA","Zip":"95928"},{"Location":"SKYPARK WALK IN MED CTR","Address":"2485 Notre Dame Blvd 230","City":"Chico","State":"CA","Zip":"95928"},{"Location":"SKYWAY SELF-STORAGE","Address":"2520 Zanella Way","City":"Chico","State":"CA","Zip":"95928"},{"Location":"SKYWAY SURGERY CENTER","Address":"121 Raiey Blvd","City":"Chico","State":"CA","Zip":"95928"},{"Location":"SMOKIN  MOS BBQ","Address":"131 Broadway St","City":"Chico","State":"CA","Zip":"95928"},{"Location":"TACOS TIJUANA","Address":"1441 Park Ave","City":"Chico","State":"CA","Zip":"95928"},{"Location":"THE BANSHEE","Address":"134 W 2nd St","City":"Chico","State":"CA","Zip":"95928"},{"Location":"THE GRADUATE","Address":"344 W 8th St","City":"Chico","State":"CA","Zip":"95928"},{"Location":"THE HANDLEBAR","Address":"2070 E 20th St","City":"Chico","State":"CA","Zip":"95928"},{"Location":"THE TACKLE BOX","Address":"379 E Park Ave","City":"Chico","State":"CA","Zip":"95928"},{"Location":"THE TERRACES","Address":"2750 Sierra Sunrise Ter","City":"Chico","State":"CA","Zip":"95928"},{"Location":"UNIVERSITY BAR","Address":"193 E 2nd St","City":"Chico","State":"CA","Zip":"95928"},{"Location":"VALLEY OAK VETERINARY CLINIC","Address":"2480 Dr Martin Luther King Jun","City":"Chico","State":"CA","Zip":"95928"},{"Location":"WILDCATS SPORTSWEAR","Address":"221 Normal Ave C","City":"Chico","State":"CA","Zip":"95928"},{"Location":"WOOD STOCK PIZZA","Address":"166 E 2nd St","City":"Chico","State":"CA","Zip":"95928"},{"Location":"XIBANYA 1 INC","Address":"117 Broadway St","City":"Chico","State":"CA","Zip":"95928"}]