[{"Location":"AC A TACO","Address":"1000 W Sacramento Ave D","City":"Chico","State":"CA","Zip":"95926"},{"Location":"CHICO HEIGHTS REHAB 2","Address":"587 Rio Lindo Ave","City":"Chico","State":"CA","Zip":"95926"},{"Location":"COZY DINER","Address":"1695 Mangrove Ave","City":"Chico","State":"CA","Zip":"95926"},{"Location":"CUTTING EDGE ORTHEPEDICS","Address":"165 Rio Lindo Ave","City":"Chico","State":"CA","Zip":"95926"},{"Location":"ELITE BIOMECHANICAL DESIGN","Address":"9 Governors Ln","City":"Chico","State":"CA","Zip":"95926"},{"Location":"END  ZONE","Address":"250 Cohasset Rd","City":"Chico","State":"CA","Zip":"95926"},{"Location":"EVERYDAY VIETNAMESE CUIS","Address":"951 Nord Ave","City":"Chico","State":"CA","Zip":"95926"},{"Location":"GARIAN PARTNERSHIP","Address":"676 E 1st Ave 7","City":"Chico","State":"CA","Zip":"95926"},{"Location":"GELAYO","Address":"1380 East Ave 136","City":"Chico","State":"CA","Zip":"95926"},{"Location":"GEN KAI JAPANESE","Address":"605 Mangrove Ave 180","City":"Chico","State":"CA","Zip":"95926"},{"Location":"IN MOTION FITNESS","Address":"1293 E 1st Ave","City":"Chico","State":"CA","Zip":"95926"},{"Location":"JBF 2 FOOD INC","Address":"1008 W Sacramento Ave G","City":"Chico","State":"CA","Zip":"95926"},{"Location":"JM SUB FOUR LLC","Address":"605 Mangrove Ave","City":"Chico","State":"CA","Zip":"95926"},{"Location":"KALICO KITCHEN","Address":"2396 Esplanade","City":"Chico","State":"CA","Zip":"95926"},{"Location":"KINGS PIZZA","Address":"2190 Esplanade","City":"Chico","State":"CA","Zip":"95926"},{"Location":"LES SCHWAB","Address":"201 W East Ave","City":"Chico","State":"CA","Zip":"95926"},{"Location":"MANZANITA PLACE","Address":"1705 Manzanita Ave","City":"Chico","State":"CA","Zip":"95926"},{"Location":"PANIGHETTIS EATERY","Address":"1851 Esplanade","City":"Chico","State":"CA","Zip":"95926"},{"Location":"RAY BOWEN","Address":"188 Cohasset Ln","City":"Chico","State":"CA","Zip":"95926"},{"Location":"ROUND TABLE PIZZA","Address":"2201 Pillsbury Rd","City":"Chico","State":"CA","Zip":"95926"},{"Location":"ROUND TABLE PIZZA","Address":"964 Mangrove Ave","City":"Chico","State":"CA","Zip":"95926"},{"Location":"STIFEL NICOLAUS AND COMPANY","Address":"1058 Mangrove Ave 2","City":"Chico","State":"CA","Zip":"95926"},{"Location":"THE ITALIAN COTTAGE","Address":"2234 Esplanade","City":"Chico","State":"CA","Zip":"95926"},{"Location":"THE POUR HOUSE","Address":"855 East Ave%2C Suite 270","City":"Chico","State":"CA","Zip":"95926"},{"Location":"TRI COUNTIES BANK","Address":"211 W East Ave","City":"Chico","State":"CA","Zip":"95926"},{"Location":"TRI COUNTRIES BANK","Address":"780 Mangrove Ave","City":"Chico","State":"CA","Zip":"95926"},{"Location":"TURNING POINT COMMUNITY 3","Address":"377 Connors Ct","City":"Chico","State":"CA","Zip":"95926"},{"Location":"U SWIRL","Address":"615 Mangrove Ave 125","City":"Chico","State":"CA","Zip":"95926"},{"Location":"WENDY'S","Address":"2421 Cohasset Rd","City":"Chico","State":"CA","Zip":"95926"},{"Location":"WINGSTOP","Address":"734 Mangrove Ave","City":"Chico","State":"CA","Zip":"95926"}]