[{"Location":"BUTTE LODGE OUTING","Address":"7600 Laux Rd","City":"Colusa","State":"CA","Zip":"95932"},{"Location":"CHEF MEX","Address":"611 Fremont St","City":"Colusa","State":"CA","Zip":"95932"},{"Location":"COLUSA COUNTY SHERIFF","Address":"929 Bridge St","City":"Colusa","State":"CA","Zip":"95932"},{"Location":"COLUSA INDIAN BINGO BAR","Address":"3770 Highway 45","City":"Colusa","State":"CA","Zip":"95932"},{"Location":"COLUSA INDIAN BINGO CASINO","Address":"3770 Highway 45","City":"Colusa","State":"CA","Zip":"95932"},{"Location":"COLUSA INDIAN COMMUNITY COUNCI","Address":"3740 Highway 45","City":"Colusa","State":"CA","Zip":"95932"},{"Location":"COLUSA INDIAN HEALTH CLINIC","Address":"3710 Highway 45","City":"Colusa","State":"CA","Zip":"95932"},{"Location":"LOUIS CAIRO'S","Address":"558 7th St","City":"Colusa","State":"CA","Zip":"95932"},{"Location":"ROCCOS BAR & GRILL","Address":"546 Market St","City":"Colusa","State":"CA","Zip":"95932"},{"Location":"SACRAMENTO RIVER FIRE DEPT","Address":"235 Market St","City":"Colusa","State":"CA","Zip":"95932"},{"Location":"VICTORIA FARMS","Address":"6665 Colusa Maxwell Highway","City":"Colusa","State":"CA","Zip":"95932"}]