[{"Location":"CALIFORNIA HIGHWAY PATROL","Address":"11363 Mccourtney Rd","City":"Grass Valley","State":"CA","Zip":"95949"},{"Location":"DEW DROP INN","Address":"19729 Cerrito Rd","City":"Grass Valley","State":"CA","Zip":"95949"},{"Location":"GENERATIONS HEALTH CLUB","Address":"22824 Industrial Pl","City":"Grass Valley","State":"CA","Zip":"95949"},{"Location":"LES SCHWAB TIRE CENTER","Address":"570 Freeman Ln","City":"Grass Valley","State":"CA","Zip":"95949"},{"Location":"LIBERTY MOTORS","Address":"600 Freeman Ln","City":"Grass Valley","State":"CA","Zip":"95949"},{"Location":"MONSTER GYM","Address":"722 Freeman Ln B","City":"Grass Valley","State":"CA","Zip":"95949"},{"Location":"MOUNTAIN MIKES GRASS VAL","Address":"151 W Mcknight Way","City":"Grass Valley","State":"CA","Zip":"95949"},{"Location":"THE CLIP STOP","Address":"10126 Alta Sierra Dr","City":"Grass Valley","State":"CA","Zip":"95949"},{"Location":"THE MOOSE LODGE 2217","Address":"15694 Allison Ranch Rd","City":"Grass Valley","State":"CA","Zip":"95949"},{"Location":"CALIFORNIA HIGHWAY PATROL","Address":"11363 Mccourtney Rd","City":"Grass Valley","State":"CA","Zip":"95949"},{"Location":"DEW DROP INN","Address":"19729 Cerrito Rd","City":"Grass Valley","State":"CA","Zip":"95949"},{"Location":"GENERATIONS HEALTH CLUB","Address":"22824 Industrial Pl","City":"Grass Valley","State":"CA","Zip":"95949"},{"Location":"LES SCHWAB TIRE CENTER","Address":"570 Freeman Ln","City":"Grass Valley","State":"CA","Zip":"95949"},{"Location":"LIBERTY MOTORS","Address":"600 Freeman Ln","City":"Grass Valley","State":"CA","Zip":"95949"},{"Location":"MONSTER GYM","Address":"722 Freeman Ln B","City":"Grass Valley","State":"CA","Zip":"95949"},{"Location":"MOUNTAIN MIKES GRASS VAL","Address":"151 W Mcknight Way","City":"Grass Valley","State":"CA","Zip":"95949"},{"Location":"THE CLIP STOP","Address":"10126 Alta Sierra Dr","City":"Grass Valley","State":"CA","Zip":"95949"},{"Location":"THE MOOSE LODGE 2217","Address":"15694 Allison Ranch Rd","City":"Grass Valley","State":"CA","Zip":"95949"}]