[{"Location":"MOMS FARMS DUCKCLUB","Address":"2735 North Club Road","City":"Biggs","State":"CA","Zip":"95948"},{"Location":"ABC CHINESE RESTAURANT","Address":"1580 Highway 99","City":"Gridley","State":"CA","Zip":"95948"},{"Location":"CASA LUPE RESTAURANT","Address":"130 Magnolia St","City":"Gridley","State":"CA","Zip":"95948"},{"Location":"DIG VALLEY AG SERVICES","Address":"954 State Highway 99","City":"Gridley","State":"CA","Zip":"95948"},{"Location":"EUAS BARBER SHOP","Address":"1672 Highway 99","City":"Gridley","State":"CA","Zip":"95948"},{"Location":"GRIDLEY HEALTHCARE","Address":"246 Spruce St","City":"Gridley","State":"CA","Zip":"95948"},{"Location":"GRIDLEY MOOSE LODGE 1594","Address":"1533 Highway 99","City":"Gridley","State":"CA","Zip":"95948"},{"Location":"KC BAR","Address":"955 Hazel St","City":"Gridley","State":"CA","Zip":"95948"},{"Location":"Stans Rv Park & Lounge ","Address":"280 Fairview Dr","City":"Gridley","State":"CA","Zip":"95948"},{"Location":"THE BUNGALOW BAR","Address":"101 Virginia St","City":"Gridley","State":"CA","Zip":"95948"},{"Location":"Stained Glass Junction","Address":"1563 State Highway 99","City":"Live Oak","State":"CA","Zip":"95948"}]