[{"Location":"2 IN 1 GRILL","Address":"1041 Sutton Way","City":"Grass Valley","State":"CA","Zip":"95945"},{"Location":"ADVANTAGE AUTOMOTIVE AND","Address":"13383 Colfax Hwy","City":"Grass Valley","State":"CA","Zip":"95945"},{"Location":"BEACH HUT DELI","Address":"522 Sutton Way","City":"Grass Valley","State":"CA","Zip":"95945"},{"Location":"BLOOD   SOURCE","Address":"759 Sutton Way","City":"Grass Valley","State":"CA","Zip":"95945"},{"Location":"BRIAN S RETHERFORD%2CMD","Address":"280 Sierra College Dr 125","City":"Grass Valley","State":"CA","Zip":"95945"},{"Location":"CHRISTOPHERS OLD WORLD DELI","Address":"206 W Main St","City":"Grass Valley","State":"CA","Zip":"95945"},{"Location":"DAVITA #3861 GRASS VALLEY","Address":"360 Crown Point Cir","City":"Grass Valley","State":"CA","Zip":"95945"},{"Location":"EDWARD SHEPHERD ELECTRICAL","Address":"12757 Loma Rica Dr","City":"Grass Valley","State":"CA","Zip":"95945"},{"Location":"GARYS PLACE","Address":"158 Mill St","City":"Grass Valley","State":"CA","Zip":"95945"},{"Location":"GOLD RUN LAUNDROMAT","Address":"1263 E Main St","City":"Grass Valley","State":"CA","Zip":"95945"},{"Location":"GRASS VALLEY UNITED METHODIST","Address":"236 S Church St","City":"Grass Valley","State":"CA","Zip":"95945"},{"Location":"HUMPTY DUMPTY KITCHEN","Address":"1711 E Main St","City":"Grass Valley","State":"CA","Zip":"95945"},{"Location":"J AND K AUTOMOTIVE","Address":"12528 Loma Rica Dr","City":"Grass Valley","State":"CA","Zip":"95945"},{"Location":"LAMPPOST PIZZA","Address":"137 Olympia Park Rd","City":"Grass Valley","State":"CA","Zip":"95945"},{"Location":"LUMBERJACKS RESTARUANT","Address":"12075 Nevada City Hwy","City":"Grass Valley","State":"CA","Zip":"95945"},{"Location":"MARIAS RESTAURANT","Address":"226 E Main St","City":"Grass Valley","State":"CA","Zip":"95945"},{"Location":"MIRANDA TECHNOLOGIES(G.V.D)INC","Address":"125 Crown Point Ct","City":"Grass Valley","State":"CA","Zip":"95945"},{"Location":"OLYMPIC MORTGAGE AND INV CO","Address":"1740 E Main St 102","City":"Grass Valley","State":"CA","Zip":"95945"},{"Location":"OWENS ESTATE AND WEALTH","Address":"426 Sutton Way 110","City":"Grass Valley","State":"CA","Zip":"95945"},{"Location":"ROBERT W BAIRD","Address":"360 Sierra College Dr 200","City":"Grass Valley","State":"CA","Zip":"95945"},{"Location":"ROUND TABLE PIZZA","Address":"686 Sutton Way","City":"Grass Valley","State":"CA","Zip":"95945"},{"Location":"SMILEY GUYS SMOKEHOUSE","Address":"131 Joerschke Dr","City":"Grass Valley","State":"CA","Zip":"95945"},{"Location":"SWARTZ DEISIEL","Address":"13368 Grass Valley Ave","City":"Grass Valley","State":"CA","Zip":"95945"},{"Location":"TJM FOOD SERVICES INC","Address":"988 Plaza Drive Inc","City":"Grass Valley","State":"CA","Zip":"95945"},{"Location":"TOFANELLIS BISTRO","Address":"302 W Main St","City":"Grass Valley","State":"CA","Zip":"95945"},{"Location":"TOWERS CASINO","Address":"115 Bank St","City":"Grass Valley","State":"CA","Zip":"95945"}]