[{"Location":"BROADWAY LOUNGE","Address":"9840 Broadway","City":"Live Oak","State":"CA","Zip":"95953"},{"Location":"DENOVA HOMES","Address":"11719 N Butte Rd","City":"Live Oak","State":"CA","Zip":"95953"},{"Location":"DOWD INTERIORS","Address":"10165 Live Oak Blvd","City":"Live Oak","State":"CA","Zip":"95953"},{"Location":"FIELD AND TULE CLUB","Address":"14556 N Butte Rd","City":"Live Oak","State":"CA","Zip":"95953"},{"Location":"JARREN TRADING COMPANY","Address":"5622 Madden Ave","City":"Live Oak","State":"CA","Zip":"95953"},{"Location":"LA MEXICANA MARKET AND D","Address":"9826 Broadway","City":"Live Oak","State":"CA","Zip":"95953"},{"Location":"LIVE OAK BARBERSHOP","Address":"10231 Live Oak Blvd","City":"Live Oak","State":"CA","Zip":"95953"},{"Location":"MONA DRIVE%2FIN","Address":"9901 Live Oak Blvd","City":"Live Oak","State":"CA","Zip":"95953"},{"Location":"PASQUINIS FINE ITALIAN FOOD","Address":"6241 Highway 99","City":"Live Oak","State":"CA","Zip":"95953"},{"Location":"Taco Azteca","Address":"9731 Live Oak Blvd","City":"Live Oak","State":"CA","Zip":"95953"},{"Location":"THE CHURCH OF GLAD TIDING","Address":"1179 Eager Rd","City":"Live Oak","State":"CA","Zip":"95953"},{"Location":"THE PIZZA PLACE","Address":"9826 Live Oak Blvd","City":"Live Oak","State":"CA","Zip":"95953"}]