[{"Location":"CRAZY HORSE SALOON AND GRILL","Address":"230 Commercial St","City":"Nevada City","State":"CA","Zip":"95959"},{"Location":"HARMONY RIDGE RESORT","Address":"10492 Harmony Ridge Rd","City":"Nevada City","State":"CA","Zip":"95959"},{"Location":"HEALTHY NOW","Address":"569 Searls Ave","City":"Nevada City","State":"CA","Zip":"95959"},{"Location":"JERNIGANS GRILL","Address":"123 Argall Way","City":"Nevada City","State":"CA","Zip":"95959"},{"Location":"LEFTYSRESTAURANTINC","Address":"101 Broad St","City":"Nevada City","State":"CA","Zip":"95959"},{"Location":"NEVADA CITY EATS","Address":"104 Union St","City":"Nevada City","State":"CA","Zip":"95959"},{"Location":"NEVADA COUNTY TRANSITION HOME","Address":"995 Helling Way","City":"Nevada City","State":"CA","Zip":"95959"},{"Location":"NORTHRIDGE OF NEVADA CITY","Address":"773 Nevada Street Ext","City":"Nevada City","State":"CA","Zip":"95959"},{"Location":"ROBINSON ENTERPRISES","Address":"104 Union Aly","City":"Nevada City","State":"CA","Zip":"95959"},{"Location":"S YUBA CLUB","Address":"555 Searls Ave","City":"Nevada City","State":"CA","Zip":"95959"},{"Location":"SOPA THAI CUISINE","Address":"312 Commercial St","City":"Nevada City","State":"CA","Zip":"95959"},{"Location":"TELESTREAM","Address":"848 Gold Flat Rd","City":"Nevada City","State":"CA","Zip":"95959"},{"Location":"THE MINE SHAFT SALOON","Address":"222 Broad St","City":"Nevada City","State":"CA","Zip":"95959"},{"Location":"US FOREST SERVICE","Address":"26533 State Highway 20","City":"Nevada City","State":"CA","Zip":"95959"}]