[{"Location":"CAPAY FARM","Address":"7929 County Road 9","City":"Orland","State":"CA","Zip":"95963"},{"Location":"CAPAYS","Address":"7544 Cutting Ave","City":"Orland","State":"CA","Zip":"95963"},{"Location":"FARWOOD BAR AND GRILL","Address":"705 5th St","City":"Orland","State":"CA","Zip":"95963"},{"Location":"I 5 CAFE","Address":"1165 Hoff Way 101","City":"Orland","State":"CA","Zip":"95963"},{"Location":"PASKENTA BAND NOMLAKI INDIAN","Address":"1022 South St","City":"Orland","State":"CA","Zip":"95963"},{"Location":"QUEST DIANOSTICS","Address":"756 E Walker St","City":"Orland","State":"CA","Zip":"95963"},{"Location":"CAPAY FARM","Address":"7929 County Road 9","City":"Orland","State":"CA","Zip":"95963"},{"Location":"Capays","Address":"7544 Cutting Ave","City":"Orland","State":"CA","Zip":"95963"},{"Location":"FARWOOD BAR AND GRILL","Address":"705 5th St","City":"Orland","State":"CA","Zip":"95963"},{"Location":"I 5 CAFE","Address":"1165 Hoff Way 101","City":"Orland","State":"CA","Zip":"95963"},{"Location":"PASKENTA BAND NOMLAKI INDIAN","Address":"1022 South St","City":"Orland","State":"CA","Zip":"95963"},{"Location":"QUEST DIANOSTICS","Address":"756 E Walker St","City":"Orland","State":"CA","Zip":"95963"}]