[{"Location":"BERRY CREEK RANCHERIA","Address":"5 Tyme Way","City":"Oroville","State":"CA","Zip":"95966"},{"Location":"BIG O TIRE","Address":"3008a Olive Hwy","City":"Oroville","State":"CA","Zip":"95966"},{"Location":"CELLESTINO'S NEW YORK PIZZA","Address":"2588 Olive Hwy A-b","City":"Oroville","State":"CA","Zip":"95966"},{"Location":"COUNRTY CREST","Address":"50 Concordia Ln","City":"Oroville","State":"CA","Zip":"95966"},{"Location":"COUNTRY CREST RETIREMENT","Address":"55 Concordia Ln","City":"Oroville","State":"CA","Zip":"95966"},{"Location":"DANDJ FEED SUPPLY","Address":"1930 Pearl St","City":"Oroville","State":"CA","Zip":"95966"},{"Location":"FEATHER FALLS BREWERY","Address":"3 Alverda Dr","City":"Oroville","State":"CA","Zip":"95966"},{"Location":"FEATHER FALLS CASINO","Address":"3 Alverda Dr","City":"Oroville","State":"CA","Zip":"95966"},{"Location":"GOLD COUNTRY CASINO","Address":"4020 Olive Hwy","City":"Oroville","State":"CA","Zip":"95966"},{"Location":"GOLD COUNTRY CASINO BAR","Address":"4020 Olive Hwy","City":"Oroville","State":"CA","Zip":"95966"},{"Location":"GOLD COUNTY CASINO POKER BLDG","Address":"4020 Olive Hwy","City":"Oroville","State":"CA","Zip":"95966"},{"Location":"GOLD FLAKE ENTERPRISES","Address":"5250 Olive Hwy G","City":"Oroville","State":"CA","Zip":"95966"},{"Location":"KLIEN SERVICES","Address":"6269 Lincoln Blvd","City":"Oroville","State":"CA","Zip":"95966"},{"Location":"MIKES GRANDE BURGER","Address":"2896 Olive Hwy","City":"Oroville","State":"CA","Zip":"95966"},{"Location":"OROVILLE HOSPITAL","Address":"2767 Olive Hwy","City":"Oroville","State":"CA","Zip":"95966"},{"Location":"OROVILLE TACO","Address":"5250 Olive Hwy F","City":"Oroville","State":"CA","Zip":"95966"},{"Location":"QUEST DIAGNOSTICS","Address":"2451 Oro Dam Blvd E","City":"Oroville","State":"CA","Zip":"95966"},{"Location":"SHAKEY'S PIZZA","Address":"2890 Olive Hwy","City":"Oroville","State":"CA","Zip":"95966"},{"Location":"THE FOOTHILL LOUNGE","Address":"3470 Foothill Blvd","City":"Oroville","State":"CA","Zip":"95966"},{"Location":"VAUGHN KEARBEY DDS","Address":"3115 Oro Dam Blvd E 1","City":"Oroville","State":"CA","Zip":"95966"},{"Location":"WYNN MEMORIAL CHURCH","Address":"2508 D St","City":"Oroville","State":"CA","Zip":"95966"},{"Location":"AJ MARKET","Address":"3157 Lincoln St","City":"Oroville","State":"CA","Zip":"95966"},{"Location":"BERRY CREEK RANCHERIA","Address":"5 Tyme Way","City":"Oroville","State":"CA","Zip":"95966"},{"Location":"BIG O TIRE","Address":"3008a Olive Hwy","City":"Oroville","State":"CA","Zip":"95966"},{"Location":"CELLESTINO'S NEW YORK PIZZA","Address":"2588 Olive Hwy A-b","City":"Oroville","State":"CA","Zip":"95966"},{"Location":"COUNRTY CREST","Address":"50 Concordia Ln","City":"Oroville","State":"CA","Zip":"95966"},{"Location":"COUNTRY CREST RETIREMENT","Address":"55 Concordia Ln","City":"Oroville","State":"CA","Zip":"95966"},{"Location":"DANDJ FEED SUPPLY","Address":"1930 Pearl St","City":"Oroville","State":"CA","Zip":"95966"},{"Location":"FEATHER FALLS BREWERY","Address":"3 Alverda Dr","City":"Oroville","State":"CA","Zip":"95966"},{"Location":"FEATHER FALLS CASINO","Address":"3 Alverda Dr","City":"Oroville","State":"CA","Zip":"95966"},{"Location":"GOLD COUNTRY CASINO","Address":"4020 Olive Hwy","City":"Oroville","State":"CA","Zip":"95966"},{"Location":"GOLD COUNTRY CASINO BAR","Address":"4020 Olive Hwy","City":"Oroville","State":"CA","Zip":"95966"},{"Location":"GOLD COUNTY CASINO POKER BLDG","Address":"4020 Olive Hwy","City":"Oroville","State":"CA","Zip":"95966"},{"Location":"GOLD FLAKE ENTERPRISES","Address":"5250 Olive Hwy G","City":"Oroville","State":"CA","Zip":"95966"},{"Location":"KLIEN SERVICES","Address":"6269 Lincoln Blvd","City":"Oroville","State":"CA","Zip":"95966"},{"Location":"MIKES GRANDE BURGER","Address":"2896 Olive Hwy","City":"Oroville","State":"CA","Zip":"95966"},{"Location":"OROVILLE HOSPITAL","Address":"2767 Olive Hwy","City":"Oroville","State":"CA","Zip":"95966"},{"Location":"OROVILLE TACO","Address":"5250 Olive Hwy F","City":"Oroville","State":"CA","Zip":"95966"},{"Location":"QUEST DIAGNOSTICS","Address":"2451 Oro Dam Blvd E","City":"Oroville","State":"CA","Zip":"95966"},{"Location":"SHAKEY'S PIZZA","Address":"2890 Olive Hwy","City":"Oroville","State":"CA","Zip":"95966"},{"Location":"THE FOOTHILL LOUNGE","Address":"3470 Foothill Blvd","City":"Oroville","State":"CA","Zip":"95966"},{"Location":"VAUGHN KEARBEY DDS","Address":"3115 Oro Dam Blvd E 1","City":"Oroville","State":"CA","Zip":"95966"},{"Location":"WYNN MEMORIAL CHURCH","Address":"2508 D St","City":"Oroville","State":"CA","Zip":"95966"}]