[{"Location":"ANNIES COUNTRY CAFE","Address":"5522 Skyway","City":"Paradise","State":"CA","Zip":"95969"},{"Location":"BEYOND FITNESS","Address":"7224 Skyway","City":"Paradise","State":"CA","Zip":"95969"},{"Location":"CANTEENA","Address":"6067 Skyway","City":"Paradise","State":"CA","Zip":"95969"},{"Location":"CELESTINOS PIZZA AND PASTA LLC","Address":"6505 Skyway A","City":"Paradise","State":"CA","Zip":"95969"},{"Location":"COZY DINER PARADISE","Address":"6371 Skyway","City":"Paradise","State":"CA","Zip":"95969"},{"Location":"FIT ONE ATHLETIC CLUB","Address":"6854 Pentz Rd","City":"Paradise","State":"CA","Zip":"95969"},{"Location":"ITALIAN","Address":"6929 Skyway","City":"Paradise","State":"CA","Zip":"95969"},{"Location":"KALICO KITCHEN","Address":"7099 Skyway","City":"Paradise","State":"CA","Zip":"95969"},{"Location":"LAKE OROVILLE MARINA LLC","Address":"3428 Pentz Rd","City":"Paradise","State":"CA","Zip":"95969"},{"Location":"MOUNTAIN MEADOW LODGE","Address":"585 Bille Rd","City":"Paradise","State":"CA","Zip":"95969"},{"Location":"PINE VIEW 1625","Address":"8777 Skyway","City":"Paradise","State":"CA","Zip":"95969"},{"Location":"TOP NAILS SALON","Address":"6616 Clark Rd G","City":"Paradise","State":"CA","Zip":"95969"},{"Location":"TREASURES FROM PARADISE","Address":"6051 Skyway","City":"Paradise","State":"CA","Zip":"95969"},{"Location":"TRI COUNTIES BANK","Address":"6848 Skyway Q","City":"Paradise","State":"CA","Zip":"95969"}]