[{"Location":"AM KING INDUSTRIES","Address":"2875 Feather River Blvd","City":"Oroville","State":"CA","Zip":"95965"},{"Location":"ANYTIME FITNESS","Address":"1124 Oro Dam Blvd E H","City":"Oroville","State":"CA","Zip":"95965"},{"Location":"BLUEBERRY TWIST REST","Address":"491 Oro Dam Blvd E","City":"Oroville","State":"CA","Zip":"95965"},{"Location":"BUTTE OROVILLE VET HOSPITAL","Address":"751 Oro Dam Blvd E","City":"Oroville","State":"CA","Zip":"95965"},{"Location":"CALIFORNIA WATER SERVICE","Address":"1905 High St","City":"Oroville","State":"CA","Zip":"95965"},{"Location":"CASA  VIEJA","Address":"1560 Huntoon St","City":"Oroville","State":"CA","Zip":"95965"},{"Location":"CORNUCOPIA","Address":"515 Montgomery St","City":"Oroville","State":"CA","Zip":"95965"},{"Location":"DIVERSIFIED PRODUCTS MANU","Address":"5523 Baggett Marysville Rd","City":"Oroville","State":"CA","Zip":"95965"},{"Location":"GOLD CITY GRILL","Address":"935 Orodam Blvd","City":"Oroville","State":"CA","Zip":"95965"},{"Location":"LASER MAN INC","Address":"55 Richvale Hwy","City":"Oroville","State":"CA","Zip":"95965"},{"Location":"NAIL TECH INC","Address":"1096 Oro Dam Blvd E D","City":"Oroville","State":"CA","Zip":"95965"},{"Location":"ORODAM AUTO CENTER","Address":"1250 Oro Dam Blvd E","City":"Oroville","State":"CA","Zip":"95965"},{"Location":"OROVILLE AERIE 196","Address":"2010 Montgomery St","City":"Oroville","State":"CA","Zip":"95965"},{"Location":"OROVILLE FORD AND LINCOL","Address":"1726 Montgomery St","City":"Oroville","State":"CA","Zip":"95965"},{"Location":"OROVILLE OUTDOORS","Address":"1930 Feather River Blvd","City":"Oroville","State":"CA","Zip":"95965"},{"Location":"PACIFIC GAS AND ELECTRIC","Address":"9560 Highway 70","City":"Oroville","State":"CA","Zip":"95965"},{"Location":"PACIFIC GAS AND ELETRIC","Address":"2226 Veatch St","City":"Oroville","State":"CA","Zip":"95965"},{"Location":"PACWIND INC","Address":"395 Oro Dam Blvd E","City":"Oroville","State":"CA","Zip":"95965"},{"Location":"PIZZA HUT - OROVILLE","Address":"451 Oro Dam Blvd E","City":"Oroville","State":"CA","Zip":"95965"},{"Location":"ROUND TABLE PIZZA","Address":"1124 Oro Dam Blvd E E","City":"Oroville","State":"CA","Zip":"95965"},{"Location":"THE WAFFLE SHOP","Address":"2107 Feather River Blvd","City":"Oroville","State":"CA","Zip":"95965"},{"Location":"TRI COUNTIES BANK","Address":"1180 Oro Dam Blvd","City":"Oroville","State":"CA","Zip":"95965"},{"Location":"AM KING INDUSTRIES","Address":"2875 Feather River Blvd","City":"Oroville","State":"CA","Zip":"95965"},{"Location":"ANYTIME FITNESS","Address":"1124 Oro Dam Blvd E H","City":"Oroville","State":"CA","Zip":"95965"},{"Location":"BLUEBERRY TWIST REST","Address":"491 Oro Dam Blvd E","City":"Oroville","State":"CA","Zip":"95965"},{"Location":"BUTTE OROVILLE VET HOSPITAL","Address":"751 Oro Dam Blvd E","City":"Oroville","State":"CA","Zip":"95965"},{"Location":"CALIFORNIA WATER SERVICE","Address":"1905 High St","City":"Oroville","State":"CA","Zip":"95965"},{"Location":"CASA  VIEJA","Address":"1560 Huntoon St","City":"Oroville","State":"CA","Zip":"95965"},{"Location":"CORNUCOPIA","Address":"515 Montgomery St","City":"Oroville","State":"CA","Zip":"95965"},{"Location":"DIVERSIFIED PRODUCTS MANU","Address":"5523 Baggett Marysville Rd","City":"Oroville","State":"CA","Zip":"95965"},{"Location":"GOLD CITY GRILL","Address":"935 Orodam Blvd","City":"Oroville","State":"CA","Zip":"95965"},{"Location":"LASER MAN INC","Address":"55 Richvale Hwy","City":"Oroville","State":"CA","Zip":"95965"},{"Location":"NAIL TECH INC","Address":"1096 Oro Dam Blvd E D","City":"Oroville","State":"CA","Zip":"95965"},{"Location":"ORODAM AUTO CENTER","Address":"1250 Oro Dam Blvd E","City":"Oroville","State":"CA","Zip":"95965"},{"Location":"OROVILLE AERIE 196","Address":"2010 Montgomery St","City":"Oroville","State":"CA","Zip":"95965"},{"Location":"OROVILLE FORD AND LINCOL","Address":"1726 Montgomery St","City":"Oroville","State":"CA","Zip":"95965"},{"Location":"OROVILLE OUTDOORS","Address":"1930 Feather River Blvd","City":"Oroville","State":"CA","Zip":"95965"},{"Location":"PACIFIC GAS AND ELECTRIC","Address":"9560 Highway 70","City":"Oroville","State":"CA","Zip":"95965"},{"Location":"PACIFIC GAS AND ELETRIC","Address":"2226 Veatch St","City":"Oroville","State":"CA","Zip":"95965"},{"Location":"PACWIND INC","Address":"395 Oro Dam Blvd E","City":"Oroville","State":"CA","Zip":"95965"},{"Location":"PIZZA HUT - OROVILLE","Address":"451 Oro Dam Blvd E","City":"Oroville","State":"CA","Zip":"95965"},{"Location":"ROUND TABLE PIZZA","Address":"1124 Oro Dam Blvd E E","City":"Oroville","State":"CA","Zip":"95965"},{"Location":"THE WAFFLE SHOP","Address":"2107 Feather River Blvd","City":"Oroville","State":"CA","Zip":"95965"},{"Location":"TRI COUNTIES BANK","Address":"1180 Oro Dam Blvd","City":"Oroville","State":"CA","Zip":"95965"}]