[{"Location":"AVAIL","Address":"2555 Ceanothus Ave","City":"Chico","State":"CA","Zip":"95973"},{"Location":"BALI SPA","Address":"2619 Esplanade","City":"Chico","State":"CA","Zip":"95973"},{"Location":"BIDWELL PARK GOLF CLUB","Address":"3199 Golf Course Rd","City":"Chico","State":"CA","Zip":"95973"},{"Location":"CARRIAGE COMPANY","Address":"13670 Anderson Brothers Dr","City":"Chico","State":"CA","Zip":"95973"},{"Location":"FERGUSON #0680","Address":"171 Commercial Ave","City":"Chico","State":"CA","Zip":"95973"},{"Location":"FMC 71020000","Address":"3011 Ceres Ave","City":"Chico","State":"CA","Zip":"95973"},{"Location":"M & C TRUCKING","Address":"13260 Whitchurch Ln","City":"Chico","State":"CA","Zip":"95973"},{"Location":"MOONEY FARMS","Address":"1220 Fortress St","City":"Chico","State":"CA","Zip":"95973"},{"Location":"SANITORIAL JANITORIAL","Address":"1518 E Lassen Ave","City":"Chico","State":"CA","Zip":"95973"},{"Location":"SANITORIAL JANITORIAL INC","Address":"3199 Plummers Dr 20","City":"Chico","State":"CA","Zip":"95973"},{"Location":"Scotty's Boat Landing","Address":"12609 River Road","City":"Chico","State":"CA","Zip":"95973"},{"Location":"SHENANIGANS 1","Address":"3312 Esplanade","City":"Chico","State":"CA","Zip":"95973"},{"Location":"THE COUNTRY VILLAGE","Address":"962 Kovak Ct","City":"Chico","State":"CA","Zip":"95973"},{"Location":"TORTILLA FLATS","Address":"2601 Esplanade","City":"Chico","State":"CA","Zip":"95973"},{"Location":"TRANSFER FLOW INC","Address":"1444 Fortress St","City":"Chico","State":"CA","Zip":"95973"},{"Location":"TRI COUNTIES BANK","Address":"890 Fortress St","City":"Chico","State":"CA","Zip":"95973"}]