[{"Location":"JEREMY KROEKER","Address":"5171 Stonyford Elk Creek Rd 6","City":"Stonyford","State":"CA","Zip":"95979"},{"Location":"MENDOCINO NATIONAL","Address":"5171 Stonyford Elk Creek Rd 1","City":"Stonyford","State":"CA","Zip":"95979"},{"Location":"MENDODION NATIONAL","Address":"5771 Stonyford Elk Creek Rd 4","City":"Stonyford","State":"CA","Zip":"95979"},{"Location":"MENDODION NATIONAL","Address":"5771 Stonyford Elk Creek Rd 5","City":"Stonyford","State":"CA","Zip":"95979"},{"Location":"MENDODION NATIONAL","Address":"5771 Stonyford Elk Creek Rd 2","City":"Stonyford","State":"CA","Zip":"95979"},{"Location":"MENDODION NATIONAL","Address":"5771 Stonyford Elk Creek Rd 3","City":"Stonyford","State":"CA","Zip":"95979"},{"Location":"JEREMY KROEKER","Address":"5171 Stonyford Elk Creek Rd 6","City":"Stonyford","State":"CA","Zip":"95979"},{"Location":"MENDOCINO NATIONAL","Address":"5171 Stonyford Elk Creek Rd 1","City":"Stonyford","State":"CA","Zip":"95979"},{"Location":"MENDODION NATIONAL","Address":"5771 Stonyford Elk Creek Rd 3","City":"Stonyford","State":"CA","Zip":"95979"},{"Location":"MENDODION NATIONAL","Address":"5771 Stonyford Elk Creek Rd 5","City":"Stonyford","State":"CA","Zip":"95979"},{"Location":"MENDODION NATIONAL","Address":"5771 Stonyford Elk Creek Rd 2","City":"Stonyford","State":"CA","Zip":"95979"},{"Location":"MENDODION NATIONAL","Address":"5771 Stonyford Elk Creek Rd 4","City":"Stonyford","State":"CA","Zip":"95979"}]