[{"Location":"FEATHER RIVER FITNESS","Address":"336 Crescent St","City":"Quincy","State":"CA","Zip":"95971"},{"Location":"GREENHORN CATTLE RANCH","Address":"1902 Forest Knoll Road","City":"Quincy","State":"CA","Zip":"95971"},{"Location":"KAREN POWELL","Address":"395 Main St","City":"Quincy","State":"CA","Zip":"95971"},{"Location":"LAKE SHORE RESORT","Address":"16001 Bucks Lake Rd","City":"Quincy","State":"CA","Zip":"95971"},{"Location":"MAIN STREET SPORTS BAR","Address":"395 Main St","City":"Quincy","State":"CA","Zip":"95971"},{"Location":"PARIDISE GRILL","Address":"90 E Main St","City":"Quincy","State":"CA","Zip":"95971"},{"Location":"PGE","Address":"435 Main St","City":"Quincy","State":"CA","Zip":"95971"},{"Location":"PLUMAS CLUB","Address":"443 Main St","City":"Quincy","State":"CA","Zip":"95971"},{"Location":"QUINCY ELKS LODGE","Address":"2004 E Main St","City":"Quincy","State":"CA","Zip":"95971"},{"Location":"QUINCY GARDEN RESIDENCE","Address":"20 E Central Ave","City":"Quincy","State":"CA","Zip":"95971"},{"Location":"QUINCY NURSING REHAB CENTER","Address":"50 E Central Ave","City":"Quincy","State":"CA","Zip":"95971"},{"Location":"ROUND TABLE PIZZA","Address":"60 E Main St","City":"Quincy","State":"CA","Zip":"95971"},{"Location":"STARQUALITY SKINCARESALON","Address":"70 E Main St","City":"Quincy","State":"CA","Zip":"95971"},{"Location":"FEATHER RIVER FITNESS","Address":"336 Crescent St","City":"Quincy","State":"CA","Zip":"95971"},{"Location":"GREENHORN CATTLE RANCH","Address":"1902 Forest Knoll Road","City":"Quincy","State":"CA","Zip":"95971"},{"Location":"KAREN POWELL","Address":"395 Main St","City":"Quincy","State":"CA","Zip":"95971"},{"Location":"LAKE SHORE RESORT","Address":"16001 Bucks Lake Rd","City":"Quincy","State":"CA","Zip":"95971"},{"Location":"MAIN STREET SPORTS BAR","Address":"395 Main St","City":"Quincy","State":"CA","Zip":"95971"},{"Location":"PARIDISE GRILL","Address":"90 E Main St","City":"Quincy","State":"CA","Zip":"95971"},{"Location":"PGE","Address":"435 Main St","City":"Quincy","State":"CA","Zip":"95971"},{"Location":"PLUMAS CLUB","Address":"443 Main St","City":"Quincy","State":"CA","Zip":"95971"},{"Location":"QUINCY ELKS LODGE","Address":"2004 E Main St","City":"Quincy","State":"CA","Zip":"95971"},{"Location":"QUINCY GARDEN RESIDENCE","Address":"20 E Central Ave","City":"Quincy","State":"CA","Zip":"95971"},{"Location":"QUINCY NURSING REHAB CENTER","Address":"50 E Central Ave","City":"Quincy","State":"CA","Zip":"95971"},{"Location":"ROUND TABLE PIZZA","Address":"60 E Main St","City":"Quincy","State":"CA","Zip":"95971"},{"Location":"STARQUALITY SKINCARESALON","Address":"70 E Main St","City":"Quincy","State":"CA","Zip":"95971"}]