[{"Location":"ANHEUSER-BUSCH WHLSLR #80498","Address":"110 County Road 53","City":"Willows","State":"CA","Zip":"95988"},{"Location":"BLACK BEAR DINER","Address":"246 N Humboldt Ave","City":"Willows","State":"CA","Zip":"95988"},{"Location":"CALIFORNIA HIGHWAY P","Address":"464 N Humboldt Ave","City":"Willows","State":"CA","Zip":"95988"},{"Location":"DENNIS S THODAS DDS","Address":"302 W Walnut St","City":"Willows","State":"CA","Zip":"95988"},{"Location":"ELKS 1786","Address":"150 S Shasta St","City":"Willows","State":"CA","Zip":"95988"},{"Location":"GLENN GOLF  COUNTRY CLUB","Address":"6226 County Road 39","City":"Willows","State":"CA","Zip":"95988"},{"Location":"HURLBURT RANCH","Address":"6213 County Road 53","City":"Willows","State":"CA","Zip":"95988"},{"Location":"NANCYS AIRPORT CAFE","Address":"353 County Road G","City":"Willows","State":"CA","Zip":"95988"},{"Location":"PACIFIC GAS AND ELECTRIC","Address":"631 N Colusa St","City":"Willows","State":"CA","Zip":"95988"},{"Location":"PACIFIC GAS AND ELECTRIC CO","Address":"249 N Yolo St","City":"Willows","State":"CA","Zip":"95988"},{"Location":"ROUND TABLE PIZZA","Address":"1237 W Wood St","City":"Willows","State":"CA","Zip":"95988"},{"Location":"THE LONG WAY HOME SALOON","Address":"222 W Walnut St","City":"Willows","State":"CA","Zip":"95988"},{"Location":"WHITE PALACE BARBERSHOP","Address":"407 S Tehama St","City":"Willows","State":"CA","Zip":"95988"},{"Location":"WILLOWS CARE CENTER","Address":"320 N Crawford St","City":"Willows","State":"CA","Zip":"95988"},{"Location":"WILLOWS RICE DRYER","Address":"400 S Tehama St","City":"Willows","State":"CA","Zip":"95988"}]