[{"Location":"ALADDIN BB DEPT 821","Address":"740 Colusa Ave","City":"Yuba City","State":"CA","Zip":"95991"},{"Location":"ALL RITE RV","Address":"55 Wilbur Ave","City":"Yuba City","State":"CA","Zip":"95991"},{"Location":"ARA YUBA SUTTER DIALYSIS","Address":"2115 E Onstott Rd","City":"Yuba City","State":"CA","Zip":"95991"},{"Location":"BUTTES PIPE AND SUPPLY","Address":"425 Epley Dr","City":"Yuba City","State":"CA","Zip":"95991"},{"Location":"CAFE OLIVETTI","Address":"628 Plumas St","City":"Yuba City","State":"CA","Zip":"95991"},{"Location":"CELLAR & SUDZ","Address":"664 Plumas St","City":"Yuba City","State":"CA","Zip":"95991"},{"Location":"DHILLONS PIZZA","Address":"706 W Onstott Frontage Rd","City":"Yuba City","State":"CA","Zip":"95991"},{"Location":"FAIRGROUND LANDROMAT","Address":"118b Garden Hwy","City":"Yuba City","State":"CA","Zip":"95991"},{"Location":"FUTURE FITNESS","Address":"729 Wilwick Way","City":"Yuba City","State":"CA","Zip":"95991"},{"Location":"GALAXY NAIL SPA","Address":"971 Gray Ave 7","City":"Yuba City","State":"CA","Zip":"95991"},{"Location":"GINA NAILS","Address":"1222 Colusa Ave C","City":"Yuba City","State":"CA","Zip":"95991"},{"Location":"HAPPY TIME BAR AND RESTAURANT","Address":"3971 Railroad Ave","City":"Yuba City","State":"CA","Zip":"95991"},{"Location":"HEAD MECHANICS BARBERSHOP","Address":"940 Colusa Ave C","City":"Yuba City","State":"CA","Zip":"95991"},{"Location":"JIM BOYS TACOS","Address":"920 Colusa Ave D","City":"Yuba City","State":"CA","Zip":"95991"},{"Location":"LA MEXICANA MARKET","Address":"311 Garden Hwy","City":"Yuba City","State":"CA","Zip":"95991"},{"Location":"LAUNDRY TIME","Address":"1272 Colusa Ave","City":"Yuba City","State":"CA","Zip":"95991"},{"Location":"LUMBERJACKS RESTAURANT 1025","Address":"1025 Colusa Ave","City":"Yuba City","State":"CA","Zip":"95991"},{"Location":"MAGIC NAIL SPA","Address":"708 W Orange Onstott  #d","City":"Yuba City","State":"CA","Zip":"95991"},{"Location":"MID TOWN GRILL","Address":"747 Colusa Ave","City":"Yuba City","State":"CA","Zip":"95991"},{"Location":"NORCAL AMBULANCE","Address":"1258 Hassett Ave 10","City":"Yuba City","State":"CA","Zip":"95991"},{"Location":"NORCAL TROPHIES 2","Address":"2086 Live Oak Blvd B","City":"Yuba City","State":"CA","Zip":"95991"},{"Location":"NORTH VALLEY DIESEL","Address":"2800 Live Oak Blvd","City":"Yuba City","State":"CA","Zip":"95991"},{"Location":"NU GENERATION LANES","Address":"876 W Onstott Frontage Rd","City":"Yuba City","State":"CA","Zip":"95991"},{"Location":"NU GENERATIONS LANES","Address":"876 W Onstott Frontage Rd","City":"Yuba City","State":"CA","Zip":"95991"},{"Location":"PAC PIZZA 27885","Address":"920 Colusa Ave A","City":"Yuba City","State":"CA","Zip":"95991"},{"Location":"PACIFIC GLASS SERVICE INC E","Address":"806 Forbes Ave","City":"Yuba City","State":"CA","Zip":"95991"},{"Location":"QUEST DIAGNOSTICS","Address":"866 Plumas St","City":"Yuba City","State":"CA","Zip":"95991"},{"Location":"QUEST DIAGNOSTICS 3","Address":"539 Garden Hwy E","City":"Yuba City","State":"CA","Zip":"95991"},{"Location":"RED ROBIN #78","Address":"1208 Colusa Ave","City":"Yuba City","State":"CA","Zip":"95991"},{"Location":"SOPA THAI CUISINE","Address":"720 Plumas St","City":"Yuba City","State":"CA","Zip":"95991"},{"Location":"THE BLUE CUBE","Address":"570 N Palora Ave","City":"Yuba City","State":"CA","Zip":"95991"},{"Location":"THE CORNER BAR","Address":"215 Fairman St","City":"Yuba City","State":"CA","Zip":"95991"},{"Location":"THE HAPPY VIKING","Address":"741 Plumas St","City":"Yuba City","State":"CA","Zip":"95991"},{"Location":"TWIN CITIES AVIATION","Address":"94 2nd St","City":"Yuba City","State":"CA","Zip":"95991"}]