[{"Location":"ALEHOUSE PUB","Address":"2181 Hilltop Dr","City":"Redding","State":"CA","Zip":"96002"},{"Location":"ALL STARS SPORTS BAR","Address":"200 Hartnell Ave A","City":"Redding","State":"CA","Zip":"96002"},{"Location":"BLEACHERS SPORTS BAR & GRILL","Address":"2167 Hilltop Dr A","City":"Redding","State":"CA","Zip":"96002"},{"Location":"BLUE SHIELD OF CALIFORNIA","Address":"4700 Bechelli Ln","City":"Redding","State":"CA","Zip":"96002"},{"Location":"BRICKS ROADHOUSE BAR","Address":"1800 Churn Creek Rd","City":"Redding","State":"CA","Zip":"96002"},{"Location":"C.R. GIBBS","Address":"2300 Hilltop Dr","City":"Redding","State":"CA","Zip":"96002"},{"Location":"CAL FIRE #1","Address":"6105 Airport Rd","City":"Redding","State":"CA","Zip":"96002"},{"Location":"CAL FIRE #2","Address":"6105 Airport Rd","City":"Redding","State":"CA","Zip":"96002"},{"Location":"CASTLE LOUNGE","Address":"1647 Hartnell Ave 19","City":"Redding","State":"CA","Zip":"96002"},{"Location":"CATTLEMENS REDDING","Address":"2184 Hilltop Dr","City":"Redding","State":"CA","Zip":"96002"},{"Location":"COUNTRY CLUB MANNER","Address":"775 Elcedro Ave","City":"Redding","State":"CA","Zip":"96002"},{"Location":"FIELDS JEWELERS","Address":"1738 Churn Creek Rd","City":"Redding","State":"CA","Zip":"96002"},{"Location":"GRAND BUFFET","Address":"2650 Hilltop Dr","City":"Redding","State":"CA","Zip":"96002"},{"Location":"HILTON WORLDWIDE REDDING","Address":"5050 Bechelli Ln","City":"Redding","State":"CA","Zip":"96002"},{"Location":"HOMELAND SECURITY","Address":"443 Redcliff Dr","City":"Redding","State":"CA","Zip":"96002"},{"Location":"JADE GARDEN RESTAURANT","Address":"2257 Hilltop Dr","City":"Redding","State":"CA","Zip":"96002"},{"Location":"JEFFS CALIFORNIA CATTLE","Address":"400 E Cypress Ave","City":"Redding","State":"CA","Zip":"96002"},{"Location":"LUMBERJACKS","Address":"501 E Cypress Ave","City":"Redding","State":"CA","Zip":"96002"},{"Location":"MCDONALDS REDDING","Address":"801 E Cypress Ave","City":"Redding","State":"CA","Zip":"96002"},{"Location":"MERRILL LYNCH","Address":"292 Hemsted Dr","City":"Redding","State":"CA","Zip":"96002"},{"Location":"MIDAS","Address":"445 E Cypress Ave","City":"Redding","State":"CA","Zip":"96002"},{"Location":"MORGAN STANLEY 100155","Address":"310 Hemsted Dr","City":"Redding","State":"CA","Zip":"96002"},{"Location":"OLD WORLD SMOKEHOUSE","Address":"1244 Hartnell Ave","City":"Redding","State":"CA","Zip":"96002"},{"Location":"PETROLEUM HELICOPTERS INC","Address":"5900 Old Oregon Trl","City":"Redding","State":"CA","Zip":"96002"},{"Location":"PIZZA HUT-REDDING","Address":"2055 Hilltop Dr","City":"Redding","State":"CA","Zip":"96002"},{"Location":"PLATINUM AUTO GLASS","Address":"2820 Bechelli Ln","City":"Redding","State":"CA","Zip":"96002"},{"Location":"QUALITY INN RESTAURANT","Address":"2059 Hilltop Dr","City":"Redding","State":"CA","Zip":"96002"},{"Location":"REDDING BANK OF COMMERCE","Address":"1901 Churn Creek Rd","City":"Redding","State":"CA","Zip":"96002"},{"Location":"ROUND TABLE PIZZA #77","Address":"121 Hartnell Ave","City":"Redding","State":"CA","Zip":"96002"},{"Location":"TCA 057 REDDING","Address":"19483 Knighton Rd","City":"Redding","State":"CA","Zip":"96002"},{"Location":"THE CHICKEN SHACK","Address":"2586 Churn Creek Rd","City":"Redding","State":"CA","Zip":"96002"},{"Location":"TOWNEPLACE SUITES","Address":"2180 Larkspur Ln","City":"Redding","State":"CA","Zip":"96002"},{"Location":"TREETOP FLYER LLC","Address":"6831 Airway Ave","City":"Redding","State":"CA","Zip":"96002"},{"Location":"TSA REDDING MUNICIPAL AIRPORT","Address":"6751 Woodrum Cir","City":"Redding","State":"CA","Zip":"96002"},{"Location":"YANA SUSHI RESTAURANT","Address":"40 Hartnell Ave","City":"Redding","State":"CA","Zip":"96002"}]