[{"Location":"ALLSTAR SPORTS BAR","Address":"2659 Balls Ferry Rd","City":"Anderson","State":"CA","Zip":"96007"},{"Location":"ANDERSON BOWL","Address":"1701 Bruce Dr","City":"Anderson","State":"CA","Zip":"96007"},{"Location":"BATTLE CREEK SENIOR APT","Address":"2600 Red Bud Ln","City":"Anderson","State":"CA","Zip":"96007"},{"Location":"COLBURN BUSINESS MYMNT INC","Address":"2905 E Center St","City":"Anderson","State":"CA","Zip":"96007"},{"Location":"ECONOMY RADIATOR TIRE &","Address":"19841 Hirsch Ct","City":"Anderson","State":"CA","Zip":"96007"},{"Location":"FAMILY CENTER MOOSE","Address":"1597 South St","City":"Anderson","State":"CA","Zip":"96007"},{"Location":"HOT CUTS REDDING","Address":"2629 Balls Ferry Rd","City":"Anderson","State":"CA","Zip":"96007"},{"Location":"LES SCHAWB","Address":"2630 Balls Ferry Rd","City":"Anderson","State":"CA","Zip":"96007"},{"Location":"MARYS PIZZA SHACK","Address":"1901 Hwy 273","City":"Anderson","State":"CA","Zip":"96007"},{"Location":"NORCAL KENWORTH","Address":"20769 Industry Rd","City":"Anderson","State":"CA","Zip":"96007"},{"Location":"PLAYERS PIZZA & SPORTS","Address":"2305 Balls Ferry Rd","City":"Anderson","State":"CA","Zip":"96007"},{"Location":"ROUND TABLE PIZZA #140","Address":"2808 Mcmurray Dr","City":"Anderson","State":"CA","Zip":"96007"},{"Location":"SHASTA PIZZA COMPANY","Address":"5219 Happy Valley Rd","City":"Anderson","State":"CA","Zip":"96007"}]