[{"Location":"A TO Z NAILS","Address":"131 Lake Blvd #173","City":"Redding","State":"CA","Zip":"96003"},{"Location":"ANHEUSER-BUSCH WHLSLR #80453","Address":"1530 Beltline Rd","City":"Redding","State":"CA","Zip":"96003"},{"Location":"BETHEL CHURCH","Address":"933 College View Dr","City":"Redding","State":"CA","Zip":"96003"},{"Location":"BROX BARBER","Address":"901 Lake Blvd #a","City":"Redding","State":"CA","Zip":"96003"},{"Location":"BULLDOG SCRAP METAL","Address":"20010 Viking Way B","City":"Redding","State":"CA","Zip":"96003"},{"Location":"CALIFORNIA HIGWAY PATROL","Address":"2503 Cascade Blvd","City":"Redding","State":"CA","Zip":"96003"},{"Location":"DICK'S SPORTING GOODS #1047","Address":"875 Browning St","City":"Redding","State":"CA","Zip":"96003"},{"Location":"ELKS LODGE","Address":"250 Elk Dr","City":"Redding","State":"CA","Zip":"96003"},{"Location":"FAMOUS DAVE'S REDDING","Address":"815 Browning St","City":"Redding","State":"CA","Zip":"96003"},{"Location":"FITNESS 19","Address":"76 Lake Blvd","City":"Redding","State":"CA","Zip":"96003"},{"Location":"HANSENS MOVING INC","Address":"4582 Mountain Lakes Blvd","City":"Redding","State":"CA","Zip":"96003"},{"Location":"JACK IN THE BOX","Address":"1045 Dana Dr","City":"Redding","State":"CA","Zip":"96003"},{"Location":"KOHL'S #1069","Address":"895 Browning St","City":"Redding","State":"CA","Zip":"96003"},{"Location":"LAKE LIQUOR AND SPORTING GOODS","Address":"1345 Lake Blvd","City":"Redding","State":"CA","Zip":"96003"},{"Location":"LAVENDER HILLS ASSISTED","Address":"1720 Collyer Dr","City":"Redding","State":"CA","Zip":"96003"},{"Location":"LES SCHWAB TIRE CENTER","Address":"1201 Hilltop Dr","City":"Redding","State":"CA","Zip":"96003"},{"Location":"MACYS 411","Address":"1291 Hilltop Dr 411","City":"Redding","State":"CA","Zip":"96003"},{"Location":"MEN'S WEARHOUSE #2295","Address":"905 Dana Dr 1d","City":"Redding","State":"CA","Zip":"96003"},{"Location":"MOUNTAIN VIEW LAUNDROMAT","Address":"1072 Lake Blvd I","City":"Redding","State":"CA","Zip":"96003"},{"Location":"OASIS RENTALS","Address":"2415 Cascade Blvd","City":"Redding","State":"CA","Zip":"96003"},{"Location":"OLDE WEST GUN & LOAN","Address":"568 N Market St","City":"Redding","State":"CA","Zip":"96003"},{"Location":"OUTBACK STEAKHOUSE #0522","Address":"910 Dana Dr","City":"Redding","State":"CA","Zip":"96003"},{"Location":"PACIFIC GAS AND ELECTRIC","Address":"3085 Crossroads Dr","City":"Redding","State":"CA","Zip":"96003"},{"Location":"PRO NAILS","Address":"1340 Churn Creek Rd","City":"Redding","State":"CA","Zip":"96003"},{"Location":"PUCKET RESIDENTIAL SERVICES","Address":"645 Springer Dr","City":"Redding","State":"CA","Zip":"96003"},{"Location":"PUCKET RESIDENTIAL SERVICES1","Address":"2154 Osprey Ln","City":"Redding","State":"CA","Zip":"96003"},{"Location":"RED LOBSTER #0555","Address":"1345 Dana Dr","City":"Redding","State":"CA","Zip":"96003"},{"Location":"RED ROBIN #70","Address":"1035 Dana Dr","City":"Redding","State":"CA","Zip":"96003"},{"Location":"ROUND TABLE PIZZA","Address":"900 Dana Dr A61","City":"Redding","State":"CA","Zip":"96003"},{"Location":"ROUND TABLE PIZZA #662","Address":"70 Lake Blvd","City":"Redding","State":"CA","Zip":"96003"},{"Location":"SCOTTRADE 54L","Address":"961 Dana Dr 140","City":"Redding","State":"CA","Zip":"96003"},{"Location":"SFE FIRE PROTECTION INC","Address":"3092 Crossroads Dr 1","City":"Redding","State":"CA","Zip":"96003"},{"Location":"SILVERTHORN RESORT","Address":"16250 Silverthorn Rd","City":"Redding","State":"CA","Zip":"96003"},{"Location":"SIMPSON UNIVERSITY","Address":"2211 College View Dr","City":"Redding","State":"CA","Zip":"96003"},{"Location":"SPORTS AUTHORITY 659","Address":"1347 Chum Creek Rd","City":"Redding","State":"CA","Zip":"96003"},{"Location":"STOUT CONSTRUCTION","Address":"2925 Innsbruck Dr A","City":"Redding","State":"CA","Zip":"96003"},{"Location":"TARGET STORES","Address":"1280 Dana Dr","City":"Redding","State":"CA","Zip":"96003"},{"Location":"THE RUSTY NAIL","Address":"900 Dana Dr 26","City":"Redding","State":"CA","Zip":"96003"},{"Location":"TREE HOUSE SENIOR APTS","Address":"4500 Alder St","City":"Redding","State":"CA","Zip":"96003"},{"Location":"VALLEY INDUSTRIAL COMMUNICATIO","Address":"5040 Caterpillar Rd","City":"Redding","State":"CA","Zip":"96003"},{"Location":"WESTERN TRUCK PARTS","Address":"1800 Twin View Blvd","City":"Redding","State":"CA","Zip":"96003"},{"Location":"A TO Z NAILS","Address":"131 Lake Blvd #173","City":"Redding","State":"CA","Zip":"96003"},{"Location":"ANHEUSER-BUSCH WHLSLR #80453","Address":"1530 Beltline Rd","City":"Redding","State":"CA","Zip":"96003"},{"Location":"BETHEL CHURCH","Address":"933 College View Dr","City":"Redding","State":"CA","Zip":"96003"},{"Location":"BROX BARBER","Address":"901 Lake Blvd #a","City":"Redding","State":"CA","Zip":"96003"},{"Location":"BULLDOG SCRAP METAL","Address":"20010 Viking Way B","City":"Redding","State":"CA","Zip":"96003"},{"Location":"CALIFORNIA HIGWAY PATROL","Address":"2503 Cascade Blvd","City":"Redding","State":"CA","Zip":"96003"},{"Location":"DICK'S SPORTING GOODS #1047","Address":"875 Browning St","City":"Redding","State":"CA","Zip":"96003"},{"Location":"ELKS LODGE","Address":"250 Elk Dr","City":"Redding","State":"CA","Zip":"96003"},{"Location":"FAMOUS DAVE'S REDDING","Address":"815 Browning St","City":"Redding","State":"CA","Zip":"96003"},{"Location":"FITNESS 19","Address":"76 Lake Blvd","City":"Redding","State":"CA","Zip":"96003"},{"Location":"HANSENS MOVING INC","Address":"4582 Mountain Lakes Blvd","City":"Redding","State":"CA","Zip":"96003"},{"Location":"JACK IN THE BOX","Address":"1045 Dana Dr","City":"Redding","State":"CA","Zip":"96003"},{"Location":"KOHL'S #1069","Address":"895 Browning St","City":"Redding","State":"CA","Zip":"96003"},{"Location":"LAKE LIQUOR AND SPORTING GOODS","Address":"1345 Lake Blvd","City":"Redding","State":"CA","Zip":"96003"},{"Location":"LAVENDER HILLS ASSISTED","Address":"1720 Collyer Dr","City":"Redding","State":"CA","Zip":"96003"},{"Location":"LES SCHWAB TIRE CENTER","Address":"1201 Hilltop Dr","City":"Redding","State":"CA","Zip":"96003"},{"Location":"MACYS 411","Address":"1291 Hilltop Dr 411","City":"Redding","State":"CA","Zip":"96003"},{"Location":"MEN'S WEARHOUSE #2295","Address":"905 Dana Dr 1d","City":"Redding","State":"CA","Zip":"96003"},{"Location":"MOUNTAIN VIEW LAUNDROMAT","Address":"1072 Lake Blvd I","City":"Redding","State":"CA","Zip":"96003"},{"Location":"OASIS RENTALS","Address":"2415 Cascade Blvd","City":"Redding","State":"CA","Zip":"96003"},{"Location":"OLDE WEST GUN & LOAN","Address":"568 N Market St","City":"Redding","State":"CA","Zip":"96003"},{"Location":"OUTBACK STEAKHOUSE #0522","Address":"910 Dana Dr","City":"Redding","State":"CA","Zip":"96003"},{"Location":"PACIFIC GAS AND ELECTRIC","Address":"3085 Crossroads Dr","City":"Redding","State":"CA","Zip":"96003"},{"Location":"PRO NAILS","Address":"1340 Churn Creek Rd","City":"Redding","State":"CA","Zip":"96003"},{"Location":"PUCKET RESIDENTIAL SERVICES","Address":"645 Springer Dr","City":"Redding","State":"CA","Zip":"96003"},{"Location":"PUCKET RESIDENTIAL SERVICES1","Address":"2154 Osprey Ln","City":"Redding","State":"CA","Zip":"96003"},{"Location":"RED LOBSTER #0555","Address":"1345 Dana Dr","City":"Redding","State":"CA","Zip":"96003"},{"Location":"RED ROBIN #70","Address":"1035 Dana Dr","City":"Redding","State":"CA","Zip":"96003"},{"Location":"ROUND TABLE PIZZA","Address":"900 Dana Dr A61","City":"Redding","State":"CA","Zip":"96003"},{"Location":"ROUND TABLE PIZZA #662","Address":"70 Lake Blvd","City":"Redding","State":"CA","Zip":"96003"},{"Location":"SCOTTRADE 54L","Address":"961 Dana Dr 140","City":"Redding","State":"CA","Zip":"96003"},{"Location":"SFE FIRE PROTECTION INC","Address":"3092 Crossroads Dr 1","City":"Redding","State":"CA","Zip":"96003"},{"Location":"SIMPSON UNIVERSITY","Address":"2211 College View Dr","City":"Redding","State":"CA","Zip":"96003"},{"Location":"SPORTS AUTHORITY 659","Address":"1347 Chum Creek Rd","City":"Redding","State":"CA","Zip":"96003"},{"Location":"STOUT CONSTRUCTION","Address":"2925 Innsbruck Dr A","City":"Redding","State":"CA","Zip":"96003"},{"Location":"TARGET STORES","Address":"1280 Dana Dr","City":"Redding","State":"CA","Zip":"96003"},{"Location":"THE RUSTY NAIL","Address":"900 Dana Dr 26","City":"Redding","State":"CA","Zip":"96003"},{"Location":"TREE HOUSE SENIOR APTS","Address":"4500 Alder St","City":"Redding","State":"CA","Zip":"96003"},{"Location":"VALLEY INDUSTRIAL COMMUNICATIO","Address":"5040 Caterpillar Rd","City":"Redding","State":"CA","Zip":"96003"},{"Location":"WESTERN TRUCK PARTS","Address":"1800 Twin View Blvd","City":"Redding","State":"CA","Zip":"96003"}]