[{"Location":"ALADDIN BB DEPT 758","Address":"1723 Placer St","City":"Redding","State":"CA","Zip":"96001"},{"Location":"AXIA FINANCIAL LLC","Address":"760 Cypress Ave 201","City":"Redding","State":"CA","Zip":"96001"},{"Location":"BRICKS SMOKE HOUSE","Address":"1970 Eureka Way","City":"Redding","State":"CA","Zip":"96001"},{"Location":"DAVITA #289 REDDING","Address":"1876 Park Marina Dr","City":"Redding","State":"CA","Zip":"96001"},{"Location":"JACKS GRILL","Address":"1743 California St","City":"Redding","State":"CA","Zip":"96001"},{"Location":"LULU'S EATING & DRINKING","Address":"2230 Pine St","City":"Redding","State":"CA","Zip":"96001"},{"Location":"MAXWELL EATERY","Address":"1344 Market St","City":"Redding","State":"CA","Zip":"96001"},{"Location":"NORA MCNEILL","Address":"1317 Court St","City":"Redding","State":"CA","Zip":"96001"},{"Location":"REACH AIR MEDICAL CENTER","Address":"1524 East St","City":"Redding","State":"CA","Zip":"96001"},{"Location":"REDDING POST OFFICE SALOON","Address":"1636 Market St","City":"Redding","State":"CA","Zip":"96001"},{"Location":"REDDING POWER","Address":"17120 Clear Creek Rd","City":"Redding","State":"CA","Zip":"96001"},{"Location":"ROSE GARDNER","Address":"2825 S Market St","City":"Redding","State":"CA","Zip":"96001"},{"Location":"ROUND TABLE PIZZA #272","Address":"6548 Westside Rd","City":"Redding","State":"CA","Zip":"96001"},{"Location":"ROUND TABLE PIZZA #713","Address":"3633 Eureka Way","City":"Redding","State":"CA","Zip":"96001"},{"Location":"SAN FRANCISCO DELI","Address":"2395 Athens Ave","City":"Redding","State":"CA","Zip":"96001"},{"Location":"SHAMELESS O'LEERY'S IRISH PUB","Address":"1701 California St","City":"Redding","State":"CA","Zip":"96001"},{"Location":"SHASTA CO CHILD SUPPORT SVCS","Address":"2600 Park Marina Dr","City":"Redding","State":"CA","Zip":"96001"},{"Location":"SONS OF ITALY 2453","Address":"4850 Cedars Rd","City":"Redding","State":"CA","Zip":"96001"},{"Location":"TAQUERIA LOS GORDOS","Address":"1400 Pine St","City":"Redding","State":"CA","Zip":"96001"},{"Location":"THE AIRPORT CAFE","Address":"2600 Gold St","City":"Redding","State":"CA","Zip":"96001"},{"Location":"THE SHASTA NINERS","Address":"4830 Cedars Rd","City":"Redding","State":"CA","Zip":"96001"},{"Location":"TORTILLA FLATS BAR","Address":"2800 Park Marina Dr","City":"Redding","State":"CA","Zip":"96001"},{"Location":"TULLIS INC","Address":"16951 Clear Creek Rd","City":"Redding","State":"CA","Zip":"96001"},{"Location":"VFW HOST 1934","Address":"1251 Oregon St","City":"Redding","State":"CA","Zip":"96001"},{"Location":"WINRIVER CASINO BINGO","Address":"2100 Redding Rancheria Rd","City":"Redding","State":"CA","Zip":"96001"}]