[{"Location":"AMERICAN LEGION 746","Address":"3297 Chestnut St","City":"Cottonwood","State":"CA","Zip":"96022"},{"Location":"CODY'S OK CORRAL BAR","Address":"3633 Main St","City":"Cottonwood","State":"CA","Zip":"96022"},{"Location":"COTTONWOOD CHEVRON","Address":"2800 4th Street","City":"Cottonwood","State":"CA","Zip":"96022"},{"Location":"EAGLES NEST PIZZA","Address":"20633 Gas Point Rd D","City":"Cottonwood","State":"CA","Zip":"96022"},{"Location":"J&L TOWING","Address":"3298 Balls Ferry Rd","City":"Cottonwood","State":"CA","Zip":"96022"},{"Location":"LAKE CALIFORNIA POA","Address":"22431 Rio Alto Dr","City":"Cottonwood","State":"CA","Zip":"96022"},{"Location":"LAKESIDE PIZZA","Address":"19632 Lake California Dr","City":"Cottonwood","State":"CA","Zip":"96022"},{"Location":"NORTH VALLEY SERVICES","Address":"16993 Mccoy Rd","City":"Cottonwood","State":"CA","Zip":"96022"},{"Location":"THE CALIFORNIA HIGHWAY PATROL","Address":"19340 North Bound I-5","City":"Cottonwood","State":"CA","Zip":"96022"}]