[{"Location":"CIRCLE SEVEN GUEST RANCH","Address":"27663 Island Rd","City":"Fall River Mills","State":"CA","Zip":"96028"},{"Location":"CRUMBS GRILL ON THE GREEN","Address":"42889 Highway 299 East","City":"Fall River Mills","State":"CA","Zip":"96028"},{"Location":"FALL RIVER MAYFLY PUB","Address":"43100 State Highway 299 E","City":"Fall River Mills","State":"CA","Zip":"96028"},{"Location":"FALL RIVER OUTFITTERS","Address":"43471 State Highway 299 E","City":"Fall River Mills","State":"CA","Zip":"96028"},{"Location":"HAL & KATHYS COOK HOUSE","Address":"44163 Main St","City":"Fall River Mills","State":"CA","Zip":"96028"},{"Location":"MAYERS MEMORIAL","Address":"43563 State Highway 299 E","City":"Fall River Mills","State":"CA","Zip":"96028"},{"Location":"MAYERS MEMORIAL HOSPITAL","Address":"24882 Long St","City":"Fall River Mills","State":"CA","Zip":"96028"},{"Location":"MAYERS MEMORIAL HOSPITAL DIST","Address":"43563 State Highway 299 E","City":"Fall River Mills","State":"CA","Zip":"96028"},{"Location":"UP TOWN PIZZA","Address":"43131 Main St","City":"Fall River Mills","State":"CA","Zip":"96028"},{"Location":"CIRCLE SEVEN GUEST RANCH","Address":"27663 Island Rd","City":"Fall River Mills","State":"CA","Zip":"96028"},{"Location":"FALL RIVER MAYFLY PUB","Address":"43100 State Highway 299 E","City":"Fall River Mills","State":"CA","Zip":"96028"},{"Location":"FALL RIVER OUTFITTERS","Address":"43471 State Highway 299 E","City":"Fall River Mills","State":"CA","Zip":"96028"},{"Location":"HAL & KATHYS COOK HOUSE","Address":"44163 Main St","City":"Fall River Mills","State":"CA","Zip":"96028"},{"Location":"MAYERS MEMORIAL","Address":"43563 State Highway 299 E","City":"Fall River Mills","State":"CA","Zip":"96028"},{"Location":"MAYERS MEMORIAL HOSPITAL","Address":"24882 Long St","City":"Fall River Mills","State":"CA","Zip":"96028"},{"Location":"MAYERS MEMORIAL HOSPITAL DIST","Address":"43563 State Highway 299 E","City":"Fall River Mills","State":"CA","Zip":"96028"},{"Location":"UP TOWN PIZZA","Address":"43131 Main St","City":"Fall River Mills","State":"CA","Zip":"96028"}]