[{"Location":"CORNING KELLY TAX SERVICE","Address":"1312 Solano St","City":"Corning","State":"CA","Zip":"96021"},{"Location":"CORNING RV 1 LLC","Address":"4720 Barham Ave Spofc","City":"Corning","State":"CA","Zip":"96021"},{"Location":"HERITAGE PARK CORNING","Address":"975 Highway 99w 1","City":"Corning","State":"CA","Zip":"96021"},{"Location":"JAVA LANES","Address":"2075 Solano St","City":"Corning","State":"CA","Zip":"96021"},{"Location":"JD'S PIZZA","Address":"17602 Stagecoach Rd","City":"Corning","State":"CA","Zip":"96021"},{"Location":"LES SCHAUB TIRES","Address":"1436 Solano St","City":"Corning","State":"CA","Zip":"96021"},{"Location":"PETRO 309  CORNING","Address":"2151 South Ave","City":"Corning","State":"CA","Zip":"96021"},{"Location":"RICHARD B DUNBAR DDS","Address":"1904 Solano St","City":"Corning","State":"CA","Zip":"96021"},{"Location":"ROUND TABLE PIZZA #257","Address":"680 Edith Ave","City":"Corning","State":"CA","Zip":"96021"},{"Location":"TCA 040 CORNING","Address":"3524 Highway 99w","City":"Corning","State":"CA","Zip":"96021"},{"Location":"TRUE BREW","Address":"1303 Solano St","City":"Corning","State":"CA","Zip":"96021"},{"Location":"CORNING KELLY TAX SERVICE","Address":"1312 Solano St","City":"Corning","State":"CA","Zip":"96021"},{"Location":"CORNING RV 1 LLC","Address":"4720 Barham Ave Spofc","City":"Corning","State":"CA","Zip":"96021"},{"Location":"HERITAGE PARK CORNING","Address":"975 Highway 99w 1","City":"Corning","State":"CA","Zip":"96021"},{"Location":"JAVA LANES","Address":"2075 Solano St","City":"Corning","State":"CA","Zip":"96021"},{"Location":"JD'S PIZZA","Address":"17602 Stagecoach Rd","City":"Corning","State":"CA","Zip":"96021"},{"Location":"LES SCHAUB TIRES","Address":"1436 Solano St","City":"Corning","State":"CA","Zip":"96021"},{"Location":"PETRO 309  CORNING","Address":"2151 South Ave","City":"Corning","State":"CA","Zip":"96021"},{"Location":"RICHARD B DUNBAR DDS","Address":"1904 Solano St","City":"Corning","State":"CA","Zip":"96021"},{"Location":"ROUND TABLE PIZZA #257","Address":"680 Edith Ave","City":"Corning","State":"CA","Zip":"96021"},{"Location":"TCA 040 CORNING","Address":"3524 Highway 99w","City":"Corning","State":"CA","Zip":"96021"},{"Location":"TRUE BREW","Address":"1303 Solano St","City":"Corning","State":"CA","Zip":"96021"}]