[{"Location":"BEST WESTERN ROSE QUARTZ INN","Address":"306 Main St","City":"Chester","State":"CA","Zip":"96020"},{"Location":"LAKE ALMANOR FITNESS CTR","Address":"160 Cedar St","City":"Chester","State":"CA","Zip":"96020"},{"Location":"MOUNT LASSEN CLUB","Address":"173 Main St","City":"Chester","State":"CA","Zip":"96020"},{"Location":"NORTHSHORE CAMPGROUND 1","Address":"541 Catfish Beach Rd","City":"Chester","State":"CA","Zip":"96020"},{"Location":"NORTHSHORE CAMPGROUND 2","Address":"541 Catfish Beach Rd","City":"Chester","State":"CA","Zip":"96020"},{"Location":"NORTHSHORE CAMPGROUND 4","Address":"541 Catfish Beach Rd","City":"Chester","State":"CA","Zip":"96020"},{"Location":"NORTHSHORE CAMPGROUND 7","Address":"541 Catfish Beach Rd","City":"Chester","State":"CA","Zip":"96020"},{"Location":"NORTHSHORE CAMPGROUND 8","Address":"541 Catfish Rd","City":"Chester","State":"CA","Zip":"96020"},{"Location":"RANCH HOUSE","Address":"669 Main St","City":"Chester","State":"CA","Zip":"96020"},{"Location":"THE LOCKER ROOM","Address":"300 Main St","City":"Chester","State":"CA","Zip":"96020"},{"Location":"UNITED COUNTRY%2FRON MARTIN RLTY","Address":"317 Main St","City":"Chester","State":"CA","Zip":"96020"},{"Location":"USDA FOREST SERVICE LASSEN AF","Address":"900 W Hwy 36","City":"Chester","State":"CA","Zip":"96020"},{"Location":"BEST WESTERN ROSE QUARTZ INN","Address":"306 Main St","City":"Chester","State":"CA","Zip":"96020"},{"Location":"LAKE ALMANOR FITNESS CTR","Address":"160 Cedar St","City":"Chester","State":"CA","Zip":"96020"},{"Location":"MOUNT LASSEN CLUB","Address":"173 Main St","City":"Chester","State":"CA","Zip":"96020"},{"Location":"NORTHSHORE CAMPGROUND 1","Address":"541 Catfish Beach Rd","City":"Chester","State":"CA","Zip":"96020"},{"Location":"NORTHSHORE CAMPGROUND 2","Address":"541 Catfish Beach Rd","City":"Chester","State":"CA","Zip":"96020"},{"Location":"NORTHSHORE CAMPGROUND 4","Address":"541 Catfish Beach Rd","City":"Chester","State":"CA","Zip":"96020"},{"Location":"NORTHSHORE CAMPGROUND 7","Address":"541 Catfish Beach Rd","City":"Chester","State":"CA","Zip":"96020"},{"Location":"NORTHSHORE CAMPGROUND 8","Address":"541 Catfish Rd","City":"Chester","State":"CA","Zip":"96020"},{"Location":"RANCH HOUSE","Address":"669 Main St","City":"Chester","State":"CA","Zip":"96020"},{"Location":"THE LOCKER ROOM","Address":"300 Main St","City":"Chester","State":"CA","Zip":"96020"},{"Location":"UNITED COUNTRY%2FRON MARTIN RLTY","Address":"317 Main St","City":"Chester","State":"CA","Zip":"96020"},{"Location":"USDA FOREST SERVICE LASSEN AF","Address":"900 W Hwy 36","City":"Chester","State":"CA","Zip":"96020"}]