[{"Location":"ANTLERS RESORT & MARINA #2","Address":"20679 Antlers Rd","City":"Lake Shasta","State":"CA","Zip":"96051"},{"Location":"ANTLERS RESORT & MARINA","Address":"20679 Antlers Rd","City":"Lakehead","State":"CA","Zip":"96051"},{"Location":"BASSHOLE BAR & GRILL","Address":"20725 Lakeshore Dr","City":"Lakehead","State":"CA","Zip":"96051"},{"Location":"CASCADE COVE","Address":"20084 Gregory Creek Rd","City":"Lakehead","State":"CA","Zip":"96051"},{"Location":"KLUB KLONDIKE","Address":"21375 Main St","City":"Lakehead","State":"CA","Zip":"96051"},{"Location":"SHASTA LAKE MOTEL","Address":"20714 Lakeshore Dr","City":"Lakehead","State":"CA","Zip":"96051"},{"Location":"SHASTA MARINA RESORT","Address":"18390 Obrien Inlet Rd","City":"Lakehead","State":"CA","Zip":"96051"},{"Location":"ANTLERS RESORT & MARINA #2","Address":"20679 Antlers Rd","City":"Lake Shasta","State":"CA","Zip":"96051"},{"Location":"ANTLERS RESORT & MARINA","Address":"20679 Antlers Rd","City":"Lakehead","State":"CA","Zip":"96051"},{"Location":"BASSHOLE BAR & GRILL","Address":"20725 Lakeshore Dr","City":"Lakehead","State":"CA","Zip":"96051"},{"Location":"CASCADE COVE","Address":"20084 Gregory Creek Rd","City":"Lakehead","State":"CA","Zip":"96051"},{"Location":"SHASTA LAKE MOTEL","Address":"20714 Lakeshore Dr","City":"Lakehead","State":"CA","Zip":"96051"},{"Location":"SHASTA MARINA RESORT","Address":"18390 Obrien Inlet Rd","City":"Lakehead","State":"CA","Zip":"96051"}]