[{"Location":"","Address":"5815 Truck Village Dr","City":"Mount Shasta","State":"CA","Zip":"96067"},{"Location":"BILLYS GOATS TAVERN","Address":"107 Chestnut St","City":"Mount Shasta","State":"CA","Zip":"96067"},{"Location":"C H P  D G I F 147","Address":"1001 I5 South","City":"Mount Shasta","State":"CA","Zip":"96067"},{"Location":"CANNONS MARKET","Address":"1004 S Mount Shasta Blvd","City":"Mount Shasta","State":"CA","Zip":"96067"},{"Location":"GOLD ROOM SALOON","Address":"903 S Mount Shasta Blvd","City":"Mount Shasta","State":"CA","Zip":"96067"},{"Location":"HANDSOME JOHNS","Address":"316 Chestnut St","City":"Mount Shasta","State":"CA","Zip":"96067"},{"Location":"HEADWATERS LODGE","Address":"1300 Kingston Rd","City":"Mount Shasta","State":"CA","Zip":"96067"},{"Location":"LAKE SISKI YOU CAMP RESORT","Address":"4239 Wa Barr Rd","City":"Mount Shasta","State":"CA","Zip":"96067"},{"Location":"MIKE AND TONY","Address":"501 S Mount Shasta Blvd","City":"Mount Shasta","State":"CA","Zip":"96067"},{"Location":"MOUNT SHASTA VETS CLUB LLC","Address":"406 N Mount Shasta Blvd","City":"Mount Shasta","State":"CA","Zip":"96067"},{"Location":"SAY CHEESE PIZZA","Address":"304 Maple St","City":"Mount Shasta","State":"CA","Zip":"96067"},{"Location":"SISTERS OF MERCY","Address":"407 Orem St","City":"Mount Shasta","State":"CA","Zip":"96067"},{"Location":"WAYSIDE GRILL LLC","Address":"2217 S Mount Shasta Blvd","City":"Mount Shasta","State":"CA","Zip":"96067"},{"Location":"MT SHASTA ELKS 2333","Address":"326 N My Shasta Blvd","City":"Mt Shasta","State":"CA","Zip":"96067"}]