[{"Location":"ALADDIN BB DEPT 785","Address":"410 Pine St","City":"Red Bluff","State":"CA","Zip":"96080"},{"Location":"ALFRED PHEN DDS","Address":"810 Rio St","City":"Red Bluff","State":"CA","Zip":"96080"},{"Location":"AMUNDSON PHYSICAL THERAPY","Address":"355 Main St","City":"Red Bluff","State":"CA","Zip":"96080"},{"Location":"CARLITOS RED BLUFF","Address":"480 Antelope Blvd","City":"Red Bluff","State":"CA","Zip":"96080"},{"Location":"CASA RAMOS MEXICAN RESTA","Address":"2001 Main St","City":"Red Bluff","State":"CA","Zip":"96080"},{"Location":"COMFORT INN","Address":"90 Sale Ln","City":"Red Bluff","State":"CA","Zip":"96080"},{"Location":"COZY DINER","Address":"529 S Main St","City":"Red Bluff","State":"CA","Zip":"96080"},{"Location":"DAVITA #2127 RED BLUFF","Address":"2455 Sister Mary Columba Dr","City":"Red Bluff","State":"CA","Zip":"96080"},{"Location":"HAMPTON INN RED BLUFF","Address":"520 Adobe Rd","City":"Red Bluff","State":"CA","Zip":"96080"},{"Location":"NOEL WATKINS","Address":"420 Pine St","City":"Red Bluff","State":"CA","Zip":"96080"},{"Location":"NORTH   VALLEY SERVICE","Address":"502 Lucknow Ave","City":"Red Bluff","State":"CA","Zip":"96080"},{"Location":"NORTH VALLEY SERVICE","Address":"10770 Rawson Rd","City":"Red Bluff","State":"CA","Zip":"96080"},{"Location":"NORTH VALLEY SERVICES","Address":"20064 Live Oak Rd","City":"Red Bluff","State":"CA","Zip":"96080"},{"Location":"PARKER","Address":"1158 Madison St","City":"Red Bluff","State":"CA","Zip":"96080"},{"Location":"PATH","Address":"22005 Gilmore Ranch Rd","City":"Red Bluff","State":"CA","Zip":"96080"},{"Location":"PUCKET RESIDENTIAL SERVICES2","Address":"1260 Southpointe Dr","City":"Red Bluff","State":"CA","Zip":"96080"},{"Location":"PUCKET RESIDENTIAL SERVICES3","Address":"1340 Southpointe Dr","City":"Red Bluff","State":"CA","Zip":"96080"},{"Location":"PUCKET RESIDENTIAL SERVICES4","Address":"75 Sherman Dr","City":"Red Bluff","State":"CA","Zip":"96080"},{"Location":"PUCKET RESIDENTIAL SERVICES5","Address":"200 Mary Ln","City":"Red Bluff","State":"CA","Zip":"96080"},{"Location":"RED BLUFF AUTO CENTER","Address":"545 Adobe Rd","City":"Red Bluff","State":"CA","Zip":"96080"},{"Location":"RIVER BEND STORE","Address":"21785 Bend Ferry Rd","City":"Red Bluff","State":"CA","Zip":"96080"},{"Location":"RON CLARK DDS","Address":"727 Washington St","City":"Red Bluff","State":"CA","Zip":"96080"},{"Location":"ROUND TABLE PIZZA","Address":"116 Belle Mill Rd Rs","City":"Red Bluff","State":"CA","Zip":"96080"},{"Location":"TRI COUNTIES BANK","Address":"727 S Main St","City":"Red Bluff","State":"CA","Zip":"96080"},{"Location":"WAL-MART STORES INC","Address":"10817 Highway 99w","City":"Red Bluff","State":"CA","Zip":"96080"}]