[{"Location":"BECKETTS TRAILS END STK","Address":"1324 Nuggett Ln","City":"Weaverville","State":"CA","Zip":"96093"},{"Location":"NEW YORK SALOON","Address":"225 Main Street","City":"Weaverville","State":"CA","Zip":"96093"},{"Location":"ROUND TABLE PIZZA #704","Address":"120 Nugget Ln","City":"Weaverville","State":"CA","Zip":"96093"},{"Location":"THE DIGGINS","Address":"524 Main St","City":"Weaverville","State":"CA","Zip":"96093"},{"Location":"TRINATY COUNTY ERO CENTER","Address":"61 Airport Drive  #b","City":"Weaverville","State":"CA","Zip":"96093"},{"Location":"WILLOW GLEN ALPINE HOUSE","Address":"520 Main St","City":"Weaverville","State":"CA","Zip":"96093"},{"Location":"BECKETTS TRAILS END STK","Address":"1324 Nuggett Ln","City":"Weaverville","State":"CA","Zip":"96093"},{"Location":"NEW YORK SALOON","Address":"225 Main Street","City":"Weaverville","State":"CA","Zip":"96093"},{"Location":"ROUND TABLE PIZZA #704","Address":"120 Nugget Ln","City":"Weaverville","State":"CA","Zip":"96093"},{"Location":"THE DIGGINS","Address":"524 Main St","City":"Weaverville","State":"CA","Zip":"96093"},{"Location":"TRINATY COUNTY ERO CENTER","Address":"61 Airport Drive  #b","City":"Weaverville","State":"CA","Zip":"96093"},{"Location":"WILLOW GLEN ALPINE HOUSE","Address":"520 Main St","City":"Weaverville","State":"CA","Zip":"96093"}]