[{"Location":"A1 AUTOMOTIVE","Address":"1409 S Main St","City":"Yreka","State":"CA","Zip":"96097"},{"Location":"CARMIKE INC","Address":"1795 S Main St","City":"Yreka","State":"CA","Zip":"96097"},{"Location":"CHRYSALIS","Address":"316 Sherman St","City":"Yreka","State":"CA","Zip":"96097"},{"Location":"CLAYTON TIRE SERVICE","Address":"221 N Main St","City":"Yreka","State":"CA","Zip":"96097"},{"Location":"COMFORT INN YREKA","Address":"1804b Fort Jones Rd","City":"Yreka","State":"CA","Zip":"96097"},{"Location":"EDWARD JONES","Address":"106 Ranch Ln C","City":"Yreka","State":"CA","Zip":"96097"},{"Location":"ELLIS BROOKS MOTORS INC","Address":"1113 S Main St","City":"Yreka","State":"CA","Zip":"96097"},{"Location":"MINER STREET SPORTS BAR","Address":"102 W Miner St","City":"Yreka","State":"CA","Zip":"96097"},{"Location":"PALACE BARBER SHOP","Address":"308 W Miner St","City":"Yreka","State":"CA","Zip":"96097"},{"Location":"SAINT JOSEPHS","Address":"314 4th St","City":"Yreka","State":"CA","Zip":"96097"},{"Location":"STRINGS ITALIAN CAFE","Address":"322 W Miner St","City":"Yreka","State":"CA","Zip":"96097"},{"Location":"THE PURPLE PLUM","Address":"105 E Miner St","City":"Yreka","State":"CA","Zip":"96097"},{"Location":"YREKA RV PARK LLC2","Address":"767 Montague Rd","City":"Yreka","State":"CA","Zip":"96097"}]