[{"Location":"ANDRUSS MOTEL","Address":"106964 Us Highway 395","City":"Coleville","State":"CA","Zip":"96107"},{"Location":"COLEVILLE INN","Address":"111315 Hwy 395","City":"Coleville","State":"CA","Zip":"96107"},{"Location":"MOUNTVIEW BBQ","Address":"106834 Us Highway 395","City":"Coleville","State":"CA","Zip":"96107"},{"Location":"TOIYABE MOTEL","Address":"107045 Hwy 395","City":"Coleville","State":"CA","Zip":"96107"},{"Location":"WEST WALKER MOTEL LLC","Address":"106833 Hwy 395","City":"Coleville","State":"CA","Zip":"96107"},{"Location":"ANDRUSS MOTEL","Address":"106964 Us Highway 395","City":"Coleville","State":"CA","Zip":"96107"},{"Location":"COLEVILLE INN","Address":"111315 Hwy 395","City":"Coleville","State":"CA","Zip":"96107"},{"Location":"MOUNTVIEW BBQ","Address":"106834 Us Highway 395","City":"Coleville","State":"CA","Zip":"96107"},{"Location":"TOIYABE MOTEL","Address":"107045 Hwy 395","City":"Coleville","State":"CA","Zip":"96107"},{"Location":"WEST WALKER MOTEL LLC","Address":"106833 Hwy 395","City":"Coleville","State":"CA","Zip":"96107"}]