[{"Location":"GUMBAS FIVE","Address":"350 Bonta St","City":"Blairsdan","State":"CA","Zip":"96103"},{"Location":"CALPINE ELKS LODGE","Address":"75212 State Rt 70","City":"Blairsden","State":"CA","Zip":"96103"},{"Location":"COYOTE BAR & GRILL","Address":"8296 Hwy 89","City":"Blairsden","State":"CA","Zip":"96103"},{"Location":"GRIZZLY GRILL","Address":"250 Bonta St","City":"Blairsden","State":"CA","Zip":"96103"},{"Location":"MOHAWK TAVERN","Address":"999 Johnsville Road","City":"Blairsden","State":"CA","Zip":"96103"},{"Location":"INDIAN PEAK VINYARDS","Address":"7482 State Highway 89","City":"Blairsden Graeagle","State":"CA","Zip":"96103"},{"Location":"GRAEAGLE RESTAURANT","Address":"7630 Hwy 89","City":"Blairsden-graeagle","State":"CA","Zip":"96103"},{"Location":"TWENTY MILE HOUSE LLC","Address":"700 Old Cromberg Rd","City":"Cromberg","State":"CA","Zip":"96103"},{"Location":"TWENTY MILE HOUSE LLC 2","Address":"700 Old Cromberg Rd%2C Cabins","City":"Cromberg","State":"CA","Zip":"96103"},{"Location":"BECKWOURTH RANGER DISTRICT","Address":"23 Mohawk Rd","City":"Graeagle","State":"CA","Zip":"96103"},{"Location":"GRAEAGLE VACATION RENTAL","Address":"26 Poplar Valley Rd","City":"Graeagle","State":"CA","Zip":"96103"},{"Location":"KNOTTY PINE TAVERN","Address":"7426 Hwy 89","City":"Graeagle","State":"CA","Zip":"96103"},{"Location":"LONGBOARDS BAR AND GRILL","Address":"402 Poplar Valley Rd","City":"Graeagle","State":"CA","Zip":"96103"}]