[{"Location":"MODOC MEDICAL CENTER","Address":"113 West Mc Dowell","City":"Altura","State":"CA","Zip":"96101"},{"Location":"CALIFORNIA PINES LODGE","Address":"Hc 4 Box 45007","City":"Alturas","State":"CA","Zip":"96101"},{"Location":"DESERT ROSE CASINO","Address":"901 County Rd 56","City":"Alturas","State":"CA","Zip":"96101"},{"Location":"HEARD PLUMBING","Address":"208 E 12th St","City":"Alturas","State":"CA","Zip":"96101"},{"Location":"LAZY B GRILL","Address":"303 Us Highway 395 E","City":"Alturas","State":"CA","Zip":"96101"},{"Location":"MODOC MEDICAL CENTER2","Address":"228 W Mcdowell Ave","City":"Alturas","State":"CA","Zip":"96101"},{"Location":"MODOC NATIONAL FOREST","Address":"225 W 8th St","City":"Alturas","State":"CA","Zip":"96101"},{"Location":"MODOC WORK ACTIVTY CTR","Address":"310 N West C St","City":"Alturas","State":"CA","Zip":"96101"},{"Location":"NACHO'S RESTAURANT","Address":"204 W 12th St","City":"Alturas","State":"CA","Zip":"96101"},{"Location":"TEDS BARBERSHOP","Address":"127 S Main St","City":"Alturas","State":"CA","Zip":"96101"},{"Location":"MODOC MEDICAL CENTER","Address":"113 West Mc Dowell","City":"Altura","State":"CA","Zip":"96101"},{"Location":"CALIFORNIA PINES LODGE","Address":"Hc 4 Box 45007","City":"Alturas","State":"CA","Zip":"96101"},{"Location":"DESERT ROSE CASINO","Address":"901 County Rd 56","City":"Alturas","State":"CA","Zip":"96101"},{"Location":"HEARD PLUMBING","Address":"208 E 12th St","City":"Alturas","State":"CA","Zip":"96101"},{"Location":"LAZY B GRILL","Address":"303 Us Highway 395 E","City":"Alturas","State":"CA","Zip":"96101"},{"Location":"MODOC MEDICAL CENTER2","Address":"228 W Mcdowell Ave","City":"Alturas","State":"CA","Zip":"96101"},{"Location":"MODOC NATIONAL FOREST","Address":"225 W 8th St","City":"Alturas","State":"CA","Zip":"96101"},{"Location":"MODOC WORK ACTIVTY CTR","Address":"310 N West C St","City":"Alturas","State":"CA","Zip":"96101"},{"Location":"NACHO'S RESTAURANT","Address":"204 W 12th St","City":"Alturas","State":"CA","Zip":"96101"},{"Location":"TEDS BARBERSHOP","Address":"127 S Main St","City":"Alturas","State":"CA","Zip":"96101"}]