[{"Location":"ALPINE COUNTY CHAMBER OF COMME","Address":"3 Webster St","City":"Markleeville","State":"CA","Zip":"96120"},{"Location":"ALPINE COUNTY SHERIFF DE","Address":"14777 State Rt 89","City":"Markleeville","State":"CA","Zip":"96120"},{"Location":"HOPE VALLEY RESORT","Address":"14655 Highway 88","City":"Markleeville","State":"CA","Zip":"96120"},{"Location":"TODDS BAIT TACKLE","Address":"19750 State Highway 89","City":"Markleeville","State":"CA","Zip":"96120"},{"Location":"TODDS BAIT TACKLE AND SU","Address":"19750 State Highway 89","City":"Markleeville","State":"CA","Zip":"96120"},{"Location":"WAHOE TRIBE OF NV AND C","Address":"96 Washoe Blvd","City":"Markleeville","State":"CA","Zip":"96120"},{"Location":"WASHOE HOUSING 1","Address":"28 Hungalelti Street","City":"Markleeville","State":"CA","Zip":"96120"},{"Location":"WASHOE HOUSING 2","Address":"60 Hungalelti","City":"Markleeville","State":"CA","Zip":"96120"},{"Location":"WASHOE HOUSING 3","Address":"120 Washoe Blvd","City":"Markleeville","State":"CA","Zip":"96120"},{"Location":"WASHOE HOUSING 5","Address":"50 Dutch Valley Rd","City":"Markleeville","State":"CA","Zip":"96120"},{"Location":"WASHOE HOUSING 6","Address":"80 Washoe Blvd","City":"Markleeville","State":"CA","Zip":"96120"},{"Location":"WOLF CREEK RESTAURANT","Address":"14830 State Highway 89","City":"Markleeville","State":"CA","Zip":"96120"}]