[{"Location":"ANHEUSER-BUSCH WHLSLR #50478","Address":"474-340 Commercial Rd","City":"Susanville","State":"CA","Zip":"96130"},{"Location":"CALIF DEPT OF FORESTRY","Address":"711-045 Center Rd","City":"Susanville","State":"CA","Zip":"96130"},{"Location":"DIAMOND MOUNTAIN GOLF COURSE","Address":"470 895 Circle Dr","City":"Susanville","State":"CA","Zip":"96130"},{"Location":"DIAMOND VIEW MOTEL","Address":"1529 Main St","City":"Susanville","State":"CA","Zip":"96130"},{"Location":"HIGH DESERT STATE PRISON","Address":"475-750 Rice Canyon Rd","City":"Susanville","State":"CA","Zip":"96130"},{"Location":"LUMBERJACKS RESTAURANT","Address":"2795 Main St","City":"Susanville","State":"CA","Zip":"96130"},{"Location":"MAZATLAN GRILL","Address":"1535 Main St","City":"Susanville","State":"CA","Zip":"96130"},{"Location":"PIZZA FACTORY","Address":"2975 Main St","City":"Susanville","State":"CA","Zip":"96130"},{"Location":"SIERRA CASCADE NURSERY INC","Address":"472-715 Johnson Rd","City":"Susanville","State":"CA","Zip":"96130"},{"Location":"SPORTS BAR AT DIAMOND MT","Address":"900 Skyline Dr","City":"Susanville","State":"CA","Zip":"96130"},{"Location":"T & A LOUNGE","Address":"2101 Main St","City":"Susanville","State":"CA","Zip":"96130"},{"Location":"VIAL PHYSICAL THERAPY","Address":"515 Ash St","City":"Susanville","State":"CA","Zip":"96130"}]