[{"Location":"STATELINE GENERAL STORE AND LIQUOR","Address":"17608 Stateline Rd","City":"Hatfield","State":"CA","Zip":"96134"},{"Location":"ROSS MARKET","Address":"440 E St","City":"Tule Lake","State":"CA","Zip":"96134"},{"Location":"DONS DELI & MARKET","Address":"45690 Hwy 139","City":"Tulelake","State":"CA","Zip":"96134"},{"Location":"FOREST SR    USDA","Address":"101  Havlina Rd","City":"Tulelake","State":"CA","Zip":"96134"},{"Location":"STATELINE GENERAL STORE AND LIQUOR","Address":"17608 Stateline Rd","City":"Tulelake","State":"CA","Zip":"96134"},{"Location":"THE HONKER","Address":"810 Main St","City":"Tulelake","State":"CA","Zip":"96134"},{"Location":"STATELINE GENERAL STORE AND LIQUOR","Address":"17608 Stateline Rd","City":"Hatfield","State":"CA","Zip":"96134"},{"Location":"ROSS MARKET","Address":"440 E St","City":"Tule Lake","State":"CA","Zip":"96134"},{"Location":"DONS DELI & MARKET","Address":"45690 Hwy 139","City":"Tulelake","State":"CA","Zip":"96134"},{"Location":"FOREST SR    USDA","Address":"101  Havlina Rd","City":"Tulelake","State":"CA","Zip":"96134"},{"Location":"Stateline General Store And Liquor","Address":"17608 Stateline Rd","City":"Tulelake","State":"CA","Zip":"96134"},{"Location":"THE HONKER","Address":"810 Main St","City":"Tulelake","State":"CA","Zip":"96134"}]