[{"Location":"NORTH TAHOE FIRE PROTECTION","Address":"270 Alpine Meadows Rd","City":"Alpine Meadows","State":"CA","Zip":"96146"},{"Location":"CORNICE CANTINA MEXICAN","Address":"1725 Squaw Loop Rd","City":"Olympic Valley","State":"CA","Zip":"96146"},{"Location":"EXCLUSIVE RESORT","Address":"224 Shaoshone Ct","City":"Olympic Valley","State":"CA","Zip":"96146"},{"Location":"EXCLUSIVE RESORTS","Address":"137 Rock Garden Ct","City":"Olympic Valley","State":"CA","Zip":"96146"},{"Location":"FIRESIDE PIZZA COMPANY","Address":"1985 Squaw Valley Rd 25","City":"Olympic Valley","State":"CA","Zip":"96146"},{"Location":"HIGH CAMP BAR NORTH","Address":"1901 Chamonix Pl","City":"Olympic Valley","State":"CA","Zip":"96146"},{"Location":"NORTH TAHOE REALTY","Address":"1985 Squaw Valley Rd 23","City":"Olympic Valley","State":"CA","Zip":"96146"},{"Location":"PLUMPJACK SQUAW VALLEY","Address":"1920 Squaw Valley Rd","City":"Olympic Valley","State":"CA","Zip":"96146"},{"Location":"PLUMPJACK SQUAW VALLEY INN","Address":"540 Squaw Valley Rd","City":"Olympic Valley","State":"CA","Zip":"96146"},{"Location":"RESORT AT SQUAW CREEK","Address":"400 Squaw Creek Rd","City":"Olympic Valley","State":"CA","Zip":"96146"},{"Location":"RESORT AT SQUAW CREEK 0039288","Address":"400 Squaw Crk","City":"Olympic Valley","State":"CA","Zip":"96146"},{"Location":"SQUAW BLUE ROKER","Address":"1880 Village Road South","City":"Olympic Valley","State":"CA","Zip":"96146"},{"Location":"SQUAW VALLEY REAL ESTATE","Address":"1960 Squaw Valley Road 5","City":"Olympic Valley","State":"CA","Zip":"96146"},{"Location":"THE AULD DUBLINER","Address":"1850 Village South Rd 41","City":"Olympic Valley","State":"CA","Zip":"96146"},{"Location":"SQUAW VALLEY GOLD COAST","Address":"1960 Squaw Valley Rd","City":"Olympic Village","State":"CA","Zip":"96146"},{"Location":"SQUAW VALLEY OLYMPIC PLAZA","Address":"1960 Squaw Valley Road","City":"Olympic Village","State":"CA","Zip":"96146"},{"Location":"OLSON OLSON GROUP","Address":"7280 River Road","City":"Tahoe City","State":"CA","Zip":"96146"},{"Location":"NORTH TAHOE FIRE PROTECTION","Address":"270 Alpine Meadows Rd","City":"Alpine Meadows","State":"CA","Zip":"96146"},{"Location":"CORNICE CANTINA MEXICAN","Address":"1725 Squaw Loop Rd","City":"Olympic Valley","State":"CA","Zip":"96146"},{"Location":"EXCLUSIVE RESORT","Address":"224 Shaoshone Ct","City":"Olympic Valley","State":"CA","Zip":"96146"},{"Location":"EXCLUSIVE RESORTS","Address":"137 Rock Garden Ct","City":"Olympic Valley","State":"CA","Zip":"96146"},{"Location":"FIRESIDE PIZZA COMPANY","Address":"1985 Squaw Valley Rd 25","City":"Olympic Valley","State":"CA","Zip":"96146"},{"Location":"HIGH CAMP BAR NORTH","Address":"1901 Chamonix Pl","City":"Olympic Valley","State":"CA","Zip":"96146"},{"Location":"NORTH TAHOE REALTY","Address":"1985 Squaw Valley Rd 23","City":"Olympic Valley","State":"CA","Zip":"96146"},{"Location":"PLUMPJACK SQUAW VALLEY","Address":"1920 Squaw Valley Rd","City":"Olympic Valley","State":"CA","Zip":"96146"},{"Location":"PLUMPJACK SQUAW VALLEY INN","Address":"540 Squaw Valley Rd","City":"Olympic Valley","State":"CA","Zip":"96146"},{"Location":"RESORT AT SQUAW CREEK","Address":"400 Squaw Creek Rd","City":"Olympic Valley","State":"CA","Zip":"96146"},{"Location":"RESORT AT SQUAW CREEK 0039288","Address":"400 Squaw Crk","City":"Olympic Valley","State":"CA","Zip":"96146"},{"Location":"SQUAW BLUE ROKER","Address":"1880 Village Road South","City":"Olympic Valley","State":"CA","Zip":"96146"},{"Location":"SQUAW VALLEY REAL ESTATE","Address":"1960 Squaw Valley Road 5","City":"Olympic Valley","State":"CA","Zip":"96146"},{"Location":"THE AULD DUBLINER","Address":"1850 Village South Rd 41","City":"Olympic Valley","State":"CA","Zip":"96146"},{"Location":"SQUAW VALLEY GOLD COAST","Address":"1960 Squaw Valley Rd","City":"Olympic Village","State":"CA","Zip":"96146"},{"Location":"SQUAW VALLEY OLYMPIC PLAZA","Address":"1960 Squaw Valley Road","City":"Olympic Village","State":"CA","Zip":"96146"},{"Location":"OLSON OLSON GROUP","Address":"7280 River Road","City":"Tahoe City","State":"CA","Zip":"96146"}]