[{"Location":"LE CHAMOIS","Address":"1960 Squaw Valley Rd","City":"Olympic Valley","State":"CA","Zip":"96145"},{"Location":"","Address":"1600 N Lake Blvd","City":"Tahoe City","State":"CA","Zip":"96145"},{"Location":"BACCHI","Address":"2905 Lake Forest Rd","City":"Tahoe City","State":"CA","Zip":"96145"},{"Location":"BEL AIR PLAZA LTD 2","Address":"3600 North Lake Blvd  #98","City":"Tahoe City","State":"CA","Zip":"96145"},{"Location":"BLUE AGAVE","Address":"425 N Lake Blvd","City":"Tahoe City","State":"CA","Zip":"96145"},{"Location":"FRONT STREET STATION","Address":"205 River Rd","City":"Tahoe City","State":"CA","Zip":"96145"},{"Location":"HACIENDA DEL LAGO","Address":"760 N Lake Blvd","City":"Tahoe City","State":"CA","Zip":"96145"},{"Location":"INSIDE OUT FITNESS","Address":"905 North Lake Blvd #101","City":"Tahoe City","State":"CA","Zip":"96145"},{"Location":"JAKES ON THE LAKES","Address":"780 N Lake","City":"Tahoe City","State":"CA","Zip":"96145"},{"Location":"KELLY B TREVETHAN2","Address":"589 N Lake  #4","City":"Tahoe City","State":"CA","Zip":"96145"},{"Location":"LOVERDE BUILDERS INC","Address":"705 North Lake Blvd","City":"Tahoe City","State":"CA","Zip":"96145"},{"Location":"PETE N PETER'S","Address":"395 N Lake Blvd","City":"Tahoe City","State":"CA","Zip":"96145"},{"Location":"PILCHER CONTRUCTION INC","Address":"120 Grove St","City":"Tahoe City","State":"CA","Zip":"96145"},{"Location":"RIVER GRILL","Address":"55 West Lake","City":"Tahoe City","State":"CA","Zip":"96145"},{"Location":"ROSIES DOWNTOWN CAFE","Address":"571 N Lake Blvd","City":"Tahoe City","State":"CA","Zip":"96145"},{"Location":"SUNNYSIDE RESORT","Address":"1850 W Lake Blvd","City":"Tahoe City","State":"CA","Zip":"96145"},{"Location":"TAHOE CITY UTLILTY DIST","Address":"221 Fairway Drive","City":"Tahoe City","State":"CA","Zip":"96145"},{"Location":"TAHOE MOUNTAIN BREWING","Address":"475 North Lake Blvd","City":"Tahoe City","State":"CA","Zip":"96145"},{"Location":"TAHOE YACHT CLUB","Address":"700 North Lake Blvd","City":"Tahoe City","State":"CA","Zip":"96145"},{"Location":"THAI KITCHEN","Address":"255 North Lake Blvd","City":"Tahoe City","State":"CA","Zip":"96145"},{"Location":"THE BRIDGETENDER","Address":"65 West Lake Blvd","City":"Tahoe City","State":"CA","Zip":"96145"},{"Location":"THE FAT CAT","Address":"599 N Lake Blvd #c","City":"Tahoe City","State":"CA","Zip":"96145"},{"Location":"THE TRUCKEE RIVER RANCH LODGE","Address":"2285 River Rd","City":"Tahoe City","State":"CA","Zip":"96145"},{"Location":"USCG STATION LAKE TAHOE","Address":"2500 Lake Forest Rd","City":"Tahoe City","State":"CA","Zip":"96145"}]