[{"Location":"","Address":"536 Koru St","City":"South Lake Tahoe","State":"CA","Zip":"96150"},{"Location":"50 DRIVE IN","Address":"2100 Lake Tahoe Blvd","City":"South Lake Tahoe","State":"CA","Zip":"96150"},{"Location":"APPLEBEE'S #2160023","Address":"3987 Lake Tahoe Blvd","City":"South Lake Tahoe","State":"CA","Zip":"96150"},{"Location":"ARTENIS LAKEFRONT CAFE","Address":"900 Ski Run Blvd 111","City":"South Lake Tahoe","State":"CA","Zip":"96150"},{"Location":"AZUL LATIN KITCHEN","Address":"1001 Heavenly Village Way 4","City":"South Lake Tahoe","State":"CA","Zip":"96150"},{"Location":"BASE CAMP HOTEL LOBBY","Address":"4143 Cedar Ave","City":"South Lake Tahoe","State":"CA","Zip":"96150"},{"Location":"BASE CAMP PIZZA","Address":"1001 Heavenly Village Way 25a","City":"South Lake Tahoe","State":"CA","Zip":"96150"},{"Location":"BEACHCOMBER INN","Address":"999 Lakeview Ave","City":"South Lake Tahoe","State":"CA","Zip":"96150"},{"Location":"BROTHERS BAR & GRILL","Address":"888 Emerald Bay Rd","City":"South Lake Tahoe","State":"CA","Zip":"96150"},{"Location":"CENTURY 21 TAHOE PARADISE","Address":"3141 Us Highway 50","City":"South Lake Tahoe","State":"CA","Zip":"96150"},{"Location":"CHEVY'S 2075","Address":"3678 Lake Tahoe Blvd","City":"South Lake Tahoe","State":"CA","Zip":"96150"},{"Location":"CHRISTENSEN AUTOMOTIVE","Address":"2614 Sussex Ave","City":"South Lake Tahoe","State":"CA","Zip":"96150"},{"Location":"CITY OF SOUTH LAKE TAHOE","Address":"1700 D St","City":"South Lake Tahoe","State":"CA","Zip":"96150"},{"Location":"CITY OF SOUTH LAKE TAHOE 2","Address":"1160 Rufus Allen Blvd","City":"South Lake Tahoe","State":"CA","Zip":"96150"},{"Location":"CITY OF SOUTH LAKE TAHOE 3","Address":"1180 Rufus Allen Blvd","City":"South Lake Tahoe","State":"CA","Zip":"96150"},{"Location":"DJSB INCORPORATED","Address":"765 Emerald Bay Rd","City":"South Lake Tahoe","State":"CA","Zip":"96150"},{"Location":"FERGUSON #1634","Address":"2071 Dunlap Dr","City":"South Lake Tahoe","State":"CA","Zip":"96150"},{"Location":"FIRESIDE LODGE","Address":"515 Emerald Bay Rd","City":"South Lake Tahoe","State":"CA","Zip":"96150"},{"Location":"FLIGHT DECK RESTAURANT","Address":"1901 Airport Rd 105","City":"South Lake Tahoe","State":"CA","Zip":"96150"},{"Location":"FRESH KETCH","Address":"2435 Venice Dr E","City":"South Lake Tahoe","State":"CA","Zip":"96150"},{"Location":"GOOD FELLAS PIZZA","Address":"3668 Lake Tahoe Blvd","City":"South Lake Tahoe","State":"CA","Zip":"96150"},{"Location":"HIMMEL HAUSE 200","Address":"3819 Saddle Rd","City":"South Lake Tahoe","State":"CA","Zip":"96150"},{"Location":"LAKE TAHOE BV","Address":"4130 Lake Tahoe Blvd","City":"South Lake Tahoe","State":"CA","Zip":"96150"},{"Location":"LAKE TAHOE GOLF COURSE","Address":"2500 Emerald Bay Rd","City":"South Lake Tahoe","State":"CA","Zip":"96150"},{"Location":"LAKE TAHOE PIZZA COMPANY","Address":"1168 Emerald Bay Rd","City":"South Lake Tahoe","State":"CA","Zip":"96150"},{"Location":"LAKE TAHOE RESORTS HOTEL","Address":"4130 Lake Tahoe Blvd","City":"South Lake Tahoe","State":"CA","Zip":"96150"},{"Location":"LAKE TAHOE VACATION RESO","Address":"901 Ski Run Blvd","City":"South Lake Tahoe","State":"CA","Zip":"96150"},{"Location":"LANDING INN AND SPA","Address":"4104 Lakeshore Blvd","City":"South Lake Tahoe","State":"CA","Zip":"96150"},{"Location":"MARRIOTT'S FIRE & ICE","Address":"4100 Lake Tahoe Blvd","City":"South Lake Tahoe","State":"CA","Zip":"96150"},{"Location":"MC DUFFS PUB","Address":"1041 Fremont Ave","City":"South Lake Tahoe","State":"CA","Zip":"96150"},{"Location":"MCPS IRISH PUB & GRILL","Address":"4125 Lake Tahoe Blvd A","City":"South Lake Tahoe","State":"CA","Zip":"96150"},{"Location":"MO'S PLACE","Address":"3600 Lake Tahoe Blvd","City":"South Lake Tahoe","State":"CA","Zip":"96150"},{"Location":"NAKE FISH LAKE TAHOE","Address":"3940 Lake Tahoe Blvd","City":"South Lake Tahoe","State":"CA","Zip":"96150"},{"Location":"NAPA AUTO PARTS","Address":"1935 Lake Tahoe Blvd","City":"South Lake Tahoe","State":"CA","Zip":"96150"},{"Location":"PARK TAHOE INN","Address":"4011 Lake Tahoe Blvd","City":"South Lake Tahoe","State":"CA","Zip":"96150"},{"Location":"PIZZA HUT","Address":"3599 Lake Tahoe Blvd","City":"South Lake Tahoe","State":"CA","Zip":"96150"},{"Location":"PRIMOS ITALIAN BISTRO","Address":"2180 Lake Tahoe Blvd","City":"South Lake Tahoe","State":"CA","Zip":"96150"},{"Location":"RIVA GRILL ON THE LAKE","Address":"900 Ski Run Blvd 3","City":"South Lake Tahoe","State":"CA","Zip":"96150"},{"Location":"ROUND TABLE PIZZA #804","Address":"1062 Emerald Bay Rd","City":"South Lake Tahoe","State":"CA","Zip":"96150"},{"Location":"SIERRA ATHLETIC CLUB","Address":"593 Tahoe Keys Blvd","City":"South Lake Tahoe","State":"CA","Zip":"96150"},{"Location":"SIERRA PIZZA","Address":"1034 Al Tahoe Blvd","City":"South Lake Tahoe","State":"CA","Zip":"96150"},{"Location":"SONNEYS BBQ SHACK","Address":"787 Emerald Bay Rd","City":"South Lake Tahoe","State":"CA","Zip":"96150"},{"Location":"SOUTH TAHOE PUBLIC UTIL. DIST","Address":"1275 Meadow Crest Dr","City":"South Lake Tahoe","State":"CA","Zip":"96150"},{"Location":"STANFORD SIERRA PROGRAMS","Address":"130 Fallen Leaf Rd","City":"South Lake Tahoe","State":"CA","Zip":"96150"},{"Location":"STEAMERS BAR","Address":"2236 Lake Tahoe Blvd","City":"South Lake Tahoe","State":"CA","Zip":"96150"},{"Location":"TAHOE BOWL","Address":"1030 Fremont Ave","City":"South Lake Tahoe","State":"CA","Zip":"96150"},{"Location":"TAHOE NAIL SPA","Address":"2176 Lake Tahoe Blvd 8","City":"South Lake Tahoe","State":"CA","Zip":"96150"},{"Location":"TAHOE QUICK LUBE","Address":"2513 Lake Tahoe Blvd","City":"South Lake Tahoe","State":"CA","Zip":"96150"},{"Location":"TAHOE SPORTS AND ENTERTAINMENT","Address":"1176 Rufus Allen Blvd","City":"South Lake Tahoe","State":"CA","Zip":"96150"},{"Location":"TAVERN AT BEACH RETREAT","Address":"3411 Lake Tahoe Blvd","City":"South Lake Tahoe","State":"CA","Zip":"96150"},{"Location":"THE BEACON","Address":"1900 Jameson Beach Rd","City":"South Lake Tahoe","State":"CA","Zip":"96150"},{"Location":"THE CLASSIC CUE","Address":"1961 Lake Tahoe Blvd B","City":"South Lake Tahoe","State":"CA","Zip":"96150"},{"Location":"THE DIVIDED SKY","Address":"3200 Us Highway 50","City":"South Lake Tahoe","State":"CA","Zip":"96150"},{"Location":"THE GETAWAY CAFE","Address":"3140 Us Highway 50","City":"South Lake Tahoe","State":"CA","Zip":"96150"},{"Location":"TURN 3 BAR","Address":"2227 Lake Tahoe Blvd B","City":"South Lake Tahoe","State":"CA","Zip":"96150"},{"Location":"VACATION RENTAL PROPERTIES","Address":"3050 Jacarillo Trl","City":"South Lake Tahoe","State":"CA","Zip":"96150"},{"Location":"VACATION RENTAL PROPERTIES LLC","Address":"2464 Cougar Trl","City":"South Lake Tahoe","State":"CA","Zip":"96150"},{"Location":"VERDE MEXICAN ROTISSERIE","Address":"3141 Us Highway 50 C2","City":"South Lake Tahoe","State":"CA","Zip":"96150"},{"Location":"VINNYS TAHOE PIZZARIA","Address":"3940 Lake Tahoe Blvd 2","City":"South Lake Tahoe","State":"CA","Zip":"96150"},{"Location":"WHISKEY DICK'S SALOON","Address":"2660 Lake Tahoe Blvd 1a","City":"South Lake Tahoe","State":"CA","Zip":"96150"}]