[{"Location":"1882 BAR AND GRILL","Address":"10009 E River St","City":"Truckee","State":"CA","Zip":"96161"},{"Location":"BAR OF AMERICA%2C INC.","Address":"10040 Donner Pass Rd","City":"Truckee","State":"CA","Zip":"96161"},{"Location":"BELLA LAGO AESTHETICS","Address":"10800 Donner Pass Rd A103","City":"Truckee","State":"CA","Zip":"96161"},{"Location":"BILL'S ROTISSERIS","Address":"11355 Deerfield Dr","City":"Truckee","State":"CA","Zip":"96161"},{"Location":"BLUE COYOTE BAR & GRILL","Address":"10015 Palisades Dr D","City":"Truckee","State":"CA","Zip":"96161"},{"Location":"BURGER ME","Address":"10418 Donner Pass Rd","City":"Truckee","State":"CA","Zip":"96161"},{"Location":"CAREFLIGHT","Address":"12111 Chandelle Way","City":"Truckee","State":"CA","Zip":"96161"},{"Location":"CENTER FOR HEALTH & SPORTS","Address":"10710 Donner Pass Rd","City":"Truckee","State":"CA","Zip":"96161"},{"Location":"COFFEE BAR","Address":"10120 Jibboom St","City":"Truckee","State":"CA","Zip":"96161"},{"Location":"COYOTE MOON","Address":"10685 Northwoods Blvd","City":"Truckee","State":"CA","Zip":"96161"},{"Location":"DMB HIGHLAND GROUP","Address":"8421 Newhall Dr","City":"Truckee","State":"CA","Zip":"96161"},{"Location":"DONNER TRUCKEE VETERINARY HOSP","Address":"9701 Hwy 267","City":"Truckee","State":"CA","Zip":"96161"},{"Location":"EL TORO BRAVO","Address":"10186 Donner Pass Rd","City":"Truckee","State":"CA","Zip":"96161"},{"Location":"FERGUSON #3175","Address":"10640 Pioneer Trl","City":"Truckee","State":"CA","Zip":"96161"},{"Location":"FIFTY FIFTY BREWING COMPANYS","Address":"11197 Brockway Rd 1","City":"Truckee","State":"CA","Zip":"96161"},{"Location":"FRONT STREET STATION","Address":"11782 Donner Pass Rd","City":"Truckee","State":"CA","Zip":"96161"},{"Location":"HIGH SIERRA TOWING","Address":"11035 Trails End Rd","City":"Truckee","State":"CA","Zip":"96161"},{"Location":"JAX TRUCKEE DINER","Address":"10144 W River St","City":"Truckee","State":"CA","Zip":"96161"},{"Location":"JUSTIN MOORE AUTOMOTIVE INC","Address":"10434 River Park Pl 2","City":"Truckee","State":"CA","Zip":"96161"},{"Location":"KBY HOLDING INC","Address":"11355 Donner Pass Rd","City":"Truckee","State":"CA","Zip":"96161"},{"Location":"L AND P HOLDINGS LIMITED","Address":"10164 Donner Pass Rd 2","City":"Truckee","State":"CA","Zip":"96161"},{"Location":"LA BAMBA","Address":"11760 Donner Pass Rd","City":"Truckee","State":"CA","Zip":"96161"},{"Location":"LAHONTAN GOLF CLUB","Address":"12700 Lodgetrail Dr","City":"Truckee","State":"CA","Zip":"96161"},{"Location":"LARKSPUR HOTEL TRUCKEE TAHOE","Address":"11331 Brockway Rd","City":"Truckee","State":"CA","Zip":"96161"},{"Location":"MARTIS  CAMP  REALTY","Address":"12000 Lodgetrail Dr","City":"Truckee","State":"CA","Zip":"96161"},{"Location":"MARTIS CAMP CLUB","Address":"7901 Fleur Du Lac Dr","City":"Truckee","State":"CA","Zip":"96161"},{"Location":"MARTIS CAMP LODGE","Address":"7951 Fleur Du Lac Ct","City":"Truckee","State":"CA","Zip":"96161"},{"Location":"MARTIS CAMP MTN CLUBHOUS","Address":"8200 Fallen Leaf Way","City":"Truckee","State":"CA","Zip":"96161"},{"Location":"MARTYS CAFE LLC","Address":"10115 Donner Pass Rd C","City":"Truckee","State":"CA","Zip":"96161"},{"Location":"RENEWAL DERMATOLOGY","Address":"10870 Brockway Rd","City":"Truckee","State":"CA","Zip":"96161"},{"Location":"ROUND TABLE PIZZA #728","Address":"11200 Donner Pass Rd 7","City":"Truckee","State":"CA","Zip":"96161"},{"Location":"SCHAFFERS MILL CLUB","Address":"9045 Heartwood Dr","City":"Truckee","State":"CA","Zip":"96161"},{"Location":"SIERRA VILLAGE APARTMENT","Address":"10081 Martis Valley Rd","City":"Truckee","State":"CA","Zip":"96161"},{"Location":"SMOKEYS KITCHEN","Address":"12036 Donner Pass Rd","City":"Truckee","State":"CA","Zip":"96161"},{"Location":"STONES TIRE","Address":"11000 Comstock","City":"Truckee","State":"CA","Zip":"96161"},{"Location":"T & T NAILS","Address":"10770 Donner Pass Rd 102","City":"Truckee","State":"CA","Zip":"96161"},{"Location":"TAHOE DONNER ASSOC","Address":"11509 Northwoods Blvd","City":"Truckee","State":"CA","Zip":"96161"},{"Location":"TC'S PUB","Address":"2000 North Village Dr 2018","City":"Truckee","State":"CA","Zip":"96161"},{"Location":"TC'S PUB","Address":"2000 North Village Dr Ste 2018","City":"Truckee","State":"CA","Zip":"96161"},{"Location":"TCS PUB","Address":"2000 North Village Drive Suite 2018","City":"Truckee","State":"CA","Zip":"96161"},{"Location":"THE LODGE AT TAHOE DONNER","Address":"12850 Northwoods Blvd","City":"Truckee","State":"CA","Zip":"96161"},{"Location":"THE RITZ CARLTON HIGHL 0067877","Address":"13005 Ritz Carlton Highlands Ct","City":"Truckee","State":"CA","Zip":"96161"},{"Location":"THE TOURIST CLUB","Address":"10110 Donner Pass Rd","City":"Truckee","State":"CA","Zip":"96161"},{"Location":"TOWN & COUNTRY STORAGE","Address":"40155 Truckee Airport Rd","City":"Truckee","State":"CA","Zip":"96161"},{"Location":"TRUCKEE FIRE DISTRICT","Address":"10277 Truckee Airport Rd","City":"Truckee","State":"CA","Zip":"96161"},{"Location":"TRUCKEE RIVER WINERY","Address":"11467 Brockway Rd","City":"Truckee","State":"CA","Zip":"96161"},{"Location":"TRUCKEE TAHOE AUTO SALES","Address":"40161 Truckee Airport Rd","City":"Truckee","State":"CA","Zip":"96161"},{"Location":"US FOREST SERVICE","Address":"9646 Donner Pass Rd","City":"Truckee","State":"CA","Zip":"96161"},{"Location":"US FORREST SERVICES","Address":"10866 Stockrest Spring Rd","City":"Truckee","State":"CA","Zip":"96161"},{"Location":"VALIDUS GROWTH INVESTORS","Address":"12277 Soaring Way 205","City":"Truckee","State":"CA","Zip":"96161"},{"Location":"VANDYKE LAW GROUP","Address":"12277 Soaring Way 206","City":"Truckee","State":"CA","Zip":"96161"},{"Location":"WAGON TRAIN COFFEE SHOP","Address":"10080 Donner Pass Rd","City":"Truckee","State":"CA","Zip":"96161"},{"Location":"ZANOS PIZZA","Address":"11401 Donner Pass Rd","City":"Truckee","State":"CA","Zip":"96161"}]